[{"name":"Adalbert-Stifter-Str.","postalCode":"65719","locality":"Hofheim am Taunus","municipality":{"key":"06436007","name":"Hofheim am Taunus, Kreisstadt","type":"Stadt"},"district":{"key":"06436","name":"Main-Taunus-Kreis","type":"Landkreis"},"federalState":{"key":"06","name":"Hessen"}},{"name":"Adolf-Mohr-Anlage","postalCode":"65719","locality":"Hofheim am Taunus","municipality":{"key":"06436007","name":"Hofheim am Taunus, Kreisstadt","type":"Stadt"},"district":{"key":"06436","name":"Main-Taunus-Kreis","type":"Landkreis"},"federalState":{"key":"06","name":"Hessen"}},{"name":"Adolph-Kolping-Str.","postalCode":"65719","locality":"Hofheim am Taunus","municipality":{"key":"06436007","name":"Hofheim am Taunus, Kreisstadt","type":"Stadt"},"district":{"key":"06436","name":"Main-Taunus-Kreis","type":"Landkreis"},"federalState":{"key":"06","name":"Hessen"}},{"name":"Ahornstr.","postalCode":"65719","locality":"Hofheim am Taunus","municipality":{"key":"06436007","name":"Hofheim am Taunus, Kreisstadt","type":"Stadt"},"district":{"key":"06436","name":"Main-Taunus-Kreis","type":"Landkreis"},"federalState":{"key":"06","name":"Hessen"}},{"name":"Akazienweg","postalCode":"65719","locality":"Hofheim am Taunus","municipality":{"key":"06436007","name":"Hofheim am Taunus, Kreisstadt","type":"Stadt"},"district":{"key":"06436","name":"Main-Taunus-Kreis","type":"Landkreis"},"federalState":{"key":"06","name":"Hessen"}},{"name":"Albertsweg","postalCode":"65719","locality":"Hofheim am Taunus","municipality":{"key":"06436007","name":"Hofheim am Taunus, Kreisstadt","type":"Stadt"},"district":{"key":"06436","name":"Main-Taunus-Kreis","type":"Landkreis"},"federalState":{"key":"06","name":"Hessen"}},{"name":"Alemannenweg","postalCode":"65719","locality":"Hofheim am Taunus","municipality":{"key":"06436007","name":"Hofheim am Taunus, Kreisstadt","type":"Stadt"},"district":{"key":"06436","name":"Main-Taunus-Kreis","type":"Landkreis"},"federalState":{"key":"06","name":"Hessen"}},{"name":"Alte Bleiche","postalCode":"65719","locality":"Hofheim am Taunus","municipality":{"key":"06436007","name":"Hofheim am Taunus, Kreisstadt","type":"Stadt"},"district":{"key":"06436","name":"Main-Taunus-Kreis","type":"Landkreis"},"federalState":{"key":"06","name":"Hessen"}},{"name":"Alteburgweg","postalCode":"65719","locality":"Hofheim am Taunus","municipality":{"key":"06436007","name":"Hofheim am Taunus, Kreisstadt","type":"Stadt"},"district":{"key":"06436","name":"Main-Taunus-Kreis","type":"Landkreis"},"federalState":{"key":"06","name":"Hessen"}},{"name":"Altenhainer Str.","postalCode":"65719","locality":"Hofheim am Taunus","municipality":{"key":"06436007","name":"Hofheim am Taunus, Kreisstadt","type":"Stadt"},"district":{"key":"06436","name":"Main-Taunus-Kreis","type":"Landkreis"},"federalState":{"key":"06","name":"Hessen"}},{"name":"Alter Schlittenweg","postalCode":"65719","locality":"Hofheim am Taunus","municipality":{"key":"06436007","name":"Hofheim am Taunus, Kreisstadt","type":"Stadt"},"district":{"key":"06436","name":"Main-Taunus-Kreis","type":"Landkreis"},"federalState":{"key":"06","name":"Hessen"}},{"name":"Altkönigstr.","postalCode":"65719","locality":"Hofheim am Taunus","municipality":{"key":"06436007","name":"Hofheim am Taunus, Kreisstadt","type":"Stadt"},"district":{"key":"06436","name":"Main-Taunus-Kreis","type":"Landkreis"},"federalState":{"key":"06","name":"Hessen"}},{"name":"Alt Langenhain","postalCode":"65719","locality":"Hofheim am Taunus","municipality":{"key":"06436007","name":"Hofheim am Taunus, Kreisstadt","type":"Stadt"},"district":{"key":"06436","name":"Main-Taunus-Kreis","type":"Landkreis"},"federalState":{"key":"06","name":"Hessen"}},{"name":"Alt Lorsbach","postalCode":"65719","locality":"Hofheim am Taunus","municipality":{"key":"06436007","name":"Hofheim am Taunus, Kreisstadt","type":"Stadt"},"district":{"key":"06436","name":"Main-Taunus-Kreis","type":"Landkreis"},"federalState":{"key":"06","name":"Hessen"}},{"name":"Alt Wildsachsen","postalCode":"65719","locality":"Hofheim am Taunus","municipality":{"key":"06436007","name":"Hofheim am Taunus, Kreisstadt","type":"Stadt"},"district":{"key":"06436","name":"Main-Taunus-Kreis","type":"Landkreis"},"federalState":{"key":"06","name":"Hessen"}},{"name":"Am Alten Bach","postalCode":"65719","locality":"Hofheim am Taunus","municipality":{"key":"06436007","name":"Hofheim am Taunus, Kreisstadt","type":"Stadt"},"district":{"key":"06436","name":"Main-Taunus-Kreis","type":"Landkreis"},"federalState":{"key":"06","name":"Hessen"}},{"name":"Am Alten Birnbaum","postalCode":"65719","locality":"Hofheim am Taunus","municipality":{"key":"06436007","name":"Hofheim am Taunus, Kreisstadt","type":"Stadt"},"district":{"key":"06436","name":"Main-Taunus-Kreis","type":"Landkreis"},"federalState":{"key":"06","name":"Hessen"}},{"name":"Am Ambetbrunnen","postalCode":"65719","locality":"Hofheim am Taunus","municipality":{"key":"06436007","name":"Hofheim am Taunus, Kreisstadt","type":"Stadt"},"district":{"key":"06436","name":"Main-Taunus-Kreis","type":"Landkreis"},"federalState":{"key":"06","name":"Hessen"}},{"name":"Am Bahnhof","postalCode":"65719","locality":"Hofheim am Taunus","municipality":{"key":"06436007","name":"Hofheim am Taunus, Kreisstadt","type":"Stadt"},"district":{"key":"06436","name":"Main-Taunus-Kreis","type":"Landkreis"},"federalState":{"key":"06","name":"Hessen"}},{"name":"Am Bangert","postalCode":"65719","locality":"Hofheim am Taunus","municipality":{"key":"06436007","name":"Hofheim am Taunus, Kreisstadt","type":"Stadt"},"district":{"key":"06436","name":"Main-Taunus-Kreis","type":"Landkreis"},"federalState":{"key":"06","name":"Hessen"}},{"name":"Am Berg","postalCode":"65719","locality":"Hofheim am Taunus","municipality":{"key":"06436007","name":"Hofheim am Taunus, Kreisstadt","type":"Stadt"},"district":{"key":"06436","name":"Main-Taunus-Kreis","type":"Landkreis"},"federalState":{"key":"06","name":"Hessen"}},{"name":"Am Bittelgut","postalCode":"65719","locality":"Hofheim am Taunus","municipality":{"key":"06436007","name":"Hofheim am Taunus, Kreisstadt","type":"Stadt"},"district":{"key":"06436","name":"Main-Taunus-Kreis","type":"Landkreis"},"federalState":{"key":"06","name":"Hessen"}},{"name":"Am Born","postalCode":"65719","locality":"Hofheim am Taunus","municipality":{"key":"06436007","name":"Hofheim am Taunus, Kreisstadt","type":"Stadt"},"district":{"key":"06436","name":"Main-Taunus-Kreis","type":"Landkreis"},"federalState":{"key":"06","name":"Hessen"}},{"name":"Am Bräunling","postalCode":"65719","locality":"Hofheim am Taunus","municipality":{"key":"06436007","name":"Hofheim am Taunus, Kreisstadt","type":"Stadt"},"district":{"key":"06436","name":"Main-Taunus-Kreis","type":"Landkreis"},"federalState":{"key":"06","name":"Hessen"}},{"name":"Am Dachsgraben","postalCode":"65719","locality":"Hofheim am Taunus","municipality":{"key":"06436007","name":"Hofheim am Taunus, Kreisstadt","type":"Stadt"},"district":{"key":"06436","name":"Main-Taunus-Kreis","type":"Landkreis"},"federalState":{"key":"06","name":"Hessen"}},{"name":"Am Domherrnwald","postalCode":"65719","locality":"Hofheim am Taunus","municipality":{"key":"06436007","name":"Hofheim am Taunus, Kreisstadt","type":"Stadt"},"district":{"key":"06436","name":"Main-Taunus-Kreis","type":"Landkreis"},"federalState":{"key":"06","name":"Hessen"}},{"name":"Am Ehrenmal","postalCode":"65719","locality":"Hofheim am Taunus","municipality":{"key":"06436007","name":"Hofheim am Taunus, Kreisstadt","type":"Stadt"},"district":{"key":"06436","name":"Main-Taunus-Kreis","type":"Landkreis"},"federalState":{"key":"06","name":"Hessen"}},{"name":"Am Forsthaus","postalCode":"65719","locality":"Hofheim am Taunus","municipality":{"key":"06436007","name":"Hofheim am Taunus, Kreisstadt","type":"Stadt"},"district":{"key":"06436","name":"Main-Taunus-Kreis","type":"Landkreis"},"federalState":{"key":"06","name":"Hessen"}},{"name":"Am Hang","postalCode":"65719","locality":"Hofheim am Taunus","municipality":{"key":"06436007","name":"Hofheim am Taunus, Kreisstadt","type":"Stadt"},"district":{"key":"06436","name":"Main-Taunus-Kreis","type":"Landkreis"},"federalState":{"key":"06","name":"Hessen"}},{"name":"Am Hasenberg","postalCode":"65719","locality":"Hofheim am Taunus","municipality":{"key":"06436007","name":"Hofheim am Taunus, Kreisstadt","type":"Stadt"},"district":{"key":"06436","name":"Main-Taunus-Kreis","type":"Landkreis"},"federalState":{"key":"06","name":"Hessen"}},{"name":"Am Heiligenstock","postalCode":"65719","locality":"Hofheim am Taunus","municipality":{"key":"06436007","name":"Hofheim am Taunus, Kreisstadt","type":"Stadt"},"district":{"key":"06436","name":"Main-Taunus-Kreis","type":"Landkreis"},"federalState":{"key":"06","name":"Hessen"}},{"name":"Am Helgenstock","postalCode":"65719","locality":"Hofheim am Taunus","municipality":{"key":"06436007","name":"Hofheim am Taunus, Kreisstadt","type":"Stadt"},"district":{"key":"06436","name":"Main-Taunus-Kreis","type":"Landkreis"},"federalState":{"key":"06","name":"Hessen"}},{"name":"Am Hochfeld","postalCode":"65719","locality":"Hofheim am Taunus","municipality":{"key":"06436007","name":"Hofheim am Taunus, Kreisstadt","type":"Stadt"},"district":{"key":"06436","name":"Main-Taunus-Kreis","type":"Landkreis"},"federalState":{"key":"06","name":"Hessen"}},{"name":"Am Hollerbach","postalCode":"65719","locality":"Hofheim am Taunus","municipality":{"key":"06436007","name":"Hofheim am Taunus, Kreisstadt","type":"Stadt"},"district":{"key":"06436","name":"Main-Taunus-Kreis","type":"Landkreis"},"federalState":{"key":"06","name":"Hessen"}},{"name":"Am Hühnerberg","postalCode":"65719","locality":"Hofheim am Taunus","municipality":{"key":"06436007","name":"Hofheim am Taunus, Kreisstadt","type":"Stadt"},"district":{"key":"06436","name":"Main-Taunus-Kreis","type":"Landkreis"},"federalState":{"key":"06","name":"Hessen"}},{"name":"Am Jagdhaus","postalCode":"65719","locality":"Hofheim am Taunus","municipality":{"key":"06436007","name":"Hofheim am Taunus, Kreisstadt","type":"Stadt"},"district":{"key":"06436","name":"Main-Taunus-Kreis","type":"Landkreis"},"federalState":{"key":"06","name":"Hessen"}},{"name":"Am Kasernbach","postalCode":"65719","locality":"Hofheim am Taunus","municipality":{"key":"06436007","name":"Hofheim am Taunus, Kreisstadt","type":"Stadt"},"district":{"key":"06436","name":"Main-Taunus-Kreis","type":"Landkreis"},"federalState":{"key":"06","name":"Hessen"}},{"name":"Am Kellersberg","postalCode":"65719","locality":"Hofheim am Taunus","municipality":{"key":"06436007","name":"Hofheim am Taunus, Kreisstadt","type":"Stadt"},"district":{"key":"06436","name":"Main-Taunus-Kreis","type":"Landkreis"},"federalState":{"key":"06","name":"Hessen"}},{"name":"Am Kiefernhain","postalCode":"65719","locality":"Hofheim am Taunus","municipality":{"key":"06436007","name":"Hofheim am Taunus, Kreisstadt","type":"Stadt"},"district":{"key":"06436","name":"Main-Taunus-Kreis","type":"Landkreis"},"federalState":{"key":"06","name":"Hessen"}},{"name":"Am Kleeplacken","postalCode":"65719","locality":"Hofheim am Taunus","municipality":{"key":"06436007","name":"Hofheim am Taunus, Kreisstadt","type":"Stadt"},"district":{"key":"06436","name":"Main-Taunus-Kreis","type":"Landkreis"},"federalState":{"key":"06","name":"Hessen"}},{"name":"Am kleinen Feld","postalCode":"65719","locality":"Hofheim am Taunus","municipality":{"key":"06436007","name":"Hofheim am Taunus, Kreisstadt","type":"Stadt"},"district":{"key":"06436","name":"Main-Taunus-Kreis","type":"Landkreis"},"federalState":{"key":"06","name":"Hessen"}},{"name":"Am Klingenborn","postalCode":"65719","locality":"Hofheim am Taunus","municipality":{"key":"06436007","name":"Hofheim am Taunus, Kreisstadt","type":"Stadt"},"district":{"key":"06436","name":"Main-Taunus-Kreis","type":"Landkreis"},"federalState":{"key":"06","name":"Hessen"}},{"name":"Am Kreishaus","postalCode":"65719","locality":"Hofheim am Taunus","municipality":{"key":"06436007","name":"Hofheim am Taunus, Kreisstadt","type":"Stadt"},"district":{"key":"06436","name":"Main-Taunus-Kreis","type":"Landkreis"},"federalState":{"key":"06","name":"Hessen"}},{"name":"Am Linsenberg","postalCode":"65719","locality":"Hofheim am Taunus","municipality":{"key":"06436007","name":"Hofheim am Taunus, Kreisstadt","type":"Stadt"},"district":{"key":"06436","name":"Main-Taunus-Kreis","type":"Landkreis"},"federalState":{"key":"06","name":"Hessen"}},{"name":"Am Lorsbacher Kopf","postalCode":"65719","locality":"Hofheim am Taunus","municipality":{"key":"06436007","name":"Hofheim am Taunus, Kreisstadt","type":"Stadt"},"district":{"key":"06436","name":"Main-Taunus-Kreis","type":"Landkreis"},"federalState":{"key":"06","name":"Hessen"}},{"name":"Am Lotzenwald","postalCode":"65719","locality":"Hofheim am Taunus","municipality":{"key":"06436007","name":"Hofheim am Taunus, Kreisstadt","type":"Stadt"},"district":{"key":"06436","name":"Main-Taunus-Kreis","type":"Landkreis"},"federalState":{"key":"06","name":"Hessen"}},{"name":"Ammernweg","postalCode":"65719","locality":"Hofheim am Taunus","municipality":{"key":"06436007","name":"Hofheim am Taunus, Kreisstadt","type":"Stadt"},"district":{"key":"06436","name":"Main-Taunus-Kreis","type":"Landkreis"},"federalState":{"key":"06","name":"Hessen"}},{"name":"Am Nachtschatten","postalCode":"65719","locality":"Hofheim am Taunus","municipality":{"key":"06436007","name":"Hofheim am Taunus, Kreisstadt","type":"Stadt"},"district":{"key":"06436","name":"Main-Taunus-Kreis","type":"Landkreis"},"federalState":{"key":"06","name":"Hessen"}},{"name":"Am Naturfreundehaus","postalCode":"65719","locality":"Hofheim am Taunus","municipality":{"key":"06436007","name":"Hofheim am Taunus, Kreisstadt","type":"Stadt"},"district":{"key":"06436","name":"Main-Taunus-Kreis","type":"Landkreis"},"federalState":{"key":"06","name":"Hessen"}},{"name":"Am Obertor","postalCode":"65719","locality":"Hofheim am Taunus","municipality":{"key":"06436007","name":"Hofheim am Taunus, Kreisstadt","type":"Stadt"},"district":{"key":"06436","name":"Main-Taunus-Kreis","type":"Landkreis"},"federalState":{"key":"06","name":"Hessen"}},{"name":"Bachgasse","postalCode":"65719","locality":"Hofheim am Taunus","municipality":{"key":"06436007","name":"Hofheim am Taunus, Kreisstadt","type":"Stadt"},"district":{"key":"06436","name":"Main-Taunus-Kreis","type":"Landkreis"},"federalState":{"key":"06","name":"Hessen"}},{"name":"Bachstelzenweg","postalCode":"65719","locality":"Hofheim am Taunus","municipality":{"key":"06436007","name":"Hofheim am Taunus, Kreisstadt","type":"Stadt"},"district":{"key":"06436","name":"Main-Taunus-Kreis","type":"Landkreis"},"federalState":{"key":"06","name":"Hessen"}},{"name":"Bahnstr.","postalCode":"65719","locality":"Hofheim am Taunus","municipality":{"key":"06436007","name":"Hofheim am Taunus, Kreisstadt","type":"Stadt"},"district":{"key":"06436","name":"Main-Taunus-Kreis","type":"Landkreis"},"federalState":{"key":"06","name":"Hessen"}},{"name":"Bahnweg","postalCode":"65719","locality":"Hofheim am Taunus","municipality":{"key":"06436007","name":"Hofheim am Taunus, Kreisstadt","type":"Stadt"},"district":{"key":"06436","name":"Main-Taunus-Kreis","type":"Landkreis"},"federalState":{"key":"06","name":"Hessen"}},{"name":"Bärengasse","postalCode":"65719","locality":"Hofheim am Taunus","municipality":{"key":"06436007","name":"Hofheim am Taunus, Kreisstadt","type":"Stadt"},"district":{"key":"06436","name":"Main-Taunus-Kreis","type":"Landkreis"},"federalState":{"key":"06","name":"Hessen"}},{"name":"Baustr.","postalCode":"65719","locality":"Hofheim am Taunus","municipality":{"key":"06436007","name":"Hofheim am Taunus, Kreisstadt","type":"Stadt"},"district":{"key":"06436","name":"Main-Taunus-Kreis","type":"Landkreis"},"federalState":{"key":"06","name":"Hessen"}},{"name":"Bergweg","postalCode":"65719","locality":"Hofheim am Taunus","municipality":{"key":"06436007","name":"Hofheim am Taunus, Kreisstadt","type":"Stadt"},"district":{"key":"06436","name":"Main-Taunus-Kreis","type":"Landkreis"},"federalState":{"key":"06","name":"Hessen"}},{"name":"Berliner Str.","postalCode":"65719","locality":"Hofheim am Taunus","municipality":{"key":"06436007","name":"Hofheim am Taunus, Kreisstadt","type":"Stadt"},"district":{"key":"06436","name":"Main-Taunus-Kreis","type":"Landkreis"},"federalState":{"key":"06","name":"Hessen"}},{"name":"Bienerstr.","postalCode":"65719","locality":"Hofheim am Taunus","municipality":{"key":"06436007","name":"Hofheim am Taunus, Kreisstadt","type":"Stadt"},"district":{"key":"06436","name":"Main-Taunus-Kreis","type":"Landkreis"},"federalState":{"key":"06","name":"Hessen"}},{"name":"Birkenweg","postalCode":"65719","locality":"Hofheim am Taunus","municipality":{"key":"06436007","name":"Hofheim am Taunus, Kreisstadt","type":"Stadt"},"district":{"key":"06436","name":"Main-Taunus-Kreis","type":"Landkreis"},"federalState":{"key":"06","name":"Hessen"}},{"name":"Bleichstr.","postalCode":"65719","locality":"Hofheim am Taunus","municipality":{"key":"06436007","name":"Hofheim am Taunus, Kreisstadt","type":"Stadt"},"district":{"key":"06436","name":"Main-Taunus-Kreis","type":"Landkreis"},"federalState":{"key":"06","name":"Hessen"}},{"name":"Bleidenstädter Äcker","postalCode":"65719","locality":"Hofheim am Taunus","municipality":{"key":"06436007","name":"Hofheim am Taunus, Kreisstadt","type":"Stadt"},"district":{"key":"06436","name":"Main-Taunus-Kreis","type":"Landkreis"},"federalState":{"key":"06","name":"Hessen"}},{"name":"Bornstr.","postalCode":"65719","locality":"Hofheim am Taunus","municipality":{"key":"06436007","name":"Hofheim am Taunus, Kreisstadt","type":"Stadt"},"district":{"key":"06436","name":"Main-Taunus-Kreis","type":"Landkreis"},"federalState":{"key":"06","name":"Hessen"}},{"name":"Brandenburger Weg","postalCode":"65719","locality":"Hofheim am Taunus","municipality":{"key":"06436007","name":"Hofheim am Taunus, Kreisstadt","type":"Stadt"},"district":{"key":"06436","name":"Main-Taunus-Kreis","type":"Landkreis"},"federalState":{"key":"06","name":"Hessen"}},{"name":"Breckenheimer Str.","postalCode":"65719","locality":"Hofheim am Taunus","municipality":{"key":"06436007","name":"Hofheim am Taunus, Kreisstadt","type":"Stadt"},"district":{"key":"06436","name":"Main-Taunus-Kreis","type":"Landkreis"},"federalState":{"key":"06","name":"Hessen"}},{"name":"Breckenheimer Weg","postalCode":"65719","locality":"Hofheim am Taunus","municipality":{"key":"06436007","name":"Hofheim am Taunus, Kreisstadt","type":"Stadt"},"district":{"key":"06436","name":"Main-Taunus-Kreis","type":"Landkreis"},"federalState":{"key":"06","name":"Hessen"}},{"name":"Bremthaler Weg","postalCode":"65719","locality":"Hofheim am Taunus","municipality":{"key":"06436007","name":"Hofheim am Taunus, Kreisstadt","type":"Stadt"},"district":{"key":"06436","name":"Main-Taunus-Kreis","type":"Landkreis"},"federalState":{"key":"06","name":"Hessen"}},{"name":"Breslauer Weg","postalCode":"65719","locality":"Hofheim am Taunus","municipality":{"key":"06436007","name":"Hofheim am Taunus, Kreisstadt","type":"Stadt"},"district":{"key":"06436","name":"Main-Taunus-Kreis","type":"Landkreis"},"federalState":{"key":"06","name":"Hessen"}},{"name":"Brotweg","postalCode":"65719","locality":"Hofheim am Taunus","municipality":{"key":"06436007","name":"Hofheim am Taunus, Kreisstadt","type":"Stadt"},"district":{"key":"06436","name":"Main-Taunus-Kreis","type":"Landkreis"},"federalState":{"key":"06","name":"Hessen"}},{"name":"Brückenstr.","postalCode":"65719","locality":"Hofheim am Taunus","municipality":{"key":"06436007","name":"Hofheim am Taunus, Kreisstadt","type":"Stadt"},"district":{"key":"06436","name":"Main-Taunus-Kreis","type":"Landkreis"},"federalState":{"key":"06","name":"Hessen"}},{"name":"Brühlstr.","postalCode":"65719","locality":"Hofheim am Taunus","municipality":{"key":"06436007","name":"Hofheim am Taunus, Kreisstadt","type":"Stadt"},"district":{"key":"06436","name":"Main-Taunus-Kreis","type":"Landkreis"},"federalState":{"key":"06","name":"Hessen"}},{"name":"Brunnenweg","postalCode":"65719","locality":"Hofheim am Taunus","municipality":{"key":"06436007","name":"Hofheim am Taunus, Kreisstadt","type":"Stadt"},"district":{"key":"06436","name":"Main-Taunus-Kreis","type":"Landkreis"},"federalState":{"key":"06","name":"Hessen"}},{"name":"Buchengasse","postalCode":"65719","locality":"Hofheim am Taunus","municipality":{"key":"06436007","name":"Hofheim am Taunus, Kreisstadt","type":"Stadt"},"district":{"key":"06436","name":"Main-Taunus-Kreis","type":"Landkreis"},"federalState":{"key":"06","name":"Hessen"}},{"name":"Burggrabengäßchen","postalCode":"65719","locality":"Hofheim am Taunus","municipality":{"key":"06436007","name":"Hofheim am Taunus, Kreisstadt","type":"Stadt"},"district":{"key":"06436","name":"Main-Taunus-Kreis","type":"Landkreis"},"federalState":{"key":"06","name":"Hessen"}},{"name":"Burggrabenstr.","postalCode":"65719","locality":"Hofheim am Taunus","municipality":{"key":"06436007","name":"Hofheim am Taunus, Kreisstadt","type":"Stadt"},"district":{"key":"06436","name":"Main-Taunus-Kreis","type":"Landkreis"},"federalState":{"key":"06","name":"Hessen"}},{"name":"Burgstr.","postalCode":"65719","locality":"Hofheim am Taunus","municipality":{"key":"06436007","name":"Hofheim am Taunus, Kreisstadt","type":"Stadt"},"district":{"key":"06436","name":"Main-Taunus-Kreis","type":"Landkreis"},"federalState":{"key":"06","name":"Hessen"}},{"name":"Burlachinstr.","postalCode":"65719","locality":"Hofheim am Taunus","municipality":{"key":"06436007","name":"Hofheim am Taunus, Kreisstadt","type":"Stadt"},"district":{"key":"06436","name":"Main-Taunus-Kreis","type":"Landkreis"},"federalState":{"key":"06","name":"Hessen"}},{"name":"Bussardweg","postalCode":"65719","locality":"Hofheim am Taunus","municipality":{"key":"06436007","name":"Hofheim am Taunus, Kreisstadt","type":"Stadt"},"district":{"key":"06436","name":"Main-Taunus-Kreis","type":"Landkreis"},"federalState":{"key":"06","name":"Hessen"}},{"name":"Casteller Str.","postalCode":"65719","locality":"Hofheim am Taunus","municipality":{"key":"06436007","name":"Hofheim am Taunus, Kreisstadt","type":"Stadt"},"district":{"key":"06436","name":"Main-Taunus-Kreis","type":"Landkreis"},"federalState":{"key":"06","name":"Hessen"}},{"name":"Chattenstr.","postalCode":"65719","locality":"Hofheim am Taunus","municipality":{"key":"06436007","name":"Hofheim am Taunus, Kreisstadt","type":"Stadt"},"district":{"key":"06436","name":"Main-Taunus-Kreis","type":"Landkreis"},"federalState":{"key":"06","name":"Hessen"}},{"name":"Cheruskerstr.","postalCode":"65719","locality":"Hofheim am Taunus","municipality":{"key":"06436007","name":"Hofheim am Taunus, Kreisstadt","type":"Stadt"},"district":{"key":"06436","name":"Main-Taunus-Kreis","type":"Landkreis"},"federalState":{"key":"06","name":"Hessen"}},{"name":"Chinonplatz","postalCode":"65719","locality":"Hofheim am Taunus","municipality":{"key":"06436007","name":"Hofheim am Taunus, Kreisstadt","type":"Stadt"},"district":{"key":"06436","name":"Main-Taunus-Kreis","type":"Landkreis"},"federalState":{"key":"06","name":"Hessen"}},{"name":"Cimbernstr.","postalCode":"65719","locality":"Hofheim am Taunus","municipality":{"key":"06436007","name":"Hofheim am Taunus, Kreisstadt","type":"Stadt"},"district":{"key":"06436","name":"Main-Taunus-Kreis","type":"Landkreis"},"federalState":{"key":"06","name":"Hessen"}},{"name":"Cohausenstr.","postalCode":"65719","locality":"Hofheim am Taunus","municipality":{"key":"06436007","name":"Hofheim am Taunus, Kreisstadt","type":"Stadt"},"district":{"key":"06436","name":"Main-Taunus-Kreis","type":"Landkreis"},"federalState":{"key":"06","name":"Hessen"}},{"name":"Dachsweg","postalCode":"65719","locality":"Hofheim am Taunus","municipality":{"key":"06436007","name":"Hofheim am Taunus, Kreisstadt","type":"Stadt"},"district":{"key":"06436","name":"Main-Taunus-Kreis","type":"Landkreis"},"federalState":{"key":"06","name":"Hessen"}},{"name":"Danziger Weg","postalCode":"65719","locality":"Hofheim am Taunus","municipality":{"key":"06436007","name":"Hofheim am Taunus, Kreisstadt","type":"Stadt"},"district":{"key":"06436","name":"Main-Taunus-Kreis","type":"Landkreis"},"federalState":{"key":"06","name":"Hessen"}},{"name":"Delkenheimer Str.","postalCode":"65719","locality":"Hofheim am Taunus","municipality":{"key":"06436007","name":"Hofheim am Taunus, Kreisstadt","type":"Stadt"},"district":{"key":"06436","name":"Main-Taunus-Kreis","type":"Landkreis"},"federalState":{"key":"06","name":"Hessen"}},{"name":"Diedenberger Schneise","postalCode":"65719","locality":"Hofheim am Taunus","municipality":{"key":"06436007","name":"Hofheim am Taunus, Kreisstadt","type":"Stadt"},"district":{"key":"06436","name":"Main-Taunus-Kreis","type":"Landkreis"},"federalState":{"key":"06","name":"Hessen"}},{"name":"Diedenberger Str.","postalCode":"65719","locality":"Hofheim am Taunus","municipality":{"key":"06436007","name":"Hofheim am Taunus, Kreisstadt","type":"Stadt"},"district":{"key":"06436","name":"Main-Taunus-Kreis","type":"Landkreis"},"federalState":{"key":"06","name":"Hessen"}},{"name":"Die Hobelheck","postalCode":"65719","locality":"Hofheim am Taunus","municipality":{"key":"06436007","name":"Hofheim am Taunus, Kreisstadt","type":"Stadt"},"district":{"key":"06436","name":"Main-Taunus-Kreis","type":"Landkreis"},"federalState":{"key":"06","name":"Hessen"}},{"name":"Doktor-Rohmer-Weg","postalCode":"65719","locality":"Hofheim am Taunus","municipality":{"key":"06436007","name":"Hofheim am Taunus, Kreisstadt","type":"Stadt"},"district":{"key":"06436","name":"Main-Taunus-Kreis","type":"Landkreis"},"federalState":{"key":"06","name":"Hessen"}},{"name":"Dompfaffweg","postalCode":"65719","locality":"Hofheim am Taunus","municipality":{"key":"06436007","name":"Hofheim am Taunus, Kreisstadt","type":"Stadt"},"district":{"key":"06436","name":"Main-Taunus-Kreis","type":"Landkreis"},"federalState":{"key":"06","name":"Hessen"}},{"name":"Dresdener Weg","postalCode":"65719","locality":"Hofheim am Taunus","municipality":{"key":"06436007","name":"Hofheim am Taunus, Kreisstadt","type":"Stadt"},"district":{"key":"06436","name":"Main-Taunus-Kreis","type":"Landkreis"},"federalState":{"key":"06","name":"Hessen"}},{"name":"Drosselweg","postalCode":"65719","locality":"Hofheim am Taunus","municipality":{"key":"06436007","name":"Hofheim am Taunus, Kreisstadt","type":"Stadt"},"district":{"key":"06436","name":"Main-Taunus-Kreis","type":"Landkreis"},"federalState":{"key":"06","name":"Hessen"}},{"name":"Eddersheimer Str.","postalCode":"65719","locality":"Hofheim am Taunus","municipality":{"key":"06436007","name":"Hofheim am Taunus, Kreisstadt","type":"Stadt"},"district":{"key":"06436","name":"Main-Taunus-Kreis","type":"Landkreis"},"federalState":{"key":"06","name":"Hessen"}},{"name":"Eichbaumweg","postalCode":"65719","locality":"Hofheim am Taunus","municipality":{"key":"06436007","name":"Hofheim am Taunus, Kreisstadt","type":"Stadt"},"district":{"key":"06436","name":"Main-Taunus-Kreis","type":"Landkreis"},"federalState":{"key":"06","name":"Hessen"}},{"name":"Eichendorffstr.","postalCode":"65719","locality":"Hofheim am Taunus","municipality":{"key":"06436007","name":"Hofheim am Taunus, Kreisstadt","type":"Stadt"},"district":{"key":"06436","name":"Main-Taunus-Kreis","type":"Landkreis"},"federalState":{"key":"06","name":"Hessen"}},{"name":"Eichstr.","postalCode":"65719","locality":"Hofheim am Taunus","municipality":{"key":"06436007","name":"Hofheim am Taunus, Kreisstadt","type":"Stadt"},"district":{"key":"06436","name":"Main-Taunus-Kreis","type":"Landkreis"},"federalState":{"key":"06","name":"Hessen"}},{"name":"Eifelstr.","postalCode":"65719","locality":"Hofheim am Taunus","municipality":{"key":"06436007","name":"Hofheim am Taunus, Kreisstadt","type":"Stadt"},"district":{"key":"06436","name":"Main-Taunus-Kreis","type":"Landkreis"},"federalState":{"key":"06","name":"Hessen"}},{"name":"Eitel Mahr-Weg","postalCode":"65719","locality":"Hofheim am Taunus","municipality":{"key":"06436007","name":"Hofheim am Taunus, Kreisstadt","type":"Stadt"},"district":{"key":"06436","name":"Main-Taunus-Kreis","type":"Landkreis"},"federalState":{"key":"06","name":"Hessen"}},{"name":"Elisabethenstr.","postalCode":"65719","locality":"Hofheim am Taunus","municipality":{"key":"06436007","name":"Hofheim am Taunus, Kreisstadt","type":"Stadt"},"district":{"key":"06436","name":"Main-Taunus-Kreis","type":"Landkreis"},"federalState":{"key":"06","name":"Hessen"}},{"name":"Elsternweg","postalCode":"65719","locality":"Hofheim am Taunus","municipality":{"key":"06436007","name":"Hofheim am Taunus, Kreisstadt","type":"Stadt"},"district":{"key":"06436","name":"Main-Taunus-Kreis","type":"Landkreis"},"federalState":{"key":"06","name":"Hessen"}},{"name":"Eltviller Str.","postalCode":"65719","locality":"Hofheim am Taunus","municipality":{"key":"06436007","name":"Hofheim am Taunus, Kreisstadt","type":"Stadt"},"district":{"key":"06436","name":"Main-Taunus-Kreis","type":"Landkreis"},"federalState":{"key":"06","name":"Hessen"}},{"name":"Enge Str.","postalCode":"65719","locality":"Hofheim am Taunus","municipality":{"key":"06436007","name":"Hofheim am Taunus, Kreisstadt","type":"Stadt"},"district":{"key":"06436","name":"Main-Taunus-Kreis","type":"Landkreis"},"federalState":{"key":"06","name":"Hessen"}},{"name":"Eppsteiner Str.","postalCode":"65719","locality":"Hofheim am Taunus","municipality":{"key":"06436007","name":"Hofheim am Taunus, Kreisstadt","type":"Stadt"},"district":{"key":"06436","name":"Main-Taunus-Kreis","type":"Landkreis"},"federalState":{"key":"06","name":"Hessen"}},{"name":"Erbacher Str.","postalCode":"65719","locality":"Hofheim am Taunus","municipality":{"key":"06436007","name":"Hofheim am Taunus, Kreisstadt","type":"Stadt"},"district":{"key":"06436","name":"Main-Taunus-Kreis","type":"Landkreis"},"federalState":{"key":"06","name":"Hessen"}},{"name":"Erfurter Str.","postalCode":"65719","locality":"Hofheim am Taunus","municipality":{"key":"06436007","name":"Hofheim am Taunus, Kreisstadt","type":"Stadt"},"district":{"key":"06436","name":"Main-Taunus-Kreis","type":"Landkreis"},"federalState":{"key":"06","name":"Hessen"}},{"name":"Erlenweg","postalCode":"65719","locality":"Hofheim am Taunus","municipality":{"key":"06436007","name":"Hofheim am Taunus, Kreisstadt","type":"Stadt"},"district":{"key":"06436","name":"Main-Taunus-Kreis","type":"Landkreis"},"federalState":{"key":"06","name":"Hessen"}},{"name":"Erwin-Zeitz-Brücke","postalCode":"65719","locality":"Hofheim am Taunus","municipality":{"key":"06436007","name":"Hofheim am Taunus, Kreisstadt","type":"Stadt"},"district":{"key":"06436","name":"Main-Taunus-Kreis","type":"Landkreis"},"federalState":{"key":"06","name":"Hessen"}},{"name":"Eschborner Weg","postalCode":"65719","locality":"Hofheim am Taunus","municipality":{"key":"06436007","name":"Hofheim am Taunus, Kreisstadt","type":"Stadt"},"district":{"key":"06436","name":"Main-Taunus-Kreis","type":"Landkreis"},"federalState":{"key":"06","name":"Hessen"}},{"name":"Eschenweg","postalCode":"65719","locality":"Hofheim am Taunus","municipality":{"key":"06436007","name":"Hofheim am Taunus, Kreisstadt","type":"Stadt"},"district":{"key":"06436","name":"Main-Taunus-Kreis","type":"Landkreis"},"federalState":{"key":"06","name":"Hessen"}},{"name":"Eselsweg","postalCode":"65719","locality":"Hofheim am Taunus","municipality":{"key":"06436007","name":"Hofheim am Taunus, Kreisstadt","type":"Stadt"},"district":{"key":"06436","name":"Main-Taunus-Kreis","type":"Landkreis"},"federalState":{"key":"06","name":"Hessen"}},{"name":"Falkensteiner Weg","postalCode":"65719","locality":"Hofheim am Taunus","municipality":{"key":"06436007","name":"Hofheim am Taunus, Kreisstadt","type":"Stadt"},"district":{"key":"06436","name":"Main-Taunus-Kreis","type":"Landkreis"},"federalState":{"key":"06","name":"Hessen"}},{"name":"Falkenweg","postalCode":"65719","locality":"Hofheim am Taunus","municipality":{"key":"06436007","name":"Hofheim am Taunus, Kreisstadt","type":"Stadt"},"district":{"key":"06436","name":"Main-Taunus-Kreis","type":"Landkreis"},"federalState":{"key":"06","name":"Hessen"}},{"name":"Fasanenweg","postalCode":"65719","locality":"Hofheim am Taunus","municipality":{"key":"06436007","name":"Hofheim am Taunus, Kreisstadt","type":"Stadt"},"district":{"key":"06436","name":"Main-Taunus-Kreis","type":"Landkreis"},"federalState":{"key":"06","name":"Hessen"}},{"name":"Feldbergstr.","postalCode":"65719","locality":"Hofheim am Taunus","municipality":{"key":"06436007","name":"Hofheim am Taunus, Kreisstadt","type":"Stadt"},"district":{"key":"06436","name":"Main-Taunus-Kreis","type":"Landkreis"},"federalState":{"key":"06","name":"Hessen"}},{"name":"Feldstr.","postalCode":"65719","locality":"Hofheim am Taunus","municipality":{"key":"06436007","name":"Hofheim am Taunus, Kreisstadt","type":"Stadt"},"district":{"key":"06436","name":"Main-Taunus-Kreis","type":"Landkreis"},"federalState":{"key":"06","name":"Hessen"}},{"name":"Fernblick","postalCode":"65719","locality":"Hofheim am Taunus","municipality":{"key":"06436007","name":"Hofheim am Taunus, Kreisstadt","type":"Stadt"},"district":{"key":"06436","name":"Main-Taunus-Kreis","type":"Landkreis"},"federalState":{"key":"06","name":"Hessen"}},{"name":"Fichtestr.","postalCode":"65719","locality":"Hofheim am Taunus","municipality":{"key":"06436007","name":"Hofheim am Taunus, Kreisstadt","type":"Stadt"},"district":{"key":"06436","name":"Main-Taunus-Kreis","type":"Landkreis"},"federalState":{"key":"06","name":"Hessen"}},{"name":"Finkenweg","postalCode":"65719","locality":"Hofheim am Taunus","municipality":{"key":"06436007","name":"Hofheim am Taunus, Kreisstadt","type":"Stadt"},"district":{"key":"06436","name":"Main-Taunus-Kreis","type":"Landkreis"},"federalState":{"key":"06","name":"Hessen"}},{"name":"Fischbacher Weg","postalCode":"65719","locality":"Hofheim am Taunus","municipality":{"key":"06436007","name":"Hofheim am Taunus, Kreisstadt","type":"Stadt"},"district":{"key":"06436","name":"Main-Taunus-Kreis","type":"Landkreis"},"federalState":{"key":"06","name":"Hessen"}},{"name":"Flörsheimer Str.","postalCode":"65719","locality":"Hofheim am Taunus","municipality":{"key":"06436007","name":"Hofheim am Taunus, Kreisstadt","type":"Stadt"},"district":{"key":"06436","name":"Main-Taunus-Kreis","type":"Landkreis"},"federalState":{"key":"06","name":"Hessen"}},{"name":"Floßwaldstr.","postalCode":"65719","locality":"Hofheim am Taunus","municipality":{"key":"06436007","name":"Hofheim am Taunus, Kreisstadt","type":"Stadt"},"district":{"key":"06436","name":"Main-Taunus-Kreis","type":"Landkreis"},"federalState":{"key":"06","name":"Hessen"}},{"name":"Föhrenweg","postalCode":"65719","locality":"Hofheim am Taunus","municipality":{"key":"06436007","name":"Hofheim am Taunus, Kreisstadt","type":"Stadt"},"district":{"key":"06436","name":"Main-Taunus-Kreis","type":"Landkreis"},"federalState":{"key":"06","name":"Hessen"}},{"name":"Frankenstr.","postalCode":"65719","locality":"Hofheim am Taunus","municipality":{"key":"06436007","name":"Hofheim am Taunus, Kreisstadt","type":"Stadt"},"district":{"key":"06436","name":"Main-Taunus-Kreis","type":"Landkreis"},"federalState":{"key":"06","name":"Hessen"}},{"name":"Frankenthal","postalCode":"65719","locality":"Hofheim am Taunus","municipality":{"key":"06436007","name":"Hofheim am Taunus, Kreisstadt","type":"Stadt"},"district":{"key":"06436","name":"Main-Taunus-Kreis","type":"Landkreis"},"federalState":{"key":"06","name":"Hessen"}},{"name":"Frankfurter Str.","postalCode":"65719","locality":"Hofheim am Taunus","municipality":{"key":"06436007","name":"Hofheim am Taunus, Kreisstadt","type":"Stadt"},"district":{"key":"06436","name":"Main-Taunus-Kreis","type":"Landkreis"},"federalState":{"key":"06","name":"Hessen"}},{"name":"Fraßweg","postalCode":"65719","locality":"Hofheim am Taunus","municipality":{"key":"06436007","name":"Hofheim am Taunus, Kreisstadt","type":"Stadt"},"district":{"key":"06436","name":"Main-Taunus-Kreis","type":"Landkreis"},"federalState":{"key":"06","name":"Hessen"}},{"name":"Freiligrathstr.","postalCode":"65719","locality":"Hofheim am Taunus","municipality":{"key":"06436007","name":"Hofheim am Taunus, Kreisstadt","type":"Stadt"},"district":{"key":"06436","name":"Main-Taunus-Kreis","type":"Landkreis"},"federalState":{"key":"06","name":"Hessen"}},{"name":"Friedensstr.","postalCode":"65719","locality":"Hofheim am Taunus","municipality":{"key":"06436007","name":"Hofheim am Taunus, Kreisstadt","type":"Stadt"},"district":{"key":"06436","name":"Main-Taunus-Kreis","type":"Landkreis"},"federalState":{"key":"06","name":"Hessen"}},{"name":"Friedhofstr.","postalCode":"65719","locality":"Hofheim am Taunus","municipality":{"key":"06436007","name":"Hofheim am Taunus, Kreisstadt","type":"Stadt"},"district":{"key":"06436","name":"Main-Taunus-Kreis","type":"Landkreis"},"federalState":{"key":"06","name":"Hessen"}},{"name":"Friedhofsweg","postalCode":"65719","locality":"Hofheim am Taunus","municipality":{"key":"06436007","name":"Hofheim am Taunus, Kreisstadt","type":"Stadt"},"district":{"key":"06436","name":"Main-Taunus-Kreis","type":"Landkreis"},"federalState":{"key":"06","name":"Hessen"}},{"name":"Friedrich-Ebert-Str.","postalCode":"65719","locality":"Hofheim am Taunus","municipality":{"key":"06436007","name":"Hofheim am Taunus, Kreisstadt","type":"Stadt"},"district":{"key":"06436","name":"Main-Taunus-Kreis","type":"Landkreis"},"federalState":{"key":"06","name":"Hessen"}},{"name":"Fuchsweg","postalCode":"65719","locality":"Hofheim am Taunus","municipality":{"key":"06436007","name":"Hofheim am Taunus, Kreisstadt","type":"Stadt"},"district":{"key":"06436","name":"Main-Taunus-Kreis","type":"Landkreis"},"federalState":{"key":"06","name":"Hessen"}},{"name":"Gartenfeldstr.","postalCode":"65719","locality":"Hofheim am Taunus","municipality":{"key":"06436007","name":"Hofheim am Taunus, Kreisstadt","type":"Stadt"},"district":{"key":"06436","name":"Main-Taunus-Kreis","type":"Landkreis"},"federalState":{"key":"06","name":"Hessen"}},{"name":"Gartenstr.","postalCode":"65719","locality":"Hofheim am Taunus","municipality":{"key":"06436007","name":"Hofheim am Taunus, Kreisstadt","type":"Stadt"},"district":{"key":"06436","name":"Main-Taunus-Kreis","type":"Landkreis"},"federalState":{"key":"06","name":"Hessen"}},{"name":"Gasschneise","postalCode":"65719","locality":"Hofheim am Taunus","municipality":{"key":"06436007","name":"Hofheim am Taunus, Kreisstadt","type":"Stadt"},"district":{"key":"06436","name":"Main-Taunus-Kreis","type":"Landkreis"},"federalState":{"key":"06","name":"Hessen"}},{"name":"Geisenheimer Weg","postalCode":"65719","locality":"Hofheim am Taunus","municipality":{"key":"06436007","name":"Hofheim am Taunus, Kreisstadt","type":"Stadt"},"district":{"key":"06436","name":"Main-Taunus-Kreis","type":"Landkreis"},"federalState":{"key":"06","name":"Hessen"}},{"name":"Gerberstr.","postalCode":"65719","locality":"Hofheim am Taunus","municipality":{"key":"06436007","name":"Hofheim am Taunus, Kreisstadt","type":"Stadt"},"district":{"key":"06436","name":"Main-Taunus-Kreis","type":"Landkreis"},"federalState":{"key":"06","name":"Hessen"}},{"name":"Germanenstr.","postalCode":"65719","locality":"Hofheim am Taunus","municipality":{"key":"06436007","name":"Hofheim am Taunus, Kreisstadt","type":"Stadt"},"district":{"key":"06436","name":"Main-Taunus-Kreis","type":"Landkreis"},"federalState":{"key":"06","name":"Hessen"}},{"name":"Gimbacher Weg","postalCode":"65719","locality":"Hofheim am Taunus","municipality":{"key":"06436007","name":"Hofheim am Taunus, Kreisstadt","type":"Stadt"},"district":{"key":"06436","name":"Main-Taunus-Kreis","type":"Landkreis"},"federalState":{"key":"06","name":"Hessen"}},{"name":"Gimpelweg","postalCode":"65719","locality":"Hofheim am Taunus","municipality":{"key":"06436007","name":"Hofheim am Taunus, Kreisstadt","type":"Stadt"},"district":{"key":"06436","name":"Main-Taunus-Kreis","type":"Landkreis"},"federalState":{"key":"06","name":"Hessen"}},{"name":"Gleiwitzer Str.","postalCode":"65719","locality":"Hofheim am Taunus","municipality":{"key":"06436007","name":"Hofheim am Taunus, Kreisstadt","type":"Stadt"},"district":{"key":"06436","name":"Main-Taunus-Kreis","type":"Landkreis"},"federalState":{"key":"06","name":"Hessen"}},{"name":"Goethestr.","postalCode":"65719","locality":"Hofheim am Taunus","municipality":{"key":"06436007","name":"Hofheim am Taunus, Kreisstadt","type":"Stadt"},"district":{"key":"06436","name":"Main-Taunus-Kreis","type":"Landkreis"},"federalState":{"key":"06","name":"Hessen"}},{"name":"Goldbachweg","postalCode":"65719","locality":"Hofheim am Taunus","municipality":{"key":"06436007","name":"Hofheim am Taunus, Kreisstadt","type":"Stadt"},"district":{"key":"06436","name":"Main-Taunus-Kreis","type":"Landkreis"},"federalState":{"key":"06","name":"Hessen"}},{"name":"Goldgrabenstr.","postalCode":"65719","locality":"Hofheim am Taunus","municipality":{"key":"06436007","name":"Hofheim am Taunus, Kreisstadt","type":"Stadt"},"district":{"key":"06436","name":"Main-Taunus-Kreis","type":"Landkreis"},"federalState":{"key":"06","name":"Hessen"}},{"name":"Gotenstr.","postalCode":"65719","locality":"Hofheim am Taunus","municipality":{"key":"06436007","name":"Hofheim am Taunus, Kreisstadt","type":"Stadt"},"district":{"key":"06436","name":"Main-Taunus-Kreis","type":"Landkreis"},"federalState":{"key":"06","name":"Hessen"}},{"name":"Grabenstr.","postalCode":"65719","locality":"Hofheim am Taunus","municipality":{"key":"06436007","name":"Hofheim am Taunus, Kreisstadt","type":"Stadt"},"district":{"key":"06436","name":"Main-Taunus-Kreis","type":"Landkreis"},"federalState":{"key":"06","name":"Hessen"}},{"name":"Gräsiger Weg","postalCode":"65719","locality":"Hofheim am Taunus","municipality":{"key":"06436007","name":"Hofheim am Taunus, Kreisstadt","type":"Stadt"},"district":{"key":"06436","name":"Main-Taunus-Kreis","type":"Landkreis"},"federalState":{"key":"06","name":"Hessen"}},{"name":"Große Bleiche","postalCode":"65719","locality":"Hofheim am Taunus","municipality":{"key":"06436007","name":"Hofheim am Taunus, Kreisstadt","type":"Stadt"},"district":{"key":"06436","name":"Main-Taunus-Kreis","type":"Landkreis"},"federalState":{"key":"06","name":"Hessen"}},{"name":"Grüne Str.","postalCode":"65719","locality":"Hofheim am Taunus","municipality":{"key":"06436007","name":"Hofheim am Taunus, Kreisstadt","type":"Stadt"},"district":{"key":"06436","name":"Main-Taunus-Kreis","type":"Landkreis"},"federalState":{"key":"06","name":"Hessen"}},{"name":"Gundelhardstr.","postalCode":"65719","locality":"Hofheim am Taunus","municipality":{"key":"06436007","name":"Hofheim am Taunus, Kreisstadt","type":"Stadt"},"district":{"key":"06436","name":"Main-Taunus-Kreis","type":"Landkreis"},"federalState":{"key":"06","name":"Hessen"}},{"name":"Habelstr.","postalCode":"65719","locality":"Hofheim am Taunus","municipality":{"key":"06436007","name":"Hofheim am Taunus, Kreisstadt","type":"Stadt"},"district":{"key":"06436","name":"Main-Taunus-Kreis","type":"Landkreis"},"federalState":{"key":"06","name":"Hessen"}},{"name":"Habichtweg","postalCode":"65719","locality":"Hofheim am Taunus","municipality":{"key":"06436007","name":"Hofheim am Taunus, Kreisstadt","type":"Stadt"},"district":{"key":"06436","name":"Main-Taunus-Kreis","type":"Landkreis"},"federalState":{"key":"06","name":"Hessen"}},{"name":"Hainerweg","postalCode":"65719","locality":"Hofheim am Taunus","municipality":{"key":"06436007","name":"Hofheim am Taunus, Kreisstadt","type":"Stadt"},"district":{"key":"06436","name":"Main-Taunus-Kreis","type":"Landkreis"},"federalState":{"key":"06","name":"Hessen"}},{"name":"Haneckstr.","postalCode":"65719","locality":"Hofheim am Taunus","municipality":{"key":"06436007","name":"Hofheim am Taunus, Kreisstadt","type":"Stadt"},"district":{"key":"06436","name":"Main-Taunus-Kreis","type":"Landkreis"},"federalState":{"key":"06","name":"Hessen"}},{"name":"Hans-Böckler-Str.","postalCode":"65719","locality":"Hofheim am Taunus","municipality":{"key":"06436007","name":"Hofheim am Taunus, Kreisstadt","type":"Stadt"},"district":{"key":"06436","name":"Main-Taunus-Kreis","type":"Landkreis"},"federalState":{"key":"06","name":"Hessen"}},{"name":"Haselweg","postalCode":"65719","locality":"Hofheim am Taunus","municipality":{"key":"06436007","name":"Hofheim am Taunus, Kreisstadt","type":"Stadt"},"district":{"key":"06436","name":"Main-Taunus-Kreis","type":"Landkreis"},"federalState":{"key":"06","name":"Hessen"}},{"name":"Hasengasse","postalCode":"65719","locality":"Hofheim am Taunus","municipality":{"key":"06436007","name":"Hofheim am Taunus, Kreisstadt","type":"Stadt"},"district":{"key":"06436","name":"Main-Taunus-Kreis","type":"Landkreis"},"federalState":{"key":"06","name":"Hessen"}},{"name":"Hattersheimer Str.","postalCode":"65719","locality":"Hofheim am Taunus","municipality":{"key":"06436007","name":"Hofheim am Taunus, Kreisstadt","type":"Stadt"},"district":{"key":"06436","name":"Main-Taunus-Kreis","type":"Landkreis"},"federalState":{"key":"06","name":"Hessen"}},{"name":"Hauckeberg","postalCode":"65719","locality":"Hofheim am Taunus","municipality":{"key":"06436007","name":"Hofheim am Taunus, Kreisstadt","type":"Stadt"},"district":{"key":"06436","name":"Main-Taunus-Kreis","type":"Landkreis"},"federalState":{"key":"06","name":"Hessen"}},{"name":"Hauptstr.","postalCode":"65719","locality":"Hofheim am Taunus","municipality":{"key":"06436007","name":"Hofheim am Taunus, Kreisstadt","type":"Stadt"},"district":{"key":"06436","name":"Main-Taunus-Kreis","type":"Landkreis"},"federalState":{"key":"06","name":"Hessen"}},{"name":"Heideweg","postalCode":"65719","locality":"Hofheim am Taunus","municipality":{"key":"06436007","name":"Hofheim am Taunus, Kreisstadt","type":"Stadt"},"district":{"key":"06436","name":"Main-Taunus-Kreis","type":"Landkreis"},"federalState":{"key":"06","name":"Hessen"}},{"name":"Heinrichsweg","postalCode":"65719","locality":"Hofheim am Taunus","municipality":{"key":"06436007","name":"Hofheim am Taunus, Kreisstadt","type":"Stadt"},"district":{"key":"06436","name":"Main-Taunus-Kreis","type":"Landkreis"},"federalState":{"key":"06","name":"Hessen"}},{"name":"Heinrich-Weiß-Str.","postalCode":"65719","locality":"Hofheim am Taunus","municipality":{"key":"06436007","name":"Hofheim am Taunus, Kreisstadt","type":"Stadt"},"district":{"key":"06436","name":"Main-Taunus-Kreis","type":"Landkreis"},"federalState":{"key":"06","name":"Hessen"}},{"name":"Herderstr.","postalCode":"65719","locality":"Hofheim am Taunus","municipality":{"key":"06436007","name":"Hofheim am Taunus, Kreisstadt","type":"Stadt"},"district":{"key":"06436","name":"Main-Taunus-Kreis","type":"Landkreis"},"federalState":{"key":"06","name":"Hessen"}},{"name":"Hermann-Friesen-Str.","postalCode":"65719","locality":"Hofheim am Taunus","municipality":{"key":"06436007","name":"Hofheim am Taunus, Kreisstadt","type":"Stadt"},"district":{"key":"06436","name":"Main-Taunus-Kreis","type":"Landkreis"},"federalState":{"key":"06","name":"Hessen"}},{"name":"Hermann-Löns-Str.","postalCode":"65719","locality":"Hofheim am Taunus","municipality":{"key":"06436007","name":"Hofheim am Taunus, Kreisstadt","type":"Stadt"},"district":{"key":"06436","name":"Main-Taunus-Kreis","type":"Landkreis"},"federalState":{"key":"06","name":"Hessen"}},{"name":"Hermann-Stein-Str.","postalCode":"65719","locality":"Hofheim am Taunus","municipality":{"key":"06436007","name":"Hofheim am Taunus, Kreisstadt","type":"Stadt"},"district":{"key":"06436","name":"Main-Taunus-Kreis","type":"Landkreis"},"federalState":{"key":"06","name":"Hessen"}},{"name":"Herrngarten","postalCode":"65719","locality":"Hofheim am Taunus","municipality":{"key":"06436007","name":"Hofheim am Taunus, Kreisstadt","type":"Stadt"},"district":{"key":"06436","name":"Main-Taunus-Kreis","type":"Landkreis"},"federalState":{"key":"06","name":"Hessen"}},{"name":"Herrnhäuser Str.","postalCode":"65719","locality":"Hofheim am Taunus","municipality":{"key":"06436007","name":"Hofheim am Taunus, Kreisstadt","type":"Stadt"},"district":{"key":"06436","name":"Main-Taunus-Kreis","type":"Landkreis"},"federalState":{"key":"06","name":"Hessen"}},{"name":"Herrnpfad","postalCode":"65719","locality":"Hofheim am Taunus","municipality":{"key":"06436007","name":"Hofheim am Taunus, Kreisstadt","type":"Stadt"},"district":{"key":"06436","name":"Main-Taunus-Kreis","type":"Landkreis"},"federalState":{"key":"06","name":"Hessen"}},{"name":"Herzog-Adolph-Str.","postalCode":"65719","locality":"Hofheim am Taunus","municipality":{"key":"06436007","name":"Hofheim am Taunus, Kreisstadt","type":"Stadt"},"district":{"key":"06436","name":"Main-Taunus-Kreis","type":"Landkreis"},"federalState":{"key":"06","name":"Hessen"}},{"name":"Hintergasse","postalCode":"65719","locality":"Hofheim am Taunus","municipality":{"key":"06436007","name":"Hofheim am Taunus, Kreisstadt","type":"Stadt"},"district":{"key":"06436","name":"Main-Taunus-Kreis","type":"Landkreis"},"federalState":{"key":"06","name":"Hessen"}},{"name":"Hirtenpfad","postalCode":"65719","locality":"Hofheim am Taunus","municipality":{"key":"06436007","name":"Hofheim am Taunus, Kreisstadt","type":"Stadt"},"district":{"key":"06436","name":"Main-Taunus-Kreis","type":"Landkreis"},"federalState":{"key":"06","name":"Hessen"}},{"name":"Hochheimer Weg","postalCode":"65719","locality":"Hofheim am Taunus","municipality":{"key":"06436007","name":"Hofheim am Taunus, Kreisstadt","type":"Stadt"},"district":{"key":"06436","name":"Main-Taunus-Kreis","type":"Landkreis"},"federalState":{"key":"06","name":"Hessen"}},{"name":"Höchster Str.","postalCode":"65719","locality":"Hofheim am Taunus","municipality":{"key":"06436007","name":"Hofheim am Taunus, Kreisstadt","type":"Stadt"},"district":{"key":"06436","name":"Main-Taunus-Kreis","type":"Landkreis"},"federalState":{"key":"06","name":"Hessen"}},{"name":"Hofheimer Str.","postalCode":"65719","locality":"Hofheim am Taunus","municipality":{"key":"06436007","name":"Hofheim am Taunus, Kreisstadt","type":"Stadt"},"district":{"key":"06436","name":"Main-Taunus-Kreis","type":"Landkreis"},"federalState":{"key":"06","name":"Hessen"}},{"name":"Hofraite","postalCode":"65719","locality":"Hofheim am Taunus","municipality":{"key":"06436007","name":"Hofheim am Taunus, Kreisstadt","type":"Stadt"},"district":{"key":"06436","name":"Main-Taunus-Kreis","type":"Landkreis"},"federalState":{"key":"06","name":"Hessen"}},{"name":"Höhenstr.","postalCode":"65719","locality":"Hofheim am Taunus","municipality":{"key":"06436007","name":"Hofheim am Taunus, Kreisstadt","type":"Stadt"},"district":{"key":"06436","name":"Main-Taunus-Kreis","type":"Landkreis"},"federalState":{"key":"06","name":"Hessen"}},{"name":"Hohe Schneise","postalCode":"65719","locality":"Hofheim am Taunus","municipality":{"key":"06436007","name":"Hofheim am Taunus, Kreisstadt","type":"Stadt"},"district":{"key":"06436","name":"Main-Taunus-Kreis","type":"Landkreis"},"federalState":{"key":"06","name":"Hessen"}},{"name":"Hohlgraben","postalCode":"65719","locality":"Hofheim am Taunus","municipality":{"key":"06436007","name":"Hofheim am Taunus, Kreisstadt","type":"Stadt"},"district":{"key":"06436","name":"Main-Taunus-Kreis","type":"Landkreis"},"federalState":{"key":"06","name":"Hessen"}},{"name":"Hölderlinstr.","postalCode":"65719","locality":"Hofheim am Taunus","municipality":{"key":"06436007","name":"Hofheim am Taunus, Kreisstadt","type":"Stadt"},"district":{"key":"06436","name":"Main-Taunus-Kreis","type":"Landkreis"},"federalState":{"key":"06","name":"Hessen"}},{"name":"Holunderweg","postalCode":"65719","locality":"Hofheim am Taunus","municipality":{"key":"06436007","name":"Hofheim am Taunus, Kreisstadt","type":"Stadt"},"district":{"key":"06436","name":"Main-Taunus-Kreis","type":"Landkreis"},"federalState":{"key":"06","name":"Hessen"}},{"name":"Homburger Str.","postalCode":"65719","locality":"Hofheim am Taunus","municipality":{"key":"06436007","name":"Hofheim am Taunus, Kreisstadt","type":"Stadt"},"district":{"key":"06436","name":"Main-Taunus-Kreis","type":"Landkreis"},"federalState":{"key":"06","name":"Hessen"}},{"name":"Hornauer Weg","postalCode":"65719","locality":"Hofheim am Taunus","municipality":{"key":"06436007","name":"Hofheim am Taunus, Kreisstadt","type":"Stadt"},"district":{"key":"06436","name":"Main-Taunus-Kreis","type":"Landkreis"},"federalState":{"key":"06","name":"Hessen"}},{"name":"Hundshager Weg","postalCode":"65719","locality":"Hofheim am Taunus","municipality":{"key":"06436007","name":"Hofheim am Taunus, Kreisstadt","type":"Stadt"},"district":{"key":"06436","name":"Main-Taunus-Kreis","type":"Landkreis"},"federalState":{"key":"06","name":"Hessen"}},{"name":"Hunsrückstr.","postalCode":"65719","locality":"Hofheim am Taunus","municipality":{"key":"06436007","name":"Hofheim am Taunus, Kreisstadt","type":"Stadt"},"district":{"key":"06436","name":"Main-Taunus-Kreis","type":"Landkreis"},"federalState":{"key":"06","name":"Hessen"}},{"name":"Igelstr.","postalCode":"65719","locality":"Hofheim am Taunus","municipality":{"key":"06436007","name":"Hofheim am Taunus, Kreisstadt","type":"Stadt"},"district":{"key":"06436","name":"Main-Taunus-Kreis","type":"Landkreis"},"federalState":{"key":"06","name":"Hessen"}},{"name":"Iltisweg","postalCode":"65719","locality":"Hofheim am Taunus","municipality":{"key":"06436007","name":"Hofheim am Taunus, Kreisstadt","type":"Stadt"},"district":{"key":"06436","name":"Main-Taunus-Kreis","type":"Landkreis"},"federalState":{"key":"06","name":"Hessen"}},{"name":"Im Angel","postalCode":"65719","locality":"Hofheim am Taunus","municipality":{"key":"06436007","name":"Hofheim am Taunus, Kreisstadt","type":"Stadt"},"district":{"key":"06436","name":"Main-Taunus-Kreis","type":"Landkreis"},"federalState":{"key":"06","name":"Hessen"}},{"name":"Im Birkenfeld","postalCode":"65719","locality":"Hofheim am Taunus","municipality":{"key":"06436007","name":"Hofheim am Taunus, Kreisstadt","type":"Stadt"},"district":{"key":"06436","name":"Main-Taunus-Kreis","type":"Landkreis"},"federalState":{"key":"06","name":"Hessen"}},{"name":"Im Brand","postalCode":"65719","locality":"Hofheim am Taunus","municipality":{"key":"06436007","name":"Hofheim am Taunus, Kreisstadt","type":"Stadt"},"district":{"key":"06436","name":"Main-Taunus-Kreis","type":"Landkreis"},"federalState":{"key":"06","name":"Hessen"}},{"name":"Im Jungehag","postalCode":"65719","locality":"Hofheim am Taunus","municipality":{"key":"06436007","name":"Hofheim am Taunus, Kreisstadt","type":"Stadt"},"district":{"key":"06436","name":"Main-Taunus-Kreis","type":"Landkreis"},"federalState":{"key":"06","name":"Hessen"}},{"name":"Im Klingen","postalCode":"65719","locality":"Hofheim am Taunus","municipality":{"key":"06436007","name":"Hofheim am Taunus, Kreisstadt","type":"Stadt"},"district":{"key":"06436","name":"Main-Taunus-Kreis","type":"Landkreis"},"federalState":{"key":"06","name":"Hessen"}},{"name":"Im Langgewann","postalCode":"65719","locality":"Hofheim am Taunus","municipality":{"key":"06436007","name":"Hofheim am Taunus, Kreisstadt","type":"Stadt"},"district":{"key":"06436","name":"Main-Taunus-Kreis","type":"Landkreis"},"federalState":{"key":"06","name":"Hessen"}},{"name":"Im Lorsbachtal","postalCode":"65719","locality":"Hofheim am Taunus","municipality":{"key":"06436007","name":"Hofheim am Taunus, Kreisstadt","type":"Stadt"},"district":{"key":"06436","name":"Main-Taunus-Kreis","type":"Landkreis"},"federalState":{"key":"06","name":"Hessen"}},{"name":"Im Lückepfad","postalCode":"65719","locality":"Hofheim am Taunus","municipality":{"key":"06436007","name":"Hofheim am Taunus, Kreisstadt","type":"Stadt"},"district":{"key":"06436","name":"Main-Taunus-Kreis","type":"Landkreis"},"federalState":{"key":"06","name":"Hessen"}},{"name":"Im Obergarten","postalCode":"65719","locality":"Hofheim am Taunus","municipality":{"key":"06436007","name":"Hofheim am Taunus, Kreisstadt","type":"Stadt"},"district":{"key":"06436","name":"Main-Taunus-Kreis","type":"Landkreis"},"federalState":{"key":"06","name":"Hessen"}},{"name":"Im Untergarten","postalCode":"65719","locality":"Hofheim am Taunus","municipality":{"key":"06436007","name":"Hofheim am Taunus, Kreisstadt","type":"Stadt"},"district":{"key":"06436","name":"Main-Taunus-Kreis","type":"Landkreis"},"federalState":{"key":"06","name":"Hessen"}},{"name":"Im Zwengel","postalCode":"65719","locality":"Hofheim am Taunus","municipality":{"key":"06436007","name":"Hofheim am Taunus, Kreisstadt","type":"Stadt"},"district":{"key":"06436","name":"Main-Taunus-Kreis","type":"Landkreis"},"federalState":{"key":"06","name":"Hessen"}},{"name":"In den Jägergärten","postalCode":"65719","locality":"Hofheim am Taunus","municipality":{"key":"06436007","name":"Hofheim am Taunus, Kreisstadt","type":"Stadt"},"district":{"key":"06436","name":"Main-Taunus-Kreis","type":"Landkreis"},"federalState":{"key":"06","name":"Hessen"}},{"name":"In den Krautgärten","postalCode":"65719","locality":"Hofheim am Taunus","municipality":{"key":"06436007","name":"Hofheim am Taunus, Kreisstadt","type":"Stadt"},"district":{"key":"06436","name":"Main-Taunus-Kreis","type":"Landkreis"},"federalState":{"key":"06","name":"Hessen"}},{"name":"In den Nassen","postalCode":"65719","locality":"Hofheim am Taunus","municipality":{"key":"06436007","name":"Hofheim am Taunus, Kreisstadt","type":"Stadt"},"district":{"key":"06436","name":"Main-Taunus-Kreis","type":"Landkreis"},"federalState":{"key":"06","name":"Hessen"}},{"name":"In den Weingärten","postalCode":"65719","locality":"Hofheim am Taunus","municipality":{"key":"06436007","name":"Hofheim am Taunus, Kreisstadt","type":"Stadt"},"district":{"key":"06436","name":"Main-Taunus-Kreis","type":"Landkreis"},"federalState":{"key":"06","name":"Hessen"}},{"name":"In der Baumschule","postalCode":"65719","locality":"Hofheim am Taunus","municipality":{"key":"06436007","name":"Hofheim am Taunus, Kreisstadt","type":"Stadt"},"district":{"key":"06436","name":"Main-Taunus-Kreis","type":"Landkreis"},"federalState":{"key":"06","name":"Hessen"}},{"name":"In der Dreispitz","postalCode":"65719","locality":"Hofheim am Taunus","municipality":{"key":"06436007","name":"Hofheim am Taunus, Kreisstadt","type":"Stadt"},"district":{"key":"06436","name":"Main-Taunus-Kreis","type":"Landkreis"},"federalState":{"key":"06","name":"Hessen"}},{"name":"In der Hohl","postalCode":"65719","locality":"Hofheim am Taunus","municipality":{"key":"06436007","name":"Hofheim am Taunus, Kreisstadt","type":"Stadt"},"district":{"key":"06436","name":"Main-Taunus-Kreis","type":"Landkreis"},"federalState":{"key":"06","name":"Hessen"}},{"name":"In der Spilsit","postalCode":"65719","locality":"Hofheim am Taunus","municipality":{"key":"06436007","name":"Hofheim am Taunus, Kreisstadt","type":"Stadt"},"district":{"key":"06436","name":"Main-Taunus-Kreis","type":"Landkreis"},"federalState":{"key":"06","name":"Hessen"}},{"name":"In der Witz","postalCode":"65719","locality":"Hofheim am Taunus","municipality":{"key":"06436007","name":"Hofheim am Taunus, Kreisstadt","type":"Stadt"},"district":{"key":"06436","name":"Main-Taunus-Kreis","type":"Landkreis"},"federalState":{"key":"06","name":"Hessen"}},{"name":"Jahnstr.","postalCode":"65719","locality":"Hofheim am Taunus","municipality":{"key":"06436007","name":"Hofheim am Taunus, Kreisstadt","type":"Stadt"},"district":{"key":"06436","name":"Main-Taunus-Kreis","type":"Landkreis"},"federalState":{"key":"06","name":"Hessen"}},{"name":"Johannes-Gleidener-Weg","postalCode":"65719","locality":"Hofheim am Taunus","municipality":{"key":"06436007","name":"Hofheim am Taunus, Kreisstadt","type":"Stadt"},"district":{"key":"06436","name":"Main-Taunus-Kreis","type":"Landkreis"},"federalState":{"key":"06","name":"Hessen"}},{"name":"Johannisberger Str.","postalCode":"65719","locality":"Hofheim am Taunus","municipality":{"key":"06436007","name":"Hofheim am Taunus, Kreisstadt","type":"Stadt"},"district":{"key":"06436","name":"Main-Taunus-Kreis","type":"Landkreis"},"federalState":{"key":"06","name":"Hessen"}},{"name":"Johann-Philipp-Schleicher-Str.","postalCode":"65719","locality":"Hofheim am Taunus","municipality":{"key":"06436007","name":"Hofheim am Taunus, Kreisstadt","type":"Stadt"},"district":{"key":"06436","name":"Main-Taunus-Kreis","type":"Landkreis"},"federalState":{"key":"06","name":"Hessen"}},{"name":"Junghainzehecken","postalCode":"65719","locality":"Hofheim am Taunus","municipality":{"key":"06436007","name":"Hofheim am Taunus, Kreisstadt","type":"Stadt"},"district":{"key":"06436","name":"Main-Taunus-Kreis","type":"Landkreis"},"federalState":{"key":"06","name":"Hessen"}},{"name":"Kantstr.","postalCode":"65719","locality":"Hofheim am Taunus","municipality":{"key":"06436007","name":"Hofheim am Taunus, Kreisstadt","type":"Stadt"},"district":{"key":"06436","name":"Main-Taunus-Kreis","type":"Landkreis"},"federalState":{"key":"06","name":"Hessen"}},{"name":"Kapellenstr.","postalCode":"65719","locality":"Hofheim am Taunus","municipality":{"key":"06436007","name":"Hofheim am Taunus, Kreisstadt","type":"Stadt"},"district":{"key":"06436","name":"Main-Taunus-Kreis","type":"Landkreis"},"federalState":{"key":"06","name":"Hessen"}},{"name":"Karthäuserstr.","postalCode":"65719","locality":"Hofheim am Taunus","municipality":{"key":"06436007","name":"Hofheim am Taunus, Kreisstadt","type":"Stadt"},"district":{"key":"06436","name":"Main-Taunus-Kreis","type":"Landkreis"},"federalState":{"key":"06","name":"Hessen"}},{"name":"Kassernstr.","postalCode":"65719","locality":"Hofheim am Taunus","municipality":{"key":"06436007","name":"Hofheim am Taunus, Kreisstadt","type":"Stadt"},"district":{"key":"06436","name":"Main-Taunus-Kreis","type":"Landkreis"},"federalState":{"key":"06","name":"Hessen"}},{"name":"Kastanienstr.","postalCode":"65719","locality":"Hofheim am Taunus","municipality":{"key":"06436007","name":"Hofheim am Taunus, Kreisstadt","type":"Stadt"},"district":{"key":"06436","name":"Main-Taunus-Kreis","type":"Landkreis"},"federalState":{"key":"06","name":"Hessen"}},{"name":"Katharina-Kemmler-Str.","postalCode":"65719","locality":"Hofheim am Taunus","municipality":{"key":"06436007","name":"Hofheim am Taunus, Kreisstadt","type":"Stadt"},"district":{"key":"06436","name":"Main-Taunus-Kreis","type":"Landkreis"},"federalState":{"key":"06","name":"Hessen"}},{"name":"Katzenlückstr.","postalCode":"65719","locality":"Hofheim am Taunus","municipality":{"key":"06436007","name":"Hofheim am Taunus, Kreisstadt","type":"Stadt"},"district":{"key":"06436","name":"Main-Taunus-Kreis","type":"Landkreis"},"federalState":{"key":"06","name":"Hessen"}},{"name":"Kauzweg","postalCode":"65719","locality":"Hofheim am Taunus","municipality":{"key":"06436007","name":"Hofheim am Taunus, Kreisstadt","type":"Stadt"},"district":{"key":"06436","name":"Main-Taunus-Kreis","type":"Landkreis"},"federalState":{"key":"06","name":"Hessen"}},{"name":"Kelkheimer Str.","postalCode":"65719","locality":"Hofheim am Taunus","municipality":{"key":"06436007","name":"Hofheim am Taunus, Kreisstadt","type":"Stadt"},"district":{"key":"06436","name":"Main-Taunus-Kreis","type":"Landkreis"},"federalState":{"key":"06","name":"Hessen"}},{"name":"Kellereiplatz","postalCode":"65719","locality":"Hofheim am Taunus","municipality":{"key":"06436007","name":"Hofheim am Taunus, Kreisstadt","type":"Stadt"},"district":{"key":"06436","name":"Main-Taunus-Kreis","type":"Landkreis"},"federalState":{"key":"06","name":"Hessen"}},{"name":"Keltenstr.","postalCode":"65719","locality":"Hofheim am Taunus","municipality":{"key":"06436007","name":"Hofheim am Taunus, Kreisstadt","type":"Stadt"},"district":{"key":"06436","name":"Main-Taunus-Kreis","type":"Landkreis"},"federalState":{"key":"06","name":"Hessen"}},{"name":"Kiebitzweg","postalCode":"65719","locality":"Hofheim am Taunus","municipality":{"key":"06436007","name":"Hofheim am Taunus, Kreisstadt","type":"Stadt"},"district":{"key":"06436","name":"Main-Taunus-Kreis","type":"Landkreis"},"federalState":{"key":"06","name":"Hessen"}},{"name":"Kiedricher Str.","postalCode":"65719","locality":"Hofheim am Taunus","municipality":{"key":"06436007","name":"Hofheim am Taunus, Kreisstadt","type":"Stadt"},"district":{"key":"06436","name":"Main-Taunus-Kreis","type":"Landkreis"},"federalState":{"key":"06","name":"Hessen"}},{"name":"Kirchspiel","postalCode":"65719","locality":"Hofheim am Taunus","municipality":{"key":"06436007","name":"Hofheim am Taunus, Kreisstadt","type":"Stadt"},"district":{"key":"06436","name":"Main-Taunus-Kreis","type":"Landkreis"},"federalState":{"key":"06","name":"Hessen"}},{"name":"Kirchstr.","postalCode":"65719","locality":"Hofheim am Taunus","municipality":{"key":"06436007","name":"Hofheim am Taunus, Kreisstadt","type":"Stadt"},"district":{"key":"06436","name":"Main-Taunus-Kreis","type":"Landkreis"},"federalState":{"key":"06","name":"Hessen"}},{"name":"Kirschgartenstr.","postalCode":"65719","locality":"Hofheim am Taunus","municipality":{"key":"06436007","name":"Hofheim am Taunus, Kreisstadt","type":"Stadt"},"district":{"key":"06436","name":"Main-Taunus-Kreis","type":"Landkreis"},"federalState":{"key":"06","name":"Hessen"}},{"name":"Klarastr.","postalCode":"65719","locality":"Hofheim am Taunus","municipality":{"key":"06436007","name":"Hofheim am Taunus, Kreisstadt","type":"Stadt"},"district":{"key":"06436","name":"Main-Taunus-Kreis","type":"Landkreis"},"federalState":{"key":"06","name":"Hessen"}},{"name":"Kleine Bleiche","postalCode":"65719","locality":"Hofheim am Taunus","municipality":{"key":"06436007","name":"Hofheim am Taunus, Kreisstadt","type":"Stadt"},"district":{"key":"06436","name":"Main-Taunus-Kreis","type":"Landkreis"},"federalState":{"key":"06","name":"Hessen"}},{"name":"Kleine Stephanstr.","postalCode":"65719","locality":"Hofheim am Taunus","municipality":{"key":"06436007","name":"Hofheim am Taunus, Kreisstadt","type":"Stadt"},"district":{"key":"06436","name":"Main-Taunus-Kreis","type":"Landkreis"},"federalState":{"key":"06","name":"Hessen"}},{"name":"Kleine Zeil","postalCode":"65719","locality":"Hofheim am Taunus","municipality":{"key":"06436007","name":"Hofheim am Taunus, Kreisstadt","type":"Stadt"},"district":{"key":"06436","name":"Main-Taunus-Kreis","type":"Landkreis"},"federalState":{"key":"06","name":"Hessen"}},{"name":"Kleiststr.","postalCode":"65719","locality":"Hofheim am Taunus","municipality":{"key":"06436007","name":"Hofheim am Taunus, Kreisstadt","type":"Stadt"},"district":{"key":"06436","name":"Main-Taunus-Kreis","type":"Landkreis"},"federalState":{"key":"06","name":"Hessen"}},{"name":"Kohlgrubenstr.","postalCode":"65719","locality":"Hofheim am Taunus","municipality":{"key":"06436007","name":"Hofheim am Taunus, Kreisstadt","type":"Stadt"},"district":{"key":"06436","name":"Main-Taunus-Kreis","type":"Landkreis"},"federalState":{"key":"06","name":"Hessen"}},{"name":"Königsberger Weg","postalCode":"65719","locality":"Hofheim am Taunus","municipality":{"key":"06436007","name":"Hofheim am Taunus, Kreisstadt","type":"Stadt"},"district":{"key":"06436","name":"Main-Taunus-Kreis","type":"Landkreis"},"federalState":{"key":"06","name":"Hessen"}},{"name":"Königsteiner Str.","postalCode":"65719","locality":"Hofheim am Taunus","municipality":{"key":"06436007","name":"Hofheim am Taunus, Kreisstadt","type":"Stadt"},"district":{"key":"06436","name":"Main-Taunus-Kreis","type":"Landkreis"},"federalState":{"key":"06","name":"Hessen"}},{"name":"Königsteiner Weg","postalCode":"65719","locality":"Hofheim am Taunus","municipality":{"key":"06436007","name":"Hofheim am Taunus, Kreisstadt","type":"Stadt"},"district":{"key":"06436","name":"Main-Taunus-Kreis","type":"Landkreis"},"federalState":{"key":"06","name":"Hessen"}},{"name":"Kornblumenweg","postalCode":"65719","locality":"Hofheim am Taunus","municipality":{"key":"06436007","name":"Hofheim am Taunus, Kreisstadt","type":"Stadt"},"district":{"key":"06436","name":"Main-Taunus-Kreis","type":"Landkreis"},"federalState":{"key":"06","name":"Hessen"}},{"name":"Krebsgasse","postalCode":"65719","locality":"Hofheim am Taunus","municipality":{"key":"06436007","name":"Hofheim am Taunus, Kreisstadt","type":"Stadt"},"district":{"key":"06436","name":"Main-Taunus-Kreis","type":"Landkreis"},"federalState":{"key":"06","name":"Hessen"}},{"name":"Kreuzgartenstr.","postalCode":"65719","locality":"Hofheim am Taunus","municipality":{"key":"06436007","name":"Hofheim am Taunus, Kreisstadt","type":"Stadt"},"district":{"key":"06436","name":"Main-Taunus-Kreis","type":"Landkreis"},"federalState":{"key":"06","name":"Hessen"}},{"name":"Kreuzweg","postalCode":"65719","locality":"Hofheim am Taunus","municipality":{"key":"06436007","name":"Hofheim am Taunus, Kreisstadt","type":"Stadt"},"district":{"key":"06436","name":"Main-Taunus-Kreis","type":"Landkreis"},"federalState":{"key":"06","name":"Hessen"}},{"name":"Krifteler Str.","postalCode":"65719","locality":"Hofheim am Taunus","municipality":{"key":"06436007","name":"Hofheim am Taunus, Kreisstadt","type":"Stadt"},"district":{"key":"06436","name":"Main-Taunus-Kreis","type":"Landkreis"},"federalState":{"key":"06","name":"Hessen"}},{"name":"Kronberger Str.","postalCode":"65719","locality":"Hofheim am Taunus","municipality":{"key":"06436007","name":"Hofheim am Taunus, Kreisstadt","type":"Stadt"},"district":{"key":"06436","name":"Main-Taunus-Kreis","type":"Landkreis"},"federalState":{"key":"06","name":"Hessen"}},{"name":"Kronthaler Weg","postalCode":"65719","locality":"Hofheim am Taunus","municipality":{"key":"06436007","name":"Hofheim am Taunus, Kreisstadt","type":"Stadt"},"district":{"key":"06436","name":"Main-Taunus-Kreis","type":"Landkreis"},"federalState":{"key":"06","name":"Hessen"}},{"name":"Kunosteg","postalCode":"65719","locality":"Hofheim am Taunus","municipality":{"key":"06436007","name":"Hofheim am Taunus, Kreisstadt","type":"Stadt"},"district":{"key":"06436","name":"Main-Taunus-Kreis","type":"Landkreis"},"federalState":{"key":"06","name":"Hessen"}},{"name":"Kurhausstr.","postalCode":"65719","locality":"Hofheim am Taunus","municipality":{"key":"06436007","name":"Hofheim am Taunus, Kreisstadt","type":"Stadt"},"district":{"key":"06436","name":"Main-Taunus-Kreis","type":"Landkreis"},"federalState":{"key":"06","name":"Hessen"}},{"name":"Ländchesweg","postalCode":"65719","locality":"Hofheim am Taunus","municipality":{"key":"06436007","name":"Hofheim am Taunus, Kreisstadt","type":"Stadt"},"district":{"key":"06436","name":"Main-Taunus-Kreis","type":"Landkreis"},"federalState":{"key":"06","name":"Hessen"}},{"name":"Langenhainer Str.","postalCode":"65719","locality":"Hofheim am Taunus","municipality":{"key":"06436007","name":"Hofheim am Taunus, Kreisstadt","type":"Stadt"},"district":{"key":"06436","name":"Main-Taunus-Kreis","type":"Landkreis"},"federalState":{"key":"06","name":"Hessen"}},{"name":"Langgasse","postalCode":"65719","locality":"Hofheim am Taunus","municipality":{"key":"06436007","name":"Hofheim am Taunus, Kreisstadt","type":"Stadt"},"district":{"key":"06436","name":"Main-Taunus-Kreis","type":"Landkreis"},"federalState":{"key":"06","name":"Hessen"}},{"name":"Langwehrweg","postalCode":"65719","locality":"Hofheim am Taunus","municipality":{"key":"06436007","name":"Hofheim am Taunus, Kreisstadt","type":"Stadt"},"district":{"key":"06436","name":"Main-Taunus-Kreis","type":"Landkreis"},"federalState":{"key":"06","name":"Hessen"}},{"name":"Leipziger Str.","postalCode":"65719","locality":"Hofheim am Taunus","municipality":{"key":"06436007","name":"Hofheim am Taunus, Kreisstadt","type":"Stadt"},"district":{"key":"06436","name":"Main-Taunus-Kreis","type":"Landkreis"},"federalState":{"key":"06","name":"Hessen"}},{"name":"Lerchenweg","postalCode":"65719","locality":"Hofheim am Taunus","municipality":{"key":"06436007","name":"Hofheim am Taunus, Kreisstadt","type":"Stadt"},"district":{"key":"06436","name":"Main-Taunus-Kreis","type":"Landkreis"},"federalState":{"key":"06","name":"Hessen"}},{"name":"Lessingstr.","postalCode":"65719","locality":"Hofheim am Taunus","municipality":{"key":"06436007","name":"Hofheim am Taunus, Kreisstadt","type":"Stadt"},"district":{"key":"06436","name":"Main-Taunus-Kreis","type":"Landkreis"},"federalState":{"key":"06","name":"Hessen"}},{"name":"Liebfrauenstr.","postalCode":"65719","locality":"Hofheim am Taunus","municipality":{"key":"06436007","name":"Hofheim am Taunus, Kreisstadt","type":"Stadt"},"district":{"key":"06436","name":"Main-Taunus-Kreis","type":"Landkreis"},"federalState":{"key":"06","name":"Hessen"}},{"name":"Liederbacher Weg","postalCode":"65719","locality":"Hofheim am Taunus","municipality":{"key":"06436007","name":"Hofheim am Taunus, Kreisstadt","type":"Stadt"},"district":{"key":"06436","name":"Main-Taunus-Kreis","type":"Landkreis"},"federalState":{"key":"06","name":"Hessen"}},{"name":"Lieser Weg","postalCode":"65719","locality":"Hofheim am Taunus","municipality":{"key":"06436007","name":"Hofheim am Taunus, Kreisstadt","type":"Stadt"},"district":{"key":"06436","name":"Main-Taunus-Kreis","type":"Landkreis"},"federalState":{"key":"06","name":"Hessen"}},{"name":"Limesstr.","postalCode":"65719","locality":"Hofheim am Taunus","municipality":{"key":"06436007","name":"Hofheim am Taunus, Kreisstadt","type":"Stadt"},"district":{"key":"06436","name":"Main-Taunus-Kreis","type":"Landkreis"},"federalState":{"key":"06","name":"Hessen"}},{"name":"Lindenstr.","postalCode":"65719","locality":"Hofheim am Taunus","municipality":{"key":"06436007","name":"Hofheim am Taunus, Kreisstadt","type":"Stadt"},"district":{"key":"06436","name":"Main-Taunus-Kreis","type":"Landkreis"},"federalState":{"key":"06","name":"Hessen"}},{"name":"Lorcher Str.","postalCode":"65719","locality":"Hofheim am Taunus","municipality":{"key":"06436007","name":"Hofheim am Taunus, Kreisstadt","type":"Stadt"},"district":{"key":"06436","name":"Main-Taunus-Kreis","type":"Landkreis"},"federalState":{"key":"06","name":"Hessen"}},{"name":"Lorsbacher Str.","postalCode":"65719","locality":"Hofheim am Taunus","municipality":{"key":"06436007","name":"Hofheim am Taunus, Kreisstadt","type":"Stadt"},"district":{"key":"06436","name":"Main-Taunus-Kreis","type":"Landkreis"},"federalState":{"key":"06","name":"Hessen"}},{"name":"Luisenweg","postalCode":"65719","locality":"Hofheim am Taunus","municipality":{"key":"06436007","name":"Hofheim am Taunus, Kreisstadt","type":"Stadt"},"district":{"key":"06436","name":"Main-Taunus-Kreis","type":"Landkreis"},"federalState":{"key":"06","name":"Hessen"}},{"name":"Mainau","postalCode":"65719","locality":"Hofheim am Taunus","municipality":{"key":"06436007","name":"Hofheim am Taunus, Kreisstadt","type":"Stadt"},"district":{"key":"06436","name":"Main-Taunus-Kreis","type":"Landkreis"},"federalState":{"key":"06","name":"Hessen"}},{"name":"Mainzer Str.","postalCode":"65719","locality":"Hofheim am Taunus","municipality":{"key":"06436007","name":"Hofheim am Taunus, Kreisstadt","type":"Stadt"},"district":{"key":"06436","name":"Main-Taunus-Kreis","type":"Landkreis"},"federalState":{"key":"06","name":"Hessen"}},{"name":"Mammolshainer Weg","postalCode":"65719","locality":"Hofheim am Taunus","municipality":{"key":"06436007","name":"Hofheim am Taunus, Kreisstadt","type":"Stadt"},"district":{"key":"06436","name":"Main-Taunus-Kreis","type":"Landkreis"},"federalState":{"key":"06","name":"Hessen"}},{"name":"Marbodstr.","postalCode":"65719","locality":"Hofheim am Taunus","municipality":{"key":"06436007","name":"Hofheim am Taunus, Kreisstadt","type":"Stadt"},"district":{"key":"06436","name":"Main-Taunus-Kreis","type":"Landkreis"},"federalState":{"key":"06","name":"Hessen"}},{"name":"Margueritenweg","postalCode":"65719","locality":"Hofheim am Taunus","municipality":{"key":"06436007","name":"Hofheim am Taunus, Kreisstadt","type":"Stadt"},"district":{"key":"06436","name":"Main-Taunus-Kreis","type":"Landkreis"},"federalState":{"key":"06","name":"Hessen"}},{"name":"Marienstr.","postalCode":"65719","locality":"Hofheim am Taunus","municipality":{"key":"06436007","name":"Hofheim am Taunus, Kreisstadt","type":"Stadt"},"district":{"key":"06436","name":"Main-Taunus-Kreis","type":"Landkreis"},"federalState":{"key":"06","name":"Hessen"}},{"name":"Martin-Luther-Str.","postalCode":"65719","locality":"Hofheim am Taunus","municipality":{"key":"06436007","name":"Hofheim am Taunus, Kreisstadt","type":"Stadt"},"district":{"key":"06436","name":"Main-Taunus-Kreis","type":"Landkreis"},"federalState":{"key":"06","name":"Hessen"}},{"name":"Martin-Wohmann-Str.","postalCode":"65719","locality":"Hofheim am Taunus","municipality":{"key":"06436007","name":"Hofheim am Taunus, Kreisstadt","type":"Stadt"},"district":{"key":"06436","name":"Main-Taunus-Kreis","type":"Landkreis"},"federalState":{"key":"06","name":"Hessen"}},{"name":"Marxheimer Kräutergarten","postalCode":"65719","locality":"Hofheim am Taunus","municipality":{"key":"06436007","name":"Hofheim am Taunus, Kreisstadt","type":"Stadt"},"district":{"key":"06436","name":"Main-Taunus-Kreis","type":"Landkreis"},"federalState":{"key":"06","name":"Hessen"}},{"name":"Marxheimer Str.","postalCode":"65719","locality":"Hofheim am Taunus","municipality":{"key":"06436007","name":"Hofheim am Taunus, Kreisstadt","type":"Stadt"},"district":{"key":"06436","name":"Main-Taunus-Kreis","type":"Landkreis"},"federalState":{"key":"06","name":"Hessen"}},{"name":"Mauergasse","postalCode":"65719","locality":"Hofheim am Taunus","municipality":{"key":"06436007","name":"Hofheim am Taunus, Kreisstadt","type":"Stadt"},"district":{"key":"06436","name":"Main-Taunus-Kreis","type":"Landkreis"},"federalState":{"key":"06","name":"Hessen"}},{"name":"Medenbacher Weg","postalCode":"65719","locality":"Hofheim am Taunus","municipality":{"key":"06436007","name":"Hofheim am Taunus, Kreisstadt","type":"Stadt"},"district":{"key":"06436","name":"Main-Taunus-Kreis","type":"Landkreis"},"federalState":{"key":"06","name":"Hessen"}},{"name":"Meisenweg","postalCode":"65719","locality":"Hofheim am Taunus","municipality":{"key":"06436007","name":"Hofheim am Taunus, Kreisstadt","type":"Stadt"},"district":{"key":"06436","name":"Main-Taunus-Kreis","type":"Landkreis"},"federalState":{"key":"06","name":"Hessen"}},{"name":"Memelstr.","postalCode":"65719","locality":"Hofheim am Taunus","municipality":{"key":"06436007","name":"Hofheim am Taunus, Kreisstadt","type":"Stadt"},"district":{"key":"06436","name":"Main-Taunus-Kreis","type":"Landkreis"},"federalState":{"key":"06","name":"Hessen"}},{"name":"Mittelstr.","postalCode":"65719","locality":"Hofheim am Taunus","municipality":{"key":"06436007","name":"Hofheim am Taunus, Kreisstadt","type":"Stadt"},"district":{"key":"06436","name":"Main-Taunus-Kreis","type":"Landkreis"},"federalState":{"key":"06","name":"Hessen"}},{"name":"Mörikestr.","postalCode":"65719","locality":"Hofheim am Taunus","municipality":{"key":"06436007","name":"Hofheim am Taunus, Kreisstadt","type":"Stadt"},"district":{"key":"06436","name":"Main-Taunus-Kreis","type":"Landkreis"},"federalState":{"key":"06","name":"Hessen"}},{"name":"Mühlenweg","postalCode":"65719","locality":"Hofheim am Taunus","municipality":{"key":"06436007","name":"Hofheim am Taunus, Kreisstadt","type":"Stadt"},"district":{"key":"06436","name":"Main-Taunus-Kreis","type":"Landkreis"},"federalState":{"key":"06","name":"Hessen"}},{"name":"Mühlgasse","postalCode":"65719","locality":"Hofheim am Taunus","municipality":{"key":"06436007","name":"Hofheim am Taunus, Kreisstadt","type":"Stadt"},"district":{"key":"06436","name":"Main-Taunus-Kreis","type":"Landkreis"},"federalState":{"key":"06","name":"Hessen"}},{"name":"Münchhecke","postalCode":"65719","locality":"Hofheim am Taunus","municipality":{"key":"06436007","name":"Hofheim am Taunus, Kreisstadt","type":"Stadt"},"district":{"key":"06436","name":"Main-Taunus-Kreis","type":"Landkreis"},"federalState":{"key":"06","name":"Hessen"}},{"name":"Münsterer Str.","postalCode":"65719","locality":"Hofheim am Taunus","municipality":{"key":"06436007","name":"Hofheim am Taunus, Kreisstadt","type":"Stadt"},"district":{"key":"06436","name":"Main-Taunus-Kreis","type":"Landkreis"},"federalState":{"key":"06","name":"Hessen"}},{"name":"Nachtigallenweg","postalCode":"65719","locality":"Hofheim am Taunus","municipality":{"key":"06436007","name":"Hofheim am Taunus, Kreisstadt","type":"Stadt"},"district":{"key":"06436","name":"Main-Taunus-Kreis","type":"Landkreis"},"federalState":{"key":"06","name":"Hessen"}},{"name":"Nebengasse","postalCode":"65719","locality":"Hofheim am Taunus","municipality":{"key":"06436007","name":"Hofheim am Taunus, Kreisstadt","type":"Stadt"},"district":{"key":"06436","name":"Main-Taunus-Kreis","type":"Landkreis"},"federalState":{"key":"06","name":"Hessen"}},{"name":"Nelkenweg","postalCode":"65719","locality":"Hofheim am Taunus","municipality":{"key":"06436007","name":"Hofheim am Taunus, Kreisstadt","type":"Stadt"},"district":{"key":"06436","name":"Main-Taunus-Kreis","type":"Landkreis"},"federalState":{"key":"06","name":"Hessen"}},{"name":"Neueburgstr.","postalCode":"65719","locality":"Hofheim am Taunus","municipality":{"key":"06436007","name":"Hofheim am Taunus, Kreisstadt","type":"Stadt"},"district":{"key":"06436","name":"Main-Taunus-Kreis","type":"Landkreis"},"federalState":{"key":"06","name":"Hessen"}},{"name":"Neuenhainer Weg","postalCode":"65719","locality":"Hofheim am Taunus","municipality":{"key":"06436007","name":"Hofheim am Taunus, Kreisstadt","type":"Stadt"},"district":{"key":"06436","name":"Main-Taunus-Kreis","type":"Landkreis"},"federalState":{"key":"06","name":"Hessen"}},{"name":"Neugasse","postalCode":"65719","locality":"Hofheim am Taunus","municipality":{"key":"06436007","name":"Hofheim am Taunus, Kreisstadt","type":"Stadt"},"district":{"key":"06436","name":"Main-Taunus-Kreis","type":"Landkreis"},"federalState":{"key":"06","name":"Hessen"}},{"name":"Niederhofheimer Str.","postalCode":"65719","locality":"Hofheim am Taunus","municipality":{"key":"06436007","name":"Hofheim am Taunus, Kreisstadt","type":"Stadt"},"district":{"key":"06436","name":"Main-Taunus-Kreis","type":"Landkreis"},"federalState":{"key":"06","name":"Hessen"}},{"name":"Nieder Str.","postalCode":"65719","locality":"Hofheim am Taunus","municipality":{"key":"06436007","name":"Hofheim am Taunus, Kreisstadt","type":"Stadt"},"district":{"key":"06436","name":"Main-Taunus-Kreis","type":"Landkreis"},"federalState":{"key":"06","name":"Hessen"}},{"name":"Nordenstädter Str.","postalCode":"65719","locality":"Hofheim am Taunus","municipality":{"key":"06436007","name":"Hofheim am Taunus, Kreisstadt","type":"Stadt"},"district":{"key":"06436","name":"Main-Taunus-Kreis","type":"Landkreis"},"federalState":{"key":"06","name":"Hessen"}},{"name":"Nordring","postalCode":"65719","locality":"Hofheim am Taunus","municipality":{"key":"06436007","name":"Hofheim am Taunus, Kreisstadt","type":"Stadt"},"district":{"key":"06436","name":"Main-Taunus-Kreis","type":"Landkreis"},"federalState":{"key":"06","name":"Hessen"}},{"name":"Nußbaumstr.","postalCode":"65719","locality":"Hofheim am Taunus","municipality":{"key":"06436007","name":"Hofheim am Taunus, Kreisstadt","type":"Stadt"},"district":{"key":"06436","name":"Main-Taunus-Kreis","type":"Landkreis"},"federalState":{"key":"06","name":"Hessen"}},{"name":"Oberer Haingraben","postalCode":"65719","locality":"Hofheim am Taunus","municipality":{"key":"06436007","name":"Hofheim am Taunus, Kreisstadt","type":"Stadt"},"district":{"key":"06436","name":"Main-Taunus-Kreis","type":"Landkreis"},"federalState":{"key":"06","name":"Hessen"}},{"name":"Odenwaldstr.","postalCode":"65719","locality":"Hofheim am Taunus","municipality":{"key":"06436007","name":"Hofheim am Taunus, Kreisstadt","type":"Stadt"},"district":{"key":"06436","name":"Main-Taunus-Kreis","type":"Landkreis"},"federalState":{"key":"06","name":"Hessen"}},{"name":"Oestricher Str.","postalCode":"65719","locality":"Hofheim am Taunus","municipality":{"key":"06436007","name":"Hofheim am Taunus, Kreisstadt","type":"Stadt"},"district":{"key":"06436","name":"Main-Taunus-Kreis","type":"Landkreis"},"federalState":{"key":"06","name":"Hessen"}},{"name":"Oranienstr.","postalCode":"65719","locality":"Hofheim am Taunus","municipality":{"key":"06436007","name":"Hofheim am Taunus, Kreisstadt","type":"Stadt"},"district":{"key":"06436","name":"Main-Taunus-Kreis","type":"Landkreis"},"federalState":{"key":"06","name":"Hessen"}},{"name":"Oskar-Meyrer-Str.","postalCode":"65719","locality":"Hofheim am Taunus","municipality":{"key":"06436007","name":"Hofheim am Taunus, Kreisstadt","type":"Stadt"},"district":{"key":"06436","name":"Main-Taunus-Kreis","type":"Landkreis"},"federalState":{"key":"06","name":"Hessen"}},{"name":"Ostendstr.","postalCode":"65719","locality":"Hofheim am Taunus","municipality":{"key":"06436007","name":"Hofheim am Taunus, Kreisstadt","type":"Stadt"},"district":{"key":"06436","name":"Main-Taunus-Kreis","type":"Landkreis"},"federalState":{"key":"06","name":"Hessen"}},{"name":"Ostpreußenstr.","postalCode":"65719","locality":"Hofheim am Taunus","municipality":{"key":"06436007","name":"Hofheim am Taunus, Kreisstadt","type":"Stadt"},"district":{"key":"06436","name":"Main-Taunus-Kreis","type":"Landkreis"},"federalState":{"key":"06","name":"Hessen"}},{"name":"Parkstr.","postalCode":"65719","locality":"Hofheim am Taunus","municipality":{"key":"06436007","name":"Hofheim am Taunus, Kreisstadt","type":"Stadt"},"district":{"key":"06436","name":"Main-Taunus-Kreis","type":"Landkreis"},"federalState":{"key":"06","name":"Hessen"}},{"name":"Paulinenweg","postalCode":"65719","locality":"Hofheim am Taunus","municipality":{"key":"06436007","name":"Hofheim am Taunus, Kreisstadt","type":"Stadt"},"district":{"key":"06436","name":"Main-Taunus-Kreis","type":"Landkreis"},"federalState":{"key":"06","name":"Hessen"}},{"name":"Pfarrbornstr.","postalCode":"65719","locality":"Hofheim am Taunus","municipality":{"key":"06436007","name":"Hofheim am Taunus, Kreisstadt","type":"Stadt"},"district":{"key":"06436","name":"Main-Taunus-Kreis","type":"Landkreis"},"federalState":{"key":"06","name":"Hessen"}},{"name":"Pfarrgartenstr.","postalCode":"65719","locality":"Hofheim am Taunus","municipality":{"key":"06436007","name":"Hofheim am Taunus, Kreisstadt","type":"Stadt"},"district":{"key":"06436","name":"Main-Taunus-Kreis","type":"Landkreis"},"federalState":{"key":"06","name":"Hessen"}},{"name":"Pfarrgasse","postalCode":"65719","locality":"Hofheim am Taunus","municipality":{"key":"06436007","name":"Hofheim am Taunus, Kreisstadt","type":"Stadt"},"district":{"key":"06436","name":"Main-Taunus-Kreis","type":"Landkreis"},"federalState":{"key":"06","name":"Hessen"}},{"name":"Pfingstbörnchenweg","postalCode":"65719","locality":"Hofheim am Taunus","municipality":{"key":"06436007","name":"Hofheim am Taunus, Kreisstadt","type":"Stadt"},"district":{"key":"06436","name":"Main-Taunus-Kreis","type":"Landkreis"},"federalState":{"key":"06","name":"Hessen"}},{"name":"Pfingstweide","postalCode":"65719","locality":"Hofheim am Taunus","municipality":{"key":"06436007","name":"Hofheim am Taunus, Kreisstadt","type":"Stadt"},"district":{"key":"06436","name":"Main-Taunus-Kreis","type":"Landkreis"},"federalState":{"key":"06","name":"Hessen"}},{"name":"Philipp-Keim-Str.","postalCode":"65719","locality":"Hofheim am Taunus","municipality":{"key":"06436007","name":"Hofheim am Taunus, Kreisstadt","type":"Stadt"},"district":{"key":"06436","name":"Main-Taunus-Kreis","type":"Landkreis"},"federalState":{"key":"06","name":"Hessen"}},{"name":"Platanenweg","postalCode":"65719","locality":"Hofheim am Taunus","municipality":{"key":"06436007","name":"Hofheim am Taunus, Kreisstadt","type":"Stadt"},"district":{"key":"06436","name":"Main-Taunus-Kreis","type":"Landkreis"},"federalState":{"key":"06","name":"Hessen"}},{"name":"Pommernweg","postalCode":"65719","locality":"Hofheim am Taunus","municipality":{"key":"06436007","name":"Hofheim am Taunus, Kreisstadt","type":"Stadt"},"district":{"key":"06436","name":"Main-Taunus-Kreis","type":"Landkreis"},"federalState":{"key":"06","name":"Hessen"}},{"name":"Poststr.","postalCode":"65719","locality":"Hofheim am Taunus","municipality":{"key":"06436007","name":"Hofheim am Taunus, Kreisstadt","type":"Stadt"},"district":{"key":"06436","name":"Main-Taunus-Kreis","type":"Landkreis"},"federalState":{"key":"06","name":"Hessen"}},{"name":"Postweg","postalCode":"65719","locality":"Hofheim am Taunus","municipality":{"key":"06436007","name":"Hofheim am Taunus, Kreisstadt","type":"Stadt"},"district":{"key":"06436","name":"Main-Taunus-Kreis","type":"Landkreis"},"federalState":{"key":"06","name":"Hessen"}},{"name":"Potsdamer Str.","postalCode":"65719","locality":"Hofheim am Taunus","municipality":{"key":"06436007","name":"Hofheim am Taunus, Kreisstadt","type":"Stadt"},"district":{"key":"06436","name":"Main-Taunus-Kreis","type":"Landkreis"},"federalState":{"key":"06","name":"Hessen"}},{"name":"Prof.-Friedrich-Weg","postalCode":"65719","locality":"Hofheim am Taunus","municipality":{"key":"06436007","name":"Hofheim am Taunus, Kreisstadt","type":"Stadt"},"district":{"key":"06436","name":"Main-Taunus-Kreis","type":"Landkreis"},"federalState":{"key":"06","name":"Hessen"}},{"name":"Quäkerstr.","postalCode":"65719","locality":"Hofheim am Taunus","municipality":{"key":"06436007","name":"Hofheim am Taunus, Kreisstadt","type":"Stadt"},"district":{"key":"06436","name":"Main-Taunus-Kreis","type":"Landkreis"},"federalState":{"key":"06","name":"Hessen"}},{"name":"Quellenweg","postalCode":"65719","locality":"Hofheim am Taunus","municipality":{"key":"06436007","name":"Hofheim am Taunus, Kreisstadt","type":"Stadt"},"district":{"key":"06436","name":"Main-Taunus-Kreis","type":"Landkreis"},"federalState":{"key":"06","name":"Hessen"}},{"name":"Raiffeisenring","postalCode":"65719","locality":"Hofheim am Taunus","municipality":{"key":"06436007","name":"Hofheim am Taunus, Kreisstadt","type":"Stadt"},"district":{"key":"06436","name":"Main-Taunus-Kreis","type":"Landkreis"},"federalState":{"key":"06","name":"Hessen"}},{"name":"Rathausstr.","postalCode":"65719","locality":"Hofheim am Taunus","municipality":{"key":"06436007","name":"Hofheim am Taunus, Kreisstadt","type":"Stadt"},"district":{"key":"06436","name":"Main-Taunus-Kreis","type":"Landkreis"},"federalState":{"key":"06","name":"Hessen"}},{"name":"Rebhuhnweg","postalCode":"65719","locality":"Hofheim am Taunus","municipality":{"key":"06436007","name":"Hofheim am Taunus, Kreisstadt","type":"Stadt"},"district":{"key":"06436","name":"Main-Taunus-Kreis","type":"Landkreis"},"federalState":{"key":"06","name":"Hessen"}},{"name":"Recepturhof","postalCode":"65719","locality":"Hofheim am Taunus","municipality":{"key":"06436007","name":"Hofheim am Taunus, Kreisstadt","type":"Stadt"},"district":{"key":"06436","name":"Main-Taunus-Kreis","type":"Landkreis"},"federalState":{"key":"06","name":"Hessen"}},{"name":"Reichenberger Weg","postalCode":"65719","locality":"Hofheim am Taunus","municipality":{"key":"06436007","name":"Hofheim am Taunus, Kreisstadt","type":"Stadt"},"district":{"key":"06436","name":"Main-Taunus-Kreis","type":"Landkreis"},"federalState":{"key":"06","name":"Hessen"}},{"name":"Reifenberger Str.","postalCode":"65719","locality":"Hofheim am Taunus","municipality":{"key":"06436007","name":"Hofheim am Taunus, Kreisstadt","type":"Stadt"},"district":{"key":"06436","name":"Main-Taunus-Kreis","type":"Landkreis"},"federalState":{"key":"06","name":"Hessen"}},{"name":"Rheinblick","postalCode":"65719","locality":"Hofheim am Taunus","municipality":{"key":"06436007","name":"Hofheim am Taunus, Kreisstadt","type":"Stadt"},"district":{"key":"06436","name":"Main-Taunus-Kreis","type":"Landkreis"},"federalState":{"key":"06","name":"Hessen"}},{"name":"Rheingaustr.","postalCode":"65719","locality":"Hofheim am Taunus","municipality":{"key":"06436007","name":"Hofheim am Taunus, Kreisstadt","type":"Stadt"},"district":{"key":"06436","name":"Main-Taunus-Kreis","type":"Landkreis"},"federalState":{"key":"06","name":"Hessen"}},{"name":"Rhönstr.","postalCode":"65719","locality":"Hofheim am Taunus","municipality":{"key":"06436007","name":"Hofheim am Taunus, Kreisstadt","type":"Stadt"},"district":{"key":"06436","name":"Main-Taunus-Kreis","type":"Landkreis"},"federalState":{"key":"06","name":"Hessen"}},{"name":"Ringstr.","postalCode":"65719","locality":"Hofheim am Taunus","municipality":{"key":"06436007","name":"Hofheim am Taunus, Kreisstadt","type":"Stadt"},"district":{"key":"06436","name":"Main-Taunus-Kreis","type":"Landkreis"},"federalState":{"key":"06","name":"Hessen"}},{"name":"Ritterlingstr.","postalCode":"65719","locality":"Hofheim am Taunus","municipality":{"key":"06436007","name":"Hofheim am Taunus, Kreisstadt","type":"Stadt"},"district":{"key":"06436","name":"Main-Taunus-Kreis","type":"Landkreis"},"federalState":{"key":"06","name":"Hessen"}},{"name":"Rodelbahn","postalCode":"65719","locality":"Hofheim am Taunus","municipality":{"key":"06436007","name":"Hofheim am Taunus, Kreisstadt","type":"Stadt"},"district":{"key":"06436","name":"Main-Taunus-Kreis","type":"Landkreis"},"federalState":{"key":"06","name":"Hessen"}},{"name":"Rödersteinweg","postalCode":"65719","locality":"Hofheim am Taunus","municipality":{"key":"06436007","name":"Hofheim am Taunus, Kreisstadt","type":"Stadt"},"district":{"key":"06436","name":"Main-Taunus-Kreis","type":"Landkreis"},"federalState":{"key":"06","name":"Hessen"}},{"name":"Römerstr.","postalCode":"65719","locality":"Hofheim am Taunus","municipality":{"key":"06436007","name":"Hofheim am Taunus, Kreisstadt","type":"Stadt"},"district":{"key":"06436","name":"Main-Taunus-Kreis","type":"Landkreis"},"federalState":{"key":"06","name":"Hessen"}},{"name":"Rosenborn","postalCode":"65719","locality":"Hofheim am Taunus","municipality":{"key":"06436007","name":"Hofheim am Taunus, Kreisstadt","type":"Stadt"},"district":{"key":"06436","name":"Main-Taunus-Kreis","type":"Landkreis"},"federalState":{"key":"06","name":"Hessen"}},{"name":"Rosenstr.","postalCode":"65719","locality":"Hofheim am Taunus","municipality":{"key":"06436007","name":"Hofheim am Taunus, Kreisstadt","type":"Stadt"},"district":{"key":"06436","name":"Main-Taunus-Kreis","type":"Landkreis"},"federalState":{"key":"06","name":"Hessen"}},{"name":"Rossertstr.","postalCode":"65719","locality":"Hofheim am Taunus","municipality":{"key":"06436007","name":"Hofheim am Taunus, Kreisstadt","type":"Stadt"},"district":{"key":"06436","name":"Main-Taunus-Kreis","type":"Landkreis"},"federalState":{"key":"06","name":"Hessen"}},{"name":"Rüdesheimer Str.","postalCode":"65719","locality":"Hofheim am Taunus","municipality":{"key":"06436007","name":"Hofheim am Taunus, Kreisstadt","type":"Stadt"},"district":{"key":"06436","name":"Main-Taunus-Kreis","type":"Landkreis"},"federalState":{"key":"06","name":"Hessen"}},{"name":"Rudolf-Mohr-Str.","postalCode":"65719","locality":"Hofheim am Taunus","municipality":{"key":"06436007","name":"Hofheim am Taunus, Kreisstadt","type":"Stadt"},"district":{"key":"06436","name":"Main-Taunus-Kreis","type":"Landkreis"},"federalState":{"key":"06","name":"Hessen"}},{"name":"Rührborngäßchen","postalCode":"65719","locality":"Hofheim am Taunus","municipality":{"key":"06436007","name":"Hofheim am Taunus, Kreisstadt","type":"Stadt"},"district":{"key":"06436","name":"Main-Taunus-Kreis","type":"Landkreis"},"federalState":{"key":"06","name":"Hessen"}},{"name":"Sachsenring","postalCode":"65719","locality":"Hofheim am Taunus","municipality":{"key":"06436007","name":"Hofheim am Taunus, Kreisstadt","type":"Stadt"},"district":{"key":"06436","name":"Main-Taunus-Kreis","type":"Landkreis"},"federalState":{"key":"06","name":"Hessen"}},{"name":"Sandgasse","postalCode":"65719","locality":"Hofheim am Taunus","municipality":{"key":"06436007","name":"Hofheim am Taunus, Kreisstadt","type":"Stadt"},"district":{"key":"06436","name":"Main-Taunus-Kreis","type":"Landkreis"},"federalState":{"key":"06","name":"Hessen"}},{"name":"Schießberg","postalCode":"65719","locality":"Hofheim am Taunus","municipality":{"key":"06436007","name":"Hofheim am Taunus, Kreisstadt","type":"Stadt"},"district":{"key":"06436","name":"Main-Taunus-Kreis","type":"Landkreis"},"federalState":{"key":"06","name":"Hessen"}},{"name":"Schillerstr.","postalCode":"65719","locality":"Hofheim am Taunus","municipality":{"key":"06436007","name":"Hofheim am Taunus, Kreisstadt","type":"Stadt"},"district":{"key":"06436","name":"Main-Taunus-Kreis","type":"Landkreis"},"federalState":{"key":"06","name":"Hessen"}},{"name":"Schinderhannesweg","postalCode":"65719","locality":"Hofheim am Taunus","municipality":{"key":"06436007","name":"Hofheim am Taunus, Kreisstadt","type":"Stadt"},"district":{"key":"06436","name":"Main-Taunus-Kreis","type":"Landkreis"},"federalState":{"key":"06","name":"Hessen"}},{"name":"Schlehenweg","postalCode":"65719","locality":"Hofheim am Taunus","municipality":{"key":"06436007","name":"Hofheim am Taunus, Kreisstadt","type":"Stadt"},"district":{"key":"06436","name":"Main-Taunus-Kreis","type":"Landkreis"},"federalState":{"key":"06","name":"Hessen"}},{"name":"Schlesierweg","postalCode":"65719","locality":"Hofheim am Taunus","municipality":{"key":"06436007","name":"Hofheim am Taunus, Kreisstadt","type":"Stadt"},"district":{"key":"06436","name":"Main-Taunus-Kreis","type":"Landkreis"},"federalState":{"key":"06","name":"Hessen"}},{"name":"Schloßstr.","postalCode":"65719","locality":"Hofheim am Taunus","municipality":{"key":"06436007","name":"Hofheim am Taunus, Kreisstadt","type":"Stadt"},"district":{"key":"06436","name":"Main-Taunus-Kreis","type":"Landkreis"},"federalState":{"key":"06","name":"Hessen"}},{"name":"Schmelzweg","postalCode":"65719","locality":"Hofheim am Taunus","municipality":{"key":"06436007","name":"Hofheim am Taunus, Kreisstadt","type":"Stadt"},"district":{"key":"06436","name":"Main-Taunus-Kreis","type":"Landkreis"},"federalState":{"key":"06","name":"Hessen"}},{"name":"Schneidergäßchen","postalCode":"65719","locality":"Hofheim am Taunus","municipality":{"key":"06436007","name":"Hofheim am Taunus, Kreisstadt","type":"Stadt"},"district":{"key":"06436","name":"Main-Taunus-Kreis","type":"Landkreis"},"federalState":{"key":"06","name":"Hessen"}},{"name":"Schneidhainer Weg","postalCode":"65719","locality":"Hofheim am Taunus","municipality":{"key":"06436007","name":"Hofheim am Taunus, Kreisstadt","type":"Stadt"},"district":{"key":"06436","name":"Main-Taunus-Kreis","type":"Landkreis"},"federalState":{"key":"06","name":"Hessen"}},{"name":"Schöne Aussicht","postalCode":"65719","locality":"Hofheim am Taunus","municipality":{"key":"06436007","name":"Hofheim am Taunus, Kreisstadt","type":"Stadt"},"district":{"key":"06436","name":"Main-Taunus-Kreis","type":"Landkreis"},"federalState":{"key":"06","name":"Hessen"}},{"name":"Schoppastr.","postalCode":"65719","locality":"Hofheim am Taunus","municipality":{"key":"06436007","name":"Hofheim am Taunus, Kreisstadt","type":"Stadt"},"district":{"key":"06436","name":"Main-Taunus-Kreis","type":"Landkreis"},"federalState":{"key":"06","name":"Hessen"}},{"name":"Schulstr.","postalCode":"65719","locality":"Hofheim am Taunus","municipality":{"key":"06436007","name":"Hofheim am Taunus, Kreisstadt","type":"Stadt"},"district":{"key":"06436","name":"Main-Taunus-Kreis","type":"Landkreis"},"federalState":{"key":"06","name":"Hessen"}},{"name":"Schwalbenweg","postalCode":"65719","locality":"Hofheim am Taunus","municipality":{"key":"06436007","name":"Hofheim am Taunus, Kreisstadt","type":"Stadt"},"district":{"key":"06436","name":"Main-Taunus-Kreis","type":"Landkreis"},"federalState":{"key":"06","name":"Hessen"}},{"name":"Schwarzbachweg","postalCode":"65719","locality":"Hofheim am Taunus","municipality":{"key":"06436007","name":"Hofheim am Taunus, Kreisstadt","type":"Stadt"},"district":{"key":"06436","name":"Main-Taunus-Kreis","type":"Landkreis"},"federalState":{"key":"06","name":"Hessen"}},{"name":"Schwarzwaldstr.","postalCode":"65719","locality":"Hofheim am Taunus","municipality":{"key":"06436007","name":"Hofheim am Taunus, Kreisstadt","type":"Stadt"},"district":{"key":"06436","name":"Main-Taunus-Kreis","type":"Landkreis"},"federalState":{"key":"06","name":"Hessen"}},{"name":"Schweriner Weg","postalCode":"65719","locality":"Hofheim am Taunus","municipality":{"key":"06436007","name":"Hofheim am Taunus, Kreisstadt","type":"Stadt"},"district":{"key":"06436","name":"Main-Taunus-Kreis","type":"Landkreis"},"federalState":{"key":"06","name":"Hessen"}},{"name":"Seilerbahn","postalCode":"65719","locality":"Hofheim am Taunus","municipality":{"key":"06436007","name":"Hofheim am Taunus, Kreisstadt","type":"Stadt"},"district":{"key":"06436","name":"Main-Taunus-Kreis","type":"Landkreis"},"federalState":{"key":"06","name":"Hessen"}},{"name":"Seyenberg","postalCode":"65719","locality":"Hofheim am Taunus","municipality":{"key":"06436007","name":"Hofheim am Taunus, Kreisstadt","type":"Stadt"},"district":{"key":"06436","name":"Main-Taunus-Kreis","type":"Landkreis"},"federalState":{"key":"06","name":"Hessen"}},{"name":"Sieben Ruten","postalCode":"65719","locality":"Hofheim am Taunus","municipality":{"key":"06436007","name":"Hofheim am Taunus, Kreisstadt","type":"Stadt"},"district":{"key":"06436","name":"Main-Taunus-Kreis","type":"Landkreis"},"federalState":{"key":"06","name":"Hessen"}},{"name":"Siedlungsstr.","postalCode":"65719","locality":"Hofheim am Taunus","municipality":{"key":"06436007","name":"Hofheim am Taunus, Kreisstadt","type":"Stadt"},"district":{"key":"06436","name":"Main-Taunus-Kreis","type":"Landkreis"},"federalState":{"key":"06","name":"Hessen"}},{"name":"Sindlinger Str.","postalCode":"65719","locality":"Hofheim am Taunus","municipality":{"key":"06436007","name":"Hofheim am Taunus, Kreisstadt","type":"Stadt"},"district":{"key":"06436","name":"Main-Taunus-Kreis","type":"Landkreis"},"federalState":{"key":"06","name":"Hessen"}},{"name":"Sodener Str.","postalCode":"65719","locality":"Hofheim am Taunus","municipality":{"key":"06436007","name":"Hofheim am Taunus, Kreisstadt","type":"Stadt"},"district":{"key":"06436","name":"Main-Taunus-Kreis","type":"Landkreis"},"federalState":{"key":"06","name":"Hessen"}},{"name":"Solmsstr.","postalCode":"65719","locality":"Hofheim am Taunus","municipality":{"key":"06436007","name":"Hofheim am Taunus, Kreisstadt","type":"Stadt"},"district":{"key":"06436","name":"Main-Taunus-Kreis","type":"Landkreis"},"federalState":{"key":"06","name":"Hessen"}},{"name":"Sophie-Reinheimer-Str.","postalCode":"65719","locality":"Hofheim am Taunus","municipality":{"key":"06436007","name":"Hofheim am Taunus, Kreisstadt","type":"Stadt"},"district":{"key":"06436","name":"Main-Taunus-Kreis","type":"Landkreis"},"federalState":{"key":"06","name":"Hessen"}},{"name":"Sperberweg","postalCode":"65719","locality":"Hofheim am Taunus","municipality":{"key":"06436007","name":"Hofheim am Taunus, Kreisstadt","type":"Stadt"},"district":{"key":"06436","name":"Main-Taunus-Kreis","type":"Landkreis"},"federalState":{"key":"06","name":"Hessen"}},{"name":"Spessartstr.","postalCode":"65719","locality":"Hofheim am Taunus","municipality":{"key":"06436007","name":"Hofheim am Taunus, Kreisstadt","type":"Stadt"},"district":{"key":"06436","name":"Main-Taunus-Kreis","type":"Landkreis"},"federalState":{"key":"06","name":"Hessen"}},{"name":"Sportplatzstr.","postalCode":"65719","locality":"Hofheim am Taunus","municipality":{"key":"06436007","name":"Hofheim am Taunus, Kreisstadt","type":"Stadt"},"district":{"key":"06436","name":"Main-Taunus-Kreis","type":"Landkreis"},"federalState":{"key":"06","name":"Hessen"}},{"name":"Staab Schneise","postalCode":"65719","locality":"Hofheim am Taunus","municipality":{"key":"06436007","name":"Hofheim am Taunus, Kreisstadt","type":"Stadt"},"district":{"key":"06436","name":"Main-Taunus-Kreis","type":"Landkreis"},"federalState":{"key":"06","name":"Hessen"}},{"name":"Staufenstr.","postalCode":"65719","locality":"Hofheim am Taunus","municipality":{"key":"06436007","name":"Hofheim am Taunus, Kreisstadt","type":"Stadt"},"district":{"key":"06436","name":"Main-Taunus-Kreis","type":"Landkreis"},"federalState":{"key":"06","name":"Hessen"}},{"name":"Steingasse","postalCode":"65719","locality":"Hofheim am Taunus","municipality":{"key":"06436007","name":"Hofheim am Taunus, Kreisstadt","type":"Stadt"},"district":{"key":"06436","name":"Main-Taunus-Kreis","type":"Landkreis"},"federalState":{"key":"06","name":"Hessen"}},{"name":"Stephanstr.","postalCode":"65719","locality":"Hofheim am Taunus","municipality":{"key":"06436007","name":"Hofheim am Taunus, Kreisstadt","type":"Stadt"},"district":{"key":"06436","name":"Main-Taunus-Kreis","type":"Landkreis"},"federalState":{"key":"06","name":"Hessen"}},{"name":"Sternstr.","postalCode":"65719","locality":"Hofheim am Taunus","municipality":{"key":"06436007","name":"Hofheim am Taunus, Kreisstadt","type":"Stadt"},"district":{"key":"06436","name":"Main-Taunus-Kreis","type":"Landkreis"},"federalState":{"key":"06","name":"Hessen"}},{"name":"Stettiner Weg","postalCode":"65719","locality":"Hofheim am Taunus","municipality":{"key":"06436007","name":"Hofheim am Taunus, Kreisstadt","type":"Stadt"},"district":{"key":"06436","name":"Main-Taunus-Kreis","type":"Landkreis"},"federalState":{"key":"06","name":"Hessen"}},{"name":"Stolbergstr.","postalCode":"65719","locality":"Hofheim am Taunus","municipality":{"key":"06436007","name":"Hofheim am Taunus, Kreisstadt","type":"Stadt"},"district":{"key":"06436","name":"Main-Taunus-Kreis","type":"Landkreis"},"federalState":{"key":"06","name":"Hessen"}},{"name":"Stormstr.","postalCode":"65719","locality":"Hofheim am Taunus","municipality":{"key":"06436007","name":"Hofheim am Taunus, Kreisstadt","type":"Stadt"},"district":{"key":"06436","name":"Main-Taunus-Kreis","type":"Landkreis"},"federalState":{"key":"06","name":"Hessen"}},{"name":"Südhang","postalCode":"65719","locality":"Hofheim am Taunus","municipality":{"key":"06436007","name":"Hofheim am Taunus, Kreisstadt","type":"Stadt"},"district":{"key":"06436","name":"Main-Taunus-Kreis","type":"Landkreis"},"federalState":{"key":"06","name":"Hessen"}},{"name":"Sulzbacher Weg","postalCode":"65719","locality":"Hofheim am Taunus","municipality":{"key":"06436007","name":"Hofheim am Taunus, Kreisstadt","type":"Stadt"},"district":{"key":"06436","name":"Main-Taunus-Kreis","type":"Landkreis"},"federalState":{"key":"06","name":"Hessen"}},{"name":"Talstr.","postalCode":"65719","locality":"Hofheim am Taunus","municipality":{"key":"06436007","name":"Hofheim am Taunus, Kreisstadt","type":"Stadt"},"district":{"key":"06436","name":"Main-Taunus-Kreis","type":"Landkreis"},"federalState":{"key":"06","name":"Hessen"}},{"name":"Tannenweg","postalCode":"65719","locality":"Hofheim am Taunus","municipality":{"key":"06436007","name":"Hofheim am Taunus, Kreisstadt","type":"Stadt"},"district":{"key":"06436","name":"Main-Taunus-Kreis","type":"Landkreis"},"federalState":{"key":"06","name":"Hessen"}},{"name":"Taubengasse","postalCode":"65719","locality":"Hofheim am Taunus","municipality":{"key":"06436007","name":"Hofheim am Taunus, Kreisstadt","type":"Stadt"},"district":{"key":"06436","name":"Main-Taunus-Kreis","type":"Landkreis"},"federalState":{"key":"06","name":"Hessen"}},{"name":"Taunusblick","postalCode":"65719","locality":"Hofheim am Taunus","municipality":{"key":"06436007","name":"Hofheim am Taunus, Kreisstadt","type":"Stadt"},"district":{"key":"06436","name":"Main-Taunus-Kreis","type":"Landkreis"},"federalState":{"key":"06","name":"Hessen"}},{"name":"Taunusstr.","postalCode":"65719","locality":"Hofheim am Taunus","municipality":{"key":"06436007","name":"Hofheim am Taunus, Kreisstadt","type":"Stadt"},"district":{"key":"06436","name":"Main-Taunus-Kreis","type":"Landkreis"},"federalState":{"key":"06","name":"Hessen"}},{"name":"Teutonenstr.","postalCode":"65719","locality":"Hofheim am Taunus","municipality":{"key":"06436007","name":"Hofheim am Taunus, Kreisstadt","type":"Stadt"},"district":{"key":"06436","name":"Main-Taunus-Kreis","type":"Landkreis"},"federalState":{"key":"06","name":"Hessen"}},{"name":"Theodor-Heuss-Str.","postalCode":"65719","locality":"Hofheim am Taunus","municipality":{"key":"06436007","name":"Hofheim am Taunus, Kreisstadt","type":"Stadt"},"district":{"key":"06436","name":"Main-Taunus-Kreis","type":"Landkreis"},"federalState":{"key":"06","name":"Hessen"}},{"name":"Theodor-Körner-Str.","postalCode":"65719","locality":"Hofheim am Taunus","municipality":{"key":"06436007","name":"Hofheim am Taunus, Kreisstadt","type":"Stadt"},"district":{"key":"06436","name":"Main-Taunus-Kreis","type":"Landkreis"},"federalState":{"key":"06","name":"Hessen"}},{"name":"Thüringer Weg","postalCode":"65719","locality":"Hofheim am Taunus","municipality":{"key":"06436007","name":"Hofheim am Taunus, Kreisstadt","type":"Stadt"},"district":{"key":"06436","name":"Main-Taunus-Kreis","type":"Landkreis"},"federalState":{"key":"06","name":"Hessen"}},{"name":"Trail","postalCode":"65719","locality":"Hofheim am Taunus","municipality":{"key":"06436007","name":"Hofheim am Taunus, Kreisstadt","type":"Stadt"},"district":{"key":"06436","name":"Main-Taunus-Kreis","type":"Landkreis"},"federalState":{"key":"06","name":"Hessen"}},{"name":"Traubenhüttenweg","postalCode":"65719","locality":"Hofheim am Taunus","municipality":{"key":"06436007","name":"Hofheim am Taunus, Kreisstadt","type":"Stadt"},"district":{"key":"06436","name":"Main-Taunus-Kreis","type":"Landkreis"},"federalState":{"key":"06","name":"Hessen"}},{"name":"Turnerweg","postalCode":"65719","locality":"Hofheim am Taunus","municipality":{"key":"06436007","name":"Hofheim am Taunus, Kreisstadt","type":"Stadt"},"district":{"key":"06436","name":"Main-Taunus-Kreis","type":"Landkreis"},"federalState":{"key":"06","name":"Hessen"}},{"name":"Ubierstr.","postalCode":"65719","locality":"Hofheim am Taunus","municipality":{"key":"06436007","name":"Hofheim am Taunus, Kreisstadt","type":"Stadt"},"district":{"key":"06436","name":"Main-Taunus-Kreis","type":"Landkreis"},"federalState":{"key":"06","name":"Hessen"}},{"name":"Uhlandstr.","postalCode":"65719","locality":"Hofheim am Taunus","municipality":{"key":"06436007","name":"Hofheim am Taunus, Kreisstadt","type":"Stadt"},"district":{"key":"06436","name":"Main-Taunus-Kreis","type":"Landkreis"},"federalState":{"key":"06","name":"Hessen"}},{"name":"Ulmenstr.","postalCode":"65719","locality":"Hofheim am Taunus","municipality":{"key":"06436007","name":"Hofheim am Taunus, Kreisstadt","type":"Stadt"},"district":{"key":"06436","name":"Main-Taunus-Kreis","type":"Landkreis"},"federalState":{"key":"06","name":"Hessen"}},{"name":"Usinger Str.","postalCode":"65719","locality":"Hofheim am Taunus","municipality":{"key":"06436007","name":"Hofheim am Taunus, Kreisstadt","type":"Stadt"},"district":{"key":"06436","name":"Main-Taunus-Kreis","type":"Landkreis"},"federalState":{"key":"06","name":"Hessen"}},{"name":"Verbindungsstr.","postalCode":"65719","locality":"Hofheim am Taunus","municipality":{"key":"06436007","name":"Hofheim am Taunus, Kreisstadt","type":"Stadt"},"district":{"key":"06436","name":"Main-Taunus-Kreis","type":"Landkreis"},"federalState":{"key":"06","name":"Hessen"}},{"name":"Verdyweg","postalCode":"65719","locality":"Hofheim am Taunus","municipality":{"key":"06436007","name":"Hofheim am Taunus, Kreisstadt","type":"Stadt"},"district":{"key":"06436","name":"Main-Taunus-Kreis","type":"Landkreis"},"federalState":{"key":"06","name":"Hessen"}},{"name":"Viehweideweg","postalCode":"65719","locality":"Hofheim am Taunus","municipality":{"key":"06436007","name":"Hofheim am Taunus, Kreisstadt","type":"Stadt"},"district":{"key":"06436","name":"Main-Taunus-Kreis","type":"Landkreis"},"federalState":{"key":"06","name":"Hessen"}},{"name":"Vincenzstr.","postalCode":"65719","locality":"Hofheim am Taunus","municipality":{"key":"06436007","name":"Hofheim am Taunus, Kreisstadt","type":"Stadt"},"district":{"key":"06436","name":"Main-Taunus-Kreis","type":"Landkreis"},"federalState":{"key":"06","name":"Hessen"}},{"name":"Vorderheide","postalCode":"65719","locality":"Hofheim am Taunus","municipality":{"key":"06436007","name":"Hofheim am Taunus, Kreisstadt","type":"Stadt"},"district":{"key":"06436","name":"Main-Taunus-Kreis","type":"Landkreis"},"federalState":{"key":"06","name":"Hessen"}},{"name":"Vorderwart","postalCode":"65719","locality":"Hofheim am Taunus","municipality":{"key":"06436007","name":"Hofheim am Taunus, Kreisstadt","type":"Stadt"},"district":{"key":"06436","name":"Main-Taunus-Kreis","type":"Landkreis"},"federalState":{"key":"06","name":"Hessen"}},{"name":"Wacholderweg","postalCode":"65719","locality":"Hofheim am Taunus","municipality":{"key":"06436007","name":"Hofheim am Taunus, Kreisstadt","type":"Stadt"},"district":{"key":"06436","name":"Main-Taunus-Kreis","type":"Landkreis"},"federalState":{"key":"06","name":"Hessen"}},{"name":"Wachtelweg","postalCode":"65719","locality":"Hofheim am Taunus","municipality":{"key":"06436007","name":"Hofheim am Taunus, Kreisstadt","type":"Stadt"},"district":{"key":"06436","name":"Main-Taunus-Kreis","type":"Landkreis"},"federalState":{"key":"06","name":"Hessen"}},{"name":"Waldstr.","postalCode":"65719","locality":"Hofheim am Taunus","municipality":{"key":"06436007","name":"Hofheim am Taunus, Kreisstadt","type":"Stadt"},"district":{"key":"06436","name":"Main-Taunus-Kreis","type":"Landkreis"},"federalState":{"key":"06","name":"Hessen"}},{"name":"Wallauer Str.","postalCode":"65719","locality":"Hofheim am Taunus","municipality":{"key":"06436007","name":"Hofheim am Taunus, Kreisstadt","type":"Stadt"},"district":{"key":"06436","name":"Main-Taunus-Kreis","type":"Landkreis"},"federalState":{"key":"06","name":"Hessen"}},{"name":"Wallauer Weg","postalCode":"65719","locality":"Hofheim am Taunus","municipality":{"key":"06436007","name":"Hofheim am Taunus, Kreisstadt","type":"Stadt"},"district":{"key":"06436","name":"Main-Taunus-Kreis","type":"Landkreis"},"federalState":{"key":"06","name":"Hessen"}},{"name":"Webergasse","postalCode":"65719","locality":"Hofheim am Taunus","municipality":{"key":"06436007","name":"Hofheim am Taunus, Kreisstadt","type":"Stadt"},"district":{"key":"06436","name":"Main-Taunus-Kreis","type":"Landkreis"},"federalState":{"key":"06","name":"Hessen"}},{"name":"Wehrgasse","postalCode":"65719","locality":"Hofheim am Taunus","municipality":{"key":"06436007","name":"Hofheim am Taunus, Kreisstadt","type":"Stadt"},"district":{"key":"06436","name":"Main-Taunus-Kreis","type":"Landkreis"},"federalState":{"key":"06","name":"Hessen"}},{"name":"Weidenweg","postalCode":"65719","locality":"Hofheim am Taunus","municipality":{"key":"06436007","name":"Hofheim am Taunus, Kreisstadt","type":"Stadt"},"district":{"key":"06436","name":"Main-Taunus-Kreis","type":"Landkreis"},"federalState":{"key":"06","name":"Hessen"}},{"name":"Weiherstr.","postalCode":"65719","locality":"Hofheim am Taunus","municipality":{"key":"06436007","name":"Hofheim am Taunus, Kreisstadt","type":"Stadt"},"district":{"key":"06436","name":"Main-Taunus-Kreis","type":"Landkreis"},"federalState":{"key":"06","name":"Hessen"}},{"name":"Weiherweg","postalCode":"65719","locality":"Hofheim am Taunus","municipality":{"key":"06436007","name":"Hofheim am Taunus, Kreisstadt","type":"Stadt"},"district":{"key":"06436","name":"Main-Taunus-Kreis","type":"Landkreis"},"federalState":{"key":"06","name":"Hessen"}},{"name":"Weilbacher Str.","postalCode":"65719","locality":"Hofheim am Taunus","municipality":{"key":"06436007","name":"Hofheim am Taunus, Kreisstadt","type":"Stadt"},"district":{"key":"06436","name":"Main-Taunus-Kreis","type":"Landkreis"},"federalState":{"key":"06","name":"Hessen"}},{"name":"Weinbergstr.","postalCode":"65719","locality":"Hofheim am Taunus","municipality":{"key":"06436007","name":"Hofheim am Taunus, Kreisstadt","type":"Stadt"},"district":{"key":"06436","name":"Main-Taunus-Kreis","type":"Landkreis"},"federalState":{"key":"06","name":"Hessen"}},{"name":"Weißdornweg","postalCode":"65719","locality":"Hofheim am Taunus","municipality":{"key":"06436007","name":"Hofheim am Taunus, Kreisstadt","type":"Stadt"},"district":{"key":"06436","name":"Main-Taunus-Kreis","type":"Landkreis"},"federalState":{"key":"06","name":"Hessen"}},{"name":"Wickerer Weg","postalCode":"65719","locality":"Hofheim am Taunus","municipality":{"key":"06436007","name":"Hofheim am Taunus, Kreisstadt","type":"Stadt"},"district":{"key":"06436","name":"Main-Taunus-Kreis","type":"Landkreis"},"federalState":{"key":"06","name":"Hessen"}},{"name":"Widilostr.","postalCode":"65719","locality":"Hofheim am Taunus","municipality":{"key":"06436007","name":"Hofheim am Taunus, Kreisstadt","type":"Stadt"},"district":{"key":"06436","name":"Main-Taunus-Kreis","type":"Landkreis"},"federalState":{"key":"06","name":"Hessen"}},{"name":"Wielandstr.","postalCode":"65719","locality":"Hofheim am Taunus","municipality":{"key":"06436007","name":"Hofheim am Taunus, Kreisstadt","type":"Stadt"},"district":{"key":"06436","name":"Main-Taunus-Kreis","type":"Landkreis"},"federalState":{"key":"06","name":"Hessen"}},{"name":"Wiesbadener Str.","postalCode":"65719","locality":"Hofheim am Taunus","municipality":{"key":"06436007","name":"Hofheim am Taunus, Kreisstadt","type":"Stadt"},"district":{"key":"06436","name":"Main-Taunus-Kreis","type":"Landkreis"},"federalState":{"key":"06","name":"Hessen"}},{"name":"Wiesenstr.","postalCode":"65719","locality":"Hofheim am Taunus","municipality":{"key":"06436007","name":"Hofheim am Taunus, Kreisstadt","type":"Stadt"},"district":{"key":"06436","name":"Main-Taunus-Kreis","type":"Landkreis"},"federalState":{"key":"06","name":"Hessen"}},{"name":"Wildsachsener Str.","postalCode":"65719","locality":"Hofheim am Taunus","municipality":{"key":"06436007","name":"Hofheim am Taunus, Kreisstadt","type":"Stadt"},"district":{"key":"06436","name":"Main-Taunus-Kreis","type":"Landkreis"},"federalState":{"key":"06","name":"Hessen"}},{"name":"Wilhelm-Leuschner-Str.","postalCode":"65719","locality":"Hofheim am Taunus","municipality":{"key":"06436007","name":"Hofheim am Taunus, Kreisstadt","type":"Stadt"},"district":{"key":"06436","name":"Main-Taunus-Kreis","type":"Landkreis"},"federalState":{"key":"06","name":"Hessen"}},{"name":"Wilhelmstr.","postalCode":"65719","locality":"Hofheim am Taunus","municipality":{"key":"06436007","name":"Hofheim am Taunus, Kreisstadt","type":"Stadt"},"district":{"key":"06436","name":"Main-Taunus-Kreis","type":"Landkreis"},"federalState":{"key":"06","name":"Hessen"}},{"name":"Wingertstr.","postalCode":"65719","locality":"Hofheim am Taunus","municipality":{"key":"06436007","name":"Hofheim am Taunus, Kreisstadt","type":"Stadt"},"district":{"key":"06436","name":"Main-Taunus-Kreis","type":"Landkreis"},"federalState":{"key":"06","name":"Hessen"}},{"name":"Wolffstr.","postalCode":"65719","locality":"Hofheim am Taunus","municipality":{"key":"06436007","name":"Hofheim am Taunus, Kreisstadt","type":"Stadt"},"district":{"key":"06436","name":"Main-Taunus-Kreis","type":"Landkreis"},"federalState":{"key":"06","name":"Hessen"}},{"name":"Zanggasse","postalCode":"65719","locality":"Hofheim am Taunus","municipality":{"key":"06436007","name":"Hofheim am Taunus, Kreisstadt","type":"Stadt"},"district":{"key":"06436","name":"Main-Taunus-Kreis","type":"Landkreis"},"federalState":{"key":"06","name":"Hessen"}},{"name":"Zaunkönigweg","postalCode":"65719","locality":"Hofheim am Taunus","municipality":{"key":"06436007","name":"Hofheim am Taunus, Kreisstadt","type":"Stadt"},"district":{"key":"06436","name":"Main-Taunus-Kreis","type":"Landkreis"},"federalState":{"key":"06","name":"Hessen"}},{"name":"Zeil","postalCode":"65719","locality":"Hofheim am Taunus","municipality":{"key":"06436007","name":"Hofheim am Taunus, Kreisstadt","type":"Stadt"},"district":{"key":"06436","name":"Main-Taunus-Kreis","type":"Landkreis"},"federalState":{"key":"06","name":"Hessen"}},{"name":"Zeilsheimer Str.","postalCode":"65719","locality":"Hofheim am Taunus","municipality":{"key":"06436007","name":"Hofheim am Taunus, Kreisstadt","type":"Stadt"},"district":{"key":"06436","name":"Main-Taunus-Kreis","type":"Landkreis"},"federalState":{"key":"06","name":"Hessen"}},{"name":"Zeisigweg","postalCode":"65719","locality":"Hofheim am Taunus","municipality":{"key":"06436007","name":"Hofheim am Taunus, Kreisstadt","type":"Stadt"},"district":{"key":"06436","name":"Main-Taunus-Kreis","type":"Landkreis"},"federalState":{"key":"06","name":"Hessen"}},{"name":"Zimmerplatz","postalCode":"65719","locality":"Hofheim am Taunus","municipality":{"key":"06436007","name":"Hofheim am Taunus, Kreisstadt","type":"Stadt"},"district":{"key":"06436","name":"Main-Taunus-Kreis","type":"Landkreis"},"federalState":{"key":"06","name":"Hessen"}},{"name":"Zu den Eichen","postalCode":"65719","locality":"Hofheim am Taunus","municipality":{"key":"06436007","name":"Hofheim am Taunus, Kreisstadt","type":"Stadt"},"district":{"key":"06436","name":"Main-Taunus-Kreis","type":"Landkreis"},"federalState":{"key":"06","name":"Hessen"}},{"name":"Zum Eselshag","postalCode":"65719","locality":"Hofheim am Taunus","municipality":{"key":"06436007","name":"Hofheim am Taunus, Kreisstadt","type":"Stadt"},"district":{"key":"06436","name":"Main-Taunus-Kreis","type":"Landkreis"},"federalState":{"key":"06","name":"Hessen"}},{"name":"Zum Heller","postalCode":"65719","locality":"Hofheim am Taunus","municipality":{"key":"06436007","name":"Hofheim am Taunus, Kreisstadt","type":"Stadt"},"district":{"key":"06436","name":"Main-Taunus-Kreis","type":"Landkreis"},"federalState":{"key":"06","name":"Hessen"}},{"name":"Zum Lindenhof","postalCode":"65719","locality":"Hofheim am Taunus","municipality":{"key":"06436007","name":"Hofheim am Taunus, Kreisstadt","type":"Stadt"},"district":{"key":"06436","name":"Main-Taunus-Kreis","type":"Landkreis"},"federalState":{"key":"06","name":"Hessen"}},{"name":"Zum Pfarrhag","postalCode":"65719","locality":"Hofheim am Taunus","municipality":{"key":"06436007","name":"Hofheim am Taunus, Kreisstadt","type":"Stadt"},"district":{"key":"06436","name":"Main-Taunus-Kreis","type":"Landkreis"},"federalState":{"key":"06","name":"Hessen"}},{"name":"Zum Wiesengrund","postalCode":"65719","locality":"Hofheim am Taunus","municipality":{"key":"06436007","name":"Hofheim am Taunus, Kreisstadt","type":"Stadt"},"district":{"key":"06436","name":"Main-Taunus-Kreis","type":"Landkreis"},"federalState":{"key":"06","name":"Hessen"}},{"name":"Zur Burg","postalCode":"65719","locality":"Hofheim am Taunus","municipality":{"key":"06436007","name":"Hofheim am Taunus, Kreisstadt","type":"Stadt"},"district":{"key":"06436","name":"Main-Taunus-Kreis","type":"Landkreis"},"federalState":{"key":"06","name":"Hessen"}},{"name":"Zur Dachsschneise","postalCode":"65719","locality":"Hofheim am Taunus","municipality":{"key":"06436007","name":"Hofheim am Taunus, Kreisstadt","type":"Stadt"},"district":{"key":"06436","name":"Main-Taunus-Kreis","type":"Landkreis"},"federalState":{"key":"06","name":"Hessen"}},{"name":"Zur Gänsweide","postalCode":"65719","locality":"Hofheim am Taunus","municipality":{"key":"06436007","name":"Hofheim am Taunus, Kreisstadt","type":"Stadt"},"district":{"key":"06436","name":"Main-Taunus-Kreis","type":"Landkreis"},"federalState":{"key":"06","name":"Hessen"}},{"name":"Zur Kellerheide","postalCode":"65719","locality":"Hofheim am Taunus","municipality":{"key":"06436007","name":"Hofheim am Taunus, Kreisstadt","type":"Stadt"},"district":{"key":"06436","name":"Main-Taunus-Kreis","type":"Landkreis"},"federalState":{"key":"06","name":"Hessen"}},{"name":"Zur Mark","postalCode":"65719","locality":"Hofheim am Taunus","municipality":{"key":"06436007","name":"Hofheim am Taunus, Kreisstadt","type":"Stadt"},"district":{"key":"06436","name":"Main-Taunus-Kreis","type":"Landkreis"},"federalState":{"key":"06","name":"Hessen"}},{"name":"Zwergstr.","postalCode":"65719","locality":"Hofheim am Taunus","municipality":{"key":"06436007","name":"Hofheim am Taunus, Kreisstadt","type":"Stadt"},"district":{"key":"06436","name":"Main-Taunus-Kreis","type":"Landkreis"},"federalState":{"key":"06","name":"Hessen"}},]