[{"name":"Bornweg","postalCode":"54619","locality":"Leidenborn","municipality":{"key":"07232259","name":"Leidenborn","type":"Kreisangehörige_Gemeinde"},"district":{"key":"07232","name":"Eifelkreis Bitburg-Prüm","type":"Landkreis"},"federalState":{"key":"07","name":"Rheinland-Pfalz"}},{"name":"Dromigt","postalCode":"54619","locality":"Leidenborn","municipality":{"key":"07232259","name":"Leidenborn","type":"Kreisangehörige_Gemeinde"},"district":{"key":"07232","name":"Eifelkreis Bitburg-Prüm","type":"Landkreis"},"federalState":{"key":"07","name":"Rheinland-Pfalz"}},{"name":"Großkämper Weg","postalCode":"54619","locality":"Leidenborn","municipality":{"key":"07232259","name":"Leidenborn","type":"Kreisangehörige_Gemeinde"},"district":{"key":"07232","name":"Eifelkreis Bitburg-Prüm","type":"Landkreis"},"federalState":{"key":"07","name":"Rheinland-Pfalz"}},{"name":"Hauptstr.","postalCode":"54619","locality":"Leidenborn","municipality":{"key":"07232259","name":"Leidenborn","type":"Kreisangehörige_Gemeinde"},"district":{"key":"07232","name":"Eifelkreis Bitburg-Prüm","type":"Landkreis"},"federalState":{"key":"07","name":"Rheinland-Pfalz"}},{"name":"Herzfelder Str.","postalCode":"54619","locality":"Leidenborn","municipality":{"key":"07232259","name":"Leidenborn","type":"Kreisangehörige_Gemeinde"},"district":{"key":"07232","name":"Eifelkreis Bitburg-Prüm","type":"Landkreis"},"federalState":{"key":"07","name":"Rheinland-Pfalz"}},{"name":"Huffelsheck","postalCode":"54619","locality":"Leidenborn","municipality":{"key":"07232259","name":"Leidenborn","type":"Kreisangehörige_Gemeinde"},"district":{"key":"07232","name":"Eifelkreis Bitburg-Prüm","type":"Landkreis"},"federalState":{"key":"07","name":"Rheinland-Pfalz"}},{"name":"Lautzerath","postalCode":"54619","locality":"Leidenborn","municipality":{"key":"07232259","name":"Leidenborn","type":"Kreisangehörige_Gemeinde"},"district":{"key":"07232","name":"Eifelkreis Bitburg-Prüm","type":"Landkreis"},"federalState":{"key":"07","name":"Rheinland-Pfalz"}},{"name":"Regerhof","postalCode":"54619","locality":"Leidenborn","municipality":{"key":"07232259","name":"Leidenborn","type":"Kreisangehörige_Gemeinde"},"district":{"key":"07232","name":"Eifelkreis Bitburg-Prüm","type":"Landkreis"},"federalState":{"key":"07","name":"Rheinland-Pfalz"}},{"name":"Zum Marktstein","postalCode":"54619","locality":"Leidenborn","municipality":{"key":"07232259","name":"Leidenborn","type":"Kreisangehörige_Gemeinde"},"district":{"key":"07232","name":"Eifelkreis Bitburg-Prüm","type":"Landkreis"},"federalState":{"key":"07","name":"Rheinland-Pfalz"}},]