[{"key":"10188758","name":"Adlerwiesstrasse","postalCode":"8737","locality":"Gommiswald","commune":{"key":"3341","name":"Gommiswald","shortName":"Gommiswald"},"district":{"key":"1726","name":"Wahlkreis See-Gaster"},"canton":{"key":"17","code":"SG","name":"St. Gallen"},"status":"Real"},{"key":"10251123","name":"Alpenblickstrasse","postalCode":"8737","locality":"Gommiswald","commune":{"key":"3341","name":"Gommiswald","shortName":"Gommiswald"},"district":{"key":"1726","name":"Wahlkreis See-Gaster"},"canton":{"key":"17","code":"SG","name":"St. Gallen"},"status":"Real"},{"key":"10228765","name":"Alpenblickweg","postalCode":"8737","locality":"Gommiswald","commune":{"key":"3341","name":"Gommiswald","shortName":"Gommiswald"},"district":{"key":"1726","name":"Wahlkreis See-Gaster"},"canton":{"key":"17","code":"SG","name":"St. Gallen"},"status":"Real"},{"key":"10028814","name":"Attenbach","postalCode":"8737","locality":"Gommiswald","commune":{"key":"3341","name":"Gommiswald","shortName":"Gommiswald"},"district":{"key":"1726","name":"Wahlkreis See-Gaster"},"canton":{"key":"17","code":"SG","name":"St. Gallen"},"status":"Real"},{"key":"10251127","name":"Bergli","postalCode":"8737","locality":"Gommiswald","commune":{"key":"3341","name":"Gommiswald","shortName":"Gommiswald"},"district":{"key":"1726","name":"Wahlkreis See-Gaster"},"canton":{"key":"17","code":"SG","name":"St. Gallen"},"status":"Real"},{"key":"10114579","name":"Birchlistrasse","postalCode":"8737","locality":"Gommiswald","commune":{"key":"3341","name":"Gommiswald","shortName":"Gommiswald"},"district":{"key":"1726","name":"Wahlkreis See-Gaster"},"canton":{"key":"17","code":"SG","name":"St. Gallen"},"status":"Real"},{"key":"10122997","name":"Blatten","postalCode":"8737","locality":"Gommiswald","commune":{"key":"3341","name":"Gommiswald","shortName":"Gommiswald"},"district":{"key":"1726","name":"Wahlkreis See-Gaster"},"canton":{"key":"17","code":"SG","name":"St. Gallen"},"status":"Real"},{"key":"10058891","name":"Blumenau","postalCode":"8737","locality":"Gommiswald","commune":{"key":"3341","name":"Gommiswald","shortName":"Gommiswald"},"district":{"key":"1726","name":"Wahlkreis See-Gaster"},"canton":{"key":"17","code":"SG","name":"St. Gallen"},"status":"Real"},{"key":"10028816","name":"Böggenbach","postalCode":"8737","locality":"Gommiswald","commune":{"key":"3341","name":"Gommiswald","shortName":"Gommiswald"},"district":{"key":"1726","name":"Wahlkreis See-Gaster"},"canton":{"key":"17","code":"SG","name":"St. Gallen"},"status":"Real"},{"key":"10092613","name":"Dorfplatz","postalCode":"8737","locality":"Gommiswald","commune":{"key":"3341","name":"Gommiswald","shortName":"Gommiswald"},"district":{"key":"1726","name":"Wahlkreis See-Gaster"},"canton":{"key":"17","code":"SG","name":"St. Gallen"},"status":"Real"},{"key":"10230443","name":"Dorfplatz-Rickenstrasse","postalCode":"8737","locality":"Gommiswald","commune":{"key":"3341","name":"Gommiswald","shortName":"Gommiswald"},"district":{"key":"1726","name":"Wahlkreis See-Gaster"},"canton":{"key":"17","code":"SG","name":"St. Gallen"},"status":"Real"},{"key":"10028817","name":"Eichholz","postalCode":"8737","locality":"Gommiswald","commune":{"key":"3341","name":"Gommiswald","shortName":"Gommiswald"},"district":{"key":"1726","name":"Wahlkreis See-Gaster"},"canton":{"key":"17","code":"SG","name":"St. Gallen"},"status":"Real"},{"key":"10230480","name":"Eichholzweg","postalCode":"8737","locality":"Gommiswald","commune":{"key":"3341","name":"Gommiswald","shortName":"Gommiswald"},"district":{"key":"1726","name":"Wahlkreis See-Gaster"},"canton":{"key":"17","code":"SG","name":"St. Gallen"},"status":"Real"},{"key":"10197278","name":"Englen","postalCode":"8737","locality":"Gommiswald","commune":{"key":"3341","name":"Gommiswald","shortName":"Gommiswald"},"district":{"key":"1726","name":"Wahlkreis See-Gaster"},"canton":{"key":"17","code":"SG","name":"St. Gallen"},"status":"Real"},{"key":"10230484","name":"Englenweg","postalCode":"8737","locality":"Gommiswald","commune":{"key":"3341","name":"Gommiswald","shortName":"Gommiswald"},"district":{"key":"1726","name":"Wahlkreis See-Gaster"},"canton":{"key":"17","code":"SG","name":"St. Gallen"},"status":"Real"},{"key":"10106491","name":"Ernetschwilerstrasse","postalCode":"8737","locality":"Gommiswald","commune":{"key":"3341","name":"Gommiswald","shortName":"Gommiswald"},"district":{"key":"1726","name":"Wahlkreis See-Gaster"},"canton":{"key":"17","code":"SG","name":"St. Gallen"},"status":"Real"},{"key":"10028818","name":"Frohsinnweg","postalCode":"8737","locality":"Gommiswald","commune":{"key":"3341","name":"Gommiswald","shortName":"Gommiswald"},"district":{"key":"1726","name":"Wahlkreis See-Gaster"},"canton":{"key":"17","code":"SG","name":"St. Gallen"},"status":"Real"},{"key":"10250951","name":"Gewerbestrasse","postalCode":"8737","locality":"Gommiswald","commune":{"key":"3341","name":"Gommiswald","shortName":"Gommiswald"},"district":{"key":"1726","name":"Wahlkreis See-Gaster"},"canton":{"key":"17","code":"SG","name":"St. Gallen"},"status":"Real"},{"key":"10225169","name":"Griesweg","postalCode":"8737","locality":"Gommiswald","commune":{"key":"3341","name":"Gommiswald","shortName":"Gommiswald"},"district":{"key":"1726","name":"Wahlkreis See-Gaster"},"canton":{"key":"17","code":"SG","name":"St. Gallen"},"status":"Real"},{"key":"10112018","name":"Haldrain","postalCode":"8737","locality":"Gommiswald","commune":{"key":"3341","name":"Gommiswald","shortName":"Gommiswald"},"district":{"key":"1726","name":"Wahlkreis See-Gaster"},"canton":{"key":"17","code":"SG","name":"St. Gallen"},"status":"Real"},{"key":"10185006","name":"Harris","postalCode":"8737","locality":"Gommiswald","commune":{"key":"3341","name":"Gommiswald","shortName":"Gommiswald"},"district":{"key":"1726","name":"Wahlkreis See-Gaster"},"canton":{"key":"17","code":"SG","name":"St. Gallen"},"status":"Real"},{"key":"10028819","name":"Haslen","postalCode":"8737","locality":"Gommiswald","commune":{"key":"3341","name":"Gommiswald","shortName":"Gommiswald"},"district":{"key":"1726","name":"Wahlkreis See-Gaster"},"canton":{"key":"17","code":"SG","name":"St. Gallen"},"status":"Real"},{"key":"10225205","name":"Heroweg","postalCode":"8737","locality":"Gommiswald","commune":{"key":"3341","name":"Gommiswald","shortName":"Gommiswald"},"district":{"key":"1726","name":"Wahlkreis See-Gaster"},"canton":{"key":"17","code":"SG","name":"St. Gallen"},"status":"Real"},{"key":"10188759","name":"Herrengasse","postalCode":"8737","locality":"Gommiswald","commune":{"key":"3341","name":"Gommiswald","shortName":"Gommiswald"},"district":{"key":"1726","name":"Wahlkreis See-Gaster"},"canton":{"key":"17","code":"SG","name":"St. Gallen"},"status":"Real"},{"key":"10251200","name":"Hof","postalCode":"8737","locality":"Gommiswald","commune":{"key":"3341","name":"Gommiswald","shortName":"Gommiswald"},"district":{"key":"1726","name":"Wahlkreis See-Gaster"},"canton":{"key":"17","code":"SG","name":"St. Gallen"},"status":"Real"},{"key":"10058892","name":"Hofweid","postalCode":"8737","locality":"Gommiswald","commune":{"key":"3341","name":"Gommiswald","shortName":"Gommiswald"},"district":{"key":"1726","name":"Wahlkreis See-Gaster"},"canton":{"key":"17","code":"SG","name":"St. Gallen"},"status":"Real"},{"key":"10230632","name":"Huetbachweg","postalCode":"8737","locality":"Gommiswald","commune":{"key":"3341","name":"Gommiswald","shortName":"Gommiswald"},"district":{"key":"1726","name":"Wahlkreis See-Gaster"},"canton":{"key":"17","code":"SG","name":"St. Gallen"},"status":"Real"},{"key":"10028820","name":"Kehr","postalCode":"8737","locality":"Gommiswald","commune":{"key":"3341","name":"Gommiswald","shortName":"Gommiswald"},"district":{"key":"1726","name":"Wahlkreis See-Gaster"},"canton":{"key":"17","code":"SG","name":"St. Gallen"},"status":"Real"},{"key":"10079931","name":"Kilpel","postalCode":"8737","locality":"Gommiswald","commune":{"key":"3341","name":"Gommiswald","shortName":"Gommiswald"},"district":{"key":"1726","name":"Wahlkreis See-Gaster"},"canton":{"key":"17","code":"SG","name":"St. Gallen"},"status":"Real"},{"key":"10028821","name":"Kirchbühlstrasse","postalCode":"8737","locality":"Gommiswald","commune":{"key":"3341","name":"Gommiswald","shortName":"Gommiswald"},"district":{"key":"1726","name":"Wahlkreis See-Gaster"},"canton":{"key":"17","code":"SG","name":"St. Gallen"},"status":"Real"},{"key":"10251209","name":"Neuwis","postalCode":"8737","locality":"Gommiswald","commune":{"key":"3341","name":"Gommiswald","shortName":"Gommiswald"},"district":{"key":"1726","name":"Wahlkreis See-Gaster"},"canton":{"key":"17","code":"SG","name":"St. Gallen"},"status":"Real"},{"key":"10207184","name":"Oberer Weiher","postalCode":"8737","locality":"Gommiswald","commune":{"key":"3341","name":"Gommiswald","shortName":"Gommiswald"},"district":{"key":"1726","name":"Wahlkreis See-Gaster"},"canton":{"key":"17","code":"SG","name":"St. Gallen"},"status":"Real"},{"key":"10190454","name":"Port","postalCode":"8737","locality":"Gommiswald","commune":{"key":"3341","name":"Gommiswald","shortName":"Gommiswald"},"district":{"key":"1726","name":"Wahlkreis See-Gaster"},"canton":{"key":"17","code":"SG","name":"St. Gallen"},"status":"Real"},{"key":"10224150","name":"Portstrasse","postalCode":"8737","locality":"Gommiswald","commune":{"key":"3341","name":"Gommiswald","shortName":"Gommiswald"},"district":{"key":"1726","name":"Wahlkreis See-Gaster"},"canton":{"key":"17","code":"SG","name":"St. Gallen"},"status":"Real"},{"key":"10079933","name":"Ramendingen","postalCode":"8737","locality":"Gommiswald","commune":{"key":"3341","name":"Gommiswald","shortName":"Gommiswald"},"district":{"key":"1726","name":"Wahlkreis See-Gaster"},"canton":{"key":"17","code":"SG","name":"St. Gallen"},"status":"Real"},{"key":"10224162","name":"Ramendingenstrasse","postalCode":"8737","locality":"Gommiswald","commune":{"key":"3341","name":"Gommiswald","shortName":"Gommiswald"},"district":{"key":"1726","name":"Wahlkreis See-Gaster"},"canton":{"key":"17","code":"SG","name":"St. Gallen"},"status":"Real"},{"key":"10250966","name":"Rickenstrasse","postalCode":"8737","locality":"Gommiswald","commune":{"key":"3341","name":"Gommiswald","shortName":"Gommiswald"},"district":{"key":"1726","name":"Wahlkreis See-Gaster"},"canton":{"key":"17","code":"SG","name":"St. Gallen"},"status":"Real"},{"key":"10092615","name":"Riedenstrasse","postalCode":"8737","locality":"Gommiswald","commune":{"key":"3341","name":"Gommiswald","shortName":"Gommiswald"},"district":{"key":"1726","name":"Wahlkreis See-Gaster"},"canton":{"key":"17","code":"SG","name":"St. Gallen"},"status":"Real"},{"key":"10028822","name":"Rietwies","postalCode":"8737","locality":"Gommiswald","commune":{"key":"3341","name":"Gommiswald","shortName":"Gommiswald"},"district":{"key":"1726","name":"Wahlkreis See-Gaster"},"canton":{"key":"17","code":"SG","name":"St. Gallen"},"status":"Real"},{"key":"10028823","name":"Rietwiesstrasse","postalCode":"8737","locality":"Gommiswald","commune":{"key":"3341","name":"Gommiswald","shortName":"Gommiswald"},"district":{"key":"1726","name":"Wahlkreis See-Gaster"},"canton":{"key":"17","code":"SG","name":"St. Gallen"},"status":"Real"},{"key":"10224189","name":"Rietwiesweg","postalCode":"8737","locality":"Gommiswald","commune":{"key":"3341","name":"Gommiswald","shortName":"Gommiswald"},"district":{"key":"1726","name":"Wahlkreis See-Gaster"},"canton":{"key":"17","code":"SG","name":"St. Gallen"},"status":"Real"},{"key":"10028824","name":"Ringstrasse","postalCode":"8737","locality":"Gommiswald","commune":{"key":"3341","name":"Gommiswald","shortName":"Gommiswald"},"district":{"key":"1726","name":"Wahlkreis See-Gaster"},"canton":{"key":"17","code":"SG","name":"St. Gallen"},"status":"Real"},{"key":"10159798","name":"Schmitte","postalCode":"8737","locality":"Gommiswald","commune":{"key":"3341","name":"Gommiswald","shortName":"Gommiswald"},"district":{"key":"1726","name":"Wahlkreis See-Gaster"},"canton":{"key":"17","code":"SG","name":"St. Gallen"},"status":"Real"},{"key":"10224225","name":"Schmitte Weg","postalCode":"8737","locality":"Gommiswald","commune":{"key":"3341","name":"Gommiswald","shortName":"Gommiswald"},"district":{"key":"1726","name":"Wahlkreis See-Gaster"},"canton":{"key":"17","code":"SG","name":"St. Gallen"},"status":"Real"},{"key":"10188760","name":"Schönenbach","postalCode":"8737","locality":"Gommiswald","commune":{"key":"3341","name":"Gommiswald","shortName":"Gommiswald"},"district":{"key":"1726","name":"Wahlkreis See-Gaster"},"canton":{"key":"17","code":"SG","name":"St. Gallen"},"status":"Real"},{"key":"10224233","name":"Schönenbachstrasse","postalCode":"8737","locality":"Gommiswald","commune":{"key":"3341","name":"Gommiswald","shortName":"Gommiswald"},"district":{"key":"1726","name":"Wahlkreis See-Gaster"},"canton":{"key":"17","code":"SG","name":"St. Gallen"},"status":"Real"},{"key":"10224237","name":"Schönenbachweg","postalCode":"8737","locality":"Gommiswald","commune":{"key":"3341","name":"Gommiswald","shortName":"Gommiswald"},"district":{"key":"1726","name":"Wahlkreis See-Gaster"},"canton":{"key":"17","code":"SG","name":"St. Gallen"},"status":"Real"},{"key":"10250981","name":"Schulstrasse","postalCode":"8737","locality":"Gommiswald","commune":{"key":"3341","name":"Gommiswald","shortName":"Gommiswald"},"district":{"key":"1726","name":"Wahlkreis See-Gaster"},"canton":{"key":"17","code":"SG","name":"St. Gallen"},"status":"Real"},{"key":"10126640","name":"Sonnenbühl","postalCode":"8737","locality":"Gommiswald","commune":{"key":"3341","name":"Gommiswald","shortName":"Gommiswald"},"district":{"key":"1726","name":"Wahlkreis See-Gaster"},"canton":{"key":"17","code":"SG","name":"St. Gallen"},"status":"Real"},{"key":"10028825","name":"Sulzweidstrasse","postalCode":"8737","locality":"Gommiswald","commune":{"key":"3341","name":"Gommiswald","shortName":"Gommiswald"},"district":{"key":"1726","name":"Wahlkreis See-Gaster"},"canton":{"key":"17","code":"SG","name":"St. Gallen"},"status":"Real"},{"key":"10224324","name":"Untere Gasse","postalCode":"8737","locality":"Gommiswald","commune":{"key":"3341","name":"Gommiswald","shortName":"Gommiswald"},"district":{"key":"1726","name":"Wahlkreis See-Gaster"},"canton":{"key":"17","code":"SG","name":"St. Gallen"},"status":"Real"},{"key":"10126098","name":"Untere Winden","postalCode":"8737","locality":"Gommiswald","commune":{"key":"3341","name":"Gommiswald","shortName":"Gommiswald"},"district":{"key":"1726","name":"Wahlkreis See-Gaster"},"canton":{"key":"17","code":"SG","name":"St. Gallen"},"status":"Real"},{"key":"10092616","name":"Wäldli","postalCode":"8737","locality":"Gommiswald","commune":{"key":"3341","name":"Gommiswald","shortName":"Gommiswald"},"district":{"key":"1726","name":"Wahlkreis See-Gaster"},"canton":{"key":"17","code":"SG","name":"St. Gallen"},"status":"Real"},{"key":"10076418","name":"Weberhof","postalCode":"8737","locality":"Gommiswald","commune":{"key":"3341","name":"Gommiswald","shortName":"Gommiswald"},"district":{"key":"1726","name":"Wahlkreis See-Gaster"},"canton":{"key":"17","code":"SG","name":"St. Gallen"},"status":"Real"},{"key":"10114580","name":"Weiherstrasse","postalCode":"8737","locality":"Gommiswald","commune":{"key":"3341","name":"Gommiswald","shortName":"Gommiswald"},"district":{"key":"1726","name":"Wahlkreis See-Gaster"},"canton":{"key":"17","code":"SG","name":"St. Gallen"},"status":"Real"},{"key":"10225792","name":"Windenweg","postalCode":"8737","locality":"Gommiswald","commune":{"key":"3341","name":"Gommiswald","shortName":"Gommiswald"},"district":{"key":"1726","name":"Wahlkreis See-Gaster"},"canton":{"key":"17","code":"SG","name":"St. Gallen"},"status":"Real"},]