[{"name":"Auf der Klüsserather Acht","postalCode":"54340","locality":"Köwerich","municipality":{"key":"07235067","name":"Köwerich","type":"Kreisangehörige_Gemeinde"},"district":{"key":"07235","name":"Trier-Saarburg","type":"Landkreis"},"federalState":{"key":"07","name":"Rheinland-Pfalz"}},{"name":"Beethovenstr.","postalCode":"54340","locality":"Köwerich","municipality":{"key":"07235067","name":"Köwerich","type":"Kreisangehörige_Gemeinde"},"district":{"key":"07235","name":"Trier-Saarburg","type":"Landkreis"},"federalState":{"key":"07","name":"Rheinland-Pfalz"}},{"name":"Fährgasse","postalCode":"54340","locality":"Köwerich","municipality":{"key":"07235067","name":"Köwerich","type":"Kreisangehörige_Gemeinde"},"district":{"key":"07235","name":"Trier-Saarburg","type":"Landkreis"},"federalState":{"key":"07","name":"Rheinland-Pfalz"}},{"name":"Im Moselwinkel","postalCode":"54340","locality":"Köwerich","municipality":{"key":"07235067","name":"Köwerich","type":"Kreisangehörige_Gemeinde"},"district":{"key":"07235","name":"Trier-Saarburg","type":"Landkreis"},"federalState":{"key":"07","name":"Rheinland-Pfalz"}},{"name":"Im Weingarten","postalCode":"54340","locality":"Köwerich","municipality":{"key":"07235067","name":"Köwerich","type":"Kreisangehörige_Gemeinde"},"district":{"key":"07235","name":"Trier-Saarburg","type":"Landkreis"},"federalState":{"key":"07","name":"Rheinland-Pfalz"}},{"name":"Im Wiesengrund","postalCode":"54340","locality":"Köwerich","municipality":{"key":"07235067","name":"Köwerich","type":"Kreisangehörige_Gemeinde"},"district":{"key":"07235","name":"Trier-Saarburg","type":"Landkreis"},"federalState":{"key":"07","name":"Rheinland-Pfalz"}},{"name":"Kapellenstr.","postalCode":"54340","locality":"Köwerich","municipality":{"key":"07235067","name":"Köwerich","type":"Kreisangehörige_Gemeinde"},"district":{"key":"07235","name":"Trier-Saarburg","type":"Landkreis"},"federalState":{"key":"07","name":"Rheinland-Pfalz"}},{"name":"Moselbahnstr.","postalCode":"54340","locality":"Köwerich","municipality":{"key":"07235067","name":"Köwerich","type":"Kreisangehörige_Gemeinde"},"district":{"key":"07235","name":"Trier-Saarburg","type":"Landkreis"},"federalState":{"key":"07","name":"Rheinland-Pfalz"}},{"name":"Schulstr.","postalCode":"54340","locality":"Köwerich","municipality":{"key":"07235067","name":"Köwerich","type":"Kreisangehörige_Gemeinde"},"district":{"key":"07235","name":"Trier-Saarburg","type":"Landkreis"},"federalState":{"key":"07","name":"Rheinland-Pfalz"}},{"name":"St. Kunibert-Platz","postalCode":"54340","locality":"Köwerich","municipality":{"key":"07235067","name":"Köwerich","type":"Kreisangehörige_Gemeinde"},"district":{"key":"07235","name":"Trier-Saarburg","type":"Landkreis"},"federalState":{"key":"07","name":"Rheinland-Pfalz"}},{"name":"Zum Butterberg","postalCode":"54340","locality":"Köwerich","municipality":{"key":"07235067","name":"Köwerich","type":"Kreisangehörige_Gemeinde"},"district":{"key":"07235","name":"Trier-Saarburg","type":"Landkreis"},"federalState":{"key":"07","name":"Rheinland-Pfalz"}},]