[{"name":"Alpenbadstr.","postalCode":"83646","locality":"Wackersberg","municipality":{"key":"09173145","name":"Wackersberg","type":"Kreisangehörige_Gemeinde"},"district":{"key":"09173","name":"Bad Tölz-Wolfratshausen","type":"Landkreis"},"federalState":{"key":"09","name":"Bayern"}},{"name":"Alter Saumweg","postalCode":"83646","locality":"Wackersberg","municipality":{"key":"09173145","name":"Wackersberg","type":"Kreisangehörige_Gemeinde"},"district":{"key":"09173","name":"Bad Tölz-Wolfratshausen","type":"Landkreis"},"federalState":{"key":"09","name":"Bayern"}},{"name":"Alter Zwieselweg","postalCode":"83646","locality":"Wackersberg","municipality":{"key":"09173145","name":"Wackersberg","type":"Kreisangehörige_Gemeinde"},"district":{"key":"09173","name":"Bad Tölz-Wolfratshausen","type":"Landkreis"},"federalState":{"key":"09","name":"Bayern"}},{"name":"Am Aubach","postalCode":"83646","locality":"Wackersberg","municipality":{"key":"09173145","name":"Wackersberg","type":"Kreisangehörige_Gemeinde"},"district":{"key":"09173","name":"Bad Tölz-Wolfratshausen","type":"Landkreis"},"federalState":{"key":"09","name":"Bayern"}},{"name":"Am Hoheneck","postalCode":"83646","locality":"Wackersberg","municipality":{"key":"09173145","name":"Wackersberg","type":"Kreisangehörige_Gemeinde"},"district":{"key":"09173","name":"Bad Tölz-Wolfratshausen","type":"Landkreis"},"federalState":{"key":"09","name":"Bayern"}},{"name":"Amortstr.","postalCode":"83646","locality":"Wackersberg","municipality":{"key":"09173145","name":"Wackersberg","type":"Kreisangehörige_Gemeinde"},"district":{"key":"09173","name":"Bad Tölz-Wolfratshausen","type":"Landkreis"},"federalState":{"key":"09","name":"Bayern"}},{"name":"Am Schachen","postalCode":"83646","locality":"Wackersberg","municipality":{"key":"09173145","name":"Wackersberg","type":"Kreisangehörige_Gemeinde"},"district":{"key":"09173","name":"Bad Tölz-Wolfratshausen","type":"Landkreis"},"federalState":{"key":"09","name":"Bayern"}},{"name":"Am Stausee","postalCode":"83646","locality":"Wackersberg","municipality":{"key":"09173145","name":"Wackersberg","type":"Kreisangehörige_Gemeinde"},"district":{"key":"09173","name":"Bad Tölz-Wolfratshausen","type":"Landkreis"},"federalState":{"key":"09","name":"Bayern"}},{"name":"Am Steinbach","postalCode":"83646","locality":"Wackersberg","municipality":{"key":"09173145","name":"Wackersberg","type":"Kreisangehörige_Gemeinde"},"district":{"key":"09173","name":"Bad Tölz-Wolfratshausen","type":"Landkreis"},"federalState":{"key":"09","name":"Bayern"}},{"name":"Angerstr.","postalCode":"83646","locality":"Wackersberg","municipality":{"key":"09173145","name":"Wackersberg","type":"Kreisangehörige_Gemeinde"},"district":{"key":"09173","name":"Bad Tölz-Wolfratshausen","type":"Landkreis"},"federalState":{"key":"09","name":"Bayern"}},{"name":"Au","postalCode":"83646","locality":"Wackersberg","municipality":{"key":"09173145","name":"Wackersberg","type":"Kreisangehörige_Gemeinde"},"district":{"key":"09173","name":"Bad Tölz-Wolfratshausen","type":"Landkreis"},"federalState":{"key":"09","name":"Bayern"}},{"name":"Bachstr.","postalCode":"83646","locality":"Wackersberg","municipality":{"key":"09173145","name":"Wackersberg","type":"Kreisangehörige_Gemeinde"},"district":{"key":"09173","name":"Bad Tölz-Wolfratshausen","type":"Landkreis"},"federalState":{"key":"09","name":"Bayern"}},{"name":"Benediktbeurer","postalCode":"83646","locality":"Wackersberg","municipality":{"key":"09173145","name":"Wackersberg","type":"Kreisangehörige_Gemeinde"},"district":{"key":"09173","name":"Bad Tölz-Wolfratshausen","type":"Landkreis"},"federalState":{"key":"09","name":"Bayern"}},{"name":"Benediktbeurer Str.","postalCode":"83646","locality":"Wackersberg","municipality":{"key":"09173145","name":"Wackersberg","type":"Kreisangehörige_Gemeinde"},"district":{"key":"09173","name":"Bad Tölz-Wolfratshausen","type":"Landkreis"},"federalState":{"key":"09","name":"Bayern"}},{"name":"Burgsteinstr.","postalCode":"83646","locality":"Wackersberg","municipality":{"key":"09173145","name":"Wackersberg","type":"Kreisangehörige_Gemeinde"},"district":{"key":"09173","name":"Bad Tölz-Wolfratshausen","type":"Landkreis"},"federalState":{"key":"09","name":"Bayern"}},{"name":"Burgwald","postalCode":"83646","locality":"Wackersberg","municipality":{"key":"09173145","name":"Wackersberg","type":"Kreisangehörige_Gemeinde"},"district":{"key":"09173","name":"Bad Tölz-Wolfratshausen","type":"Landkreis"},"federalState":{"key":"09","name":"Bayern"}},{"name":"Dorfstr.","postalCode":"83646","locality":"Wackersberg","municipality":{"key":"09173145","name":"Wackersberg","type":"Kreisangehörige_Gemeinde"},"district":{"key":"09173","name":"Bad Tölz-Wolfratshausen","type":"Landkreis"},"federalState":{"key":"09","name":"Bayern"}},{"name":"Einbachstr.","postalCode":"83646","locality":"Wackersberg","municipality":{"key":"09173145","name":"Wackersberg","type":"Kreisangehörige_Gemeinde"},"district":{"key":"09173","name":"Bad Tölz-Wolfratshausen","type":"Landkreis"},"federalState":{"key":"09","name":"Bayern"}},{"name":"Enzianweg","postalCode":"83646","locality":"Wackersberg","municipality":{"key":"09173145","name":"Wackersberg","type":"Kreisangehörige_Gemeinde"},"district":{"key":"09173","name":"Bad Tölz-Wolfratshausen","type":"Landkreis"},"federalState":{"key":"09","name":"Bayern"}},{"name":"Flurstr.","postalCode":"83646","locality":"Wackersberg","municipality":{"key":"09173145","name":"Wackersberg","type":"Kreisangehörige_Gemeinde"},"district":{"key":"09173","name":"Bad Tölz-Wolfratshausen","type":"Landkreis"},"federalState":{"key":"09","name":"Bayern"}},{"name":"Ganterstattweg","postalCode":"83646","locality":"Wackersberg","municipality":{"key":"09173145","name":"Wackersberg","type":"Kreisangehörige_Gemeinde"},"district":{"key":"09173","name":"Bad Tölz-Wolfratshausen","type":"Landkreis"},"federalState":{"key":"09","name":"Bayern"}},{"name":"Georg-Schwaighofer-Str.","postalCode":"83646","locality":"Wackersberg","municipality":{"key":"09173145","name":"Wackersberg","type":"Kreisangehörige_Gemeinde"},"district":{"key":"09173","name":"Bad Tölz-Wolfratshausen","type":"Landkreis"},"federalState":{"key":"09","name":"Bayern"}},{"name":"Greilinger Weg","postalCode":"83646","locality":"Wackersberg","municipality":{"key":"09173145","name":"Wackersberg","type":"Kreisangehörige_Gemeinde"},"district":{"key":"09173","name":"Bad Tölz-Wolfratshausen","type":"Landkreis"},"federalState":{"key":"09","name":"Bayern"}},{"name":"Hahnenkammweg","postalCode":"83646","locality":"Wackersberg","municipality":{"key":"09173145","name":"Wackersberg","type":"Kreisangehörige_Gemeinde"},"district":{"key":"09173","name":"Bad Tölz-Wolfratshausen","type":"Landkreis"},"federalState":{"key":"09","name":"Bayern"}},{"name":"Hauptstr.","postalCode":"83646","locality":"Wackersberg","municipality":{"key":"09173145","name":"Wackersberg","type":"Kreisangehörige_Gemeinde"},"district":{"key":"09173","name":"Bad Tölz-Wolfratshausen","type":"Landkreis"},"federalState":{"key":"09","name":"Bayern"}},{"name":"Isarradweg","postalCode":"83646","locality":"Wackersberg","municipality":{"key":"09173145","name":"Wackersberg","type":"Kreisangehörige_Gemeinde"},"district":{"key":"09173","name":"Bad Tölz-Wolfratshausen","type":"Landkreis"},"federalState":{"key":"09","name":"Bayern"}},{"name":"Kalkofenstr.","postalCode":"83646","locality":"Wackersberg","municipality":{"key":"09173145","name":"Wackersberg","type":"Kreisangehörige_Gemeinde"},"district":{"key":"09173","name":"Bad Tölz-Wolfratshausen","type":"Landkreis"},"federalState":{"key":"09","name":"Bayern"}},{"name":"Kiefersau","postalCode":"83646","locality":"Wackersberg","municipality":{"key":"09173145","name":"Wackersberg","type":"Kreisangehörige_Gemeinde"},"district":{"key":"09173","name":"Bad Tölz-Wolfratshausen","type":"Landkreis"},"federalState":{"key":"09","name":"Bayern"}},{"name":"Kirchenweg","postalCode":"83646","locality":"Wackersberg","municipality":{"key":"09173145","name":"Wackersberg","type":"Kreisangehörige_Gemeinde"},"district":{"key":"09173","name":"Bad Tölz-Wolfratshausen","type":"Landkreis"},"federalState":{"key":"09","name":"Bayern"}},{"name":"Kirchstr.","postalCode":"83646","locality":"Wackersberg","municipality":{"key":"09173145","name":"Wackersberg","type":"Kreisangehörige_Gemeinde"},"district":{"key":"09173","name":"Bad Tölz-Wolfratshausen","type":"Landkreis"},"federalState":{"key":"09","name":"Bayern"}},{"name":"Lain","postalCode":"83646","locality":"Wackersberg","municipality":{"key":"09173145","name":"Wackersberg","type":"Kreisangehörige_Gemeinde"},"district":{"key":"09173","name":"Bad Tölz-Wolfratshausen","type":"Landkreis"},"federalState":{"key":"09","name":"Bayern"}},{"name":"Längentalstr.","postalCode":"83646","locality":"Wackersberg","municipality":{"key":"09173145","name":"Wackersberg","type":"Kreisangehörige_Gemeinde"},"district":{"key":"09173","name":"Bad Tölz-Wolfratshausen","type":"Landkreis"},"federalState":{"key":"09","name":"Bayern"}},{"name":"Lehenstr.","postalCode":"83646","locality":"Wackersberg","municipality":{"key":"09173145","name":"Wackersberg","type":"Kreisangehörige_Gemeinde"},"district":{"key":"09173","name":"Bad Tölz-Wolfratshausen","type":"Landkreis"},"federalState":{"key":"09","name":"Bayern"}},{"name":"Lüftenweg","postalCode":"83646","locality":"Wackersberg","municipality":{"key":"09173145","name":"Wackersberg","type":"Kreisangehörige_Gemeinde"},"district":{"key":"09173","name":"Bad Tölz-Wolfratshausen","type":"Landkreis"},"federalState":{"key":"09","name":"Bayern"}},{"name":"Peterbauerweg","postalCode":"83646","locality":"Wackersberg","municipality":{"key":"09173145","name":"Wackersberg","type":"Kreisangehörige_Gemeinde"},"district":{"key":"09173","name":"Bad Tölz-Wolfratshausen","type":"Landkreis"},"federalState":{"key":"09","name":"Bayern"}},{"name":"Quellenstr.","postalCode":"83646","locality":"Wackersberg","municipality":{"key":"09173145","name":"Wackersberg","type":"Kreisangehörige_Gemeinde"},"district":{"key":"09173","name":"Bad Tölz-Wolfratshausen","type":"Landkreis"},"federalState":{"key":"09","name":"Bayern"}},{"name":"Rodelweg","postalCode":"83646","locality":"Wackersberg","municipality":{"key":"09173145","name":"Wackersberg","type":"Kreisangehörige_Gemeinde"},"district":{"key":"09173","name":"Bad Tölz-Wolfratshausen","type":"Landkreis"},"federalState":{"key":"09","name":"Bayern"}},{"name":"Rudolf-Then-Str.","postalCode":"83646","locality":"Wackersberg","municipality":{"key":"09173145","name":"Wackersberg","type":"Kreisangehörige_Gemeinde"},"district":{"key":"09173","name":"Bad Tölz-Wolfratshausen","type":"Landkreis"},"federalState":{"key":"09","name":"Bayern"}},{"name":"Schuchergasse","postalCode":"83646","locality":"Wackersberg","municipality":{"key":"09173145","name":"Wackersberg","type":"Kreisangehörige_Gemeinde"},"district":{"key":"09173","name":"Bad Tölz-Wolfratshausen","type":"Landkreis"},"federalState":{"key":"09","name":"Bayern"}},{"name":"Steinbach","postalCode":"83646","locality":"Wackersberg","municipality":{"key":"09173145","name":"Wackersberg","type":"Kreisangehörige_Gemeinde"},"district":{"key":"09173","name":"Bad Tölz-Wolfratshausen","type":"Landkreis"},"federalState":{"key":"09","name":"Bayern"}},{"name":"Steinbachbrücke","postalCode":"83646","locality":"Wackersberg","municipality":{"key":"09173145","name":"Wackersberg","type":"Kreisangehörige_Gemeinde"},"district":{"key":"09173","name":"Bad Tölz-Wolfratshausen","type":"Landkreis"},"federalState":{"key":"09","name":"Bayern"}},{"name":"Steinbachleite","postalCode":"83646","locality":"Wackersberg","municipality":{"key":"09173145","name":"Wackersberg","type":"Kreisangehörige_Gemeinde"},"district":{"key":"09173","name":"Bad Tölz-Wolfratshausen","type":"Landkreis"},"federalState":{"key":"09","name":"Bayern"}},{"name":"Tölzer Str.","postalCode":"83646","locality":"Wackersberg","municipality":{"key":"09173145","name":"Wackersberg","type":"Kreisangehörige_Gemeinde"},"district":{"key":"09173","name":"Bad Tölz-Wolfratshausen","type":"Landkreis"},"federalState":{"key":"09","name":"Bayern"}},{"name":"Valtl","postalCode":"83646","locality":"Wackersberg","municipality":{"key":"09173145","name":"Wackersberg","type":"Kreisangehörige_Gemeinde"},"district":{"key":"09173","name":"Bad Tölz-Wolfratshausen","type":"Landkreis"},"federalState":{"key":"09","name":"Bayern"}},{"name":"Wackersberger Str.","postalCode":"83646","locality":"Wackersberg","municipality":{"key":"09173145","name":"Wackersberg","type":"Kreisangehörige_Gemeinde"},"district":{"key":"09173","name":"Bad Tölz-Wolfratshausen","type":"Landkreis"},"federalState":{"key":"09","name":"Bayern"}},{"name":"Wiesenweg","postalCode":"83646","locality":"Wackersberg","municipality":{"key":"09173145","name":"Wackersberg","type":"Kreisangehörige_Gemeinde"},"district":{"key":"09173","name":"Bad Tölz-Wolfratshausen","type":"Landkreis"},"federalState":{"key":"09","name":"Bayern"}},]