[{"name":"Ahornweg","postalCode":"88454","locality":"Hochdorf","municipality":{"key":"08426058","name":"Hochdorf","type":"Kreisangehörige_Gemeinde"},"district":{"key":"08426","name":"Biberach","type":"Landkreis"},"federalState":{"key":"08","name":"Baden-Württemberg"}},{"name":"Alamannenweg","postalCode":"88454","locality":"Hochdorf","municipality":{"key":"08426058","name":"Hochdorf","type":"Kreisangehörige_Gemeinde"},"district":{"key":"08426","name":"Biberach","type":"Landkreis"},"federalState":{"key":"08","name":"Baden-Württemberg"}},{"name":"Albert-Schweitzer-Str.","postalCode":"73269","locality":"Hochdorf","municipality":{"key":"08116027","name":"Hochdorf","type":"Kreisangehörige_Gemeinde"},"district":{"key":"08116","name":"Esslingen","type":"Landkreis"},"federalState":{"key":"08","name":"Baden-Württemberg"}},{"name":"Alfons-Legner-Str.","postalCode":"67126","locality":"Hochdorf-Assenheim","municipality":{"key":"07338014","name":"Hochdorf-Assenheim","type":"Kreisangehörige_Gemeinde"},"district":{"key":"07338","name":"Rhein-Pfalz-Kreis","type":"Landkreis"},"federalState":{"key":"07","name":"Rheinland-Pfalz"}},{"name":"Alsheimer Str.","postalCode":"67126","locality":"Hochdorf-Assenheim","municipality":{"key":"07338014","name":"Hochdorf-Assenheim","type":"Kreisangehörige_Gemeinde"},"district":{"key":"07338","name":"Rhein-Pfalz-Kreis","type":"Landkreis"},"federalState":{"key":"07","name":"Rheinland-Pfalz"}},{"name":"Alte Zimmerei","postalCode":"73269","locality":"Hochdorf","municipality":{"key":"08116027","name":"Hochdorf","type":"Kreisangehörige_Gemeinde"},"district":{"key":"08116","name":"Esslingen","type":"Landkreis"},"federalState":{"key":"08","name":"Baden-Württemberg"}},{"name":"Am alten Sportplatz","postalCode":"67126","locality":"Hochdorf-Assenheim","municipality":{"key":"07338014","name":"Hochdorf-Assenheim","type":"Kreisangehörige_Gemeinde"},"district":{"key":"07338","name":"Rhein-Pfalz-Kreis","type":"Landkreis"},"federalState":{"key":"07","name":"Rheinland-Pfalz"}},{"name":"Am Bahnhof","postalCode":"88454","locality":"Hochdorf","municipality":{"key":"08426058","name":"Hochdorf","type":"Kreisangehörige_Gemeinde"},"district":{"key":"08426","name":"Biberach","type":"Landkreis"},"federalState":{"key":"08","name":"Baden-Württemberg"}},{"name":"Am Bildstock","postalCode":"67126","locality":"Hochdorf-Assenheim","municipality":{"key":"07338014","name":"Hochdorf-Assenheim","type":"Kreisangehörige_Gemeinde"},"district":{"key":"07338","name":"Rhein-Pfalz-Kreis","type":"Landkreis"},"federalState":{"key":"07","name":"Rheinland-Pfalz"}},{"name":"Am Böhler Pfad","postalCode":"67126","locality":"Hochdorf-Assenheim","municipality":{"key":"07338014","name":"Hochdorf-Assenheim","type":"Kreisangehörige_Gemeinde"},"district":{"key":"07338","name":"Rhein-Pfalz-Kreis","type":"Landkreis"},"federalState":{"key":"07","name":"Rheinland-Pfalz"}},{"name":"Am Dorfgraben","postalCode":"67126","locality":"Hochdorf-Assenheim","municipality":{"key":"07338014","name":"Hochdorf-Assenheim","type":"Kreisangehörige_Gemeinde"},"district":{"key":"07338","name":"Rhein-Pfalz-Kreis","type":"Landkreis"},"federalState":{"key":"07","name":"Rheinland-Pfalz"}},{"name":"Am Köhler/Dammbachweg","postalCode":"73269","locality":"Hochdorf","municipality":{"key":"08116027","name":"Hochdorf","type":"Kreisangehörige_Gemeinde"},"district":{"key":"08116","name":"Esslingen","type":"Landkreis"},"federalState":{"key":"08","name":"Baden-Württemberg"}},{"name":"Am Mittelberg","postalCode":"88454","locality":"Hochdorf","municipality":{"key":"08426058","name":"Hochdorf","type":"Kreisangehörige_Gemeinde"},"district":{"key":"08426","name":"Biberach","type":"Landkreis"},"federalState":{"key":"08","name":"Baden-Württemberg"}},{"name":"Am Mühlbach","postalCode":"73269","locality":"Hochdorf","municipality":{"key":"08116027","name":"Hochdorf","type":"Kreisangehörige_Gemeinde"},"district":{"key":"08116","name":"Esslingen","type":"Landkreis"},"federalState":{"key":"08","name":"Baden-Württemberg"}},{"name":"Amselweg","postalCode":"73269","locality":"Hochdorf","municipality":{"key":"08116027","name":"Hochdorf","type":"Kreisangehörige_Gemeinde"},"district":{"key":"08116","name":"Esslingen","type":"Landkreis"},"federalState":{"key":"08","name":"Baden-Württemberg"}},{"name":"Am Sportplatz","postalCode":"73269","locality":"Hochdorf","municipality":{"key":"08116027","name":"Hochdorf","type":"Kreisangehörige_Gemeinde"},"district":{"key":"08116","name":"Esslingen","type":"Landkreis"},"federalState":{"key":"08","name":"Baden-Württemberg"}},{"name":"An der Marlach","postalCode":"67126","locality":"Hochdorf-Assenheim","municipality":{"key":"07338014","name":"Hochdorf-Assenheim","type":"Kreisangehörige_Gemeinde"},"district":{"key":"07338","name":"Rhein-Pfalz-Kreis","type":"Landkreis"},"federalState":{"key":"07","name":"Rheinland-Pfalz"}},{"name":"Angerweg","postalCode":"88454","locality":"Hochdorf","municipality":{"key":"08426058","name":"Hochdorf","type":"Kreisangehörige_Gemeinde"},"district":{"key":"08426","name":"Biberach","type":"Landkreis"},"federalState":{"key":"08","name":"Baden-Württemberg"}},{"name":"Anna-Catharina-Haug-Weg","postalCode":"73269","locality":"Hochdorf","municipality":{"key":"08116027","name":"Hochdorf","type":"Kreisangehörige_Gemeinde"},"district":{"key":"08116","name":"Esslingen","type":"Landkreis"},"federalState":{"key":"08","name":"Baden-Württemberg"}},{"name":"Aspenhalde","postalCode":"88454","locality":"Hochdorf","municipality":{"key":"08426058","name":"Hochdorf","type":"Kreisangehörige_Gemeinde"},"district":{"key":"08426","name":"Biberach","type":"Landkreis"},"federalState":{"key":"08","name":"Baden-Württemberg"}},{"name":"Auwiesenstr.","postalCode":"88454","locality":"Hochdorf","municipality":{"key":"08426058","name":"Hochdorf","type":"Kreisangehörige_Gemeinde"},"district":{"key":"08426","name":"Biberach","type":"Landkreis"},"federalState":{"key":"08","name":"Baden-Württemberg"}},{"name":"Bachhöfe","postalCode":"73269","locality":"Hochdorf","municipality":{"key":"08116027","name":"Hochdorf","type":"Kreisangehörige_Gemeinde"},"district":{"key":"08116","name":"Esslingen","type":"Landkreis"},"federalState":{"key":"08","name":"Baden-Württemberg"}},{"name":"Bachstr.","postalCode":"73269","locality":"Hochdorf","municipality":{"key":"08116027","name":"Hochdorf","type":"Kreisangehörige_Gemeinde"},"district":{"key":"08116","name":"Esslingen","type":"Landkreis"},"federalState":{"key":"08","name":"Baden-Württemberg"}},{"name":"Bahnhofstr.","postalCode":"67126","locality":"Hochdorf-Assenheim","municipality":{"key":"07338014","name":"Hochdorf-Assenheim","type":"Kreisangehörige_Gemeinde"},"district":{"key":"07338","name":"Rhein-Pfalz-Kreis","type":"Landkreis"},"federalState":{"key":"07","name":"Rheinland-Pfalz"}},{"name":"Bahnhofstr.","postalCode":"88454","locality":"Hochdorf","municipality":{"key":"08426058","name":"Hochdorf","type":"Kreisangehörige_Gemeinde"},"district":{"key":"08426","name":"Biberach","type":"Landkreis"},"federalState":{"key":"08","name":"Baden-Württemberg"}},{"name":"Beethovenstr.","postalCode":"67126","locality":"Hochdorf-Assenheim","municipality":{"key":"07338014","name":"Hochdorf-Assenheim","type":"Kreisangehörige_Gemeinde"},"district":{"key":"07338","name":"Rhein-Pfalz-Kreis","type":"Landkreis"},"federalState":{"key":"07","name":"Rheinland-Pfalz"}},{"name":"Beethovenstr.","postalCode":"73269","locality":"Hochdorf","municipality":{"key":"08116027","name":"Hochdorf","type":"Kreisangehörige_Gemeinde"},"district":{"key":"08116","name":"Esslingen","type":"Landkreis"},"federalState":{"key":"08","name":"Baden-Württemberg"}},{"name":"Biengarten","postalCode":"67126","locality":"Hochdorf-Assenheim","municipality":{"key":"07338014","name":"Hochdorf-Assenheim","type":"Kreisangehörige_Gemeinde"},"district":{"key":"07338","name":"Rhein-Pfalz-Kreis","type":"Landkreis"},"federalState":{"key":"07","name":"Rheinland-Pfalz"}},{"name":"Birkenweg","postalCode":"88454","locality":"Hochdorf","municipality":{"key":"08426058","name":"Hochdorf","type":"Kreisangehörige_Gemeinde"},"district":{"key":"08426","name":"Biberach","type":"Landkreis"},"federalState":{"key":"08","name":"Baden-Württemberg"}},{"name":"Bischof-Sproll-Str.","postalCode":"88454","locality":"Hochdorf","municipality":{"key":"08426058","name":"Hochdorf","type":"Kreisangehörige_Gemeinde"},"district":{"key":"08426","name":"Biberach","type":"Landkreis"},"federalState":{"key":"08","name":"Baden-Württemberg"}},{"name":"Bismarckstr.","postalCode":"73269","locality":"Hochdorf","municipality":{"key":"08116027","name":"Hochdorf","type":"Kreisangehörige_Gemeinde"},"district":{"key":"08116","name":"Esslingen","type":"Landkreis"},"federalState":{"key":"08","name":"Baden-Württemberg"}},{"name":"Blumenstr.","postalCode":"73269","locality":"Hochdorf","municipality":{"key":"08116027","name":"Hochdorf","type":"Kreisangehörige_Gemeinde"},"district":{"key":"08116","name":"Esslingen","type":"Landkreis"},"federalState":{"key":"08","name":"Baden-Württemberg"}},{"name":"Blumenweg","postalCode":"73269","locality":"Hochdorf","municipality":{"key":"08116027","name":"Hochdorf","type":"Kreisangehörige_Gemeinde"},"district":{"key":"08116","name":"Esslingen","type":"Landkreis"},"federalState":{"key":"08","name":"Baden-Württemberg"}},{"name":"Blumenweg","postalCode":"88454","locality":"Hochdorf","municipality":{"key":"08426058","name":"Hochdorf","type":"Kreisangehörige_Gemeinde"},"district":{"key":"08426","name":"Biberach","type":"Landkreis"},"federalState":{"key":"08","name":"Baden-Württemberg"}},{"name":"Böhler Str.","postalCode":"67126","locality":"Hochdorf-Assenheim","municipality":{"key":"07338014","name":"Hochdorf-Assenheim","type":"Kreisangehörige_Gemeinde"},"district":{"key":"07338","name":"Rhein-Pfalz-Kreis","type":"Landkreis"},"federalState":{"key":"07","name":"Rheinland-Pfalz"}},{"name":"Breitwiesenweg","postalCode":"73269","locality":"Hochdorf","municipality":{"key":"08116027","name":"Hochdorf","type":"Kreisangehörige_Gemeinde"},"district":{"key":"08116","name":"Esslingen","type":"Landkreis"},"federalState":{"key":"08","name":"Baden-Württemberg"}},{"name":"Brunnenwiesenweg","postalCode":"73269","locality":"Hochdorf","municipality":{"key":"08116027","name":"Hochdorf","type":"Kreisangehörige_Gemeinde"},"district":{"key":"08116","name":"Esslingen","type":"Landkreis"},"federalState":{"key":"08","name":"Baden-Württemberg"}},{"name":"Buchenweg","postalCode":"73269","locality":"Hochdorf","municipality":{"key":"08116027","name":"Hochdorf","type":"Kreisangehörige_Gemeinde"},"district":{"key":"08116","name":"Esslingen","type":"Landkreis"},"federalState":{"key":"08","name":"Baden-Württemberg"}},{"name":"Buchenweg","postalCode":"88454","locality":"Hochdorf","municipality":{"key":"08426058","name":"Hochdorf","type":"Kreisangehörige_Gemeinde"},"district":{"key":"08426","name":"Biberach","type":"Landkreis"},"federalState":{"key":"08","name":"Baden-Württemberg"}},{"name":"Christian-Koehler-Weg","postalCode":"88400","locality":"Biberach an der Riß","municipality":{"key":"08426021","name":"Biberach an der Riß, Stadt","type":"Große_Kreisstadt"},"district":{"key":"08426","name":"Biberach","type":"Landkreis"},"federalState":{"key":"08","name":"Baden-Württemberg"}},{"name":"Christian-Xeller-Weg","postalCode":"88400","locality":"Biberach an der Riß","municipality":{"key":"08426021","name":"Biberach an der Riß, Stadt","type":"Große_Kreisstadt"},"district":{"key":"08426","name":"Biberach","type":"Landkreis"},"federalState":{"key":"08","name":"Baden-Württemberg"}},{"name":"Clara-Schumann-Str.","postalCode":"88400","locality":"Biberach an der Riß","municipality":{"key":"08426021","name":"Biberach an der Riß, Stadt","type":"Große_Kreisstadt"},"district":{"key":"08426","name":"Biberach","type":"Landkreis"},"federalState":{"key":"08","name":"Baden-Württemberg"}},{"name":"Consulentengasse","postalCode":"88400","locality":"Biberach an der Riß","municipality":{"key":"08426021","name":"Biberach an der Riß, Stadt","type":"Große_Kreisstadt"},"district":{"key":"08426","name":"Biberach","type":"Landkreis"},"federalState":{"key":"08","name":"Baden-Württemberg"}},{"name":"Dammbachweg","postalCode":"73269","locality":"Hochdorf","municipality":{"key":"08116027","name":"Hochdorf","type":"Kreisangehörige_Gemeinde"},"district":{"key":"08116","name":"Esslingen","type":"Landkreis"},"federalState":{"key":"08","name":"Baden-Württemberg"}},{"name":"Deidesheimer Weg","postalCode":"67126","locality":"Hochdorf-Assenheim","municipality":{"key":"07338014","name":"Hochdorf-Assenheim","type":"Kreisangehörige_Gemeinde"},"district":{"key":"07338","name":"Rhein-Pfalz-Kreis","type":"Landkreis"},"federalState":{"key":"07","name":"Rheinland-Pfalz"}},{"name":"Eichendorffstr.","postalCode":"73269","locality":"Hochdorf","municipality":{"key":"08116027","name":"Hochdorf","type":"Kreisangehörige_Gemeinde"},"district":{"key":"08116","name":"Esslingen","type":"Landkreis"},"federalState":{"key":"08","name":"Baden-Württemberg"}},{"name":"Eichenweg","postalCode":"88454","locality":"Hochdorf","municipality":{"key":"08426058","name":"Hochdorf","type":"Kreisangehörige_Gemeinde"},"district":{"key":"08426","name":"Biberach","type":"Landkreis"},"federalState":{"key":"08","name":"Baden-Württemberg"}},{"name":"Eisenwinkelweg","postalCode":"73269","locality":"Hochdorf","municipality":{"key":"08116027","name":"Hochdorf","type":"Kreisangehörige_Gemeinde"},"district":{"key":"08116","name":"Esslingen","type":"Landkreis"},"federalState":{"key":"08","name":"Baden-Württemberg"}},{"name":"Erlenweg","postalCode":"88454","locality":"Hochdorf","municipality":{"key":"08426058","name":"Hochdorf","type":"Kreisangehörige_Gemeinde"},"district":{"key":"08426","name":"Biberach","type":"Landkreis"},"federalState":{"key":"08","name":"Baden-Württemberg"}},{"name":"Eugenstr.","postalCode":"73269","locality":"Hochdorf","municipality":{"key":"08116027","name":"Hochdorf","type":"Kreisangehörige_Gemeinde"},"district":{"key":"08116","name":"Esslingen","type":"Landkreis"},"federalState":{"key":"08","name":"Baden-Württemberg"}},{"name":"Feldäcker","postalCode":"88454","locality":"Hochdorf","municipality":{"key":"08426058","name":"Hochdorf","type":"Kreisangehörige_Gemeinde"},"district":{"key":"08426","name":"Biberach","type":"Landkreis"},"federalState":{"key":"08","name":"Baden-Württemberg"}},{"name":"Fichtenstr.","postalCode":"88454","locality":"Hochdorf","municipality":{"key":"08426058","name":"Hochdorf","type":"Kreisangehörige_Gemeinde"},"district":{"key":"08426","name":"Biberach","type":"Landkreis"},"federalState":{"key":"08","name":"Baden-Württemberg"}},{"name":"Finkenweg","postalCode":"73269","locality":"Hochdorf","municipality":{"key":"08116027","name":"Hochdorf","type":"Kreisangehörige_Gemeinde"},"district":{"key":"08116","name":"Esslingen","type":"Landkreis"},"federalState":{"key":"08","name":"Baden-Württemberg"}},{"name":"Fohrenwiesen","postalCode":"88454","locality":"Hochdorf","municipality":{"key":"08426058","name":"Hochdorf","type":"Kreisangehörige_Gemeinde"},"district":{"key":"08426","name":"Biberach","type":"Landkreis"},"federalState":{"key":"08","name":"Baden-Württemberg"}},{"name":"Frankenweg","postalCode":"88454","locality":"Hochdorf","municipality":{"key":"08426058","name":"Hochdorf","type":"Kreisangehörige_Gemeinde"},"district":{"key":"08426","name":"Biberach","type":"Landkreis"},"federalState":{"key":"08","name":"Baden-Württemberg"}},{"name":"Frauenäcker","postalCode":"73269","locality":"Hochdorf","municipality":{"key":"08116027","name":"Hochdorf","type":"Kreisangehörige_Gemeinde"},"district":{"key":"08116","name":"Esslingen","type":"Landkreis"},"federalState":{"key":"08","name":"Baden-Württemberg"}},{"name":"Friedenstr.","postalCode":"73269","locality":"Hochdorf","municipality":{"key":"08116027","name":"Hochdorf","type":"Kreisangehörige_Gemeinde"},"district":{"key":"08116","name":"Esslingen","type":"Landkreis"},"federalState":{"key":"08","name":"Baden-Württemberg"}},{"name":"Friedhofstr.","postalCode":"67126","locality":"Hochdorf-Assenheim","municipality":{"key":"07338014","name":"Hochdorf-Assenheim","type":"Kreisangehörige_Gemeinde"},"district":{"key":"07338","name":"Rhein-Pfalz-Kreis","type":"Landkreis"},"federalState":{"key":"07","name":"Rheinland-Pfalz"}},{"name":"Friedhofstr.","postalCode":"73269","locality":"Hochdorf","municipality":{"key":"08116027","name":"Hochdorf","type":"Kreisangehörige_Gemeinde"},"district":{"key":"08116","name":"Esslingen","type":"Landkreis"},"federalState":{"key":"08","name":"Baden-Württemberg"}},{"name":"Friedhofweg","postalCode":"88454","locality":"Hochdorf","municipality":{"key":"08426058","name":"Hochdorf","type":"Kreisangehörige_Gemeinde"},"district":{"key":"08426","name":"Biberach","type":"Landkreis"},"federalState":{"key":"08","name":"Baden-Württemberg"}},{"name":"Gartenstr.","postalCode":"67126","locality":"Hochdorf-Assenheim","municipality":{"key":"07338014","name":"Hochdorf-Assenheim","type":"Kreisangehörige_Gemeinde"},"district":{"key":"07338","name":"Rhein-Pfalz-Kreis","type":"Landkreis"},"federalState":{"key":"07","name":"Rheinland-Pfalz"}},{"name":"Gewölbegasse","postalCode":"73269","locality":"Hochdorf","municipality":{"key":"08116027","name":"Hochdorf","type":"Kreisangehörige_Gemeinde"},"district":{"key":"08116","name":"Esslingen","type":"Landkreis"},"federalState":{"key":"08","name":"Baden-Württemberg"}},{"name":"Goethestr.","postalCode":"67126","locality":"Hochdorf-Assenheim","municipality":{"key":"07338014","name":"Hochdorf-Assenheim","type":"Kreisangehörige_Gemeinde"},"district":{"key":"07338","name":"Rhein-Pfalz-Kreis","type":"Landkreis"},"federalState":{"key":"07","name":"Rheinland-Pfalz"}},{"name":"Haslachweg","postalCode":"73269","locality":"Hochdorf","municipality":{"key":"08116027","name":"Hochdorf","type":"Kreisangehörige_Gemeinde"},"district":{"key":"08116","name":"Esslingen","type":"Landkreis"},"federalState":{"key":"08","name":"Baden-Württemberg"}},{"name":"Haßlocher Str.","postalCode":"67126","locality":"Hochdorf-Assenheim","municipality":{"key":"07338014","name":"Hochdorf-Assenheim","type":"Kreisangehörige_Gemeinde"},"district":{"key":"07338","name":"Rhein-Pfalz-Kreis","type":"Landkreis"},"federalState":{"key":"07","name":"Rheinland-Pfalz"}},{"name":"Hauptstr.","postalCode":"67126","locality":"Hochdorf-Assenheim","municipality":{"key":"07338014","name":"Hochdorf-Assenheim","type":"Kreisangehörige_Gemeinde"},"district":{"key":"07338","name":"Rhein-Pfalz-Kreis","type":"Landkreis"},"federalState":{"key":"07","name":"Rheinland-Pfalz"}},{"name":"Hauptstr.","postalCode":"88454","locality":"Hochdorf","municipality":{"key":"08426058","name":"Hochdorf","type":"Kreisangehörige_Gemeinde"},"district":{"key":"08426","name":"Biberach","type":"Landkreis"},"federalState":{"key":"08","name":"Baden-Württemberg"}},{"name":"Hegelstr.","postalCode":"67126","locality":"Hochdorf-Assenheim","municipality":{"key":"07338014","name":"Hochdorf-Assenheim","type":"Kreisangehörige_Gemeinde"},"district":{"key":"07338","name":"Rhein-Pfalz-Kreis","type":"Landkreis"},"federalState":{"key":"07","name":"Rheinland-Pfalz"}},{"name":"Heinrichsburger Str.","postalCode":"88454","locality":"Hochdorf","municipality":{"key":"08426058","name":"Hochdorf","type":"Kreisangehörige_Gemeinde"},"district":{"key":"08426","name":"Biberach","type":"Landkreis"},"federalState":{"key":"08","name":"Baden-Württemberg"}},{"name":"Hengenloheweg","postalCode":"73269","locality":"Hochdorf","municipality":{"key":"08116027","name":"Hochdorf","type":"Kreisangehörige_Gemeinde"},"district":{"key":"08116","name":"Esslingen","type":"Landkreis"},"federalState":{"key":"08","name":"Baden-Württemberg"}},{"name":"Herderweg","postalCode":"73269","locality":"Hochdorf","municipality":{"key":"08116027","name":"Hochdorf","type":"Kreisangehörige_Gemeinde"},"district":{"key":"08116","name":"Esslingen","type":"Landkreis"},"federalState":{"key":"08","name":"Baden-Württemberg"}},{"name":"Hochdorfer Str.","postalCode":"67126","locality":"Hochdorf-Assenheim","municipality":{"key":"07338014","name":"Hochdorf-Assenheim","type":"Kreisangehörige_Gemeinde"},"district":{"key":"07338","name":"Rhein-Pfalz-Kreis","type":"Landkreis"},"federalState":{"key":"07","name":"Rheinland-Pfalz"}},{"name":"Hochdorfer Str.","postalCode":"88454","locality":"Hochdorf","municipality":{"key":"08426058","name":"Hochdorf","type":"Kreisangehörige_Gemeinde"},"district":{"key":"08426","name":"Biberach","type":"Landkreis"},"federalState":{"key":"08","name":"Baden-Württemberg"}},{"name":"Hofackerstr.","postalCode":"73269","locality":"Hochdorf","municipality":{"key":"08116027","name":"Hochdorf","type":"Kreisangehörige_Gemeinde"},"district":{"key":"08116","name":"Esslingen","type":"Landkreis"},"federalState":{"key":"08","name":"Baden-Württemberg"}},{"name":"Hofstr.","postalCode":"73269","locality":"Hochdorf","municipality":{"key":"08116027","name":"Hochdorf","type":"Kreisangehörige_Gemeinde"},"district":{"key":"08116","name":"Esslingen","type":"Landkreis"},"federalState":{"key":"08","name":"Baden-Württemberg"}},{"name":"Hofwasenweg","postalCode":"73269","locality":"Hochdorf","municipality":{"key":"08116027","name":"Hochdorf","type":"Kreisangehörige_Gemeinde"},"district":{"key":"08116","name":"Esslingen","type":"Landkreis"},"federalState":{"key":"08","name":"Baden-Württemberg"}},{"name":"Höhenstr.","postalCode":"73269","locality":"Hochdorf","municipality":{"key":"08116027","name":"Hochdorf","type":"Kreisangehörige_Gemeinde"},"district":{"key":"08116","name":"Esslingen","type":"Landkreis"},"federalState":{"key":"08","name":"Baden-Württemberg"}},{"name":"Höhenweg","postalCode":"88454","locality":"Hochdorf","municipality":{"key":"08426058","name":"Hochdorf","type":"Kreisangehörige_Gemeinde"},"district":{"key":"08426","name":"Biberach","type":"Landkreis"},"federalState":{"key":"08","name":"Baden-Württemberg"}},{"name":"Hoher Rain","postalCode":"88454","locality":"Hochdorf","municipality":{"key":"08426058","name":"Hochdorf","type":"Kreisangehörige_Gemeinde"},"district":{"key":"08426","name":"Biberach","type":"Landkreis"},"federalState":{"key":"08","name":"Baden-Württemberg"}},{"name":"Hoheruckweg","postalCode":"73269","locality":"Hochdorf","municipality":{"key":"08116027","name":"Hochdorf","type":"Kreisangehörige_Gemeinde"},"district":{"key":"08116","name":"Esslingen","type":"Landkreis"},"federalState":{"key":"08","name":"Baden-Württemberg"}},{"name":"Hohlstr.","postalCode":"67126","locality":"Hochdorf-Assenheim","municipality":{"key":"07338014","name":"Hochdorf-Assenheim","type":"Kreisangehörige_Gemeinde"},"district":{"key":"07338","name":"Rhein-Pfalz-Kreis","type":"Landkreis"},"federalState":{"key":"07","name":"Rheinland-Pfalz"}},{"name":"Hölderlinweg","postalCode":"73269","locality":"Hochdorf","municipality":{"key":"08116027","name":"Hochdorf","type":"Kreisangehörige_Gemeinde"},"district":{"key":"08116","name":"Esslingen","type":"Landkreis"},"federalState":{"key":"08","name":"Baden-Württemberg"}},{"name":"Im Brühl","postalCode":"88454","locality":"Hochdorf","municipality":{"key":"08426058","name":"Hochdorf","type":"Kreisangehörige_Gemeinde"},"district":{"key":"08426","name":"Biberach","type":"Landkreis"},"federalState":{"key":"08","name":"Baden-Württemberg"}},{"name":"Im Hof","postalCode":"73269","locality":"Hochdorf","municipality":{"key":"08116027","name":"Hochdorf","type":"Kreisangehörige_Gemeinde"},"district":{"key":"08116","name":"Esslingen","type":"Landkreis"},"federalState":{"key":"08","name":"Baden-Württemberg"}},{"name":"Im Holderbett","postalCode":"73269","locality":"Hochdorf","municipality":{"key":"08116027","name":"Hochdorf","type":"Kreisangehörige_Gemeinde"},"district":{"key":"08116","name":"Esslingen","type":"Landkreis"},"federalState":{"key":"08","name":"Baden-Württemberg"}},{"name":"Im Kreuzäcker","postalCode":"88454","locality":"Hochdorf","municipality":{"key":"08426058","name":"Hochdorf","type":"Kreisangehörige_Gemeinde"},"district":{"key":"08426","name":"Biberach","type":"Landkreis"},"federalState":{"key":"08","name":"Baden-Württemberg"}},{"name":"Im Krückel","postalCode":"67126","locality":"Hochdorf-Assenheim","municipality":{"key":"07338014","name":"Hochdorf-Assenheim","type":"Kreisangehörige_Gemeinde"},"district":{"key":"07338","name":"Rhein-Pfalz-Kreis","type":"Landkreis"},"federalState":{"key":"07","name":"Rheinland-Pfalz"}},{"name":"Im Schafgarten","postalCode":"67126","locality":"Hochdorf-Assenheim","municipality":{"key":"07338014","name":"Hochdorf-Assenheim","type":"Kreisangehörige_Gemeinde"},"district":{"key":"07338","name":"Rhein-Pfalz-Kreis","type":"Landkreis"},"federalState":{"key":"07","name":"Rheinland-Pfalz"}},{"name":"Im Schönblick","postalCode":"73269","locality":"Hochdorf","municipality":{"key":"08116027","name":"Hochdorf","type":"Kreisangehörige_Gemeinde"},"district":{"key":"08116","name":"Esslingen","type":"Landkreis"},"federalState":{"key":"08","name":"Baden-Württemberg"}},{"name":"Im Stock","postalCode":"73269","locality":"Hochdorf","municipality":{"key":"08116027","name":"Hochdorf","type":"Kreisangehörige_Gemeinde"},"district":{"key":"08116","name":"Esslingen","type":"Landkreis"},"federalState":{"key":"08","name":"Baden-Württemberg"}},{"name":"Im Wengert","postalCode":"73269","locality":"Hochdorf","municipality":{"key":"08116027","name":"Hochdorf","type":"Kreisangehörige_Gemeinde"},"district":{"key":"08116","name":"Esslingen","type":"Landkreis"},"federalState":{"key":"08","name":"Baden-Württemberg"}},{"name":"Im Wiesengrund","postalCode":"73269","locality":"Hochdorf","municipality":{"key":"08116027","name":"Hochdorf","type":"Kreisangehörige_Gemeinde"},"district":{"key":"08116","name":"Esslingen","type":"Landkreis"},"federalState":{"key":"08","name":"Baden-Württemberg"}},{"name":"In den Englertswiesen","postalCode":"88454","locality":"Hochdorf","municipality":{"key":"08426058","name":"Hochdorf","type":"Kreisangehörige_Gemeinde"},"district":{"key":"08426","name":"Biberach","type":"Landkreis"},"federalState":{"key":"08","name":"Baden-Württemberg"}},{"name":"Irene-von-Schwaben-Weg","postalCode":"88454","locality":"Hochdorf","municipality":{"key":"08426058","name":"Hochdorf","type":"Kreisangehörige_Gemeinde"},"district":{"key":"08426","name":"Biberach","type":"Landkreis"},"federalState":{"key":"08","name":"Baden-Württemberg"}},{"name":"Jahnstr.","postalCode":"73269","locality":"Hochdorf","municipality":{"key":"08116027","name":"Hochdorf","type":"Kreisangehörige_Gemeinde"},"district":{"key":"08116","name":"Esslingen","type":"Landkreis"},"federalState":{"key":"08","name":"Baden-Württemberg"}},{"name":"Jaspersstr.","postalCode":"67126","locality":"Hochdorf-Assenheim","municipality":{"key":"07338014","name":"Hochdorf-Assenheim","type":"Kreisangehörige_Gemeinde"},"district":{"key":"07338","name":"Rhein-Pfalz-Kreis","type":"Landkreis"},"federalState":{"key":"07","name":"Rheinland-Pfalz"}},{"name":"Johannes-Büber-Str.","postalCode":"67126","locality":"Hochdorf-Assenheim","municipality":{"key":"07338014","name":"Hochdorf-Assenheim","type":"Kreisangehörige_Gemeinde"},"district":{"key":"07338","name":"Rhein-Pfalz-Kreis","type":"Landkreis"},"federalState":{"key":"07","name":"Rheinland-Pfalz"}},{"name":"Johann-Sebastian-Bach-Str.","postalCode":"67126","locality":"Hochdorf-Assenheim","municipality":{"key":"07338014","name":"Hochdorf-Assenheim","type":"Kreisangehörige_Gemeinde"},"district":{"key":"07338","name":"Rhein-Pfalz-Kreis","type":"Landkreis"},"federalState":{"key":"07","name":"Rheinland-Pfalz"}},{"name":"Kantstr.","postalCode":"67126","locality":"Hochdorf-Assenheim","municipality":{"key":"07338014","name":"Hochdorf-Assenheim","type":"Kreisangehörige_Gemeinde"},"district":{"key":"07338","name":"Rhein-Pfalz-Kreis","type":"Landkreis"},"federalState":{"key":"07","name":"Rheinland-Pfalz"}},{"name":"Karlstr.","postalCode":"73269","locality":"Hochdorf","municipality":{"key":"08116027","name":"Hochdorf","type":"Kreisangehörige_Gemeinde"},"district":{"key":"08116","name":"Esslingen","type":"Landkreis"},"federalState":{"key":"08","name":"Baden-Württemberg"}},{"name":"Kaspar-Mohr-Str.","postalCode":"88454","locality":"Hochdorf","municipality":{"key":"08426058","name":"Hochdorf","type":"Kreisangehörige_Gemeinde"},"district":{"key":"08426","name":"Biberach","type":"Landkreis"},"federalState":{"key":"08","name":"Baden-Württemberg"}},{"name":"Kastanienweg","postalCode":"88454","locality":"Hochdorf","municipality":{"key":"08426058","name":"Hochdorf","type":"Kreisangehörige_Gemeinde"},"district":{"key":"08426","name":"Biberach","type":"Landkreis"},"federalState":{"key":"08","name":"Baden-Württemberg"}},{"name":"Kauzbühlstr.","postalCode":"73269","locality":"Hochdorf","municipality":{"key":"08116027","name":"Hochdorf","type":"Kreisangehörige_Gemeinde"},"district":{"key":"08116","name":"Esslingen","type":"Landkreis"},"federalState":{"key":"08","name":"Baden-Württemberg"}},{"name":"Keltenstr.","postalCode":"67126","locality":"Hochdorf-Assenheim","municipality":{"key":"07338014","name":"Hochdorf-Assenheim","type":"Kreisangehörige_Gemeinde"},"district":{"key":"07338","name":"Rhein-Pfalz-Kreis","type":"Landkreis"},"federalState":{"key":"07","name":"Rheinland-Pfalz"}},{"name":"Keltenstr.","postalCode":"88454","locality":"Hochdorf","municipality":{"key":"08426058","name":"Hochdorf","type":"Kreisangehörige_Gemeinde"},"district":{"key":"08426","name":"Biberach","type":"Landkreis"},"federalState":{"key":"08","name":"Baden-Württemberg"}},{"name":"Kernerweg","postalCode":"73269","locality":"Hochdorf","municipality":{"key":"08116027","name":"Hochdorf","type":"Kreisangehörige_Gemeinde"},"district":{"key":"08116","name":"Esslingen","type":"Landkreis"},"federalState":{"key":"08","name":"Baden-Württemberg"}},{"name":"Kirchenstr.","postalCode":"67126","locality":"Hochdorf-Assenheim","municipality":{"key":"07338014","name":"Hochdorf-Assenheim","type":"Kreisangehörige_Gemeinde"},"district":{"key":"07338","name":"Rhein-Pfalz-Kreis","type":"Landkreis"},"federalState":{"key":"07","name":"Rheinland-Pfalz"}},{"name":"Kirchheimer Str.","postalCode":"73269","locality":"Hochdorf","municipality":{"key":"08116027","name":"Hochdorf","type":"Kreisangehörige_Gemeinde"},"district":{"key":"08116","name":"Esslingen","type":"Landkreis"},"federalState":{"key":"08","name":"Baden-Württemberg"}},{"name":"Kirchstr.","postalCode":"73269","locality":"Hochdorf","municipality":{"key":"08116027","name":"Hochdorf","type":"Kreisangehörige_Gemeinde"},"district":{"key":"08116","name":"Esslingen","type":"Landkreis"},"federalState":{"key":"08","name":"Baden-Württemberg"}},{"name":"Kirchstr.","postalCode":"88454","locality":"Hochdorf","municipality":{"key":"08426058","name":"Hochdorf","type":"Kreisangehörige_Gemeinde"},"district":{"key":"08426","name":"Biberach","type":"Landkreis"},"federalState":{"key":"08","name":"Baden-Württemberg"}},{"name":"Kirchweg","postalCode":"88454","locality":"Hochdorf","municipality":{"key":"08426058","name":"Hochdorf","type":"Kreisangehörige_Gemeinde"},"district":{"key":"08426","name":"Biberach","type":"Landkreis"},"federalState":{"key":"08","name":"Baden-Württemberg"}},{"name":"Kreuzäcker","postalCode":"73269","locality":"Hochdorf","municipality":{"key":"08116027","name":"Hochdorf","type":"Kreisangehörige_Gemeinde"},"district":{"key":"08116","name":"Esslingen","type":"Landkreis"},"federalState":{"key":"08","name":"Baden-Württemberg"}},{"name":"Kropsburgstr.","postalCode":"67126","locality":"Hochdorf-Assenheim","municipality":{"key":"07338014","name":"Hochdorf-Assenheim","type":"Kreisangehörige_Gemeinde"},"district":{"key":"07338","name":"Rhein-Pfalz-Kreis","type":"Landkreis"},"federalState":{"key":"07","name":"Rheinland-Pfalz"}},{"name":"Krummer Weg","postalCode":"73269","locality":"Hochdorf","municipality":{"key":"08116027","name":"Hochdorf","type":"Kreisangehörige_Gemeinde"},"district":{"key":"08116","name":"Esslingen","type":"Landkreis"},"federalState":{"key":"08","name":"Baden-Württemberg"}},{"name":"Kümmelstr.","postalCode":"73269","locality":"Hochdorf","municipality":{"key":"08116027","name":"Hochdorf","type":"Kreisangehörige_Gemeinde"},"district":{"key":"08116","name":"Esslingen","type":"Landkreis"},"federalState":{"key":"08","name":"Baden-Württemberg"}},{"name":"Kurzer Stich","postalCode":"73269","locality":"Hochdorf","municipality":{"key":"08116027","name":"Hochdorf","type":"Kreisangehörige_Gemeinde"},"district":{"key":"08116","name":"Esslingen","type":"Landkreis"},"federalState":{"key":"08","name":"Baden-Württemberg"}},{"name":"Kurze Str.","postalCode":"67126","locality":"Hochdorf-Assenheim","municipality":{"key":"07338014","name":"Hochdorf-Assenheim","type":"Kreisangehörige_Gemeinde"},"district":{"key":"07338","name":"Rhein-Pfalz-Kreis","type":"Landkreis"},"federalState":{"key":"07","name":"Rheinland-Pfalz"}},{"name":"Langer Stich","postalCode":"73269","locality":"Hochdorf","municipality":{"key":"08116027","name":"Hochdorf","type":"Kreisangehörige_Gemeinde"},"district":{"key":"08116","name":"Esslingen","type":"Landkreis"},"federalState":{"key":"08","name":"Baden-Württemberg"}},{"name":"Langstr.","postalCode":"67126","locality":"Hochdorf-Assenheim","municipality":{"key":"07338014","name":"Hochdorf-Assenheim","type":"Kreisangehörige_Gemeinde"},"district":{"key":"07338","name":"Rhein-Pfalz-Kreis","type":"Landkreis"},"federalState":{"key":"07","name":"Rheinland-Pfalz"}},{"name":"Leibnizstr.","postalCode":"67126","locality":"Hochdorf-Assenheim","municipality":{"key":"07338014","name":"Hochdorf-Assenheim","type":"Kreisangehörige_Gemeinde"},"district":{"key":"07338","name":"Rhein-Pfalz-Kreis","type":"Landkreis"},"federalState":{"key":"07","name":"Rheinland-Pfalz"}},{"name":"Leininger Str.","postalCode":"67126","locality":"Hochdorf-Assenheim","municipality":{"key":"07338014","name":"Hochdorf-Assenheim","type":"Kreisangehörige_Gemeinde"},"district":{"key":"07338","name":"Rhein-Pfalz-Kreis","type":"Landkreis"},"federalState":{"key":"07","name":"Rheinland-Pfalz"}},{"name":"Lerchenweg","postalCode":"73269","locality":"Hochdorf","municipality":{"key":"08116027","name":"Hochdorf","type":"Kreisangehörige_Gemeinde"},"district":{"key":"08116","name":"Esslingen","type":"Landkreis"},"federalState":{"key":"08","name":"Baden-Württemberg"}},{"name":"Lessingstr.","postalCode":"67126","locality":"Hochdorf-Assenheim","municipality":{"key":"07338014","name":"Hochdorf-Assenheim","type":"Kreisangehörige_Gemeinde"},"district":{"key":"07338","name":"Rhein-Pfalz-Kreis","type":"Landkreis"},"federalState":{"key":"07","name":"Rheinland-Pfalz"}},{"name":"Limburgweg","postalCode":"73269","locality":"Hochdorf","municipality":{"key":"08116027","name":"Hochdorf","type":"Kreisangehörige_Gemeinde"},"district":{"key":"08116","name":"Esslingen","type":"Landkreis"},"federalState":{"key":"08","name":"Baden-Württemberg"}},{"name":"Lindenweg","postalCode":"73269","locality":"Hochdorf","municipality":{"key":"08116027","name":"Hochdorf","type":"Kreisangehörige_Gemeinde"},"district":{"key":"08116","name":"Esslingen","type":"Landkreis"},"federalState":{"key":"08","name":"Baden-Württemberg"}},{"name":"Lindenweg","postalCode":"88454","locality":"Hochdorf","municipality":{"key":"08426058","name":"Hochdorf","type":"Kreisangehörige_Gemeinde"},"district":{"key":"08426","name":"Biberach","type":"Landkreis"},"federalState":{"key":"08","name":"Baden-Württemberg"}},{"name":"Lorscher Str.","postalCode":"67126","locality":"Hochdorf-Assenheim","municipality":{"key":"07338014","name":"Hochdorf-Assenheim","type":"Kreisangehörige_Gemeinde"},"district":{"key":"07338","name":"Rhein-Pfalz-Kreis","type":"Landkreis"},"federalState":{"key":"07","name":"Rheinland-Pfalz"}},{"name":"Ludwigshafener Str.","postalCode":"67126","locality":"Hochdorf-Assenheim","municipality":{"key":"07338014","name":"Hochdorf-Assenheim","type":"Kreisangehörige_Gemeinde"},"district":{"key":"07338","name":"Rhein-Pfalz-Kreis","type":"Landkreis"},"federalState":{"key":"07","name":"Rheinland-Pfalz"}},{"name":"Marienweg","postalCode":"88454","locality":"Hochdorf","municipality":{"key":"08426058","name":"Hochdorf","type":"Kreisangehörige_Gemeinde"},"district":{"key":"08426","name":"Biberach","type":"Landkreis"},"federalState":{"key":"08","name":"Baden-Württemberg"}},{"name":"Maxburgstr.","postalCode":"67126","locality":"Hochdorf-Assenheim","municipality":{"key":"07338014","name":"Hochdorf-Assenheim","type":"Kreisangehörige_Gemeinde"},"district":{"key":"07338","name":"Rhein-Pfalz-Kreis","type":"Landkreis"},"federalState":{"key":"07","name":"Rheinland-Pfalz"}},{"name":"Max-Eyth-Str.","postalCode":"73269","locality":"Hochdorf","municipality":{"key":"08116027","name":"Hochdorf","type":"Kreisangehörige_Gemeinde"},"district":{"key":"08116","name":"Esslingen","type":"Landkreis"},"federalState":{"key":"08","name":"Baden-Württemberg"}},{"name":"Mercedesstr.","postalCode":"73269","locality":"Hochdorf","municipality":{"key":"08116027","name":"Hochdorf","type":"Kreisangehörige_Gemeinde"},"district":{"key":"08116","name":"Esslingen","type":"Landkreis"},"federalState":{"key":"08","name":"Baden-Württemberg"}},{"name":"Mörikestr.","postalCode":"73269","locality":"Hochdorf","municipality":{"key":"08116027","name":"Hochdorf","type":"Kreisangehörige_Gemeinde"},"district":{"key":"08116","name":"Esslingen","type":"Landkreis"},"federalState":{"key":"08","name":"Baden-Württemberg"}},{"name":"Moriz-Miller-Str.","postalCode":"88454","locality":"Hochdorf","municipality":{"key":"08426058","name":"Hochdorf","type":"Kreisangehörige_Gemeinde"},"district":{"key":"08426","name":"Biberach","type":"Landkreis"},"federalState":{"key":"08","name":"Baden-Württemberg"}},{"name":"Mozartstr.","postalCode":"67126","locality":"Hochdorf-Assenheim","municipality":{"key":"07338014","name":"Hochdorf-Assenheim","type":"Kreisangehörige_Gemeinde"},"district":{"key":"07338","name":"Rhein-Pfalz-Kreis","type":"Landkreis"},"federalState":{"key":"07","name":"Rheinland-Pfalz"}},{"name":"Mozartstr.","postalCode":"73269","locality":"Hochdorf","municipality":{"key":"08116027","name":"Hochdorf","type":"Kreisangehörige_Gemeinde"},"district":{"key":"08116","name":"Esslingen","type":"Landkreis"},"federalState":{"key":"08","name":"Baden-Württemberg"}},{"name":"Mozartstr.","postalCode":"88454","locality":"Hochdorf","municipality":{"key":"08426058","name":"Hochdorf","type":"Kreisangehörige_Gemeinde"},"district":{"key":"08426","name":"Biberach","type":"Landkreis"},"federalState":{"key":"08","name":"Baden-Württemberg"}},{"name":"Mühläcker","postalCode":"73269","locality":"Hochdorf","municipality":{"key":"08116027","name":"Hochdorf","type":"Kreisangehörige_Gemeinde"},"district":{"key":"08116","name":"Esslingen","type":"Landkreis"},"federalState":{"key":"08","name":"Baden-Württemberg"}},{"name":"Mühlstr.","postalCode":"67126","locality":"Hochdorf-Assenheim","municipality":{"key":"07338014","name":"Hochdorf-Assenheim","type":"Kreisangehörige_Gemeinde"},"district":{"key":"07338","name":"Rhein-Pfalz-Kreis","type":"Landkreis"},"federalState":{"key":"07","name":"Rheinland-Pfalz"}},{"name":"Mühlweg","postalCode":"73269","locality":"Hochdorf","municipality":{"key":"08116027","name":"Hochdorf","type":"Kreisangehörige_Gemeinde"},"district":{"key":"08116","name":"Esslingen","type":"Landkreis"},"federalState":{"key":"08","name":"Baden-Württemberg"}},{"name":"Mutterstadter Weg","postalCode":"67126","locality":"Hochdorf-Assenheim","municipality":{"key":"07338014","name":"Hochdorf-Assenheim","type":"Kreisangehörige_Gemeinde"},"district":{"key":"07338","name":"Rhein-Pfalz-Kreis","type":"Landkreis"},"federalState":{"key":"07","name":"Rheinland-Pfalz"}},{"name":"Nelkenweg","postalCode":"67126","locality":"Hochdorf-Assenheim","municipality":{"key":"07338014","name":"Hochdorf-Assenheim","type":"Kreisangehörige_Gemeinde"},"district":{"key":"07338","name":"Rhein-Pfalz-Kreis","type":"Landkreis"},"federalState":{"key":"07","name":"Rheinland-Pfalz"}},{"name":"Nelkenweg","postalCode":"73269","locality":"Hochdorf","municipality":{"key":"08116027","name":"Hochdorf","type":"Kreisangehörige_Gemeinde"},"district":{"key":"08116","name":"Esslingen","type":"Landkreis"},"federalState":{"key":"08","name":"Baden-Württemberg"}},{"name":"Neue Str.","postalCode":"67126","locality":"Hochdorf-Assenheim","municipality":{"key":"07338014","name":"Hochdorf-Assenheim","type":"Kreisangehörige_Gemeinde"},"district":{"key":"07338","name":"Rhein-Pfalz-Kreis","type":"Landkreis"},"federalState":{"key":"07","name":"Rheinland-Pfalz"}},{"name":"Neuffenweg","postalCode":"73269","locality":"Hochdorf","municipality":{"key":"08116027","name":"Hochdorf","type":"Kreisangehörige_Gemeinde"},"district":{"key":"08116","name":"Esslingen","type":"Landkreis"},"federalState":{"key":"08","name":"Baden-Württemberg"}},{"name":"Nietzschestr.","postalCode":"67126","locality":"Hochdorf-Assenheim","municipality":{"key":"07338014","name":"Hochdorf-Assenheim","type":"Kreisangehörige_Gemeinde"},"district":{"key":"07338","name":"Rhein-Pfalz-Kreis","type":"Landkreis"},"federalState":{"key":"07","name":"Rheinland-Pfalz"}},{"name":"Nordring","postalCode":"73269","locality":"Hochdorf","municipality":{"key":"08116027","name":"Hochdorf","type":"Kreisangehörige_Gemeinde"},"district":{"key":"08116","name":"Esslingen","type":"Landkreis"},"federalState":{"key":"08","name":"Baden-Württemberg"}},{"name":"Oberstr.","postalCode":"67126","locality":"Hochdorf-Assenheim","municipality":{"key":"07338014","name":"Hochdorf-Assenheim","type":"Kreisangehörige_Gemeinde"},"district":{"key":"07338","name":"Rhein-Pfalz-Kreis","type":"Landkreis"},"federalState":{"key":"07","name":"Rheinland-Pfalz"}},{"name":"Obeswiesenweg","postalCode":"73269","locality":"Hochdorf","municipality":{"key":"08116027","name":"Hochdorf","type":"Kreisangehörige_Gemeinde"},"district":{"key":"08116","name":"Esslingen","type":"Landkreis"},"federalState":{"key":"08","name":"Baden-Württemberg"}},{"name":"Osterhau Weg","postalCode":"73269","locality":"Hochdorf","municipality":{"key":"08116027","name":"Hochdorf","type":"Kreisangehörige_Gemeinde"},"district":{"key":"08116","name":"Esslingen","type":"Landkreis"},"federalState":{"key":"08","name":"Baden-Württemberg"}},{"name":"Ostring","postalCode":"73269","locality":"Hochdorf","municipality":{"key":"08116027","name":"Hochdorf","type":"Kreisangehörige_Gemeinde"},"district":{"key":"08116","name":"Esslingen","type":"Landkreis"},"federalState":{"key":"08","name":"Baden-Württemberg"}},{"name":"Panoramastr.","postalCode":"73269","locality":"Hochdorf","municipality":{"key":"08116027","name":"Hochdorf","type":"Kreisangehörige_Gemeinde"},"district":{"key":"08116","name":"Esslingen","type":"Landkreis"},"federalState":{"key":"08","name":"Baden-Württemberg"}},{"name":"Plochinger Str.","postalCode":"73269","locality":"Hochdorf","municipality":{"key":"08116027","name":"Hochdorf","type":"Kreisangehörige_Gemeinde"},"district":{"key":"08116","name":"Esslingen","type":"Landkreis"},"federalState":{"key":"08","name":"Baden-Württemberg"}},{"name":"Porschestr.","postalCode":"73269","locality":"Hochdorf","municipality":{"key":"08116027","name":"Hochdorf","type":"Kreisangehörige_Gemeinde"},"district":{"key":"08116","name":"Esslingen","type":"Landkreis"},"federalState":{"key":"08","name":"Baden-Württemberg"}},{"name":"Probststr.","postalCode":"88454","locality":"Hochdorf","municipality":{"key":"08426058","name":"Hochdorf","type":"Kreisangehörige_Gemeinde"},"district":{"key":"08426","name":"Biberach","type":"Landkreis"},"federalState":{"key":"08","name":"Baden-Württemberg"}},{"name":"Prozessionsweg","postalCode":"88454","locality":"Hochdorf","municipality":{"key":"08426058","name":"Hochdorf","type":"Kreisangehörige_Gemeinde"},"district":{"key":"08426","name":"Biberach","type":"Landkreis"},"federalState":{"key":"08","name":"Baden-Württemberg"}},{"name":"Rathausgasse","postalCode":"73269","locality":"Hochdorf","municipality":{"key":"08116027","name":"Hochdorf","type":"Kreisangehörige_Gemeinde"},"district":{"key":"08116","name":"Esslingen","type":"Landkreis"},"federalState":{"key":"08","name":"Baden-Württemberg"}},{"name":"Reichenbacher Str.","postalCode":"73269","locality":"Hochdorf","municipality":{"key":"08116027","name":"Hochdorf","type":"Kreisangehörige_Gemeinde"},"district":{"key":"08116","name":"Esslingen","type":"Landkreis"},"federalState":{"key":"08","name":"Baden-Württemberg"}},{"name":"Reußensteinweg","postalCode":"73269","locality":"Hochdorf","municipality":{"key":"08116027","name":"Hochdorf","type":"Kreisangehörige_Gemeinde"},"district":{"key":"08116","name":"Esslingen","type":"Landkreis"},"federalState":{"key":"08","name":"Baden-Württemberg"}},{"name":"Richard-Wagner-Str.","postalCode":"67126","locality":"Hochdorf-Assenheim","municipality":{"key":"07338014","name":"Hochdorf-Assenheim","type":"Kreisangehörige_Gemeinde"},"district":{"key":"07338","name":"Rhein-Pfalz-Kreis","type":"Landkreis"},"federalState":{"key":"07","name":"Rheinland-Pfalz"}},{"name":"Robert-Schumannstr.","postalCode":"67126","locality":"Hochdorf-Assenheim","municipality":{"key":"07338014","name":"Hochdorf-Assenheim","type":"Kreisangehörige_Gemeinde"},"district":{"key":"07338","name":"Rhein-Pfalz-Kreis","type":"Landkreis"},"federalState":{"key":"07","name":"Rheinland-Pfalz"}},{"name":"Römerstr.","postalCode":"88454","locality":"Hochdorf","municipality":{"key":"08426058","name":"Hochdorf","type":"Kreisangehörige_Gemeinde"},"district":{"key":"08426","name":"Biberach","type":"Landkreis"},"federalState":{"key":"08","name":"Baden-Württemberg"}},{"name":"Rosenweg","postalCode":"67126","locality":"Hochdorf-Assenheim","municipality":{"key":"07338014","name":"Hochdorf-Assenheim","type":"Kreisangehörige_Gemeinde"},"district":{"key":"07338","name":"Rhein-Pfalz-Kreis","type":"Landkreis"},"federalState":{"key":"07","name":"Rheinland-Pfalz"}},{"name":"Rosenweg","postalCode":"73269","locality":"Hochdorf","municipality":{"key":"08116027","name":"Hochdorf","type":"Kreisangehörige_Gemeinde"},"district":{"key":"08116","name":"Esslingen","type":"Landkreis"},"federalState":{"key":"08","name":"Baden-Württemberg"}},{"name":"Rosenweg","postalCode":"88454","locality":"Hochdorf","municipality":{"key":"08426058","name":"Hochdorf","type":"Kreisangehörige_Gemeinde"},"district":{"key":"08426","name":"Biberach","type":"Landkreis"},"federalState":{"key":"08","name":"Baden-Württemberg"}},{"name":"Roßwälder Str.","postalCode":"73269","locality":"Hochdorf","municipality":{"key":"08116027","name":"Hochdorf","type":"Kreisangehörige_Gemeinde"},"district":{"key":"08116","name":"Esslingen","type":"Landkreis"},"federalState":{"key":"08","name":"Baden-Württemberg"}},{"name":"Schafbrückenweg","postalCode":"67126","locality":"Hochdorf-Assenheim","municipality":{"key":"07338014","name":"Hochdorf-Assenheim","type":"Kreisangehörige_Gemeinde"},"district":{"key":"07338","name":"Rhein-Pfalz-Kreis","type":"Landkreis"},"federalState":{"key":"07","name":"Rheinland-Pfalz"}},{"name":"Schäfergrube","postalCode":"73269","locality":"Hochdorf","municipality":{"key":"08116027","name":"Hochdorf","type":"Kreisangehörige_Gemeinde"},"district":{"key":"08116","name":"Esslingen","type":"Landkreis"},"federalState":{"key":"08","name":"Baden-Württemberg"}},{"name":"Schauernheimer Weg","postalCode":"67126","locality":"Hochdorf-Assenheim","municipality":{"key":"07338014","name":"Hochdorf-Assenheim","type":"Kreisangehörige_Gemeinde"},"district":{"key":"07338","name":"Rhein-Pfalz-Kreis","type":"Landkreis"},"federalState":{"key":"07","name":"Rheinland-Pfalz"}},{"name":"Schifferstadter Str.","postalCode":"67126","locality":"Hochdorf-Assenheim","municipality":{"key":"07338014","name":"Hochdorf-Assenheim","type":"Kreisangehörige_Gemeinde"},"district":{"key":"07338","name":"Rhein-Pfalz-Kreis","type":"Landkreis"},"federalState":{"key":"07","name":"Rheinland-Pfalz"}},{"name":"Schillerstr.","postalCode":"67126","locality":"Hochdorf-Assenheim","municipality":{"key":"07338014","name":"Hochdorf-Assenheim","type":"Kreisangehörige_Gemeinde"},"district":{"key":"07338","name":"Rhein-Pfalz-Kreis","type":"Landkreis"},"federalState":{"key":"07","name":"Rheinland-Pfalz"}},{"name":"Schillerstr.","postalCode":"73269","locality":"Hochdorf","municipality":{"key":"08116027","name":"Hochdorf","type":"Kreisangehörige_Gemeinde"},"district":{"key":"08116","name":"Esslingen","type":"Landkreis"},"federalState":{"key":"08","name":"Baden-Württemberg"}},{"name":"Schopenhauerstr.","postalCode":"67126","locality":"Hochdorf-Assenheim","municipality":{"key":"07338014","name":"Hochdorf-Assenheim","type":"Kreisangehörige_Gemeinde"},"district":{"key":"07338","name":"Rhein-Pfalz-Kreis","type":"Landkreis"},"federalState":{"key":"07","name":"Rheinland-Pfalz"}},{"name":"Schubertstr.","postalCode":"88454","locality":"Hochdorf","municipality":{"key":"08426058","name":"Hochdorf","type":"Kreisangehörige_Gemeinde"},"district":{"key":"08426","name":"Biberach","type":"Landkreis"},"federalState":{"key":"08","name":"Baden-Württemberg"}},{"name":"Schuhmacherberg","postalCode":"88454","locality":"Hochdorf","municipality":{"key":"08426058","name":"Hochdorf","type":"Kreisangehörige_Gemeinde"},"district":{"key":"08426","name":"Biberach","type":"Landkreis"},"federalState":{"key":"08","name":"Baden-Württemberg"}},{"name":"Schulgasse","postalCode":"88454","locality":"Hochdorf","municipality":{"key":"08426058","name":"Hochdorf","type":"Kreisangehörige_Gemeinde"},"district":{"key":"08426","name":"Biberach","type":"Landkreis"},"federalState":{"key":"08","name":"Baden-Württemberg"}},{"name":"Schulstr.","postalCode":"67126","locality":"Hochdorf-Assenheim","municipality":{"key":"07338014","name":"Hochdorf-Assenheim","type":"Kreisangehörige_Gemeinde"},"district":{"key":"07338","name":"Rhein-Pfalz-Kreis","type":"Landkreis"},"federalState":{"key":"07","name":"Rheinland-Pfalz"}},{"name":"Schulstr.","postalCode":"73269","locality":"Hochdorf","municipality":{"key":"08116027","name":"Hochdorf","type":"Kreisangehörige_Gemeinde"},"district":{"key":"08116","name":"Esslingen","type":"Landkreis"},"federalState":{"key":"08","name":"Baden-Württemberg"}},{"name":"Schupfenäcker","postalCode":"88454","locality":"Hochdorf","municipality":{"key":"08426058","name":"Hochdorf","type":"Kreisangehörige_Gemeinde"},"district":{"key":"08426","name":"Biberach","type":"Landkreis"},"federalState":{"key":"08","name":"Baden-Württemberg"}},{"name":"Schwedenweg","postalCode":"88454","locality":"Hochdorf","municipality":{"key":"08426058","name":"Hochdorf","type":"Kreisangehörige_Gemeinde"},"district":{"key":"08426","name":"Biberach","type":"Landkreis"},"federalState":{"key":"08","name":"Baden-Württemberg"}},{"name":"Silcherstr.","postalCode":"67126","locality":"Hochdorf-Assenheim","municipality":{"key":"07338014","name":"Hochdorf-Assenheim","type":"Kreisangehörige_Gemeinde"},"district":{"key":"07338","name":"Rhein-Pfalz-Kreis","type":"Landkreis"},"federalState":{"key":"07","name":"Rheinland-Pfalz"}},{"name":"Silcherstr.","postalCode":"73269","locality":"Hochdorf","municipality":{"key":"08116027","name":"Hochdorf","type":"Kreisangehörige_Gemeinde"},"district":{"key":"08116","name":"Esslingen","type":"Landkreis"},"federalState":{"key":"08","name":"Baden-Württemberg"}},{"name":"Spätstr.","postalCode":"67126","locality":"Hochdorf-Assenheim","municipality":{"key":"07338014","name":"Hochdorf-Assenheim","type":"Kreisangehörige_Gemeinde"},"district":{"key":"07338","name":"Rhein-Pfalz-Kreis","type":"Landkreis"},"federalState":{"key":"07","name":"Rheinland-Pfalz"}},{"name":"Speyerer Str.","postalCode":"67126","locality":"Hochdorf-Assenheim","municipality":{"key":"07338014","name":"Hochdorf-Assenheim","type":"Kreisangehörige_Gemeinde"},"district":{"key":"07338","name":"Rhein-Pfalz-Kreis","type":"Landkreis"},"federalState":{"key":"07","name":"Rheinland-Pfalz"}},{"name":"Stauferstr.","postalCode":"88454","locality":"Hochdorf","municipality":{"key":"08426058","name":"Hochdorf","type":"Kreisangehörige_Gemeinde"},"district":{"key":"08426","name":"Biberach","type":"Landkreis"},"federalState":{"key":"08","name":"Baden-Württemberg"}},{"name":"Steetweg","postalCode":"73269","locality":"Hochdorf","municipality":{"key":"08116027","name":"Hochdorf","type":"Kreisangehörige_Gemeinde"},"district":{"key":"08116","name":"Esslingen","type":"Landkreis"},"federalState":{"key":"08","name":"Baden-Württemberg"}},{"name":"Steetwiesen","postalCode":"73269","locality":"Hochdorf","municipality":{"key":"08116027","name":"Hochdorf","type":"Kreisangehörige_Gemeinde"},"district":{"key":"08116","name":"Esslingen","type":"Landkreis"},"federalState":{"key":"08","name":"Baden-Württemberg"}},{"name":"Steigäckerstr.","postalCode":"73269","locality":"Hochdorf","municipality":{"key":"08116027","name":"Hochdorf","type":"Kreisangehörige_Gemeinde"},"district":{"key":"08116","name":"Esslingen","type":"Landkreis"},"federalState":{"key":"08","name":"Baden-Württemberg"}},{"name":"Steinbeisstr.","postalCode":"73269","locality":"Hochdorf","municipality":{"key":"08116027","name":"Hochdorf","type":"Kreisangehörige_Gemeinde"},"district":{"key":"08116","name":"Esslingen","type":"Landkreis"},"federalState":{"key":"08","name":"Baden-Württemberg"}},{"name":"Stellestr.","postalCode":"73269","locality":"Hochdorf","municipality":{"key":"08116027","name":"Hochdorf","type":"Kreisangehörige_Gemeinde"},"district":{"key":"08116","name":"Esslingen","type":"Landkreis"},"federalState":{"key":"08","name":"Baden-Württemberg"}},{"name":"St.-Martin-Str.","postalCode":"88454","locality":"Hochdorf","municipality":{"key":"08426058","name":"Hochdorf","type":"Kreisangehörige_Gemeinde"},"district":{"key":"08426","name":"Biberach","type":"Landkreis"},"federalState":{"key":"08","name":"Baden-Württemberg"}},{"name":"St.-Nikolaus-Str.","postalCode":"88454","locality":"Hochdorf","municipality":{"key":"08426058","name":"Hochdorf","type":"Kreisangehörige_Gemeinde"},"district":{"key":"08426","name":"Biberach","type":"Landkreis"},"federalState":{"key":"08","name":"Baden-Württemberg"}},{"name":"Stockäcker","postalCode":"88454","locality":"Hochdorf","municipality":{"key":"08426058","name":"Hochdorf","type":"Kreisangehörige_Gemeinde"},"district":{"key":"08426","name":"Biberach","type":"Landkreis"},"federalState":{"key":"08","name":"Baden-Württemberg"}},{"name":"Str.näcker","postalCode":"88454","locality":"Hochdorf","municipality":{"key":"08426058","name":"Hochdorf","type":"Kreisangehörige_Gemeinde"},"district":{"key":"08426","name":"Biberach","type":"Landkreis"},"federalState":{"key":"08","name":"Baden-Württemberg"}},{"name":"Talblick","postalCode":"88454","locality":"Hochdorf","municipality":{"key":"08426058","name":"Hochdorf","type":"Kreisangehörige_Gemeinde"},"district":{"key":"08426","name":"Biberach","type":"Landkreis"},"federalState":{"key":"08","name":"Baden-Württemberg"}},{"name":"Talweg","postalCode":"88454","locality":"Hochdorf","municipality":{"key":"08426058","name":"Hochdorf","type":"Kreisangehörige_Gemeinde"},"district":{"key":"08426","name":"Biberach","type":"Landkreis"},"federalState":{"key":"08","name":"Baden-Württemberg"}},{"name":"Tannenbühl","postalCode":"88454","locality":"Hochdorf","municipality":{"key":"08426058","name":"Hochdorf","type":"Kreisangehörige_Gemeinde"},"district":{"key":"08426","name":"Biberach","type":"Landkreis"},"federalState":{"key":"08","name":"Baden-Württemberg"}},{"name":"Teckweg","postalCode":"73269","locality":"Hochdorf","municipality":{"key":"08116027","name":"Hochdorf","type":"Kreisangehörige_Gemeinde"},"district":{"key":"08116","name":"Esslingen","type":"Landkreis"},"federalState":{"key":"08","name":"Baden-Württemberg"}},{"name":"Tobelweg","postalCode":"88454","locality":"Hochdorf","municipality":{"key":"08426058","name":"Hochdorf","type":"Kreisangehörige_Gemeinde"},"district":{"key":"08426","name":"Biberach","type":"Landkreis"},"federalState":{"key":"08","name":"Baden-Württemberg"}},{"name":"Tulpenweg","postalCode":"88454","locality":"Hochdorf","municipality":{"key":"08426058","name":"Hochdorf","type":"Kreisangehörige_Gemeinde"},"district":{"key":"08426","name":"Biberach","type":"Landkreis"},"federalState":{"key":"08","name":"Baden-Württemberg"}},{"name":"Uhlandstr.","postalCode":"67126","locality":"Hochdorf-Assenheim","municipality":{"key":"07338014","name":"Hochdorf-Assenheim","type":"Kreisangehörige_Gemeinde"},"district":{"key":"07338","name":"Rhein-Pfalz-Kreis","type":"Landkreis"},"federalState":{"key":"07","name":"Rheinland-Pfalz"}},{"name":"Uhlandstr.","postalCode":"73269","locality":"Hochdorf","municipality":{"key":"08116027","name":"Hochdorf","type":"Kreisangehörige_Gemeinde"},"district":{"key":"08116","name":"Esslingen","type":"Landkreis"},"federalState":{"key":"08","name":"Baden-Württemberg"}},{"name":"Ulmenweg","postalCode":"88454","locality":"Hochdorf","municipality":{"key":"08426058","name":"Hochdorf","type":"Kreisangehörige_Gemeinde"},"district":{"key":"08426","name":"Biberach","type":"Landkreis"},"federalState":{"key":"08","name":"Baden-Württemberg"}},{"name":"Ummendorfer Str.","postalCode":"88454","locality":"Hochdorf","municipality":{"key":"08426058","name":"Hochdorf","type":"Kreisangehörige_Gemeinde"},"district":{"key":"08426","name":"Biberach","type":"Landkreis"},"federalState":{"key":"08","name":"Baden-Württemberg"}},{"name":"Unteres Ried","postalCode":"88454","locality":"Hochdorf","municipality":{"key":"08426058","name":"Hochdorf","type":"Kreisangehörige_Gemeinde"},"district":{"key":"08426","name":"Biberach","type":"Landkreis"},"federalState":{"key":"08","name":"Baden-Württemberg"}},{"name":"Valenceallee","postalCode":"88400","locality":"Biberach an der Riß","municipality":{"key":"08426021","name":"Biberach an der Riß, Stadt","type":"Große_Kreisstadt"},"district":{"key":"08426","name":"Biberach","type":"Landkreis"},"federalState":{"key":"08","name":"Baden-Württemberg"}},{"name":"Viehmarktplatz","postalCode":"88400","locality":"Biberach an der Riß","municipality":{"key":"08426021","name":"Biberach an der Riß, Stadt","type":"Große_Kreisstadt"},"district":{"key":"08426","name":"Biberach","type":"Landkreis"},"federalState":{"key":"08","name":"Baden-Württemberg"}},{"name":"Viehmarktstr.","postalCode":"88400","locality":"Biberach an der Riß","municipality":{"key":"08426021","name":"Biberach an der Riß, Stadt","type":"Große_Kreisstadt"},"district":{"key":"08426","name":"Biberach","type":"Landkreis"},"federalState":{"key":"08","name":"Baden-Württemberg"}},{"name":"Vogesenstr.","postalCode":"77781","locality":"Biberach","municipality":{"key":"08317011","name":"Biberach","type":"Kreisangehörige_Gemeinde"},"district":{"key":"08317","name":"Ortenaukreis","type":"Landkreis"},"federalState":{"key":"08","name":"Baden-Württemberg"}},{"name":"Vogteistr.","postalCode":"88441","locality":"Mittelbiberach","municipality":{"key":"08426074","name":"Mittelbiberach","type":"Kreisangehörige_Gemeinde"},"district":{"key":"08426","name":"Biberach","type":"Landkreis"},"federalState":{"key":"08","name":"Baden-Württemberg"}},{"name":"Vollmerstr.","postalCode":"88400","locality":"Biberach an der Riß","municipality":{"key":"08426021","name":"Biberach an der Riß, Stadt","type":"Große_Kreisstadt"},"district":{"key":"08426","name":"Biberach","type":"Landkreis"},"federalState":{"key":"08","name":"Baden-Württemberg"}},{"name":"Volmarweg","postalCode":"88400","locality":"Biberach an der Riß","municipality":{"key":"08426021","name":"Biberach an der Riß, Stadt","type":"Große_Kreisstadt"},"district":{"key":"08426","name":"Biberach","type":"Landkreis"},"federalState":{"key":"08","name":"Baden-Württemberg"}},{"name":"Vonierweg","postalCode":"88400","locality":"Biberach an der Riß","municipality":{"key":"08426021","name":"Biberach an der Riß, Stadt","type":"Große_Kreisstadt"},"district":{"key":"08426","name":"Biberach","type":"Landkreis"},"federalState":{"key":"08","name":"Baden-Württemberg"}},{"name":"Vorarlberger Str.","postalCode":"88400","locality":"Biberach an der Riß","municipality":{"key":"08426021","name":"Biberach an der Riß, Stadt","type":"Große_Kreisstadt"},"district":{"key":"08426","name":"Biberach","type":"Landkreis"},"federalState":{"key":"08","name":"Baden-Württemberg"}},{"name":"Vordere Au","postalCode":"88400","locality":"Biberach an der Riß","municipality":{"key":"08426021","name":"Biberach an der Riß, Stadt","type":"Große_Kreisstadt"},"district":{"key":"08426","name":"Biberach","type":"Landkreis"},"federalState":{"key":"08","name":"Baden-Württemberg"}},{"name":"Waldseer Str.","postalCode":"88454","locality":"Hochdorf","municipality":{"key":"08426058","name":"Hochdorf","type":"Kreisangehörige_Gemeinde"},"district":{"key":"08426","name":"Biberach","type":"Landkreis"},"federalState":{"key":"08","name":"Baden-Württemberg"}},{"name":"Weiherweg","postalCode":"88454","locality":"Hochdorf","municipality":{"key":"08426058","name":"Hochdorf","type":"Kreisangehörige_Gemeinde"},"district":{"key":"08426","name":"Biberach","type":"Landkreis"},"federalState":{"key":"08","name":"Baden-Württemberg"}},{"name":"Weinbergstr.","postalCode":"73269","locality":"Hochdorf","municipality":{"key":"08116027","name":"Hochdorf","type":"Kreisangehörige_Gemeinde"},"district":{"key":"08116","name":"Esslingen","type":"Landkreis"},"federalState":{"key":"08","name":"Baden-Württemberg"}},{"name":"Weinbietstr.","postalCode":"67126","locality":"Hochdorf-Assenheim","municipality":{"key":"07338014","name":"Hochdorf-Assenheim","type":"Kreisangehörige_Gemeinde"},"district":{"key":"07338","name":"Rhein-Pfalz-Kreis","type":"Landkreis"},"federalState":{"key":"07","name":"Rheinland-Pfalz"}},{"name":"Wellinger Str.","postalCode":"73269","locality":"Hochdorf","municipality":{"key":"08116027","name":"Hochdorf","type":"Kreisangehörige_Gemeinde"},"district":{"key":"08116","name":"Esslingen","type":"Landkreis"},"federalState":{"key":"08","name":"Baden-Württemberg"}},{"name":"Westerstr.","postalCode":"67126","locality":"Hochdorf-Assenheim","municipality":{"key":"07338014","name":"Hochdorf-Assenheim","type":"Kreisangehörige_Gemeinde"},"district":{"key":"07338","name":"Rhein-Pfalz-Kreis","type":"Landkreis"},"federalState":{"key":"07","name":"Rheinland-Pfalz"}},{"name":"Wettestr.","postalCode":"73269","locality":"Hochdorf","municipality":{"key":"08116027","name":"Hochdorf","type":"Kreisangehörige_Gemeinde"},"district":{"key":"08116","name":"Esslingen","type":"Landkreis"},"federalState":{"key":"08","name":"Baden-Württemberg"}},{"name":"Winterstetter Weg","postalCode":"88454","locality":"Hochdorf","municipality":{"key":"08426058","name":"Hochdorf","type":"Kreisangehörige_Gemeinde"},"district":{"key":"08426","name":"Biberach","type":"Landkreis"},"federalState":{"key":"08","name":"Baden-Württemberg"}},{"name":"Wolfsbusch","postalCode":"73269","locality":"Hochdorf","municipality":{"key":"08116027","name":"Hochdorf","type":"Kreisangehörige_Gemeinde"},"district":{"key":"08116","name":"Esslingen","type":"Landkreis"},"federalState":{"key":"08","name":"Baden-Württemberg"}},{"name":"Wolfskehlenweg","postalCode":"73269","locality":"Hochdorf","municipality":{"key":"08116027","name":"Hochdorf","type":"Kreisangehörige_Gemeinde"},"district":{"key":"08116","name":"Esslingen","type":"Landkreis"},"federalState":{"key":"08","name":"Baden-Württemberg"}},{"name":"Wolfsrücken","postalCode":"73269","locality":"Hochdorf","municipality":{"key":"08116027","name":"Hochdorf","type":"Kreisangehörige_Gemeinde"},"district":{"key":"08116","name":"Esslingen","type":"Landkreis"},"federalState":{"key":"08","name":"Baden-Württemberg"}},{"name":"Ziegelhofstr.","postalCode":"73269","locality":"Hochdorf","municipality":{"key":"08116027","name":"Hochdorf","type":"Kreisangehörige_Gemeinde"},"district":{"key":"08116","name":"Esslingen","type":"Landkreis"},"federalState":{"key":"08","name":"Baden-Württemberg"}},{"name":"Zum Meckenheimer Weg","postalCode":"67126","locality":"Hochdorf-Assenheim","municipality":{"key":"07338014","name":"Hochdorf-Assenheim","type":"Kreisangehörige_Gemeinde"},"district":{"key":"07338","name":"Rhein-Pfalz-Kreis","type":"Landkreis"},"federalState":{"key":"07","name":"Rheinland-Pfalz"}},{"name":"Öschleweg","postalCode":"88454","locality":"Hochdorf","municipality":{"key":"08426058","name":"Hochdorf","type":"Kreisangehörige_Gemeinde"},"district":{"key":"08426","name":"Biberach","type":"Landkreis"},"federalState":{"key":"08","name":"Baden-Württemberg"}},]