[{"name":"24 Stunden 2009","postalCode":"78183","locality":"Hüfingen","municipality":{"key":"08326027","name":"Hüfingen, Stadt","type":"Stadt"},"district":{"key":"08326","name":"Schwarzwald-Baar-Kreis","type":"Landkreis"},"federalState":{"key":"08","name":"Baden-Württemberg"}},{"name":"Adolph-Kolping-Str.","postalCode":"78183","locality":"Hüfingen","municipality":{"key":"08326027","name":"Hüfingen, Stadt","type":"Stadt"},"district":{"key":"08326","name":"Schwarzwald-Baar-Kreis","type":"Landkreis"},"federalState":{"key":"08","name":"Baden-Württemberg"}},{"name":"Ahornweg","postalCode":"78183","locality":"Hüfingen","municipality":{"key":"08326027","name":"Hüfingen, Stadt","type":"Stadt"},"district":{"key":"08326","name":"Schwarzwald-Baar-Kreis","type":"Landkreis"},"federalState":{"key":"08","name":"Baden-Württemberg"}},{"name":"Alemannenstr.","postalCode":"78183","locality":"Hüfingen","municipality":{"key":"08326027","name":"Hüfingen, Stadt","type":"Stadt"},"district":{"key":"08326","name":"Schwarzwald-Baar-Kreis","type":"Landkreis"},"federalState":{"key":"08","name":"Baden-Württemberg"}},{"name":"Alois-Hirt-Str.","postalCode":"78183","locality":"Hüfingen","municipality":{"key":"08326027","name":"Hüfingen, Stadt","type":"Stadt"},"district":{"key":"08326","name":"Schwarzwald-Baar-Kreis","type":"Landkreis"},"federalState":{"key":"08","name":"Baden-Württemberg"}},{"name":"Alpenstr.","postalCode":"78183","locality":"Hüfingen","municipality":{"key":"08326027","name":"Hüfingen, Stadt","type":"Stadt"},"district":{"key":"08326","name":"Schwarzwald-Baar-Kreis","type":"Landkreis"},"federalState":{"key":"08","name":"Baden-Württemberg"}},{"name":"Alte Schloßstr.","postalCode":"78183","locality":"Hüfingen","municipality":{"key":"08326027","name":"Hüfingen, Stadt","type":"Stadt"},"district":{"key":"08326","name":"Schwarzwald-Baar-Kreis","type":"Landkreis"},"federalState":{"key":"08","name":"Baden-Württemberg"}},{"name":"Altes Krankenhaus","postalCode":"78183","locality":"Hüfingen","municipality":{"key":"08326027","name":"Hüfingen, Stadt","type":"Stadt"},"district":{"key":"08326","name":"Schwarzwald-Baar-Kreis","type":"Landkreis"},"federalState":{"key":"08","name":"Baden-Württemberg"}},{"name":"Am Bach","postalCode":"78183","locality":"Hüfingen","municipality":{"key":"08326027","name":"Hüfingen, Stadt","type":"Stadt"},"district":{"key":"08326","name":"Schwarzwald-Baar-Kreis","type":"Landkreis"},"federalState":{"key":"08","name":"Baden-Württemberg"}},{"name":"Am Bürgerhaus","postalCode":"78183","locality":"Hüfingen","municipality":{"key":"08326027","name":"Hüfingen, Stadt","type":"Stadt"},"district":{"key":"08326","name":"Schwarzwald-Baar-Kreis","type":"Landkreis"},"federalState":{"key":"08","name":"Baden-Württemberg"}},{"name":"Am Hexenberg","postalCode":"78183","locality":"Hüfingen","municipality":{"key":"08326027","name":"Hüfingen, Stadt","type":"Stadt"},"district":{"key":"08326","name":"Schwarzwald-Baar-Kreis","type":"Landkreis"},"federalState":{"key":"08","name":"Baden-Württemberg"}},{"name":"Am Kofenweiher","postalCode":"78183","locality":"Hüfingen","municipality":{"key":"08326027","name":"Hüfingen, Stadt","type":"Stadt"},"district":{"key":"08326","name":"Schwarzwald-Baar-Kreis","type":"Landkreis"},"federalState":{"key":"08","name":"Baden-Württemberg"}},{"name":"Am Rappenschneller","postalCode":"78183","locality":"Hüfingen","municipality":{"key":"08326027","name":"Hüfingen, Stadt","type":"Stadt"},"district":{"key":"08326","name":"Schwarzwald-Baar-Kreis","type":"Landkreis"},"federalState":{"key":"08","name":"Baden-Württemberg"}},{"name":"Am Rathaus","postalCode":"78183","locality":"Hüfingen","municipality":{"key":"08326027","name":"Hüfingen, Stadt","type":"Stadt"},"district":{"key":"08326","name":"Schwarzwald-Baar-Kreis","type":"Landkreis"},"federalState":{"key":"08","name":"Baden-Württemberg"}},{"name":"Am Wagrain","postalCode":"78183","locality":"Hüfingen","municipality":{"key":"08326027","name":"Hüfingen, Stadt","type":"Stadt"},"district":{"key":"08326","name":"Schwarzwald-Baar-Kreis","type":"Landkreis"},"federalState":{"key":"08","name":"Baden-Württemberg"}},{"name":"An der Gierhalde","postalCode":"78183","locality":"Hüfingen","municipality":{"key":"08326027","name":"Hüfingen, Stadt","type":"Stadt"},"district":{"key":"08326","name":"Schwarzwald-Baar-Kreis","type":"Landkreis"},"federalState":{"key":"08","name":"Baden-Württemberg"}},{"name":"Aubachstr.","postalCode":"78183","locality":"Hüfingen","municipality":{"key":"08326027","name":"Hüfingen, Stadt","type":"Stadt"},"district":{"key":"08326","name":"Schwarzwald-Baar-Kreis","type":"Landkreis"},"federalState":{"key":"08","name":"Baden-Württemberg"}},{"name":"Auf Breiten","postalCode":"78183","locality":"Hüfingen","municipality":{"key":"08326027","name":"Hüfingen, Stadt","type":"Stadt"},"district":{"key":"08326","name":"Schwarzwald-Baar-Kreis","type":"Landkreis"},"federalState":{"key":"08","name":"Baden-Württemberg"}},{"name":"Auf dem Hundsrück","postalCode":"78183","locality":"Hüfingen","municipality":{"key":"08326027","name":"Hüfingen, Stadt","type":"Stadt"},"district":{"key":"08326","name":"Schwarzwald-Baar-Kreis","type":"Landkreis"},"federalState":{"key":"08","name":"Baden-Württemberg"}},{"name":"Auf Engelen","postalCode":"78183","locality":"Hüfingen","municipality":{"key":"08326027","name":"Hüfingen, Stadt","type":"Stadt"},"district":{"key":"08326","name":"Schwarzwald-Baar-Kreis","type":"Landkreis"},"federalState":{"key":"08","name":"Baden-Württemberg"}},{"name":"Bahnhofstr.","postalCode":"78183","locality":"Hüfingen","municipality":{"key":"08326027","name":"Hüfingen, Stadt","type":"Stadt"},"district":{"key":"08326","name":"Schwarzwald-Baar-Kreis","type":"Landkreis"},"federalState":{"key":"08","name":"Baden-Württemberg"}},{"name":"Bergstr.","postalCode":"78183","locality":"Hüfingen","municipality":{"key":"08326027","name":"Hüfingen, Stadt","type":"Stadt"},"district":{"key":"08326","name":"Schwarzwald-Baar-Kreis","type":"Landkreis"},"federalState":{"key":"08","name":"Baden-Württemberg"}},{"name":"Birkenweg","postalCode":"78183","locality":"Hüfingen","municipality":{"key":"08326027","name":"Hüfingen, Stadt","type":"Stadt"},"district":{"key":"08326","name":"Schwarzwald-Baar-Kreis","type":"Landkreis"},"federalState":{"key":"08","name":"Baden-Württemberg"}},{"name":"Böhmerlandstr.","postalCode":"78183","locality":"Hüfingen","municipality":{"key":"08326027","name":"Hüfingen, Stadt","type":"Stadt"},"district":{"key":"08326","name":"Schwarzwald-Baar-Kreis","type":"Landkreis"},"federalState":{"key":"08","name":"Baden-Württemberg"}},{"name":"Bontalweg","postalCode":"78183","locality":"Hüfingen","municipality":{"key":"08326027","name":"Hüfingen, Stadt","type":"Stadt"},"district":{"key":"08326","name":"Schwarzwald-Baar-Kreis","type":"Landkreis"},"federalState":{"key":"08","name":"Baden-Württemberg"}},{"name":"Brändleweg","postalCode":"78183","locality":"Hüfingen","municipality":{"key":"08326027","name":"Hüfingen, Stadt","type":"Stadt"},"district":{"key":"08326","name":"Schwarzwald-Baar-Kreis","type":"Landkreis"},"federalState":{"key":"08","name":"Baden-Württemberg"}},{"name":"Bräunlinger Str.","postalCode":"78183","locality":"Hüfingen","municipality":{"key":"08326027","name":"Hüfingen, Stadt","type":"Stadt"},"district":{"key":"08326","name":"Schwarzwald-Baar-Kreis","type":"Landkreis"},"federalState":{"key":"08","name":"Baden-Württemberg"}},{"name":"Bregstr.","postalCode":"78183","locality":"Hüfingen","municipality":{"key":"08326027","name":"Hüfingen, Stadt","type":"Stadt"},"district":{"key":"08326","name":"Schwarzwald-Baar-Kreis","type":"Landkreis"},"federalState":{"key":"08","name":"Baden-Württemberg"}},{"name":"Brunnenstr.","postalCode":"78183","locality":"Hüfingen","municipality":{"key":"08326027","name":"Hüfingen, Stadt","type":"Stadt"},"district":{"key":"08326","name":"Schwarzwald-Baar-Kreis","type":"Landkreis"},"federalState":{"key":"08","name":"Baden-Württemberg"}},{"name":"Buchenweg","postalCode":"78183","locality":"Hüfingen","municipality":{"key":"08326027","name":"Hüfingen, Stadt","type":"Stadt"},"district":{"key":"08326","name":"Schwarzwald-Baar-Kreis","type":"Landkreis"},"federalState":{"key":"08","name":"Baden-Württemberg"}},{"name":"Burgmühlenweg","postalCode":"78183","locality":"Hüfingen","municipality":{"key":"08326027","name":"Hüfingen, Stadt","type":"Stadt"},"district":{"key":"08326","name":"Schwarzwald-Baar-Kreis","type":"Landkreis"},"federalState":{"key":"08","name":"Baden-Württemberg"}},{"name":"Burgmühleweg","postalCode":"78183","locality":"Hüfingen","municipality":{"key":"08326027","name":"Hüfingen, Stadt","type":"Stadt"},"district":{"key":"08326","name":"Schwarzwald-Baar-Kreis","type":"Landkreis"},"federalState":{"key":"08","name":"Baden-Württemberg"}},{"name":"Burgplatz","postalCode":"78183","locality":"Hüfingen","municipality":{"key":"08326027","name":"Hüfingen, Stadt","type":"Stadt"},"district":{"key":"08326","name":"Schwarzwald-Baar-Kreis","type":"Landkreis"},"federalState":{"key":"08","name":"Baden-Württemberg"}},{"name":"Burgweg","postalCode":"78183","locality":"Hüfingen","municipality":{"key":"08326027","name":"Hüfingen, Stadt","type":"Stadt"},"district":{"key":"08326","name":"Schwarzwald-Baar-Kreis","type":"Landkreis"},"federalState":{"key":"08","name":"Baden-Württemberg"}},{"name":"Dekan-Strohmeyer-Str.","postalCode":"78183","locality":"Hüfingen","municipality":{"key":"08326027","name":"Hüfingen, Stadt","type":"Stadt"},"district":{"key":"08326","name":"Schwarzwald-Baar-Kreis","type":"Landkreis"},"federalState":{"key":"08","name":"Baden-Württemberg"}},{"name":"Denkmalplatz","postalCode":"78183","locality":"Hüfingen","municipality":{"key":"08326027","name":"Hüfingen, Stadt","type":"Stadt"},"district":{"key":"08326","name":"Schwarzwald-Baar-Kreis","type":"Landkreis"},"federalState":{"key":"08","name":"Baden-Württemberg"}},{"name":"Dögginger Str.","postalCode":"78183","locality":"Hüfingen","municipality":{"key":"08326027","name":"Hüfingen, Stadt","type":"Stadt"},"district":{"key":"08326","name":"Schwarzwald-Baar-Kreis","type":"Landkreis"},"federalState":{"key":"08","name":"Baden-Württemberg"}},{"name":"Donaueschinger Str.","postalCode":"78183","locality":"Hüfingen","municipality":{"key":"08326027","name":"Hüfingen, Stadt","type":"Stadt"},"district":{"key":"08326","name":"Schwarzwald-Baar-Kreis","type":"Landkreis"},"federalState":{"key":"08","name":"Baden-Württemberg"}},{"name":"Dorfstr.","postalCode":"78183","locality":"Hüfingen","municipality":{"key":"08326027","name":"Hüfingen, Stadt","type":"Stadt"},"district":{"key":"08326","name":"Schwarzwald-Baar-Kreis","type":"Landkreis"},"federalState":{"key":"08","name":"Baden-Württemberg"}},{"name":"Dreikalktäleweg","postalCode":"78183","locality":"Hüfingen","municipality":{"key":"08326027","name":"Hüfingen, Stadt","type":"Stadt"},"district":{"key":"08326","name":"Schwarzwald-Baar-Kreis","type":"Landkreis"},"federalState":{"key":"08","name":"Baden-Württemberg"}},{"name":"Eichenweg","postalCode":"78183","locality":"Hüfingen","municipality":{"key":"08326027","name":"Hüfingen, Stadt","type":"Stadt"},"district":{"key":"08326","name":"Schwarzwald-Baar-Kreis","type":"Landkreis"},"federalState":{"key":"08","name":"Baden-Württemberg"}},{"name":"Eisenbahnweg","postalCode":"78183","locality":"Hüfingen","municipality":{"key":"08326027","name":"Hüfingen, Stadt","type":"Stadt"},"district":{"key":"08326","name":"Schwarzwald-Baar-Kreis","type":"Landkreis"},"federalState":{"key":"08","name":"Baden-Württemberg"}},{"name":"Erlenweg","postalCode":"78183","locality":"Hüfingen","municipality":{"key":"08326027","name":"Hüfingen, Stadt","type":"Stadt"},"district":{"key":"08326","name":"Schwarzwald-Baar-Kreis","type":"Landkreis"},"federalState":{"key":"08","name":"Baden-Württemberg"}},{"name":"Feldbergblick","postalCode":"78183","locality":"Hüfingen","municipality":{"key":"08326027","name":"Hüfingen, Stadt","type":"Stadt"},"district":{"key":"08326","name":"Schwarzwald-Baar-Kreis","type":"Landkreis"},"federalState":{"key":"08","name":"Baden-Württemberg"}},{"name":"Fichtenweg","postalCode":"78183","locality":"Hüfingen","municipality":{"key":"08326027","name":"Hüfingen, Stadt","type":"Stadt"},"district":{"key":"08326","name":"Schwarzwald-Baar-Kreis","type":"Landkreis"},"federalState":{"key":"08","name":"Baden-Württemberg"}},{"name":"Friedenstr.","postalCode":"78183","locality":"Hüfingen","municipality":{"key":"08326027","name":"Hüfingen, Stadt","type":"Stadt"},"district":{"key":"08326","name":"Schwarzwald-Baar-Kreis","type":"Landkreis"},"federalState":{"key":"08","name":"Baden-Württemberg"}},{"name":"Friedhofstr.","postalCode":"78183","locality":"Hüfingen","municipality":{"key":"08326027","name":"Hüfingen, Stadt","type":"Stadt"},"district":{"key":"08326","name":"Schwarzwald-Baar-Kreis","type":"Landkreis"},"federalState":{"key":"08","name":"Baden-Württemberg"}},{"name":"Fürstenbergstr.","postalCode":"78183","locality":"Hüfingen","municipality":{"key":"08326027","name":"Hüfingen, Stadt","type":"Stadt"},"district":{"key":"08326","name":"Schwarzwald-Baar-Kreis","type":"Landkreis"},"federalState":{"key":"08","name":"Baden-Württemberg"}},{"name":"Gallusweg","postalCode":"78183","locality":"Hüfingen","municipality":{"key":"08326027","name":"Hüfingen, Stadt","type":"Stadt"},"district":{"key":"08326","name":"Schwarzwald-Baar-Kreis","type":"Landkreis"},"federalState":{"key":"08","name":"Baden-Württemberg"}},{"name":"Gartenweg","postalCode":"78183","locality":"Hüfingen","municipality":{"key":"08326027","name":"Hüfingen, Stadt","type":"Stadt"},"district":{"key":"08326","name":"Schwarzwald-Baar-Kreis","type":"Landkreis"},"federalState":{"key":"08","name":"Baden-Württemberg"}},{"name":"Gerberweg","postalCode":"78183","locality":"Hüfingen","municipality":{"key":"08326027","name":"Hüfingen, Stadt","type":"Stadt"},"district":{"key":"08326","name":"Schwarzwald-Baar-Kreis","type":"Landkreis"},"federalState":{"key":"08","name":"Baden-Württemberg"}},{"name":"Gnadentalweg","postalCode":"78183","locality":"Hüfingen","municipality":{"key":"08326027","name":"Hüfingen, Stadt","type":"Stadt"},"district":{"key":"08326","name":"Schwarzwald-Baar-Kreis","type":"Landkreis"},"federalState":{"key":"08","name":"Baden-Württemberg"}},{"name":"Gottfried-Schafbuch-Str.","postalCode":"78183","locality":"Hüfingen","municipality":{"key":"08326027","name":"Hüfingen, Stadt","type":"Stadt"},"district":{"key":"08326","name":"Schwarzwald-Baar-Kreis","type":"Landkreis"},"federalState":{"key":"08","name":"Baden-Württemberg"}},{"name":"Grabengasse","postalCode":"78183","locality":"Hüfingen","municipality":{"key":"08326027","name":"Hüfingen, Stadt","type":"Stadt"},"district":{"key":"08326","name":"Schwarzwald-Baar-Kreis","type":"Landkreis"},"federalState":{"key":"08","name":"Baden-Württemberg"}},{"name":"Griesweg","postalCode":"78183","locality":"Hüfingen","municipality":{"key":"08326027","name":"Hüfingen, Stadt","type":"Stadt"},"district":{"key":"08326","name":"Schwarzwald-Baar-Kreis","type":"Landkreis"},"federalState":{"key":"08","name":"Baden-Württemberg"}},{"name":"Großschönau-Ring","postalCode":"78183","locality":"Hüfingen","municipality":{"key":"08326027","name":"Hüfingen, Stadt","type":"Stadt"},"district":{"key":"08326","name":"Schwarzwald-Baar-Kreis","type":"Landkreis"},"federalState":{"key":"08","name":"Baden-Württemberg"}},{"name":"Grundäcker","postalCode":"78183","locality":"Hüfingen","municipality":{"key":"08326027","name":"Hüfingen, Stadt","type":"Stadt"},"district":{"key":"08326","name":"Schwarzwald-Baar-Kreis","type":"Landkreis"},"federalState":{"key":"08","name":"Baden-Württemberg"}},{"name":"Haldenweg","postalCode":"78183","locality":"Hüfingen","municipality":{"key":"08326027","name":"Hüfingen, Stadt","type":"Stadt"},"district":{"key":"08326","name":"Schwarzwald-Baar-Kreis","type":"Landkreis"},"federalState":{"key":"08","name":"Baden-Württemberg"}},{"name":"Handwerkstr.","postalCode":"78183","locality":"Hüfingen","municipality":{"key":"08326027","name":"Hüfingen, Stadt","type":"Stadt"},"district":{"key":"08326","name":"Schwarzwald-Baar-Kreis","type":"Landkreis"},"federalState":{"key":"08","name":"Baden-Württemberg"}},{"name":"Hans-Huber-Str.","postalCode":"78183","locality":"Hüfingen","municipality":{"key":"08326027","name":"Hüfingen, Stadt","type":"Stadt"},"district":{"key":"08326","name":"Schwarzwald-Baar-Kreis","type":"Landkreis"},"federalState":{"key":"08","name":"Baden-Württemberg"}},{"name":"Hans-Schroedter-Weg","postalCode":"78183","locality":"Hüfingen","municipality":{"key":"08326027","name":"Hüfingen, Stadt","type":"Stadt"},"district":{"key":"08326","name":"Schwarzwald-Baar-Kreis","type":"Landkreis"},"federalState":{"key":"08","name":"Baden-Württemberg"}},{"name":"Hardstr.","postalCode":"78183","locality":"Hüfingen","municipality":{"key":"08326027","name":"Hüfingen, Stadt","type":"Stadt"},"district":{"key":"08326","name":"Schwarzwald-Baar-Kreis","type":"Landkreis"},"federalState":{"key":"08","name":"Baden-Württemberg"}},{"name":"Hauptstr.","postalCode":"78183","locality":"Hüfingen","municipality":{"key":"08326027","name":"Hüfingen, Stadt","type":"Stadt"},"district":{"key":"08326","name":"Schwarzwald-Baar-Kreis","type":"Landkreis"},"federalState":{"key":"08","name":"Baden-Württemberg"}},{"name":"Hausener Str.","postalCode":"78183","locality":"Hüfingen","municipality":{"key":"08326027","name":"Hüfingen, Stadt","type":"Stadt"},"district":{"key":"08326","name":"Schwarzwald-Baar-Kreis","type":"Landkreis"},"federalState":{"key":"08","name":"Baden-Württemberg"}},{"name":"Hebelstr.","postalCode":"78183","locality":"Hüfingen","municipality":{"key":"08326027","name":"Hüfingen, Stadt","type":"Stadt"},"district":{"key":"08326","name":"Schwarzwald-Baar-Kreis","type":"Landkreis"},"federalState":{"key":"08","name":"Baden-Württemberg"}},{"name":"Heinrich-v.-Fürstenberg-Str.","postalCode":"78183","locality":"Hüfingen","municipality":{"key":"08326027","name":"Hüfingen, Stadt","type":"Stadt"},"district":{"key":"08326","name":"Schwarzwald-Baar-Kreis","type":"Landkreis"},"federalState":{"key":"08","name":"Baden-Württemberg"}},{"name":"Hermann-Mäder-Str.","postalCode":"78183","locality":"Hüfingen","municipality":{"key":"08326027","name":"Hüfingen, Stadt","type":"Stadt"},"district":{"key":"08326","name":"Schwarzwald-Baar-Kreis","type":"Landkreis"},"federalState":{"key":"08","name":"Baden-Württemberg"}},{"name":"Herrengartenstr.","postalCode":"78183","locality":"Hüfingen","municipality":{"key":"08326027","name":"Hüfingen, Stadt","type":"Stadt"},"district":{"key":"08326","name":"Schwarzwald-Baar-Kreis","type":"Landkreis"},"federalState":{"key":"08","name":"Baden-Württemberg"}},{"name":"Hinterdorf","postalCode":"78183","locality":"Hüfingen","municipality":{"key":"08326027","name":"Hüfingen, Stadt","type":"Stadt"},"district":{"key":"08326","name":"Schwarzwald-Baar-Kreis","type":"Landkreis"},"federalState":{"key":"08","name":"Baden-Württemberg"}},{"name":"Hinterstadt","postalCode":"78183","locality":"Hüfingen","municipality":{"key":"08326027","name":"Hüfingen, Stadt","type":"Stadt"},"district":{"key":"08326","name":"Schwarzwald-Baar-Kreis","type":"Landkreis"},"federalState":{"key":"08","name":"Baden-Württemberg"}},{"name":"Hochstr.","postalCode":"78183","locality":"Hüfingen","municipality":{"key":"08326027","name":"Hüfingen, Stadt","type":"Stadt"},"district":{"key":"08326","name":"Schwarzwald-Baar-Kreis","type":"Landkreis"},"federalState":{"key":"08","name":"Baden-Württemberg"}},{"name":"Hofenweg","postalCode":"78183","locality":"Hüfingen","municipality":{"key":"08326027","name":"Hüfingen, Stadt","type":"Stadt"},"district":{"key":"08326","name":"Schwarzwald-Baar-Kreis","type":"Landkreis"},"federalState":{"key":"08","name":"Baden-Württemberg"}},{"name":"Hohenstr.","postalCode":"78183","locality":"Hüfingen","municipality":{"key":"08326027","name":"Hüfingen, Stadt","type":"Stadt"},"district":{"key":"08326","name":"Schwarzwald-Baar-Kreis","type":"Landkreis"},"federalState":{"key":"08","name":"Baden-Württemberg"}},{"name":"Hubertusweg","postalCode":"78183","locality":"Hüfingen","municipality":{"key":"08326027","name":"Hüfingen, Stadt","type":"Stadt"},"district":{"key":"08326","name":"Schwarzwald-Baar-Kreis","type":"Landkreis"},"federalState":{"key":"08","name":"Baden-Württemberg"}},{"name":"Hühnergasse","postalCode":"78183","locality":"Hüfingen","municipality":{"key":"08326027","name":"Hüfingen, Stadt","type":"Stadt"},"district":{"key":"08326","name":"Schwarzwald-Baar-Kreis","type":"Landkreis"},"federalState":{"key":"08","name":"Baden-Württemberg"}},{"name":"Im Dreiangel","postalCode":"78183","locality":"Hüfingen","municipality":{"key":"08326027","name":"Hüfingen, Stadt","type":"Stadt"},"district":{"key":"08326","name":"Schwarzwald-Baar-Kreis","type":"Landkreis"},"federalState":{"key":"08","name":"Baden-Württemberg"}},{"name":"Im Einfang","postalCode":"78183","locality":"Hüfingen","municipality":{"key":"08326027","name":"Hüfingen, Stadt","type":"Stadt"},"district":{"key":"08326","name":"Schwarzwald-Baar-Kreis","type":"Landkreis"},"federalState":{"key":"08","name":"Baden-Württemberg"}},{"name":"Im Helgle","postalCode":"78183","locality":"Hüfingen","municipality":{"key":"08326027","name":"Hüfingen, Stadt","type":"Stadt"},"district":{"key":"08326","name":"Schwarzwald-Baar-Kreis","type":"Landkreis"},"federalState":{"key":"08","name":"Baden-Württemberg"}},{"name":"Im Pfarrgarten","postalCode":"78183","locality":"Hüfingen","municipality":{"key":"08326027","name":"Hüfingen, Stadt","type":"Stadt"},"district":{"key":"08326","name":"Schwarzwald-Baar-Kreis","type":"Landkreis"},"federalState":{"key":"08","name":"Baden-Württemberg"}},{"name":"Im Schaafwasen","postalCode":"78183","locality":"Hüfingen","municipality":{"key":"08326027","name":"Hüfingen, Stadt","type":"Stadt"},"district":{"key":"08326","name":"Schwarzwald-Baar-Kreis","type":"Landkreis"},"federalState":{"key":"08","name":"Baden-Württemberg"}},{"name":"Im Weiher","postalCode":"78183","locality":"Hüfingen","municipality":{"key":"08326027","name":"Hüfingen, Stadt","type":"Stadt"},"district":{"key":"08326","name":"Schwarzwald-Baar-Kreis","type":"Landkreis"},"federalState":{"key":"08","name":"Baden-Württemberg"}},{"name":"In Kofen","postalCode":"78183","locality":"Hüfingen","municipality":{"key":"08326027","name":"Hüfingen, Stadt","type":"Stadt"},"district":{"key":"08326","name":"Schwarzwald-Baar-Kreis","type":"Landkreis"},"federalState":{"key":"08","name":"Baden-Württemberg"}},{"name":"Insel","postalCode":"78183","locality":"Hüfingen","municipality":{"key":"08326027","name":"Hüfingen, Stadt","type":"Stadt"},"district":{"key":"08326","name":"Schwarzwald-Baar-Kreis","type":"Landkreis"},"federalState":{"key":"08","name":"Baden-Württemberg"}},{"name":"Jakobstr.","postalCode":"78183","locality":"Hüfingen","municipality":{"key":"08326027","name":"Hüfingen, Stadt","type":"Stadt"},"district":{"key":"08326","name":"Schwarzwald-Baar-Kreis","type":"Landkreis"},"federalState":{"key":"08","name":"Baden-Württemberg"}},{"name":"J.-N.-Heinemann-Str.","postalCode":"78183","locality":"Hüfingen","municipality":{"key":"08326027","name":"Hüfingen, Stadt","type":"Stadt"},"district":{"key":"08326","name":"Schwarzwald-Baar-Kreis","type":"Landkreis"},"federalState":{"key":"08","name":"Baden-Württemberg"}},{"name":"Josef-Welte-Str.","postalCode":"78183","locality":"Hüfingen","municipality":{"key":"08326027","name":"Hüfingen, Stadt","type":"Stadt"},"district":{"key":"08326","name":"Schwarzwald-Baar-Kreis","type":"Landkreis"},"federalState":{"key":"08","name":"Baden-Württemberg"}},{"name":"Jungwiesweg","postalCode":"78183","locality":"Hüfingen","municipality":{"key":"08326027","name":"Hüfingen, Stadt","type":"Stadt"},"district":{"key":"08326","name":"Schwarzwald-Baar-Kreis","type":"Landkreis"},"federalState":{"key":"08","name":"Baden-Württemberg"}},{"name":"Kanzel","postalCode":"78183","locality":"Hüfingen","municipality":{"key":"08326027","name":"Hüfingen, Stadt","type":"Stadt"},"district":{"key":"08326","name":"Schwarzwald-Baar-Kreis","type":"Landkreis"},"federalState":{"key":"08","name":"Baden-Württemberg"}},{"name":"Kapelerweg","postalCode":"78183","locality":"Hüfingen","municipality":{"key":"08326027","name":"Hüfingen, Stadt","type":"Stadt"},"district":{"key":"08326","name":"Schwarzwald-Baar-Kreis","type":"Landkreis"},"federalState":{"key":"08","name":"Baden-Württemberg"}},{"name":"Karl-Bromberger-Str.","postalCode":"78183","locality":"Hüfingen","municipality":{"key":"08326027","name":"Hüfingen, Stadt","type":"Stadt"},"district":{"key":"08326","name":"Schwarzwald-Baar-Kreis","type":"Landkreis"},"federalState":{"key":"08","name":"Baden-Württemberg"}},{"name":"Keltenstr.","postalCode":"78183","locality":"Hüfingen","municipality":{"key":"08326027","name":"Hüfingen, Stadt","type":"Stadt"},"district":{"key":"08326","name":"Schwarzwald-Baar-Kreis","type":"Landkreis"},"federalState":{"key":"08","name":"Baden-Württemberg"}},{"name":"Kirchhofweg","postalCode":"78183","locality":"Hüfingen","municipality":{"key":"08326027","name":"Hüfingen, Stadt","type":"Stadt"},"district":{"key":"08326","name":"Schwarzwald-Baar-Kreis","type":"Landkreis"},"federalState":{"key":"08","name":"Baden-Württemberg"}},{"name":"Kirchstr.","postalCode":"78183","locality":"Hüfingen","municipality":{"key":"08326027","name":"Hüfingen, Stadt","type":"Stadt"},"district":{"key":"08326","name":"Schwarzwald-Baar-Kreis","type":"Landkreis"},"federalState":{"key":"08","name":"Baden-Württemberg"}},{"name":"Kohlhüttenweg","postalCode":"78183","locality":"Hüfingen","municipality":{"key":"08326027","name":"Hüfingen, Stadt","type":"Stadt"},"district":{"key":"08326","name":"Schwarzwald-Baar-Kreis","type":"Landkreis"},"federalState":{"key":"08","name":"Baden-Württemberg"}},{"name":"Kreuzstr.","postalCode":"78183","locality":"Hüfingen","municipality":{"key":"08326027","name":"Hüfingen, Stadt","type":"Stadt"},"district":{"key":"08326","name":"Schwarzwald-Baar-Kreis","type":"Landkreis"},"federalState":{"key":"08","name":"Baden-Württemberg"}},{"name":"Kronengasse","postalCode":"78183","locality":"Hüfingen","municipality":{"key":"08326027","name":"Hüfingen, Stadt","type":"Stadt"},"district":{"key":"08326","name":"Schwarzwald-Baar-Kreis","type":"Landkreis"},"federalState":{"key":"08","name":"Baden-Württemberg"}},{"name":"Längeweg","postalCode":"78183","locality":"Hüfingen","municipality":{"key":"08326027","name":"Hüfingen, Stadt","type":"Stadt"},"district":{"key":"08326","name":"Schwarzwald-Baar-Kreis","type":"Landkreis"},"federalState":{"key":"08","name":"Baden-Württemberg"}},{"name":"Lärchenweg","postalCode":"78183","locality":"Hüfingen","municipality":{"key":"08326027","name":"Hüfingen, Stadt","type":"Stadt"},"district":{"key":"08326","name":"Schwarzwald-Baar-Kreis","type":"Landkreis"},"federalState":{"key":"08","name":"Baden-Württemberg"}},{"name":"Lindenpark","postalCode":"78183","locality":"Hüfingen","municipality":{"key":"08326027","name":"Hüfingen, Stadt","type":"Stadt"},"district":{"key":"08326","name":"Schwarzwald-Baar-Kreis","type":"Landkreis"},"federalState":{"key":"08","name":"Baden-Württemberg"}},{"name":"Lindenstr.","postalCode":"78183","locality":"Hüfingen","municipality":{"key":"08326027","name":"Hüfingen, Stadt","type":"Stadt"},"district":{"key":"08326","name":"Schwarzwald-Baar-Kreis","type":"Landkreis"},"federalState":{"key":"08","name":"Baden-Württemberg"}},{"name":"Loretoweg","postalCode":"78183","locality":"Hüfingen","municipality":{"key":"08326027","name":"Hüfingen, Stadt","type":"Stadt"},"district":{"key":"08326","name":"Schwarzwald-Baar-Kreis","type":"Landkreis"},"federalState":{"key":"08","name":"Baden-Württemberg"}},{"name":"Lorettoweg","postalCode":"78183","locality":"Hüfingen","municipality":{"key":"08326027","name":"Hüfingen, Stadt","type":"Stadt"},"district":{"key":"08326","name":"Schwarzwald-Baar-Kreis","type":"Landkreis"},"federalState":{"key":"08","name":"Baden-Württemberg"}},{"name":"Löwengartenstr.","postalCode":"78183","locality":"Hüfingen","municipality":{"key":"08326027","name":"Hüfingen, Stadt","type":"Stadt"},"district":{"key":"08326","name":"Schwarzwald-Baar-Kreis","type":"Landkreis"},"federalState":{"key":"08","name":"Baden-Württemberg"}},{"name":"Luzian-Reich-Str.","postalCode":"78183","locality":"Hüfingen","municipality":{"key":"08326027","name":"Hüfingen, Stadt","type":"Stadt"},"district":{"key":"08326","name":"Schwarzwald-Baar-Kreis","type":"Landkreis"},"federalState":{"key":"08","name":"Baden-Württemberg"}},{"name":"Max-Gilly-Str.","postalCode":"78183","locality":"Hüfingen","municipality":{"key":"08326027","name":"Hüfingen, Stadt","type":"Stadt"},"district":{"key":"08326","name":"Schwarzwald-Baar-Kreis","type":"Landkreis"},"federalState":{"key":"08","name":"Baden-Württemberg"}},{"name":"Mende-Ring","postalCode":"78183","locality":"Hüfingen","municipality":{"key":"08326027","name":"Hüfingen, Stadt","type":"Stadt"},"district":{"key":"08326","name":"Schwarzwald-Baar-Kreis","type":"Landkreis"},"federalState":{"key":"08","name":"Baden-Württemberg"}},{"name":"Mönchshofstr.","postalCode":"78183","locality":"Hüfingen","municipality":{"key":"08326027","name":"Hüfingen, Stadt","type":"Stadt"},"district":{"key":"08326","name":"Schwarzwald-Baar-Kreis","type":"Landkreis"},"federalState":{"key":"08","name":"Baden-Württemberg"}},{"name":"Munolfstr.","postalCode":"78183","locality":"Hüfingen","municipality":{"key":"08326027","name":"Hüfingen, Stadt","type":"Stadt"},"district":{"key":"08326","name":"Schwarzwald-Baar-Kreis","type":"Landkreis"},"federalState":{"key":"08","name":"Baden-Württemberg"}},{"name":"Nepomuk-Schelble-Str.","postalCode":"78183","locality":"Hüfingen","municipality":{"key":"08326027","name":"Hüfingen, Stadt","type":"Stadt"},"district":{"key":"08326","name":"Schwarzwald-Baar-Kreis","type":"Landkreis"},"federalState":{"key":"08","name":"Baden-Württemberg"}},{"name":"Neudinger Str.","postalCode":"78183","locality":"Hüfingen","municipality":{"key":"08326027","name":"Hüfingen, Stadt","type":"Stadt"},"district":{"key":"08326","name":"Schwarzwald-Baar-Kreis","type":"Landkreis"},"federalState":{"key":"08","name":"Baden-Württemberg"}},{"name":"Nikolausgässle","postalCode":"78183","locality":"Hüfingen","municipality":{"key":"08326027","name":"Hüfingen, Stadt","type":"Stadt"},"district":{"key":"08326","name":"Schwarzwald-Baar-Kreis","type":"Landkreis"},"federalState":{"key":"08","name":"Baden-Württemberg"}},{"name":"Oberdorfstr.","postalCode":"78183","locality":"Hüfingen","municipality":{"key":"08326027","name":"Hüfingen, Stadt","type":"Stadt"},"district":{"key":"08326","name":"Schwarzwald-Baar-Kreis","type":"Landkreis"},"federalState":{"key":"08","name":"Baden-Württemberg"}},{"name":"oberer Bruderholzweg","postalCode":"78183","locality":"Hüfingen","municipality":{"key":"08326027","name":"Hüfingen, Stadt","type":"Stadt"},"district":{"key":"08326","name":"Schwarzwald-Baar-Kreis","type":"Landkreis"},"federalState":{"key":"08","name":"Baden-Württemberg"}},{"name":"Ochsengasse","postalCode":"78183","locality":"Hüfingen","municipality":{"key":"08326027","name":"Hüfingen, Stadt","type":"Stadt"},"district":{"key":"08326","name":"Schwarzwald-Baar-Kreis","type":"Landkreis"},"federalState":{"key":"08","name":"Baden-Württemberg"}},{"name":"Opferdinger Str.","postalCode":"78183","locality":"Hüfingen","municipality":{"key":"08326027","name":"Hüfingen, Stadt","type":"Stadt"},"district":{"key":"08326","name":"Schwarzwald-Baar-Kreis","type":"Landkreis"},"federalState":{"key":"08","name":"Baden-Württemberg"}},{"name":"Ornans-Ring","postalCode":"78183","locality":"Hüfingen","municipality":{"key":"08326027","name":"Hüfingen, Stadt","type":"Stadt"},"district":{"key":"08326","name":"Schwarzwald-Baar-Kreis","type":"Landkreis"},"federalState":{"key":"08","name":"Baden-Württemberg"}},{"name":"Ortsstr.","postalCode":"78183","locality":"Hüfingen","municipality":{"key":"08326027","name":"Hüfingen, Stadt","type":"Stadt"},"district":{"key":"08326","name":"Schwarzwald-Baar-Kreis","type":"Landkreis"},"federalState":{"key":"08","name":"Baden-Württemberg"}},{"name":"Peter-Thumb-Str.","postalCode":"78183","locality":"Hüfingen","municipality":{"key":"08326027","name":"Hüfingen, Stadt","type":"Stadt"},"district":{"key":"08326","name":"Schwarzwald-Baar-Kreis","type":"Landkreis"},"federalState":{"key":"08","name":"Baden-Württemberg"}},{"name":"Pfarrhausstr.","postalCode":"78183","locality":"Hüfingen","municipality":{"key":"08326027","name":"Hüfingen, Stadt","type":"Stadt"},"district":{"key":"08326","name":"Schwarzwald-Baar-Kreis","type":"Landkreis"},"federalState":{"key":"08","name":"Baden-Württemberg"}},{"name":"Pfohrener Str.","postalCode":"78183","locality":"Hüfingen","municipality":{"key":"08326027","name":"Hüfingen, Stadt","type":"Stadt"},"district":{"key":"08326","name":"Schwarzwald-Baar-Kreis","type":"Landkreis"},"federalState":{"key":"08","name":"Baden-Württemberg"}},{"name":"Prof.-Kast-Weg","postalCode":"78183","locality":"Hüfingen","municipality":{"key":"08326027","name":"Hüfingen, Stadt","type":"Stadt"},"district":{"key":"08326","name":"Schwarzwald-Baar-Kreis","type":"Landkreis"},"federalState":{"key":"08","name":"Baden-Württemberg"}},{"name":"Randenweg","postalCode":"78183","locality":"Hüfingen","municipality":{"key":"08326027","name":"Hüfingen, Stadt","type":"Stadt"},"district":{"key":"08326","name":"Schwarzwald-Baar-Kreis","type":"Landkreis"},"federalState":{"key":"08","name":"Baden-Württemberg"}},{"name":"Rathausgässle","postalCode":"78183","locality":"Hüfingen","municipality":{"key":"08326027","name":"Hüfingen, Stadt","type":"Stadt"},"district":{"key":"08326","name":"Schwarzwald-Baar-Kreis","type":"Landkreis"},"federalState":{"key":"08","name":"Baden-Württemberg"}},{"name":"R.-Gleichauf-Str.","postalCode":"78183","locality":"Hüfingen","municipality":{"key":"08326027","name":"Hüfingen, Stadt","type":"Stadt"},"district":{"key":"08326","name":"Schwarzwald-Baar-Kreis","type":"Landkreis"},"federalState":{"key":"08","name":"Baden-Württemberg"}},{"name":"Ringstr.","postalCode":"78183","locality":"Hüfingen","municipality":{"key":"08326027","name":"Hüfingen, Stadt","type":"Stadt"},"district":{"key":"08326","name":"Schwarzwald-Baar-Kreis","type":"Landkreis"},"federalState":{"key":"08","name":"Baden-Württemberg"}},{"name":"Römerbad","postalCode":"78183","locality":"Hüfingen","municipality":{"key":"08326027","name":"Hüfingen, Stadt","type":"Stadt"},"district":{"key":"08326","name":"Schwarzwald-Baar-Kreis","type":"Landkreis"},"federalState":{"key":"08","name":"Baden-Württemberg"}},{"name":"Römerstr.","postalCode":"78183","locality":"Hüfingen","municipality":{"key":"08326027","name":"Hüfingen, Stadt","type":"Stadt"},"district":{"key":"08326","name":"Schwarzwald-Baar-Kreis","type":"Landkreis"},"federalState":{"key":"08","name":"Baden-Württemberg"}},{"name":"Rote-Kreuz-Str.","postalCode":"78183","locality":"Hüfingen","municipality":{"key":"08326027","name":"Hüfingen, Stadt","type":"Stadt"},"district":{"key":"08326","name":"Schwarzwald-Baar-Kreis","type":"Landkreis"},"federalState":{"key":"08","name":"Baden-Württemberg"}},{"name":"Ruinenweg","postalCode":"78183","locality":"Hüfingen","municipality":{"key":"08326027","name":"Hüfingen, Stadt","type":"Stadt"},"district":{"key":"08326","name":"Schwarzwald-Baar-Kreis","type":"Landkreis"},"federalState":{"key":"08","name":"Baden-Württemberg"}},{"name":"Schaffhauser Str.","postalCode":"78183","locality":"Hüfingen","municipality":{"key":"08326027","name":"Hüfingen, Stadt","type":"Stadt"},"district":{"key":"08326","name":"Schwarzwald-Baar-Kreis","type":"Landkreis"},"federalState":{"key":"08","name":"Baden-Württemberg"}},{"name":"Schellenbergstr.","postalCode":"78183","locality":"Hüfingen","municipality":{"key":"08326027","name":"Hüfingen, Stadt","type":"Stadt"},"district":{"key":"08326","name":"Schwarzwald-Baar-Kreis","type":"Landkreis"},"federalState":{"key":"08","name":"Baden-Württemberg"}},{"name":"Schlehrstr.","postalCode":"78183","locality":"Hüfingen","municipality":{"key":"08326027","name":"Hüfingen, Stadt","type":"Stadt"},"district":{"key":"08326","name":"Schwarzwald-Baar-Kreis","type":"Landkreis"},"federalState":{"key":"08","name":"Baden-Württemberg"}},{"name":"Schlossallee","postalCode":"78183","locality":"Hüfingen","municipality":{"key":"08326027","name":"Hüfingen, Stadt","type":"Stadt"},"district":{"key":"08326","name":"Schwarzwald-Baar-Kreis","type":"Landkreis"},"federalState":{"key":"08","name":"Baden-Württemberg"}},{"name":"Schlossbuck","postalCode":"78183","locality":"Hüfingen","municipality":{"key":"08326027","name":"Hüfingen, Stadt","type":"Stadt"},"district":{"key":"08326","name":"Schwarzwald-Baar-Kreis","type":"Landkreis"},"federalState":{"key":"08","name":"Baden-Württemberg"}},{"name":"Schloßpark","postalCode":"78183","locality":"Hüfingen","municipality":{"key":"08326027","name":"Hüfingen, Stadt","type":"Stadt"},"district":{"key":"08326","name":"Schwarzwald-Baar-Kreis","type":"Landkreis"},"federalState":{"key":"08","name":"Baden-Württemberg"}},{"name":"Schlossplatz","postalCode":"78183","locality":"Hüfingen","municipality":{"key":"08326027","name":"Hüfingen, Stadt","type":"Stadt"},"district":{"key":"08326","name":"Schwarzwald-Baar-Kreis","type":"Landkreis"},"federalState":{"key":"08","name":"Baden-Württemberg"}},{"name":"Schlossweg","postalCode":"78183","locality":"Hüfingen","municipality":{"key":"08326027","name":"Hüfingen, Stadt","type":"Stadt"},"district":{"key":"08326","name":"Schwarzwald-Baar-Kreis","type":"Landkreis"},"federalState":{"key":"08","name":"Baden-Württemberg"}},{"name":"Schosenweg","postalCode":"78183","locality":"Hüfingen","municipality":{"key":"08326027","name":"Hüfingen, Stadt","type":"Stadt"},"district":{"key":"08326","name":"Schwarzwald-Baar-Kreis","type":"Landkreis"},"federalState":{"key":"08","name":"Baden-Württemberg"}},{"name":"Schulstr.","postalCode":"78183","locality":"Hüfingen","municipality":{"key":"08326027","name":"Hüfingen, Stadt","type":"Stadt"},"district":{"key":"08326","name":"Schwarzwald-Baar-Kreis","type":"Landkreis"},"federalState":{"key":"08","name":"Baden-Württemberg"}},{"name":"Schützstr.","postalCode":"78183","locality":"Hüfingen","municipality":{"key":"08326027","name":"Hüfingen, Stadt","type":"Stadt"},"district":{"key":"08326","name":"Schwarzwald-Baar-Kreis","type":"Landkreis"},"federalState":{"key":"08","name":"Baden-Württemberg"}},{"name":"Seemühle","postalCode":"78183","locality":"Hüfingen","municipality":{"key":"08326027","name":"Hüfingen, Stadt","type":"Stadt"},"district":{"key":"08326","name":"Schwarzwald-Baar-Kreis","type":"Landkreis"},"federalState":{"key":"08","name":"Baden-Württemberg"}},{"name":"Seeweg","postalCode":"78183","locality":"Hüfingen","municipality":{"key":"08326027","name":"Hüfingen, Stadt","type":"Stadt"},"district":{"key":"08326","name":"Schwarzwald-Baar-Kreis","type":"Landkreis"},"federalState":{"key":"08","name":"Baden-Württemberg"}},{"name":"Sennhofstr.","postalCode":"78183","locality":"Hüfingen","municipality":{"key":"08326027","name":"Hüfingen, Stadt","type":"Stadt"},"district":{"key":"08326","name":"Schwarzwald-Baar-Kreis","type":"Landkreis"},"federalState":{"key":"08","name":"Baden-Württemberg"}},{"name":"Spitzwäldleweg","postalCode":"78183","locality":"Hüfingen","municipality":{"key":"08326027","name":"Hüfingen, Stadt","type":"Stadt"},"district":{"key":"08326","name":"Schwarzwald-Baar-Kreis","type":"Landkreis"},"federalState":{"key":"08","name":"Baden-Württemberg"}},{"name":"Süßer Winkel","postalCode":"78183","locality":"Hüfingen","municipality":{"key":"08326027","name":"Hüfingen, Stadt","type":"Stadt"},"district":{"key":"08326","name":"Schwarzwald-Baar-Kreis","type":"Landkreis"},"federalState":{"key":"08","name":"Baden-Württemberg"}},{"name":"Talstr.","postalCode":"78183","locality":"Hüfingen","municipality":{"key":"08326027","name":"Hüfingen, Stadt","type":"Stadt"},"district":{"key":"08326","name":"Schwarzwald-Baar-Kreis","type":"Landkreis"},"federalState":{"key":"08","name":"Baden-Württemberg"}},{"name":"Tannenweg","postalCode":"78183","locality":"Hüfingen","municipality":{"key":"08326027","name":"Hüfingen, Stadt","type":"Stadt"},"district":{"key":"08326","name":"Schwarzwald-Baar-Kreis","type":"Landkreis"},"federalState":{"key":"08","name":"Baden-Württemberg"}},{"name":"Telegraphenweg","postalCode":"78183","locality":"Hüfingen","municipality":{"key":"08326027","name":"Hüfingen, Stadt","type":"Stadt"},"district":{"key":"08326","name":"Schwarzwald-Baar-Kreis","type":"Landkreis"},"federalState":{"key":"08","name":"Baden-Württemberg"}},{"name":"Töpferweg","postalCode":"78183","locality":"Hüfingen","municipality":{"key":"08326027","name":"Hüfingen, Stadt","type":"Stadt"},"district":{"key":"08326","name":"Schwarzwald-Baar-Kreis","type":"Landkreis"},"federalState":{"key":"08","name":"Baden-Württemberg"}},{"name":"Turmweg","postalCode":"78183","locality":"Hüfingen","municipality":{"key":"08326027","name":"Hüfingen, Stadt","type":"Stadt"},"district":{"key":"08326","name":"Schwarzwald-Baar-Kreis","type":"Landkreis"},"federalState":{"key":"08","name":"Baden-Württemberg"}},{"name":"Unterer Schosenweg","postalCode":"78183","locality":"Hüfingen","municipality":{"key":"08326027","name":"Hüfingen, Stadt","type":"Stadt"},"district":{"key":"08326","name":"Schwarzwald-Baar-Kreis","type":"Landkreis"},"federalState":{"key":"08","name":"Baden-Württemberg"}},{"name":"Unterhohen","postalCode":"78183","locality":"Hüfingen","municipality":{"key":"08326027","name":"Hüfingen, Stadt","type":"Stadt"},"district":{"key":"08326","name":"Schwarzwald-Baar-Kreis","type":"Landkreis"},"federalState":{"key":"08","name":"Baden-Württemberg"}},{"name":"Verbrennter-Buck-Weg","postalCode":"78183","locality":"Hüfingen","municipality":{"key":"08326027","name":"Hüfingen, Stadt","type":"Stadt"},"district":{"key":"08326","name":"Schwarzwald-Baar-Kreis","type":"Landkreis"},"federalState":{"key":"08","name":"Baden-Württemberg"}},{"name":"Verenaweg","postalCode":"78183","locality":"Hüfingen","municipality":{"key":"08326027","name":"Hüfingen, Stadt","type":"Stadt"},"district":{"key":"08326","name":"Schwarzwald-Baar-Kreis","type":"Landkreis"},"federalState":{"key":"08","name":"Baden-Württemberg"}},{"name":"Vogtsweg","postalCode":"78183","locality":"Hüfingen","municipality":{"key":"08326027","name":"Hüfingen, Stadt","type":"Stadt"},"district":{"key":"08326","name":"Schwarzwald-Baar-Kreis","type":"Landkreis"},"federalState":{"key":"08","name":"Baden-Württemberg"}},{"name":"Vorgatterweg","postalCode":"78183","locality":"Hüfingen","municipality":{"key":"08326027","name":"Hüfingen, Stadt","type":"Stadt"},"district":{"key":"08326","name":"Schwarzwald-Baar-Kreis","type":"Landkreis"},"federalState":{"key":"08","name":"Baden-Württemberg"}},{"name":"Waldstr.","postalCode":"78183","locality":"Hüfingen","municipality":{"key":"08326027","name":"Hüfingen, Stadt","type":"Stadt"},"district":{"key":"08326","name":"Schwarzwald-Baar-Kreis","type":"Landkreis"},"federalState":{"key":"08","name":"Baden-Württemberg"}},{"name":"Wartenbergstr.","postalCode":"78183","locality":"Hüfingen","municipality":{"key":"08326027","name":"Hüfingen, Stadt","type":"Stadt"},"district":{"key":"08326","name":"Schwarzwald-Baar-Kreis","type":"Landkreis"},"federalState":{"key":"08","name":"Baden-Württemberg"}},{"name":"Weidenbachweg","postalCode":"78183","locality":"Hüfingen","municipality":{"key":"08326027","name":"Hüfingen, Stadt","type":"Stadt"},"district":{"key":"08326","name":"Schwarzwald-Baar-Kreis","type":"Landkreis"},"federalState":{"key":"08","name":"Baden-Württemberg"}},{"name":"Weiherweg","postalCode":"78183","locality":"Hüfingen","municipality":{"key":"08326027","name":"Hüfingen, Stadt","type":"Stadt"},"district":{"key":"08326","name":"Schwarzwald-Baar-Kreis","type":"Landkreis"},"federalState":{"key":"08","name":"Baden-Württemberg"}},{"name":"Weitengasse","postalCode":"78183","locality":"Hüfingen","municipality":{"key":"08326027","name":"Hüfingen, Stadt","type":"Stadt"},"district":{"key":"08326","name":"Schwarzwald-Baar-Kreis","type":"Landkreis"},"federalState":{"key":"08","name":"Baden-Württemberg"}},{"name":"Wiesenstr.","postalCode":"78183","locality":"Hüfingen","municipality":{"key":"08326027","name":"Hüfingen, Stadt","type":"Stadt"},"district":{"key":"08326","name":"Schwarzwald-Baar-Kreis","type":"Landkreis"},"federalState":{"key":"08","name":"Baden-Württemberg"}},{"name":"Wördstr.","postalCode":"78183","locality":"Hüfingen","municipality":{"key":"08326027","name":"Hüfingen, Stadt","type":"Stadt"},"district":{"key":"08326","name":"Schwarzwald-Baar-Kreis","type":"Landkreis"},"federalState":{"key":"08","name":"Baden-Württemberg"}},{"name":"Wuhrweg","postalCode":"78183","locality":"Hüfingen","municipality":{"key":"08326027","name":"Hüfingen, Stadt","type":"Stadt"},"district":{"key":"08326","name":"Schwarzwald-Baar-Kreis","type":"Landkreis"},"federalState":{"key":"08","name":"Baden-Württemberg"}},{"name":"Wutachstr.","postalCode":"78183","locality":"Hüfingen","municipality":{"key":"08326027","name":"Hüfingen, Stadt","type":"Stadt"},"district":{"key":"08326","name":"Schwarzwald-Baar-Kreis","type":"Landkreis"},"federalState":{"key":"08","name":"Baden-Württemberg"}},{"name":"Zähringerstr.","postalCode":"78183","locality":"Hüfingen","municipality":{"key":"08326027","name":"Hüfingen, Stadt","type":"Stadt"},"district":{"key":"08326","name":"Schwarzwald-Baar-Kreis","type":"Landkreis"},"federalState":{"key":"08","name":"Baden-Württemberg"}},{"name":"Zum Stettenbuck","postalCode":"78183","locality":"Hüfingen","municipality":{"key":"08326027","name":"Hüfingen, Stadt","type":"Stadt"},"district":{"key":"08326","name":"Schwarzwald-Baar-Kreis","type":"Landkreis"},"federalState":{"key":"08","name":"Baden-Württemberg"}},{"name":"Übersteigs","postalCode":"78183","locality":"Hüfingen","municipality":{"key":"08326027","name":"Hüfingen, Stadt","type":"Stadt"},"district":{"key":"08326","name":"Schwarzwald-Baar-Kreis","type":"Landkreis"},"federalState":{"key":"08","name":"Baden-Württemberg"}},]