[{"name":"Achilleion","postalCode":"26757","locality":"Borkum","municipality":{"key":"03457002","name":"Borkum, Stadt","type":"Stadt"},"district":{"key":"03457","name":"Leer","type":"Landkreis"},"federalState":{"key":"03","name":"Niedersachsen"}},{"name":"Achter de Husen","postalCode":"26757","locality":"Borkum","municipality":{"key":"03457002","name":"Borkum, Stadt","type":"Stadt"},"district":{"key":"03457","name":"Leer","type":"Landkreis"},"federalState":{"key":"03","name":"Niedersachsen"}},{"name":"Alter Damenpfad","postalCode":"26757","locality":"Borkum","municipality":{"key":"03457002","name":"Borkum, Stadt","type":"Stadt"},"district":{"key":"03457","name":"Leer","type":"Landkreis"},"federalState":{"key":"03","name":"Niedersachsen"}},{"name":"Alte Schulstr.","postalCode":"26757","locality":"Borkum","municipality":{"key":"03457002","name":"Borkum, Stadt","type":"Stadt"},"district":{"key":"03457","name":"Leer","type":"Landkreis"},"federalState":{"key":"03","name":"Niedersachsen"}},{"name":"Am Dobbenacker","postalCode":"26757","locality":"Borkum","municipality":{"key":"03457002","name":"Borkum, Stadt","type":"Stadt"},"district":{"key":"03457","name":"Leer","type":"Landkreis"},"federalState":{"key":"03","name":"Niedersachsen"}},{"name":"Am Langen Wasser","postalCode":"26757","locality":"Borkum","municipality":{"key":"03457002","name":"Borkum, Stadt","type":"Stadt"},"district":{"key":"03457","name":"Leer","type":"Landkreis"},"federalState":{"key":"03","name":"Niedersachsen"}},{"name":"Am Neuen Leuchtturm","postalCode":"26757","locality":"Borkum","municipality":{"key":"03457002","name":"Borkum, Stadt","type":"Stadt"},"district":{"key":"03457","name":"Leer","type":"Landkreis"},"federalState":{"key":"03","name":"Niedersachsen"}},{"name":"Am Quabben","postalCode":"26757","locality":"Borkum","municipality":{"key":"03457002","name":"Borkum, Stadt","type":"Stadt"},"district":{"key":"03457","name":"Leer","type":"Landkreis"},"federalState":{"key":"03","name":"Niedersachsen"}},{"name":"Am Westkaap","postalCode":"26757","locality":"Borkum","municipality":{"key":"03457002","name":"Borkum, Stadt","type":"Stadt"},"district":{"key":"03457","name":"Leer","type":"Landkreis"},"federalState":{"key":"03","name":"Niedersachsen"}},{"name":"Ankerstr.","postalCode":"26757","locality":"Borkum","municipality":{"key":"03457002","name":"Borkum, Stadt","type":"Stadt"},"district":{"key":"03457","name":"Leer","type":"Landkreis"},"federalState":{"key":"03","name":"Niedersachsen"}},{"name":"Bahnhofspfad","postalCode":"26757","locality":"Borkum","municipality":{"key":"03457002","name":"Borkum, Stadt","type":"Stadt"},"district":{"key":"03457","name":"Leer","type":"Landkreis"},"federalState":{"key":"03","name":"Niedersachsen"}},{"name":"Bahnhofstr.","postalCode":"26757","locality":"Borkum","municipality":{"key":"03457002","name":"Borkum, Stadt","type":"Stadt"},"district":{"key":"03457","name":"Leer","type":"Landkreis"},"federalState":{"key":"03","name":"Niedersachsen"}},{"name":"Bantjedünen","postalCode":"26757","locality":"Borkum","municipality":{"key":"03457002","name":"Borkum, Stadt","type":"Stadt"},"district":{"key":"03457","name":"Leer","type":"Landkreis"},"federalState":{"key":"03","name":"Niedersachsen"}},{"name":"Blanke Fenne","postalCode":"26757","locality":"Borkum","municipality":{"key":"03457002","name":"Borkum, Stadt","type":"Stadt"},"district":{"key":"03457","name":"Leer","type":"Landkreis"},"federalState":{"key":"03","name":"Niedersachsen"}},{"name":"Blumenstr.","postalCode":"26757","locality":"Borkum","municipality":{"key":"03457002","name":"Borkum, Stadt","type":"Stadt"},"district":{"key":"03457","name":"Leer","type":"Landkreis"},"federalState":{"key":"03","name":"Niedersachsen"}},{"name":"Boeddinghausstr.","postalCode":"26757","locality":"Borkum","municipality":{"key":"03457002","name":"Borkum, Stadt","type":"Stadt"},"district":{"key":"03457","name":"Leer","type":"Landkreis"},"federalState":{"key":"03","name":"Niedersachsen"}},{"name":"Boelkestr.","postalCode":"26757","locality":"Borkum","municipality":{"key":"03457002","name":"Borkum, Stadt","type":"Stadt"},"district":{"key":"03457","name":"Leer","type":"Landkreis"},"federalState":{"key":"03","name":"Niedersachsen"}},{"name":"Bubertstr.","postalCode":"26757","locality":"Borkum","municipality":{"key":"03457002","name":"Borkum, Stadt","type":"Stadt"},"district":{"key":"03457","name":"Leer","type":"Landkreis"},"federalState":{"key":"03","name":"Niedersachsen"}},{"name":"Bürgermeister Fritz-Klennert-Weg","postalCode":"26757","locality":"Borkum","municipality":{"key":"03457002","name":"Borkum, Stadt","type":"Stadt"},"district":{"key":"03457","name":"Leer","type":"Landkreis"},"federalState":{"key":"03","name":"Niedersachsen"}},{"name":"Commandeurstrate","postalCode":"26757","locality":"Borkum","municipality":{"key":"03457002","name":"Borkum, Stadt","type":"Stadt"},"district":{"key":"03457","name":"Leer","type":"Landkreis"},"federalState":{"key":"03","name":"Niedersachsen"}},{"name":"De Dreeihauk","postalCode":"26757","locality":"Borkum","municipality":{"key":"03457002","name":"Borkum, Stadt","type":"Stadt"},"district":{"key":"03457","name":"Leer","type":"Landkreis"},"federalState":{"key":"03","name":"Niedersachsen"}},{"name":"Deichstr.","postalCode":"26757","locality":"Borkum","municipality":{"key":"03457002","name":"Borkum, Stadt","type":"Stadt"},"district":{"key":"03457","name":"Leer","type":"Landkreis"},"federalState":{"key":"03","name":"Niedersachsen"}},{"name":"Doer De Hahlingjes","postalCode":"26757","locality":"Borkum","municipality":{"key":"03457002","name":"Borkum, Stadt","type":"Stadt"},"district":{"key":"03457","name":"Leer","type":"Landkreis"},"federalState":{"key":"03","name":"Niedersachsen"}},{"name":"Dr.-Rudolf-Bensch-Weg","postalCode":"26757","locality":"Borkum","municipality":{"key":"03457002","name":"Borkum, Stadt","type":"Stadt"},"district":{"key":"03457","name":"Leer","type":"Landkreis"},"federalState":{"key":"03","name":"Niedersachsen"}},{"name":"Emsstr.","postalCode":"26757","locality":"Borkum","municipality":{"key":"03457002","name":"Borkum, Stadt","type":"Stadt"},"district":{"key":"03457","name":"Leer","type":"Landkreis"},"federalState":{"key":"03","name":"Niedersachsen"}},{"name":"Engel'se Pad","postalCode":"26757","locality":"Borkum","municipality":{"key":"03457002","name":"Borkum, Stadt","type":"Stadt"},"district":{"key":"03457","name":"Leer","type":"Landkreis"},"federalState":{"key":"03","name":"Niedersachsen"}},{"name":"Erich-Rothkirch-Weg","postalCode":"26757","locality":"Borkum","municipality":{"key":"03457002","name":"Borkum, Stadt","type":"Stadt"},"district":{"key":"03457","name":"Leer","type":"Landkreis"},"federalState":{"key":"03","name":"Niedersachsen"}},{"name":"Fährmannsspoor","postalCode":"26757","locality":"Borkum","municipality":{"key":"03457002","name":"Borkum, Stadt","type":"Stadt"},"district":{"key":"03457","name":"Leer","type":"Landkreis"},"federalState":{"key":"03","name":"Niedersachsen"}},{"name":"Fauermannspad","postalCode":"26757","locality":"Borkum","municipality":{"key":"03457002","name":"Borkum, Stadt","type":"Stadt"},"district":{"key":"03457","name":"Leer","type":"Landkreis"},"federalState":{"key":"03","name":"Niedersachsen"}},{"name":"Franzosenschanze","postalCode":"26757","locality":"Borkum","municipality":{"key":"03457002","name":"Borkum, Stadt","type":"Stadt"},"district":{"key":"03457","name":"Leer","type":"Landkreis"},"federalState":{"key":"03","name":"Niedersachsen"}},{"name":"Gartenstr.","postalCode":"26757","locality":"Borkum","municipality":{"key":"03457002","name":"Borkum, Stadt","type":"Stadt"},"district":{"key":"03457","name":"Leer","type":"Landkreis"},"federalState":{"key":"03","name":"Niedersachsen"}},{"name":"Geert-Bakker-Str.","postalCode":"26757","locality":"Borkum","municipality":{"key":"03457002","name":"Borkum, Stadt","type":"Stadt"},"district":{"key":"03457","name":"Leer","type":"Landkreis"},"federalState":{"key":"03","name":"Niedersachsen"}},{"name":"Georg-Schütte-Platz","postalCode":"26757","locality":"Borkum","municipality":{"key":"03457002","name":"Borkum, Stadt","type":"Stadt"},"district":{"key":"03457","name":"Leer","type":"Landkreis"},"federalState":{"key":"03","name":"Niedersachsen"}},{"name":"Gerhardstr.","postalCode":"26757","locality":"Borkum","municipality":{"key":"03457002","name":"Borkum, Stadt","type":"Stadt"},"district":{"key":"03457","name":"Leer","type":"Landkreis"},"federalState":{"key":"03","name":"Niedersachsen"}},{"name":"Geusenweg","postalCode":"26757","locality":"Borkum","municipality":{"key":"03457002","name":"Borkum, Stadt","type":"Stadt"},"district":{"key":"03457","name":"Leer","type":"Landkreis"},"federalState":{"key":"03","name":"Niedersachsen"}},{"name":"Goedeke-Michels-Str.","postalCode":"26757","locality":"Borkum","municipality":{"key":"03457002","name":"Borkum, Stadt","type":"Stadt"},"district":{"key":"03457","name":"Leer","type":"Landkreis"},"federalState":{"key":"03","name":"Niedersachsen"}},{"name":"Goethestr.","postalCode":"26757","locality":"Borkum","municipality":{"key":"03457002","name":"Borkum, Stadt","type":"Stadt"},"district":{"key":"03457","name":"Leer","type":"Landkreis"},"federalState":{"key":"03","name":"Niedersachsen"}},{"name":"Gorch-Fock-Str.","postalCode":"26757","locality":"Borkum","municipality":{"key":"03457002","name":"Borkum, Stadt","type":"Stadt"},"district":{"key":"03457","name":"Leer","type":"Landkreis"},"federalState":{"key":"03","name":"Niedersachsen"}},{"name":"Graf-Galen-Str.","postalCode":"26757","locality":"Borkum","municipality":{"key":"03457002","name":"Borkum, Stadt","type":"Stadt"},"district":{"key":"03457","name":"Leer","type":"Landkreis"},"federalState":{"key":"03","name":"Niedersachsen"}},{"name":"Grebhahn's Pad","postalCode":"26757","locality":"Borkum","municipality":{"key":"03457002","name":"Borkum, Stadt","type":"Stadt"},"district":{"key":"03457","name":"Leer","type":"Landkreis"},"federalState":{"key":"03","name":"Niedersachsen"}},{"name":"Greune-Stee-Weg","postalCode":"26757","locality":"Borkum","municipality":{"key":"03457002","name":"Borkum, Stadt","type":"Stadt"},"district":{"key":"03457","name":"Leer","type":"Landkreis"},"federalState":{"key":"03","name":"Niedersachsen"}},{"name":"Grönlandstrate","postalCode":"26757","locality":"Borkum","municipality":{"key":"03457002","name":"Borkum, Stadt","type":"Stadt"},"district":{"key":"03457","name":"Leer","type":"Landkreis"},"federalState":{"key":"03","name":"Niedersachsen"}},{"name":"Grüner Strand","postalCode":"26757","locality":"Borkum","municipality":{"key":"03457002","name":"Borkum, Stadt","type":"Stadt"},"district":{"key":"03457","name":"Leer","type":"Landkreis"},"federalState":{"key":"03","name":"Niedersachsen"}},{"name":"Harpunierstrate","postalCode":"26757","locality":"Borkum","municipality":{"key":"03457002","name":"Borkum, Stadt","type":"Stadt"},"district":{"key":"03457","name":"Leer","type":"Landkreis"},"federalState":{"key":"03","name":"Niedersachsen"}},{"name":"Hindenburgstr.","postalCode":"26757","locality":"Borkum","municipality":{"key":"03457002","name":"Borkum, Stadt","type":"Stadt"},"district":{"key":"03457","name":"Leer","type":"Landkreis"},"federalState":{"key":"03","name":"Niedersachsen"}},{"name":"Isdobben","postalCode":"26757","locality":"Borkum","municipality":{"key":"03457002","name":"Borkum, Stadt","type":"Stadt"},"district":{"key":"03457","name":"Leer","type":"Landkreis"},"federalState":{"key":"03","name":"Niedersachsen"}},{"name":"Ismeerstrate","postalCode":"26757","locality":"Borkum","municipality":{"key":"03457002","name":"Borkum, Stadt","type":"Stadt"},"district":{"key":"03457","name":"Leer","type":"Landkreis"},"federalState":{"key":"03","name":"Niedersachsen"}},{"name":"Jakob-van-Dyken-Weg","postalCode":"26757","locality":"Borkum","municipality":{"key":"03457002","name":"Borkum, Stadt","type":"Stadt"},"district":{"key":"03457","name":"Leer","type":"Landkreis"},"federalState":{"key":"03","name":"Niedersachsen"}},{"name":"Jann-Berghaus-Str.","postalCode":"26757","locality":"Borkum","municipality":{"key":"03457002","name":"Borkum, Stadt","type":"Stadt"},"district":{"key":"03457","name":"Leer","type":"Landkreis"},"federalState":{"key":"03","name":"Niedersachsen"}},{"name":"Johann-Calvin-Str.","postalCode":"26757","locality":"Borkum","municipality":{"key":"03457002","name":"Borkum, Stadt","type":"Stadt"},"district":{"key":"03457","name":"Leer","type":"Landkreis"},"federalState":{"key":"03","name":"Niedersachsen"}},{"name":"Julianenstr.","postalCode":"26757","locality":"Borkum","municipality":{"key":"03457002","name":"Borkum, Stadt","type":"Stadt"},"district":{"key":"03457","name":"Leer","type":"Landkreis"},"federalState":{"key":"03","name":"Niedersachsen"}},{"name":"Kaapdelle","postalCode":"26757","locality":"Borkum","municipality":{"key":"03457002","name":"Borkum, Stadt","type":"Stadt"},"district":{"key":"03457","name":"Leer","type":"Landkreis"},"federalState":{"key":"03","name":"Niedersachsen"}},{"name":"Kaapstr.","postalCode":"26757","locality":"Borkum","municipality":{"key":"03457002","name":"Borkum, Stadt","type":"Stadt"},"district":{"key":"03457","name":"Leer","type":"Landkreis"},"federalState":{"key":"03","name":"Niedersachsen"}},{"name":"Kajütwachterstrate","postalCode":"26757","locality":"Borkum","municipality":{"key":"03457002","name":"Borkum, Stadt","type":"Stadt"},"district":{"key":"03457","name":"Leer","type":"Landkreis"},"federalState":{"key":"03","name":"Niedersachsen"}},{"name":"Kiebitzdelle-Achterlangs","postalCode":"26757","locality":"Borkum","municipality":{"key":"03457002","name":"Borkum, Stadt","type":"Stadt"},"district":{"key":"03457","name":"Leer","type":"Landkreis"},"federalState":{"key":"03","name":"Niedersachsen"}},{"name":"Kiebitzdelle-Dörloop","postalCode":"26757","locality":"Borkum","municipality":{"key":"03457002","name":"Borkum, Stadt","type":"Stadt"},"district":{"key":"03457","name":"Leer","type":"Landkreis"},"federalState":{"key":"03","name":"Niedersachsen"}},{"name":"Kiebitzdelle-Dünen","postalCode":"26757","locality":"Borkum","municipality":{"key":"03457002","name":"Borkum, Stadt","type":"Stadt"},"district":{"key":"03457","name":"Leer","type":"Landkreis"},"federalState":{"key":"03","name":"Niedersachsen"}},{"name":"Kiebitzdelle-Heide","postalCode":"26757","locality":"Borkum","municipality":{"key":"03457002","name":"Borkum, Stadt","type":"Stadt"},"district":{"key":"03457","name":"Leer","type":"Landkreis"},"federalState":{"key":"03","name":"Niedersachsen"}},{"name":"Kiebitzdelle-Leegde","postalCode":"26757","locality":"Borkum","municipality":{"key":"03457002","name":"Borkum, Stadt","type":"Stadt"},"district":{"key":"03457","name":"Leer","type":"Landkreis"},"federalState":{"key":"03","name":"Niedersachsen"}},{"name":"Kiebitzdelle-Ostdünen","postalCode":"26757","locality":"Borkum","municipality":{"key":"03457002","name":"Borkum, Stadt","type":"Stadt"},"district":{"key":"03457","name":"Leer","type":"Landkreis"},"federalState":{"key":"03","name":"Niedersachsen"}},{"name":"Kiebitzdelle-Westdünen","postalCode":"26757","locality":"Borkum","municipality":{"key":"03457002","name":"Borkum, Stadt","type":"Stadt"},"district":{"key":"03457","name":"Leer","type":"Landkreis"},"federalState":{"key":"03","name":"Niedersachsen"}},{"name":"Kiekerdünen","postalCode":"26757","locality":"Borkum","municipality":{"key":"03457002","name":"Borkum, Stadt","type":"Stadt"},"district":{"key":"03457","name":"Leer","type":"Landkreis"},"federalState":{"key":"03","name":"Niedersachsen"}},{"name":"Kirchstr.","postalCode":"26757","locality":"Borkum","municipality":{"key":"03457002","name":"Borkum, Stadt","type":"Stadt"},"district":{"key":"03457","name":"Leer","type":"Landkreis"},"federalState":{"key":"03","name":"Niedersachsen"}},{"name":"Krischan-Wolters-Pfad","postalCode":"26757","locality":"Borkum","municipality":{"key":"03457002","name":"Borkum, Stadt","type":"Stadt"},"district":{"key":"03457","name":"Leer","type":"Landkreis"},"federalState":{"key":"03","name":"Niedersachsen"}},{"name":"Krummer Blockweg","postalCode":"26757","locality":"Borkum","municipality":{"key":"03457002","name":"Borkum, Stadt","type":"Stadt"},"district":{"key":"03457","name":"Leer","type":"Landkreis"},"federalState":{"key":"03","name":"Niedersachsen"}},{"name":"Kurpark in den Westdünen","postalCode":"26757","locality":"Borkum","municipality":{"key":"03457002","name":"Borkum, Stadt","type":"Stadt"},"district":{"key":"03457","name":"Leer","type":"Landkreis"},"federalState":{"key":"03","name":"Niedersachsen"}},{"name":"Lange Fenne","postalCode":"26757","locality":"Borkum","municipality":{"key":"03457002","name":"Borkum, Stadt","type":"Stadt"},"district":{"key":"03457","name":"Leer","type":"Landkreis"},"federalState":{"key":"03","name":"Niedersachsen"}},{"name":"Loogsterdünen","postalCode":"26757","locality":"Borkum","municipality":{"key":"03457002","name":"Borkum, Stadt","type":"Stadt"},"district":{"key":"03457","name":"Leer","type":"Landkreis"},"federalState":{"key":"03","name":"Niedersachsen"}},{"name":"Lüderitz","postalCode":"26757","locality":"Borkum","municipality":{"key":"03457002","name":"Borkum, Stadt","type":"Stadt"},"district":{"key":"03457","name":"Leer","type":"Landkreis"},"federalState":{"key":"03","name":"Niedersachsen"}},{"name":"Martin-Luther-Str.","postalCode":"26757","locality":"Borkum","municipality":{"key":"03457002","name":"Borkum, Stadt","type":"Stadt"},"district":{"key":"03457","name":"Leer","type":"Landkreis"},"federalState":{"key":"03","name":"Niedersachsen"}},{"name":"Moormerlander Str.","postalCode":"26757","locality":"Borkum","municipality":{"key":"03457002","name":"Borkum, Stadt","type":"Stadt"},"district":{"key":"03457","name":"Leer","type":"Landkreis"},"federalState":{"key":"03","name":"Niedersachsen"}},{"name":"Moosdünen","postalCode":"26757","locality":"Borkum","municipality":{"key":"03457002","name":"Borkum, Stadt","type":"Stadt"},"district":{"key":"03457","name":"Leer","type":"Landkreis"},"federalState":{"key":"03","name":"Niedersachsen"}},{"name":"Möwensteert","postalCode":"26757","locality":"Borkum","municipality":{"key":"03457002","name":"Borkum, Stadt","type":"Stadt"},"district":{"key":"03457","name":"Leer","type":"Landkreis"},"federalState":{"key":"03","name":"Niedersachsen"}},{"name":"Neue Str.","postalCode":"26757","locality":"Borkum","municipality":{"key":"03457002","name":"Borkum, Stadt","type":"Stadt"},"district":{"key":"03457","name":"Leer","type":"Landkreis"},"federalState":{"key":"03","name":"Niedersachsen"}},{"name":"Norddünen","postalCode":"26757","locality":"Borkum","municipality":{"key":"03457002","name":"Borkum, Stadt","type":"Stadt"},"district":{"key":"03457","name":"Leer","type":"Landkreis"},"federalState":{"key":"03","name":"Niedersachsen"}},{"name":"Norderreihe","postalCode":"26757","locality":"Borkum","municipality":{"key":"03457002","name":"Borkum, Stadt","type":"Stadt"},"district":{"key":"03457","name":"Leer","type":"Landkreis"},"federalState":{"key":"03","name":"Niedersachsen"}},{"name":"Norderstr.","postalCode":"26757","locality":"Borkum","municipality":{"key":"03457002","name":"Borkum, Stadt","type":"Stadt"},"district":{"key":"03457","name":"Leer","type":"Landkreis"},"federalState":{"key":"03","name":"Niedersachsen"}},{"name":"Olde Dyk","postalCode":"26757","locality":"Borkum","municipality":{"key":"03457002","name":"Borkum, Stadt","type":"Stadt"},"district":{"key":"03457","name":"Leer","type":"Landkreis"},"federalState":{"key":"03","name":"Niedersachsen"}},{"name":"Olde Dyk - bi de Kolken","postalCode":"26757","locality":"Borkum","municipality":{"key":"03457002","name":"Borkum, Stadt","type":"Stadt"},"district":{"key":"03457","name":"Leer","type":"Landkreis"},"federalState":{"key":"03","name":"Niedersachsen"}},{"name":"Olde Melkstee","postalCode":"26757","locality":"Borkum","municipality":{"key":"03457002","name":"Borkum, Stadt","type":"Stadt"},"district":{"key":"03457","name":"Leer","type":"Landkreis"},"federalState":{"key":"03","name":"Niedersachsen"}},{"name":"Oppermannspad","postalCode":"26757","locality":"Borkum","municipality":{"key":"03457002","name":"Borkum, Stadt","type":"Stadt"},"district":{"key":"03457","name":"Leer","type":"Landkreis"},"federalState":{"key":"03","name":"Niedersachsen"}},{"name":"Papenburger Str.","postalCode":"26789","locality":"Leer","municipality":{"key":"03457013","name":"Leer (Ostfriesland), Stadt","type":"Stadt"},"district":{"key":"03457","name":"Leer","type":"Landkreis"},"federalState":{"key":"03","name":"Niedersachsen"}},{"name":"Parallelweg","postalCode":"26789","locality":"Leer","municipality":{"key":"03457013","name":"Leer (Ostfriesland), Stadt","type":"Stadt"},"district":{"key":"03457","name":"Leer","type":"Landkreis"},"federalState":{"key":"03","name":"Niedersachsen"}},{"name":"Parkstr.","postalCode":"26789","locality":"Leer","municipality":{"key":"03457013","name":"Leer (Ostfriesland), Stadt","type":"Stadt"},"district":{"key":"03457","name":"Leer","type":"Landkreis"},"federalState":{"key":"03","name":"Niedersachsen"}},{"name":"Pastor-Boekhoff-Weg","postalCode":"26789","locality":"Leer","municipality":{"key":"03457013","name":"Leer (Ostfriesland), Stadt","type":"Stadt"},"district":{"key":"03457","name":"Leer","type":"Landkreis"},"federalState":{"key":"03","name":"Niedersachsen"}},{"name":"Pastorenkamp","postalCode":"26789","locality":"Leer","municipality":{"key":"03457013","name":"Leer (Ostfriesland), Stadt","type":"Stadt"},"district":{"key":"03457","name":"Leer","type":"Landkreis"},"federalState":{"key":"03","name":"Niedersachsen"}},{"name":"Patersgang","postalCode":"26789","locality":"Leer","municipality":{"key":"03457013","name":"Leer (Ostfriesland), Stadt","type":"Stadt"},"district":{"key":"03457","name":"Leer","type":"Landkreis"},"federalState":{"key":"03","name":"Niedersachsen"}},{"name":"Pfarrer-Schniers-Weg","postalCode":"26789","locality":"Leer","municipality":{"key":"03457013","name":"Leer (Ostfriesland), Stadt","type":"Stadt"},"district":{"key":"03457","name":"Leer","type":"Landkreis"},"federalState":{"key":"03","name":"Niedersachsen"}},{"name":"Pferdemarktstr.","postalCode":"26789","locality":"Leer","municipality":{"key":"03457013","name":"Leer (Ostfriesland), Stadt","type":"Stadt"},"district":{"key":"03457","name":"Leer","type":"Landkreis"},"federalState":{"key":"03","name":"Niedersachsen"}},{"name":"Pferdeweide","postalCode":"26789","locality":"Leer","municipality":{"key":"03457013","name":"Leer (Ostfriesland), Stadt","type":"Stadt"},"district":{"key":"03457","name":"Leer","type":"Landkreis"},"federalState":{"key":"03","name":"Niedersachsen"}},{"name":"Philippsburger Str.","postalCode":"26789","locality":"Leer","municipality":{"key":"03457013","name":"Leer (Ostfriesland), Stadt","type":"Stadt"},"district":{"key":"03457","name":"Leer","type":"Landkreis"},"federalState":{"key":"03","name":"Niedersachsen"}},{"name":"Placklandsweg","postalCode":"26789","locality":"Leer","municipality":{"key":"03457013","name":"Leer (Ostfriesland), Stadt","type":"Stadt"},"district":{"key":"03457","name":"Leer","type":"Landkreis"},"federalState":{"key":"03","name":"Niedersachsen"}},{"name":"Planellweg","postalCode":"26789","locality":"Leer","municipality":{"key":"03457013","name":"Leer (Ostfriesland), Stadt","type":"Stadt"},"district":{"key":"03457","name":"Leer","type":"Landkreis"},"federalState":{"key":"03","name":"Niedersachsen"}},{"name":"Platanenstr.","postalCode":"26789","locality":"Leer","municipality":{"key":"03457013","name":"Leer (Ostfriesland), Stadt","type":"Stadt"},"district":{"key":"03457","name":"Leer","type":"Landkreis"},"federalState":{"key":"03","name":"Niedersachsen"}},{"name":"Plumenhörn","postalCode":"26789","locality":"Leer","municipality":{"key":"03457013","name":"Leer (Ostfriesland), Stadt","type":"Stadt"},"district":{"key":"03457","name":"Leer","type":"Landkreis"},"federalState":{"key":"03","name":"Niedersachsen"}},{"name":"Plytenbergstr.","postalCode":"26789","locality":"Leer","municipality":{"key":"03457013","name":"Leer (Ostfriesland), Stadt","type":"Stadt"},"district":{"key":"03457","name":"Leer","type":"Landkreis"},"federalState":{"key":"03","name":"Niedersachsen"}},{"name":"Polderweg","postalCode":"26789","locality":"Leer","municipality":{"key":"03457013","name":"Leer (Ostfriesland), Stadt","type":"Stadt"},"district":{"key":"03457","name":"Leer","type":"Landkreis"},"federalState":{"key":"03","name":"Niedersachsen"}},{"name":"Postweg","postalCode":"26789","locality":"Leer","municipality":{"key":"03457013","name":"Leer (Ostfriesland), Stadt","type":"Stadt"},"district":{"key":"03457","name":"Leer","type":"Landkreis"},"federalState":{"key":"03","name":"Niedersachsen"}},{"name":"Prinzenweg","postalCode":"26789","locality":"Leer","municipality":{"key":"03457013","name":"Leer (Ostfriesland), Stadt","type":"Stadt"},"district":{"key":"03457","name":"Leer","type":"Landkreis"},"federalState":{"key":"03","name":"Niedersachsen"}},{"name":"Privatstr.","postalCode":"26789","locality":"Leer","municipality":{"key":"03457013","name":"Leer (Ostfriesland), Stadt","type":"Stadt"},"district":{"key":"03457","name":"Leer","type":"Landkreis"},"federalState":{"key":"03","name":"Niedersachsen"}},{"name":"Privatstr. des Bundes","postalCode":"26789","locality":"Leer","municipality":{"key":"03457013","name":"Leer (Ostfriesland), Stadt","type":"Stadt"},"district":{"key":"03457","name":"Leer","type":"Landkreis"},"federalState":{"key":"03","name":"Niedersachsen"}},{"name":"Querstr.","postalCode":"26757","locality":"Borkum","municipality":{"key":"03457002","name":"Borkum, Stadt","type":"Stadt"},"district":{"key":"03457","name":"Leer","type":"Landkreis"},"federalState":{"key":"03","name":"Niedersachsen"}},{"name":"Randzelstr.","postalCode":"26757","locality":"Borkum","municipality":{"key":"03457002","name":"Borkum, Stadt","type":"Stadt"},"district":{"key":"03457","name":"Leer","type":"Landkreis"},"federalState":{"key":"03","name":"Niedersachsen"}},{"name":"Reedestr.","postalCode":"26757","locality":"Borkum","municipality":{"key":"03457002","name":"Borkum, Stadt","type":"Stadt"},"district":{"key":"03457","name":"Leer","type":"Landkreis"},"federalState":{"key":"03","name":"Niedersachsen"}},{"name":"Rektor-Meyer-Pfad","postalCode":"26757","locality":"Borkum","municipality":{"key":"03457002","name":"Borkum, Stadt","type":"Stadt"},"district":{"key":"03457","name":"Leer","type":"Landkreis"},"federalState":{"key":"03","name":"Niedersachsen"}},{"name":"Rheiderlandstr.","postalCode":"26757","locality":"Borkum","municipality":{"key":"03457002","name":"Borkum, Stadt","type":"Stadt"},"district":{"key":"03457","name":"Leer","type":"Landkreis"},"federalState":{"key":"03","name":"Niedersachsen"}},{"name":"Richthofenstr.","postalCode":"26757","locality":"Borkum","municipality":{"key":"03457002","name":"Borkum, Stadt","type":"Stadt"},"district":{"key":"03457","name":"Leer","type":"Landkreis"},"federalState":{"key":"03","name":"Niedersachsen"}},{"name":"Riffstr.","postalCode":"26757","locality":"Borkum","municipality":{"key":"03457002","name":"Borkum, Stadt","type":"Stadt"},"district":{"key":"03457","name":"Leer","type":"Landkreis"},"federalState":{"key":"03","name":"Niedersachsen"}},{"name":"Rochepad","postalCode":"26757","locality":"Borkum","municipality":{"key":"03457002","name":"Borkum, Stadt","type":"Stadt"},"district":{"key":"03457","name":"Leer","type":"Landkreis"},"federalState":{"key":"03","name":"Niedersachsen"}},{"name":"Roelof-Gerritz-Meyer-Str.","postalCode":"26757","locality":"Borkum","municipality":{"key":"03457002","name":"Borkum, Stadt","type":"Stadt"},"district":{"key":"03457","name":"Leer","type":"Landkreis"},"federalState":{"key":"03","name":"Niedersachsen"}},{"name":"Rottumer Str.","postalCode":"26757","locality":"Borkum","municipality":{"key":"03457002","name":"Borkum, Stadt","type":"Stadt"},"district":{"key":"03457","name":"Leer","type":"Landkreis"},"federalState":{"key":"03","name":"Niedersachsen"}},{"name":"Schilldünen","postalCode":"26757","locality":"Borkum","municipality":{"key":"03457002","name":"Borkum, Stadt","type":"Stadt"},"district":{"key":"03457","name":"Leer","type":"Landkreis"},"federalState":{"key":"03","name":"Niedersachsen"}},{"name":"Seebestattetendenkmal","postalCode":"26757","locality":"Borkum","municipality":{"key":"03457002","name":"Borkum, Stadt","type":"Stadt"},"district":{"key":"03457","name":"Leer","type":"Landkreis"},"federalState":{"key":"03","name":"Niedersachsen"}},{"name":"Sophienstr.","postalCode":"26757","locality":"Borkum","municipality":{"key":"03457002","name":"Borkum, Stadt","type":"Stadt"},"district":{"key":"03457","name":"Leer","type":"Landkreis"},"federalState":{"key":"03","name":"Niedersachsen"}},{"name":"Specksniederstrate","postalCode":"26757","locality":"Borkum","municipality":{"key":"03457002","name":"Borkum, Stadt","type":"Stadt"},"district":{"key":"03457","name":"Leer","type":"Landkreis"},"federalState":{"key":"03","name":"Niedersachsen"}},{"name":"Steinstr.","postalCode":"26757","locality":"Borkum","municipality":{"key":"03457002","name":"Borkum, Stadt","type":"Stadt"},"district":{"key":"03457","name":"Leer","type":"Landkreis"},"federalState":{"key":"03","name":"Niedersachsen"}},{"name":"Störtebekerweg","postalCode":"26757","locality":"Borkum","municipality":{"key":"03457002","name":"Borkum, Stadt","type":"Stadt"},"district":{"key":"03457","name":"Leer","type":"Landkreis"},"federalState":{"key":"03","name":"Niedersachsen"}},{"name":"Strandjer's Pad","postalCode":"26757","locality":"Borkum","municipality":{"key":"03457002","name":"Borkum, Stadt","type":"Stadt"},"district":{"key":"03457","name":"Leer","type":"Landkreis"},"federalState":{"key":"03","name":"Niedersachsen"}},{"name":"Strandstr.","postalCode":"26757","locality":"Borkum","municipality":{"key":"03457002","name":"Borkum, Stadt","type":"Stadt"},"district":{"key":"03457","name":"Leer","type":"Landkreis"},"federalState":{"key":"03","name":"Niedersachsen"}},{"name":"Stürmannstrate","postalCode":"26757","locality":"Borkum","municipality":{"key":"03457002","name":"Borkum, Stadt","type":"Stadt"},"district":{"key":"03457","name":"Leer","type":"Landkreis"},"federalState":{"key":"03","name":"Niedersachsen"}},{"name":"Süddamm","postalCode":"26757","locality":"Borkum","municipality":{"key":"03457002","name":"Borkum, Stadt","type":"Stadt"},"district":{"key":"03457","name":"Leer","type":"Landkreis"},"federalState":{"key":"03","name":"Niedersachsen"}},{"name":"Süddünen","postalCode":"26757","locality":"Borkum","municipality":{"key":"03457002","name":"Borkum, Stadt","type":"Stadt"},"district":{"key":"03457","name":"Leer","type":"Landkreis"},"federalState":{"key":"03","name":"Niedersachsen"}},{"name":"Süderpfad","postalCode":"26757","locality":"Borkum","municipality":{"key":"03457002","name":"Borkum, Stadt","type":"Stadt"},"district":{"key":"03457","name":"Leer","type":"Landkreis"},"federalState":{"key":"03","name":"Niedersachsen"}},{"name":"Süderreihe","postalCode":"26757","locality":"Borkum","municipality":{"key":"03457002","name":"Borkum, Stadt","type":"Stadt"},"district":{"key":"03457","name":"Leer","type":"Landkreis"},"federalState":{"key":"03","name":"Niedersachsen"}},{"name":"Süderstr.","postalCode":"26757","locality":"Borkum","municipality":{"key":"03457002","name":"Borkum, Stadt","type":"Stadt"},"district":{"key":"03457","name":"Leer","type":"Landkreis"},"federalState":{"key":"03","name":"Niedersachsen"}},{"name":"Tannenweg","postalCode":"26789","locality":"Leer","municipality":{"key":"03457013","name":"Leer (Ostfriesland), Stadt","type":"Stadt"},"district":{"key":"03457","name":"Leer","type":"Landkreis"},"federalState":{"key":"03","name":"Niedersachsen"}},{"name":"Teutonenstr.","postalCode":"26789","locality":"Leer","municipality":{"key":"03457013","name":"Leer (Ostfriesland), Stadt","type":"Stadt"},"district":{"key":"03457","name":"Leer","type":"Landkreis"},"federalState":{"key":"03","name":"Niedersachsen"}},{"name":"Theodor-Storm-Str.","postalCode":"26789","locality":"Leer","municipality":{"key":"03457013","name":"Leer (Ostfriesland), Stadt","type":"Stadt"},"district":{"key":"03457","name":"Leer","type":"Landkreis"},"federalState":{"key":"03","name":"Niedersachsen"}},{"name":"Thomastr.","postalCode":"26789","locality":"Leer","municipality":{"key":"03457013","name":"Leer (Ostfriesland), Stadt","type":"Stadt"},"district":{"key":"03457","name":"Leer","type":"Landkreis"},"federalState":{"key":"03","name":"Niedersachsen"}},{"name":"Tjackleger Fährweg","postalCode":"26789","locality":"Leer","municipality":{"key":"03457013","name":"Leer (Ostfriesland), Stadt","type":"Stadt"},"district":{"key":"03457","name":"Leer","type":"Landkreis"},"federalState":{"key":"03","name":"Niedersachsen"}},{"name":"Tjalkweg","postalCode":"26789","locality":"Leer","municipality":{"key":"03457013","name":"Leer (Ostfriesland), Stadt","type":"Stadt"},"district":{"key":"03457","name":"Leer","type":"Landkreis"},"federalState":{"key":"03","name":"Niedersachsen"}},{"name":"Torfweg","postalCode":"26789","locality":"Leer","municipality":{"key":"03457013","name":"Leer (Ostfriesland), Stadt","type":"Stadt"},"district":{"key":"03457","name":"Leer","type":"Landkreis"},"federalState":{"key":"03","name":"Niedersachsen"}},{"name":"Torumer Str.","postalCode":"26789","locality":"Leer","municipality":{"key":"03457013","name":"Leer (Ostfriesland), Stadt","type":"Stadt"},"district":{"key":"03457","name":"Leer","type":"Landkreis"},"federalState":{"key":"03","name":"Niedersachsen"}},{"name":"Tulpenstr.","postalCode":"26789","locality":"Leer","municipality":{"key":"03457013","name":"Leer (Ostfriesland), Stadt","type":"Stadt"},"district":{"key":"03457","name":"Leer","type":"Landkreis"},"federalState":{"key":"03","name":"Niedersachsen"}},{"name":"Turnerweg","postalCode":"26789","locality":"Leer","municipality":{"key":"03457013","name":"Leer (Ostfriesland), Stadt","type":"Stadt"},"district":{"key":"03457","name":"Leer","type":"Landkreis"},"federalState":{"key":"03","name":"Niedersachsen"}},{"name":"Under de Diek","postalCode":"26757","locality":"Borkum","municipality":{"key":"03457002","name":"Borkum, Stadt","type":"Stadt"},"district":{"key":"03457","name":"Leer","type":"Landkreis"},"federalState":{"key":"03","name":"Niedersachsen"}},{"name":"Under de Hinterwall","postalCode":"26757","locality":"Borkum","municipality":{"key":"03457002","name":"Borkum, Stadt","type":"Stadt"},"district":{"key":"03457","name":"Leer","type":"Landkreis"},"federalState":{"key":"03","name":"Niedersachsen"}},{"name":"Upholmdeich","postalCode":"26757","locality":"Borkum","municipality":{"key":"03457002","name":"Borkum, Stadt","type":"Stadt"},"district":{"key":"03457","name":"Leer","type":"Landkreis"},"federalState":{"key":"03","name":"Niedersachsen"}},{"name":"Upholmstr.","postalCode":"26757","locality":"Borkum","municipality":{"key":"03457002","name":"Borkum, Stadt","type":"Stadt"},"district":{"key":"03457","name":"Leer","type":"Landkreis"},"federalState":{"key":"03","name":"Niedersachsen"}},{"name":"Viktoriastr.","postalCode":"26757","locality":"Borkum","municipality":{"key":"03457002","name":"Borkum, Stadt","type":"Stadt"},"district":{"key":"03457","name":"Leer","type":"Landkreis"},"federalState":{"key":"03","name":"Niedersachsen"}},{"name":"von-Frese-Str.","postalCode":"26757","locality":"Borkum","municipality":{"key":"03457002","name":"Borkum, Stadt","type":"Stadt"},"district":{"key":"03457","name":"Leer","type":"Landkreis"},"federalState":{"key":"03","name":"Niedersachsen"}},{"name":"Wald-Dünenweg","postalCode":"26757","locality":"Borkum","municipality":{"key":"03457002","name":"Borkum, Stadt","type":"Stadt"},"district":{"key":"03457","name":"Leer","type":"Landkreis"},"federalState":{"key":"03","name":"Niedersachsen"}},{"name":"Walfängerstrate","postalCode":"26757","locality":"Borkum","municipality":{"key":"03457002","name":"Borkum, Stadt","type":"Stadt"},"district":{"key":"03457","name":"Leer","type":"Landkreis"},"federalState":{"key":"03","name":"Niedersachsen"}},{"name":"Waterdelle","postalCode":"26757","locality":"Borkum","municipality":{"key":"03457002","name":"Borkum, Stadt","type":"Stadt"},"district":{"key":"03457","name":"Leer","type":"Landkreis"},"federalState":{"key":"03","name":"Niedersachsen"}},{"name":"Weertsgatt","postalCode":"26757","locality":"Borkum","municipality":{"key":"03457002","name":"Borkum, Stadt","type":"Stadt"},"district":{"key":"03457","name":"Leer","type":"Landkreis"},"federalState":{"key":"03","name":"Niedersachsen"}},{"name":"Weidenstr.","postalCode":"26757","locality":"Borkum","municipality":{"key":"03457002","name":"Borkum, Stadt","type":"Stadt"},"district":{"key":"03457","name":"Leer","type":"Landkreis"},"federalState":{"key":"03","name":"Niedersachsen"}},{"name":"Weidenweg","postalCode":"26757","locality":"Borkum","municipality":{"key":"03457002","name":"Borkum, Stadt","type":"Stadt"},"district":{"key":"03457","name":"Leer","type":"Landkreis"},"federalState":{"key":"03","name":"Niedersachsen"}},{"name":"Westerstr.","postalCode":"26757","locality":"Borkum","municipality":{"key":"03457002","name":"Borkum, Stadt","type":"Stadt"},"district":{"key":"03457","name":"Leer","type":"Landkreis"},"federalState":{"key":"03","name":"Niedersachsen"}},{"name":"Wiesenweg","postalCode":"26757","locality":"Borkum","municipality":{"key":"03457002","name":"Borkum, Stadt","type":"Stadt"},"district":{"key":"03457","name":"Leer","type":"Landkreis"},"federalState":{"key":"03","name":"Niedersachsen"}},{"name":"Wilhelm-Bakker-Str.","postalCode":"26757","locality":"Borkum","municipality":{"key":"03457002","name":"Borkum, Stadt","type":"Stadt"},"district":{"key":"03457","name":"Leer","type":"Landkreis"},"federalState":{"key":"03","name":"Niedersachsen"}},{"name":"Wilhelm-Feldhoff-Str.","postalCode":"26757","locality":"Borkum","municipality":{"key":"03457002","name":"Borkum, Stadt","type":"Stadt"},"district":{"key":"03457","name":"Leer","type":"Landkreis"},"federalState":{"key":"03","name":"Niedersachsen"}},{"name":"Willem-Schol-Pfad","postalCode":"26757","locality":"Borkum","municipality":{"key":"03457002","name":"Borkum, Stadt","type":"Stadt"},"district":{"key":"03457","name":"Leer","type":"Landkreis"},"federalState":{"key":"03","name":"Niedersachsen"}},{"name":"Wuldegapstr.","postalCode":"26757","locality":"Borkum","municipality":{"key":"03457002","name":"Borkum, Stadt","type":"Stadt"},"district":{"key":"03457","name":"Leer","type":"Landkreis"},"federalState":{"key":"03","name":"Niedersachsen"}},{"name":"Zeppelinstr.","postalCode":"26789","locality":"Leer","municipality":{"key":"03457013","name":"Leer (Ostfriesland), Stadt","type":"Stadt"},"district":{"key":"03457","name":"Leer","type":"Landkreis"},"federalState":{"key":"03","name":"Niedersachsen"}},{"name":"Ziegeleistr.","postalCode":"26789","locality":"Leer","municipality":{"key":"03457013","name":"Leer (Ostfriesland), Stadt","type":"Stadt"},"district":{"key":"03457","name":"Leer","type":"Landkreis"},"federalState":{"key":"03","name":"Niedersachsen"}},{"name":"Zoostr.","postalCode":"26789","locality":"Leer","municipality":{"key":"03457013","name":"Leer (Ostfriesland), Stadt","type":"Stadt"},"district":{"key":"03457","name":"Leer","type":"Landkreis"},"federalState":{"key":"03","name":"Niedersachsen"}},{"name":"Zum Hammrich","postalCode":"26789","locality":"Leer","municipality":{"key":"03457013","name":"Leer (Ostfriesland), Stadt","type":"Stadt"},"district":{"key":"03457","name":"Leer","type":"Landkreis"},"federalState":{"key":"03","name":"Niedersachsen"}},{"name":"Zum Voßberg","postalCode":"26789","locality":"Leer","municipality":{"key":"03457013","name":"Leer (Ostfriesland), Stadt","type":"Stadt"},"district":{"key":"03457","name":"Leer","type":"Landkreis"},"federalState":{"key":"03","name":"Niedersachsen"}},{"name":"Zur Koppel","postalCode":"26789","locality":"Leer","municipality":{"key":"03457013","name":"Leer (Ostfriesland), Stadt","type":"Stadt"},"district":{"key":"03457","name":"Leer","type":"Landkreis"},"federalState":{"key":"03","name":"Niedersachsen"}},]