[{"name":"Albert-Schweitzer-Str.","postalCode":"63543","locality":"Neuberg","municipality":{"key":"06435020","name":"Neuberg","type":"Kreisangehörige_Gemeinde"},"district":{"key":"06435","name":"Main-Kinzig-Kreis","type":"Landkreis"},"federalState":{"key":"06","name":"Hessen"}},{"name":"Am Gänsberg","postalCode":"63543","locality":"Neuberg","municipality":{"key":"06435020","name":"Neuberg","type":"Kreisangehörige_Gemeinde"},"district":{"key":"06435","name":"Main-Kinzig-Kreis","type":"Landkreis"},"federalState":{"key":"06","name":"Hessen"}},{"name":"Am Haselweiher","postalCode":"63543","locality":"Neuberg","municipality":{"key":"06435020","name":"Neuberg","type":"Kreisangehörige_Gemeinde"},"district":{"key":"06435","name":"Main-Kinzig-Kreis","type":"Landkreis"},"federalState":{"key":"06","name":"Hessen"}},{"name":"Am Möllerborn","postalCode":"63543","locality":"Neuberg","municipality":{"key":"06435020","name":"Neuberg","type":"Kreisangehörige_Gemeinde"},"district":{"key":"06435","name":"Main-Kinzig-Kreis","type":"Landkreis"},"federalState":{"key":"06","name":"Hessen"}},{"name":"An den Römertürmen","postalCode":"63543","locality":"Neuberg","municipality":{"key":"06435020","name":"Neuberg","type":"Kreisangehörige_Gemeinde"},"district":{"key":"06435","name":"Main-Kinzig-Kreis","type":"Landkreis"},"federalState":{"key":"06","name":"Hessen"}},{"name":"An der Ziegelei","postalCode":"63543","locality":"Neuberg","municipality":{"key":"06435020","name":"Neuberg","type":"Kreisangehörige_Gemeinde"},"district":{"key":"06435","name":"Main-Kinzig-Kreis","type":"Landkreis"},"federalState":{"key":"06","name":"Hessen"}},{"name":"Apfelallee","postalCode":"63543","locality":"Neuberg","municipality":{"key":"06435020","name":"Neuberg","type":"Kreisangehörige_Gemeinde"},"district":{"key":"06435","name":"Main-Kinzig-Kreis","type":"Landkreis"},"federalState":{"key":"06","name":"Hessen"}},{"name":"Auf der Weingartsweide","postalCode":"63543","locality":"Neuberg","municipality":{"key":"06435020","name":"Neuberg","type":"Kreisangehörige_Gemeinde"},"district":{"key":"06435","name":"Main-Kinzig-Kreis","type":"Landkreis"},"federalState":{"key":"06","name":"Hessen"}},{"name":"Bahnhofstr.","postalCode":"63543","locality":"Neuberg","municipality":{"key":"06435020","name":"Neuberg","type":"Kreisangehörige_Gemeinde"},"district":{"key":"06435","name":"Main-Kinzig-Kreis","type":"Landkreis"},"federalState":{"key":"06","name":"Hessen"}},{"name":"Bergstr.","postalCode":"63543","locality":"Neuberg","municipality":{"key":"06435020","name":"Neuberg","type":"Kreisangehörige_Gemeinde"},"district":{"key":"06435","name":"Main-Kinzig-Kreis","type":"Landkreis"},"federalState":{"key":"06","name":"Hessen"}},{"name":"Birkenweg","postalCode":"63543","locality":"Neuberg","municipality":{"key":"06435020","name":"Neuberg","type":"Kreisangehörige_Gemeinde"},"district":{"key":"06435","name":"Main-Kinzig-Kreis","type":"Landkreis"},"federalState":{"key":"06","name":"Hessen"}},{"name":"Borngasse","postalCode":"63543","locality":"Neuberg","municipality":{"key":"06435020","name":"Neuberg","type":"Kreisangehörige_Gemeinde"},"district":{"key":"06435","name":"Main-Kinzig-Kreis","type":"Landkreis"},"federalState":{"key":"06","name":"Hessen"}},{"name":"Brüder-Grimm-Str.","postalCode":"63543","locality":"Neuberg","municipality":{"key":"06435020","name":"Neuberg","type":"Kreisangehörige_Gemeinde"},"district":{"key":"06435","name":"Main-Kinzig-Kreis","type":"Landkreis"},"federalState":{"key":"06","name":"Hessen"}},{"name":"Brunnenstr.","postalCode":"63543","locality":"Neuberg","municipality":{"key":"06435020","name":"Neuberg","type":"Kreisangehörige_Gemeinde"},"district":{"key":"06435","name":"Main-Kinzig-Kreis","type":"Landkreis"},"federalState":{"key":"06","name":"Hessen"}},{"name":"Buchbergstr.","postalCode":"63543","locality":"Neuberg","municipality":{"key":"06435020","name":"Neuberg","type":"Kreisangehörige_Gemeinde"},"district":{"key":"06435","name":"Main-Kinzig-Kreis","type":"Landkreis"},"federalState":{"key":"06","name":"Hessen"}},{"name":"Buchenweg","postalCode":"63543","locality":"Neuberg","municipality":{"key":"06435020","name":"Neuberg","type":"Kreisangehörige_Gemeinde"},"district":{"key":"06435","name":"Main-Kinzig-Kreis","type":"Landkreis"},"federalState":{"key":"06","name":"Hessen"}},{"name":"Büdinger Str.","postalCode":"63543","locality":"Neuberg","municipality":{"key":"06435020","name":"Neuberg","type":"Kreisangehörige_Gemeinde"},"district":{"key":"06435","name":"Main-Kinzig-Kreis","type":"Landkreis"},"federalState":{"key":"06","name":"Hessen"}},{"name":"Chattenweg","postalCode":"63543","locality":"Neuberg","municipality":{"key":"06435020","name":"Neuberg","type":"Kreisangehörige_Gemeinde"},"district":{"key":"06435","name":"Main-Kinzig-Kreis","type":"Landkreis"},"federalState":{"key":"06","name":"Hessen"}},{"name":"Darmstädter Str.","postalCode":"63543","locality":"Neuberg","municipality":{"key":"06435020","name":"Neuberg","type":"Kreisangehörige_Gemeinde"},"district":{"key":"06435","name":"Main-Kinzig-Kreis","type":"Landkreis"},"federalState":{"key":"06","name":"Hessen"}},{"name":"Eifelweg","postalCode":"63543","locality":"Neuberg","municipality":{"key":"06435020","name":"Neuberg","type":"Kreisangehörige_Gemeinde"},"district":{"key":"06435","name":"Main-Kinzig-Kreis","type":"Landkreis"},"federalState":{"key":"06","name":"Hessen"}},{"name":"Fallbachstr.","postalCode":"63543","locality":"Neuberg","municipality":{"key":"06435020","name":"Neuberg","type":"Kreisangehörige_Gemeinde"},"district":{"key":"06435","name":"Main-Kinzig-Kreis","type":"Landkreis"},"federalState":{"key":"06","name":"Hessen"}},{"name":"Feldbergstr.","postalCode":"63543","locality":"Neuberg","municipality":{"key":"06435020","name":"Neuberg","type":"Kreisangehörige_Gemeinde"},"district":{"key":"06435","name":"Main-Kinzig-Kreis","type":"Landkreis"},"federalState":{"key":"06","name":"Hessen"}},{"name":"Feldstr.","postalCode":"63543","locality":"Neuberg","municipality":{"key":"06435020","name":"Neuberg","type":"Kreisangehörige_Gemeinde"},"district":{"key":"06435","name":"Main-Kinzig-Kreis","type":"Landkreis"},"federalState":{"key":"06","name":"Hessen"}},{"name":"Friedberger Str.","postalCode":"63543","locality":"Neuberg","municipality":{"key":"06435020","name":"Neuberg","type":"Kreisangehörige_Gemeinde"},"district":{"key":"06435","name":"Main-Kinzig-Kreis","type":"Landkreis"},"federalState":{"key":"06","name":"Hessen"}},{"name":"Friedhofstr.","postalCode":"63543","locality":"Neuberg","municipality":{"key":"06435020","name":"Neuberg","type":"Kreisangehörige_Gemeinde"},"district":{"key":"06435","name":"Main-Kinzig-Kreis","type":"Landkreis"},"federalState":{"key":"06","name":"Hessen"}},{"name":"Friedrich-Ebert-Str.","postalCode":"63543","locality":"Neuberg","municipality":{"key":"06435020","name":"Neuberg","type":"Kreisangehörige_Gemeinde"},"district":{"key":"06435","name":"Main-Kinzig-Kreis","type":"Landkreis"},"federalState":{"key":"06","name":"Hessen"}},{"name":"Friedrichstr.","postalCode":"63543","locality":"Neuberg","municipality":{"key":"06435020","name":"Neuberg","type":"Kreisangehörige_Gemeinde"},"district":{"key":"06435","name":"Main-Kinzig-Kreis","type":"Landkreis"},"federalState":{"key":"06","name":"Hessen"}},{"name":"Gartenweg","postalCode":"63543","locality":"Neuberg","municipality":{"key":"06435020","name":"Neuberg","type":"Kreisangehörige_Gemeinde"},"district":{"key":"06435","name":"Main-Kinzig-Kreis","type":"Landkreis"},"federalState":{"key":"06","name":"Hessen"}},{"name":"Gelnhäuser Str.","postalCode":"63543","locality":"Neuberg","municipality":{"key":"06435020","name":"Neuberg","type":"Kreisangehörige_Gemeinde"},"district":{"key":"06435","name":"Main-Kinzig-Kreis","type":"Landkreis"},"federalState":{"key":"06","name":"Hessen"}},{"name":"Germanenstr.","postalCode":"63543","locality":"Neuberg","municipality":{"key":"06435020","name":"Neuberg","type":"Kreisangehörige_Gemeinde"},"district":{"key":"06435","name":"Main-Kinzig-Kreis","type":"Landkreis"},"federalState":{"key":"06","name":"Hessen"}},{"name":"Goethestr.","postalCode":"63543","locality":"Neuberg","municipality":{"key":"06435020","name":"Neuberg","type":"Kreisangehörige_Gemeinde"},"district":{"key":"06435","name":"Main-Kinzig-Kreis","type":"Landkreis"},"federalState":{"key":"06","name":"Hessen"}},{"name":"Hadrianweg","postalCode":"63543","locality":"Neuberg","municipality":{"key":"06435020","name":"Neuberg","type":"Kreisangehörige_Gemeinde"},"district":{"key":"06435","name":"Main-Kinzig-Kreis","type":"Landkreis"},"federalState":{"key":"06","name":"Hessen"}},{"name":"Hainstr.","postalCode":"63543","locality":"Neuberg","municipality":{"key":"06435020","name":"Neuberg","type":"Kreisangehörige_Gemeinde"},"district":{"key":"06435","name":"Main-Kinzig-Kreis","type":"Landkreis"},"federalState":{"key":"06","name":"Hessen"}},{"name":"Hanauer Str.","postalCode":"63543","locality":"Neuberg","municipality":{"key":"06435020","name":"Neuberg","type":"Kreisangehörige_Gemeinde"},"district":{"key":"06435","name":"Main-Kinzig-Kreis","type":"Landkreis"},"federalState":{"key":"06","name":"Hessen"}},{"name":"Hasentalweg","postalCode":"63543","locality":"Neuberg","municipality":{"key":"06435020","name":"Neuberg","type":"Kreisangehörige_Gemeinde"},"district":{"key":"06435","name":"Main-Kinzig-Kreis","type":"Landkreis"},"federalState":{"key":"06","name":"Hessen"}},{"name":"Hermann-Löns-Str.","postalCode":"63543","locality":"Neuberg","municipality":{"key":"06435020","name":"Neuberg","type":"Kreisangehörige_Gemeinde"},"district":{"key":"06435","name":"Main-Kinzig-Kreis","type":"Landkreis"},"federalState":{"key":"06","name":"Hessen"}},{"name":"Hintergasse","postalCode":"63543","locality":"Neuberg","municipality":{"key":"06435020","name":"Neuberg","type":"Kreisangehörige_Gemeinde"},"district":{"key":"06435","name":"Main-Kinzig-Kreis","type":"Landkreis"},"federalState":{"key":"06","name":"Hessen"}},{"name":"Hohensteinstr.","postalCode":"63543","locality":"Neuberg","municipality":{"key":"06435020","name":"Neuberg","type":"Kreisangehörige_Gemeinde"},"district":{"key":"06435","name":"Main-Kinzig-Kreis","type":"Landkreis"},"federalState":{"key":"06","name":"Hessen"}},{"name":"Hunsrückstr.","postalCode":"63543","locality":"Neuberg","municipality":{"key":"06435020","name":"Neuberg","type":"Kreisangehörige_Gemeinde"},"district":{"key":"06435","name":"Main-Kinzig-Kreis","type":"Landkreis"},"federalState":{"key":"06","name":"Hessen"}},{"name":"Hüttengesäßer Str.","postalCode":"63543","locality":"Neuberg","municipality":{"key":"06435020","name":"Neuberg","type":"Kreisangehörige_Gemeinde"},"district":{"key":"06435","name":"Main-Kinzig-Kreis","type":"Landkreis"},"federalState":{"key":"06","name":"Hessen"}},{"name":"Im Dorfe","postalCode":"63543","locality":"Neuberg","municipality":{"key":"06435020","name":"Neuberg","type":"Kreisangehörige_Gemeinde"},"district":{"key":"06435","name":"Main-Kinzig-Kreis","type":"Landkreis"},"federalState":{"key":"06","name":"Hessen"}},{"name":"Im Unterfeld","postalCode":"63543","locality":"Neuberg","municipality":{"key":"06435020","name":"Neuberg","type":"Kreisangehörige_Gemeinde"},"district":{"key":"06435","name":"Main-Kinzig-Kreis","type":"Landkreis"},"federalState":{"key":"06","name":"Hessen"}},{"name":"In den Gräben","postalCode":"63543","locality":"Neuberg","municipality":{"key":"06435020","name":"Neuberg","type":"Kreisangehörige_Gemeinde"},"district":{"key":"06435","name":"Main-Kinzig-Kreis","type":"Landkreis"},"federalState":{"key":"06","name":"Hessen"}},{"name":"In den Jockelsäckern","postalCode":"63543","locality":"Neuberg","municipality":{"key":"06435020","name":"Neuberg","type":"Kreisangehörige_Gemeinde"},"district":{"key":"06435","name":"Main-Kinzig-Kreis","type":"Landkreis"},"federalState":{"key":"06","name":"Hessen"}},{"name":"In den Ziegelgärten","postalCode":"63543","locality":"Neuberg","municipality":{"key":"06435020","name":"Neuberg","type":"Kreisangehörige_Gemeinde"},"district":{"key":"06435","name":"Main-Kinzig-Kreis","type":"Landkreis"},"federalState":{"key":"06","name":"Hessen"}},{"name":"Industriestr.","postalCode":"63543","locality":"Neuberg","municipality":{"key":"06435020","name":"Neuberg","type":"Kreisangehörige_Gemeinde"},"district":{"key":"06435","name":"Main-Kinzig-Kreis","type":"Landkreis"},"federalState":{"key":"06","name":"Hessen"}},{"name":"Kantstr.","postalCode":"63543","locality":"Neuberg","municipality":{"key":"06435020","name":"Neuberg","type":"Kreisangehörige_Gemeinde"},"district":{"key":"06435","name":"Main-Kinzig-Kreis","type":"Landkreis"},"federalState":{"key":"06","name":"Hessen"}},{"name":"Karlstr.","postalCode":"63543","locality":"Neuberg","municipality":{"key":"06435020","name":"Neuberg","type":"Kreisangehörige_Gemeinde"},"district":{"key":"06435","name":"Main-Kinzig-Kreis","type":"Landkreis"},"federalState":{"key":"06","name":"Hessen"}},{"name":"Kirchstr.","postalCode":"63543","locality":"Neuberg","municipality":{"key":"06435020","name":"Neuberg","type":"Kreisangehörige_Gemeinde"},"district":{"key":"06435","name":"Main-Kinzig-Kreis","type":"Landkreis"},"federalState":{"key":"06","name":"Hessen"}},{"name":"Kreuzbergstr.","postalCode":"63543","locality":"Neuberg","municipality":{"key":"06435020","name":"Neuberg","type":"Kreisangehörige_Gemeinde"},"district":{"key":"06435","name":"Main-Kinzig-Kreis","type":"Landkreis"},"federalState":{"key":"06","name":"Hessen"}},{"name":"Langendiebacher Str.","postalCode":"63543","locality":"Neuberg","municipality":{"key":"06435020","name":"Neuberg","type":"Kreisangehörige_Gemeinde"},"district":{"key":"06435","name":"Main-Kinzig-Kreis","type":"Landkreis"},"federalState":{"key":"06","name":"Hessen"}},{"name":"Langenselbolder Str.","postalCode":"63543","locality":"Neuberg","municipality":{"key":"06435020","name":"Neuberg","type":"Kreisangehörige_Gemeinde"},"district":{"key":"06435","name":"Main-Kinzig-Kreis","type":"Landkreis"},"federalState":{"key":"06","name":"Hessen"}},{"name":"Legionärsweg","postalCode":"63543","locality":"Neuberg","municipality":{"key":"06435020","name":"Neuberg","type":"Kreisangehörige_Gemeinde"},"district":{"key":"06435","name":"Main-Kinzig-Kreis","type":"Landkreis"},"federalState":{"key":"06","name":"Hessen"}},{"name":"Lessingstr.","postalCode":"63543","locality":"Neuberg","municipality":{"key":"06435020","name":"Neuberg","type":"Kreisangehörige_Gemeinde"},"district":{"key":"06435","name":"Main-Kinzig-Kreis","type":"Landkreis"},"federalState":{"key":"06","name":"Hessen"}},{"name":"Limesstr.","postalCode":"63543","locality":"Neuberg","municipality":{"key":"06435020","name":"Neuberg","type":"Kreisangehörige_Gemeinde"},"district":{"key":"06435","name":"Main-Kinzig-Kreis","type":"Landkreis"},"federalState":{"key":"06","name":"Hessen"}},{"name":"Lindenstr.","postalCode":"63543","locality":"Neuberg","municipality":{"key":"06435020","name":"Neuberg","type":"Kreisangehörige_Gemeinde"},"district":{"key":"06435","name":"Main-Kinzig-Kreis","type":"Landkreis"},"federalState":{"key":"06","name":"Hessen"}},{"name":"Marienstr.","postalCode":"63543","locality":"Neuberg","municipality":{"key":"06435020","name":"Neuberg","type":"Kreisangehörige_Gemeinde"},"district":{"key":"06435","name":"Main-Kinzig-Kreis","type":"Landkreis"},"federalState":{"key":"06","name":"Hessen"}},{"name":"Marköbeler Str.","postalCode":"63543","locality":"Neuberg","municipality":{"key":"06435020","name":"Neuberg","type":"Kreisangehörige_Gemeinde"},"district":{"key":"06435","name":"Main-Kinzig-Kreis","type":"Landkreis"},"federalState":{"key":"06","name":"Hessen"}},{"name":"Marktstr.","postalCode":"63543","locality":"Neuberg","municipality":{"key":"06435020","name":"Neuberg","type":"Kreisangehörige_Gemeinde"},"district":{"key":"06435","name":"Main-Kinzig-Kreis","type":"Landkreis"},"federalState":{"key":"06","name":"Hessen"}},{"name":"Max-Planck-Str.","postalCode":"63543","locality":"Neuberg","municipality":{"key":"06435020","name":"Neuberg","type":"Kreisangehörige_Gemeinde"},"district":{"key":"06435","name":"Main-Kinzig-Kreis","type":"Landkreis"},"federalState":{"key":"06","name":"Hessen"}},{"name":"Mittelgasse","postalCode":"63543","locality":"Neuberg","municipality":{"key":"06435020","name":"Neuberg","type":"Kreisangehörige_Gemeinde"},"district":{"key":"06435","name":"Main-Kinzig-Kreis","type":"Landkreis"},"federalState":{"key":"06","name":"Hessen"}},{"name":"Montastr.","postalCode":"63543","locality":"Neuberg","municipality":{"key":"06435020","name":"Neuberg","type":"Kreisangehörige_Gemeinde"},"district":{"key":"06435","name":"Main-Kinzig-Kreis","type":"Landkreis"},"federalState":{"key":"06","name":"Hessen"}},{"name":"Mozartring","postalCode":"63543","locality":"Neuberg","municipality":{"key":"06435020","name":"Neuberg","type":"Kreisangehörige_Gemeinde"},"district":{"key":"06435","name":"Main-Kinzig-Kreis","type":"Landkreis"},"federalState":{"key":"06","name":"Hessen"}},{"name":"Mühlstr.","postalCode":"63543","locality":"Neuberg","municipality":{"key":"06435020","name":"Neuberg","type":"Kreisangehörige_Gemeinde"},"district":{"key":"06435","name":"Main-Kinzig-Kreis","type":"Landkreis"},"federalState":{"key":"06","name":"Hessen"}},{"name":"Neue Anlage","postalCode":"63543","locality":"Neuberg","municipality":{"key":"06435020","name":"Neuberg","type":"Kreisangehörige_Gemeinde"},"district":{"key":"06435","name":"Main-Kinzig-Kreis","type":"Landkreis"},"federalState":{"key":"06","name":"Hessen"}},{"name":"Nußbaumstr.","postalCode":"63543","locality":"Neuberg","municipality":{"key":"06435020","name":"Neuberg","type":"Kreisangehörige_Gemeinde"},"district":{"key":"06435","name":"Main-Kinzig-Kreis","type":"Landkreis"},"federalState":{"key":"06","name":"Hessen"}},{"name":"Oberissigheimer Str.","postalCode":"63543","locality":"Neuberg","municipality":{"key":"06435020","name":"Neuberg","type":"Kreisangehörige_Gemeinde"},"district":{"key":"06435","name":"Main-Kinzig-Kreis","type":"Landkreis"},"federalState":{"key":"06","name":"Hessen"}},{"name":"Odenwaldstr.","postalCode":"63543","locality":"Neuberg","municipality":{"key":"06435020","name":"Neuberg","type":"Kreisangehörige_Gemeinde"},"district":{"key":"06435","name":"Main-Kinzig-Kreis","type":"Landkreis"},"federalState":{"key":"06","name":"Hessen"}},{"name":"Palisadenweg","postalCode":"63543","locality":"Neuberg","municipality":{"key":"06435020","name":"Neuberg","type":"Kreisangehörige_Gemeinde"},"district":{"key":"06435","name":"Main-Kinzig-Kreis","type":"Landkreis"},"federalState":{"key":"06","name":"Hessen"}},{"name":"Raiffeisenstr.","postalCode":"63543","locality":"Neuberg","municipality":{"key":"06435020","name":"Neuberg","type":"Kreisangehörige_Gemeinde"},"district":{"key":"06435","name":"Main-Kinzig-Kreis","type":"Landkreis"},"federalState":{"key":"06","name":"Hessen"}},{"name":"Rathausstr.","postalCode":"63543","locality":"Neuberg","municipality":{"key":"06435020","name":"Neuberg","type":"Kreisangehörige_Gemeinde"},"district":{"key":"06435","name":"Main-Kinzig-Kreis","type":"Landkreis"},"federalState":{"key":"06","name":"Hessen"}},{"name":"Ravolzhäuser Str.","postalCode":"63543","locality":"Neuberg","municipality":{"key":"06435020","name":"Neuberg","type":"Kreisangehörige_Gemeinde"},"district":{"key":"06435","name":"Main-Kinzig-Kreis","type":"Landkreis"},"federalState":{"key":"06","name":"Hessen"}},{"name":"Reimelstr.","postalCode":"63543","locality":"Neuberg","municipality":{"key":"06435020","name":"Neuberg","type":"Kreisangehörige_Gemeinde"},"district":{"key":"06435","name":"Main-Kinzig-Kreis","type":"Landkreis"},"federalState":{"key":"06","name":"Hessen"}},{"name":"Rhönstr.","postalCode":"63543","locality":"Neuberg","municipality":{"key":"06435020","name":"Neuberg","type":"Kreisangehörige_Gemeinde"},"district":{"key":"06435","name":"Main-Kinzig-Kreis","type":"Landkreis"},"federalState":{"key":"06","name":"Hessen"}},{"name":"Ringstr.","postalCode":"63543","locality":"Neuberg","municipality":{"key":"06435020","name":"Neuberg","type":"Kreisangehörige_Gemeinde"},"district":{"key":"06435","name":"Main-Kinzig-Kreis","type":"Landkreis"},"federalState":{"key":"06","name":"Hessen"}},{"name":"Robert-Koch-Str.","postalCode":"63543","locality":"Neuberg","municipality":{"key":"06435020","name":"Neuberg","type":"Kreisangehörige_Gemeinde"},"district":{"key":"06435","name":"Main-Kinzig-Kreis","type":"Landkreis"},"federalState":{"key":"06","name":"Hessen"}},{"name":"Römerstr.","postalCode":"63543","locality":"Neuberg","municipality":{"key":"06435020","name":"Neuberg","type":"Kreisangehörige_Gemeinde"},"district":{"key":"06435","name":"Main-Kinzig-Kreis","type":"Landkreis"},"federalState":{"key":"06","name":"Hessen"}},{"name":"Ronneburgstr.","postalCode":"63543","locality":"Neuberg","municipality":{"key":"06435020","name":"Neuberg","type":"Kreisangehörige_Gemeinde"},"district":{"key":"06435","name":"Main-Kinzig-Kreis","type":"Landkreis"},"federalState":{"key":"06","name":"Hessen"}},{"name":"Rüdigheimer Str.","postalCode":"63543","locality":"Neuberg","municipality":{"key":"06435020","name":"Neuberg","type":"Kreisangehörige_Gemeinde"},"district":{"key":"06435","name":"Main-Kinzig-Kreis","type":"Landkreis"},"federalState":{"key":"06","name":"Hessen"}},{"name":"Schillerstr.","postalCode":"63543","locality":"Neuberg","municipality":{"key":"06435020","name":"Neuberg","type":"Kreisangehörige_Gemeinde"},"district":{"key":"06435","name":"Main-Kinzig-Kreis","type":"Landkreis"},"federalState":{"key":"06","name":"Hessen"}},{"name":"Schubertstr.","postalCode":"63543","locality":"Neuberg","municipality":{"key":"06435020","name":"Neuberg","type":"Kreisangehörige_Gemeinde"},"district":{"key":"06435","name":"Main-Kinzig-Kreis","type":"Landkreis"},"federalState":{"key":"06","name":"Hessen"}},{"name":"Schulstr.","postalCode":"63543","locality":"Neuberg","municipality":{"key":"06435020","name":"Neuberg","type":"Kreisangehörige_Gemeinde"},"district":{"key":"06435","name":"Main-Kinzig-Kreis","type":"Landkreis"},"federalState":{"key":"06","name":"Hessen"}},{"name":"Schwärzelstr.","postalCode":"63543","locality":"Neuberg","municipality":{"key":"06435020","name":"Neuberg","type":"Kreisangehörige_Gemeinde"},"district":{"key":"06435","name":"Main-Kinzig-Kreis","type":"Landkreis"},"federalState":{"key":"06","name":"Hessen"}},{"name":"Siedlung","postalCode":"63543","locality":"Neuberg","municipality":{"key":"06435020","name":"Neuberg","type":"Kreisangehörige_Gemeinde"},"district":{"key":"06435","name":"Main-Kinzig-Kreis","type":"Landkreis"},"federalState":{"key":"06","name":"Hessen"}},{"name":"Spessartstr.","postalCode":"63543","locality":"Neuberg","municipality":{"key":"06435020","name":"Neuberg","type":"Kreisangehörige_Gemeinde"},"district":{"key":"06435","name":"Main-Kinzig-Kreis","type":"Landkreis"},"federalState":{"key":"06","name":"Hessen"}},{"name":"Sportplatzweg","postalCode":"63543","locality":"Neuberg","municipality":{"key":"06435020","name":"Neuberg","type":"Kreisangehörige_Gemeinde"},"district":{"key":"06435","name":"Main-Kinzig-Kreis","type":"Landkreis"},"federalState":{"key":"06","name":"Hessen"}},{"name":"Steinweg","postalCode":"63543","locality":"Neuberg","municipality":{"key":"06435020","name":"Neuberg","type":"Kreisangehörige_Gemeinde"},"district":{"key":"06435","name":"Main-Kinzig-Kreis","type":"Landkreis"},"federalState":{"key":"06","name":"Hessen"}},{"name":"Stockheimer Weg","postalCode":"63543","locality":"Neuberg","municipality":{"key":"06435020","name":"Neuberg","type":"Kreisangehörige_Gemeinde"},"district":{"key":"06435","name":"Main-Kinzig-Kreis","type":"Landkreis"},"federalState":{"key":"06","name":"Hessen"}},{"name":"Taunusstr.","postalCode":"63543","locality":"Neuberg","municipality":{"key":"06435020","name":"Neuberg","type":"Kreisangehörige_Gemeinde"},"district":{"key":"06435","name":"Main-Kinzig-Kreis","type":"Landkreis"},"federalState":{"key":"06","name":"Hessen"}},{"name":"Trajanweg","postalCode":"63543","locality":"Neuberg","municipality":{"key":"06435020","name":"Neuberg","type":"Kreisangehörige_Gemeinde"},"district":{"key":"06435","name":"Main-Kinzig-Kreis","type":"Landkreis"},"federalState":{"key":"06","name":"Hessen"}},{"name":"Uhlandstr.","postalCode":"63543","locality":"Neuberg","municipality":{"key":"06435020","name":"Neuberg","type":"Kreisangehörige_Gemeinde"},"district":{"key":"06435","name":"Main-Kinzig-Kreis","type":"Landkreis"},"federalState":{"key":"06","name":"Hessen"}},{"name":"Ulmenweg","postalCode":"63543","locality":"Neuberg","municipality":{"key":"06435020","name":"Neuberg","type":"Kreisangehörige_Gemeinde"},"district":{"key":"06435","name":"Main-Kinzig-Kreis","type":"Landkreis"},"federalState":{"key":"06","name":"Hessen"}},{"name":"Vogelsbergstr.","postalCode":"63543","locality":"Neuberg","municipality":{"key":"06435020","name":"Neuberg","type":"Kreisangehörige_Gemeinde"},"district":{"key":"06435","name":"Main-Kinzig-Kreis","type":"Landkreis"},"federalState":{"key":"06","name":"Hessen"}},{"name":"Waldstr.","postalCode":"63543","locality":"Neuberg","municipality":{"key":"06435020","name":"Neuberg","type":"Kreisangehörige_Gemeinde"},"district":{"key":"06435","name":"Main-Kinzig-Kreis","type":"Landkreis"},"federalState":{"key":"06","name":"Hessen"}},{"name":"Weingartenstr.","postalCode":"63543","locality":"Neuberg","municipality":{"key":"06435020","name":"Neuberg","type":"Kreisangehörige_Gemeinde"},"district":{"key":"06435","name":"Main-Kinzig-Kreis","type":"Landkreis"},"federalState":{"key":"06","name":"Hessen"}},{"name":"Wilhelmstr.","postalCode":"63543","locality":"Neuberg","municipality":{"key":"06435020","name":"Neuberg","type":"Kreisangehörige_Gemeinde"},"district":{"key":"06435","name":"Main-Kinzig-Kreis","type":"Landkreis"},"federalState":{"key":"06","name":"Hessen"}},{"name":"Wingertstr.","postalCode":"63543","locality":"Neuberg","municipality":{"key":"06435020","name":"Neuberg","type":"Kreisangehörige_Gemeinde"},"district":{"key":"06435","name":"Main-Kinzig-Kreis","type":"Landkreis"},"federalState":{"key":"06","name":"Hessen"}},{"name":"Zeppelinstr.","postalCode":"63543","locality":"Neuberg","municipality":{"key":"06435020","name":"Neuberg","type":"Kreisangehörige_Gemeinde"},"district":{"key":"06435","name":"Main-Kinzig-Kreis","type":"Landkreis"},"federalState":{"key":"06","name":"Hessen"}},]