[{"name":"Am Friedhof","postalCode":"23919","locality":"Berkenthin","municipality":{"key":"01053009","name":"Berkenthin","type":"Kreisangehörige_Gemeinde"},"district":{"key":"01053","name":"Herzogtum Lauenburg","type":"Kreis"},"federalState":{"key":"01","name":"Schleswig-Holstein"}},{"name":"Am Mühlenbach","postalCode":"23919","locality":"Berkenthin","municipality":{"key":"01053009","name":"Berkenthin","type":"Kreisangehörige_Gemeinde"},"district":{"key":"01053","name":"Herzogtum Lauenburg","type":"Kreis"},"federalState":{"key":"01","name":"Schleswig-Holstein"}},{"name":"Am Schart","postalCode":"23919","locality":"Berkenthin","municipality":{"key":"01053009","name":"Berkenthin","type":"Kreisangehörige_Gemeinde"},"district":{"key":"01053","name":"Herzogtum Lauenburg","type":"Kreis"},"federalState":{"key":"01","name":"Schleswig-Holstein"}},{"name":"An Heebarg","postalCode":"23919","locality":"Niendorf bei Berkenthin","municipality":{"key":"01053094","name":"Niendorf bei Berkenthin","type":"Kreisangehörige_Gemeinde"},"district":{"key":"01053","name":"Herzogtum Lauenburg","type":"Kreis"},"federalState":{"key":"01","name":"Schleswig-Holstein"}},{"name":"Außenland","postalCode":"23919","locality":"Berkenthin","municipality":{"key":"01053009","name":"Berkenthin","type":"Kreisangehörige_Gemeinde"},"district":{"key":"01053","name":"Herzogtum Lauenburg","type":"Kreis"},"federalState":{"key":"01","name":"Schleswig-Holstein"}},{"name":"Bahnhofstr.","postalCode":"23919","locality":"Berkenthin","municipality":{"key":"01053009","name":"Berkenthin","type":"Kreisangehörige_Gemeinde"},"district":{"key":"01053","name":"Herzogtum Lauenburg","type":"Kreis"},"federalState":{"key":"01","name":"Schleswig-Holstein"}},{"name":"Behlendorfer Str.","postalCode":"23919","locality":"Berkenthin","municipality":{"key":"01053009","name":"Berkenthin","type":"Kreisangehörige_Gemeinde"},"district":{"key":"01053","name":"Herzogtum Lauenburg","type":"Kreis"},"federalState":{"key":"01","name":"Schleswig-Holstein"}},{"name":"Berliner Str.","postalCode":"23919","locality":"Berkenthin","municipality":{"key":"01053009","name":"Berkenthin","type":"Kreisangehörige_Gemeinde"},"district":{"key":"01053","name":"Herzogtum Lauenburg","type":"Kreis"},"federalState":{"key":"01","name":"Schleswig-Holstein"}},{"name":"Birkenweg","postalCode":"23919","locality":"Berkenthin","municipality":{"key":"01053009","name":"Berkenthin","type":"Kreisangehörige_Gemeinde"},"district":{"key":"01053","name":"Herzogtum Lauenburg","type":"Kreis"},"federalState":{"key":"01","name":"Schleswig-Holstein"}},{"name":"Borggraben","postalCode":"23919","locality":"Niendorf bei Berkenthin","municipality":{"key":"01053094","name":"Niendorf bei Berkenthin","type":"Kreisangehörige_Gemeinde"},"district":{"key":"01053","name":"Herzogtum Lauenburg","type":"Kreis"},"federalState":{"key":"01","name":"Schleswig-Holstein"}},{"name":"Börnbarg","postalCode":"23919","locality":"Berkenthin","municipality":{"key":"01053009","name":"Berkenthin","type":"Kreisangehörige_Gemeinde"},"district":{"key":"01053","name":"Herzogtum Lauenburg","type":"Kreis"},"federalState":{"key":"01","name":"Schleswig-Holstein"}},{"name":"Buchenweg","postalCode":"23919","locality":"Berkenthin","municipality":{"key":"01053009","name":"Berkenthin","type":"Kreisangehörige_Gemeinde"},"district":{"key":"01053","name":"Herzogtum Lauenburg","type":"Kreis"},"federalState":{"key":"01","name":"Schleswig-Holstein"}},{"name":"Disnacker Weg","postalCode":"23919","locality":"Berkenthin","municipality":{"key":"01053009","name":"Berkenthin","type":"Kreisangehörige_Gemeinde"},"district":{"key":"01053","name":"Herzogtum Lauenburg","type":"Kreis"},"federalState":{"key":"01","name":"Schleswig-Holstein"}},{"name":"Dörpstraat","postalCode":"23919","locality":"Niendorf bei Berkenthin","municipality":{"key":"01053094","name":"Niendorf bei Berkenthin","type":"Kreisangehörige_Gemeinde"},"district":{"key":"01053","name":"Herzogtum Lauenburg","type":"Kreis"},"federalState":{"key":"01","name":"Schleswig-Holstein"}},{"name":"Drosselweg","postalCode":"23919","locality":"Berkenthin","municipality":{"key":"01053009","name":"Berkenthin","type":"Kreisangehörige_Gemeinde"},"district":{"key":"01053","name":"Herzogtum Lauenburg","type":"Kreis"},"federalState":{"key":"01","name":"Schleswig-Holstein"}},{"name":"Finkenweg","postalCode":"23919","locality":"Berkenthin","municipality":{"key":"01053009","name":"Berkenthin","type":"Kreisangehörige_Gemeinde"},"district":{"key":"01053","name":"Herzogtum Lauenburg","type":"Kreis"},"federalState":{"key":"01","name":"Schleswig-Holstein"}},{"name":"Friedenstr.","postalCode":"23919","locality":"Berkenthin","municipality":{"key":"01053009","name":"Berkenthin","type":"Kreisangehörige_Gemeinde"},"district":{"key":"01053","name":"Herzogtum Lauenburg","type":"Kreis"},"federalState":{"key":"01","name":"Schleswig-Holstein"}},{"name":"Groten Graben","postalCode":"23919","locality":"Berkenthin","municipality":{"key":"01053009","name":"Berkenthin","type":"Kreisangehörige_Gemeinde"},"district":{"key":"01053","name":"Herzogtum Lauenburg","type":"Kreis"},"federalState":{"key":"01","name":"Schleswig-Holstein"}},{"name":"Hamburger Str.","postalCode":"23919","locality":"Berkenthin","municipality":{"key":"01053009","name":"Berkenthin","type":"Kreisangehörige_Gemeinde"},"district":{"key":"01053","name":"Herzogtum Lauenburg","type":"Kreis"},"federalState":{"key":"01","name":"Schleswig-Holstein"}},{"name":"Im Winkel","postalCode":"23919","locality":"Berkenthin","municipality":{"key":"01053009","name":"Berkenthin","type":"Kreisangehörige_Gemeinde"},"district":{"key":"01053","name":"Herzogtum Lauenburg","type":"Kreis"},"federalState":{"key":"01","name":"Schleswig-Holstein"}},{"name":"Kählstorf","postalCode":"23919","locality":"Berkenthin","municipality":{"key":"01053009","name":"Berkenthin","type":"Kreisangehörige_Gemeinde"},"district":{"key":"01053","name":"Herzogtum Lauenburg","type":"Kreis"},"federalState":{"key":"01","name":"Schleswig-Holstein"}},{"name":"Kastanienweg","postalCode":"23919","locality":"Berkenthin","municipality":{"key":"01053009","name":"Berkenthin","type":"Kreisangehörige_Gemeinde"},"district":{"key":"01053","name":"Herzogtum Lauenburg","type":"Kreis"},"federalState":{"key":"01","name":"Schleswig-Holstein"}},{"name":"Kirchenstr.","postalCode":"23919","locality":"Berkenthin","municipality":{"key":"01053009","name":"Berkenthin","type":"Kreisangehörige_Gemeinde"},"district":{"key":"01053","name":"Herzogtum Lauenburg","type":"Kreis"},"federalState":{"key":"01","name":"Schleswig-Holstein"}},{"name":"Kirchsteigbrücke","postalCode":"23919","locality":"Berkenthin","municipality":{"key":"01053009","name":"Berkenthin","type":"Kreisangehörige_Gemeinde"},"district":{"key":"01053","name":"Herzogtum Lauenburg","type":"Kreis"},"federalState":{"key":"01","name":"Schleswig-Holstein"}},{"name":"Kökenbarg","postalCode":"23919","locality":"Berkenthin","municipality":{"key":"01053009","name":"Berkenthin","type":"Kreisangehörige_Gemeinde"},"district":{"key":"01053","name":"Herzogtum Lauenburg","type":"Kreis"},"federalState":{"key":"01","name":"Schleswig-Holstein"}},{"name":"Lübecker Str.","postalCode":"23919","locality":"Berkenthin","municipality":{"key":"01053009","name":"Berkenthin","type":"Kreisangehörige_Gemeinde"},"district":{"key":"01053","name":"Herzogtum Lauenburg","type":"Kreis"},"federalState":{"key":"01","name":"Schleswig-Holstein"}},{"name":"Meisterstr.","postalCode":"23919","locality":"Berkenthin","municipality":{"key":"01053009","name":"Berkenthin","type":"Kreisangehörige_Gemeinde"},"district":{"key":"01053","name":"Herzogtum Lauenburg","type":"Kreis"},"federalState":{"key":"01","name":"Schleswig-Holstein"}},{"name":"Moorhof","postalCode":"23919","locality":"Berkenthin","municipality":{"key":"01053009","name":"Berkenthin","type":"Kreisangehörige_Gemeinde"},"district":{"key":"01053","name":"Herzogtum Lauenburg","type":"Kreis"},"federalState":{"key":"01","name":"Schleswig-Holstein"}},{"name":"Naturschutzpark","postalCode":"23919","locality":"Berkenthin","municipality":{"key":"01053009","name":"Berkenthin","type":"Kreisangehörige_Gemeinde"},"district":{"key":"01053","name":"Herzogtum Lauenburg","type":"Kreis"},"federalState":{"key":"01","name":"Schleswig-Holstein"}},{"name":"Oldesloer Str.","postalCode":"23919","locality":"Berkenthin","municipality":{"key":"01053009","name":"Berkenthin","type":"Kreisangehörige_Gemeinde"},"district":{"key":"01053","name":"Herzogtum Lauenburg","type":"Kreis"},"federalState":{"key":"01","name":"Schleswig-Holstein"}},{"name":"Olen Hof","postalCode":"23919","locality":"Niendorf bei Berkenthin","municipality":{"key":"01053094","name":"Niendorf bei Berkenthin","type":"Kreisangehörige_Gemeinde"},"district":{"key":"01053","name":"Herzogtum Lauenburg","type":"Kreis"},"federalState":{"key":"01","name":"Schleswig-Holstein"}},{"name":"Pennbräh","postalCode":"23919","locality":"Berkenthin","municipality":{"key":"01053009","name":"Berkenthin","type":"Kreisangehörige_Gemeinde"},"district":{"key":"01053","name":"Herzogtum Lauenburg","type":"Kreis"},"federalState":{"key":"01","name":"Schleswig-Holstein"}},{"name":"Poststr.","postalCode":"23919","locality":"Berkenthin","municipality":{"key":"01053009","name":"Berkenthin","type":"Kreisangehörige_Gemeinde"},"district":{"key":"01053","name":"Herzogtum Lauenburg","type":"Kreis"},"federalState":{"key":"01","name":"Schleswig-Holstein"}},{"name":"Ratzeburger Str.","postalCode":"23919","locality":"Berkenthin","municipality":{"key":"01053009","name":"Berkenthin","type":"Kreisangehörige_Gemeinde"},"district":{"key":"01053","name":"Herzogtum Lauenburg","type":"Kreis"},"federalState":{"key":"01","name":"Schleswig-Holstein"}},{"name":"Rehmen","postalCode":"23919","locality":"Berkenthin","municipality":{"key":"01053009","name":"Berkenthin","type":"Kreisangehörige_Gemeinde"},"district":{"key":"01053","name":"Herzogtum Lauenburg","type":"Kreis"},"federalState":{"key":"01","name":"Schleswig-Holstein"}},{"name":"Rondeshagener Str.","postalCode":"23919","locality":"Berkenthin","municipality":{"key":"01053009","name":"Berkenthin","type":"Kreisangehörige_Gemeinde"},"district":{"key":"01053","name":"Herzogtum Lauenburg","type":"Kreis"},"federalState":{"key":"01","name":"Schleswig-Holstein"}},{"name":"Schoolkoppel","postalCode":"23919","locality":"Niendorf bei Berkenthin","municipality":{"key":"01053094","name":"Niendorf bei Berkenthin","type":"Kreisangehörige_Gemeinde"},"district":{"key":"01053","name":"Herzogtum Lauenburg","type":"Kreis"},"federalState":{"key":"01","name":"Schleswig-Holstein"}},{"name":"Schützenstr.","postalCode":"23919","locality":"Berkenthin","municipality":{"key":"01053009","name":"Berkenthin","type":"Kreisangehörige_Gemeinde"},"district":{"key":"01053","name":"Herzogtum Lauenburg","type":"Kreis"},"federalState":{"key":"01","name":"Schleswig-Holstein"}},{"name":"Stiegkoppel","postalCode":"23919","locality":"Berkenthin","municipality":{"key":"01053009","name":"Berkenthin","type":"Kreisangehörige_Gemeinde"},"district":{"key":"01053","name":"Herzogtum Lauenburg","type":"Kreis"},"federalState":{"key":"01","name":"Schleswig-Holstein"}},{"name":"Tannenweg","postalCode":"23919","locality":"Berkenthin","municipality":{"key":"01053009","name":"Berkenthin","type":"Kreisangehörige_Gemeinde"},"district":{"key":"01053","name":"Herzogtum Lauenburg","type":"Kreis"},"federalState":{"key":"01","name":"Schleswig-Holstein"}},{"name":"Teichweg","postalCode":"23919","locality":"Berkenthin","municipality":{"key":"01053009","name":"Berkenthin","type":"Kreisangehörige_Gemeinde"},"district":{"key":"01053","name":"Herzogtum Lauenburg","type":"Kreis"},"federalState":{"key":"01","name":"Schleswig-Holstein"}},{"name":"Tulpenweg","postalCode":"23919","locality":"Berkenthin","municipality":{"key":"01053009","name":"Berkenthin","type":"Kreisangehörige_Gemeinde"},"district":{"key":"01053","name":"Herzogtum Lauenburg","type":"Kreis"},"federalState":{"key":"01","name":"Schleswig-Holstein"}},{"name":"Turnierkoppel","postalCode":"23919","locality":"Berkenthin","municipality":{"key":"01053009","name":"Berkenthin","type":"Kreisangehörige_Gemeinde"},"district":{"key":"01053","name":"Herzogtum Lauenburg","type":"Kreis"},"federalState":{"key":"01","name":"Schleswig-Holstein"}},{"name":"Turnierweg","postalCode":"23919","locality":"Berkenthin","municipality":{"key":"01053009","name":"Berkenthin","type":"Kreisangehörige_Gemeinde"},"district":{"key":"01053","name":"Herzogtum Lauenburg","type":"Kreis"},"federalState":{"key":"01","name":"Schleswig-Holstein"}},{"name":"Umlöper","postalCode":"23919","locality":"Niendorf bei Berkenthin","municipality":{"key":"01053094","name":"Niendorf bei Berkenthin","type":"Kreisangehörige_Gemeinde"},"district":{"key":"01053","name":"Herzogtum Lauenburg","type":"Kreis"},"federalState":{"key":"01","name":"Schleswig-Holstein"}},{"name":"Von-Parkentin-Str.","postalCode":"23919","locality":"Berkenthin","municipality":{"key":"01053009","name":"Berkenthin","type":"Kreisangehörige_Gemeinde"},"district":{"key":"01053","name":"Herzogtum Lauenburg","type":"Kreis"},"federalState":{"key":"01","name":"Schleswig-Holstein"}},]