[{"name":"10th Avenue","postalCode":"67661","locality":"Kaiserslautern","municipality":{"key":"07312000","name":"Kaiserslautern, Stadt","type":"Kreisfreie_Stadt"},"district":{"key":"07312","name":"Kaiserslautern, kreisfreie Stadt","type":"Kreisfreie_Stadt"},"federalState":{"key":"07","name":"Rheinland-Pfalz"}},{"name":"5th Avenue","postalCode":"67661","locality":"Kaiserslautern","municipality":{"key":"07312000","name":"Kaiserslautern, Stadt","type":"Kreisfreie_Stadt"},"district":{"key":"07312","name":"Kaiserslautern, kreisfreie Stadt","type":"Kreisfreie_Stadt"},"federalState":{"key":"07","name":"Rheinland-Pfalz"}},{"name":"6th Avenue","postalCode":"67661","locality":"Kaiserslautern","municipality":{"key":"07312000","name":"Kaiserslautern, Stadt","type":"Kreisfreie_Stadt"},"district":{"key":"07312","name":"Kaiserslautern, kreisfreie Stadt","type":"Kreisfreie_Stadt"},"federalState":{"key":"07","name":"Rheinland-Pfalz"}},{"name":"Adolf-Reichwein-Str.","postalCode":"63517","locality":"Rodenbach","municipality":{"key":"06435023","name":"Rodenbach","type":"Kreisangehörige_Gemeinde"},"district":{"key":"06435","name":"Main-Kinzig-Kreis","type":"Landkreis"},"federalState":{"key":"06","name":"Hessen"}},{"name":"Ahornweg","postalCode":"63517","locality":"Rodenbach","municipality":{"key":"06435023","name":"Rodenbach","type":"Kreisangehörige_Gemeinde"},"district":{"key":"06435","name":"Main-Kinzig-Kreis","type":"Landkreis"},"federalState":{"key":"06","name":"Hessen"}},{"name":"Akazienweg","postalCode":"63517","locality":"Rodenbach","municipality":{"key":"06435023","name":"Rodenbach","type":"Kreisangehörige_Gemeinde"},"district":{"key":"06435","name":"Main-Kinzig-Kreis","type":"Landkreis"},"federalState":{"key":"06","name":"Hessen"}},{"name":"Albert-Einstein-Str.","postalCode":"63517","locality":"Rodenbach","municipality":{"key":"06435023","name":"Rodenbach","type":"Kreisangehörige_Gemeinde"},"district":{"key":"06435","name":"Main-Kinzig-Kreis","type":"Landkreis"},"federalState":{"key":"06","name":"Hessen"}},{"name":"Albert-Schweitzer-Str.","postalCode":"63517","locality":"Rodenbach","municipality":{"key":"06435023","name":"Rodenbach","type":"Kreisangehörige_Gemeinde"},"district":{"key":"06435","name":"Main-Kinzig-Kreis","type":"Landkreis"},"federalState":{"key":"06","name":"Hessen"}},{"name":"Almen","postalCode":"67688","locality":"Rodenbach","municipality":{"key":"07335040","name":"Rodenbach","type":"Kreisangehörige_Gemeinde"},"district":{"key":"07335","name":"Kaiserslautern","type":"Landkreis"},"federalState":{"key":"07","name":"Rheinland-Pfalz"}},{"name":"Aloys-Ruppel-Str.","postalCode":"63517","locality":"Rodenbach","municipality":{"key":"06435023","name":"Rodenbach","type":"Kreisangehörige_Gemeinde"},"district":{"key":"06435","name":"Main-Kinzig-Kreis","type":"Landkreis"},"federalState":{"key":"06","name":"Hessen"}},{"name":"Altenkirchener Str.","postalCode":"57639","locality":"Rodenbach bei Puderbach","municipality":{"key":"07138064","name":"Rodenbach bei Puderbach","type":"Kreisangehörige_Gemeinde"},"district":{"key":"07138","name":"Neuwied","type":"Landkreis"},"federalState":{"key":"07","name":"Rheinland-Pfalz"}},{"name":"Alte Steige","postalCode":"67688","locality":"Rodenbach","municipality":{"key":"07335040","name":"Rodenbach","type":"Kreisangehörige_Gemeinde"},"district":{"key":"07335","name":"Kaiserslautern","type":"Landkreis"},"federalState":{"key":"07","name":"Rheinland-Pfalz"}},{"name":"Alzenauer Str.","postalCode":"63517","locality":"Rodenbach","municipality":{"key":"06435023","name":"Rodenbach","type":"Kreisangehörige_Gemeinde"},"district":{"key":"06435","name":"Main-Kinzig-Kreis","type":"Landkreis"},"federalState":{"key":"06","name":"Hessen"}},{"name":"Am Allebach","postalCode":"67688","locality":"Rodenbach","municipality":{"key":"07335040","name":"Rodenbach","type":"Kreisangehörige_Gemeinde"},"district":{"key":"07335","name":"Kaiserslautern","type":"Landkreis"},"federalState":{"key":"07","name":"Rheinland-Pfalz"}},{"name":"Am alten Sportplatz","postalCode":"63517","locality":"Rodenbach","municipality":{"key":"06435023","name":"Rodenbach","type":"Kreisangehörige_Gemeinde"},"district":{"key":"06435","name":"Main-Kinzig-Kreis","type":"Landkreis"},"federalState":{"key":"06","name":"Hessen"}},{"name":"Am Altenzentrum","postalCode":"63517","locality":"Rodenbach","municipality":{"key":"06435023","name":"Rodenbach","type":"Kreisangehörige_Gemeinde"},"district":{"key":"06435","name":"Main-Kinzig-Kreis","type":"Landkreis"},"federalState":{"key":"06","name":"Hessen"}},{"name":"Am Berggarten","postalCode":"63517","locality":"Rodenbach","municipality":{"key":"06435023","name":"Rodenbach","type":"Kreisangehörige_Gemeinde"},"district":{"key":"06435","name":"Main-Kinzig-Kreis","type":"Landkreis"},"federalState":{"key":"06","name":"Hessen"}},{"name":"Am Buchberg","postalCode":"63517","locality":"Rodenbach","municipality":{"key":"06435023","name":"Rodenbach","type":"Kreisangehörige_Gemeinde"},"district":{"key":"06435","name":"Main-Kinzig-Kreis","type":"Landkreis"},"federalState":{"key":"06","name":"Hessen"}},{"name":"Am Dorf","postalCode":"63517","locality":"Rodenbach","municipality":{"key":"06435023","name":"Rodenbach","type":"Kreisangehörige_Gemeinde"},"district":{"key":"06435","name":"Main-Kinzig-Kreis","type":"Landkreis"},"federalState":{"key":"06","name":"Hessen"}},{"name":"Am Ebelhof","postalCode":"63517","locality":"Rodenbach","municipality":{"key":"06435023","name":"Rodenbach","type":"Kreisangehörige_Gemeinde"},"district":{"key":"06435","name":"Main-Kinzig-Kreis","type":"Landkreis"},"federalState":{"key":"06","name":"Hessen"}},{"name":"Am Eichenhain","postalCode":"63517","locality":"Rodenbach","municipality":{"key":"06435023","name":"Rodenbach","type":"Kreisangehörige_Gemeinde"},"district":{"key":"06435","name":"Main-Kinzig-Kreis","type":"Landkreis"},"federalState":{"key":"06","name":"Hessen"}},{"name":"Am Fürstengrab","postalCode":"67688","locality":"Rodenbach","municipality":{"key":"07335040","name":"Rodenbach","type":"Kreisangehörige_Gemeinde"},"district":{"key":"07335","name":"Kaiserslautern","type":"Landkreis"},"federalState":{"key":"07","name":"Rheinland-Pfalz"}},{"name":"Am Gewannenweg","postalCode":"67688","locality":"Rodenbach","municipality":{"key":"07335040","name":"Rodenbach","type":"Kreisangehörige_Gemeinde"},"district":{"key":"07335","name":"Kaiserslautern","type":"Landkreis"},"federalState":{"key":"07","name":"Rheinland-Pfalz"}},{"name":"Am Hang","postalCode":"57639","locality":"Rodenbach bei Puderbach","municipality":{"key":"07138064","name":"Rodenbach bei Puderbach","type":"Kreisangehörige_Gemeinde"},"district":{"key":"07138","name":"Neuwied","type":"Landkreis"},"federalState":{"key":"07","name":"Rheinland-Pfalz"}},{"name":"Am Heidegericht","postalCode":"67688","locality":"Rodenbach","municipality":{"key":"07335040","name":"Rodenbach","type":"Kreisangehörige_Gemeinde"},"district":{"key":"07335","name":"Kaiserslautern","type":"Landkreis"},"federalState":{"key":"07","name":"Rheinland-Pfalz"}},{"name":"Am Keltenplatz","postalCode":"67688","locality":"Rodenbach","municipality":{"key":"07335040","name":"Rodenbach","type":"Kreisangehörige_Gemeinde"},"district":{"key":"07335","name":"Kaiserslautern","type":"Landkreis"},"federalState":{"key":"07","name":"Rheinland-Pfalz"}},{"name":"Am Kirchpfad","postalCode":"63517","locality":"Rodenbach","municipality":{"key":"06435023","name":"Rodenbach","type":"Kreisangehörige_Gemeinde"},"district":{"key":"06435","name":"Main-Kinzig-Kreis","type":"Landkreis"},"federalState":{"key":"06","name":"Hessen"}},{"name":"Am Kunznickel","postalCode":"63517","locality":"Rodenbach","municipality":{"key":"06435023","name":"Rodenbach","type":"Kreisangehörige_Gemeinde"},"district":{"key":"06435","name":"Main-Kinzig-Kreis","type":"Landkreis"},"federalState":{"key":"06","name":"Hessen"}},{"name":"Am Moselhang","postalCode":"56332","locality":"Brodenbach","municipality":{"key":"07137205","name":"Brodenbach","type":"Kreisangehörige_Gemeinde"},"district":{"key":"07137","name":"Mayen-Koblenz","type":"Landkreis"},"federalState":{"key":"07","name":"Rheinland-Pfalz"}},{"name":"Am Ramsteiner Tor","postalCode":"67688","locality":"Rodenbach","municipality":{"key":"07335040","name":"Rodenbach","type":"Kreisangehörige_Gemeinde"},"district":{"key":"07335","name":"Kaiserslautern","type":"Landkreis"},"federalState":{"key":"07","name":"Rheinland-Pfalz"}},{"name":"Am Schlagbaum","postalCode":"67688","locality":"Rodenbach","municipality":{"key":"07335040","name":"Rodenbach","type":"Kreisangehörige_Gemeinde"},"district":{"key":"07335","name":"Kaiserslautern","type":"Landkreis"},"federalState":{"key":"07","name":"Rheinland-Pfalz"}},{"name":"Amselstr.","postalCode":"67688","locality":"Rodenbach","municipality":{"key":"07335040","name":"Rodenbach","type":"Kreisangehörige_Gemeinde"},"district":{"key":"07335","name":"Kaiserslautern","type":"Landkreis"},"federalState":{"key":"07","name":"Rheinland-Pfalz"}},{"name":"Amselweg","postalCode":"63517","locality":"Rodenbach","municipality":{"key":"06435023","name":"Rodenbach","type":"Kreisangehörige_Gemeinde"},"district":{"key":"06435","name":"Main-Kinzig-Kreis","type":"Landkreis"},"federalState":{"key":"06","name":"Hessen"}},{"name":"Am Tannacker","postalCode":"63517","locality":"Rodenbach","municipality":{"key":"06435023","name":"Rodenbach","type":"Kreisangehörige_Gemeinde"},"district":{"key":"06435","name":"Main-Kinzig-Kreis","type":"Landkreis"},"federalState":{"key":"06","name":"Hessen"}},{"name":"Am Tränkwald","postalCode":"67688","locality":"Rodenbach","municipality":{"key":"07335040","name":"Rodenbach","type":"Kreisangehörige_Gemeinde"},"district":{"key":"07335","name":"Kaiserslautern","type":"Landkreis"},"federalState":{"key":"07","name":"Rheinland-Pfalz"}},{"name":"Am Wehrturm","postalCode":"63517","locality":"Rodenbach","municipality":{"key":"06435023","name":"Rodenbach","type":"Kreisangehörige_Gemeinde"},"district":{"key":"06435","name":"Main-Kinzig-Kreis","type":"Landkreis"},"federalState":{"key":"06","name":"Hessen"}},{"name":"Am Zolltor","postalCode":"67688","locality":"Rodenbach","municipality":{"key":"07335040","name":"Rodenbach","type":"Kreisangehörige_Gemeinde"},"district":{"key":"07335","name":"Kaiserslautern","type":"Landkreis"},"federalState":{"key":"07","name":"Rheinland-Pfalz"}},{"name":"An den Kreuzen","postalCode":"67688","locality":"Rodenbach","municipality":{"key":"07335040","name":"Rodenbach","type":"Kreisangehörige_Gemeinde"},"district":{"key":"07335","name":"Kaiserslautern","type":"Landkreis"},"federalState":{"key":"07","name":"Rheinland-Pfalz"}},{"name":"Auf der Bäune","postalCode":"63517","locality":"Rodenbach","municipality":{"key":"06435023","name":"Rodenbach","type":"Kreisangehörige_Gemeinde"},"district":{"key":"06435","name":"Main-Kinzig-Kreis","type":"Landkreis"},"federalState":{"key":"06","name":"Hessen"}},{"name":"Auf der Bleiche","postalCode":"63517","locality":"Rodenbach","municipality":{"key":"06435023","name":"Rodenbach","type":"Kreisangehörige_Gemeinde"},"district":{"key":"06435","name":"Main-Kinzig-Kreis","type":"Landkreis"},"federalState":{"key":"06","name":"Hessen"}},{"name":"Auf der Hainbuche","postalCode":"63517","locality":"Rodenbach","municipality":{"key":"06435023","name":"Rodenbach","type":"Kreisangehörige_Gemeinde"},"district":{"key":"06435","name":"Main-Kinzig-Kreis","type":"Landkreis"},"federalState":{"key":"06","name":"Hessen"}},{"name":"August-Bebel-Str.","postalCode":"63517","locality":"Rodenbach","municipality":{"key":"06435023","name":"Rodenbach","type":"Kreisangehörige_Gemeinde"},"district":{"key":"06435","name":"Main-Kinzig-Kreis","type":"Landkreis"},"federalState":{"key":"06","name":"Hessen"}},{"name":"Auheimer Str.","postalCode":"63517","locality":"Rodenbach","municipality":{"key":"06435023","name":"Rodenbach","type":"Kreisangehörige_Gemeinde"},"district":{"key":"06435","name":"Main-Kinzig-Kreis","type":"Landkreis"},"federalState":{"key":"06","name":"Hessen"}},{"name":"Aulstr.","postalCode":"63517","locality":"Rodenbach","municipality":{"key":"06435023","name":"Rodenbach","type":"Kreisangehörige_Gemeinde"},"district":{"key":"06435","name":"Main-Kinzig-Kreis","type":"Landkreis"},"federalState":{"key":"06","name":"Hessen"}},{"name":"Bachgrabenweg","postalCode":"63517","locality":"Rodenbach","municipality":{"key":"06435023","name":"Rodenbach","type":"Kreisangehörige_Gemeinde"},"district":{"key":"06435","name":"Main-Kinzig-Kreis","type":"Landkreis"},"federalState":{"key":"06","name":"Hessen"}},{"name":"Bachstr.","postalCode":"63517","locality":"Rodenbach","municipality":{"key":"06435023","name":"Rodenbach","type":"Kreisangehörige_Gemeinde"},"district":{"key":"06435","name":"Main-Kinzig-Kreis","type":"Landkreis"},"federalState":{"key":"06","name":"Hessen"}},{"name":"Bahnhaus","postalCode":"63517","locality":"Rodenbach","municipality":{"key":"06435023","name":"Rodenbach","type":"Kreisangehörige_Gemeinde"},"district":{"key":"06435","name":"Main-Kinzig-Kreis","type":"Landkreis"},"federalState":{"key":"06","name":"Hessen"}},{"name":"Bahnhofstr.","postalCode":"63517","locality":"Rodenbach","municipality":{"key":"06435023","name":"Rodenbach","type":"Kreisangehörige_Gemeinde"},"district":{"key":"06435","name":"Main-Kinzig-Kreis","type":"Landkreis"},"federalState":{"key":"06","name":"Hessen"}},{"name":"Bahnhofstr.","postalCode":"67688","locality":"Rodenbach","municipality":{"key":"07335040","name":"Rodenbach","type":"Kreisangehörige_Gemeinde"},"district":{"key":"07335","name":"Kaiserslautern","type":"Landkreis"},"federalState":{"key":"07","name":"Rheinland-Pfalz"}},{"name":"Barbarossastr.","postalCode":"63517","locality":"Rodenbach","municipality":{"key":"06435023","name":"Rodenbach","type":"Kreisangehörige_Gemeinde"},"district":{"key":"06435","name":"Main-Kinzig-Kreis","type":"Landkreis"},"federalState":{"key":"06","name":"Hessen"}},{"name":"Baumschulstr.","postalCode":"67688","locality":"Rodenbach","municipality":{"key":"07335040","name":"Rodenbach","type":"Kreisangehörige_Gemeinde"},"district":{"key":"07335","name":"Kaiserslautern","type":"Landkreis"},"federalState":{"key":"07","name":"Rheinland-Pfalz"}},{"name":"Beethovenstr.","postalCode":"63517","locality":"Rodenbach","municipality":{"key":"06435023","name":"Rodenbach","type":"Kreisangehörige_Gemeinde"},"district":{"key":"06435","name":"Main-Kinzig-Kreis","type":"Landkreis"},"federalState":{"key":"06","name":"Hessen"}},{"name":"Bergstr.","postalCode":"57639","locality":"Rodenbach bei Puderbach","municipality":{"key":"07138064","name":"Rodenbach bei Puderbach","type":"Kreisangehörige_Gemeinde"},"district":{"key":"07138","name":"Neuwied","type":"Landkreis"},"federalState":{"key":"07","name":"Rheinland-Pfalz"}},{"name":"Bergstr.","postalCode":"63517","locality":"Rodenbach","municipality":{"key":"06435023","name":"Rodenbach","type":"Kreisangehörige_Gemeinde"},"district":{"key":"06435","name":"Main-Kinzig-Kreis","type":"Landkreis"},"federalState":{"key":"06","name":"Hessen"}},{"name":"Bergstr.","postalCode":"67688","locality":"Rodenbach","municipality":{"key":"07335040","name":"Rodenbach","type":"Kreisangehörige_Gemeinde"},"district":{"key":"07335","name":"Kaiserslautern","type":"Landkreis"},"federalState":{"key":"07","name":"Rheinland-Pfalz"}},{"name":"Bergweg","postalCode":"56332","locality":"Brodenbach","municipality":{"key":"07137205","name":"Brodenbach","type":"Kreisangehörige_Gemeinde"},"district":{"key":"07137","name":"Mayen-Koblenz","type":"Landkreis"},"federalState":{"key":"07","name":"Rheinland-Pfalz"}},{"name":"Berliner Str.","postalCode":"63517","locality":"Rodenbach","municipality":{"key":"06435023","name":"Rodenbach","type":"Kreisangehörige_Gemeinde"},"district":{"key":"06435","name":"Main-Kinzig-Kreis","type":"Landkreis"},"federalState":{"key":"06","name":"Hessen"}},{"name":"Birkenstr.","postalCode":"63517","locality":"Rodenbach","municipality":{"key":"06435023","name":"Rodenbach","type":"Kreisangehörige_Gemeinde"},"district":{"key":"06435","name":"Main-Kinzig-Kreis","type":"Landkreis"},"federalState":{"key":"06","name":"Hessen"}},{"name":"Birkenstr.","postalCode":"67688","locality":"Rodenbach","municipality":{"key":"07335040","name":"Rodenbach","type":"Kreisangehörige_Gemeinde"},"district":{"key":"07335","name":"Kaiserslautern","type":"Landkreis"},"federalState":{"key":"07","name":"Rheinland-Pfalz"}},{"name":"Birkenweg","postalCode":"57639","locality":"Rodenbach bei Puderbach","municipality":{"key":"07138064","name":"Rodenbach bei Puderbach","type":"Kreisangehörige_Gemeinde"},"district":{"key":"07138","name":"Neuwied","type":"Landkreis"},"federalState":{"key":"07","name":"Rheinland-Pfalz"}},{"name":"Bismarckstr.","postalCode":"57639","locality":"Rodenbach bei Puderbach","municipality":{"key":"07138064","name":"Rodenbach bei Puderbach","type":"Kreisangehörige_Gemeinde"},"district":{"key":"07138","name":"Neuwied","type":"Landkreis"},"federalState":{"key":"07","name":"Rheinland-Pfalz"}},{"name":"Blücherstr.","postalCode":"57639","locality":"Rodenbach bei Puderbach","municipality":{"key":"07138064","name":"Rodenbach bei Puderbach","type":"Kreisangehörige_Gemeinde"},"district":{"key":"07138","name":"Neuwied","type":"Landkreis"},"federalState":{"key":"07","name":"Rheinland-Pfalz"}},{"name":"Bogenstr.","postalCode":"63517","locality":"Rodenbach","municipality":{"key":"06435023","name":"Rodenbach","type":"Kreisangehörige_Gemeinde"},"district":{"key":"06435","name":"Main-Kinzig-Kreis","type":"Landkreis"},"federalState":{"key":"06","name":"Hessen"}},{"name":"Bornbachstr.","postalCode":"67688","locality":"Rodenbach","municipality":{"key":"07335040","name":"Rodenbach","type":"Kreisangehörige_Gemeinde"},"district":{"key":"07335","name":"Kaiserslautern","type":"Landkreis"},"federalState":{"key":"07","name":"Rheinland-Pfalz"}},{"name":"Bornstr.","postalCode":"63517","locality":"Rodenbach","municipality":{"key":"06435023","name":"Rodenbach","type":"Kreisangehörige_Gemeinde"},"district":{"key":"06435","name":"Main-Kinzig-Kreis","type":"Landkreis"},"federalState":{"key":"06","name":"Hessen"}},{"name":"Breitwiesen","postalCode":"67688","locality":"Rodenbach","municipality":{"key":"07335040","name":"Rodenbach","type":"Kreisangehörige_Gemeinde"},"district":{"key":"07335","name":"Kaiserslautern","type":"Landkreis"},"federalState":{"key":"07","name":"Rheinland-Pfalz"}},{"name":"Brunnenstr.","postalCode":"63517","locality":"Rodenbach","municipality":{"key":"06435023","name":"Rodenbach","type":"Kreisangehörige_Gemeinde"},"district":{"key":"06435","name":"Main-Kinzig-Kreis","type":"Landkreis"},"federalState":{"key":"06","name":"Hessen"}},{"name":"Brunnenweg","postalCode":"67688","locality":"Rodenbach","municipality":{"key":"07335040","name":"Rodenbach","type":"Kreisangehörige_Gemeinde"},"district":{"key":"07335","name":"Kaiserslautern","type":"Landkreis"},"federalState":{"key":"07","name":"Rheinland-Pfalz"}},{"name":"Buchbergstr.","postalCode":"63517","locality":"Rodenbach","municipality":{"key":"06435023","name":"Rodenbach","type":"Kreisangehörige_Gemeinde"},"district":{"key":"06435","name":"Main-Kinzig-Kreis","type":"Landkreis"},"federalState":{"key":"06","name":"Hessen"}},{"name":"Buchenweg","postalCode":"63517","locality":"Rodenbach","municipality":{"key":"06435023","name":"Rodenbach","type":"Kreisangehörige_Gemeinde"},"district":{"key":"06435","name":"Main-Kinzig-Kreis","type":"Landkreis"},"federalState":{"key":"06","name":"Hessen"}},{"name":"Bulaustr.","postalCode":"63517","locality":"Rodenbach","municipality":{"key":"06435023","name":"Rodenbach","type":"Kreisangehörige_Gemeinde"},"district":{"key":"06435","name":"Main-Kinzig-Kreis","type":"Landkreis"},"federalState":{"key":"06","name":"Hessen"}},{"name":"California Avenue","postalCode":"67661","locality":"Kaiserslautern","municipality":{"key":"07312000","name":"Kaiserslautern, Stadt","type":"Kreisfreie_Stadt"},"district":{"key":"07312","name":"Kaiserslautern, kreisfreie Stadt","type":"Kreisfreie_Stadt"},"federalState":{"key":"07","name":"Rheinland-Pfalz"}},{"name":"Carl-Billand-Str.","postalCode":"67661","locality":"Kaiserslautern","municipality":{"key":"07312000","name":"Kaiserslautern, Stadt","type":"Kreisfreie_Stadt"},"district":{"key":"07312","name":"Kaiserslautern, kreisfreie Stadt","type":"Kreisfreie_Stadt"},"federalState":{"key":"07","name":"Rheinland-Pfalz"}},{"name":"Carl-Diem-Str.","postalCode":"67659","locality":"Kaiserslautern","municipality":{"key":"07312000","name":"Kaiserslautern, Stadt","type":"Kreisfreie_Stadt"},"district":{"key":"07312","name":"Kaiserslautern, kreisfreie Stadt","type":"Kreisfreie_Stadt"},"federalState":{"key":"07","name":"Rheinland-Pfalz"}},{"name":"Carl-Euler-Str.","postalCode":"67663","locality":"Kaiserslautern","municipality":{"key":"07312000","name":"Kaiserslautern, Stadt","type":"Kreisfreie_Stadt"},"district":{"key":"07312","name":"Kaiserslautern, kreisfreie Stadt","type":"Kreisfreie_Stadt"},"federalState":{"key":"07","name":"Rheinland-Pfalz"}},{"name":"Carl-F.-Benz-Str.","postalCode":"67657","locality":"Kaiserslautern","municipality":{"key":"07312000","name":"Kaiserslautern, Stadt","type":"Kreisfreie_Stadt"},"district":{"key":"07312","name":"Kaiserslautern, kreisfreie Stadt","type":"Kreisfreie_Stadt"},"federalState":{"key":"07","name":"Rheinland-Pfalz"}},{"name":"Carl-Jacob-Str.","postalCode":"67659","locality":"Kaiserslautern","municipality":{"key":"07312000","name":"Kaiserslautern, Stadt","type":"Kreisfreie_Stadt"},"district":{"key":"07312","name":"Kaiserslautern, kreisfreie Stadt","type":"Kreisfreie_Stadt"},"federalState":{"key":"07","name":"Rheinland-Pfalz"}},{"name":"Carlo-Schmid-Str.","postalCode":"67663","locality":"Kaiserslautern","municipality":{"key":"07312000","name":"Kaiserslautern, Stadt","type":"Kreisfreie_Stadt"},"district":{"key":"07312","name":"Kaiserslautern, kreisfreie Stadt","type":"Kreisfreie_Stadt"},"federalState":{"key":"07","name":"Rheinland-Pfalz"}},{"name":"Carl-Reichert-Str.","postalCode":"67655","locality":"Kaiserslautern","municipality":{"key":"07312000","name":"Kaiserslautern, Stadt","type":"Kreisfreie_Stadt"},"district":{"key":"07312","name":"Kaiserslautern, kreisfreie Stadt","type":"Kreisfreie_Stadt"},"federalState":{"key":"07","name":"Rheinland-Pfalz"}},{"name":"Carl-Schurz-Str.","postalCode":"67659","locality":"Kaiserslautern","municipality":{"key":"07312000","name":"Kaiserslautern, Stadt","type":"Kreisfreie_Stadt"},"district":{"key":"07312","name":"Kaiserslautern, kreisfreie Stadt","type":"Kreisfreie_Stadt"},"federalState":{"key":"07","name":"Rheinland-Pfalz"}},{"name":"Carl-Sonnenschein-Str.","postalCode":"67663","locality":"Kaiserslautern","municipality":{"key":"07312000","name":"Kaiserslautern, Stadt","type":"Kreisfreie_Stadt"},"district":{"key":"07312","name":"Kaiserslautern, kreisfreie Stadt","type":"Kreisfreie_Stadt"},"federalState":{"key":"07","name":"Rheinland-Pfalz"}},{"name":"Carmerstr.","postalCode":"67661","locality":"Kaiserslautern","municipality":{"key":"07312000","name":"Kaiserslautern, Stadt","type":"Kreisfreie_Stadt"},"district":{"key":"07312","name":"Kaiserslautern, kreisfreie Stadt","type":"Kreisfreie_Stadt"},"federalState":{"key":"07","name":"Rheinland-Pfalz"}},{"name":"Carola-Dauber-Str.","postalCode":"67663","locality":"Kaiserslautern","municipality":{"key":"07312000","name":"Kaiserslautern, Stadt","type":"Kreisfreie_Stadt"},"district":{"key":"07312","name":"Kaiserslautern, kreisfreie Stadt","type":"Kreisfreie_Stadt"},"federalState":{"key":"07","name":"Rheinland-Pfalz"}},{"name":"Carolina Avenue","postalCode":"67661","locality":"Kaiserslautern","municipality":{"key":"07312000","name":"Kaiserslautern, Stadt","type":"Kreisfreie_Stadt"},"district":{"key":"07312","name":"Kaiserslautern, kreisfreie Stadt","type":"Kreisfreie_Stadt"},"federalState":{"key":"07","name":"Rheinland-Pfalz"}},{"name":"Casimirring","postalCode":"67663","locality":"Kaiserslautern","municipality":{"key":"07312000","name":"Kaiserslautern, Stadt","type":"Kreisfreie_Stadt"},"district":{"key":"07312","name":"Kaiserslautern, kreisfreie Stadt","type":"Kreisfreie_Stadt"},"federalState":{"key":"07","name":"Rheinland-Pfalz"}},{"name":"Clara-Immerwahr-Str.","postalCode":"67661","locality":"Kaiserslautern","municipality":{"key":"07312000","name":"Kaiserslautern, Stadt","type":"Kreisfreie_Stadt"},"district":{"key":"07312","name":"Kaiserslautern, kreisfreie Stadt","type":"Kreisfreie_Stadt"},"federalState":{"key":"07","name":"Rheinland-Pfalz"}},{"name":"Colorado Avenue","postalCode":"67661","locality":"Kaiserslautern","municipality":{"key":"07312000","name":"Kaiserslautern, Stadt","type":"Kreisfreie_Stadt"},"district":{"key":"07312","name":"Kaiserslautern, kreisfreie Stadt","type":"Kreisfreie_Stadt"},"federalState":{"key":"07","name":"Rheinland-Pfalz"}},{"name":"Columbia-Str.","postalCode":"67663","locality":"Kaiserslautern","municipality":{"key":"07312000","name":"Kaiserslautern, Stadt","type":"Kreisfreie_Stadt"},"district":{"key":"07312","name":"Kaiserslautern, kreisfreie Stadt","type":"Kreisfreie_Stadt"},"federalState":{"key":"07","name":"Rheinland-Pfalz"}},{"name":"Connecticut Avenue","postalCode":"67661","locality":"Kaiserslautern","municipality":{"key":"07312000","name":"Kaiserslautern, Stadt","type":"Kreisfreie_Stadt"},"district":{"key":"07312","name":"Kaiserslautern, kreisfreie Stadt","type":"Kreisfreie_Stadt"},"federalState":{"key":"07","name":"Rheinland-Pfalz"}},{"name":"Conradstr.","postalCode":"67655","locality":"Kaiserslautern","municipality":{"key":"07312000","name":"Kaiserslautern, Stadt","type":"Kreisfreie_Stadt"},"district":{"key":"07312","name":"Kaiserslautern, kreisfreie Stadt","type":"Kreisfreie_Stadt"},"federalState":{"key":"07","name":"Rheinland-Pfalz"}},{"name":"Cusanusstr.","postalCode":"67663","locality":"Kaiserslautern","municipality":{"key":"07312000","name":"Kaiserslautern, Stadt","type":"Kreisfreie_Stadt"},"district":{"key":"07312","name":"Kaiserslautern, kreisfreie Stadt","type":"Kreisfreie_Stadt"},"federalState":{"key":"07","name":"Rheinland-Pfalz"}},{"name":"Die Weht","postalCode":"63517","locality":"Rodenbach","municipality":{"key":"06435023","name":"Rodenbach","type":"Kreisangehörige_Gemeinde"},"district":{"key":"06435","name":"Main-Kinzig-Kreis","type":"Landkreis"},"federalState":{"key":"06","name":"Hessen"}},{"name":"Dornheckenweg","postalCode":"63517","locality":"Rodenbach","municipality":{"key":"06435023","name":"Rodenbach","type":"Kreisangehörige_Gemeinde"},"district":{"key":"06435","name":"Main-Kinzig-Kreis","type":"Landkreis"},"federalState":{"key":"06","name":"Hessen"}},{"name":"Drosselweg","postalCode":"63517","locality":"Rodenbach","municipality":{"key":"06435023","name":"Rodenbach","type":"Kreisangehörige_Gemeinde"},"district":{"key":"06435","name":"Main-Kinzig-Kreis","type":"Landkreis"},"federalState":{"key":"06","name":"Hessen"}},{"name":"Ehrenburgertal","postalCode":"56332","locality":"Brodenbach","municipality":{"key":"07137205","name":"Brodenbach","type":"Kreisangehörige_Gemeinde"},"district":{"key":"07137","name":"Mayen-Koblenz","type":"Landkreis"},"federalState":{"key":"07","name":"Rheinland-Pfalz"}},{"name":"Ehrenburger Tal","postalCode":"56332","locality":"Brodenbach","municipality":{"key":"07137205","name":"Brodenbach","type":"Kreisangehörige_Gemeinde"},"district":{"key":"07137","name":"Mayen-Koblenz","type":"Landkreis"},"federalState":{"key":"07","name":"Rheinland-Pfalz"}},{"name":"Eichenweg","postalCode":"63517","locality":"Rodenbach","municipality":{"key":"06435023","name":"Rodenbach","type":"Kreisangehörige_Gemeinde"},"district":{"key":"06435","name":"Main-Kinzig-Kreis","type":"Landkreis"},"federalState":{"key":"06","name":"Hessen"}},{"name":"Erfurter Str.","postalCode":"63517","locality":"Rodenbach","municipality":{"key":"06435023","name":"Rodenbach","type":"Kreisangehörige_Gemeinde"},"district":{"key":"06435","name":"Main-Kinzig-Kreis","type":"Landkreis"},"federalState":{"key":"06","name":"Hessen"}},{"name":"Erlenbuschweg","postalCode":"63517","locality":"Rodenbach","municipality":{"key":"06435023","name":"Rodenbach","type":"Kreisangehörige_Gemeinde"},"district":{"key":"06435","name":"Main-Kinzig-Kreis","type":"Landkreis"},"federalState":{"key":"06","name":"Hessen"}},{"name":"Eschenstr.","postalCode":"63517","locality":"Rodenbach","municipality":{"key":"06435023","name":"Rodenbach","type":"Kreisangehörige_Gemeinde"},"district":{"key":"06435","name":"Main-Kinzig-Kreis","type":"Landkreis"},"federalState":{"key":"06","name":"Hessen"}},{"name":"Fasanenweg","postalCode":"63517","locality":"Rodenbach","municipality":{"key":"06435023","name":"Rodenbach","type":"Kreisangehörige_Gemeinde"},"district":{"key":"06435","name":"Main-Kinzig-Kreis","type":"Landkreis"},"federalState":{"key":"06","name":"Hessen"}},{"name":"Feldbergstr.","postalCode":"63517","locality":"Rodenbach","municipality":{"key":"06435023","name":"Rodenbach","type":"Kreisangehörige_Gemeinde"},"district":{"key":"06435","name":"Main-Kinzig-Kreis","type":"Landkreis"},"federalState":{"key":"06","name":"Hessen"}},{"name":"Felsenstr.","postalCode":"67688","locality":"Rodenbach","municipality":{"key":"07335040","name":"Rodenbach","type":"Kreisangehörige_Gemeinde"},"district":{"key":"07335","name":"Kaiserslautern","type":"Landkreis"},"federalState":{"key":"07","name":"Rheinland-Pfalz"}},{"name":"Finkenweg","postalCode":"63517","locality":"Rodenbach","municipality":{"key":"06435023","name":"Rodenbach","type":"Kreisangehörige_Gemeinde"},"district":{"key":"06435","name":"Main-Kinzig-Kreis","type":"Landkreis"},"federalState":{"key":"06","name":"Hessen"}},{"name":"Flurstr.","postalCode":"67688","locality":"Rodenbach","municipality":{"key":"07335040","name":"Rodenbach","type":"Kreisangehörige_Gemeinde"},"district":{"key":"07335","name":"Kaiserslautern","type":"Landkreis"},"federalState":{"key":"07","name":"Rheinland-Pfalz"}},{"name":"Forststr.","postalCode":"63517","locality":"Rodenbach","municipality":{"key":"06435023","name":"Rodenbach","type":"Kreisangehörige_Gemeinde"},"district":{"key":"06435","name":"Main-Kinzig-Kreis","type":"Landkreis"},"federalState":{"key":"06","name":"Hessen"}},{"name":"Frankfurter Str.","postalCode":"63517","locality":"Rodenbach","municipality":{"key":"06435023","name":"Rodenbach","type":"Kreisangehörige_Gemeinde"},"district":{"key":"06435","name":"Main-Kinzig-Kreis","type":"Landkreis"},"federalState":{"key":"06","name":"Hessen"}},{"name":"Freigerichtstr.","postalCode":"63517","locality":"Rodenbach","municipality":{"key":"06435023","name":"Rodenbach","type":"Kreisangehörige_Gemeinde"},"district":{"key":"06435","name":"Main-Kinzig-Kreis","type":"Landkreis"},"federalState":{"key":"06","name":"Hessen"}},{"name":"Friedenstr.","postalCode":"67688","locality":"Rodenbach","municipality":{"key":"07335040","name":"Rodenbach","type":"Kreisangehörige_Gemeinde"},"district":{"key":"07335","name":"Kaiserslautern","type":"Landkreis"},"federalState":{"key":"07","name":"Rheinland-Pfalz"}},{"name":"Friedhofstr.","postalCode":"67688","locality":"Rodenbach","municipality":{"key":"07335040","name":"Rodenbach","type":"Kreisangehörige_Gemeinde"},"district":{"key":"07335","name":"Kaiserslautern","type":"Landkreis"},"federalState":{"key":"07","name":"Rheinland-Pfalz"}},{"name":"Friedrichstr.","postalCode":"57639","locality":"Rodenbach bei Puderbach","municipality":{"key":"07138064","name":"Rodenbach bei Puderbach","type":"Kreisangehörige_Gemeinde"},"district":{"key":"07138","name":"Neuwied","type":"Landkreis"},"federalState":{"key":"07","name":"Rheinland-Pfalz"}},{"name":"Friedrichstr.","postalCode":"63517","locality":"Rodenbach","municipality":{"key":"06435023","name":"Rodenbach","type":"Kreisangehörige_Gemeinde"},"district":{"key":"06435","name":"Main-Kinzig-Kreis","type":"Landkreis"},"federalState":{"key":"06","name":"Hessen"}},{"name":"Fuchsstr.","postalCode":"67688","locality":"Rodenbach","municipality":{"key":"07335040","name":"Rodenbach","type":"Kreisangehörige_Gemeinde"},"district":{"key":"07335","name":"Kaiserslautern","type":"Landkreis"},"federalState":{"key":"07","name":"Rheinland-Pfalz"}},{"name":"Fuldaer Str.","postalCode":"63517","locality":"Rodenbach","municipality":{"key":"06435023","name":"Rodenbach","type":"Kreisangehörige_Gemeinde"},"district":{"key":"06435","name":"Main-Kinzig-Kreis","type":"Landkreis"},"federalState":{"key":"06","name":"Hessen"}},{"name":"Gartenstr.","postalCode":"63517","locality":"Rodenbach","municipality":{"key":"06435023","name":"Rodenbach","type":"Kreisangehörige_Gemeinde"},"district":{"key":"06435","name":"Main-Kinzig-Kreis","type":"Landkreis"},"federalState":{"key":"06","name":"Hessen"}},{"name":"Gartenstr.","postalCode":"67688","locality":"Rodenbach","municipality":{"key":"07335040","name":"Rodenbach","type":"Kreisangehörige_Gemeinde"},"district":{"key":"07335","name":"Kaiserslautern","type":"Landkreis"},"federalState":{"key":"07","name":"Rheinland-Pfalz"}},{"name":"Gelnhäuser Str.","postalCode":"63517","locality":"Rodenbach","municipality":{"key":"06435023","name":"Rodenbach","type":"Kreisangehörige_Gemeinde"},"district":{"key":"06435","name":"Main-Kinzig-Kreis","type":"Landkreis"},"federalState":{"key":"06","name":"Hessen"}},{"name":"Gewerbegebiet","postalCode":"57639","locality":"Rodenbach bei Puderbach","municipality":{"key":"07138064","name":"Rodenbach bei Puderbach","type":"Kreisangehörige_Gemeinde"},"district":{"key":"07138","name":"Neuwied","type":"Landkreis"},"federalState":{"key":"07","name":"Rheinland-Pfalz"}},{"name":"Glockenblumenweg","postalCode":"63517","locality":"Rodenbach","municipality":{"key":"06435023","name":"Rodenbach","type":"Kreisangehörige_Gemeinde"},"district":{"key":"06435","name":"Main-Kinzig-Kreis","type":"Landkreis"},"federalState":{"key":"06","name":"Hessen"}},{"name":"Goethestr.","postalCode":"63517","locality":"Rodenbach","municipality":{"key":"06435023","name":"Rodenbach","type":"Kreisangehörige_Gemeinde"},"district":{"key":"06435","name":"Main-Kinzig-Kreis","type":"Landkreis"},"federalState":{"key":"06","name":"Hessen"}},{"name":"Hainbornstr.","postalCode":"63517","locality":"Rodenbach","municipality":{"key":"06435023","name":"Rodenbach","type":"Kreisangehörige_Gemeinde"},"district":{"key":"06435","name":"Main-Kinzig-Kreis","type":"Landkreis"},"federalState":{"key":"06","name":"Hessen"}},{"name":"Hainstr.","postalCode":"63517","locality":"Rodenbach","municipality":{"key":"06435023","name":"Rodenbach","type":"Kreisangehörige_Gemeinde"},"district":{"key":"06435","name":"Main-Kinzig-Kreis","type":"Landkreis"},"federalState":{"key":"06","name":"Hessen"}},{"name":"Hanauer Landstr.","postalCode":"63517","locality":"Rodenbach","municipality":{"key":"06435023","name":"Rodenbach","type":"Kreisangehörige_Gemeinde"},"district":{"key":"06435","name":"Main-Kinzig-Kreis","type":"Landkreis"},"federalState":{"key":"06","name":"Hessen"}},{"name":"Hanauer Str.","postalCode":"63517","locality":"Rodenbach","municipality":{"key":"06435023","name":"Rodenbach","type":"Kreisangehörige_Gemeinde"},"district":{"key":"06435","name":"Main-Kinzig-Kreis","type":"Landkreis"},"federalState":{"key":"06","name":"Hessen"}},{"name":"Hangstr.","postalCode":"67688","locality":"Rodenbach","municipality":{"key":"07335040","name":"Rodenbach","type":"Kreisangehörige_Gemeinde"},"district":{"key":"07335","name":"Kaiserslautern","type":"Landkreis"},"federalState":{"key":"07","name":"Rheinland-Pfalz"}},{"name":"Hasenstr.","postalCode":"67688","locality":"Rodenbach","municipality":{"key":"07335040","name":"Rodenbach","type":"Kreisangehörige_Gemeinde"},"district":{"key":"07335","name":"Kaiserslautern","type":"Landkreis"},"federalState":{"key":"07","name":"Rheinland-Pfalz"}},{"name":"Hauptstr.","postalCode":"57639","locality":"Rodenbach bei Puderbach","municipality":{"key":"07138064","name":"Rodenbach bei Puderbach","type":"Kreisangehörige_Gemeinde"},"district":{"key":"07138","name":"Neuwied","type":"Landkreis"},"federalState":{"key":"07","name":"Rheinland-Pfalz"}},{"name":"Hauptstr.","postalCode":"63517","locality":"Rodenbach","municipality":{"key":"06435023","name":"Rodenbach","type":"Kreisangehörige_Gemeinde"},"district":{"key":"06435","name":"Main-Kinzig-Kreis","type":"Landkreis"},"federalState":{"key":"06","name":"Hessen"}},{"name":"Hauptstr.","postalCode":"67688","locality":"Rodenbach","municipality":{"key":"07335040","name":"Rodenbach","type":"Kreisangehörige_Gemeinde"},"district":{"key":"07335","name":"Kaiserslautern","type":"Landkreis"},"federalState":{"key":"07","name":"Rheinland-Pfalz"}},{"name":"Heidestr.","postalCode":"67688","locality":"Rodenbach","municipality":{"key":"07335040","name":"Rodenbach","type":"Kreisangehörige_Gemeinde"},"district":{"key":"07335","name":"Kaiserslautern","type":"Landkreis"},"federalState":{"key":"07","name":"Rheinland-Pfalz"}},{"name":"Heinrich-Heine-Str.","postalCode":"63517","locality":"Rodenbach","municipality":{"key":"06435023","name":"Rodenbach","type":"Kreisangehörige_Gemeinde"},"district":{"key":"06435","name":"Main-Kinzig-Kreis","type":"Landkreis"},"federalState":{"key":"06","name":"Hessen"}},{"name":"Helingsweg","postalCode":"57639","locality":"Rodenbach bei Puderbach","municipality":{"key":"07138064","name":"Rodenbach bei Puderbach","type":"Kreisangehörige_Gemeinde"},"district":{"key":"07138","name":"Neuwied","type":"Landkreis"},"federalState":{"key":"07","name":"Rheinland-Pfalz"}},{"name":"Hohlstr.","postalCode":"67688","locality":"Rodenbach","municipality":{"key":"07335040","name":"Rodenbach","type":"Kreisangehörige_Gemeinde"},"district":{"key":"07335","name":"Kaiserslautern","type":"Landkreis"},"federalState":{"key":"07","name":"Rheinland-Pfalz"}},{"name":"Hohlweg","postalCode":"57639","locality":"Rodenbach bei Puderbach","municipality":{"key":"07138064","name":"Rodenbach bei Puderbach","type":"Kreisangehörige_Gemeinde"},"district":{"key":"07138","name":"Neuwied","type":"Landkreis"},"federalState":{"key":"07","name":"Rheinland-Pfalz"}},{"name":"Holunderweg","postalCode":"57639","locality":"Rodenbach bei Puderbach","municipality":{"key":"07138064","name":"Rodenbach bei Puderbach","type":"Kreisangehörige_Gemeinde"},"district":{"key":"07138","name":"Neuwied","type":"Landkreis"},"federalState":{"key":"07","name":"Rheinland-Pfalz"}},{"name":"Hübelbrunnenstr.","postalCode":"67688","locality":"Rodenbach","municipality":{"key":"07335040","name":"Rodenbach","type":"Kreisangehörige_Gemeinde"},"district":{"key":"07335","name":"Kaiserslautern","type":"Landkreis"},"federalState":{"key":"07","name":"Rheinland-Pfalz"}},{"name":"Hübelstr.","postalCode":"67688","locality":"Rodenbach","municipality":{"key":"07335040","name":"Rodenbach","type":"Kreisangehörige_Gemeinde"},"district":{"key":"07335","name":"Kaiserslautern","type":"Landkreis"},"federalState":{"key":"07","name":"Rheinland-Pfalz"}},{"name":"Im Butschlich","postalCode":"63517","locality":"Rodenbach","municipality":{"key":"06435023","name":"Rodenbach","type":"Kreisangehörige_Gemeinde"},"district":{"key":"06435","name":"Main-Kinzig-Kreis","type":"Landkreis"},"federalState":{"key":"06","name":"Hessen"}},{"name":"Im Drisselfeld","postalCode":"63517","locality":"Rodenbach","municipality":{"key":"06435023","name":"Rodenbach","type":"Kreisangehörige_Gemeinde"},"district":{"key":"06435","name":"Main-Kinzig-Kreis","type":"Landkreis"},"federalState":{"key":"06","name":"Hessen"}},{"name":"Im Heegholz","postalCode":"63517","locality":"Rodenbach","municipality":{"key":"06435023","name":"Rodenbach","type":"Kreisangehörige_Gemeinde"},"district":{"key":"06435","name":"Main-Kinzig-Kreis","type":"Landkreis"},"federalState":{"key":"06","name":"Hessen"}},{"name":"Im Heidefeld","postalCode":"67688","locality":"Rodenbach","municipality":{"key":"07335040","name":"Rodenbach","type":"Kreisangehörige_Gemeinde"},"district":{"key":"07335","name":"Kaiserslautern","type":"Landkreis"},"federalState":{"key":"07","name":"Rheinland-Pfalz"}},{"name":"Im Kleegarten","postalCode":"63517","locality":"Rodenbach","municipality":{"key":"06435023","name":"Rodenbach","type":"Kreisangehörige_Gemeinde"},"district":{"key":"06435","name":"Main-Kinzig-Kreis","type":"Landkreis"},"federalState":{"key":"06","name":"Hessen"}},{"name":"Im Lochseif","postalCode":"63517","locality":"Rodenbach","municipality":{"key":"06435023","name":"Rodenbach","type":"Kreisangehörige_Gemeinde"},"district":{"key":"06435","name":"Main-Kinzig-Kreis","type":"Landkreis"},"federalState":{"key":"06","name":"Hessen"}},{"name":"Im Moorkamp","postalCode":"56332","locality":"Brodenbach","municipality":{"key":"07137205","name":"Brodenbach","type":"Kreisangehörige_Gemeinde"},"district":{"key":"07137","name":"Mayen-Koblenz","type":"Landkreis"},"federalState":{"key":"07","name":"Rheinland-Pfalz"}},{"name":"Im Preulgarten","postalCode":"63517","locality":"Rodenbach","municipality":{"key":"06435023","name":"Rodenbach","type":"Kreisangehörige_Gemeinde"},"district":{"key":"06435","name":"Main-Kinzig-Kreis","type":"Landkreis"},"federalState":{"key":"06","name":"Hessen"}},{"name":"Im Sälig","postalCode":"63517","locality":"Rodenbach","municipality":{"key":"06435023","name":"Rodenbach","type":"Kreisangehörige_Gemeinde"},"district":{"key":"06435","name":"Main-Kinzig-Kreis","type":"Landkreis"},"federalState":{"key":"06","name":"Hessen"}},{"name":"Im Sonnenwinkel","postalCode":"56332","locality":"Brodenbach","municipality":{"key":"07137205","name":"Brodenbach","type":"Kreisangehörige_Gemeinde"},"district":{"key":"07137","name":"Mayen-Koblenz","type":"Landkreis"},"federalState":{"key":"07","name":"Rheinland-Pfalz"}},{"name":"Im Weidenfeld","postalCode":"63517","locality":"Rodenbach","municipality":{"key":"06435023","name":"Rodenbach","type":"Kreisangehörige_Gemeinde"},"district":{"key":"06435","name":"Main-Kinzig-Kreis","type":"Landkreis"},"federalState":{"key":"06","name":"Hessen"}},{"name":"Im Winkeltal","postalCode":"63517","locality":"Rodenbach","municipality":{"key":"06435023","name":"Rodenbach","type":"Kreisangehörige_Gemeinde"},"district":{"key":"06435","name":"Main-Kinzig-Kreis","type":"Landkreis"},"federalState":{"key":"06","name":"Hessen"}},{"name":"In den Krehlwiesen","postalCode":"63517","locality":"Rodenbach","municipality":{"key":"06435023","name":"Rodenbach","type":"Kreisangehörige_Gemeinde"},"district":{"key":"06435","name":"Main-Kinzig-Kreis","type":"Landkreis"},"federalState":{"key":"06","name":"Hessen"}},{"name":"In den Steinäckern","postalCode":"63517","locality":"Rodenbach","municipality":{"key":"06435023","name":"Rodenbach","type":"Kreisangehörige_Gemeinde"},"district":{"key":"06435","name":"Main-Kinzig-Kreis","type":"Landkreis"},"federalState":{"key":"06","name":"Hessen"}},{"name":"In der Au","postalCode":"67688","locality":"Rodenbach","municipality":{"key":"07335040","name":"Rodenbach","type":"Kreisangehörige_Gemeinde"},"district":{"key":"07335","name":"Kaiserslautern","type":"Landkreis"},"federalState":{"key":"07","name":"Rheinland-Pfalz"}},{"name":"In der Gartel","postalCode":"63517","locality":"Rodenbach","municipality":{"key":"06435023","name":"Rodenbach","type":"Kreisangehörige_Gemeinde"},"district":{"key":"06435","name":"Main-Kinzig-Kreis","type":"Landkreis"},"federalState":{"key":"06","name":"Hessen"}},{"name":"In der Weißerde","postalCode":"67688","locality":"Rodenbach","municipality":{"key":"07335040","name":"Rodenbach","type":"Kreisangehörige_Gemeinde"},"district":{"key":"07335","name":"Kaiserslautern","type":"Landkreis"},"federalState":{"key":"07","name":"Rheinland-Pfalz"}},{"name":"Industriestr.","postalCode":"63517","locality":"Rodenbach","municipality":{"key":"06435023","name":"Rodenbach","type":"Kreisangehörige_Gemeinde"},"district":{"key":"06435","name":"Main-Kinzig-Kreis","type":"Landkreis"},"federalState":{"key":"06","name":"Hessen"}},{"name":"Jahnstr.","postalCode":"57639","locality":"Rodenbach bei Puderbach","municipality":{"key":"07138064","name":"Rodenbach bei Puderbach","type":"Kreisangehörige_Gemeinde"},"district":{"key":"07138","name":"Neuwied","type":"Landkreis"},"federalState":{"key":"07","name":"Rheinland-Pfalz"}},{"name":"Jahnstr.","postalCode":"63517","locality":"Rodenbach","municipality":{"key":"06435023","name":"Rodenbach","type":"Kreisangehörige_Gemeinde"},"district":{"key":"06435","name":"Main-Kinzig-Kreis","type":"Landkreis"},"federalState":{"key":"06","name":"Hessen"}},{"name":"Kastanienstr.","postalCode":"63517","locality":"Rodenbach","municipality":{"key":"06435023","name":"Rodenbach","type":"Kreisangehörige_Gemeinde"},"district":{"key":"06435","name":"Main-Kinzig-Kreis","type":"Landkreis"},"federalState":{"key":"06","name":"Hessen"}},{"name":"Keltengrund","postalCode":"67688","locality":"Rodenbach","municipality":{"key":"07335040","name":"Rodenbach","type":"Kreisangehörige_Gemeinde"},"district":{"key":"07335","name":"Kaiserslautern","type":"Landkreis"},"federalState":{"key":"07","name":"Rheinland-Pfalz"}},{"name":"Keltenweg","postalCode":"67688","locality":"Rodenbach","municipality":{"key":"07335040","name":"Rodenbach","type":"Kreisangehörige_Gemeinde"},"district":{"key":"07335","name":"Kaiserslautern","type":"Landkreis"},"federalState":{"key":"07","name":"Rheinland-Pfalz"}},{"name":"Kinzigstr.","postalCode":"63517","locality":"Rodenbach","municipality":{"key":"06435023","name":"Rodenbach","type":"Kreisangehörige_Gemeinde"},"district":{"key":"06435","name":"Main-Kinzig-Kreis","type":"Landkreis"},"federalState":{"key":"06","name":"Hessen"}},{"name":"Kirchenstr.","postalCode":"67688","locality":"Rodenbach","municipality":{"key":"07335040","name":"Rodenbach","type":"Kreisangehörige_Gemeinde"},"district":{"key":"07335","name":"Kaiserslautern","type":"Landkreis"},"federalState":{"key":"07","name":"Rheinland-Pfalz"}},{"name":"Kirchstr.","postalCode":"57639","locality":"Rodenbach bei Puderbach","municipality":{"key":"07138064","name":"Rodenbach bei Puderbach","type":"Kreisangehörige_Gemeinde"},"district":{"key":"07138","name":"Neuwied","type":"Landkreis"},"federalState":{"key":"07","name":"Rheinland-Pfalz"}},{"name":"Kirchstr.","postalCode":"63517","locality":"Rodenbach","municipality":{"key":"06435023","name":"Rodenbach","type":"Kreisangehörige_Gemeinde"},"district":{"key":"06435","name":"Main-Kinzig-Kreis","type":"Landkreis"},"federalState":{"key":"06","name":"Hessen"}},{"name":"Kleine Str.","postalCode":"63517","locality":"Rodenbach","municipality":{"key":"06435023","name":"Rodenbach","type":"Kreisangehörige_Gemeinde"},"district":{"key":"06435","name":"Main-Kinzig-Kreis","type":"Landkreis"},"federalState":{"key":"06","name":"Hessen"}},{"name":"Kunznickelstr.","postalCode":"63517","locality":"Rodenbach","municipality":{"key":"06435023","name":"Rodenbach","type":"Kreisangehörige_Gemeinde"},"district":{"key":"06435","name":"Main-Kinzig-Kreis","type":"Landkreis"},"federalState":{"key":"06","name":"Hessen"}},{"name":"Ladenstr.","postalCode":"63517","locality":"Rodenbach","municipality":{"key":"06435023","name":"Rodenbach","type":"Kreisangehörige_Gemeinde"},"district":{"key":"06435","name":"Main-Kinzig-Kreis","type":"Landkreis"},"federalState":{"key":"06","name":"Hessen"}},{"name":"Landwehrstr.","postalCode":"63517","locality":"Rodenbach","municipality":{"key":"06435023","name":"Rodenbach","type":"Kreisangehörige_Gemeinde"},"district":{"key":"06435","name":"Main-Kinzig-Kreis","type":"Landkreis"},"federalState":{"key":"06","name":"Hessen"}},{"name":"Lehmweg","postalCode":"67688","locality":"Rodenbach","municipality":{"key":"07335040","name":"Rodenbach","type":"Kreisangehörige_Gemeinde"},"district":{"key":"07335","name":"Kaiserslautern","type":"Landkreis"},"federalState":{"key":"07","name":"Rheinland-Pfalz"}},{"name":"Leipziger Str.","postalCode":"63517","locality":"Rodenbach","municipality":{"key":"06435023","name":"Rodenbach","type":"Kreisangehörige_Gemeinde"},"district":{"key":"06435","name":"Main-Kinzig-Kreis","type":"Landkreis"},"federalState":{"key":"06","name":"Hessen"}},{"name":"Lerchenstr.","postalCode":"67688","locality":"Rodenbach","municipality":{"key":"07335040","name":"Rodenbach","type":"Kreisangehörige_Gemeinde"},"district":{"key":"07335","name":"Kaiserslautern","type":"Landkreis"},"federalState":{"key":"07","name":"Rheinland-Pfalz"}},{"name":"Lerchenweg","postalCode":"63517","locality":"Rodenbach","municipality":{"key":"06435023","name":"Rodenbach","type":"Kreisangehörige_Gemeinde"},"district":{"key":"06435","name":"Main-Kinzig-Kreis","type":"Landkreis"},"federalState":{"key":"06","name":"Hessen"}},{"name":"Limesstr.","postalCode":"63517","locality":"Rodenbach","municipality":{"key":"06435023","name":"Rodenbach","type":"Kreisangehörige_Gemeinde"},"district":{"key":"06435","name":"Main-Kinzig-Kreis","type":"Landkreis"},"federalState":{"key":"06","name":"Hessen"}},{"name":"Lindenstr.","postalCode":"63517","locality":"Rodenbach","municipality":{"key":"06435023","name":"Rodenbach","type":"Kreisangehörige_Gemeinde"},"district":{"key":"06435","name":"Main-Kinzig-Kreis","type":"Landkreis"},"federalState":{"key":"06","name":"Hessen"}},{"name":"Linke Mühle","postalCode":"56332","locality":"Brodenbach","municipality":{"key":"07137205","name":"Brodenbach","type":"Kreisangehörige_Gemeinde"},"district":{"key":"07137","name":"Mayen-Koblenz","type":"Landkreis"},"federalState":{"key":"07","name":"Rheinland-Pfalz"}},{"name":"Meisenweg","postalCode":"63517","locality":"Rodenbach","municipality":{"key":"06435023","name":"Rodenbach","type":"Kreisangehörige_Gemeinde"},"district":{"key":"06435","name":"Main-Kinzig-Kreis","type":"Landkreis"},"federalState":{"key":"06","name":"Hessen"}},{"name":"Mittelstr.","postalCode":"57639","locality":"Rodenbach bei Puderbach","municipality":{"key":"07138064","name":"Rodenbach bei Puderbach","type":"Kreisangehörige_Gemeinde"},"district":{"key":"07138","name":"Neuwied","type":"Landkreis"},"federalState":{"key":"07","name":"Rheinland-Pfalz"}},{"name":"Mittelstr.","postalCode":"63517","locality":"Rodenbach","municipality":{"key":"06435023","name":"Rodenbach","type":"Kreisangehörige_Gemeinde"},"district":{"key":"06435","name":"Main-Kinzig-Kreis","type":"Landkreis"},"federalState":{"key":"06","name":"Hessen"}},{"name":"Mittelstr.","postalCode":"67688","locality":"Rodenbach","municipality":{"key":"07335040","name":"Rodenbach","type":"Kreisangehörige_Gemeinde"},"district":{"key":"07335","name":"Kaiserslautern","type":"Landkreis"},"federalState":{"key":"07","name":"Rheinland-Pfalz"}},{"name":"Moselufer","postalCode":"56332","locality":"Brodenbach","municipality":{"key":"07137205","name":"Brodenbach","type":"Kreisangehörige_Gemeinde"},"district":{"key":"07137","name":"Mayen-Koblenz","type":"Landkreis"},"federalState":{"key":"07","name":"Rheinland-Pfalz"}},{"name":"Mozartstr.","postalCode":"63517","locality":"Rodenbach","municipality":{"key":"06435023","name":"Rodenbach","type":"Kreisangehörige_Gemeinde"},"district":{"key":"06435","name":"Main-Kinzig-Kreis","type":"Landkreis"},"federalState":{"key":"06","name":"Hessen"}},{"name":"Mühlstr.","postalCode":"63517","locality":"Rodenbach","municipality":{"key":"06435023","name":"Rodenbach","type":"Kreisangehörige_Gemeinde"},"district":{"key":"06435","name":"Main-Kinzig-Kreis","type":"Landkreis"},"federalState":{"key":"06","name":"Hessen"}},{"name":"Neitzerter Str.","postalCode":"57639","locality":"Rodenbach bei Puderbach","municipality":{"key":"07138064","name":"Rodenbach bei Puderbach","type":"Kreisangehörige_Gemeinde"},"district":{"key":"07138","name":"Neuwied","type":"Landkreis"},"federalState":{"key":"07","name":"Rheinland-Pfalz"}},{"name":"Neustr.","postalCode":"63517","locality":"Rodenbach","municipality":{"key":"06435023","name":"Rodenbach","type":"Kreisangehörige_Gemeinde"},"district":{"key":"06435","name":"Main-Kinzig-Kreis","type":"Landkreis"},"federalState":{"key":"06","name":"Hessen"}},{"name":"Niederbach","postalCode":"56332","locality":"Brodenbach","municipality":{"key":"07137205","name":"Brodenbach","type":"Kreisangehörige_Gemeinde"},"district":{"key":"07137","name":"Mayen-Koblenz","type":"Landkreis"},"federalState":{"key":"07","name":"Rheinland-Pfalz"}},{"name":"Nordring","postalCode":"63517","locality":"Rodenbach","municipality":{"key":"06435023","name":"Rodenbach","type":"Kreisangehörige_Gemeinde"},"district":{"key":"06435","name":"Main-Kinzig-Kreis","type":"Landkreis"},"federalState":{"key":"06","name":"Hessen"}},{"name":"Oberdreiser Str.","postalCode":"57639","locality":"Rodenbach bei Puderbach","municipality":{"key":"07138064","name":"Rodenbach bei Puderbach","type":"Kreisangehörige_Gemeinde"},"district":{"key":"07138","name":"Neuwied","type":"Landkreis"},"federalState":{"key":"07","name":"Rheinland-Pfalz"}},{"name":"Oberrodenbacher Str.","postalCode":"63517","locality":"Rodenbach","municipality":{"key":"06435023","name":"Rodenbach","type":"Kreisangehörige_Gemeinde"},"district":{"key":"06435","name":"Main-Kinzig-Kreis","type":"Landkreis"},"federalState":{"key":"06","name":"Hessen"}},{"name":"Odenwaldstr.","postalCode":"63517","locality":"Rodenbach","municipality":{"key":"06435023","name":"Rodenbach","type":"Kreisangehörige_Gemeinde"},"district":{"key":"06435","name":"Main-Kinzig-Kreis","type":"Landkreis"},"federalState":{"key":"06","name":"Hessen"}},{"name":"Otto-Hahn-Str.","postalCode":"63517","locality":"Rodenbach","municipality":{"key":"06435023","name":"Rodenbach","type":"Kreisangehörige_Gemeinde"},"district":{"key":"06435","name":"Main-Kinzig-Kreis","type":"Landkreis"},"federalState":{"key":"06","name":"Hessen"}},{"name":"Panoramaweg","postalCode":"67688","locality":"Rodenbach","municipality":{"key":"07335040","name":"Rodenbach","type":"Kreisangehörige_Gemeinde"},"district":{"key":"07335","name":"Kaiserslautern","type":"Landkreis"},"federalState":{"key":"07","name":"Rheinland-Pfalz"}},{"name":"Paul-Hindemith-Str.","postalCode":"63517","locality":"Rodenbach","municipality":{"key":"06435023","name":"Rodenbach","type":"Kreisangehörige_Gemeinde"},"district":{"key":"06435","name":"Main-Kinzig-Kreis","type":"Landkreis"},"federalState":{"key":"06","name":"Hessen"}},{"name":"Pfarrhecke","postalCode":"63517","locality":"Rodenbach","municipality":{"key":"06435023","name":"Rodenbach","type":"Kreisangehörige_Gemeinde"},"district":{"key":"06435","name":"Main-Kinzig-Kreis","type":"Landkreis"},"federalState":{"key":"06","name":"Hessen"}},{"name":"Platanenring","postalCode":"63517","locality":"Rodenbach","municipality":{"key":"06435023","name":"Rodenbach","type":"Kreisangehörige_Gemeinde"},"district":{"key":"06435","name":"Main-Kinzig-Kreis","type":"Landkreis"},"federalState":{"key":"06","name":"Hessen"}},{"name":"Quellenstr.","postalCode":"67655","locality":"Kaiserslautern","municipality":{"key":"07312000","name":"Kaiserslautern, Stadt","type":"Kreisfreie_Stadt"},"district":{"key":"07312","name":"Kaiserslautern, kreisfreie Stadt","type":"Kreisfreie_Stadt"},"federalState":{"key":"07","name":"Rheinland-Pfalz"}},{"name":"Rathausstr.","postalCode":"67688","locality":"Rodenbach","municipality":{"key":"07335040","name":"Rodenbach","type":"Kreisangehörige_Gemeinde"},"district":{"key":"07335","name":"Kaiserslautern","type":"Landkreis"},"federalState":{"key":"07","name":"Rheinland-Pfalz"}},{"name":"Reichswaldring","postalCode":"67688","locality":"Rodenbach","municipality":{"key":"07335040","name":"Rodenbach","type":"Kreisangehörige_Gemeinde"},"district":{"key":"07335","name":"Kaiserslautern","type":"Landkreis"},"federalState":{"key":"07","name":"Rheinland-Pfalz"}},{"name":"Rhein-Mosel-Str.","postalCode":"56332","locality":"Brodenbach","municipality":{"key":"07137205","name":"Brodenbach","type":"Kreisangehörige_Gemeinde"},"district":{"key":"07137","name":"Mayen-Koblenz","type":"Landkreis"},"federalState":{"key":"07","name":"Rheinland-Pfalz"}},{"name":"Rhönstr.","postalCode":"63517","locality":"Rodenbach","municipality":{"key":"06435023","name":"Rodenbach","type":"Kreisangehörige_Gemeinde"},"district":{"key":"06435","name":"Main-Kinzig-Kreis","type":"Landkreis"},"federalState":{"key":"06","name":"Hessen"}},{"name":"Riedstr.","postalCode":"63517","locality":"Rodenbach","municipality":{"key":"06435023","name":"Rodenbach","type":"Kreisangehörige_Gemeinde"},"district":{"key":"06435","name":"Main-Kinzig-Kreis","type":"Landkreis"},"federalState":{"key":"06","name":"Hessen"}},{"name":"Ringstr.","postalCode":"56332","locality":"Brodenbach","municipality":{"key":"07137205","name":"Brodenbach","type":"Kreisangehörige_Gemeinde"},"district":{"key":"07137","name":"Mayen-Koblenz","type":"Landkreis"},"federalState":{"key":"07","name":"Rheinland-Pfalz"}},{"name":"Ringstr.","postalCode":"57639","locality":"Rodenbach bei Puderbach","municipality":{"key":"07138064","name":"Rodenbach bei Puderbach","type":"Kreisangehörige_Gemeinde"},"district":{"key":"07138","name":"Neuwied","type":"Landkreis"},"federalState":{"key":"07","name":"Rheinland-Pfalz"}},{"name":"Ringstr.","postalCode":"63517","locality":"Rodenbach","municipality":{"key":"06435023","name":"Rodenbach","type":"Kreisangehörige_Gemeinde"},"district":{"key":"06435","name":"Main-Kinzig-Kreis","type":"Landkreis"},"federalState":{"key":"06","name":"Hessen"}},{"name":"Ringstr.","postalCode":"67688","locality":"Rodenbach","municipality":{"key":"07335040","name":"Rodenbach","type":"Kreisangehörige_Gemeinde"},"district":{"key":"07335","name":"Kaiserslautern","type":"Landkreis"},"federalState":{"key":"07","name":"Rheinland-Pfalz"}},{"name":"Robert-Koch-Str.","postalCode":"63517","locality":"Rodenbach","municipality":{"key":"06435023","name":"Rodenbach","type":"Kreisangehörige_Gemeinde"},"district":{"key":"06435","name":"Main-Kinzig-Kreis","type":"Landkreis"},"federalState":{"key":"06","name":"Hessen"}},{"name":"Rodenbacher Str.","postalCode":"57639","locality":"Rodenbach bei Puderbach","municipality":{"key":"07138064","name":"Rodenbach bei Puderbach","type":"Kreisangehörige_Gemeinde"},"district":{"key":"07138","name":"Neuwied","type":"Landkreis"},"federalState":{"key":"07","name":"Rheinland-Pfalz"}},{"name":"Rodenbacher Weg","postalCode":"63517","locality":"Rodenbach","municipality":{"key":"06435023","name":"Rodenbach","type":"Kreisangehörige_Gemeinde"},"district":{"key":"06435","name":"Main-Kinzig-Kreis","type":"Landkreis"},"federalState":{"key":"06","name":"Hessen"}},{"name":"Ronneburgstr.","postalCode":"63517","locality":"Rodenbach","municipality":{"key":"06435023","name":"Rodenbach","type":"Kreisangehörige_Gemeinde"},"district":{"key":"06435","name":"Main-Kinzig-Kreis","type":"Landkreis"},"federalState":{"key":"06","name":"Hessen"}},{"name":"Rosenstr.","postalCode":"63517","locality":"Rodenbach","municipality":{"key":"06435023","name":"Rodenbach","type":"Kreisangehörige_Gemeinde"},"district":{"key":"06435","name":"Main-Kinzig-Kreis","type":"Landkreis"},"federalState":{"key":"06","name":"Hessen"}},{"name":"Rosenstr.","postalCode":"67688","locality":"Rodenbach","municipality":{"key":"07335040","name":"Rodenbach","type":"Kreisangehörige_Gemeinde"},"district":{"key":"07335","name":"Kaiserslautern","type":"Landkreis"},"federalState":{"key":"07","name":"Rheinland-Pfalz"}},{"name":"Rückinger Str.","postalCode":"63517","locality":"Rodenbach","municipality":{"key":"06435023","name":"Rodenbach","type":"Kreisangehörige_Gemeinde"},"district":{"key":"06435","name":"Main-Kinzig-Kreis","type":"Landkreis"},"federalState":{"key":"06","name":"Hessen"}},{"name":"Salzwiese","postalCode":"56332","locality":"Brodenbach","municipality":{"key":"07137205","name":"Brodenbach","type":"Kreisangehörige_Gemeinde"},"district":{"key":"07137","name":"Mayen-Koblenz","type":"Landkreis"},"federalState":{"key":"07","name":"Rheinland-Pfalz"}},{"name":"Sandhübel","postalCode":"67688","locality":"Rodenbach","municipality":{"key":"07335040","name":"Rodenbach","type":"Kreisangehörige_Gemeinde"},"district":{"key":"07335","name":"Kaiserslautern","type":"Landkreis"},"federalState":{"key":"07","name":"Rheinland-Pfalz"}},{"name":"Sandstr.","postalCode":"67688","locality":"Rodenbach","municipality":{"key":"07335040","name":"Rodenbach","type":"Kreisangehörige_Gemeinde"},"district":{"key":"07335","name":"Kaiserslautern","type":"Landkreis"},"federalState":{"key":"07","name":"Rheinland-Pfalz"}},{"name":"Sandweg","postalCode":"63517","locality":"Rodenbach","municipality":{"key":"06435023","name":"Rodenbach","type":"Kreisangehörige_Gemeinde"},"district":{"key":"06435","name":"Main-Kinzig-Kreis","type":"Landkreis"},"federalState":{"key":"06","name":"Hessen"}},{"name":"Sängerstr.","postalCode":"67688","locality":"Rodenbach","municipality":{"key":"07335040","name":"Rodenbach","type":"Kreisangehörige_Gemeinde"},"district":{"key":"07335","name":"Kaiserslautern","type":"Landkreis"},"federalState":{"key":"07","name":"Rheinland-Pfalz"}},{"name":"Schillerstr.","postalCode":"63517","locality":"Rodenbach","municipality":{"key":"06435023","name":"Rodenbach","type":"Kreisangehörige_Gemeinde"},"district":{"key":"06435","name":"Main-Kinzig-Kreis","type":"Landkreis"},"federalState":{"key":"06","name":"Hessen"}},{"name":"Schönau","postalCode":"56332","locality":"Brodenbach","municipality":{"key":"07137205","name":"Brodenbach","type":"Kreisangehörige_Gemeinde"},"district":{"key":"07137","name":"Mayen-Koblenz","type":"Landkreis"},"federalState":{"key":"07","name":"Rheinland-Pfalz"}},{"name":"Schulstr.","postalCode":"57639","locality":"Rodenbach bei Puderbach","municipality":{"key":"07138064","name":"Rodenbach bei Puderbach","type":"Kreisangehörige_Gemeinde"},"district":{"key":"07138","name":"Neuwied","type":"Landkreis"},"federalState":{"key":"07","name":"Rheinland-Pfalz"}},{"name":"Schulweg","postalCode":"63517","locality":"Rodenbach","municipality":{"key":"06435023","name":"Rodenbach","type":"Kreisangehörige_Gemeinde"},"district":{"key":"06435","name":"Main-Kinzig-Kreis","type":"Landkreis"},"federalState":{"key":"06","name":"Hessen"}},{"name":"Schützenstr.","postalCode":"67688","locality":"Rodenbach","municipality":{"key":"07335040","name":"Rodenbach","type":"Kreisangehörige_Gemeinde"},"district":{"key":"07335","name":"Kaiserslautern","type":"Landkreis"},"federalState":{"key":"07","name":"Rheinland-Pfalz"}},{"name":"Somborner Str.","postalCode":"63517","locality":"Rodenbach","municipality":{"key":"06435023","name":"Rodenbach","type":"Kreisangehörige_Gemeinde"},"district":{"key":"06435","name":"Main-Kinzig-Kreis","type":"Landkreis"},"federalState":{"key":"06","name":"Hessen"}},{"name":"Sonnenstr.","postalCode":"57639","locality":"Rodenbach bei Puderbach","municipality":{"key":"07138064","name":"Rodenbach bei Puderbach","type":"Kreisangehörige_Gemeinde"},"district":{"key":"07138","name":"Neuwied","type":"Landkreis"},"federalState":{"key":"07","name":"Rheinland-Pfalz"}},{"name":"Spessartstr.","postalCode":"63517","locality":"Rodenbach","municipality":{"key":"06435023","name":"Rodenbach","type":"Kreisangehörige_Gemeinde"},"district":{"key":"06435","name":"Main-Kinzig-Kreis","type":"Landkreis"},"federalState":{"key":"06","name":"Hessen"}},{"name":"Sportstr.","postalCode":"67688","locality":"Rodenbach","municipality":{"key":"07335040","name":"Rodenbach","type":"Kreisangehörige_Gemeinde"},"district":{"key":"07335","name":"Kaiserslautern","type":"Landkreis"},"federalState":{"key":"07","name":"Rheinland-Pfalz"}},{"name":"Steimeler Str.","postalCode":"57639","locality":"Rodenbach bei Puderbach","municipality":{"key":"07138064","name":"Rodenbach bei Puderbach","type":"Kreisangehörige_Gemeinde"},"district":{"key":"07138","name":"Neuwied","type":"Landkreis"},"federalState":{"key":"07","name":"Rheinland-Pfalz"}},{"name":"Steinbruchstr.","postalCode":"67688","locality":"Rodenbach","municipality":{"key":"07335040","name":"Rodenbach","type":"Kreisangehörige_Gemeinde"},"district":{"key":"07335","name":"Kaiserslautern","type":"Landkreis"},"federalState":{"key":"07","name":"Rheinland-Pfalz"}},{"name":"Steinheimer Str.","postalCode":"63517","locality":"Rodenbach","municipality":{"key":"06435023","name":"Rodenbach","type":"Kreisangehörige_Gemeinde"},"district":{"key":"06435","name":"Main-Kinzig-Kreis","type":"Landkreis"},"federalState":{"key":"06","name":"Hessen"}},{"name":"Stockborner Str.","postalCode":"67688","locality":"Rodenbach","municipality":{"key":"07335040","name":"Rodenbach","type":"Kreisangehörige_Gemeinde"},"district":{"key":"07335","name":"Kaiserslautern","type":"Landkreis"},"federalState":{"key":"07","name":"Rheinland-Pfalz"}},{"name":"Strandbad Rodenbach","postalCode":"63517","locality":"Rodenbach","municipality":{"key":"06435023","name":"Rodenbach","type":"Kreisangehörige_Gemeinde"},"district":{"key":"06435","name":"Main-Kinzig-Kreis","type":"Landkreis"},"federalState":{"key":"06","name":"Hessen"}},{"name":"Stürzelbacher Str.","postalCode":"57639","locality":"Rodenbach bei Puderbach","municipality":{"key":"07138064","name":"Rodenbach bei Puderbach","type":"Kreisangehörige_Gemeinde"},"district":{"key":"07138","name":"Neuwied","type":"Landkreis"},"federalState":{"key":"07","name":"Rheinland-Pfalz"}},{"name":"Südring","postalCode":"63517","locality":"Rodenbach","municipality":{"key":"06435023","name":"Rodenbach","type":"Kreisangehörige_Gemeinde"},"district":{"key":"06435","name":"Main-Kinzig-Kreis","type":"Landkreis"},"federalState":{"key":"06","name":"Hessen"}},{"name":"Talstr.","postalCode":"63517","locality":"Rodenbach","municipality":{"key":"06435023","name":"Rodenbach","type":"Kreisangehörige_Gemeinde"},"district":{"key":"06435","name":"Main-Kinzig-Kreis","type":"Landkreis"},"federalState":{"key":"06","name":"Hessen"}},{"name":"Tannenstr.","postalCode":"57639","locality":"Rodenbach bei Puderbach","municipality":{"key":"07138064","name":"Rodenbach bei Puderbach","type":"Kreisangehörige_Gemeinde"},"district":{"key":"07138","name":"Neuwied","type":"Landkreis"},"federalState":{"key":"07","name":"Rheinland-Pfalz"}},{"name":"Taunusstr.","postalCode":"63517","locality":"Rodenbach","municipality":{"key":"06435023","name":"Rodenbach","type":"Kreisangehörige_Gemeinde"},"district":{"key":"06435","name":"Main-Kinzig-Kreis","type":"Landkreis"},"federalState":{"key":"06","name":"Hessen"}},{"name":"Turmstr.","postalCode":"67688","locality":"Rodenbach","municipality":{"key":"07335040","name":"Rodenbach","type":"Kreisangehörige_Gemeinde"},"district":{"key":"07335","name":"Kaiserslautern","type":"Landkreis"},"federalState":{"key":"07","name":"Rheinland-Pfalz"}},{"name":"Turnerstr.","postalCode":"67688","locality":"Rodenbach","municipality":{"key":"07335040","name":"Rodenbach","type":"Kreisangehörige_Gemeinde"},"district":{"key":"07335","name":"Kaiserslautern","type":"Landkreis"},"federalState":{"key":"07","name":"Rheinland-Pfalz"}},{"name":"Ulmenstr.","postalCode":"63517","locality":"Rodenbach","municipality":{"key":"06435023","name":"Rodenbach","type":"Kreisangehörige_Gemeinde"},"district":{"key":"06435","name":"Main-Kinzig-Kreis","type":"Landkreis"},"federalState":{"key":"06","name":"Hessen"}},{"name":"Untere Weißlach","postalCode":"67688","locality":"Rodenbach","municipality":{"key":"07335040","name":"Rodenbach","type":"Kreisangehörige_Gemeinde"},"district":{"key":"07335","name":"Kaiserslautern","type":"Landkreis"},"federalState":{"key":"07","name":"Rheinland-Pfalz"}},{"name":"Vogelsbergstr.","postalCode":"63517","locality":"Rodenbach","municipality":{"key":"06435023","name":"Rodenbach","type":"Kreisangehörige_Gemeinde"},"district":{"key":"06435","name":"Main-Kinzig-Kreis","type":"Landkreis"},"federalState":{"key":"06","name":"Hessen"}},{"name":"Vor der Oberpforte","postalCode":"63517","locality":"Rodenbach","municipality":{"key":"06435023","name":"Rodenbach","type":"Kreisangehörige_Gemeinde"},"district":{"key":"06435","name":"Main-Kinzig-Kreis","type":"Landkreis"},"federalState":{"key":"06","name":"Hessen"}},{"name":"Vorm Hain","postalCode":"63517","locality":"Rodenbach","municipality":{"key":"06435023","name":"Rodenbach","type":"Kreisangehörige_Gemeinde"},"district":{"key":"06435","name":"Main-Kinzig-Kreis","type":"Landkreis"},"federalState":{"key":"06","name":"Hessen"}},{"name":"Vorm Stichel","postalCode":"63517","locality":"Rodenbach","municipality":{"key":"06435023","name":"Rodenbach","type":"Kreisangehörige_Gemeinde"},"district":{"key":"06435","name":"Main-Kinzig-Kreis","type":"Landkreis"},"federalState":{"key":"06","name":"Hessen"}},{"name":"Waldstr.","postalCode":"56332","locality":"Brodenbach","municipality":{"key":"07137205","name":"Brodenbach","type":"Kreisangehörige_Gemeinde"},"district":{"key":"07137","name":"Mayen-Koblenz","type":"Landkreis"},"federalState":{"key":"07","name":"Rheinland-Pfalz"}},{"name":"Waldstr.","postalCode":"57639","locality":"Rodenbach bei Puderbach","municipality":{"key":"07138064","name":"Rodenbach bei Puderbach","type":"Kreisangehörige_Gemeinde"},"district":{"key":"07138","name":"Neuwied","type":"Landkreis"},"federalState":{"key":"07","name":"Rheinland-Pfalz"}},{"name":"Waldstr.","postalCode":"63517","locality":"Rodenbach","municipality":{"key":"06435023","name":"Rodenbach","type":"Kreisangehörige_Gemeinde"},"district":{"key":"06435","name":"Main-Kinzig-Kreis","type":"Landkreis"},"federalState":{"key":"06","name":"Hessen"}},{"name":"Waldstr.","postalCode":"67688","locality":"Rodenbach","municipality":{"key":"07335040","name":"Rodenbach","type":"Kreisangehörige_Gemeinde"},"district":{"key":"07335","name":"Kaiserslautern","type":"Landkreis"},"federalState":{"key":"07","name":"Rheinland-Pfalz"}},{"name":"Wehtstr.","postalCode":"63517","locality":"Rodenbach","municipality":{"key":"06435023","name":"Rodenbach","type":"Kreisangehörige_Gemeinde"},"district":{"key":"06435","name":"Main-Kinzig-Kreis","type":"Landkreis"},"federalState":{"key":"06","name":"Hessen"}},{"name":"Weidertsweg","postalCode":"63517","locality":"Rodenbach","municipality":{"key":"06435023","name":"Rodenbach","type":"Kreisangehörige_Gemeinde"},"district":{"key":"06435","name":"Main-Kinzig-Kreis","type":"Landkreis"},"federalState":{"key":"06","name":"Hessen"}},{"name":"Weiherstr.","postalCode":"67688","locality":"Rodenbach","municipality":{"key":"07335040","name":"Rodenbach","type":"Kreisangehörige_Gemeinde"},"district":{"key":"07335","name":"Kaiserslautern","type":"Landkreis"},"federalState":{"key":"07","name":"Rheinland-Pfalz"}},{"name":"Wiesenstr.","postalCode":"63517","locality":"Rodenbach","municipality":{"key":"06435023","name":"Rodenbach","type":"Kreisangehörige_Gemeinde"},"district":{"key":"06435","name":"Main-Kinzig-Kreis","type":"Landkreis"},"federalState":{"key":"06","name":"Hessen"}},{"name":"Wiesenweg","postalCode":"57639","locality":"Rodenbach bei Puderbach","municipality":{"key":"07138064","name":"Rodenbach bei Puderbach","type":"Kreisangehörige_Gemeinde"},"district":{"key":"07138","name":"Neuwied","type":"Landkreis"},"federalState":{"key":"07","name":"Rheinland-Pfalz"}},{"name":"Wilhelmstr.","postalCode":"57639","locality":"Rodenbach bei Puderbach","municipality":{"key":"07138064","name":"Rodenbach bei Puderbach","type":"Kreisangehörige_Gemeinde"},"district":{"key":"07138","name":"Neuwied","type":"Landkreis"},"federalState":{"key":"07","name":"Rheinland-Pfalz"}},{"name":"Wingertstr.","postalCode":"63517","locality":"Rodenbach","municipality":{"key":"06435023","name":"Rodenbach","type":"Kreisangehörige_Gemeinde"},"district":{"key":"06435","name":"Main-Kinzig-Kreis","type":"Landkreis"},"federalState":{"key":"06","name":"Hessen"}},{"name":"Wolfgangstr.","postalCode":"63517","locality":"Rodenbach","municipality":{"key":"06435023","name":"Rodenbach","type":"Kreisangehörige_Gemeinde"},"district":{"key":"06435","name":"Main-Kinzig-Kreis","type":"Landkreis"},"federalState":{"key":"06","name":"Hessen"}},{"name":"Woogstr.","postalCode":"67688","locality":"Rodenbach","municipality":{"key":"07335040","name":"Rodenbach","type":"Kreisangehörige_Gemeinde"},"district":{"key":"07335","name":"Kaiserslautern","type":"Landkreis"},"federalState":{"key":"07","name":"Rheinland-Pfalz"}},{"name":"Würzburger Str.","postalCode":"63517","locality":"Rodenbach","municipality":{"key":"06435023","name":"Rodenbach","type":"Kreisangehörige_Gemeinde"},"district":{"key":"06435","name":"Main-Kinzig-Kreis","type":"Landkreis"},"federalState":{"key":"06","name":"Hessen"}},{"name":"Zum Weiher","postalCode":"57639","locality":"Rodenbach bei Puderbach","municipality":{"key":"07138064","name":"Rodenbach bei Puderbach","type":"Kreisangehörige_Gemeinde"},"district":{"key":"07138","name":"Neuwied","type":"Landkreis"},"federalState":{"key":"07","name":"Rheinland-Pfalz"}},{"name":"Zum Wiesental","postalCode":"57639","locality":"Rodenbach bei Puderbach","municipality":{"key":"07138064","name":"Rodenbach bei Puderbach","type":"Kreisangehörige_Gemeinde"},"district":{"key":"07138","name":"Neuwied","type":"Landkreis"},"federalState":{"key":"07","name":"Rheinland-Pfalz"}},{"name":"Ätzweide","postalCode":"67659","locality":"Kaiserslautern","municipality":{"key":"07312000","name":"Kaiserslautern, Stadt","type":"Kreisfreie_Stadt"},"district":{"key":"07312","name":"Kaiserslautern, kreisfreie Stadt","type":"Kreisfreie_Stadt"},"federalState":{"key":"07","name":"Rheinland-Pfalz"}},]