[{"name":"Ailastr.","postalCode":"96346","locality":"Wallenfels","municipality":{"key":"09476184","name":"Wallenfels, St","type":"Stadt"},"district":{"key":"09476","name":"Kronach","type":"Landkreis"},"federalState":{"key":"09","name":"Bayern"}},{"name":"Am Allerswald","postalCode":"96346","locality":"Wallenfels","municipality":{"key":"09476184","name":"Wallenfels, St","type":"Stadt"},"district":{"key":"09476","name":"Kronach","type":"Landkreis"},"federalState":{"key":"09","name":"Bayern"}},{"name":"Am Fallenholz","postalCode":"96346","locality":"Wallenfels","municipality":{"key":"09476184","name":"Wallenfels, St","type":"Stadt"},"district":{"key":"09476","name":"Kronach","type":"Landkreis"},"federalState":{"key":"09","name":"Bayern"}},{"name":"Am Gemeindewehr","postalCode":"96346","locality":"Wallenfels","municipality":{"key":"09476184","name":"Wallenfels, St","type":"Stadt"},"district":{"key":"09476","name":"Kronach","type":"Landkreis"},"federalState":{"key":"09","name":"Bayern"}},{"name":"Am Reupoldsberg","postalCode":"96346","locality":"Wallenfels","municipality":{"key":"09476184","name":"Wallenfels, St","type":"Stadt"},"district":{"key":"09476","name":"Kronach","type":"Landkreis"},"federalState":{"key":"09","name":"Bayern"}},{"name":"am Reupolsberg","postalCode":"96346","locality":"Wallenfels","municipality":{"key":"09476184","name":"Wallenfels, St","type":"Stadt"},"district":{"key":"09476","name":"Kronach","type":"Landkreis"},"federalState":{"key":"09","name":"Bayern"}},{"name":"Am Schloßberg","postalCode":"96346","locality":"Wallenfels","municipality":{"key":"09476184","name":"Wallenfels, St","type":"Stadt"},"district":{"key":"09476","name":"Kronach","type":"Landkreis"},"federalState":{"key":"09","name":"Bayern"}},{"name":"Am Tanganger","postalCode":"96346","locality":"Wallenfels","municipality":{"key":"09476184","name":"Wallenfels, St","type":"Stadt"},"district":{"key":"09476","name":"Kronach","type":"Landkreis"},"federalState":{"key":"09","name":"Bayern"}},{"name":"Angerstr.","postalCode":"96346","locality":"Wallenfels","municipality":{"key":"09476184","name":"Wallenfels, St","type":"Stadt"},"district":{"key":"09476","name":"Kronach","type":"Landkreis"},"federalState":{"key":"09","name":"Bayern"}},{"name":"Auenstr.","postalCode":"96346","locality":"Wallenfels","municipality":{"key":"09476184","name":"Wallenfels, St","type":"Stadt"},"district":{"key":"09476","name":"Kronach","type":"Landkreis"},"federalState":{"key":"09","name":"Bayern"}},{"name":"Bahnhofstr.","postalCode":"96346","locality":"Wallenfels","municipality":{"key":"09476184","name":"Wallenfels, St","type":"Stadt"},"district":{"key":"09476","name":"Kronach","type":"Landkreis"},"federalState":{"key":"09","name":"Bayern"}},{"name":"Die Fechtn","postalCode":"96346","locality":"Wallenfels","municipality":{"key":"09476184","name":"Wallenfels, St","type":"Stadt"},"district":{"key":"09476","name":"Kronach","type":"Landkreis"},"federalState":{"key":"09","name":"Bayern"}},{"name":"Ebentleinweg","postalCode":"95497","locality":"Goldkronach","municipality":{"key":"09472143","name":"Goldkronach, St","type":"Stadt"},"district":{"key":"09472","name":"Bayreuth","type":"Landkreis"},"federalState":{"key":"09","name":"Bayern"}},{"name":"Egerländer Str.","postalCode":"95497","locality":"Goldkronach","municipality":{"key":"09472143","name":"Goldkronach, St","type":"Stadt"},"district":{"key":"09472","name":"Bayreuth","type":"Landkreis"},"federalState":{"key":"09","name":"Bayern"}},{"name":"Eichendorffstr.","postalCode":"96317","locality":"Kronach","municipality":{"key":"09476145","name":"Kronach, St","type":"Stadt"},"district":{"key":"09476","name":"Kronach","type":"Landkreis"},"federalState":{"key":"09","name":"Bayern"}},{"name":"Ellmershausstr.","postalCode":"96317","locality":"Kronach","municipality":{"key":"09476145","name":"Kronach, St","type":"Stadt"},"district":{"key":"09476","name":"Kronach","type":"Landkreis"},"federalState":{"key":"09","name":"Bayern"}},{"name":"Entmannsdorf","postalCode":"96317","locality":"Kronach","municipality":{"key":"09476145","name":"Kronach, St","type":"Stadt"},"district":{"key":"09476","name":"Kronach","type":"Landkreis"},"federalState":{"key":"09","name":"Bayern"}},{"name":"Erlenstr.","postalCode":"95497","locality":"Goldkronach","municipality":{"key":"09472143","name":"Goldkronach, St","type":"Stadt"},"district":{"key":"09472","name":"Bayreuth","type":"Landkreis"},"federalState":{"key":"09","name":"Bayern"}},{"name":"Frankenwaldstr.","postalCode":"96346","locality":"Wallenfels","municipality":{"key":"09476184","name":"Wallenfels, St","type":"Stadt"},"district":{"key":"09476","name":"Kronach","type":"Landkreis"},"federalState":{"key":"09","name":"Bayern"}},{"name":"Gabelsbergerstr.","postalCode":"96317","locality":"Kronach","municipality":{"key":"09476145","name":"Kronach, St","type":"Stadt"},"district":{"key":"09476","name":"Kronach","type":"Landkreis"},"federalState":{"key":"09","name":"Bayern"}},{"name":"Garküche","postalCode":"96317","locality":"Kronach","municipality":{"key":"09476145","name":"Kronach, St","type":"Stadt"},"district":{"key":"09476","name":"Kronach","type":"Landkreis"},"federalState":{"key":"09","name":"Bayern"}},{"name":"Gartenstr.","postalCode":"96317","locality":"Kronach","municipality":{"key":"09476145","name":"Kronach, St","type":"Stadt"},"district":{"key":"09476","name":"Kronach","type":"Landkreis"},"federalState":{"key":"09","name":"Bayern"}},{"name":"Gartenweg","postalCode":"96317","locality":"Kronach","municipality":{"key":"09476145","name":"Kronach, St","type":"Stadt"},"district":{"key":"09476","name":"Kronach","type":"Landkreis"},"federalState":{"key":"09","name":"Bayern"}},{"name":"Gerbergasse","postalCode":"96317","locality":"Kronach","municipality":{"key":"09476145","name":"Kronach, St","type":"Stadt"},"district":{"key":"09476","name":"Kronach","type":"Landkreis"},"federalState":{"key":"09","name":"Bayern"}},{"name":"Gerhart-Hauptmann-Str.","postalCode":"96317","locality":"Kronach","municipality":{"key":"09476145","name":"Kronach, St","type":"Stadt"},"district":{"key":"09476","name":"Kronach","type":"Landkreis"},"federalState":{"key":"09","name":"Bayern"}},{"name":"Giessübel","postalCode":"96317","locality":"Kronach","municipality":{"key":"09476145","name":"Kronach, St","type":"Stadt"},"district":{"key":"09476","name":"Kronach","type":"Landkreis"},"federalState":{"key":"09","name":"Bayern"}},{"name":"Glosberg","postalCode":"96317","locality":"Kronach","municipality":{"key":"09476145","name":"Kronach, St","type":"Stadt"},"district":{"key":"09476","name":"Kronach","type":"Landkreis"},"federalState":{"key":"09","name":"Bayern"}},{"name":"Goldbergstr.","postalCode":"95497","locality":"Goldkronach","municipality":{"key":"09472143","name":"Goldkronach, St","type":"Stadt"},"district":{"key":"09472","name":"Bayreuth","type":"Landkreis"},"federalState":{"key":"09","name":"Bayern"}},{"name":"Goldkronacher Pfad","postalCode":"95497","locality":"Goldkronach","municipality":{"key":"09472143","name":"Goldkronach, St","type":"Stadt"},"district":{"key":"09472","name":"Bayreuth","type":"Landkreis"},"federalState":{"key":"09","name":"Bayern"}},{"name":"Gottfried-Neukam-Str.","postalCode":"96317","locality":"Kronach","municipality":{"key":"09476145","name":"Kronach, St","type":"Stadt"},"district":{"key":"09476","name":"Kronach","type":"Landkreis"},"federalState":{"key":"09","name":"Bayern"}},{"name":"Grenzacher Str.","postalCode":"96317","locality":"Kronach","municipality":{"key":"09476145","name":"Kronach, St","type":"Stadt"},"district":{"key":"09476","name":"Kronach","type":"Landkreis"},"federalState":{"key":"09","name":"Bayern"}},{"name":"Großes Tal","postalCode":"96317","locality":"Kronach","municipality":{"key":"09476145","name":"Kronach, St","type":"Stadt"},"district":{"key":"09476","name":"Kronach","type":"Landkreis"},"federalState":{"key":"09","name":"Bayern"}},{"name":"Grüne Au","postalCode":"96317","locality":"Kronach","municipality":{"key":"09476145","name":"Kronach, St","type":"Stadt"},"district":{"key":"09476","name":"Kronach","type":"Landkreis"},"federalState":{"key":"09","name":"Bayern"}},{"name":"Gundelsdorfer Str.","postalCode":"96317","locality":"Kronach","municipality":{"key":"09476145","name":"Kronach, St","type":"Stadt"},"district":{"key":"09476","name":"Kronach","type":"Landkreis"},"federalState":{"key":"09","name":"Bayern"}},{"name":"Hauptstr.","postalCode":"96346","locality":"Wallenfels","municipality":{"key":"09476184","name":"Wallenfels, St","type":"Stadt"},"district":{"key":"09476","name":"Kronach","type":"Landkreis"},"federalState":{"key":"09","name":"Bayern"}},{"name":"Höhenweg","postalCode":"96346","locality":"Wallenfels","municipality":{"key":"09476184","name":"Wallenfels, St","type":"Stadt"},"district":{"key":"09476","name":"Kronach","type":"Landkreis"},"federalState":{"key":"09","name":"Bayern"}},{"name":"Im Geusergrund","postalCode":"96346","locality":"Wallenfels","municipality":{"key":"09476184","name":"Wallenfels, St","type":"Stadt"},"district":{"key":"09476","name":"Kronach","type":"Landkreis"},"federalState":{"key":"09","name":"Bayern"}},{"name":"Im Gries","postalCode":"96346","locality":"Wallenfels","municipality":{"key":"09476184","name":"Wallenfels, St","type":"Stadt"},"district":{"key":"09476","name":"Kronach","type":"Landkreis"},"federalState":{"key":"09","name":"Bayern"}},{"name":"Im Schlag","postalCode":"96346","locality":"Wallenfels","municipality":{"key":"09476184","name":"Wallenfels, St","type":"Stadt"},"district":{"key":"09476","name":"Kronach","type":"Landkreis"},"federalState":{"key":"09","name":"Bayern"}},{"name":"Jakob-Degen-Str.","postalCode":"96346","locality":"Wallenfels","municipality":{"key":"09476184","name":"Wallenfels, St","type":"Stadt"},"district":{"key":"09476","name":"Kronach","type":"Landkreis"},"federalState":{"key":"09","name":"Bayern"}},{"name":"Kellerstr.","postalCode":"96346","locality":"Wallenfels","municipality":{"key":"09476184","name":"Wallenfels, St","type":"Stadt"},"district":{"key":"09476","name":"Kronach","type":"Landkreis"},"federalState":{"key":"09","name":"Bayern"}},{"name":"Landesgartenschau-Park","postalCode":"96317","locality":"Kronach","municipality":{"key":"09476145","name":"Kronach, St","type":"Stadt"},"district":{"key":"09476","name":"Kronach","type":"Landkreis"},"federalState":{"key":"09","name":"Bayern"}},{"name":"Langer Steig","postalCode":"96317","locality":"Kronach","municipality":{"key":"09476145","name":"Kronach, St","type":"Stadt"},"district":{"key":"09476","name":"Kronach","type":"Landkreis"},"federalState":{"key":"09","name":"Bayern"}},{"name":"Lärchenweg","postalCode":"95497","locality":"Goldkronach","municipality":{"key":"09472143","name":"Goldkronach, St","type":"Stadt"},"district":{"key":"09472","name":"Bayreuth","type":"Landkreis"},"federalState":{"key":"09","name":"Bayern"}},{"name":"Leisau","postalCode":"95497","locality":"Goldkronach","municipality":{"key":"09472143","name":"Goldkronach, St","type":"Stadt"},"district":{"key":"09472","name":"Bayreuth","type":"Landkreis"},"federalState":{"key":"09","name":"Bayern"}},{"name":"Leisauer Str.","postalCode":"95497","locality":"Goldkronach","municipality":{"key":"09472143","name":"Goldkronach, St","type":"Stadt"},"district":{"key":"09472","name":"Bayreuth","type":"Landkreis"},"federalState":{"key":"09","name":"Bayern"}},{"name":"Lettenweg","postalCode":"95497","locality":"Goldkronach","municipality":{"key":"09472143","name":"Goldkronach, St","type":"Stadt"},"district":{"key":"09472","name":"Bayreuth","type":"Landkreis"},"federalState":{"key":"09","name":"Bayern"}},{"name":"Lichteburgstr.","postalCode":"95497","locality":"Goldkronach","municipality":{"key":"09472143","name":"Goldkronach, St","type":"Stadt"},"district":{"key":"09472","name":"Bayreuth","type":"Landkreis"},"federalState":{"key":"09","name":"Bayern"}},{"name":"Lichtenfelser Str.","postalCode":"96317","locality":"Kronach","municipality":{"key":"09476145","name":"Kronach, St","type":"Stadt"},"district":{"key":"09476","name":"Kronach","type":"Landkreis"},"federalState":{"key":"09","name":"Bayern"}},{"name":"Lindenallee","postalCode":"95497","locality":"Goldkronach","municipality":{"key":"09472143","name":"Goldkronach, St","type":"Stadt"},"district":{"key":"09472","name":"Bayreuth","type":"Landkreis"},"federalState":{"key":"09","name":"Bayern"}},{"name":"Lindenbergstr.","postalCode":"95497","locality":"Goldkronach","municipality":{"key":"09472143","name":"Goldkronach, St","type":"Stadt"},"district":{"key":"09472","name":"Bayreuth","type":"Landkreis"},"federalState":{"key":"09","name":"Bayern"}},{"name":"Lindenstr.","postalCode":"96317","locality":"Kronach","municipality":{"key":"09476145","name":"Kronach, St","type":"Stadt"},"district":{"key":"09476","name":"Kronach","type":"Landkreis"},"federalState":{"key":"09","name":"Bayern"}},{"name":"Lipsenbau","postalCode":"96317","locality":"Kronach","municipality":{"key":"09476145","name":"Kronach, St","type":"Stadt"},"district":{"key":"09476","name":"Kronach","type":"Landkreis"},"federalState":{"key":"09","name":"Bayern"}},{"name":"Lohmühlweg","postalCode":"95497","locality":"Goldkronach","municipality":{"key":"09472143","name":"Goldkronach, St","type":"Stadt"},"district":{"key":"09472","name":"Bayreuth","type":"Landkreis"},"federalState":{"key":"09","name":"Bayern"}},{"name":"Lönshof","postalCode":"96317","locality":"Kronach","municipality":{"key":"09476145","name":"Kronach, St","type":"Stadt"},"district":{"key":"09476","name":"Kronach","type":"Landkreis"},"federalState":{"key":"09","name":"Bayern"}},{"name":"Lönsstr.","postalCode":"96317","locality":"Kronach","municipality":{"key":"09476145","name":"Kronach, St","type":"Stadt"},"district":{"key":"09476","name":"Kronach","type":"Landkreis"},"federalState":{"key":"09","name":"Bayern"}},{"name":"Lorenz-Kaim-Str.","postalCode":"96317","locality":"Kronach","municipality":{"key":"09476145","name":"Kronach, St","type":"Stadt"},"district":{"key":"09476","name":"Kronach","type":"Landkreis"},"federalState":{"key":"09","name":"Bayern"}},{"name":"Lucas-Cranach-Str.","postalCode":"96317","locality":"Kronach","municipality":{"key":"09476145","name":"Kronach, St","type":"Stadt"},"district":{"key":"09476","name":"Kronach","type":"Landkreis"},"federalState":{"key":"09","name":"Bayern"}},{"name":"Ludwigsstädter Str.","postalCode":"96317","locality":"Kronach","municipality":{"key":"09476145","name":"Kronach, St","type":"Stadt"},"district":{"key":"09476","name":"Kronach","type":"Landkreis"},"federalState":{"key":"09","name":"Bayern"}},{"name":"Marktplatz","postalCode":"96346","locality":"Wallenfels","municipality":{"key":"09476184","name":"Wallenfels, St","type":"Stadt"},"district":{"key":"09476","name":"Kronach","type":"Landkreis"},"federalState":{"key":"09","name":"Bayern"}},{"name":"Mühlgrabenstr.","postalCode":"96346","locality":"Wallenfels","municipality":{"key":"09476184","name":"Wallenfels, St","type":"Stadt"},"district":{"key":"09476","name":"Kronach","type":"Landkreis"},"federalState":{"key":"09","name":"Bayern"}},{"name":"Nalser Str.","postalCode":"96317","locality":"Kronach","municipality":{"key":"09476145","name":"Kronach, St","type":"Stadt"},"district":{"key":"09476","name":"Kronach","type":"Landkreis"},"federalState":{"key":"09","name":"Bayern"}},{"name":"Nemmersdorfer Weg","postalCode":"95497","locality":"Goldkronach","municipality":{"key":"09472143","name":"Goldkronach, St","type":"Stadt"},"district":{"key":"09472","name":"Bayreuth","type":"Landkreis"},"federalState":{"key":"09","name":"Bayern"}},{"name":"Neue Siedlung","postalCode":"96317","locality":"Kronach","municipality":{"key":"09476145","name":"Kronach, St","type":"Stadt"},"district":{"key":"09476","name":"Kronach","type":"Landkreis"},"federalState":{"key":"09","name":"Bayern"}},{"name":"Neuglosberg","postalCode":"96317","locality":"Kronach","municipality":{"key":"09476145","name":"Kronach, St","type":"Stadt"},"district":{"key":"09476","name":"Kronach","type":"Landkreis"},"federalState":{"key":"09","name":"Bayern"}},{"name":"Neuseser Mühle","postalCode":"96317","locality":"Kronach","municipality":{"key":"09476145","name":"Kronach, St","type":"Stadt"},"district":{"key":"09476","name":"Kronach","type":"Landkreis"},"federalState":{"key":"09","name":"Bayern"}},{"name":"Niederbronner Str.","postalCode":"96317","locality":"Kronach","municipality":{"key":"09476145","name":"Kronach, St","type":"Stadt"},"district":{"key":"09476","name":"Kronach","type":"Landkreis"},"federalState":{"key":"09","name":"Bayern"}},{"name":"Nikolaus-Schmidt-Str.","postalCode":"96317","locality":"Kronach","municipality":{"key":"09476145","name":"Kronach, St","type":"Stadt"},"district":{"key":"09476","name":"Kronach","type":"Landkreis"},"federalState":{"key":"09","name":"Bayern"}},{"name":"Nikolaussiedlung","postalCode":"96317","locality":"Kronach","municipality":{"key":"09476145","name":"Kronach, St","type":"Stadt"},"district":{"key":"09476","name":"Kronach","type":"Landkreis"},"federalState":{"key":"09","name":"Bayern"}},{"name":"Nordbrücke","postalCode":"96317","locality":"Kronach","municipality":{"key":"09476145","name":"Kronach, St","type":"Stadt"},"district":{"key":"09476","name":"Kronach","type":"Landkreis"},"federalState":{"key":"09","name":"Bayern"}},{"name":"Nordhangweg","postalCode":"95497","locality":"Goldkronach","municipality":{"key":"09472143","name":"Goldkronach, St","type":"Stadt"},"district":{"key":"09472","name":"Bayreuth","type":"Landkreis"},"federalState":{"key":"09","name":"Bayern"}},{"name":"Oberer Flur","postalCode":"96317","locality":"Kronach","municipality":{"key":"09476145","name":"Kronach, St","type":"Stadt"},"district":{"key":"09476","name":"Kronach","type":"Landkreis"},"federalState":{"key":"09","name":"Bayern"}},{"name":"Obere Ziegelangerstr.","postalCode":"96317","locality":"Kronach","municipality":{"key":"09476145","name":"Kronach, St","type":"Stadt"},"district":{"key":"09476","name":"Kronach","type":"Landkreis"},"federalState":{"key":"09","name":"Bayern"}},{"name":"Ostpreußenstr.","postalCode":"95497","locality":"Goldkronach","municipality":{"key":"09472143","name":"Goldkronach, St","type":"Stadt"},"district":{"key":"09472","name":"Bayreuth","type":"Landkreis"},"federalState":{"key":"09","name":"Bayern"}},{"name":"Pfarrer-Gareis-Str.","postalCode":"96346","locality":"Wallenfels","municipality":{"key":"09476184","name":"Wallenfels, St","type":"Stadt"},"district":{"key":"09476","name":"Kronach","type":"Landkreis"},"federalState":{"key":"09","name":"Bayern"}},{"name":"Querstr.","postalCode":"96317","locality":"Kronach","municipality":{"key":"09476145","name":"Kronach, St","type":"Stadt"},"district":{"key":"09476","name":"Kronach","type":"Landkreis"},"federalState":{"key":"09","name":"Bayern"}},{"name":"Rathausgasse","postalCode":"96346","locality":"Wallenfels","municipality":{"key":"09476184","name":"Wallenfels, St","type":"Stadt"},"district":{"key":"09476","name":"Kronach","type":"Landkreis"},"federalState":{"key":"09","name":"Bayern"}},{"name":"Schleusenweg","postalCode":"96346","locality":"Wallenfels","municipality":{"key":"09476184","name":"Wallenfels, St","type":"Stadt"},"district":{"key":"09476","name":"Kronach","type":"Landkreis"},"federalState":{"key":"09","name":"Bayern"}},{"name":"Schützenstr.","postalCode":"96346","locality":"Wallenfels","municipality":{"key":"09476184","name":"Wallenfels, St","type":"Stadt"},"district":{"key":"09476","name":"Kronach","type":"Landkreis"},"federalState":{"key":"09","name":"Bayern"}},{"name":"Selzachtal","postalCode":"96346","locality":"Wallenfels","municipality":{"key":"09476184","name":"Wallenfels, St","type":"Stadt"},"district":{"key":"09476","name":"Kronach","type":"Landkreis"},"federalState":{"key":"09","name":"Bayern"}},{"name":"Siedlung","postalCode":"96346","locality":"Wallenfels","municipality":{"key":"09476184","name":"Wallenfels, St","type":"Stadt"},"district":{"key":"09476","name":"Kronach","type":"Landkreis"},"federalState":{"key":"09","name":"Bayern"}},{"name":"Spitalstr.","postalCode":"96346","locality":"Wallenfels","municipality":{"key":"09476184","name":"Wallenfels, St","type":"Stadt"},"district":{"key":"09476","name":"Kronach","type":"Landkreis"},"federalState":{"key":"09","name":"Bayern"}},{"name":"Tannenstr.","postalCode":"96317","locality":"Kronach","municipality":{"key":"09476145","name":"Kronach, St","type":"Stadt"},"district":{"key":"09476","name":"Kronach","type":"Landkreis"},"federalState":{"key":"09","name":"Bayern"}},{"name":"Tauschendorf","postalCode":"96317","locality":"Kronach","municipality":{"key":"09476145","name":"Kronach, St","type":"Stadt"},"district":{"key":"09476","name":"Kronach","type":"Landkreis"},"federalState":{"key":"09","name":"Bayern"}},{"name":"Thüringer Str.","postalCode":"96317","locality":"Kronach","municipality":{"key":"09476145","name":"Kronach, St","type":"Stadt"},"district":{"key":"09476","name":"Kronach","type":"Landkreis"},"federalState":{"key":"09","name":"Bayern"}},{"name":"Tulpenweg","postalCode":"95497","locality":"Goldkronach","municipality":{"key":"09472143","name":"Goldkronach, St","type":"Stadt"},"district":{"key":"09472","name":"Bayreuth","type":"Landkreis"},"federalState":{"key":"09","name":"Bayern"}},{"name":"Tunnelweg","postalCode":"96317","locality":"Kronach","municipality":{"key":"09476145","name":"Kronach, St","type":"Stadt"},"district":{"key":"09476","name":"Kronach","type":"Landkreis"},"federalState":{"key":"09","name":"Bayern"}},{"name":"Turnstr.","postalCode":"96317","locality":"Kronach","municipality":{"key":"09476145","name":"Kronach, St","type":"Stadt"},"district":{"key":"09476","name":"Kronach","type":"Landkreis"},"federalState":{"key":"09","name":"Bayern"}},{"name":"Untere Bamberger Str.","postalCode":"96317","locality":"Kronach","municipality":{"key":"09476145","name":"Kronach, St","type":"Stadt"},"district":{"key":"09476","name":"Kronach","type":"Landkreis"},"federalState":{"key":"09","name":"Bayern"}},{"name":"Vogtendorf","postalCode":"96317","locality":"Kronach","municipality":{"key":"09476145","name":"Kronach, St","type":"Stadt"},"district":{"key":"09476","name":"Kronach","type":"Landkreis"},"federalState":{"key":"09","name":"Bayern"}},{"name":"Vogtlandstr.","postalCode":"95497","locality":"Goldkronach","municipality":{"key":"09472143","name":"Goldkronach, St","type":"Stadt"},"district":{"key":"09472","name":"Bayreuth","type":"Landkreis"},"federalState":{"key":"09","name":"Bayern"}},{"name":"Wellesmühle","postalCode":"96346","locality":"Wallenfels","municipality":{"key":"09476184","name":"Wallenfels, St","type":"Stadt"},"district":{"key":"09476","name":"Kronach","type":"Landkreis"},"federalState":{"key":"09","name":"Bayern"}},{"name":"Wiesenstr.","postalCode":"96346","locality":"Wallenfels","municipality":{"key":"09476184","name":"Wallenfels, St","type":"Stadt"},"district":{"key":"09476","name":"Kronach","type":"Landkreis"},"federalState":{"key":"09","name":"Bayern"}},{"name":"Ziegelanger","postalCode":"96317","locality":"Kronach","municipality":{"key":"09476145","name":"Kronach, St","type":"Stadt"},"district":{"key":"09476","name":"Kronach","type":"Landkreis"},"federalState":{"key":"09","name":"Bayern"}},{"name":"Ziegelangerbergweg","postalCode":"96317","locality":"Kronach","municipality":{"key":"09476145","name":"Kronach, St","type":"Stadt"},"district":{"key":"09476","name":"Kronach","type":"Landkreis"},"federalState":{"key":"09","name":"Bayern"}},{"name":"Ziegelerden","postalCode":"96317","locality":"Kronach","municipality":{"key":"09476145","name":"Kronach, St","type":"Stadt"},"district":{"key":"09476","name":"Kronach","type":"Landkreis"},"federalState":{"key":"09","name":"Bayern"}},{"name":"Zollbrunn","postalCode":"96317","locality":"Kronach","municipality":{"key":"09476145","name":"Kronach, St","type":"Stadt"},"district":{"key":"09476","name":"Kronach","type":"Landkreis"},"federalState":{"key":"09","name":"Bayern"}},{"name":"Zollbühlweg","postalCode":"96317","locality":"Kronach","municipality":{"key":"09476145","name":"Kronach, St","type":"Stadt"},"district":{"key":"09476","name":"Kronach","type":"Landkreis"},"federalState":{"key":"09","name":"Bayern"}},{"name":"Zollwehrsteig","postalCode":"96317","locality":"Kronach","municipality":{"key":"09476145","name":"Kronach, St","type":"Stadt"},"district":{"key":"09476","name":"Kronach","type":"Landkreis"},"federalState":{"key":"09","name":"Bayern"}},{"name":"Zoppatenstr.","postalCode":"95497","locality":"Goldkronach","municipality":{"key":"09472143","name":"Goldkronach, St","type":"Stadt"},"district":{"key":"09472","name":"Bayreuth","type":"Landkreis"},"federalState":{"key":"09","name":"Bayern"}},{"name":"Zum Gries","postalCode":"96317","locality":"Kronach","municipality":{"key":"09476145","name":"Kronach, St","type":"Stadt"},"district":{"key":"09476","name":"Kronach","type":"Landkreis"},"federalState":{"key":"09","name":"Bayern"}},{"name":"Zum Vogelherd","postalCode":"96317","locality":"Kronach","municipality":{"key":"09476145","name":"Kronach, St","type":"Stadt"},"district":{"key":"09476","name":"Kronach","type":"Landkreis"},"federalState":{"key":"09","name":"Bayern"}},{"name":"Zur Pfalz","postalCode":"96317","locality":"Kronach","municipality":{"key":"09476145","name":"Kronach, St","type":"Stadt"},"district":{"key":"09476","name":"Kronach","type":"Landkreis"},"federalState":{"key":"09","name":"Bayern"}},{"name":"Äußerer Ring","postalCode":"96317","locality":"Kronach","municipality":{"key":"09476145","name":"Kronach, St","type":"Stadt"},"district":{"key":"09476","name":"Kronach","type":"Landkreis"},"federalState":{"key":"09","name":"Bayern"}},]