[{"name":"Adlerweg","postalCode":"75045","locality":"Walzbachtal","municipality":{"key":"08215089","name":"Walzbachtal","type":"Kreisangehörige_Gemeinde"},"district":{"key":"08215","name":"Karlsruhe","type":"Landkreis"},"federalState":{"key":"08","name":"Baden-Württemberg"}},{"name":"Ahornstr.","postalCode":"75045","locality":"Walzbachtal","municipality":{"key":"08215089","name":"Walzbachtal","type":"Kreisangehörige_Gemeinde"},"district":{"key":"08215","name":"Karlsruhe","type":"Landkreis"},"federalState":{"key":"08","name":"Baden-Württemberg"}},{"name":"Alemannenstr.","postalCode":"75045","locality":"Walzbachtal","municipality":{"key":"08215089","name":"Walzbachtal","type":"Kreisangehörige_Gemeinde"},"district":{"key":"08215","name":"Karlsruhe","type":"Landkreis"},"federalState":{"key":"08","name":"Baden-Württemberg"}},{"name":"Alte Str.","postalCode":"75045","locality":"Walzbachtal","municipality":{"key":"08215089","name":"Walzbachtal","type":"Kreisangehörige_Gemeinde"},"district":{"key":"08215","name":"Karlsruhe","type":"Landkreis"},"federalState":{"key":"08","name":"Baden-Württemberg"}},{"name":"Am Böhnlich","postalCode":"75045","locality":"Walzbachtal","municipality":{"key":"08215089","name":"Walzbachtal","type":"Kreisangehörige_Gemeinde"},"district":{"key":"08215","name":"Karlsruhe","type":"Landkreis"},"federalState":{"key":"08","name":"Baden-Württemberg"}},{"name":"Am Bollenberg","postalCode":"75045","locality":"Walzbachtal","municipality":{"key":"08215089","name":"Walzbachtal","type":"Kreisangehörige_Gemeinde"},"district":{"key":"08215","name":"Karlsruhe","type":"Landkreis"},"federalState":{"key":"08","name":"Baden-Württemberg"}},{"name":"Am Falltorgraben","postalCode":"75045","locality":"Walzbachtal","municipality":{"key":"08215089","name":"Walzbachtal","type":"Kreisangehörige_Gemeinde"},"district":{"key":"08215","name":"Karlsruhe","type":"Landkreis"},"federalState":{"key":"08","name":"Baden-Württemberg"}},{"name":"Am Gießhübel","postalCode":"75045","locality":"Walzbachtal","municipality":{"key":"08215089","name":"Walzbachtal","type":"Kreisangehörige_Gemeinde"},"district":{"key":"08215","name":"Karlsruhe","type":"Landkreis"},"federalState":{"key":"08","name":"Baden-Württemberg"}},{"name":"Am Schäferloch","postalCode":"75045","locality":"Walzbachtal","municipality":{"key":"08215089","name":"Walzbachtal","type":"Kreisangehörige_Gemeinde"},"district":{"key":"08215","name":"Karlsruhe","type":"Landkreis"},"federalState":{"key":"08","name":"Baden-Württemberg"}},{"name":"Andreas-Wagner-Str.","postalCode":"75045","locality":"Walzbachtal","municipality":{"key":"08215089","name":"Walzbachtal","type":"Kreisangehörige_Gemeinde"},"district":{"key":"08215","name":"Karlsruhe","type":"Landkreis"},"federalState":{"key":"08","name":"Baden-Württemberg"}},{"name":"Asternweg","postalCode":"75045","locality":"Walzbachtal","municipality":{"key":"08215089","name":"Walzbachtal","type":"Kreisangehörige_Gemeinde"},"district":{"key":"08215","name":"Karlsruhe","type":"Landkreis"},"federalState":{"key":"08","name":"Baden-Württemberg"}},{"name":"Attentalstr.","postalCode":"75045","locality":"Walzbachtal","municipality":{"key":"08215089","name":"Walzbachtal","type":"Kreisangehörige_Gemeinde"},"district":{"key":"08215","name":"Karlsruhe","type":"Landkreis"},"federalState":{"key":"08","name":"Baden-Württemberg"}},{"name":"Auf dem Daubmann","postalCode":"75045","locality":"Walzbachtal","municipality":{"key":"08215089","name":"Walzbachtal","type":"Kreisangehörige_Gemeinde"},"district":{"key":"08215","name":"Karlsruhe","type":"Landkreis"},"federalState":{"key":"08","name":"Baden-Württemberg"}},{"name":"Auf der Halle","postalCode":"75045","locality":"Walzbachtal","municipality":{"key":"08215089","name":"Walzbachtal","type":"Kreisangehörige_Gemeinde"},"district":{"key":"08215","name":"Karlsruhe","type":"Landkreis"},"federalState":{"key":"08","name":"Baden-Württemberg"}},{"name":"B 293","postalCode":"75045","locality":"Walzbachtal","municipality":{"key":"08215089","name":"Walzbachtal","type":"Kreisangehörige_Gemeinde"},"district":{"key":"08215","name":"Karlsruhe","type":"Landkreis"},"federalState":{"key":"08","name":"Baden-Württemberg"}},{"name":"Bachweg","postalCode":"75045","locality":"Walzbachtal","municipality":{"key":"08215089","name":"Walzbachtal","type":"Kreisangehörige_Gemeinde"},"district":{"key":"08215","name":"Karlsruhe","type":"Landkreis"},"federalState":{"key":"08","name":"Baden-Württemberg"}},{"name":"Baderstr.","postalCode":"75045","locality":"Walzbachtal","municipality":{"key":"08215089","name":"Walzbachtal","type":"Kreisangehörige_Gemeinde"},"district":{"key":"08215","name":"Karlsruhe","type":"Landkreis"},"federalState":{"key":"08","name":"Baden-Württemberg"}},{"name":"Bahnhofstr.","postalCode":"75045","locality":"Walzbachtal","municipality":{"key":"08215089","name":"Walzbachtal","type":"Kreisangehörige_Gemeinde"},"district":{"key":"08215","name":"Karlsruhe","type":"Landkreis"},"federalState":{"key":"08","name":"Baden-Württemberg"}},{"name":"Bäuerterwaldweg","postalCode":"75045","locality":"Walzbachtal","municipality":{"key":"08215089","name":"Walzbachtal","type":"Kreisangehörige_Gemeinde"},"district":{"key":"08215","name":"Karlsruhe","type":"Landkreis"},"federalState":{"key":"08","name":"Baden-Württemberg"}},{"name":"Beethovenstr.","postalCode":"75045","locality":"Walzbachtal","municipality":{"key":"08215089","name":"Walzbachtal","type":"Kreisangehörige_Gemeinde"},"district":{"key":"08215","name":"Karlsruhe","type":"Landkreis"},"federalState":{"key":"08","name":"Baden-Württemberg"}},{"name":"Bergallee","postalCode":"75045","locality":"Walzbachtal","municipality":{"key":"08215089","name":"Walzbachtal","type":"Kreisangehörige_Gemeinde"},"district":{"key":"08215","name":"Karlsruhe","type":"Landkreis"},"federalState":{"key":"08","name":"Baden-Württemberg"}},{"name":"Berghohl","postalCode":"75045","locality":"Walzbachtal","municipality":{"key":"08215089","name":"Walzbachtal","type":"Kreisangehörige_Gemeinde"},"district":{"key":"08215","name":"Karlsruhe","type":"Landkreis"},"federalState":{"key":"08","name":"Baden-Württemberg"}},{"name":"Bergstr.","postalCode":"75045","locality":"Walzbachtal","municipality":{"key":"08215089","name":"Walzbachtal","type":"Kreisangehörige_Gemeinde"},"district":{"key":"08215","name":"Karlsruhe","type":"Landkreis"},"federalState":{"key":"08","name":"Baden-Württemberg"}},{"name":"Binsheim","postalCode":"75045","locality":"Walzbachtal","municipality":{"key":"08215089","name":"Walzbachtal","type":"Kreisangehörige_Gemeinde"},"district":{"key":"08215","name":"Karlsruhe","type":"Landkreis"},"federalState":{"key":"08","name":"Baden-Württemberg"}},{"name":"Birkenweg","postalCode":"75045","locality":"Walzbachtal","municipality":{"key":"08215089","name":"Walzbachtal","type":"Kreisangehörige_Gemeinde"},"district":{"key":"08215","name":"Karlsruhe","type":"Landkreis"},"federalState":{"key":"08","name":"Baden-Württemberg"}},{"name":"Blumenstr.","postalCode":"75045","locality":"Walzbachtal","municipality":{"key":"08215089","name":"Walzbachtal","type":"Kreisangehörige_Gemeinde"},"district":{"key":"08215","name":"Karlsruhe","type":"Landkreis"},"federalState":{"key":"08","name":"Baden-Württemberg"}},{"name":"Bollandenstr.","postalCode":"75045","locality":"Walzbachtal","municipality":{"key":"08215089","name":"Walzbachtal","type":"Kreisangehörige_Gemeinde"},"district":{"key":"08215","name":"Karlsruhe","type":"Landkreis"},"federalState":{"key":"08","name":"Baden-Württemberg"}},{"name":"Brahmsweg","postalCode":"75045","locality":"Walzbachtal","municipality":{"key":"08215089","name":"Walzbachtal","type":"Kreisangehörige_Gemeinde"},"district":{"key":"08215","name":"Karlsruhe","type":"Landkreis"},"federalState":{"key":"08","name":"Baden-Württemberg"}},{"name":"Brettener Str.","postalCode":"75045","locality":"Walzbachtal","municipality":{"key":"08215089","name":"Walzbachtal","type":"Kreisangehörige_Gemeinde"},"district":{"key":"08215","name":"Karlsruhe","type":"Landkreis"},"federalState":{"key":"08","name":"Baden-Württemberg"}},{"name":"Bruchsaler Str.","postalCode":"75045","locality":"Walzbachtal","municipality":{"key":"08215089","name":"Walzbachtal","type":"Kreisangehörige_Gemeinde"},"district":{"key":"08215","name":"Karlsruhe","type":"Landkreis"},"federalState":{"key":"08","name":"Baden-Württemberg"}},{"name":"Bruchstr.","postalCode":"75045","locality":"Walzbachtal","municipality":{"key":"08215089","name":"Walzbachtal","type":"Kreisangehörige_Gemeinde"},"district":{"key":"08215","name":"Karlsruhe","type":"Landkreis"},"federalState":{"key":"08","name":"Baden-Württemberg"}},{"name":"Bruchwiesenstr.","postalCode":"75045","locality":"Walzbachtal","municipality":{"key":"08215089","name":"Walzbachtal","type":"Kreisangehörige_Gemeinde"},"district":{"key":"08215","name":"Karlsruhe","type":"Landkreis"},"federalState":{"key":"08","name":"Baden-Württemberg"}},{"name":"Brucknerweg","postalCode":"75045","locality":"Walzbachtal","municipality":{"key":"08215089","name":"Walzbachtal","type":"Kreisangehörige_Gemeinde"},"district":{"key":"08215","name":"Karlsruhe","type":"Landkreis"},"federalState":{"key":"08","name":"Baden-Württemberg"}},{"name":"Brunnenstr.","postalCode":"75045","locality":"Walzbachtal","municipality":{"key":"08215089","name":"Walzbachtal","type":"Kreisangehörige_Gemeinde"},"district":{"key":"08215","name":"Karlsruhe","type":"Landkreis"},"federalState":{"key":"08","name":"Baden-Württemberg"}},{"name":"Brunnenteichweg","postalCode":"75045","locality":"Walzbachtal","municipality":{"key":"08215089","name":"Walzbachtal","type":"Kreisangehörige_Gemeinde"},"district":{"key":"08215","name":"Karlsruhe","type":"Landkreis"},"federalState":{"key":"08","name":"Baden-Württemberg"}},{"name":"Buchenallee","postalCode":"75045","locality":"Walzbachtal","municipality":{"key":"08215089","name":"Walzbachtal","type":"Kreisangehörige_Gemeinde"},"district":{"key":"08215","name":"Karlsruhe","type":"Landkreis"},"federalState":{"key":"08","name":"Baden-Württemberg"}},{"name":"Buchenstr.","postalCode":"75045","locality":"Walzbachtal","municipality":{"key":"08215089","name":"Walzbachtal","type":"Kreisangehörige_Gemeinde"},"district":{"key":"08215","name":"Karlsruhe","type":"Landkreis"},"federalState":{"key":"08","name":"Baden-Württemberg"}},{"name":"Burgstr.","postalCode":"75045","locality":"Walzbachtal","municipality":{"key":"08215089","name":"Walzbachtal","type":"Kreisangehörige_Gemeinde"},"district":{"key":"08215","name":"Karlsruhe","type":"Landkreis"},"federalState":{"key":"08","name":"Baden-Württemberg"}},{"name":"Bussardweg","postalCode":"75045","locality":"Walzbachtal","municipality":{"key":"08215089","name":"Walzbachtal","type":"Kreisangehörige_Gemeinde"},"district":{"key":"08215","name":"Karlsruhe","type":"Landkreis"},"federalState":{"key":"08","name":"Baden-Württemberg"}},{"name":"Cäciliastr.","postalCode":"76135","locality":"Karlsruhe","municipality":{"key":"08212000","name":"Karlsruhe, Stadt","type":"Stadtkreis"},"district":{"key":"08212","name":"Karlsruhe, Stadtkreis","type":"Stadtkreis"},"federalState":{"key":"08","name":"Baden-Württemberg"}},{"name":"Cannstatter Str.","postalCode":"76228","locality":"Karlsruhe","municipality":{"key":"08212000","name":"Karlsruhe, Stadt","type":"Stadtkreis"},"district":{"key":"08212","name":"Karlsruhe, Stadtkreis","type":"Stadtkreis"},"federalState":{"key":"08","name":"Baden-Württemberg"}},{"name":"Carl-Hofer-Str.","postalCode":"76227","locality":"Karlsruhe","municipality":{"key":"08212000","name":"Karlsruhe, Stadt","type":"Stadtkreis"},"district":{"key":"08212","name":"Karlsruhe, Stadtkreis","type":"Stadtkreis"},"federalState":{"key":"08","name":"Baden-Württemberg"}},{"name":"Carl-Langhein-Str.","postalCode":"76229","locality":"Karlsruhe","municipality":{"key":"08212000","name":"Karlsruhe, Stadt","type":"Stadtkreis"},"district":{"key":"08212","name":"Karlsruhe, Stadtkreis","type":"Stadtkreis"},"federalState":{"key":"08","name":"Baden-Württemberg"}},{"name":"Carl-Metz-Str.","postalCode":"76185","locality":"Karlsruhe","municipality":{"key":"08212000","name":"Karlsruhe, Stadt","type":"Stadtkreis"},"district":{"key":"08212","name":"Karlsruhe, Stadtkreis","type":"Stadtkreis"},"federalState":{"key":"08","name":"Baden-Württemberg"}},{"name":"Carl-Schäfer-Str.","postalCode":"76187","locality":"Karlsruhe","municipality":{"key":"08212000","name":"Karlsruhe, Stadt","type":"Stadtkreis"},"district":{"key":"08212","name":"Karlsruhe, Stadtkreis","type":"Stadtkreis"},"federalState":{"key":"08","name":"Baden-Württemberg"}},{"name":"Carl-Schurz-Str.","postalCode":"76187","locality":"Karlsruhe","municipality":{"key":"08212000","name":"Karlsruhe, Stadt","type":"Stadtkreis"},"district":{"key":"08212","name":"Karlsruhe, Stadtkreis","type":"Stadtkreis"},"federalState":{"key":"08","name":"Baden-Württemberg"}},{"name":"Charlottenplatz","postalCode":"76185","locality":"Karlsruhe","municipality":{"key":"08212000","name":"Karlsruhe, Stadt","type":"Stadtkreis"},"district":{"key":"08212","name":"Karlsruhe, Stadtkreis","type":"Stadtkreis"},"federalState":{"key":"08","name":"Baden-Württemberg"}},{"name":"Charlottenstr.","postalCode":"76185","locality":"Karlsruhe","municipality":{"key":"08212000","name":"Karlsruhe, Stadt","type":"Stadtkreis"},"district":{"key":"08212","name":"Karlsruhe, Stadtkreis","type":"Stadtkreis"},"federalState":{"key":"08","name":"Baden-Württemberg"}},{"name":"Christian-Schneider-Str.","postalCode":"76185","locality":"Karlsruhe","municipality":{"key":"08212000","name":"Karlsruhe, Stadt","type":"Stadtkreis"},"district":{"key":"08212","name":"Karlsruhe, Stadtkreis","type":"Stadtkreis"},"federalState":{"key":"08","name":"Baden-Württemberg"}},{"name":"Christofstr.","postalCode":"76227","locality":"Karlsruhe","municipality":{"key":"08212000","name":"Karlsruhe, Stadt","type":"Stadtkreis"},"district":{"key":"08212","name":"Karlsruhe, Stadtkreis","type":"Stadtkreis"},"federalState":{"key":"08","name":"Baden-Württemberg"}},{"name":"Citypark Stadtpark","postalCode":"76137","locality":"Karlsruhe","municipality":{"key":"08212000","name":"Karlsruhe, Stadt","type":"Stadtkreis"},"district":{"key":"08212","name":"Karlsruhe, Stadtkreis","type":"Stadtkreis"},"federalState":{"key":"08","name":"Baden-Württemberg"}},{"name":"Curjel-und-Moser-Str.","postalCode":"76187","locality":"Karlsruhe","municipality":{"key":"08212000","name":"Karlsruhe, Stadt","type":"Stadtkreis"},"district":{"key":"08212","name":"Karlsruhe, Stadtkreis","type":"Stadtkreis"},"federalState":{"key":"08","name":"Baden-Württemberg"}},{"name":"Dahlienweg","postalCode":"75045","locality":"Walzbachtal","municipality":{"key":"08215089","name":"Walzbachtal","type":"Kreisangehörige_Gemeinde"},"district":{"key":"08215","name":"Karlsruhe","type":"Landkreis"},"federalState":{"key":"08","name":"Baden-Württemberg"}},{"name":"Dammstr.","postalCode":"75045","locality":"Walzbachtal","municipality":{"key":"08215089","name":"Walzbachtal","type":"Kreisangehörige_Gemeinde"},"district":{"key":"08215","name":"Karlsruhe","type":"Landkreis"},"federalState":{"key":"08","name":"Baden-Württemberg"}},{"name":"Drechslerstr.","postalCode":"75045","locality":"Walzbachtal","municipality":{"key":"08215089","name":"Walzbachtal","type":"Kreisangehörige_Gemeinde"},"district":{"key":"08215","name":"Karlsruhe","type":"Landkreis"},"federalState":{"key":"08","name":"Baden-Württemberg"}},{"name":"Durlacher Allee","postalCode":"75045","locality":"Walzbachtal","municipality":{"key":"08215089","name":"Walzbachtal","type":"Kreisangehörige_Gemeinde"},"district":{"key":"08215","name":"Karlsruhe","type":"Landkreis"},"federalState":{"key":"08","name":"Baden-Württemberg"}},{"name":"Dürrenbüchiger Weg","postalCode":"75045","locality":"Walzbachtal","municipality":{"key":"08215089","name":"Walzbachtal","type":"Kreisangehörige_Gemeinde"},"district":{"key":"08215","name":"Karlsruhe","type":"Landkreis"},"federalState":{"key":"08","name":"Baden-Württemberg"}},{"name":"Eichenallee","postalCode":"75045","locality":"Walzbachtal","municipality":{"key":"08215089","name":"Walzbachtal","type":"Kreisangehörige_Gemeinde"},"district":{"key":"08215","name":"Karlsruhe","type":"Landkreis"},"federalState":{"key":"08","name":"Baden-Württemberg"}},{"name":"Eichenweg","postalCode":"75045","locality":"Walzbachtal","municipality":{"key":"08215089","name":"Walzbachtal","type":"Kreisangehörige_Gemeinde"},"district":{"key":"08215","name":"Karlsruhe","type":"Landkreis"},"federalState":{"key":"08","name":"Baden-Württemberg"}},{"name":"Eichwaldweg","postalCode":"75045","locality":"Walzbachtal","municipality":{"key":"08215089","name":"Walzbachtal","type":"Kreisangehörige_Gemeinde"},"district":{"key":"08215","name":"Karlsruhe","type":"Landkreis"},"federalState":{"key":"08","name":"Baden-Württemberg"}},{"name":"Erlenweg","postalCode":"75045","locality":"Walzbachtal","municipality":{"key":"08215089","name":"Walzbachtal","type":"Kreisangehörige_Gemeinde"},"district":{"key":"08215","name":"Karlsruhe","type":"Landkreis"},"federalState":{"key":"08","name":"Baden-Württemberg"}},{"name":"Eselsgründlesweg","postalCode":"75045","locality":"Walzbachtal","municipality":{"key":"08215089","name":"Walzbachtal","type":"Kreisangehörige_Gemeinde"},"district":{"key":"08215","name":"Karlsruhe","type":"Landkreis"},"federalState":{"key":"08","name":"Baden-Württemberg"}},{"name":"Eselsweg","postalCode":"75045","locality":"Walzbachtal","municipality":{"key":"08215089","name":"Walzbachtal","type":"Kreisangehörige_Gemeinde"},"district":{"key":"08215","name":"Karlsruhe","type":"Landkreis"},"federalState":{"key":"08","name":"Baden-Württemberg"}},{"name":"Ewiger Weg","postalCode":"75045","locality":"Walzbachtal","municipality":{"key":"08215089","name":"Walzbachtal","type":"Kreisangehörige_Gemeinde"},"district":{"key":"08215","name":"Karlsruhe","type":"Landkreis"},"federalState":{"key":"08","name":"Baden-Württemberg"}},{"name":"Falkenweg","postalCode":"75045","locality":"Walzbachtal","municipality":{"key":"08215089","name":"Walzbachtal","type":"Kreisangehörige_Gemeinde"},"district":{"key":"08215","name":"Karlsruhe","type":"Landkreis"},"federalState":{"key":"08","name":"Baden-Württemberg"}},{"name":"Feldschlagweg","postalCode":"75045","locality":"Walzbachtal","municipality":{"key":"08215089","name":"Walzbachtal","type":"Kreisangehörige_Gemeinde"},"district":{"key":"08215","name":"Karlsruhe","type":"Landkreis"},"federalState":{"key":"08","name":"Baden-Württemberg"}},{"name":"Fichtenallee","postalCode":"75045","locality":"Walzbachtal","municipality":{"key":"08215089","name":"Walzbachtal","type":"Kreisangehörige_Gemeinde"},"district":{"key":"08215","name":"Karlsruhe","type":"Landkreis"},"federalState":{"key":"08","name":"Baden-Württemberg"}},{"name":"Fichtestr.","postalCode":"75045","locality":"Walzbachtal","municipality":{"key":"08215089","name":"Walzbachtal","type":"Kreisangehörige_Gemeinde"},"district":{"key":"08215","name":"Karlsruhe","type":"Landkreis"},"federalState":{"key":"08","name":"Baden-Württemberg"}},{"name":"Finkenweg","postalCode":"75045","locality":"Walzbachtal","municipality":{"key":"08215089","name":"Walzbachtal","type":"Kreisangehörige_Gemeinde"},"district":{"key":"08215","name":"Karlsruhe","type":"Landkreis"},"federalState":{"key":"08","name":"Baden-Württemberg"}},{"name":"Fliederweg","postalCode":"75045","locality":"Walzbachtal","municipality":{"key":"08215089","name":"Walzbachtal","type":"Kreisangehörige_Gemeinde"},"district":{"key":"08215","name":"Karlsruhe","type":"Landkreis"},"federalState":{"key":"08","name":"Baden-Württemberg"}},{"name":"Fontaneweg","postalCode":"75045","locality":"Walzbachtal","municipality":{"key":"08215089","name":"Walzbachtal","type":"Kreisangehörige_Gemeinde"},"district":{"key":"08215","name":"Karlsruhe","type":"Landkreis"},"federalState":{"key":"08","name":"Baden-Württemberg"}},{"name":"Forlenspitzweg","postalCode":"75045","locality":"Walzbachtal","municipality":{"key":"08215089","name":"Walzbachtal","type":"Kreisangehörige_Gemeinde"},"district":{"key":"08215","name":"Karlsruhe","type":"Landkreis"},"federalState":{"key":"08","name":"Baden-Württemberg"}},{"name":"Forststr.","postalCode":"75045","locality":"Walzbachtal","municipality":{"key":"08215089","name":"Walzbachtal","type":"Kreisangehörige_Gemeinde"},"district":{"key":"08215","name":"Karlsruhe","type":"Landkreis"},"federalState":{"key":"08","name":"Baden-Württemberg"}},{"name":"Frankenstr.","postalCode":"75045","locality":"Walzbachtal","municipality":{"key":"08215089","name":"Walzbachtal","type":"Kreisangehörige_Gemeinde"},"district":{"key":"08215","name":"Karlsruhe","type":"Landkreis"},"federalState":{"key":"08","name":"Baden-Württemberg"}},{"name":"Freiheitstr.","postalCode":"75045","locality":"Walzbachtal","municipality":{"key":"08215089","name":"Walzbachtal","type":"Kreisangehörige_Gemeinde"},"district":{"key":"08215","name":"Karlsruhe","type":"Landkreis"},"federalState":{"key":"08","name":"Baden-Württemberg"}},{"name":"Freiherr-vom-Stein-Str.","postalCode":"75045","locality":"Walzbachtal","municipality":{"key":"08215089","name":"Walzbachtal","type":"Kreisangehörige_Gemeinde"},"district":{"key":"08215","name":"Karlsruhe","type":"Landkreis"},"federalState":{"key":"08","name":"Baden-Württemberg"}},{"name":"Friedenstr.","postalCode":"75045","locality":"Walzbachtal","municipality":{"key":"08215089","name":"Walzbachtal","type":"Kreisangehörige_Gemeinde"},"district":{"key":"08215","name":"Karlsruhe","type":"Landkreis"},"federalState":{"key":"08","name":"Baden-Württemberg"}},{"name":"Friedhofstr.","postalCode":"75045","locality":"Walzbachtal","municipality":{"key":"08215089","name":"Walzbachtal","type":"Kreisangehörige_Gemeinde"},"district":{"key":"08215","name":"Karlsruhe","type":"Landkreis"},"federalState":{"key":"08","name":"Baden-Württemberg"}},{"name":"Friedrichstr.","postalCode":"75045","locality":"Walzbachtal","municipality":{"key":"08215089","name":"Walzbachtal","type":"Kreisangehörige_Gemeinde"},"district":{"key":"08215","name":"Karlsruhe","type":"Landkreis"},"federalState":{"key":"08","name":"Baden-Württemberg"}},{"name":"Frühmeßgärten","postalCode":"75045","locality":"Walzbachtal","municipality":{"key":"08215089","name":"Walzbachtal","type":"Kreisangehörige_Gemeinde"},"district":{"key":"08215","name":"Karlsruhe","type":"Landkreis"},"federalState":{"key":"08","name":"Baden-Württemberg"}},{"name":"Frühmessweg","postalCode":"75045","locality":"Walzbachtal","municipality":{"key":"08215089","name":"Walzbachtal","type":"Kreisangehörige_Gemeinde"},"district":{"key":"08215","name":"Karlsruhe","type":"Landkreis"},"federalState":{"key":"08","name":"Baden-Württemberg"}},{"name":"Gänsäckerweg","postalCode":"75045","locality":"Walzbachtal","municipality":{"key":"08215089","name":"Walzbachtal","type":"Kreisangehörige_Gemeinde"},"district":{"key":"08215","name":"Karlsruhe","type":"Landkreis"},"federalState":{"key":"08","name":"Baden-Württemberg"}},{"name":"Gartenstr.","postalCode":"75045","locality":"Walzbachtal","municipality":{"key":"08215089","name":"Walzbachtal","type":"Kreisangehörige_Gemeinde"},"district":{"key":"08215","name":"Karlsruhe","type":"Landkreis"},"federalState":{"key":"08","name":"Baden-Württemberg"}},{"name":"Germanenstr.","postalCode":"75045","locality":"Walzbachtal","municipality":{"key":"08215089","name":"Walzbachtal","type":"Kreisangehörige_Gemeinde"},"district":{"key":"08215","name":"Karlsruhe","type":"Landkreis"},"federalState":{"key":"08","name":"Baden-Württemberg"}},{"name":"Goethestr.","postalCode":"75045","locality":"Walzbachtal","municipality":{"key":"08215089","name":"Walzbachtal","type":"Kreisangehörige_Gemeinde"},"district":{"key":"08215","name":"Karlsruhe","type":"Landkreis"},"federalState":{"key":"08","name":"Baden-Württemberg"}},{"name":"Gondelsheimer Str.","postalCode":"75045","locality":"Walzbachtal","municipality":{"key":"08215089","name":"Walzbachtal","type":"Kreisangehörige_Gemeinde"},"district":{"key":"08215","name":"Karlsruhe","type":"Landkreis"},"federalState":{"key":"08","name":"Baden-Württemberg"}},{"name":"Grillhüttenweg","postalCode":"75045","locality":"Walzbachtal","municipality":{"key":"08215089","name":"Walzbachtal","type":"Kreisangehörige_Gemeinde"},"district":{"key":"08215","name":"Karlsruhe","type":"Landkreis"},"federalState":{"key":"08","name":"Baden-Württemberg"}},{"name":"Grombacher Str.","postalCode":"75045","locality":"Walzbachtal","municipality":{"key":"08215089","name":"Walzbachtal","type":"Kreisangehörige_Gemeinde"},"district":{"key":"08215","name":"Karlsruhe","type":"Landkreis"},"federalState":{"key":"08","name":"Baden-Württemberg"}},{"name":"Habichtweg","postalCode":"75045","locality":"Walzbachtal","municipality":{"key":"08215089","name":"Walzbachtal","type":"Kreisangehörige_Gemeinde"},"district":{"key":"08215","name":"Karlsruhe","type":"Landkreis"},"federalState":{"key":"08","name":"Baden-Württemberg"}},{"name":"Hallenstr.","postalCode":"75045","locality":"Walzbachtal","municipality":{"key":"08215089","name":"Walzbachtal","type":"Kreisangehörige_Gemeinde"},"district":{"key":"08215","name":"Karlsruhe","type":"Landkreis"},"federalState":{"key":"08","name":"Baden-Württemberg"}},{"name":"Hans-Jakob-Weg","postalCode":"75045","locality":"Walzbachtal","municipality":{"key":"08215089","name":"Walzbachtal","type":"Kreisangehörige_Gemeinde"},"district":{"key":"08215","name":"Karlsruhe","type":"Landkreis"},"federalState":{"key":"08","name":"Baden-Württemberg"}},{"name":"Hans-Thoma-Weg","postalCode":"75045","locality":"Walzbachtal","municipality":{"key":"08215089","name":"Walzbachtal","type":"Kreisangehörige_Gemeinde"},"district":{"key":"08215","name":"Karlsruhe","type":"Landkreis"},"federalState":{"key":"08","name":"Baden-Württemberg"}},{"name":"Hauweg","postalCode":"75045","locality":"Walzbachtal","municipality":{"key":"08215089","name":"Walzbachtal","type":"Kreisangehörige_Gemeinde"},"district":{"key":"08215","name":"Karlsruhe","type":"Landkreis"},"federalState":{"key":"08","name":"Baden-Württemberg"}},{"name":"Haydnstr.","postalCode":"75045","locality":"Walzbachtal","municipality":{"key":"08215089","name":"Walzbachtal","type":"Kreisangehörige_Gemeinde"},"district":{"key":"08215","name":"Karlsruhe","type":"Landkreis"},"federalState":{"key":"08","name":"Baden-Württemberg"}},{"name":"Hebelweg","postalCode":"75045","locality":"Walzbachtal","municipality":{"key":"08215089","name":"Walzbachtal","type":"Kreisangehörige_Gemeinde"},"district":{"key":"08215","name":"Karlsruhe","type":"Landkreis"},"federalState":{"key":"08","name":"Baden-Württemberg"}},{"name":"Heckerweg","postalCode":"75045","locality":"Walzbachtal","municipality":{"key":"08215089","name":"Walzbachtal","type":"Kreisangehörige_Gemeinde"},"district":{"key":"08215","name":"Karlsruhe","type":"Landkreis"},"federalState":{"key":"08","name":"Baden-Württemberg"}},{"name":"Hegelstr.","postalCode":"75045","locality":"Walzbachtal","municipality":{"key":"08215089","name":"Walzbachtal","type":"Kreisangehörige_Gemeinde"},"district":{"key":"08215","name":"Karlsruhe","type":"Landkreis"},"federalState":{"key":"08","name":"Baden-Württemberg"}},{"name":"Herderstr.","postalCode":"75045","locality":"Walzbachtal","municipality":{"key":"08215089","name":"Walzbachtal","type":"Kreisangehörige_Gemeinde"},"district":{"key":"08215","name":"Karlsruhe","type":"Landkreis"},"federalState":{"key":"08","name":"Baden-Württemberg"}},{"name":"Herdweg","postalCode":"75045","locality":"Walzbachtal","municipality":{"key":"08215089","name":"Walzbachtal","type":"Kreisangehörige_Gemeinde"},"district":{"key":"08215","name":"Karlsruhe","type":"Landkreis"},"federalState":{"key":"08","name":"Baden-Württemberg"}},{"name":"Hermann-Hesse-Weg","postalCode":"75045","locality":"Walzbachtal","municipality":{"key":"08215089","name":"Walzbachtal","type":"Kreisangehörige_Gemeinde"},"district":{"key":"08215","name":"Karlsruhe","type":"Landkreis"},"federalState":{"key":"08","name":"Baden-Württemberg"}},{"name":"Heubergstr.","postalCode":"75045","locality":"Walzbachtal","municipality":{"key":"08215089","name":"Walzbachtal","type":"Kreisangehörige_Gemeinde"},"district":{"key":"08215","name":"Karlsruhe","type":"Landkreis"},"federalState":{"key":"08","name":"Baden-Württemberg"}},{"name":"Hohgasse","postalCode":"75045","locality":"Walzbachtal","municipality":{"key":"08215089","name":"Walzbachtal","type":"Kreisangehörige_Gemeinde"},"district":{"key":"08215","name":"Karlsruhe","type":"Landkreis"},"federalState":{"key":"08","name":"Baden-Württemberg"}},{"name":"Hölderlinstr.","postalCode":"75045","locality":"Walzbachtal","municipality":{"key":"08215089","name":"Walzbachtal","type":"Kreisangehörige_Gemeinde"},"district":{"key":"08215","name":"Karlsruhe","type":"Landkreis"},"federalState":{"key":"08","name":"Baden-Württemberg"}},{"name":"Holzstr.","postalCode":"75045","locality":"Walzbachtal","municipality":{"key":"08215089","name":"Walzbachtal","type":"Kreisangehörige_Gemeinde"},"district":{"key":"08215","name":"Karlsruhe","type":"Landkreis"},"federalState":{"key":"08","name":"Baden-Württemberg"}},{"name":"Hüttenweg","postalCode":"75045","locality":"Walzbachtal","municipality":{"key":"08215089","name":"Walzbachtal","type":"Kreisangehörige_Gemeinde"},"district":{"key":"08215","name":"Karlsruhe","type":"Landkreis"},"federalState":{"key":"08","name":"Baden-Württemberg"}},{"name":"Im Gageneck","postalCode":"75045","locality":"Walzbachtal","municipality":{"key":"08215089","name":"Walzbachtal","type":"Kreisangehörige_Gemeinde"},"district":{"key":"08215","name":"Karlsruhe","type":"Landkreis"},"federalState":{"key":"08","name":"Baden-Württemberg"}},{"name":"Im Grund","postalCode":"75045","locality":"Walzbachtal","municipality":{"key":"08215089","name":"Walzbachtal","type":"Kreisangehörige_Gemeinde"},"district":{"key":"08215","name":"Karlsruhe","type":"Landkreis"},"federalState":{"key":"08","name":"Baden-Württemberg"}},{"name":"Im Kronengarten","postalCode":"75045","locality":"Walzbachtal","municipality":{"key":"08215089","name":"Walzbachtal","type":"Kreisangehörige_Gemeinde"},"district":{"key":"08215","name":"Karlsruhe","type":"Landkreis"},"federalState":{"key":"08","name":"Baden-Württemberg"}},{"name":"Jägerwiesenweg","postalCode":"75045","locality":"Walzbachtal","municipality":{"key":"08215089","name":"Walzbachtal","type":"Kreisangehörige_Gemeinde"},"district":{"key":"08215","name":"Karlsruhe","type":"Landkreis"},"federalState":{"key":"08","name":"Baden-Württemberg"}},{"name":"Jahnstr.","postalCode":"75045","locality":"Walzbachtal","municipality":{"key":"08215089","name":"Walzbachtal","type":"Kreisangehörige_Gemeinde"},"district":{"key":"08215","name":"Karlsruhe","type":"Landkreis"},"federalState":{"key":"08","name":"Baden-Württemberg"}},{"name":"Jöhlinger Str.","postalCode":"75045","locality":"Walzbachtal","municipality":{"key":"08215089","name":"Walzbachtal","type":"Kreisangehörige_Gemeinde"},"district":{"key":"08215","name":"Karlsruhe","type":"Landkreis"},"federalState":{"key":"08","name":"Baden-Württemberg"}},{"name":"Jöhlinger Weg","postalCode":"75045","locality":"Walzbachtal","municipality":{"key":"08215089","name":"Walzbachtal","type":"Kreisangehörige_Gemeinde"},"district":{"key":"08215","name":"Karlsruhe","type":"Landkreis"},"federalState":{"key":"08","name":"Baden-Württemberg"}},{"name":"Judenweg","postalCode":"75045","locality":"Walzbachtal","municipality":{"key":"08215089","name":"Walzbachtal","type":"Kreisangehörige_Gemeinde"},"district":{"key":"08215","name":"Karlsruhe","type":"Landkreis"},"federalState":{"key":"08","name":"Baden-Württemberg"}},{"name":"Kaiserstuhlweg","postalCode":"75045","locality":"Walzbachtal","municipality":{"key":"08215089","name":"Walzbachtal","type":"Kreisangehörige_Gemeinde"},"district":{"key":"08215","name":"Karlsruhe","type":"Landkreis"},"federalState":{"key":"08","name":"Baden-Württemberg"}},{"name":"Kaiserwegle","postalCode":"75045","locality":"Walzbachtal","municipality":{"key":"08215089","name":"Walzbachtal","type":"Kreisangehörige_Gemeinde"},"district":{"key":"08215","name":"Karlsruhe","type":"Landkreis"},"federalState":{"key":"08","name":"Baden-Württemberg"}},{"name":"Kantweg","postalCode":"75045","locality":"Walzbachtal","municipality":{"key":"08215089","name":"Walzbachtal","type":"Kreisangehörige_Gemeinde"},"district":{"key":"08215","name":"Karlsruhe","type":"Landkreis"},"federalState":{"key":"08","name":"Baden-Württemberg"}},{"name":"Kapellenweg","postalCode":"75045","locality":"Walzbachtal","municipality":{"key":"08215089","name":"Walzbachtal","type":"Kreisangehörige_Gemeinde"},"district":{"key":"08215","name":"Karlsruhe","type":"Landkreis"},"federalState":{"key":"08","name":"Baden-Württemberg"}},{"name":"Karlsruher Str.","postalCode":"75045","locality":"Walzbachtal","municipality":{"key":"08215089","name":"Walzbachtal","type":"Kreisangehörige_Gemeinde"},"district":{"key":"08215","name":"Karlsruhe","type":"Landkreis"},"federalState":{"key":"08","name":"Baden-Württemberg"}},{"name":"Karlstr.","postalCode":"75045","locality":"Walzbachtal","municipality":{"key":"08215089","name":"Walzbachtal","type":"Kreisangehörige_Gemeinde"},"district":{"key":"08215","name":"Karlsruhe","type":"Landkreis"},"federalState":{"key":"08","name":"Baden-Württemberg"}},{"name":"Kelterstr.","postalCode":"75045","locality":"Walzbachtal","municipality":{"key":"08215089","name":"Walzbachtal","type":"Kreisangehörige_Gemeinde"},"district":{"key":"08215","name":"Karlsruhe","type":"Landkreis"},"federalState":{"key":"08","name":"Baden-Württemberg"}},{"name":"Kiefernweg","postalCode":"75045","locality":"Walzbachtal","municipality":{"key":"08215089","name":"Walzbachtal","type":"Kreisangehörige_Gemeinde"},"district":{"key":"08215","name":"Karlsruhe","type":"Landkreis"},"federalState":{"key":"08","name":"Baden-Württemberg"}},{"name":"Kirchbergstr.","postalCode":"75045","locality":"Walzbachtal","municipality":{"key":"08215089","name":"Walzbachtal","type":"Kreisangehörige_Gemeinde"},"district":{"key":"08215","name":"Karlsruhe","type":"Landkreis"},"federalState":{"key":"08","name":"Baden-Württemberg"}},{"name":"Kirchgrund","postalCode":"75045","locality":"Walzbachtal","municipality":{"key":"08215089","name":"Walzbachtal","type":"Kreisangehörige_Gemeinde"},"district":{"key":"08215","name":"Karlsruhe","type":"Landkreis"},"federalState":{"key":"08","name":"Baden-Württemberg"}},{"name":"Kirchplatz","postalCode":"75045","locality":"Walzbachtal","municipality":{"key":"08215089","name":"Walzbachtal","type":"Kreisangehörige_Gemeinde"},"district":{"key":"08215","name":"Karlsruhe","type":"Landkreis"},"federalState":{"key":"08","name":"Baden-Württemberg"}},{"name":"Kirchstr.","postalCode":"75045","locality":"Walzbachtal","municipality":{"key":"08215089","name":"Walzbachtal","type":"Kreisangehörige_Gemeinde"},"district":{"key":"08215","name":"Karlsruhe","type":"Landkreis"},"federalState":{"key":"08","name":"Baden-Württemberg"}},{"name":"Kirschenweg","postalCode":"75045","locality":"Walzbachtal","municipality":{"key":"08215089","name":"Walzbachtal","type":"Kreisangehörige_Gemeinde"},"district":{"key":"08215","name":"Karlsruhe","type":"Landkreis"},"federalState":{"key":"08","name":"Baden-Württemberg"}},{"name":"Kleistweg","postalCode":"75045","locality":"Walzbachtal","municipality":{"key":"08215089","name":"Walzbachtal","type":"Kreisangehörige_Gemeinde"},"district":{"key":"08215","name":"Karlsruhe","type":"Landkreis"},"federalState":{"key":"08","name":"Baden-Württemberg"}},{"name":"Kohlplattenstr.","postalCode":"75045","locality":"Walzbachtal","municipality":{"key":"08215089","name":"Walzbachtal","type":"Kreisangehörige_Gemeinde"},"district":{"key":"08215","name":"Karlsruhe","type":"Landkreis"},"federalState":{"key":"08","name":"Baden-Württemberg"}},{"name":"Königsbacher Weg","postalCode":"75045","locality":"Walzbachtal","municipality":{"key":"08215089","name":"Walzbachtal","type":"Kreisangehörige_Gemeinde"},"district":{"key":"08215","name":"Karlsruhe","type":"Landkreis"},"federalState":{"key":"08","name":"Baden-Württemberg"}},{"name":"Kraichgaustr.","postalCode":"75045","locality":"Walzbachtal","municipality":{"key":"08215089","name":"Walzbachtal","type":"Kreisangehörige_Gemeinde"},"district":{"key":"08215","name":"Karlsruhe","type":"Landkreis"},"federalState":{"key":"08","name":"Baden-Württemberg"}},{"name":"Kreuzstr.","postalCode":"75045","locality":"Walzbachtal","municipality":{"key":"08215089","name":"Walzbachtal","type":"Kreisangehörige_Gemeinde"},"district":{"key":"08215","name":"Karlsruhe","type":"Landkreis"},"federalState":{"key":"08","name":"Baden-Württemberg"}},{"name":"Krokusweg","postalCode":"75045","locality":"Walzbachtal","municipality":{"key":"08215089","name":"Walzbachtal","type":"Kreisangehörige_Gemeinde"},"district":{"key":"08215","name":"Karlsruhe","type":"Landkreis"},"federalState":{"key":"08","name":"Baden-Württemberg"}},{"name":"Krummer Weg","postalCode":"75045","locality":"Walzbachtal","municipality":{"key":"08215089","name":"Walzbachtal","type":"Kreisangehörige_Gemeinde"},"district":{"key":"08215","name":"Karlsruhe","type":"Landkreis"},"federalState":{"key":"08","name":"Baden-Württemberg"}},{"name":"Küferstr.","postalCode":"75045","locality":"Walzbachtal","municipality":{"key":"08215089","name":"Walzbachtal","type":"Kreisangehörige_Gemeinde"},"district":{"key":"08215","name":"Karlsruhe","type":"Landkreis"},"federalState":{"key":"08","name":"Baden-Württemberg"}},{"name":"Kuhbrunnenteichweg","postalCode":"75045","locality":"Walzbachtal","municipality":{"key":"08215089","name":"Walzbachtal","type":"Kreisangehörige_Gemeinde"},"district":{"key":"08215","name":"Karlsruhe","type":"Landkreis"},"federalState":{"key":"08","name":"Baden-Württemberg"}},{"name":"Kutscherweg","postalCode":"75045","locality":"Walzbachtal","municipality":{"key":"08215089","name":"Walzbachtal","type":"Kreisangehörige_Gemeinde"},"district":{"key":"08215","name":"Karlsruhe","type":"Landkreis"},"federalState":{"key":"08","name":"Baden-Württemberg"}},{"name":"Ladestr.","postalCode":"75045","locality":"Walzbachtal","municipality":{"key":"08215089","name":"Walzbachtal","type":"Kreisangehörige_Gemeinde"},"district":{"key":"08215","name":"Karlsruhe","type":"Landkreis"},"federalState":{"key":"08","name":"Baden-Württemberg"}},{"name":"Landgrabenweg","postalCode":"75045","locality":"Walzbachtal","municipality":{"key":"08215089","name":"Walzbachtal","type":"Kreisangehörige_Gemeinde"},"district":{"key":"08215","name":"Karlsruhe","type":"Landkreis"},"federalState":{"key":"08","name":"Baden-Württemberg"}},{"name":"Langentaler Str.","postalCode":"75045","locality":"Walzbachtal","municipality":{"key":"08215089","name":"Walzbachtal","type":"Kreisangehörige_Gemeinde"},"district":{"key":"08215","name":"Karlsruhe","type":"Landkreis"},"federalState":{"key":"08","name":"Baden-Württemberg"}},{"name":"Lange Richtstatt","postalCode":"75045","locality":"Walzbachtal","municipality":{"key":"08215089","name":"Walzbachtal","type":"Kreisangehörige_Gemeinde"},"district":{"key":"08215","name":"Karlsruhe","type":"Landkreis"},"federalState":{"key":"08","name":"Baden-Württemberg"}},{"name":"Leonorenweg","postalCode":"75045","locality":"Walzbachtal","municipality":{"key":"08215089","name":"Walzbachtal","type":"Kreisangehörige_Gemeinde"},"district":{"key":"08215","name":"Karlsruhe","type":"Landkreis"},"federalState":{"key":"08","name":"Baden-Württemberg"}},{"name":"Lessingstr.","postalCode":"75045","locality":"Walzbachtal","municipality":{"key":"08215089","name":"Walzbachtal","type":"Kreisangehörige_Gemeinde"},"district":{"key":"08215","name":"Karlsruhe","type":"Landkreis"},"federalState":{"key":"08","name":"Baden-Württemberg"}},{"name":"Liebigstr.","postalCode":"75045","locality":"Walzbachtal","municipality":{"key":"08215089","name":"Walzbachtal","type":"Kreisangehörige_Gemeinde"},"district":{"key":"08215","name":"Karlsruhe","type":"Landkreis"},"federalState":{"key":"08","name":"Baden-Württemberg"}},{"name":"Lindenweg","postalCode":"75045","locality":"Walzbachtal","municipality":{"key":"08215089","name":"Walzbachtal","type":"Kreisangehörige_Gemeinde"},"district":{"key":"08215","name":"Karlsruhe","type":"Landkreis"},"federalState":{"key":"08","name":"Baden-Württemberg"}},{"name":"Lohteichweg","postalCode":"75045","locality":"Walzbachtal","municipality":{"key":"08215089","name":"Walzbachtal","type":"Kreisangehörige_Gemeinde"},"district":{"key":"08215","name":"Karlsruhe","type":"Landkreis"},"federalState":{"key":"08","name":"Baden-Württemberg"}},{"name":"Lönsweg","postalCode":"75045","locality":"Walzbachtal","municipality":{"key":"08215089","name":"Walzbachtal","type":"Kreisangehörige_Gemeinde"},"district":{"key":"08215","name":"Karlsruhe","type":"Landkreis"},"federalState":{"key":"08","name":"Baden-Württemberg"}},{"name":"Ludwigstr.","postalCode":"75045","locality":"Walzbachtal","municipality":{"key":"08215089","name":"Walzbachtal","type":"Kreisangehörige_Gemeinde"},"district":{"key":"08215","name":"Karlsruhe","type":"Landkreis"},"federalState":{"key":"08","name":"Baden-Württemberg"}},{"name":"Luisenstr.","postalCode":"75045","locality":"Walzbachtal","municipality":{"key":"08215089","name":"Walzbachtal","type":"Kreisangehörige_Gemeinde"},"district":{"key":"08215","name":"Karlsruhe","type":"Landkreis"},"federalState":{"key":"08","name":"Baden-Württemberg"}},{"name":"Milanweg","postalCode":"75045","locality":"Walzbachtal","municipality":{"key":"08215089","name":"Walzbachtal","type":"Kreisangehörige_Gemeinde"},"district":{"key":"08215","name":"Karlsruhe","type":"Landkreis"},"federalState":{"key":"08","name":"Baden-Württemberg"}},{"name":"Mittelschlagweg","postalCode":"75045","locality":"Walzbachtal","municipality":{"key":"08215089","name":"Walzbachtal","type":"Kreisangehörige_Gemeinde"},"district":{"key":"08215","name":"Karlsruhe","type":"Landkreis"},"federalState":{"key":"08","name":"Baden-Württemberg"}},{"name":"Mörikestr.","postalCode":"75045","locality":"Walzbachtal","municipality":{"key":"08215089","name":"Walzbachtal","type":"Kreisangehörige_Gemeinde"},"district":{"key":"08215","name":"Karlsruhe","type":"Landkreis"},"federalState":{"key":"08","name":"Baden-Württemberg"}},{"name":"Mozartstr.","postalCode":"75045","locality":"Walzbachtal","municipality":{"key":"08215089","name":"Walzbachtal","type":"Kreisangehörige_Gemeinde"},"district":{"key":"08215","name":"Karlsruhe","type":"Landkreis"},"federalState":{"key":"08","name":"Baden-Württemberg"}},{"name":"Mühlenstr.","postalCode":"75045","locality":"Walzbachtal","municipality":{"key":"08215089","name":"Walzbachtal","type":"Kreisangehörige_Gemeinde"},"district":{"key":"08215","name":"Karlsruhe","type":"Landkreis"},"federalState":{"key":"08","name":"Baden-Württemberg"}},{"name":"Müllerweg","postalCode":"75045","locality":"Walzbachtal","municipality":{"key":"08215089","name":"Walzbachtal","type":"Kreisangehörige_Gemeinde"},"district":{"key":"08215","name":"Karlsruhe","type":"Landkreis"},"federalState":{"key":"08","name":"Baden-Württemberg"}},{"name":"Narzissenweg","postalCode":"75045","locality":"Walzbachtal","municipality":{"key":"08215089","name":"Walzbachtal","type":"Kreisangehörige_Gemeinde"},"district":{"key":"08215","name":"Karlsruhe","type":"Landkreis"},"federalState":{"key":"08","name":"Baden-Württemberg"}},{"name":"Nelkenweg","postalCode":"75045","locality":"Walzbachtal","municipality":{"key":"08215089","name":"Walzbachtal","type":"Kreisangehörige_Gemeinde"},"district":{"key":"08215","name":"Karlsruhe","type":"Landkreis"},"federalState":{"key":"08","name":"Baden-Württemberg"}},{"name":"Oberlangental","postalCode":"75045","locality":"Walzbachtal","municipality":{"key":"08215089","name":"Walzbachtal","type":"Kreisangehörige_Gemeinde"},"district":{"key":"08215","name":"Karlsruhe","type":"Landkreis"},"federalState":{"key":"08","name":"Baden-Württemberg"}},{"name":"Oberwaldweg","postalCode":"75045","locality":"Walzbachtal","municipality":{"key":"08215089","name":"Walzbachtal","type":"Kreisangehörige_Gemeinde"},"district":{"key":"08215","name":"Karlsruhe","type":"Landkreis"},"federalState":{"key":"08","name":"Baden-Württemberg"}},{"name":"Oppenlochweg","postalCode":"75045","locality":"Walzbachtal","municipality":{"key":"08215089","name":"Walzbachtal","type":"Kreisangehörige_Gemeinde"},"district":{"key":"08215","name":"Karlsruhe","type":"Landkreis"},"federalState":{"key":"08","name":"Baden-Württemberg"}},{"name":"Otto-Fikentscher-Weg","postalCode":"75045","locality":"Walzbachtal","municipality":{"key":"08215089","name":"Walzbachtal","type":"Kreisangehörige_Gemeinde"},"district":{"key":"08215","name":"Karlsruhe","type":"Landkreis"},"federalState":{"key":"08","name":"Baden-Württemberg"}},{"name":"Pfinzgauweg","postalCode":"75045","locality":"Walzbachtal","municipality":{"key":"08215089","name":"Walzbachtal","type":"Kreisangehörige_Gemeinde"},"district":{"key":"08215","name":"Karlsruhe","type":"Landkreis"},"federalState":{"key":"08","name":"Baden-Württemberg"}},{"name":"Prefagstr.","postalCode":"75045","locality":"Walzbachtal","municipality":{"key":"08215089","name":"Walzbachtal","type":"Kreisangehörige_Gemeinde"},"district":{"key":"08215","name":"Karlsruhe","type":"Landkreis"},"federalState":{"key":"08","name":"Baden-Württemberg"}},{"name":"Prinz-Max-Str.","postalCode":"75045","locality":"Walzbachtal","municipality":{"key":"08215089","name":"Walzbachtal","type":"Kreisangehörige_Gemeinde"},"district":{"key":"08215","name":"Karlsruhe","type":"Landkreis"},"federalState":{"key":"08","name":"Baden-Württemberg"}},{"name":"Quellenstr.","postalCode":"76228","locality":"Karlsruhe","municipality":{"key":"08212000","name":"Karlsruhe, Stadt","type":"Stadtkreis"},"district":{"key":"08212","name":"Karlsruhe, Stadtkreis","type":"Stadtkreis"},"federalState":{"key":"08","name":"Baden-Württemberg"}},{"name":"Querstr.","postalCode":"76189","locality":"Karlsruhe","municipality":{"key":"08212000","name":"Karlsruhe, Stadt","type":"Stadtkreis"},"district":{"key":"08212","name":"Karlsruhe, Stadtkreis","type":"Stadtkreis"},"federalState":{"key":"08","name":"Baden-Württemberg"}},{"name":"Rappenstr.","postalCode":"75045","locality":"Walzbachtal","municipality":{"key":"08215089","name":"Walzbachtal","type":"Kreisangehörige_Gemeinde"},"district":{"key":"08215","name":"Karlsruhe","type":"Landkreis"},"federalState":{"key":"08","name":"Baden-Württemberg"}},{"name":"Richard-Wagner-Str.","postalCode":"75045","locality":"Walzbachtal","municipality":{"key":"08215089","name":"Walzbachtal","type":"Kreisangehörige_Gemeinde"},"district":{"key":"08215","name":"Karlsruhe","type":"Landkreis"},"federalState":{"key":"08","name":"Baden-Württemberg"}},{"name":"Rilkestr.","postalCode":"75045","locality":"Walzbachtal","municipality":{"key":"08215089","name":"Walzbachtal","type":"Kreisangehörige_Gemeinde"},"district":{"key":"08215","name":"Karlsruhe","type":"Landkreis"},"federalState":{"key":"08","name":"Baden-Württemberg"}},{"name":"Ringstr.","postalCode":"75045","locality":"Walzbachtal","municipality":{"key":"08215089","name":"Walzbachtal","type":"Kreisangehörige_Gemeinde"},"district":{"key":"08215","name":"Karlsruhe","type":"Landkreis"},"federalState":{"key":"08","name":"Baden-Württemberg"}},{"name":"Römerstr.","postalCode":"75045","locality":"Walzbachtal","municipality":{"key":"08215089","name":"Walzbachtal","type":"Kreisangehörige_Gemeinde"},"district":{"key":"08215","name":"Karlsruhe","type":"Landkreis"},"federalState":{"key":"08","name":"Baden-Württemberg"}},{"name":"Rosenstr.","postalCode":"75045","locality":"Walzbachtal","municipality":{"key":"08215089","name":"Walzbachtal","type":"Kreisangehörige_Gemeinde"},"district":{"key":"08215","name":"Karlsruhe","type":"Landkreis"},"federalState":{"key":"08","name":"Baden-Württemberg"}},{"name":"Rößlegarten","postalCode":"75045","locality":"Walzbachtal","municipality":{"key":"08215089","name":"Walzbachtal","type":"Kreisangehörige_Gemeinde"},"district":{"key":"08215","name":"Karlsruhe","type":"Landkreis"},"federalState":{"key":"08","name":"Baden-Württemberg"}},{"name":"Rudolf-Diesel-Weg","postalCode":"75045","locality":"Walzbachtal","municipality":{"key":"08215089","name":"Walzbachtal","type":"Kreisangehörige_Gemeinde"},"district":{"key":"08215","name":"Karlsruhe","type":"Landkreis"},"federalState":{"key":"08","name":"Baden-Württemberg"}},{"name":"Saalgrabenweg","postalCode":"75045","locality":"Walzbachtal","municipality":{"key":"08215089","name":"Walzbachtal","type":"Kreisangehörige_Gemeinde"},"district":{"key":"08215","name":"Karlsruhe","type":"Landkreis"},"federalState":{"key":"08","name":"Baden-Württemberg"}},{"name":"Sattlerstr.","postalCode":"75045","locality":"Walzbachtal","municipality":{"key":"08215089","name":"Walzbachtal","type":"Kreisangehörige_Gemeinde"},"district":{"key":"08215","name":"Karlsruhe","type":"Landkreis"},"federalState":{"key":"08","name":"Baden-Württemberg"}},{"name":"Sauweg","postalCode":"75045","locality":"Walzbachtal","municipality":{"key":"08215089","name":"Walzbachtal","type":"Kreisangehörige_Gemeinde"},"district":{"key":"08215","name":"Karlsruhe","type":"Landkreis"},"federalState":{"key":"08","name":"Baden-Württemberg"}},{"name":"Schänzlebergstr.","postalCode":"75045","locality":"Walzbachtal","municipality":{"key":"08215089","name":"Walzbachtal","type":"Kreisangehörige_Gemeinde"},"district":{"key":"08215","name":"Karlsruhe","type":"Landkreis"},"federalState":{"key":"08","name":"Baden-Württemberg"}},{"name":"Scheffelweg","postalCode":"75045","locality":"Walzbachtal","municipality":{"key":"08215089","name":"Walzbachtal","type":"Kreisangehörige_Gemeinde"},"district":{"key":"08215","name":"Karlsruhe","type":"Landkreis"},"federalState":{"key":"08","name":"Baden-Württemberg"}},{"name":"Schillerstr.","postalCode":"75045","locality":"Walzbachtal","municipality":{"key":"08215089","name":"Walzbachtal","type":"Kreisangehörige_Gemeinde"},"district":{"key":"08215","name":"Karlsruhe","type":"Landkreis"},"federalState":{"key":"08","name":"Baden-Württemberg"}},{"name":"Schinderhüttenweg","postalCode":"75045","locality":"Walzbachtal","municipality":{"key":"08215089","name":"Walzbachtal","type":"Kreisangehörige_Gemeinde"},"district":{"key":"08215","name":"Karlsruhe","type":"Landkreis"},"federalState":{"key":"08","name":"Baden-Württemberg"}},{"name":"Schloßstr.","postalCode":"75045","locality":"Walzbachtal","municipality":{"key":"08215089","name":"Walzbachtal","type":"Kreisangehörige_Gemeinde"},"district":{"key":"08215","name":"Karlsruhe","type":"Landkreis"},"federalState":{"key":"08","name":"Baden-Württemberg"}},{"name":"Schlosswald","postalCode":"75045","locality":"Walzbachtal","municipality":{"key":"08215089","name":"Walzbachtal","type":"Kreisangehörige_Gemeinde"},"district":{"key":"08215","name":"Karlsruhe","type":"Landkreis"},"federalState":{"key":"08","name":"Baden-Württemberg"}},{"name":"Schubertstr.","postalCode":"75045","locality":"Walzbachtal","municipality":{"key":"08215089","name":"Walzbachtal","type":"Kreisangehörige_Gemeinde"},"district":{"key":"08215","name":"Karlsruhe","type":"Landkreis"},"federalState":{"key":"08","name":"Baden-Württemberg"}},{"name":"Schumannstr.","postalCode":"75045","locality":"Walzbachtal","municipality":{"key":"08215089","name":"Walzbachtal","type":"Kreisangehörige_Gemeinde"},"district":{"key":"08215","name":"Karlsruhe","type":"Landkreis"},"federalState":{"key":"08","name":"Baden-Württemberg"}},{"name":"Schwarzhüttenweg","postalCode":"75045","locality":"Walzbachtal","municipality":{"key":"08215089","name":"Walzbachtal","type":"Kreisangehörige_Gemeinde"},"district":{"key":"08215","name":"Karlsruhe","type":"Landkreis"},"federalState":{"key":"08","name":"Baden-Württemberg"}},{"name":"Schwarzwaldstr.","postalCode":"75045","locality":"Walzbachtal","municipality":{"key":"08215089","name":"Walzbachtal","type":"Kreisangehörige_Gemeinde"},"district":{"key":"08215","name":"Karlsruhe","type":"Landkreis"},"federalState":{"key":"08","name":"Baden-Württemberg"}},{"name":"Seestr.","postalCode":"75045","locality":"Walzbachtal","municipality":{"key":"08215089","name":"Walzbachtal","type":"Kreisangehörige_Gemeinde"},"district":{"key":"08215","name":"Karlsruhe","type":"Landkreis"},"federalState":{"key":"08","name":"Baden-Württemberg"}},{"name":"Seilerweg","postalCode":"75045","locality":"Walzbachtal","municipality":{"key":"08215089","name":"Walzbachtal","type":"Kreisangehörige_Gemeinde"},"district":{"key":"08215","name":"Karlsruhe","type":"Landkreis"},"federalState":{"key":"08","name":"Baden-Württemberg"}},{"name":"Silcherstr.","postalCode":"75045","locality":"Walzbachtal","municipality":{"key":"08215089","name":"Walzbachtal","type":"Kreisangehörige_Gemeinde"},"district":{"key":"08215","name":"Karlsruhe","type":"Landkreis"},"federalState":{"key":"08","name":"Baden-Württemberg"}},{"name":"Singener Weg","postalCode":"75045","locality":"Walzbachtal","municipality":{"key":"08215089","name":"Walzbachtal","type":"Kreisangehörige_Gemeinde"},"district":{"key":"08215","name":"Karlsruhe","type":"Landkreis"},"federalState":{"key":"08","name":"Baden-Württemberg"}},{"name":"Sonnenbergweg","postalCode":"75045","locality":"Walzbachtal","municipality":{"key":"08215089","name":"Walzbachtal","type":"Kreisangehörige_Gemeinde"},"district":{"key":"08215","name":"Karlsruhe","type":"Landkreis"},"federalState":{"key":"08","name":"Baden-Württemberg"}},{"name":"Sperberweg","postalCode":"75045","locality":"Walzbachtal","municipality":{"key":"08215089","name":"Walzbachtal","type":"Kreisangehörige_Gemeinde"},"district":{"key":"08215","name":"Karlsruhe","type":"Landkreis"},"federalState":{"key":"08","name":"Baden-Württemberg"}},{"name":"Speyerer Weg","postalCode":"75045","locality":"Walzbachtal","municipality":{"key":"08215089","name":"Walzbachtal","type":"Kreisangehörige_Gemeinde"},"district":{"key":"08215","name":"Karlsruhe","type":"Landkreis"},"federalState":{"key":"08","name":"Baden-Württemberg"}},{"name":"Staffelweg","postalCode":"75045","locality":"Walzbachtal","municipality":{"key":"08215089","name":"Walzbachtal","type":"Kreisangehörige_Gemeinde"},"district":{"key":"08215","name":"Karlsruhe","type":"Landkreis"},"federalState":{"key":"08","name":"Baden-Württemberg"}},{"name":"Steiner Str.","postalCode":"75045","locality":"Walzbachtal","municipality":{"key":"08215089","name":"Walzbachtal","type":"Kreisangehörige_Gemeinde"},"district":{"key":"08215","name":"Karlsruhe","type":"Landkreis"},"federalState":{"key":"08","name":"Baden-Württemberg"}},{"name":"Steinerweg","postalCode":"75045","locality":"Walzbachtal","municipality":{"key":"08215089","name":"Walzbachtal","type":"Kreisangehörige_Gemeinde"},"district":{"key":"08215","name":"Karlsruhe","type":"Landkreis"},"federalState":{"key":"08","name":"Baden-Württemberg"}},{"name":"Stettigweg","postalCode":"75045","locality":"Walzbachtal","municipality":{"key":"08215089","name":"Walzbachtal","type":"Kreisangehörige_Gemeinde"},"district":{"key":"08215","name":"Karlsruhe","type":"Landkreis"},"federalState":{"key":"08","name":"Baden-Württemberg"}},{"name":"Strombergweg","postalCode":"75045","locality":"Walzbachtal","municipality":{"key":"08215089","name":"Walzbachtal","type":"Kreisangehörige_Gemeinde"},"district":{"key":"08215","name":"Karlsruhe","type":"Landkreis"},"federalState":{"key":"08","name":"Baden-Württemberg"}},{"name":"Sulzweg","postalCode":"75045","locality":"Walzbachtal","municipality":{"key":"08215089","name":"Walzbachtal","type":"Kreisangehörige_Gemeinde"},"district":{"key":"08215","name":"Karlsruhe","type":"Landkreis"},"federalState":{"key":"08","name":"Baden-Württemberg"}},{"name":"Talstr.","postalCode":"75045","locality":"Walzbachtal","municipality":{"key":"08215089","name":"Walzbachtal","type":"Kreisangehörige_Gemeinde"},"district":{"key":"08215","name":"Karlsruhe","type":"Landkreis"},"federalState":{"key":"08","name":"Baden-Württemberg"}},{"name":"Tannenweg","postalCode":"75045","locality":"Walzbachtal","municipality":{"key":"08215089","name":"Walzbachtal","type":"Kreisangehörige_Gemeinde"},"district":{"key":"08215","name":"Karlsruhe","type":"Landkreis"},"federalState":{"key":"08","name":"Baden-Württemberg"}},{"name":"Tulpenstr.","postalCode":"75045","locality":"Walzbachtal","municipality":{"key":"08215089","name":"Walzbachtal","type":"Kreisangehörige_Gemeinde"},"district":{"key":"08215","name":"Karlsruhe","type":"Landkreis"},"federalState":{"key":"08","name":"Baden-Württemberg"}},{"name":"Uhlandstr.","postalCode":"75045","locality":"Walzbachtal","municipality":{"key":"08215089","name":"Walzbachtal","type":"Kreisangehörige_Gemeinde"},"district":{"key":"08215","name":"Karlsruhe","type":"Landkreis"},"federalState":{"key":"08","name":"Baden-Württemberg"}},{"name":"Viehtriebsweg","postalCode":"75045","locality":"Walzbachtal","municipality":{"key":"08215089","name":"Walzbachtal","type":"Kreisangehörige_Gemeinde"},"district":{"key":"08215","name":"Karlsruhe","type":"Landkreis"},"federalState":{"key":"08","name":"Baden-Württemberg"}},{"name":"Viehtriebweg","postalCode":"75045","locality":"Walzbachtal","municipality":{"key":"08215089","name":"Walzbachtal","type":"Kreisangehörige_Gemeinde"},"district":{"key":"08215","name":"Karlsruhe","type":"Landkreis"},"federalState":{"key":"08","name":"Baden-Württemberg"}},{"name":"Vogesenweg","postalCode":"75045","locality":"Walzbachtal","municipality":{"key":"08215089","name":"Walzbachtal","type":"Kreisangehörige_Gemeinde"},"district":{"key":"08215","name":"Karlsruhe","type":"Landkreis"},"federalState":{"key":"08","name":"Baden-Württemberg"}},{"name":"Waldstr.","postalCode":"75045","locality":"Walzbachtal","municipality":{"key":"08215089","name":"Walzbachtal","type":"Kreisangehörige_Gemeinde"},"district":{"key":"08215","name":"Karlsruhe","type":"Landkreis"},"federalState":{"key":"08","name":"Baden-Württemberg"}},{"name":"Wasserrissweg","postalCode":"75045","locality":"Walzbachtal","municipality":{"key":"08215089","name":"Walzbachtal","type":"Kreisangehörige_Gemeinde"},"district":{"key":"08215","name":"Karlsruhe","type":"Landkreis"},"federalState":{"key":"08","name":"Baden-Württemberg"}},{"name":"Weberweg","postalCode":"75045","locality":"Walzbachtal","municipality":{"key":"08215089","name":"Walzbachtal","type":"Kreisangehörige_Gemeinde"},"district":{"key":"08215","name":"Karlsruhe","type":"Landkreis"},"federalState":{"key":"08","name":"Baden-Württemberg"}},{"name":"Wegweiserweg","postalCode":"75045","locality":"Walzbachtal","municipality":{"key":"08215089","name":"Walzbachtal","type":"Kreisangehörige_Gemeinde"},"district":{"key":"08215","name":"Karlsruhe","type":"Landkreis"},"federalState":{"key":"08","name":"Baden-Württemberg"}},{"name":"Weidentaler Str.","postalCode":"75045","locality":"Walzbachtal","municipality":{"key":"08215089","name":"Walzbachtal","type":"Kreisangehörige_Gemeinde"},"district":{"key":"08215","name":"Karlsruhe","type":"Landkreis"},"federalState":{"key":"08","name":"Baden-Württemberg"}},{"name":"Weinbrennerstr.","postalCode":"75045","locality":"Walzbachtal","municipality":{"key":"08215089","name":"Walzbachtal","type":"Kreisangehörige_Gemeinde"},"district":{"key":"08215","name":"Karlsruhe","type":"Landkreis"},"federalState":{"key":"08","name":"Baden-Württemberg"}},{"name":"Weingartener Str.","postalCode":"75045","locality":"Walzbachtal","municipality":{"key":"08215089","name":"Walzbachtal","type":"Kreisangehörige_Gemeinde"},"district":{"key":"08215","name":"Karlsruhe","type":"Landkreis"},"federalState":{"key":"08","name":"Baden-Württemberg"}},{"name":"Wielandweg","postalCode":"75045","locality":"Walzbachtal","municipality":{"key":"08215089","name":"Walzbachtal","type":"Kreisangehörige_Gemeinde"},"district":{"key":"08215","name":"Karlsruhe","type":"Landkreis"},"federalState":{"key":"08","name":"Baden-Württemberg"}},{"name":"Wiesenmühle","postalCode":"75045","locality":"Walzbachtal","municipality":{"key":"08215089","name":"Walzbachtal","type":"Kreisangehörige_Gemeinde"},"district":{"key":"08215","name":"Karlsruhe","type":"Landkreis"},"federalState":{"key":"08","name":"Baden-Württemberg"}},{"name":"Wiesenweg","postalCode":"75045","locality":"Walzbachtal","municipality":{"key":"08215089","name":"Walzbachtal","type":"Kreisangehörige_Gemeinde"},"district":{"key":"08215","name":"Karlsruhe","type":"Landkreis"},"federalState":{"key":"08","name":"Baden-Württemberg"}},{"name":"Wilhelm-Hauff-Weg","postalCode":"75045","locality":"Walzbachtal","municipality":{"key":"08215089","name":"Walzbachtal","type":"Kreisangehörige_Gemeinde"},"district":{"key":"08215","name":"Karlsruhe","type":"Landkreis"},"federalState":{"key":"08","name":"Baden-Württemberg"}},{"name":"Wilhelmstr.","postalCode":"75045","locality":"Walzbachtal","municipality":{"key":"08215089","name":"Walzbachtal","type":"Kreisangehörige_Gemeinde"},"district":{"key":"08215","name":"Karlsruhe","type":"Landkreis"},"federalState":{"key":"08","name":"Baden-Württemberg"}},{"name":"Wolfsgässle","postalCode":"75045","locality":"Walzbachtal","municipality":{"key":"08215089","name":"Walzbachtal","type":"Kreisangehörige_Gemeinde"},"district":{"key":"08215","name":"Karlsruhe","type":"Landkreis"},"federalState":{"key":"08","name":"Baden-Württemberg"}},{"name":"Wöschbacher Str.","postalCode":"75045","locality":"Walzbachtal","municipality":{"key":"08215089","name":"Walzbachtal","type":"Kreisangehörige_Gemeinde"},"district":{"key":"08215","name":"Karlsruhe","type":"Landkreis"},"federalState":{"key":"08","name":"Baden-Württemberg"}},{"name":"Wöschbacher Weg","postalCode":"75045","locality":"Walzbachtal","municipality":{"key":"08215089","name":"Walzbachtal","type":"Kreisangehörige_Gemeinde"},"district":{"key":"08215","name":"Karlsruhe","type":"Landkreis"},"federalState":{"key":"08","name":"Baden-Württemberg"}},{"name":"Wössinger Str.","postalCode":"75045","locality":"Walzbachtal","municipality":{"key":"08215089","name":"Walzbachtal","type":"Kreisangehörige_Gemeinde"},"district":{"key":"08215","name":"Karlsruhe","type":"Landkreis"},"federalState":{"key":"08","name":"Baden-Württemberg"}},{"name":"Wössinger Weg","postalCode":"75045","locality":"Walzbachtal","municipality":{"key":"08215089","name":"Walzbachtal","type":"Kreisangehörige_Gemeinde"},"district":{"key":"08215","name":"Karlsruhe","type":"Landkreis"},"federalState":{"key":"08","name":"Baden-Württemberg"}},{"name":"Yburgweg","postalCode":"76189","locality":"Karlsruhe","municipality":{"key":"08212000","name":"Karlsruhe, Stadt","type":"Stadtkreis"},"district":{"key":"08212","name":"Karlsruhe, Stadtkreis","type":"Stadtkreis"},"federalState":{"key":"08","name":"Baden-Württemberg"}},{"name":"Yorckplatz","postalCode":"76135","locality":"Karlsruhe","municipality":{"key":"08212000","name":"Karlsruhe, Stadt","type":"Stadtkreis"},"district":{"key":"08212","name":"Karlsruhe, Stadtkreis","type":"Stadtkreis"},"federalState":{"key":"08","name":"Baden-Württemberg"}},{"name":"Yorckstr.","postalCode":"76185","locality":"Karlsruhe","municipality":{"key":"08212000","name":"Karlsruhe, Stadt","type":"Stadtkreis"},"district":{"key":"08212","name":"Karlsruhe, Stadtkreis","type":"Stadtkreis"},"federalState":{"key":"08","name":"Baden-Württemberg"}},{"name":"Zabergäuweg","postalCode":"75045","locality":"Walzbachtal","municipality":{"key":"08215089","name":"Walzbachtal","type":"Kreisangehörige_Gemeinde"},"district":{"key":"08215","name":"Karlsruhe","type":"Landkreis"},"federalState":{"key":"08","name":"Baden-Württemberg"}},{"name":"Zedernweg","postalCode":"75045","locality":"Walzbachtal","municipality":{"key":"08215089","name":"Walzbachtal","type":"Kreisangehörige_Gemeinde"},"district":{"key":"08215","name":"Karlsruhe","type":"Landkreis"},"federalState":{"key":"08","name":"Baden-Württemberg"}},{"name":"Ährenweg","postalCode":"76135","locality":"Karlsruhe","municipality":{"key":"08212000","name":"Karlsruhe, Stadt","type":"Stadtkreis"},"district":{"key":"08212","name":"Karlsruhe, Stadtkreis","type":"Stadtkreis"},"federalState":{"key":"08","name":"Baden-Württemberg"}},{"name":"Ölgartenweg","postalCode":"76189","locality":"Karlsruhe","municipality":{"key":"08212000","name":"Karlsruhe, Stadt","type":"Stadtkreis"},"district":{"key":"08212","name":"Karlsruhe, Stadtkreis","type":"Stadtkreis"},"federalState":{"key":"08","name":"Baden-Württemberg"}},{"name":"Östliche Rheinbrückenstr.","postalCode":"76187","locality":"Karlsruhe","municipality":{"key":"08212000","name":"Karlsruhe, Stadt","type":"Stadtkreis"},"district":{"key":"08212","name":"Karlsruhe, Stadtkreis","type":"Stadtkreis"},"federalState":{"key":"08","name":"Baden-Württemberg"}},]