[{"name":"Abt-Sauer-Str.","postalCode":"36132","locality":"Eiterfeld","municipality":{"key":"06631007","name":"Eiterfeld, Marktgemeinde","type":"Kreisangehörige_Gemeinde"},"district":{"key":"06631","name":"Fulda","type":"Landkreis"},"federalState":{"key":"06","name":"Hessen"}},{"name":"Akazienweg","postalCode":"36132","locality":"Eiterfeld","municipality":{"key":"06631007","name":"Eiterfeld, Marktgemeinde","type":"Kreisangehörige_Gemeinde"},"district":{"key":"06631","name":"Fulda","type":"Landkreis"},"federalState":{"key":"06","name":"Hessen"}},{"name":"Alte Landstr.","postalCode":"36132","locality":"Eiterfeld","municipality":{"key":"06631007","name":"Eiterfeld, Marktgemeinde","type":"Kreisangehörige_Gemeinde"},"district":{"key":"06631","name":"Fulda","type":"Landkreis"},"federalState":{"key":"06","name":"Hessen"}},{"name":"Am Amtsgericht","postalCode":"36132","locality":"Eiterfeld","municipality":{"key":"06631007","name":"Eiterfeld, Marktgemeinde","type":"Kreisangehörige_Gemeinde"},"district":{"key":"06631","name":"Fulda","type":"Landkreis"},"federalState":{"key":"06","name":"Hessen"}},{"name":"Am Badepark","postalCode":"36132","locality":"Eiterfeld","municipality":{"key":"06631007","name":"Eiterfeld, Marktgemeinde","type":"Kreisangehörige_Gemeinde"},"district":{"key":"06631","name":"Fulda","type":"Landkreis"},"federalState":{"key":"06","name":"Hessen"}},{"name":"Am Bahndamm","postalCode":"36132","locality":"Eiterfeld","municipality":{"key":"06631007","name":"Eiterfeld, Marktgemeinde","type":"Kreisangehörige_Gemeinde"},"district":{"key":"06631","name":"Fulda","type":"Landkreis"},"federalState":{"key":"06","name":"Hessen"}},{"name":"Am Bahnhof","postalCode":"36132","locality":"Eiterfeld","municipality":{"key":"06631007","name":"Eiterfeld, Marktgemeinde","type":"Kreisangehörige_Gemeinde"},"district":{"key":"06631","name":"Fulda","type":"Landkreis"},"federalState":{"key":"06","name":"Hessen"}},{"name":"Am Baumgarten","postalCode":"36132","locality":"Eiterfeld","municipality":{"key":"06631007","name":"Eiterfeld, Marktgemeinde","type":"Kreisangehörige_Gemeinde"},"district":{"key":"06631","name":"Fulda","type":"Landkreis"},"federalState":{"key":"06","name":"Hessen"}},{"name":"Am Berg","postalCode":"36132","locality":"Eiterfeld","municipality":{"key":"06631007","name":"Eiterfeld, Marktgemeinde","type":"Kreisangehörige_Gemeinde"},"district":{"key":"06631","name":"Fulda","type":"Landkreis"},"federalState":{"key":"06","name":"Hessen"}},{"name":"Am Bergwerk","postalCode":"36132","locality":"Eiterfeld","municipality":{"key":"06631007","name":"Eiterfeld, Marktgemeinde","type":"Kreisangehörige_Gemeinde"},"district":{"key":"06631","name":"Fulda","type":"Landkreis"},"federalState":{"key":"06","name":"Hessen"}},{"name":"Am Bornrain","postalCode":"36132","locality":"Eiterfeld","municipality":{"key":"06631007","name":"Eiterfeld, Marktgemeinde","type":"Kreisangehörige_Gemeinde"},"district":{"key":"06631","name":"Fulda","type":"Landkreis"},"federalState":{"key":"06","name":"Hessen"}},{"name":"Am Bornsattel","postalCode":"36132","locality":"Eiterfeld","municipality":{"key":"06631007","name":"Eiterfeld, Marktgemeinde","type":"Kreisangehörige_Gemeinde"},"district":{"key":"06631","name":"Fulda","type":"Landkreis"},"federalState":{"key":"06","name":"Hessen"}},{"name":"Am Bötzenrasen","postalCode":"36132","locality":"Eiterfeld","municipality":{"key":"06631007","name":"Eiterfeld, Marktgemeinde","type":"Kreisangehörige_Gemeinde"},"district":{"key":"06631","name":"Fulda","type":"Landkreis"},"federalState":{"key":"06","name":"Hessen"}},{"name":"Am Breiten Weg","postalCode":"36132","locality":"Eiterfeld","municipality":{"key":"06631007","name":"Eiterfeld, Marktgemeinde","type":"Kreisangehörige_Gemeinde"},"district":{"key":"06631","name":"Fulda","type":"Landkreis"},"federalState":{"key":"06","name":"Hessen"}},{"name":"Am Burbels","postalCode":"36132","locality":"Eiterfeld","municipality":{"key":"06631007","name":"Eiterfeld, Marktgemeinde","type":"Kreisangehörige_Gemeinde"},"district":{"key":"06631","name":"Fulda","type":"Landkreis"},"federalState":{"key":"06","name":"Hessen"}},{"name":"Am Dorfwasser","postalCode":"36132","locality":"Eiterfeld","municipality":{"key":"06631007","name":"Eiterfeld, Marktgemeinde","type":"Kreisangehörige_Gemeinde"},"district":{"key":"06631","name":"Fulda","type":"Landkreis"},"federalState":{"key":"06","name":"Hessen"}},{"name":"Am Ehrenmal","postalCode":"36132","locality":"Eiterfeld","municipality":{"key":"06631007","name":"Eiterfeld, Marktgemeinde","type":"Kreisangehörige_Gemeinde"},"district":{"key":"06631","name":"Fulda","type":"Landkreis"},"federalState":{"key":"06","name":"Hessen"}},{"name":"Am Fichtenhain","postalCode":"36132","locality":"Eiterfeld","municipality":{"key":"06631007","name":"Eiterfeld, Marktgemeinde","type":"Kreisangehörige_Gemeinde"},"district":{"key":"06631","name":"Fulda","type":"Landkreis"},"federalState":{"key":"06","name":"Hessen"}},{"name":"Am Frohnpfad","postalCode":"36132","locality":"Eiterfeld","municipality":{"key":"06631007","name":"Eiterfeld, Marktgemeinde","type":"Kreisangehörige_Gemeinde"},"district":{"key":"06631","name":"Fulda","type":"Landkreis"},"federalState":{"key":"06","name":"Hessen"}},{"name":"Am Hain","postalCode":"36132","locality":"Eiterfeld","municipality":{"key":"06631007","name":"Eiterfeld, Marktgemeinde","type":"Kreisangehörige_Gemeinde"},"district":{"key":"06631","name":"Fulda","type":"Landkreis"},"federalState":{"key":"06","name":"Hessen"}},{"name":"Am Hauck","postalCode":"36132","locality":"Eiterfeld","municipality":{"key":"06631007","name":"Eiterfeld, Marktgemeinde","type":"Kreisangehörige_Gemeinde"},"district":{"key":"06631","name":"Fulda","type":"Landkreis"},"federalState":{"key":"06","name":"Hessen"}},{"name":"Am Hausberg","postalCode":"36132","locality":"Eiterfeld","municipality":{"key":"06631007","name":"Eiterfeld, Marktgemeinde","type":"Kreisangehörige_Gemeinde"},"district":{"key":"06631","name":"Fulda","type":"Landkreis"},"federalState":{"key":"06","name":"Hessen"}},{"name":"Am Heiligenhäuschen","postalCode":"36132","locality":"Eiterfeld","municipality":{"key":"06631007","name":"Eiterfeld, Marktgemeinde","type":"Kreisangehörige_Gemeinde"},"district":{"key":"06631","name":"Fulda","type":"Landkreis"},"federalState":{"key":"06","name":"Hessen"}},{"name":"Am Heiligenrasen","postalCode":"36132","locality":"Eiterfeld","municipality":{"key":"06631007","name":"Eiterfeld, Marktgemeinde","type":"Kreisangehörige_Gemeinde"},"district":{"key":"06631","name":"Fulda","type":"Landkreis"},"federalState":{"key":"06","name":"Hessen"}},{"name":"Am Hirzacker","postalCode":"36132","locality":"Eiterfeld","municipality":{"key":"06631007","name":"Eiterfeld, Marktgemeinde","type":"Kreisangehörige_Gemeinde"},"district":{"key":"06631","name":"Fulda","type":"Landkreis"},"federalState":{"key":"06","name":"Hessen"}},{"name":"Am Hisselsberg","postalCode":"36132","locality":"Eiterfeld","municipality":{"key":"06631007","name":"Eiterfeld, Marktgemeinde","type":"Kreisangehörige_Gemeinde"},"district":{"key":"06631","name":"Fulda","type":"Landkreis"},"federalState":{"key":"06","name":"Hessen"}},{"name":"Am Hofberg","postalCode":"36132","locality":"Eiterfeld","municipality":{"key":"06631007","name":"Eiterfeld, Marktgemeinde","type":"Kreisangehörige_Gemeinde"},"district":{"key":"06631","name":"Fulda","type":"Landkreis"},"federalState":{"key":"06","name":"Hessen"}},{"name":"Am Hohlenborn","postalCode":"36132","locality":"Eiterfeld","municipality":{"key":"06631007","name":"Eiterfeld, Marktgemeinde","type":"Kreisangehörige_Gemeinde"},"district":{"key":"06631","name":"Fulda","type":"Landkreis"},"federalState":{"key":"06","name":"Hessen"}},{"name":"Am Kaemnatengarten","postalCode":"36132","locality":"Eiterfeld","municipality":{"key":"06631007","name":"Eiterfeld, Marktgemeinde","type":"Kreisangehörige_Gemeinde"},"district":{"key":"06631","name":"Fulda","type":"Landkreis"},"federalState":{"key":"06","name":"Hessen"}},{"name":"Am Kalkofen","postalCode":"36132","locality":"Eiterfeld","municipality":{"key":"06631007","name":"Eiterfeld, Marktgemeinde","type":"Kreisangehörige_Gemeinde"},"district":{"key":"06631","name":"Fulda","type":"Landkreis"},"federalState":{"key":"06","name":"Hessen"}},{"name":"Am Knottenberg","postalCode":"36132","locality":"Eiterfeld","municipality":{"key":"06631007","name":"Eiterfeld, Marktgemeinde","type":"Kreisangehörige_Gemeinde"},"district":{"key":"06631","name":"Fulda","type":"Landkreis"},"federalState":{"key":"06","name":"Hessen"}},{"name":"Am Körle","postalCode":"36132","locality":"Eiterfeld","municipality":{"key":"06631007","name":"Eiterfeld, Marktgemeinde","type":"Kreisangehörige_Gemeinde"},"district":{"key":"06631","name":"Fulda","type":"Landkreis"},"federalState":{"key":"06","name":"Hessen"}},{"name":"Am Küppel","postalCode":"36132","locality":"Eiterfeld","municipality":{"key":"06631007","name":"Eiterfeld, Marktgemeinde","type":"Kreisangehörige_Gemeinde"},"district":{"key":"06631","name":"Fulda","type":"Landkreis"},"federalState":{"key":"06","name":"Hessen"}},{"name":"Am Langen Garten","postalCode":"36132","locality":"Eiterfeld","municipality":{"key":"06631007","name":"Eiterfeld, Marktgemeinde","type":"Kreisangehörige_Gemeinde"},"district":{"key":"06631","name":"Fulda","type":"Landkreis"},"federalState":{"key":"06","name":"Hessen"}},{"name":"Am Mühlhaupt","postalCode":"36132","locality":"Eiterfeld","municipality":{"key":"06631007","name":"Eiterfeld, Marktgemeinde","type":"Kreisangehörige_Gemeinde"},"district":{"key":"06631","name":"Fulda","type":"Landkreis"},"federalState":{"key":"06","name":"Hessen"}},{"name":"Am Rainbaum","postalCode":"36132","locality":"Eiterfeld","municipality":{"key":"06631007","name":"Eiterfeld, Marktgemeinde","type":"Kreisangehörige_Gemeinde"},"district":{"key":"06631","name":"Fulda","type":"Landkreis"},"federalState":{"key":"06","name":"Hessen"}},{"name":"Am Rehgarten","postalCode":"36132","locality":"Eiterfeld","municipality":{"key":"06631007","name":"Eiterfeld, Marktgemeinde","type":"Kreisangehörige_Gemeinde"},"district":{"key":"06631","name":"Fulda","type":"Landkreis"},"federalState":{"key":"06","name":"Hessen"}},{"name":"Am Rinnweg","postalCode":"36132","locality":"Eiterfeld","municipality":{"key":"06631007","name":"Eiterfeld, Marktgemeinde","type":"Kreisangehörige_Gemeinde"},"district":{"key":"06631","name":"Fulda","type":"Landkreis"},"federalState":{"key":"06","name":"Hessen"}},{"name":"Am Rippel","postalCode":"36132","locality":"Eiterfeld","municipality":{"key":"06631007","name":"Eiterfeld, Marktgemeinde","type":"Kreisangehörige_Gemeinde"},"district":{"key":"06631","name":"Fulda","type":"Landkreis"},"federalState":{"key":"06","name":"Hessen"}},{"name":"Am Salzrain","postalCode":"36132","locality":"Eiterfeld","municipality":{"key":"06631007","name":"Eiterfeld, Marktgemeinde","type":"Kreisangehörige_Gemeinde"},"district":{"key":"06631","name":"Fulda","type":"Landkreis"},"federalState":{"key":"06","name":"Hessen"}},{"name":"Am Schafspfad","postalCode":"36132","locality":"Eiterfeld","municipality":{"key":"06631007","name":"Eiterfeld, Marktgemeinde","type":"Kreisangehörige_Gemeinde"},"district":{"key":"06631","name":"Fulda","type":"Landkreis"},"federalState":{"key":"06","name":"Hessen"}},{"name":"Am Schloßgarten","postalCode":"36132","locality":"Eiterfeld","municipality":{"key":"06631007","name":"Eiterfeld, Marktgemeinde","type":"Kreisangehörige_Gemeinde"},"district":{"key":"06631","name":"Fulda","type":"Landkreis"},"federalState":{"key":"06","name":"Hessen"}},{"name":"Am Schwarzen Stück","postalCode":"36132","locality":"Eiterfeld","municipality":{"key":"06631007","name":"Eiterfeld, Marktgemeinde","type":"Kreisangehörige_Gemeinde"},"district":{"key":"06631","name":"Fulda","type":"Landkreis"},"federalState":{"key":"06","name":"Hessen"}},{"name":"Am Schwesternhaus","postalCode":"36132","locality":"Eiterfeld","municipality":{"key":"06631007","name":"Eiterfeld, Marktgemeinde","type":"Kreisangehörige_Gemeinde"},"district":{"key":"06631","name":"Fulda","type":"Landkreis"},"federalState":{"key":"06","name":"Hessen"}},{"name":"Amselweg","postalCode":"36132","locality":"Eiterfeld","municipality":{"key":"06631007","name":"Eiterfeld, Marktgemeinde","type":"Kreisangehörige_Gemeinde"},"district":{"key":"06631","name":"Fulda","type":"Landkreis"},"federalState":{"key":"06","name":"Hessen"}},{"name":"Am Sieresweg","postalCode":"36132","locality":"Eiterfeld","municipality":{"key":"06631007","name":"Eiterfeld, Marktgemeinde","type":"Kreisangehörige_Gemeinde"},"district":{"key":"06631","name":"Fulda","type":"Landkreis"},"federalState":{"key":"06","name":"Hessen"}},{"name":"Am Steg","postalCode":"36132","locality":"Eiterfeld","municipality":{"key":"06631007","name":"Eiterfeld, Marktgemeinde","type":"Kreisangehörige_Gemeinde"},"district":{"key":"06631","name":"Fulda","type":"Landkreis"},"federalState":{"key":"06","name":"Hessen"}},{"name":"Am Steinbruch","postalCode":"36132","locality":"Eiterfeld","municipality":{"key":"06631007","name":"Eiterfeld, Marktgemeinde","type":"Kreisangehörige_Gemeinde"},"district":{"key":"06631","name":"Fulda","type":"Landkreis"},"federalState":{"key":"06","name":"Hessen"}},{"name":"Am Steinmes","postalCode":"36132","locality":"Eiterfeld","municipality":{"key":"06631007","name":"Eiterfeld, Marktgemeinde","type":"Kreisangehörige_Gemeinde"},"district":{"key":"06631","name":"Fulda","type":"Landkreis"},"federalState":{"key":"06","name":"Hessen"}},{"name":"Am Taubenmarkt","postalCode":"36132","locality":"Eiterfeld","municipality":{"key":"06631007","name":"Eiterfeld, Marktgemeinde","type":"Kreisangehörige_Gemeinde"},"district":{"key":"06631","name":"Fulda","type":"Landkreis"},"federalState":{"key":"06","name":"Hessen"}},{"name":"Bachstr.","postalCode":"36132","locality":"Eiterfeld","municipality":{"key":"06631007","name":"Eiterfeld, Marktgemeinde","type":"Kreisangehörige_Gemeinde"},"district":{"key":"06631","name":"Fulda","type":"Landkreis"},"federalState":{"key":"06","name":"Hessen"}},{"name":"Bäckergasse","postalCode":"36132","locality":"Eiterfeld","municipality":{"key":"06631007","name":"Eiterfeld, Marktgemeinde","type":"Kreisangehörige_Gemeinde"},"district":{"key":"06631","name":"Fulda","type":"Landkreis"},"federalState":{"key":"06","name":"Hessen"}},{"name":"Bahnhofstr.","postalCode":"36132","locality":"Eiterfeld","municipality":{"key":"06631007","name":"Eiterfeld, Marktgemeinde","type":"Kreisangehörige_Gemeinde"},"district":{"key":"06631","name":"Fulda","type":"Landkreis"},"federalState":{"key":"06","name":"Hessen"}},{"name":"Baumschulweg","postalCode":"36132","locality":"Eiterfeld","municipality":{"key":"06631007","name":"Eiterfeld, Marktgemeinde","type":"Kreisangehörige_Gemeinde"},"district":{"key":"06631","name":"Fulda","type":"Landkreis"},"federalState":{"key":"06","name":"Hessen"}},{"name":"Bergstr.","postalCode":"36132","locality":"Eiterfeld","municipality":{"key":"06631007","name":"Eiterfeld, Marktgemeinde","type":"Kreisangehörige_Gemeinde"},"district":{"key":"06631","name":"Fulda","type":"Landkreis"},"federalState":{"key":"06","name":"Hessen"}},{"name":"Berliner Str.","postalCode":"36132","locality":"Eiterfeld","municipality":{"key":"06631007","name":"Eiterfeld, Marktgemeinde","type":"Kreisangehörige_Gemeinde"},"district":{"key":"06631","name":"Fulda","type":"Landkreis"},"federalState":{"key":"06","name":"Hessen"}},{"name":"Betzenroder Str.","postalCode":"36132","locality":"Eiterfeld","municipality":{"key":"06631007","name":"Eiterfeld, Marktgemeinde","type":"Kreisangehörige_Gemeinde"},"district":{"key":"06631","name":"Fulda","type":"Landkreis"},"federalState":{"key":"06","name":"Hessen"}},{"name":"Birkenweg","postalCode":"36132","locality":"Eiterfeld","municipality":{"key":"06631007","name":"Eiterfeld, Marktgemeinde","type":"Kreisangehörige_Gemeinde"},"district":{"key":"06631","name":"Fulda","type":"Landkreis"},"federalState":{"key":"06","name":"Hessen"}},{"name":"Blabertsweg","postalCode":"36132","locality":"Eiterfeld","municipality":{"key":"06631007","name":"Eiterfeld, Marktgemeinde","type":"Kreisangehörige_Gemeinde"},"district":{"key":"06631","name":"Fulda","type":"Landkreis"},"federalState":{"key":"06","name":"Hessen"}},{"name":"Blinde Gasse","postalCode":"36132","locality":"Eiterfeld","municipality":{"key":"06631007","name":"Eiterfeld, Marktgemeinde","type":"Kreisangehörige_Gemeinde"},"district":{"key":"06631","name":"Fulda","type":"Landkreis"},"federalState":{"key":"06","name":"Hessen"}},{"name":"Borngasse","postalCode":"36132","locality":"Eiterfeld","municipality":{"key":"06631007","name":"Eiterfeld, Marktgemeinde","type":"Kreisangehörige_Gemeinde"},"district":{"key":"06631","name":"Fulda","type":"Landkreis"},"federalState":{"key":"06","name":"Hessen"}},{"name":"Branderskuppenweg","postalCode":"36132","locality":"Eiterfeld","municipality":{"key":"06631007","name":"Eiterfeld, Marktgemeinde","type":"Kreisangehörige_Gemeinde"},"district":{"key":"06631","name":"Fulda","type":"Landkreis"},"federalState":{"key":"06","name":"Hessen"}},{"name":"Braugasse","postalCode":"36132","locality":"Eiterfeld","municipality":{"key":"06631007","name":"Eiterfeld, Marktgemeinde","type":"Kreisangehörige_Gemeinde"},"district":{"key":"06631","name":"Fulda","type":"Landkreis"},"federalState":{"key":"06","name":"Hessen"}},{"name":"Brauwiese","postalCode":"36132","locality":"Eiterfeld","municipality":{"key":"06631007","name":"Eiterfeld, Marktgemeinde","type":"Kreisangehörige_Gemeinde"},"district":{"key":"06631","name":"Fulda","type":"Landkreis"},"federalState":{"key":"06","name":"Hessen"}},{"name":"Brunnenstr.","postalCode":"36132","locality":"Eiterfeld","municipality":{"key":"06631007","name":"Eiterfeld, Marktgemeinde","type":"Kreisangehörige_Gemeinde"},"district":{"key":"06631","name":"Fulda","type":"Landkreis"},"federalState":{"key":"06","name":"Hessen"}},{"name":"Buchenauer Str.","postalCode":"36132","locality":"Eiterfeld","municipality":{"key":"06631007","name":"Eiterfeld, Marktgemeinde","type":"Kreisangehörige_Gemeinde"},"district":{"key":"06631","name":"Fulda","type":"Landkreis"},"federalState":{"key":"06","name":"Hessen"}},{"name":"Buchenweg","postalCode":"36132","locality":"Eiterfeld","municipality":{"key":"06631007","name":"Eiterfeld, Marktgemeinde","type":"Kreisangehörige_Gemeinde"},"district":{"key":"06631","name":"Fulda","type":"Landkreis"},"federalState":{"key":"06","name":"Hessen"}},{"name":"Bürgerhausstr.","postalCode":"36132","locality":"Eiterfeld","municipality":{"key":"06631007","name":"Eiterfeld, Marktgemeinde","type":"Kreisangehörige_Gemeinde"},"district":{"key":"06631","name":"Fulda","type":"Landkreis"},"federalState":{"key":"06","name":"Hessen"}},{"name":"Burgstr.","postalCode":"36132","locality":"Eiterfeld","municipality":{"key":"06631007","name":"Eiterfeld, Marktgemeinde","type":"Kreisangehörige_Gemeinde"},"district":{"key":"06631","name":"Fulda","type":"Landkreis"},"federalState":{"key":"06","name":"Hessen"}},{"name":"Carl-Schurz-Str.","postalCode":"36041","locality":"Fulda","municipality":{"key":"06631009","name":"Fulda, Stadt","type":"Stadt"},"district":{"key":"06631","name":"Fulda","type":"Landkreis"},"federalState":{"key":"06","name":"Hessen"}},{"name":"Chattenstr.","postalCode":"36043","locality":"Fulda","municipality":{"key":"06631009","name":"Fulda, Stadt","type":"Stadt"},"district":{"key":"06631","name":"Fulda","type":"Landkreis"},"federalState":{"key":"06","name":"Hessen"}},{"name":"Christian-Rohlfs-Str.","postalCode":"36041","locality":"Fulda","municipality":{"key":"06631009","name":"Fulda, Stadt","type":"Stadt"},"district":{"key":"06631","name":"Fulda","type":"Landkreis"},"federalState":{"key":"06","name":"Hessen"}},{"name":"Christian-Wirth-Str.","postalCode":"36043","locality":"Fulda","municipality":{"key":"06631009","name":"Fulda, Stadt","type":"Stadt"},"district":{"key":"06631","name":"Fulda","type":"Landkreis"},"federalState":{"key":"06","name":"Hessen"}},{"name":"Christine-Brückner-Str.","postalCode":"36199","locality":"Rotenburg an der Fulda","municipality":{"key":"06632018","name":"Rotenburg a. d. Fulda, Stadt","type":"Stadt"},"district":{"key":"06632","name":"Hersfeld-Rotenburg","type":"Landkreis"},"federalState":{"key":"06","name":"Hessen"}},{"name":"Columbastr.","postalCode":"36039","locality":"Fulda","municipality":{"key":"06631009","name":"Fulda, Stadt","type":"Stadt"},"district":{"key":"06631","name":"Fulda","type":"Landkreis"},"federalState":{"key":"06","name":"Hessen"}},{"name":"Comostr.","postalCode":"36039","locality":"Fulda","municipality":{"key":"06631009","name":"Fulda, Stadt","type":"Stadt"},"district":{"key":"06631","name":"Fulda","type":"Landkreis"},"federalState":{"key":"06","name":"Hessen"}},{"name":"Corveyer Str.","postalCode":"36039","locality":"Fulda","municipality":{"key":"06631009","name":"Fulda, Stadt","type":"Stadt"},"district":{"key":"06631","name":"Fulda","type":"Landkreis"},"federalState":{"key":"06","name":"Hessen"}},{"name":"Creditonstr.","postalCode":"36039","locality":"Fulda","municipality":{"key":"06631009","name":"Fulda, Stadt","type":"Stadt"},"district":{"key":"06631","name":"Fulda","type":"Landkreis"},"federalState":{"key":"06","name":"Hessen"}},{"name":"Crumbacher Str.","postalCode":"34277","locality":"Fuldabrück","municipality":{"key":"06633008","name":"Fuldabrück","type":"Kreisangehörige_Gemeinde"},"district":{"key":"06633","name":"Kassel","type":"Landkreis"},"federalState":{"key":"06","name":"Hessen"}},{"name":"Danziger Str.","postalCode":"36132","locality":"Eiterfeld","municipality":{"key":"06631007","name":"Eiterfeld, Marktgemeinde","type":"Kreisangehörige_Gemeinde"},"district":{"key":"06631","name":"Fulda","type":"Landkreis"},"federalState":{"key":"06","name":"Hessen"}},{"name":"Das Alte Feld","postalCode":"36132","locality":"Eiterfeld","municipality":{"key":"06631007","name":"Eiterfeld, Marktgemeinde","type":"Kreisangehörige_Gemeinde"},"district":{"key":"06631","name":"Fulda","type":"Landkreis"},"federalState":{"key":"06","name":"Hessen"}},{"name":"Das Neue Land","postalCode":"36132","locality":"Eiterfeld","municipality":{"key":"06631007","name":"Eiterfeld, Marktgemeinde","type":"Kreisangehörige_Gemeinde"},"district":{"key":"06631","name":"Fulda","type":"Landkreis"},"federalState":{"key":"06","name":"Hessen"}},{"name":"Denkmalsweg","postalCode":"36132","locality":"Eiterfeld","municipality":{"key":"06631007","name":"Eiterfeld, Marktgemeinde","type":"Kreisangehörige_Gemeinde"},"district":{"key":"06631","name":"Fulda","type":"Landkreis"},"federalState":{"key":"06","name":"Hessen"}},{"name":"Dittlofroder Str.","postalCode":"36132","locality":"Eiterfeld","municipality":{"key":"06631007","name":"Eiterfeld, Marktgemeinde","type":"Kreisangehörige_Gemeinde"},"district":{"key":"06631","name":"Fulda","type":"Landkreis"},"federalState":{"key":"06","name":"Hessen"}},{"name":"Dorfstr.","postalCode":"36132","locality":"Eiterfeld","municipality":{"key":"06631007","name":"Eiterfeld, Marktgemeinde","type":"Kreisangehörige_Gemeinde"},"district":{"key":"06631","name":"Fulda","type":"Landkreis"},"federalState":{"key":"06","name":"Hessen"}},{"name":"Ebertsgraben","postalCode":"36132","locality":"Eiterfeld","municipality":{"key":"06631007","name":"Eiterfeld, Marktgemeinde","type":"Kreisangehörige_Gemeinde"},"district":{"key":"06631","name":"Fulda","type":"Landkreis"},"federalState":{"key":"06","name":"Hessen"}},{"name":"Eisenacher Weg","postalCode":"36132","locality":"Eiterfeld","municipality":{"key":"06631007","name":"Eiterfeld, Marktgemeinde","type":"Kreisangehörige_Gemeinde"},"district":{"key":"06631","name":"Fulda","type":"Landkreis"},"federalState":{"key":"06","name":"Hessen"}},{"name":"Eitrastr.","postalCode":"36132","locality":"Eiterfeld","municipality":{"key":"06631007","name":"Eiterfeld, Marktgemeinde","type":"Kreisangehörige_Gemeinde"},"district":{"key":"06631","name":"Fulda","type":"Landkreis"},"federalState":{"key":"06","name":"Hessen"}},{"name":"Ellerstr.","postalCode":"36132","locality":"Eiterfeld","municipality":{"key":"06631007","name":"Eiterfeld, Marktgemeinde","type":"Kreisangehörige_Gemeinde"},"district":{"key":"06631","name":"Fulda","type":"Landkreis"},"federalState":{"key":"06","name":"Hessen"}},{"name":"Erlenweg","postalCode":"36132","locality":"Eiterfeld","municipality":{"key":"06631007","name":"Eiterfeld, Marktgemeinde","type":"Kreisangehörige_Gemeinde"},"district":{"key":"06631","name":"Fulda","type":"Landkreis"},"federalState":{"key":"06","name":"Hessen"}},{"name":"Falkenweg","postalCode":"36132","locality":"Eiterfeld","municipality":{"key":"06631007","name":"Eiterfeld, Marktgemeinde","type":"Kreisangehörige_Gemeinde"},"district":{"key":"06631","name":"Fulda","type":"Landkreis"},"federalState":{"key":"06","name":"Hessen"}},{"name":"Feldstr.","postalCode":"36132","locality":"Eiterfeld","municipality":{"key":"06631007","name":"Eiterfeld, Marktgemeinde","type":"Kreisangehörige_Gemeinde"},"district":{"key":"06631","name":"Fulda","type":"Landkreis"},"federalState":{"key":"06","name":"Hessen"}},{"name":"Felsenkeller","postalCode":"36132","locality":"Eiterfeld","municipality":{"key":"06631007","name":"Eiterfeld, Marktgemeinde","type":"Kreisangehörige_Gemeinde"},"district":{"key":"06631","name":"Fulda","type":"Landkreis"},"federalState":{"key":"06","name":"Hessen"}},{"name":"Finkenweg","postalCode":"36132","locality":"Eiterfeld","municipality":{"key":"06631007","name":"Eiterfeld, Marktgemeinde","type":"Kreisangehörige_Gemeinde"},"district":{"key":"06631","name":"Fulda","type":"Landkreis"},"federalState":{"key":"06","name":"Hessen"}},{"name":"Fliederweg","postalCode":"36132","locality":"Eiterfeld","municipality":{"key":"06631007","name":"Eiterfeld, Marktgemeinde","type":"Kreisangehörige_Gemeinde"},"district":{"key":"06631","name":"Fulda","type":"Landkreis"},"federalState":{"key":"06","name":"Hessen"}},{"name":"Forsthaus","postalCode":"36132","locality":"Eiterfeld","municipality":{"key":"06631007","name":"Eiterfeld, Marktgemeinde","type":"Kreisangehörige_Gemeinde"},"district":{"key":"06631","name":"Fulda","type":"Landkreis"},"federalState":{"key":"06","name":"Hessen"}},{"name":"Freihofsweg","postalCode":"36132","locality":"Eiterfeld","municipality":{"key":"06631007","name":"Eiterfeld, Marktgemeinde","type":"Kreisangehörige_Gemeinde"},"district":{"key":"06631","name":"Fulda","type":"Landkreis"},"federalState":{"key":"06","name":"Hessen"}},{"name":"Friedhofstr.","postalCode":"36132","locality":"Eiterfeld","municipality":{"key":"06631007","name":"Eiterfeld, Marktgemeinde","type":"Kreisangehörige_Gemeinde"},"district":{"key":"06631","name":"Fulda","type":"Landkreis"},"federalState":{"key":"06","name":"Hessen"}},{"name":"Friedländer Weg","postalCode":"36132","locality":"Eiterfeld","municipality":{"key":"06631007","name":"Eiterfeld, Marktgemeinde","type":"Kreisangehörige_Gemeinde"},"district":{"key":"06631","name":"Fulda","type":"Landkreis"},"federalState":{"key":"06","name":"Hessen"}},{"name":"Friedrich-Fröbel-Str.","postalCode":"36132","locality":"Eiterfeld","municipality":{"key":"06631007","name":"Eiterfeld, Marktgemeinde","type":"Kreisangehörige_Gemeinde"},"district":{"key":"06631","name":"Fulda","type":"Landkreis"},"federalState":{"key":"06","name":"Hessen"}},{"name":"Fuldaer Str.","postalCode":"36132","locality":"Eiterfeld","municipality":{"key":"06631007","name":"Eiterfeld, Marktgemeinde","type":"Kreisangehörige_Gemeinde"},"district":{"key":"06631","name":"Fulda","type":"Landkreis"},"federalState":{"key":"06","name":"Hessen"}},{"name":"Fürstenecker Str.","postalCode":"36132","locality":"Eiterfeld","municipality":{"key":"06631007","name":"Eiterfeld, Marktgemeinde","type":"Kreisangehörige_Gemeinde"},"district":{"key":"06631","name":"Fulda","type":"Landkreis"},"federalState":{"key":"06","name":"Hessen"}},{"name":"Fürstenecker Weg","postalCode":"36132","locality":"Eiterfeld","municipality":{"key":"06631007","name":"Eiterfeld, Marktgemeinde","type":"Kreisangehörige_Gemeinde"},"district":{"key":"06631","name":"Fulda","type":"Landkreis"},"federalState":{"key":"06","name":"Hessen"}},{"name":"Gartenstr.","postalCode":"36132","locality":"Eiterfeld","municipality":{"key":"06631007","name":"Eiterfeld, Marktgemeinde","type":"Kreisangehörige_Gemeinde"},"district":{"key":"06631","name":"Fulda","type":"Landkreis"},"federalState":{"key":"06","name":"Hessen"}},{"name":"Gehilfersbergstr.","postalCode":"36132","locality":"Eiterfeld","municipality":{"key":"06631007","name":"Eiterfeld, Marktgemeinde","type":"Kreisangehörige_Gemeinde"},"district":{"key":"06631","name":"Fulda","type":"Landkreis"},"federalState":{"key":"06","name":"Hessen"}},{"name":"Geisaer Str.","postalCode":"36132","locality":"Eiterfeld","municipality":{"key":"06631007","name":"Eiterfeld, Marktgemeinde","type":"Kreisangehörige_Gemeinde"},"district":{"key":"06631","name":"Fulda","type":"Landkreis"},"federalState":{"key":"06","name":"Hessen"}},{"name":"Giesenhainer Str.","postalCode":"36132","locality":"Eiterfeld","municipality":{"key":"06631007","name":"Eiterfeld, Marktgemeinde","type":"Kreisangehörige_Gemeinde"},"district":{"key":"06631","name":"Fulda","type":"Landkreis"},"federalState":{"key":"06","name":"Hessen"}},{"name":"Glasbachstr.","postalCode":"36132","locality":"Eiterfeld","municipality":{"key":"06631007","name":"Eiterfeld, Marktgemeinde","type":"Kreisangehörige_Gemeinde"},"district":{"key":"06631","name":"Fulda","type":"Landkreis"},"federalState":{"key":"06","name":"Hessen"}},{"name":"Gnadenberg","postalCode":"36132","locality":"Eiterfeld","municipality":{"key":"06631007","name":"Eiterfeld, Marktgemeinde","type":"Kreisangehörige_Gemeinde"},"district":{"key":"06631","name":"Fulda","type":"Landkreis"},"federalState":{"key":"06","name":"Hessen"}},{"name":"Großentafter Str.","postalCode":"36132","locality":"Eiterfeld","municipality":{"key":"06631007","name":"Eiterfeld, Marktgemeinde","type":"Kreisangehörige_Gemeinde"},"district":{"key":"06631","name":"Fulda","type":"Landkreis"},"federalState":{"key":"06","name":"Hessen"}},{"name":"Grüsselbacher Str.","postalCode":"36132","locality":"Eiterfeld","municipality":{"key":"06631007","name":"Eiterfeld, Marktgemeinde","type":"Kreisangehörige_Gemeinde"},"district":{"key":"06631","name":"Fulda","type":"Landkreis"},"federalState":{"key":"06","name":"Hessen"}},{"name":"Hahnengasse","postalCode":"36132","locality":"Eiterfeld","municipality":{"key":"06631007","name":"Eiterfeld, Marktgemeinde","type":"Kreisangehörige_Gemeinde"},"district":{"key":"06631","name":"Fulda","type":"Landkreis"},"federalState":{"key":"06","name":"Hessen"}},{"name":"Haindorfer Str.","postalCode":"36132","locality":"Eiterfeld","municipality":{"key":"06631007","name":"Eiterfeld, Marktgemeinde","type":"Kreisangehörige_Gemeinde"},"district":{"key":"06631","name":"Fulda","type":"Landkreis"},"federalState":{"key":"06","name":"Hessen"}},{"name":"Hainstr.","postalCode":"36132","locality":"Eiterfeld","municipality":{"key":"06631007","name":"Eiterfeld, Marktgemeinde","type":"Kreisangehörige_Gemeinde"},"district":{"key":"06631","name":"Fulda","type":"Landkreis"},"federalState":{"key":"06","name":"Hessen"}},{"name":"Haubergweg","postalCode":"36132","locality":"Eiterfeld","municipality":{"key":"06631007","name":"Eiterfeld, Marktgemeinde","type":"Kreisangehörige_Gemeinde"},"district":{"key":"06631","name":"Fulda","type":"Landkreis"},"federalState":{"key":"06","name":"Hessen"}},{"name":"Haubtweg","postalCode":"36132","locality":"Eiterfeld","municipality":{"key":"06631007","name":"Eiterfeld, Marktgemeinde","type":"Kreisangehörige_Gemeinde"},"district":{"key":"06631","name":"Fulda","type":"Landkreis"},"federalState":{"key":"06","name":"Hessen"}},{"name":"Hauptstr.","postalCode":"36132","locality":"Eiterfeld","municipality":{"key":"06631007","name":"Eiterfeld, Marktgemeinde","type":"Kreisangehörige_Gemeinde"},"district":{"key":"06631","name":"Fulda","type":"Landkreis"},"federalState":{"key":"06","name":"Hessen"}},{"name":"Heerstr.","postalCode":"36132","locality":"Eiterfeld","municipality":{"key":"06631007","name":"Eiterfeld, Marktgemeinde","type":"Kreisangehörige_Gemeinde"},"district":{"key":"06631","name":"Fulda","type":"Landkreis"},"federalState":{"key":"06","name":"Hessen"}},{"name":"Heideweg","postalCode":"36132","locality":"Eiterfeld","municipality":{"key":"06631007","name":"Eiterfeld, Marktgemeinde","type":"Kreisangehörige_Gemeinde"},"district":{"key":"06631","name":"Fulda","type":"Landkreis"},"federalState":{"key":"06","name":"Hessen"}},{"name":"Heiligenstockstr.","postalCode":"36132","locality":"Eiterfeld","municipality":{"key":"06631007","name":"Eiterfeld, Marktgemeinde","type":"Kreisangehörige_Gemeinde"},"district":{"key":"06631","name":"Fulda","type":"Landkreis"},"federalState":{"key":"06","name":"Hessen"}},{"name":"Heilig Kreuz","postalCode":"36132","locality":"Eiterfeld","municipality":{"key":"06631007","name":"Eiterfeld, Marktgemeinde","type":"Kreisangehörige_Gemeinde"},"district":{"key":"06631","name":"Fulda","type":"Landkreis"},"federalState":{"key":"06","name":"Hessen"}},{"name":"Hellenbergstr.","postalCode":"36132","locality":"Eiterfeld","municipality":{"key":"06631007","name":"Eiterfeld, Marktgemeinde","type":"Kreisangehörige_Gemeinde"},"district":{"key":"06631","name":"Fulda","type":"Landkreis"},"federalState":{"key":"06","name":"Hessen"}},{"name":"Hermann-Lietz-Str.","postalCode":"36132","locality":"Eiterfeld","municipality":{"key":"06631007","name":"Eiterfeld, Marktgemeinde","type":"Kreisangehörige_Gemeinde"},"district":{"key":"06631","name":"Fulda","type":"Landkreis"},"federalState":{"key":"06","name":"Hessen"}},{"name":"Herrenbergstr.","postalCode":"36132","locality":"Eiterfeld","municipality":{"key":"06631007","name":"Eiterfeld, Marktgemeinde","type":"Kreisangehörige_Gemeinde"},"district":{"key":"06631","name":"Fulda","type":"Landkreis"},"federalState":{"key":"06","name":"Hessen"}},{"name":"Hersfelder Str.","postalCode":"36132","locality":"Eiterfeld","municipality":{"key":"06631007","name":"Eiterfeld, Marktgemeinde","type":"Kreisangehörige_Gemeinde"},"district":{"key":"06631","name":"Fulda","type":"Landkreis"},"federalState":{"key":"06","name":"Hessen"}},{"name":"Hinter den Zäunen","postalCode":"36132","locality":"Eiterfeld","municipality":{"key":"06631007","name":"Eiterfeld, Marktgemeinde","type":"Kreisangehörige_Gemeinde"},"district":{"key":"06631","name":"Fulda","type":"Landkreis"},"federalState":{"key":"06","name":"Hessen"}},{"name":"Hirtsküppel","postalCode":"36132","locality":"Eiterfeld","municipality":{"key":"06631007","name":"Eiterfeld, Marktgemeinde","type":"Kreisangehörige_Gemeinde"},"district":{"key":"06631","name":"Fulda","type":"Landkreis"},"federalState":{"key":"06","name":"Hessen"}},{"name":"Hochstr.","postalCode":"36132","locality":"Eiterfeld","municipality":{"key":"06631007","name":"Eiterfeld, Marktgemeinde","type":"Kreisangehörige_Gemeinde"},"district":{"key":"06631","name":"Fulda","type":"Landkreis"},"federalState":{"key":"06","name":"Hessen"}},{"name":"Holzgasse","postalCode":"36132","locality":"Eiterfeld","municipality":{"key":"06631007","name":"Eiterfeld, Marktgemeinde","type":"Kreisangehörige_Gemeinde"},"district":{"key":"06631","name":"Fulda","type":"Landkreis"},"federalState":{"key":"06","name":"Hessen"}},{"name":"Hopfengarten","postalCode":"36132","locality":"Eiterfeld","municipality":{"key":"06631007","name":"Eiterfeld, Marktgemeinde","type":"Kreisangehörige_Gemeinde"},"district":{"key":"06631","name":"Fulda","type":"Landkreis"},"federalState":{"key":"06","name":"Hessen"}},{"name":"Hubertusweg","postalCode":"36132","locality":"Eiterfeld","municipality":{"key":"06631007","name":"Eiterfeld, Marktgemeinde","type":"Kreisangehörige_Gemeinde"},"district":{"key":"06631","name":"Fulda","type":"Landkreis"},"federalState":{"key":"06","name":"Hessen"}},{"name":"Hühnerrain","postalCode":"36132","locality":"Eiterfeld","municipality":{"key":"06631007","name":"Eiterfeld, Marktgemeinde","type":"Kreisangehörige_Gemeinde"},"district":{"key":"06631","name":"Fulda","type":"Landkreis"},"federalState":{"key":"06","name":"Hessen"}},{"name":"Hünbergstr.","postalCode":"36132","locality":"Eiterfeld","municipality":{"key":"06631007","name":"Eiterfeld, Marktgemeinde","type":"Kreisangehörige_Gemeinde"},"district":{"key":"06631","name":"Fulda","type":"Landkreis"},"federalState":{"key":"06","name":"Hessen"}},{"name":"Hünfelder Str.","postalCode":"36132","locality":"Eiterfeld","municipality":{"key":"06631007","name":"Eiterfeld, Marktgemeinde","type":"Kreisangehörige_Gemeinde"},"district":{"key":"06631","name":"Fulda","type":"Landkreis"},"federalState":{"key":"06","name":"Hessen"}},{"name":"Husarenstr.","postalCode":"36132","locality":"Eiterfeld","municipality":{"key":"06631007","name":"Eiterfeld, Marktgemeinde","type":"Kreisangehörige_Gemeinde"},"district":{"key":"06631","name":"Fulda","type":"Landkreis"},"federalState":{"key":"06","name":"Hessen"}},{"name":"Im Grund","postalCode":"36132","locality":"Eiterfeld","municipality":{"key":"06631007","name":"Eiterfeld, Marktgemeinde","type":"Kreisangehörige_Gemeinde"},"district":{"key":"06631","name":"Fulda","type":"Landkreis"},"federalState":{"key":"06","name":"Hessen"}},{"name":"Im Hausgrund","postalCode":"36132","locality":"Eiterfeld","municipality":{"key":"06631007","name":"Eiterfeld, Marktgemeinde","type":"Kreisangehörige_Gemeinde"},"district":{"key":"06631","name":"Fulda","type":"Landkreis"},"federalState":{"key":"06","name":"Hessen"}},{"name":"Im Kirchgrund","postalCode":"36132","locality":"Eiterfeld","municipality":{"key":"06631007","name":"Eiterfeld, Marktgemeinde","type":"Kreisangehörige_Gemeinde"},"district":{"key":"06631","name":"Fulda","type":"Landkreis"},"federalState":{"key":"06","name":"Hessen"}},{"name":"Im Leimbacher Feld","postalCode":"36132","locality":"Eiterfeld","municipality":{"key":"06631007","name":"Eiterfeld, Marktgemeinde","type":"Kreisangehörige_Gemeinde"},"district":{"key":"06631","name":"Fulda","type":"Landkreis"},"federalState":{"key":"06","name":"Hessen"}},{"name":"Im Unterdorf","postalCode":"36132","locality":"Eiterfeld","municipality":{"key":"06631007","name":"Eiterfeld, Marktgemeinde","type":"Kreisangehörige_Gemeinde"},"district":{"key":"06631","name":"Fulda","type":"Landkreis"},"federalState":{"key":"06","name":"Hessen"}},{"name":"In der Gasse","postalCode":"36132","locality":"Eiterfeld","municipality":{"key":"06631007","name":"Eiterfeld, Marktgemeinde","type":"Kreisangehörige_Gemeinde"},"district":{"key":"06631","name":"Fulda","type":"Landkreis"},"federalState":{"key":"06","name":"Hessen"}},{"name":"In der Röd","postalCode":"36132","locality":"Eiterfeld","municipality":{"key":"06631007","name":"Eiterfeld, Marktgemeinde","type":"Kreisangehörige_Gemeinde"},"district":{"key":"06631","name":"Fulda","type":"Landkreis"},"federalState":{"key":"06","name":"Hessen"}},{"name":"Jahnstr.","postalCode":"36132","locality":"Eiterfeld","municipality":{"key":"06631007","name":"Eiterfeld, Marktgemeinde","type":"Kreisangehörige_Gemeinde"},"district":{"key":"06631","name":"Fulda","type":"Landkreis"},"federalState":{"key":"06","name":"Hessen"}},{"name":"Josefstr.","postalCode":"36132","locality":"Eiterfeld","municipality":{"key":"06631007","name":"Eiterfeld, Marktgemeinde","type":"Kreisangehörige_Gemeinde"},"district":{"key":"06631","name":"Fulda","type":"Landkreis"},"federalState":{"key":"06","name":"Hessen"}},{"name":"Kastanienweg","postalCode":"36132","locality":"Eiterfeld","municipality":{"key":"06631007","name":"Eiterfeld, Marktgemeinde","type":"Kreisangehörige_Gemeinde"},"district":{"key":"06631","name":"Fulda","type":"Landkreis"},"federalState":{"key":"06","name":"Hessen"}},{"name":"Kiefernweg","postalCode":"36132","locality":"Eiterfeld","municipality":{"key":"06631007","name":"Eiterfeld, Marktgemeinde","type":"Kreisangehörige_Gemeinde"},"district":{"key":"06631","name":"Fulda","type":"Landkreis"},"federalState":{"key":"06","name":"Hessen"}},{"name":"Kirchgasse","postalCode":"36132","locality":"Eiterfeld","municipality":{"key":"06631007","name":"Eiterfeld, Marktgemeinde","type":"Kreisangehörige_Gemeinde"},"district":{"key":"06631","name":"Fulda","type":"Landkreis"},"federalState":{"key":"06","name":"Hessen"}},{"name":"Kirchweg","postalCode":"36132","locality":"Eiterfeld","municipality":{"key":"06631007","name":"Eiterfeld, Marktgemeinde","type":"Kreisangehörige_Gemeinde"},"district":{"key":"06631","name":"Fulda","type":"Landkreis"},"federalState":{"key":"06","name":"Hessen"}},{"name":"Kirschbaumweg","postalCode":"36132","locality":"Eiterfeld","municipality":{"key":"06631007","name":"Eiterfeld, Marktgemeinde","type":"Kreisangehörige_Gemeinde"},"district":{"key":"06631","name":"Fulda","type":"Landkreis"},"federalState":{"key":"06","name":"Hessen"}},{"name":"Klängeweg","postalCode":"36132","locality":"Eiterfeld","municipality":{"key":"06631007","name":"Eiterfeld, Marktgemeinde","type":"Kreisangehörige_Gemeinde"},"district":{"key":"06631","name":"Fulda","type":"Landkreis"},"federalState":{"key":"06","name":"Hessen"}},{"name":"Kleinbergstr.","postalCode":"36132","locality":"Eiterfeld","municipality":{"key":"06631007","name":"Eiterfeld, Marktgemeinde","type":"Kreisangehörige_Gemeinde"},"district":{"key":"06631","name":"Fulda","type":"Landkreis"},"federalState":{"key":"06","name":"Hessen"}},{"name":"Klingelweg","postalCode":"36132","locality":"Eiterfeld","municipality":{"key":"06631007","name":"Eiterfeld, Marktgemeinde","type":"Kreisangehörige_Gemeinde"},"district":{"key":"06631","name":"Fulda","type":"Landkreis"},"federalState":{"key":"06","name":"Hessen"}},{"name":"Kolpingstr.","postalCode":"36132","locality":"Eiterfeld","municipality":{"key":"06631007","name":"Eiterfeld, Marktgemeinde","type":"Kreisangehörige_Gemeinde"},"district":{"key":"06631","name":"Fulda","type":"Landkreis"},"federalState":{"key":"06","name":"Hessen"}},{"name":"Königsberger Weg","postalCode":"36132","locality":"Eiterfeld","municipality":{"key":"06631007","name":"Eiterfeld, Marktgemeinde","type":"Kreisangehörige_Gemeinde"},"district":{"key":"06631","name":"Fulda","type":"Landkreis"},"federalState":{"key":"06","name":"Hessen"}},{"name":"Koppelweg","postalCode":"36132","locality":"Eiterfeld","municipality":{"key":"06631007","name":"Eiterfeld, Marktgemeinde","type":"Kreisangehörige_Gemeinde"},"district":{"key":"06631","name":"Fulda","type":"Landkreis"},"federalState":{"key":"06","name":"Hessen"}},{"name":"Körnbacher Str.","postalCode":"36132","locality":"Eiterfeld","municipality":{"key":"06631007","name":"Eiterfeld, Marktgemeinde","type":"Kreisangehörige_Gemeinde"},"district":{"key":"06631","name":"Fulda","type":"Landkreis"},"federalState":{"key":"06","name":"Hessen"}},{"name":"Kreuzbergstr.","postalCode":"36132","locality":"Eiterfeld","municipality":{"key":"06631007","name":"Eiterfeld, Marktgemeinde","type":"Kreisangehörige_Gemeinde"},"district":{"key":"06631","name":"Fulda","type":"Landkreis"},"federalState":{"key":"06","name":"Hessen"}},{"name":"Kreuzgasse","postalCode":"36132","locality":"Eiterfeld","municipality":{"key":"06631007","name":"Eiterfeld, Marktgemeinde","type":"Kreisangehörige_Gemeinde"},"district":{"key":"06631","name":"Fulda","type":"Landkreis"},"federalState":{"key":"06","name":"Hessen"}},{"name":"Krumme Gasse","postalCode":"36132","locality":"Eiterfeld","municipality":{"key":"06631007","name":"Eiterfeld, Marktgemeinde","type":"Kreisangehörige_Gemeinde"},"district":{"key":"06631","name":"Fulda","type":"Landkreis"},"federalState":{"key":"06","name":"Hessen"}},{"name":"Leibolzer Str.","postalCode":"36132","locality":"Eiterfeld","municipality":{"key":"06631007","name":"Eiterfeld, Marktgemeinde","type":"Kreisangehörige_Gemeinde"},"district":{"key":"06631","name":"Fulda","type":"Landkreis"},"federalState":{"key":"06","name":"Hessen"}},{"name":"Leimbacher Weg","postalCode":"36132","locality":"Eiterfeld","municipality":{"key":"06631007","name":"Eiterfeld, Marktgemeinde","type":"Kreisangehörige_Gemeinde"},"district":{"key":"06631","name":"Fulda","type":"Landkreis"},"federalState":{"key":"06","name":"Hessen"}},{"name":"Lerchenweg","postalCode":"36132","locality":"Eiterfeld","municipality":{"key":"06631007","name":"Eiterfeld, Marktgemeinde","type":"Kreisangehörige_Gemeinde"},"district":{"key":"06631","name":"Fulda","type":"Landkreis"},"federalState":{"key":"06","name":"Hessen"}},{"name":"Lichtbergstr.","postalCode":"36132","locality":"Eiterfeld","municipality":{"key":"06631007","name":"Eiterfeld, Marktgemeinde","type":"Kreisangehörige_Gemeinde"},"district":{"key":"06631","name":"Fulda","type":"Landkreis"},"federalState":{"key":"06","name":"Hessen"}},{"name":"Liederainstr.","postalCode":"36132","locality":"Eiterfeld","municipality":{"key":"06631007","name":"Eiterfeld, Marktgemeinde","type":"Kreisangehörige_Gemeinde"},"district":{"key":"06631","name":"Fulda","type":"Landkreis"},"federalState":{"key":"06","name":"Hessen"}},{"name":"Lindenallee","postalCode":"36132","locality":"Eiterfeld","municipality":{"key":"06631007","name":"Eiterfeld, Marktgemeinde","type":"Kreisangehörige_Gemeinde"},"district":{"key":"06631","name":"Fulda","type":"Landkreis"},"federalState":{"key":"06","name":"Hessen"}},{"name":"Lindenrain","postalCode":"36132","locality":"Eiterfeld","municipality":{"key":"06631007","name":"Eiterfeld, Marktgemeinde","type":"Kreisangehörige_Gemeinde"},"district":{"key":"06631","name":"Fulda","type":"Landkreis"},"federalState":{"key":"06","name":"Hessen"}},{"name":"Lindenweg","postalCode":"36132","locality":"Eiterfeld","municipality":{"key":"06631007","name":"Eiterfeld, Marktgemeinde","type":"Kreisangehörige_Gemeinde"},"district":{"key":"06631","name":"Fulda","type":"Landkreis"},"federalState":{"key":"06","name":"Hessen"}},{"name":"Malgeser Str.","postalCode":"36132","locality":"Eiterfeld","municipality":{"key":"06631007","name":"Eiterfeld, Marktgemeinde","type":"Kreisangehörige_Gemeinde"},"district":{"key":"06631","name":"Fulda","type":"Landkreis"},"federalState":{"key":"06","name":"Hessen"}},{"name":"Mängersgraben","postalCode":"36132","locality":"Eiterfeld","municipality":{"key":"06631007","name":"Eiterfeld, Marktgemeinde","type":"Kreisangehörige_Gemeinde"},"district":{"key":"06631","name":"Fulda","type":"Landkreis"},"federalState":{"key":"06","name":"Hessen"}},{"name":"Mansbacher Weg","postalCode":"36132","locality":"Eiterfeld","municipality":{"key":"06631007","name":"Eiterfeld, Marktgemeinde","type":"Kreisangehörige_Gemeinde"},"district":{"key":"06631","name":"Fulda","type":"Landkreis"},"federalState":{"key":"06","name":"Hessen"}},{"name":"Marienstr.","postalCode":"36132","locality":"Eiterfeld","municipality":{"key":"06631007","name":"Eiterfeld, Marktgemeinde","type":"Kreisangehörige_Gemeinde"},"district":{"key":"06631","name":"Fulda","type":"Landkreis"},"federalState":{"key":"06","name":"Hessen"}},{"name":"Marktstr.","postalCode":"36132","locality":"Eiterfeld","municipality":{"key":"06631007","name":"Eiterfeld, Marktgemeinde","type":"Kreisangehörige_Gemeinde"},"district":{"key":"06631","name":"Fulda","type":"Landkreis"},"federalState":{"key":"06","name":"Hessen"}},{"name":"Mengerser Str.","postalCode":"36132","locality":"Eiterfeld","municipality":{"key":"06631007","name":"Eiterfeld, Marktgemeinde","type":"Kreisangehörige_Gemeinde"},"district":{"key":"06631","name":"Fulda","type":"Landkreis"},"federalState":{"key":"06","name":"Hessen"}},{"name":"Merlenweg","postalCode":"36132","locality":"Eiterfeld","municipality":{"key":"06631007","name":"Eiterfeld, Marktgemeinde","type":"Kreisangehörige_Gemeinde"},"district":{"key":"06631","name":"Fulda","type":"Landkreis"},"federalState":{"key":"06","name":"Hessen"}},{"name":"Milchstr.","postalCode":"36132","locality":"Eiterfeld","municipality":{"key":"06631007","name":"Eiterfeld, Marktgemeinde","type":"Kreisangehörige_Gemeinde"},"district":{"key":"06631","name":"Fulda","type":"Landkreis"},"federalState":{"key":"06","name":"Hessen"}},{"name":"Mittelstr.","postalCode":"36132","locality":"Eiterfeld","municipality":{"key":"06631007","name":"Eiterfeld, Marktgemeinde","type":"Kreisangehörige_Gemeinde"},"district":{"key":"06631","name":"Fulda","type":"Landkreis"},"federalState":{"key":"06","name":"Hessen"}},{"name":"Moorsbergstr.","postalCode":"36132","locality":"Eiterfeld","municipality":{"key":"06631007","name":"Eiterfeld, Marktgemeinde","type":"Kreisangehörige_Gemeinde"},"district":{"key":"06631","name":"Fulda","type":"Landkreis"},"federalState":{"key":"06","name":"Hessen"}},{"name":"Mühlberg","postalCode":"36132","locality":"Eiterfeld","municipality":{"key":"06631007","name":"Eiterfeld, Marktgemeinde","type":"Kreisangehörige_Gemeinde"},"district":{"key":"06631","name":"Fulda","type":"Landkreis"},"federalState":{"key":"06","name":"Hessen"}},{"name":"Mühlweg","postalCode":"36132","locality":"Eiterfeld","municipality":{"key":"06631007","name":"Eiterfeld, Marktgemeinde","type":"Kreisangehörige_Gemeinde"},"district":{"key":"06631","name":"Fulda","type":"Landkreis"},"federalState":{"key":"06","name":"Hessen"}},{"name":"Nußhecke","postalCode":"36132","locality":"Eiterfeld","municipality":{"key":"06631007","name":"Eiterfeld, Marktgemeinde","type":"Kreisangehörige_Gemeinde"},"district":{"key":"06631","name":"Fulda","type":"Landkreis"},"federalState":{"key":"06","name":"Hessen"}},{"name":"Oberer Klängeweg","postalCode":"36132","locality":"Eiterfeld","municipality":{"key":"06631007","name":"Eiterfeld, Marktgemeinde","type":"Kreisangehörige_Gemeinde"},"district":{"key":"06631","name":"Fulda","type":"Landkreis"},"federalState":{"key":"06","name":"Hessen"}},{"name":"Oberes Pfaffental","postalCode":"36132","locality":"Eiterfeld","municipality":{"key":"06631007","name":"Eiterfeld, Marktgemeinde","type":"Kreisangehörige_Gemeinde"},"district":{"key":"06631","name":"Fulda","type":"Landkreis"},"federalState":{"key":"06","name":"Hessen"}},{"name":"Obere Stoppelsbergstr.","postalCode":"36132","locality":"Eiterfeld","municipality":{"key":"06631007","name":"Eiterfeld, Marktgemeinde","type":"Kreisangehörige_Gemeinde"},"district":{"key":"06631","name":"Fulda","type":"Landkreis"},"federalState":{"key":"06","name":"Hessen"}},{"name":"Oder-Neiße-Weg","postalCode":"36132","locality":"Eiterfeld","municipality":{"key":"06631007","name":"Eiterfeld, Marktgemeinde","type":"Kreisangehörige_Gemeinde"},"district":{"key":"06631","name":"Fulda","type":"Landkreis"},"federalState":{"key":"06","name":"Hessen"}},{"name":"Pappelallee","postalCode":"36132","locality":"Eiterfeld","municipality":{"key":"06631007","name":"Eiterfeld, Marktgemeinde","type":"Kreisangehörige_Gemeinde"},"district":{"key":"06631","name":"Fulda","type":"Landkreis"},"federalState":{"key":"06","name":"Hessen"}},{"name":"Pestalozzistr.","postalCode":"36132","locality":"Eiterfeld","municipality":{"key":"06631007","name":"Eiterfeld, Marktgemeinde","type":"Kreisangehörige_Gemeinde"},"district":{"key":"06631","name":"Fulda","type":"Landkreis"},"federalState":{"key":"06","name":"Hessen"}},{"name":"Pfaffenliede","postalCode":"36132","locality":"Eiterfeld","municipality":{"key":"06631007","name":"Eiterfeld, Marktgemeinde","type":"Kreisangehörige_Gemeinde"},"district":{"key":"06631","name":"Fulda","type":"Landkreis"},"federalState":{"key":"06","name":"Hessen"}},{"name":"Querstr.","postalCode":"36132","locality":"Eiterfeld","municipality":{"key":"06631007","name":"Eiterfeld, Marktgemeinde","type":"Kreisangehörige_Gemeinde"},"district":{"key":"06631","name":"Fulda","type":"Landkreis"},"federalState":{"key":"06","name":"Hessen"}},{"name":"Raiffeisenstr.","postalCode":"36132","locality":"Eiterfeld","municipality":{"key":"06631007","name":"Eiterfeld, Marktgemeinde","type":"Kreisangehörige_Gemeinde"},"district":{"key":"06631","name":"Fulda","type":"Landkreis"},"federalState":{"key":"06","name":"Hessen"}},{"name":"Rasdorfer Str.","postalCode":"36132","locality":"Eiterfeld","municipality":{"key":"06631007","name":"Eiterfeld, Marktgemeinde","type":"Kreisangehörige_Gemeinde"},"district":{"key":"06631","name":"Fulda","type":"Landkreis"},"federalState":{"key":"06","name":"Hessen"}},{"name":"Reckröder Str.","postalCode":"36132","locality":"Eiterfeld","municipality":{"key":"06631007","name":"Eiterfeld, Marktgemeinde","type":"Kreisangehörige_Gemeinde"},"district":{"key":"06631","name":"Fulda","type":"Landkreis"},"federalState":{"key":"06","name":"Hessen"}},{"name":"Reckröder Weg","postalCode":"36132","locality":"Eiterfeld","municipality":{"key":"06631007","name":"Eiterfeld, Marktgemeinde","type":"Kreisangehörige_Gemeinde"},"district":{"key":"06631","name":"Fulda","type":"Landkreis"},"federalState":{"key":"06","name":"Hessen"}},{"name":"Rhönblick","postalCode":"36132","locality":"Eiterfeld","municipality":{"key":"06631007","name":"Eiterfeld, Marktgemeinde","type":"Kreisangehörige_Gemeinde"},"district":{"key":"06631","name":"Fulda","type":"Landkreis"},"federalState":{"key":"06","name":"Hessen"}},{"name":"Rhönstr.","postalCode":"36132","locality":"Eiterfeld","municipality":{"key":"06631007","name":"Eiterfeld, Marktgemeinde","type":"Kreisangehörige_Gemeinde"},"district":{"key":"06631","name":"Fulda","type":"Landkreis"},"federalState":{"key":"06","name":"Hessen"}},{"name":"Ringbergstr.","postalCode":"36132","locality":"Eiterfeld","municipality":{"key":"06631007","name":"Eiterfeld, Marktgemeinde","type":"Kreisangehörige_Gemeinde"},"district":{"key":"06631","name":"Fulda","type":"Landkreis"},"federalState":{"key":"06","name":"Hessen"}},{"name":"Ringstr.","postalCode":"36132","locality":"Eiterfeld","municipality":{"key":"06631007","name":"Eiterfeld, Marktgemeinde","type":"Kreisangehörige_Gemeinde"},"district":{"key":"06631","name":"Fulda","type":"Landkreis"},"federalState":{"key":"06","name":"Hessen"}},{"name":"Rittergasse","postalCode":"36132","locality":"Eiterfeld","municipality":{"key":"06631007","name":"Eiterfeld, Marktgemeinde","type":"Kreisangehörige_Gemeinde"},"district":{"key":"06631","name":"Fulda","type":"Landkreis"},"federalState":{"key":"06","name":"Hessen"}},{"name":"Rödmühle","postalCode":"36132","locality":"Eiterfeld","municipality":{"key":"06631007","name":"Eiterfeld, Marktgemeinde","type":"Kreisangehörige_Gemeinde"},"district":{"key":"06631","name":"Fulda","type":"Landkreis"},"federalState":{"key":"06","name":"Hessen"}},{"name":"Rosenweg","postalCode":"36132","locality":"Eiterfeld","municipality":{"key":"06631007","name":"Eiterfeld, Marktgemeinde","type":"Kreisangehörige_Gemeinde"},"district":{"key":"06631","name":"Fulda","type":"Landkreis"},"federalState":{"key":"06","name":"Hessen"}},{"name":"Roßbacher Str.","postalCode":"36132","locality":"Eiterfeld","municipality":{"key":"06631007","name":"Eiterfeld, Marktgemeinde","type":"Kreisangehörige_Gemeinde"},"district":{"key":"06631","name":"Fulda","type":"Landkreis"},"federalState":{"key":"06","name":"Hessen"}},{"name":"Roter Weg","postalCode":"36132","locality":"Eiterfeld","municipality":{"key":"06631007","name":"Eiterfeld, Marktgemeinde","type":"Kreisangehörige_Gemeinde"},"district":{"key":"06631","name":"Fulda","type":"Landkreis"},"federalState":{"key":"06","name":"Hessen"}},{"name":"Rückersbergstr.","postalCode":"36132","locality":"Eiterfeld","municipality":{"key":"06631007","name":"Eiterfeld, Marktgemeinde","type":"Kreisangehörige_Gemeinde"},"district":{"key":"06631","name":"Fulda","type":"Landkreis"},"federalState":{"key":"06","name":"Hessen"}},{"name":"Sackgasse","postalCode":"36132","locality":"Eiterfeld","municipality":{"key":"06631007","name":"Eiterfeld, Marktgemeinde","type":"Kreisangehörige_Gemeinde"},"district":{"key":"06631","name":"Fulda","type":"Landkreis"},"federalState":{"key":"06","name":"Hessen"}},{"name":"Sandbergstr.","postalCode":"36132","locality":"Eiterfeld","municipality":{"key":"06631007","name":"Eiterfeld, Marktgemeinde","type":"Kreisangehörige_Gemeinde"},"district":{"key":"06631","name":"Fulda","type":"Landkreis"},"federalState":{"key":"06","name":"Hessen"}},{"name":"Sauerbachstr.","postalCode":"36132","locality":"Eiterfeld","municipality":{"key":"06631007","name":"Eiterfeld, Marktgemeinde","type":"Kreisangehörige_Gemeinde"},"district":{"key":"06631","name":"Fulda","type":"Landkreis"},"federalState":{"key":"06","name":"Hessen"}},{"name":"Schäfergasse","postalCode":"36132","locality":"Eiterfeld","municipality":{"key":"06631007","name":"Eiterfeld, Marktgemeinde","type":"Kreisangehörige_Gemeinde"},"district":{"key":"06631","name":"Fulda","type":"Landkreis"},"federalState":{"key":"06","name":"Hessen"}},{"name":"Schlehenweg","postalCode":"36132","locality":"Eiterfeld","municipality":{"key":"06631007","name":"Eiterfeld, Marktgemeinde","type":"Kreisangehörige_Gemeinde"},"district":{"key":"06631","name":"Fulda","type":"Landkreis"},"federalState":{"key":"06","name":"Hessen"}},{"name":"Schlesier Weg","postalCode":"36132","locality":"Eiterfeld","municipality":{"key":"06631007","name":"Eiterfeld, Marktgemeinde","type":"Kreisangehörige_Gemeinde"},"district":{"key":"06631","name":"Fulda","type":"Landkreis"},"federalState":{"key":"06","name":"Hessen"}},{"name":"Schlossforum","postalCode":"36132","locality":"Eiterfeld","municipality":{"key":"06631007","name":"Eiterfeld, Marktgemeinde","type":"Kreisangehörige_Gemeinde"},"district":{"key":"06631","name":"Fulda","type":"Landkreis"},"federalState":{"key":"06","name":"Hessen"}},{"name":"Schlosspark","postalCode":"36132","locality":"Eiterfeld","municipality":{"key":"06631007","name":"Eiterfeld, Marktgemeinde","type":"Kreisangehörige_Gemeinde"},"district":{"key":"06631","name":"Fulda","type":"Landkreis"},"federalState":{"key":"06","name":"Hessen"}},{"name":"Schmiedegasse","postalCode":"36132","locality":"Eiterfeld","municipality":{"key":"06631007","name":"Eiterfeld, Marktgemeinde","type":"Kreisangehörige_Gemeinde"},"district":{"key":"06631","name":"Fulda","type":"Landkreis"},"federalState":{"key":"06","name":"Hessen"}},{"name":"Schodersstr.","postalCode":"36132","locality":"Eiterfeld","municipality":{"key":"06631007","name":"Eiterfeld, Marktgemeinde","type":"Kreisangehörige_Gemeinde"},"district":{"key":"06631","name":"Fulda","type":"Landkreis"},"federalState":{"key":"06","name":"Hessen"}},{"name":"Schulstr.","postalCode":"36132","locality":"Eiterfeld","municipality":{"key":"06631007","name":"Eiterfeld, Marktgemeinde","type":"Kreisangehörige_Gemeinde"},"district":{"key":"06631","name":"Fulda","type":"Landkreis"},"federalState":{"key":"06","name":"Hessen"}},{"name":"Sebastianstr.","postalCode":"36132","locality":"Eiterfeld","municipality":{"key":"06631007","name":"Eiterfeld, Marktgemeinde","type":"Kreisangehörige_Gemeinde"},"district":{"key":"06631","name":"Fulda","type":"Landkreis"},"federalState":{"key":"06","name":"Hessen"}},{"name":"Siedlungsstr.","postalCode":"36132","locality":"Eiterfeld","municipality":{"key":"06631007","name":"Eiterfeld, Marktgemeinde","type":"Kreisangehörige_Gemeinde"},"district":{"key":"06631","name":"Fulda","type":"Landkreis"},"federalState":{"key":"06","name":"Hessen"}},{"name":"Simmerweg","postalCode":"36132","locality":"Eiterfeld","municipality":{"key":"06631007","name":"Eiterfeld, Marktgemeinde","type":"Kreisangehörige_Gemeinde"},"district":{"key":"06631","name":"Fulda","type":"Landkreis"},"federalState":{"key":"06","name":"Hessen"}},{"name":"Soisbergstr.","postalCode":"36132","locality":"Eiterfeld","municipality":{"key":"06631007","name":"Eiterfeld, Marktgemeinde","type":"Kreisangehörige_Gemeinde"},"district":{"key":"06631","name":"Fulda","type":"Landkreis"},"federalState":{"key":"06","name":"Hessen"}},{"name":"Soisdorfer Str.","postalCode":"36132","locality":"Eiterfeld","municipality":{"key":"06631007","name":"Eiterfeld, Marktgemeinde","type":"Kreisangehörige_Gemeinde"},"district":{"key":"06631","name":"Fulda","type":"Landkreis"},"federalState":{"key":"06","name":"Hessen"}},{"name":"Solzstr.","postalCode":"36132","locality":"Eiterfeld","municipality":{"key":"06631007","name":"Eiterfeld, Marktgemeinde","type":"Kreisangehörige_Gemeinde"},"district":{"key":"06631","name":"Fulda","type":"Landkreis"},"federalState":{"key":"06","name":"Hessen"}},{"name":"Sommerweg","postalCode":"36132","locality":"Eiterfeld","municipality":{"key":"06631007","name":"Eiterfeld, Marktgemeinde","type":"Kreisangehörige_Gemeinde"},"district":{"key":"06631","name":"Fulda","type":"Landkreis"},"federalState":{"key":"06","name":"Hessen"}},{"name":"Sportplatzweg","postalCode":"36132","locality":"Eiterfeld","municipality":{"key":"06631007","name":"Eiterfeld, Marktgemeinde","type":"Kreisangehörige_Gemeinde"},"district":{"key":"06631","name":"Fulda","type":"Landkreis"},"federalState":{"key":"06","name":"Hessen"}},{"name":"Stallbergstr.","postalCode":"36132","locality":"Eiterfeld","municipality":{"key":"06631007","name":"Eiterfeld, Marktgemeinde","type":"Kreisangehörige_Gemeinde"},"district":{"key":"06631","name":"Fulda","type":"Landkreis"},"federalState":{"key":"06","name":"Hessen"}},{"name":"Steinbacher Str.","postalCode":"36132","locality":"Eiterfeld","municipality":{"key":"06631007","name":"Eiterfeld, Marktgemeinde","type":"Kreisangehörige_Gemeinde"},"district":{"key":"06631","name":"Fulda","type":"Landkreis"},"federalState":{"key":"06","name":"Hessen"}},{"name":"Steinweg","postalCode":"36132","locality":"Eiterfeld","municipality":{"key":"06631007","name":"Eiterfeld, Marktgemeinde","type":"Kreisangehörige_Gemeinde"},"district":{"key":"06631","name":"Fulda","type":"Landkreis"},"federalState":{"key":"06","name":"Hessen"}},{"name":"Stirnweg","postalCode":"36132","locality":"Eiterfeld","municipality":{"key":"06631007","name":"Eiterfeld, Marktgemeinde","type":"Kreisangehörige_Gemeinde"},"district":{"key":"06631","name":"Fulda","type":"Landkreis"},"federalState":{"key":"06","name":"Hessen"}},{"name":"St.-Konrad-Str.","postalCode":"36132","locality":"Eiterfeld","municipality":{"key":"06631007","name":"Eiterfeld, Marktgemeinde","type":"Kreisangehörige_Gemeinde"},"district":{"key":"06631","name":"Fulda","type":"Landkreis"},"federalState":{"key":"06","name":"Hessen"}},{"name":"St.-Laurentius-Str.","postalCode":"36132","locality":"Eiterfeld","municipality":{"key":"06631007","name":"Eiterfeld, Marktgemeinde","type":"Kreisangehörige_Gemeinde"},"district":{"key":"06631","name":"Fulda","type":"Landkreis"},"federalState":{"key":"06","name":"Hessen"}},{"name":"Stoppeler Str.","postalCode":"36132","locality":"Eiterfeld","municipality":{"key":"06631007","name":"Eiterfeld, Marktgemeinde","type":"Kreisangehörige_Gemeinde"},"district":{"key":"06631","name":"Fulda","type":"Landkreis"},"federalState":{"key":"06","name":"Hessen"}},{"name":"St.-Paulus-Str.","postalCode":"36132","locality":"Eiterfeld","municipality":{"key":"06631007","name":"Eiterfeld, Marktgemeinde","type":"Kreisangehörige_Gemeinde"},"district":{"key":"06631","name":"Fulda","type":"Landkreis"},"federalState":{"key":"06","name":"Hessen"}},{"name":"Taftstr.","postalCode":"36132","locality":"Eiterfeld","municipality":{"key":"06631007","name":"Eiterfeld, Marktgemeinde","type":"Kreisangehörige_Gemeinde"},"district":{"key":"06631","name":"Fulda","type":"Landkreis"},"federalState":{"key":"06","name":"Hessen"}},{"name":"Tannenweg","postalCode":"36132","locality":"Eiterfeld","municipality":{"key":"06631007","name":"Eiterfeld, Marktgemeinde","type":"Kreisangehörige_Gemeinde"},"district":{"key":"06631","name":"Fulda","type":"Landkreis"},"federalState":{"key":"06","name":"Hessen"}},{"name":"Tauschweg","postalCode":"36132","locality":"Eiterfeld","municipality":{"key":"06631007","name":"Eiterfeld, Marktgemeinde","type":"Kreisangehörige_Gemeinde"},"district":{"key":"06631","name":"Fulda","type":"Landkreis"},"federalState":{"key":"06","name":"Hessen"}},{"name":"Treppenweg","postalCode":"36132","locality":"Eiterfeld","municipality":{"key":"06631007","name":"Eiterfeld, Marktgemeinde","type":"Kreisangehörige_Gemeinde"},"district":{"key":"06631","name":"Fulda","type":"Landkreis"},"federalState":{"key":"06","name":"Hessen"}},{"name":"Triftring","postalCode":"36132","locality":"Eiterfeld","municipality":{"key":"06631007","name":"Eiterfeld, Marktgemeinde","type":"Kreisangehörige_Gemeinde"},"district":{"key":"06631","name":"Fulda","type":"Landkreis"},"federalState":{"key":"06","name":"Hessen"}},{"name":"Ufhäuser Tor","postalCode":"36132","locality":"Eiterfeld","municipality":{"key":"06631007","name":"Eiterfeld, Marktgemeinde","type":"Kreisangehörige_Gemeinde"},"district":{"key":"06631","name":"Fulda","type":"Landkreis"},"federalState":{"key":"06","name":"Hessen"}},{"name":"Unsbenweg","postalCode":"36132","locality":"Eiterfeld","municipality":{"key":"06631007","name":"Eiterfeld, Marktgemeinde","type":"Kreisangehörige_Gemeinde"},"district":{"key":"06631","name":"Fulda","type":"Landkreis"},"federalState":{"key":"06","name":"Hessen"}},{"name":"Untere Haindorfer Str.","postalCode":"36132","locality":"Eiterfeld","municipality":{"key":"06631007","name":"Eiterfeld, Marktgemeinde","type":"Kreisangehörige_Gemeinde"},"district":{"key":"06631","name":"Fulda","type":"Landkreis"},"federalState":{"key":"06","name":"Hessen"}},{"name":"Unteres Pfaffental","postalCode":"36132","locality":"Eiterfeld","municipality":{"key":"06631007","name":"Eiterfeld, Marktgemeinde","type":"Kreisangehörige_Gemeinde"},"district":{"key":"06631","name":"Fulda","type":"Landkreis"},"federalState":{"key":"06","name":"Hessen"}},{"name":"Untere Stoppelsbergstr.","postalCode":"36132","locality":"Eiterfeld","municipality":{"key":"06631007","name":"Eiterfeld, Marktgemeinde","type":"Kreisangehörige_Gemeinde"},"district":{"key":"06631","name":"Fulda","type":"Landkreis"},"federalState":{"key":"06","name":"Hessen"}},{"name":"Untere Trift","postalCode":"36132","locality":"Eiterfeld","municipality":{"key":"06631007","name":"Eiterfeld, Marktgemeinde","type":"Kreisangehörige_Gemeinde"},"district":{"key":"06631","name":"Fulda","type":"Landkreis"},"federalState":{"key":"06","name":"Hessen"}},{"name":"Unterweg","postalCode":"36132","locality":"Eiterfeld","municipality":{"key":"06631007","name":"Eiterfeld, Marktgemeinde","type":"Kreisangehörige_Gemeinde"},"district":{"key":"06631","name":"Fulda","type":"Landkreis"},"federalState":{"key":"06","name":"Hessen"}},{"name":"Vachaer Str.","postalCode":"36132","locality":"Eiterfeld","municipality":{"key":"06631007","name":"Eiterfeld, Marktgemeinde","type":"Kreisangehörige_Gemeinde"},"district":{"key":"06631","name":"Fulda","type":"Landkreis"},"federalState":{"key":"06","name":"Hessen"}},{"name":"Vitusweg","postalCode":"36132","locality":"Eiterfeld","municipality":{"key":"06631007","name":"Eiterfeld, Marktgemeinde","type":"Kreisangehörige_Gemeinde"},"district":{"key":"06631","name":"Fulda","type":"Landkreis"},"federalState":{"key":"06","name":"Hessen"}},{"name":"Vogelsbergstr.","postalCode":"36132","locality":"Eiterfeld","municipality":{"key":"06631007","name":"Eiterfeld, Marktgemeinde","type":"Kreisangehörige_Gemeinde"},"district":{"key":"06631","name":"Fulda","type":"Landkreis"},"federalState":{"key":"06","name":"Hessen"}},{"name":"Vor dem Tor","postalCode":"36132","locality":"Eiterfeld","municipality":{"key":"06631007","name":"Eiterfeld, Marktgemeinde","type":"Kreisangehörige_Gemeinde"},"district":{"key":"06631","name":"Fulda","type":"Landkreis"},"federalState":{"key":"06","name":"Hessen"}},{"name":"Wacholderweg","postalCode":"36132","locality":"Eiterfeld","municipality":{"key":"06631007","name":"Eiterfeld, Marktgemeinde","type":"Kreisangehörige_Gemeinde"},"district":{"key":"06631","name":"Fulda","type":"Landkreis"},"federalState":{"key":"06","name":"Hessen"}},{"name":"Waldstr.","postalCode":"36132","locality":"Eiterfeld","municipality":{"key":"06631007","name":"Eiterfeld, Marktgemeinde","type":"Kreisangehörige_Gemeinde"},"district":{"key":"06631","name":"Fulda","type":"Landkreis"},"federalState":{"key":"06","name":"Hessen"}},{"name":"Waldwiese","postalCode":"36132","locality":"Eiterfeld","municipality":{"key":"06631007","name":"Eiterfeld, Marktgemeinde","type":"Kreisangehörige_Gemeinde"},"district":{"key":"06631","name":"Fulda","type":"Landkreis"},"federalState":{"key":"06","name":"Hessen"}},{"name":"Wallgasse","postalCode":"36132","locality":"Eiterfeld","municipality":{"key":"06631007","name":"Eiterfeld, Marktgemeinde","type":"Kreisangehörige_Gemeinde"},"district":{"key":"06631","name":"Fulda","type":"Landkreis"},"federalState":{"key":"06","name":"Hessen"}},{"name":"Wallweg","postalCode":"36132","locality":"Eiterfeld","municipality":{"key":"06631007","name":"Eiterfeld, Marktgemeinde","type":"Kreisangehörige_Gemeinde"},"district":{"key":"06631","name":"Fulda","type":"Landkreis"},"federalState":{"key":"06","name":"Hessen"}},{"name":"Wassergasse","postalCode":"36132","locality":"Eiterfeld","municipality":{"key":"06631007","name":"Eiterfeld, Marktgemeinde","type":"Kreisangehörige_Gemeinde"},"district":{"key":"06631","name":"Fulda","type":"Landkreis"},"federalState":{"key":"06","name":"Hessen"}},{"name":"Webergasse","postalCode":"36132","locality":"Eiterfeld","municipality":{"key":"06631007","name":"Eiterfeld, Marktgemeinde","type":"Kreisangehörige_Gemeinde"},"district":{"key":"06631","name":"Fulda","type":"Landkreis"},"federalState":{"key":"06","name":"Hessen"}},{"name":"Weidengasse","postalCode":"36132","locality":"Eiterfeld","municipality":{"key":"06631007","name":"Eiterfeld, Marktgemeinde","type":"Kreisangehörige_Gemeinde"},"district":{"key":"06631","name":"Fulda","type":"Landkreis"},"federalState":{"key":"06","name":"Hessen"}},{"name":"Wiedegasse","postalCode":"36132","locality":"Eiterfeld","municipality":{"key":"06631007","name":"Eiterfeld, Marktgemeinde","type":"Kreisangehörige_Gemeinde"},"district":{"key":"06631","name":"Fulda","type":"Landkreis"},"federalState":{"key":"06","name":"Hessen"}},{"name":"Wiedenacker","postalCode":"36132","locality":"Eiterfeld","municipality":{"key":"06631007","name":"Eiterfeld, Marktgemeinde","type":"Kreisangehörige_Gemeinde"},"district":{"key":"06631","name":"Fulda","type":"Landkreis"},"federalState":{"key":"06","name":"Hessen"}},{"name":"Wiesenweg","postalCode":"36132","locality":"Eiterfeld","municipality":{"key":"06631007","name":"Eiterfeld, Marktgemeinde","type":"Kreisangehörige_Gemeinde"},"district":{"key":"06631","name":"Fulda","type":"Landkreis"},"federalState":{"key":"06","name":"Hessen"}},{"name":"Wilhelm-Witzel-Str.","postalCode":"36132","locality":"Eiterfeld","municipality":{"key":"06631007","name":"Eiterfeld, Marktgemeinde","type":"Kreisangehörige_Gemeinde"},"district":{"key":"06631","name":"Fulda","type":"Landkreis"},"federalState":{"key":"06","name":"Hessen"}},{"name":"Wisselsbergstr.","postalCode":"36132","locality":"Eiterfeld","municipality":{"key":"06631007","name":"Eiterfeld, Marktgemeinde","type":"Kreisangehörige_Gemeinde"},"district":{"key":"06631","name":"Fulda","type":"Landkreis"},"federalState":{"key":"06","name":"Hessen"}},{"name":"Wölfer Str.","postalCode":"36132","locality":"Eiterfeld","municipality":{"key":"06631007","name":"Eiterfeld, Marktgemeinde","type":"Kreisangehörige_Gemeinde"},"district":{"key":"06631","name":"Fulda","type":"Landkreis"},"federalState":{"key":"06","name":"Hessen"}},{"name":"Ysenburgstr.","postalCode":"34233","locality":"Fuldatal","municipality":{"key":"06633009","name":"Fuldatal","type":"Kreisangehörige_Gemeinde"},"district":{"key":"06633","name":"Kassel","type":"Landkreis"},"federalState":{"key":"06","name":"Hessen"}},{"name":"Zum Bildstock","postalCode":"36132","locality":"Eiterfeld","municipality":{"key":"06631007","name":"Eiterfeld, Marktgemeinde","type":"Kreisangehörige_Gemeinde"},"district":{"key":"06631","name":"Fulda","type":"Landkreis"},"federalState":{"key":"06","name":"Hessen"}},{"name":"Zum Harlich","postalCode":"36132","locality":"Eiterfeld","municipality":{"key":"06631007","name":"Eiterfeld, Marktgemeinde","type":"Kreisangehörige_Gemeinde"},"district":{"key":"06631","name":"Fulda","type":"Landkreis"},"federalState":{"key":"06","name":"Hessen"}},{"name":"Zum Ibigrain","postalCode":"36132","locality":"Eiterfeld","municipality":{"key":"06631007","name":"Eiterfeld, Marktgemeinde","type":"Kreisangehörige_Gemeinde"},"district":{"key":"06631","name":"Fulda","type":"Landkreis"},"federalState":{"key":"06","name":"Hessen"}},{"name":"Zum Melm","postalCode":"36132","locality":"Eiterfeld","municipality":{"key":"06631007","name":"Eiterfeld, Marktgemeinde","type":"Kreisangehörige_Gemeinde"},"district":{"key":"06631","name":"Fulda","type":"Landkreis"},"federalState":{"key":"06","name":"Hessen"}},{"name":"Zum Steiger","postalCode":"36132","locality":"Eiterfeld","municipality":{"key":"06631007","name":"Eiterfeld, Marktgemeinde","type":"Kreisangehörige_Gemeinde"},"district":{"key":"06631","name":"Fulda","type":"Landkreis"},"federalState":{"key":"06","name":"Hessen"}},{"name":"Zum Tannenwald","postalCode":"36132","locality":"Eiterfeld","municipality":{"key":"06631007","name":"Eiterfeld, Marktgemeinde","type":"Kreisangehörige_Gemeinde"},"district":{"key":"06631","name":"Fulda","type":"Landkreis"},"federalState":{"key":"06","name":"Hessen"}},{"name":"Zum Zapfsgraben","postalCode":"36132","locality":"Eiterfeld","municipality":{"key":"06631007","name":"Eiterfeld, Marktgemeinde","type":"Kreisangehörige_Gemeinde"},"district":{"key":"06631","name":"Fulda","type":"Landkreis"},"federalState":{"key":"06","name":"Hessen"}},{"name":"Zur Grotte","postalCode":"36132","locality":"Eiterfeld","municipality":{"key":"06631007","name":"Eiterfeld, Marktgemeinde","type":"Kreisangehörige_Gemeinde"},"district":{"key":"06631","name":"Fulda","type":"Landkreis"},"federalState":{"key":"06","name":"Hessen"}},{"name":"Über dem Gericht","postalCode":"36199","locality":"Rotenburg an der Fulda","municipality":{"key":"06632018","name":"Rotenburg a. d. Fulda, Stadt","type":"Stadt"},"district":{"key":"06632","name":"Hersfeld-Rotenburg","type":"Landkreis"},"federalState":{"key":"06","name":"Hessen"}},{"name":"Über den Gärten","postalCode":"36041","locality":"Fulda","municipality":{"key":"06631009","name":"Fulda, Stadt","type":"Stadt"},"district":{"key":"06631","name":"Fulda","type":"Landkreis"},"federalState":{"key":"06","name":"Hessen"}},{"name":"Über den Gärten","postalCode":"36199","locality":"Rotenburg an der Fulda","municipality":{"key":"06632018","name":"Rotenburg a. d. Fulda, Stadt","type":"Stadt"},"district":{"key":"06632","name":"Hersfeld-Rotenburg","type":"Landkreis"},"federalState":{"key":"06","name":"Hessen"}},{"name":"Über der Aue","postalCode":"36041","locality":"Fulda","municipality":{"key":"06631009","name":"Fulda, Stadt","type":"Stadt"},"district":{"key":"06631","name":"Fulda","type":"Landkreis"},"federalState":{"key":"06","name":"Hessen"}},{"name":"Über der Linde","postalCode":"36199","locality":"Rotenburg an der Fulda","municipality":{"key":"06632018","name":"Rotenburg a. d. Fulda, Stadt","type":"Stadt"},"district":{"key":"06632","name":"Hersfeld-Rotenburg","type":"Landkreis"},"federalState":{"key":"06","name":"Hessen"}},{"name":"Über der Schanze","postalCode":"36199","locality":"Rotenburg an der Fulda","municipality":{"key":"06632018","name":"Rotenburg a. d. Fulda, Stadt","type":"Stadt"},"district":{"key":"06632","name":"Hersfeld-Rotenburg","type":"Landkreis"},"federalState":{"key":"06","name":"Hessen"}},{"name":"Übers Feld","postalCode":"34233","locality":"Fuldatal","municipality":{"key":"06633009","name":"Fuldatal","type":"Kreisangehörige_Gemeinde"},"district":{"key":"06633","name":"Kassel","type":"Landkreis"},"federalState":{"key":"06","name":"Hessen"}},{"name":"Ürzeller Weg","postalCode":"36041","locality":"Fulda","municipality":{"key":"06631009","name":"Fulda, Stadt","type":"Stadt"},"district":{"key":"06631","name":"Fulda","type":"Landkreis"},"federalState":{"key":"06","name":"Hessen"}},]