[{"name":"Ackerstr.","postalCode":"39596","locality":"Goldbeck","municipality":{"key":"15090180","name":"Goldbeck","type":"Kreisangehörige_Gemeinde"},"district":{"key":"15090","name":"Stendal","type":"Landkreis"},"federalState":{"key":"15","name":"Sachsen-Anhalt"}},{"name":"Altbertkower Weg","postalCode":"39596","locality":"Goldbeck","municipality":{"key":"15090180","name":"Goldbeck","type":"Kreisangehörige_Gemeinde"},"district":{"key":"15090","name":"Stendal","type":"Landkreis"},"federalState":{"key":"15","name":"Sachsen-Anhalt"}},{"name":"Alte Dorfstr.","postalCode":"39596","locality":"Goldbeck","municipality":{"key":"15090180","name":"Goldbeck","type":"Kreisangehörige_Gemeinde"},"district":{"key":"15090","name":"Stendal","type":"Landkreis"},"federalState":{"key":"15","name":"Sachsen-Anhalt"}},{"name":"Am Teich","postalCode":"39596","locality":"Goldbeck","municipality":{"key":"15090180","name":"Goldbeck","type":"Kreisangehörige_Gemeinde"},"district":{"key":"15090","name":"Stendal","type":"Landkreis"},"federalState":{"key":"15","name":"Sachsen-Anhalt"}},{"name":"An der Schwemme","postalCode":"39596","locality":"Goldbeck","municipality":{"key":"15090180","name":"Goldbeck","type":"Kreisangehörige_Gemeinde"},"district":{"key":"15090","name":"Stendal","type":"Landkreis"},"federalState":{"key":"15","name":"Sachsen-Anhalt"}},{"name":"An der Uchte","postalCode":"39596","locality":"Goldbeck","municipality":{"key":"15090180","name":"Goldbeck","type":"Kreisangehörige_Gemeinde"},"district":{"key":"15090","name":"Stendal","type":"Landkreis"},"federalState":{"key":"15","name":"Sachsen-Anhalt"}},{"name":"An der Zuckerfabrik","postalCode":"39596","locality":"Goldbeck","municipality":{"key":"15090180","name":"Goldbeck","type":"Kreisangehörige_Gemeinde"},"district":{"key":"15090","name":"Stendal","type":"Landkreis"},"federalState":{"key":"15","name":"Sachsen-Anhalt"}},{"name":"Babener Str.","postalCode":"39596","locality":"Goldbeck","municipality":{"key":"15090180","name":"Goldbeck","type":"Kreisangehörige_Gemeinde"},"district":{"key":"15090","name":"Stendal","type":"Landkreis"},"federalState":{"key":"15","name":"Sachsen-Anhalt"}},{"name":"Bahnhofstr.","postalCode":"39596","locality":"Goldbeck","municipality":{"key":"15090180","name":"Goldbeck","type":"Kreisangehörige_Gemeinde"},"district":{"key":"15090","name":"Stendal","type":"Landkreis"},"federalState":{"key":"15","name":"Sachsen-Anhalt"}},{"name":"Bertkower Str.","postalCode":"39596","locality":"Goldbeck","municipality":{"key":"15090180","name":"Goldbeck","type":"Kreisangehörige_Gemeinde"},"district":{"key":"15090","name":"Stendal","type":"Landkreis"},"federalState":{"key":"15","name":"Sachsen-Anhalt"}},{"name":"Blumenweg","postalCode":"39596","locality":"Goldbeck","municipality":{"key":"15090180","name":"Goldbeck","type":"Kreisangehörige_Gemeinde"},"district":{"key":"15090","name":"Stendal","type":"Landkreis"},"federalState":{"key":"15","name":"Sachsen-Anhalt"}},{"name":"Clara-Zetkin-Str.","postalCode":"39596","locality":"Goldbeck","municipality":{"key":"15090180","name":"Goldbeck","type":"Kreisangehörige_Gemeinde"},"district":{"key":"15090","name":"Stendal","type":"Landkreis"},"federalState":{"key":"15","name":"Sachsen-Anhalt"}},{"name":"Denkmal-Garten","postalCode":"39596","locality":"Goldbeck","municipality":{"key":"15090180","name":"Goldbeck","type":"Kreisangehörige_Gemeinde"},"district":{"key":"15090","name":"Stendal","type":"Landkreis"},"federalState":{"key":"15","name":"Sachsen-Anhalt"}},{"name":"Eichstedter Str.","postalCode":"39596","locality":"Goldbeck","municipality":{"key":"15090180","name":"Goldbeck","type":"Kreisangehörige_Gemeinde"},"district":{"key":"15090","name":"Stendal","type":"Landkreis"},"federalState":{"key":"15","name":"Sachsen-Anhalt"}},{"name":"Feldstr.","postalCode":"39596","locality":"Goldbeck","municipality":{"key":"15090180","name":"Goldbeck","type":"Kreisangehörige_Gemeinde"},"district":{"key":"15090","name":"Stendal","type":"Landkreis"},"federalState":{"key":"15","name":"Sachsen-Anhalt"}},{"name":"Friedrich-Ebert-Str.","postalCode":"39596","locality":"Goldbeck","municipality":{"key":"15090180","name":"Goldbeck","type":"Kreisangehörige_Gemeinde"},"district":{"key":"15090","name":"Stendal","type":"Landkreis"},"federalState":{"key":"15","name":"Sachsen-Anhalt"}},{"name":"Gartenweg","postalCode":"39596","locality":"Goldbeck","municipality":{"key":"15090180","name":"Goldbeck","type":"Kreisangehörige_Gemeinde"},"district":{"key":"15090","name":"Stendal","type":"Landkreis"},"federalState":{"key":"15","name":"Sachsen-Anhalt"}},{"name":"Grenzweg","postalCode":"39596","locality":"Goldbeck","municipality":{"key":"15090180","name":"Goldbeck","type":"Kreisangehörige_Gemeinde"},"district":{"key":"15090","name":"Stendal","type":"Landkreis"},"federalState":{"key":"15","name":"Sachsen-Anhalt"}},{"name":"Grüner Weg","postalCode":"39596","locality":"Goldbeck","municipality":{"key":"15090180","name":"Goldbeck","type":"Kreisangehörige_Gemeinde"},"district":{"key":"15090","name":"Stendal","type":"Landkreis"},"federalState":{"key":"15","name":"Sachsen-Anhalt"}},{"name":"Hauptstr.","postalCode":"39596","locality":"Goldbeck","municipality":{"key":"15090180","name":"Goldbeck","type":"Kreisangehörige_Gemeinde"},"district":{"key":"15090","name":"Stendal","type":"Landkreis"},"federalState":{"key":"15","name":"Sachsen-Anhalt"}},{"name":"Im Birkenweg","postalCode":"39576","locality":"Stendal","municipality":{"key":"15090535","name":"Stendal, Hansestadt","type":"Stadt"},"district":{"key":"15090","name":"Stendal","type":"Landkreis"},"federalState":{"key":"15","name":"Sachsen-Anhalt"}},{"name":"Im Gohrer Winkel","postalCode":"39576","locality":"Stendal","municipality":{"key":"15090535","name":"Stendal, Hansestadt","type":"Stadt"},"district":{"key":"15090","name":"Stendal","type":"Landkreis"},"federalState":{"key":"15","name":"Sachsen-Anhalt"}},{"name":"Im Grund","postalCode":"39576","locality":"Stendal","municipality":{"key":"15090535","name":"Stendal, Hansestadt","type":"Stadt"},"district":{"key":"15090","name":"Stendal","type":"Landkreis"},"federalState":{"key":"15","name":"Sachsen-Anhalt"}},{"name":"Im Kleinen Winkel","postalCode":"39576","locality":"Stendal","municipality":{"key":"15090535","name":"Stendal, Hansestadt","type":"Stadt"},"district":{"key":"15090","name":"Stendal","type":"Landkreis"},"federalState":{"key":"15","name":"Sachsen-Anhalt"}},{"name":"Im Lindenweg","postalCode":"39576","locality":"Stendal","municipality":{"key":"15090535","name":"Stendal, Hansestadt","type":"Stadt"},"district":{"key":"15090","name":"Stendal","type":"Landkreis"},"federalState":{"key":"15","name":"Sachsen-Anhalt"}},{"name":"Im Tangermünder Tor","postalCode":"39576","locality":"Stendal","municipality":{"key":"15090535","name":"Stendal, Hansestadt","type":"Stadt"},"district":{"key":"15090","name":"Stendal","type":"Landkreis"},"federalState":{"key":"15","name":"Sachsen-Anhalt"}},{"name":"Im Weidengrund","postalCode":"39576","locality":"Stendal","municipality":{"key":"15090535","name":"Stendal, Hansestadt","type":"Stadt"},"district":{"key":"15090","name":"Stendal","type":"Landkreis"},"federalState":{"key":"15","name":"Sachsen-Anhalt"}},{"name":"Im Winkel","postalCode":"39576","locality":"Stendal","municipality":{"key":"15090535","name":"Stendal, Hansestadt","type":"Stadt"},"district":{"key":"15090","name":"Stendal","type":"Landkreis"},"federalState":{"key":"15","name":"Sachsen-Anhalt"}},{"name":"In den Zinnen","postalCode":"39576","locality":"Stendal","municipality":{"key":"15090535","name":"Stendal, Hansestadt","type":"Stadt"},"district":{"key":"15090","name":"Stendal","type":"Landkreis"},"federalState":{"key":"15","name":"Sachsen-Anhalt"}},{"name":"Industriestr.","postalCode":"39576","locality":"Stendal","municipality":{"key":"15090535","name":"Stendal, Hansestadt","type":"Stadt"},"district":{"key":"15090","name":"Stendal","type":"Landkreis"},"federalState":{"key":"15","name":"Sachsen-Anhalt"}},{"name":"Inselweg","postalCode":"39576","locality":"Stendal","municipality":{"key":"15090535","name":"Stendal, Hansestadt","type":"Stadt"},"district":{"key":"15090","name":"Stendal","type":"Landkreis"},"federalState":{"key":"15","name":"Sachsen-Anhalt"}},{"name":"Jacobikirchhof","postalCode":"39576","locality":"Stendal","municipality":{"key":"15090535","name":"Stendal, Hansestadt","type":"Stadt"},"district":{"key":"15090","name":"Stendal","type":"Landkreis"},"federalState":{"key":"15","name":"Sachsen-Anhalt"}},{"name":"Jägerweg","postalCode":"39576","locality":"Stendal","municipality":{"key":"15090535","name":"Stendal, Hansestadt","type":"Stadt"},"district":{"key":"15090","name":"Stendal","type":"Landkreis"},"federalState":{"key":"15","name":"Sachsen-Anhalt"}},{"name":"Jarchauer Dorfstr.","postalCode":"39576","locality":"Stendal","municipality":{"key":"15090535","name":"Stendal, Hansestadt","type":"Stadt"},"district":{"key":"15090","name":"Stendal","type":"Landkreis"},"federalState":{"key":"15","name":"Sachsen-Anhalt"}},{"name":"Johannes-Kepler-Str.","postalCode":"39576","locality":"Stendal","municipality":{"key":"15090535","name":"Stendal, Hansestadt","type":"Stadt"},"district":{"key":"15090","name":"Stendal","type":"Landkreis"},"federalState":{"key":"15","name":"Sachsen-Anhalt"}},{"name":"Johannisstr.","postalCode":"39576","locality":"Stendal","municipality":{"key":"15090535","name":"Stendal, Hansestadt","type":"Stadt"},"district":{"key":"15090","name":"Stendal","type":"Landkreis"},"federalState":{"key":"15","name":"Sachsen-Anhalt"}},{"name":"Jonasstr.","postalCode":"39576","locality":"Stendal","municipality":{"key":"15090535","name":"Stendal, Hansestadt","type":"Stadt"},"district":{"key":"15090","name":"Stendal","type":"Landkreis"},"federalState":{"key":"15","name":"Sachsen-Anhalt"}},{"name":"Juri-Gagarin-Str.","postalCode":"39576","locality":"Stendal","municipality":{"key":"15090535","name":"Stendal, Hansestadt","type":"Stadt"},"district":{"key":"15090","name":"Stendal","type":"Landkreis"},"federalState":{"key":"15","name":"Sachsen-Anhalt"}},{"name":"Katzensteig","postalCode":"39596","locality":"Goldbeck","municipality":{"key":"15090180","name":"Goldbeck","type":"Kreisangehörige_Gemeinde"},"district":{"key":"15090","name":"Stendal","type":"Landkreis"},"federalState":{"key":"15","name":"Sachsen-Anhalt"}},{"name":"Kirchstr.","postalCode":"39596","locality":"Goldbeck","municipality":{"key":"15090180","name":"Goldbeck","type":"Kreisangehörige_Gemeinde"},"district":{"key":"15090","name":"Stendal","type":"Landkreis"},"federalState":{"key":"15","name":"Sachsen-Anhalt"}},{"name":"Klein Schwechtener Str.","postalCode":"39596","locality":"Goldbeck","municipality":{"key":"15090180","name":"Goldbeck","type":"Kreisangehörige_Gemeinde"},"district":{"key":"15090","name":"Stendal","type":"Landkreis"},"federalState":{"key":"15","name":"Sachsen-Anhalt"}},{"name":"Kreuzstr.","postalCode":"39596","locality":"Goldbeck","municipality":{"key":"15090180","name":"Goldbeck","type":"Kreisangehörige_Gemeinde"},"district":{"key":"15090","name":"Stendal","type":"Landkreis"},"federalState":{"key":"15","name":"Sachsen-Anhalt"}},{"name":"Langensalzwedler Weg","postalCode":"39576","locality":"Stendal","municipality":{"key":"15090535","name":"Stendal, Hansestadt","type":"Stadt"},"district":{"key":"15090","name":"Stendal","type":"Landkreis"},"federalState":{"key":"15","name":"Sachsen-Anhalt"}},{"name":"Langer Weg","postalCode":"39576","locality":"Stendal","municipality":{"key":"15090535","name":"Stendal, Hansestadt","type":"Stadt"},"district":{"key":"15090","name":"Stendal","type":"Landkreis"},"federalState":{"key":"15","name":"Sachsen-Anhalt"}},{"name":"Langes Gestell","postalCode":"39576","locality":"Stendal","municipality":{"key":"15090535","name":"Stendal, Hansestadt","type":"Stadt"},"district":{"key":"15090","name":"Stendal","type":"Landkreis"},"federalState":{"key":"15","name":"Sachsen-Anhalt"}},{"name":"Lange Str.","postalCode":"39576","locality":"Stendal","municipality":{"key":"15090535","name":"Stendal, Hansestadt","type":"Stadt"},"district":{"key":"15090","name":"Stendal","type":"Landkreis"},"federalState":{"key":"15","name":"Sachsen-Anhalt"}},{"name":"Langobardenstr.","postalCode":"39576","locality":"Stendal","municipality":{"key":"15090535","name":"Stendal, Hansestadt","type":"Stadt"},"district":{"key":"15090","name":"Stendal","type":"Landkreis"},"federalState":{"key":"15","name":"Sachsen-Anhalt"}},{"name":"Langstückenweg","postalCode":"39576","locality":"Stendal","municipality":{"key":"15090535","name":"Stendal, Hansestadt","type":"Stadt"},"district":{"key":"15090","name":"Stendal","type":"Landkreis"},"federalState":{"key":"15","name":"Sachsen-Anhalt"}},{"name":"Lehmkuhlenweg","postalCode":"39576","locality":"Stendal","municipality":{"key":"15090535","name":"Stendal, Hansestadt","type":"Stadt"},"district":{"key":"15090","name":"Stendal","type":"Landkreis"},"federalState":{"key":"15","name":"Sachsen-Anhalt"}},{"name":"Lemgoer Str.","postalCode":"39576","locality":"Stendal","municipality":{"key":"15090535","name":"Stendal, Hansestadt","type":"Stadt"},"district":{"key":"15090","name":"Stendal","type":"Landkreis"},"federalState":{"key":"15","name":"Sachsen-Anhalt"}},{"name":"Lerchenweg","postalCode":"39576","locality":"Stendal","municipality":{"key":"15090535","name":"Stendal, Hansestadt","type":"Stadt"},"district":{"key":"15090","name":"Stendal","type":"Landkreis"},"federalState":{"key":"15","name":"Sachsen-Anhalt"}},{"name":"Lessingstr.","postalCode":"39576","locality":"Stendal","municipality":{"key":"15090535","name":"Stendal, Hansestadt","type":"Stadt"},"district":{"key":"15090","name":"Stendal","type":"Landkreis"},"federalState":{"key":"15","name":"Sachsen-Anhalt"}},{"name":"Lindenallee","postalCode":"39576","locality":"Stendal","municipality":{"key":"15090535","name":"Stendal, Hansestadt","type":"Stadt"},"district":{"key":"15090","name":"Stendal","type":"Landkreis"},"federalState":{"key":"15","name":"Sachsen-Anhalt"}},{"name":"Lindenpark","postalCode":"39576","locality":"Stendal","municipality":{"key":"15090535","name":"Stendal, Hansestadt","type":"Stadt"},"district":{"key":"15090","name":"Stendal","type":"Landkreis"},"federalState":{"key":"15","name":"Sachsen-Anhalt"}},{"name":"Lindenplatz","postalCode":"39576","locality":"Stendal","municipality":{"key":"15090535","name":"Stendal, Hansestadt","type":"Stadt"},"district":{"key":"15090","name":"Stendal","type":"Landkreis"},"federalState":{"key":"15","name":"Sachsen-Anhalt"}},{"name":"Lindenstr.","postalCode":"39576","locality":"Stendal","municipality":{"key":"15090535","name":"Stendal, Hansestadt","type":"Stadt"},"district":{"key":"15090","name":"Stendal","type":"Landkreis"},"federalState":{"key":"15","name":"Sachsen-Anhalt"}},{"name":"Lindenweg","postalCode":"39576","locality":"Stendal","municipality":{"key":"15090535","name":"Stendal, Hansestadt","type":"Stadt"},"district":{"key":"15090","name":"Stendal","type":"Landkreis"},"federalState":{"key":"15","name":"Sachsen-Anhalt"}},{"name":"Lindtorfer Weg","postalCode":"39576","locality":"Stendal","municipality":{"key":"15090535","name":"Stendal, Hansestadt","type":"Stadt"},"district":{"key":"15090","name":"Stendal","type":"Landkreis"},"federalState":{"key":"15","name":"Sachsen-Anhalt"}},{"name":"Liselotte-Herrmann-Str.","postalCode":"39576","locality":"Stendal","municipality":{"key":"15090535","name":"Stendal, Hansestadt","type":"Stadt"},"district":{"key":"15090","name":"Stendal","type":"Landkreis"},"federalState":{"key":"15","name":"Sachsen-Anhalt"}},{"name":"Lorenz-Kokenbecker-Str.","postalCode":"39576","locality":"Stendal","municipality":{"key":"15090535","name":"Stendal, Hansestadt","type":"Stadt"},"district":{"key":"15090","name":"Stendal","type":"Landkreis"},"federalState":{"key":"15","name":"Sachsen-Anhalt"}},{"name":"Lübecker Str.","postalCode":"39576","locality":"Stendal","municipality":{"key":"15090535","name":"Stendal, Hansestadt","type":"Stadt"},"district":{"key":"15090","name":"Stendal","type":"Landkreis"},"federalState":{"key":"15","name":"Sachsen-Anhalt"}},{"name":"Lucas-Cranach-Str.","postalCode":"39576","locality":"Stendal","municipality":{"key":"15090535","name":"Stendal, Hansestadt","type":"Stadt"},"district":{"key":"15090","name":"Stendal","type":"Landkreis"},"federalState":{"key":"15","name":"Sachsen-Anhalt"}},{"name":"Lüderitzer Str.","postalCode":"39576","locality":"Stendal","municipality":{"key":"15090535","name":"Stendal, Hansestadt","type":"Stadt"},"district":{"key":"15090","name":"Stendal","type":"Landkreis"},"federalState":{"key":"15","name":"Sachsen-Anhalt"}},{"name":"Lüderitzer Weg","postalCode":"39576","locality":"Stendal","municipality":{"key":"15090535","name":"Stendal, Hansestadt","type":"Stadt"},"district":{"key":"15090","name":"Stendal","type":"Landkreis"},"federalState":{"key":"15","name":"Sachsen-Anhalt"}},{"name":"Ludwig-Turek-Str.","postalCode":"39576","locality":"Stendal","municipality":{"key":"15090535","name":"Stendal, Hansestadt","type":"Stadt"},"district":{"key":"15090","name":"Stendal","type":"Landkreis"},"federalState":{"key":"15","name":"Sachsen-Anhalt"}},{"name":"Luise-Mewis-Str.","postalCode":"39576","locality":"Stendal","municipality":{"key":"15090535","name":"Stendal, Hansestadt","type":"Stadt"},"district":{"key":"15090","name":"Stendal","type":"Landkreis"},"federalState":{"key":"15","name":"Sachsen-Anhalt"}},{"name":"Lutherstr.","postalCode":"39576","locality":"Stendal","municipality":{"key":"15090535","name":"Stendal, Hansestadt","type":"Stadt"},"district":{"key":"15090","name":"Stendal","type":"Landkreis"},"federalState":{"key":"15","name":"Sachsen-Anhalt"}},{"name":"Lützowstr.","postalCode":"39576","locality":"Stendal","municipality":{"key":"15090535","name":"Stendal, Hansestadt","type":"Stadt"},"district":{"key":"15090","name":"Stendal","type":"Landkreis"},"federalState":{"key":"15","name":"Sachsen-Anhalt"}},{"name":"Möllendorfer Chaussee","postalCode":"39596","locality":"Goldbeck","municipality":{"key":"15090180","name":"Goldbeck","type":"Kreisangehörige_Gemeinde"},"district":{"key":"15090","name":"Stendal","type":"Landkreis"},"federalState":{"key":"15","name":"Sachsen-Anhalt"}},{"name":"Nachtigalplatz","postalCode":"39576","locality":"Stendal","municipality":{"key":"15090535","name":"Stendal, Hansestadt","type":"Stadt"},"district":{"key":"15090","name":"Stendal","type":"Landkreis"},"federalState":{"key":"15","name":"Sachsen-Anhalt"}},{"name":"Nachtweide","postalCode":"39576","locality":"Stendal","municipality":{"key":"15090535","name":"Stendal, Hansestadt","type":"Stadt"},"district":{"key":"15090","name":"Stendal","type":"Landkreis"},"federalState":{"key":"15","name":"Sachsen-Anhalt"}},{"name":"Nahrstedter Dorfstr.","postalCode":"39576","locality":"Stendal","municipality":{"key":"15090535","name":"Stendal, Hansestadt","type":"Stadt"},"district":{"key":"15090","name":"Stendal","type":"Landkreis"},"federalState":{"key":"15","name":"Sachsen-Anhalt"}},{"name":"Narzissenweg","postalCode":"39576","locality":"Stendal","municipality":{"key":"15090535","name":"Stendal, Hansestadt","type":"Stadt"},"district":{"key":"15090","name":"Stendal","type":"Landkreis"},"federalState":{"key":"15","name":"Sachsen-Anhalt"}},{"name":"Neubau","postalCode":"39576","locality":"Stendal","municipality":{"key":"15090535","name":"Stendal, Hansestadt","type":"Stadt"},"district":{"key":"15090","name":"Stendal","type":"Landkreis"},"federalState":{"key":"15","name":"Sachsen-Anhalt"}},{"name":"Neuendorf am Speck","postalCode":"39576","locality":"Stendal","municipality":{"key":"15090535","name":"Stendal, Hansestadt","type":"Stadt"},"district":{"key":"15090","name":"Stendal","type":"Landkreis"},"federalState":{"key":"15","name":"Sachsen-Anhalt"}},{"name":"Neuendorfer Chaussee","postalCode":"39576","locality":"Stendal","municipality":{"key":"15090535","name":"Stendal, Hansestadt","type":"Stadt"},"district":{"key":"15090","name":"Stendal","type":"Landkreis"},"federalState":{"key":"15","name":"Sachsen-Anhalt"}},{"name":"Neuendorfer Weg","postalCode":"39576","locality":"Stendal","municipality":{"key":"15090535","name":"Stendal, Hansestadt","type":"Stadt"},"district":{"key":"15090","name":"Stendal","type":"Landkreis"},"federalState":{"key":"15","name":"Sachsen-Anhalt"}},{"name":"Neuer Weg","postalCode":"39576","locality":"Stendal","municipality":{"key":"15090535","name":"Stendal, Hansestadt","type":"Stadt"},"district":{"key":"15090","name":"Stendal","type":"Landkreis"},"federalState":{"key":"15","name":"Sachsen-Anhalt"}},{"name":"Neue Str.","postalCode":"39576","locality":"Stendal","municipality":{"key":"15090535","name":"Stendal, Hansestadt","type":"Stadt"},"district":{"key":"15090","name":"Stendal","type":"Landkreis"},"federalState":{"key":"15","name":"Sachsen-Anhalt"}},{"name":"Neustr.","postalCode":"39576","locality":"Stendal","municipality":{"key":"15090535","name":"Stendal, Hansestadt","type":"Stadt"},"district":{"key":"15090","name":"Stendal","type":"Landkreis"},"federalState":{"key":"15","name":"Sachsen-Anhalt"}},{"name":"Nicolaistr.","postalCode":"39576","locality":"Stendal","municipality":{"key":"15090535","name":"Stendal, Hansestadt","type":"Stadt"},"district":{"key":"15090","name":"Stendal","type":"Landkreis"},"federalState":{"key":"15","name":"Sachsen-Anhalt"}},{"name":"Nordwall","postalCode":"39576","locality":"Stendal","municipality":{"key":"15090535","name":"Stendal, Hansestadt","type":"Stadt"},"district":{"key":"15090","name":"Stendal","type":"Landkreis"},"federalState":{"key":"15","name":"Sachsen-Anhalt"}},{"name":"Osterburger Str.","postalCode":"39576","locality":"Stendal","municipality":{"key":"15090535","name":"Stendal, Hansestadt","type":"Stadt"},"district":{"key":"15090","name":"Stendal","type":"Landkreis"},"federalState":{"key":"15","name":"Sachsen-Anhalt"}},{"name":"Ostheerener Str.","postalCode":"39576","locality":"Stendal","municipality":{"key":"15090535","name":"Stendal, Hansestadt","type":"Stadt"},"district":{"key":"15090","name":"Stendal","type":"Landkreis"},"federalState":{"key":"15","name":"Sachsen-Anhalt"}},{"name":"Ostwall","postalCode":"39576","locality":"Stendal","municipality":{"key":"15090535","name":"Stendal, Hansestadt","type":"Stadt"},"district":{"key":"15090","name":"Stendal","type":"Landkreis"},"federalState":{"key":"15","name":"Sachsen-Anhalt"}},{"name":"Otto-Lilienthal-Str.","postalCode":"39576","locality":"Stendal","municipality":{"key":"15090535","name":"Stendal, Hansestadt","type":"Stadt"},"district":{"key":"15090","name":"Stendal","type":"Landkreis"},"federalState":{"key":"15","name":"Sachsen-Anhalt"}},{"name":"Plätz","postalCode":"39596","locality":"Goldbeck","municipality":{"key":"15090180","name":"Goldbeck","type":"Kreisangehörige_Gemeinde"},"district":{"key":"15090","name":"Stendal","type":"Landkreis"},"federalState":{"key":"15","name":"Sachsen-Anhalt"}},{"name":"Pumpheide","postalCode":"39596","locality":"Goldbeck","municipality":{"key":"15090180","name":"Goldbeck","type":"Kreisangehörige_Gemeinde"},"district":{"key":"15090","name":"Stendal","type":"Landkreis"},"federalState":{"key":"15","name":"Sachsen-Anhalt"}},{"name":"Querstr.","postalCode":"39576","locality":"Stendal","municipality":{"key":"15090535","name":"Stendal, Hansestadt","type":"Stadt"},"district":{"key":"15090","name":"Stendal","type":"Landkreis"},"federalState":{"key":"15","name":"Sachsen-Anhalt"}},{"name":"Quickbornweg","postalCode":"39576","locality":"Stendal","municipality":{"key":"15090535","name":"Stendal, Hansestadt","type":"Stadt"},"district":{"key":"15090","name":"Stendal","type":"Landkreis"},"federalState":{"key":"15","name":"Sachsen-Anhalt"}},{"name":"Rathenower Str.","postalCode":"39576","locality":"Stendal","municipality":{"key":"15090535","name":"Stendal, Hansestadt","type":"Stadt"},"district":{"key":"15090","name":"Stendal","type":"Landkreis"},"federalState":{"key":"15","name":"Sachsen-Anhalt"}},{"name":"Rebhuhnweg","postalCode":"39576","locality":"Stendal","municipality":{"key":"15090535","name":"Stendal, Hansestadt","type":"Stadt"},"district":{"key":"15090","name":"Stendal","type":"Landkreis"},"federalState":{"key":"15","name":"Sachsen-Anhalt"}},{"name":"Rieckestr.","postalCode":"39576","locality":"Stendal","municipality":{"key":"15090535","name":"Stendal, Hansestadt","type":"Stadt"},"district":{"key":"15090","name":"Stendal","type":"Landkreis"},"federalState":{"key":"15","name":"Sachsen-Anhalt"}},{"name":"Rietzdamm","postalCode":"39576","locality":"Stendal","municipality":{"key":"15090535","name":"Stendal, Hansestadt","type":"Stadt"},"district":{"key":"15090","name":"Stendal","type":"Landkreis"},"federalState":{"key":"15","name":"Sachsen-Anhalt"}},{"name":"Robert-Dittmann-Str.","postalCode":"39576","locality":"Stendal","municipality":{"key":"15090535","name":"Stendal, Hansestadt","type":"Stadt"},"district":{"key":"15090","name":"Stendal","type":"Landkreis"},"federalState":{"key":"15","name":"Sachsen-Anhalt"}},{"name":"Robinienweg","postalCode":"39576","locality":"Stendal","municipality":{"key":"15090535","name":"Stendal, Hansestadt","type":"Stadt"},"district":{"key":"15090","name":"Stendal","type":"Landkreis"},"federalState":{"key":"15","name":"Sachsen-Anhalt"}},{"name":"Rohrstr.","postalCode":"39576","locality":"Stendal","municipality":{"key":"15090535","name":"Stendal, Hansestadt","type":"Stadt"},"district":{"key":"15090","name":"Stendal","type":"Landkreis"},"federalState":{"key":"15","name":"Sachsen-Anhalt"}},{"name":"Rönnefelder Str.","postalCode":"39576","locality":"Stendal","municipality":{"key":"15090535","name":"Stendal, Hansestadt","type":"Stadt"},"district":{"key":"15090","name":"Stendal","type":"Landkreis"},"federalState":{"key":"15","name":"Sachsen-Anhalt"}},{"name":"Roonstr.","postalCode":"39576","locality":"Stendal","municipality":{"key":"15090535","name":"Stendal, Hansestadt","type":"Stadt"},"district":{"key":"15090","name":"Stendal","type":"Landkreis"},"federalState":{"key":"15","name":"Sachsen-Anhalt"}},{"name":"Rosa-Luxemburg-Str.","postalCode":"39576","locality":"Stendal","municipality":{"key":"15090535","name":"Stendal, Hansestadt","type":"Stadt"},"district":{"key":"15090","name":"Stendal","type":"Landkreis"},"federalState":{"key":"15","name":"Sachsen-Anhalt"}},{"name":"Rosenwinkel","postalCode":"39576","locality":"Stendal","municipality":{"key":"15090535","name":"Stendal, Hansestadt","type":"Stadt"},"district":{"key":"15090","name":"Stendal","type":"Landkreis"},"federalState":{"key":"15","name":"Sachsen-Anhalt"}},{"name":"Rostocker Str.","postalCode":"39576","locality":"Stendal","municipality":{"key":"15090535","name":"Stendal, Hansestadt","type":"Stadt"},"district":{"key":"15090","name":"Stendal","type":"Landkreis"},"federalState":{"key":"15","name":"Sachsen-Anhalt"}},{"name":"Rotbuchenweg","postalCode":"39576","locality":"Stendal","municipality":{"key":"15090535","name":"Stendal, Hansestadt","type":"Stadt"},"district":{"key":"15090","name":"Stendal","type":"Landkreis"},"federalState":{"key":"15","name":"Sachsen-Anhalt"}},{"name":"Rotdornweg","postalCode":"39576","locality":"Stendal","municipality":{"key":"15090535","name":"Stendal, Hansestadt","type":"Stadt"},"district":{"key":"15090","name":"Stendal","type":"Landkreis"},"federalState":{"key":"15","name":"Sachsen-Anhalt"}},{"name":"Röxer Str.","postalCode":"39576","locality":"Stendal","municipality":{"key":"15090535","name":"Stendal, Hansestadt","type":"Stadt"},"district":{"key":"15090","name":"Stendal","type":"Landkreis"},"federalState":{"key":"15","name":"Sachsen-Anhalt"}},{"name":"Rüsternweg","postalCode":"39576","locality":"Stendal","municipality":{"key":"15090535","name":"Stendal, Hansestadt","type":"Stadt"},"district":{"key":"15090","name":"Stendal","type":"Landkreis"},"federalState":{"key":"15","name":"Sachsen-Anhalt"}},{"name":"Schwarzer Weg","postalCode":"39596","locality":"Goldbeck","municipality":{"key":"15090180","name":"Goldbeck","type":"Kreisangehörige_Gemeinde"},"district":{"key":"15090","name":"Stendal","type":"Landkreis"},"federalState":{"key":"15","name":"Sachsen-Anhalt"}},{"name":"Tangermünder Chaussee","postalCode":"39576","locality":"Stendal","municipality":{"key":"15090535","name":"Stendal, Hansestadt","type":"Stadt"},"district":{"key":"15090","name":"Stendal","type":"Landkreis"},"federalState":{"key":"15","name":"Sachsen-Anhalt"}},{"name":"Tangermünder Str.","postalCode":"39576","locality":"Stendal","municipality":{"key":"15090535","name":"Stendal, Hansestadt","type":"Stadt"},"district":{"key":"15090","name":"Stendal","type":"Landkreis"},"federalState":{"key":"15","name":"Sachsen-Anhalt"}},{"name":"Tangermünder Weg","postalCode":"39576","locality":"Stendal","municipality":{"key":"15090535","name":"Stendal, Hansestadt","type":"Stadt"},"district":{"key":"15090","name":"Stendal","type":"Landkreis"},"federalState":{"key":"15","name":"Sachsen-Anhalt"}},{"name":"Tannensiedlung","postalCode":"39576","locality":"Stendal","municipality":{"key":"15090535","name":"Stendal, Hansestadt","type":"Stadt"},"district":{"key":"15090","name":"Stendal","type":"Landkreis"},"federalState":{"key":"15","name":"Sachsen-Anhalt"}},{"name":"Tannenweg","postalCode":"39576","locality":"Stendal","municipality":{"key":"15090535","name":"Stendal, Hansestadt","type":"Stadt"},"district":{"key":"15090","name":"Stendal","type":"Landkreis"},"federalState":{"key":"15","name":"Sachsen-Anhalt"}},{"name":"Tauentzienstr.","postalCode":"39576","locality":"Stendal","municipality":{"key":"15090535","name":"Stendal, Hansestadt","type":"Stadt"},"district":{"key":"15090","name":"Stendal","type":"Landkreis"},"federalState":{"key":"15","name":"Sachsen-Anhalt"}},{"name":"Teichstr.","postalCode":"39576","locality":"Stendal","municipality":{"key":"15090535","name":"Stendal, Hansestadt","type":"Stadt"},"district":{"key":"15090","name":"Stendal","type":"Landkreis"},"federalState":{"key":"15","name":"Sachsen-Anhalt"}},{"name":"Theodor-Fontane-Str.","postalCode":"39576","locality":"Stendal","municipality":{"key":"15090535","name":"Stendal, Hansestadt","type":"Stadt"},"district":{"key":"15090","name":"Stendal","type":"Landkreis"},"federalState":{"key":"15","name":"Sachsen-Anhalt"}},{"name":"Theodor-Storm-Str.","postalCode":"39576","locality":"Stendal","municipality":{"key":"15090535","name":"Stendal, Hansestadt","type":"Stadt"},"district":{"key":"15090","name":"Stendal","type":"Landkreis"},"federalState":{"key":"15","name":"Sachsen-Anhalt"}},{"name":"Thüringer Str.","postalCode":"39576","locality":"Stendal","municipality":{"key":"15090535","name":"Stendal, Hansestadt","type":"Stadt"},"district":{"key":"15090","name":"Stendal","type":"Landkreis"},"federalState":{"key":"15","name":"Sachsen-Anhalt"}},{"name":"Tornauer Dorfstr.","postalCode":"39576","locality":"Stendal","municipality":{"key":"15090535","name":"Stendal, Hansestadt","type":"Stadt"},"district":{"key":"15090","name":"Stendal","type":"Landkreis"},"federalState":{"key":"15","name":"Sachsen-Anhalt"}},{"name":"Tornauer Str.","postalCode":"39576","locality":"Stendal","municipality":{"key":"15090535","name":"Stendal, Hansestadt","type":"Stadt"},"district":{"key":"15090","name":"Stendal","type":"Landkreis"},"federalState":{"key":"15","name":"Sachsen-Anhalt"}},{"name":"Tornauer Weg","postalCode":"39576","locality":"Stendal","municipality":{"key":"15090535","name":"Stendal, Hansestadt","type":"Stadt"},"district":{"key":"15090","name":"Stendal","type":"Landkreis"},"federalState":{"key":"15","name":"Sachsen-Anhalt"}},{"name":"Trift","postalCode":"39576","locality":"Stendal","municipality":{"key":"15090535","name":"Stendal, Hansestadt","type":"Stadt"},"district":{"key":"15090","name":"Stendal","type":"Landkreis"},"federalState":{"key":"15","name":"Sachsen-Anhalt"}},{"name":"Triftweg","postalCode":"39576","locality":"Stendal","municipality":{"key":"15090535","name":"Stendal, Hansestadt","type":"Stadt"},"district":{"key":"15090","name":"Stendal","type":"Landkreis"},"federalState":{"key":"15","name":"Sachsen-Anhalt"}},{"name":"Uchtewall","postalCode":"39596","locality":"Goldbeck","municipality":{"key":"15090180","name":"Goldbeck","type":"Kreisangehörige_Gemeinde"},"district":{"key":"15090","name":"Stendal","type":"Landkreis"},"federalState":{"key":"15","name":"Sachsen-Anhalt"}},{"name":"Veilchenweg","postalCode":"39576","locality":"Stendal","municipality":{"key":"15090535","name":"Stendal, Hansestadt","type":"Stadt"},"district":{"key":"15090","name":"Stendal","type":"Landkreis"},"federalState":{"key":"15","name":"Sachsen-Anhalt"}},{"name":"Vinzelberger Str.","postalCode":"39576","locality":"Stendal","municipality":{"key":"15090535","name":"Stendal, Hansestadt","type":"Stadt"},"district":{"key":"15090","name":"Stendal","type":"Landkreis"},"federalState":{"key":"15","name":"Sachsen-Anhalt"}},{"name":"Vinzelberger Weg","postalCode":"39576","locality":"Stendal","municipality":{"key":"15090535","name":"Stendal, Hansestadt","type":"Stadt"},"district":{"key":"15090","name":"Stendal","type":"Landkreis"},"federalState":{"key":"15","name":"Sachsen-Anhalt"}},{"name":"Virchower Weg","postalCode":"39576","locality":"Stendal","municipality":{"key":"15090535","name":"Stendal, Hansestadt","type":"Stadt"},"district":{"key":"15090","name":"Stendal","type":"Landkreis"},"federalState":{"key":"15","name":"Sachsen-Anhalt"}},{"name":"Vogelstr.","postalCode":"39576","locality":"Stendal","municipality":{"key":"15090535","name":"Stendal, Hansestadt","type":"Stadt"},"district":{"key":"15090","name":"Stendal","type":"Landkreis"},"federalState":{"key":"15","name":"Sachsen-Anhalt"}},{"name":"Volgfelder Dorfstr.","postalCode":"39576","locality":"Stendal","municipality":{"key":"15090535","name":"Stendal, Hansestadt","type":"Stadt"},"district":{"key":"15090","name":"Stendal","type":"Landkreis"},"federalState":{"key":"15","name":"Sachsen-Anhalt"}},{"name":"Volgfelder Mühlenstr.","postalCode":"39576","locality":"Stendal","municipality":{"key":"15090535","name":"Stendal, Hansestadt","type":"Stadt"},"district":{"key":"15090","name":"Stendal","type":"Landkreis"},"federalState":{"key":"15","name":"Sachsen-Anhalt"}},{"name":"Volgfelder Str.","postalCode":"39576","locality":"Stendal","municipality":{"key":"15090535","name":"Stendal, Hansestadt","type":"Stadt"},"district":{"key":"15090","name":"Stendal","type":"Landkreis"},"federalState":{"key":"15","name":"Sachsen-Anhalt"}},{"name":"Vollenschierer Weg","postalCode":"39576","locality":"Stendal","municipality":{"key":"15090535","name":"Stendal, Hansestadt","type":"Stadt"},"district":{"key":"15090","name":"Stendal","type":"Landkreis"},"federalState":{"key":"15","name":"Sachsen-Anhalt"}},{"name":"Von-Ardenne-Str.","postalCode":"39576","locality":"Stendal","municipality":{"key":"15090535","name":"Stendal, Hansestadt","type":"Stadt"},"district":{"key":"15090","name":"Stendal","type":"Landkreis"},"federalState":{"key":"15","name":"Sachsen-Anhalt"}},{"name":"Von-Schill-Str.","postalCode":"39576","locality":"Stendal","municipality":{"key":"15090535","name":"Stendal, Hansestadt","type":"Stadt"},"district":{"key":"15090","name":"Stendal","type":"Landkreis"},"federalState":{"key":"15","name":"Sachsen-Anhalt"}},{"name":"Vor dem Viehtor","postalCode":"39576","locality":"Stendal","municipality":{"key":"15090535","name":"Stendal, Hansestadt","type":"Stadt"},"district":{"key":"15090","name":"Stendal","type":"Landkreis"},"federalState":{"key":"15","name":"Sachsen-Anhalt"}},{"name":"Wiesenweg","postalCode":"39596","locality":"Goldbeck","municipality":{"key":"15090180","name":"Goldbeck","type":"Kreisangehörige_Gemeinde"},"district":{"key":"15090","name":"Stendal","type":"Landkreis"},"federalState":{"key":"15","name":"Sachsen-Anhalt"}},{"name":"Yorckstr.","postalCode":"39576","locality":"Stendal","municipality":{"key":"15090535","name":"Stendal, Hansestadt","type":"Stadt"},"district":{"key":"15090","name":"Stendal","type":"Landkreis"},"federalState":{"key":"15","name":"Sachsen-Anhalt"}},{"name":"Ziegelei","postalCode":"39576","locality":"Stendal","municipality":{"key":"15090535","name":"Stendal, Hansestadt","type":"Stadt"},"district":{"key":"15090","name":"Stendal","type":"Landkreis"},"federalState":{"key":"15","name":"Sachsen-Anhalt"}},{"name":"Ziegeleiweg","postalCode":"39576","locality":"Stendal","municipality":{"key":"15090535","name":"Stendal, Hansestadt","type":"Stadt"},"district":{"key":"15090","name":"Stendal","type":"Landkreis"},"federalState":{"key":"15","name":"Sachsen-Anhalt"}},{"name":"Ziegelhof","postalCode":"39576","locality":"Stendal","municipality":{"key":"15090535","name":"Stendal, Hansestadt","type":"Stadt"},"district":{"key":"15090","name":"Stendal","type":"Landkreis"},"federalState":{"key":"15","name":"Sachsen-Anhalt"}},{"name":"Zum alten Gut","postalCode":"39576","locality":"Stendal","municipality":{"key":"15090535","name":"Stendal, Hansestadt","type":"Stadt"},"district":{"key":"15090","name":"Stendal","type":"Landkreis"},"federalState":{"key":"15","name":"Sachsen-Anhalt"}},{"name":"Zum Bürgerpark","postalCode":"39576","locality":"Stendal","municipality":{"key":"15090535","name":"Stendal, Hansestadt","type":"Stadt"},"district":{"key":"15090","name":"Stendal","type":"Landkreis"},"federalState":{"key":"15","name":"Sachsen-Anhalt"}},{"name":"Zum Gänseteich","postalCode":"39576","locality":"Stendal","municipality":{"key":"15090535","name":"Stendal, Hansestadt","type":"Stadt"},"district":{"key":"15090","name":"Stendal","type":"Landkreis"},"federalState":{"key":"15","name":"Sachsen-Anhalt"}},{"name":"Zum Gutshof","postalCode":"39576","locality":"Stendal","municipality":{"key":"15090535","name":"Stendal, Hansestadt","type":"Stadt"},"district":{"key":"15090","name":"Stendal","type":"Landkreis"},"federalState":{"key":"15","name":"Sachsen-Anhalt"}},{"name":"Zum Sportplatz","postalCode":"39576","locality":"Stendal","municipality":{"key":"15090535","name":"Stendal, Hansestadt","type":"Stadt"},"district":{"key":"15090","name":"Stendal","type":"Landkreis"},"federalState":{"key":"15","name":"Sachsen-Anhalt"}},{"name":"Zum Tannenwald","postalCode":"39576","locality":"Stendal","municipality":{"key":"15090535","name":"Stendal, Hansestadt","type":"Stadt"},"district":{"key":"15090","name":"Stendal","type":"Landkreis"},"federalState":{"key":"15","name":"Sachsen-Anhalt"}},{"name":"Zum Wald","postalCode":"39576","locality":"Stendal","municipality":{"key":"15090535","name":"Stendal, Hansestadt","type":"Stadt"},"district":{"key":"15090","name":"Stendal","type":"Landkreis"},"federalState":{"key":"15","name":"Sachsen-Anhalt"}},{"name":"Zum Wiesenweg","postalCode":"39576","locality":"Stendal","municipality":{"key":"15090535","name":"Stendal, Hansestadt","type":"Stadt"},"district":{"key":"15090","name":"Stendal","type":"Landkreis"},"federalState":{"key":"15","name":"Sachsen-Anhalt"}},{"name":"Zur alten Schmiede","postalCode":"39576","locality":"Stendal","municipality":{"key":"15090535","name":"Stendal, Hansestadt","type":"Stadt"},"district":{"key":"15090","name":"Stendal","type":"Landkreis"},"federalState":{"key":"15","name":"Sachsen-Anhalt"}},{"name":"Zur Heide","postalCode":"39576","locality":"Stendal","municipality":{"key":"15090535","name":"Stendal, Hansestadt","type":"Stadt"},"district":{"key":"15090","name":"Stendal","type":"Landkreis"},"federalState":{"key":"15","name":"Sachsen-Anhalt"}},{"name":"Zur Kirche","postalCode":"39576","locality":"Stendal","municipality":{"key":"15090535","name":"Stendal, Hansestadt","type":"Stadt"},"district":{"key":"15090","name":"Stendal","type":"Landkreis"},"federalState":{"key":"15","name":"Sachsen-Anhalt"}},{"name":"Zur Mühle","postalCode":"39576","locality":"Stendal","municipality":{"key":"15090535","name":"Stendal, Hansestadt","type":"Stadt"},"district":{"key":"15090","name":"Stendal","type":"Landkreis"},"federalState":{"key":"15","name":"Sachsen-Anhalt"}},{"name":"Zur Wassermühle","postalCode":"39576","locality":"Stendal","municipality":{"key":"15090535","name":"Stendal, Hansestadt","type":"Stadt"},"district":{"key":"15090","name":"Stendal","type":"Landkreis"},"federalState":{"key":"15","name":"Sachsen-Anhalt"}},{"name":"Zur Weide","postalCode":"39576","locality":"Stendal","municipality":{"key":"15090535","name":"Stendal, Hansestadt","type":"Stadt"},"district":{"key":"15090","name":"Stendal","type":"Landkreis"},"federalState":{"key":"15","name":"Sachsen-Anhalt"}},]