[{"key":"10014284","name":"Aarestrasse","postalCode":"3115","locality":"Gerzensee","commune":{"key":"866","name":"Gerzensee","shortName":"Gerzensee"},"district":{"key":"246","name":"Verwaltungskreis Bern-Mittelland"},"canton":{"key":"2","code":"BE","name":"Bern / Berne"},"status":"Real"},{"key":"10084212","name":"Bärenmattweg","postalCode":"3115","locality":"Gerzensee","commune":{"key":"866","name":"Gerzensee","shortName":"Gerzensee"},"district":{"key":"246","name":"Verwaltungskreis Bern-Mittelland"},"canton":{"key":"2","code":"BE","name":"Bern / Berne"},"status":"Real"},{"key":"10084211","name":"Belpbergstrasse","postalCode":"3115","locality":"Gerzensee","commune":{"key":"866","name":"Gerzensee","shortName":"Gerzensee"},"district":{"key":"246","name":"Verwaltungskreis Bern-Mittelland"},"canton":{"key":"2","code":"BE","name":"Bern / Berne"},"status":"Real"},{"key":"10014285","name":"Breitenriedstrasse","postalCode":"3115","locality":"Gerzensee","commune":{"key":"866","name":"Gerzensee","shortName":"Gerzensee"},"district":{"key":"246","name":"Verwaltungskreis Bern-Mittelland"},"canton":{"key":"2","code":"BE","name":"Bern / Berne"},"status":"Real"},{"key":"10014286","name":"Dorfstrasse","postalCode":"3115","locality":"Gerzensee","commune":{"key":"866","name":"Gerzensee","shortName":"Gerzensee"},"district":{"key":"246","name":"Verwaltungskreis Bern-Mittelland"},"canton":{"key":"2","code":"BE","name":"Bern / Berne"},"status":"Real"},{"key":"10014287","name":"Fahrweg","postalCode":"3115","locality":"Gerzensee","commune":{"key":"866","name":"Gerzensee","shortName":"Gerzensee"},"district":{"key":"246","name":"Verwaltungskreis Bern-Mittelland"},"canton":{"key":"2","code":"BE","name":"Bern / Berne"},"status":"Real"},{"key":"10062536","name":"Fimelen","postalCode":"3115","locality":"Gerzensee","commune":{"key":"866","name":"Gerzensee","shortName":"Gerzensee"},"district":{"key":"246","name":"Verwaltungskreis Bern-Mittelland"},"canton":{"key":"2","code":"BE","name":"Bern / Berne"},"status":"Real"},{"key":"10014288","name":"Friedbergweg","postalCode":"3115","locality":"Gerzensee","commune":{"key":"866","name":"Gerzensee","shortName":"Gerzensee"},"district":{"key":"246","name":"Verwaltungskreis Bern-Mittelland"},"canton":{"key":"2","code":"BE","name":"Bern / Berne"},"status":"Real"},{"key":"10084213","name":"Gelterfingenstrasse","postalCode":"3115","locality":"Gerzensee","commune":{"key":"866","name":"Gerzensee","shortName":"Gerzensee"},"district":{"key":"246","name":"Verwaltungskreis Bern-Mittelland"},"canton":{"key":"2","code":"BE","name":"Bern / Berne"},"status":"Real"},{"key":"10014289","name":"Grubenweg","postalCode":"3115","locality":"Gerzensee","commune":{"key":"866","name":"Gerzensee","shortName":"Gerzensee"},"district":{"key":"246","name":"Verwaltungskreis Bern-Mittelland"},"canton":{"key":"2","code":"BE","name":"Bern / Berne"},"status":"Real"},{"key":"10066899","name":"Haltenweg","postalCode":"3115","locality":"Gerzensee","commune":{"key":"866","name":"Gerzensee","shortName":"Gerzensee"},"district":{"key":"246","name":"Verwaltungskreis Bern-Mittelland"},"canton":{"key":"2","code":"BE","name":"Bern / Berne"},"status":"Real"},{"key":"10014290","name":"Hölzliweg","postalCode":"3115","locality":"Gerzensee","commune":{"key":"866","name":"Gerzensee","shortName":"Gerzensee"},"district":{"key":"246","name":"Verwaltungskreis Bern-Mittelland"},"canton":{"key":"2","code":"BE","name":"Bern / Berne"},"status":"Real"},{"key":"10066900","name":"Kehrweg","postalCode":"3115","locality":"Gerzensee","commune":{"key":"866","name":"Gerzensee","shortName":"Gerzensee"},"district":{"key":"246","name":"Verwaltungskreis Bern-Mittelland"},"canton":{"key":"2","code":"BE","name":"Bern / Berne"},"status":"Real"},{"key":"10014291","name":"Klapfweg","postalCode":"3115","locality":"Gerzensee","commune":{"key":"866","name":"Gerzensee","shortName":"Gerzensee"},"district":{"key":"246","name":"Verwaltungskreis Bern-Mittelland"},"canton":{"key":"2","code":"BE","name":"Bern / Berne"},"status":"Real"},{"key":"10084214","name":"Kohlhüttenweg","postalCode":"3115","locality":"Gerzensee","commune":{"key":"866","name":"Gerzensee","shortName":"Gerzensee"},"district":{"key":"246","name":"Verwaltungskreis Bern-Mittelland"},"canton":{"key":"2","code":"BE","name":"Bern / Berne"},"status":"Real"},{"key":"10217711","name":"Maleschen","postalCode":"3115","locality":"Gerzensee","commune":{"key":"866","name":"Gerzensee","shortName":"Gerzensee"},"district":{"key":"246","name":"Verwaltungskreis Bern-Mittelland"},"canton":{"key":"2","code":"BE","name":"Bern / Berne"},"status":"Real"},{"key":"10109796","name":"Obere Kirchenzelg","postalCode":"3115","locality":"Gerzensee","commune":{"key":"866","name":"Gerzensee","shortName":"Gerzensee"},"district":{"key":"246","name":"Verwaltungskreis Bern-Mittelland"},"canton":{"key":"2","code":"BE","name":"Bern / Berne"},"status":"Real"},{"key":"10109798","name":"Oberes Längmoos","postalCode":"3115","locality":"Gerzensee","commune":{"key":"866","name":"Gerzensee","shortName":"Gerzensee"},"district":{"key":"246","name":"Verwaltungskreis Bern-Mittelland"},"canton":{"key":"2","code":"BE","name":"Bern / Berne"},"status":"Real"},{"key":"10014292","name":"Panoramaweg","postalCode":"3115","locality":"Gerzensee","commune":{"key":"866","name":"Gerzensee","shortName":"Gerzensee"},"district":{"key":"246","name":"Verwaltungskreis Bern-Mittelland"},"canton":{"key":"2","code":"BE","name":"Bern / Berne"},"status":"Real"},{"key":"10014293","name":"Pfannackerweg","postalCode":"3115","locality":"Gerzensee","commune":{"key":"866","name":"Gerzensee","shortName":"Gerzensee"},"district":{"key":"246","name":"Verwaltungskreis Bern-Mittelland"},"canton":{"key":"2","code":"BE","name":"Bern / Berne"},"status":"Real"},{"key":"10084215","name":"Rütigässli","postalCode":"3115","locality":"Gerzensee","commune":{"key":"866","name":"Gerzensee","shortName":"Gerzensee"},"district":{"key":"246","name":"Verwaltungskreis Bern-Mittelland"},"canton":{"key":"2","code":"BE","name":"Bern / Berne"},"status":"Real"},{"key":"10188212","name":"Sädelstrasse","postalCode":"3115","locality":"Gerzensee","commune":{"key":"866","name":"Gerzensee","shortName":"Gerzensee"},"district":{"key":"246","name":"Verwaltungskreis Bern-Mittelland"},"canton":{"key":"2","code":"BE","name":"Bern / Berne"},"status":"Real"},{"key":"10014294","name":"Schützenfahrstrasse","postalCode":"3115","locality":"Gerzensee","commune":{"key":"866","name":"Gerzensee","shortName":"Gerzensee"},"district":{"key":"246","name":"Verwaltungskreis Bern-Mittelland"},"canton":{"key":"2","code":"BE","name":"Bern / Berne"},"status":"Real"},{"key":"10014295","name":"Seegasse","postalCode":"3115","locality":"Gerzensee","commune":{"key":"866","name":"Gerzensee","shortName":"Gerzensee"},"district":{"key":"246","name":"Verwaltungskreis Bern-Mittelland"},"canton":{"key":"2","code":"BE","name":"Bern / Berne"},"status":"Real"},{"key":"10179829","name":"Simmlernstrasse","postalCode":"3115","locality":"Gerzensee","commune":{"key":"866","name":"Gerzensee","shortName":"Gerzensee"},"district":{"key":"246","name":"Verwaltungskreis Bern-Mittelland"},"canton":{"key":"2","code":"BE","name":"Bern / Berne"},"status":"Real"},{"key":"10011395","name":"Spielgasse","postalCode":"3115","locality":"Gerzensee","commune":{"key":"866","name":"Gerzensee","shortName":"Gerzensee"},"district":{"key":"246","name":"Verwaltungskreis Bern-Mittelland"},"canton":{"key":"2","code":"BE","name":"Bern / Berne"},"status":"Real"},{"key":"10084216","name":"Thalgutstrasse","postalCode":"3115","locality":"Gerzensee","commune":{"key":"866","name":"Gerzensee","shortName":"Gerzensee"},"district":{"key":"246","name":"Verwaltungskreis Bern-Mittelland"},"canton":{"key":"2","code":"BE","name":"Bern / Berne"},"status":"Real"},{"key":"10011396","name":"Trockenmaadweg","postalCode":"3115","locality":"Gerzensee","commune":{"key":"866","name":"Gerzensee","shortName":"Gerzensee"},"district":{"key":"246","name":"Verwaltungskreis Bern-Mittelland"},"canton":{"key":"2","code":"BE","name":"Bern / Berne"},"status":"Real"},{"key":"10066901","name":"Turmweg","postalCode":"3115","locality":"Gerzensee","commune":{"key":"866","name":"Gerzensee","shortName":"Gerzensee"},"district":{"key":"246","name":"Verwaltungskreis Bern-Mittelland"},"canton":{"key":"2","code":"BE","name":"Bern / Berne"},"status":"Real"},{"key":"10061854","name":"Untere Fuhren","postalCode":"3115","locality":"Gerzensee","commune":{"key":"866","name":"Gerzensee","shortName":"Gerzensee"},"district":{"key":"246","name":"Verwaltungskreis Bern-Mittelland"},"canton":{"key":"2","code":"BE","name":"Bern / Berne"},"status":"Real"},{"key":"10011397","name":"Untere Kirchenzelg","postalCode":"3115","locality":"Gerzensee","commune":{"key":"866","name":"Gerzensee","shortName":"Gerzensee"},"district":{"key":"246","name":"Verwaltungskreis Bern-Mittelland"},"canton":{"key":"2","code":"BE","name":"Bern / Berne"},"status":"Real"},{"key":"10066902","name":"Zelgweg","postalCode":"3115","locality":"Gerzensee","commune":{"key":"866","name":"Gerzensee","shortName":"Gerzensee"},"district":{"key":"246","name":"Verwaltungskreis Bern-Mittelland"},"canton":{"key":"2","code":"BE","name":"Bern / Berne"},"status":"Real"},]