[{"name":"Am Alten Landweg","postalCode":"25557","locality":"Hanerau-Hademarschen","municipality":{"key":"01058072","name":"Hanerau-Hademarschen","type":"Kreisangehörige_Gemeinde"},"district":{"key":"01058","name":"Rendsburg-Eckernförde","type":"Kreis"},"federalState":{"key":"01","name":"Schleswig-Holstein"}},{"name":"Amselweg","postalCode":"25557","locality":"Hanerau-Hademarschen","municipality":{"key":"01058072","name":"Hanerau-Hademarschen","type":"Kreisangehörige_Gemeinde"},"district":{"key":"01058","name":"Rendsburg-Eckernförde","type":"Kreis"},"federalState":{"key":"01","name":"Schleswig-Holstein"}},{"name":"Bahnhofstr.","postalCode":"25557","locality":"Hanerau-Hademarschen","municipality":{"key":"01058072","name":"Hanerau-Hademarschen","type":"Kreisangehörige_Gemeinde"},"district":{"key":"01058","name":"Rendsburg-Eckernförde","type":"Kreis"},"federalState":{"key":"01","name":"Schleswig-Holstein"}},{"name":"Bergstr.","postalCode":"25557","locality":"Hanerau-Hademarschen","municipality":{"key":"01058072","name":"Hanerau-Hademarschen","type":"Kreisangehörige_Gemeinde"},"district":{"key":"01058","name":"Rendsburg-Eckernförde","type":"Kreis"},"federalState":{"key":"01","name":"Schleswig-Holstein"}},{"name":"Bismarckstr.","postalCode":"25557","locality":"Hanerau-Hademarschen","municipality":{"key":"01058072","name":"Hanerau-Hademarschen","type":"Kreisangehörige_Gemeinde"},"district":{"key":"01058","name":"Rendsburg-Eckernförde","type":"Kreis"},"federalState":{"key":"01","name":"Schleswig-Holstein"}},{"name":"Blumenstr.","postalCode":"25557","locality":"Hanerau-Hademarschen","municipality":{"key":"01058072","name":"Hanerau-Hademarschen","type":"Kreisangehörige_Gemeinde"},"district":{"key":"01058","name":"Rendsburg-Eckernförde","type":"Kreis"},"federalState":{"key":"01","name":"Schleswig-Holstein"}},{"name":"Brandhei","postalCode":"25557","locality":"Hanerau-Hademarschen","municipality":{"key":"01058072","name":"Hanerau-Hademarschen","type":"Kreisangehörige_Gemeinde"},"district":{"key":"01058","name":"Rendsburg-Eckernförde","type":"Kreis"},"federalState":{"key":"01","name":"Schleswig-Holstein"}},{"name":"Breslauer Str.","postalCode":"25557","locality":"Hanerau-Hademarschen","municipality":{"key":"01058072","name":"Hanerau-Hademarschen","type":"Kreisangehörige_Gemeinde"},"district":{"key":"01058","name":"Rendsburg-Eckernförde","type":"Kreis"},"federalState":{"key":"01","name":"Schleswig-Holstein"}},{"name":"Bussardweg","postalCode":"25557","locality":"Hanerau-Hademarschen","municipality":{"key":"01058072","name":"Hanerau-Hademarschen","type":"Kreisangehörige_Gemeinde"},"district":{"key":"01058","name":"Rendsburg-Eckernförde","type":"Kreis"},"federalState":{"key":"01","name":"Schleswig-Holstein"}},{"name":"Byn Deependahl","postalCode":"25557","locality":"Hanerau-Hademarschen","municipality":{"key":"01058072","name":"Hanerau-Hademarschen","type":"Kreisangehörige_Gemeinde"},"district":{"key":"01058","name":"Rendsburg-Eckernförde","type":"Kreis"},"federalState":{"key":"01","name":"Schleswig-Holstein"}},{"name":"Danziger Str.","postalCode":"25557","locality":"Hanerau-Hademarschen","municipality":{"key":"01058072","name":"Hanerau-Hademarschen","type":"Kreisangehörige_Gemeinde"},"district":{"key":"01058","name":"Rendsburg-Eckernförde","type":"Kreis"},"federalState":{"key":"01","name":"Schleswig-Holstein"}},{"name":"Elbinger Str.","postalCode":"25557","locality":"Hanerau-Hademarschen","municipality":{"key":"01058072","name":"Hanerau-Hademarschen","type":"Kreisangehörige_Gemeinde"},"district":{"key":"01058","name":"Rendsburg-Eckernförde","type":"Kreis"},"federalState":{"key":"01","name":"Schleswig-Holstein"}},{"name":"Falkenweg","postalCode":"25557","locality":"Hanerau-Hademarschen","municipality":{"key":"01058072","name":"Hanerau-Hademarschen","type":"Kreisangehörige_Gemeinde"},"district":{"key":"01058","name":"Rendsburg-Eckernförde","type":"Kreis"},"federalState":{"key":"01","name":"Schleswig-Holstein"}},{"name":"Fichtenweg","postalCode":"25557","locality":"Hanerau-Hademarschen","municipality":{"key":"01058072","name":"Hanerau-Hademarschen","type":"Kreisangehörige_Gemeinde"},"district":{"key":"01058","name":"Rendsburg-Eckernförde","type":"Kreis"},"federalState":{"key":"01","name":"Schleswig-Holstein"}},{"name":"Gartenstr.","postalCode":"25557","locality":"Hanerau-Hademarschen","municipality":{"key":"01058072","name":"Hanerau-Hademarschen","type":"Kreisangehörige_Gemeinde"},"district":{"key":"01058","name":"Rendsburg-Eckernförde","type":"Kreis"},"federalState":{"key":"01","name":"Schleswig-Holstein"}},{"name":"Hafenstr.","postalCode":"25557","locality":"Hanerau-Hademarschen","municipality":{"key":"01058072","name":"Hanerau-Hademarschen","type":"Kreisangehörige_Gemeinde"},"district":{"key":"01058","name":"Rendsburg-Eckernförde","type":"Kreis"},"federalState":{"key":"01","name":"Schleswig-Holstein"}},{"name":"Hamer","postalCode":"25557","locality":"Hanerau-Hademarschen","municipality":{"key":"01058072","name":"Hanerau-Hademarschen","type":"Kreisangehörige_Gemeinde"},"district":{"key":"01058","name":"Rendsburg-Eckernförde","type":"Kreis"},"federalState":{"key":"01","name":"Schleswig-Holstein"}},{"name":"Hofkoppelweg","postalCode":"25557","locality":"Hanerau-Hademarschen","municipality":{"key":"01058072","name":"Hanerau-Hademarschen","type":"Kreisangehörige_Gemeinde"},"district":{"key":"01058","name":"Rendsburg-Eckernförde","type":"Kreis"},"federalState":{"key":"01","name":"Schleswig-Holstein"}},{"name":"Holstenstr.","postalCode":"25557","locality":"Hanerau-Hademarschen","municipality":{"key":"01058072","name":"Hanerau-Hademarschen","type":"Kreisangehörige_Gemeinde"},"district":{"key":"01058","name":"Rendsburg-Eckernförde","type":"Kreis"},"federalState":{"key":"01","name":"Schleswig-Holstein"}},{"name":"Holstentor","postalCode":"25557","locality":"Hanerau-Hademarschen","municipality":{"key":"01058072","name":"Hanerau-Hademarschen","type":"Kreisangehörige_Gemeinde"},"district":{"key":"01058","name":"Rendsburg-Eckernförde","type":"Kreis"},"federalState":{"key":"01","name":"Schleswig-Holstein"}},{"name":"Holtkoppel","postalCode":"25557","locality":"Hanerau-Hademarschen","municipality":{"key":"01058072","name":"Hanerau-Hademarschen","type":"Kreisangehörige_Gemeinde"},"district":{"key":"01058","name":"Rendsburg-Eckernförde","type":"Kreis"},"federalState":{"key":"01","name":"Schleswig-Holstein"}},{"name":"Im Blöcken","postalCode":"25557","locality":"Hanerau-Hademarschen","municipality":{"key":"01058072","name":"Hanerau-Hademarschen","type":"Kreisangehörige_Gemeinde"},"district":{"key":"01058","name":"Rendsburg-Eckernförde","type":"Kreis"},"federalState":{"key":"01","name":"Schleswig-Holstein"}},{"name":"Im Eck","postalCode":"25557","locality":"Hanerau-Hademarschen","municipality":{"key":"01058072","name":"Hanerau-Hademarschen","type":"Kreisangehörige_Gemeinde"},"district":{"key":"01058","name":"Rendsburg-Eckernförde","type":"Kreis"},"federalState":{"key":"01","name":"Schleswig-Holstein"}},{"name":"Im Kloster","postalCode":"25557","locality":"Hanerau-Hademarschen","municipality":{"key":"01058072","name":"Hanerau-Hademarschen","type":"Kreisangehörige_Gemeinde"},"district":{"key":"01058","name":"Rendsburg-Eckernförde","type":"Kreis"},"federalState":{"key":"01","name":"Schleswig-Holstein"}},{"name":"Im Park","postalCode":"25557","locality":"Hanerau-Hademarschen","municipality":{"key":"01058072","name":"Hanerau-Hademarschen","type":"Kreisangehörige_Gemeinde"},"district":{"key":"01058","name":"Rendsburg-Eckernförde","type":"Kreis"},"federalState":{"key":"01","name":"Schleswig-Holstein"}},{"name":"Im Winkel","postalCode":"25557","locality":"Hanerau-Hademarschen","municipality":{"key":"01058072","name":"Hanerau-Hademarschen","type":"Kreisangehörige_Gemeinde"},"district":{"key":"01058","name":"Rendsburg-Eckernförde","type":"Kreis"},"federalState":{"key":"01","name":"Schleswig-Holstein"}},{"name":"Kaiserstr.","postalCode":"25557","locality":"Hanerau-Hademarschen","municipality":{"key":"01058072","name":"Hanerau-Hademarschen","type":"Kreisangehörige_Gemeinde"},"district":{"key":"01058","name":"Rendsburg-Eckernförde","type":"Kreis"},"federalState":{"key":"01","name":"Schleswig-Holstein"}},{"name":"Klostergang","postalCode":"25557","locality":"Hanerau-Hademarschen","municipality":{"key":"01058072","name":"Hanerau-Hademarschen","type":"Kreisangehörige_Gemeinde"},"district":{"key":"01058","name":"Rendsburg-Eckernförde","type":"Kreis"},"federalState":{"key":"01","name":"Schleswig-Holstein"}},{"name":"Königsberger Str.","postalCode":"25557","locality":"Hanerau-Hademarschen","municipality":{"key":"01058072","name":"Hanerau-Hademarschen","type":"Kreisangehörige_Gemeinde"},"district":{"key":"01058","name":"Rendsburg-Eckernförde","type":"Kreis"},"federalState":{"key":"01","name":"Schleswig-Holstein"}},{"name":"Landweg","postalCode":"25557","locality":"Hanerau-Hademarschen","municipality":{"key":"01058072","name":"Hanerau-Hademarschen","type":"Kreisangehörige_Gemeinde"},"district":{"key":"01058","name":"Rendsburg-Eckernförde","type":"Kreis"},"federalState":{"key":"01","name":"Schleswig-Holstein"}},{"name":"Lärchenweg","postalCode":"25557","locality":"Hanerau-Hademarschen","municipality":{"key":"01058072","name":"Hanerau-Hademarschen","type":"Kreisangehörige_Gemeinde"},"district":{"key":"01058","name":"Rendsburg-Eckernförde","type":"Kreis"},"federalState":{"key":"01","name":"Schleswig-Holstein"}},{"name":"Leipziger Str.","postalCode":"25557","locality":"Hanerau-Hademarschen","municipality":{"key":"01058072","name":"Hanerau-Hademarschen","type":"Kreisangehörige_Gemeinde"},"district":{"key":"01058","name":"Rendsburg-Eckernförde","type":"Kreis"},"federalState":{"key":"01","name":"Schleswig-Holstein"}},{"name":"Lindenstr.","postalCode":"25557","locality":"Hanerau-Hademarschen","municipality":{"key":"01058072","name":"Hanerau-Hademarschen","type":"Kreisangehörige_Gemeinde"},"district":{"key":"01058","name":"Rendsburg-Eckernförde","type":"Kreis"},"federalState":{"key":"01","name":"Schleswig-Holstein"}},{"name":"Lüttenkamp","postalCode":"25557","locality":"Hanerau-Hademarschen","municipality":{"key":"01058072","name":"Hanerau-Hademarschen","type":"Kreisangehörige_Gemeinde"},"district":{"key":"01058","name":"Rendsburg-Eckernförde","type":"Kreis"},"federalState":{"key":"01","name":"Schleswig-Holstein"}},{"name":"Mannhardtstr.","postalCode":"25557","locality":"Hanerau-Hademarschen","municipality":{"key":"01058072","name":"Hanerau-Hademarschen","type":"Kreisangehörige_Gemeinde"},"district":{"key":"01058","name":"Rendsburg-Eckernförde","type":"Kreis"},"federalState":{"key":"01","name":"Schleswig-Holstein"}},{"name":"Marienhöh","postalCode":"25557","locality":"Hanerau-Hademarschen","municipality":{"key":"01058072","name":"Hanerau-Hademarschen","type":"Kreisangehörige_Gemeinde"},"district":{"key":"01058","name":"Rendsburg-Eckernförde","type":"Kreis"},"federalState":{"key":"01","name":"Schleswig-Holstein"}},{"name":"Mühlenweg","postalCode":"25557","locality":"Hanerau-Hademarschen","municipality":{"key":"01058072","name":"Hanerau-Hademarschen","type":"Kreisangehörige_Gemeinde"},"district":{"key":"01058","name":"Rendsburg-Eckernförde","type":"Kreis"},"federalState":{"key":"01","name":"Schleswig-Holstein"}},{"name":"Neuer Garten","postalCode":"25557","locality":"Hanerau-Hademarschen","municipality":{"key":"01058072","name":"Hanerau-Hademarschen","type":"Kreisangehörige_Gemeinde"},"district":{"key":"01058","name":"Rendsburg-Eckernförde","type":"Kreis"},"federalState":{"key":"01","name":"Schleswig-Holstein"}},{"name":"Norderstr.","postalCode":"25557","locality":"Hanerau-Hademarschen","municipality":{"key":"01058072","name":"Hanerau-Hademarschen","type":"Kreisangehörige_Gemeinde"},"district":{"key":"01058","name":"Rendsburg-Eckernförde","type":"Kreis"},"federalState":{"key":"01","name":"Schleswig-Holstein"}},{"name":"Osterfeldstr.","postalCode":"25557","locality":"Hanerau-Hademarschen","municipality":{"key":"01058072","name":"Hanerau-Hademarschen","type":"Kreisangehörige_Gemeinde"},"district":{"key":"01058","name":"Rendsburg-Eckernförde","type":"Kreis"},"federalState":{"key":"01","name":"Schleswig-Holstein"}},{"name":"Ostlandstr.","postalCode":"25557","locality":"Hanerau-Hademarschen","municipality":{"key":"01058072","name":"Hanerau-Hademarschen","type":"Kreisangehörige_Gemeinde"},"district":{"key":"01058","name":"Rendsburg-Eckernförde","type":"Kreis"},"federalState":{"key":"01","name":"Schleswig-Holstein"}},{"name":"Papenwiese","postalCode":"25557","locality":"Hanerau-Hademarschen","municipality":{"key":"01058072","name":"Hanerau-Hademarschen","type":"Kreisangehörige_Gemeinde"},"district":{"key":"01058","name":"Rendsburg-Eckernförde","type":"Kreis"},"federalState":{"key":"01","name":"Schleswig-Holstein"}},{"name":"Pemelnweg","postalCode":"25557","locality":"Hanerau-Hademarschen","municipality":{"key":"01058072","name":"Hanerau-Hademarschen","type":"Kreisangehörige_Gemeinde"},"district":{"key":"01058","name":"Rendsburg-Eckernförde","type":"Kreis"},"federalState":{"key":"01","name":"Schleswig-Holstein"}},{"name":"Philosophenweg","postalCode":"25557","locality":"Hanerau-Hademarschen","municipality":{"key":"01058072","name":"Hanerau-Hademarschen","type":"Kreisangehörige_Gemeinde"},"district":{"key":"01058","name":"Rendsburg-Eckernförde","type":"Kreis"},"federalState":{"key":"01","name":"Schleswig-Holstein"}},{"name":"Pommernweg","postalCode":"25557","locality":"Hanerau-Hademarschen","municipality":{"key":"01058072","name":"Hanerau-Hademarschen","type":"Kreisangehörige_Gemeinde"},"district":{"key":"01058","name":"Rendsburg-Eckernförde","type":"Kreis"},"federalState":{"key":"01","name":"Schleswig-Holstein"}},{"name":"Propst-Treplin-Weg","postalCode":"25557","locality":"Hanerau-Hademarschen","municipality":{"key":"01058072","name":"Hanerau-Hademarschen","type":"Kreisangehörige_Gemeinde"},"district":{"key":"01058","name":"Rendsburg-Eckernförde","type":"Kreis"},"federalState":{"key":"01","name":"Schleswig-Holstein"}},{"name":"Rehersweg","postalCode":"25557","locality":"Hanerau-Hademarschen","municipality":{"key":"01058072","name":"Hanerau-Hademarschen","type":"Kreisangehörige_Gemeinde"},"district":{"key":"01058","name":"Rendsburg-Eckernförde","type":"Kreis"},"federalState":{"key":"01","name":"Schleswig-Holstein"}},{"name":"Rehkamp","postalCode":"25557","locality":"Hanerau-Hademarschen","municipality":{"key":"01058072","name":"Hanerau-Hademarschen","type":"Kreisangehörige_Gemeinde"},"district":{"key":"01058","name":"Rendsburg-Eckernförde","type":"Kreis"},"federalState":{"key":"01","name":"Schleswig-Holstein"}},{"name":"Schmiedegang","postalCode":"25557","locality":"Hanerau-Hademarschen","municipality":{"key":"01058072","name":"Hanerau-Hademarschen","type":"Kreisangehörige_Gemeinde"},"district":{"key":"01058","name":"Rendsburg-Eckernförde","type":"Kreis"},"federalState":{"key":"01","name":"Schleswig-Holstein"}},{"name":"Schobeck","postalCode":"25557","locality":"Hanerau-Hademarschen","municipality":{"key":"01058072","name":"Hanerau-Hademarschen","type":"Kreisangehörige_Gemeinde"},"district":{"key":"01058","name":"Rendsburg-Eckernförde","type":"Kreis"},"federalState":{"key":"01","name":"Schleswig-Holstein"}},{"name":"Schwalbenweg","postalCode":"25557","locality":"Hanerau-Hademarschen","municipality":{"key":"01058072","name":"Hanerau-Hademarschen","type":"Kreisangehörige_Gemeinde"},"district":{"key":"01058","name":"Rendsburg-Eckernförde","type":"Kreis"},"federalState":{"key":"01","name":"Schleswig-Holstein"}},{"name":"Sperberweg","postalCode":"25557","locality":"Hanerau-Hademarschen","municipality":{"key":"01058072","name":"Hanerau-Hademarschen","type":"Kreisangehörige_Gemeinde"},"district":{"key":"01058","name":"Rendsburg-Eckernförde","type":"Kreis"},"federalState":{"key":"01","name":"Schleswig-Holstein"}},{"name":"Stettiner Str.","postalCode":"25557","locality":"Hanerau-Hademarschen","municipality":{"key":"01058072","name":"Hanerau-Hademarschen","type":"Kreisangehörige_Gemeinde"},"district":{"key":"01058","name":"Rendsburg-Eckernförde","type":"Kreis"},"federalState":{"key":"01","name":"Schleswig-Holstein"}},{"name":"Stormsweg","postalCode":"25557","locality":"Hanerau-Hademarschen","municipality":{"key":"01058072","name":"Hanerau-Hademarschen","type":"Kreisangehörige_Gemeinde"},"district":{"key":"01058","name":"Rendsburg-Eckernförde","type":"Kreis"},"federalState":{"key":"01","name":"Schleswig-Holstein"}},{"name":"Tanneck","postalCode":"25557","locality":"Hanerau-Hademarschen","municipality":{"key":"01058072","name":"Hanerau-Hademarschen","type":"Kreisangehörige_Gemeinde"},"district":{"key":"01058","name":"Rendsburg-Eckernförde","type":"Kreis"},"federalState":{"key":"01","name":"Schleswig-Holstein"}},{"name":"Theodor-Storm-Str.","postalCode":"25557","locality":"Hanerau-Hademarschen","municipality":{"key":"01058072","name":"Hanerau-Hademarschen","type":"Kreisangehörige_Gemeinde"},"district":{"key":"01058","name":"Rendsburg-Eckernförde","type":"Kreis"},"federalState":{"key":"01","name":"Schleswig-Holstein"}},{"name":"Tiefental","postalCode":"25557","locality":"Hanerau-Hademarschen","municipality":{"key":"01058072","name":"Hanerau-Hademarschen","type":"Kreisangehörige_Gemeinde"},"district":{"key":"01058","name":"Rendsburg-Eckernförde","type":"Kreis"},"federalState":{"key":"01","name":"Schleswig-Holstein"}},{"name":"Westerstr.","postalCode":"25557","locality":"Hanerau-Hademarschen","municipality":{"key":"01058072","name":"Hanerau-Hademarschen","type":"Kreisangehörige_Gemeinde"},"district":{"key":"01058","name":"Rendsburg-Eckernförde","type":"Kreis"},"federalState":{"key":"01","name":"Schleswig-Holstein"}},]