[{"name":"1.Hintergasse","postalCode":"99189","locality":"Haßleben","municipality":{"key":"16068025","name":"Haßleben","type":"Kreisangehörige_Gemeinde"},"district":{"key":"16068","name":"Sömmerda","type":"Landkreis"},"federalState":{"key":"16","name":"Thüringen"}},{"name":"2.Hintergasse","postalCode":"99189","locality":"Haßleben","municipality":{"key":"16068025","name":"Haßleben","type":"Kreisangehörige_Gemeinde"},"district":{"key":"16068","name":"Sömmerda","type":"Landkreis"},"federalState":{"key":"16","name":"Thüringen"}},{"name":"Alperstedter Weg","postalCode":"99189","locality":"Haßleben","municipality":{"key":"16068025","name":"Haßleben","type":"Kreisangehörige_Gemeinde"},"district":{"key":"16068","name":"Sömmerda","type":"Landkreis"},"federalState":{"key":"16","name":"Thüringen"}},{"name":"Am Furth","postalCode":"99189","locality":"Haßleben","municipality":{"key":"16068025","name":"Haßleben","type":"Kreisangehörige_Gemeinde"},"district":{"key":"16068","name":"Sömmerda","type":"Landkreis"},"federalState":{"key":"16","name":"Thüringen"}},{"name":"Am Plänchen","postalCode":"99189","locality":"Haßleben","municipality":{"key":"16068025","name":"Haßleben","type":"Kreisangehörige_Gemeinde"},"district":{"key":"16068","name":"Sömmerda","type":"Landkreis"},"federalState":{"key":"16","name":"Thüringen"}},{"name":"Am Rieth","postalCode":"99189","locality":"Haßleben","municipality":{"key":"16068025","name":"Haßleben","type":"Kreisangehörige_Gemeinde"},"district":{"key":"16068","name":"Sömmerda","type":"Landkreis"},"federalState":{"key":"16","name":"Thüringen"}},{"name":"Am Sandwurf","postalCode":"99189","locality":"Haßleben","municipality":{"key":"16068025","name":"Haßleben","type":"Kreisangehörige_Gemeinde"},"district":{"key":"16068","name":"Sömmerda","type":"Landkreis"},"federalState":{"key":"16","name":"Thüringen"}},{"name":"Anger","postalCode":"99189","locality":"Haßleben","municipality":{"key":"16068025","name":"Haßleben","type":"Kreisangehörige_Gemeinde"},"district":{"key":"16068","name":"Sömmerda","type":"Landkreis"},"federalState":{"key":"16","name":"Thüringen"}},{"name":"Backhausgasse","postalCode":"99189","locality":"Haßleben","municipality":{"key":"16068025","name":"Haßleben","type":"Kreisangehörige_Gemeinde"},"district":{"key":"16068","name":"Sömmerda","type":"Landkreis"},"federalState":{"key":"16","name":"Thüringen"}},{"name":"Bahnhofstr.","postalCode":"99189","locality":"Haßleben","municipality":{"key":"16068025","name":"Haßleben","type":"Kreisangehörige_Gemeinde"},"district":{"key":"16068","name":"Sömmerda","type":"Landkreis"},"federalState":{"key":"16","name":"Thüringen"}},{"name":"Brauhausplatz","postalCode":"99189","locality":"Haßleben","municipality":{"key":"16068025","name":"Haßleben","type":"Kreisangehörige_Gemeinde"},"district":{"key":"16068","name":"Sömmerda","type":"Landkreis"},"federalState":{"key":"16","name":"Thüringen"}},{"name":"Carl-Schleusing-Str.","postalCode":"99610","locality":"Sömmerda","municipality":{"key":"16068051","name":"Sömmerda, Stadt","type":"Stadt"},"district":{"key":"16068","name":"Sömmerda","type":"Landkreis"},"federalState":{"key":"16","name":"Thüringen"}},{"name":"Chausseegasse","postalCode":"99610","locality":"Sömmerda","municipality":{"key":"16068051","name":"Sömmerda, Stadt","type":"Stadt"},"district":{"key":"16068","name":"Sömmerda","type":"Landkreis"},"federalState":{"key":"16","name":"Thüringen"}},{"name":"Dahlienweg","postalCode":"99610","locality":"Sömmerda","municipality":{"key":"16068051","name":"Sömmerda, Stadt","type":"Stadt"},"district":{"key":"16068","name":"Sömmerda","type":"Landkreis"},"federalState":{"key":"16","name":"Thüringen"}},{"name":"Der Alm","postalCode":"99610","locality":"Sömmerda","municipality":{"key":"16068051","name":"Sömmerda, Stadt","type":"Stadt"},"district":{"key":"16068","name":"Sömmerda","type":"Landkreis"},"federalState":{"key":"16","name":"Thüringen"}},{"name":"Dorfplatz","postalCode":"99610","locality":"Sömmerda","municipality":{"key":"16068051","name":"Sömmerda, Stadt","type":"Stadt"},"district":{"key":"16068","name":"Sömmerda","type":"Landkreis"},"federalState":{"key":"16","name":"Thüringen"}},{"name":"Dorfstr.","postalCode":"99610","locality":"Sömmerda","municipality":{"key":"16068051","name":"Sömmerda, Stadt","type":"Stadt"},"district":{"key":"16068","name":"Sömmerda","type":"Landkreis"},"federalState":{"key":"16","name":"Thüringen"}},{"name":"Eichsfeld","postalCode":"99189","locality":"Haßleben","municipality":{"key":"16068025","name":"Haßleben","type":"Kreisangehörige_Gemeinde"},"district":{"key":"16068","name":"Sömmerda","type":"Landkreis"},"federalState":{"key":"16","name":"Thüringen"}},{"name":"Feuergasse","postalCode":"99189","locality":"Haßleben","municipality":{"key":"16068025","name":"Haßleben","type":"Kreisangehörige_Gemeinde"},"district":{"key":"16068","name":"Sömmerda","type":"Landkreis"},"federalState":{"key":"16","name":"Thüringen"}},{"name":"Furthgasse","postalCode":"99189","locality":"Haßleben","municipality":{"key":"16068025","name":"Haßleben","type":"Kreisangehörige_Gemeinde"},"district":{"key":"16068","name":"Sömmerda","type":"Landkreis"},"federalState":{"key":"16","name":"Thüringen"}},{"name":"Furthweg","postalCode":"99189","locality":"Haßleben","municipality":{"key":"16068025","name":"Haßleben","type":"Kreisangehörige_Gemeinde"},"district":{"key":"16068","name":"Sömmerda","type":"Landkreis"},"federalState":{"key":"16","name":"Thüringen"}},{"name":"Grömer","postalCode":"99189","locality":"Haßleben","municipality":{"key":"16068025","name":"Haßleben","type":"Kreisangehörige_Gemeinde"},"district":{"key":"16068","name":"Sömmerda","type":"Landkreis"},"federalState":{"key":"16","name":"Thüringen"}},{"name":"Haferland-Siedlung","postalCode":"99610","locality":"Sömmerda","municipality":{"key":"16068051","name":"Sömmerda, Stadt","type":"Stadt"},"district":{"key":"16068","name":"Sömmerda","type":"Landkreis"},"federalState":{"key":"16","name":"Thüringen"}},{"name":"Händelstr.","postalCode":"99610","locality":"Sömmerda","municipality":{"key":"16068051","name":"Sömmerda, Stadt","type":"Stadt"},"district":{"key":"16068","name":"Sömmerda","type":"Landkreis"},"federalState":{"key":"16","name":"Thüringen"}},{"name":"Hans-Christian-Andersen-Str.","postalCode":"99610","locality":"Sömmerda","municipality":{"key":"16068051","name":"Sömmerda, Stadt","type":"Stadt"},"district":{"key":"16068","name":"Sömmerda","type":"Landkreis"},"federalState":{"key":"16","name":"Thüringen"}},{"name":"Hauptstr.","postalCode":"99610","locality":"Sömmerda","municipality":{"key":"16068051","name":"Sömmerda, Stadt","type":"Stadt"},"district":{"key":"16068","name":"Sömmerda","type":"Landkreis"},"federalState":{"key":"16","name":"Thüringen"}},{"name":"Haydnstr.","postalCode":"99610","locality":"Sömmerda","municipality":{"key":"16068051","name":"Sömmerda, Stadt","type":"Stadt"},"district":{"key":"16068","name":"Sömmerda","type":"Landkreis"},"federalState":{"key":"16","name":"Thüringen"}},{"name":"Hebbelstr.","postalCode":"99610","locality":"Sömmerda","municipality":{"key":"16068051","name":"Sömmerda, Stadt","type":"Stadt"},"district":{"key":"16068","name":"Sömmerda","type":"Landkreis"},"federalState":{"key":"16","name":"Thüringen"}},{"name":"Heerweg","postalCode":"99610","locality":"Sömmerda","municipality":{"key":"16068051","name":"Sömmerda, Stadt","type":"Stadt"},"district":{"key":"16068","name":"Sömmerda","type":"Landkreis"},"federalState":{"key":"16","name":"Thüringen"}},{"name":"Hefe","postalCode":"99625","locality":"Sömmerda","municipality":{"key":"16068051","name":"Sömmerda, Stadt","type":"Stadt"},"district":{"key":"16068","name":"Sömmerda","type":"Landkreis"},"federalState":{"key":"16","name":"Thüringen"}},{"name":"Hegelplatz","postalCode":"99610","locality":"Sömmerda","municipality":{"key":"16068051","name":"Sömmerda, Stadt","type":"Stadt"},"district":{"key":"16068","name":"Sömmerda","type":"Landkreis"},"federalState":{"key":"16","name":"Thüringen"}},{"name":"Heinrich-Heine-Str.","postalCode":"99610","locality":"Sömmerda","municipality":{"key":"16068051","name":"Sömmerda, Stadt","type":"Stadt"},"district":{"key":"16068","name":"Sömmerda","type":"Landkreis"},"federalState":{"key":"16","name":"Thüringen"}},{"name":"Herrengasse","postalCode":"99610","locality":"Sömmerda","municipality":{"key":"16068051","name":"Sömmerda, Stadt","type":"Stadt"},"district":{"key":"16068","name":"Sömmerda","type":"Landkreis"},"federalState":{"key":"16","name":"Thüringen"}},{"name":"Hinter dem Dorfe","postalCode":"99625","locality":"Sömmerda","municipality":{"key":"16068051","name":"Sömmerda, Stadt","type":"Stadt"},"district":{"key":"16068","name":"Sömmerda","type":"Landkreis"},"federalState":{"key":"16","name":"Thüringen"}},{"name":"Hinterm Dorf","postalCode":"99610","locality":"Sömmerda","municipality":{"key":"16068051","name":"Sömmerda, Stadt","type":"Stadt"},"district":{"key":"16068","name":"Sömmerda","type":"Landkreis"},"federalState":{"key":"16","name":"Thüringen"}},{"name":"Hinterstr.","postalCode":"99610","locality":"Sömmerda","municipality":{"key":"16068051","name":"Sömmerda, Stadt","type":"Stadt"},"district":{"key":"16068","name":"Sömmerda","type":"Landkreis"},"federalState":{"key":"16","name":"Thüringen"}},{"name":"Hugo-Schmidt-Str.","postalCode":"99610","locality":"Sömmerda","municipality":{"key":"16068051","name":"Sömmerda, Stadt","type":"Stadt"},"district":{"key":"16068","name":"Sömmerda","type":"Landkreis"},"federalState":{"key":"16","name":"Thüringen"}},{"name":"Jahnstr.","postalCode":"99610","locality":"Sömmerda","municipality":{"key":"16068051","name":"Sömmerda, Stadt","type":"Stadt"},"district":{"key":"16068","name":"Sömmerda","type":"Landkreis"},"federalState":{"key":"16","name":"Thüringen"}},{"name":"Kirchgasse","postalCode":"99189","locality":"Haßleben","municipality":{"key":"16068025","name":"Haßleben","type":"Kreisangehörige_Gemeinde"},"district":{"key":"16068","name":"Sömmerda","type":"Landkreis"},"federalState":{"key":"16","name":"Thüringen"}},{"name":"Klopfgasse","postalCode":"99189","locality":"Haßleben","municipality":{"key":"16068025","name":"Haßleben","type":"Kreisangehörige_Gemeinde"},"district":{"key":"16068","name":"Sömmerda","type":"Landkreis"},"federalState":{"key":"16","name":"Thüringen"}},{"name":"Lange Str.","postalCode":"99189","locality":"Haßleben","municipality":{"key":"16068025","name":"Haßleben","type":"Kreisangehörige_Gemeinde"},"district":{"key":"16068","name":"Sömmerda","type":"Landkreis"},"federalState":{"key":"16","name":"Thüringen"}},{"name":"Lindenstr.","postalCode":"99189","locality":"Haßleben","municipality":{"key":"16068025","name":"Haßleben","type":"Kreisangehörige_Gemeinde"},"district":{"key":"16068","name":"Sömmerda","type":"Landkreis"},"federalState":{"key":"16","name":"Thüringen"}},{"name":"Mainzer Str.","postalCode":"99610","locality":"Sömmerda","municipality":{"key":"16068051","name":"Sömmerda, Stadt","type":"Stadt"},"district":{"key":"16068","name":"Sömmerda","type":"Landkreis"},"federalState":{"key":"16","name":"Thüringen"}},{"name":"Marktplatz","postalCode":"99610","locality":"Sömmerda","municipality":{"key":"16068051","name":"Sömmerda, Stadt","type":"Stadt"},"district":{"key":"16068","name":"Sömmerda","type":"Landkreis"},"federalState":{"key":"16","name":"Thüringen"}},{"name":"Martinipark","postalCode":"99610","locality":"Sömmerda","municipality":{"key":"16068051","name":"Sömmerda, Stadt","type":"Stadt"},"district":{"key":"16068","name":"Sömmerda","type":"Landkreis"},"federalState":{"key":"16","name":"Thüringen"}},{"name":"Martin-Luther-Str.","postalCode":"99610","locality":"Sömmerda","municipality":{"key":"16068051","name":"Sömmerda, Stadt","type":"Stadt"},"district":{"key":"16068","name":"Sömmerda","type":"Landkreis"},"federalState":{"key":"16","name":"Thüringen"}},{"name":"Mittelgasse","postalCode":"99610","locality":"Sömmerda","municipality":{"key":"16068051","name":"Sömmerda, Stadt","type":"Stadt"},"district":{"key":"16068","name":"Sömmerda","type":"Landkreis"},"federalState":{"key":"16","name":"Thüringen"}},{"name":"Mittelstr.","postalCode":"99610","locality":"Sömmerda","municipality":{"key":"16068051","name":"Sömmerda, Stadt","type":"Stadt"},"district":{"key":"16068","name":"Sömmerda","type":"Landkreis"},"federalState":{"key":"16","name":"Thüringen"}},{"name":"Moritz-Wandt-Str.","postalCode":"99610","locality":"Sömmerda","municipality":{"key":"16068051","name":"Sömmerda, Stadt","type":"Stadt"},"district":{"key":"16068","name":"Sömmerda","type":"Landkreis"},"federalState":{"key":"16","name":"Thüringen"}},{"name":"Mozartstr.","postalCode":"99610","locality":"Sömmerda","municipality":{"key":"16068051","name":"Sömmerda, Stadt","type":"Stadt"},"district":{"key":"16068","name":"Sömmerda","type":"Landkreis"},"federalState":{"key":"16","name":"Thüringen"}},{"name":"Mühlgasse","postalCode":"99610","locality":"Sömmerda","municipality":{"key":"16068051","name":"Sömmerda, Stadt","type":"Stadt"},"district":{"key":"16068","name":"Sömmerda","type":"Landkreis"},"federalState":{"key":"16","name":"Thüringen"}},{"name":"Mühlstr.","postalCode":"99610","locality":"Sömmerda","municipality":{"key":"16068051","name":"Sömmerda, Stadt","type":"Stadt"},"district":{"key":"16068","name":"Sömmerda","type":"Landkreis"},"federalState":{"key":"16","name":"Thüringen"}},{"name":"Neue Anlage","postalCode":"99189","locality":"Haßleben","municipality":{"key":"16068025","name":"Haßleben","type":"Kreisangehörige_Gemeinde"},"district":{"key":"16068","name":"Sömmerda","type":"Landkreis"},"federalState":{"key":"16","name":"Thüringen"}},{"name":"Neustadt","postalCode":"99189","locality":"Haßleben","municipality":{"key":"16068025","name":"Haßleben","type":"Kreisangehörige_Gemeinde"},"district":{"key":"16068","name":"Sömmerda","type":"Landkreis"},"federalState":{"key":"16","name":"Thüringen"}},{"name":"Obere Kirchgasse","postalCode":"99610","locality":"Sömmerda","municipality":{"key":"16068051","name":"Sömmerda, Stadt","type":"Stadt"},"district":{"key":"16068","name":"Sömmerda","type":"Landkreis"},"federalState":{"key":"16","name":"Thüringen"}},{"name":"Offenhainer Str.","postalCode":"99610","locality":"Sömmerda","municipality":{"key":"16068051","name":"Sömmerda, Stadt","type":"Stadt"},"district":{"key":"16068","name":"Sömmerda","type":"Landkreis"},"federalState":{"key":"16","name":"Thüringen"}},{"name":"Ortsumfahrung Sömmerda","postalCode":"99610","locality":"Sömmerda","municipality":{"key":"16068051","name":"Sömmerda, Stadt","type":"Stadt"},"district":{"key":"16068","name":"Sömmerda","type":"Landkreis"},"federalState":{"key":"16","name":"Thüringen"}},{"name":"Otto-Jessing-Str.","postalCode":"99610","locality":"Sömmerda","municipality":{"key":"16068051","name":"Sömmerda, Stadt","type":"Stadt"},"district":{"key":"16068","name":"Sömmerda","type":"Landkreis"},"federalState":{"key":"16","name":"Thüringen"}},{"name":"Pappelweg","postalCode":"99610","locality":"Sömmerda","municipality":{"key":"16068051","name":"Sömmerda, Stadt","type":"Stadt"},"district":{"key":"16068","name":"Sömmerda","type":"Landkreis"},"federalState":{"key":"16","name":"Thüringen"}},{"name":"Paradies","postalCode":"99610","locality":"Sömmerda","municipality":{"key":"16068051","name":"Sömmerda, Stadt","type":"Stadt"},"district":{"key":"16068","name":"Sömmerda","type":"Landkreis"},"federalState":{"key":"16","name":"Thüringen"}},{"name":"Parkweg","postalCode":"99610","locality":"Sömmerda","municipality":{"key":"16068051","name":"Sömmerda, Stadt","type":"Stadt"},"district":{"key":"16068","name":"Sömmerda","type":"Landkreis"},"federalState":{"key":"16","name":"Thüringen"}},{"name":"Pestalozzistr.","postalCode":"99610","locality":"Sömmerda","municipality":{"key":"16068051","name":"Sömmerda, Stadt","type":"Stadt"},"district":{"key":"16068","name":"Sömmerda","type":"Landkreis"},"federalState":{"key":"16","name":"Thüringen"}},{"name":"Petriplatz","postalCode":"99610","locality":"Sömmerda","municipality":{"key":"16068051","name":"Sömmerda, Stadt","type":"Stadt"},"district":{"key":"16068","name":"Sömmerda","type":"Landkreis"},"federalState":{"key":"16","name":"Thüringen"}},{"name":"Pfarrer-Wolfgang-Breithaupt-Str.","postalCode":"99610","locality":"Sömmerda","municipality":{"key":"16068051","name":"Sömmerda, Stadt","type":"Stadt"},"district":{"key":"16068","name":"Sömmerda","type":"Landkreis"},"federalState":{"key":"16","name":"Thüringen"}},{"name":"Pfarrstr.","postalCode":"99610","locality":"Sömmerda","municipality":{"key":"16068051","name":"Sömmerda, Stadt","type":"Stadt"},"district":{"key":"16068","name":"Sömmerda","type":"Landkreis"},"federalState":{"key":"16","name":"Thüringen"}},{"name":"Pfortecke","postalCode":"99610","locality":"Sömmerda","municipality":{"key":"16068051","name":"Sömmerda, Stadt","type":"Stadt"},"district":{"key":"16068","name":"Sömmerda","type":"Landkreis"},"federalState":{"key":"16","name":"Thüringen"}},{"name":"Plan","postalCode":"99610","locality":"Sömmerda","municipality":{"key":"16068051","name":"Sömmerda, Stadt","type":"Stadt"},"district":{"key":"16068","name":"Sömmerda","type":"Landkreis"},"federalState":{"key":"16","name":"Thüringen"}},{"name":"Platz der Märzgefallenen","postalCode":"99610","locality":"Sömmerda","municipality":{"key":"16068051","name":"Sömmerda, Stadt","type":"Stadt"},"district":{"key":"16068","name":"Sömmerda","type":"Landkreis"},"federalState":{"key":"16","name":"Thüringen"}},{"name":"Poststr.","postalCode":"99610","locality":"Sömmerda","municipality":{"key":"16068051","name":"Sömmerda, Stadt","type":"Stadt"},"district":{"key":"16068","name":"Sömmerda","type":"Landkreis"},"federalState":{"key":"16","name":"Thüringen"}},{"name":"Quergasse","postalCode":"99610","locality":"Sömmerda","municipality":{"key":"16068051","name":"Sömmerda, Stadt","type":"Stadt"},"district":{"key":"16068","name":"Sömmerda","type":"Landkreis"},"federalState":{"key":"16","name":"Thüringen"}},{"name":"Querstr.","postalCode":"99610","locality":"Sömmerda","municipality":{"key":"16068051","name":"Sömmerda, Stadt","type":"Stadt"},"district":{"key":"16068","name":"Sömmerda","type":"Landkreis"},"federalState":{"key":"16","name":"Thüringen"}},{"name":"Querweg","postalCode":"99610","locality":"Sömmerda","municipality":{"key":"16068051","name":"Sömmerda, Stadt","type":"Stadt"},"district":{"key":"16068","name":"Sömmerda","type":"Landkreis"},"federalState":{"key":"16","name":"Thüringen"}},{"name":"Riethnordhäuser Str.","postalCode":"99189","locality":"Haßleben","municipality":{"key":"16068025","name":"Haßleben","type":"Kreisangehörige_Gemeinde"},"district":{"key":"16068","name":"Sömmerda","type":"Landkreis"},"federalState":{"key":"16","name":"Thüringen"}},{"name":"Stedtenborn","postalCode":"99189","locality":"Haßleben","municipality":{"key":"16068025","name":"Haßleben","type":"Kreisangehörige_Gemeinde"},"district":{"key":"16068","name":"Sömmerda","type":"Landkreis"},"federalState":{"key":"16","name":"Thüringen"}},{"name":"Töpfermarkt","postalCode":"99189","locality":"Haßleben","municipality":{"key":"16068025","name":"Haßleben","type":"Kreisangehörige_Gemeinde"},"district":{"key":"16068","name":"Sömmerda","type":"Landkreis"},"federalState":{"key":"16","name":"Thüringen"}},{"name":"Uhlandstr.","postalCode":"99610","locality":"Sömmerda","municipality":{"key":"16068051","name":"Sömmerda, Stadt","type":"Stadt"},"district":{"key":"16068","name":"Sömmerda","type":"Landkreis"},"federalState":{"key":"16","name":"Thüringen"}},{"name":"Ulmenweg","postalCode":"99610","locality":"Sömmerda","municipality":{"key":"16068051","name":"Sömmerda, Stadt","type":"Stadt"},"district":{"key":"16068","name":"Sömmerda","type":"Landkreis"},"federalState":{"key":"16","name":"Thüringen"}},{"name":"Untere Brückenstr.","postalCode":"99610","locality":"Sömmerda","municipality":{"key":"16068051","name":"Sömmerda, Stadt","type":"Stadt"},"district":{"key":"16068","name":"Sömmerda","type":"Landkreis"},"federalState":{"key":"16","name":"Thüringen"}},{"name":"Untere Kirchgasse","postalCode":"99610","locality":"Sömmerda","municipality":{"key":"16068051","name":"Sömmerda, Stadt","type":"Stadt"},"district":{"key":"16068","name":"Sömmerda","type":"Landkreis"},"federalState":{"key":"16","name":"Thüringen"}},{"name":"Uthmannstr.","postalCode":"99610","locality":"Sömmerda","municipality":{"key":"16068051","name":"Sömmerda, Stadt","type":"Stadt"},"district":{"key":"16068","name":"Sömmerda","type":"Landkreis"},"federalState":{"key":"16","name":"Thüringen"}},{"name":"Vehraer Str.","postalCode":"99189","locality":"Haßleben","municipality":{"key":"16068025","name":"Haßleben","type":"Kreisangehörige_Gemeinde"},"district":{"key":"16068","name":"Sömmerda","type":"Landkreis"},"federalState":{"key":"16","name":"Thüringen"}},{"name":"Vor dem Obertore","postalCode":"99189","locality":"Haßleben","municipality":{"key":"16068025","name":"Haßleben","type":"Kreisangehörige_Gemeinde"},"district":{"key":"16068","name":"Sömmerda","type":"Landkreis"},"federalState":{"key":"16","name":"Thüringen"}},{"name":"Wachtelstr.","postalCode":"99610","locality":"Sömmerda","municipality":{"key":"16068051","name":"Sömmerda, Stadt","type":"Stadt"},"district":{"key":"16068","name":"Sömmerda","type":"Landkreis"},"federalState":{"key":"16","name":"Thüringen"}},{"name":"Wallgasse","postalCode":"99610","locality":"Sömmerda","municipality":{"key":"16068051","name":"Sömmerda, Stadt","type":"Stadt"},"district":{"key":"16068","name":"Sömmerda","type":"Landkreis"},"federalState":{"key":"16","name":"Thüringen"}},{"name":"Walter-Rathenau-Str.","postalCode":"99610","locality":"Sömmerda","municipality":{"key":"16068051","name":"Sömmerda, Stadt","type":"Stadt"},"district":{"key":"16068","name":"Sömmerda","type":"Landkreis"},"federalState":{"key":"16","name":"Thüringen"}},{"name":"Weidenweg","postalCode":"99610","locality":"Sömmerda","municipality":{"key":"16068051","name":"Sömmerda, Stadt","type":"Stadt"},"district":{"key":"16068","name":"Sömmerda","type":"Landkreis"},"federalState":{"key":"16","name":"Thüringen"}},{"name":"Weißenburg","postalCode":"99610","locality":"Sömmerda","municipality":{"key":"16068051","name":"Sömmerda, Stadt","type":"Stadt"},"district":{"key":"16068","name":"Sömmerda","type":"Landkreis"},"federalState":{"key":"16","name":"Thüringen"}},{"name":"Weißenseer Str.","postalCode":"99610","locality":"Sömmerda","municipality":{"key":"16068051","name":"Sömmerda, Stadt","type":"Stadt"},"district":{"key":"16068","name":"Sömmerda","type":"Landkreis"},"federalState":{"key":"16","name":"Thüringen"}},{"name":"Weißenseer Weg","postalCode":"99610","locality":"Sömmerda","municipality":{"key":"16068051","name":"Sömmerda, Stadt","type":"Stadt"},"district":{"key":"16068","name":"Sömmerda","type":"Landkreis"},"federalState":{"key":"16","name":"Thüringen"}},{"name":"Wenigensömmersche Str.","postalCode":"99610","locality":"Sömmerda","municipality":{"key":"16068051","name":"Sömmerda, Stadt","type":"Stadt"},"district":{"key":"16068","name":"Sömmerda","type":"Landkreis"},"federalState":{"key":"16","name":"Thüringen"}},{"name":"Werner-Seelenbinder-Str.","postalCode":"99610","locality":"Sömmerda","municipality":{"key":"16068051","name":"Sömmerda, Stadt","type":"Stadt"},"district":{"key":"16068","name":"Sömmerda","type":"Landkreis"},"federalState":{"key":"16","name":"Thüringen"}},{"name":"Werrchenstr.","postalCode":"99610","locality":"Sömmerda","municipality":{"key":"16068051","name":"Sömmerda, Stadt","type":"Stadt"},"district":{"key":"16068","name":"Sömmerda","type":"Landkreis"},"federalState":{"key":"16","name":"Thüringen"}},{"name":"Wielandstr.","postalCode":"99610","locality":"Sömmerda","municipality":{"key":"16068051","name":"Sömmerda, Stadt","type":"Stadt"},"district":{"key":"16068","name":"Sömmerda","type":"Landkreis"},"federalState":{"key":"16","name":"Thüringen"}},{"name":"Wiesenstr.","postalCode":"99625","locality":"Sömmerda","municipality":{"key":"16068051","name":"Sömmerda, Stadt","type":"Stadt"},"district":{"key":"16068","name":"Sömmerda","type":"Landkreis"},"federalState":{"key":"16","name":"Thüringen"}},{"name":"Wilhelm-Busch-Str.","postalCode":"99610","locality":"Sömmerda","municipality":{"key":"16068051","name":"Sömmerda, Stadt","type":"Stadt"},"district":{"key":"16068","name":"Sömmerda","type":"Landkreis"},"federalState":{"key":"16","name":"Thüringen"}},{"name":"Zum Bahnhof","postalCode":"99610","locality":"Sömmerda","municipality":{"key":"16068051","name":"Sömmerda, Stadt","type":"Stadt"},"district":{"key":"16068","name":"Sömmerda","type":"Landkreis"},"federalState":{"key":"16","name":"Thüringen"}},{"name":"Zum Plan","postalCode":"99625","locality":"Sömmerda","municipality":{"key":"16068051","name":"Sömmerda, Stadt","type":"Stadt"},"district":{"key":"16068","name":"Sömmerda","type":"Landkreis"},"federalState":{"key":"16","name":"Thüringen"}},{"name":"Zwirnsgasse","postalCode":"99610","locality":"Sömmerda","municipality":{"key":"16068051","name":"Sömmerda, Stadt","type":"Stadt"},"district":{"key":"16068","name":"Sömmerda","type":"Landkreis"},"federalState":{"key":"16","name":"Thüringen"}},]