[{"key":"10013556","name":"Aareweg","postalCode":"3380","locality":"Walliswil b. Niederbipp","commune":{"key":"990","name":"Walliswil bei Niederbipp","shortName":"Walliswil bei Niederbipp"},"district":{"key":"244","name":"Verwaltungskreis Oberaargau"},"canton":{"key":"2","code":"BE","name":"Bern / Berne"},"status":"Real"},{"key":"10012995","name":"Aarwangenstrasse","postalCode":"4704","locality":"Niederbipp","commune":{"key":"981","name":"Niederbipp","shortName":"Niederbipp"},"district":{"key":"244","name":"Verwaltungskreis Oberaargau"},"canton":{"key":"2","code":"BE","name":"Bern / Berne"},"status":"Real"},{"key":"10065208","name":"Abilon","postalCode":"4704","locality":"Niederbipp","commune":{"key":"981","name":"Niederbipp","shortName":"Niederbipp"},"district":{"key":"244","name":"Verwaltungskreis Oberaargau"},"canton":{"key":"2","code":"BE","name":"Bern / Berne"},"status":"Real"},{"key":"10040024","name":"Adlerweg","postalCode":"4704","locality":"Niederbipp","commune":{"key":"981","name":"Niederbipp","shortName":"Niederbipp"},"district":{"key":"244","name":"Verwaltungskreis Oberaargau"},"canton":{"key":"2","code":"BE","name":"Bern / Berne"},"status":"Real"},{"key":"10075442","name":"Aengistrasse","postalCode":"4704","locality":"Niederbipp","commune":{"key":"981","name":"Niederbipp","shortName":"Niederbipp"},"district":{"key":"244","name":"Verwaltungskreis Oberaargau"},"canton":{"key":"2","code":"BE","name":"Bern / Berne"},"status":"Real"},{"key":"10012996","name":"Amselweg","postalCode":"4704","locality":"Niederbipp","commune":{"key":"981","name":"Niederbipp","shortName":"Niederbipp"},"district":{"key":"244","name":"Verwaltungskreis Oberaargau"},"canton":{"key":"2","code":"BE","name":"Bern / Berne"},"status":"Real"},{"key":"10218864","name":"Antere","postalCode":"4704","locality":"Niederbipp","commune":{"key":"981","name":"Niederbipp","shortName":"Niederbipp"},"district":{"key":"244","name":"Verwaltungskreis Oberaargau"},"canton":{"key":"2","code":"BE","name":"Bern / Berne"},"status":"Real"},{"key":"10098705","name":"Anternstrasse","postalCode":"4704","locality":"Niederbipp","commune":{"key":"981","name":"Niederbipp","shortName":"Niederbipp"},"district":{"key":"244","name":"Verwaltungskreis Oberaargau"},"canton":{"key":"2","code":"BE","name":"Bern / Berne"},"status":"Real"},{"key":"10012997","name":"Asternweg","postalCode":"4704","locality":"Niederbipp","commune":{"key":"981","name":"Niederbipp","shortName":"Niederbipp"},"district":{"key":"244","name":"Verwaltungskreis Oberaargau"},"canton":{"key":"2","code":"BE","name":"Bern / Berne"},"status":"Real"},{"key":"10108413","name":"Bachweg","postalCode":"4704","locality":"Niederbipp","commune":{"key":"981","name":"Niederbipp","shortName":"Niederbipp"},"district":{"key":"244","name":"Verwaltungskreis Oberaargau"},"canton":{"key":"2","code":"BE","name":"Bern / Berne"},"status":"Real"},{"key":"10218868","name":"Bahnhof","postalCode":"4704","locality":"Niederbipp","commune":{"key":"981","name":"Niederbipp","shortName":"Niederbipp"},"district":{"key":"244","name":"Verwaltungskreis Oberaargau"},"canton":{"key":"2","code":"BE","name":"Bern / Berne"},"status":"Real"},{"key":"10179066","name":"Bahnhofstrasse","postalCode":"4704","locality":"Niederbipp","commune":{"key":"981","name":"Niederbipp","shortName":"Niederbipp"},"district":{"key":"244","name":"Verwaltungskreis Oberaargau"},"canton":{"key":"2","code":"BE","name":"Bern / Berne"},"status":"Real"},{"key":"10186483","name":"Banngasse","postalCode":"4704","locality":"Niederbipp","commune":{"key":"981","name":"Niederbipp","shortName":"Niederbipp"},"district":{"key":"244","name":"Verwaltungskreis Oberaargau"},"canton":{"key":"2","code":"BE","name":"Bern / Berne"},"status":"Real"},{"key":"10013000","name":"Bärebödeli","postalCode":"4704","locality":"Niederbipp","commune":{"key":"981","name":"Niederbipp","shortName":"Niederbipp"},"district":{"key":"244","name":"Verwaltungskreis Oberaargau"},"canton":{"key":"2","code":"BE","name":"Bern / Berne"},"status":"Real"},{"key":"10013001","name":"Bärenweg","postalCode":"4704","locality":"Niederbipp","commune":{"key":"981","name":"Niederbipp","shortName":"Niederbipp"},"district":{"key":"244","name":"Verwaltungskreis Oberaargau"},"canton":{"key":"2","code":"BE","name":"Bern / Berne"},"status":"Real"},{"key":"10075443","name":"Birkenweg","postalCode":"4704","locality":"Niederbipp","commune":{"key":"981","name":"Niederbipp","shortName":"Niederbipp"},"district":{"key":"244","name":"Verwaltungskreis Oberaargau"},"canton":{"key":"2","code":"BE","name":"Bern / Berne"},"status":"Real"},{"key":"10057508","name":"Bleike","postalCode":"3380","locality":"Walliswil b. Niederbipp","commune":{"key":"990","name":"Walliswil bei Niederbipp","shortName":"Walliswil bei Niederbipp"},"district":{"key":"244","name":"Verwaltungskreis Oberaargau"},"canton":{"key":"2","code":"BE","name":"Bern / Berne"},"status":"Real"},{"key":"10066400","name":"Bodenacker","postalCode":"3380","locality":"Walliswil b. Niederbipp","commune":{"key":"990","name":"Walliswil bei Niederbipp","shortName":"Walliswil bei Niederbipp"},"district":{"key":"244","name":"Verwaltungskreis Oberaargau"},"canton":{"key":"2","code":"BE","name":"Bern / Berne"},"status":"Real"},{"key":"10040025","name":"Breitsteinweg","postalCode":"4704","locality":"Niederbipp","commune":{"key":"981","name":"Niederbipp","shortName":"Niederbipp"},"district":{"key":"244","name":"Verwaltungskreis Oberaargau"},"canton":{"key":"2","code":"BE","name":"Bern / Berne"},"status":"Real"},{"key":"10012999","name":"Brügglisackerweg","postalCode":"4704","locality":"Niederbipp","commune":{"key":"981","name":"Niederbipp","shortName":"Niederbipp"},"district":{"key":"244","name":"Verwaltungskreis Oberaargau"},"canton":{"key":"2","code":"BE","name":"Bern / Berne"},"status":"Real"},{"key":"10065209","name":"Brühlmattenstrasse","postalCode":"4704","locality":"Niederbipp","commune":{"key":"981","name":"Niederbipp","shortName":"Niederbipp"},"district":{"key":"244","name":"Verwaltungskreis Oberaargau"},"canton":{"key":"2","code":"BE","name":"Bern / Berne"},"status":"Real"},{"key":"10065210","name":"Brühlweg","postalCode":"4704","locality":"Niederbipp","commune":{"key":"981","name":"Niederbipp","shortName":"Niederbipp"},"district":{"key":"244","name":"Verwaltungskreis Oberaargau"},"canton":{"key":"2","code":"BE","name":"Bern / Berne"},"status":"Real"},{"key":"10012998","name":"Brunnenweg","postalCode":"4704","locality":"Niederbipp","commune":{"key":"981","name":"Niederbipp","shortName":"Niederbipp"},"district":{"key":"244","name":"Verwaltungskreis Oberaargau"},"canton":{"key":"2","code":"BE","name":"Bern / Berne"},"status":"Real"},{"key":"10057497","name":"Brunnhof","postalCode":"4704","locality":"Niederbipp","commune":{"key":"981","name":"Niederbipp","shortName":"Niederbipp"},"district":{"key":"244","name":"Verwaltungskreis Oberaargau"},"canton":{"key":"2","code":"BE","name":"Bern / Berne"},"status":"Real"},{"key":"10075444","name":"Buchenweg","postalCode":"4704","locality":"Niederbipp","commune":{"key":"981","name":"Niederbipp","shortName":"Niederbipp"},"district":{"key":"244","name":"Verwaltungskreis Oberaargau"},"canton":{"key":"2","code":"BE","name":"Bern / Berne"},"status":"Real"},{"key":"10113126","name":"Buchlistrasse","postalCode":"4704","locality":"Niederbipp","commune":{"key":"981","name":"Niederbipp","shortName":"Niederbipp"},"district":{"key":"244","name":"Verwaltungskreis Oberaargau"},"canton":{"key":"2","code":"BE","name":"Bern / Berne"},"status":"Real"},{"key":"10187154","name":"Buchsernweg","postalCode":"4704","locality":"Niederbipp","commune":{"key":"981","name":"Niederbipp","shortName":"Niederbipp"},"district":{"key":"244","name":"Verwaltungskreis Oberaargau"},"canton":{"key":"2","code":"BE","name":"Bern / Berne"},"status":"Real"},{"key":"10082244","name":"Bündenweg","postalCode":"4704","locality":"Niederbipp","commune":{"key":"981","name":"Niederbipp","shortName":"Niederbipp"},"district":{"key":"244","name":"Verwaltungskreis Oberaargau"},"canton":{"key":"2","code":"BE","name":"Bern / Berne"},"status":"Real"},{"key":"10040026","name":"Dachsweg","postalCode":"4704","locality":"Niederbipp","commune":{"key":"981","name":"Niederbipp","shortName":"Niederbipp"},"district":{"key":"244","name":"Verwaltungskreis Oberaargau"},"canton":{"key":"2","code":"BE","name":"Bern / Berne"},"status":"Real"},{"key":"10185810","name":"Dahlienweg","postalCode":"4704","locality":"Niederbipp","commune":{"key":"981","name":"Niederbipp","shortName":"Niederbipp"},"district":{"key":"244","name":"Verwaltungskreis Oberaargau"},"canton":{"key":"2","code":"BE","name":"Bern / Berne"},"status":"Real"},{"key":"10040027","name":"Dammweg","postalCode":"4704","locality":"Niederbipp","commune":{"key":"981","name":"Niederbipp","shortName":"Niederbipp"},"district":{"key":"244","name":"Verwaltungskreis Oberaargau"},"canton":{"key":"2","code":"BE","name":"Bern / Berne"},"status":"Real"},{"key":"10013002","name":"Deckergasse","postalCode":"4704","locality":"Niederbipp","commune":{"key":"981","name":"Niederbipp","shortName":"Niederbipp"},"district":{"key":"244","name":"Verwaltungskreis Oberaargau"},"canton":{"key":"2","code":"BE","name":"Bern / Berne"},"status":"Real"},{"key":"10013003","name":"Distelweg","postalCode":"4704","locality":"Niederbipp","commune":{"key":"981","name":"Niederbipp","shortName":"Niederbipp"},"district":{"key":"244","name":"Verwaltungskreis Oberaargau"},"canton":{"key":"2","code":"BE","name":"Bern / Berne"},"status":"Real"},{"key":"10098706","name":"Doktorsträssli","postalCode":"4704","locality":"Niederbipp","commune":{"key":"981","name":"Niederbipp","shortName":"Niederbipp"},"district":{"key":"244","name":"Verwaltungskreis Oberaargau"},"canton":{"key":"2","code":"BE","name":"Bern / Berne"},"status":"Real"},{"key":"10013557","name":"Dorfstrasse","postalCode":"3380","locality":"Walliswil b. Niederbipp","commune":{"key":"990","name":"Walliswil bei Niederbipp","shortName":"Walliswil bei Niederbipp"},"district":{"key":"244","name":"Verwaltungskreis Oberaargau"},"canton":{"key":"2","code":"BE","name":"Bern / Berne"},"status":"Real"},{"key":"10189947","name":"Dorfstrasse","postalCode":"4704","locality":"Niederbipp","commune":{"key":"981","name":"Niederbipp","shortName":"Niederbipp"},"district":{"key":"244","name":"Verwaltungskreis Oberaargau"},"canton":{"key":"2","code":"BE","name":"Bern / Berne"},"status":"Real"},{"key":"10082245","name":"Dornackerweg","postalCode":"4704","locality":"Niederbipp","commune":{"key":"981","name":"Niederbipp","shortName":"Niederbipp"},"district":{"key":"244","name":"Verwaltungskreis Oberaargau"},"canton":{"key":"2","code":"BE","name":"Bern / Berne"},"status":"Real"},{"key":"10127936","name":"Drosselweg","postalCode":"4704","locality":"Niederbipp","commune":{"key":"981","name":"Niederbipp","shortName":"Niederbipp"},"district":{"key":"244","name":"Verwaltungskreis Oberaargau"},"canton":{"key":"2","code":"BE","name":"Bern / Berne"},"status":"Real"},{"key":"10135541","name":"Efeuweg","postalCode":"4704","locality":"Niederbipp","commune":{"key":"981","name":"Niederbipp","shortName":"Niederbipp"},"district":{"key":"244","name":"Verwaltungskreis Oberaargau"},"canton":{"key":"2","code":"BE","name":"Bern / Berne"},"status":"Real"},{"key":"10065211","name":"Erlenweg","postalCode":"4704","locality":"Niederbipp","commune":{"key":"981","name":"Niederbipp","shortName":"Niederbipp"},"district":{"key":"244","name":"Verwaltungskreis Oberaargau"},"canton":{"key":"2","code":"BE","name":"Bern / Berne"},"status":"Real"},{"key":"10178363","name":"Falkenweg","postalCode":"4704","locality":"Niederbipp","commune":{"key":"981","name":"Niederbipp","shortName":"Niederbipp"},"district":{"key":"244","name":"Verwaltungskreis Oberaargau"},"canton":{"key":"2","code":"BE","name":"Bern / Berne"},"status":"Real"},{"key":"10013004","name":"Farnweg","postalCode":"4704","locality":"Niederbipp","commune":{"key":"981","name":"Niederbipp","shortName":"Niederbipp"},"district":{"key":"244","name":"Verwaltungskreis Oberaargau"},"canton":{"key":"2","code":"BE","name":"Bern / Berne"},"status":"Real"},{"key":"10137589","name":"Fenchackerweg","postalCode":"4704","locality":"Niederbipp","commune":{"key":"981","name":"Niederbipp","shortName":"Niederbipp"},"district":{"key":"244","name":"Verwaltungskreis Oberaargau"},"canton":{"key":"2","code":"BE","name":"Bern / Berne"},"status":"Real"},{"key":"10040028","name":"Fexweg","postalCode":"4704","locality":"Niederbipp","commune":{"key":"981","name":"Niederbipp","shortName":"Niederbipp"},"district":{"key":"244","name":"Verwaltungskreis Oberaargau"},"canton":{"key":"2","code":"BE","name":"Bern / Berne"},"status":"Real"},{"key":"10179067","name":"Fichtenhof","postalCode":"4704","locality":"Niederbipp","commune":{"key":"981","name":"Niederbipp","shortName":"Niederbipp"},"district":{"key":"244","name":"Verwaltungskreis Oberaargau"},"canton":{"key":"2","code":"BE","name":"Bern / Berne"},"status":"Real"},{"key":"10013005","name":"Finkenweg","postalCode":"4704","locality":"Niederbipp","commune":{"key":"981","name":"Niederbipp","shortName":"Niederbipp"},"district":{"key":"244","name":"Verwaltungskreis Oberaargau"},"canton":{"key":"2","code":"BE","name":"Bern / Berne"},"status":"Real"},{"key":"10082246","name":"Finstergasse","postalCode":"4704","locality":"Niederbipp","commune":{"key":"981","name":"Niederbipp","shortName":"Niederbipp"},"district":{"key":"244","name":"Verwaltungskreis Oberaargau"},"canton":{"key":"2","code":"BE","name":"Bern / Berne"},"status":"Real"},{"key":"10065212","name":"Föhrenweg","postalCode":"4704","locality":"Niederbipp","commune":{"key":"981","name":"Niederbipp","shortName":"Niederbipp"},"district":{"key":"244","name":"Verwaltungskreis Oberaargau"},"canton":{"key":"2","code":"BE","name":"Bern / Berne"},"status":"Real"},{"key":"10090352","name":"Friedhofstrasse","postalCode":"3380","locality":"Walliswil b. Niederbipp","commune":{"key":"990","name":"Walliswil bei Niederbipp","shortName":"Walliswil bei Niederbipp"},"district":{"key":"244","name":"Verwaltungskreis Oberaargau"},"canton":{"key":"2","code":"BE","name":"Bern / Berne"},"status":"Real"},{"key":"10040029","name":"Fuchsweg","postalCode":"4704","locality":"Niederbipp","commune":{"key":"981","name":"Niederbipp","shortName":"Niederbipp"},"district":{"key":"244","name":"Verwaltungskreis Oberaargau"},"canton":{"key":"2","code":"BE","name":"Bern / Berne"},"status":"Real"},{"key":"10013006","name":"Galgackerweg","postalCode":"4704","locality":"Niederbipp","commune":{"key":"981","name":"Niederbipp","shortName":"Niederbipp"},"district":{"key":"244","name":"Verwaltungskreis Oberaargau"},"canton":{"key":"2","code":"BE","name":"Bern / Berne"},"status":"Real"},{"key":"10187155","name":"Galmisweg","postalCode":"4704","locality":"Niederbipp","commune":{"key":"981","name":"Niederbipp","shortName":"Niederbipp"},"district":{"key":"244","name":"Verwaltungskreis Oberaargau"},"canton":{"key":"2","code":"BE","name":"Bern / Berne"},"status":"Real"},{"key":"10065213","name":"Gässli","postalCode":"4704","locality":"Niederbipp","commune":{"key":"981","name":"Niederbipp","shortName":"Niederbipp"},"district":{"key":"244","name":"Verwaltungskreis Oberaargau"},"canton":{"key":"2","code":"BE","name":"Bern / Berne"},"status":"Real"},{"key":"10013007","name":"Gehrengasse","postalCode":"4704","locality":"Niederbipp","commune":{"key":"981","name":"Niederbipp","shortName":"Niederbipp"},"district":{"key":"244","name":"Verwaltungskreis Oberaargau"},"canton":{"key":"2","code":"BE","name":"Bern / Berne"},"status":"Real"},{"key":"10013008","name":"Gemeindehofweg","postalCode":"4704","locality":"Niederbipp","commune":{"key":"981","name":"Niederbipp","shortName":"Niederbipp"},"district":{"key":"244","name":"Verwaltungskreis Oberaargau"},"canton":{"key":"2","code":"BE","name":"Bern / Berne"},"status":"Real"},{"key":"10132782","name":"Gerhard Meier-Weg","postalCode":"4704","locality":"Niederbipp","commune":{"key":"981","name":"Niederbipp","shortName":"Niederbipp"},"district":{"key":"244","name":"Verwaltungskreis Oberaargau"},"canton":{"key":"2","code":"BE","name":"Bern / Berne"},"status":"Real"},{"key":"10152994","name":"Grabematt","postalCode":"4704","locality":"Niederbipp","commune":{"key":"981","name":"Niederbipp","shortName":"Niederbipp"},"district":{"key":"244","name":"Verwaltungskreis Oberaargau"},"canton":{"key":"2","code":"BE","name":"Bern / Berne"},"status":"Real"},{"key":"10252553","name":"Grossacher","postalCode":"3380","locality":"Walliswil b. Niederbipp","commune":{"key":"990","name":"Walliswil bei Niederbipp","shortName":"Walliswil bei Niederbipp"},"district":{"key":"244","name":"Verwaltungskreis Oberaargau"},"canton":{"key":"2","code":"BE","name":"Bern / Berne"},"status":"Real"},{"key":"10102749","name":"Grundackerweg","postalCode":"4704","locality":"Niederbipp","commune":{"key":"981","name":"Niederbipp","shortName":"Niederbipp"},"district":{"key":"244","name":"Verwaltungskreis Oberaargau"},"canton":{"key":"2","code":"BE","name":"Bern / Berne"},"status":"Real"},{"key":"10082247","name":"Grundweg","postalCode":"4704","locality":"Niederbipp","commune":{"key":"981","name":"Niederbipp","shortName":"Niederbipp"},"district":{"key":"244","name":"Verwaltungskreis Oberaargau"},"canton":{"key":"2","code":"BE","name":"Bern / Berne"},"status":"Real"},{"key":"10057498","name":"Güggelhof","postalCode":"4704","locality":"Niederbipp","commune":{"key":"981","name":"Niederbipp","shortName":"Niederbipp"},"district":{"key":"244","name":"Verwaltungskreis Oberaargau"},"canton":{"key":"2","code":"BE","name":"Bern / Berne"},"status":"Real"},{"key":"10013558","name":"Güschel","postalCode":"3380","locality":"Walliswil b. Niederbipp","commune":{"key":"990","name":"Walliswil bei Niederbipp","shortName":"Walliswil bei Niederbipp"},"district":{"key":"244","name":"Verwaltungskreis Oberaargau"},"canton":{"key":"2","code":"BE","name":"Bern / Berne"},"status":"Real"},{"key":"10066401","name":"Güschelstrasse","postalCode":"3380","locality":"Walliswil b. Niederbipp","commune":{"key":"990","name":"Walliswil bei Niederbipp","shortName":"Walliswil bei Niederbipp"},"district":{"key":"244","name":"Verwaltungskreis Oberaargau"},"canton":{"key":"2","code":"BE","name":"Bern / Berne"},"status":"Real"},{"key":"10040030","name":"Hagenbuchenweg","postalCode":"4704","locality":"Niederbipp","commune":{"key":"981","name":"Niederbipp","shortName":"Niederbipp"},"district":{"key":"244","name":"Verwaltungskreis Oberaargau"},"canton":{"key":"2","code":"BE","name":"Bern / Berne"},"status":"Real"},{"key":"10013009","name":"Haldenweg","postalCode":"4704","locality":"Niederbipp","commune":{"key":"981","name":"Niederbipp","shortName":"Niederbipp"},"district":{"key":"244","name":"Verwaltungskreis Oberaargau"},"canton":{"key":"2","code":"BE","name":"Bern / Berne"},"status":"Real"},{"key":"10013010","name":"Hasenweg","postalCode":"4704","locality":"Niederbipp","commune":{"key":"981","name":"Niederbipp","shortName":"Niederbipp"},"district":{"key":"244","name":"Verwaltungskreis Oberaargau"},"canton":{"key":"2","code":"BE","name":"Bern / Berne"},"status":"Real"},{"key":"10040031","name":"Hashogerweg","postalCode":"4704","locality":"Niederbipp","commune":{"key":"981","name":"Niederbipp","shortName":"Niederbipp"},"district":{"key":"244","name":"Verwaltungskreis Oberaargau"},"canton":{"key":"2","code":"BE","name":"Bern / Berne"},"status":"Real"},{"key":"10138590","name":"Herrenmattweg","postalCode":"4704","locality":"Niederbipp","commune":{"key":"981","name":"Niederbipp","shortName":"Niederbipp"},"district":{"key":"244","name":"Verwaltungskreis Oberaargau"},"canton":{"key":"2","code":"BE","name":"Bern / Berne"},"status":"Real"},{"key":"10082248","name":"Herrenzehntenweg","postalCode":"4704","locality":"Niederbipp","commune":{"key":"981","name":"Niederbipp","shortName":"Niederbipp"},"district":{"key":"244","name":"Verwaltungskreis Oberaargau"},"canton":{"key":"2","code":"BE","name":"Bern / Berne"},"status":"Real"},{"key":"10187208","name":"Hinterer Rützelenweg","postalCode":"4704","locality":"Niederbipp","commune":{"key":"981","name":"Niederbipp","shortName":"Niederbipp"},"district":{"key":"244","name":"Verwaltungskreis Oberaargau"},"canton":{"key":"2","code":"BE","name":"Bern / Berne"},"status":"Real"},{"key":"10171947","name":"Hinteres Gässli","postalCode":"4704","locality":"Niederbipp","commune":{"key":"981","name":"Niederbipp","shortName":"Niederbipp"},"district":{"key":"244","name":"Verwaltungskreis Oberaargau"},"canton":{"key":"2","code":"BE","name":"Bern / Berne"},"status":"Real"},{"key":"10179068","name":"Hintergasse","postalCode":"4704","locality":"Niederbipp","commune":{"key":"981","name":"Niederbipp","shortName":"Niederbipp"},"district":{"key":"244","name":"Verwaltungskreis Oberaargau"},"canton":{"key":"2","code":"BE","name":"Bern / Berne"},"status":"Real"},{"key":"10040032","name":"Hinterlehnweg","postalCode":"4704","locality":"Niederbipp","commune":{"key":"981","name":"Niederbipp","shortName":"Niederbipp"},"district":{"key":"244","name":"Verwaltungskreis Oberaargau"},"canton":{"key":"2","code":"BE","name":"Bern / Berne"},"status":"Real"},{"key":"10013011","name":"Hintermattweg","postalCode":"4704","locality":"Niederbipp","commune":{"key":"981","name":"Niederbipp","shortName":"Niederbipp"},"district":{"key":"244","name":"Verwaltungskreis Oberaargau"},"canton":{"key":"2","code":"BE","name":"Bern / Berne"},"status":"Real"},{"key":"10113127","name":"Hofackerweg","postalCode":"4704","locality":"Niederbipp","commune":{"key":"981","name":"Niederbipp","shortName":"Niederbipp"},"district":{"key":"244","name":"Verwaltungskreis Oberaargau"},"canton":{"key":"2","code":"BE","name":"Bern / Berne"},"status":"Real"},{"key":"10013013","name":"Höfli","postalCode":"4704","locality":"Niederbipp","commune":{"key":"981","name":"Niederbipp","shortName":"Niederbipp"},"district":{"key":"244","name":"Verwaltungskreis Oberaargau"},"canton":{"key":"2","code":"BE","name":"Bern / Berne"},"status":"Real"},{"key":"10013014","name":"Höheweg","postalCode":"4704","locality":"Niederbipp","commune":{"key":"981","name":"Niederbipp","shortName":"Niederbipp"},"district":{"key":"244","name":"Verwaltungskreis Oberaargau"},"canton":{"key":"2","code":"BE","name":"Bern / Berne"},"status":"Real"},{"key":"10113139","name":"Hohleweg","postalCode":"3380","locality":"Walliswil b. Niederbipp","commune":{"key":"990","name":"Walliswil bei Niederbipp","shortName":"Walliswil bei Niederbipp"},"district":{"key":"244","name":"Verwaltungskreis Oberaargau"},"canton":{"key":"2","code":"BE","name":"Bern / Berne"},"status":"Real"},{"key":"10040033","name":"Holzhäusernstrasse","postalCode":"4704","locality":"Niederbipp","commune":{"key":"981","name":"Niederbipp","shortName":"Niederbipp"},"district":{"key":"244","name":"Verwaltungskreis Oberaargau"},"canton":{"key":"2","code":"BE","name":"Bern / Berne"},"status":"Real"},{"key":"10065214","name":"Hölzlisackerweg","postalCode":"4704","locality":"Niederbipp","commune":{"key":"981","name":"Niederbipp","shortName":"Niederbipp"},"district":{"key":"244","name":"Verwaltungskreis Oberaargau"},"canton":{"key":"2","code":"BE","name":"Bern / Berne"},"status":"Real"},{"key":"10218873","name":"Hubelacher","postalCode":"4704","locality":"Niederbipp","commune":{"key":"981","name":"Niederbipp","shortName":"Niederbipp"},"district":{"key":"244","name":"Verwaltungskreis Oberaargau"},"canton":{"key":"2","code":"BE","name":"Bern / Berne"},"status":"Real"},{"key":"10013012","name":"Hummelweg","postalCode":"4704","locality":"Niederbipp","commune":{"key":"981","name":"Niederbipp","shortName":"Niederbipp"},"district":{"key":"244","name":"Verwaltungskreis Oberaargau"},"canton":{"key":"2","code":"BE","name":"Bern / Berne"},"status":"Real"},{"key":"10013015","name":"Im Egge","postalCode":"4704","locality":"Niederbipp","commune":{"key":"981","name":"Niederbipp","shortName":"Niederbipp"},"district":{"key":"244","name":"Verwaltungskreis Oberaargau"},"canton":{"key":"2","code":"BE","name":"Bern / Berne"},"status":"Real"},{"key":"10015469","name":"Industriestrasse","postalCode":"4704","locality":"Niederbipp","commune":{"key":"981","name":"Niederbipp","shortName":"Niederbipp"},"district":{"key":"244","name":"Verwaltungskreis Oberaargau"},"canton":{"key":"2","code":"BE","name":"Bern / Berne"},"status":"Real"},{"key":"10218877","name":"Ischlag","postalCode":"4704","locality":"Niederbipp","commune":{"key":"981","name":"Niederbipp","shortName":"Niederbipp"},"district":{"key":"244","name":"Verwaltungskreis Oberaargau"},"canton":{"key":"2","code":"BE","name":"Bern / Berne"},"status":"Real"},{"key":"10082249","name":"Jurastrasse","postalCode":"4704","locality":"Niederbipp","commune":{"key":"981","name":"Niederbipp","shortName":"Niederbipp"},"district":{"key":"244","name":"Verwaltungskreis Oberaargau"},"canton":{"key":"2","code":"BE","name":"Bern / Berne"},"status":"Real"},{"key":"10013017","name":"Käppelisgasse","postalCode":"4704","locality":"Niederbipp","commune":{"key":"981","name":"Niederbipp","shortName":"Niederbipp"},"district":{"key":"244","name":"Verwaltungskreis Oberaargau"},"canton":{"key":"2","code":"BE","name":"Bern / Berne"},"status":"Real"},{"key":"10179069","name":"Käsereiweg","postalCode":"4704","locality":"Niederbipp","commune":{"key":"981","name":"Niederbipp","shortName":"Niederbipp"},"district":{"key":"244","name":"Verwaltungskreis Oberaargau"},"canton":{"key":"2","code":"BE","name":"Bern / Berne"},"status":"Real"},{"key":"10013016","name":"Kirchgasse","postalCode":"4704","locality":"Niederbipp","commune":{"key":"981","name":"Niederbipp","shortName":"Niederbipp"},"district":{"key":"244","name":"Verwaltungskreis Oberaargau"},"canton":{"key":"2","code":"BE","name":"Bern / Berne"},"status":"Real"},{"key":"10013021","name":"Länghagweg","postalCode":"4704","locality":"Niederbipp","commune":{"key":"981","name":"Niederbipp","shortName":"Niederbipp"},"district":{"key":"244","name":"Verwaltungskreis Oberaargau"},"canton":{"key":"2","code":"BE","name":"Bern / Berne"},"status":"Real"},{"key":"10218881","name":"Längwald","postalCode":"4704","locality":"Niederbipp","commune":{"key":"981","name":"Niederbipp","shortName":"Niederbipp"},"district":{"key":"244","name":"Verwaltungskreis Oberaargau"},"canton":{"key":"2","code":"BE","name":"Bern / Berne"},"status":"Real"},{"key":"10065215","name":"Lauberhof","postalCode":"4704","locality":"Niederbipp","commune":{"key":"981","name":"Niederbipp","shortName":"Niederbipp"},"district":{"key":"244","name":"Verwaltungskreis Oberaargau"},"canton":{"key":"2","code":"BE","name":"Bern / Berne"},"status":"Real"},{"key":"10137590","name":"Leenrütimattweg","postalCode":"4704","locality":"Niederbipp","commune":{"key":"981","name":"Niederbipp","shortName":"Niederbipp"},"district":{"key":"244","name":"Verwaltungskreis Oberaargau"},"canton":{"key":"2","code":"BE","name":"Bern / Berne"},"status":"Real"},{"key":"10135358","name":"Lehnackerweg","postalCode":"4704","locality":"Niederbipp","commune":{"key":"981","name":"Niederbipp","shortName":"Niederbipp"},"district":{"key":"244","name":"Verwaltungskreis Oberaargau"},"canton":{"key":"2","code":"BE","name":"Bern / Berne"},"status":"Real"},{"key":"10013018","name":"Lehnweg","postalCode":"4704","locality":"Niederbipp","commune":{"key":"981","name":"Niederbipp","shortName":"Niederbipp"},"district":{"key":"244","name":"Verwaltungskreis Oberaargau"},"canton":{"key":"2","code":"BE","name":"Bern / Berne"},"status":"Real"},{"key":"10082250","name":"Lerchenboden","postalCode":"4704","locality":"Niederbipp","commune":{"key":"981","name":"Niederbipp","shortName":"Niederbipp"},"district":{"key":"244","name":"Verwaltungskreis Oberaargau"},"canton":{"key":"2","code":"BE","name":"Bern / Berne"},"status":"Real"},{"key":"10013019","name":"Lerchenweg","postalCode":"4704","locality":"Niederbipp","commune":{"key":"981","name":"Niederbipp","shortName":"Niederbipp"},"district":{"key":"244","name":"Verwaltungskreis Oberaargau"},"canton":{"key":"2","code":"BE","name":"Bern / Berne"},"status":"Real"},{"key":"10057499","name":"Lindenmatt","postalCode":"4704","locality":"Niederbipp","commune":{"key":"981","name":"Niederbipp","shortName":"Niederbipp"},"district":{"key":"244","name":"Verwaltungskreis Oberaargau"},"canton":{"key":"2","code":"BE","name":"Bern / Berne"},"status":"Real"},{"key":"10013020","name":"Linisacker","postalCode":"4704","locality":"Niederbipp","commune":{"key":"981","name":"Niederbipp","shortName":"Niederbipp"},"district":{"key":"244","name":"Verwaltungskreis Oberaargau"},"canton":{"key":"2","code":"BE","name":"Bern / Berne"},"status":"Real"},{"key":"10185811","name":"Lohrütti","postalCode":"4704","locality":"Niederbipp","commune":{"key":"981","name":"Niederbipp","shortName":"Niederbipp"},"district":{"key":"244","name":"Verwaltungskreis Oberaargau"},"canton":{"key":"2","code":"BE","name":"Bern / Berne"},"status":"Real"},{"key":"10082251","name":"Marktgasse","postalCode":"4704","locality":"Niederbipp","commune":{"key":"981","name":"Niederbipp","shortName":"Niederbipp"},"district":{"key":"244","name":"Verwaltungskreis Oberaargau"},"canton":{"key":"2","code":"BE","name":"Bern / Berne"},"status":"Real"},{"key":"10013022","name":"Martinsacker","postalCode":"4704","locality":"Niederbipp","commune":{"key":"981","name":"Niederbipp","shortName":"Niederbipp"},"district":{"key":"244","name":"Verwaltungskreis Oberaargau"},"canton":{"key":"2","code":"BE","name":"Bern / Berne"},"status":"Real"},{"key":"10013559","name":"Matte","postalCode":"3380","locality":"Walliswil b. Niederbipp","commune":{"key":"990","name":"Walliswil bei Niederbipp","shortName":"Walliswil bei Niederbipp"},"district":{"key":"244","name":"Verwaltungskreis Oberaargau"},"canton":{"key":"2","code":"BE","name":"Bern / Berne"},"status":"Real"},{"key":"10065216","name":"Mattenweg","postalCode":"4704","locality":"Niederbipp","commune":{"key":"981","name":"Niederbipp","shortName":"Niederbipp"},"district":{"key":"244","name":"Verwaltungskreis Oberaargau"},"canton":{"key":"2","code":"BE","name":"Bern / Berne"},"status":"Real"},{"key":"10113128","name":"Meisenweg","postalCode":"4704","locality":"Niederbipp","commune":{"key":"981","name":"Niederbipp","shortName":"Niederbipp"},"district":{"key":"244","name":"Verwaltungskreis Oberaargau"},"canton":{"key":"2","code":"BE","name":"Bern / Berne"},"status":"Real"},{"key":"10219703","name":"Mesimatten","postalCode":"4704","locality":"Niederbipp","commune":{"key":"981","name":"Niederbipp","shortName":"Niederbipp"},"district":{"key":"244","name":"Verwaltungskreis Oberaargau"},"canton":{"key":"2","code":"BE","name":"Bern / Berne"},"status":"Real"},{"key":"10082252","name":"Moosackerweg","postalCode":"4704","locality":"Niederbipp","commune":{"key":"981","name":"Niederbipp","shortName":"Niederbipp"},"district":{"key":"244","name":"Verwaltungskreis Oberaargau"},"canton":{"key":"2","code":"BE","name":"Bern / Berne"},"status":"Real"},{"key":"10139739","name":"Moosmattweg","postalCode":"4704","locality":"Niederbipp","commune":{"key":"981","name":"Niederbipp","shortName":"Niederbipp"},"district":{"key":"244","name":"Verwaltungskreis Oberaargau"},"canton":{"key":"2","code":"BE","name":"Bern / Berne"},"status":"Real"},{"key":"10013023","name":"Mösliweg","postalCode":"4704","locality":"Niederbipp","commune":{"key":"981","name":"Niederbipp","shortName":"Niederbipp"},"district":{"key":"244","name":"Verwaltungskreis Oberaargau"},"canton":{"key":"2","code":"BE","name":"Bern / Berne"},"status":"Real"},{"key":"10013560","name":"Mühle","postalCode":"3380","locality":"Walliswil b. Niederbipp","commune":{"key":"990","name":"Walliswil bei Niederbipp","shortName":"Walliswil bei Niederbipp"},"district":{"key":"244","name":"Verwaltungskreis Oberaargau"},"canton":{"key":"2","code":"BE","name":"Bern / Berne"},"status":"Real"},{"key":"10180161","name":"Nelkenweg","postalCode":"4704","locality":"Niederbipp","commune":{"key":"981","name":"Niederbipp","shortName":"Niederbipp"},"district":{"key":"244","name":"Verwaltungskreis Oberaargau"},"canton":{"key":"2","code":"BE","name":"Bern / Berne"},"status":"Real"},{"key":"10065217","name":"Neumattweg","postalCode":"4704","locality":"Niederbipp","commune":{"key":"981","name":"Niederbipp","shortName":"Niederbipp"},"district":{"key":"244","name":"Verwaltungskreis Oberaargau"},"canton":{"key":"2","code":"BE","name":"Bern / Berne"},"status":"Real"},{"key":"10013024","name":"Nickenweg","postalCode":"4704","locality":"Niederbipp","commune":{"key":"981","name":"Niederbipp","shortName":"Niederbipp"},"district":{"key":"244","name":"Verwaltungskreis Oberaargau"},"canton":{"key":"2","code":"BE","name":"Bern / Berne"},"status":"Real"},{"key":"10013025","name":"Niederfeldweg","postalCode":"4704","locality":"Niederbipp","commune":{"key":"981","name":"Niederbipp","shortName":"Niederbipp"},"district":{"key":"244","name":"Verwaltungskreis Oberaargau"},"canton":{"key":"2","code":"BE","name":"Bern / Berne"},"status":"Real"},{"key":"10245833","name":"Oberberg","postalCode":"4704","locality":"Niederbipp","commune":{"key":"981","name":"Niederbipp","shortName":"Niederbipp"},"district":{"key":"244","name":"Verwaltungskreis Oberaargau"},"canton":{"key":"2","code":"BE","name":"Bern / Berne"},"status":"Real"},{"key":"10082253","name":"Obere Dürrmühlestrasse","postalCode":"4704","locality":"Niederbipp","commune":{"key":"981","name":"Niederbipp","shortName":"Niederbipp"},"district":{"key":"244","name":"Verwaltungskreis Oberaargau"},"canton":{"key":"2","code":"BE","name":"Bern / Berne"},"status":"Real"},{"key":"10127935","name":"Oberer Sängelenweg","postalCode":"4704","locality":"Niederbipp","commune":{"key":"981","name":"Niederbipp","shortName":"Niederbipp"},"district":{"key":"244","name":"Verwaltungskreis Oberaargau"},"canton":{"key":"2","code":"BE","name":"Bern / Berne"},"status":"Real"},{"key":"10013026","name":"Oberfeldweg","postalCode":"4704","locality":"Niederbipp","commune":{"key":"981","name":"Niederbipp","shortName":"Niederbipp"},"district":{"key":"244","name":"Verwaltungskreis Oberaargau"},"canton":{"key":"2","code":"BE","name":"Bern / Berne"},"status":"Real"},{"key":"10116460","name":"Oggenhäusernweg","postalCode":"4704","locality":"Niederbipp","commune":{"key":"981","name":"Niederbipp","shortName":"Niederbipp"},"district":{"key":"244","name":"Verwaltungskreis Oberaargau"},"canton":{"key":"2","code":"BE","name":"Bern / Berne"},"status":"Real"},{"key":"10125316","name":"Quellenweg","postalCode":"4704","locality":"Niederbipp","commune":{"key":"981","name":"Niederbipp","shortName":"Niederbipp"},"district":{"key":"244","name":"Verwaltungskreis Oberaargau"},"canton":{"key":"2","code":"BE","name":"Bern / Berne"},"status":"Real"},{"key":"10145446","name":"Regetzenweg","postalCode":"4704","locality":"Niederbipp","commune":{"key":"981","name":"Niederbipp","shortName":"Niederbipp"},"district":{"key":"244","name":"Verwaltungskreis Oberaargau"},"canton":{"key":"2","code":"BE","name":"Bern / Berne"},"status":"Real"},{"key":"10189948","name":"Rehweg","postalCode":"4704","locality":"Niederbipp","commune":{"key":"981","name":"Niederbipp","shortName":"Niederbipp"},"district":{"key":"244","name":"Verwaltungskreis Oberaargau"},"canton":{"key":"2","code":"BE","name":"Bern / Berne"},"status":"Real"},{"key":"10013027","name":"Renkholzweg","postalCode":"4704","locality":"Niederbipp","commune":{"key":"981","name":"Niederbipp","shortName":"Niederbipp"},"district":{"key":"244","name":"Verwaltungskreis Oberaargau"},"canton":{"key":"2","code":"BE","name":"Bern / Berne"},"status":"Real"},{"key":"10082254","name":"Roggenweg","postalCode":"4704","locality":"Niederbipp","commune":{"key":"981","name":"Niederbipp","shortName":"Niederbipp"},"district":{"key":"244","name":"Verwaltungskreis Oberaargau"},"canton":{"key":"2","code":"BE","name":"Bern / Berne"},"status":"Real"},{"key":"10065218","name":"Römergasse","postalCode":"4704","locality":"Niederbipp","commune":{"key":"981","name":"Niederbipp","shortName":"Niederbipp"},"district":{"key":"244","name":"Verwaltungskreis Oberaargau"},"canton":{"key":"2","code":"BE","name":"Bern / Berne"},"status":"Real"},{"key":"10180162","name":"Rosenweg","postalCode":"4704","locality":"Niederbipp","commune":{"key":"981","name":"Niederbipp","shortName":"Niederbipp"},"district":{"key":"244","name":"Verwaltungskreis Oberaargau"},"canton":{"key":"2","code":"BE","name":"Bern / Berne"},"status":"Real"},{"key":"10057500","name":"Rotboden","postalCode":"4704","locality":"Niederbipp","commune":{"key":"981","name":"Niederbipp","shortName":"Niederbipp"},"district":{"key":"244","name":"Verwaltungskreis Oberaargau"},"canton":{"key":"2","code":"BE","name":"Bern / Berne"},"status":"Real"},{"key":"10013028","name":"Rötiweg","postalCode":"4704","locality":"Niederbipp","commune":{"key":"981","name":"Niederbipp","shortName":"Niederbipp"},"district":{"key":"244","name":"Verwaltungskreis Oberaargau"},"canton":{"key":"2","code":"BE","name":"Bern / Berne"},"status":"Real"},{"key":"10108272","name":"Rüttihof","postalCode":"4704","locality":"Niederbipp","commune":{"key":"981","name":"Niederbipp","shortName":"Niederbipp"},"district":{"key":"244","name":"Verwaltungskreis Oberaargau"},"canton":{"key":"2","code":"BE","name":"Bern / Berne"},"status":"Real"},{"key":"10013029","name":"Rüttimatt","postalCode":"4704","locality":"Niederbipp","commune":{"key":"981","name":"Niederbipp","shortName":"Niederbipp"},"district":{"key":"244","name":"Verwaltungskreis Oberaargau"},"canton":{"key":"2","code":"BE","name":"Bern / Berne"},"status":"Real"},{"key":"10219708","name":"Rützele","postalCode":"4704","locality":"Niederbipp","commune":{"key":"981","name":"Niederbipp","shortName":"Niederbipp"},"district":{"key":"244","name":"Verwaltungskreis Oberaargau"},"canton":{"key":"2","code":"BE","name":"Bern / Berne"},"status":"Real"},{"key":"10014159","name":"Sagimattweg","postalCode":"4704","locality":"Niederbipp","commune":{"key":"981","name":"Niederbipp","shortName":"Niederbipp"},"district":{"key":"244","name":"Verwaltungskreis Oberaargau"},"canton":{"key":"2","code":"BE","name":"Bern / Berne"},"status":"Real"},{"key":"10128466","name":"Sandackerweg","postalCode":"4704","locality":"Niederbipp","commune":{"key":"981","name":"Niederbipp","shortName":"Niederbipp"},"district":{"key":"244","name":"Verwaltungskreis Oberaargau"},"canton":{"key":"2","code":"BE","name":"Bern / Berne"},"status":"Real"},{"key":"10138591","name":"Sandgrubenweg","postalCode":"4704","locality":"Niederbipp","commune":{"key":"981","name":"Niederbipp","shortName":"Niederbipp"},"district":{"key":"244","name":"Verwaltungskreis Oberaargau"},"canton":{"key":"2","code":"BE","name":"Bern / Berne"},"status":"Real"},{"key":"10065219","name":"Scharnagelnstrasse","postalCode":"4704","locality":"Niederbipp","commune":{"key":"981","name":"Niederbipp","shortName":"Niederbipp"},"district":{"key":"244","name":"Verwaltungskreis Oberaargau"},"canton":{"key":"2","code":"BE","name":"Bern / Berne"},"status":"Real"},{"key":"10014160","name":"Schimmelweg","postalCode":"4704","locality":"Niederbipp","commune":{"key":"981","name":"Niederbipp","shortName":"Niederbipp"},"district":{"key":"244","name":"Verwaltungskreis Oberaargau"},"canton":{"key":"2","code":"BE","name":"Bern / Berne"},"status":"Real"},{"key":"10113129","name":"Schlüsselmattweg","postalCode":"4704","locality":"Niederbipp","commune":{"key":"981","name":"Niederbipp","shortName":"Niederbipp"},"district":{"key":"244","name":"Verwaltungskreis Oberaargau"},"canton":{"key":"2","code":"BE","name":"Bern / Berne"},"status":"Real"},{"key":"10082255","name":"Schmalzgrubenweg","postalCode":"4704","locality":"Niederbipp","commune":{"key":"981","name":"Niederbipp","shortName":"Niederbipp"},"district":{"key":"244","name":"Verwaltungskreis Oberaargau"},"canton":{"key":"2","code":"BE","name":"Bern / Berne"},"status":"Real"},{"key":"10180163","name":"Schönfeld","postalCode":"4704","locality":"Niederbipp","commune":{"key":"981","name":"Niederbipp","shortName":"Niederbipp"},"district":{"key":"244","name":"Verwaltungskreis Oberaargau"},"canton":{"key":"2","code":"BE","name":"Bern / Berne"},"status":"Real"},{"key":"10014161","name":"Schorisackerweg","postalCode":"4704","locality":"Niederbipp","commune":{"key":"981","name":"Niederbipp","shortName":"Niederbipp"},"district":{"key":"244","name":"Verwaltungskreis Oberaargau"},"canton":{"key":"2","code":"BE","name":"Bern / Berne"},"status":"Real"},{"key":"10185815","name":"Schürliacker","postalCode":"3380","locality":"Walliswil b. Niederbipp","commune":{"key":"990","name":"Walliswil bei Niederbipp","shortName":"Walliswil bei Niederbipp"},"district":{"key":"244","name":"Verwaltungskreis Oberaargau"},"canton":{"key":"2","code":"BE","name":"Bern / Berne"},"status":"Real"},{"key":"10135542","name":"Schwalbenweg","postalCode":"4704","locality":"Niederbipp","commune":{"key":"981","name":"Niederbipp","shortName":"Niederbipp"},"district":{"key":"244","name":"Verwaltungskreis Oberaargau"},"canton":{"key":"2","code":"BE","name":"Bern / Berne"},"status":"Real"},{"key":"10065220","name":"Sennackerweg","postalCode":"4704","locality":"Niederbipp","commune":{"key":"981","name":"Niederbipp","shortName":"Niederbipp"},"district":{"key":"244","name":"Verwaltungskreis Oberaargau"},"canton":{"key":"2","code":"BE","name":"Bern / Berne"},"status":"Real"},{"key":"10139551","name":"Sonnenrainweg","postalCode":"4704","locality":"Niederbipp","commune":{"key":"981","name":"Niederbipp","shortName":"Niederbipp"},"district":{"key":"244","name":"Verwaltungskreis Oberaargau"},"canton":{"key":"2","code":"BE","name":"Bern / Berne"},"status":"Real"},{"key":"10014162","name":"Sonnmatt","postalCode":"4704","locality":"Niederbipp","commune":{"key":"981","name":"Niederbipp","shortName":"Niederbipp"},"district":{"key":"244","name":"Verwaltungskreis Oberaargau"},"canton":{"key":"2","code":"BE","name":"Bern / Berne"},"status":"Real"},{"key":"10120927","name":"Steingasse","postalCode":"4704","locality":"Niederbipp","commune":{"key":"981","name":"Niederbipp","shortName":"Niederbipp"},"district":{"key":"244","name":"Verwaltungskreis Oberaargau"},"canton":{"key":"2","code":"BE","name":"Bern / Berne"},"status":"Real"},{"key":"10082256","name":"Stirnliweg","postalCode":"4704","locality":"Niederbipp","commune":{"key":"981","name":"Niederbipp","shortName":"Niederbipp"},"district":{"key":"244","name":"Verwaltungskreis Oberaargau"},"canton":{"key":"2","code":"BE","name":"Bern / Berne"},"status":"Real"},{"key":"10014163","name":"Stockackerweg","postalCode":"4704","locality":"Niederbipp","commune":{"key":"981","name":"Niederbipp","shortName":"Niederbipp"},"district":{"key":"244","name":"Verwaltungskreis Oberaargau"},"canton":{"key":"2","code":"BE","name":"Bern / Berne"},"status":"Real"},{"key":"10189949","name":"Studweg","postalCode":"4704","locality":"Niederbipp","commune":{"key":"981","name":"Niederbipp","shortName":"Niederbipp"},"district":{"key":"244","name":"Verwaltungskreis Oberaargau"},"canton":{"key":"2","code":"BE","name":"Bern / Berne"},"status":"Real"},{"key":"10218893","name":"Sunnrain","postalCode":"4704","locality":"Niederbipp","commune":{"key":"981","name":"Niederbipp","shortName":"Niederbipp"},"district":{"key":"244","name":"Verwaltungskreis Oberaargau"},"canton":{"key":"2","code":"BE","name":"Bern / Berne"},"status":"Real"},{"key":"10057501","name":"Tannenhof","postalCode":"4704","locality":"Niederbipp","commune":{"key":"981","name":"Niederbipp","shortName":"Niederbipp"},"district":{"key":"244","name":"Verwaltungskreis Oberaargau"},"canton":{"key":"2","code":"BE","name":"Bern / Berne"},"status":"Real"},{"key":"10082257","name":"Taubenrainweg","postalCode":"4704","locality":"Niederbipp","commune":{"key":"981","name":"Niederbipp","shortName":"Niederbipp"},"district":{"key":"244","name":"Verwaltungskreis Oberaargau"},"canton":{"key":"2","code":"BE","name":"Bern / Berne"},"status":"Real"},{"key":"10014164","name":"Tulpenweg","postalCode":"4704","locality":"Niederbipp","commune":{"key":"981","name":"Niederbipp","shortName":"Niederbipp"},"district":{"key":"244","name":"Verwaltungskreis Oberaargau"},"canton":{"key":"2","code":"BE","name":"Bern / Berne"},"status":"Real"},{"key":"10014165","name":"Untere Dürrmühlestrasse","postalCode":"4704","locality":"Niederbipp","commune":{"key":"981","name":"Niederbipp","shortName":"Niederbipp"},"district":{"key":"244","name":"Verwaltungskreis Oberaargau"},"canton":{"key":"2","code":"BE","name":"Bern / Berne"},"status":"Real"},{"key":"10138592","name":"Unterer Sängelenweg","postalCode":"4704","locality":"Niederbipp","commune":{"key":"981","name":"Niederbipp","shortName":"Niederbipp"},"district":{"key":"244","name":"Verwaltungskreis Oberaargau"},"canton":{"key":"2","code":"BE","name":"Bern / Berne"},"status":"Real"},{"key":"10082258","name":"Unteres Zollwegli","postalCode":"4704","locality":"Niederbipp","commune":{"key":"981","name":"Niederbipp","shortName":"Niederbipp"},"district":{"key":"244","name":"Verwaltungskreis Oberaargau"},"canton":{"key":"2","code":"BE","name":"Bern / Berne"},"status":"Real"},{"key":"10218897","name":"Usserberg","postalCode":"4704","locality":"Niederbipp","commune":{"key":"981","name":"Niederbipp","shortName":"Niederbipp"},"district":{"key":"244","name":"Verwaltungskreis Oberaargau"},"canton":{"key":"2","code":"BE","name":"Bern / Berne"},"status":"Real"},{"key":"10065221","name":"Vorderer Rützelenweg","postalCode":"4704","locality":"Niederbipp","commune":{"key":"981","name":"Niederbipp","shortName":"Niederbipp"},"district":{"key":"244","name":"Verwaltungskreis Oberaargau"},"canton":{"key":"2","code":"BE","name":"Bern / Berne"},"status":"Real"},{"key":"10180164","name":"Walden","postalCode":"4704","locality":"Niederbipp","commune":{"key":"981","name":"Niederbipp","shortName":"Niederbipp"},"district":{"key":"244","name":"Verwaltungskreis Oberaargau"},"canton":{"key":"2","code":"BE","name":"Bern / Berne"},"status":"Real"},{"key":"10014166","name":"Waldenalp","postalCode":"4704","locality":"Niederbipp","commune":{"key":"981","name":"Niederbipp","shortName":"Niederbipp"},"district":{"key":"244","name":"Verwaltungskreis Oberaargau"},"canton":{"key":"2","code":"BE","name":"Bern / Berne"},"status":"Real"},{"key":"10218906","name":"Walksmatt","postalCode":"4704","locality":"Niederbipp","commune":{"key":"981","name":"Niederbipp","shortName":"Niederbipp"},"district":{"key":"244","name":"Verwaltungskreis Oberaargau"},"canton":{"key":"2","code":"BE","name":"Bern / Berne"},"status":"Real"},{"key":"10014167","name":"Walliswilweg","postalCode":"4704","locality":"Niederbipp","commune":{"key":"981","name":"Niederbipp","shortName":"Niederbipp"},"district":{"key":"244","name":"Verwaltungskreis Oberaargau"},"canton":{"key":"2","code":"BE","name":"Bern / Berne"},"status":"Real"},{"key":"10186167","name":"Wässerlibachstrasse","postalCode":"3380","locality":"Walliswil b. Niederbipp","commune":{"key":"990","name":"Walliswil bei Niederbipp","shortName":"Walliswil bei Niederbipp"},"district":{"key":"244","name":"Verwaltungskreis Oberaargau"},"canton":{"key":"2","code":"BE","name":"Bern / Berne"},"status":"Real"},{"key":"10218912","name":"Weidli","postalCode":"4704","locality":"Niederbipp","commune":{"key":"981","name":"Niederbipp","shortName":"Niederbipp"},"district":{"key":"244","name":"Verwaltungskreis Oberaargau"},"canton":{"key":"2","code":"BE","name":"Bern / Berne"},"status":"Real"},{"key":"10014168","name":"Weidrain","postalCode":"4704","locality":"Niederbipp","commune":{"key":"981","name":"Niederbipp","shortName":"Niederbipp"},"district":{"key":"244","name":"Verwaltungskreis Oberaargau"},"canton":{"key":"2","code":"BE","name":"Bern / Berne"},"status":"Real"},{"key":"10014169","name":"Weiherweg","postalCode":"4704","locality":"Niederbipp","commune":{"key":"981","name":"Niederbipp","shortName":"Niederbipp"},"district":{"key":"244","name":"Verwaltungskreis Oberaargau"},"canton":{"key":"2","code":"BE","name":"Bern / Berne"},"status":"Real"},{"key":"10118184","name":"Winkelhof","postalCode":"4704","locality":"Niederbipp","commune":{"key":"981","name":"Niederbipp","shortName":"Niederbipp"},"district":{"key":"244","name":"Verwaltungskreis Oberaargau"},"canton":{"key":"2","code":"BE","name":"Bern / Berne"},"status":"Real"},{"key":"10065222","name":"Winkelweg","postalCode":"4704","locality":"Niederbipp","commune":{"key":"981","name":"Niederbipp","shortName":"Niederbipp"},"district":{"key":"244","name":"Verwaltungskreis Oberaargau"},"canton":{"key":"2","code":"BE","name":"Bern / Berne"},"status":"Real"},{"key":"10082259","name":"Wolfisbergstrasse","postalCode":"4704","locality":"Niederbipp","commune":{"key":"981","name":"Niederbipp","shortName":"Niederbipp"},"district":{"key":"244","name":"Verwaltungskreis Oberaargau"},"canton":{"key":"2","code":"BE","name":"Bern / Berne"},"status":"Real"},{"key":"10014170","name":"Wydenstrasse","postalCode":"4704","locality":"Niederbipp","commune":{"key":"981","name":"Niederbipp","shortName":"Niederbipp"},"district":{"key":"244","name":"Verwaltungskreis Oberaargau"},"canton":{"key":"2","code":"BE","name":"Bern / Berne"},"status":"Real"},{"key":"10102750","name":"Zelgliweg","postalCode":"4704","locality":"Niederbipp","commune":{"key":"981","name":"Niederbipp","shortName":"Niederbipp"},"district":{"key":"244","name":"Verwaltungskreis Oberaargau"},"canton":{"key":"2","code":"BE","name":"Bern / Berne"},"status":"Real"},{"key":"10180165","name":"Ziegelhütte","postalCode":"4704","locality":"Niederbipp","commune":{"key":"981","name":"Niederbipp","shortName":"Niederbipp"},"district":{"key":"244","name":"Verwaltungskreis Oberaargau"},"canton":{"key":"2","code":"BE","name":"Bern / Berne"},"status":"Real"},{"key":"10014171","name":"Zollwegli","postalCode":"4704","locality":"Niederbipp","commune":{"key":"981","name":"Niederbipp","shortName":"Niederbipp"},"district":{"key":"244","name":"Verwaltungskreis Oberaargau"},"canton":{"key":"2","code":"BE","name":"Bern / Berne"},"status":"Real"},]