[{"name":"3C-Ring","postalCode":"86899","locality":"Landsberg am Lech","municipality":{"key":"09181130","name":"Landsberg am Lech, GKSt","type":"Große_Kreisstadt"},"district":{"key":"09181","name":"Landsberg am Lech","type":"Landkreis"},"federalState":{"key":"09","name":"Bayern"}},{"name":"Alpenstr.","postalCode":"86932","locality":"Pürgen","municipality":{"key":"09181141","name":"Pürgen","type":"Kreisangehörige_Gemeinde"},"district":{"key":"09181","name":"Landsberg am Lech","type":"Landkreis"},"federalState":{"key":"09","name":"Bayern"}},{"name":"Alpspitzstr.","postalCode":"86932","locality":"Pürgen","municipality":{"key":"09181141","name":"Pürgen","type":"Kreisangehörige_Gemeinde"},"district":{"key":"09181","name":"Landsberg am Lech","type":"Landkreis"},"federalState":{"key":"09","name":"Bayern"}},{"name":"Am Anger","postalCode":"86932","locality":"Pürgen","municipality":{"key":"09181141","name":"Pürgen","type":"Kreisangehörige_Gemeinde"},"district":{"key":"09181","name":"Landsberg am Lech","type":"Landkreis"},"federalState":{"key":"09","name":"Bayern"}},{"name":"Am Bergacker","postalCode":"86932","locality":"Pürgen","municipality":{"key":"09181141","name":"Pürgen","type":"Kreisangehörige_Gemeinde"},"district":{"key":"09181","name":"Landsberg am Lech","type":"Landkreis"},"federalState":{"key":"09","name":"Bayern"}},{"name":"Am Egelsee","postalCode":"86932","locality":"Pürgen","municipality":{"key":"09181141","name":"Pürgen","type":"Kreisangehörige_Gemeinde"},"district":{"key":"09181","name":"Landsberg am Lech","type":"Landkreis"},"federalState":{"key":"09","name":"Bayern"}},{"name":"Am Fuchsloch","postalCode":"86932","locality":"Pürgen","municipality":{"key":"09181141","name":"Pürgen","type":"Kreisangehörige_Gemeinde"},"district":{"key":"09181","name":"Landsberg am Lech","type":"Landkreis"},"federalState":{"key":"09","name":"Bayern"}},{"name":"Am Gewerbering","postalCode":"86932","locality":"Pürgen","municipality":{"key":"09181141","name":"Pürgen","type":"Kreisangehörige_Gemeinde"},"district":{"key":"09181","name":"Landsberg am Lech","type":"Landkreis"},"federalState":{"key":"09","name":"Bayern"}},{"name":"Am Herrenberg","postalCode":"86932","locality":"Pürgen","municipality":{"key":"09181141","name":"Pürgen","type":"Kreisangehörige_Gemeinde"},"district":{"key":"09181","name":"Landsberg am Lech","type":"Landkreis"},"federalState":{"key":"09","name":"Bayern"}},{"name":"Am Kapellenberg","postalCode":"86932","locality":"Pürgen","municipality":{"key":"09181141","name":"Pürgen","type":"Kreisangehörige_Gemeinde"},"district":{"key":"09181","name":"Landsberg am Lech","type":"Landkreis"},"federalState":{"key":"09","name":"Bayern"}},{"name":"Am Kirchanger","postalCode":"86932","locality":"Pürgen","municipality":{"key":"09181141","name":"Pürgen","type":"Kreisangehörige_Gemeinde"},"district":{"key":"09181","name":"Landsberg am Lech","type":"Landkreis"},"federalState":{"key":"09","name":"Bayern"}},{"name":"Am Kornfeld","postalCode":"86932","locality":"Pürgen","municipality":{"key":"09181141","name":"Pürgen","type":"Kreisangehörige_Gemeinde"},"district":{"key":"09181","name":"Landsberg am Lech","type":"Landkreis"},"federalState":{"key":"09","name":"Bayern"}},{"name":"Am Osteranger","postalCode":"86932","locality":"Pürgen","municipality":{"key":"09181141","name":"Pürgen","type":"Kreisangehörige_Gemeinde"},"district":{"key":"09181","name":"Landsberg am Lech","type":"Landkreis"},"federalState":{"key":"09","name":"Bayern"}},{"name":"Am Thalhoferweg","postalCode":"86932","locality":"Pürgen","municipality":{"key":"09181141","name":"Pürgen","type":"Kreisangehörige_Gemeinde"},"district":{"key":"09181","name":"Landsberg am Lech","type":"Landkreis"},"federalState":{"key":"09","name":"Bayern"}},{"name":"Am Wehrbach","postalCode":"86932","locality":"Pürgen","municipality":{"key":"09181141","name":"Pürgen","type":"Kreisangehörige_Gemeinde"},"district":{"key":"09181","name":"Landsberg am Lech","type":"Landkreis"},"federalState":{"key":"09","name":"Bayern"}},{"name":"Am Wiesengrund","postalCode":"86932","locality":"Pürgen","municipality":{"key":"09181141","name":"Pürgen","type":"Kreisangehörige_Gemeinde"},"district":{"key":"09181","name":"Landsberg am Lech","type":"Landkreis"},"federalState":{"key":"09","name":"Bayern"}},{"name":"Anton-Happach-Str.","postalCode":"86932","locality":"Pürgen","municipality":{"key":"09181141","name":"Pürgen","type":"Kreisangehörige_Gemeinde"},"district":{"key":"09181","name":"Landsberg am Lech","type":"Landkreis"},"federalState":{"key":"09","name":"Bayern"}},{"name":"Bergstr.","postalCode":"86932","locality":"Pürgen","municipality":{"key":"09181141","name":"Pürgen","type":"Kreisangehörige_Gemeinde"},"district":{"key":"09181","name":"Landsberg am Lech","type":"Landkreis"},"federalState":{"key":"09","name":"Bayern"}},{"name":"Birkenweg","postalCode":"86932","locality":"Pürgen","municipality":{"key":"09181141","name":"Pürgen","type":"Kreisangehörige_Gemeinde"},"district":{"key":"09181","name":"Landsberg am Lech","type":"Landkreis"},"federalState":{"key":"09","name":"Bayern"}},{"name":"Burgaustr.","postalCode":"86932","locality":"Pürgen","municipality":{"key":"09181141","name":"Pürgen","type":"Kreisangehörige_Gemeinde"},"district":{"key":"09181","name":"Landsberg am Lech","type":"Landkreis"},"federalState":{"key":"09","name":"Bayern"}},{"name":"Burgstr.","postalCode":"86932","locality":"Pürgen","municipality":{"key":"09181141","name":"Pürgen","type":"Kreisangehörige_Gemeinde"},"district":{"key":"09181","name":"Landsberg am Lech","type":"Landkreis"},"federalState":{"key":"09","name":"Bayern"}},{"name":"Carl-Friedrich-Benz-Str.","postalCode":"86899","locality":"Landsberg am Lech","municipality":{"key":"09181130","name":"Landsberg am Lech, GKSt","type":"Große_Kreisstadt"},"district":{"key":"09181","name":"Landsberg am Lech","type":"Landkreis"},"federalState":{"key":"09","name":"Bayern"}},{"name":"Christoph-Thomas-Scheffler-Str.","postalCode":"86899","locality":"Landsberg am Lech","municipality":{"key":"09181130","name":"Landsberg am Lech, GKSt","type":"Große_Kreisstadt"},"district":{"key":"09181","name":"Landsberg am Lech","type":"Landkreis"},"federalState":{"key":"09","name":"Bayern"}},{"name":"Dreibergweg","postalCode":"86932","locality":"Pürgen","municipality":{"key":"09181141","name":"Pürgen","type":"Kreisangehörige_Gemeinde"},"district":{"key":"09181","name":"Landsberg am Lech","type":"Landkreis"},"federalState":{"key":"09","name":"Bayern"}},{"name":"Egelsee","postalCode":"86932","locality":"Pürgen","municipality":{"key":"09181141","name":"Pürgen","type":"Kreisangehörige_Gemeinde"},"district":{"key":"09181","name":"Landsberg am Lech","type":"Landkreis"},"federalState":{"key":"09","name":"Bayern"}},{"name":"Eichenweg","postalCode":"86932","locality":"Pürgen","municipality":{"key":"09181141","name":"Pürgen","type":"Kreisangehörige_Gemeinde"},"district":{"key":"09181","name":"Landsberg am Lech","type":"Landkreis"},"federalState":{"key":"09","name":"Bayern"}},{"name":"Finninger Weg","postalCode":"86932","locality":"Pürgen","municipality":{"key":"09181141","name":"Pürgen","type":"Kreisangehörige_Gemeinde"},"district":{"key":"09181","name":"Landsberg am Lech","type":"Landkreis"},"federalState":{"key":"09","name":"Bayern"}},{"name":"Friedhof","postalCode":"86932","locality":"Pürgen","municipality":{"key":"09181141","name":"Pürgen","type":"Kreisangehörige_Gemeinde"},"district":{"key":"09181","name":"Landsberg am Lech","type":"Landkreis"},"federalState":{"key":"09","name":"Bayern"}},{"name":"Fritz-Schlampp-Str.","postalCode":"86932","locality":"Pürgen","municipality":{"key":"09181141","name":"Pürgen","type":"Kreisangehörige_Gemeinde"},"district":{"key":"09181","name":"Landsberg am Lech","type":"Landkreis"},"federalState":{"key":"09","name":"Bayern"}},{"name":"Gemeinsamer Geh- und Radweg","postalCode":"86932","locality":"Pürgen","municipality":{"key":"09181141","name":"Pürgen","type":"Kreisangehörige_Gemeinde"},"district":{"key":"09181","name":"Landsberg am Lech","type":"Landkreis"},"federalState":{"key":"09","name":"Bayern"}},{"name":"Höhenkircherstr.","postalCode":"86932","locality":"Pürgen","municipality":{"key":"09181141","name":"Pürgen","type":"Kreisangehörige_Gemeinde"},"district":{"key":"09181","name":"Landsberg am Lech","type":"Landkreis"},"federalState":{"key":"09","name":"Bayern"}},{"name":"Im Ried","postalCode":"86932","locality":"Pürgen","municipality":{"key":"09181141","name":"Pürgen","type":"Kreisangehörige_Gemeinde"},"district":{"key":"09181","name":"Landsberg am Lech","type":"Landkreis"},"federalState":{"key":"09","name":"Bayern"}},{"name":"Jägerstr.","postalCode":"86932","locality":"Pürgen","municipality":{"key":"09181141","name":"Pürgen","type":"Kreisangehörige_Gemeinde"},"district":{"key":"09181","name":"Landsberg am Lech","type":"Landkreis"},"federalState":{"key":"09","name":"Bayern"}},{"name":"Josef-Holzheu-Str.","postalCode":"86932","locality":"Pürgen","municipality":{"key":"09181141","name":"Pürgen","type":"Kreisangehörige_Gemeinde"},"district":{"key":"09181","name":"Landsberg am Lech","type":"Landkreis"},"federalState":{"key":"09","name":"Bayern"}},{"name":"Kalkofenstr.","postalCode":"86932","locality":"Pürgen","municipality":{"key":"09181141","name":"Pürgen","type":"Kreisangehörige_Gemeinde"},"district":{"key":"09181","name":"Landsberg am Lech","type":"Landkreis"},"federalState":{"key":"09","name":"Bayern"}},{"name":"Kampfgasse","postalCode":"86932","locality":"Pürgen","municipality":{"key":"09181141","name":"Pürgen","type":"Kreisangehörige_Gemeinde"},"district":{"key":"09181","name":"Landsberg am Lech","type":"Landkreis"},"federalState":{"key":"09","name":"Bayern"}},{"name":"Kapellenstr.","postalCode":"86932","locality":"Pürgen","municipality":{"key":"09181141","name":"Pürgen","type":"Kreisangehörige_Gemeinde"},"district":{"key":"09181","name":"Landsberg am Lech","type":"Landkreis"},"federalState":{"key":"09","name":"Bayern"}},{"name":"Karwendelstr.","postalCode":"86932","locality":"Pürgen","municipality":{"key":"09181141","name":"Pürgen","type":"Kreisangehörige_Gemeinde"},"district":{"key":"09181","name":"Landsberg am Lech","type":"Landkreis"},"federalState":{"key":"09","name":"Bayern"}},{"name":"Kirchenstr.","postalCode":"86932","locality":"Pürgen","municipality":{"key":"09181141","name":"Pürgen","type":"Kreisangehörige_Gemeinde"},"district":{"key":"09181","name":"Landsberg am Lech","type":"Landkreis"},"federalState":{"key":"09","name":"Bayern"}},{"name":"Kohlstattstr.","postalCode":"86932","locality":"Pürgen","municipality":{"key":"09181141","name":"Pürgen","type":"Kreisangehörige_Gemeinde"},"district":{"key":"09181","name":"Landsberg am Lech","type":"Landkreis"},"federalState":{"key":"09","name":"Bayern"}},{"name":"Krippackerweg","postalCode":"86932","locality":"Pürgen","municipality":{"key":"09181141","name":"Pürgen","type":"Kreisangehörige_Gemeinde"},"district":{"key":"09181","name":"Landsberg am Lech","type":"Landkreis"},"federalState":{"key":"09","name":"Bayern"}},{"name":"Landsberger Str.","postalCode":"86932","locality":"Pürgen","municipality":{"key":"09181141","name":"Pürgen","type":"Kreisangehörige_Gemeinde"},"district":{"key":"09181","name":"Landsberg am Lech","type":"Landkreis"},"federalState":{"key":"09","name":"Bayern"}},{"name":"Lehmgrubenstr.","postalCode":"86932","locality":"Pürgen","municipality":{"key":"09181141","name":"Pürgen","type":"Kreisangehörige_Gemeinde"},"district":{"key":"09181","name":"Landsberg am Lech","type":"Landkreis"},"federalState":{"key":"09","name":"Bayern"}},{"name":"Lindenweg","postalCode":"86932","locality":"Pürgen","municipality":{"key":"09181141","name":"Pürgen","type":"Kreisangehörige_Gemeinde"},"district":{"key":"09181","name":"Landsberg am Lech","type":"Landkreis"},"federalState":{"key":"09","name":"Bayern"}},{"name":"Malteser-Passage","postalCode":"86899","locality":"Landsberg am Lech","municipality":{"key":"09181130","name":"Landsberg am Lech, GKSt","type":"Große_Kreisstadt"},"district":{"key":"09181","name":"Landsberg am Lech","type":"Landkreis"},"federalState":{"key":"09","name":"Bayern"}},{"name":"Malteserstr.","postalCode":"86899","locality":"Landsberg am Lech","municipality":{"key":"09181130","name":"Landsberg am Lech, GKSt","type":"Große_Kreisstadt"},"district":{"key":"09181","name":"Landsberg am Lech","type":"Landkreis"},"federalState":{"key":"09","name":"Bayern"}},{"name":"Margaritenweg","postalCode":"86899","locality":"Landsberg am Lech","municipality":{"key":"09181130","name":"Landsberg am Lech, GKSt","type":"Große_Kreisstadt"},"district":{"key":"09181","name":"Landsberg am Lech","type":"Landkreis"},"federalState":{"key":"09","name":"Bayern"}},{"name":"Marie-Curie-Str.","postalCode":"86899","locality":"Landsberg am Lech","municipality":{"key":"09181130","name":"Landsberg am Lech, GKSt","type":"Große_Kreisstadt"},"district":{"key":"09181","name":"Landsberg am Lech","type":"Landkreis"},"federalState":{"key":"09","name":"Bayern"}},{"name":"Martin-Kolmsperger-Str.","postalCode":"86899","locality":"Landsberg am Lech","municipality":{"key":"09181130","name":"Landsberg am Lech, GKSt","type":"Große_Kreisstadt"},"district":{"key":"09181","name":"Landsberg am Lech","type":"Landkreis"},"federalState":{"key":"09","name":"Bayern"}},{"name":"Max-Friesenegger-Str.","postalCode":"86899","locality":"Landsberg am Lech","municipality":{"key":"09181130","name":"Landsberg am Lech, GKSt","type":"Große_Kreisstadt"},"district":{"key":"09181","name":"Landsberg am Lech","type":"Landkreis"},"federalState":{"key":"09","name":"Bayern"}},{"name":"Mehlbeerenstr.","postalCode":"86899","locality":"Landsberg am Lech","municipality":{"key":"09181130","name":"Landsberg am Lech, GKSt","type":"Große_Kreisstadt"},"district":{"key":"09181","name":"Landsberg am Lech","type":"Landkreis"},"federalState":{"key":"09","name":"Bayern"}},{"name":"Michael-Nocker-Str.","postalCode":"86899","locality":"Landsberg am Lech","municipality":{"key":"09181130","name":"Landsberg am Lech, GKSt","type":"Große_Kreisstadt"},"district":{"key":"09181","name":"Landsberg am Lech","type":"Landkreis"},"federalState":{"key":"09","name":"Bayern"}},{"name":"Milanstr.","postalCode":"86899","locality":"Landsberg am Lech","municipality":{"key":"09181130","name":"Landsberg am Lech, GKSt","type":"Große_Kreisstadt"},"district":{"key":"09181","name":"Landsberg am Lech","type":"Landkreis"},"federalState":{"key":"09","name":"Bayern"}},{"name":"Mittelfeldstr.","postalCode":"86899","locality":"Landsberg am Lech","municipality":{"key":"09181130","name":"Landsberg am Lech, GKSt","type":"Große_Kreisstadt"},"district":{"key":"09181","name":"Landsberg am Lech","type":"Landkreis"},"federalState":{"key":"09","name":"Bayern"}},{"name":"Mittelstetter Str.","postalCode":"86899","locality":"Landsberg am Lech","municipality":{"key":"09181130","name":"Landsberg am Lech, GKSt","type":"Große_Kreisstadt"},"district":{"key":"09181","name":"Landsberg am Lech","type":"Landkreis"},"federalState":{"key":"09","name":"Bayern"}},{"name":"Mohnblumenring","postalCode":"86899","locality":"Landsberg am Lech","municipality":{"key":"09181130","name":"Landsberg am Lech, GKSt","type":"Große_Kreisstadt"},"district":{"key":"09181","name":"Landsberg am Lech","type":"Landkreis"},"federalState":{"key":"09","name":"Bayern"}},{"name":"Moosstr.","postalCode":"86899","locality":"Landsberg am Lech","municipality":{"key":"09181130","name":"Landsberg am Lech, GKSt","type":"Große_Kreisstadt"},"district":{"key":"09181","name":"Landsberg am Lech","type":"Landkreis"},"federalState":{"key":"09","name":"Bayern"}},{"name":"Mühlweg","postalCode":"86899","locality":"Landsberg am Lech","municipality":{"key":"09181130","name":"Landsberg am Lech, GKSt","type":"Große_Kreisstadt"},"district":{"key":"09181","name":"Landsberg am Lech","type":"Landkreis"},"federalState":{"key":"09","name":"Bayern"}},{"name":"Münchener Str.","postalCode":"86899","locality":"Landsberg am Lech","municipality":{"key":"09181130","name":"Landsberg am Lech, GKSt","type":"Große_Kreisstadt"},"district":{"key":"09181","name":"Landsberg am Lech","type":"Landkreis"},"federalState":{"key":"09","name":"Bayern"}},{"name":"Museumstr.","postalCode":"86899","locality":"Landsberg am Lech","municipality":{"key":"09181130","name":"Landsberg am Lech, GKSt","type":"Große_Kreisstadt"},"district":{"key":"09181","name":"Landsberg am Lech","type":"Landkreis"},"federalState":{"key":"09","name":"Bayern"}},{"name":"Narzigäßchen","postalCode":"86899","locality":"Landsberg am Lech","municipality":{"key":"09181130","name":"Landsberg am Lech, GKSt","type":"Große_Kreisstadt"},"district":{"key":"09181","name":"Landsberg am Lech","type":"Landkreis"},"federalState":{"key":"09","name":"Bayern"}},{"name":"Neue Bergstr.","postalCode":"86899","locality":"Landsberg am Lech","municipality":{"key":"09181130","name":"Landsberg am Lech, GKSt","type":"Große_Kreisstadt"},"district":{"key":"09181","name":"Landsberg am Lech","type":"Landkreis"},"federalState":{"key":"09","name":"Bayern"}},{"name":"Neuteilweg","postalCode":"86899","locality":"Landsberg am Lech","municipality":{"key":"09181130","name":"Landsberg am Lech, GKSt","type":"Große_Kreisstadt"},"district":{"key":"09181","name":"Landsberg am Lech","type":"Landkreis"},"federalState":{"key":"09","name":"Bayern"}},{"name":"Nikolaus-Mangold-Str.","postalCode":"86899","locality":"Landsberg am Lech","municipality":{"key":"09181130","name":"Landsberg am Lech, GKSt","type":"Große_Kreisstadt"},"district":{"key":"09181","name":"Landsberg am Lech","type":"Landkreis"},"federalState":{"key":"09","name":"Bayern"}},{"name":"Nikolsburger Str.","postalCode":"86899","locality":"Landsberg am Lech","municipality":{"key":"09181130","name":"Landsberg am Lech, GKSt","type":"Große_Kreisstadt"},"district":{"key":"09181","name":"Landsberg am Lech","type":"Landkreis"},"federalState":{"key":"09","name":"Bayern"}},{"name":"Nordfeldstr.","postalCode":"86899","locality":"Landsberg am Lech","municipality":{"key":"09181130","name":"Landsberg am Lech, GKSt","type":"Große_Kreisstadt"},"district":{"key":"09181","name":"Landsberg am Lech","type":"Landkreis"},"federalState":{"key":"09","name":"Bayern"}},{"name":"Nordring","postalCode":"86899","locality":"Landsberg am Lech","municipality":{"key":"09181130","name":"Landsberg am Lech, GKSt","type":"Große_Kreisstadt"},"district":{"key":"09181","name":"Landsberg am Lech","type":"Landkreis"},"federalState":{"key":"09","name":"Bayern"}},{"name":"Nordstr.","postalCode":"86899","locality":"Landsberg am Lech","municipality":{"key":"09181130","name":"Landsberg am Lech, GKSt","type":"Große_Kreisstadt"},"district":{"key":"09181","name":"Landsberg am Lech","type":"Landkreis"},"federalState":{"key":"09","name":"Bayern"}},{"name":"Odilostr.","postalCode":"86932","locality":"Pürgen","municipality":{"key":"09181141","name":"Pürgen","type":"Kreisangehörige_Gemeinde"},"district":{"key":"09181","name":"Landsberg am Lech","type":"Landkreis"},"federalState":{"key":"09","name":"Bayern"}},{"name":"Osterfeld","postalCode":"86932","locality":"Pürgen","municipality":{"key":"09181141","name":"Pürgen","type":"Kreisangehörige_Gemeinde"},"district":{"key":"09181","name":"Landsberg am Lech","type":"Landkreis"},"federalState":{"key":"09","name":"Bayern"}},{"name":"Pipinstr.","postalCode":"86932","locality":"Pürgen","municipality":{"key":"09181141","name":"Pürgen","type":"Kreisangehörige_Gemeinde"},"district":{"key":"09181","name":"Landsberg am Lech","type":"Landkreis"},"federalState":{"key":"09","name":"Bayern"}},{"name":"Pitzlinger Str.","postalCode":"86932","locality":"Pürgen","municipality":{"key":"09181141","name":"Pürgen","type":"Kreisangehörige_Gemeinde"},"district":{"key":"09181","name":"Landsberg am Lech","type":"Landkreis"},"federalState":{"key":"09","name":"Bayern"}},{"name":"Pitzlinger Weg","postalCode":"86932","locality":"Pürgen","municipality":{"key":"09181141","name":"Pürgen","type":"Kreisangehörige_Gemeinde"},"district":{"key":"09181","name":"Landsberg am Lech","type":"Landkreis"},"federalState":{"key":"09","name":"Bayern"}},{"name":"Pürgener Str.","postalCode":"86932","locality":"Pürgen","municipality":{"key":"09181141","name":"Pürgen","type":"Kreisangehörige_Gemeinde"},"district":{"key":"09181","name":"Landsberg am Lech","type":"Landkreis"},"federalState":{"key":"09","name":"Bayern"}},{"name":"Reimweg","postalCode":"86932","locality":"Pürgen","municipality":{"key":"09181141","name":"Pürgen","type":"Kreisangehörige_Gemeinde"},"district":{"key":"09181","name":"Landsberg am Lech","type":"Landkreis"},"federalState":{"key":"09","name":"Bayern"}},{"name":"Rosenstr.","postalCode":"86932","locality":"Pürgen","municipality":{"key":"09181141","name":"Pürgen","type":"Kreisangehörige_Gemeinde"},"district":{"key":"09181","name":"Landsberg am Lech","type":"Landkreis"},"federalState":{"key":"09","name":"Bayern"}},{"name":"Sankt-Florian-Weg","postalCode":"86932","locality":"Pürgen","municipality":{"key":"09181141","name":"Pürgen","type":"Kreisangehörige_Gemeinde"},"district":{"key":"09181","name":"Landsberg am Lech","type":"Landkreis"},"federalState":{"key":"09","name":"Bayern"}},{"name":"Sankt-Georg-Str.","postalCode":"86932","locality":"Pürgen","municipality":{"key":"09181141","name":"Pürgen","type":"Kreisangehörige_Gemeinde"},"district":{"key":"09181","name":"Landsberg am Lech","type":"Landkreis"},"federalState":{"key":"09","name":"Bayern"}},{"name":"Sankt-Ulrich-Gasse","postalCode":"86932","locality":"Pürgen","municipality":{"key":"09181141","name":"Pürgen","type":"Kreisangehörige_Gemeinde"},"district":{"key":"09181","name":"Landsberg am Lech","type":"Landkreis"},"federalState":{"key":"09","name":"Bayern"}},{"name":"Schäfflerweg","postalCode":"86932","locality":"Pürgen","municipality":{"key":"09181141","name":"Pürgen","type":"Kreisangehörige_Gemeinde"},"district":{"key":"09181","name":"Landsberg am Lech","type":"Landkreis"},"federalState":{"key":"09","name":"Bayern"}},{"name":"Schleifweg","postalCode":"86932","locality":"Pürgen","municipality":{"key":"09181141","name":"Pürgen","type":"Kreisangehörige_Gemeinde"},"district":{"key":"09181","name":"Landsberg am Lech","type":"Landkreis"},"federalState":{"key":"09","name":"Bayern"}},{"name":"Schulstr.","postalCode":"86932","locality":"Pürgen","municipality":{"key":"09181141","name":"Pürgen","type":"Kreisangehörige_Gemeinde"},"district":{"key":"09181","name":"Landsberg am Lech","type":"Landkreis"},"federalState":{"key":"09","name":"Bayern"}},{"name":"Schützenstr.","postalCode":"86932","locality":"Pürgen","municipality":{"key":"09181141","name":"Pürgen","type":"Kreisangehörige_Gemeinde"},"district":{"key":"09181","name":"Landsberg am Lech","type":"Landkreis"},"federalState":{"key":"09","name":"Bayern"}},{"name":"Sebastianstr.","postalCode":"86932","locality":"Pürgen","municipality":{"key":"09181141","name":"Pürgen","type":"Kreisangehörige_Gemeinde"},"district":{"key":"09181","name":"Landsberg am Lech","type":"Landkreis"},"federalState":{"key":"09","name":"Bayern"}},{"name":"Seiferstetter Str.","postalCode":"86932","locality":"Pürgen","municipality":{"key":"09181141","name":"Pürgen","type":"Kreisangehörige_Gemeinde"},"district":{"key":"09181","name":"Landsberg am Lech","type":"Landkreis"},"federalState":{"key":"09","name":"Bayern"}},{"name":"Sonnenstr.","postalCode":"86932","locality":"Pürgen","municipality":{"key":"09181141","name":"Pürgen","type":"Kreisangehörige_Gemeinde"},"district":{"key":"09181","name":"Landsberg am Lech","type":"Landkreis"},"federalState":{"key":"09","name":"Bayern"}},{"name":"Sportplatzstr.","postalCode":"86932","locality":"Pürgen","municipality":{"key":"09181141","name":"Pürgen","type":"Kreisangehörige_Gemeinde"},"district":{"key":"09181","name":"Landsberg am Lech","type":"Landkreis"},"federalState":{"key":"09","name":"Bayern"}},{"name":"Stadler Str.","postalCode":"86932","locality":"Pürgen","municipality":{"key":"09181141","name":"Pürgen","type":"Kreisangehörige_Gemeinde"},"district":{"key":"09181","name":"Landsberg am Lech","type":"Landkreis"},"federalState":{"key":"09","name":"Bayern"}},{"name":"Stoffener Str.","postalCode":"86932","locality":"Pürgen","municipality":{"key":"09181141","name":"Pürgen","type":"Kreisangehörige_Gemeinde"},"district":{"key":"09181","name":"Landsberg am Lech","type":"Landkreis"},"federalState":{"key":"09","name":"Bayern"}},{"name":"St.-Wendelin-Str.","postalCode":"86932","locality":"Pürgen","municipality":{"key":"09181141","name":"Pürgen","type":"Kreisangehörige_Gemeinde"},"district":{"key":"09181","name":"Landsberg am Lech","type":"Landkreis"},"federalState":{"key":"09","name":"Bayern"}},{"name":"Thalhofener Weg","postalCode":"86932","locality":"Pürgen","municipality":{"key":"09181141","name":"Pürgen","type":"Kreisangehörige_Gemeinde"},"district":{"key":"09181","name":"Landsberg am Lech","type":"Landkreis"},"federalState":{"key":"09","name":"Bayern"}},{"name":"Tulpenstr.","postalCode":"86932","locality":"Pürgen","municipality":{"key":"09181141","name":"Pürgen","type":"Kreisangehörige_Gemeinde"},"district":{"key":"09181","name":"Landsberg am Lech","type":"Landkreis"},"federalState":{"key":"09","name":"Bayern"}},{"name":"Ummendorfer Str.","postalCode":"86932","locality":"Pürgen","municipality":{"key":"09181141","name":"Pürgen","type":"Kreisangehörige_Gemeinde"},"district":{"key":"09181","name":"Landsberg am Lech","type":"Landkreis"},"federalState":{"key":"09","name":"Bayern"}},{"name":"Unteres Feld","postalCode":"86932","locality":"Pürgen","municipality":{"key":"09181141","name":"Pürgen","type":"Kreisangehörige_Gemeinde"},"district":{"key":"09181","name":"Landsberg am Lech","type":"Landkreis"},"federalState":{"key":"09","name":"Bayern"}},{"name":"Von-Pfetten-Str.","postalCode":"86932","locality":"Pürgen","municipality":{"key":"09181141","name":"Pürgen","type":"Kreisangehörige_Gemeinde"},"district":{"key":"09181","name":"Landsberg am Lech","type":"Landkreis"},"federalState":{"key":"09","name":"Bayern"}},{"name":"Waldstr.","postalCode":"86932","locality":"Pürgen","municipality":{"key":"09181141","name":"Pürgen","type":"Kreisangehörige_Gemeinde"},"district":{"key":"09181","name":"Landsberg am Lech","type":"Landkreis"},"federalState":{"key":"09","name":"Bayern"}},{"name":"Weglerstr.","postalCode":"86932","locality":"Pürgen","municipality":{"key":"09181141","name":"Pürgen","type":"Kreisangehörige_Gemeinde"},"district":{"key":"09181","name":"Landsberg am Lech","type":"Landkreis"},"federalState":{"key":"09","name":"Bayern"}},{"name":"Weilheimer Str.","postalCode":"86932","locality":"Pürgen","municipality":{"key":"09181141","name":"Pürgen","type":"Kreisangehörige_Gemeinde"},"district":{"key":"09181","name":"Landsberg am Lech","type":"Landkreis"},"federalState":{"key":"09","name":"Bayern"}},{"name":"Wettersteinstr.","postalCode":"86932","locality":"Pürgen","municipality":{"key":"09181141","name":"Pürgen","type":"Kreisangehörige_Gemeinde"},"district":{"key":"09181","name":"Landsberg am Lech","type":"Landkreis"},"federalState":{"key":"09","name":"Bayern"}},{"name":"Zieglerweg","postalCode":"86932","locality":"Pürgen","municipality":{"key":"09181141","name":"Pürgen","type":"Kreisangehörige_Gemeinde"},"district":{"key":"09181","name":"Landsberg am Lech","type":"Landkreis"},"federalState":{"key":"09","name":"Bayern"}},{"name":"Zugspitzstr.","postalCode":"86932","locality":"Pürgen","municipality":{"key":"09181141","name":"Pürgen","type":"Kreisangehörige_Gemeinde"},"district":{"key":"09181","name":"Landsberg am Lech","type":"Landkreis"},"federalState":{"key":"09","name":"Bayern"}},]