[{"key":"01060002","name":"Alveslohe","type":"Kreisangehörige_Gemeinde","postalCode":"25486","multiplePostalCodes":false,"association":{"key":"01060","name":"Auenland Südholstein","type":"Amt"},"district":{"key":"01060","name":"Segeberg","type":"Kreis"},"federalState":{"key":"01","name":"Schleswig-Holstein"}},{"key":"01060003","name":"Armstedt","type":"Kreisangehörige_Gemeinde","postalCode":"24616","multiplePostalCodes":false,"association":{"key":"01060","name":"Bad Bramstedt-Land","type":"Amt"},"district":{"key":"01060","name":"Segeberg","type":"Kreis"},"federalState":{"key":"01","name":"Schleswig-Holstein"}},{"key":"01060004","name":"Bad Bramstedt, Stadt","type":"Stadt","postalCode":"24576","multiplePostalCodes":false,"association":{"key":"01060","name":"Bad Bramstedt, Stadt","type":"Verbandsfreie_Gemeinde"},"district":{"key":"01060","name":"Segeberg","type":"Kreis"},"federalState":{"key":"01","name":"Schleswig-Holstein"}},{"key":"01060005","name":"Bad Segeberg, Stadt","type":"Stadt","postalCode":"23795","multiplePostalCodes":false,"association":{"key":"01060","name":"Bad Segeberg, Stadt","type":"Verbandsfreie_Gemeinde"},"district":{"key":"01060","name":"Segeberg","type":"Kreis"},"federalState":{"key":"01","name":"Schleswig-Holstein"}},{"key":"01060006","name":"Bahrenhof","type":"Kreisangehörige_Gemeinde","postalCode":"23845","multiplePostalCodes":false,"association":{"key":"01060","name":"Trave-Land","type":"Amt"},"district":{"key":"01060","name":"Segeberg","type":"Kreis"},"federalState":{"key":"01","name":"Schleswig-Holstein"}},{"key":"01060007","name":"Bark","type":"Kreisangehörige_Gemeinde","postalCode":"23826","multiplePostalCodes":false,"association":{"key":"01060","name":"Leezen","type":"Amt"},"district":{"key":"01060","name":"Segeberg","type":"Kreis"},"federalState":{"key":"01","name":"Schleswig-Holstein"}},{"key":"01060008","name":"Bebensee","type":"Kreisangehörige_Gemeinde","postalCode":"23816","multiplePostalCodes":false,"association":{"key":"01060","name":"Leezen","type":"Amt"},"district":{"key":"01060","name":"Segeberg","type":"Kreis"},"federalState":{"key":"01","name":"Schleswig-Holstein"}},{"key":"01060009","name":"Bimöhlen","type":"Kreisangehörige_Gemeinde","postalCode":"24576","multiplePostalCodes":false,"association":{"key":"01060","name":"Bad Bramstedt-Land","type":"Amt"},"district":{"key":"01060","name":"Segeberg","type":"Kreis"},"federalState":{"key":"01","name":"Schleswig-Holstein"}},{"key":"01060010","name":"Blunk","type":"Kreisangehörige_Gemeinde","postalCode":"23813","multiplePostalCodes":false,"association":{"key":"01060","name":"Trave-Land","type":"Amt"},"district":{"key":"01060","name":"Segeberg","type":"Kreis"},"federalState":{"key":"01","name":"Schleswig-Holstein"}},{"key":"01060011","name":"Boostedt","type":"Kreisangehörige_Gemeinde","postalCode":"24598","multiplePostalCodes":false,"association":{"key":"01060","name":"Boostedt-Rickling","type":"Amt"},"district":{"key":"01060","name":"Segeberg","type":"Kreis"},"federalState":{"key":"01","name":"Schleswig-Holstein"}},{"key":"01060012","name":"Bornhöved","type":"Kreisangehörige_Gemeinde","postalCode":"24619","multiplePostalCodes":false,"association":{"key":"01060","name":"Bornhöved","type":"Amt"},"district":{"key":"01060","name":"Segeberg","type":"Kreis"},"federalState":{"key":"01","name":"Schleswig-Holstein"}},{"key":"01060013","name":"Borstel","type":"Kreisangehörige_Gemeinde","postalCode":"24616","multiplePostalCodes":false,"association":{"key":"01060","name":"Bad Bramstedt-Land","type":"Amt"},"district":{"key":"01060","name":"Segeberg","type":"Kreis"},"federalState":{"key":"01","name":"Schleswig-Holstein"}},{"key":"01060014","name":"Buchholz (Forstgutsbez.),gemfr. Gebiet","type":"Gemeindefreies_Gebiet_Unbewohnt","postalCode":"23816","multiplePostalCodes":false,"association":{"key":"01060","name":"Buchholz (Forstgutsbez.),gemfr. Gebiet","type":"Verbandsfreie_Gemeinde"},"district":{"key":"01060","name":"Segeberg","type":"Kreis"},"federalState":{"key":"01","name":"Schleswig-Holstein"}},{"key":"01060015","name":"Bühnsdorf","type":"Kreisangehörige_Gemeinde","postalCode":"23845","multiplePostalCodes":false,"association":{"key":"01060","name":"Trave-Land","type":"Amt"},"district":{"key":"01060","name":"Segeberg","type":"Kreis"},"federalState":{"key":"01","name":"Schleswig-Holstein"}},{"key":"01060016","name":"Daldorf","type":"Kreisangehörige_Gemeinde","postalCode":"24635","multiplePostalCodes":false,"association":{"key":"01060","name":"Boostedt-Rickling","type":"Amt"},"district":{"key":"01060","name":"Segeberg","type":"Kreis"},"federalState":{"key":"01","name":"Schleswig-Holstein"}},{"key":"01060017","name":"Damsdorf","type":"Kreisangehörige_Gemeinde","postalCode":"23824","multiplePostalCodes":false,"association":{"key":"01060","name":"Bornhöved","type":"Amt"},"district":{"key":"01060","name":"Segeberg","type":"Kreis"},"federalState":{"key":"01","name":"Schleswig-Holstein"}},{"key":"01060018","name":"Dreggers","type":"Kreisangehörige_Gemeinde","postalCode":"23845","multiplePostalCodes":false,"association":{"key":"01060","name":"Trave-Land","type":"Amt"},"district":{"key":"01060","name":"Segeberg","type":"Kreis"},"federalState":{"key":"01","name":"Schleswig-Holstein"}},{"key":"01060019","name":"Ellerau","type":"Kreisangehörige_Gemeinde","postalCode":"25479","multiplePostalCodes":false,"association":{"key":"01060","name":"Ellerau","type":"Verbandsfreie_Gemeinde"},"district":{"key":"01060","name":"Segeberg","type":"Kreis"},"federalState":{"key":"01","name":"Schleswig-Holstein"}},{"key":"01060020","name":"Fahrenkrug","type":"Kreisangehörige_Gemeinde","postalCode":"23795","multiplePostalCodes":false,"association":{"key":"01060","name":"Trave-Land","type":"Amt"},"district":{"key":"01060","name":"Segeberg","type":"Kreis"},"federalState":{"key":"01","name":"Schleswig-Holstein"}},{"key":"01060021","name":"Föhrden-Barl","type":"Kreisangehörige_Gemeinde","postalCode":"25563","multiplePostalCodes":false,"association":{"key":"01060","name":"Bad Bramstedt-Land","type":"Amt"},"district":{"key":"01060","name":"Segeberg","type":"Kreis"},"federalState":{"key":"01","name":"Schleswig-Holstein"}},{"key":"01060022","name":"Fredesdorf","type":"Kreisangehörige_Gemeinde","postalCode":"23826","multiplePostalCodes":false,"association":{"key":"01060","name":"Leezen","type":"Amt"},"district":{"key":"01060","name":"Segeberg","type":"Kreis"},"federalState":{"key":"01","name":"Schleswig-Holstein"}},{"key":"01060023","name":"Fuhlendorf","type":"Kreisangehörige_Gemeinde","postalCode":"24649","multiplePostalCodes":false,"association":{"key":"01060","name":"Bad Bramstedt-Land","type":"Amt"},"district":{"key":"01060","name":"Segeberg","type":"Kreis"},"federalState":{"key":"01","name":"Schleswig-Holstein"}},{"key":"01060024","name":"Geschendorf","type":"Kreisangehörige_Gemeinde","postalCode":"23815","multiplePostalCodes":false,"association":{"key":"01060","name":"Trave-Land","type":"Amt"},"district":{"key":"01060","name":"Segeberg","type":"Kreis"},"federalState":{"key":"01","name":"Schleswig-Holstein"}},{"key":"01060025","name":"Glasau","type":"Kreisangehörige_Gemeinde","postalCode":"23719","multiplePostalCodes":true,"association":{"key":"01060","name":"Trave-Land","type":"Amt"},"district":{"key":"01060","name":"Segeberg","type":"Kreis"},"federalState":{"key":"01","name":"Schleswig-Holstein"}},{"key":"01060026","name":"Gönnebek","type":"Kreisangehörige_Gemeinde","postalCode":"24610","multiplePostalCodes":false,"association":{"key":"01060","name":"Bornhöved","type":"Amt"},"district":{"key":"01060","name":"Segeberg","type":"Kreis"},"federalState":{"key":"01","name":"Schleswig-Holstein"}},{"key":"01060027","name":"Großenaspe","type":"Kreisangehörige_Gemeinde","postalCode":"24623","multiplePostalCodes":false,"association":{"key":"01060","name":"Bad Bramstedt-Land","type":"Amt"},"district":{"key":"01060","name":"Segeberg","type":"Kreis"},"federalState":{"key":"01","name":"Schleswig-Holstein"}},{"key":"01060028","name":"Groß Kummerfeld","type":"Kreisangehörige_Gemeinde","postalCode":"24626","multiplePostalCodes":false,"association":{"key":"01060","name":"Boostedt-Rickling","type":"Amt"},"district":{"key":"01060","name":"Segeberg","type":"Kreis"},"federalState":{"key":"01","name":"Schleswig-Holstein"}},{"key":"01060029","name":"Groß Niendorf","type":"Kreisangehörige_Gemeinde","postalCode":"23816","multiplePostalCodes":false,"association":{"key":"01060","name":"Leezen","type":"Amt"},"district":{"key":"01060","name":"Segeberg","type":"Kreis"},"federalState":{"key":"01","name":"Schleswig-Holstein"}},{"key":"01060030","name":"Groß Rönnau","type":"Kreisangehörige_Gemeinde","postalCode":"23795","multiplePostalCodes":false,"association":{"key":"01060","name":"Trave-Land","type":"Amt"},"district":{"key":"01060","name":"Segeberg","type":"Kreis"},"federalState":{"key":"01","name":"Schleswig-Holstein"}},{"key":"01060031","name":"Hagen","type":"Kreisangehörige_Gemeinde","postalCode":"24576","multiplePostalCodes":false,"association":{"key":"01060","name":"Bad Bramstedt-Land","type":"Amt"},"district":{"key":"01060","name":"Segeberg","type":"Kreis"},"federalState":{"key":"01","name":"Schleswig-Holstein"}},{"key":"01060033","name":"Hardebek","type":"Kreisangehörige_Gemeinde","postalCode":"24616","multiplePostalCodes":false,"association":{"key":"01060","name":"Bad Bramstedt-Land","type":"Amt"},"district":{"key":"01060","name":"Segeberg","type":"Kreis"},"federalState":{"key":"01","name":"Schleswig-Holstein"}},{"key":"01060034","name":"Hartenholm","type":"Kreisangehörige_Gemeinde","postalCode":"24628","multiplePostalCodes":false,"association":{"key":"01060","name":"Auenland Südholstein","type":"Amt"},"district":{"key":"01060","name":"Segeberg","type":"Kreis"},"federalState":{"key":"01","name":"Schleswig-Holstein"}},{"key":"01060035","name":"Hasenkrug","type":"Kreisangehörige_Gemeinde","postalCode":"24616","multiplePostalCodes":false,"association":{"key":"01060","name":"Bad Bramstedt-Land","type":"Amt"},"district":{"key":"01060","name":"Segeberg","type":"Kreis"},"federalState":{"key":"01","name":"Schleswig-Holstein"}},{"key":"01060036","name":"Hasenmoor","type":"Kreisangehörige_Gemeinde","postalCode":"24640","multiplePostalCodes":false,"association":{"key":"01060","name":"Auenland Südholstein","type":"Amt"},"district":{"key":"01060","name":"Segeberg","type":"Kreis"},"federalState":{"key":"01","name":"Schleswig-Holstein"}},{"key":"01060037","name":"Heidmoor","type":"Kreisangehörige_Gemeinde","postalCode":"24632","multiplePostalCodes":false,"association":{"key":"01060","name":"Bad Bramstedt-Land","type":"Amt"},"district":{"key":"01060","name":"Segeberg","type":"Kreis"},"federalState":{"key":"01","name":"Schleswig-Holstein"}},{"key":"01060038","name":"Heidmühlen","type":"Kreisangehörige_Gemeinde","postalCode":"24598","multiplePostalCodes":true,"association":{"key":"01060","name":"Boostedt-Rickling","type":"Amt"},"district":{"key":"01060","name":"Segeberg","type":"Kreis"},"federalState":{"key":"01","name":"Schleswig-Holstein"}},{"key":"01060039","name":"Henstedt-Ulzburg","type":"Kreisangehörige_Gemeinde","postalCode":"24558","multiplePostalCodes":false,"association":{"key":"01060","name":"Henstedt-Ulzburg","type":"Verbandsfreie_Gemeinde"},"district":{"key":"01060","name":"Segeberg","type":"Kreis"},"federalState":{"key":"01","name":"Schleswig-Holstein"}},{"key":"01060040","name":"Hitzhusen","type":"Kreisangehörige_Gemeinde","postalCode":"24576","multiplePostalCodes":false,"association":{"key":"01060","name":"Bad Bramstedt-Land","type":"Amt"},"district":{"key":"01060","name":"Segeberg","type":"Kreis"},"federalState":{"key":"01","name":"Schleswig-Holstein"}},{"key":"01060041","name":"Högersdorf","type":"Kreisangehörige_Gemeinde","postalCode":"23795","multiplePostalCodes":false,"association":{"key":"01060","name":"Leezen","type":"Amt"},"district":{"key":"01060","name":"Segeberg","type":"Kreis"},"federalState":{"key":"01","name":"Schleswig-Holstein"}},{"key":"01060042","name":"Hüttblek","type":"Kreisangehörige_Gemeinde","postalCode":"24641","multiplePostalCodes":false,"association":{"key":"01060","name":"Kisdorf","type":"Amt"},"district":{"key":"01060","name":"Segeberg","type":"Kreis"},"federalState":{"key":"01","name":"Schleswig-Holstein"}},{"key":"01060043","name":"Itzstedt","type":"Kreisangehörige_Gemeinde","postalCode":"23845","multiplePostalCodes":false,"association":{"key":"01060","name":"Itzstedt","type":"Amt"},"district":{"key":"01060","name":"Segeberg","type":"Kreis"},"federalState":{"key":"01","name":"Schleswig-Holstein"}},{"key":"01060044","name":"Kaltenkirchen, Stadt","type":"Stadt","postalCode":"24568","multiplePostalCodes":false,"association":{"key":"01060","name":"Kaltenkirchen, Stadt","type":"Verbandsfreie_Gemeinde"},"district":{"key":"01060","name":"Segeberg","type":"Kreis"},"federalState":{"key":"01","name":"Schleswig-Holstein"}},{"key":"01060045","name":"Kattendorf","type":"Kreisangehörige_Gemeinde","postalCode":"24568","multiplePostalCodes":true,"association":{"key":"01060","name":"Kisdorf","type":"Amt"},"district":{"key":"01060","name":"Segeberg","type":"Kreis"},"federalState":{"key":"01","name":"Schleswig-Holstein"}},{"key":"01060046","name":"Kayhude","type":"Kreisangehörige_Gemeinde","postalCode":"23863","multiplePostalCodes":false,"association":{"key":"01060","name":"Itzstedt","type":"Amt"},"district":{"key":"01060","name":"Segeberg","type":"Kreis"},"federalState":{"key":"01","name":"Schleswig-Holstein"}},{"key":"01060047","name":"Kisdorf","type":"Kreisangehörige_Gemeinde","postalCode":"24629","multiplePostalCodes":false,"association":{"key":"01060","name":"Kisdorf","type":"Amt"},"district":{"key":"01060","name":"Segeberg","type":"Kreis"},"federalState":{"key":"01","name":"Schleswig-Holstein"}},{"key":"01060048","name":"Klein Gladebrügge","type":"Kreisangehörige_Gemeinde","postalCode":"23795","multiplePostalCodes":false,"association":{"key":"01060","name":"Trave-Land","type":"Amt"},"district":{"key":"01060","name":"Segeberg","type":"Kreis"},"federalState":{"key":"01","name":"Schleswig-Holstein"}},{"key":"01060049","name":"Klein Rönnau","type":"Kreisangehörige_Gemeinde","postalCode":"23795","multiplePostalCodes":false,"association":{"key":"01060","name":"Trave-Land","type":"Amt"},"district":{"key":"01060","name":"Segeberg","type":"Kreis"},"federalState":{"key":"01","name":"Schleswig-Holstein"}},{"key":"01060050","name":"Krems II","type":"Kreisangehörige_Gemeinde","postalCode":"23827","multiplePostalCodes":false,"association":{"key":"01060","name":"Trave-Land","type":"Amt"},"district":{"key":"01060","name":"Segeberg","type":"Kreis"},"federalState":{"key":"01","name":"Schleswig-Holstein"}},{"key":"01060051","name":"Kükels","type":"Kreisangehörige_Gemeinde","postalCode":"23829","multiplePostalCodes":false,"association":{"key":"01060","name":"Leezen","type":"Amt"},"district":{"key":"01060","name":"Segeberg","type":"Kreis"},"federalState":{"key":"01","name":"Schleswig-Holstein"}},{"key":"01060052","name":"Latendorf","type":"Kreisangehörige_Gemeinde","postalCode":"24598","multiplePostalCodes":false,"association":{"key":"01060","name":"Boostedt-Rickling","type":"Amt"},"district":{"key":"01060","name":"Segeberg","type":"Kreis"},"federalState":{"key":"01","name":"Schleswig-Holstein"}},{"key":"01060053","name":"Leezen","type":"Kreisangehörige_Gemeinde","postalCode":"23816","multiplePostalCodes":false,"association":{"key":"01060","name":"Leezen","type":"Amt"},"district":{"key":"01060","name":"Segeberg","type":"Kreis"},"federalState":{"key":"01","name":"Schleswig-Holstein"}},{"key":"01060054","name":"Lentföhrden","type":"Kreisangehörige_Gemeinde","postalCode":"24632","multiplePostalCodes":true,"association":{"key":"01060","name":"Auenland Südholstein","type":"Amt"},"district":{"key":"01060","name":"Segeberg","type":"Kreis"},"federalState":{"key":"01","name":"Schleswig-Holstein"}},{"key":"01060056","name":"Mönkloh","type":"Kreisangehörige_Gemeinde","postalCode":"24576","multiplePostalCodes":false,"association":{"key":"01060","name":"Bad Bramstedt-Land","type":"Amt"},"district":{"key":"01060","name":"Segeberg","type":"Kreis"},"federalState":{"key":"01","name":"Schleswig-Holstein"}},{"key":"01060057","name":"Mözen","type":"Kreisangehörige_Gemeinde","postalCode":"23795","multiplePostalCodes":false,"association":{"key":"01060","name":"Leezen","type":"Amt"},"district":{"key":"01060","name":"Segeberg","type":"Kreis"},"federalState":{"key":"01","name":"Schleswig-Holstein"}},{"key":"01060058","name":"Nahe","type":"Kreisangehörige_Gemeinde","postalCode":"23866","multiplePostalCodes":false,"association":{"key":"01060","name":"Itzstedt","type":"Amt"},"district":{"key":"01060","name":"Segeberg","type":"Kreis"},"federalState":{"key":"01","name":"Schleswig-Holstein"}},{"key":"01060059","name":"Negernbötel","type":"Kreisangehörige_Gemeinde","postalCode":"23795","multiplePostalCodes":false,"association":{"key":"01060","name":"Trave-Land","type":"Amt"},"district":{"key":"01060","name":"Segeberg","type":"Kreis"},"federalState":{"key":"01","name":"Schleswig-Holstein"}},{"key":"01060060","name":"Nehms","type":"Kreisangehörige_Gemeinde","postalCode":"23813","multiplePostalCodes":false,"association":{"key":"01060","name":"Trave-Land","type":"Amt"},"district":{"key":"01060","name":"Segeberg","type":"Kreis"},"federalState":{"key":"01","name":"Schleswig-Holstein"}},{"key":"01060061","name":"Neuengörs","type":"Kreisangehörige_Gemeinde","postalCode":"23818","multiplePostalCodes":false,"association":{"key":"01060","name":"Trave-Land","type":"Amt"},"district":{"key":"01060","name":"Segeberg","type":"Kreis"},"federalState":{"key":"01","name":"Schleswig-Holstein"}},{"key":"01060062","name":"Neversdorf","type":"Kreisangehörige_Gemeinde","postalCode":"23816","multiplePostalCodes":false,"association":{"key":"01060","name":"Leezen","type":"Amt"},"district":{"key":"01060","name":"Segeberg","type":"Kreis"},"federalState":{"key":"01","name":"Schleswig-Holstein"}},{"key":"01060063","name":"Norderstedt, Stadt","type":"Stadt","postalCode":"22846","multiplePostalCodes":true,"association":{"key":"01060","name":"Norderstedt, Stadt","type":"Verbandsfreie_Gemeinde"},"district":{"key":"01060","name":"Segeberg","type":"Kreis"},"federalState":{"key":"01","name":"Schleswig-Holstein"}},{"key":"01060064","name":"Nützen","type":"Kreisangehörige_Gemeinde","postalCode":"24568","multiplePostalCodes":false,"association":{"key":"01060","name":"Auenland Südholstein","type":"Amt"},"district":{"key":"01060","name":"Segeberg","type":"Kreis"},"federalState":{"key":"01","name":"Schleswig-Holstein"}},{"key":"01060065","name":"Oering","type":"Kreisangehörige_Gemeinde","postalCode":"23845","multiplePostalCodes":false,"association":{"key":"01060","name":"Itzstedt","type":"Amt"},"district":{"key":"01060","name":"Segeberg","type":"Kreis"},"federalState":{"key":"01","name":"Schleswig-Holstein"}},{"key":"01060066","name":"Oersdorf","type":"Kreisangehörige_Gemeinde","postalCode":"24568","multiplePostalCodes":false,"association":{"key":"01060","name":"Kisdorf","type":"Amt"},"district":{"key":"01060","name":"Segeberg","type":"Kreis"},"federalState":{"key":"01","name":"Schleswig-Holstein"}},{"key":"01060067","name":"Pronstorf","type":"Kreisangehörige_Gemeinde","postalCode":"23820","multiplePostalCodes":true,"association":{"key":"01060","name":"Trave-Land","type":"Amt"},"district":{"key":"01060","name":"Segeberg","type":"Kreis"},"federalState":{"key":"01","name":"Schleswig-Holstein"}},{"key":"01060068","name":"Rickling","type":"Kreisangehörige_Gemeinde","postalCode":"24635","multiplePostalCodes":false,"association":{"key":"01060","name":"Boostedt-Rickling","type":"Amt"},"district":{"key":"01060","name":"Segeberg","type":"Kreis"},"federalState":{"key":"01","name":"Schleswig-Holstein"}},{"key":"01060069","name":"Rohlstorf","type":"Kreisangehörige_Gemeinde","postalCode":"23821","multiplePostalCodes":false,"association":{"key":"01060","name":"Trave-Land","type":"Amt"},"district":{"key":"01060","name":"Segeberg","type":"Kreis"},"federalState":{"key":"01","name":"Schleswig-Holstein"}},{"key":"01060070","name":"Schackendorf","type":"Kreisangehörige_Gemeinde","postalCode":"23795","multiplePostalCodes":false,"association":{"key":"01060","name":"Trave-Land","type":"Amt"},"district":{"key":"01060","name":"Segeberg","type":"Kreis"},"federalState":{"key":"01","name":"Schleswig-Holstein"}},{"key":"01060071","name":"Schieren","type":"Kreisangehörige_Gemeinde","postalCode":"23795","multiplePostalCodes":false,"association":{"key":"01060","name":"Trave-Land","type":"Amt"},"district":{"key":"01060","name":"Segeberg","type":"Kreis"},"federalState":{"key":"01","name":"Schleswig-Holstein"}},{"key":"01060072","name":"Schmalensee","type":"Kreisangehörige_Gemeinde","postalCode":"24638","multiplePostalCodes":false,"association":{"key":"01060","name":"Bornhöved","type":"Amt"},"district":{"key":"01060","name":"Segeberg","type":"Kreis"},"federalState":{"key":"01","name":"Schleswig-Holstein"}},{"key":"01060073","name":"Schmalfeld","type":"Kreisangehörige_Gemeinde","postalCode":"24640","multiplePostalCodes":false,"association":{"key":"01060","name":"Auenland Südholstein","type":"Amt"},"district":{"key":"01060","name":"Segeberg","type":"Kreis"},"federalState":{"key":"01","name":"Schleswig-Holstein"}},{"key":"01060074","name":"Schwissel","type":"Kreisangehörige_Gemeinde","postalCode":"23795","multiplePostalCodes":false,"association":{"key":"01060","name":"Leezen","type":"Amt"},"district":{"key":"01060","name":"Segeberg","type":"Kreis"},"federalState":{"key":"01","name":"Schleswig-Holstein"}},{"key":"01060075","name":"Seedorf","type":"Kreisangehörige_Gemeinde","postalCode":"23823","multiplePostalCodes":true,"association":{"key":"01060","name":"Trave-Land","type":"Amt"},"district":{"key":"01060","name":"Segeberg","type":"Kreis"},"federalState":{"key":"01","name":"Schleswig-Holstein"}},{"key":"01060076","name":"Seth","type":"Kreisangehörige_Gemeinde","postalCode":"23845","multiplePostalCodes":false,"association":{"key":"01060","name":"Itzstedt","type":"Amt"},"district":{"key":"01060","name":"Segeberg","type":"Kreis"},"federalState":{"key":"01","name":"Schleswig-Holstein"}},{"key":"01060077","name":"Sievershütten","type":"Kreisangehörige_Gemeinde","postalCode":"24641","multiplePostalCodes":false,"association":{"key":"01060","name":"Kisdorf","type":"Amt"},"district":{"key":"01060","name":"Segeberg","type":"Kreis"},"federalState":{"key":"01","name":"Schleswig-Holstein"}},{"key":"01060079","name":"Stipsdorf","type":"Kreisangehörige_Gemeinde","postalCode":"23795","multiplePostalCodes":false,"association":{"key":"01060","name":"Trave-Land","type":"Amt"},"district":{"key":"01060","name":"Segeberg","type":"Kreis"},"federalState":{"key":"01","name":"Schleswig-Holstein"}},{"key":"01060080","name":"Stocksee","type":"Kreisangehörige_Gemeinde","postalCode":"24326","multiplePostalCodes":false,"association":{"key":"01060","name":"Bornhöved","type":"Amt"},"district":{"key":"01060","name":"Segeberg","type":"Kreis"},"federalState":{"key":"01","name":"Schleswig-Holstein"}},{"key":"01060081","name":"Strukdorf","type":"Kreisangehörige_Gemeinde","postalCode":"23815","multiplePostalCodes":false,"association":{"key":"01060","name":"Trave-Land","type":"Amt"},"district":{"key":"01060","name":"Segeberg","type":"Kreis"},"federalState":{"key":"01","name":"Schleswig-Holstein"}},{"key":"01060082","name":"Struvenhütten","type":"Kreisangehörige_Gemeinde","postalCode":"24643","multiplePostalCodes":false,"association":{"key":"01060","name":"Kisdorf","type":"Amt"},"district":{"key":"01060","name":"Segeberg","type":"Kreis"},"federalState":{"key":"01","name":"Schleswig-Holstein"}},{"key":"01060084","name":"Stuvenborn","type":"Kreisangehörige_Gemeinde","postalCode":"24641","multiplePostalCodes":false,"association":{"key":"01060","name":"Kisdorf","type":"Amt"},"district":{"key":"01060","name":"Segeberg","type":"Kreis"},"federalState":{"key":"01","name":"Schleswig-Holstein"}},{"key":"01060085","name":"Sülfeld","type":"Kreisangehörige_Gemeinde","postalCode":"23867","multiplePostalCodes":true,"association":{"key":"01060","name":"Itzstedt","type":"Amt"},"district":{"key":"01060","name":"Segeberg","type":"Kreis"},"federalState":{"key":"01","name":"Schleswig-Holstein"}},{"key":"01060086","name":"Tarbek","type":"Kreisangehörige_Gemeinde","postalCode":"24619","multiplePostalCodes":false,"association":{"key":"01060","name":"Bornhöved","type":"Amt"},"district":{"key":"01060","name":"Segeberg","type":"Kreis"},"federalState":{"key":"01","name":"Schleswig-Holstein"}},{"key":"01060087","name":"Tensfeld","type":"Kreisangehörige_Gemeinde","postalCode":"23824","multiplePostalCodes":false,"association":{"key":"01060","name":"Bornhöved","type":"Amt"},"district":{"key":"01060","name":"Segeberg","type":"Kreis"},"federalState":{"key":"01","name":"Schleswig-Holstein"}},{"key":"01060088","name":"Todesfelde","type":"Kreisangehörige_Gemeinde","postalCode":"23826","multiplePostalCodes":false,"association":{"key":"01060","name":"Leezen","type":"Amt"},"district":{"key":"01060","name":"Segeberg","type":"Kreis"},"federalState":{"key":"01","name":"Schleswig-Holstein"}},{"key":"01060089","name":"Trappenkamp","type":"Kreisangehörige_Gemeinde","postalCode":"24610","multiplePostalCodes":false,"association":{"key":"01060","name":"Bornhöved","type":"Amt"},"district":{"key":"01060","name":"Segeberg","type":"Kreis"},"federalState":{"key":"01","name":"Schleswig-Holstein"}},{"key":"01060090","name":"Travenhorst","type":"Kreisangehörige_Gemeinde","postalCode":"23827","multiplePostalCodes":false,"association":{"key":"01060","name":"Trave-Land","type":"Amt"},"district":{"key":"01060","name":"Segeberg","type":"Kreis"},"federalState":{"key":"01","name":"Schleswig-Holstein"}},{"key":"01060091","name":"Traventhal","type":"Kreisangehörige_Gemeinde","postalCode":"23795","multiplePostalCodes":false,"association":{"key":"01060","name":"Trave-Land","type":"Amt"},"district":{"key":"01060","name":"Segeberg","type":"Kreis"},"federalState":{"key":"01","name":"Schleswig-Holstein"}},{"key":"01060092","name":"Wahlstedt, Stadt","type":"Stadt","postalCode":"23812","multiplePostalCodes":false,"association":{"key":"01060","name":"Wahlstedt, Stadt","type":"Verbandsfreie_Gemeinde"},"district":{"key":"01060","name":"Segeberg","type":"Kreis"},"federalState":{"key":"01","name":"Schleswig-Holstein"}},{"key":"01060093","name":"Wakendorf I","type":"Kreisangehörige_Gemeinde","postalCode":"23845","multiplePostalCodes":false,"association":{"key":"01060","name":"Trave-Land","type":"Amt"},"district":{"key":"01060","name":"Segeberg","type":"Kreis"},"federalState":{"key":"01","name":"Schleswig-Holstein"}},{"key":"01060094","name":"Wakendorf II","type":"Kreisangehörige_Gemeinde","postalCode":"24558","multiplePostalCodes":false,"association":{"key":"01060","name":"Kisdorf","type":"Amt"},"district":{"key":"01060","name":"Segeberg","type":"Kreis"},"federalState":{"key":"01","name":"Schleswig-Holstein"}},{"key":"01060095","name":"Weddelbrook","type":"Kreisangehörige_Gemeinde","postalCode":"24576","multiplePostalCodes":true,"association":{"key":"01060","name":"Bad Bramstedt-Land","type":"Amt"},"district":{"key":"01060","name":"Segeberg","type":"Kreis"},"federalState":{"key":"01","name":"Schleswig-Holstein"}},{"key":"01060096","name":"Weede","type":"Kreisangehörige_Gemeinde","postalCode":"23795","multiplePostalCodes":true,"association":{"key":"01060","name":"Trave-Land","type":"Amt"},"district":{"key":"01060","name":"Segeberg","type":"Kreis"},"federalState":{"key":"01","name":"Schleswig-Holstein"}},{"key":"01060097","name":"Wensin","type":"Kreisangehörige_Gemeinde","postalCode":"23827","multiplePostalCodes":false,"association":{"key":"01060","name":"Trave-Land","type":"Amt"},"district":{"key":"01060","name":"Segeberg","type":"Kreis"},"federalState":{"key":"01","name":"Schleswig-Holstein"}},{"key":"01060098","name":"Westerrade","type":"Kreisangehörige_Gemeinde","postalCode":"23815","multiplePostalCodes":false,"association":{"key":"01060","name":"Trave-Land","type":"Amt"},"district":{"key":"01060","name":"Segeberg","type":"Kreis"},"federalState":{"key":"01","name":"Schleswig-Holstein"}},{"key":"01060099","name":"Wiemersdorf","type":"Kreisangehörige_Gemeinde","postalCode":"24649","multiplePostalCodes":true,"association":{"key":"01060","name":"Bad Bramstedt-Land","type":"Amt"},"district":{"key":"01060","name":"Segeberg","type":"Kreis"},"federalState":{"key":"01","name":"Schleswig-Holstein"}},{"key":"01060100","name":"Winsen","type":"Kreisangehörige_Gemeinde","postalCode":"24568","multiplePostalCodes":false,"association":{"key":"01060","name":"Kisdorf","type":"Amt"},"district":{"key":"01060","name":"Segeberg","type":"Kreis"},"federalState":{"key":"01","name":"Schleswig-Holstein"}},{"key":"01060101","name":"Wittenborn","type":"Kreisangehörige_Gemeinde","postalCode":"23829","multiplePostalCodes":false,"association":{"key":"01060","name":"Leezen","type":"Amt"},"district":{"key":"01060","name":"Segeberg","type":"Kreis"},"federalState":{"key":"01","name":"Schleswig-Holstein"}}]