[{"name":"Ahornweg","postalCode":"14822","locality":"Borkheide","municipality":{"key":"12069052","name":"Borkheide","type":"Kreisangehörige_Gemeinde"},"district":{"key":"12069","name":"Potsdam-Mittelmark","type":"Landkreis"},"federalState":{"key":"12","name":"Brandenburg"}},{"name":"Akazienallee","postalCode":"14822","locality":"Borkheide","municipality":{"key":"12069052","name":"Borkheide","type":"Kreisangehörige_Gemeinde"},"district":{"key":"12069","name":"Potsdam-Mittelmark","type":"Landkreis"},"federalState":{"key":"12","name":"Brandenburg"}},{"name":"Am Adlerhorst","postalCode":"14822","locality":"Borkheide","municipality":{"key":"12069052","name":"Borkheide","type":"Kreisangehörige_Gemeinde"},"district":{"key":"12069","name":"Potsdam-Mittelmark","type":"Landkreis"},"federalState":{"key":"12","name":"Brandenburg"}},{"name":"Am Finkenhain","postalCode":"14822","locality":"Borkheide","municipality":{"key":"12069052","name":"Borkheide","type":"Kreisangehörige_Gemeinde"},"district":{"key":"12069","name":"Potsdam-Mittelmark","type":"Landkreis"},"federalState":{"key":"12","name":"Brandenburg"}},{"name":"Am Gelände","postalCode":"14822","locality":"Borkheide","municipality":{"key":"12069052","name":"Borkheide","type":"Kreisangehörige_Gemeinde"},"district":{"key":"12069","name":"Potsdam-Mittelmark","type":"Landkreis"},"federalState":{"key":"12","name":"Brandenburg"}},{"name":"Am Haselnußstrauch","postalCode":"14822","locality":"Borkheide","municipality":{"key":"12069052","name":"Borkheide","type":"Kreisangehörige_Gemeinde"},"district":{"key":"12069","name":"Potsdam-Mittelmark","type":"Landkreis"},"federalState":{"key":"12","name":"Brandenburg"}},{"name":"Am Hirschsprung","postalCode":"14822","locality":"Borkheide","municipality":{"key":"12069052","name":"Borkheide","type":"Kreisangehörige_Gemeinde"},"district":{"key":"12069","name":"Potsdam-Mittelmark","type":"Landkreis"},"federalState":{"key":"12","name":"Brandenburg"}},{"name":"Am Jugendheim","postalCode":"14822","locality":"Borkheide","municipality":{"key":"12069052","name":"Borkheide","type":"Kreisangehörige_Gemeinde"},"district":{"key":"12069","name":"Potsdam-Mittelmark","type":"Landkreis"},"federalState":{"key":"12","name":"Brandenburg"}},{"name":"Amselgrund","postalCode":"14822","locality":"Borkheide","municipality":{"key":"12069052","name":"Borkheide","type":"Kreisangehörige_Gemeinde"},"district":{"key":"12069","name":"Potsdam-Mittelmark","type":"Landkreis"},"federalState":{"key":"12","name":"Brandenburg"}},{"name":"Am Spechthammer","postalCode":"14822","locality":"Borkheide","municipality":{"key":"12069052","name":"Borkheide","type":"Kreisangehörige_Gemeinde"},"district":{"key":"12069","name":"Potsdam-Mittelmark","type":"Landkreis"},"federalState":{"key":"12","name":"Brandenburg"}},{"name":"Am Turm","postalCode":"14822","locality":"Borkheide","municipality":{"key":"12069052","name":"Borkheide","type":"Kreisangehörige_Gemeinde"},"district":{"key":"12069","name":"Potsdam-Mittelmark","type":"Landkreis"},"federalState":{"key":"12","name":"Brandenburg"}},{"name":"Am Uhlenhorst","postalCode":"14822","locality":"Borkheide","municipality":{"key":"12069052","name":"Borkheide","type":"Kreisangehörige_Gemeinde"},"district":{"key":"12069","name":"Potsdam-Mittelmark","type":"Landkreis"},"federalState":{"key":"12","name":"Brandenburg"}},{"name":"Am Waldesrand","postalCode":"14822","locality":"Borkheide","municipality":{"key":"12069052","name":"Borkheide","type":"Kreisangehörige_Gemeinde"},"district":{"key":"12069","name":"Potsdam-Mittelmark","type":"Landkreis"},"federalState":{"key":"12","name":"Brandenburg"}},{"name":"An der Wildbahn","postalCode":"14822","locality":"Borkheide","municipality":{"key":"12069052","name":"Borkheide","type":"Kreisangehörige_Gemeinde"},"district":{"key":"12069","name":"Potsdam-Mittelmark","type":"Landkreis"},"federalState":{"key":"12","name":"Brandenburg"}},{"name":"Auf der Heide","postalCode":"14822","locality":"Borkheide","municipality":{"key":"12069052","name":"Borkheide","type":"Kreisangehörige_Gemeinde"},"district":{"key":"12069","name":"Potsdam-Mittelmark","type":"Landkreis"},"federalState":{"key":"12","name":"Brandenburg"}},{"name":"Bachstelzenweg","postalCode":"14822","locality":"Borkheide","municipality":{"key":"12069052","name":"Borkheide","type":"Kreisangehörige_Gemeinde"},"district":{"key":"12069","name":"Potsdam-Mittelmark","type":"Landkreis"},"federalState":{"key":"12","name":"Brandenburg"}},{"name":"Beelitzer Str.","postalCode":"14822","locality":"Borkheide","municipality":{"key":"12069052","name":"Borkheide","type":"Kreisangehörige_Gemeinde"},"district":{"key":"12069","name":"Potsdam-Mittelmark","type":"Landkreis"},"federalState":{"key":"12","name":"Brandenburg"}},{"name":"Birkenhain","postalCode":"14822","locality":"Borkheide","municipality":{"key":"12069052","name":"Borkheide","type":"Kreisangehörige_Gemeinde"},"district":{"key":"12069","name":"Potsdam-Mittelmark","type":"Landkreis"},"federalState":{"key":"12","name":"Brandenburg"}},{"name":"Birkenweg","postalCode":"14822","locality":"Borkheide","municipality":{"key":"12069052","name":"Borkheide","type":"Kreisangehörige_Gemeinde"},"district":{"key":"12069","name":"Potsdam-Mittelmark","type":"Landkreis"},"federalState":{"key":"12","name":"Brandenburg"}},{"name":"Der Rehwechsel","postalCode":"14822","locality":"Borkheide","municipality":{"key":"12069052","name":"Borkheide","type":"Kreisangehörige_Gemeinde"},"district":{"key":"12069","name":"Potsdam-Mittelmark","type":"Landkreis"},"federalState":{"key":"12","name":"Brandenburg"}},{"name":"Drosselweg","postalCode":"14822","locality":"Borkheide","municipality":{"key":"12069052","name":"Borkheide","type":"Kreisangehörige_Gemeinde"},"district":{"key":"12069","name":"Potsdam-Mittelmark","type":"Landkreis"},"federalState":{"key":"12","name":"Brandenburg"}},{"name":"Ebereschenweg","postalCode":"14822","locality":"Borkheide","municipality":{"key":"12069052","name":"Borkheide","type":"Kreisangehörige_Gemeinde"},"district":{"key":"12069","name":"Potsdam-Mittelmark","type":"Landkreis"},"federalState":{"key":"12","name":"Brandenburg"}},{"name":"Eichelhäherweg","postalCode":"14822","locality":"Borkheide","municipality":{"key":"12069052","name":"Borkheide","type":"Kreisangehörige_Gemeinde"},"district":{"key":"12069","name":"Potsdam-Mittelmark","type":"Landkreis"},"federalState":{"key":"12","name":"Brandenburg"}},{"name":"Eichenallee","postalCode":"14822","locality":"Borkheide","municipality":{"key":"12069052","name":"Borkheide","type":"Kreisangehörige_Gemeinde"},"district":{"key":"12069","name":"Potsdam-Mittelmark","type":"Landkreis"},"federalState":{"key":"12","name":"Brandenburg"}},{"name":"Elsternweg","postalCode":"14822","locality":"Borkheide","municipality":{"key":"12069052","name":"Borkheide","type":"Kreisangehörige_Gemeinde"},"district":{"key":"12069","name":"Potsdam-Mittelmark","type":"Landkreis"},"federalState":{"key":"12","name":"Brandenburg"}},{"name":"Erikaweg","postalCode":"14822","locality":"Borkheide","municipality":{"key":"12069052","name":"Borkheide","type":"Kreisangehörige_Gemeinde"},"district":{"key":"12069","name":"Potsdam-Mittelmark","type":"Landkreis"},"federalState":{"key":"12","name":"Brandenburg"}},{"name":"Falkensteg","postalCode":"14822","locality":"Borkheide","municipality":{"key":"12069052","name":"Borkheide","type":"Kreisangehörige_Gemeinde"},"district":{"key":"12069","name":"Potsdam-Mittelmark","type":"Landkreis"},"federalState":{"key":"12","name":"Brandenburg"}},{"name":"Feldmark","postalCode":"14822","locality":"Borkheide","municipality":{"key":"12069052","name":"Borkheide","type":"Kreisangehörige_Gemeinde"},"district":{"key":"12069","name":"Potsdam-Mittelmark","type":"Landkreis"},"federalState":{"key":"12","name":"Brandenburg"}},{"name":"Fercher Weg","postalCode":"14822","locality":"Borkheide","municipality":{"key":"12069052","name":"Borkheide","type":"Kreisangehörige_Gemeinde"},"district":{"key":"12069","name":"Potsdam-Mittelmark","type":"Landkreis"},"federalState":{"key":"12","name":"Brandenburg"}},{"name":"Forstweg","postalCode":"14822","locality":"Borkheide","municipality":{"key":"12069052","name":"Borkheide","type":"Kreisangehörige_Gemeinde"},"district":{"key":"12069","name":"Potsdam-Mittelmark","type":"Landkreis"},"federalState":{"key":"12","name":"Brandenburg"}},{"name":"Friedrich-Engels-Str.","postalCode":"14822","locality":"Borkheide","municipality":{"key":"12069052","name":"Borkheide","type":"Kreisangehörige_Gemeinde"},"district":{"key":"12069","name":"Potsdam-Mittelmark","type":"Landkreis"},"federalState":{"key":"12","name":"Brandenburg"}},{"name":"Friedrich-Ludwig-Jahn-Str.","postalCode":"14822","locality":"Borkheide","municipality":{"key":"12069052","name":"Borkheide","type":"Kreisangehörige_Gemeinde"},"district":{"key":"12069","name":"Potsdam-Mittelmark","type":"Landkreis"},"federalState":{"key":"12","name":"Brandenburg"}},{"name":"Fuchspaß","postalCode":"14822","locality":"Borkheide","municipality":{"key":"12069052","name":"Borkheide","type":"Kreisangehörige_Gemeinde"},"district":{"key":"12069","name":"Potsdam-Mittelmark","type":"Landkreis"},"federalState":{"key":"12","name":"Brandenburg"}},{"name":"Gartenstr.","postalCode":"14822","locality":"Borkheide","municipality":{"key":"12069052","name":"Borkheide","type":"Kreisangehörige_Gemeinde"},"district":{"key":"12069","name":"Potsdam-Mittelmark","type":"Landkreis"},"federalState":{"key":"12","name":"Brandenburg"}},{"name":"Georg-Rothgießer-Str.","postalCode":"14822","locality":"Borkheide","municipality":{"key":"12069052","name":"Borkheide","type":"Kreisangehörige_Gemeinde"},"district":{"key":"12069","name":"Potsdam-Mittelmark","type":"Landkreis"},"federalState":{"key":"12","name":"Brandenburg"}},{"name":"Ginsterweg","postalCode":"14822","locality":"Borkheide","municipality":{"key":"12069052","name":"Borkheide","type":"Kreisangehörige_Gemeinde"},"district":{"key":"12069","name":"Potsdam-Mittelmark","type":"Landkreis"},"federalState":{"key":"12","name":"Brandenburg"}},{"name":"Hagebuttenweg","postalCode":"14822","locality":"Borkheide","municipality":{"key":"12069052","name":"Borkheide","type":"Kreisangehörige_Gemeinde"},"district":{"key":"12069","name":"Potsdam-Mittelmark","type":"Landkreis"},"federalState":{"key":"12","name":"Brandenburg"}},{"name":"Hans-Grade-Str.","postalCode":"14822","locality":"Borkheide","municipality":{"key":"12069052","name":"Borkheide","type":"Kreisangehörige_Gemeinde"},"district":{"key":"12069","name":"Potsdam-Mittelmark","type":"Landkreis"},"federalState":{"key":"12","name":"Brandenburg"}},{"name":"Haselhecke","postalCode":"14822","locality":"Borkheide","municipality":{"key":"12069052","name":"Borkheide","type":"Kreisangehörige_Gemeinde"},"district":{"key":"12069","name":"Potsdam-Mittelmark","type":"Landkreis"},"federalState":{"key":"12","name":"Brandenburg"}},{"name":"Heckenweg","postalCode":"14822","locality":"Borkheide","municipality":{"key":"12069052","name":"Borkheide","type":"Kreisangehörige_Gemeinde"},"district":{"key":"12069","name":"Potsdam-Mittelmark","type":"Landkreis"},"federalState":{"key":"12","name":"Brandenburg"}},{"name":"Heidehof","postalCode":"14822","locality":"Borkheide","municipality":{"key":"12069052","name":"Borkheide","type":"Kreisangehörige_Gemeinde"},"district":{"key":"12069","name":"Potsdam-Mittelmark","type":"Landkreis"},"federalState":{"key":"12","name":"Brandenburg"}},{"name":"Herrgottswinkel","postalCode":"14822","locality":"Borkheide","municipality":{"key":"12069052","name":"Borkheide","type":"Kreisangehörige_Gemeinde"},"district":{"key":"12069","name":"Potsdam-Mittelmark","type":"Landkreis"},"federalState":{"key":"12","name":"Brandenburg"}},{"name":"Im Bärenfang","postalCode":"14822","locality":"Borkheide","municipality":{"key":"12069052","name":"Borkheide","type":"Kreisangehörige_Gemeinde"},"district":{"key":"12069","name":"Potsdam-Mittelmark","type":"Landkreis"},"federalState":{"key":"12","name":"Brandenburg"}},{"name":"Im Birkenhorst","postalCode":"14822","locality":"Borkheide","municipality":{"key":"12069052","name":"Borkheide","type":"Kreisangehörige_Gemeinde"},"district":{"key":"12069","name":"Potsdam-Mittelmark","type":"Landkreis"},"federalState":{"key":"12","name":"Brandenburg"}},{"name":"Im Dachsbau","postalCode":"14822","locality":"Borkheide","municipality":{"key":"12069052","name":"Borkheide","type":"Kreisangehörige_Gemeinde"},"district":{"key":"12069","name":"Potsdam-Mittelmark","type":"Landkreis"},"federalState":{"key":"12","name":"Brandenburg"}},{"name":"Im Dol","postalCode":"14822","locality":"Borkheide","municipality":{"key":"12069052","name":"Borkheide","type":"Kreisangehörige_Gemeinde"},"district":{"key":"12069","name":"Potsdam-Mittelmark","type":"Landkreis"},"federalState":{"key":"12","name":"Brandenburg"}},{"name":"Im Haseneck","postalCode":"14822","locality":"Borkheide","municipality":{"key":"12069052","name":"Borkheide","type":"Kreisangehörige_Gemeinde"},"district":{"key":"12069","name":"Potsdam-Mittelmark","type":"Landkreis"},"federalState":{"key":"12","name":"Brandenburg"}},{"name":"Im Kuckuckswinkel","postalCode":"14822","locality":"Borkheide","municipality":{"key":"12069052","name":"Borkheide","type":"Kreisangehörige_Gemeinde"},"district":{"key":"12069","name":"Potsdam-Mittelmark","type":"Landkreis"},"federalState":{"key":"12","name":"Brandenburg"}},{"name":"Immenweg","postalCode":"14822","locality":"Borkheide","municipality":{"key":"12069052","name":"Borkheide","type":"Kreisangehörige_Gemeinde"},"district":{"key":"12069","name":"Potsdam-Mittelmark","type":"Landkreis"},"federalState":{"key":"12","name":"Brandenburg"}},{"name":"Im Sonnenschein","postalCode":"14822","locality":"Borkheide","municipality":{"key":"12069052","name":"Borkheide","type":"Kreisangehörige_Gemeinde"},"district":{"key":"12069","name":"Potsdam-Mittelmark","type":"Landkreis"},"federalState":{"key":"12","name":"Brandenburg"}},{"name":"Im Sonnenwinkel","postalCode":"14822","locality":"Borkheide","municipality":{"key":"12069052","name":"Borkheide","type":"Kreisangehörige_Gemeinde"},"district":{"key":"12069","name":"Potsdam-Mittelmark","type":"Landkreis"},"federalState":{"key":"12","name":"Brandenburg"}},{"name":"Im Stillen Winkel","postalCode":"14822","locality":"Borkheide","municipality":{"key":"12069052","name":"Borkheide","type":"Kreisangehörige_Gemeinde"},"district":{"key":"12069","name":"Potsdam-Mittelmark","type":"Landkreis"},"federalState":{"key":"12","name":"Brandenburg"}},{"name":"Im Vogelsang","postalCode":"14822","locality":"Borkheide","municipality":{"key":"12069052","name":"Borkheide","type":"Kreisangehörige_Gemeinde"},"district":{"key":"12069","name":"Potsdam-Mittelmark","type":"Landkreis"},"federalState":{"key":"12","name":"Brandenburg"}},{"name":"Im Winkel","postalCode":"14822","locality":"Borkheide","municipality":{"key":"12069052","name":"Borkheide","type":"Kreisangehörige_Gemeinde"},"district":{"key":"12069","name":"Potsdam-Mittelmark","type":"Landkreis"},"federalState":{"key":"12","name":"Brandenburg"}},{"name":"In den Langen Stücken","postalCode":"14822","locality":"Borkheide","municipality":{"key":"12069052","name":"Borkheide","type":"Kreisangehörige_Gemeinde"},"district":{"key":"12069","name":"Potsdam-Mittelmark","type":"Landkreis"},"federalState":{"key":"12","name":"Brandenburg"}},{"name":"Jägerpfad","postalCode":"14822","locality":"Borkheide","municipality":{"key":"12069052","name":"Borkheide","type":"Kreisangehörige_Gemeinde"},"district":{"key":"12069","name":"Potsdam-Mittelmark","type":"Landkreis"},"federalState":{"key":"12","name":"Brandenburg"}},{"name":"Kaniner Weg","postalCode":"14822","locality":"Borkheide","municipality":{"key":"12069052","name":"Borkheide","type":"Kreisangehörige_Gemeinde"},"district":{"key":"12069","name":"Potsdam-Mittelmark","type":"Landkreis"},"federalState":{"key":"12","name":"Brandenburg"}},{"name":"Kapellenweg","postalCode":"14822","locality":"Borkheide","municipality":{"key":"12069052","name":"Borkheide","type":"Kreisangehörige_Gemeinde"},"district":{"key":"12069","name":"Potsdam-Mittelmark","type":"Landkreis"},"federalState":{"key":"12","name":"Brandenburg"}},{"name":"Karl-Marx-Str.","postalCode":"14822","locality":"Borkheide","municipality":{"key":"12069052","name":"Borkheide","type":"Kreisangehörige_Gemeinde"},"district":{"key":"12069","name":"Potsdam-Mittelmark","type":"Landkreis"},"federalState":{"key":"12","name":"Brandenburg"}},{"name":"Kiefernweg","postalCode":"14822","locality":"Borkheide","municipality":{"key":"12069052","name":"Borkheide","type":"Kreisangehörige_Gemeinde"},"district":{"key":"12069","name":"Potsdam-Mittelmark","type":"Landkreis"},"federalState":{"key":"12","name":"Brandenburg"}},{"name":"Kirchanger","postalCode":"14822","locality":"Borkheide","municipality":{"key":"12069052","name":"Borkheide","type":"Kreisangehörige_Gemeinde"},"district":{"key":"12069","name":"Potsdam-Mittelmark","type":"Landkreis"},"federalState":{"key":"12","name":"Brandenburg"}},{"name":"Kirchsteig","postalCode":"14822","locality":"Borkheide","municipality":{"key":"12069052","name":"Borkheide","type":"Kreisangehörige_Gemeinde"},"district":{"key":"12069","name":"Potsdam-Mittelmark","type":"Landkreis"},"federalState":{"key":"12","name":"Brandenburg"}},{"name":"Lerchenweg","postalCode":"14822","locality":"Borkheide","municipality":{"key":"12069052","name":"Borkheide","type":"Kreisangehörige_Gemeinde"},"district":{"key":"12069","name":"Potsdam-Mittelmark","type":"Landkreis"},"federalState":{"key":"12","name":"Brandenburg"}},{"name":"Maronenring","postalCode":"14822","locality":"Borkheide","municipality":{"key":"12069052","name":"Borkheide","type":"Kreisangehörige_Gemeinde"},"district":{"key":"12069","name":"Potsdam-Mittelmark","type":"Landkreis"},"federalState":{"key":"12","name":"Brandenburg"}},{"name":"Meisenweg","postalCode":"14822","locality":"Borkheide","municipality":{"key":"12069052","name":"Borkheide","type":"Kreisangehörige_Gemeinde"},"district":{"key":"12069","name":"Potsdam-Mittelmark","type":"Landkreis"},"federalState":{"key":"12","name":"Brandenburg"}},{"name":"Michaelstr.","postalCode":"14822","locality":"Borkheide","municipality":{"key":"12069052","name":"Borkheide","type":"Kreisangehörige_Gemeinde"},"district":{"key":"12069","name":"Potsdam-Mittelmark","type":"Landkreis"},"federalState":{"key":"12","name":"Brandenburg"}},{"name":"Mittelweg","postalCode":"14822","locality":"Borkheide","municipality":{"key":"12069052","name":"Borkheide","type":"Kreisangehörige_Gemeinde"},"district":{"key":"12069","name":"Potsdam-Mittelmark","type":"Landkreis"},"federalState":{"key":"12","name":"Brandenburg"}},{"name":"Moosweg","postalCode":"14822","locality":"Borkheide","municipality":{"key":"12069052","name":"Borkheide","type":"Kreisangehörige_Gemeinde"},"district":{"key":"12069","name":"Potsdam-Mittelmark","type":"Landkreis"},"federalState":{"key":"12","name":"Brandenburg"}},{"name":"Nachtigallenweg","postalCode":"14822","locality":"Borkheide","municipality":{"key":"12069052","name":"Borkheide","type":"Kreisangehörige_Gemeinde"},"district":{"key":"12069","name":"Potsdam-Mittelmark","type":"Landkreis"},"federalState":{"key":"12","name":"Brandenburg"}},{"name":"Neuendorfer Str.","postalCode":"14822","locality":"Borkheide","municipality":{"key":"12069052","name":"Borkheide","type":"Kreisangehörige_Gemeinde"},"district":{"key":"12069","name":"Potsdam-Mittelmark","type":"Landkreis"},"federalState":{"key":"12","name":"Brandenburg"}},{"name":"Neuer Weg","postalCode":"14822","locality":"Borkheide","municipality":{"key":"12069052","name":"Borkheide","type":"Kreisangehörige_Gemeinde"},"district":{"key":"12069","name":"Potsdam-Mittelmark","type":"Landkreis"},"federalState":{"key":"12","name":"Brandenburg"}},{"name":"Norderstr.","postalCode":"14822","locality":"Borkheide","municipality":{"key":"12069052","name":"Borkheide","type":"Kreisangehörige_Gemeinde"},"district":{"key":"12069","name":"Potsdam-Mittelmark","type":"Landkreis"},"federalState":{"key":"12","name":"Brandenburg"}},{"name":"Nordhäuser Str.","postalCode":"14822","locality":"Borkheide","municipality":{"key":"12069052","name":"Borkheide","type":"Kreisangehörige_Gemeinde"},"district":{"key":"12069","name":"Potsdam-Mittelmark","type":"Landkreis"},"federalState":{"key":"12","name":"Brandenburg"}},{"name":"Paradiesweg","postalCode":"14822","locality":"Borkheide","municipality":{"key":"12069052","name":"Borkheide","type":"Kreisangehörige_Gemeinde"},"district":{"key":"12069","name":"Potsdam-Mittelmark","type":"Landkreis"},"federalState":{"key":"12","name":"Brandenburg"}},{"name":"Parkstr.","postalCode":"14822","locality":"Borkheide","municipality":{"key":"12069052","name":"Borkheide","type":"Kreisangehörige_Gemeinde"},"district":{"key":"12069","name":"Potsdam-Mittelmark","type":"Landkreis"},"federalState":{"key":"12","name":"Brandenburg"}},{"name":"Pfifferlingsweg","postalCode":"14822","locality":"Borkheide","municipality":{"key":"12069052","name":"Borkheide","type":"Kreisangehörige_Gemeinde"},"district":{"key":"12069","name":"Potsdam-Mittelmark","type":"Landkreis"},"federalState":{"key":"12","name":"Brandenburg"}},{"name":"Postweg","postalCode":"14822","locality":"Borkheide","municipality":{"key":"12069052","name":"Borkheide","type":"Kreisangehörige_Gemeinde"},"district":{"key":"12069","name":"Potsdam-Mittelmark","type":"Landkreis"},"federalState":{"key":"12","name":"Brandenburg"}},{"name":"Reesdorfer Str.","postalCode":"14822","locality":"Borkheide","municipality":{"key":"12069052","name":"Borkheide","type":"Kreisangehörige_Gemeinde"},"district":{"key":"12069","name":"Potsdam-Mittelmark","type":"Landkreis"},"federalState":{"key":"12","name":"Brandenburg"}},{"name":"Reihersteg","postalCode":"14822","locality":"Borkheide","municipality":{"key":"12069052","name":"Borkheide","type":"Kreisangehörige_Gemeinde"},"district":{"key":"12069","name":"Potsdam-Mittelmark","type":"Landkreis"},"federalState":{"key":"12","name":"Brandenburg"}},{"name":"Ringstr.","postalCode":"14822","locality":"Borkheide","municipality":{"key":"12069052","name":"Borkheide","type":"Kreisangehörige_Gemeinde"},"district":{"key":"12069","name":"Potsdam-Mittelmark","type":"Landkreis"},"federalState":{"key":"12","name":"Brandenburg"}},{"name":"Rosensteg","postalCode":"14822","locality":"Borkheide","municipality":{"key":"12069052","name":"Borkheide","type":"Kreisangehörige_Gemeinde"},"district":{"key":"12069","name":"Potsdam-Mittelmark","type":"Landkreis"},"federalState":{"key":"12","name":"Brandenburg"}},{"name":"Rotdornweg","postalCode":"14822","locality":"Borkheide","municipality":{"key":"12069052","name":"Borkheide","type":"Kreisangehörige_Gemeinde"},"district":{"key":"12069","name":"Potsdam-Mittelmark","type":"Landkreis"},"federalState":{"key":"12","name":"Brandenburg"}},{"name":"Rotkappenweg","postalCode":"14822","locality":"Borkheide","municipality":{"key":"12069052","name":"Borkheide","type":"Kreisangehörige_Gemeinde"},"district":{"key":"12069","name":"Potsdam-Mittelmark","type":"Landkreis"},"federalState":{"key":"12","name":"Brandenburg"}},{"name":"Rotkehlchenweg","postalCode":"14822","locality":"Borkheide","municipality":{"key":"12069052","name":"Borkheide","type":"Kreisangehörige_Gemeinde"},"district":{"key":"12069","name":"Potsdam-Mittelmark","type":"Landkreis"},"federalState":{"key":"12","name":"Brandenburg"}},{"name":"Rummelsborner Weg","postalCode":"14822","locality":"Borkheide","municipality":{"key":"12069052","name":"Borkheide","type":"Kreisangehörige_Gemeinde"},"district":{"key":"12069","name":"Potsdam-Mittelmark","type":"Landkreis"},"federalState":{"key":"12","name":"Brandenburg"}},{"name":"Salzbrunner Str.","postalCode":"14822","locality":"Borkheide","municipality":{"key":"12069052","name":"Borkheide","type":"Kreisangehörige_Gemeinde"},"district":{"key":"12069","name":"Potsdam-Mittelmark","type":"Landkreis"},"federalState":{"key":"12","name":"Brandenburg"}},{"name":"Sandweg","postalCode":"14822","locality":"Borkheide","municipality":{"key":"12069052","name":"Borkheide","type":"Kreisangehörige_Gemeinde"},"district":{"key":"12069","name":"Potsdam-Mittelmark","type":"Landkreis"},"federalState":{"key":"12","name":"Brandenburg"}},{"name":"Schäper Str.","postalCode":"14822","locality":"Borkheide","municipality":{"key":"12069052","name":"Borkheide","type":"Kreisangehörige_Gemeinde"},"district":{"key":"12069","name":"Potsdam-Mittelmark","type":"Landkreis"},"federalState":{"key":"12","name":"Brandenburg"}},{"name":"Schirmpilzweg","postalCode":"14822","locality":"Borkheide","municipality":{"key":"12069052","name":"Borkheide","type":"Kreisangehörige_Gemeinde"},"district":{"key":"12069","name":"Potsdam-Mittelmark","type":"Landkreis"},"federalState":{"key":"12","name":"Brandenburg"}},{"name":"Spatzenweg","postalCode":"14822","locality":"Borkheide","municipality":{"key":"12069052","name":"Borkheide","type":"Kreisangehörige_Gemeinde"},"district":{"key":"12069","name":"Potsdam-Mittelmark","type":"Landkreis"},"federalState":{"key":"12","name":"Brandenburg"}},{"name":"Sperlingslust","postalCode":"14822","locality":"Borkheide","municipality":{"key":"12069052","name":"Borkheide","type":"Kreisangehörige_Gemeinde"},"district":{"key":"12069","name":"Potsdam-Mittelmark","type":"Landkreis"},"federalState":{"key":"12","name":"Brandenburg"}},{"name":"Steinpilzweg","postalCode":"14822","locality":"Borkheide","municipality":{"key":"12069052","name":"Borkheide","type":"Kreisangehörige_Gemeinde"},"district":{"key":"12069","name":"Potsdam-Mittelmark","type":"Landkreis"},"federalState":{"key":"12","name":"Brandenburg"}},{"name":"Steinstr.","postalCode":"14822","locality":"Borkheide","municipality":{"key":"12069052","name":"Borkheide","type":"Kreisangehörige_Gemeinde"},"district":{"key":"12069","name":"Potsdam-Mittelmark","type":"Landkreis"},"federalState":{"key":"12","name":"Brandenburg"}},{"name":"Str. des Friedens","postalCode":"14822","locality":"Borkheide","municipality":{"key":"12069052","name":"Borkheide","type":"Kreisangehörige_Gemeinde"},"district":{"key":"12069","name":"Potsdam-Mittelmark","type":"Landkreis"},"federalState":{"key":"12","name":"Brandenburg"}},{"name":"Tannenallee","postalCode":"14822","locality":"Borkheide","municipality":{"key":"12069052","name":"Borkheide","type":"Kreisangehörige_Gemeinde"},"district":{"key":"12069","name":"Potsdam-Mittelmark","type":"Landkreis"},"federalState":{"key":"12","name":"Brandenburg"}},{"name":"Tränkeweg","postalCode":"14822","locality":"Borkheide","municipality":{"key":"12069052","name":"Borkheide","type":"Kreisangehörige_Gemeinde"},"district":{"key":"12069","name":"Potsdam-Mittelmark","type":"Landkreis"},"federalState":{"key":"12","name":"Brandenburg"}},{"name":"Turnieraue","postalCode":"14822","locality":"Borkheide","municipality":{"key":"12069052","name":"Borkheide","type":"Kreisangehörige_Gemeinde"},"district":{"key":"12069","name":"Potsdam-Mittelmark","type":"Landkreis"},"federalState":{"key":"12","name":"Brandenburg"}},{"name":"Ulmenweg","postalCode":"14822","locality":"Borkheide","municipality":{"key":"12069052","name":"Borkheide","type":"Kreisangehörige_Gemeinde"},"district":{"key":"12069","name":"Potsdam-Mittelmark","type":"Landkreis"},"federalState":{"key":"12","name":"Brandenburg"}},{"name":"Wacholdersteig","postalCode":"14822","locality":"Borkheide","municipality":{"key":"12069052","name":"Borkheide","type":"Kreisangehörige_Gemeinde"},"district":{"key":"12069","name":"Potsdam-Mittelmark","type":"Landkreis"},"federalState":{"key":"12","name":"Brandenburg"}},{"name":"Waldhof","postalCode":"14822","locality":"Borkheide","municipality":{"key":"12069052","name":"Borkheide","type":"Kreisangehörige_Gemeinde"},"district":{"key":"12069","name":"Potsdam-Mittelmark","type":"Landkreis"},"federalState":{"key":"12","name":"Brandenburg"}},{"name":"Waldweg","postalCode":"14822","locality":"Borkheide","municipality":{"key":"12069052","name":"Borkheide","type":"Kreisangehörige_Gemeinde"},"district":{"key":"12069","name":"Potsdam-Mittelmark","type":"Landkreis"},"federalState":{"key":"12","name":"Brandenburg"}},{"name":"Wurzelweg","postalCode":"14822","locality":"Borkheide","municipality":{"key":"12069052","name":"Borkheide","type":"Kreisangehörige_Gemeinde"},"district":{"key":"12069","name":"Potsdam-Mittelmark","type":"Landkreis"},"federalState":{"key":"12","name":"Brandenburg"}},]