[{"name":"Adlergasse","postalCode":"72362","locality":"Nusplingen","municipality":{"key":"08417045","name":"Nusplingen","type":"Kreisangehörige_Gemeinde"},"district":{"key":"08417","name":"Zollernalbkreis","type":"Landkreis"},"federalState":{"key":"08","name":"Baden-Württemberg"}},{"name":"Albstr.","postalCode":"72362","locality":"Nusplingen","municipality":{"key":"08417045","name":"Nusplingen","type":"Kreisangehörige_Gemeinde"},"district":{"key":"08417","name":"Zollernalbkreis","type":"Landkreis"},"federalState":{"key":"08","name":"Baden-Württemberg"}},{"name":"Alemannenstr.","postalCode":"72362","locality":"Nusplingen","municipality":{"key":"08417045","name":"Nusplingen","type":"Kreisangehörige_Gemeinde"},"district":{"key":"08417","name":"Zollernalbkreis","type":"Landkreis"},"federalState":{"key":"08","name":"Baden-Württemberg"}},{"name":"Alter Salhaldenweg","postalCode":"72362","locality":"Nusplingen","municipality":{"key":"08417045","name":"Nusplingen","type":"Kreisangehörige_Gemeinde"},"district":{"key":"08417","name":"Zollernalbkreis","type":"Landkreis"},"federalState":{"key":"08","name":"Baden-Württemberg"}},{"name":"Am Abendbach","postalCode":"72362","locality":"Nusplingen","municipality":{"key":"08417045","name":"Nusplingen","type":"Kreisangehörige_Gemeinde"},"district":{"key":"08417","name":"Zollernalbkreis","type":"Landkreis"},"federalState":{"key":"08","name":"Baden-Württemberg"}},{"name":"Am Bühl","postalCode":"72362","locality":"Nusplingen","municipality":{"key":"08417045","name":"Nusplingen","type":"Kreisangehörige_Gemeinde"},"district":{"key":"08417","name":"Zollernalbkreis","type":"Landkreis"},"federalState":{"key":"08","name":"Baden-Württemberg"}},{"name":"Am Eschle","postalCode":"72362","locality":"Nusplingen","municipality":{"key":"08417045","name":"Nusplingen","type":"Kreisangehörige_Gemeinde"},"district":{"key":"08417","name":"Zollernalbkreis","type":"Landkreis"},"federalState":{"key":"08","name":"Baden-Württemberg"}},{"name":"Am Kreuzle","postalCode":"72362","locality":"Nusplingen","municipality":{"key":"08417045","name":"Nusplingen","type":"Kreisangehörige_Gemeinde"},"district":{"key":"08417","name":"Zollernalbkreis","type":"Landkreis"},"federalState":{"key":"08","name":"Baden-Württemberg"}},{"name":"Am Scheibenbühl","postalCode":"72362","locality":"Nusplingen","municipality":{"key":"08417045","name":"Nusplingen","type":"Kreisangehörige_Gemeinde"},"district":{"key":"08417","name":"Zollernalbkreis","type":"Landkreis"},"federalState":{"key":"08","name":"Baden-Württemberg"}},{"name":"An der Breite","postalCode":"72362","locality":"Nusplingen","municipality":{"key":"08417045","name":"Nusplingen","type":"Kreisangehörige_Gemeinde"},"district":{"key":"08417","name":"Zollernalbkreis","type":"Landkreis"},"federalState":{"key":"08","name":"Baden-Württemberg"}},{"name":"An der Rakenhalde","postalCode":"72362","locality":"Nusplingen","municipality":{"key":"08417045","name":"Nusplingen","type":"Kreisangehörige_Gemeinde"},"district":{"key":"08417","name":"Zollernalbkreis","type":"Landkreis"},"federalState":{"key":"08","name":"Baden-Württemberg"}},{"name":"Auweg","postalCode":"72362","locality":"Nusplingen","municipality":{"key":"08417045","name":"Nusplingen","type":"Kreisangehörige_Gemeinde"},"district":{"key":"08417","name":"Zollernalbkreis","type":"Landkreis"},"federalState":{"key":"08","name":"Baden-Württemberg"}},{"name":"Bärastr.","postalCode":"72362","locality":"Nusplingen","municipality":{"key":"08417045","name":"Nusplingen","type":"Kreisangehörige_Gemeinde"},"district":{"key":"08417","name":"Zollernalbkreis","type":"Landkreis"},"federalState":{"key":"08","name":"Baden-Württemberg"}},{"name":"Beim Heidenstädter Eschle","postalCode":"72362","locality":"Nusplingen","municipality":{"key":"08417045","name":"Nusplingen","type":"Kreisangehörige_Gemeinde"},"district":{"key":"08417","name":"Zollernalbkreis","type":"Landkreis"},"federalState":{"key":"08","name":"Baden-Württemberg"}},{"name":"Bergstr.","postalCode":"72362","locality":"Nusplingen","municipality":{"key":"08417045","name":"Nusplingen","type":"Kreisangehörige_Gemeinde"},"district":{"key":"08417","name":"Zollernalbkreis","type":"Landkreis"},"federalState":{"key":"08","name":"Baden-Württemberg"}},{"name":"Blumenstr.","postalCode":"72362","locality":"Nusplingen","municipality":{"key":"08417045","name":"Nusplingen","type":"Kreisangehörige_Gemeinde"},"district":{"key":"08417","name":"Zollernalbkreis","type":"Landkreis"},"federalState":{"key":"08","name":"Baden-Württemberg"}},{"name":"Buchhalde","postalCode":"72362","locality":"Nusplingen","municipality":{"key":"08417045","name":"Nusplingen","type":"Kreisangehörige_Gemeinde"},"district":{"key":"08417","name":"Zollernalbkreis","type":"Landkreis"},"federalState":{"key":"08","name":"Baden-Württemberg"}},{"name":"Burgstr.","postalCode":"72362","locality":"Nusplingen","municipality":{"key":"08417045","name":"Nusplingen","type":"Kreisangehörige_Gemeinde"},"district":{"key":"08417","name":"Zollernalbkreis","type":"Landkreis"},"federalState":{"key":"08","name":"Baden-Württemberg"}},{"name":"Dellerhofen","postalCode":"72362","locality":"Nusplingen","municipality":{"key":"08417045","name":"Nusplingen","type":"Kreisangehörige_Gemeinde"},"district":{"key":"08417","name":"Zollernalbkreis","type":"Landkreis"},"federalState":{"key":"08","name":"Baden-Württemberg"}},{"name":"Dietstaig","postalCode":"72362","locality":"Nusplingen","municipality":{"key":"08417045","name":"Nusplingen","type":"Kreisangehörige_Gemeinde"},"district":{"key":"08417","name":"Zollernalbkreis","type":"Landkreis"},"federalState":{"key":"08","name":"Baden-Württemberg"}},{"name":"Dietsteinweg","postalCode":"72362","locality":"Nusplingen","municipality":{"key":"08417045","name":"Nusplingen","type":"Kreisangehörige_Gemeinde"},"district":{"key":"08417","name":"Zollernalbkreis","type":"Landkreis"},"federalState":{"key":"08","name":"Baden-Württemberg"}},{"name":"Eichhalde","postalCode":"72362","locality":"Nusplingen","municipality":{"key":"08417045","name":"Nusplingen","type":"Kreisangehörige_Gemeinde"},"district":{"key":"08417","name":"Zollernalbkreis","type":"Landkreis"},"federalState":{"key":"08","name":"Baden-Württemberg"}},{"name":"Einfang","postalCode":"72362","locality":"Nusplingen","municipality":{"key":"08417045","name":"Nusplingen","type":"Kreisangehörige_Gemeinde"},"district":{"key":"08417","name":"Zollernalbkreis","type":"Landkreis"},"federalState":{"key":"08","name":"Baden-Württemberg"}},{"name":"Freudenweiler","postalCode":"72362","locality":"Nusplingen","municipality":{"key":"08417045","name":"Nusplingen","type":"Kreisangehörige_Gemeinde"},"district":{"key":"08417","name":"Zollernalbkreis","type":"Landkreis"},"federalState":{"key":"08","name":"Baden-Württemberg"}},{"name":"Friedhofstr.","postalCode":"72362","locality":"Nusplingen","municipality":{"key":"08417045","name":"Nusplingen","type":"Kreisangehörige_Gemeinde"},"district":{"key":"08417","name":"Zollernalbkreis","type":"Landkreis"},"federalState":{"key":"08","name":"Baden-Württemberg"}},{"name":"Gartenweg","postalCode":"72362","locality":"Nusplingen","municipality":{"key":"08417045","name":"Nusplingen","type":"Kreisangehörige_Gemeinde"},"district":{"key":"08417","name":"Zollernalbkreis","type":"Landkreis"},"federalState":{"key":"08","name":"Baden-Württemberg"}},{"name":"Gerhardsbühl","postalCode":"72362","locality":"Nusplingen","municipality":{"key":"08417045","name":"Nusplingen","type":"Kreisangehörige_Gemeinde"},"district":{"key":"08417","name":"Zollernalbkreis","type":"Landkreis"},"federalState":{"key":"08","name":"Baden-Württemberg"}},{"name":"Grabenstr.","postalCode":"72362","locality":"Nusplingen","municipality":{"key":"08417045","name":"Nusplingen","type":"Kreisangehörige_Gemeinde"},"district":{"key":"08417","name":"Zollernalbkreis","type":"Landkreis"},"federalState":{"key":"08","name":"Baden-Württemberg"}},{"name":"Harthöfe","postalCode":"72362","locality":"Nusplingen","municipality":{"key":"08417045","name":"Nusplingen","type":"Kreisangehörige_Gemeinde"},"district":{"key":"08417","name":"Zollernalbkreis","type":"Landkreis"},"federalState":{"key":"08","name":"Baden-Württemberg"}},{"name":"Hartsteige","postalCode":"72362","locality":"Nusplingen","municipality":{"key":"08417045","name":"Nusplingen","type":"Kreisangehörige_Gemeinde"},"district":{"key":"08417","name":"Zollernalbkreis","type":"Landkreis"},"federalState":{"key":"08","name":"Baden-Württemberg"}},{"name":"Hirtenweg","postalCode":"72362","locality":"Nusplingen","municipality":{"key":"08417045","name":"Nusplingen","type":"Kreisangehörige_Gemeinde"},"district":{"key":"08417","name":"Zollernalbkreis","type":"Landkreis"},"federalState":{"key":"08","name":"Baden-Württemberg"}},{"name":"Hohenbergstr.","postalCode":"72362","locality":"Nusplingen","municipality":{"key":"08417045","name":"Nusplingen","type":"Kreisangehörige_Gemeinde"},"district":{"key":"08417","name":"Zollernalbkreis","type":"Landkreis"},"federalState":{"key":"08","name":"Baden-Württemberg"}},{"name":"Höhenweg","postalCode":"72362","locality":"Nusplingen","municipality":{"key":"08417045","name":"Nusplingen","type":"Kreisangehörige_Gemeinde"},"district":{"key":"08417","name":"Zollernalbkreis","type":"Landkreis"},"federalState":{"key":"08","name":"Baden-Württemberg"}},{"name":"Hölderlinstr.","postalCode":"72362","locality":"Nusplingen","municipality":{"key":"08417045","name":"Nusplingen","type":"Kreisangehörige_Gemeinde"},"district":{"key":"08417","name":"Zollernalbkreis","type":"Landkreis"},"federalState":{"key":"08","name":"Baden-Württemberg"}},{"name":"Hornewinkel","postalCode":"72362","locality":"Nusplingen","municipality":{"key":"08417045","name":"Nusplingen","type":"Kreisangehörige_Gemeinde"},"district":{"key":"08417","name":"Zollernalbkreis","type":"Landkreis"},"federalState":{"key":"08","name":"Baden-Württemberg"}},{"name":"Hutzelgasse","postalCode":"72362","locality":"Nusplingen","municipality":{"key":"08417045","name":"Nusplingen","type":"Kreisangehörige_Gemeinde"},"district":{"key":"08417","name":"Zollernalbkreis","type":"Landkreis"},"federalState":{"key":"08","name":"Baden-Württemberg"}},{"name":"Im Heckental","postalCode":"72362","locality":"Nusplingen","municipality":{"key":"08417045","name":"Nusplingen","type":"Kreisangehörige_Gemeinde"},"district":{"key":"08417","name":"Zollernalbkreis","type":"Landkreis"},"federalState":{"key":"08","name":"Baden-Württemberg"}},{"name":"Kachlental","postalCode":"72362","locality":"Nusplingen","municipality":{"key":"08417045","name":"Nusplingen","type":"Kreisangehörige_Gemeinde"},"district":{"key":"08417","name":"Zollernalbkreis","type":"Landkreis"},"federalState":{"key":"08","name":"Baden-Württemberg"}},{"name":"Kanalstr.","postalCode":"72362","locality":"Nusplingen","municipality":{"key":"08417045","name":"Nusplingen","type":"Kreisangehörige_Gemeinde"},"district":{"key":"08417","name":"Zollernalbkreis","type":"Landkreis"},"federalState":{"key":"08","name":"Baden-Württemberg"}},{"name":"Kapellentorstr.","postalCode":"72362","locality":"Nusplingen","municipality":{"key":"08417045","name":"Nusplingen","type":"Kreisangehörige_Gemeinde"},"district":{"key":"08417","name":"Zollernalbkreis","type":"Landkreis"},"federalState":{"key":"08","name":"Baden-Württemberg"}},{"name":"Kirchgasse","postalCode":"72362","locality":"Nusplingen","municipality":{"key":"08417045","name":"Nusplingen","type":"Kreisangehörige_Gemeinde"},"district":{"key":"08417","name":"Zollernalbkreis","type":"Landkreis"},"federalState":{"key":"08","name":"Baden-Württemberg"}},{"name":"Kirchwiesenstr.","postalCode":"72362","locality":"Nusplingen","municipality":{"key":"08417045","name":"Nusplingen","type":"Kreisangehörige_Gemeinde"},"district":{"key":"08417","name":"Zollernalbkreis","type":"Landkreis"},"federalState":{"key":"08","name":"Baden-Württemberg"}},{"name":"Kotzbuckel","postalCode":"72362","locality":"Nusplingen","municipality":{"key":"08417045","name":"Nusplingen","type":"Kreisangehörige_Gemeinde"},"district":{"key":"08417","name":"Zollernalbkreis","type":"Landkreis"},"federalState":{"key":"08","name":"Baden-Württemberg"}},{"name":"Lange Halde","postalCode":"72362","locality":"Nusplingen","municipality":{"key":"08417045","name":"Nusplingen","type":"Kreisangehörige_Gemeinde"},"district":{"key":"08417","name":"Zollernalbkreis","type":"Landkreis"},"federalState":{"key":"08","name":"Baden-Württemberg"}},{"name":"Marktplatz","postalCode":"72362","locality":"Nusplingen","municipality":{"key":"08417045","name":"Nusplingen","type":"Kreisangehörige_Gemeinde"},"district":{"key":"08417","name":"Zollernalbkreis","type":"Landkreis"},"federalState":{"key":"08","name":"Baden-Württemberg"}},{"name":"Mörikestr.","postalCode":"72362","locality":"Nusplingen","municipality":{"key":"08417045","name":"Nusplingen","type":"Kreisangehörige_Gemeinde"},"district":{"key":"08417","name":"Zollernalbkreis","type":"Landkreis"},"federalState":{"key":"08","name":"Baden-Württemberg"}},{"name":"Mühlstr.","postalCode":"72362","locality":"Nusplingen","municipality":{"key":"08417045","name":"Nusplingen","type":"Kreisangehörige_Gemeinde"},"district":{"key":"08417","name":"Zollernalbkreis","type":"Landkreis"},"federalState":{"key":"08","name":"Baden-Württemberg"}},{"name":"Nusplinger Str.","postalCode":"72362","locality":"Nusplingen","municipality":{"key":"08417045","name":"Nusplingen","type":"Kreisangehörige_Gemeinde"},"district":{"key":"08417","name":"Zollernalbkreis","type":"Landkreis"},"federalState":{"key":"08","name":"Baden-Württemberg"}},{"name":"Ob dem Brünnle","postalCode":"72362","locality":"Nusplingen","municipality":{"key":"08417045","name":"Nusplingen","type":"Kreisangehörige_Gemeinde"},"district":{"key":"08417","name":"Zollernalbkreis","type":"Landkreis"},"federalState":{"key":"08","name":"Baden-Württemberg"}},{"name":"Ob dem Heckental","postalCode":"72362","locality":"Nusplingen","municipality":{"key":"08417045","name":"Nusplingen","type":"Kreisangehörige_Gemeinde"},"district":{"key":"08417","name":"Zollernalbkreis","type":"Landkreis"},"federalState":{"key":"08","name":"Baden-Württemberg"}},{"name":"Obere Kirchstr.","postalCode":"72362","locality":"Nusplingen","municipality":{"key":"08417045","name":"Nusplingen","type":"Kreisangehörige_Gemeinde"},"district":{"key":"08417","name":"Zollernalbkreis","type":"Landkreis"},"federalState":{"key":"08","name":"Baden-Württemberg"}},{"name":"Oberer Langehaldenweg","postalCode":"72362","locality":"Nusplingen","municipality":{"key":"08417045","name":"Nusplingen","type":"Kreisangehörige_Gemeinde"},"district":{"key":"08417","name":"Zollernalbkreis","type":"Landkreis"},"federalState":{"key":"08","name":"Baden-Württemberg"}},{"name":"Oberes Tor","postalCode":"72362","locality":"Nusplingen","municipality":{"key":"08417045","name":"Nusplingen","type":"Kreisangehörige_Gemeinde"},"district":{"key":"08417","name":"Zollernalbkreis","type":"Landkreis"},"federalState":{"key":"08","name":"Baden-Württemberg"}},{"name":"Oberholzweg","postalCode":"72362","locality":"Nusplingen","municipality":{"key":"08417045","name":"Nusplingen","type":"Kreisangehörige_Gemeinde"},"district":{"key":"08417","name":"Zollernalbkreis","type":"Landkreis"},"federalState":{"key":"08","name":"Baden-Württemberg"}},{"name":"Panoramastr.","postalCode":"72362","locality":"Nusplingen","municipality":{"key":"08417045","name":"Nusplingen","type":"Kreisangehörige_Gemeinde"},"district":{"key":"08417","name":"Zollernalbkreis","type":"Landkreis"},"federalState":{"key":"08","name":"Baden-Württemberg"}},{"name":"Rathausgasse","postalCode":"72362","locality":"Nusplingen","municipality":{"key":"08417045","name":"Nusplingen","type":"Kreisangehörige_Gemeinde"},"district":{"key":"08417","name":"Zollernalbkreis","type":"Landkreis"},"federalState":{"key":"08","name":"Baden-Württemberg"}},{"name":"Remelen","postalCode":"72362","locality":"Nusplingen","municipality":{"key":"08417045","name":"Nusplingen","type":"Kreisangehörige_Gemeinde"},"district":{"key":"08417","name":"Zollernalbkreis","type":"Landkreis"},"federalState":{"key":"08","name":"Baden-Württemberg"}},{"name":"Römerweg","postalCode":"72362","locality":"Nusplingen","municipality":{"key":"08417045","name":"Nusplingen","type":"Kreisangehörige_Gemeinde"},"district":{"key":"08417","name":"Zollernalbkreis","type":"Landkreis"},"federalState":{"key":"08","name":"Baden-Württemberg"}},{"name":"Rosengarten","postalCode":"72362","locality":"Nusplingen","municipality":{"key":"08417045","name":"Nusplingen","type":"Kreisangehörige_Gemeinde"},"district":{"key":"08417","name":"Zollernalbkreis","type":"Landkreis"},"federalState":{"key":"08","name":"Baden-Württemberg"}},{"name":"Roßhalde","postalCode":"72362","locality":"Nusplingen","municipality":{"key":"08417045","name":"Nusplingen","type":"Kreisangehörige_Gemeinde"},"district":{"key":"08417","name":"Zollernalbkreis","type":"Landkreis"},"federalState":{"key":"08","name":"Baden-Württemberg"}},{"name":"Roßsteige","postalCode":"72362","locality":"Nusplingen","municipality":{"key":"08417045","name":"Nusplingen","type":"Kreisangehörige_Gemeinde"},"district":{"key":"08417","name":"Zollernalbkreis","type":"Landkreis"},"federalState":{"key":"08","name":"Baden-Württemberg"}},{"name":"Salhalde","postalCode":"72362","locality":"Nusplingen","municipality":{"key":"08417045","name":"Nusplingen","type":"Kreisangehörige_Gemeinde"},"district":{"key":"08417","name":"Zollernalbkreis","type":"Landkreis"},"federalState":{"key":"08","name":"Baden-Württemberg"}},{"name":"Schillerstr.","postalCode":"72362","locality":"Nusplingen","municipality":{"key":"08417045","name":"Nusplingen","type":"Kreisangehörige_Gemeinde"},"district":{"key":"08417","name":"Zollernalbkreis","type":"Landkreis"},"federalState":{"key":"08","name":"Baden-Württemberg"}},{"name":"Schulstr.","postalCode":"72362","locality":"Nusplingen","municipality":{"key":"08417045","name":"Nusplingen","type":"Kreisangehörige_Gemeinde"},"district":{"key":"08417","name":"Zollernalbkreis","type":"Landkreis"},"federalState":{"key":"08","name":"Baden-Württemberg"}},{"name":"Silcherstr.","postalCode":"72362","locality":"Nusplingen","municipality":{"key":"08417045","name":"Nusplingen","type":"Kreisangehörige_Gemeinde"},"district":{"key":"08417","name":"Zollernalbkreis","type":"Landkreis"},"federalState":{"key":"08","name":"Baden-Württemberg"}},{"name":"Steighaus","postalCode":"72362","locality":"Nusplingen","municipality":{"key":"08417045","name":"Nusplingen","type":"Kreisangehörige_Gemeinde"},"district":{"key":"08417","name":"Zollernalbkreis","type":"Landkreis"},"federalState":{"key":"08","name":"Baden-Württemberg"}},{"name":"Stettäckerstr.","postalCode":"72362","locality":"Nusplingen","municipality":{"key":"08417045","name":"Nusplingen","type":"Kreisangehörige_Gemeinde"},"district":{"key":"08417","name":"Zollernalbkreis","type":"Landkreis"},"federalState":{"key":"08","name":"Baden-Württemberg"}},{"name":"Talstr.","postalCode":"72362","locality":"Nusplingen","municipality":{"key":"08417045","name":"Nusplingen","type":"Kreisangehörige_Gemeinde"},"district":{"key":"08417","name":"Zollernalbkreis","type":"Landkreis"},"federalState":{"key":"08","name":"Baden-Württemberg"}},{"name":"Tannenfelsstr.","postalCode":"72362","locality":"Nusplingen","municipality":{"key":"08417045","name":"Nusplingen","type":"Kreisangehörige_Gemeinde"},"district":{"key":"08417","name":"Zollernalbkreis","type":"Landkreis"},"federalState":{"key":"08","name":"Baden-Württemberg"}},{"name":"Tellenweg","postalCode":"72362","locality":"Nusplingen","municipality":{"key":"08417045","name":"Nusplingen","type":"Kreisangehörige_Gemeinde"},"district":{"key":"08417","name":"Zollernalbkreis","type":"Landkreis"},"federalState":{"key":"08","name":"Baden-Württemberg"}},{"name":"Theodor-Groz-Str.","postalCode":"72362","locality":"Nusplingen","municipality":{"key":"08417045","name":"Nusplingen","type":"Kreisangehörige_Gemeinde"},"district":{"key":"08417","name":"Zollernalbkreis","type":"Landkreis"},"federalState":{"key":"08","name":"Baden-Württemberg"}},{"name":"Uhlandstr.","postalCode":"72362","locality":"Nusplingen","municipality":{"key":"08417045","name":"Nusplingen","type":"Kreisangehörige_Gemeinde"},"district":{"key":"08417","name":"Zollernalbkreis","type":"Landkreis"},"federalState":{"key":"08","name":"Baden-Württemberg"}},{"name":"Unter dem Staufenberg","postalCode":"72362","locality":"Nusplingen","municipality":{"key":"08417045","name":"Nusplingen","type":"Kreisangehörige_Gemeinde"},"district":{"key":"08417","name":"Zollernalbkreis","type":"Landkreis"},"federalState":{"key":"08","name":"Baden-Württemberg"}},{"name":"Untere Kirchstr.","postalCode":"72362","locality":"Nusplingen","municipality":{"key":"08417045","name":"Nusplingen","type":"Kreisangehörige_Gemeinde"},"district":{"key":"08417","name":"Zollernalbkreis","type":"Landkreis"},"federalState":{"key":"08","name":"Baden-Württemberg"}},{"name":"Vorderer Buchweg","postalCode":"72362","locality":"Nusplingen","municipality":{"key":"08417045","name":"Nusplingen","type":"Kreisangehörige_Gemeinde"},"district":{"key":"08417","name":"Zollernalbkreis","type":"Landkreis"},"federalState":{"key":"08","name":"Baden-Württemberg"}},{"name":"Vorstadt","postalCode":"72362","locality":"Nusplingen","municipality":{"key":"08417045","name":"Nusplingen","type":"Kreisangehörige_Gemeinde"},"district":{"key":"08417","name":"Zollernalbkreis","type":"Landkreis"},"federalState":{"key":"08","name":"Baden-Württemberg"}},{"name":"Weinbergstr.","postalCode":"72362","locality":"Nusplingen","municipality":{"key":"08417045","name":"Nusplingen","type":"Kreisangehörige_Gemeinde"},"district":{"key":"08417","name":"Zollernalbkreis","type":"Landkreis"},"federalState":{"key":"08","name":"Baden-Württemberg"}},{"name":"Wolfgasse","postalCode":"72362","locality":"Nusplingen","municipality":{"key":"08417045","name":"Nusplingen","type":"Kreisangehörige_Gemeinde"},"district":{"key":"08417","name":"Zollernalbkreis","type":"Landkreis"},"federalState":{"key":"08","name":"Baden-Württemberg"}},]