[{"key":"10251608","name":"Dorfweg","postalCode":"3983","locality":"Bister","commune":{"key":"6172","name":"Bister","shortName":"Bister"},"district":{"key":"2309","name":"Bezirk Raron"},"canton":{"key":"23","code":"VS","name":"Valais / Wallis"},"status":"Real"},{"key":"10236563","name":"Felscherweg","postalCode":"3983","locality":"Bister","commune":{"key":"6172","name":"Bister","shortName":"Bister"},"district":{"key":"2309","name":"Bezirk Raron"},"canton":{"key":"23","code":"VS","name":"Valais / Wallis"},"status":"Real"},{"key":"10236567","name":"Grengiolsstrasse","postalCode":"3983","locality":"Bister","commune":{"key":"6172","name":"Bister","shortName":"Bister"},"district":{"key":"2309","name":"Bezirk Raron"},"canton":{"key":"23","code":"VS","name":"Valais / Wallis"},"status":"Real"},{"key":"10237120","name":"Heerstrasse","postalCode":"3983","locality":"Bister","commune":{"key":"6172","name":"Bister","shortName":"Bister"},"district":{"key":"2309","name":"Bezirk Raron"},"canton":{"key":"23","code":"VS","name":"Valais / Wallis"},"status":"Real"},{"key":"10236575","name":"Kantonsstrasse","postalCode":"3983","locality":"Bister","commune":{"key":"6172","name":"Bister","shortName":"Bister"},"district":{"key":"2309","name":"Bezirk Raron"},"canton":{"key":"23","code":"VS","name":"Valais / Wallis"},"status":"Real"},{"key":"10251610","name":"Kapellebreite","postalCode":"3983","locality":"Bister","commune":{"key":"6172","name":"Bister","shortName":"Bister"},"district":{"key":"2309","name":"Bezirk Raron"},"canton":{"key":"23","code":"VS","name":"Valais / Wallis"},"status":"Real"},{"key":"10251609","name":"Oberer Eggaweg","postalCode":"3983","locality":"Bister","commune":{"key":"6172","name":"Bister","shortName":"Bister"},"district":{"key":"2309","name":"Bezirk Raron"},"canton":{"key":"23","code":"VS","name":"Valais / Wallis"},"status":"Real"},{"key":"10236579","name":"Stutzweg","postalCode":"3983","locality":"Bister","commune":{"key":"6172","name":"Bister","shortName":"Bister"},"district":{"key":"2309","name":"Bezirk Raron"},"canton":{"key":"23","code":"VS","name":"Valais / Wallis"},"status":"Real"},{"key":"10251607","name":"Unterer Eggaweg","postalCode":"3983","locality":"Bister","commune":{"key":"6172","name":"Bister","shortName":"Bister"},"district":{"key":"2309","name":"Bezirk Raron"},"canton":{"key":"23","code":"VS","name":"Valais / Wallis"},"status":"Real"},]