[{"key":"10043904","name":"Au Grand Marais","postalCode":"1144","locality":"Ballens","commune":{"key":"5423","name":"Ballens","shortName":"Ballens"},"district":{"key":"2227","name":"District de Morges"},"canton":{"key":"22","code":"VD","name":"Vaud"},"status":"Real"},{"key":"10043906","name":"Chemin de la Bréfélaz","postalCode":"1144","locality":"Ballens","commune":{"key":"5423","name":"Ballens","shortName":"Ballens"},"district":{"key":"2227","name":"District de Morges"},"canton":{"key":"22","code":"VD","name":"Vaud"},"status":"Real"},{"key":"10096454","name":"Chemin de la Prélaz","postalCode":"1144","locality":"Ballens","commune":{"key":"5423","name":"Ballens","shortName":"Ballens"},"district":{"key":"2227","name":"District de Morges"},"canton":{"key":"22","code":"VD","name":"Vaud"},"status":"Real"},{"key":"10159030","name":"Chemin de la Raveyre","postalCode":"1144","locality":"Ballens","commune":{"key":"5423","name":"Ballens","shortName":"Ballens"},"district":{"key":"2227","name":"District de Morges"},"canton":{"key":"22","code":"VD","name":"Vaud"},"status":"Real"},{"key":"10060826","name":"Chemin de Long Praz","postalCode":"1144","locality":"Ballens","commune":{"key":"5423","name":"Ballens","shortName":"Ballens"},"district":{"key":"2227","name":"District de Morges"},"canton":{"key":"22","code":"VD","name":"Vaud"},"status":"Real"},{"key":"10079530","name":"Chemin du Montelier","postalCode":"1144","locality":"Ballens","commune":{"key":"5423","name":"Ballens","shortName":"Ballens"},"district":{"key":"2227","name":"District de Morges"},"canton":{"key":"22","code":"VD","name":"Vaud"},"status":"Real"},{"key":"10165386","name":"En Biolley","postalCode":"1144","locality":"Ballens","commune":{"key":"5423","name":"Ballens","shortName":"Ballens"},"district":{"key":"2227","name":"District de Morges"},"canton":{"key":"22","code":"VD","name":"Vaud"},"status":"Real"},{"key":"10043905","name":"Froideville","postalCode":"1144","locality":"Ballens","commune":{"key":"5423","name":"Ballens","shortName":"Ballens"},"district":{"key":"2227","name":"District de Morges"},"canton":{"key":"22","code":"VD","name":"Vaud"},"status":"Real"},{"key":"10177994","name":"Impasse du Carraboré","postalCode":"1144","locality":"Ballens","commune":{"key":"5423","name":"Ballens","shortName":"Ballens"},"district":{"key":"2227","name":"District de Morges"},"canton":{"key":"22","code":"VD","name":"Vaud"},"status":"Real"},{"key":"10107865","name":"La Coudre","postalCode":"1144","locality":"Ballens","commune":{"key":"5423","name":"Ballens","shortName":"Ballens"},"district":{"key":"2227","name":"District de Morges"},"canton":{"key":"22","code":"VD","name":"Vaud"},"status":"Real"},{"key":"10043907","name":"La Vy d'Aubonne","postalCode":"1144","locality":"Ballens","commune":{"key":"5423","name":"Ballens","shortName":"Ballens"},"district":{"key":"2227","name":"District de Morges"},"canton":{"key":"22","code":"VD","name":"Vaud"},"status":"Real"},{"key":"10096455","name":"La Vy de Bière","postalCode":"1144","locality":"Ballens","commune":{"key":"5423","name":"Ballens","shortName":"Ballens"},"district":{"key":"2227","name":"District de Morges"},"canton":{"key":"22","code":"VD","name":"Vaud"},"status":"Real"},{"key":"10079532","name":"La Vy du Veyron","postalCode":"1144","locality":"Ballens","commune":{"key":"5423","name":"Ballens","shortName":"Ballens"},"district":{"key":"2227","name":"District de Morges"},"canton":{"key":"22","code":"VD","name":"Vaud"},"status":"Real"},{"key":"10043908","name":"Le Château","postalCode":"1144","locality":"Ballens","commune":{"key":"5423","name":"Ballens","shortName":"Ballens"},"district":{"key":"2227","name":"District de Morges"},"canton":{"key":"22","code":"VD","name":"Vaud"},"status":"Real"},{"key":"10132184","name":"Les Chaux","postalCode":"1144","locality":"Ballens","commune":{"key":"5423","name":"Ballens","shortName":"Ballens"},"district":{"key":"2227","name":"District de Morges"},"canton":{"key":"22","code":"VD","name":"Vaud"},"status":"Real"},{"key":"10043909","name":"Place du Château","postalCode":"1144","locality":"Ballens","commune":{"key":"5423","name":"Ballens","shortName":"Ballens"},"district":{"key":"2227","name":"District de Morges"},"canton":{"key":"22","code":"VD","name":"Vaud"},"status":"Real"},{"key":"10153367","name":"Place du Village","postalCode":"1144","locality":"Ballens","commune":{"key":"5423","name":"Ballens","shortName":"Ballens"},"district":{"key":"2227","name":"District de Morges"},"canton":{"key":"22","code":"VD","name":"Vaud"},"status":"Real"},{"key":"10043910","name":"Route d'Apples","postalCode":"1144","locality":"Ballens","commune":{"key":"5423","name":"Ballens","shortName":"Ballens"},"district":{"key":"2227","name":"District de Morges"},"canton":{"key":"22","code":"VD","name":"Vaud"},"status":"Real"},{"key":"10116190","name":"Route de L'Isle","postalCode":"1144","locality":"Ballens","commune":{"key":"5423","name":"Ballens","shortName":"Ballens"},"district":{"key":"2227","name":"District de Morges"},"canton":{"key":"22","code":"VD","name":"Vaud"},"status":"Real"},{"key":"10160103","name":"Rue de la Vieille Forge","postalCode":"1144","locality":"Ballens","commune":{"key":"5423","name":"Ballens","shortName":"Ballens"},"district":{"key":"2227","name":"District de Morges"},"canton":{"key":"22","code":"VD","name":"Vaud"},"status":"Real"},{"key":"10106891","name":"Rue du Collège","postalCode":"1144","locality":"Ballens","commune":{"key":"5423","name":"Ballens","shortName":"Ballens"},"district":{"key":"2227","name":"District de Morges"},"canton":{"key":"22","code":"VD","name":"Vaud"},"status":"Real"},{"key":"10160102","name":"Ruelle de l'Eglise","postalCode":"1144","locality":"Ballens","commune":{"key":"5423","name":"Ballens","shortName":"Ballens"},"district":{"key":"2227","name":"District de Morges"},"canton":{"key":"22","code":"VD","name":"Vaud"},"status":"Real"},]