[{"name":"Abstedt","postalCode":"25585","locality":"Lütjenwestedt","municipality":{"key":"01058100","name":"Lütjenwestedt","type":"Kreisangehörige_Gemeinde"},"district":{"key":"01058","name":"Rendsburg-Eckernförde","type":"Kreis"},"federalState":{"key":"01","name":"Schleswig-Holstein"}},{"name":"Baß","postalCode":"25585","locality":"Lütjenwestedt","municipality":{"key":"01058100","name":"Lütjenwestedt","type":"Kreisangehörige_Gemeinde"},"district":{"key":"01058","name":"Rendsburg-Eckernförde","type":"Kreis"},"federalState":{"key":"01","name":"Schleswig-Holstein"}},{"name":"Bergstr.","postalCode":"25585","locality":"Lütjenwestedt","municipality":{"key":"01058100","name":"Lütjenwestedt","type":"Kreisangehörige_Gemeinde"},"district":{"key":"01058","name":"Rendsburg-Eckernförde","type":"Kreis"},"federalState":{"key":"01","name":"Schleswig-Holstein"}},{"name":"Blocksreitdamm","postalCode":"25585","locality":"Lütjenwestedt","municipality":{"key":"01058100","name":"Lütjenwestedt","type":"Kreisangehörige_Gemeinde"},"district":{"key":"01058","name":"Rendsburg-Eckernförde","type":"Kreis"},"federalState":{"key":"01","name":"Schleswig-Holstein"}},{"name":"Born","postalCode":"25585","locality":"Lütjenwestedt","municipality":{"key":"01058100","name":"Lütjenwestedt","type":"Kreisangehörige_Gemeinde"},"district":{"key":"01058","name":"Rendsburg-Eckernförde","type":"Kreis"},"federalState":{"key":"01","name":"Schleswig-Holstein"}},{"name":"Gravenstein","postalCode":"25585","locality":"Lütjenwestedt","municipality":{"key":"01058100","name":"Lütjenwestedt","type":"Kreisangehörige_Gemeinde"},"district":{"key":"01058","name":"Rendsburg-Eckernförde","type":"Kreis"},"federalState":{"key":"01","name":"Schleswig-Holstein"}},{"name":"Hauptstr.","postalCode":"25585","locality":"Lütjenwestedt","municipality":{"key":"01058100","name":"Lütjenwestedt","type":"Kreisangehörige_Gemeinde"},"district":{"key":"01058","name":"Rendsburg-Eckernförde","type":"Kreis"},"federalState":{"key":"01","name":"Schleswig-Holstein"}},{"name":"Helenental","postalCode":"25585","locality":"Lütjenwestedt","municipality":{"key":"01058100","name":"Lütjenwestedt","type":"Kreisangehörige_Gemeinde"},"district":{"key":"01058","name":"Rendsburg-Eckernförde","type":"Kreis"},"federalState":{"key":"01","name":"Schleswig-Holstein"}},{"name":"Im Eck","postalCode":"25585","locality":"Lütjenwestedt","municipality":{"key":"01058100","name":"Lütjenwestedt","type":"Kreisangehörige_Gemeinde"},"district":{"key":"01058","name":"Rendsburg-Eckernförde","type":"Kreis"},"federalState":{"key":"01","name":"Schleswig-Holstein"}},{"name":"Kirchweg","postalCode":"25585","locality":"Lütjenwestedt","municipality":{"key":"01058100","name":"Lütjenwestedt","type":"Kreisangehörige_Gemeinde"},"district":{"key":"01058","name":"Rendsburg-Eckernförde","type":"Kreis"},"federalState":{"key":"01","name":"Schleswig-Holstein"}},{"name":"Kloster","postalCode":"25585","locality":"Lütjenwestedt","municipality":{"key":"01058100","name":"Lütjenwestedt","type":"Kreisangehörige_Gemeinde"},"district":{"key":"01058","name":"Rendsburg-Eckernförde","type":"Kreis"},"federalState":{"key":"01","name":"Schleswig-Holstein"}},{"name":"Klostergang","postalCode":"25585","locality":"Lütjenwestedt","municipality":{"key":"01058100","name":"Lütjenwestedt","type":"Kreisangehörige_Gemeinde"},"district":{"key":"01058","name":"Rendsburg-Eckernförde","type":"Kreis"},"federalState":{"key":"01","name":"Schleswig-Holstein"}},{"name":"Kruschendamm","postalCode":"25585","locality":"Lütjenwestedt","municipality":{"key":"01058100","name":"Lütjenwestedt","type":"Kreisangehörige_Gemeinde"},"district":{"key":"01058","name":"Rendsburg-Eckernförde","type":"Kreis"},"federalState":{"key":"01","name":"Schleswig-Holstein"}},{"name":"Meiereistr.","postalCode":"25585","locality":"Lütjenwestedt","municipality":{"key":"01058100","name":"Lütjenwestedt","type":"Kreisangehörige_Gemeinde"},"district":{"key":"01058","name":"Rendsburg-Eckernförde","type":"Kreis"},"federalState":{"key":"01","name":"Schleswig-Holstein"}},{"name":"Mühlenstr.","postalCode":"25585","locality":"Lütjenwestedt","municipality":{"key":"01058100","name":"Lütjenwestedt","type":"Kreisangehörige_Gemeinde"},"district":{"key":"01058","name":"Rendsburg-Eckernförde","type":"Kreis"},"federalState":{"key":"01","name":"Schleswig-Holstein"}},{"name":"Rosenstr.","postalCode":"25585","locality":"Lütjenwestedt","municipality":{"key":"01058100","name":"Lütjenwestedt","type":"Kreisangehörige_Gemeinde"},"district":{"key":"01058","name":"Rendsburg-Eckernförde","type":"Kreis"},"federalState":{"key":"01","name":"Schleswig-Holstein"}},{"name":"Sackgasse","postalCode":"25585","locality":"Lütjenwestedt","municipality":{"key":"01058100","name":"Lütjenwestedt","type":"Kreisangehörige_Gemeinde"},"district":{"key":"01058","name":"Rendsburg-Eckernförde","type":"Kreis"},"federalState":{"key":"01","name":"Schleswig-Holstein"}},{"name":"Schäphorst","postalCode":"25585","locality":"Lütjenwestedt","municipality":{"key":"01058100","name":"Lütjenwestedt","type":"Kreisangehörige_Gemeinde"},"district":{"key":"01058","name":"Rendsburg-Eckernförde","type":"Kreis"},"federalState":{"key":"01","name":"Schleswig-Holstein"}},{"name":"Schmiedeberg","postalCode":"25585","locality":"Lütjenwestedt","municipality":{"key":"01058100","name":"Lütjenwestedt","type":"Kreisangehörige_Gemeinde"},"district":{"key":"01058","name":"Rendsburg-Eckernförde","type":"Kreis"},"federalState":{"key":"01","name":"Schleswig-Holstein"}},{"name":"Schobeck","postalCode":"25585","locality":"Lütjenwestedt","municipality":{"key":"01058100","name":"Lütjenwestedt","type":"Kreisangehörige_Gemeinde"},"district":{"key":"01058","name":"Rendsburg-Eckernförde","type":"Kreis"},"federalState":{"key":"01","name":"Schleswig-Holstein"}},{"name":"Schulstr.","postalCode":"25585","locality":"Lütjenwestedt","municipality":{"key":"01058100","name":"Lütjenwestedt","type":"Kreisangehörige_Gemeinde"},"district":{"key":"01058","name":"Rendsburg-Eckernförde","type":"Kreis"},"federalState":{"key":"01","name":"Schleswig-Holstein"}},{"name":"Sologenweg","postalCode":"25585","locality":"Lütjenwestedt","municipality":{"key":"01058100","name":"Lütjenwestedt","type":"Kreisangehörige_Gemeinde"},"district":{"key":"01058","name":"Rendsburg-Eckernförde","type":"Kreis"},"federalState":{"key":"01","name":"Schleswig-Holstein"}},{"name":"Spikerndamm","postalCode":"25585","locality":"Lütjenwestedt","municipality":{"key":"01058100","name":"Lütjenwestedt","type":"Kreisangehörige_Gemeinde"},"district":{"key":"01058","name":"Rendsburg-Eckernförde","type":"Kreis"},"federalState":{"key":"01","name":"Schleswig-Holstein"}},{"name":"Steenhorn","postalCode":"25585","locality":"Lütjenwestedt","municipality":{"key":"01058100","name":"Lütjenwestedt","type":"Kreisangehörige_Gemeinde"},"district":{"key":"01058","name":"Rendsburg-Eckernförde","type":"Kreis"},"federalState":{"key":"01","name":"Schleswig-Holstein"}},{"name":"Voßgang","postalCode":"25585","locality":"Lütjenwestedt","municipality":{"key":"01058100","name":"Lütjenwestedt","type":"Kreisangehörige_Gemeinde"},"district":{"key":"01058","name":"Rendsburg-Eckernförde","type":"Kreis"},"federalState":{"key":"01","name":"Schleswig-Holstein"}},{"name":"Weidenweg","postalCode":"25585","locality":"Lütjenwestedt","municipality":{"key":"01058100","name":"Lütjenwestedt","type":"Kreisangehörige_Gemeinde"},"district":{"key":"01058","name":"Rendsburg-Eckernförde","type":"Kreis"},"federalState":{"key":"01","name":"Schleswig-Holstein"}},{"name":"Wurtstr.","postalCode":"25585","locality":"Lütjenwestedt","municipality":{"key":"01058100","name":"Lütjenwestedt","type":"Kreisangehörige_Gemeinde"},"district":{"key":"01058","name":"Rendsburg-Eckernförde","type":"Kreis"},"federalState":{"key":"01","name":"Schleswig-Holstein"}},{"name":"Ziegelei","postalCode":"25585","locality":"Lütjenwestedt","municipality":{"key":"01058100","name":"Lütjenwestedt","type":"Kreisangehörige_Gemeinde"},"district":{"key":"01058","name":"Rendsburg-Eckernförde","type":"Kreis"},"federalState":{"key":"01","name":"Schleswig-Holstein"}},]