[{"name":"Ahornstr.","postalCode":"15377","locality":"Oberbarnim","municipality":{"key":"12064370","name":"Oberbarnim","type":"Kreisangehörige_Gemeinde"},"district":{"key":"12064","name":"Märkisch-Oderland","type":"Landkreis"},"federalState":{"key":"12","name":"Brandenburg"}},{"name":"Akazienweg","postalCode":"15377","locality":"Oberbarnim","municipality":{"key":"12064370","name":"Oberbarnim","type":"Kreisangehörige_Gemeinde"},"district":{"key":"12064","name":"Märkisch-Oderland","type":"Landkreis"},"federalState":{"key":"12","name":"Brandenburg"}},{"name":"Alt-Ruhlsdorf","postalCode":"15377","locality":"Oberbarnim","municipality":{"key":"12064370","name":"Oberbarnim","type":"Kreisangehörige_Gemeinde"},"district":{"key":"12064","name":"Märkisch-Oderland","type":"Landkreis"},"federalState":{"key":"12","name":"Brandenburg"}},{"name":"Am Dorfanger","postalCode":"15377","locality":"Oberbarnim","municipality":{"key":"12064370","name":"Oberbarnim","type":"Kreisangehörige_Gemeinde"},"district":{"key":"12064","name":"Märkisch-Oderland","type":"Landkreis"},"federalState":{"key":"12","name":"Brandenburg"}},{"name":"Am Dorfteich","postalCode":"15377","locality":"Oberbarnim","municipality":{"key":"12064370","name":"Oberbarnim","type":"Kreisangehörige_Gemeinde"},"district":{"key":"12064","name":"Märkisch-Oderland","type":"Landkreis"},"federalState":{"key":"12","name":"Brandenburg"}},{"name":"Am Feld","postalCode":"15377","locality":"Oberbarnim","municipality":{"key":"12064370","name":"Oberbarnim","type":"Kreisangehörige_Gemeinde"},"district":{"key":"12064","name":"Märkisch-Oderland","type":"Landkreis"},"federalState":{"key":"12","name":"Brandenburg"}},{"name":"Am Fließ","postalCode":"15377","locality":"Oberbarnim","municipality":{"key":"12064370","name":"Oberbarnim","type":"Kreisangehörige_Gemeinde"},"district":{"key":"12064","name":"Märkisch-Oderland","type":"Landkreis"},"federalState":{"key":"12","name":"Brandenburg"}},{"name":"Am Park","postalCode":"15377","locality":"Oberbarnim","municipality":{"key":"12064370","name":"Oberbarnim","type":"Kreisangehörige_Gemeinde"},"district":{"key":"12064","name":"Märkisch-Oderland","type":"Landkreis"},"federalState":{"key":"12","name":"Brandenburg"}},{"name":"Am Stöhr","postalCode":"15377","locality":"Oberbarnim","municipality":{"key":"12064370","name":"Oberbarnim","type":"Kreisangehörige_Gemeinde"},"district":{"key":"12064","name":"Märkisch-Oderland","type":"Landkreis"},"federalState":{"key":"12","name":"Brandenburg"}},{"name":"Am Tornowsee","postalCode":"15377","locality":"Oberbarnim","municipality":{"key":"12064370","name":"Oberbarnim","type":"Kreisangehörige_Gemeinde"},"district":{"key":"12064","name":"Märkisch-Oderland","type":"Landkreis"},"federalState":{"key":"12","name":"Brandenburg"}},{"name":"Am Wald","postalCode":"15377","locality":"Oberbarnim","municipality":{"key":"12064370","name":"Oberbarnim","type":"Kreisangehörige_Gemeinde"},"district":{"key":"12064","name":"Märkisch-Oderland","type":"Landkreis"},"federalState":{"key":"12","name":"Brandenburg"}},{"name":"Am Wiesenhang","postalCode":"15377","locality":"Oberbarnim","municipality":{"key":"12064370","name":"Oberbarnim","type":"Kreisangehörige_Gemeinde"},"district":{"key":"12064","name":"Märkisch-Oderland","type":"Landkreis"},"federalState":{"key":"12","name":"Brandenburg"}},{"name":"Am Wirtschaftshof","postalCode":"15377","locality":"Oberbarnim","municipality":{"key":"12064370","name":"Oberbarnim","type":"Kreisangehörige_Gemeinde"},"district":{"key":"12064","name":"Märkisch-Oderland","type":"Landkreis"},"federalState":{"key":"12","name":"Brandenburg"}},{"name":"An der Hecke","postalCode":"15377","locality":"Oberbarnim","municipality":{"key":"12064370","name":"Oberbarnim","type":"Kreisangehörige_Gemeinde"},"district":{"key":"12064","name":"Märkisch-Oderland","type":"Landkreis"},"federalState":{"key":"12","name":"Brandenburg"}},{"name":"An der Schmiede","postalCode":"15377","locality":"Oberbarnim","municipality":{"key":"12064370","name":"Oberbarnim","type":"Kreisangehörige_Gemeinde"},"district":{"key":"12064","name":"Märkisch-Oderland","type":"Landkreis"},"federalState":{"key":"12","name":"Brandenburg"}},{"name":"An der Weißen Taube","postalCode":"15377","locality":"Oberbarnim","municipality":{"key":"12064370","name":"Oberbarnim","type":"Kreisangehörige_Gemeinde"},"district":{"key":"12064","name":"Märkisch-Oderland","type":"Landkreis"},"federalState":{"key":"12","name":"Brandenburg"}},{"name":"Ausbau","postalCode":"15377","locality":"Oberbarnim","municipality":{"key":"12064370","name":"Oberbarnim","type":"Kreisangehörige_Gemeinde"},"district":{"key":"12064","name":"Märkisch-Oderland","type":"Landkreis"},"federalState":{"key":"12","name":"Brandenburg"}},{"name":"Birkenweg","postalCode":"15377","locality":"Oberbarnim","municipality":{"key":"12064370","name":"Oberbarnim","type":"Kreisangehörige_Gemeinde"},"district":{"key":"12064","name":"Märkisch-Oderland","type":"Landkreis"},"federalState":{"key":"12","name":"Brandenburg"}},{"name":"Bollersdorfer Höhe","postalCode":"15377","locality":"Oberbarnim","municipality":{"key":"12064370","name":"Oberbarnim","type":"Kreisangehörige_Gemeinde"},"district":{"key":"12064","name":"Märkisch-Oderland","type":"Landkreis"},"federalState":{"key":"12","name":"Brandenburg"}},{"name":"Buchenweg","postalCode":"15377","locality":"Oberbarnim","municipality":{"key":"12064370","name":"Oberbarnim","type":"Kreisangehörige_Gemeinde"},"district":{"key":"12064","name":"Märkisch-Oderland","type":"Landkreis"},"federalState":{"key":"12","name":"Brandenburg"}},{"name":"Buckower Weg","postalCode":"15377","locality":"Oberbarnim","municipality":{"key":"12064370","name":"Oberbarnim","type":"Kreisangehörige_Gemeinde"},"district":{"key":"12064","name":"Märkisch-Oderland","type":"Landkreis"},"federalState":{"key":"12","name":"Brandenburg"}},{"name":"Dorfstr.","postalCode":"15377","locality":"Oberbarnim","municipality":{"key":"12064370","name":"Oberbarnim","type":"Kreisangehörige_Gemeinde"},"district":{"key":"12064","name":"Märkisch-Oderland","type":"Landkreis"},"federalState":{"key":"12","name":"Brandenburg"}},{"name":"Drachenkehle","postalCode":"15377","locality":"Oberbarnim","municipality":{"key":"12064370","name":"Oberbarnim","type":"Kreisangehörige_Gemeinde"},"district":{"key":"12064","name":"Märkisch-Oderland","type":"Landkreis"},"federalState":{"key":"12","name":"Brandenburg"}},{"name":"Ebereschenweg","postalCode":"15377","locality":"Oberbarnim","municipality":{"key":"12064370","name":"Oberbarnim","type":"Kreisangehörige_Gemeinde"},"district":{"key":"12064","name":"Märkisch-Oderland","type":"Landkreis"},"federalState":{"key":"12","name":"Brandenburg"}},{"name":"Eberswalder Chaussee","postalCode":"15377","locality":"Oberbarnim","municipality":{"key":"12064370","name":"Oberbarnim","type":"Kreisangehörige_Gemeinde"},"district":{"key":"12064","name":"Märkisch-Oderland","type":"Landkreis"},"federalState":{"key":"12","name":"Brandenburg"}},{"name":"Egon-Erwin-Kisch Weg","postalCode":"15377","locality":"Oberbarnim","municipality":{"key":"12064370","name":"Oberbarnim","type":"Kreisangehörige_Gemeinde"},"district":{"key":"12064","name":"Märkisch-Oderland","type":"Landkreis"},"federalState":{"key":"12","name":"Brandenburg"}},{"name":"Eibenweg","postalCode":"15377","locality":"Oberbarnim","municipality":{"key":"12064370","name":"Oberbarnim","type":"Kreisangehörige_Gemeinde"},"district":{"key":"12064","name":"Märkisch-Oderland","type":"Landkreis"},"federalState":{"key":"12","name":"Brandenburg"}},{"name":"Eichenweg","postalCode":"15377","locality":"Oberbarnim","municipality":{"key":"12064370","name":"Oberbarnim","type":"Kreisangehörige_Gemeinde"},"district":{"key":"12064","name":"Märkisch-Oderland","type":"Landkreis"},"federalState":{"key":"12","name":"Brandenburg"}},{"name":"Fichtenweg","postalCode":"15377","locality":"Oberbarnim","municipality":{"key":"12064370","name":"Oberbarnim","type":"Kreisangehörige_Gemeinde"},"district":{"key":"12064","name":"Märkisch-Oderland","type":"Landkreis"},"federalState":{"key":"12","name":"Brandenburg"}},{"name":"Fliederweg","postalCode":"15377","locality":"Oberbarnim","municipality":{"key":"12064370","name":"Oberbarnim","type":"Kreisangehörige_Gemeinde"},"district":{"key":"12064","name":"Märkisch-Oderland","type":"Landkreis"},"federalState":{"key":"12","name":"Brandenburg"}},{"name":"Ginsterweg","postalCode":"15377","locality":"Oberbarnim","municipality":{"key":"12064370","name":"Oberbarnim","type":"Kreisangehörige_Gemeinde"},"district":{"key":"12064","name":"Märkisch-Oderland","type":"Landkreis"},"federalState":{"key":"12","name":"Brandenburg"}},{"name":"Großer Wesenberg","postalCode":"15377","locality":"Oberbarnim","municipality":{"key":"12064370","name":"Oberbarnim","type":"Kreisangehörige_Gemeinde"},"district":{"key":"12064","name":"Märkisch-Oderland","type":"Landkreis"},"federalState":{"key":"12","name":"Brandenburg"}},{"name":"Grunower Str.","postalCode":"15377","locality":"Oberbarnim","municipality":{"key":"12064370","name":"Oberbarnim","type":"Kreisangehörige_Gemeinde"},"district":{"key":"12064","name":"Märkisch-Oderland","type":"Landkreis"},"federalState":{"key":"12","name":"Brandenburg"}},{"name":"Haselnussweg","postalCode":"15377","locality":"Oberbarnim","municipality":{"key":"12064370","name":"Oberbarnim","type":"Kreisangehörige_Gemeinde"},"district":{"key":"12064","name":"Märkisch-Oderland","type":"Landkreis"},"federalState":{"key":"12","name":"Brandenburg"}},{"name":"Hauptstr.","postalCode":"15377","locality":"Oberbarnim","municipality":{"key":"12064370","name":"Oberbarnim","type":"Kreisangehörige_Gemeinde"},"district":{"key":"12064","name":"Märkisch-Oderland","type":"Landkreis"},"federalState":{"key":"12","name":"Brandenburg"}},{"name":"Hibiskusweg","postalCode":"15377","locality":"Oberbarnim","municipality":{"key":"12064370","name":"Oberbarnim","type":"Kreisangehörige_Gemeinde"},"district":{"key":"12064","name":"Märkisch-Oderland","type":"Landkreis"},"federalState":{"key":"12","name":"Brandenburg"}},{"name":"Holunderstr.","postalCode":"15377","locality":"Oberbarnim","municipality":{"key":"12064370","name":"Oberbarnim","type":"Kreisangehörige_Gemeinde"},"district":{"key":"12064","name":"Märkisch-Oderland","type":"Landkreis"},"federalState":{"key":"12","name":"Brandenburg"}},{"name":"Hopfenweg","postalCode":"15377","locality":"Oberbarnim","municipality":{"key":"12064370","name":"Oberbarnim","type":"Kreisangehörige_Gemeinde"},"district":{"key":"12064","name":"Märkisch-Oderland","type":"Landkreis"},"federalState":{"key":"12","name":"Brandenburg"}},{"name":"Ihlower Ring","postalCode":"15377","locality":"Oberbarnim","municipality":{"key":"12064370","name":"Oberbarnim","type":"Kreisangehörige_Gemeinde"},"district":{"key":"12064","name":"Märkisch-Oderland","type":"Landkreis"},"federalState":{"key":"12","name":"Brandenburg"}},{"name":"Jasminweg","postalCode":"15377","locality":"Oberbarnim","municipality":{"key":"12064370","name":"Oberbarnim","type":"Kreisangehörige_Gemeinde"},"district":{"key":"12064","name":"Märkisch-Oderland","type":"Landkreis"},"federalState":{"key":"12","name":"Brandenburg"}},{"name":"Kastanienweg","postalCode":"15377","locality":"Oberbarnim","municipality":{"key":"12064370","name":"Oberbarnim","type":"Kreisangehörige_Gemeinde"},"district":{"key":"12064","name":"Märkisch-Oderland","type":"Landkreis"},"federalState":{"key":"12","name":"Brandenburg"}},{"name":"Kiefernweg","postalCode":"15377","locality":"Oberbarnim","municipality":{"key":"12064370","name":"Oberbarnim","type":"Kreisangehörige_Gemeinde"},"district":{"key":"12064","name":"Märkisch-Oderland","type":"Landkreis"},"federalState":{"key":"12","name":"Brandenburg"}},{"name":"Kirschweg","postalCode":"15377","locality":"Oberbarnim","municipality":{"key":"12064370","name":"Oberbarnim","type":"Kreisangehörige_Gemeinde"},"district":{"key":"12064","name":"Märkisch-Oderland","type":"Landkreis"},"federalState":{"key":"12","name":"Brandenburg"}},{"name":"Kleiner Wesenberg","postalCode":"15377","locality":"Oberbarnim","municipality":{"key":"12064370","name":"Oberbarnim","type":"Kreisangehörige_Gemeinde"},"district":{"key":"12064","name":"Märkisch-Oderland","type":"Landkreis"},"federalState":{"key":"12","name":"Brandenburg"}},{"name":"Lärchenweg","postalCode":"15377","locality":"Oberbarnim","municipality":{"key":"12064370","name":"Oberbarnim","type":"Kreisangehörige_Gemeinde"},"district":{"key":"12064","name":"Märkisch-Oderland","type":"Landkreis"},"federalState":{"key":"12","name":"Brandenburg"}},{"name":"Lindenallee","postalCode":"15377","locality":"Oberbarnim","municipality":{"key":"12064370","name":"Oberbarnim","type":"Kreisangehörige_Gemeinde"},"district":{"key":"12064","name":"Märkisch-Oderland","type":"Landkreis"},"federalState":{"key":"12","name":"Brandenburg"}},{"name":"Lindenplatz","postalCode":"15377","locality":"Oberbarnim","municipality":{"key":"12064370","name":"Oberbarnim","type":"Kreisangehörige_Gemeinde"},"district":{"key":"12064","name":"Märkisch-Oderland","type":"Landkreis"},"federalState":{"key":"12","name":"Brandenburg"}},{"name":"Lindenstr.","postalCode":"15377","locality":"Oberbarnim","municipality":{"key":"12064370","name":"Oberbarnim","type":"Kreisangehörige_Gemeinde"},"district":{"key":"12064","name":"Märkisch-Oderland","type":"Landkreis"},"federalState":{"key":"12","name":"Brandenburg"}},{"name":"Los","postalCode":"15377","locality":"Oberbarnim","municipality":{"key":"12064370","name":"Oberbarnim","type":"Kreisangehörige_Gemeinde"},"district":{"key":"12064","name":"Märkisch-Oderland","type":"Landkreis"},"federalState":{"key":"12","name":"Brandenburg"}},{"name":"Magnolienweg","postalCode":"15377","locality":"Oberbarnim","municipality":{"key":"12064370","name":"Oberbarnim","type":"Kreisangehörige_Gemeinde"},"district":{"key":"12064","name":"Märkisch-Oderland","type":"Landkreis"},"federalState":{"key":"12","name":"Brandenburg"}},{"name":"Mittelstr.","postalCode":"15377","locality":"Oberbarnim","municipality":{"key":"12064370","name":"Oberbarnim","type":"Kreisangehörige_Gemeinde"},"district":{"key":"12064","name":"Märkisch-Oderland","type":"Landkreis"},"federalState":{"key":"12","name":"Brandenburg"}},{"name":"Mittelweg","postalCode":"15377","locality":"Oberbarnim","municipality":{"key":"12064370","name":"Oberbarnim","type":"Kreisangehörige_Gemeinde"},"district":{"key":"12064","name":"Märkisch-Oderland","type":"Landkreis"},"federalState":{"key":"12","name":"Brandenburg"}},{"name":"Müncheberger Chaussee","postalCode":"15377","locality":"Oberbarnim","municipality":{"key":"12064370","name":"Oberbarnim","type":"Kreisangehörige_Gemeinde"},"district":{"key":"12064","name":"Märkisch-Oderland","type":"Landkreis"},"federalState":{"key":"12","name":"Brandenburg"}},{"name":"Narzissenweg","postalCode":"15377","locality":"Oberbarnim","municipality":{"key":"12064370","name":"Oberbarnim","type":"Kreisangehörige_Gemeinde"},"district":{"key":"12064","name":"Märkisch-Oderland","type":"Landkreis"},"federalState":{"key":"12","name":"Brandenburg"}},{"name":"Prädikower Weg","postalCode":"15377","locality":"Oberbarnim","municipality":{"key":"12064370","name":"Oberbarnim","type":"Kreisangehörige_Gemeinde"},"district":{"key":"12064","name":"Märkisch-Oderland","type":"Landkreis"},"federalState":{"key":"12","name":"Brandenburg"}},{"name":"Reichenberger Chaussee","postalCode":"15377","locality":"Oberbarnim","municipality":{"key":"12064370","name":"Oberbarnim","type":"Kreisangehörige_Gemeinde"},"district":{"key":"12064","name":"Märkisch-Oderland","type":"Landkreis"},"federalState":{"key":"12","name":"Brandenburg"}},{"name":"Reichenberger Str.","postalCode":"15377","locality":"Oberbarnim","municipality":{"key":"12064370","name":"Oberbarnim","type":"Kreisangehörige_Gemeinde"},"district":{"key":"12064","name":"Märkisch-Oderland","type":"Landkreis"},"federalState":{"key":"12","name":"Brandenburg"}},{"name":"Reichenower Str.","postalCode":"15377","locality":"Oberbarnim","municipality":{"key":"12064370","name":"Oberbarnim","type":"Kreisangehörige_Gemeinde"},"district":{"key":"12064","name":"Märkisch-Oderland","type":"Landkreis"},"federalState":{"key":"12","name":"Brandenburg"}},{"name":"Ringstr.","postalCode":"15377","locality":"Oberbarnim","municipality":{"key":"12064370","name":"Oberbarnim","type":"Kreisangehörige_Gemeinde"},"district":{"key":"12064","name":"Märkisch-Oderland","type":"Landkreis"},"federalState":{"key":"12","name":"Brandenburg"}},{"name":"Ruhlsdorfer Weg","postalCode":"15377","locality":"Oberbarnim","municipality":{"key":"12064370","name":"Oberbarnim","type":"Kreisangehörige_Gemeinde"},"district":{"key":"12064","name":"Märkisch-Oderland","type":"Landkreis"},"federalState":{"key":"12","name":"Brandenburg"}},{"name":"Schlehenring","postalCode":"15377","locality":"Oberbarnim","municipality":{"key":"12064370","name":"Oberbarnim","type":"Kreisangehörige_Gemeinde"},"district":{"key":"12064","name":"Märkisch-Oderland","type":"Landkreis"},"federalState":{"key":"12","name":"Brandenburg"}},{"name":"Schlosspark Ihlow","postalCode":"15377","locality":"Oberbarnim","municipality":{"key":"12064370","name":"Oberbarnim","type":"Kreisangehörige_Gemeinde"},"district":{"key":"12064","name":"Märkisch-Oderland","type":"Landkreis"},"federalState":{"key":"12","name":"Brandenburg"}},{"name":"Siedlung","postalCode":"15377","locality":"Oberbarnim","municipality":{"key":"12064370","name":"Oberbarnim","type":"Kreisangehörige_Gemeinde"},"district":{"key":"12064","name":"Märkisch-Oderland","type":"Landkreis"},"federalState":{"key":"12","name":"Brandenburg"}},{"name":"Siedlung Schermützelsee","postalCode":"15377","locality":"Oberbarnim","municipality":{"key":"12064370","name":"Oberbarnim","type":"Kreisangehörige_Gemeinde"},"district":{"key":"12064","name":"Märkisch-Oderland","type":"Landkreis"},"federalState":{"key":"12","name":"Brandenburg"}},{"name":"Str. des Friedens","postalCode":"15377","locality":"Oberbarnim","municipality":{"key":"12064370","name":"Oberbarnim","type":"Kreisangehörige_Gemeinde"},"district":{"key":"12064","name":"Märkisch-Oderland","type":"Landkreis"},"federalState":{"key":"12","name":"Brandenburg"}},{"name":"Str. zum Sportplatz","postalCode":"15377","locality":"Oberbarnim","municipality":{"key":"12064370","name":"Oberbarnim","type":"Kreisangehörige_Gemeinde"},"district":{"key":"12064","name":"Märkisch-Oderland","type":"Landkreis"},"federalState":{"key":"12","name":"Brandenburg"}},{"name":"Tanneweg","postalCode":"15377","locality":"Oberbarnim","municipality":{"key":"12064370","name":"Oberbarnim","type":"Kreisangehörige_Gemeinde"},"district":{"key":"12064","name":"Märkisch-Oderland","type":"Landkreis"},"federalState":{"key":"12","name":"Brandenburg"}},{"name":"Waldhaus Grunow","postalCode":"15377","locality":"Oberbarnim","municipality":{"key":"12064370","name":"Oberbarnim","type":"Kreisangehörige_Gemeinde"},"district":{"key":"12064","name":"Märkisch-Oderland","type":"Landkreis"},"federalState":{"key":"12","name":"Brandenburg"}},{"name":"Wriezener Str.","postalCode":"15377","locality":"Oberbarnim","municipality":{"key":"12064370","name":"Oberbarnim","type":"Kreisangehörige_Gemeinde"},"district":{"key":"12064","name":"Märkisch-Oderland","type":"Landkreis"},"federalState":{"key":"12","name":"Brandenburg"}},{"name":"Zedernweg","postalCode":"15377","locality":"Oberbarnim","municipality":{"key":"12064370","name":"Oberbarnim","type":"Kreisangehörige_Gemeinde"},"district":{"key":"12064","name":"Märkisch-Oderland","type":"Landkreis"},"federalState":{"key":"12","name":"Brandenburg"}},{"name":"Zum Gutshof","postalCode":"15377","locality":"Oberbarnim","municipality":{"key":"12064370","name":"Oberbarnim","type":"Kreisangehörige_Gemeinde"},"district":{"key":"12064","name":"Märkisch-Oderland","type":"Landkreis"},"federalState":{"key":"12","name":"Brandenburg"}},{"name":"Zypressenweg","postalCode":"15377","locality":"Oberbarnim","municipality":{"key":"12064370","name":"Oberbarnim","type":"Kreisangehörige_Gemeinde"},"district":{"key":"12064","name":"Märkisch-Oderland","type":"Landkreis"},"federalState":{"key":"12","name":"Brandenburg"}},]