[{"name":"Ahornweg","postalCode":"23942","locality":"Kalkhorst","municipality":{"key":"13074037","name":"Kalkhorst","type":"Kreisangehörige_Gemeinde"},"district":{"key":"13074","name":"Nordwestmecklenburg","type":"Landkreis"},"federalState":{"key":"13","name":"Mecklenburg-Vorpommern"}},{"name":"Am Hof","postalCode":"23942","locality":"Kalkhorst","municipality":{"key":"13074037","name":"Kalkhorst","type":"Kreisangehörige_Gemeinde"},"district":{"key":"13074","name":"Nordwestmecklenburg","type":"Landkreis"},"federalState":{"key":"13","name":"Mecklenburg-Vorpommern"}},{"name":"Am Mühlenberg","postalCode":"23942","locality":"Kalkhorst","municipality":{"key":"13074037","name":"Kalkhorst","type":"Kreisangehörige_Gemeinde"},"district":{"key":"13074","name":"Nordwestmecklenburg","type":"Landkreis"},"federalState":{"key":"13","name":"Mecklenburg-Vorpommern"}},{"name":"Am Park","postalCode":"23942","locality":"Kalkhorst","municipality":{"key":"13074037","name":"Kalkhorst","type":"Kreisangehörige_Gemeinde"},"district":{"key":"13074","name":"Nordwestmecklenburg","type":"Landkreis"},"federalState":{"key":"13","name":"Mecklenburg-Vorpommern"}},{"name":"Am Ring","postalCode":"23942","locality":"Kalkhorst","municipality":{"key":"13074037","name":"Kalkhorst","type":"Kreisangehörige_Gemeinde"},"district":{"key":"13074","name":"Nordwestmecklenburg","type":"Landkreis"},"federalState":{"key":"13","name":"Mecklenburg-Vorpommern"}},{"name":"Am Sportplatz","postalCode":"23942","locality":"Kalkhorst","municipality":{"key":"13074037","name":"Kalkhorst","type":"Kreisangehörige_Gemeinde"},"district":{"key":"13074","name":"Nordwestmecklenburg","type":"Landkreis"},"federalState":{"key":"13","name":"Mecklenburg-Vorpommern"}},{"name":"Am Wallgraben","postalCode":"23942","locality":"Kalkhorst","municipality":{"key":"13074037","name":"Kalkhorst","type":"Kreisangehörige_Gemeinde"},"district":{"key":"13074","name":"Nordwestmecklenburg","type":"Landkreis"},"federalState":{"key":"13","name":"Mecklenburg-Vorpommern"}},{"name":"Binsenkoppel","postalCode":"23942","locality":"Kalkhorst","municipality":{"key":"13074037","name":"Kalkhorst","type":"Kreisangehörige_Gemeinde"},"district":{"key":"13074","name":"Nordwestmecklenburg","type":"Landkreis"},"federalState":{"key":"13","name":"Mecklenburg-Vorpommern"}},{"name":"Birkenweg","postalCode":"23948","locality":"Kalkhorst","municipality":{"key":"13074037","name":"Kalkhorst","type":"Kreisangehörige_Gemeinde"},"district":{"key":"13074","name":"Nordwestmecklenburg","type":"Landkreis"},"federalState":{"key":"13","name":"Mecklenburg-Vorpommern"}},{"name":"Brooker Weg","postalCode":"23942","locality":"Kalkhorst","municipality":{"key":"13074037","name":"Kalkhorst","type":"Kreisangehörige_Gemeinde"},"district":{"key":"13074","name":"Nordwestmecklenburg","type":"Landkreis"},"federalState":{"key":"13","name":"Mecklenburg-Vorpommern"}},{"name":"Buchenweg","postalCode":"23942","locality":"Kalkhorst","municipality":{"key":"13074037","name":"Kalkhorst","type":"Kreisangehörige_Gemeinde"},"district":{"key":"13074","name":"Nordwestmecklenburg","type":"Landkreis"},"federalState":{"key":"13","name":"Mecklenburg-Vorpommern"}},{"name":"Dassower Str.","postalCode":"23942","locality":"Kalkhorst","municipality":{"key":"13074037","name":"Kalkhorst","type":"Kreisangehörige_Gemeinde"},"district":{"key":"13074","name":"Nordwestmecklenburg","type":"Landkreis"},"federalState":{"key":"13","name":"Mecklenburg-Vorpommern"}},{"name":"Dorfplatz","postalCode":"23948","locality":"Kalkhorst","municipality":{"key":"13074037","name":"Kalkhorst","type":"Kreisangehörige_Gemeinde"},"district":{"key":"13074","name":"Nordwestmecklenburg","type":"Landkreis"},"federalState":{"key":"13","name":"Mecklenburg-Vorpommern"}},{"name":"Dorfstr.","postalCode":"23948","locality":"Kalkhorst","municipality":{"key":"13074037","name":"Kalkhorst","type":"Kreisangehörige_Gemeinde"},"district":{"key":"13074","name":"Nordwestmecklenburg","type":"Landkreis"},"federalState":{"key":"13","name":"Mecklenburg-Vorpommern"}},{"name":"Forstweg","postalCode":"23948","locality":"Kalkhorst","municipality":{"key":"13074037","name":"Kalkhorst","type":"Kreisangehörige_Gemeinde"},"district":{"key":"13074","name":"Nordwestmecklenburg","type":"Landkreis"},"federalState":{"key":"13","name":"Mecklenburg-Vorpommern"}},{"name":"Friedensstr.","postalCode":"23942","locality":"Kalkhorst","municipality":{"key":"13074037","name":"Kalkhorst","type":"Kreisangehörige_Gemeinde"},"district":{"key":"13074","name":"Nordwestmecklenburg","type":"Landkreis"},"federalState":{"key":"13","name":"Mecklenburg-Vorpommern"}},{"name":"Hofstr.","postalCode":"23948","locality":"Kalkhorst","municipality":{"key":"13074037","name":"Kalkhorst","type":"Kreisangehörige_Gemeinde"},"district":{"key":"13074","name":"Nordwestmecklenburg","type":"Landkreis"},"federalState":{"key":"13","name":"Mecklenburg-Vorpommern"}},{"name":"Kalkhorster Str.","postalCode":"23948","locality":"Kalkhorst","municipality":{"key":"13074037","name":"Kalkhorst","type":"Kreisangehörige_Gemeinde"},"district":{"key":"13074","name":"Nordwestmecklenburg","type":"Landkreis"},"federalState":{"key":"13","name":"Mecklenburg-Vorpommern"}},{"name":"Klützer Str.","postalCode":"23948","locality":"Kalkhorst","municipality":{"key":"13074037","name":"Kalkhorst","type":"Kreisangehörige_Gemeinde"},"district":{"key":"13074","name":"Nordwestmecklenburg","type":"Landkreis"},"federalState":{"key":"13","name":"Mecklenburg-Vorpommern"}},{"name":"Lindenstr.","postalCode":"23942","locality":"Kalkhorst","municipality":{"key":"13074037","name":"Kalkhorst","type":"Kreisangehörige_Gemeinde"},"district":{"key":"13074","name":"Nordwestmecklenburg","type":"Landkreis"},"federalState":{"key":"13","name":"Mecklenburg-Vorpommern"}},{"name":"Neue Reihe","postalCode":"23942","locality":"Kalkhorst","municipality":{"key":"13074037","name":"Kalkhorst","type":"Kreisangehörige_Gemeinde"},"district":{"key":"13074","name":"Nordwestmecklenburg","type":"Landkreis"},"federalState":{"key":"13","name":"Mecklenburg-Vorpommern"}},{"name":"Neusiedlung","postalCode":"23942","locality":"Kalkhorst","municipality":{"key":"13074037","name":"Kalkhorst","type":"Kreisangehörige_Gemeinde"},"district":{"key":"13074","name":"Nordwestmecklenburg","type":"Landkreis"},"federalState":{"key":"13","name":"Mecklenburg-Vorpommern"}},{"name":"Rankendorfer Weg","postalCode":"23942","locality":"Kalkhorst","municipality":{"key":"13074037","name":"Kalkhorst","type":"Kreisangehörige_Gemeinde"},"district":{"key":"13074","name":"Nordwestmecklenburg","type":"Landkreis"},"federalState":{"key":"13","name":"Mecklenburg-Vorpommern"}},{"name":"Schlosswiese","postalCode":"23942","locality":"Kalkhorst","municipality":{"key":"13074037","name":"Kalkhorst","type":"Kreisangehörige_Gemeinde"},"district":{"key":"13074","name":"Nordwestmecklenburg","type":"Landkreis"},"federalState":{"key":"13","name":"Mecklenburg-Vorpommern"}},{"name":"Seeweg","postalCode":"23942","locality":"Kalkhorst","municipality":{"key":"13074037","name":"Kalkhorst","type":"Kreisangehörige_Gemeinde"},"district":{"key":"13074","name":"Nordwestmecklenburg","type":"Landkreis"},"federalState":{"key":"13","name":"Mecklenburg-Vorpommern"}},{"name":"Strandweg","postalCode":"23942","locality":"Kalkhorst","municipality":{"key":"13074037","name":"Kalkhorst","type":"Kreisangehörige_Gemeinde"},"district":{"key":"13074","name":"Nordwestmecklenburg","type":"Landkreis"},"federalState":{"key":"13","name":"Mecklenburg-Vorpommern"}},{"name":"Strandweg","postalCode":"23948","locality":"Kalkhorst","municipality":{"key":"13074037","name":"Kalkhorst","type":"Kreisangehörige_Gemeinde"},"district":{"key":"13074","name":"Nordwestmecklenburg","type":"Landkreis"},"federalState":{"key":"13","name":"Mecklenburg-Vorpommern"}},{"name":"Strandzugang 14","postalCode":"23948","locality":"Kalkhorst","municipality":{"key":"13074037","name":"Kalkhorst","type":"Kreisangehörige_Gemeinde"},"district":{"key":"13074","name":"Nordwestmecklenburg","type":"Landkreis"},"federalState":{"key":"13","name":"Mecklenburg-Vorpommern"}},{"name":"Strandzugang 7","postalCode":"23942","locality":"Kalkhorst","municipality":{"key":"13074037","name":"Kalkhorst","type":"Kreisangehörige_Gemeinde"},"district":{"key":"13074","name":"Nordwestmecklenburg","type":"Landkreis"},"federalState":{"key":"13","name":"Mecklenburg-Vorpommern"}},{"name":"Str. der Jugend","postalCode":"23942","locality":"Kalkhorst","municipality":{"key":"13074037","name":"Kalkhorst","type":"Kreisangehörige_Gemeinde"},"district":{"key":"13074","name":"Nordwestmecklenburg","type":"Landkreis"},"federalState":{"key":"13","name":"Mecklenburg-Vorpommern"}},{"name":"Uferweg","postalCode":"23948","locality":"Kalkhorst","municipality":{"key":"13074037","name":"Kalkhorst","type":"Kreisangehörige_Gemeinde"},"district":{"key":"13074","name":"Nordwestmecklenburg","type":"Landkreis"},"federalState":{"key":"13","name":"Mecklenburg-Vorpommern"}},{"name":"Waldweg","postalCode":"23942","locality":"Kalkhorst","municipality":{"key":"13074037","name":"Kalkhorst","type":"Kreisangehörige_Gemeinde"},"district":{"key":"13074","name":"Nordwestmecklenburg","type":"Landkreis"},"federalState":{"key":"13","name":"Mecklenburg-Vorpommern"}},{"name":"Zufahrt zur alten Landebahn","postalCode":"23942","locality":"Kalkhorst","municipality":{"key":"13074037","name":"Kalkhorst","type":"Kreisangehörige_Gemeinde"},"district":{"key":"13074","name":"Nordwestmecklenburg","type":"Landkreis"},"federalState":{"key":"13","name":"Mecklenburg-Vorpommern"}},{"name":"Zur Steilküste","postalCode":"23948","locality":"Kalkhorst","municipality":{"key":"13074037","name":"Kalkhorst","type":"Kreisangehörige_Gemeinde"},"district":{"key":"13074","name":"Nordwestmecklenburg","type":"Landkreis"},"federalState":{"key":"13","name":"Mecklenburg-Vorpommern"}},]