[{"name":"Auf dem Kirchenstück","postalCode":"57614","locality":"Stürzelbach","municipality":{"key":"07132109","name":"Stürzelbach","type":"Kreisangehörige_Gemeinde"},"district":{"key":"07132","name":"Altenkirchen (Westerwald)","type":"Landkreis"},"federalState":{"key":"07","name":"Rheinland-Pfalz"}},{"name":"Auf dem Schleyhahn","postalCode":"57614","locality":"Stürzelbach","municipality":{"key":"07132109","name":"Stürzelbach","type":"Kreisangehörige_Gemeinde"},"district":{"key":"07132","name":"Altenkirchen (Westerwald)","type":"Landkreis"},"federalState":{"key":"07","name":"Rheinland-Pfalz"}},{"name":"Bergstr.","postalCode":"57614","locality":"Stürzelbach","municipality":{"key":"07132109","name":"Stürzelbach","type":"Kreisangehörige_Gemeinde"},"district":{"key":"07132","name":"Altenkirchen (Westerwald)","type":"Landkreis"},"federalState":{"key":"07","name":"Rheinland-Pfalz"}},{"name":"Breibacherhof","postalCode":"57614","locality":"Stürzelbach","municipality":{"key":"07132109","name":"Stürzelbach","type":"Kreisangehörige_Gemeinde"},"district":{"key":"07132","name":"Altenkirchen (Westerwald)","type":"Landkreis"},"federalState":{"key":"07","name":"Rheinland-Pfalz"}},{"name":"Feldstr.","postalCode":"57614","locality":"Stürzelbach","municipality":{"key":"07132109","name":"Stürzelbach","type":"Kreisangehörige_Gemeinde"},"district":{"key":"07132","name":"Altenkirchen (Westerwald)","type":"Landkreis"},"federalState":{"key":"07","name":"Rheinland-Pfalz"}},{"name":"Fürstenbergstr.","postalCode":"57614","locality":"Stürzelbach","municipality":{"key":"07132109","name":"Stürzelbach","type":"Kreisangehörige_Gemeinde"},"district":{"key":"07132","name":"Altenkirchen (Westerwald)","type":"Landkreis"},"federalState":{"key":"07","name":"Rheinland-Pfalz"}},{"name":"Gartenstr.","postalCode":"57614","locality":"Stürzelbach","municipality":{"key":"07132109","name":"Stürzelbach","type":"Kreisangehörige_Gemeinde"},"district":{"key":"07132","name":"Altenkirchen (Westerwald)","type":"Landkreis"},"federalState":{"key":"07","name":"Rheinland-Pfalz"}},{"name":"Mittelstr.","postalCode":"57614","locality":"Stürzelbach","municipality":{"key":"07132109","name":"Stürzelbach","type":"Kreisangehörige_Gemeinde"},"district":{"key":"07132","name":"Altenkirchen (Westerwald)","type":"Landkreis"},"federalState":{"key":"07","name":"Rheinland-Pfalz"}},{"name":"Talstr.","postalCode":"57614","locality":"Stürzelbach","municipality":{"key":"07132109","name":"Stürzelbach","type":"Kreisangehörige_Gemeinde"},"district":{"key":"07132","name":"Altenkirchen (Westerwald)","type":"Landkreis"},"federalState":{"key":"07","name":"Rheinland-Pfalz"}},{"name":"Waldstr.","postalCode":"57614","locality":"Stürzelbach","municipality":{"key":"07132109","name":"Stürzelbach","type":"Kreisangehörige_Gemeinde"},"district":{"key":"07132","name":"Altenkirchen (Westerwald)","type":"Landkreis"},"federalState":{"key":"07","name":"Rheinland-Pfalz"}},{"name":"Zum Börnchen","postalCode":"57614","locality":"Stürzelbach","municipality":{"key":"07132109","name":"Stürzelbach","type":"Kreisangehörige_Gemeinde"},"district":{"key":"07132","name":"Altenkirchen (Westerwald)","type":"Landkreis"},"federalState":{"key":"07","name":"Rheinland-Pfalz"}},]