[{"name":"Albert-Schweitzer-Str.","postalCode":"66352","locality":"Großrosseln","municipality":{"key":"10041512","name":"Großrosseln","type":"Kreisangehörige_Gemeinde"},"district":{"key":"10041","name":"Regionalverband Saarbrücken","type":"Regionalverband"},"federalState":{"key":"10","name":"Saarland"}},{"name":"Am Bahnhof","postalCode":"66352","locality":"Großrosseln","municipality":{"key":"10041512","name":"Großrosseln","type":"Kreisangehörige_Gemeinde"},"district":{"key":"10041","name":"Regionalverband Saarbrücken","type":"Regionalverband"},"federalState":{"key":"10","name":"Saarland"}},{"name":"Am Feuerwehrgerätehaus","postalCode":"66352","locality":"Großrosseln","municipality":{"key":"10041512","name":"Großrosseln","type":"Kreisangehörige_Gemeinde"},"district":{"key":"10041","name":"Regionalverband Saarbrücken","type":"Regionalverband"},"federalState":{"key":"10","name":"Saarland"}},{"name":"Am Hirschberg","postalCode":"66352","locality":"Großrosseln","municipality":{"key":"10041512","name":"Großrosseln","type":"Kreisangehörige_Gemeinde"},"district":{"key":"10041","name":"Regionalverband Saarbrücken","type":"Regionalverband"},"federalState":{"key":"10","name":"Saarland"}},{"name":"Am Hirschelheck","postalCode":"66352","locality":"Großrosseln","municipality":{"key":"10041512","name":"Großrosseln","type":"Kreisangehörige_Gemeinde"},"district":{"key":"10041","name":"Regionalverband Saarbrücken","type":"Regionalverband"},"federalState":{"key":"10","name":"Saarland"}},{"name":"Am Hirtengraben","postalCode":"66352","locality":"Großrosseln","municipality":{"key":"10041512","name":"Großrosseln","type":"Kreisangehörige_Gemeinde"},"district":{"key":"10041","name":"Regionalverband Saarbrücken","type":"Regionalverband"},"federalState":{"key":"10","name":"Saarland"}},{"name":"Am Kalkofen","postalCode":"66352","locality":"Großrosseln","municipality":{"key":"10041512","name":"Großrosseln","type":"Kreisangehörige_Gemeinde"},"district":{"key":"10041","name":"Regionalverband Saarbrücken","type":"Regionalverband"},"federalState":{"key":"10","name":"Saarland"}},{"name":"Am Kirchberg","postalCode":"66352","locality":"Großrosseln","municipality":{"key":"10041512","name":"Großrosseln","type":"Kreisangehörige_Gemeinde"},"district":{"key":"10041","name":"Regionalverband Saarbrücken","type":"Regionalverband"},"federalState":{"key":"10","name":"Saarland"}},{"name":"Am Mühlenbach","postalCode":"66352","locality":"Großrosseln","municipality":{"key":"10041512","name":"Großrosseln","type":"Kreisangehörige_Gemeinde"},"district":{"key":"10041","name":"Regionalverband Saarbrücken","type":"Regionalverband"},"federalState":{"key":"10","name":"Saarland"}},{"name":"Am Schafbach","postalCode":"66352","locality":"Großrosseln","municipality":{"key":"10041512","name":"Großrosseln","type":"Kreisangehörige_Gemeinde"},"district":{"key":"10041","name":"Regionalverband Saarbrücken","type":"Regionalverband"},"federalState":{"key":"10","name":"Saarland"}},{"name":"Amselweg","postalCode":"66352","locality":"Großrosseln","municipality":{"key":"10041512","name":"Großrosseln","type":"Kreisangehörige_Gemeinde"},"district":{"key":"10041","name":"Regionalverband Saarbrücken","type":"Regionalverband"},"federalState":{"key":"10","name":"Saarland"}},{"name":"Am Steffensberg","postalCode":"66352","locality":"Großrosseln","municipality":{"key":"10041512","name":"Großrosseln","type":"Kreisangehörige_Gemeinde"},"district":{"key":"10041","name":"Regionalverband Saarbrücken","type":"Regionalverband"},"federalState":{"key":"10","name":"Saarland"}},{"name":"An der Friedenseiche","postalCode":"66352","locality":"Großrosseln","municipality":{"key":"10041512","name":"Großrosseln","type":"Kreisangehörige_Gemeinde"},"district":{"key":"10041","name":"Regionalverband Saarbrücken","type":"Regionalverband"},"federalState":{"key":"10","name":"Saarland"}},{"name":"An der Kaisereiche","postalCode":"66352","locality":"Großrosseln","municipality":{"key":"10041512","name":"Großrosseln","type":"Kreisangehörige_Gemeinde"},"district":{"key":"10041","name":"Regionalverband Saarbrücken","type":"Regionalverband"},"federalState":{"key":"10","name":"Saarland"}},{"name":"An der Kirche","postalCode":"66352","locality":"Großrosseln","municipality":{"key":"10041512","name":"Großrosseln","type":"Kreisangehörige_Gemeinde"},"district":{"key":"10041","name":"Regionalverband Saarbrücken","type":"Regionalverband"},"federalState":{"key":"10","name":"Saarland"}},{"name":"Arndtstr.","postalCode":"66352","locality":"Großrosseln","municipality":{"key":"10041512","name":"Großrosseln","type":"Kreisangehörige_Gemeinde"},"district":{"key":"10041","name":"Regionalverband Saarbrücken","type":"Regionalverband"},"federalState":{"key":"10","name":"Saarland"}},{"name":"Bahnhofstr.","postalCode":"66352","locality":"Großrosseln","municipality":{"key":"10041512","name":"Großrosseln","type":"Kreisangehörige_Gemeinde"},"district":{"key":"10041","name":"Regionalverband Saarbrücken","type":"Regionalverband"},"federalState":{"key":"10","name":"Saarland"}},{"name":"Bergstr.","postalCode":"66352","locality":"Großrosseln","municipality":{"key":"10041512","name":"Großrosseln","type":"Kreisangehörige_Gemeinde"},"district":{"key":"10041","name":"Regionalverband Saarbrücken","type":"Regionalverband"},"federalState":{"key":"10","name":"Saarland"}},{"name":"Bertholdstr.","postalCode":"66352","locality":"Großrosseln","municipality":{"key":"10041512","name":"Großrosseln","type":"Kreisangehörige_Gemeinde"},"district":{"key":"10041","name":"Regionalverband Saarbrücken","type":"Regionalverband"},"federalState":{"key":"10","name":"Saarland"}},{"name":"Birkenweg","postalCode":"66352","locality":"Großrosseln","municipality":{"key":"10041512","name":"Großrosseln","type":"Kreisangehörige_Gemeinde"},"district":{"key":"10041","name":"Regionalverband Saarbrücken","type":"Regionalverband"},"federalState":{"key":"10","name":"Saarland"}},{"name":"Blumenstr.","postalCode":"66352","locality":"Großrosseln","municipality":{"key":"10041512","name":"Großrosseln","type":"Kreisangehörige_Gemeinde"},"district":{"key":"10041","name":"Regionalverband Saarbrücken","type":"Regionalverband"},"federalState":{"key":"10","name":"Saarland"}},{"name":"Bremerhof","postalCode":"66352","locality":"Großrosseln","municipality":{"key":"10041512","name":"Großrosseln","type":"Kreisangehörige_Gemeinde"},"district":{"key":"10041","name":"Regionalverband Saarbrücken","type":"Regionalverband"},"federalState":{"key":"10","name":"Saarland"}},{"name":"Brückenstr.","postalCode":"66352","locality":"Großrosseln","municipality":{"key":"10041512","name":"Großrosseln","type":"Kreisangehörige_Gemeinde"},"district":{"key":"10041","name":"Regionalverband Saarbrücken","type":"Regionalverband"},"federalState":{"key":"10","name":"Saarland"}},{"name":"Brunnenstr.","postalCode":"66352","locality":"Großrosseln","municipality":{"key":"10041512","name":"Großrosseln","type":"Kreisangehörige_Gemeinde"},"district":{"key":"10041","name":"Regionalverband Saarbrücken","type":"Regionalverband"},"federalState":{"key":"10","name":"Saarland"}},{"name":"Buchenhain","postalCode":"66352","locality":"Großrosseln","municipality":{"key":"10041512","name":"Großrosseln","type":"Kreisangehörige_Gemeinde"},"district":{"key":"10041","name":"Regionalverband Saarbrücken","type":"Regionalverband"},"federalState":{"key":"10","name":"Saarland"}},{"name":"Deutsch-Französischer Platz","postalCode":"66352","locality":"Großrosseln","municipality":{"key":"10041512","name":"Großrosseln","type":"Kreisangehörige_Gemeinde"},"district":{"key":"10041","name":"Regionalverband Saarbrücken","type":"Regionalverband"},"federalState":{"key":"10","name":"Saarland"}},{"name":"Drosselweg","postalCode":"66352","locality":"Großrosseln","municipality":{"key":"10041512","name":"Großrosseln","type":"Kreisangehörige_Gemeinde"},"district":{"key":"10041","name":"Regionalverband Saarbrücken","type":"Regionalverband"},"federalState":{"key":"10","name":"Saarland"}},{"name":"Drulinger Eck","postalCode":"66352","locality":"Großrosseln","municipality":{"key":"10041512","name":"Großrosseln","type":"Kreisangehörige_Gemeinde"},"district":{"key":"10041","name":"Regionalverband Saarbrücken","type":"Regionalverband"},"federalState":{"key":"10","name":"Saarland"}},{"name":"Eichendorffstr.","postalCode":"66352","locality":"Großrosseln","municipality":{"key":"10041512","name":"Großrosseln","type":"Kreisangehörige_Gemeinde"},"district":{"key":"10041","name":"Regionalverband Saarbrücken","type":"Regionalverband"},"federalState":{"key":"10","name":"Saarland"}},{"name":"Emmersweilerstr.","postalCode":"66352","locality":"Großrosseln","municipality":{"key":"10041512","name":"Großrosseln","type":"Kreisangehörige_Gemeinde"},"district":{"key":"10041","name":"Regionalverband Saarbrücken","type":"Regionalverband"},"federalState":{"key":"10","name":"Saarland"}},{"name":"Falkenweg","postalCode":"66352","locality":"Großrosseln","municipality":{"key":"10041512","name":"Großrosseln","type":"Kreisangehörige_Gemeinde"},"district":{"key":"10041","name":"Regionalverband Saarbrücken","type":"Regionalverband"},"federalState":{"key":"10","name":"Saarland"}},{"name":"Finkenweg","postalCode":"66352","locality":"Großrosseln","municipality":{"key":"10041512","name":"Großrosseln","type":"Kreisangehörige_Gemeinde"},"district":{"key":"10041","name":"Regionalverband Saarbrücken","type":"Regionalverband"},"federalState":{"key":"10","name":"Saarland"}},{"name":"Forbacher Str.","postalCode":"66352","locality":"Großrosseln","municipality":{"key":"10041512","name":"Großrosseln","type":"Kreisangehörige_Gemeinde"},"district":{"key":"10041","name":"Regionalverband Saarbrücken","type":"Regionalverband"},"federalState":{"key":"10","name":"Saarland"}},{"name":"Friedhofstr.","postalCode":"66352","locality":"Großrosseln","municipality":{"key":"10041512","name":"Großrosseln","type":"Kreisangehörige_Gemeinde"},"district":{"key":"10041","name":"Regionalverband Saarbrücken","type":"Regionalverband"},"federalState":{"key":"10","name":"Saarland"}},{"name":"Friedrich-Ebert-Str.","postalCode":"66352","locality":"Großrosseln","municipality":{"key":"10041512","name":"Großrosseln","type":"Kreisangehörige_Gemeinde"},"district":{"key":"10041","name":"Regionalverband Saarbrücken","type":"Regionalverband"},"federalState":{"key":"10","name":"Saarland"}},{"name":"Fröbelweg","postalCode":"66352","locality":"Großrosseln","municipality":{"key":"10041512","name":"Großrosseln","type":"Kreisangehörige_Gemeinde"},"district":{"key":"10041","name":"Regionalverband Saarbrücken","type":"Regionalverband"},"federalState":{"key":"10","name":"Saarland"}},{"name":"Gartenstr.","postalCode":"66352","locality":"Großrosseln","municipality":{"key":"10041512","name":"Großrosseln","type":"Kreisangehörige_Gemeinde"},"district":{"key":"10041","name":"Regionalverband Saarbrücken","type":"Regionalverband"},"federalState":{"key":"10","name":"Saarland"}},{"name":"Gensbacher Str.","postalCode":"66352","locality":"Großrosseln","municipality":{"key":"10041512","name":"Großrosseln","type":"Kreisangehörige_Gemeinde"},"district":{"key":"10041","name":"Regionalverband Saarbrücken","type":"Regionalverband"},"federalState":{"key":"10","name":"Saarland"}},{"name":"Ginsterweg","postalCode":"66352","locality":"Großrosseln","municipality":{"key":"10041512","name":"Großrosseln","type":"Kreisangehörige_Gemeinde"},"district":{"key":"10041","name":"Regionalverband Saarbrücken","type":"Regionalverband"},"federalState":{"key":"10","name":"Saarland"}},{"name":"Goethestr.","postalCode":"66352","locality":"Großrosseln","municipality":{"key":"10041512","name":"Großrosseln","type":"Kreisangehörige_Gemeinde"},"district":{"key":"10041","name":"Regionalverband Saarbrücken","type":"Regionalverband"},"federalState":{"key":"10","name":"Saarland"}},{"name":"Haldenstr.","postalCode":"66352","locality":"Großrosseln","municipality":{"key":"10041512","name":"Großrosseln","type":"Kreisangehörige_Gemeinde"},"district":{"key":"10041","name":"Regionalverband Saarbrücken","type":"Regionalverband"},"federalState":{"key":"10","name":"Saarland"}},{"name":"Hanfgarten","postalCode":"66352","locality":"Großrosseln","municipality":{"key":"10041512","name":"Großrosseln","type":"Kreisangehörige_Gemeinde"},"district":{"key":"10041","name":"Regionalverband Saarbrücken","type":"Regionalverband"},"federalState":{"key":"10","name":"Saarland"}},{"name":"Hundeplatz","postalCode":"66352","locality":"Großrosseln","municipality":{"key":"10041512","name":"Großrosseln","type":"Kreisangehörige_Gemeinde"},"district":{"key":"10041","name":"Regionalverband Saarbrücken","type":"Regionalverband"},"federalState":{"key":"10","name":"Saarland"}},{"name":"Hüttenplatz","postalCode":"66352","locality":"Großrosseln","municipality":{"key":"10041512","name":"Großrosseln","type":"Kreisangehörige_Gemeinde"},"district":{"key":"10041","name":"Regionalverband Saarbrücken","type":"Regionalverband"},"federalState":{"key":"10","name":"Saarland"}},{"name":"Im Apfeltal","postalCode":"66352","locality":"Großrosseln","municipality":{"key":"10041512","name":"Großrosseln","type":"Kreisangehörige_Gemeinde"},"district":{"key":"10041","name":"Regionalverband Saarbrücken","type":"Regionalverband"},"federalState":{"key":"10","name":"Saarland"}},{"name":"Im Blumerich","postalCode":"66352","locality":"Großrosseln","municipality":{"key":"10041512","name":"Großrosseln","type":"Kreisangehörige_Gemeinde"},"district":{"key":"10041","name":"Regionalverband Saarbrücken","type":"Regionalverband"},"federalState":{"key":"10","name":"Saarland"}},{"name":"Im Forstland","postalCode":"66352","locality":"Großrosseln","municipality":{"key":"10041512","name":"Großrosseln","type":"Kreisangehörige_Gemeinde"},"district":{"key":"10041","name":"Regionalverband Saarbrücken","type":"Regionalverband"},"federalState":{"key":"10","name":"Saarland"}},{"name":"Im Grasgarten","postalCode":"66352","locality":"Großrosseln","municipality":{"key":"10041512","name":"Großrosseln","type":"Kreisangehörige_Gemeinde"},"district":{"key":"10041","name":"Regionalverband Saarbrücken","type":"Regionalverband"},"federalState":{"key":"10","name":"Saarland"}},{"name":"Im Großen Feld","postalCode":"66352","locality":"Großrosseln","municipality":{"key":"10041512","name":"Großrosseln","type":"Kreisangehörige_Gemeinde"},"district":{"key":"10041","name":"Regionalverband Saarbrücken","type":"Regionalverband"},"federalState":{"key":"10","name":"Saarland"}},{"name":"Im Grünenkraut","postalCode":"66352","locality":"Großrosseln","municipality":{"key":"10041512","name":"Großrosseln","type":"Kreisangehörige_Gemeinde"},"district":{"key":"10041","name":"Regionalverband Saarbrücken","type":"Regionalverband"},"federalState":{"key":"10","name":"Saarland"}},{"name":"Im Jungholz","postalCode":"66352","locality":"Großrosseln","municipality":{"key":"10041512","name":"Großrosseln","type":"Kreisangehörige_Gemeinde"},"district":{"key":"10041","name":"Regionalverband Saarbrücken","type":"Regionalverband"},"federalState":{"key":"10","name":"Saarland"}},{"name":"Im Mittelfeld","postalCode":"66352","locality":"Großrosseln","municipality":{"key":"10041512","name":"Großrosseln","type":"Kreisangehörige_Gemeinde"},"district":{"key":"10041","name":"Regionalverband Saarbrücken","type":"Regionalverband"},"federalState":{"key":"10","name":"Saarland"}},{"name":"Im Mühlental","postalCode":"66352","locality":"Großrosseln","municipality":{"key":"10041512","name":"Großrosseln","type":"Kreisangehörige_Gemeinde"},"district":{"key":"10041","name":"Regionalverband Saarbrücken","type":"Regionalverband"},"federalState":{"key":"10","name":"Saarland"}},{"name":"Im Neuen Land","postalCode":"66352","locality":"Großrosseln","municipality":{"key":"10041512","name":"Großrosseln","type":"Kreisangehörige_Gemeinde"},"district":{"key":"10041","name":"Regionalverband Saarbrücken","type":"Regionalverband"},"federalState":{"key":"10","name":"Saarland"}},{"name":"Im Roth","postalCode":"66352","locality":"Großrosseln","municipality":{"key":"10041512","name":"Großrosseln","type":"Kreisangehörige_Gemeinde"},"district":{"key":"10041","name":"Regionalverband Saarbrücken","type":"Regionalverband"},"federalState":{"key":"10","name":"Saarland"}},{"name":"Im Scheidwald","postalCode":"66352","locality":"Großrosseln","municipality":{"key":"10041512","name":"Großrosseln","type":"Kreisangehörige_Gemeinde"},"district":{"key":"10041","name":"Regionalverband Saarbrücken","type":"Regionalverband"},"federalState":{"key":"10","name":"Saarland"}},{"name":"Im Sommerflur","postalCode":"66352","locality":"Großrosseln","municipality":{"key":"10041512","name":"Großrosseln","type":"Kreisangehörige_Gemeinde"},"district":{"key":"10041","name":"Regionalverband Saarbrücken","type":"Regionalverband"},"federalState":{"key":"10","name":"Saarland"}},{"name":"Im Sonneneck","postalCode":"66352","locality":"Großrosseln","municipality":{"key":"10041512","name":"Großrosseln","type":"Kreisangehörige_Gemeinde"},"district":{"key":"10041","name":"Regionalverband Saarbrücken","type":"Regionalverband"},"federalState":{"key":"10","name":"Saarland"}},{"name":"Im Spitzenfeld","postalCode":"66352","locality":"Großrosseln","municipality":{"key":"10041512","name":"Großrosseln","type":"Kreisangehörige_Gemeinde"},"district":{"key":"10041","name":"Regionalverband Saarbrücken","type":"Regionalverband"},"federalState":{"key":"10","name":"Saarland"}},{"name":"In den Kreuzlängten","postalCode":"66352","locality":"Großrosseln","municipality":{"key":"10041512","name":"Großrosseln","type":"Kreisangehörige_Gemeinde"},"district":{"key":"10041","name":"Regionalverband Saarbrücken","type":"Regionalverband"},"federalState":{"key":"10","name":"Saarland"}},{"name":"In der Trift","postalCode":"66352","locality":"Großrosseln","municipality":{"key":"10041512","name":"Großrosseln","type":"Kreisangehörige_Gemeinde"},"district":{"key":"10041","name":"Regionalverband Saarbrücken","type":"Regionalverband"},"federalState":{"key":"10","name":"Saarland"}},{"name":"Industriestr.","postalCode":"66352","locality":"Großrosseln","municipality":{"key":"10041512","name":"Großrosseln","type":"Kreisangehörige_Gemeinde"},"district":{"key":"10041","name":"Regionalverband Saarbrücken","type":"Regionalverband"},"federalState":{"key":"10","name":"Saarland"}},{"name":"Jahnstr.","postalCode":"66352","locality":"Großrosseln","municipality":{"key":"10041512","name":"Großrosseln","type":"Kreisangehörige_Gemeinde"},"district":{"key":"10041","name":"Regionalverband Saarbrücken","type":"Regionalverband"},"federalState":{"key":"10","name":"Saarland"}},{"name":"Jardin de Marie","postalCode":"66352","locality":"Großrosseln","municipality":{"key":"10041512","name":"Großrosseln","type":"Kreisangehörige_Gemeinde"},"district":{"key":"10041","name":"Regionalverband Saarbrücken","type":"Regionalverband"},"federalState":{"key":"10","name":"Saarland"}},{"name":"Johannisstr.","postalCode":"66352","locality":"Großrosseln","municipality":{"key":"10041512","name":"Großrosseln","type":"Kreisangehörige_Gemeinde"},"district":{"key":"10041","name":"Regionalverband Saarbrücken","type":"Regionalverband"},"federalState":{"key":"10","name":"Saarland"}},{"name":"Johann-Schorr-Str.","postalCode":"66352","locality":"Großrosseln","municipality":{"key":"10041512","name":"Großrosseln","type":"Kreisangehörige_Gemeinde"},"district":{"key":"10041","name":"Regionalverband Saarbrücken","type":"Regionalverband"},"federalState":{"key":"10","name":"Saarland"}},{"name":"Karlstr.","postalCode":"66352","locality":"Großrosseln","municipality":{"key":"10041512","name":"Großrosseln","type":"Kreisangehörige_Gemeinde"},"district":{"key":"10041","name":"Regionalverband Saarbrücken","type":"Regionalverband"},"federalState":{"key":"10","name":"Saarland"}},{"name":"Kirchstr.","postalCode":"66352","locality":"Großrosseln","municipality":{"key":"10041512","name":"Großrosseln","type":"Kreisangehörige_Gemeinde"},"district":{"key":"10041","name":"Regionalverband Saarbrücken","type":"Regionalverband"},"federalState":{"key":"10","name":"Saarland"}},{"name":"Klosterplatz","postalCode":"66352","locality":"Großrosseln","municipality":{"key":"10041512","name":"Großrosseln","type":"Kreisangehörige_Gemeinde"},"district":{"key":"10041","name":"Regionalverband Saarbrücken","type":"Regionalverband"},"federalState":{"key":"10","name":"Saarland"}},{"name":"Knappenstr.","postalCode":"66352","locality":"Großrosseln","municipality":{"key":"10041512","name":"Großrosseln","type":"Kreisangehörige_Gemeinde"},"district":{"key":"10041","name":"Regionalverband Saarbrücken","type":"Regionalverband"},"federalState":{"key":"10","name":"Saarland"}},{"name":"Kohlwaldstr.","postalCode":"66352","locality":"Großrosseln","municipality":{"key":"10041512","name":"Großrosseln","type":"Kreisangehörige_Gemeinde"},"district":{"key":"10041","name":"Regionalverband Saarbrücken","type":"Regionalverband"},"federalState":{"key":"10","name":"Saarland"}},{"name":"Kurt-Schumacher-Str.","postalCode":"66352","locality":"Großrosseln","municipality":{"key":"10041512","name":"Großrosseln","type":"Kreisangehörige_Gemeinde"},"district":{"key":"10041","name":"Regionalverband Saarbrücken","type":"Regionalverband"},"federalState":{"key":"10","name":"Saarland"}},{"name":"Lauterbacher Str.","postalCode":"66352","locality":"Großrosseln","municipality":{"key":"10041512","name":"Großrosseln","type":"Kreisangehörige_Gemeinde"},"district":{"key":"10041","name":"Regionalverband Saarbrücken","type":"Regionalverband"},"federalState":{"key":"10","name":"Saarland"}},{"name":"Lindenweg","postalCode":"66352","locality":"Großrosseln","municipality":{"key":"10041512","name":"Großrosseln","type":"Kreisangehörige_Gemeinde"},"district":{"key":"10041","name":"Regionalverband Saarbrücken","type":"Regionalverband"},"federalState":{"key":"10","name":"Saarland"}},{"name":"Lothringer Str.","postalCode":"66352","locality":"Großrosseln","municipality":{"key":"10041512","name":"Großrosseln","type":"Kreisangehörige_Gemeinde"},"district":{"key":"10041","name":"Regionalverband Saarbrücken","type":"Regionalverband"},"federalState":{"key":"10","name":"Saarland"}},{"name":"Ludweilerstr.","postalCode":"66352","locality":"Großrosseln","municipality":{"key":"10041512","name":"Großrosseln","type":"Kreisangehörige_Gemeinde"},"district":{"key":"10041","name":"Regionalverband Saarbrücken","type":"Regionalverband"},"federalState":{"key":"10","name":"Saarland"}},{"name":"Marktplatz","postalCode":"66352","locality":"Großrosseln","municipality":{"key":"10041512","name":"Großrosseln","type":"Kreisangehörige_Gemeinde"},"district":{"key":"10041","name":"Regionalverband Saarbrücken","type":"Regionalverband"},"federalState":{"key":"10","name":"Saarland"}},{"name":"Merlebacher Str.","postalCode":"66352","locality":"Großrosseln","municipality":{"key":"10041512","name":"Großrosseln","type":"Kreisangehörige_Gemeinde"},"district":{"key":"10041","name":"Regionalverband Saarbrücken","type":"Regionalverband"},"federalState":{"key":"10","name":"Saarland"}},{"name":"Mühlenweg","postalCode":"66352","locality":"Großrosseln","municipality":{"key":"10041512","name":"Großrosseln","type":"Kreisangehörige_Gemeinde"},"district":{"key":"10041","name":"Regionalverband Saarbrücken","type":"Regionalverband"},"federalState":{"key":"10","name":"Saarland"}},{"name":"Nassaustr.","postalCode":"66352","locality":"Großrosseln","municipality":{"key":"10041512","name":"Großrosseln","type":"Kreisangehörige_Gemeinde"},"district":{"key":"10041","name":"Regionalverband Saarbrücken","type":"Regionalverband"},"federalState":{"key":"10","name":"Saarland"}},{"name":"Naßweilerstr.","postalCode":"66352","locality":"Großrosseln","municipality":{"key":"10041512","name":"Großrosseln","type":"Kreisangehörige_Gemeinde"},"district":{"key":"10041","name":"Regionalverband Saarbrücken","type":"Regionalverband"},"federalState":{"key":"10","name":"Saarland"}},{"name":"Nelkenstr.","postalCode":"66352","locality":"Großrosseln","municipality":{"key":"10041512","name":"Großrosseln","type":"Kreisangehörige_Gemeinde"},"district":{"key":"10041","name":"Regionalverband Saarbrücken","type":"Regionalverband"},"federalState":{"key":"10","name":"Saarland"}},{"name":"Oberdorfstr.","postalCode":"66352","locality":"Großrosseln","municipality":{"key":"10041512","name":"Großrosseln","type":"Kreisangehörige_Gemeinde"},"district":{"key":"10041","name":"Regionalverband Saarbrücken","type":"Regionalverband"},"federalState":{"key":"10","name":"Saarland"}},{"name":"Obere Feldstr.","postalCode":"66352","locality":"Großrosseln","municipality":{"key":"10041512","name":"Großrosseln","type":"Kreisangehörige_Gemeinde"},"district":{"key":"10041","name":"Regionalverband Saarbrücken","type":"Regionalverband"},"federalState":{"key":"10","name":"Saarland"}},{"name":"Robert-Koch-Str.","postalCode":"66352","locality":"Großrosseln","municipality":{"key":"10041512","name":"Großrosseln","type":"Kreisangehörige_Gemeinde"},"district":{"key":"10041","name":"Regionalverband Saarbrücken","type":"Regionalverband"},"federalState":{"key":"10","name":"Saarland"}},{"name":"Rosenberg","postalCode":"66352","locality":"Großrosseln","municipality":{"key":"10041512","name":"Großrosseln","type":"Kreisangehörige_Gemeinde"},"district":{"key":"10041","name":"Regionalverband Saarbrücken","type":"Regionalverband"},"federalState":{"key":"10","name":"Saarland"}},{"name":"Rosenstr.","postalCode":"66352","locality":"Großrosseln","municipality":{"key":"10041512","name":"Großrosseln","type":"Kreisangehörige_Gemeinde"},"district":{"key":"10041","name":"Regionalverband Saarbrücken","type":"Regionalverband"},"federalState":{"key":"10","name":"Saarland"}},{"name":"Rosseler Str.","postalCode":"66352","locality":"Großrosseln","municipality":{"key":"10041512","name":"Großrosseln","type":"Kreisangehörige_Gemeinde"},"district":{"key":"10041","name":"Regionalverband Saarbrücken","type":"Regionalverband"},"federalState":{"key":"10","name":"Saarland"}},{"name":"Rosselstr.","postalCode":"66352","locality":"Großrosseln","municipality":{"key":"10041512","name":"Großrosseln","type":"Kreisangehörige_Gemeinde"},"district":{"key":"10041","name":"Regionalverband Saarbrücken","type":"Regionalverband"},"federalState":{"key":"10","name":"Saarland"}},{"name":"Rübendell","postalCode":"66352","locality":"Großrosseln","municipality":{"key":"10041512","name":"Großrosseln","type":"Kreisangehörige_Gemeinde"},"district":{"key":"10041","name":"Regionalverband Saarbrücken","type":"Regionalverband"},"federalState":{"key":"10","name":"Saarland"}},{"name":"Rue Elie Reumaux","postalCode":"66352","locality":"Großrosseln","municipality":{"key":"10041512","name":"Großrosseln","type":"Kreisangehörige_Gemeinde"},"district":{"key":"10041","name":"Regionalverband Saarbrücken","type":"Regionalverband"},"federalState":{"key":"10","name":"Saarland"}},{"name":"Saar-Schlesier-Weg","postalCode":"66352","locality":"Großrosseln","municipality":{"key":"10041512","name":"Großrosseln","type":"Kreisangehörige_Gemeinde"},"district":{"key":"10041","name":"Regionalverband Saarbrücken","type":"Regionalverband"},"federalState":{"key":"10","name":"Saarland"}},{"name":"Schachtstr.","postalCode":"66352","locality":"Großrosseln","municipality":{"key":"10041512","name":"Großrosseln","type":"Kreisangehörige_Gemeinde"},"district":{"key":"10041","name":"Regionalverband Saarbrücken","type":"Regionalverband"},"federalState":{"key":"10","name":"Saarland"}},{"name":"Schillerstr.","postalCode":"66352","locality":"Großrosseln","municipality":{"key":"10041512","name":"Großrosseln","type":"Kreisangehörige_Gemeinde"},"district":{"key":"10041","name":"Regionalverband Saarbrücken","type":"Regionalverband"},"federalState":{"key":"10","name":"Saarland"}},{"name":"Schlauchstal","postalCode":"66352","locality":"Großrosseln","municipality":{"key":"10041512","name":"Großrosseln","type":"Kreisangehörige_Gemeinde"},"district":{"key":"10041","name":"Regionalverband Saarbrücken","type":"Regionalverband"},"federalState":{"key":"10","name":"Saarland"}},{"name":"Schloßstr.","postalCode":"66352","locality":"Großrosseln","municipality":{"key":"10041512","name":"Großrosseln","type":"Kreisangehörige_Gemeinde"},"district":{"key":"10041","name":"Regionalverband Saarbrücken","type":"Regionalverband"},"federalState":{"key":"10","name":"Saarland"}},{"name":"Schulstr.","postalCode":"66352","locality":"Großrosseln","municipality":{"key":"10041512","name":"Großrosseln","type":"Kreisangehörige_Gemeinde"},"district":{"key":"10041","name":"Regionalverband Saarbrücken","type":"Regionalverband"},"federalState":{"key":"10","name":"Saarland"}},{"name":"Siedlerstr.","postalCode":"66352","locality":"Großrosseln","municipality":{"key":"10041512","name":"Großrosseln","type":"Kreisangehörige_Gemeinde"},"district":{"key":"10041","name":"Regionalverband Saarbrücken","type":"Regionalverband"},"federalState":{"key":"10","name":"Saarland"}},{"name":"Sommerweg","postalCode":"66352","locality":"Großrosseln","municipality":{"key":"10041512","name":"Großrosseln","type":"Kreisangehörige_Gemeinde"},"district":{"key":"10041","name":"Regionalverband Saarbrücken","type":"Regionalverband"},"federalState":{"key":"10","name":"Saarland"}},{"name":"Spitteler Weg","postalCode":"66352","locality":"Großrosseln","municipality":{"key":"10041512","name":"Großrosseln","type":"Kreisangehörige_Gemeinde"},"district":{"key":"10041","name":"Regionalverband Saarbrücken","type":"Regionalverband"},"federalState":{"key":"10","name":"Saarland"}},{"name":"St.Barbara-Str.","postalCode":"66352","locality":"Großrosseln","municipality":{"key":"10041512","name":"Großrosseln","type":"Kreisangehörige_Gemeinde"},"district":{"key":"10041","name":"Regionalverband Saarbrücken","type":"Regionalverband"},"federalState":{"key":"10","name":"Saarland"}},{"name":"St.Nikolauser Str.","postalCode":"66352","locality":"Großrosseln","municipality":{"key":"10041512","name":"Großrosseln","type":"Kreisangehörige_Gemeinde"},"district":{"key":"10041","name":"Regionalverband Saarbrücken","type":"Regionalverband"},"federalState":{"key":"10","name":"Saarland"}},{"name":"Tannenweg","postalCode":"66352","locality":"Großrosseln","municipality":{"key":"10041512","name":"Großrosseln","type":"Kreisangehörige_Gemeinde"},"district":{"key":"10041","name":"Regionalverband Saarbrücken","type":"Regionalverband"},"federalState":{"key":"10","name":"Saarland"}},{"name":"Tulpenstr.","postalCode":"66352","locality":"Großrosseln","municipality":{"key":"10041512","name":"Großrosseln","type":"Kreisangehörige_Gemeinde"},"district":{"key":"10041","name":"Regionalverband Saarbrücken","type":"Regionalverband"},"federalState":{"key":"10","name":"Saarland"}},{"name":"Untere Feldstr.","postalCode":"66352","locality":"Großrosseln","municipality":{"key":"10041512","name":"Großrosseln","type":"Kreisangehörige_Gemeinde"},"district":{"key":"10041","name":"Regionalverband Saarbrücken","type":"Regionalverband"},"federalState":{"key":"10","name":"Saarland"}},{"name":"Wackenhübel","postalCode":"66352","locality":"Großrosseln","municipality":{"key":"10041512","name":"Großrosseln","type":"Kreisangehörige_Gemeinde"},"district":{"key":"10041","name":"Regionalverband Saarbrücken","type":"Regionalverband"},"federalState":{"key":"10","name":"Saarland"}},{"name":"Waldrösberg","postalCode":"66352","locality":"Großrosseln","municipality":{"key":"10041512","name":"Großrosseln","type":"Kreisangehörige_Gemeinde"},"district":{"key":"10041","name":"Regionalverband Saarbrücken","type":"Regionalverband"},"federalState":{"key":"10","name":"Saarland"}},{"name":"Waldstr.","postalCode":"66352","locality":"Großrosseln","municipality":{"key":"10041512","name":"Großrosseln","type":"Kreisangehörige_Gemeinde"},"district":{"key":"10041","name":"Regionalverband Saarbrücken","type":"Regionalverband"},"federalState":{"key":"10","name":"Saarland"}},{"name":"Warndtstr.","postalCode":"66352","locality":"Großrosseln","municipality":{"key":"10041512","name":"Großrosseln","type":"Kreisangehörige_Gemeinde"},"district":{"key":"10041","name":"Regionalverband Saarbrücken","type":"Regionalverband"},"federalState":{"key":"10","name":"Saarland"}},{"name":"Wiesenstr.","postalCode":"66352","locality":"Großrosseln","municipality":{"key":"10041512","name":"Großrosseln","type":"Kreisangehörige_Gemeinde"},"district":{"key":"10041","name":"Regionalverband Saarbrücken","type":"Regionalverband"},"federalState":{"key":"10","name":"Saarland"}},{"name":"Wilhelm-Heinrich-Weg","postalCode":"66352","locality":"Großrosseln","municipality":{"key":"10041512","name":"Großrosseln","type":"Kreisangehörige_Gemeinde"},"district":{"key":"10041","name":"Regionalverband Saarbrücken","type":"Regionalverband"},"federalState":{"key":"10","name":"Saarland"}},{"name":"Wilhelm-Leuschner-Str.","postalCode":"66352","locality":"Großrosseln","municipality":{"key":"10041512","name":"Großrosseln","type":"Kreisangehörige_Gemeinde"},"district":{"key":"10041","name":"Regionalverband Saarbrücken","type":"Regionalverband"},"federalState":{"key":"10","name":"Saarland"}},{"name":"Willy-Brandt-Str.","postalCode":"66352","locality":"Großrosseln","municipality":{"key":"10041512","name":"Großrosseln","type":"Kreisangehörige_Gemeinde"},"district":{"key":"10041","name":"Regionalverband Saarbrücken","type":"Regionalverband"},"federalState":{"key":"10","name":"Saarland"}},{"name":"Ziegelei","postalCode":"66352","locality":"Großrosseln","municipality":{"key":"10041512","name":"Großrosseln","type":"Kreisangehörige_Gemeinde"},"district":{"key":"10041","name":"Regionalverband Saarbrücken","type":"Regionalverband"},"federalState":{"key":"10","name":"Saarland"}},{"name":"Zu den Eichen","postalCode":"66352","locality":"Großrosseln","municipality":{"key":"10041512","name":"Großrosseln","type":"Kreisangehörige_Gemeinde"},"district":{"key":"10041","name":"Regionalverband Saarbrücken","type":"Regionalverband"},"federalState":{"key":"10","name":"Saarland"}},{"name":"Zum Glockenberg","postalCode":"66352","locality":"Großrosseln","municipality":{"key":"10041512","name":"Großrosseln","type":"Kreisangehörige_Gemeinde"},"district":{"key":"10041","name":"Regionalverband Saarbrücken","type":"Regionalverband"},"federalState":{"key":"10","name":"Saarland"}},{"name":"Zum Kesselbrunnen","postalCode":"66352","locality":"Großrosseln","municipality":{"key":"10041512","name":"Großrosseln","type":"Kreisangehörige_Gemeinde"},"district":{"key":"10041","name":"Regionalverband Saarbrücken","type":"Regionalverband"},"federalState":{"key":"10","name":"Saarland"}},{"name":"Zum Meisenhübel","postalCode":"66352","locality":"Großrosseln","municipality":{"key":"10041512","name":"Großrosseln","type":"Kreisangehörige_Gemeinde"},"district":{"key":"10041","name":"Regionalverband Saarbrücken","type":"Regionalverband"},"federalState":{"key":"10","name":"Saarland"}},{"name":"Zum Schützenhaus","postalCode":"66352","locality":"Großrosseln","municipality":{"key":"10041512","name":"Großrosseln","type":"Kreisangehörige_Gemeinde"},"district":{"key":"10041","name":"Regionalverband Saarbrücken","type":"Regionalverband"},"federalState":{"key":"10","name":"Saarland"}},{"name":"Zum Steinberg","postalCode":"66352","locality":"Großrosseln","municipality":{"key":"10041512","name":"Großrosseln","type":"Kreisangehörige_Gemeinde"},"district":{"key":"10041","name":"Regionalverband Saarbrücken","type":"Regionalverband"},"federalState":{"key":"10","name":"Saarland"}},{"name":"Zum Tiefen Graben","postalCode":"66352","locality":"Großrosseln","municipality":{"key":"10041512","name":"Großrosseln","type":"Kreisangehörige_Gemeinde"},"district":{"key":"10041","name":"Regionalverband Saarbrücken","type":"Regionalverband"},"federalState":{"key":"10","name":"Saarland"}},{"name":"Zur Nachtweide","postalCode":"66352","locality":"Großrosseln","municipality":{"key":"10041512","name":"Großrosseln","type":"Kreisangehörige_Gemeinde"},"district":{"key":"10041","name":"Regionalverband Saarbrücken","type":"Regionalverband"},"federalState":{"key":"10","name":"Saarland"}},{"name":"Zur Urselsbach","postalCode":"66352","locality":"Großrosseln","municipality":{"key":"10041512","name":"Großrosseln","type":"Kreisangehörige_Gemeinde"},"district":{"key":"10041","name":"Regionalverband Saarbrücken","type":"Regionalverband"},"federalState":{"key":"10","name":"Saarland"}},{"name":"Zur Warndtwiese","postalCode":"66352","locality":"Großrosseln","municipality":{"key":"10041512","name":"Großrosseln","type":"Kreisangehörige_Gemeinde"},"district":{"key":"10041","name":"Regionalverband Saarbrücken","type":"Regionalverband"},"federalState":{"key":"10","name":"Saarland"}},]