[{"name":"Am Himmelstein","postalCode":"27432","locality":"Alfstedt","municipality":{"key":"03357002","name":"Alfstedt","type":"Kreisangehörige_Gemeinde"},"district":{"key":"03357","name":"Rotenburg (Wümme)","type":"Landkreis"},"federalState":{"key":"03","name":"Niedersachsen"}},{"name":"Am Kniepengrund","postalCode":"27432","locality":"Alfstedt","municipality":{"key":"03357002","name":"Alfstedt","type":"Kreisangehörige_Gemeinde"},"district":{"key":"03357","name":"Rotenburg (Wümme)","type":"Landkreis"},"federalState":{"key":"03","name":"Niedersachsen"}},{"name":"Auf der Hude","postalCode":"27432","locality":"Alfstedt","municipality":{"key":"03357002","name":"Alfstedt","type":"Kreisangehörige_Gemeinde"},"district":{"key":"03357","name":"Rotenburg (Wümme)","type":"Landkreis"},"federalState":{"key":"03","name":"Niedersachsen"}},{"name":"Blockbergsweg","postalCode":"27432","locality":"Alfstedt","municipality":{"key":"03357002","name":"Alfstedt","type":"Kreisangehörige_Gemeinde"},"district":{"key":"03357","name":"Rotenburg (Wümme)","type":"Landkreis"},"federalState":{"key":"03","name":"Niedersachsen"}},{"name":"Blöckenweg","postalCode":"27432","locality":"Alfstedt","municipality":{"key":"03357002","name":"Alfstedt","type":"Kreisangehörige_Gemeinde"},"district":{"key":"03357","name":"Rotenburg (Wümme)","type":"Landkreis"},"federalState":{"key":"03","name":"Niedersachsen"}},{"name":"Bredemeher Weg","postalCode":"27432","locality":"Alfstedt","municipality":{"key":"03357002","name":"Alfstedt","type":"Kreisangehörige_Gemeinde"},"district":{"key":"03357","name":"Rotenburg (Wümme)","type":"Landkreis"},"federalState":{"key":"03","name":"Niedersachsen"}},{"name":"Burgweg","postalCode":"27432","locality":"Alfstedt","municipality":{"key":"03357002","name":"Alfstedt","type":"Kreisangehörige_Gemeinde"},"district":{"key":"03357","name":"Rotenburg (Wümme)","type":"Landkreis"},"federalState":{"key":"03","name":"Niedersachsen"}},{"name":"Dorfstr.","postalCode":"27432","locality":"Alfstedt","municipality":{"key":"03357002","name":"Alfstedt","type":"Kreisangehörige_Gemeinde"},"district":{"key":"03357","name":"Rotenburg (Wümme)","type":"Landkreis"},"federalState":{"key":"03","name":"Niedersachsen"}},{"name":"Friedhofsweg","postalCode":"27432","locality":"Alfstedt","municipality":{"key":"03357002","name":"Alfstedt","type":"Kreisangehörige_Gemeinde"},"district":{"key":"03357","name":"Rotenburg (Wümme)","type":"Landkreis"},"federalState":{"key":"03","name":"Niedersachsen"}},{"name":"Fuhrtweg","postalCode":"27432","locality":"Alfstedt","municipality":{"key":"03357002","name":"Alfstedt","type":"Kreisangehörige_Gemeinde"},"district":{"key":"03357","name":"Rotenburg (Wümme)","type":"Landkreis"},"federalState":{"key":"03","name":"Niedersachsen"}},{"name":"Ham-Barg","postalCode":"27432","locality":"Alfstedt","municipality":{"key":"03357002","name":"Alfstedt","type":"Kreisangehörige_Gemeinde"},"district":{"key":"03357","name":"Rotenburg (Wümme)","type":"Landkreis"},"federalState":{"key":"03","name":"Niedersachsen"}},{"name":"Hauptstr.","postalCode":"27432","locality":"Alfstedt","municipality":{"key":"03357002","name":"Alfstedt","type":"Kreisangehörige_Gemeinde"},"district":{"key":"03357","name":"Rotenburg (Wümme)","type":"Landkreis"},"federalState":{"key":"03","name":"Niedersachsen"}},{"name":"Heidtrift","postalCode":"27432","locality":"Alfstedt","municipality":{"key":"03357002","name":"Alfstedt","type":"Kreisangehörige_Gemeinde"},"district":{"key":"03357","name":"Rotenburg (Wümme)","type":"Landkreis"},"federalState":{"key":"03","name":"Niedersachsen"}},{"name":"Hohenfelde","postalCode":"27432","locality":"Alfstedt","municipality":{"key":"03357002","name":"Alfstedt","type":"Kreisangehörige_Gemeinde"},"district":{"key":"03357","name":"Rotenburg (Wümme)","type":"Landkreis"},"federalState":{"key":"03","name":"Niedersachsen"}},{"name":"Jacobstr.","postalCode":"27432","locality":"Alfstedt","municipality":{"key":"03357002","name":"Alfstedt","type":"Kreisangehörige_Gemeinde"},"district":{"key":"03357","name":"Rotenburg (Wümme)","type":"Landkreis"},"federalState":{"key":"03","name":"Niedersachsen"}},{"name":"Knickweg","postalCode":"27432","locality":"Alfstedt","municipality":{"key":"03357002","name":"Alfstedt","type":"Kreisangehörige_Gemeinde"},"district":{"key":"03357","name":"Rotenburg (Wümme)","type":"Landkreis"},"federalState":{"key":"03","name":"Niedersachsen"}},{"name":"Kohlkampsweg","postalCode":"27432","locality":"Alfstedt","municipality":{"key":"03357002","name":"Alfstedt","type":"Kreisangehörige_Gemeinde"},"district":{"key":"03357","name":"Rotenburg (Wümme)","type":"Landkreis"},"federalState":{"key":"03","name":"Niedersachsen"}},{"name":"Kreendamm","postalCode":"27432","locality":"Alfstedt","municipality":{"key":"03357002","name":"Alfstedt","type":"Kreisangehörige_Gemeinde"},"district":{"key":"03357","name":"Rotenburg (Wümme)","type":"Landkreis"},"federalState":{"key":"03","name":"Niedersachsen"}},{"name":"Langer Weg","postalCode":"27432","locality":"Alfstedt","municipality":{"key":"03357002","name":"Alfstedt","type":"Kreisangehörige_Gemeinde"},"district":{"key":"03357","name":"Rotenburg (Wümme)","type":"Landkreis"},"federalState":{"key":"03","name":"Niedersachsen"}},{"name":"Logenweg","postalCode":"27432","locality":"Alfstedt","municipality":{"key":"03357002","name":"Alfstedt","type":"Kreisangehörige_Gemeinde"},"district":{"key":"03357","name":"Rotenburg (Wümme)","type":"Landkreis"},"federalState":{"key":"03","name":"Niedersachsen"}},{"name":"Moorland","postalCode":"27432","locality":"Alfstedt","municipality":{"key":"03357002","name":"Alfstedt","type":"Kreisangehörige_Gemeinde"},"district":{"key":"03357","name":"Rotenburg (Wümme)","type":"Landkreis"},"federalState":{"key":"03","name":"Niedersachsen"}},{"name":"Mühlenweg","postalCode":"27432","locality":"Alfstedt","municipality":{"key":"03357002","name":"Alfstedt","type":"Kreisangehörige_Gemeinde"},"district":{"key":"03357","name":"Rotenburg (Wümme)","type":"Landkreis"},"federalState":{"key":"03","name":"Niedersachsen"}},{"name":"Neulandweg","postalCode":"27432","locality":"Alfstedt","municipality":{"key":"03357002","name":"Alfstedt","type":"Kreisangehörige_Gemeinde"},"district":{"key":"03357","name":"Rotenburg (Wümme)","type":"Landkreis"},"federalState":{"key":"03","name":"Niedersachsen"}},{"name":"Pommernweg","postalCode":"27432","locality":"Alfstedt","municipality":{"key":"03357002","name":"Alfstedt","type":"Kreisangehörige_Gemeinde"},"district":{"key":"03357","name":"Rotenburg (Wümme)","type":"Landkreis"},"federalState":{"key":"03","name":"Niedersachsen"}},{"name":"Ringweg","postalCode":"27432","locality":"Alfstedt","municipality":{"key":"03357002","name":"Alfstedt","type":"Kreisangehörige_Gemeinde"},"district":{"key":"03357","name":"Rotenburg (Wümme)","type":"Landkreis"},"federalState":{"key":"03","name":"Niedersachsen"}},{"name":"Rosenweg","postalCode":"27432","locality":"Alfstedt","municipality":{"key":"03357002","name":"Alfstedt","type":"Kreisangehörige_Gemeinde"},"district":{"key":"03357","name":"Rotenburg (Wümme)","type":"Landkreis"},"federalState":{"key":"03","name":"Niedersachsen"}},{"name":"Schulstr.","postalCode":"27432","locality":"Alfstedt","municipality":{"key":"03357002","name":"Alfstedt","type":"Kreisangehörige_Gemeinde"},"district":{"key":"03357","name":"Rotenburg (Wümme)","type":"Landkreis"},"federalState":{"key":"03","name":"Niedersachsen"}},{"name":"Teelsheide","postalCode":"27432","locality":"Alfstedt","municipality":{"key":"03357002","name":"Alfstedt","type":"Kreisangehörige_Gemeinde"},"district":{"key":"03357","name":"Rotenburg (Wümme)","type":"Landkreis"},"federalState":{"key":"03","name":"Niedersachsen"}},{"name":"Uhlenweg","postalCode":"27432","locality":"Alfstedt","municipality":{"key":"03357002","name":"Alfstedt","type":"Kreisangehörige_Gemeinde"},"district":{"key":"03357","name":"Rotenburg (Wümme)","type":"Landkreis"},"federalState":{"key":"03","name":"Niedersachsen"}},]