[{"key":"10009798","name":"Ausserdorf","postalCode":"2577","locality":"Siselen BE","commune":{"key":"499","name":"Siselen","shortName":"Siselen"},"district":{"key":"243","name":"Verwaltungskreis Seeland"},"canton":{"key":"2","code":"BE","name":"Bern / Berne"},"status":"Real"},{"key":"10182041","name":"Bahnhofstrasse","postalCode":"2577","locality":"Siselen BE","commune":{"key":"499","name":"Siselen","shortName":"Siselen"},"district":{"key":"243","name":"Verwaltungskreis Seeland"},"canton":{"key":"2","code":"BE","name":"Bern / Berne"},"status":"Real"},{"key":"10211546","name":"Brüelstrasse","postalCode":"2577","locality":"Siselen BE","commune":{"key":"499","name":"Siselen","shortName":"Siselen"},"district":{"key":"243","name":"Verwaltungskreis Seeland"},"canton":{"key":"2","code":"BE","name":"Bern / Berne"},"status":"Real"},{"key":"10009799","name":"Brünnenrain","postalCode":"2577","locality":"Siselen BE","commune":{"key":"499","name":"Siselen","shortName":"Siselen"},"district":{"key":"243","name":"Verwaltungskreis Seeland"},"canton":{"key":"2","code":"BE","name":"Bern / Berne"},"status":"Real"},{"key":"10217773","name":"Einschlagweg","postalCode":"2577","locality":"Siselen BE","commune":{"key":"499","name":"Siselen","shortName":"Siselen"},"district":{"key":"243","name":"Verwaltungskreis Seeland"},"canton":{"key":"2","code":"BE","name":"Bern / Berne"},"status":"Real"},{"key":"10217777","name":"Grosswaldweg","postalCode":"2577","locality":"Siselen BE","commune":{"key":"499","name":"Siselen","shortName":"Siselen"},"district":{"key":"243","name":"Verwaltungskreis Seeland"},"canton":{"key":"2","code":"BE","name":"Bern / Berne"},"status":"Real"},{"key":"10066280","name":"Grubenweg","postalCode":"2577","locality":"Siselen BE","commune":{"key":"499","name":"Siselen","shortName":"Siselen"},"district":{"key":"243","name":"Verwaltungskreis Seeland"},"canton":{"key":"2","code":"BE","name":"Bern / Berne"},"status":"Real"},{"key":"10009800","name":"Hausteilenweg","postalCode":"2577","locality":"Siselen BE","commune":{"key":"499","name":"Siselen","shortName":"Siselen"},"district":{"key":"243","name":"Verwaltungskreis Seeland"},"canton":{"key":"2","code":"BE","name":"Bern / Berne"},"status":"Real"},{"key":"10177332","name":"Hinterdorf","postalCode":"2577","locality":"Siselen BE","commune":{"key":"499","name":"Siselen","shortName":"Siselen"},"district":{"key":"243","name":"Verwaltungskreis Seeland"},"canton":{"key":"2","code":"BE","name":"Bern / Berne"},"status":"Real"},{"key":"10217780","name":"Hohlenwald","postalCode":"2577","locality":"Siselen BE","commune":{"key":"499","name":"Siselen","shortName":"Siselen"},"district":{"key":"243","name":"Verwaltungskreis Seeland"},"canton":{"key":"2","code":"BE","name":"Bern / Berne"},"status":"Real"},{"key":"10082511","name":"Hollermattenweg","postalCode":"2577","locality":"Siselen BE","commune":{"key":"499","name":"Siselen","shortName":"Siselen"},"district":{"key":"243","name":"Verwaltungskreis Seeland"},"canton":{"key":"2","code":"BE","name":"Bern / Berne"},"status":"Real"},{"key":"10066281","name":"Juchen","postalCode":"2577","locality":"Siselen BE","commune":{"key":"499","name":"Siselen","shortName":"Siselen"},"district":{"key":"243","name":"Verwaltungskreis Seeland"},"canton":{"key":"2","code":"BE","name":"Bern / Berne"},"status":"Real"},{"key":"10169807","name":"Juraweg","postalCode":"2577","locality":"Siselen BE","commune":{"key":"499","name":"Siselen","shortName":"Siselen"},"district":{"key":"243","name":"Verwaltungskreis Seeland"},"canton":{"key":"2","code":"BE","name":"Bern / Berne"},"status":"Real"},{"key":"10009801","name":"Käsereiweg","postalCode":"2577","locality":"Siselen BE","commune":{"key":"499","name":"Siselen","shortName":"Siselen"},"district":{"key":"243","name":"Verwaltungskreis Seeland"},"canton":{"key":"2","code":"BE","name":"Bern / Berne"},"status":"Real"},{"key":"10009802","name":"Längjuchweg","postalCode":"2577","locality":"Siselen BE","commune":{"key":"499","name":"Siselen","shortName":"Siselen"},"district":{"key":"243","name":"Verwaltungskreis Seeland"},"canton":{"key":"2","code":"BE","name":"Bern / Berne"},"status":"Real"},{"key":"10066282","name":"Mühlenweg","postalCode":"2577","locality":"Siselen BE","commune":{"key":"499","name":"Siselen","shortName":"Siselen"},"district":{"key":"243","name":"Verwaltungskreis Seeland"},"canton":{"key":"2","code":"BE","name":"Bern / Berne"},"status":"Real"},{"key":"10217787","name":"Neumoosweg","postalCode":"2577","locality":"Siselen BE","commune":{"key":"499","name":"Siselen","shortName":"Siselen"},"district":{"key":"243","name":"Verwaltungskreis Seeland"},"canton":{"key":"2","code":"BE","name":"Bern / Berne"},"status":"Real"},{"key":"10008354","name":"Rebenweg","postalCode":"2577","locality":"Siselen BE","commune":{"key":"499","name":"Siselen","shortName":"Siselen"},"district":{"key":"243","name":"Verwaltungskreis Seeland"},"canton":{"key":"2","code":"BE","name":"Bern / Berne"},"status":"Real"},{"key":"10008355","name":"Rübenweg","postalCode":"2577","locality":"Siselen BE","commune":{"key":"499","name":"Siselen","shortName":"Siselen"},"district":{"key":"243","name":"Verwaltungskreis Seeland"},"canton":{"key":"2","code":"BE","name":"Bern / Berne"},"status":"Real"},{"key":"10082512","name":"Sandernweg","postalCode":"2577","locality":"Siselen BE","commune":{"key":"499","name":"Siselen","shortName":"Siselen"},"district":{"key":"243","name":"Verwaltungskreis Seeland"},"canton":{"key":"2","code":"BE","name":"Bern / Berne"},"status":"Real"},{"key":"10008356","name":"Schulhausstrasse","postalCode":"2577","locality":"Siselen BE","commune":{"key":"499","name":"Siselen","shortName":"Siselen"},"district":{"key":"243","name":"Verwaltungskreis Seeland"},"canton":{"key":"2","code":"BE","name":"Bern / Berne"},"status":"Real"},{"key":"10135264","name":"Schützenhausweg","postalCode":"2577","locality":"Siselen BE","commune":{"key":"499","name":"Siselen","shortName":"Siselen"},"district":{"key":"243","name":"Verwaltungskreis Seeland"},"canton":{"key":"2","code":"BE","name":"Bern / Berne"},"status":"Real"},{"key":"10066283","name":"Sonnenrain","postalCode":"2577","locality":"Siselen BE","commune":{"key":"499","name":"Siselen","shortName":"Siselen"},"district":{"key":"243","name":"Verwaltungskreis Seeland"},"canton":{"key":"2","code":"BE","name":"Bern / Berne"},"status":"Real"},{"key":"10177333","name":"Steinackerweg","postalCode":"2577","locality":"Siselen BE","commune":{"key":"499","name":"Siselen","shortName":"Siselen"},"district":{"key":"243","name":"Verwaltungskreis Seeland"},"canton":{"key":"2","code":"BE","name":"Bern / Berne"},"status":"Real"},{"key":"10126641","name":"Turbenweg","postalCode":"2577","locality":"Siselen BE","commune":{"key":"499","name":"Siselen","shortName":"Siselen"},"district":{"key":"243","name":"Verwaltungskreis Seeland"},"canton":{"key":"2","code":"BE","name":"Bern / Berne"},"status":"Real"},{"key":"10217789","name":"Vehweg","postalCode":"2577","locality":"Siselen BE","commune":{"key":"499","name":"Siselen","shortName":"Siselen"},"district":{"key":"243","name":"Verwaltungskreis Seeland"},"canton":{"key":"2","code":"BE","name":"Bern / Berne"},"status":"Real"},{"key":"10082513","name":"Vorderdorf","postalCode":"2577","locality":"Siselen BE","commune":{"key":"499","name":"Siselen","shortName":"Siselen"},"district":{"key":"243","name":"Verwaltungskreis Seeland"},"canton":{"key":"2","code":"BE","name":"Bern / Berne"},"status":"Real"},{"key":"10066284","name":"Weingartenweg","postalCode":"2577","locality":"Siselen BE","commune":{"key":"499","name":"Siselen","shortName":"Siselen"},"district":{"key":"243","name":"Verwaltungskreis Seeland"},"canton":{"key":"2","code":"BE","name":"Bern / Berne"},"status":"Real"},]