[{"name":"Alm","postalCode":"94089","locality":"Neureichenau","municipality":{"key":"09272136","name":"Neureichenau","type":"Kreisangehörige_Gemeinde"},"district":{"key":"09272","name":"Freyung-Grafenau","type":"Landkreis"},"federalState":{"key":"09","name":"Bayern"}},{"name":"Am Liegbach","postalCode":"94089","locality":"Neureichenau","municipality":{"key":"09272136","name":"Neureichenau","type":"Kreisangehörige_Gemeinde"},"district":{"key":"09272","name":"Freyung-Grafenau","type":"Landkreis"},"federalState":{"key":"09","name":"Bayern"}},{"name":"Bahnhofstr.","postalCode":"94089","locality":"Neureichenau","municipality":{"key":"09272136","name":"Neureichenau","type":"Kreisangehörige_Gemeinde"},"district":{"key":"09272","name":"Freyung-Grafenau","type":"Landkreis"},"federalState":{"key":"09","name":"Bayern"}},{"name":"Binderberg","postalCode":"94089","locality":"Neureichenau","municipality":{"key":"09272136","name":"Neureichenau","type":"Kreisangehörige_Gemeinde"},"district":{"key":"09272","name":"Freyung-Grafenau","type":"Landkreis"},"federalState":{"key":"09","name":"Bayern"}},{"name":"Branntweinhäuser","postalCode":"94089","locality":"Neureichenau","municipality":{"key":"09272136","name":"Neureichenau","type":"Kreisangehörige_Gemeinde"},"district":{"key":"09272","name":"Freyung-Grafenau","type":"Landkreis"},"federalState":{"key":"09","name":"Bayern"}},{"name":"Dorfplatz","postalCode":"94089","locality":"Neureichenau","municipality":{"key":"09272136","name":"Neureichenau","type":"Kreisangehörige_Gemeinde"},"district":{"key":"09272","name":"Freyung-Grafenau","type":"Landkreis"},"federalState":{"key":"09","name":"Bayern"}},{"name":"Dorfstr.","postalCode":"94089","locality":"Neureichenau","municipality":{"key":"09272136","name":"Neureichenau","type":"Kreisangehörige_Gemeinde"},"district":{"key":"09272","name":"Freyung-Grafenau","type":"Landkreis"},"federalState":{"key":"09","name":"Bayern"}},{"name":"Dreisesselstr.","postalCode":"94089","locality":"Neureichenau","municipality":{"key":"09272136","name":"Neureichenau","type":"Kreisangehörige_Gemeinde"},"district":{"key":"09272","name":"Freyung-Grafenau","type":"Landkreis"},"federalState":{"key":"09","name":"Bayern"}},{"name":"Firmianstr.","postalCode":"94089","locality":"Neureichenau","municipality":{"key":"09272136","name":"Neureichenau","type":"Kreisangehörige_Gemeinde"},"district":{"key":"09272","name":"Freyung-Grafenau","type":"Landkreis"},"federalState":{"key":"09","name":"Bayern"}},{"name":"Franzlsteig","postalCode":"94089","locality":"Neureichenau","municipality":{"key":"09272136","name":"Neureichenau","type":"Kreisangehörige_Gemeinde"},"district":{"key":"09272","name":"Freyung-Grafenau","type":"Landkreis"},"federalState":{"key":"09","name":"Bayern"}},{"name":"Gassenweg","postalCode":"94089","locality":"Neureichenau","municipality":{"key":"09272136","name":"Neureichenau","type":"Kreisangehörige_Gemeinde"},"district":{"key":"09272","name":"Freyung-Grafenau","type":"Landkreis"},"federalState":{"key":"09","name":"Bayern"}},{"name":"Goldbachstr.","postalCode":"94089","locality":"Neureichenau","municipality":{"key":"09272136","name":"Neureichenau","type":"Kreisangehörige_Gemeinde"},"district":{"key":"09272","name":"Freyung-Grafenau","type":"Landkreis"},"federalState":{"key":"09","name":"Bayern"}},{"name":"Goldsteig / Themenwanderweg","postalCode":"94089","locality":"Neureichenau","municipality":{"key":"09272136","name":"Neureichenau","type":"Kreisangehörige_Gemeinde"},"district":{"key":"09272","name":"Freyung-Grafenau","type":"Landkreis"},"federalState":{"key":"09","name":"Bayern"}},{"name":"Göttlzug","postalCode":"94089","locality":"Neureichenau","municipality":{"key":"09272136","name":"Neureichenau","type":"Kreisangehörige_Gemeinde"},"district":{"key":"09272","name":"Freyung-Grafenau","type":"Landkreis"},"federalState":{"key":"09","name":"Bayern"}},{"name":"Hängerstufenweg","postalCode":"94089","locality":"Neureichenau","municipality":{"key":"09272136","name":"Neureichenau","type":"Kreisangehörige_Gemeinde"},"district":{"key":"09272","name":"Freyung-Grafenau","type":"Landkreis"},"federalState":{"key":"09","name":"Bayern"}},{"name":"Hauerwiese","postalCode":"94089","locality":"Neureichenau","municipality":{"key":"09272136","name":"Neureichenau","type":"Kreisangehörige_Gemeinde"},"district":{"key":"09272","name":"Freyung-Grafenau","type":"Landkreis"},"federalState":{"key":"09","name":"Bayern"}},{"name":"Hauptstr.","postalCode":"94089","locality":"Neureichenau","municipality":{"key":"09272136","name":"Neureichenau","type":"Kreisangehörige_Gemeinde"},"district":{"key":"09272","name":"Freyung-Grafenau","type":"Landkreis"},"federalState":{"key":"09","name":"Bayern"}},{"name":"Hinterfreundorf","postalCode":"94089","locality":"Neureichenau","municipality":{"key":"09272136","name":"Neureichenau","type":"Kreisangehörige_Gemeinde"},"district":{"key":"09272","name":"Freyung-Grafenau","type":"Landkreis"},"federalState":{"key":"09","name":"Bayern"}},{"name":"Hochfeld","postalCode":"94089","locality":"Neureichenau","municipality":{"key":"09272136","name":"Neureichenau","type":"Kreisangehörige_Gemeinde"},"district":{"key":"09272","name":"Freyung-Grafenau","type":"Landkreis"},"federalState":{"key":"09","name":"Bayern"}},{"name":"Hochstr.","postalCode":"94089","locality":"Neureichenau","municipality":{"key":"09272136","name":"Neureichenau","type":"Kreisangehörige_Gemeinde"},"district":{"key":"09272","name":"Freyung-Grafenau","type":"Landkreis"},"federalState":{"key":"09","name":"Bayern"}},{"name":"Jandelsbrunner Str.","postalCode":"94089","locality":"Neureichenau","municipality":{"key":"09272136","name":"Neureichenau","type":"Kreisangehörige_Gemeinde"},"district":{"key":"09272","name":"Freyung-Grafenau","type":"Landkreis"},"federalState":{"key":"09","name":"Bayern"}},{"name":"Kapellenstr.","postalCode":"94089","locality":"Neureichenau","municipality":{"key":"09272136","name":"Neureichenau","type":"Kreisangehörige_Gemeinde"},"district":{"key":"09272","name":"Freyung-Grafenau","type":"Landkreis"},"federalState":{"key":"09","name":"Bayern"}},{"name":"Klafferstraß","postalCode":"94089","locality":"Neureichenau","municipality":{"key":"09272136","name":"Neureichenau","type":"Kreisangehörige_Gemeinde"},"district":{"key":"09272","name":"Freyung-Grafenau","type":"Landkreis"},"federalState":{"key":"09","name":"Bayern"}},{"name":"Klausenweg","postalCode":"94089","locality":"Neureichenau","municipality":{"key":"09272136","name":"Neureichenau","type":"Kreisangehörige_Gemeinde"},"district":{"key":"09272","name":"Freyung-Grafenau","type":"Landkreis"},"federalState":{"key":"09","name":"Bayern"}},{"name":"Lackenhäuser","postalCode":"94089","locality":"Neureichenau","municipality":{"key":"09272136","name":"Neureichenau","type":"Kreisangehörige_Gemeinde"},"district":{"key":"09272","name":"Freyung-Grafenau","type":"Landkreis"},"federalState":{"key":"09","name":"Bayern"}},{"name":"Langbruck","postalCode":"94089","locality":"Neureichenau","municipality":{"key":"09272136","name":"Neureichenau","type":"Kreisangehörige_Gemeinde"},"district":{"key":"09272","name":"Freyung-Grafenau","type":"Landkreis"},"federalState":{"key":"09","name":"Bayern"}},{"name":"Mühlberg","postalCode":"94089","locality":"Neureichenau","municipality":{"key":"09272136","name":"Neureichenau","type":"Kreisangehörige_Gemeinde"},"district":{"key":"09272","name":"Freyung-Grafenau","type":"Landkreis"},"federalState":{"key":"09","name":"Bayern"}},{"name":"Reichenauer Str.","postalCode":"94089","locality":"Neureichenau","municipality":{"key":"09272136","name":"Neureichenau","type":"Kreisangehörige_Gemeinde"},"district":{"key":"09272","name":"Freyung-Grafenau","type":"Landkreis"},"federalState":{"key":"09","name":"Bayern"}},{"name":"Riedelsbach","postalCode":"94089","locality":"Neureichenau","municipality":{"key":"09272136","name":"Neureichenau","type":"Kreisangehörige_Gemeinde"},"district":{"key":"09272","name":"Freyung-Grafenau","type":"Landkreis"},"federalState":{"key":"09","name":"Bayern"}},{"name":"Schimmelbach","postalCode":"94089","locality":"Neureichenau","municipality":{"key":"09272136","name":"Neureichenau","type":"Kreisangehörige_Gemeinde"},"district":{"key":"09272","name":"Freyung-Grafenau","type":"Landkreis"},"federalState":{"key":"09","name":"Bayern"}},{"name":"Schulstr.","postalCode":"94089","locality":"Neureichenau","municipality":{"key":"09272136","name":"Neureichenau","type":"Kreisangehörige_Gemeinde"},"district":{"key":"09272","name":"Freyung-Grafenau","type":"Landkreis"},"federalState":{"key":"09","name":"Bayern"}},{"name":"Sonnwendberg","postalCode":"94089","locality":"Neureichenau","municipality":{"key":"09272136","name":"Neureichenau","type":"Kreisangehörige_Gemeinde"},"district":{"key":"09272","name":"Freyung-Grafenau","type":"Landkreis"},"federalState":{"key":"09","name":"Bayern"}},]