[{"name":"Baybachtal","postalCode":"56291","locality":"Thörlingen","municipality":{"key":"07140149","name":"Thörlingen","type":"Kreisangehörige_Gemeinde"},"district":{"key":"07140","name":"Rhein-Hunsrück-Kreis","type":"Landkreis"},"federalState":{"key":"07","name":"Rheinland-Pfalz"}},{"name":"Bergstr.","postalCode":"56291","locality":"Thörlingen","municipality":{"key":"07140149","name":"Thörlingen","type":"Kreisangehörige_Gemeinde"},"district":{"key":"07140","name":"Rhein-Hunsrück-Kreis","type":"Landkreis"},"federalState":{"key":"07","name":"Rheinland-Pfalz"}},{"name":"Hauptstr.","postalCode":"56291","locality":"Thörlingen","municipality":{"key":"07140149","name":"Thörlingen","type":"Kreisangehörige_Gemeinde"},"district":{"key":"07140","name":"Rhein-Hunsrück-Kreis","type":"Landkreis"},"federalState":{"key":"07","name":"Rheinland-Pfalz"}},{"name":"In der Hohl","postalCode":"56291","locality":"Thörlingen","municipality":{"key":"07140149","name":"Thörlingen","type":"Kreisangehörige_Gemeinde"},"district":{"key":"07140","name":"Rhein-Hunsrück-Kreis","type":"Landkreis"},"federalState":{"key":"07","name":"Rheinland-Pfalz"}},{"name":"Kapellenweg","postalCode":"56291","locality":"Thörlingen","municipality":{"key":"07140149","name":"Thörlingen","type":"Kreisangehörige_Gemeinde"},"district":{"key":"07140","name":"Rhein-Hunsrück-Kreis","type":"Landkreis"},"federalState":{"key":"07","name":"Rheinland-Pfalz"}},{"name":"Oberstr.","postalCode":"56291","locality":"Thörlingen","municipality":{"key":"07140149","name":"Thörlingen","type":"Kreisangehörige_Gemeinde"},"district":{"key":"07140","name":"Rhein-Hunsrück-Kreis","type":"Landkreis"},"federalState":{"key":"07","name":"Rheinland-Pfalz"}},{"name":"Talweg","postalCode":"56291","locality":"Thörlingen","municipality":{"key":"07140149","name":"Thörlingen","type":"Kreisangehörige_Gemeinde"},"district":{"key":"07140","name":"Rhein-Hunsrück-Kreis","type":"Landkreis"},"federalState":{"key":"07","name":"Rheinland-Pfalz"}},{"name":"Weiherstr.","postalCode":"56291","locality":"Thörlingen","municipality":{"key":"07140149","name":"Thörlingen","type":"Kreisangehörige_Gemeinde"},"district":{"key":"07140","name":"Rhein-Hunsrück-Kreis","type":"Landkreis"},"federalState":{"key":"07","name":"Rheinland-Pfalz"}},]