[{"name":"Adolf-Kolping-Str.","postalCode":"57627","locality":"Hachenburg","municipality":{"key":"07143229","name":"Hachenburg, Stadt","type":"Stadt"},"district":{"key":"07143","name":"Westerwaldkreis","type":"Landkreis"},"federalState":{"key":"07","name":"Rheinland-Pfalz"}},{"name":"Adolf-Münch-Weg","postalCode":"57627","locality":"Hachenburg","municipality":{"key":"07143229","name":"Hachenburg, Stadt","type":"Stadt"},"district":{"key":"07143","name":"Westerwaldkreis","type":"Landkreis"},"federalState":{"key":"07","name":"Rheinland-Pfalz"}},{"name":"Adolph-Kolping-Str.","postalCode":"57627","locality":"Hachenburg","municipality":{"key":"07143229","name":"Hachenburg, Stadt","type":"Stadt"},"district":{"key":"07143","name":"Westerwaldkreis","type":"Landkreis"},"federalState":{"key":"07","name":"Rheinland-Pfalz"}},{"name":"Adolphweg","postalCode":"57627","locality":"Hachenburg","municipality":{"key":"07143229","name":"Hachenburg, Stadt","type":"Stadt"},"district":{"key":"07143","name":"Westerwaldkreis","type":"Landkreis"},"federalState":{"key":"07","name":"Rheinland-Pfalz"}},{"name":"Albertine-von-Grün-Str.","postalCode":"57627","locality":"Hachenburg","municipality":{"key":"07143229","name":"Hachenburg, Stadt","type":"Stadt"},"district":{"key":"07143","name":"Westerwaldkreis","type":"Landkreis"},"federalState":{"key":"07","name":"Rheinland-Pfalz"}},{"name":"Alexanderring","postalCode":"57627","locality":"Hachenburg","municipality":{"key":"07143229","name":"Hachenburg, Stadt","type":"Stadt"},"district":{"key":"07143","name":"Westerwaldkreis","type":"Landkreis"},"federalState":{"key":"07","name":"Rheinland-Pfalz"}},{"name":"Alpenroder Str.","postalCode":"57627","locality":"Hachenburg","municipality":{"key":"07143229","name":"Hachenburg, Stadt","type":"Stadt"},"district":{"key":"07143","name":"Westerwaldkreis","type":"Landkreis"},"federalState":{"key":"07","name":"Rheinland-Pfalz"}},{"name":"Alte Frankfurter Str.","postalCode":"57627","locality":"Hachenburg","municipality":{"key":"07143229","name":"Hachenburg, Stadt","type":"Stadt"},"district":{"key":"07143","name":"Westerwaldkreis","type":"Landkreis"},"federalState":{"key":"07","name":"Rheinland-Pfalz"}},{"name":"Altenkirchener Str.","postalCode":"57614","locality":"Berod bei Hachenburg","municipality":{"key":"07132201","name":"Berod bei Hachenburg","type":"Kreisangehörige_Gemeinde"},"district":{"key":"07132","name":"Altenkirchen (Westerwald)","type":"Landkreis"},"federalState":{"key":"07","name":"Rheinland-Pfalz"}},{"name":"Am Burggarten","postalCode":"57627","locality":"Hachenburg","municipality":{"key":"07143229","name":"Hachenburg, Stadt","type":"Stadt"},"district":{"key":"07143","name":"Westerwaldkreis","type":"Landkreis"},"federalState":{"key":"07","name":"Rheinland-Pfalz"}},{"name":"Am Hebeberg","postalCode":"57627","locality":"Hachenburg","municipality":{"key":"07143229","name":"Hachenburg, Stadt","type":"Stadt"},"district":{"key":"07143","name":"Westerwaldkreis","type":"Landkreis"},"federalState":{"key":"07","name":"Rheinland-Pfalz"}},{"name":"Am Hopfengarten","postalCode":"57627","locality":"Hachenburg","municipality":{"key":"07143229","name":"Hachenburg, Stadt","type":"Stadt"},"district":{"key":"07143","name":"Westerwaldkreis","type":"Landkreis"},"federalState":{"key":"07","name":"Rheinland-Pfalz"}},{"name":"Am Lauterberg","postalCode":"57614","locality":"Berod bei Hachenburg","municipality":{"key":"07132201","name":"Berod bei Hachenburg","type":"Kreisangehörige_Gemeinde"},"district":{"key":"07132","name":"Altenkirchen (Westerwald)","type":"Landkreis"},"federalState":{"key":"07","name":"Rheinland-Pfalz"}},{"name":"Am Rothenberg","postalCode":"57627","locality":"Hachenburg","municipality":{"key":"07143229","name":"Hachenburg, Stadt","type":"Stadt"},"district":{"key":"07143","name":"Westerwaldkreis","type":"Landkreis"},"federalState":{"key":"07","name":"Rheinland-Pfalz"}},{"name":"Am Schützenplatz","postalCode":"57627","locality":"Hachenburg","municipality":{"key":"07143229","name":"Hachenburg, Stadt","type":"Stadt"},"district":{"key":"07143","name":"Westerwaldkreis","type":"Landkreis"},"federalState":{"key":"07","name":"Rheinland-Pfalz"}},{"name":"Am Schwimmbad","postalCode":"57627","locality":"Hachenburg","municipality":{"key":"07143229","name":"Hachenburg, Stadt","type":"Stadt"},"district":{"key":"07143","name":"Westerwaldkreis","type":"Landkreis"},"federalState":{"key":"07","name":"Rheinland-Pfalz"}},{"name":"Auf dem Gleichen","postalCode":"57627","locality":"Hachenburg","municipality":{"key":"07143229","name":"Hachenburg, Stadt","type":"Stadt"},"district":{"key":"07143","name":"Westerwaldkreis","type":"Landkreis"},"federalState":{"key":"07","name":"Rheinland-Pfalz"}},{"name":"Auf dem Schildchen","postalCode":"57627","locality":"Hachenburg","municipality":{"key":"07143229","name":"Hachenburg, Stadt","type":"Stadt"},"district":{"key":"07143","name":"Westerwaldkreis","type":"Landkreis"},"federalState":{"key":"07","name":"Rheinland-Pfalz"}},{"name":"Auf dem Taubhaus","postalCode":"57627","locality":"Hachenburg","municipality":{"key":"07143229","name":"Hachenburg, Stadt","type":"Stadt"},"district":{"key":"07143","name":"Westerwaldkreis","type":"Landkreis"},"federalState":{"key":"07","name":"Rheinland-Pfalz"}},{"name":"Auf den Stühlen","postalCode":"57627","locality":"Hachenburg","municipality":{"key":"07143229","name":"Hachenburg, Stadt","type":"Stadt"},"district":{"key":"07143","name":"Westerwaldkreis","type":"Landkreis"},"federalState":{"key":"07","name":"Rheinland-Pfalz"}},{"name":"Auf den Trieschern","postalCode":"57627","locality":"Hachenburg","municipality":{"key":"07143229","name":"Hachenburg, Stadt","type":"Stadt"},"district":{"key":"07143","name":"Westerwaldkreis","type":"Landkreis"},"federalState":{"key":"07","name":"Rheinland-Pfalz"}},{"name":"Auf der Rüge","postalCode":"57627","locality":"Hachenburg","municipality":{"key":"07143229","name":"Hachenburg, Stadt","type":"Stadt"},"district":{"key":"07143","name":"Westerwaldkreis","type":"Landkreis"},"federalState":{"key":"07","name":"Rheinland-Pfalz"}},{"name":"Bachweg","postalCode":"57627","locality":"Hachenburg","municipality":{"key":"07143229","name":"Hachenburg, Stadt","type":"Stadt"},"district":{"key":"07143","name":"Westerwaldkreis","type":"Landkreis"},"federalState":{"key":"07","name":"Rheinland-Pfalz"}},{"name":"Bahnhofstr.","postalCode":"57627","locality":"Hachenburg","municipality":{"key":"07143229","name":"Hachenburg, Stadt","type":"Stadt"},"district":{"key":"07143","name":"Westerwaldkreis","type":"Landkreis"},"federalState":{"key":"07","name":"Rheinland-Pfalz"}},{"name":"Barrwiese","postalCode":"57627","locality":"Hachenburg","municipality":{"key":"07143229","name":"Hachenburg, Stadt","type":"Stadt"},"district":{"key":"07143","name":"Westerwaldkreis","type":"Landkreis"},"federalState":{"key":"07","name":"Rheinland-Pfalz"}},{"name":"Bergstr.","postalCode":"57614","locality":"Berod bei Hachenburg","municipality":{"key":"07132201","name":"Berod bei Hachenburg","type":"Kreisangehörige_Gemeinde"},"district":{"key":"07132","name":"Altenkirchen (Westerwald)","type":"Landkreis"},"federalState":{"key":"07","name":"Rheinland-Pfalz"}},{"name":"Bergstr.","postalCode":"57627","locality":"Hachenburg","municipality":{"key":"07143229","name":"Hachenburg, Stadt","type":"Stadt"},"district":{"key":"07143","name":"Westerwaldkreis","type":"Landkreis"},"federalState":{"key":"07","name":"Rheinland-Pfalz"}},{"name":"Bier Park","postalCode":"57627","locality":"Hachenburg","municipality":{"key":"07143229","name":"Hachenburg, Stadt","type":"Stadt"},"district":{"key":"07143","name":"Westerwaldkreis","type":"Landkreis"},"federalState":{"key":"07","name":"Rheinland-Pfalz"}},{"name":"Birkenweg","postalCode":"57614","locality":"Berod bei Hachenburg","municipality":{"key":"07132201","name":"Berod bei Hachenburg","type":"Kreisangehörige_Gemeinde"},"district":{"key":"07132","name":"Altenkirchen (Westerwald)","type":"Landkreis"},"federalState":{"key":"07","name":"Rheinland-Pfalz"}},{"name":"Birkenweg","postalCode":"57627","locality":"Hachenburg","municipality":{"key":"07143229","name":"Hachenburg, Stadt","type":"Stadt"},"district":{"key":"07143","name":"Westerwaldkreis","type":"Landkreis"},"federalState":{"key":"07","name":"Rheinland-Pfalz"}},{"name":"Bismarckstr.","postalCode":"57614","locality":"Berod bei Hachenburg","municipality":{"key":"07132201","name":"Berod bei Hachenburg","type":"Kreisangehörige_Gemeinde"},"district":{"key":"07132","name":"Altenkirchen (Westerwald)","type":"Landkreis"},"federalState":{"key":"07","name":"Rheinland-Pfalz"}},{"name":"Bleichstr.","postalCode":"57627","locality":"Hachenburg","municipality":{"key":"07143229","name":"Hachenburg, Stadt","type":"Stadt"},"district":{"key":"07143","name":"Westerwaldkreis","type":"Landkreis"},"federalState":{"key":"07","name":"Rheinland-Pfalz"}},{"name":"Bogengasse","postalCode":"57627","locality":"Hachenburg","municipality":{"key":"07143229","name":"Hachenburg, Stadt","type":"Stadt"},"district":{"key":"07143","name":"Westerwaldkreis","type":"Landkreis"},"federalState":{"key":"07","name":"Rheinland-Pfalz"}},{"name":"Borngasse","postalCode":"57627","locality":"Hachenburg","municipality":{"key":"07143229","name":"Hachenburg, Stadt","type":"Stadt"},"district":{"key":"07143","name":"Westerwaldkreis","type":"Landkreis"},"federalState":{"key":"07","name":"Rheinland-Pfalz"}},{"name":"Breslauer Str.","postalCode":"57627","locality":"Hachenburg","municipality":{"key":"07143229","name":"Hachenburg, Stadt","type":"Stadt"},"district":{"key":"07143","name":"Westerwaldkreis","type":"Landkreis"},"federalState":{"key":"07","name":"Rheinland-Pfalz"}},{"name":"Brunnenstr.","postalCode":"57614","locality":"Berod bei Hachenburg","municipality":{"key":"07132201","name":"Berod bei Hachenburg","type":"Kreisangehörige_Gemeinde"},"district":{"key":"07132","name":"Altenkirchen (Westerwald)","type":"Landkreis"},"federalState":{"key":"07","name":"Rheinland-Pfalz"}},{"name":"Burggarten","postalCode":"57627","locality":"Hachenburg","municipality":{"key":"07143229","name":"Hachenburg, Stadt","type":"Stadt"},"district":{"key":"07143","name":"Westerwaldkreis","type":"Landkreis"},"federalState":{"key":"07","name":"Rheinland-Pfalz"}},{"name":"C.J. Freudenberg Str.","postalCode":"57627","locality":"Hachenburg","municipality":{"key":"07143229","name":"Hachenburg, Stadt","type":"Stadt"},"district":{"key":"07143","name":"Westerwaldkreis","type":"Landkreis"},"federalState":{"key":"07","name":"Rheinland-Pfalz"}},{"name":"Danziger Str.","postalCode":"57627","locality":"Hachenburg","municipality":{"key":"07143229","name":"Hachenburg, Stadt","type":"Stadt"},"district":{"key":"07143","name":"Westerwaldkreis","type":"Landkreis"},"federalState":{"key":"07","name":"Rheinland-Pfalz"}},{"name":"Dehlinger Weg","postalCode":"57627","locality":"Hachenburg","municipality":{"key":"07143229","name":"Hachenburg, Stadt","type":"Stadt"},"district":{"key":"07143","name":"Westerwaldkreis","type":"Landkreis"},"federalState":{"key":"07","name":"Rheinland-Pfalz"}},{"name":"Dr.-Emde-Str.","postalCode":"57627","locality":"Hachenburg","municipality":{"key":"07143229","name":"Hachenburg, Stadt","type":"Stadt"},"district":{"key":"07143","name":"Westerwaldkreis","type":"Landkreis"},"federalState":{"key":"07","name":"Rheinland-Pfalz"}},{"name":"Eichendorffstr.","postalCode":"57627","locality":"Hachenburg","municipality":{"key":"07143229","name":"Hachenburg, Stadt","type":"Stadt"},"district":{"key":"07143","name":"Westerwaldkreis","type":"Landkreis"},"federalState":{"key":"07","name":"Rheinland-Pfalz"}},{"name":"Eintrachtstr.","postalCode":"57627","locality":"Hachenburg","municipality":{"key":"07143229","name":"Hachenburg, Stadt","type":"Stadt"},"district":{"key":"07143","name":"Westerwaldkreis","type":"Landkreis"},"federalState":{"key":"07","name":"Rheinland-Pfalz"}},{"name":"Emil-Heuzeroth-Str.","postalCode":"57627","locality":"Hachenburg","municipality":{"key":"07143229","name":"Hachenburg, Stadt","type":"Stadt"},"district":{"key":"07143","name":"Westerwaldkreis","type":"Landkreis"},"federalState":{"key":"07","name":"Rheinland-Pfalz"}},{"name":"Ermenstr.","postalCode":"57627","locality":"Hachenburg","municipality":{"key":"07143229","name":"Hachenburg, Stadt","type":"Stadt"},"district":{"key":"07143","name":"Westerwaldkreis","type":"Landkreis"},"federalState":{"key":"07","name":"Rheinland-Pfalz"}},{"name":"Färberstr.","postalCode":"57627","locality":"Hachenburg","municipality":{"key":"07143229","name":"Hachenburg, Stadt","type":"Stadt"},"district":{"key":"07143","name":"Westerwaldkreis","type":"Landkreis"},"federalState":{"key":"07","name":"Rheinland-Pfalz"}},{"name":"Fliederweg","postalCode":"57627","locality":"Hachenburg","municipality":{"key":"07143229","name":"Hachenburg, Stadt","type":"Stadt"},"district":{"key":"07143","name":"Westerwaldkreis","type":"Landkreis"},"federalState":{"key":"07","name":"Rheinland-Pfalz"}},{"name":"Floriansweg","postalCode":"57627","locality":"Hachenburg","municipality":{"key":"07143229","name":"Hachenburg, Stadt","type":"Stadt"},"district":{"key":"07143","name":"Westerwaldkreis","type":"Landkreis"},"federalState":{"key":"07","name":"Rheinland-Pfalz"}},{"name":"Freiherr-vom-Stein-Str.","postalCode":"57627","locality":"Hachenburg","municipality":{"key":"07143229","name":"Hachenburg, Stadt","type":"Stadt"},"district":{"key":"07143","name":"Westerwaldkreis","type":"Landkreis"},"federalState":{"key":"07","name":"Rheinland-Pfalz"}},{"name":"Friedensstr.","postalCode":"57627","locality":"Hachenburg","municipality":{"key":"07143229","name":"Hachenburg, Stadt","type":"Stadt"},"district":{"key":"07143","name":"Westerwaldkreis","type":"Landkreis"},"federalState":{"key":"07","name":"Rheinland-Pfalz"}},{"name":"Friedrichstr.","postalCode":"57627","locality":"Hachenburg","municipality":{"key":"07143229","name":"Hachenburg, Stadt","type":"Stadt"},"district":{"key":"07143","name":"Westerwaldkreis","type":"Landkreis"},"federalState":{"key":"07","name":"Rheinland-Pfalz"}},{"name":"Gartenstr.","postalCode":"57614","locality":"Berod bei Hachenburg","municipality":{"key":"07132201","name":"Berod bei Hachenburg","type":"Kreisangehörige_Gemeinde"},"district":{"key":"07132","name":"Altenkirchen (Westerwald)","type":"Landkreis"},"federalState":{"key":"07","name":"Rheinland-Pfalz"}},{"name":"Gartenstr.","postalCode":"57627","locality":"Hachenburg","municipality":{"key":"07143229","name":"Hachenburg, Stadt","type":"Stadt"},"district":{"key":"07143","name":"Westerwaldkreis","type":"Landkreis"},"federalState":{"key":"07","name":"Rheinland-Pfalz"}},{"name":"Gassegarten","postalCode":"57614","locality":"Berod bei Hachenburg","municipality":{"key":"07132201","name":"Berod bei Hachenburg","type":"Kreisangehörige_Gemeinde"},"district":{"key":"07132","name":"Altenkirchen (Westerwald)","type":"Landkreis"},"federalState":{"key":"07","name":"Rheinland-Pfalz"}},{"name":"Gehlerter Weg","postalCode":"57627","locality":"Hachenburg","municipality":{"key":"07143229","name":"Hachenburg, Stadt","type":"Stadt"},"district":{"key":"07143","name":"Westerwaldkreis","type":"Landkreis"},"federalState":{"key":"07","name":"Rheinland-Pfalz"}},{"name":"Gerberweg","postalCode":"57627","locality":"Hachenburg","municipality":{"key":"07143229","name":"Hachenburg, Stadt","type":"Stadt"},"district":{"key":"07143","name":"Westerwaldkreis","type":"Landkreis"},"federalState":{"key":"07","name":"Rheinland-Pfalz"}},{"name":"Gerhart-Hauptmann-Weg","postalCode":"57627","locality":"Hachenburg","municipality":{"key":"07143229","name":"Hachenburg, Stadt","type":"Stadt"},"district":{"key":"07143","name":"Westerwaldkreis","type":"Landkreis"},"federalState":{"key":"07","name":"Rheinland-Pfalz"}},{"name":"Geschwister-Scholl-Str.","postalCode":"57627","locality":"Hachenburg","municipality":{"key":"07143229","name":"Hachenburg, Stadt","type":"Stadt"},"district":{"key":"07143","name":"Westerwaldkreis","type":"Landkreis"},"federalState":{"key":"07","name":"Rheinland-Pfalz"}},{"name":"Goethestr.","postalCode":"57627","locality":"Hachenburg","municipality":{"key":"07143229","name":"Hachenburg, Stadt","type":"Stadt"},"district":{"key":"07143","name":"Westerwaldkreis","type":"Landkreis"},"federalState":{"key":"07","name":"Rheinland-Pfalz"}},{"name":"Graf-Heinrich-Str.","postalCode":"57627","locality":"Hachenburg","municipality":{"key":"07143229","name":"Hachenburg, Stadt","type":"Stadt"},"district":{"key":"07143","name":"Westerwaldkreis","type":"Landkreis"},"federalState":{"key":"07","name":"Rheinland-Pfalz"}},{"name":"Graf-Heinrih-Str.","postalCode":"57627","locality":"Hachenburg","municipality":{"key":"07143229","name":"Hachenburg, Stadt","type":"Stadt"},"district":{"key":"07143","name":"Westerwaldkreis","type":"Landkreis"},"federalState":{"key":"07","name":"Rheinland-Pfalz"}},{"name":"Graf-von-Stauffenberg-Str.","postalCode":"57627","locality":"Hachenburg","municipality":{"key":"07143229","name":"Hachenburg, Stadt","type":"Stadt"},"district":{"key":"07143","name":"Westerwaldkreis","type":"Landkreis"},"federalState":{"key":"07","name":"Rheinland-Pfalz"}},{"name":"Grüner Berg","postalCode":"57627","locality":"Hachenburg","municipality":{"key":"07143229","name":"Hachenburg, Stadt","type":"Stadt"},"district":{"key":"07143","name":"Westerwaldkreis","type":"Landkreis"},"federalState":{"key":"07","name":"Rheinland-Pfalz"}},{"name":"Hachenburger Str.","postalCode":"57627","locality":"Hachenburg","municipality":{"key":"07143229","name":"Hachenburg, Stadt","type":"Stadt"},"district":{"key":"07143","name":"Westerwaldkreis","type":"Landkreis"},"federalState":{"key":"07","name":"Rheinland-Pfalz"}},{"name":"Haingärtenweg","postalCode":"57627","locality":"Hachenburg","municipality":{"key":"07143229","name":"Hachenburg, Stadt","type":"Stadt"},"district":{"key":"07143","name":"Westerwaldkreis","type":"Landkreis"},"federalState":{"key":"07","name":"Rheinland-Pfalz"}},{"name":"Helenenweg","postalCode":"57627","locality":"Hachenburg","municipality":{"key":"07143229","name":"Hachenburg, Stadt","type":"Stadt"},"district":{"key":"07143","name":"Westerwaldkreis","type":"Landkreis"},"federalState":{"key":"07","name":"Rheinland-Pfalz"}},{"name":"Herderstr.","postalCode":"57627","locality":"Hachenburg","municipality":{"key":"07143229","name":"Hachenburg, Stadt","type":"Stadt"},"district":{"key":"07143","name":"Westerwaldkreis","type":"Landkreis"},"federalState":{"key":"07","name":"Rheinland-Pfalz"}},{"name":"Herrnstr.","postalCode":"57627","locality":"Hachenburg","municipality":{"key":"07143229","name":"Hachenburg, Stadt","type":"Stadt"},"district":{"key":"07143","name":"Westerwaldkreis","type":"Landkreis"},"federalState":{"key":"07","name":"Rheinland-Pfalz"}},{"name":"Hindenburgstr.","postalCode":"57627","locality":"Hachenburg","municipality":{"key":"07143229","name":"Hachenburg, Stadt","type":"Stadt"},"district":{"key":"07143","name":"Westerwaldkreis","type":"Landkreis"},"federalState":{"key":"07","name":"Rheinland-Pfalz"}},{"name":"Hinter der Stollmigswiese","postalCode":"57627","locality":"Hachenburg","municipality":{"key":"07143229","name":"Hachenburg, Stadt","type":"Stadt"},"district":{"key":"07143","name":"Westerwaldkreis","type":"Landkreis"},"federalState":{"key":"07","name":"Rheinland-Pfalz"}},{"name":"Hopfengarten","postalCode":"57627","locality":"Hachenburg","municipality":{"key":"07143229","name":"Hachenburg, Stadt","type":"Stadt"},"district":{"key":"07143","name":"Westerwaldkreis","type":"Landkreis"},"federalState":{"key":"07","name":"Rheinland-Pfalz"}},{"name":"Im Hellsteg","postalCode":"57614","locality":"Berod bei Hachenburg","municipality":{"key":"07132201","name":"Berod bei Hachenburg","type":"Kreisangehörige_Gemeinde"},"district":{"key":"07132","name":"Altenkirchen (Westerwald)","type":"Landkreis"},"federalState":{"key":"07","name":"Rheinland-Pfalz"}},{"name":"Im Lambrich","postalCode":"57627","locality":"Hachenburg","municipality":{"key":"07143229","name":"Hachenburg, Stadt","type":"Stadt"},"district":{"key":"07143","name":"Westerwaldkreis","type":"Landkreis"},"federalState":{"key":"07","name":"Rheinland-Pfalz"}},{"name":"In der Burgbitz","postalCode":"57627","locality":"Hachenburg","municipality":{"key":"07143229","name":"Hachenburg, Stadt","type":"Stadt"},"district":{"key":"07143","name":"Westerwaldkreis","type":"Landkreis"},"federalState":{"key":"07","name":"Rheinland-Pfalz"}},{"name":"In der Freiheit","postalCode":"57627","locality":"Hachenburg","municipality":{"key":"07143229","name":"Hachenburg, Stadt","type":"Stadt"},"district":{"key":"07143","name":"Westerwaldkreis","type":"Landkreis"},"federalState":{"key":"07","name":"Rheinland-Pfalz"}},{"name":"Jahnstr.","postalCode":"57627","locality":"Hachenburg","municipality":{"key":"07143229","name":"Hachenburg, Stadt","type":"Stadt"},"district":{"key":"07143","name":"Westerwaldkreis","type":"Landkreis"},"federalState":{"key":"07","name":"Rheinland-Pfalz"}},{"name":"Johann-August-Ring","postalCode":"57627","locality":"Hachenburg","municipality":{"key":"07143229","name":"Hachenburg, Stadt","type":"Stadt"},"district":{"key":"07143","name":"Westerwaldkreis","type":"Landkreis"},"federalState":{"key":"07","name":"Rheinland-Pfalz"}},{"name":"Josef-Büsse-Str.","postalCode":"57627","locality":"Hachenburg","municipality":{"key":"07143229","name":"Hachenburg, Stadt","type":"Stadt"},"district":{"key":"07143","name":"Westerwaldkreis","type":"Landkreis"},"federalState":{"key":"07","name":"Rheinland-Pfalz"}},{"name":"Judengasse","postalCode":"57627","locality":"Hachenburg","municipality":{"key":"07143229","name":"Hachenburg, Stadt","type":"Stadt"},"district":{"key":"07143","name":"Westerwaldkreis","type":"Landkreis"},"federalState":{"key":"07","name":"Rheinland-Pfalz"}},{"name":"Julius-Leber-Str.","postalCode":"57627","locality":"Hachenburg","municipality":{"key":"07143229","name":"Hachenburg, Stadt","type":"Stadt"},"district":{"key":"07143","name":"Westerwaldkreis","type":"Landkreis"},"federalState":{"key":"07","name":"Rheinland-Pfalz"}},{"name":"Kantstr.","postalCode":"57627","locality":"Hachenburg","municipality":{"key":"07143229","name":"Hachenburg, Stadt","type":"Stadt"},"district":{"key":"07143","name":"Westerwaldkreis","type":"Landkreis"},"federalState":{"key":"07","name":"Rheinland-Pfalz"}},{"name":"Karl-Heinz Christian Platz","postalCode":"57627","locality":"Hachenburg","municipality":{"key":"07143229","name":"Hachenburg, Stadt","type":"Stadt"},"district":{"key":"07143","name":"Westerwaldkreis","type":"Landkreis"},"federalState":{"key":"07","name":"Rheinland-Pfalz"}},{"name":"Kirchbergstr.","postalCode":"57627","locality":"Hachenburg","municipality":{"key":"07143229","name":"Hachenburg, Stadt","type":"Stadt"},"district":{"key":"07143","name":"Westerwaldkreis","type":"Landkreis"},"federalState":{"key":"07","name":"Rheinland-Pfalz"}},{"name":"Kirchstr.","postalCode":"57627","locality":"Hachenburg","municipality":{"key":"07143229","name":"Hachenburg, Stadt","type":"Stadt"},"district":{"key":"07143","name":"Westerwaldkreis","type":"Landkreis"},"federalState":{"key":"07","name":"Rheinland-Pfalz"}},{"name":"Kleeberger Weg","postalCode":"57627","locality":"Hachenburg","municipality":{"key":"07143229","name":"Hachenburg, Stadt","type":"Stadt"},"district":{"key":"07143","name":"Westerwaldkreis","type":"Landkreis"},"federalState":{"key":"07","name":"Rheinland-Pfalz"}},{"name":"Kleiststr.","postalCode":"57627","locality":"Hachenburg","municipality":{"key":"07143229","name":"Hachenburg, Stadt","type":"Stadt"},"district":{"key":"07143","name":"Westerwaldkreis","type":"Landkreis"},"federalState":{"key":"07","name":"Rheinland-Pfalz"}},{"name":"Koblenzer Str.","postalCode":"57627","locality":"Hachenburg","municipality":{"key":"07143229","name":"Hachenburg, Stadt","type":"Stadt"},"district":{"key":"07143","name":"Westerwaldkreis","type":"Landkreis"},"federalState":{"key":"07","name":"Rheinland-Pfalz"}},{"name":"Kolberger Str.","postalCode":"57627","locality":"Hachenburg","municipality":{"key":"07143229","name":"Hachenburg, Stadt","type":"Stadt"},"district":{"key":"07143","name":"Westerwaldkreis","type":"Landkreis"},"federalState":{"key":"07","name":"Rheinland-Pfalz"}},{"name":"Königsberger Str.","postalCode":"57627","locality":"Hachenburg","municipality":{"key":"07143229","name":"Hachenburg, Stadt","type":"Stadt"},"district":{"key":"07143","name":"Westerwaldkreis","type":"Landkreis"},"federalState":{"key":"07","name":"Rheinland-Pfalz"}},{"name":"Kreuzgasse","postalCode":"57627","locality":"Hachenburg","municipality":{"key":"07143229","name":"Hachenburg, Stadt","type":"Stadt"},"district":{"key":"07143","name":"Westerwaldkreis","type":"Landkreis"},"federalState":{"key":"07","name":"Rheinland-Pfalz"}},{"name":"Lange Schneise","postalCode":"57627","locality":"Hachenburg","municipality":{"key":"07143229","name":"Hachenburg, Stadt","type":"Stadt"},"district":{"key":"07143","name":"Westerwaldkreis","type":"Landkreis"},"federalState":{"key":"07","name":"Rheinland-Pfalz"}},{"name":"Lehmkaul","postalCode":"57627","locality":"Hachenburg","municipality":{"key":"07143229","name":"Hachenburg, Stadt","type":"Stadt"},"district":{"key":"07143","name":"Westerwaldkreis","type":"Landkreis"},"federalState":{"key":"07","name":"Rheinland-Pfalz"}},{"name":"Leipziger Str.","postalCode":"57627","locality":"Hachenburg","municipality":{"key":"07143229","name":"Hachenburg, Stadt","type":"Stadt"},"district":{"key":"07143","name":"Westerwaldkreis","type":"Landkreis"},"federalState":{"key":"07","name":"Rheinland-Pfalz"}},{"name":"Lerchenweg","postalCode":"57627","locality":"Hachenburg","municipality":{"key":"07143229","name":"Hachenburg, Stadt","type":"Stadt"},"district":{"key":"07143","name":"Westerwaldkreis","type":"Landkreis"},"federalState":{"key":"07","name":"Rheinland-Pfalz"}},{"name":"Lesegarten","postalCode":"57627","locality":"Hachenburg","municipality":{"key":"07143229","name":"Hachenburg, Stadt","type":"Stadt"},"district":{"key":"07143","name":"Westerwaldkreis","type":"Landkreis"},"federalState":{"key":"07","name":"Rheinland-Pfalz"}},{"name":"Lessingstr.","postalCode":"57627","locality":"Hachenburg","municipality":{"key":"07143229","name":"Hachenburg, Stadt","type":"Stadt"},"district":{"key":"07143","name":"Westerwaldkreis","type":"Landkreis"},"federalState":{"key":"07","name":"Rheinland-Pfalz"}},{"name":"Liegnitzer Str.","postalCode":"57627","locality":"Hachenburg","municipality":{"key":"07143229","name":"Hachenburg, Stadt","type":"Stadt"},"district":{"key":"07143","name":"Westerwaldkreis","type":"Landkreis"},"federalState":{"key":"07","name":"Rheinland-Pfalz"}},{"name":"Lindenstr.","postalCode":"57614","locality":"Berod bei Hachenburg","municipality":{"key":"07132201","name":"Berod bei Hachenburg","type":"Kreisangehörige_Gemeinde"},"district":{"key":"07132","name":"Altenkirchen (Westerwald)","type":"Landkreis"},"federalState":{"key":"07","name":"Rheinland-Pfalz"}},{"name":"Lindenstr.","postalCode":"57627","locality":"Hachenburg","municipality":{"key":"07143229","name":"Hachenburg, Stadt","type":"Stadt"},"district":{"key":"07143","name":"Westerwaldkreis","type":"Landkreis"},"federalState":{"key":"07","name":"Rheinland-Pfalz"}},{"name":"Lohmühle","postalCode":"57627","locality":"Hachenburg","municipality":{"key":"07143229","name":"Hachenburg, Stadt","type":"Stadt"},"district":{"key":"07143","name":"Westerwaldkreis","type":"Landkreis"},"federalState":{"key":"07","name":"Rheinland-Pfalz"}},{"name":"Marienstätter Weg","postalCode":"57627","locality":"Hachenburg","municipality":{"key":"07143229","name":"Hachenburg, Stadt","type":"Stadt"},"district":{"key":"07143","name":"Westerwaldkreis","type":"Landkreis"},"federalState":{"key":"07","name":"Rheinland-Pfalz"}},{"name":"Mittelstr.","postalCode":"57614","locality":"Berod bei Hachenburg","municipality":{"key":"07132201","name":"Berod bei Hachenburg","type":"Kreisangehörige_Gemeinde"},"district":{"key":"07132","name":"Altenkirchen (Westerwald)","type":"Landkreis"},"federalState":{"key":"07","name":"Rheinland-Pfalz"}},{"name":"Mittelstr.","postalCode":"57627","locality":"Hachenburg","municipality":{"key":"07143229","name":"Hachenburg, Stadt","type":"Stadt"},"district":{"key":"07143","name":"Westerwaldkreis","type":"Landkreis"},"federalState":{"key":"07","name":"Rheinland-Pfalz"}},{"name":"Mühlenweg","postalCode":"57627","locality":"Hachenburg","municipality":{"key":"07143229","name":"Hachenburg, Stadt","type":"Stadt"},"district":{"key":"07143","name":"Westerwaldkreis","type":"Landkreis"},"federalState":{"key":"07","name":"Rheinland-Pfalz"}},{"name":"Nassauische Str.","postalCode":"57627","locality":"Hachenburg","municipality":{"key":"07143229","name":"Hachenburg, Stadt","type":"Stadt"},"district":{"key":"07143","name":"Westerwaldkreis","type":"Landkreis"},"federalState":{"key":"07","name":"Rheinland-Pfalz"}},{"name":"Neuer Weg","postalCode":"57627","locality":"Hachenburg","municipality":{"key":"07143229","name":"Hachenburg, Stadt","type":"Stadt"},"district":{"key":"07143","name":"Westerwaldkreis","type":"Landkreis"},"federalState":{"key":"07","name":"Rheinland-Pfalz"}},{"name":"Neugasse","postalCode":"57627","locality":"Hachenburg","municipality":{"key":"07143229","name":"Hachenburg, Stadt","type":"Stadt"},"district":{"key":"07143","name":"Westerwaldkreis","type":"Landkreis"},"federalState":{"key":"07","name":"Rheinland-Pfalz"}},{"name":"Nistermühle","postalCode":"57627","locality":"Hachenburg","municipality":{"key":"07143229","name":"Hachenburg, Stadt","type":"Stadt"},"district":{"key":"07143","name":"Westerwaldkreis","type":"Landkreis"},"federalState":{"key":"07","name":"Rheinland-Pfalz"}},{"name":"Nisterpfad","postalCode":"57627","locality":"Hachenburg","municipality":{"key":"07143229","name":"Hachenburg, Stadt","type":"Stadt"},"district":{"key":"07143","name":"Westerwaldkreis","type":"Landkreis"},"federalState":{"key":"07","name":"Rheinland-Pfalz"}},{"name":"Nisterstr.","postalCode":"57627","locality":"Hachenburg","municipality":{"key":"07143229","name":"Hachenburg, Stadt","type":"Stadt"},"district":{"key":"07143","name":"Westerwaldkreis","type":"Landkreis"},"federalState":{"key":"07","name":"Rheinland-Pfalz"}},{"name":"Nottorstr.","postalCode":"57627","locality":"Hachenburg","municipality":{"key":"07143229","name":"Hachenburg, Stadt","type":"Stadt"},"district":{"key":"07143","name":"Westerwaldkreis","type":"Landkreis"},"federalState":{"key":"07","name":"Rheinland-Pfalz"}},{"name":"Obere Kirchstr.","postalCode":"57627","locality":"Hachenburg","municipality":{"key":"07143229","name":"Hachenburg, Stadt","type":"Stadt"},"district":{"key":"07143","name":"Westerwaldkreis","type":"Landkreis"},"federalState":{"key":"07","name":"Rheinland-Pfalz"}},{"name":"Otto-Schmidt-Str.","postalCode":"57627","locality":"Hachenburg","municipality":{"key":"07143229","name":"Hachenburg, Stadt","type":"Stadt"},"district":{"key":"07143","name":"Westerwaldkreis","type":"Landkreis"},"federalState":{"key":"07","name":"Rheinland-Pfalz"}},{"name":"Philosophenweg","postalCode":"57627","locality":"Hachenburg","municipality":{"key":"07143229","name":"Hachenburg, Stadt","type":"Stadt"},"district":{"key":"07143","name":"Westerwaldkreis","type":"Landkreis"},"federalState":{"key":"07","name":"Rheinland-Pfalz"}},{"name":"Rheinstr.","postalCode":"57614","locality":"Berod bei Hachenburg","municipality":{"key":"07132201","name":"Berod bei Hachenburg","type":"Kreisangehörige_Gemeinde"},"district":{"key":"07132","name":"Altenkirchen (Westerwald)","type":"Landkreis"},"federalState":{"key":"07","name":"Rheinland-Pfalz"}},{"name":"Rheinstr.","postalCode":"57627","locality":"Hachenburg","municipality":{"key":"07143229","name":"Hachenburg, Stadt","type":"Stadt"},"district":{"key":"07143","name":"Westerwaldkreis","type":"Landkreis"},"federalState":{"key":"07","name":"Rheinland-Pfalz"}},{"name":"Rosenbitze","postalCode":"57627","locality":"Hachenburg","municipality":{"key":"07143229","name":"Hachenburg, Stadt","type":"Stadt"},"district":{"key":"07143","name":"Westerwaldkreis","type":"Landkreis"},"federalState":{"key":"07","name":"Rheinland-Pfalz"}},{"name":"Rothbachstr.","postalCode":"57627","locality":"Hachenburg","municipality":{"key":"07143229","name":"Hachenburg, Stadt","type":"Stadt"},"district":{"key":"07143","name":"Westerwaldkreis","type":"Landkreis"},"federalState":{"key":"07","name":"Rheinland-Pfalz"}},{"name":"Salzgasse","postalCode":"57627","locality":"Hachenburg","municipality":{"key":"07143229","name":"Hachenburg, Stadt","type":"Stadt"},"district":{"key":"07143","name":"Westerwaldkreis","type":"Landkreis"},"federalState":{"key":"07","name":"Rheinland-Pfalz"}},{"name":"Saynstr.","postalCode":"57627","locality":"Hachenburg","municipality":{"key":"07143229","name":"Hachenburg, Stadt","type":"Stadt"},"district":{"key":"07143","name":"Westerwaldkreis","type":"Landkreis"},"federalState":{"key":"07","name":"Rheinland-Pfalz"}},{"name":"Schiessrain","postalCode":"57627","locality":"Hachenburg","municipality":{"key":"07143229","name":"Hachenburg, Stadt","type":"Stadt"},"district":{"key":"07143","name":"Westerwaldkreis","type":"Landkreis"},"federalState":{"key":"07","name":"Rheinland-Pfalz"}},{"name":"Schillerstr.","postalCode":"57627","locality":"Hachenburg","municipality":{"key":"07143229","name":"Hachenburg, Stadt","type":"Stadt"},"district":{"key":"07143","name":"Westerwaldkreis","type":"Landkreis"},"federalState":{"key":"07","name":"Rheinland-Pfalz"}},{"name":"Schloßblick","postalCode":"57627","locality":"Hachenburg","municipality":{"key":"07143229","name":"Hachenburg, Stadt","type":"Stadt"},"district":{"key":"07143","name":"Westerwaldkreis","type":"Landkreis"},"federalState":{"key":"07","name":"Rheinland-Pfalz"}},{"name":"Schulstr.","postalCode":"57627","locality":"Hachenburg","municipality":{"key":"07143229","name":"Hachenburg, Stadt","type":"Stadt"},"district":{"key":"07143","name":"Westerwaldkreis","type":"Landkreis"},"federalState":{"key":"07","name":"Rheinland-Pfalz"}},{"name":"Sebastian-Kneipp-Str.","postalCode":"57627","locality":"Hachenburg","municipality":{"key":"07143229","name":"Hachenburg, Stadt","type":"Stadt"},"district":{"key":"07143","name":"Westerwaldkreis","type":"Landkreis"},"federalState":{"key":"07","name":"Rheinland-Pfalz"}},{"name":"Seilerstr.","postalCode":"57627","locality":"Hachenburg","municipality":{"key":"07143229","name":"Hachenburg, Stadt","type":"Stadt"},"district":{"key":"07143","name":"Westerwaldkreis","type":"Landkreis"},"federalState":{"key":"07","name":"Rheinland-Pfalz"}},{"name":"Sonnenstr.","postalCode":"57614","locality":"Berod bei Hachenburg","municipality":{"key":"07132201","name":"Berod bei Hachenburg","type":"Kreisangehörige_Gemeinde"},"district":{"key":"07132","name":"Altenkirchen (Westerwald)","type":"Landkreis"},"federalState":{"key":"07","name":"Rheinland-Pfalz"}},{"name":"Stadtgarten","postalCode":"57627","locality":"Hachenburg","municipality":{"key":"07143229","name":"Hachenburg, Stadt","type":"Stadt"},"district":{"key":"07143","name":"Westerwaldkreis","type":"Landkreis"},"federalState":{"key":"07","name":"Rheinland-Pfalz"}},{"name":"Steinebacher Str.","postalCode":"57627","locality":"Hachenburg","municipality":{"key":"07143229","name":"Hachenburg, Stadt","type":"Stadt"},"district":{"key":"07143","name":"Westerwaldkreis","type":"Landkreis"},"federalState":{"key":"07","name":"Rheinland-Pfalz"}},{"name":"Steinweg","postalCode":"57627","locality":"Hachenburg","municipality":{"key":"07143229","name":"Hachenburg, Stadt","type":"Stadt"},"district":{"key":"07143","name":"Westerwaldkreis","type":"Landkreis"},"federalState":{"key":"07","name":"Rheinland-Pfalz"}},{"name":"Stellenweg","postalCode":"57627","locality":"Hachenburg","municipality":{"key":"07143229","name":"Hachenburg, Stadt","type":"Stadt"},"district":{"key":"07143","name":"Westerwaldkreis","type":"Landkreis"},"federalState":{"key":"07","name":"Rheinland-Pfalz"}},{"name":"Stettiner Str.","postalCode":"57627","locality":"Hachenburg","municipality":{"key":"07143229","name":"Hachenburg, Stadt","type":"Stadt"},"district":{"key":"07143","name":"Westerwaldkreis","type":"Landkreis"},"federalState":{"key":"07","name":"Rheinland-Pfalz"}},{"name":"Talstr.","postalCode":"57614","locality":"Berod bei Hachenburg","municipality":{"key":"07132201","name":"Berod bei Hachenburg","type":"Kreisangehörige_Gemeinde"},"district":{"key":"07132","name":"Altenkirchen (Westerwald)","type":"Landkreis"},"federalState":{"key":"07","name":"Rheinland-Pfalz"}},{"name":"Talweg","postalCode":"57627","locality":"Hachenburg","municipality":{"key":"07143229","name":"Hachenburg, Stadt","type":"Stadt"},"district":{"key":"07143","name":"Westerwaldkreis","type":"Landkreis"},"federalState":{"key":"07","name":"Rheinland-Pfalz"}},{"name":"Theodor-Fliedner-Str.","postalCode":"57627","locality":"Hachenburg","municipality":{"key":"07143229","name":"Hachenburg, Stadt","type":"Stadt"},"district":{"key":"07143","name":"Westerwaldkreis","type":"Landkreis"},"federalState":{"key":"07","name":"Rheinland-Pfalz"}},{"name":"Theodor-Körner-Str.","postalCode":"57627","locality":"Hachenburg","municipality":{"key":"07143229","name":"Hachenburg, Stadt","type":"Stadt"},"district":{"key":"07143","name":"Westerwaldkreis","type":"Landkreis"},"federalState":{"key":"07","name":"Rheinland-Pfalz"}},{"name":"Tilmannstr.","postalCode":"57627","locality":"Hachenburg","municipality":{"key":"07143229","name":"Hachenburg, Stadt","type":"Stadt"},"district":{"key":"07143","name":"Westerwaldkreis","type":"Landkreis"},"federalState":{"key":"07","name":"Rheinland-Pfalz"}},{"name":"Tilsiter Str.","postalCode":"57627","locality":"Hachenburg","municipality":{"key":"07143229","name":"Hachenburg, Stadt","type":"Stadt"},"district":{"key":"07143","name":"Westerwaldkreis","type":"Landkreis"},"federalState":{"key":"07","name":"Rheinland-Pfalz"}},{"name":"Vor der Heck","postalCode":"57627","locality":"Hachenburg","municipality":{"key":"07143229","name":"Hachenburg, Stadt","type":"Stadt"},"district":{"key":"07143","name":"Westerwaldkreis","type":"Landkreis"},"federalState":{"key":"07","name":"Rheinland-Pfalz"}},{"name":"Vor der Struth","postalCode":"57627","locality":"Hachenburg","municipality":{"key":"07143229","name":"Hachenburg, Stadt","type":"Stadt"},"district":{"key":"07143","name":"Westerwaldkreis","type":"Landkreis"},"federalState":{"key":"07","name":"Rheinland-Pfalz"}},{"name":"Waldstr.","postalCode":"57614","locality":"Berod bei Hachenburg","municipality":{"key":"07132201","name":"Berod bei Hachenburg","type":"Kreisangehörige_Gemeinde"},"district":{"key":"07132","name":"Altenkirchen (Westerwald)","type":"Landkreis"},"federalState":{"key":"07","name":"Rheinland-Pfalz"}},{"name":"Walter-Bernstein-Str.","postalCode":"57627","locality":"Hachenburg","municipality":{"key":"07143229","name":"Hachenburg, Stadt","type":"Stadt"},"district":{"key":"07143","name":"Westerwaldkreis","type":"Landkreis"},"federalState":{"key":"07","name":"Rheinland-Pfalz"}},{"name":"Weberstr.","postalCode":"57627","locality":"Hachenburg","municipality":{"key":"07143229","name":"Hachenburg, Stadt","type":"Stadt"},"district":{"key":"07143","name":"Westerwaldkreis","type":"Landkreis"},"federalState":{"key":"07","name":"Rheinland-Pfalz"}},{"name":"Weidenstr.","postalCode":"57627","locality":"Hachenburg","municipality":{"key":"07143229","name":"Hachenburg, Stadt","type":"Stadt"},"district":{"key":"07143","name":"Westerwaldkreis","type":"Landkreis"},"federalState":{"key":"07","name":"Rheinland-Pfalz"}},{"name":"Westrandstr.","postalCode":"57627","locality":"Hachenburg","municipality":{"key":"07143229","name":"Hachenburg, Stadt","type":"Stadt"},"district":{"key":"07143","name":"Westerwaldkreis","type":"Landkreis"},"federalState":{"key":"07","name":"Rheinland-Pfalz"}},{"name":"Wiedstr.","postalCode":"57627","locality":"Hachenburg","municipality":{"key":"07143229","name":"Hachenburg, Stadt","type":"Stadt"},"district":{"key":"07143","name":"Westerwaldkreis","type":"Landkreis"},"federalState":{"key":"07","name":"Rheinland-Pfalz"}},{"name":"Wiesenstr.","postalCode":"57614","locality":"Berod bei Hachenburg","municipality":{"key":"07132201","name":"Berod bei Hachenburg","type":"Kreisangehörige_Gemeinde"},"district":{"key":"07132","name":"Altenkirchen (Westerwald)","type":"Landkreis"},"federalState":{"key":"07","name":"Rheinland-Pfalz"}},{"name":"Wiesenstr.","postalCode":"57627","locality":"Hachenburg","municipality":{"key":"07143229","name":"Hachenburg, Stadt","type":"Stadt"},"district":{"key":"07143","name":"Westerwaldkreis","type":"Landkreis"},"federalState":{"key":"07","name":"Rheinland-Pfalz"}},{"name":"Wilhelm-Söhngen-Str.","postalCode":"57627","locality":"Hachenburg","municipality":{"key":"07143229","name":"Hachenburg, Stadt","type":"Stadt"},"district":{"key":"07143","name":"Westerwaldkreis","type":"Landkreis"},"federalState":{"key":"07","name":"Rheinland-Pfalz"}},{"name":"Wittgensteiner Str.","postalCode":"57627","locality":"Hachenburg","municipality":{"key":"07143229","name":"Hachenburg, Stadt","type":"Stadt"},"district":{"key":"07143","name":"Westerwaldkreis","type":"Landkreis"},"federalState":{"key":"07","name":"Rheinland-Pfalz"}},{"name":"Ziegeleiweg","postalCode":"57627","locality":"Hachenburg","municipality":{"key":"07143229","name":"Hachenburg, Stadt","type":"Stadt"},"district":{"key":"07143","name":"Westerwaldkreis","type":"Landkreis"},"federalState":{"key":"07","name":"Rheinland-Pfalz"}},{"name":"Ziegelhütter Weg","postalCode":"57627","locality":"Hachenburg","municipality":{"key":"07143229","name":"Hachenburg, Stadt","type":"Stadt"},"district":{"key":"07143","name":"Westerwaldkreis","type":"Landkreis"},"federalState":{"key":"07","name":"Rheinland-Pfalz"}},{"name":"Zum alten Hof","postalCode":"57627","locality":"Hachenburg","municipality":{"key":"07143229","name":"Hachenburg, Stadt","type":"Stadt"},"district":{"key":"07143","name":"Westerwaldkreis","type":"Landkreis"},"federalState":{"key":"07","name":"Rheinland-Pfalz"}},{"name":"Zur Helenenruh","postalCode":"57627","locality":"Hachenburg","municipality":{"key":"07143229","name":"Hachenburg, Stadt","type":"Stadt"},"district":{"key":"07143","name":"Westerwaldkreis","type":"Landkreis"},"federalState":{"key":"07","name":"Rheinland-Pfalz"}},{"name":"Zur Historischen Innenstadt","postalCode":"57627","locality":"Hachenburg","municipality":{"key":"07143229","name":"Hachenburg, Stadt","type":"Stadt"},"district":{"key":"07143","name":"Westerwaldkreis","type":"Landkreis"},"federalState":{"key":"07","name":"Rheinland-Pfalz"}},{"name":"Zur Tiefenbach","postalCode":"57627","locality":"Hachenburg","municipality":{"key":"07143229","name":"Hachenburg, Stadt","type":"Stadt"},"district":{"key":"07143","name":"Westerwaldkreis","type":"Landkreis"},"federalState":{"key":"07","name":"Rheinland-Pfalz"}},{"name":"Ökonomiegasse","postalCode":"57627","locality":"Hachenburg","municipality":{"key":"07143229","name":"Hachenburg, Stadt","type":"Stadt"},"district":{"key":"07143","name":"Westerwaldkreis","type":"Landkreis"},"federalState":{"key":"07","name":"Rheinland-Pfalz"}},]