[{"name":"Alter Mühlenweg","postalCode":"06722","locality":"Droyßig","municipality":{"key":"15084115","name":"Droyßig","type":"Kreisangehörige_Gemeinde"},"district":{"key":"15084","name":"Burgenlandkreis","type":"Landkreis"},"federalState":{"key":"15","name":"Sachsen-Anhalt"}},{"name":"Am Bahnhof","postalCode":"06722","locality":"Droyßig","municipality":{"key":"15084115","name":"Droyßig","type":"Kreisangehörige_Gemeinde"},"district":{"key":"15084","name":"Burgenlandkreis","type":"Landkreis"},"federalState":{"key":"15","name":"Sachsen-Anhalt"}},{"name":"Am Hasselteich","postalCode":"06722","locality":"Droyßig","municipality":{"key":"15084115","name":"Droyßig","type":"Kreisangehörige_Gemeinde"},"district":{"key":"15084","name":"Burgenlandkreis","type":"Landkreis"},"federalState":{"key":"15","name":"Sachsen-Anhalt"}},{"name":"Am Kiefernberg","postalCode":"06722","locality":"Droyßig","municipality":{"key":"15084115","name":"Droyßig","type":"Kreisangehörige_Gemeinde"},"district":{"key":"15084","name":"Burgenlandkreis","type":"Landkreis"},"federalState":{"key":"15","name":"Sachsen-Anhalt"}},{"name":"Am Lerchenfeld","postalCode":"06722","locality":"Droyßig","municipality":{"key":"15084115","name":"Droyßig","type":"Kreisangehörige_Gemeinde"},"district":{"key":"15084","name":"Burgenlandkreis","type":"Landkreis"},"federalState":{"key":"15","name":"Sachsen-Anhalt"}},{"name":"Am Predel","postalCode":"06722","locality":"Droyßig","municipality":{"key":"15084115","name":"Droyßig","type":"Kreisangehörige_Gemeinde"},"district":{"key":"15084","name":"Burgenlandkreis","type":"Landkreis"},"federalState":{"key":"15","name":"Sachsen-Anhalt"}},{"name":"Amselweg","postalCode":"06722","locality":"Droyßig","municipality":{"key":"15084115","name":"Droyßig","type":"Kreisangehörige_Gemeinde"},"district":{"key":"15084","name":"Burgenlandkreis","type":"Landkreis"},"federalState":{"key":"15","name":"Sachsen-Anhalt"}},{"name":"Bahnhofsweg","postalCode":"06722","locality":"Droyßig","municipality":{"key":"15084115","name":"Droyßig","type":"Kreisangehörige_Gemeinde"},"district":{"key":"15084","name":"Burgenlandkreis","type":"Landkreis"},"federalState":{"key":"15","name":"Sachsen-Anhalt"}},{"name":"Birkenweg","postalCode":"06722","locality":"Droyßig","municipality":{"key":"15084115","name":"Droyßig","type":"Kreisangehörige_Gemeinde"},"district":{"key":"15084","name":"Burgenlandkreis","type":"Landkreis"},"federalState":{"key":"15","name":"Sachsen-Anhalt"}},{"name":"Borntalweg","postalCode":"06722","locality":"Droyßig","municipality":{"key":"15084115","name":"Droyßig","type":"Kreisangehörige_Gemeinde"},"district":{"key":"15084","name":"Burgenlandkreis","type":"Landkreis"},"federalState":{"key":"15","name":"Sachsen-Anhalt"}},{"name":"Brückenweg","postalCode":"06722","locality":"Droyßig","municipality":{"key":"15084115","name":"Droyßig","type":"Kreisangehörige_Gemeinde"},"district":{"key":"15084","name":"Burgenlandkreis","type":"Landkreis"},"federalState":{"key":"15","name":"Sachsen-Anhalt"}},{"name":"Brunnenweg","postalCode":"06722","locality":"Droyßig","municipality":{"key":"15084115","name":"Droyßig","type":"Kreisangehörige_Gemeinde"},"district":{"key":"15084","name":"Burgenlandkreis","type":"Landkreis"},"federalState":{"key":"15","name":"Sachsen-Anhalt"}},{"name":"Camburger Str.","postalCode":"06722","locality":"Droyßig","municipality":{"key":"15084115","name":"Droyßig","type":"Kreisangehörige_Gemeinde"},"district":{"key":"15084","name":"Burgenlandkreis","type":"Landkreis"},"federalState":{"key":"15","name":"Sachsen-Anhalt"}},{"name":"Döschwitzer Weg","postalCode":"06722","locality":"Droyßig","municipality":{"key":"15084115","name":"Droyßig","type":"Kreisangehörige_Gemeinde"},"district":{"key":"15084","name":"Burgenlandkreis","type":"Landkreis"},"federalState":{"key":"15","name":"Sachsen-Anhalt"}},{"name":"Fallenweg","postalCode":"06722","locality":"Droyßig","municipality":{"key":"15084115","name":"Droyßig","type":"Kreisangehörige_Gemeinde"},"district":{"key":"15084","name":"Burgenlandkreis","type":"Landkreis"},"federalState":{"key":"15","name":"Sachsen-Anhalt"}},{"name":"Friedensstr.","postalCode":"06722","locality":"Droyßig","municipality":{"key":"15084115","name":"Droyßig","type":"Kreisangehörige_Gemeinde"},"district":{"key":"15084","name":"Burgenlandkreis","type":"Landkreis"},"federalState":{"key":"15","name":"Sachsen-Anhalt"}},{"name":"Gartenstr.","postalCode":"06722","locality":"Droyßig","municipality":{"key":"15084115","name":"Droyßig","type":"Kreisangehörige_Gemeinde"},"district":{"key":"15084","name":"Burgenlandkreis","type":"Landkreis"},"federalState":{"key":"15","name":"Sachsen-Anhalt"}},{"name":"Geopfad","postalCode":"06722","locality":"Droyßig","municipality":{"key":"15084115","name":"Droyßig","type":"Kreisangehörige_Gemeinde"},"district":{"key":"15084","name":"Burgenlandkreis","type":"Landkreis"},"federalState":{"key":"15","name":"Sachsen-Anhalt"}},{"name":"Hassel","postalCode":"06722","locality":"Droyßig","municipality":{"key":"15084115","name":"Droyßig","type":"Kreisangehörige_Gemeinde"},"district":{"key":"15084","name":"Burgenlandkreis","type":"Landkreis"},"federalState":{"key":"15","name":"Sachsen-Anhalt"}},{"name":"Kirchplatz","postalCode":"06722","locality":"Droyßig","municipality":{"key":"15084115","name":"Droyßig","type":"Kreisangehörige_Gemeinde"},"district":{"key":"15084","name":"Burgenlandkreis","type":"Landkreis"},"federalState":{"key":"15","name":"Sachsen-Anhalt"}},{"name":"Lindenstr.","postalCode":"06722","locality":"Droyßig","municipality":{"key":"15084115","name":"Droyßig","type":"Kreisangehörige_Gemeinde"},"district":{"key":"15084","name":"Burgenlandkreis","type":"Landkreis"},"federalState":{"key":"15","name":"Sachsen-Anhalt"}},{"name":"Markt","postalCode":"06722","locality":"Droyßig","municipality":{"key":"15084115","name":"Droyßig","type":"Kreisangehörige_Gemeinde"},"district":{"key":"15084","name":"Burgenlandkreis","type":"Landkreis"},"federalState":{"key":"15","name":"Sachsen-Anhalt"}},{"name":"Nordstr.","postalCode":"06722","locality":"Droyßig","municipality":{"key":"15084115","name":"Droyßig","type":"Kreisangehörige_Gemeinde"},"district":{"key":"15084","name":"Burgenlandkreis","type":"Landkreis"},"federalState":{"key":"15","name":"Sachsen-Anhalt"}},{"name":"Pahlweg","postalCode":"06722","locality":"Droyßig","municipality":{"key":"15084115","name":"Droyßig","type":"Kreisangehörige_Gemeinde"},"district":{"key":"15084","name":"Burgenlandkreis","type":"Landkreis"},"federalState":{"key":"15","name":"Sachsen-Anhalt"}},{"name":"Prinzenweg","postalCode":"06722","locality":"Droyßig","municipality":{"key":"15084115","name":"Droyßig","type":"Kreisangehörige_Gemeinde"},"district":{"key":"15084","name":"Burgenlandkreis","type":"Landkreis"},"federalState":{"key":"15","name":"Sachsen-Anhalt"}},{"name":"Querstr.","postalCode":"06722","locality":"Droyßig","municipality":{"key":"15084115","name":"Droyßig","type":"Kreisangehörige_Gemeinde"},"district":{"key":"15084","name":"Burgenlandkreis","type":"Landkreis"},"federalState":{"key":"15","name":"Sachsen-Anhalt"}},{"name":"Quesnitzer Weg","postalCode":"06722","locality":"Droyßig","municipality":{"key":"15084115","name":"Droyßig","type":"Kreisangehörige_Gemeinde"},"district":{"key":"15084","name":"Burgenlandkreis","type":"Landkreis"},"federalState":{"key":"15","name":"Sachsen-Anhalt"}},{"name":"Richard-Großmann-Str.","postalCode":"06722","locality":"Droyßig","municipality":{"key":"15084115","name":"Droyßig","type":"Kreisangehörige_Gemeinde"},"district":{"key":"15084","name":"Burgenlandkreis","type":"Landkreis"},"federalState":{"key":"15","name":"Sachsen-Anhalt"}},{"name":"Romsdorfer Siedlung","postalCode":"06722","locality":"Droyßig","municipality":{"key":"15084115","name":"Droyßig","type":"Kreisangehörige_Gemeinde"},"district":{"key":"15084","name":"Burgenlandkreis","type":"Landkreis"},"federalState":{"key":"15","name":"Sachsen-Anhalt"}},{"name":"Schkauditzer Weg","postalCode":"06722","locality":"Droyßig","municipality":{"key":"15084115","name":"Droyßig","type":"Kreisangehörige_Gemeinde"},"district":{"key":"15084","name":"Burgenlandkreis","type":"Landkreis"},"federalState":{"key":"15","name":"Sachsen-Anhalt"}},{"name":"Schloßstr.","postalCode":"06722","locality":"Droyßig","municipality":{"key":"15084115","name":"Droyßig","type":"Kreisangehörige_Gemeinde"},"district":{"key":"15084","name":"Burgenlandkreis","type":"Landkreis"},"federalState":{"key":"15","name":"Sachsen-Anhalt"}},{"name":"Schrebergartenweg","postalCode":"06722","locality":"Droyßig","municipality":{"key":"15084115","name":"Droyßig","type":"Kreisangehörige_Gemeinde"},"district":{"key":"15084","name":"Burgenlandkreis","type":"Landkreis"},"federalState":{"key":"15","name":"Sachsen-Anhalt"}},{"name":"Schulstr.","postalCode":"06722","locality":"Droyßig","municipality":{"key":"15084115","name":"Droyßig","type":"Kreisangehörige_Gemeinde"},"district":{"key":"15084","name":"Burgenlandkreis","type":"Landkreis"},"federalState":{"key":"15","name":"Sachsen-Anhalt"}},{"name":"Siedlung","postalCode":"06722","locality":"Droyßig","municipality":{"key":"15084115","name":"Droyßig","type":"Kreisangehörige_Gemeinde"},"district":{"key":"15084","name":"Burgenlandkreis","type":"Landkreis"},"federalState":{"key":"15","name":"Sachsen-Anhalt"}},{"name":"Stolzenhain","postalCode":"06722","locality":"Droyßig","municipality":{"key":"15084115","name":"Droyßig","type":"Kreisangehörige_Gemeinde"},"district":{"key":"15084","name":"Burgenlandkreis","type":"Landkreis"},"federalState":{"key":"15","name":"Sachsen-Anhalt"}},{"name":"Waldstr.","postalCode":"06722","locality":"Droyßig","municipality":{"key":"15084115","name":"Droyßig","type":"Kreisangehörige_Gemeinde"},"district":{"key":"15084","name":"Burgenlandkreis","type":"Landkreis"},"federalState":{"key":"15","name":"Sachsen-Anhalt"}},{"name":"Weißenborner Str.","postalCode":"06722","locality":"Droyßig","municipality":{"key":"15084115","name":"Droyßig","type":"Kreisangehörige_Gemeinde"},"district":{"key":"15084","name":"Burgenlandkreis","type":"Landkreis"},"federalState":{"key":"15","name":"Sachsen-Anhalt"}},{"name":"Weißenborner Weg","postalCode":"06722","locality":"Droyßig","municipality":{"key":"15084115","name":"Droyßig","type":"Kreisangehörige_Gemeinde"},"district":{"key":"15084","name":"Burgenlandkreis","type":"Landkreis"},"federalState":{"key":"15","name":"Sachsen-Anhalt"}},{"name":"Wilhelm-Kritzinger-Str.","postalCode":"06722","locality":"Droyßig","municipality":{"key":"15084115","name":"Droyßig","type":"Kreisangehörige_Gemeinde"},"district":{"key":"15084","name":"Burgenlandkreis","type":"Landkreis"},"federalState":{"key":"15","name":"Sachsen-Anhalt"}},{"name":"Windmühlenweg","postalCode":"06722","locality":"Droyßig","municipality":{"key":"15084115","name":"Droyßig","type":"Kreisangehörige_Gemeinde"},"district":{"key":"15084","name":"Burgenlandkreis","type":"Landkreis"},"federalState":{"key":"15","name":"Sachsen-Anhalt"}},{"name":"Zeitzer Str.","postalCode":"06722","locality":"Droyßig","municipality":{"key":"15084115","name":"Droyßig","type":"Kreisangehörige_Gemeinde"},"district":{"key":"15084","name":"Burgenlandkreis","type":"Landkreis"},"federalState":{"key":"15","name":"Sachsen-Anhalt"}},]