[{"name":"Ahornstr.","postalCode":"78661","locality":"Dietingen","municipality":{"key":"08325011","name":"Dietingen","type":"Kreisangehörige_Gemeinde"},"district":{"key":"08325","name":"Rottweil","type":"Landkreis"},"federalState":{"key":"08","name":"Baden-Württemberg"}},{"name":"Albstr.","postalCode":"78661","locality":"Dietingen","municipality":{"key":"08325011","name":"Dietingen","type":"Kreisangehörige_Gemeinde"},"district":{"key":"08325","name":"Rottweil","type":"Landkreis"},"federalState":{"key":"08","name":"Baden-Württemberg"}},{"name":"Arztenbühl","postalCode":"78661","locality":"Dietingen","municipality":{"key":"08325011","name":"Dietingen","type":"Kreisangehörige_Gemeinde"},"district":{"key":"08325","name":"Rottweil","type":"Landkreis"},"federalState":{"key":"08","name":"Baden-Württemberg"}},{"name":"Asternstr.","postalCode":"78661","locality":"Dietingen","municipality":{"key":"08325011","name":"Dietingen","type":"Kreisangehörige_Gemeinde"},"district":{"key":"08325","name":"Rottweil","type":"Landkreis"},"federalState":{"key":"08","name":"Baden-Württemberg"}},{"name":"Auwiesenweg","postalCode":"78661","locality":"Dietingen","municipality":{"key":"08325011","name":"Dietingen","type":"Kreisangehörige_Gemeinde"},"district":{"key":"08325","name":"Rottweil","type":"Landkreis"},"federalState":{"key":"08","name":"Baden-Württemberg"}},{"name":"Bachstr.","postalCode":"78661","locality":"Dietingen","municipality":{"key":"08325011","name":"Dietingen","type":"Kreisangehörige_Gemeinde"},"district":{"key":"08325","name":"Rottweil","type":"Landkreis"},"federalState":{"key":"08","name":"Baden-Württemberg"}},{"name":"Bauplanstr.","postalCode":"78661","locality":"Dietingen","municipality":{"key":"08325011","name":"Dietingen","type":"Kreisangehörige_Gemeinde"},"district":{"key":"08325","name":"Rottweil","type":"Landkreis"},"federalState":{"key":"08","name":"Baden-Württemberg"}},{"name":"Bei der Leimengrube","postalCode":"78661","locality":"Dietingen","municipality":{"key":"08325011","name":"Dietingen","type":"Kreisangehörige_Gemeinde"},"district":{"key":"08325","name":"Rottweil","type":"Landkreis"},"federalState":{"key":"08","name":"Baden-Württemberg"}},{"name":"Berghofenweg","postalCode":"78661","locality":"Dietingen","municipality":{"key":"08325011","name":"Dietingen","type":"Kreisangehörige_Gemeinde"},"district":{"key":"08325","name":"Rottweil","type":"Landkreis"},"federalState":{"key":"08","name":"Baden-Württemberg"}},{"name":"Bernburgstr.","postalCode":"78661","locality":"Dietingen","municipality":{"key":"08325011","name":"Dietingen","type":"Kreisangehörige_Gemeinde"},"district":{"key":"08325","name":"Rottweil","type":"Landkreis"},"federalState":{"key":"08","name":"Baden-Württemberg"}},{"name":"Bettenbergstr.","postalCode":"78661","locality":"Dietingen","municipality":{"key":"08325011","name":"Dietingen","type":"Kreisangehörige_Gemeinde"},"district":{"key":"08325","name":"Rottweil","type":"Landkreis"},"federalState":{"key":"08","name":"Baden-Württemberg"}},{"name":"Birkenweg","postalCode":"78661","locality":"Dietingen","municipality":{"key":"08325011","name":"Dietingen","type":"Kreisangehörige_Gemeinde"},"district":{"key":"08325","name":"Rottweil","type":"Landkreis"},"federalState":{"key":"08","name":"Baden-Württemberg"}},{"name":"Blumenstr.","postalCode":"78661","locality":"Dietingen","municipality":{"key":"08325011","name":"Dietingen","type":"Kreisangehörige_Gemeinde"},"district":{"key":"08325","name":"Rottweil","type":"Landkreis"},"federalState":{"key":"08","name":"Baden-Württemberg"}},{"name":"Bohlweg","postalCode":"78661","locality":"Dietingen","municipality":{"key":"08325011","name":"Dietingen","type":"Kreisangehörige_Gemeinde"},"district":{"key":"08325","name":"Rottweil","type":"Landkreis"},"federalState":{"key":"08","name":"Baden-Württemberg"}},{"name":"Böhringer Str.","postalCode":"78661","locality":"Dietingen","municipality":{"key":"08325011","name":"Dietingen","type":"Kreisangehörige_Gemeinde"},"district":{"key":"08325","name":"Rottweil","type":"Landkreis"},"federalState":{"key":"08","name":"Baden-Württemberg"}},{"name":"Brandstätterstr.","postalCode":"78661","locality":"Dietingen","municipality":{"key":"08325011","name":"Dietingen","type":"Kreisangehörige_Gemeinde"},"district":{"key":"08325","name":"Rottweil","type":"Landkreis"},"federalState":{"key":"08","name":"Baden-Württemberg"}},{"name":"Brielerweg","postalCode":"78661","locality":"Dietingen","municipality":{"key":"08325011","name":"Dietingen","type":"Kreisangehörige_Gemeinde"},"district":{"key":"08325","name":"Rottweil","type":"Landkreis"},"federalState":{"key":"08","name":"Baden-Württemberg"}},{"name":"Brühlstr.","postalCode":"78661","locality":"Dietingen","municipality":{"key":"08325011","name":"Dietingen","type":"Kreisangehörige_Gemeinde"},"district":{"key":"08325","name":"Rottweil","type":"Landkreis"},"federalState":{"key":"08","name":"Baden-Württemberg"}},{"name":"Brühlweg","postalCode":"78661","locality":"Dietingen","municipality":{"key":"08325011","name":"Dietingen","type":"Kreisangehörige_Gemeinde"},"district":{"key":"08325","name":"Rottweil","type":"Landkreis"},"federalState":{"key":"08","name":"Baden-Württemberg"}},{"name":"Brunnenstr.","postalCode":"78661","locality":"Dietingen","municipality":{"key":"08325011","name":"Dietingen","type":"Kreisangehörige_Gemeinde"},"district":{"key":"08325","name":"Rottweil","type":"Landkreis"},"federalState":{"key":"08","name":"Baden-Württemberg"}},{"name":"Burgstr.","postalCode":"78661","locality":"Dietingen","municipality":{"key":"08325011","name":"Dietingen","type":"Kreisangehörige_Gemeinde"},"district":{"key":"08325","name":"Rottweil","type":"Landkreis"},"federalState":{"key":"08","name":"Baden-Württemberg"}},{"name":"Charlottenwäldle","postalCode":"78628","locality":"Rottweil","municipality":{"key":"08325049","name":"Rottweil, Stadt","type":"Große_Kreisstadt"},"district":{"key":"08325","name":"Rottweil","type":"Landkreis"},"federalState":{"key":"08","name":"Baden-Württemberg"}},{"name":"Chemnitzer Str.","postalCode":"78658","locality":"Zimmern ob Rottweil","municipality":{"key":"08325069","name":"Zimmern ob Rottweil","type":"Kreisangehörige_Gemeinde"},"district":{"key":"08325","name":"Rottweil","type":"Landkreis"},"federalState":{"key":"08","name":"Baden-Württemberg"}},{"name":"Christian-Fader-Weg","postalCode":"78628","locality":"Rottweil","municipality":{"key":"08325049","name":"Rottweil, Stadt","type":"Große_Kreisstadt"},"district":{"key":"08325","name":"Rottweil","type":"Landkreis"},"federalState":{"key":"08","name":"Baden-Württemberg"}},{"name":"Dahlienstr.","postalCode":"78661","locality":"Dietingen","municipality":{"key":"08325011","name":"Dietingen","type":"Kreisangehörige_Gemeinde"},"district":{"key":"08325","name":"Rottweil","type":"Landkreis"},"federalState":{"key":"08","name":"Baden-Württemberg"}},{"name":"Dietinger Str.","postalCode":"78661","locality":"Dietingen","municipality":{"key":"08325011","name":"Dietingen","type":"Kreisangehörige_Gemeinde"},"district":{"key":"08325","name":"Rottweil","type":"Landkreis"},"federalState":{"key":"08","name":"Baden-Württemberg"}},{"name":"Egelsee","postalCode":"78661","locality":"Dietingen","municipality":{"key":"08325011","name":"Dietingen","type":"Kreisangehörige_Gemeinde"},"district":{"key":"08325","name":"Rottweil","type":"Landkreis"},"federalState":{"key":"08","name":"Baden-Württemberg"}},{"name":"Egerten","postalCode":"78661","locality":"Dietingen","municipality":{"key":"08325011","name":"Dietingen","type":"Kreisangehörige_Gemeinde"},"district":{"key":"08325","name":"Rottweil","type":"Landkreis"},"federalState":{"key":"08","name":"Baden-Württemberg"}},{"name":"Eichenstr.","postalCode":"78661","locality":"Dietingen","municipality":{"key":"08325011","name":"Dietingen","type":"Kreisangehörige_Gemeinde"},"district":{"key":"08325","name":"Rottweil","type":"Landkreis"},"federalState":{"key":"08","name":"Baden-Württemberg"}},{"name":"Eichhaldeweg","postalCode":"78661","locality":"Dietingen","municipality":{"key":"08325011","name":"Dietingen","type":"Kreisangehörige_Gemeinde"},"district":{"key":"08325","name":"Rottweil","type":"Landkreis"},"federalState":{"key":"08","name":"Baden-Württemberg"}},{"name":"Einsteigerweg","postalCode":"78661","locality":"Dietingen","municipality":{"key":"08325011","name":"Dietingen","type":"Kreisangehörige_Gemeinde"},"district":{"key":"08325","name":"Rottweil","type":"Landkreis"},"federalState":{"key":"08","name":"Baden-Württemberg"}},{"name":"Engelgasse","postalCode":"78661","locality":"Dietingen","municipality":{"key":"08325011","name":"Dietingen","type":"Kreisangehörige_Gemeinde"},"district":{"key":"08325","name":"Rottweil","type":"Landkreis"},"federalState":{"key":"08","name":"Baden-Württemberg"}},{"name":"Erlenweg","postalCode":"78661","locality":"Dietingen","municipality":{"key":"08325011","name":"Dietingen","type":"Kreisangehörige_Gemeinde"},"district":{"key":"08325","name":"Rottweil","type":"Landkreis"},"federalState":{"key":"08","name":"Baden-Württemberg"}},{"name":"Eschenweg","postalCode":"78661","locality":"Dietingen","municipality":{"key":"08325011","name":"Dietingen","type":"Kreisangehörige_Gemeinde"},"district":{"key":"08325","name":"Rottweil","type":"Landkreis"},"federalState":{"key":"08","name":"Baden-Württemberg"}},{"name":"Felbenweg","postalCode":"78661","locality":"Dietingen","municipality":{"key":"08325011","name":"Dietingen","type":"Kreisangehörige_Gemeinde"},"district":{"key":"08325","name":"Rottweil","type":"Landkreis"},"federalState":{"key":"08","name":"Baden-Württemberg"}},{"name":"Finkenweg","postalCode":"78661","locality":"Dietingen","municipality":{"key":"08325011","name":"Dietingen","type":"Kreisangehörige_Gemeinde"},"district":{"key":"08325","name":"Rottweil","type":"Landkreis"},"federalState":{"key":"08","name":"Baden-Württemberg"}},{"name":"Fliederstr.","postalCode":"78661","locality":"Dietingen","municipality":{"key":"08325011","name":"Dietingen","type":"Kreisangehörige_Gemeinde"},"district":{"key":"08325","name":"Rottweil","type":"Landkreis"},"federalState":{"key":"08","name":"Baden-Württemberg"}},{"name":"Forchenweg","postalCode":"78661","locality":"Dietingen","municipality":{"key":"08325011","name":"Dietingen","type":"Kreisangehörige_Gemeinde"},"district":{"key":"08325","name":"Rottweil","type":"Landkreis"},"federalState":{"key":"08","name":"Baden-Württemberg"}},{"name":"Friedhofstr.","postalCode":"78661","locality":"Dietingen","municipality":{"key":"08325011","name":"Dietingen","type":"Kreisangehörige_Gemeinde"},"district":{"key":"08325","name":"Rottweil","type":"Landkreis"},"federalState":{"key":"08","name":"Baden-Württemberg"}},{"name":"Fronstr.","postalCode":"78661","locality":"Dietingen","municipality":{"key":"08325011","name":"Dietingen","type":"Kreisangehörige_Gemeinde"},"district":{"key":"08325","name":"Rottweil","type":"Landkreis"},"federalState":{"key":"08","name":"Baden-Württemberg"}},{"name":"Funkenstr.","postalCode":"78661","locality":"Dietingen","municipality":{"key":"08325011","name":"Dietingen","type":"Kreisangehörige_Gemeinde"},"district":{"key":"08325","name":"Rottweil","type":"Landkreis"},"federalState":{"key":"08","name":"Baden-Württemberg"}},{"name":"Furtenweg","postalCode":"78661","locality":"Dietingen","municipality":{"key":"08325011","name":"Dietingen","type":"Kreisangehörige_Gemeinde"},"district":{"key":"08325","name":"Rottweil","type":"Landkreis"},"federalState":{"key":"08","name":"Baden-Württemberg"}},{"name":"Gartenstr.","postalCode":"78661","locality":"Dietingen","municipality":{"key":"08325011","name":"Dietingen","type":"Kreisangehörige_Gemeinde"},"district":{"key":"08325","name":"Rottweil","type":"Landkreis"},"federalState":{"key":"08","name":"Baden-Württemberg"}},{"name":"Gebelstr.","postalCode":"78661","locality":"Dietingen","municipality":{"key":"08325011","name":"Dietingen","type":"Kreisangehörige_Gemeinde"},"district":{"key":"08325","name":"Rottweil","type":"Landkreis"},"federalState":{"key":"08","name":"Baden-Württemberg"}},{"name":"Geranienweg","postalCode":"78661","locality":"Dietingen","municipality":{"key":"08325011","name":"Dietingen","type":"Kreisangehörige_Gemeinde"},"district":{"key":"08325","name":"Rottweil","type":"Landkreis"},"federalState":{"key":"08","name":"Baden-Württemberg"}},{"name":"Görnstr.","postalCode":"78661","locality":"Dietingen","municipality":{"key":"08325011","name":"Dietingen","type":"Kreisangehörige_Gemeinde"},"district":{"key":"08325","name":"Rottweil","type":"Landkreis"},"federalState":{"key":"08","name":"Baden-Württemberg"}},{"name":"Gösslinger Str.","postalCode":"78661","locality":"Dietingen","municipality":{"key":"08325011","name":"Dietingen","type":"Kreisangehörige_Gemeinde"},"district":{"key":"08325","name":"Rottweil","type":"Landkreis"},"federalState":{"key":"08","name":"Baden-Württemberg"}},{"name":"Grabenstr.","postalCode":"78661","locality":"Dietingen","municipality":{"key":"08325011","name":"Dietingen","type":"Kreisangehörige_Gemeinde"},"district":{"key":"08325","name":"Rottweil","type":"Landkreis"},"federalState":{"key":"08","name":"Baden-Württemberg"}},{"name":"Grundstr.","postalCode":"78661","locality":"Dietingen","municipality":{"key":"08325011","name":"Dietingen","type":"Kreisangehörige_Gemeinde"},"district":{"key":"08325","name":"Rottweil","type":"Landkreis"},"federalState":{"key":"08","name":"Baden-Württemberg"}},{"name":"Hainbuchenweg","postalCode":"78661","locality":"Dietingen","municipality":{"key":"08325011","name":"Dietingen","type":"Kreisangehörige_Gemeinde"},"district":{"key":"08325","name":"Rottweil","type":"Landkreis"},"federalState":{"key":"08","name":"Baden-Württemberg"}},{"name":"Harthauser Str.","postalCode":"78661","locality":"Dietingen","municipality":{"key":"08325011","name":"Dietingen","type":"Kreisangehörige_Gemeinde"},"district":{"key":"08325","name":"Rottweil","type":"Landkreis"},"federalState":{"key":"08","name":"Baden-Württemberg"}},{"name":"Hauptstr.","postalCode":"78661","locality":"Dietingen","municipality":{"key":"08325011","name":"Dietingen","type":"Kreisangehörige_Gemeinde"},"district":{"key":"08325","name":"Rottweil","type":"Landkreis"},"federalState":{"key":"08","name":"Baden-Württemberg"}},{"name":"Heubergstr.","postalCode":"78661","locality":"Dietingen","municipality":{"key":"08325011","name":"Dietingen","type":"Kreisangehörige_Gemeinde"},"district":{"key":"08325","name":"Rottweil","type":"Landkreis"},"federalState":{"key":"08","name":"Baden-Württemberg"}},{"name":"Hinter dem See","postalCode":"78661","locality":"Dietingen","municipality":{"key":"08325011","name":"Dietingen","type":"Kreisangehörige_Gemeinde"},"district":{"key":"08325","name":"Rottweil","type":"Landkreis"},"federalState":{"key":"08","name":"Baden-Württemberg"}},{"name":"Hirschäckerstr.","postalCode":"78661","locality":"Dietingen","municipality":{"key":"08325011","name":"Dietingen","type":"Kreisangehörige_Gemeinde"},"district":{"key":"08325","name":"Rottweil","type":"Landkreis"},"federalState":{"key":"08","name":"Baden-Württemberg"}},{"name":"Hochensteig","postalCode":"78661","locality":"Dietingen","municipality":{"key":"08325011","name":"Dietingen","type":"Kreisangehörige_Gemeinde"},"district":{"key":"08325","name":"Rottweil","type":"Landkreis"},"federalState":{"key":"08","name":"Baden-Württemberg"}},{"name":"Hohen","postalCode":"78661","locality":"Dietingen","municipality":{"key":"08325011","name":"Dietingen","type":"Kreisangehörige_Gemeinde"},"district":{"key":"08325","name":"Rottweil","type":"Landkreis"},"federalState":{"key":"08","name":"Baden-Württemberg"}},{"name":"Hohensteinstr.","postalCode":"78661","locality":"Dietingen","municipality":{"key":"08325011","name":"Dietingen","type":"Kreisangehörige_Gemeinde"},"district":{"key":"08325","name":"Rottweil","type":"Landkreis"},"federalState":{"key":"08","name":"Baden-Württemberg"}},{"name":"Höhenstr.","postalCode":"78661","locality":"Dietingen","municipality":{"key":"08325011","name":"Dietingen","type":"Kreisangehörige_Gemeinde"},"district":{"key":"08325","name":"Rottweil","type":"Landkreis"},"federalState":{"key":"08","name":"Baden-Württemberg"}},{"name":"Hotzental","postalCode":"78661","locality":"Dietingen","municipality":{"key":"08325011","name":"Dietingen","type":"Kreisangehörige_Gemeinde"},"district":{"key":"08325","name":"Rottweil","type":"Landkreis"},"federalState":{"key":"08","name":"Baden-Württemberg"}},{"name":"Hummelbergstr.","postalCode":"78661","locality":"Dietingen","municipality":{"key":"08325011","name":"Dietingen","type":"Kreisangehörige_Gemeinde"},"district":{"key":"08325","name":"Rottweil","type":"Landkreis"},"federalState":{"key":"08","name":"Baden-Württemberg"}},{"name":"Hungerwiesen","postalCode":"78661","locality":"Dietingen","municipality":{"key":"08325011","name":"Dietingen","type":"Kreisangehörige_Gemeinde"},"district":{"key":"08325","name":"Rottweil","type":"Landkreis"},"federalState":{"key":"08","name":"Baden-Württemberg"}},{"name":"Im Buchenhag","postalCode":"78661","locality":"Dietingen","municipality":{"key":"08325011","name":"Dietingen","type":"Kreisangehörige_Gemeinde"},"district":{"key":"08325","name":"Rottweil","type":"Landkreis"},"federalState":{"key":"08","name":"Baden-Württemberg"}},{"name":"Im Gässle","postalCode":"78661","locality":"Dietingen","municipality":{"key":"08325011","name":"Dietingen","type":"Kreisangehörige_Gemeinde"},"district":{"key":"08325","name":"Rottweil","type":"Landkreis"},"federalState":{"key":"08","name":"Baden-Württemberg"}},{"name":"Im Mitteldorf","postalCode":"78661","locality":"Dietingen","municipality":{"key":"08325011","name":"Dietingen","type":"Kreisangehörige_Gemeinde"},"district":{"key":"08325","name":"Rottweil","type":"Landkreis"},"federalState":{"key":"08","name":"Baden-Württemberg"}},{"name":"Im Oberdorf","postalCode":"78661","locality":"Dietingen","municipality":{"key":"08325011","name":"Dietingen","type":"Kreisangehörige_Gemeinde"},"district":{"key":"08325","name":"Rottweil","type":"Landkreis"},"federalState":{"key":"08","name":"Baden-Württemberg"}},{"name":"Im Unterdorf","postalCode":"78661","locality":"Dietingen","municipality":{"key":"08325011","name":"Dietingen","type":"Kreisangehörige_Gemeinde"},"district":{"key":"08325","name":"Rottweil","type":"Landkreis"},"federalState":{"key":"08","name":"Baden-Württemberg"}},{"name":"Im Weiher","postalCode":"78661","locality":"Dietingen","municipality":{"key":"08325011","name":"Dietingen","type":"Kreisangehörige_Gemeinde"},"district":{"key":"08325","name":"Rottweil","type":"Landkreis"},"federalState":{"key":"08","name":"Baden-Württemberg"}},{"name":"In der Breite","postalCode":"78661","locality":"Dietingen","municipality":{"key":"08325011","name":"Dietingen","type":"Kreisangehörige_Gemeinde"},"district":{"key":"08325","name":"Rottweil","type":"Landkreis"},"federalState":{"key":"08","name":"Baden-Württemberg"}},{"name":"Irslinger Str.","postalCode":"78661","locality":"Dietingen","municipality":{"key":"08325011","name":"Dietingen","type":"Kreisangehörige_Gemeinde"},"district":{"key":"08325","name":"Rottweil","type":"Landkreis"},"federalState":{"key":"08","name":"Baden-Württemberg"}},{"name":"Jahnstr.","postalCode":"78628","locality":"Rottweil","municipality":{"key":"08325049","name":"Rottweil, Stadt","type":"Große_Kreisstadt"},"district":{"key":"08325","name":"Rottweil","type":"Landkreis"},"federalState":{"key":"08","name":"Baden-Württemberg"}},{"name":"Jenaer Str.","postalCode":"78658","locality":"Zimmern ob Rottweil","municipality":{"key":"08325069","name":"Zimmern ob Rottweil","type":"Kreisangehörige_Gemeinde"},"district":{"key":"08325","name":"Rottweil","type":"Landkreis"},"federalState":{"key":"08","name":"Baden-Württemberg"}},{"name":"Johanniterstr.","postalCode":"78628","locality":"Rottweil","municipality":{"key":"08325049","name":"Rottweil, Stadt","type":"Große_Kreisstadt"},"district":{"key":"08325","name":"Rottweil","type":"Landkreis"},"federalState":{"key":"08","name":"Baden-Württemberg"}},{"name":"Johannsergasse","postalCode":"78628","locality":"Rottweil","municipality":{"key":"08325049","name":"Rottweil, Stadt","type":"Große_Kreisstadt"},"district":{"key":"08325","name":"Rottweil","type":"Landkreis"},"federalState":{"key":"08","name":"Baden-Württemberg"}},{"name":"Joseph-Haydn-Str.","postalCode":"78658","locality":"Zimmern ob Rottweil","municipality":{"key":"08325069","name":"Zimmern ob Rottweil","type":"Kreisangehörige_Gemeinde"},"district":{"key":"08325","name":"Rottweil","type":"Landkreis"},"federalState":{"key":"08","name":"Baden-Württemberg"}},{"name":"Jungbrunnenstr.","postalCode":"78628","locality":"Rottweil","municipality":{"key":"08325049","name":"Rottweil, Stadt","type":"Große_Kreisstadt"},"district":{"key":"08325","name":"Rottweil","type":"Landkreis"},"federalState":{"key":"08","name":"Baden-Württemberg"}},{"name":"Jurastr.","postalCode":"78628","locality":"Rottweil","municipality":{"key":"08325049","name":"Rottweil, Stadt","type":"Große_Kreisstadt"},"district":{"key":"08325","name":"Rottweil","type":"Landkreis"},"federalState":{"key":"08","name":"Baden-Württemberg"}},{"name":"Kapellenstr.","postalCode":"78661","locality":"Dietingen","municipality":{"key":"08325011","name":"Dietingen","type":"Kreisangehörige_Gemeinde"},"district":{"key":"08325","name":"Rottweil","type":"Landkreis"},"federalState":{"key":"08","name":"Baden-Württemberg"}},{"name":"Kastanienstr.","postalCode":"78661","locality":"Dietingen","municipality":{"key":"08325011","name":"Dietingen","type":"Kreisangehörige_Gemeinde"},"district":{"key":"08325","name":"Rottweil","type":"Landkreis"},"federalState":{"key":"08","name":"Baden-Württemberg"}},{"name":"Kindergartenweg","postalCode":"78661","locality":"Dietingen","municipality":{"key":"08325011","name":"Dietingen","type":"Kreisangehörige_Gemeinde"},"district":{"key":"08325","name":"Rottweil","type":"Landkreis"},"federalState":{"key":"08","name":"Baden-Württemberg"}},{"name":"Kirchbergstr.","postalCode":"78661","locality":"Dietingen","municipality":{"key":"08325011","name":"Dietingen","type":"Kreisangehörige_Gemeinde"},"district":{"key":"08325","name":"Rottweil","type":"Landkreis"},"federalState":{"key":"08","name":"Baden-Württemberg"}},{"name":"Kirchplatz","postalCode":"78661","locality":"Dietingen","municipality":{"key":"08325011","name":"Dietingen","type":"Kreisangehörige_Gemeinde"},"district":{"key":"08325","name":"Rottweil","type":"Landkreis"},"federalState":{"key":"08","name":"Baden-Württemberg"}},{"name":"Kirchweg","postalCode":"78661","locality":"Dietingen","municipality":{"key":"08325011","name":"Dietingen","type":"Kreisangehörige_Gemeinde"},"district":{"key":"08325","name":"Rottweil","type":"Landkreis"},"federalState":{"key":"08","name":"Baden-Württemberg"}},{"name":"Knuppertstr.","postalCode":"78661","locality":"Dietingen","municipality":{"key":"08325011","name":"Dietingen","type":"Kreisangehörige_Gemeinde"},"district":{"key":"08325","name":"Rottweil","type":"Landkreis"},"federalState":{"key":"08","name":"Baden-Württemberg"}},{"name":"Köhlerstr.","postalCode":"78661","locality":"Dietingen","municipality":{"key":"08325011","name":"Dietingen","type":"Kreisangehörige_Gemeinde"},"district":{"key":"08325","name":"Rottweil","type":"Landkreis"},"federalState":{"key":"08","name":"Baden-Württemberg"}},{"name":"Krokusweg","postalCode":"78661","locality":"Dietingen","municipality":{"key":"08325011","name":"Dietingen","type":"Kreisangehörige_Gemeinde"},"district":{"key":"08325","name":"Rottweil","type":"Landkreis"},"federalState":{"key":"08","name":"Baden-Württemberg"}},{"name":"Krumme Äcker","postalCode":"78661","locality":"Dietingen","municipality":{"key":"08325011","name":"Dietingen","type":"Kreisangehörige_Gemeinde"},"district":{"key":"08325","name":"Rottweil","type":"Landkreis"},"federalState":{"key":"08","name":"Baden-Württemberg"}},{"name":"Laibstr.","postalCode":"78661","locality":"Dietingen","municipality":{"key":"08325011","name":"Dietingen","type":"Kreisangehörige_Gemeinde"},"district":{"key":"08325","name":"Rottweil","type":"Landkreis"},"federalState":{"key":"08","name":"Baden-Württemberg"}},{"name":"Lange Äcker","postalCode":"78661","locality":"Dietingen","municipality":{"key":"08325011","name":"Dietingen","type":"Kreisangehörige_Gemeinde"},"district":{"key":"08325","name":"Rottweil","type":"Landkreis"},"federalState":{"key":"08","name":"Baden-Württemberg"}},{"name":"Lange Gasse","postalCode":"78661","locality":"Dietingen","municipality":{"key":"08325011","name":"Dietingen","type":"Kreisangehörige_Gemeinde"},"district":{"key":"08325","name":"Rottweil","type":"Landkreis"},"federalState":{"key":"08","name":"Baden-Württemberg"}},{"name":"Langenhaldenweg","postalCode":"78661","locality":"Dietingen","municipality":{"key":"08325011","name":"Dietingen","type":"Kreisangehörige_Gemeinde"},"district":{"key":"08325","name":"Rottweil","type":"Landkreis"},"federalState":{"key":"08","name":"Baden-Württemberg"}},{"name":"Lärchenweg","postalCode":"78661","locality":"Dietingen","municipality":{"key":"08325011","name":"Dietingen","type":"Kreisangehörige_Gemeinde"},"district":{"key":"08325","name":"Rottweil","type":"Landkreis"},"federalState":{"key":"08","name":"Baden-Württemberg"}},{"name":"Lehenbühlstr.","postalCode":"78661","locality":"Dietingen","municipality":{"key":"08325011","name":"Dietingen","type":"Kreisangehörige_Gemeinde"},"district":{"key":"08325","name":"Rottweil","type":"Landkreis"},"federalState":{"key":"08","name":"Baden-Württemberg"}},{"name":"Leidringer Str.","postalCode":"78661","locality":"Dietingen","municipality":{"key":"08325011","name":"Dietingen","type":"Kreisangehörige_Gemeinde"},"district":{"key":"08325","name":"Rottweil","type":"Landkreis"},"federalState":{"key":"08","name":"Baden-Württemberg"}},{"name":"Lindenbühlstr.","postalCode":"78661","locality":"Dietingen","municipality":{"key":"08325011","name":"Dietingen","type":"Kreisangehörige_Gemeinde"},"district":{"key":"08325","name":"Rottweil","type":"Landkreis"},"federalState":{"key":"08","name":"Baden-Württemberg"}},{"name":"Lorenzgasse","postalCode":"78661","locality":"Dietingen","municipality":{"key":"08325011","name":"Dietingen","type":"Kreisangehörige_Gemeinde"},"district":{"key":"08325","name":"Rottweil","type":"Landkreis"},"federalState":{"key":"08","name":"Baden-Württemberg"}},{"name":"Mittelstr.","postalCode":"78661","locality":"Dietingen","municipality":{"key":"08325011","name":"Dietingen","type":"Kreisangehörige_Gemeinde"},"district":{"key":"08325","name":"Rottweil","type":"Landkreis"},"federalState":{"key":"08","name":"Baden-Württemberg"}},{"name":"Mühlhälderlestr.","postalCode":"78661","locality":"Dietingen","municipality":{"key":"08325011","name":"Dietingen","type":"Kreisangehörige_Gemeinde"},"district":{"key":"08325","name":"Rottweil","type":"Landkreis"},"federalState":{"key":"08","name":"Baden-Württemberg"}},{"name":"Mühlweg","postalCode":"78661","locality":"Dietingen","municipality":{"key":"08325011","name":"Dietingen","type":"Kreisangehörige_Gemeinde"},"district":{"key":"08325","name":"Rottweil","type":"Landkreis"},"federalState":{"key":"08","name":"Baden-Württemberg"}},{"name":"Nelkenstr.","postalCode":"78661","locality":"Dietingen","municipality":{"key":"08325011","name":"Dietingen","type":"Kreisangehörige_Gemeinde"},"district":{"key":"08325","name":"Rottweil","type":"Landkreis"},"federalState":{"key":"08","name":"Baden-Württemberg"}},{"name":"Ob dem Holz","postalCode":"78658","locality":"Zimmern ob Rottweil","municipality":{"key":"08325069","name":"Zimmern ob Rottweil","type":"Kreisangehörige_Gemeinde"},"district":{"key":"08325","name":"Rottweil","type":"Landkreis"},"federalState":{"key":"08","name":"Baden-Württemberg"}},{"name":"Ob der Bint","postalCode":"78628","locality":"Rottweil","municipality":{"key":"08325049","name":"Rottweil, Stadt","type":"Große_Kreisstadt"},"district":{"key":"08325","name":"Rottweil","type":"Landkreis"},"federalState":{"key":"08","name":"Baden-Württemberg"}},{"name":"Oberamteigasse","postalCode":"78628","locality":"Rottweil","municipality":{"key":"08325049","name":"Rottweil, Stadt","type":"Große_Kreisstadt"},"district":{"key":"08325","name":"Rottweil","type":"Landkreis"},"federalState":{"key":"08","name":"Baden-Württemberg"}},{"name":"Oberdorf","postalCode":"78628","locality":"Rottweil","municipality":{"key":"08325049","name":"Rottweil, Stadt","type":"Große_Kreisstadt"},"district":{"key":"08325","name":"Rottweil","type":"Landkreis"},"federalState":{"key":"08","name":"Baden-Württemberg"}},{"name":"Oberer Hardtweg","postalCode":"78628","locality":"Rottweil","municipality":{"key":"08325049","name":"Rottweil, Stadt","type":"Große_Kreisstadt"},"district":{"key":"08325","name":"Rottweil","type":"Landkreis"},"federalState":{"key":"08","name":"Baden-Württemberg"}},{"name":"Oberer Langtalweg","postalCode":"78658","locality":"Zimmern ob Rottweil","municipality":{"key":"08325069","name":"Zimmern ob Rottweil","type":"Kreisangehörige_Gemeinde"},"district":{"key":"08325","name":"Rottweil","type":"Landkreis"},"federalState":{"key":"08","name":"Baden-Württemberg"}},{"name":"Obere Ziegelhütte","postalCode":"78628","locality":"Rottweil","municipality":{"key":"08325049","name":"Rottweil, Stadt","type":"Große_Kreisstadt"},"district":{"key":"08325","name":"Rottweil","type":"Landkreis"},"federalState":{"key":"08","name":"Baden-Württemberg"}},{"name":"Obere Zieren","postalCode":"78658","locality":"Zimmern ob Rottweil","municipality":{"key":"08325069","name":"Zimmern ob Rottweil","type":"Kreisangehörige_Gemeinde"},"district":{"key":"08325","name":"Rottweil","type":"Landkreis"},"federalState":{"key":"08","name":"Baden-Württemberg"}},{"name":"Oberholzstr.","postalCode":"78628","locality":"Rottweil","municipality":{"key":"08325049","name":"Rottweil, Stadt","type":"Große_Kreisstadt"},"district":{"key":"08325","name":"Rottweil","type":"Landkreis"},"federalState":{"key":"08","name":"Baden-Württemberg"}},{"name":"Oberndorfer Str.","postalCode":"78628","locality":"Rottweil","municipality":{"key":"08325049","name":"Rottweil, Stadt","type":"Große_Kreisstadt"},"district":{"key":"08325","name":"Rottweil","type":"Landkreis"},"federalState":{"key":"08","name":"Baden-Württemberg"}},{"name":"Oberrotenstein","postalCode":"78628","locality":"Rottweil","municipality":{"key":"08325049","name":"Rottweil, Stadt","type":"Große_Kreisstadt"},"district":{"key":"08325","name":"Rottweil","type":"Landkreis"},"federalState":{"key":"08","name":"Baden-Württemberg"}},{"name":"Olgastr.","postalCode":"78628","locality":"Rottweil","municipality":{"key":"08325049","name":"Rottweil, Stadt","type":"Große_Kreisstadt"},"district":{"key":"08325","name":"Rottweil","type":"Landkreis"},"federalState":{"key":"08","name":"Baden-Württemberg"}},{"name":"Omsdorfer Hang","postalCode":"78628","locality":"Rottweil","municipality":{"key":"08325049","name":"Rottweil, Stadt","type":"Große_Kreisstadt"},"district":{"key":"08325","name":"Rottweil","type":"Landkreis"},"federalState":{"key":"08","name":"Baden-Württemberg"}},{"name":"Orpheusstr.","postalCode":"78628","locality":"Rottweil","municipality":{"key":"08325049","name":"Rottweil, Stadt","type":"Große_Kreisstadt"},"district":{"key":"08325","name":"Rottweil","type":"Landkreis"},"federalState":{"key":"08","name":"Baden-Württemberg"}},{"name":"Ortenbergweg","postalCode":"78628","locality":"Rottweil","municipality":{"key":"08325049","name":"Rottweil, Stadt","type":"Große_Kreisstadt"},"district":{"key":"08325","name":"Rottweil","type":"Landkreis"},"federalState":{"key":"08","name":"Baden-Württemberg"}},{"name":"Oswald-Klein-Str.","postalCode":"78628","locality":"Rottweil","municipality":{"key":"08325049","name":"Rottweil, Stadt","type":"Große_Kreisstadt"},"district":{"key":"08325","name":"Rottweil","type":"Landkreis"},"federalState":{"key":"08","name":"Baden-Württemberg"}},{"name":"Postplatz","postalCode":"78661","locality":"Dietingen","municipality":{"key":"08325011","name":"Dietingen","type":"Kreisangehörige_Gemeinde"},"district":{"key":"08325","name":"Rottweil","type":"Landkreis"},"federalState":{"key":"08","name":"Baden-Württemberg"}},{"name":"Postweg","postalCode":"78661","locality":"Dietingen","municipality":{"key":"08325011","name":"Dietingen","type":"Kreisangehörige_Gemeinde"},"district":{"key":"08325","name":"Rottweil","type":"Landkreis"},"federalState":{"key":"08","name":"Baden-Württemberg"}},{"name":"Rathausstr.","postalCode":"78661","locality":"Dietingen","municipality":{"key":"08325011","name":"Dietingen","type":"Kreisangehörige_Gemeinde"},"district":{"key":"08325","name":"Rottweil","type":"Landkreis"},"federalState":{"key":"08","name":"Baden-Württemberg"}},{"name":"Riebelberg","postalCode":"78661","locality":"Dietingen","municipality":{"key":"08325011","name":"Dietingen","type":"Kreisangehörige_Gemeinde"},"district":{"key":"08325","name":"Rottweil","type":"Landkreis"},"federalState":{"key":"08","name":"Baden-Württemberg"}},{"name":"Riebelbergweg","postalCode":"78661","locality":"Dietingen","municipality":{"key":"08325011","name":"Dietingen","type":"Kreisangehörige_Gemeinde"},"district":{"key":"08325","name":"Rottweil","type":"Landkreis"},"federalState":{"key":"08","name":"Baden-Württemberg"}},{"name":"Riedstr.","postalCode":"78661","locality":"Dietingen","municipality":{"key":"08325011","name":"Dietingen","type":"Kreisangehörige_Gemeinde"},"district":{"key":"08325","name":"Rottweil","type":"Landkreis"},"federalState":{"key":"08","name":"Baden-Württemberg"}},{"name":"Ritterstr.","postalCode":"78661","locality":"Dietingen","municipality":{"key":"08325011","name":"Dietingen","type":"Kreisangehörige_Gemeinde"},"district":{"key":"08325","name":"Rottweil","type":"Landkreis"},"federalState":{"key":"08","name":"Baden-Württemberg"}},{"name":"Rohräckerring","postalCode":"78661","locality":"Dietingen","municipality":{"key":"08325011","name":"Dietingen","type":"Kreisangehörige_Gemeinde"},"district":{"key":"08325","name":"Rottweil","type":"Landkreis"},"federalState":{"key":"08","name":"Baden-Württemberg"}},{"name":"Römerstr.","postalCode":"78661","locality":"Dietingen","municipality":{"key":"08325011","name":"Dietingen","type":"Kreisangehörige_Gemeinde"},"district":{"key":"08325","name":"Rottweil","type":"Landkreis"},"federalState":{"key":"08","name":"Baden-Württemberg"}},{"name":"Rosenstr.","postalCode":"78661","locality":"Dietingen","municipality":{"key":"08325011","name":"Dietingen","type":"Kreisangehörige_Gemeinde"},"district":{"key":"08325","name":"Rottweil","type":"Landkreis"},"federalState":{"key":"08","name":"Baden-Württemberg"}},{"name":"Rotenzimmerner Str.","postalCode":"78661","locality":"Dietingen","municipality":{"key":"08325011","name":"Dietingen","type":"Kreisangehörige_Gemeinde"},"district":{"key":"08325","name":"Rottweil","type":"Landkreis"},"federalState":{"key":"08","name":"Baden-Württemberg"}},{"name":"Rottweiler Str.","postalCode":"78661","locality":"Dietingen","municipality":{"key":"08325011","name":"Dietingen","type":"Kreisangehörige_Gemeinde"},"district":{"key":"08325","name":"Rottweil","type":"Landkreis"},"federalState":{"key":"08","name":"Baden-Württemberg"}},{"name":"Scheibenbühlweg","postalCode":"78661","locality":"Dietingen","municipality":{"key":"08325011","name":"Dietingen","type":"Kreisangehörige_Gemeinde"},"district":{"key":"08325","name":"Rottweil","type":"Landkreis"},"federalState":{"key":"08","name":"Baden-Württemberg"}},{"name":"Scheidwiesenweg","postalCode":"78661","locality":"Dietingen","municipality":{"key":"08325011","name":"Dietingen","type":"Kreisangehörige_Gemeinde"},"district":{"key":"08325","name":"Rottweil","type":"Landkreis"},"federalState":{"key":"08","name":"Baden-Württemberg"}},{"name":"Schelmenäcker","postalCode":"78661","locality":"Dietingen","municipality":{"key":"08325011","name":"Dietingen","type":"Kreisangehörige_Gemeinde"},"district":{"key":"08325","name":"Rottweil","type":"Landkreis"},"federalState":{"key":"08","name":"Baden-Württemberg"}},{"name":"Schelmenwasenstr.","postalCode":"78661","locality":"Dietingen","municipality":{"key":"08325011","name":"Dietingen","type":"Kreisangehörige_Gemeinde"},"district":{"key":"08325","name":"Rottweil","type":"Landkreis"},"federalState":{"key":"08","name":"Baden-Württemberg"}},{"name":"Schillgasse","postalCode":"78661","locality":"Dietingen","municipality":{"key":"08325011","name":"Dietingen","type":"Kreisangehörige_Gemeinde"},"district":{"key":"08325","name":"Rottweil","type":"Landkreis"},"federalState":{"key":"08","name":"Baden-Württemberg"}},{"name":"Schlichemstr.","postalCode":"78661","locality":"Dietingen","municipality":{"key":"08325011","name":"Dietingen","type":"Kreisangehörige_Gemeinde"},"district":{"key":"08325","name":"Rottweil","type":"Landkreis"},"federalState":{"key":"08","name":"Baden-Württemberg"}},{"name":"Schmiedestr.","postalCode":"78661","locality":"Dietingen","municipality":{"key":"08325011","name":"Dietingen","type":"Kreisangehörige_Gemeinde"},"district":{"key":"08325","name":"Rottweil","type":"Landkreis"},"federalState":{"key":"08","name":"Baden-Württemberg"}},{"name":"Schulstr.","postalCode":"78661","locality":"Dietingen","municipality":{"key":"08325011","name":"Dietingen","type":"Kreisangehörige_Gemeinde"},"district":{"key":"08325","name":"Rottweil","type":"Landkreis"},"federalState":{"key":"08","name":"Baden-Württemberg"}},{"name":"Schwarzenbachstr.","postalCode":"78661","locality":"Dietingen","municipality":{"key":"08325011","name":"Dietingen","type":"Kreisangehörige_Gemeinde"},"district":{"key":"08325","name":"Rottweil","type":"Landkreis"},"federalState":{"key":"08","name":"Baden-Württemberg"}},{"name":"Seegärten","postalCode":"78661","locality":"Dietingen","municipality":{"key":"08325011","name":"Dietingen","type":"Kreisangehörige_Gemeinde"},"district":{"key":"08325","name":"Rottweil","type":"Landkreis"},"federalState":{"key":"08","name":"Baden-Württemberg"}},{"name":"Sportplatzweg","postalCode":"78661","locality":"Dietingen","municipality":{"key":"08325011","name":"Dietingen","type":"Kreisangehörige_Gemeinde"},"district":{"key":"08325","name":"Rottweil","type":"Landkreis"},"federalState":{"key":"08","name":"Baden-Württemberg"}},{"name":"Springergasse","postalCode":"78661","locality":"Dietingen","municipality":{"key":"08325011","name":"Dietingen","type":"Kreisangehörige_Gemeinde"},"district":{"key":"08325","name":"Rottweil","type":"Landkreis"},"federalState":{"key":"08","name":"Baden-Württemberg"}},{"name":"Stadtweg","postalCode":"78661","locality":"Dietingen","municipality":{"key":"08325011","name":"Dietingen","type":"Kreisangehörige_Gemeinde"},"district":{"key":"08325","name":"Rottweil","type":"Landkreis"},"federalState":{"key":"08","name":"Baden-Württemberg"}},{"name":"Stauchestr.","postalCode":"78661","locality":"Dietingen","municipality":{"key":"08325011","name":"Dietingen","type":"Kreisangehörige_Gemeinde"},"district":{"key":"08325","name":"Rottweil","type":"Landkreis"},"federalState":{"key":"08","name":"Baden-Württemberg"}},{"name":"Steingartenstr.","postalCode":"78661","locality":"Dietingen","municipality":{"key":"08325011","name":"Dietingen","type":"Kreisangehörige_Gemeinde"},"district":{"key":"08325","name":"Rottweil","type":"Landkreis"},"federalState":{"key":"08","name":"Baden-Württemberg"}},{"name":"Stellgrabenstr.","postalCode":"78661","locality":"Dietingen","municipality":{"key":"08325011","name":"Dietingen","type":"Kreisangehörige_Gemeinde"},"district":{"key":"08325","name":"Rottweil","type":"Landkreis"},"federalState":{"key":"08","name":"Baden-Württemberg"}},{"name":"Stelzen","postalCode":"78661","locality":"Dietingen","municipality":{"key":"08325011","name":"Dietingen","type":"Kreisangehörige_Gemeinde"},"district":{"key":"08325","name":"Rottweil","type":"Landkreis"},"federalState":{"key":"08","name":"Baden-Württemberg"}},{"name":"Stelzenweg","postalCode":"78661","locality":"Dietingen","municipality":{"key":"08325011","name":"Dietingen","type":"Kreisangehörige_Gemeinde"},"district":{"key":"08325","name":"Rottweil","type":"Landkreis"},"federalState":{"key":"08","name":"Baden-Württemberg"}},{"name":"St.-Gallener-Ring","postalCode":"78661","locality":"Dietingen","municipality":{"key":"08325011","name":"Dietingen","type":"Kreisangehörige_Gemeinde"},"district":{"key":"08325","name":"Rottweil","type":"Landkreis"},"federalState":{"key":"08","name":"Baden-Württemberg"}},{"name":"Stuckäckerstr.","postalCode":"78661","locality":"Dietingen","municipality":{"key":"08325011","name":"Dietingen","type":"Kreisangehörige_Gemeinde"},"district":{"key":"08325","name":"Rottweil","type":"Landkreis"},"federalState":{"key":"08","name":"Baden-Württemberg"}},{"name":"Täbinger Str.","postalCode":"78661","locality":"Dietingen","municipality":{"key":"08325011","name":"Dietingen","type":"Kreisangehörige_Gemeinde"},"district":{"key":"08325","name":"Rottweil","type":"Landkreis"},"federalState":{"key":"08","name":"Baden-Württemberg"}},{"name":"Tal","postalCode":"78661","locality":"Dietingen","municipality":{"key":"08325011","name":"Dietingen","type":"Kreisangehörige_Gemeinde"},"district":{"key":"08325","name":"Rottweil","type":"Landkreis"},"federalState":{"key":"08","name":"Baden-Württemberg"}},{"name":"Talhauser Str.","postalCode":"78661","locality":"Dietingen","municipality":{"key":"08325011","name":"Dietingen","type":"Kreisangehörige_Gemeinde"},"district":{"key":"08325","name":"Rottweil","type":"Landkreis"},"federalState":{"key":"08","name":"Baden-Württemberg"}},{"name":"Talstr.","postalCode":"78661","locality":"Dietingen","municipality":{"key":"08325011","name":"Dietingen","type":"Kreisangehörige_Gemeinde"},"district":{"key":"08325","name":"Rottweil","type":"Landkreis"},"federalState":{"key":"08","name":"Baden-Württemberg"}},{"name":"Tann","postalCode":"78661","locality":"Dietingen","municipality":{"key":"08325011","name":"Dietingen","type":"Kreisangehörige_Gemeinde"},"district":{"key":"08325","name":"Rottweil","type":"Landkreis"},"federalState":{"key":"08","name":"Baden-Württemberg"}},{"name":"Tannbühl","postalCode":"78661","locality":"Dietingen","municipality":{"key":"08325011","name":"Dietingen","type":"Kreisangehörige_Gemeinde"},"district":{"key":"08325","name":"Rottweil","type":"Landkreis"},"federalState":{"key":"08","name":"Baden-Württemberg"}},{"name":"Tannstr.","postalCode":"78661","locality":"Dietingen","municipality":{"key":"08325011","name":"Dietingen","type":"Kreisangehörige_Gemeinde"},"district":{"key":"08325","name":"Rottweil","type":"Landkreis"},"federalState":{"key":"08","name":"Baden-Württemberg"}},{"name":"Tierstein","postalCode":"78661","locality":"Dietingen","municipality":{"key":"08325011","name":"Dietingen","type":"Kreisangehörige_Gemeinde"},"district":{"key":"08325","name":"Rottweil","type":"Landkreis"},"federalState":{"key":"08","name":"Baden-Württemberg"}},{"name":"Tobelweg","postalCode":"78661","locality":"Dietingen","municipality":{"key":"08325011","name":"Dietingen","type":"Kreisangehörige_Gemeinde"},"district":{"key":"08325","name":"Rottweil","type":"Landkreis"},"federalState":{"key":"08","name":"Baden-Württemberg"}},{"name":"Trichtinger Str.","postalCode":"78661","locality":"Dietingen","municipality":{"key":"08325011","name":"Dietingen","type":"Kreisangehörige_Gemeinde"},"district":{"key":"08325","name":"Rottweil","type":"Landkreis"},"federalState":{"key":"08","name":"Baden-Württemberg"}},{"name":"Tulpenstr.","postalCode":"78661","locality":"Dietingen","municipality":{"key":"08325011","name":"Dietingen","type":"Kreisangehörige_Gemeinde"},"district":{"key":"08325","name":"Rottweil","type":"Landkreis"},"federalState":{"key":"08","name":"Baden-Württemberg"}},{"name":"Uchthalde","postalCode":"78661","locality":"Dietingen","municipality":{"key":"08325011","name":"Dietingen","type":"Kreisangehörige_Gemeinde"},"district":{"key":"08325","name":"Rottweil","type":"Landkreis"},"federalState":{"key":"08","name":"Baden-Württemberg"}},{"name":"Ulmenring","postalCode":"78661","locality":"Dietingen","municipality":{"key":"08325011","name":"Dietingen","type":"Kreisangehörige_Gemeinde"},"district":{"key":"08325","name":"Rottweil","type":"Landkreis"},"federalState":{"key":"08","name":"Baden-Württemberg"}},{"name":"Unterdorfstr.","postalCode":"78661","locality":"Dietingen","municipality":{"key":"08325011","name":"Dietingen","type":"Kreisangehörige_Gemeinde"},"district":{"key":"08325","name":"Rottweil","type":"Landkreis"},"federalState":{"key":"08","name":"Baden-Württemberg"}},{"name":"Viehhalde","postalCode":"78661","locality":"Dietingen","municipality":{"key":"08325011","name":"Dietingen","type":"Kreisangehörige_Gemeinde"},"district":{"key":"08325","name":"Rottweil","type":"Landkreis"},"federalState":{"key":"08","name":"Baden-Württemberg"}},{"name":"Wacholderweg","postalCode":"78661","locality":"Dietingen","municipality":{"key":"08325011","name":"Dietingen","type":"Kreisangehörige_Gemeinde"},"district":{"key":"08325","name":"Rottweil","type":"Landkreis"},"federalState":{"key":"08","name":"Baden-Württemberg"}},{"name":"Waidbachstr.","postalCode":"78661","locality":"Dietingen","municipality":{"key":"08325011","name":"Dietingen","type":"Kreisangehörige_Gemeinde"},"district":{"key":"08325","name":"Rottweil","type":"Landkreis"},"federalState":{"key":"08","name":"Baden-Württemberg"}},{"name":"Wangerlochweg","postalCode":"78661","locality":"Dietingen","municipality":{"key":"08325011","name":"Dietingen","type":"Kreisangehörige_Gemeinde"},"district":{"key":"08325","name":"Rottweil","type":"Landkreis"},"federalState":{"key":"08","name":"Baden-Württemberg"}},{"name":"Weidenstr.","postalCode":"78661","locality":"Dietingen","municipality":{"key":"08325011","name":"Dietingen","type":"Kreisangehörige_Gemeinde"},"district":{"key":"08325","name":"Rottweil","type":"Landkreis"},"federalState":{"key":"08","name":"Baden-Württemberg"}},{"name":"Wiedlingäcker","postalCode":"78661","locality":"Dietingen","municipality":{"key":"08325011","name":"Dietingen","type":"Kreisangehörige_Gemeinde"},"district":{"key":"08325","name":"Rottweil","type":"Landkreis"},"federalState":{"key":"08","name":"Baden-Württemberg"}},{"name":"Wolfbaumstr.","postalCode":"78661","locality":"Dietingen","municipality":{"key":"08325011","name":"Dietingen","type":"Kreisangehörige_Gemeinde"},"district":{"key":"08325","name":"Rottweil","type":"Landkreis"},"federalState":{"key":"08","name":"Baden-Württemberg"}},{"name":"Zimmerner Str.","postalCode":"78661","locality":"Dietingen","municipality":{"key":"08325011","name":"Dietingen","type":"Kreisangehörige_Gemeinde"},"district":{"key":"08325","name":"Rottweil","type":"Landkreis"},"federalState":{"key":"08","name":"Baden-Württemberg"}},{"name":"Zinkenstr.","postalCode":"78661","locality":"Dietingen","municipality":{"key":"08325011","name":"Dietingen","type":"Kreisangehörige_Gemeinde"},"district":{"key":"08325","name":"Rottweil","type":"Landkreis"},"federalState":{"key":"08","name":"Baden-Württemberg"}},{"name":"Äußere Alleenstr.","postalCode":"78628","locality":"Rottweil","municipality":{"key":"08325049","name":"Rottweil, Stadt","type":"Große_Kreisstadt"},"district":{"key":"08325","name":"Rottweil","type":"Landkreis"},"federalState":{"key":"08","name":"Baden-Württemberg"}},{"name":"Öschlestr.","postalCode":"78628","locality":"Rottweil","municipality":{"key":"08325049","name":"Rottweil, Stadt","type":"Große_Kreisstadt"},"district":{"key":"08325","name":"Rottweil","type":"Landkreis"},"federalState":{"key":"08","name":"Baden-Württemberg"}},{"name":"Überlinger Str.","postalCode":"78628","locality":"Rottweil","municipality":{"key":"08325049","name":"Rottweil, Stadt","type":"Große_Kreisstadt"},"district":{"key":"08325","name":"Rottweil","type":"Landkreis"},"federalState":{"key":"08","name":"Baden-Württemberg"}},]