[{"key":"10024777","name":"Allmendtal","postalCode":"3253","locality":"Schnottwil","commune":{"key":"2461","name":"Schnottwil","shortName":"Schnottwil"},"district":{"key":"1103","name":"Bezirk Bucheggberg"},"canton":{"key":"11","code":"SO","name":"Solothurn"},"status":"Real"},{"key":"10094599","name":"Alte Bernstrasse","postalCode":"3253","locality":"Schnottwil","commune":{"key":"2461","name":"Schnottwil","shortName":"Schnottwil"},"district":{"key":"1103","name":"Bezirk Bucheggberg"},"canton":{"key":"11","code":"SO","name":"Solothurn"},"status":"Real"},{"key":"10055147","name":"Am Weiher","postalCode":"3253","locality":"Schnottwil","commune":{"key":"2461","name":"Schnottwil","shortName":"Schnottwil"},"district":{"key":"1103","name":"Bezirk Bucheggberg"},"canton":{"key":"11","code":"SO","name":"Solothurn"},"status":"Real"},{"key":"10214258","name":"Aspiwäldli","postalCode":"3253","locality":"Schnottwil","commune":{"key":"2461","name":"Schnottwil","shortName":"Schnottwil"},"district":{"key":"1103","name":"Bezirk Bucheggberg"},"canton":{"key":"11","code":"SO","name":"Solothurn"},"status":"Real"},{"key":"10163369","name":"Bächelacher","postalCode":"3253","locality":"Schnottwil","commune":{"key":"2461","name":"Schnottwil","shortName":"Schnottwil"},"district":{"key":"1103","name":"Bezirk Bucheggberg"},"canton":{"key":"11","code":"SO","name":"Solothurn"},"status":"Real"},{"key":"10177541","name":"Bachgässli","postalCode":"3253","locality":"Schnottwil","commune":{"key":"2461","name":"Schnottwil","shortName":"Schnottwil"},"district":{"key":"1103","name":"Bezirk Bucheggberg"},"canton":{"key":"11","code":"SO","name":"Solothurn"},"status":"Real"},{"key":"10214260","name":"Balmweg","postalCode":"3253","locality":"Schnottwil","commune":{"key":"2461","name":"Schnottwil","shortName":"Schnottwil"},"district":{"key":"1103","name":"Bezirk Bucheggberg"},"canton":{"key":"11","code":"SO","name":"Solothurn"},"status":"Real"},{"key":"10186058","name":"Bergacher","postalCode":"3253","locality":"Schnottwil","commune":{"key":"2461","name":"Schnottwil","shortName":"Schnottwil"},"district":{"key":"1103","name":"Bezirk Bucheggberg"},"canton":{"key":"11","code":"SO","name":"Solothurn"},"status":"Real"},{"key":"10214266","name":"Berghölzliweg","postalCode":"3253","locality":"Schnottwil","commune":{"key":"2461","name":"Schnottwil","shortName":"Schnottwil"},"district":{"key":"1103","name":"Bezirk Bucheggberg"},"canton":{"key":"11","code":"SO","name":"Solothurn"},"status":"Real"},{"key":"10071666","name":"Bernstrasse","postalCode":"3253","locality":"Schnottwil","commune":{"key":"2461","name":"Schnottwil","shortName":"Schnottwil"},"district":{"key":"1103","name":"Bezirk Bucheggberg"},"canton":{"key":"11","code":"SO","name":"Solothurn"},"status":"Real"},{"key":"10214270","name":"Bettlerchuchi","postalCode":"3253","locality":"Schnottwil","commune":{"key":"2461","name":"Schnottwil","shortName":"Schnottwil"},"district":{"key":"1103","name":"Bezirk Bucheggberg"},"canton":{"key":"11","code":"SO","name":"Solothurn"},"status":"Real"},{"key":"10045851","name":"Bielhölzliweg","postalCode":"3253","locality":"Schnottwil","commune":{"key":"2461","name":"Schnottwil","shortName":"Schnottwil"},"district":{"key":"1103","name":"Bezirk Bucheggberg"},"canton":{"key":"11","code":"SO","name":"Solothurn"},"status":"Real"},{"key":"10094600","name":"Biezwilstrasse","postalCode":"3253","locality":"Schnottwil","commune":{"key":"2461","name":"Schnottwil","shortName":"Schnottwil"},"district":{"key":"1103","name":"Bezirk Bucheggberg"},"canton":{"key":"11","code":"SO","name":"Solothurn"},"status":"Real"},{"key":"10214274","name":"Bürengrenze","postalCode":"3253","locality":"Schnottwil","commune":{"key":"2461","name":"Schnottwil","shortName":"Schnottwil"},"district":{"key":"1103","name":"Bezirk Bucheggberg"},"canton":{"key":"11","code":"SO","name":"Solothurn"},"status":"Real"},{"key":"10214278","name":"Bürenmoosweg","postalCode":"3253","locality":"Schnottwil","commune":{"key":"2461","name":"Schnottwil","shortName":"Schnottwil"},"district":{"key":"1103","name":"Bezirk Bucheggberg"},"canton":{"key":"11","code":"SO","name":"Solothurn"},"status":"Real"},{"key":"10024778","name":"Bürenstrasse","postalCode":"3253","locality":"Schnottwil","commune":{"key":"2461","name":"Schnottwil","shortName":"Schnottwil"},"district":{"key":"1103","name":"Bezirk Bucheggberg"},"canton":{"key":"11","code":"SO","name":"Solothurn"},"status":"Real"},{"key":"10214282","name":"Burgdorfweg","postalCode":"3253","locality":"Schnottwil","commune":{"key":"2461","name":"Schnottwil","shortName":"Schnottwil"},"district":{"key":"1103","name":"Bezirk Bucheggberg"},"canton":{"key":"11","code":"SO","name":"Solothurn"},"status":"Real"},{"key":"10214286","name":"Burketsgrabenweg","postalCode":"3253","locality":"Schnottwil","commune":{"key":"2461","name":"Schnottwil","shortName":"Schnottwil"},"district":{"key":"1103","name":"Bezirk Bucheggberg"},"canton":{"key":"11","code":"SO","name":"Solothurn"},"status":"Real"},{"key":"10214926","name":"Chesseli","postalCode":"3253","locality":"Schnottwil","commune":{"key":"2461","name":"Schnottwil","shortName":"Schnottwil"},"district":{"key":"1103","name":"Bezirk Bucheggberg"},"canton":{"key":"11","code":"SO","name":"Solothurn"},"status":"Real"},{"key":"10214930","name":"Chriegholzweg","postalCode":"3253","locality":"Schnottwil","commune":{"key":"2461","name":"Schnottwil","shortName":"Schnottwil"},"district":{"key":"1103","name":"Bezirk Bucheggberg"},"canton":{"key":"11","code":"SO","name":"Solothurn"},"status":"Real"},{"key":"10187752","name":"Dägischer","postalCode":"3253","locality":"Schnottwil","commune":{"key":"2461","name":"Schnottwil","shortName":"Schnottwil"},"district":{"key":"1103","name":"Bezirk Bucheggberg"},"canton":{"key":"11","code":"SO","name":"Solothurn"},"status":"Real"},{"key":"10214934","name":"Dellen","postalCode":"3253","locality":"Schnottwil","commune":{"key":"2461","name":"Schnottwil","shortName":"Schnottwil"},"district":{"key":"1103","name":"Bezirk Bucheggberg"},"canton":{"key":"11","code":"SO","name":"Solothurn"},"status":"Real"},{"key":"10024779","name":"Diessbachstrasse","postalCode":"3253","locality":"Schnottwil","commune":{"key":"2461","name":"Schnottwil","shortName":"Schnottwil"},"district":{"key":"1103","name":"Bezirk Bucheggberg"},"canton":{"key":"11","code":"SO","name":"Solothurn"},"status":"Real"},{"key":"10214938","name":"Dotzigenweg","postalCode":"3253","locality":"Schnottwil","commune":{"key":"2461","name":"Schnottwil","shortName":"Schnottwil"},"district":{"key":"1103","name":"Bezirk Bucheggberg"},"canton":{"key":"11","code":"SO","name":"Solothurn"},"status":"Real"},{"key":"10214592","name":"Eychiweg","postalCode":"3253","locality":"Schnottwil","commune":{"key":"2461","name":"Schnottwil","shortName":"Schnottwil"},"district":{"key":"1103","name":"Bezirk Bucheggberg"},"canton":{"key":"11","code":"SO","name":"Solothurn"},"status":"Real"},{"key":"10094601","name":"Ey-Chüpfen","postalCode":"3253","locality":"Schnottwil","commune":{"key":"2461","name":"Schnottwil","shortName":"Schnottwil"},"district":{"key":"1103","name":"Bezirk Bucheggberg"},"canton":{"key":"11","code":"SO","name":"Solothurn"},"status":"Real"},{"key":"10214596","name":"Fachenmoosweg","postalCode":"3253","locality":"Schnottwil","commune":{"key":"2461","name":"Schnottwil","shortName":"Schnottwil"},"district":{"key":"1103","name":"Bezirk Bucheggberg"},"canton":{"key":"11","code":"SO","name":"Solothurn"},"status":"Real"},{"key":"10058623","name":"Falkenplatz","postalCode":"3253","locality":"Schnottwil","commune":{"key":"2461","name":"Schnottwil","shortName":"Schnottwil"},"district":{"key":"1103","name":"Bezirk Bucheggberg"},"canton":{"key":"11","code":"SO","name":"Solothurn"},"status":"Real"},{"key":"10055148","name":"Feld","postalCode":"3253","locality":"Schnottwil","commune":{"key":"2461","name":"Schnottwil","shortName":"Schnottwil"},"district":{"key":"1103","name":"Bezirk Bucheggberg"},"canton":{"key":"11","code":"SO","name":"Solothurn"},"status":"Real"},{"key":"10071667","name":"Fluehof","postalCode":"3253","locality":"Schnottwil","commune":{"key":"2461","name":"Schnottwil","shortName":"Schnottwil"},"district":{"key":"1103","name":"Bezirk Bucheggberg"},"canton":{"key":"11","code":"SO","name":"Solothurn"},"status":"Real"},{"key":"10214951","name":"Fröschenweg","postalCode":"3253","locality":"Schnottwil","commune":{"key":"2461","name":"Schnottwil","shortName":"Schnottwil"},"district":{"key":"1103","name":"Bezirk Bucheggberg"},"canton":{"key":"11","code":"SO","name":"Solothurn"},"status":"Real"},{"key":"10214957","name":"Fudenlochweg","postalCode":"3253","locality":"Schnottwil","commune":{"key":"2461","name":"Schnottwil","shortName":"Schnottwil"},"district":{"key":"1103","name":"Bezirk Bucheggberg"},"canton":{"key":"11","code":"SO","name":"Solothurn"},"status":"Real"},{"key":"10214960","name":"Gänseweiherweg","postalCode":"3253","locality":"Schnottwil","commune":{"key":"2461","name":"Schnottwil","shortName":"Schnottwil"},"district":{"key":"1103","name":"Bezirk Bucheggberg"},"canton":{"key":"11","code":"SO","name":"Solothurn"},"status":"Real"},{"key":"10024780","name":"Gässli","postalCode":"3253","locality":"Schnottwil","commune":{"key":"2461","name":"Schnottwil","shortName":"Schnottwil"},"district":{"key":"1103","name":"Bezirk Bucheggberg"},"canton":{"key":"11","code":"SO","name":"Solothurn"},"status":"Real"},{"key":"10214963","name":"Grenzweg","postalCode":"3253","locality":"Schnottwil","commune":{"key":"2461","name":"Schnottwil","shortName":"Schnottwil"},"district":{"key":"1103","name":"Bezirk Bucheggberg"},"canton":{"key":"11","code":"SO","name":"Solothurn"},"status":"Real"},{"key":"10153940","name":"Häisihag","postalCode":"3253","locality":"Schnottwil","commune":{"key":"2461","name":"Schnottwil","shortName":"Schnottwil"},"district":{"key":"1103","name":"Bezirk Bucheggberg"},"canton":{"key":"11","code":"SO","name":"Solothurn"},"status":"Real"},{"key":"10213424","name":"Helvetiaplatz","postalCode":"3253","locality":"Schnottwil","commune":{"key":"2461","name":"Schnottwil","shortName":"Schnottwil"},"district":{"key":"1103","name":"Bezirk Bucheggberg"},"canton":{"key":"11","code":"SO","name":"Solothurn"},"status":"Real"},{"key":"10055149","name":"Holen","postalCode":"3253","locality":"Schnottwil","commune":{"key":"2461","name":"Schnottwil","shortName":"Schnottwil"},"district":{"key":"1103","name":"Bezirk Bucheggberg"},"canton":{"key":"11","code":"SO","name":"Solothurn"},"status":"Real"},{"key":"10045852","name":"Holiweg","postalCode":"3253","locality":"Schnottwil","commune":{"key":"2461","name":"Schnottwil","shortName":"Schnottwil"},"district":{"key":"1103","name":"Bezirk Bucheggberg"},"canton":{"key":"11","code":"SO","name":"Solothurn"},"status":"Real"},{"key":"10213428","name":"Holzmatt","postalCode":"3253","locality":"Schnottwil","commune":{"key":"2461","name":"Schnottwil","shortName":"Schnottwil"},"district":{"key":"1103","name":"Bezirk Bucheggberg"},"canton":{"key":"11","code":"SO","name":"Solothurn"},"status":"Real"},{"key":"10214623","name":"Hubeleinschlag","postalCode":"3253","locality":"Schnottwil","commune":{"key":"2461","name":"Schnottwil","shortName":"Schnottwil"},"district":{"key":"1103","name":"Bezirk Bucheggberg"},"canton":{"key":"11","code":"SO","name":"Solothurn"},"status":"Real"},{"key":"10214629","name":"Hubeleinschlagweg","postalCode":"3253","locality":"Schnottwil","commune":{"key":"2461","name":"Schnottwil","shortName":"Schnottwil"},"district":{"key":"1103","name":"Bezirk Bucheggberg"},"canton":{"key":"11","code":"SO","name":"Solothurn"},"status":"Real"},{"key":"10186059","name":"Hübeli","postalCode":"3253","locality":"Schnottwil","commune":{"key":"2461","name":"Schnottwil","shortName":"Schnottwil"},"district":{"key":"1103","name":"Bezirk Bucheggberg"},"canton":{"key":"11","code":"SO","name":"Solothurn"},"status":"Real"},{"key":"10071668","name":"Im Holz","postalCode":"3253","locality":"Schnottwil","commune":{"key":"2461","name":"Schnottwil","shortName":"Schnottwil"},"district":{"key":"1103","name":"Bezirk Bucheggberg"},"canton":{"key":"11","code":"SO","name":"Solothurn"},"status":"Real"},{"key":"10025895","name":"Industriestrasse","postalCode":"3253","locality":"Schnottwil","commune":{"key":"2461","name":"Schnottwil","shortName":"Schnottwil"},"district":{"key":"1103","name":"Bezirk Bucheggberg"},"canton":{"key":"11","code":"SO","name":"Solothurn"},"status":"Real"},{"key":"10214632","name":"Jägerhausweg","postalCode":"3253","locality":"Schnottwil","commune":{"key":"2461","name":"Schnottwil","shortName":"Schnottwil"},"district":{"key":"1103","name":"Bezirk Bucheggberg"},"canton":{"key":"11","code":"SO","name":"Solothurn"},"status":"Real"},{"key":"10214636","name":"Janzenhuseggen","postalCode":"3253","locality":"Schnottwil","commune":{"key":"2461","name":"Schnottwil","shortName":"Schnottwil"},"district":{"key":"1103","name":"Bezirk Bucheggberg"},"canton":{"key":"11","code":"SO","name":"Solothurn"},"status":"Real"},{"key":"10071669","name":"Kappeli","postalCode":"3253","locality":"Schnottwil","commune":{"key":"2461","name":"Schnottwil","shortName":"Schnottwil"},"district":{"key":"1103","name":"Bezirk Bucheggberg"},"canton":{"key":"11","code":"SO","name":"Solothurn"},"status":"Real"},{"key":"10025896","name":"Kehr","postalCode":"3253","locality":"Schnottwil","commune":{"key":"2461","name":"Schnottwil","shortName":"Schnottwil"},"district":{"key":"1103","name":"Bezirk Bucheggberg"},"canton":{"key":"11","code":"SO","name":"Solothurn"},"status":"Real"},{"key":"10214640","name":"Länggass","postalCode":"3253","locality":"Schnottwil","commune":{"key":"2461","name":"Schnottwil","shortName":"Schnottwil"},"district":{"key":"1103","name":"Bezirk Bucheggberg"},"canton":{"key":"11","code":"SO","name":"Solothurn"},"status":"Real"},{"key":"10212616","name":"Lättgrubenweg","postalCode":"3253","locality":"Schnottwil","commune":{"key":"2461","name":"Schnottwil","shortName":"Schnottwil"},"district":{"key":"1103","name":"Bezirk Bucheggberg"},"canton":{"key":"11","code":"SO","name":"Solothurn"},"status":"Real"},{"key":"10025897","name":"Leegasse","postalCode":"3253","locality":"Schnottwil","commune":{"key":"2461","name":"Schnottwil","shortName":"Schnottwil"},"district":{"key":"1103","name":"Bezirk Bucheggberg"},"canton":{"key":"11","code":"SO","name":"Solothurn"},"status":"Real"},{"key":"10214648","name":"Lischenweg","postalCode":"3253","locality":"Schnottwil","commune":{"key":"2461","name":"Schnottwil","shortName":"Schnottwil"},"district":{"key":"1103","name":"Bezirk Bucheggberg"},"canton":{"key":"11","code":"SO","name":"Solothurn"},"status":"Real"},{"key":"10094602","name":"Lochacher","postalCode":"3253","locality":"Schnottwil","commune":{"key":"2461","name":"Schnottwil","shortName":"Schnottwil"},"district":{"key":"1103","name":"Bezirk Bucheggberg"},"canton":{"key":"11","code":"SO","name":"Solothurn"},"status":"Real"},{"key":"10214652","name":"Muesmattweg","postalCode":"3253","locality":"Schnottwil","commune":{"key":"2461","name":"Schnottwil","shortName":"Schnottwil"},"district":{"key":"1103","name":"Bezirk Bucheggberg"},"canton":{"key":"11","code":"SO","name":"Solothurn"},"status":"Real"},{"key":"10071670","name":"Mühleweg","postalCode":"3253","locality":"Schnottwil","commune":{"key":"2461","name":"Schnottwil","shortName":"Schnottwil"},"district":{"key":"1103","name":"Bezirk Bucheggberg"},"canton":{"key":"11","code":"SO","name":"Solothurn"},"status":"Real"},{"key":"10025898","name":"Oberdorf","postalCode":"3253","locality":"Schnottwil","commune":{"key":"2461","name":"Schnottwil","shortName":"Schnottwil"},"district":{"key":"1103","name":"Bezirk Bucheggberg"},"canton":{"key":"11","code":"SO","name":"Solothurn"},"status":"Real"},{"key":"10214656","name":"Obere Cholbetti","postalCode":"3253","locality":"Schnottwil","commune":{"key":"2461","name":"Schnottwil","shortName":"Schnottwil"},"district":{"key":"1103","name":"Bezirk Bucheggberg"},"canton":{"key":"11","code":"SO","name":"Solothurn"},"status":"Real"},{"key":"10025899","name":"Obere Sintmatt","postalCode":"3253","locality":"Schnottwil","commune":{"key":"2461","name":"Schnottwil","shortName":"Schnottwil"},"district":{"key":"1103","name":"Bezirk Bucheggberg"},"canton":{"key":"11","code":"SO","name":"Solothurn"},"status":"Real"},{"key":"10214660","name":"Obermoosweg","postalCode":"3253","locality":"Schnottwil","commune":{"key":"2461","name":"Schnottwil","shortName":"Schnottwil"},"district":{"key":"1103","name":"Bezirk Bucheggberg"},"canton":{"key":"11","code":"SO","name":"Solothurn"},"status":"Real"},{"key":"10094603","name":"Oberwilstrasse","postalCode":"3253","locality":"Schnottwil","commune":{"key":"2461","name":"Schnottwil","shortName":"Schnottwil"},"district":{"key":"1103","name":"Bezirk Bucheggberg"},"canton":{"key":"11","code":"SO","name":"Solothurn"},"status":"Real"},{"key":"10192523","name":"Ribiacher","postalCode":"3253","locality":"Schnottwil","commune":{"key":"2461","name":"Schnottwil","shortName":"Schnottwil"},"district":{"key":"1103","name":"Bezirk Bucheggberg"},"canton":{"key":"11","code":"SO","name":"Solothurn"},"status":"Real"},{"key":"10071671","name":"Rosenweg","postalCode":"3253","locality":"Schnottwil","commune":{"key":"2461","name":"Schnottwil","shortName":"Schnottwil"},"district":{"key":"1103","name":"Bezirk Bucheggberg"},"canton":{"key":"11","code":"SO","name":"Solothurn"},"status":"Real"},{"key":"10025900","name":"Rüttenen","postalCode":"3253","locality":"Schnottwil","commune":{"key":"2461","name":"Schnottwil","shortName":"Schnottwil"},"district":{"key":"1103","name":"Bezirk Bucheggberg"},"canton":{"key":"11","code":"SO","name":"Solothurn"},"status":"Real"},{"key":"10181460","name":"Sägehof","postalCode":"3253","locality":"Schnottwil","commune":{"key":"2461","name":"Schnottwil","shortName":"Schnottwil"},"district":{"key":"1103","name":"Bezirk Bucheggberg"},"canton":{"key":"11","code":"SO","name":"Solothurn"},"status":"Real"},{"key":"10177542","name":"Sagiweg","postalCode":"3253","locality":"Schnottwil","commune":{"key":"2461","name":"Schnottwil","shortName":"Schnottwil"},"district":{"key":"1103","name":"Bezirk Bucheggberg"},"canton":{"key":"11","code":"SO","name":"Solothurn"},"status":"Real"},{"key":"10045853","name":"Salacherweg","postalCode":"3253","locality":"Schnottwil","commune":{"key":"2461","name":"Schnottwil","shortName":"Schnottwil"},"district":{"key":"1103","name":"Bezirk Bucheggberg"},"canton":{"key":"11","code":"SO","name":"Solothurn"},"status":"Real"},{"key":"10214664","name":"Sandgrubenweg","postalCode":"3253","locality":"Schnottwil","commune":{"key":"2461","name":"Schnottwil","shortName":"Schnottwil"},"district":{"key":"1103","name":"Bezirk Bucheggberg"},"canton":{"key":"11","code":"SO","name":"Solothurn"},"status":"Real"},{"key":"10214393","name":"Schlattweg","postalCode":"3253","locality":"Schnottwil","commune":{"key":"2461","name":"Schnottwil","shortName":"Schnottwil"},"district":{"key":"1103","name":"Bezirk Bucheggberg"},"canton":{"key":"11","code":"SO","name":"Solothurn"},"status":"Real"},{"key":"10214396","name":"Spishubelweg","postalCode":"3253","locality":"Schnottwil","commune":{"key":"2461","name":"Schnottwil","shortName":"Schnottwil"},"district":{"key":"1103","name":"Bezirk Bucheggberg"},"canton":{"key":"11","code":"SO","name":"Solothurn"},"status":"Real"},{"key":"10214400","name":"Spisriedweg","postalCode":"3253","locality":"Schnottwil","commune":{"key":"2461","name":"Schnottwil","shortName":"Schnottwil"},"district":{"key":"1103","name":"Bezirk Bucheggberg"},"canton":{"key":"11","code":"SO","name":"Solothurn"},"status":"Real"},{"key":"10071672","name":"Steigrüebliweg","postalCode":"3253","locality":"Schnottwil","commune":{"key":"2461","name":"Schnottwil","shortName":"Schnottwil"},"district":{"key":"1103","name":"Bezirk Bucheggberg"},"canton":{"key":"11","code":"SO","name":"Solothurn"},"status":"Real"},{"key":"10186060","name":"Stockeren","postalCode":"3253","locality":"Schnottwil","commune":{"key":"2461","name":"Schnottwil","shortName":"Schnottwil"},"district":{"key":"1103","name":"Bezirk Bucheggberg"},"canton":{"key":"11","code":"SO","name":"Solothurn"},"status":"Real"},{"key":"10214403","name":"Tanneneinschlag","postalCode":"3253","locality":"Schnottwil","commune":{"key":"2461","name":"Schnottwil","shortName":"Schnottwil"},"district":{"key":"1103","name":"Bezirk Bucheggberg"},"canton":{"key":"11","code":"SO","name":"Solothurn"},"status":"Real"},{"key":"10214407","name":"Untere Cholbetti","postalCode":"3253","locality":"Schnottwil","commune":{"key":"2461","name":"Schnottwil","shortName":"Schnottwil"},"district":{"key":"1103","name":"Bezirk Bucheggberg"},"canton":{"key":"11","code":"SO","name":"Solothurn"},"status":"Real"},{"key":"10094604","name":"Untere Sintmatt","postalCode":"3253","locality":"Schnottwil","commune":{"key":"2461","name":"Schnottwil","shortName":"Schnottwil"},"district":{"key":"1103","name":"Bezirk Bucheggberg"},"canton":{"key":"11","code":"SO","name":"Solothurn"},"status":"Real"},{"key":"10180274","name":"Unterholz","postalCode":"3253","locality":"Schnottwil","commune":{"key":"2461","name":"Schnottwil","shortName":"Schnottwil"},"district":{"key":"1103","name":"Bezirk Bucheggberg"},"canton":{"key":"11","code":"SO","name":"Solothurn"},"status":"Real"},{"key":"10214412","name":"Verbrönntenweg","postalCode":"3253","locality":"Schnottwil","commune":{"key":"2461","name":"Schnottwil","shortName":"Schnottwil"},"district":{"key":"1103","name":"Bezirk Bucheggberg"},"canton":{"key":"11","code":"SO","name":"Solothurn"},"status":"Real"},{"key":"10212678","name":"Vogelmattweg","postalCode":"3253","locality":"Schnottwil","commune":{"key":"2461","name":"Schnottwil","shortName":"Schnottwil"},"district":{"key":"1103","name":"Bezirk Bucheggberg"},"canton":{"key":"11","code":"SO","name":"Solothurn"},"status":"Real"},{"key":"10212683","name":"Waldhausweg","postalCode":"3253","locality":"Schnottwil","commune":{"key":"2461","name":"Schnottwil","shortName":"Schnottwil"},"district":{"key":"1103","name":"Bezirk Bucheggberg"},"canton":{"key":"11","code":"SO","name":"Solothurn"},"status":"Real"},{"key":"10212686","name":"Weidweg","postalCode":"3253","locality":"Schnottwil","commune":{"key":"2461","name":"Schnottwil","shortName":"Schnottwil"},"district":{"key":"1103","name":"Bezirk Bucheggberg"},"canton":{"key":"11","code":"SO","name":"Solothurn"},"status":"Real"},{"key":"10025901","name":"Weiheracher","postalCode":"3253","locality":"Schnottwil","commune":{"key":"2461","name":"Schnottwil","shortName":"Schnottwil"},"district":{"key":"1103","name":"Bezirk Bucheggberg"},"canton":{"key":"11","code":"SO","name":"Solothurn"},"status":"Real"},{"key":"10071673","name":"Weihergasse","postalCode":"3253","locality":"Schnottwil","commune":{"key":"2461","name":"Schnottwil","shortName":"Schnottwil"},"district":{"key":"1103","name":"Bezirk Bucheggberg"},"canton":{"key":"11","code":"SO","name":"Solothurn"},"status":"Real"},{"key":"10143697","name":"Weihermätteli","postalCode":"3253","locality":"Schnottwil","commune":{"key":"2461","name":"Schnottwil","shortName":"Schnottwil"},"district":{"key":"1103","name":"Bezirk Bucheggberg"},"canton":{"key":"11","code":"SO","name":"Solothurn"},"status":"Real"},]