[{"name":"Adendorfer Str.","postalCode":"53340","locality":"Meckenheim","municipality":{"key":"05382032","name":"Meckenheim, Stadt","type":"Stadt"},"district":{"key":"05382","name":"Rhein-Sieg-Kreis","type":"Kreis"},"federalState":{"key":"05","name":"Nordrhein-Westfalen"}},{"name":"Adolf-Kolping-Str.","postalCode":"53340","locality":"Meckenheim","municipality":{"key":"05382032","name":"Meckenheim, Stadt","type":"Stadt"},"district":{"key":"05382","name":"Rhein-Sieg-Kreis","type":"Kreis"},"federalState":{"key":"05","name":"Nordrhein-Westfalen"}},{"name":"Ahornhof","postalCode":"53340","locality":"Meckenheim","municipality":{"key":"05382032","name":"Meckenheim, Stadt","type":"Stadt"},"district":{"key":"05382","name":"Rhein-Sieg-Kreis","type":"Kreis"},"federalState":{"key":"05","name":"Nordrhein-Westfalen"}},{"name":"Ahrstr.","postalCode":"53340","locality":"Meckenheim","municipality":{"key":"05382032","name":"Meckenheim, Stadt","type":"Stadt"},"district":{"key":"05382","name":"Rhein-Sieg-Kreis","type":"Kreis"},"federalState":{"key":"05","name":"Nordrhein-Westfalen"}},{"name":"Akazienstr.","postalCode":"53340","locality":"Meckenheim","municipality":{"key":"05382032","name":"Meckenheim, Stadt","type":"Stadt"},"district":{"key":"05382","name":"Rhein-Sieg-Kreis","type":"Kreis"},"federalState":{"key":"05","name":"Nordrhein-Westfalen"}},{"name":"Albert-Schweitzer-Str.","postalCode":"67149","locality":"Meckenheim","municipality":{"key":"07332035","name":"Meckenheim","type":"Kreisangehörige_Gemeinde"},"district":{"key":"07332","name":"Bad Dürkheim","type":"Landkreis"},"federalState":{"key":"07","name":"Rheinland-Pfalz"}},{"name":"Allensteiner Str.","postalCode":"53340","locality":"Meckenheim","municipality":{"key":"05382032","name":"Meckenheim, Stadt","type":"Stadt"},"district":{"key":"05382","name":"Rhein-Sieg-Kreis","type":"Kreis"},"federalState":{"key":"05","name":"Nordrhein-Westfalen"}},{"name":"Altendorfer Str.","postalCode":"53340","locality":"Meckenheim","municipality":{"key":"05382032","name":"Meckenheim, Stadt","type":"Stadt"},"district":{"key":"05382","name":"Rhein-Sieg-Kreis","type":"Kreis"},"federalState":{"key":"05","name":"Nordrhein-Westfalen"}},{"name":"Alter Jagdweg","postalCode":"53340","locality":"Meckenheim","municipality":{"key":"05382032","name":"Meckenheim, Stadt","type":"Stadt"},"district":{"key":"05382","name":"Rhein-Sieg-Kreis","type":"Kreis"},"federalState":{"key":"05","name":"Nordrhein-Westfalen"}},{"name":"Alte Ziegelei","postalCode":"67149","locality":"Meckenheim","municipality":{"key":"07332035","name":"Meckenheim","type":"Kreisangehörige_Gemeinde"},"district":{"key":"07332","name":"Bad Dürkheim","type":"Landkreis"},"federalState":{"key":"07","name":"Rheinland-Pfalz"}},{"name":"Am alten Sägewerk","postalCode":"53340","locality":"Meckenheim","municipality":{"key":"05382032","name":"Meckenheim, Stadt","type":"Stadt"},"district":{"key":"05382","name":"Rhein-Sieg-Kreis","type":"Kreis"},"federalState":{"key":"05","name":"Nordrhein-Westfalen"}},{"name":"Am Alten Stauwehr","postalCode":"53340","locality":"Meckenheim","municipality":{"key":"05382032","name":"Meckenheim, Stadt","type":"Stadt"},"district":{"key":"05382","name":"Rhein-Sieg-Kreis","type":"Kreis"},"federalState":{"key":"05","name":"Nordrhein-Westfalen"}},{"name":"Am Beckmannplatz","postalCode":"53340","locality":"Meckenheim","municipality":{"key":"05382032","name":"Meckenheim, Stadt","type":"Stadt"},"district":{"key":"05382","name":"Rhein-Sieg-Kreis","type":"Kreis"},"federalState":{"key":"05","name":"Nordrhein-Westfalen"}},{"name":"Am Burghaus","postalCode":"53340","locality":"Meckenheim","municipality":{"key":"05382032","name":"Meckenheim, Stadt","type":"Stadt"},"district":{"key":"05382","name":"Rhein-Sieg-Kreis","type":"Kreis"},"federalState":{"key":"05","name":"Nordrhein-Westfalen"}},{"name":"Am Düsterbäumchen","postalCode":"53340","locality":"Meckenheim","municipality":{"key":"05382032","name":"Meckenheim, Stadt","type":"Stadt"},"district":{"key":"05382","name":"Rhein-Sieg-Kreis","type":"Kreis"},"federalState":{"key":"05","name":"Nordrhein-Westfalen"}},{"name":"Am Ehrenmal","postalCode":"53340","locality":"Meckenheim","municipality":{"key":"05382032","name":"Meckenheim, Stadt","type":"Stadt"},"district":{"key":"05382","name":"Rhein-Sieg-Kreis","type":"Kreis"},"federalState":{"key":"05","name":"Nordrhein-Westfalen"}},{"name":"Am Eisbach","postalCode":"53340","locality":"Meckenheim","municipality":{"key":"05382032","name":"Meckenheim, Stadt","type":"Stadt"},"district":{"key":"05382","name":"Rhein-Sieg-Kreis","type":"Kreis"},"federalState":{"key":"05","name":"Nordrhein-Westfalen"}},{"name":"Am Ersdorfer Bach","postalCode":"53340","locality":"Meckenheim","municipality":{"key":"05382032","name":"Meckenheim, Stadt","type":"Stadt"},"district":{"key":"05382","name":"Rhein-Sieg-Kreis","type":"Kreis"},"federalState":{"key":"05","name":"Nordrhein-Westfalen"}},{"name":"Am Feldrain","postalCode":"53340","locality":"Meckenheim","municipality":{"key":"05382032","name":"Meckenheim, Stadt","type":"Stadt"},"district":{"key":"05382","name":"Rhein-Sieg-Kreis","type":"Kreis"},"federalState":{"key":"05","name":"Nordrhein-Westfalen"}},{"name":"Am Jungholz","postalCode":"53340","locality":"Meckenheim","municipality":{"key":"05382032","name":"Meckenheim, Stadt","type":"Stadt"},"district":{"key":"05382","name":"Rhein-Sieg-Kreis","type":"Kreis"},"federalState":{"key":"05","name":"Nordrhein-Westfalen"}},{"name":"Am Jungholzhof","postalCode":"53340","locality":"Meckenheim","municipality":{"key":"05382032","name":"Meckenheim, Stadt","type":"Stadt"},"district":{"key":"05382","name":"Rhein-Sieg-Kreis","type":"Kreis"},"federalState":{"key":"05","name":"Nordrhein-Westfalen"}},{"name":"Am Kölnkreuz","postalCode":"53340","locality":"Meckenheim","municipality":{"key":"05382032","name":"Meckenheim, Stadt","type":"Stadt"},"district":{"key":"05382","name":"Rhein-Sieg-Kreis","type":"Kreis"},"federalState":{"key":"05","name":"Nordrhein-Westfalen"}},{"name":"Am Lüfthildisgraben","postalCode":"53340","locality":"Meckenheim","municipality":{"key":"05382032","name":"Meckenheim, Stadt","type":"Stadt"},"district":{"key":"05382","name":"Rhein-Sieg-Kreis","type":"Kreis"},"federalState":{"key":"05","name":"Nordrhein-Westfalen"}},{"name":"Am Mühlweiher","postalCode":"53340","locality":"Meckenheim","municipality":{"key":"05382032","name":"Meckenheim, Stadt","type":"Stadt"},"district":{"key":"05382","name":"Rhein-Sieg-Kreis","type":"Kreis"},"federalState":{"key":"05","name":"Nordrhein-Westfalen"}},{"name":"Am Obstmarkt","postalCode":"67149","locality":"Meckenheim","municipality":{"key":"07332035","name":"Meckenheim","type":"Kreisangehörige_Gemeinde"},"district":{"key":"07332","name":"Bad Dürkheim","type":"Landkreis"},"federalState":{"key":"07","name":"Rheinland-Pfalz"}},{"name":"Am Pannacker","postalCode":"53340","locality":"Meckenheim","municipality":{"key":"05382032","name":"Meckenheim, Stadt","type":"Stadt"},"district":{"key":"05382","name":"Rhein-Sieg-Kreis","type":"Kreis"},"federalState":{"key":"05","name":"Nordrhein-Westfalen"}},{"name":"Am Rebstock","postalCode":"53340","locality":"Meckenheim","municipality":{"key":"05382032","name":"Meckenheim, Stadt","type":"Stadt"},"district":{"key":"05382","name":"Rhein-Sieg-Kreis","type":"Kreis"},"federalState":{"key":"05","name":"Nordrhein-Westfalen"}},{"name":"Am Rubensplatz","postalCode":"53340","locality":"Meckenheim","municipality":{"key":"05382032","name":"Meckenheim, Stadt","type":"Stadt"},"district":{"key":"05382","name":"Rhein-Sieg-Kreis","type":"Kreis"},"federalState":{"key":"05","name":"Nordrhein-Westfalen"}},{"name":"Amselweg","postalCode":"53340","locality":"Meckenheim","municipality":{"key":"05382032","name":"Meckenheim, Stadt","type":"Stadt"},"district":{"key":"05382","name":"Rhein-Sieg-Kreis","type":"Kreis"},"federalState":{"key":"05","name":"Nordrhein-Westfalen"}},{"name":"Am Swistbach","postalCode":"53340","locality":"Meckenheim","municipality":{"key":"05382032","name":"Meckenheim, Stadt","type":"Stadt"},"district":{"key":"05382","name":"Rhein-Sieg-Kreis","type":"Kreis"},"federalState":{"key":"05","name":"Nordrhein-Westfalen"}},{"name":"Am Tennisplatz","postalCode":"53340","locality":"Meckenheim","municipality":{"key":"05382032","name":"Meckenheim, Stadt","type":"Stadt"},"district":{"key":"05382","name":"Rhein-Sieg-Kreis","type":"Kreis"},"federalState":{"key":"05","name":"Nordrhein-Westfalen"}},{"name":"Am Viethenkreuz","postalCode":"53340","locality":"Meckenheim","municipality":{"key":"05382032","name":"Meckenheim, Stadt","type":"Stadt"},"district":{"key":"05382","name":"Rhein-Sieg-Kreis","type":"Kreis"},"federalState":{"key":"05","name":"Nordrhein-Westfalen"}},{"name":"Am Wäldchen","postalCode":"53340","locality":"Meckenheim","municipality":{"key":"05382032","name":"Meckenheim, Stadt","type":"Stadt"},"district":{"key":"05382","name":"Rhein-Sieg-Kreis","type":"Kreis"},"federalState":{"key":"05","name":"Nordrhein-Westfalen"}},{"name":"Am Wiesenpfad","postalCode":"53340","locality":"Meckenheim","municipality":{"key":"05382032","name":"Meckenheim, Stadt","type":"Stadt"},"district":{"key":"05382","name":"Rhein-Sieg-Kreis","type":"Kreis"},"federalState":{"key":"05","name":"Nordrhein-Westfalen"}},{"name":"An den Birken","postalCode":"53340","locality":"Meckenheim","municipality":{"key":"05382032","name":"Meckenheim, Stadt","type":"Stadt"},"district":{"key":"05382","name":"Rhein-Sieg-Kreis","type":"Kreis"},"federalState":{"key":"05","name":"Nordrhein-Westfalen"}},{"name":"An den Hohen Baumgärten","postalCode":"53340","locality":"Meckenheim","municipality":{"key":"05382032","name":"Meckenheim, Stadt","type":"Stadt"},"district":{"key":"05382","name":"Rhein-Sieg-Kreis","type":"Kreis"},"federalState":{"key":"05","name":"Nordrhein-Westfalen"}},{"name":"An der Allee","postalCode":"53340","locality":"Meckenheim","municipality":{"key":"05382032","name":"Meckenheim, Stadt","type":"Stadt"},"district":{"key":"05382","name":"Rhein-Sieg-Kreis","type":"Kreis"},"federalState":{"key":"05","name":"Nordrhein-Westfalen"}},{"name":"An der Alten Eiche","postalCode":"53340","locality":"Meckenheim","municipality":{"key":"05382032","name":"Meckenheim, Stadt","type":"Stadt"},"district":{"key":"05382","name":"Rhein-Sieg-Kreis","type":"Kreis"},"federalState":{"key":"05","name":"Nordrhein-Westfalen"}},{"name":"An der Evangelischen Kirche","postalCode":"53340","locality":"Meckenheim","municipality":{"key":"05382032","name":"Meckenheim, Stadt","type":"Stadt"},"district":{"key":"05382","name":"Rhein-Sieg-Kreis","type":"Kreis"},"federalState":{"key":"05","name":"Nordrhein-Westfalen"}},{"name":"An der Kapelle","postalCode":"53340","locality":"Meckenheim","municipality":{"key":"05382032","name":"Meckenheim, Stadt","type":"Stadt"},"district":{"key":"05382","name":"Rhein-Sieg-Kreis","type":"Kreis"},"federalState":{"key":"05","name":"Nordrhein-Westfalen"}},{"name":"An der Villa Schmitz","postalCode":"53340","locality":"Meckenheim","municipality":{"key":"05382032","name":"Meckenheim, Stadt","type":"Stadt"},"district":{"key":"05382","name":"Rhein-Sieg-Kreis","type":"Kreis"},"federalState":{"key":"05","name":"Nordrhein-Westfalen"}},{"name":"Aprikosenstr.","postalCode":"53340","locality":"Meckenheim","municipality":{"key":"05382032","name":"Meckenheim, Stadt","type":"Stadt"},"district":{"key":"05382","name":"Rhein-Sieg-Kreis","type":"Kreis"},"federalState":{"key":"05","name":"Nordrhein-Westfalen"}},{"name":"Arndtstr.","postalCode":"53340","locality":"Meckenheim","municipality":{"key":"05382032","name":"Meckenheim, Stadt","type":"Stadt"},"district":{"key":"05382","name":"Rhein-Sieg-Kreis","type":"Kreis"},"federalState":{"key":"05","name":"Nordrhein-Westfalen"}},{"name":"Auf dem Acker","postalCode":"53340","locality":"Meckenheim","municipality":{"key":"05382032","name":"Meckenheim, Stadt","type":"Stadt"},"district":{"key":"05382","name":"Rhein-Sieg-Kreis","type":"Kreis"},"federalState":{"key":"05","name":"Nordrhein-Westfalen"}},{"name":"Auf dem Driesch","postalCode":"53340","locality":"Meckenheim","municipality":{"key":"05382032","name":"Meckenheim, Stadt","type":"Stadt"},"district":{"key":"05382","name":"Rhein-Sieg-Kreis","type":"Kreis"},"federalState":{"key":"05","name":"Nordrhein-Westfalen"}},{"name":"Auf dem Rott","postalCode":"53340","locality":"Meckenheim","municipality":{"key":"05382032","name":"Meckenheim, Stadt","type":"Stadt"},"district":{"key":"05382","name":"Rhein-Sieg-Kreis","type":"Kreis"},"federalState":{"key":"05","name":"Nordrhein-Westfalen"}},{"name":"Auf dem Spinnweg","postalCode":"53340","locality":"Meckenheim","municipality":{"key":"05382032","name":"Meckenheim, Stadt","type":"Stadt"},"district":{"key":"05382","name":"Rhein-Sieg-Kreis","type":"Kreis"},"federalState":{"key":"05","name":"Nordrhein-Westfalen"}},{"name":"Auf dem Steinbüchel","postalCode":"53340","locality":"Meckenheim","municipality":{"key":"05382032","name":"Meckenheim, Stadt","type":"Stadt"},"district":{"key":"05382","name":"Rhein-Sieg-Kreis","type":"Kreis"},"federalState":{"key":"05","name":"Nordrhein-Westfalen"}},{"name":"Auf dem Stephansberg","postalCode":"53340","locality":"Meckenheim","municipality":{"key":"05382032","name":"Meckenheim, Stadt","type":"Stadt"},"district":{"key":"05382","name":"Rhein-Sieg-Kreis","type":"Kreis"},"federalState":{"key":"05","name":"Nordrhein-Westfalen"}},{"name":"Auf den Köppen","postalCode":"53340","locality":"Meckenheim","municipality":{"key":"05382032","name":"Meckenheim, Stadt","type":"Stadt"},"district":{"key":"05382","name":"Rhein-Sieg-Kreis","type":"Kreis"},"federalState":{"key":"05","name":"Nordrhein-Westfalen"}},{"name":"Bachstr.","postalCode":"53340","locality":"Meckenheim","municipality":{"key":"05382032","name":"Meckenheim, Stadt","type":"Stadt"},"district":{"key":"05382","name":"Rhein-Sieg-Kreis","type":"Kreis"},"federalState":{"key":"05","name":"Nordrhein-Westfalen"}},{"name":"Bahnhof Kottenforst","postalCode":"53340","locality":"Meckenheim","municipality":{"key":"05382032","name":"Meckenheim, Stadt","type":"Stadt"},"district":{"key":"05382","name":"Rhein-Sieg-Kreis","type":"Kreis"},"federalState":{"key":"05","name":"Nordrhein-Westfalen"}},{"name":"Bahnhofstr.","postalCode":"53340","locality":"Meckenheim","municipality":{"key":"05382032","name":"Meckenheim, Stadt","type":"Stadt"},"district":{"key":"05382","name":"Rhein-Sieg-Kreis","type":"Kreis"},"federalState":{"key":"05","name":"Nordrhein-Westfalen"}},{"name":"Bahnhofstr.","postalCode":"67149","locality":"Meckenheim","municipality":{"key":"07332035","name":"Meckenheim","type":"Kreisangehörige_Gemeinde"},"district":{"key":"07332","name":"Bad Dürkheim","type":"Landkreis"},"federalState":{"key":"07","name":"Rheinland-Pfalz"}},{"name":"Baumschulenweg","postalCode":"53340","locality":"Meckenheim","municipality":{"key":"05382032","name":"Meckenheim, Stadt","type":"Stadt"},"district":{"key":"05382","name":"Rhein-Sieg-Kreis","type":"Kreis"},"federalState":{"key":"05","name":"Nordrhein-Westfalen"}},{"name":"Beethovenstr.","postalCode":"53340","locality":"Meckenheim","municipality":{"key":"05382032","name":"Meckenheim, Stadt","type":"Stadt"},"district":{"key":"05382","name":"Rhein-Sieg-Kreis","type":"Kreis"},"federalState":{"key":"05","name":"Nordrhein-Westfalen"}},{"name":"Bellefleurstr.","postalCode":"53340","locality":"Meckenheim","municipality":{"key":"05382032","name":"Meckenheim, Stadt","type":"Stadt"},"district":{"key":"05382","name":"Rhein-Sieg-Kreis","type":"Kreis"},"federalState":{"key":"05","name":"Nordrhein-Westfalen"}},{"name":"Bergerhof","postalCode":"53340","locality":"Meckenheim","municipality":{"key":"05382032","name":"Meckenheim, Stadt","type":"Stadt"},"district":{"key":"05382","name":"Rhein-Sieg-Kreis","type":"Kreis"},"federalState":{"key":"05","name":"Nordrhein-Westfalen"}},{"name":"Bergstr.","postalCode":"53340","locality":"Meckenheim","municipality":{"key":"05382032","name":"Meckenheim, Stadt","type":"Stadt"},"district":{"key":"05382","name":"Rhein-Sieg-Kreis","type":"Kreis"},"federalState":{"key":"05","name":"Nordrhein-Westfalen"}},{"name":"Bergweg","postalCode":"67149","locality":"Meckenheim","municipality":{"key":"07332035","name":"Meckenheim","type":"Kreisangehörige_Gemeinde"},"district":{"key":"07332","name":"Bad Dürkheim","type":"Landkreis"},"federalState":{"key":"07","name":"Rheinland-Pfalz"}},{"name":"Berlepschweg","postalCode":"53340","locality":"Meckenheim","municipality":{"key":"05382032","name":"Meckenheim, Stadt","type":"Stadt"},"district":{"key":"05382","name":"Rhein-Sieg-Kreis","type":"Kreis"},"federalState":{"key":"05","name":"Nordrhein-Westfalen"}},{"name":"Berliner Str.","postalCode":"53340","locality":"Meckenheim","municipality":{"key":"05382032","name":"Meckenheim, Stadt","type":"Stadt"},"district":{"key":"05382","name":"Rhein-Sieg-Kreis","type":"Kreis"},"federalState":{"key":"05","name":"Nordrhein-Westfalen"}},{"name":"Beuthener Str.","postalCode":"53340","locality":"Meckenheim","municipality":{"key":"05382032","name":"Meckenheim, Stadt","type":"Stadt"},"district":{"key":"05382","name":"Rhein-Sieg-Kreis","type":"Kreis"},"federalState":{"key":"05","name":"Nordrhein-Westfalen"}},{"name":"Birkenallee","postalCode":"53340","locality":"Meckenheim","municipality":{"key":"05382032","name":"Meckenheim, Stadt","type":"Stadt"},"district":{"key":"05382","name":"Rhein-Sieg-Kreis","type":"Kreis"},"federalState":{"key":"05","name":"Nordrhein-Westfalen"}},{"name":"Birkenhof","postalCode":"53340","locality":"Meckenheim","municipality":{"key":"05382032","name":"Meckenheim, Stadt","type":"Stadt"},"district":{"key":"05382","name":"Rhein-Sieg-Kreis","type":"Kreis"},"federalState":{"key":"05","name":"Nordrhein-Westfalen"}},{"name":"Blütenstr.","postalCode":"67149","locality":"Meckenheim","municipality":{"key":"07332035","name":"Meckenheim","type":"Kreisangehörige_Gemeinde"},"district":{"key":"07332","name":"Bad Dürkheim","type":"Landkreis"},"federalState":{"key":"07","name":"Rheinland-Pfalz"}},{"name":"Böhler Str.","postalCode":"67149","locality":"Meckenheim","municipality":{"key":"07332035","name":"Meckenheim","type":"Kreisangehörige_Gemeinde"},"district":{"key":"07332","name":"Bad Dürkheim","type":"Landkreis"},"federalState":{"key":"07","name":"Rheinland-Pfalz"}},{"name":"Bonhoefferweg","postalCode":"53340","locality":"Meckenheim","municipality":{"key":"05382032","name":"Meckenheim, Stadt","type":"Stadt"},"district":{"key":"05382","name":"Rhein-Sieg-Kreis","type":"Kreis"},"federalState":{"key":"05","name":"Nordrhein-Westfalen"}},{"name":"Bonner Str.","postalCode":"53340","locality":"Meckenheim","municipality":{"key":"05382032","name":"Meckenheim, Stadt","type":"Stadt"},"district":{"key":"05382","name":"Rhein-Sieg-Kreis","type":"Kreis"},"federalState":{"key":"05","name":"Nordrhein-Westfalen"}},{"name":"Boskoopweg","postalCode":"53340","locality":"Meckenheim","municipality":{"key":"05382032","name":"Meckenheim, Stadt","type":"Stadt"},"district":{"key":"05382","name":"Rhein-Sieg-Kreis","type":"Kreis"},"federalState":{"key":"05","name":"Nordrhein-Westfalen"}},{"name":"Brahmsstr.","postalCode":"53340","locality":"Meckenheim","municipality":{"key":"05382032","name":"Meckenheim, Stadt","type":"Stadt"},"district":{"key":"05382","name":"Rhein-Sieg-Kreis","type":"Kreis"},"federalState":{"key":"05","name":"Nordrhein-Westfalen"}},{"name":"Breslauer Str.","postalCode":"53340","locality":"Meckenheim","municipality":{"key":"05382032","name":"Meckenheim, Stadt","type":"Stadt"},"district":{"key":"05382","name":"Rhein-Sieg-Kreis","type":"Kreis"},"federalState":{"key":"05","name":"Nordrhein-Westfalen"}},{"name":"Bretanoweg","postalCode":"53340","locality":"Meckenheim","municipality":{"key":"05382032","name":"Meckenheim, Stadt","type":"Stadt"},"district":{"key":"05382","name":"Rhein-Sieg-Kreis","type":"Kreis"},"federalState":{"key":"05","name":"Nordrhein-Westfalen"}},{"name":"Brombeerweg","postalCode":"53340","locality":"Meckenheim","municipality":{"key":"05382032","name":"Meckenheim, Stadt","type":"Stadt"},"district":{"key":"05382","name":"Rhein-Sieg-Kreis","type":"Kreis"},"federalState":{"key":"05","name":"Nordrhein-Westfalen"}},{"name":"Brucknerstr.","postalCode":"53340","locality":"Meckenheim","municipality":{"key":"05382032","name":"Meckenheim, Stadt","type":"Stadt"},"district":{"key":"05382","name":"Rhein-Sieg-Kreis","type":"Kreis"},"federalState":{"key":"05","name":"Nordrhein-Westfalen"}},{"name":"Brunnengasse","postalCode":"67149","locality":"Meckenheim","municipality":{"key":"07332035","name":"Meckenheim","type":"Kreisangehörige_Gemeinde"},"district":{"key":"07332","name":"Bad Dürkheim","type":"Landkreis"},"federalState":{"key":"07","name":"Rheinland-Pfalz"}},{"name":"Buchenhof","postalCode":"53340","locality":"Meckenheim","municipality":{"key":"05382032","name":"Meckenheim, Stadt","type":"Stadt"},"district":{"key":"05382","name":"Rhein-Sieg-Kreis","type":"Kreis"},"federalState":{"key":"05","name":"Nordrhein-Westfalen"}},{"name":"Bunkerweg","postalCode":"67149","locality":"Meckenheim","municipality":{"key":"07332035","name":"Meckenheim","type":"Kreisangehörige_Gemeinde"},"district":{"key":"07332","name":"Bad Dürkheim","type":"Landkreis"},"federalState":{"key":"07","name":"Rheinland-Pfalz"}},{"name":"Burghofweg","postalCode":"53340","locality":"Meckenheim","municipality":{"key":"05382032","name":"Meckenheim, Stadt","type":"Stadt"},"district":{"key":"05382","name":"Rhein-Sieg-Kreis","type":"Kreis"},"federalState":{"key":"05","name":"Nordrhein-Westfalen"}},{"name":"Burgstr.","postalCode":"53340","locality":"Meckenheim","municipality":{"key":"05382032","name":"Meckenheim, Stadt","type":"Stadt"},"district":{"key":"05382","name":"Rhein-Sieg-Kreis","type":"Kreis"},"federalState":{"key":"05","name":"Nordrhein-Westfalen"}},{"name":"Buschweg","postalCode":"53340","locality":"Meckenheim","municipality":{"key":"05382032","name":"Meckenheim, Stadt","type":"Stadt"},"district":{"key":"05382","name":"Rhein-Sieg-Kreis","type":"Kreis"},"federalState":{"key":"05","name":"Nordrhein-Westfalen"}},{"name":"Carl-Goerdeler-Str.","postalCode":"53340","locality":"Meckenheim","municipality":{"key":"05382032","name":"Meckenheim, Stadt","type":"Stadt"},"district":{"key":"05382","name":"Rhein-Sieg-Kreis","type":"Kreis"},"federalState":{"key":"05","name":"Nordrhein-Westfalen"}},{"name":"Carl-Maria-von-Weber-Weg","postalCode":"53340","locality":"Meckenheim","municipality":{"key":"05382032","name":"Meckenheim, Stadt","type":"Stadt"},"district":{"key":"05382","name":"Rhein-Sieg-Kreis","type":"Kreis"},"federalState":{"key":"05","name":"Nordrhein-Westfalen"}},{"name":"Christine-Teusch-Str.","postalCode":"53340","locality":"Meckenheim","municipality":{"key":"05382032","name":"Meckenheim, Stadt","type":"Stadt"},"district":{"key":"05382","name":"Rhein-Sieg-Kreis","type":"Kreis"},"federalState":{"key":"05","name":"Nordrhein-Westfalen"}},{"name":"Cox-Orange-Weg","postalCode":"53340","locality":"Meckenheim","municipality":{"key":"05382032","name":"Meckenheim, Stadt","type":"Stadt"},"district":{"key":"05382","name":"Rhein-Sieg-Kreis","type":"Kreis"},"federalState":{"key":"05","name":"Nordrhein-Westfalen"}},{"name":"Danziger Str.","postalCode":"53340","locality":"Meckenheim","municipality":{"key":"05382032","name":"Meckenheim, Stadt","type":"Stadt"},"district":{"key":"05382","name":"Rhein-Sieg-Kreis","type":"Kreis"},"federalState":{"key":"05","name":"Nordrhein-Westfalen"}},{"name":"Dechant-Kreiten-Str.","postalCode":"53340","locality":"Meckenheim","municipality":{"key":"05382032","name":"Meckenheim, Stadt","type":"Stadt"},"district":{"key":"05382","name":"Rhein-Sieg-Kreis","type":"Kreis"},"federalState":{"key":"05","name":"Nordrhein-Westfalen"}},{"name":"Delpstr.","postalCode":"53340","locality":"Meckenheim","municipality":{"key":"05382032","name":"Meckenheim, Stadt","type":"Stadt"},"district":{"key":"05382","name":"Rhein-Sieg-Kreis","type":"Kreis"},"federalState":{"key":"05","name":"Nordrhein-Westfalen"}},{"name":"Dorfplatz","postalCode":"53340","locality":"Meckenheim","municipality":{"key":"05382032","name":"Meckenheim, Stadt","type":"Stadt"},"district":{"key":"05382","name":"Rhein-Sieg-Kreis","type":"Kreis"},"federalState":{"key":"05","name":"Nordrhein-Westfalen"}},{"name":"Drachenfelsstr.","postalCode":"53340","locality":"Meckenheim","municipality":{"key":"05382032","name":"Meckenheim, Stadt","type":"Stadt"},"district":{"key":"05382","name":"Rhein-Sieg-Kreis","type":"Kreis"},"federalState":{"key":"05","name":"Nordrhein-Westfalen"}},{"name":"Drei Linden","postalCode":"53340","locality":"Meckenheim","municipality":{"key":"05382032","name":"Meckenheim, Stadt","type":"Stadt"},"district":{"key":"05382","name":"Rhein-Sieg-Kreis","type":"Kreis"},"federalState":{"key":"05","name":"Nordrhein-Westfalen"}},{"name":"Drosselweg","postalCode":"53340","locality":"Meckenheim","municipality":{"key":"05382032","name":"Meckenheim, Stadt","type":"Stadt"},"district":{"key":"05382","name":"Rhein-Sieg-Kreis","type":"Kreis"},"federalState":{"key":"05","name":"Nordrhein-Westfalen"}},{"name":"Dürerstr.","postalCode":"53340","locality":"Meckenheim","municipality":{"key":"05382032","name":"Meckenheim, Stadt","type":"Stadt"},"district":{"key":"05382","name":"Rhein-Sieg-Kreis","type":"Kreis"},"federalState":{"key":"05","name":"Nordrhein-Westfalen"}},{"name":"Ebereschenstr.","postalCode":"53340","locality":"Meckenheim","municipality":{"key":"05382032","name":"Meckenheim, Stadt","type":"Stadt"},"district":{"key":"05382","name":"Rhein-Sieg-Kreis","type":"Kreis"},"federalState":{"key":"05","name":"Nordrhein-Westfalen"}},{"name":"Eibenweg","postalCode":"53340","locality":"Meckenheim","municipality":{"key":"05382032","name":"Meckenheim, Stadt","type":"Stadt"},"district":{"key":"05382","name":"Rhein-Sieg-Kreis","type":"Kreis"},"federalState":{"key":"05","name":"Nordrhein-Westfalen"}},{"name":"Eichendorffweg","postalCode":"53340","locality":"Meckenheim","municipality":{"key":"05382032","name":"Meckenheim, Stadt","type":"Stadt"},"district":{"key":"05382","name":"Rhein-Sieg-Kreis","type":"Kreis"},"federalState":{"key":"05","name":"Nordrhein-Westfalen"}},{"name":"Eichengasse","postalCode":"67149","locality":"Meckenheim","municipality":{"key":"07332035","name":"Meckenheim","type":"Kreisangehörige_Gemeinde"},"district":{"key":"07332","name":"Bad Dürkheim","type":"Landkreis"},"federalState":{"key":"07","name":"Rheinland-Pfalz"}},{"name":"Eichenhof","postalCode":"53340","locality":"Meckenheim","municipality":{"key":"05382032","name":"Meckenheim, Stadt","type":"Stadt"},"district":{"key":"05382","name":"Rhein-Sieg-Kreis","type":"Kreis"},"federalState":{"key":"05","name":"Nordrhein-Westfalen"}},{"name":"Eifelstr.","postalCode":"53340","locality":"Meckenheim","municipality":{"key":"05382032","name":"Meckenheim, Stadt","type":"Stadt"},"district":{"key":"05382","name":"Rhein-Sieg-Kreis","type":"Kreis"},"federalState":{"key":"05","name":"Nordrhein-Westfalen"}},{"name":"Einsteinplatz","postalCode":"53340","locality":"Meckenheim","municipality":{"key":"05382032","name":"Meckenheim, Stadt","type":"Stadt"},"district":{"key":"05382","name":"Rhein-Sieg-Kreis","type":"Kreis"},"federalState":{"key":"05","name":"Nordrhein-Westfalen"}},{"name":"Elbinger Str.","postalCode":"53340","locality":"Meckenheim","municipality":{"key":"05382032","name":"Meckenheim, Stadt","type":"Stadt"},"district":{"key":"05382","name":"Rhein-Sieg-Kreis","type":"Kreis"},"federalState":{"key":"05","name":"Nordrhein-Westfalen"}},{"name":"Elserweg","postalCode":"53340","locality":"Meckenheim","municipality":{"key":"05382032","name":"Meckenheim, Stadt","type":"Stadt"},"district":{"key":"05382","name":"Rhein-Sieg-Kreis","type":"Kreis"},"federalState":{"key":"05","name":"Nordrhein-Westfalen"}},{"name":"Elstarweg","postalCode":"53340","locality":"Meckenheim","municipality":{"key":"05382032","name":"Meckenheim, Stadt","type":"Stadt"},"district":{"key":"05382","name":"Rhein-Sieg-Kreis","type":"Kreis"},"federalState":{"key":"05","name":"Nordrhein-Westfalen"}},{"name":"Erlenhof","postalCode":"53340","locality":"Meckenheim","municipality":{"key":"05382032","name":"Meckenheim, Stadt","type":"Stadt"},"district":{"key":"05382","name":"Rhein-Sieg-Kreis","type":"Kreis"},"federalState":{"key":"05","name":"Nordrhein-Westfalen"}},{"name":"Eschenhof","postalCode":"53340","locality":"Meckenheim","municipality":{"key":"05382032","name":"Meckenheim, Stadt","type":"Stadt"},"district":{"key":"05382","name":"Rhein-Sieg-Kreis","type":"Kreis"},"federalState":{"key":"05","name":"Nordrhein-Westfalen"}},{"name":"Falkenweg","postalCode":"53340","locality":"Meckenheim","municipality":{"key":"05382032","name":"Meckenheim, Stadt","type":"Stadt"},"district":{"key":"05382","name":"Rhein-Sieg-Kreis","type":"Kreis"},"federalState":{"key":"05","name":"Nordrhein-Westfalen"}},{"name":"Fichtenweg","postalCode":"53340","locality":"Meckenheim","municipality":{"key":"05382032","name":"Meckenheim, Stadt","type":"Stadt"},"district":{"key":"05382","name":"Rhein-Sieg-Kreis","type":"Kreis"},"federalState":{"key":"05","name":"Nordrhein-Westfalen"}},{"name":"Finkenweg","postalCode":"53340","locality":"Meckenheim","municipality":{"key":"05382032","name":"Meckenheim, Stadt","type":"Stadt"},"district":{"key":"05382","name":"Rhein-Sieg-Kreis","type":"Kreis"},"federalState":{"key":"05","name":"Nordrhein-Westfalen"}},{"name":"Fischerweg","postalCode":"53340","locality":"Meckenheim","municipality":{"key":"05382032","name":"Meckenheim, Stadt","type":"Stadt"},"district":{"key":"05382","name":"Rhein-Sieg-Kreis","type":"Kreis"},"federalState":{"key":"05","name":"Nordrhein-Westfalen"}},{"name":"Flerzheimer Str.","postalCode":"53340","locality":"Meckenheim","municipality":{"key":"05382032","name":"Meckenheim, Stadt","type":"Stadt"},"district":{"key":"05382","name":"Rhein-Sieg-Kreis","type":"Kreis"},"federalState":{"key":"05","name":"Nordrhein-Westfalen"}},{"name":"Fliesweg","postalCode":"53340","locality":"Meckenheim","municipality":{"key":"05382032","name":"Meckenheim, Stadt","type":"Stadt"},"district":{"key":"05382","name":"Rhein-Sieg-Kreis","type":"Kreis"},"federalState":{"key":"05","name":"Nordrhein-Westfalen"}},{"name":"Frankenweg","postalCode":"53340","locality":"Meckenheim","municipality":{"key":"05382032","name":"Meckenheim, Stadt","type":"Stadt"},"district":{"key":"05382","name":"Rhein-Sieg-Kreis","type":"Kreis"},"federalState":{"key":"05","name":"Nordrhein-Westfalen"}},{"name":"Franz-Meyers-Str.","postalCode":"53340","locality":"Meckenheim","municipality":{"key":"05382032","name":"Meckenheim, Stadt","type":"Stadt"},"district":{"key":"05382","name":"Rhein-Sieg-Kreis","type":"Kreis"},"federalState":{"key":"05","name":"Nordrhein-Westfalen"}},{"name":"Freiheitsstr.","postalCode":"67149","locality":"Meckenheim","municipality":{"key":"07332035","name":"Meckenheim","type":"Kreisangehörige_Gemeinde"},"district":{"key":"07332","name":"Bad Dürkheim","type":"Landkreis"},"federalState":{"key":"07","name":"Rheinland-Pfalz"}},{"name":"Frongasse","postalCode":"53340","locality":"Meckenheim","municipality":{"key":"05382032","name":"Meckenheim, Stadt","type":"Stadt"},"district":{"key":"05382","name":"Rhein-Sieg-Kreis","type":"Kreis"},"federalState":{"key":"05","name":"Nordrhein-Westfalen"}},{"name":"Fronhof","postalCode":"53340","locality":"Meckenheim","municipality":{"key":"05382032","name":"Meckenheim, Stadt","type":"Stadt"},"district":{"key":"05382","name":"Rhein-Sieg-Kreis","type":"Kreis"},"federalState":{"key":"05","name":"Nordrhein-Westfalen"}},{"name":"Gartenstr.","postalCode":"53340","locality":"Meckenheim","municipality":{"key":"05382032","name":"Meckenheim, Stadt","type":"Stadt"},"district":{"key":"05382","name":"Rhein-Sieg-Kreis","type":"Kreis"},"federalState":{"key":"05","name":"Nordrhein-Westfalen"}},{"name":"Gartenstr.","postalCode":"67149","locality":"Meckenheim","municipality":{"key":"07332035","name":"Meckenheim","type":"Kreisangehörige_Gemeinde"},"district":{"key":"07332","name":"Bad Dürkheim","type":"Landkreis"},"federalState":{"key":"07","name":"Rheinland-Pfalz"}},{"name":"Gelsdorfer Str.","postalCode":"53340","locality":"Meckenheim","municipality":{"key":"05382032","name":"Meckenheim, Stadt","type":"Stadt"},"district":{"key":"05382","name":"Rhein-Sieg-Kreis","type":"Kreis"},"federalState":{"key":"05","name":"Nordrhein-Westfalen"}},{"name":"Gemeindegasse","postalCode":"53340","locality":"Meckenheim","municipality":{"key":"05382032","name":"Meckenheim, Stadt","type":"Stadt"},"district":{"key":"05382","name":"Rhein-Sieg-Kreis","type":"Kreis"},"federalState":{"key":"05","name":"Nordrhein-Westfalen"}},{"name":"Georg-Feil-Str.","postalCode":"67149","locality":"Meckenheim","municipality":{"key":"07332035","name":"Meckenheim","type":"Kreisangehörige_Gemeinde"},"district":{"key":"07332","name":"Bad Dürkheim","type":"Landkreis"},"federalState":{"key":"07","name":"Rheinland-Pfalz"}},{"name":"Gerhard-Boeden-Str.","postalCode":"53340","locality":"Meckenheim","municipality":{"key":"05382032","name":"Meckenheim, Stadt","type":"Stadt"},"district":{"key":"05382","name":"Rhein-Sieg-Kreis","type":"Kreis"},"federalState":{"key":"05","name":"Nordrhein-Westfalen"}},{"name":"Gerhard-Fey-Str.","postalCode":"53340","locality":"Meckenheim","municipality":{"key":"05382032","name":"Meckenheim, Stadt","type":"Stadt"},"district":{"key":"05382","name":"Rhein-Sieg-Kreis","type":"Kreis"},"federalState":{"key":"05","name":"Nordrhein-Westfalen"}},{"name":"Gerichtsstr.","postalCode":"53340","locality":"Meckenheim","municipality":{"key":"05382032","name":"Meckenheim, Stadt","type":"Stadt"},"district":{"key":"05382","name":"Rhein-Sieg-Kreis","type":"Kreis"},"federalState":{"key":"05","name":"Nordrhein-Westfalen"}},{"name":"Giermaarstr.","postalCode":"53340","locality":"Meckenheim","municipality":{"key":"05382032","name":"Meckenheim, Stadt","type":"Stadt"},"district":{"key":"05382","name":"Rhein-Sieg-Kreis","type":"Kreis"},"federalState":{"key":"05","name":"Nordrhein-Westfalen"}},{"name":"Glockengasse","postalCode":"53340","locality":"Meckenheim","municipality":{"key":"05382032","name":"Meckenheim, Stadt","type":"Stadt"},"district":{"key":"05382","name":"Rhein-Sieg-Kreis","type":"Kreis"},"federalState":{"key":"05","name":"Nordrhein-Westfalen"}},{"name":"Göddertzgarten","postalCode":"53340","locality":"Meckenheim","municipality":{"key":"05382032","name":"Meckenheim, Stadt","type":"Stadt"},"district":{"key":"05382","name":"Rhein-Sieg-Kreis","type":"Kreis"},"federalState":{"key":"05","name":"Nordrhein-Westfalen"}},{"name":"Godesberger Str.","postalCode":"53340","locality":"Meckenheim","municipality":{"key":"05382032","name":"Meckenheim, Stadt","type":"Stadt"},"district":{"key":"05382","name":"Rhein-Sieg-Kreis","type":"Kreis"},"federalState":{"key":"05","name":"Nordrhein-Westfalen"}},{"name":"Goethestr.","postalCode":"53340","locality":"Meckenheim","municipality":{"key":"05382032","name":"Meckenheim, Stadt","type":"Stadt"},"district":{"key":"05382","name":"Rhein-Sieg-Kreis","type":"Kreis"},"federalState":{"key":"05","name":"Nordrhein-Westfalen"}},{"name":"Görlitzer Weg","postalCode":"53340","locality":"Meckenheim","municipality":{"key":"05382032","name":"Meckenheim, Stadt","type":"Stadt"},"district":{"key":"05382","name":"Rhein-Sieg-Kreis","type":"Kreis"},"federalState":{"key":"05","name":"Nordrhein-Westfalen"}},{"name":"Grabenstätter Weg","postalCode":"67149","locality":"Meckenheim","municipality":{"key":"07332035","name":"Meckenheim","type":"Kreisangehörige_Gemeinde"},"district":{"key":"07332","name":"Bad Dürkheim","type":"Landkreis"},"federalState":{"key":"07","name":"Rheinland-Pfalz"}},{"name":"Grabenstr.","postalCode":"53340","locality":"Meckenheim","municipality":{"key":"05382032","name":"Meckenheim, Stadt","type":"Stadt"},"district":{"key":"05382","name":"Rhein-Sieg-Kreis","type":"Kreis"},"federalState":{"key":"05","name":"Nordrhein-Westfalen"}},{"name":"Gravensteinerstr.","postalCode":"53340","locality":"Meckenheim","municipality":{"key":"05382032","name":"Meckenheim, Stadt","type":"Stadt"},"district":{"key":"05382","name":"Rhein-Sieg-Kreis","type":"Kreis"},"federalState":{"key":"05","name":"Nordrhein-Westfalen"}},{"name":"Großgasse","postalCode":"67149","locality":"Meckenheim","municipality":{"key":"07332035","name":"Meckenheim","type":"Kreisangehörige_Gemeinde"},"district":{"key":"07332","name":"Bad Dürkheim","type":"Landkreis"},"federalState":{"key":"07","name":"Rheinland-Pfalz"}},{"name":"Grundhof","postalCode":"67149","locality":"Meckenheim","municipality":{"key":"07332035","name":"Meckenheim","type":"Kreisangehörige_Gemeinde"},"district":{"key":"07332","name":"Bad Dürkheim","type":"Landkreis"},"federalState":{"key":"07","name":"Rheinland-Pfalz"}},{"name":"Grüner Weg","postalCode":"53340","locality":"Meckenheim","municipality":{"key":"05382032","name":"Meckenheim, Stadt","type":"Stadt"},"district":{"key":"05382","name":"Rhein-Sieg-Kreis","type":"Kreis"},"federalState":{"key":"05","name":"Nordrhein-Westfalen"}},{"name":"Grünewaldweg","postalCode":"53340","locality":"Meckenheim","municipality":{"key":"05382032","name":"Meckenheim, Stadt","type":"Stadt"},"district":{"key":"05382","name":"Rhein-Sieg-Kreis","type":"Kreis"},"federalState":{"key":"05","name":"Nordrhein-Westfalen"}},{"name":"Gudenauer Allee","postalCode":"53340","locality":"Meckenheim","municipality":{"key":"05382032","name":"Meckenheim, Stadt","type":"Stadt"},"district":{"key":"05382","name":"Rhein-Sieg-Kreis","type":"Kreis"},"federalState":{"key":"05","name":"Nordrhein-Westfalen"}},{"name":"Hagebuttenstr.","postalCode":"53340","locality":"Meckenheim","municipality":{"key":"05382032","name":"Meckenheim, Stadt","type":"Stadt"},"district":{"key":"05382","name":"Rhein-Sieg-Kreis","type":"Kreis"},"federalState":{"key":"05","name":"Nordrhein-Westfalen"}},{"name":"Händelstr.","postalCode":"53340","locality":"Meckenheim","municipality":{"key":"05382032","name":"Meckenheim, Stadt","type":"Stadt"},"district":{"key":"05382","name":"Rhein-Sieg-Kreis","type":"Kreis"},"federalState":{"key":"05","name":"Nordrhein-Westfalen"}},{"name":"Handrichs Hof","postalCode":"67149","locality":"Meckenheim","municipality":{"key":"07332035","name":"Meckenheim","type":"Kreisangehörige_Gemeinde"},"district":{"key":"07332","name":"Bad Dürkheim","type":"Landkreis"},"federalState":{"key":"07","name":"Rheinland-Pfalz"}},{"name":"Haselweg","postalCode":"53340","locality":"Meckenheim","municipality":{"key":"05382032","name":"Meckenheim, Stadt","type":"Stadt"},"district":{"key":"05382","name":"Rhein-Sieg-Kreis","type":"Kreis"},"federalState":{"key":"05","name":"Nordrhein-Westfalen"}},{"name":"Haßlocher Str.","postalCode":"67149","locality":"Meckenheim","municipality":{"key":"07332035","name":"Meckenheim","type":"Kreisangehörige_Gemeinde"},"district":{"key":"07332","name":"Bad Dürkheim","type":"Landkreis"},"federalState":{"key":"07","name":"Rheinland-Pfalz"}},{"name":"Haßlocher Weg","postalCode":"67149","locality":"Meckenheim","municipality":{"key":"07332035","name":"Meckenheim","type":"Kreisangehörige_Gemeinde"},"district":{"key":"07332","name":"Bad Dürkheim","type":"Landkreis"},"federalState":{"key":"07","name":"Rheinland-Pfalz"}},{"name":"Hauptstr.","postalCode":"53340","locality":"Meckenheim","municipality":{"key":"05382032","name":"Meckenheim, Stadt","type":"Stadt"},"district":{"key":"05382","name":"Rhein-Sieg-Kreis","type":"Kreis"},"federalState":{"key":"05","name":"Nordrhein-Westfalen"}},{"name":"Hauptstr.","postalCode":"67149","locality":"Meckenheim","municipality":{"key":"07332035","name":"Meckenheim","type":"Kreisangehörige_Gemeinde"},"district":{"key":"07332","name":"Bad Dürkheim","type":"Landkreis"},"federalState":{"key":"07","name":"Rheinland-Pfalz"}},{"name":"Heckelweg","postalCode":"53340","locality":"Meckenheim","municipality":{"key":"05382032","name":"Meckenheim, Stadt","type":"Stadt"},"district":{"key":"05382","name":"Rhein-Sieg-Kreis","type":"Kreis"},"federalState":{"key":"05","name":"Nordrhein-Westfalen"}},{"name":"Heerstr.","postalCode":"53340","locality":"Meckenheim","municipality":{"key":"05382032","name":"Meckenheim, Stadt","type":"Stadt"},"district":{"key":"05382","name":"Rhein-Sieg-Kreis","type":"Kreis"},"federalState":{"key":"05","name":"Nordrhein-Westfalen"}},{"name":"Heerstr.","postalCode":"67149","locality":"Meckenheim","municipality":{"key":"07332035","name":"Meckenheim","type":"Kreisangehörige_Gemeinde"},"district":{"key":"07332","name":"Bad Dürkheim","type":"Landkreis"},"federalState":{"key":"07","name":"Rheinland-Pfalz"}},{"name":"Heinrich-Heine-Str.","postalCode":"53340","locality":"Meckenheim","municipality":{"key":"05382032","name":"Meckenheim, Stadt","type":"Stadt"},"district":{"key":"05382","name":"Rhein-Sieg-Kreis","type":"Kreis"},"federalState":{"key":"05","name":"Nordrhein-Westfalen"}},{"name":"Heinz-Gottschalk-Str.","postalCode":"53340","locality":"Meckenheim","municipality":{"key":"05382032","name":"Meckenheim, Stadt","type":"Stadt"},"district":{"key":"05382","name":"Rhein-Sieg-Kreis","type":"Kreis"},"federalState":{"key":"05","name":"Nordrhein-Westfalen"}},{"name":"Henry-Dunant-Str.","postalCode":"53340","locality":"Meckenheim","municipality":{"key":"05382032","name":"Meckenheim, Stadt","type":"Stadt"},"district":{"key":"05382","name":"Rhein-Sieg-Kreis","type":"Kreis"},"federalState":{"key":"05","name":"Nordrhein-Westfalen"}},{"name":"Hermann-Löns-Str.","postalCode":"53340","locality":"Meckenheim","municipality":{"key":"05382032","name":"Meckenheim, Stadt","type":"Stadt"},"district":{"key":"05382","name":"Rhein-Sieg-Kreis","type":"Kreis"},"federalState":{"key":"05","name":"Nordrhein-Westfalen"}},{"name":"Hilberather Str.","postalCode":"53340","locality":"Meckenheim","municipality":{"key":"05382032","name":"Meckenheim, Stadt","type":"Stadt"},"district":{"key":"05382","name":"Rhein-Sieg-Kreis","type":"Kreis"},"federalState":{"key":"05","name":"Nordrhein-Westfalen"}},{"name":"Hinter den Gärten","postalCode":"53340","locality":"Meckenheim","municipality":{"key":"05382032","name":"Meckenheim, Stadt","type":"Stadt"},"district":{"key":"05382","name":"Rhein-Sieg-Kreis","type":"Kreis"},"federalState":{"key":"05","name":"Nordrhein-Westfalen"}},{"name":"Hirschbergweg","postalCode":"53340","locality":"Meckenheim","municipality":{"key":"05382032","name":"Meckenheim, Stadt","type":"Stadt"},"district":{"key":"05382","name":"Rhein-Sieg-Kreis","type":"Kreis"},"federalState":{"key":"05","name":"Nordrhein-Westfalen"}},{"name":"Hof am Zollstock","postalCode":"67149","locality":"Meckenheim","municipality":{"key":"07332035","name":"Meckenheim","type":"Kreisangehörige_Gemeinde"},"district":{"key":"07332","name":"Bad Dürkheim","type":"Landkreis"},"federalState":{"key":"07","name":"Rheinland-Pfalz"}},{"name":"Hof in den Herrgottsäckern","postalCode":"67149","locality":"Meckenheim","municipality":{"key":"07332035","name":"Meckenheim","type":"Kreisangehörige_Gemeinde"},"district":{"key":"07332","name":"Bad Dürkheim","type":"Landkreis"},"federalState":{"key":"07","name":"Rheinland-Pfalz"}},{"name":"Hohnweg","postalCode":"53340","locality":"Meckenheim","municipality":{"key":"05382032","name":"Meckenheim, Stadt","type":"Stadt"},"district":{"key":"05382","name":"Rhein-Sieg-Kreis","type":"Kreis"},"federalState":{"key":"05","name":"Nordrhein-Westfalen"}},{"name":"Hölderlinweg","postalCode":"53340","locality":"Meckenheim","municipality":{"key":"05382032","name":"Meckenheim, Stadt","type":"Stadt"},"district":{"key":"05382","name":"Rhein-Sieg-Kreis","type":"Kreis"},"federalState":{"key":"05","name":"Nordrhein-Westfalen"}},{"name":"Holidayparkstr.","postalCode":"67149","locality":"Meckenheim","municipality":{"key":"07332035","name":"Meckenheim","type":"Kreisangehörige_Gemeinde"},"district":{"key":"07332","name":"Bad Dürkheim","type":"Landkreis"},"federalState":{"key":"07","name":"Rheinland-Pfalz"}},{"name":"Holunderweg","postalCode":"53340","locality":"Meckenheim","municipality":{"key":"05382032","name":"Meckenheim, Stadt","type":"Stadt"},"district":{"key":"05382","name":"Rhein-Sieg-Kreis","type":"Kreis"},"federalState":{"key":"05","name":"Nordrhein-Westfalen"}},{"name":"Im Buschfeld","postalCode":"53340","locality":"Meckenheim","municipality":{"key":"05382032","name":"Meckenheim, Stadt","type":"Stadt"},"district":{"key":"05382","name":"Rhein-Sieg-Kreis","type":"Kreis"},"federalState":{"key":"05","name":"Nordrhein-Westfalen"}},{"name":"Im Cäcilienbusch","postalCode":"53340","locality":"Meckenheim","municipality":{"key":"05382032","name":"Meckenheim, Stadt","type":"Stadt"},"district":{"key":"05382","name":"Rhein-Sieg-Kreis","type":"Kreis"},"federalState":{"key":"05","name":"Nordrhein-Westfalen"}},{"name":"Im Finkenschlag","postalCode":"53340","locality":"Meckenheim","municipality":{"key":"05382032","name":"Meckenheim, Stadt","type":"Stadt"},"district":{"key":"05382","name":"Rhein-Sieg-Kreis","type":"Kreis"},"federalState":{"key":"05","name":"Nordrhein-Westfalen"}},{"name":"Im Gäßchen","postalCode":"53340","locality":"Meckenheim","municipality":{"key":"05382032","name":"Meckenheim, Stadt","type":"Stadt"},"district":{"key":"05382","name":"Rhein-Sieg-Kreis","type":"Kreis"},"federalState":{"key":"05","name":"Nordrhein-Westfalen"}},{"name":"Im Hohen Weg","postalCode":"67149","locality":"Meckenheim","municipality":{"key":"07332035","name":"Meckenheim","type":"Kreisangehörige_Gemeinde"},"district":{"key":"07332","name":"Bad Dürkheim","type":"Landkreis"},"federalState":{"key":"07","name":"Rheinland-Pfalz"}},{"name":"Im Kirchgarten","postalCode":"67149","locality":"Meckenheim","municipality":{"key":"07332035","name":"Meckenheim","type":"Kreisangehörige_Gemeinde"},"district":{"key":"07332","name":"Bad Dürkheim","type":"Landkreis"},"federalState":{"key":"07","name":"Rheinland-Pfalz"}},{"name":"Im kleinen Sand","postalCode":"67149","locality":"Meckenheim","municipality":{"key":"07332035","name":"Meckenheim","type":"Kreisangehörige_Gemeinde"},"district":{"key":"07332","name":"Bad Dürkheim","type":"Landkreis"},"federalState":{"key":"07","name":"Rheinland-Pfalz"}},{"name":"Im langen Satz","postalCode":"67149","locality":"Meckenheim","municipality":{"key":"07332035","name":"Meckenheim","type":"Kreisangehörige_Gemeinde"},"district":{"key":"07332","name":"Bad Dürkheim","type":"Landkreis"},"federalState":{"key":"07","name":"Rheinland-Pfalz"}},{"name":"Im Ruhrfeld","postalCode":"53340","locality":"Meckenheim","municipality":{"key":"05382032","name":"Meckenheim, Stadt","type":"Stadt"},"district":{"key":"05382","name":"Rhein-Sieg-Kreis","type":"Kreis"},"federalState":{"key":"05","name":"Nordrhein-Westfalen"}},{"name":"Im Siebenswinkel","postalCode":"53340","locality":"Meckenheim","municipality":{"key":"05382032","name":"Meckenheim, Stadt","type":"Stadt"},"district":{"key":"05382","name":"Rhein-Sieg-Kreis","type":"Kreis"},"federalState":{"key":"05","name":"Nordrhein-Westfalen"}},{"name":"Im Stiefel","postalCode":"53340","locality":"Meckenheim","municipality":{"key":"05382032","name":"Meckenheim, Stadt","type":"Stadt"},"district":{"key":"05382","name":"Rhein-Sieg-Kreis","type":"Kreis"},"federalState":{"key":"05","name":"Nordrhein-Westfalen"}},{"name":"Im Wingert","postalCode":"53340","locality":"Meckenheim","municipality":{"key":"05382032","name":"Meckenheim, Stadt","type":"Stadt"},"district":{"key":"05382","name":"Rhein-Sieg-Kreis","type":"Kreis"},"federalState":{"key":"05","name":"Nordrhein-Westfalen"}},{"name":"In den Almen","postalCode":"67149","locality":"Meckenheim","municipality":{"key":"07332035","name":"Meckenheim","type":"Kreisangehörige_Gemeinde"},"district":{"key":"07332","name":"Bad Dürkheim","type":"Landkreis"},"federalState":{"key":"07","name":"Rheinland-Pfalz"}},{"name":"In den Hüldern","postalCode":"53340","locality":"Meckenheim","municipality":{"key":"05382032","name":"Meckenheim, Stadt","type":"Stadt"},"district":{"key":"05382","name":"Rhein-Sieg-Kreis","type":"Kreis"},"federalState":{"key":"05","name":"Nordrhein-Westfalen"}},{"name":"In der Froschau","postalCode":"67149","locality":"Meckenheim","municipality":{"key":"07332035","name":"Meckenheim","type":"Kreisangehörige_Gemeinde"},"district":{"key":"07332","name":"Bad Dürkheim","type":"Landkreis"},"federalState":{"key":"07","name":"Rheinland-Pfalz"}},{"name":"In der Kohlkaule","postalCode":"53340","locality":"Meckenheim","municipality":{"key":"05382032","name":"Meckenheim, Stadt","type":"Stadt"},"district":{"key":"05382","name":"Rhein-Sieg-Kreis","type":"Kreis"},"federalState":{"key":"05","name":"Nordrhein-Westfalen"}},{"name":"In der Ölkelter","postalCode":"67149","locality":"Meckenheim","municipality":{"key":"07332035","name":"Meckenheim","type":"Kreisangehörige_Gemeinde"},"district":{"key":"07332","name":"Bad Dürkheim","type":"Landkreis"},"federalState":{"key":"07","name":"Rheinland-Pfalz"}},{"name":"Jakobusstr.","postalCode":"53340","locality":"Meckenheim","municipality":{"key":"05382032","name":"Meckenheim, Stadt","type":"Stadt"},"district":{"key":"05382","name":"Rhein-Sieg-Kreis","type":"Kreis"},"federalState":{"key":"05","name":"Nordrhein-Westfalen"}},{"name":"Johannesstr.","postalCode":"53340","locality":"Meckenheim","municipality":{"key":"05382032","name":"Meckenheim, Stadt","type":"Stadt"},"district":{"key":"05382","name":"Rhein-Sieg-Kreis","type":"Kreis"},"federalState":{"key":"05","name":"Nordrhein-Westfalen"}},{"name":"Johann-Jakob-Rieger-Str.","postalCode":"67149","locality":"Meckenheim","municipality":{"key":"07332035","name":"Meckenheim","type":"Kreisangehörige_Gemeinde"},"district":{"key":"07332","name":"Bad Dürkheim","type":"Landkreis"},"federalState":{"key":"07","name":"Rheinland-Pfalz"}},{"name":"Johann-Sebastian-Bach-Weg","postalCode":"53340","locality":"Meckenheim","municipality":{"key":"05382032","name":"Meckenheim, Stadt","type":"Stadt"},"district":{"key":"05382","name":"Rhein-Sieg-Kreis","type":"Kreis"},"federalState":{"key":"05","name":"Nordrhein-Westfalen"}},{"name":"Josef-Kreuser-Str.","postalCode":"53340","locality":"Meckenheim","municipality":{"key":"05382032","name":"Meckenheim, Stadt","type":"Stadt"},"district":{"key":"05382","name":"Rhein-Sieg-Kreis","type":"Kreis"},"federalState":{"key":"05","name":"Nordrhein-Westfalen"}},{"name":"Julius-Leber-Str.","postalCode":"53340","locality":"Meckenheim","municipality":{"key":"05382032","name":"Meckenheim, Stadt","type":"Stadt"},"district":{"key":"05382","name":"Rhein-Sieg-Kreis","type":"Kreis"},"federalState":{"key":"05","name":"Nordrhein-Westfalen"}},{"name":"Jungholzweg","postalCode":"53340","locality":"Meckenheim","municipality":{"key":"05382032","name":"Meckenheim, Stadt","type":"Stadt"},"district":{"key":"05382","name":"Rhein-Sieg-Kreis","type":"Kreis"},"federalState":{"key":"05","name":"Nordrhein-Westfalen"}},{"name":"Kalkofenstr.","postalCode":"53340","locality":"Meckenheim","municipality":{"key":"05382032","name":"Meckenheim, Stadt","type":"Stadt"},"district":{"key":"05382","name":"Rhein-Sieg-Kreis","type":"Kreis"},"federalState":{"key":"05","name":"Nordrhein-Westfalen"}},{"name":"Kannenbäckerstr.","postalCode":"53340","locality":"Meckenheim","municipality":{"key":"05382032","name":"Meckenheim, Stadt","type":"Stadt"},"district":{"key":"05382","name":"Rhein-Sieg-Kreis","type":"Kreis"},"federalState":{"key":"05","name":"Nordrhein-Westfalen"}},{"name":"Karl-Carstens-Str.","postalCode":"53340","locality":"Meckenheim","municipality":{"key":"05382032","name":"Meckenheim, Stadt","type":"Stadt"},"district":{"key":"05382","name":"Rhein-Sieg-Kreis","type":"Kreis"},"federalState":{"key":"05","name":"Nordrhein-Westfalen"}},{"name":"Kastanienstr.","postalCode":"53340","locality":"Meckenheim","municipality":{"key":"05382032","name":"Meckenheim, Stadt","type":"Stadt"},"district":{"key":"05382","name":"Rhein-Sieg-Kreis","type":"Kreis"},"federalState":{"key":"05","name":"Nordrhein-Westfalen"}},{"name":"Keltenweg","postalCode":"53340","locality":"Meckenheim","municipality":{"key":"05382032","name":"Meckenheim, Stadt","type":"Stadt"},"district":{"key":"05382","name":"Rhein-Sieg-Kreis","type":"Kreis"},"federalState":{"key":"05","name":"Nordrhein-Westfalen"}},{"name":"Keplerweg","postalCode":"53340","locality":"Meckenheim","municipality":{"key":"05382032","name":"Meckenheim, Stadt","type":"Stadt"},"district":{"key":"05382","name":"Rhein-Sieg-Kreis","type":"Kreis"},"federalState":{"key":"05","name":"Nordrhein-Westfalen"}},{"name":"Kiefernweg","postalCode":"53340","locality":"Meckenheim","municipality":{"key":"05382032","name":"Meckenheim, Stadt","type":"Stadt"},"district":{"key":"05382","name":"Rhein-Sieg-Kreis","type":"Kreis"},"federalState":{"key":"05","name":"Nordrhein-Westfalen"}},{"name":"Kirchfeldstr.","postalCode":"53340","locality":"Meckenheim","municipality":{"key":"05382032","name":"Meckenheim, Stadt","type":"Stadt"},"district":{"key":"05382","name":"Rhein-Sieg-Kreis","type":"Kreis"},"federalState":{"key":"05","name":"Nordrhein-Westfalen"}},{"name":"Kirchgasse","postalCode":"67149","locality":"Meckenheim","municipality":{"key":"07332035","name":"Meckenheim","type":"Kreisangehörige_Gemeinde"},"district":{"key":"07332","name":"Bad Dürkheim","type":"Landkreis"},"federalState":{"key":"07","name":"Rheinland-Pfalz"}},{"name":"Kirchplatz","postalCode":"53340","locality":"Meckenheim","municipality":{"key":"05382032","name":"Meckenheim, Stadt","type":"Stadt"},"district":{"key":"05382","name":"Rhein-Sieg-Kreis","type":"Kreis"},"federalState":{"key":"05","name":"Nordrhein-Westfalen"}},{"name":"Kirchstr.","postalCode":"53340","locality":"Meckenheim","municipality":{"key":"05382032","name":"Meckenheim, Stadt","type":"Stadt"},"district":{"key":"05382","name":"Rhein-Sieg-Kreis","type":"Kreis"},"federalState":{"key":"05","name":"Nordrhein-Westfalen"}},{"name":"Kirschenstr.","postalCode":"53340","locality":"Meckenheim","municipality":{"key":"05382032","name":"Meckenheim, Stadt","type":"Stadt"},"district":{"key":"05382","name":"Rhein-Sieg-Kreis","type":"Kreis"},"federalState":{"key":"05","name":"Nordrhein-Westfalen"}},{"name":"Kleiststr.","postalCode":"53340","locality":"Meckenheim","municipality":{"key":"05382032","name":"Meckenheim, Stadt","type":"Stadt"},"district":{"key":"05382","name":"Rhein-Sieg-Kreis","type":"Kreis"},"federalState":{"key":"05","name":"Nordrhein-Westfalen"}},{"name":"Kleppergasse","postalCode":"67149","locality":"Meckenheim","municipality":{"key":"07332035","name":"Meckenheim","type":"Kreisangehörige_Gemeinde"},"district":{"key":"07332","name":"Bad Dürkheim","type":"Landkreis"},"federalState":{"key":"07","name":"Rheinland-Pfalz"}},{"name":"Klosterstr.","postalCode":"53340","locality":"Meckenheim","municipality":{"key":"05382032","name":"Meckenheim, Stadt","type":"Stadt"},"district":{"key":"05382","name":"Rhein-Sieg-Kreis","type":"Kreis"},"federalState":{"key":"05","name":"Nordrhein-Westfalen"}},{"name":"Kolberger Weg","postalCode":"53340","locality":"Meckenheim","municipality":{"key":"05382032","name":"Meckenheim, Stadt","type":"Stadt"},"district":{"key":"05382","name":"Rhein-Sieg-Kreis","type":"Kreis"},"federalState":{"key":"05","name":"Nordrhein-Westfalen"}},{"name":"Kölnstr.","postalCode":"53340","locality":"Meckenheim","municipality":{"key":"05382032","name":"Meckenheim, Stadt","type":"Stadt"},"district":{"key":"05382","name":"Rhein-Sieg-Kreis","type":"Kreis"},"federalState":{"key":"05","name":"Nordrhein-Westfalen"}},{"name":"Königsberger Str.","postalCode":"53340","locality":"Meckenheim","municipality":{"key":"05382032","name":"Meckenheim, Stadt","type":"Stadt"},"district":{"key":"05382","name":"Rhein-Sieg-Kreis","type":"Kreis"},"federalState":{"key":"05","name":"Nordrhein-Westfalen"}},{"name":"Kösliner Weg","postalCode":"53340","locality":"Meckenheim","municipality":{"key":"05382032","name":"Meckenheim, Stadt","type":"Stadt"},"district":{"key":"05382","name":"Rhein-Sieg-Kreis","type":"Kreis"},"federalState":{"key":"05","name":"Nordrhein-Westfalen"}},{"name":"Kottenforststr.","postalCode":"53340","locality":"Meckenheim","municipality":{"key":"05382032","name":"Meckenheim, Stadt","type":"Stadt"},"district":{"key":"05382","name":"Rhein-Sieg-Kreis","type":"Kreis"},"federalState":{"key":"05","name":"Nordrhein-Westfalen"}},{"name":"Kreuzpfad","postalCode":"67149","locality":"Meckenheim","municipality":{"key":"07332035","name":"Meckenheim","type":"Kreisangehörige_Gemeinde"},"district":{"key":"07332","name":"Bad Dürkheim","type":"Landkreis"},"federalState":{"key":"07","name":"Rheinland-Pfalz"}},{"name":"Krönungsweg","postalCode":"53340","locality":"Meckenheim","municipality":{"key":"05382032","name":"Meckenheim, Stadt","type":"Stadt"},"district":{"key":"05382","name":"Rhein-Sieg-Kreis","type":"Kreis"},"federalState":{"key":"05","name":"Nordrhein-Westfalen"}},{"name":"Krötenpfuhl","postalCode":"53340","locality":"Meckenheim","municipality":{"key":"05382032","name":"Meckenheim, Stadt","type":"Stadt"},"district":{"key":"05382","name":"Rhein-Sieg-Kreis","type":"Kreis"},"federalState":{"key":"05","name":"Nordrhein-Westfalen"}},{"name":"Küferring","postalCode":"53340","locality":"Meckenheim","municipality":{"key":"05382032","name":"Meckenheim, Stadt","type":"Stadt"},"district":{"key":"05382","name":"Rhein-Sieg-Kreis","type":"Kreis"},"federalState":{"key":"05","name":"Nordrhein-Westfalen"}},{"name":"Küherdsträschen","postalCode":"67149","locality":"Meckenheim","municipality":{"key":"07332035","name":"Meckenheim","type":"Kreisangehörige_Gemeinde"},"district":{"key":"07332","name":"Bad Dürkheim","type":"Landkreis"},"federalState":{"key":"07","name":"Rheinland-Pfalz"}},{"name":"Kurt-Schumacher-Str.","postalCode":"53340","locality":"Meckenheim","municipality":{"key":"05382032","name":"Meckenheim, Stadt","type":"Stadt"},"district":{"key":"05382","name":"Rhein-Sieg-Kreis","type":"Kreis"},"federalState":{"key":"05","name":"Nordrhein-Westfalen"}},{"name":"Küstriner Str.","postalCode":"53340","locality":"Meckenheim","municipality":{"key":"05382032","name":"Meckenheim, Stadt","type":"Stadt"},"district":{"key":"05382","name":"Rhein-Sieg-Kreis","type":"Kreis"},"federalState":{"key":"05","name":"Nordrhein-Westfalen"}},{"name":"Kutzenberg","postalCode":"53340","locality":"Meckenheim","municipality":{"key":"05382032","name":"Meckenheim, Stadt","type":"Stadt"},"district":{"key":"05382","name":"Rhein-Sieg-Kreis","type":"Kreis"},"federalState":{"key":"05","name":"Nordrhein-Westfalen"}},{"name":"Lärchenweg","postalCode":"53340","locality":"Meckenheim","municipality":{"key":"05382032","name":"Meckenheim, Stadt","type":"Stadt"},"district":{"key":"05382","name":"Rhein-Sieg-Kreis","type":"Kreis"},"federalState":{"key":"05","name":"Nordrhein-Westfalen"}},{"name":"Le-Mée-Platz","postalCode":"53340","locality":"Meckenheim","municipality":{"key":"05382032","name":"Meckenheim, Stadt","type":"Stadt"},"district":{"key":"05382","name":"Rhein-Sieg-Kreis","type":"Kreis"},"federalState":{"key":"05","name":"Nordrhein-Westfalen"}},{"name":"Lessingstr.","postalCode":"53340","locality":"Meckenheim","municipality":{"key":"05382032","name":"Meckenheim, Stadt","type":"Stadt"},"district":{"key":"05382","name":"Rhein-Sieg-Kreis","type":"Kreis"},"federalState":{"key":"05","name":"Nordrhein-Westfalen"}},{"name":"Liebermannstr.","postalCode":"53340","locality":"Meckenheim","municipality":{"key":"05382032","name":"Meckenheim, Stadt","type":"Stadt"},"district":{"key":"05382","name":"Rhein-Sieg-Kreis","type":"Kreis"},"federalState":{"key":"05","name":"Nordrhein-Westfalen"}},{"name":"Liegnitzer Str.","postalCode":"53340","locality":"Meckenheim","municipality":{"key":"05382032","name":"Meckenheim, Stadt","type":"Stadt"},"district":{"key":"05382","name":"Rhein-Sieg-Kreis","type":"Kreis"},"federalState":{"key":"05","name":"Nordrhein-Westfalen"}},{"name":"Lindenweg","postalCode":"53340","locality":"Meckenheim","municipality":{"key":"05382032","name":"Meckenheim, Stadt","type":"Stadt"},"district":{"key":"05382","name":"Rhein-Sieg-Kreis","type":"Kreis"},"federalState":{"key":"05","name":"Nordrhein-Westfalen"}},{"name":"Lochnerweg","postalCode":"53340","locality":"Meckenheim","municipality":{"key":"05382032","name":"Meckenheim, Stadt","type":"Stadt"},"district":{"key":"05382","name":"Rhein-Sieg-Kreis","type":"Kreis"},"federalState":{"key":"05","name":"Nordrhein-Westfalen"}},{"name":"Lohrbergstr.","postalCode":"53340","locality":"Meckenheim","municipality":{"key":"05382032","name":"Meckenheim, Stadt","type":"Stadt"},"district":{"key":"05382","name":"Rhein-Sieg-Kreis","type":"Kreis"},"federalState":{"key":"05","name":"Nordrhein-Westfalen"}},{"name":"Lortzingweg","postalCode":"53340","locality":"Meckenheim","municipality":{"key":"05382032","name":"Meckenheim, Stadt","type":"Stadt"},"district":{"key":"05382","name":"Rhein-Sieg-Kreis","type":"Kreis"},"federalState":{"key":"05","name":"Nordrhein-Westfalen"}},{"name":"Löwenburgstr.","postalCode":"53340","locality":"Meckenheim","municipality":{"key":"05382032","name":"Meckenheim, Stadt","type":"Stadt"},"district":{"key":"05382","name":"Rhein-Sieg-Kreis","type":"Kreis"},"federalState":{"key":"05","name":"Nordrhein-Westfalen"}},{"name":"Lüftelberger Str.","postalCode":"53340","locality":"Meckenheim","municipality":{"key":"05382032","name":"Meckenheim, Stadt","type":"Stadt"},"district":{"key":"05382","name":"Rhein-Sieg-Kreis","type":"Kreis"},"federalState":{"key":"05","name":"Nordrhein-Westfalen"}},{"name":"Lüfthildisgäßchen","postalCode":"53340","locality":"Meckenheim","municipality":{"key":"05382032","name":"Meckenheim, Stadt","type":"Stadt"},"district":{"key":"05382","name":"Rhein-Sieg-Kreis","type":"Kreis"},"federalState":{"key":"05","name":"Nordrhein-Westfalen"}},{"name":"Lugny-Allee","postalCode":"67149","locality":"Meckenheim","municipality":{"key":"07332035","name":"Meckenheim","type":"Kreisangehörige_Gemeinde"},"district":{"key":"07332","name":"Bad Dürkheim","type":"Landkreis"},"federalState":{"key":"07","name":"Rheinland-Pfalz"}},{"name":"Luise-Albertz-Str.","postalCode":"53340","locality":"Meckenheim","municipality":{"key":"05382032","name":"Meckenheim, Stadt","type":"Stadt"},"district":{"key":"05382","name":"Rhein-Sieg-Kreis","type":"Kreis"},"federalState":{"key":"05","name":"Nordrhein-Westfalen"}},{"name":"Magnolienstr.","postalCode":"53340","locality":"Meckenheim","municipality":{"key":"05382032","name":"Meckenheim, Stadt","type":"Stadt"},"district":{"key":"05382","name":"Rhein-Sieg-Kreis","type":"Kreis"},"federalState":{"key":"05","name":"Nordrhein-Westfalen"}},{"name":"Mahlerweg","postalCode":"53340","locality":"Meckenheim","municipality":{"key":"05382032","name":"Meckenheim, Stadt","type":"Stadt"},"district":{"key":"05382","name":"Rhein-Sieg-Kreis","type":"Kreis"},"federalState":{"key":"05","name":"Nordrhein-Westfalen"}},{"name":"Mantelhofstr.","postalCode":"53340","locality":"Meckenheim","municipality":{"key":"05382032","name":"Meckenheim, Stadt","type":"Stadt"},"district":{"key":"05382","name":"Rhein-Sieg-Kreis","type":"Kreis"},"federalState":{"key":"05","name":"Nordrhein-Westfalen"}},{"name":"Marienburger Str.","postalCode":"53340","locality":"Meckenheim","municipality":{"key":"05382032","name":"Meckenheim, Stadt","type":"Stadt"},"district":{"key":"05382","name":"Rhein-Sieg-Kreis","type":"Kreis"},"federalState":{"key":"05","name":"Nordrhein-Westfalen"}},{"name":"Mäusepfad","postalCode":"67149","locality":"Meckenheim","municipality":{"key":"07332035","name":"Meckenheim","type":"Kreisangehörige_Gemeinde"},"district":{"key":"07332","name":"Bad Dürkheim","type":"Landkreis"},"federalState":{"key":"07","name":"Rheinland-Pfalz"}},{"name":"Max-Ernst-Weg","postalCode":"53340","locality":"Meckenheim","municipality":{"key":"05382032","name":"Meckenheim, Stadt","type":"Stadt"},"district":{"key":"05382","name":"Rhein-Sieg-Kreis","type":"Kreis"},"federalState":{"key":"05","name":"Nordrhein-Westfalen"}},{"name":"Max-Planck-Str.","postalCode":"53340","locality":"Meckenheim","municipality":{"key":"05382032","name":"Meckenheim, Stadt","type":"Stadt"},"district":{"key":"05382","name":"Rhein-Sieg-Kreis","type":"Kreis"},"federalState":{"key":"05","name":"Nordrhein-Westfalen"}},{"name":"Meckenheimer Allee","postalCode":"53340","locality":"Meckenheim","municipality":{"key":"05382032","name":"Meckenheim, Stadt","type":"Stadt"},"district":{"key":"05382","name":"Rhein-Sieg-Kreis","type":"Kreis"},"federalState":{"key":"05","name":"Nordrhein-Westfalen"}},{"name":"Meckenheimer Str.","postalCode":"53340","locality":"Meckenheim","municipality":{"key":"05382032","name":"Meckenheim, Stadt","type":"Stadt"},"district":{"key":"05382","name":"Rhein-Sieg-Kreis","type":"Kreis"},"federalState":{"key":"05","name":"Nordrhein-Westfalen"}},{"name":"Meckenheimer Str.","postalCode":"67149","locality":"Meckenheim","municipality":{"key":"07332035","name":"Meckenheim","type":"Kreisangehörige_Gemeinde"},"district":{"key":"07332","name":"Bad Dürkheim","type":"Landkreis"},"federalState":{"key":"07","name":"Rheinland-Pfalz"}},{"name":"Mehlemer Weg","postalCode":"53340","locality":"Meckenheim","municipality":{"key":"05382032","name":"Meckenheim, Stadt","type":"Stadt"},"district":{"key":"05382","name":"Rhein-Sieg-Kreis","type":"Kreis"},"federalState":{"key":"05","name":"Nordrhein-Westfalen"}},{"name":"Memeler Str.","postalCode":"53340","locality":"Meckenheim","municipality":{"key":"05382032","name":"Meckenheim, Stadt","type":"Stadt"},"district":{"key":"05382","name":"Rhein-Sieg-Kreis","type":"Kreis"},"federalState":{"key":"05","name":"Nordrhein-Westfalen"}},{"name":"Merler Bahn","postalCode":"53340","locality":"Meckenheim","municipality":{"key":"05382032","name":"Meckenheim, Stadt","type":"Stadt"},"district":{"key":"05382","name":"Rhein-Sieg-Kreis","type":"Kreis"},"federalState":{"key":"05","name":"Nordrhein-Westfalen"}},{"name":"Merler Ring","postalCode":"53340","locality":"Meckenheim","municipality":{"key":"05382032","name":"Meckenheim, Stadt","type":"Stadt"},"district":{"key":"05382","name":"Rhein-Sieg-Kreis","type":"Kreis"},"federalState":{"key":"05","name":"Nordrhein-Westfalen"}},{"name":"Merler Str.","postalCode":"53340","locality":"Meckenheim","municipality":{"key":"05382032","name":"Meckenheim, Stadt","type":"Stadt"},"district":{"key":"05382","name":"Rhein-Sieg-Kreis","type":"Kreis"},"federalState":{"key":"05","name":"Nordrhein-Westfalen"}},{"name":"Merler Winkel","postalCode":"53340","locality":"Meckenheim","municipality":{"key":"05382032","name":"Meckenheim, Stadt","type":"Stadt"},"district":{"key":"05382","name":"Rhein-Sieg-Kreis","type":"Kreis"},"federalState":{"key":"05","name":"Nordrhein-Westfalen"}},{"name":"Mirabellenstr.","postalCode":"53340","locality":"Meckenheim","municipality":{"key":"05382032","name":"Meckenheim, Stadt","type":"Stadt"},"district":{"key":"05382","name":"Rhein-Sieg-Kreis","type":"Kreis"},"federalState":{"key":"05","name":"Nordrhein-Westfalen"}},{"name":"Mittelstr.","postalCode":"53340","locality":"Meckenheim","municipality":{"key":"05382032","name":"Meckenheim, Stadt","type":"Stadt"},"district":{"key":"05382","name":"Rhein-Sieg-Kreis","type":"Kreis"},"federalState":{"key":"05","name":"Nordrhein-Westfalen"}},{"name":"Mörikeweg","postalCode":"53340","locality":"Meckenheim","municipality":{"key":"05382032","name":"Meckenheim, Stadt","type":"Stadt"},"district":{"key":"05382","name":"Rhein-Sieg-Kreis","type":"Kreis"},"federalState":{"key":"05","name":"Nordrhein-Westfalen"}},{"name":"Mörschhof","postalCode":"67149","locality":"Meckenheim","municipality":{"key":"07332035","name":"Meckenheim","type":"Kreisangehörige_Gemeinde"},"district":{"key":"07332","name":"Bad Dürkheim","type":"Landkreis"},"federalState":{"key":"07","name":"Rheinland-Pfalz"}},{"name":"Mozartstr.","postalCode":"53340","locality":"Meckenheim","municipality":{"key":"05382032","name":"Meckenheim, Stadt","type":"Stadt"},"district":{"key":"05382","name":"Rhein-Sieg-Kreis","type":"Kreis"},"federalState":{"key":"05","name":"Nordrhein-Westfalen"}},{"name":"Mühlenstr.","postalCode":"53340","locality":"Meckenheim","municipality":{"key":"05382032","name":"Meckenheim, Stadt","type":"Stadt"},"district":{"key":"05382","name":"Rhein-Sieg-Kreis","type":"Kreis"},"federalState":{"key":"05","name":"Nordrhein-Westfalen"}},{"name":"Müllerweg","postalCode":"53340","locality":"Meckenheim","municipality":{"key":"05382032","name":"Meckenheim, Stadt","type":"Stadt"},"district":{"key":"05382","name":"Rhein-Sieg-Kreis","type":"Kreis"},"federalState":{"key":"05","name":"Nordrhein-Westfalen"}},{"name":"Münchhausenweg","postalCode":"53340","locality":"Meckenheim","municipality":{"key":"05382032","name":"Meckenheim, Stadt","type":"Stadt"},"district":{"key":"05382","name":"Rhein-Sieg-Kreis","type":"Kreis"},"federalState":{"key":"05","name":"Nordrhein-Westfalen"}},{"name":"Neisser Weg","postalCode":"53340","locality":"Meckenheim","municipality":{"key":"05382032","name":"Meckenheim, Stadt","type":"Stadt"},"district":{"key":"05382","name":"Rhein-Sieg-Kreis","type":"Kreis"},"federalState":{"key":"05","name":"Nordrhein-Westfalen"}},{"name":"Neustr.","postalCode":"53340","locality":"Meckenheim","municipality":{"key":"05382032","name":"Meckenheim, Stadt","type":"Stadt"},"district":{"key":"05382","name":"Rhein-Sieg-Kreis","type":"Kreis"},"federalState":{"key":"05","name":"Nordrhein-Westfalen"}},{"name":"Noldestr.","postalCode":"53340","locality":"Meckenheim","municipality":{"key":"05382032","name":"Meckenheim, Stadt","type":"Stadt"},"district":{"key":"05382","name":"Rhein-Sieg-Kreis","type":"Kreis"},"federalState":{"key":"05","name":"Nordrhein-Westfalen"}},{"name":"Nonnenstrombergstr.","postalCode":"53340","locality":"Meckenheim","municipality":{"key":"05382032","name":"Meckenheim, Stadt","type":"Stadt"},"district":{"key":"05382","name":"Rhein-Sieg-Kreis","type":"Kreis"},"federalState":{"key":"05","name":"Nordrhein-Westfalen"}},{"name":"Nordstr.","postalCode":"53340","locality":"Meckenheim","municipality":{"key":"05382032","name":"Meckenheim, Stadt","type":"Stadt"},"district":{"key":"05382","name":"Rhein-Sieg-Kreis","type":"Kreis"},"federalState":{"key":"05","name":"Nordrhein-Westfalen"}},{"name":"Novalisweg","postalCode":"53340","locality":"Meckenheim","municipality":{"key":"05382032","name":"Meckenheim, Stadt","type":"Stadt"},"district":{"key":"05382","name":"Rhein-Sieg-Kreis","type":"Kreis"},"federalState":{"key":"05","name":"Nordrhein-Westfalen"}},{"name":"Nußstr.","postalCode":"53340","locality":"Meckenheim","municipality":{"key":"05382032","name":"Meckenheim, Stadt","type":"Stadt"},"district":{"key":"05382","name":"Rhein-Sieg-Kreis","type":"Kreis"},"federalState":{"key":"05","name":"Nordrhein-Westfalen"}},{"name":"Oberdorfstr.","postalCode":"53340","locality":"Meckenheim","municipality":{"key":"05382032","name":"Meckenheim, Stadt","type":"Stadt"},"district":{"key":"05382","name":"Rhein-Sieg-Kreis","type":"Kreis"},"federalState":{"key":"05","name":"Nordrhein-Westfalen"}},{"name":"Obere Mühle","postalCode":"53340","locality":"Meckenheim","municipality":{"key":"05382032","name":"Meckenheim, Stadt","type":"Stadt"},"district":{"key":"05382","name":"Rhein-Sieg-Kreis","type":"Kreis"},"federalState":{"key":"05","name":"Nordrhein-Westfalen"}},{"name":"Obertorkreisel","postalCode":"53340","locality":"Meckenheim","municipality":{"key":"05382032","name":"Meckenheim, Stadt","type":"Stadt"},"district":{"key":"05382","name":"Rhein-Sieg-Kreis","type":"Kreis"},"federalState":{"key":"05","name":"Nordrhein-Westfalen"}},{"name":"Obertorstr.","postalCode":"53340","locality":"Meckenheim","municipality":{"key":"05382032","name":"Meckenheim, Stadt","type":"Stadt"},"district":{"key":"05382","name":"Rhein-Sieg-Kreis","type":"Kreis"},"federalState":{"key":"05","name":"Nordrhein-Westfalen"}},{"name":"Ohlengäßchen","postalCode":"53340","locality":"Meckenheim","municipality":{"key":"05382032","name":"Meckenheim, Stadt","type":"Stadt"},"district":{"key":"05382","name":"Rhein-Sieg-Kreis","type":"Kreis"},"federalState":{"key":"05","name":"Nordrhein-Westfalen"}},{"name":"Oppelner Str.","postalCode":"53340","locality":"Meckenheim","municipality":{"key":"05382032","name":"Meckenheim, Stadt","type":"Stadt"},"district":{"key":"05382","name":"Rhein-Sieg-Kreis","type":"Kreis"},"federalState":{"key":"05","name":"Nordrhein-Westfalen"}},{"name":"Ottigsweg","postalCode":"53340","locality":"Meckenheim","municipality":{"key":"05382032","name":"Meckenheim, Stadt","type":"Stadt"},"district":{"key":"05382","name":"Rhein-Sieg-Kreis","type":"Kreis"},"federalState":{"key":"05","name":"Nordrhein-Westfalen"}},{"name":"Otto-Hahn-Str.","postalCode":"53340","locality":"Meckenheim","municipality":{"key":"05382032","name":"Meckenheim, Stadt","type":"Stadt"},"district":{"key":"05382","name":"Rhein-Sieg-Kreis","type":"Kreis"},"federalState":{"key":"05","name":"Nordrhein-Westfalen"}},{"name":"Pappelweg","postalCode":"53340","locality":"Meckenheim","municipality":{"key":"05382032","name":"Meckenheim, Stadt","type":"Stadt"},"district":{"key":"05382","name":"Rhein-Sieg-Kreis","type":"Kreis"},"federalState":{"key":"05","name":"Nordrhein-Westfalen"}},{"name":"Pater-Müller-Str.","postalCode":"53340","locality":"Meckenheim","municipality":{"key":"05382032","name":"Meckenheim, Stadt","type":"Stadt"},"district":{"key":"05382","name":"Rhein-Sieg-Kreis","type":"Kreis"},"federalState":{"key":"05","name":"Nordrhein-Westfalen"}},{"name":"Paul-Klee-Str.","postalCode":"53340","locality":"Meckenheim","municipality":{"key":"05382032","name":"Meckenheim, Stadt","type":"Stadt"},"district":{"key":"05382","name":"Rhein-Sieg-Kreis","type":"Kreis"},"federalState":{"key":"05","name":"Nordrhein-Westfalen"}},{"name":"Paulusstr.","postalCode":"53340","locality":"Meckenheim","municipality":{"key":"05382032","name":"Meckenheim, Stadt","type":"Stadt"},"district":{"key":"05382","name":"Rhein-Sieg-Kreis","type":"Kreis"},"federalState":{"key":"05","name":"Nordrhein-Westfalen"}},{"name":"Petersbergstr.","postalCode":"53340","locality":"Meckenheim","municipality":{"key":"05382032","name":"Meckenheim, Stadt","type":"Stadt"},"district":{"key":"05382","name":"Rhein-Sieg-Kreis","type":"Kreis"},"federalState":{"key":"05","name":"Nordrhein-Westfalen"}},{"name":"Petrusstr.","postalCode":"53340","locality":"Meckenheim","municipality":{"key":"05382032","name":"Meckenheim, Stadt","type":"Stadt"},"district":{"key":"05382","name":"Rhein-Sieg-Kreis","type":"Kreis"},"federalState":{"key":"05","name":"Nordrhein-Westfalen"}},{"name":"Plantagenweg","postalCode":"53340","locality":"Meckenheim","municipality":{"key":"05382032","name":"Meckenheim, Stadt","type":"Stadt"},"district":{"key":"05382","name":"Rhein-Sieg-Kreis","type":"Kreis"},"federalState":{"key":"05","name":"Nordrhein-Westfalen"}},{"name":"Professor-Scheeben-Str.","postalCode":"53340","locality":"Meckenheim","municipality":{"key":"05382032","name":"Meckenheim, Stadt","type":"Stadt"},"district":{"key":"05382","name":"Rhein-Sieg-Kreis","type":"Kreis"},"federalState":{"key":"05","name":"Nordrhein-Westfalen"}},{"name":"Quittenstr.","postalCode":"53340","locality":"Meckenheim","municipality":{"key":"05382032","name":"Meckenheim, Stadt","type":"Stadt"},"district":{"key":"05382","name":"Rhein-Sieg-Kreis","type":"Kreis"},"federalState":{"key":"05","name":"Nordrhein-Westfalen"}},{"name":"Raiffeisenstr.","postalCode":"53340","locality":"Meckenheim","municipality":{"key":"05382032","name":"Meckenheim, Stadt","type":"Stadt"},"district":{"key":"05382","name":"Rhein-Sieg-Kreis","type":"Kreis"},"federalState":{"key":"05","name":"Nordrhein-Westfalen"}},{"name":"Raiffeisenstr.","postalCode":"67149","locality":"Meckenheim","municipality":{"key":"07332035","name":"Meckenheim","type":"Kreisangehörige_Gemeinde"},"district":{"key":"07332","name":"Bad Dürkheim","type":"Landkreis"},"federalState":{"key":"07","name":"Rheinland-Pfalz"}},{"name":"Ramberg I","postalCode":"67149","locality":"Meckenheim","municipality":{"key":"07332035","name":"Meckenheim","type":"Kreisangehörige_Gemeinde"},"district":{"key":"07332","name":"Bad Dürkheim","type":"Landkreis"},"federalState":{"key":"07","name":"Rheinland-Pfalz"}},{"name":"Ramberg II","postalCode":"67149","locality":"Meckenheim","municipality":{"key":"07332035","name":"Meckenheim","type":"Kreisangehörige_Gemeinde"},"district":{"key":"07332","name":"Bad Dürkheim","type":"Landkreis"},"federalState":{"key":"07","name":"Rheinland-Pfalz"}},{"name":"Renettenweg","postalCode":"53340","locality":"Meckenheim","municipality":{"key":"05382032","name":"Meckenheim, Stadt","type":"Stadt"},"district":{"key":"05382","name":"Rhein-Sieg-Kreis","type":"Kreis"},"federalState":{"key":"05","name":"Nordrhein-Westfalen"}},{"name":"Rheinbacher Landstr.","postalCode":"53340","locality":"Meckenheim","municipality":{"key":"05382032","name":"Meckenheim, Stadt","type":"Stadt"},"district":{"key":"05382","name":"Rhein-Sieg-Kreis","type":"Kreis"},"federalState":{"key":"05","name":"Nordrhein-Westfalen"}},{"name":"Rheinbacher Str.","postalCode":"53340","locality":"Meckenheim","municipality":{"key":"05382032","name":"Meckenheim, Stadt","type":"Stadt"},"district":{"key":"05382","name":"Rhein-Sieg-Kreis","type":"Kreis"},"federalState":{"key":"05","name":"Nordrhein-Westfalen"}},{"name":"Rödersheimer Str.","postalCode":"67149","locality":"Meckenheim","municipality":{"key":"07332035","name":"Meckenheim","type":"Kreisangehörige_Gemeinde"},"district":{"key":"07332","name":"Bad Dürkheim","type":"Landkreis"},"federalState":{"key":"07","name":"Rheinland-Pfalz"}},{"name":"Römerweg","postalCode":"53340","locality":"Meckenheim","municipality":{"key":"05382032","name":"Meckenheim, Stadt","type":"Stadt"},"district":{"key":"05382","name":"Rhein-Sieg-Kreis","type":"Kreis"},"federalState":{"key":"05","name":"Nordrhein-Westfalen"}},{"name":"Röntgenstr.","postalCode":"53340","locality":"Meckenheim","municipality":{"key":"05382032","name":"Meckenheim, Stadt","type":"Stadt"},"district":{"key":"05382","name":"Rhein-Sieg-Kreis","type":"Kreis"},"federalState":{"key":"05","name":"Nordrhein-Westfalen"}},{"name":"Rosenapfelweg","postalCode":"53340","locality":"Meckenheim","municipality":{"key":"05382032","name":"Meckenheim, Stadt","type":"Stadt"},"district":{"key":"05382","name":"Rhein-Sieg-Kreis","type":"Kreis"},"federalState":{"key":"05","name":"Nordrhein-Westfalen"}},{"name":"Rosenhof","postalCode":"53340","locality":"Meckenheim","municipality":{"key":"05382032","name":"Meckenheim, Stadt","type":"Stadt"},"district":{"key":"05382","name":"Rhein-Sieg-Kreis","type":"Kreis"},"federalState":{"key":"05","name":"Nordrhein-Westfalen"}},{"name":"Rosenweg","postalCode":"53340","locality":"Meckenheim","municipality":{"key":"05382032","name":"Meckenheim, Stadt","type":"Stadt"},"district":{"key":"05382","name":"Rhein-Sieg-Kreis","type":"Kreis"},"federalState":{"key":"05","name":"Nordrhein-Westfalen"}},{"name":"Rosskamp","postalCode":"53340","locality":"Meckenheim","municipality":{"key":"05382032","name":"Meckenheim, Stadt","type":"Stadt"},"district":{"key":"05382","name":"Rhein-Sieg-Kreis","type":"Kreis"},"federalState":{"key":"05","name":"Nordrhein-Westfalen"}},{"name":"Rotdornstr.","postalCode":"53340","locality":"Meckenheim","municipality":{"key":"05382032","name":"Meckenheim, Stadt","type":"Stadt"},"district":{"key":"05382","name":"Rhein-Sieg-Kreis","type":"Kreis"},"federalState":{"key":"05","name":"Nordrhein-Westfalen"}},{"name":"Rottweg","postalCode":"53340","locality":"Meckenheim","municipality":{"key":"05382032","name":"Meckenheim, Stadt","type":"Stadt"},"district":{"key":"05382","name":"Rhein-Sieg-Kreis","type":"Kreis"},"federalState":{"key":"05","name":"Nordrhein-Westfalen"}},{"name":"Ruhrweg","postalCode":"53340","locality":"Meckenheim","municipality":{"key":"05382032","name":"Meckenheim, Stadt","type":"Stadt"},"district":{"key":"05382","name":"Rhein-Sieg-Kreis","type":"Kreis"},"federalState":{"key":"05","name":"Nordrhein-Westfalen"}},{"name":"Ruppertsberger Str.","postalCode":"67149","locality":"Meckenheim","municipality":{"key":"07332035","name":"Meckenheim","type":"Kreisangehörige_Gemeinde"},"district":{"key":"07332","name":"Bad Dürkheim","type":"Landkreis"},"federalState":{"key":"07","name":"Rheinland-Pfalz"}},{"name":"Sanddornweg","postalCode":"53340","locality":"Meckenheim","municipality":{"key":"05382032","name":"Meckenheim, Stadt","type":"Stadt"},"district":{"key":"05382","name":"Rhein-Sieg-Kreis","type":"Kreis"},"federalState":{"key":"05","name":"Nordrhein-Westfalen"}},{"name":"Sandgasse","postalCode":"67149","locality":"Meckenheim","municipality":{"key":"07332035","name":"Meckenheim","type":"Kreisangehörige_Gemeinde"},"district":{"key":"07332","name":"Bad Dürkheim","type":"Landkreis"},"federalState":{"key":"07","name":"Rheinland-Pfalz"}},{"name":"Schäferhof","postalCode":"53340","locality":"Meckenheim","municipality":{"key":"05382032","name":"Meckenheim, Stadt","type":"Stadt"},"district":{"key":"05382","name":"Rhein-Sieg-Kreis","type":"Kreis"},"federalState":{"key":"05","name":"Nordrhein-Westfalen"}},{"name":"Schall-von-Bell-Weg","postalCode":"53340","locality":"Meckenheim","municipality":{"key":"05382032","name":"Meckenheim, Stadt","type":"Stadt"},"district":{"key":"05382","name":"Rhein-Sieg-Kreis","type":"Kreis"},"federalState":{"key":"05","name":"Nordrhein-Westfalen"}},{"name":"Schillerstr.","postalCode":"53340","locality":"Meckenheim","municipality":{"key":"05382032","name":"Meckenheim, Stadt","type":"Stadt"},"district":{"key":"05382","name":"Rhein-Sieg-Kreis","type":"Kreis"},"federalState":{"key":"05","name":"Nordrhein-Westfalen"}},{"name":"Schlegelweg","postalCode":"53340","locality":"Meckenheim","municipality":{"key":"05382032","name":"Meckenheim, Stadt","type":"Stadt"},"district":{"key":"05382","name":"Rhein-Sieg-Kreis","type":"Kreis"},"federalState":{"key":"05","name":"Nordrhein-Westfalen"}},{"name":"Schlehenweg","postalCode":"53340","locality":"Meckenheim","municipality":{"key":"05382032","name":"Meckenheim, Stadt","type":"Stadt"},"district":{"key":"05382","name":"Rhein-Sieg-Kreis","type":"Kreis"},"federalState":{"key":"05","name":"Nordrhein-Westfalen"}},{"name":"Schleidhof; Sonnenhof","postalCode":"67149","locality":"Meckenheim","municipality":{"key":"07332035","name":"Meckenheim","type":"Kreisangehörige_Gemeinde"},"district":{"key":"07332","name":"Bad Dürkheim","type":"Landkreis"},"federalState":{"key":"07","name":"Rheinland-Pfalz"}},{"name":"Schlittweg","postalCode":"67149","locality":"Meckenheim","municipality":{"key":"07332035","name":"Meckenheim","type":"Kreisangehörige_Gemeinde"},"district":{"key":"07332","name":"Bad Dürkheim","type":"Landkreis"},"federalState":{"key":"07","name":"Rheinland-Pfalz"}},{"name":"Schloßstr.","postalCode":"53340","locality":"Meckenheim","municipality":{"key":"05382032","name":"Meckenheim, Stadt","type":"Stadt"},"district":{"key":"05382","name":"Rhein-Sieg-Kreis","type":"Kreis"},"federalState":{"key":"05","name":"Nordrhein-Westfalen"}},{"name":"Schmiedegasse","postalCode":"53340","locality":"Meckenheim","municipality":{"key":"05382032","name":"Meckenheim, Stadt","type":"Stadt"},"district":{"key":"05382","name":"Rhein-Sieg-Kreis","type":"Kreis"},"federalState":{"key":"05","name":"Nordrhein-Westfalen"}},{"name":"Schreinshauserhof; Fasanenhof","postalCode":"67149","locality":"Meckenheim","municipality":{"key":"07332035","name":"Meckenheim","type":"Kreisangehörige_Gemeinde"},"district":{"key":"07332","name":"Bad Dürkheim","type":"Landkreis"},"federalState":{"key":"07","name":"Rheinland-Pfalz"}},{"name":"Schreinshauser Weg","postalCode":"67149","locality":"Meckenheim","municipality":{"key":"07332035","name":"Meckenheim","type":"Kreisangehörige_Gemeinde"},"district":{"key":"07332","name":"Bad Dürkheim","type":"Landkreis"},"federalState":{"key":"07","name":"Rheinland-Pfalz"}},{"name":"Schubertweg","postalCode":"53340","locality":"Meckenheim","municipality":{"key":"05382032","name":"Meckenheim, Stadt","type":"Stadt"},"district":{"key":"05382","name":"Rhein-Sieg-Kreis","type":"Kreis"},"federalState":{"key":"05","name":"Nordrhein-Westfalen"}},{"name":"Schulstr.","postalCode":"53340","locality":"Meckenheim","municipality":{"key":"05382032","name":"Meckenheim, Stadt","type":"Stadt"},"district":{"key":"05382","name":"Rhein-Sieg-Kreis","type":"Kreis"},"federalState":{"key":"05","name":"Nordrhein-Westfalen"}},{"name":"Schulstr.","postalCode":"67149","locality":"Meckenheim","municipality":{"key":"07332035","name":"Meckenheim","type":"Kreisangehörige_Gemeinde"},"district":{"key":"07332","name":"Bad Dürkheim","type":"Landkreis"},"federalState":{"key":"07","name":"Rheinland-Pfalz"}},{"name":"Schumannstr.","postalCode":"53340","locality":"Meckenheim","municipality":{"key":"05382032","name":"Meckenheim, Stadt","type":"Stadt"},"district":{"key":"05382","name":"Rhein-Sieg-Kreis","type":"Kreis"},"federalState":{"key":"05","name":"Nordrhein-Westfalen"}},{"name":"Schützenstr.","postalCode":"53340","locality":"Meckenheim","municipality":{"key":"05382032","name":"Meckenheim, Stadt","type":"Stadt"},"district":{"key":"05382","name":"Rhein-Sieg-Kreis","type":"Kreis"},"federalState":{"key":"05","name":"Nordrhein-Westfalen"}},{"name":"Schwarzer Weg","postalCode":"53340","locality":"Meckenheim","municipality":{"key":"05382032","name":"Meckenheim, Stadt","type":"Stadt"},"district":{"key":"05382","name":"Rhein-Sieg-Kreis","type":"Kreis"},"federalState":{"key":"05","name":"Nordrhein-Westfalen"}},{"name":"Schwarzmahrweg","postalCode":"53340","locality":"Meckenheim","municipality":{"key":"05382032","name":"Meckenheim, Stadt","type":"Stadt"},"district":{"key":"05382","name":"Rhein-Sieg-Kreis","type":"Kreis"},"federalState":{"key":"05","name":"Nordrhein-Westfalen"}},{"name":"Schwitzerstr.","postalCode":"53340","locality":"Meckenheim","municipality":{"key":"05382032","name":"Meckenheim, Stadt","type":"Stadt"},"district":{"key":"05382","name":"Rhein-Sieg-Kreis","type":"Kreis"},"federalState":{"key":"05","name":"Nordrhein-Westfalen"}},{"name":"Siebengebirgsring","postalCode":"53340","locality":"Meckenheim","municipality":{"key":"05382032","name":"Meckenheim, Stadt","type":"Stadt"},"district":{"key":"05382","name":"Rhein-Sieg-Kreis","type":"Kreis"},"federalState":{"key":"05","name":"Nordrhein-Westfalen"}},{"name":"Silcherstr.","postalCode":"67149","locality":"Meckenheim","municipality":{"key":"07332035","name":"Meckenheim","type":"Kreisangehörige_Gemeinde"},"district":{"key":"07332","name":"Bad Dürkheim","type":"Landkreis"},"federalState":{"key":"07","name":"Rheinland-Pfalz"}},{"name":"Solitärweg","postalCode":"53340","locality":"Meckenheim","municipality":{"key":"05382032","name":"Meckenheim, Stadt","type":"Stadt"},"district":{"key":"05382","name":"Rhein-Sieg-Kreis","type":"Kreis"},"federalState":{"key":"05","name":"Nordrhein-Westfalen"}},{"name":"Speierlinghof","postalCode":"67149","locality":"Meckenheim","municipality":{"key":"07332035","name":"Meckenheim","type":"Kreisangehörige_Gemeinde"},"district":{"key":"07332","name":"Bad Dürkheim","type":"Landkreis"},"federalState":{"key":"07","name":"Rheinland-Pfalz"}},{"name":"Sperberweg","postalCode":"53340","locality":"Meckenheim","municipality":{"key":"05382032","name":"Meckenheim, Stadt","type":"Stadt"},"district":{"key":"05382","name":"Rhein-Sieg-Kreis","type":"Kreis"},"federalState":{"key":"05","name":"Nordrhein-Westfalen"}},{"name":"Starenweg","postalCode":"53340","locality":"Meckenheim","municipality":{"key":"05382032","name":"Meckenheim, Stadt","type":"Stadt"},"district":{"key":"05382","name":"Rhein-Sieg-Kreis","type":"Kreis"},"federalState":{"key":"05","name":"Nordrhein-Westfalen"}},{"name":"Stecklingsweg","postalCode":"53340","locality":"Meckenheim","municipality":{"key":"05382032","name":"Meckenheim, Stadt","type":"Stadt"},"district":{"key":"05382","name":"Rhein-Sieg-Kreis","type":"Kreis"},"federalState":{"key":"05","name":"Nordrhein-Westfalen"}},{"name":"Steingasse","postalCode":"67149","locality":"Meckenheim","municipality":{"key":"07332035","name":"Meckenheim","type":"Kreisangehörige_Gemeinde"},"district":{"key":"07332","name":"Bad Dürkheim","type":"Landkreis"},"federalState":{"key":"07","name":"Rheinland-Pfalz"}},{"name":"Steinrinnenweg","postalCode":"53340","locality":"Meckenheim","municipality":{"key":"05382032","name":"Meckenheim, Stadt","type":"Stadt"},"district":{"key":"05382","name":"Rhein-Sieg-Kreis","type":"Kreis"},"federalState":{"key":"05","name":"Nordrhein-Westfalen"}},{"name":"Stenzelbergstr.","postalCode":"53340","locality":"Meckenheim","municipality":{"key":"05382032","name":"Meckenheim, Stadt","type":"Stadt"},"district":{"key":"05382","name":"Rhein-Sieg-Kreis","type":"Kreis"},"federalState":{"key":"05","name":"Nordrhein-Westfalen"}},{"name":"Stolper Str.","postalCode":"53340","locality":"Meckenheim","municipality":{"key":"05382032","name":"Meckenheim, Stadt","type":"Stadt"},"district":{"key":"05382","name":"Rhein-Sieg-Kreis","type":"Kreis"},"federalState":{"key":"05","name":"Nordrhein-Westfalen"}},{"name":"Südstr.","postalCode":"53340","locality":"Meckenheim","municipality":{"key":"05382032","name":"Meckenheim, Stadt","type":"Stadt"},"district":{"key":"05382","name":"Rhein-Sieg-Kreis","type":"Kreis"},"federalState":{"key":"05","name":"Nordrhein-Westfalen"}},{"name":"Tannenhof; Hof am Krähpfad","postalCode":"67149","locality":"Meckenheim","municipality":{"key":"07332035","name":"Meckenheim","type":"Kreisangehörige_Gemeinde"},"district":{"key":"07332","name":"Bad Dürkheim","type":"Landkreis"},"federalState":{"key":"07","name":"Rheinland-Pfalz"}},{"name":"Tannenweg","postalCode":"53340","locality":"Meckenheim","municipality":{"key":"05382032","name":"Meckenheim, Stadt","type":"Stadt"},"district":{"key":"05382","name":"Rhein-Sieg-Kreis","type":"Kreis"},"federalState":{"key":"05","name":"Nordrhein-Westfalen"}},{"name":"Theodor-Storm-Str.","postalCode":"53340","locality":"Meckenheim","municipality":{"key":"05382032","name":"Meckenheim, Stadt","type":"Stadt"},"district":{"key":"05382","name":"Rhein-Sieg-Kreis","type":"Kreis"},"federalState":{"key":"05","name":"Nordrhein-Westfalen"}},{"name":"Tieckstr.","postalCode":"53340","locality":"Meckenheim","municipality":{"key":"05382032","name":"Meckenheim, Stadt","type":"Stadt"},"district":{"key":"05382","name":"Rhein-Sieg-Kreis","type":"Kreis"},"federalState":{"key":"05","name":"Nordrhein-Westfalen"}},{"name":"Tilsiter Str.","postalCode":"53340","locality":"Meckenheim","municipality":{"key":"05382032","name":"Meckenheim, Stadt","type":"Stadt"},"district":{"key":"05382","name":"Rhein-Sieg-Kreis","type":"Kreis"},"federalState":{"key":"05","name":"Nordrhein-Westfalen"}},{"name":"Tombergstr.","postalCode":"53340","locality":"Meckenheim","municipality":{"key":"05382032","name":"Meckenheim, Stadt","type":"Stadt"},"district":{"key":"05382","name":"Rhein-Sieg-Kreis","type":"Kreis"},"federalState":{"key":"05","name":"Nordrhein-Westfalen"}},{"name":"Töpferstr.","postalCode":"53340","locality":"Meckenheim","municipality":{"key":"05382032","name":"Meckenheim, Stadt","type":"Stadt"},"district":{"key":"05382","name":"Rhein-Sieg-Kreis","type":"Kreis"},"federalState":{"key":"05","name":"Nordrhein-Westfalen"}},{"name":"Treptower Weg","postalCode":"53340","locality":"Meckenheim","municipality":{"key":"05382032","name":"Meckenheim, Stadt","type":"Stadt"},"district":{"key":"05382","name":"Rhein-Sieg-Kreis","type":"Kreis"},"federalState":{"key":"05","name":"Nordrhein-Westfalen"}},{"name":"Uhlandstr.","postalCode":"53340","locality":"Meckenheim","municipality":{"key":"05382032","name":"Meckenheim, Stadt","type":"Stadt"},"district":{"key":"05382","name":"Rhein-Sieg-Kreis","type":"Kreis"},"federalState":{"key":"05","name":"Nordrhein-Westfalen"}},{"name":"Uhlgasse","postalCode":"53340","locality":"Meckenheim","municipality":{"key":"05382032","name":"Meckenheim, Stadt","type":"Stadt"},"district":{"key":"05382","name":"Rhein-Sieg-Kreis","type":"Kreis"},"federalState":{"key":"05","name":"Nordrhein-Westfalen"}},{"name":"Ulmenstr.","postalCode":"53340","locality":"Meckenheim","municipality":{"key":"05382032","name":"Meckenheim, Stadt","type":"Stadt"},"district":{"key":"05382","name":"Rhein-Sieg-Kreis","type":"Kreis"},"federalState":{"key":"05","name":"Nordrhein-Westfalen"}},{"name":"Unterdorfstr.","postalCode":"53340","locality":"Meckenheim","municipality":{"key":"05382032","name":"Meckenheim, Stadt","type":"Stadt"},"district":{"key":"05382","name":"Rhein-Sieg-Kreis","type":"Kreis"},"federalState":{"key":"05","name":"Nordrhein-Westfalen"}},{"name":"Verdiweg","postalCode":"53340","locality":"Meckenheim","municipality":{"key":"05382032","name":"Meckenheim, Stadt","type":"Stadt"},"district":{"key":"05382","name":"Rhein-Sieg-Kreis","type":"Kreis"},"federalState":{"key":"05","name":"Nordrhein-Westfalen"}},{"name":"Von-Galen-Weg","postalCode":"53340","locality":"Meckenheim","municipality":{"key":"05382032","name":"Meckenheim, Stadt","type":"Stadt"},"district":{"key":"05382","name":"Rhein-Sieg-Kreis","type":"Kreis"},"federalState":{"key":"05","name":"Nordrhein-Westfalen"}},{"name":"von-Stauffenberg-Weg","postalCode":"53340","locality":"Meckenheim","municipality":{"key":"05382032","name":"Meckenheim, Stadt","type":"Stadt"},"district":{"key":"05382","name":"Rhein-Sieg-Kreis","type":"Kreis"},"federalState":{"key":"05","name":"Nordrhein-Westfalen"}},{"name":"Wacholderstr.","postalCode":"53340","locality":"Meckenheim","municipality":{"key":"05382032","name":"Meckenheim, Stadt","type":"Stadt"},"district":{"key":"05382","name":"Rhein-Sieg-Kreis","type":"Kreis"},"federalState":{"key":"05","name":"Nordrhein-Westfalen"}},{"name":"Wachtbergstr.","postalCode":"53340","locality":"Meckenheim","municipality":{"key":"05382032","name":"Meckenheim, Stadt","type":"Stadt"},"district":{"key":"05382","name":"Rhein-Sieg-Kreis","type":"Kreis"},"federalState":{"key":"05","name":"Nordrhein-Westfalen"}},{"name":"Wagnerstr.","postalCode":"53340","locality":"Meckenheim","municipality":{"key":"05382032","name":"Meckenheim, Stadt","type":"Stadt"},"district":{"key":"05382","name":"Rhein-Sieg-Kreis","type":"Kreis"},"federalState":{"key":"05","name":"Nordrhein-Westfalen"}},{"name":"Walbergweg","postalCode":"53340","locality":"Meckenheim","municipality":{"key":"05382032","name":"Meckenheim, Stadt","type":"Stadt"},"district":{"key":"05382","name":"Rhein-Sieg-Kreis","type":"Kreis"},"federalState":{"key":"05","name":"Nordrhein-Westfalen"}},{"name":"Waldweg","postalCode":"53340","locality":"Meckenheim","municipality":{"key":"05382032","name":"Meckenheim, Stadt","type":"Stadt"},"district":{"key":"05382","name":"Rhein-Sieg-Kreis","type":"Kreis"},"federalState":{"key":"05","name":"Nordrhein-Westfalen"}},{"name":"Weberstr.","postalCode":"53340","locality":"Meckenheim","municipality":{"key":"05382032","name":"Meckenheim, Stadt","type":"Stadt"},"district":{"key":"05382","name":"Rhein-Sieg-Kreis","type":"Kreis"},"federalState":{"key":"05","name":"Nordrhein-Westfalen"}},{"name":"Weidenweg","postalCode":"53340","locality":"Meckenheim","municipality":{"key":"05382032","name":"Meckenheim, Stadt","type":"Stadt"},"district":{"key":"05382","name":"Rhein-Sieg-Kreis","type":"Kreis"},"federalState":{"key":"05","name":"Nordrhein-Westfalen"}},{"name":"Weinbergstr.","postalCode":"67149","locality":"Meckenheim","municipality":{"key":"07332035","name":"Meckenheim","type":"Kreisangehörige_Gemeinde"},"district":{"key":"07332","name":"Bad Dürkheim","type":"Landkreis"},"federalState":{"key":"07","name":"Rheinland-Pfalz"}},{"name":"Weißdornstr.","postalCode":"53340","locality":"Meckenheim","municipality":{"key":"05382032","name":"Meckenheim, Stadt","type":"Stadt"},"district":{"key":"05382","name":"Rhein-Sieg-Kreis","type":"Kreis"},"federalState":{"key":"05","name":"Nordrhein-Westfalen"}},{"name":"Werner-Egk-Str.","postalCode":"53340","locality":"Meckenheim","municipality":{"key":"05382032","name":"Meckenheim, Stadt","type":"Stadt"},"district":{"key":"05382","name":"Rhein-Sieg-Kreis","type":"Kreis"},"federalState":{"key":"05","name":"Nordrhein-Westfalen"}},{"name":"Widdenberg","postalCode":"53340","locality":"Meckenheim","municipality":{"key":"05382032","name":"Meckenheim, Stadt","type":"Stadt"},"district":{"key":"05382","name":"Rhein-Sieg-Kreis","type":"Kreis"},"federalState":{"key":"05","name":"Nordrhein-Westfalen"}},{"name":"Wiesenpfad","postalCode":"67149","locality":"Meckenheim","municipality":{"key":"07332035","name":"Meckenheim","type":"Kreisangehörige_Gemeinde"},"district":{"key":"07332","name":"Bad Dürkheim","type":"Landkreis"},"federalState":{"key":"07","name":"Rheinland-Pfalz"}},{"name":"Wiesenstr.","postalCode":"67149","locality":"Meckenheim","municipality":{"key":"07332035","name":"Meckenheim","type":"Kreisangehörige_Gemeinde"},"district":{"key":"07332","name":"Bad Dürkheim","type":"Landkreis"},"federalState":{"key":"07","name":"Rheinland-Pfalz"}},{"name":"Wiesenweg","postalCode":"53340","locality":"Meckenheim","municipality":{"key":"05382032","name":"Meckenheim, Stadt","type":"Stadt"},"district":{"key":"05382","name":"Rhein-Sieg-Kreis","type":"Kreis"},"federalState":{"key":"05","name":"Nordrhein-Westfalen"}},{"name":"Wilhelm-Ley-Str.","postalCode":"53340","locality":"Meckenheim","municipality":{"key":"05382032","name":"Meckenheim, Stadt","type":"Stadt"},"district":{"key":"05382","name":"Rhein-Sieg-Kreis","type":"Kreis"},"federalState":{"key":"05","name":"Nordrhein-Westfalen"}},{"name":"Wilhelm-Offermann-Str.","postalCode":"53340","locality":"Meckenheim","municipality":{"key":"05382032","name":"Meckenheim, Stadt","type":"Stadt"},"district":{"key":"05382","name":"Rhein-Sieg-Kreis","type":"Kreis"},"federalState":{"key":"05","name":"Nordrhein-Westfalen"}},{"name":"Wilhelm-Raab-Str.","postalCode":"67149","locality":"Meckenheim","municipality":{"key":"07332035","name":"Meckenheim","type":"Kreisangehörige_Gemeinde"},"district":{"key":"07332","name":"Bad Dürkheim","type":"Landkreis"},"federalState":{"key":"07","name":"Rheinland-Pfalz"}},{"name":"Willi-Weyer-Str.","postalCode":"53340","locality":"Meckenheim","municipality":{"key":"05382032","name":"Meckenheim, Stadt","type":"Stadt"},"district":{"key":"05382","name":"Rhein-Sieg-Kreis","type":"Kreis"},"federalState":{"key":"05","name":"Nordrhein-Westfalen"}},{"name":"Wißfeldstr.","postalCode":"53340","locality":"Meckenheim","municipality":{"key":"05382032","name":"Meckenheim, Stadt","type":"Stadt"},"district":{"key":"05382","name":"Rhein-Sieg-Kreis","type":"Kreis"},"federalState":{"key":"05","name":"Nordrhein-Westfalen"}},{"name":"Wolkenburgstr.","postalCode":"53340","locality":"Meckenheim","municipality":{"key":"05382032","name":"Meckenheim, Stadt","type":"Stadt"},"district":{"key":"05382","name":"Rhein-Sieg-Kreis","type":"Kreis"},"federalState":{"key":"05","name":"Nordrhein-Westfalen"}},{"name":"Wormersdorfer Str.","postalCode":"53340","locality":"Meckenheim","municipality":{"key":"05382032","name":"Meckenheim, Stadt","type":"Stadt"},"district":{"key":"05382","name":"Rhein-Sieg-Kreis","type":"Kreis"},"federalState":{"key":"05","name":"Nordrhein-Westfalen"}},{"name":"Zedernweg","postalCode":"53340","locality":"Meckenheim","municipality":{"key":"05382032","name":"Meckenheim, Stadt","type":"Stadt"},"district":{"key":"05382","name":"Rhein-Sieg-Kreis","type":"Kreis"},"federalState":{"key":"05","name":"Nordrhein-Westfalen"}},{"name":"Zoppoter Str.","postalCode":"53340","locality":"Meckenheim","municipality":{"key":"05382032","name":"Meckenheim, Stadt","type":"Stadt"},"district":{"key":"05382","name":"Rhein-Sieg-Kreis","type":"Kreis"},"federalState":{"key":"05","name":"Nordrhein-Westfalen"}},{"name":"Zuckerbirnengasse","postalCode":"67149","locality":"Meckenheim","municipality":{"key":"07332035","name":"Meckenheim","type":"Kreisangehörige_Gemeinde"},"district":{"key":"07332","name":"Bad Dürkheim","type":"Landkreis"},"federalState":{"key":"07","name":"Rheinland-Pfalz"}},{"name":"Zypressenweg","postalCode":"53340","locality":"Meckenheim","municipality":{"key":"05382032","name":"Meckenheim, Stadt","type":"Stadt"},"district":{"key":"05382","name":"Rhein-Sieg-Kreis","type":"Kreis"},"federalState":{"key":"05","name":"Nordrhein-Westfalen"}},{"name":"Ölbergstr.","postalCode":"53340","locality":"Meckenheim","municipality":{"key":"05382032","name":"Meckenheim, Stadt","type":"Stadt"},"district":{"key":"05382","name":"Rhein-Sieg-Kreis","type":"Kreis"},"federalState":{"key":"05","name":"Nordrhein-Westfalen"}},]