[{"name":"Ahornweg","postalCode":"31073","locality":"Delligsen","municipality":{"key":"03255008","name":"Delligsen, Flecken","type":"Kreisangehörige_Gemeinde"},"district":{"key":"03255","name":"Holzminden","type":"Landkreis"},"federalState":{"key":"03","name":"Niedersachsen"}},{"name":"Alfelder Weg","postalCode":"31073","locality":"Delligsen","municipality":{"key":"03255008","name":"Delligsen, Flecken","type":"Kreisangehörige_Gemeinde"},"district":{"key":"03255","name":"Holzminden","type":"Landkreis"},"federalState":{"key":"03","name":"Niedersachsen"}},{"name":"Am Anger","postalCode":"31073","locality":"Delligsen","municipality":{"key":"03255008","name":"Delligsen, Flecken","type":"Kreisangehörige_Gemeinde"},"district":{"key":"03255","name":"Holzminden","type":"Landkreis"},"federalState":{"key":"03","name":"Niedersachsen"}},{"name":"Am Bach","postalCode":"31073","locality":"Delligsen","municipality":{"key":"03255008","name":"Delligsen, Flecken","type":"Kreisangehörige_Gemeinde"},"district":{"key":"03255","name":"Holzminden","type":"Landkreis"},"federalState":{"key":"03","name":"Niedersachsen"}},{"name":"Am Bocksberg","postalCode":"31073","locality":"Delligsen","municipality":{"key":"03255008","name":"Delligsen, Flecken","type":"Kreisangehörige_Gemeinde"},"district":{"key":"03255","name":"Holzminden","type":"Landkreis"},"federalState":{"key":"03","name":"Niedersachsen"}},{"name":"Am Breiten","postalCode":"31073","locality":"Delligsen","municipality":{"key":"03255008","name":"Delligsen, Flecken","type":"Kreisangehörige_Gemeinde"},"district":{"key":"03255","name":"Holzminden","type":"Landkreis"},"federalState":{"key":"03","name":"Niedersachsen"}},{"name":"Am Brinke","postalCode":"31073","locality":"Delligsen","municipality":{"key":"03255008","name":"Delligsen, Flecken","type":"Kreisangehörige_Gemeinde"},"district":{"key":"03255","name":"Holzminden","type":"Landkreis"},"federalState":{"key":"03","name":"Niedersachsen"}},{"name":"Am Brinkfeld","postalCode":"31073","locality":"Delligsen","municipality":{"key":"03255008","name":"Delligsen, Flecken","type":"Kreisangehörige_Gemeinde"},"district":{"key":"03255","name":"Holzminden","type":"Landkreis"},"federalState":{"key":"03","name":"Niedersachsen"}},{"name":"Am Büe","postalCode":"31073","locality":"Delligsen","municipality":{"key":"03255008","name":"Delligsen, Flecken","type":"Kreisangehörige_Gemeinde"},"district":{"key":"03255","name":"Holzminden","type":"Landkreis"},"federalState":{"key":"03","name":"Niedersachsen"}},{"name":"Am Campe","postalCode":"31073","locality":"Delligsen","municipality":{"key":"03255008","name":"Delligsen, Flecken","type":"Kreisangehörige_Gemeinde"},"district":{"key":"03255","name":"Holzminden","type":"Landkreis"},"federalState":{"key":"03","name":"Niedersachsen"}},{"name":"Am Ebersberg","postalCode":"31073","locality":"Delligsen","municipality":{"key":"03255008","name":"Delligsen, Flecken","type":"Kreisangehörige_Gemeinde"},"district":{"key":"03255","name":"Holzminden","type":"Landkreis"},"federalState":{"key":"03","name":"Niedersachsen"}},{"name":"Am Ende","postalCode":"31073","locality":"Delligsen","municipality":{"key":"03255008","name":"Delligsen, Flecken","type":"Kreisangehörige_Gemeinde"},"district":{"key":"03255","name":"Holzminden","type":"Landkreis"},"federalState":{"key":"03","name":"Niedersachsen"}},{"name":"Am Freibad","postalCode":"31073","locality":"Delligsen","municipality":{"key":"03255008","name":"Delligsen, Flecken","type":"Kreisangehörige_Gemeinde"},"district":{"key":"03255","name":"Holzminden","type":"Landkreis"},"federalState":{"key":"03","name":"Niedersachsen"}},{"name":"Am Gänsefuß","postalCode":"31073","locality":"Delligsen","municipality":{"key":"03255008","name":"Delligsen, Flecken","type":"Kreisangehörige_Gemeinde"},"district":{"key":"03255","name":"Holzminden","type":"Landkreis"},"federalState":{"key":"03","name":"Niedersachsen"}},{"name":"Am Gewerbering","postalCode":"31073","locality":"Delligsen","municipality":{"key":"03255008","name":"Delligsen, Flecken","type":"Kreisangehörige_Gemeinde"},"district":{"key":"03255","name":"Holzminden","type":"Landkreis"},"federalState":{"key":"03","name":"Niedersachsen"}},{"name":"Am Horstgraben","postalCode":"31073","locality":"Delligsen","municipality":{"key":"03255008","name":"Delligsen, Flecken","type":"Kreisangehörige_Gemeinde"},"district":{"key":"03255","name":"Holzminden","type":"Landkreis"},"federalState":{"key":"03","name":"Niedersachsen"}},{"name":"Am Kreuzweg","postalCode":"31073","locality":"Delligsen","municipality":{"key":"03255008","name":"Delligsen, Flecken","type":"Kreisangehörige_Gemeinde"},"district":{"key":"03255","name":"Holzminden","type":"Landkreis"},"federalState":{"key":"03","name":"Niedersachsen"}},{"name":"Am Meeser Berg","postalCode":"31073","locality":"Delligsen","municipality":{"key":"03255008","name":"Delligsen, Flecken","type":"Kreisangehörige_Gemeinde"},"district":{"key":"03255","name":"Holzminden","type":"Landkreis"},"federalState":{"key":"03","name":"Niedersachsen"}},{"name":"Am Papentale","postalCode":"31073","locality":"Delligsen","municipality":{"key":"03255008","name":"Delligsen, Flecken","type":"Kreisangehörige_Gemeinde"},"district":{"key":"03255","name":"Holzminden","type":"Landkreis"},"federalState":{"key":"03","name":"Niedersachsen"}},{"name":"Am Park","postalCode":"31073","locality":"Delligsen","municipality":{"key":"03255008","name":"Delligsen, Flecken","type":"Kreisangehörige_Gemeinde"},"district":{"key":"03255","name":"Holzminden","type":"Landkreis"},"federalState":{"key":"03","name":"Niedersachsen"}},{"name":"Am Rheinbach","postalCode":"31073","locality":"Delligsen","municipality":{"key":"03255008","name":"Delligsen, Flecken","type":"Kreisangehörige_Gemeinde"},"district":{"key":"03255","name":"Holzminden","type":"Landkreis"},"federalState":{"key":"03","name":"Niedersachsen"}},{"name":"Am Riefenberg","postalCode":"31073","locality":"Delligsen","municipality":{"key":"03255008","name":"Delligsen, Flecken","type":"Kreisangehörige_Gemeinde"},"district":{"key":"03255","name":"Holzminden","type":"Landkreis"},"federalState":{"key":"03","name":"Niedersachsen"}},{"name":"Am Sandbrink","postalCode":"31073","locality":"Delligsen","municipality":{"key":"03255008","name":"Delligsen, Flecken","type":"Kreisangehörige_Gemeinde"},"district":{"key":"03255","name":"Holzminden","type":"Landkreis"},"federalState":{"key":"03","name":"Niedersachsen"}},{"name":"Am Schneppel","postalCode":"31073","locality":"Delligsen","municipality":{"key":"03255008","name":"Delligsen, Flecken","type":"Kreisangehörige_Gemeinde"},"district":{"key":"03255","name":"Holzminden","type":"Landkreis"},"federalState":{"key":"03","name":"Niedersachsen"}},{"name":"Amselstieg","postalCode":"31073","locality":"Delligsen","municipality":{"key":"03255008","name":"Delligsen, Flecken","type":"Kreisangehörige_Gemeinde"},"district":{"key":"03255","name":"Holzminden","type":"Landkreis"},"federalState":{"key":"03","name":"Niedersachsen"}},{"name":"Am Sportplatz","postalCode":"31073","locality":"Delligsen","municipality":{"key":"03255008","name":"Delligsen, Flecken","type":"Kreisangehörige_Gemeinde"},"district":{"key":"03255","name":"Holzminden","type":"Landkreis"},"federalState":{"key":"03","name":"Niedersachsen"}},{"name":"An den Teichen","postalCode":"31073","locality":"Delligsen","municipality":{"key":"03255008","name":"Delligsen, Flecken","type":"Kreisangehörige_Gemeinde"},"district":{"key":"03255","name":"Holzminden","type":"Landkreis"},"federalState":{"key":"03","name":"Niedersachsen"}},{"name":"An der Bundesstr.","postalCode":"31073","locality":"Delligsen","municipality":{"key":"03255008","name":"Delligsen, Flecken","type":"Kreisangehörige_Gemeinde"},"district":{"key":"03255","name":"Holzminden","type":"Landkreis"},"federalState":{"key":"03","name":"Niedersachsen"}},{"name":"An der Platte","postalCode":"31073","locality":"Delligsen","municipality":{"key":"03255008","name":"Delligsen, Flecken","type":"Kreisangehörige_Gemeinde"},"district":{"key":"03255","name":"Holzminden","type":"Landkreis"},"federalState":{"key":"03","name":"Niedersachsen"}},{"name":"An der Stiege","postalCode":"31073","locality":"Delligsen","municipality":{"key":"03255008","name":"Delligsen, Flecken","type":"Kreisangehörige_Gemeinde"},"district":{"key":"03255","name":"Holzminden","type":"Landkreis"},"federalState":{"key":"03","name":"Niedersachsen"}},{"name":"An der Thingstätte","postalCode":"31073","locality":"Delligsen","municipality":{"key":"03255008","name":"Delligsen, Flecken","type":"Kreisangehörige_Gemeinde"},"district":{"key":"03255","name":"Holzminden","type":"Landkreis"},"federalState":{"key":"03","name":"Niedersachsen"}},{"name":"Annenstr.","postalCode":"31073","locality":"Delligsen","municipality":{"key":"03255008","name":"Delligsen, Flecken","type":"Kreisangehörige_Gemeinde"},"district":{"key":"03255","name":"Holzminden","type":"Landkreis"},"federalState":{"key":"03","name":"Niedersachsen"}},{"name":"Auf dem Böhne-Brinke","postalCode":"31073","locality":"Delligsen","municipality":{"key":"03255008","name":"Delligsen, Flecken","type":"Kreisangehörige_Gemeinde"},"district":{"key":"03255","name":"Holzminden","type":"Landkreis"},"federalState":{"key":"03","name":"Niedersachsen"}},{"name":"Auf den Eschenäckern","postalCode":"31073","locality":"Delligsen","municipality":{"key":"03255008","name":"Delligsen, Flecken","type":"Kreisangehörige_Gemeinde"},"district":{"key":"03255","name":"Holzminden","type":"Landkreis"},"federalState":{"key":"03","name":"Niedersachsen"}},{"name":"Auf der Lieth","postalCode":"31073","locality":"Delligsen","municipality":{"key":"03255008","name":"Delligsen, Flecken","type":"Kreisangehörige_Gemeinde"},"district":{"key":"03255","name":"Holzminden","type":"Landkreis"},"federalState":{"key":"03","name":"Niedersachsen"}},{"name":"Auf der Wiese","postalCode":"31073","locality":"Delligsen","municipality":{"key":"03255008","name":"Delligsen, Flecken","type":"Kreisangehörige_Gemeinde"},"district":{"key":"03255","name":"Holzminden","type":"Landkreis"},"federalState":{"key":"03","name":"Niedersachsen"}},{"name":"August-Engels-Str.","postalCode":"31073","locality":"Delligsen","municipality":{"key":"03255008","name":"Delligsen, Flecken","type":"Kreisangehörige_Gemeinde"},"district":{"key":"03255","name":"Holzminden","type":"Landkreis"},"federalState":{"key":"03","name":"Niedersachsen"}},{"name":"August-Reuter-Str.","postalCode":"31073","locality":"Delligsen","municipality":{"key":"03255008","name":"Delligsen, Flecken","type":"Kreisangehörige_Gemeinde"},"district":{"key":"03255","name":"Holzminden","type":"Landkreis"},"federalState":{"key":"03","name":"Niedersachsen"}},{"name":"Bäckergasse","postalCode":"31073","locality":"Delligsen","municipality":{"key":"03255008","name":"Delligsen, Flecken","type":"Kreisangehörige_Gemeinde"},"district":{"key":"03255","name":"Holzminden","type":"Landkreis"},"federalState":{"key":"03","name":"Niedersachsen"}},{"name":"Bahnhofstr.","postalCode":"31073","locality":"Delligsen","municipality":{"key":"03255008","name":"Delligsen, Flecken","type":"Kreisangehörige_Gemeinde"},"district":{"key":"03255","name":"Holzminden","type":"Landkreis"},"federalState":{"key":"03","name":"Niedersachsen"}},{"name":"Berghof","postalCode":"31073","locality":"Delligsen","municipality":{"key":"03255008","name":"Delligsen, Flecken","type":"Kreisangehörige_Gemeinde"},"district":{"key":"03255","name":"Holzminden","type":"Landkreis"},"federalState":{"key":"03","name":"Niedersachsen"}},{"name":"Bergrat-Koch-Str.","postalCode":"31073","locality":"Delligsen","municipality":{"key":"03255008","name":"Delligsen, Flecken","type":"Kreisangehörige_Gemeinde"},"district":{"key":"03255","name":"Holzminden","type":"Landkreis"},"federalState":{"key":"03","name":"Niedersachsen"}},{"name":"Bergstr.","postalCode":"31073","locality":"Delligsen","municipality":{"key":"03255008","name":"Delligsen, Flecken","type":"Kreisangehörige_Gemeinde"},"district":{"key":"03255","name":"Holzminden","type":"Landkreis"},"federalState":{"key":"03","name":"Niedersachsen"}},{"name":"Birkenweg","postalCode":"31073","locality":"Delligsen","municipality":{"key":"03255008","name":"Delligsen, Flecken","type":"Kreisangehörige_Gemeinde"},"district":{"key":"03255","name":"Holzminden","type":"Landkreis"},"federalState":{"key":"03","name":"Niedersachsen"}},{"name":"Birkholzweg","postalCode":"31073","locality":"Delligsen","municipality":{"key":"03255008","name":"Delligsen, Flecken","type":"Kreisangehörige_Gemeinde"},"district":{"key":"03255","name":"Holzminden","type":"Landkreis"},"federalState":{"key":"03","name":"Niedersachsen"}},{"name":"Blankeweg","postalCode":"31073","locality":"Delligsen","municipality":{"key":"03255008","name":"Delligsen, Flecken","type":"Kreisangehörige_Gemeinde"},"district":{"key":"03255","name":"Holzminden","type":"Landkreis"},"federalState":{"key":"03","name":"Niedersachsen"}},{"name":"Blumenstr.","postalCode":"31073","locality":"Delligsen","municipality":{"key":"03255008","name":"Delligsen, Flecken","type":"Kreisangehörige_Gemeinde"},"district":{"key":"03255","name":"Holzminden","type":"Landkreis"},"federalState":{"key":"03","name":"Niedersachsen"}},{"name":"Bornemannshausen","postalCode":"31073","locality":"Delligsen","municipality":{"key":"03255008","name":"Delligsen, Flecken","type":"Kreisangehörige_Gemeinde"},"district":{"key":"03255","name":"Holzminden","type":"Landkreis"},"federalState":{"key":"03","name":"Niedersachsen"}},{"name":"Braunschweiger Str.","postalCode":"31073","locality":"Delligsen","municipality":{"key":"03255008","name":"Delligsen, Flecken","type":"Kreisangehörige_Gemeinde"},"district":{"key":"03255","name":"Holzminden","type":"Landkreis"},"federalState":{"key":"03","name":"Niedersachsen"}},{"name":"Breslauer Str.","postalCode":"31073","locality":"Delligsen","municipality":{"key":"03255008","name":"Delligsen, Flecken","type":"Kreisangehörige_Gemeinde"},"district":{"key":"03255","name":"Holzminden","type":"Landkreis"},"federalState":{"key":"03","name":"Niedersachsen"}},{"name":"Brinkstr.","postalCode":"31073","locality":"Delligsen","municipality":{"key":"03255008","name":"Delligsen, Flecken","type":"Kreisangehörige_Gemeinde"},"district":{"key":"03255","name":"Holzminden","type":"Landkreis"},"federalState":{"key":"03","name":"Niedersachsen"}},{"name":"Brunnenweg","postalCode":"31073","locality":"Delligsen","municipality":{"key":"03255008","name":"Delligsen, Flecken","type":"Kreisangehörige_Gemeinde"},"district":{"key":"03255","name":"Holzminden","type":"Landkreis"},"federalState":{"key":"03","name":"Niedersachsen"}},{"name":"Buchholzweg","postalCode":"31073","locality":"Delligsen","municipality":{"key":"03255008","name":"Delligsen, Flecken","type":"Kreisangehörige_Gemeinde"},"district":{"key":"03255","name":"Holzminden","type":"Landkreis"},"federalState":{"key":"03","name":"Niedersachsen"}},{"name":"Bürgermeister-Hesse-Str.","postalCode":"31073","locality":"Delligsen","municipality":{"key":"03255008","name":"Delligsen, Flecken","type":"Kreisangehörige_Gemeinde"},"district":{"key":"03255","name":"Holzminden","type":"Landkreis"},"federalState":{"key":"03","name":"Niedersachsen"}},{"name":"Burggrund","postalCode":"31073","locality":"Delligsen","municipality":{"key":"03255008","name":"Delligsen, Flecken","type":"Kreisangehörige_Gemeinde"},"district":{"key":"03255","name":"Holzminden","type":"Landkreis"},"federalState":{"key":"03","name":"Niedersachsen"}},{"name":"Carlstr.","postalCode":"31073","locality":"Delligsen","municipality":{"key":"03255008","name":"Delligsen, Flecken","type":"Kreisangehörige_Gemeinde"},"district":{"key":"03255","name":"Holzminden","type":"Landkreis"},"federalState":{"key":"03","name":"Niedersachsen"}},{"name":"Carl-Zeiss-Str.","postalCode":"31073","locality":"Delligsen","municipality":{"key":"03255008","name":"Delligsen, Flecken","type":"Kreisangehörige_Gemeinde"},"district":{"key":"03255","name":"Holzminden","type":"Landkreis"},"federalState":{"key":"03","name":"Niedersachsen"}},{"name":"Dorfstr.","postalCode":"31073","locality":"Delligsen","municipality":{"key":"03255008","name":"Delligsen, Flecken","type":"Kreisangehörige_Gemeinde"},"district":{"key":"03255","name":"Holzminden","type":"Landkreis"},"federalState":{"key":"03","name":"Niedersachsen"}},{"name":"Drachenhohl","postalCode":"31073","locality":"Delligsen","municipality":{"key":"03255008","name":"Delligsen, Flecken","type":"Kreisangehörige_Gemeinde"},"district":{"key":"03255","name":"Holzminden","type":"Landkreis"},"federalState":{"key":"03","name":"Niedersachsen"}},{"name":"Dr. Jasper-Str.","postalCode":"31073","locality":"Delligsen","municipality":{"key":"03255008","name":"Delligsen, Flecken","type":"Kreisangehörige_Gemeinde"},"district":{"key":"03255","name":"Holzminden","type":"Landkreis"},"federalState":{"key":"03","name":"Niedersachsen"}},{"name":"Dr.-Jasper-Str.","postalCode":"31073","locality":"Delligsen","municipality":{"key":"03255008","name":"Delligsen, Flecken","type":"Kreisangehörige_Gemeinde"},"district":{"key":"03255","name":"Holzminden","type":"Landkreis"},"federalState":{"key":"03","name":"Niedersachsen"}},{"name":"Düsterntal","postalCode":"31073","locality":"Delligsen","municipality":{"key":"03255008","name":"Delligsen, Flecken","type":"Kreisangehörige_Gemeinde"},"district":{"key":"03255","name":"Holzminden","type":"Landkreis"},"federalState":{"key":"03","name":"Niedersachsen"}},{"name":"Eichenkamp","postalCode":"31073","locality":"Delligsen","municipality":{"key":"03255008","name":"Delligsen, Flecken","type":"Kreisangehörige_Gemeinde"},"district":{"key":"03255","name":"Holzminden","type":"Landkreis"},"federalState":{"key":"03","name":"Niedersachsen"}},{"name":"Eichenweg","postalCode":"31073","locality":"Delligsen","municipality":{"key":"03255008","name":"Delligsen, Flecken","type":"Kreisangehörige_Gemeinde"},"district":{"key":"03255","name":"Holzminden","type":"Landkreis"},"federalState":{"key":"03","name":"Niedersachsen"}},{"name":"Elligserbrinkstr.","postalCode":"31073","locality":"Delligsen","municipality":{"key":"03255008","name":"Delligsen, Flecken","type":"Kreisangehörige_Gemeinde"},"district":{"key":"03255","name":"Holzminden","type":"Landkreis"},"federalState":{"key":"03","name":"Niedersachsen"}},{"name":"Falkenweg","postalCode":"31073","locality":"Delligsen","municipality":{"key":"03255008","name":"Delligsen, Flecken","type":"Kreisangehörige_Gemeinde"},"district":{"key":"03255","name":"Holzminden","type":"Landkreis"},"federalState":{"key":"03","name":"Niedersachsen"}},{"name":"Fasanenweg","postalCode":"31073","locality":"Delligsen","municipality":{"key":"03255008","name":"Delligsen, Flecken","type":"Kreisangehörige_Gemeinde"},"district":{"key":"03255","name":"Holzminden","type":"Landkreis"},"federalState":{"key":"03","name":"Niedersachsen"}},{"name":"Feldwiesen","postalCode":"31073","locality":"Delligsen","municipality":{"key":"03255008","name":"Delligsen, Flecken","type":"Kreisangehörige_Gemeinde"},"district":{"key":"03255","name":"Holzminden","type":"Landkreis"},"federalState":{"key":"03","name":"Niedersachsen"}},{"name":"Fredener Str.","postalCode":"31073","locality":"Delligsen","municipality":{"key":"03255008","name":"Delligsen, Flecken","type":"Kreisangehörige_Gemeinde"},"district":{"key":"03255","name":"Holzminden","type":"Landkreis"},"federalState":{"key":"03","name":"Niedersachsen"}},{"name":"Fuhrmannstr.","postalCode":"31073","locality":"Delligsen","municipality":{"key":"03255008","name":"Delligsen, Flecken","type":"Kreisangehörige_Gemeinde"},"district":{"key":"03255","name":"Holzminden","type":"Landkreis"},"federalState":{"key":"03","name":"Niedersachsen"}},{"name":"Gartenstr.","postalCode":"31073","locality":"Delligsen","municipality":{"key":"03255008","name":"Delligsen, Flecken","type":"Kreisangehörige_Gemeinde"},"district":{"key":"03255","name":"Holzminden","type":"Landkreis"},"federalState":{"key":"03","name":"Niedersachsen"}},{"name":"Geierhütten","postalCode":"31073","locality":"Delligsen","municipality":{"key":"03255008","name":"Delligsen, Flecken","type":"Kreisangehörige_Gemeinde"},"district":{"key":"03255","name":"Holzminden","type":"Landkreis"},"federalState":{"key":"03","name":"Niedersachsen"}},{"name":"Gelbes Wasser","postalCode":"31073","locality":"Delligsen","municipality":{"key":"03255008","name":"Delligsen, Flecken","type":"Kreisangehörige_Gemeinde"},"district":{"key":"03255","name":"Holzminden","type":"Landkreis"},"federalState":{"key":"03","name":"Niedersachsen"}},{"name":"Gießereistr.","postalCode":"31073","locality":"Delligsen","municipality":{"key":"03255008","name":"Delligsen, Flecken","type":"Kreisangehörige_Gemeinde"},"district":{"key":"03255","name":"Holzminden","type":"Landkreis"},"federalState":{"key":"03","name":"Niedersachsen"}},{"name":"Göttinger Str.","postalCode":"31073","locality":"Delligsen","municipality":{"key":"03255008","name":"Delligsen, Flecken","type":"Kreisangehörige_Gemeinde"},"district":{"key":"03255","name":"Holzminden","type":"Landkreis"},"federalState":{"key":"03","name":"Niedersachsen"}},{"name":"Greinerstr.","postalCode":"31073","locality":"Delligsen","municipality":{"key":"03255008","name":"Delligsen, Flecken","type":"Kreisangehörige_Gemeinde"},"district":{"key":"03255","name":"Holzminden","type":"Landkreis"},"federalState":{"key":"03","name":"Niedersachsen"}},{"name":"Grünberger Str.","postalCode":"31073","locality":"Delligsen","municipality":{"key":"03255008","name":"Delligsen, Flecken","type":"Kreisangehörige_Gemeinde"},"district":{"key":"03255","name":"Holzminden","type":"Landkreis"},"federalState":{"key":"03","name":"Niedersachsen"}},{"name":"Gülder Weg","postalCode":"31073","locality":"Delligsen","municipality":{"key":"03255008","name":"Delligsen, Flecken","type":"Kreisangehörige_Gemeinde"},"district":{"key":"03255","name":"Holzminden","type":"Landkreis"},"federalState":{"key":"03","name":"Niedersachsen"}},{"name":"Hagentalstr.","postalCode":"31073","locality":"Delligsen","municipality":{"key":"03255008","name":"Delligsen, Flecken","type":"Kreisangehörige_Gemeinde"},"district":{"key":"03255","name":"Holzminden","type":"Landkreis"},"federalState":{"key":"03","name":"Niedersachsen"}},{"name":"Hainbergstr.","postalCode":"31073","locality":"Delligsen","municipality":{"key":"03255008","name":"Delligsen, Flecken","type":"Kreisangehörige_Gemeinde"},"district":{"key":"03255","name":"Holzminden","type":"Landkreis"},"federalState":{"key":"03","name":"Niedersachsen"}},{"name":"Hainbruchstr.","postalCode":"31073","locality":"Delligsen","municipality":{"key":"03255008","name":"Delligsen, Flecken","type":"Kreisangehörige_Gemeinde"},"district":{"key":"03255","name":"Holzminden","type":"Landkreis"},"federalState":{"key":"03","name":"Niedersachsen"}},{"name":"Hartmannstr.","postalCode":"31073","locality":"Delligsen","municipality":{"key":"03255008","name":"Delligsen, Flecken","type":"Kreisangehörige_Gemeinde"},"district":{"key":"03255","name":"Holzminden","type":"Landkreis"},"federalState":{"key":"03","name":"Niedersachsen"}},{"name":"Hasselhorst","postalCode":"31073","locality":"Delligsen","municipality":{"key":"03255008","name":"Delligsen, Flecken","type":"Kreisangehörige_Gemeinde"},"district":{"key":"03255","name":"Holzminden","type":"Landkreis"},"federalState":{"key":"03","name":"Niedersachsen"}},{"name":"Hauptstr.","postalCode":"31073","locality":"Delligsen","municipality":{"key":"03255008","name":"Delligsen, Flecken","type":"Kreisangehörige_Gemeinde"},"district":{"key":"03255","name":"Holzminden","type":"Landkreis"},"federalState":{"key":"03","name":"Niedersachsen"}},{"name":"Heilige Aue","postalCode":"31073","locality":"Delligsen","municipality":{"key":"03255008","name":"Delligsen, Flecken","type":"Kreisangehörige_Gemeinde"},"district":{"key":"03255","name":"Holzminden","type":"Landkreis"},"federalState":{"key":"03","name":"Niedersachsen"}},{"name":"Heinrich-Gereke-Str.","postalCode":"31073","locality":"Delligsen","municipality":{"key":"03255008","name":"Delligsen, Flecken","type":"Kreisangehörige_Gemeinde"},"district":{"key":"03255","name":"Holzminden","type":"Landkreis"},"federalState":{"key":"03","name":"Niedersachsen"}},{"name":"Herrendienstanger","postalCode":"31073","locality":"Delligsen","municipality":{"key":"03255008","name":"Delligsen, Flecken","type":"Kreisangehörige_Gemeinde"},"district":{"key":"03255","name":"Holzminden","type":"Landkreis"},"federalState":{"key":"03","name":"Niedersachsen"}},{"name":"Herzog-Julius-Str.","postalCode":"31073","locality":"Delligsen","municipality":{"key":"03255008","name":"Delligsen, Flecken","type":"Kreisangehörige_Gemeinde"},"district":{"key":"03255","name":"Holzminden","type":"Landkreis"},"federalState":{"key":"03","name":"Niedersachsen"}},{"name":"Herzogstr.","postalCode":"31073","locality":"Delligsen","municipality":{"key":"03255008","name":"Delligsen, Flecken","type":"Kreisangehörige_Gemeinde"},"district":{"key":"03255","name":"Holzminden","type":"Landkreis"},"federalState":{"key":"03","name":"Niedersachsen"}},{"name":"Hilsstr.","postalCode":"31073","locality":"Delligsen","municipality":{"key":"03255008","name":"Delligsen, Flecken","type":"Kreisangehörige_Gemeinde"},"district":{"key":"03255","name":"Holzminden","type":"Landkreis"},"federalState":{"key":"03","name":"Niedersachsen"}},{"name":"Hinter dem Wasser","postalCode":"31073","locality":"Delligsen","municipality":{"key":"03255008","name":"Delligsen, Flecken","type":"Kreisangehörige_Gemeinde"},"district":{"key":"03255","name":"Holzminden","type":"Landkreis"},"federalState":{"key":"03","name":"Niedersachsen"}},{"name":"Hinter den Höfen","postalCode":"31073","locality":"Delligsen","municipality":{"key":"03255008","name":"Delligsen, Flecken","type":"Kreisangehörige_Gemeinde"},"district":{"key":"03255","name":"Holzminden","type":"Landkreis"},"federalState":{"key":"03","name":"Niedersachsen"}},{"name":"Hinter der Mühle","postalCode":"31073","locality":"Delligsen","municipality":{"key":"03255008","name":"Delligsen, Flecken","type":"Kreisangehörige_Gemeinde"},"district":{"key":"03255","name":"Holzminden","type":"Landkreis"},"federalState":{"key":"03","name":"Niedersachsen"}},{"name":"Hochofen","postalCode":"31073","locality":"Delligsen","municipality":{"key":"03255008","name":"Delligsen, Flecken","type":"Kreisangehörige_Gemeinde"},"district":{"key":"03255","name":"Holzminden","type":"Landkreis"},"federalState":{"key":"03","name":"Niedersachsen"}},{"name":"Hochstr.","postalCode":"31073","locality":"Delligsen","municipality":{"key":"03255008","name":"Delligsen, Flecken","type":"Kreisangehörige_Gemeinde"},"district":{"key":"03255","name":"Holzminden","type":"Landkreis"},"federalState":{"key":"03","name":"Niedersachsen"}},{"name":"Hofetstiege","postalCode":"31073","locality":"Delligsen","municipality":{"key":"03255008","name":"Delligsen, Flecken","type":"Kreisangehörige_Gemeinde"},"district":{"key":"03255","name":"Holzminden","type":"Landkreis"},"federalState":{"key":"03","name":"Niedersachsen"}},{"name":"Hohe Warte","postalCode":"31073","locality":"Delligsen","municipality":{"key":"03255008","name":"Delligsen, Flecken","type":"Kreisangehörige_Gemeinde"},"district":{"key":"03255","name":"Holzminden","type":"Landkreis"},"federalState":{"key":"03","name":"Niedersachsen"}},{"name":"Holunderweg","postalCode":"31073","locality":"Delligsen","municipality":{"key":"03255008","name":"Delligsen, Flecken","type":"Kreisangehörige_Gemeinde"},"district":{"key":"03255","name":"Holzminden","type":"Landkreis"},"federalState":{"key":"03","name":"Niedersachsen"}},{"name":"Holzbergstr.","postalCode":"31073","locality":"Delligsen","municipality":{"key":"03255008","name":"Delligsen, Flecken","type":"Kreisangehörige_Gemeinde"},"district":{"key":"03255","name":"Holzminden","type":"Landkreis"},"federalState":{"key":"03","name":"Niedersachsen"}},{"name":"Hühnerweg","postalCode":"31073","locality":"Delligsen","municipality":{"key":"03255008","name":"Delligsen, Flecken","type":"Kreisangehörige_Gemeinde"},"district":{"key":"03255","name":"Holzminden","type":"Landkreis"},"federalState":{"key":"03","name":"Niedersachsen"}},{"name":"Hüttenstr.","postalCode":"31073","locality":"Delligsen","municipality":{"key":"03255008","name":"Delligsen, Flecken","type":"Kreisangehörige_Gemeinde"},"district":{"key":"03255","name":"Holzminden","type":"Landkreis"},"federalState":{"key":"03","name":"Niedersachsen"}},{"name":"Idtberg","postalCode":"31073","locality":"Delligsen","municipality":{"key":"03255008","name":"Delligsen, Flecken","type":"Kreisangehörige_Gemeinde"},"district":{"key":"03255","name":"Holzminden","type":"Landkreis"},"federalState":{"key":"03","name":"Niedersachsen"}},{"name":"Idtbergweg","postalCode":"31073","locality":"Delligsen","municipality":{"key":"03255008","name":"Delligsen, Flecken","type":"Kreisangehörige_Gemeinde"},"district":{"key":"03255","name":"Holzminden","type":"Landkreis"},"federalState":{"key":"03","name":"Niedersachsen"}},{"name":"Im Krümpel","postalCode":"31073","locality":"Delligsen","municipality":{"key":"03255008","name":"Delligsen, Flecken","type":"Kreisangehörige_Gemeinde"},"district":{"key":"03255","name":"Holzminden","type":"Landkreis"},"federalState":{"key":"03","name":"Niedersachsen"}},{"name":"Im Meere","postalCode":"31073","locality":"Delligsen","municipality":{"key":"03255008","name":"Delligsen, Flecken","type":"Kreisangehörige_Gemeinde"},"district":{"key":"03255","name":"Holzminden","type":"Landkreis"},"federalState":{"key":"03","name":"Niedersachsen"}},{"name":"Im Winkel","postalCode":"31073","locality":"Delligsen","municipality":{"key":"03255008","name":"Delligsen, Flecken","type":"Kreisangehörige_Gemeinde"},"district":{"key":"03255","name":"Holzminden","type":"Landkreis"},"federalState":{"key":"03","name":"Niedersachsen"}},{"name":"Ith-Hils-Weg","postalCode":"31073","locality":"Delligsen","municipality":{"key":"03255008","name":"Delligsen, Flecken","type":"Kreisangehörige_Gemeinde"},"district":{"key":"03255","name":"Holzminden","type":"Landkreis"},"federalState":{"key":"03","name":"Niedersachsen"}},{"name":"Jahnstr.","postalCode":"31073","locality":"Delligsen","municipality":{"key":"03255008","name":"Delligsen, Flecken","type":"Kreisangehörige_Gemeinde"},"district":{"key":"03255","name":"Holzminden","type":"Landkreis"},"federalState":{"key":"03","name":"Niedersachsen"}},{"name":"Johannisanger","postalCode":"31073","locality":"Delligsen","municipality":{"key":"03255008","name":"Delligsen, Flecken","type":"Kreisangehörige_Gemeinde"},"district":{"key":"03255","name":"Holzminden","type":"Landkreis"},"federalState":{"key":"03","name":"Niedersachsen"}},{"name":"Kaierder Str.","postalCode":"31073","locality":"Delligsen","municipality":{"key":"03255008","name":"Delligsen, Flecken","type":"Kreisangehörige_Gemeinde"},"district":{"key":"03255","name":"Holzminden","type":"Landkreis"},"federalState":{"key":"03","name":"Niedersachsen"}},{"name":"Kälberkamp","postalCode":"31073","locality":"Delligsen","municipality":{"key":"03255008","name":"Delligsen, Flecken","type":"Kreisangehörige_Gemeinde"},"district":{"key":"03255","name":"Holzminden","type":"Landkreis"},"federalState":{"key":"03","name":"Niedersachsen"}},{"name":"Kälbersiek","postalCode":"31073","locality":"Delligsen","municipality":{"key":"03255008","name":"Delligsen, Flecken","type":"Kreisangehörige_Gemeinde"},"district":{"key":"03255","name":"Holzminden","type":"Landkreis"},"federalState":{"key":"03","name":"Niedersachsen"}},{"name":"Kapellenweg","postalCode":"31073","locality":"Delligsen","municipality":{"key":"03255008","name":"Delligsen, Flecken","type":"Kreisangehörige_Gemeinde"},"district":{"key":"03255","name":"Holzminden","type":"Landkreis"},"federalState":{"key":"03","name":"Niedersachsen"}},{"name":"Kirchtalstr.","postalCode":"31073","locality":"Delligsen","municipality":{"key":"03255008","name":"Delligsen, Flecken","type":"Kreisangehörige_Gemeinde"},"district":{"key":"03255","name":"Holzminden","type":"Landkreis"},"federalState":{"key":"03","name":"Niedersachsen"}},{"name":"Klus","postalCode":"31073","locality":"Delligsen","municipality":{"key":"03255008","name":"Delligsen, Flecken","type":"Kreisangehörige_Gemeinde"},"district":{"key":"03255","name":"Holzminden","type":"Landkreis"},"federalState":{"key":"03","name":"Niedersachsen"}},{"name":"Köhlerstr.","postalCode":"31073","locality":"Delligsen","municipality":{"key":"03255008","name":"Delligsen, Flecken","type":"Kreisangehörige_Gemeinde"},"district":{"key":"03255","name":"Holzminden","type":"Landkreis"},"federalState":{"key":"03","name":"Niedersachsen"}},{"name":"Kreuzbleek","postalCode":"31073","locality":"Delligsen","municipality":{"key":"03255008","name":"Delligsen, Flecken","type":"Kreisangehörige_Gemeinde"},"district":{"key":"03255","name":"Holzminden","type":"Landkreis"},"federalState":{"key":"03","name":"Niedersachsen"}},{"name":"Kruckweg","postalCode":"31073","locality":"Delligsen","municipality":{"key":"03255008","name":"Delligsen, Flecken","type":"Kreisangehörige_Gemeinde"},"district":{"key":"03255","name":"Holzminden","type":"Landkreis"},"federalState":{"key":"03","name":"Niedersachsen"}},{"name":"Kurhausweg","postalCode":"31073","locality":"Delligsen","municipality":{"key":"03255008","name":"Delligsen, Flecken","type":"Kreisangehörige_Gemeinde"},"district":{"key":"03255","name":"Holzminden","type":"Landkreis"},"federalState":{"key":"03","name":"Niedersachsen"}},{"name":"Kurze Schulstr.","postalCode":"31073","locality":"Delligsen","municipality":{"key":"03255008","name":"Delligsen, Flecken","type":"Kreisangehörige_Gemeinde"},"district":{"key":"03255","name":"Holzminden","type":"Landkreis"},"federalState":{"key":"03","name":"Niedersachsen"}},{"name":"Kurze Str.","postalCode":"31073","locality":"Delligsen","municipality":{"key":"03255008","name":"Delligsen, Flecken","type":"Kreisangehörige_Gemeinde"},"district":{"key":"03255","name":"Holzminden","type":"Landkreis"},"federalState":{"key":"03","name":"Niedersachsen"}},{"name":"Lange Schulstr.","postalCode":"31073","locality":"Delligsen","municipality":{"key":"03255008","name":"Delligsen, Flecken","type":"Kreisangehörige_Gemeinde"},"district":{"key":"03255","name":"Holzminden","type":"Landkreis"},"federalState":{"key":"03","name":"Niedersachsen"}},{"name":"Lehmkuhle","postalCode":"31073","locality":"Delligsen","municipality":{"key":"03255008","name":"Delligsen, Flecken","type":"Kreisangehörige_Gemeinde"},"district":{"key":"03255","name":"Holzminden","type":"Landkreis"},"federalState":{"key":"03","name":"Niedersachsen"}},{"name":"Lilienweg","postalCode":"31073","locality":"Delligsen","municipality":{"key":"03255008","name":"Delligsen, Flecken","type":"Kreisangehörige_Gemeinde"},"district":{"key":"03255","name":"Holzminden","type":"Landkreis"},"federalState":{"key":"03","name":"Niedersachsen"}},{"name":"Lindenweg","postalCode":"31073","locality":"Delligsen","municipality":{"key":"03255008","name":"Delligsen, Flecken","type":"Kreisangehörige_Gemeinde"},"district":{"key":"03255","name":"Holzminden","type":"Landkreis"},"federalState":{"key":"03","name":"Niedersachsen"}},{"name":"Lochweg","postalCode":"31073","locality":"Delligsen","municipality":{"key":"03255008","name":"Delligsen, Flecken","type":"Kreisangehörige_Gemeinde"},"district":{"key":"03255","name":"Holzminden","type":"Landkreis"},"federalState":{"key":"03","name":"Niedersachsen"}},{"name":"Ludwig-Menge-Str.","postalCode":"31073","locality":"Delligsen","municipality":{"key":"03255008","name":"Delligsen, Flecken","type":"Kreisangehörige_Gemeinde"},"district":{"key":"03255","name":"Holzminden","type":"Landkreis"},"federalState":{"key":"03","name":"Niedersachsen"}},{"name":"Markeldissen","postalCode":"31073","locality":"Delligsen","municipality":{"key":"03255008","name":"Delligsen, Flecken","type":"Kreisangehörige_Gemeinde"},"district":{"key":"03255","name":"Holzminden","type":"Landkreis"},"federalState":{"key":"03","name":"Niedersachsen"}},{"name":"Markeldisser Weg","postalCode":"31073","locality":"Delligsen","municipality":{"key":"03255008","name":"Delligsen, Flecken","type":"Kreisangehörige_Gemeinde"},"district":{"key":"03255","name":"Holzminden","type":"Landkreis"},"federalState":{"key":"03","name":"Niedersachsen"}},{"name":"Marktstiege","postalCode":"31073","locality":"Delligsen","municipality":{"key":"03255008","name":"Delligsen, Flecken","type":"Kreisangehörige_Gemeinde"},"district":{"key":"03255","name":"Holzminden","type":"Landkreis"},"federalState":{"key":"03","name":"Niedersachsen"}},{"name":"Maschstr.","postalCode":"31073","locality":"Delligsen","municipality":{"key":"03255008","name":"Delligsen, Flecken","type":"Kreisangehörige_Gemeinde"},"district":{"key":"03255","name":"Holzminden","type":"Landkreis"},"federalState":{"key":"03","name":"Niedersachsen"}},{"name":"Mittal","postalCode":"31073","locality":"Delligsen","municipality":{"key":"03255008","name":"Delligsen, Flecken","type":"Kreisangehörige_Gemeinde"},"district":{"key":"03255","name":"Holzminden","type":"Landkreis"},"federalState":{"key":"03","name":"Niedersachsen"}},{"name":"Mittelstr.","postalCode":"31073","locality":"Delligsen","municipality":{"key":"03255008","name":"Delligsen, Flecken","type":"Kreisangehörige_Gemeinde"},"district":{"key":"03255","name":"Holzminden","type":"Landkreis"},"federalState":{"key":"03","name":"Niedersachsen"}},{"name":"Mühlenbrink","postalCode":"31073","locality":"Delligsen","municipality":{"key":"03255008","name":"Delligsen, Flecken","type":"Kreisangehörige_Gemeinde"},"district":{"key":"03255","name":"Holzminden","type":"Landkreis"},"federalState":{"key":"03","name":"Niedersachsen"}},{"name":"Mühlenstr.","postalCode":"31073","locality":"Delligsen","municipality":{"key":"03255008","name":"Delligsen, Flecken","type":"Kreisangehörige_Gemeinde"},"district":{"key":"03255","name":"Holzminden","type":"Landkreis"},"federalState":{"key":"03","name":"Niedersachsen"}},{"name":"Mühlenweg","postalCode":"31073","locality":"Delligsen","municipality":{"key":"03255008","name":"Delligsen, Flecken","type":"Kreisangehörige_Gemeinde"},"district":{"key":"03255","name":"Holzminden","type":"Landkreis"},"federalState":{"key":"03","name":"Niedersachsen"}},{"name":"Nelkenweg","postalCode":"31073","locality":"Delligsen","municipality":{"key":"03255008","name":"Delligsen, Flecken","type":"Kreisangehörige_Gemeinde"},"district":{"key":"03255","name":"Holzminden","type":"Landkreis"},"federalState":{"key":"03","name":"Niedersachsen"}},{"name":"Neue Str.","postalCode":"31073","locality":"Delligsen","municipality":{"key":"03255008","name":"Delligsen, Flecken","type":"Kreisangehörige_Gemeinde"},"district":{"key":"03255","name":"Holzminden","type":"Landkreis"},"federalState":{"key":"03","name":"Niedersachsen"}},{"name":"Neue Welt","postalCode":"31073","locality":"Delligsen","municipality":{"key":"03255008","name":"Delligsen, Flecken","type":"Kreisangehörige_Gemeinde"},"district":{"key":"03255","name":"Holzminden","type":"Landkreis"},"federalState":{"key":"03","name":"Niedersachsen"}},{"name":"Obere Hilsstr.","postalCode":"31073","locality":"Delligsen","municipality":{"key":"03255008","name":"Delligsen, Flecken","type":"Kreisangehörige_Gemeinde"},"district":{"key":"03255","name":"Holzminden","type":"Landkreis"},"federalState":{"key":"03","name":"Niedersachsen"}},{"name":"Obere Mühlenstr.","postalCode":"31073","locality":"Delligsen","municipality":{"key":"03255008","name":"Delligsen, Flecken","type":"Kreisangehörige_Gemeinde"},"district":{"key":"03255","name":"Holzminden","type":"Landkreis"},"federalState":{"key":"03","name":"Niedersachsen"}},{"name":"Obere Winkelstr.","postalCode":"31073","locality":"Delligsen","municipality":{"key":"03255008","name":"Delligsen, Flecken","type":"Kreisangehörige_Gemeinde"},"district":{"key":"03255","name":"Holzminden","type":"Landkreis"},"federalState":{"key":"03","name":"Niedersachsen"}},{"name":"Oleanderweg","postalCode":"31073","locality":"Delligsen","municipality":{"key":"03255008","name":"Delligsen, Flecken","type":"Kreisangehörige_Gemeinde"},"district":{"key":"03255","name":"Holzminden","type":"Landkreis"},"federalState":{"key":"03","name":"Niedersachsen"}},{"name":"Otto-Schott-Str.","postalCode":"31073","locality":"Delligsen","municipality":{"key":"03255008","name":"Delligsen, Flecken","type":"Kreisangehörige_Gemeinde"},"district":{"key":"03255","name":"Holzminden","type":"Landkreis"},"federalState":{"key":"03","name":"Niedersachsen"}},{"name":"Paetzgasse","postalCode":"31073","locality":"Delligsen","municipality":{"key":"03255008","name":"Delligsen, Flecken","type":"Kreisangehörige_Gemeinde"},"district":{"key":"03255","name":"Holzminden","type":"Landkreis"},"federalState":{"key":"03","name":"Niedersachsen"}},{"name":"Peperlingstal","postalCode":"31073","locality":"Delligsen","municipality":{"key":"03255008","name":"Delligsen, Flecken","type":"Kreisangehörige_Gemeinde"},"district":{"key":"03255","name":"Holzminden","type":"Landkreis"},"federalState":{"key":"03","name":"Niedersachsen"}},{"name":"Pestalozziweg","postalCode":"31073","locality":"Delligsen","municipality":{"key":"03255008","name":"Delligsen, Flecken","type":"Kreisangehörige_Gemeinde"},"district":{"key":"03255","name":"Holzminden","type":"Landkreis"},"federalState":{"key":"03","name":"Niedersachsen"}},{"name":"Pfingstanger","postalCode":"31073","locality":"Delligsen","municipality":{"key":"03255008","name":"Delligsen, Flecken","type":"Kreisangehörige_Gemeinde"},"district":{"key":"03255","name":"Holzminden","type":"Landkreis"},"federalState":{"key":"03","name":"Niedersachsen"}},{"name":"Polierweg","postalCode":"31073","locality":"Delligsen","municipality":{"key":"03255008","name":"Delligsen, Flecken","type":"Kreisangehörige_Gemeinde"},"district":{"key":"03255","name":"Holzminden","type":"Landkreis"},"federalState":{"key":"03","name":"Niedersachsen"}},{"name":"Privatweg Lockmühle","postalCode":"31073","locality":"Delligsen","municipality":{"key":"03255008","name":"Delligsen, Flecken","type":"Kreisangehörige_Gemeinde"},"district":{"key":"03255","name":"Holzminden","type":"Landkreis"},"federalState":{"key":"03","name":"Niedersachsen"}},{"name":"Pulverkamp","postalCode":"31073","locality":"Delligsen","municipality":{"key":"03255008","name":"Delligsen, Flecken","type":"Kreisangehörige_Gemeinde"},"district":{"key":"03255","name":"Holzminden","type":"Landkreis"},"federalState":{"key":"03","name":"Niedersachsen"}},{"name":"Querstr.","postalCode":"31073","locality":"Delligsen","municipality":{"key":"03255008","name":"Delligsen, Flecken","type":"Kreisangehörige_Gemeinde"},"district":{"key":"03255","name":"Holzminden","type":"Landkreis"},"federalState":{"key":"03","name":"Niedersachsen"}},{"name":"Raabestr.","postalCode":"31073","locality":"Delligsen","municipality":{"key":"03255008","name":"Delligsen, Flecken","type":"Kreisangehörige_Gemeinde"},"district":{"key":"03255","name":"Holzminden","type":"Landkreis"},"federalState":{"key":"03","name":"Niedersachsen"}},{"name":"Rehbeutelweg","postalCode":"31073","locality":"Delligsen","municipality":{"key":"03255008","name":"Delligsen, Flecken","type":"Kreisangehörige_Gemeinde"},"district":{"key":"03255","name":"Holzminden","type":"Landkreis"},"federalState":{"key":"03","name":"Niedersachsen"}},{"name":"Ringstr.","postalCode":"31073","locality":"Delligsen","municipality":{"key":"03255008","name":"Delligsen, Flecken","type":"Kreisangehörige_Gemeinde"},"district":{"key":"03255","name":"Holzminden","type":"Landkreis"},"federalState":{"key":"03","name":"Niedersachsen"}},{"name":"Roggenstr.","postalCode":"31073","locality":"Delligsen","municipality":{"key":"03255008","name":"Delligsen, Flecken","type":"Kreisangehörige_Gemeinde"},"district":{"key":"03255","name":"Holzminden","type":"Landkreis"},"federalState":{"key":"03","name":"Niedersachsen"}},{"name":"Röhnbergstr.","postalCode":"31073","locality":"Delligsen","municipality":{"key":"03255008","name":"Delligsen, Flecken","type":"Kreisangehörige_Gemeinde"},"district":{"key":"03255","name":"Holzminden","type":"Landkreis"},"federalState":{"key":"03","name":"Niedersachsen"}},{"name":"Rosenweg","postalCode":"31073","locality":"Delligsen","municipality":{"key":"03255008","name":"Delligsen, Flecken","type":"Kreisangehörige_Gemeinde"},"district":{"key":"03255","name":"Holzminden","type":"Landkreis"},"federalState":{"key":"03","name":"Niedersachsen"}},{"name":"Rosmarienstr.","postalCode":"31073","locality":"Delligsen","municipality":{"key":"03255008","name":"Delligsen, Flecken","type":"Kreisangehörige_Gemeinde"},"district":{"key":"03255","name":"Holzminden","type":"Landkreis"},"federalState":{"key":"03","name":"Niedersachsen"}},{"name":"Rote Brücke","postalCode":"31073","locality":"Delligsen","municipality":{"key":"03255008","name":"Delligsen, Flecken","type":"Kreisangehörige_Gemeinde"},"district":{"key":"03255","name":"Holzminden","type":"Landkreis"},"federalState":{"key":"03","name":"Niedersachsen"}},{"name":"Roter Weg","postalCode":"31073","locality":"Delligsen","municipality":{"key":"03255008","name":"Delligsen, Flecken","type":"Kreisangehörige_Gemeinde"},"district":{"key":"03255","name":"Holzminden","type":"Landkreis"},"federalState":{"key":"03","name":"Niedersachsen"}},{"name":"Rotestr.","postalCode":"31073","locality":"Delligsen","municipality":{"key":"03255008","name":"Delligsen, Flecken","type":"Kreisangehörige_Gemeinde"},"district":{"key":"03255","name":"Holzminden","type":"Landkreis"},"federalState":{"key":"03","name":"Niedersachsen"}},{"name":"Schleiestr.","postalCode":"31073","locality":"Delligsen","municipality":{"key":"03255008","name":"Delligsen, Flecken","type":"Kreisangehörige_Gemeinde"},"district":{"key":"03255","name":"Holzminden","type":"Landkreis"},"federalState":{"key":"03","name":"Niedersachsen"}},{"name":"Schmiedeweg","postalCode":"31073","locality":"Delligsen","municipality":{"key":"03255008","name":"Delligsen, Flecken","type":"Kreisangehörige_Gemeinde"},"district":{"key":"03255","name":"Holzminden","type":"Landkreis"},"federalState":{"key":"03","name":"Niedersachsen"}},{"name":"Schneppelstieg","postalCode":"31073","locality":"Delligsen","municipality":{"key":"03255008","name":"Delligsen, Flecken","type":"Kreisangehörige_Gemeinde"},"district":{"key":"03255","name":"Holzminden","type":"Landkreis"},"federalState":{"key":"03","name":"Niedersachsen"}},{"name":"Schneppelweg","postalCode":"31073","locality":"Delligsen","municipality":{"key":"03255008","name":"Delligsen, Flecken","type":"Kreisangehörige_Gemeinde"},"district":{"key":"03255","name":"Holzminden","type":"Landkreis"},"federalState":{"key":"03","name":"Niedersachsen"}},{"name":"Schneppelwiese","postalCode":"31073","locality":"Delligsen","municipality":{"key":"03255008","name":"Delligsen, Flecken","type":"Kreisangehörige_Gemeinde"},"district":{"key":"03255","name":"Holzminden","type":"Landkreis"},"federalState":{"key":"03","name":"Niedersachsen"}},{"name":"Schulstr.","postalCode":"31073","locality":"Delligsen","municipality":{"key":"03255008","name":"Delligsen, Flecken","type":"Kreisangehörige_Gemeinde"},"district":{"key":"03255","name":"Holzminden","type":"Landkreis"},"federalState":{"key":"03","name":"Niedersachsen"}},{"name":"Seidenstickerstr.","postalCode":"31073","locality":"Delligsen","municipality":{"key":"03255008","name":"Delligsen, Flecken","type":"Kreisangehörige_Gemeinde"},"district":{"key":"03255","name":"Holzminden","type":"Landkreis"},"federalState":{"key":"03","name":"Niedersachsen"}},{"name":"Siedlungsstr.","postalCode":"31073","locality":"Delligsen","municipality":{"key":"03255008","name":"Delligsen, Flecken","type":"Kreisangehörige_Gemeinde"},"district":{"key":"03255","name":"Holzminden","type":"Landkreis"},"federalState":{"key":"03","name":"Niedersachsen"}},{"name":"Sörmannstr.","postalCode":"31073","locality":"Delligsen","municipality":{"key":"03255008","name":"Delligsen, Flecken","type":"Kreisangehörige_Gemeinde"},"district":{"key":"03255","name":"Holzminden","type":"Landkreis"},"federalState":{"key":"03","name":"Niedersachsen"}},{"name":"Sportplatzweg","postalCode":"31073","locality":"Delligsen","municipality":{"key":"03255008","name":"Delligsen, Flecken","type":"Kreisangehörige_Gemeinde"},"district":{"key":"03255","name":"Holzminden","type":"Landkreis"},"federalState":{"key":"03","name":"Niedersachsen"}},{"name":"Steinbergblick","postalCode":"31073","locality":"Delligsen","municipality":{"key":"03255008","name":"Delligsen, Flecken","type":"Kreisangehörige_Gemeinde"},"district":{"key":"03255","name":"Holzminden","type":"Landkreis"},"federalState":{"key":"03","name":"Niedersachsen"}},{"name":"Steinbergstr.","postalCode":"31073","locality":"Delligsen","municipality":{"key":"03255008","name":"Delligsen, Flecken","type":"Kreisangehörige_Gemeinde"},"district":{"key":"03255","name":"Holzminden","type":"Landkreis"},"federalState":{"key":"03","name":"Niedersachsen"}},{"name":"Südstr.","postalCode":"31073","locality":"Delligsen","municipality":{"key":"03255008","name":"Delligsen, Flecken","type":"Kreisangehörige_Gemeinde"},"district":{"key":"03255","name":"Holzminden","type":"Landkreis"},"federalState":{"key":"03","name":"Niedersachsen"}},{"name":"Tannenkpof","postalCode":"31073","locality":"Delligsen","municipality":{"key":"03255008","name":"Delligsen, Flecken","type":"Kreisangehörige_Gemeinde"},"district":{"key":"03255","name":"Holzminden","type":"Landkreis"},"federalState":{"key":"03","name":"Niedersachsen"}},{"name":"Teichwiese","postalCode":"31073","locality":"Delligsen","municipality":{"key":"03255008","name":"Delligsen, Flecken","type":"Kreisangehörige_Gemeinde"},"district":{"key":"03255","name":"Holzminden","type":"Landkreis"},"federalState":{"key":"03","name":"Niedersachsen"}},{"name":"Teure Zeit","postalCode":"31073","locality":"Delligsen","municipality":{"key":"03255008","name":"Delligsen, Flecken","type":"Kreisangehörige_Gemeinde"},"district":{"key":"03255","name":"Holzminden","type":"Landkreis"},"federalState":{"key":"03","name":"Niedersachsen"}},{"name":"Töpferweg","postalCode":"31073","locality":"Delligsen","municipality":{"key":"03255008","name":"Delligsen, Flecken","type":"Kreisangehörige_Gemeinde"},"district":{"key":"03255","name":"Holzminden","type":"Landkreis"},"federalState":{"key":"03","name":"Niedersachsen"}},{"name":"Untere Hilsstr.","postalCode":"31073","locality":"Delligsen","municipality":{"key":"03255008","name":"Delligsen, Flecken","type":"Kreisangehörige_Gemeinde"},"district":{"key":"03255","name":"Holzminden","type":"Landkreis"},"federalState":{"key":"03","name":"Niedersachsen"}},{"name":"Untere Mühlenstr.","postalCode":"31073","locality":"Delligsen","municipality":{"key":"03255008","name":"Delligsen, Flecken","type":"Kreisangehörige_Gemeinde"},"district":{"key":"03255","name":"Holzminden","type":"Landkreis"},"federalState":{"key":"03","name":"Niedersachsen"}},{"name":"Untere Winkelstr.","postalCode":"31073","locality":"Delligsen","municipality":{"key":"03255008","name":"Delligsen, Flecken","type":"Kreisangehörige_Gemeinde"},"district":{"key":"03255","name":"Holzminden","type":"Landkreis"},"federalState":{"key":"03","name":"Niedersachsen"}},{"name":"Veilchenweg","postalCode":"31073","locality":"Delligsen","municipality":{"key":"03255008","name":"Delligsen, Flecken","type":"Kreisangehörige_Gemeinde"},"district":{"key":"03255","name":"Holzminden","type":"Landkreis"},"federalState":{"key":"03","name":"Niedersachsen"}},{"name":"Von-Langen-Str.","postalCode":"31073","locality":"Delligsen","municipality":{"key":"03255008","name":"Delligsen, Flecken","type":"Kreisangehörige_Gemeinde"},"district":{"key":"03255","name":"Holzminden","type":"Landkreis"},"federalState":{"key":"03","name":"Niedersachsen"}},{"name":"Von-Langen-Weg","postalCode":"31073","locality":"Delligsen","municipality":{"key":"03255008","name":"Delligsen, Flecken","type":"Kreisangehörige_Gemeinde"},"district":{"key":"03255","name":"Holzminden","type":"Landkreis"},"federalState":{"key":"03","name":"Niedersachsen"}},{"name":"Vor der Steinbreite","postalCode":"31073","locality":"Delligsen","municipality":{"key":"03255008","name":"Delligsen, Flecken","type":"Kreisangehörige_Gemeinde"},"district":{"key":"03255","name":"Holzminden","type":"Landkreis"},"federalState":{"key":"03","name":"Niedersachsen"}},{"name":"Weddeborn","postalCode":"31073","locality":"Delligsen","municipality":{"key":"03255008","name":"Delligsen, Flecken","type":"Kreisangehörige_Gemeinde"},"district":{"key":"03255","name":"Holzminden","type":"Landkreis"},"federalState":{"key":"03","name":"Niedersachsen"}},{"name":"Weidenbergweg","postalCode":"31073","locality":"Delligsen","municipality":{"key":"03255008","name":"Delligsen, Flecken","type":"Kreisangehörige_Gemeinde"},"district":{"key":"03255","name":"Holzminden","type":"Landkreis"},"federalState":{"key":"03","name":"Niedersachsen"}},{"name":"Wellenspringchaussee","postalCode":"31073","locality":"Delligsen","municipality":{"key":"03255008","name":"Delligsen, Flecken","type":"Kreisangehörige_Gemeinde"},"district":{"key":"03255","name":"Holzminden","type":"Landkreis"},"federalState":{"key":"03","name":"Niedersachsen"}},{"name":"Wellenspringstr.","postalCode":"31073","locality":"Delligsen","municipality":{"key":"03255008","name":"Delligsen, Flecken","type":"Kreisangehörige_Gemeinde"},"district":{"key":"03255","name":"Holzminden","type":"Landkreis"},"federalState":{"key":"03","name":"Niedersachsen"}},{"name":"Wiesenstr.","postalCode":"31073","locality":"Delligsen","municipality":{"key":"03255008","name":"Delligsen, Flecken","type":"Kreisangehörige_Gemeinde"},"district":{"key":"03255","name":"Holzminden","type":"Landkreis"},"federalState":{"key":"03","name":"Niedersachsen"}},{"name":"Wolfsbrink","postalCode":"31073","locality":"Delligsen","municipality":{"key":"03255008","name":"Delligsen, Flecken","type":"Kreisangehörige_Gemeinde"},"district":{"key":"03255","name":"Holzminden","type":"Landkreis"},"federalState":{"key":"03","name":"Niedersachsen"}},{"name":"Zum Köhlergrund","postalCode":"31073","locality":"Delligsen","municipality":{"key":"03255008","name":"Delligsen, Flecken","type":"Kreisangehörige_Gemeinde"},"district":{"key":"03255","name":"Holzminden","type":"Landkreis"},"federalState":{"key":"03","name":"Niedersachsen"}},{"name":"Zur Insel","postalCode":"31073","locality":"Delligsen","municipality":{"key":"03255008","name":"Delligsen, Flecken","type":"Kreisangehörige_Gemeinde"},"district":{"key":"03255","name":"Holzminden","type":"Landkreis"},"federalState":{"key":"03","name":"Niedersachsen"}},{"name":"Über den Fugen","postalCode":"31073","locality":"Delligsen","municipality":{"key":"03255008","name":"Delligsen, Flecken","type":"Kreisangehörige_Gemeinde"},"district":{"key":"03255","name":"Holzminden","type":"Landkreis"},"federalState":{"key":"03","name":"Niedersachsen"}},]