[{"key":"10027724","name":"Allmendstrasse","postalCode":"4411","locality":"Seltisberg","commune":{"key":"2833","name":"Seltisberg","shortName":"Seltisberg"},"district":{"key":"1303","name":"Bezirk Liestal"},"canton":{"key":"13","code":"BL","name":"Basel-Landschaft"},"status":"Real"},{"key":"10251580","name":"Alter Buchenweg","postalCode":"4411","locality":"Seltisberg","commune":{"key":"2833","name":"Seltisberg","shortName":"Seltisberg"},"district":{"key":"1303","name":"Bezirk Liestal"},"canton":{"key":"13","code":"BL","name":"Basel-Landschaft"},"status":"Real"},{"key":"10096236","name":"Bölchenstrasse","postalCode":"4411","locality":"Seltisberg","commune":{"key":"2833","name":"Seltisberg","shortName":"Seltisberg"},"district":{"key":"1303","name":"Bezirk Liestal"},"canton":{"key":"13","code":"BL","name":"Basel-Landschaft"},"status":"Real"},{"key":"10096235","name":"Brunngasse","postalCode":"4411","locality":"Seltisberg","commune":{"key":"2833","name":"Seltisberg","shortName":"Seltisberg"},"district":{"key":"1303","name":"Bezirk Liestal"},"canton":{"key":"13","code":"BL","name":"Basel-Landschaft"},"status":"Real"},{"key":"10027725","name":"Brünnlerweg","postalCode":"4411","locality":"Seltisberg","commune":{"key":"2833","name":"Seltisberg","shortName":"Seltisberg"},"district":{"key":"1303","name":"Bezirk Liestal"},"canton":{"key":"13","code":"BL","name":"Basel-Landschaft"},"status":"Real"},{"key":"10110797","name":"Brunnrainstrasse","postalCode":"4411","locality":"Seltisberg","commune":{"key":"2833","name":"Seltisberg","shortName":"Seltisberg"},"district":{"key":"1303","name":"Bezirk Liestal"},"canton":{"key":"13","code":"BL","name":"Basel-Landschaft"},"status":"Real"},{"key":"10027726","name":"Bubendörferstrasse","postalCode":"4411","locality":"Seltisberg","commune":{"key":"2833","name":"Seltisberg","shortName":"Seltisberg"},"district":{"key":"1303","name":"Bezirk Liestal"},"canton":{"key":"13","code":"BL","name":"Basel-Landschaft"},"status":"Real"},{"key":"10141272","name":"Buchenweg","postalCode":"4411","locality":"Seltisberg","commune":{"key":"2833","name":"Seltisberg","shortName":"Seltisberg"},"district":{"key":"1303","name":"Bezirk Liestal"},"canton":{"key":"13","code":"BL","name":"Basel-Landschaft"},"status":"Real"},{"key":"10112913","name":"Buchhalden","postalCode":"4411","locality":"Seltisberg","commune":{"key":"2833","name":"Seltisberg","shortName":"Seltisberg"},"district":{"key":"1303","name":"Bezirk Liestal"},"canton":{"key":"13","code":"BL","name":"Basel-Landschaft"},"status":"Real"},{"key":"10243746","name":"Buchhaldenweg","postalCode":"4411","locality":"Seltisberg","commune":{"key":"2833","name":"Seltisberg","shortName":"Seltisberg"},"district":{"key":"1303","name":"Bezirk Liestal"},"canton":{"key":"13","code":"BL","name":"Basel-Landschaft"},"status":"Real"},{"key":"10138155","name":"Bündtenstrasse","postalCode":"4411","locality":"Seltisberg","commune":{"key":"2833","name":"Seltisberg","shortName":"Seltisberg"},"district":{"key":"1303","name":"Bezirk Liestal"},"canton":{"key":"13","code":"BL","name":"Basel-Landschaft"},"status":"Real"},{"key":"10159789","name":"Ebermatt","postalCode":"4411","locality":"Seltisberg","commune":{"key":"2833","name":"Seltisberg","shortName":"Seltisberg"},"district":{"key":"1303","name":"Bezirk Liestal"},"canton":{"key":"13","code":"BL","name":"Basel-Landschaft"},"status":"Real"},{"key":"10112914","name":"Einschlag","postalCode":"4411","locality":"Seltisberg","commune":{"key":"2833","name":"Seltisberg","shortName":"Seltisberg"},"district":{"key":"1303","name":"Bezirk Liestal"},"canton":{"key":"13","code":"BL","name":"Basel-Landschaft"},"status":"Real"},{"key":"10027727","name":"Einschlagweg","postalCode":"4411","locality":"Seltisberg","commune":{"key":"2833","name":"Seltisberg","shortName":"Seltisberg"},"district":{"key":"1303","name":"Bezirk Liestal"},"canton":{"key":"13","code":"BL","name":"Basel-Landschaft"},"status":"Real"},{"key":"10133822","name":"Erlifeldweg","postalCode":"4411","locality":"Seltisberg","commune":{"key":"2833","name":"Seltisberg","shortName":"Seltisberg"},"district":{"key":"1303","name":"Bezirk Liestal"},"canton":{"key":"13","code":"BL","name":"Basel-Landschaft"},"status":"Real"},{"key":"10243754","name":"Fälkenweg","postalCode":"4411","locality":"Seltisberg","commune":{"key":"2833","name":"Seltisberg","shortName":"Seltisberg"},"district":{"key":"1303","name":"Bezirk Liestal"},"canton":{"key":"13","code":"BL","name":"Basel-Landschaft"},"status":"Real"},{"key":"10159790","name":"Felken","postalCode":"4411","locality":"Seltisberg","commune":{"key":"2833","name":"Seltisberg","shortName":"Seltisberg"},"district":{"key":"1303","name":"Bezirk Liestal"},"canton":{"key":"13","code":"BL","name":"Basel-Landschaft"},"status":"Real"},{"key":"10243750","name":"Furtbodenweg","postalCode":"4411","locality":"Seltisberg","commune":{"key":"2833","name":"Seltisberg","shortName":"Seltisberg"},"district":{"key":"1303","name":"Bezirk Liestal"},"canton":{"key":"13","code":"BL","name":"Basel-Landschaft"},"status":"Real"},{"key":"10141273","name":"Galms","postalCode":"4411","locality":"Seltisberg","commune":{"key":"2833","name":"Seltisberg","shortName":"Seltisberg"},"district":{"key":"1303","name":"Bezirk Liestal"},"canton":{"key":"13","code":"BL","name":"Basel-Landschaft"},"status":"Real"},{"key":"10112915","name":"Galmsweg","postalCode":"4411","locality":"Seltisberg","commune":{"key":"2833","name":"Seltisberg","shortName":"Seltisberg"},"district":{"key":"1303","name":"Bezirk Liestal"},"canton":{"key":"13","code":"BL","name":"Basel-Landschaft"},"status":"Real"},{"key":"10069811","name":"General Guisan-Strasse","postalCode":"4411","locality":"Seltisberg","commune":{"key":"2833","name":"Seltisberg","shortName":"Seltisberg"},"district":{"key":"1303","name":"Bezirk Liestal"},"canton":{"key":"13","code":"BL","name":"Basel-Landschaft"},"status":"Real"},{"key":"10251579","name":"Glindrainweg","postalCode":"4411","locality":"Seltisberg","commune":{"key":"2833","name":"Seltisberg","shortName":"Seltisberg"},"district":{"key":"1303","name":"Bezirk Liestal"},"canton":{"key":"13","code":"BL","name":"Basel-Landschaft"},"status":"Real"},{"key":"10243758","name":"Glindweg","postalCode":"4411","locality":"Seltisberg","commune":{"key":"2833","name":"Seltisberg","shortName":"Seltisberg"},"district":{"key":"1303","name":"Bezirk Liestal"},"canton":{"key":"13","code":"BL","name":"Basel-Landschaft"},"status":"Real"},{"key":"10243762","name":"Grossmattweg","postalCode":"4411","locality":"Seltisberg","commune":{"key":"2833","name":"Seltisberg","shortName":"Seltisberg"},"district":{"key":"1303","name":"Bezirk Liestal"},"canton":{"key":"13","code":"BL","name":"Basel-Landschaft"},"status":"Real"},{"key":"10251578","name":"Grundweg","postalCode":"4411","locality":"Seltisberg","commune":{"key":"2833","name":"Seltisberg","shortName":"Seltisberg"},"district":{"key":"1303","name":"Bezirk Liestal"},"canton":{"key":"13","code":"BL","name":"Basel-Landschaft"},"status":"Real"},{"key":"10251576","name":"Grütziweg","postalCode":"4411","locality":"Seltisberg","commune":{"key":"2833","name":"Seltisberg","shortName":"Seltisberg"},"district":{"key":"1303","name":"Bezirk Liestal"},"canton":{"key":"13","code":"BL","name":"Basel-Landschaft"},"status":"Real"},{"key":"10124965","name":"Hauptstrasse","postalCode":"4411","locality":"Seltisberg","commune":{"key":"2833","name":"Seltisberg","shortName":"Seltisberg"},"district":{"key":"1303","name":"Bezirk Liestal"},"canton":{"key":"13","code":"BL","name":"Basel-Landschaft"},"status":"Real"},{"key":"10112916","name":"Hinterdürracker","postalCode":"4411","locality":"Seltisberg","commune":{"key":"2833","name":"Seltisberg","shortName":"Seltisberg"},"district":{"key":"1303","name":"Bezirk Liestal"},"canton":{"key":"13","code":"BL","name":"Basel-Landschaft"},"status":"Real"},{"key":"10243767","name":"Hinterdürrweg","postalCode":"4411","locality":"Seltisberg","commune":{"key":"2833","name":"Seltisberg","shortName":"Seltisberg"},"district":{"key":"1303","name":"Bezirk Liestal"},"canton":{"key":"13","code":"BL","name":"Basel-Landschaft"},"status":"Real"},{"key":"10243771","name":"Höchackerweg","postalCode":"4411","locality":"Seltisberg","commune":{"key":"2833","name":"Seltisberg","shortName":"Seltisberg"},"district":{"key":"1303","name":"Bezirk Liestal"},"canton":{"key":"13","code":"BL","name":"Basel-Landschaft"},"status":"Real"},{"key":"10141232","name":"Hof Galms","postalCode":"4411","locality":"Seltisberg","commune":{"key":"2833","name":"Seltisberg","shortName":"Seltisberg"},"district":{"key":"1303","name":"Bezirk Liestal"},"canton":{"key":"13","code":"BL","name":"Basel-Landschaft"},"status":"Real"},{"key":"10141261","name":"Hof Grüenmatt","postalCode":"4411","locality":"Seltisberg","commune":{"key":"2833","name":"Seltisberg","shortName":"Seltisberg"},"district":{"key":"1303","name":"Bezirk Liestal"},"canton":{"key":"13","code":"BL","name":"Basel-Landschaft"},"status":"Real"},{"key":"10112917","name":"Hubacker","postalCode":"4411","locality":"Seltisberg","commune":{"key":"2833","name":"Seltisberg","shortName":"Seltisberg"},"district":{"key":"1303","name":"Bezirk Liestal"},"canton":{"key":"13","code":"BL","name":"Basel-Landschaft"},"status":"Real"},{"key":"10175906","name":"Im Doktorgarten","postalCode":"4411","locality":"Seltisberg","commune":{"key":"2833","name":"Seltisberg","shortName":"Seltisberg"},"district":{"key":"1303","name":"Bezirk Liestal"},"canton":{"key":"13","code":"BL","name":"Basel-Landschaft"},"status":"Real"},{"key":"10179236","name":"Im Grossacker","postalCode":"4411","locality":"Seltisberg","commune":{"key":"2833","name":"Seltisberg","shortName":"Seltisberg"},"district":{"key":"1303","name":"Bezirk Liestal"},"canton":{"key":"13","code":"BL","name":"Basel-Landschaft"},"status":"Real"},{"key":"10096237","name":"Im Hof","postalCode":"4411","locality":"Seltisberg","commune":{"key":"2833","name":"Seltisberg","shortName":"Seltisberg"},"district":{"key":"1303","name":"Bezirk Liestal"},"canton":{"key":"13","code":"BL","name":"Basel-Landschaft"},"status":"Real"},{"key":"10069812","name":"Im Lutereich","postalCode":"4411","locality":"Seltisberg","commune":{"key":"2833","name":"Seltisberg","shortName":"Seltisberg"},"district":{"key":"1303","name":"Bezirk Liestal"},"canton":{"key":"13","code":"BL","name":"Basel-Landschaft"},"status":"Real"},{"key":"10027728","name":"Im Winkel","postalCode":"4411","locality":"Seltisberg","commune":{"key":"2833","name":"Seltisberg","shortName":"Seltisberg"},"district":{"key":"1303","name":"Bezirk Liestal"},"canton":{"key":"13","code":"BL","name":"Basel-Landschaft"},"status":"Real"},{"key":"10096238","name":"Im Zagenacker","postalCode":"4411","locality":"Seltisberg","commune":{"key":"2833","name":"Seltisberg","shortName":"Seltisberg"},"district":{"key":"1303","name":"Bezirk Liestal"},"canton":{"key":"13","code":"BL","name":"Basel-Landschaft"},"status":"Real"},{"key":"10027729","name":"Jurastrasse","postalCode":"4411","locality":"Seltisberg","commune":{"key":"2833","name":"Seltisberg","shortName":"Seltisberg"},"district":{"key":"1303","name":"Bezirk Liestal"},"canton":{"key":"13","code":"BL","name":"Basel-Landschaft"},"status":"Real"},{"key":"10027730","name":"Kilchweg","postalCode":"4411","locality":"Seltisberg","commune":{"key":"2833","name":"Seltisberg","shortName":"Seltisberg"},"district":{"key":"1303","name":"Bezirk Liestal"},"canton":{"key":"13","code":"BL","name":"Basel-Landschaft"},"status":"Real"},{"key":"10141484","name":"Kirschbaumstrasse","postalCode":"4411","locality":"Seltisberg","commune":{"key":"2833","name":"Seltisberg","shortName":"Seltisberg"},"district":{"key":"1303","name":"Bezirk Liestal"},"canton":{"key":"13","code":"BL","name":"Basel-Landschaft"},"status":"Real"},{"key":"10251577","name":"Klenkenweg","postalCode":"4411","locality":"Seltisberg","commune":{"key":"2833","name":"Seltisberg","shortName":"Seltisberg"},"district":{"key":"1303","name":"Bezirk Liestal"},"canton":{"key":"13","code":"BL","name":"Basel-Landschaft"},"status":"Real"},{"key":"10243775","name":"Krummenleimenweg","postalCode":"4411","locality":"Seltisberg","commune":{"key":"2833","name":"Seltisberg","shortName":"Seltisberg"},"district":{"key":"1303","name":"Bezirk Liestal"},"canton":{"key":"13","code":"BL","name":"Basel-Landschaft"},"status":"Real"},{"key":"10243779","name":"Kürziweg","postalCode":"4411","locality":"Seltisberg","commune":{"key":"2833","name":"Seltisberg","shortName":"Seltisberg"},"district":{"key":"1303","name":"Bezirk Liestal"},"canton":{"key":"13","code":"BL","name":"Basel-Landschaft"},"status":"Real"},{"key":"10243783","name":"Langackerweg","postalCode":"4411","locality":"Seltisberg","commune":{"key":"2833","name":"Seltisberg","shortName":"Seltisberg"},"district":{"key":"1303","name":"Bezirk Liestal"},"canton":{"key":"13","code":"BL","name":"Basel-Landschaft"},"status":"Real"},{"key":"10133823","name":"Leimen","postalCode":"4411","locality":"Seltisberg","commune":{"key":"2833","name":"Seltisberg","shortName":"Seltisberg"},"district":{"key":"1303","name":"Bezirk Liestal"},"canton":{"key":"13","code":"BL","name":"Basel-Landschaft"},"status":"Real"},{"key":"10141230","name":"Lichsweg","postalCode":"4411","locality":"Seltisberg","commune":{"key":"2833","name":"Seltisberg","shortName":"Seltisberg"},"district":{"key":"1303","name":"Bezirk Liestal"},"canton":{"key":"13","code":"BL","name":"Basel-Landschaft"},"status":"Real"},{"key":"10070086","name":"Liestalerstrasse","postalCode":"4411","locality":"Seltisberg","commune":{"key":"2833","name":"Seltisberg","shortName":"Seltisberg"},"district":{"key":"1303","name":"Bezirk Liestal"},"canton":{"key":"13","code":"BL","name":"Basel-Landschaft"},"status":"Real"},{"key":"10027731","name":"Lindackerweg","postalCode":"4411","locality":"Seltisberg","commune":{"key":"2833","name":"Seltisberg","shortName":"Seltisberg"},"district":{"key":"1303","name":"Bezirk Liestal"},"canton":{"key":"13","code":"BL","name":"Basel-Landschaft"},"status":"Real"},{"key":"10243703","name":"Lutereichweg","postalCode":"4411","locality":"Seltisberg","commune":{"key":"2833","name":"Seltisberg","shortName":"Seltisberg"},"district":{"key":"1303","name":"Bezirk Liestal"},"canton":{"key":"13","code":"BL","name":"Basel-Landschaft"},"status":"Real"},{"key":"10141228","name":"Müllerackerweg","postalCode":"4411","locality":"Seltisberg","commune":{"key":"2833","name":"Seltisberg","shortName":"Seltisberg"},"district":{"key":"1303","name":"Bezirk Liestal"},"canton":{"key":"13","code":"BL","name":"Basel-Landschaft"},"status":"Real"},{"key":"10243707","name":"Oberer Grossmattweg","postalCode":"4411","locality":"Seltisberg","commune":{"key":"2833","name":"Seltisberg","shortName":"Seltisberg"},"district":{"key":"1303","name":"Bezirk Liestal"},"canton":{"key":"13","code":"BL","name":"Basel-Landschaft"},"status":"Real"},{"key":"10159791","name":"Oristalstrasse","postalCode":"4411","locality":"Seltisberg","commune":{"key":"2833","name":"Seltisberg","shortName":"Seltisberg"},"district":{"key":"1303","name":"Bezirk Liestal"},"canton":{"key":"13","code":"BL","name":"Basel-Landschaft"},"status":"Real"},{"key":"10243711","name":"Oristalweg","postalCode":"4411","locality":"Seltisberg","commune":{"key":"2833","name":"Seltisberg","shortName":"Seltisberg"},"district":{"key":"1303","name":"Bezirk Liestal"},"canton":{"key":"13","code":"BL","name":"Basel-Landschaft"},"status":"Real"},{"key":"10027732","name":"Passwangstrasse","postalCode":"4411","locality":"Seltisberg","commune":{"key":"2833","name":"Seltisberg","shortName":"Seltisberg"},"district":{"key":"1303","name":"Bezirk Liestal"},"canton":{"key":"13","code":"BL","name":"Basel-Landschaft"},"status":"Real"},{"key":"10159792","name":"Reben","postalCode":"4411","locality":"Seltisberg","commune":{"key":"2833","name":"Seltisberg","shortName":"Seltisberg"},"district":{"key":"1303","name":"Bezirk Liestal"},"canton":{"key":"13","code":"BL","name":"Basel-Landschaft"},"status":"Real"},{"key":"10243715","name":"Rebenweg","postalCode":"4411","locality":"Seltisberg","commune":{"key":"2833","name":"Seltisberg","shortName":"Seltisberg"},"district":{"key":"1303","name":"Bezirk Liestal"},"canton":{"key":"13","code":"BL","name":"Basel-Landschaft"},"status":"Real"},{"key":"10027733","name":"Rebhaldenstrasse","postalCode":"4411","locality":"Seltisberg","commune":{"key":"2833","name":"Seltisberg","shortName":"Seltisberg"},"district":{"key":"1303","name":"Bezirk Liestal"},"canton":{"key":"13","code":"BL","name":"Basel-Landschaft"},"status":"Real"},{"key":"10243947","name":"Säustelliweg","postalCode":"4411","locality":"Seltisberg","commune":{"key":"2833","name":"Seltisberg","shortName":"Seltisberg"},"district":{"key":"1303","name":"Bezirk Liestal"},"canton":{"key":"13","code":"BL","name":"Basel-Landschaft"},"status":"Real"},{"key":"10159793","name":"Schattenrain","postalCode":"4411","locality":"Seltisberg","commune":{"key":"2833","name":"Seltisberg","shortName":"Seltisberg"},"district":{"key":"1303","name":"Bezirk Liestal"},"canton":{"key":"13","code":"BL","name":"Basel-Landschaft"},"status":"Real"},{"key":"10243719","name":"Schiblisgrabenweg","postalCode":"4411","locality":"Seltisberg","commune":{"key":"2833","name":"Seltisberg","shortName":"Seltisberg"},"district":{"key":"1303","name":"Bezirk Liestal"},"canton":{"key":"13","code":"BL","name":"Basel-Landschaft"},"status":"Real"},{"key":"10243723","name":"Schiblisgrundweg","postalCode":"4411","locality":"Seltisberg","commune":{"key":"2833","name":"Seltisberg","shortName":"Seltisberg"},"district":{"key":"1303","name":"Bezirk Liestal"},"canton":{"key":"13","code":"BL","name":"Basel-Landschaft"},"status":"Real"},{"key":"10112918","name":"Schlüsselmatt","postalCode":"4411","locality":"Seltisberg","commune":{"key":"2833","name":"Seltisberg","shortName":"Seltisberg"},"district":{"key":"1303","name":"Bezirk Liestal"},"canton":{"key":"13","code":"BL","name":"Basel-Landschaft"},"status":"Real"},{"key":"10096239","name":"Schwarzackerstrasse","postalCode":"4411","locality":"Seltisberg","commune":{"key":"2833","name":"Seltisberg","shortName":"Seltisberg"},"district":{"key":"1303","name":"Bezirk Liestal"},"canton":{"key":"13","code":"BL","name":"Basel-Landschaft"},"status":"Real"},{"key":"10243727","name":"Schwarzackerweg","postalCode":"4411","locality":"Seltisberg","commune":{"key":"2833","name":"Seltisberg","shortName":"Seltisberg"},"district":{"key":"1303","name":"Bezirk Liestal"},"canton":{"key":"13","code":"BL","name":"Basel-Landschaft"},"status":"Real"},{"key":"10141270","name":"Schweini","postalCode":"4411","locality":"Seltisberg","commune":{"key":"2833","name":"Seltisberg","shortName":"Seltisberg"},"district":{"key":"1303","name":"Bezirk Liestal"},"canton":{"key":"13","code":"BL","name":"Basel-Landschaft"},"status":"Real"},{"key":"10243731","name":"Schweiniweg","postalCode":"4411","locality":"Seltisberg","commune":{"key":"2833","name":"Seltisberg","shortName":"Seltisberg"},"district":{"key":"1303","name":"Bezirk Liestal"},"canton":{"key":"13","code":"BL","name":"Basel-Landschaft"},"status":"Real"},{"key":"10243735","name":"Seltisbergerstrasse","postalCode":"4411","locality":"Seltisberg","commune":{"key":"2833","name":"Seltisberg","shortName":"Seltisberg"},"district":{"key":"1303","name":"Bezirk Liestal"},"canton":{"key":"13","code":"BL","name":"Basel-Landschaft"},"status":"Real"},{"key":"10070087","name":"Sonnenstrasse","postalCode":"4411","locality":"Seltisberg","commune":{"key":"2833","name":"Seltisberg","shortName":"Seltisberg"},"district":{"key":"1303","name":"Bezirk Liestal"},"canton":{"key":"13","code":"BL","name":"Basel-Landschaft"},"status":"Real"},{"key":"10141229","name":"Sonnenweg","postalCode":"4411","locality":"Seltisberg","commune":{"key":"2833","name":"Seltisberg","shortName":"Seltisberg"},"district":{"key":"1303","name":"Bezirk Liestal"},"canton":{"key":"13","code":"BL","name":"Basel-Landschaft"},"status":"Real"},{"key":"10159794","name":"Sonnhalde","postalCode":"4411","locality":"Seltisberg","commune":{"key":"2833","name":"Seltisberg","shortName":"Seltisberg"},"district":{"key":"1303","name":"Bezirk Liestal"},"canton":{"key":"13","code":"BL","name":"Basel-Landschaft"},"status":"Real"},{"key":"10243739","name":"Sonnhaldenweg","postalCode":"4411","locality":"Seltisberg","commune":{"key":"2833","name":"Seltisberg","shortName":"Seltisberg"},"district":{"key":"1303","name":"Bezirk Liestal"},"canton":{"key":"13","code":"BL","name":"Basel-Landschaft"},"status":"Real"},{"key":"10243945","name":"Sonnweidweg","postalCode":"4411","locality":"Seltisberg","commune":{"key":"2833","name":"Seltisberg","shortName":"Seltisberg"},"district":{"key":"1303","name":"Bezirk Liestal"},"canton":{"key":"13","code":"BL","name":"Basel-Landschaft"},"status":"Real"},{"key":"10160049","name":"Sophie Gerster-Weg","postalCode":"4411","locality":"Seltisberg","commune":{"key":"2833","name":"Seltisberg","shortName":"Seltisberg"},"district":{"key":"1303","name":"Bezirk Liestal"},"canton":{"key":"13","code":"BL","name":"Basel-Landschaft"},"status":"Real"},{"key":"10251575","name":"Spiesselsrütiweg","postalCode":"4411","locality":"Seltisberg","commune":{"key":"2833","name":"Seltisberg","shortName":"Seltisberg"},"district":{"key":"1303","name":"Bezirk Liestal"},"canton":{"key":"13","code":"BL","name":"Basel-Landschaft"},"status":"Real"},{"key":"10112919","name":"Stockhalden","postalCode":"4411","locality":"Seltisberg","commune":{"key":"2833","name":"Seltisberg","shortName":"Seltisberg"},"district":{"key":"1303","name":"Bezirk Liestal"},"canton":{"key":"13","code":"BL","name":"Basel-Landschaft"},"status":"Real"},{"key":"10243946","name":"Stockhaldenweg","postalCode":"4411","locality":"Seltisberg","commune":{"key":"2833","name":"Seltisberg","shortName":"Seltisberg"},"district":{"key":"1303","name":"Bezirk Liestal"},"canton":{"key":"13","code":"BL","name":"Basel-Landschaft"},"status":"Real"},{"key":"10243689","name":"Tannenweg","postalCode":"4411","locality":"Seltisberg","commune":{"key":"2833","name":"Seltisberg","shortName":"Seltisberg"},"district":{"key":"1303","name":"Bezirk Liestal"},"canton":{"key":"13","code":"BL","name":"Basel-Landschaft"},"status":"Real"},{"key":"10243693","name":"Tschappenienweg","postalCode":"4411","locality":"Seltisberg","commune":{"key":"2833","name":"Seltisberg","shortName":"Seltisberg"},"district":{"key":"1303","name":"Bezirk Liestal"},"canton":{"key":"13","code":"BL","name":"Basel-Landschaft"},"status":"Real"},{"key":"10141277","name":"Tschürtlerweg","postalCode":"4411","locality":"Seltisberg","commune":{"key":"2833","name":"Seltisberg","shortName":"Seltisberg"},"district":{"key":"1303","name":"Bezirk Liestal"},"canton":{"key":"13","code":"BL","name":"Basel-Landschaft"},"status":"Real"},{"key":"10027734","name":"Vor Eichweg","postalCode":"4411","locality":"Seltisberg","commune":{"key":"2833","name":"Seltisberg","shortName":"Seltisberg"},"district":{"key":"1303","name":"Bezirk Liestal"},"canton":{"key":"13","code":"BL","name":"Basel-Landschaft"},"status":"Real"},{"key":"10160050","name":"Vor Ried","postalCode":"4411","locality":"Seltisberg","commune":{"key":"2833","name":"Seltisberg","shortName":"Seltisberg"},"district":{"key":"1303","name":"Bezirk Liestal"},"canton":{"key":"13","code":"BL","name":"Basel-Landschaft"},"status":"Real"},{"key":"10243697","name":"Weidweg","postalCode":"4411","locality":"Seltisberg","commune":{"key":"2833","name":"Seltisberg","shortName":"Seltisberg"},"district":{"key":"1303","name":"Bezirk Liestal"},"canton":{"key":"13","code":"BL","name":"Basel-Landschaft"},"status":"Real"},{"key":"10243701","name":"Wolfhagweg","postalCode":"4411","locality":"Seltisberg","commune":{"key":"2833","name":"Seltisberg","shortName":"Seltisberg"},"district":{"key":"1303","name":"Bezirk Liestal"},"canton":{"key":"13","code":"BL","name":"Basel-Landschaft"},"status":"Real"},{"key":"10243705","name":"Zwischenholzweg","postalCode":"4411","locality":"Seltisberg","commune":{"key":"2833","name":"Seltisberg","shortName":"Seltisberg"},"district":{"key":"1303","name":"Bezirk Liestal"},"canton":{"key":"13","code":"BL","name":"Basel-Landschaft"},"status":"Real"},]