[{"name":"Akazienweg","postalCode":"09405","locality":"Zschopau","municipality":{"key":"14521690","name":"Zschopau, Stadt, Motorradstadt","type":"Stadt"},"district":{"key":"14521","name":"Erzgebirgskreis","type":"Landkreis"},"federalState":{"key":"14","name":"Sachsen"}},{"name":"Alte Marienberger Str.","postalCode":"09405","locality":"Zschopau","municipality":{"key":"14521690","name":"Zschopau, Stadt, Motorradstadt","type":"Stadt"},"district":{"key":"14521","name":"Erzgebirgskreis","type":"Landkreis"},"federalState":{"key":"14","name":"Sachsen"}},{"name":"Alte Marienberger Str.","postalCode":"09434","locality":"Zschopau","municipality":{"key":"14521690","name":"Zschopau, Stadt, Motorradstadt","type":"Stadt"},"district":{"key":"14521","name":"Erzgebirgskreis","type":"Landkreis"},"federalState":{"key":"14","name":"Sachsen"}},{"name":"Alte Str.","postalCode":"09434","locality":"Zschopau","municipality":{"key":"14521690","name":"Zschopau, Stadt, Motorradstadt","type":"Stadt"},"district":{"key":"14521","name":"Erzgebirgskreis","type":"Landkreis"},"federalState":{"key":"14","name":"Sachsen"}},{"name":"Altmarkt","postalCode":"09405","locality":"Zschopau","municipality":{"key":"14521690","name":"Zschopau, Stadt, Motorradstadt","type":"Stadt"},"district":{"key":"14521","name":"Erzgebirgskreis","type":"Landkreis"},"federalState":{"key":"14","name":"Sachsen"}},{"name":"Am Federnwerk","postalCode":"09405","locality":"Zschopau","municipality":{"key":"14521690","name":"Zschopau, Stadt, Motorradstadt","type":"Stadt"},"district":{"key":"14521","name":"Erzgebirgskreis","type":"Landkreis"},"federalState":{"key":"14","name":"Sachsen"}},{"name":"Am Freibad","postalCode":"09434","locality":"Zschopau","municipality":{"key":"14521690","name":"Zschopau, Stadt, Motorradstadt","type":"Stadt"},"district":{"key":"14521","name":"Erzgebirgskreis","type":"Landkreis"},"federalState":{"key":"14","name":"Sachsen"}},{"name":"Am Gräbel","postalCode":"09405","locality":"Zschopau","municipality":{"key":"14521690","name":"Zschopau, Stadt, Motorradstadt","type":"Stadt"},"district":{"key":"14521","name":"Erzgebirgskreis","type":"Landkreis"},"federalState":{"key":"14","name":"Sachsen"}},{"name":"Am Hang","postalCode":"09405","locality":"Zschopau","municipality":{"key":"14521690","name":"Zschopau, Stadt, Motorradstadt","type":"Stadt"},"district":{"key":"14521","name":"Erzgebirgskreis","type":"Landkreis"},"federalState":{"key":"14","name":"Sachsen"}},{"name":"Am Hang","postalCode":"09434","locality":"Zschopau","municipality":{"key":"14521690","name":"Zschopau, Stadt, Motorradstadt","type":"Stadt"},"district":{"key":"14521","name":"Erzgebirgskreis","type":"Landkreis"},"federalState":{"key":"14","name":"Sachsen"}},{"name":"Am Heizhaus","postalCode":"09405","locality":"Zschopau","municipality":{"key":"14521690","name":"Zschopau, Stadt, Motorradstadt","type":"Stadt"},"district":{"key":"14521","name":"Erzgebirgskreis","type":"Landkreis"},"federalState":{"key":"14","name":"Sachsen"}},{"name":"Am Hölzel","postalCode":"09434","locality":"Zschopau","municipality":{"key":"14521690","name":"Zschopau, Stadt, Motorradstadt","type":"Stadt"},"district":{"key":"14521","name":"Erzgebirgskreis","type":"Landkreis"},"federalState":{"key":"14","name":"Sachsen"}},{"name":"Am Ledigenheim","postalCode":"09405","locality":"Zschopau","municipality":{"key":"14521690","name":"Zschopau, Stadt, Motorradstadt","type":"Stadt"},"district":{"key":"14521","name":"Erzgebirgskreis","type":"Landkreis"},"federalState":{"key":"14","name":"Sachsen"}},{"name":"Am Pilzhübel","postalCode":"09434","locality":"Zschopau","municipality":{"key":"14521690","name":"Zschopau, Stadt, Motorradstadt","type":"Stadt"},"district":{"key":"14521","name":"Erzgebirgskreis","type":"Landkreis"},"federalState":{"key":"14","name":"Sachsen"}},{"name":"Am Sportplatz","postalCode":"09434","locality":"Zschopau","municipality":{"key":"14521690","name":"Zschopau, Stadt, Motorradstadt","type":"Stadt"},"district":{"key":"14521","name":"Erzgebirgskreis","type":"Landkreis"},"federalState":{"key":"14","name":"Sachsen"}},{"name":"Am Umspannwerk","postalCode":"09405","locality":"Zschopau","municipality":{"key":"14521690","name":"Zschopau, Stadt, Motorradstadt","type":"Stadt"},"district":{"key":"14521","name":"Erzgebirgskreis","type":"Landkreis"},"federalState":{"key":"14","name":"Sachsen"}},{"name":"Am Zschopenberg","postalCode":"09405","locality":"Zschopau","municipality":{"key":"14521690","name":"Zschopau, Stadt, Motorradstadt","type":"Stadt"},"district":{"key":"14521","name":"Erzgebirgskreis","type":"Landkreis"},"federalState":{"key":"14","name":"Sachsen"}},{"name":"An den Anlagen","postalCode":"09405","locality":"Zschopau","municipality":{"key":"14521690","name":"Zschopau, Stadt, Motorradstadt","type":"Stadt"},"district":{"key":"14521","name":"Erzgebirgskreis","type":"Landkreis"},"federalState":{"key":"14","name":"Sachsen"}},{"name":"An der Kirche","postalCode":"09405","locality":"Zschopau","municipality":{"key":"14521690","name":"Zschopau, Stadt, Motorradstadt","type":"Stadt"},"district":{"key":"14521","name":"Erzgebirgskreis","type":"Landkreis"},"federalState":{"key":"14","name":"Sachsen"}},{"name":"An der Kirche","postalCode":"09434","locality":"Zschopau","municipality":{"key":"14521690","name":"Zschopau, Stadt, Motorradstadt","type":"Stadt"},"district":{"key":"14521","name":"Erzgebirgskreis","type":"Landkreis"},"federalState":{"key":"14","name":"Sachsen"}},{"name":"An der Schlösselmühle","postalCode":"09405","locality":"Zschopau","municipality":{"key":"14521690","name":"Zschopau, Stadt, Motorradstadt","type":"Stadt"},"district":{"key":"14521","name":"Erzgebirgskreis","type":"Landkreis"},"federalState":{"key":"14","name":"Sachsen"}},{"name":"Anlagen","postalCode":"09405","locality":"Zschopau","municipality":{"key":"14521690","name":"Zschopau, Stadt, Motorradstadt","type":"Stadt"},"district":{"key":"14521","name":"Erzgebirgskreis","type":"Landkreis"},"federalState":{"key":"14","name":"Sachsen"}},{"name":"Anton-Günther-Platz","postalCode":"09405","locality":"Zschopau","municipality":{"key":"14521690","name":"Zschopau, Stadt, Motorradstadt","type":"Stadt"},"district":{"key":"14521","name":"Erzgebirgskreis","type":"Landkreis"},"federalState":{"key":"14","name":"Sachsen"}},{"name":"Auenstr.","postalCode":"09405","locality":"Zschopau","municipality":{"key":"14521690","name":"Zschopau, Stadt, Motorradstadt","type":"Stadt"},"district":{"key":"14521","name":"Erzgebirgskreis","type":"Landkreis"},"federalState":{"key":"14","name":"Sachsen"}},{"name":"August-Bebel-Str.","postalCode":"09405","locality":"Zschopau","municipality":{"key":"14521690","name":"Zschopau, Stadt, Motorradstadt","type":"Stadt"},"district":{"key":"14521","name":"Erzgebirgskreis","type":"Landkreis"},"federalState":{"key":"14","name":"Sachsen"}},{"name":"Beethovenstr.","postalCode":"09405","locality":"Zschopau","municipality":{"key":"14521690","name":"Zschopau, Stadt, Motorradstadt","type":"Stadt"},"district":{"key":"14521","name":"Erzgebirgskreis","type":"Landkreis"},"federalState":{"key":"14","name":"Sachsen"}},{"name":"Bergsteig","postalCode":"09434","locality":"Zschopau","municipality":{"key":"14521690","name":"Zschopau, Stadt, Motorradstadt","type":"Stadt"},"district":{"key":"14521","name":"Erzgebirgskreis","type":"Landkreis"},"federalState":{"key":"14","name":"Sachsen"}},{"name":"Bergstr.","postalCode":"09405","locality":"Zschopau","municipality":{"key":"14521690","name":"Zschopau, Stadt, Motorradstadt","type":"Stadt"},"district":{"key":"14521","name":"Erzgebirgskreis","type":"Landkreis"},"federalState":{"key":"14","name":"Sachsen"}},{"name":"Bertolt-Brecht-Str.","postalCode":"09405","locality":"Zschopau","municipality":{"key":"14521690","name":"Zschopau, Stadt, Motorradstadt","type":"Stadt"},"district":{"key":"14521","name":"Erzgebirgskreis","type":"Landkreis"},"federalState":{"key":"14","name":"Sachsen"}},{"name":"Birkberg","postalCode":"09405","locality":"Zschopau","municipality":{"key":"14521690","name":"Zschopau, Stadt, Motorradstadt","type":"Stadt"},"district":{"key":"14521","name":"Erzgebirgskreis","type":"Landkreis"},"federalState":{"key":"14","name":"Sachsen"}},{"name":"Birkenweg","postalCode":"09405","locality":"Zschopau","municipality":{"key":"14521690","name":"Zschopau, Stadt, Motorradstadt","type":"Stadt"},"district":{"key":"14521","name":"Erzgebirgskreis","type":"Landkreis"},"federalState":{"key":"14","name":"Sachsen"}},{"name":"Bleichweg","postalCode":"09405","locality":"Zschopau","municipality":{"key":"14521690","name":"Zschopau, Stadt, Motorradstadt","type":"Stadt"},"district":{"key":"14521","name":"Erzgebirgskreis","type":"Landkreis"},"federalState":{"key":"14","name":"Sachsen"}},{"name":"Bodemersiedlung","postalCode":"09405","locality":"Zschopau","municipality":{"key":"14521690","name":"Zschopau, Stadt, Motorradstadt","type":"Stadt"},"district":{"key":"14521","name":"Erzgebirgskreis","type":"Landkreis"},"federalState":{"key":"14","name":"Sachsen"}},{"name":"Borngraben","postalCode":"09405","locality":"Zschopau","municipality":{"key":"14521690","name":"Zschopau, Stadt, Motorradstadt","type":"Stadt"},"district":{"key":"14521","name":"Erzgebirgskreis","type":"Landkreis"},"federalState":{"key":"14","name":"Sachsen"}},{"name":"Börnichener Str.","postalCode":"09434","locality":"Zschopau","municipality":{"key":"14521690","name":"Zschopau, Stadt, Motorradstadt","type":"Stadt"},"district":{"key":"14521","name":"Erzgebirgskreis","type":"Landkreis"},"federalState":{"key":"14","name":"Sachsen"}},{"name":"Bornwaldstr.","postalCode":"09434","locality":"Zschopau","municipality":{"key":"14521690","name":"Zschopau, Stadt, Motorradstadt","type":"Stadt"},"district":{"key":"14521","name":"Erzgebirgskreis","type":"Landkreis"},"federalState":{"key":"14","name":"Sachsen"}},{"name":"Böttcherweg","postalCode":"09405","locality":"Zschopau","municipality":{"key":"14521690","name":"Zschopau, Stadt, Motorradstadt","type":"Stadt"},"district":{"key":"14521","name":"Erzgebirgskreis","type":"Landkreis"},"federalState":{"key":"14","name":"Sachsen"}},{"name":"Brühl","postalCode":"09405","locality":"Zschopau","municipality":{"key":"14521690","name":"Zschopau, Stadt, Motorradstadt","type":"Stadt"},"district":{"key":"14521","name":"Erzgebirgskreis","type":"Landkreis"},"federalState":{"key":"14","name":"Sachsen"}},{"name":"Chemnitzer Gasse","postalCode":"09405","locality":"Zschopau","municipality":{"key":"14521690","name":"Zschopau, Stadt, Motorradstadt","type":"Stadt"},"district":{"key":"14521","name":"Erzgebirgskreis","type":"Landkreis"},"federalState":{"key":"14","name":"Sachsen"}},{"name":"Chemnitzer Str.","postalCode":"09405","locality":"Zschopau","municipality":{"key":"14521690","name":"Zschopau, Stadt, Motorradstadt","type":"Stadt"},"district":{"key":"14521","name":"Erzgebirgskreis","type":"Landkreis"},"federalState":{"key":"14","name":"Sachsen"}},{"name":"Conradweg","postalCode":"09405","locality":"Zschopau","municipality":{"key":"14521690","name":"Zschopau, Stadt, Motorradstadt","type":"Stadt"},"district":{"key":"14521","name":"Erzgebirgskreis","type":"Landkreis"},"federalState":{"key":"14","name":"Sachsen"}},{"name":"Cornelius-von-Rüxleben-Weg","postalCode":"09405","locality":"Zschopau","municipality":{"key":"14521690","name":"Zschopau, Stadt, Motorradstadt","type":"Stadt"},"district":{"key":"14521","name":"Erzgebirgskreis","type":"Landkreis"},"federalState":{"key":"14","name":"Sachsen"}},{"name":"Dittmannsdorfer Weg","postalCode":"09405","locality":"Zschopau","municipality":{"key":"14521690","name":"Zschopau, Stadt, Motorradstadt","type":"Stadt"},"district":{"key":"14521","name":"Erzgebirgskreis","type":"Landkreis"},"federalState":{"key":"14","name":"Sachsen"}},{"name":"Dr.-Wilhelm-Külz-Str.","postalCode":"09405","locality":"Zschopau","municipality":{"key":"14521690","name":"Zschopau, Stadt, Motorradstadt","type":"Stadt"},"district":{"key":"14521","name":"Erzgebirgskreis","type":"Landkreis"},"federalState":{"key":"14","name":"Sachsen"}},{"name":"Ebs - Kanzler Steig","postalCode":"09405","locality":"Zschopau","municipality":{"key":"14521690","name":"Zschopau, Stadt, Motorradstadt","type":"Stadt"},"district":{"key":"14521","name":"Erzgebirgskreis","type":"Landkreis"},"federalState":{"key":"14","name":"Sachsen"}},{"name":"Eichhörnchenweg","postalCode":"09434","locality":"Zschopau","municipality":{"key":"14521690","name":"Zschopau, Stadt, Motorradstadt","type":"Stadt"},"district":{"key":"14521","name":"Erzgebirgskreis","type":"Landkreis"},"federalState":{"key":"14","name":"Sachsen"}},{"name":"Eisenstr.","postalCode":"09405","locality":"Zschopau","municipality":{"key":"14521690","name":"Zschopau, Stadt, Motorradstadt","type":"Stadt"},"district":{"key":"14521","name":"Erzgebirgskreis","type":"Landkreis"},"federalState":{"key":"14","name":"Sachsen"}},{"name":"Feldgasse","postalCode":"09405","locality":"Zschopau","municipality":{"key":"14521690","name":"Zschopau, Stadt, Motorradstadt","type":"Stadt"},"district":{"key":"14521","name":"Erzgebirgskreis","type":"Landkreis"},"federalState":{"key":"14","name":"Sachsen"}},{"name":"Fritz-Heckert-Str.","postalCode":"09405","locality":"Zschopau","municipality":{"key":"14521690","name":"Zschopau, Stadt, Motorradstadt","type":"Stadt"},"district":{"key":"14521","name":"Erzgebirgskreis","type":"Landkreis"},"federalState":{"key":"14","name":"Sachsen"}},{"name":"Gabelsbergerstr.","postalCode":"09405","locality":"Zschopau","municipality":{"key":"14521690","name":"Zschopau, Stadt, Motorradstadt","type":"Stadt"},"district":{"key":"14521","name":"Erzgebirgskreis","type":"Landkreis"},"federalState":{"key":"14","name":"Sachsen"}},{"name":"Gartenstr.","postalCode":"09405","locality":"Zschopau","municipality":{"key":"14521690","name":"Zschopau, Stadt, Motorradstadt","type":"Stadt"},"district":{"key":"14521","name":"Erzgebirgskreis","type":"Landkreis"},"federalState":{"key":"14","name":"Sachsen"}},{"name":"Gerbergasse","postalCode":"09405","locality":"Zschopau","municipality":{"key":"14521690","name":"Zschopau, Stadt, Motorradstadt","type":"Stadt"},"district":{"key":"14521","name":"Erzgebirgskreis","type":"Landkreis"},"federalState":{"key":"14","name":"Sachsen"}},{"name":"Goethestr.","postalCode":"09405","locality":"Zschopau","municipality":{"key":"14521690","name":"Zschopau, Stadt, Motorradstadt","type":"Stadt"},"district":{"key":"14521","name":"Erzgebirgskreis","type":"Landkreis"},"federalState":{"key":"14","name":"Sachsen"}},{"name":"Greßlerweg","postalCode":"09405","locality":"Zschopau","municipality":{"key":"14521690","name":"Zschopau, Stadt, Motorradstadt","type":"Stadt"},"district":{"key":"14521","name":"Erzgebirgskreis","type":"Landkreis"},"federalState":{"key":"14","name":"Sachsen"}},{"name":"Grießbacher Weg","postalCode":"09405","locality":"Zschopau","municipality":{"key":"14521690","name":"Zschopau, Stadt, Motorradstadt","type":"Stadt"},"district":{"key":"14521","name":"Erzgebirgskreis","type":"Landkreis"},"federalState":{"key":"14","name":"Sachsen"}},{"name":"Hainstr.","postalCode":"09405","locality":"Zschopau","municipality":{"key":"14521690","name":"Zschopau, Stadt, Motorradstadt","type":"Stadt"},"district":{"key":"14521","name":"Erzgebirgskreis","type":"Landkreis"},"federalState":{"key":"14","name":"Sachsen"}},{"name":"Hannawaldweg","postalCode":"09405","locality":"Zschopau","municipality":{"key":"14521690","name":"Zschopau, Stadt, Motorradstadt","type":"Stadt"},"district":{"key":"14521","name":"Erzgebirgskreis","type":"Landkreis"},"federalState":{"key":"14","name":"Sachsen"}},{"name":"Hauptstr.","postalCode":"09434","locality":"Zschopau","municipality":{"key":"14521690","name":"Zschopau, Stadt, Motorradstadt","type":"Stadt"},"district":{"key":"14521","name":"Erzgebirgskreis","type":"Landkreis"},"federalState":{"key":"14","name":"Sachsen"}},{"name":"Haydnstr.","postalCode":"09405","locality":"Zschopau","municipality":{"key":"14521690","name":"Zschopau, Stadt, Motorradstadt","type":"Stadt"},"district":{"key":"14521","name":"Erzgebirgskreis","type":"Landkreis"},"federalState":{"key":"14","name":"Sachsen"}},{"name":"Heinrich-Heine-Str.","postalCode":"09405","locality":"Zschopau","municipality":{"key":"14521690","name":"Zschopau, Stadt, Motorradstadt","type":"Stadt"},"district":{"key":"14521","name":"Erzgebirgskreis","type":"Landkreis"},"federalState":{"key":"14","name":"Sachsen"}},{"name":"Hoffeld","postalCode":"09405","locality":"Zschopau","municipality":{"key":"14521690","name":"Zschopau, Stadt, Motorradstadt","type":"Stadt"},"district":{"key":"14521","name":"Erzgebirgskreis","type":"Landkreis"},"federalState":{"key":"14","name":"Sachsen"}},{"name":"Höhenweg","postalCode":"09405","locality":"Zschopau","municipality":{"key":"14521690","name":"Zschopau, Stadt, Motorradstadt","type":"Stadt"},"district":{"key":"14521","name":"Erzgebirgskreis","type":"Landkreis"},"federalState":{"key":"14","name":"Sachsen"}},{"name":"Hohndorfer Str.","postalCode":"09434","locality":"Zschopau","municipality":{"key":"14521690","name":"Zschopau, Stadt, Motorradstadt","type":"Stadt"},"district":{"key":"14521","name":"Erzgebirgskreis","type":"Landkreis"},"federalState":{"key":"14","name":"Sachsen"}},{"name":"Illmhöhe","postalCode":"09405","locality":"Zschopau","municipality":{"key":"14521690","name":"Zschopau, Stadt, Motorradstadt","type":"Stadt"},"district":{"key":"14521","name":"Erzgebirgskreis","type":"Landkreis"},"federalState":{"key":"14","name":"Sachsen"}},{"name":"In der Aue","postalCode":"09405","locality":"Zschopau","municipality":{"key":"14521690","name":"Zschopau, Stadt, Motorradstadt","type":"Stadt"},"district":{"key":"14521","name":"Erzgebirgskreis","type":"Landkreis"},"federalState":{"key":"14","name":"Sachsen"}},{"name":"Jahnstr.","postalCode":"09405","locality":"Zschopau","municipality":{"key":"14521690","name":"Zschopau, Stadt, Motorradstadt","type":"Stadt"},"district":{"key":"14521","name":"Erzgebirgskreis","type":"Landkreis"},"federalState":{"key":"14","name":"Sachsen"}},{"name":"Johann-Gottlob-Pfaff-Str.","postalCode":"09405","locality":"Zschopau","municipality":{"key":"14521690","name":"Zschopau, Stadt, Motorradstadt","type":"Stadt"},"district":{"key":"14521","name":"Erzgebirgskreis","type":"Landkreis"},"federalState":{"key":"14","name":"Sachsen"}},{"name":"Johannisstr.","postalCode":"09405","locality":"Zschopau","municipality":{"key":"14521690","name":"Zschopau, Stadt, Motorradstadt","type":"Stadt"},"district":{"key":"14521","name":"Erzgebirgskreis","type":"Landkreis"},"federalState":{"key":"14","name":"Sachsen"}},{"name":"Kantor-Geißler-Str.","postalCode":"09405","locality":"Zschopau","municipality":{"key":"14521690","name":"Zschopau, Stadt, Motorradstadt","type":"Stadt"},"district":{"key":"14521","name":"Erzgebirgskreis","type":"Landkreis"},"federalState":{"key":"14","name":"Sachsen"}},{"name":"Kastenkurve","postalCode":"09405","locality":"Zschopau","municipality":{"key":"14521690","name":"Zschopau, Stadt, Motorradstadt","type":"Stadt"},"district":{"key":"14521","name":"Erzgebirgskreis","type":"Landkreis"},"federalState":{"key":"14","name":"Sachsen"}},{"name":"Köpeltal","postalCode":"09405","locality":"Zschopau","municipality":{"key":"14521690","name":"Zschopau, Stadt, Motorradstadt","type":"Stadt"},"district":{"key":"14521","name":"Erzgebirgskreis","type":"Landkreis"},"federalState":{"key":"14","name":"Sachsen"}},{"name":"Körnerstr.","postalCode":"09405","locality":"Zschopau","municipality":{"key":"14521690","name":"Zschopau, Stadt, Motorradstadt","type":"Stadt"},"district":{"key":"14521","name":"Erzgebirgskreis","type":"Landkreis"},"federalState":{"key":"14","name":"Sachsen"}},{"name":"Krokusweg","postalCode":"09405","locality":"Zschopau","municipality":{"key":"14521690","name":"Zschopau, Stadt, Motorradstadt","type":"Stadt"},"district":{"key":"14521","name":"Erzgebirgskreis","type":"Landkreis"},"federalState":{"key":"14","name":"Sachsen"}},{"name":"Krumhermersdorfer Str.","postalCode":"09405","locality":"Zschopau","municipality":{"key":"14521690","name":"Zschopau, Stadt, Motorradstadt","type":"Stadt"},"district":{"key":"14521","name":"Erzgebirgskreis","type":"Landkreis"},"federalState":{"key":"14","name":"Sachsen"}},{"name":"Kurze Str.","postalCode":"09405","locality":"Zschopau","municipality":{"key":"14521690","name":"Zschopau, Stadt, Motorradstadt","type":"Stadt"},"district":{"key":"14521","name":"Erzgebirgskreis","type":"Landkreis"},"federalState":{"key":"14","name":"Sachsen"}},{"name":"Lange Str.","postalCode":"09405","locality":"Zschopau","municipality":{"key":"14521690","name":"Zschopau, Stadt, Motorradstadt","type":"Stadt"},"district":{"key":"14521","name":"Erzgebirgskreis","type":"Landkreis"},"federalState":{"key":"14","name":"Sachsen"}},{"name":"Launer Ring","postalCode":"09405","locality":"Zschopau","municipality":{"key":"14521690","name":"Zschopau, Stadt, Motorradstadt","type":"Stadt"},"district":{"key":"14521","name":"Erzgebirgskreis","type":"Landkreis"},"federalState":{"key":"14","name":"Sachsen"}},{"name":"Lessingstr.","postalCode":"09405","locality":"Zschopau","municipality":{"key":"14521690","name":"Zschopau, Stadt, Motorradstadt","type":"Stadt"},"district":{"key":"14521","name":"Erzgebirgskreis","type":"Landkreis"},"federalState":{"key":"14","name":"Sachsen"}},{"name":"Lindenhöhe","postalCode":"09434","locality":"Zschopau","municipality":{"key":"14521690","name":"Zschopau, Stadt, Motorradstadt","type":"Stadt"},"district":{"key":"14521","name":"Erzgebirgskreis","type":"Landkreis"},"federalState":{"key":"14","name":"Sachsen"}},{"name":"Lindenweg","postalCode":"09405","locality":"Zschopau","municipality":{"key":"14521690","name":"Zschopau, Stadt, Motorradstadt","type":"Stadt"},"district":{"key":"14521","name":"Erzgebirgskreis","type":"Landkreis"},"federalState":{"key":"14","name":"Sachsen"}},{"name":"Ludwig-Würkert-Str.","postalCode":"09405","locality":"Zschopau","municipality":{"key":"14521690","name":"Zschopau, Stadt, Motorradstadt","type":"Stadt"},"district":{"key":"14521","name":"Erzgebirgskreis","type":"Landkreis"},"federalState":{"key":"14","name":"Sachsen"}},{"name":"Marienstr.","postalCode":"09405","locality":"Zschopau","municipality":{"key":"14521690","name":"Zschopau, Stadt, Motorradstadt","type":"Stadt"},"district":{"key":"14521","name":"Erzgebirgskreis","type":"Landkreis"},"federalState":{"key":"14","name":"Sachsen"}},{"name":"Marktgäßchen","postalCode":"09405","locality":"Zschopau","municipality":{"key":"14521690","name":"Zschopau, Stadt, Motorradstadt","type":"Stadt"},"district":{"key":"14521","name":"Erzgebirgskreis","type":"Landkreis"},"federalState":{"key":"14","name":"Sachsen"}},{"name":"Mittelgasse","postalCode":"09434","locality":"Zschopau","municipality":{"key":"14521690","name":"Zschopau, Stadt, Motorradstadt","type":"Stadt"},"district":{"key":"14521","name":"Erzgebirgskreis","type":"Landkreis"},"federalState":{"key":"14","name":"Sachsen"}},{"name":"Moritz-Nietzel-Str.","postalCode":"09405","locality":"Zschopau","municipality":{"key":"14521690","name":"Zschopau, Stadt, Motorradstadt","type":"Stadt"},"district":{"key":"14521","name":"Erzgebirgskreis","type":"Landkreis"},"federalState":{"key":"14","name":"Sachsen"}},{"name":"Mozartstr.","postalCode":"09405","locality":"Zschopau","municipality":{"key":"14521690","name":"Zschopau, Stadt, Motorradstadt","type":"Stadt"},"district":{"key":"14521","name":"Erzgebirgskreis","type":"Landkreis"},"federalState":{"key":"14","name":"Sachsen"}},{"name":"Neckarsulmer Ring","postalCode":"09405","locality":"Zschopau","municipality":{"key":"14521690","name":"Zschopau, Stadt, Motorradstadt","type":"Stadt"},"district":{"key":"14521","name":"Erzgebirgskreis","type":"Landkreis"},"federalState":{"key":"14","name":"Sachsen"}},{"name":"Neue Heimat","postalCode":"09405","locality":"Zschopau","municipality":{"key":"14521690","name":"Zschopau, Stadt, Motorradstadt","type":"Stadt"},"district":{"key":"14521","name":"Erzgebirgskreis","type":"Landkreis"},"federalState":{"key":"14","name":"Sachsen"}},{"name":"Neue Marienberger Str.","postalCode":"09405","locality":"Zschopau","municipality":{"key":"14521690","name":"Zschopau, Stadt, Motorradstadt","type":"Stadt"},"district":{"key":"14521","name":"Erzgebirgskreis","type":"Landkreis"},"federalState":{"key":"14","name":"Sachsen"}},{"name":"Neuer Weg","postalCode":"09405","locality":"Zschopau","municipality":{"key":"14521690","name":"Zschopau, Stadt, Motorradstadt","type":"Stadt"},"district":{"key":"14521","name":"Erzgebirgskreis","type":"Landkreis"},"federalState":{"key":"14","name":"Sachsen"}},{"name":"Neuer Weg","postalCode":"09434","locality":"Zschopau","municipality":{"key":"14521690","name":"Zschopau, Stadt, Motorradstadt","type":"Stadt"},"district":{"key":"14521","name":"Erzgebirgskreis","type":"Landkreis"},"federalState":{"key":"14","name":"Sachsen"}},{"name":"Neumarkt","postalCode":"09405","locality":"Zschopau","municipality":{"key":"14521690","name":"Zschopau, Stadt, Motorradstadt","type":"Stadt"},"district":{"key":"14521","name":"Erzgebirgskreis","type":"Landkreis"},"federalState":{"key":"14","name":"Sachsen"}},{"name":"Nordstr.","postalCode":"09405","locality":"Zschopau","municipality":{"key":"14521690","name":"Zschopau, Stadt, Motorradstadt","type":"Stadt"},"district":{"key":"14521","name":"Erzgebirgskreis","type":"Landkreis"},"federalState":{"key":"14","name":"Sachsen"}},{"name":"Obere Mühlstr.","postalCode":"09405","locality":"Zschopau","municipality":{"key":"14521690","name":"Zschopau, Stadt, Motorradstadt","type":"Stadt"},"district":{"key":"14521","name":"Erzgebirgskreis","type":"Landkreis"},"federalState":{"key":"14","name":"Sachsen"}},{"name":"Pestalozzistr.","postalCode":"09405","locality":"Zschopau","municipality":{"key":"14521690","name":"Zschopau, Stadt, Motorradstadt","type":"Stadt"},"district":{"key":"14521","name":"Erzgebirgskreis","type":"Landkreis"},"federalState":{"key":"14","name":"Sachsen"}},{"name":"Petermannweg","postalCode":"09405","locality":"Zschopau","municipality":{"key":"14521690","name":"Zschopau, Stadt, Motorradstadt","type":"Stadt"},"district":{"key":"14521","name":"Erzgebirgskreis","type":"Landkreis"},"federalState":{"key":"14","name":"Sachsen"}},{"name":"Pfarrgäßchen","postalCode":"09405","locality":"Zschopau","municipality":{"key":"14521690","name":"Zschopau, Stadt, Motorradstadt","type":"Stadt"},"district":{"key":"14521","name":"Erzgebirgskreis","type":"Landkreis"},"federalState":{"key":"14","name":"Sachsen"}},{"name":"Philipp-Müller-Str.","postalCode":"09405","locality":"Zschopau","municipality":{"key":"14521690","name":"Zschopau, Stadt, Motorradstadt","type":"Stadt"},"district":{"key":"14521","name":"Erzgebirgskreis","type":"Landkreis"},"federalState":{"key":"14","name":"Sachsen"}},{"name":"Pilzweg","postalCode":"09434","locality":"Zschopau","municipality":{"key":"14521690","name":"Zschopau, Stadt, Motorradstadt","type":"Stadt"},"district":{"key":"14521","name":"Erzgebirgskreis","type":"Landkreis"},"federalState":{"key":"14","name":"Sachsen"}},{"name":"Rasmussenstr.","postalCode":"09405","locality":"Zschopau","municipality":{"key":"14521690","name":"Zschopau, Stadt, Motorradstadt","type":"Stadt"},"district":{"key":"14521","name":"Erzgebirgskreis","type":"Landkreis"},"federalState":{"key":"14","name":"Sachsen"}},{"name":"Reicheltweg","postalCode":"09405","locality":"Zschopau","municipality":{"key":"14521690","name":"Zschopau, Stadt, Motorradstadt","type":"Stadt"},"district":{"key":"14521","name":"Erzgebirgskreis","type":"Landkreis"},"federalState":{"key":"14","name":"Sachsen"}},{"name":"Reinhold-Timme-Str.","postalCode":"09405","locality":"Zschopau","municipality":{"key":"14521690","name":"Zschopau, Stadt, Motorradstadt","type":"Stadt"},"district":{"key":"14521","name":"Erzgebirgskreis","type":"Landkreis"},"federalState":{"key":"14","name":"Sachsen"}},{"name":"Ringstr.","postalCode":"09405","locality":"Zschopau","municipality":{"key":"14521690","name":"Zschopau, Stadt, Motorradstadt","type":"Stadt"},"district":{"key":"14521","name":"Erzgebirgskreis","type":"Landkreis"},"federalState":{"key":"14","name":"Sachsen"}},{"name":"Robert-Koch-Str.","postalCode":"09405","locality":"Zschopau","municipality":{"key":"14521690","name":"Zschopau, Stadt, Motorradstadt","type":"Stadt"},"district":{"key":"14521","name":"Erzgebirgskreis","type":"Landkreis"},"federalState":{"key":"14","name":"Sachsen"}},{"name":"Rosa-Luxemburg-Str.","postalCode":"09405","locality":"Zschopau","municipality":{"key":"14521690","name":"Zschopau, Stadt, Motorradstadt","type":"Stadt"},"district":{"key":"14521","name":"Erzgebirgskreis","type":"Landkreis"},"federalState":{"key":"14","name":"Sachsen"}},{"name":"Rosenowweg","postalCode":"09405","locality":"Zschopau","municipality":{"key":"14521690","name":"Zschopau, Stadt, Motorradstadt","type":"Stadt"},"district":{"key":"14521","name":"Erzgebirgskreis","type":"Landkreis"},"federalState":{"key":"14","name":"Sachsen"}},{"name":"Rudolf-Breitscheid-Str.","postalCode":"09405","locality":"Zschopau","municipality":{"key":"14521690","name":"Zschopau, Stadt, Motorradstadt","type":"Stadt"},"district":{"key":"14521","name":"Erzgebirgskreis","type":"Landkreis"},"federalState":{"key":"14","name":"Sachsen"}},{"name":"Salzleckenweg","postalCode":"09405","locality":"Zschopau","municipality":{"key":"14521690","name":"Zschopau, Stadt, Motorradstadt","type":"Stadt"},"district":{"key":"14521","name":"Erzgebirgskreis","type":"Landkreis"},"federalState":{"key":"14","name":"Sachsen"}},{"name":"Salzmannweg","postalCode":"09434","locality":"Zschopau","municipality":{"key":"14521690","name":"Zschopau, Stadt, Motorradstadt","type":"Stadt"},"district":{"key":"14521","name":"Erzgebirgskreis","type":"Landkreis"},"federalState":{"key":"14","name":"Sachsen"}},{"name":"Scharfensteiner Str.","postalCode":"09405","locality":"Zschopau","municipality":{"key":"14521690","name":"Zschopau, Stadt, Motorradstadt","type":"Stadt"},"district":{"key":"14521","name":"Erzgebirgskreis","type":"Landkreis"},"federalState":{"key":"14","name":"Sachsen"}},{"name":"Schillerplatz","postalCode":"09405","locality":"Zschopau","municipality":{"key":"14521690","name":"Zschopau, Stadt, Motorradstadt","type":"Stadt"},"district":{"key":"14521","name":"Erzgebirgskreis","type":"Landkreis"},"federalState":{"key":"14","name":"Sachsen"}},{"name":"Schlachthofstr.","postalCode":"09405","locality":"Zschopau","municipality":{"key":"14521690","name":"Zschopau, Stadt, Motorradstadt","type":"Stadt"},"district":{"key":"14521","name":"Erzgebirgskreis","type":"Landkreis"},"federalState":{"key":"14","name":"Sachsen"}},{"name":"Schloßberg","postalCode":"09405","locality":"Zschopau","municipality":{"key":"14521690","name":"Zschopau, Stadt, Motorradstadt","type":"Stadt"},"district":{"key":"14521","name":"Erzgebirgskreis","type":"Landkreis"},"federalState":{"key":"14","name":"Sachsen"}},{"name":"Schulstr.","postalCode":"09405","locality":"Zschopau","municipality":{"key":"14521690","name":"Zschopau, Stadt, Motorradstadt","type":"Stadt"},"district":{"key":"14521","name":"Erzgebirgskreis","type":"Landkreis"},"federalState":{"key":"14","name":"Sachsen"}},{"name":"Schulstr.","postalCode":"09434","locality":"Zschopau","municipality":{"key":"14521690","name":"Zschopau, Stadt, Motorradstadt","type":"Stadt"},"district":{"key":"14521","name":"Erzgebirgskreis","type":"Landkreis"},"federalState":{"key":"14","name":"Sachsen"}},{"name":"Seminargarten","postalCode":"09405","locality":"Zschopau","municipality":{"key":"14521690","name":"Zschopau, Stadt, Motorradstadt","type":"Stadt"},"district":{"key":"14521","name":"Erzgebirgskreis","type":"Landkreis"},"federalState":{"key":"14","name":"Sachsen"}},{"name":"Seminarstr.","postalCode":"09405","locality":"Zschopau","municipality":{"key":"14521690","name":"Zschopau, Stadt, Motorradstadt","type":"Stadt"},"district":{"key":"14521","name":"Erzgebirgskreis","type":"Landkreis"},"federalState":{"key":"14","name":"Sachsen"}},{"name":"Siedlungsstr.","postalCode":"09434","locality":"Zschopau","municipality":{"key":"14521690","name":"Zschopau, Stadt, Motorradstadt","type":"Stadt"},"district":{"key":"14521","name":"Erzgebirgskreis","type":"Landkreis"},"federalState":{"key":"14","name":"Sachsen"}},{"name":"Sonneneck","postalCode":"09405","locality":"Zschopau","municipality":{"key":"14521690","name":"Zschopau, Stadt, Motorradstadt","type":"Stadt"},"district":{"key":"14521","name":"Erzgebirgskreis","type":"Landkreis"},"federalState":{"key":"14","name":"Sachsen"}},{"name":"Sonnenleite","postalCode":"09405","locality":"Zschopau","municipality":{"key":"14521690","name":"Zschopau, Stadt, Motorradstadt","type":"Stadt"},"district":{"key":"14521","name":"Erzgebirgskreis","type":"Landkreis"},"federalState":{"key":"14","name":"Sachsen"}},{"name":"Spinnereistr.","postalCode":"09405","locality":"Zschopau","municipality":{"key":"14521690","name":"Zschopau, Stadt, Motorradstadt","type":"Stadt"},"district":{"key":"14521","name":"Erzgebirgskreis","type":"Landkreis"},"federalState":{"key":"14","name":"Sachsen"}},{"name":"Stadtblick","postalCode":"09405","locality":"Zschopau","municipality":{"key":"14521690","name":"Zschopau, Stadt, Motorradstadt","type":"Stadt"},"district":{"key":"14521","name":"Erzgebirgskreis","type":"Landkreis"},"federalState":{"key":"14","name":"Sachsen"}},{"name":"Stiftsgasse","postalCode":"09405","locality":"Zschopau","municipality":{"key":"14521690","name":"Zschopau, Stadt, Motorradstadt","type":"Stadt"},"district":{"key":"14521","name":"Erzgebirgskreis","type":"Landkreis"},"federalState":{"key":"14","name":"Sachsen"}},{"name":"Straubeweg","postalCode":"09405","locality":"Zschopau","municipality":{"key":"14521690","name":"Zschopau, Stadt, Motorradstadt","type":"Stadt"},"district":{"key":"14521","name":"Erzgebirgskreis","type":"Landkreis"},"federalState":{"key":"14","name":"Sachsen"}},{"name":"Stülpner-Steig","postalCode":"09405","locality":"Zschopau","municipality":{"key":"14521690","name":"Zschopau, Stadt, Motorradstadt","type":"Stadt"},"district":{"key":"14521","name":"Erzgebirgskreis","type":"Landkreis"},"federalState":{"key":"14","name":"Sachsen"}},{"name":"Stülpnerweg","postalCode":"09434","locality":"Zschopau","municipality":{"key":"14521690","name":"Zschopau, Stadt, Motorradstadt","type":"Stadt"},"district":{"key":"14521","name":"Erzgebirgskreis","type":"Landkreis"},"federalState":{"key":"14","name":"Sachsen"}},{"name":"Talstr.","postalCode":"09434","locality":"Zschopau","municipality":{"key":"14521690","name":"Zschopau, Stadt, Motorradstadt","type":"Stadt"},"district":{"key":"14521","name":"Erzgebirgskreis","type":"Landkreis"},"federalState":{"key":"14","name":"Sachsen"}},{"name":"Thumer Str.","postalCode":"09405","locality":"Zschopau","municipality":{"key":"14521690","name":"Zschopau, Stadt, Motorradstadt","type":"Stadt"},"district":{"key":"14521","name":"Erzgebirgskreis","type":"Landkreis"},"federalState":{"key":"14","name":"Sachsen"}},{"name":"Tulpenweg","postalCode":"09405","locality":"Zschopau","municipality":{"key":"14521690","name":"Zschopau, Stadt, Motorradstadt","type":"Stadt"},"district":{"key":"14521","name":"Erzgebirgskreis","type":"Landkreis"},"federalState":{"key":"14","name":"Sachsen"}},{"name":"Untere Mühlstr.","postalCode":"09405","locality":"Zschopau","municipality":{"key":"14521690","name":"Zschopau, Stadt, Motorradstadt","type":"Stadt"},"district":{"key":"14521","name":"Erzgebirgskreis","type":"Landkreis"},"federalState":{"key":"14","name":"Sachsen"}},{"name":"Waldkirchener Str.","postalCode":"09405","locality":"Zschopau","municipality":{"key":"14521690","name":"Zschopau, Stadt, Motorradstadt","type":"Stadt"},"district":{"key":"14521","name":"Erzgebirgskreis","type":"Landkreis"},"federalState":{"key":"14","name":"Sachsen"}},{"name":"Waldkirchener Str.","postalCode":"09434","locality":"Zschopau","municipality":{"key":"14521690","name":"Zschopau, Stadt, Motorradstadt","type":"Stadt"},"district":{"key":"14521","name":"Erzgebirgskreis","type":"Landkreis"},"federalState":{"key":"14","name":"Sachsen"}},{"name":"Waldkirchener Weg","postalCode":"09405","locality":"Zschopau","municipality":{"key":"14521690","name":"Zschopau, Stadt, Motorradstadt","type":"Stadt"},"district":{"key":"14521","name":"Erzgebirgskreis","type":"Landkreis"},"federalState":{"key":"14","name":"Sachsen"}},{"name":"Wasserstr.","postalCode":"09434","locality":"Zschopau","municipality":{"key":"14521690","name":"Zschopau, Stadt, Motorradstadt","type":"Stadt"},"district":{"key":"14521","name":"Erzgebirgskreis","type":"Landkreis"},"federalState":{"key":"14","name":"Sachsen"}},{"name":"Weigeltweg","postalCode":"09405","locality":"Zschopau","municipality":{"key":"14521690","name":"Zschopau, Stadt, Motorradstadt","type":"Stadt"},"district":{"key":"14521","name":"Erzgebirgskreis","type":"Landkreis"},"federalState":{"key":"14","name":"Sachsen"}},{"name":"Wiesenstr.","postalCode":"09405","locality":"Zschopau","municipality":{"key":"14521690","name":"Zschopau, Stadt, Motorradstadt","type":"Stadt"},"district":{"key":"14521","name":"Erzgebirgskreis","type":"Landkreis"},"federalState":{"key":"14","name":"Sachsen"}},{"name":"Wilischthaler Str.","postalCode":"09405","locality":"Zschopau","municipality":{"key":"14521690","name":"Zschopau, Stadt, Motorradstadt","type":"Stadt"},"district":{"key":"14521","name":"Erzgebirgskreis","type":"Landkreis"},"federalState":{"key":"14","name":"Sachsen"}},{"name":"Witzschdorfer Str.","postalCode":"09405","locality":"Zschopau","municipality":{"key":"14521690","name":"Zschopau, Stadt, Motorradstadt","type":"Stadt"},"district":{"key":"14521","name":"Erzgebirgskreis","type":"Landkreis"},"federalState":{"key":"14","name":"Sachsen"}},{"name":"Wurzelweg","postalCode":"09405","locality":"Zschopau","municipality":{"key":"14521690","name":"Zschopau, Stadt, Motorradstadt","type":"Stadt"},"district":{"key":"14521","name":"Erzgebirgskreis","type":"Landkreis"},"federalState":{"key":"14","name":"Sachsen"}},{"name":"Wurzelweg","postalCode":"09434","locality":"Zschopau","municipality":{"key":"14521690","name":"Zschopau, Stadt, Motorradstadt","type":"Stadt"},"district":{"key":"14521","name":"Erzgebirgskreis","type":"Landkreis"},"federalState":{"key":"14","name":"Sachsen"}},{"name":"Ziegenrückenweg","postalCode":"09405","locality":"Zschopau","municipality":{"key":"14521690","name":"Zschopau, Stadt, Motorradstadt","type":"Stadt"},"district":{"key":"14521","name":"Erzgebirgskreis","type":"Landkreis"},"federalState":{"key":"14","name":"Sachsen"}},{"name":"Zschimmerweg","postalCode":"09405","locality":"Zschopau","municipality":{"key":"14521690","name":"Zschopau, Stadt, Motorradstadt","type":"Stadt"},"district":{"key":"14521","name":"Erzgebirgskreis","type":"Landkreis"},"federalState":{"key":"14","name":"Sachsen"}},{"name":"Zschopauer Str.","postalCode":"09434","locality":"Zschopau","municipality":{"key":"14521690","name":"Zschopau, Stadt, Motorradstadt","type":"Stadt"},"district":{"key":"14521","name":"Erzgebirgskreis","type":"Landkreis"},"federalState":{"key":"14","name":"Sachsen"}},{"name":"Zschopau Ost","postalCode":"09405","locality":"Zschopau","municipality":{"key":"14521690","name":"Zschopau, Stadt, Motorradstadt","type":"Stadt"},"district":{"key":"14521","name":"Erzgebirgskreis","type":"Landkreis"},"federalState":{"key":"14","name":"Sachsen"}},]