[{"key":"10106393","name":"Aeugsterstrasse","postalCode":"8910","locality":"Affoltern am Albis","commune":{"key":"2","name":"Affoltern am Albis","shortName":"Affoltern am Albis"},"district":{"key":"101","name":"Bezirk Affoltern"},"canton":{"key":"1","code":"ZH","name":"Zürich"},"status":"Real"},{"key":"10001137","name":"Aeussere Grundstrasse","postalCode":"8910","locality":"Affoltern am Albis","commune":{"key":"2","name":"Affoltern am Albis","shortName":"Affoltern am Albis"},"district":{"key":"101","name":"Bezirk Affoltern"},"canton":{"key":"1","code":"ZH","name":"Zürich"},"status":"Real"},{"key":"10174251","name":"Allmendstrasse","postalCode":"8910","locality":"Affoltern am Albis","commune":{"key":"2","name":"Affoltern am Albis","shortName":"Affoltern am Albis"},"district":{"key":"101","name":"Bezirk Affoltern"},"canton":{"key":"1","code":"ZH","name":"Zürich"},"status":"Real"},{"key":"10073530","name":"Alpenblicksteig","postalCode":"8910","locality":"Affoltern am Albis","commune":{"key":"2","name":"Affoltern am Albis","shortName":"Affoltern am Albis"},"district":{"key":"101","name":"Bezirk Affoltern"},"canton":{"key":"1","code":"ZH","name":"Zürich"},"status":"Real"},{"key":"10113352","name":"Alpenblickweg","postalCode":"8910","locality":"Affoltern am Albis","commune":{"key":"2","name":"Affoltern am Albis","shortName":"Affoltern am Albis"},"district":{"key":"101","name":"Bezirk Affoltern"},"canton":{"key":"1","code":"ZH","name":"Zürich"},"status":"Real"},{"key":"10099729","name":"Alte Affolterstrasse","postalCode":"8910","locality":"Affoltern am Albis","commune":{"key":"2","name":"Affoltern am Albis","shortName":"Affoltern am Albis"},"district":{"key":"101","name":"Bezirk Affoltern"},"canton":{"key":"1","code":"ZH","name":"Zürich"},"status":"Real"},{"key":"10107728","name":"Alte Dorfstrasse","postalCode":"8910","locality":"Affoltern am Albis","commune":{"key":"2","name":"Affoltern am Albis","shortName":"Affoltern am Albis"},"district":{"key":"101","name":"Bezirk Affoltern"},"canton":{"key":"1","code":"ZH","name":"Zürich"},"status":"Real"},{"key":"10175562","name":"Alte Hedingerstrasse","postalCode":"8910","locality":"Affoltern am Albis","commune":{"key":"2","name":"Affoltern am Albis","shortName":"Affoltern am Albis"},"district":{"key":"101","name":"Bezirk Affoltern"},"canton":{"key":"1","code":"ZH","name":"Zürich"},"status":"Real"},{"key":"10022495","name":"Alte Jonentalstrasse","postalCode":"8910","locality":"Affoltern am Albis","commune":{"key":"2","name":"Affoltern am Albis","shortName":"Affoltern am Albis"},"district":{"key":"101","name":"Bezirk Affoltern"},"canton":{"key":"1","code":"ZH","name":"Zürich"},"status":"Real"},{"key":"10075246","name":"Alte Kanzleistrasse","postalCode":"8910","locality":"Affoltern am Albis","commune":{"key":"2","name":"Affoltern am Albis","shortName":"Affoltern am Albis"},"district":{"key":"101","name":"Bezirk Affoltern"},"canton":{"key":"1","code":"ZH","name":"Zürich"},"status":"Real"},{"key":"10000518","name":"Alte Obfelderstrasse","postalCode":"8910","locality":"Affoltern am Albis","commune":{"key":"2","name":"Affoltern am Albis","shortName":"Affoltern am Albis"},"district":{"key":"101","name":"Bezirk Affoltern"},"canton":{"key":"1","code":"ZH","name":"Zürich"},"status":"Real"},{"key":"10000519","name":"Ankengasse","postalCode":"8910","locality":"Affoltern am Albis","commune":{"key":"2","name":"Affoltern am Albis","shortName":"Affoltern am Albis"},"district":{"key":"101","name":"Bezirk Affoltern"},"canton":{"key":"1","code":"ZH","name":"Zürich"},"status":"Real"},{"key":"10235248","name":"Archenhölzliweg","postalCode":"8910","locality":"Affoltern am Albis","commune":{"key":"2","name":"Affoltern am Albis","shortName":"Affoltern am Albis"},"district":{"key":"101","name":"Bezirk Affoltern"},"canton":{"key":"1","code":"ZH","name":"Zürich"},"status":"Real"},{"key":"10099730","name":"Bachmattstrasse","postalCode":"8910","locality":"Affoltern am Albis","commune":{"key":"2","name":"Affoltern am Albis","shortName":"Affoltern am Albis"},"district":{"key":"101","name":"Bezirk Affoltern"},"canton":{"key":"1","code":"ZH","name":"Zürich"},"status":"Real"},{"key":"10000520","name":"Bachweg","postalCode":"8910","locality":"Affoltern am Albis","commune":{"key":"2","name":"Affoltern am Albis","shortName":"Affoltern am Albis"},"district":{"key":"101","name":"Bezirk Affoltern"},"canton":{"key":"1","code":"ZH","name":"Zürich"},"status":"Real"},{"key":"10183503","name":"Bahnhofplatz","postalCode":"8910","locality":"Affoltern am Albis","commune":{"key":"2","name":"Affoltern am Albis","shortName":"Affoltern am Albis"},"district":{"key":"101","name":"Bezirk Affoltern"},"canton":{"key":"1","code":"ZH","name":"Zürich"},"status":"Real"},{"key":"10068733","name":"Bahnweg","postalCode":"8910","locality":"Affoltern am Albis","commune":{"key":"2","name":"Affoltern am Albis","shortName":"Affoltern am Albis"},"district":{"key":"101","name":"Bezirk Affoltern"},"canton":{"key":"1","code":"ZH","name":"Zürich"},"status":"Real"},{"key":"10000526","name":"Bärengasse","postalCode":"8910","locality":"Affoltern am Albis","commune":{"key":"2","name":"Affoltern am Albis","shortName":"Affoltern am Albis"},"district":{"key":"101","name":"Bezirk Affoltern"},"canton":{"key":"1","code":"ZH","name":"Zürich"},"status":"Real"},{"key":"10075247","name":"Baumgartenstrasse","postalCode":"8910","locality":"Affoltern am Albis","commune":{"key":"2","name":"Affoltern am Albis","shortName":"Affoltern am Albis"},"district":{"key":"101","name":"Bezirk Affoltern"},"canton":{"key":"1","code":"ZH","name":"Zürich"},"status":"Real"},{"key":"10111658","name":"Bergrain","postalCode":"8910","locality":"Affoltern am Albis","commune":{"key":"2","name":"Affoltern am Albis","shortName":"Affoltern am Albis"},"district":{"key":"101","name":"Bezirk Affoltern"},"canton":{"key":"1","code":"ZH","name":"Zürich"},"status":"Real"},{"key":"10000521","name":"Bergstrasse","postalCode":"8910","locality":"Affoltern am Albis","commune":{"key":"2","name":"Affoltern am Albis","shortName":"Affoltern am Albis"},"district":{"key":"101","name":"Bezirk Affoltern"},"canton":{"key":"1","code":"ZH","name":"Zürich"},"status":"Real"},{"key":"10125830","name":"Bernhaustrasse","postalCode":"8910","locality":"Affoltern am Albis","commune":{"key":"2","name":"Affoltern am Albis","shortName":"Affoltern am Albis"},"district":{"key":"101","name":"Bezirk Affoltern"},"canton":{"key":"1","code":"ZH","name":"Zürich"},"status":"Real"},{"key":"10116754","name":"Betpurhöhe","postalCode":"8910","locality":"Affoltern am Albis","commune":{"key":"2","name":"Affoltern am Albis","shortName":"Affoltern am Albis"},"district":{"key":"101","name":"Bezirk Affoltern"},"canton":{"key":"1","code":"ZH","name":"Zürich"},"status":"Real"},{"key":"10063053","name":"Betpurstrasse","postalCode":"8910","locality":"Affoltern am Albis","commune":{"key":"2","name":"Affoltern am Albis","shortName":"Affoltern am Albis"},"district":{"key":"101","name":"Bezirk Affoltern"},"canton":{"key":"1","code":"ZH","name":"Zürich"},"status":"Real"},{"key":"10075248","name":"Bifangstrasse","postalCode":"8910","locality":"Affoltern am Albis","commune":{"key":"2","name":"Affoltern am Albis","shortName":"Affoltern am Albis"},"district":{"key":"101","name":"Bezirk Affoltern"},"canton":{"key":"1","code":"ZH","name":"Zürich"},"status":"Real"},{"key":"10235253","name":"Bislikenweg","postalCode":"8910","locality":"Affoltern am Albis","commune":{"key":"2","name":"Affoltern am Albis","shortName":"Affoltern am Albis"},"district":{"key":"101","name":"Bezirk Affoltern"},"canton":{"key":"1","code":"ZH","name":"Zürich"},"status":"Real"},{"key":"10235254","name":"Bislikerhauweg","postalCode":"8910","locality":"Affoltern am Albis","commune":{"key":"2","name":"Affoltern am Albis","shortName":"Affoltern am Albis"},"district":{"key":"101","name":"Bezirk Affoltern"},"canton":{"key":"1","code":"ZH","name":"Zürich"},"status":"Real"},{"key":"10000522","name":"Blitzgbachweg","postalCode":"8910","locality":"Affoltern am Albis","commune":{"key":"2","name":"Affoltern am Albis","shortName":"Affoltern am Albis"},"district":{"key":"101","name":"Bezirk Affoltern"},"canton":{"key":"1","code":"ZH","name":"Zürich"},"status":"Real"},{"key":"10000523","name":"Breitenstrasse","postalCode":"8910","locality":"Affoltern am Albis","commune":{"key":"2","name":"Affoltern am Albis","shortName":"Affoltern am Albis"},"district":{"key":"101","name":"Bezirk Affoltern"},"canton":{"key":"1","code":"ZH","name":"Zürich"},"status":"Real"},{"key":"10075249","name":"Breitenweg","postalCode":"8910","locality":"Affoltern am Albis","commune":{"key":"2","name":"Affoltern am Albis","shortName":"Affoltern am Albis"},"district":{"key":"101","name":"Bezirk Affoltern"},"canton":{"key":"1","code":"ZH","name":"Zürich"},"status":"Real"},{"key":"10063054","name":"Brunnenhof","postalCode":"8910","locality":"Affoltern am Albis","commune":{"key":"2","name":"Affoltern am Albis","shortName":"Affoltern am Albis"},"district":{"key":"101","name":"Bezirk Affoltern"},"canton":{"key":"1","code":"ZH","name":"Zürich"},"status":"Real"},{"key":"10000524","name":"Brunnenstrasse","postalCode":"8910","locality":"Affoltern am Albis","commune":{"key":"2","name":"Affoltern am Albis","shortName":"Affoltern am Albis"},"district":{"key":"101","name":"Bezirk Affoltern"},"canton":{"key":"1","code":"ZH","name":"Zürich"},"status":"Real"},{"key":"10022499","name":"Büelacherweg","postalCode":"8910","locality":"Affoltern am Albis","commune":{"key":"2","name":"Affoltern am Albis","shortName":"Affoltern am Albis"},"district":{"key":"101","name":"Bezirk Affoltern"},"canton":{"key":"1","code":"ZH","name":"Zürich"},"status":"Real"},{"key":"10107729","name":"Büelstrasse","postalCode":"8910","locality":"Affoltern am Albis","commune":{"key":"2","name":"Affoltern am Albis","shortName":"Affoltern am Albis"},"district":{"key":"101","name":"Bezirk Affoltern"},"canton":{"key":"1","code":"ZH","name":"Zürich"},"status":"Real"},{"key":"10000525","name":"Butzenstrasse","postalCode":"8910","locality":"Affoltern am Albis","commune":{"key":"2","name":"Affoltern am Albis","shortName":"Affoltern am Albis"},"district":{"key":"101","name":"Bezirk Affoltern"},"canton":{"key":"1","code":"ZH","name":"Zürich"},"status":"Real"},{"key":"10075250","name":"Centralweg","postalCode":"8910","locality":"Affoltern am Albis","commune":{"key":"2","name":"Affoltern am Albis","shortName":"Affoltern am Albis"},"district":{"key":"101","name":"Bezirk Affoltern"},"canton":{"key":"1","code":"ZH","name":"Zürich"},"status":"Real"},{"key":"10106394","name":"Chalchofenstrasse","postalCode":"8910","locality":"Affoltern am Albis","commune":{"key":"2","name":"Affoltern am Albis","shortName":"Affoltern am Albis"},"district":{"key":"101","name":"Bezirk Affoltern"},"canton":{"key":"1","code":"ZH","name":"Zürich"},"status":"Real"},{"key":"10235252","name":"Chalofenweg","postalCode":"8910","locality":"Affoltern am Albis","commune":{"key":"2","name":"Affoltern am Albis","shortName":"Affoltern am Albis"},"district":{"key":"101","name":"Bezirk Affoltern"},"canton":{"key":"1","code":"ZH","name":"Zürich"},"status":"Real"},{"key":"10000527","name":"Chellengasse","postalCode":"8910","locality":"Affoltern am Albis","commune":{"key":"2","name":"Affoltern am Albis","shortName":"Affoltern am Albis"},"district":{"key":"101","name":"Bezirk Affoltern"},"canton":{"key":"1","code":"ZH","name":"Zürich"},"status":"Real"},{"key":"10075251","name":"Chüegasse","postalCode":"8910","locality":"Affoltern am Albis","commune":{"key":"2","name":"Affoltern am Albis","shortName":"Affoltern am Albis"},"district":{"key":"101","name":"Bezirk Affoltern"},"canton":{"key":"1","code":"ZH","name":"Zürich"},"status":"Real"},{"key":"10163483","name":"Dachlisserstrasse","postalCode":"8910","locality":"Affoltern am Albis","commune":{"key":"2","name":"Affoltern am Albis","shortName":"Affoltern am Albis"},"district":{"key":"101","name":"Bezirk Affoltern"},"canton":{"key":"1","code":"ZH","name":"Zürich"},"status":"Real"},{"key":"10000528","name":"Dachlisserweg","postalCode":"8910","locality":"Affoltern am Albis","commune":{"key":"2","name":"Affoltern am Albis","shortName":"Affoltern am Albis"},"district":{"key":"101","name":"Bezirk Affoltern"},"canton":{"key":"1","code":"ZH","name":"Zürich"},"status":"Real"},{"key":"10000529","name":"Dammgasse","postalCode":"8910","locality":"Affoltern am Albis","commune":{"key":"2","name":"Affoltern am Albis","shortName":"Affoltern am Albis"},"district":{"key":"101","name":"Bezirk Affoltern"},"canton":{"key":"1","code":"ZH","name":"Zürich"},"status":"Real"},{"key":"10022501","name":"Dammweg","postalCode":"8910","locality":"Affoltern am Albis","commune":{"key":"2","name":"Affoltern am Albis","shortName":"Affoltern am Albis"},"district":{"key":"101","name":"Bezirk Affoltern"},"canton":{"key":"1","code":"ZH","name":"Zürich"},"status":"Real"},{"key":"10022502","name":"Dürrenbachweg","postalCode":"8910","locality":"Affoltern am Albis","commune":{"key":"2","name":"Affoltern am Albis","shortName":"Affoltern am Albis"},"district":{"key":"101","name":"Bezirk Affoltern"},"canton":{"key":"1","code":"ZH","name":"Zürich"},"status":"Real"},{"key":"10162493","name":"Eggmoosstrasse","postalCode":"8910","locality":"Affoltern am Albis","commune":{"key":"2","name":"Affoltern am Albis","shortName":"Affoltern am Albis"},"district":{"key":"101","name":"Bezirk Affoltern"},"canton":{"key":"1","code":"ZH","name":"Zürich"},"status":"Real"},{"key":"10130056","name":"Erlenweg","postalCode":"8910","locality":"Affoltern am Albis","commune":{"key":"2","name":"Affoltern am Albis","shortName":"Affoltern am Albis"},"district":{"key":"101","name":"Bezirk Affoltern"},"canton":{"key":"1","code":"ZH","name":"Zürich"},"status":"Real"},{"key":"10030548","name":"Essbachweg","postalCode":"8910","locality":"Affoltern am Albis","commune":{"key":"2","name":"Affoltern am Albis","shortName":"Affoltern am Albis"},"district":{"key":"101","name":"Bezirk Affoltern"},"canton":{"key":"1","code":"ZH","name":"Zürich"},"status":"Real"},{"key":"10022503","name":"Essweg","postalCode":"8910","locality":"Affoltern am Albis","commune":{"key":"2","name":"Affoltern am Albis","shortName":"Affoltern am Albis"},"district":{"key":"101","name":"Bezirk Affoltern"},"canton":{"key":"1","code":"ZH","name":"Zürich"},"status":"Real"},{"key":"10000530","name":"Fabrikweg","postalCode":"8910","locality":"Affoltern am Albis","commune":{"key":"2","name":"Affoltern am Albis","shortName":"Affoltern am Albis"},"district":{"key":"101","name":"Bezirk Affoltern"},"canton":{"key":"1","code":"ZH","name":"Zürich"},"status":"Real"},{"key":"10000531","name":"Flurweidstrasse","postalCode":"8910","locality":"Affoltern am Albis","commune":{"key":"2","name":"Affoltern am Albis","shortName":"Affoltern am Albis"},"district":{"key":"101","name":"Bezirk Affoltern"},"canton":{"key":"1","code":"ZH","name":"Zürich"},"status":"Real"},{"key":"10071846","name":"Fulenbachstrasse","postalCode":"8910","locality":"Affoltern am Albis","commune":{"key":"2","name":"Affoltern am Albis","shortName":"Affoltern am Albis"},"district":{"key":"101","name":"Bezirk Affoltern"},"canton":{"key":"1","code":"ZH","name":"Zürich"},"status":"Real"},{"key":"10075253","name":"Gartenhof","postalCode":"8910","locality":"Affoltern am Albis","commune":{"key":"2","name":"Affoltern am Albis","shortName":"Affoltern am Albis"},"district":{"key":"101","name":"Bezirk Affoltern"},"canton":{"key":"1","code":"ZH","name":"Zürich"},"status":"Real"},{"key":"10000532","name":"Gartenstrasse","postalCode":"8910","locality":"Affoltern am Albis","commune":{"key":"2","name":"Affoltern am Albis","shortName":"Affoltern am Albis"},"district":{"key":"101","name":"Bezirk Affoltern"},"canton":{"key":"1","code":"ZH","name":"Zürich"},"status":"Real"},{"key":"10063056","name":"Gerbiweg","postalCode":"8910","locality":"Affoltern am Albis","commune":{"key":"2","name":"Affoltern am Albis","shortName":"Affoltern am Albis"},"district":{"key":"101","name":"Bezirk Affoltern"},"canton":{"key":"1","code":"ZH","name":"Zürich"},"status":"Real"},{"key":"10075254","name":"Giessenstrasse","postalCode":"8910","locality":"Affoltern am Albis","commune":{"key":"2","name":"Affoltern am Albis","shortName":"Affoltern am Albis"},"district":{"key":"101","name":"Bezirk Affoltern"},"canton":{"key":"1","code":"ZH","name":"Zürich"},"status":"Real"},{"key":"10111659","name":"Goldiger Berg","postalCode":"8910","locality":"Affoltern am Albis","commune":{"key":"2","name":"Affoltern am Albis","shortName":"Affoltern am Albis"},"district":{"key":"101","name":"Bezirk Affoltern"},"canton":{"key":"1","code":"ZH","name":"Zürich"},"status":"Real"},{"key":"10000533","name":"Grossholzerstrasse","postalCode":"8910","locality":"Affoltern am Albis","commune":{"key":"2","name":"Affoltern am Albis","shortName":"Affoltern am Albis"},"district":{"key":"101","name":"Bezirk Affoltern"},"canton":{"key":"1","code":"ZH","name":"Zürich"},"status":"Real"},{"key":"10063057","name":"Grossmatt","postalCode":"8910","locality":"Affoltern am Albis","commune":{"key":"2","name":"Affoltern am Albis","shortName":"Affoltern am Albis"},"district":{"key":"101","name":"Bezirk Affoltern"},"canton":{"key":"1","code":"ZH","name":"Zürich"},"status":"Real"},{"key":"10106395","name":"Grubenstrasse","postalCode":"8910","locality":"Affoltern am Albis","commune":{"key":"2","name":"Affoltern am Albis","shortName":"Affoltern am Albis"},"district":{"key":"101","name":"Bezirk Affoltern"},"canton":{"key":"1","code":"ZH","name":"Zürich"},"status":"Real"},{"key":"10075255","name":"Haselächerstrasse","postalCode":"8910","locality":"Affoltern am Albis","commune":{"key":"2","name":"Affoltern am Albis","shortName":"Affoltern am Albis"},"district":{"key":"101","name":"Bezirk Affoltern"},"canton":{"key":"1","code":"ZH","name":"Zürich"},"status":"Real"},{"key":"10030549","name":"Haselbachsteig","postalCode":"8910","locality":"Affoltern am Albis","commune":{"key":"2","name":"Affoltern am Albis","shortName":"Affoltern am Albis"},"district":{"key":"101","name":"Bezirk Affoltern"},"canton":{"key":"1","code":"ZH","name":"Zürich"},"status":"Real"},{"key":"10165762","name":"Haselbachstrasse","postalCode":"8910","locality":"Affoltern am Albis","commune":{"key":"2","name":"Affoltern am Albis","shortName":"Affoltern am Albis"},"district":{"key":"101","name":"Bezirk Affoltern"},"canton":{"key":"1","code":"ZH","name":"Zürich"},"status":"Real"},{"key":"10235250","name":"Haselhauweg","postalCode":"8910","locality":"Affoltern am Albis","commune":{"key":"2","name":"Affoltern am Albis","shortName":"Affoltern am Albis"},"district":{"key":"101","name":"Bezirk Affoltern"},"canton":{"key":"1","code":"ZH","name":"Zürich"},"status":"Real"},{"key":"10000534","name":"Hasenbühlstrasse","postalCode":"8910","locality":"Affoltern am Albis","commune":{"key":"2","name":"Affoltern am Albis","shortName":"Affoltern am Albis"},"district":{"key":"101","name":"Bezirk Affoltern"},"canton":{"key":"1","code":"ZH","name":"Zürich"},"status":"Real"},{"key":"10115043","name":"Hasenbühlweg","postalCode":"8910","locality":"Affoltern am Albis","commune":{"key":"2","name":"Affoltern am Albis","shortName":"Affoltern am Albis"},"district":{"key":"101","name":"Bezirk Affoltern"},"canton":{"key":"1","code":"ZH","name":"Zürich"},"status":"Real"},{"key":"10022504","name":"Haupelweg","postalCode":"8910","locality":"Affoltern am Albis","commune":{"key":"2","name":"Affoltern am Albis","shortName":"Affoltern am Albis"},"district":{"key":"101","name":"Bezirk Affoltern"},"canton":{"key":"1","code":"ZH","name":"Zürich"},"status":"Real"},{"key":"10000535","name":"Heimpelstrasse","postalCode":"8910","locality":"Affoltern am Albis","commune":{"key":"2","name":"Affoltern am Albis","shortName":"Affoltern am Albis"},"district":{"key":"101","name":"Bezirk Affoltern"},"canton":{"key":"1","code":"ZH","name":"Zürich"},"status":"Real"},{"key":"10075256","name":"Heimpelweg","postalCode":"8910","locality":"Affoltern am Albis","commune":{"key":"2","name":"Affoltern am Albis","shortName":"Affoltern am Albis"},"district":{"key":"101","name":"Bezirk Affoltern"},"canton":{"key":"1","code":"ZH","name":"Zürich"},"status":"Real"},{"key":"10000536","name":"Höhenweg","postalCode":"8910","locality":"Affoltern am Albis","commune":{"key":"2","name":"Affoltern am Albis","shortName":"Affoltern am Albis"},"district":{"key":"101","name":"Bezirk Affoltern"},"canton":{"key":"1","code":"ZH","name":"Zürich"},"status":"Real"},{"key":"10111657","name":"Im Aespli","postalCode":"8910","locality":"Affoltern am Albis","commune":{"key":"2","name":"Affoltern am Albis","shortName":"Affoltern am Albis"},"district":{"key":"101","name":"Bezirk Affoltern"},"canton":{"key":"1","code":"ZH","name":"Zürich"},"status":"Real"},{"key":"10063058","name":"Im Chrämerhoger","postalCode":"8910","locality":"Affoltern am Albis","commune":{"key":"2","name":"Affoltern am Albis","shortName":"Affoltern am Albis"},"district":{"key":"101","name":"Bezirk Affoltern"},"canton":{"key":"1","code":"ZH","name":"Zürich"},"status":"Real"},{"key":"10000537","name":"Im Feld","postalCode":"8910","locality":"Affoltern am Albis","commune":{"key":"2","name":"Affoltern am Albis","shortName":"Affoltern am Albis"},"district":{"key":"101","name":"Bezirk Affoltern"},"canton":{"key":"1","code":"ZH","name":"Zürich"},"status":"Real"},{"key":"10115053","name":"Im Grund","postalCode":"8910","locality":"Affoltern am Albis","commune":{"key":"2","name":"Affoltern am Albis","shortName":"Affoltern am Albis"},"district":{"key":"101","name":"Bezirk Affoltern"},"canton":{"key":"1","code":"ZH","name":"Zürich"},"status":"Real"},{"key":"10063059","name":"Im Hägeler","postalCode":"8910","locality":"Affoltern am Albis","commune":{"key":"2","name":"Affoltern am Albis","shortName":"Affoltern am Albis"},"district":{"key":"101","name":"Bezirk Affoltern"},"canton":{"key":"1","code":"ZH","name":"Zürich"},"status":"Real"},{"key":"10075257","name":"Im Langenrain","postalCode":"8910","locality":"Affoltern am Albis","commune":{"key":"2","name":"Affoltern am Albis","shortName":"Affoltern am Albis"},"district":{"key":"101","name":"Bezirk Affoltern"},"canton":{"key":"1","code":"ZH","name":"Zürich"},"status":"Real"},{"key":"10022505","name":"Im Moos","postalCode":"8910","locality":"Affoltern am Albis","commune":{"key":"2","name":"Affoltern am Albis","shortName":"Affoltern am Albis"},"district":{"key":"101","name":"Bezirk Affoltern"},"canton":{"key":"1","code":"ZH","name":"Zürich"},"status":"Real"},{"key":"10106396","name":"Im Rebberg","postalCode":"8910","locality":"Affoltern am Albis","commune":{"key":"2","name":"Affoltern am Albis","shortName":"Affoltern am Albis"},"district":{"key":"101","name":"Bezirk Affoltern"},"canton":{"key":"1","code":"ZH","name":"Zürich"},"status":"Real"},{"key":"10022506","name":"Im spitzen Stein","postalCode":"8910","locality":"Affoltern am Albis","commune":{"key":"2","name":"Affoltern am Albis","shortName":"Affoltern am Albis"},"district":{"key":"101","name":"Bezirk Affoltern"},"canton":{"key":"1","code":"ZH","name":"Zürich"},"status":"Real"},{"key":"10063061","name":"Im Wängli","postalCode":"8910","locality":"Affoltern am Albis","commune":{"key":"2","name":"Affoltern am Albis","shortName":"Affoltern am Albis"},"district":{"key":"101","name":"Bezirk Affoltern"},"canton":{"key":"1","code":"ZH","name":"Zürich"},"status":"Real"},{"key":"10063060","name":"Im Weinberg","postalCode":"8910","locality":"Affoltern am Albis","commune":{"key":"2","name":"Affoltern am Albis","shortName":"Affoltern am Albis"},"district":{"key":"101","name":"Bezirk Affoltern"},"canton":{"key":"1","code":"ZH","name":"Zürich"},"status":"Real"},{"key":"10000538","name":"Im Welschland","postalCode":"8910","locality":"Affoltern am Albis","commune":{"key":"2","name":"Affoltern am Albis","shortName":"Affoltern am Albis"},"district":{"key":"101","name":"Bezirk Affoltern"},"canton":{"key":"1","code":"ZH","name":"Zürich"},"status":"Real"},{"key":"10075258","name":"Im Wil","postalCode":"8910","locality":"Affoltern am Albis","commune":{"key":"2","name":"Affoltern am Albis","shortName":"Affoltern am Albis"},"district":{"key":"101","name":"Bezirk Affoltern"},"canton":{"key":"1","code":"ZH","name":"Zürich"},"status":"Real"},{"key":"10061506","name":"Im Winkel","postalCode":"8910","locality":"Affoltern am Albis","commune":{"key":"2","name":"Affoltern am Albis","shortName":"Affoltern am Albis"},"district":{"key":"101","name":"Bezirk Affoltern"},"canton":{"key":"1","code":"ZH","name":"Zürich"},"status":"Real"},{"key":"10000539","name":"In den Schwanden","postalCode":"8910","locality":"Affoltern am Albis","commune":{"key":"2","name":"Affoltern am Albis","shortName":"Affoltern am Albis"},"district":{"key":"101","name":"Bezirk Affoltern"},"canton":{"key":"1","code":"ZH","name":"Zürich"},"status":"Real"},{"key":"10189166","name":"Industriestrasse","postalCode":"8910","locality":"Affoltern am Albis","commune":{"key":"2","name":"Affoltern am Albis","shortName":"Affoltern am Albis"},"district":{"key":"101","name":"Bezirk Affoltern"},"canton":{"key":"1","code":"ZH","name":"Zürich"},"status":"Real"},{"key":"10111660","name":"Innere Grundstrasse","postalCode":"8910","locality":"Affoltern am Albis","commune":{"key":"2","name":"Affoltern am Albis","shortName":"Affoltern am Albis"},"district":{"key":"101","name":"Bezirk Affoltern"},"canton":{"key":"1","code":"ZH","name":"Zürich"},"status":"Real"},{"key":"10063063","name":"Jonentalstrasse","postalCode":"8910","locality":"Affoltern am Albis","commune":{"key":"2","name":"Affoltern am Albis","shortName":"Affoltern am Albis"},"district":{"key":"101","name":"Bezirk Affoltern"},"canton":{"key":"1","code":"ZH","name":"Zürich"},"status":"Real"},{"key":"10000540","name":"Kirchfeld","postalCode":"8910","locality":"Affoltern am Albis","commune":{"key":"2","name":"Affoltern am Albis","shortName":"Affoltern am Albis"},"district":{"key":"101","name":"Bezirk Affoltern"},"canton":{"key":"1","code":"ZH","name":"Zürich"},"status":"Real"},{"key":"10000541","name":"Kirchgasse","postalCode":"8910","locality":"Affoltern am Albis","commune":{"key":"2","name":"Affoltern am Albis","shortName":"Affoltern am Albis"},"district":{"key":"101","name":"Bezirk Affoltern"},"canton":{"key":"1","code":"ZH","name":"Zürich"},"status":"Real"},{"key":"10075259","name":"Lagerstrasse","postalCode":"8910","locality":"Affoltern am Albis","commune":{"key":"2","name":"Affoltern am Albis","shortName":"Affoltern am Albis"},"district":{"key":"101","name":"Bezirk Affoltern"},"canton":{"key":"1","code":"ZH","name":"Zürich"},"status":"Real"},{"key":"10000542","name":"Lichtmattstrasse","postalCode":"8910","locality":"Affoltern am Albis","commune":{"key":"2","name":"Affoltern am Albis","shortName":"Affoltern am Albis"},"district":{"key":"101","name":"Bezirk Affoltern"},"canton":{"key":"1","code":"ZH","name":"Zürich"},"status":"Real"},{"key":"10063064","name":"Lindenmoosstrasse","postalCode":"8910","locality":"Affoltern am Albis","commune":{"key":"2","name":"Affoltern am Albis","shortName":"Affoltern am Albis"},"district":{"key":"101","name":"Bezirk Affoltern"},"canton":{"key":"1","code":"ZH","name":"Zürich"},"status":"Real"},{"key":"10106397","name":"Loorenfeldstrasse","postalCode":"8910","locality":"Affoltern am Albis","commune":{"key":"2","name":"Affoltern am Albis","shortName":"Affoltern am Albis"},"district":{"key":"101","name":"Bezirk Affoltern"},"canton":{"key":"1","code":"ZH","name":"Zürich"},"status":"Real"},{"key":"10075260","name":"Loorenstrasse","postalCode":"8910","locality":"Affoltern am Albis","commune":{"key":"2","name":"Affoltern am Albis","shortName":"Affoltern am Albis"},"district":{"key":"101","name":"Bezirk Affoltern"},"canton":{"key":"1","code":"ZH","name":"Zürich"},"status":"Real"},{"key":"10000543","name":"Luckenhölzliweg","postalCode":"8910","locality":"Affoltern am Albis","commune":{"key":"2","name":"Affoltern am Albis","shortName":"Affoltern am Albis"},"district":{"key":"101","name":"Bezirk Affoltern"},"canton":{"key":"1","code":"ZH","name":"Zürich"},"status":"Real"},{"key":"10162594","name":"Marktplatz","postalCode":"8910","locality":"Affoltern am Albis","commune":{"key":"2","name":"Affoltern am Albis","shortName":"Affoltern am Albis"},"district":{"key":"101","name":"Bezirk Affoltern"},"canton":{"key":"1","code":"ZH","name":"Zürich"},"status":"Real"},{"key":"10000544","name":"Melchior Hirzel-Weg","postalCode":"8910","locality":"Affoltern am Albis","commune":{"key":"2","name":"Affoltern am Albis","shortName":"Affoltern am Albis"},"district":{"key":"101","name":"Bezirk Affoltern"},"canton":{"key":"1","code":"ZH","name":"Zürich"},"status":"Real"},{"key":"10125349","name":"Merkurstrasse","postalCode":"8910","locality":"Affoltern am Albis","commune":{"key":"2","name":"Affoltern am Albis","shortName":"Affoltern am Albis"},"district":{"key":"101","name":"Bezirk Affoltern"},"canton":{"key":"1","code":"ZH","name":"Zürich"},"status":"Real"},{"key":"10063066","name":"Moosbachstrasse","postalCode":"8910","locality":"Affoltern am Albis","commune":{"key":"2","name":"Affoltern am Albis","shortName":"Affoltern am Albis"},"district":{"key":"101","name":"Bezirk Affoltern"},"canton":{"key":"1","code":"ZH","name":"Zürich"},"status":"Real"},{"key":"10243968","name":"Moosbachstrasse","postalCode":"8910","locality":"Affoltern am Albis","commune":{"key":"2","name":"Affoltern am Albis","shortName":"Affoltern am Albis"},"district":{"key":"101","name":"Bezirk Affoltern"},"canton":{"key":"1","code":"ZH","name":"Zürich"},"status":"Real"},{"key":"10115054","name":"Moosmühle","postalCode":"8910","locality":"Affoltern am Albis","commune":{"key":"2","name":"Affoltern am Albis","shortName":"Affoltern am Albis"},"district":{"key":"101","name":"Bezirk Affoltern"},"canton":{"key":"1","code":"ZH","name":"Zürich"},"status":"Real"},{"key":"10071852","name":"Moosweg","postalCode":"8910","locality":"Affoltern am Albis","commune":{"key":"2","name":"Affoltern am Albis","shortName":"Affoltern am Albis"},"district":{"key":"101","name":"Bezirk Affoltern"},"canton":{"key":"1","code":"ZH","name":"Zürich"},"status":"Real"},{"key":"10127680","name":"Mühlebergstrasse","postalCode":"8910","locality":"Affoltern am Albis","commune":{"key":"2","name":"Affoltern am Albis","shortName":"Affoltern am Albis"},"district":{"key":"101","name":"Bezirk Affoltern"},"canton":{"key":"1","code":"ZH","name":"Zürich"},"status":"Real"},{"key":"10136295","name":"Mühlrütistrasse","postalCode":"8910","locality":"Affoltern am Albis","commune":{"key":"2","name":"Affoltern am Albis","shortName":"Affoltern am Albis"},"district":{"key":"101","name":"Bezirk Affoltern"},"canton":{"key":"1","code":"ZH","name":"Zürich"},"status":"Real"},{"key":"10248842","name":"Muristrasse","postalCode":"8910","locality":"Affoltern am Albis","commune":{"key":"2","name":"Affoltern am Albis","shortName":"Affoltern am Albis"},"district":{"key":"101","name":"Bezirk Affoltern"},"canton":{"key":"1","code":"ZH","name":"Zürich"},"status":"Real"},{"key":"10001463","name":"Muristrasse","postalCode":"8910","locality":"Affoltern am Albis","commune":{"key":"2","name":"Affoltern am Albis","shortName":"Affoltern am Albis"},"district":{"key":"101","name":"Bezirk Affoltern"},"canton":{"key":"1","code":"ZH","name":"Zürich"},"status":"Real"},{"key":"10022513","name":"Oberdorfstrasse","postalCode":"8910","locality":"Affoltern am Albis","commune":{"key":"2","name":"Affoltern am Albis","shortName":"Affoltern am Albis"},"district":{"key":"101","name":"Bezirk Affoltern"},"canton":{"key":"1","code":"ZH","name":"Zürich"},"status":"Real"},{"key":"10000546","name":"Obere Bahnhofstrasse","postalCode":"8910","locality":"Affoltern am Albis","commune":{"key":"2","name":"Affoltern am Albis","shortName":"Affoltern am Albis"},"district":{"key":"101","name":"Bezirk Affoltern"},"canton":{"key":"1","code":"ZH","name":"Zürich"},"status":"Real"},{"key":"10075261","name":"Obere Kirchfeldstrasse","postalCode":"8910","locality":"Affoltern am Albis","commune":{"key":"2","name":"Affoltern am Albis","shortName":"Affoltern am Albis"},"district":{"key":"101","name":"Bezirk Affoltern"},"canton":{"key":"1","code":"ZH","name":"Zürich"},"status":"Real"},{"key":"10000547","name":"Obere Seewadelstrasse","postalCode":"8910","locality":"Affoltern am Albis","commune":{"key":"2","name":"Affoltern am Albis","shortName":"Affoltern am Albis"},"district":{"key":"101","name":"Bezirk Affoltern"},"canton":{"key":"1","code":"ZH","name":"Zürich"},"status":"Real"},{"key":"10000548","name":"Obfelderstrasse","postalCode":"8910","locality":"Affoltern am Albis","commune":{"key":"2","name":"Affoltern am Albis","shortName":"Affoltern am Albis"},"district":{"key":"101","name":"Bezirk Affoltern"},"canton":{"key":"1","code":"ZH","name":"Zürich"},"status":"Real"},{"key":"10183504","name":"Obstgartenstrasse","postalCode":"8910","locality":"Affoltern am Albis","commune":{"key":"2","name":"Affoltern am Albis","shortName":"Affoltern am Albis"},"district":{"key":"101","name":"Bezirk Affoltern"},"canton":{"key":"1","code":"ZH","name":"Zürich"},"status":"Real"},{"key":"10106398","name":"Oetlistal","postalCode":"8910","locality":"Affoltern am Albis","commune":{"key":"2","name":"Affoltern am Albis","shortName":"Affoltern am Albis"},"district":{"key":"101","name":"Bezirk Affoltern"},"canton":{"key":"1","code":"ZH","name":"Zürich"},"status":"Real"},{"key":"10071853","name":"Panoramaweg","postalCode":"8910","locality":"Affoltern am Albis","commune":{"key":"2","name":"Affoltern am Albis","shortName":"Affoltern am Albis"},"district":{"key":"101","name":"Bezirk Affoltern"},"canton":{"key":"1","code":"ZH","name":"Zürich"},"status":"Real"},{"key":"10000549","name":"Parkweg","postalCode":"8910","locality":"Affoltern am Albis","commune":{"key":"2","name":"Affoltern am Albis","shortName":"Affoltern am Albis"},"district":{"key":"101","name":"Bezirk Affoltern"},"canton":{"key":"1","code":"ZH","name":"Zürich"},"status":"Real"},{"key":"10079562","name":"Pfruendhofstrasse","postalCode":"8910","locality":"Affoltern am Albis","commune":{"key":"2","name":"Affoltern am Albis","shortName":"Affoltern am Albis"},"district":{"key":"101","name":"Bezirk Affoltern"},"canton":{"key":"1","code":"ZH","name":"Zürich"},"status":"Real"},{"key":"10000550","name":"Pfruendhofweg","postalCode":"8910","locality":"Affoltern am Albis","commune":{"key":"2","name":"Affoltern am Albis","shortName":"Affoltern am Albis"},"district":{"key":"101","name":"Bezirk Affoltern"},"canton":{"key":"1","code":"ZH","name":"Zürich"},"status":"Real"},{"key":"10182078","name":"Pilatusweg","postalCode":"8910","locality":"Affoltern am Albis","commune":{"key":"2","name":"Affoltern am Albis","shortName":"Affoltern am Albis"},"district":{"key":"101","name":"Bezirk Affoltern"},"canton":{"key":"1","code":"ZH","name":"Zürich"},"status":"Real"},{"key":"10000551","name":"Poststrasse","postalCode":"8910","locality":"Affoltern am Albis","commune":{"key":"2","name":"Affoltern am Albis","shortName":"Affoltern am Albis"},"district":{"key":"101","name":"Bezirk Affoltern"},"canton":{"key":"1","code":"ZH","name":"Zürich"},"status":"Real"},{"key":"10064157","name":"Promenadenweg","postalCode":"8910","locality":"Affoltern am Albis","commune":{"key":"2","name":"Affoltern am Albis","shortName":"Affoltern am Albis"},"district":{"key":"101","name":"Bezirk Affoltern"},"canton":{"key":"1","code":"ZH","name":"Zürich"},"status":"Real"},{"key":"10022514","name":"Rebbergsteig","postalCode":"8910","locality":"Affoltern am Albis","commune":{"key":"2","name":"Affoltern am Albis","shortName":"Affoltern am Albis"},"district":{"key":"101","name":"Bezirk Affoltern"},"canton":{"key":"1","code":"ZH","name":"Zürich"},"status":"Real"},{"key":"10064158","name":"Rebhaldenstrasse","postalCode":"8910","locality":"Affoltern am Albis","commune":{"key":"2","name":"Affoltern am Albis","shortName":"Affoltern am Albis"},"district":{"key":"101","name":"Bezirk Affoltern"},"canton":{"key":"1","code":"ZH","name":"Zürich"},"status":"Real"},{"key":"10000552","name":"Rigistrasse","postalCode":"8910","locality":"Affoltern am Albis","commune":{"key":"2","name":"Affoltern am Albis","shortName":"Affoltern am Albis"},"district":{"key":"101","name":"Bezirk Affoltern"},"canton":{"key":"1","code":"ZH","name":"Zürich"},"status":"Real"},{"key":"10235251","name":"Rinderweiderhauweg","postalCode":"8910","locality":"Affoltern am Albis","commune":{"key":"2","name":"Affoltern am Albis","shortName":"Affoltern am Albis"},"district":{"key":"101","name":"Bezirk Affoltern"},"canton":{"key":"1","code":"ZH","name":"Zürich"},"status":"Real"},{"key":"10022520","name":"Rinderweidsteig","postalCode":"8910","locality":"Affoltern am Albis","commune":{"key":"2","name":"Affoltern am Albis","shortName":"Affoltern am Albis"},"district":{"key":"101","name":"Bezirk Affoltern"},"canton":{"key":"1","code":"ZH","name":"Zürich"},"status":"Real"},{"key":"10079563","name":"Rinderweidstrasse","postalCode":"8910","locality":"Affoltern am Albis","commune":{"key":"2","name":"Affoltern am Albis","shortName":"Affoltern am Albis"},"district":{"key":"101","name":"Bezirk Affoltern"},"canton":{"key":"1","code":"ZH","name":"Zürich"},"status":"Real"},{"key":"10153572","name":"Rinderweidweg","postalCode":"8910","locality":"Affoltern am Albis","commune":{"key":"2","name":"Affoltern am Albis","shortName":"Affoltern am Albis"},"district":{"key":"101","name":"Bezirk Affoltern"},"canton":{"key":"1","code":"ZH","name":"Zürich"},"status":"Real"},{"key":"10000553","name":"Ringstrasse","postalCode":"8910","locality":"Affoltern am Albis","commune":{"key":"2","name":"Affoltern am Albis","shortName":"Affoltern am Albis"},"district":{"key":"101","name":"Bezirk Affoltern"},"canton":{"key":"1","code":"ZH","name":"Zürich"},"status":"Real"},{"key":"10248994","name":"Rütimattweg","postalCode":"8910","locality":"Affoltern am Albis","commune":{"key":"2","name":"Affoltern am Albis","shortName":"Affoltern am Albis"},"district":{"key":"101","name":"Bezirk Affoltern"},"canton":{"key":"1","code":"ZH","name":"Zürich"},"status":"Real"},{"key":"10055567","name":"Sagistrasse","postalCode":"8910","locality":"Affoltern am Albis","commune":{"key":"2","name":"Affoltern am Albis","shortName":"Affoltern am Albis"},"district":{"key":"101","name":"Bezirk Affoltern"},"canton":{"key":"1","code":"ZH","name":"Zürich"},"status":"Real"},{"key":"10111661","name":"Schwandenrain","postalCode":"8910","locality":"Affoltern am Albis","commune":{"key":"2","name":"Affoltern am Albis","shortName":"Affoltern am Albis"},"district":{"key":"101","name":"Bezirk Affoltern"},"canton":{"key":"1","code":"ZH","name":"Zürich"},"status":"Real"},{"key":"10067574","name":"Schwandenstrasse","postalCode":"8910","locality":"Affoltern am Albis","commune":{"key":"2","name":"Affoltern am Albis","shortName":"Affoltern am Albis"},"district":{"key":"101","name":"Bezirk Affoltern"},"canton":{"key":"1","code":"ZH","name":"Zürich"},"status":"Real"},{"key":"10106399","name":"Seewadelstrasse","postalCode":"8910","locality":"Affoltern am Albis","commune":{"key":"2","name":"Affoltern am Albis","shortName":"Affoltern am Albis"},"district":{"key":"101","name":"Bezirk Affoltern"},"canton":{"key":"1","code":"ZH","name":"Zürich"},"status":"Real"},{"key":"10055568","name":"Semperweg","postalCode":"8910","locality":"Affoltern am Albis","commune":{"key":"2","name":"Affoltern am Albis","shortName":"Affoltern am Albis"},"district":{"key":"101","name":"Bezirk Affoltern"},"canton":{"key":"1","code":"ZH","name":"Zürich"},"status":"Real"},{"key":"10163270","name":"Sennweidstrasse","postalCode":"8910","locality":"Affoltern am Albis","commune":{"key":"2","name":"Affoltern am Albis","shortName":"Affoltern am Albis"},"district":{"key":"101","name":"Bezirk Affoltern"},"canton":{"key":"1","code":"ZH","name":"Zürich"},"status":"Real"},{"key":"10022523","name":"Sonnenbergsteig","postalCode":"8910","locality":"Affoltern am Albis","commune":{"key":"2","name":"Affoltern am Albis","shortName":"Affoltern am Albis"},"district":{"key":"101","name":"Bezirk Affoltern"},"canton":{"key":"1","code":"ZH","name":"Zürich"},"status":"Real"},{"key":"10115055","name":"Sonnenbergstrasse","postalCode":"8910","locality":"Affoltern am Albis","commune":{"key":"2","name":"Affoltern am Albis","shortName":"Affoltern am Albis"},"district":{"key":"101","name":"Bezirk Affoltern"},"canton":{"key":"1","code":"ZH","name":"Zürich"},"status":"Real"},{"key":"10055569","name":"Spitalweg","postalCode":"8910","locality":"Affoltern am Albis","commune":{"key":"2","name":"Affoltern am Albis","shortName":"Affoltern am Albis"},"district":{"key":"101","name":"Bezirk Affoltern"},"canton":{"key":"1","code":"ZH","name":"Zürich"},"status":"Real"},{"key":"10079564","name":"Spittelstrasse","postalCode":"8910","locality":"Affoltern am Albis","commune":{"key":"2","name":"Affoltern am Albis","shortName":"Affoltern am Albis"},"district":{"key":"101","name":"Bezirk Affoltern"},"canton":{"key":"1","code":"ZH","name":"Zürich"},"status":"Real"},{"key":"10000554","name":"Steinacherstrasse","postalCode":"8910","locality":"Affoltern am Albis","commune":{"key":"2","name":"Affoltern am Albis","shortName":"Affoltern am Albis"},"district":{"key":"101","name":"Bezirk Affoltern"},"canton":{"key":"1","code":"ZH","name":"Zürich"},"status":"Real"},{"key":"10099731","name":"Steinweg","postalCode":"8910","locality":"Affoltern am Albis","commune":{"key":"2","name":"Affoltern am Albis","shortName":"Affoltern am Albis"},"district":{"key":"101","name":"Bezirk Affoltern"},"canton":{"key":"1","code":"ZH","name":"Zürich"},"status":"Real"},{"key":"10067575","name":"Stigelistrasse","postalCode":"8910","locality":"Affoltern am Albis","commune":{"key":"2","name":"Affoltern am Albis","shortName":"Affoltern am Albis"},"district":{"key":"101","name":"Bezirk Affoltern"},"canton":{"key":"1","code":"ZH","name":"Zürich"},"status":"Real"},{"key":"10000556","name":"Tägerfeldstrasse","postalCode":"8910","locality":"Affoltern am Albis","commune":{"key":"2","name":"Affoltern am Albis","shortName":"Affoltern am Albis"},"district":{"key":"101","name":"Bezirk Affoltern"},"canton":{"key":"1","code":"ZH","name":"Zürich"},"status":"Real"},{"key":"10175858","name":"Tägergrund","postalCode":"8910","locality":"Affoltern am Albis","commune":{"key":"2","name":"Affoltern am Albis","shortName":"Affoltern am Albis"},"district":{"key":"101","name":"Bezirk Affoltern"},"canton":{"key":"1","code":"ZH","name":"Zürich"},"status":"Real"},{"key":"10000557","name":"Tägerstein","postalCode":"8910","locality":"Affoltern am Albis","commune":{"key":"2","name":"Affoltern am Albis","shortName":"Affoltern am Albis"},"district":{"key":"101","name":"Bezirk Affoltern"},"canton":{"key":"1","code":"ZH","name":"Zürich"},"status":"Real"},{"key":"10174775","name":"Tannhof","postalCode":"8910","locality":"Affoltern am Albis","commune":{"key":"2","name":"Affoltern am Albis","shortName":"Affoltern am Albis"},"district":{"key":"101","name":"Bezirk Affoltern"},"canton":{"key":"1","code":"ZH","name":"Zürich"},"status":"Real"},{"key":"10000555","name":"Tannholzstrasse","postalCode":"8910","locality":"Affoltern am Albis","commune":{"key":"2","name":"Affoltern am Albis","shortName":"Affoltern am Albis"},"district":{"key":"101","name":"Bezirk Affoltern"},"canton":{"key":"1","code":"ZH","name":"Zürich"},"status":"Real"},{"key":"10235249","name":"Tannholzweg","postalCode":"8910","locality":"Affoltern am Albis","commune":{"key":"2","name":"Affoltern am Albis","shortName":"Affoltern am Albis"},"district":{"key":"101","name":"Bezirk Affoltern"},"canton":{"key":"1","code":"ZH","name":"Zürich"},"status":"Real"},{"key":"10055570","name":"Tannrütistrasse","postalCode":"8910","locality":"Affoltern am Albis","commune":{"key":"2","name":"Affoltern am Albis","shortName":"Affoltern am Albis"},"district":{"key":"101","name":"Bezirk Affoltern"},"canton":{"key":"1","code":"ZH","name":"Zürich"},"status":"Real"},{"key":"10189167","name":"Titlisstrasse","postalCode":"8910","locality":"Affoltern am Albis","commune":{"key":"2","name":"Affoltern am Albis","shortName":"Affoltern am Albis"},"district":{"key":"101","name":"Bezirk Affoltern"},"canton":{"key":"1","code":"ZH","name":"Zürich"},"status":"Real"},{"key":"10159982","name":"Tobelweg","postalCode":"8910","locality":"Affoltern am Albis","commune":{"key":"2","name":"Affoltern am Albis","shortName":"Affoltern am Albis"},"district":{"key":"101","name":"Bezirk Affoltern"},"canton":{"key":"1","code":"ZH","name":"Zürich"},"status":"Real"},{"key":"10055571","name":"Uerklisweg","postalCode":"8910","locality":"Affoltern am Albis","commune":{"key":"2","name":"Affoltern am Albis","shortName":"Affoltern am Albis"},"district":{"key":"101","name":"Bezirk Affoltern"},"canton":{"key":"1","code":"ZH","name":"Zürich"},"status":"Real"},{"key":"10067576","name":"Untere Bahnhofstrasse","postalCode":"8910","locality":"Affoltern am Albis","commune":{"key":"2","name":"Affoltern am Albis","shortName":"Affoltern am Albis"},"district":{"key":"101","name":"Bezirk Affoltern"},"canton":{"key":"1","code":"ZH","name":"Zürich"},"status":"Real"},{"key":"10000558","name":"Untere Kirchfeldstrasse","postalCode":"8910","locality":"Affoltern am Albis","commune":{"key":"2","name":"Affoltern am Albis","shortName":"Affoltern am Albis"},"district":{"key":"101","name":"Bezirk Affoltern"},"canton":{"key":"1","code":"ZH","name":"Zürich"},"status":"Real"},{"key":"10055572","name":"Weingasse","postalCode":"8910","locality":"Affoltern am Albis","commune":{"key":"2","name":"Affoltern am Albis","shortName":"Affoltern am Albis"},"district":{"key":"101","name":"Bezirk Affoltern"},"canton":{"key":"1","code":"ZH","name":"Zürich"},"status":"Real"},{"key":"10022525","name":"Wengibadstrasse","postalCode":"8910","locality":"Affoltern am Albis","commune":{"key":"2","name":"Affoltern am Albis","shortName":"Affoltern am Albis"},"district":{"key":"101","name":"Bezirk Affoltern"},"canton":{"key":"1","code":"ZH","name":"Zürich"},"status":"Real"},{"key":"10106400","name":"Werkstrasse","postalCode":"8910","locality":"Affoltern am Albis","commune":{"key":"2","name":"Affoltern am Albis","shortName":"Affoltern am Albis"},"district":{"key":"101","name":"Bezirk Affoltern"},"canton":{"key":"1","code":"ZH","name":"Zürich"},"status":"Real"},{"key":"10079565","name":"Wiesengrundstrasse","postalCode":"8910","locality":"Affoltern am Albis","commune":{"key":"2","name":"Affoltern am Albis","shortName":"Affoltern am Albis"},"district":{"key":"101","name":"Bezirk Affoltern"},"canton":{"key":"1","code":"ZH","name":"Zürich"},"status":"Real"},{"key":"10099732","name":"Wiesenstrasse","postalCode":"8910","locality":"Affoltern am Albis","commune":{"key":"2","name":"Affoltern am Albis","shortName":"Affoltern am Albis"},"district":{"key":"101","name":"Bezirk Affoltern"},"canton":{"key":"1","code":"ZH","name":"Zürich"},"status":"Real"},{"key":"10000559","name":"Wilgibelweg","postalCode":"8910","locality":"Affoltern am Albis","commune":{"key":"2","name":"Affoltern am Albis","shortName":"Affoltern am Albis"},"district":{"key":"101","name":"Bezirk Affoltern"},"canton":{"key":"1","code":"ZH","name":"Zürich"},"status":"Real"},{"key":"10000560","name":"Wolhausenstrasse","postalCode":"8910","locality":"Affoltern am Albis","commune":{"key":"2","name":"Affoltern am Albis","shortName":"Affoltern am Albis"},"district":{"key":"101","name":"Bezirk Affoltern"},"canton":{"key":"1","code":"ZH","name":"Zürich"},"status":"Real"},{"key":"10191192","name":"Wollengasse","postalCode":"8910","locality":"Affoltern am Albis","commune":{"key":"2","name":"Affoltern am Albis","shortName":"Affoltern am Albis"},"district":{"key":"101","name":"Bezirk Affoltern"},"canton":{"key":"1","code":"ZH","name":"Zürich"},"status":"Real"},{"key":"10079566","name":"Zeughausstrasse","postalCode":"8910","locality":"Affoltern am Albis","commune":{"key":"2","name":"Affoltern am Albis","shortName":"Affoltern am Albis"},"district":{"key":"101","name":"Bezirk Affoltern"},"canton":{"key":"1","code":"ZH","name":"Zürich"},"status":"Real"},{"key":"10099733","name":"Zürichstrasse","postalCode":"8910","locality":"Affoltern am Albis","commune":{"key":"2","name":"Affoltern am Albis","shortName":"Affoltern am Albis"},"district":{"key":"101","name":"Bezirk Affoltern"},"canton":{"key":"1","code":"ZH","name":"Zürich"},"status":"Real"},{"key":"10000517","name":"Zwillikerstrasse","postalCode":"8910","locality":"Affoltern am Albis","commune":{"key":"2","name":"Affoltern am Albis","shortName":"Affoltern am Albis"},"district":{"key":"101","name":"Bezirk Affoltern"},"canton":{"key":"1","code":"ZH","name":"Zürich"},"status":"Real"},]