[{"name":"Am Kirchenpfad","postalCode":"55576","locality":"Welgesheim","municipality":{"key":"07339065","name":"Welgesheim","type":"Kreisangehörige_Gemeinde"},"district":{"key":"07339","name":"Mainz-Bingen","type":"Landkreis"},"federalState":{"key":"07","name":"Rheinland-Pfalz"}},{"name":"Außerhalb","postalCode":"55576","locality":"Welgesheim","municipality":{"key":"07339065","name":"Welgesheim","type":"Kreisangehörige_Gemeinde"},"district":{"key":"07339","name":"Mainz-Bingen","type":"Landkreis"},"federalState":{"key":"07","name":"Rheinland-Pfalz"}},{"name":"Bacchusstr.","postalCode":"55576","locality":"Welgesheim","municipality":{"key":"07339065","name":"Welgesheim","type":"Kreisangehörige_Gemeinde"},"district":{"key":"07339","name":"Mainz-Bingen","type":"Landkreis"},"federalState":{"key":"07","name":"Rheinland-Pfalz"}},{"name":"Backhausgasse","postalCode":"55576","locality":"Welgesheim","municipality":{"key":"07339065","name":"Welgesheim","type":"Kreisangehörige_Gemeinde"},"district":{"key":"07339","name":"Mainz-Bingen","type":"Landkreis"},"federalState":{"key":"07","name":"Rheinland-Pfalz"}},{"name":"Bahnhofstr.","postalCode":"55576","locality":"Welgesheim","municipality":{"key":"07339065","name":"Welgesheim","type":"Kreisangehörige_Gemeinde"},"district":{"key":"07339","name":"Mainz-Bingen","type":"Landkreis"},"federalState":{"key":"07","name":"Rheinland-Pfalz"}},{"name":"Barkheimer Weg","postalCode":"55576","locality":"Welgesheim","municipality":{"key":"07339065","name":"Welgesheim","type":"Kreisangehörige_Gemeinde"},"district":{"key":"07339","name":"Mainz-Bingen","type":"Landkreis"},"federalState":{"key":"07","name":"Rheinland-Pfalz"}},{"name":"Bergstr.","postalCode":"55576","locality":"Welgesheim","municipality":{"key":"07339065","name":"Welgesheim","type":"Kreisangehörige_Gemeinde"},"district":{"key":"07339","name":"Mainz-Bingen","type":"Landkreis"},"federalState":{"key":"07","name":"Rheinland-Pfalz"}},{"name":"Ebrichgasse","postalCode":"55576","locality":"Welgesheim","municipality":{"key":"07339065","name":"Welgesheim","type":"Kreisangehörige_Gemeinde"},"district":{"key":"07339","name":"Mainz-Bingen","type":"Landkreis"},"federalState":{"key":"07","name":"Rheinland-Pfalz"}},{"name":"Gaugasse","postalCode":"55576","locality":"Welgesheim","municipality":{"key":"07339065","name":"Welgesheim","type":"Kreisangehörige_Gemeinde"},"district":{"key":"07339","name":"Mainz-Bingen","type":"Landkreis"},"federalState":{"key":"07","name":"Rheinland-Pfalz"}},{"name":"Heerstr.","postalCode":"55576","locality":"Welgesheim","municipality":{"key":"07339065","name":"Welgesheim","type":"Kreisangehörige_Gemeinde"},"district":{"key":"07339","name":"Mainz-Bingen","type":"Landkreis"},"federalState":{"key":"07","name":"Rheinland-Pfalz"}},{"name":"Kirchstr.","postalCode":"55576","locality":"Welgesheim","municipality":{"key":"07339065","name":"Welgesheim","type":"Kreisangehörige_Gemeinde"},"district":{"key":"07339","name":"Mainz-Bingen","type":"Landkreis"},"federalState":{"key":"07","name":"Rheinland-Pfalz"}},{"name":"Kreuzstr.","postalCode":"55576","locality":"Welgesheim","municipality":{"key":"07339065","name":"Welgesheim","type":"Kreisangehörige_Gemeinde"},"district":{"key":"07339","name":"Mainz-Bingen","type":"Landkreis"},"federalState":{"key":"07","name":"Rheinland-Pfalz"}},{"name":"Leimengasse","postalCode":"55576","locality":"Welgesheim","municipality":{"key":"07339065","name":"Welgesheim","type":"Kreisangehörige_Gemeinde"},"district":{"key":"07339","name":"Mainz-Bingen","type":"Landkreis"},"federalState":{"key":"07","name":"Rheinland-Pfalz"}},{"name":"Mühlgasse","postalCode":"55576","locality":"Welgesheim","municipality":{"key":"07339065","name":"Welgesheim","type":"Kreisangehörige_Gemeinde"},"district":{"key":"07339","name":"Mainz-Bingen","type":"Landkreis"},"federalState":{"key":"07","name":"Rheinland-Pfalz"}},{"name":"Obergasse","postalCode":"55576","locality":"Welgesheim","municipality":{"key":"07339065","name":"Welgesheim","type":"Kreisangehörige_Gemeinde"},"district":{"key":"07339","name":"Mainz-Bingen","type":"Landkreis"},"federalState":{"key":"07","name":"Rheinland-Pfalz"}},{"name":"Sackgasse","postalCode":"55576","locality":"Welgesheim","municipality":{"key":"07339065","name":"Welgesheim","type":"Kreisangehörige_Gemeinde"},"district":{"key":"07339","name":"Mainz-Bingen","type":"Landkreis"},"federalState":{"key":"07","name":"Rheinland-Pfalz"}},{"name":"Schlimmsweide","postalCode":"55576","locality":"Welgesheim","municipality":{"key":"07339065","name":"Welgesheim","type":"Kreisangehörige_Gemeinde"},"district":{"key":"07339","name":"Mainz-Bingen","type":"Landkreis"},"federalState":{"key":"07","name":"Rheinland-Pfalz"}},{"name":"Schulstr.","postalCode":"55576","locality":"Welgesheim","municipality":{"key":"07339065","name":"Welgesheim","type":"Kreisangehörige_Gemeinde"},"district":{"key":"07339","name":"Mainz-Bingen","type":"Landkreis"},"federalState":{"key":"07","name":"Rheinland-Pfalz"}},{"name":"Silvanerstr.","postalCode":"55576","locality":"Welgesheim","municipality":{"key":"07339065","name":"Welgesheim","type":"Kreisangehörige_Gemeinde"},"district":{"key":"07339","name":"Mainz-Bingen","type":"Landkreis"},"federalState":{"key":"07","name":"Rheinland-Pfalz"}},{"name":"Volkhardweg","postalCode":"55576","locality":"Welgesheim","municipality":{"key":"07339065","name":"Welgesheim","type":"Kreisangehörige_Gemeinde"},"district":{"key":"07339","name":"Mainz-Bingen","type":"Landkreis"},"federalState":{"key":"07","name":"Rheinland-Pfalz"}},{"name":"Webergasse","postalCode":"55576","locality":"Welgesheim","municipality":{"key":"07339065","name":"Welgesheim","type":"Kreisangehörige_Gemeinde"},"district":{"key":"07339","name":"Mainz-Bingen","type":"Landkreis"},"federalState":{"key":"07","name":"Rheinland-Pfalz"}},{"name":"Weedeplatz","postalCode":"55576","locality":"Welgesheim","municipality":{"key":"07339065","name":"Welgesheim","type":"Kreisangehörige_Gemeinde"},"district":{"key":"07339","name":"Mainz-Bingen","type":"Landkreis"},"federalState":{"key":"07","name":"Rheinland-Pfalz"}},{"name":"Zotzenheimer Weg","postalCode":"55576","locality":"Welgesheim","municipality":{"key":"07339065","name":"Welgesheim","type":"Kreisangehörige_Gemeinde"},"district":{"key":"07339","name":"Mainz-Bingen","type":"Landkreis"},"federalState":{"key":"07","name":"Rheinland-Pfalz"}},]