[{"name":"Adlergasse","postalCode":"77876","locality":"Kappelrodeck","municipality":{"key":"08317056","name":"Kappelrodeck","type":"Kreisangehörige_Gemeinde"},"district":{"key":"08317","name":"Ortenaukreis","type":"Landkreis"},"federalState":{"key":"08","name":"Baden-Württemberg"}},{"name":"Allmendwaldweg","postalCode":"77876","locality":"Kappelrodeck","municipality":{"key":"08317056","name":"Kappelrodeck","type":"Kreisangehörige_Gemeinde"},"district":{"key":"08317","name":"Ortenaukreis","type":"Landkreis"},"federalState":{"key":"08","name":"Baden-Württemberg"}},{"name":"Alm","postalCode":"77876","locality":"Kappelrodeck","municipality":{"key":"08317056","name":"Kappelrodeck","type":"Kreisangehörige_Gemeinde"},"district":{"key":"08317","name":"Ortenaukreis","type":"Landkreis"},"federalState":{"key":"08","name":"Baden-Württemberg"}},{"name":"Am Bach","postalCode":"77876","locality":"Kappelrodeck","municipality":{"key":"08317056","name":"Kappelrodeck","type":"Kreisangehörige_Gemeinde"},"district":{"key":"08317","name":"Ortenaukreis","type":"Landkreis"},"federalState":{"key":"08","name":"Baden-Württemberg"}},{"name":"Am Kirchplatz","postalCode":"77876","locality":"Kappelrodeck","municipality":{"key":"08317056","name":"Kappelrodeck","type":"Kreisangehörige_Gemeinde"},"district":{"key":"08317","name":"Ortenaukreis","type":"Landkreis"},"federalState":{"key":"08","name":"Baden-Württemberg"}},{"name":"Am Schwimmbad","postalCode":"77876","locality":"Kappelrodeck","municipality":{"key":"08317056","name":"Kappelrodeck","type":"Kreisangehörige_Gemeinde"},"district":{"key":"08317","name":"Ortenaukreis","type":"Landkreis"},"federalState":{"key":"08","name":"Baden-Württemberg"}},{"name":"Amselweg","postalCode":"77876","locality":"Kappelrodeck","municipality":{"key":"08317056","name":"Kappelrodeck","type":"Kreisangehörige_Gemeinde"},"district":{"key":"08317","name":"Ortenaukreis","type":"Landkreis"},"federalState":{"key":"08","name":"Baden-Württemberg"}},{"name":"An der Acher","postalCode":"77876","locality":"Kappelrodeck","municipality":{"key":"08317056","name":"Kappelrodeck","type":"Kreisangehörige_Gemeinde"},"district":{"key":"08317","name":"Ortenaukreis","type":"Landkreis"},"federalState":{"key":"08","name":"Baden-Württemberg"}},{"name":"Belzackerweg","postalCode":"77876","locality":"Kappelrodeck","municipality":{"key":"08317056","name":"Kappelrodeck","type":"Kreisangehörige_Gemeinde"},"district":{"key":"08317","name":"Ortenaukreis","type":"Landkreis"},"federalState":{"key":"08","name":"Baden-Württemberg"}},{"name":"Berggasse","postalCode":"77876","locality":"Kappelrodeck","municipality":{"key":"08317056","name":"Kappelrodeck","type":"Kreisangehörige_Gemeinde"},"district":{"key":"08317","name":"Ortenaukreis","type":"Landkreis"},"federalState":{"key":"08","name":"Baden-Württemberg"}},{"name":"Bernhardshöf","postalCode":"77876","locality":"Kappelrodeck","municipality":{"key":"08317056","name":"Kappelrodeck","type":"Kreisangehörige_Gemeinde"},"district":{"key":"08317","name":"Ortenaukreis","type":"Landkreis"},"federalState":{"key":"08","name":"Baden-Württemberg"}},{"name":"Besenstiel","postalCode":"77876","locality":"Kappelrodeck","municipality":{"key":"08317056","name":"Kappelrodeck","type":"Kreisangehörige_Gemeinde"},"district":{"key":"08317","name":"Ortenaukreis","type":"Landkreis"},"federalState":{"key":"08","name":"Baden-Württemberg"}},{"name":"Bierkellerweg","postalCode":"77876","locality":"Kappelrodeck","municipality":{"key":"08317056","name":"Kappelrodeck","type":"Kreisangehörige_Gemeinde"},"district":{"key":"08317","name":"Ortenaukreis","type":"Landkreis"},"federalState":{"key":"08","name":"Baden-Württemberg"}},{"name":"Birkköpfel","postalCode":"77876","locality":"Kappelrodeck","municipality":{"key":"08317056","name":"Kappelrodeck","type":"Kreisangehörige_Gemeinde"},"district":{"key":"08317","name":"Ortenaukreis","type":"Landkreis"},"federalState":{"key":"08","name":"Baden-Württemberg"}},{"name":"Blaubronn","postalCode":"77876","locality":"Kappelrodeck","municipality":{"key":"08317056","name":"Kappelrodeck","type":"Kreisangehörige_Gemeinde"},"district":{"key":"08317","name":"Ortenaukreis","type":"Landkreis"},"federalState":{"key":"08","name":"Baden-Württemberg"}},{"name":"Blumenstr.","postalCode":"77876","locality":"Kappelrodeck","municipality":{"key":"08317056","name":"Kappelrodeck","type":"Kreisangehörige_Gemeinde"},"district":{"key":"08317","name":"Ortenaukreis","type":"Landkreis"},"federalState":{"key":"08","name":"Baden-Württemberg"}},{"name":"Bobenholzweg","postalCode":"77876","locality":"Kappelrodeck","municipality":{"key":"08317056","name":"Kappelrodeck","type":"Kreisangehörige_Gemeinde"},"district":{"key":"08317","name":"Ortenaukreis","type":"Landkreis"},"federalState":{"key":"08","name":"Baden-Württemberg"}},{"name":"Brandrain","postalCode":"77876","locality":"Kappelrodeck","municipality":{"key":"08317056","name":"Kappelrodeck","type":"Kreisangehörige_Gemeinde"},"district":{"key":"08317","name":"Ortenaukreis","type":"Landkreis"},"federalState":{"key":"08","name":"Baden-Württemberg"}},{"name":"Brombeerweg","postalCode":"77876","locality":"Kappelrodeck","municipality":{"key":"08317056","name":"Kappelrodeck","type":"Kreisangehörige_Gemeinde"},"district":{"key":"08317","name":"Ortenaukreis","type":"Landkreis"},"federalState":{"key":"08","name":"Baden-Württemberg"}},{"name":"Bronnmattstr.","postalCode":"77876","locality":"Kappelrodeck","municipality":{"key":"08317056","name":"Kappelrodeck","type":"Kreisangehörige_Gemeinde"},"district":{"key":"08317","name":"Ortenaukreis","type":"Landkreis"},"federalState":{"key":"08","name":"Baden-Württemberg"}},{"name":"Dasensteinweg","postalCode":"77876","locality":"Kappelrodeck","municipality":{"key":"08317056","name":"Kappelrodeck","type":"Kreisangehörige_Gemeinde"},"district":{"key":"08317","name":"Ortenaukreis","type":"Landkreis"},"federalState":{"key":"08","name":"Baden-Württemberg"}},{"name":"Dorfbündt","postalCode":"77876","locality":"Kappelrodeck","municipality":{"key":"08317056","name":"Kappelrodeck","type":"Kreisangehörige_Gemeinde"},"district":{"key":"08317","name":"Ortenaukreis","type":"Landkreis"},"federalState":{"key":"08","name":"Baden-Württemberg"}},{"name":"Eichenwäldeleweg","postalCode":"77876","locality":"Kappelrodeck","municipality":{"key":"08317056","name":"Kappelrodeck","type":"Kreisangehörige_Gemeinde"},"district":{"key":"08317","name":"Ortenaukreis","type":"Landkreis"},"federalState":{"key":"08","name":"Baden-Württemberg"}},{"name":"Eichgasse","postalCode":"77876","locality":"Kappelrodeck","municipality":{"key":"08317056","name":"Kappelrodeck","type":"Kreisangehörige_Gemeinde"},"district":{"key":"08317","name":"Ortenaukreis","type":"Landkreis"},"federalState":{"key":"08","name":"Baden-Württemberg"}},{"name":"Eisenbahnstr.","postalCode":"77876","locality":"Kappelrodeck","municipality":{"key":"08317056","name":"Kappelrodeck","type":"Kreisangehörige_Gemeinde"},"district":{"key":"08317","name":"Ortenaukreis","type":"Landkreis"},"federalState":{"key":"08","name":"Baden-Württemberg"}},{"name":"Eliacker","postalCode":"77876","locality":"Kappelrodeck","municipality":{"key":"08317056","name":"Kappelrodeck","type":"Kreisangehörige_Gemeinde"},"district":{"key":"08317","name":"Ortenaukreis","type":"Landkreis"},"federalState":{"key":"08","name":"Baden-Württemberg"}},{"name":"Elise-Vogt-Str.","postalCode":"77876","locality":"Kappelrodeck","municipality":{"key":"08317056","name":"Kappelrodeck","type":"Kreisangehörige_Gemeinde"},"district":{"key":"08317","name":"Ortenaukreis","type":"Landkreis"},"federalState":{"key":"08","name":"Baden-Württemberg"}},{"name":"Elsässer Weg","postalCode":"77876","locality":"Kappelrodeck","municipality":{"key":"08317056","name":"Kappelrodeck","type":"Kreisangehörige_Gemeinde"},"district":{"key":"08317","name":"Ortenaukreis","type":"Landkreis"},"federalState":{"key":"08","name":"Baden-Württemberg"}},{"name":"Erb","postalCode":"77876","locality":"Kappelrodeck","municipality":{"key":"08317056","name":"Kappelrodeck","type":"Kreisangehörige_Gemeinde"},"district":{"key":"08317","name":"Ortenaukreis","type":"Landkreis"},"federalState":{"key":"08","name":"Baden-Württemberg"}},{"name":"Finkenweg","postalCode":"77876","locality":"Kappelrodeck","municipality":{"key":"08317056","name":"Kappelrodeck","type":"Kreisangehörige_Gemeinde"},"district":{"key":"08317","name":"Ortenaukreis","type":"Landkreis"},"federalState":{"key":"08","name":"Baden-Württemberg"}},{"name":"Fliederweg","postalCode":"77876","locality":"Kappelrodeck","municipality":{"key":"08317056","name":"Kappelrodeck","type":"Kreisangehörige_Gemeinde"},"district":{"key":"08317","name":"Ortenaukreis","type":"Landkreis"},"federalState":{"key":"08","name":"Baden-Württemberg"}},{"name":"Freiamt","postalCode":"77876","locality":"Kappelrodeck","municipality":{"key":"08317056","name":"Kappelrodeck","type":"Kreisangehörige_Gemeinde"},"district":{"key":"08317","name":"Ortenaukreis","type":"Landkreis"},"federalState":{"key":"08","name":"Baden-Württemberg"}},{"name":"Friedhof","postalCode":"77876","locality":"Kappelrodeck","municipality":{"key":"08317056","name":"Kappelrodeck","type":"Kreisangehörige_Gemeinde"},"district":{"key":"08317","name":"Ortenaukreis","type":"Landkreis"},"federalState":{"key":"08","name":"Baden-Württemberg"}},{"name":"Gartenstr.","postalCode":"77876","locality":"Kappelrodeck","municipality":{"key":"08317056","name":"Kappelrodeck","type":"Kreisangehörige_Gemeinde"},"district":{"key":"08317","name":"Ortenaukreis","type":"Landkreis"},"federalState":{"key":"08","name":"Baden-Württemberg"}},{"name":"Grüner Winkel","postalCode":"77876","locality":"Kappelrodeck","municipality":{"key":"08317056","name":"Kappelrodeck","type":"Kreisangehörige_Gemeinde"},"district":{"key":"08317","name":"Ortenaukreis","type":"Landkreis"},"federalState":{"key":"08","name":"Baden-Württemberg"}},{"name":"Hauptstr.","postalCode":"77876","locality":"Kappelrodeck","municipality":{"key":"08317056","name":"Kappelrodeck","type":"Kreisangehörige_Gemeinde"},"district":{"key":"08317","name":"Ortenaukreis","type":"Landkreis"},"federalState":{"key":"08","name":"Baden-Württemberg"}},{"name":"Heidenhof","postalCode":"77876","locality":"Kappelrodeck","municipality":{"key":"08317056","name":"Kappelrodeck","type":"Kreisangehörige_Gemeinde"},"district":{"key":"08317","name":"Ortenaukreis","type":"Landkreis"},"federalState":{"key":"08","name":"Baden-Württemberg"}},{"name":"Heidenhofweg","postalCode":"77876","locality":"Kappelrodeck","municipality":{"key":"08317056","name":"Kappelrodeck","type":"Kreisangehörige_Gemeinde"},"district":{"key":"08317","name":"Ortenaukreis","type":"Landkreis"},"federalState":{"key":"08","name":"Baden-Württemberg"}},{"name":"Hermannstr.","postalCode":"77876","locality":"Kappelrodeck","municipality":{"key":"08317056","name":"Kappelrodeck","type":"Kreisangehörige_Gemeinde"},"district":{"key":"08317","name":"Ortenaukreis","type":"Landkreis"},"federalState":{"key":"08","name":"Baden-Württemberg"}},{"name":"Herrenmatte","postalCode":"77876","locality":"Kappelrodeck","municipality":{"key":"08317056","name":"Kappelrodeck","type":"Kreisangehörige_Gemeinde"},"district":{"key":"08317","name":"Ortenaukreis","type":"Landkreis"},"federalState":{"key":"08","name":"Baden-Württemberg"}},{"name":"Herrenmattweg","postalCode":"77876","locality":"Kappelrodeck","municipality":{"key":"08317056","name":"Kappelrodeck","type":"Kreisangehörige_Gemeinde"},"district":{"key":"08317","name":"Ortenaukreis","type":"Landkreis"},"federalState":{"key":"08","name":"Baden-Württemberg"}},{"name":"Herrenstr.","postalCode":"77876","locality":"Kappelrodeck","municipality":{"key":"08317056","name":"Kappelrodeck","type":"Kreisangehörige_Gemeinde"},"district":{"key":"08317","name":"Ortenaukreis","type":"Landkreis"},"federalState":{"key":"08","name":"Baden-Württemberg"}},{"name":"Himbeerweg","postalCode":"77876","locality":"Kappelrodeck","municipality":{"key":"08317056","name":"Kappelrodeck","type":"Kreisangehörige_Gemeinde"},"district":{"key":"08317","name":"Ortenaukreis","type":"Landkreis"},"federalState":{"key":"08","name":"Baden-Württemberg"}},{"name":"Hintermatt","postalCode":"77876","locality":"Kappelrodeck","municipality":{"key":"08317056","name":"Kappelrodeck","type":"Kreisangehörige_Gemeinde"},"district":{"key":"08317","name":"Ortenaukreis","type":"Landkreis"},"federalState":{"key":"08","name":"Baden-Württemberg"}},{"name":"Hirschbrücke","postalCode":"77876","locality":"Kappelrodeck","municipality":{"key":"08317056","name":"Kappelrodeck","type":"Kreisangehörige_Gemeinde"},"district":{"key":"08317","name":"Ortenaukreis","type":"Landkreis"},"federalState":{"key":"08","name":"Baden-Württemberg"}},{"name":"Hirtel","postalCode":"77876","locality":"Kappelrodeck","municipality":{"key":"08317056","name":"Kappelrodeck","type":"Kreisangehörige_Gemeinde"},"district":{"key":"08317","name":"Ortenaukreis","type":"Landkreis"},"federalState":{"key":"08","name":"Baden-Württemberg"}},{"name":"Ibergstr.","postalCode":"77876","locality":"Kappelrodeck","municipality":{"key":"08317056","name":"Kappelrodeck","type":"Kreisangehörige_Gemeinde"},"district":{"key":"08317","name":"Ortenaukreis","type":"Landkreis"},"federalState":{"key":"08","name":"Baden-Württemberg"}},{"name":"Im Obstgarten","postalCode":"77876","locality":"Kappelrodeck","municipality":{"key":"08317056","name":"Kappelrodeck","type":"Kreisangehörige_Gemeinde"},"district":{"key":"08317","name":"Ortenaukreis","type":"Landkreis"},"federalState":{"key":"08","name":"Baden-Württemberg"}},{"name":"Jahnstr.","postalCode":"77876","locality":"Kappelrodeck","municipality":{"key":"08317056","name":"Kappelrodeck","type":"Kreisangehörige_Gemeinde"},"district":{"key":"08317","name":"Ortenaukreis","type":"Landkreis"},"federalState":{"key":"08","name":"Baden-Württemberg"}},{"name":"Juliusstr.","postalCode":"77876","locality":"Kappelrodeck","municipality":{"key":"08317056","name":"Kappelrodeck","type":"Kreisangehörige_Gemeinde"},"district":{"key":"08317","name":"Ortenaukreis","type":"Landkreis"},"federalState":{"key":"08","name":"Baden-Württemberg"}},{"name":"Kappelbergweg","postalCode":"77876","locality":"Kappelrodeck","municipality":{"key":"08317056","name":"Kappelrodeck","type":"Kreisangehörige_Gemeinde"},"district":{"key":"08317","name":"Ortenaukreis","type":"Landkreis"},"federalState":{"key":"08","name":"Baden-Württemberg"}},{"name":"Kappelmatt","postalCode":"77876","locality":"Kappelrodeck","municipality":{"key":"08317056","name":"Kappelrodeck","type":"Kreisangehörige_Gemeinde"},"district":{"key":"08317","name":"Ortenaukreis","type":"Landkreis"},"federalState":{"key":"08","name":"Baden-Württemberg"}},{"name":"Kastanienweg","postalCode":"77876","locality":"Kappelrodeck","municipality":{"key":"08317056","name":"Kappelrodeck","type":"Kreisangehörige_Gemeinde"},"district":{"key":"08317","name":"Ortenaukreis","type":"Landkreis"},"federalState":{"key":"08","name":"Baden-Württemberg"}},{"name":"Kirchweg","postalCode":"77876","locality":"Kappelrodeck","municipality":{"key":"08317056","name":"Kappelrodeck","type":"Kreisangehörige_Gemeinde"},"district":{"key":"08317","name":"Ortenaukreis","type":"Landkreis"},"federalState":{"key":"08","name":"Baden-Württemberg"}},{"name":"Kirschenweg","postalCode":"77876","locality":"Kappelrodeck","municipality":{"key":"08317056","name":"Kappelrodeck","type":"Kreisangehörige_Gemeinde"},"district":{"key":"08317","name":"Ortenaukreis","type":"Landkreis"},"federalState":{"key":"08","name":"Baden-Württemberg"}},{"name":"Klaus","postalCode":"77876","locality":"Kappelrodeck","municipality":{"key":"08317056","name":"Kappelrodeck","type":"Kreisangehörige_Gemeinde"},"district":{"key":"08317","name":"Ortenaukreis","type":"Landkreis"},"federalState":{"key":"08","name":"Baden-Württemberg"}},{"name":"Kleinwäldele","postalCode":"77876","locality":"Kappelrodeck","municipality":{"key":"08317056","name":"Kappelrodeck","type":"Kreisangehörige_Gemeinde"},"district":{"key":"08317","name":"Ortenaukreis","type":"Landkreis"},"federalState":{"key":"08","name":"Baden-Württemberg"}},{"name":"Küferstr.","postalCode":"77876","locality":"Kappelrodeck","municipality":{"key":"08317056","name":"Kappelrodeck","type":"Kreisangehörige_Gemeinde"},"district":{"key":"08317","name":"Ortenaukreis","type":"Landkreis"},"federalState":{"key":"08","name":"Baden-Württemberg"}},{"name":"Kurgarten","postalCode":"77876","locality":"Kappelrodeck","municipality":{"key":"08317056","name":"Kappelrodeck","type":"Kreisangehörige_Gemeinde"},"district":{"key":"08317","name":"Ortenaukreis","type":"Landkreis"},"federalState":{"key":"08","name":"Baden-Württemberg"}},{"name":"Kutzendorf","postalCode":"77876","locality":"Kappelrodeck","municipality":{"key":"08317056","name":"Kappelrodeck","type":"Kreisangehörige_Gemeinde"},"district":{"key":"08317","name":"Ortenaukreis","type":"Landkreis"},"federalState":{"key":"08","name":"Baden-Württemberg"}},{"name":"Langenberg","postalCode":"77876","locality":"Kappelrodeck","municipality":{"key":"08317056","name":"Kappelrodeck","type":"Kreisangehörige_Gemeinde"},"district":{"key":"08317","name":"Ortenaukreis","type":"Landkreis"},"federalState":{"key":"08","name":"Baden-Württemberg"}},{"name":"Langfurch","postalCode":"77876","locality":"Kappelrodeck","municipality":{"key":"08317056","name":"Kappelrodeck","type":"Kreisangehörige_Gemeinde"},"district":{"key":"08317","name":"Ortenaukreis","type":"Landkreis"},"federalState":{"key":"08","name":"Baden-Württemberg"}},{"name":"Lärchenweg","postalCode":"77876","locality":"Kappelrodeck","municipality":{"key":"08317056","name":"Kappelrodeck","type":"Kreisangehörige_Gemeinde"},"district":{"key":"08317","name":"Ortenaukreis","type":"Landkreis"},"federalState":{"key":"08","name":"Baden-Württemberg"}},{"name":"Lutzenstr.","postalCode":"77876","locality":"Kappelrodeck","municipality":{"key":"08317056","name":"Kappelrodeck","type":"Kreisangehörige_Gemeinde"},"district":{"key":"08317","name":"Ortenaukreis","type":"Landkreis"},"federalState":{"key":"08","name":"Baden-Württemberg"}},{"name":"Mösbacher Höf","postalCode":"77876","locality":"Kappelrodeck","municipality":{"key":"08317056","name":"Kappelrodeck","type":"Kreisangehörige_Gemeinde"},"district":{"key":"08317","name":"Ortenaukreis","type":"Landkreis"},"federalState":{"key":"08","name":"Baden-Württemberg"}},{"name":"Mühlenbach","postalCode":"77876","locality":"Kappelrodeck","municipality":{"key":"08317056","name":"Kappelrodeck","type":"Kreisangehörige_Gemeinde"},"district":{"key":"08317","name":"Ortenaukreis","type":"Landkreis"},"federalState":{"key":"08","name":"Baden-Württemberg"}},{"name":"Nelkenweg","postalCode":"77876","locality":"Kappelrodeck","municipality":{"key":"08317056","name":"Kappelrodeck","type":"Kreisangehörige_Gemeinde"},"district":{"key":"08317","name":"Ortenaukreis","type":"Landkreis"},"federalState":{"key":"08","name":"Baden-Württemberg"}},{"name":"Oberberg","postalCode":"77876","locality":"Kappelrodeck","municipality":{"key":"08317056","name":"Kappelrodeck","type":"Kreisangehörige_Gemeinde"},"district":{"key":"08317","name":"Ortenaukreis","type":"Landkreis"},"federalState":{"key":"08","name":"Baden-Württemberg"}},{"name":"Obere Ibachgasse","postalCode":"77876","locality":"Kappelrodeck","municipality":{"key":"08317056","name":"Kappelrodeck","type":"Kreisangehörige_Gemeinde"},"district":{"key":"08317","name":"Ortenaukreis","type":"Landkreis"},"federalState":{"key":"08","name":"Baden-Württemberg"}},{"name":"Obere Widigstr.","postalCode":"77876","locality":"Kappelrodeck","municipality":{"key":"08317056","name":"Kappelrodeck","type":"Kreisangehörige_Gemeinde"},"district":{"key":"08317","name":"Ortenaukreis","type":"Landkreis"},"federalState":{"key":"08","name":"Baden-Württemberg"}},{"name":"Obstlehrpfad","postalCode":"77876","locality":"Kappelrodeck","municipality":{"key":"08317056","name":"Kappelrodeck","type":"Kreisangehörige_Gemeinde"},"district":{"key":"08317","name":"Ortenaukreis","type":"Landkreis"},"federalState":{"key":"08","name":"Baden-Württemberg"}},{"name":"Pfaffenbach","postalCode":"77876","locality":"Kappelrodeck","municipality":{"key":"08317056","name":"Kappelrodeck","type":"Kreisangehörige_Gemeinde"},"district":{"key":"08317","name":"Ortenaukreis","type":"Landkreis"},"federalState":{"key":"08","name":"Baden-Württemberg"}},{"name":"Pfarrberg","postalCode":"77876","locality":"Kappelrodeck","municipality":{"key":"08317056","name":"Kappelrodeck","type":"Kreisangehörige_Gemeinde"},"district":{"key":"08317","name":"Ortenaukreis","type":"Landkreis"},"federalState":{"key":"08","name":"Baden-Württemberg"}},{"name":"Plätzmatte","postalCode":"77876","locality":"Kappelrodeck","municipality":{"key":"08317056","name":"Kappelrodeck","type":"Kreisangehörige_Gemeinde"},"district":{"key":"08317","name":"Ortenaukreis","type":"Landkreis"},"federalState":{"key":"08","name":"Baden-Württemberg"}},{"name":"Richard-Lenk-Str.","postalCode":"77876","locality":"Kappelrodeck","municipality":{"key":"08317056","name":"Kappelrodeck","type":"Kreisangehörige_Gemeinde"},"district":{"key":"08317","name":"Ortenaukreis","type":"Landkreis"},"federalState":{"key":"08","name":"Baden-Württemberg"}},{"name":"Rosenweg","postalCode":"77876","locality":"Kappelrodeck","municipality":{"key":"08317056","name":"Kappelrodeck","type":"Kreisangehörige_Gemeinde"},"district":{"key":"08317","name":"Ortenaukreis","type":"Landkreis"},"federalState":{"key":"08","name":"Baden-Württemberg"}},{"name":"Rosheimer Ring","postalCode":"77876","locality":"Kappelrodeck","municipality":{"key":"08317056","name":"Kappelrodeck","type":"Kreisangehörige_Gemeinde"},"district":{"key":"08317","name":"Ortenaukreis","type":"Landkreis"},"federalState":{"key":"08","name":"Baden-Württemberg"}},{"name":"Ruhmatt","postalCode":"77876","locality":"Kappelrodeck","municipality":{"key":"08317056","name":"Kappelrodeck","type":"Kreisangehörige_Gemeinde"},"district":{"key":"08317","name":"Ortenaukreis","type":"Landkreis"},"federalState":{"key":"08","name":"Baden-Württemberg"}},{"name":"Rußhaldeweg","postalCode":"77876","locality":"Kappelrodeck","municipality":{"key":"08317056","name":"Kappelrodeck","type":"Kreisangehörige_Gemeinde"},"district":{"key":"08317","name":"Ortenaukreis","type":"Landkreis"},"federalState":{"key":"08","name":"Baden-Württemberg"}},{"name":"Schlossbergstr.","postalCode":"77876","locality":"Kappelrodeck","municipality":{"key":"08317056","name":"Kappelrodeck","type":"Kreisangehörige_Gemeinde"},"district":{"key":"08317","name":"Ortenaukreis","type":"Landkreis"},"federalState":{"key":"08","name":"Baden-Württemberg"}},{"name":"Schloßbergstr.","postalCode":"77876","locality":"Kappelrodeck","municipality":{"key":"08317056","name":"Kappelrodeck","type":"Kreisangehörige_Gemeinde"},"district":{"key":"08317","name":"Ortenaukreis","type":"Landkreis"},"federalState":{"key":"08","name":"Baden-Württemberg"}},{"name":"Schulstr.","postalCode":"77876","locality":"Kappelrodeck","municipality":{"key":"08317056","name":"Kappelrodeck","type":"Kreisangehörige_Gemeinde"},"district":{"key":"08317","name":"Ortenaukreis","type":"Landkreis"},"federalState":{"key":"08","name":"Baden-Württemberg"}},{"name":"Schwend","postalCode":"77876","locality":"Kappelrodeck","municipality":{"key":"08317056","name":"Kappelrodeck","type":"Kreisangehörige_Gemeinde"},"district":{"key":"08317","name":"Ortenaukreis","type":"Landkreis"},"federalState":{"key":"08","name":"Baden-Württemberg"}},{"name":"Steinebach","postalCode":"77876","locality":"Kappelrodeck","municipality":{"key":"08317056","name":"Kappelrodeck","type":"Kreisangehörige_Gemeinde"},"district":{"key":"08317","name":"Ortenaukreis","type":"Landkreis"},"federalState":{"key":"08","name":"Baden-Württemberg"}},{"name":"Steinweg","postalCode":"77876","locality":"Kappelrodeck","municipality":{"key":"08317056","name":"Kappelrodeck","type":"Kreisangehörige_Gemeinde"},"district":{"key":"08317","name":"Ortenaukreis","type":"Landkreis"},"federalState":{"key":"08","name":"Baden-Württemberg"}},{"name":"Talstr.","postalCode":"77876","locality":"Kappelrodeck","municipality":{"key":"08317056","name":"Kappelrodeck","type":"Kreisangehörige_Gemeinde"},"district":{"key":"08317","name":"Ortenaukreis","type":"Landkreis"},"federalState":{"key":"08","name":"Baden-Württemberg"}},{"name":"Tannenweg","postalCode":"77876","locality":"Kappelrodeck","municipality":{"key":"08317056","name":"Kappelrodeck","type":"Kreisangehörige_Gemeinde"},"district":{"key":"08317","name":"Ortenaukreis","type":"Landkreis"},"federalState":{"key":"08","name":"Baden-Württemberg"}},{"name":"Trompeterstr.","postalCode":"77876","locality":"Kappelrodeck","municipality":{"key":"08317056","name":"Kappelrodeck","type":"Kreisangehörige_Gemeinde"},"district":{"key":"08317","name":"Ortenaukreis","type":"Landkreis"},"federalState":{"key":"08","name":"Baden-Württemberg"}},{"name":"Tulpenweg","postalCode":"77876","locality":"Kappelrodeck","municipality":{"key":"08317056","name":"Kappelrodeck","type":"Kreisangehörige_Gemeinde"},"district":{"key":"08317","name":"Ortenaukreis","type":"Landkreis"},"federalState":{"key":"08","name":"Baden-Württemberg"}},{"name":"Unterbergstr.","postalCode":"77876","locality":"Kappelrodeck","municipality":{"key":"08317056","name":"Kappelrodeck","type":"Kreisangehörige_Gemeinde"},"district":{"key":"08317","name":"Ortenaukreis","type":"Landkreis"},"federalState":{"key":"08","name":"Baden-Württemberg"}},{"name":"Untere Ibachgasse","postalCode":"77876","locality":"Kappelrodeck","municipality":{"key":"08317056","name":"Kappelrodeck","type":"Kreisangehörige_Gemeinde"},"district":{"key":"08317","name":"Ortenaukreis","type":"Landkreis"},"federalState":{"key":"08","name":"Baden-Württemberg"}},{"name":"Untere Widigstr.","postalCode":"77876","locality":"Kappelrodeck","municipality":{"key":"08317056","name":"Kappelrodeck","type":"Kreisangehörige_Gemeinde"},"district":{"key":"08317","name":"Ortenaukreis","type":"Landkreis"},"federalState":{"key":"08","name":"Baden-Württemberg"}},{"name":"Venedig","postalCode":"77876","locality":"Kappelrodeck","municipality":{"key":"08317056","name":"Kappelrodeck","type":"Kreisangehörige_Gemeinde"},"district":{"key":"08317","name":"Ortenaukreis","type":"Landkreis"},"federalState":{"key":"08","name":"Baden-Württemberg"}},{"name":"Von-Neuenstein-Weg","postalCode":"77876","locality":"Kappelrodeck","municipality":{"key":"08317056","name":"Kappelrodeck","type":"Kreisangehörige_Gemeinde"},"district":{"key":"08317","name":"Ortenaukreis","type":"Landkreis"},"federalState":{"key":"08","name":"Baden-Württemberg"}},{"name":"Waldstr.","postalCode":"77876","locality":"Kappelrodeck","municipality":{"key":"08317056","name":"Kappelrodeck","type":"Kreisangehörige_Gemeinde"},"district":{"key":"08317","name":"Ortenaukreis","type":"Landkreis"},"federalState":{"key":"08","name":"Baden-Württemberg"}},{"name":"Waldulmer Str.","postalCode":"77876","locality":"Kappelrodeck","municipality":{"key":"08317056","name":"Kappelrodeck","type":"Kreisangehörige_Gemeinde"},"district":{"key":"08317","name":"Ortenaukreis","type":"Landkreis"},"federalState":{"key":"08","name":"Baden-Württemberg"}},{"name":"Wasserstr.","postalCode":"77876","locality":"Kappelrodeck","municipality":{"key":"08317056","name":"Kappelrodeck","type":"Kreisangehörige_Gemeinde"},"district":{"key":"08317","name":"Ortenaukreis","type":"Landkreis"},"federalState":{"key":"08","name":"Baden-Württemberg"}},{"name":"Weinbergweg","postalCode":"77876","locality":"Kappelrodeck","municipality":{"key":"08317056","name":"Kappelrodeck","type":"Kreisangehörige_Gemeinde"},"district":{"key":"08317","name":"Ortenaukreis","type":"Landkreis"},"federalState":{"key":"08","name":"Baden-Württemberg"}},{"name":"Weinstr.","postalCode":"77876","locality":"Kappelrodeck","municipality":{"key":"08317056","name":"Kappelrodeck","type":"Kreisangehörige_Gemeinde"},"district":{"key":"08317","name":"Ortenaukreis","type":"Landkreis"},"federalState":{"key":"08","name":"Baden-Württemberg"}},{"name":"Westring","postalCode":"77876","locality":"Kappelrodeck","municipality":{"key":"08317056","name":"Kappelrodeck","type":"Kreisangehörige_Gemeinde"},"district":{"key":"08317","name":"Ortenaukreis","type":"Landkreis"},"federalState":{"key":"08","name":"Baden-Württemberg"}},{"name":"Winterbürg","postalCode":"77876","locality":"Kappelrodeck","municipality":{"key":"08317056","name":"Kappelrodeck","type":"Kreisangehörige_Gemeinde"},"district":{"key":"08317","name":"Ortenaukreis","type":"Landkreis"},"federalState":{"key":"08","name":"Baden-Württemberg"}},{"name":"Ziegelhof","postalCode":"77876","locality":"Kappelrodeck","municipality":{"key":"08317056","name":"Kappelrodeck","type":"Kreisangehörige_Gemeinde"},"district":{"key":"08317","name":"Ortenaukreis","type":"Landkreis"},"federalState":{"key":"08","name":"Baden-Württemberg"}},]