[{"name":"Alte Schulstr.","postalCode":"96352","locality":"Wilhelmsthal","municipality":{"key":"09476189","name":"Wilhelmsthal","type":"Kreisangehörige_Gemeinde"},"district":{"key":"09476","name":"Kronach","type":"Landkreis"},"federalState":{"key":"09","name":"Bayern"}},{"name":"Am Eichsberg","postalCode":"96352","locality":"Wilhelmsthal","municipality":{"key":"09476189","name":"Wilhelmsthal","type":"Kreisangehörige_Gemeinde"},"district":{"key":"09476","name":"Kronach","type":"Landkreis"},"federalState":{"key":"09","name":"Bayern"}},{"name":"Am Lochgraben","postalCode":"96352","locality":"Wilhelmsthal","municipality":{"key":"09476189","name":"Wilhelmsthal","type":"Kreisangehörige_Gemeinde"},"district":{"key":"09476","name":"Kronach","type":"Landkreis"},"federalState":{"key":"09","name":"Bayern"}},{"name":"Am Mittelberg","postalCode":"96352","locality":"Wilhelmsthal","municipality":{"key":"09476189","name":"Wilhelmsthal","type":"Kreisangehörige_Gemeinde"},"district":{"key":"09476","name":"Kronach","type":"Landkreis"},"federalState":{"key":"09","name":"Bayern"}},{"name":"Am Mittelkamm","postalCode":"96352","locality":"Wilhelmsthal","municipality":{"key":"09476189","name":"Wilhelmsthal","type":"Kreisangehörige_Gemeinde"},"district":{"key":"09476","name":"Kronach","type":"Landkreis"},"federalState":{"key":"09","name":"Bayern"}},{"name":"Am Plan","postalCode":"96352","locality":"Wilhelmsthal","municipality":{"key":"09476189","name":"Wilhelmsthal","type":"Kreisangehörige_Gemeinde"},"district":{"key":"09476","name":"Kronach","type":"Landkreis"},"federalState":{"key":"09","name":"Bayern"}},{"name":"Am Schieferbruch","postalCode":"96352","locality":"Wilhelmsthal","municipality":{"key":"09476189","name":"Wilhelmsthal","type":"Kreisangehörige_Gemeinde"},"district":{"key":"09476","name":"Kronach","type":"Landkreis"},"federalState":{"key":"09","name":"Bayern"}},{"name":"Angerhäuser","postalCode":"96352","locality":"Wilhelmsthal","municipality":{"key":"09476189","name":"Wilhelmsthal","type":"Kreisangehörige_Gemeinde"},"district":{"key":"09476","name":"Kronach","type":"Landkreis"},"federalState":{"key":"09","name":"Bayern"}},{"name":"Bergstr.","postalCode":"96352","locality":"Wilhelmsthal","municipality":{"key":"09476189","name":"Wilhelmsthal","type":"Kreisangehörige_Gemeinde"},"district":{"key":"09476","name":"Kronach","type":"Landkreis"},"federalState":{"key":"09","name":"Bayern"}},{"name":"Birkenweg","postalCode":"96352","locality":"Wilhelmsthal","municipality":{"key":"09476189","name":"Wilhelmsthal","type":"Kreisangehörige_Gemeinde"},"district":{"key":"09476","name":"Kronach","type":"Landkreis"},"federalState":{"key":"09","name":"Bayern"}},{"name":"Brunnengasse","postalCode":"96352","locality":"Wilhelmsthal","municipality":{"key":"09476189","name":"Wilhelmsthal","type":"Kreisangehörige_Gemeinde"},"district":{"key":"09476","name":"Kronach","type":"Landkreis"},"federalState":{"key":"09","name":"Bayern"}},{"name":"Bühlstr.","postalCode":"96352","locality":"Wilhelmsthal","municipality":{"key":"09476189","name":"Wilhelmsthal","type":"Kreisangehörige_Gemeinde"},"district":{"key":"09476","name":"Kronach","type":"Landkreis"},"federalState":{"key":"09","name":"Bayern"}},{"name":"Dorfplatz","postalCode":"96352","locality":"Wilhelmsthal","municipality":{"key":"09476189","name":"Wilhelmsthal","type":"Kreisangehörige_Gemeinde"},"district":{"key":"09476","name":"Kronach","type":"Landkreis"},"federalState":{"key":"09","name":"Bayern"}},{"name":"Eibigstr.","postalCode":"96352","locality":"Wilhelmsthal","municipality":{"key":"09476189","name":"Wilhelmsthal","type":"Kreisangehörige_Gemeinde"},"district":{"key":"09476","name":"Kronach","type":"Landkreis"},"federalState":{"key":"09","name":"Bayern"}},{"name":"Eichenbühl","postalCode":"96352","locality":"Wilhelmsthal","municipality":{"key":"09476189","name":"Wilhelmsthal","type":"Kreisangehörige_Gemeinde"},"district":{"key":"09476","name":"Kronach","type":"Landkreis"},"federalState":{"key":"09","name":"Bayern"}},{"name":"Felsweg","postalCode":"96352","locality":"Wilhelmsthal","municipality":{"key":"09476189","name":"Wilhelmsthal","type":"Kreisangehörige_Gemeinde"},"district":{"key":"09476","name":"Kronach","type":"Landkreis"},"federalState":{"key":"09","name":"Bayern"}},{"name":"Festungsstr.","postalCode":"96352","locality":"Wilhelmsthal","municipality":{"key":"09476189","name":"Wilhelmsthal","type":"Kreisangehörige_Gemeinde"},"district":{"key":"09476","name":"Kronach","type":"Landkreis"},"federalState":{"key":"09","name":"Bayern"}},{"name":"Gebrüder-Leisner-Str.","postalCode":"96352","locality":"Wilhelmsthal","municipality":{"key":"09476189","name":"Wilhelmsthal","type":"Kreisangehörige_Gemeinde"},"district":{"key":"09476","name":"Kronach","type":"Landkreis"},"federalState":{"key":"09","name":"Bayern"}},{"name":"Grieser Str.","postalCode":"96352","locality":"Wilhelmsthal","municipality":{"key":"09476189","name":"Wilhelmsthal","type":"Kreisangehörige_Gemeinde"},"district":{"key":"09476","name":"Kronach","type":"Landkreis"},"federalState":{"key":"09","name":"Bayern"}},{"name":"Grümpelstr.","postalCode":"96352","locality":"Wilhelmsthal","municipality":{"key":"09476189","name":"Wilhelmsthal","type":"Kreisangehörige_Gemeinde"},"district":{"key":"09476","name":"Kronach","type":"Landkreis"},"federalState":{"key":"09","name":"Bayern"}},{"name":"Grüntal","postalCode":"96352","locality":"Wilhelmsthal","municipality":{"key":"09476189","name":"Wilhelmsthal","type":"Kreisangehörige_Gemeinde"},"district":{"key":"09476","name":"Kronach","type":"Landkreis"},"federalState":{"key":"09","name":"Bayern"}},{"name":"Grünweg","postalCode":"96352","locality":"Wilhelmsthal","municipality":{"key":"09476189","name":"Wilhelmsthal","type":"Kreisangehörige_Gemeinde"},"district":{"key":"09476","name":"Kronach","type":"Landkreis"},"federalState":{"key":"09","name":"Bayern"}},{"name":"Hauptstr.","postalCode":"96352","locality":"Wilhelmsthal","municipality":{"key":"09476189","name":"Wilhelmsthal","type":"Kreisangehörige_Gemeinde"},"district":{"key":"09476","name":"Kronach","type":"Landkreis"},"federalState":{"key":"09","name":"Bayern"}},{"name":"Hesselbacher Str.","postalCode":"96352","locality":"Wilhelmsthal","municipality":{"key":"09476189","name":"Wilhelmsthal","type":"Kreisangehörige_Gemeinde"},"district":{"key":"09476","name":"Kronach","type":"Landkreis"},"federalState":{"key":"09","name":"Bayern"}},{"name":"Hofwiese","postalCode":"96352","locality":"Wilhelmsthal","municipality":{"key":"09476189","name":"Wilhelmsthal","type":"Kreisangehörige_Gemeinde"},"district":{"key":"09476","name":"Kronach","type":"Landkreis"},"federalState":{"key":"09","name":"Bayern"}},{"name":"Hohes Kreuz","postalCode":"96352","locality":"Wilhelmsthal","municipality":{"key":"09476189","name":"Wilhelmsthal","type":"Kreisangehörige_Gemeinde"},"district":{"key":"09476","name":"Kronach","type":"Landkreis"},"federalState":{"key":"09","name":"Bayern"}},{"name":"Im Winkel","postalCode":"96352","locality":"Wilhelmsthal","municipality":{"key":"09476189","name":"Wilhelmsthal","type":"Kreisangehörige_Gemeinde"},"district":{"key":"09476","name":"Kronach","type":"Landkreis"},"federalState":{"key":"09","name":"Bayern"}},{"name":"In der Au","postalCode":"96352","locality":"Wilhelmsthal","municipality":{"key":"09476189","name":"Wilhelmsthal","type":"Kreisangehörige_Gemeinde"},"district":{"key":"09476","name":"Kronach","type":"Landkreis"},"federalState":{"key":"09","name":"Bayern"}},{"name":"Jahnsallee","postalCode":"96317","locality":"Kronach","municipality":{"key":"09476145","name":"Kronach, St","type":"Stadt"},"district":{"key":"09476","name":"Kronach","type":"Landkreis"},"federalState":{"key":"09","name":"Bayern"}},{"name":"Jakob-Degen-Str.","postalCode":"96317","locality":"Kronach","municipality":{"key":"09476145","name":"Kronach, St","type":"Stadt"},"district":{"key":"09476","name":"Kronach","type":"Landkreis"},"federalState":{"key":"09","name":"Bayern"}},{"name":"Jean-Paul Weg - Weg 1 gelb","postalCode":"95497","locality":"Goldkronach","municipality":{"key":"09472143","name":"Goldkronach, St","type":"Stadt"},"district":{"key":"09472","name":"Bayreuth","type":"Landkreis"},"federalState":{"key":"09","name":"Bayern"}},{"name":"Johann-Kaspar-Zeuß-Str.","postalCode":"96317","locality":"Kronach","municipality":{"key":"09476145","name":"Kronach, St","type":"Stadt"},"district":{"key":"09476","name":"Kronach","type":"Landkreis"},"federalState":{"key":"09","name":"Bayern"}},{"name":"Johann-Knoch-Gasse","postalCode":"96317","locality":"Kronach","municipality":{"key":"09476145","name":"Kronach, St","type":"Stadt"},"district":{"key":"09476","name":"Kronach","type":"Landkreis"},"federalState":{"key":"09","name":"Bayern"}},{"name":"Johann-Nikolaus-Zitter-Str.","postalCode":"96317","locality":"Kronach","municipality":{"key":"09476145","name":"Kronach, St","type":"Stadt"},"district":{"key":"09476","name":"Kronach","type":"Landkreis"},"federalState":{"key":"09","name":"Bayern"}},{"name":"Joseph-Haydn-Str.","postalCode":"96317","locality":"Kronach","municipality":{"key":"09476145","name":"Kronach, St","type":"Stadt"},"district":{"key":"09476","name":"Kronach","type":"Landkreis"},"federalState":{"key":"09","name":"Bayern"}},{"name":"Judengasse","postalCode":"96317","locality":"Kronach","municipality":{"key":"09476145","name":"Kronach, St","type":"Stadt"},"district":{"key":"09476","name":"Kronach","type":"Landkreis"},"federalState":{"key":"09","name":"Bayern"}},{"name":"Judengraben","postalCode":"96317","locality":"Kronach","municipality":{"key":"09476145","name":"Kronach, St","type":"Stadt"},"district":{"key":"09476","name":"Kronach","type":"Landkreis"},"federalState":{"key":"09","name":"Bayern"}},{"name":"Kleine Gasse","postalCode":"96352","locality":"Wilhelmsthal","municipality":{"key":"09476189","name":"Wilhelmsthal","type":"Kreisangehörige_Gemeinde"},"district":{"key":"09476","name":"Kronach","type":"Landkreis"},"federalState":{"key":"09","name":"Bayern"}},{"name":"Kronacher Str.","postalCode":"96352","locality":"Wilhelmsthal","municipality":{"key":"09476189","name":"Wilhelmsthal","type":"Kreisangehörige_Gemeinde"},"district":{"key":"09476","name":"Kronach","type":"Landkreis"},"federalState":{"key":"09","name":"Bayern"}},{"name":"Leitenbergweg","postalCode":"96352","locality":"Wilhelmsthal","municipality":{"key":"09476189","name":"Wilhelmsthal","type":"Kreisangehörige_Gemeinde"},"district":{"key":"09476","name":"Kronach","type":"Landkreis"},"federalState":{"key":"09","name":"Bayern"}},{"name":"Lindenstr.","postalCode":"96352","locality":"Wilhelmsthal","municipality":{"key":"09476189","name":"Wilhelmsthal","type":"Kreisangehörige_Gemeinde"},"district":{"key":"09476","name":"Kronach","type":"Landkreis"},"federalState":{"key":"09","name":"Bayern"}},{"name":"Mühlbergweg","postalCode":"96352","locality":"Wilhelmsthal","municipality":{"key":"09476189","name":"Wilhelmsthal","type":"Kreisangehörige_Gemeinde"},"district":{"key":"09476","name":"Kronach","type":"Landkreis"},"federalState":{"key":"09","name":"Bayern"}},{"name":"Neue Str.","postalCode":"96352","locality":"Wilhelmsthal","municipality":{"key":"09476189","name":"Wilhelmsthal","type":"Kreisangehörige_Gemeinde"},"district":{"key":"09476","name":"Kronach","type":"Landkreis"},"federalState":{"key":"09","name":"Bayern"}},{"name":"Oberer Flur","postalCode":"96317","locality":"Kronach","municipality":{"key":"09476145","name":"Kronach, St","type":"Stadt"},"district":{"key":"09476","name":"Kronach","type":"Landkreis"},"federalState":{"key":"09","name":"Bayern"}},{"name":"Obere Ziegelangerstr.","postalCode":"96317","locality":"Kronach","municipality":{"key":"09476145","name":"Kronach, St","type":"Stadt"},"district":{"key":"09476","name":"Kronach","type":"Landkreis"},"federalState":{"key":"09","name":"Bayern"}},{"name":"Ostpreußenstr.","postalCode":"95497","locality":"Goldkronach","municipality":{"key":"09472143","name":"Goldkronach, St","type":"Stadt"},"district":{"key":"09472","name":"Bayreuth","type":"Landkreis"},"federalState":{"key":"09","name":"Bayern"}},{"name":"Parkstr.","postalCode":"96317","locality":"Kronach","municipality":{"key":"09476145","name":"Kronach, St","type":"Stadt"},"district":{"key":"09476","name":"Kronach","type":"Landkreis"},"federalState":{"key":"09","name":"Bayern"}},{"name":"Paul-Keller-Str.","postalCode":"96317","locality":"Kronach","municipality":{"key":"09476145","name":"Kronach, St","type":"Stadt"},"district":{"key":"09476","name":"Kronach","type":"Landkreis"},"federalState":{"key":"09","name":"Bayern"}},{"name":"Petersleite","postalCode":"96317","locality":"Kronach","municipality":{"key":"09476145","name":"Kronach, St","type":"Stadt"},"district":{"key":"09476","name":"Kronach","type":"Landkreis"},"federalState":{"key":"09","name":"Bayern"}},{"name":"Peuntgasse","postalCode":"95497","locality":"Goldkronach","municipality":{"key":"09472143","name":"Goldkronach, St","type":"Stadt"},"district":{"key":"09472","name":"Bayreuth","type":"Landkreis"},"federalState":{"key":"09","name":"Bayern"}},{"name":"Pfählanger","postalCode":"96317","locality":"Kronach","municipality":{"key":"09476145","name":"Kronach, St","type":"Stadt"},"district":{"key":"09476","name":"Kronach","type":"Landkreis"},"federalState":{"key":"09","name":"Bayern"}},{"name":"Pfählangerstr.","postalCode":"96317","locality":"Kronach","municipality":{"key":"09476145","name":"Kronach, St","type":"Stadt"},"district":{"key":"09476","name":"Kronach","type":"Landkreis"},"federalState":{"key":"09","name":"Bayern"}},{"name":"Planersgut","postalCode":"96317","locality":"Kronach","municipality":{"key":"09476145","name":"Kronach, St","type":"Stadt"},"district":{"key":"09476","name":"Kronach","type":"Landkreis"},"federalState":{"key":"09","name":"Bayern"}},{"name":"Plattenweg","postalCode":"95497","locality":"Goldkronach","municipality":{"key":"09472143","name":"Goldkronach, St","type":"Stadt"},"district":{"key":"09472","name":"Bayreuth","type":"Landkreis"},"federalState":{"key":"09","name":"Bayern"}},{"name":"Pöllersdorf","postalCode":"95497","locality":"Goldkronach","municipality":{"key":"09472143","name":"Goldkronach, St","type":"Stadt"},"district":{"key":"09472","name":"Bayreuth","type":"Landkreis"},"federalState":{"key":"09","name":"Bayern"}},{"name":"Pöllersdorfer Str.","postalCode":"95497","locality":"Goldkronach","municipality":{"key":"09472143","name":"Goldkronach, St","type":"Stadt"},"district":{"key":"09472","name":"Bayreuth","type":"Landkreis"},"federalState":{"key":"09","name":"Bayern"}},{"name":"Pommernstr.","postalCode":"95497","locality":"Goldkronach","municipality":{"key":"09472143","name":"Goldkronach, St","type":"Stadt"},"district":{"key":"09472","name":"Bayreuth","type":"Landkreis"},"federalState":{"key":"09","name":"Bayern"}},{"name":"Pottugäßchen","postalCode":"96317","locality":"Kronach","municipality":{"key":"09476145","name":"Kronach, St","type":"Stadt"},"district":{"key":"09476","name":"Kronach","type":"Landkreis"},"federalState":{"key":"09","name":"Bayern"}},{"name":"Preßlich","postalCode":"96317","locality":"Kronach","municipality":{"key":"09476145","name":"Kronach, St","type":"Stadt"},"district":{"key":"09476","name":"Kronach","type":"Landkreis"},"federalState":{"key":"09","name":"Bayern"}},{"name":"Quellenweg","postalCode":"96352","locality":"Wilhelmsthal","municipality":{"key":"09476189","name":"Wilhelmsthal","type":"Kreisangehörige_Gemeinde"},"district":{"key":"09476","name":"Kronach","type":"Landkreis"},"federalState":{"key":"09","name":"Bayern"}},{"name":"Remschlitz","postalCode":"96352","locality":"Wilhelmsthal","municipality":{"key":"09476189","name":"Wilhelmsthal","type":"Kreisangehörige_Gemeinde"},"district":{"key":"09476","name":"Kronach","type":"Landkreis"},"federalState":{"key":"09","name":"Bayern"}},{"name":"Schloßacker","postalCode":"96352","locality":"Wilhelmsthal","municipality":{"key":"09476189","name":"Wilhelmsthal","type":"Kreisangehörige_Gemeinde"},"district":{"key":"09476","name":"Kronach","type":"Landkreis"},"federalState":{"key":"09","name":"Bayern"}},{"name":"Schloßberg","postalCode":"96352","locality":"Wilhelmsthal","municipality":{"key":"09476189","name":"Wilhelmsthal","type":"Kreisangehörige_Gemeinde"},"district":{"key":"09476","name":"Kronach","type":"Landkreis"},"federalState":{"key":"09","name":"Bayern"}},{"name":"Sportplatzweg","postalCode":"96352","locality":"Wilhelmsthal","municipality":{"key":"09476189","name":"Wilhelmsthal","type":"Kreisangehörige_Gemeinde"},"district":{"key":"09476","name":"Kronach","type":"Landkreis"},"federalState":{"key":"09","name":"Bayern"}},{"name":"Steinleite","postalCode":"96352","locality":"Wilhelmsthal","municipality":{"key":"09476189","name":"Wilhelmsthal","type":"Kreisangehörige_Gemeinde"},"district":{"key":"09476","name":"Kronach","type":"Landkreis"},"federalState":{"key":"09","name":"Bayern"}},{"name":"Tiefenbachstr.","postalCode":"96352","locality":"Wilhelmsthal","municipality":{"key":"09476189","name":"Wilhelmsthal","type":"Kreisangehörige_Gemeinde"},"district":{"key":"09476","name":"Kronach","type":"Landkreis"},"federalState":{"key":"09","name":"Bayern"}},{"name":"Uferweg","postalCode":"96352","locality":"Wilhelmsthal","municipality":{"key":"09476189","name":"Wilhelmsthal","type":"Kreisangehörige_Gemeinde"},"district":{"key":"09476","name":"Kronach","type":"Landkreis"},"federalState":{"key":"09","name":"Bayern"}},{"name":"Untere Eichenbühlstr.","postalCode":"96352","locality":"Wilhelmsthal","municipality":{"key":"09476189","name":"Wilhelmsthal","type":"Kreisangehörige_Gemeinde"},"district":{"key":"09476","name":"Kronach","type":"Landkreis"},"federalState":{"key":"09","name":"Bayern"}},{"name":"Vogtendorf","postalCode":"96317","locality":"Kronach","municipality":{"key":"09476145","name":"Kronach, St","type":"Stadt"},"district":{"key":"09476","name":"Kronach","type":"Landkreis"},"federalState":{"key":"09","name":"Bayern"}},{"name":"Vogtlandstr.","postalCode":"95497","locality":"Goldkronach","municipality":{"key":"09472143","name":"Goldkronach, St","type":"Stadt"},"district":{"key":"09472","name":"Bayreuth","type":"Landkreis"},"federalState":{"key":"09","name":"Bayern"}},{"name":"Waldweg","postalCode":"96352","locality":"Wilhelmsthal","municipality":{"key":"09476189","name":"Wilhelmsthal","type":"Kreisangehörige_Gemeinde"},"district":{"key":"09476","name":"Kronach","type":"Landkreis"},"federalState":{"key":"09","name":"Bayern"}},{"name":"Weinbergstr.","postalCode":"96352","locality":"Wilhelmsthal","municipality":{"key":"09476189","name":"Wilhelmsthal","type":"Kreisangehörige_Gemeinde"},"district":{"key":"09476","name":"Kronach","type":"Landkreis"},"federalState":{"key":"09","name":"Bayern"}},{"name":"Weißanger","postalCode":"96352","locality":"Wilhelmsthal","municipality":{"key":"09476189","name":"Wilhelmsthal","type":"Kreisangehörige_Gemeinde"},"district":{"key":"09476","name":"Kronach","type":"Landkreis"},"federalState":{"key":"09","name":"Bayern"}},{"name":"Weißbrunnen","postalCode":"96352","locality":"Wilhelmsthal","municipality":{"key":"09476189","name":"Wilhelmsthal","type":"Kreisangehörige_Gemeinde"},"district":{"key":"09476","name":"Kronach","type":"Landkreis"},"federalState":{"key":"09","name":"Bayern"}},{"name":"Wöhrleite","postalCode":"96352","locality":"Wilhelmsthal","municipality":{"key":"09476189","name":"Wilhelmsthal","type":"Kreisangehörige_Gemeinde"},"district":{"key":"09476","name":"Kronach","type":"Landkreis"},"federalState":{"key":"09","name":"Bayern"}},{"name":"Ziegelanger","postalCode":"96317","locality":"Kronach","municipality":{"key":"09476145","name":"Kronach, St","type":"Stadt"},"district":{"key":"09476","name":"Kronach","type":"Landkreis"},"federalState":{"key":"09","name":"Bayern"}},{"name":"Ziegelangerbergweg","postalCode":"96317","locality":"Kronach","municipality":{"key":"09476145","name":"Kronach, St","type":"Stadt"},"district":{"key":"09476","name":"Kronach","type":"Landkreis"},"federalState":{"key":"09","name":"Bayern"}},{"name":"Ziegelerden","postalCode":"96317","locality":"Kronach","municipality":{"key":"09476145","name":"Kronach, St","type":"Stadt"},"district":{"key":"09476","name":"Kronach","type":"Landkreis"},"federalState":{"key":"09","name":"Bayern"}},{"name":"Zollbrunn","postalCode":"96317","locality":"Kronach","municipality":{"key":"09476145","name":"Kronach, St","type":"Stadt"},"district":{"key":"09476","name":"Kronach","type":"Landkreis"},"federalState":{"key":"09","name":"Bayern"}},{"name":"Zollbühlweg","postalCode":"96317","locality":"Kronach","municipality":{"key":"09476145","name":"Kronach, St","type":"Stadt"},"district":{"key":"09476","name":"Kronach","type":"Landkreis"},"federalState":{"key":"09","name":"Bayern"}},{"name":"Zollwehrsteig","postalCode":"96317","locality":"Kronach","municipality":{"key":"09476145","name":"Kronach, St","type":"Stadt"},"district":{"key":"09476","name":"Kronach","type":"Landkreis"},"federalState":{"key":"09","name":"Bayern"}},{"name":"Zoppatenstr.","postalCode":"95497","locality":"Goldkronach","municipality":{"key":"09472143","name":"Goldkronach, St","type":"Stadt"},"district":{"key":"09472","name":"Bayreuth","type":"Landkreis"},"federalState":{"key":"09","name":"Bayern"}},{"name":"Zum Gries","postalCode":"96317","locality":"Kronach","municipality":{"key":"09476145","name":"Kronach, St","type":"Stadt"},"district":{"key":"09476","name":"Kronach","type":"Landkreis"},"federalState":{"key":"09","name":"Bayern"}},{"name":"Zum Vogelherd","postalCode":"96317","locality":"Kronach","municipality":{"key":"09476145","name":"Kronach, St","type":"Stadt"},"district":{"key":"09476","name":"Kronach","type":"Landkreis"},"federalState":{"key":"09","name":"Bayern"}},{"name":"Zur Pfalz","postalCode":"96317","locality":"Kronach","municipality":{"key":"09476145","name":"Kronach, St","type":"Stadt"},"district":{"key":"09476","name":"Kronach","type":"Landkreis"},"federalState":{"key":"09","name":"Bayern"}},{"name":"Äußerer Ring","postalCode":"96317","locality":"Kronach","municipality":{"key":"09476145","name":"Kronach, St","type":"Stadt"},"district":{"key":"09476","name":"Kronach","type":"Landkreis"},"federalState":{"key":"09","name":"Bayern"}},]