[{"name":"Ahornweg","postalCode":"21521","locality":"Wohltorf","municipality":{"key":"01053133","name":"Wohltorf","type":"Kreisangehörige_Gemeinde"},"district":{"key":"01053","name":"Herzogtum Lauenburg","type":"Kreis"},"federalState":{"key":"01","name":"Schleswig-Holstein"}},{"name":"Alte Allee","postalCode":"21521","locality":"Wohltorf","municipality":{"key":"01053133","name":"Wohltorf","type":"Kreisangehörige_Gemeinde"},"district":{"key":"01053","name":"Herzogtum Lauenburg","type":"Kreis"},"federalState":{"key":"01","name":"Schleswig-Holstein"}},{"name":"Alter Knick","postalCode":"21521","locality":"Wohltorf","municipality":{"key":"01053133","name":"Wohltorf","type":"Kreisangehörige_Gemeinde"},"district":{"key":"01053","name":"Herzogtum Lauenburg","type":"Kreis"},"federalState":{"key":"01","name":"Schleswig-Holstein"}},{"name":"Alte Wiese","postalCode":"21521","locality":"Wohltorf","municipality":{"key":"01053133","name":"Wohltorf","type":"Kreisangehörige_Gemeinde"},"district":{"key":"01053","name":"Herzogtum Lauenburg","type":"Kreis"},"federalState":{"key":"01","name":"Schleswig-Holstein"}},{"name":"Am Amelungsbach","postalCode":"21521","locality":"Wohltorf","municipality":{"key":"01053133","name":"Wohltorf","type":"Kreisangehörige_Gemeinde"},"district":{"key":"01053","name":"Herzogtum Lauenburg","type":"Kreis"},"federalState":{"key":"01","name":"Schleswig-Holstein"}},{"name":"Am Brink","postalCode":"21521","locality":"Wohltorf","municipality":{"key":"01053133","name":"Wohltorf","type":"Kreisangehörige_Gemeinde"},"district":{"key":"01053","name":"Herzogtum Lauenburg","type":"Kreis"},"federalState":{"key":"01","name":"Schleswig-Holstein"}},{"name":"Am Sachsenwalde","postalCode":"21521","locality":"Wohltorf","municipality":{"key":"01053133","name":"Wohltorf","type":"Kreisangehörige_Gemeinde"},"district":{"key":"01053","name":"Herzogtum Lauenburg","type":"Kreis"},"federalState":{"key":"01","name":"Schleswig-Holstein"}},{"name":"Am Tonteich","postalCode":"21521","locality":"Wohltorf","municipality":{"key":"01053133","name":"Wohltorf","type":"Kreisangehörige_Gemeinde"},"district":{"key":"01053","name":"Herzogtum Lauenburg","type":"Kreis"},"federalState":{"key":"01","name":"Schleswig-Holstein"}},{"name":"An den Pappeln","postalCode":"21521","locality":"Wohltorf","municipality":{"key":"01053133","name":"Wohltorf","type":"Kreisangehörige_Gemeinde"},"district":{"key":"01053","name":"Herzogtum Lauenburg","type":"Kreis"},"federalState":{"key":"01","name":"Schleswig-Holstein"}},{"name":"Auf der Hude","postalCode":"21521","locality":"Wohltorf","municipality":{"key":"01053133","name":"Wohltorf","type":"Kreisangehörige_Gemeinde"},"district":{"key":"01053","name":"Herzogtum Lauenburg","type":"Kreis"},"federalState":{"key":"01","name":"Schleswig-Holstein"}},{"name":"Außenschlag","postalCode":"21521","locality":"Wohltorf","municipality":{"key":"01053133","name":"Wohltorf","type":"Kreisangehörige_Gemeinde"},"district":{"key":"01053","name":"Herzogtum Lauenburg","type":"Kreis"},"federalState":{"key":"01","name":"Schleswig-Holstein"}},{"name":"Billgrund","postalCode":"21521","locality":"Wohltorf","municipality":{"key":"01053133","name":"Wohltorf","type":"Kreisangehörige_Gemeinde"},"district":{"key":"01053","name":"Herzogtum Lauenburg","type":"Kreis"},"federalState":{"key":"01","name":"Schleswig-Holstein"}},{"name":"Billtal","postalCode":"21521","locality":"Wohltorf","municipality":{"key":"01053133","name":"Wohltorf","type":"Kreisangehörige_Gemeinde"},"district":{"key":"01053","name":"Herzogtum Lauenburg","type":"Kreis"},"federalState":{"key":"01","name":"Schleswig-Holstein"}},{"name":"Birkenweg","postalCode":"21521","locality":"Wohltorf","municipality":{"key":"01053133","name":"Wohltorf","type":"Kreisangehörige_Gemeinde"},"district":{"key":"01053","name":"Herzogtum Lauenburg","type":"Kreis"},"federalState":{"key":"01","name":"Schleswig-Holstein"}},{"name":"Bornbruch","postalCode":"21521","locality":"Wohltorf","municipality":{"key":"01053133","name":"Wohltorf","type":"Kreisangehörige_Gemeinde"},"district":{"key":"01053","name":"Herzogtum Lauenburg","type":"Kreis"},"federalState":{"key":"01","name":"Schleswig-Holstein"}},{"name":"Börnsener Weg","postalCode":"21521","locality":"Wohltorf","municipality":{"key":"01053133","name":"Wohltorf","type":"Kreisangehörige_Gemeinde"},"district":{"key":"01053","name":"Herzogtum Lauenburg","type":"Kreis"},"federalState":{"key":"01","name":"Schleswig-Holstein"}},{"name":"Dorfstr.","postalCode":"21521","locality":"Wohltorf","municipality":{"key":"01053133","name":"Wohltorf","type":"Kreisangehörige_Gemeinde"},"district":{"key":"01053","name":"Herzogtum Lauenburg","type":"Kreis"},"federalState":{"key":"01","name":"Schleswig-Holstein"}},{"name":"Drosselweg","postalCode":"21521","locality":"Wohltorf","municipality":{"key":"01053133","name":"Wohltorf","type":"Kreisangehörige_Gemeinde"},"district":{"key":"01053","name":"Herzogtum Lauenburg","type":"Kreis"},"federalState":{"key":"01","name":"Schleswig-Holstein"}},{"name":"Eichenallee","postalCode":"21521","locality":"Wohltorf","municipality":{"key":"01053133","name":"Wohltorf","type":"Kreisangehörige_Gemeinde"},"district":{"key":"01053","name":"Herzogtum Lauenburg","type":"Kreis"},"federalState":{"key":"01","name":"Schleswig-Holstein"}},{"name":"Eschenbruchweg","postalCode":"21521","locality":"Wohltorf","municipality":{"key":"01053133","name":"Wohltorf","type":"Kreisangehörige_Gemeinde"},"district":{"key":"01053","name":"Herzogtum Lauenburg","type":"Kreis"},"federalState":{"key":"01","name":"Schleswig-Holstein"}},{"name":"Flagredder","postalCode":"21521","locality":"Wohltorf","municipality":{"key":"01053133","name":"Wohltorf","type":"Kreisangehörige_Gemeinde"},"district":{"key":"01053","name":"Herzogtum Lauenburg","type":"Kreis"},"federalState":{"key":"01","name":"Schleswig-Holstein"}},{"name":"Fliederweg","postalCode":"21521","locality":"Wohltorf","municipality":{"key":"01053133","name":"Wohltorf","type":"Kreisangehörige_Gemeinde"},"district":{"key":"01053","name":"Herzogtum Lauenburg","type":"Kreis"},"federalState":{"key":"01","name":"Schleswig-Holstein"}},{"name":"Große Str.","postalCode":"21521","locality":"Wohltorf","municipality":{"key":"01053133","name":"Wohltorf","type":"Kreisangehörige_Gemeinde"},"district":{"key":"01053","name":"Herzogtum Lauenburg","type":"Kreis"},"federalState":{"key":"01","name":"Schleswig-Holstein"}},{"name":"Gutenbergstr.","postalCode":"21521","locality":"Wohltorf","municipality":{"key":"01053133","name":"Wohltorf","type":"Kreisangehörige_Gemeinde"},"district":{"key":"01053","name":"Herzogtum Lauenburg","type":"Kreis"},"federalState":{"key":"01","name":"Schleswig-Holstein"}},{"name":"Haidrath","postalCode":"21521","locality":"Wohltorf","municipality":{"key":"01053133","name":"Wohltorf","type":"Kreisangehörige_Gemeinde"},"district":{"key":"01053","name":"Herzogtum Lauenburg","type":"Kreis"},"federalState":{"key":"01","name":"Schleswig-Holstein"}},{"name":"Kastanienallee","postalCode":"21521","locality":"Wohltorf","municipality":{"key":"01053133","name":"Wohltorf","type":"Kreisangehörige_Gemeinde"},"district":{"key":"01053","name":"Herzogtum Lauenburg","type":"Kreis"},"federalState":{"key":"01","name":"Schleswig-Holstein"}},{"name":"Kiefernweg","postalCode":"21521","locality":"Wohltorf","municipality":{"key":"01053133","name":"Wohltorf","type":"Kreisangehörige_Gemeinde"},"district":{"key":"01053","name":"Herzogtum Lauenburg","type":"Kreis"},"federalState":{"key":"01","name":"Schleswig-Holstein"}},{"name":"Kiehns Hof","postalCode":"21521","locality":"Wohltorf","municipality":{"key":"01053133","name":"Wohltorf","type":"Kreisangehörige_Gemeinde"},"district":{"key":"01053","name":"Herzogtum Lauenburg","type":"Kreis"},"federalState":{"key":"01","name":"Schleswig-Holstein"}},{"name":"Kirchberg","postalCode":"21521","locality":"Wohltorf","municipality":{"key":"01053133","name":"Wohltorf","type":"Kreisangehörige_Gemeinde"},"district":{"key":"01053","name":"Herzogtum Lauenburg","type":"Kreis"},"federalState":{"key":"01","name":"Schleswig-Holstein"}},{"name":"Kleine Koppel","postalCode":"21521","locality":"Wohltorf","municipality":{"key":"01053133","name":"Wohltorf","type":"Kreisangehörige_Gemeinde"},"district":{"key":"01053","name":"Herzogtum Lauenburg","type":"Kreis"},"federalState":{"key":"01","name":"Schleswig-Holstein"}},{"name":"Kurzer Kamp","postalCode":"21521","locality":"Wohltorf","municipality":{"key":"01053133","name":"Wohltorf","type":"Kreisangehörige_Gemeinde"},"district":{"key":"01053","name":"Herzogtum Lauenburg","type":"Kreis"},"federalState":{"key":"01","name":"Schleswig-Holstein"}},{"name":"Libellenweg","postalCode":"21521","locality":"Wohltorf","municipality":{"key":"01053133","name":"Wohltorf","type":"Kreisangehörige_Gemeinde"},"district":{"key":"01053","name":"Herzogtum Lauenburg","type":"Kreis"},"federalState":{"key":"01","name":"Schleswig-Holstein"}},{"name":"Lindenstr.","postalCode":"21521","locality":"Wohltorf","municipality":{"key":"01053133","name":"Wohltorf","type":"Kreisangehörige_Gemeinde"},"district":{"key":"01053","name":"Herzogtum Lauenburg","type":"Kreis"},"federalState":{"key":"01","name":"Schleswig-Holstein"}},{"name":"Nachtigallenweg","postalCode":"21521","locality":"Wohltorf","municipality":{"key":"01053133","name":"Wohltorf","type":"Kreisangehörige_Gemeinde"},"district":{"key":"01053","name":"Herzogtum Lauenburg","type":"Kreis"},"federalState":{"key":"01","name":"Schleswig-Holstein"}},{"name":"Obere Lindenstr.","postalCode":"21521","locality":"Wohltorf","municipality":{"key":"01053133","name":"Wohltorf","type":"Kreisangehörige_Gemeinde"},"district":{"key":"01053","name":"Herzogtum Lauenburg","type":"Kreis"},"federalState":{"key":"01","name":"Schleswig-Holstein"}},{"name":"Parkallee","postalCode":"21521","locality":"Wohltorf","municipality":{"key":"01053133","name":"Wohltorf","type":"Kreisangehörige_Gemeinde"},"district":{"key":"01053","name":"Herzogtum Lauenburg","type":"Kreis"},"federalState":{"key":"01","name":"Schleswig-Holstein"}},{"name":"Perlbergweg","postalCode":"21521","locality":"Wohltorf","municipality":{"key":"01053133","name":"Wohltorf","type":"Kreisangehörige_Gemeinde"},"district":{"key":"01053","name":"Herzogtum Lauenburg","type":"Kreis"},"federalState":{"key":"01","name":"Schleswig-Holstein"}},{"name":"Pommernweg","postalCode":"21521","locality":"Wohltorf","municipality":{"key":"01053133","name":"Wohltorf","type":"Kreisangehörige_Gemeinde"},"district":{"key":"01053","name":"Herzogtum Lauenburg","type":"Kreis"},"federalState":{"key":"01","name":"Schleswig-Holstein"}},{"name":"Querkamp","postalCode":"21521","locality":"Wohltorf","municipality":{"key":"01053133","name":"Wohltorf","type":"Kreisangehörige_Gemeinde"},"district":{"key":"01053","name":"Herzogtum Lauenburg","type":"Kreis"},"federalState":{"key":"01","name":"Schleswig-Holstein"}},{"name":"Rosenweg","postalCode":"21521","locality":"Wohltorf","municipality":{"key":"01053133","name":"Wohltorf","type":"Kreisangehörige_Gemeinde"},"district":{"key":"01053","name":"Herzogtum Lauenburg","type":"Kreis"},"federalState":{"key":"01","name":"Schleswig-Holstein"}},{"name":"Rotdornweg","postalCode":"21521","locality":"Wohltorf","municipality":{"key":"01053133","name":"Wohltorf","type":"Kreisangehörige_Gemeinde"},"district":{"key":"01053","name":"Herzogtum Lauenburg","type":"Kreis"},"federalState":{"key":"01","name":"Schleswig-Holstein"}},{"name":"Silker Busch","postalCode":"21521","locality":"Wohltorf","municipality":{"key":"01053133","name":"Wohltorf","type":"Kreisangehörige_Gemeinde"},"district":{"key":"01053","name":"Herzogtum Lauenburg","type":"Kreis"},"federalState":{"key":"01","name":"Schleswig-Holstein"}},{"name":"Vor den Hegen","postalCode":"21521","locality":"Wohltorf","municipality":{"key":"01053133","name":"Wohltorf","type":"Kreisangehörige_Gemeinde"},"district":{"key":"01053","name":"Herzogtum Lauenburg","type":"Kreis"},"federalState":{"key":"01","name":"Schleswig-Holstein"}},{"name":"Waldkamp","postalCode":"21521","locality":"Wohltorf","municipality":{"key":"01053133","name":"Wohltorf","type":"Kreisangehörige_Gemeinde"},"district":{"key":"01053","name":"Herzogtum Lauenburg","type":"Kreis"},"federalState":{"key":"01","name":"Schleswig-Holstein"}},{"name":"Waldstr.","postalCode":"21521","locality":"Wohltorf","municipality":{"key":"01053133","name":"Wohltorf","type":"Kreisangehörige_Gemeinde"},"district":{"key":"01053","name":"Herzogtum Lauenburg","type":"Kreis"},"federalState":{"key":"01","name":"Schleswig-Holstein"}},{"name":"Wentorfer Str.","postalCode":"21521","locality":"Wohltorf","municipality":{"key":"01053133","name":"Wohltorf","type":"Kreisangehörige_Gemeinde"},"district":{"key":"01053","name":"Herzogtum Lauenburg","type":"Kreis"},"federalState":{"key":"01","name":"Schleswig-Holstein"}},{"name":"Ziegeleiweg","postalCode":"21521","locality":"Wohltorf","municipality":{"key":"01053133","name":"Wohltorf","type":"Kreisangehörige_Gemeinde"},"district":{"key":"01053","name":"Herzogtum Lauenburg","type":"Kreis"},"federalState":{"key":"01","name":"Schleswig-Holstein"}},{"name":"Zum Wiesengrund","postalCode":"21521","locality":"Wohltorf","municipality":{"key":"01053133","name":"Wohltorf","type":"Kreisangehörige_Gemeinde"},"district":{"key":"01053","name":"Herzogtum Lauenburg","type":"Kreis"},"federalState":{"key":"01","name":"Schleswig-Holstein"}},]