[{"name":"Alter Deich","postalCode":"25920","locality":"Risum-Lindholm","municipality":{"key":"01054109","name":"Risum-Lindholm","type":"Kreisangehörige_Gemeinde"},"district":{"key":"01054","name":"Nordfriesland","type":"Kreis"},"federalState":{"key":"01","name":"Schleswig-Holstein"}},{"name":"An der B 5","postalCode":"25920","locality":"Risum-Lindholm","municipality":{"key":"01054109","name":"Risum-Lindholm","type":"Kreisangehörige_Gemeinde"},"district":{"key":"01054","name":"Nordfriesland","type":"Kreis"},"federalState":{"key":"01","name":"Schleswig-Holstein"}},{"name":"Bende-Bendsen-Wäi","postalCode":"25920","locality":"Risum-Lindholm","municipality":{"key":"01054109","name":"Risum-Lindholm","type":"Kreisangehörige_Gemeinde"},"district":{"key":"01054","name":"Nordfriesland","type":"Kreis"},"federalState":{"key":"01","name":"Schleswig-Holstein"}},{"name":"Bloogewäi","postalCode":"25920","locality":"Risum-Lindholm","municipality":{"key":"01054109","name":"Risum-Lindholm","type":"Kreisangehörige_Gemeinde"},"district":{"key":"01054","name":"Nordfriesland","type":"Kreis"},"federalState":{"key":"01","name":"Schleswig-Holstein"}},{"name":"Breede","postalCode":"25920","locality":"Risum-Lindholm","municipality":{"key":"01054109","name":"Risum-Lindholm","type":"Kreisangehörige_Gemeinde"},"district":{"key":"01054","name":"Nordfriesland","type":"Kreis"},"federalState":{"key":"01","name":"Schleswig-Holstein"}},{"name":"Broonkööl","postalCode":"25920","locality":"Risum-Lindholm","municipality":{"key":"01054109","name":"Risum-Lindholm","type":"Kreisangehörige_Gemeinde"},"district":{"key":"01054","name":"Nordfriesland","type":"Kreis"},"federalState":{"key":"01","name":"Schleswig-Holstein"}},{"name":"Claas-Ring","postalCode":"25920","locality":"Risum-Lindholm","municipality":{"key":"01054109","name":"Risum-Lindholm","type":"Kreisangehörige_Gemeinde"},"district":{"key":"01054","name":"Nordfriesland","type":"Kreis"},"federalState":{"key":"01","name":"Schleswig-Holstein"}},{"name":"Daagel","postalCode":"25920","locality":"Risum-Lindholm","municipality":{"key":"01054109","name":"Risum-Lindholm","type":"Kreisangehörige_Gemeinde"},"district":{"key":"01054","name":"Nordfriesland","type":"Kreis"},"federalState":{"key":"01","name":"Schleswig-Holstein"}},{"name":"Deezbüller Str.","postalCode":"25920","locality":"Risum-Lindholm","municipality":{"key":"01054109","name":"Risum-Lindholm","type":"Kreisangehörige_Gemeinde"},"district":{"key":"01054","name":"Nordfriesland","type":"Kreis"},"federalState":{"key":"01","name":"Schleswig-Holstein"}},{"name":"Deichskopf","postalCode":"25920","locality":"Risum-Lindholm","municipality":{"key":"01054109","name":"Risum-Lindholm","type":"Kreisangehörige_Gemeinde"},"district":{"key":"01054","name":"Nordfriesland","type":"Kreis"},"federalState":{"key":"01","name":"Schleswig-Holstein"}},{"name":"Dik","postalCode":"25920","locality":"Risum-Lindholm","municipality":{"key":"01054109","name":"Risum-Lindholm","type":"Kreisangehörige_Gemeinde"},"district":{"key":"01054","name":"Nordfriesland","type":"Kreis"},"federalState":{"key":"01","name":"Schleswig-Holstein"}},{"name":"Dorfstr.","postalCode":"25920","locality":"Risum-Lindholm","municipality":{"key":"01054109","name":"Risum-Lindholm","type":"Kreisangehörige_Gemeinde"},"district":{"key":"01054","name":"Nordfriesland","type":"Kreis"},"federalState":{"key":"01","name":"Schleswig-Holstein"}},{"name":"Draft","postalCode":"25920","locality":"Risum-Lindholm","municipality":{"key":"01054109","name":"Risum-Lindholm","type":"Kreisangehörige_Gemeinde"},"district":{"key":"01054","name":"Nordfriesland","type":"Kreis"},"federalState":{"key":"01","name":"Schleswig-Holstein"}},{"name":"Eekerfeen","postalCode":"25920","locality":"Risum-Lindholm","municipality":{"key":"01054109","name":"Risum-Lindholm","type":"Kreisangehörige_Gemeinde"},"district":{"key":"01054","name":"Nordfriesland","type":"Kreis"},"federalState":{"key":"01","name":"Schleswig-Holstein"}},{"name":"Eekerkuuch","postalCode":"25920","locality":"Risum-Lindholm","municipality":{"key":"01054109","name":"Risum-Lindholm","type":"Kreisangehörige_Gemeinde"},"district":{"key":"01054","name":"Nordfriesland","type":"Kreis"},"federalState":{"key":"01","name":"Schleswig-Holstein"}},{"name":"Emil-Malers-Wäi","postalCode":"25920","locality":"Risum-Lindholm","municipality":{"key":"01054109","name":"Risum-Lindholm","type":"Kreisangehörige_Gemeinde"},"district":{"key":"01054","name":"Nordfriesland","type":"Kreis"},"federalState":{"key":"01","name":"Schleswig-Holstein"}},{"name":"Fascherwäi","postalCode":"25920","locality":"Risum-Lindholm","municipality":{"key":"01054109","name":"Risum-Lindholm","type":"Kreisangehörige_Gemeinde"},"district":{"key":"01054","name":"Nordfriesland","type":"Kreis"},"federalState":{"key":"01","name":"Schleswig-Holstein"}},{"name":"Foogeds Wäi","postalCode":"25920","locality":"Risum-Lindholm","municipality":{"key":"01054109","name":"Risum-Lindholm","type":"Kreisangehörige_Gemeinde"},"district":{"key":"01054","name":"Nordfriesland","type":"Kreis"},"federalState":{"key":"01","name":"Schleswig-Holstein"}},{"name":"Grutstich","postalCode":"25920","locality":"Risum-Lindholm","municipality":{"key":"01054109","name":"Risum-Lindholm","type":"Kreisangehörige_Gemeinde"},"district":{"key":"01054","name":"Nordfriesland","type":"Kreis"},"federalState":{"key":"01","name":"Schleswig-Holstein"}},{"name":"Heie-Juuler-Wäi","postalCode":"25920","locality":"Risum-Lindholm","municipality":{"key":"01054109","name":"Risum-Lindholm","type":"Kreisangehörige_Gemeinde"},"district":{"key":"01054","name":"Nordfriesland","type":"Kreis"},"federalState":{"key":"01","name":"Schleswig-Holstein"}},{"name":"Heiner-Petersen-Wäi","postalCode":"25920","locality":"Risum-Lindholm","municipality":{"key":"01054109","name":"Risum-Lindholm","type":"Kreisangehörige_Gemeinde"},"district":{"key":"01054","name":"Nordfriesland","type":"Kreis"},"federalState":{"key":"01","name":"Schleswig-Holstein"}},{"name":"Herrenkoogstr.","postalCode":"25920","locality":"Risum-Lindholm","municipality":{"key":"01054109","name":"Risum-Lindholm","type":"Kreisangehörige_Gemeinde"},"district":{"key":"01054","name":"Nordfriesland","type":"Kreis"},"federalState":{"key":"01","name":"Schleswig-Holstein"}},{"name":"Holme","postalCode":"25920","locality":"Risum-Lindholm","municipality":{"key":"01054109","name":"Risum-Lindholm","type":"Kreisangehörige_Gemeinde"},"district":{"key":"01054","name":"Nordfriesland","type":"Kreis"},"federalState":{"key":"01","name":"Schleswig-Holstein"}},{"name":"Holmer Ring","postalCode":"25920","locality":"Risum-Lindholm","municipality":{"key":"01054109","name":"Risum-Lindholm","type":"Kreisangehörige_Gemeinde"},"district":{"key":"01054","name":"Nordfriesland","type":"Kreis"},"federalState":{"key":"01","name":"Schleswig-Holstein"}},{"name":"Johannes-Oldsen-Wäi","postalCode":"25920","locality":"Risum-Lindholm","municipality":{"key":"01054109","name":"Risum-Lindholm","type":"Kreisangehörige_Gemeinde"},"district":{"key":"01054","name":"Nordfriesland","type":"Kreis"},"federalState":{"key":"01","name":"Schleswig-Holstein"}},{"name":"Kliiwerfeen","postalCode":"25920","locality":"Risum-Lindholm","municipality":{"key":"01054109","name":"Risum-Lindholm","type":"Kreisangehörige_Gemeinde"},"district":{"key":"01054","name":"Nordfriesland","type":"Kreis"},"federalState":{"key":"01","name":"Schleswig-Holstein"}},{"name":"Klockries","postalCode":"25920","locality":"Risum-Lindholm","municipality":{"key":"01054109","name":"Risum-Lindholm","type":"Kreisangehörige_Gemeinde"},"district":{"key":"01054","name":"Nordfriesland","type":"Kreis"},"federalState":{"key":"01","name":"Schleswig-Holstein"}},{"name":"Knopp","postalCode":"25920","locality":"Risum-Lindholm","municipality":{"key":"01054109","name":"Risum-Lindholm","type":"Kreisangehörige_Gemeinde"},"district":{"key":"01054","name":"Nordfriesland","type":"Kreis"},"federalState":{"key":"01","name":"Schleswig-Holstein"}},{"name":"Kornkuugswäi","postalCode":"25920","locality":"Risum-Lindholm","municipality":{"key":"01054109","name":"Risum-Lindholm","type":"Kreisangehörige_Gemeinde"},"district":{"key":"01054","name":"Nordfriesland","type":"Kreis"},"federalState":{"key":"01","name":"Schleswig-Holstein"}},{"name":"Kösterwäi","postalCode":"25920","locality":"Risum-Lindholm","municipality":{"key":"01054109","name":"Risum-Lindholm","type":"Kreisangehörige_Gemeinde"},"district":{"key":"01054","name":"Nordfriesland","type":"Kreis"},"federalState":{"key":"01","name":"Schleswig-Holstein"}},{"name":"Krouerswäi","postalCode":"25920","locality":"Risum-Lindholm","municipality":{"key":"01054109","name":"Risum-Lindholm","type":"Kreisangehörige_Gemeinde"},"district":{"key":"01054","name":"Nordfriesland","type":"Kreis"},"federalState":{"key":"01","name":"Schleswig-Holstein"}},{"name":"Küfeen","postalCode":"25920","locality":"Risum-Lindholm","municipality":{"key":"01054109","name":"Risum-Lindholm","type":"Kreisangehörige_Gemeinde"},"district":{"key":"01054","name":"Nordfriesland","type":"Kreis"},"federalState":{"key":"01","name":"Schleswig-Holstein"}},{"name":"Laamstich","postalCode":"25920","locality":"Risum-Lindholm","municipality":{"key":"01054109","name":"Risum-Lindholm","type":"Kreisangehörige_Gemeinde"},"district":{"key":"01054","name":"Nordfriesland","type":"Kreis"},"federalState":{"key":"01","name":"Schleswig-Holstein"}},{"name":"Läiged","postalCode":"25920","locality":"Risum-Lindholm","municipality":{"key":"01054109","name":"Risum-Lindholm","type":"Kreisangehörige_Gemeinde"},"district":{"key":"01054","name":"Nordfriesland","type":"Kreis"},"federalState":{"key":"01","name":"Schleswig-Holstein"}},{"name":"Leckeng","postalCode":"25920","locality":"Risum-Lindholm","municipality":{"key":"01054109","name":"Risum-Lindholm","type":"Kreisangehörige_Gemeinde"},"district":{"key":"01054","name":"Nordfriesland","type":"Kreis"},"federalState":{"key":"01","name":"Schleswig-Holstein"}},{"name":"Meelenwäi","postalCode":"25920","locality":"Risum-Lindholm","municipality":{"key":"01054109","name":"Risum-Lindholm","type":"Kreisangehörige_Gemeinde"},"district":{"key":"01054","name":"Nordfriesland","type":"Kreis"},"federalState":{"key":"01","name":"Schleswig-Holstein"}},{"name":"Moordeich","postalCode":"25920","locality":"Risum-Lindholm","municipality":{"key":"01054109","name":"Risum-Lindholm","type":"Kreisangehörige_Gemeinde"},"district":{"key":"01054","name":"Nordfriesland","type":"Kreis"},"federalState":{"key":"01","name":"Schleswig-Holstein"}},{"name":"Mooringer Wäi","postalCode":"25920","locality":"Risum-Lindholm","municipality":{"key":"01054109","name":"Risum-Lindholm","type":"Kreisangehörige_Gemeinde"},"district":{"key":"01054","name":"Nordfriesland","type":"Kreis"},"federalState":{"key":"01","name":"Schleswig-Holstein"}},{"name":"Näie Wäi","postalCode":"25920","locality":"Risum-Lindholm","municipality":{"key":"01054109","name":"Risum-Lindholm","type":"Kreisangehörige_Gemeinde"},"district":{"key":"01054","name":"Nordfriesland","type":"Kreis"},"federalState":{"key":"01","name":"Schleswig-Holstein"}},{"name":"Peter-Schmidts-Weg","postalCode":"25920","locality":"Risum-Lindholm","municipality":{"key":"01054109","name":"Risum-Lindholm","type":"Kreisangehörige_Gemeinde"},"district":{"key":"01054","name":"Nordfriesland","type":"Kreis"},"federalState":{"key":"01","name":"Schleswig-Holstein"}},{"name":"Quern Dik","postalCode":"25920","locality":"Risum-Lindholm","municipality":{"key":"01054109","name":"Risum-Lindholm","type":"Kreisangehörige_Gemeinde"},"district":{"key":"01054","name":"Nordfriesland","type":"Kreis"},"federalState":{"key":"01","name":"Schleswig-Holstein"}},{"name":"Räidekööl","postalCode":"25920","locality":"Risum-Lindholm","municipality":{"key":"01054109","name":"Risum-Lindholm","type":"Kreisangehörige_Gemeinde"},"district":{"key":"01054","name":"Nordfriesland","type":"Kreis"},"federalState":{"key":"01","name":"Schleswig-Holstein"}},{"name":"Raiffeisenwäi","postalCode":"25920","locality":"Risum-Lindholm","municipality":{"key":"01054109","name":"Risum-Lindholm","type":"Kreisangehörige_Gemeinde"},"district":{"key":"01054","name":"Nordfriesland","type":"Kreis"},"federalState":{"key":"01","name":"Schleswig-Holstein"}},{"name":"Reepschlägerbahn","postalCode":"25920","locality":"Risum-Lindholm","municipality":{"key":"01054109","name":"Risum-Lindholm","type":"Kreisangehörige_Gemeinde"},"district":{"key":"01054","name":"Nordfriesland","type":"Kreis"},"federalState":{"key":"01","name":"Schleswig-Holstein"}},{"name":"Schörkewäi","postalCode":"25920","locality":"Risum-Lindholm","municipality":{"key":"01054109","name":"Risum-Lindholm","type":"Kreisangehörige_Gemeinde"},"district":{"key":"01054","name":"Nordfriesland","type":"Kreis"},"federalState":{"key":"01","name":"Schleswig-Holstein"}},{"name":"Senfmühlenweg","postalCode":"25920","locality":"Risum-Lindholm","municipality":{"key":"01054109","name":"Risum-Lindholm","type":"Kreisangehörige_Gemeinde"},"district":{"key":"01054","name":"Nordfriesland","type":"Kreis"},"federalState":{"key":"01","name":"Schleswig-Holstein"}},{"name":"Siewert-Agsens-Wäi","postalCode":"25920","locality":"Risum-Lindholm","municipality":{"key":"01054109","name":"Risum-Lindholm","type":"Kreisangehörige_Gemeinde"},"district":{"key":"01054","name":"Nordfriesland","type":"Kreis"},"federalState":{"key":"01","name":"Schleswig-Holstein"}},{"name":"Smaasewäi","postalCode":"25920","locality":"Risum-Lindholm","municipality":{"key":"01054109","name":"Risum-Lindholm","type":"Kreisangehörige_Gemeinde"},"district":{"key":"01054","name":"Nordfriesland","type":"Kreis"},"federalState":{"key":"01","name":"Schleswig-Holstein"}},{"name":"Sönke-Nissen-Wäi","postalCode":"25920","locality":"Risum-Lindholm","municipality":{"key":"01054109","name":"Risum-Lindholm","type":"Kreisangehörige_Gemeinde"},"district":{"key":"01054","name":"Nordfriesland","type":"Kreis"},"federalState":{"key":"01","name":"Schleswig-Holstein"}},{"name":"Spalönj","postalCode":"25920","locality":"Risum-Lindholm","municipality":{"key":"01054109","name":"Risum-Lindholm","type":"Kreisangehörige_Gemeinde"},"district":{"key":"01054","name":"Nordfriesland","type":"Kreis"},"federalState":{"key":"01","name":"Schleswig-Holstein"}},{"name":"Stadionstr.","postalCode":"25920","locality":"Risum-Lindholm","municipality":{"key":"01054109","name":"Risum-Lindholm","type":"Kreisangehörige_Gemeinde"},"district":{"key":"01054","name":"Nordfriesland","type":"Kreis"},"federalState":{"key":"01","name":"Schleswig-Holstein"}},{"name":"Steege","postalCode":"25920","locality":"Risum-Lindholm","municipality":{"key":"01054109","name":"Risum-Lindholm","type":"Kreisangehörige_Gemeinde"},"district":{"key":"01054","name":"Nordfriesland","type":"Kreis"},"federalState":{"key":"01","name":"Schleswig-Holstein"}},{"name":"Südersand","postalCode":"25920","locality":"Risum-Lindholm","municipality":{"key":"01054109","name":"Risum-Lindholm","type":"Kreisangehörige_Gemeinde"},"district":{"key":"01054","name":"Nordfriesland","type":"Kreis"},"federalState":{"key":"01","name":"Schleswig-Holstein"}},{"name":"Üüle Browäi","postalCode":"25920","locality":"Risum-Lindholm","municipality":{"key":"01054109","name":"Risum-Lindholm","type":"Kreisangehörige_Gemeinde"},"district":{"key":"01054","name":"Nordfriesland","type":"Kreis"},"federalState":{"key":"01","name":"Schleswig-Holstein"}},{"name":"Üülendik","postalCode":"25920","locality":"Risum-Lindholm","municipality":{"key":"01054109","name":"Risum-Lindholm","type":"Kreisangehörige_Gemeinde"},"district":{"key":"01054","name":"Nordfriesland","type":"Kreis"},"federalState":{"key":"01","name":"Schleswig-Holstein"}},]