[{"name":"Adorf-Seifener-Str.","postalCode":"57635","locality":"Mehren","municipality":{"key":"07132069","name":"Mehren","type":"Kreisangehörige_Gemeinde"},"district":{"key":"07132","name":"Altenkirchen (Westerwald)","type":"Landkreis"},"federalState":{"key":"07","name":"Rheinland-Pfalz"}},{"name":"Allscheider Str.","postalCode":"54552","locality":"Mehren","municipality":{"key":"07233042","name":"Mehren","type":"Kreisangehörige_Gemeinde"},"district":{"key":"07233","name":"Vulkaneifel","type":"Landkreis"},"federalState":{"key":"07","name":"Rheinland-Pfalz"}},{"name":"Alte Darscheider Str.","postalCode":"54552","locality":"Mehren","municipality":{"key":"07233042","name":"Mehren","type":"Kreisangehörige_Gemeinde"},"district":{"key":"07233","name":"Vulkaneifel","type":"Landkreis"},"federalState":{"key":"07","name":"Rheinland-Pfalz"}},{"name":"Am Beckersberg","postalCode":"54552","locality":"Mehren","municipality":{"key":"07233042","name":"Mehren","type":"Kreisangehörige_Gemeinde"},"district":{"key":"07233","name":"Vulkaneifel","type":"Landkreis"},"federalState":{"key":"07","name":"Rheinland-Pfalz"}},{"name":"Am Marktplatz","postalCode":"54552","locality":"Mehren","municipality":{"key":"07233042","name":"Mehren","type":"Kreisangehörige_Gemeinde"},"district":{"key":"07233","name":"Vulkaneifel","type":"Landkreis"},"federalState":{"key":"07","name":"Rheinland-Pfalz"}},{"name":"Am Mühlengraben","postalCode":"57635","locality":"Forstmehren","municipality":{"key":"07132035","name":"Forstmehren","type":"Kreisangehörige_Gemeinde"},"district":{"key":"07132","name":"Altenkirchen (Westerwald)","type":"Landkreis"},"federalState":{"key":"07","name":"Rheinland-Pfalz"}},{"name":"Am Schauerberg","postalCode":"54552","locality":"Mehren","municipality":{"key":"07233042","name":"Mehren","type":"Kreisangehörige_Gemeinde"},"district":{"key":"07233","name":"Vulkaneifel","type":"Landkreis"},"federalState":{"key":"07","name":"Rheinland-Pfalz"}},{"name":"Am Scholzen Kreuz","postalCode":"54552","locality":"Mehren","municipality":{"key":"07233042","name":"Mehren","type":"Kreisangehörige_Gemeinde"},"district":{"key":"07233","name":"Vulkaneifel","type":"Landkreis"},"federalState":{"key":"07","name":"Rheinland-Pfalz"}},{"name":"Am Weyersberg","postalCode":"54552","locality":"Mehren","municipality":{"key":"07233042","name":"Mehren","type":"Kreisangehörige_Gemeinde"},"district":{"key":"07233","name":"Vulkaneifel","type":"Landkreis"},"federalState":{"key":"07","name":"Rheinland-Pfalz"}},{"name":"Am Zuckerberg","postalCode":"54552","locality":"Mehren","municipality":{"key":"07233042","name":"Mehren","type":"Kreisangehörige_Gemeinde"},"district":{"key":"07233","name":"Vulkaneifel","type":"Landkreis"},"federalState":{"key":"07","name":"Rheinland-Pfalz"}},{"name":"Auf Biedenhof","postalCode":"54552","locality":"Mehren","municipality":{"key":"07233042","name":"Mehren","type":"Kreisangehörige_Gemeinde"},"district":{"key":"07233","name":"Vulkaneifel","type":"Landkreis"},"federalState":{"key":"07","name":"Rheinland-Pfalz"}},{"name":"Auf dem Brouch","postalCode":"57635","locality":"Mehren","municipality":{"key":"07132069","name":"Mehren","type":"Kreisangehörige_Gemeinde"},"district":{"key":"07132","name":"Altenkirchen (Westerwald)","type":"Landkreis"},"federalState":{"key":"07","name":"Rheinland-Pfalz"}},{"name":"Auf dem Flur","postalCode":"54552","locality":"Schalkenmehren","municipality":{"key":"07233063","name":"Schalkenmehren","type":"Kreisangehörige_Gemeinde"},"district":{"key":"07233","name":"Vulkaneifel","type":"Landkreis"},"federalState":{"key":"07","name":"Rheinland-Pfalz"}},{"name":"Auf dem Hof","postalCode":"54552","locality":"Mehren","municipality":{"key":"07233042","name":"Mehren","type":"Kreisangehörige_Gemeinde"},"district":{"key":"07233","name":"Vulkaneifel","type":"Landkreis"},"federalState":{"key":"07","name":"Rheinland-Pfalz"}},{"name":"Auf dem Hostert","postalCode":"54552","locality":"Mehren","municipality":{"key":"07233042","name":"Mehren","type":"Kreisangehörige_Gemeinde"},"district":{"key":"07233","name":"Vulkaneifel","type":"Landkreis"},"federalState":{"key":"07","name":"Rheinland-Pfalz"}},{"name":"Auf dem Wieschen","postalCode":"54552","locality":"Schalkenmehren","municipality":{"key":"07233063","name":"Schalkenmehren","type":"Kreisangehörige_Gemeinde"},"district":{"key":"07233","name":"Vulkaneifel","type":"Landkreis"},"federalState":{"key":"07","name":"Rheinland-Pfalz"}},{"name":"Auf der Acht","postalCode":"54552","locality":"Mehren","municipality":{"key":"07233042","name":"Mehren","type":"Kreisangehörige_Gemeinde"},"district":{"key":"07233","name":"Vulkaneifel","type":"Landkreis"},"federalState":{"key":"07","name":"Rheinland-Pfalz"}},{"name":"Auf der Holl","postalCode":"54552","locality":"Schalkenmehren","municipality":{"key":"07233063","name":"Schalkenmehren","type":"Kreisangehörige_Gemeinde"},"district":{"key":"07233","name":"Vulkaneifel","type":"Landkreis"},"federalState":{"key":"07","name":"Rheinland-Pfalz"}},{"name":"Auf Koop","postalCode":"54552","locality":"Schalkenmehren","municipality":{"key":"07233063","name":"Schalkenmehren","type":"Kreisangehörige_Gemeinde"},"district":{"key":"07233","name":"Vulkaneifel","type":"Landkreis"},"federalState":{"key":"07","name":"Rheinland-Pfalz"}},{"name":"Auf Mohrpesch","postalCode":"54552","locality":"Schalkenmehren","municipality":{"key":"07233063","name":"Schalkenmehren","type":"Kreisangehörige_Gemeinde"},"district":{"key":"07233","name":"Vulkaneifel","type":"Landkreis"},"federalState":{"key":"07","name":"Rheinland-Pfalz"}},{"name":"Bintener Hof","postalCode":"54552","locality":"Schalkenmehren","municipality":{"key":"07233063","name":"Schalkenmehren","type":"Kreisangehörige_Gemeinde"},"district":{"key":"07233","name":"Vulkaneifel","type":"Landkreis"},"federalState":{"key":"07","name":"Rheinland-Pfalz"}},{"name":"Darscheider Str.","postalCode":"54552","locality":"Mehren","municipality":{"key":"07233042","name":"Mehren","type":"Kreisangehörige_Gemeinde"},"district":{"key":"07233","name":"Vulkaneifel","type":"Landkreis"},"federalState":{"key":"07","name":"Rheinland-Pfalz"}},{"name":"Dauner Str.","postalCode":"54552","locality":"Mehren","municipality":{"key":"07233042","name":"Mehren","type":"Kreisangehörige_Gemeinde"},"district":{"key":"07233","name":"Vulkaneifel","type":"Landkreis"},"federalState":{"key":"07","name":"Rheinland-Pfalz"}},{"name":"Feldstr.","postalCode":"54552","locality":"Mehren","municipality":{"key":"07233042","name":"Mehren","type":"Kreisangehörige_Gemeinde"},"district":{"key":"07233","name":"Vulkaneifel","type":"Landkreis"},"federalState":{"key":"07","name":"Rheinland-Pfalz"}},{"name":"Friedhofstr.","postalCode":"54552","locality":"Mehren","municipality":{"key":"07233042","name":"Mehren","type":"Kreisangehörige_Gemeinde"},"district":{"key":"07233","name":"Vulkaneifel","type":"Landkreis"},"federalState":{"key":"07","name":"Rheinland-Pfalz"}},{"name":"Gartenweg","postalCode":"54552","locality":"Mehren","municipality":{"key":"07233042","name":"Mehren","type":"Kreisangehörige_Gemeinde"},"district":{"key":"07233","name":"Vulkaneifel","type":"Landkreis"},"federalState":{"key":"07","name":"Rheinland-Pfalz"}},{"name":"Gillenfelder Str.","postalCode":"54552","locality":"Mehren","municipality":{"key":"07233042","name":"Mehren","type":"Kreisangehörige_Gemeinde"},"district":{"key":"07233","name":"Vulkaneifel","type":"Landkreis"},"federalState":{"key":"07","name":"Rheinland-Pfalz"}},{"name":"Gollenseifen","postalCode":"57635","locality":"Mehren","municipality":{"key":"07132069","name":"Mehren","type":"Kreisangehörige_Gemeinde"},"district":{"key":"07132","name":"Altenkirchen (Westerwald)","type":"Landkreis"},"federalState":{"key":"07","name":"Rheinland-Pfalz"}},{"name":"Hardtstr.","postalCode":"54552","locality":"Mehren","municipality":{"key":"07233042","name":"Mehren","type":"Kreisangehörige_Gemeinde"},"district":{"key":"07233","name":"Vulkaneifel","type":"Landkreis"},"federalState":{"key":"07","name":"Rheinland-Pfalz"}},{"name":"Hasselstr.","postalCode":"54552","locality":"Mehren","municipality":{"key":"07233042","name":"Mehren","type":"Kreisangehörige_Gemeinde"},"district":{"key":"07233","name":"Vulkaneifel","type":"Landkreis"},"federalState":{"key":"07","name":"Rheinland-Pfalz"}},{"name":"Hauptstr.","postalCode":"54552","locality":"Mehren","municipality":{"key":"07233042","name":"Mehren","type":"Kreisangehörige_Gemeinde"},"district":{"key":"07233","name":"Vulkaneifel","type":"Landkreis"},"federalState":{"key":"07","name":"Rheinland-Pfalz"}},{"name":"Heckengartenweg","postalCode":"57635","locality":"Forstmehren","municipality":{"key":"07132035","name":"Forstmehren","type":"Kreisangehörige_Gemeinde"},"district":{"key":"07132","name":"Altenkirchen (Westerwald)","type":"Landkreis"},"federalState":{"key":"07","name":"Rheinland-Pfalz"}},{"name":"Hembrich","postalCode":"54552","locality":"Schalkenmehren","municipality":{"key":"07233063","name":"Schalkenmehren","type":"Kreisangehörige_Gemeinde"},"district":{"key":"07233","name":"Vulkaneifel","type":"Landkreis"},"federalState":{"key":"07","name":"Rheinland-Pfalz"}},{"name":"Hinterm Hassel","postalCode":"54552","locality":"Mehren","municipality":{"key":"07233042","name":"Mehren","type":"Kreisangehörige_Gemeinde"},"district":{"key":"07233","name":"Vulkaneifel","type":"Landkreis"},"federalState":{"key":"07","name":"Rheinland-Pfalz"}},{"name":"Höhenweg","postalCode":"54552","locality":"Schalkenmehren","municipality":{"key":"07233063","name":"Schalkenmehren","type":"Kreisangehörige_Gemeinde"},"district":{"key":"07233","name":"Vulkaneifel","type":"Landkreis"},"federalState":{"key":"07","name":"Rheinland-Pfalz"}},{"name":"Im Acker","postalCode":"54552","locality":"Mehren","municipality":{"key":"07233042","name":"Mehren","type":"Kreisangehörige_Gemeinde"},"district":{"key":"07233","name":"Vulkaneifel","type":"Landkreis"},"federalState":{"key":"07","name":"Rheinland-Pfalz"}},{"name":"Im Aul","postalCode":"54552","locality":"Schalkenmehren","municipality":{"key":"07233063","name":"Schalkenmehren","type":"Kreisangehörige_Gemeinde"},"district":{"key":"07233","name":"Vulkaneifel","type":"Landkreis"},"federalState":{"key":"07","name":"Rheinland-Pfalz"}},{"name":"Im Brühl","postalCode":"54552","locality":"Mehren","municipality":{"key":"07233042","name":"Mehren","type":"Kreisangehörige_Gemeinde"},"district":{"key":"07233","name":"Vulkaneifel","type":"Landkreis"},"federalState":{"key":"07","name":"Rheinland-Pfalz"}},{"name":"Im Bungert","postalCode":"54552","locality":"Schalkenmehren","municipality":{"key":"07233063","name":"Schalkenmehren","type":"Kreisangehörige_Gemeinde"},"district":{"key":"07233","name":"Vulkaneifel","type":"Landkreis"},"federalState":{"key":"07","name":"Rheinland-Pfalz"}},{"name":"Im Hasental","postalCode":"54552","locality":"Mehren","municipality":{"key":"07233042","name":"Mehren","type":"Kreisangehörige_Gemeinde"},"district":{"key":"07233","name":"Vulkaneifel","type":"Landkreis"},"federalState":{"key":"07","name":"Rheinland-Pfalz"}},{"name":"Im Marxberg","postalCode":"54552","locality":"Mehren","municipality":{"key":"07233042","name":"Mehren","type":"Kreisangehörige_Gemeinde"},"district":{"key":"07233","name":"Vulkaneifel","type":"Landkreis"},"federalState":{"key":"07","name":"Rheinland-Pfalz"}},{"name":"Im Niederdorf","postalCode":"57635","locality":"Mehren","municipality":{"key":"07132069","name":"Mehren","type":"Kreisangehörige_Gemeinde"},"district":{"key":"07132","name":"Altenkirchen (Westerwald)","type":"Landkreis"},"federalState":{"key":"07","name":"Rheinland-Pfalz"}},{"name":"Im Pitzegarten","postalCode":"54552","locality":"Schalkenmehren","municipality":{"key":"07233063","name":"Schalkenmehren","type":"Kreisangehörige_Gemeinde"},"district":{"key":"07233","name":"Vulkaneifel","type":"Landkreis"},"federalState":{"key":"07","name":"Rheinland-Pfalz"}},{"name":"Im Winkelfeld","postalCode":"57635","locality":"Mehren","municipality":{"key":"07132069","name":"Mehren","type":"Kreisangehörige_Gemeinde"},"district":{"key":"07132","name":"Altenkirchen (Westerwald)","type":"Landkreis"},"federalState":{"key":"07","name":"Rheinland-Pfalz"}},{"name":"In der Hünselnheck","postalCode":"57635","locality":"Forstmehren","municipality":{"key":"07132035","name":"Forstmehren","type":"Kreisangehörige_Gemeinde"},"district":{"key":"07132","name":"Altenkirchen (Westerwald)","type":"Landkreis"},"federalState":{"key":"07","name":"Rheinland-Pfalz"}},{"name":"K 17","postalCode":"57635","locality":"Mehren","municipality":{"key":"07132069","name":"Mehren","type":"Kreisangehörige_Gemeinde"},"district":{"key":"07132","name":"Altenkirchen (Westerwald)","type":"Landkreis"},"federalState":{"key":"07","name":"Rheinland-Pfalz"}},{"name":"K 18","postalCode":"57635","locality":"Mehren","municipality":{"key":"07132069","name":"Mehren","type":"Kreisangehörige_Gemeinde"},"district":{"key":"07132","name":"Altenkirchen (Westerwald)","type":"Landkreis"},"federalState":{"key":"07","name":"Rheinland-Pfalz"}},{"name":"K 24","postalCode":"57635","locality":"Forstmehren","municipality":{"key":"07132035","name":"Forstmehren","type":"Kreisangehörige_Gemeinde"},"district":{"key":"07132","name":"Altenkirchen (Westerwald)","type":"Landkreis"},"federalState":{"key":"07","name":"Rheinland-Pfalz"}},{"name":"K 24","postalCode":"57635","locality":"Mehren","municipality":{"key":"07132069","name":"Mehren","type":"Kreisangehörige_Gemeinde"},"district":{"key":"07132","name":"Altenkirchen (Westerwald)","type":"Landkreis"},"federalState":{"key":"07","name":"Rheinland-Pfalz"}},{"name":"K 26","postalCode":"57635","locality":"Mehren","municipality":{"key":"07132069","name":"Mehren","type":"Kreisangehörige_Gemeinde"},"district":{"key":"07132","name":"Altenkirchen (Westerwald)","type":"Landkreis"},"federalState":{"key":"07","name":"Rheinland-Pfalz"}},{"name":"Kapellenstr.","postalCode":"54552","locality":"Mehren","municipality":{"key":"07233042","name":"Mehren","type":"Kreisangehörige_Gemeinde"},"district":{"key":"07233","name":"Vulkaneifel","type":"Landkreis"},"federalState":{"key":"07","name":"Rheinland-Pfalz"}},{"name":"Kirchstr.","postalCode":"57635","locality":"Mehren","municipality":{"key":"07132069","name":"Mehren","type":"Kreisangehörige_Gemeinde"},"district":{"key":"07132","name":"Altenkirchen (Westerwald)","type":"Landkreis"},"federalState":{"key":"07","name":"Rheinland-Pfalz"}},{"name":"Kopperpesch","postalCode":"54552","locality":"Schalkenmehren","municipality":{"key":"07233063","name":"Schalkenmehren","type":"Kreisangehörige_Gemeinde"},"district":{"key":"07233","name":"Vulkaneifel","type":"Landkreis"},"federalState":{"key":"07","name":"Rheinland-Pfalz"}},{"name":"Kuhweg","postalCode":"57635","locality":"Forstmehren","municipality":{"key":"07132035","name":"Forstmehren","type":"Kreisangehörige_Gemeinde"},"district":{"key":"07132","name":"Altenkirchen (Westerwald)","type":"Landkreis"},"federalState":{"key":"07","name":"Rheinland-Pfalz"}},{"name":"L 276","postalCode":"57635","locality":"Forstmehren","municipality":{"key":"07132035","name":"Forstmehren","type":"Kreisangehörige_Gemeinde"},"district":{"key":"07132","name":"Altenkirchen (Westerwald)","type":"Landkreis"},"federalState":{"key":"07","name":"Rheinland-Pfalz"}},{"name":"Maarstr.","postalCode":"54552","locality":"Schalkenmehren","municipality":{"key":"07233063","name":"Schalkenmehren","type":"Kreisangehörige_Gemeinde"},"district":{"key":"07233","name":"Vulkaneifel","type":"Landkreis"},"federalState":{"key":"07","name":"Rheinland-Pfalz"}},{"name":"Mehrbachstr.","postalCode":"57635","locality":"Forstmehren","municipality":{"key":"07132035","name":"Forstmehren","type":"Kreisangehörige_Gemeinde"},"district":{"key":"07132","name":"Altenkirchen (Westerwald)","type":"Landkreis"},"federalState":{"key":"07","name":"Rheinland-Pfalz"}},{"name":"Mehrbachtalstr.","postalCode":"57635","locality":"Mehren","municipality":{"key":"07132069","name":"Mehren","type":"Kreisangehörige_Gemeinde"},"district":{"key":"07132","name":"Altenkirchen (Westerwald)","type":"Landkreis"},"federalState":{"key":"07","name":"Rheinland-Pfalz"}},{"name":"Mehrener Str.","postalCode":"54552","locality":"Schalkenmehren","municipality":{"key":"07233063","name":"Schalkenmehren","type":"Kreisangehörige_Gemeinde"},"district":{"key":"07233","name":"Vulkaneifel","type":"Landkreis"},"federalState":{"key":"07","name":"Rheinland-Pfalz"}},{"name":"Mittelweg","postalCode":"57635","locality":"Forstmehren","municipality":{"key":"07132035","name":"Forstmehren","type":"Kreisangehörige_Gemeinde"},"district":{"key":"07132","name":"Altenkirchen (Westerwald)","type":"Landkreis"},"federalState":{"key":"07","name":"Rheinland-Pfalz"}},{"name":"Mühlenweg","postalCode":"54552","locality":"Schalkenmehren","municipality":{"key":"07233063","name":"Schalkenmehren","type":"Kreisangehörige_Gemeinde"},"district":{"key":"07233","name":"Vulkaneifel","type":"Landkreis"},"federalState":{"key":"07","name":"Rheinland-Pfalz"}},{"name":"Mühlenweg","postalCode":"57635","locality":"Forstmehren","municipality":{"key":"07132035","name":"Forstmehren","type":"Kreisangehörige_Gemeinde"},"district":{"key":"07132","name":"Altenkirchen (Westerwald)","type":"Landkreis"},"federalState":{"key":"07","name":"Rheinland-Pfalz"}},{"name":"Pfarrer-Konter-Weg","postalCode":"54552","locality":"Schalkenmehren","municipality":{"key":"07233063","name":"Schalkenmehren","type":"Kreisangehörige_Gemeinde"},"district":{"key":"07233","name":"Vulkaneifel","type":"Landkreis"},"federalState":{"key":"07","name":"Rheinland-Pfalz"}},{"name":"Pitt-Kreuzberg-Weg","postalCode":"54552","locality":"Schalkenmehren","municipality":{"key":"07233063","name":"Schalkenmehren","type":"Kreisangehörige_Gemeinde"},"district":{"key":"07233","name":"Vulkaneifel","type":"Landkreis"},"federalState":{"key":"07","name":"Rheinland-Pfalz"}},{"name":"Poststr.","postalCode":"54552","locality":"Mehren","municipality":{"key":"07233042","name":"Mehren","type":"Kreisangehörige_Gemeinde"},"district":{"key":"07233","name":"Vulkaneifel","type":"Landkreis"},"federalState":{"key":"07","name":"Rheinland-Pfalz"}},{"name":"Radbüschstr.","postalCode":"54552","locality":"Mehren","municipality":{"key":"07233042","name":"Mehren","type":"Kreisangehörige_Gemeinde"},"district":{"key":"07233","name":"Vulkaneifel","type":"Landkreis"},"federalState":{"key":"07","name":"Rheinland-Pfalz"}},{"name":"Raiffeisenstr.","postalCode":"57635","locality":"Forstmehren","municipality":{"key":"07132035","name":"Forstmehren","type":"Kreisangehörige_Gemeinde"},"district":{"key":"07132","name":"Altenkirchen (Westerwald)","type":"Landkreis"},"federalState":{"key":"07","name":"Rheinland-Pfalz"}},{"name":"Raiffeisenstr.","postalCode":"57635","locality":"Mehren","municipality":{"key":"07132069","name":"Mehren","type":"Kreisangehörige_Gemeinde"},"district":{"key":"07132","name":"Altenkirchen (Westerwald)","type":"Landkreis"},"federalState":{"key":"07","name":"Rheinland-Pfalz"}},{"name":"Reitersweg","postalCode":"54552","locality":"Mehren","municipality":{"key":"07233042","name":"Mehren","type":"Kreisangehörige_Gemeinde"},"district":{"key":"07233","name":"Vulkaneifel","type":"Landkreis"},"federalState":{"key":"07","name":"Rheinland-Pfalz"}},{"name":"Rundweg 1","postalCode":"54552","locality":"Schalkenmehren","municipality":{"key":"07233063","name":"Schalkenmehren","type":"Kreisangehörige_Gemeinde"},"district":{"key":"07233","name":"Vulkaneifel","type":"Landkreis"},"federalState":{"key":"07","name":"Rheinland-Pfalz"}},{"name":"Schalkenmehrener Mühle","postalCode":"54552","locality":"Schalkenmehren","municipality":{"key":"07233063","name":"Schalkenmehren","type":"Kreisangehörige_Gemeinde"},"district":{"key":"07233","name":"Vulkaneifel","type":"Landkreis"},"federalState":{"key":"07","name":"Rheinland-Pfalz"}},{"name":"Schalkenmehrener Str.","postalCode":"54552","locality":"Mehren","municipality":{"key":"07233042","name":"Mehren","type":"Kreisangehörige_Gemeinde"},"district":{"key":"07233","name":"Vulkaneifel","type":"Landkreis"},"federalState":{"key":"07","name":"Rheinland-Pfalz"}},{"name":"Schulweg","postalCode":"57635","locality":"Forstmehren","municipality":{"key":"07132035","name":"Forstmehren","type":"Kreisangehörige_Gemeinde"},"district":{"key":"07132","name":"Altenkirchen (Westerwald)","type":"Landkreis"},"federalState":{"key":"07","name":"Rheinland-Pfalz"}},{"name":"Seiterstälchen","postalCode":"54552","locality":"Mehren","municipality":{"key":"07233042","name":"Mehren","type":"Kreisangehörige_Gemeinde"},"district":{"key":"07233","name":"Vulkaneifel","type":"Landkreis"},"federalState":{"key":"07","name":"Rheinland-Pfalz"}},{"name":"Steininger Str.","postalCode":"54552","locality":"Mehren","municipality":{"key":"07233042","name":"Mehren","type":"Kreisangehörige_Gemeinde"},"district":{"key":"07233","name":"Vulkaneifel","type":"Landkreis"},"federalState":{"key":"07","name":"Rheinland-Pfalz"}},{"name":"St.-Martin-Str.","postalCode":"54552","locality":"Schalkenmehren","municipality":{"key":"07233063","name":"Schalkenmehren","type":"Kreisangehörige_Gemeinde"},"district":{"key":"07233","name":"Vulkaneifel","type":"Landkreis"},"federalState":{"key":"07","name":"Rheinland-Pfalz"}},{"name":"Tannenweg","postalCode":"57635","locality":"Mehren","municipality":{"key":"07132069","name":"Mehren","type":"Kreisangehörige_Gemeinde"},"district":{"key":"07132","name":"Altenkirchen (Westerwald)","type":"Landkreis"},"federalState":{"key":"07","name":"Rheinland-Pfalz"}},{"name":"Tiergartenstr.","postalCode":"54552","locality":"Mehren","municipality":{"key":"07233042","name":"Mehren","type":"Kreisangehörige_Gemeinde"},"district":{"key":"07233","name":"Vulkaneifel","type":"Landkreis"},"federalState":{"key":"07","name":"Rheinland-Pfalz"}},{"name":"Udlerstr.","postalCode":"54552","locality":"Schalkenmehren","municipality":{"key":"07233063","name":"Schalkenmehren","type":"Kreisangehörige_Gemeinde"},"district":{"key":"07233","name":"Vulkaneifel","type":"Landkreis"},"federalState":{"key":"07","name":"Rheinland-Pfalz"}},{"name":"Uscherberg","postalCode":"54552","locality":"Schalkenmehren","municipality":{"key":"07233063","name":"Schalkenmehren","type":"Kreisangehörige_Gemeinde"},"district":{"key":"07233","name":"Vulkaneifel","type":"Landkreis"},"federalState":{"key":"07","name":"Rheinland-Pfalz"}},{"name":"Waldstr.","postalCode":"57635","locality":"Mehren","municipality":{"key":"07132069","name":"Mehren","type":"Kreisangehörige_Gemeinde"},"district":{"key":"07132","name":"Altenkirchen (Westerwald)","type":"Landkreis"},"federalState":{"key":"07","name":"Rheinland-Pfalz"}},{"name":"Weinbachstr.","postalCode":"54552","locality":"Schalkenmehren","municipality":{"key":"07233063","name":"Schalkenmehren","type":"Kreisangehörige_Gemeinde"},"district":{"key":"07233","name":"Vulkaneifel","type":"Landkreis"},"federalState":{"key":"07","name":"Rheinland-Pfalz"}},{"name":"Weinfelder Str.","postalCode":"54552","locality":"Mehren","municipality":{"key":"07233042","name":"Mehren","type":"Kreisangehörige_Gemeinde"},"district":{"key":"07233","name":"Vulkaneifel","type":"Landkreis"},"federalState":{"key":"07","name":"Rheinland-Pfalz"}},{"name":"Weinfelder Weg","postalCode":"54552","locality":"Schalkenmehren","municipality":{"key":"07233063","name":"Schalkenmehren","type":"Kreisangehörige_Gemeinde"},"district":{"key":"07233","name":"Vulkaneifel","type":"Landkreis"},"federalState":{"key":"07","name":"Rheinland-Pfalz"}},{"name":"Zum Bungert","postalCode":"54552","locality":"Mehren","municipality":{"key":"07233042","name":"Mehren","type":"Kreisangehörige_Gemeinde"},"district":{"key":"07233","name":"Vulkaneifel","type":"Landkreis"},"federalState":{"key":"07","name":"Rheinland-Pfalz"}},{"name":"Zum Lichtenberg","postalCode":"57635","locality":"Mehren","municipality":{"key":"07132069","name":"Mehren","type":"Kreisangehörige_Gemeinde"},"district":{"key":"07132","name":"Altenkirchen (Westerwald)","type":"Landkreis"},"federalState":{"key":"07","name":"Rheinland-Pfalz"}},{"name":"Zum Scheid","postalCode":"54552","locality":"Schalkenmehren","municipality":{"key":"07233063","name":"Schalkenmehren","type":"Kreisangehörige_Gemeinde"},"district":{"key":"07233","name":"Vulkaneifel","type":"Landkreis"},"federalState":{"key":"07","name":"Rheinland-Pfalz"}},{"name":"Zum Seifen","postalCode":"57635","locality":"Mehren","municipality":{"key":"07132069","name":"Mehren","type":"Kreisangehörige_Gemeinde"},"district":{"key":"07132","name":"Altenkirchen (Westerwald)","type":"Landkreis"},"federalState":{"key":"07","name":"Rheinland-Pfalz"}},{"name":"Zur Burgwiese","postalCode":"57635","locality":"Mehren","municipality":{"key":"07132069","name":"Mehren","type":"Kreisangehörige_Gemeinde"},"district":{"key":"07132","name":"Altenkirchen (Westerwald)","type":"Landkreis"},"federalState":{"key":"07","name":"Rheinland-Pfalz"}},{"name":"Zur Heide","postalCode":"57635","locality":"Mehren","municipality":{"key":"07132069","name":"Mehren","type":"Kreisangehörige_Gemeinde"},"district":{"key":"07132","name":"Altenkirchen (Westerwald)","type":"Landkreis"},"federalState":{"key":"07","name":"Rheinland-Pfalz"}},{"name":"Zur Sternwarte","postalCode":"54552","locality":"Schalkenmehren","municipality":{"key":"07233063","name":"Schalkenmehren","type":"Kreisangehörige_Gemeinde"},"district":{"key":"07233","name":"Vulkaneifel","type":"Landkreis"},"federalState":{"key":"07","name":"Rheinland-Pfalz"}},{"name":"Überbach","postalCode":"57635","locality":"Mehren","municipality":{"key":"07132069","name":"Mehren","type":"Kreisangehörige_Gemeinde"},"district":{"key":"07132","name":"Altenkirchen (Westerwald)","type":"Landkreis"},"federalState":{"key":"07","name":"Rheinland-Pfalz"}},]