[{"name":"Aggensteinstr.","postalCode":"87648","locality":"Aitrang","municipality":{"key":"09777111","name":"Aitrang","type":"Kreisangehörige_Gemeinde"},"district":{"key":"09777","name":"Ostallgäu","type":"Landkreis"},"federalState":{"key":"09","name":"Bayern"}},{"name":"Ahornweg","postalCode":"87648","locality":"Aitrang","municipality":{"key":"09777111","name":"Aitrang","type":"Kreisangehörige_Gemeinde"},"district":{"key":"09777","name":"Ostallgäu","type":"Landkreis"},"federalState":{"key":"09","name":"Bayern"}},{"name":"Aitranger Str.","postalCode":"87648","locality":"Aitrang","municipality":{"key":"09777111","name":"Aitrang","type":"Kreisangehörige_Gemeinde"},"district":{"key":"09777","name":"Ostallgäu","type":"Landkreis"},"federalState":{"key":"09","name":"Bayern"}},{"name":"Am Bergblick","postalCode":"87648","locality":"Aitrang","municipality":{"key":"09777111","name":"Aitrang","type":"Kreisangehörige_Gemeinde"},"district":{"key":"09777","name":"Ostallgäu","type":"Landkreis"},"federalState":{"key":"09","name":"Bayern"}},{"name":"Am Denkmal","postalCode":"87648","locality":"Aitrang","municipality":{"key":"09777111","name":"Aitrang","type":"Kreisangehörige_Gemeinde"},"district":{"key":"09777","name":"Ostallgäu","type":"Landkreis"},"federalState":{"key":"09","name":"Bayern"}},{"name":"Am Heuberg","postalCode":"87648","locality":"Aitrang","municipality":{"key":"09777111","name":"Aitrang","type":"Kreisangehörige_Gemeinde"},"district":{"key":"09777","name":"Ostallgäu","type":"Landkreis"},"federalState":{"key":"09","name":"Bayern"}},{"name":"Am Katzenberg","postalCode":"87648","locality":"Aitrang","municipality":{"key":"09777111","name":"Aitrang","type":"Kreisangehörige_Gemeinde"},"district":{"key":"09777","name":"Ostallgäu","type":"Landkreis"},"federalState":{"key":"09","name":"Bayern"}},{"name":"Am Kellerberg","postalCode":"87648","locality":"Aitrang","municipality":{"key":"09777111","name":"Aitrang","type":"Kreisangehörige_Gemeinde"},"district":{"key":"09777","name":"Ostallgäu","type":"Landkreis"},"federalState":{"key":"09","name":"Bayern"}},{"name":"Am Lengenwang","postalCode":"87648","locality":"Aitrang","municipality":{"key":"09777111","name":"Aitrang","type":"Kreisangehörige_Gemeinde"},"district":{"key":"09777","name":"Ostallgäu","type":"Landkreis"},"federalState":{"key":"09","name":"Bayern"}},{"name":"Am Mühlele","postalCode":"87648","locality":"Aitrang","municipality":{"key":"09777111","name":"Aitrang","type":"Kreisangehörige_Gemeinde"},"district":{"key":"09777","name":"Ostallgäu","type":"Landkreis"},"federalState":{"key":"09","name":"Bayern"}},{"name":"Am Ursprung","postalCode":"87648","locality":"Aitrang","municipality":{"key":"09777111","name":"Aitrang","type":"Kreisangehörige_Gemeinde"},"district":{"key":"09777","name":"Ostallgäu","type":"Landkreis"},"federalState":{"key":"09","name":"Bayern"}},{"name":"An der Säge","postalCode":"87648","locality":"Aitrang","municipality":{"key":"09777111","name":"Aitrang","type":"Kreisangehörige_Gemeinde"},"district":{"key":"09777","name":"Ostallgäu","type":"Landkreis"},"federalState":{"key":"09","name":"Bayern"}},{"name":"Bachstr.","postalCode":"87648","locality":"Aitrang","municipality":{"key":"09777111","name":"Aitrang","type":"Kreisangehörige_Gemeinde"},"district":{"key":"09777","name":"Ostallgäu","type":"Landkreis"},"federalState":{"key":"09","name":"Bayern"}},{"name":"Bahnhofring","postalCode":"87648","locality":"Aitrang","municipality":{"key":"09777111","name":"Aitrang","type":"Kreisangehörige_Gemeinde"},"district":{"key":"09777","name":"Ostallgäu","type":"Landkreis"},"federalState":{"key":"09","name":"Bayern"}},{"name":"Birkenweg","postalCode":"87648","locality":"Aitrang","municipality":{"key":"09777111","name":"Aitrang","type":"Kreisangehörige_Gemeinde"},"district":{"key":"09777","name":"Ostallgäu","type":"Landkreis"},"federalState":{"key":"09","name":"Bayern"}},{"name":"Breitenbergstr.","postalCode":"87648","locality":"Aitrang","municipality":{"key":"09777111","name":"Aitrang","type":"Kreisangehörige_Gemeinde"},"district":{"key":"09777","name":"Ostallgäu","type":"Landkreis"},"federalState":{"key":"09","name":"Bayern"}},{"name":"Buchenweg","postalCode":"87648","locality":"Aitrang","municipality":{"key":"09777111","name":"Aitrang","type":"Kreisangehörige_Gemeinde"},"district":{"key":"09777","name":"Ostallgäu","type":"Landkreis"},"federalState":{"key":"09","name":"Bayern"}},{"name":"Eichenstr.","postalCode":"87648","locality":"Aitrang","municipality":{"key":"09777111","name":"Aitrang","type":"Kreisangehörige_Gemeinde"},"district":{"key":"09777","name":"Ostallgäu","type":"Landkreis"},"federalState":{"key":"09","name":"Bayern"}},{"name":"Fichtenstr.","postalCode":"87648","locality":"Aitrang","municipality":{"key":"09777111","name":"Aitrang","type":"Kreisangehörige_Gemeinde"},"district":{"key":"09777","name":"Ostallgäu","type":"Landkreis"},"federalState":{"key":"09","name":"Bayern"}},{"name":"Friesenrieder Str.","postalCode":"87648","locality":"Aitrang","municipality":{"key":"09777111","name":"Aitrang","type":"Kreisangehörige_Gemeinde"},"district":{"key":"09777","name":"Ostallgäu","type":"Landkreis"},"federalState":{"key":"09","name":"Bayern"}},{"name":"Gewerbestr.","postalCode":"87648","locality":"Aitrang","municipality":{"key":"09777111","name":"Aitrang","type":"Kreisangehörige_Gemeinde"},"district":{"key":"09777","name":"Ostallgäu","type":"Landkreis"},"federalState":{"key":"09","name":"Bayern"}},{"name":"Grüntenstr.","postalCode":"87648","locality":"Aitrang","municipality":{"key":"09777111","name":"Aitrang","type":"Kreisangehörige_Gemeinde"},"district":{"key":"09777","name":"Ostallgäu","type":"Landkreis"},"federalState":{"key":"09","name":"Bayern"}},{"name":"Kellerbergstr.","postalCode":"87648","locality":"Aitrang","municipality":{"key":"09777111","name":"Aitrang","type":"Kreisangehörige_Gemeinde"},"district":{"key":"09777","name":"Ostallgäu","type":"Landkreis"},"federalState":{"key":"09","name":"Bayern"}},{"name":"Keltenstr.","postalCode":"87648","locality":"Aitrang","municipality":{"key":"09777111","name":"Aitrang","type":"Kreisangehörige_Gemeinde"},"district":{"key":"09777","name":"Ostallgäu","type":"Landkreis"},"federalState":{"key":"09","name":"Bayern"}},{"name":"Lindenstr.","postalCode":"87648","locality":"Aitrang","municipality":{"key":"09777111","name":"Aitrang","type":"Kreisangehörige_Gemeinde"},"district":{"key":"09777","name":"Ostallgäu","type":"Landkreis"},"federalState":{"key":"09","name":"Bayern"}},{"name":"Mühlgasse","postalCode":"87648","locality":"Aitrang","municipality":{"key":"09777111","name":"Aitrang","type":"Kreisangehörige_Gemeinde"},"district":{"key":"09777","name":"Ostallgäu","type":"Landkreis"},"federalState":{"key":"09","name":"Bayern"}},{"name":"Paradiesgasse","postalCode":"87648","locality":"Aitrang","municipality":{"key":"09777111","name":"Aitrang","type":"Kreisangehörige_Gemeinde"},"district":{"key":"09777","name":"Ostallgäu","type":"Landkreis"},"federalState":{"key":"09","name":"Bayern"}},{"name":"Römerstr.","postalCode":"87648","locality":"Aitrang","municipality":{"key":"09777111","name":"Aitrang","type":"Kreisangehörige_Gemeinde"},"district":{"key":"09777","name":"Ostallgäu","type":"Landkreis"},"federalState":{"key":"09","name":"Bayern"}},{"name":"Sankt-Ulrich-Str.","postalCode":"87648","locality":"Aitrang","municipality":{"key":"09777111","name":"Aitrang","type":"Kreisangehörige_Gemeinde"},"district":{"key":"09777","name":"Ostallgäu","type":"Landkreis"},"federalState":{"key":"09","name":"Bayern"}},{"name":"Säulingstr.","postalCode":"87648","locality":"Aitrang","municipality":{"key":"09777111","name":"Aitrang","type":"Kreisangehörige_Gemeinde"},"district":{"key":"09777","name":"Ostallgäu","type":"Landkreis"},"federalState":{"key":"09","name":"Bayern"}},{"name":"Schindelhalde","postalCode":"87648","locality":"Aitrang","municipality":{"key":"09777111","name":"Aitrang","type":"Kreisangehörige_Gemeinde"},"district":{"key":"09777","name":"Ostallgäu","type":"Landkreis"},"federalState":{"key":"09","name":"Bayern"}},{"name":"Sonnenstr.","postalCode":"87648","locality":"Aitrang","municipality":{"key":"09777111","name":"Aitrang","type":"Kreisangehörige_Gemeinde"},"district":{"key":"09777","name":"Ostallgäu","type":"Landkreis"},"federalState":{"key":"09","name":"Bayern"}},{"name":"Stockacker","postalCode":"87648","locality":"Aitrang","municipality":{"key":"09777111","name":"Aitrang","type":"Kreisangehörige_Gemeinde"},"district":{"key":"09777","name":"Ostallgäu","type":"Landkreis"},"federalState":{"key":"09","name":"Bayern"}},{"name":"Taubental","postalCode":"87648","locality":"Aitrang","municipality":{"key":"09777111","name":"Aitrang","type":"Kreisangehörige_Gemeinde"},"district":{"key":"09777","name":"Ostallgäu","type":"Landkreis"},"federalState":{"key":"09","name":"Bayern"}},{"name":"Tegelbergstr.","postalCode":"87648","locality":"Aitrang","municipality":{"key":"09777111","name":"Aitrang","type":"Kreisangehörige_Gemeinde"},"district":{"key":"09777","name":"Ostallgäu","type":"Landkreis"},"federalState":{"key":"09","name":"Bayern"}},{"name":"Thingauer Str.","postalCode":"87648","locality":"Aitrang","municipality":{"key":"09777111","name":"Aitrang","type":"Kreisangehörige_Gemeinde"},"district":{"key":"09777","name":"Ostallgäu","type":"Landkreis"},"federalState":{"key":"09","name":"Bayern"}},{"name":"Wassertretanlage","postalCode":"87648","locality":"Aitrang","municipality":{"key":"09777111","name":"Aitrang","type":"Kreisangehörige_Gemeinde"},"district":{"key":"09777","name":"Ostallgäu","type":"Landkreis"},"federalState":{"key":"09","name":"Bayern"}},]