[{"name":"Abhorner Str.","postalCode":"08228","locality":"Rodewisch","municipality":{"key":"14523360","name":"Rodewisch, Stadt","type":"Stadt"},"district":{"key":"14523","name":"Vogtlandkreis","type":"Landkreis"},"federalState":{"key":"14","name":"Sachsen"}},{"name":"Abhorner Weg","postalCode":"08228","locality":"Rodewisch","municipality":{"key":"14523360","name":"Rodewisch, Stadt","type":"Stadt"},"district":{"key":"14523","name":"Vogtlandkreis","type":"Landkreis"},"federalState":{"key":"14","name":"Sachsen"}},{"name":"Alte Lengenfelder Str.","postalCode":"08228","locality":"Rodewisch","municipality":{"key":"14523360","name":"Rodewisch, Stadt","type":"Stadt"},"district":{"key":"14523","name":"Vogtlandkreis","type":"Landkreis"},"federalState":{"key":"14","name":"Sachsen"}},{"name":"Alter Bierweg","postalCode":"08228","locality":"Rodewisch","municipality":{"key":"14523360","name":"Rodewisch, Stadt","type":"Stadt"},"district":{"key":"14523","name":"Vogtlandkreis","type":"Landkreis"},"federalState":{"key":"14","name":"Sachsen"}},{"name":"Am Anger","postalCode":"08228","locality":"Rodewisch","municipality":{"key":"14523360","name":"Rodewisch, Stadt","type":"Stadt"},"district":{"key":"14523","name":"Vogtlandkreis","type":"Landkreis"},"federalState":{"key":"14","name":"Sachsen"}},{"name":"Am Bahnhof","postalCode":"08228","locality":"Rodewisch","municipality":{"key":"14523360","name":"Rodewisch, Stadt","type":"Stadt"},"district":{"key":"14523","name":"Vogtlandkreis","type":"Landkreis"},"federalState":{"key":"14","name":"Sachsen"}},{"name":"Am Berge","postalCode":"08228","locality":"Rodewisch","municipality":{"key":"14523360","name":"Rodewisch, Stadt","type":"Stadt"},"district":{"key":"14523","name":"Vogtlandkreis","type":"Landkreis"},"federalState":{"key":"14","name":"Sachsen"}},{"name":"Am Graben","postalCode":"08228","locality":"Rodewisch","municipality":{"key":"14523360","name":"Rodewisch, Stadt","type":"Stadt"},"district":{"key":"14523","name":"Vogtlandkreis","type":"Landkreis"},"federalState":{"key":"14","name":"Sachsen"}},{"name":"Am Lamnitzer","postalCode":"08228","locality":"Rodewisch","municipality":{"key":"14523360","name":"Rodewisch, Stadt","type":"Stadt"},"district":{"key":"14523","name":"Vogtlandkreis","type":"Landkreis"},"federalState":{"key":"14","name":"Sachsen"}},{"name":"Amselweg","postalCode":"08228","locality":"Rodewisch","municipality":{"key":"14523360","name":"Rodewisch, Stadt","type":"Stadt"},"district":{"key":"14523","name":"Vogtlandkreis","type":"Landkreis"},"federalState":{"key":"14","name":"Sachsen"}},{"name":"Am Silbersee","postalCode":"08228","locality":"Rodewisch","municipality":{"key":"14523360","name":"Rodewisch, Stadt","type":"Stadt"},"district":{"key":"14523","name":"Vogtlandkreis","type":"Landkreis"},"federalState":{"key":"14","name":"Sachsen"}},{"name":"Am Südhang","postalCode":"08228","locality":"Rodewisch","municipality":{"key":"14523360","name":"Rodewisch, Stadt","type":"Stadt"},"district":{"key":"14523","name":"Vogtlandkreis","type":"Landkreis"},"federalState":{"key":"14","name":"Sachsen"}},{"name":"Am Teich","postalCode":"08228","locality":"Rodewisch","municipality":{"key":"14523360","name":"Rodewisch, Stadt","type":"Stadt"},"district":{"key":"14523","name":"Vogtlandkreis","type":"Landkreis"},"federalState":{"key":"14","name":"Sachsen"}},{"name":"Am Teichweg","postalCode":"08228","locality":"Rodewisch","municipality":{"key":"14523360","name":"Rodewisch, Stadt","type":"Stadt"},"district":{"key":"14523","name":"Vogtlandkreis","type":"Landkreis"},"federalState":{"key":"14","name":"Sachsen"}},{"name":"Am Vogelbeerbaum","postalCode":"08228","locality":"Rodewisch","municipality":{"key":"14523360","name":"Rodewisch, Stadt","type":"Stadt"},"district":{"key":"14523","name":"Vogtlandkreis","type":"Landkreis"},"federalState":{"key":"14","name":"Sachsen"}},{"name":"An der Sonnenterrasse","postalCode":"08228","locality":"Rodewisch","municipality":{"key":"14523360","name":"Rodewisch, Stadt","type":"Stadt"},"district":{"key":"14523","name":"Vogtlandkreis","type":"Landkreis"},"federalState":{"key":"14","name":"Sachsen"}},{"name":"Auerbacher Str.","postalCode":"08228","locality":"Rodewisch","municipality":{"key":"14523360","name":"Rodewisch, Stadt","type":"Stadt"},"district":{"key":"14523","name":"Vogtlandkreis","type":"Landkreis"},"federalState":{"key":"14","name":"Sachsen"}},{"name":"August-Bebel-Str.","postalCode":"08228","locality":"Rodewisch","municipality":{"key":"14523360","name":"Rodewisch, Stadt","type":"Stadt"},"district":{"key":"14523","name":"Vogtlandkreis","type":"Landkreis"},"federalState":{"key":"14","name":"Sachsen"}},{"name":"Bachstr.","postalCode":"08228","locality":"Rodewisch","municipality":{"key":"14523360","name":"Rodewisch, Stadt","type":"Stadt"},"district":{"key":"14523","name":"Vogtlandkreis","type":"Landkreis"},"federalState":{"key":"14","name":"Sachsen"}},{"name":"Bahnhofstr.","postalCode":"08228","locality":"Rodewisch","municipality":{"key":"14523360","name":"Rodewisch, Stadt","type":"Stadt"},"district":{"key":"14523","name":"Vogtlandkreis","type":"Landkreis"},"federalState":{"key":"14","name":"Sachsen"}},{"name":"Bahnhofsweg","postalCode":"08228","locality":"Rodewisch","municipality":{"key":"14523360","name":"Rodewisch, Stadt","type":"Stadt"},"district":{"key":"14523","name":"Vogtlandkreis","type":"Landkreis"},"federalState":{"key":"14","name":"Sachsen"}},{"name":"Bauernweg","postalCode":"08228","locality":"Rodewisch","municipality":{"key":"14523360","name":"Rodewisch, Stadt","type":"Stadt"},"district":{"key":"14523","name":"Vogtlandkreis","type":"Landkreis"},"federalState":{"key":"14","name":"Sachsen"}},{"name":"Bergstr.","postalCode":"08228","locality":"Rodewisch","municipality":{"key":"14523360","name":"Rodewisch, Stadt","type":"Stadt"},"district":{"key":"14523","name":"Vogtlandkreis","type":"Landkreis"},"federalState":{"key":"14","name":"Sachsen"}},{"name":"Birkenweg","postalCode":"08228","locality":"Rodewisch","municipality":{"key":"14523360","name":"Rodewisch, Stadt","type":"Stadt"},"district":{"key":"14523","name":"Vogtlandkreis","type":"Landkreis"},"federalState":{"key":"14","name":"Sachsen"}},{"name":"Brückenstr.","postalCode":"08228","locality":"Rodewisch","municipality":{"key":"14523360","name":"Rodewisch, Stadt","type":"Stadt"},"district":{"key":"14523","name":"Vogtlandkreis","type":"Landkreis"},"federalState":{"key":"14","name":"Sachsen"}},{"name":"Brunnenweg","postalCode":"08228","locality":"Rodewisch","municipality":{"key":"14523360","name":"Rodewisch, Stadt","type":"Stadt"},"district":{"key":"14523","name":"Vogtlandkreis","type":"Landkreis"},"federalState":{"key":"14","name":"Sachsen"}},{"name":"Burgstr.","postalCode":"08228","locality":"Rodewisch","municipality":{"key":"14523360","name":"Rodewisch, Stadt","type":"Stadt"},"district":{"key":"14523","name":"Vogtlandkreis","type":"Landkreis"},"federalState":{"key":"14","name":"Sachsen"}},{"name":"Damaschkestr.","postalCode":"08228","locality":"Rodewisch","municipality":{"key":"14523360","name":"Rodewisch, Stadt","type":"Stadt"},"district":{"key":"14523","name":"Vogtlandkreis","type":"Landkreis"},"federalState":{"key":"14","name":"Sachsen"}},{"name":"Dr.-Albert-Schweitzer-Str.","postalCode":"08228","locality":"Rodewisch","municipality":{"key":"14523360","name":"Rodewisch, Stadt","type":"Stadt"},"district":{"key":"14523","name":"Vogtlandkreis","type":"Landkreis"},"federalState":{"key":"14","name":"Sachsen"}},{"name":"Dr.- Goerdeler-Str.","postalCode":"08228","locality":"Rodewisch","municipality":{"key":"14523360","name":"Rodewisch, Stadt","type":"Stadt"},"district":{"key":"14523","name":"Vogtlandkreis","type":"Landkreis"},"federalState":{"key":"14","name":"Sachsen"}},{"name":"Eicher Str.","postalCode":"08228","locality":"Rodewisch","municipality":{"key":"14523360","name":"Rodewisch, Stadt","type":"Stadt"},"district":{"key":"14523","name":"Vogtlandkreis","type":"Landkreis"},"federalState":{"key":"14","name":"Sachsen"}},{"name":"Eicher Weg","postalCode":"08228","locality":"Rodewisch","municipality":{"key":"14523360","name":"Rodewisch, Stadt","type":"Stadt"},"district":{"key":"14523","name":"Vogtlandkreis","type":"Landkreis"},"federalState":{"key":"14","name":"Sachsen"}},{"name":"Feldstr.","postalCode":"08228","locality":"Rodewisch","municipality":{"key":"14523360","name":"Rodewisch, Stadt","type":"Stadt"},"district":{"key":"14523","name":"Vogtlandkreis","type":"Landkreis"},"federalState":{"key":"14","name":"Sachsen"}},{"name":"Forststr.","postalCode":"08228","locality":"Rodewisch","municipality":{"key":"14523360","name":"Rodewisch, Stadt","type":"Stadt"},"district":{"key":"14523","name":"Vogtlandkreis","type":"Landkreis"},"federalState":{"key":"14","name":"Sachsen"}},{"name":"Gabelsbergerstr.","postalCode":"08228","locality":"Rodewisch","municipality":{"key":"14523360","name":"Rodewisch, Stadt","type":"Stadt"},"district":{"key":"14523","name":"Vogtlandkreis","type":"Landkreis"},"federalState":{"key":"14","name":"Sachsen"}},{"name":"Gartenstr.","postalCode":"08228","locality":"Rodewisch","municipality":{"key":"14523360","name":"Rodewisch, Stadt","type":"Stadt"},"district":{"key":"14523","name":"Vogtlandkreis","type":"Landkreis"},"federalState":{"key":"14","name":"Sachsen"}},{"name":"Gartenweg","postalCode":"08228","locality":"Rodewisch","municipality":{"key":"14523360","name":"Rodewisch, Stadt","type":"Stadt"},"district":{"key":"14523","name":"Vogtlandkreis","type":"Landkreis"},"federalState":{"key":"14","name":"Sachsen"}},{"name":"Gatterweg","postalCode":"08228","locality":"Rodewisch","municipality":{"key":"14523360","name":"Rodewisch, Stadt","type":"Stadt"},"district":{"key":"14523","name":"Vogtlandkreis","type":"Landkreis"},"federalState":{"key":"14","name":"Sachsen"}},{"name":"Georgengrüner Str.","postalCode":"08228","locality":"Rodewisch","municipality":{"key":"14523360","name":"Rodewisch, Stadt","type":"Stadt"},"district":{"key":"14523","name":"Vogtlandkreis","type":"Landkreis"},"federalState":{"key":"14","name":"Sachsen"}},{"name":"Goethestr.","postalCode":"08228","locality":"Rodewisch","municipality":{"key":"14523360","name":"Rodewisch, Stadt","type":"Stadt"},"district":{"key":"14523","name":"Vogtlandkreis","type":"Landkreis"},"federalState":{"key":"14","name":"Sachsen"}},{"name":"Göltzschplatz","postalCode":"08228","locality":"Rodewisch","municipality":{"key":"14523360","name":"Rodewisch, Stadt","type":"Stadt"},"district":{"key":"14523","name":"Vogtlandkreis","type":"Landkreis"},"federalState":{"key":"14","name":"Sachsen"}},{"name":"Göltzschstr.","postalCode":"08228","locality":"Rodewisch","municipality":{"key":"14523360","name":"Rodewisch, Stadt","type":"Stadt"},"district":{"key":"14523","name":"Vogtlandkreis","type":"Landkreis"},"federalState":{"key":"14","name":"Sachsen"}},{"name":"Göltzschtalblick","postalCode":"08228","locality":"Rodewisch","municipality":{"key":"14523360","name":"Rodewisch, Stadt","type":"Stadt"},"district":{"key":"14523","name":"Vogtlandkreis","type":"Landkreis"},"federalState":{"key":"14","name":"Sachsen"}},{"name":"Hahnenhausweg","postalCode":"08228","locality":"Rodewisch","municipality":{"key":"14523360","name":"Rodewisch, Stadt","type":"Stadt"},"district":{"key":"14523","name":"Vogtlandkreis","type":"Landkreis"},"federalState":{"key":"14","name":"Sachsen"}},{"name":"Hans-Kühn-Str.","postalCode":"08228","locality":"Rodewisch","municipality":{"key":"14523360","name":"Rodewisch, Stadt","type":"Stadt"},"district":{"key":"14523","name":"Vogtlandkreis","type":"Landkreis"},"federalState":{"key":"14","name":"Sachsen"}},{"name":"Hauptstr.","postalCode":"08228","locality":"Rodewisch","municipality":{"key":"14523360","name":"Rodewisch, Stadt","type":"Stadt"},"district":{"key":"14523","name":"Vogtlandkreis","type":"Landkreis"},"federalState":{"key":"14","name":"Sachsen"}},{"name":"Heinrich's Wiese","postalCode":"08228","locality":"Rodewisch","municipality":{"key":"14523360","name":"Rodewisch, Stadt","type":"Stadt"},"district":{"key":"14523","name":"Vogtlandkreis","type":"Landkreis"},"federalState":{"key":"14","name":"Sachsen"}},{"name":"Hermannstr.","postalCode":"08228","locality":"Rodewisch","municipality":{"key":"14523360","name":"Rodewisch, Stadt","type":"Stadt"},"district":{"key":"14523","name":"Vogtlandkreis","type":"Landkreis"},"federalState":{"key":"14","name":"Sachsen"}},{"name":"Hüllebrandweg","postalCode":"08228","locality":"Rodewisch","municipality":{"key":"14523360","name":"Rodewisch, Stadt","type":"Stadt"},"district":{"key":"14523","name":"Vogtlandkreis","type":"Landkreis"},"federalState":{"key":"14","name":"Sachsen"}},{"name":"Innere Karl-Liebknecht-Str.","postalCode":"08228","locality":"Rodewisch","municipality":{"key":"14523360","name":"Rodewisch, Stadt","type":"Stadt"},"district":{"key":"14523","name":"Vogtlandkreis","type":"Landkreis"},"federalState":{"key":"14","name":"Sachsen"}},{"name":"Innere Lengenfelder Str.","postalCode":"08228","locality":"Rodewisch","municipality":{"key":"14523360","name":"Rodewisch, Stadt","type":"Stadt"},"district":{"key":"14523","name":"Vogtlandkreis","type":"Landkreis"},"federalState":{"key":"14","name":"Sachsen"}},{"name":"Jahnstr.","postalCode":"08228","locality":"Rodewisch","municipality":{"key":"14523360","name":"Rodewisch, Stadt","type":"Stadt"},"district":{"key":"14523","name":"Vogtlandkreis","type":"Landkreis"},"federalState":{"key":"14","name":"Sachsen"}},{"name":"Julius-Gütter-Str.","postalCode":"08228","locality":"Rodewisch","municipality":{"key":"14523360","name":"Rodewisch, Stadt","type":"Stadt"},"district":{"key":"14523","name":"Vogtlandkreis","type":"Landkreis"},"federalState":{"key":"14","name":"Sachsen"}},{"name":"Karl-Liebknecht-Str.","postalCode":"08228","locality":"Rodewisch","municipality":{"key":"14523360","name":"Rodewisch, Stadt","type":"Stadt"},"district":{"key":"14523","name":"Vogtlandkreis","type":"Landkreis"},"federalState":{"key":"14","name":"Sachsen"}},{"name":"Karlstr.","postalCode":"08228","locality":"Rodewisch","municipality":{"key":"14523360","name":"Rodewisch, Stadt","type":"Stadt"},"district":{"key":"14523","name":"Vogtlandkreis","type":"Landkreis"},"federalState":{"key":"14","name":"Sachsen"}},{"name":"Kastanienweg","postalCode":"08228","locality":"Rodewisch","municipality":{"key":"14523360","name":"Rodewisch, Stadt","type":"Stadt"},"district":{"key":"14523","name":"Vogtlandkreis","type":"Landkreis"},"federalState":{"key":"14","name":"Sachsen"}},{"name":"Kneippstr.","postalCode":"08228","locality":"Rodewisch","municipality":{"key":"14523360","name":"Rodewisch, Stadt","type":"Stadt"},"district":{"key":"14523","name":"Vogtlandkreis","type":"Landkreis"},"federalState":{"key":"14","name":"Sachsen"}},{"name":"Kohlenstr.","postalCode":"08228","locality":"Rodewisch","municipality":{"key":"14523360","name":"Rodewisch, Stadt","type":"Stadt"},"district":{"key":"14523","name":"Vogtlandkreis","type":"Landkreis"},"federalState":{"key":"14","name":"Sachsen"}},{"name":"Körnerstr.","postalCode":"08228","locality":"Rodewisch","municipality":{"key":"14523360","name":"Rodewisch, Stadt","type":"Stadt"},"district":{"key":"14523","name":"Vogtlandkreis","type":"Landkreis"},"federalState":{"key":"14","name":"Sachsen"}},{"name":"Kurze Str.","postalCode":"08228","locality":"Rodewisch","municipality":{"key":"14523360","name":"Rodewisch, Stadt","type":"Stadt"},"district":{"key":"14523","name":"Vogtlandkreis","type":"Landkreis"},"federalState":{"key":"14","name":"Sachsen"}},{"name":"Lamnitzer Str.","postalCode":"08228","locality":"Rodewisch","municipality":{"key":"14523360","name":"Rodewisch, Stadt","type":"Stadt"},"district":{"key":"14523","name":"Vogtlandkreis","type":"Landkreis"},"federalState":{"key":"14","name":"Sachsen"}},{"name":"Lengenfelder Str.","postalCode":"08228","locality":"Rodewisch","municipality":{"key":"14523360","name":"Rodewisch, Stadt","type":"Stadt"},"district":{"key":"14523","name":"Vogtlandkreis","type":"Landkreis"},"federalState":{"key":"14","name":"Sachsen"}},{"name":"Lerchenweg","postalCode":"08228","locality":"Rodewisch","municipality":{"key":"14523360","name":"Rodewisch, Stadt","type":"Stadt"},"district":{"key":"14523","name":"Vogtlandkreis","type":"Landkreis"},"federalState":{"key":"14","name":"Sachsen"}},{"name":"Lessingstr.","postalCode":"08228","locality":"Rodewisch","municipality":{"key":"14523360","name":"Rodewisch, Stadt","type":"Stadt"},"district":{"key":"14523","name":"Vogtlandkreis","type":"Landkreis"},"federalState":{"key":"14","name":"Sachsen"}},{"name":"Lindenstr.","postalCode":"08228","locality":"Rodewisch","municipality":{"key":"14523360","name":"Rodewisch, Stadt","type":"Stadt"},"district":{"key":"14523","name":"Vogtlandkreis","type":"Landkreis"},"federalState":{"key":"14","name":"Sachsen"}},{"name":"Ludwigsburg","postalCode":"08228","locality":"Rodewisch","municipality":{"key":"14523360","name":"Rodewisch, Stadt","type":"Stadt"},"district":{"key":"14523","name":"Vogtlandkreis","type":"Landkreis"},"federalState":{"key":"14","name":"Sachsen"}},{"name":"Lutherstr.","postalCode":"08228","locality":"Rodewisch","municipality":{"key":"14523360","name":"Rodewisch, Stadt","type":"Stadt"},"district":{"key":"14523","name":"Vogtlandkreis","type":"Landkreis"},"federalState":{"key":"14","name":"Sachsen"}},{"name":"Mozartstr.","postalCode":"08228","locality":"Rodewisch","municipality":{"key":"14523360","name":"Rodewisch, Stadt","type":"Stadt"},"district":{"key":"14523","name":"Vogtlandkreis","type":"Landkreis"},"federalState":{"key":"14","name":"Sachsen"}},{"name":"Mühlenweg","postalCode":"08228","locality":"Rodewisch","municipality":{"key":"14523360","name":"Rodewisch, Stadt","type":"Stadt"},"district":{"key":"14523","name":"Vogtlandkreis","type":"Landkreis"},"federalState":{"key":"14","name":"Sachsen"}},{"name":"Neue Rützengrüner Str.","postalCode":"08228","locality":"Rodewisch","municipality":{"key":"14523360","name":"Rodewisch, Stadt","type":"Stadt"},"district":{"key":"14523","name":"Vogtlandkreis","type":"Landkreis"},"federalState":{"key":"14","name":"Sachsen"}},{"name":"Neue Wildenauer Str.","postalCode":"08228","locality":"Rodewisch","municipality":{"key":"14523360","name":"Rodewisch, Stadt","type":"Stadt"},"district":{"key":"14523","name":"Vogtlandkreis","type":"Landkreis"},"federalState":{"key":"14","name":"Sachsen"}},{"name":"Niederauerbacher Str.","postalCode":"08228","locality":"Rodewisch","municipality":{"key":"14523360","name":"Rodewisch, Stadt","type":"Stadt"},"district":{"key":"14523","name":"Vogtlandkreis","type":"Landkreis"},"federalState":{"key":"14","name":"Sachsen"}},{"name":"Nord-West","postalCode":"08228","locality":"Rodewisch","municipality":{"key":"14523360","name":"Rodewisch, Stadt","type":"Stadt"},"district":{"key":"14523","name":"Vogtlandkreis","type":"Landkreis"},"federalState":{"key":"14","name":"Sachsen"}},{"name":"Obere Bahnhofstr.","postalCode":"08228","locality":"Rodewisch","municipality":{"key":"14523360","name":"Rodewisch, Stadt","type":"Stadt"},"district":{"key":"14523","name":"Vogtlandkreis","type":"Landkreis"},"federalState":{"key":"14","name":"Sachsen"}},{"name":"Obere Schillerstr.","postalCode":"08228","locality":"Rodewisch","municipality":{"key":"14523360","name":"Rodewisch, Stadt","type":"Stadt"},"district":{"key":"14523","name":"Vogtlandkreis","type":"Landkreis"},"federalState":{"key":"14","name":"Sachsen"}},{"name":"Obere Uferstr.","postalCode":"08228","locality":"Rodewisch","municipality":{"key":"14523360","name":"Rodewisch, Stadt","type":"Stadt"},"district":{"key":"14523","name":"Vogtlandkreis","type":"Landkreis"},"federalState":{"key":"14","name":"Sachsen"}},{"name":"Oststr.","postalCode":"08228","locality":"Rodewisch","municipality":{"key":"14523360","name":"Rodewisch, Stadt","type":"Stadt"},"district":{"key":"14523","name":"Vogtlandkreis","type":"Landkreis"},"federalState":{"key":"14","name":"Sachsen"}},{"name":"Otto-Lenk-Str.","postalCode":"08228","locality":"Rodewisch","municipality":{"key":"14523360","name":"Rodewisch, Stadt","type":"Stadt"},"district":{"key":"14523","name":"Vogtlandkreis","type":"Landkreis"},"federalState":{"key":"14","name":"Sachsen"}},{"name":"Otto-Pfeifer-Str.","postalCode":"08228","locality":"Rodewisch","municipality":{"key":"14523360","name":"Rodewisch, Stadt","type":"Stadt"},"district":{"key":"14523","name":"Vogtlandkreis","type":"Landkreis"},"federalState":{"key":"14","name":"Sachsen"}},{"name":"Parkallee","postalCode":"08228","locality":"Rodewisch","municipality":{"key":"14523360","name":"Rodewisch, Stadt","type":"Stadt"},"district":{"key":"14523","name":"Vogtlandkreis","type":"Landkreis"},"federalState":{"key":"14","name":"Sachsen"}},{"name":"Parkbrücke","postalCode":"08228","locality":"Rodewisch","municipality":{"key":"14523360","name":"Rodewisch, Stadt","type":"Stadt"},"district":{"key":"14523","name":"Vogtlandkreis","type":"Landkreis"},"federalState":{"key":"14","name":"Sachsen"}},{"name":"Parkstr.","postalCode":"08228","locality":"Rodewisch","municipality":{"key":"14523360","name":"Rodewisch, Stadt","type":"Stadt"},"district":{"key":"14523","name":"Vogtlandkreis","type":"Landkreis"},"federalState":{"key":"14","name":"Sachsen"}},{"name":"Pestalozzistr.","postalCode":"08228","locality":"Rodewisch","municipality":{"key":"14523360","name":"Rodewisch, Stadt","type":"Stadt"},"district":{"key":"14523","name":"Vogtlandkreis","type":"Landkreis"},"federalState":{"key":"14","name":"Sachsen"}},{"name":"Plohner Str.","postalCode":"08228","locality":"Rodewisch","municipality":{"key":"14523360","name":"Rodewisch, Stadt","type":"Stadt"},"district":{"key":"14523","name":"Vogtlandkreis","type":"Landkreis"},"federalState":{"key":"14","name":"Sachsen"}},{"name":"Postplatz","postalCode":"08228","locality":"Rodewisch","municipality":{"key":"14523360","name":"Rodewisch, Stadt","type":"Stadt"},"district":{"key":"14523","name":"Vogtlandkreis","type":"Landkreis"},"federalState":{"key":"14","name":"Sachsen"}},{"name":"Prießnitzstr.","postalCode":"08228","locality":"Rodewisch","municipality":{"key":"14523360","name":"Rodewisch, Stadt","type":"Stadt"},"district":{"key":"14523","name":"Vogtlandkreis","type":"Landkreis"},"federalState":{"key":"14","name":"Sachsen"}},{"name":"Querstr.","postalCode":"08228","locality":"Rodewisch","municipality":{"key":"14523360","name":"Rodewisch, Stadt","type":"Stadt"},"district":{"key":"14523","name":"Vogtlandkreis","type":"Landkreis"},"federalState":{"key":"14","name":"Sachsen"}},{"name":"Rebesbrunn","postalCode":"08228","locality":"Rodewisch","municipality":{"key":"14523360","name":"Rodewisch, Stadt","type":"Stadt"},"district":{"key":"14523","name":"Vogtlandkreis","type":"Landkreis"},"federalState":{"key":"14","name":"Sachsen"}},{"name":"Rebesbrunner Str.","postalCode":"08228","locality":"Rodewisch","municipality":{"key":"14523360","name":"Rodewisch, Stadt","type":"Stadt"},"district":{"key":"14523","name":"Vogtlandkreis","type":"Landkreis"},"federalState":{"key":"14","name":"Sachsen"}},{"name":"Rodewischer Str.","postalCode":"08228","locality":"Rodewisch","municipality":{"key":"14523360","name":"Rodewisch, Stadt","type":"Stadt"},"district":{"key":"14523","name":"Vogtlandkreis","type":"Landkreis"},"federalState":{"key":"14","name":"Sachsen"}},{"name":"Rosa-Luxemburg-Str.","postalCode":"08228","locality":"Rodewisch","municipality":{"key":"14523360","name":"Rodewisch, Stadt","type":"Stadt"},"district":{"key":"14523","name":"Vogtlandkreis","type":"Landkreis"},"federalState":{"key":"14","name":"Sachsen"}},{"name":"Rützengrüner Str.","postalCode":"08228","locality":"Rodewisch","municipality":{"key":"14523360","name":"Rodewisch, Stadt","type":"Stadt"},"district":{"key":"14523","name":"Vogtlandkreis","type":"Landkreis"},"federalState":{"key":"14","name":"Sachsen"}},{"name":"Saarstr.","postalCode":"08228","locality":"Rodewisch","municipality":{"key":"14523360","name":"Rodewisch, Stadt","type":"Stadt"},"district":{"key":"14523","name":"Vogtlandkreis","type":"Landkreis"},"federalState":{"key":"14","name":"Sachsen"}},{"name":"Schillerstr.","postalCode":"08228","locality":"Rodewisch","municipality":{"key":"14523360","name":"Rodewisch, Stadt","type":"Stadt"},"district":{"key":"14523","name":"Vogtlandkreis","type":"Landkreis"},"federalState":{"key":"14","name":"Sachsen"}},{"name":"Schloßstr.","postalCode":"08228","locality":"Rodewisch","municipality":{"key":"14523360","name":"Rodewisch, Stadt","type":"Stadt"},"district":{"key":"14523","name":"Vogtlandkreis","type":"Landkreis"},"federalState":{"key":"14","name":"Sachsen"}},{"name":"Schloßweg","postalCode":"08228","locality":"Rodewisch","municipality":{"key":"14523360","name":"Rodewisch, Stadt","type":"Stadt"},"district":{"key":"14523","name":"Vogtlandkreis","type":"Landkreis"},"federalState":{"key":"14","name":"Sachsen"}},{"name":"Schmiedegasse","postalCode":"08228","locality":"Rodewisch","municipality":{"key":"14523360","name":"Rodewisch, Stadt","type":"Stadt"},"district":{"key":"14523","name":"Vogtlandkreis","type":"Landkreis"},"federalState":{"key":"14","name":"Sachsen"}},{"name":"Schulstr.","postalCode":"08228","locality":"Rodewisch","municipality":{"key":"14523360","name":"Rodewisch, Stadt","type":"Stadt"},"district":{"key":"14523","name":"Vogtlandkreis","type":"Landkreis"},"federalState":{"key":"14","name":"Sachsen"}},{"name":"Sonnenblick","postalCode":"08228","locality":"Rodewisch","municipality":{"key":"14523360","name":"Rodewisch, Stadt","type":"Stadt"},"district":{"key":"14523","name":"Vogtlandkreis","type":"Landkreis"},"federalState":{"key":"14","name":"Sachsen"}},{"name":"Sorgaer Str.","postalCode":"08228","locality":"Rodewisch","municipality":{"key":"14523360","name":"Rodewisch, Stadt","type":"Stadt"},"district":{"key":"14523","name":"Vogtlandkreis","type":"Landkreis"},"federalState":{"key":"14","name":"Sachsen"}},{"name":"Stadtpark Rodewisch","postalCode":"08228","locality":"Rodewisch","municipality":{"key":"14523360","name":"Rodewisch, Stadt","type":"Stadt"},"district":{"key":"14523","name":"Vogtlandkreis","type":"Landkreis"},"federalState":{"key":"14","name":"Sachsen"}},{"name":"Steinbergblick","postalCode":"08228","locality":"Rodewisch","municipality":{"key":"14523360","name":"Rodewisch, Stadt","type":"Stadt"},"district":{"key":"14523","name":"Vogtlandkreis","type":"Landkreis"},"federalState":{"key":"14","name":"Sachsen"}},{"name":"Steinbergstr.","postalCode":"08228","locality":"Rodewisch","municipality":{"key":"14523360","name":"Rodewisch, Stadt","type":"Stadt"},"district":{"key":"14523","name":"Vogtlandkreis","type":"Landkreis"},"federalState":{"key":"14","name":"Sachsen"}},{"name":"Steinbruchstr.","postalCode":"08228","locality":"Rodewisch","municipality":{"key":"14523360","name":"Rodewisch, Stadt","type":"Stadt"},"district":{"key":"14523","name":"Vogtlandkreis","type":"Landkreis"},"federalState":{"key":"14","name":"Sachsen"}},{"name":"Steubenstr.","postalCode":"08228","locality":"Rodewisch","municipality":{"key":"14523360","name":"Rodewisch, Stadt","type":"Stadt"},"district":{"key":"14523","name":"Vogtlandkreis","type":"Landkreis"},"federalState":{"key":"14","name":"Sachsen"}},{"name":"Stiftstr.","postalCode":"08228","locality":"Rodewisch","municipality":{"key":"14523360","name":"Rodewisch, Stadt","type":"Stadt"},"district":{"key":"14523","name":"Vogtlandkreis","type":"Landkreis"},"federalState":{"key":"14","name":"Sachsen"}},{"name":"Str. der Jugend","postalCode":"08228","locality":"Rodewisch","municipality":{"key":"14523360","name":"Rodewisch, Stadt","type":"Stadt"},"district":{"key":"14523","name":"Vogtlandkreis","type":"Landkreis"},"federalState":{"key":"14","name":"Sachsen"}},{"name":"Str. des Friedens","postalCode":"08228","locality":"Rodewisch","municipality":{"key":"14523360","name":"Rodewisch, Stadt","type":"Stadt"},"district":{"key":"14523","name":"Vogtlandkreis","type":"Landkreis"},"federalState":{"key":"14","name":"Sachsen"}},{"name":"Taubenbergweg","postalCode":"08228","locality":"Rodewisch","municipality":{"key":"14523360","name":"Rodewisch, Stadt","type":"Stadt"},"district":{"key":"14523","name":"Vogtlandkreis","type":"Landkreis"},"federalState":{"key":"14","name":"Sachsen"}},{"name":"Teichgäßchen","postalCode":"08228","locality":"Rodewisch","municipality":{"key":"14523360","name":"Rodewisch, Stadt","type":"Stadt"},"district":{"key":"14523","name":"Vogtlandkreis","type":"Landkreis"},"federalState":{"key":"14","name":"Sachsen"}},{"name":"Teichstr.","postalCode":"08228","locality":"Rodewisch","municipality":{"key":"14523360","name":"Rodewisch, Stadt","type":"Stadt"},"district":{"key":"14523","name":"Vogtlandkreis","type":"Landkreis"},"federalState":{"key":"14","name":"Sachsen"}},{"name":"Treuener Str.","postalCode":"08228","locality":"Rodewisch","municipality":{"key":"14523360","name":"Rodewisch, Stadt","type":"Stadt"},"district":{"key":"14523","name":"Vogtlandkreis","type":"Landkreis"},"federalState":{"key":"14","name":"Sachsen"}},{"name":"Trollpark","postalCode":"08228","locality":"Rodewisch","municipality":{"key":"14523360","name":"Rodewisch, Stadt","type":"Stadt"},"district":{"key":"14523","name":"Vogtlandkreis","type":"Landkreis"},"federalState":{"key":"14","name":"Sachsen"}},{"name":"Uferstr.","postalCode":"08228","locality":"Rodewisch","municipality":{"key":"14523360","name":"Rodewisch, Stadt","type":"Stadt"},"district":{"key":"14523","name":"Vogtlandkreis","type":"Landkreis"},"federalState":{"key":"14","name":"Sachsen"}},{"name":"Waldstr.","postalCode":"08228","locality":"Rodewisch","municipality":{"key":"14523360","name":"Rodewisch, Stadt","type":"Stadt"},"district":{"key":"14523","name":"Vogtlandkreis","type":"Landkreis"},"federalState":{"key":"14","name":"Sachsen"}},{"name":"Waldweg","postalCode":"08228","locality":"Rodewisch","municipality":{"key":"14523360","name":"Rodewisch, Stadt","type":"Stadt"},"district":{"key":"14523","name":"Vogtlandkreis","type":"Landkreis"},"federalState":{"key":"14","name":"Sachsen"}},{"name":"Walzweg","postalCode":"08228","locality":"Rodewisch","municipality":{"key":"14523360","name":"Rodewisch, Stadt","type":"Stadt"},"district":{"key":"14523","name":"Vogtlandkreis","type":"Landkreis"},"federalState":{"key":"14","name":"Sachsen"}},{"name":"Werkstr.","postalCode":"08228","locality":"Rodewisch","municipality":{"key":"14523360","name":"Rodewisch, Stadt","type":"Stadt"},"district":{"key":"14523","name":"Vogtlandkreis","type":"Landkreis"},"federalState":{"key":"14","name":"Sachsen"}},{"name":"Wernesgrüner Str.","postalCode":"08228","locality":"Rodewisch","municipality":{"key":"14523360","name":"Rodewisch, Stadt","type":"Stadt"},"district":{"key":"14523","name":"Vogtlandkreis","type":"Landkreis"},"federalState":{"key":"14","name":"Sachsen"}},{"name":"Wildenauer Str.","postalCode":"08228","locality":"Rodewisch","municipality":{"key":"14523360","name":"Rodewisch, Stadt","type":"Stadt"},"district":{"key":"14523","name":"Vogtlandkreis","type":"Landkreis"},"federalState":{"key":"14","name":"Sachsen"}},{"name":"Winkelhäuser","postalCode":"08228","locality":"Rodewisch","municipality":{"key":"14523360","name":"Rodewisch, Stadt","type":"Stadt"},"district":{"key":"14523","name":"Vogtlandkreis","type":"Landkreis"},"federalState":{"key":"14","name":"Sachsen"}},{"name":"Zur Gartenanlage","postalCode":"08228","locality":"Rodewisch","municipality":{"key":"14523360","name":"Rodewisch, Stadt","type":"Stadt"},"district":{"key":"14523","name":"Vogtlandkreis","type":"Landkreis"},"federalState":{"key":"14","name":"Sachsen"}},{"name":"Zur Sternkoppel","postalCode":"08228","locality":"Rodewisch","municipality":{"key":"14523360","name":"Rodewisch, Stadt","type":"Stadt"},"district":{"key":"14523","name":"Vogtlandkreis","type":"Landkreis"},"federalState":{"key":"14","name":"Sachsen"}},{"name":"Äußere Lengenfelder Str.","postalCode":"08228","locality":"Rodewisch","municipality":{"key":"14523360","name":"Rodewisch, Stadt","type":"Stadt"},"district":{"key":"14523","name":"Vogtlandkreis","type":"Landkreis"},"federalState":{"key":"14","name":"Sachsen"}},]