[{"key":"10037138","name":"Au Vernaz","postalCode":"1112","locality":"Echichens","commune":{"key":"5634","name":"Echichens","shortName":"Echichens"},"district":{"key":"2227","name":"District de Morges"},"canton":{"key":"22","code":"VD","name":"Vaud"},"status":"Real"},{"key":"10096747","name":"Chemin de Champanel","postalCode":"1112","locality":"Echichens","commune":{"key":"5634","name":"Echichens","shortName":"Echichens"},"district":{"key":"2227","name":"District de Morges"},"canton":{"key":"22","code":"VD","name":"Vaud"},"status":"Real"},{"key":"10037139","name":"Chemin de Chaudabronnaz","postalCode":"1112","locality":"Echichens","commune":{"key":"5634","name":"Echichens","shortName":"Echichens"},"district":{"key":"2227","name":"District de Morges"},"canton":{"key":"22","code":"VD","name":"Vaud"},"status":"Real"},{"key":"10034009","name":"Chemin de Fornet","postalCode":"1112","locality":"Echichens","commune":{"key":"5634","name":"Echichens","shortName":"Echichens"},"district":{"key":"2227","name":"District de Morges"},"canton":{"key":"22","code":"VD","name":"Vaud"},"status":"Real"},{"key":"10211334","name":"Chemin de Grassiaz","postalCode":"1112","locality":"Echichens","commune":{"key":"5634","name":"Echichens","shortName":"Echichens"},"district":{"key":"2227","name":"District de Morges"},"canton":{"key":"22","code":"VD","name":"Vaud"},"status":"Real"},{"key":"10096748","name":"Chemin de Haute-Pierre","postalCode":"1112","locality":"Echichens","commune":{"key":"5634","name":"Echichens","shortName":"Echichens"},"district":{"key":"2227","name":"District de Morges"},"canton":{"key":"22","code":"VD","name":"Vaud"},"status":"Real"},{"key":"10108031","name":"Chemin de Joulens","postalCode":"1112","locality":"Echichens","commune":{"key":"5634","name":"Echichens","shortName":"Echichens"},"district":{"key":"2227","name":"District de Morges"},"canton":{"key":"22","code":"VD","name":"Vaud"},"status":"Real"},{"key":"10124158","name":"Chemin de l'Oche-l'Abbé","postalCode":"1112","locality":"Echichens","commune":{"key":"5634","name":"Echichens","shortName":"Echichens"},"district":{"key":"2227","name":"District de Morges"},"canton":{"key":"22","code":"VD","name":"Vaud"},"status":"Real"},{"key":"10211333","name":"Chemin des Genévriers","postalCode":"1112","locality":"Echichens","commune":{"key":"5634","name":"Echichens","shortName":"Echichens"},"district":{"key":"2227","name":"District de Morges"},"canton":{"key":"22","code":"VD","name":"Vaud"},"status":"Real"},{"key":"10122004","name":"Chemin des Gravelines","postalCode":"1112","locality":"Echichens","commune":{"key":"5634","name":"Echichens","shortName":"Echichens"},"district":{"key":"2227","name":"District de Morges"},"canton":{"key":"22","code":"VD","name":"Vaud"},"status":"Real"},{"key":"10096749","name":"Chemin du Baillon","postalCode":"1112","locality":"Echichens","commune":{"key":"5634","name":"Echichens","shortName":"Echichens"},"district":{"key":"2227","name":"District de Morges"},"canton":{"key":"22","code":"VD","name":"Vaud"},"status":"Real"},{"key":"10048118","name":"Chemin du Bon","postalCode":"1112","locality":"Echichens","commune":{"key":"5634","name":"Echichens","shortName":"Echichens"},"district":{"key":"2227","name":"District de Morges"},"canton":{"key":"22","code":"VD","name":"Vaud"},"status":"Real"},{"key":"10034010","name":"Chemin du Chêne","postalCode":"1112","locality":"Echichens","commune":{"key":"5634","name":"Echichens","shortName":"Echichens"},"district":{"key":"2227","name":"District de Morges"},"canton":{"key":"22","code":"VD","name":"Vaud"},"status":"Real"},{"key":"10035100","name":"Chemin du Crêt-Blanc","postalCode":"1112","locality":"Echichens","commune":{"key":"5634","name":"Echichens","shortName":"Echichens"},"district":{"key":"2227","name":"District de Morges"},"canton":{"key":"22","code":"VD","name":"Vaud"},"status":"Real"},{"key":"10115400","name":"Chemin du Signal","postalCode":"1112","locality":"Echichens","commune":{"key":"5634","name":"Echichens","shortName":"Echichens"},"district":{"key":"2227","name":"District de Morges"},"canton":{"key":"22","code":"VD","name":"Vaud"},"status":"Real"},{"key":"10096750","name":"Chemin du Verney","postalCode":"1112","locality":"Echichens","commune":{"key":"5634","name":"Echichens","shortName":"Echichens"},"district":{"key":"2227","name":"District de Morges"},"canton":{"key":"22","code":"VD","name":"Vaud"},"status":"Real"},{"key":"10068933","name":"Chemin Pestalozzi","postalCode":"1112","locality":"Echichens","commune":{"key":"5634","name":"Echichens","shortName":"Echichens"},"district":{"key":"2227","name":"District de Morges"},"canton":{"key":"22","code":"VD","name":"Vaud"},"status":"Real"},{"key":"10124160","name":"Route Cantonale","postalCode":"1112","locality":"Echichens","commune":{"key":"5634","name":"Echichens","shortName":"Echichens"},"district":{"key":"2227","name":"District de Morges"},"canton":{"key":"22","code":"VD","name":"Vaud"},"status":"Real"},{"key":"10177146","name":"Route de Cossonay","postalCode":"1112","locality":"Echichens","commune":{"key":"5634","name":"Echichens","shortName":"Echichens"},"district":{"key":"2227","name":"District de Morges"},"canton":{"key":"22","code":"VD","name":"Vaud"},"status":"Real"},{"key":"10096751","name":"Route de la Maladaz","postalCode":"1112","locality":"Echichens","commune":{"key":"5634","name":"Echichens","shortName":"Echichens"},"district":{"key":"2227","name":"District de Morges"},"canton":{"key":"22","code":"VD","name":"Vaud"},"status":"Real"},{"key":"10035102","name":"Route de la Repentance","postalCode":"1112","locality":"Echichens","commune":{"key":"5634","name":"Echichens","shortName":"Echichens"},"district":{"key":"2227","name":"District de Morges"},"canton":{"key":"22","code":"VD","name":"Vaud"},"status":"Real"},{"key":"10035101","name":"Route de Monnaz","postalCode":"1112","locality":"Echichens","commune":{"key":"5634","name":"Echichens","shortName":"Echichens"},"district":{"key":"2227","name":"District de Morges"},"canton":{"key":"22","code":"VD","name":"Vaud"},"status":"Real"},{"key":"10107370","name":"Route de Saint-Fiacre","postalCode":"1112","locality":"Echichens","commune":{"key":"5634","name":"Echichens","shortName":"Echichens"},"district":{"key":"2227","name":"District de Morges"},"canton":{"key":"22","code":"VD","name":"Vaud"},"status":"Real"},{"key":"10107158","name":"Route de Saint-Saphorin","postalCode":"1112","locality":"Echichens","commune":{"key":"5634","name":"Echichens","shortName":"Echichens"},"district":{"key":"2227","name":"District de Morges"},"canton":{"key":"22","code":"VD","name":"Vaud"},"status":"Real"},{"key":"10048119","name":"Route du Bois","postalCode":"1112","locality":"Echichens","commune":{"key":"5634","name":"Echichens","shortName":"Echichens"},"district":{"key":"2227","name":"District de Morges"},"canton":{"key":"22","code":"VD","name":"Vaud"},"status":"Real"},{"key":"10035103","name":"Route du Dauphin","postalCode":"1112","locality":"Echichens","commune":{"key":"5634","name":"Echichens","shortName":"Echichens"},"district":{"key":"2227","name":"District de Morges"},"canton":{"key":"22","code":"VD","name":"Vaud"},"status":"Real"},{"key":"10096752","name":"Route du Village","postalCode":"1112","locality":"Echichens","commune":{"key":"5634","name":"Echichens","shortName":"Echichens"},"district":{"key":"2227","name":"District de Morges"},"canton":{"key":"22","code":"VD","name":"Vaud"},"status":"Real"},]