[{"name":"Alte Gärten","postalCode":"23909","locality":"Mechow","municipality":{"key":"01053088","name":"Mechow","type":"Kreisangehörige_Gemeinde"},"district":{"key":"01053","name":"Herzogtum Lauenburg","type":"Kreis"},"federalState":{"key":"01","name":"Schleswig-Holstein"}},{"name":"Alte Nerzfarm","postalCode":"23909","locality":"Mechow","municipality":{"key":"01053088","name":"Mechow","type":"Kreisangehörige_Gemeinde"},"district":{"key":"01053","name":"Herzogtum Lauenburg","type":"Kreis"},"federalState":{"key":"01","name":"Schleswig-Holstein"}},{"name":"Am Brink","postalCode":"23909","locality":"Mechow","municipality":{"key":"01053088","name":"Mechow","type":"Kreisangehörige_Gemeinde"},"district":{"key":"01053","name":"Herzogtum Lauenburg","type":"Kreis"},"federalState":{"key":"01","name":"Schleswig-Holstein"}},{"name":"Bäker Str.","postalCode":"23909","locality":"Mechow","municipality":{"key":"01053088","name":"Mechow","type":"Kreisangehörige_Gemeinde"},"district":{"key":"01053","name":"Herzogtum Lauenburg","type":"Kreis"},"federalState":{"key":"01","name":"Schleswig-Holstein"}},{"name":"Dorfstr.","postalCode":"23909","locality":"Mechow","municipality":{"key":"01053088","name":"Mechow","type":"Kreisangehörige_Gemeinde"},"district":{"key":"01053","name":"Herzogtum Lauenburg","type":"Kreis"},"federalState":{"key":"01","name":"Schleswig-Holstein"}},{"name":"Gutspark","postalCode":"23909","locality":"Mechow","municipality":{"key":"01053088","name":"Mechow","type":"Kreisangehörige_Gemeinde"},"district":{"key":"01053","name":"Herzogtum Lauenburg","type":"Kreis"},"federalState":{"key":"01","name":"Schleswig-Holstein"}},{"name":"Schlagsdorfer Weg","postalCode":"23909","locality":"Mechow","municipality":{"key":"01053088","name":"Mechow","type":"Kreisangehörige_Gemeinde"},"district":{"key":"01053","name":"Herzogtum Lauenburg","type":"Kreis"},"federalState":{"key":"01","name":"Schleswig-Holstein"}},{"name":"Zur Schönen Aussicht","postalCode":"23909","locality":"Mechow","municipality":{"key":"01053088","name":"Mechow","type":"Kreisangehörige_Gemeinde"},"district":{"key":"01053","name":"Herzogtum Lauenburg","type":"Kreis"},"federalState":{"key":"01","name":"Schleswig-Holstein"}},]