[{"name":"Alte Dorfstr.","postalCode":"23883","locality":"Seedorf","municipality":{"key":"01053117","name":"Seedorf","type":"Kreisangehörige_Gemeinde"},"district":{"key":"01053","name":"Herzogtum Lauenburg","type":"Kreis"},"federalState":{"key":"01","name":"Schleswig-Holstein"}},{"name":"Am Brink","postalCode":"23883","locality":"Seedorf","municipality":{"key":"01053117","name":"Seedorf","type":"Kreisangehörige_Gemeinde"},"district":{"key":"01053","name":"Herzogtum Lauenburg","type":"Kreis"},"federalState":{"key":"01","name":"Schleswig-Holstein"}},{"name":"Am Brook","postalCode":"23823","locality":"Seedorf","municipality":{"key":"01060075","name":"Seedorf","type":"Kreisangehörige_Gemeinde"},"district":{"key":"01060","name":"Segeberg","type":"Kreis"},"federalState":{"key":"01","name":"Schleswig-Holstein"}},{"name":"Am Bungsberg","postalCode":"23717","locality":"Kasseedorf","municipality":{"key":"01055024","name":"Kasseedorf","type":"Kreisangehörige_Gemeinde"},"district":{"key":"01055","name":"Ostholstein","type":"Kreis"},"federalState":{"key":"01","name":"Schleswig-Holstein"}},{"name":"Am Burggraben","postalCode":"23823","locality":"Seedorf","municipality":{"key":"01060075","name":"Seedorf","type":"Kreisangehörige_Gemeinde"},"district":{"key":"01060","name":"Segeberg","type":"Kreis"},"federalState":{"key":"01","name":"Schleswig-Holstein"}},{"name":"Am Dorfplatz","postalCode":"23717","locality":"Kasseedorf","municipality":{"key":"01055024","name":"Kasseedorf","type":"Kreisangehörige_Gemeinde"},"district":{"key":"01055","name":"Ostholstein","type":"Kreis"},"federalState":{"key":"01","name":"Schleswig-Holstein"}},{"name":"Am Kornfeld","postalCode":"23823","locality":"Seedorf","municipality":{"key":"01060075","name":"Seedorf","type":"Kreisangehörige_Gemeinde"},"district":{"key":"01060","name":"Segeberg","type":"Kreis"},"federalState":{"key":"01","name":"Schleswig-Holstein"}},{"name":"Am Küchensee","postalCode":"23883","locality":"Seedorf","municipality":{"key":"01053117","name":"Seedorf","type":"Kreisangehörige_Gemeinde"},"district":{"key":"01053","name":"Herzogtum Lauenburg","type":"Kreis"},"federalState":{"key":"01","name":"Schleswig-Holstein"}},{"name":"Am Markt","postalCode":"23823","locality":"Seedorf","municipality":{"key":"01060075","name":"Seedorf","type":"Kreisangehörige_Gemeinde"},"district":{"key":"01060","name":"Segeberg","type":"Kreis"},"federalState":{"key":"01","name":"Schleswig-Holstein"}},{"name":"Am See","postalCode":"23717","locality":"Kasseedorf","municipality":{"key":"01055024","name":"Kasseedorf","type":"Kreisangehörige_Gemeinde"},"district":{"key":"01055","name":"Ostholstein","type":"Kreis"},"federalState":{"key":"01","name":"Schleswig-Holstein"}},{"name":"Am See","postalCode":"24589","locality":"Borgdorf-Seedorf","municipality":{"key":"01058023","name":"Borgdorf-Seedorf","type":"Kreisangehörige_Gemeinde"},"district":{"key":"01058","name":"Rendsburg-Eckernförde","type":"Kreis"},"federalState":{"key":"01","name":"Schleswig-Holstein"}},{"name":"Am See","postalCode":"27404","locality":"Seedorf","municipality":{"key":"03357042","name":"Seedorf","type":"Kreisangehörige_Gemeinde"},"district":{"key":"03357","name":"Rotenburg (Wümme)","type":"Landkreis"},"federalState":{"key":"03","name":"Niedersachsen"}},{"name":"Am Sina","postalCode":"23717","locality":"Kasseedorf","municipality":{"key":"01055024","name":"Kasseedorf","type":"Kreisangehörige_Gemeinde"},"district":{"key":"01055","name":"Ostholstein","type":"Kreis"},"federalState":{"key":"01","name":"Schleswig-Holstein"}},{"name":"Am Zuckerhut","postalCode":"23883","locality":"Seedorf","municipality":{"key":"01053117","name":"Seedorf","type":"Kreisangehörige_Gemeinde"},"district":{"key":"01053","name":"Herzogtum Lauenburg","type":"Kreis"},"federalState":{"key":"01","name":"Schleswig-Holstein"}},{"name":"An den Quellen","postalCode":"23823","locality":"Seedorf","municipality":{"key":"01060075","name":"Seedorf","type":"Kreisangehörige_Gemeinde"},"district":{"key":"01060","name":"Segeberg","type":"Kreis"},"federalState":{"key":"01","name":"Schleswig-Holstein"}},{"name":"An der Au","postalCode":"23823","locality":"Seedorf","municipality":{"key":"01060075","name":"Seedorf","type":"Kreisangehörige_Gemeinde"},"district":{"key":"01060","name":"Segeberg","type":"Kreis"},"federalState":{"key":"01","name":"Schleswig-Holstein"}},{"name":"An der Aue","postalCode":"23717","locality":"Kasseedorf","municipality":{"key":"01055024","name":"Kasseedorf","type":"Kreisangehörige_Gemeinde"},"district":{"key":"01055","name":"Ostholstein","type":"Kreis"},"federalState":{"key":"01","name":"Schleswig-Holstein"}},{"name":"An der Schlamerkoppel","postalCode":"23823","locality":"Seedorf","municipality":{"key":"01060075","name":"Seedorf","type":"Kreisangehörige_Gemeinde"},"district":{"key":"01060","name":"Segeberg","type":"Kreis"},"federalState":{"key":"01","name":"Schleswig-Holstein"}},{"name":"An der Wehr","postalCode":"23883","locality":"Seedorf","municipality":{"key":"01053117","name":"Seedorf","type":"Kreisangehörige_Gemeinde"},"district":{"key":"01053","name":"Herzogtum Lauenburg","type":"Kreis"},"federalState":{"key":"01","name":"Schleswig-Holstein"}},{"name":"Auf dem Heisen","postalCode":"23717","locality":"Kasseedorf","municipality":{"key":"01055024","name":"Kasseedorf","type":"Kreisangehörige_Gemeinde"},"district":{"key":"01055","name":"Ostholstein","type":"Kreis"},"federalState":{"key":"01","name":"Schleswig-Holstein"}},{"name":"Auf dem Wolfsberg","postalCode":"23883","locality":"Seedorf","municipality":{"key":"01053117","name":"Seedorf","type":"Kreisangehörige_Gemeinde"},"district":{"key":"01053","name":"Herzogtum Lauenburg","type":"Kreis"},"federalState":{"key":"01","name":"Schleswig-Holstein"}},{"name":"Auf der Berghufe","postalCode":"23717","locality":"Kasseedorf","municipality":{"key":"01055024","name":"Kasseedorf","type":"Kreisangehörige_Gemeinde"},"district":{"key":"01055","name":"Ostholstein","type":"Kreis"},"federalState":{"key":"01","name":"Schleswig-Holstein"}},{"name":"Aukamp","postalCode":"23823","locality":"Seedorf","municipality":{"key":"01060075","name":"Seedorf","type":"Kreisangehörige_Gemeinde"},"district":{"key":"01060","name":"Segeberg","type":"Kreis"},"federalState":{"key":"01","name":"Schleswig-Holstein"}},{"name":"Bahnhofstr.","postalCode":"27404","locality":"Seedorf","municipality":{"key":"03357042","name":"Seedorf","type":"Kreisangehörige_Gemeinde"},"district":{"key":"03357","name":"Rotenburg (Wümme)","type":"Landkreis"},"federalState":{"key":"03","name":"Niedersachsen"}},{"name":"Bergstr.","postalCode":"23883","locality":"Seedorf","municipality":{"key":"01053117","name":"Seedorf","type":"Kreisangehörige_Gemeinde"},"district":{"key":"01053","name":"Herzogtum Lauenburg","type":"Kreis"},"federalState":{"key":"01","name":"Schleswig-Holstein"}},{"name":"Berliner Str.","postalCode":"23823","locality":"Seedorf","municipality":{"key":"01060075","name":"Seedorf","type":"Kreisangehörige_Gemeinde"},"district":{"key":"01060","name":"Segeberg","type":"Kreis"},"federalState":{"key":"01","name":"Schleswig-Holstein"}},{"name":"Bokop","postalCode":"23883","locality":"Seedorf","municipality":{"key":"01053117","name":"Seedorf","type":"Kreisangehörige_Gemeinde"},"district":{"key":"01053","name":"Herzogtum Lauenburg","type":"Kreis"},"federalState":{"key":"01","name":"Schleswig-Holstein"}},{"name":"Bornhöveder Str.","postalCode":"23823","locality":"Seedorf","municipality":{"key":"01060075","name":"Seedorf","type":"Kreisangehörige_Gemeinde"},"district":{"key":"01060","name":"Segeberg","type":"Kreis"},"federalState":{"key":"01","name":"Schleswig-Holstein"}},{"name":"Bosauer Str.","postalCode":"23823","locality":"Seedorf","municipality":{"key":"01060075","name":"Seedorf","type":"Kreisangehörige_Gemeinde"},"district":{"key":"01060","name":"Segeberg","type":"Kreis"},"federalState":{"key":"01","name":"Schleswig-Holstein"}},{"name":"Carl-Stämmler-Weg","postalCode":"23795","locality":"Bad Segeberg","municipality":{"key":"01060005","name":"Bad Segeberg, Stadt","type":"Stadt"},"district":{"key":"01060","name":"Segeberg","type":"Kreis"},"federalState":{"key":"01","name":"Schleswig-Holstein"}},{"name":"Christian-Rohlfs-Str.","postalCode":"23795","locality":"Bad Segeberg","municipality":{"key":"01060005","name":"Bad Segeberg, Stadt","type":"Stadt"},"district":{"key":"01060","name":"Segeberg","type":"Kreis"},"federalState":{"key":"01","name":"Schleswig-Holstein"}},{"name":"Christiansfelde","postalCode":"23795","locality":"Bad Segeberg","municipality":{"key":"01060005","name":"Bad Segeberg, Stadt","type":"Stadt"},"district":{"key":"01060","name":"Segeberg","type":"Kreis"},"federalState":{"key":"01","name":"Schleswig-Holstein"}},{"name":"Dargower Weg","postalCode":"23883","locality":"Seedorf","municipality":{"key":"01053117","name":"Seedorf","type":"Kreisangehörige_Gemeinde"},"district":{"key":"01053","name":"Herzogtum Lauenburg","type":"Kreis"},"federalState":{"key":"01","name":"Schleswig-Holstein"}},{"name":"Dorfstr.","postalCode":"23883","locality":"Seedorf","municipality":{"key":"01053117","name":"Seedorf","type":"Kreisangehörige_Gemeinde"},"district":{"key":"01053","name":"Herzogtum Lauenburg","type":"Kreis"},"federalState":{"key":"01","name":"Schleswig-Holstein"}},{"name":"Dreiangel","postalCode":"24589","locality":"Borgdorf-Seedorf","municipality":{"key":"01058023","name":"Borgdorf-Seedorf","type":"Kreisangehörige_Gemeinde"},"district":{"key":"01058","name":"Rendsburg-Eckernförde","type":"Kreis"},"federalState":{"key":"01","name":"Schleswig-Holstein"}},{"name":"Ellerthufe","postalCode":"23717","locality":"Kasseedorf","municipality":{"key":"01055024","name":"Kasseedorf","type":"Kreisangehörige_Gemeinde"},"district":{"key":"01055","name":"Ostholstein","type":"Kreis"},"federalState":{"key":"01","name":"Schleswig-Holstein"}},{"name":"Eutiner Str.","postalCode":"23717","locality":"Kasseedorf","municipality":{"key":"01055024","name":"Kasseedorf","type":"Kreisangehörige_Gemeinde"},"district":{"key":"01055","name":"Ostholstein","type":"Kreis"},"federalState":{"key":"01","name":"Schleswig-Holstein"}},{"name":"Eutiner Str.","postalCode":"23823","locality":"Seedorf","municipality":{"key":"01060075","name":"Seedorf","type":"Kreisangehörige_Gemeinde"},"district":{"key":"01060","name":"Segeberg","type":"Kreis"},"federalState":{"key":"01","name":"Schleswig-Holstein"}},{"name":"Feldstr.","postalCode":"27404","locality":"Seedorf","municipality":{"key":"03357042","name":"Seedorf","type":"Kreisangehörige_Gemeinde"},"district":{"key":"03357","name":"Rotenburg (Wümme)","type":"Landkreis"},"federalState":{"key":"03","name":"Niedersachsen"}},{"name":"Friedhofstr.","postalCode":"27404","locality":"Seedorf","municipality":{"key":"03357042","name":"Seedorf","type":"Kreisangehörige_Gemeinde"},"district":{"key":"03357","name":"Rotenburg (Wümme)","type":"Landkreis"},"federalState":{"key":"03","name":"Niedersachsen"}},{"name":"Fuhrenweg","postalCode":"27404","locality":"Seedorf","municipality":{"key":"03357042","name":"Seedorf","type":"Kreisangehörige_Gemeinde"},"district":{"key":"03357","name":"Rotenburg (Wümme)","type":"Landkreis"},"federalState":{"key":"03","name":"Niedersachsen"}},{"name":"Gartenstr.","postalCode":"23883","locality":"Seedorf","municipality":{"key":"01053117","name":"Seedorf","type":"Kreisangehörige_Gemeinde"},"district":{"key":"01053","name":"Herzogtum Lauenburg","type":"Kreis"},"federalState":{"key":"01","name":"Schleswig-Holstein"}},{"name":"Gartenweg","postalCode":"23717","locality":"Kasseedorf","municipality":{"key":"01055024","name":"Kasseedorf","type":"Kreisangehörige_Gemeinde"},"district":{"key":"01055","name":"Ostholstein","type":"Kreis"},"federalState":{"key":"01","name":"Schleswig-Holstein"}},{"name":"Gartenweg","postalCode":"23883","locality":"Seedorf","municipality":{"key":"01053117","name":"Seedorf","type":"Kreisangehörige_Gemeinde"},"district":{"key":"01053","name":"Herzogtum Lauenburg","type":"Kreis"},"federalState":{"key":"01","name":"Schleswig-Holstein"}},{"name":"Godenstedter Str.","postalCode":"27404","locality":"Seedorf","municipality":{"key":"03357042","name":"Seedorf","type":"Kreisangehörige_Gemeinde"},"district":{"key":"03357","name":"Rotenburg (Wümme)","type":"Landkreis"},"federalState":{"key":"03","name":"Niedersachsen"}},{"name":"Haaßeler Weg","postalCode":"27404","locality":"Seedorf","municipality":{"key":"03357042","name":"Seedorf","type":"Kreisangehörige_Gemeinde"},"district":{"key":"03357","name":"Rotenburg (Wümme)","type":"Landkreis"},"federalState":{"key":"03","name":"Niedersachsen"}},{"name":"Harbigstr.","postalCode":"23823","locality":"Seedorf","municipality":{"key":"01060075","name":"Seedorf","type":"Kreisangehörige_Gemeinde"},"district":{"key":"01060","name":"Segeberg","type":"Kreis"},"federalState":{"key":"01","name":"Schleswig-Holstein"}},{"name":"Hasenberg","postalCode":"23823","locality":"Seedorf","municipality":{"key":"01060075","name":"Seedorf","type":"Kreisangehörige_Gemeinde"},"district":{"key":"01060","name":"Segeberg","type":"Kreis"},"federalState":{"key":"01","name":"Schleswig-Holstein"}},{"name":"Hauptstr.","postalCode":"23883","locality":"Seedorf","municipality":{"key":"01053117","name":"Seedorf","type":"Kreisangehörige_Gemeinde"},"district":{"key":"01053","name":"Herzogtum Lauenburg","type":"Kreis"},"federalState":{"key":"01","name":"Schleswig-Holstein"}},{"name":"Hauptstr.","postalCode":"24589","locality":"Borgdorf-Seedorf","municipality":{"key":"01058023","name":"Borgdorf-Seedorf","type":"Kreisangehörige_Gemeinde"},"district":{"key":"01058","name":"Rendsburg-Eckernförde","type":"Kreis"},"federalState":{"key":"01","name":"Schleswig-Holstein"}},{"name":"Hauptstr.","postalCode":"27404","locality":"Seedorf","municipality":{"key":"03357042","name":"Seedorf","type":"Kreisangehörige_Gemeinde"},"district":{"key":"03357","name":"Rotenburg (Wümme)","type":"Landkreis"},"federalState":{"key":"03","name":"Niedersachsen"}},{"name":"Heidmoor","postalCode":"23823","locality":"Seedorf","municipality":{"key":"01060075","name":"Seedorf","type":"Kreisangehörige_Gemeinde"},"district":{"key":"01060","name":"Segeberg","type":"Kreis"},"federalState":{"key":"01","name":"Schleswig-Holstein"}},{"name":"Heischredder","postalCode":"24589","locality":"Borgdorf-Seedorf","municipality":{"key":"01058023","name":"Borgdorf-Seedorf","type":"Kreisangehörige_Gemeinde"},"district":{"key":"01058","name":"Rendsburg-Eckernförde","type":"Kreis"},"federalState":{"key":"01","name":"Schleswig-Holstein"}},{"name":"Hinter den Höfen","postalCode":"23717","locality":"Kasseedorf","municipality":{"key":"01055024","name":"Kasseedorf","type":"Kreisangehörige_Gemeinde"},"district":{"key":"01055","name":"Ostholstein","type":"Kreis"},"federalState":{"key":"01","name":"Schleswig-Holstein"}},{"name":"Hohlbek","postalCode":"23717","locality":"Kasseedorf","municipality":{"key":"01055024","name":"Kasseedorf","type":"Kreisangehörige_Gemeinde"},"district":{"key":"01055","name":"Ostholstein","type":"Kreis"},"federalState":{"key":"01","name":"Schleswig-Holstein"}},{"name":"Hökerweg","postalCode":"23717","locality":"Kasseedorf","municipality":{"key":"01055024","name":"Kasseedorf","type":"Kreisangehörige_Gemeinde"},"district":{"key":"01055","name":"Ostholstein","type":"Kreis"},"federalState":{"key":"01","name":"Schleswig-Holstein"}},{"name":"Hollenbeker Weg","postalCode":"23883","locality":"Seedorf","municipality":{"key":"01053117","name":"Seedorf","type":"Kreisangehörige_Gemeinde"},"district":{"key":"01053","name":"Herzogtum Lauenburg","type":"Kreis"},"federalState":{"key":"01","name":"Schleswig-Holstein"}},{"name":"Hornsdorfer Hof","postalCode":"23823","locality":"Seedorf","municipality":{"key":"01060075","name":"Seedorf","type":"Kreisangehörige_Gemeinde"},"district":{"key":"01060","name":"Segeberg","type":"Kreis"},"federalState":{"key":"01","name":"Schleswig-Holstein"}},{"name":"Hunnenkamp","postalCode":"24589","locality":"Borgdorf-Seedorf","municipality":{"key":"01058023","name":"Borgdorf-Seedorf","type":"Kreisangehörige_Gemeinde"},"district":{"key":"01058","name":"Rendsburg-Eckernförde","type":"Kreis"},"federalState":{"key":"01","name":"Schleswig-Holstein"}},{"name":"Im Dorfe","postalCode":"27404","locality":"Seedorf","municipality":{"key":"03357042","name":"Seedorf","type":"Kreisangehörige_Gemeinde"},"district":{"key":"03357","name":"Rotenburg (Wümme)","type":"Landkreis"},"federalState":{"key":"03","name":"Niedersachsen"}},{"name":"Im Heisch","postalCode":"24589","locality":"Borgdorf-Seedorf","municipality":{"key":"01058023","name":"Borgdorf-Seedorf","type":"Kreisangehörige_Gemeinde"},"district":{"key":"01058","name":"Rendsburg-Eckernförde","type":"Kreis"},"federalState":{"key":"01","name":"Schleswig-Holstein"}},{"name":"Im Winkel","postalCode":"23823","locality":"Seedorf","municipality":{"key":"01060075","name":"Seedorf","type":"Kreisangehörige_Gemeinde"},"district":{"key":"01060","name":"Segeberg","type":"Kreis"},"federalState":{"key":"01","name":"Schleswig-Holstein"}},{"name":"Jepsenstr.","postalCode":"23823","locality":"Seedorf","municipality":{"key":"01060075","name":"Seedorf","type":"Kreisangehörige_Gemeinde"},"district":{"key":"01060","name":"Segeberg","type":"Kreis"},"federalState":{"key":"01","name":"Schleswig-Holstein"}},{"name":"Kieferkamp","postalCode":"23823","locality":"Seedorf","municipality":{"key":"01060075","name":"Seedorf","type":"Kreisangehörige_Gemeinde"},"district":{"key":"01060","name":"Segeberg","type":"Kreis"},"federalState":{"key":"01","name":"Schleswig-Holstein"}},{"name":"Kieler Str.","postalCode":"24589","locality":"Borgdorf-Seedorf","municipality":{"key":"01058023","name":"Borgdorf-Seedorf","type":"Kreisangehörige_Gemeinde"},"district":{"key":"01058","name":"Rendsburg-Eckernförde","type":"Kreis"},"federalState":{"key":"01","name":"Schleswig-Holstein"}},{"name":"Kirchstr.","postalCode":"23823","locality":"Seedorf","municipality":{"key":"01060075","name":"Seedorf","type":"Kreisangehörige_Gemeinde"},"district":{"key":"01060","name":"Segeberg","type":"Kreis"},"federalState":{"key":"01","name":"Schleswig-Holstein"}},{"name":"Kirschenallee","postalCode":"23717","locality":"Kasseedorf","municipality":{"key":"01055024","name":"Kasseedorf","type":"Kreisangehörige_Gemeinde"},"district":{"key":"01055","name":"Ostholstein","type":"Kreis"},"federalState":{"key":"01","name":"Schleswig-Holstein"}},{"name":"Kiwitt","postalCode":"23823","locality":"Seedorf","municipality":{"key":"01060075","name":"Seedorf","type":"Kreisangehörige_Gemeinde"},"district":{"key":"01060","name":"Segeberg","type":"Kreis"},"federalState":{"key":"01","name":"Schleswig-Holstein"}},{"name":"Kleehof","postalCode":"24589","locality":"Borgdorf-Seedorf","municipality":{"key":"01058023","name":"Borgdorf-Seedorf","type":"Kreisangehörige_Gemeinde"},"district":{"key":"01058","name":"Rendsburg-Eckernförde","type":"Kreis"},"federalState":{"key":"01","name":"Schleswig-Holstein"}},{"name":"Krückberg","postalCode":"23717","locality":"Kasseedorf","municipality":{"key":"01055024","name":"Kasseedorf","type":"Kreisangehörige_Gemeinde"},"district":{"key":"01055","name":"Ostholstein","type":"Kreis"},"federalState":{"key":"01","name":"Schleswig-Holstein"}},{"name":"Kukuk","postalCode":"23823","locality":"Seedorf","municipality":{"key":"01060075","name":"Seedorf","type":"Kreisangehörige_Gemeinde"},"district":{"key":"01060","name":"Segeberg","type":"Kreis"},"federalState":{"key":"01","name":"Schleswig-Holstein"}},{"name":"Kurfürstendamm","postalCode":"23823","locality":"Seedorf","municipality":{"key":"01060075","name":"Seedorf","type":"Kreisangehörige_Gemeinde"},"district":{"key":"01060","name":"Segeberg","type":"Kreis"},"federalState":{"key":"01","name":"Schleswig-Holstein"}},{"name":"Langenberg","postalCode":"24589","locality":"Borgdorf-Seedorf","municipality":{"key":"01058023","name":"Borgdorf-Seedorf","type":"Kreisangehörige_Gemeinde"},"district":{"key":"01058","name":"Rendsburg-Eckernförde","type":"Kreis"},"federalState":{"key":"01","name":"Schleswig-Holstein"}},{"name":"Lichterfelde","postalCode":"23823","locality":"Seedorf","municipality":{"key":"01060075","name":"Seedorf","type":"Kreisangehörige_Gemeinde"},"district":{"key":"01060","name":"Segeberg","type":"Kreis"},"federalState":{"key":"01","name":"Schleswig-Holstein"}},{"name":"Lindenallee","postalCode":"23883","locality":"Seedorf","municipality":{"key":"01053117","name":"Seedorf","type":"Kreisangehörige_Gemeinde"},"district":{"key":"01053","name":"Herzogtum Lauenburg","type":"Kreis"},"federalState":{"key":"01","name":"Schleswig-Holstein"}},{"name":"Moorweg","postalCode":"23823","locality":"Seedorf","municipality":{"key":"01060075","name":"Seedorf","type":"Kreisangehörige_Gemeinde"},"district":{"key":"01060","name":"Segeberg","type":"Kreis"},"federalState":{"key":"01","name":"Schleswig-Holstein"}},{"name":"Mühlenweg","postalCode":"23823","locality":"Seedorf","municipality":{"key":"01060075","name":"Seedorf","type":"Kreisangehörige_Gemeinde"},"district":{"key":"01060","name":"Segeberg","type":"Kreis"},"federalState":{"key":"01","name":"Schleswig-Holstein"}},{"name":"Muhs'sche Koppel","postalCode":"23717","locality":"Kasseedorf","municipality":{"key":"01055024","name":"Kasseedorf","type":"Kreisangehörige_Gemeinde"},"district":{"key":"01055","name":"Ostholstein","type":"Kreis"},"federalState":{"key":"01","name":"Schleswig-Holstein"}},{"name":"Neuenrade","postalCode":"23823","locality":"Seedorf","municipality":{"key":"01060075","name":"Seedorf","type":"Kreisangehörige_Gemeinde"},"district":{"key":"01060","name":"Segeberg","type":"Kreis"},"federalState":{"key":"01","name":"Schleswig-Holstein"}},{"name":"Oldenburger Str.","postalCode":"23717","locality":"Kasseedorf","municipality":{"key":"01055024","name":"Kasseedorf","type":"Kreisangehörige_Gemeinde"},"district":{"key":"01055","name":"Ostholstein","type":"Kreis"},"federalState":{"key":"01","name":"Schleswig-Holstein"}},{"name":"Op'n Kamp","postalCode":"23717","locality":"Kasseedorf","municipality":{"key":"01055024","name":"Kasseedorf","type":"Kreisangehörige_Gemeinde"},"district":{"key":"01055","name":"Ostholstein","type":"Kreis"},"federalState":{"key":"01","name":"Schleswig-Holstein"}},{"name":"Osterkamp","postalCode":"23823","locality":"Seedorf","municipality":{"key":"01060075","name":"Seedorf","type":"Kreisangehörige_Gemeinde"},"district":{"key":"01060","name":"Segeberg","type":"Kreis"},"federalState":{"key":"01","name":"Schleswig-Holstein"}},{"name":"Ostpreußenweg","postalCode":"23717","locality":"Kasseedorf","municipality":{"key":"01055024","name":"Kasseedorf","type":"Kreisangehörige_Gemeinde"},"district":{"key":"01055","name":"Ostholstein","type":"Kreis"},"federalState":{"key":"01","name":"Schleswig-Holstein"}},{"name":"Papiermühle","postalCode":"23823","locality":"Seedorf","municipality":{"key":"01060075","name":"Seedorf","type":"Kreisangehörige_Gemeinde"},"district":{"key":"01060","name":"Segeberg","type":"Kreis"},"federalState":{"key":"01","name":"Schleswig-Holstein"}},{"name":"Poststr.","postalCode":"27404","locality":"Seedorf","municipality":{"key":"03357042","name":"Seedorf","type":"Kreisangehörige_Gemeinde"},"district":{"key":"03357","name":"Rotenburg (Wümme)","type":"Landkreis"},"federalState":{"key":"03","name":"Niedersachsen"}},{"name":"Potsdamer Platz","postalCode":"23823","locality":"Seedorf","municipality":{"key":"01060075","name":"Seedorf","type":"Kreisangehörige_Gemeinde"},"district":{"key":"01060","name":"Segeberg","type":"Kreis"},"federalState":{"key":"01","name":"Schleswig-Holstein"}},{"name":"Potsdamer Str.","postalCode":"23823","locality":"Seedorf","municipality":{"key":"01060075","name":"Seedorf","type":"Kreisangehörige_Gemeinde"},"district":{"key":"01060","name":"Segeberg","type":"Kreis"},"federalState":{"key":"01","name":"Schleswig-Holstein"}},{"name":"Radewiese","postalCode":"23823","locality":"Seedorf","municipality":{"key":"01060075","name":"Seedorf","type":"Kreisangehörige_Gemeinde"},"district":{"key":"01060","name":"Segeberg","type":"Kreis"},"federalState":{"key":"01","name":"Schleswig-Holstein"}},{"name":"Ringstr.","postalCode":"23823","locality":"Seedorf","municipality":{"key":"01060075","name":"Seedorf","type":"Kreisangehörige_Gemeinde"},"district":{"key":"01060","name":"Segeberg","type":"Kreis"},"federalState":{"key":"01","name":"Schleswig-Holstein"}},{"name":"Ringstr.","postalCode":"27404","locality":"Seedorf","municipality":{"key":"03357042","name":"Seedorf","type":"Kreisangehörige_Gemeinde"},"district":{"key":"03357","name":"Rotenburg (Wümme)","type":"Landkreis"},"federalState":{"key":"03","name":"Niedersachsen"}},{"name":"Rockstedter Str.","postalCode":"27404","locality":"Seedorf","municipality":{"key":"03357042","name":"Seedorf","type":"Kreisangehörige_Gemeinde"},"district":{"key":"03357","name":"Rotenburg (Wümme)","type":"Landkreis"},"federalState":{"key":"03","name":"Niedersachsen"}},{"name":"Rövkamp","postalCode":"23823","locality":"Seedorf","municipality":{"key":"01060075","name":"Seedorf","type":"Kreisangehörige_Gemeinde"},"district":{"key":"01060","name":"Segeberg","type":"Kreis"},"federalState":{"key":"01","name":"Schleswig-Holstein"}},{"name":"Rudolf-Rabe-Weg","postalCode":"23823","locality":"Seedorf","municipality":{"key":"01060075","name":"Seedorf","type":"Kreisangehörige_Gemeinde"},"district":{"key":"01060","name":"Segeberg","type":"Kreis"},"federalState":{"key":"01","name":"Schleswig-Holstein"}},{"name":"Ruhwinkel","postalCode":"23717","locality":"Kasseedorf","municipality":{"key":"01055024","name":"Kasseedorf","type":"Kreisangehörige_Gemeinde"},"district":{"key":"01055","name":"Ostholstein","type":"Kreis"},"federalState":{"key":"01","name":"Schleswig-Holstein"}},{"name":"Sagauer Str.","postalCode":"23717","locality":"Kasseedorf","municipality":{"key":"01055024","name":"Kasseedorf","type":"Kreisangehörige_Gemeinde"},"district":{"key":"01055","name":"Ostholstein","type":"Kreis"},"federalState":{"key":"01","name":"Schleswig-Holstein"}},{"name":"Schafbreite","postalCode":"23883","locality":"Seedorf","municipality":{"key":"01053117","name":"Seedorf","type":"Kreisangehörige_Gemeinde"},"district":{"key":"01053","name":"Herzogtum Lauenburg","type":"Kreis"},"federalState":{"key":"01","name":"Schleswig-Holstein"}},{"name":"Schlangenbrücke","postalCode":"23883","locality":"Seedorf","municipality":{"key":"01053117","name":"Seedorf","type":"Kreisangehörige_Gemeinde"},"district":{"key":"01053","name":"Herzogtum Lauenburg","type":"Kreis"},"federalState":{"key":"01","name":"Schleswig-Holstein"}},{"name":"Schloßstr.","postalCode":"23883","locality":"Seedorf","municipality":{"key":"01053117","name":"Seedorf","type":"Kreisangehörige_Gemeinde"},"district":{"key":"01053","name":"Herzogtum Lauenburg","type":"Kreis"},"federalState":{"key":"01","name":"Schleswig-Holstein"}},{"name":"Schulberg","postalCode":"23717","locality":"Kasseedorf","municipality":{"key":"01055024","name":"Kasseedorf","type":"Kreisangehörige_Gemeinde"},"district":{"key":"01055","name":"Ostholstein","type":"Kreis"},"federalState":{"key":"01","name":"Schleswig-Holstein"}},{"name":"Schulbusch","postalCode":"23823","locality":"Seedorf","municipality":{"key":"01060075","name":"Seedorf","type":"Kreisangehörige_Gemeinde"},"district":{"key":"01060","name":"Segeberg","type":"Kreis"},"federalState":{"key":"01","name":"Schleswig-Holstein"}},{"name":"Schulkamp","postalCode":"23823","locality":"Seedorf","municipality":{"key":"01060075","name":"Seedorf","type":"Kreisangehörige_Gemeinde"},"district":{"key":"01060","name":"Segeberg","type":"Kreis"},"federalState":{"key":"01","name":"Schleswig-Holstein"}},{"name":"Schulsteig","postalCode":"23823","locality":"Seedorf","municipality":{"key":"01060075","name":"Seedorf","type":"Kreisangehörige_Gemeinde"},"district":{"key":"01060","name":"Segeberg","type":"Kreis"},"federalState":{"key":"01","name":"Schleswig-Holstein"}},{"name":"Schulstr.","postalCode":"23823","locality":"Seedorf","municipality":{"key":"01060075","name":"Seedorf","type":"Kreisangehörige_Gemeinde"},"district":{"key":"01060","name":"Segeberg","type":"Kreis"},"federalState":{"key":"01","name":"Schleswig-Holstein"}},{"name":"Schulstr.","postalCode":"27404","locality":"Seedorf","municipality":{"key":"03357042","name":"Seedorf","type":"Kreisangehörige_Gemeinde"},"district":{"key":"03357","name":"Rotenburg (Wümme)","type":"Landkreis"},"federalState":{"key":"03","name":"Niedersachsen"}},{"name":"Schulweg","postalCode":"24589","locality":"Borgdorf-Seedorf","municipality":{"key":"01058023","name":"Borgdorf-Seedorf","type":"Kreisangehörige_Gemeinde"},"district":{"key":"01058","name":"Rendsburg-Eckernförde","type":"Kreis"},"federalState":{"key":"01","name":"Schleswig-Holstein"}},{"name":"Seebrook","postalCode":"23823","locality":"Seedorf","municipality":{"key":"01060075","name":"Seedorf","type":"Kreisangehörige_Gemeinde"},"district":{"key":"01060","name":"Segeberg","type":"Kreis"},"federalState":{"key":"01","name":"Schleswig-Holstein"}},{"name":"Seedorfer Weg","postalCode":"24589","locality":"Borgdorf-Seedorf","municipality":{"key":"01058023","name":"Borgdorf-Seedorf","type":"Kreisangehörige_Gemeinde"},"district":{"key":"01058","name":"Rendsburg-Eckernförde","type":"Kreis"},"federalState":{"key":"01","name":"Schleswig-Holstein"}},{"name":"Seekathen","postalCode":"23823","locality":"Seedorf","municipality":{"key":"01060075","name":"Seedorf","type":"Kreisangehörige_Gemeinde"},"district":{"key":"01060","name":"Segeberg","type":"Kreis"},"federalState":{"key":"01","name":"Schleswig-Holstein"}},{"name":"Segeberger Str.","postalCode":"23823","locality":"Seedorf","municipality":{"key":"01060075","name":"Seedorf","type":"Kreisangehörige_Gemeinde"},"district":{"key":"01060","name":"Segeberg","type":"Kreis"},"federalState":{"key":"01","name":"Schleswig-Holstein"}},{"name":"Stadtbek","postalCode":"23823","locality":"Seedorf","municipality":{"key":"01060075","name":"Seedorf","type":"Kreisangehörige_Gemeinde"},"district":{"key":"01060","name":"Segeberg","type":"Kreis"},"federalState":{"key":"01","name":"Schleswig-Holstein"}},{"name":"Stendorf","postalCode":"23717","locality":"Kasseedorf","municipality":{"key":"01055024","name":"Kasseedorf","type":"Kreisangehörige_Gemeinde"},"district":{"key":"01055","name":"Ostholstein","type":"Kreis"},"federalState":{"key":"01","name":"Schleswig-Holstein"}},{"name":"Stendorfer Weg","postalCode":"23717","locality":"Kasseedorf","municipality":{"key":"01055024","name":"Kasseedorf","type":"Kreisangehörige_Gemeinde"},"district":{"key":"01055","name":"Ostholstein","type":"Kreis"},"federalState":{"key":"01","name":"Schleswig-Holstein"}},{"name":"Twistenberg","postalCode":"27404","locality":"Seedorf","municipality":{"key":"03357042","name":"Seedorf","type":"Kreisangehörige_Gemeinde"},"district":{"key":"03357","name":"Rotenburg (Wümme)","type":"Landkreis"},"federalState":{"key":"03","name":"Niedersachsen"}},{"name":"Uhlandstr.","postalCode":"23823","locality":"Seedorf","municipality":{"key":"01060075","name":"Seedorf","type":"Kreisangehörige_Gemeinde"},"district":{"key":"01060","name":"Segeberg","type":"Kreis"},"federalState":{"key":"01","name":"Schleswig-Holstein"}},{"name":"Unter den Eichen","postalCode":"27404","locality":"Seedorf","municipality":{"key":"03357042","name":"Seedorf","type":"Kreisangehörige_Gemeinde"},"district":{"key":"03357","name":"Rotenburg (Wümme)","type":"Landkreis"},"federalState":{"key":"03","name":"Niedersachsen"}},{"name":"Unter den Linden","postalCode":"23823","locality":"Seedorf","municipality":{"key":"01060075","name":"Seedorf","type":"Kreisangehörige_Gemeinde"},"district":{"key":"01060","name":"Segeberg","type":"Kreis"},"federalState":{"key":"01","name":"Schleswig-Holstein"}},{"name":"Up'n Pott","postalCode":"23823","locality":"Seedorf","municipality":{"key":"01060075","name":"Seedorf","type":"Kreisangehörige_Gemeinde"},"district":{"key":"01060","name":"Segeberg","type":"Kreis"},"federalState":{"key":"01","name":"Schleswig-Holstein"}},{"name":"Vogtkamp","postalCode":"23795","locality":"Bad Segeberg","municipality":{"key":"01060005","name":"Bad Segeberg, Stadt","type":"Stadt"},"district":{"key":"01060","name":"Segeberg","type":"Kreis"},"federalState":{"key":"01","name":"Schleswig-Holstein"}},{"name":"Weitewelt","postalCode":"23823","locality":"Seedorf","municipality":{"key":"01060075","name":"Seedorf","type":"Kreisangehörige_Gemeinde"},"district":{"key":"01060","name":"Segeberg","type":"Kreis"},"federalState":{"key":"01","name":"Schleswig-Holstein"}},{"name":"Wiesengrund","postalCode":"23823","locality":"Seedorf","municipality":{"key":"01060075","name":"Seedorf","type":"Kreisangehörige_Gemeinde"},"district":{"key":"01060","name":"Segeberg","type":"Kreis"},"federalState":{"key":"01","name":"Schleswig-Holstein"}},{"name":"Wilhelmshöh","postalCode":"23823","locality":"Seedorf","municipality":{"key":"01060075","name":"Seedorf","type":"Kreisangehörige_Gemeinde"},"district":{"key":"01060","name":"Segeberg","type":"Kreis"},"federalState":{"key":"01","name":"Schleswig-Holstein"}},{"name":"Wilmersdorfer Str.","postalCode":"23823","locality":"Seedorf","municipality":{"key":"01060075","name":"Seedorf","type":"Kreisangehörige_Gemeinde"},"district":{"key":"01060","name":"Segeberg","type":"Kreis"},"federalState":{"key":"01","name":"Schleswig-Holstein"}},{"name":"Wührenweg","postalCode":"23717","locality":"Kasseedorf","municipality":{"key":"01055024","name":"Kasseedorf","type":"Kreisangehörige_Gemeinde"},"district":{"key":"01055","name":"Ostholstein","type":"Kreis"},"federalState":{"key":"01","name":"Schleswig-Holstein"}},{"name":"Zeltenallee","postalCode":"23823","locality":"Seedorf","municipality":{"key":"01060075","name":"Seedorf","type":"Kreisangehörige_Gemeinde"},"district":{"key":"01060","name":"Segeberg","type":"Kreis"},"federalState":{"key":"01","name":"Schleswig-Holstein"}},{"name":"Zum Moorberg","postalCode":"23717","locality":"Kasseedorf","municipality":{"key":"01055024","name":"Kasseedorf","type":"Kreisangehörige_Gemeinde"},"district":{"key":"01055","name":"Ostholstein","type":"Kreis"},"federalState":{"key":"01","name":"Schleswig-Holstein"}},{"name":"Zum Vossberg","postalCode":"23717","locality":"Kasseedorf","municipality":{"key":"01055024","name":"Kasseedorf","type":"Kreisangehörige_Gemeinde"},"district":{"key":"01055","name":"Ostholstein","type":"Kreis"},"federalState":{"key":"01","name":"Schleswig-Holstein"}},]