[{"name":"Aggensteinstr.","postalCode":"86978","locality":"Hohenfurch","municipality":{"key":"09190129","name":"Hohenfurch","type":"Kreisangehörige_Gemeinde"},"district":{"key":"09190","name":"Weilheim-Schongau","type":"Landkreis"},"federalState":{"key":"09","name":"Bayern"}},{"name":"Alpspitzstr.","postalCode":"86978","locality":"Hohenfurch","municipality":{"key":"09190129","name":"Hohenfurch","type":"Kreisangehörige_Gemeinde"},"district":{"key":"09190","name":"Weilheim-Schongau","type":"Landkreis"},"federalState":{"key":"09","name":"Bayern"}},{"name":"Am Lech","postalCode":"86978","locality":"Hohenfurch","municipality":{"key":"09190129","name":"Hohenfurch","type":"Kreisangehörige_Gemeinde"},"district":{"key":"09190","name":"Weilheim-Schongau","type":"Landkreis"},"federalState":{"key":"09","name":"Bayern"}},{"name":"Am Stoa","postalCode":"86978","locality":"Hohenfurch","municipality":{"key":"09190129","name":"Hohenfurch","type":"Kreisangehörige_Gemeinde"},"district":{"key":"09190","name":"Weilheim-Schongau","type":"Landkreis"},"federalState":{"key":"09","name":"Bayern"}},{"name":"An der Bleiche","postalCode":"86978","locality":"Hohenfurch","municipality":{"key":"09190129","name":"Hohenfurch","type":"Kreisangehörige_Gemeinde"},"district":{"key":"09190","name":"Weilheim-Schongau","type":"Landkreis"},"federalState":{"key":"09","name":"Bayern"}},{"name":"An der Schafhalde","postalCode":"86978","locality":"Hohenfurch","municipality":{"key":"09190129","name":"Hohenfurch","type":"Kreisangehörige_Gemeinde"},"district":{"key":"09190","name":"Weilheim-Schongau","type":"Landkreis"},"federalState":{"key":"09","name":"Bayern"}},{"name":"Anger","postalCode":"86978","locality":"Hohenfurch","municipality":{"key":"09190129","name":"Hohenfurch","type":"Kreisangehörige_Gemeinde"},"district":{"key":"09190","name":"Weilheim-Schongau","type":"Landkreis"},"federalState":{"key":"09","name":"Bayern"}},{"name":"Bachtal","postalCode":"86978","locality":"Hohenfurch","municipality":{"key":"09190129","name":"Hohenfurch","type":"Kreisangehörige_Gemeinde"},"district":{"key":"09190","name":"Weilheim-Schongau","type":"Landkreis"},"federalState":{"key":"09","name":"Bayern"}},{"name":"Bahnhofweg","postalCode":"86978","locality":"Hohenfurch","municipality":{"key":"09190129","name":"Hohenfurch","type":"Kreisangehörige_Gemeinde"},"district":{"key":"09190","name":"Weilheim-Schongau","type":"Landkreis"},"federalState":{"key":"09","name":"Bayern"}},{"name":"Bayerweg","postalCode":"86978","locality":"Hohenfurch","municipality":{"key":"09190129","name":"Hohenfurch","type":"Kreisangehörige_Gemeinde"},"district":{"key":"09190","name":"Weilheim-Schongau","type":"Landkreis"},"federalState":{"key":"09","name":"Bayern"}},{"name":"Bergstr.","postalCode":"86978","locality":"Hohenfurch","municipality":{"key":"09190129","name":"Hohenfurch","type":"Kreisangehörige_Gemeinde"},"district":{"key":"09190","name":"Weilheim-Schongau","type":"Landkreis"},"federalState":{"key":"09","name":"Bayern"}},{"name":"Birkenau","postalCode":"86978","locality":"Hohenfurch","municipality":{"key":"09190129","name":"Hohenfurch","type":"Kreisangehörige_Gemeinde"},"district":{"key":"09190","name":"Weilheim-Schongau","type":"Landkreis"},"federalState":{"key":"09","name":"Bayern"}},{"name":"Blumenweg","postalCode":"86978","locality":"Hohenfurch","municipality":{"key":"09190129","name":"Hohenfurch","type":"Kreisangehörige_Gemeinde"},"district":{"key":"09190","name":"Weilheim-Schongau","type":"Landkreis"},"federalState":{"key":"09","name":"Bayern"}},{"name":"Bräuweg","postalCode":"86978","locality":"Hohenfurch","municipality":{"key":"09190129","name":"Hohenfurch","type":"Kreisangehörige_Gemeinde"},"district":{"key":"09190","name":"Weilheim-Schongau","type":"Landkreis"},"federalState":{"key":"09","name":"Bayern"}},{"name":"Buchenweg","postalCode":"86978","locality":"Hohenfurch","municipality":{"key":"09190129","name":"Hohenfurch","type":"Kreisangehörige_Gemeinde"},"district":{"key":"09190","name":"Weilheim-Schongau","type":"Landkreis"},"federalState":{"key":"09","name":"Bayern"}},{"name":"Eichenstr.","postalCode":"86978","locality":"Hohenfurch","municipality":{"key":"09190129","name":"Hohenfurch","type":"Kreisangehörige_Gemeinde"},"district":{"key":"09190","name":"Weilheim-Schongau","type":"Landkreis"},"federalState":{"key":"09","name":"Bayern"}},{"name":"Flößergasse","postalCode":"86978","locality":"Hohenfurch","municipality":{"key":"09190129","name":"Hohenfurch","type":"Kreisangehörige_Gemeinde"},"district":{"key":"09190","name":"Weilheim-Schongau","type":"Landkreis"},"federalState":{"key":"09","name":"Bayern"}},{"name":"Föhrenweg","postalCode":"86978","locality":"Hohenfurch","municipality":{"key":"09190129","name":"Hohenfurch","type":"Kreisangehörige_Gemeinde"},"district":{"key":"09190","name":"Weilheim-Schongau","type":"Landkreis"},"federalState":{"key":"09","name":"Bayern"}},{"name":"Frühlingstr.","postalCode":"86978","locality":"Hohenfurch","municipality":{"key":"09190129","name":"Hohenfurch","type":"Kreisangehörige_Gemeinde"},"district":{"key":"09190","name":"Weilheim-Schongau","type":"Landkreis"},"federalState":{"key":"09","name":"Bayern"}},{"name":"Gartenweg","postalCode":"86978","locality":"Hohenfurch","municipality":{"key":"09190129","name":"Hohenfurch","type":"Kreisangehörige_Gemeinde"},"district":{"key":"09190","name":"Weilheim-Schongau","type":"Landkreis"},"federalState":{"key":"09","name":"Bayern"}},{"name":"Grüntenstr.","postalCode":"86978","locality":"Hohenfurch","municipality":{"key":"09190129","name":"Hohenfurch","type":"Kreisangehörige_Gemeinde"},"district":{"key":"09190","name":"Weilheim-Schongau","type":"Landkreis"},"federalState":{"key":"09","name":"Bayern"}},{"name":"Hauptplatz","postalCode":"86978","locality":"Hohenfurch","municipality":{"key":"09190129","name":"Hohenfurch","type":"Kreisangehörige_Gemeinde"},"district":{"key":"09190","name":"Weilheim-Schongau","type":"Landkreis"},"federalState":{"key":"09","name":"Bayern"}},{"name":"Hauptstr.","postalCode":"86978","locality":"Hohenfurch","municipality":{"key":"09190129","name":"Hohenfurch","type":"Kreisangehörige_Gemeinde"},"district":{"key":"09190","name":"Weilheim-Schongau","type":"Landkreis"},"federalState":{"key":"09","name":"Bayern"}},{"name":"Höhenbergstr.","postalCode":"86978","locality":"Hohenfurch","municipality":{"key":"09190129","name":"Hohenfurch","type":"Kreisangehörige_Gemeinde"},"district":{"key":"09190","name":"Weilheim-Schongau","type":"Landkreis"},"federalState":{"key":"09","name":"Bayern"}},{"name":"Hoheneggstr.","postalCode":"86978","locality":"Hohenfurch","municipality":{"key":"09190129","name":"Hohenfurch","type":"Kreisangehörige_Gemeinde"},"district":{"key":"09190","name":"Weilheim-Schongau","type":"Landkreis"},"federalState":{"key":"09","name":"Bayern"}},{"name":"Hornweg","postalCode":"86978","locality":"Hohenfurch","municipality":{"key":"09190129","name":"Hohenfurch","type":"Kreisangehörige_Gemeinde"},"district":{"key":"09190","name":"Weilheim-Schongau","type":"Landkreis"},"federalState":{"key":"09","name":"Bayern"}},{"name":"Kapellenstr.","postalCode":"86978","locality":"Hohenfurch","municipality":{"key":"09190129","name":"Hohenfurch","type":"Kreisangehörige_Gemeinde"},"district":{"key":"09190","name":"Weilheim-Schongau","type":"Landkreis"},"federalState":{"key":"09","name":"Bayern"}},{"name":"Keltenstr.","postalCode":"86978","locality":"Hohenfurch","municipality":{"key":"09190129","name":"Hohenfurch","type":"Kreisangehörige_Gemeinde"},"district":{"key":"09190","name":"Weilheim-Schongau","type":"Landkreis"},"federalState":{"key":"09","name":"Bayern"}},{"name":"Kirchberg","postalCode":"86978","locality":"Hohenfurch","municipality":{"key":"09190129","name":"Hohenfurch","type":"Kreisangehörige_Gemeinde"},"district":{"key":"09190","name":"Weilheim-Schongau","type":"Landkreis"},"federalState":{"key":"09","name":"Bayern"}},{"name":"Kreuzstr.","postalCode":"86978","locality":"Hohenfurch","municipality":{"key":"09190129","name":"Hohenfurch","type":"Kreisangehörige_Gemeinde"},"district":{"key":"09190","name":"Weilheim-Schongau","type":"Landkreis"},"federalState":{"key":"09","name":"Bayern"}},{"name":"Landsberger Str.","postalCode":"86978","locality":"Hohenfurch","municipality":{"key":"09190129","name":"Hohenfurch","type":"Kreisangehörige_Gemeinde"},"district":{"key":"09190","name":"Weilheim-Schongau","type":"Landkreis"},"federalState":{"key":"09","name":"Bayern"}},{"name":"Lechstr.","postalCode":"86978","locality":"Hohenfurch","municipality":{"key":"09190129","name":"Hohenfurch","type":"Kreisangehörige_Gemeinde"},"district":{"key":"09190","name":"Weilheim-Schongau","type":"Landkreis"},"federalState":{"key":"09","name":"Bayern"}},{"name":"Leitenweg","postalCode":"86978","locality":"Hohenfurch","municipality":{"key":"09190129","name":"Hohenfurch","type":"Kreisangehörige_Gemeinde"},"district":{"key":"09190","name":"Weilheim-Schongau","type":"Landkreis"},"federalState":{"key":"09","name":"Bayern"}},{"name":"Lindenweg","postalCode":"86978","locality":"Hohenfurch","municipality":{"key":"09190129","name":"Hohenfurch","type":"Kreisangehörige_Gemeinde"},"district":{"key":"09190","name":"Weilheim-Schongau","type":"Landkreis"},"federalState":{"key":"09","name":"Bayern"}},{"name":"Mesnerweg","postalCode":"86978","locality":"Hohenfurch","municipality":{"key":"09190129","name":"Hohenfurch","type":"Kreisangehörige_Gemeinde"},"district":{"key":"09190","name":"Weilheim-Schongau","type":"Landkreis"},"federalState":{"key":"09","name":"Bayern"}},{"name":"Metzgerweg","postalCode":"86978","locality":"Hohenfurch","municipality":{"key":"09190129","name":"Hohenfurch","type":"Kreisangehörige_Gemeinde"},"district":{"key":"09190","name":"Weilheim-Schongau","type":"Landkreis"},"federalState":{"key":"09","name":"Bayern"}},{"name":"Mühlenweg","postalCode":"86978","locality":"Hohenfurch","municipality":{"key":"09190129","name":"Hohenfurch","type":"Kreisangehörige_Gemeinde"},"district":{"key":"09190","name":"Weilheim-Schongau","type":"Landkreis"},"federalState":{"key":"09","name":"Bayern"}},{"name":"Oberanger","postalCode":"86978","locality":"Hohenfurch","municipality":{"key":"09190129","name":"Hohenfurch","type":"Kreisangehörige_Gemeinde"},"district":{"key":"09190","name":"Weilheim-Schongau","type":"Landkreis"},"federalState":{"key":"09","name":"Bayern"}},{"name":"Panoramaweg","postalCode":"86978","locality":"Hohenfurch","municipality":{"key":"09190129","name":"Hohenfurch","type":"Kreisangehörige_Gemeinde"},"district":{"key":"09190","name":"Weilheim-Schongau","type":"Landkreis"},"federalState":{"key":"09","name":"Bayern"}},{"name":"Pappelweg","postalCode":"86978","locality":"Hohenfurch","municipality":{"key":"09190129","name":"Hohenfurch","type":"Kreisangehörige_Gemeinde"},"district":{"key":"09190","name":"Weilheim-Schongau","type":"Landkreis"},"federalState":{"key":"09","name":"Bayern"}},{"name":"Raiffeisenstr.","postalCode":"86978","locality":"Hohenfurch","municipality":{"key":"09190129","name":"Hohenfurch","type":"Kreisangehörige_Gemeinde"},"district":{"key":"09190","name":"Weilheim-Schongau","type":"Landkreis"},"federalState":{"key":"09","name":"Bayern"}},{"name":"Römerstr.","postalCode":"86978","locality":"Hohenfurch","municipality":{"key":"09190129","name":"Hohenfurch","type":"Kreisangehörige_Gemeinde"},"district":{"key":"09190","name":"Weilheim-Schongau","type":"Landkreis"},"federalState":{"key":"09","name":"Bayern"}},{"name":"Sankt-Mang-Str.","postalCode":"86978","locality":"Hohenfurch","municipality":{"key":"09190129","name":"Hohenfurch","type":"Kreisangehörige_Gemeinde"},"district":{"key":"09190","name":"Weilheim-Schongau","type":"Landkreis"},"federalState":{"key":"09","name":"Bayern"}},{"name":"Sankt-Ursula-Str.","postalCode":"86978","locality":"Hohenfurch","municipality":{"key":"09190129","name":"Hohenfurch","type":"Kreisangehörige_Gemeinde"},"district":{"key":"09190","name":"Weilheim-Schongau","type":"Landkreis"},"federalState":{"key":"09","name":"Bayern"}},{"name":"Sankt-Vitus-Str.","postalCode":"86978","locality":"Hohenfurch","municipality":{"key":"09190129","name":"Hohenfurch","type":"Kreisangehörige_Gemeinde"},"district":{"key":"09190","name":"Weilheim-Schongau","type":"Landkreis"},"federalState":{"key":"09","name":"Bayern"}},{"name":"Säulingstr.","postalCode":"86978","locality":"Hohenfurch","municipality":{"key":"09190129","name":"Hohenfurch","type":"Kreisangehörige_Gemeinde"},"district":{"key":"09190","name":"Weilheim-Schongau","type":"Landkreis"},"federalState":{"key":"09","name":"Bayern"}},{"name":"Schönachstr.","postalCode":"86978","locality":"Hohenfurch","municipality":{"key":"09190129","name":"Hohenfurch","type":"Kreisangehörige_Gemeinde"},"district":{"key":"09190","name":"Weilheim-Schongau","type":"Landkreis"},"federalState":{"key":"09","name":"Bayern"}},{"name":"Schongauer Str.","postalCode":"86978","locality":"Hohenfurch","municipality":{"key":"09190129","name":"Hohenfurch","type":"Kreisangehörige_Gemeinde"},"district":{"key":"09190","name":"Weilheim-Schongau","type":"Landkreis"},"federalState":{"key":"09","name":"Bayern"}},{"name":"Schulweg","postalCode":"86978","locality":"Hohenfurch","municipality":{"key":"09190129","name":"Hohenfurch","type":"Kreisangehörige_Gemeinde"},"district":{"key":"09190","name":"Weilheim-Schongau","type":"Landkreis"},"federalState":{"key":"09","name":"Bayern"}},{"name":"Sonnenstr.","postalCode":"86978","locality":"Hohenfurch","municipality":{"key":"09190129","name":"Hohenfurch","type":"Kreisangehörige_Gemeinde"},"district":{"key":"09190","name":"Weilheim-Schongau","type":"Landkreis"},"federalState":{"key":"09","name":"Bayern"}},{"name":"Steinweg","postalCode":"86978","locality":"Hohenfurch","municipality":{"key":"09190129","name":"Hohenfurch","type":"Kreisangehörige_Gemeinde"},"district":{"key":"09190","name":"Weilheim-Schongau","type":"Landkreis"},"federalState":{"key":"09","name":"Bayern"}},{"name":"Stockacker","postalCode":"86978","locality":"Hohenfurch","municipality":{"key":"09190129","name":"Hohenfurch","type":"Kreisangehörige_Gemeinde"},"district":{"key":"09190","name":"Weilheim-Schongau","type":"Landkreis"},"federalState":{"key":"09","name":"Bayern"}},{"name":"Talhof","postalCode":"86978","locality":"Hohenfurch","municipality":{"key":"09190129","name":"Hohenfurch","type":"Kreisangehörige_Gemeinde"},"district":{"key":"09190","name":"Weilheim-Schongau","type":"Landkreis"},"federalState":{"key":"09","name":"Bayern"}},{"name":"Talweg","postalCode":"86978","locality":"Hohenfurch","municipality":{"key":"09190129","name":"Hohenfurch","type":"Kreisangehörige_Gemeinde"},"district":{"key":"09190","name":"Weilheim-Schongau","type":"Landkreis"},"federalState":{"key":"09","name":"Bayern"}},{"name":"Tannenweg","postalCode":"86978","locality":"Hohenfurch","municipality":{"key":"09190129","name":"Hohenfurch","type":"Kreisangehörige_Gemeinde"},"district":{"key":"09190","name":"Weilheim-Schongau","type":"Landkreis"},"federalState":{"key":"09","name":"Bayern"}},{"name":"Tegelbergstr.","postalCode":"86978","locality":"Hohenfurch","municipality":{"key":"09190129","name":"Hohenfurch","type":"Kreisangehörige_Gemeinde"},"district":{"key":"09190","name":"Weilheim-Schongau","type":"Landkreis"},"federalState":{"key":"09","name":"Bayern"}},{"name":"Welfenstr.","postalCode":"86978","locality":"Hohenfurch","municipality":{"key":"09190129","name":"Hohenfurch","type":"Kreisangehörige_Gemeinde"},"district":{"key":"09190","name":"Weilheim-Schongau","type":"Landkreis"},"federalState":{"key":"09","name":"Bayern"}},{"name":"Wettersteinstr.","postalCode":"86978","locality":"Hohenfurch","municipality":{"key":"09190129","name":"Hohenfurch","type":"Kreisangehörige_Gemeinde"},"district":{"key":"09190","name":"Weilheim-Schongau","type":"Landkreis"},"federalState":{"key":"09","name":"Bayern"}},{"name":"Wiesenweg","postalCode":"86978","locality":"Hohenfurch","municipality":{"key":"09190129","name":"Hohenfurch","type":"Kreisangehörige_Gemeinde"},"district":{"key":"09190","name":"Weilheim-Schongau","type":"Landkreis"},"federalState":{"key":"09","name":"Bayern"}},{"name":"Winkelweg","postalCode":"86978","locality":"Hohenfurch","municipality":{"key":"09190129","name":"Hohenfurch","type":"Kreisangehörige_Gemeinde"},"district":{"key":"09190","name":"Weilheim-Schongau","type":"Landkreis"},"federalState":{"key":"09","name":"Bayern"}},{"name":"Zugspitzstr.","postalCode":"86978","locality":"Hohenfurch","municipality":{"key":"09190129","name":"Hohenfurch","type":"Kreisangehörige_Gemeinde"},"district":{"key":"09190","name":"Weilheim-Schongau","type":"Landkreis"},"federalState":{"key":"09","name":"Bayern"}},]