[{"name":"Achtrutenweg","postalCode":"14806","locality":"Bad Belzig","municipality":{"key":"12069020","name":"Bad Belzig, Stadt","type":"Stadt"},"district":{"key":"12069","name":"Potsdam-Mittelmark","type":"Landkreis"},"federalState":{"key":"12","name":"Brandenburg"}},{"name":"Ackerstr.","postalCode":"14806","locality":"Bad Belzig","municipality":{"key":"12069020","name":"Bad Belzig, Stadt","type":"Stadt"},"district":{"key":"12069","name":"Potsdam-Mittelmark","type":"Landkreis"},"federalState":{"key":"12","name":"Brandenburg"}},{"name":"Ahornhof","postalCode":"14806","locality":"Bad Belzig","municipality":{"key":"12069020","name":"Bad Belzig, Stadt","type":"Stadt"},"district":{"key":"12069","name":"Potsdam-Mittelmark","type":"Landkreis"},"federalState":{"key":"12","name":"Brandenburg"}},{"name":"Ahornweg","postalCode":"14806","locality":"Bad Belzig","municipality":{"key":"12069020","name":"Bad Belzig, Stadt","type":"Stadt"},"district":{"key":"12069","name":"Potsdam-Mittelmark","type":"Landkreis"},"federalState":{"key":"12","name":"Brandenburg"}},{"name":"Albert-Baur-Str.","postalCode":"14806","locality":"Bad Belzig","municipality":{"key":"12069020","name":"Bad Belzig, Stadt","type":"Stadt"},"district":{"key":"12069","name":"Potsdam-Mittelmark","type":"Landkreis"},"federalState":{"key":"12","name":"Brandenburg"}},{"name":"Alte Belziger Str.","postalCode":"14806","locality":"Bad Belzig","municipality":{"key":"12069020","name":"Bad Belzig, Stadt","type":"Stadt"},"district":{"key":"12069","name":"Potsdam-Mittelmark","type":"Landkreis"},"federalState":{"key":"12","name":"Brandenburg"}},{"name":"Alte Försterei","postalCode":"14806","locality":"Bad Belzig","municipality":{"key":"12069020","name":"Bad Belzig, Stadt","type":"Stadt"},"district":{"key":"12069","name":"Potsdam-Mittelmark","type":"Landkreis"},"federalState":{"key":"12","name":"Brandenburg"}},{"name":"Alter Baitzer Weg","postalCode":"14806","locality":"Bad Belzig","municipality":{"key":"12069020","name":"Bad Belzig, Stadt","type":"Stadt"},"district":{"key":"12069","name":"Potsdam-Mittelmark","type":"Landkreis"},"federalState":{"key":"12","name":"Brandenburg"}},{"name":"Alte Wittenberger Str.","postalCode":"14806","locality":"Bad Belzig","municipality":{"key":"12069020","name":"Bad Belzig, Stadt","type":"Stadt"},"district":{"key":"12069","name":"Potsdam-Mittelmark","type":"Landkreis"},"federalState":{"key":"12","name":"Brandenburg"}},{"name":"Am Bach","postalCode":"14806","locality":"Bad Belzig","municipality":{"key":"12069020","name":"Bad Belzig, Stadt","type":"Stadt"},"district":{"key":"12069","name":"Potsdam-Mittelmark","type":"Landkreis"},"federalState":{"key":"12","name":"Brandenburg"}},{"name":"Am Bahnhof","postalCode":"14806","locality":"Bad Belzig","municipality":{"key":"12069020","name":"Bad Belzig, Stadt","type":"Stadt"},"district":{"key":"12069","name":"Potsdam-Mittelmark","type":"Landkreis"},"federalState":{"key":"12","name":"Brandenburg"}},{"name":"Am Berg","postalCode":"14806","locality":"Bad Belzig","municipality":{"key":"12069020","name":"Bad Belzig, Stadt","type":"Stadt"},"district":{"key":"12069","name":"Potsdam-Mittelmark","type":"Landkreis"},"federalState":{"key":"12","name":"Brandenburg"}},{"name":"Am Denkmal","postalCode":"14806","locality":"Bad Belzig","municipality":{"key":"12069020","name":"Bad Belzig, Stadt","type":"Stadt"},"district":{"key":"12069","name":"Potsdam-Mittelmark","type":"Landkreis"},"federalState":{"key":"12","name":"Brandenburg"}},{"name":"Am Fuchsberg","postalCode":"14806","locality":"Bad Belzig","municipality":{"key":"12069020","name":"Bad Belzig, Stadt","type":"Stadt"},"district":{"key":"12069","name":"Potsdam-Mittelmark","type":"Landkreis"},"federalState":{"key":"12","name":"Brandenburg"}},{"name":"Am Gesundbrunnen","postalCode":"14806","locality":"Bad Belzig","municipality":{"key":"12069020","name":"Bad Belzig, Stadt","type":"Stadt"},"district":{"key":"12069","name":"Potsdam-Mittelmark","type":"Landkreis"},"federalState":{"key":"12","name":"Brandenburg"}},{"name":"Am Kornfeld","postalCode":"14806","locality":"Bad Belzig","municipality":{"key":"12069020","name":"Bad Belzig, Stadt","type":"Stadt"},"district":{"key":"12069","name":"Potsdam-Mittelmark","type":"Landkreis"},"federalState":{"key":"12","name":"Brandenburg"}},{"name":"Am Kurpark","postalCode":"14806","locality":"Bad Belzig","municipality":{"key":"12069020","name":"Bad Belzig, Stadt","type":"Stadt"},"district":{"key":"12069","name":"Potsdam-Mittelmark","type":"Landkreis"},"federalState":{"key":"12","name":"Brandenburg"}},{"name":"Am Lütter Bach","postalCode":"14806","locality":"Bad Belzig","municipality":{"key":"12069020","name":"Bad Belzig, Stadt","type":"Stadt"},"district":{"key":"12069","name":"Potsdam-Mittelmark","type":"Landkreis"},"federalState":{"key":"12","name":"Brandenburg"}},{"name":"Am Martinsberg","postalCode":"14806","locality":"Bad Belzig","municipality":{"key":"12069020","name":"Bad Belzig, Stadt","type":"Stadt"},"district":{"key":"12069","name":"Potsdam-Mittelmark","type":"Landkreis"},"federalState":{"key":"12","name":"Brandenburg"}},{"name":"Am Sandberg","postalCode":"14806","locality":"Bad Belzig","municipality":{"key":"12069020","name":"Bad Belzig, Stadt","type":"Stadt"},"district":{"key":"12069","name":"Potsdam-Mittelmark","type":"Landkreis"},"federalState":{"key":"12","name":"Brandenburg"}},{"name":"Am Sportplatz","postalCode":"14806","locality":"Bad Belzig","municipality":{"key":"12069020","name":"Bad Belzig, Stadt","type":"Stadt"},"district":{"key":"12069","name":"Potsdam-Mittelmark","type":"Landkreis"},"federalState":{"key":"12","name":"Brandenburg"}},{"name":"Am Teich","postalCode":"14806","locality":"Bad Belzig","municipality":{"key":"12069020","name":"Bad Belzig, Stadt","type":"Stadt"},"district":{"key":"12069","name":"Potsdam-Mittelmark","type":"Landkreis"},"federalState":{"key":"12","name":"Brandenburg"}},{"name":"Am Wasserberg","postalCode":"14806","locality":"Bad Belzig","municipality":{"key":"12069020","name":"Bad Belzig, Stadt","type":"Stadt"},"district":{"key":"12069","name":"Potsdam-Mittelmark","type":"Landkreis"},"federalState":{"key":"12","name":"Brandenburg"}},{"name":"Am Weinberg","postalCode":"14806","locality":"Bad Belzig","municipality":{"key":"12069020","name":"Bad Belzig, Stadt","type":"Stadt"},"district":{"key":"12069","name":"Potsdam-Mittelmark","type":"Landkreis"},"federalState":{"key":"12","name":"Brandenburg"}},{"name":"Am Wiegehaus","postalCode":"14806","locality":"Bad Belzig","municipality":{"key":"12069020","name":"Bad Belzig, Stadt","type":"Stadt"},"district":{"key":"12069","name":"Potsdam-Mittelmark","type":"Landkreis"},"federalState":{"key":"12","name":"Brandenburg"}},{"name":"an der Böschungsoberkante","postalCode":"14806","locality":"Bad Belzig","municipality":{"key":"12069020","name":"Bad Belzig, Stadt","type":"Stadt"},"district":{"key":"12069","name":"Potsdam-Mittelmark","type":"Landkreis"},"federalState":{"key":"12","name":"Brandenburg"}},{"name":"An der Eisenbahn","postalCode":"14806","locality":"Bad Belzig","municipality":{"key":"12069020","name":"Bad Belzig, Stadt","type":"Stadt"},"district":{"key":"12069","name":"Potsdam-Mittelmark","type":"Landkreis"},"federalState":{"key":"12","name":"Brandenburg"}},{"name":"An der Ziegelei","postalCode":"14806","locality":"Bad Belzig","municipality":{"key":"12069020","name":"Bad Belzig, Stadt","type":"Stadt"},"district":{"key":"12069","name":"Potsdam-Mittelmark","type":"Landkreis"},"federalState":{"key":"12","name":"Brandenburg"}},{"name":"August-Bebel-Str.","postalCode":"14806","locality":"Bad Belzig","municipality":{"key":"12069020","name":"Bad Belzig, Stadt","type":"Stadt"},"district":{"key":"12069","name":"Potsdam-Mittelmark","type":"Landkreis"},"federalState":{"key":"12","name":"Brandenburg"}},{"name":"Bäckerstr.","postalCode":"14806","locality":"Bad Belzig","municipality":{"key":"12069020","name":"Bad Belzig, Stadt","type":"Stadt"},"district":{"key":"12069","name":"Potsdam-Mittelmark","type":"Landkreis"},"federalState":{"key":"12","name":"Brandenburg"}},{"name":"Baderstr.","postalCode":"14806","locality":"Bad Belzig","municipality":{"key":"12069020","name":"Bad Belzig, Stadt","type":"Stadt"},"district":{"key":"12069","name":"Potsdam-Mittelmark","type":"Landkreis"},"federalState":{"key":"12","name":"Brandenburg"}},{"name":"Bahnhofsgasse","postalCode":"14806","locality":"Bad Belzig","municipality":{"key":"12069020","name":"Bad Belzig, Stadt","type":"Stadt"},"district":{"key":"12069","name":"Potsdam-Mittelmark","type":"Landkreis"},"federalState":{"key":"12","name":"Brandenburg"}},{"name":"Bahnhofstr.","postalCode":"14806","locality":"Bad Belzig","municipality":{"key":"12069020","name":"Bad Belzig, Stadt","type":"Stadt"},"district":{"key":"12069","name":"Potsdam-Mittelmark","type":"Landkreis"},"federalState":{"key":"12","name":"Brandenburg"}},{"name":"Baitzer Str.","postalCode":"14806","locality":"Bad Belzig","municipality":{"key":"12069020","name":"Bad Belzig, Stadt","type":"Stadt"},"district":{"key":"12069","name":"Potsdam-Mittelmark","type":"Landkreis"},"federalState":{"key":"12","name":"Brandenburg"}},{"name":"Belziger Str.","postalCode":"14806","locality":"Bad Belzig","municipality":{"key":"12069020","name":"Bad Belzig, Stadt","type":"Stadt"},"district":{"key":"12069","name":"Potsdam-Mittelmark","type":"Landkreis"},"federalState":{"key":"12","name":"Brandenburg"}},{"name":"Benkener Weg","postalCode":"14806","locality":"Bad Belzig","municipality":{"key":"12069020","name":"Bad Belzig, Stadt","type":"Stadt"},"district":{"key":"12069","name":"Potsdam-Mittelmark","type":"Landkreis"},"federalState":{"key":"12","name":"Brandenburg"}},{"name":"Bergholzer Str.","postalCode":"14806","locality":"Bad Belzig","municipality":{"key":"12069020","name":"Bad Belzig, Stadt","type":"Stadt"},"district":{"key":"12069","name":"Potsdam-Mittelmark","type":"Landkreis"},"federalState":{"key":"12","name":"Brandenburg"}},{"name":"Bergstr.","postalCode":"14806","locality":"Bad Belzig","municipality":{"key":"12069020","name":"Bad Belzig, Stadt","type":"Stadt"},"district":{"key":"12069","name":"Potsdam-Mittelmark","type":"Landkreis"},"federalState":{"key":"12","name":"Brandenburg"}},{"name":"Berliner Str.","postalCode":"14806","locality":"Bad Belzig","municipality":{"key":"12069020","name":"Bad Belzig, Stadt","type":"Stadt"},"district":{"key":"12069","name":"Potsdam-Mittelmark","type":"Landkreis"},"federalState":{"key":"12","name":"Brandenburg"}},{"name":"Bertolt-Brecht-Str.","postalCode":"14806","locality":"Bad Belzig","municipality":{"key":"12069020","name":"Bad Belzig, Stadt","type":"Stadt"},"district":{"key":"12069","name":"Potsdam-Mittelmark","type":"Landkreis"},"federalState":{"key":"12","name":"Brandenburg"}},{"name":"Birkenweg","postalCode":"14806","locality":"Bad Belzig","municipality":{"key":"12069020","name":"Bad Belzig, Stadt","type":"Stadt"},"district":{"key":"12069","name":"Potsdam-Mittelmark","type":"Landkreis"},"federalState":{"key":"12","name":"Brandenburg"}},{"name":"Blumenstr.","postalCode":"14806","locality":"Bad Belzig","municipality":{"key":"12069020","name":"Bad Belzig, Stadt","type":"Stadt"},"district":{"key":"12069","name":"Potsdam-Mittelmark","type":"Landkreis"},"federalState":{"key":"12","name":"Brandenburg"}},{"name":"Borner Str.","postalCode":"14806","locality":"Bad Belzig","municipality":{"key":"12069020","name":"Bad Belzig, Stadt","type":"Stadt"},"district":{"key":"12069","name":"Potsdam-Mittelmark","type":"Landkreis"},"federalState":{"key":"12","name":"Brandenburg"}},{"name":"Borussiaweg","postalCode":"14806","locality":"Bad Belzig","municipality":{"key":"12069020","name":"Bad Belzig, Stadt","type":"Stadt"},"district":{"key":"12069","name":"Potsdam-Mittelmark","type":"Landkreis"},"federalState":{"key":"12","name":"Brandenburg"}},{"name":"Brandenburger Str.","postalCode":"14806","locality":"Bad Belzig","municipality":{"key":"12069020","name":"Bad Belzig, Stadt","type":"Stadt"},"district":{"key":"12069","name":"Potsdam-Mittelmark","type":"Landkreis"},"federalState":{"key":"12","name":"Brandenburg"}},{"name":"Briesener Str.","postalCode":"14806","locality":"Bad Belzig","municipality":{"key":"12069020","name":"Bad Belzig, Stadt","type":"Stadt"},"district":{"key":"12069","name":"Potsdam-Mittelmark","type":"Landkreis"},"federalState":{"key":"12","name":"Brandenburg"}},{"name":"Bruchstr.","postalCode":"14806","locality":"Bad Belzig","municipality":{"key":"12069020","name":"Bad Belzig, Stadt","type":"Stadt"},"district":{"key":"12069","name":"Potsdam-Mittelmark","type":"Landkreis"},"federalState":{"key":"12","name":"Brandenburg"}},{"name":"Brücker Landstr.","postalCode":"14806","locality":"Bad Belzig","municipality":{"key":"12069020","name":"Bad Belzig, Stadt","type":"Stadt"},"district":{"key":"12069","name":"Potsdam-Mittelmark","type":"Landkreis"},"federalState":{"key":"12","name":"Brandenburg"}},{"name":"Brunnenstr.","postalCode":"14806","locality":"Bad Belzig","municipality":{"key":"12069020","name":"Bad Belzig, Stadt","type":"Stadt"},"district":{"key":"12069","name":"Potsdam-Mittelmark","type":"Landkreis"},"federalState":{"key":"12","name":"Brandenburg"}},{"name":"Buchenhof","postalCode":"14806","locality":"Bad Belzig","municipality":{"key":"12069020","name":"Bad Belzig, Stadt","type":"Stadt"},"district":{"key":"12069","name":"Potsdam-Mittelmark","type":"Landkreis"},"federalState":{"key":"12","name":"Brandenburg"}},{"name":"Burgpromenade","postalCode":"14806","locality":"Bad Belzig","municipality":{"key":"12069020","name":"Bad Belzig, Stadt","type":"Stadt"},"district":{"key":"12069","name":"Potsdam-Mittelmark","type":"Landkreis"},"federalState":{"key":"12","name":"Brandenburg"}},{"name":"Chausseestr.","postalCode":"14806","locality":"Bad Belzig","municipality":{"key":"12069020","name":"Bad Belzig, Stadt","type":"Stadt"},"district":{"key":"12069","name":"Potsdam-Mittelmark","type":"Landkreis"},"federalState":{"key":"12","name":"Brandenburg"}},{"name":"Clara-Zetkin-Str.","postalCode":"14806","locality":"Bad Belzig","municipality":{"key":"12069020","name":"Bad Belzig, Stadt","type":"Stadt"},"district":{"key":"12069","name":"Potsdam-Mittelmark","type":"Landkreis"},"federalState":{"key":"12","name":"Brandenburg"}},{"name":"Dorfanger","postalCode":"14806","locality":"Bad Belzig","municipality":{"key":"12069020","name":"Bad Belzig, Stadt","type":"Stadt"},"district":{"key":"12069","name":"Potsdam-Mittelmark","type":"Landkreis"},"federalState":{"key":"12","name":"Brandenburg"}},{"name":"Dorfstr.","postalCode":"14806","locality":"Bad Belzig","municipality":{"key":"12069020","name":"Bad Belzig, Stadt","type":"Stadt"},"district":{"key":"12069","name":"Potsdam-Mittelmark","type":"Landkreis"},"federalState":{"key":"12","name":"Brandenburg"}},{"name":"Egelinde","postalCode":"14806","locality":"Bad Belzig","municipality":{"key":"12069020","name":"Bad Belzig, Stadt","type":"Stadt"},"district":{"key":"12069","name":"Potsdam-Mittelmark","type":"Landkreis"},"federalState":{"key":"12","name":"Brandenburg"}},{"name":"Eichenallee","postalCode":"14806","locality":"Bad Belzig","municipality":{"key":"12069020","name":"Bad Belzig, Stadt","type":"Stadt"},"district":{"key":"12069","name":"Potsdam-Mittelmark","type":"Landkreis"},"federalState":{"key":"12","name":"Brandenburg"}},{"name":"Eisenbahnstr.","postalCode":"14806","locality":"Bad Belzig","municipality":{"key":"12069020","name":"Bad Belzig, Stadt","type":"Stadt"},"district":{"key":"12069","name":"Potsdam-Mittelmark","type":"Landkreis"},"federalState":{"key":"12","name":"Brandenburg"}},{"name":"Erich-Weinert-Str.","postalCode":"14806","locality":"Bad Belzig","municipality":{"key":"12069020","name":"Bad Belzig, Stadt","type":"Stadt"},"district":{"key":"12069","name":"Potsdam-Mittelmark","type":"Landkreis"},"federalState":{"key":"12","name":"Brandenburg"}},{"name":"Ernst-Thälmann-Str.","postalCode":"14806","locality":"Bad Belzig","municipality":{"key":"12069020","name":"Bad Belzig, Stadt","type":"Stadt"},"district":{"key":"12069","name":"Potsdam-Mittelmark","type":"Landkreis"},"federalState":{"key":"12","name":"Brandenburg"}},{"name":"Feldstr.","postalCode":"14806","locality":"Bad Belzig","municipality":{"key":"12069020","name":"Bad Belzig, Stadt","type":"Stadt"},"district":{"key":"12069","name":"Potsdam-Mittelmark","type":"Landkreis"},"federalState":{"key":"12","name":"Brandenburg"}},{"name":"Fichtestr.","postalCode":"14806","locality":"Bad Belzig","municipality":{"key":"12069020","name":"Bad Belzig, Stadt","type":"Stadt"},"district":{"key":"12069","name":"Potsdam-Mittelmark","type":"Landkreis"},"federalState":{"key":"12","name":"Brandenburg"}},{"name":"Flämingweg","postalCode":"14806","locality":"Bad Belzig","municipality":{"key":"12069020","name":"Bad Belzig, Stadt","type":"Stadt"},"district":{"key":"12069","name":"Potsdam-Mittelmark","type":"Landkreis"},"federalState":{"key":"12","name":"Brandenburg"}},{"name":"Fontanestr.","postalCode":"14806","locality":"Bad Belzig","municipality":{"key":"12069020","name":"Bad Belzig, Stadt","type":"Stadt"},"district":{"key":"12069","name":"Potsdam-Mittelmark","type":"Landkreis"},"federalState":{"key":"12","name":"Brandenburg"}},{"name":"Forststr.","postalCode":"14806","locality":"Bad Belzig","municipality":{"key":"12069020","name":"Bad Belzig, Stadt","type":"Stadt"},"district":{"key":"12069","name":"Potsdam-Mittelmark","type":"Landkreis"},"federalState":{"key":"12","name":"Brandenburg"}},{"name":"Forstweg","postalCode":"14806","locality":"Bad Belzig","municipality":{"key":"12069020","name":"Bad Belzig, Stadt","type":"Stadt"},"district":{"key":"12069","name":"Potsdam-Mittelmark","type":"Landkreis"},"federalState":{"key":"12","name":"Brandenburg"}},{"name":"Freibadstr.","postalCode":"14806","locality":"Bad Belzig","municipality":{"key":"12069020","name":"Bad Belzig, Stadt","type":"Stadt"},"district":{"key":"12069","name":"Potsdam-Mittelmark","type":"Landkreis"},"federalState":{"key":"12","name":"Brandenburg"}},{"name":"Freigraben","postalCode":"14806","locality":"Bad Belzig","municipality":{"key":"12069020","name":"Bad Belzig, Stadt","type":"Stadt"},"district":{"key":"12069","name":"Potsdam-Mittelmark","type":"Landkreis"},"federalState":{"key":"12","name":"Brandenburg"}},{"name":"Friedrich-Ebert-Ring","postalCode":"14806","locality":"Bad Belzig","municipality":{"key":"12069020","name":"Bad Belzig, Stadt","type":"Stadt"},"district":{"key":"12069","name":"Potsdam-Mittelmark","type":"Landkreis"},"federalState":{"key":"12","name":"Brandenburg"}},{"name":"Friedrich-Engels-Str.","postalCode":"14806","locality":"Bad Belzig","municipality":{"key":"12069020","name":"Bad Belzig, Stadt","type":"Stadt"},"district":{"key":"12069","name":"Potsdam-Mittelmark","type":"Landkreis"},"federalState":{"key":"12","name":"Brandenburg"}},{"name":"Friedrich-Ludwig-Jahn-Str.","postalCode":"14806","locality":"Bad Belzig","municipality":{"key":"12069020","name":"Bad Belzig, Stadt","type":"Stadt"},"district":{"key":"12069","name":"Potsdam-Mittelmark","type":"Landkreis"},"federalState":{"key":"12","name":"Brandenburg"}},{"name":"Friedrich-Schiller-Str.","postalCode":"14806","locality":"Bad Belzig","municipality":{"key":"12069020","name":"Bad Belzig, Stadt","type":"Stadt"},"district":{"key":"12069","name":"Potsdam-Mittelmark","type":"Landkreis"},"federalState":{"key":"12","name":"Brandenburg"}},{"name":"Friesenweg","postalCode":"14806","locality":"Bad Belzig","municipality":{"key":"12069020","name":"Bad Belzig, Stadt","type":"Stadt"},"district":{"key":"12069","name":"Potsdam-Mittelmark","type":"Landkreis"},"federalState":{"key":"12","name":"Brandenburg"}},{"name":"Gartenstr.","postalCode":"14806","locality":"Bad Belzig","municipality":{"key":"12069020","name":"Bad Belzig, Stadt","type":"Stadt"},"district":{"key":"12069","name":"Potsdam-Mittelmark","type":"Landkreis"},"federalState":{"key":"12","name":"Brandenburg"}},{"name":"Gliener Str.","postalCode":"14806","locality":"Bad Belzig","municipality":{"key":"12069020","name":"Bad Belzig, Stadt","type":"Stadt"},"district":{"key":"12069","name":"Potsdam-Mittelmark","type":"Landkreis"},"federalState":{"key":"12","name":"Brandenburg"}},{"name":"Goethestr.","postalCode":"14806","locality":"Bad Belzig","municipality":{"key":"12069020","name":"Bad Belzig, Stadt","type":"Stadt"},"district":{"key":"12069","name":"Potsdam-Mittelmark","type":"Landkreis"},"federalState":{"key":"12","name":"Brandenburg"}},{"name":"Görzker Str.","postalCode":"14806","locality":"Bad Belzig","municipality":{"key":"12069020","name":"Bad Belzig, Stadt","type":"Stadt"},"district":{"key":"12069","name":"Potsdam-Mittelmark","type":"Landkreis"},"federalState":{"key":"12","name":"Brandenburg"}},{"name":"Green","postalCode":"14806","locality":"Bad Belzig","municipality":{"key":"12069020","name":"Bad Belzig, Stadt","type":"Stadt"},"district":{"key":"12069","name":"Potsdam-Mittelmark","type":"Landkreis"},"federalState":{"key":"12","name":"Brandenburg"}},{"name":"Groß Briesener Hauptstr.","postalCode":"14806","locality":"Bad Belzig","municipality":{"key":"12069020","name":"Bad Belzig, Stadt","type":"Stadt"},"district":{"key":"12069","name":"Potsdam-Mittelmark","type":"Landkreis"},"federalState":{"key":"12","name":"Brandenburg"}},{"name":"Gruboer Str.","postalCode":"14806","locality":"Bad Belzig","municipality":{"key":"12069020","name":"Bad Belzig, Stadt","type":"Stadt"},"district":{"key":"12069","name":"Potsdam-Mittelmark","type":"Landkreis"},"federalState":{"key":"12","name":"Brandenburg"}},{"name":"Gruboer Weg","postalCode":"14806","locality":"Bad Belzig","municipality":{"key":"12069020","name":"Bad Belzig, Stadt","type":"Stadt"},"district":{"key":"12069","name":"Potsdam-Mittelmark","type":"Landkreis"},"federalState":{"key":"12","name":"Brandenburg"}},{"name":"Grüner Grund","postalCode":"14806","locality":"Bad Belzig","municipality":{"key":"12069020","name":"Bad Belzig, Stadt","type":"Stadt"},"district":{"key":"12069","name":"Potsdam-Mittelmark","type":"Landkreis"},"federalState":{"key":"12","name":"Brandenburg"}},{"name":"Hagelberg","postalCode":"14806","locality":"Bad Belzig","municipality":{"key":"12069020","name":"Bad Belzig, Stadt","type":"Stadt"},"district":{"key":"12069","name":"Potsdam-Mittelmark","type":"Landkreis"},"federalState":{"key":"12","name":"Brandenburg"}},{"name":"Hagelberger Allee","postalCode":"14806","locality":"Bad Belzig","municipality":{"key":"12069020","name":"Bad Belzig, Stadt","type":"Stadt"},"district":{"key":"12069","name":"Potsdam-Mittelmark","type":"Landkreis"},"federalState":{"key":"12","name":"Brandenburg"}},{"name":"Hagelberger Str.","postalCode":"14806","locality":"Bad Belzig","municipality":{"key":"12069020","name":"Bad Belzig, Stadt","type":"Stadt"},"district":{"key":"12069","name":"Potsdam-Mittelmark","type":"Landkreis"},"federalState":{"key":"12","name":"Brandenburg"}},{"name":"Hahnengrund","postalCode":"14806","locality":"Bad Belzig","municipality":{"key":"12069020","name":"Bad Belzig, Stadt","type":"Stadt"},"district":{"key":"12069","name":"Potsdam-Mittelmark","type":"Landkreis"},"federalState":{"key":"12","name":"Brandenburg"}},{"name":"Hans-Marchwitza-Str.","postalCode":"14806","locality":"Bad Belzig","municipality":{"key":"12069020","name":"Bad Belzig, Stadt","type":"Stadt"},"district":{"key":"12069","name":"Potsdam-Mittelmark","type":"Landkreis"},"federalState":{"key":"12","name":"Brandenburg"}},{"name":"Hauptstr.","postalCode":"14806","locality":"Bad Belzig","municipality":{"key":"12069020","name":"Bad Belzig, Stadt","type":"Stadt"},"district":{"key":"12069","name":"Potsdam-Mittelmark","type":"Landkreis"},"federalState":{"key":"12","name":"Brandenburg"}},{"name":"Heinrich-Heine-Str.","postalCode":"14806","locality":"Bad Belzig","municipality":{"key":"12069020","name":"Bad Belzig, Stadt","type":"Stadt"},"district":{"key":"12069","name":"Potsdam-Mittelmark","type":"Landkreis"},"federalState":{"key":"12","name":"Brandenburg"}},{"name":"Helga-Kroening-Str.","postalCode":"14806","locality":"Bad Belzig","municipality":{"key":"12069020","name":"Bad Belzig, Stadt","type":"Stadt"},"district":{"key":"12069","name":"Potsdam-Mittelmark","type":"Landkreis"},"federalState":{"key":"12","name":"Brandenburg"}},{"name":"Heuweg","postalCode":"14806","locality":"Bad Belzig","municipality":{"key":"12069020","name":"Bad Belzig, Stadt","type":"Stadt"},"district":{"key":"12069","name":"Potsdam-Mittelmark","type":"Landkreis"},"federalState":{"key":"12","name":"Brandenburg"}},{"name":"Hirtengasse","postalCode":"14806","locality":"Bad Belzig","municipality":{"key":"12069020","name":"Bad Belzig, Stadt","type":"Stadt"},"district":{"key":"12069","name":"Potsdam-Mittelmark","type":"Landkreis"},"federalState":{"key":"12","name":"Brandenburg"}},{"name":"Hügelweg","postalCode":"14806","locality":"Bad Belzig","municipality":{"key":"12069020","name":"Bad Belzig, Stadt","type":"Stadt"},"district":{"key":"12069","name":"Potsdam-Mittelmark","type":"Landkreis"},"federalState":{"key":"12","name":"Brandenburg"}},{"name":"Igelweg","postalCode":"14806","locality":"Bad Belzig","municipality":{"key":"12069020","name":"Bad Belzig, Stadt","type":"Stadt"},"district":{"key":"12069","name":"Potsdam-Mittelmark","type":"Landkreis"},"federalState":{"key":"12","name":"Brandenburg"}},{"name":"Im Gewerbepark Seedoche","postalCode":"14806","locality":"Bad Belzig","municipality":{"key":"12069020","name":"Bad Belzig, Stadt","type":"Stadt"},"district":{"key":"12069","name":"Potsdam-Mittelmark","type":"Landkreis"},"federalState":{"key":"12","name":"Brandenburg"}},{"name":"Im Winkel","postalCode":"14806","locality":"Bad Belzig","municipality":{"key":"12069020","name":"Bad Belzig, Stadt","type":"Stadt"},"district":{"key":"12069","name":"Potsdam-Mittelmark","type":"Landkreis"},"federalState":{"key":"12","name":"Brandenburg"}},{"name":"Johannes-R.-Becher-Str.","postalCode":"14806","locality":"Bad Belzig","municipality":{"key":"12069020","name":"Bad Belzig, Stadt","type":"Stadt"},"district":{"key":"12069","name":"Potsdam-Mittelmark","type":"Landkreis"},"federalState":{"key":"12","name":"Brandenburg"}},{"name":"Juliushof","postalCode":"14806","locality":"Bad Belzig","municipality":{"key":"12069020","name":"Bad Belzig, Stadt","type":"Stadt"},"district":{"key":"12069","name":"Potsdam-Mittelmark","type":"Landkreis"},"federalState":{"key":"12","name":"Brandenburg"}},{"name":"Kameruner Weg","postalCode":"14806","locality":"Bad Belzig","municipality":{"key":"12069020","name":"Bad Belzig, Stadt","type":"Stadt"},"district":{"key":"12069","name":"Potsdam-Mittelmark","type":"Landkreis"},"federalState":{"key":"12","name":"Brandenburg"}},{"name":"Kämmererweg","postalCode":"14806","locality":"Bad Belzig","municipality":{"key":"12069020","name":"Bad Belzig, Stadt","type":"Stadt"},"district":{"key":"12069","name":"Potsdam-Mittelmark","type":"Landkreis"},"federalState":{"key":"12","name":"Brandenburg"}},{"name":"Karl-Liebknecht-Str.","postalCode":"14806","locality":"Bad Belzig","municipality":{"key":"12069020","name":"Bad Belzig, Stadt","type":"Stadt"},"district":{"key":"12069","name":"Potsdam-Mittelmark","type":"Landkreis"},"federalState":{"key":"12","name":"Brandenburg"}},{"name":"Karl-Marx-Str.","postalCode":"14806","locality":"Bad Belzig","municipality":{"key":"12069020","name":"Bad Belzig, Stadt","type":"Stadt"},"district":{"key":"12069","name":"Potsdam-Mittelmark","type":"Landkreis"},"federalState":{"key":"12","name":"Brandenburg"}},{"name":"Kastanienwinkel","postalCode":"14806","locality":"Bad Belzig","municipality":{"key":"12069020","name":"Bad Belzig, Stadt","type":"Stadt"},"district":{"key":"12069","name":"Potsdam-Mittelmark","type":"Landkreis"},"federalState":{"key":"12","name":"Brandenburg"}},{"name":"Kiefernweg","postalCode":"14806","locality":"Bad Belzig","municipality":{"key":"12069020","name":"Bad Belzig, Stadt","type":"Stadt"},"district":{"key":"12069","name":"Potsdam-Mittelmark","type":"Landkreis"},"federalState":{"key":"12","name":"Brandenburg"}},{"name":"Kiesweg","postalCode":"14806","locality":"Bad Belzig","municipality":{"key":"12069020","name":"Bad Belzig, Stadt","type":"Stadt"},"district":{"key":"12069","name":"Potsdam-Mittelmark","type":"Landkreis"},"federalState":{"key":"12","name":"Brandenburg"}},{"name":"Kietz","postalCode":"14806","locality":"Bad Belzig","municipality":{"key":"12069020","name":"Bad Belzig, Stadt","type":"Stadt"},"district":{"key":"12069","name":"Potsdam-Mittelmark","type":"Landkreis"},"federalState":{"key":"12","name":"Brandenburg"}},{"name":"Kirchhofstr.","postalCode":"14806","locality":"Bad Belzig","municipality":{"key":"12069020","name":"Bad Belzig, Stadt","type":"Stadt"},"district":{"key":"12069","name":"Potsdam-Mittelmark","type":"Landkreis"},"federalState":{"key":"12","name":"Brandenburg"}},{"name":"Kirchplatz","postalCode":"14806","locality":"Bad Belzig","municipality":{"key":"12069020","name":"Bad Belzig, Stadt","type":"Stadt"},"district":{"key":"12069","name":"Potsdam-Mittelmark","type":"Landkreis"},"federalState":{"key":"12","name":"Brandenburg"}},{"name":"Kirschblütenweg","postalCode":"14806","locality":"Bad Belzig","municipality":{"key":"12069020","name":"Bad Belzig, Stadt","type":"Stadt"},"district":{"key":"12069","name":"Potsdam-Mittelmark","type":"Landkreis"},"federalState":{"key":"12","name":"Brandenburg"}},{"name":"Klein Briesen","postalCode":"14806","locality":"Bad Belzig","municipality":{"key":"12069020","name":"Bad Belzig, Stadt","type":"Stadt"},"district":{"key":"12069","name":"Potsdam-Mittelmark","type":"Landkreis"},"federalState":{"key":"12","name":"Brandenburg"}},{"name":"kleine Eichenalle","postalCode":"14806","locality":"Bad Belzig","municipality":{"key":"12069020","name":"Bad Belzig, Stadt","type":"Stadt"},"district":{"key":"12069","name":"Potsdam-Mittelmark","type":"Landkreis"},"federalState":{"key":"12","name":"Brandenburg"}},{"name":"Klein Glien","postalCode":"14806","locality":"Bad Belzig","municipality":{"key":"12069020","name":"Bad Belzig, Stadt","type":"Stadt"},"district":{"key":"12069","name":"Potsdam-Mittelmark","type":"Landkreis"},"federalState":{"key":"12","name":"Brandenburg"}},{"name":"Klein Gliener Str.","postalCode":"14806","locality":"Bad Belzig","municipality":{"key":"12069020","name":"Bad Belzig, Stadt","type":"Stadt"},"district":{"key":"12069","name":"Potsdam-Mittelmark","type":"Landkreis"},"federalState":{"key":"12","name":"Brandenburg"}},{"name":"Kurpark","postalCode":"14806","locality":"Bad Belzig","municipality":{"key":"12069020","name":"Bad Belzig, Stadt","type":"Stadt"},"district":{"key":"12069","name":"Potsdam-Mittelmark","type":"Landkreis"},"federalState":{"key":"12","name":"Brandenburg"}},{"name":"Kurparkpromenade","postalCode":"14806","locality":"Bad Belzig","municipality":{"key":"12069020","name":"Bad Belzig, Stadt","type":"Stadt"},"district":{"key":"12069","name":"Potsdam-Mittelmark","type":"Landkreis"},"federalState":{"key":"12","name":"Brandenburg"}},{"name":"Lärchenweg","postalCode":"14806","locality":"Bad Belzig","municipality":{"key":"12069020","name":"Bad Belzig, Stadt","type":"Stadt"},"district":{"key":"12069","name":"Potsdam-Mittelmark","type":"Landkreis"},"federalState":{"key":"12","name":"Brandenburg"}},{"name":"Lessingstr.","postalCode":"14806","locality":"Bad Belzig","municipality":{"key":"12069020","name":"Bad Belzig, Stadt","type":"Stadt"},"district":{"key":"12069","name":"Potsdam-Mittelmark","type":"Landkreis"},"federalState":{"key":"12","name":"Brandenburg"}},{"name":"Lindenallee","postalCode":"14806","locality":"Bad Belzig","municipality":{"key":"12069020","name":"Bad Belzig, Stadt","type":"Stadt"},"district":{"key":"12069","name":"Potsdam-Mittelmark","type":"Landkreis"},"federalState":{"key":"12","name":"Brandenburg"}},{"name":"Lindenstr.","postalCode":"14806","locality":"Bad Belzig","municipality":{"key":"12069020","name":"Bad Belzig, Stadt","type":"Stadt"},"district":{"key":"12069","name":"Potsdam-Mittelmark","type":"Landkreis"},"federalState":{"key":"12","name":"Brandenburg"}},{"name":"Lindenwinkel","postalCode":"14806","locality":"Bad Belzig","municipality":{"key":"12069020","name":"Bad Belzig, Stadt","type":"Stadt"},"district":{"key":"12069","name":"Potsdam-Mittelmark","type":"Landkreis"},"federalState":{"key":"12","name":"Brandenburg"}},{"name":"Lübnitzer Str.","postalCode":"14806","locality":"Bad Belzig","municipality":{"key":"12069020","name":"Bad Belzig, Stadt","type":"Stadt"},"district":{"key":"12069","name":"Potsdam-Mittelmark","type":"Landkreis"},"federalState":{"key":"12","name":"Brandenburg"}},{"name":"Lüsse","postalCode":"14806","locality":"Bad Belzig","municipality":{"key":"12069020","name":"Bad Belzig, Stadt","type":"Stadt"},"district":{"key":"12069","name":"Potsdam-Mittelmark","type":"Landkreis"},"federalState":{"key":"12","name":"Brandenburg"}},{"name":"Lütter Weinberg","postalCode":"14806","locality":"Bad Belzig","municipality":{"key":"12069020","name":"Bad Belzig, Stadt","type":"Stadt"},"district":{"key":"12069","name":"Potsdam-Mittelmark","type":"Landkreis"},"federalState":{"key":"12","name":"Brandenburg"}},{"name":"Magdeburger Str.","postalCode":"14806","locality":"Bad Belzig","municipality":{"key":"12069020","name":"Bad Belzig, Stadt","type":"Stadt"},"district":{"key":"12069","name":"Potsdam-Mittelmark","type":"Landkreis"},"federalState":{"key":"12","name":"Brandenburg"}},{"name":"Martin-Luther-Str.","postalCode":"14806","locality":"Bad Belzig","municipality":{"key":"12069020","name":"Bad Belzig, Stadt","type":"Stadt"},"district":{"key":"12069","name":"Potsdam-Mittelmark","type":"Landkreis"},"federalState":{"key":"12","name":"Brandenburg"}},{"name":"Mauerstr.","postalCode":"14806","locality":"Bad Belzig","municipality":{"key":"12069020","name":"Bad Belzig, Stadt","type":"Stadt"},"district":{"key":"12069","name":"Potsdam-Mittelmark","type":"Landkreis"},"federalState":{"key":"12","name":"Brandenburg"}},{"name":"Mehlsdorfer Weg","postalCode":"14806","locality":"Bad Belzig","municipality":{"key":"12069020","name":"Bad Belzig, Stadt","type":"Stadt"},"district":{"key":"12069","name":"Potsdam-Mittelmark","type":"Landkreis"},"federalState":{"key":"12","name":"Brandenburg"}},{"name":"Mühlenhölzchen","postalCode":"14806","locality":"Bad Belzig","municipality":{"key":"12069020","name":"Bad Belzig, Stadt","type":"Stadt"},"district":{"key":"12069","name":"Potsdam-Mittelmark","type":"Landkreis"},"federalState":{"key":"12","name":"Brandenburg"}},{"name":"Mühlenstr.","postalCode":"14806","locality":"Bad Belzig","municipality":{"key":"12069020","name":"Bad Belzig, Stadt","type":"Stadt"},"district":{"key":"12069","name":"Potsdam-Mittelmark","type":"Landkreis"},"federalState":{"key":"12","name":"Brandenburg"}},{"name":"Naturcamp Ragösen","postalCode":"14806","locality":"Bad Belzig","municipality":{"key":"12069020","name":"Bad Belzig, Stadt","type":"Stadt"},"district":{"key":"12069","name":"Potsdam-Mittelmark","type":"Landkreis"},"federalState":{"key":"12","name":"Brandenburg"}},{"name":"Neschholz","postalCode":"14806","locality":"Bad Belzig","municipality":{"key":"12069020","name":"Bad Belzig, Stadt","type":"Stadt"},"district":{"key":"12069","name":"Potsdam-Mittelmark","type":"Landkreis"},"federalState":{"key":"12","name":"Brandenburg"}},{"name":"Neschholzer Ausbau","postalCode":"14806","locality":"Bad Belzig","municipality":{"key":"12069020","name":"Bad Belzig, Stadt","type":"Stadt"},"district":{"key":"12069","name":"Potsdam-Mittelmark","type":"Landkreis"},"federalState":{"key":"12","name":"Brandenburg"}},{"name":"Niemegker Str.","postalCode":"14806","locality":"Bad Belzig","municipality":{"key":"12069020","name":"Bad Belzig, Stadt","type":"Stadt"},"district":{"key":"12069","name":"Potsdam-Mittelmark","type":"Landkreis"},"federalState":{"key":"12","name":"Brandenburg"}},{"name":"Niemöllerstr.","postalCode":"14806","locality":"Bad Belzig","municipality":{"key":"12069020","name":"Bad Belzig, Stadt","type":"Stadt"},"district":{"key":"12069","name":"Potsdam-Mittelmark","type":"Landkreis"},"federalState":{"key":"12","name":"Brandenburg"}},{"name":"Papendorfer Weg","postalCode":"14806","locality":"Bad Belzig","municipality":{"key":"12069020","name":"Bad Belzig, Stadt","type":"Stadt"},"district":{"key":"12069","name":"Potsdam-Mittelmark","type":"Landkreis"},"federalState":{"key":"12","name":"Brandenburg"}},{"name":"Poetensteig","postalCode":"14806","locality":"Bad Belzig","municipality":{"key":"12069020","name":"Bad Belzig, Stadt","type":"Stadt"},"district":{"key":"12069","name":"Potsdam-Mittelmark","type":"Landkreis"},"federalState":{"key":"12","name":"Brandenburg"}},{"name":"Preußnitz","postalCode":"14806","locality":"Bad Belzig","municipality":{"key":"12069020","name":"Bad Belzig, Stadt","type":"Stadt"},"district":{"key":"12069","name":"Potsdam-Mittelmark","type":"Landkreis"},"federalState":{"key":"12","name":"Brandenburg"}},{"name":"Promenade Am Mühlenhölzchen","postalCode":"14806","locality":"Bad Belzig","municipality":{"key":"12069020","name":"Bad Belzig, Stadt","type":"Stadt"},"district":{"key":"12069","name":"Potsdam-Mittelmark","type":"Landkreis"},"federalState":{"key":"12","name":"Brandenburg"}},{"name":"Puschkinstr.","postalCode":"14806","locality":"Bad Belzig","municipality":{"key":"12069020","name":"Bad Belzig, Stadt","type":"Stadt"},"district":{"key":"12069","name":"Potsdam-Mittelmark","type":"Landkreis"},"federalState":{"key":"12","name":"Brandenburg"}},{"name":"Ragösener Str.","postalCode":"14806","locality":"Bad Belzig","municipality":{"key":"12069020","name":"Bad Belzig, Stadt","type":"Stadt"},"district":{"key":"12069","name":"Potsdam-Mittelmark","type":"Landkreis"},"federalState":{"key":"12","name":"Brandenburg"}},{"name":"Reißigerstr.","postalCode":"14806","locality":"Bad Belzig","municipality":{"key":"12069020","name":"Bad Belzig, Stadt","type":"Stadt"},"district":{"key":"12069","name":"Potsdam-Mittelmark","type":"Landkreis"},"federalState":{"key":"12","name":"Brandenburg"}},{"name":"Ringstr.","postalCode":"14806","locality":"Bad Belzig","municipality":{"key":"12069020","name":"Bad Belzig, Stadt","type":"Stadt"},"district":{"key":"12069","name":"Potsdam-Mittelmark","type":"Landkreis"},"federalState":{"key":"12","name":"Brandenburg"}},{"name":"Ritterhuder Str.","postalCode":"14806","locality":"Bad Belzig","municipality":{"key":"12069020","name":"Bad Belzig, Stadt","type":"Stadt"},"district":{"key":"12069","name":"Potsdam-Mittelmark","type":"Landkreis"},"federalState":{"key":"12","name":"Brandenburg"}},{"name":"Rosa-Luxemburg-Str.","postalCode":"14806","locality":"Bad Belzig","municipality":{"key":"12069020","name":"Bad Belzig, Stadt","type":"Stadt"},"district":{"key":"12069","name":"Potsdam-Mittelmark","type":"Landkreis"},"federalState":{"key":"12","name":"Brandenburg"}},{"name":"Rothebacher Weg","postalCode":"14806","locality":"Bad Belzig","municipality":{"key":"12069020","name":"Bad Belzig, Stadt","type":"Stadt"},"district":{"key":"12069","name":"Potsdam-Mittelmark","type":"Landkreis"},"federalState":{"key":"12","name":"Brandenburg"}},{"name":"Rudolf-Breitscheid-Str.","postalCode":"14806","locality":"Bad Belzig","municipality":{"key":"12069020","name":"Bad Belzig, Stadt","type":"Stadt"},"district":{"key":"12069","name":"Potsdam-Mittelmark","type":"Landkreis"},"federalState":{"key":"12","name":"Brandenburg"}},{"name":"Sandberger Str.","postalCode":"14806","locality":"Bad Belzig","municipality":{"key":"12069020","name":"Bad Belzig, Stadt","type":"Stadt"},"district":{"key":"12069","name":"Potsdam-Mittelmark","type":"Landkreis"},"federalState":{"key":"12","name":"Brandenburg"}},{"name":"Scheunenweg","postalCode":"14806","locality":"Bad Belzig","municipality":{"key":"12069020","name":"Bad Belzig, Stadt","type":"Stadt"},"district":{"key":"12069","name":"Potsdam-Mittelmark","type":"Landkreis"},"federalState":{"key":"12","name":"Brandenburg"}},{"name":"Schlosspark","postalCode":"14806","locality":"Bad Belzig","municipality":{"key":"12069020","name":"Bad Belzig, Stadt","type":"Stadt"},"district":{"key":"12069","name":"Potsdam-Mittelmark","type":"Landkreis"},"federalState":{"key":"12","name":"Brandenburg"}},{"name":"Schloßstr.","postalCode":"14806","locality":"Bad Belzig","municipality":{"key":"12069020","name":"Bad Belzig, Stadt","type":"Stadt"},"district":{"key":"12069","name":"Potsdam-Mittelmark","type":"Landkreis"},"federalState":{"key":"12","name":"Brandenburg"}},{"name":"Schloßtor","postalCode":"14806","locality":"Bad Belzig","municipality":{"key":"12069020","name":"Bad Belzig, Stadt","type":"Stadt"},"district":{"key":"12069","name":"Potsdam-Mittelmark","type":"Landkreis"},"federalState":{"key":"12","name":"Brandenburg"}},{"name":"Schulstr.","postalCode":"14806","locality":"Bad Belzig","municipality":{"key":"12069020","name":"Bad Belzig, Stadt","type":"Stadt"},"district":{"key":"12069","name":"Potsdam-Mittelmark","type":"Landkreis"},"federalState":{"key":"12","name":"Brandenburg"}},{"name":"Schwanebecker Weg","postalCode":"14806","locality":"Bad Belzig","municipality":{"key":"12069020","name":"Bad Belzig, Stadt","type":"Stadt"},"district":{"key":"12069","name":"Potsdam-Mittelmark","type":"Landkreis"},"federalState":{"key":"12","name":"Brandenburg"}},{"name":"Stadionweg","postalCode":"14806","locality":"Bad Belzig","municipality":{"key":"12069020","name":"Bad Belzig, Stadt","type":"Stadt"},"district":{"key":"12069","name":"Potsdam-Mittelmark","type":"Landkreis"},"federalState":{"key":"12","name":"Brandenburg"}},{"name":"Steinstr.","postalCode":"14806","locality":"Bad Belzig","municipality":{"key":"12069020","name":"Bad Belzig, Stadt","type":"Stadt"},"district":{"key":"12069","name":"Potsdam-Mittelmark","type":"Landkreis"},"federalState":{"key":"12","name":"Brandenburg"}},{"name":"Str. der Einheit","postalCode":"14806","locality":"Bad Belzig","municipality":{"key":"12069020","name":"Bad Belzig, Stadt","type":"Stadt"},"district":{"key":"12069","name":"Potsdam-Mittelmark","type":"Landkreis"},"federalState":{"key":"12","name":"Brandenburg"}},{"name":"Str. der Freundschaft","postalCode":"14806","locality":"Bad Belzig","municipality":{"key":"12069020","name":"Bad Belzig, Stadt","type":"Stadt"},"district":{"key":"12069","name":"Potsdam-Mittelmark","type":"Landkreis"},"federalState":{"key":"12","name":"Brandenburg"}},{"name":"Str. der Jugend","postalCode":"14806","locality":"Bad Belzig","municipality":{"key":"12069020","name":"Bad Belzig, Stadt","type":"Stadt"},"district":{"key":"12069","name":"Potsdam-Mittelmark","type":"Landkreis"},"federalState":{"key":"12","name":"Brandenburg"}},{"name":"Teichstr.","postalCode":"14806","locality":"Bad Belzig","municipality":{"key":"12069020","name":"Bad Belzig, Stadt","type":"Stadt"},"district":{"key":"12069","name":"Potsdam-Mittelmark","type":"Landkreis"},"federalState":{"key":"12","name":"Brandenburg"}},{"name":"Töpferstr.","postalCode":"14806","locality":"Bad Belzig","municipality":{"key":"12069020","name":"Bad Belzig, Stadt","type":"Stadt"},"district":{"key":"12069","name":"Potsdam-Mittelmark","type":"Landkreis"},"federalState":{"key":"12","name":"Brandenburg"}},{"name":"Verlorenwasser","postalCode":"14806","locality":"Bad Belzig","municipality":{"key":"12069020","name":"Bad Belzig, Stadt","type":"Stadt"},"district":{"key":"12069","name":"Potsdam-Mittelmark","type":"Landkreis"},"federalState":{"key":"12","name":"Brandenburg"}},{"name":"Waldfrieden","postalCode":"14806","locality":"Bad Belzig","municipality":{"key":"12069020","name":"Bad Belzig, Stadt","type":"Stadt"},"district":{"key":"12069","name":"Potsdam-Mittelmark","type":"Landkreis"},"federalState":{"key":"12","name":"Brandenburg"}},{"name":"Waldsiedlung","postalCode":"14806","locality":"Bad Belzig","municipality":{"key":"12069020","name":"Bad Belzig, Stadt","type":"Stadt"},"district":{"key":"12069","name":"Potsdam-Mittelmark","type":"Landkreis"},"federalState":{"key":"12","name":"Brandenburg"}},{"name":"Wallgasse","postalCode":"14806","locality":"Bad Belzig","municipality":{"key":"12069020","name":"Bad Belzig, Stadt","type":"Stadt"},"district":{"key":"12069","name":"Potsdam-Mittelmark","type":"Landkreis"},"federalState":{"key":"12","name":"Brandenburg"}},{"name":"Wallstr.","postalCode":"14806","locality":"Bad Belzig","municipality":{"key":"12069020","name":"Bad Belzig, Stadt","type":"Stadt"},"district":{"key":"12069","name":"Potsdam-Mittelmark","type":"Landkreis"},"federalState":{"key":"12","name":"Brandenburg"}},{"name":"Weißdornweg","postalCode":"14806","locality":"Bad Belzig","municipality":{"key":"12069020","name":"Bad Belzig, Stadt","type":"Stadt"},"district":{"key":"12069","name":"Potsdam-Mittelmark","type":"Landkreis"},"federalState":{"key":"12","name":"Brandenburg"}},{"name":"Weitzgrunder Allee","postalCode":"14806","locality":"Bad Belzig","municipality":{"key":"12069020","name":"Bad Belzig, Stadt","type":"Stadt"},"district":{"key":"12069","name":"Potsdam-Mittelmark","type":"Landkreis"},"federalState":{"key":"12","name":"Brandenburg"}},{"name":"Weitzgrunder Str.","postalCode":"14806","locality":"Bad Belzig","municipality":{"key":"12069020","name":"Bad Belzig, Stadt","type":"Stadt"},"district":{"key":"12069","name":"Potsdam-Mittelmark","type":"Landkreis"},"federalState":{"key":"12","name":"Brandenburg"}},{"name":"Weitzgrunder Weg","postalCode":"14806","locality":"Bad Belzig","municipality":{"key":"12069020","name":"Bad Belzig, Stadt","type":"Stadt"},"district":{"key":"12069","name":"Potsdam-Mittelmark","type":"Landkreis"},"federalState":{"key":"12","name":"Brandenburg"}},{"name":"Werbiger Dorfstr.","postalCode":"14806","locality":"Bad Belzig","municipality":{"key":"12069020","name":"Bad Belzig, Stadt","type":"Stadt"},"district":{"key":"12069","name":"Potsdam-Mittelmark","type":"Landkreis"},"federalState":{"key":"12","name":"Brandenburg"}},{"name":"Wiesenburger Str.","postalCode":"14806","locality":"Bad Belzig","municipality":{"key":"12069020","name":"Bad Belzig, Stadt","type":"Stadt"},"district":{"key":"12069","name":"Potsdam-Mittelmark","type":"Landkreis"},"federalState":{"key":"12","name":"Brandenburg"}},{"name":"Wiesenburger Weg","postalCode":"14806","locality":"Bad Belzig","municipality":{"key":"12069020","name":"Bad Belzig, Stadt","type":"Stadt"},"district":{"key":"12069","name":"Potsdam-Mittelmark","type":"Landkreis"},"federalState":{"key":"12","name":"Brandenburg"}},{"name":"Wittenberger Str.","postalCode":"14806","locality":"Bad Belzig","municipality":{"key":"12069020","name":"Bad Belzig, Stadt","type":"Stadt"},"district":{"key":"12069","name":"Potsdam-Mittelmark","type":"Landkreis"},"federalState":{"key":"12","name":"Brandenburg"}},{"name":"Wolliner Str.","postalCode":"14806","locality":"Bad Belzig","municipality":{"key":"12069020","name":"Bad Belzig, Stadt","type":"Stadt"},"district":{"key":"12069","name":"Potsdam-Mittelmark","type":"Landkreis"},"federalState":{"key":"12","name":"Brandenburg"}},{"name":"Zum Kirschberg","postalCode":"14806","locality":"Bad Belzig","municipality":{"key":"12069020","name":"Bad Belzig, Stadt","type":"Stadt"},"district":{"key":"12069","name":"Potsdam-Mittelmark","type":"Landkreis"},"federalState":{"key":"12","name":"Brandenburg"}},{"name":"Zur Lüsser Brücke","postalCode":"14806","locality":"Bad Belzig","municipality":{"key":"12069020","name":"Bad Belzig, Stadt","type":"Stadt"},"district":{"key":"12069","name":"Potsdam-Mittelmark","type":"Landkreis"},"federalState":{"key":"12","name":"Brandenburg"}},]