[{"key":"10121946","name":"Abendweg","postalCode":"6373","locality":"Ennetbürgen","commune":{"key":"1505","name":"Ennetbürgen","shortName":"Ennetbürgen"},"district":{"key":"700","name":"Kanton Nidwalden"},"canton":{"key":"7","code":"NW","name":"Nidwalden"},"status":"Real"},{"key":"10020247","name":"Allmendring","postalCode":"6373","locality":"Ennetbürgen","commune":{"key":"1505","name":"Ennetbürgen","shortName":"Ennetbürgen"},"district":{"key":"700","name":"Kanton Nidwalden"},"canton":{"key":"7","code":"NW","name":"Nidwalden"},"status":"Real"},{"key":"10084678","name":"Allmendstrasse","postalCode":"6373","locality":"Ennetbürgen","commune":{"key":"1505","name":"Ennetbürgen","shortName":"Ennetbürgen"},"district":{"key":"700","name":"Kanton Nidwalden"},"canton":{"key":"7","code":"NW","name":"Nidwalden"},"status":"Real"},{"key":"10070039","name":"Alpenstrasse","postalCode":"6373","locality":"Ennetbürgen","commune":{"key":"1505","name":"Ennetbürgen","shortName":"Ennetbürgen"},"district":{"key":"700","name":"Kanton Nidwalden"},"canton":{"key":"7","code":"NW","name":"Nidwalden"},"status":"Real"},{"key":"10182403","name":"Alte Gasse","postalCode":"6373","locality":"Ennetbürgen","commune":{"key":"1505","name":"Ennetbürgen","shortName":"Ennetbürgen"},"district":{"key":"700","name":"Kanton Nidwalden"},"canton":{"key":"7","code":"NW","name":"Nidwalden"},"status":"Real"},{"key":"10020248","name":"Alträtsch","postalCode":"6373","locality":"Ennetbürgen","commune":{"key":"1505","name":"Ennetbürgen","shortName":"Ennetbürgen"},"district":{"key":"700","name":"Kanton Nidwalden"},"canton":{"key":"7","code":"NW","name":"Nidwalden"},"status":"Real"},{"key":"10160820","name":"Am Bach","postalCode":"6373","locality":"Ennetbürgen","commune":{"key":"1505","name":"Ennetbürgen","shortName":"Ennetbürgen"},"district":{"key":"700","name":"Kanton Nidwalden"},"canton":{"key":"7","code":"NW","name":"Nidwalden"},"status":"Real"},{"key":"10129772","name":"Am Scheidgraben","postalCode":"6373","locality":"Ennetbürgen","commune":{"key":"1505","name":"Ennetbürgen","shortName":"Ennetbürgen"},"district":{"key":"700","name":"Kanton Nidwalden"},"canton":{"key":"7","code":"NW","name":"Nidwalden"},"status":"Real"},{"key":"10104877","name":"Aumühlestrasse","postalCode":"6373","locality":"Ennetbürgen","commune":{"key":"1505","name":"Ennetbürgen","shortName":"Ennetbürgen"},"district":{"key":"700","name":"Kanton Nidwalden"},"canton":{"key":"7","code":"NW","name":"Nidwalden"},"status":"Real"},{"key":"10084679","name":"Baumgarten","postalCode":"6373","locality":"Ennetbürgen","commune":{"key":"1505","name":"Ennetbürgen","shortName":"Ennetbürgen"},"district":{"key":"700","name":"Kanton Nidwalden"},"canton":{"key":"7","code":"NW","name":"Nidwalden"},"status":"Real"},{"key":"10020249","name":"Birchen","postalCode":"6373","locality":"Ennetbürgen","commune":{"key":"1505","name":"Ennetbürgen","shortName":"Ennetbürgen"},"district":{"key":"700","name":"Kanton Nidwalden"},"canton":{"key":"7","code":"NW","name":"Nidwalden"},"status":"Real"},{"key":"10020250","name":"Bitzistrasse","postalCode":"6373","locality":"Ennetbürgen","commune":{"key":"1505","name":"Ennetbürgen","shortName":"Ennetbürgen"},"district":{"key":"700","name":"Kanton Nidwalden"},"canton":{"key":"7","code":"NW","name":"Nidwalden"},"status":"Real"},{"key":"10020251","name":"Blattengstellen","postalCode":"6373","locality":"Ennetbürgen","commune":{"key":"1505","name":"Ennetbürgen","shortName":"Ennetbürgen"},"district":{"key":"700","name":"Kanton Nidwalden"},"canton":{"key":"7","code":"NW","name":"Nidwalden"},"status":"Real"},{"key":"10084680","name":"Blumattstrasse","postalCode":"6373","locality":"Ennetbürgen","commune":{"key":"1505","name":"Ennetbürgen","shortName":"Ennetbürgen"},"district":{"key":"700","name":"Kanton Nidwalden"},"canton":{"key":"7","code":"NW","name":"Nidwalden"},"status":"Real"},{"key":"10187828","name":"Blumenweg","postalCode":"6373","locality":"Ennetbürgen","commune":{"key":"1505","name":"Ennetbürgen","shortName":"Ennetbürgen"},"district":{"key":"700","name":"Kanton Nidwalden"},"canton":{"key":"7","code":"NW","name":"Nidwalden"},"status":"Real"},{"key":"10020252","name":"Bodenhostatt","postalCode":"6373","locality":"Ennetbürgen","commune":{"key":"1505","name":"Ennetbürgen","shortName":"Ennetbürgen"},"district":{"key":"700","name":"Kanton Nidwalden"},"canton":{"key":"7","code":"NW","name":"Nidwalden"},"status":"Real"},{"key":"10057109","name":"Breitholz","postalCode":"6373","locality":"Ennetbürgen","commune":{"key":"1505","name":"Ennetbürgen","shortName":"Ennetbürgen"},"district":{"key":"700","name":"Kanton Nidwalden"},"canton":{"key":"7","code":"NW","name":"Nidwalden"},"status":"Real"},{"key":"10212232","name":"Buochlistrasse","postalCode":"6373","locality":"Ennetbürgen","commune":{"key":"1505","name":"Ennetbürgen","shortName":"Ennetbürgen"},"district":{"key":"700","name":"Kanton Nidwalden"},"canton":{"key":"7","code":"NW","name":"Nidwalden"},"status":"Real"},{"key":"10070040","name":"Buochserstrasse","postalCode":"6373","locality":"Ennetbürgen","commune":{"key":"1505","name":"Ennetbürgen","shortName":"Ennetbürgen"},"district":{"key":"700","name":"Kanton Nidwalden"},"canton":{"key":"7","code":"NW","name":"Nidwalden"},"status":"Real"},{"key":"10020254","name":"Bürgenstockstrasse","postalCode":"6373","locality":"Ennetbürgen","commune":{"key":"1505","name":"Ennetbürgen","shortName":"Ennetbürgen"},"district":{"key":"700","name":"Kanton Nidwalden"},"canton":{"key":"7","code":"NW","name":"Nidwalden"},"status":"Real"},{"key":"10020555","name":"Dössli","postalCode":"6373","locality":"Ennetbürgen","commune":{"key":"1505","name":"Ennetbürgen","shortName":"Ennetbürgen"},"district":{"key":"700","name":"Kanton Nidwalden"},"canton":{"key":"7","code":"NW","name":"Nidwalden"},"status":"Real"},{"key":"10070041","name":"Ennetbürgerstrasse","postalCode":"6373","locality":"Ennetbürgen","commune":{"key":"1505","name":"Ennetbürgen","shortName":"Ennetbürgen"},"district":{"key":"700","name":"Kanton Nidwalden"},"canton":{"key":"7","code":"NW","name":"Nidwalden"},"status":"Real"},{"key":"10084959","name":"Etschenried","postalCode":"6373","locality":"Ennetbürgen","commune":{"key":"1505","name":"Ennetbürgen","shortName":"Ennetbürgen"},"district":{"key":"700","name":"Kanton Nidwalden"},"canton":{"key":"7","code":"NW","name":"Nidwalden"},"status":"Real"},{"key":"10020255","name":"Feldkreuz","postalCode":"6373","locality":"Ennetbürgen","commune":{"key":"1505","name":"Ennetbürgen","shortName":"Ennetbürgen"},"district":{"key":"700","name":"Kanton Nidwalden"},"canton":{"key":"7","code":"NW","name":"Nidwalden"},"status":"Real"},{"key":"10104878","name":"Feldstrasse","postalCode":"6373","locality":"Ennetbürgen","commune":{"key":"1505","name":"Ennetbürgen","shortName":"Ennetbürgen"},"district":{"key":"700","name":"Kanton Nidwalden"},"canton":{"key":"7","code":"NW","name":"Nidwalden"},"status":"Real"},{"key":"10020256","name":"Flugfeld","postalCode":"6373","locality":"Ennetbürgen","commune":{"key":"1505","name":"Ennetbürgen","shortName":"Ennetbürgen"},"district":{"key":"700","name":"Kanton Nidwalden"},"canton":{"key":"7","code":"NW","name":"Nidwalden"},"status":"Real"},{"key":"10020257","name":"Friedenstrasse","postalCode":"6373","locality":"Ennetbürgen","commune":{"key":"1505","name":"Ennetbürgen","shortName":"Ennetbürgen"},"district":{"key":"700","name":"Kanton Nidwalden"},"canton":{"key":"7","code":"NW","name":"Nidwalden"},"status":"Real"},{"key":"10057110","name":"Frongadmen","postalCode":"6373","locality":"Ennetbürgen","commune":{"key":"1505","name":"Ennetbürgen","shortName":"Ennetbürgen"},"district":{"key":"700","name":"Kanton Nidwalden"},"canton":{"key":"7","code":"NW","name":"Nidwalden"},"status":"Real"},{"key":"10182404","name":"Grossbiel","postalCode":"6373","locality":"Ennetbürgen","commune":{"key":"1505","name":"Ennetbürgen","shortName":"Ennetbürgen"},"district":{"key":"700","name":"Kanton Nidwalden"},"canton":{"key":"7","code":"NW","name":"Nidwalden"},"status":"Real"},{"key":"10057111","name":"Grossbielweid","postalCode":"6373","locality":"Ennetbürgen","commune":{"key":"1505","name":"Ennetbürgen","shortName":"Ennetbürgen"},"district":{"key":"700","name":"Kanton Nidwalden"},"canton":{"key":"7","code":"NW","name":"Nidwalden"},"status":"Real"},{"key":"10020258","name":"Grossmatt","postalCode":"6373","locality":"Ennetbürgen","commune":{"key":"1505","name":"Ennetbürgen","shortName":"Ennetbürgen"},"district":{"key":"700","name":"Kanton Nidwalden"},"canton":{"key":"7","code":"NW","name":"Nidwalden"},"status":"Real"},{"key":"10109117","name":"Halten","postalCode":"6373","locality":"Ennetbürgen","commune":{"key":"1505","name":"Ennetbürgen","shortName":"Ennetbürgen"},"district":{"key":"700","name":"Kanton Nidwalden"},"canton":{"key":"7","code":"NW","name":"Nidwalden"},"status":"Real"},{"key":"10167988","name":"Hammetschwand","postalCode":"6373","locality":"Ennetbürgen","commune":{"key":"1505","name":"Ennetbürgen","shortName":"Ennetbürgen"},"district":{"key":"700","name":"Kanton Nidwalden"},"canton":{"key":"7","code":"NW","name":"Nidwalden"},"status":"Real"},{"key":"10084960","name":"Hangstrasse","postalCode":"6373","locality":"Ennetbürgen","commune":{"key":"1505","name":"Ennetbürgen","shortName":"Ennetbürgen"},"district":{"key":"700","name":"Kanton Nidwalden"},"canton":{"key":"7","code":"NW","name":"Nidwalden"},"status":"Real"},{"key":"10070042","name":"Hasli","postalCode":"6373","locality":"Ennetbürgen","commune":{"key":"1505","name":"Ennetbürgen","shortName":"Ennetbürgen"},"district":{"key":"700","name":"Kanton Nidwalden"},"canton":{"key":"7","code":"NW","name":"Nidwalden"},"status":"Real"},{"key":"10070043","name":"Heggli","postalCode":"6373","locality":"Ennetbürgen","commune":{"key":"1505","name":"Ennetbürgen","shortName":"Ennetbürgen"},"district":{"key":"700","name":"Kanton Nidwalden"},"canton":{"key":"7","code":"NW","name":"Nidwalden"},"status":"Real"},{"key":"10020259","name":"Hegglistrasse","postalCode":"6373","locality":"Ennetbürgen","commune":{"key":"1505","name":"Ennetbürgen","shortName":"Ennetbürgen"},"district":{"key":"700","name":"Kanton Nidwalden"},"canton":{"key":"7","code":"NW","name":"Nidwalden"},"status":"Real"},{"key":"10057112","name":"Helgenried","postalCode":"6373","locality":"Ennetbürgen","commune":{"key":"1505","name":"Ennetbürgen","shortName":"Ennetbürgen"},"district":{"key":"700","name":"Kanton Nidwalden"},"canton":{"key":"7","code":"NW","name":"Nidwalden"},"status":"Real"},{"key":"10020260","name":"Herdern","postalCode":"6373","locality":"Ennetbürgen","commune":{"key":"1505","name":"Ennetbürgen","shortName":"Ennetbürgen"},"district":{"key":"700","name":"Kanton Nidwalden"},"canton":{"key":"7","code":"NW","name":"Nidwalden"},"status":"Real"},{"key":"10020261","name":"Hinterbiel","postalCode":"6373","locality":"Ennetbürgen","commune":{"key":"1505","name":"Ennetbürgen","shortName":"Ennetbürgen"},"district":{"key":"700","name":"Kanton Nidwalden"},"canton":{"key":"7","code":"NW","name":"Nidwalden"},"status":"Real"},{"key":"10070044","name":"Hinterblatti","postalCode":"6373","locality":"Ennetbürgen","commune":{"key":"1505","name":"Ennetbürgen","shortName":"Ennetbürgen"},"district":{"key":"700","name":"Kanton Nidwalden"},"canton":{"key":"7","code":"NW","name":"Nidwalden"},"status":"Real"},{"key":"10121555","name":"Hinterbreiten","postalCode":"6373","locality":"Ennetbürgen","commune":{"key":"1505","name":"Ennetbürgen","shortName":"Ennetbürgen"},"district":{"key":"700","name":"Kanton Nidwalden"},"canton":{"key":"7","code":"NW","name":"Nidwalden"},"status":"Real"},{"key":"10130534","name":"Hinteregg","postalCode":"6373","locality":"Ennetbürgen","commune":{"key":"1505","name":"Ennetbürgen","shortName":"Ennetbürgen"},"district":{"key":"700","name":"Kanton Nidwalden"},"canton":{"key":"7","code":"NW","name":"Nidwalden"},"status":"Real"},{"key":"10121947","name":"Hinter Grosshostatt","postalCode":"6373","locality":"Ennetbürgen","commune":{"key":"1505","name":"Ennetbürgen","shortName":"Ennetbürgen"},"district":{"key":"700","name":"Kanton Nidwalden"},"canton":{"key":"7","code":"NW","name":"Nidwalden"},"status":"Real"},{"key":"10167989","name":"Hinter Lussmani","postalCode":"6373","locality":"Ennetbürgen","commune":{"key":"1505","name":"Ennetbürgen","shortName":"Ennetbürgen"},"district":{"key":"700","name":"Kanton Nidwalden"},"canton":{"key":"7","code":"NW","name":"Nidwalden"},"status":"Real"},{"key":"10173258","name":"Hinter Spis","postalCode":"6373","locality":"Ennetbürgen","commune":{"key":"1505","name":"Ennetbürgen","shortName":"Ennetbürgen"},"district":{"key":"700","name":"Kanton Nidwalden"},"canton":{"key":"7","code":"NW","name":"Nidwalden"},"status":"Real"},{"key":"10084961","name":"Hirsacher","postalCode":"6373","locality":"Ennetbürgen","commune":{"key":"1505","name":"Ennetbürgen","shortName":"Ennetbürgen"},"district":{"key":"700","name":"Kanton Nidwalden"},"canton":{"key":"7","code":"NW","name":"Nidwalden"},"status":"Real"},{"key":"10070045","name":"Hofurlistrasse","postalCode":"6373","locality":"Ennetbürgen","commune":{"key":"1505","name":"Ennetbürgen","shortName":"Ennetbürgen"},"district":{"key":"700","name":"Kanton Nidwalden"},"canton":{"key":"7","code":"NW","name":"Nidwalden"},"status":"Real"},{"key":"10182405","name":"Holzeli","postalCode":"6373","locality":"Ennetbürgen","commune":{"key":"1505","name":"Ennetbürgen","shortName":"Ennetbürgen"},"district":{"key":"700","name":"Kanton Nidwalden"},"canton":{"key":"7","code":"NW","name":"Nidwalden"},"status":"Real"},{"key":"10020262","name":"Holzen","postalCode":"6373","locality":"Ennetbürgen","commune":{"key":"1505","name":"Ennetbürgen","shortName":"Ennetbürgen"},"district":{"key":"700","name":"Kanton Nidwalden"},"canton":{"key":"7","code":"NW","name":"Nidwalden"},"status":"Real"},{"key":"10104002","name":"Honegg","postalCode":"6373","locality":"Ennetbürgen","commune":{"key":"1505","name":"Ennetbürgen","shortName":"Ennetbürgen"},"district":{"key":"700","name":"Kanton Nidwalden"},"canton":{"key":"7","code":"NW","name":"Nidwalden"},"status":"Real"},{"key":"10187829","name":"Höpperli","postalCode":"6373","locality":"Ennetbürgen","commune":{"key":"1505","name":"Ennetbürgen","shortName":"Ennetbürgen"},"district":{"key":"700","name":"Kanton Nidwalden"},"canton":{"key":"7","code":"NW","name":"Nidwalden"},"status":"Real"},{"key":"10020263","name":"Hostatt","postalCode":"6373","locality":"Ennetbürgen","commune":{"key":"1505","name":"Ennetbürgen","shortName":"Ennetbürgen"},"district":{"key":"700","name":"Kanton Nidwalden"},"canton":{"key":"7","code":"NW","name":"Nidwalden"},"status":"Real"},{"key":"10173503","name":"Hostettli","postalCode":"6373","locality":"Ennetbürgen","commune":{"key":"1505","name":"Ennetbürgen","shortName":"Ennetbürgen"},"district":{"key":"700","name":"Kanton Nidwalden"},"canton":{"key":"7","code":"NW","name":"Nidwalden"},"status":"Real"},{"key":"10104879","name":"Huseli","postalCode":"6373","locality":"Ennetbürgen","commune":{"key":"1505","name":"Ennetbürgen","shortName":"Ennetbürgen"},"district":{"key":"700","name":"Kanton Nidwalden"},"canton":{"key":"7","code":"NW","name":"Nidwalden"},"status":"Real"},{"key":"10057116","name":"Husen","postalCode":"6373","locality":"Ennetbürgen","commune":{"key":"1505","name":"Ennetbürgen","shortName":"Ennetbürgen"},"district":{"key":"700","name":"Kanton Nidwalden"},"canton":{"key":"7","code":"NW","name":"Nidwalden"},"status":"Real"},{"key":"10084962","name":"Hüslen","postalCode":"6373","locality":"Ennetbürgen","commune":{"key":"1505","name":"Ennetbürgen","shortName":"Ennetbürgen"},"district":{"key":"700","name":"Kanton Nidwalden"},"canton":{"key":"7","code":"NW","name":"Nidwalden"},"status":"Real"},{"key":"10108964","name":"Im Baumgarten","postalCode":"6373","locality":"Ennetbürgen","commune":{"key":"1505","name":"Ennetbürgen","shortName":"Ennetbürgen"},"district":{"key":"700","name":"Kanton Nidwalden"},"canton":{"key":"7","code":"NW","name":"Nidwalden"},"status":"Real"},{"key":"10070046","name":"Juch","postalCode":"6373","locality":"Ennetbürgen","commune":{"key":"1505","name":"Ennetbürgen","shortName":"Ennetbürgen"},"district":{"key":"700","name":"Kanton Nidwalden"},"canton":{"key":"7","code":"NW","name":"Nidwalden"},"status":"Real"},{"key":"10057113","name":"Juchweid","postalCode":"6373","locality":"Ennetbürgen","commune":{"key":"1505","name":"Ennetbürgen","shortName":"Ennetbürgen"},"district":{"key":"700","name":"Kanton Nidwalden"},"canton":{"key":"7","code":"NW","name":"Nidwalden"},"status":"Real"},{"key":"10057114","name":"Kastell","postalCode":"6373","locality":"Ennetbürgen","commune":{"key":"1505","name":"Ennetbürgen","shortName":"Ennetbürgen"},"district":{"key":"700","name":"Kanton Nidwalden"},"canton":{"key":"7","code":"NW","name":"Nidwalden"},"status":"Real"},{"key":"10212238","name":"Kirchweg","postalCode":"6373","locality":"Ennetbürgen","commune":{"key":"1505","name":"Ennetbürgen","shortName":"Ennetbürgen"},"district":{"key":"700","name":"Kanton Nidwalden"},"canton":{"key":"7","code":"NW","name":"Nidwalden"},"status":"Real"},{"key":"10070047","name":"Kirschetmatte","postalCode":"6373","locality":"Ennetbürgen","commune":{"key":"1505","name":"Ennetbürgen","shortName":"Ennetbürgen"},"district":{"key":"700","name":"Kanton Nidwalden"},"canton":{"key":"7","code":"NW","name":"Nidwalden"},"status":"Real"},{"key":"10122387","name":"Kleinbiel","postalCode":"6373","locality":"Ennetbürgen","commune":{"key":"1505","name":"Ennetbürgen","shortName":"Ennetbürgen"},"district":{"key":"700","name":"Kanton Nidwalden"},"canton":{"key":"7","code":"NW","name":"Nidwalden"},"status":"Real"},{"key":"10182406","name":"Kleinmatt","postalCode":"6373","locality":"Ennetbürgen","commune":{"key":"1505","name":"Ennetbürgen","shortName":"Ennetbürgen"},"district":{"key":"700","name":"Kanton Nidwalden"},"canton":{"key":"7","code":"NW","name":"Nidwalden"},"status":"Real"},{"key":"10020264","name":"Klewenstrasse","postalCode":"6373","locality":"Ennetbürgen","commune":{"key":"1505","name":"Ennetbürgen","shortName":"Ennetbürgen"},"district":{"key":"700","name":"Kanton Nidwalden"},"canton":{"key":"7","code":"NW","name":"Nidwalden"},"status":"Real"},{"key":"10187830","name":"Kreuzmatte","postalCode":"6373","locality":"Ennetbürgen","commune":{"key":"1505","name":"Ennetbürgen","shortName":"Ennetbürgen"},"district":{"key":"700","name":"Kanton Nidwalden"},"canton":{"key":"7","code":"NW","name":"Nidwalden"},"status":"Real"},{"key":"10084963","name":"Kropfgasse","postalCode":"6373","locality":"Ennetbürgen","commune":{"key":"1505","name":"Ennetbürgen","shortName":"Ennetbürgen"},"district":{"key":"700","name":"Kanton Nidwalden"},"canton":{"key":"7","code":"NW","name":"Nidwalden"},"status":"Real"},{"key":"10171202","name":"Kropfgasshaus","postalCode":"6373","locality":"Ennetbürgen","commune":{"key":"1505","name":"Ennetbürgen","shortName":"Ennetbürgen"},"district":{"key":"700","name":"Kanton Nidwalden"},"canton":{"key":"7","code":"NW","name":"Nidwalden"},"status":"Real"},{"key":"10171203","name":"Loh","postalCode":"6373","locality":"Ennetbürgen","commune":{"key":"1505","name":"Ennetbürgen","shortName":"Ennetbürgen"},"district":{"key":"700","name":"Kanton Nidwalden"},"canton":{"key":"7","code":"NW","name":"Nidwalden"},"status":"Real"},{"key":"10020265","name":"Massholtern","postalCode":"6373","locality":"Ennetbürgen","commune":{"key":"1505","name":"Ennetbürgen","shortName":"Ennetbürgen"},"district":{"key":"700","name":"Kanton Nidwalden"},"canton":{"key":"7","code":"NW","name":"Nidwalden"},"status":"Real"},{"key":"10020266","name":"Mattgrat","postalCode":"6373","locality":"Ennetbürgen","commune":{"key":"1505","name":"Ennetbürgen","shortName":"Ennetbürgen"},"district":{"key":"700","name":"Kanton Nidwalden"},"canton":{"key":"7","code":"NW","name":"Nidwalden"},"status":"Real"},{"key":"10104003","name":"Mittlere Oeltrotte","postalCode":"6373","locality":"Ennetbürgen","commune":{"key":"1505","name":"Ennetbürgen","shortName":"Ennetbürgen"},"district":{"key":"700","name":"Kanton Nidwalden"},"canton":{"key":"7","code":"NW","name":"Nidwalden"},"status":"Real"},{"key":"10020267","name":"Mürgg","postalCode":"6373","locality":"Ennetbürgen","commune":{"key":"1505","name":"Ennetbürgen","shortName":"Ennetbürgen"},"district":{"key":"700","name":"Kanton Nidwalden"},"canton":{"key":"7","code":"NW","name":"Nidwalden"},"status":"Real"},{"key":"10084964","name":"Nasmannsbach","postalCode":"6373","locality":"Ennetbürgen","commune":{"key":"1505","name":"Ennetbürgen","shortName":"Ennetbürgen"},"district":{"key":"700","name":"Kanton Nidwalden"},"canton":{"key":"7","code":"NW","name":"Nidwalden"},"status":"Real"},{"key":"10070049","name":"Neuhaus","postalCode":"6373","locality":"Ennetbürgen","commune":{"key":"1505","name":"Ennetbürgen","shortName":"Ennetbürgen"},"district":{"key":"700","name":"Kanton Nidwalden"},"canton":{"key":"7","code":"NW","name":"Nidwalden"},"status":"Real"},{"key":"10057115","name":"Niedermättli","postalCode":"6373","locality":"Ennetbürgen","commune":{"key":"1505","name":"Ennetbürgen","shortName":"Ennetbürgen"},"district":{"key":"700","name":"Kanton Nidwalden"},"canton":{"key":"7","code":"NW","name":"Nidwalden"},"status":"Real"},{"key":"10020268","name":"Niederstein","postalCode":"6373","locality":"Ennetbürgen","commune":{"key":"1505","name":"Ennetbürgen","shortName":"Ennetbürgen"},"district":{"key":"700","name":"Kanton Nidwalden"},"canton":{"key":"7","code":"NW","name":"Nidwalden"},"status":"Real"},{"key":"10084965","name":"Oberbaumgarten","postalCode":"6373","locality":"Ennetbürgen","commune":{"key":"1505","name":"Ennetbürgen","shortName":"Ennetbürgen"},"district":{"key":"700","name":"Kanton Nidwalden"},"canton":{"key":"7","code":"NW","name":"Nidwalden"},"status":"Real"},{"key":"10180587","name":"Oberboden","postalCode":"6373","locality":"Ennetbürgen","commune":{"key":"1505","name":"Ennetbürgen","shortName":"Ennetbürgen"},"district":{"key":"700","name":"Kanton Nidwalden"},"canton":{"key":"7","code":"NW","name":"Nidwalden"},"status":"Real"},{"key":"10020269","name":"Ober Honegg","postalCode":"6373","locality":"Ennetbürgen","commune":{"key":"1505","name":"Ennetbürgen","shortName":"Ennetbürgen"},"district":{"key":"700","name":"Kanton Nidwalden"},"canton":{"key":"7","code":"NW","name":"Nidwalden"},"status":"Real"},{"key":"10121948","name":"Oberleh","postalCode":"6373","locality":"Ennetbürgen","commune":{"key":"1505","name":"Ennetbürgen","shortName":"Ennetbürgen"},"district":{"key":"700","name":"Kanton Nidwalden"},"canton":{"key":"7","code":"NW","name":"Nidwalden"},"status":"Real"},{"key":"10177076","name":"Ober Massholtern","postalCode":"6373","locality":"Ennetbürgen","commune":{"key":"1505","name":"Ennetbürgen","shortName":"Ennetbürgen"},"district":{"key":"700","name":"Kanton Nidwalden"},"canton":{"key":"7","code":"NW","name":"Nidwalden"},"status":"Real"},{"key":"10057117","name":"Obermatt","postalCode":"6373","locality":"Ennetbürgen","commune":{"key":"1505","name":"Ennetbürgen","shortName":"Ennetbürgen"},"district":{"key":"700","name":"Kanton Nidwalden"},"canton":{"key":"7","code":"NW","name":"Nidwalden"},"status":"Real"},{"key":"10070050","name":"Obfuhr","postalCode":"6373","locality":"Ennetbürgen","commune":{"key":"1505","name":"Ennetbürgen","shortName":"Ennetbürgen"},"district":{"key":"700","name":"Kanton Nidwalden"},"canton":{"key":"7","code":"NW","name":"Nidwalden"},"status":"Real"},{"key":"10080412","name":"Oeltrotte","postalCode":"6373","locality":"Ennetbürgen","commune":{"key":"1505","name":"Ennetbürgen","shortName":"Ennetbürgen"},"district":{"key":"700","name":"Kanton Nidwalden"},"canton":{"key":"7","code":"NW","name":"Nidwalden"},"status":"Real"},{"key":"10020270","name":"Panoramastrasse","postalCode":"6373","locality":"Ennetbürgen","commune":{"key":"1505","name":"Ennetbürgen","shortName":"Ennetbürgen"},"district":{"key":"700","name":"Kanton Nidwalden"},"canton":{"key":"7","code":"NW","name":"Nidwalden"},"status":"Real"},{"key":"10070051","name":"Regenrüti","postalCode":"6373","locality":"Ennetbürgen","commune":{"key":"1505","name":"Ennetbürgen","shortName":"Ennetbürgen"},"district":{"key":"700","name":"Kanton Nidwalden"},"canton":{"key":"7","code":"NW","name":"Nidwalden"},"status":"Real"},{"key":"10080413","name":"Riedmatt","postalCode":"6373","locality":"Ennetbürgen","commune":{"key":"1505","name":"Ennetbürgen","shortName":"Ennetbürgen"},"district":{"key":"700","name":"Kanton Nidwalden"},"canton":{"key":"7","code":"NW","name":"Nidwalden"},"status":"Real"},{"key":"10156805","name":"Riedmattberg","postalCode":"6373","locality":"Ennetbürgen","commune":{"key":"1505","name":"Ennetbürgen","shortName":"Ennetbürgen"},"district":{"key":"700","name":"Kanton Nidwalden"},"canton":{"key":"7","code":"NW","name":"Nidwalden"},"status":"Real"},{"key":"10020271","name":"Riedmattweid","postalCode":"6373","locality":"Ennetbürgen","commune":{"key":"1505","name":"Ennetbürgen","shortName":"Ennetbürgen"},"district":{"key":"700","name":"Kanton Nidwalden"},"canton":{"key":"7","code":"NW","name":"Nidwalden"},"status":"Real"},{"key":"10020272","name":"Riedstrasse","postalCode":"6373","locality":"Ennetbürgen","commune":{"key":"1505","name":"Ennetbürgen","shortName":"Ennetbürgen"},"district":{"key":"700","name":"Kanton Nidwalden"},"canton":{"key":"7","code":"NW","name":"Nidwalden"},"status":"Real"},{"key":"10070052","name":"Rosenweg","postalCode":"6373","locality":"Ennetbürgen","commune":{"key":"1505","name":"Ennetbürgen","shortName":"Ennetbürgen"},"district":{"key":"700","name":"Kanton Nidwalden"},"canton":{"key":"7","code":"NW","name":"Nidwalden"},"status":"Real"},{"key":"10080414","name":"Rotigraben","postalCode":"6373","locality":"Ennetbürgen","commune":{"key":"1505","name":"Ennetbürgen","shortName":"Ennetbürgen"},"district":{"key":"700","name":"Kanton Nidwalden"},"canton":{"key":"7","code":"NW","name":"Nidwalden"},"status":"Real"},{"key":"10080415","name":"Scharti","postalCode":"6373","locality":"Ennetbürgen","commune":{"key":"1505","name":"Ennetbürgen","shortName":"Ennetbürgen"},"district":{"key":"700","name":"Kanton Nidwalden"},"canton":{"key":"7","code":"NW","name":"Nidwalden"},"status":"Real"},{"key":"10139115","name":"Schlegelmattli","postalCode":"6373","locality":"Ennetbürgen","commune":{"key":"1505","name":"Ennetbürgen","shortName":"Ennetbürgen"},"district":{"key":"700","name":"Kanton Nidwalden"},"canton":{"key":"7","code":"NW","name":"Nidwalden"},"status":"Real"},{"key":"10182678","name":"Schlinggismatt","postalCode":"6373","locality":"Ennetbürgen","commune":{"key":"1505","name":"Ennetbürgen","shortName":"Ennetbürgen"},"district":{"key":"700","name":"Kanton Nidwalden"},"canton":{"key":"7","code":"NW","name":"Nidwalden"},"status":"Real"},{"key":"10212252","name":"Schule","postalCode":"6373","locality":"Ennetbürgen","commune":{"key":"1505","name":"Ennetbürgen","shortName":"Ennetbürgen"},"district":{"key":"700","name":"Kanton Nidwalden"},"canton":{"key":"7","code":"NW","name":"Nidwalden"},"status":"Real"},{"key":"10020273","name":"Schulhausstrasse","postalCode":"6373","locality":"Ennetbürgen","commune":{"key":"1505","name":"Ennetbürgen","shortName":"Ennetbürgen"},"district":{"key":"700","name":"Kanton Nidwalden"},"canton":{"key":"7","code":"NW","name":"Nidwalden"},"status":"Real"},{"key":"10080416","name":"Schür","postalCode":"6373","locality":"Ennetbürgen","commune":{"key":"1505","name":"Ennetbürgen","shortName":"Ennetbürgen"},"district":{"key":"700","name":"Kanton Nidwalden"},"canton":{"key":"7","code":"NW","name":"Nidwalden"},"status":"Real"},{"key":"10212256","name":"Seefeld","postalCode":"6373","locality":"Ennetbürgen","commune":{"key":"1505","name":"Ennetbürgen","shortName":"Ennetbürgen"},"district":{"key":"700","name":"Kanton Nidwalden"},"canton":{"key":"7","code":"NW","name":"Nidwalden"},"status":"Real"},{"key":"10020274","name":"Seestrasse","postalCode":"6373","locality":"Ennetbürgen","commune":{"key":"1505","name":"Ennetbürgen","shortName":"Ennetbürgen"},"district":{"key":"700","name":"Kanton Nidwalden"},"canton":{"key":"7","code":"NW","name":"Nidwalden"},"status":"Real"},{"key":"10070053","name":"Seeweid","postalCode":"6373","locality":"Ennetbürgen","commune":{"key":"1505","name":"Ennetbürgen","shortName":"Ennetbürgen"},"district":{"key":"700","name":"Kanton Nidwalden"},"canton":{"key":"7","code":"NW","name":"Nidwalden"},"status":"Real"},{"key":"10080417","name":"Sonnhaldenstrasse","postalCode":"6373","locality":"Ennetbürgen","commune":{"key":"1505","name":"Ennetbürgen","shortName":"Ennetbürgen"},"district":{"key":"700","name":"Kanton Nidwalden"},"canton":{"key":"7","code":"NW","name":"Nidwalden"},"status":"Real"},{"key":"10020275","name":"Spis","postalCode":"6373","locality":"Ennetbürgen","commune":{"key":"1505","name":"Ennetbürgen","shortName":"Ennetbürgen"},"district":{"key":"700","name":"Kanton Nidwalden"},"canton":{"key":"7","code":"NW","name":"Nidwalden"},"status":"Real"},{"key":"10109118","name":"Stadel","postalCode":"6373","locality":"Ennetbürgen","commune":{"key":"1505","name":"Ennetbürgen","shortName":"Ennetbürgen"},"district":{"key":"700","name":"Kanton Nidwalden"},"canton":{"key":"7","code":"NW","name":"Nidwalden"},"status":"Real"},{"key":"10070054","name":"Stadelstrasse","postalCode":"6373","locality":"Ennetbürgen","commune":{"key":"1505","name":"Ennetbürgen","shortName":"Ennetbürgen"},"district":{"key":"700","name":"Kanton Nidwalden"},"canton":{"key":"7","code":"NW","name":"Nidwalden"},"status":"Real"},{"key":"10187831","name":"Stägersmattli","postalCode":"6373","locality":"Ennetbürgen","commune":{"key":"1505","name":"Ennetbürgen","shortName":"Ennetbürgen"},"district":{"key":"700","name":"Kanton Nidwalden"},"canton":{"key":"7","code":"NW","name":"Nidwalden"},"status":"Real"},{"key":"10020552","name":"Stalden","postalCode":"6373","locality":"Ennetbürgen","commune":{"key":"1505","name":"Ennetbürgen","shortName":"Ennetbürgen"},"district":{"key":"700","name":"Kanton Nidwalden"},"canton":{"key":"7","code":"NW","name":"Nidwalden"},"status":"Real"},{"key":"10020553","name":"Stanserstrasse","postalCode":"6373","locality":"Ennetbürgen","commune":{"key":"1505","name":"Ennetbürgen","shortName":"Ennetbürgen"},"district":{"key":"700","name":"Kanton Nidwalden"},"canton":{"key":"7","code":"NW","name":"Nidwalden"},"status":"Real"},{"key":"10164452","name":"Stanserstrasse","postalCode":"6373","locality":"Ennetbürgen","commune":{"key":"1505","name":"Ennetbürgen","shortName":"Ennetbürgen"},"district":{"key":"700","name":"Kanton Nidwalden"},"canton":{"key":"7","code":"NW","name":"Nidwalden"},"status":"Real"},{"key":"10117013","name":"Stationsstrasse","postalCode":"6373","locality":"Ennetbürgen","commune":{"key":"1505","name":"Ennetbürgen","shortName":"Ennetbürgen"},"district":{"key":"700","name":"Kanton Nidwalden"},"canton":{"key":"7","code":"NW","name":"Nidwalden"},"status":"Real"},{"key":"10121949","name":"Steinstücki","postalCode":"6373","locality":"Ennetbürgen","commune":{"key":"1505","name":"Ennetbürgen","shortName":"Ennetbürgen"},"district":{"key":"700","name":"Kanton Nidwalden"},"canton":{"key":"7","code":"NW","name":"Nidwalden"},"status":"Real"},{"key":"10020551","name":"St. Jost","postalCode":"6373","locality":"Ennetbürgen","commune":{"key":"1505","name":"Ennetbürgen","shortName":"Ennetbürgen"},"district":{"key":"700","name":"Kanton Nidwalden"},"canton":{"key":"7","code":"NW","name":"Nidwalden"},"status":"Real"},{"key":"10212258","name":"St. Joststrasse","postalCode":"6373","locality":"Ennetbürgen","commune":{"key":"1505","name":"Ennetbürgen","shortName":"Ennetbürgen"},"district":{"key":"700","name":"Kanton Nidwalden"},"canton":{"key":"7","code":"NW","name":"Nidwalden"},"status":"Real"},{"key":"10212261","name":"Strandbadstrasse","postalCode":"6373","locality":"Ennetbürgen","commune":{"key":"1505","name":"Ennetbürgen","shortName":"Ennetbürgen"},"district":{"key":"700","name":"Kanton Nidwalden"},"canton":{"key":"7","code":"NW","name":"Nidwalden"},"status":"Real"},{"key":"10212266","name":"Strandweg","postalCode":"6373","locality":"Ennetbürgen","commune":{"key":"1505","name":"Ennetbürgen","shortName":"Ennetbürgen"},"district":{"key":"700","name":"Kanton Nidwalden"},"canton":{"key":"7","code":"NW","name":"Nidwalden"},"status":"Real"},{"key":"10182679","name":"Tulpenweg","postalCode":"6373","locality":"Ennetbürgen","commune":{"key":"1505","name":"Ennetbürgen","shortName":"Ennetbürgen"},"district":{"key":"700","name":"Kanton Nidwalden"},"canton":{"key":"7","code":"NW","name":"Nidwalden"},"status":"Real"},{"key":"10020554","name":"Tuschmatt","postalCode":"6373","locality":"Ennetbürgen","commune":{"key":"1505","name":"Ennetbürgen","shortName":"Ennetbürgen"},"district":{"key":"700","name":"Kanton Nidwalden"},"canton":{"key":"7","code":"NW","name":"Nidwalden"},"status":"Real"},{"key":"10070055","name":"Unter Baumgarten","postalCode":"6373","locality":"Ennetbürgen","commune":{"key":"1505","name":"Ennetbürgen","shortName":"Ennetbürgen"},"district":{"key":"700","name":"Kanton Nidwalden"},"canton":{"key":"7","code":"NW","name":"Nidwalden"},"status":"Real"},{"key":"10080418","name":"Unter Etschenried","postalCode":"6373","locality":"Ennetbürgen","commune":{"key":"1505","name":"Ennetbürgen","shortName":"Ennetbürgen"},"district":{"key":"700","name":"Kanton Nidwalden"},"canton":{"key":"7","code":"NW","name":"Nidwalden"},"status":"Real"},{"key":"10020556","name":"Unter Honegg","postalCode":"6373","locality":"Ennetbürgen","commune":{"key":"1505","name":"Ennetbürgen","shortName":"Ennetbürgen"},"district":{"key":"700","name":"Kanton Nidwalden"},"canton":{"key":"7","code":"NW","name":"Nidwalden"},"status":"Real"},{"key":"10187093","name":"Unterleh","postalCode":"6373","locality":"Ennetbürgen","commune":{"key":"1505","name":"Ennetbürgen","shortName":"Ennetbürgen"},"district":{"key":"700","name":"Kanton Nidwalden"},"canton":{"key":"7","code":"NW","name":"Nidwalden"},"status":"Real"},{"key":"10020558","name":"Unter Massholtern","postalCode":"6373","locality":"Ennetbürgen","commune":{"key":"1505","name":"Ennetbürgen","shortName":"Ennetbürgen"},"district":{"key":"700","name":"Kanton Nidwalden"},"canton":{"key":"7","code":"NW","name":"Nidwalden"},"status":"Real"},{"key":"10173260","name":"Unter Trogen","postalCode":"6373","locality":"Ennetbürgen","commune":{"key":"1505","name":"Ennetbürgen","shortName":"Ennetbürgen"},"district":{"key":"700","name":"Kanton Nidwalden"},"canton":{"key":"7","code":"NW","name":"Nidwalden"},"status":"Real"},{"key":"10182680","name":"Vorderbiel","postalCode":"6373","locality":"Ennetbürgen","commune":{"key":"1505","name":"Ennetbürgen","shortName":"Ennetbürgen"},"district":{"key":"700","name":"Kanton Nidwalden"},"canton":{"key":"7","code":"NW","name":"Nidwalden"},"status":"Real"},{"key":"10109119","name":"Vorderblatti","postalCode":"6373","locality":"Ennetbürgen","commune":{"key":"1505","name":"Ennetbürgen","shortName":"Ennetbürgen"},"district":{"key":"700","name":"Kanton Nidwalden"},"canton":{"key":"7","code":"NW","name":"Nidwalden"},"status":"Real"},{"key":"10080419","name":"Vorderboden","postalCode":"6373","locality":"Ennetbürgen","commune":{"key":"1505","name":"Ennetbürgen","shortName":"Ennetbürgen"},"district":{"key":"700","name":"Kanton Nidwalden"},"canton":{"key":"7","code":"NW","name":"Nidwalden"},"status":"Real"},{"key":"10121556","name":"Vorderbreiten","postalCode":"6373","locality":"Ennetbürgen","commune":{"key":"1505","name":"Ennetbürgen","shortName":"Ennetbürgen"},"district":{"key":"700","name":"Kanton Nidwalden"},"canton":{"key":"7","code":"NW","name":"Nidwalden"},"status":"Real"},{"key":"10070057","name":"Vorderegg","postalCode":"6373","locality":"Ennetbürgen","commune":{"key":"1505","name":"Ennetbürgen","shortName":"Ennetbürgen"},"district":{"key":"700","name":"Kanton Nidwalden"},"canton":{"key":"7","code":"NW","name":"Nidwalden"},"status":"Real"},{"key":"10122388","name":"Vorder Grosshostatt","postalCode":"6373","locality":"Ennetbürgen","commune":{"key":"1505","name":"Ennetbürgen","shortName":"Ennetbürgen"},"district":{"key":"700","name":"Kanton Nidwalden"},"canton":{"key":"7","code":"NW","name":"Nidwalden"},"status":"Real"},{"key":"10171204","name":"Vorder Lussmani","postalCode":"6373","locality":"Ennetbürgen","commune":{"key":"1505","name":"Ennetbürgen","shortName":"Ennetbürgen"},"district":{"key":"700","name":"Kanton Nidwalden"},"canton":{"key":"7","code":"NW","name":"Nidwalden"},"status":"Real"},{"key":"10020559","name":"Vorder Spis","postalCode":"6373","locality":"Ennetbürgen","commune":{"key":"1505","name":"Ennetbürgen","shortName":"Ennetbürgen"},"district":{"key":"700","name":"Kanton Nidwalden"},"canton":{"key":"7","code":"NW","name":"Nidwalden"},"status":"Real"},{"key":"10020561","name":"Weingärtli","postalCode":"6373","locality":"Ennetbürgen","commune":{"key":"1505","name":"Ennetbürgen","shortName":"Ennetbürgen"},"district":{"key":"700","name":"Kanton Nidwalden"},"canton":{"key":"7","code":"NW","name":"Nidwalden"},"status":"Real"},{"key":"10020562","name":"Zinggli","postalCode":"6373","locality":"Ennetbürgen","commune":{"key":"1505","name":"Ennetbürgen","shortName":"Ennetbürgen"},"district":{"key":"700","name":"Kanton Nidwalden"},"canton":{"key":"7","code":"NW","name":"Nidwalden"},"status":"Real"},]