[{"name":"alter Kutscherweg","postalCode":"98597","locality":"Breitungen/Werra","municipality":{"key":"16066013","name":"Breitungen/Werra","type":"Kreisangehörige_Gemeinde"},"district":{"key":"16066","name":"Schmalkalden-Meiningen","type":"Landkreis"},"federalState":{"key":"16","name":"Thüringen"}},{"name":"Am Blumengrund","postalCode":"98597","locality":"Breitungen/Werra","municipality":{"key":"16066013","name":"Breitungen/Werra","type":"Kreisangehörige_Gemeinde"},"district":{"key":"16066","name":"Schmalkalden-Meiningen","type":"Landkreis"},"federalState":{"key":"16","name":"Thüringen"}},{"name":"Am Dreiacker","postalCode":"98597","locality":"Breitungen/Werra","municipality":{"key":"16066013","name":"Breitungen/Werra","type":"Kreisangehörige_Gemeinde"},"district":{"key":"16066","name":"Schmalkalden-Meiningen","type":"Landkreis"},"federalState":{"key":"16","name":"Thüringen"}},{"name":"Am Friedenspark","postalCode":"98597","locality":"Breitungen/Werra","municipality":{"key":"16066013","name":"Breitungen/Werra","type":"Kreisangehörige_Gemeinde"},"district":{"key":"16066","name":"Schmalkalden-Meiningen","type":"Landkreis"},"federalState":{"key":"16","name":"Thüringen"}},{"name":"Am Kirchberg","postalCode":"98597","locality":"Breitungen/Werra","municipality":{"key":"16066013","name":"Breitungen/Werra","type":"Kreisangehörige_Gemeinde"},"district":{"key":"16066","name":"Schmalkalden-Meiningen","type":"Landkreis"},"federalState":{"key":"16","name":"Thüringen"}},{"name":"Am Kloster","postalCode":"98597","locality":"Breitungen/Werra","municipality":{"key":"16066013","name":"Breitungen/Werra","type":"Kreisangehörige_Gemeinde"},"district":{"key":"16066","name":"Schmalkalden-Meiningen","type":"Landkreis"},"federalState":{"key":"16","name":"Thüringen"}},{"name":"Am Köpfchen","postalCode":"98597","locality":"Breitungen/Werra","municipality":{"key":"16066013","name":"Breitungen/Werra","type":"Kreisangehörige_Gemeinde"},"district":{"key":"16066","name":"Schmalkalden-Meiningen","type":"Landkreis"},"federalState":{"key":"16","name":"Thüringen"}},{"name":"Am Markt","postalCode":"98597","locality":"Breitungen/Werra","municipality":{"key":"16066013","name":"Breitungen/Werra","type":"Kreisangehörige_Gemeinde"},"district":{"key":"16066","name":"Schmalkalden-Meiningen","type":"Landkreis"},"federalState":{"key":"16","name":"Thüringen"}},{"name":"Am Simmelsee","postalCode":"98597","locality":"Breitungen/Werra","municipality":{"key":"16066013","name":"Breitungen/Werra","type":"Kreisangehörige_Gemeinde"},"district":{"key":"16066","name":"Schmalkalden-Meiningen","type":"Landkreis"},"federalState":{"key":"16","name":"Thüringen"}},{"name":"Am Spital","postalCode":"98597","locality":"Breitungen/Werra","municipality":{"key":"16066013","name":"Breitungen/Werra","type":"Kreisangehörige_Gemeinde"},"district":{"key":"16066","name":"Schmalkalden-Meiningen","type":"Landkreis"},"federalState":{"key":"16","name":"Thüringen"}},{"name":"An der Truse","postalCode":"98597","locality":"Breitungen/Werra","municipality":{"key":"16066013","name":"Breitungen/Werra","type":"Kreisangehörige_Gemeinde"},"district":{"key":"16066","name":"Schmalkalden-Meiningen","type":"Landkreis"},"federalState":{"key":"16","name":"Thüringen"}},{"name":"Bahnhofstr.","postalCode":"98597","locality":"Breitungen/Werra","municipality":{"key":"16066013","name":"Breitungen/Werra","type":"Kreisangehörige_Gemeinde"},"district":{"key":"16066","name":"Schmalkalden-Meiningen","type":"Landkreis"},"federalState":{"key":"16","name":"Thüringen"}},{"name":"Beethovenstr.","postalCode":"98597","locality":"Breitungen/Werra","municipality":{"key":"16066013","name":"Breitungen/Werra","type":"Kreisangehörige_Gemeinde"},"district":{"key":"16066","name":"Schmalkalden-Meiningen","type":"Landkreis"},"federalState":{"key":"16","name":"Thüringen"}},{"name":"Bei der Kirche","postalCode":"98597","locality":"Breitungen/Werra","municipality":{"key":"16066013","name":"Breitungen/Werra","type":"Kreisangehörige_Gemeinde"},"district":{"key":"16066","name":"Schmalkalden-Meiningen","type":"Landkreis"},"federalState":{"key":"16","name":"Thüringen"}},{"name":"Borntal","postalCode":"98597","locality":"Breitungen/Werra","municipality":{"key":"16066013","name":"Breitungen/Werra","type":"Kreisangehörige_Gemeinde"},"district":{"key":"16066","name":"Schmalkalden-Meiningen","type":"Landkreis"},"federalState":{"key":"16","name":"Thüringen"}},{"name":"Breitunger RadWanderWeg","postalCode":"98597","locality":"Breitungen/Werra","municipality":{"key":"16066013","name":"Breitungen/Werra","type":"Kreisangehörige_Gemeinde"},"district":{"key":"16066","name":"Schmalkalden-Meiningen","type":"Landkreis"},"federalState":{"key":"16","name":"Thüringen"}},{"name":"Breitunger Rennsteig","postalCode":"98597","locality":"Breitungen/Werra","municipality":{"key":"16066013","name":"Breitungen/Werra","type":"Kreisangehörige_Gemeinde"},"district":{"key":"16066","name":"Schmalkalden-Meiningen","type":"Landkreis"},"federalState":{"key":"16","name":"Thüringen"}},{"name":"Bußhof","postalCode":"98597","locality":"Breitungen/Werra","municipality":{"key":"16066013","name":"Breitungen/Werra","type":"Kreisangehörige_Gemeinde"},"district":{"key":"16066","name":"Schmalkalden-Meiningen","type":"Landkreis"},"federalState":{"key":"16","name":"Thüringen"}},{"name":"Craimar","postalCode":"98597","locality":"Breitungen/Werra","municipality":{"key":"16066013","name":"Breitungen/Werra","type":"Kreisangehörige_Gemeinde"},"district":{"key":"16066","name":"Schmalkalden-Meiningen","type":"Landkreis"},"federalState":{"key":"16","name":"Thüringen"}},{"name":"Dichte Reihe","postalCode":"98597","locality":"Breitungen/Werra","municipality":{"key":"16066013","name":"Breitungen/Werra","type":"Kreisangehörige_Gemeinde"},"district":{"key":"16066","name":"Schmalkalden-Meiningen","type":"Landkreis"},"federalState":{"key":"16","name":"Thüringen"}},{"name":"Eisenacher Str.","postalCode":"98597","locality":"Breitungen/Werra","municipality":{"key":"16066013","name":"Breitungen/Werra","type":"Kreisangehörige_Gemeinde"},"district":{"key":"16066","name":"Schmalkalden-Meiningen","type":"Landkreis"},"federalState":{"key":"16","name":"Thüringen"}},{"name":"Farnbach","postalCode":"98597","locality":"Breitungen/Werra","municipality":{"key":"16066013","name":"Breitungen/Werra","type":"Kreisangehörige_Gemeinde"},"district":{"key":"16066","name":"Schmalkalden-Meiningen","type":"Landkreis"},"federalState":{"key":"16","name":"Thüringen"}},{"name":"Farnbacher Str.","postalCode":"98597","locality":"Breitungen/Werra","municipality":{"key":"16066013","name":"Breitungen/Werra","type":"Kreisangehörige_Gemeinde"},"district":{"key":"16066","name":"Schmalkalden-Meiningen","type":"Landkreis"},"federalState":{"key":"16","name":"Thüringen"}},{"name":"Frauenbreitunger Weg","postalCode":"98597","locality":"Breitungen/Werra","municipality":{"key":"16066013","name":"Breitungen/Werra","type":"Kreisangehörige_Gemeinde"},"district":{"key":"16066","name":"Schmalkalden-Meiningen","type":"Landkreis"},"federalState":{"key":"16","name":"Thüringen"}},{"name":"Friedenspark","postalCode":"98597","locality":"Breitungen/Werra","municipality":{"key":"16066013","name":"Breitungen/Werra","type":"Kreisangehörige_Gemeinde"},"district":{"key":"16066","name":"Schmalkalden-Meiningen","type":"Landkreis"},"federalState":{"key":"16","name":"Thüringen"}},{"name":"Friedensring","postalCode":"98597","locality":"Breitungen/Werra","municipality":{"key":"16066013","name":"Breitungen/Werra","type":"Kreisangehörige_Gemeinde"},"district":{"key":"16066","name":"Schmalkalden-Meiningen","type":"Landkreis"},"federalState":{"key":"16","name":"Thüringen"}},{"name":"Gartenstr.","postalCode":"98597","locality":"Breitungen/Werra","municipality":{"key":"16066013","name":"Breitungen/Werra","type":"Kreisangehörige_Gemeinde"},"district":{"key":"16066","name":"Schmalkalden-Meiningen","type":"Landkreis"},"federalState":{"key":"16","name":"Thüringen"}},{"name":"Gasse","postalCode":"98597","locality":"Breitungen/Werra","municipality":{"key":"16066013","name":"Breitungen/Werra","type":"Kreisangehörige_Gemeinde"},"district":{"key":"16066","name":"Schmalkalden-Meiningen","type":"Landkreis"},"federalState":{"key":"16","name":"Thüringen"}},{"name":"Geschwister-Scholl-Ring","postalCode":"98597","locality":"Breitungen/Werra","municipality":{"key":"16066013","name":"Breitungen/Werra","type":"Kreisangehörige_Gemeinde"},"district":{"key":"16066","name":"Schmalkalden-Meiningen","type":"Landkreis"},"federalState":{"key":"16","name":"Thüringen"}},{"name":"Goethestr.","postalCode":"98597","locality":"Breitungen/Werra","municipality":{"key":"16066013","name":"Breitungen/Werra","type":"Kreisangehörige_Gemeinde"},"district":{"key":"16066","name":"Schmalkalden-Meiningen","type":"Landkreis"},"federalState":{"key":"16","name":"Thüringen"}},{"name":"Große Ecke","postalCode":"98597","locality":"Breitungen/Werra","municipality":{"key":"16066013","name":"Breitungen/Werra","type":"Kreisangehörige_Gemeinde"},"district":{"key":"16066","name":"Schmalkalden-Meiningen","type":"Landkreis"},"federalState":{"key":"16","name":"Thüringen"}},{"name":"Grumbach","postalCode":"98597","locality":"Breitungen/Werra","municipality":{"key":"16066013","name":"Breitungen/Werra","type":"Kreisangehörige_Gemeinde"},"district":{"key":"16066","name":"Schmalkalden-Meiningen","type":"Landkreis"},"federalState":{"key":"16","name":"Thüringen"}},{"name":"Hauptstr.","postalCode":"98597","locality":"Breitungen/Werra","municipality":{"key":"16066013","name":"Breitungen/Werra","type":"Kreisangehörige_Gemeinde"},"district":{"key":"16066","name":"Schmalkalden-Meiningen","type":"Landkreis"},"federalState":{"key":"16","name":"Thüringen"}},{"name":"Heinrich-Heine-Str.","postalCode":"98597","locality":"Breitungen/Werra","municipality":{"key":"16066013","name":"Breitungen/Werra","type":"Kreisangehörige_Gemeinde"},"district":{"key":"16066","name":"Schmalkalden-Meiningen","type":"Landkreis"},"federalState":{"key":"16","name":"Thüringen"}},{"name":"Hinter den Gärten","postalCode":"98597","locality":"Breitungen/Werra","municipality":{"key":"16066013","name":"Breitungen/Werra","type":"Kreisangehörige_Gemeinde"},"district":{"key":"16066","name":"Schmalkalden-Meiningen","type":"Landkreis"},"federalState":{"key":"16","name":"Thüringen"}},{"name":"Hinter den Höhen","postalCode":"98597","locality":"Breitungen/Werra","municipality":{"key":"16066013","name":"Breitungen/Werra","type":"Kreisangehörige_Gemeinde"},"district":{"key":"16066","name":"Schmalkalden-Meiningen","type":"Landkreis"},"federalState":{"key":"16","name":"Thüringen"}},{"name":"Hühngarten","postalCode":"98597","locality":"Breitungen/Werra","municipality":{"key":"16066013","name":"Breitungen/Werra","type":"Kreisangehörige_Gemeinde"},"district":{"key":"16066","name":"Schmalkalden-Meiningen","type":"Landkreis"},"federalState":{"key":"16","name":"Thüringen"}},{"name":"Knollbach","postalCode":"98597","locality":"Breitungen/Werra","municipality":{"key":"16066013","name":"Breitungen/Werra","type":"Kreisangehörige_Gemeinde"},"district":{"key":"16066","name":"Schmalkalden-Meiningen","type":"Landkreis"},"federalState":{"key":"16","name":"Thüringen"}},{"name":"Kornweg","postalCode":"98597","locality":"Breitungen/Werra","municipality":{"key":"16066013","name":"Breitungen/Werra","type":"Kreisangehörige_Gemeinde"},"district":{"key":"16066","name":"Schmalkalden-Meiningen","type":"Landkreis"},"federalState":{"key":"16","name":"Thüringen"}},{"name":"Kreuzgasse","postalCode":"98597","locality":"Breitungen/Werra","municipality":{"key":"16066013","name":"Breitungen/Werra","type":"Kreisangehörige_Gemeinde"},"district":{"key":"16066","name":"Schmalkalden-Meiningen","type":"Landkreis"},"federalState":{"key":"16","name":"Thüringen"}},{"name":"Lange Gasse","postalCode":"98597","locality":"Breitungen/Werra","municipality":{"key":"16066013","name":"Breitungen/Werra","type":"Kreisangehörige_Gemeinde"},"district":{"key":"16066","name":"Schmalkalden-Meiningen","type":"Landkreis"},"federalState":{"key":"16","name":"Thüringen"}},{"name":"Lange Sömme","postalCode":"98597","locality":"Breitungen/Werra","municipality":{"key":"16066013","name":"Breitungen/Werra","type":"Kreisangehörige_Gemeinde"},"district":{"key":"16066","name":"Schmalkalden-Meiningen","type":"Landkreis"},"federalState":{"key":"16","name":"Thüringen"}},{"name":"Läßerstr.","postalCode":"98597","locality":"Breitungen/Werra","municipality":{"key":"16066013","name":"Breitungen/Werra","type":"Kreisangehörige_Gemeinde"},"district":{"key":"16066","name":"Schmalkalden-Meiningen","type":"Landkreis"},"federalState":{"key":"16","name":"Thüringen"}},{"name":"Meimerser Weg","postalCode":"98597","locality":"Breitungen/Werra","municipality":{"key":"16066013","name":"Breitungen/Werra","type":"Kreisangehörige_Gemeinde"},"district":{"key":"16066","name":"Schmalkalden-Meiningen","type":"Landkreis"},"federalState":{"key":"16","name":"Thüringen"}},{"name":"Meininger Str.","postalCode":"98597","locality":"Breitungen/Werra","municipality":{"key":"16066013","name":"Breitungen/Werra","type":"Kreisangehörige_Gemeinde"},"district":{"key":"16066","name":"Schmalkalden-Meiningen","type":"Landkreis"},"federalState":{"key":"16","name":"Thüringen"}},{"name":"Mückengasse","postalCode":"98597","locality":"Breitungen/Werra","municipality":{"key":"16066013","name":"Breitungen/Werra","type":"Kreisangehörige_Gemeinde"},"district":{"key":"16066","name":"Schmalkalden-Meiningen","type":"Landkreis"},"federalState":{"key":"16","name":"Thüringen"}},{"name":"Neue Reihe","postalCode":"98597","locality":"Breitungen/Werra","municipality":{"key":"16066013","name":"Breitungen/Werra","type":"Kreisangehörige_Gemeinde"},"district":{"key":"16066","name":"Schmalkalden-Meiningen","type":"Landkreis"},"federalState":{"key":"16","name":"Thüringen"}},{"name":"Neuhof","postalCode":"98597","locality":"Breitungen/Werra","municipality":{"key":"16066013","name":"Breitungen/Werra","type":"Kreisangehörige_Gemeinde"},"district":{"key":"16066","name":"Schmalkalden-Meiningen","type":"Landkreis"},"federalState":{"key":"16","name":"Thüringen"}},{"name":"Nordstr.","postalCode":"98597","locality":"Breitungen/Werra","municipality":{"key":"16066013","name":"Breitungen/Werra","type":"Kreisangehörige_Gemeinde"},"district":{"key":"16066","name":"Schmalkalden-Meiningen","type":"Landkreis"},"federalState":{"key":"16","name":"Thüringen"}},{"name":"Nürnberger Str.","postalCode":"98597","locality":"Breitungen/Werra","municipality":{"key":"16066013","name":"Breitungen/Werra","type":"Kreisangehörige_Gemeinde"},"district":{"key":"16066","name":"Schmalkalden-Meiningen","type":"Landkreis"},"federalState":{"key":"16","name":"Thüringen"}},{"name":"Petersberger Str.","postalCode":"98597","locality":"Breitungen/Werra","municipality":{"key":"16066013","name":"Breitungen/Werra","type":"Kreisangehörige_Gemeinde"},"district":{"key":"16066","name":"Schmalkalden-Meiningen","type":"Landkreis"},"federalState":{"key":"16","name":"Thüringen"}},{"name":"Poststr.","postalCode":"98597","locality":"Breitungen/Werra","municipality":{"key":"16066013","name":"Breitungen/Werra","type":"Kreisangehörige_Gemeinde"},"district":{"key":"16066","name":"Schmalkalden-Meiningen","type":"Landkreis"},"federalState":{"key":"16","name":"Thüringen"}},{"name":"Rathausstr.","postalCode":"98597","locality":"Breitungen/Werra","municipality":{"key":"16066013","name":"Breitungen/Werra","type":"Kreisangehörige_Gemeinde"},"district":{"key":"16066","name":"Schmalkalden-Meiningen","type":"Landkreis"},"federalState":{"key":"16","name":"Thüringen"}},{"name":"Ratsgasse","postalCode":"98597","locality":"Breitungen/Werra","municipality":{"key":"16066013","name":"Breitungen/Werra","type":"Kreisangehörige_Gemeinde"},"district":{"key":"16066","name":"Schmalkalden-Meiningen","type":"Landkreis"},"federalState":{"key":"16","name":"Thüringen"}},{"name":"Riegelsweg","postalCode":"98597","locality":"Breitungen/Werra","municipality":{"key":"16066013","name":"Breitungen/Werra","type":"Kreisangehörige_Gemeinde"},"district":{"key":"16066","name":"Schmalkalden-Meiningen","type":"Landkreis"},"federalState":{"key":"16","name":"Thüringen"}},{"name":"Rosa-Luxemburg-Str.","postalCode":"98597","locality":"Breitungen/Werra","municipality":{"key":"16066013","name":"Breitungen/Werra","type":"Kreisangehörige_Gemeinde"},"district":{"key":"16066","name":"Schmalkalden-Meiningen","type":"Landkreis"},"federalState":{"key":"16","name":"Thüringen"}},{"name":"Salzunger Str.","postalCode":"98597","locality":"Breitungen/Werra","municipality":{"key":"16066013","name":"Breitungen/Werra","type":"Kreisangehörige_Gemeinde"},"district":{"key":"16066","name":"Schmalkalden-Meiningen","type":"Landkreis"},"federalState":{"key":"16","name":"Thüringen"}},{"name":"Sandfleck","postalCode":"98597","locality":"Breitungen/Werra","municipality":{"key":"16066013","name":"Breitungen/Werra","type":"Kreisangehörige_Gemeinde"},"district":{"key":"16066","name":"Schmalkalden-Meiningen","type":"Landkreis"},"federalState":{"key":"16","name":"Thüringen"}},{"name":"Schillerstr.","postalCode":"98597","locality":"Breitungen/Werra","municipality":{"key":"16066013","name":"Breitungen/Werra","type":"Kreisangehörige_Gemeinde"},"district":{"key":"16066","name":"Schmalkalden-Meiningen","type":"Landkreis"},"federalState":{"key":"16","name":"Thüringen"}},{"name":"Schloßblick","postalCode":"98597","locality":"Breitungen/Werra","municipality":{"key":"16066013","name":"Breitungen/Werra","type":"Kreisangehörige_Gemeinde"},"district":{"key":"16066","name":"Schmalkalden-Meiningen","type":"Landkreis"},"federalState":{"key":"16","name":"Thüringen"}},{"name":"Schulstr.","postalCode":"98597","locality":"Breitungen/Werra","municipality":{"key":"16066013","name":"Breitungen/Werra","type":"Kreisangehörige_Gemeinde"},"district":{"key":"16066","name":"Schmalkalden-Meiningen","type":"Landkreis"},"federalState":{"key":"16","name":"Thüringen"}},{"name":"Steingraben","postalCode":"98597","locality":"Breitungen/Werra","municipality":{"key":"16066013","name":"Breitungen/Werra","type":"Kreisangehörige_Gemeinde"},"district":{"key":"16066","name":"Schmalkalden-Meiningen","type":"Landkreis"},"federalState":{"key":"16","name":"Thüringen"}},{"name":"Stockbornstr.","postalCode":"98597","locality":"Breitungen/Werra","municipality":{"key":"16066013","name":"Breitungen/Werra","type":"Kreisangehörige_Gemeinde"},"district":{"key":"16066","name":"Schmalkalden-Meiningen","type":"Landkreis"},"federalState":{"key":"16","name":"Thüringen"}},{"name":"Str. der Einheit","postalCode":"98597","locality":"Breitungen/Werra","municipality":{"key":"16066013","name":"Breitungen/Werra","type":"Kreisangehörige_Gemeinde"},"district":{"key":"16066","name":"Schmalkalden-Meiningen","type":"Landkreis"},"federalState":{"key":"16","name":"Thüringen"}},{"name":"Str. der Gemeinschaft","postalCode":"98597","locality":"Breitungen/Werra","municipality":{"key":"16066013","name":"Breitungen/Werra","type":"Kreisangehörige_Gemeinde"},"district":{"key":"16066","name":"Schmalkalden-Meiningen","type":"Landkreis"},"federalState":{"key":"16","name":"Thüringen"}},{"name":"Tamara-Danz-Str.","postalCode":"98597","locality":"Breitungen/Werra","municipality":{"key":"16066013","name":"Breitungen/Werra","type":"Kreisangehörige_Gemeinde"},"district":{"key":"16066","name":"Schmalkalden-Meiningen","type":"Landkreis"},"federalState":{"key":"16","name":"Thüringen"}},{"name":"Thomas-Mann-Str.","postalCode":"98597","locality":"Breitungen/Werra","municipality":{"key":"16066013","name":"Breitungen/Werra","type":"Kreisangehörige_Gemeinde"},"district":{"key":"16066","name":"Schmalkalden-Meiningen","type":"Landkreis"},"federalState":{"key":"16","name":"Thüringen"}},{"name":"Uferweg","postalCode":"98597","locality":"Breitungen/Werra","municipality":{"key":"16066013","name":"Breitungen/Werra","type":"Kreisangehörige_Gemeinde"},"district":{"key":"16066","name":"Schmalkalden-Meiningen","type":"Landkreis"},"federalState":{"key":"16","name":"Thüringen"}},{"name":"Werner-Seelenbinder-Str.","postalCode":"98597","locality":"Breitungen/Werra","municipality":{"key":"16066013","name":"Breitungen/Werra","type":"Kreisangehörige_Gemeinde"},"district":{"key":"16066","name":"Schmalkalden-Meiningen","type":"Landkreis"},"federalState":{"key":"16","name":"Thüringen"}},{"name":"Werrastr.","postalCode":"98597","locality":"Breitungen/Werra","municipality":{"key":"16066013","name":"Breitungen/Werra","type":"Kreisangehörige_Gemeinde"},"district":{"key":"16066","name":"Schmalkalden-Meiningen","type":"Landkreis"},"federalState":{"key":"16","name":"Thüringen"}},{"name":"Wiesenweg","postalCode":"98597","locality":"Breitungen/Werra","municipality":{"key":"16066013","name":"Breitungen/Werra","type":"Kreisangehörige_Gemeinde"},"district":{"key":"16066","name":"Schmalkalden-Meiningen","type":"Landkreis"},"federalState":{"key":"16","name":"Thüringen"}},{"name":"Winne Hof","postalCode":"98597","locality":"Breitungen/Werra","municipality":{"key":"16066013","name":"Breitungen/Werra","type":"Kreisangehörige_Gemeinde"},"district":{"key":"16066","name":"Schmalkalden-Meiningen","type":"Landkreis"},"federalState":{"key":"16","name":"Thüringen"}},{"name":"Winne Siedlung","postalCode":"98597","locality":"Breitungen/Werra","municipality":{"key":"16066013","name":"Breitungen/Werra","type":"Kreisangehörige_Gemeinde"},"district":{"key":"16066","name":"Schmalkalden-Meiningen","type":"Landkreis"},"federalState":{"key":"16","name":"Thüringen"}},{"name":"Wirtsgasse","postalCode":"98597","locality":"Breitungen/Werra","municipality":{"key":"16066013","name":"Breitungen/Werra","type":"Kreisangehörige_Gemeinde"},"district":{"key":"16066","name":"Schmalkalden-Meiningen","type":"Landkreis"},"federalState":{"key":"16","name":"Thüringen"}},{"name":"Wittgenthal","postalCode":"98597","locality":"Breitungen/Werra","municipality":{"key":"16066013","name":"Breitungen/Werra","type":"Kreisangehörige_Gemeinde"},"district":{"key":"16066","name":"Schmalkalden-Meiningen","type":"Landkreis"},"federalState":{"key":"16","name":"Thüringen"}},{"name":"Zur Werra","postalCode":"98597","locality":"Breitungen/Werra","municipality":{"key":"16066013","name":"Breitungen/Werra","type":"Kreisangehörige_Gemeinde"},"district":{"key":"16066","name":"Schmalkalden-Meiningen","type":"Landkreis"},"federalState":{"key":"16","name":"Thüringen"}},]