[{"key":"10071163","name":"Auli","postalCode":"6424","locality":"Lauerz","commune":{"key":"1365","name":"Lauerz","shortName":"Lauerz"},"district":{"key":"506","name":"Bezirk Schwyz"},"canton":{"key":"5","code":"SZ","name":"Schwyz"},"status":"Real"},{"key":"10110539","name":"Auliweg","postalCode":"6424","locality":"Lauerz","commune":{"key":"1365","name":"Lauerz","shortName":"Lauerz"},"district":{"key":"506","name":"Bezirk Schwyz"},"canton":{"key":"5","code":"SZ","name":"Schwyz"},"status":"Real"},{"key":"10087262","name":"Bergstrasse","postalCode":"6424","locality":"Lauerz","commune":{"key":"1365","name":"Lauerz","shortName":"Lauerz"},"district":{"key":"506","name":"Bezirk Schwyz"},"canton":{"key":"5","code":"SZ","name":"Schwyz"},"status":"Real"},{"key":"10071164","name":"Bohl","postalCode":"6424","locality":"Lauerz","commune":{"key":"1365","name":"Lauerz","shortName":"Lauerz"},"district":{"key":"506","name":"Bezirk Schwyz"},"canton":{"key":"5","code":"SZ","name":"Schwyz"},"status":"Real"},{"key":"10165940","name":"Buechensitli","postalCode":"6424","locality":"Lauerz","commune":{"key":"1365","name":"Lauerz","shortName":"Lauerz"},"district":{"key":"506","name":"Bezirk Schwyz"},"canton":{"key":"5","code":"SZ","name":"Schwyz"},"status":"Real"},{"key":"10016069","name":"Chälenbüel","postalCode":"6424","locality":"Lauerz","commune":{"key":"1365","name":"Lauerz","shortName":"Lauerz"},"district":{"key":"506","name":"Bezirk Schwyz"},"canton":{"key":"5","code":"SZ","name":"Schwyz"},"status":"Real"},{"key":"10171910","name":"Chilenban","postalCode":"6424","locality":"Lauerz","commune":{"key":"1365","name":"Lauerz","shortName":"Lauerz"},"district":{"key":"506","name":"Bezirk Schwyz"},"canton":{"key":"5","code":"SZ","name":"Schwyz"},"status":"Real"},{"key":"10159693","name":"Dorfstrasse","postalCode":"6424","locality":"Lauerz","commune":{"key":"1365","name":"Lauerz","shortName":"Lauerz"},"district":{"key":"506","name":"Bezirk Schwyz"},"canton":{"key":"5","code":"SZ","name":"Schwyz"},"status":"Real"},{"key":"10115794","name":"Feltschibergstrasse","postalCode":"6424","locality":"Lauerz","commune":{"key":"1365","name":"Lauerz","shortName":"Lauerz"},"district":{"key":"506","name":"Bezirk Schwyz"},"canton":{"key":"5","code":"SZ","name":"Schwyz"},"status":"Real"},{"key":"10016070","name":"Fischerweg","postalCode":"6424","locality":"Lauerz","commune":{"key":"1365","name":"Lauerz","shortName":"Lauerz"},"district":{"key":"506","name":"Bezirk Schwyz"},"canton":{"key":"5","code":"SZ","name":"Schwyz"},"status":"Real"},{"key":"10087263","name":"Flüeli-Boden","postalCode":"6424","locality":"Lauerz","commune":{"key":"1365","name":"Lauerz","shortName":"Lauerz"},"district":{"key":"506","name":"Bezirk Schwyz"},"canton":{"key":"5","code":"SZ","name":"Schwyz"},"status":"Real"},{"key":"10223256","name":"Goldauerstrasse","postalCode":"6424","locality":"Lauerz","commune":{"key":"1365","name":"Lauerz","shortName":"Lauerz"},"district":{"key":"506","name":"Bezirk Schwyz"},"canton":{"key":"5","code":"SZ","name":"Schwyz"},"status":"Real"},{"key":"10116513","name":"Grossbergstrasse","postalCode":"6424","locality":"Lauerz","commune":{"key":"1365","name":"Lauerz","shortName":"Lauerz"},"district":{"key":"506","name":"Bezirk Schwyz"},"canton":{"key":"5","code":"SZ","name":"Schwyz"},"status":"Real"},{"key":"10016071","name":"Hasen","postalCode":"6424","locality":"Lauerz","commune":{"key":"1365","name":"Lauerz","shortName":"Lauerz"},"district":{"key":"506","name":"Bezirk Schwyz"},"canton":{"key":"5","code":"SZ","name":"Schwyz"},"status":"Real"},{"key":"10087264","name":"Heubühlstrasse","postalCode":"6424","locality":"Lauerz","commune":{"key":"1365","name":"Lauerz","shortName":"Lauerz"},"district":{"key":"506","name":"Bezirk Schwyz"},"canton":{"key":"5","code":"SZ","name":"Schwyz"},"status":"Real"},{"key":"10016072","name":"Huelenstrasse","postalCode":"6424","locality":"Lauerz","commune":{"key":"1365","name":"Lauerz","shortName":"Lauerz"},"district":{"key":"506","name":"Bezirk Schwyz"},"canton":{"key":"5","code":"SZ","name":"Schwyz"},"status":"Real"},{"key":"10192128","name":"Husmatt","postalCode":"6424","locality":"Lauerz","commune":{"key":"1365","name":"Lauerz","shortName":"Lauerz"},"district":{"key":"506","name":"Bezirk Schwyz"},"canton":{"key":"5","code":"SZ","name":"Schwyz"},"status":"Real"},{"key":"10223261","name":"Husmatt Camping","postalCode":"6424","locality":"Lauerz","commune":{"key":"1365","name":"Lauerz","shortName":"Lauerz"},"district":{"key":"506","name":"Bezirk Schwyz"},"canton":{"key":"5","code":"SZ","name":"Schwyz"},"status":"Real"},{"key":"10016073","name":"Husmattstrasse","postalCode":"6424","locality":"Lauerz","commune":{"key":"1365","name":"Lauerz","shortName":"Lauerz"},"district":{"key":"506","name":"Bezirk Schwyz"},"canton":{"key":"5","code":"SZ","name":"Schwyz"},"status":"Real"},{"key":"10137635","name":"Iltis","postalCode":"6424","locality":"Lauerz","commune":{"key":"1365","name":"Lauerz","shortName":"Lauerz"},"district":{"key":"506","name":"Bezirk Schwyz"},"canton":{"key":"5","code":"SZ","name":"Schwyz"},"status":"Real"},{"key":"10205654","name":"Im Feld","postalCode":"6424","locality":"Lauerz","commune":{"key":"1365","name":"Lauerz","shortName":"Lauerz"},"district":{"key":"506","name":"Bezirk Schwyz"},"canton":{"key":"5","code":"SZ","name":"Schwyz"},"status":"Real"},{"key":"10058019","name":"Insel Schwanau","postalCode":"6424","locality":"Lauerz","commune":{"key":"1365","name":"Lauerz","shortName":"Lauerz"},"district":{"key":"506","name":"Bezirk Schwyz"},"canton":{"key":"5","code":"SZ","name":"Schwyz"},"status":"Real"},{"key":"10071165","name":"Klostermattstrasse","postalCode":"6424","locality":"Lauerz","commune":{"key":"1365","name":"Lauerz","shortName":"Lauerz"},"district":{"key":"506","name":"Bezirk Schwyz"},"canton":{"key":"5","code":"SZ","name":"Schwyz"},"status":"Real"},{"key":"10178301","name":"Langerlistrasse","postalCode":"6424","locality":"Lauerz","commune":{"key":"1365","name":"Lauerz","shortName":"Lauerz"},"district":{"key":"506","name":"Bezirk Schwyz"},"canton":{"key":"5","code":"SZ","name":"Schwyz"},"status":"Real"},{"key":"10087265","name":"Ledimatt","postalCode":"6424","locality":"Lauerz","commune":{"key":"1365","name":"Lauerz","shortName":"Lauerz"},"district":{"key":"506","name":"Bezirk Schwyz"},"canton":{"key":"5","code":"SZ","name":"Schwyz"},"status":"Real"},{"key":"10160789","name":"Mittlerer Twäriberg","postalCode":"6424","locality":"Lauerz","commune":{"key":"1365","name":"Lauerz","shortName":"Lauerz"},"district":{"key":"506","name":"Bezirk Schwyz"},"canton":{"key":"5","code":"SZ","name":"Schwyz"},"status":"Real"},{"key":"10195436","name":"Mühle","postalCode":"6424","locality":"Lauerz","commune":{"key":"1365","name":"Lauerz","shortName":"Lauerz"},"district":{"key":"506","name":"Bezirk Schwyz"},"canton":{"key":"5","code":"SZ","name":"Schwyz"},"status":"Real"},{"key":"10120943","name":"Niedermatt","postalCode":"6424","locality":"Lauerz","commune":{"key":"1365","name":"Lauerz","shortName":"Lauerz"},"district":{"key":"506","name":"Bezirk Schwyz"},"canton":{"key":"5","code":"SZ","name":"Schwyz"},"status":"Real"},{"key":"10016074","name":"Oberdorf","postalCode":"6424","locality":"Lauerz","commune":{"key":"1365","name":"Lauerz","shortName":"Lauerz"},"district":{"key":"506","name":"Bezirk Schwyz"},"canton":{"key":"5","code":"SZ","name":"Schwyz"},"status":"Real"},{"key":"10169674","name":"Oberer Twäriberg","postalCode":"6424","locality":"Lauerz","commune":{"key":"1365","name":"Lauerz","shortName":"Lauerz"},"district":{"key":"506","name":"Bezirk Schwyz"},"canton":{"key":"5","code":"SZ","name":"Schwyz"},"status":"Real"},{"key":"10164989","name":"Ober Gurgen","postalCode":"6424","locality":"Lauerz","commune":{"key":"1365","name":"Lauerz","shortName":"Lauerz"},"district":{"key":"506","name":"Bezirk Schwyz"},"canton":{"key":"5","code":"SZ","name":"Schwyz"},"status":"Real"},{"key":"10087266","name":"Oberried","postalCode":"6424","locality":"Lauerz","commune":{"key":"1365","name":"Lauerz","shortName":"Lauerz"},"district":{"key":"506","name":"Bezirk Schwyz"},"canton":{"key":"5","code":"SZ","name":"Schwyz"},"status":"Real"},{"key":"10180565","name":"Oberrütistrasse","postalCode":"6424","locality":"Lauerz","commune":{"key":"1365","name":"Lauerz","shortName":"Lauerz"},"district":{"key":"506","name":"Bezirk Schwyz"},"canton":{"key":"5","code":"SZ","name":"Schwyz"},"status":"Real"},{"key":"10016075","name":"Ottenthalstrasse","postalCode":"6424","locality":"Lauerz","commune":{"key":"1365","name":"Lauerz","shortName":"Lauerz"},"district":{"key":"506","name":"Bezirk Schwyz"},"canton":{"key":"5","code":"SZ","name":"Schwyz"},"status":"Real"},{"key":"10161904","name":"Ried","postalCode":"6424","locality":"Lauerz","commune":{"key":"1365","name":"Lauerz","shortName":"Lauerz"},"district":{"key":"506","name":"Bezirk Schwyz"},"canton":{"key":"5","code":"SZ","name":"Schwyz"},"status":"Real"},{"key":"10110540","name":"Rütli","postalCode":"6424","locality":"Lauerz","commune":{"key":"1365","name":"Lauerz","shortName":"Lauerz"},"district":{"key":"506","name":"Bezirk Schwyz"},"canton":{"key":"5","code":"SZ","name":"Schwyz"},"status":"Real"},{"key":"10016076","name":"Schipfstrasse","postalCode":"6424","locality":"Lauerz","commune":{"key":"1365","name":"Lauerz","shortName":"Lauerz"},"district":{"key":"506","name":"Bezirk Schwyz"},"canton":{"key":"5","code":"SZ","name":"Schwyz"},"status":"Real"},{"key":"10016077","name":"Schönbuchernstrasse","postalCode":"6424","locality":"Lauerz","commune":{"key":"1365","name":"Lauerz","shortName":"Lauerz"},"district":{"key":"506","name":"Bezirk Schwyz"},"canton":{"key":"5","code":"SZ","name":"Schwyz"},"status":"Real"},{"key":"10159031","name":"Schwand","postalCode":"6424","locality":"Lauerz","commune":{"key":"1365","name":"Lauerz","shortName":"Lauerz"},"district":{"key":"506","name":"Bezirk Schwyz"},"canton":{"key":"5","code":"SZ","name":"Schwyz"},"status":"Real"},{"key":"10087267","name":"Schwändistrasse","postalCode":"6424","locality":"Lauerz","commune":{"key":"1365","name":"Lauerz","shortName":"Lauerz"},"district":{"key":"506","name":"Bezirk Schwyz"},"canton":{"key":"5","code":"SZ","name":"Schwyz"},"status":"Real"},{"key":"10016078","name":"Seematt","postalCode":"6424","locality":"Lauerz","commune":{"key":"1365","name":"Lauerz","shortName":"Lauerz"},"district":{"key":"506","name":"Bezirk Schwyz"},"canton":{"key":"5","code":"SZ","name":"Schwyz"},"status":"Real"},{"key":"10016079","name":"Seestrasse","postalCode":"6424","locality":"Lauerz","commune":{"key":"1365","name":"Lauerz","shortName":"Lauerz"},"district":{"key":"506","name":"Bezirk Schwyz"},"canton":{"key":"5","code":"SZ","name":"Schwyz"},"status":"Real"},{"key":"10187642","name":"Untere Märchymatte","postalCode":"6424","locality":"Lauerz","commune":{"key":"1365","name":"Lauerz","shortName":"Lauerz"},"district":{"key":"506","name":"Bezirk Schwyz"},"canton":{"key":"5","code":"SZ","name":"Schwyz"},"status":"Real"},{"key":"10223264","name":"Unterer Twäriberg","postalCode":"6424","locality":"Lauerz","commune":{"key":"1365","name":"Lauerz","shortName":"Lauerz"},"district":{"key":"506","name":"Bezirk Schwyz"},"canton":{"key":"5","code":"SZ","name":"Schwyz"},"status":"Real"},{"key":"10169892","name":"Unter Gurgen","postalCode":"6424","locality":"Lauerz","commune":{"key":"1365","name":"Lauerz","shortName":"Lauerz"},"district":{"key":"506","name":"Bezirk Schwyz"},"canton":{"key":"5","code":"SZ","name":"Schwyz"},"status":"Real"},{"key":"10178302","name":"Unterhof","postalCode":"6424","locality":"Lauerz","commune":{"key":"1365","name":"Lauerz","shortName":"Lauerz"},"district":{"key":"506","name":"Bezirk Schwyz"},"canton":{"key":"5","code":"SZ","name":"Schwyz"},"status":"Real"},]