[{"name":"Am Blocksberg","postalCode":"24361","locality":"Groß Wittensee","municipality":{"key":"01058066","name":"Groß Wittensee","type":"Kreisangehörige_Gemeinde"},"district":{"key":"01058","name":"Rendsburg-Eckernförde","type":"Kreis"},"federalState":{"key":"01","name":"Schleswig-Holstein"}},{"name":"Am Mühlenberg","postalCode":"24361","locality":"Groß Wittensee","municipality":{"key":"01058066","name":"Groß Wittensee","type":"Kreisangehörige_Gemeinde"},"district":{"key":"01058","name":"Rendsburg-Eckernförde","type":"Kreis"},"federalState":{"key":"01","name":"Schleswig-Holstein"}},{"name":"Badestelle Dorfstr.","postalCode":"24361","locality":"Groß Wittensee","municipality":{"key":"01058066","name":"Groß Wittensee","type":"Kreisangehörige_Gemeinde"},"district":{"key":"01058","name":"Rendsburg-Eckernförde","type":"Kreis"},"federalState":{"key":"01","name":"Schleswig-Holstein"}},{"name":"Badestelle Habyer Str.","postalCode":"24361","locality":"Groß Wittensee","municipality":{"key":"01058066","name":"Groß Wittensee","type":"Kreisangehörige_Gemeinde"},"district":{"key":"01058","name":"Rendsburg-Eckernförde","type":"Kreis"},"federalState":{"key":"01","name":"Schleswig-Holstein"}},{"name":"Börm","postalCode":"24361","locality":"Groß Wittensee","municipality":{"key":"01058066","name":"Groß Wittensee","type":"Kreisangehörige_Gemeinde"},"district":{"key":"01058","name":"Rendsburg-Eckernförde","type":"Kreis"},"federalState":{"key":"01","name":"Schleswig-Holstein"}},{"name":"Bürgermeisterkoppel","postalCode":"24361","locality":"Groß Wittensee","municipality":{"key":"01058066","name":"Groß Wittensee","type":"Kreisangehörige_Gemeinde"},"district":{"key":"01058","name":"Rendsburg-Eckernförde","type":"Kreis"},"federalState":{"key":"01","name":"Schleswig-Holstein"}},{"name":"Damendorfer Str.","postalCode":"24361","locality":"Groß Wittensee","municipality":{"key":"01058066","name":"Groß Wittensee","type":"Kreisangehörige_Gemeinde"},"district":{"key":"01058","name":"Rendsburg-Eckernförde","type":"Kreis"},"federalState":{"key":"01","name":"Schleswig-Holstein"}},{"name":"Dorfstr.","postalCode":"24361","locality":"Groß Wittensee","municipality":{"key":"01058066","name":"Groß Wittensee","type":"Kreisangehörige_Gemeinde"},"district":{"key":"01058","name":"Rendsburg-Eckernförde","type":"Kreis"},"federalState":{"key":"01","name":"Schleswig-Holstein"}},{"name":"Eekholl","postalCode":"24361","locality":"Groß Wittensee","municipality":{"key":"01058066","name":"Groß Wittensee","type":"Kreisangehörige_Gemeinde"},"district":{"key":"01058","name":"Rendsburg-Eckernförde","type":"Kreis"},"federalState":{"key":"01","name":"Schleswig-Holstein"}},{"name":"Eksaler Weg","postalCode":"24361","locality":"Groß Wittensee","municipality":{"key":"01058066","name":"Groß Wittensee","type":"Kreisangehörige_Gemeinde"},"district":{"key":"01058","name":"Rendsburg-Eckernförde","type":"Kreis"},"federalState":{"key":"01","name":"Schleswig-Holstein"}},{"name":"Felsenrade","postalCode":"24361","locality":"Groß Wittensee","municipality":{"key":"01058066","name":"Groß Wittensee","type":"Kreisangehörige_Gemeinde"},"district":{"key":"01058","name":"Rendsburg-Eckernförde","type":"Kreis"},"federalState":{"key":"01","name":"Schleswig-Holstein"}},{"name":"Habyer Str.","postalCode":"24361","locality":"Groß Wittensee","municipality":{"key":"01058066","name":"Groß Wittensee","type":"Kreisangehörige_Gemeinde"},"district":{"key":"01058","name":"Rendsburg-Eckernförde","type":"Kreis"},"federalState":{"key":"01","name":"Schleswig-Holstein"}},{"name":"Ihsrader Kamp","postalCode":"24361","locality":"Groß Wittensee","municipality":{"key":"01058066","name":"Groß Wittensee","type":"Kreisangehörige_Gemeinde"},"district":{"key":"01058","name":"Rendsburg-Eckernförde","type":"Kreis"},"federalState":{"key":"01","name":"Schleswig-Holstein"}},{"name":"Im Wiesengrund","postalCode":"24361","locality":"Groß Wittensee","municipality":{"key":"01058066","name":"Groß Wittensee","type":"Kreisangehörige_Gemeinde"},"district":{"key":"01058","name":"Rendsburg-Eckernförde","type":"Kreis"},"federalState":{"key":"01","name":"Schleswig-Holstein"}},{"name":"Jürgensrade","postalCode":"24361","locality":"Groß Wittensee","municipality":{"key":"01058066","name":"Groß Wittensee","type":"Kreisangehörige_Gemeinde"},"district":{"key":"01058","name":"Rendsburg-Eckernförde","type":"Kreis"},"federalState":{"key":"01","name":"Schleswig-Holstein"}},{"name":"Kirchenweg","postalCode":"24361","locality":"Groß Wittensee","municipality":{"key":"01058066","name":"Groß Wittensee","type":"Kreisangehörige_Gemeinde"},"district":{"key":"01058","name":"Rendsburg-Eckernförde","type":"Kreis"},"federalState":{"key":"01","name":"Schleswig-Holstein"}},{"name":"Kirchhorster Weg","postalCode":"24361","locality":"Groß Wittensee","municipality":{"key":"01058066","name":"Groß Wittensee","type":"Kreisangehörige_Gemeinde"},"district":{"key":"01058","name":"Rendsburg-Eckernförde","type":"Kreis"},"federalState":{"key":"01","name":"Schleswig-Holstein"}},{"name":"Lehmberg","postalCode":"24361","locality":"Groß Wittensee","municipality":{"key":"01058066","name":"Groß Wittensee","type":"Kreisangehörige_Gemeinde"},"district":{"key":"01058","name":"Rendsburg-Eckernförde","type":"Kreis"},"federalState":{"key":"01","name":"Schleswig-Holstein"}},{"name":"Moorweg","postalCode":"24361","locality":"Groß Wittensee","municipality":{"key":"01058066","name":"Groß Wittensee","type":"Kreisangehörige_Gemeinde"},"district":{"key":"01058","name":"Rendsburg-Eckernförde","type":"Kreis"},"federalState":{"key":"01","name":"Schleswig-Holstein"}},{"name":"Mühlenstr.","postalCode":"24361","locality":"Groß Wittensee","municipality":{"key":"01058066","name":"Groß Wittensee","type":"Kreisangehörige_Gemeinde"},"district":{"key":"01058","name":"Rendsburg-Eckernförde","type":"Kreis"},"federalState":{"key":"01","name":"Schleswig-Holstein"}},{"name":"Neubrück","postalCode":"24361","locality":"Groß Wittensee","municipality":{"key":"01058066","name":"Groß Wittensee","type":"Kreisangehörige_Gemeinde"},"district":{"key":"01058","name":"Rendsburg-Eckernförde","type":"Kreis"},"federalState":{"key":"01","name":"Schleswig-Holstein"}},{"name":"Rendsburger Str.","postalCode":"24361","locality":"Groß Wittensee","municipality":{"key":"01058066","name":"Groß Wittensee","type":"Kreisangehörige_Gemeinde"},"district":{"key":"01058","name":"Rendsburg-Eckernförde","type":"Kreis"},"federalState":{"key":"01","name":"Schleswig-Holstein"}},{"name":"Schanze","postalCode":"24361","locality":"Groß Wittensee","municipality":{"key":"01058066","name":"Groß Wittensee","type":"Kreisangehörige_Gemeinde"},"district":{"key":"01058","name":"Rendsburg-Eckernförde","type":"Kreis"},"federalState":{"key":"01","name":"Schleswig-Holstein"}},{"name":"Schlaukweg","postalCode":"24361","locality":"Groß Wittensee","municipality":{"key":"01058066","name":"Groß Wittensee","type":"Kreisangehörige_Gemeinde"},"district":{"key":"01058","name":"Rendsburg-Eckernförde","type":"Kreis"},"federalState":{"key":"01","name":"Schleswig-Holstein"}},{"name":"Seeblick","postalCode":"24361","locality":"Groß Wittensee","municipality":{"key":"01058066","name":"Groß Wittensee","type":"Kreisangehörige_Gemeinde"},"district":{"key":"01058","name":"Rendsburg-Eckernförde","type":"Kreis"},"federalState":{"key":"01","name":"Schleswig-Holstein"}},{"name":"Seeuferstr.","postalCode":"24361","locality":"Groß Wittensee","municipality":{"key":"01058066","name":"Groß Wittensee","type":"Kreisangehörige_Gemeinde"},"district":{"key":"01058","name":"Rendsburg-Eckernförde","type":"Kreis"},"federalState":{"key":"01","name":"Schleswig-Holstein"}},{"name":"Timmermeß","postalCode":"24361","locality":"Groß Wittensee","municipality":{"key":"01058066","name":"Groß Wittensee","type":"Kreisangehörige_Gemeinde"},"district":{"key":"01058","name":"Rendsburg-Eckernförde","type":"Kreis"},"federalState":{"key":"01","name":"Schleswig-Holstein"}},{"name":"Wiesenweg","postalCode":"24361","locality":"Groß Wittensee","municipality":{"key":"01058066","name":"Groß Wittensee","type":"Kreisangehörige_Gemeinde"},"district":{"key":"01058","name":"Rendsburg-Eckernförde","type":"Kreis"},"federalState":{"key":"01","name":"Schleswig-Holstein"}},{"name":"Wohldmaas","postalCode":"24361","locality":"Groß Wittensee","municipality":{"key":"01058066","name":"Groß Wittensee","type":"Kreisangehörige_Gemeinde"},"district":{"key":"01058","name":"Rendsburg-Eckernförde","type":"Kreis"},"federalState":{"key":"01","name":"Schleswig-Holstein"}},]