[{"name":"Ablassweg","postalCode":"74924","locality":"Neckarbischofsheim","municipality":{"key":"08226055","name":"Neckarbischofsheim, Stadt","type":"Stadt"},"district":{"key":"08226","name":"Rhein-Neckar-Kreis","type":"Landkreis"},"federalState":{"key":"08","name":"Baden-Württemberg"}},{"name":"Ahornstr.","postalCode":"74924","locality":"Neckarbischofsheim","municipality":{"key":"08226055","name":"Neckarbischofsheim, Stadt","type":"Stadt"},"district":{"key":"08226","name":"Rhein-Neckar-Kreis","type":"Landkreis"},"federalState":{"key":"08","name":"Baden-Württemberg"}},{"name":"Akazienstr.","postalCode":"74924","locality":"Neckarbischofsheim","municipality":{"key":"08226055","name":"Neckarbischofsheim, Stadt","type":"Stadt"},"district":{"key":"08226","name":"Rhein-Neckar-Kreis","type":"Landkreis"},"federalState":{"key":"08","name":"Baden-Württemberg"}},{"name":"Alexandergasse","postalCode":"74924","locality":"Neckarbischofsheim","municipality":{"key":"08226055","name":"Neckarbischofsheim, Stadt","type":"Stadt"},"district":{"key":"08226","name":"Rhein-Neckar-Kreis","type":"Landkreis"},"federalState":{"key":"08","name":"Baden-Württemberg"}},{"name":"Allee La Chapelle-Saint-Luc","postalCode":"74924","locality":"Neckarbischofsheim","municipality":{"key":"08226055","name":"Neckarbischofsheim, Stadt","type":"Stadt"},"district":{"key":"08226","name":"Rhein-Neckar-Kreis","type":"Landkreis"},"federalState":{"key":"08","name":"Baden-Württemberg"}},{"name":"Alte Hasselbacher Str.","postalCode":"74924","locality":"Neckarbischofsheim","municipality":{"key":"08226055","name":"Neckarbischofsheim, Stadt","type":"Stadt"},"district":{"key":"08226","name":"Rhein-Neckar-Kreis","type":"Landkreis"},"federalState":{"key":"08","name":"Baden-Württemberg"}},{"name":"Alte Rathausgasse","postalCode":"74924","locality":"Neckarbischofsheim","municipality":{"key":"08226055","name":"Neckarbischofsheim, Stadt","type":"Stadt"},"district":{"key":"08226","name":"Rhein-Neckar-Kreis","type":"Landkreis"},"federalState":{"key":"08","name":"Baden-Württemberg"}},{"name":"Alter Hasselbacher Weg","postalCode":"74924","locality":"Neckarbischofsheim","municipality":{"key":"08226055","name":"Neckarbischofsheim, Stadt","type":"Stadt"},"district":{"key":"08226","name":"Rhein-Neckar-Kreis","type":"Landkreis"},"federalState":{"key":"08","name":"Baden-Württemberg"}},{"name":"Alter Sinsheimer Weg","postalCode":"74924","locality":"Neckarbischofsheim","municipality":{"key":"08226055","name":"Neckarbischofsheim, Stadt","type":"Stadt"},"district":{"key":"08226","name":"Rhein-Neckar-Kreis","type":"Landkreis"},"federalState":{"key":"08","name":"Baden-Württemberg"}},{"name":"Amselstr.","postalCode":"74924","locality":"Neckarbischofsheim","municipality":{"key":"08226055","name":"Neckarbischofsheim, Stadt","type":"Stadt"},"district":{"key":"08226","name":"Rhein-Neckar-Kreis","type":"Landkreis"},"federalState":{"key":"08","name":"Baden-Württemberg"}},{"name":"Auwiesen","postalCode":"74924","locality":"Neckarbischofsheim","municipality":{"key":"08226055","name":"Neckarbischofsheim, Stadt","type":"Stadt"},"district":{"key":"08226","name":"Rhein-Neckar-Kreis","type":"Landkreis"},"federalState":{"key":"08","name":"Baden-Württemberg"}},{"name":"Bahnhofstr.","postalCode":"74924","locality":"Neckarbischofsheim","municipality":{"key":"08226055","name":"Neckarbischofsheim, Stadt","type":"Stadt"},"district":{"key":"08226","name":"Rhein-Neckar-Kreis","type":"Landkreis"},"federalState":{"key":"08","name":"Baden-Württemberg"}},{"name":"Bargener Weg","postalCode":"74924","locality":"Neckarbischofsheim","municipality":{"key":"08226055","name":"Neckarbischofsheim, Stadt","type":"Stadt"},"district":{"key":"08226","name":"Rhein-Neckar-Kreis","type":"Landkreis"},"federalState":{"key":"08","name":"Baden-Württemberg"}},{"name":"Bergstr.","postalCode":"74924","locality":"Neckarbischofsheim","municipality":{"key":"08226055","name":"Neckarbischofsheim, Stadt","type":"Stadt"},"district":{"key":"08226","name":"Rhein-Neckar-Kreis","type":"Landkreis"},"federalState":{"key":"08","name":"Baden-Württemberg"}},{"name":"Biegelhofstr.","postalCode":"74924","locality":"Neckarbischofsheim","municipality":{"key":"08226055","name":"Neckarbischofsheim, Stadt","type":"Stadt"},"district":{"key":"08226","name":"Rhein-Neckar-Kreis","type":"Landkreis"},"federalState":{"key":"08","name":"Baden-Württemberg"}},{"name":"Birkenstr.","postalCode":"74924","locality":"Neckarbischofsheim","municipality":{"key":"08226055","name":"Neckarbischofsheim, Stadt","type":"Stadt"},"district":{"key":"08226","name":"Rhein-Neckar-Kreis","type":"Landkreis"},"federalState":{"key":"08","name":"Baden-Württemberg"}},{"name":"Bitzweg","postalCode":"74924","locality":"Neckarbischofsheim","municipality":{"key":"08226055","name":"Neckarbischofsheim, Stadt","type":"Stadt"},"district":{"key":"08226","name":"Rhein-Neckar-Kreis","type":"Landkreis"},"federalState":{"key":"08","name":"Baden-Württemberg"}},{"name":"Brückenstr.","postalCode":"74924","locality":"Neckarbischofsheim","municipality":{"key":"08226055","name":"Neckarbischofsheim, Stadt","type":"Stadt"},"district":{"key":"08226","name":"Rhein-Neckar-Kreis","type":"Landkreis"},"federalState":{"key":"08","name":"Baden-Württemberg"}},{"name":"Brunnengasse","postalCode":"74924","locality":"Neckarbischofsheim","municipality":{"key":"08226055","name":"Neckarbischofsheim, Stadt","type":"Stadt"},"district":{"key":"08226","name":"Rhein-Neckar-Kreis","type":"Landkreis"},"federalState":{"key":"08","name":"Baden-Württemberg"}},{"name":"Buchenstr.","postalCode":"74924","locality":"Neckarbischofsheim","municipality":{"key":"08226055","name":"Neckarbischofsheim, Stadt","type":"Stadt"},"district":{"key":"08226","name":"Rhein-Neckar-Kreis","type":"Landkreis"},"federalState":{"key":"08","name":"Baden-Württemberg"}},{"name":"Buchenweg","postalCode":"74924","locality":"Neckarbischofsheim","municipality":{"key":"08226055","name":"Neckarbischofsheim, Stadt","type":"Stadt"},"district":{"key":"08226","name":"Rhein-Neckar-Kreis","type":"Landkreis"},"federalState":{"key":"08","name":"Baden-Württemberg"}},{"name":"Bürgermeister-Neuwirth-Str.","postalCode":"74924","locality":"Neckarbischofsheim","municipality":{"key":"08226055","name":"Neckarbischofsheim, Stadt","type":"Stadt"},"district":{"key":"08226","name":"Rhein-Neckar-Kreis","type":"Landkreis"},"federalState":{"key":"08","name":"Baden-Württemberg"}},{"name":"Bürgerwaldweg","postalCode":"74924","locality":"Neckarbischofsheim","municipality":{"key":"08226055","name":"Neckarbischofsheim, Stadt","type":"Stadt"},"district":{"key":"08226","name":"Rhein-Neckar-Kreis","type":"Landkreis"},"federalState":{"key":"08","name":"Baden-Württemberg"}},{"name":"Bussardstr.","postalCode":"74924","locality":"Neckarbischofsheim","municipality":{"key":"08226055","name":"Neckarbischofsheim, Stadt","type":"Stadt"},"district":{"key":"08226","name":"Rhein-Neckar-Kreis","type":"Landkreis"},"federalState":{"key":"08","name":"Baden-Württemberg"}},{"name":"Christberg Weg","postalCode":"74924","locality":"Neckarbischofsheim","municipality":{"key":"08226055","name":"Neckarbischofsheim, Stadt","type":"Stadt"},"district":{"key":"08226","name":"Rhein-Neckar-Kreis","type":"Landkreis"},"federalState":{"key":"08","name":"Baden-Württemberg"}},{"name":"Christlingengraben","postalCode":"74924","locality":"Neckarbischofsheim","municipality":{"key":"08226055","name":"Neckarbischofsheim, Stadt","type":"Stadt"},"district":{"key":"08226","name":"Rhein-Neckar-Kreis","type":"Landkreis"},"federalState":{"key":"08","name":"Baden-Württemberg"}},{"name":"Dachsbau Weg","postalCode":"74924","locality":"Neckarbischofsheim","municipality":{"key":"08226055","name":"Neckarbischofsheim, Stadt","type":"Stadt"},"district":{"key":"08226","name":"Rhein-Neckar-Kreis","type":"Landkreis"},"federalState":{"key":"08","name":"Baden-Württemberg"}},{"name":"Dürrköpfle Weg","postalCode":"74924","locality":"Neckarbischofsheim","municipality":{"key":"08226055","name":"Neckarbischofsheim, Stadt","type":"Stadt"},"district":{"key":"08226","name":"Rhein-Neckar-Kreis","type":"Landkreis"},"federalState":{"key":"08","name":"Baden-Württemberg"}},{"name":"Eicheläckerweg","postalCode":"74924","locality":"Neckarbischofsheim","municipality":{"key":"08226055","name":"Neckarbischofsheim, Stadt","type":"Stadt"},"district":{"key":"08226","name":"Rhein-Neckar-Kreis","type":"Landkreis"},"federalState":{"key":"08","name":"Baden-Württemberg"}},{"name":"Eichenstr.","postalCode":"74924","locality":"Neckarbischofsheim","municipality":{"key":"08226055","name":"Neckarbischofsheim, Stadt","type":"Stadt"},"district":{"key":"08226","name":"Rhein-Neckar-Kreis","type":"Landkreis"},"federalState":{"key":"08","name":"Baden-Württemberg"}},{"name":"Etzbuckel Weg","postalCode":"74924","locality":"Neckarbischofsheim","municipality":{"key":"08226055","name":"Neckarbischofsheim, Stadt","type":"Stadt"},"district":{"key":"08226","name":"Rhein-Neckar-Kreis","type":"Landkreis"},"federalState":{"key":"08","name":"Baden-Württemberg"}},{"name":"Fasanenstr.","postalCode":"74924","locality":"Neckarbischofsheim","municipality":{"key":"08226055","name":"Neckarbischofsheim, Stadt","type":"Stadt"},"district":{"key":"08226","name":"Rhein-Neckar-Kreis","type":"Landkreis"},"federalState":{"key":"08","name":"Baden-Württemberg"}},{"name":"Feuerwehrhütte Weg","postalCode":"74924","locality":"Neckarbischofsheim","municipality":{"key":"08226055","name":"Neckarbischofsheim, Stadt","type":"Stadt"},"district":{"key":"08226","name":"Rhein-Neckar-Kreis","type":"Landkreis"},"federalState":{"key":"08","name":"Baden-Württemberg"}},{"name":"Finkenstr.","postalCode":"74924","locality":"Neckarbischofsheim","municipality":{"key":"08226055","name":"Neckarbischofsheim, Stadt","type":"Stadt"},"district":{"key":"08226","name":"Rhein-Neckar-Kreis","type":"Landkreis"},"federalState":{"key":"08","name":"Baden-Württemberg"}},{"name":"Flinsbacher Str.","postalCode":"74924","locality":"Neckarbischofsheim","municipality":{"key":"08226055","name":"Neckarbischofsheim, Stadt","type":"Stadt"},"district":{"key":"08226","name":"Rhein-Neckar-Kreis","type":"Landkreis"},"federalState":{"key":"08","name":"Baden-Württemberg"}},{"name":"Forlenstr.","postalCode":"74924","locality":"Neckarbischofsheim","municipality":{"key":"08226055","name":"Neckarbischofsheim, Stadt","type":"Stadt"},"district":{"key":"08226","name":"Rhein-Neckar-Kreis","type":"Landkreis"},"federalState":{"key":"08","name":"Baden-Württemberg"}},{"name":"Forststr.","postalCode":"74924","locality":"Neckarbischofsheim","municipality":{"key":"08226055","name":"Neckarbischofsheim, Stadt","type":"Stadt"},"district":{"key":"08226","name":"Rhein-Neckar-Kreis","type":"Landkreis"},"federalState":{"key":"08","name":"Baden-Württemberg"}},{"name":"Friedhofstr.","postalCode":"74924","locality":"Neckarbischofsheim","municipality":{"key":"08226055","name":"Neckarbischofsheim, Stadt","type":"Stadt"},"district":{"key":"08226","name":"Rhein-Neckar-Kreis","type":"Landkreis"},"federalState":{"key":"08","name":"Baden-Württemberg"}},{"name":"Fuchsweg","postalCode":"74924","locality":"Neckarbischofsheim","municipality":{"key":"08226055","name":"Neckarbischofsheim, Stadt","type":"Stadt"},"district":{"key":"08226","name":"Rhein-Neckar-Kreis","type":"Landkreis"},"federalState":{"key":"08","name":"Baden-Württemberg"}},{"name":"Galgenbargweg","postalCode":"74924","locality":"Neckarbischofsheim","municipality":{"key":"08226055","name":"Neckarbischofsheim, Stadt","type":"Stadt"},"district":{"key":"08226","name":"Rhein-Neckar-Kreis","type":"Landkreis"},"federalState":{"key":"08","name":"Baden-Württemberg"}},{"name":"Galgenberg Weg","postalCode":"74924","locality":"Neckarbischofsheim","municipality":{"key":"08226055","name":"Neckarbischofsheim, Stadt","type":"Stadt"},"district":{"key":"08226","name":"Rhein-Neckar-Kreis","type":"Landkreis"},"federalState":{"key":"08","name":"Baden-Württemberg"}},{"name":"Gartenstr.","postalCode":"74924","locality":"Neckarbischofsheim","municipality":{"key":"08226055","name":"Neckarbischofsheim, Stadt","type":"Stadt"},"district":{"key":"08226","name":"Rhein-Neckar-Kreis","type":"Landkreis"},"federalState":{"key":"08","name":"Baden-Württemberg"}},{"name":"Goethestr.","postalCode":"74924","locality":"Neckarbischofsheim","municipality":{"key":"08226055","name":"Neckarbischofsheim, Stadt","type":"Stadt"},"district":{"key":"08226","name":"Rhein-Neckar-Kreis","type":"Landkreis"},"federalState":{"key":"08","name":"Baden-Württemberg"}},{"name":"Haardweg","postalCode":"74924","locality":"Neckarbischofsheim","municipality":{"key":"08226055","name":"Neckarbischofsheim, Stadt","type":"Stadt"},"district":{"key":"08226","name":"Rhein-Neckar-Kreis","type":"Landkreis"},"federalState":{"key":"08","name":"Baden-Württemberg"}},{"name":"Haferweg","postalCode":"74924","locality":"Neckarbischofsheim","municipality":{"key":"08226055","name":"Neckarbischofsheim, Stadt","type":"Stadt"},"district":{"key":"08226","name":"Rhein-Neckar-Kreis","type":"Landkreis"},"federalState":{"key":"08","name":"Baden-Württemberg"}},{"name":"Haidenrainweg","postalCode":"74924","locality":"Neckarbischofsheim","municipality":{"key":"08226055","name":"Neckarbischofsheim, Stadt","type":"Stadt"},"district":{"key":"08226","name":"Rhein-Neckar-Kreis","type":"Landkreis"},"federalState":{"key":"08","name":"Baden-Württemberg"}},{"name":"Hauptstr.","postalCode":"74924","locality":"Neckarbischofsheim","municipality":{"key":"08226055","name":"Neckarbischofsheim, Stadt","type":"Stadt"},"district":{"key":"08226","name":"Rhein-Neckar-Kreis","type":"Landkreis"},"federalState":{"key":"08","name":"Baden-Württemberg"}},{"name":"Hebelstr.","postalCode":"74924","locality":"Neckarbischofsheim","municipality":{"key":"08226055","name":"Neckarbischofsheim, Stadt","type":"Stadt"},"district":{"key":"08226","name":"Rhein-Neckar-Kreis","type":"Landkreis"},"federalState":{"key":"08","name":"Baden-Württemberg"}},{"name":"Helmhofer Weg","postalCode":"74924","locality":"Neckarbischofsheim","municipality":{"key":"08226055","name":"Neckarbischofsheim, Stadt","type":"Stadt"},"district":{"key":"08226","name":"Rhein-Neckar-Kreis","type":"Landkreis"},"federalState":{"key":"08","name":"Baden-Württemberg"}},{"name":"Helmstadter Str.","postalCode":"74924","locality":"Neckarbischofsheim","municipality":{"key":"08226055","name":"Neckarbischofsheim, Stadt","type":"Stadt"},"district":{"key":"08226","name":"Rhein-Neckar-Kreis","type":"Landkreis"},"federalState":{"key":"08","name":"Baden-Württemberg"}},{"name":"Hexenbuckelweg","postalCode":"74924","locality":"Neckarbischofsheim","municipality":{"key":"08226055","name":"Neckarbischofsheim, Stadt","type":"Stadt"},"district":{"key":"08226","name":"Rhein-Neckar-Kreis","type":"Landkreis"},"federalState":{"key":"08","name":"Baden-Württemberg"}},{"name":"Hilde-Domin-Str.","postalCode":"74924","locality":"Neckarbischofsheim","municipality":{"key":"08226055","name":"Neckarbischofsheim, Stadt","type":"Stadt"},"district":{"key":"08226","name":"Rhein-Neckar-Kreis","type":"Landkreis"},"federalState":{"key":"08","name":"Baden-Württemberg"}},{"name":"Hohe-Buchen-Weg","postalCode":"74924","locality":"Neckarbischofsheim","municipality":{"key":"08226055","name":"Neckarbischofsheim, Stadt","type":"Stadt"},"district":{"key":"08226","name":"Rhein-Neckar-Kreis","type":"Landkreis"},"federalState":{"key":"08","name":"Baden-Württemberg"}},{"name":"Höhenstr.","postalCode":"74924","locality":"Neckarbischofsheim","municipality":{"key":"08226055","name":"Neckarbischofsheim, Stadt","type":"Stadt"},"district":{"key":"08226","name":"Rhein-Neckar-Kreis","type":"Landkreis"},"federalState":{"key":"08","name":"Baden-Württemberg"}},{"name":"Hölderlinstr.","postalCode":"74924","locality":"Neckarbischofsheim","municipality":{"key":"08226055","name":"Neckarbischofsheim, Stadt","type":"Stadt"},"district":{"key":"08226","name":"Rhein-Neckar-Kreis","type":"Landkreis"},"federalState":{"key":"08","name":"Baden-Württemberg"}},{"name":"Im Grund","postalCode":"74924","locality":"Neckarbischofsheim","municipality":{"key":"08226055","name":"Neckarbischofsheim, Stadt","type":"Stadt"},"district":{"key":"08226","name":"Rhein-Neckar-Kreis","type":"Landkreis"},"federalState":{"key":"08","name":"Baden-Württemberg"}},{"name":"Im Linsenkuchen","postalCode":"74924","locality":"Neckarbischofsheim","municipality":{"key":"08226055","name":"Neckarbischofsheim, Stadt","type":"Stadt"},"district":{"key":"08226","name":"Rhein-Neckar-Kreis","type":"Landkreis"},"federalState":{"key":"08","name":"Baden-Württemberg"}},{"name":"Im Schlägle","postalCode":"74924","locality":"Neckarbischofsheim","municipality":{"key":"08226055","name":"Neckarbischofsheim, Stadt","type":"Stadt"},"district":{"key":"08226","name":"Rhein-Neckar-Kreis","type":"Landkreis"},"federalState":{"key":"08","name":"Baden-Württemberg"}},{"name":"Im Teufelshorn","postalCode":"74924","locality":"Neckarbischofsheim","municipality":{"key":"08226055","name":"Neckarbischofsheim, Stadt","type":"Stadt"},"district":{"key":"08226","name":"Rhein-Neckar-Kreis","type":"Landkreis"},"federalState":{"key":"08","name":"Baden-Württemberg"}},{"name":"Innere Christlingen","postalCode":"74924","locality":"Neckarbischofsheim","municipality":{"key":"08226055","name":"Neckarbischofsheim, Stadt","type":"Stadt"},"district":{"key":"08226","name":"Rhein-Neckar-Kreis","type":"Landkreis"},"federalState":{"key":"08","name":"Baden-Württemberg"}},{"name":"Jagdhausweg","postalCode":"74924","locality":"Neckarbischofsheim","municipality":{"key":"08226055","name":"Neckarbischofsheim, Stadt","type":"Stadt"},"district":{"key":"08226","name":"Rhein-Neckar-Kreis","type":"Landkreis"},"federalState":{"key":"08","name":"Baden-Württemberg"}},{"name":"Judenweg","postalCode":"74924","locality":"Neckarbischofsheim","municipality":{"key":"08226055","name":"Neckarbischofsheim, Stadt","type":"Stadt"},"district":{"key":"08226","name":"Rhein-Neckar-Kreis","type":"Landkreis"},"federalState":{"key":"08","name":"Baden-Württemberg"}},{"name":"Kapplersgärten","postalCode":"74924","locality":"Neckarbischofsheim","municipality":{"key":"08226055","name":"Neckarbischofsheim, Stadt","type":"Stadt"},"district":{"key":"08226","name":"Rhein-Neckar-Kreis","type":"Landkreis"},"federalState":{"key":"08","name":"Baden-Württemberg"}},{"name":"Kernerstr.","postalCode":"74924","locality":"Neckarbischofsheim","municipality":{"key":"08226055","name":"Neckarbischofsheim, Stadt","type":"Stadt"},"district":{"key":"08226","name":"Rhein-Neckar-Kreis","type":"Landkreis"},"federalState":{"key":"08","name":"Baden-Württemberg"}},{"name":"Kesselweg","postalCode":"74924","locality":"Neckarbischofsheim","municipality":{"key":"08226055","name":"Neckarbischofsheim, Stadt","type":"Stadt"},"district":{"key":"08226","name":"Rhein-Neckar-Kreis","type":"Landkreis"},"federalState":{"key":"08","name":"Baden-Württemberg"}},{"name":"Kirchstr.","postalCode":"74924","locality":"Neckarbischofsheim","municipality":{"key":"08226055","name":"Neckarbischofsheim, Stadt","type":"Stadt"},"district":{"key":"08226","name":"Rhein-Neckar-Kreis","type":"Landkreis"},"federalState":{"key":"08","name":"Baden-Württemberg"}},{"name":"Kohlwaldweg","postalCode":"74924","locality":"Neckarbischofsheim","municipality":{"key":"08226055","name":"Neckarbischofsheim, Stadt","type":"Stadt"},"district":{"key":"08226","name":"Rhein-Neckar-Kreis","type":"Landkreis"},"federalState":{"key":"08","name":"Baden-Württemberg"}},{"name":"Kryxenbergweg","postalCode":"74924","locality":"Neckarbischofsheim","municipality":{"key":"08226055","name":"Neckarbischofsheim, Stadt","type":"Stadt"},"district":{"key":"08226","name":"Rhein-Neckar-Kreis","type":"Landkreis"},"federalState":{"key":"08","name":"Baden-Württemberg"}},{"name":"Landstr.","postalCode":"74924","locality":"Neckarbischofsheim","municipality":{"key":"08226055","name":"Neckarbischofsheim, Stadt","type":"Stadt"},"district":{"key":"08226","name":"Rhein-Neckar-Kreis","type":"Landkreis"},"federalState":{"key":"08","name":"Baden-Württemberg"}},{"name":"Lerchenweg","postalCode":"74924","locality":"Neckarbischofsheim","municipality":{"key":"08226055","name":"Neckarbischofsheim, Stadt","type":"Stadt"},"district":{"key":"08226","name":"Rhein-Neckar-Kreis","type":"Landkreis"},"federalState":{"key":"08","name":"Baden-Württemberg"}},{"name":"Märzenweg","postalCode":"74924","locality":"Neckarbischofsheim","municipality":{"key":"08226055","name":"Neckarbischofsheim, Stadt","type":"Stadt"},"district":{"key":"08226","name":"Rhein-Neckar-Kreis","type":"Landkreis"},"federalState":{"key":"08","name":"Baden-Württemberg"}},{"name":"Meisenstr.","postalCode":"74924","locality":"Neckarbischofsheim","municipality":{"key":"08226055","name":"Neckarbischofsheim, Stadt","type":"Stadt"},"district":{"key":"08226","name":"Rhein-Neckar-Kreis","type":"Landkreis"},"federalState":{"key":"08","name":"Baden-Württemberg"}},{"name":"Mörikestr.","postalCode":"74924","locality":"Neckarbischofsheim","municipality":{"key":"08226055","name":"Neckarbischofsheim, Stadt","type":"Stadt"},"district":{"key":"08226","name":"Rhein-Neckar-Kreis","type":"Landkreis"},"federalState":{"key":"08","name":"Baden-Württemberg"}},{"name":"Mühlstr.","postalCode":"74924","locality":"Neckarbischofsheim","municipality":{"key":"08226055","name":"Neckarbischofsheim, Stadt","type":"Stadt"},"district":{"key":"08226","name":"Rhein-Neckar-Kreis","type":"Landkreis"},"federalState":{"key":"08","name":"Baden-Württemberg"}},{"name":"Nelly-Sachs-Str.","postalCode":"74924","locality":"Neckarbischofsheim","municipality":{"key":"08226055","name":"Neckarbischofsheim, Stadt","type":"Stadt"},"district":{"key":"08226","name":"Rhein-Neckar-Kreis","type":"Landkreis"},"federalState":{"key":"08","name":"Baden-Württemberg"}},{"name":"Obere Mühlbachgasse","postalCode":"74924","locality":"Neckarbischofsheim","municipality":{"key":"08226055","name":"Neckarbischofsheim, Stadt","type":"Stadt"},"district":{"key":"08226","name":"Rhein-Neckar-Kreis","type":"Landkreis"},"federalState":{"key":"08","name":"Baden-Württemberg"}},{"name":"Oberer Kohlhütte Weg","postalCode":"74924","locality":"Neckarbischofsheim","municipality":{"key":"08226055","name":"Neckarbischofsheim, Stadt","type":"Stadt"},"district":{"key":"08226","name":"Rhein-Neckar-Kreis","type":"Landkreis"},"federalState":{"key":"08","name":"Baden-Württemberg"}},{"name":"Oberer Ringweg","postalCode":"74924","locality":"Neckarbischofsheim","municipality":{"key":"08226055","name":"Neckarbischofsheim, Stadt","type":"Stadt"},"district":{"key":"08226","name":"Rhein-Neckar-Kreis","type":"Landkreis"},"federalState":{"key":"08","name":"Baden-Württemberg"}},{"name":"Oberes Eichertstal","postalCode":"74924","locality":"Neckarbischofsheim","municipality":{"key":"08226055","name":"Neckarbischofsheim, Stadt","type":"Stadt"},"district":{"key":"08226","name":"Rhein-Neckar-Kreis","type":"Landkreis"},"federalState":{"key":"08","name":"Baden-Württemberg"}},{"name":"Obere Turmstr.","postalCode":"74924","locality":"Neckarbischofsheim","municipality":{"key":"08226055","name":"Neckarbischofsheim, Stadt","type":"Stadt"},"district":{"key":"08226","name":"Rhein-Neckar-Kreis","type":"Landkreis"},"federalState":{"key":"08","name":"Baden-Württemberg"}},{"name":"Petersbacherweg","postalCode":"74924","locality":"Neckarbischofsheim","municipality":{"key":"08226055","name":"Neckarbischofsheim, Stadt","type":"Stadt"},"district":{"key":"08226","name":"Rhein-Neckar-Kreis","type":"Landkreis"},"federalState":{"key":"08","name":"Baden-Württemberg"}},{"name":"Pflanzgarten Weg","postalCode":"74924","locality":"Neckarbischofsheim","municipality":{"key":"08226055","name":"Neckarbischofsheim, Stadt","type":"Stadt"},"district":{"key":"08226","name":"Rhein-Neckar-Kreis","type":"Landkreis"},"federalState":{"key":"08","name":"Baden-Württemberg"}},{"name":"Plattenteichweg","postalCode":"74924","locality":"Neckarbischofsheim","municipality":{"key":"08226055","name":"Neckarbischofsheim, Stadt","type":"Stadt"},"district":{"key":"08226","name":"Rhein-Neckar-Kreis","type":"Landkreis"},"federalState":{"key":"08","name":"Baden-Württemberg"}},{"name":"Quellenhangweg","postalCode":"74924","locality":"Neckarbischofsheim","municipality":{"key":"08226055","name":"Neckarbischofsheim, Stadt","type":"Stadt"},"district":{"key":"08226","name":"Rhein-Neckar-Kreis","type":"Landkreis"},"federalState":{"key":"08","name":"Baden-Württemberg"}},{"name":"Rathausstr.","postalCode":"74924","locality":"Neckarbischofsheim","municipality":{"key":"08226055","name":"Neckarbischofsheim, Stadt","type":"Stadt"},"district":{"key":"08226","name":"Rhein-Neckar-Kreis","type":"Landkreis"},"federalState":{"key":"08","name":"Baden-Württemberg"}},{"name":"Ricarda-Huch-Str.","postalCode":"74924","locality":"Neckarbischofsheim","municipality":{"key":"08226055","name":"Neckarbischofsheim, Stadt","type":"Stadt"},"district":{"key":"08226","name":"Rhein-Neckar-Kreis","type":"Landkreis"},"federalState":{"key":"08","name":"Baden-Württemberg"}},{"name":"Rosenstr.","postalCode":"74924","locality":"Neckarbischofsheim","municipality":{"key":"08226055","name":"Neckarbischofsheim, Stadt","type":"Stadt"},"district":{"key":"08226","name":"Rhein-Neckar-Kreis","type":"Landkreis"},"federalState":{"key":"08","name":"Baden-Württemberg"}},{"name":"Ruth-Schwob-Str.","postalCode":"74924","locality":"Neckarbischofsheim","municipality":{"key":"08226055","name":"Neckarbischofsheim, Stadt","type":"Stadt"},"district":{"key":"08226","name":"Rhein-Neckar-Kreis","type":"Landkreis"},"federalState":{"key":"08","name":"Baden-Württemberg"}},{"name":"Saubrunnen Weg","postalCode":"74924","locality":"Neckarbischofsheim","municipality":{"key":"08226055","name":"Neckarbischofsheim, Stadt","type":"Stadt"},"district":{"key":"08226","name":"Rhein-Neckar-Kreis","type":"Landkreis"},"federalState":{"key":"08","name":"Baden-Württemberg"}},{"name":"Scheffelstr.","postalCode":"74924","locality":"Neckarbischofsheim","municipality":{"key":"08226055","name":"Neckarbischofsheim, Stadt","type":"Stadt"},"district":{"key":"08226","name":"Rhein-Neckar-Kreis","type":"Landkreis"},"federalState":{"key":"08","name":"Baden-Württemberg"}},{"name":"Schillerstr.","postalCode":"74924","locality":"Neckarbischofsheim","municipality":{"key":"08226055","name":"Neckarbischofsheim, Stadt","type":"Stadt"},"district":{"key":"08226","name":"Rhein-Neckar-Kreis","type":"Landkreis"},"federalState":{"key":"08","name":"Baden-Württemberg"}},{"name":"Schlosspark","postalCode":"74924","locality":"Neckarbischofsheim","municipality":{"key":"08226055","name":"Neckarbischofsheim, Stadt","type":"Stadt"},"district":{"key":"08226","name":"Rhein-Neckar-Kreis","type":"Landkreis"},"federalState":{"key":"08","name":"Baden-Württemberg"}},{"name":"Schloßstr.","postalCode":"74924","locality":"Neckarbischofsheim","municipality":{"key":"08226055","name":"Neckarbischofsheim, Stadt","type":"Stadt"},"district":{"key":"08226","name":"Rhein-Neckar-Kreis","type":"Landkreis"},"federalState":{"key":"08","name":"Baden-Württemberg"}},{"name":"Schmitthennerstr.","postalCode":"74924","locality":"Neckarbischofsheim","municipality":{"key":"08226055","name":"Neckarbischofsheim, Stadt","type":"Stadt"},"district":{"key":"08226","name":"Rhein-Neckar-Kreis","type":"Landkreis"},"federalState":{"key":"08","name":"Baden-Württemberg"}},{"name":"Schulgasse","postalCode":"74924","locality":"Neckarbischofsheim","municipality":{"key":"08226055","name":"Neckarbischofsheim, Stadt","type":"Stadt"},"district":{"key":"08226","name":"Rhein-Neckar-Kreis","type":"Landkreis"},"federalState":{"key":"08","name":"Baden-Württemberg"}},{"name":"Schulweg","postalCode":"74924","locality":"Neckarbischofsheim","municipality":{"key":"08226055","name":"Neckarbischofsheim, Stadt","type":"Stadt"},"district":{"key":"08226","name":"Rhein-Neckar-Kreis","type":"Landkreis"},"federalState":{"key":"08","name":"Baden-Württemberg"}},{"name":"Schwimmbadweg","postalCode":"74924","locality":"Neckarbischofsheim","municipality":{"key":"08226055","name":"Neckarbischofsheim, Stadt","type":"Stadt"},"district":{"key":"08226","name":"Rhein-Neckar-Kreis","type":"Landkreis"},"federalState":{"key":"08","name":"Baden-Württemberg"}},{"name":"Sinsheimer Str.","postalCode":"74924","locality":"Neckarbischofsheim","municipality":{"key":"08226055","name":"Neckarbischofsheim, Stadt","type":"Stadt"},"district":{"key":"08226","name":"Rhein-Neckar-Kreis","type":"Landkreis"},"federalState":{"key":"08","name":"Baden-Württemberg"}},{"name":"Spechtstr.","postalCode":"74924","locality":"Neckarbischofsheim","municipality":{"key":"08226055","name":"Neckarbischofsheim, Stadt","type":"Stadt"},"district":{"key":"08226","name":"Rhein-Neckar-Kreis","type":"Landkreis"},"federalState":{"key":"08","name":"Baden-Württemberg"}},{"name":"Sperberstr.","postalCode":"74924","locality":"Neckarbischofsheim","municipality":{"key":"08226055","name":"Neckarbischofsheim, Stadt","type":"Stadt"},"district":{"key":"08226","name":"Rhein-Neckar-Kreis","type":"Landkreis"},"federalState":{"key":"08","name":"Baden-Württemberg"}},{"name":"Steinbruchweg","postalCode":"74924","locality":"Neckarbischofsheim","municipality":{"key":"08226055","name":"Neckarbischofsheim, Stadt","type":"Stadt"},"district":{"key":"08226","name":"Rhein-Neckar-Kreis","type":"Landkreis"},"federalState":{"key":"08","name":"Baden-Württemberg"}},{"name":"Steinigter Bergweg","postalCode":"74924","locality":"Neckarbischofsheim","municipality":{"key":"08226055","name":"Neckarbischofsheim, Stadt","type":"Stadt"},"district":{"key":"08226","name":"Rhein-Neckar-Kreis","type":"Landkreis"},"federalState":{"key":"08","name":"Baden-Württemberg"}},{"name":"Talstr.","postalCode":"74924","locality":"Neckarbischofsheim","municipality":{"key":"08226055","name":"Neckarbischofsheim, Stadt","type":"Stadt"},"district":{"key":"08226","name":"Rhein-Neckar-Kreis","type":"Landkreis"},"federalState":{"key":"08","name":"Baden-Württemberg"}},{"name":"Tannenbuckelweg","postalCode":"74924","locality":"Neckarbischofsheim","municipality":{"key":"08226055","name":"Neckarbischofsheim, Stadt","type":"Stadt"},"district":{"key":"08226","name":"Rhein-Neckar-Kreis","type":"Landkreis"},"federalState":{"key":"08","name":"Baden-Württemberg"}},{"name":"Tannenstr.","postalCode":"74924","locality":"Neckarbischofsheim","municipality":{"key":"08226055","name":"Neckarbischofsheim, Stadt","type":"Stadt"},"district":{"key":"08226","name":"Rhein-Neckar-Kreis","type":"Landkreis"},"federalState":{"key":"08","name":"Baden-Württemberg"}},{"name":"Turmblick","postalCode":"74924","locality":"Neckarbischofsheim","municipality":{"key":"08226055","name":"Neckarbischofsheim, Stadt","type":"Stadt"},"district":{"key":"08226","name":"Rhein-Neckar-Kreis","type":"Landkreis"},"federalState":{"key":"08","name":"Baden-Württemberg"}},{"name":"Turmstr.","postalCode":"74924","locality":"Neckarbischofsheim","municipality":{"key":"08226055","name":"Neckarbischofsheim, Stadt","type":"Stadt"},"district":{"key":"08226","name":"Rhein-Neckar-Kreis","type":"Landkreis"},"federalState":{"key":"08","name":"Baden-Württemberg"}},{"name":"Uhlandstr.","postalCode":"74924","locality":"Neckarbischofsheim","municipality":{"key":"08226055","name":"Neckarbischofsheim, Stadt","type":"Stadt"},"district":{"key":"08226","name":"Rhein-Neckar-Kreis","type":"Landkreis"},"federalState":{"key":"08","name":"Baden-Württemberg"}},{"name":"Untere Mühlbachgasse","postalCode":"74924","locality":"Neckarbischofsheim","municipality":{"key":"08226055","name":"Neckarbischofsheim, Stadt","type":"Stadt"},"district":{"key":"08226","name":"Rhein-Neckar-Kreis","type":"Landkreis"},"federalState":{"key":"08","name":"Baden-Württemberg"}},{"name":"Unterer Ringweg","postalCode":"74924","locality":"Neckarbischofsheim","municipality":{"key":"08226055","name":"Neckarbischofsheim, Stadt","type":"Stadt"},"district":{"key":"08226","name":"Rhein-Neckar-Kreis","type":"Landkreis"},"federalState":{"key":"08","name":"Baden-Württemberg"}},{"name":"Unterer Wagenbacher Weg","postalCode":"74924","locality":"Neckarbischofsheim","municipality":{"key":"08226055","name":"Neckarbischofsheim, Stadt","type":"Stadt"},"district":{"key":"08226","name":"Rhein-Neckar-Kreis","type":"Landkreis"},"federalState":{"key":"08","name":"Baden-Württemberg"}},{"name":"Unteres Eichertstal","postalCode":"74924","locality":"Neckarbischofsheim","municipality":{"key":"08226055","name":"Neckarbischofsheim, Stadt","type":"Stadt"},"district":{"key":"08226","name":"Rhein-Neckar-Kreis","type":"Landkreis"},"federalState":{"key":"08","name":"Baden-Württemberg"}},{"name":"Untere Ziegelgasse","postalCode":"74924","locality":"Neckarbischofsheim","municipality":{"key":"08226055","name":"Neckarbischofsheim, Stadt","type":"Stadt"},"district":{"key":"08226","name":"Rhein-Neckar-Kreis","type":"Landkreis"},"federalState":{"key":"08","name":"Baden-Württemberg"}},{"name":"von-Hindenburg-Str.","postalCode":"74924","locality":"Neckarbischofsheim","municipality":{"key":"08226055","name":"Neckarbischofsheim, Stadt","type":"Stadt"},"district":{"key":"08226","name":"Rhein-Neckar-Kreis","type":"Landkreis"},"federalState":{"key":"08","name":"Baden-Württemberg"}},{"name":"Wagenbacher Weg","postalCode":"74924","locality":"Neckarbischofsheim","municipality":{"key":"08226055","name":"Neckarbischofsheim, Stadt","type":"Stadt"},"district":{"key":"08226","name":"Rhein-Neckar-Kreis","type":"Landkreis"},"federalState":{"key":"08","name":"Baden-Württemberg"}},{"name":"Waibstadter Str.","postalCode":"74924","locality":"Neckarbischofsheim","municipality":{"key":"08226055","name":"Neckarbischofsheim, Stadt","type":"Stadt"},"district":{"key":"08226","name":"Rhein-Neckar-Kreis","type":"Landkreis"},"federalState":{"key":"08","name":"Baden-Württemberg"}},{"name":"Waldblickstr.","postalCode":"74924","locality":"Neckarbischofsheim","municipality":{"key":"08226055","name":"Neckarbischofsheim, Stadt","type":"Stadt"},"district":{"key":"08226","name":"Rhein-Neckar-Kreis","type":"Landkreis"},"federalState":{"key":"08","name":"Baden-Württemberg"}},{"name":"Wasenweg","postalCode":"74924","locality":"Neckarbischofsheim","municipality":{"key":"08226055","name":"Neckarbischofsheim, Stadt","type":"Stadt"},"district":{"key":"08226","name":"Rhein-Neckar-Kreis","type":"Landkreis"},"federalState":{"key":"08","name":"Baden-Württemberg"}},{"name":"Weg aufgegeben","postalCode":"74924","locality":"Neckarbischofsheim","municipality":{"key":"08226055","name":"Neckarbischofsheim, Stadt","type":"Stadt"},"district":{"key":"08226","name":"Rhein-Neckar-Kreis","type":"Landkreis"},"federalState":{"key":"08","name":"Baden-Württemberg"}},{"name":"Weinbergstr.","postalCode":"74924","locality":"Neckarbischofsheim","municipality":{"key":"08226055","name":"Neckarbischofsheim, Stadt","type":"Stadt"},"district":{"key":"08226","name":"Rhein-Neckar-Kreis","type":"Landkreis"},"federalState":{"key":"08","name":"Baden-Württemberg"}},{"name":"Wiesentalweg","postalCode":"74924","locality":"Neckarbischofsheim","municipality":{"key":"08226055","name":"Neckarbischofsheim, Stadt","type":"Stadt"},"district":{"key":"08226","name":"Rhein-Neckar-Kreis","type":"Landkreis"},"federalState":{"key":"08","name":"Baden-Württemberg"}},{"name":"Wiesenweg","postalCode":"74924","locality":"Neckarbischofsheim","municipality":{"key":"08226055","name":"Neckarbischofsheim, Stadt","type":"Stadt"},"district":{"key":"08226","name":"Rhein-Neckar-Kreis","type":"Landkreis"},"federalState":{"key":"08","name":"Baden-Württemberg"}},{"name":"Wimpfener Str.","postalCode":"74924","locality":"Neckarbischofsheim","municipality":{"key":"08226055","name":"Neckarbischofsheim, Stadt","type":"Stadt"},"district":{"key":"08226","name":"Rhein-Neckar-Kreis","type":"Landkreis"},"federalState":{"key":"08","name":"Baden-Württemberg"}},{"name":"Ziegelgasse","postalCode":"74924","locality":"Neckarbischofsheim","municipality":{"key":"08226055","name":"Neckarbischofsheim, Stadt","type":"Stadt"},"district":{"key":"08226","name":"Rhein-Neckar-Kreis","type":"Landkreis"},"federalState":{"key":"08","name":"Baden-Württemberg"}},{"name":"Ziegelweg","postalCode":"74924","locality":"Neckarbischofsheim","municipality":{"key":"08226055","name":"Neckarbischofsheim, Stadt","type":"Stadt"},"district":{"key":"08226","name":"Rhein-Neckar-Kreis","type":"Landkreis"},"federalState":{"key":"08","name":"Baden-Württemberg"}},]