[{"name":"Adalbert-Stifter-Str.","postalCode":"35638","locality":"Leun","municipality":{"key":"06532016","name":"Leun, Stadt","type":"Stadt"},"district":{"key":"06532","name":"Lahn-Dill-Kreis","type":"Landkreis"},"federalState":{"key":"06","name":"Hessen"}},{"name":"Adolf-Heinz-Str.","postalCode":"35638","locality":"Leun","municipality":{"key":"06532016","name":"Leun, Stadt","type":"Stadt"},"district":{"key":"06532","name":"Lahn-Dill-Kreis","type":"Landkreis"},"federalState":{"key":"06","name":"Hessen"}},{"name":"Ahornstr.","postalCode":"35638","locality":"Leun","municipality":{"key":"06532016","name":"Leun, Stadt","type":"Stadt"},"district":{"key":"06532","name":"Lahn-Dill-Kreis","type":"Landkreis"},"federalState":{"key":"06","name":"Hessen"}},{"name":"Akazienstr.","postalCode":"35638","locality":"Leun","municipality":{"key":"06532016","name":"Leun, Stadt","type":"Stadt"},"district":{"key":"06532","name":"Lahn-Dill-Kreis","type":"Landkreis"},"federalState":{"key":"06","name":"Hessen"}},{"name":"Albert-Einstein-Str.","postalCode":"06237","locality":"Leuna","municipality":{"key":"15088205","name":"Leuna, Stadt","type":"Stadt"},"district":{"key":"15088","name":"Saalekreis","type":"Landkreis"},"federalState":{"key":"15","name":"Sachsen-Anhalt"}},{"name":"Allendorfer Str.","postalCode":"35638","locality":"Leun","municipality":{"key":"06532016","name":"Leun, Stadt","type":"Stadt"},"district":{"key":"06532","name":"Lahn-Dill-Kreis","type":"Landkreis"},"federalState":{"key":"06","name":"Hessen"}},{"name":"Alpinestr.","postalCode":"06237","locality":"Leuna","municipality":{"key":"15088205","name":"Leuna, Stadt","type":"Stadt"},"district":{"key":"15088","name":"Saalekreis","type":"Landkreis"},"federalState":{"key":"15","name":"Sachsen-Anhalt"}},{"name":"Alte Dorfstr.","postalCode":"06237","locality":"Leuna","municipality":{"key":"15088205","name":"Leuna, Stadt","type":"Stadt"},"district":{"key":"15088","name":"Saalekreis","type":"Landkreis"},"federalState":{"key":"15","name":"Sachsen-Anhalt"}},{"name":"Alte Leipziger Str.","postalCode":"06237","locality":"Leuna","municipality":{"key":"15088205","name":"Leuna, Stadt","type":"Stadt"},"district":{"key":"15088","name":"Saalekreis","type":"Landkreis"},"federalState":{"key":"15","name":"Sachsen-Anhalt"}},{"name":"Alter Bahnhof","postalCode":"06237","locality":"Leuna","municipality":{"key":"15088205","name":"Leuna, Stadt","type":"Stadt"},"district":{"key":"15088","name":"Saalekreis","type":"Landkreis"},"federalState":{"key":"15","name":"Sachsen-Anhalt"}},{"name":"Alter Holzplatz","postalCode":"06237","locality":"Leuna","municipality":{"key":"15088205","name":"Leuna, Stadt","type":"Stadt"},"district":{"key":"15088","name":"Saalekreis","type":"Landkreis"},"federalState":{"key":"15","name":"Sachsen-Anhalt"}},{"name":"Altes Dorf","postalCode":"06237","locality":"Leuna","municipality":{"key":"15088205","name":"Leuna, Stadt","type":"Stadt"},"district":{"key":"15088","name":"Saalekreis","type":"Landkreis"},"federalState":{"key":"15","name":"Sachsen-Anhalt"}},{"name":"Altes Rittergut","postalCode":"06237","locality":"Leuna","municipality":{"key":"15088205","name":"Leuna, Stadt","type":"Stadt"},"district":{"key":"15088","name":"Saalekreis","type":"Landkreis"},"federalState":{"key":"15","name":"Sachsen-Anhalt"}},{"name":"Altranstädter Weg","postalCode":"06237","locality":"Leuna","municipality":{"key":"15088205","name":"Leuna, Stadt","type":"Stadt"},"district":{"key":"15088","name":"Saalekreis","type":"Landkreis"},"federalState":{"key":"15","name":"Sachsen-Anhalt"}},{"name":"Am alten Floßgraben","postalCode":"06237","locality":"Leuna","municipality":{"key":"15088205","name":"Leuna, Stadt","type":"Stadt"},"district":{"key":"15088","name":"Saalekreis","type":"Landkreis"},"federalState":{"key":"15","name":"Sachsen-Anhalt"}},{"name":"Am Apfelberg","postalCode":"35638","locality":"Leun","municipality":{"key":"06532016","name":"Leun, Stadt","type":"Stadt"},"district":{"key":"06532","name":"Lahn-Dill-Kreis","type":"Landkreis"},"federalState":{"key":"06","name":"Hessen"}},{"name":"Am Bahnhof","postalCode":"06237","locality":"Leuna","municipality":{"key":"15088205","name":"Leuna, Stadt","type":"Stadt"},"district":{"key":"15088","name":"Saalekreis","type":"Landkreis"},"federalState":{"key":"15","name":"Sachsen-Anhalt"}},{"name":"Am Banggarten","postalCode":"35638","locality":"Leun","municipality":{"key":"06532016","name":"Leun, Stadt","type":"Stadt"},"district":{"key":"06532","name":"Lahn-Dill-Kreis","type":"Landkreis"},"federalState":{"key":"06","name":"Hessen"}},{"name":"Am Berg","postalCode":"35638","locality":"Leun","municipality":{"key":"06532016","name":"Leun, Stadt","type":"Stadt"},"district":{"key":"06532","name":"Lahn-Dill-Kreis","type":"Landkreis"},"federalState":{"key":"06","name":"Hessen"}},{"name":"Am Bornstück","postalCode":"35638","locality":"Leun","municipality":{"key":"06532016","name":"Leun, Stadt","type":"Stadt"},"district":{"key":"06532","name":"Lahn-Dill-Kreis","type":"Landkreis"},"federalState":{"key":"06","name":"Hessen"}},{"name":"Am Brennofen","postalCode":"35638","locality":"Leun","municipality":{"key":"06532016","name":"Leun, Stadt","type":"Stadt"},"district":{"key":"06532","name":"Lahn-Dill-Kreis","type":"Landkreis"},"federalState":{"key":"06","name":"Hessen"}},{"name":"Am Dollberg","postalCode":"35638","locality":"Leun","municipality":{"key":"06532016","name":"Leun, Stadt","type":"Stadt"},"district":{"key":"06532","name":"Lahn-Dill-Kreis","type":"Landkreis"},"federalState":{"key":"06","name":"Hessen"}},{"name":"Am Eiskeller","postalCode":"06237","locality":"Leuna","municipality":{"key":"15088205","name":"Leuna, Stadt","type":"Stadt"},"district":{"key":"15088","name":"Saalekreis","type":"Landkreis"},"federalState":{"key":"15","name":"Sachsen-Anhalt"}},{"name":"Am Erzstollen","postalCode":"35638","locality":"Leun","municipality":{"key":"06532016","name":"Leun, Stadt","type":"Stadt"},"district":{"key":"06532","name":"Lahn-Dill-Kreis","type":"Landkreis"},"federalState":{"key":"06","name":"Hessen"}},{"name":"Am Feldrain","postalCode":"06237","locality":"Leuna","municipality":{"key":"15088205","name":"Leuna, Stadt","type":"Stadt"},"district":{"key":"15088","name":"Saalekreis","type":"Landkreis"},"federalState":{"key":"15","name":"Sachsen-Anhalt"}},{"name":"Am Floßgraben","postalCode":"06237","locality":"Leuna","municipality":{"key":"15088205","name":"Leuna, Stadt","type":"Stadt"},"district":{"key":"15088","name":"Saalekreis","type":"Landkreis"},"federalState":{"key":"15","name":"Sachsen-Anhalt"}},{"name":"Am Friedhof","postalCode":"06237","locality":"Leuna","municipality":{"key":"15088205","name":"Leuna, Stadt","type":"Stadt"},"district":{"key":"15088","name":"Saalekreis","type":"Landkreis"},"federalState":{"key":"15","name":"Sachsen-Anhalt"}},{"name":"Am Füllenfeld","postalCode":"35638","locality":"Leun","municipality":{"key":"06532016","name":"Leun, Stadt","type":"Stadt"},"district":{"key":"06532","name":"Lahn-Dill-Kreis","type":"Landkreis"},"federalState":{"key":"06","name":"Hessen"}},{"name":"Am Galgenberg","postalCode":"35638","locality":"Leun","municipality":{"key":"06532016","name":"Leun, Stadt","type":"Stadt"},"district":{"key":"06532","name":"Lahn-Dill-Kreis","type":"Landkreis"},"federalState":{"key":"06","name":"Hessen"}},{"name":"Am Gewölb","postalCode":"35638","locality":"Leun","municipality":{"key":"06532016","name":"Leun, Stadt","type":"Stadt"},"district":{"key":"06532","name":"Lahn-Dill-Kreis","type":"Landkreis"},"federalState":{"key":"06","name":"Hessen"}},{"name":"Am Hain","postalCode":"06237","locality":"Leuna","municipality":{"key":"15088205","name":"Leuna, Stadt","type":"Stadt"},"district":{"key":"15088","name":"Saalekreis","type":"Landkreis"},"federalState":{"key":"15","name":"Sachsen-Anhalt"}},{"name":"Am Hain","postalCode":"35638","locality":"Leun","municipality":{"key":"06532016","name":"Leun, Stadt","type":"Stadt"},"district":{"key":"06532","name":"Lahn-Dill-Kreis","type":"Landkreis"},"federalState":{"key":"06","name":"Hessen"}},{"name":"Am Haupttor","postalCode":"06237","locality":"Leuna","municipality":{"key":"15088205","name":"Leuna, Stadt","type":"Stadt"},"district":{"key":"15088","name":"Saalekreis","type":"Landkreis"},"federalState":{"key":"15","name":"Sachsen-Anhalt"}},{"name":"Am Herrenacker","postalCode":"35638","locality":"Leun","municipality":{"key":"06532016","name":"Leun, Stadt","type":"Stadt"},"district":{"key":"06532","name":"Lahn-Dill-Kreis","type":"Landkreis"},"federalState":{"key":"06","name":"Hessen"}},{"name":"Am Holzapfel","postalCode":"35638","locality":"Leun","municipality":{"key":"06532016","name":"Leun, Stadt","type":"Stadt"},"district":{"key":"06532","name":"Lahn-Dill-Kreis","type":"Landkreis"},"federalState":{"key":"06","name":"Hessen"}},{"name":"Am Hügel","postalCode":"06237","locality":"Leuna","municipality":{"key":"15088205","name":"Leuna, Stadt","type":"Stadt"},"district":{"key":"15088","name":"Saalekreis","type":"Landkreis"},"federalState":{"key":"15","name":"Sachsen-Anhalt"}},{"name":"Am Kalkofen","postalCode":"35638","locality":"Leun","municipality":{"key":"06532016","name":"Leun, Stadt","type":"Stadt"},"district":{"key":"06532","name":"Lahn-Dill-Kreis","type":"Landkreis"},"federalState":{"key":"06","name":"Hessen"}},{"name":"Am Kaolinberg","postalCode":"06237","locality":"Leuna","municipality":{"key":"15088205","name":"Leuna, Stadt","type":"Stadt"},"district":{"key":"15088","name":"Saalekreis","type":"Landkreis"},"federalState":{"key":"15","name":"Sachsen-Anhalt"}},{"name":"Am Kiesel","postalCode":"35638","locality":"Leun","municipality":{"key":"06532016","name":"Leun, Stadt","type":"Stadt"},"district":{"key":"06532","name":"Lahn-Dill-Kreis","type":"Landkreis"},"federalState":{"key":"06","name":"Hessen"}},{"name":"Am Kindergarten","postalCode":"06237","locality":"Leuna","municipality":{"key":"15088205","name":"Leuna, Stadt","type":"Stadt"},"district":{"key":"15088","name":"Saalekreis","type":"Landkreis"},"federalState":{"key":"15","name":"Sachsen-Anhalt"}},{"name":"Am Kindergarten","postalCode":"35638","locality":"Leun","municipality":{"key":"06532016","name":"Leun, Stadt","type":"Stadt"},"district":{"key":"06532","name":"Lahn-Dill-Kreis","type":"Landkreis"},"federalState":{"key":"06","name":"Hessen"}},{"name":"Am Köppel","postalCode":"35638","locality":"Leun","municipality":{"key":"06532016","name":"Leun, Stadt","type":"Stadt"},"district":{"key":"06532","name":"Lahn-Dill-Kreis","type":"Landkreis"},"federalState":{"key":"06","name":"Hessen"}},{"name":"Am Krähenberg","postalCode":"06237","locality":"Leuna","municipality":{"key":"15088205","name":"Leuna, Stadt","type":"Stadt"},"district":{"key":"15088","name":"Saalekreis","type":"Landkreis"},"federalState":{"key":"15","name":"Sachsen-Anhalt"}},{"name":"Am Lohrberg","postalCode":"35638","locality":"Leun","municipality":{"key":"06532016","name":"Leun, Stadt","type":"Stadt"},"district":{"key":"06532","name":"Lahn-Dill-Kreis","type":"Landkreis"},"federalState":{"key":"06","name":"Hessen"}},{"name":"Am Mühlenküppel","postalCode":"35638","locality":"Leun","municipality":{"key":"06532016","name":"Leun, Stadt","type":"Stadt"},"district":{"key":"06532","name":"Lahn-Dill-Kreis","type":"Landkreis"},"federalState":{"key":"06","name":"Hessen"}},{"name":"Am Mühlholz","postalCode":"06237","locality":"Leuna","municipality":{"key":"15088205","name":"Leuna, Stadt","type":"Stadt"},"district":{"key":"15088","name":"Saalekreis","type":"Landkreis"},"federalState":{"key":"15","name":"Sachsen-Anhalt"}},{"name":"Am Ratskeller","postalCode":"06237","locality":"Leuna","municipality":{"key":"15088205","name":"Leuna, Stadt","type":"Stadt"},"district":{"key":"15088","name":"Saalekreis","type":"Landkreis"},"federalState":{"key":"15","name":"Sachsen-Anhalt"}},{"name":"Am Rittergut","postalCode":"06237","locality":"Leuna","municipality":{"key":"15088205","name":"Leuna, Stadt","type":"Stadt"},"district":{"key":"15088","name":"Saalekreis","type":"Landkreis"},"federalState":{"key":"15","name":"Sachsen-Anhalt"}},{"name":"Am Schachtteich","postalCode":"06237","locality":"Leuna","municipality":{"key":"15088205","name":"Leuna, Stadt","type":"Stadt"},"district":{"key":"15088","name":"Saalekreis","type":"Landkreis"},"federalState":{"key":"15","name":"Sachsen-Anhalt"}},{"name":"Am Schellkopf","postalCode":"35638","locality":"Leun","municipality":{"key":"06532016","name":"Leun, Stadt","type":"Stadt"},"district":{"key":"06532","name":"Lahn-Dill-Kreis","type":"Landkreis"},"federalState":{"key":"06","name":"Hessen"}},{"name":"Bahnhofstr.","postalCode":"06237","locality":"Leuna","municipality":{"key":"15088205","name":"Leuna, Stadt","type":"Stadt"},"district":{"key":"15088","name":"Saalekreis","type":"Landkreis"},"federalState":{"key":"15","name":"Sachsen-Anhalt"}},{"name":"Bahnhofstr.","postalCode":"35638","locality":"Leun","municipality":{"key":"06532016","name":"Leun, Stadt","type":"Stadt"},"district":{"key":"06532","name":"Lahn-Dill-Kreis","type":"Landkreis"},"federalState":{"key":"06","name":"Hessen"}},{"name":"Bauernstr.","postalCode":"06237","locality":"Leuna","municipality":{"key":"15088205","name":"Leuna, Stadt","type":"Stadt"},"district":{"key":"15088","name":"Saalekreis","type":"Landkreis"},"federalState":{"key":"15","name":"Sachsen-Anhalt"}},{"name":"Bauernstr. Schladebach","postalCode":"06237","locality":"Leuna","municipality":{"key":"15088205","name":"Leuna, Stadt","type":"Stadt"},"district":{"key":"15088","name":"Saalekreis","type":"Landkreis"},"federalState":{"key":"15","name":"Sachsen-Anhalt"}},{"name":"Bauernwinkel","postalCode":"06237","locality":"Leuna","municipality":{"key":"15088205","name":"Leuna, Stadt","type":"Stadt"},"district":{"key":"15088","name":"Saalekreis","type":"Landkreis"},"federalState":{"key":"15","name":"Sachsen-Anhalt"}},{"name":"Bayernring","postalCode":"06237","locality":"Leuna","municipality":{"key":"15088205","name":"Leuna, Stadt","type":"Stadt"},"district":{"key":"15088","name":"Saalekreis","type":"Landkreis"},"federalState":{"key":"15","name":"Sachsen-Anhalt"}},{"name":"Bergstr.","postalCode":"06237","locality":"Leuna","municipality":{"key":"15088205","name":"Leuna, Stadt","type":"Stadt"},"district":{"key":"15088","name":"Saalekreis","type":"Landkreis"},"federalState":{"key":"15","name":"Sachsen-Anhalt"}},{"name":"Bergstr.","postalCode":"35638","locality":"Leun","municipality":{"key":"06532016","name":"Leun, Stadt","type":"Stadt"},"district":{"key":"06532","name":"Lahn-Dill-Kreis","type":"Landkreis"},"federalState":{"key":"06","name":"Hessen"}},{"name":"Berliner Str.","postalCode":"35638","locality":"Leun","municipality":{"key":"06532016","name":"Leun, Stadt","type":"Stadt"},"district":{"key":"06532","name":"Lahn-Dill-Kreis","type":"Landkreis"},"federalState":{"key":"06","name":"Hessen"}},{"name":"Birkenweg","postalCode":"06237","locality":"Leuna","municipality":{"key":"15088205","name":"Leuna, Stadt","type":"Stadt"},"district":{"key":"15088","name":"Saalekreis","type":"Landkreis"},"federalState":{"key":"15","name":"Sachsen-Anhalt"}},{"name":"Birkenweg","postalCode":"35638","locality":"Leun","municipality":{"key":"06532016","name":"Leun, Stadt","type":"Stadt"},"district":{"key":"06532","name":"Lahn-Dill-Kreis","type":"Landkreis"},"federalState":{"key":"06","name":"Hessen"}},{"name":"Biskirchener Str.","postalCode":"35638","locality":"Leun","municipality":{"key":"06532016","name":"Leun, Stadt","type":"Stadt"},"district":{"key":"06532","name":"Lahn-Dill-Kreis","type":"Landkreis"},"federalState":{"key":"06","name":"Hessen"}},{"name":"Bissenberger Str.","postalCode":"35638","locality":"Leun","municipality":{"key":"06532016","name":"Leun, Stadt","type":"Stadt"},"district":{"key":"06532","name":"Lahn-Dill-Kreis","type":"Landkreis"},"federalState":{"key":"06","name":"Hessen"}},{"name":"Blankenstr.","postalCode":"35638","locality":"Leun","municipality":{"key":"06532016","name":"Leun, Stadt","type":"Stadt"},"district":{"key":"06532","name":"Lahn-Dill-Kreis","type":"Landkreis"},"federalState":{"key":"06","name":"Hessen"}},{"name":"Blumenstr.","postalCode":"06237","locality":"Leuna","municipality":{"key":"15088205","name":"Leuna, Stadt","type":"Stadt"},"district":{"key":"15088","name":"Saalekreis","type":"Landkreis"},"federalState":{"key":"15","name":"Sachsen-Anhalt"}},{"name":"Blumentalstr.","postalCode":"06237","locality":"Leuna","municipality":{"key":"15088205","name":"Leuna, Stadt","type":"Stadt"},"district":{"key":"15088","name":"Saalekreis","type":"Landkreis"},"federalState":{"key":"15","name":"Sachsen-Anhalt"}},{"name":"Bocks Gärten","postalCode":"06237","locality":"Leuna","municipality":{"key":"15088205","name":"Leuna, Stadt","type":"Stadt"},"district":{"key":"15088","name":"Saalekreis","type":"Landkreis"},"federalState":{"key":"15","name":"Sachsen-Anhalt"}},{"name":"Bornstück","postalCode":"35638","locality":"Leun","municipality":{"key":"06532016","name":"Leun, Stadt","type":"Stadt"},"district":{"key":"06532","name":"Lahn-Dill-Kreis","type":"Landkreis"},"federalState":{"key":"06","name":"Hessen"}},{"name":"Bornweg","postalCode":"35638","locality":"Leun","municipality":{"key":"06532016","name":"Leun, Stadt","type":"Stadt"},"district":{"key":"06532","name":"Lahn-Dill-Kreis","type":"Landkreis"},"federalState":{"key":"06","name":"Hessen"}},{"name":"Brauhausbreite","postalCode":"06237","locality":"Leuna","municipality":{"key":"15088205","name":"Leuna, Stadt","type":"Stadt"},"district":{"key":"15088","name":"Saalekreis","type":"Landkreis"},"federalState":{"key":"15","name":"Sachsen-Anhalt"}},{"name":"Braunfelser Str.","postalCode":"35638","locality":"Leun","municipality":{"key":"06532016","name":"Leun, Stadt","type":"Stadt"},"district":{"key":"06532","name":"Lahn-Dill-Kreis","type":"Landkreis"},"federalState":{"key":"06","name":"Hessen"}},{"name":"Brückenstr.","postalCode":"06237","locality":"Leuna","municipality":{"key":"15088205","name":"Leuna, Stadt","type":"Stadt"},"district":{"key":"15088","name":"Saalekreis","type":"Landkreis"},"federalState":{"key":"15","name":"Sachsen-Anhalt"}},{"name":"Brückenstr.","postalCode":"35638","locality":"Leun","municipality":{"key":"06532016","name":"Leun, Stadt","type":"Stadt"},"district":{"key":"06532","name":"Lahn-Dill-Kreis","type":"Landkreis"},"federalState":{"key":"06","name":"Hessen"}},{"name":"Brüder-Grimm-Str.","postalCode":"35638","locality":"Leun","municipality":{"key":"06532016","name":"Leun, Stadt","type":"Stadt"},"district":{"key":"06532","name":"Lahn-Dill-Kreis","type":"Landkreis"},"federalState":{"key":"06","name":"Hessen"}},{"name":"Brunnenweg","postalCode":"35638","locality":"Leun","municipality":{"key":"06532016","name":"Leun, Stadt","type":"Stadt"},"district":{"key":"06532","name":"Lahn-Dill-Kreis","type":"Landkreis"},"federalState":{"key":"06","name":"Hessen"}},{"name":"Buchenweg","postalCode":"35638","locality":"Leun","municipality":{"key":"06532016","name":"Leun, Stadt","type":"Stadt"},"district":{"key":"06532","name":"Lahn-Dill-Kreis","type":"Landkreis"},"federalState":{"key":"06","name":"Hessen"}},{"name":"Buchfnkenweg","postalCode":"06237","locality":"Leuna","municipality":{"key":"15088205","name":"Leuna, Stadt","type":"Stadt"},"district":{"key":"15088","name":"Saalekreis","type":"Landkreis"},"federalState":{"key":"15","name":"Sachsen-Anhalt"}},{"name":"Bunsenstr.","postalCode":"06237","locality":"Leuna","municipality":{"key":"15088205","name":"Leuna, Stadt","type":"Stadt"},"district":{"key":"15088","name":"Saalekreis","type":"Landkreis"},"federalState":{"key":"15","name":"Sachsen-Anhalt"}},{"name":"Burgauenstr.","postalCode":"06237","locality":"Leuna","municipality":{"key":"15088205","name":"Leuna, Stadt","type":"Stadt"},"district":{"key":"15088","name":"Saalekreis","type":"Landkreis"},"federalState":{"key":"15","name":"Sachsen-Anhalt"}},{"name":"Burgsolmser Str.","postalCode":"35638","locality":"Leun","municipality":{"key":"06532016","name":"Leun, Stadt","type":"Stadt"},"district":{"key":"06532","name":"Lahn-Dill-Kreis","type":"Landkreis"},"federalState":{"key":"06","name":"Hessen"}},{"name":"Carl-Bosch-Str.","postalCode":"06237","locality":"Leuna","municipality":{"key":"15088205","name":"Leuna, Stadt","type":"Stadt"},"district":{"key":"15088","name":"Saalekreis","type":"Landkreis"},"federalState":{"key":"15","name":"Sachsen-Anhalt"}},{"name":"Carl-von-Basedow-Str.","postalCode":"06237","locality":"Leuna","municipality":{"key":"15088205","name":"Leuna, Stadt","type":"Stadt"},"district":{"key":"15088","name":"Saalekreis","type":"Landkreis"},"federalState":{"key":"15","name":"Sachsen-Anhalt"}},{"name":"Carl-von-Linde-Str.","postalCode":"06237","locality":"Leuna","municipality":{"key":"15088205","name":"Leuna, Stadt","type":"Stadt"},"district":{"key":"15088","name":"Saalekreis","type":"Landkreis"},"federalState":{"key":"15","name":"Sachsen-Anhalt"}},{"name":"Clara-Zetkin-Str.","postalCode":"06237","locality":"Leuna","municipality":{"key":"15088205","name":"Leuna, Stadt","type":"Stadt"},"district":{"key":"15088","name":"Saalekreis","type":"Landkreis"},"federalState":{"key":"15","name":"Sachsen-Anhalt"}},{"name":"Dahlienweg","postalCode":"06237","locality":"Leuna","municipality":{"key":"15088205","name":"Leuna, Stadt","type":"Stadt"},"district":{"key":"15088","name":"Saalekreis","type":"Landkreis"},"federalState":{"key":"15","name":"Sachsen-Anhalt"}},{"name":"Daimlerweg","postalCode":"35638","locality":"Leun","municipality":{"key":"06532016","name":"Leun, Stadt","type":"Stadt"},"district":{"key":"06532","name":"Lahn-Dill-Kreis","type":"Landkreis"},"federalState":{"key":"06","name":"Hessen"}},{"name":"Darreweg","postalCode":"06237","locality":"Leuna","municipality":{"key":"15088205","name":"Leuna, Stadt","type":"Stadt"},"district":{"key":"15088","name":"Saalekreis","type":"Landkreis"},"federalState":{"key":"15","name":"Sachsen-Anhalt"}},{"name":"Daspig","postalCode":"06237","locality":"Leuna","municipality":{"key":"15088205","name":"Leuna, Stadt","type":"Stadt"},"district":{"key":"15088","name":"Saalekreis","type":"Landkreis"},"federalState":{"key":"15","name":"Sachsen-Anhalt"}},{"name":"Daspig Siedlung","postalCode":"06237","locality":"Leuna","municipality":{"key":"15088205","name":"Leuna, Stadt","type":"Stadt"},"district":{"key":"15088","name":"Saalekreis","type":"Landkreis"},"federalState":{"key":"15","name":"Sachsen-Anhalt"}},{"name":"Denkmalsplatz","postalCode":"06237","locality":"Leuna","municipality":{"key":"15088205","name":"Leuna, Stadt","type":"Stadt"},"district":{"key":"15088","name":"Saalekreis","type":"Landkreis"},"federalState":{"key":"15","name":"Sachsen-Anhalt"}},{"name":"Denkmalstr.","postalCode":"35638","locality":"Leun","municipality":{"key":"06532016","name":"Leun, Stadt","type":"Stadt"},"district":{"key":"06532","name":"Lahn-Dill-Kreis","type":"Landkreis"},"federalState":{"key":"06","name":"Hessen"}},{"name":"Dianaburgweg","postalCode":"35638","locality":"Leun","municipality":{"key":"06532016","name":"Leun, Stadt","type":"Stadt"},"district":{"key":"06532","name":"Lahn-Dill-Kreis","type":"Landkreis"},"federalState":{"key":"06","name":"Hessen"}},{"name":"Dieselweg","postalCode":"35638","locality":"Leun","municipality":{"key":"06532016","name":"Leun, Stadt","type":"Stadt"},"district":{"key":"06532","name":"Lahn-Dill-Kreis","type":"Landkreis"},"federalState":{"key":"06","name":"Hessen"}},{"name":"Dietmar-Kerntke-Weg","postalCode":"06237","locality":"Leuna","municipality":{"key":"15088205","name":"Leuna, Stadt","type":"Stadt"},"district":{"key":"15088","name":"Saalekreis","type":"Landkreis"},"federalState":{"key":"15","name":"Sachsen-Anhalt"}},{"name":"Dölkau","postalCode":"06237","locality":"Leuna","municipality":{"key":"15088205","name":"Leuna, Stadt","type":"Stadt"},"district":{"key":"15088","name":"Saalekreis","type":"Landkreis"},"federalState":{"key":"15","name":"Sachsen-Anhalt"}},{"name":"Dorfplatz","postalCode":"06237","locality":"Leuna","municipality":{"key":"15088205","name":"Leuna, Stadt","type":"Stadt"},"district":{"key":"15088","name":"Saalekreis","type":"Landkreis"},"federalState":{"key":"15","name":"Sachsen-Anhalt"}},{"name":"Dorfstr.","postalCode":"06237","locality":"Leuna","municipality":{"key":"15088205","name":"Leuna, Stadt","type":"Stadt"},"district":{"key":"15088","name":"Saalekreis","type":"Landkreis"},"federalState":{"key":"15","name":"Sachsen-Anhalt"}},{"name":"Dorfstr. Wüsteneutzsch","postalCode":"06237","locality":"Leuna","municipality":{"key":"15088205","name":"Leuna, Stadt","type":"Stadt"},"district":{"key":"15088","name":"Saalekreis","type":"Landkreis"},"federalState":{"key":"15","name":"Sachsen-Anhalt"}},{"name":"Dornbuschweg","postalCode":"35638","locality":"Leun","municipality":{"key":"06532016","name":"Leun, Stadt","type":"Stadt"},"district":{"key":"06532","name":"Lahn-Dill-Kreis","type":"Landkreis"},"federalState":{"key":"06","name":"Hessen"}},{"name":"Dorns Hof","postalCode":"06237","locality":"Leuna","municipality":{"key":"15088205","name":"Leuna, Stadt","type":"Stadt"},"district":{"key":"15088","name":"Saalekreis","type":"Landkreis"},"federalState":{"key":"15","name":"Sachsen-Anhalt"}},{"name":"Dr. Dieck-Str.","postalCode":"06237","locality":"Leuna","municipality":{"key":"15088205","name":"Leuna, Stadt","type":"Stadt"},"district":{"key":"15088","name":"Saalekreis","type":"Landkreis"},"federalState":{"key":"15","name":"Sachsen-Anhalt"}},{"name":"Drei Steine","postalCode":"06237","locality":"Leuna","municipality":{"key":"15088205","name":"Leuna, Stadt","type":"Stadt"},"district":{"key":"15088","name":"Saalekreis","type":"Landkreis"},"federalState":{"key":"15","name":"Sachsen-Anhalt"}},{"name":"Drosselweg","postalCode":"06237","locality":"Leuna","municipality":{"key":"15088205","name":"Leuna, Stadt","type":"Stadt"},"district":{"key":"15088","name":"Saalekreis","type":"Landkreis"},"federalState":{"key":"15","name":"Sachsen-Anhalt"}},{"name":"Dürrenberger Str.","postalCode":"06237","locality":"Leuna","municipality":{"key":"15088205","name":"Leuna, Stadt","type":"Stadt"},"district":{"key":"15088","name":"Saalekreis","type":"Landkreis"},"federalState":{"key":"15","name":"Sachsen-Anhalt"}},{"name":"Ehringshäuser Weg","postalCode":"35638","locality":"Leun","municipality":{"key":"06532016","name":"Leun, Stadt","type":"Stadt"},"district":{"key":"06532","name":"Lahn-Dill-Kreis","type":"Landkreis"},"federalState":{"key":"06","name":"Hessen"}},{"name":"Eichendorffstr.","postalCode":"35638","locality":"Leun","municipality":{"key":"06532016","name":"Leun, Stadt","type":"Stadt"},"district":{"key":"06532","name":"Lahn-Dill-Kreis","type":"Landkreis"},"federalState":{"key":"06","name":"Hessen"}},{"name":"Eichsfeld","postalCode":"06237","locality":"Leuna","municipality":{"key":"15088205","name":"Leuna, Stadt","type":"Stadt"},"district":{"key":"15088","name":"Saalekreis","type":"Landkreis"},"federalState":{"key":"15","name":"Sachsen-Anhalt"}},{"name":"Eichweg","postalCode":"35638","locality":"Leun","municipality":{"key":"06532016","name":"Leun, Stadt","type":"Stadt"},"district":{"key":"06532","name":"Lahn-Dill-Kreis","type":"Landkreis"},"federalState":{"key":"06","name":"Hessen"}},{"name":"Einkaufszentrum Nova","postalCode":"06237","locality":"Leuna","municipality":{"key":"15088205","name":"Leuna, Stadt","type":"Stadt"},"district":{"key":"15088","name":"Saalekreis","type":"Landkreis"},"federalState":{"key":"15","name":"Sachsen-Anhalt"}},{"name":"Eisenwerk","postalCode":"06237","locality":"Leuna","municipality":{"key":"15088205","name":"Leuna, Stadt","type":"Stadt"},"district":{"key":"15088","name":"Saalekreis","type":"Landkreis"},"federalState":{"key":"15","name":"Sachsen-Anhalt"}},{"name":"Elsterweg","postalCode":"06237","locality":"Leuna","municipality":{"key":"15088205","name":"Leuna, Stadt","type":"Stadt"},"district":{"key":"15088","name":"Saalekreis","type":"Landkreis"},"federalState":{"key":"15","name":"Sachsen-Anhalt"}},{"name":"Emil-Fischer-Str.","postalCode":"06237","locality":"Leuna","municipality":{"key":"15088205","name":"Leuna, Stadt","type":"Stadt"},"district":{"key":"15088","name":"Saalekreis","type":"Landkreis"},"federalState":{"key":"15","name":"Sachsen-Anhalt"}},{"name":"Enggasse","postalCode":"35638","locality":"Leun","municipality":{"key":"06532016","name":"Leun, Stadt","type":"Stadt"},"district":{"key":"06532","name":"Lahn-Dill-Kreis","type":"Landkreis"},"federalState":{"key":"06","name":"Hessen"}},{"name":"Erkergasse","postalCode":"06237","locality":"Leuna","municipality":{"key":"15088205","name":"Leuna, Stadt","type":"Stadt"},"district":{"key":"15088","name":"Saalekreis","type":"Landkreis"},"federalState":{"key":"15","name":"Sachsen-Anhalt"}},{"name":"Erlenweg","postalCode":"06237","locality":"Leuna","municipality":{"key":"15088205","name":"Leuna, Stadt","type":"Stadt"},"district":{"key":"15088","name":"Saalekreis","type":"Landkreis"},"federalState":{"key":"15","name":"Sachsen-Anhalt"}},{"name":"Eulengrund","postalCode":"06237","locality":"Leuna","municipality":{"key":"15088205","name":"Leuna, Stadt","type":"Stadt"},"district":{"key":"15088","name":"Saalekreis","type":"Landkreis"},"federalState":{"key":"15","name":"Sachsen-Anhalt"}},{"name":"Falkenstr.","postalCode":"35638","locality":"Leun","municipality":{"key":"06532016","name":"Leun, Stadt","type":"Stadt"},"district":{"key":"06532","name":"Lahn-Dill-Kreis","type":"Landkreis"},"federalState":{"key":"06","name":"Hessen"}},{"name":"Falkenweg","postalCode":"06237","locality":"Leuna","municipality":{"key":"15088205","name":"Leuna, Stadt","type":"Stadt"},"district":{"key":"15088","name":"Saalekreis","type":"Landkreis"},"federalState":{"key":"15","name":"Sachsen-Anhalt"}},{"name":"Fasanerie","postalCode":"06237","locality":"Leuna","municipality":{"key":"15088205","name":"Leuna, Stadt","type":"Stadt"},"district":{"key":"15088","name":"Saalekreis","type":"Landkreis"},"federalState":{"key":"15","name":"Sachsen-Anhalt"}},{"name":"Feldlerchenweg","postalCode":"06237","locality":"Leuna","municipality":{"key":"15088205","name":"Leuna, Stadt","type":"Stadt"},"district":{"key":"15088","name":"Saalekreis","type":"Landkreis"},"federalState":{"key":"15","name":"Sachsen-Anhalt"}},{"name":"Feldstr.","postalCode":"06237","locality":"Leuna","municipality":{"key":"15088205","name":"Leuna, Stadt","type":"Stadt"},"district":{"key":"15088","name":"Saalekreis","type":"Landkreis"},"federalState":{"key":"15","name":"Sachsen-Anhalt"}},{"name":"Feldweg","postalCode":"06237","locality":"Leuna","municipality":{"key":"15088205","name":"Leuna, Stadt","type":"Stadt"},"district":{"key":"15088","name":"Saalekreis","type":"Landkreis"},"federalState":{"key":"15","name":"Sachsen-Anhalt"}},{"name":"Feytiatring","postalCode":"35638","locality":"Leun","municipality":{"key":"06532016","name":"Leun, Stadt","type":"Stadt"},"district":{"key":"06532","name":"Lahn-Dill-Kreis","type":"Landkreis"},"federalState":{"key":"06","name":"Hessen"}},{"name":"Fichtengräben","postalCode":"35638","locality":"Leun","municipality":{"key":"06532016","name":"Leun, Stadt","type":"Stadt"},"district":{"key":"06532","name":"Lahn-Dill-Kreis","type":"Landkreis"},"federalState":{"key":"06","name":"Hessen"}},{"name":"Finkensteig","postalCode":"35638","locality":"Leun","municipality":{"key":"06532016","name":"Leun, Stadt","type":"Stadt"},"district":{"key":"06532","name":"Lahn-Dill-Kreis","type":"Landkreis"},"federalState":{"key":"06","name":"Hessen"}},{"name":"Finkenweg","postalCode":"06237","locality":"Leuna","municipality":{"key":"15088205","name":"Leuna, Stadt","type":"Stadt"},"district":{"key":"15088","name":"Saalekreis","type":"Landkreis"},"federalState":{"key":"15","name":"Sachsen-Anhalt"}},{"name":"Franklebener Str.","postalCode":"06237","locality":"Leuna","municipality":{"key":"15088205","name":"Leuna, Stadt","type":"Stadt"},"district":{"key":"15088","name":"Saalekreis","type":"Landkreis"},"federalState":{"key":"15","name":"Sachsen-Anhalt"}},{"name":"Franklebene Str.","postalCode":"06237","locality":"Leuna","municipality":{"key":"15088205","name":"Leuna, Stadt","type":"Stadt"},"district":{"key":"15088","name":"Saalekreis","type":"Landkreis"},"federalState":{"key":"15","name":"Sachsen-Anhalt"}},{"name":"Franze Berg","postalCode":"35638","locality":"Leun","municipality":{"key":"06532016","name":"Leun, Stadt","type":"Stadt"},"district":{"key":"06532","name":"Lahn-Dill-Kreis","type":"Landkreis"},"federalState":{"key":"06","name":"Hessen"}},{"name":"Franz-Lehmann-Str.","postalCode":"06237","locality":"Leuna","municipality":{"key":"15088205","name":"Leuna, Stadt","type":"Stadt"},"district":{"key":"15088","name":"Saalekreis","type":"Landkreis"},"federalState":{"key":"15","name":"Sachsen-Anhalt"}},{"name":"Friedensstr.","postalCode":"06237","locality":"Leuna","municipality":{"key":"15088205","name":"Leuna, Stadt","type":"Stadt"},"district":{"key":"15088","name":"Saalekreis","type":"Landkreis"},"federalState":{"key":"15","name":"Sachsen-Anhalt"}},{"name":"Friedenstr.","postalCode":"06237","locality":"Leuna","municipality":{"key":"15088205","name":"Leuna, Stadt","type":"Stadt"},"district":{"key":"15088","name":"Saalekreis","type":"Landkreis"},"federalState":{"key":"15","name":"Sachsen-Anhalt"}},{"name":"Friedhofstr.","postalCode":"06237","locality":"Leuna","municipality":{"key":"15088205","name":"Leuna, Stadt","type":"Stadt"},"district":{"key":"15088","name":"Saalekreis","type":"Landkreis"},"federalState":{"key":"15","name":"Sachsen-Anhalt"}},{"name":"Friedhofstr.","postalCode":"35638","locality":"Leun","municipality":{"key":"06532016","name":"Leun, Stadt","type":"Stadt"},"district":{"key":"06532","name":"Lahn-Dill-Kreis","type":"Landkreis"},"federalState":{"key":"06","name":"Hessen"}},{"name":"Friedrich-Ebert-Str.","postalCode":"06237","locality":"Leuna","municipality":{"key":"15088205","name":"Leuna, Stadt","type":"Stadt"},"district":{"key":"15088","name":"Saalekreis","type":"Landkreis"},"federalState":{"key":"15","name":"Sachsen-Anhalt"}},{"name":"Friedrichstr.","postalCode":"35638","locality":"Leun","municipality":{"key":"06532016","name":"Leun, Stadt","type":"Stadt"},"district":{"key":"06532","name":"Lahn-Dill-Kreis","type":"Landkreis"},"federalState":{"key":"06","name":"Hessen"}},{"name":"Frühlingsgasse","postalCode":"06237","locality":"Leuna","municipality":{"key":"15088205","name":"Leuna, Stadt","type":"Stadt"},"district":{"key":"15088","name":"Saalekreis","type":"Landkreis"},"federalState":{"key":"15","name":"Sachsen-Anhalt"}},{"name":"Fuhrweg","postalCode":"35638","locality":"Leun","municipality":{"key":"06532016","name":"Leun, Stadt","type":"Stadt"},"district":{"key":"06532","name":"Lahn-Dill-Kreis","type":"Landkreis"},"federalState":{"key":"06","name":"Hessen"}},{"name":"Gartenstr.","postalCode":"06237","locality":"Leuna","municipality":{"key":"15088205","name":"Leuna, Stadt","type":"Stadt"},"district":{"key":"15088","name":"Saalekreis","type":"Landkreis"},"federalState":{"key":"15","name":"Sachsen-Anhalt"}},{"name":"Gartenstr.","postalCode":"35638","locality":"Leun","municipality":{"key":"06532016","name":"Leun, Stadt","type":"Stadt"},"district":{"key":"06532","name":"Lahn-Dill-Kreis","type":"Landkreis"},"federalState":{"key":"06","name":"Hessen"}},{"name":"Gartenweg","postalCode":"06237","locality":"Leuna","municipality":{"key":"15088205","name":"Leuna, Stadt","type":"Stadt"},"district":{"key":"15088","name":"Saalekreis","type":"Landkreis"},"federalState":{"key":"15","name":"Sachsen-Anhalt"}},{"name":"Gaußstr.","postalCode":"06237","locality":"Leuna","municipality":{"key":"15088205","name":"Leuna, Stadt","type":"Stadt"},"district":{"key":"15088","name":"Saalekreis","type":"Landkreis"},"federalState":{"key":"15","name":"Sachsen-Anhalt"}},{"name":"Gebrüder-von-Wedel-Str.","postalCode":"06237","locality":"Leuna","municipality":{"key":"15088205","name":"Leuna, Stadt","type":"Stadt"},"district":{"key":"15088","name":"Saalekreis","type":"Landkreis"},"federalState":{"key":"15","name":"Sachsen-Anhalt"}},{"name":"Gertrudisstr.","postalCode":"35638","locality":"Leun","municipality":{"key":"06532016","name":"Leun, Stadt","type":"Stadt"},"district":{"key":"06532","name":"Lahn-Dill-Kreis","type":"Landkreis"},"federalState":{"key":"06","name":"Hessen"}},{"name":"Gewerbestr.","postalCode":"06237","locality":"Leuna","municipality":{"key":"15088205","name":"Leuna, Stadt","type":"Stadt"},"district":{"key":"15088","name":"Saalekreis","type":"Landkreis"},"federalState":{"key":"15","name":"Sachsen-Anhalt"}},{"name":"Goethestr.","postalCode":"06237","locality":"Leuna","municipality":{"key":"15088205","name":"Leuna, Stadt","type":"Stadt"},"district":{"key":"15088","name":"Saalekreis","type":"Landkreis"},"federalState":{"key":"15","name":"Sachsen-Anhalt"}},{"name":"Göhlitzsch","postalCode":"06237","locality":"Leuna","municipality":{"key":"15088205","name":"Leuna, Stadt","type":"Stadt"},"district":{"key":"15088","name":"Saalekreis","type":"Landkreis"},"federalState":{"key":"15","name":"Sachsen-Anhalt"}},{"name":"Göhren","postalCode":"06237","locality":"Leuna","municipality":{"key":"15088205","name":"Leuna, Stadt","type":"Stadt"},"district":{"key":"15088","name":"Saalekreis","type":"Landkreis"},"federalState":{"key":"15","name":"Sachsen-Anhalt"}},{"name":"Grabenstr.","postalCode":"35638","locality":"Leun","municipality":{"key":"06532016","name":"Leun, Stadt","type":"Stadt"},"district":{"key":"06532","name":"Lahn-Dill-Kreis","type":"Landkreis"},"federalState":{"key":"06","name":"Hessen"}},{"name":"Grashoffstr.","postalCode":"06237","locality":"Leuna","municipality":{"key":"15088205","name":"Leuna, Stadt","type":"Stadt"},"district":{"key":"15088","name":"Saalekreis","type":"Landkreis"},"federalState":{"key":"15","name":"Sachsen-Anhalt"}},{"name":"Grüner Weg","postalCode":"06237","locality":"Leuna","municipality":{"key":"15088205","name":"Leuna, Stadt","type":"Stadt"},"district":{"key":"15088","name":"Saalekreis","type":"Landkreis"},"federalState":{"key":"15","name":"Sachsen-Anhalt"}},{"name":"Grüner Weg","postalCode":"35638","locality":"Leun","municipality":{"key":"06532016","name":"Leun, Stadt","type":"Stadt"},"district":{"key":"06532","name":"Lahn-Dill-Kreis","type":"Landkreis"},"federalState":{"key":"06","name":"Hessen"}},{"name":"Haasegarten","postalCode":"35638","locality":"Leun","municipality":{"key":"06532016","name":"Leun, Stadt","type":"Stadt"},"district":{"key":"06532","name":"Lahn-Dill-Kreis","type":"Landkreis"},"federalState":{"key":"06","name":"Hessen"}},{"name":"Haberstr.","postalCode":"06237","locality":"Leuna","municipality":{"key":"15088205","name":"Leuna, Stadt","type":"Stadt"},"district":{"key":"15088","name":"Saalekreis","type":"Landkreis"},"federalState":{"key":"15","name":"Sachsen-Anhalt"}},{"name":"Hauptstr.","postalCode":"35638","locality":"Leun","municipality":{"key":"06532016","name":"Leun, Stadt","type":"Stadt"},"district":{"key":"06532","name":"Lahn-Dill-Kreis","type":"Landkreis"},"federalState":{"key":"06","name":"Hessen"}},{"name":"Häußler Str.","postalCode":"06237","locality":"Leuna","municipality":{"key":"15088205","name":"Leuna, Stadt","type":"Stadt"},"district":{"key":"15088","name":"Saalekreis","type":"Landkreis"},"federalState":{"key":"15","name":"Sachsen-Anhalt"}},{"name":"Heimweg","postalCode":"06237","locality":"Leuna","municipality":{"key":"15088205","name":"Leuna, Stadt","type":"Stadt"},"district":{"key":"15088","name":"Saalekreis","type":"Landkreis"},"federalState":{"key":"15","name":"Sachsen-Anhalt"}},{"name":"Heinestr.","postalCode":"06237","locality":"Leuna","municipality":{"key":"15088205","name":"Leuna, Stadt","type":"Stadt"},"district":{"key":"15088","name":"Saalekreis","type":"Landkreis"},"federalState":{"key":"15","name":"Sachsen-Anhalt"}},{"name":"Heinrich-Heine-Ring","postalCode":"35638","locality":"Leun","municipality":{"key":"06532016","name":"Leun, Stadt","type":"Stadt"},"district":{"key":"06532","name":"Lahn-Dill-Kreis","type":"Landkreis"},"federalState":{"key":"06","name":"Hessen"}},{"name":"Heinrich-Heine-Str.","postalCode":"06237","locality":"Leuna","municipality":{"key":"15088205","name":"Leuna, Stadt","type":"Stadt"},"district":{"key":"15088","name":"Saalekreis","type":"Landkreis"},"federalState":{"key":"15","name":"Sachsen-Anhalt"}},{"name":"Heinrich-Zutt-Str.","postalCode":"35638","locality":"Leun","municipality":{"key":"06532016","name":"Leun, Stadt","type":"Stadt"},"district":{"key":"06532","name":"Lahn-Dill-Kreis","type":"Landkreis"},"federalState":{"key":"06","name":"Hessen"}},{"name":"Heisterberger Weg","postalCode":"35638","locality":"Leun","municipality":{"key":"06532016","name":"Leun, Stadt","type":"Stadt"},"district":{"key":"06532","name":"Lahn-Dill-Kreis","type":"Landkreis"},"federalState":{"key":"06","name":"Hessen"}},{"name":"Heiterer Blick","postalCode":"06237","locality":"Leuna","municipality":{"key":"15088205","name":"Leuna, Stadt","type":"Stadt"},"district":{"key":"15088","name":"Saalekreis","type":"Landkreis"},"federalState":{"key":"15","name":"Sachsen-Anhalt"}},{"name":"Hellweg","postalCode":"35638","locality":"Leun","municipality":{"key":"06532016","name":"Leun, Stadt","type":"Stadt"},"district":{"key":"06532","name":"Lahn-Dill-Kreis","type":"Landkreis"},"federalState":{"key":"06","name":"Hessen"}},{"name":"Herborner Hohlweg","postalCode":"35638","locality":"Leun","municipality":{"key":"06532016","name":"Leun, Stadt","type":"Stadt"},"district":{"key":"06532","name":"Lahn-Dill-Kreis","type":"Landkreis"},"federalState":{"key":"06","name":"Hessen"}},{"name":"Hermann-Löns-Weg","postalCode":"35638","locality":"Leun","municipality":{"key":"06532016","name":"Leun, Stadt","type":"Stadt"},"district":{"key":"06532","name":"Lahn-Dill-Kreis","type":"Landkreis"},"federalState":{"key":"06","name":"Hessen"}},{"name":"Herrenweg","postalCode":"35638","locality":"Leun","municipality":{"key":"06532016","name":"Leun, Stadt","type":"Stadt"},"district":{"key":"06532","name":"Lahn-Dill-Kreis","type":"Landkreis"},"federalState":{"key":"06","name":"Hessen"}},{"name":"Hockergasse","postalCode":"06237","locality":"Leuna","municipality":{"key":"15088205","name":"Leuna, Stadt","type":"Stadt"},"district":{"key":"15088","name":"Saalekreis","type":"Landkreis"},"federalState":{"key":"15","name":"Sachsen-Anhalt"}},{"name":"Hof Lahnblick","postalCode":"35638","locality":"Leun","municipality":{"key":"06532016","name":"Leun, Stadt","type":"Stadt"},"district":{"key":"06532","name":"Lahn-Dill-Kreis","type":"Landkreis"},"federalState":{"key":"06","name":"Hessen"}},{"name":"Hügelgasse","postalCode":"06237","locality":"Leuna","municipality":{"key":"15088205","name":"Leuna, Stadt","type":"Stadt"},"district":{"key":"15088","name":"Saalekreis","type":"Landkreis"},"federalState":{"key":"15","name":"Sachsen-Anhalt"}},{"name":"Hüttenstr.","postalCode":"35638","locality":"Leun","municipality":{"key":"06532016","name":"Leun, Stadt","type":"Stadt"},"district":{"key":"06532","name":"Lahn-Dill-Kreis","type":"Landkreis"},"federalState":{"key":"06","name":"Hessen"}},{"name":"Im Buchenlaub","postalCode":"35638","locality":"Leun","municipality":{"key":"06532016","name":"Leun, Stadt","type":"Stadt"},"district":{"key":"06532","name":"Lahn-Dill-Kreis","type":"Landkreis"},"federalState":{"key":"06","name":"Hessen"}},{"name":"Im Flutgraben","postalCode":"35638","locality":"Leun","municipality":{"key":"06532016","name":"Leun, Stadt","type":"Stadt"},"district":{"key":"06532","name":"Lahn-Dill-Kreis","type":"Landkreis"},"federalState":{"key":"06","name":"Hessen"}},{"name":"Industrietor","postalCode":"06237","locality":"Leuna","municipality":{"key":"15088205","name":"Leuna, Stadt","type":"Stadt"},"district":{"key":"15088","name":"Saalekreis","type":"Landkreis"},"federalState":{"key":"15","name":"Sachsen-Anhalt"}},{"name":"Jahnstr.","postalCode":"06237","locality":"Leuna","municipality":{"key":"15088205","name":"Leuna, Stadt","type":"Stadt"},"district":{"key":"15088","name":"Saalekreis","type":"Landkreis"},"federalState":{"key":"15","name":"Sachsen-Anhalt"}},{"name":"Jahnweg","postalCode":"06237","locality":"Leuna","municipality":{"key":"15088205","name":"Leuna, Stadt","type":"Stadt"},"district":{"key":"15088","name":"Saalekreis","type":"Landkreis"},"federalState":{"key":"15","name":"Sachsen-Anhalt"}},{"name":"Joliot-Curie-Str.","postalCode":"06237","locality":"Leuna","municipality":{"key":"15088205","name":"Leuna, Stadt","type":"Stadt"},"district":{"key":"15088","name":"Saalekreis","type":"Landkreis"},"federalState":{"key":"15","name":"Sachsen-Anhalt"}},{"name":"Junkernhof","postalCode":"35638","locality":"Leun","municipality":{"key":"06532016","name":"Leun, Stadt","type":"Stadt"},"district":{"key":"06532","name":"Lahn-Dill-Kreis","type":"Landkreis"},"federalState":{"key":"06","name":"Hessen"}},{"name":"Justengarten","postalCode":"35638","locality":"Leun","municipality":{"key":"06532016","name":"Leun, Stadt","type":"Stadt"},"district":{"key":"06532","name":"Lahn-Dill-Kreis","type":"Landkreis"},"federalState":{"key":"06","name":"Hessen"}},{"name":"Kammerothsweg","postalCode":"35638","locality":"Leun","municipality":{"key":"06532016","name":"Leun, Stadt","type":"Stadt"},"district":{"key":"06532","name":"Lahn-Dill-Kreis","type":"Landkreis"},"federalState":{"key":"06","name":"Hessen"}},{"name":"Karl-Barth-Str.","postalCode":"06237","locality":"Leuna","municipality":{"key":"15088205","name":"Leuna, Stadt","type":"Stadt"},"district":{"key":"15088","name":"Saalekreis","type":"Landkreis"},"federalState":{"key":"15","name":"Sachsen-Anhalt"}},{"name":"Karl-Ferdinand-Broll-Str.","postalCode":"35638","locality":"Leun","municipality":{"key":"06532016","name":"Leun, Stadt","type":"Stadt"},"district":{"key":"06532","name":"Lahn-Dill-Kreis","type":"Landkreis"},"federalState":{"key":"06","name":"Hessen"}},{"name":"Kastanienhag","postalCode":"35638","locality":"Leun","municipality":{"key":"06532016","name":"Leun, Stadt","type":"Stadt"},"district":{"key":"06532","name":"Lahn-Dill-Kreis","type":"Landkreis"},"federalState":{"key":"06","name":"Hessen"}},{"name":"Kiefernweg","postalCode":"35638","locality":"Leun","municipality":{"key":"06532016","name":"Leun, Stadt","type":"Stadt"},"district":{"key":"06532","name":"Lahn-Dill-Kreis","type":"Landkreis"},"federalState":{"key":"06","name":"Hessen"}},{"name":"Kirchberg","postalCode":"06237","locality":"Leuna","municipality":{"key":"15088205","name":"Leuna, Stadt","type":"Stadt"},"district":{"key":"15088","name":"Saalekreis","type":"Landkreis"},"federalState":{"key":"15","name":"Sachsen-Anhalt"}},{"name":"Kirchgasse","postalCode":"06237","locality":"Leuna","municipality":{"key":"15088205","name":"Leuna, Stadt","type":"Stadt"},"district":{"key":"15088","name":"Saalekreis","type":"Landkreis"},"federalState":{"key":"15","name":"Sachsen-Anhalt"}},{"name":"Kirchpfad","postalCode":"35638","locality":"Leun","municipality":{"key":"06532016","name":"Leun, Stadt","type":"Stadt"},"district":{"key":"06532","name":"Lahn-Dill-Kreis","type":"Landkreis"},"federalState":{"key":"06","name":"Hessen"}},{"name":"Kirchplatz","postalCode":"06237","locality":"Leuna","municipality":{"key":"15088205","name":"Leuna, Stadt","type":"Stadt"},"district":{"key":"15088","name":"Saalekreis","type":"Landkreis"},"federalState":{"key":"15","name":"Sachsen-Anhalt"}},{"name":"Kirchplatz","postalCode":"35638","locality":"Leun","municipality":{"key":"06532016","name":"Leun, Stadt","type":"Stadt"},"district":{"key":"06532","name":"Lahn-Dill-Kreis","type":"Landkreis"},"federalState":{"key":"06","name":"Hessen"}},{"name":"Kirchstr.","postalCode":"06237","locality":"Leuna","municipality":{"key":"15088205","name":"Leuna, Stadt","type":"Stadt"},"district":{"key":"15088","name":"Saalekreis","type":"Landkreis"},"federalState":{"key":"15","name":"Sachsen-Anhalt"}},{"name":"Kirchweg","postalCode":"35638","locality":"Leun","municipality":{"key":"06532016","name":"Leun, Stadt","type":"Stadt"},"district":{"key":"06532","name":"Lahn-Dill-Kreis","type":"Landkreis"},"federalState":{"key":"06","name":"Hessen"}},{"name":"Kirschberg","postalCode":"06237","locality":"Leuna","municipality":{"key":"15088205","name":"Leuna, Stadt","type":"Stadt"},"district":{"key":"15088","name":"Saalekreis","type":"Landkreis"},"federalState":{"key":"15","name":"Sachsen-Anhalt"}},{"name":"Klapperschell","postalCode":"35638","locality":"Leun","municipality":{"key":"06532016","name":"Leun, Stadt","type":"Stadt"},"district":{"key":"06532","name":"Lahn-Dill-Kreis","type":"Landkreis"},"federalState":{"key":"06","name":"Hessen"}},{"name":"Knietschweg","postalCode":"06237","locality":"Leuna","municipality":{"key":"15088205","name":"Leuna, Stadt","type":"Stadt"},"district":{"key":"15088","name":"Saalekreis","type":"Landkreis"},"federalState":{"key":"15","name":"Sachsen-Anhalt"}},{"name":"Koboldsberg","postalCode":"06237","locality":"Leuna","municipality":{"key":"15088205","name":"Leuna, Stadt","type":"Stadt"},"district":{"key":"15088","name":"Saalekreis","type":"Landkreis"},"federalState":{"key":"15","name":"Sachsen-Anhalt"}},{"name":"Konrad-Zuse-Str.","postalCode":"35638","locality":"Leun","municipality":{"key":"06532016","name":"Leun, Stadt","type":"Stadt"},"district":{"key":"06532","name":"Lahn-Dill-Kreis","type":"Landkreis"},"federalState":{"key":"06","name":"Hessen"}},{"name":"Korbethaer Str.","postalCode":"06237","locality":"Leuna","municipality":{"key":"15088205","name":"Leuna, Stadt","type":"Stadt"},"district":{"key":"15088","name":"Saalekreis","type":"Landkreis"},"federalState":{"key":"15","name":"Sachsen-Anhalt"}},{"name":"Kötschlitzer Allee","postalCode":"06237","locality":"Leuna","municipality":{"key":"15088205","name":"Leuna, Stadt","type":"Stadt"},"district":{"key":"15088","name":"Saalekreis","type":"Landkreis"},"federalState":{"key":"15","name":"Sachsen-Anhalt"}},{"name":"Kötschlitzer Str.","postalCode":"06237","locality":"Leuna","municipality":{"key":"15088205","name":"Leuna, Stadt","type":"Stadt"},"district":{"key":"15088","name":"Saalekreis","type":"Landkreis"},"federalState":{"key":"15","name":"Sachsen-Anhalt"}},{"name":"Kötzschener Str.","postalCode":"06237","locality":"Leuna","municipality":{"key":"15088205","name":"Leuna, Stadt","type":"Stadt"},"district":{"key":"15088","name":"Saalekreis","type":"Landkreis"},"federalState":{"key":"15","name":"Sachsen-Anhalt"}},{"name":"Kötzschener Weg","postalCode":"06237","locality":"Leuna","municipality":{"key":"15088205","name":"Leuna, Stadt","type":"Stadt"},"district":{"key":"15088","name":"Saalekreis","type":"Landkreis"},"federalState":{"key":"15","name":"Sachsen-Anhalt"}},{"name":"Kramerstr.","postalCode":"06237","locality":"Leuna","municipality":{"key":"15088205","name":"Leuna, Stadt","type":"Stadt"},"district":{"key":"15088","name":"Saalekreis","type":"Landkreis"},"federalState":{"key":"15","name":"Sachsen-Anhalt"}},{"name":"Kreuzweg","postalCode":"35638","locality":"Leun","municipality":{"key":"06532016","name":"Leun, Stadt","type":"Stadt"},"district":{"key":"06532","name":"Lahn-Dill-Kreis","type":"Landkreis"},"federalState":{"key":"06","name":"Hessen"}},{"name":"Kreypauer Landstr.","postalCode":"06237","locality":"Leuna","municipality":{"key":"15088205","name":"Leuna, Stadt","type":"Stadt"},"district":{"key":"15088","name":"Saalekreis","type":"Landkreis"},"federalState":{"key":"15","name":"Sachsen-Anhalt"}},{"name":"Kreypauer Str.","postalCode":"06237","locality":"Leuna","municipality":{"key":"15088205","name":"Leuna, Stadt","type":"Stadt"},"district":{"key":"15088","name":"Saalekreis","type":"Landkreis"},"federalState":{"key":"15","name":"Sachsen-Anhalt"}},{"name":"Kröllwitzer Str.","postalCode":"06237","locality":"Leuna","municipality":{"key":"15088205","name":"Leuna, Stadt","type":"Stadt"},"district":{"key":"15088","name":"Saalekreis","type":"Landkreis"},"federalState":{"key":"15","name":"Sachsen-Anhalt"}},{"name":"Kröllwitz Siedlung","postalCode":"06237","locality":"Leuna","municipality":{"key":"15088205","name":"Leuna, Stadt","type":"Stadt"},"district":{"key":"15088","name":"Saalekreis","type":"Landkreis"},"federalState":{"key":"15","name":"Sachsen-Anhalt"}},{"name":"Kurze Gasse","postalCode":"06237","locality":"Leuna","municipality":{"key":"15088205","name":"Leuna, Stadt","type":"Stadt"},"district":{"key":"15088","name":"Saalekreis","type":"Landkreis"},"federalState":{"key":"15","name":"Sachsen-Anhalt"}},{"name":"Lahnstr.","postalCode":"35638","locality":"Leun","municipality":{"key":"06532016","name":"Leun, Stadt","type":"Stadt"},"district":{"key":"06532","name":"Lahn-Dill-Kreis","type":"Landkreis"},"federalState":{"key":"06","name":"Hessen"}},{"name":"Lahnuferweg","postalCode":"35638","locality":"Leun","municipality":{"key":"06532016","name":"Leun, Stadt","type":"Stadt"},"district":{"key":"06532","name":"Lahn-Dill-Kreis","type":"Landkreis"},"federalState":{"key":"06","name":"Hessen"}},{"name":"Langelohstr.","postalCode":"35638","locality":"Leun","municipality":{"key":"06532016","name":"Leun, Stadt","type":"Stadt"},"district":{"key":"06532","name":"Lahn-Dill-Kreis","type":"Landkreis"},"federalState":{"key":"06","name":"Hessen"}},{"name":"Lehnweg","postalCode":"35638","locality":"Leun","municipality":{"key":"06532016","name":"Leun, Stadt","type":"Stadt"},"district":{"key":"06532","name":"Lahn-Dill-Kreis","type":"Landkreis"},"federalState":{"key":"06","name":"Hessen"}},{"name":"Leibnitzstr.","postalCode":"06237","locality":"Leuna","municipality":{"key":"15088205","name":"Leuna, Stadt","type":"Stadt"},"district":{"key":"15088","name":"Saalekreis","type":"Landkreis"},"federalState":{"key":"15","name":"Sachsen-Anhalt"}},{"name":"Leipziger Str.","postalCode":"06237","locality":"Leuna","municipality":{"key":"15088205","name":"Leuna, Stadt","type":"Stadt"},"district":{"key":"15088","name":"Saalekreis","type":"Landkreis"},"federalState":{"key":"15","name":"Sachsen-Anhalt"}},{"name":"Lerchenring","postalCode":"06237","locality":"Leuna","municipality":{"key":"15088205","name":"Leuna, Stadt","type":"Stadt"},"district":{"key":"15088","name":"Saalekreis","type":"Landkreis"},"federalState":{"key":"15","name":"Sachsen-Anhalt"}},{"name":"Lerchenweg","postalCode":"06237","locality":"Leuna","municipality":{"key":"15088205","name":"Leuna, Stadt","type":"Stadt"},"district":{"key":"15088","name":"Saalekreis","type":"Landkreis"},"federalState":{"key":"15","name":"Sachsen-Anhalt"}},{"name":"Leunatorstr.","postalCode":"06237","locality":"Leuna","municipality":{"key":"15088205","name":"Leuna, Stadt","type":"Stadt"},"district":{"key":"15088","name":"Saalekreis","type":"Landkreis"},"federalState":{"key":"15","name":"Sachsen-Anhalt"}},{"name":"Leuner Weg","postalCode":"35638","locality":"Leun","municipality":{"key":"06532016","name":"Leun, Stadt","type":"Stadt"},"district":{"key":"06532","name":"Lahn-Dill-Kreis","type":"Landkreis"},"federalState":{"key":"06","name":"Hessen"}},{"name":"Liebigstr.","postalCode":"06237","locality":"Leuna","municipality":{"key":"15088205","name":"Leuna, Stadt","type":"Stadt"},"district":{"key":"15088","name":"Saalekreis","type":"Landkreis"},"federalState":{"key":"15","name":"Sachsen-Anhalt"}},{"name":"Liebigstr.","postalCode":"35638","locality":"Leun","municipality":{"key":"06532016","name":"Leun, Stadt","type":"Stadt"},"district":{"key":"06532","name":"Lahn-Dill-Kreis","type":"Landkreis"},"federalState":{"key":"06","name":"Hessen"}},{"name":"Lilienweg","postalCode":"06237","locality":"Leuna","municipality":{"key":"15088205","name":"Leuna, Stadt","type":"Stadt"},"district":{"key":"15088","name":"Saalekreis","type":"Landkreis"},"federalState":{"key":"15","name":"Sachsen-Anhalt"}},{"name":"Limburger Str.","postalCode":"35638","locality":"Leun","municipality":{"key":"06532016","name":"Leun, Stadt","type":"Stadt"},"district":{"key":"06532","name":"Lahn-Dill-Kreis","type":"Landkreis"},"federalState":{"key":"06","name":"Hessen"}},{"name":"Lindenplatz","postalCode":"06237","locality":"Leuna","municipality":{"key":"15088205","name":"Leuna, Stadt","type":"Stadt"},"district":{"key":"15088","name":"Saalekreis","type":"Landkreis"},"federalState":{"key":"15","name":"Sachsen-Anhalt"}},{"name":"Lindenstr.","postalCode":"06237","locality":"Leuna","municipality":{"key":"15088205","name":"Leuna, Stadt","type":"Stadt"},"district":{"key":"15088","name":"Saalekreis","type":"Landkreis"},"federalState":{"key":"15","name":"Sachsen-Anhalt"}},{"name":"Lindenweg","postalCode":"35638","locality":"Leun","municipality":{"key":"06532016","name":"Leun, Stadt","type":"Stadt"},"district":{"key":"06532","name":"Lahn-Dill-Kreis","type":"Landkreis"},"federalState":{"key":"06","name":"Hessen"}},{"name":"Lohbergstr.","postalCode":"35638","locality":"Leun","municipality":{"key":"06532016","name":"Leun, Stadt","type":"Stadt"},"district":{"key":"06532","name":"Lahn-Dill-Kreis","type":"Landkreis"},"federalState":{"key":"06","name":"Hessen"}},{"name":"Luppenweg","postalCode":"06237","locality":"Leuna","municipality":{"key":"15088205","name":"Leuna, Stadt","type":"Stadt"},"district":{"key":"15088","name":"Saalekreis","type":"Landkreis"},"federalState":{"key":"15","name":"Sachsen-Anhalt"}},{"name":"Maienweg","postalCode":"06237","locality":"Leuna","municipality":{"key":"15088205","name":"Leuna, Stadt","type":"Stadt"},"district":{"key":"15088","name":"Saalekreis","type":"Landkreis"},"federalState":{"key":"15","name":"Sachsen-Anhalt"}},{"name":"Malerstr.","postalCode":"06237","locality":"Leuna","municipality":{"key":"15088205","name":"Leuna, Stadt","type":"Stadt"},"district":{"key":"15088","name":"Saalekreis","type":"Landkreis"},"federalState":{"key":"15","name":"Sachsen-Anhalt"}},{"name":"Manstadtstr.","postalCode":"06237","locality":"Leuna","municipality":{"key":"15088205","name":"Leuna, Stadt","type":"Stadt"},"district":{"key":"15088","name":"Saalekreis","type":"Landkreis"},"federalState":{"key":"15","name":"Sachsen-Anhalt"}},{"name":"Marktplatz","postalCode":"35638","locality":"Leun","municipality":{"key":"06532016","name":"Leun, Stadt","type":"Stadt"},"district":{"key":"06532","name":"Lahn-Dill-Kreis","type":"Landkreis"},"federalState":{"key":"06","name":"Hessen"}},{"name":"Martinskirchweg","postalCode":"35638","locality":"Leun","municipality":{"key":"06532016","name":"Leun, Stadt","type":"Stadt"},"district":{"key":"06532","name":"Lahn-Dill-Kreis","type":"Landkreis"},"federalState":{"key":"06","name":"Hessen"}},{"name":"Maßlauer Str.","postalCode":"06237","locality":"Leuna","municipality":{"key":"15088205","name":"Leuna, Stadt","type":"Stadt"},"district":{"key":"15088","name":"Saalekreis","type":"Landkreis"},"federalState":{"key":"15","name":"Sachsen-Anhalt"}},{"name":"Maurerstr.","postalCode":"06237","locality":"Leuna","municipality":{"key":"15088205","name":"Leuna, Stadt","type":"Stadt"},"district":{"key":"15088","name":"Saalekreis","type":"Landkreis"},"federalState":{"key":"15","name":"Sachsen-Anhalt"}},{"name":"Meisenweg","postalCode":"06237","locality":"Leuna","municipality":{"key":"15088205","name":"Leuna, Stadt","type":"Stadt"},"district":{"key":"15088","name":"Saalekreis","type":"Landkreis"},"federalState":{"key":"15","name":"Sachsen-Anhalt"}},{"name":"Meisenweg","postalCode":"35638","locality":"Leun","municipality":{"key":"06532016","name":"Leun, Stadt","type":"Stadt"},"district":{"key":"06532","name":"Lahn-Dill-Kreis","type":"Landkreis"},"federalState":{"key":"06","name":"Hessen"}},{"name":"Merseburger Landstr.","postalCode":"06237","locality":"Leuna","municipality":{"key":"15088205","name":"Leuna, Stadt","type":"Stadt"},"district":{"key":"15088","name":"Saalekreis","type":"Landkreis"},"federalState":{"key":"15","name":"Sachsen-Anhalt"}},{"name":"Merseburger Str.","postalCode":"06237","locality":"Leuna","municipality":{"key":"15088205","name":"Leuna, Stadt","type":"Stadt"},"district":{"key":"15088","name":"Saalekreis","type":"Landkreis"},"federalState":{"key":"15","name":"Sachsen-Anhalt"}},{"name":"Möritzsch","postalCode":"06237","locality":"Leuna","municipality":{"key":"15088205","name":"Leuna, Stadt","type":"Stadt"},"district":{"key":"15088","name":"Saalekreis","type":"Landkreis"},"federalState":{"key":"15","name":"Sachsen-Anhalt"}},{"name":"Möttbachweg","postalCode":"35638","locality":"Leun","municipality":{"key":"06532016","name":"Leun, Stadt","type":"Stadt"},"district":{"key":"06532","name":"Lahn-Dill-Kreis","type":"Landkreis"},"federalState":{"key":"06","name":"Hessen"}},{"name":"Mozartstr.","postalCode":"35638","locality":"Leun","municipality":{"key":"06532016","name":"Leun, Stadt","type":"Stadt"},"district":{"key":"06532","name":"Lahn-Dill-Kreis","type":"Landkreis"},"federalState":{"key":"06","name":"Hessen"}},{"name":"Mühlenstr.","postalCode":"35638","locality":"Leun","municipality":{"key":"06532016","name":"Leun, Stadt","type":"Stadt"},"district":{"key":"06532","name":"Lahn-Dill-Kreis","type":"Landkreis"},"federalState":{"key":"06","name":"Hessen"}},{"name":"Mühlhöllweg","postalCode":"35638","locality":"Leun","municipality":{"key":"06532016","name":"Leun, Stadt","type":"Stadt"},"district":{"key":"06532","name":"Lahn-Dill-Kreis","type":"Landkreis"},"federalState":{"key":"06","name":"Hessen"}},{"name":"Mühlweg","postalCode":"06237","locality":"Leuna","municipality":{"key":"15088205","name":"Leuna, Stadt","type":"Stadt"},"district":{"key":"15088","name":"Saalekreis","type":"Landkreis"},"federalState":{"key":"15","name":"Sachsen-Anhalt"}},{"name":"Nachtigallenschlag","postalCode":"35638","locality":"Leun","municipality":{"key":"06532016","name":"Leun, Stadt","type":"Stadt"},"district":{"key":"06532","name":"Lahn-Dill-Kreis","type":"Landkreis"},"federalState":{"key":"06","name":"Hessen"}},{"name":"Nelkenweg","postalCode":"06237","locality":"Leuna","municipality":{"key":"15088205","name":"Leuna, Stadt","type":"Stadt"},"district":{"key":"15088","name":"Saalekreis","type":"Landkreis"},"federalState":{"key":"15","name":"Sachsen-Anhalt"}},{"name":"Neumarkt","postalCode":"06237","locality":"Leuna","municipality":{"key":"15088205","name":"Leuna, Stadt","type":"Stadt"},"district":{"key":"15088","name":"Saalekreis","type":"Landkreis"},"federalState":{"key":"15","name":"Sachsen-Anhalt"}},{"name":"Niederbieler Weg","postalCode":"35638","locality":"Leun","municipality":{"key":"06532016","name":"Leun, Stadt","type":"Stadt"},"district":{"key":"06532","name":"Lahn-Dill-Kreis","type":"Landkreis"},"federalState":{"key":"06","name":"Hessen"}},{"name":"Nordanlage","postalCode":"06237","locality":"Leuna","municipality":{"key":"15088205","name":"Leuna, Stadt","type":"Stadt"},"district":{"key":"15088","name":"Saalekreis","type":"Landkreis"},"federalState":{"key":"15","name":"Sachsen-Anhalt"}},{"name":"Nordendstr.","postalCode":"35638","locality":"Leun","municipality":{"key":"06532016","name":"Leun, Stadt","type":"Stadt"},"district":{"key":"06532","name":"Lahn-Dill-Kreis","type":"Landkreis"},"federalState":{"key":"06","name":"Hessen"}},{"name":"Nordstr.","postalCode":"06237","locality":"Leuna","municipality":{"key":"15088205","name":"Leuna, Stadt","type":"Stadt"},"district":{"key":"15088","name":"Saalekreis","type":"Landkreis"},"federalState":{"key":"15","name":"Sachsen-Anhalt"}},{"name":"Obere Bachstr.","postalCode":"35638","locality":"Leun","municipality":{"key":"06532016","name":"Leun, Stadt","type":"Stadt"},"district":{"key":"06532","name":"Lahn-Dill-Kreis","type":"Landkreis"},"federalState":{"key":"06","name":"Hessen"}},{"name":"Obere Dorfstr.","postalCode":"06237","locality":"Leuna","municipality":{"key":"15088205","name":"Leuna, Stadt","type":"Stadt"},"district":{"key":"15088","name":"Saalekreis","type":"Landkreis"},"federalState":{"key":"15","name":"Sachsen-Anhalt"}},{"name":"Oberhof","postalCode":"06237","locality":"Leuna","municipality":{"key":"15088205","name":"Leuna, Stadt","type":"Stadt"},"district":{"key":"15088","name":"Saalekreis","type":"Landkreis"},"federalState":{"key":"15","name":"Sachsen-Anhalt"}},{"name":"Obertorstr.","postalCode":"35638","locality":"Leun","municipality":{"key":"06532016","name":"Leun, Stadt","type":"Stadt"},"district":{"key":"06532","name":"Lahn-Dill-Kreis","type":"Landkreis"},"federalState":{"key":"06","name":"Hessen"}},{"name":"Ockendorf","postalCode":"06237","locality":"Leuna","municipality":{"key":"15088205","name":"Leuna, Stadt","type":"Stadt"},"district":{"key":"15088","name":"Saalekreis","type":"Landkreis"},"federalState":{"key":"15","name":"Sachsen-Anhalt"}},{"name":"Osterstr.","postalCode":"35638","locality":"Leun","municipality":{"key":"06532016","name":"Leun, Stadt","type":"Stadt"},"district":{"key":"06532","name":"Lahn-Dill-Kreis","type":"Landkreis"},"federalState":{"key":"06","name":"Hessen"}},{"name":"Ostlandstr.","postalCode":"35638","locality":"Leun","municipality":{"key":"06532016","name":"Leun, Stadt","type":"Stadt"},"district":{"key":"06532","name":"Lahn-Dill-Kreis","type":"Landkreis"},"federalState":{"key":"06","name":"Hessen"}},{"name":"Oststr.","postalCode":"06237","locality":"Leuna","municipality":{"key":"15088205","name":"Leuna, Stadt","type":"Stadt"},"district":{"key":"15088","name":"Saalekreis","type":"Landkreis"},"federalState":{"key":"15","name":"Sachsen-Anhalt"}},{"name":"Otto-Hahn-Str.","postalCode":"35638","locality":"Leun","municipality":{"key":"06532016","name":"Leun, Stadt","type":"Stadt"},"district":{"key":"06532","name":"Lahn-Dill-Kreis","type":"Landkreis"},"federalState":{"key":"06","name":"Hessen"}},{"name":"Pfalzplatz","postalCode":"06237","locality":"Leuna","municipality":{"key":"15088205","name":"Leuna, Stadt","type":"Stadt"},"district":{"key":"15088","name":"Saalekreis","type":"Landkreis"},"federalState":{"key":"15","name":"Sachsen-Anhalt"}},{"name":"Pfarrer-Wetz-Str.","postalCode":"35638","locality":"Leun","municipality":{"key":"06532016","name":"Leun, Stadt","type":"Stadt"},"district":{"key":"06532","name":"Lahn-Dill-Kreis","type":"Landkreis"},"federalState":{"key":"06","name":"Hessen"}},{"name":"Pfarrgasse","postalCode":"06237","locality":"Leuna","municipality":{"key":"15088205","name":"Leuna, Stadt","type":"Stadt"},"district":{"key":"15088","name":"Saalekreis","type":"Landkreis"},"federalState":{"key":"15","name":"Sachsen-Anhalt"}},{"name":"Pfarrgasse","postalCode":"35638","locality":"Leun","municipality":{"key":"06532016","name":"Leun, Stadt","type":"Stadt"},"district":{"key":"06532","name":"Lahn-Dill-Kreis","type":"Landkreis"},"federalState":{"key":"06","name":"Hessen"}},{"name":"Pfarrstr.","postalCode":"06237","locality":"Leuna","municipality":{"key":"15088205","name":"Leuna, Stadt","type":"Stadt"},"district":{"key":"15088","name":"Saalekreis","type":"Landkreis"},"federalState":{"key":"15","name":"Sachsen-Anhalt"}},{"name":"Pflaumenbaumweg","postalCode":"06237","locality":"Leuna","municipality":{"key":"15088205","name":"Leuna, Stadt","type":"Stadt"},"district":{"key":"15088","name":"Saalekreis","type":"Landkreis"},"federalState":{"key":"15","name":"Sachsen-Anhalt"}},{"name":"Pissen","postalCode":"06237","locality":"Leuna","municipality":{"key":"15088205","name":"Leuna, Stadt","type":"Stadt"},"district":{"key":"15088","name":"Saalekreis","type":"Landkreis"},"federalState":{"key":"15","name":"Sachsen-Anhalt"}},{"name":"Plastikpark","postalCode":"06237","locality":"Leuna","municipality":{"key":"15088205","name":"Leuna, Stadt","type":"Stadt"},"district":{"key":"15088","name":"Saalekreis","type":"Landkreis"},"federalState":{"key":"15","name":"Sachsen-Anhalt"}},{"name":"Preußenstr.","postalCode":"06237","locality":"Leuna","municipality":{"key":"15088205","name":"Leuna, Stadt","type":"Stadt"},"district":{"key":"15088","name":"Saalekreis","type":"Landkreis"},"federalState":{"key":"15","name":"Sachsen-Anhalt"}},{"name":"Querstr.","postalCode":"06237","locality":"Leuna","municipality":{"key":"15088205","name":"Leuna, Stadt","type":"Stadt"},"district":{"key":"15088","name":"Saalekreis","type":"Landkreis"},"federalState":{"key":"15","name":"Sachsen-Anhalt"}},{"name":"Rabengasse","postalCode":"06237","locality":"Leuna","municipality":{"key":"15088205","name":"Leuna, Stadt","type":"Stadt"},"district":{"key":"15088","name":"Saalekreis","type":"Landkreis"},"federalState":{"key":"15","name":"Sachsen-Anhalt"}},{"name":"Rathausstr.","postalCode":"06237","locality":"Leuna","municipality":{"key":"15088205","name":"Leuna, Stadt","type":"Stadt"},"district":{"key":"15088","name":"Saalekreis","type":"Landkreis"},"federalState":{"key":"15","name":"Sachsen-Anhalt"}},{"name":"Rathenaustr.","postalCode":"06237","locality":"Leuna","municipality":{"key":"15088205","name":"Leuna, Stadt","type":"Stadt"},"district":{"key":"15088","name":"Saalekreis","type":"Landkreis"},"federalState":{"key":"15","name":"Sachsen-Anhalt"}},{"name":"Rodden","postalCode":"06237","locality":"Leuna","municipality":{"key":"15088205","name":"Leuna, Stadt","type":"Stadt"},"district":{"key":"15088","name":"Saalekreis","type":"Landkreis"},"federalState":{"key":"15","name":"Sachsen-Anhalt"}},{"name":"Roddener Str.","postalCode":"06237","locality":"Leuna","municipality":{"key":"15088205","name":"Leuna, Stadt","type":"Stadt"},"district":{"key":"15088","name":"Saalekreis","type":"Landkreis"},"federalState":{"key":"15","name":"Sachsen-Anhalt"}},{"name":"Röntgenweg","postalCode":"35638","locality":"Leun","municipality":{"key":"06532016","name":"Leun, Stadt","type":"Stadt"},"district":{"key":"06532","name":"Lahn-Dill-Kreis","type":"Landkreis"},"federalState":{"key":"06","name":"Hessen"}},{"name":"Rosenstr.","postalCode":"06237","locality":"Leuna","municipality":{"key":"15088205","name":"Leuna, Stadt","type":"Stadt"},"district":{"key":"15088","name":"Saalekreis","type":"Landkreis"},"federalState":{"key":"15","name":"Sachsen-Anhalt"}},{"name":"Rosenweg","postalCode":"06237","locality":"Leuna","municipality":{"key":"15088205","name":"Leuna, Stadt","type":"Stadt"},"district":{"key":"15088","name":"Saalekreis","type":"Landkreis"},"federalState":{"key":"15","name":"Sachsen-Anhalt"}},{"name":"Rössen","postalCode":"06237","locality":"Leuna","municipality":{"key":"15088205","name":"Leuna, Stadt","type":"Stadt"},"district":{"key":"15088","name":"Saalekreis","type":"Landkreis"},"federalState":{"key":"15","name":"Sachsen-Anhalt"}},{"name":"Rudolf-Breitscheid-Str.","postalCode":"06237","locality":"Leuna","municipality":{"key":"15088205","name":"Leuna, Stadt","type":"Stadt"},"district":{"key":"15088","name":"Saalekreis","type":"Landkreis"},"federalState":{"key":"15","name":"Sachsen-Anhalt"}},{"name":"Saalestr.","postalCode":"06237","locality":"Leuna","municipality":{"key":"15088205","name":"Leuna, Stadt","type":"Stadt"},"district":{"key":"15088","name":"Saalekreis","type":"Landkreis"},"federalState":{"key":"15","name":"Sachsen-Anhalt"}},{"name":"Sachsenplatz","postalCode":"06237","locality":"Leuna","municipality":{"key":"15088205","name":"Leuna, Stadt","type":"Stadt"},"district":{"key":"15088","name":"Saalekreis","type":"Landkreis"},"federalState":{"key":"15","name":"Sachsen-Anhalt"}},{"name":"Sachsenstr.","postalCode":"06237","locality":"Leuna","municipality":{"key":"15088205","name":"Leuna, Stadt","type":"Stadt"},"district":{"key":"15088","name":"Saalekreis","type":"Landkreis"},"federalState":{"key":"15","name":"Sachsen-Anhalt"}},{"name":"Salzwiesen","postalCode":"06237","locality":"Leuna","municipality":{"key":"15088205","name":"Leuna, Stadt","type":"Stadt"},"district":{"key":"15088","name":"Saalekreis","type":"Landkreis"},"federalState":{"key":"15","name":"Sachsen-Anhalt"}},{"name":"Sattlerstr.","postalCode":"06237","locality":"Leuna","municipality":{"key":"15088205","name":"Leuna, Stadt","type":"Stadt"},"district":{"key":"15088","name":"Saalekreis","type":"Landkreis"},"federalState":{"key":"15","name":"Sachsen-Anhalt"}},{"name":"Schachtplatz","postalCode":"06237","locality":"Leuna","municipality":{"key":"15088205","name":"Leuna, Stadt","type":"Stadt"},"district":{"key":"15088","name":"Saalekreis","type":"Landkreis"},"federalState":{"key":"15","name":"Sachsen-Anhalt"}},{"name":"Schäferburg","postalCode":"35638","locality":"Leun","municipality":{"key":"06532016","name":"Leun, Stadt","type":"Stadt"},"district":{"key":"06532","name":"Lahn-Dill-Kreis","type":"Landkreis"},"federalState":{"key":"06","name":"Hessen"}},{"name":"Schäferei","postalCode":"06237","locality":"Leuna","municipality":{"key":"15088205","name":"Leuna, Stadt","type":"Stadt"},"district":{"key":"15088","name":"Saalekreis","type":"Landkreis"},"federalState":{"key":"15","name":"Sachsen-Anhalt"}},{"name":"Schäfergasse","postalCode":"35638","locality":"Leun","municipality":{"key":"06532016","name":"Leun, Stadt","type":"Stadt"},"district":{"key":"06532","name":"Lahn-Dill-Kreis","type":"Landkreis"},"federalState":{"key":"06","name":"Hessen"}},{"name":"Schenkhof","postalCode":"06237","locality":"Leuna","municipality":{"key":"15088205","name":"Leuna, Stadt","type":"Stadt"},"district":{"key":"15088","name":"Saalekreis","type":"Landkreis"},"federalState":{"key":"15","name":"Sachsen-Anhalt"}},{"name":"Schillerstr.","postalCode":"06237","locality":"Leuna","municipality":{"key":"15088205","name":"Leuna, Stadt","type":"Stadt"},"district":{"key":"15088","name":"Saalekreis","type":"Landkreis"},"federalState":{"key":"15","name":"Sachsen-Anhalt"}},{"name":"Schkeuditzer Str.","postalCode":"06237","locality":"Leuna","municipality":{"key":"15088205","name":"Leuna, Stadt","type":"Stadt"},"district":{"key":"15088","name":"Saalekreis","type":"Landkreis"},"federalState":{"key":"15","name":"Sachsen-Anhalt"}},{"name":"Schladebacher Weg","postalCode":"06237","locality":"Leuna","municipality":{"key":"15088205","name":"Leuna, Stadt","type":"Stadt"},"district":{"key":"15088","name":"Saalekreis","type":"Landkreis"},"federalState":{"key":"15","name":"Sachsen-Anhalt"}},{"name":"Schleusenweg","postalCode":"06237","locality":"Leuna","municipality":{"key":"15088205","name":"Leuna, Stadt","type":"Stadt"},"district":{"key":"15088","name":"Saalekreis","type":"Landkreis"},"federalState":{"key":"15","name":"Sachsen-Anhalt"}},{"name":"Schlosserstr.","postalCode":"06237","locality":"Leuna","municipality":{"key":"15088205","name":"Leuna, Stadt","type":"Stadt"},"district":{"key":"15088","name":"Saalekreis","type":"Landkreis"},"federalState":{"key":"15","name":"Sachsen-Anhalt"}},{"name":"Schloßstr.","postalCode":"06237","locality":"Leuna","municipality":{"key":"15088205","name":"Leuna, Stadt","type":"Stadt"},"district":{"key":"15088","name":"Saalekreis","type":"Landkreis"},"federalState":{"key":"15","name":"Sachsen-Anhalt"}},{"name":"Schmiedweg","postalCode":"06237","locality":"Leuna","municipality":{"key":"15088205","name":"Leuna, Stadt","type":"Stadt"},"district":{"key":"15088","name":"Saalekreis","type":"Landkreis"},"federalState":{"key":"15","name":"Sachsen-Anhalt"}},{"name":"Schöne Aussicht","postalCode":"35638","locality":"Leun","municipality":{"key":"06532016","name":"Leun, Stadt","type":"Stadt"},"district":{"key":"06532","name":"Lahn-Dill-Kreis","type":"Landkreis"},"federalState":{"key":"06","name":"Hessen"}},{"name":"Schrägweg","postalCode":"06237","locality":"Leuna","municipality":{"key":"15088205","name":"Leuna, Stadt","type":"Stadt"},"district":{"key":"15088","name":"Saalekreis","type":"Landkreis"},"federalState":{"key":"15","name":"Sachsen-Anhalt"}},{"name":"Schulgasse","postalCode":"06237","locality":"Leuna","municipality":{"key":"15088205","name":"Leuna, Stadt","type":"Stadt"},"district":{"key":"15088","name":"Saalekreis","type":"Landkreis"},"federalState":{"key":"15","name":"Sachsen-Anhalt"}},{"name":"Schulstr.","postalCode":"06237","locality":"Leuna","municipality":{"key":"15088205","name":"Leuna, Stadt","type":"Stadt"},"district":{"key":"15088","name":"Saalekreis","type":"Landkreis"},"federalState":{"key":"15","name":"Sachsen-Anhalt"}},{"name":"Schulstr.","postalCode":"35638","locality":"Leun","municipality":{"key":"06532016","name":"Leun, Stadt","type":"Stadt"},"district":{"key":"06532","name":"Lahn-Dill-Kreis","type":"Landkreis"},"federalState":{"key":"06","name":"Hessen"}},{"name":"Schulweg","postalCode":"06237","locality":"Leuna","municipality":{"key":"15088205","name":"Leuna, Stadt","type":"Stadt"},"district":{"key":"15088","name":"Saalekreis","type":"Landkreis"},"federalState":{"key":"15","name":"Sachsen-Anhalt"}},{"name":"Schwarzer Weg","postalCode":"06237","locality":"Leuna","municipality":{"key":"15088205","name":"Leuna, Stadt","type":"Stadt"},"district":{"key":"15088","name":"Saalekreis","type":"Landkreis"},"federalState":{"key":"15","name":"Sachsen-Anhalt"}},{"name":"Seitenbeutel","postalCode":"06237","locality":"Leuna","municipality":{"key":"15088205","name":"Leuna, Stadt","type":"Stadt"},"district":{"key":"15088","name":"Saalekreis","type":"Landkreis"},"federalState":{"key":"15","name":"Sachsen-Anhalt"}},{"name":"Siedlung","postalCode":"06237","locality":"Leuna","municipality":{"key":"15088205","name":"Leuna, Stadt","type":"Stadt"},"district":{"key":"15088","name":"Saalekreis","type":"Landkreis"},"federalState":{"key":"15","name":"Sachsen-Anhalt"}},{"name":"Siedlung Schladebach","postalCode":"06237","locality":"Leuna","municipality":{"key":"15088205","name":"Leuna, Stadt","type":"Stadt"},"district":{"key":"15088","name":"Saalekreis","type":"Landkreis"},"federalState":{"key":"15","name":"Sachsen-Anhalt"}},{"name":"Siedlungsstr.","postalCode":"06237","locality":"Leuna","municipality":{"key":"15088205","name":"Leuna, Stadt","type":"Stadt"},"district":{"key":"15088","name":"Saalekreis","type":"Landkreis"},"federalState":{"key":"15","name":"Sachsen-Anhalt"}},{"name":"Siedlungsweg","postalCode":"06237","locality":"Leuna","municipality":{"key":"15088205","name":"Leuna, Stadt","type":"Stadt"},"district":{"key":"15088","name":"Saalekreis","type":"Landkreis"},"federalState":{"key":"15","name":"Sachsen-Anhalt"}},{"name":"Siemensstr.","postalCode":"35638","locality":"Leun","municipality":{"key":"06532016","name":"Leun, Stadt","type":"Stadt"},"district":{"key":"06532","name":"Lahn-Dill-Kreis","type":"Landkreis"},"federalState":{"key":"06","name":"Hessen"}},{"name":"Silberberg","postalCode":"06237","locality":"Leuna","municipality":{"key":"15088205","name":"Leuna, Stadt","type":"Stadt"},"district":{"key":"15088","name":"Saalekreis","type":"Landkreis"},"federalState":{"key":"15","name":"Sachsen-Anhalt"}},{"name":"Silbergasse","postalCode":"35638","locality":"Leun","municipality":{"key":"06532016","name":"Leun, Stadt","type":"Stadt"},"district":{"key":"06532","name":"Lahn-Dill-Kreis","type":"Landkreis"},"federalState":{"key":"06","name":"Hessen"}},{"name":"Simonsberg","postalCode":"35638","locality":"Leun","municipality":{"key":"06532016","name":"Leun, Stadt","type":"Stadt"},"district":{"key":"06532","name":"Lahn-Dill-Kreis","type":"Landkreis"},"federalState":{"key":"06","name":"Hessen"}},{"name":"Sonnengasse","postalCode":"06237","locality":"Leuna","municipality":{"key":"15088205","name":"Leuna, Stadt","type":"Stadt"},"district":{"key":"15088","name":"Saalekreis","type":"Landkreis"},"federalState":{"key":"15","name":"Sachsen-Anhalt"}},{"name":"Sonnenplatz","postalCode":"06237","locality":"Leuna","municipality":{"key":"15088205","name":"Leuna, Stadt","type":"Stadt"},"district":{"key":"15088","name":"Saalekreis","type":"Landkreis"},"federalState":{"key":"15","name":"Sachsen-Anhalt"}},{"name":"Sonnenweg","postalCode":"06237","locality":"Leuna","municipality":{"key":"15088205","name":"Leuna, Stadt","type":"Stadt"},"district":{"key":"15088","name":"Saalekreis","type":"Landkreis"},"federalState":{"key":"15","name":"Sachsen-Anhalt"}},{"name":"Spergauer Str.","postalCode":"06237","locality":"Leuna","municipality":{"key":"15088205","name":"Leuna, Stadt","type":"Stadt"},"district":{"key":"15088","name":"Saalekreis","type":"Landkreis"},"federalState":{"key":"15","name":"Sachsen-Anhalt"}},{"name":"Spergauer Weg","postalCode":"06237","locality":"Leuna","municipality":{"key":"15088205","name":"Leuna, Stadt","type":"Stadt"},"district":{"key":"15088","name":"Saalekreis","type":"Landkreis"},"federalState":{"key":"15","name":"Sachsen-Anhalt"}},{"name":"Starenweg","postalCode":"06237","locality":"Leuna","municipality":{"key":"15088205","name":"Leuna, Stadt","type":"Stadt"},"district":{"key":"15088","name":"Saalekreis","type":"Landkreis"},"federalState":{"key":"15","name":"Sachsen-Anhalt"}},{"name":"Stockhäuser Str.","postalCode":"35638","locality":"Leun","municipality":{"key":"06532016","name":"Leun, Stadt","type":"Stadt"},"district":{"key":"06532","name":"Lahn-Dill-Kreis","type":"Landkreis"},"federalState":{"key":"06","name":"Hessen"}},{"name":"Str. der OdF","postalCode":"06237","locality":"Leuna","municipality":{"key":"15088205","name":"Leuna, Stadt","type":"Stadt"},"district":{"key":"15088","name":"Saalekreis","type":"Landkreis"},"federalState":{"key":"15","name":"Sachsen-Anhalt"}},{"name":"Str. zur Linde","postalCode":"06237","locality":"Leuna","municipality":{"key":"15088205","name":"Leuna, Stadt","type":"Stadt"},"district":{"key":"15088","name":"Saalekreis","type":"Landkreis"},"federalState":{"key":"15","name":"Sachsen-Anhalt"}},{"name":"Talstr.","postalCode":"06237","locality":"Leuna","municipality":{"key":"15088205","name":"Leuna, Stadt","type":"Stadt"},"district":{"key":"15088","name":"Saalekreis","type":"Landkreis"},"federalState":{"key":"15","name":"Sachsen-Anhalt"}},{"name":"Talwiesenstr.","postalCode":"06237","locality":"Leuna","municipality":{"key":"15088205","name":"Leuna, Stadt","type":"Stadt"},"district":{"key":"15088","name":"Saalekreis","type":"Landkreis"},"federalState":{"key":"15","name":"Sachsen-Anhalt"}},{"name":"Taunusblick","postalCode":"35638","locality":"Leun","municipality":{"key":"06532016","name":"Leun, Stadt","type":"Stadt"},"district":{"key":"06532","name":"Lahn-Dill-Kreis","type":"Landkreis"},"federalState":{"key":"06","name":"Hessen"}},{"name":"Teichäcker","postalCode":"06237","locality":"Leuna","municipality":{"key":"15088205","name":"Leuna, Stadt","type":"Stadt"},"district":{"key":"15088","name":"Saalekreis","type":"Landkreis"},"federalState":{"key":"15","name":"Sachsen-Anhalt"}},{"name":"Teichstr.","postalCode":"06237","locality":"Leuna","municipality":{"key":"15088205","name":"Leuna, Stadt","type":"Stadt"},"district":{"key":"15088","name":"Saalekreis","type":"Landkreis"},"federalState":{"key":"15","name":"Sachsen-Anhalt"}},{"name":"Teichweg","postalCode":"06237","locality":"Leuna","municipality":{"key":"15088205","name":"Leuna, Stadt","type":"Stadt"},"district":{"key":"15088","name":"Saalekreis","type":"Landkreis"},"federalState":{"key":"15","name":"Sachsen-Anhalt"}},{"name":"Thalschütz","postalCode":"06237","locality":"Leuna","municipality":{"key":"15088205","name":"Leuna, Stadt","type":"Stadt"},"district":{"key":"15088","name":"Saalekreis","type":"Landkreis"},"federalState":{"key":"15","name":"Sachsen-Anhalt"}},{"name":"Tischlerstr.","postalCode":"06237","locality":"Leuna","municipality":{"key":"15088205","name":"Leuna, Stadt","type":"Stadt"},"district":{"key":"15088","name":"Saalekreis","type":"Landkreis"},"federalState":{"key":"15","name":"Sachsen-Anhalt"}},{"name":"Torweg","postalCode":"06237","locality":"Leuna","municipality":{"key":"15088205","name":"Leuna, Stadt","type":"Stadt"},"district":{"key":"15088","name":"Saalekreis","type":"Landkreis"},"federalState":{"key":"15","name":"Sachsen-Anhalt"}},{"name":"Totenweg","postalCode":"35638","locality":"Leun","municipality":{"key":"06532016","name":"Leun, Stadt","type":"Stadt"},"district":{"key":"06532","name":"Lahn-Dill-Kreis","type":"Landkreis"},"federalState":{"key":"06","name":"Hessen"}},{"name":"Trebnitzer Weg","postalCode":"06237","locality":"Leuna","municipality":{"key":"15088205","name":"Leuna, Stadt","type":"Stadt"},"district":{"key":"15088","name":"Saalekreis","type":"Landkreis"},"federalState":{"key":"15","name":"Sachsen-Anhalt"}},{"name":"Tulpenweg","postalCode":"06237","locality":"Leuna","municipality":{"key":"15088205","name":"Leuna, Stadt","type":"Stadt"},"district":{"key":"15088","name":"Saalekreis","type":"Landkreis"},"federalState":{"key":"15","name":"Sachsen-Anhalt"}},{"name":"Turmgasse","postalCode":"06237","locality":"Leuna","municipality":{"key":"15088205","name":"Leuna, Stadt","type":"Stadt"},"district":{"key":"15088","name":"Saalekreis","type":"Landkreis"},"federalState":{"key":"15","name":"Sachsen-Anhalt"}},{"name":"Uferstr.","postalCode":"06237","locality":"Leuna","municipality":{"key":"15088205","name":"Leuna, Stadt","type":"Stadt"},"district":{"key":"15088","name":"Saalekreis","type":"Landkreis"},"federalState":{"key":"15","name":"Sachsen-Anhalt"}},{"name":"Uhlandstr.","postalCode":"06237","locality":"Leuna","municipality":{"key":"15088205","name":"Leuna, Stadt","type":"Stadt"},"district":{"key":"15088","name":"Saalekreis","type":"Landkreis"},"federalState":{"key":"15","name":"Sachsen-Anhalt"}},{"name":"Ulmbachtalbahn","postalCode":"35638","locality":"Leun","municipality":{"key":"06532016","name":"Leun, Stadt","type":"Stadt"},"district":{"key":"06532","name":"Lahn-Dill-Kreis","type":"Landkreis"},"federalState":{"key":"06","name":"Hessen"}},{"name":"Ulmhof","postalCode":"35638","locality":"Leun","municipality":{"key":"06532016","name":"Leun, Stadt","type":"Stadt"},"district":{"key":"06532","name":"Lahn-Dill-Kreis","type":"Landkreis"},"federalState":{"key":"06","name":"Hessen"}},{"name":"Ulmtalstr.","postalCode":"35638","locality":"Leun","municipality":{"key":"06532016","name":"Leun, Stadt","type":"Stadt"},"district":{"key":"06532","name":"Lahn-Dill-Kreis","type":"Landkreis"},"federalState":{"key":"06","name":"Hessen"}},{"name":"Untere Bachstr.","postalCode":"35638","locality":"Leun","municipality":{"key":"06532016","name":"Leun, Stadt","type":"Stadt"},"district":{"key":"06532","name":"Lahn-Dill-Kreis","type":"Landkreis"},"federalState":{"key":"06","name":"Hessen"}},{"name":"Vant-Hoff-Str.","postalCode":"06237","locality":"Leuna","municipality":{"key":"15088205","name":"Leuna, Stadt","type":"Stadt"},"district":{"key":"15088","name":"Saalekreis","type":"Landkreis"},"federalState":{"key":"15","name":"Sachsen-Anhalt"}},{"name":"Vogelsang","postalCode":"35638","locality":"Leun","municipality":{"key":"06532016","name":"Leun, Stadt","type":"Stadt"},"district":{"key":"06532","name":"Lahn-Dill-Kreis","type":"Landkreis"},"federalState":{"key":"06","name":"Hessen"}},{"name":"Vor dem Tor","postalCode":"35638","locality":"Leun","municipality":{"key":"06532016","name":"Leun, Stadt","type":"Stadt"},"district":{"key":"06532","name":"Lahn-Dill-Kreis","type":"Landkreis"},"federalState":{"key":"06","name":"Hessen"}},{"name":"Vor der Turnhalle","postalCode":"35638","locality":"Leun","municipality":{"key":"06532016","name":"Leun, Stadt","type":"Stadt"},"district":{"key":"06532","name":"Lahn-Dill-Kreis","type":"Landkreis"},"federalState":{"key":"06","name":"Hessen"}},{"name":"Waldblick","postalCode":"35638","locality":"Leun","municipality":{"key":"06532016","name":"Leun, Stadt","type":"Stadt"},"district":{"key":"06532","name":"Lahn-Dill-Kreis","type":"Landkreis"},"federalState":{"key":"06","name":"Hessen"}},{"name":"Waldstr.","postalCode":"06237","locality":"Leuna","municipality":{"key":"15088205","name":"Leuna, Stadt","type":"Stadt"},"district":{"key":"15088","name":"Saalekreis","type":"Landkreis"},"federalState":{"key":"15","name":"Sachsen-Anhalt"}},{"name":"Waldstr.","postalCode":"35638","locality":"Leun","municipality":{"key":"06532016","name":"Leun, Stadt","type":"Stadt"},"district":{"key":"06532","name":"Lahn-Dill-Kreis","type":"Landkreis"},"federalState":{"key":"06","name":"Hessen"}},{"name":"Wallendorfer Str.","postalCode":"06237","locality":"Leuna","municipality":{"key":"15088205","name":"Leuna, Stadt","type":"Stadt"},"district":{"key":"15088","name":"Saalekreis","type":"Landkreis"},"federalState":{"key":"15","name":"Sachsen-Anhalt"}},{"name":"Wallendorfer Weg","postalCode":"06237","locality":"Leuna","municipality":{"key":"15088205","name":"Leuna, Stadt","type":"Stadt"},"district":{"key":"15088","name":"Saalekreis","type":"Landkreis"},"federalState":{"key":"15","name":"Sachsen-Anhalt"}},{"name":"Walter-Bauer-Str.","postalCode":"06237","locality":"Leuna","municipality":{"key":"15088205","name":"Leuna, Stadt","type":"Stadt"},"district":{"key":"15088","name":"Saalekreis","type":"Landkreis"},"federalState":{"key":"15","name":"Sachsen-Anhalt"}},{"name":"Wassergasse","postalCode":"35638","locality":"Leun","municipality":{"key":"06532016","name":"Leun, Stadt","type":"Stadt"},"district":{"key":"06532","name":"Lahn-Dill-Kreis","type":"Landkreis"},"federalState":{"key":"06","name":"Hessen"}},{"name":"Wasserwerkstr.","postalCode":"06237","locality":"Leuna","municipality":{"key":"15088205","name":"Leuna, Stadt","type":"Stadt"},"district":{"key":"15088","name":"Saalekreis","type":"Landkreis"},"federalState":{"key":"15","name":"Sachsen-Anhalt"}},{"name":"Wattstr.","postalCode":"06237","locality":"Leuna","municipality":{"key":"15088205","name":"Leuna, Stadt","type":"Stadt"},"district":{"key":"15088","name":"Saalekreis","type":"Landkreis"},"federalState":{"key":"15","name":"Sachsen-Anhalt"}},{"name":"Webergasse","postalCode":"06237","locality":"Leuna","municipality":{"key":"15088205","name":"Leuna, Stadt","type":"Stadt"},"district":{"key":"15088","name":"Saalekreis","type":"Landkreis"},"federalState":{"key":"15","name":"Sachsen-Anhalt"}},{"name":"Weg der Märzgefallenen","postalCode":"06237","locality":"Leuna","municipality":{"key":"15088205","name":"Leuna, Stadt","type":"Stadt"},"district":{"key":"15088","name":"Saalekreis","type":"Landkreis"},"federalState":{"key":"15","name":"Sachsen-Anhalt"}},{"name":"Weilburger Str.","postalCode":"35638","locality":"Leun","municipality":{"key":"06532016","name":"Leun, Stadt","type":"Stadt"},"district":{"key":"06532","name":"Lahn-Dill-Kreis","type":"Landkreis"},"federalState":{"key":"06","name":"Hessen"}},{"name":"Weingartenstr.","postalCode":"35638","locality":"Leun","municipality":{"key":"06532016","name":"Leun, Stadt","type":"Stadt"},"district":{"key":"06532","name":"Lahn-Dill-Kreis","type":"Landkreis"},"federalState":{"key":"06","name":"Hessen"}},{"name":"Weiße Brücke","postalCode":"06237","locality":"Leuna","municipality":{"key":"15088205","name":"Leuna, Stadt","type":"Stadt"},"district":{"key":"15088","name":"Saalekreis","type":"Landkreis"},"federalState":{"key":"15","name":"Sachsen-Anhalt"}},{"name":"Wendenstr.","postalCode":"06237","locality":"Leuna","municipality":{"key":"15088205","name":"Leuna, Stadt","type":"Stadt"},"district":{"key":"15088","name":"Saalekreis","type":"Landkreis"},"federalState":{"key":"15","name":"Sachsen-Anhalt"}},{"name":"Wendisch Ende","postalCode":"06237","locality":"Leuna","municipality":{"key":"15088205","name":"Leuna, Stadt","type":"Stadt"},"district":{"key":"15088","name":"Saalekreis","type":"Landkreis"},"federalState":{"key":"15","name":"Sachsen-Anhalt"}},{"name":"Wengelsdorfer Str.","postalCode":"06237","locality":"Leuna","municipality":{"key":"15088205","name":"Leuna, Stadt","type":"Stadt"},"district":{"key":"15088","name":"Saalekreis","type":"Landkreis"},"federalState":{"key":"15","name":"Sachsen-Anhalt"}},{"name":"Wernergasse","postalCode":"06237","locality":"Leuna","municipality":{"key":"15088205","name":"Leuna, Stadt","type":"Stadt"},"district":{"key":"15088","name":"Saalekreis","type":"Landkreis"},"federalState":{"key":"15","name":"Sachsen-Anhalt"}},{"name":"Wesselinger Str.","postalCode":"06237","locality":"Leuna","municipality":{"key":"15088205","name":"Leuna, Stadt","type":"Stadt"},"district":{"key":"15088","name":"Saalekreis","type":"Landkreis"},"federalState":{"key":"15","name":"Sachsen-Anhalt"}},{"name":"Westerwaldring","postalCode":"35638","locality":"Leun","municipality":{"key":"06532016","name":"Leun, Stadt","type":"Stadt"},"district":{"key":"06532","name":"Lahn-Dill-Kreis","type":"Landkreis"},"federalState":{"key":"06","name":"Hessen"}},{"name":"Wetzlarer Str.","postalCode":"35638","locality":"Leun","municipality":{"key":"06532016","name":"Leun, Stadt","type":"Stadt"},"district":{"key":"06532","name":"Lahn-Dill-Kreis","type":"Landkreis"},"federalState":{"key":"06","name":"Hessen"}},{"name":"Wickenweg","postalCode":"06237","locality":"Leuna","municipality":{"key":"15088205","name":"Leuna, Stadt","type":"Stadt"},"district":{"key":"15088","name":"Saalekreis","type":"Landkreis"},"federalState":{"key":"15","name":"Sachsen-Anhalt"}},{"name":"Wiesenstr.","postalCode":"35638","locality":"Leun","municipality":{"key":"06532016","name":"Leun, Stadt","type":"Stadt"},"district":{"key":"06532","name":"Lahn-Dill-Kreis","type":"Landkreis"},"federalState":{"key":"06","name":"Hessen"}},{"name":"Wiesenweg","postalCode":"06237","locality":"Leuna","municipality":{"key":"15088205","name":"Leuna, Stadt","type":"Stadt"},"district":{"key":"15088","name":"Saalekreis","type":"Landkreis"},"federalState":{"key":"15","name":"Sachsen-Anhalt"}},{"name":"Wilhelmstr.","postalCode":"35638","locality":"Leun","municipality":{"key":"06532016","name":"Leun, Stadt","type":"Stadt"},"district":{"key":"06532","name":"Lahn-Dill-Kreis","type":"Landkreis"},"federalState":{"key":"06","name":"Hessen"}},{"name":"Windmühlenstr.","postalCode":"06237","locality":"Leuna","municipality":{"key":"15088205","name":"Leuna, Stadt","type":"Stadt"},"district":{"key":"15088","name":"Saalekreis","type":"Landkreis"},"federalState":{"key":"15","name":"Sachsen-Anhalt"}},{"name":"Wingertweg","postalCode":"35638","locality":"Leun","municipality":{"key":"06532016","name":"Leun, Stadt","type":"Stadt"},"district":{"key":"06532","name":"Lahn-Dill-Kreis","type":"Landkreis"},"federalState":{"key":"06","name":"Hessen"}},{"name":"Winkelgasse","postalCode":"06237","locality":"Leuna","municipality":{"key":"15088205","name":"Leuna, Stadt","type":"Stadt"},"district":{"key":"15088","name":"Saalekreis","type":"Landkreis"},"federalState":{"key":"15","name":"Sachsen-Anhalt"}},{"name":"Witzschersdorf","postalCode":"06237","locality":"Leuna","municipality":{"key":"15088205","name":"Leuna, Stadt","type":"Stadt"},"district":{"key":"15088","name":"Saalekreis","type":"Landkreis"},"federalState":{"key":"15","name":"Sachsen-Anhalt"}},{"name":"Wöhlerstr.","postalCode":"06237","locality":"Leuna","municipality":{"key":"15088205","name":"Leuna, Stadt","type":"Stadt"},"district":{"key":"15088","name":"Saalekreis","type":"Landkreis"},"federalState":{"key":"15","name":"Sachsen-Anhalt"}},{"name":"Wohnpark","postalCode":"06237","locality":"Leuna","municipality":{"key":"15088205","name":"Leuna, Stadt","type":"Stadt"},"district":{"key":"15088","name":"Saalekreis","type":"Landkreis"},"federalState":{"key":"15","name":"Sachsen-Anhalt"}},{"name":"Wölkauer Landstr.","postalCode":"06237","locality":"Leuna","municipality":{"key":"15088205","name":"Leuna, Stadt","type":"Stadt"},"district":{"key":"15088","name":"Saalekreis","type":"Landkreis"},"federalState":{"key":"15","name":"Sachsen-Anhalt"}},{"name":"Wölkauer Weg","postalCode":"06237","locality":"Leuna","municipality":{"key":"15088205","name":"Leuna, Stadt","type":"Stadt"},"district":{"key":"15088","name":"Saalekreis","type":"Landkreis"},"federalState":{"key":"15","name":"Sachsen-Anhalt"}},{"name":"Wüsteneutzscher Str.","postalCode":"06237","locality":"Leuna","municipality":{"key":"15088205","name":"Leuna, Stadt","type":"Stadt"},"district":{"key":"15088","name":"Saalekreis","type":"Landkreis"},"federalState":{"key":"15","name":"Sachsen-Anhalt"}},{"name":"Zimmererstr.","postalCode":"06237","locality":"Leuna","municipality":{"key":"15088205","name":"Leuna, Stadt","type":"Stadt"},"district":{"key":"15088","name":"Saalekreis","type":"Landkreis"},"federalState":{"key":"15","name":"Sachsen-Anhalt"}},{"name":"Zöschener Dorfstr.","postalCode":"06237","locality":"Leuna","municipality":{"key":"15088205","name":"Leuna, Stadt","type":"Stadt"},"district":{"key":"15088","name":"Saalekreis","type":"Landkreis"},"federalState":{"key":"15","name":"Sachsen-Anhalt"}},{"name":"Zöschener Starße","postalCode":"06237","locality":"Leuna","municipality":{"key":"15088205","name":"Leuna, Stadt","type":"Stadt"},"district":{"key":"15088","name":"Saalekreis","type":"Landkreis"},"federalState":{"key":"15","name":"Sachsen-Anhalt"}},{"name":"Zscherneddel","postalCode":"06237","locality":"Leuna","municipality":{"key":"15088205","name":"Leuna, Stadt","type":"Stadt"},"district":{"key":"15088","name":"Saalekreis","type":"Landkreis"},"federalState":{"key":"15","name":"Sachsen-Anhalt"}},{"name":"Zschöchergen","postalCode":"06237","locality":"Leuna","municipality":{"key":"15088205","name":"Leuna, Stadt","type":"Stadt"},"district":{"key":"15088","name":"Saalekreis","type":"Landkreis"},"federalState":{"key":"15","name":"Sachsen-Anhalt"}},{"name":"Zu den Teichen","postalCode":"06237","locality":"Leuna","municipality":{"key":"15088205","name":"Leuna, Stadt","type":"Stadt"},"district":{"key":"15088","name":"Saalekreis","type":"Landkreis"},"federalState":{"key":"15","name":"Sachsen-Anhalt"}},{"name":"Zum Anger","postalCode":"06237","locality":"Leuna","municipality":{"key":"15088205","name":"Leuna, Stadt","type":"Stadt"},"district":{"key":"15088","name":"Saalekreis","type":"Landkreis"},"federalState":{"key":"15","name":"Sachsen-Anhalt"}},{"name":"Zum Lohfeld","postalCode":"35638","locality":"Leun","municipality":{"key":"06532016","name":"Leun, Stadt","type":"Stadt"},"district":{"key":"06532","name":"Lahn-Dill-Kreis","type":"Landkreis"},"federalState":{"key":"06","name":"Hessen"}},{"name":"Zum Rosenwinkel","postalCode":"06237","locality":"Leuna","municipality":{"key":"15088205","name":"Leuna, Stadt","type":"Stadt"},"district":{"key":"15088","name":"Saalekreis","type":"Landkreis"},"federalState":{"key":"15","name":"Sachsen-Anhalt"}},{"name":"Zum Sportplatz","postalCode":"06237","locality":"Leuna","municipality":{"key":"15088205","name":"Leuna, Stadt","type":"Stadt"},"district":{"key":"15088","name":"Saalekreis","type":"Landkreis"},"federalState":{"key":"15","name":"Sachsen-Anhalt"}},{"name":"Zum Unterdorf","postalCode":"06237","locality":"Leuna","municipality":{"key":"15088205","name":"Leuna, Stadt","type":"Stadt"},"district":{"key":"15088","name":"Saalekreis","type":"Landkreis"},"federalState":{"key":"15","name":"Sachsen-Anhalt"}},{"name":"Zweimen","postalCode":"06237","locality":"Leuna","municipality":{"key":"15088205","name":"Leuna, Stadt","type":"Stadt"},"district":{"key":"15088","name":"Saalekreis","type":"Landkreis"},"federalState":{"key":"15","name":"Sachsen-Anhalt"}},]