[{"name":"Ahornstr.","postalCode":"84384","locality":"Wittibreut","municipality":{"key":"09277152","name":"Wittibreut","type":"Kreisangehörige_Gemeinde"},"district":{"key":"09277","name":"Rottal-Inn","type":"Landkreis"},"federalState":{"key":"09","name":"Bayern"}},{"name":"Akazienweg","postalCode":"84384","locality":"Wittibreut","municipality":{"key":"09277152","name":"Wittibreut","type":"Kreisangehörige_Gemeinde"},"district":{"key":"09277","name":"Rottal-Inn","type":"Landkreis"},"federalState":{"key":"09","name":"Bayern"}},{"name":"Bahnhofstr.","postalCode":"84384","locality":"Wittibreut","municipality":{"key":"09277152","name":"Wittibreut","type":"Kreisangehörige_Gemeinde"},"district":{"key":"09277","name":"Rottal-Inn","type":"Landkreis"},"federalState":{"key":"09","name":"Bayern"}},{"name":"Bergstr.","postalCode":"84384","locality":"Wittibreut","municipality":{"key":"09277152","name":"Wittibreut","type":"Kreisangehörige_Gemeinde"},"district":{"key":"09277","name":"Rottal-Inn","type":"Landkreis"},"federalState":{"key":"09","name":"Bayern"}},{"name":"Bgm.-Göttl-Str.","postalCode":"84384","locality":"Wittibreut","municipality":{"key":"09277152","name":"Wittibreut","type":"Kreisangehörige_Gemeinde"},"district":{"key":"09277","name":"Rottal-Inn","type":"Landkreis"},"federalState":{"key":"09","name":"Bayern"}},{"name":"Birkenweg","postalCode":"84384","locality":"Wittibreut","municipality":{"key":"09277152","name":"Wittibreut","type":"Kreisangehörige_Gemeinde"},"district":{"key":"09277","name":"Rottal-Inn","type":"Landkreis"},"federalState":{"key":"09","name":"Bayern"}},{"name":"Dorfstr.","postalCode":"84384","locality":"Wittibreut","municipality":{"key":"09277152","name":"Wittibreut","type":"Kreisangehörige_Gemeinde"},"district":{"key":"09277","name":"Rottal-Inn","type":"Landkreis"},"federalState":{"key":"09","name":"Bayern"}},{"name":"Englbernöd","postalCode":"84384","locality":"Wittibreut","municipality":{"key":"09277152","name":"Wittibreut","type":"Kreisangehörige_Gemeinde"},"district":{"key":"09277","name":"Rottal-Inn","type":"Landkreis"},"federalState":{"key":"09","name":"Bayern"}},{"name":"Erlenweg","postalCode":"84384","locality":"Wittibreut","municipality":{"key":"09277152","name":"Wittibreut","type":"Kreisangehörige_Gemeinde"},"district":{"key":"09277","name":"Rottal-Inn","type":"Landkreis"},"federalState":{"key":"09","name":"Bayern"}},{"name":"Fichtenweg","postalCode":"84384","locality":"Wittibreut","municipality":{"key":"09277152","name":"Wittibreut","type":"Kreisangehörige_Gemeinde"},"district":{"key":"09277","name":"Rottal-Inn","type":"Landkreis"},"federalState":{"key":"09","name":"Bayern"}},{"name":"Flurstr.","postalCode":"84384","locality":"Wittibreut","municipality":{"key":"09277152","name":"Wittibreut","type":"Kreisangehörige_Gemeinde"},"district":{"key":"09277","name":"Rottal-Inn","type":"Landkreis"},"federalState":{"key":"09","name":"Bayern"}},{"name":"Föhrenweg","postalCode":"84384","locality":"Wittibreut","municipality":{"key":"09277152","name":"Wittibreut","type":"Kreisangehörige_Gemeinde"},"district":{"key":"09277","name":"Rottal-Inn","type":"Landkreis"},"federalState":{"key":"09","name":"Bayern"}},{"name":"Geisberg","postalCode":"84384","locality":"Wittibreut","municipality":{"key":"09277152","name":"Wittibreut","type":"Kreisangehörige_Gemeinde"},"district":{"key":"09277","name":"Rottal-Inn","type":"Landkreis"},"federalState":{"key":"09","name":"Bayern"}},{"name":"Haberzagler Ring","postalCode":"84384","locality":"Wittibreut","municipality":{"key":"09277152","name":"Wittibreut","type":"Kreisangehörige_Gemeinde"},"district":{"key":"09277","name":"Rottal-Inn","type":"Landkreis"},"federalState":{"key":"09","name":"Bayern"}},{"name":"Hauptstr.","postalCode":"84384","locality":"Wittibreut","municipality":{"key":"09277152","name":"Wittibreut","type":"Kreisangehörige_Gemeinde"},"district":{"key":"09277","name":"Rottal-Inn","type":"Landkreis"},"federalState":{"key":"09","name":"Bayern"}},{"name":"Holzmühlenweg","postalCode":"84384","locality":"Wittibreut","municipality":{"key":"09277152","name":"Wittibreut","type":"Kreisangehörige_Gemeinde"},"district":{"key":"09277","name":"Rottal-Inn","type":"Landkreis"},"federalState":{"key":"09","name":"Bayern"}},{"name":"Imbertweg","postalCode":"84384","locality":"Wittibreut","municipality":{"key":"09277152","name":"Wittibreut","type":"Kreisangehörige_Gemeinde"},"district":{"key":"09277","name":"Rottal-Inn","type":"Landkreis"},"federalState":{"key":"09","name":"Bayern"}},{"name":"Kerneigenstr.","postalCode":"84384","locality":"Wittibreut","municipality":{"key":"09277152","name":"Wittibreut","type":"Kreisangehörige_Gemeinde"},"district":{"key":"09277","name":"Rottal-Inn","type":"Landkreis"},"federalState":{"key":"09","name":"Bayern"}},{"name":"Oberhamerstr.","postalCode":"84384","locality":"Wittibreut","municipality":{"key":"09277152","name":"Wittibreut","type":"Kreisangehörige_Gemeinde"},"district":{"key":"09277","name":"Rottal-Inn","type":"Landkreis"},"federalState":{"key":"09","name":"Bayern"}},{"name":"Pfarrer-Straßl-Weg","postalCode":"84384","locality":"Wittibreut","municipality":{"key":"09277152","name":"Wittibreut","type":"Kreisangehörige_Gemeinde"},"district":{"key":"09277","name":"Rottal-Inn","type":"Landkreis"},"federalState":{"key":"09","name":"Bayern"}},{"name":"Pfarrweg","postalCode":"84384","locality":"Wittibreut","municipality":{"key":"09277152","name":"Wittibreut","type":"Kreisangehörige_Gemeinde"},"district":{"key":"09277","name":"Rottal-Inn","type":"Landkreis"},"federalState":{"key":"09","name":"Bayern"}},{"name":"Raiffeisenstr.","postalCode":"84384","locality":"Wittibreut","municipality":{"key":"09277152","name":"Wittibreut","type":"Kreisangehörige_Gemeinde"},"district":{"key":"09277","name":"Rottal-Inn","type":"Landkreis"},"federalState":{"key":"09","name":"Bayern"}},{"name":"Rameröder Mühlweg","postalCode":"84384","locality":"Wittibreut","municipality":{"key":"09277152","name":"Wittibreut","type":"Kreisangehörige_Gemeinde"},"district":{"key":"09277","name":"Rottal-Inn","type":"Landkreis"},"federalState":{"key":"09","name":"Bayern"}},{"name":"Ringstr.","postalCode":"84384","locality":"Wittibreut","municipality":{"key":"09277152","name":"Wittibreut","type":"Kreisangehörige_Gemeinde"},"district":{"key":"09277","name":"Rottal-Inn","type":"Landkreis"},"federalState":{"key":"09","name":"Bayern"}},{"name":"Tanner Str.","postalCode":"84384","locality":"Wittibreut","municipality":{"key":"09277152","name":"Wittibreut","type":"Kreisangehörige_Gemeinde"},"district":{"key":"09277","name":"Rottal-Inn","type":"Landkreis"},"federalState":{"key":"09","name":"Bayern"}},{"name":"Waldstr.","postalCode":"84384","locality":"Wittibreut","municipality":{"key":"09277152","name":"Wittibreut","type":"Kreisangehörige_Gemeinde"},"district":{"key":"09277","name":"Rottal-Inn","type":"Landkreis"},"federalState":{"key":"09","name":"Bayern"}},{"name":"Wiesinger Str.","postalCode":"84384","locality":"Wittibreut","municipality":{"key":"09277152","name":"Wittibreut","type":"Kreisangehörige_Gemeinde"},"district":{"key":"09277","name":"Rottal-Inn","type":"Landkreis"},"federalState":{"key":"09","name":"Bayern"}},{"name":"Wittibreuter Str.","postalCode":"84384","locality":"Wittibreut","municipality":{"key":"09277152","name":"Wittibreut","type":"Kreisangehörige_Gemeinde"},"district":{"key":"09277","name":"Rottal-Inn","type":"Landkreis"},"federalState":{"key":"09","name":"Bayern"}},]