[{"name":"Alter Kirchenweg","postalCode":"25885","locality":"Ahrenviöl","municipality":{"key":"01054003","name":"Ahrenviöl","type":"Kreisangehörige_Gemeinde"},"district":{"key":"01054","name":"Nordfriesland","type":"Kreis"},"federalState":{"key":"01","name":"Schleswig-Holstein"}},{"name":"Alter Mühlenweg","postalCode":"25885","locality":"Ahrenviöl","municipality":{"key":"01054003","name":"Ahrenviöl","type":"Kreisangehörige_Gemeinde"},"district":{"key":"01054","name":"Nordfriesland","type":"Kreis"},"federalState":{"key":"01","name":"Schleswig-Holstein"}},{"name":"Am Ententeich","postalCode":"25885","locality":"Ahrenviölfeld","municipality":{"key":"01054004","name":"Ahrenviölfeld","type":"Kreisangehörige_Gemeinde"},"district":{"key":"01054","name":"Nordfriesland","type":"Kreis"},"federalState":{"key":"01","name":"Schleswig-Holstein"}},{"name":"Auweg","postalCode":"25885","locality":"Ahrenviöl","municipality":{"key":"01054003","name":"Ahrenviöl","type":"Kreisangehörige_Gemeinde"},"district":{"key":"01054","name":"Nordfriesland","type":"Kreis"},"federalState":{"key":"01","name":"Schleswig-Holstein"}},{"name":"Bi de School","postalCode":"25885","locality":"Ahrenviöl","municipality":{"key":"01054003","name":"Ahrenviöl","type":"Kreisangehörige_Gemeinde"},"district":{"key":"01054","name":"Nordfriesland","type":"Kreis"},"federalState":{"key":"01","name":"Schleswig-Holstein"}},{"name":"Broloyweg","postalCode":"25885","locality":"Ahrenviöl","municipality":{"key":"01054003","name":"Ahrenviöl","type":"Kreisangehörige_Gemeinde"},"district":{"key":"01054","name":"Nordfriesland","type":"Kreis"},"federalState":{"key":"01","name":"Schleswig-Holstein"}},{"name":"Brues Gang","postalCode":"25885","locality":"Ahrenviöl","municipality":{"key":"01054003","name":"Ahrenviöl","type":"Kreisangehörige_Gemeinde"},"district":{"key":"01054","name":"Nordfriesland","type":"Kreis"},"federalState":{"key":"01","name":"Schleswig-Holstein"}},{"name":"Gotjeweg","postalCode":"25885","locality":"Ahrenviölfeld","municipality":{"key":"01054004","name":"Ahrenviölfeld","type":"Kreisangehörige_Gemeinde"},"district":{"key":"01054","name":"Nordfriesland","type":"Kreis"},"federalState":{"key":"01","name":"Schleswig-Holstein"}},{"name":"Hauptstr.","postalCode":"25885","locality":"Ahrenviöl","municipality":{"key":"01054003","name":"Ahrenviöl","type":"Kreisangehörige_Gemeinde"},"district":{"key":"01054","name":"Nordfriesland","type":"Kreis"},"federalState":{"key":"01","name":"Schleswig-Holstein"}},{"name":"Hauptstr.","postalCode":"25885","locality":"Ahrenviölfeld","municipality":{"key":"01054004","name":"Ahrenviölfeld","type":"Kreisangehörige_Gemeinde"},"district":{"key":"01054","name":"Nordfriesland","type":"Kreis"},"federalState":{"key":"01","name":"Schleswig-Holstein"}},{"name":"Immenstedter Str.","postalCode":"25885","locality":"Ahrenviöl","municipality":{"key":"01054003","name":"Ahrenviöl","type":"Kreisangehörige_Gemeinde"},"district":{"key":"01054","name":"Nordfriesland","type":"Kreis"},"federalState":{"key":"01","name":"Schleswig-Holstein"}},{"name":"Jinniges Gang","postalCode":"25885","locality":"Ahrenviöl","municipality":{"key":"01054003","name":"Ahrenviöl","type":"Kreisangehörige_Gemeinde"},"district":{"key":"01054","name":"Nordfriesland","type":"Kreis"},"federalState":{"key":"01","name":"Schleswig-Holstein"}},{"name":"Lukweg","postalCode":"25885","locality":"Ahrenviöl","municipality":{"key":"01054003","name":"Ahrenviöl","type":"Kreisangehörige_Gemeinde"},"district":{"key":"01054","name":"Nordfriesland","type":"Kreis"},"federalState":{"key":"01","name":"Schleswig-Holstein"}},{"name":"Mirdes Gang","postalCode":"25885","locality":"Ahrenviöl","municipality":{"key":"01054003","name":"Ahrenviöl","type":"Kreisangehörige_Gemeinde"},"district":{"key":"01054","name":"Nordfriesland","type":"Kreis"},"federalState":{"key":"01","name":"Schleswig-Holstein"}},{"name":"Moorackerweg","postalCode":"25885","locality":"Ahrenviöl","municipality":{"key":"01054003","name":"Ahrenviöl","type":"Kreisangehörige_Gemeinde"},"district":{"key":"01054","name":"Nordfriesland","type":"Kreis"},"federalState":{"key":"01","name":"Schleswig-Holstein"}},{"name":"Osterende","postalCode":"25885","locality":"Ahrenviöl","municipality":{"key":"01054003","name":"Ahrenviöl","type":"Kreisangehörige_Gemeinde"},"district":{"key":"01054","name":"Nordfriesland","type":"Kreis"},"federalState":{"key":"01","name":"Schleswig-Holstein"}},{"name":"Raiffeisenstr.","postalCode":"25885","locality":"Ahrenviöl","municipality":{"key":"01054003","name":"Ahrenviöl","type":"Kreisangehörige_Gemeinde"},"district":{"key":"01054","name":"Nordfriesland","type":"Kreis"},"federalState":{"key":"01","name":"Schleswig-Holstein"}},{"name":"Ringstr.","postalCode":"25885","locality":"Ahrenviöl","municipality":{"key":"01054003","name":"Ahrenviöl","type":"Kreisangehörige_Gemeinde"},"district":{"key":"01054","name":"Nordfriesland","type":"Kreis"},"federalState":{"key":"01","name":"Schleswig-Holstein"}},{"name":"Sandkuhlenweg","postalCode":"25885","locality":"Ahrenviöl","municipality":{"key":"01054003","name":"Ahrenviöl","type":"Kreisangehörige_Gemeinde"},"district":{"key":"01054","name":"Nordfriesland","type":"Kreis"},"federalState":{"key":"01","name":"Schleswig-Holstein"}},{"name":"Schulstr.","postalCode":"25885","locality":"Ahrenviöl","municipality":{"key":"01054003","name":"Ahrenviöl","type":"Kreisangehörige_Gemeinde"},"district":{"key":"01054","name":"Nordfriesland","type":"Kreis"},"federalState":{"key":"01","name":"Schleswig-Holstein"}},{"name":"Süderweg","postalCode":"25885","locality":"Ahrenviöl","municipality":{"key":"01054003","name":"Ahrenviöl","type":"Kreisangehörige_Gemeinde"},"district":{"key":"01054","name":"Nordfriesland","type":"Kreis"},"federalState":{"key":"01","name":"Schleswig-Holstein"}},]