[{"name":"Achthaler Str.","postalCode":"83075","locality":"Bad Feilnbach","municipality":{"key":"09187129","name":"Bad Feilnbach","type":"Kreisangehörige_Gemeinde"},"district":{"key":"09187","name":"Rosenheim","type":"Landkreis"},"federalState":{"key":"09","name":"Bayern"}},{"name":"Ackerpointstr.","postalCode":"83075","locality":"Bad Feilnbach","municipality":{"key":"09187129","name":"Bad Feilnbach","type":"Kreisangehörige_Gemeinde"},"district":{"key":"09187","name":"Rosenheim","type":"Landkreis"},"federalState":{"key":"09","name":"Bayern"}},{"name":"Aiblinger Str.","postalCode":"83075","locality":"Bad Feilnbach","municipality":{"key":"09187129","name":"Bad Feilnbach","type":"Kreisangehörige_Gemeinde"},"district":{"key":"09187","name":"Rosenheim","type":"Landkreis"},"federalState":{"key":"09","name":"Bayern"}},{"name":"Almweg","postalCode":"83075","locality":"Bad Feilnbach","municipality":{"key":"09187129","name":"Bad Feilnbach","type":"Kreisangehörige_Gemeinde"},"district":{"key":"09187","name":"Rosenheim","type":"Landkreis"},"federalState":{"key":"09","name":"Bayern"}},{"name":"Am Bach","postalCode":"83075","locality":"Bad Feilnbach","municipality":{"key":"09187129","name":"Bad Feilnbach","type":"Kreisangehörige_Gemeinde"},"district":{"key":"09187","name":"Rosenheim","type":"Landkreis"},"federalState":{"key":"09","name":"Bayern"}},{"name":"Am Brandl","postalCode":"83075","locality":"Bad Feilnbach","municipality":{"key":"09187129","name":"Bad Feilnbach","type":"Kreisangehörige_Gemeinde"},"district":{"key":"09187","name":"Rosenheim","type":"Landkreis"},"federalState":{"key":"09","name":"Bayern"}},{"name":"Am Breindlbach","postalCode":"83075","locality":"Bad Feilnbach","municipality":{"key":"09187129","name":"Bad Feilnbach","type":"Kreisangehörige_Gemeinde"},"district":{"key":"09187","name":"Rosenheim","type":"Landkreis"},"federalState":{"key":"09","name":"Bayern"}},{"name":"Am Heilholz","postalCode":"83075","locality":"Bad Feilnbach","municipality":{"key":"09187129","name":"Bad Feilnbach","type":"Kreisangehörige_Gemeinde"},"district":{"key":"09187","name":"Rosenheim","type":"Landkreis"},"federalState":{"key":"09","name":"Bayern"}},{"name":"Am Höhenpark","postalCode":"83075","locality":"Bad Feilnbach","municipality":{"key":"09187129","name":"Bad Feilnbach","type":"Kreisangehörige_Gemeinde"},"district":{"key":"09187","name":"Rosenheim","type":"Landkreis"},"federalState":{"key":"09","name":"Bayern"}},{"name":"Am Naturpark","postalCode":"83075","locality":"Bad Feilnbach","municipality":{"key":"09187129","name":"Bad Feilnbach","type":"Kreisangehörige_Gemeinde"},"district":{"key":"09187","name":"Rosenheim","type":"Landkreis"},"federalState":{"key":"09","name":"Bayern"}},{"name":"Am Osterbach","postalCode":"83075","locality":"Bad Feilnbach","municipality":{"key":"09187129","name":"Bad Feilnbach","type":"Kreisangehörige_Gemeinde"},"district":{"key":"09187","name":"Rosenheim","type":"Landkreis"},"federalState":{"key":"09","name":"Bayern"}},{"name":"Am Point","postalCode":"83075","locality":"Bad Feilnbach","municipality":{"key":"09187129","name":"Bad Feilnbach","type":"Kreisangehörige_Gemeinde"},"district":{"key":"09187","name":"Rosenheim","type":"Landkreis"},"federalState":{"key":"09","name":"Bayern"}},{"name":"Am Point Ost","postalCode":"83075","locality":"Bad Feilnbach","municipality":{"key":"09187129","name":"Bad Feilnbach","type":"Kreisangehörige_Gemeinde"},"district":{"key":"09187","name":"Rosenheim","type":"Landkreis"},"federalState":{"key":"09","name":"Bayern"}},{"name":"Am Point West","postalCode":"83075","locality":"Bad Feilnbach","municipality":{"key":"09187129","name":"Bad Feilnbach","type":"Kreisangehörige_Gemeinde"},"district":{"key":"09187","name":"Rosenheim","type":"Landkreis"},"federalState":{"key":"09","name":"Bayern"}},{"name":"An der Gundelsberger Brücke","postalCode":"83075","locality":"Bad Feilnbach","municipality":{"key":"09187129","name":"Bad Feilnbach","type":"Kreisangehörige_Gemeinde"},"district":{"key":"09187","name":"Rosenheim","type":"Landkreis"},"federalState":{"key":"09","name":"Bayern"}},{"name":"Angerweg","postalCode":"83075","locality":"Bad Feilnbach","municipality":{"key":"09187129","name":"Bad Feilnbach","type":"Kreisangehörige_Gemeinde"},"district":{"key":"09187","name":"Rosenheim","type":"Landkreis"},"federalState":{"key":"09","name":"Bayern"}},{"name":"Aubachstr.","postalCode":"83075","locality":"Bad Feilnbach","municipality":{"key":"09187129","name":"Bad Feilnbach","type":"Kreisangehörige_Gemeinde"},"district":{"key":"09187","name":"Rosenheim","type":"Landkreis"},"federalState":{"key":"09","name":"Bayern"}},{"name":"Auer Str.","postalCode":"83075","locality":"Bad Feilnbach","municipality":{"key":"09187129","name":"Bad Feilnbach","type":"Kreisangehörige_Gemeinde"},"district":{"key":"09187","name":"Rosenheim","type":"Landkreis"},"federalState":{"key":"09","name":"Bayern"}},{"name":"Auf Gottes Spuren","postalCode":"83075","locality":"Bad Feilnbach","municipality":{"key":"09187129","name":"Bad Feilnbach","type":"Kreisangehörige_Gemeinde"},"district":{"key":"09187","name":"Rosenheim","type":"Landkreis"},"federalState":{"key":"09","name":"Bayern"}},{"name":"Bachweg","postalCode":"83075","locality":"Bad Feilnbach","municipality":{"key":"09187129","name":"Bad Feilnbach","type":"Kreisangehörige_Gemeinde"},"district":{"key":"09187","name":"Rosenheim","type":"Landkreis"},"federalState":{"key":"09","name":"Bayern"}},{"name":"Bahnhofstr.","postalCode":"83075","locality":"Bad Feilnbach","municipality":{"key":"09187129","name":"Bad Feilnbach","type":"Kreisangehörige_Gemeinde"},"district":{"key":"09187","name":"Rosenheim","type":"Landkreis"},"federalState":{"key":"09","name":"Bayern"}},{"name":"Bangfeldstr.","postalCode":"83075","locality":"Bad Feilnbach","municipality":{"key":"09187129","name":"Bad Feilnbach","type":"Kreisangehörige_Gemeinde"},"district":{"key":"09187","name":"Rosenheim","type":"Landkreis"},"federalState":{"key":"09","name":"Bayern"}},{"name":"Berblinger Str.","postalCode":"83075","locality":"Bad Feilnbach","municipality":{"key":"09187129","name":"Bad Feilnbach","type":"Kreisangehörige_Gemeinde"},"district":{"key":"09187","name":"Rosenheim","type":"Landkreis"},"federalState":{"key":"09","name":"Bayern"}},{"name":"Bichl","postalCode":"83075","locality":"Bad Feilnbach","municipality":{"key":"09187129","name":"Bad Feilnbach","type":"Kreisangehörige_Gemeinde"},"district":{"key":"09187","name":"Rosenheim","type":"Landkreis"},"federalState":{"key":"09","name":"Bayern"}},{"name":"Bichlweg","postalCode":"83075","locality":"Bad Feilnbach","municipality":{"key":"09187129","name":"Bad Feilnbach","type":"Kreisangehörige_Gemeinde"},"district":{"key":"09187","name":"Rosenheim","type":"Landkreis"},"federalState":{"key":"09","name":"Bayern"}},{"name":"Birkenstr.","postalCode":"83075","locality":"Bad Feilnbach","municipality":{"key":"09187129","name":"Bad Feilnbach","type":"Kreisangehörige_Gemeinde"},"district":{"key":"09187","name":"Rosenheim","type":"Landkreis"},"federalState":{"key":"09","name":"Bayern"}},{"name":"Blumenstr.","postalCode":"83075","locality":"Bad Feilnbach","municipality":{"key":"09187129","name":"Bad Feilnbach","type":"Kreisangehörige_Gemeinde"},"district":{"key":"09187","name":"Rosenheim","type":"Landkreis"},"federalState":{"key":"09","name":"Bayern"}},{"name":"Brechstubenweg","postalCode":"83075","locality":"Bad Feilnbach","municipality":{"key":"09187129","name":"Bad Feilnbach","type":"Kreisangehörige_Gemeinde"},"district":{"key":"09187","name":"Rosenheim","type":"Landkreis"},"federalState":{"key":"09","name":"Bayern"}},{"name":"Breitensteinstr.","postalCode":"83075","locality":"Bad Feilnbach","municipality":{"key":"09187129","name":"Bad Feilnbach","type":"Kreisangehörige_Gemeinde"},"district":{"key":"09187","name":"Rosenheim","type":"Landkreis"},"federalState":{"key":"09","name":"Bayern"}},{"name":"Brunnerweg","postalCode":"83075","locality":"Bad Feilnbach","municipality":{"key":"09187129","name":"Bad Feilnbach","type":"Kreisangehörige_Gemeinde"},"district":{"key":"09187","name":"Rosenheim","type":"Landkreis"},"federalState":{"key":"09","name":"Bayern"}},{"name":"Buchenweg","postalCode":"83075","locality":"Bad Feilnbach","municipality":{"key":"09187129","name":"Bad Feilnbach","type":"Kreisangehörige_Gemeinde"},"district":{"key":"09187","name":"Rosenheim","type":"Landkreis"},"federalState":{"key":"09","name":"Bayern"}},{"name":"Carl-Orff-Str.","postalCode":"83024","locality":"Rosenheim","municipality":{"key":"09163000","name":"Rosenheim","type":"Kreisfreie_Stadt"},"district":{"key":"09163","name":"Rosenheim","type":"Kreisfreie_Stadt"},"federalState":{"key":"09","name":"Bayern"}},{"name":"Carossastr.","postalCode":"83026","locality":"Rosenheim","municipality":{"key":"09163000","name":"Rosenheim","type":"Kreisfreie_Stadt"},"district":{"key":"09163","name":"Rosenheim","type":"Kreisfreie_Stadt"},"federalState":{"key":"09","name":"Bayern"}},{"name":"Caspar-Filser-Str.","postalCode":"83026","locality":"Rosenheim","municipality":{"key":"09163000","name":"Rosenheim","type":"Kreisfreie_Stadt"},"district":{"key":"09163","name":"Rosenheim","type":"Kreisfreie_Stadt"},"federalState":{"key":"09","name":"Bayern"}},{"name":"Chiemseestr.","postalCode":"83022","locality":"Rosenheim","municipality":{"key":"09163000","name":"Rosenheim","type":"Kreisfreie_Stadt"},"district":{"key":"09163","name":"Rosenheim","type":"Kreisfreie_Stadt"},"federalState":{"key":"09","name":"Bayern"}},{"name":"Christian-Mali-Weg","postalCode":"83026","locality":"Rosenheim","municipality":{"key":"09163000","name":"Rosenheim","type":"Kreisfreie_Stadt"},"district":{"key":"09163","name":"Rosenheim","type":"Kreisfreie_Stadt"},"federalState":{"key":"09","name":"Bayern"}},{"name":"Dettendorfer Str.","postalCode":"83075","locality":"Bad Feilnbach","municipality":{"key":"09187129","name":"Bad Feilnbach","type":"Kreisangehörige_Gemeinde"},"district":{"key":"09187","name":"Rosenheim","type":"Landkreis"},"federalState":{"key":"09","name":"Bayern"}},{"name":"Doktorweg","postalCode":"83075","locality":"Bad Feilnbach","municipality":{"key":"09187129","name":"Bad Feilnbach","type":"Kreisangehörige_Gemeinde"},"district":{"key":"09187","name":"Rosenheim","type":"Landkreis"},"federalState":{"key":"09","name":"Bayern"}},{"name":"Dorfplatz","postalCode":"83075","locality":"Bad Feilnbach","municipality":{"key":"09187129","name":"Bad Feilnbach","type":"Kreisangehörige_Gemeinde"},"district":{"key":"09187","name":"Rosenheim","type":"Landkreis"},"federalState":{"key":"09","name":"Bayern"}},{"name":"Eichenweg","postalCode":"83075","locality":"Bad Feilnbach","municipality":{"key":"09187129","name":"Bad Feilnbach","type":"Kreisangehörige_Gemeinde"},"district":{"key":"09187","name":"Rosenheim","type":"Landkreis"},"federalState":{"key":"09","name":"Bayern"}},{"name":"Einfangweg","postalCode":"83075","locality":"Bad Feilnbach","municipality":{"key":"09187129","name":"Bad Feilnbach","type":"Kreisangehörige_Gemeinde"},"district":{"key":"09187","name":"Rosenheim","type":"Landkreis"},"federalState":{"key":"09","name":"Bayern"}},{"name":"Eschenweg","postalCode":"83075","locality":"Bad Feilnbach","municipality":{"key":"09187129","name":"Bad Feilnbach","type":"Kreisangehörige_Gemeinde"},"district":{"key":"09187","name":"Rosenheim","type":"Landkreis"},"federalState":{"key":"09","name":"Bayern"}},{"name":"Estermannstr.","postalCode":"83075","locality":"Bad Feilnbach","municipality":{"key":"09187129","name":"Bad Feilnbach","type":"Kreisangehörige_Gemeinde"},"district":{"key":"09187","name":"Rosenheim","type":"Landkreis"},"federalState":{"key":"09","name":"Bayern"}},{"name":"Eulenthal","postalCode":"83075","locality":"Bad Feilnbach","municipality":{"key":"09187129","name":"Bad Feilnbach","type":"Kreisangehörige_Gemeinde"},"district":{"key":"09187","name":"Rosenheim","type":"Landkreis"},"federalState":{"key":"09","name":"Bayern"}},{"name":"Farrenpointstr.","postalCode":"83075","locality":"Bad Feilnbach","municipality":{"key":"09187129","name":"Bad Feilnbach","type":"Kreisangehörige_Gemeinde"},"district":{"key":"09187","name":"Rosenheim","type":"Landkreis"},"federalState":{"key":"09","name":"Bayern"}},{"name":"Feilnbacher Kreisel","postalCode":"83075","locality":"Bad Feilnbach","municipality":{"key":"09187129","name":"Bad Feilnbach","type":"Kreisangehörige_Gemeinde"},"district":{"key":"09187","name":"Rosenheim","type":"Landkreis"},"federalState":{"key":"09","name":"Bayern"}},{"name":"Feilnbacher Str.","postalCode":"83075","locality":"Bad Feilnbach","municipality":{"key":"09187129","name":"Bad Feilnbach","type":"Kreisangehörige_Gemeinde"},"district":{"key":"09187","name":"Rosenheim","type":"Landkreis"},"federalState":{"key":"09","name":"Bayern"}},{"name":"Ferdinand-Winter-Weg","postalCode":"83075","locality":"Bad Feilnbach","municipality":{"key":"09187129","name":"Bad Feilnbach","type":"Kreisangehörige_Gemeinde"},"district":{"key":"09187","name":"Rosenheim","type":"Landkreis"},"federalState":{"key":"09","name":"Bayern"}},{"name":"Fichtenweg","postalCode":"83075","locality":"Bad Feilnbach","municipality":{"key":"09187129","name":"Bad Feilnbach","type":"Kreisangehörige_Gemeinde"},"district":{"key":"09187","name":"Rosenheim","type":"Landkreis"},"federalState":{"key":"09","name":"Bayern"}},{"name":"Flurstr.","postalCode":"83075","locality":"Bad Feilnbach","municipality":{"key":"09187129","name":"Bad Feilnbach","type":"Kreisangehörige_Gemeinde"},"district":{"key":"09187","name":"Rosenheim","type":"Landkreis"},"federalState":{"key":"09","name":"Bayern"}},{"name":"Fritz-Pfaffinger-Weg","postalCode":"83075","locality":"Bad Feilnbach","municipality":{"key":"09187129","name":"Bad Feilnbach","type":"Kreisangehörige_Gemeinde"},"district":{"key":"09187","name":"Rosenheim","type":"Landkreis"},"federalState":{"key":"09","name":"Bayern"}},{"name":"Frühlingstr.","postalCode":"83075","locality":"Bad Feilnbach","municipality":{"key":"09187129","name":"Bad Feilnbach","type":"Kreisangehörige_Gemeinde"},"district":{"key":"09187","name":"Rosenheim","type":"Landkreis"},"federalState":{"key":"09","name":"Bayern"}},{"name":"Fulinpachstr.","postalCode":"83075","locality":"Bad Feilnbach","municipality":{"key":"09187129","name":"Bad Feilnbach","type":"Kreisangehörige_Gemeinde"},"district":{"key":"09187","name":"Rosenheim","type":"Landkreis"},"federalState":{"key":"09","name":"Bayern"}},{"name":"Gartenstr.","postalCode":"83075","locality":"Bad Feilnbach","municipality":{"key":"09187129","name":"Bad Feilnbach","type":"Kreisangehörige_Gemeinde"},"district":{"key":"09187","name":"Rosenheim","type":"Landkreis"},"federalState":{"key":"09","name":"Bayern"}},{"name":"Gernbachweg","postalCode":"83075","locality":"Bad Feilnbach","municipality":{"key":"09187129","name":"Bad Feilnbach","type":"Kreisangehörige_Gemeinde"},"district":{"key":"09187","name":"Rosenheim","type":"Landkreis"},"federalState":{"key":"09","name":"Bayern"}},{"name":"Gewerbepark Au-Ost","postalCode":"83075","locality":"Bad Feilnbach","municipality":{"key":"09187129","name":"Bad Feilnbach","type":"Kreisangehörige_Gemeinde"},"district":{"key":"09187","name":"Rosenheim","type":"Landkreis"},"federalState":{"key":"09","name":"Bayern"}},{"name":"Gottschalling","postalCode":"83075","locality":"Bad Feilnbach","municipality":{"key":"09187129","name":"Bad Feilnbach","type":"Kreisangehörige_Gemeinde"},"district":{"key":"09187","name":"Rosenheim","type":"Landkreis"},"federalState":{"key":"09","name":"Bayern"}},{"name":"Gottschallinger Str.","postalCode":"83075","locality":"Bad Feilnbach","municipality":{"key":"09187129","name":"Bad Feilnbach","type":"Kreisangehörige_Gemeinde"},"district":{"key":"09187","name":"Rosenheim","type":"Landkreis"},"federalState":{"key":"09","name":"Bayern"}},{"name":"Gries","postalCode":"83075","locality":"Bad Feilnbach","municipality":{"key":"09187129","name":"Bad Feilnbach","type":"Kreisangehörige_Gemeinde"},"district":{"key":"09187","name":"Rosenheim","type":"Landkreis"},"federalState":{"key":"09","name":"Bayern"}},{"name":"Gundelsberger Str.","postalCode":"83075","locality":"Bad Feilnbach","municipality":{"key":"09187129","name":"Bad Feilnbach","type":"Kreisangehörige_Gemeinde"},"district":{"key":"09187","name":"Rosenheim","type":"Landkreis"},"federalState":{"key":"09","name":"Bayern"}},{"name":"Haidwandstr.","postalCode":"83075","locality":"Bad Feilnbach","municipality":{"key":"09187129","name":"Bad Feilnbach","type":"Kreisangehörige_Gemeinde"},"district":{"key":"09187","name":"Rosenheim","type":"Landkreis"},"federalState":{"key":"09","name":"Bayern"}},{"name":"Hans-Zeitler-Str.","postalCode":"83075","locality":"Bad Feilnbach","municipality":{"key":"09187129","name":"Bad Feilnbach","type":"Kreisangehörige_Gemeinde"},"district":{"key":"09187","name":"Rosenheim","type":"Landkreis"},"federalState":{"key":"09","name":"Bayern"}},{"name":"Hauptstr.","postalCode":"83075","locality":"Bad Feilnbach","municipality":{"key":"09187129","name":"Bad Feilnbach","type":"Kreisangehörige_Gemeinde"},"district":{"key":"09187","name":"Rosenheim","type":"Landkreis"},"federalState":{"key":"09","name":"Bayern"}},{"name":"Hausstatt","postalCode":"83075","locality":"Bad Feilnbach","municipality":{"key":"09187129","name":"Bad Feilnbach","type":"Kreisangehörige_Gemeinde"},"district":{"key":"09187","name":"Rosenheim","type":"Landkreis"},"federalState":{"key":"09","name":"Bayern"}},{"name":"Heubergstr.","postalCode":"83075","locality":"Bad Feilnbach","municipality":{"key":"09187129","name":"Bad Feilnbach","type":"Kreisangehörige_Gemeinde"},"district":{"key":"09187","name":"Rosenheim","type":"Landkreis"},"federalState":{"key":"09","name":"Bayern"}},{"name":"Hochackerstr.","postalCode":"83075","locality":"Bad Feilnbach","municipality":{"key":"09187129","name":"Bad Feilnbach","type":"Kreisangehörige_Gemeinde"},"district":{"key":"09187","name":"Rosenheim","type":"Landkreis"},"federalState":{"key":"09","name":"Bayern"}},{"name":"Hocheckstr.","postalCode":"83075","locality":"Bad Feilnbach","municipality":{"key":"09187129","name":"Bad Feilnbach","type":"Kreisangehörige_Gemeinde"},"district":{"key":"09187","name":"Rosenheim","type":"Landkreis"},"federalState":{"key":"09","name":"Bayern"}},{"name":"Hochriesstr.","postalCode":"83075","locality":"Bad Feilnbach","municipality":{"key":"09187129","name":"Bad Feilnbach","type":"Kreisangehörige_Gemeinde"},"district":{"key":"09187","name":"Rosenheim","type":"Landkreis"},"federalState":{"key":"09","name":"Bayern"}},{"name":"Hochsalwandstr.","postalCode":"83075","locality":"Bad Feilnbach","municipality":{"key":"09187129","name":"Bad Feilnbach","type":"Kreisangehörige_Gemeinde"},"district":{"key":"09187","name":"Rosenheim","type":"Landkreis"},"federalState":{"key":"09","name":"Bayern"}},{"name":"Irschenberger Str.","postalCode":"83075","locality":"Bad Feilnbach","municipality":{"key":"09187129","name":"Bad Feilnbach","type":"Kreisangehörige_Gemeinde"},"district":{"key":"09187","name":"Rosenheim","type":"Landkreis"},"federalState":{"key":"09","name":"Bayern"}},{"name":"Jägerweg","postalCode":"83075","locality":"Bad Feilnbach","municipality":{"key":"09187129","name":"Bad Feilnbach","type":"Kreisangehörige_Gemeinde"},"district":{"key":"09187","name":"Rosenheim","type":"Landkreis"},"federalState":{"key":"09","name":"Bayern"}},{"name":"Johann-Flitsch-Str.","postalCode":"83075","locality":"Bad Feilnbach","municipality":{"key":"09187129","name":"Bad Feilnbach","type":"Kreisangehörige_Gemeinde"},"district":{"key":"09187","name":"Rosenheim","type":"Landkreis"},"federalState":{"key":"09","name":"Bayern"}},{"name":"Kaltenweg","postalCode":"83075","locality":"Bad Feilnbach","municipality":{"key":"09187129","name":"Bad Feilnbach","type":"Kreisangehörige_Gemeinde"},"district":{"key":"09187","name":"Rosenheim","type":"Landkreis"},"federalState":{"key":"09","name":"Bayern"}},{"name":"Kampenwandstr.","postalCode":"83075","locality":"Bad Feilnbach","municipality":{"key":"09187129","name":"Bad Feilnbach","type":"Kreisangehörige_Gemeinde"},"district":{"key":"09187","name":"Rosenheim","type":"Landkreis"},"federalState":{"key":"09","name":"Bayern"}},{"name":"Kapellenweg","postalCode":"83075","locality":"Bad Feilnbach","municipality":{"key":"09187129","name":"Bad Feilnbach","type":"Kreisangehörige_Gemeinde"},"district":{"key":"09187","name":"Rosenheim","type":"Landkreis"},"federalState":{"key":"09","name":"Bayern"}},{"name":"Kiem-Pauli-Weg","postalCode":"83075","locality":"Bad Feilnbach","municipality":{"key":"09187129","name":"Bad Feilnbach","type":"Kreisangehörige_Gemeinde"},"district":{"key":"09187","name":"Rosenheim","type":"Landkreis"},"federalState":{"key":"09","name":"Bayern"}},{"name":"Kirchenweg","postalCode":"83075","locality":"Bad Feilnbach","municipality":{"key":"09187129","name":"Bad Feilnbach","type":"Kreisangehörige_Gemeinde"},"district":{"key":"09187","name":"Rosenheim","type":"Landkreis"},"federalState":{"key":"09","name":"Bayern"}},{"name":"Kirchgasse","postalCode":"83075","locality":"Bad Feilnbach","municipality":{"key":"09187129","name":"Bad Feilnbach","type":"Kreisangehörige_Gemeinde"},"district":{"key":"09187","name":"Rosenheim","type":"Landkreis"},"federalState":{"key":"09","name":"Bayern"}},{"name":"Kohlbachstr.","postalCode":"83075","locality":"Bad Feilnbach","municipality":{"key":"09187129","name":"Bad Feilnbach","type":"Kreisangehörige_Gemeinde"},"district":{"key":"09187","name":"Rosenheim","type":"Landkreis"},"federalState":{"key":"09","name":"Bayern"}},{"name":"Kohlstattweg","postalCode":"83075","locality":"Bad Feilnbach","municipality":{"key":"09187129","name":"Bad Feilnbach","type":"Kreisangehörige_Gemeinde"},"district":{"key":"09187","name":"Rosenheim","type":"Landkreis"},"federalState":{"key":"09","name":"Bayern"}},{"name":"Kranzhornstr.","postalCode":"83075","locality":"Bad Feilnbach","municipality":{"key":"09187129","name":"Bad Feilnbach","type":"Kreisangehörige_Gemeinde"},"district":{"key":"09187","name":"Rosenheim","type":"Landkreis"},"federalState":{"key":"09","name":"Bayern"}},{"name":"Kreuthweg","postalCode":"83075","locality":"Bad Feilnbach","municipality":{"key":"09187129","name":"Bad Feilnbach","type":"Kreisangehörige_Gemeinde"},"district":{"key":"09187","name":"Rosenheim","type":"Landkreis"},"federalState":{"key":"09","name":"Bayern"}},{"name":"Kreuzfeldstr.","postalCode":"83075","locality":"Bad Feilnbach","municipality":{"key":"09187129","name":"Bad Feilnbach","type":"Kreisangehörige_Gemeinde"},"district":{"key":"09187","name":"Rosenheim","type":"Landkreis"},"federalState":{"key":"09","name":"Bayern"}},{"name":"Kreuzhub","postalCode":"83075","locality":"Bad Feilnbach","municipality":{"key":"09187129","name":"Bad Feilnbach","type":"Kreisangehörige_Gemeinde"},"district":{"key":"09187","name":"Rosenheim","type":"Landkreis"},"federalState":{"key":"09","name":"Bayern"}},{"name":"Kronfeld","postalCode":"83075","locality":"Bad Feilnbach","municipality":{"key":"09187129","name":"Bad Feilnbach","type":"Kreisangehörige_Gemeinde"},"district":{"key":"09187","name":"Rosenheim","type":"Landkreis"},"federalState":{"key":"09","name":"Bayern"}},{"name":"Kufsteiner Str.","postalCode":"83075","locality":"Bad Feilnbach","municipality":{"key":"09187129","name":"Bad Feilnbach","type":"Kreisangehörige_Gemeinde"},"district":{"key":"09187","name":"Rosenheim","type":"Landkreis"},"federalState":{"key":"09","name":"Bayern"}},{"name":"Kurpark Bad Feilnbach","postalCode":"83075","locality":"Bad Feilnbach","municipality":{"key":"09187129","name":"Bad Feilnbach","type":"Kreisangehörige_Gemeinde"},"district":{"key":"09187","name":"Rosenheim","type":"Landkreis"},"federalState":{"key":"09","name":"Bayern"}},{"name":"Langerberg","postalCode":"83075","locality":"Bad Feilnbach","municipality":{"key":"09187129","name":"Bad Feilnbach","type":"Kreisangehörige_Gemeinde"},"district":{"key":"09187","name":"Rosenheim","type":"Landkreis"},"federalState":{"key":"09","name":"Bayern"}},{"name":"Lärchenweg","postalCode":"83075","locality":"Bad Feilnbach","municipality":{"key":"09187129","name":"Bad Feilnbach","type":"Kreisangehörige_Gemeinde"},"district":{"key":"09187","name":"Rosenheim","type":"Landkreis"},"federalState":{"key":"09","name":"Bayern"}},{"name":"Laurenziweg","postalCode":"83075","locality":"Bad Feilnbach","municipality":{"key":"09187129","name":"Bad Feilnbach","type":"Kreisangehörige_Gemeinde"},"district":{"key":"09187","name":"Rosenheim","type":"Landkreis"},"federalState":{"key":"09","name":"Bayern"}},{"name":"Leo-von-Welden-Weg","postalCode":"83075","locality":"Bad Feilnbach","municipality":{"key":"09187129","name":"Bad Feilnbach","type":"Kreisangehörige_Gemeinde"},"district":{"key":"09187","name":"Rosenheim","type":"Landkreis"},"federalState":{"key":"09","name":"Bayern"}},{"name":"Lindenstr.","postalCode":"83075","locality":"Bad Feilnbach","municipality":{"key":"09187129","name":"Bad Feilnbach","type":"Kreisangehörige_Gemeinde"},"district":{"key":"09187","name":"Rosenheim","type":"Landkreis"},"federalState":{"key":"09","name":"Bayern"}},{"name":"Lippertskirchen","postalCode":"83075","locality":"Bad Feilnbach","municipality":{"key":"09187129","name":"Bad Feilnbach","type":"Kreisangehörige_Gemeinde"},"district":{"key":"09187","name":"Rosenheim","type":"Landkreis"},"federalState":{"key":"09","name":"Bayern"}},{"name":"Malerwinkelweg","postalCode":"83075","locality":"Bad Feilnbach","municipality":{"key":"09187129","name":"Bad Feilnbach","type":"Kreisangehörige_Gemeinde"},"district":{"key":"09187","name":"Rosenheim","type":"Landkreis"},"federalState":{"key":"09","name":"Bayern"}},{"name":"Matthias-Neff-Str.","postalCode":"83075","locality":"Bad Feilnbach","municipality":{"key":"09187129","name":"Bad Feilnbach","type":"Kreisangehörige_Gemeinde"},"district":{"key":"09187","name":"Rosenheim","type":"Landkreis"},"federalState":{"key":"09","name":"Bayern"}},{"name":"Miesbacher Str.","postalCode":"83075","locality":"Bad Feilnbach","municipality":{"key":"09187129","name":"Bad Feilnbach","type":"Kreisangehörige_Gemeinde"},"district":{"key":"09187","name":"Rosenheim","type":"Landkreis"},"federalState":{"key":"09","name":"Bayern"}},{"name":"Mitterfeldweg","postalCode":"83075","locality":"Bad Feilnbach","municipality":{"key":"09187129","name":"Bad Feilnbach","type":"Kreisangehörige_Gemeinde"},"district":{"key":"09187","name":"Rosenheim","type":"Landkreis"},"federalState":{"key":"09","name":"Bayern"}},{"name":"Mitterweg","postalCode":"83075","locality":"Bad Feilnbach","municipality":{"key":"09187129","name":"Bad Feilnbach","type":"Kreisangehörige_Gemeinde"},"district":{"key":"09187","name":"Rosenheim","type":"Landkreis"},"federalState":{"key":"09","name":"Bayern"}},{"name":"Moos","postalCode":"83075","locality":"Bad Feilnbach","municipality":{"key":"09187129","name":"Bad Feilnbach","type":"Kreisangehörige_Gemeinde"},"district":{"key":"09187","name":"Rosenheim","type":"Landkreis"},"federalState":{"key":"09","name":"Bayern"}},{"name":"Mooslindlweg","postalCode":"83075","locality":"Bad Feilnbach","municipality":{"key":"09187129","name":"Bad Feilnbach","type":"Kreisangehörige_Gemeinde"},"district":{"key":"09187","name":"Rosenheim","type":"Landkreis"},"federalState":{"key":"09","name":"Bayern"}},{"name":"Mühlweg","postalCode":"83075","locality":"Bad Feilnbach","municipality":{"key":"09187129","name":"Bad Feilnbach","type":"Kreisangehörige_Gemeinde"},"district":{"key":"09187","name":"Rosenheim","type":"Landkreis"},"federalState":{"key":"09","name":"Bayern"}},{"name":"Münchner Str.","postalCode":"83075","locality":"Bad Feilnbach","municipality":{"key":"09187129","name":"Bad Feilnbach","type":"Kreisangehörige_Gemeinde"},"district":{"key":"09187","name":"Rosenheim","type":"Landkreis"},"federalState":{"key":"09","name":"Bayern"}},{"name":"Nelkenweg","postalCode":"83075","locality":"Bad Feilnbach","municipality":{"key":"09187129","name":"Bad Feilnbach","type":"Kreisangehörige_Gemeinde"},"district":{"key":"09187","name":"Rosenheim","type":"Landkreis"},"federalState":{"key":"09","name":"Bayern"}},{"name":"Neuweg","postalCode":"83075","locality":"Bad Feilnbach","municipality":{"key":"09187129","name":"Bad Feilnbach","type":"Kreisangehörige_Gemeinde"},"district":{"key":"09187","name":"Rosenheim","type":"Landkreis"},"federalState":{"key":"09","name":"Bayern"}},{"name":"Niederfeldweg","postalCode":"83075","locality":"Bad Feilnbach","municipality":{"key":"09187129","name":"Bad Feilnbach","type":"Kreisangehörige_Gemeinde"},"district":{"key":"09187","name":"Rosenheim","type":"Landkreis"},"federalState":{"key":"09","name":"Bayern"}},{"name":"Niklasreuther Str.","postalCode":"83075","locality":"Bad Feilnbach","municipality":{"key":"09187129","name":"Bad Feilnbach","type":"Kreisangehörige_Gemeinde"},"district":{"key":"09187","name":"Rosenheim","type":"Landkreis"},"federalState":{"key":"09","name":"Bayern"}},{"name":"Nordweg","postalCode":"83075","locality":"Bad Feilnbach","municipality":{"key":"09187129","name":"Bad Feilnbach","type":"Kreisangehörige_Gemeinde"},"district":{"key":"09187","name":"Rosenheim","type":"Landkreis"},"federalState":{"key":"09","name":"Bayern"}},{"name":"Nußbaumweg","postalCode":"83075","locality":"Bad Feilnbach","municipality":{"key":"09187129","name":"Bad Feilnbach","type":"Kreisangehörige_Gemeinde"},"district":{"key":"09187","name":"Rosenheim","type":"Landkreis"},"federalState":{"key":"09","name":"Bayern"}},{"name":"Oberfeld","postalCode":"83075","locality":"Bad Feilnbach","municipality":{"key":"09187129","name":"Bad Feilnbach","type":"Kreisangehörige_Gemeinde"},"district":{"key":"09187","name":"Rosenheim","type":"Landkreis"},"federalState":{"key":"09","name":"Bayern"}},{"name":"Oberlengendorf","postalCode":"83075","locality":"Bad Feilnbach","municipality":{"key":"09187129","name":"Bad Feilnbach","type":"Kreisangehörige_Gemeinde"},"district":{"key":"09187","name":"Rosenheim","type":"Landkreis"},"federalState":{"key":"09","name":"Bayern"}},{"name":"Osterfeldstr.","postalCode":"83075","locality":"Bad Feilnbach","municipality":{"key":"09187129","name":"Bad Feilnbach","type":"Kreisangehörige_Gemeinde"},"district":{"key":"09187","name":"Rosenheim","type":"Landkreis"},"federalState":{"key":"09","name":"Bayern"}},{"name":"Otto-Brües-Weg","postalCode":"83075","locality":"Bad Feilnbach","municipality":{"key":"09187129","name":"Bad Feilnbach","type":"Kreisangehörige_Gemeinde"},"district":{"key":"09187","name":"Rosenheim","type":"Landkreis"},"federalState":{"key":"09","name":"Bayern"}},{"name":"Pater-Petrus-Str.","postalCode":"83075","locality":"Bad Feilnbach","municipality":{"key":"09187129","name":"Bad Feilnbach","type":"Kreisangehörige_Gemeinde"},"district":{"key":"09187","name":"Rosenheim","type":"Landkreis"},"federalState":{"key":"09","name":"Bayern"}},{"name":"Point Nord","postalCode":"83075","locality":"Bad Feilnbach","municipality":{"key":"09187129","name":"Bad Feilnbach","type":"Kreisangehörige_Gemeinde"},"district":{"key":"09187","name":"Rosenheim","type":"Landkreis"},"federalState":{"key":"09","name":"Bayern"}},{"name":"Quirinstr.","postalCode":"83024","locality":"Rosenheim","municipality":{"key":"09163000","name":"Rosenheim","type":"Kreisfreie_Stadt"},"district":{"key":"09163","name":"Rosenheim","type":"Kreisfreie_Stadt"},"federalState":{"key":"09","name":"Bayern"}},{"name":"Reithof","postalCode":"83075","locality":"Bad Feilnbach","municipality":{"key":"09187129","name":"Bad Feilnbach","type":"Kreisangehörige_Gemeinde"},"district":{"key":"09187","name":"Rosenheim","type":"Landkreis"},"federalState":{"key":"09","name":"Bayern"}},{"name":"Riesenfeldstr.","postalCode":"83075","locality":"Bad Feilnbach","municipality":{"key":"09187129","name":"Bad Feilnbach","type":"Kreisangehörige_Gemeinde"},"district":{"key":"09187","name":"Rosenheim","type":"Landkreis"},"federalState":{"key":"09","name":"Bayern"}},{"name":"Römerring","postalCode":"83075","locality":"Bad Feilnbach","municipality":{"key":"09187129","name":"Bad Feilnbach","type":"Kreisangehörige_Gemeinde"},"district":{"key":"09187","name":"Rosenheim","type":"Landkreis"},"federalState":{"key":"09","name":"Bayern"}},{"name":"Rotwandstr.","postalCode":"83075","locality":"Bad Feilnbach","municipality":{"key":"09187129","name":"Bad Feilnbach","type":"Kreisangehörige_Gemeinde"},"district":{"key":"09187","name":"Rosenheim","type":"Landkreis"},"federalState":{"key":"09","name":"Bayern"}},{"name":"Salzhub","postalCode":"83075","locality":"Bad Feilnbach","municipality":{"key":"09187129","name":"Bad Feilnbach","type":"Kreisangehörige_Gemeinde"},"district":{"key":"09187","name":"Rosenheim","type":"Landkreis"},"federalState":{"key":"09","name":"Bayern"}},{"name":"Schäfflerweg","postalCode":"83075","locality":"Bad Feilnbach","municipality":{"key":"09187129","name":"Bad Feilnbach","type":"Kreisangehörige_Gemeinde"},"district":{"key":"09187","name":"Rosenheim","type":"Landkreis"},"federalState":{"key":"09","name":"Bayern"}},{"name":"Schittweinstr.","postalCode":"83075","locality":"Bad Feilnbach","municipality":{"key":"09187129","name":"Bad Feilnbach","type":"Kreisangehörige_Gemeinde"},"district":{"key":"09187","name":"Rosenheim","type":"Landkreis"},"federalState":{"key":"09","name":"Bayern"}},{"name":"Schmiedgasse","postalCode":"83075","locality":"Bad Feilnbach","municipality":{"key":"09187129","name":"Bad Feilnbach","type":"Kreisangehörige_Gemeinde"},"district":{"key":"09187","name":"Rosenheim","type":"Landkreis"},"federalState":{"key":"09","name":"Bayern"}},{"name":"Schulweg","postalCode":"83075","locality":"Bad Feilnbach","municipality":{"key":"09187129","name":"Bad Feilnbach","type":"Kreisangehörige_Gemeinde"},"district":{"key":"09187","name":"Rosenheim","type":"Landkreis"},"federalState":{"key":"09","name":"Bayern"}},{"name":"Schwarzenbergstr.","postalCode":"83075","locality":"Bad Feilnbach","municipality":{"key":"09187129","name":"Bad Feilnbach","type":"Kreisangehörige_Gemeinde"},"district":{"key":"09187","name":"Rosenheim","type":"Landkreis"},"federalState":{"key":"09","name":"Bayern"}},{"name":"Schwarzlackstr.","postalCode":"83075","locality":"Bad Feilnbach","municipality":{"key":"09187129","name":"Bad Feilnbach","type":"Kreisangehörige_Gemeinde"},"district":{"key":"09187","name":"Rosenheim","type":"Landkreis"},"federalState":{"key":"09","name":"Bayern"}},{"name":"Sonnenstr.","postalCode":"83075","locality":"Bad Feilnbach","municipality":{"key":"09187129","name":"Bad Feilnbach","type":"Kreisangehörige_Gemeinde"},"district":{"key":"09187","name":"Rosenheim","type":"Landkreis"},"federalState":{"key":"09","name":"Bayern"}},{"name":"Sperlstr.","postalCode":"83075","locality":"Bad Feilnbach","municipality":{"key":"09187129","name":"Bad Feilnbach","type":"Kreisangehörige_Gemeinde"},"district":{"key":"09187","name":"Rosenheim","type":"Landkreis"},"federalState":{"key":"09","name":"Bayern"}},{"name":"Spitzsteinweg","postalCode":"83075","locality":"Bad Feilnbach","municipality":{"key":"09187129","name":"Bad Feilnbach","type":"Kreisangehörige_Gemeinde"},"district":{"key":"09187","name":"Rosenheim","type":"Landkreis"},"federalState":{"key":"09","name":"Bayern"}},{"name":"Sternplattenweg","postalCode":"83075","locality":"Bad Feilnbach","municipality":{"key":"09187129","name":"Bad Feilnbach","type":"Kreisangehörige_Gemeinde"},"district":{"key":"09187","name":"Rosenheim","type":"Landkreis"},"federalState":{"key":"09","name":"Bayern"}},{"name":"St.-Martin-Str.","postalCode":"83075","locality":"Bad Feilnbach","municipality":{"key":"09187129","name":"Bad Feilnbach","type":"Kreisangehörige_Gemeinde"},"district":{"key":"09187","name":"Rosenheim","type":"Landkreis"},"federalState":{"key":"09","name":"Bayern"}},{"name":"Sulzbergstr.","postalCode":"83075","locality":"Bad Feilnbach","municipality":{"key":"09187129","name":"Bad Feilnbach","type":"Kreisangehörige_Gemeinde"},"district":{"key":"09187","name":"Rosenheim","type":"Landkreis"},"federalState":{"key":"09","name":"Bayern"}},{"name":"Taxa-Kapellen-Weg","postalCode":"83075","locality":"Bad Feilnbach","municipality":{"key":"09187129","name":"Bad Feilnbach","type":"Kreisangehörige_Gemeinde"},"district":{"key":"09187","name":"Rosenheim","type":"Landkreis"},"federalState":{"key":"09","name":"Bayern"}},{"name":"Thalhamer Str.","postalCode":"83075","locality":"Bad Feilnbach","municipality":{"key":"09187129","name":"Bad Feilnbach","type":"Kreisangehörige_Gemeinde"},"district":{"key":"09187","name":"Rosenheim","type":"Landkreis"},"federalState":{"key":"09","name":"Bayern"}},{"name":"Torfwerk","postalCode":"83075","locality":"Bad Feilnbach","municipality":{"key":"09187129","name":"Bad Feilnbach","type":"Kreisangehörige_Gemeinde"},"district":{"key":"09187","name":"Rosenheim","type":"Landkreis"},"federalState":{"key":"09","name":"Bayern"}},{"name":"Uhlandstr.","postalCode":"83024","locality":"Rosenheim","municipality":{"key":"09163000","name":"Rosenheim","type":"Kreisfreie_Stadt"},"district":{"key":"09163","name":"Rosenheim","type":"Kreisfreie_Stadt"},"federalState":{"key":"09","name":"Bayern"}},{"name":"Ulmenweg","postalCode":"83022","locality":"Rosenheim","municipality":{"key":"09163000","name":"Rosenheim","type":"Kreisfreie_Stadt"},"district":{"key":"09163","name":"Rosenheim","type":"Kreisfreie_Stadt"},"federalState":{"key":"09","name":"Bayern"}},{"name":"Unterer Gernauweg","postalCode":"83026","locality":"Rosenheim","municipality":{"key":"09163000","name":"Rosenheim","type":"Kreisfreie_Stadt"},"district":{"key":"09163","name":"Rosenheim","type":"Kreisfreie_Stadt"},"federalState":{"key":"09","name":"Bayern"}},{"name":"Unterkaltbrunn","postalCode":"83026","locality":"Rosenheim","municipality":{"key":"09163000","name":"Rosenheim","type":"Kreisfreie_Stadt"},"district":{"key":"09163","name":"Rosenheim","type":"Kreisfreie_Stadt"},"federalState":{"key":"09","name":"Bayern"}},{"name":"Unterkaltbrunner Str.","postalCode":"83026","locality":"Rosenheim","municipality":{"key":"09163000","name":"Rosenheim","type":"Kreisfreie_Stadt"},"district":{"key":"09163","name":"Rosenheim","type":"Kreisfreie_Stadt"},"federalState":{"key":"09","name":"Bayern"}},{"name":"Verdunstr.","postalCode":"83026","locality":"Rosenheim","municipality":{"key":"09163000","name":"Rosenheim","type":"Kreisfreie_Stadt"},"district":{"key":"09163","name":"Rosenheim","type":"Kreisfreie_Stadt"},"federalState":{"key":"09","name":"Bayern"}},{"name":"Von-der-Tann-Str.","postalCode":"83022","locality":"Rosenheim","municipality":{"key":"09163000","name":"Rosenheim","type":"Kreisfreie_Stadt"},"district":{"key":"09163","name":"Rosenheim","type":"Kreisfreie_Stadt"},"federalState":{"key":"09","name":"Bayern"}},{"name":"Vorarlbergweg","postalCode":"83024","locality":"Rosenheim","municipality":{"key":"09163000","name":"Rosenheim","type":"Kreisfreie_Stadt"},"district":{"key":"09163","name":"Rosenheim","type":"Kreisfreie_Stadt"},"federalState":{"key":"09","name":"Bayern"}},{"name":"Waldweg","postalCode":"83075","locality":"Bad Feilnbach","municipality":{"key":"09187129","name":"Bad Feilnbach","type":"Kreisangehörige_Gemeinde"},"district":{"key":"09187","name":"Rosenheim","type":"Landkreis"},"federalState":{"key":"09","name":"Bayern"}},{"name":"Weidachweg","postalCode":"83075","locality":"Bad Feilnbach","municipality":{"key":"09187129","name":"Bad Feilnbach","type":"Kreisangehörige_Gemeinde"},"district":{"key":"09187","name":"Rosenheim","type":"Landkreis"},"federalState":{"key":"09","name":"Bayern"}},{"name":"Weitmoosweg","postalCode":"83075","locality":"Bad Feilnbach","municipality":{"key":"09187129","name":"Bad Feilnbach","type":"Kreisangehörige_Gemeinde"},"district":{"key":"09187","name":"Rosenheim","type":"Landkreis"},"federalState":{"key":"09","name":"Bayern"}},{"name":"Wendelsteinstr.","postalCode":"83075","locality":"Bad Feilnbach","municipality":{"key":"09187129","name":"Bad Feilnbach","type":"Kreisangehörige_Gemeinde"},"district":{"key":"09187","name":"Rosenheim","type":"Landkreis"},"federalState":{"key":"09","name":"Bayern"}},{"name":"Wiesenweg","postalCode":"83075","locality":"Bad Feilnbach","municipality":{"key":"09187129","name":"Bad Feilnbach","type":"Kreisangehörige_Gemeinde"},"district":{"key":"09187","name":"Rosenheim","type":"Landkreis"},"federalState":{"key":"09","name":"Bayern"}},{"name":"Wilhelm-Leibl-Str.","postalCode":"83075","locality":"Bad Feilnbach","municipality":{"key":"09187129","name":"Bad Feilnbach","type":"Kreisangehörige_Gemeinde"},"district":{"key":"09187","name":"Rosenheim","type":"Landkreis"},"federalState":{"key":"09","name":"Bayern"}},{"name":"Wilhelm-Leibl-Weg","postalCode":"83075","locality":"Bad Feilnbach","municipality":{"key":"09187129","name":"Bad Feilnbach","type":"Kreisangehörige_Gemeinde"},"district":{"key":"09187","name":"Rosenheim","type":"Landkreis"},"federalState":{"key":"09","name":"Bayern"}},{"name":"Zeisigweg","postalCode":"83026","locality":"Rosenheim","municipality":{"key":"09163000","name":"Rosenheim","type":"Kreisfreie_Stadt"},"district":{"key":"09163","name":"Rosenheim","type":"Kreisfreie_Stadt"},"federalState":{"key":"09","name":"Bayern"}},{"name":"Zellerhornstr.","postalCode":"83026","locality":"Rosenheim","municipality":{"key":"09163000","name":"Rosenheim","type":"Kreisfreie_Stadt"},"district":{"key":"09163","name":"Rosenheim","type":"Kreisfreie_Stadt"},"federalState":{"key":"09","name":"Bayern"}},{"name":"Zinnkopfstr.","postalCode":"83026","locality":"Rosenheim","municipality":{"key":"09163000","name":"Rosenheim","type":"Kreisfreie_Stadt"},"district":{"key":"09163","name":"Rosenheim","type":"Kreisfreie_Stadt"},"federalState":{"key":"09","name":"Bayern"}},{"name":"Zugspitzstr.","postalCode":"83026","locality":"Rosenheim","municipality":{"key":"09163000","name":"Rosenheim","type":"Kreisfreie_Stadt"},"district":{"key":"09163","name":"Rosenheim","type":"Kreisfreie_Stadt"},"federalState":{"key":"09","name":"Bayern"}},{"name":"Zum Junkernplatz","postalCode":"57520","locality":"Rosenheim","municipality":{"key":"07132095","name":"Rosenheim (Landkreis Altenkirchen)","type":"Kreisangehörige_Gemeinde"},"district":{"key":"07132","name":"Altenkirchen (Westerwald)","type":"Landkreis"},"federalState":{"key":"07","name":"Rheinland-Pfalz"}},{"name":"Zürnstr.","postalCode":"83024","locality":"Rosenheim","municipality":{"key":"09163000","name":"Rosenheim","type":"Kreisfreie_Stadt"},"district":{"key":"09163","name":"Rosenheim","type":"Kreisfreie_Stadt"},"federalState":{"key":"09","name":"Bayern"}},{"name":"Äußere Münchener Str.","postalCode":"83022","locality":"Rosenheim","municipality":{"key":"09163000","name":"Rosenheim","type":"Kreisfreie_Stadt"},"district":{"key":"09163","name":"Rosenheim","type":"Kreisfreie_Stadt"},"federalState":{"key":"09","name":"Bayern"}},{"name":"Äußere Münchener Str.","postalCode":"83026","locality":"Rosenheim","municipality":{"key":"09163000","name":"Rosenheim","type":"Kreisfreie_Stadt"},"district":{"key":"09163","name":"Rosenheim","type":"Kreisfreie_Stadt"},"federalState":{"key":"09","name":"Bayern"}},{"name":"Äußere Oberaustr.","postalCode":"83026","locality":"Rosenheim","municipality":{"key":"09163000","name":"Rosenheim","type":"Kreisfreie_Stadt"},"district":{"key":"09163","name":"Rosenheim","type":"Kreisfreie_Stadt"},"federalState":{"key":"09","name":"Bayern"}},]