[{"name":"Auf der Köbs","postalCode":"54413","locality":"Geisfeld","municipality":{"key":"07235030","name":"Geisfeld","type":"Kreisangehörige_Gemeinde"},"district":{"key":"07235","name":"Trier-Saarburg","type":"Landkreis"},"federalState":{"key":"07","name":"Rheinland-Pfalz"}},{"name":"Auf der Reisheck","postalCode":"54413","locality":"Geisfeld","municipality":{"key":"07235030","name":"Geisfeld","type":"Kreisangehörige_Gemeinde"},"district":{"key":"07235","name":"Trier-Saarburg","type":"Landkreis"},"federalState":{"key":"07","name":"Rheinland-Pfalz"}},{"name":"Dhronstr.","postalCode":"54413","locality":"Geisfeld","municipality":{"key":"07235030","name":"Geisfeld","type":"Kreisangehörige_Gemeinde"},"district":{"key":"07235","name":"Trier-Saarburg","type":"Landkreis"},"federalState":{"key":"07","name":"Rheinland-Pfalz"}},{"name":"Gartenfeldstr.","postalCode":"54413","locality":"Geisfeld","municipality":{"key":"07235030","name":"Geisfeld","type":"Kreisangehörige_Gemeinde"},"district":{"key":"07235","name":"Trier-Saarburg","type":"Landkreis"},"federalState":{"key":"07","name":"Rheinland-Pfalz"}},{"name":"Hermeskeiler Str.","postalCode":"54413","locality":"Geisfeld","municipality":{"key":"07235030","name":"Geisfeld","type":"Kreisangehörige_Gemeinde"},"district":{"key":"07235","name":"Trier-Saarburg","type":"Landkreis"},"federalState":{"key":"07","name":"Rheinland-Pfalz"}},{"name":"In den Palzfeldern","postalCode":"54413","locality":"Geisfeld","municipality":{"key":"07235030","name":"Geisfeld","type":"Kreisangehörige_Gemeinde"},"district":{"key":"07235","name":"Trier-Saarburg","type":"Landkreis"},"federalState":{"key":"07","name":"Rheinland-Pfalz"}},{"name":"Kirchstr.","postalCode":"54413","locality":"Geisfeld","municipality":{"key":"07235030","name":"Geisfeld","type":"Kreisangehörige_Gemeinde"},"district":{"key":"07235","name":"Trier-Saarburg","type":"Landkreis"},"federalState":{"key":"07","name":"Rheinland-Pfalz"}},{"name":"Königsfeldschleife","postalCode":"54413","locality":"Geisfeld","municipality":{"key":"07235030","name":"Geisfeld","type":"Kreisangehörige_Gemeinde"},"district":{"key":"07235","name":"Trier-Saarburg","type":"Landkreis"},"federalState":{"key":"07","name":"Rheinland-Pfalz"}},{"name":"Malborner Weg","postalCode":"54413","locality":"Geisfeld","municipality":{"key":"07235030","name":"Geisfeld","type":"Kreisangehörige_Gemeinde"},"district":{"key":"07235","name":"Trier-Saarburg","type":"Landkreis"},"federalState":{"key":"07","name":"Rheinland-Pfalz"}},{"name":"Markusstr.","postalCode":"54413","locality":"Geisfeld","municipality":{"key":"07235030","name":"Geisfeld","type":"Kreisangehörige_Gemeinde"},"district":{"key":"07235","name":"Trier-Saarburg","type":"Landkreis"},"federalState":{"key":"07","name":"Rheinland-Pfalz"}},{"name":"Neustr.","postalCode":"54413","locality":"Geisfeld","municipality":{"key":"07235030","name":"Geisfeld","type":"Kreisangehörige_Gemeinde"},"district":{"key":"07235","name":"Trier-Saarburg","type":"Landkreis"},"federalState":{"key":"07","name":"Rheinland-Pfalz"}},{"name":"Schöne Aussicht","postalCode":"54413","locality":"Geisfeld","municipality":{"key":"07235030","name":"Geisfeld","type":"Kreisangehörige_Gemeinde"},"district":{"key":"07235","name":"Trier-Saarburg","type":"Landkreis"},"federalState":{"key":"07","name":"Rheinland-Pfalz"}},]