[{"name":"1. Mittelweg","postalCode":"66953","locality":"Pirmasens","municipality":{"key":"07317000","name":"Pirmasens, Stadt","type":"Kreisfreie_Stadt"},"district":{"key":"07317","name":"Pirmasens, kreisfreie Stadt","type":"Kreisfreie_Stadt"},"federalState":{"key":"07","name":"Rheinland-Pfalz"}},{"name":"2. Mittelweg","postalCode":"66953","locality":"Pirmasens","municipality":{"key":"07317000","name":"Pirmasens, Stadt","type":"Kreisfreie_Stadt"},"district":{"key":"07317","name":"Pirmasens, kreisfreie Stadt","type":"Kreisfreie_Stadt"},"federalState":{"key":"07","name":"Rheinland-Pfalz"}},{"name":"Adalbert-Stifter-Str.","postalCode":"66955","locality":"Pirmasens","municipality":{"key":"07317000","name":"Pirmasens, Stadt","type":"Kreisfreie_Stadt"},"district":{"key":"07317","name":"Pirmasens, kreisfreie Stadt","type":"Kreisfreie_Stadt"},"federalState":{"key":"07","name":"Rheinland-Pfalz"}},{"name":"Adam-Müller-Str.","postalCode":"66954","locality":"Pirmasens","municipality":{"key":"07317000","name":"Pirmasens, Stadt","type":"Kreisfreie_Stadt"},"district":{"key":"07317","name":"Pirmasens, kreisfreie Stadt","type":"Kreisfreie_Stadt"},"federalState":{"key":"07","name":"Rheinland-Pfalz"}},{"name":"Adlerstr.","postalCode":"66955","locality":"Pirmasens","municipality":{"key":"07317000","name":"Pirmasens, Stadt","type":"Kreisfreie_Stadt"},"district":{"key":"07317","name":"Pirmasens, kreisfreie Stadt","type":"Kreisfreie_Stadt"},"federalState":{"key":"07","name":"Rheinland-Pfalz"}},{"name":"Adolf-Ludwig-Ring","postalCode":"66955","locality":"Pirmasens","municipality":{"key":"07317000","name":"Pirmasens, Stadt","type":"Kreisfreie_Stadt"},"district":{"key":"07317","name":"Pirmasens, kreisfreie Stadt","type":"Kreisfreie_Stadt"},"federalState":{"key":"07","name":"Rheinland-Pfalz"}},{"name":"Akazienweg","postalCode":"66953","locality":"Pirmasens","municipality":{"key":"07317000","name":"Pirmasens, Stadt","type":"Kreisfreie_Stadt"},"district":{"key":"07317","name":"Pirmasens, kreisfreie Stadt","type":"Kreisfreie_Stadt"},"federalState":{"key":"07","name":"Rheinland-Pfalz"}},{"name":"Albert-Einstein-Str.","postalCode":"66953","locality":"Pirmasens","municipality":{"key":"07317000","name":"Pirmasens, Stadt","type":"Kreisfreie_Stadt"},"district":{"key":"07317","name":"Pirmasens, kreisfreie Stadt","type":"Kreisfreie_Stadt"},"federalState":{"key":"07","name":"Rheinland-Pfalz"}},{"name":"Albert-Schweitzer-Str.","postalCode":"66953","locality":"Pirmasens","municipality":{"key":"07317000","name":"Pirmasens, Stadt","type":"Kreisfreie_Stadt"},"district":{"key":"07317","name":"Pirmasens, kreisfreie Stadt","type":"Kreisfreie_Stadt"},"federalState":{"key":"07","name":"Rheinland-Pfalz"}},{"name":"Albert-Siebel-Str.","postalCode":"66955","locality":"Pirmasens","municipality":{"key":"07317000","name":"Pirmasens, Stadt","type":"Kreisfreie_Stadt"},"district":{"key":"07317","name":"Pirmasens, kreisfreie Stadt","type":"Kreisfreie_Stadt"},"federalState":{"key":"07","name":"Rheinland-Pfalz"}},{"name":"Albrechtstr.","postalCode":"66954","locality":"Pirmasens","municipality":{"key":"07317000","name":"Pirmasens, Stadt","type":"Kreisfreie_Stadt"},"district":{"key":"07317","name":"Pirmasens, kreisfreie Stadt","type":"Kreisfreie_Stadt"},"federalState":{"key":"07","name":"Rheinland-Pfalz"}},{"name":"Alexander-von-Humboldt-Str.","postalCode":"66953","locality":"Pirmasens","municipality":{"key":"07317000","name":"Pirmasens, Stadt","type":"Kreisfreie_Stadt"},"district":{"key":"07317","name":"Pirmasens, kreisfreie Stadt","type":"Kreisfreie_Stadt"},"federalState":{"key":"07","name":"Rheinland-Pfalz"}},{"name":"Alleestr.","postalCode":"66953","locality":"Pirmasens","municipality":{"key":"07317000","name":"Pirmasens, Stadt","type":"Kreisfreie_Stadt"},"district":{"key":"07317","name":"Pirmasens, kreisfreie Stadt","type":"Kreisfreie_Stadt"},"federalState":{"key":"07","name":"Rheinland-Pfalz"}},{"name":"Almstr.","postalCode":"66955","locality":"Pirmasens","municipality":{"key":"07317000","name":"Pirmasens, Stadt","type":"Kreisfreie_Stadt"},"district":{"key":"07317","name":"Pirmasens, kreisfreie Stadt","type":"Kreisfreie_Stadt"},"federalState":{"key":"07","name":"Rheinland-Pfalz"}},{"name":"Alte Häfnersgasse","postalCode":"66955","locality":"Pirmasens","municipality":{"key":"07317000","name":"Pirmasens, Stadt","type":"Kreisfreie_Stadt"},"district":{"key":"07317","name":"Pirmasens, kreisfreie Stadt","type":"Kreisfreie_Stadt"},"federalState":{"key":"07","name":"Rheinland-Pfalz"}},{"name":"Alte Kellerstr.","postalCode":"66955","locality":"Pirmasens","municipality":{"key":"07317000","name":"Pirmasens, Stadt","type":"Kreisfreie_Stadt"},"district":{"key":"07317","name":"Pirmasens, kreisfreie Stadt","type":"Kreisfreie_Stadt"},"federalState":{"key":"07","name":"Rheinland-Pfalz"}},{"name":"Alte Landstr.","postalCode":"66955","locality":"Pirmasens","municipality":{"key":"07317000","name":"Pirmasens, Stadt","type":"Kreisfreie_Stadt"},"district":{"key":"07317","name":"Pirmasens, kreisfreie Stadt","type":"Kreisfreie_Stadt"},"federalState":{"key":"07","name":"Rheinland-Pfalz"}},{"name":"Alter Friedhof","postalCode":"66953","locality":"Pirmasens","municipality":{"key":"07317000","name":"Pirmasens, Stadt","type":"Kreisfreie_Stadt"},"district":{"key":"07317","name":"Pirmasens, kreisfreie Stadt","type":"Kreisfreie_Stadt"},"federalState":{"key":"07","name":"Rheinland-Pfalz"}},{"name":"Alter Innweg","postalCode":"66955","locality":"Pirmasens","municipality":{"key":"07317000","name":"Pirmasens, Stadt","type":"Kreisfreie_Stadt"},"district":{"key":"07317","name":"Pirmasens, kreisfreie Stadt","type":"Kreisfreie_Stadt"},"federalState":{"key":"07","name":"Rheinland-Pfalz"}},{"name":"Alte Winzler Str.","postalCode":"66954","locality":"Pirmasens","municipality":{"key":"07317000","name":"Pirmasens, Stadt","type":"Kreisfreie_Stadt"},"district":{"key":"07317","name":"Pirmasens, kreisfreie Stadt","type":"Kreisfreie_Stadt"},"federalState":{"key":"07","name":"Rheinland-Pfalz"}},{"name":"Amalienstr.","postalCode":"66955","locality":"Pirmasens","municipality":{"key":"07317000","name":"Pirmasens, Stadt","type":"Kreisfreie_Stadt"},"district":{"key":"07317","name":"Pirmasens, kreisfreie Stadt","type":"Kreisfreie_Stadt"},"federalState":{"key":"07","name":"Rheinland-Pfalz"}},{"name":"Am Alten Friedhof","postalCode":"66954","locality":"Pirmasens","municipality":{"key":"07317000","name":"Pirmasens, Stadt","type":"Kreisfreie_Stadt"},"district":{"key":"07317","name":"Pirmasens, kreisfreie Stadt","type":"Kreisfreie_Stadt"},"federalState":{"key":"07","name":"Rheinland-Pfalz"}},{"name":"Am Alten Schulhaus","postalCode":"66954","locality":"Pirmasens","municipality":{"key":"07317000","name":"Pirmasens, Stadt","type":"Kreisfreie_Stadt"},"district":{"key":"07317","name":"Pirmasens, kreisfreie Stadt","type":"Kreisfreie_Stadt"},"federalState":{"key":"07","name":"Rheinland-Pfalz"}},{"name":"Am Aspentrog","postalCode":"66954","locality":"Pirmasens","municipality":{"key":"07317000","name":"Pirmasens, Stadt","type":"Kreisfreie_Stadt"},"district":{"key":"07317","name":"Pirmasens, kreisfreie Stadt","type":"Kreisfreie_Stadt"},"federalState":{"key":"07","name":"Rheinland-Pfalz"}},{"name":"Am Birkloch","postalCode":"66954","locality":"Pirmasens","municipality":{"key":"07317000","name":"Pirmasens, Stadt","type":"Kreisfreie_Stadt"},"district":{"key":"07317","name":"Pirmasens, kreisfreie Stadt","type":"Kreisfreie_Stadt"},"federalState":{"key":"07","name":"Rheinland-Pfalz"}},{"name":"Am Breitenweg","postalCode":"66954","locality":"Pirmasens","municipality":{"key":"07317000","name":"Pirmasens, Stadt","type":"Kreisfreie_Stadt"},"district":{"key":"07317","name":"Pirmasens, kreisfreie Stadt","type":"Kreisfreie_Stadt"},"federalState":{"key":"07","name":"Rheinland-Pfalz"}},{"name":"Am Bucheneck","postalCode":"66954","locality":"Pirmasens","municipality":{"key":"07317000","name":"Pirmasens, Stadt","type":"Kreisfreie_Stadt"},"district":{"key":"07317","name":"Pirmasens, kreisfreie Stadt","type":"Kreisfreie_Stadt"},"federalState":{"key":"07","name":"Rheinland-Pfalz"}},{"name":"Am Dorfbrunnen","postalCode":"66954","locality":"Pirmasens","municipality":{"key":"07317000","name":"Pirmasens, Stadt","type":"Kreisfreie_Stadt"},"district":{"key":"07317","name":"Pirmasens, kreisfreie Stadt","type":"Kreisfreie_Stadt"},"federalState":{"key":"07","name":"Rheinland-Pfalz"}},{"name":"Am Emmersberg","postalCode":"66954","locality":"Pirmasens","municipality":{"key":"07317000","name":"Pirmasens, Stadt","type":"Kreisfreie_Stadt"},"district":{"key":"07317","name":"Pirmasens, kreisfreie Stadt","type":"Kreisfreie_Stadt"},"federalState":{"key":"07","name":"Rheinland-Pfalz"}},{"name":"Am Feld","postalCode":"66954","locality":"Pirmasens","municipality":{"key":"07317000","name":"Pirmasens, Stadt","type":"Kreisfreie_Stadt"},"district":{"key":"07317","name":"Pirmasens, kreisfreie Stadt","type":"Kreisfreie_Stadt"},"federalState":{"key":"07","name":"Rheinland-Pfalz"}},{"name":"Am Friedhof","postalCode":"66954","locality":"Pirmasens","municipality":{"key":"07317000","name":"Pirmasens, Stadt","type":"Kreisfreie_Stadt"},"district":{"key":"07317","name":"Pirmasens, kreisfreie Stadt","type":"Kreisfreie_Stadt"},"federalState":{"key":"07","name":"Rheinland-Pfalz"}},{"name":"Am Gottelsberg","postalCode":"66954","locality":"Pirmasens","municipality":{"key":"07317000","name":"Pirmasens, Stadt","type":"Kreisfreie_Stadt"},"district":{"key":"07317","name":"Pirmasens, kreisfreie Stadt","type":"Kreisfreie_Stadt"},"federalState":{"key":"07","name":"Rheinland-Pfalz"}},{"name":"Am Häusel","postalCode":"66953","locality":"Pirmasens","municipality":{"key":"07317000","name":"Pirmasens, Stadt","type":"Kreisfreie_Stadt"},"district":{"key":"07317","name":"Pirmasens, kreisfreie Stadt","type":"Kreisfreie_Stadt"},"federalState":{"key":"07","name":"Rheinland-Pfalz"}},{"name":"Am Hirschenhübel","postalCode":"66954","locality":"Pirmasens","municipality":{"key":"07317000","name":"Pirmasens, Stadt","type":"Kreisfreie_Stadt"},"district":{"key":"07317","name":"Pirmasens, kreisfreie Stadt","type":"Kreisfreie_Stadt"},"federalState":{"key":"07","name":"Rheinland-Pfalz"}},{"name":"Am Hollerbrunn","postalCode":"66953","locality":"Pirmasens","municipality":{"key":"07317000","name":"Pirmasens, Stadt","type":"Kreisfreie_Stadt"},"district":{"key":"07317","name":"Pirmasens, kreisfreie Stadt","type":"Kreisfreie_Stadt"},"federalState":{"key":"07","name":"Rheinland-Pfalz"}},{"name":"Am Hollerstock","postalCode":"66954","locality":"Pirmasens","municipality":{"key":"07317000","name":"Pirmasens, Stadt","type":"Kreisfreie_Stadt"},"district":{"key":"07317","name":"Pirmasens, kreisfreie Stadt","type":"Kreisfreie_Stadt"},"federalState":{"key":"07","name":"Rheinland-Pfalz"}},{"name":"Am Holzweg","postalCode":"66955","locality":"Pirmasens","municipality":{"key":"07317000","name":"Pirmasens, Stadt","type":"Kreisfreie_Stadt"},"district":{"key":"07317","name":"Pirmasens, kreisfreie Stadt","type":"Kreisfreie_Stadt"},"federalState":{"key":"07","name":"Rheinland-Pfalz"}},{"name":"Am Immenborn","postalCode":"66954","locality":"Pirmasens","municipality":{"key":"07317000","name":"Pirmasens, Stadt","type":"Kreisfreie_Stadt"},"district":{"key":"07317","name":"Pirmasens, kreisfreie Stadt","type":"Kreisfreie_Stadt"},"federalState":{"key":"07","name":"Rheinland-Pfalz"}},{"name":"Am Innweg","postalCode":"66955","locality":"Pirmasens","municipality":{"key":"07317000","name":"Pirmasens, Stadt","type":"Kreisfreie_Stadt"},"district":{"key":"07317","name":"Pirmasens, kreisfreie Stadt","type":"Kreisfreie_Stadt"},"federalState":{"key":"07","name":"Rheinland-Pfalz"}},{"name":"Am Kalkofen","postalCode":"66955","locality":"Pirmasens","municipality":{"key":"07317000","name":"Pirmasens, Stadt","type":"Kreisfreie_Stadt"},"district":{"key":"07317","name":"Pirmasens, kreisfreie Stadt","type":"Kreisfreie_Stadt"},"federalState":{"key":"07","name":"Rheinland-Pfalz"}},{"name":"Am Kaltenacker","postalCode":"66955","locality":"Pirmasens","municipality":{"key":"07317000","name":"Pirmasens, Stadt","type":"Kreisfreie_Stadt"},"district":{"key":"07317","name":"Pirmasens, kreisfreie Stadt","type":"Kreisfreie_Stadt"},"federalState":{"key":"07","name":"Rheinland-Pfalz"}},{"name":"Am Kiesweg","postalCode":"66955","locality":"Pirmasens","municipality":{"key":"07317000","name":"Pirmasens, Stadt","type":"Kreisfreie_Stadt"},"district":{"key":"07317","name":"Pirmasens, kreisfreie Stadt","type":"Kreisfreie_Stadt"},"federalState":{"key":"07","name":"Rheinland-Pfalz"}},{"name":"Am Kilianskopf","postalCode":"66954","locality":"Pirmasens","municipality":{"key":"07317000","name":"Pirmasens, Stadt","type":"Kreisfreie_Stadt"},"district":{"key":"07317","name":"Pirmasens, kreisfreie Stadt","type":"Kreisfreie_Stadt"},"federalState":{"key":"07","name":"Rheinland-Pfalz"}},{"name":"Am Knopp","postalCode":"66954","locality":"Pirmasens","municipality":{"key":"07317000","name":"Pirmasens, Stadt","type":"Kreisfreie_Stadt"},"district":{"key":"07317","name":"Pirmasens, kreisfreie Stadt","type":"Kreisfreie_Stadt"},"federalState":{"key":"07","name":"Rheinland-Pfalz"}},{"name":"Am Kuttelbrunnen","postalCode":"66954","locality":"Pirmasens","municipality":{"key":"07317000","name":"Pirmasens, Stadt","type":"Kreisfreie_Stadt"},"district":{"key":"07317","name":"Pirmasens, kreisfreie Stadt","type":"Kreisfreie_Stadt"},"federalState":{"key":"07","name":"Rheinland-Pfalz"}},{"name":"Am Mühlberg","postalCode":"66954","locality":"Pirmasens","municipality":{"key":"07317000","name":"Pirmasens, Stadt","type":"Kreisfreie_Stadt"},"district":{"key":"07317","name":"Pirmasens, kreisfreie Stadt","type":"Kreisfreie_Stadt"},"federalState":{"key":"07","name":"Rheinland-Pfalz"}},{"name":"Am Naturheil","postalCode":"66954","locality":"Pirmasens","municipality":{"key":"07317000","name":"Pirmasens, Stadt","type":"Kreisfreie_Stadt"},"district":{"key":"07317","name":"Pirmasens, kreisfreie Stadt","type":"Kreisfreie_Stadt"},"federalState":{"key":"07","name":"Rheinland-Pfalz"}},{"name":"Am Neuberg","postalCode":"66954","locality":"Pirmasens","municipality":{"key":"07317000","name":"Pirmasens, Stadt","type":"Kreisfreie_Stadt"},"district":{"key":"07317","name":"Pirmasens, kreisfreie Stadt","type":"Kreisfreie_Stadt"},"federalState":{"key":"07","name":"Rheinland-Pfalz"}},{"name":"Am Neuen Ring","postalCode":"66954","locality":"Pirmasens","municipality":{"key":"07317000","name":"Pirmasens, Stadt","type":"Kreisfreie_Stadt"},"district":{"key":"07317","name":"Pirmasens, kreisfreie Stadt","type":"Kreisfreie_Stadt"},"federalState":{"key":"07","name":"Rheinland-Pfalz"}},{"name":"Am Nickelsbrunnen","postalCode":"66954","locality":"Pirmasens","municipality":{"key":"07317000","name":"Pirmasens, Stadt","type":"Kreisfreie_Stadt"},"district":{"key":"07317","name":"Pirmasens, kreisfreie Stadt","type":"Kreisfreie_Stadt"},"federalState":{"key":"07","name":"Rheinland-Pfalz"}},{"name":"Am Nußbaum","postalCode":"66954","locality":"Pirmasens","municipality":{"key":"07317000","name":"Pirmasens, Stadt","type":"Kreisfreie_Stadt"},"district":{"key":"07317","name":"Pirmasens, kreisfreie Stadt","type":"Kreisfreie_Stadt"},"federalState":{"key":"07","name":"Rheinland-Pfalz"}},{"name":"Am Rappeneck","postalCode":"66955","locality":"Pirmasens","municipality":{"key":"07317000","name":"Pirmasens, Stadt","type":"Kreisfreie_Stadt"},"district":{"key":"07317","name":"Pirmasens, kreisfreie Stadt","type":"Kreisfreie_Stadt"},"federalState":{"key":"07","name":"Rheinland-Pfalz"}},{"name":"Bahnhofstr.","postalCode":"66953","locality":"Pirmasens","municipality":{"key":"07317000","name":"Pirmasens, Stadt","type":"Kreisfreie_Stadt"},"district":{"key":"07317","name":"Pirmasens, kreisfreie Stadt","type":"Kreisfreie_Stadt"},"federalState":{"key":"07","name":"Rheinland-Pfalz"}},{"name":"Baumgartenstr.","postalCode":"66954","locality":"Pirmasens","municipality":{"key":"07317000","name":"Pirmasens, Stadt","type":"Kreisfreie_Stadt"},"district":{"key":"07317","name":"Pirmasens, kreisfreie Stadt","type":"Kreisfreie_Stadt"},"federalState":{"key":"07","name":"Rheinland-Pfalz"}},{"name":"Beckenhofer Str.","postalCode":"66955","locality":"Pirmasens","municipality":{"key":"07317000","name":"Pirmasens, Stadt","type":"Kreisfreie_Stadt"},"district":{"key":"07317","name":"Pirmasens, kreisfreie Stadt","type":"Kreisfreie_Stadt"},"federalState":{"key":"07","name":"Rheinland-Pfalz"}},{"name":"Beethovenplatz","postalCode":"66955","locality":"Pirmasens","municipality":{"key":"07317000","name":"Pirmasens, Stadt","type":"Kreisfreie_Stadt"},"district":{"key":"07317","name":"Pirmasens, kreisfreie Stadt","type":"Kreisfreie_Stadt"},"federalState":{"key":"07","name":"Rheinland-Pfalz"}},{"name":"Bergstr.","postalCode":"66953","locality":"Pirmasens","municipality":{"key":"07317000","name":"Pirmasens, Stadt","type":"Kreisfreie_Stadt"},"district":{"key":"07317","name":"Pirmasens, kreisfreie Stadt","type":"Kreisfreie_Stadt"},"federalState":{"key":"07","name":"Rheinland-Pfalz"}},{"name":"Berliner Ring","postalCode":"66955","locality":"Pirmasens","municipality":{"key":"07317000","name":"Pirmasens, Stadt","type":"Kreisfreie_Stadt"},"district":{"key":"07317","name":"Pirmasens, kreisfreie Stadt","type":"Kreisfreie_Stadt"},"federalState":{"key":"07","name":"Rheinland-Pfalz"}},{"name":"Bismarckstr.","postalCode":"66953","locality":"Pirmasens","municipality":{"key":"07317000","name":"Pirmasens, Stadt","type":"Kreisfreie_Stadt"},"district":{"key":"07317","name":"Pirmasens, kreisfreie Stadt","type":"Kreisfreie_Stadt"},"federalState":{"key":"07","name":"Rheinland-Pfalz"}},{"name":"Bitscher Str.","postalCode":"66953","locality":"Pirmasens","municipality":{"key":"07317000","name":"Pirmasens, Stadt","type":"Kreisfreie_Stadt"},"district":{"key":"07317","name":"Pirmasens, kreisfreie Stadt","type":"Kreisfreie_Stadt"},"federalState":{"key":"07","name":"Rheinland-Pfalz"}},{"name":"Bitscher Str.","postalCode":"66955","locality":"Pirmasens","municipality":{"key":"07317000","name":"Pirmasens, Stadt","type":"Kreisfreie_Stadt"},"district":{"key":"07317","name":"Pirmasens, kreisfreie Stadt","type":"Kreisfreie_Stadt"},"federalState":{"key":"07","name":"Rheinland-Pfalz"}},{"name":"Blocksbergstr.","postalCode":"66954","locality":"Pirmasens","municipality":{"key":"07317000","name":"Pirmasens, Stadt","type":"Kreisfreie_Stadt"},"district":{"key":"07317","name":"Pirmasens, kreisfreie Stadt","type":"Kreisfreie_Stadt"},"federalState":{"key":"07","name":"Rheinland-Pfalz"}},{"name":"Blocksbergstr.","postalCode":"66955","locality":"Pirmasens","municipality":{"key":"07317000","name":"Pirmasens, Stadt","type":"Kreisfreie_Stadt"},"district":{"key":"07317","name":"Pirmasens, kreisfreie Stadt","type":"Kreisfreie_Stadt"},"federalState":{"key":"07","name":"Rheinland-Pfalz"}},{"name":"Blücherstr.","postalCode":"66953","locality":"Pirmasens","municipality":{"key":"07317000","name":"Pirmasens, Stadt","type":"Kreisfreie_Stadt"},"district":{"key":"07317","name":"Pirmasens, kreisfreie Stadt","type":"Kreisfreie_Stadt"},"federalState":{"key":"07","name":"Rheinland-Pfalz"}},{"name":"Blümelstalstr.","postalCode":"66953","locality":"Pirmasens","municipality":{"key":"07317000","name":"Pirmasens, Stadt","type":"Kreisfreie_Stadt"},"district":{"key":"07317","name":"Pirmasens, kreisfreie Stadt","type":"Kreisfreie_Stadt"},"federalState":{"key":"07","name":"Rheinland-Pfalz"}},{"name":"Blümelstalstr.","postalCode":"66954","locality":"Pirmasens","municipality":{"key":"07317000","name":"Pirmasens, Stadt","type":"Kreisfreie_Stadt"},"district":{"key":"07317","name":"Pirmasens, kreisfreie Stadt","type":"Kreisfreie_Stadt"},"federalState":{"key":"07","name":"Rheinland-Pfalz"}},{"name":"Blumenstr.","postalCode":"66953","locality":"Pirmasens","municipality":{"key":"07317000","name":"Pirmasens, Stadt","type":"Kreisfreie_Stadt"},"district":{"key":"07317","name":"Pirmasens, kreisfreie Stadt","type":"Kreisfreie_Stadt"},"federalState":{"key":"07","name":"Rheinland-Pfalz"}},{"name":"Blütenstr.","postalCode":"66955","locality":"Pirmasens","municipality":{"key":"07317000","name":"Pirmasens, Stadt","type":"Kreisfreie_Stadt"},"district":{"key":"07317","name":"Pirmasens, kreisfreie Stadt","type":"Kreisfreie_Stadt"},"federalState":{"key":"07","name":"Rheinland-Pfalz"}},{"name":"Bogenstr.","postalCode":"66955","locality":"Pirmasens","municipality":{"key":"07317000","name":"Pirmasens, Stadt","type":"Kreisfreie_Stadt"},"district":{"key":"07317","name":"Pirmasens, kreisfreie Stadt","type":"Kreisfreie_Stadt"},"federalState":{"key":"07","name":"Rheinland-Pfalz"}},{"name":"Bottenbacher Str.","postalCode":"66954","locality":"Pirmasens","municipality":{"key":"07317000","name":"Pirmasens, Stadt","type":"Kreisfreie_Stadt"},"district":{"key":"07317","name":"Pirmasens, kreisfreie Stadt","type":"Kreisfreie_Stadt"},"federalState":{"key":"07","name":"Rheinland-Pfalz"}},{"name":"Breitsitterstr.","postalCode":"66954","locality":"Pirmasens","municipality":{"key":"07317000","name":"Pirmasens, Stadt","type":"Kreisfreie_Stadt"},"district":{"key":"07317","name":"Pirmasens, kreisfreie Stadt","type":"Kreisfreie_Stadt"},"federalState":{"key":"07","name":"Rheinland-Pfalz"}},{"name":"Breslauer Str.","postalCode":"66954","locality":"Pirmasens","municipality":{"key":"07317000","name":"Pirmasens, Stadt","type":"Kreisfreie_Stadt"},"district":{"key":"07317","name":"Pirmasens, kreisfreie Stadt","type":"Kreisfreie_Stadt"},"federalState":{"key":"07","name":"Rheinland-Pfalz"}},{"name":"Brunnengasse","postalCode":"66953","locality":"Pirmasens","municipality":{"key":"07317000","name":"Pirmasens, Stadt","type":"Kreisfreie_Stadt"},"district":{"key":"07317","name":"Pirmasens, kreisfreie Stadt","type":"Kreisfreie_Stadt"},"federalState":{"key":"07","name":"Rheinland-Pfalz"}},{"name":"Buchsweilerstr.","postalCode":"66953","locality":"Pirmasens","municipality":{"key":"07317000","name":"Pirmasens, Stadt","type":"Kreisfreie_Stadt"},"district":{"key":"07317","name":"Pirmasens, kreisfreie Stadt","type":"Kreisfreie_Stadt"},"federalState":{"key":"07","name":"Rheinland-Pfalz"}},{"name":"Burgstr.","postalCode":"66953","locality":"Pirmasens","municipality":{"key":"07317000","name":"Pirmasens, Stadt","type":"Kreisfreie_Stadt"},"district":{"key":"07317","name":"Pirmasens, kreisfreie Stadt","type":"Kreisfreie_Stadt"},"federalState":{"key":"07","name":"Rheinland-Pfalz"}},{"name":"Carl-Maria-von-Weber-Str.","postalCode":"66955","locality":"Pirmasens","municipality":{"key":"07317000","name":"Pirmasens, Stadt","type":"Kreisfreie_Stadt"},"district":{"key":"07317","name":"Pirmasens, kreisfreie Stadt","type":"Kreisfreie_Stadt"},"federalState":{"key":"07","name":"Rheinland-Pfalz"}},{"name":"Carl-Orff-Str.","postalCode":"66955","locality":"Pirmasens","municipality":{"key":"07317000","name":"Pirmasens, Stadt","type":"Kreisfreie_Stadt"},"district":{"key":"07317","name":"Pirmasens, kreisfreie Stadt","type":"Kreisfreie_Stadt"},"federalState":{"key":"07","name":"Rheinland-Pfalz"}},{"name":"Carl-Schurz-Str.","postalCode":"66953","locality":"Pirmasens","municipality":{"key":"07317000","name":"Pirmasens, Stadt","type":"Kreisfreie_Stadt"},"district":{"key":"07317","name":"Pirmasens, kreisfreie Stadt","type":"Kreisfreie_Stadt"},"federalState":{"key":"07","name":"Rheinland-Pfalz"}},{"name":"Castellstr.","postalCode":"66954","locality":"Pirmasens","municipality":{"key":"07317000","name":"Pirmasens, Stadt","type":"Kreisfreie_Stadt"},"district":{"key":"07317","name":"Pirmasens, kreisfreie Stadt","type":"Kreisfreie_Stadt"},"federalState":{"key":"07","name":"Rheinland-Pfalz"}},{"name":"Charlottenstr.","postalCode":"66955","locality":"Pirmasens","municipality":{"key":"07317000","name":"Pirmasens, Stadt","type":"Kreisfreie_Stadt"},"district":{"key":"07317","name":"Pirmasens, kreisfreie Stadt","type":"Kreisfreie_Stadt"},"federalState":{"key":"07","name":"Rheinland-Pfalz"}},{"name":"Chemnitzer Str.","postalCode":"66955","locality":"Pirmasens","municipality":{"key":"07317000","name":"Pirmasens, Stadt","type":"Kreisfreie_Stadt"},"district":{"key":"07317","name":"Pirmasens, kreisfreie Stadt","type":"Kreisfreie_Stadt"},"federalState":{"key":"07","name":"Rheinland-Pfalz"}},{"name":"Christian-Müller-Str.","postalCode":"66954","locality":"Pirmasens","municipality":{"key":"07317000","name":"Pirmasens, Stadt","type":"Kreisfreie_Stadt"},"district":{"key":"07317","name":"Pirmasens, kreisfreie Stadt","type":"Kreisfreie_Stadt"},"federalState":{"key":"07","name":"Rheinland-Pfalz"}},{"name":"Christiansgasse","postalCode":"66953","locality":"Pirmasens","municipality":{"key":"07317000","name":"Pirmasens, Stadt","type":"Kreisfreie_Stadt"},"district":{"key":"07317","name":"Pirmasens, kreisfreie Stadt","type":"Kreisfreie_Stadt"},"federalState":{"key":"07","name":"Rheinland-Pfalz"}},{"name":"Conrad-Krez-Str.","postalCode":"66953","locality":"Pirmasens","municipality":{"key":"07317000","name":"Pirmasens, Stadt","type":"Kreisfreie_Stadt"},"district":{"key":"07317","name":"Pirmasens, kreisfreie Stadt","type":"Kreisfreie_Stadt"},"federalState":{"key":"07","name":"Rheinland-Pfalz"}},{"name":"Curvenstr.","postalCode":"66953","locality":"Pirmasens","municipality":{"key":"07317000","name":"Pirmasens, Stadt","type":"Kreisfreie_Stadt"},"district":{"key":"07317","name":"Pirmasens, kreisfreie Stadt","type":"Kreisfreie_Stadt"},"federalState":{"key":"07","name":"Rheinland-Pfalz"}},{"name":"Dankelsbachstr.","postalCode":"66953","locality":"Pirmasens","municipality":{"key":"07317000","name":"Pirmasens, Stadt","type":"Kreisfreie_Stadt"},"district":{"key":"07317","name":"Pirmasens, kreisfreie Stadt","type":"Kreisfreie_Stadt"},"federalState":{"key":"07","name":"Rheinland-Pfalz"}},{"name":"Darmstädter Str.","postalCode":"66953","locality":"Pirmasens","municipality":{"key":"07317000","name":"Pirmasens, Stadt","type":"Kreisfreie_Stadt"},"district":{"key":"07317","name":"Pirmasens, kreisfreie Stadt","type":"Kreisfreie_Stadt"},"federalState":{"key":"07","name":"Rheinland-Pfalz"}},{"name":"Darmstätter Platz","postalCode":"66953","locality":"Pirmasens","municipality":{"key":"07317000","name":"Pirmasens, Stadt","type":"Kreisfreie_Stadt"},"district":{"key":"07317","name":"Pirmasens, kreisfreie Stadt","type":"Kreisfreie_Stadt"},"federalState":{"key":"07","name":"Rheinland-Pfalz"}},{"name":"Delaware Avenue","postalCode":"66953","locality":"Pirmasens","municipality":{"key":"07317000","name":"Pirmasens, Stadt","type":"Kreisfreie_Stadt"},"district":{"key":"07317","name":"Pirmasens, kreisfreie Stadt","type":"Kreisfreie_Stadt"},"federalState":{"key":"07","name":"Rheinland-Pfalz"}},{"name":"Denkmalstr.","postalCode":"66954","locality":"Pirmasens","municipality":{"key":"07317000","name":"Pirmasens, Stadt","type":"Kreisfreie_Stadt"},"district":{"key":"07317","name":"Pirmasens, kreisfreie Stadt","type":"Kreisfreie_Stadt"},"federalState":{"key":"07","name":"Rheinland-Pfalz"}},{"name":"Drei Eichen","postalCode":"66955","locality":"Pirmasens","municipality":{"key":"07317000","name":"Pirmasens, Stadt","type":"Kreisfreie_Stadt"},"district":{"key":"07317","name":"Pirmasens, kreisfreie Stadt","type":"Kreisfreie_Stadt"},"federalState":{"key":"07","name":"Rheinland-Pfalz"}},{"name":"Dresdner Str.","postalCode":"66955","locality":"Pirmasens","municipality":{"key":"07317000","name":"Pirmasens, Stadt","type":"Kreisfreie_Stadt"},"district":{"key":"07317","name":"Pirmasens, kreisfreie Stadt","type":"Kreisfreie_Stadt"},"federalState":{"key":"07","name":"Rheinland-Pfalz"}},{"name":"Dr.-Robert-Schelp-Platz","postalCode":"66953","locality":"Pirmasens","municipality":{"key":"07317000","name":"Pirmasens, Stadt","type":"Kreisfreie_Stadt"},"district":{"key":"07317","name":"Pirmasens, kreisfreie Stadt","type":"Kreisfreie_Stadt"},"federalState":{"key":"07","name":"Rheinland-Pfalz"}},{"name":"Dürerstr.","postalCode":"66955","locality":"Pirmasens","municipality":{"key":"07317000","name":"Pirmasens, Stadt","type":"Kreisfreie_Stadt"},"district":{"key":"07317","name":"Pirmasens, kreisfreie Stadt","type":"Kreisfreie_Stadt"},"federalState":{"key":"07","name":"Rheinland-Pfalz"}},{"name":"Efeuweg","postalCode":"66954","locality":"Pirmasens","municipality":{"key":"07317000","name":"Pirmasens, Stadt","type":"Kreisfreie_Stadt"},"district":{"key":"07317","name":"Pirmasens, kreisfreie Stadt","type":"Kreisfreie_Stadt"},"federalState":{"key":"07","name":"Rheinland-Pfalz"}},{"name":"Eichelsbachermühle","postalCode":"66954","locality":"Pirmasens","municipality":{"key":"07317000","name":"Pirmasens, Stadt","type":"Kreisfreie_Stadt"},"district":{"key":"07317","name":"Pirmasens, kreisfreie Stadt","type":"Kreisfreie_Stadt"},"federalState":{"key":"07","name":"Rheinland-Pfalz"}},{"name":"Eichelsbacher Mühle","postalCode":"66954","locality":"Pirmasens","municipality":{"key":"07317000","name":"Pirmasens, Stadt","type":"Kreisfreie_Stadt"},"district":{"key":"07317","name":"Pirmasens, kreisfreie Stadt","type":"Kreisfreie_Stadt"},"federalState":{"key":"07","name":"Rheinland-Pfalz"}},{"name":"Eichelsbacher Str.","postalCode":"66954","locality":"Pirmasens","municipality":{"key":"07317000","name":"Pirmasens, Stadt","type":"Kreisfreie_Stadt"},"district":{"key":"07317","name":"Pirmasens, kreisfreie Stadt","type":"Kreisfreie_Stadt"},"federalState":{"key":"07","name":"Rheinland-Pfalz"}},{"name":"Elisenstr.","postalCode":"66953","locality":"Pirmasens","municipality":{"key":"07317000","name":"Pirmasens, Stadt","type":"Kreisfreie_Stadt"},"district":{"key":"07317","name":"Pirmasens, kreisfreie Stadt","type":"Kreisfreie_Stadt"},"federalState":{"key":"07","name":"Rheinland-Pfalz"}},{"name":"Elsässer Str.","postalCode":"66954","locality":"Pirmasens","municipality":{"key":"07317000","name":"Pirmasens, Stadt","type":"Kreisfreie_Stadt"},"district":{"key":"07317","name":"Pirmasens, kreisfreie Stadt","type":"Kreisfreie_Stadt"},"federalState":{"key":"07","name":"Rheinland-Pfalz"}},{"name":"Emilienstr.","postalCode":"66954","locality":"Pirmasens","municipality":{"key":"07317000","name":"Pirmasens, Stadt","type":"Kreisfreie_Stadt"},"district":{"key":"07317","name":"Pirmasens, kreisfreie Stadt","type":"Kreisfreie_Stadt"},"federalState":{"key":"07","name":"Rheinland-Pfalz"}},{"name":"Emil-Kömmerling-Str.","postalCode":"66954","locality":"Pirmasens","municipality":{"key":"07317000","name":"Pirmasens, Stadt","type":"Kreisfreie_Stadt"},"district":{"key":"07317","name":"Pirmasens, kreisfreie Stadt","type":"Kreisfreie_Stadt"},"federalState":{"key":"07","name":"Rheinland-Pfalz"}},{"name":"Emmersweiler Str.","postalCode":"66954","locality":"Pirmasens","municipality":{"key":"07317000","name":"Pirmasens, Stadt","type":"Kreisfreie_Stadt"},"district":{"key":"07317","name":"Pirmasens, kreisfreie Stadt","type":"Kreisfreie_Stadt"},"federalState":{"key":"07","name":"Rheinland-Pfalz"}},{"name":"Emmichstr.","postalCode":"66955","locality":"Pirmasens","municipality":{"key":"07317000","name":"Pirmasens, Stadt","type":"Kreisfreie_Stadt"},"district":{"key":"07317","name":"Pirmasens, kreisfreie Stadt","type":"Kreisfreie_Stadt"},"federalState":{"key":"07","name":"Rheinland-Pfalz"}},{"name":"Erlenbrunner Str.","postalCode":"66955","locality":"Pirmasens","municipality":{"key":"07317000","name":"Pirmasens, Stadt","type":"Kreisfreie_Stadt"},"district":{"key":"07317","name":"Pirmasens, kreisfreie Stadt","type":"Kreisfreie_Stadt"},"federalState":{"key":"07","name":"Rheinland-Pfalz"}},{"name":"Erlenstr.","postalCode":"66955","locality":"Pirmasens","municipality":{"key":"07317000","name":"Pirmasens, Stadt","type":"Kreisfreie_Stadt"},"district":{"key":"07317","name":"Pirmasens, kreisfreie Stadt","type":"Kreisfreie_Stadt"},"federalState":{"key":"07","name":"Rheinland-Pfalz"}},{"name":"Exerzierplatzstr.","postalCode":"66953","locality":"Pirmasens","municipality":{"key":"07317000","name":"Pirmasens, Stadt","type":"Kreisfreie_Stadt"},"district":{"key":"07317","name":"Pirmasens, kreisfreie Stadt","type":"Kreisfreie_Stadt"},"federalState":{"key":"07","name":"Rheinland-Pfalz"}},{"name":"Eybergweg","postalCode":"66955","locality":"Pirmasens","municipality":{"key":"07317000","name":"Pirmasens, Stadt","type":"Kreisfreie_Stadt"},"district":{"key":"07317","name":"Pirmasens, kreisfreie Stadt","type":"Kreisfreie_Stadt"},"federalState":{"key":"07","name":"Rheinland-Pfalz"}},{"name":"Fahnenstr.","postalCode":"66955","locality":"Pirmasens","municipality":{"key":"07317000","name":"Pirmasens, Stadt","type":"Kreisfreie_Stadt"},"district":{"key":"07317","name":"Pirmasens, kreisfreie Stadt","type":"Kreisfreie_Stadt"},"federalState":{"key":"07","name":"Rheinland-Pfalz"}},{"name":"Fahrstr.","postalCode":"66954","locality":"Pirmasens","municipality":{"key":"07317000","name":"Pirmasens, Stadt","type":"Kreisfreie_Stadt"},"district":{"key":"07317","name":"Pirmasens, kreisfreie Stadt","type":"Kreisfreie_Stadt"},"federalState":{"key":"07","name":"Rheinland-Pfalz"}},{"name":"Fasanenweg","postalCode":"66954","locality":"Pirmasens","municipality":{"key":"07317000","name":"Pirmasens, Stadt","type":"Kreisfreie_Stadt"},"district":{"key":"07317","name":"Pirmasens, kreisfreie Stadt","type":"Kreisfreie_Stadt"},"federalState":{"key":"07","name":"Rheinland-Pfalz"}},{"name":"Fehrbacher Str.","postalCode":"66954","locality":"Pirmasens","municipality":{"key":"07317000","name":"Pirmasens, Stadt","type":"Kreisfreie_Stadt"},"district":{"key":"07317","name":"Pirmasens, kreisfreie Stadt","type":"Kreisfreie_Stadt"},"federalState":{"key":"07","name":"Rheinland-Pfalz"}},{"name":"Feldstr.","postalCode":"66953","locality":"Pirmasens","municipality":{"key":"07317000","name":"Pirmasens, Stadt","type":"Kreisfreie_Stadt"},"district":{"key":"07317","name":"Pirmasens, kreisfreie Stadt","type":"Kreisfreie_Stadt"},"federalState":{"key":"07","name":"Rheinland-Pfalz"}},{"name":"Felsalbstr.","postalCode":"66954","locality":"Pirmasens","municipality":{"key":"07317000","name":"Pirmasens, Stadt","type":"Kreisfreie_Stadt"},"district":{"key":"07317","name":"Pirmasens, kreisfreie Stadt","type":"Kreisfreie_Stadt"},"federalState":{"key":"07","name":"Rheinland-Pfalz"}},{"name":"Felsstr.","postalCode":"66955","locality":"Pirmasens","municipality":{"key":"07317000","name":"Pirmasens, Stadt","type":"Kreisfreie_Stadt"},"district":{"key":"07317","name":"Pirmasens, kreisfreie Stadt","type":"Kreisfreie_Stadt"},"federalState":{"key":"07","name":"Rheinland-Pfalz"}},{"name":"Finsterbachstr.","postalCode":"66955","locality":"Pirmasens","municipality":{"key":"07317000","name":"Pirmasens, Stadt","type":"Kreisfreie_Stadt"},"district":{"key":"07317","name":"Pirmasens, kreisfreie Stadt","type":"Kreisfreie_Stadt"},"federalState":{"key":"07","name":"Rheinland-Pfalz"}},{"name":"Flurstr.","postalCode":"66954","locality":"Pirmasens","municipality":{"key":"07317000","name":"Pirmasens, Stadt","type":"Kreisfreie_Stadt"},"district":{"key":"07317","name":"Pirmasens, kreisfreie Stadt","type":"Kreisfreie_Stadt"},"federalState":{"key":"07","name":"Rheinland-Pfalz"}},{"name":"Forststr.","postalCode":"66955","locality":"Pirmasens","municipality":{"key":"07317000","name":"Pirmasens, Stadt","type":"Kreisfreie_Stadt"},"district":{"key":"07317","name":"Pirmasens, kreisfreie Stadt","type":"Kreisfreie_Stadt"},"federalState":{"key":"07","name":"Rheinland-Pfalz"}},{"name":"Friedensstr.","postalCode":"66954","locality":"Pirmasens","municipality":{"key":"07317000","name":"Pirmasens, Stadt","type":"Kreisfreie_Stadt"},"district":{"key":"07317","name":"Pirmasens, kreisfreie Stadt","type":"Kreisfreie_Stadt"},"federalState":{"key":"07","name":"Rheinland-Pfalz"}},{"name":"Friedhofstr.","postalCode":"66953","locality":"Pirmasens","municipality":{"key":"07317000","name":"Pirmasens, Stadt","type":"Kreisfreie_Stadt"},"district":{"key":"07317","name":"Pirmasens, kreisfreie Stadt","type":"Kreisfreie_Stadt"},"federalState":{"key":"07","name":"Rheinland-Pfalz"}},{"name":"Friedrich-Ebert-Ring","postalCode":"66953","locality":"Pirmasens","municipality":{"key":"07317000","name":"Pirmasens, Stadt","type":"Kreisfreie_Stadt"},"district":{"key":"07317","name":"Pirmasens, kreisfreie Stadt","type":"Kreisfreie_Stadt"},"federalState":{"key":"07","name":"Rheinland-Pfalz"}},{"name":"Friedrichstr.","postalCode":"66955","locality":"Pirmasens","municipality":{"key":"07317000","name":"Pirmasens, Stadt","type":"Kreisfreie_Stadt"},"district":{"key":"07317","name":"Pirmasens, kreisfreie Stadt","type":"Kreisfreie_Stadt"},"federalState":{"key":"07","name":"Rheinland-Pfalz"}},{"name":"Fröhnstr.","postalCode":"66954","locality":"Pirmasens","municipality":{"key":"07317000","name":"Pirmasens, Stadt","type":"Kreisfreie_Stadt"},"district":{"key":"07317","name":"Pirmasens, kreisfreie Stadt","type":"Kreisfreie_Stadt"},"federalState":{"key":"07","name":"Rheinland-Pfalz"}},{"name":"Fröhnstr.","postalCode":"66955","locality":"Pirmasens","municipality":{"key":"07317000","name":"Pirmasens, Stadt","type":"Kreisfreie_Stadt"},"district":{"key":"07317","name":"Pirmasens, kreisfreie Stadt","type":"Kreisfreie_Stadt"},"federalState":{"key":"07","name":"Rheinland-Pfalz"}},{"name":"Frühlingstr.","postalCode":"66954","locality":"Pirmasens","municipality":{"key":"07317000","name":"Pirmasens, Stadt","type":"Kreisfreie_Stadt"},"district":{"key":"07317","name":"Pirmasens, kreisfreie Stadt","type":"Kreisfreie_Stadt"},"federalState":{"key":"07","name":"Rheinland-Pfalz"}},{"name":"Gabelsbergerstr.","postalCode":"66955","locality":"Pirmasens","municipality":{"key":"07317000","name":"Pirmasens, Stadt","type":"Kreisfreie_Stadt"},"district":{"key":"07317","name":"Pirmasens, kreisfreie Stadt","type":"Kreisfreie_Stadt"},"federalState":{"key":"07","name":"Rheinland-Pfalz"}},{"name":"Gartenstr.","postalCode":"66953","locality":"Pirmasens","municipality":{"key":"07317000","name":"Pirmasens, Stadt","type":"Kreisfreie_Stadt"},"district":{"key":"07317","name":"Pirmasens, kreisfreie Stadt","type":"Kreisfreie_Stadt"},"federalState":{"key":"07","name":"Rheinland-Pfalz"}},{"name":"Gärtnerstr.","postalCode":"66953","locality":"Pirmasens","municipality":{"key":"07317000","name":"Pirmasens, Stadt","type":"Kreisfreie_Stadt"},"district":{"key":"07317","name":"Pirmasens, kreisfreie Stadt","type":"Kreisfreie_Stadt"},"federalState":{"key":"07","name":"Rheinland-Pfalz"}},{"name":"Gasstr.","postalCode":"66953","locality":"Pirmasens","municipality":{"key":"07317000","name":"Pirmasens, Stadt","type":"Kreisfreie_Stadt"},"district":{"key":"07317","name":"Pirmasens, kreisfreie Stadt","type":"Kreisfreie_Stadt"},"federalState":{"key":"07","name":"Rheinland-Pfalz"}},{"name":"Gasstr.","postalCode":"66954","locality":"Pirmasens","municipality":{"key":"07317000","name":"Pirmasens, Stadt","type":"Kreisfreie_Stadt"},"district":{"key":"07317","name":"Pirmasens, kreisfreie Stadt","type":"Kreisfreie_Stadt"},"federalState":{"key":"07","name":"Rheinland-Pfalz"}},{"name":"Gefällerweg","postalCode":"66953","locality":"Pirmasens","municipality":{"key":"07317000","name":"Pirmasens, Stadt","type":"Kreisfreie_Stadt"},"district":{"key":"07317","name":"Pirmasens, kreisfreie Stadt","type":"Kreisfreie_Stadt"},"federalState":{"key":"07","name":"Rheinland-Pfalz"}},{"name":"Geopark","postalCode":"66954","locality":"Pirmasens","municipality":{"key":"07317000","name":"Pirmasens, Stadt","type":"Kreisfreie_Stadt"},"district":{"key":"07317","name":"Pirmasens, kreisfreie Stadt","type":"Kreisfreie_Stadt"},"federalState":{"key":"07","name":"Rheinland-Pfalz"}},{"name":"Georgia Avenue","postalCode":"66953","locality":"Pirmasens","municipality":{"key":"07317000","name":"Pirmasens, Stadt","type":"Kreisfreie_Stadt"},"district":{"key":"07317","name":"Pirmasens, kreisfreie Stadt","type":"Kreisfreie_Stadt"},"federalState":{"key":"07","name":"Rheinland-Pfalz"}},{"name":"Gerbergasse","postalCode":"66954","locality":"Pirmasens","municipality":{"key":"07317000","name":"Pirmasens, Stadt","type":"Kreisfreie_Stadt"},"district":{"key":"07317","name":"Pirmasens, kreisfreie Stadt","type":"Kreisfreie_Stadt"},"federalState":{"key":"07","name":"Rheinland-Pfalz"}},{"name":"Gerichtenstr.","postalCode":"66954","locality":"Pirmasens","municipality":{"key":"07317000","name":"Pirmasens, Stadt","type":"Kreisfreie_Stadt"},"district":{"key":"07317","name":"Pirmasens, kreisfreie Stadt","type":"Kreisfreie_Stadt"},"federalState":{"key":"07","name":"Rheinland-Pfalz"}},{"name":"Gersbacher Str.","postalCode":"66954","locality":"Pirmasens","municipality":{"key":"07317000","name":"Pirmasens, Stadt","type":"Kreisfreie_Stadt"},"district":{"key":"07317","name":"Pirmasens, kreisfreie Stadt","type":"Kreisfreie_Stadt"},"federalState":{"key":"07","name":"Rheinland-Pfalz"}},{"name":"Gersbachtalbrücke","postalCode":"66954","locality":"Pirmasens","municipality":{"key":"07317000","name":"Pirmasens, Stadt","type":"Kreisfreie_Stadt"},"district":{"key":"07317","name":"Pirmasens, kreisfreie Stadt","type":"Kreisfreie_Stadt"},"federalState":{"key":"07","name":"Rheinland-Pfalz"}},{"name":"Gersbachtalstr.","postalCode":"66955","locality":"Pirmasens","municipality":{"key":"07317000","name":"Pirmasens, Stadt","type":"Kreisfreie_Stadt"},"district":{"key":"07317","name":"Pirmasens, kreisfreie Stadt","type":"Kreisfreie_Stadt"},"federalState":{"key":"07","name":"Rheinland-Pfalz"}},{"name":"Glasbergstr.","postalCode":"66953","locality":"Pirmasens","municipality":{"key":"07317000","name":"Pirmasens, Stadt","type":"Kreisfreie_Stadt"},"district":{"key":"07317","name":"Pirmasens, kreisfreie Stadt","type":"Kreisfreie_Stadt"},"federalState":{"key":"07","name":"Rheinland-Pfalz"}},{"name":"Glockenstr.","postalCode":"66953","locality":"Pirmasens","municipality":{"key":"07317000","name":"Pirmasens, Stadt","type":"Kreisfreie_Stadt"},"district":{"key":"07317","name":"Pirmasens, kreisfreie Stadt","type":"Kreisfreie_Stadt"},"federalState":{"key":"07","name":"Rheinland-Pfalz"}},{"name":"Gluckstr.","postalCode":"66955","locality":"Pirmasens","municipality":{"key":"07317000","name":"Pirmasens, Stadt","type":"Kreisfreie_Stadt"},"district":{"key":"07317","name":"Pirmasens, kreisfreie Stadt","type":"Kreisfreie_Stadt"},"federalState":{"key":"07","name":"Rheinland-Pfalz"}},{"name":"Goethestr.","postalCode":"66954","locality":"Pirmasens","municipality":{"key":"07317000","name":"Pirmasens, Stadt","type":"Kreisfreie_Stadt"},"district":{"key":"07317","name":"Pirmasens, kreisfreie Stadt","type":"Kreisfreie_Stadt"},"federalState":{"key":"07","name":"Rheinland-Pfalz"}},{"name":"Gräfensteiner Str.","postalCode":"66954","locality":"Pirmasens","municipality":{"key":"07317000","name":"Pirmasens, Stadt","type":"Kreisfreie_Stadt"},"district":{"key":"07317","name":"Pirmasens, kreisfreie Stadt","type":"Kreisfreie_Stadt"},"federalState":{"key":"07","name":"Rheinland-Pfalz"}},{"name":"Großgasse","postalCode":"66954","locality":"Pirmasens","municipality":{"key":"07317000","name":"Pirmasens, Stadt","type":"Kreisfreie_Stadt"},"district":{"key":"07317","name":"Pirmasens, kreisfreie Stadt","type":"Kreisfreie_Stadt"},"federalState":{"key":"07","name":"Rheinland-Pfalz"}},{"name":"Großheimer Str.","postalCode":"66954","locality":"Pirmasens","municipality":{"key":"07317000","name":"Pirmasens, Stadt","type":"Kreisfreie_Stadt"},"district":{"key":"07317","name":"Pirmasens, kreisfreie Stadt","type":"Kreisfreie_Stadt"},"federalState":{"key":"07","name":"Rheinland-Pfalz"}},{"name":"Großheimer Talbrücke","postalCode":"66954","locality":"Pirmasens","municipality":{"key":"07317000","name":"Pirmasens, Stadt","type":"Kreisfreie_Stadt"},"district":{"key":"07317","name":"Pirmasens, kreisfreie Stadt","type":"Kreisfreie_Stadt"},"federalState":{"key":"07","name":"Rheinland-Pfalz"}},{"name":"Gustavstr.","postalCode":"66954","locality":"Pirmasens","municipality":{"key":"07317000","name":"Pirmasens, Stadt","type":"Kreisfreie_Stadt"},"district":{"key":"07317","name":"Pirmasens, kreisfreie Stadt","type":"Kreisfreie_Stadt"},"federalState":{"key":"07","name":"Rheinland-Pfalz"}},{"name":"Güterbahnhofstr.","postalCode":"66953","locality":"Pirmasens","municipality":{"key":"07317000","name":"Pirmasens, Stadt","type":"Kreisfreie_Stadt"},"district":{"key":"07317","name":"Pirmasens, kreisfreie Stadt","type":"Kreisfreie_Stadt"},"federalState":{"key":"07","name":"Rheinland-Pfalz"}},{"name":"Hanauer Str.","postalCode":"66953","locality":"Pirmasens","municipality":{"key":"07317000","name":"Pirmasens, Stadt","type":"Kreisfreie_Stadt"},"district":{"key":"07317","name":"Pirmasens, kreisfreie Stadt","type":"Kreisfreie_Stadt"},"federalState":{"key":"07","name":"Rheinland-Pfalz"}},{"name":"Händelstr.","postalCode":"66955","locality":"Pirmasens","municipality":{"key":"07317000","name":"Pirmasens, Stadt","type":"Kreisfreie_Stadt"},"district":{"key":"07317","name":"Pirmasens, kreisfreie Stadt","type":"Kreisfreie_Stadt"},"federalState":{"key":"07","name":"Rheinland-Pfalz"}},{"name":"Hanfstr.","postalCode":"66954","locality":"Pirmasens","municipality":{"key":"07317000","name":"Pirmasens, Stadt","type":"Kreisfreie_Stadt"},"district":{"key":"07317","name":"Pirmasens, kreisfreie Stadt","type":"Kreisfreie_Stadt"},"federalState":{"key":"07","name":"Rheinland-Pfalz"}},{"name":"Hangstr.","postalCode":"66955","locality":"Pirmasens","municipality":{"key":"07317000","name":"Pirmasens, Stadt","type":"Kreisfreie_Stadt"},"district":{"key":"07317","name":"Pirmasens, kreisfreie Stadt","type":"Kreisfreie_Stadt"},"federalState":{"key":"07","name":"Rheinland-Pfalz"}},{"name":"Hanitzhalde","postalCode":"66953","locality":"Pirmasens","municipality":{"key":"07317000","name":"Pirmasens, Stadt","type":"Kreisfreie_Stadt"},"district":{"key":"07317","name":"Pirmasens, kreisfreie Stadt","type":"Kreisfreie_Stadt"},"federalState":{"key":"07","name":"Rheinland-Pfalz"}},{"name":"Hans-Sachs-Str.","postalCode":"66955","locality":"Pirmasens","municipality":{"key":"07317000","name":"Pirmasens, Stadt","type":"Kreisfreie_Stadt"},"district":{"key":"07317","name":"Pirmasens, kreisfreie Stadt","type":"Kreisfreie_Stadt"},"federalState":{"key":"07","name":"Rheinland-Pfalz"}},{"name":"Harzhütterstr.","postalCode":"66954","locality":"Pirmasens","municipality":{"key":"07317000","name":"Pirmasens, Stadt","type":"Kreisfreie_Stadt"},"district":{"key":"07317","name":"Pirmasens, kreisfreie Stadt","type":"Kreisfreie_Stadt"},"federalState":{"key":"07","name":"Rheinland-Pfalz"}},{"name":"Haseneckstr.","postalCode":"66953","locality":"Pirmasens","municipality":{"key":"07317000","name":"Pirmasens, Stadt","type":"Kreisfreie_Stadt"},"district":{"key":"07317","name":"Pirmasens, kreisfreie Stadt","type":"Kreisfreie_Stadt"},"federalState":{"key":"07","name":"Rheinland-Pfalz"}},{"name":"Hauptstr.","postalCode":"66953","locality":"Pirmasens","municipality":{"key":"07317000","name":"Pirmasens, Stadt","type":"Kreisfreie_Stadt"},"district":{"key":"07317","name":"Pirmasens, kreisfreie Stadt","type":"Kreisfreie_Stadt"},"federalState":{"key":"07","name":"Rheinland-Pfalz"}},{"name":"Haydnstr.","postalCode":"66955","locality":"Pirmasens","municipality":{"key":"07317000","name":"Pirmasens, Stadt","type":"Kreisfreie_Stadt"},"district":{"key":"07317","name":"Pirmasens, kreisfreie Stadt","type":"Kreisfreie_Stadt"},"federalState":{"key":"07","name":"Rheinland-Pfalz"}},{"name":"Heimatpfad","postalCode":"66953","locality":"Pirmasens","municipality":{"key":"07317000","name":"Pirmasens, Stadt","type":"Kreisfreie_Stadt"},"district":{"key":"07317","name":"Pirmasens, kreisfreie Stadt","type":"Kreisfreie_Stadt"},"federalState":{"key":"07","name":"Rheinland-Pfalz"}},{"name":"Heinrich-Kimmle-Weg","postalCode":"66953","locality":"Pirmasens","municipality":{"key":"07317000","name":"Pirmasens, Stadt","type":"Kreisfreie_Stadt"},"district":{"key":"07317","name":"Pirmasens, kreisfreie Stadt","type":"Kreisfreie_Stadt"},"federalState":{"key":"07","name":"Rheinland-Pfalz"}},{"name":"Hengsberger Str.","postalCode":"66954","locality":"Pirmasens","municipality":{"key":"07317000","name":"Pirmasens, Stadt","type":"Kreisfreie_Stadt"},"district":{"key":"07317","name":"Pirmasens, kreisfreie Stadt","type":"Kreisfreie_Stadt"},"federalState":{"key":"07","name":"Rheinland-Pfalz"}},{"name":"Hermannstr.","postalCode":"66953","locality":"Pirmasens","municipality":{"key":"07317000","name":"Pirmasens, Stadt","type":"Kreisfreie_Stadt"},"district":{"key":"07317","name":"Pirmasens, kreisfreie Stadt","type":"Kreisfreie_Stadt"},"federalState":{"key":"07","name":"Rheinland-Pfalz"}},{"name":"Hermannstr.","postalCode":"66954","locality":"Pirmasens","municipality":{"key":"07317000","name":"Pirmasens, Stadt","type":"Kreisfreie_Stadt"},"district":{"key":"07317","name":"Pirmasens, kreisfreie Stadt","type":"Kreisfreie_Stadt"},"federalState":{"key":"07","name":"Rheinland-Pfalz"}},{"name":"Herzogstr.","postalCode":"66953","locality":"Pirmasens","municipality":{"key":"07317000","name":"Pirmasens, Stadt","type":"Kreisfreie_Stadt"},"district":{"key":"07317","name":"Pirmasens, kreisfreie Stadt","type":"Kreisfreie_Stadt"},"federalState":{"key":"07","name":"Rheinland-Pfalz"}},{"name":"Hexenklamm","postalCode":"66954","locality":"Pirmasens","municipality":{"key":"07317000","name":"Pirmasens, Stadt","type":"Kreisfreie_Stadt"},"district":{"key":"07317","name":"Pirmasens, kreisfreie Stadt","type":"Kreisfreie_Stadt"},"federalState":{"key":"07","name":"Rheinland-Pfalz"}},{"name":"Hillstr.","postalCode":"66953","locality":"Pirmasens","municipality":{"key":"07317000","name":"Pirmasens, Stadt","type":"Kreisfreie_Stadt"},"district":{"key":"07317","name":"Pirmasens, kreisfreie Stadt","type":"Kreisfreie_Stadt"},"federalState":{"key":"07","name":"Rheinland-Pfalz"}},{"name":"Hirschstr.","postalCode":"66953","locality":"Pirmasens","municipality":{"key":"07317000","name":"Pirmasens, Stadt","type":"Kreisfreie_Stadt"},"district":{"key":"07317","name":"Pirmasens, kreisfreie Stadt","type":"Kreisfreie_Stadt"},"federalState":{"key":"07","name":"Rheinland-Pfalz"}},{"name":"Hirtengasse","postalCode":"66953","locality":"Pirmasens","municipality":{"key":"07317000","name":"Pirmasens, Stadt","type":"Kreisfreie_Stadt"},"district":{"key":"07317","name":"Pirmasens, kreisfreie Stadt","type":"Kreisfreie_Stadt"},"federalState":{"key":"07","name":"Rheinland-Pfalz"}},{"name":"Hochwaldstr.","postalCode":"66954","locality":"Pirmasens","municipality":{"key":"07317000","name":"Pirmasens, Stadt","type":"Kreisfreie_Stadt"},"district":{"key":"07317","name":"Pirmasens, kreisfreie Stadt","type":"Kreisfreie_Stadt"},"federalState":{"key":"07","name":"Rheinland-Pfalz"}},{"name":"Höfelsgasse","postalCode":"66953","locality":"Pirmasens","municipality":{"key":"07317000","name":"Pirmasens, Stadt","type":"Kreisfreie_Stadt"},"district":{"key":"07317","name":"Pirmasens, kreisfreie Stadt","type":"Kreisfreie_Stadt"},"federalState":{"key":"07","name":"Rheinland-Pfalz"}},{"name":"Hofpfad","postalCode":"66955","locality":"Pirmasens","municipality":{"key":"07317000","name":"Pirmasens, Stadt","type":"Kreisfreie_Stadt"},"district":{"key":"07317","name":"Pirmasens, kreisfreie Stadt","type":"Kreisfreie_Stadt"},"federalState":{"key":"07","name":"Rheinland-Pfalz"}},{"name":"Hofstr.","postalCode":"66955","locality":"Pirmasens","municipality":{"key":"07317000","name":"Pirmasens, Stadt","type":"Kreisfreie_Stadt"},"district":{"key":"07317","name":"Pirmasens, kreisfreie Stadt","type":"Kreisfreie_Stadt"},"federalState":{"key":"07","name":"Rheinland-Pfalz"}},{"name":"Hohenzollernstr.","postalCode":"66953","locality":"Pirmasens","municipality":{"key":"07317000","name":"Pirmasens, Stadt","type":"Kreisfreie_Stadt"},"district":{"key":"07317","name":"Pirmasens, kreisfreie Stadt","type":"Kreisfreie_Stadt"},"federalState":{"key":"07","name":"Rheinland-Pfalz"}},{"name":"Hohmärtelstr.","postalCode":"66954","locality":"Pirmasens","municipality":{"key":"07317000","name":"Pirmasens, Stadt","type":"Kreisfreie_Stadt"},"district":{"key":"07317","name":"Pirmasens, kreisfreie Stadt","type":"Kreisfreie_Stadt"},"federalState":{"key":"07","name":"Rheinland-Pfalz"}},{"name":"Höhstr.","postalCode":"66953","locality":"Pirmasens","municipality":{"key":"07317000","name":"Pirmasens, Stadt","type":"Kreisfreie_Stadt"},"district":{"key":"07317","name":"Pirmasens, kreisfreie Stadt","type":"Kreisfreie_Stadt"},"federalState":{"key":"07","name":"Rheinland-Pfalz"}},{"name":"Höhstr.","postalCode":"66955","locality":"Pirmasens","municipality":{"key":"07317000","name":"Pirmasens, Stadt","type":"Kreisfreie_Stadt"},"district":{"key":"07317","name":"Pirmasens, kreisfreie Stadt","type":"Kreisfreie_Stadt"},"federalState":{"key":"07","name":"Rheinland-Pfalz"}},{"name":"Hopfenstr.","postalCode":"66954","locality":"Pirmasens","municipality":{"key":"07317000","name":"Pirmasens, Stadt","type":"Kreisfreie_Stadt"},"district":{"key":"07317","name":"Pirmasens, kreisfreie Stadt","type":"Kreisfreie_Stadt"},"federalState":{"key":"07","name":"Rheinland-Pfalz"}},{"name":"Horbacher Weg","postalCode":"66955","locality":"Pirmasens","municipality":{"key":"07317000","name":"Pirmasens, Stadt","type":"Kreisfreie_Stadt"},"district":{"key":"07317","name":"Pirmasens, kreisfreie Stadt","type":"Kreisfreie_Stadt"},"federalState":{"key":"07","name":"Rheinland-Pfalz"}},{"name":"Horebstr.","postalCode":"66953","locality":"Pirmasens","municipality":{"key":"07317000","name":"Pirmasens, Stadt","type":"Kreisfreie_Stadt"},"district":{"key":"07317","name":"Pirmasens, kreisfreie Stadt","type":"Kreisfreie_Stadt"},"federalState":{"key":"07","name":"Rheinland-Pfalz"}},{"name":"Hornbacher Str.","postalCode":"66955","locality":"Pirmasens","municipality":{"key":"07317000","name":"Pirmasens, Stadt","type":"Kreisfreie_Stadt"},"district":{"key":"07317","name":"Pirmasens, kreisfreie Stadt","type":"Kreisfreie_Stadt"},"federalState":{"key":"07","name":"Rheinland-Pfalz"}},{"name":"Hügelstr.","postalCode":"66953","locality":"Pirmasens","municipality":{"key":"07317000","name":"Pirmasens, Stadt","type":"Kreisfreie_Stadt"},"district":{"key":"07317","name":"Pirmasens, kreisfreie Stadt","type":"Kreisfreie_Stadt"},"federalState":{"key":"07","name":"Rheinland-Pfalz"}},{"name":"Husterhöhstr.","postalCode":"66953","locality":"Pirmasens","municipality":{"key":"07317000","name":"Pirmasens, Stadt","type":"Kreisfreie_Stadt"},"district":{"key":"07317","name":"Pirmasens, kreisfreie Stadt","type":"Kreisfreie_Stadt"},"federalState":{"key":"07","name":"Rheinland-Pfalz"}},{"name":"Im Dellbrunnen","postalCode":"66954","locality":"Pirmasens","municipality":{"key":"07317000","name":"Pirmasens, Stadt","type":"Kreisfreie_Stadt"},"district":{"key":"07317","name":"Pirmasens, kreisfreie Stadt","type":"Kreisfreie_Stadt"},"federalState":{"key":"07","name":"Rheinland-Pfalz"}},{"name":"Im Erlenteich","postalCode":"66955","locality":"Pirmasens","municipality":{"key":"07317000","name":"Pirmasens, Stadt","type":"Kreisfreie_Stadt"},"district":{"key":"07317","name":"Pirmasens, kreisfreie Stadt","type":"Kreisfreie_Stadt"},"federalState":{"key":"07","name":"Rheinland-Pfalz"}},{"name":"Im Finkengarten","postalCode":"66954","locality":"Pirmasens","municipality":{"key":"07317000","name":"Pirmasens, Stadt","type":"Kreisfreie_Stadt"},"district":{"key":"07317","name":"Pirmasens, kreisfreie Stadt","type":"Kreisfreie_Stadt"},"federalState":{"key":"07","name":"Rheinland-Pfalz"}},{"name":"Im Gehörnerwald","postalCode":"66955","locality":"Pirmasens","municipality":{"key":"07317000","name":"Pirmasens, Stadt","type":"Kreisfreie_Stadt"},"district":{"key":"07317","name":"Pirmasens, kreisfreie Stadt","type":"Kreisfreie_Stadt"},"federalState":{"key":"07","name":"Rheinland-Pfalz"}},{"name":"Im Grundbirngarten","postalCode":"66953","locality":"Pirmasens","municipality":{"key":"07317000","name":"Pirmasens, Stadt","type":"Kreisfreie_Stadt"},"district":{"key":"07317","name":"Pirmasens, kreisfreie Stadt","type":"Kreisfreie_Stadt"},"federalState":{"key":"07","name":"Rheinland-Pfalz"}},{"name":"Im Grunewald","postalCode":"66955","locality":"Pirmasens","municipality":{"key":"07317000","name":"Pirmasens, Stadt","type":"Kreisfreie_Stadt"},"district":{"key":"07317","name":"Pirmasens, kreisfreie Stadt","type":"Kreisfreie_Stadt"},"federalState":{"key":"07","name":"Rheinland-Pfalz"}},{"name":"Im Hafergarten","postalCode":"66954","locality":"Pirmasens","municipality":{"key":"07317000","name":"Pirmasens, Stadt","type":"Kreisfreie_Stadt"},"district":{"key":"07317","name":"Pirmasens, kreisfreie Stadt","type":"Kreisfreie_Stadt"},"federalState":{"key":"07","name":"Rheinland-Pfalz"}},{"name":"Im Hirschenteich","postalCode":"66954","locality":"Pirmasens","municipality":{"key":"07317000","name":"Pirmasens, Stadt","type":"Kreisfreie_Stadt"},"district":{"key":"07317","name":"Pirmasens, kreisfreie Stadt","type":"Kreisfreie_Stadt"},"federalState":{"key":"07","name":"Rheinland-Pfalz"}},{"name":"Im Keltenwoog","postalCode":"66954","locality":"Pirmasens","municipality":{"key":"07317000","name":"Pirmasens, Stadt","type":"Kreisfreie_Stadt"},"district":{"key":"07317","name":"Pirmasens, kreisfreie Stadt","type":"Kreisfreie_Stadt"},"federalState":{"key":"07","name":"Rheinland-Pfalz"}},{"name":"Im Neuen Feld","postalCode":"66955","locality":"Pirmasens","municipality":{"key":"07317000","name":"Pirmasens, Stadt","type":"Kreisfreie_Stadt"},"district":{"key":"07317","name":"Pirmasens, kreisfreie Stadt","type":"Kreisfreie_Stadt"},"federalState":{"key":"07","name":"Rheinland-Pfalz"}},{"name":"Im Schänzel","postalCode":"66955","locality":"Pirmasens","municipality":{"key":"07317000","name":"Pirmasens, Stadt","type":"Kreisfreie_Stadt"},"district":{"key":"07317","name":"Pirmasens, kreisfreie Stadt","type":"Kreisfreie_Stadt"},"federalState":{"key":"07","name":"Rheinland-Pfalz"}},{"name":"Im Scheuerbusch","postalCode":"66954","locality":"Pirmasens","municipality":{"key":"07317000","name":"Pirmasens, Stadt","type":"Kreisfreie_Stadt"},"district":{"key":"07317","name":"Pirmasens, kreisfreie Stadt","type":"Kreisfreie_Stadt"},"federalState":{"key":"07","name":"Rheinland-Pfalz"}},{"name":"Im Steinacker","postalCode":"66954","locality":"Pirmasens","municipality":{"key":"07317000","name":"Pirmasens, Stadt","type":"Kreisfreie_Stadt"},"district":{"key":"07317","name":"Pirmasens, kreisfreie Stadt","type":"Kreisfreie_Stadt"},"federalState":{"key":"07","name":"Rheinland-Pfalz"}},{"name":"Im Waschtal","postalCode":"66955","locality":"Pirmasens","municipality":{"key":"07317000","name":"Pirmasens, Stadt","type":"Kreisfreie_Stadt"},"district":{"key":"07317","name":"Pirmasens, kreisfreie Stadt","type":"Kreisfreie_Stadt"},"federalState":{"key":"07","name":"Rheinland-Pfalz"}},{"name":"Im Wiesel","postalCode":"66954","locality":"Pirmasens","municipality":{"key":"07317000","name":"Pirmasens, Stadt","type":"Kreisfreie_Stadt"},"district":{"key":"07317","name":"Pirmasens, kreisfreie Stadt","type":"Kreisfreie_Stadt"},"federalState":{"key":"07","name":"Rheinland-Pfalz"}},{"name":"In den Aspen","postalCode":"66954","locality":"Pirmasens","municipality":{"key":"07317000","name":"Pirmasens, Stadt","type":"Kreisfreie_Stadt"},"district":{"key":"07317","name":"Pirmasens, kreisfreie Stadt","type":"Kreisfreie_Stadt"},"federalState":{"key":"07","name":"Rheinland-Pfalz"}},{"name":"In den Birken","postalCode":"66953","locality":"Pirmasens","municipality":{"key":"07317000","name":"Pirmasens, Stadt","type":"Kreisfreie_Stadt"},"district":{"key":"07317","name":"Pirmasens, kreisfreie Stadt","type":"Kreisfreie_Stadt"},"federalState":{"key":"07","name":"Rheinland-Pfalz"}},{"name":"In den Birkenäckern","postalCode":"66953","locality":"Pirmasens","municipality":{"key":"07317000","name":"Pirmasens, Stadt","type":"Kreisfreie_Stadt"},"district":{"key":"07317","name":"Pirmasens, kreisfreie Stadt","type":"Kreisfreie_Stadt"},"federalState":{"key":"07","name":"Rheinland-Pfalz"}},{"name":"In den Buchen","postalCode":"66953","locality":"Pirmasens","municipality":{"key":"07317000","name":"Pirmasens, Stadt","type":"Kreisfreie_Stadt"},"district":{"key":"07317","name":"Pirmasens, kreisfreie Stadt","type":"Kreisfreie_Stadt"},"federalState":{"key":"07","name":"Rheinland-Pfalz"}},{"name":"In den Eichen","postalCode":"66953","locality":"Pirmasens","municipality":{"key":"07317000","name":"Pirmasens, Stadt","type":"Kreisfreie_Stadt"},"district":{"key":"07317","name":"Pirmasens, kreisfreie Stadt","type":"Kreisfreie_Stadt"},"federalState":{"key":"07","name":"Rheinland-Pfalz"}},{"name":"In den Tannen","postalCode":"66953","locality":"Pirmasens","municipality":{"key":"07317000","name":"Pirmasens, Stadt","type":"Kreisfreie_Stadt"},"district":{"key":"07317","name":"Pirmasens, kreisfreie Stadt","type":"Kreisfreie_Stadt"},"federalState":{"key":"07","name":"Rheinland-Pfalz"}},{"name":"In der Fumbach","postalCode":"66953","locality":"Pirmasens","municipality":{"key":"07317000","name":"Pirmasens, Stadt","type":"Kreisfreie_Stadt"},"district":{"key":"07317","name":"Pirmasens, kreisfreie Stadt","type":"Kreisfreie_Stadt"},"federalState":{"key":"07","name":"Rheinland-Pfalz"}},{"name":"In der Gutenbach","postalCode":"66955","locality":"Pirmasens","municipality":{"key":"07317000","name":"Pirmasens, Stadt","type":"Kreisfreie_Stadt"},"district":{"key":"07317","name":"Pirmasens, kreisfreie Stadt","type":"Kreisfreie_Stadt"},"federalState":{"key":"07","name":"Rheinland-Pfalz"}},{"name":"In der Herget","postalCode":"66955","locality":"Pirmasens","municipality":{"key":"07317000","name":"Pirmasens, Stadt","type":"Kreisfreie_Stadt"},"district":{"key":"07317","name":"Pirmasens, kreisfreie Stadt","type":"Kreisfreie_Stadt"},"federalState":{"key":"07","name":"Rheinland-Pfalz"}},{"name":"In der Litzelbach","postalCode":"66955","locality":"Pirmasens","municipality":{"key":"07317000","name":"Pirmasens, Stadt","type":"Kreisfreie_Stadt"},"district":{"key":"07317","name":"Pirmasens, kreisfreie Stadt","type":"Kreisfreie_Stadt"},"federalState":{"key":"07","name":"Rheinland-Pfalz"}},{"name":"In der Walsterwiese","postalCode":"66955","locality":"Pirmasens","municipality":{"key":"07317000","name":"Pirmasens, Stadt","type":"Kreisfreie_Stadt"},"district":{"key":"07317","name":"Pirmasens, kreisfreie Stadt","type":"Kreisfreie_Stadt"},"federalState":{"key":"07","name":"Rheinland-Pfalz"}},{"name":"In der Waltersbach","postalCode":"66955","locality":"Pirmasens","municipality":{"key":"07317000","name":"Pirmasens, Stadt","type":"Kreisfreie_Stadt"},"district":{"key":"07317","name":"Pirmasens, kreisfreie Stadt","type":"Kreisfreie_Stadt"},"federalState":{"key":"07","name":"Rheinland-Pfalz"}},{"name":"Jahnstr.","postalCode":"66955","locality":"Pirmasens","municipality":{"key":"07317000","name":"Pirmasens, Stadt","type":"Kreisfreie_Stadt"},"district":{"key":"07317","name":"Pirmasens, kreisfreie Stadt","type":"Kreisfreie_Stadt"},"federalState":{"key":"07","name":"Rheinland-Pfalz"}},{"name":"Jakob-Sandt-Str.","postalCode":"66954","locality":"Pirmasens","municipality":{"key":"07317000","name":"Pirmasens, Stadt","type":"Kreisfreie_Stadt"},"district":{"key":"07317","name":"Pirmasens, kreisfreie Stadt","type":"Kreisfreie_Stadt"},"federalState":{"key":"07","name":"Rheinland-Pfalz"}},{"name":"Jakob-Schunk-Str.","postalCode":"66953","locality":"Pirmasens","municipality":{"key":"07317000","name":"Pirmasens, Stadt","type":"Kreisfreie_Stadt"},"district":{"key":"07317","name":"Pirmasens, kreisfreie Stadt","type":"Kreisfreie_Stadt"},"federalState":{"key":"07","name":"Rheinland-Pfalz"}},{"name":"Jakobstr.","postalCode":"66954","locality":"Pirmasens","municipality":{"key":"07317000","name":"Pirmasens, Stadt","type":"Kreisfreie_Stadt"},"district":{"key":"07317","name":"Pirmasens, kreisfreie Stadt","type":"Kreisfreie_Stadt"},"federalState":{"key":"07","name":"Rheinland-Pfalz"}},{"name":"Johannes-Brahms-Str.","postalCode":"66955","locality":"Pirmasens","municipality":{"key":"07317000","name":"Pirmasens, Stadt","type":"Kreisfreie_Stadt"},"district":{"key":"07317","name":"Pirmasens, kreisfreie Stadt","type":"Kreisfreie_Stadt"},"federalState":{"key":"07","name":"Rheinland-Pfalz"}},{"name":"Johannes-Kepler-Str.","postalCode":"66953","locality":"Pirmasens","municipality":{"key":"07317000","name":"Pirmasens, Stadt","type":"Kreisfreie_Stadt"},"district":{"key":"07317","name":"Pirmasens, kreisfreie Stadt","type":"Kreisfreie_Stadt"},"federalState":{"key":"07","name":"Rheinland-Pfalz"}},{"name":"Johannesstr.","postalCode":"66955","locality":"Pirmasens","municipality":{"key":"07317000","name":"Pirmasens, Stadt","type":"Kreisfreie_Stadt"},"district":{"key":"07317","name":"Pirmasens, kreisfreie Stadt","type":"Kreisfreie_Stadt"},"federalState":{"key":"07","name":"Rheinland-Pfalz"}},{"name":"Johann-Sebastian-Bach-Str.","postalCode":"66955","locality":"Pirmasens","municipality":{"key":"07317000","name":"Pirmasens, Stadt","type":"Kreisfreie_Stadt"},"district":{"key":"07317","name":"Pirmasens, kreisfreie Stadt","type":"Kreisfreie_Stadt"},"federalState":{"key":"07","name":"Rheinland-Pfalz"}},{"name":"Joseph-Krekeler-Platz","postalCode":"66953","locality":"Pirmasens","municipality":{"key":"07317000","name":"Pirmasens, Stadt","type":"Kreisfreie_Stadt"},"district":{"key":"07317","name":"Pirmasens, kreisfreie Stadt","type":"Kreisfreie_Stadt"},"federalState":{"key":"07","name":"Rheinland-Pfalz"}},{"name":"Joßstr.","postalCode":"66953","locality":"Pirmasens","municipality":{"key":"07317000","name":"Pirmasens, Stadt","type":"Kreisfreie_Stadt"},"district":{"key":"07317","name":"Pirmasens, kreisfreie Stadt","type":"Kreisfreie_Stadt"},"federalState":{"key":"07","name":"Rheinland-Pfalz"}},{"name":"Kaffeegasse","postalCode":"66953","locality":"Pirmasens","municipality":{"key":"07317000","name":"Pirmasens, Stadt","type":"Kreisfreie_Stadt"},"district":{"key":"07317","name":"Pirmasens, kreisfreie Stadt","type":"Kreisfreie_Stadt"},"federalState":{"key":"07","name":"Rheinland-Pfalz"}},{"name":"Kaiserplatz","postalCode":"66955","locality":"Pirmasens","municipality":{"key":"07317000","name":"Pirmasens, Stadt","type":"Kreisfreie_Stadt"},"district":{"key":"07317","name":"Pirmasens, kreisfreie Stadt","type":"Kreisfreie_Stadt"},"federalState":{"key":"07","name":"Rheinland-Pfalz"}},{"name":"Kaiserstr.","postalCode":"66955","locality":"Pirmasens","municipality":{"key":"07317000","name":"Pirmasens, Stadt","type":"Kreisfreie_Stadt"},"district":{"key":"07317","name":"Pirmasens, kreisfreie Stadt","type":"Kreisfreie_Stadt"},"federalState":{"key":"07","name":"Rheinland-Pfalz"}},{"name":"Kantstr.","postalCode":"66953","locality":"Pirmasens","municipality":{"key":"07317000","name":"Pirmasens, Stadt","type":"Kreisfreie_Stadt"},"district":{"key":"07317","name":"Pirmasens, kreisfreie Stadt","type":"Kreisfreie_Stadt"},"federalState":{"key":"07","name":"Rheinland-Pfalz"}},{"name":"Kanzelstr.","postalCode":"66955","locality":"Pirmasens","municipality":{"key":"07317000","name":"Pirmasens, Stadt","type":"Kreisfreie_Stadt"},"district":{"key":"07317","name":"Pirmasens, kreisfreie Stadt","type":"Kreisfreie_Stadt"},"federalState":{"key":"07","name":"Rheinland-Pfalz"}},{"name":"Karl-Matheis-Platz","postalCode":"66954","locality":"Pirmasens","municipality":{"key":"07317000","name":"Pirmasens, Stadt","type":"Kreisfreie_Stadt"},"district":{"key":"07317","name":"Pirmasens, kreisfreie Stadt","type":"Kreisfreie_Stadt"},"federalState":{"key":"07","name":"Rheinland-Pfalz"}},{"name":"Karl-Rheinwalt-Ring","postalCode":"66953","locality":"Pirmasens","municipality":{"key":"07317000","name":"Pirmasens, Stadt","type":"Kreisfreie_Stadt"},"district":{"key":"07317","name":"Pirmasens, kreisfreie Stadt","type":"Kreisfreie_Stadt"},"federalState":{"key":"07","name":"Rheinland-Pfalz"}},{"name":"Karlstr.","postalCode":"66954","locality":"Pirmasens","municipality":{"key":"07317000","name":"Pirmasens, Stadt","type":"Kreisfreie_Stadt"},"district":{"key":"07317","name":"Pirmasens, kreisfreie Stadt","type":"Kreisfreie_Stadt"},"federalState":{"key":"07","name":"Rheinland-Pfalz"}},{"name":"Karl-Theodor-Str.","postalCode":"66954","locality":"Pirmasens","municipality":{"key":"07317000","name":"Pirmasens, Stadt","type":"Kreisfreie_Stadt"},"district":{"key":"07317","name":"Pirmasens, kreisfreie Stadt","type":"Kreisfreie_Stadt"},"federalState":{"key":"07","name":"Rheinland-Pfalz"}},{"name":"Karolinenstr.","postalCode":"66955","locality":"Pirmasens","municipality":{"key":"07317000","name":"Pirmasens, Stadt","type":"Kreisfreie_Stadt"},"district":{"key":"07317","name":"Pirmasens, kreisfreie Stadt","type":"Kreisfreie_Stadt"},"federalState":{"key":"07","name":"Rheinland-Pfalz"}},{"name":"Kastanienweg","postalCode":"66953","locality":"Pirmasens","municipality":{"key":"07317000","name":"Pirmasens, Stadt","type":"Kreisfreie_Stadt"},"district":{"key":"07317","name":"Pirmasens, kreisfreie Stadt","type":"Kreisfreie_Stadt"},"federalState":{"key":"07","name":"Rheinland-Pfalz"}},{"name":"Käthe-Dassler-Kreisel","postalCode":"66953","locality":"Pirmasens","municipality":{"key":"07317000","name":"Pirmasens, Stadt","type":"Kreisfreie_Stadt"},"district":{"key":"07317","name":"Pirmasens, kreisfreie Stadt","type":"Kreisfreie_Stadt"},"federalState":{"key":"07","name":"Rheinland-Pfalz"}},{"name":"Käthe-Kollwitz-Str.","postalCode":"66955","locality":"Pirmasens","municipality":{"key":"07317000","name":"Pirmasens, Stadt","type":"Kreisfreie_Stadt"},"district":{"key":"07317","name":"Pirmasens, kreisfreie Stadt","type":"Kreisfreie_Stadt"},"federalState":{"key":"07","name":"Rheinland-Pfalz"}},{"name":"Kettrichhofstr.","postalCode":"66955","locality":"Pirmasens","municipality":{"key":"07317000","name":"Pirmasens, Stadt","type":"Kreisfreie_Stadt"},"district":{"key":"07317","name":"Pirmasens, kreisfreie Stadt","type":"Kreisfreie_Stadt"},"federalState":{"key":"07","name":"Rheinland-Pfalz"}},{"name":"Kindergartenstr.","postalCode":"66954","locality":"Pirmasens","municipality":{"key":"07317000","name":"Pirmasens, Stadt","type":"Kreisfreie_Stadt"},"district":{"key":"07317","name":"Pirmasens, kreisfreie Stadt","type":"Kreisfreie_Stadt"},"federalState":{"key":"07","name":"Rheinland-Pfalz"}},{"name":"Kirchbergstr.","postalCode":"66955","locality":"Pirmasens","municipality":{"key":"07317000","name":"Pirmasens, Stadt","type":"Kreisfreie_Stadt"},"district":{"key":"07317","name":"Pirmasens, kreisfreie Stadt","type":"Kreisfreie_Stadt"},"federalState":{"key":"07","name":"Rheinland-Pfalz"}},{"name":"Kirchstr.","postalCode":"66955","locality":"Pirmasens","municipality":{"key":"07317000","name":"Pirmasens, Stadt","type":"Kreisfreie_Stadt"},"district":{"key":"07317","name":"Pirmasens, kreisfreie Stadt","type":"Kreisfreie_Stadt"},"federalState":{"key":"07","name":"Rheinland-Pfalz"}},{"name":"Klosterstr.","postalCode":"66953","locality":"Pirmasens","municipality":{"key":"07317000","name":"Pirmasens, Stadt","type":"Kreisfreie_Stadt"},"district":{"key":"07317","name":"Pirmasens, kreisfreie Stadt","type":"Kreisfreie_Stadt"},"federalState":{"key":"07","name":"Rheinland-Pfalz"}},{"name":"Kohlbergstr.","postalCode":"66954","locality":"Pirmasens","municipality":{"key":"07317000","name":"Pirmasens, Stadt","type":"Kreisfreie_Stadt"},"district":{"key":"07317","name":"Pirmasens, kreisfreie Stadt","type":"Kreisfreie_Stadt"},"federalState":{"key":"07","name":"Rheinland-Pfalz"}},{"name":"Kolpingstr.","postalCode":"66954","locality":"Pirmasens","municipality":{"key":"07317000","name":"Pirmasens, Stadt","type":"Kreisfreie_Stadt"},"district":{"key":"07317","name":"Pirmasens, kreisfreie Stadt","type":"Kreisfreie_Stadt"},"federalState":{"key":"07","name":"Rheinland-Pfalz"}},{"name":"Königstr.","postalCode":"66953","locality":"Pirmasens","municipality":{"key":"07317000","name":"Pirmasens, Stadt","type":"Kreisfreie_Stadt"},"district":{"key":"07317","name":"Pirmasens, kreisfreie Stadt","type":"Kreisfreie_Stadt"},"federalState":{"key":"07","name":"Rheinland-Pfalz"}},{"name":"Konrad-Adenauer-Ring","postalCode":"66953","locality":"Pirmasens","municipality":{"key":"07317000","name":"Pirmasens, Stadt","type":"Kreisfreie_Stadt"},"district":{"key":"07317","name":"Pirmasens, kreisfreie Stadt","type":"Kreisfreie_Stadt"},"federalState":{"key":"07","name":"Rheinland-Pfalz"}},{"name":"Kornstr.","postalCode":"66954","locality":"Pirmasens","municipality":{"key":"07317000","name":"Pirmasens, Stadt","type":"Kreisfreie_Stadt"},"district":{"key":"07317","name":"Pirmasens, kreisfreie Stadt","type":"Kreisfreie_Stadt"},"federalState":{"key":"07","name":"Rheinland-Pfalz"}},{"name":"Kreuzgasse","postalCode":"66955","locality":"Pirmasens","municipality":{"key":"07317000","name":"Pirmasens, Stadt","type":"Kreisfreie_Stadt"},"district":{"key":"07317","name":"Pirmasens, kreisfreie Stadt","type":"Kreisfreie_Stadt"},"federalState":{"key":"07","name":"Rheinland-Pfalz"}},{"name":"Kreuzweg","postalCode":"66955","locality":"Pirmasens","municipality":{"key":"07317000","name":"Pirmasens, Stadt","type":"Kreisfreie_Stadt"},"district":{"key":"07317","name":"Pirmasens, kreisfreie Stadt","type":"Kreisfreie_Stadt"},"federalState":{"key":"07","name":"Rheinland-Pfalz"}},{"name":"Kronenstr.","postalCode":"66955","locality":"Pirmasens","municipality":{"key":"07317000","name":"Pirmasens, Stadt","type":"Kreisfreie_Stadt"},"district":{"key":"07317","name":"Pirmasens, kreisfreie Stadt","type":"Kreisfreie_Stadt"},"federalState":{"key":"07","name":"Rheinland-Pfalz"}},{"name":"Kronprinzenstr.","postalCode":"66955","locality":"Pirmasens","municipality":{"key":"07317000","name":"Pirmasens, Stadt","type":"Kreisfreie_Stadt"},"district":{"key":"07317","name":"Pirmasens, kreisfreie Stadt","type":"Kreisfreie_Stadt"},"federalState":{"key":"07","name":"Rheinland-Pfalz"}},{"name":"Krumme Steig","postalCode":"66953","locality":"Pirmasens","municipality":{"key":"07317000","name":"Pirmasens, Stadt","type":"Kreisfreie_Stadt"},"district":{"key":"07317","name":"Pirmasens, kreisfreie Stadt","type":"Kreisfreie_Stadt"},"federalState":{"key":"07","name":"Rheinland-Pfalz"}},{"name":"Krummgasse","postalCode":"66953","locality":"Pirmasens","municipality":{"key":"07317000","name":"Pirmasens, Stadt","type":"Kreisfreie_Stadt"},"district":{"key":"07317","name":"Pirmasens, kreisfreie Stadt","type":"Kreisfreie_Stadt"},"federalState":{"key":"07","name":"Rheinland-Pfalz"}},{"name":"Kümmelgasse","postalCode":"66953","locality":"Pirmasens","municipality":{"key":"07317000","name":"Pirmasens, Stadt","type":"Kreisfreie_Stadt"},"district":{"key":"07317","name":"Pirmasens, kreisfreie Stadt","type":"Kreisfreie_Stadt"},"federalState":{"key":"07","name":"Rheinland-Pfalz"}},{"name":"Kunzeckstr.","postalCode":"66955","locality":"Pirmasens","municipality":{"key":"07317000","name":"Pirmasens, Stadt","type":"Kreisfreie_Stadt"},"district":{"key":"07317","name":"Pirmasens, kreisfreie Stadt","type":"Kreisfreie_Stadt"},"federalState":{"key":"07","name":"Rheinland-Pfalz"}},{"name":"Kurpfalzstr.","postalCode":"66954","locality":"Pirmasens","municipality":{"key":"07317000","name":"Pirmasens, Stadt","type":"Kreisfreie_Stadt"},"district":{"key":"07317","name":"Pirmasens, kreisfreie Stadt","type":"Kreisfreie_Stadt"},"federalState":{"key":"07","name":"Rheinland-Pfalz"}},{"name":"Kurt-Schumacher-Str.","postalCode":"66953","locality":"Pirmasens","municipality":{"key":"07317000","name":"Pirmasens, Stadt","type":"Kreisfreie_Stadt"},"district":{"key":"07317","name":"Pirmasens, kreisfreie Stadt","type":"Kreisfreie_Stadt"},"federalState":{"key":"07","name":"Rheinland-Pfalz"}},{"name":"Lambachstr.","postalCode":"66954","locality":"Pirmasens","municipality":{"key":"07317000","name":"Pirmasens, Stadt","type":"Kreisfreie_Stadt"},"district":{"key":"07317","name":"Pirmasens, kreisfreie Stadt","type":"Kreisfreie_Stadt"},"federalState":{"key":"07","name":"Rheinland-Pfalz"}},{"name":"Landauer Str.","postalCode":"66953","locality":"Pirmasens","municipality":{"key":"07317000","name":"Pirmasens, Stadt","type":"Kreisfreie_Stadt"},"district":{"key":"07317","name":"Pirmasens, kreisfreie Stadt","type":"Kreisfreie_Stadt"},"federalState":{"key":"07","name":"Rheinland-Pfalz"}},{"name":"Landgrafenstr.","postalCode":"66953","locality":"Pirmasens","municipality":{"key":"07317000","name":"Pirmasens, Stadt","type":"Kreisfreie_Stadt"},"district":{"key":"07317","name":"Pirmasens, kreisfreie Stadt","type":"Kreisfreie_Stadt"},"federalState":{"key":"07","name":"Rheinland-Pfalz"}},{"name":"Langenbergstr.","postalCode":"66954","locality":"Pirmasens","municipality":{"key":"07317000","name":"Pirmasens, Stadt","type":"Kreisfreie_Stadt"},"district":{"key":"07317","name":"Pirmasens, kreisfreie Stadt","type":"Kreisfreie_Stadt"},"federalState":{"key":"07","name":"Rheinland-Pfalz"}},{"name":"Laubenstr.","postalCode":"66954","locality":"Pirmasens","municipality":{"key":"07317000","name":"Pirmasens, Stadt","type":"Kreisfreie_Stadt"},"district":{"key":"07317","name":"Pirmasens, kreisfreie Stadt","type":"Kreisfreie_Stadt"},"federalState":{"key":"07","name":"Rheinland-Pfalz"}},{"name":"Lehmweg","postalCode":"66954","locality":"Pirmasens","municipality":{"key":"07317000","name":"Pirmasens, Stadt","type":"Kreisfreie_Stadt"},"district":{"key":"07317","name":"Pirmasens, kreisfreie Stadt","type":"Kreisfreie_Stadt"},"federalState":{"key":"07","name":"Rheinland-Pfalz"}},{"name":"Leinenweberstr.","postalCode":"66955","locality":"Pirmasens","municipality":{"key":"07317000","name":"Pirmasens, Stadt","type":"Kreisfreie_Stadt"},"district":{"key":"07317","name":"Pirmasens, kreisfreie Stadt","type":"Kreisfreie_Stadt"},"federalState":{"key":"07","name":"Rheinland-Pfalz"}},{"name":"Leipziger Str.","postalCode":"66955","locality":"Pirmasens","municipality":{"key":"07317000","name":"Pirmasens, Stadt","type":"Kreisfreie_Stadt"},"district":{"key":"07317","name":"Pirmasens, kreisfreie Stadt","type":"Kreisfreie_Stadt"},"federalState":{"key":"07","name":"Rheinland-Pfalz"}},{"name":"Lemberger Str.","postalCode":"66955","locality":"Pirmasens","municipality":{"key":"07317000","name":"Pirmasens, Stadt","type":"Kreisfreie_Stadt"},"district":{"key":"07317","name":"Pirmasens, kreisfreie Stadt","type":"Kreisfreie_Stadt"},"federalState":{"key":"07","name":"Rheinland-Pfalz"}},{"name":"Lerchenweg","postalCode":"66955","locality":"Pirmasens","municipality":{"key":"07317000","name":"Pirmasens, Stadt","type":"Kreisfreie_Stadt"},"district":{"key":"07317","name":"Pirmasens, kreisfreie Stadt","type":"Kreisfreie_Stadt"},"federalState":{"key":"07","name":"Rheinland-Pfalz"}},{"name":"Lessingstr.","postalCode":"66955","locality":"Pirmasens","municipality":{"key":"07317000","name":"Pirmasens, Stadt","type":"Kreisfreie_Stadt"},"district":{"key":"07317","name":"Pirmasens, kreisfreie Stadt","type":"Kreisfreie_Stadt"},"federalState":{"key":"07","name":"Rheinland-Pfalz"}},{"name":"Lichtenbergstr.","postalCode":"66953","locality":"Pirmasens","municipality":{"key":"07317000","name":"Pirmasens, Stadt","type":"Kreisfreie_Stadt"},"district":{"key":"07317","name":"Pirmasens, kreisfreie Stadt","type":"Kreisfreie_Stadt"},"federalState":{"key":"07","name":"Rheinland-Pfalz"}},{"name":"Lindenstr.","postalCode":"66953","locality":"Pirmasens","municipality":{"key":"07317000","name":"Pirmasens, Stadt","type":"Kreisfreie_Stadt"},"district":{"key":"07317","name":"Pirmasens, kreisfreie Stadt","type":"Kreisfreie_Stadt"},"federalState":{"key":"07","name":"Rheinland-Pfalz"}},{"name":"Linnengasse","postalCode":"66955","locality":"Pirmasens","municipality":{"key":"07317000","name":"Pirmasens, Stadt","type":"Kreisfreie_Stadt"},"district":{"key":"07317","name":"Pirmasens, kreisfreie Stadt","type":"Kreisfreie_Stadt"},"federalState":{"key":"07","name":"Rheinland-Pfalz"}},{"name":"Lisztstr.","postalCode":"66955","locality":"Pirmasens","municipality":{"key":"07317000","name":"Pirmasens, Stadt","type":"Kreisfreie_Stadt"},"district":{"key":"07317","name":"Pirmasens, kreisfreie Stadt","type":"Kreisfreie_Stadt"},"federalState":{"key":"07","name":"Rheinland-Pfalz"}},{"name":"Littersbachstr.","postalCode":"66955","locality":"Pirmasens","municipality":{"key":"07317000","name":"Pirmasens, Stadt","type":"Kreisfreie_Stadt"},"district":{"key":"07317","name":"Pirmasens, kreisfreie Stadt","type":"Kreisfreie_Stadt"},"federalState":{"key":"07","name":"Rheinland-Pfalz"}},{"name":"Lortzingstr.","postalCode":"66955","locality":"Pirmasens","municipality":{"key":"07317000","name":"Pirmasens, Stadt","type":"Kreisfreie_Stadt"},"district":{"key":"07317","name":"Pirmasens, kreisfreie Stadt","type":"Kreisfreie_Stadt"},"federalState":{"key":"07","name":"Rheinland-Pfalz"}},{"name":"Lothringer Str.","postalCode":"66955","locality":"Pirmasens","municipality":{"key":"07317000","name":"Pirmasens, Stadt","type":"Kreisfreie_Stadt"},"district":{"key":"07317","name":"Pirmasens, kreisfreie Stadt","type":"Kreisfreie_Stadt"},"federalState":{"key":"07","name":"Rheinland-Pfalz"}},{"name":"Löwenbrunnenstr.","postalCode":"66953","locality":"Pirmasens","municipality":{"key":"07317000","name":"Pirmasens, Stadt","type":"Kreisfreie_Stadt"},"district":{"key":"07317","name":"Pirmasens, kreisfreie Stadt","type":"Kreisfreie_Stadt"},"federalState":{"key":"07","name":"Rheinland-Pfalz"}},{"name":"Ludwig-Kieffer-Str.","postalCode":"66954","locality":"Pirmasens","municipality":{"key":"07317000","name":"Pirmasens, Stadt","type":"Kreisfreie_Stadt"},"district":{"key":"07317","name":"Pirmasens, kreisfreie Stadt","type":"Kreisfreie_Stadt"},"federalState":{"key":"07","name":"Rheinland-Pfalz"}},{"name":"Ludwigstr.","postalCode":"66953","locality":"Pirmasens","municipality":{"key":"07317000","name":"Pirmasens, Stadt","type":"Kreisfreie_Stadt"},"district":{"key":"07317","name":"Pirmasens, kreisfreie Stadt","type":"Kreisfreie_Stadt"},"federalState":{"key":"07","name":"Rheinland-Pfalz"}},{"name":"Luisenstr.","postalCode":"66953","locality":"Pirmasens","municipality":{"key":"07317000","name":"Pirmasens, Stadt","type":"Kreisfreie_Stadt"},"district":{"key":"07317","name":"Pirmasens, kreisfreie Stadt","type":"Kreisfreie_Stadt"},"federalState":{"key":"07","name":"Rheinland-Pfalz"}},{"name":"Luitpoldstr.","postalCode":"66954","locality":"Pirmasens","municipality":{"key":"07317000","name":"Pirmasens, Stadt","type":"Kreisfreie_Stadt"},"district":{"key":"07317","name":"Pirmasens, kreisfreie Stadt","type":"Kreisfreie_Stadt"},"federalState":{"key":"07","name":"Rheinland-Pfalz"}},{"name":"Lukasstr.","postalCode":"66955","locality":"Pirmasens","municipality":{"key":"07317000","name":"Pirmasens, Stadt","type":"Kreisfreie_Stadt"},"district":{"key":"07317","name":"Pirmasens, kreisfreie Stadt","type":"Kreisfreie_Stadt"},"federalState":{"key":"07","name":"Rheinland-Pfalz"}},{"name":"Mainzer Str.","postalCode":"66953","locality":"Pirmasens","municipality":{"key":"07317000","name":"Pirmasens, Stadt","type":"Kreisfreie_Stadt"},"district":{"key":"07317","name":"Pirmasens, kreisfreie Stadt","type":"Kreisfreie_Stadt"},"federalState":{"key":"07","name":"Rheinland-Pfalz"}},{"name":"Maler-Bürkel-Platz","postalCode":"66954","locality":"Pirmasens","municipality":{"key":"07317000","name":"Pirmasens, Stadt","type":"Kreisfreie_Stadt"},"district":{"key":"07317","name":"Pirmasens, kreisfreie Stadt","type":"Kreisfreie_Stadt"},"federalState":{"key":"07","name":"Rheinland-Pfalz"}},{"name":"Maler-Bürkel-Str.","postalCode":"66954","locality":"Pirmasens","municipality":{"key":"07317000","name":"Pirmasens, Stadt","type":"Kreisfreie_Stadt"},"district":{"key":"07317","name":"Pirmasens, kreisfreie Stadt","type":"Kreisfreie_Stadt"},"federalState":{"key":"07","name":"Rheinland-Pfalz"}},{"name":"Margaretenstr.","postalCode":"66955","locality":"Pirmasens","municipality":{"key":"07317000","name":"Pirmasens, Stadt","type":"Kreisfreie_Stadt"},"district":{"key":"07317","name":"Pirmasens, kreisfreie Stadt","type":"Kreisfreie_Stadt"},"federalState":{"key":"07","name":"Rheinland-Pfalz"}},{"name":"Maria-Theresien-Str.","postalCode":"66954","locality":"Pirmasens","municipality":{"key":"07317000","name":"Pirmasens, Stadt","type":"Kreisfreie_Stadt"},"district":{"key":"07317","name":"Pirmasens, kreisfreie Stadt","type":"Kreisfreie_Stadt"},"federalState":{"key":"07","name":"Rheinland-Pfalz"}},{"name":"Marie-Curie-Str.","postalCode":"66953","locality":"Pirmasens","municipality":{"key":"07317000","name":"Pirmasens, Stadt","type":"Kreisfreie_Stadt"},"district":{"key":"07317","name":"Pirmasens, kreisfreie Stadt","type":"Kreisfreie_Stadt"},"federalState":{"key":"07","name":"Rheinland-Pfalz"}},{"name":"Marienstr.","postalCode":"66955","locality":"Pirmasens","municipality":{"key":"07317000","name":"Pirmasens, Stadt","type":"Kreisfreie_Stadt"},"district":{"key":"07317","name":"Pirmasens, kreisfreie Stadt","type":"Kreisfreie_Stadt"},"federalState":{"key":"07","name":"Rheinland-Pfalz"}},{"name":"Marsstr.","postalCode":"66954","locality":"Pirmasens","municipality":{"key":"07317000","name":"Pirmasens, Stadt","type":"Kreisfreie_Stadt"},"district":{"key":"07317","name":"Pirmasens, kreisfreie Stadt","type":"Kreisfreie_Stadt"},"federalState":{"key":"07","name":"Rheinland-Pfalz"}},{"name":"Martin-Luther-Str.","postalCode":"66954","locality":"Pirmasens","municipality":{"key":"07317000","name":"Pirmasens, Stadt","type":"Kreisfreie_Stadt"},"district":{"key":"07317","name":"Pirmasens, kreisfreie Stadt","type":"Kreisfreie_Stadt"},"federalState":{"key":"07","name":"Rheinland-Pfalz"}},{"name":"Maryland Avenue","postalCode":"66953","locality":"Pirmasens","municipality":{"key":"07317000","name":"Pirmasens, Stadt","type":"Kreisfreie_Stadt"},"district":{"key":"07317","name":"Pirmasens, kreisfreie Stadt","type":"Kreisfreie_Stadt"},"federalState":{"key":"07","name":"Rheinland-Pfalz"}},{"name":"Massachusetts Avenue","postalCode":"66953","locality":"Pirmasens","municipality":{"key":"07317000","name":"Pirmasens, Stadt","type":"Kreisfreie_Stadt"},"district":{"key":"07317","name":"Pirmasens, kreisfreie Stadt","type":"Kreisfreie_Stadt"},"federalState":{"key":"07","name":"Rheinland-Pfalz"}},{"name":"Mathildenstr.","postalCode":"66955","locality":"Pirmasens","municipality":{"key":"07317000","name":"Pirmasens, Stadt","type":"Kreisfreie_Stadt"},"district":{"key":"07317","name":"Pirmasens, kreisfreie Stadt","type":"Kreisfreie_Stadt"},"federalState":{"key":"07","name":"Rheinland-Pfalz"}},{"name":"Matzenbergstr.","postalCode":"66954","locality":"Pirmasens","municipality":{"key":"07317000","name":"Pirmasens, Stadt","type":"Kreisfreie_Stadt"},"district":{"key":"07317","name":"Pirmasens, kreisfreie Stadt","type":"Kreisfreie_Stadt"},"federalState":{"key":"07","name":"Rheinland-Pfalz"}},{"name":"Maximilianstr.","postalCode":"66954","locality":"Pirmasens","municipality":{"key":"07317000","name":"Pirmasens, Stadt","type":"Kreisfreie_Stadt"},"district":{"key":"07317","name":"Pirmasens, kreisfreie Stadt","type":"Kreisfreie_Stadt"},"federalState":{"key":"07","name":"Rheinland-Pfalz"}},{"name":"Max-Reger-Str.","postalCode":"66955","locality":"Pirmasens","municipality":{"key":"07317000","name":"Pirmasens, Stadt","type":"Kreisfreie_Stadt"},"district":{"key":"07317","name":"Pirmasens, kreisfreie Stadt","type":"Kreisfreie_Stadt"},"federalState":{"key":"07","name":"Rheinland-Pfalz"}},{"name":"Maxstr.","postalCode":"66954","locality":"Pirmasens","municipality":{"key":"07317000","name":"Pirmasens, Stadt","type":"Kreisfreie_Stadt"},"district":{"key":"07317","name":"Pirmasens, kreisfreie Stadt","type":"Kreisfreie_Stadt"},"federalState":{"key":"07","name":"Rheinland-Pfalz"}},{"name":"Merkurstr.","postalCode":"66954","locality":"Pirmasens","municipality":{"key":"07317000","name":"Pirmasens, Stadt","type":"Kreisfreie_Stadt"},"district":{"key":"07317","name":"Pirmasens, kreisfreie Stadt","type":"Kreisfreie_Stadt"},"federalState":{"key":"07","name":"Rheinland-Pfalz"}},{"name":"Mississippi Avenue","postalCode":"66953","locality":"Pirmasens","municipality":{"key":"07317000","name":"Pirmasens, Stadt","type":"Kreisfreie_Stadt"},"district":{"key":"07317","name":"Pirmasens, kreisfreie Stadt","type":"Kreisfreie_Stadt"},"federalState":{"key":"07","name":"Rheinland-Pfalz"}},{"name":"Mittelweg","postalCode":"66955","locality":"Pirmasens","municipality":{"key":"07317000","name":"Pirmasens, Stadt","type":"Kreisfreie_Stadt"},"district":{"key":"07317","name":"Pirmasens, kreisfreie Stadt","type":"Kreisfreie_Stadt"},"federalState":{"key":"07","name":"Rheinland-Pfalz"}},{"name":"Mohrbrunner Str.","postalCode":"66954","locality":"Pirmasens","municipality":{"key":"07317000","name":"Pirmasens, Stadt","type":"Kreisfreie_Stadt"},"district":{"key":"07317","name":"Pirmasens, kreisfreie Stadt","type":"Kreisfreie_Stadt"},"federalState":{"key":"07","name":"Rheinland-Pfalz"}},{"name":"Molkenbrunner Str.","postalCode":"66954","locality":"Pirmasens","municipality":{"key":"07317000","name":"Pirmasens, Stadt","type":"Kreisfreie_Stadt"},"district":{"key":"07317","name":"Pirmasens, kreisfreie Stadt","type":"Kreisfreie_Stadt"},"federalState":{"key":"07","name":"Rheinland-Pfalz"}},{"name":"Möllendorfring","postalCode":"66953","locality":"Pirmasens","municipality":{"key":"07317000","name":"Pirmasens, Stadt","type":"Kreisfreie_Stadt"},"district":{"key":"07317","name":"Pirmasens, kreisfreie Stadt","type":"Kreisfreie_Stadt"},"federalState":{"key":"07","name":"Rheinland-Pfalz"}},{"name":"Moltkestr.","postalCode":"66955","locality":"Pirmasens","municipality":{"key":"07317000","name":"Pirmasens, Stadt","type":"Kreisfreie_Stadt"},"district":{"key":"07317","name":"Pirmasens, kreisfreie Stadt","type":"Kreisfreie_Stadt"},"federalState":{"key":"07","name":"Rheinland-Pfalz"}},{"name":"Moosalbstr.","postalCode":"66954","locality":"Pirmasens","municipality":{"key":"07317000","name":"Pirmasens, Stadt","type":"Kreisfreie_Stadt"},"district":{"key":"07317","name":"Pirmasens, kreisfreie Stadt","type":"Kreisfreie_Stadt"},"federalState":{"key":"07","name":"Rheinland-Pfalz"}},{"name":"Moosbergstr.","postalCode":"66954","locality":"Pirmasens","municipality":{"key":"07317000","name":"Pirmasens, Stadt","type":"Kreisfreie_Stadt"},"district":{"key":"07317","name":"Pirmasens, kreisfreie Stadt","type":"Kreisfreie_Stadt"},"federalState":{"key":"07","name":"Rheinland-Pfalz"}},{"name":"Moselstr.","postalCode":"66955","locality":"Pirmasens","municipality":{"key":"07317000","name":"Pirmasens, Stadt","type":"Kreisfreie_Stadt"},"district":{"key":"07317","name":"Pirmasens, kreisfreie Stadt","type":"Kreisfreie_Stadt"},"federalState":{"key":"07","name":"Rheinland-Pfalz"}},{"name":"Mozartstr.","postalCode":"66954","locality":"Pirmasens","municipality":{"key":"07317000","name":"Pirmasens, Stadt","type":"Kreisfreie_Stadt"},"district":{"key":"07317","name":"Pirmasens, kreisfreie Stadt","type":"Kreisfreie_Stadt"},"federalState":{"key":"07","name":"Rheinland-Pfalz"}},{"name":"Mühlbachstr.","postalCode":"66955","locality":"Pirmasens","municipality":{"key":"07317000","name":"Pirmasens, Stadt","type":"Kreisfreie_Stadt"},"district":{"key":"07317","name":"Pirmasens, kreisfreie Stadt","type":"Kreisfreie_Stadt"},"federalState":{"key":"07","name":"Rheinland-Pfalz"}},{"name":"Münzgasse","postalCode":"66953","locality":"Pirmasens","municipality":{"key":"07317000","name":"Pirmasens, Stadt","type":"Kreisfreie_Stadt"},"district":{"key":"07317","name":"Pirmasens, kreisfreie Stadt","type":"Kreisfreie_Stadt"},"federalState":{"key":"07","name":"Rheinland-Pfalz"}},{"name":"Neckarstr.","postalCode":"66955","locality":"Pirmasens","municipality":{"key":"07317000","name":"Pirmasens, Stadt","type":"Kreisfreie_Stadt"},"district":{"key":"07317","name":"Pirmasens, kreisfreie Stadt","type":"Kreisfreie_Stadt"},"federalState":{"key":"07","name":"Rheinland-Pfalz"}},{"name":"Neptunstr.","postalCode":"66954","locality":"Pirmasens","municipality":{"key":"07317000","name":"Pirmasens, Stadt","type":"Kreisfreie_Stadt"},"district":{"key":"07317","name":"Pirmasens, kreisfreie Stadt","type":"Kreisfreie_Stadt"},"federalState":{"key":"07","name":"Rheinland-Pfalz"}},{"name":"Nesseltaler Hof","postalCode":"66953","locality":"Pirmasens","municipality":{"key":"07317000","name":"Pirmasens, Stadt","type":"Kreisfreie_Stadt"},"district":{"key":"07317","name":"Pirmasens, kreisfreie Stadt","type":"Kreisfreie_Stadt"},"federalState":{"key":"07","name":"Rheinland-Pfalz"}},{"name":"Neue Häfnersgasse","postalCode":"66955","locality":"Pirmasens","municipality":{"key":"07317000","name":"Pirmasens, Stadt","type":"Kreisfreie_Stadt"},"district":{"key":"07317","name":"Pirmasens, kreisfreie Stadt","type":"Kreisfreie_Stadt"},"federalState":{"key":"07","name":"Rheinland-Pfalz"}},{"name":"Neuer Streckweg","postalCode":"66954","locality":"Pirmasens","municipality":{"key":"07317000","name":"Pirmasens, Stadt","type":"Kreisfreie_Stadt"},"district":{"key":"07317","name":"Pirmasens, kreisfreie Stadt","type":"Kreisfreie_Stadt"},"federalState":{"key":"07","name":"Rheinland-Pfalz"}},{"name":"Neufferpark","postalCode":"66953","locality":"Pirmasens","municipality":{"key":"07317000","name":"Pirmasens, Stadt","type":"Kreisfreie_Stadt"},"district":{"key":"07317","name":"Pirmasens, kreisfreie Stadt","type":"Kreisfreie_Stadt"},"federalState":{"key":"07","name":"Rheinland-Pfalz"}},{"name":"Neufferstr.","postalCode":"66953","locality":"Pirmasens","municipality":{"key":"07317000","name":"Pirmasens, Stadt","type":"Kreisfreie_Stadt"},"district":{"key":"07317","name":"Pirmasens, kreisfreie Stadt","type":"Kreisfreie_Stadt"},"federalState":{"key":"07","name":"Rheinland-Pfalz"}},{"name":"Neugasse","postalCode":"66955","locality":"Pirmasens","municipality":{"key":"07317000","name":"Pirmasens, Stadt","type":"Kreisfreie_Stadt"},"district":{"key":"07317","name":"Pirmasens, kreisfreie Stadt","type":"Kreisfreie_Stadt"},"federalState":{"key":"07","name":"Rheinland-Pfalz"}},{"name":"New Hampshire Avenue","postalCode":"66953","locality":"Pirmasens","municipality":{"key":"07317000","name":"Pirmasens, Stadt","type":"Kreisfreie_Stadt"},"district":{"key":"07317","name":"Pirmasens, kreisfreie Stadt","type":"Kreisfreie_Stadt"},"federalState":{"key":"07","name":"Rheinland-Pfalz"}},{"name":"Nordring","postalCode":"66953","locality":"Pirmasens","municipality":{"key":"07317000","name":"Pirmasens, Stadt","type":"Kreisfreie_Stadt"},"district":{"key":"07317","name":"Pirmasens, kreisfreie Stadt","type":"Kreisfreie_Stadt"},"federalState":{"key":"07","name":"Rheinland-Pfalz"}},{"name":"North Carolina Avenue","postalCode":"66953","locality":"Pirmasens","municipality":{"key":"07317000","name":"Pirmasens, Stadt","type":"Kreisfreie_Stadt"},"district":{"key":"07317","name":"Pirmasens, kreisfreie Stadt","type":"Kreisfreie_Stadt"},"federalState":{"key":"07","name":"Rheinland-Pfalz"}},{"name":"Oberer Torweg","postalCode":"66955","locality":"Pirmasens","municipality":{"key":"07317000","name":"Pirmasens, Stadt","type":"Kreisfreie_Stadt"},"district":{"key":"07317","name":"Pirmasens, kreisfreie Stadt","type":"Kreisfreie_Stadt"},"federalState":{"key":"07","name":"Rheinland-Pfalz"}},{"name":"Orleansstr.","postalCode":"66953","locality":"Pirmasens","municipality":{"key":"07317000","name":"Pirmasens, Stadt","type":"Kreisfreie_Stadt"},"district":{"key":"07317","name":"Pirmasens, kreisfreie Stadt","type":"Kreisfreie_Stadt"},"federalState":{"key":"07","name":"Rheinland-Pfalz"}},{"name":"Oskar-Metz-Str.","postalCode":"66954","locality":"Pirmasens","municipality":{"key":"07317000","name":"Pirmasens, Stadt","type":"Kreisfreie_Stadt"},"district":{"key":"07317","name":"Pirmasens, kreisfreie Stadt","type":"Kreisfreie_Stadt"},"federalState":{"key":"07","name":"Rheinland-Pfalz"}},{"name":"Ostpreußenstr.","postalCode":"66955","locality":"Pirmasens","municipality":{"key":"07317000","name":"Pirmasens, Stadt","type":"Kreisfreie_Stadt"},"district":{"key":"07317","name":"Pirmasens, kreisfreie Stadt","type":"Kreisfreie_Stadt"},"federalState":{"key":"07","name":"Rheinland-Pfalz"}},{"name":"Otto-Hahn-Str.","postalCode":"66953","locality":"Pirmasens","municipality":{"key":"07317000","name":"Pirmasens, Stadt","type":"Kreisfreie_Stadt"},"district":{"key":"07317","name":"Pirmasens, kreisfreie Stadt","type":"Kreisfreie_Stadt"},"federalState":{"key":"07","name":"Rheinland-Pfalz"}},{"name":"Otto-Heinrich-Str.","postalCode":"66954","locality":"Pirmasens","municipality":{"key":"07317000","name":"Pirmasens, Stadt","type":"Kreisfreie_Stadt"},"district":{"key":"07317","name":"Pirmasens, kreisfreie Stadt","type":"Kreisfreie_Stadt"},"federalState":{"key":"07","name":"Rheinland-Pfalz"}},{"name":"Ottostr.","postalCode":"66953","locality":"Pirmasens","municipality":{"key":"07317000","name":"Pirmasens, Stadt","type":"Kreisfreie_Stadt"},"district":{"key":"07317","name":"Pirmasens, kreisfreie Stadt","type":"Kreisfreie_Stadt"},"federalState":{"key":"07","name":"Rheinland-Pfalz"}},{"name":"Panoramaweg","postalCode":"66955","locality":"Pirmasens","municipality":{"key":"07317000","name":"Pirmasens, Stadt","type":"Kreisfreie_Stadt"},"district":{"key":"07317","name":"Pirmasens, kreisfreie Stadt","type":"Kreisfreie_Stadt"},"federalState":{"key":"07","name":"Rheinland-Pfalz"}},{"name":"Pasquaystr.","postalCode":"66954","locality":"Pirmasens","municipality":{"key":"07317000","name":"Pirmasens, Stadt","type":"Kreisfreie_Stadt"},"district":{"key":"07317","name":"Pirmasens, kreisfreie Stadt","type":"Kreisfreie_Stadt"},"federalState":{"key":"07","name":"Rheinland-Pfalz"}},{"name":"Patio","postalCode":"66955","locality":"Pirmasens","municipality":{"key":"07317000","name":"Pirmasens, Stadt","type":"Kreisfreie_Stadt"},"district":{"key":"07317","name":"Pirmasens, kreisfreie Stadt","type":"Kreisfreie_Stadt"},"federalState":{"key":"07","name":"Rheinland-Pfalz"}},{"name":"Paul-Josef-Nardini-Platz","postalCode":"66953","locality":"Pirmasens","municipality":{"key":"07317000","name":"Pirmasens, Stadt","type":"Kreisfreie_Stadt"},"district":{"key":"07317","name":"Pirmasens, kreisfreie Stadt","type":"Kreisfreie_Stadt"},"federalState":{"key":"07","name":"Rheinland-Pfalz"}},{"name":"Paulstr.","postalCode":"66954","locality":"Pirmasens","municipality":{"key":"07317000","name":"Pirmasens, Stadt","type":"Kreisfreie_Stadt"},"district":{"key":"07317","name":"Pirmasens, kreisfreie Stadt","type":"Kreisfreie_Stadt"},"federalState":{"key":"07","name":"Rheinland-Pfalz"}},{"name":"Pestalozzistr.","postalCode":"66953","locality":"Pirmasens","municipality":{"key":"07317000","name":"Pirmasens, Stadt","type":"Kreisfreie_Stadt"},"district":{"key":"07317","name":"Pirmasens, kreisfreie Stadt","type":"Kreisfreie_Stadt"},"federalState":{"key":"07","name":"Rheinland-Pfalz"}},{"name":"Pettenkoferstr.","postalCode":"66953","locality":"Pirmasens","municipality":{"key":"07317000","name":"Pirmasens, Stadt","type":"Kreisfreie_Stadt"},"district":{"key":"07317","name":"Pirmasens, kreisfreie Stadt","type":"Kreisfreie_Stadt"},"federalState":{"key":"07","name":"Rheinland-Pfalz"}},{"name":"Pettenkoferstr.","postalCode":"66955","locality":"Pirmasens","municipality":{"key":"07317000","name":"Pirmasens, Stadt","type":"Kreisfreie_Stadt"},"district":{"key":"07317","name":"Pirmasens, kreisfreie Stadt","type":"Kreisfreie_Stadt"},"federalState":{"key":"07","name":"Rheinland-Pfalz"}},{"name":"Pfarrgasse","postalCode":"66953","locality":"Pirmasens","municipality":{"key":"07317000","name":"Pirmasens, Stadt","type":"Kreisfreie_Stadt"},"district":{"key":"07317","name":"Pirmasens, kreisfreie Stadt","type":"Kreisfreie_Stadt"},"federalState":{"key":"07","name":"Rheinland-Pfalz"}},{"name":"Pirmasenser Weg","postalCode":"66954","locality":"Pirmasens","municipality":{"key":"07317000","name":"Pirmasens, Stadt","type":"Kreisfreie_Stadt"},"district":{"key":"07317","name":"Pirmasens, kreisfreie Stadt","type":"Kreisfreie_Stadt"},"federalState":{"key":"07","name":"Rheinland-Pfalz"}},{"name":"Pirminiusstr.","postalCode":"66955","locality":"Pirmasens","municipality":{"key":"07317000","name":"Pirmasens, Stadt","type":"Kreisfreie_Stadt"},"district":{"key":"07317","name":"Pirmasens, kreisfreie Stadt","type":"Kreisfreie_Stadt"},"federalState":{"key":"07","name":"Rheinland-Pfalz"}},{"name":"Poissystr.","postalCode":"66955","locality":"Pirmasens","municipality":{"key":"07317000","name":"Pirmasens, Stadt","type":"Kreisfreie_Stadt"},"district":{"key":"07317","name":"Pirmasens, kreisfreie Stadt","type":"Kreisfreie_Stadt"},"federalState":{"key":"07","name":"Rheinland-Pfalz"}},{"name":"Pommernstr.","postalCode":"66955","locality":"Pirmasens","municipality":{"key":"07317000","name":"Pirmasens, Stadt","type":"Kreisfreie_Stadt"},"district":{"key":"07317","name":"Pirmasens, kreisfreie Stadt","type":"Kreisfreie_Stadt"},"federalState":{"key":"07","name":"Rheinland-Pfalz"}},{"name":"Poststr.","postalCode":"66954","locality":"Pirmasens","municipality":{"key":"07317000","name":"Pirmasens, Stadt","type":"Kreisfreie_Stadt"},"district":{"key":"07317","name":"Pirmasens, kreisfreie Stadt","type":"Kreisfreie_Stadt"},"federalState":{"key":"07","name":"Rheinland-Pfalz"}},{"name":"Rehstr.","postalCode":"66953","locality":"Pirmasens","municipality":{"key":"07317000","name":"Pirmasens, Stadt","type":"Kreisfreie_Stadt"},"district":{"key":"07317","name":"Pirmasens, kreisfreie Stadt","type":"Kreisfreie_Stadt"},"federalState":{"key":"07","name":"Rheinland-Pfalz"}},{"name":"Reiterstr.","postalCode":"66954","locality":"Pirmasens","municipality":{"key":"07317000","name":"Pirmasens, Stadt","type":"Kreisfreie_Stadt"},"district":{"key":"07317","name":"Pirmasens, kreisfreie Stadt","type":"Kreisfreie_Stadt"},"federalState":{"key":"07","name":"Rheinland-Pfalz"}},{"name":"Rembrandtstr.","postalCode":"66955","locality":"Pirmasens","municipality":{"key":"07317000","name":"Pirmasens, Stadt","type":"Kreisfreie_Stadt"},"district":{"key":"07317","name":"Pirmasens, kreisfreie Stadt","type":"Kreisfreie_Stadt"},"federalState":{"key":"07","name":"Rheinland-Pfalz"}},{"name":"Rheinbergerstr.","postalCode":"66954","locality":"Pirmasens","municipality":{"key":"07317000","name":"Pirmasens, Stadt","type":"Kreisfreie_Stadt"},"district":{"key":"07317","name":"Pirmasens, kreisfreie Stadt","type":"Kreisfreie_Stadt"},"federalState":{"key":"07","name":"Rheinland-Pfalz"}},{"name":"Rheinstr.","postalCode":"66955","locality":"Pirmasens","municipality":{"key":"07317000","name":"Pirmasens, Stadt","type":"Kreisfreie_Stadt"},"district":{"key":"07317","name":"Pirmasens, kreisfreie Stadt","type":"Kreisfreie_Stadt"},"federalState":{"key":"07","name":"Rheinland-Pfalz"}},{"name":"Rhode Island Avenue","postalCode":"66953","locality":"Pirmasens","municipality":{"key":"07317000","name":"Pirmasens, Stadt","type":"Kreisfreie_Stadt"},"district":{"key":"07317","name":"Pirmasens, kreisfreie Stadt","type":"Kreisfreie_Stadt"},"federalState":{"key":"07","name":"Rheinland-Pfalz"}},{"name":"Richard-Dippold-Str.","postalCode":"66954","locality":"Pirmasens","municipality":{"key":"07317000","name":"Pirmasens, Stadt","type":"Kreisfreie_Stadt"},"district":{"key":"07317","name":"Pirmasens, kreisfreie Stadt","type":"Kreisfreie_Stadt"},"federalState":{"key":"07","name":"Rheinland-Pfalz"}},{"name":"Richard-Strauß-Weg","postalCode":"66955","locality":"Pirmasens","municipality":{"key":"07317000","name":"Pirmasens, Stadt","type":"Kreisfreie_Stadt"},"district":{"key":"07317","name":"Pirmasens, kreisfreie Stadt","type":"Kreisfreie_Stadt"},"federalState":{"key":"07","name":"Rheinland-Pfalz"}},{"name":"Richard-Wagner-Str.","postalCode":"66955","locality":"Pirmasens","municipality":{"key":"07317000","name":"Pirmasens, Stadt","type":"Kreisfreie_Stadt"},"district":{"key":"07317","name":"Pirmasens, kreisfreie Stadt","type":"Kreisfreie_Stadt"},"federalState":{"key":"07","name":"Rheinland-Pfalz"}},{"name":"Ringstr.","postalCode":"66953","locality":"Pirmasens","municipality":{"key":"07317000","name":"Pirmasens, Stadt","type":"Kreisfreie_Stadt"},"district":{"key":"07317","name":"Pirmasens, kreisfreie Stadt","type":"Kreisfreie_Stadt"},"federalState":{"key":"07","name":"Rheinland-Pfalz"}},{"name":"Robert-Koch-Str.","postalCode":"66953","locality":"Pirmasens","municipality":{"key":"07317000","name":"Pirmasens, Stadt","type":"Kreisfreie_Stadt"},"district":{"key":"07317","name":"Pirmasens, kreisfreie Stadt","type":"Kreisfreie_Stadt"},"federalState":{"key":"07","name":"Rheinland-Pfalz"}},{"name":"Rodalber Str.","postalCode":"66953","locality":"Pirmasens","municipality":{"key":"07317000","name":"Pirmasens, Stadt","type":"Kreisfreie_Stadt"},"district":{"key":"07317","name":"Pirmasens, kreisfreie Stadt","type":"Kreisfreie_Stadt"},"federalState":{"key":"07","name":"Rheinland-Pfalz"}},{"name":"Roland-Betsch-Str.","postalCode":"66954","locality":"Pirmasens","municipality":{"key":"07317000","name":"Pirmasens, Stadt","type":"Kreisfreie_Stadt"},"district":{"key":"07317","name":"Pirmasens, kreisfreie Stadt","type":"Kreisfreie_Stadt"},"federalState":{"key":"07","name":"Rheinland-Pfalz"}},{"name":"Römerstr.","postalCode":"66954","locality":"Pirmasens","municipality":{"key":"07317000","name":"Pirmasens, Stadt","type":"Kreisfreie_Stadt"},"district":{"key":"07317","name":"Pirmasens, kreisfreie Stadt","type":"Kreisfreie_Stadt"},"federalState":{"key":"07","name":"Rheinland-Pfalz"}},{"name":"Rotenbühlstr.","postalCode":"66955","locality":"Pirmasens","municipality":{"key":"07317000","name":"Pirmasens, Stadt","type":"Kreisfreie_Stadt"},"district":{"key":"07317","name":"Pirmasens, kreisfreie Stadt","type":"Kreisfreie_Stadt"},"federalState":{"key":"07","name":"Rheinland-Pfalz"}},{"name":"Rotmühlstr.","postalCode":"66954","locality":"Pirmasens","municipality":{"key":"07317000","name":"Pirmasens, Stadt","type":"Kreisfreie_Stadt"},"district":{"key":"07317","name":"Pirmasens, kreisfreie Stadt","type":"Kreisfreie_Stadt"},"federalState":{"key":"07","name":"Rheinland-Pfalz"}},{"name":"Rubensstr.","postalCode":"66955","locality":"Pirmasens","municipality":{"key":"07317000","name":"Pirmasens, Stadt","type":"Kreisfreie_Stadt"},"district":{"key":"07317","name":"Pirmasens, kreisfreie Stadt","type":"Kreisfreie_Stadt"},"federalState":{"key":"07","name":"Rheinland-Pfalz"}},{"name":"Rudolf-Diesel-Str.","postalCode":"66953","locality":"Pirmasens","municipality":{"key":"07317000","name":"Pirmasens, Stadt","type":"Kreisfreie_Stadt"},"district":{"key":"07317","name":"Pirmasens, kreisfreie Stadt","type":"Kreisfreie_Stadt"},"federalState":{"key":"07","name":"Rheinland-Pfalz"}},{"name":"Rudolf-Meißner-Str.","postalCode":"66955","locality":"Pirmasens","municipality":{"key":"07317000","name":"Pirmasens, Stadt","type":"Kreisfreie_Stadt"},"district":{"key":"07317","name":"Pirmasens, kreisfreie Stadt","type":"Kreisfreie_Stadt"},"federalState":{"key":"07","name":"Rheinland-Pfalz"}},{"name":"Rupprechtstr.","postalCode":"66954","locality":"Pirmasens","municipality":{"key":"07317000","name":"Pirmasens, Stadt","type":"Kreisfreie_Stadt"},"district":{"key":"07317","name":"Pirmasens, kreisfreie Stadt","type":"Kreisfreie_Stadt"},"federalState":{"key":"07","name":"Rheinland-Pfalz"}},{"name":"Saarstr.","postalCode":"66953","locality":"Pirmasens","municipality":{"key":"07317000","name":"Pirmasens, Stadt","type":"Kreisfreie_Stadt"},"district":{"key":"07317","name":"Pirmasens, kreisfreie Stadt","type":"Kreisfreie_Stadt"},"federalState":{"key":"07","name":"Rheinland-Pfalz"}},{"name":"Sandstr.","postalCode":"66953","locality":"Pirmasens","municipality":{"key":"07317000","name":"Pirmasens, Stadt","type":"Kreisfreie_Stadt"},"district":{"key":"07317","name":"Pirmasens, kreisfreie Stadt","type":"Kreisfreie_Stadt"},"federalState":{"key":"07","name":"Rheinland-Pfalz"}},{"name":"Sangstr.","postalCode":"66954","locality":"Pirmasens","municipality":{"key":"07317000","name":"Pirmasens, Stadt","type":"Kreisfreie_Stadt"},"district":{"key":"07317","name":"Pirmasens, kreisfreie Stadt","type":"Kreisfreie_Stadt"},"federalState":{"key":"07","name":"Rheinland-Pfalz"}},{"name":"Saratoga Avenue","postalCode":"66953","locality":"Pirmasens","municipality":{"key":"07317000","name":"Pirmasens, Stadt","type":"Kreisfreie_Stadt"},"district":{"key":"07317","name":"Pirmasens, kreisfreie Stadt","type":"Kreisfreie_Stadt"},"federalState":{"key":"07","name":"Rheinland-Pfalz"}},{"name":"Schachenstr.","postalCode":"66954","locality":"Pirmasens","municipality":{"key":"07317000","name":"Pirmasens, Stadt","type":"Kreisfreie_Stadt"},"district":{"key":"07317","name":"Pirmasens, kreisfreie Stadt","type":"Kreisfreie_Stadt"},"federalState":{"key":"07","name":"Rheinland-Pfalz"}},{"name":"Schäferstr.","postalCode":"66953","locality":"Pirmasens","municipality":{"key":"07317000","name":"Pirmasens, Stadt","type":"Kreisfreie_Stadt"},"district":{"key":"07317","name":"Pirmasens, kreisfreie Stadt","type":"Kreisfreie_Stadt"},"federalState":{"key":"07","name":"Rheinland-Pfalz"}},{"name":"Schanzenstr.","postalCode":"66955","locality":"Pirmasens","municipality":{"key":"07317000","name":"Pirmasens, Stadt","type":"Kreisfreie_Stadt"},"district":{"key":"07317","name":"Pirmasens, kreisfreie Stadt","type":"Kreisfreie_Stadt"},"federalState":{"key":"07","name":"Rheinland-Pfalz"}},{"name":"Scheuergasse","postalCode":"66954","locality":"Pirmasens","municipality":{"key":"07317000","name":"Pirmasens, Stadt","type":"Kreisfreie_Stadt"},"district":{"key":"07317","name":"Pirmasens, kreisfreie Stadt","type":"Kreisfreie_Stadt"},"federalState":{"key":"07","name":"Rheinland-Pfalz"}},{"name":"Schillerring","postalCode":"66955","locality":"Pirmasens","municipality":{"key":"07317000","name":"Pirmasens, Stadt","type":"Kreisfreie_Stadt"},"district":{"key":"07317","name":"Pirmasens, kreisfreie Stadt","type":"Kreisfreie_Stadt"},"federalState":{"key":"07","name":"Rheinland-Pfalz"}},{"name":"Schillerstr.","postalCode":"66955","locality":"Pirmasens","municipality":{"key":"07317000","name":"Pirmasens, Stadt","type":"Kreisfreie_Stadt"},"district":{"key":"07317","name":"Pirmasens, kreisfreie Stadt","type":"Kreisfreie_Stadt"},"federalState":{"key":"07","name":"Rheinland-Pfalz"}},{"name":"Schlaugasse","postalCode":"66955","locality":"Pirmasens","municipality":{"key":"07317000","name":"Pirmasens, Stadt","type":"Kreisfreie_Stadt"},"district":{"key":"07317","name":"Pirmasens, kreisfreie Stadt","type":"Kreisfreie_Stadt"},"federalState":{"key":"07","name":"Rheinland-Pfalz"}},{"name":"Schlesienstr.","postalCode":"66955","locality":"Pirmasens","municipality":{"key":"07317000","name":"Pirmasens, Stadt","type":"Kreisfreie_Stadt"},"district":{"key":"07317","name":"Pirmasens, kreisfreie Stadt","type":"Kreisfreie_Stadt"},"federalState":{"key":"07","name":"Rheinland-Pfalz"}},{"name":"Schloßstr.","postalCode":"66953","locality":"Pirmasens","municipality":{"key":"07317000","name":"Pirmasens, Stadt","type":"Kreisfreie_Stadt"},"district":{"key":"07317","name":"Pirmasens, kreisfreie Stadt","type":"Kreisfreie_Stadt"},"federalState":{"key":"07","name":"Rheinland-Pfalz"}},{"name":"Schloßtreppen","postalCode":"66953","locality":"Pirmasens","municipality":{"key":"07317000","name":"Pirmasens, Stadt","type":"Kreisfreie_Stadt"},"district":{"key":"07317","name":"Pirmasens, kreisfreie Stadt","type":"Kreisfreie_Stadt"},"federalState":{"key":"07","name":"Rheinland-Pfalz"}},{"name":"Schubertstr.","postalCode":"66955","locality":"Pirmasens","municipality":{"key":"07317000","name":"Pirmasens, Stadt","type":"Kreisfreie_Stadt"},"district":{"key":"07317","name":"Pirmasens, kreisfreie Stadt","type":"Kreisfreie_Stadt"},"federalState":{"key":"07","name":"Rheinland-Pfalz"}},{"name":"Schulhof","postalCode":"66955","locality":"Pirmasens","municipality":{"key":"07317000","name":"Pirmasens, Stadt","type":"Kreisfreie_Stadt"},"district":{"key":"07317","name":"Pirmasens, kreisfreie Stadt","type":"Kreisfreie_Stadt"},"federalState":{"key":"07","name":"Rheinland-Pfalz"}},{"name":"Schulstr.","postalCode":"66955","locality":"Pirmasens","municipality":{"key":"07317000","name":"Pirmasens, Stadt","type":"Kreisfreie_Stadt"},"district":{"key":"07317","name":"Pirmasens, kreisfreie Stadt","type":"Kreisfreie_Stadt"},"federalState":{"key":"07","name":"Rheinland-Pfalz"}},{"name":"Schumannstr.","postalCode":"66955","locality":"Pirmasens","municipality":{"key":"07317000","name":"Pirmasens, Stadt","type":"Kreisfreie_Stadt"},"district":{"key":"07317","name":"Pirmasens, kreisfreie Stadt","type":"Kreisfreie_Stadt"},"federalState":{"key":"07","name":"Rheinland-Pfalz"}},{"name":"Schützengartenstr.","postalCode":"66955","locality":"Pirmasens","municipality":{"key":"07317000","name":"Pirmasens, Stadt","type":"Kreisfreie_Stadt"},"district":{"key":"07317","name":"Pirmasens, kreisfreie Stadt","type":"Kreisfreie_Stadt"},"federalState":{"key":"07","name":"Rheinland-Pfalz"}},{"name":"Schützenplatzstr.","postalCode":"66953","locality":"Pirmasens","municipality":{"key":"07317000","name":"Pirmasens, Stadt","type":"Kreisfreie_Stadt"},"district":{"key":"07317","name":"Pirmasens, kreisfreie Stadt","type":"Kreisfreie_Stadt"},"federalState":{"key":"07","name":"Rheinland-Pfalz"}},{"name":"Schützenstr.","postalCode":"66953","locality":"Pirmasens","municipality":{"key":"07317000","name":"Pirmasens, Stadt","type":"Kreisfreie_Stadt"},"district":{"key":"07317","name":"Pirmasens, kreisfreie Stadt","type":"Kreisfreie_Stadt"},"federalState":{"key":"07","name":"Rheinland-Pfalz"}},{"name":"Schwanenstr.","postalCode":"66953","locality":"Pirmasens","municipality":{"key":"07317000","name":"Pirmasens, Stadt","type":"Kreisfreie_Stadt"},"district":{"key":"07317","name":"Pirmasens, kreisfreie Stadt","type":"Kreisfreie_Stadt"},"federalState":{"key":"07","name":"Rheinland-Pfalz"}},{"name":"Sedanstr.","postalCode":"66953","locality":"Pirmasens","municipality":{"key":"07317000","name":"Pirmasens, Stadt","type":"Kreisfreie_Stadt"},"district":{"key":"07317","name":"Pirmasens, kreisfreie Stadt","type":"Kreisfreie_Stadt"},"federalState":{"key":"07","name":"Rheinland-Pfalz"}},{"name":"Sengelsbergstr.","postalCode":"66955","locality":"Pirmasens","municipality":{"key":"07317000","name":"Pirmasens, Stadt","type":"Kreisfreie_Stadt"},"district":{"key":"07317","name":"Pirmasens, kreisfreie Stadt","type":"Kreisfreie_Stadt"},"federalState":{"key":"07","name":"Rheinland-Pfalz"}},{"name":"Simter Str.","postalCode":"66955","locality":"Pirmasens","municipality":{"key":"07317000","name":"Pirmasens, Stadt","type":"Kreisfreie_Stadt"},"district":{"key":"07317","name":"Pirmasens, kreisfreie Stadt","type":"Kreisfreie_Stadt"},"federalState":{"key":"07","name":"Rheinland-Pfalz"}},{"name":"Slevogtstr.","postalCode":"66955","locality":"Pirmasens","municipality":{"key":"07317000","name":"Pirmasens, Stadt","type":"Kreisfreie_Stadt"},"district":{"key":"07317","name":"Pirmasens, kreisfreie Stadt","type":"Kreisfreie_Stadt"},"federalState":{"key":"07","name":"Rheinland-Pfalz"}},{"name":"Sommergasse","postalCode":"66955","locality":"Pirmasens","municipality":{"key":"07317000","name":"Pirmasens, Stadt","type":"Kreisfreie_Stadt"},"district":{"key":"07317","name":"Pirmasens, kreisfreie Stadt","type":"Kreisfreie_Stadt"},"federalState":{"key":"07","name":"Rheinland-Pfalz"}},{"name":"Sommerweg","postalCode":"66955","locality":"Pirmasens","municipality":{"key":"07317000","name":"Pirmasens, Stadt","type":"Kreisfreie_Stadt"},"district":{"key":"07317","name":"Pirmasens, kreisfreie Stadt","type":"Kreisfreie_Stadt"},"federalState":{"key":"07","name":"Rheinland-Pfalz"}},{"name":"Sonnenstr.","postalCode":"66954","locality":"Pirmasens","municipality":{"key":"07317000","name":"Pirmasens, Stadt","type":"Kreisfreie_Stadt"},"district":{"key":"07317","name":"Pirmasens, kreisfreie Stadt","type":"Kreisfreie_Stadt"},"federalState":{"key":"07","name":"Rheinland-Pfalz"}},{"name":"Sonnenwendstr.","postalCode":"66955","locality":"Pirmasens","municipality":{"key":"07317000","name":"Pirmasens, Stadt","type":"Kreisfreie_Stadt"},"district":{"key":"07317","name":"Pirmasens, kreisfreie Stadt","type":"Kreisfreie_Stadt"},"federalState":{"key":"07","name":"Rheinland-Pfalz"}},{"name":"South Carolina Avenue","postalCode":"66953","locality":"Pirmasens","municipality":{"key":"07317000","name":"Pirmasens, Stadt","type":"Kreisfreie_Stadt"},"district":{"key":"07317","name":"Pirmasens, kreisfreie Stadt","type":"Kreisfreie_Stadt"},"federalState":{"key":"07","name":"Rheinland-Pfalz"}},{"name":"Spichernstr.","postalCode":"66953","locality":"Pirmasens","municipality":{"key":"07317000","name":"Pirmasens, Stadt","type":"Kreisfreie_Stadt"},"district":{"key":"07317","name":"Pirmasens, kreisfreie Stadt","type":"Kreisfreie_Stadt"},"federalState":{"key":"07","name":"Rheinland-Pfalz"}},{"name":"Spielpark Eisweiher","postalCode":"66955","locality":"Pirmasens","municipality":{"key":"07317000","name":"Pirmasens, Stadt","type":"Kreisfreie_Stadt"},"district":{"key":"07317","name":"Pirmasens, kreisfreie Stadt","type":"Kreisfreie_Stadt"},"federalState":{"key":"07","name":"Rheinland-Pfalz"}},{"name":"Spitalstr.","postalCode":"66953","locality":"Pirmasens","municipality":{"key":"07317000","name":"Pirmasens, Stadt","type":"Kreisfreie_Stadt"},"district":{"key":"07317","name":"Pirmasens, kreisfreie Stadt","type":"Kreisfreie_Stadt"},"federalState":{"key":"07","name":"Rheinland-Pfalz"}},{"name":"Sportplatzstr.","postalCode":"66955","locality":"Pirmasens","municipality":{"key":"07317000","name":"Pirmasens, Stadt","type":"Kreisfreie_Stadt"},"district":{"key":"07317","name":"Pirmasens, kreisfreie Stadt","type":"Kreisfreie_Stadt"},"federalState":{"key":"07","name":"Rheinland-Pfalz"}},{"name":"Staffelberg","postalCode":"66954","locality":"Pirmasens","municipality":{"key":"07317000","name":"Pirmasens, Stadt","type":"Kreisfreie_Stadt"},"district":{"key":"07317","name":"Pirmasens, kreisfreie Stadt","type":"Kreisfreie_Stadt"},"federalState":{"key":"07","name":"Rheinland-Pfalz"}},{"name":"Starkenburgstr.","postalCode":"66953","locality":"Pirmasens","municipality":{"key":"07317000","name":"Pirmasens, Stadt","type":"Kreisfreie_Stadt"},"district":{"key":"07317","name":"Pirmasens, kreisfreie Stadt","type":"Kreisfreie_Stadt"},"federalState":{"key":"07","name":"Rheinland-Pfalz"}},{"name":"Steiggärtenstr.","postalCode":"66954","locality":"Pirmasens","municipality":{"key":"07317000","name":"Pirmasens, Stadt","type":"Kreisfreie_Stadt"},"district":{"key":"07317","name":"Pirmasens, kreisfreie Stadt","type":"Kreisfreie_Stadt"},"federalState":{"key":"07","name":"Rheinland-Pfalz"}},{"name":"Steilgasse","postalCode":"66953","locality":"Pirmasens","municipality":{"key":"07317000","name":"Pirmasens, Stadt","type":"Kreisfreie_Stadt"},"district":{"key":"07317","name":"Pirmasens, kreisfreie Stadt","type":"Kreisfreie_Stadt"},"federalState":{"key":"07","name":"Rheinland-Pfalz"}},{"name":"Steinbachstr.","postalCode":"66953","locality":"Pirmasens","municipality":{"key":"07317000","name":"Pirmasens, Stadt","type":"Kreisfreie_Stadt"},"district":{"key":"07317","name":"Pirmasens, kreisfreie Stadt","type":"Kreisfreie_Stadt"},"federalState":{"key":"07","name":"Rheinland-Pfalz"}},{"name":"Steiniger Bühl","postalCode":"66955","locality":"Pirmasens","municipality":{"key":"07317000","name":"Pirmasens, Stadt","type":"Kreisfreie_Stadt"},"district":{"key":"07317","name":"Pirmasens, kreisfreie Stadt","type":"Kreisfreie_Stadt"},"federalState":{"key":"07","name":"Rheinland-Pfalz"}},{"name":"Steinstr.","postalCode":"66953","locality":"Pirmasens","municipality":{"key":"07317000","name":"Pirmasens, Stadt","type":"Kreisfreie_Stadt"},"district":{"key":"07317","name":"Pirmasens, kreisfreie Stadt","type":"Kreisfreie_Stadt"},"federalState":{"key":"07","name":"Rheinland-Pfalz"}},{"name":"Sternstr.","postalCode":"66954","locality":"Pirmasens","municipality":{"key":"07317000","name":"Pirmasens, Stadt","type":"Kreisfreie_Stadt"},"district":{"key":"07317","name":"Pirmasens, kreisfreie Stadt","type":"Kreisfreie_Stadt"},"federalState":{"key":"07","name":"Rheinland-Pfalz"}},{"name":"St.-Josef-Str.","postalCode":"66954","locality":"Pirmasens","municipality":{"key":"07317000","name":"Pirmasens, Stadt","type":"Kreisfreie_Stadt"},"district":{"key":"07317","name":"Pirmasens, kreisfreie Stadt","type":"Kreisfreie_Stadt"},"federalState":{"key":"07","name":"Rheinland-Pfalz"}},{"name":"Stockstr.","postalCode":"66953","locality":"Pirmasens","municipality":{"key":"07317000","name":"Pirmasens, Stadt","type":"Kreisfreie_Stadt"},"district":{"key":"07317","name":"Pirmasens, kreisfreie Stadt","type":"Kreisfreie_Stadt"},"federalState":{"key":"07","name":"Rheinland-Pfalz"}},{"name":"Strecktalpark","postalCode":"66954","locality":"Pirmasens","municipality":{"key":"07317000","name":"Pirmasens, Stadt","type":"Kreisfreie_Stadt"},"district":{"key":"07317","name":"Pirmasens, kreisfreie Stadt","type":"Kreisfreie_Stadt"},"federalState":{"key":"07","name":"Rheinland-Pfalz"}},{"name":"Strobelallee","postalCode":"66953","locality":"Pirmasens","municipality":{"key":"07317000","name":"Pirmasens, Stadt","type":"Kreisfreie_Stadt"},"district":{"key":"07317","name":"Pirmasens, kreisfreie Stadt","type":"Kreisfreie_Stadt"},"federalState":{"key":"07","name":"Rheinland-Pfalz"}},{"name":"Synagogengasse","postalCode":"66953","locality":"Pirmasens","municipality":{"key":"07317000","name":"Pirmasens, Stadt","type":"Kreisfreie_Stadt"},"district":{"key":"07317","name":"Pirmasens, kreisfreie Stadt","type":"Kreisfreie_Stadt"},"federalState":{"key":"07","name":"Rheinland-Pfalz"}},{"name":"Teichstr.","postalCode":"66953","locality":"Pirmasens","municipality":{"key":"07317000","name":"Pirmasens, Stadt","type":"Kreisfreie_Stadt"},"district":{"key":"07317","name":"Pirmasens, kreisfreie Stadt","type":"Kreisfreie_Stadt"},"federalState":{"key":"07","name":"Rheinland-Pfalz"}},{"name":"Terrassenweg","postalCode":"66953","locality":"Pirmasens","municipality":{"key":"07317000","name":"Pirmasens, Stadt","type":"Kreisfreie_Stadt"},"district":{"key":"07317","name":"Pirmasens, kreisfreie Stadt","type":"Kreisfreie_Stadt"},"federalState":{"key":"07","name":"Rheinland-Pfalz"}},{"name":"Texas Avenue","postalCode":"66953","locality":"Pirmasens","municipality":{"key":"07317000","name":"Pirmasens, Stadt","type":"Kreisfreie_Stadt"},"district":{"key":"07317","name":"Pirmasens, kreisfreie Stadt","type":"Kreisfreie_Stadt"},"federalState":{"key":"07","name":"Rheinland-Pfalz"}},{"name":"Theodor-Heuss-Str.","postalCode":"66953","locality":"Pirmasens","municipality":{"key":"07317000","name":"Pirmasens, Stadt","type":"Kreisfreie_Stadt"},"district":{"key":"07317","name":"Pirmasens, kreisfreie Stadt","type":"Kreisfreie_Stadt"},"federalState":{"key":"07","name":"Rheinland-Pfalz"}},{"name":"Tilsiter Str.","postalCode":"66954","locality":"Pirmasens","municipality":{"key":"07317000","name":"Pirmasens, Stadt","type":"Kreisfreie_Stadt"},"district":{"key":"07317","name":"Pirmasens, kreisfreie Stadt","type":"Kreisfreie_Stadt"},"federalState":{"key":"07","name":"Rheinland-Pfalz"}},{"name":"Tiroler Str.","postalCode":"66954","locality":"Pirmasens","municipality":{"key":"07317000","name":"Pirmasens, Stadt","type":"Kreisfreie_Stadt"},"district":{"key":"07317","name":"Pirmasens, kreisfreie Stadt","type":"Kreisfreie_Stadt"},"federalState":{"key":"07","name":"Rheinland-Pfalz"}},{"name":"Torweg","postalCode":"66955","locality":"Pirmasens","municipality":{"key":"07317000","name":"Pirmasens, Stadt","type":"Kreisfreie_Stadt"},"district":{"key":"07317","name":"Pirmasens, kreisfreie Stadt","type":"Kreisfreie_Stadt"},"federalState":{"key":"07","name":"Rheinland-Pfalz"}},{"name":"Trifelsstr.","postalCode":"66954","locality":"Pirmasens","municipality":{"key":"07317000","name":"Pirmasens, Stadt","type":"Kreisfreie_Stadt"},"district":{"key":"07317","name":"Pirmasens, kreisfreie Stadt","type":"Kreisfreie_Stadt"},"federalState":{"key":"07","name":"Rheinland-Pfalz"}},{"name":"Tuchbleichstr.","postalCode":"66955","locality":"Pirmasens","municipality":{"key":"07317000","name":"Pirmasens, Stadt","type":"Kreisfreie_Stadt"},"district":{"key":"07317","name":"Pirmasens, kreisfreie Stadt","type":"Kreisfreie_Stadt"},"federalState":{"key":"07","name":"Rheinland-Pfalz"}},{"name":"Tunnelstr.","postalCode":"66953","locality":"Pirmasens","municipality":{"key":"07317000","name":"Pirmasens, Stadt","type":"Kreisfreie_Stadt"},"district":{"key":"07317","name":"Pirmasens, kreisfreie Stadt","type":"Kreisfreie_Stadt"},"federalState":{"key":"07","name":"Rheinland-Pfalz"}},{"name":"Turnstr.","postalCode":"66953","locality":"Pirmasens","municipality":{"key":"07317000","name":"Pirmasens, Stadt","type":"Kreisfreie_Stadt"},"district":{"key":"07317","name":"Pirmasens, kreisfreie Stadt","type":"Kreisfreie_Stadt"},"federalState":{"key":"07","name":"Rheinland-Pfalz"}},{"name":"Uhlandstr.","postalCode":"66955","locality":"Pirmasens","municipality":{"key":"07317000","name":"Pirmasens, Stadt","type":"Kreisfreie_Stadt"},"district":{"key":"07317","name":"Pirmasens, kreisfreie Stadt","type":"Kreisfreie_Stadt"},"federalState":{"key":"07","name":"Rheinland-Pfalz"}},{"name":"Ulmenweg","postalCode":"66953","locality":"Pirmasens","municipality":{"key":"07317000","name":"Pirmasens, Stadt","type":"Kreisfreie_Stadt"},"district":{"key":"07317","name":"Pirmasens, kreisfreie Stadt","type":"Kreisfreie_Stadt"},"federalState":{"key":"07","name":"Rheinland-Pfalz"}},{"name":"Unterer Schloßplatz","postalCode":"66953","locality":"Pirmasens","municipality":{"key":"07317000","name":"Pirmasens, Stadt","type":"Kreisfreie_Stadt"},"district":{"key":"07317","name":"Pirmasens, kreisfreie Stadt","type":"Kreisfreie_Stadt"},"federalState":{"key":"07","name":"Rheinland-Pfalz"}},{"name":"Unterer Sommerwaldweg","postalCode":"66953","locality":"Pirmasens","municipality":{"key":"07317000","name":"Pirmasens, Stadt","type":"Kreisfreie_Stadt"},"district":{"key":"07317","name":"Pirmasens, kreisfreie Stadt","type":"Kreisfreie_Stadt"},"federalState":{"key":"07","name":"Rheinland-Pfalz"}},{"name":"Vogelstr.","postalCode":"66953","locality":"Pirmasens","municipality":{"key":"07317000","name":"Pirmasens, Stadt","type":"Kreisfreie_Stadt"},"district":{"key":"07317","name":"Pirmasens, kreisfreie Stadt","type":"Kreisfreie_Stadt"},"federalState":{"key":"07","name":"Rheinland-Pfalz"}},{"name":"Vogesenstr.","postalCode":"66953","locality":"Pirmasens","municipality":{"key":"07317000","name":"Pirmasens, Stadt","type":"Kreisfreie_Stadt"},"district":{"key":"07317","name":"Pirmasens, kreisfreie Stadt","type":"Kreisfreie_Stadt"},"federalState":{"key":"07","name":"Rheinland-Pfalz"}},{"name":"Volksgartenstr.","postalCode":"66953","locality":"Pirmasens","municipality":{"key":"07317000","name":"Pirmasens, Stadt","type":"Kreisfreie_Stadt"},"district":{"key":"07317","name":"Pirmasens, kreisfreie Stadt","type":"Kreisfreie_Stadt"},"federalState":{"key":"07","name":"Rheinland-Pfalz"}},{"name":"Von-der-Tann-Str.","postalCode":"66955","locality":"Pirmasens","municipality":{"key":"07317000","name":"Pirmasens, Stadt","type":"Kreisfreie_Stadt"},"district":{"key":"07317","name":"Pirmasens, kreisfreie Stadt","type":"Kreisfreie_Stadt"},"federalState":{"key":"07","name":"Rheinland-Pfalz"}},{"name":"Wackenbergstr.","postalCode":"66955","locality":"Pirmasens","municipality":{"key":"07317000","name":"Pirmasens, Stadt","type":"Kreisfreie_Stadt"},"district":{"key":"07317","name":"Pirmasens, kreisfreie Stadt","type":"Kreisfreie_Stadt"},"federalState":{"key":"07","name":"Rheinland-Pfalz"}},{"name":"Wagenstr.","postalCode":"66953","locality":"Pirmasens","municipality":{"key":"07317000","name":"Pirmasens, Stadt","type":"Kreisfreie_Stadt"},"district":{"key":"07317","name":"Pirmasens, kreisfreie Stadt","type":"Kreisfreie_Stadt"},"federalState":{"key":"07","name":"Rheinland-Pfalz"}},{"name":"Waisenhausstr.","postalCode":"66954","locality":"Pirmasens","municipality":{"key":"07317000","name":"Pirmasens, Stadt","type":"Kreisfreie_Stadt"},"district":{"key":"07317","name":"Pirmasens, kreisfreie Stadt","type":"Kreisfreie_Stadt"},"federalState":{"key":"07","name":"Rheinland-Pfalz"}},{"name":"Waldstr.","postalCode":"66953","locality":"Pirmasens","municipality":{"key":"07317000","name":"Pirmasens, Stadt","type":"Kreisfreie_Stadt"},"district":{"key":"07317","name":"Pirmasens, kreisfreie Stadt","type":"Kreisfreie_Stadt"},"federalState":{"key":"07","name":"Rheinland-Pfalz"}},{"name":"Wasgaustr.","postalCode":"66955","locality":"Pirmasens","municipality":{"key":"07317000","name":"Pirmasens, Stadt","type":"Kreisfreie_Stadt"},"district":{"key":"07317","name":"Pirmasens, kreisfreie Stadt","type":"Kreisfreie_Stadt"},"federalState":{"key":"07","name":"Rheinland-Pfalz"}},{"name":"Wasserturmstr.","postalCode":"66954","locality":"Pirmasens","municipality":{"key":"07317000","name":"Pirmasens, Stadt","type":"Kreisfreie_Stadt"},"district":{"key":"07317","name":"Pirmasens, kreisfreie Stadt","type":"Kreisfreie_Stadt"},"federalState":{"key":"07","name":"Rheinland-Pfalz"}},{"name":"Weidenstr.","postalCode":"66955","locality":"Pirmasens","municipality":{"key":"07317000","name":"Pirmasens, Stadt","type":"Kreisfreie_Stadt"},"district":{"key":"07317","name":"Pirmasens, kreisfreie Stadt","type":"Kreisfreie_Stadt"},"federalState":{"key":"07","name":"Rheinland-Pfalz"}},{"name":"Werner-Egk-Str.","postalCode":"66955","locality":"Pirmasens","municipality":{"key":"07317000","name":"Pirmasens, Stadt","type":"Kreisfreie_Stadt"},"district":{"key":"07317","name":"Pirmasens, kreisfreie Stadt","type":"Kreisfreie_Stadt"},"federalState":{"key":"07","name":"Rheinland-Pfalz"}},{"name":"Werner-von-Siemens-Str.","postalCode":"66953","locality":"Pirmasens","municipality":{"key":"07317000","name":"Pirmasens, Stadt","type":"Kreisfreie_Stadt"},"district":{"key":"07317","name":"Pirmasens, kreisfreie Stadt","type":"Kreisfreie_Stadt"},"federalState":{"key":"07","name":"Rheinland-Pfalz"}},{"name":"Wernher-von-Braun-Str.","postalCode":"66953","locality":"Pirmasens","municipality":{"key":"07317000","name":"Pirmasens, Stadt","type":"Kreisfreie_Stadt"},"district":{"key":"07317","name":"Pirmasens, kreisfreie Stadt","type":"Kreisfreie_Stadt"},"federalState":{"key":"07","name":"Rheinland-Pfalz"}},{"name":"Westring","postalCode":"66954","locality":"Pirmasens","municipality":{"key":"07317000","name":"Pirmasens, Stadt","type":"Kreisfreie_Stadt"},"district":{"key":"07317","name":"Pirmasens, kreisfreie Stadt","type":"Kreisfreie_Stadt"},"federalState":{"key":"07","name":"Rheinland-Pfalz"}},{"name":"Wiesenstr.","postalCode":"66954","locality":"Pirmasens","municipality":{"key":"07317000","name":"Pirmasens, Stadt","type":"Kreisfreie_Stadt"},"district":{"key":"07317","name":"Pirmasens, kreisfreie Stadt","type":"Kreisfreie_Stadt"},"federalState":{"key":"07","name":"Rheinland-Pfalz"}},{"name":"Wildstr.","postalCode":"66955","locality":"Pirmasens","municipality":{"key":"07317000","name":"Pirmasens, Stadt","type":"Kreisfreie_Stadt"},"district":{"key":"07317","name":"Pirmasens, kreisfreie Stadt","type":"Kreisfreie_Stadt"},"federalState":{"key":"07","name":"Rheinland-Pfalz"}},{"name":"Wilhelm-Röntgen-Str.","postalCode":"66953","locality":"Pirmasens","municipality":{"key":"07317000","name":"Pirmasens, Stadt","type":"Kreisfreie_Stadt"},"district":{"key":"07317","name":"Pirmasens, kreisfreie Stadt","type":"Kreisfreie_Stadt"},"federalState":{"key":"07","name":"Rheinland-Pfalz"}},{"name":"Wilhelmsgasse","postalCode":"66955","locality":"Pirmasens","municipality":{"key":"07317000","name":"Pirmasens, Stadt","type":"Kreisfreie_Stadt"},"district":{"key":"07317","name":"Pirmasens, kreisfreie Stadt","type":"Kreisfreie_Stadt"},"federalState":{"key":"07","name":"Rheinland-Pfalz"}},{"name":"Wilhelmstr.","postalCode":"66955","locality":"Pirmasens","municipality":{"key":"07317000","name":"Pirmasens, Stadt","type":"Kreisfreie_Stadt"},"district":{"key":"07317","name":"Pirmasens, kreisfreie Stadt","type":"Kreisfreie_Stadt"},"federalState":{"key":"07","name":"Rheinland-Pfalz"}},{"name":"Windsberger Str.","postalCode":"66954","locality":"Pirmasens","municipality":{"key":"07317000","name":"Pirmasens, Stadt","type":"Kreisfreie_Stadt"},"district":{"key":"07317","name":"Pirmasens, kreisfreie Stadt","type":"Kreisfreie_Stadt"},"federalState":{"key":"07","name":"Rheinland-Pfalz"}},{"name":"Windstr.","postalCode":"66955","locality":"Pirmasens","municipality":{"key":"07317000","name":"Pirmasens, Stadt","type":"Kreisfreie_Stadt"},"district":{"key":"07317","name":"Pirmasens, kreisfreie Stadt","type":"Kreisfreie_Stadt"},"federalState":{"key":"07","name":"Rheinland-Pfalz"}},{"name":"Winzler Str.","postalCode":"66954","locality":"Pirmasens","municipality":{"key":"07317000","name":"Pirmasens, Stadt","type":"Kreisfreie_Stadt"},"district":{"key":"07317","name":"Pirmasens, kreisfreie Stadt","type":"Kreisfreie_Stadt"},"federalState":{"key":"07","name":"Rheinland-Pfalz"}},{"name":"Winzler Str.","postalCode":"66955","locality":"Pirmasens","municipality":{"key":"07317000","name":"Pirmasens, Stadt","type":"Kreisfreie_Stadt"},"district":{"key":"07317","name":"Pirmasens, kreisfreie Stadt","type":"Kreisfreie_Stadt"},"federalState":{"key":"07","name":"Rheinland-Pfalz"}},{"name":"Wittelsbacherstr.","postalCode":"66954","locality":"Pirmasens","municipality":{"key":"07317000","name":"Pirmasens, Stadt","type":"Kreisfreie_Stadt"},"district":{"key":"07317","name":"Pirmasens, kreisfreie Stadt","type":"Kreisfreie_Stadt"},"federalState":{"key":"07","name":"Rheinland-Pfalz"}},{"name":"Wormser Str.","postalCode":"66953","locality":"Pirmasens","municipality":{"key":"07317000","name":"Pirmasens, Stadt","type":"Kreisfreie_Stadt"},"district":{"key":"07317","name":"Pirmasens, kreisfreie Stadt","type":"Kreisfreie_Stadt"},"federalState":{"key":"07","name":"Rheinland-Pfalz"}},{"name":"Wörthstr.","postalCode":"66953","locality":"Pirmasens","municipality":{"key":"07317000","name":"Pirmasens, Stadt","type":"Kreisfreie_Stadt"},"district":{"key":"07317","name":"Pirmasens, kreisfreie Stadt","type":"Kreisfreie_Stadt"},"federalState":{"key":"07","name":"Rheinland-Pfalz"}},{"name":"Zaunweg","postalCode":"66953","locality":"Pirmasens","municipality":{"key":"07317000","name":"Pirmasens, Stadt","type":"Kreisfreie_Stadt"},"district":{"key":"07317","name":"Pirmasens, kreisfreie Stadt","type":"Kreisfreie_Stadt"},"federalState":{"key":"07","name":"Rheinland-Pfalz"}},{"name":"Zeppelinstr.","postalCode":"66953","locality":"Pirmasens","municipality":{"key":"07317000","name":"Pirmasens, Stadt","type":"Kreisfreie_Stadt"},"district":{"key":"07317","name":"Pirmasens, kreisfreie Stadt","type":"Kreisfreie_Stadt"},"federalState":{"key":"07","name":"Rheinland-Pfalz"}},{"name":"Zollerstr.","postalCode":"66955","locality":"Pirmasens","municipality":{"key":"07317000","name":"Pirmasens, Stadt","type":"Kreisfreie_Stadt"},"district":{"key":"07317","name":"Pirmasens, kreisfreie Stadt","type":"Kreisfreie_Stadt"},"federalState":{"key":"07","name":"Rheinland-Pfalz"}},{"name":"Zollstockstr.","postalCode":"66955","locality":"Pirmasens","municipality":{"key":"07317000","name":"Pirmasens, Stadt","type":"Kreisfreie_Stadt"},"district":{"key":"07317","name":"Pirmasens, kreisfreie Stadt","type":"Kreisfreie_Stadt"},"federalState":{"key":"07","name":"Rheinland-Pfalz"}},{"name":"Zum Hexenhübel","postalCode":"66955","locality":"Pirmasens","municipality":{"key":"07317000","name":"Pirmasens, Stadt","type":"Kreisfreie_Stadt"},"district":{"key":"07317","name":"Pirmasens, kreisfreie Stadt","type":"Kreisfreie_Stadt"},"federalState":{"key":"07","name":"Rheinland-Pfalz"}},{"name":"Zum Keglerheim","postalCode":"66953","locality":"Pirmasens","municipality":{"key":"07317000","name":"Pirmasens, Stadt","type":"Kreisfreie_Stadt"},"district":{"key":"07317","name":"Pirmasens, kreisfreie Stadt","type":"Kreisfreie_Stadt"},"federalState":{"key":"07","name":"Rheinland-Pfalz"}},{"name":"Zur Stoppelkuppe","postalCode":"66955","locality":"Pirmasens","municipality":{"key":"07317000","name":"Pirmasens, Stadt","type":"Kreisfreie_Stadt"},"district":{"key":"07317","name":"Pirmasens, kreisfreie Stadt","type":"Kreisfreie_Stadt"},"federalState":{"key":"07","name":"Rheinland-Pfalz"}},{"name":"Zweibrücker Str.","postalCode":"66953","locality":"Pirmasens","municipality":{"key":"07317000","name":"Pirmasens, Stadt","type":"Kreisfreie_Stadt"},"district":{"key":"07317","name":"Pirmasens, kreisfreie Stadt","type":"Kreisfreie_Stadt"},"federalState":{"key":"07","name":"Rheinland-Pfalz"}},{"name":"Zweibrücker Str.","postalCode":"66954","locality":"Pirmasens","municipality":{"key":"07317000","name":"Pirmasens, Stadt","type":"Kreisfreie_Stadt"},"district":{"key":"07317","name":"Pirmasens, kreisfreie Stadt","type":"Kreisfreie_Stadt"},"federalState":{"key":"07","name":"Rheinland-Pfalz"}},{"name":"Zwingerstr.","postalCode":"66953","locality":"Pirmasens","municipality":{"key":"07317000","name":"Pirmasens, Stadt","type":"Kreisfreie_Stadt"},"district":{"key":"07317","name":"Pirmasens, kreisfreie Stadt","type":"Kreisfreie_Stadt"},"federalState":{"key":"07","name":"Rheinland-Pfalz"}},]