[{"name":"Abtsleitenweg","postalCode":"97074","locality":"Würzburg","municipality":{"key":"09663000","name":"Würzburg","type":"Kreisfreie_Stadt"},"district":{"key":"09663","name":"Würzburg","type":"Kreisfreie_Stadt"},"federalState":{"key":"09","name":"Bayern"}},{"name":"Adalberostr.","postalCode":"97072","locality":"Würzburg","municipality":{"key":"09663000","name":"Würzburg","type":"Kreisfreie_Stadt"},"district":{"key":"09663","name":"Würzburg","type":"Kreisfreie_Stadt"},"federalState":{"key":"09","name":"Bayern"}},{"name":"Adalbert-Stifter-Weg","postalCode":"97082","locality":"Würzburg","municipality":{"key":"09663000","name":"Würzburg","type":"Kreisfreie_Stadt"},"district":{"key":"09663","name":"Würzburg","type":"Kreisfreie_Stadt"},"federalState":{"key":"09","name":"Bayern"}},{"name":"Adam-Güthlein-Str.","postalCode":"97078","locality":"Würzburg","municipality":{"key":"09663000","name":"Würzburg","type":"Kreisfreie_Stadt"},"district":{"key":"09663","name":"Würzburg","type":"Kreisfreie_Stadt"},"federalState":{"key":"09","name":"Bayern"}},{"name":"Adamiwiese","postalCode":"97074","locality":"Würzburg","municipality":{"key":"09663000","name":"Würzburg","type":"Kreisfreie_Stadt"},"district":{"key":"09663","name":"Würzburg","type":"Kreisfreie_Stadt"},"federalState":{"key":"09","name":"Bayern"}},{"name":"Adelgundenweg","postalCode":"97082","locality":"Würzburg","municipality":{"key":"09663000","name":"Würzburg","type":"Kreisfreie_Stadt"},"district":{"key":"09663","name":"Würzburg","type":"Kreisfreie_Stadt"},"federalState":{"key":"09","name":"Bayern"}},{"name":"Agnes-Sapper-Str.","postalCode":"97074","locality":"Würzburg","municipality":{"key":"09663000","name":"Würzburg","type":"Kreisfreie_Stadt"},"district":{"key":"09663","name":"Würzburg","type":"Kreisfreie_Stadt"},"federalState":{"key":"09","name":"Bayern"}},{"name":"Ahornweg","postalCode":"97076","locality":"Würzburg","municipality":{"key":"09663000","name":"Würzburg","type":"Kreisfreie_Stadt"},"district":{"key":"09663","name":"Würzburg","type":"Kreisfreie_Stadt"},"federalState":{"key":"09","name":"Bayern"}},{"name":"Akaziensteige","postalCode":"97084","locality":"Würzburg","municipality":{"key":"09663000","name":"Würzburg","type":"Kreisfreie_Stadt"},"district":{"key":"09663","name":"Würzburg","type":"Kreisfreie_Stadt"},"federalState":{"key":"09","name":"Bayern"}},{"name":"Albanusweg","postalCode":"97262","locality":"Hausen b. Würzburg","municipality":{"key":"09679143","name":"Hausen b.Würzburg","type":"Kreisangehörige_Gemeinde"},"district":{"key":"09679","name":"Würzburg","type":"Landkreis"},"federalState":{"key":"09","name":"Bayern"}},{"name":"Albert-Balling-Gasse","postalCode":"97084","locality":"Würzburg","municipality":{"key":"09663000","name":"Würzburg","type":"Kreisfreie_Stadt"},"district":{"key":"09663","name":"Würzburg","type":"Kreisfreie_Stadt"},"federalState":{"key":"09","name":"Bayern"}},{"name":"Albert-Einstein-Str.","postalCode":"97080","locality":"Würzburg","municipality":{"key":"09663000","name":"Würzburg","type":"Kreisfreie_Stadt"},"district":{"key":"09663","name":"Würzburg","type":"Kreisfreie_Stadt"},"federalState":{"key":"09","name":"Bayern"}},{"name":"Albert-Hoffa-Str.","postalCode":"97074","locality":"Würzburg","municipality":{"key":"09663000","name":"Würzburg","type":"Kreisfreie_Stadt"},"district":{"key":"09663","name":"Würzburg","type":"Kreisfreie_Stadt"},"federalState":{"key":"09","name":"Bayern"}},{"name":"Albert-Schweitzer-Str.","postalCode":"97076","locality":"Würzburg","municipality":{"key":"09663000","name":"Würzburg","type":"Kreisfreie_Stadt"},"district":{"key":"09663","name":"Würzburg","type":"Kreisfreie_Stadt"},"federalState":{"key":"09","name":"Bayern"}},{"name":"Albertsleitenweg","postalCode":"97080","locality":"Würzburg","municipality":{"key":"09663000","name":"Würzburg","type":"Kreisfreie_Stadt"},"district":{"key":"09663","name":"Würzburg","type":"Kreisfreie_Stadt"},"federalState":{"key":"09","name":"Bayern"}},{"name":"Albertus-Magnus-Weg","postalCode":"97078","locality":"Würzburg","municipality":{"key":"09663000","name":"Würzburg","type":"Kreisfreie_Stadt"},"district":{"key":"09663","name":"Würzburg","type":"Kreisfreie_Stadt"},"federalState":{"key":"09","name":"Bayern"}},{"name":"Alfons-M.-Mitnacht-Str.","postalCode":"97076","locality":"Würzburg","municipality":{"key":"09663000","name":"Würzburg","type":"Kreisfreie_Stadt"},"district":{"key":"09663","name":"Würzburg","type":"Kreisfreie_Stadt"},"federalState":{"key":"09","name":"Bayern"}},{"name":"Alfred-Nobel-Str.","postalCode":"97080","locality":"Würzburg","municipality":{"key":"09663000","name":"Würzburg","type":"Kreisfreie_Stadt"},"district":{"key":"09663","name":"Würzburg","type":"Kreisfreie_Stadt"},"federalState":{"key":"09","name":"Bayern"}},{"name":"Alleeweg","postalCode":"97082","locality":"Würzburg","municipality":{"key":"09663000","name":"Würzburg","type":"Kreisfreie_Stadt"},"district":{"key":"09663","name":"Würzburg","type":"Kreisfreie_Stadt"},"federalState":{"key":"09","name":"Bayern"}},{"name":"Allendorfweg","postalCode":"97084","locality":"Würzburg","municipality":{"key":"09663000","name":"Würzburg","type":"Kreisfreie_Stadt"},"district":{"key":"09663","name":"Würzburg","type":"Kreisfreie_Stadt"},"federalState":{"key":"09","name":"Bayern"}},{"name":"Alte Fernstr.","postalCode":"97074","locality":"Würzburg","municipality":{"key":"09663000","name":"Würzburg","type":"Kreisfreie_Stadt"},"district":{"key":"09663","name":"Würzburg","type":"Kreisfreie_Stadt"},"federalState":{"key":"09","name":"Bayern"}},{"name":"Alte Kasernstr.","postalCode":"97082","locality":"Würzburg","municipality":{"key":"09663000","name":"Würzburg","type":"Kreisfreie_Stadt"},"district":{"key":"09663","name":"Würzburg","type":"Kreisfreie_Stadt"},"federalState":{"key":"09","name":"Bayern"}},{"name":"Alter Bergweg","postalCode":"97080","locality":"Würzburg","municipality":{"key":"09663000","name":"Würzburg","type":"Kreisfreie_Stadt"},"district":{"key":"09663","name":"Würzburg","type":"Kreisfreie_Stadt"},"federalState":{"key":"09","name":"Bayern"}},{"name":"Alter Park","postalCode":"97074","locality":"Würzburg","municipality":{"key":"09663000","name":"Würzburg","type":"Kreisfreie_Stadt"},"district":{"key":"09663","name":"Würzburg","type":"Kreisfreie_Stadt"},"federalState":{"key":"09","name":"Bayern"}},{"name":"Alte Würzburger Str.","postalCode":"97076","locality":"Würzburg","municipality":{"key":"09663000","name":"Würzburg","type":"Kreisfreie_Stadt"},"district":{"key":"09663","name":"Würzburg","type":"Kreisfreie_Stadt"},"federalState":{"key":"09","name":"Bayern"}},{"name":"Amalienstr.","postalCode":"97072","locality":"Würzburg","municipality":{"key":"09663000","name":"Würzburg","type":"Kreisfreie_Stadt"},"district":{"key":"09663","name":"Würzburg","type":"Kreisfreie_Stadt"},"federalState":{"key":"09","name":"Bayern"}},{"name":"Am Altenberg","postalCode":"97078","locality":"Würzburg","municipality":{"key":"09663000","name":"Würzburg","type":"Kreisfreie_Stadt"},"district":{"key":"09663","name":"Würzburg","type":"Kreisfreie_Stadt"},"federalState":{"key":"09","name":"Bayern"}},{"name":"Am Alten Flugfeld","postalCode":"97074","locality":"Würzburg","municipality":{"key":"09663000","name":"Würzburg","type":"Kreisfreie_Stadt"},"district":{"key":"09663","name":"Würzburg","type":"Kreisfreie_Stadt"},"federalState":{"key":"09","name":"Bayern"}},{"name":"Am Baumland","postalCode":"97084","locality":"Würzburg","municipality":{"key":"09663000","name":"Würzburg","type":"Kreisfreie_Stadt"},"district":{"key":"09663","name":"Würzburg","type":"Kreisfreie_Stadt"},"federalState":{"key":"09","name":"Bayern"}},{"name":"Am Binsenrain","postalCode":"97262","locality":"Hausen b. Würzburg","municipality":{"key":"09679143","name":"Hausen b.Würzburg","type":"Kreisangehörige_Gemeinde"},"district":{"key":"09679","name":"Würzburg","type":"Landkreis"},"federalState":{"key":"09","name":"Bayern"}},{"name":"Am Bruderhof","postalCode":"97070","locality":"Würzburg","municipality":{"key":"09663000","name":"Würzburg","type":"Kreisfreie_Stadt"},"district":{"key":"09663","name":"Würzburg","type":"Kreisfreie_Stadt"},"federalState":{"key":"09","name":"Bayern"}},{"name":"Am Brunnen","postalCode":"97084","locality":"Würzburg","municipality":{"key":"09663000","name":"Würzburg","type":"Kreisfreie_Stadt"},"district":{"key":"09663","name":"Würzburg","type":"Kreisfreie_Stadt"},"federalState":{"key":"09","name":"Bayern"}},{"name":"Am Brünnlein","postalCode":"97084","locality":"Würzburg","municipality":{"key":"09663000","name":"Würzburg","type":"Kreisfreie_Stadt"},"district":{"key":"09663","name":"Würzburg","type":"Kreisfreie_Stadt"},"federalState":{"key":"09","name":"Bayern"}},{"name":"Am Dicken Turm","postalCode":"97082","locality":"Würzburg","municipality":{"key":"09663000","name":"Würzburg","type":"Kreisfreie_Stadt"},"district":{"key":"09663","name":"Würzburg","type":"Kreisfreie_Stadt"},"federalState":{"key":"09","name":"Bayern"}},{"name":"Am Döle","postalCode":"97084","locality":"Würzburg","municipality":{"key":"09663000","name":"Würzburg","type":"Kreisfreie_Stadt"},"district":{"key":"09663","name":"Würzburg","type":"Kreisfreie_Stadt"},"federalState":{"key":"09","name":"Bayern"}},{"name":"Am Dürrbach","postalCode":"97080","locality":"Würzburg","municipality":{"key":"09663000","name":"Würzburg","type":"Kreisfreie_Stadt"},"district":{"key":"09663","name":"Würzburg","type":"Kreisfreie_Stadt"},"federalState":{"key":"09","name":"Bayern"}},{"name":"Am Erbshäuser Bach","postalCode":"97262","locality":"Hausen b. Würzburg","municipality":{"key":"09679143","name":"Hausen b.Würzburg","type":"Kreisangehörige_Gemeinde"},"district":{"key":"09679","name":"Würzburg","type":"Landkreis"},"federalState":{"key":"09","name":"Bayern"}},{"name":"Am Eselsbach","postalCode":"97078","locality":"Würzburg","municipality":{"key":"09663000","name":"Würzburg","type":"Kreisfreie_Stadt"},"district":{"key":"09663","name":"Würzburg","type":"Kreisfreie_Stadt"},"federalState":{"key":"09","name":"Bayern"}},{"name":"Am Exerzierplatz","postalCode":"97072","locality":"Würzburg","municipality":{"key":"09663000","name":"Würzburg","type":"Kreisfreie_Stadt"},"district":{"key":"09663","name":"Würzburg","type":"Kreisfreie_Stadt"},"federalState":{"key":"09","name":"Bayern"}},{"name":"Am Feldkreuz","postalCode":"97084","locality":"Würzburg","municipality":{"key":"09663000","name":"Würzburg","type":"Kreisfreie_Stadt"},"district":{"key":"09663","name":"Würzburg","type":"Kreisfreie_Stadt"},"federalState":{"key":"09","name":"Bayern"}},{"name":"Am Galgenberg","postalCode":"97074","locality":"Würzburg","municipality":{"key":"09663000","name":"Würzburg","type":"Kreisfreie_Stadt"},"district":{"key":"09663","name":"Würzburg","type":"Kreisfreie_Stadt"},"federalState":{"key":"09","name":"Bayern"}},{"name":"Am Gansgraben","postalCode":"97262","locality":"Hausen b. Würzburg","municipality":{"key":"09679143","name":"Hausen b.Würzburg","type":"Kreisangehörige_Gemeinde"},"district":{"key":"09679","name":"Würzburg","type":"Landkreis"},"federalState":{"key":"09","name":"Bayern"}},{"name":"Am Handelshof","postalCode":"97076","locality":"Würzburg","municipality":{"key":"09663000","name":"Würzburg","type":"Kreisfreie_Stadt"},"district":{"key":"09663","name":"Würzburg","type":"Kreisfreie_Stadt"},"federalState":{"key":"09","name":"Bayern"}},{"name":"Am Hasensprung","postalCode":"97076","locality":"Würzburg","municipality":{"key":"09663000","name":"Würzburg","type":"Kreisfreie_Stadt"},"district":{"key":"09663","name":"Würzburg","type":"Kreisfreie_Stadt"},"federalState":{"key":"09","name":"Bayern"}},{"name":"Am Heigelsbach","postalCode":"97084","locality":"Würzburg","municipality":{"key":"09663000","name":"Würzburg","type":"Kreisfreie_Stadt"},"district":{"key":"09663","name":"Würzburg","type":"Kreisfreie_Stadt"},"federalState":{"key":"09","name":"Bayern"}},{"name":"Am Heuchel","postalCode":"97084","locality":"Würzburg","municipality":{"key":"09663000","name":"Würzburg","type":"Kreisfreie_Stadt"},"district":{"key":"09663","name":"Würzburg","type":"Kreisfreie_Stadt"},"federalState":{"key":"09","name":"Bayern"}},{"name":"Am Hölzlein","postalCode":"97076","locality":"Würzburg","municipality":{"key":"09663000","name":"Würzburg","type":"Kreisfreie_Stadt"},"district":{"key":"09663","name":"Würzburg","type":"Kreisfreie_Stadt"},"federalState":{"key":"09","name":"Bayern"}},{"name":"Am Hubland","postalCode":"97074","locality":"Würzburg","municipality":{"key":"09663000","name":"Würzburg","type":"Kreisfreie_Stadt"},"district":{"key":"09663","name":"Würzburg","type":"Kreisfreie_Stadt"},"federalState":{"key":"09","name":"Bayern"}},{"name":"Am Hungrigen Bühl","postalCode":"97084","locality":"Würzburg","municipality":{"key":"09663000","name":"Würzburg","type":"Kreisfreie_Stadt"},"district":{"key":"09663","name":"Würzburg","type":"Kreisfreie_Stadt"},"federalState":{"key":"09","name":"Bayern"}},{"name":"Am Kalkofen","postalCode":"97082","locality":"Würzburg","municipality":{"key":"09663000","name":"Würzburg","type":"Kreisfreie_Stadt"},"district":{"key":"09663","name":"Würzburg","type":"Kreisfreie_Stadt"},"federalState":{"key":"09","name":"Bayern"}},{"name":"Balthasar-Neumann-Brücke","postalCode":"97285","locality":"Tauberrettersheim","municipality":{"key":"09679192","name":"Tauberrettersheim","type":"Kreisangehörige_Gemeinde"},"district":{"key":"09679","name":"Würzburg","type":"Landkreis"},"federalState":{"key":"09","name":"Bayern"}},{"name":"Brunnenstr.","postalCode":"97285","locality":"Tauberrettersheim","municipality":{"key":"09679192","name":"Tauberrettersheim","type":"Kreisangehörige_Gemeinde"},"district":{"key":"09679","name":"Würzburg","type":"Landkreis"},"federalState":{"key":"09","name":"Bayern"}},{"name":"Carl-Orff-Str.","postalCode":"97076","locality":"Würzburg","municipality":{"key":"09663000","name":"Würzburg","type":"Kreisfreie_Stadt"},"district":{"key":"09663","name":"Würzburg","type":"Kreisfreie_Stadt"},"federalState":{"key":"09","name":"Bayern"}},{"name":"Christlsteige","postalCode":"97074","locality":"Würzburg","municipality":{"key":"09663000","name":"Würzburg","type":"Kreisfreie_Stadt"},"district":{"key":"09663","name":"Würzburg","type":"Kreisfreie_Stadt"},"federalState":{"key":"09","name":"Bayern"}},{"name":"Christoph-Mayer-Weg","postalCode":"97082","locality":"Würzburg","municipality":{"key":"09663000","name":"Würzburg","type":"Kreisfreie_Stadt"},"district":{"key":"09663","name":"Würzburg","type":"Kreisfreie_Stadt"},"federalState":{"key":"09","name":"Bayern"}},{"name":"Conradisteg","postalCode":"97072","locality":"Würzburg","municipality":{"key":"09663000","name":"Würzburg","type":"Kreisfreie_Stadt"},"district":{"key":"09663","name":"Würzburg","type":"Kreisfreie_Stadt"},"federalState":{"key":"09","name":"Bayern"}},{"name":"Conradistr.","postalCode":"97072","locality":"Würzburg","municipality":{"key":"09663000","name":"Würzburg","type":"Kreisfreie_Stadt"},"district":{"key":"09663","name":"Würzburg","type":"Kreisfreie_Stadt"},"federalState":{"key":"09","name":"Bayern"}},{"name":"Crevennastr.","postalCode":"97072","locality":"Würzburg","municipality":{"key":"09663000","name":"Würzburg","type":"Kreisfreie_Stadt"},"district":{"key":"09663","name":"Würzburg","type":"Kreisfreie_Stadt"},"federalState":{"key":"09","name":"Bayern"}},{"name":"Cronthalstr.","postalCode":"97074","locality":"Würzburg","municipality":{"key":"09663000","name":"Würzburg","type":"Kreisfreie_Stadt"},"district":{"key":"09663","name":"Würzburg","type":"Kreisfreie_Stadt"},"federalState":{"key":"09","name":"Bayern"}},{"name":"Dorfäckerstr.","postalCode":"97285","locality":"Tauberrettersheim","municipality":{"key":"09679192","name":"Tauberrettersheim","type":"Kreisangehörige_Gemeinde"},"district":{"key":"09679","name":"Würzburg","type":"Landkreis"},"federalState":{"key":"09","name":"Bayern"}},{"name":"Dorflindenstr.","postalCode":"97285","locality":"Tauberrettersheim","municipality":{"key":"09679192","name":"Tauberrettersheim","type":"Kreisangehörige_Gemeinde"},"district":{"key":"09679","name":"Würzburg","type":"Landkreis"},"federalState":{"key":"09","name":"Bayern"}},{"name":"Ebertsklinge","postalCode":"97074","locality":"Würzburg","municipality":{"key":"09663000","name":"Würzburg","type":"Kreisfreie_Stadt"},"district":{"key":"09663","name":"Würzburg","type":"Kreisfreie_Stadt"},"federalState":{"key":"09","name":"Bayern"}},{"name":"Ebracher Gasse","postalCode":"97070","locality":"Würzburg","municipality":{"key":"09663000","name":"Würzburg","type":"Kreisfreie_Stadt"},"district":{"key":"09663","name":"Würzburg","type":"Kreisfreie_Stadt"},"federalState":{"key":"09","name":"Bayern"}},{"name":"Echter-Galerie","postalCode":"97070","locality":"Würzburg","municipality":{"key":"09663000","name":"Würzburg","type":"Kreisfreie_Stadt"},"district":{"key":"09663","name":"Würzburg","type":"Kreisfreie_Stadt"},"federalState":{"key":"09","name":"Bayern"}},{"name":"Eckleinsweg","postalCode":"97084","locality":"Würzburg","municipality":{"key":"09663000","name":"Würzburg","type":"Kreisfreie_Stadt"},"district":{"key":"09663","name":"Würzburg","type":"Kreisfreie_Stadt"},"federalState":{"key":"09","name":"Bayern"}},{"name":"Edelstr.","postalCode":"97074","locality":"Würzburg","municipality":{"key":"09663000","name":"Würzburg","type":"Kreisfreie_Stadt"},"district":{"key":"09663","name":"Würzburg","type":"Kreisfreie_Stadt"},"federalState":{"key":"09","name":"Bayern"}},{"name":"Edith-Stein-Str.","postalCode":"97084","locality":"Würzburg","municipality":{"key":"09663000","name":"Würzburg","type":"Kreisfreie_Stadt"},"district":{"key":"09663","name":"Würzburg","type":"Kreisfreie_Stadt"},"federalState":{"key":"09","name":"Bayern"}},{"name":"Eduard-Buchner-Str.","postalCode":"97080","locality":"Würzburg","municipality":{"key":"09663000","name":"Würzburg","type":"Kreisfreie_Stadt"},"district":{"key":"09663","name":"Würzburg","type":"Kreisfreie_Stadt"},"federalState":{"key":"09","name":"Bayern"}},{"name":"Egloffsteinstr.","postalCode":"97072","locality":"Würzburg","municipality":{"key":"09663000","name":"Würzburg","type":"Kreisfreie_Stadt"},"district":{"key":"09663","name":"Würzburg","type":"Kreisfreie_Stadt"},"federalState":{"key":"09","name":"Bayern"}},{"name":"Eibelstadter Weg","postalCode":"97084","locality":"Würzburg","municipality":{"key":"09663000","name":"Würzburg","type":"Kreisfreie_Stadt"},"district":{"key":"09663","name":"Würzburg","type":"Kreisfreie_Stadt"},"federalState":{"key":"09","name":"Bayern"}},{"name":"Eibenweg","postalCode":"97084","locality":"Würzburg","municipality":{"key":"09663000","name":"Würzburg","type":"Kreisfreie_Stadt"},"district":{"key":"09663","name":"Würzburg","type":"Kreisfreie_Stadt"},"federalState":{"key":"09","name":"Bayern"}},{"name":"Eichendorffstr.","postalCode":"97072","locality":"Würzburg","municipality":{"key":"09663000","name":"Würzburg","type":"Kreisfreie_Stadt"},"district":{"key":"09663","name":"Würzburg","type":"Kreisfreie_Stadt"},"federalState":{"key":"09","name":"Bayern"}},{"name":"Eichenweg","postalCode":"97084","locality":"Würzburg","municipality":{"key":"09663000","name":"Würzburg","type":"Kreisfreie_Stadt"},"district":{"key":"09663","name":"Würzburg","type":"Kreisfreie_Stadt"},"federalState":{"key":"09","name":"Bayern"}},{"name":"Eichstr.","postalCode":"97070","locality":"Würzburg","municipality":{"key":"09663000","name":"Würzburg","type":"Kreisfreie_Stadt"},"district":{"key":"09663","name":"Würzburg","type":"Kreisfreie_Stadt"},"federalState":{"key":"09","name":"Bayern"}},{"name":"Eisenbahnstr.","postalCode":"97084","locality":"Würzburg","municipality":{"key":"09663000","name":"Würzburg","type":"Kreisfreie_Stadt"},"district":{"key":"09663","name":"Würzburg","type":"Kreisfreie_Stadt"},"federalState":{"key":"09","name":"Bayern"}},{"name":"Eiseneckstr.","postalCode":"97082","locality":"Würzburg","municipality":{"key":"09663000","name":"Würzburg","type":"Kreisfreie_Stadt"},"district":{"key":"09663","name":"Würzburg","type":"Kreisfreie_Stadt"},"federalState":{"key":"09","name":"Bayern"}},{"name":"Eisenhoferstr.","postalCode":"97074","locality":"Würzburg","municipality":{"key":"09663000","name":"Würzburg","type":"Kreisfreie_Stadt"},"district":{"key":"09663","name":"Würzburg","type":"Kreisfreie_Stadt"},"federalState":{"key":"09","name":"Bayern"}},{"name":"Eisenmannstr.","postalCode":"97074","locality":"Würzburg","municipality":{"key":"09663000","name":"Würzburg","type":"Kreisfreie_Stadt"},"district":{"key":"09663","name":"Würzburg","type":"Kreisfreie_Stadt"},"federalState":{"key":"09","name":"Bayern"}},{"name":"Elefantengasse","postalCode":"97070","locality":"Würzburg","municipality":{"key":"09663000","name":"Würzburg","type":"Kreisfreie_Stadt"},"district":{"key":"09663","name":"Würzburg","type":"Kreisfreie_Stadt"},"federalState":{"key":"09","name":"Bayern"}},{"name":"Elferweg","postalCode":"97076","locality":"Würzburg","municipality":{"key":"09663000","name":"Würzburg","type":"Kreisfreie_Stadt"},"district":{"key":"09663","name":"Würzburg","type":"Kreisfreie_Stadt"},"federalState":{"key":"09","name":"Bayern"}},{"name":"Elisabeth-Ehlers-Anlage","postalCode":"97084","locality":"Würzburg","municipality":{"key":"09663000","name":"Würzburg","type":"Kreisfreie_Stadt"},"district":{"key":"09663","name":"Würzburg","type":"Kreisfreie_Stadt"},"federalState":{"key":"09","name":"Bayern"}},{"name":"Elisabeth-Scheuring-Str.","postalCode":"97074","locality":"Würzburg","municipality":{"key":"09663000","name":"Würzburg","type":"Kreisfreie_Stadt"},"district":{"key":"09663","name":"Würzburg","type":"Kreisfreie_Stadt"},"federalState":{"key":"09","name":"Bayern"}},{"name":"Ellernweg","postalCode":"97080","locality":"Würzburg","municipality":{"key":"09663000","name":"Würzburg","type":"Kreisfreie_Stadt"},"district":{"key":"09663","name":"Würzburg","type":"Kreisfreie_Stadt"},"federalState":{"key":"09","name":"Bayern"}},{"name":"Elstergasse","postalCode":"97082","locality":"Würzburg","municipality":{"key":"09663000","name":"Würzburg","type":"Kreisfreie_Stadt"},"district":{"key":"09663","name":"Würzburg","type":"Kreisfreie_Stadt"},"federalState":{"key":"09","name":"Bayern"}},{"name":"Emy-Roeder-Str.","postalCode":"97074","locality":"Würzburg","municipality":{"key":"09663000","name":"Würzburg","type":"Kreisfreie_Stadt"},"district":{"key":"09663","name":"Würzburg","type":"Kreisfreie_Stadt"},"federalState":{"key":"09","name":"Bayern"}},{"name":"Engelsweg","postalCode":"97084","locality":"Würzburg","municipality":{"key":"09663000","name":"Würzburg","type":"Kreisfreie_Stadt"},"district":{"key":"09663","name":"Würzburg","type":"Kreisfreie_Stadt"},"federalState":{"key":"09","name":"Bayern"}},{"name":"Enzelinstr.","postalCode":"97080","locality":"Würzburg","municipality":{"key":"09663000","name":"Würzburg","type":"Kreisfreie_Stadt"},"district":{"key":"09663","name":"Würzburg","type":"Kreisfreie_Stadt"},"federalState":{"key":"09","name":"Bayern"}},{"name":"Ephesusweg","postalCode":"97084","locality":"Würzburg","municipality":{"key":"09663000","name":"Würzburg","type":"Kreisfreie_Stadt"},"district":{"key":"09663","name":"Würzburg","type":"Kreisfreie_Stadt"},"federalState":{"key":"09","name":"Bayern"}},{"name":"Erbshausener Str.","postalCode":"97262","locality":"Hausen b. Würzburg","municipality":{"key":"09679143","name":"Hausen b.Würzburg","type":"Kreisangehörige_Gemeinde"},"district":{"key":"09679","name":"Würzburg","type":"Landkreis"},"federalState":{"key":"09","name":"Bayern"}},{"name":"Erlenweg","postalCode":"97076","locality":"Würzburg","municipality":{"key":"09663000","name":"Würzburg","type":"Kreisfreie_Stadt"},"district":{"key":"09663","name":"Würzburg","type":"Kreisfreie_Stadt"},"federalState":{"key":"09","name":"Bayern"}},{"name":"Ernst-Reuter-Platz","postalCode":"97080","locality":"Würzburg","municipality":{"key":"09663000","name":"Würzburg","type":"Kreisfreie_Stadt"},"district":{"key":"09663","name":"Würzburg","type":"Kreisfreie_Stadt"},"federalState":{"key":"09","name":"Bayern"}},{"name":"Ernst-Reuter-Str.","postalCode":"97080","locality":"Würzburg","municipality":{"key":"09663000","name":"Würzburg","type":"Kreisfreie_Stadt"},"district":{"key":"09663","name":"Würzburg","type":"Kreisfreie_Stadt"},"federalState":{"key":"09","name":"Bayern"}},{"name":"Ernst-Winter-Weg","postalCode":"97084","locality":"Würzburg","municipality":{"key":"09663000","name":"Würzburg","type":"Kreisfreie_Stadt"},"district":{"key":"09663","name":"Würzburg","type":"Kreisfreie_Stadt"},"federalState":{"key":"09","name":"Bayern"}},{"name":"Erste Felsengasse","postalCode":"97082","locality":"Würzburg","municipality":{"key":"09663000","name":"Würzburg","type":"Kreisfreie_Stadt"},"district":{"key":"09663","name":"Würzburg","type":"Kreisfreie_Stadt"},"federalState":{"key":"09","name":"Bayern"}},{"name":"Erster Siedlungsweg","postalCode":"97082","locality":"Würzburg","municipality":{"key":"09663000","name":"Würzburg","type":"Kreisfreie_Stadt"},"district":{"key":"09663","name":"Würzburg","type":"Kreisfreie_Stadt"},"federalState":{"key":"09","name":"Bayern"}},{"name":"Erthalstr.","postalCode":"97074","locality":"Würzburg","municipality":{"key":"09663000","name":"Würzburg","type":"Kreisfreie_Stadt"},"district":{"key":"09663","name":"Würzburg","type":"Kreisfreie_Stadt"},"federalState":{"key":"09","name":"Bayern"}},{"name":"Eschenweg","postalCode":"97084","locality":"Würzburg","municipality":{"key":"09663000","name":"Würzburg","type":"Kreisfreie_Stadt"},"district":{"key":"09663","name":"Würzburg","type":"Kreisfreie_Stadt"},"federalState":{"key":"09","name":"Bayern"}},{"name":"Essiggarten","postalCode":"97076","locality":"Würzburg","municipality":{"key":"09663000","name":"Würzburg","type":"Kreisfreie_Stadt"},"district":{"key":"09663","name":"Würzburg","type":"Kreisfreie_Stadt"},"federalState":{"key":"09","name":"Bayern"}},{"name":"Essigkrug","postalCode":"97078","locality":"Würzburg","municipality":{"key":"09663000","name":"Würzburg","type":"Kreisfreie_Stadt"},"district":{"key":"09663","name":"Würzburg","type":"Kreisfreie_Stadt"},"federalState":{"key":"09","name":"Bayern"}},{"name":"Estenfelder Str.","postalCode":"97078","locality":"Würzburg","municipality":{"key":"09663000","name":"Würzburg","type":"Kreisfreie_Stadt"},"district":{"key":"09663","name":"Würzburg","type":"Kreisfreie_Stadt"},"federalState":{"key":"09","name":"Bayern"}},{"name":"Eulensteige","postalCode":"97082","locality":"Würzburg","municipality":{"key":"09663000","name":"Würzburg","type":"Kreisfreie_Stadt"},"district":{"key":"09663","name":"Würzburg","type":"Kreisfreie_Stadt"},"federalState":{"key":"09","name":"Bayern"}},{"name":"Europastern","postalCode":"97076","locality":"Würzburg","municipality":{"key":"09663000","name":"Würzburg","type":"Kreisfreie_Stadt"},"district":{"key":"09663","name":"Würzburg","type":"Kreisfreie_Stadt"},"federalState":{"key":"09","name":"Bayern"}},{"name":"Europastern","postalCode":"97080","locality":"Würzburg","municipality":{"key":"09663000","name":"Würzburg","type":"Kreisfreie_Stadt"},"district":{"key":"09663","name":"Würzburg","type":"Kreisfreie_Stadt"},"federalState":{"key":"09","name":"Bayern"}},{"name":"Evodiusstr.","postalCode":"97262","locality":"Hausen b. Würzburg","municipality":{"key":"09679143","name":"Hausen b.Würzburg","type":"Kreisangehörige_Gemeinde"},"district":{"key":"09679","name":"Würzburg","type":"Landkreis"},"federalState":{"key":"09","name":"Bayern"}},{"name":"Fuchslandenweg","postalCode":"97285","locality":"Tauberrettersheim","municipality":{"key":"09679192","name":"Tauberrettersheim","type":"Kreisangehörige_Gemeinde"},"district":{"key":"09679","name":"Würzburg","type":"Landkreis"},"federalState":{"key":"09","name":"Bayern"}},{"name":"Gabelsbergerstr.","postalCode":"97080","locality":"Würzburg","municipality":{"key":"09663000","name":"Würzburg","type":"Kreisfreie_Stadt"},"district":{"key":"09663","name":"Würzburg","type":"Kreisfreie_Stadt"},"federalState":{"key":"09","name":"Bayern"}},{"name":"Gadheimer Str.","postalCode":"97080","locality":"Würzburg","municipality":{"key":"09663000","name":"Würzburg","type":"Kreisfreie_Stadt"},"district":{"key":"09663","name":"Würzburg","type":"Kreisfreie_Stadt"},"federalState":{"key":"09","name":"Bayern"}},{"name":"Gänsleinsweg","postalCode":"97082","locality":"Würzburg","municipality":{"key":"09663000","name":"Würzburg","type":"Kreisfreie_Stadt"},"district":{"key":"09663","name":"Würzburg","type":"Kreisfreie_Stadt"},"federalState":{"key":"09","name":"Bayern"}},{"name":"Gartenoasen","postalCode":"97074","locality":"Würzburg","municipality":{"key":"09663000","name":"Würzburg","type":"Kreisfreie_Stadt"},"district":{"key":"09663","name":"Würzburg","type":"Kreisfreie_Stadt"},"federalState":{"key":"09","name":"Bayern"}},{"name":"Gartenstr.","postalCode":"97072","locality":"Würzburg","municipality":{"key":"09663000","name":"Würzburg","type":"Kreisfreie_Stadt"},"district":{"key":"09663","name":"Würzburg","type":"Kreisfreie_Stadt"},"federalState":{"key":"09","name":"Bayern"}},{"name":"Gartenstr.","postalCode":"97262","locality":"Hausen b. Würzburg","municipality":{"key":"09679143","name":"Hausen b.Würzburg","type":"Kreisangehörige_Gemeinde"},"district":{"key":"09679","name":"Würzburg","type":"Landkreis"},"federalState":{"key":"09","name":"Bayern"}},{"name":"Gattingerstr.","postalCode":"97076","locality":"Würzburg","municipality":{"key":"09663000","name":"Würzburg","type":"Kreisfreie_Stadt"},"district":{"key":"09663","name":"Würzburg","type":"Kreisfreie_Stadt"},"federalState":{"key":"09","name":"Bayern"}},{"name":"Gebrüder-Grimm-Str.","postalCode":"97078","locality":"Würzburg","municipality":{"key":"09663000","name":"Würzburg","type":"Kreisfreie_Stadt"},"district":{"key":"09663","name":"Würzburg","type":"Kreisfreie_Stadt"},"federalState":{"key":"09","name":"Bayern"}},{"name":"Gegenbaurstr.","postalCode":"97074","locality":"Würzburg","municipality":{"key":"09663000","name":"Würzburg","type":"Kreisfreie_Stadt"},"district":{"key":"09663","name":"Würzburg","type":"Kreisfreie_Stadt"},"federalState":{"key":"09","name":"Bayern"}},{"name":"Geibelstr.","postalCode":"97072","locality":"Würzburg","municipality":{"key":"09663000","name":"Würzburg","type":"Kreisfreie_Stadt"},"district":{"key":"09663","name":"Würzburg","type":"Kreisfreie_Stadt"},"federalState":{"key":"09","name":"Bayern"}},{"name":"Georg-Böhm-Str.","postalCode":"97080","locality":"Würzburg","municipality":{"key":"09663000","name":"Würzburg","type":"Kreisfreie_Stadt"},"district":{"key":"09663","name":"Würzburg","type":"Kreisfreie_Stadt"},"federalState":{"key":"09","name":"Bayern"}},{"name":"Georg-Engel-Str.","postalCode":"97076","locality":"Würzburg","municipality":{"key":"09663000","name":"Würzburg","type":"Kreisfreie_Stadt"},"district":{"key":"09663","name":"Würzburg","type":"Kreisfreie_Stadt"},"federalState":{"key":"09","name":"Bayern"}},{"name":"Georg-Eydel-Str.","postalCode":"97082","locality":"Würzburg","municipality":{"key":"09663000","name":"Würzburg","type":"Kreisfreie_Stadt"},"district":{"key":"09663","name":"Würzburg","type":"Kreisfreie_Stadt"},"federalState":{"key":"09","name":"Bayern"}},{"name":"Georg-Häfner-Platz","postalCode":"97070","locality":"Würzburg","municipality":{"key":"09663000","name":"Würzburg","type":"Kreisfreie_Stadt"},"district":{"key":"09663","name":"Würzburg","type":"Kreisfreie_Stadt"},"federalState":{"key":"09","name":"Bayern"}},{"name":"Georg-Sittig-Str.","postalCode":"97074","locality":"Würzburg","municipality":{"key":"09663000","name":"Würzburg","type":"Kreisfreie_Stadt"},"district":{"key":"09663","name":"Würzburg","type":"Kreisfreie_Stadt"},"federalState":{"key":"09","name":"Bayern"}},{"name":"Gerberstr.","postalCode":"97070","locality":"Würzburg","municipality":{"key":"09663000","name":"Würzburg","type":"Kreisfreie_Stadt"},"district":{"key":"09663","name":"Würzburg","type":"Kreisfreie_Stadt"},"federalState":{"key":"09","name":"Bayern"}},{"name":"Gerbrunner Weg","postalCode":"97074","locality":"Würzburg","municipality":{"key":"09663000","name":"Würzburg","type":"Kreisfreie_Stadt"},"district":{"key":"09663","name":"Würzburg","type":"Kreisfreie_Stadt"},"federalState":{"key":"09","name":"Bayern"}},{"name":"Gerda-Laufer-Str.","postalCode":"97074","locality":"Würzburg","municipality":{"key":"09663000","name":"Würzburg","type":"Kreisfreie_Stadt"},"district":{"key":"09663","name":"Würzburg","type":"Kreisfreie_Stadt"},"federalState":{"key":"09","name":"Bayern"}},{"name":"Gertraudgasse","postalCode":"97070","locality":"Würzburg","municipality":{"key":"09663000","name":"Würzburg","type":"Kreisfreie_Stadt"},"district":{"key":"09663","name":"Würzburg","type":"Kreisfreie_Stadt"},"federalState":{"key":"09","name":"Bayern"}},{"name":"Gertraud-Rostosky-Str.","postalCode":"97082","locality":"Würzburg","municipality":{"key":"09663000","name":"Würzburg","type":"Kreisfreie_Stadt"},"district":{"key":"09663","name":"Würzburg","type":"Kreisfreie_Stadt"},"federalState":{"key":"09","name":"Bayern"}},{"name":"Gertrud-von-le-Fort-Str.","postalCode":"97074","locality":"Würzburg","municipality":{"key":"09663000","name":"Würzburg","type":"Kreisfreie_Stadt"},"district":{"key":"09663","name":"Würzburg","type":"Kreisfreie_Stadt"},"federalState":{"key":"09","name":"Bayern"}},{"name":"Geschwister-Scholl-Platz","postalCode":"97070","locality":"Würzburg","municipality":{"key":"09663000","name":"Würzburg","type":"Kreisfreie_Stadt"},"district":{"key":"09663","name":"Würzburg","type":"Kreisfreie_Stadt"},"federalState":{"key":"09","name":"Bayern"}},{"name":"Giebelstädter Steige","postalCode":"97084","locality":"Würzburg","municipality":{"key":"09663000","name":"Würzburg","type":"Kreisfreie_Stadt"},"district":{"key":"09663","name":"Würzburg","type":"Kreisfreie_Stadt"},"federalState":{"key":"09","name":"Bayern"}},{"name":"Glacisweg","postalCode":"97084","locality":"Würzburg","municipality":{"key":"09663000","name":"Würzburg","type":"Kreisfreie_Stadt"},"district":{"key":"09663","name":"Würzburg","type":"Kreisfreie_Stadt"},"federalState":{"key":"09","name":"Bayern"}},{"name":"Glockenbergstr.","postalCode":"97262","locality":"Hausen b. Würzburg","municipality":{"key":"09679143","name":"Hausen b.Würzburg","type":"Kreisangehörige_Gemeinde"},"district":{"key":"09679","name":"Würzburg","type":"Landkreis"},"federalState":{"key":"09","name":"Bayern"}},{"name":"Glockengasse","postalCode":"97070","locality":"Würzburg","municipality":{"key":"09663000","name":"Würzburg","type":"Kreisfreie_Stadt"},"district":{"key":"09663","name":"Würzburg","type":"Kreisfreie_Stadt"},"federalState":{"key":"09","name":"Bayern"}},{"name":"Gneisenaustr.","postalCode":"97074","locality":"Würzburg","municipality":{"key":"09663000","name":"Würzburg","type":"Kreisfreie_Stadt"},"district":{"key":"09663","name":"Würzburg","type":"Kreisfreie_Stadt"},"federalState":{"key":"09","name":"Bayern"}},{"name":"Gneisenaustr.","postalCode":"97076","locality":"Würzburg","municipality":{"key":"09663000","name":"Würzburg","type":"Kreisfreie_Stadt"},"district":{"key":"09663","name":"Würzburg","type":"Kreisfreie_Stadt"},"federalState":{"key":"09","name":"Bayern"}},{"name":"Göbelslehenstr.","postalCode":"97074","locality":"Würzburg","municipality":{"key":"09663000","name":"Würzburg","type":"Kreisfreie_Stadt"},"district":{"key":"09663","name":"Würzburg","type":"Kreisfreie_Stadt"},"federalState":{"key":"09","name":"Bayern"}},{"name":"Goekersgrabenstr.","postalCode":"97082","locality":"Würzburg","municipality":{"key":"09663000","name":"Würzburg","type":"Kreisfreie_Stadt"},"district":{"key":"09663","name":"Würzburg","type":"Kreisfreie_Stadt"},"federalState":{"key":"09","name":"Bayern"}},{"name":"Goerdeler Park","postalCode":"97084","locality":"Würzburg","municipality":{"key":"09663000","name":"Würzburg","type":"Kreisfreie_Stadt"},"district":{"key":"09663","name":"Würzburg","type":"Kreisfreie_Stadt"},"federalState":{"key":"09","name":"Bayern"}},{"name":"Goethestr.","postalCode":"97072","locality":"Würzburg","municipality":{"key":"09663000","name":"Würzburg","type":"Kreisfreie_Stadt"},"district":{"key":"09663","name":"Würzburg","type":"Kreisfreie_Stadt"},"federalState":{"key":"09","name":"Bayern"}},{"name":"Goldbergstr.","postalCode":"97078","locality":"Würzburg","municipality":{"key":"09663000","name":"Würzburg","type":"Kreisfreie_Stadt"},"district":{"key":"09663","name":"Würzburg","type":"Kreisfreie_Stadt"},"federalState":{"key":"09","name":"Bayern"}},{"name":"Gosbertsteige","postalCode":"97082","locality":"Würzburg","municipality":{"key":"09663000","name":"Würzburg","type":"Kreisfreie_Stadt"},"district":{"key":"09663","name":"Würzburg","type":"Kreisfreie_Stadt"},"federalState":{"key":"09","name":"Bayern"}},{"name":"Gotengasse","postalCode":"97070","locality":"Würzburg","municipality":{"key":"09663000","name":"Würzburg","type":"Kreisfreie_Stadt"},"district":{"key":"09663","name":"Würzburg","type":"Kreisfreie_Stadt"},"federalState":{"key":"09","name":"Bayern"}},{"name":"Grabenberg","postalCode":"97070","locality":"Würzburg","municipality":{"key":"09663000","name":"Würzburg","type":"Kreisfreie_Stadt"},"district":{"key":"09663","name":"Würzburg","type":"Kreisfreie_Stadt"},"federalState":{"key":"09","name":"Bayern"}},{"name":"Grabengasse","postalCode":"97070","locality":"Würzburg","municipality":{"key":"09663000","name":"Würzburg","type":"Kreisfreie_Stadt"},"district":{"key":"09663","name":"Würzburg","type":"Kreisfreie_Stadt"},"federalState":{"key":"09","name":"Bayern"}},{"name":"Gramschatzer Str.","postalCode":"97262","locality":"Hausen b. Würzburg","municipality":{"key":"09679143","name":"Hausen b.Würzburg","type":"Kreisangehörige_Gemeinde"},"district":{"key":"09679","name":"Würzburg","type":"Landkreis"},"federalState":{"key":"09","name":"Bayern"}},{"name":"Grasweg","postalCode":"97074","locality":"Würzburg","municipality":{"key":"09663000","name":"Würzburg","type":"Kreisfreie_Stadt"},"district":{"key":"09663","name":"Würzburg","type":"Kreisfreie_Stadt"},"federalState":{"key":"09","name":"Bayern"}},{"name":"Greiffenclauhof","postalCode":"97082","locality":"Würzburg","municipality":{"key":"09663000","name":"Würzburg","type":"Kreisfreie_Stadt"},"district":{"key":"09663","name":"Würzburg","type":"Kreisfreie_Stadt"},"federalState":{"key":"09","name":"Bayern"}},{"name":"Greiffenclaustr.","postalCode":"97072","locality":"Würzburg","municipality":{"key":"09663000","name":"Würzburg","type":"Kreisfreie_Stadt"},"district":{"key":"09663","name":"Würzburg","type":"Kreisfreie_Stadt"},"federalState":{"key":"09","name":"Bayern"}},{"name":"Greisingstr.","postalCode":"97074","locality":"Würzburg","municipality":{"key":"09663000","name":"Würzburg","type":"Kreisfreie_Stadt"},"district":{"key":"09663","name":"Würzburg","type":"Kreisfreie_Stadt"},"federalState":{"key":"09","name":"Bayern"}},{"name":"Griesäckerstr.","postalCode":"97078","locality":"Würzburg","municipality":{"key":"09663000","name":"Würzburg","type":"Kreisfreie_Stadt"},"district":{"key":"09663","name":"Würzburg","type":"Kreisfreie_Stadt"},"federalState":{"key":"09","name":"Bayern"}},{"name":"Grillparzerstr.","postalCode":"97072","locality":"Würzburg","municipality":{"key":"09663000","name":"Würzburg","type":"Kreisfreie_Stadt"},"district":{"key":"09663","name":"Würzburg","type":"Kreisfreie_Stadt"},"federalState":{"key":"09","name":"Bayern"}},{"name":"Grombühlstr.","postalCode":"97080","locality":"Würzburg","municipality":{"key":"09663000","name":"Würzburg","type":"Kreisfreie_Stadt"},"district":{"key":"09663","name":"Würzburg","type":"Kreisfreie_Stadt"},"federalState":{"key":"09","name":"Bayern"}},{"name":"Grünanlage Werkingstr.","postalCode":"97084","locality":"Würzburg","municipality":{"key":"09663000","name":"Würzburg","type":"Kreisfreie_Stadt"},"district":{"key":"09663","name":"Würzburg","type":"Kreisfreie_Stadt"},"federalState":{"key":"09","name":"Bayern"}},{"name":"Grundäckerstr.","postalCode":"97080","locality":"Würzburg","municipality":{"key":"09663000","name":"Würzburg","type":"Kreisfreie_Stadt"},"district":{"key":"09663","name":"Würzburg","type":"Kreisfreie_Stadt"},"federalState":{"key":"09","name":"Bayern"}},{"name":"Grundstr.","postalCode":"97262","locality":"Hausen b. Würzburg","municipality":{"key":"09679143","name":"Hausen b.Würzburg","type":"Kreisangehörige_Gemeinde"},"district":{"key":"09679","name":"Würzburg","type":"Landkreis"},"federalState":{"key":"09","name":"Bayern"}},{"name":"Grünewaldstr.","postalCode":"97072","locality":"Würzburg","municipality":{"key":"09663000","name":"Würzburg","type":"Kreisfreie_Stadt"},"district":{"key":"09663","name":"Würzburg","type":"Kreisfreie_Stadt"},"federalState":{"key":"09","name":"Bayern"}},{"name":"Guggelesgraben","postalCode":"97082","locality":"Würzburg","municipality":{"key":"09663000","name":"Würzburg","type":"Kreisfreie_Stadt"},"district":{"key":"09663","name":"Würzburg","type":"Kreisfreie_Stadt"},"federalState":{"key":"09","name":"Bayern"}},{"name":"Haafstr.","postalCode":"97082","locality":"Würzburg","municipality":{"key":"09663000","name":"Würzburg","type":"Kreisfreie_Stadt"},"district":{"key":"09663","name":"Würzburg","type":"Kreisfreie_Stadt"},"federalState":{"key":"09","name":"Bayern"}},{"name":"Hackstetterstr.","postalCode":"97074","locality":"Würzburg","municipality":{"key":"09663000","name":"Würzburg","type":"Kreisfreie_Stadt"},"district":{"key":"09663","name":"Würzburg","type":"Kreisfreie_Stadt"},"federalState":{"key":"09","name":"Bayern"}},{"name":"Hafenstr.","postalCode":"97080","locality":"Würzburg","municipality":{"key":"09663000","name":"Würzburg","type":"Kreisfreie_Stadt"},"district":{"key":"09663","name":"Würzburg","type":"Kreisfreie_Stadt"},"federalState":{"key":"09","name":"Bayern"}},{"name":"Häfnergasse","postalCode":"97070","locality":"Würzburg","municipality":{"key":"09663000","name":"Würzburg","type":"Kreisfreie_Stadt"},"district":{"key":"09663","name":"Würzburg","type":"Kreisfreie_Stadt"},"federalState":{"key":"09","name":"Bayern"}},{"name":"Händelstr.","postalCode":"97074","locality":"Würzburg","municipality":{"key":"09663000","name":"Würzburg","type":"Kreisfreie_Stadt"},"district":{"key":"09663","name":"Würzburg","type":"Kreisfreie_Stadt"},"federalState":{"key":"09","name":"Bayern"}},{"name":"Handgasse","postalCode":"97070","locality":"Würzburg","municipality":{"key":"09663000","name":"Würzburg","type":"Kreisfreie_Stadt"},"district":{"key":"09663","name":"Würzburg","type":"Kreisfreie_Stadt"},"federalState":{"key":"09","name":"Bayern"}},{"name":"Hans-Löffler-Str.","postalCode":"97074","locality":"Würzburg","municipality":{"key":"09663000","name":"Würzburg","type":"Kreisfreie_Stadt"},"district":{"key":"09663","name":"Würzburg","type":"Kreisfreie_Stadt"},"federalState":{"key":"09","name":"Bayern"}},{"name":"Hans-Sachs-Weg","postalCode":"97082","locality":"Würzburg","municipality":{"key":"09663000","name":"Würzburg","type":"Kreisfreie_Stadt"},"district":{"key":"09663","name":"Würzburg","type":"Kreisfreie_Stadt"},"federalState":{"key":"09","name":"Bayern"}},{"name":"Harfenstr.","postalCode":"97080","locality":"Würzburg","municipality":{"key":"09663000","name":"Würzburg","type":"Kreisfreie_Stadt"},"district":{"key":"09663","name":"Würzburg","type":"Kreisfreie_Stadt"},"federalState":{"key":"09","name":"Bayern"}},{"name":"Hartmannstr.","postalCode":"97082","locality":"Würzburg","municipality":{"key":"09663000","name":"Würzburg","type":"Kreisfreie_Stadt"},"district":{"key":"09663","name":"Würzburg","type":"Kreisfreie_Stadt"},"federalState":{"key":"09","name":"Bayern"}},{"name":"Haugerglacisstr.","postalCode":"97070","locality":"Würzburg","municipality":{"key":"09663000","name":"Würzburg","type":"Kreisfreie_Stadt"},"district":{"key":"09663","name":"Würzburg","type":"Kreisfreie_Stadt"},"federalState":{"key":"09","name":"Bayern"}},{"name":"Haugerkirchgasse","postalCode":"97070","locality":"Würzburg","municipality":{"key":"09663000","name":"Würzburg","type":"Kreisfreie_Stadt"},"district":{"key":"09663","name":"Würzburg","type":"Kreisfreie_Stadt"},"federalState":{"key":"09","name":"Bayern"}},{"name":"Haugerpfarrgasse","postalCode":"97070","locality":"Würzburg","municipality":{"key":"09663000","name":"Würzburg","type":"Kreisfreie_Stadt"},"district":{"key":"09663","name":"Würzburg","type":"Kreisfreie_Stadt"},"federalState":{"key":"09","name":"Bayern"}},{"name":"Haugerring","postalCode":"97070","locality":"Würzburg","municipality":{"key":"09663000","name":"Würzburg","type":"Kreisfreie_Stadt"},"district":{"key":"09663","name":"Würzburg","type":"Kreisfreie_Stadt"},"federalState":{"key":"09","name":"Bayern"}},{"name":"Haugerring","postalCode":"97080","locality":"Würzburg","municipality":{"key":"09663000","name":"Würzburg","type":"Kreisfreie_Stadt"},"district":{"key":"09663","name":"Würzburg","type":"Kreisfreie_Stadt"},"federalState":{"key":"09","name":"Bayern"}},{"name":"Hauptbahnhof Ost","postalCode":"97070","locality":"Würzburg","municipality":{"key":"09663000","name":"Würzburg","type":"Kreisfreie_Stadt"},"district":{"key":"09663","name":"Würzburg","type":"Kreisfreie_Stadt"},"federalState":{"key":"09","name":"Bayern"}},{"name":"Hauptstr.","postalCode":"97262","locality":"Hausen b. Würzburg","municipality":{"key":"09679143","name":"Hausen b.Würzburg","type":"Kreisangehörige_Gemeinde"},"district":{"key":"09679","name":"Würzburg","type":"Landkreis"},"federalState":{"key":"09","name":"Bayern"}},{"name":"Haydnstr.","postalCode":"97074","locality":"Würzburg","municipality":{"key":"09663000","name":"Würzburg","type":"Kreisfreie_Stadt"},"district":{"key":"09663","name":"Würzburg","type":"Kreisfreie_Stadt"},"federalState":{"key":"09","name":"Bayern"}},{"name":"Hebbelstr.","postalCode":"97072","locality":"Würzburg","municipality":{"key":"09663000","name":"Würzburg","type":"Kreisfreie_Stadt"},"district":{"key":"09663","name":"Würzburg","type":"Kreisfreie_Stadt"},"federalState":{"key":"09","name":"Bayern"}},{"name":"Hedanstr.","postalCode":"97084","locality":"Würzburg","municipality":{"key":"09663000","name":"Würzburg","type":"Kreisfreie_Stadt"},"district":{"key":"09663","name":"Würzburg","type":"Kreisfreie_Stadt"},"federalState":{"key":"09","name":"Bayern"}},{"name":"Heide","postalCode":"97078","locality":"Würzburg","municipality":{"key":"09663000","name":"Würzburg","type":"Kreisfreie_Stadt"},"district":{"key":"09663","name":"Würzburg","type":"Kreisfreie_Stadt"},"federalState":{"key":"09","name":"Bayern"}},{"name":"Heimgartenweg","postalCode":"97074","locality":"Würzburg","municipality":{"key":"09663000","name":"Würzburg","type":"Kreisfreie_Stadt"},"district":{"key":"09663","name":"Würzburg","type":"Kreisfreie_Stadt"},"federalState":{"key":"09","name":"Bayern"}},{"name":"Heiner-Dikreiter-Weg","postalCode":"97074","locality":"Würzburg","municipality":{"key":"09663000","name":"Würzburg","type":"Kreisfreie_Stadt"},"district":{"key":"09663","name":"Würzburg","type":"Kreisfreie_Stadt"},"federalState":{"key":"09","name":"Bayern"}},{"name":"Heinestr.","postalCode":"97070","locality":"Würzburg","municipality":{"key":"09663000","name":"Würzburg","type":"Kreisfreie_Stadt"},"district":{"key":"09663","name":"Würzburg","type":"Kreisfreie_Stadt"},"federalState":{"key":"09","name":"Bayern"}},{"name":"Heinrichsleitenweg","postalCode":"97080","locality":"Würzburg","municipality":{"key":"09663000","name":"Würzburg","type":"Kreisfreie_Stadt"},"district":{"key":"09663","name":"Würzburg","type":"Kreisfreie_Stadt"},"federalState":{"key":"09","name":"Bayern"}},{"name":"Heinrich-Zeuner-Str.","postalCode":"97082","locality":"Würzburg","municipality":{"key":"09663000","name":"Würzburg","type":"Kreisfreie_Stadt"},"district":{"key":"09663","name":"Würzburg","type":"Kreisfreie_Stadt"},"federalState":{"key":"09","name":"Bayern"}},{"name":"Heisenbergstr.","postalCode":"97076","locality":"Würzburg","municipality":{"key":"09663000","name":"Würzburg","type":"Kreisfreie_Stadt"},"district":{"key":"09663","name":"Würzburg","type":"Kreisfreie_Stadt"},"federalState":{"key":"09","name":"Bayern"}},{"name":"Helsinkistr.","postalCode":"97084","locality":"Würzburg","municipality":{"key":"09663000","name":"Würzburg","type":"Kreisfreie_Stadt"},"district":{"key":"09663","name":"Würzburg","type":"Kreisfreie_Stadt"},"federalState":{"key":"09","name":"Bayern"}},{"name":"Henlestr.","postalCode":"97074","locality":"Würzburg","municipality":{"key":"09663000","name":"Würzburg","type":"Kreisfreie_Stadt"},"district":{"key":"09663","name":"Würzburg","type":"Kreisfreie_Stadt"},"federalState":{"key":"09","name":"Bayern"}},{"name":"Heriedenweg","postalCode":"97084","locality":"Würzburg","municipality":{"key":"09663000","name":"Würzburg","type":"Kreisfreie_Stadt"},"district":{"key":"09663","name":"Würzburg","type":"Kreisfreie_Stadt"},"federalState":{"key":"09","name":"Bayern"}},{"name":"Hermann-Löns-Weg","postalCode":"97082","locality":"Würzburg","municipality":{"key":"09663000","name":"Würzburg","type":"Kreisfreie_Stadt"},"district":{"key":"09663","name":"Würzburg","type":"Kreisfreie_Stadt"},"federalState":{"key":"09","name":"Bayern"}},{"name":"Hermann-Mitnacht-Str.","postalCode":"97076","locality":"Würzburg","municipality":{"key":"09663000","name":"Würzburg","type":"Kreisfreie_Stadt"},"district":{"key":"09663","name":"Würzburg","type":"Kreisfreie_Stadt"},"federalState":{"key":"09","name":"Bayern"}},{"name":"Hermann-Schell-Str.","postalCode":"97074","locality":"Würzburg","municipality":{"key":"09663000","name":"Würzburg","type":"Kreisfreie_Stadt"},"district":{"key":"09663","name":"Würzburg","type":"Kreisfreie_Stadt"},"federalState":{"key":"09","name":"Bayern"}},{"name":"Hermann-Zürrlein-Str.","postalCode":"97076","locality":"Würzburg","municipality":{"key":"09663000","name":"Würzburg","type":"Kreisfreie_Stadt"},"district":{"key":"09663","name":"Würzburg","type":"Kreisfreie_Stadt"},"federalState":{"key":"09","name":"Bayern"}},{"name":"Herrnhofstr.","postalCode":"97076","locality":"Würzburg","municipality":{"key":"09663000","name":"Würzburg","type":"Kreisfreie_Stadt"},"district":{"key":"09663","name":"Würzburg","type":"Kreisfreie_Stadt"},"federalState":{"key":"09","name":"Bayern"}},{"name":"Herrnstr.","postalCode":"97070","locality":"Würzburg","municipality":{"key":"09663000","name":"Würzburg","type":"Kreisfreie_Stadt"},"district":{"key":"09663","name":"Würzburg","type":"Kreisfreie_Stadt"},"federalState":{"key":"09","name":"Bayern"}},{"name":"Herrnstr.","postalCode":"97262","locality":"Hausen b. Würzburg","municipality":{"key":"09679143","name":"Hausen b.Würzburg","type":"Kreisangehörige_Gemeinde"},"district":{"key":"09679","name":"Würzburg","type":"Landkreis"},"federalState":{"key":"09","name":"Bayern"}},{"name":"Herta-Mannheimer-Weg","postalCode":"97084","locality":"Würzburg","municipality":{"key":"09663000","name":"Würzburg","type":"Kreisfreie_Stadt"},"district":{"key":"09663","name":"Würzburg","type":"Kreisfreie_Stadt"},"federalState":{"key":"09","name":"Bayern"}},{"name":"Hertzstr.","postalCode":"97076","locality":"Würzburg","municipality":{"key":"09663000","name":"Würzburg","type":"Kreisfreie_Stadt"},"district":{"key":"09663","name":"Würzburg","type":"Kreisfreie_Stadt"},"federalState":{"key":"09","name":"Bayern"}},{"name":"Hessenstr.","postalCode":"97078","locality":"Würzburg","municipality":{"key":"09663000","name":"Würzburg","type":"Kreisfreie_Stadt"},"district":{"key":"09663","name":"Würzburg","type":"Kreisfreie_Stadt"},"federalState":{"key":"09","name":"Bayern"}},{"name":"Heuchelhofstr.","postalCode":"97084","locality":"Würzburg","municipality":{"key":"09663000","name":"Würzburg","type":"Kreisfreie_Stadt"},"district":{"key":"09663","name":"Würzburg","type":"Kreisfreie_Stadt"},"federalState":{"key":"09","name":"Bayern"}},{"name":"Hexenbruchweg","postalCode":"97082","locality":"Würzburg","municipality":{"key":"09663000","name":"Würzburg","type":"Kreisfreie_Stadt"},"district":{"key":"09663","name":"Würzburg","type":"Kreisfreie_Stadt"},"federalState":{"key":"09","name":"Bayern"}},{"name":"Hintere Heuchel","postalCode":"97084","locality":"Würzburg","municipality":{"key":"09663000","name":"Würzburg","type":"Kreisfreie_Stadt"},"district":{"key":"09663","name":"Würzburg","type":"Kreisfreie_Stadt"},"federalState":{"key":"09","name":"Bayern"}},{"name":"Hintere Kirchgasse","postalCode":"97078","locality":"Würzburg","municipality":{"key":"09663000","name":"Würzburg","type":"Kreisfreie_Stadt"},"district":{"key":"09663","name":"Würzburg","type":"Kreisfreie_Stadt"},"federalState":{"key":"09","name":"Bayern"}},{"name":"Hinterer Kirchbergweg","postalCode":"97084","locality":"Würzburg","municipality":{"key":"09663000","name":"Würzburg","type":"Kreisfreie_Stadt"},"district":{"key":"09663","name":"Würzburg","type":"Kreisfreie_Stadt"},"federalState":{"key":"09","name":"Bayern"}},{"name":"Hinterer Kühlenberg","postalCode":"97078","locality":"Würzburg","municipality":{"key":"09663000","name":"Würzburg","type":"Kreisfreie_Stadt"},"district":{"key":"09663","name":"Würzburg","type":"Kreisfreie_Stadt"},"federalState":{"key":"09","name":"Bayern"}},{"name":"Hirschberger Str.","postalCode":"97072","locality":"Würzburg","municipality":{"key":"09663000","name":"Würzburg","type":"Kreisfreie_Stadt"},"district":{"key":"09663","name":"Würzburg","type":"Kreisfreie_Stadt"},"federalState":{"key":"09","name":"Bayern"}},{"name":"Hirschleinstr.","postalCode":"97080","locality":"Würzburg","municipality":{"key":"09663000","name":"Würzburg","type":"Kreisfreie_Stadt"},"district":{"key":"09663","name":"Würzburg","type":"Kreisfreie_Stadt"},"federalState":{"key":"09","name":"Bayern"}},{"name":"Höchberger Str.","postalCode":"97082","locality":"Würzburg","municipality":{"key":"09663000","name":"Würzburg","type":"Kreisfreie_Stadt"},"district":{"key":"09663","name":"Würzburg","type":"Kreisfreie_Stadt"},"federalState":{"key":"09","name":"Bayern"}},{"name":"Hoffeldäcker","postalCode":"97084","locality":"Würzburg","municipality":{"key":"09663000","name":"Würzburg","type":"Kreisfreie_Stadt"},"district":{"key":"09663","name":"Würzburg","type":"Kreisfreie_Stadt"},"federalState":{"key":"09","name":"Bayern"}},{"name":"Ilse-Totzke-Str.","postalCode":"97074","locality":"Würzburg","municipality":{"key":"09663000","name":"Würzburg","type":"Kreisfreie_Stadt"},"district":{"key":"09663","name":"Würzburg","type":"Kreisfreie_Stadt"},"federalState":{"key":"09","name":"Bayern"}},{"name":"Im Grund","postalCode":"97080","locality":"Würzburg","municipality":{"key":"09663000","name":"Würzburg","type":"Kreisfreie_Stadt"},"district":{"key":"09663","name":"Würzburg","type":"Kreisfreie_Stadt"},"federalState":{"key":"09","name":"Bayern"}},{"name":"Im Hirschlein","postalCode":"97080","locality":"Würzburg","municipality":{"key":"09663000","name":"Würzburg","type":"Kreisfreie_Stadt"},"district":{"key":"09663","name":"Würzburg","type":"Kreisfreie_Stadt"},"federalState":{"key":"09","name":"Bayern"}},{"name":"In der Seibertsklinge","postalCode":"97084","locality":"Würzburg","municipality":{"key":"09663000","name":"Würzburg","type":"Kreisfreie_Stadt"},"district":{"key":"09663","name":"Würzburg","type":"Kreisfreie_Stadt"},"federalState":{"key":"09","name":"Bayern"}},{"name":"Industriestr.","postalCode":"97076","locality":"Würzburg","municipality":{"key":"09663000","name":"Würzburg","type":"Kreisfreie_Stadt"},"district":{"key":"09663","name":"Würzburg","type":"Kreisfreie_Stadt"},"federalState":{"key":"09","name":"Bayern"}},{"name":"Ingolstadter Hof","postalCode":"97070","locality":"Würzburg","municipality":{"key":"09663000","name":"Würzburg","type":"Kreisfreie_Stadt"},"district":{"key":"09663","name":"Würzburg","type":"Kreisfreie_Stadt"},"federalState":{"key":"09","name":"Bayern"}},{"name":"Innere Aumühlstr.","postalCode":"97076","locality":"Würzburg","municipality":{"key":"09663000","name":"Würzburg","type":"Kreisfreie_Stadt"},"district":{"key":"09663","name":"Würzburg","type":"Kreisfreie_Stadt"},"federalState":{"key":"09","name":"Bayern"}},{"name":"Innerer Graben","postalCode":"97070","locality":"Würzburg","municipality":{"key":"09663000","name":"Würzburg","type":"Kreisfreie_Stadt"},"district":{"key":"09663","name":"Würzburg","type":"Kreisfreie_Stadt"},"federalState":{"key":"09","name":"Bayern"}},{"name":"Jägerruh","postalCode":"97076","locality":"Würzburg","municipality":{"key":"09663000","name":"Würzburg","type":"Kreisfreie_Stadt"},"district":{"key":"09663","name":"Würzburg","type":"Kreisfreie_Stadt"},"federalState":{"key":"09","name":"Bayern"}},{"name":"Jägerstr.","postalCode":"97082","locality":"Würzburg","municipality":{"key":"09663000","name":"Würzburg","type":"Kreisfreie_Stadt"},"district":{"key":"09663","name":"Würzburg","type":"Kreisfreie_Stadt"},"federalState":{"key":"09","name":"Bayern"}},{"name":"Jahnstr.","postalCode":"97076","locality":"Würzburg","municipality":{"key":"09663000","name":"Würzburg","type":"Kreisfreie_Stadt"},"district":{"key":"09663","name":"Würzburg","type":"Kreisfreie_Stadt"},"federalState":{"key":"09","name":"Bayern"}},{"name":"Jahnstr.","postalCode":"97262","locality":"Hausen b. Würzburg","municipality":{"key":"09679143","name":"Hausen b.Würzburg","type":"Kreisangehörige_Gemeinde"},"district":{"key":"09679","name":"Würzburg","type":"Landkreis"},"federalState":{"key":"09","name":"Bayern"}},{"name":"Jakob-Riedinger-Str.","postalCode":"97074","locality":"Würzburg","municipality":{"key":"09663000","name":"Würzburg","type":"Kreisfreie_Stadt"},"district":{"key":"09663","name":"Würzburg","type":"Kreisfreie_Stadt"},"federalState":{"key":"09","name":"Bayern"}},{"name":"Jakob-Stößel-Str.","postalCode":"97262","locality":"Hausen b. Würzburg","municipality":{"key":"09679143","name":"Hausen b.Würzburg","type":"Kreisangehörige_Gemeinde"},"district":{"key":"09679","name":"Würzburg","type":"Landkreis"},"federalState":{"key":"09","name":"Bayern"}},{"name":"Japanischer Garten","postalCode":"97070","locality":"Würzburg","municipality":{"key":"09663000","name":"Würzburg","type":"Kreisfreie_Stadt"},"district":{"key":"09663","name":"Würzburg","type":"Kreisfreie_Stadt"},"federalState":{"key":"09","name":"Bayern"}},{"name":"Jehuda-Amichai-Str.","postalCode":"97070","locality":"Würzburg","municipality":{"key":"09663000","name":"Würzburg","type":"Kreisfreie_Stadt"},"district":{"key":"09663","name":"Würzburg","type":"Kreisfreie_Stadt"},"federalState":{"key":"09","name":"Bayern"}},{"name":"Johannes-Kepler-Str.","postalCode":"97074","locality":"Würzburg","municipality":{"key":"09663000","name":"Würzburg","type":"Kreisfreie_Stadt"},"district":{"key":"09663","name":"Würzburg","type":"Kreisfreie_Stadt"},"federalState":{"key":"09","name":"Bayern"}},{"name":"Johann-Herrmann-Str.","postalCode":"97078","locality":"Würzburg","municipality":{"key":"09663000","name":"Würzburg","type":"Kreisfreie_Stadt"},"district":{"key":"09663","name":"Würzburg","type":"Kreisfreie_Stadt"},"federalState":{"key":"09","name":"Bayern"}},{"name":"Johanniterweg","postalCode":"97076","locality":"Würzburg","municipality":{"key":"09663000","name":"Würzburg","type":"Kreisfreie_Stadt"},"district":{"key":"09663","name":"Würzburg","type":"Kreisfreie_Stadt"},"federalState":{"key":"09","name":"Bayern"}},{"name":"Johann-Josef-Strobel-Str.","postalCode":"97262","locality":"Hausen b. Würzburg","municipality":{"key":"09679143","name":"Hausen b.Würzburg","type":"Kreisangehörige_Gemeinde"},"district":{"key":"09679","name":"Würzburg","type":"Landkreis"},"federalState":{"key":"09","name":"Bayern"}},{"name":"Johann-Salomon-Str.","postalCode":"97080","locality":"Würzburg","municipality":{"key":"09663000","name":"Würzburg","type":"Kreisfreie_Stadt"},"district":{"key":"09663","name":"Würzburg","type":"Kreisfreie_Stadt"},"federalState":{"key":"09","name":"Bayern"}},{"name":"Josefplatz","postalCode":"97080","locality":"Würzburg","municipality":{"key":"09663000","name":"Würzburg","type":"Kreisfreie_Stadt"},"district":{"key":"09663","name":"Würzburg","type":"Kreisfreie_Stadt"},"federalState":{"key":"09","name":"Bayern"}},{"name":"Josef-Schneider-Str.","postalCode":"97080","locality":"Würzburg","municipality":{"key":"09663000","name":"Würzburg","type":"Kreisfreie_Stadt"},"district":{"key":"09663","name":"Würzburg","type":"Kreisfreie_Stadt"},"federalState":{"key":"09","name":"Bayern"}},{"name":"Josef-Stangl-Platz","postalCode":"97070","locality":"Würzburg","municipality":{"key":"09663000","name":"Würzburg","type":"Kreisfreie_Stadt"},"district":{"key":"09663","name":"Würzburg","type":"Kreisfreie_Stadt"},"federalState":{"key":"09","name":"Bayern"}},{"name":"Josefstr.","postalCode":"97080","locality":"Würzburg","municipality":{"key":"09663000","name":"Würzburg","type":"Kreisfreie_Stadt"},"district":{"key":"09663","name":"Würzburg","type":"Kreisfreie_Stadt"},"federalState":{"key":"09","name":"Bayern"}},{"name":"Joseph-Seitz-Str.","postalCode":"97076","locality":"Würzburg","municipality":{"key":"09663000","name":"Würzburg","type":"Kreisfreie_Stadt"},"district":{"key":"09663","name":"Würzburg","type":"Kreisfreie_Stadt"},"federalState":{"key":"09","name":"Bayern"}},{"name":"Judenbühlweg","postalCode":"97082","locality":"Würzburg","municipality":{"key":"09663000","name":"Würzburg","type":"Kreisfreie_Stadt"},"district":{"key":"09663","name":"Würzburg","type":"Kreisfreie_Stadt"},"federalState":{"key":"09","name":"Bayern"}},{"name":"Judenplan","postalCode":"97084","locality":"Würzburg","municipality":{"key":"09663000","name":"Würzburg","type":"Kreisfreie_Stadt"},"district":{"key":"09663","name":"Würzburg","type":"Kreisfreie_Stadt"},"federalState":{"key":"09","name":"Bayern"}},{"name":"Julius-Becher-Weg","postalCode":"97082","locality":"Würzburg","municipality":{"key":"09663000","name":"Würzburg","type":"Kreisfreie_Stadt"},"district":{"key":"09663","name":"Würzburg","type":"Kreisfreie_Stadt"},"federalState":{"key":"09","name":"Bayern"}},{"name":"Julius-Echter-Str.","postalCode":"97084","locality":"Würzburg","municipality":{"key":"09663000","name":"Würzburg","type":"Kreisfreie_Stadt"},"district":{"key":"09663","name":"Würzburg","type":"Kreisfreie_Stadt"},"federalState":{"key":"09","name":"Bayern"}},{"name":"Juliuspromenade","postalCode":"97070","locality":"Würzburg","municipality":{"key":"09663000","name":"Würzburg","type":"Kreisfreie_Stadt"},"district":{"key":"09663","name":"Würzburg","type":"Kreisfreie_Stadt"},"federalState":{"key":"09","name":"Bayern"}},{"name":"Julius-von-Sachs-Platz","postalCode":"97082","locality":"Würzburg","municipality":{"key":"09663000","name":"Würzburg","type":"Kreisfreie_Stadt"},"district":{"key":"09663","name":"Würzburg","type":"Kreisfreie_Stadt"},"federalState":{"key":"09","name":"Bayern"}},{"name":"Karlsbergweg","postalCode":"97285","locality":"Tauberrettersheim","municipality":{"key":"09679192","name":"Tauberrettersheim","type":"Kreisangehörige_Gemeinde"},"district":{"key":"09679","name":"Würzburg","type":"Landkreis"},"federalState":{"key":"09","name":"Bayern"}},{"name":"Landesgartenschau-Gelände 2018","postalCode":"97074","locality":"Würzburg","municipality":{"key":"09663000","name":"Würzburg","type":"Kreisfreie_Stadt"},"district":{"key":"09663","name":"Würzburg","type":"Kreisfreie_Stadt"},"federalState":{"key":"09","name":"Bayern"}},{"name":"Landsteinerstr.","postalCode":"97074","locality":"Würzburg","municipality":{"key":"09663000","name":"Würzburg","type":"Kreisfreie_Stadt"},"district":{"key":"09663","name":"Würzburg","type":"Kreisfreie_Stadt"},"federalState":{"key":"09","name":"Bayern"}},{"name":"Landwehrstr.","postalCode":"97070","locality":"Würzburg","municipality":{"key":"09663000","name":"Würzburg","type":"Kreisfreie_Stadt"},"district":{"key":"09663","name":"Würzburg","type":"Kreisfreie_Stadt"},"federalState":{"key":"09","name":"Bayern"}},{"name":"Lange Bögen","postalCode":"97074","locality":"Würzburg","municipality":{"key":"09663000","name":"Würzburg","type":"Kreisfreie_Stadt"},"district":{"key":"09663","name":"Würzburg","type":"Kreisfreie_Stadt"},"federalState":{"key":"09","name":"Bayern"}},{"name":"Langenbachweg","postalCode":"97084","locality":"Würzburg","municipality":{"key":"09663000","name":"Würzburg","type":"Kreisfreie_Stadt"},"district":{"key":"09663","name":"Würzburg","type":"Kreisfreie_Stadt"},"federalState":{"key":"09","name":"Bayern"}},{"name":"Langes Gräthlein","postalCode":"97078","locality":"Würzburg","municipality":{"key":"09663000","name":"Würzburg","type":"Kreisfreie_Stadt"},"district":{"key":"09663","name":"Würzburg","type":"Kreisfreie_Stadt"},"federalState":{"key":"09","name":"Bayern"}},{"name":"Langgasse","postalCode":"97070","locality":"Würzburg","municipality":{"key":"09663000","name":"Würzburg","type":"Kreisfreie_Stadt"},"district":{"key":"09663","name":"Würzburg","type":"Kreisfreie_Stadt"},"federalState":{"key":"09","name":"Bayern"}},{"name":"Lärchenweg","postalCode":"97084","locality":"Würzburg","municipality":{"key":"09663000","name":"Würzburg","type":"Kreisfreie_Stadt"},"district":{"key":"09663","name":"Würzburg","type":"Kreisfreie_Stadt"},"federalState":{"key":"09","name":"Bayern"}},{"name":"Laufergasse","postalCode":"97082","locality":"Würzburg","municipality":{"key":"09663000","name":"Würzburg","type":"Kreisfreie_Stadt"},"district":{"key":"09663","name":"Würzburg","type":"Kreisfreie_Stadt"},"federalState":{"key":"09","name":"Bayern"}},{"name":"Laurentiusbrücke","postalCode":"97080","locality":"Würzburg","municipality":{"key":"09663000","name":"Würzburg","type":"Kreisfreie_Stadt"},"district":{"key":"09663","name":"Würzburg","type":"Kreisfreie_Stadt"},"federalState":{"key":"09","name":"Bayern"}},{"name":"Laurentiusstr.","postalCode":"97076","locality":"Würzburg","municipality":{"key":"09663000","name":"Würzburg","type":"Kreisfreie_Stadt"},"district":{"key":"09663","name":"Würzburg","type":"Kreisfreie_Stadt"},"federalState":{"key":"09","name":"Bayern"}},{"name":"Lehmgrubenweg","postalCode":"97084","locality":"Würzburg","municipality":{"key":"09663000","name":"Würzburg","type":"Kreisfreie_Stadt"},"district":{"key":"09663","name":"Würzburg","type":"Kreisfreie_Stadt"},"federalState":{"key":"09","name":"Bayern"}},{"name":"Lehnleite","postalCode":"97074","locality":"Würzburg","municipality":{"key":"09663000","name":"Würzburg","type":"Kreisfreie_Stadt"},"district":{"key":"09663","name":"Würzburg","type":"Kreisfreie_Stadt"},"federalState":{"key":"09","name":"Bayern"}},{"name":"Lehnleitenweg","postalCode":"97074","locality":"Würzburg","municipality":{"key":"09663000","name":"Würzburg","type":"Kreisfreie_Stadt"},"district":{"key":"09663","name":"Würzburg","type":"Kreisfreie_Stadt"},"federalState":{"key":"09","name":"Bayern"}},{"name":"Leiblstr.","postalCode":"97072","locality":"Würzburg","municipality":{"key":"09663000","name":"Würzburg","type":"Kreisfreie_Stadt"},"district":{"key":"09663","name":"Würzburg","type":"Kreisfreie_Stadt"},"federalState":{"key":"09","name":"Bayern"}},{"name":"Leistenstr.","postalCode":"97082","locality":"Würzburg","municipality":{"key":"09663000","name":"Würzburg","type":"Kreisfreie_Stadt"},"district":{"key":"09663","name":"Würzburg","type":"Kreisfreie_Stadt"},"federalState":{"key":"09","name":"Bayern"}},{"name":"Leitengraben","postalCode":"97084","locality":"Würzburg","municipality":{"key":"09663000","name":"Würzburg","type":"Kreisfreie_Stadt"},"district":{"key":"09663","name":"Würzburg","type":"Kreisfreie_Stadt"},"federalState":{"key":"09","name":"Bayern"}},{"name":"Leitestr.","postalCode":"97082","locality":"Würzburg","municipality":{"key":"09663000","name":"Würzburg","type":"Kreisfreie_Stadt"},"district":{"key":"09663","name":"Würzburg","type":"Kreisfreie_Stadt"},"federalState":{"key":"09","name":"Bayern"}},{"name":"Lendnerstr.","postalCode":"97074","locality":"Würzburg","municipality":{"key":"09663000","name":"Würzburg","type":"Kreisfreie_Stadt"},"district":{"key":"09663","name":"Würzburg","type":"Kreisfreie_Stadt"},"federalState":{"key":"09","name":"Bayern"}},{"name":"Lengfelder Höh","postalCode":"97076","locality":"Würzburg","municipality":{"key":"09663000","name":"Würzburg","type":"Kreisfreie_Stadt"},"district":{"key":"09663","name":"Würzburg","type":"Kreisfreie_Stadt"},"federalState":{"key":"09","name":"Bayern"}},{"name":"Lengfelder Landwehr","postalCode":"97076","locality":"Würzburg","municipality":{"key":"09663000","name":"Würzburg","type":"Kreisfreie_Stadt"},"district":{"key":"09663","name":"Würzburg","type":"Kreisfreie_Stadt"},"federalState":{"key":"09","name":"Bayern"}},{"name":"Lengfelder Str.","postalCode":"97078","locality":"Würzburg","municipality":{"key":"09663000","name":"Würzburg","type":"Kreisfreie_Stadt"},"district":{"key":"09663","name":"Würzburg","type":"Kreisfreie_Stadt"},"federalState":{"key":"09","name":"Bayern"}},{"name":"Leonhard-Frank-Promenade","postalCode":"97082","locality":"Würzburg","municipality":{"key":"09663000","name":"Würzburg","type":"Kreisfreie_Stadt"},"district":{"key":"09663","name":"Würzburg","type":"Kreisfreie_Stadt"},"federalState":{"key":"09","name":"Bayern"}},{"name":"Leo-Weismantel-Str.","postalCode":"97074","locality":"Würzburg","municipality":{"key":"09663000","name":"Würzburg","type":"Kreisfreie_Stadt"},"district":{"key":"09663","name":"Würzburg","type":"Kreisfreie_Stadt"},"federalState":{"key":"09","name":"Bayern"}},{"name":"Lerchenhain","postalCode":"97074","locality":"Würzburg","municipality":{"key":"09663000","name":"Würzburg","type":"Kreisfreie_Stadt"},"district":{"key":"09663","name":"Würzburg","type":"Kreisfreie_Stadt"},"federalState":{"key":"09","name":"Bayern"}},{"name":"Lerchenweg","postalCode":"97074","locality":"Würzburg","municipality":{"key":"09663000","name":"Würzburg","type":"Kreisfreie_Stadt"},"district":{"key":"09663","name":"Würzburg","type":"Kreisfreie_Stadt"},"federalState":{"key":"09","name":"Bayern"}},{"name":"Lessingstr.","postalCode":"97072","locality":"Würzburg","municipality":{"key":"09663000","name":"Würzburg","type":"Kreisfreie_Stadt"},"district":{"key":"09663","name":"Würzburg","type":"Kreisfreie_Stadt"},"federalState":{"key":"09","name":"Bayern"}},{"name":"Leubestr.","postalCode":"97074","locality":"Würzburg","municipality":{"key":"09663000","name":"Würzburg","type":"Kreisfreie_Stadt"},"district":{"key":"09663","name":"Würzburg","type":"Kreisfreie_Stadt"},"federalState":{"key":"09","name":"Bayern"}},{"name":"Leutfresserweg","postalCode":"97082","locality":"Würzburg","municipality":{"key":"09663000","name":"Würzburg","type":"Kreisfreie_Stadt"},"district":{"key":"09663","name":"Würzburg","type":"Kreisfreie_Stadt"},"federalState":{"key":"09","name":"Bayern"}},{"name":"LGS-Gelände 1990","postalCode":"97082","locality":"Würzburg","municipality":{"key":"09663000","name":"Würzburg","type":"Kreisfreie_Stadt"},"district":{"key":"09663","name":"Würzburg","type":"Kreisfreie_Stadt"},"federalState":{"key":"09","name":"Bayern"}},{"name":"Liborius-Wagner-Str.","postalCode":"97076","locality":"Würzburg","municipality":{"key":"09663000","name":"Würzburg","type":"Kreisfreie_Stadt"},"district":{"key":"09663","name":"Würzburg","type":"Kreisfreie_Stadt"},"federalState":{"key":"09","name":"Bayern"}},{"name":"Liebigstr.","postalCode":"97080","locality":"Würzburg","municipality":{"key":"09663000","name":"Würzburg","type":"Kreisfreie_Stadt"},"district":{"key":"09663","name":"Würzburg","type":"Kreisfreie_Stadt"},"federalState":{"key":"09","name":"Bayern"}},{"name":"Liegnitzer Str.","postalCode":"97072","locality":"Würzburg","municipality":{"key":"09663000","name":"Würzburg","type":"Kreisfreie_Stadt"},"district":{"key":"09663","name":"Würzburg","type":"Kreisfreie_Stadt"},"federalState":{"key":"09","name":"Bayern"}},{"name":"Lilienweg","postalCode":"97084","locality":"Würzburg","municipality":{"key":"09663000","name":"Würzburg","type":"Kreisfreie_Stadt"},"district":{"key":"09663","name":"Würzburg","type":"Kreisfreie_Stadt"},"federalState":{"key":"09","name":"Bayern"}},{"name":"Lindachfeldweg","postalCode":"97078","locality":"Würzburg","municipality":{"key":"09663000","name":"Würzburg","type":"Kreisfreie_Stadt"},"district":{"key":"09663","name":"Würzburg","type":"Kreisfreie_Stadt"},"federalState":{"key":"09","name":"Bayern"}},{"name":"Lindahlstr.","postalCode":"97070","locality":"Würzburg","municipality":{"key":"09663000","name":"Würzburg","type":"Kreisfreie_Stadt"},"district":{"key":"09663","name":"Würzburg","type":"Kreisfreie_Stadt"},"federalState":{"key":"09","name":"Bayern"}},{"name":"Lindenstr.","postalCode":"97084","locality":"Würzburg","municipality":{"key":"09663000","name":"Würzburg","type":"Kreisfreie_Stadt"},"district":{"key":"09663","name":"Würzburg","type":"Kreisfreie_Stadt"},"federalState":{"key":"09","name":"Bayern"}},{"name":"Lindenstr.","postalCode":"97262","locality":"Hausen b. Würzburg","municipality":{"key":"09679143","name":"Hausen b.Würzburg","type":"Kreisangehörige_Gemeinde"},"district":{"key":"09679","name":"Würzburg","type":"Landkreis"},"federalState":{"key":"09","name":"Bayern"}},{"name":"Lindflurer Str.","postalCode":"97084","locality":"Würzburg","municipality":{"key":"09663000","name":"Würzburg","type":"Kreisfreie_Stadt"},"district":{"key":"09663","name":"Würzburg","type":"Kreisfreie_Stadt"},"federalState":{"key":"09","name":"Bayern"}},{"name":"Lindleinstr.","postalCode":"97080","locality":"Würzburg","municipality":{"key":"09663000","name":"Würzburg","type":"Kreisfreie_Stadt"},"district":{"key":"09663","name":"Würzburg","type":"Kreisfreie_Stadt"},"federalState":{"key":"09","name":"Bayern"}},{"name":"Lindleshang","postalCode":"97078","locality":"Würzburg","municipality":{"key":"09663000","name":"Würzburg","type":"Kreisfreie_Stadt"},"district":{"key":"09663","name":"Würzburg","type":"Kreisfreie_Stadt"},"federalState":{"key":"09","name":"Bayern"}},{"name":"Linsen","postalCode":"97084","locality":"Würzburg","municipality":{"key":"09663000","name":"Würzburg","type":"Kreisfreie_Stadt"},"district":{"key":"09663","name":"Würzburg","type":"Kreisfreie_Stadt"},"federalState":{"key":"09","name":"Bayern"}},{"name":"Lissabonner Str.","postalCode":"97084","locality":"Würzburg","municipality":{"key":"09663000","name":"Würzburg","type":"Kreisfreie_Stadt"},"district":{"key":"09663","name":"Würzburg","type":"Kreisfreie_Stadt"},"federalState":{"key":"09","name":"Bayern"}},{"name":"Londoner Str.","postalCode":"97084","locality":"Würzburg","municipality":{"key":"09663000","name":"Würzburg","type":"Kreisfreie_Stadt"},"district":{"key":"09663","name":"Würzburg","type":"Kreisfreie_Stadt"},"federalState":{"key":"09","name":"Bayern"}},{"name":"Lortzingstr.","postalCode":"97074","locality":"Würzburg","municipality":{"key":"09663000","name":"Würzburg","type":"Kreisfreie_Stadt"},"district":{"key":"09663","name":"Würzburg","type":"Kreisfreie_Stadt"},"federalState":{"key":"09","name":"Bayern"}},{"name":"Lothar-Forster-Str.","postalCode":"97080","locality":"Würzburg","municipality":{"key":"09663000","name":"Würzburg","type":"Kreisfreie_Stadt"},"district":{"key":"09663","name":"Würzburg","type":"Kreisfreie_Stadt"},"federalState":{"key":"09","name":"Bayern"}},{"name":"Ludwigkai","postalCode":"97072","locality":"Würzburg","municipality":{"key":"09663000","name":"Würzburg","type":"Kreisfreie_Stadt"},"district":{"key":"09663","name":"Würzburg","type":"Kreisfreie_Stadt"},"federalState":{"key":"09","name":"Bayern"}},{"name":"Ludwigsbrücke","postalCode":"97070","locality":"Würzburg","municipality":{"key":"09663000","name":"Würzburg","type":"Kreisfreie_Stadt"},"district":{"key":"09663","name":"Würzburg","type":"Kreisfreie_Stadt"},"federalState":{"key":"09","name":"Bayern"}},{"name":"Ludwigsbrücke","postalCode":"97082","locality":"Würzburg","municipality":{"key":"09663000","name":"Würzburg","type":"Kreisfreie_Stadt"},"district":{"key":"09663","name":"Würzburg","type":"Kreisfreie_Stadt"},"federalState":{"key":"09","name":"Bayern"}},{"name":"Ludwigstr.","postalCode":"97070","locality":"Würzburg","municipality":{"key":"09663000","name":"Würzburg","type":"Kreisfreie_Stadt"},"district":{"key":"09663","name":"Würzburg","type":"Kreisfreie_Stadt"},"federalState":{"key":"09","name":"Bayern"}},{"name":"Mühlenstr.","postalCode":"97285","locality":"Tauberrettersheim","municipality":{"key":"09679192","name":"Tauberrettersheim","type":"Kreisangehörige_Gemeinde"},"district":{"key":"09679","name":"Würzburg","type":"Landkreis"},"federalState":{"key":"09","name":"Bayern"}},{"name":"NA","postalCode":"97076","locality":"Würzburg","municipality":{"key":"09663000","name":"Würzburg","type":"Kreisfreie_Stadt"},"district":{"key":"09663","name":"Würzburg","type":"Kreisfreie_Stadt"},"federalState":{"key":"09","name":"Bayern"}},{"name":"Nachtigallenweg","postalCode":"97074","locality":"Würzburg","municipality":{"key":"09663000","name":"Würzburg","type":"Kreisfreie_Stadt"},"district":{"key":"09663","name":"Würzburg","type":"Kreisfreie_Stadt"},"federalState":{"key":"09","name":"Bayern"}},{"name":"Nautiland","postalCode":"97082","locality":"Würzburg","municipality":{"key":"09663000","name":"Würzburg","type":"Kreisfreie_Stadt"},"district":{"key":"09663","name":"Würzburg","type":"Kreisfreie_Stadt"},"federalState":{"key":"09","name":"Bayern"}},{"name":"Neidertstr.","postalCode":"97082","locality":"Würzburg","municipality":{"key":"09663000","name":"Würzburg","type":"Kreisfreie_Stadt"},"district":{"key":"09663","name":"Würzburg","type":"Kreisfreie_Stadt"},"federalState":{"key":"09","name":"Bayern"}},{"name":"Nelkenweg","postalCode":"97084","locality":"Würzburg","municipality":{"key":"09663000","name":"Würzburg","type":"Kreisfreie_Stadt"},"district":{"key":"09663","name":"Würzburg","type":"Kreisfreie_Stadt"},"federalState":{"key":"09","name":"Bayern"}},{"name":"Neubaustr.","postalCode":"97070","locality":"Würzburg","municipality":{"key":"09663000","name":"Würzburg","type":"Kreisfreie_Stadt"},"district":{"key":"09663","name":"Würzburg","type":"Kreisfreie_Stadt"},"federalState":{"key":"09","name":"Bayern"}},{"name":"Neubergstr.","postalCode":"97072","locality":"Würzburg","municipality":{"key":"09663000","name":"Würzburg","type":"Kreisfreie_Stadt"},"district":{"key":"09663","name":"Würzburg","type":"Kreisfreie_Stadt"},"federalState":{"key":"09","name":"Bayern"}},{"name":"Neuenbrunnerweg","postalCode":"97080","locality":"Würzburg","municipality":{"key":"09663000","name":"Würzburg","type":"Kreisfreie_Stadt"},"district":{"key":"09663","name":"Würzburg","type":"Kreisfreie_Stadt"},"federalState":{"key":"09","name":"Bayern"}},{"name":"Neumann-Passage","postalCode":"97070","locality":"Würzburg","municipality":{"key":"09663000","name":"Würzburg","type":"Kreisfreie_Stadt"},"district":{"key":"09663","name":"Würzburg","type":"Kreisfreie_Stadt"},"federalState":{"key":"09","name":"Bayern"}},{"name":"Neunerplatz","postalCode":"97082","locality":"Würzburg","municipality":{"key":"09663000","name":"Würzburg","type":"Kreisfreie_Stadt"},"district":{"key":"09663","name":"Würzburg","type":"Kreisfreie_Stadt"},"federalState":{"key":"09","name":"Bayern"}},{"name":"Neutorstr.","postalCode":"97070","locality":"Würzburg","municipality":{"key":"09663000","name":"Würzburg","type":"Kreisfreie_Stadt"},"district":{"key":"09663","name":"Würzburg","type":"Kreisfreie_Stadt"},"federalState":{"key":"09","name":"Bayern"}},{"name":"Neutorwiese","postalCode":"97082","locality":"Würzburg","municipality":{"key":"09663000","name":"Würzburg","type":"Kreisfreie_Stadt"},"district":{"key":"09663","name":"Würzburg","type":"Kreisfreie_Stadt"},"federalState":{"key":"09","name":"Bayern"}},{"name":"Neydeckgasse","postalCode":"97082","locality":"Würzburg","municipality":{"key":"09663000","name":"Würzburg","type":"Kreisfreie_Stadt"},"district":{"key":"09663","name":"Würzburg","type":"Kreisfreie_Stadt"},"federalState":{"key":"09","name":"Bayern"}},{"name":"Nikolaus-Fey-Str.","postalCode":"97084","locality":"Würzburg","municipality":{"key":"09663000","name":"Würzburg","type":"Kreisfreie_Stadt"},"district":{"key":"09663","name":"Würzburg","type":"Kreisfreie_Stadt"},"federalState":{"key":"09","name":"Bayern"}},{"name":"Nikolaus-Neeb-Str.","postalCode":"97262","locality":"Hausen b. Würzburg","municipality":{"key":"09679143","name":"Hausen b.Würzburg","type":"Kreisangehörige_Gemeinde"},"district":{"key":"09679","name":"Würzburg","type":"Landkreis"},"federalState":{"key":"09","name":"Bayern"}},{"name":"Nikolausstr.","postalCode":"97082","locality":"Würzburg","municipality":{"key":"09663000","name":"Würzburg","type":"Kreisfreie_Stadt"},"district":{"key":"09663","name":"Würzburg","type":"Kreisfreie_Stadt"},"federalState":{"key":"09","name":"Bayern"}},{"name":"Nopitschstr.","postalCode":"97074","locality":"Würzburg","municipality":{"key":"09663000","name":"Würzburg","type":"Kreisfreie_Stadt"},"district":{"key":"09663","name":"Würzburg","type":"Kreisfreie_Stadt"},"federalState":{"key":"09","name":"Bayern"}},{"name":"Norbert-Glanzberg-Str.","postalCode":"97074","locality":"Würzburg","municipality":{"key":"09663000","name":"Würzburg","type":"Kreisfreie_Stadt"},"district":{"key":"09663","name":"Würzburg","type":"Kreisfreie_Stadt"},"federalState":{"key":"09","name":"Bayern"}},{"name":"Nördliche Hafenstr.","postalCode":"97080","locality":"Würzburg","municipality":{"key":"09663000","name":"Würzburg","type":"Kreisfreie_Stadt"},"district":{"key":"09663","name":"Würzburg","type":"Kreisfreie_Stadt"},"federalState":{"key":"09","name":"Bayern"}},{"name":"Nordtangente","postalCode":"97080","locality":"Würzburg","municipality":{"key":"09663000","name":"Würzburg","type":"Kreisfreie_Stadt"},"district":{"key":"09663","name":"Würzburg","type":"Kreisfreie_Stadt"},"federalState":{"key":"09","name":"Bayern"}},{"name":"Nürnberger Str.","postalCode":"97076","locality":"Würzburg","municipality":{"key":"09663000","name":"Würzburg","type":"Kreisfreie_Stadt"},"district":{"key":"09663","name":"Würzburg","type":"Kreisfreie_Stadt"},"federalState":{"key":"09","name":"Bayern"}},{"name":"Nußbaumweg","postalCode":"97084","locality":"Würzburg","municipality":{"key":"09663000","name":"Würzburg","type":"Kreisfreie_Stadt"},"district":{"key":"09663","name":"Würzburg","type":"Kreisfreie_Stadt"},"federalState":{"key":"09","name":"Bayern"}},{"name":"Obergasse","postalCode":"97285","locality":"Tauberrettersheim","municipality":{"key":"09679192","name":"Tauberrettersheim","type":"Kreisangehörige_Gemeinde"},"district":{"key":"09679","name":"Würzburg","type":"Landkreis"},"federalState":{"key":"09","name":"Bayern"}},{"name":"Pacotistr.","postalCode":"97076","locality":"Würzburg","municipality":{"key":"09663000","name":"Würzburg","type":"Kreisfreie_Stadt"},"district":{"key":"09663","name":"Würzburg","type":"Kreisfreie_Stadt"},"federalState":{"key":"09","name":"Bayern"}},{"name":"Paradeisstr.","postalCode":"97262","locality":"Hausen b. Würzburg","municipality":{"key":"09679143","name":"Hausen b.Würzburg","type":"Kreisangehörige_Gemeinde"},"district":{"key":"09679","name":"Würzburg","type":"Landkreis"},"federalState":{"key":"09","name":"Bayern"}},{"name":"Pariser Str.","postalCode":"97084","locality":"Würzburg","municipality":{"key":"09663000","name":"Würzburg","type":"Kreisfreie_Stadt"},"district":{"key":"09663","name":"Würzburg","type":"Kreisfreie_Stadt"},"federalState":{"key":"09","name":"Bayern"}},{"name":"Parsevalstr.","postalCode":"97074","locality":"Würzburg","municipality":{"key":"09663000","name":"Würzburg","type":"Kreisfreie_Stadt"},"district":{"key":"09663","name":"Würzburg","type":"Kreisfreie_Stadt"},"federalState":{"key":"09","name":"Bayern"}},{"name":"Pergamonweg","postalCode":"97084","locality":"Würzburg","municipality":{"key":"09663000","name":"Würzburg","type":"Kreisfreie_Stadt"},"district":{"key":"09663","name":"Würzburg","type":"Kreisfreie_Stadt"},"federalState":{"key":"09","name":"Bayern"}},{"name":"Pestalozzistr.","postalCode":"97080","locality":"Würzburg","municipality":{"key":"09663000","name":"Würzburg","type":"Kreisfreie_Stadt"},"district":{"key":"09663","name":"Würzburg","type":"Kreisfreie_Stadt"},"federalState":{"key":"09","name":"Bayern"}},{"name":"Peter-Haupt-Str.","postalCode":"97080","locality":"Würzburg","municipality":{"key":"09663000","name":"Würzburg","type":"Kreisfreie_Stadt"},"district":{"key":"09663","name":"Würzburg","type":"Kreisfreie_Stadt"},"federalState":{"key":"09","name":"Bayern"}},{"name":"Peterpfarrgasse","postalCode":"97070","locality":"Würzburg","municipality":{"key":"09663000","name":"Würzburg","type":"Kreisfreie_Stadt"},"district":{"key":"09663","name":"Würzburg","type":"Kreisfreie_Stadt"},"federalState":{"key":"09","name":"Bayern"}},{"name":"Peterplatz","postalCode":"97070","locality":"Würzburg","municipality":{"key":"09663000","name":"Würzburg","type":"Kreisfreie_Stadt"},"district":{"key":"09663","name":"Würzburg","type":"Kreisfreie_Stadt"},"federalState":{"key":"09","name":"Bayern"}},{"name":"Peter-Schneider-Str.","postalCode":"97074","locality":"Würzburg","municipality":{"key":"09663000","name":"Würzburg","type":"Kreisfreie_Stadt"},"district":{"key":"09663","name":"Würzburg","type":"Kreisfreie_Stadt"},"federalState":{"key":"09","name":"Bayern"}},{"name":"Peterstr.","postalCode":"97070","locality":"Würzburg","municipality":{"key":"09663000","name":"Würzburg","type":"Kreisfreie_Stadt"},"district":{"key":"09663","name":"Würzburg","type":"Kreisfreie_Stadt"},"federalState":{"key":"09","name":"Bayern"}},{"name":"Peter-Wagner-Str.","postalCode":"97080","locality":"Würzburg","municipality":{"key":"09663000","name":"Würzburg","type":"Kreisfreie_Stadt"},"district":{"key":"09663","name":"Würzburg","type":"Kreisfreie_Stadt"},"federalState":{"key":"09","name":"Bayern"}},{"name":"Pfaffenbergweg","postalCode":"97080","locality":"Würzburg","municipality":{"key":"09663000","name":"Würzburg","type":"Kreisfreie_Stadt"},"district":{"key":"09663","name":"Würzburg","type":"Kreisfreie_Stadt"},"federalState":{"key":"09","name":"Bayern"}},{"name":"Pfalzstr.","postalCode":"97078","locality":"Würzburg","municipality":{"key":"09663000","name":"Würzburg","type":"Kreisfreie_Stadt"},"district":{"key":"09663","name":"Würzburg","type":"Kreisfreie_Stadt"},"federalState":{"key":"09","name":"Bayern"}},{"name":"Pfarrer-Paul-Nützel-Str.","postalCode":"97082","locality":"Würzburg","municipality":{"key":"09663000","name":"Würzburg","type":"Kreisfreie_Stadt"},"district":{"key":"09663","name":"Würzburg","type":"Kreisfreie_Stadt"},"federalState":{"key":"09","name":"Bayern"}},{"name":"Pfauengasse","postalCode":"97070","locality":"Würzburg","municipality":{"key":"09663000","name":"Würzburg","type":"Kreisfreie_Stadt"},"district":{"key":"09663","name":"Würzburg","type":"Kreisfreie_Stadt"},"federalState":{"key":"09","name":"Bayern"}},{"name":"Philipp-Fasel-Str.","postalCode":"97076","locality":"Würzburg","municipality":{"key":"09663000","name":"Würzburg","type":"Kreisfreie_Stadt"},"district":{"key":"09663","name":"Würzburg","type":"Kreisfreie_Stadt"},"federalState":{"key":"09","name":"Bayern"}},{"name":"Pickelstr.","postalCode":"97080","locality":"Würzburg","municipality":{"key":"09663000","name":"Würzburg","type":"Kreisfreie_Stadt"},"district":{"key":"09663","name":"Würzburg","type":"Kreisfreie_Stadt"},"federalState":{"key":"09","name":"Bayern"}},{"name":"Pilziggrundstr.","postalCode":"97076","locality":"Würzburg","municipality":{"key":"09663000","name":"Würzburg","type":"Kreisfreie_Stadt"},"district":{"key":"09663","name":"Würzburg","type":"Kreisfreie_Stadt"},"federalState":{"key":"09","name":"Bayern"}},{"name":"Place de Caen","postalCode":"97084","locality":"Würzburg","municipality":{"key":"09663000","name":"Würzburg","type":"Kreisfreie_Stadt"},"district":{"key":"09663","name":"Würzburg","type":"Kreisfreie_Stadt"},"federalState":{"key":"09","name":"Bayern"}},{"name":"Planstr. Nord 14","postalCode":"97074","locality":"Würzburg","municipality":{"key":"09663000","name":"Würzburg","type":"Kreisfreie_Stadt"},"district":{"key":"09663","name":"Würzburg","type":"Kreisfreie_Stadt"},"federalState":{"key":"09","name":"Bayern"}},{"name":"Planstr. Nord 15","postalCode":"97074","locality":"Würzburg","municipality":{"key":"09663000","name":"Würzburg","type":"Kreisfreie_Stadt"},"district":{"key":"09663","name":"Würzburg","type":"Kreisfreie_Stadt"},"federalState":{"key":"09","name":"Bayern"}},{"name":"Planstr. Nord 17","postalCode":"97074","locality":"Würzburg","municipality":{"key":"09663000","name":"Würzburg","type":"Kreisfreie_Stadt"},"district":{"key":"09663","name":"Würzburg","type":"Kreisfreie_Stadt"},"federalState":{"key":"09","name":"Bayern"}},{"name":"Planstr. Nord 18","postalCode":"97074","locality":"Würzburg","municipality":{"key":"09663000","name":"Würzburg","type":"Kreisfreie_Stadt"},"district":{"key":"09663","name":"Würzburg","type":"Kreisfreie_Stadt"},"federalState":{"key":"09","name":"Bayern"}},{"name":"Planstr. Nord 19","postalCode":"97074","locality":"Würzburg","municipality":{"key":"09663000","name":"Würzburg","type":"Kreisfreie_Stadt"},"district":{"key":"09663","name":"Würzburg","type":"Kreisfreie_Stadt"},"federalState":{"key":"09","name":"Bayern"}},{"name":"Planstr. Nord 20","postalCode":"97074","locality":"Würzburg","municipality":{"key":"09663000","name":"Würzburg","type":"Kreisfreie_Stadt"},"district":{"key":"09663","name":"Würzburg","type":"Kreisfreie_Stadt"},"federalState":{"key":"09","name":"Bayern"}},{"name":"Planstr. Nord 21","postalCode":"97074","locality":"Würzburg","municipality":{"key":"09663000","name":"Würzburg","type":"Kreisfreie_Stadt"},"district":{"key":"09663","name":"Würzburg","type":"Kreisfreie_Stadt"},"federalState":{"key":"09","name":"Bayern"}},{"name":"Planstr. Nord 22","postalCode":"97074","locality":"Würzburg","municipality":{"key":"09663000","name":"Würzburg","type":"Kreisfreie_Stadt"},"district":{"key":"09663","name":"Würzburg","type":"Kreisfreie_Stadt"},"federalState":{"key":"09","name":"Bayern"}},{"name":"Planstr. Nord 23","postalCode":"97074","locality":"Würzburg","municipality":{"key":"09663000","name":"Würzburg","type":"Kreisfreie_Stadt"},"district":{"key":"09663","name":"Würzburg","type":"Kreisfreie_Stadt"},"federalState":{"key":"09","name":"Bayern"}},{"name":"Planstr. Nord 24","postalCode":"97074","locality":"Würzburg","municipality":{"key":"09663000","name":"Würzburg","type":"Kreisfreie_Stadt"},"district":{"key":"09663","name":"Würzburg","type":"Kreisfreie_Stadt"},"federalState":{"key":"09","name":"Bayern"}},{"name":"Planstr. Nord 25","postalCode":"97074","locality":"Würzburg","municipality":{"key":"09663000","name":"Würzburg","type":"Kreisfreie_Stadt"},"district":{"key":"09663","name":"Würzburg","type":"Kreisfreie_Stadt"},"federalState":{"key":"09","name":"Bayern"}},{"name":"Planstr. Nord 26","postalCode":"97074","locality":"Würzburg","municipality":{"key":"09663000","name":"Würzburg","type":"Kreisfreie_Stadt"},"district":{"key":"09663","name":"Würzburg","type":"Kreisfreie_Stadt"},"federalState":{"key":"09","name":"Bayern"}},{"name":"Platenstr.","postalCode":"97072","locality":"Würzburg","municipality":{"key":"09663000","name":"Würzburg","type":"Kreisfreie_Stadt"},"district":{"key":"09663","name":"Würzburg","type":"Kreisfreie_Stadt"},"federalState":{"key":"09","name":"Bayern"}},{"name":"Plattnerstr.","postalCode":"97070","locality":"Würzburg","municipality":{"key":"09663000","name":"Würzburg","type":"Kreisfreie_Stadt"},"district":{"key":"09663","name":"Würzburg","type":"Kreisfreie_Stadt"},"federalState":{"key":"09","name":"Bayern"}},{"name":"Platz der Brieftauben","postalCode":"97082","locality":"Würzburg","municipality":{"key":"09663000","name":"Würzburg","type":"Kreisfreie_Stadt"},"district":{"key":"09663","name":"Würzburg","type":"Kreisfreie_Stadt"},"federalState":{"key":"09","name":"Bayern"}},{"name":"Platz der Fischerzunft","postalCode":"97082","locality":"Würzburg","municipality":{"key":"09663000","name":"Würzburg","type":"Kreisfreie_Stadt"},"district":{"key":"09663","name":"Würzburg","type":"Kreisfreie_Stadt"},"federalState":{"key":"09","name":"Bayern"}},{"name":"Pleichachgrund","postalCode":"97078","locality":"Würzburg","municipality":{"key":"09663000","name":"Würzburg","type":"Kreisfreie_Stadt"},"district":{"key":"09663","name":"Würzburg","type":"Kreisfreie_Stadt"},"federalState":{"key":"09","name":"Bayern"}},{"name":"Pleicherkirchgasse","postalCode":"97070","locality":"Würzburg","municipality":{"key":"09663000","name":"Würzburg","type":"Kreisfreie_Stadt"},"district":{"key":"09663","name":"Würzburg","type":"Kreisfreie_Stadt"},"federalState":{"key":"09","name":"Bayern"}},{"name":"Pleicher Passage","postalCode":"97070","locality":"Würzburg","municipality":{"key":"09663000","name":"Würzburg","type":"Kreisfreie_Stadt"},"district":{"key":"09663","name":"Würzburg","type":"Kreisfreie_Stadt"},"federalState":{"key":"09","name":"Bayern"}},{"name":"Pleicherpfarrgasse","postalCode":"97070","locality":"Würzburg","municipality":{"key":"09663000","name":"Würzburg","type":"Kreisfreie_Stadt"},"district":{"key":"09663","name":"Würzburg","type":"Kreisfreie_Stadt"},"federalState":{"key":"09","name":"Bayern"}},{"name":"Pleicherschulgasse","postalCode":"97070","locality":"Würzburg","municipality":{"key":"09663000","name":"Würzburg","type":"Kreisfreie_Stadt"},"district":{"key":"09663","name":"Würzburg","type":"Kreisfreie_Stadt"},"federalState":{"key":"09","name":"Bayern"}},{"name":"Pleichertorstr.","postalCode":"97070","locality":"Würzburg","municipality":{"key":"09663000","name":"Würzburg","type":"Kreisfreie_Stadt"},"district":{"key":"09663","name":"Würzburg","type":"Kreisfreie_Stadt"},"federalState":{"key":"09","name":"Bayern"}},{"name":"Pleicherwall","postalCode":"97070","locality":"Würzburg","municipality":{"key":"09663000","name":"Würzburg","type":"Kreisfreie_Stadt"},"district":{"key":"09663","name":"Würzburg","type":"Kreisfreie_Stadt"},"federalState":{"key":"09","name":"Bayern"}},{"name":"Pommergasse","postalCode":"97070","locality":"Würzburg","municipality":{"key":"09663000","name":"Würzburg","type":"Kreisfreie_Stadt"},"district":{"key":"09663","name":"Würzburg","type":"Kreisfreie_Stadt"},"federalState":{"key":"09","name":"Bayern"}},{"name":"Poppspfad","postalCode":"97074","locality":"Würzburg","municipality":{"key":"09663000","name":"Würzburg","type":"Kreisfreie_Stadt"},"district":{"key":"09663","name":"Würzburg","type":"Kreisfreie_Stadt"},"federalState":{"key":"09","name":"Bayern"}},{"name":"Prager Ring","postalCode":"97084","locality":"Würzburg","municipality":{"key":"09663000","name":"Würzburg","type":"Kreisfreie_Stadt"},"district":{"key":"09663","name":"Würzburg","type":"Kreisfreie_Stadt"},"federalState":{"key":"09","name":"Bayern"}},{"name":"Prof.-Heribert-Braun-Weg","postalCode":"97078","locality":"Würzburg","municipality":{"key":"09663000","name":"Würzburg","type":"Kreisfreie_Stadt"},"district":{"key":"09663","name":"Würzburg","type":"Kreisfreie_Stadt"},"federalState":{"key":"09","name":"Bayern"}},{"name":"Prymstr.","postalCode":"97070","locality":"Würzburg","municipality":{"key":"09663000","name":"Würzburg","type":"Kreisfreie_Stadt"},"district":{"key":"09663","name":"Würzburg","type":"Kreisfreie_Stadt"},"federalState":{"key":"09","name":"Bayern"}},{"name":"Rehberg","postalCode":"97285","locality":"Tauberrettersheim","municipality":{"key":"09679192","name":"Tauberrettersheim","type":"Kreisangehörige_Gemeinde"},"district":{"key":"09679","name":"Würzburg","type":"Landkreis"},"federalState":{"key":"09","name":"Bayern"}},{"name":"Saalgasse","postalCode":"97082","locality":"Würzburg","municipality":{"key":"09663000","name":"Würzburg","type":"Kreisfreie_Stadt"},"district":{"key":"09663","name":"Würzburg","type":"Kreisfreie_Stadt"},"federalState":{"key":"09","name":"Bayern"}},{"name":"Salamancastr.","postalCode":"97084","locality":"Würzburg","municipality":{"key":"09663000","name":"Würzburg","type":"Kreisfreie_Stadt"},"district":{"key":"09663","name":"Würzburg","type":"Kreisfreie_Stadt"},"federalState":{"key":"09","name":"Bayern"}},{"name":"Salvatorstr.","postalCode":"97074","locality":"Würzburg","municipality":{"key":"09663000","name":"Würzburg","type":"Kreisfreie_Stadt"},"district":{"key":"09663","name":"Würzburg","type":"Kreisfreie_Stadt"},"federalState":{"key":"09","name":"Bayern"}},{"name":"Sandbergerstr.","postalCode":"97074","locality":"Würzburg","municipality":{"key":"09663000","name":"Würzburg","type":"Kreisfreie_Stadt"},"district":{"key":"09663","name":"Würzburg","type":"Kreisfreie_Stadt"},"federalState":{"key":"09","name":"Bayern"}},{"name":"Sanderglacisstr.","postalCode":"97070","locality":"Würzburg","municipality":{"key":"09663000","name":"Würzburg","type":"Kreisfreie_Stadt"},"district":{"key":"09663","name":"Würzburg","type":"Kreisfreie_Stadt"},"federalState":{"key":"09","name":"Bayern"}},{"name":"Sanderring","postalCode":"97070","locality":"Würzburg","municipality":{"key":"09663000","name":"Würzburg","type":"Kreisfreie_Stadt"},"district":{"key":"09663","name":"Würzburg","type":"Kreisfreie_Stadt"},"federalState":{"key":"09","name":"Bayern"}},{"name":"Sanderrothstr.","postalCode":"97074","locality":"Würzburg","municipality":{"key":"09663000","name":"Würzburg","type":"Kreisfreie_Stadt"},"district":{"key":"09663","name":"Würzburg","type":"Kreisfreie_Stadt"},"federalState":{"key":"09","name":"Bayern"}},{"name":"Sanderstr.","postalCode":"97070","locality":"Würzburg","municipality":{"key":"09663000","name":"Würzburg","type":"Kreisfreie_Stadt"},"district":{"key":"09663","name":"Würzburg","type":"Kreisfreie_Stadt"},"federalState":{"key":"09","name":"Bayern"}},{"name":"Sandgrubenweg","postalCode":"97084","locality":"Würzburg","municipality":{"key":"09663000","name":"Würzburg","type":"Kreisfreie_Stadt"},"district":{"key":"09663","name":"Würzburg","type":"Kreisfreie_Stadt"},"federalState":{"key":"09","name":"Bayern"}},{"name":"Sandweg","postalCode":"97078","locality":"Würzburg","municipality":{"key":"09663000","name":"Würzburg","type":"Kreisfreie_Stadt"},"district":{"key":"09663","name":"Würzburg","type":"Kreisfreie_Stadt"},"federalState":{"key":"09","name":"Bayern"}},{"name":"Sankt-Benedikt-Str.","postalCode":"97072","locality":"Würzburg","municipality":{"key":"09663000","name":"Würzburg","type":"Kreisfreie_Stadt"},"district":{"key":"09663","name":"Würzburg","type":"Kreisfreie_Stadt"},"federalState":{"key":"09","name":"Bayern"}},{"name":"Sankt-Jakobus-Str.","postalCode":"97078","locality":"Würzburg","municipality":{"key":"09663000","name":"Würzburg","type":"Kreisfreie_Stadt"},"district":{"key":"09663","name":"Würzburg","type":"Kreisfreie_Stadt"},"federalState":{"key":"09","name":"Bayern"}},{"name":"Sankt-Josef-Str.","postalCode":"97080","locality":"Würzburg","municipality":{"key":"09663000","name":"Würzburg","type":"Kreisfreie_Stadt"},"district":{"key":"09663","name":"Würzburg","type":"Kreisfreie_Stadt"},"federalState":{"key":"09","name":"Bayern"}},{"name":"Sankt-Lioba-Str.","postalCode":"97076","locality":"Würzburg","municipality":{"key":"09663000","name":"Würzburg","type":"Kreisfreie_Stadt"},"district":{"key":"09663","name":"Würzburg","type":"Kreisfreie_Stadt"},"federalState":{"key":"09","name":"Bayern"}},{"name":"Sankt-Rochus-Str.","postalCode":"97078","locality":"Würzburg","municipality":{"key":"09663000","name":"Würzburg","type":"Kreisfreie_Stadt"},"district":{"key":"09663","name":"Würzburg","type":"Kreisfreie_Stadt"},"federalState":{"key":"09","name":"Bayern"}},{"name":"Sartoriusstr.","postalCode":"97072","locality":"Würzburg","municipality":{"key":"09663000","name":"Würzburg","type":"Kreisfreie_Stadt"},"district":{"key":"09663","name":"Würzburg","type":"Kreisfreie_Stadt"},"federalState":{"key":"09","name":"Bayern"}},{"name":"Scanzonistr.","postalCode":"97080","locality":"Würzburg","municipality":{"key":"09663000","name":"Würzburg","type":"Kreisfreie_Stadt"},"district":{"key":"09663","name":"Würzburg","type":"Kreisfreie_Stadt"},"federalState":{"key":"09","name":"Bayern"}},{"name":"Schadewitzstr.","postalCode":"97074","locality":"Würzburg","municipality":{"key":"09663000","name":"Würzburg","type":"Kreisfreie_Stadt"},"district":{"key":"09663","name":"Würzburg","type":"Kreisfreie_Stadt"},"federalState":{"key":"09","name":"Bayern"}},{"name":"Schafhofstr.","postalCode":"97080","locality":"Würzburg","municipality":{"key":"09663000","name":"Würzburg","type":"Kreisfreie_Stadt"},"district":{"key":"09663","name":"Würzburg","type":"Kreisfreie_Stadt"},"federalState":{"key":"09","name":"Bayern"}},{"name":"Schalksbergweg","postalCode":"97080","locality":"Würzburg","municipality":{"key":"09663000","name":"Würzburg","type":"Kreisfreie_Stadt"},"district":{"key":"09663","name":"Würzburg","type":"Kreisfreie_Stadt"},"federalState":{"key":"09","name":"Bayern"}},{"name":"Schanzstr.","postalCode":"97074","locality":"Würzburg","municipality":{"key":"09663000","name":"Würzburg","type":"Kreisfreie_Stadt"},"district":{"key":"09663","name":"Würzburg","type":"Kreisfreie_Stadt"},"federalState":{"key":"09","name":"Bayern"}},{"name":"Scharnhorststr.","postalCode":"97082","locality":"Würzburg","municipality":{"key":"09663000","name":"Würzburg","type":"Kreisfreie_Stadt"},"district":{"key":"09663","name":"Würzburg","type":"Kreisfreie_Stadt"},"federalState":{"key":"09","name":"Bayern"}},{"name":"Scharoldstr.","postalCode":"97080","locality":"Würzburg","municipality":{"key":"09663000","name":"Würzburg","type":"Kreisfreie_Stadt"},"district":{"key":"09663","name":"Würzburg","type":"Kreisfreie_Stadt"},"federalState":{"key":"09","name":"Bayern"}},{"name":"Scheffelstr.","postalCode":"97072","locality":"Würzburg","municipality":{"key":"09663000","name":"Würzburg","type":"Kreisfreie_Stadt"},"district":{"key":"09663","name":"Würzburg","type":"Kreisfreie_Stadt"},"federalState":{"key":"09","name":"Bayern"}},{"name":"Schenkhof","postalCode":"97070","locality":"Würzburg","municipality":{"key":"09663000","name":"Würzburg","type":"Kreisfreie_Stadt"},"district":{"key":"09663","name":"Würzburg","type":"Kreisfreie_Stadt"},"federalState":{"key":"09","name":"Bayern"}},{"name":"Scherenbergstr.","postalCode":"97082","locality":"Würzburg","municipality":{"key":"09663000","name":"Würzburg","type":"Kreisfreie_Stadt"},"district":{"key":"09663","name":"Würzburg","type":"Kreisfreie_Stadt"},"federalState":{"key":"09","name":"Bayern"}},{"name":"Schießhausstr.","postalCode":"97072","locality":"Würzburg","municipality":{"key":"09663000","name":"Würzburg","type":"Kreisfreie_Stadt"},"district":{"key":"09663","name":"Würzburg","type":"Kreisfreie_Stadt"},"federalState":{"key":"09","name":"Bayern"}},{"name":"Schiestlstr.","postalCode":"97080","locality":"Würzburg","municipality":{"key":"09663000","name":"Würzburg","type":"Kreisfreie_Stadt"},"district":{"key":"09663","name":"Würzburg","type":"Kreisfreie_Stadt"},"federalState":{"key":"09","name":"Bayern"}},{"name":"Schildweg","postalCode":"97084","locality":"Würzburg","municipality":{"key":"09663000","name":"Würzburg","type":"Kreisfreie_Stadt"},"district":{"key":"09663","name":"Würzburg","type":"Kreisfreie_Stadt"},"federalState":{"key":"09","name":"Bayern"}},{"name":"Schillerstr.","postalCode":"97072","locality":"Würzburg","municipality":{"key":"09663000","name":"Würzburg","type":"Kreisfreie_Stadt"},"district":{"key":"09663","name":"Würzburg","type":"Kreisfreie_Stadt"},"federalState":{"key":"09","name":"Bayern"}},{"name":"Schlehenweg","postalCode":"97076","locality":"Würzburg","municipality":{"key":"09663000","name":"Würzburg","type":"Kreisfreie_Stadt"},"district":{"key":"09663","name":"Würzburg","type":"Kreisfreie_Stadt"},"federalState":{"key":"09","name":"Bayern"}},{"name":"Schleifweg","postalCode":"97084","locality":"Würzburg","municipality":{"key":"09663000","name":"Würzburg","type":"Kreisfreie_Stadt"},"district":{"key":"09663","name":"Würzburg","type":"Kreisfreie_Stadt"},"federalState":{"key":"09","name":"Bayern"}},{"name":"Schlesierstr.","postalCode":"97078","locality":"Würzburg","municipality":{"key":"09663000","name":"Würzburg","type":"Kreisfreie_Stadt"},"district":{"key":"09663","name":"Würzburg","type":"Kreisfreie_Stadt"},"federalState":{"key":"09","name":"Bayern"}},{"name":"Schlörstr.","postalCode":"97074","locality":"Würzburg","municipality":{"key":"09663000","name":"Würzburg","type":"Kreisfreie_Stadt"},"district":{"key":"09663","name":"Würzburg","type":"Kreisfreie_Stadt"},"federalState":{"key":"09","name":"Bayern"}},{"name":"Schloßbergstr.","postalCode":"97262","locality":"Hausen b. Würzburg","municipality":{"key":"09679143","name":"Hausen b.Würzburg","type":"Kreisangehörige_Gemeinde"},"district":{"key":"09679","name":"Würzburg","type":"Landkreis"},"federalState":{"key":"09","name":"Bayern"}},{"name":"Schloßgasse","postalCode":"97082","locality":"Würzburg","municipality":{"key":"09663000","name":"Würzburg","type":"Kreisfreie_Stadt"},"district":{"key":"09663","name":"Würzburg","type":"Kreisfreie_Stadt"},"federalState":{"key":"09","name":"Bayern"}},{"name":"Schloßhecke","postalCode":"97084","locality":"Würzburg","municipality":{"key":"09663000","name":"Würzburg","type":"Kreisfreie_Stadt"},"district":{"key":"09663","name":"Würzburg","type":"Kreisfreie_Stadt"},"federalState":{"key":"09","name":"Bayern"}},{"name":"Schneewittchenweg","postalCode":"97084","locality":"Würzburg","municipality":{"key":"09663000","name":"Würzburg","type":"Kreisfreie_Stadt"},"district":{"key":"09663","name":"Würzburg","type":"Kreisfreie_Stadt"},"federalState":{"key":"09","name":"Bayern"}},{"name":"Schollergasse","postalCode":"97084","locality":"Würzburg","municipality":{"key":"09663000","name":"Würzburg","type":"Kreisfreie_Stadt"},"district":{"key":"09663","name":"Würzburg","type":"Kreisfreie_Stadt"},"federalState":{"key":"09","name":"Bayern"}},{"name":"Schöllhammerweg","postalCode":"97082","locality":"Würzburg","municipality":{"key":"09663000","name":"Würzburg","type":"Kreisfreie_Stadt"},"district":{"key":"09663","name":"Würzburg","type":"Kreisfreie_Stadt"},"federalState":{"key":"09","name":"Bayern"}},{"name":"Schönleinstr.","postalCode":"97080","locality":"Würzburg","municipality":{"key":"09663000","name":"Würzburg","type":"Kreisfreie_Stadt"},"district":{"key":"09663","name":"Würzburg","type":"Kreisfreie_Stadt"},"federalState":{"key":"09","name":"Bayern"}},{"name":"Schönthalstr.","postalCode":"97070","locality":"Würzburg","municipality":{"key":"09663000","name":"Würzburg","type":"Kreisfreie_Stadt"},"district":{"key":"09663","name":"Würzburg","type":"Kreisfreie_Stadt"},"federalState":{"key":"09","name":"Bayern"}},{"name":"Schöpf","postalCode":"97076","locality":"Würzburg","municipality":{"key":"09663000","name":"Würzburg","type":"Kreisfreie_Stadt"},"district":{"key":"09663","name":"Würzburg","type":"Kreisfreie_Stadt"},"federalState":{"key":"09","name":"Bayern"}},{"name":"Schorkstr.","postalCode":"97082","locality":"Würzburg","municipality":{"key":"09663000","name":"Würzburg","type":"Kreisfreie_Stadt"},"district":{"key":"09663","name":"Würzburg","type":"Kreisfreie_Stadt"},"federalState":{"key":"09","name":"Bayern"}},{"name":"Schottenanger","postalCode":"97082","locality":"Würzburg","municipality":{"key":"09663000","name":"Würzburg","type":"Kreisfreie_Stadt"},"district":{"key":"09663","name":"Würzburg","type":"Kreisfreie_Stadt"},"federalState":{"key":"09","name":"Bayern"}},{"name":"Schulsstr.","postalCode":"97262","locality":"Hausen b. Würzburg","municipality":{"key":"09679143","name":"Hausen b.Würzburg","type":"Kreisangehörige_Gemeinde"},"district":{"key":"09679","name":"Würzburg","type":"Landkreis"},"federalState":{"key":"09","name":"Bayern"}},{"name":"Schulstr.","postalCode":"97084","locality":"Würzburg","municipality":{"key":"09663000","name":"Würzburg","type":"Kreisfreie_Stadt"},"district":{"key":"09663","name":"Würzburg","type":"Kreisfreie_Stadt"},"federalState":{"key":"09","name":"Bayern"}},{"name":"Schulzenstr.","postalCode":"97084","locality":"Würzburg","municipality":{"key":"09663000","name":"Würzburg","type":"Kreisfreie_Stadt"},"district":{"key":"09663","name":"Würzburg","type":"Kreisfreie_Stadt"},"federalState":{"key":"09","name":"Bayern"}},{"name":"Schüttgasse","postalCode":"97070","locality":"Würzburg","municipality":{"key":"09663000","name":"Würzburg","type":"Kreisfreie_Stadt"},"district":{"key":"09663","name":"Würzburg","type":"Kreisfreie_Stadt"},"federalState":{"key":"09","name":"Bayern"}},{"name":"Schützensteige","postalCode":"97076","locality":"Würzburg","municipality":{"key":"09663000","name":"Würzburg","type":"Kreisfreie_Stadt"},"district":{"key":"09663","name":"Würzburg","type":"Kreisfreie_Stadt"},"federalState":{"key":"09","name":"Bayern"}},{"name":"Tauberstr.","postalCode":"97285","locality":"Tauberrettersheim","municipality":{"key":"09679192","name":"Tauberrettersheim","type":"Kreisangehörige_Gemeinde"},"district":{"key":"09679","name":"Würzburg","type":"Landkreis"},"federalState":{"key":"09","name":"Bayern"}},{"name":"Uhlandstr.","postalCode":"97072","locality":"Würzburg","municipality":{"key":"09663000","name":"Würzburg","type":"Kreisfreie_Stadt"},"district":{"key":"09663","name":"Würzburg","type":"Kreisfreie_Stadt"},"federalState":{"key":"09","name":"Bayern"}},{"name":"Ulmenstr.","postalCode":"97084","locality":"Würzburg","municipality":{"key":"09663000","name":"Würzburg","type":"Kreisfreie_Stadt"},"district":{"key":"09663","name":"Würzburg","type":"Kreisfreie_Stadt"},"federalState":{"key":"09","name":"Bayern"}},{"name":"Ulmer Hof","postalCode":"97070","locality":"Würzburg","municipality":{"key":"09663000","name":"Würzburg","type":"Kreisfreie_Stadt"},"district":{"key":"09663","name":"Würzburg","type":"Kreisfreie_Stadt"},"federalState":{"key":"09","name":"Bayern"}},{"name":"Ulrichstr.","postalCode":"97074","locality":"Würzburg","municipality":{"key":"09663000","name":"Würzburg","type":"Kreisfreie_Stadt"},"district":{"key":"09663","name":"Würzburg","type":"Kreisfreie_Stadt"},"federalState":{"key":"09","name":"Bayern"}},{"name":"Unglücksbergweg","postalCode":"97082","locality":"Würzburg","municipality":{"key":"09663000","name":"Würzburg","type":"Kreisfreie_Stadt"},"district":{"key":"09663","name":"Würzburg","type":"Kreisfreie_Stadt"},"federalState":{"key":"09","name":"Bayern"}},{"name":"Unterdürrbacher Str.","postalCode":"97080","locality":"Würzburg","municipality":{"key":"09663000","name":"Würzburg","type":"Kreisfreie_Stadt"},"district":{"key":"09663","name":"Würzburg","type":"Kreisfreie_Stadt"},"federalState":{"key":"09","name":"Bayern"}},{"name":"Untere Bockgasse","postalCode":"97070","locality":"Würzburg","municipality":{"key":"09663000","name":"Würzburg","type":"Kreisfreie_Stadt"},"district":{"key":"09663","name":"Würzburg","type":"Kreisfreie_Stadt"},"federalState":{"key":"09","name":"Bayern"}},{"name":"Untere Goldbergstr.","postalCode":"97078","locality":"Würzburg","municipality":{"key":"09663000","name":"Würzburg","type":"Kreisfreie_Stadt"},"district":{"key":"09663","name":"Würzburg","type":"Kreisfreie_Stadt"},"federalState":{"key":"09","name":"Bayern"}},{"name":"Untere Heerbergstr.","postalCode":"97078","locality":"Würzburg","municipality":{"key":"09663000","name":"Würzburg","type":"Kreisfreie_Stadt"},"district":{"key":"09663","name":"Würzburg","type":"Kreisfreie_Stadt"},"federalState":{"key":"09","name":"Bayern"}},{"name":"Untere Hofgasse","postalCode":"97078","locality":"Würzburg","municipality":{"key":"09663000","name":"Würzburg","type":"Kreisfreie_Stadt"},"district":{"key":"09663","name":"Würzburg","type":"Kreisfreie_Stadt"},"federalState":{"key":"09","name":"Bayern"}},{"name":"Untere Johannitergasse","postalCode":"97070","locality":"Würzburg","municipality":{"key":"09663000","name":"Würzburg","type":"Kreisfreie_Stadt"},"district":{"key":"09663","name":"Würzburg","type":"Kreisfreie_Stadt"},"federalState":{"key":"09","name":"Bayern"}},{"name":"Unterer Adelbergweg","postalCode":"97078","locality":"Würzburg","municipality":{"key":"09663000","name":"Würzburg","type":"Kreisfreie_Stadt"},"district":{"key":"09663","name":"Würzburg","type":"Kreisfreie_Stadt"},"federalState":{"key":"09","name":"Bayern"}},{"name":"Unterer Blosenbergweg","postalCode":"97084","locality":"Würzburg","municipality":{"key":"09663000","name":"Würzburg","type":"Kreisfreie_Stadt"},"district":{"key":"09663","name":"Würzburg","type":"Kreisfreie_Stadt"},"federalState":{"key":"09","name":"Bayern"}},{"name":"Unterer Dallenbergweg","postalCode":"97082","locality":"Würzburg","municipality":{"key":"09663000","name":"Würzburg","type":"Kreisfreie_Stadt"},"district":{"key":"09663","name":"Würzburg","type":"Kreisfreie_Stadt"},"federalState":{"key":"09","name":"Bayern"}},{"name":"Unterer Katzenbergweg","postalCode":"97084","locality":"Würzburg","municipality":{"key":"09663000","name":"Würzburg","type":"Kreisfreie_Stadt"},"district":{"key":"09663","name":"Würzburg","type":"Kreisfreie_Stadt"},"federalState":{"key":"09","name":"Bayern"}},{"name":"Unterer Kaulweg","postalCode":"97084","locality":"Würzburg","municipality":{"key":"09663000","name":"Würzburg","type":"Kreisfreie_Stadt"},"district":{"key":"09663","name":"Würzburg","type":"Kreisfreie_Stadt"},"federalState":{"key":"09","name":"Bayern"}},{"name":"Unterer Kirchbergweg","postalCode":"97084","locality":"Würzburg","municipality":{"key":"09663000","name":"Würzburg","type":"Kreisfreie_Stadt"},"district":{"key":"09663","name":"Würzburg","type":"Kreisfreie_Stadt"},"federalState":{"key":"09","name":"Bayern"}},{"name":"Unterer Kirchplatz","postalCode":"97084","locality":"Würzburg","municipality":{"key":"09663000","name":"Würzburg","type":"Kreisfreie_Stadt"},"district":{"key":"09663","name":"Würzburg","type":"Kreisfreie_Stadt"},"federalState":{"key":"09","name":"Bayern"}},{"name":"Unterer Kühlenberg","postalCode":"97078","locality":"Würzburg","municipality":{"key":"09663000","name":"Würzburg","type":"Kreisfreie_Stadt"},"district":{"key":"09663","name":"Würzburg","type":"Kreisfreie_Stadt"},"federalState":{"key":"09","name":"Bayern"}},{"name":"Unterer Markt","postalCode":"97070","locality":"Würzburg","municipality":{"key":"09663000","name":"Würzburg","type":"Kreisfreie_Stadt"},"district":{"key":"09663","name":"Würzburg","type":"Kreisfreie_Stadt"},"federalState":{"key":"09","name":"Bayern"}},{"name":"Unterer Neubergweg","postalCode":"97074","locality":"Würzburg","municipality":{"key":"09663000","name":"Würzburg","type":"Kreisfreie_Stadt"},"district":{"key":"09663","name":"Würzburg","type":"Kreisfreie_Stadt"},"federalState":{"key":"09","name":"Bayern"}},{"name":"Unterer Steinbergweg","postalCode":"97080","locality":"Würzburg","municipality":{"key":"09663000","name":"Würzburg","type":"Kreisfreie_Stadt"},"district":{"key":"09663","name":"Würzburg","type":"Kreisfreie_Stadt"},"federalState":{"key":"09","name":"Bayern"}},{"name":"Unterer Torweinberg","postalCode":"97084","locality":"Würzburg","municipality":{"key":"09663000","name":"Würzburg","type":"Kreisfreie_Stadt"},"district":{"key":"09663","name":"Würzburg","type":"Kreisfreie_Stadt"},"federalState":{"key":"09","name":"Bayern"}},{"name":"Unterer Wandweg","postalCode":"97080","locality":"Würzburg","municipality":{"key":"09663000","name":"Würzburg","type":"Kreisfreie_Stadt"},"district":{"key":"09663","name":"Würzburg","type":"Kreisfreie_Stadt"},"federalState":{"key":"09","name":"Bayern"}},{"name":"Unterer Weg","postalCode":"97084","locality":"Würzburg","municipality":{"key":"09663000","name":"Würzburg","type":"Kreisfreie_Stadt"},"district":{"key":"09663","name":"Würzburg","type":"Kreisfreie_Stadt"},"federalState":{"key":"09","name":"Bayern"}},{"name":"Urlaubstr.","postalCode":"97076","locality":"Würzburg","municipality":{"key":"09663000","name":"Würzburg","type":"Kreisfreie_Stadt"},"district":{"key":"09663","name":"Würzburg","type":"Kreisfreie_Stadt"},"federalState":{"key":"09","name":"Bayern"}},{"name":"Ursulinergasse","postalCode":"97070","locality":"Würzburg","municipality":{"key":"09663000","name":"Würzburg","type":"Kreisfreie_Stadt"},"district":{"key":"09663","name":"Würzburg","type":"Kreisfreie_Stadt"},"federalState":{"key":"09","name":"Bayern"}},{"name":"Valentin-Becker-Str.","postalCode":"97072","locality":"Würzburg","municipality":{"key":"09663000","name":"Würzburg","type":"Kreisfreie_Stadt"},"district":{"key":"09663","name":"Würzburg","type":"Kreisfreie_Stadt"},"federalState":{"key":"09","name":"Bayern"}},{"name":"Veitshöchheimer Str.","postalCode":"97070","locality":"Würzburg","municipality":{"key":"09663000","name":"Würzburg","type":"Kreisfreie_Stadt"},"district":{"key":"09663","name":"Würzburg","type":"Kreisfreie_Stadt"},"federalState":{"key":"09","name":"Bayern"}},{"name":"Veitshöchheimer Str.","postalCode":"97080","locality":"Würzburg","municipality":{"key":"09663000","name":"Würzburg","type":"Kreisfreie_Stadt"},"district":{"key":"09663","name":"Würzburg","type":"Kreisfreie_Stadt"},"federalState":{"key":"09","name":"Bayern"}},{"name":"Versbacher Landstr.","postalCode":"97078","locality":"Würzburg","municipality":{"key":"09663000","name":"Würzburg","type":"Kreisfreie_Stadt"},"district":{"key":"09663","name":"Würzburg","type":"Kreisfreie_Stadt"},"federalState":{"key":"09","name":"Bayern"}},{"name":"Versbacher Röthe","postalCode":"97078","locality":"Würzburg","municipality":{"key":"09663000","name":"Würzburg","type":"Kreisfreie_Stadt"},"district":{"key":"09663","name":"Würzburg","type":"Kreisfreie_Stadt"},"federalState":{"key":"09","name":"Bayern"}},{"name":"Versbacher Str.","postalCode":"97078","locality":"Würzburg","municipality":{"key":"09663000","name":"Würzburg","type":"Kreisfreie_Stadt"},"district":{"key":"09663","name":"Würzburg","type":"Kreisfreie_Stadt"},"federalState":{"key":"09","name":"Bayern"}},{"name":"Vierwindenweg","postalCode":"97078","locality":"Würzburg","municipality":{"key":"09663000","name":"Würzburg","type":"Kreisfreie_Stadt"},"district":{"key":"09663","name":"Würzburg","type":"Kreisfreie_Stadt"},"federalState":{"key":"09","name":"Bayern"}},{"name":"Villengarten","postalCode":"97082","locality":"Würzburg","municipality":{"key":"09663000","name":"Würzburg","type":"Kreisfreie_Stadt"},"district":{"key":"09663","name":"Würzburg","type":"Kreisfreie_Stadt"},"federalState":{"key":"09","name":"Bayern"}},{"name":"Virchowstr.","postalCode":"97072","locality":"Würzburg","municipality":{"key":"09663000","name":"Würzburg","type":"Kreisfreie_Stadt"},"district":{"key":"09663","name":"Würzburg","type":"Kreisfreie_Stadt"},"federalState":{"key":"09","name":"Bayern"}},{"name":"Vogelsangweg","postalCode":"97076","locality":"Würzburg","municipality":{"key":"09663000","name":"Würzburg","type":"Kreisfreie_Stadt"},"district":{"key":"09663","name":"Würzburg","type":"Kreisfreie_Stadt"},"federalState":{"key":"09","name":"Bayern"}},{"name":"Voglerstr.","postalCode":"97074","locality":"Würzburg","municipality":{"key":"09663000","name":"Würzburg","type":"Kreisfreie_Stadt"},"district":{"key":"09663","name":"Würzburg","type":"Kreisfreie_Stadt"},"federalState":{"key":"09","name":"Bayern"}},{"name":"Von-Luxburg-Str.","postalCode":"97074","locality":"Würzburg","municipality":{"key":"09663000","name":"Würzburg","type":"Kreisfreie_Stadt"},"district":{"key":"09663","name":"Würzburg","type":"Kreisfreie_Stadt"},"federalState":{"key":"09","name":"Bayern"}},{"name":"Von-Mieg-Str.","postalCode":"97082","locality":"Würzburg","municipality":{"key":"09663000","name":"Würzburg","type":"Kreisfreie_Stadt"},"district":{"key":"09663","name":"Würzburg","type":"Kreisfreie_Stadt"},"federalState":{"key":"09","name":"Bayern"}},{"name":"Waldstr.","postalCode":"97285","locality":"Tauberrettersheim","municipality":{"key":"09679192","name":"Tauberrettersheim","type":"Kreisangehörige_Gemeinde"},"district":{"key":"09679","name":"Würzburg","type":"Landkreis"},"federalState":{"key":"09","name":"Bayern"}},{"name":"Ysenburgstr.","postalCode":"97082","locality":"Würzburg","municipality":{"key":"09663000","name":"Würzburg","type":"Kreisfreie_Stadt"},"district":{"key":"09663","name":"Würzburg","type":"Kreisfreie_Stadt"},"federalState":{"key":"09","name":"Bayern"}},{"name":"Y-Spange","postalCode":"97084","locality":"Würzburg","municipality":{"key":"09663000","name":"Würzburg","type":"Kreisfreie_Stadt"},"district":{"key":"09663","name":"Würzburg","type":"Kreisfreie_Stadt"},"federalState":{"key":"09","name":"Bayern"}},{"name":"Zehntgasse","postalCode":"97084","locality":"Würzburg","municipality":{"key":"09663000","name":"Würzburg","type":"Kreisfreie_Stadt"},"district":{"key":"09663","name":"Würzburg","type":"Kreisfreie_Stadt"},"federalState":{"key":"09","name":"Bayern"}},{"name":"Zehnthofstr.","postalCode":"97080","locality":"Würzburg","municipality":{"key":"09663000","name":"Würzburg","type":"Kreisfreie_Stadt"},"district":{"key":"09663","name":"Würzburg","type":"Kreisfreie_Stadt"},"federalState":{"key":"09","name":"Bayern"}},{"name":"Zellerauer Marktplatz","postalCode":"97082","locality":"Würzburg","municipality":{"key":"09663000","name":"Würzburg","type":"Kreisfreie_Stadt"},"district":{"key":"09663","name":"Würzburg","type":"Kreisfreie_Stadt"},"federalState":{"key":"09","name":"Bayern"}},{"name":"Zeller Str.","postalCode":"97082","locality":"Würzburg","municipality":{"key":"09663000","name":"Würzburg","type":"Kreisfreie_Stadt"},"district":{"key":"09663","name":"Würzburg","type":"Kreisfreie_Stadt"},"federalState":{"key":"09","name":"Bayern"}},{"name":"Zeppelinstr.","postalCode":"97074","locality":"Würzburg","municipality":{"key":"09663000","name":"Würzburg","type":"Kreisfreie_Stadt"},"district":{"key":"09663","name":"Würzburg","type":"Kreisfreie_Stadt"},"federalState":{"key":"09","name":"Bayern"}},{"name":"Ziegelaustr.","postalCode":"97080","locality":"Würzburg","municipality":{"key":"09663000","name":"Würzburg","type":"Kreisfreie_Stadt"},"district":{"key":"09663","name":"Würzburg","type":"Kreisfreie_Stadt"},"federalState":{"key":"09","name":"Bayern"}},{"name":"Ziegelhütte","postalCode":"97080","locality":"Würzburg","municipality":{"key":"09663000","name":"Würzburg","type":"Kreisfreie_Stadt"},"district":{"key":"09663","name":"Würzburg","type":"Kreisfreie_Stadt"},"federalState":{"key":"09","name":"Bayern"}},{"name":"Zindelgasse","postalCode":"97084","locality":"Würzburg","municipality":{"key":"09663000","name":"Würzburg","type":"Kreisfreie_Stadt"},"district":{"key":"09663","name":"Würzburg","type":"Kreisfreie_Stadt"},"federalState":{"key":"09","name":"Bayern"}},{"name":"Zinkhof","postalCode":"97070","locality":"Würzburg","municipality":{"key":"09663000","name":"Würzburg","type":"Kreisfreie_Stadt"},"district":{"key":"09663","name":"Würzburg","type":"Kreisfreie_Stadt"},"federalState":{"key":"09","name":"Bayern"}},{"name":"Zinklesweg","postalCode":"97078","locality":"Würzburg","municipality":{"key":"09663000","name":"Würzburg","type":"Kreisfreie_Stadt"},"district":{"key":"09663","name":"Würzburg","type":"Kreisfreie_Stadt"},"federalState":{"key":"09","name":"Bayern"}},{"name":"Zobelweg","postalCode":"97084","locality":"Würzburg","municipality":{"key":"09663000","name":"Würzburg","type":"Kreisfreie_Stadt"},"district":{"key":"09663","name":"Würzburg","type":"Kreisfreie_Stadt"},"federalState":{"key":"09","name":"Bayern"}},{"name":"Zugang: Marktgarage","postalCode":"97070","locality":"Würzburg","municipality":{"key":"09663000","name":"Würzburg","type":"Kreisfreie_Stadt"},"district":{"key":"09663","name":"Würzburg","type":"Kreisfreie_Stadt"},"federalState":{"key":"09","name":"Bayern"}},{"name":"Zülbsgasse","postalCode":"97084","locality":"Würzburg","municipality":{"key":"09663000","name":"Würzburg","type":"Kreisfreie_Stadt"},"district":{"key":"09663","name":"Würzburg","type":"Kreisfreie_Stadt"},"federalState":{"key":"09","name":"Bayern"}},{"name":"Zum Himmelreich","postalCode":"97084","locality":"Würzburg","municipality":{"key":"09663000","name":"Würzburg","type":"Kreisfreie_Stadt"},"district":{"key":"09663","name":"Würzburg","type":"Kreisfreie_Stadt"},"federalState":{"key":"09","name":"Bayern"}},{"name":"Zum Scheibental","postalCode":"97076","locality":"Würzburg","municipality":{"key":"09663000","name":"Würzburg","type":"Kreisfreie_Stadt"},"district":{"key":"09663","name":"Würzburg","type":"Kreisfreie_Stadt"},"federalState":{"key":"09","name":"Bayern"}},{"name":"Zum Sportplatz","postalCode":"97080","locality":"Würzburg","municipality":{"key":"09663000","name":"Würzburg","type":"Kreisfreie_Stadt"},"district":{"key":"09663","name":"Würzburg","type":"Kreisfreie_Stadt"},"federalState":{"key":"09","name":"Bayern"}},{"name":"Zum Storchenbrünnlein","postalCode":"97084","locality":"Würzburg","municipality":{"key":"09663000","name":"Würzburg","type":"Kreisfreie_Stadt"},"district":{"key":"09663","name":"Würzburg","type":"Kreisfreie_Stadt"},"federalState":{"key":"09","name":"Bayern"}},{"name":"Zum Tännig","postalCode":"97078","locality":"Würzburg","municipality":{"key":"09663000","name":"Würzburg","type":"Kreisfreie_Stadt"},"district":{"key":"09663","name":"Würzburg","type":"Kreisfreie_Stadt"},"federalState":{"key":"09","name":"Bayern"}},{"name":"Zu-Rhein-Str.","postalCode":"97074","locality":"Würzburg","municipality":{"key":"09663000","name":"Würzburg","type":"Kreisfreie_Stadt"},"district":{"key":"09663","name":"Würzburg","type":"Kreisfreie_Stadt"},"federalState":{"key":"09","name":"Bayern"}},{"name":"Zürnstr.","postalCode":"97074","locality":"Würzburg","municipality":{"key":"09663000","name":"Würzburg","type":"Kreisfreie_Stadt"},"district":{"key":"09663","name":"Würzburg","type":"Kreisfreie_Stadt"},"federalState":{"key":"09","name":"Bayern"}},{"name":"zur schönen Aussicht","postalCode":"97082","locality":"Würzburg","municipality":{"key":"09663000","name":"Würzburg","type":"Kreisfreie_Stadt"},"district":{"key":"09663","name":"Würzburg","type":"Kreisfreie_Stadt"},"federalState":{"key":"09","name":"Bayern"}},{"name":"Zur Würzburger Mehle","postalCode":"97084","locality":"Würzburg","municipality":{"key":"09663000","name":"Würzburg","type":"Kreisfreie_Stadt"},"district":{"key":"09663","name":"Würzburg","type":"Kreisfreie_Stadt"},"federalState":{"key":"09","name":"Bayern"}},{"name":"Zweierweg","postalCode":"97074","locality":"Würzburg","municipality":{"key":"09663000","name":"Würzburg","type":"Kreisfreie_Stadt"},"district":{"key":"09663","name":"Würzburg","type":"Kreisfreie_Stadt"},"federalState":{"key":"09","name":"Bayern"}},{"name":"Zweite Felsengasse","postalCode":"97082","locality":"Würzburg","municipality":{"key":"09663000","name":"Würzburg","type":"Kreisfreie_Stadt"},"district":{"key":"09663","name":"Würzburg","type":"Kreisfreie_Stadt"},"federalState":{"key":"09","name":"Bayern"}},{"name":"Zweiter Siedlungsweg","postalCode":"97082","locality":"Würzburg","municipality":{"key":"09663000","name":"Würzburg","type":"Kreisfreie_Stadt"},"district":{"key":"09663","name":"Würzburg","type":"Kreisfreie_Stadt"},"federalState":{"key":"09","name":"Bayern"}},{"name":"Zwerchgraben","postalCode":"97074","locality":"Würzburg","municipality":{"key":"09663000","name":"Würzburg","type":"Kreisfreie_Stadt"},"district":{"key":"09663","name":"Würzburg","type":"Kreisfreie_Stadt"},"federalState":{"key":"09","name":"Bayern"}},{"name":"Zwinger","postalCode":"97070","locality":"Würzburg","municipality":{"key":"09663000","name":"Würzburg","type":"Kreisfreie_Stadt"},"district":{"key":"09663","name":"Würzburg","type":"Kreisfreie_Stadt"},"federalState":{"key":"09","name":"Bayern"}},{"name":"Äußere Aumühlstr.","postalCode":"97076","locality":"Würzburg","municipality":{"key":"09663000","name":"Würzburg","type":"Kreisfreie_Stadt"},"district":{"key":"09663","name":"Würzburg","type":"Kreisfreie_Stadt"},"federalState":{"key":"09","name":"Bayern"}},{"name":"Äußerer Hublandweg","postalCode":"97074","locality":"Würzburg","municipality":{"key":"09663000","name":"Würzburg","type":"Kreisfreie_Stadt"},"district":{"key":"09663","name":"Würzburg","type":"Kreisfreie_Stadt"},"federalState":{"key":"09","name":"Bayern"}},{"name":"Äußerer Neubergweg","postalCode":"97074","locality":"Würzburg","municipality":{"key":"09663000","name":"Würzburg","type":"Kreisfreie_Stadt"},"district":{"key":"09663","name":"Würzburg","type":"Kreisfreie_Stadt"},"federalState":{"key":"09","name":"Bayern"}},{"name":"Äußerer Tränkeweg","postalCode":"97074","locality":"Würzburg","municipality":{"key":"09663000","name":"Würzburg","type":"Kreisfreie_Stadt"},"district":{"key":"09663","name":"Würzburg","type":"Kreisfreie_Stadt"},"federalState":{"key":"09","name":"Bayern"}},{"name":"Öhlberg","postalCode":"97080","locality":"Würzburg","municipality":{"key":"09663000","name":"Würzburg","type":"Kreisfreie_Stadt"},"district":{"key":"09663","name":"Würzburg","type":"Kreisfreie_Stadt"},"federalState":{"key":"09","name":"Bayern"}},]