[{"key":"10107866","name":"Chemin de Burnens","postalCode":"1173","locality":"Féchy","commune":{"key":"5427","name":"Féchy","shortName":"Féchy"},"district":{"key":"2227","name":"District de Morges"},"canton":{"key":"22","code":"VD","name":"Vaud"},"status":"Real"},{"key":"10160106","name":"Chemin de Chamberet","postalCode":"1173","locality":"Féchy","commune":{"key":"5427","name":"Féchy","shortName":"Féchy"},"district":{"key":"2227","name":"District de Morges"},"canton":{"key":"22","code":"VD","name":"Vaud"},"status":"Real"},{"key":"10116191","name":"Chemin de Chante-Bise","postalCode":"1173","locality":"Féchy","commune":{"key":"5427","name":"Féchy","shortName":"Féchy"},"district":{"key":"2227","name":"District de Morges"},"canton":{"key":"22","code":"VD","name":"Vaud"},"status":"Real"},{"key":"10106893","name":"Chemin de Chantevigne","postalCode":"1173","locality":"Féchy","commune":{"key":"5427","name":"Féchy","shortName":"Féchy"},"district":{"key":"2227","name":"District de Morges"},"canton":{"key":"22","code":"VD","name":"Vaud"},"status":"Real"},{"key":"10154171","name":"Chemin de Grangeneuve","postalCode":"1173","locality":"Féchy","commune":{"key":"5427","name":"Féchy","shortName":"Féchy"},"district":{"key":"2227","name":"District de Morges"},"canton":{"key":"22","code":"VD","name":"Vaud"},"status":"Real"},{"key":"10188997","name":"Chemin de la Bossenaz","postalCode":"1173","locality":"Féchy","commune":{"key":"5427","name":"Féchy","shortName":"Féchy"},"district":{"key":"2227","name":"District de Morges"},"canton":{"key":"22","code":"VD","name":"Vaud"},"status":"Real"},{"key":"10160431","name":"Chemin de la Chirurgienne","postalCode":"1173","locality":"Féchy","commune":{"key":"5427","name":"Féchy","shortName":"Féchy"},"district":{"key":"2227","name":"District de Morges"},"canton":{"key":"22","code":"VD","name":"Vaud"},"status":"Real"},{"key":"10158742","name":"Chemin de la Cote 500","postalCode":"1173","locality":"Féchy","commune":{"key":"5427","name":"Féchy","shortName":"Féchy"},"district":{"key":"2227","name":"District de Morges"},"canton":{"key":"22","code":"VD","name":"Vaud"},"status":"Real"},{"key":"10044974","name":"Chemin de la Crausaz","postalCode":"1173","locality":"Féchy","commune":{"key":"5427","name":"Féchy","shortName":"Féchy"},"district":{"key":"2227","name":"District de Morges"},"canton":{"key":"22","code":"VD","name":"Vaud"},"status":"Real"},{"key":"10095855","name":"Chemin de la Fauvette","postalCode":"1173","locality":"Féchy","commune":{"key":"5427","name":"Féchy","shortName":"Féchy"},"district":{"key":"2227","name":"District de Morges"},"canton":{"key":"22","code":"VD","name":"Vaud"},"status":"Real"},{"key":"10160105","name":"Chemin de l'Alliez","postalCode":"1173","locality":"Féchy","commune":{"key":"5427","name":"Féchy","shortName":"Féchy"},"district":{"key":"2227","name":"District de Morges"},"canton":{"key":"22","code":"VD","name":"Vaud"},"status":"Real"},{"key":"10160434","name":"Chemin de l'Ancienne-Poste","postalCode":"1173","locality":"Féchy","commune":{"key":"5427","name":"Féchy","shortName":"Féchy"},"district":{"key":"2227","name":"District de Morges"},"canton":{"key":"22","code":"VD","name":"Vaud"},"status":"Real"},{"key":"10153370","name":"Chemin de la Plantaz","postalCode":"1173","locality":"Féchy","commune":{"key":"5427","name":"Féchy","shortName":"Féchy"},"district":{"key":"2227","name":"District de Morges"},"canton":{"key":"22","code":"VD","name":"Vaud"},"status":"Real"},{"key":"10160107","name":"Chemin de la Praz","postalCode":"1173","locality":"Féchy","commune":{"key":"5427","name":"Féchy","shortName":"Féchy"},"district":{"key":"2227","name":"District de Morges"},"canton":{"key":"22","code":"VD","name":"Vaud"},"status":"Real"},{"key":"10101866","name":"Chemin de la Renardière","postalCode":"1173","locality":"Féchy","commune":{"key":"5427","name":"Féchy","shortName":"Féchy"},"district":{"key":"2227","name":"District de Morges"},"canton":{"key":"22","code":"VD","name":"Vaud"},"status":"Real"},{"key":"10044972","name":"Chemin de la Roselière","postalCode":"1173","locality":"Féchy","commune":{"key":"5427","name":"Féchy","shortName":"Féchy"},"district":{"key":"2227","name":"District de Morges"},"canton":{"key":"22","code":"VD","name":"Vaud"},"status":"Real"},{"key":"10178000","name":"Chemin de la Sittelle","postalCode":"1173","locality":"Féchy","commune":{"key":"5427","name":"Féchy","shortName":"Féchy"},"district":{"key":"2227","name":"District de Morges"},"canton":{"key":"22","code":"VD","name":"Vaud"},"status":"Real"},{"key":"10079796","name":"Chemin de la Touille","postalCode":"1173","locality":"Féchy","commune":{"key":"5427","name":"Féchy","shortName":"Féchy"},"district":{"key":"2227","name":"District de Morges"},"canton":{"key":"22","code":"VD","name":"Vaud"},"status":"Real"},{"key":"10154166","name":"Chemin de Mi-Coteau","postalCode":"1173","locality":"Féchy","commune":{"key":"5427","name":"Féchy","shortName":"Féchy"},"district":{"key":"2227","name":"District de Morges"},"canton":{"key":"22","code":"VD","name":"Vaud"},"status":"Real"},{"key":"10153371","name":"Chemin de Pradex","postalCode":"1173","locality":"Féchy","commune":{"key":"5427","name":"Féchy","shortName":"Féchy"},"district":{"key":"2227","name":"District de Morges"},"canton":{"key":"22","code":"VD","name":"Vaud"},"status":"Real"},{"key":"10158740","name":"Chemin des Acacias","postalCode":"1173","locality":"Féchy","commune":{"key":"5427","name":"Féchy","shortName":"Féchy"},"district":{"key":"2227","name":"District de Morges"},"canton":{"key":"22","code":"VD","name":"Vaud"},"status":"Real"},{"key":"10158743","name":"Chemin de Saint-Pierre","postalCode":"1173","locality":"Féchy","commune":{"key":"5427","name":"Féchy","shortName":"Féchy"},"district":{"key":"2227","name":"District de Morges"},"canton":{"key":"22","code":"VD","name":"Vaud"},"status":"Real"},{"key":"10160432","name":"Chemin des Ballenches","postalCode":"1173","locality":"Féchy","commune":{"key":"5427","name":"Féchy","shortName":"Féchy"},"district":{"key":"2227","name":"District de Morges"},"canton":{"key":"22","code":"VD","name":"Vaud"},"status":"Real"},{"key":"10158745","name":"Chemin des Barres","postalCode":"1173","locality":"Féchy","commune":{"key":"5427","name":"Féchy","shortName":"Féchy"},"district":{"key":"2227","name":"District de Morges"},"canton":{"key":"22","code":"VD","name":"Vaud"},"status":"Real"},{"key":"10160433","name":"Chemin des Barrettes","postalCode":"1173","locality":"Féchy","commune":{"key":"5427","name":"Féchy","shortName":"Féchy"},"district":{"key":"2227","name":"District de Morges"},"canton":{"key":"22","code":"VD","name":"Vaud"},"status":"Real"},{"key":"10153368","name":"Chemin des Bayels","postalCode":"1173","locality":"Féchy","commune":{"key":"5427","name":"Féchy","shortName":"Féchy"},"district":{"key":"2227","name":"District de Morges"},"canton":{"key":"22","code":"VD","name":"Vaud"},"status":"Real"},{"key":"10095856","name":"Chemin des Cassivettes","postalCode":"1173","locality":"Féchy","commune":{"key":"5427","name":"Féchy","shortName":"Féchy"},"district":{"key":"2227","name":"District de Morges"},"canton":{"key":"22","code":"VD","name":"Vaud"},"status":"Real"},{"key":"10154173","name":"Chemin des Marchandes","postalCode":"1173","locality":"Féchy","commune":{"key":"5427","name":"Féchy","shortName":"Féchy"},"district":{"key":"2227","name":"District de Morges"},"canton":{"key":"22","code":"VD","name":"Vaud"},"status":"Real"},{"key":"10153369","name":"Chemin des Noyeraux","postalCode":"1173","locality":"Féchy","commune":{"key":"5427","name":"Féchy","shortName":"Féchy"},"district":{"key":"2227","name":"District de Morges"},"canton":{"key":"22","code":"VD","name":"Vaud"},"status":"Real"},{"key":"10044976","name":"Chemin des Peytroules","postalCode":"1173","locality":"Féchy","commune":{"key":"5427","name":"Féchy","shortName":"Féchy"},"district":{"key":"2227","name":"District de Morges"},"canton":{"key":"22","code":"VD","name":"Vaud"},"status":"Real"},{"key":"10044973","name":"Chemin des Sources","postalCode":"1173","locality":"Féchy","commune":{"key":"5427","name":"Féchy","shortName":"Féchy"},"district":{"key":"2227","name":"District de Morges"},"canton":{"key":"22","code":"VD","name":"Vaud"},"status":"Real"},{"key":"10160108","name":"Chemin de Territet","postalCode":"1173","locality":"Féchy","commune":{"key":"5427","name":"Féchy","shortName":"Féchy"},"district":{"key":"2227","name":"District de Morges"},"canton":{"key":"22","code":"VD","name":"Vaud"},"status":"Real"},{"key":"10118437","name":"Chemin du Brez","postalCode":"1173","locality":"Féchy","commune":{"key":"5427","name":"Féchy","shortName":"Féchy"},"district":{"key":"2227","name":"District de Morges"},"canton":{"key":"22","code":"VD","name":"Vaud"},"status":"Real"},{"key":"10079799","name":"Chemin du Martheray-Dessus","postalCode":"1173","locality":"Féchy","commune":{"key":"5427","name":"Féchy","shortName":"Féchy"},"district":{"key":"2227","name":"District de Morges"},"canton":{"key":"22","code":"VD","name":"Vaud"},"status":"Real"},{"key":"10158744","name":"Chemin du Tombey","postalCode":"1173","locality":"Féchy","commune":{"key":"5427","name":"Féchy","shortName":"Féchy"},"district":{"key":"2227","name":"District de Morges"},"canton":{"key":"22","code":"VD","name":"Vaud"},"status":"Real"},{"key":"10044975","name":"Féchy-Dessus","postalCode":"1173","locality":"Féchy","commune":{"key":"5427","name":"Féchy","shortName":"Féchy"},"district":{"key":"2227","name":"District de Morges"},"canton":{"key":"22","code":"VD","name":"Vaud"},"status":"Real"},{"key":"10154161","name":"Place du Saugey","postalCode":"1173","locality":"Féchy","commune":{"key":"5427","name":"Féchy","shortName":"Féchy"},"district":{"key":"2227","name":"District de Morges"},"canton":{"key":"22","code":"VD","name":"Vaud"},"status":"Real"},{"key":"10154170","name":"Route d'Allaman","postalCode":"1173","locality":"Féchy","commune":{"key":"5427","name":"Féchy","shortName":"Féchy"},"district":{"key":"2227","name":"District de Morges"},"canton":{"key":"22","code":"VD","name":"Vaud"},"status":"Real"},{"key":"10154164","name":"Route d'Aubonne-Bougy","postalCode":"1173","locality":"Féchy","commune":{"key":"5427","name":"Féchy","shortName":"Féchy"},"district":{"key":"2227","name":"District de Morges"},"canton":{"key":"22","code":"VD","name":"Vaud"},"status":"Real"},{"key":"10044977","name":"Route de Bougy","postalCode":"1173","locality":"Féchy","commune":{"key":"5427","name":"Féchy","shortName":"Féchy"},"district":{"key":"2227","name":"District de Morges"},"canton":{"key":"22","code":"VD","name":"Vaud"},"status":"Real"},{"key":"10156991","name":"Route de la Boule","postalCode":"1173","locality":"Féchy","commune":{"key":"5427","name":"Féchy","shortName":"Féchy"},"district":{"key":"2227","name":"District de Morges"},"canton":{"key":"22","code":"VD","name":"Vaud"},"status":"Real"},{"key":"10044978","name":"Route de la Laiterie","postalCode":"1173","locality":"Féchy","commune":{"key":"5427","name":"Féchy","shortName":"Féchy"},"district":{"key":"2227","name":"District de Morges"},"canton":{"key":"22","code":"VD","name":"Vaud"},"status":"Real"},{"key":"10147117","name":"Route de l'Etraz","postalCode":"1173","locality":"Féchy","commune":{"key":"5427","name":"Féchy","shortName":"Féchy"},"district":{"key":"2227","name":"District de Morges"},"canton":{"key":"22","code":"VD","name":"Vaud"},"status":"Real"},{"key":"10238078","name":"Route de Mi-Coteau","postalCode":"1173","locality":"Féchy","commune":{"key":"5427","name":"Féchy","shortName":"Féchy"},"district":{"key":"2227","name":"District de Morges"},"canton":{"key":"22","code":"VD","name":"Vaud"},"status":"Real"},{"key":"10154172","name":"Route du Haut des Champs","postalCode":"1173","locality":"Féchy","commune":{"key":"5427","name":"Féchy","shortName":"Féchy"},"district":{"key":"2227","name":"District de Morges"},"canton":{"key":"22","code":"VD","name":"Vaud"},"status":"Real"},{"key":"10095857","name":"Route du Martheray","postalCode":"1173","locality":"Féchy","commune":{"key":"5427","name":"Féchy","shortName":"Féchy"},"district":{"key":"2227","name":"District de Morges"},"canton":{"key":"22","code":"VD","name":"Vaud"},"status":"Real"},{"key":"10144305","name":"Route du Monastère","postalCode":"1173","locality":"Féchy","commune":{"key":"5427","name":"Féchy","shortName":"Féchy"},"district":{"key":"2227","name":"District de Morges"},"canton":{"key":"22","code":"VD","name":"Vaud"},"status":"Real"},{"key":"10044979","name":"Route du Pont","postalCode":"1173","locality":"Féchy","commune":{"key":"5427","name":"Féchy","shortName":"Féchy"},"district":{"key":"2227","name":"District de Morges"},"canton":{"key":"22","code":"VD","name":"Vaud"},"status":"Real"},{"key":"10144307","name":"Route du Rionzier","postalCode":"1173","locality":"Féchy","commune":{"key":"5427","name":"Féchy","shortName":"Féchy"},"district":{"key":"2227","name":"District de Morges"},"canton":{"key":"22","code":"VD","name":"Vaud"},"status":"Real"},{"key":"10079800","name":"Route du Saugey","postalCode":"1173","locality":"Féchy","commune":{"key":"5427","name":"Féchy","shortName":"Féchy"},"district":{"key":"2227","name":"District de Morges"},"canton":{"key":"22","code":"VD","name":"Vaud"},"status":"Real"},{"key":"10144306","name":"Route du Tombey","postalCode":"1173","locality":"Féchy","commune":{"key":"5427","name":"Féchy","shortName":"Féchy"},"district":{"key":"2227","name":"District de Morges"},"canton":{"key":"22","code":"VD","name":"Vaud"},"status":"Real"},]