[{"name":"Am Gefäll","postalCode":"97846","locality":"Partenstein","municipality":{"key":"09677170","name":"Partenstein","type":"Kreisangehörige_Gemeinde"},"district":{"key":"09677","name":"Main-Spessart","type":"Landkreis"},"federalState":{"key":"09","name":"Bayern"}},{"name":"Am Herrenhof","postalCode":"97846","locality":"Partenstein","municipality":{"key":"09677170","name":"Partenstein","type":"Kreisangehörige_Gemeinde"},"district":{"key":"09677","name":"Main-Spessart","type":"Landkreis"},"federalState":{"key":"09","name":"Bayern"}},{"name":"Am Jägerfeld","postalCode":"97846","locality":"Partenstein","municipality":{"key":"09677170","name":"Partenstein","type":"Kreisangehörige_Gemeinde"},"district":{"key":"09677","name":"Main-Spessart","type":"Landkreis"},"federalState":{"key":"09","name":"Bayern"}},{"name":"Am Lindenbrunnen","postalCode":"97846","locality":"Partenstein","municipality":{"key":"09677170","name":"Partenstein","type":"Kreisangehörige_Gemeinde"},"district":{"key":"09677","name":"Main-Spessart","type":"Landkreis"},"federalState":{"key":"09","name":"Bayern"}},{"name":"Am Lohrbach","postalCode":"97846","locality":"Partenstein","municipality":{"key":"09677170","name":"Partenstein","type":"Kreisangehörige_Gemeinde"},"district":{"key":"09677","name":"Main-Spessart","type":"Landkreis"},"federalState":{"key":"09","name":"Bayern"}},{"name":"Am Schloßberg","postalCode":"97846","locality":"Partenstein","municipality":{"key":"09677170","name":"Partenstein","type":"Kreisangehörige_Gemeinde"},"district":{"key":"09677","name":"Main-Spessart","type":"Landkreis"},"federalState":{"key":"09","name":"Bayern"}},{"name":"Am Scholzenfeld","postalCode":"97846","locality":"Partenstein","municipality":{"key":"09677170","name":"Partenstein","type":"Kreisangehörige_Gemeinde"},"district":{"key":"09677","name":"Main-Spessart","type":"Landkreis"},"federalState":{"key":"09","name":"Bayern"}},{"name":"Am Sportplatz","postalCode":"97846","locality":"Partenstein","municipality":{"key":"09677170","name":"Partenstein","type":"Kreisangehörige_Gemeinde"},"district":{"key":"09677","name":"Main-Spessart","type":"Landkreis"},"federalState":{"key":"09","name":"Bayern"}},{"name":"An den Krautäckern","postalCode":"97846","locality":"Partenstein","municipality":{"key":"09677170","name":"Partenstein","type":"Kreisangehörige_Gemeinde"},"district":{"key":"09677","name":"Main-Spessart","type":"Landkreis"},"federalState":{"key":"09","name":"Bayern"}},{"name":"Anemonenweg","postalCode":"97846","locality":"Partenstein","municipality":{"key":"09677170","name":"Partenstein","type":"Kreisangehörige_Gemeinde"},"district":{"key":"09677","name":"Main-Spessart","type":"Landkreis"},"federalState":{"key":"09","name":"Bayern"}},{"name":"Auweg","postalCode":"97846","locality":"Partenstein","municipality":{"key":"09677170","name":"Partenstein","type":"Kreisangehörige_Gemeinde"},"district":{"key":"09677","name":"Main-Spessart","type":"Landkreis"},"federalState":{"key":"09","name":"Bayern"}},{"name":"Bahnhofstr.","postalCode":"97846","locality":"Partenstein","municipality":{"key":"09677170","name":"Partenstein","type":"Kreisangehörige_Gemeinde"},"district":{"key":"09677","name":"Main-Spessart","type":"Landkreis"},"federalState":{"key":"09","name":"Bayern"}},{"name":"Beetackerweg","postalCode":"97846","locality":"Partenstein","municipality":{"key":"09677170","name":"Partenstein","type":"Kreisangehörige_Gemeinde"},"district":{"key":"09677","name":"Main-Spessart","type":"Landkreis"},"federalState":{"key":"09","name":"Bayern"}},{"name":"Bergweg","postalCode":"97846","locality":"Partenstein","municipality":{"key":"09677170","name":"Partenstein","type":"Kreisangehörige_Gemeinde"},"district":{"key":"09677","name":"Main-Spessart","type":"Landkreis"},"federalState":{"key":"09","name":"Bayern"}},{"name":"Birkenweg","postalCode":"97846","locality":"Partenstein","municipality":{"key":"09677170","name":"Partenstein","type":"Kreisangehörige_Gemeinde"},"district":{"key":"09677","name":"Main-Spessart","type":"Landkreis"},"federalState":{"key":"09","name":"Bayern"}},{"name":"Borngasser","postalCode":"97846","locality":"Partenstein","municipality":{"key":"09677170","name":"Partenstein","type":"Kreisangehörige_Gemeinde"},"district":{"key":"09677","name":"Main-Spessart","type":"Landkreis"},"federalState":{"key":"09","name":"Bayern"}},{"name":"Buchstr.","postalCode":"97846","locality":"Partenstein","municipality":{"key":"09677170","name":"Partenstein","type":"Kreisangehörige_Gemeinde"},"district":{"key":"09677","name":"Main-Spessart","type":"Landkreis"},"federalState":{"key":"09","name":"Bayern"}},{"name":"Bürgermeister-Mützel-Str.","postalCode":"97846","locality":"Partenstein","municipality":{"key":"09677170","name":"Partenstein","type":"Kreisangehörige_Gemeinde"},"district":{"key":"09677","name":"Main-Spessart","type":"Landkreis"},"federalState":{"key":"09","name":"Bayern"}},{"name":"Forstgartenweg","postalCode":"97846","locality":"Partenstein","municipality":{"key":"09677170","name":"Partenstein","type":"Kreisangehörige_Gemeinde"},"district":{"key":"09677","name":"Main-Spessart","type":"Landkreis"},"federalState":{"key":"09","name":"Bayern"}},{"name":"Franzengang","postalCode":"97846","locality":"Partenstein","municipality":{"key":"09677170","name":"Partenstein","type":"Kreisangehörige_Gemeinde"},"district":{"key":"09677","name":"Main-Spessart","type":"Landkreis"},"federalState":{"key":"09","name":"Bayern"}},{"name":"Friedhofstr.","postalCode":"97846","locality":"Partenstein","municipality":{"key":"09677170","name":"Partenstein","type":"Kreisangehörige_Gemeinde"},"district":{"key":"09677","name":"Main-Spessart","type":"Landkreis"},"federalState":{"key":"09","name":"Bayern"}},{"name":"Frühlingstr.","postalCode":"97846","locality":"Partenstein","municipality":{"key":"09677170","name":"Partenstein","type":"Kreisangehörige_Gemeinde"},"district":{"key":"09677","name":"Main-Spessart","type":"Landkreis"},"federalState":{"key":"09","name":"Bayern"}},{"name":"Gartenstr.","postalCode":"97846","locality":"Partenstein","municipality":{"key":"09677170","name":"Partenstein","type":"Kreisangehörige_Gemeinde"},"district":{"key":"09677","name":"Main-Spessart","type":"Landkreis"},"federalState":{"key":"09","name":"Bayern"}},{"name":"Ginsterweg","postalCode":"97846","locality":"Partenstein","municipality":{"key":"09677170","name":"Partenstein","type":"Kreisangehörige_Gemeinde"},"district":{"key":"09677","name":"Main-Spessart","type":"Landkreis"},"federalState":{"key":"09","name":"Bayern"}},{"name":"Grafen-von-Rieneck-Str.","postalCode":"97846","locality":"Partenstein","municipality":{"key":"09677170","name":"Partenstein","type":"Kreisangehörige_Gemeinde"},"district":{"key":"09677","name":"Main-Spessart","type":"Landkreis"},"federalState":{"key":"09","name":"Bayern"}},{"name":"Grubenweg","postalCode":"97846","locality":"Partenstein","municipality":{"key":"09677170","name":"Partenstein","type":"Kreisangehörige_Gemeinde"},"district":{"key":"09677","name":"Main-Spessart","type":"Landkreis"},"federalState":{"key":"09","name":"Bayern"}},{"name":"Hauptstr.","postalCode":"97846","locality":"Partenstein","municipality":{"key":"09677170","name":"Partenstein","type":"Kreisangehörige_Gemeinde"},"district":{"key":"09677","name":"Main-Spessart","type":"Landkreis"},"federalState":{"key":"09","name":"Bayern"}},{"name":"Hirtenweg","postalCode":"97846","locality":"Partenstein","municipality":{"key":"09677170","name":"Partenstein","type":"Kreisangehörige_Gemeinde"},"district":{"key":"09677","name":"Main-Spessart","type":"Landkreis"},"federalState":{"key":"09","name":"Bayern"}},{"name":"Hugo-Vogt-Str.","postalCode":"97846","locality":"Partenstein","municipality":{"key":"09677170","name":"Partenstein","type":"Kreisangehörige_Gemeinde"},"district":{"key":"09677","name":"Main-Spessart","type":"Landkreis"},"federalState":{"key":"09","name":"Bayern"}},{"name":"Im See","postalCode":"97846","locality":"Partenstein","municipality":{"key":"09677170","name":"Partenstein","type":"Kreisangehörige_Gemeinde"},"district":{"key":"09677","name":"Main-Spessart","type":"Landkreis"},"federalState":{"key":"09","name":"Bayern"}},{"name":"Kellergärten","postalCode":"97846","locality":"Partenstein","municipality":{"key":"09677170","name":"Partenstein","type":"Kreisangehörige_Gemeinde"},"district":{"key":"09677","name":"Main-Spessart","type":"Landkreis"},"federalState":{"key":"09","name":"Bayern"}},{"name":"Kirchgasse","postalCode":"97846","locality":"Partenstein","municipality":{"key":"09677170","name":"Partenstein","type":"Kreisangehörige_Gemeinde"},"district":{"key":"09677","name":"Main-Spessart","type":"Landkreis"},"federalState":{"key":"09","name":"Bayern"}},{"name":"Lehenäcker","postalCode":"97846","locality":"Partenstein","municipality":{"key":"09677170","name":"Partenstein","type":"Kreisangehörige_Gemeinde"},"district":{"key":"09677","name":"Main-Spessart","type":"Landkreis"},"federalState":{"key":"09","name":"Bayern"}},{"name":"Lehenweg","postalCode":"97846","locality":"Partenstein","municipality":{"key":"09677170","name":"Partenstein","type":"Kreisangehörige_Gemeinde"},"district":{"key":"09677","name":"Main-Spessart","type":"Landkreis"},"federalState":{"key":"09","name":"Bayern"}},{"name":"Lindenstr.","postalCode":"97846","locality":"Partenstein","municipality":{"key":"09677170","name":"Partenstein","type":"Kreisangehörige_Gemeinde"},"district":{"key":"09677","name":"Main-Spessart","type":"Landkreis"},"federalState":{"key":"09","name":"Bayern"}},{"name":"Linkgasse","postalCode":"97846","locality":"Partenstein","municipality":{"key":"09677170","name":"Partenstein","type":"Kreisangehörige_Gemeinde"},"district":{"key":"09677","name":"Main-Spessart","type":"Landkreis"},"federalState":{"key":"09","name":"Bayern"}},{"name":"Lohrer Str.","postalCode":"97846","locality":"Partenstein","municipality":{"key":"09677170","name":"Partenstein","type":"Kreisangehörige_Gemeinde"},"district":{"key":"09677","name":"Main-Spessart","type":"Landkreis"},"federalState":{"key":"09","name":"Bayern"}},{"name":"Ludwigstollen","postalCode":"97846","locality":"Partenstein","municipality":{"key":"09677170","name":"Partenstein","type":"Kreisangehörige_Gemeinde"},"district":{"key":"09677","name":"Main-Spessart","type":"Landkreis"},"federalState":{"key":"09","name":"Bayern"}},{"name":"Mangangrube","postalCode":"97846","locality":"Partenstein","municipality":{"key":"09677170","name":"Partenstein","type":"Kreisangehörige_Gemeinde"},"district":{"key":"09677","name":"Main-Spessart","type":"Landkreis"},"federalState":{"key":"09","name":"Bayern"}},{"name":"Mehrgenerationenplatz","postalCode":"97846","locality":"Partenstein","municipality":{"key":"09677170","name":"Partenstein","type":"Kreisangehörige_Gemeinde"},"district":{"key":"09677","name":"Main-Spessart","type":"Landkreis"},"federalState":{"key":"09","name":"Bayern"}},{"name":"Mühlgasse","postalCode":"97846","locality":"Partenstein","municipality":{"key":"09677170","name":"Partenstein","type":"Kreisangehörige_Gemeinde"},"district":{"key":"09677","name":"Main-Spessart","type":"Landkreis"},"federalState":{"key":"09","name":"Bayern"}},{"name":"Müsselberg","postalCode":"97846","locality":"Partenstein","municipality":{"key":"09677170","name":"Partenstein","type":"Kreisangehörige_Gemeinde"},"district":{"key":"09677","name":"Main-Spessart","type":"Landkreis"},"federalState":{"key":"09","name":"Bayern"}},{"name":"Neuländerweg","postalCode":"97846","locality":"Partenstein","municipality":{"key":"09677170","name":"Partenstein","type":"Kreisangehörige_Gemeinde"},"district":{"key":"09677","name":"Main-Spessart","type":"Landkreis"},"federalState":{"key":"09","name":"Bayern"}},{"name":"Oberer Weg","postalCode":"97846","locality":"Partenstein","municipality":{"key":"09677170","name":"Partenstein","type":"Kreisangehörige_Gemeinde"},"district":{"key":"09677","name":"Main-Spessart","type":"Landkreis"},"federalState":{"key":"09","name":"Bayern"}},{"name":"Orchideenweg","postalCode":"97846","locality":"Partenstein","municipality":{"key":"09677170","name":"Partenstein","type":"Kreisangehörige_Gemeinde"},"district":{"key":"09677","name":"Main-Spessart","type":"Landkreis"},"federalState":{"key":"09","name":"Bayern"}},{"name":"Petersgärten","postalCode":"97846","locality":"Partenstein","municipality":{"key":"09677170","name":"Partenstein","type":"Kreisangehörige_Gemeinde"},"district":{"key":"09677","name":"Main-Spessart","type":"Landkreis"},"federalState":{"key":"09","name":"Bayern"}},{"name":"Reichengrundstr.","postalCode":"97846","locality":"Partenstein","municipality":{"key":"09677170","name":"Partenstein","type":"Kreisangehörige_Gemeinde"},"district":{"key":"09677","name":"Main-Spessart","type":"Landkreis"},"federalState":{"key":"09","name":"Bayern"}},{"name":"Roßbachstr.","postalCode":"97846","locality":"Partenstein","municipality":{"key":"09677170","name":"Partenstein","type":"Kreisangehörige_Gemeinde"},"district":{"key":"09677","name":"Main-Spessart","type":"Landkreis"},"federalState":{"key":"09","name":"Bayern"}},{"name":"Roßbergweg","postalCode":"97846","locality":"Partenstein","municipality":{"key":"09677170","name":"Partenstein","type":"Kreisangehörige_Gemeinde"},"district":{"key":"09677","name":"Main-Spessart","type":"Landkreis"},"federalState":{"key":"09","name":"Bayern"}},{"name":"Sandweg","postalCode":"97846","locality":"Partenstein","municipality":{"key":"09677170","name":"Partenstein","type":"Kreisangehörige_Gemeinde"},"district":{"key":"09677","name":"Main-Spessart","type":"Landkreis"},"federalState":{"key":"09","name":"Bayern"}},{"name":"Schafheckenweg","postalCode":"97846","locality":"Partenstein","municipality":{"key":"09677170","name":"Partenstein","type":"Kreisangehörige_Gemeinde"},"district":{"key":"09677","name":"Main-Spessart","type":"Landkreis"},"federalState":{"key":"09","name":"Bayern"}},{"name":"Schneidweg","postalCode":"97846","locality":"Partenstein","municipality":{"key":"09677170","name":"Partenstein","type":"Kreisangehörige_Gemeinde"},"district":{"key":"09677","name":"Main-Spessart","type":"Landkreis"},"federalState":{"key":"09","name":"Bayern"}},{"name":"Schnepfental","postalCode":"97846","locality":"Partenstein","municipality":{"key":"09677170","name":"Partenstein","type":"Kreisangehörige_Gemeinde"},"district":{"key":"09677","name":"Main-Spessart","type":"Landkreis"},"federalState":{"key":"09","name":"Bayern"}},{"name":"Schulstr.","postalCode":"97846","locality":"Partenstein","municipality":{"key":"09677170","name":"Partenstein","type":"Kreisangehörige_Gemeinde"},"district":{"key":"09677","name":"Main-Spessart","type":"Landkreis"},"federalState":{"key":"09","name":"Bayern"}},{"name":"Sonnenstr.","postalCode":"97846","locality":"Partenstein","municipality":{"key":"09677170","name":"Partenstein","type":"Kreisangehörige_Gemeinde"},"district":{"key":"09677","name":"Main-Spessart","type":"Landkreis"},"federalState":{"key":"09","name":"Bayern"}},{"name":"Tannenweg","postalCode":"97846","locality":"Partenstein","municipality":{"key":"09677170","name":"Partenstein","type":"Kreisangehörige_Gemeinde"},"district":{"key":"09677","name":"Main-Spessart","type":"Landkreis"},"federalState":{"key":"09","name":"Bayern"}},{"name":"Thiser-Str.","postalCode":"97846","locality":"Partenstein","municipality":{"key":"09677170","name":"Partenstein","type":"Kreisangehörige_Gemeinde"},"district":{"key":"09677","name":"Main-Spessart","type":"Landkreis"},"federalState":{"key":"09","name":"Bayern"}},{"name":"Torweg","postalCode":"97846","locality":"Partenstein","municipality":{"key":"09677170","name":"Partenstein","type":"Kreisangehörige_Gemeinde"},"district":{"key":"09677","name":"Main-Spessart","type":"Landkreis"},"federalState":{"key":"09","name":"Bayern"}},{"name":"Von-Kiesling-Str.","postalCode":"97846","locality":"Partenstein","municipality":{"key":"09677170","name":"Partenstein","type":"Kreisangehörige_Gemeinde"},"district":{"key":"09677","name":"Main-Spessart","type":"Landkreis"},"federalState":{"key":"09","name":"Bayern"}},{"name":"Weiherweg","postalCode":"97846","locality":"Partenstein","municipality":{"key":"09677170","name":"Partenstein","type":"Kreisangehörige_Gemeinde"},"district":{"key":"09677","name":"Main-Spessart","type":"Landkreis"},"federalState":{"key":"09","name":"Bayern"}},{"name":"Wiesenweg","postalCode":"97846","locality":"Partenstein","municipality":{"key":"09677170","name":"Partenstein","type":"Kreisangehörige_Gemeinde"},"district":{"key":"09677","name":"Main-Spessart","type":"Landkreis"},"federalState":{"key":"09","name":"Bayern"}},]