[{"name":"An de Brüng","postalCode":"24852","locality":"Langstedt","municipality":{"key":"01059138","name":"Langstedt","type":"Kreisangehörige_Gemeinde"},"district":{"key":"01059","name":"Schleswig-Flensburg","type":"Kreis"},"federalState":{"key":"01","name":"Schleswig-Holstein"}},{"name":"An den Tannen","postalCode":"24852","locality":"Langstedt","municipality":{"key":"01059138","name":"Langstedt","type":"Kreisangehörige_Gemeinde"},"district":{"key":"01059","name":"Schleswig-Flensburg","type":"Kreis"},"federalState":{"key":"01","name":"Schleswig-Holstein"}},{"name":"An der Treene","postalCode":"24852","locality":"Langstedt","municipality":{"key":"01059138","name":"Langstedt","type":"Kreisangehörige_Gemeinde"},"district":{"key":"01059","name":"Schleswig-Flensburg","type":"Kreis"},"federalState":{"key":"01","name":"Schleswig-Holstein"}},{"name":"Bollingstedter Str.","postalCode":"24852","locality":"Langstedt","municipality":{"key":"01059138","name":"Langstedt","type":"Kreisangehörige_Gemeinde"},"district":{"key":"01059","name":"Schleswig-Flensburg","type":"Kreis"},"federalState":{"key":"01","name":"Schleswig-Holstein"}},{"name":"De Twäng","postalCode":"24852","locality":"Langstedt","municipality":{"key":"01059138","name":"Langstedt","type":"Kreisangehörige_Gemeinde"},"district":{"key":"01059","name":"Schleswig-Flensburg","type":"Kreis"},"federalState":{"key":"01","name":"Schleswig-Holstein"}},{"name":"Funkland","postalCode":"24852","locality":"Langstedt","municipality":{"key":"01059138","name":"Langstedt","type":"Kreisangehörige_Gemeinde"},"district":{"key":"01059","name":"Schleswig-Flensburg","type":"Kreis"},"federalState":{"key":"01","name":"Schleswig-Holstein"}},{"name":"Keelbeker Weg","postalCode":"24852","locality":"Langstedt","municipality":{"key":"01059138","name":"Langstedt","type":"Kreisangehörige_Gemeinde"},"district":{"key":"01059","name":"Schleswig-Flensburg","type":"Kreis"},"federalState":{"key":"01","name":"Schleswig-Holstein"}},{"name":"Langacker","postalCode":"24852","locality":"Langstedt","municipality":{"key":"01059138","name":"Langstedt","type":"Kreisangehörige_Gemeinde"},"district":{"key":"01059","name":"Schleswig-Flensburg","type":"Kreis"},"federalState":{"key":"01","name":"Schleswig-Holstein"}},{"name":"Ostergaard","postalCode":"24852","locality":"Langstedt","municipality":{"key":"01059138","name":"Langstedt","type":"Kreisangehörige_Gemeinde"},"district":{"key":"01059","name":"Schleswig-Flensburg","type":"Kreis"},"federalState":{"key":"01","name":"Schleswig-Holstein"}},{"name":"Osterlangstedt","postalCode":"24852","locality":"Langstedt","municipality":{"key":"01059138","name":"Langstedt","type":"Kreisangehörige_Gemeinde"},"district":{"key":"01059","name":"Schleswig-Flensburg","type":"Kreis"},"federalState":{"key":"01","name":"Schleswig-Holstein"}},{"name":"Schützenweg","postalCode":"24852","locality":"Langstedt","municipality":{"key":"01059138","name":"Langstedt","type":"Kreisangehörige_Gemeinde"},"district":{"key":"01059","name":"Schleswig-Flensburg","type":"Kreis"},"federalState":{"key":"01","name":"Schleswig-Holstein"}},{"name":"Treeneblick","postalCode":"24852","locality":"Langstedt","municipality":{"key":"01059138","name":"Langstedt","type":"Kreisangehörige_Gemeinde"},"district":{"key":"01059","name":"Schleswig-Flensburg","type":"Kreis"},"federalState":{"key":"01","name":"Schleswig-Holstein"}},{"name":"Ulmenallee","postalCode":"24852","locality":"Langstedt","municipality":{"key":"01059138","name":"Langstedt","type":"Kreisangehörige_Gemeinde"},"district":{"key":"01059","name":"Schleswig-Flensburg","type":"Kreis"},"federalState":{"key":"01","name":"Schleswig-Holstein"}},{"name":"Westerlangstedt","postalCode":"24852","locality":"Langstedt","municipality":{"key":"01059138","name":"Langstedt","type":"Kreisangehörige_Gemeinde"},"district":{"key":"01059","name":"Schleswig-Flensburg","type":"Kreis"},"federalState":{"key":"01","name":"Schleswig-Holstein"}},]