[{"key":"10036374","name":"Alte Landstrasse","postalCode":"5723","locality":"Teufenthal AG","commune":{"key":"4145","name":"Teufenthal (AG)","shortName":"Teufenthal (AG)"},"district":{"key":"1905","name":"Bezirk Kulm"},"canton":{"key":"19","code":"AG","name":"Aargau"},"status":"Real"},{"key":"10092229","name":"Bergrain","postalCode":"5723","locality":"Teufenthal AG","commune":{"key":"4145","name":"Teufenthal (AG)","shortName":"Teufenthal (AG)"},"district":{"key":"1905","name":"Bezirk Kulm"},"canton":{"key":"19","code":"AG","name":"Aargau"},"status":"Real"},{"key":"10069110","name":"Bergstrasse","postalCode":"5723","locality":"Teufenthal AG","commune":{"key":"4145","name":"Teufenthal (AG)","shortName":"Teufenthal (AG)"},"district":{"key":"1905","name":"Bezirk Kulm"},"canton":{"key":"19","code":"AG","name":"Aargau"},"status":"Real"},{"key":"10036667","name":"Bifängliweg","postalCode":"5723","locality":"Teufenthal AG","commune":{"key":"4145","name":"Teufenthal (AG)","shortName":"Teufenthal (AG)"},"district":{"key":"1905","name":"Bezirk Kulm"},"canton":{"key":"19","code":"AG","name":"Aargau"},"status":"Real"},{"key":"10036666","name":"Bifangstrasse","postalCode":"5723","locality":"Teufenthal AG","commune":{"key":"4145","name":"Teufenthal (AG)","shortName":"Teufenthal (AG)"},"district":{"key":"1905","name":"Bezirk Kulm"},"canton":{"key":"19","code":"AG","name":"Aargau"},"status":"Real"},{"key":"10029882","name":"Bläienstrasse","postalCode":"5723","locality":"Teufenthal AG","commune":{"key":"4145","name":"Teufenthal (AG)","shortName":"Teufenthal (AG)"},"district":{"key":"1905","name":"Bezirk Kulm"},"canton":{"key":"19","code":"AG","name":"Aargau"},"status":"Real"},{"key":"10092230","name":"Blumenweg","postalCode":"5723","locality":"Teufenthal AG","commune":{"key":"4145","name":"Teufenthal (AG)","shortName":"Teufenthal (AG)"},"district":{"key":"1905","name":"Bezirk Kulm"},"canton":{"key":"19","code":"AG","name":"Aargau"},"status":"Real"},{"key":"10037776","name":"Breite","postalCode":"5723","locality":"Teufenthal AG","commune":{"key":"4145","name":"Teufenthal (AG)","shortName":"Teufenthal (AG)"},"district":{"key":"1905","name":"Bezirk Kulm"},"canton":{"key":"19","code":"AG","name":"Aargau"},"status":"Real"},{"key":"10051562","name":"Brunnengasse","postalCode":"5723","locality":"Teufenthal AG","commune":{"key":"4145","name":"Teufenthal (AG)","shortName":"Teufenthal (AG)"},"district":{"key":"1905","name":"Bezirk Kulm"},"canton":{"key":"19","code":"AG","name":"Aargau"},"status":"Real"},{"key":"10069111","name":"Dorfstrasse","postalCode":"5723","locality":"Teufenthal AG","commune":{"key":"4145","name":"Teufenthal (AG)","shortName":"Teufenthal (AG)"},"district":{"key":"1905","name":"Bezirk Kulm"},"canton":{"key":"19","code":"AG","name":"Aargau"},"status":"Real"},{"key":"10037777","name":"Dürrenäscherstrasse","postalCode":"5723","locality":"Teufenthal AG","commune":{"key":"4145","name":"Teufenthal (AG)","shortName":"Teufenthal (AG)"},"district":{"key":"1905","name":"Bezirk Kulm"},"canton":{"key":"19","code":"AG","name":"Aargau"},"status":"Real"},{"key":"10051563","name":"Fichtenweg","postalCode":"5723","locality":"Teufenthal AG","commune":{"key":"4145","name":"Teufenthal (AG)","shortName":"Teufenthal (AG)"},"district":{"key":"1905","name":"Bezirk Kulm"},"canton":{"key":"19","code":"AG","name":"Aargau"},"status":"Real"},{"key":"10092231","name":"Friedhofweg","postalCode":"5723","locality":"Teufenthal AG","commune":{"key":"4145","name":"Teufenthal (AG)","shortName":"Teufenthal (AG)"},"district":{"key":"1905","name":"Bezirk Kulm"},"canton":{"key":"19","code":"AG","name":"Aargau"},"status":"Real"},{"key":"10190988","name":"Gartenweg","postalCode":"5723","locality":"Teufenthal AG","commune":{"key":"4145","name":"Teufenthal (AG)","shortName":"Teufenthal (AG)"},"district":{"key":"1905","name":"Bezirk Kulm"},"canton":{"key":"19","code":"AG","name":"Aargau"},"status":"Real"},{"key":"10037778","name":"Gässli","postalCode":"5723","locality":"Teufenthal AG","commune":{"key":"4145","name":"Teufenthal (AG)","shortName":"Teufenthal (AG)"},"district":{"key":"1905","name":"Bezirk Kulm"},"canton":{"key":"19","code":"AG","name":"Aargau"},"status":"Real"},{"key":"10146007","name":"Grenzweg","postalCode":"5723","locality":"Teufenthal AG","commune":{"key":"4145","name":"Teufenthal (AG)","shortName":"Teufenthal (AG)"},"district":{"key":"1905","name":"Bezirk Kulm"},"canton":{"key":"19","code":"AG","name":"Aargau"},"status":"Real"},{"key":"10069112","name":"Grossmattstrasse","postalCode":"5723","locality":"Teufenthal AG","commune":{"key":"4145","name":"Teufenthal (AG)","shortName":"Teufenthal (AG)"},"district":{"key":"1905","name":"Bezirk Kulm"},"canton":{"key":"19","code":"AG","name":"Aargau"},"status":"Real"},{"key":"10188351","name":"Hochrütistrasse","postalCode":"5723","locality":"Teufenthal AG","commune":{"key":"4145","name":"Teufenthal (AG)","shortName":"Teufenthal (AG)"},"district":{"key":"1905","name":"Bezirk Kulm"},"canton":{"key":"19","code":"AG","name":"Aargau"},"status":"Real"},{"key":"10037779","name":"Höhenweg","postalCode":"5723","locality":"Teufenthal AG","commune":{"key":"4145","name":"Teufenthal (AG)","shortName":"Teufenthal (AG)"},"district":{"key":"1905","name":"Bezirk Kulm"},"canton":{"key":"19","code":"AG","name":"Aargau"},"status":"Real"},{"key":"10116835","name":"Hohlbrunnacherweg","postalCode":"5723","locality":"Teufenthal AG","commune":{"key":"4145","name":"Teufenthal (AG)","shortName":"Teufenthal (AG)"},"district":{"key":"1905","name":"Bezirk Kulm"},"canton":{"key":"19","code":"AG","name":"Aargau"},"status":"Real"},{"key":"10051564","name":"Hubelmattstrasse","postalCode":"5723","locality":"Teufenthal AG","commune":{"key":"4145","name":"Teufenthal (AG)","shortName":"Teufenthal (AG)"},"district":{"key":"1905","name":"Bezirk Kulm"},"canton":{"key":"19","code":"AG","name":"Aargau"},"status":"Real"},{"key":"10196549","name":"Hubelmattstrasse","postalCode":"5723","locality":"Teufenthal AG","commune":{"key":"4145","name":"Teufenthal (AG)","shortName":"Teufenthal (AG)"},"district":{"key":"1905","name":"Bezirk Kulm"},"canton":{"key":"19","code":"AG","name":"Aargau"},"status":"Real"},{"key":"10092232","name":"Hubelweg","postalCode":"5723","locality":"Teufenthal AG","commune":{"key":"4145","name":"Teufenthal (AG)","shortName":"Teufenthal (AG)"},"district":{"key":"1905","name":"Bezirk Kulm"},"canton":{"key":"19","code":"AG","name":"Aargau"},"status":"Real"},{"key":"10146916","name":"Juraweg","postalCode":"5723","locality":"Teufenthal AG","commune":{"key":"4145","name":"Teufenthal (AG)","shortName":"Teufenthal (AG)"},"district":{"key":"1905","name":"Bezirk Kulm"},"canton":{"key":"19","code":"AG","name":"Aargau"},"status":"Real"},{"key":"10097911","name":"Katzenhübel","postalCode":"5723","locality":"Teufenthal AG","commune":{"key":"4145","name":"Teufenthal (AG)","shortName":"Teufenthal (AG)"},"district":{"key":"1905","name":"Bezirk Kulm"},"canton":{"key":"19","code":"AG","name":"Aargau"},"status":"Real"},{"key":"10109269","name":"Kirchweg","postalCode":"5723","locality":"Teufenthal AG","commune":{"key":"4145","name":"Teufenthal (AG)","shortName":"Teufenthal (AG)"},"district":{"key":"1905","name":"Bezirk Kulm"},"canton":{"key":"19","code":"AG","name":"Aargau"},"status":"Real"},{"key":"10069113","name":"Kirchwegacker","postalCode":"5723","locality":"Teufenthal AG","commune":{"key":"4145","name":"Teufenthal (AG)","shortName":"Teufenthal (AG)"},"district":{"key":"1905","name":"Bezirk Kulm"},"canton":{"key":"19","code":"AG","name":"Aargau"},"status":"Real"},{"key":"10102007","name":"Linzenthalbodenweg","postalCode":"5723","locality":"Teufenthal AG","commune":{"key":"4145","name":"Teufenthal (AG)","shortName":"Teufenthal (AG)"},"district":{"key":"1905","name":"Bezirk Kulm"},"canton":{"key":"19","code":"AG","name":"Aargau"},"status":"Real"},{"key":"10037780","name":"Moosstrasse","postalCode":"5723","locality":"Teufenthal AG","commune":{"key":"4145","name":"Teufenthal (AG)","shortName":"Teufenthal (AG)"},"district":{"key":"1905","name":"Bezirk Kulm"},"canton":{"key":"19","code":"AG","name":"Aargau"},"status":"Real"},{"key":"10092233","name":"Mühle","postalCode":"5723","locality":"Teufenthal AG","commune":{"key":"4145","name":"Teufenthal (AG)","shortName":"Teufenthal (AG)"},"district":{"key":"1905","name":"Bezirk Kulm"},"canton":{"key":"19","code":"AG","name":"Aargau"},"status":"Real"},{"key":"10193078","name":"Mülifeldweg","postalCode":"5723","locality":"Teufenthal AG","commune":{"key":"4145","name":"Teufenthal (AG)","shortName":"Teufenthal (AG)"},"district":{"key":"1905","name":"Bezirk Kulm"},"canton":{"key":"19","code":"AG","name":"Aargau"},"status":"Real"},{"key":"10209257","name":"Müligässli","postalCode":"5723","locality":"Teufenthal AG","commune":{"key":"4145","name":"Teufenthal (AG)","shortName":"Teufenthal (AG)"},"district":{"key":"1905","name":"Bezirk Kulm"},"canton":{"key":"19","code":"AG","name":"Aargau"},"status":"Real"},{"key":"10037781","name":"Neuweg","postalCode":"5723","locality":"Teufenthal AG","commune":{"key":"4145","name":"Teufenthal (AG)","shortName":"Teufenthal (AG)"},"district":{"key":"1905","name":"Bezirk Kulm"},"canton":{"key":"19","code":"AG","name":"Aargau"},"status":"Real"},{"key":"10069114","name":"Niedenthalstrasse","postalCode":"5723","locality":"Teufenthal AG","commune":{"key":"4145","name":"Teufenthal (AG)","shortName":"Teufenthal (AG)"},"district":{"key":"1905","name":"Bezirk Kulm"},"canton":{"key":"19","code":"AG","name":"Aargau"},"status":"Real"},{"key":"10051565","name":"Popoloriweg","postalCode":"5723","locality":"Teufenthal AG","commune":{"key":"4145","name":"Teufenthal (AG)","shortName":"Teufenthal (AG)"},"district":{"key":"1905","name":"Bezirk Kulm"},"canton":{"key":"19","code":"AG","name":"Aargau"},"status":"Real"},{"key":"10190989","name":"Raustrasse","postalCode":"5723","locality":"Teufenthal AG","commune":{"key":"4145","name":"Teufenthal (AG)","shortName":"Teufenthal (AG)"},"district":{"key":"1905","name":"Bezirk Kulm"},"canton":{"key":"19","code":"AG","name":"Aargau"},"status":"Real"},{"key":"10117226","name":"Raustrasse","postalCode":"5723","locality":"Teufenthal AG","commune":{"key":"4145","name":"Teufenthal (AG)","shortName":"Teufenthal (AG)"},"district":{"key":"1905","name":"Bezirk Kulm"},"canton":{"key":"19","code":"AG","name":"Aargau"},"status":"Real"},{"key":"10092234","name":"Reckenackerweg","postalCode":"5723","locality":"Teufenthal AG","commune":{"key":"4145","name":"Teufenthal (AG)","shortName":"Teufenthal (AG)"},"district":{"key":"1905","name":"Bezirk Kulm"},"canton":{"key":"19","code":"AG","name":"Aargau"},"status":"Real"},{"key":"10051566","name":"Rosenweg","postalCode":"5723","locality":"Teufenthal AG","commune":{"key":"4145","name":"Teufenthal (AG)","shortName":"Teufenthal (AG)"},"district":{"key":"1905","name":"Bezirk Kulm"},"canton":{"key":"19","code":"AG","name":"Aargau"},"status":"Real"},{"key":"10208141","name":"Rütiweg","postalCode":"5723","locality":"Teufenthal AG","commune":{"key":"4145","name":"Teufenthal (AG)","shortName":"Teufenthal (AG)"},"district":{"key":"1905","name":"Bezirk Kulm"},"canton":{"key":"19","code":"AG","name":"Aargau"},"status":"Real"},{"key":"10037783","name":"Sahrengässli","postalCode":"5723","locality":"Teufenthal AG","commune":{"key":"4145","name":"Teufenthal (AG)","shortName":"Teufenthal (AG)"},"district":{"key":"1905","name":"Bezirk Kulm"},"canton":{"key":"19","code":"AG","name":"Aargau"},"status":"Real"},{"key":"10069115","name":"Sattenthalstrasse","postalCode":"5723","locality":"Teufenthal AG","commune":{"key":"4145","name":"Teufenthal (AG)","shortName":"Teufenthal (AG)"},"district":{"key":"1905","name":"Bezirk Kulm"},"canton":{"key":"19","code":"AG","name":"Aargau"},"status":"Real"},{"key":"10037784","name":"Schlossackerring","postalCode":"5723","locality":"Teufenthal AG","commune":{"key":"4145","name":"Teufenthal (AG)","shortName":"Teufenthal (AG)"},"district":{"key":"1905","name":"Bezirk Kulm"},"canton":{"key":"19","code":"AG","name":"Aargau"},"status":"Real"},{"key":"10186869","name":"Schlossackerweg","postalCode":"5723","locality":"Teufenthal AG","commune":{"key":"4145","name":"Teufenthal (AG)","shortName":"Teufenthal (AG)"},"district":{"key":"1905","name":"Bezirk Kulm"},"canton":{"key":"19","code":"AG","name":"Aargau"},"status":"Real"},{"key":"10092235","name":"Schlossgasse","postalCode":"5723","locality":"Teufenthal AG","commune":{"key":"4145","name":"Teufenthal (AG)","shortName":"Teufenthal (AG)"},"district":{"key":"1905","name":"Bezirk Kulm"},"canton":{"key":"19","code":"AG","name":"Aargau"},"status":"Real"},{"key":"10037785","name":"Schlossmattweg","postalCode":"5723","locality":"Teufenthal AG","commune":{"key":"4145","name":"Teufenthal (AG)","shortName":"Teufenthal (AG)"},"district":{"key":"1905","name":"Bezirk Kulm"},"canton":{"key":"19","code":"AG","name":"Aargau"},"status":"Real"},{"key":"10051567","name":"Schmittengasse","postalCode":"5723","locality":"Teufenthal AG","commune":{"key":"4145","name":"Teufenthal (AG)","shortName":"Teufenthal (AG)"},"district":{"key":"1905","name":"Bezirk Kulm"},"canton":{"key":"19","code":"AG","name":"Aargau"},"status":"Real"},{"key":"10037786","name":"Schulhausweg","postalCode":"5723","locality":"Teufenthal AG","commune":{"key":"4145","name":"Teufenthal (AG)","shortName":"Teufenthal (AG)"},"district":{"key":"1905","name":"Bezirk Kulm"},"canton":{"key":"19","code":"AG","name":"Aargau"},"status":"Real"},{"key":"10109180","name":"Spannergässli","postalCode":"5723","locality":"Teufenthal AG","commune":{"key":"4145","name":"Teufenthal (AG)","shortName":"Teufenthal (AG)"},"district":{"key":"1905","name":"Bezirk Kulm"},"canton":{"key":"19","code":"AG","name":"Aargau"},"status":"Real"},{"key":"10037787","name":"Styget","postalCode":"5723","locality":"Teufenthal AG","commune":{"key":"4145","name":"Teufenthal (AG)","shortName":"Teufenthal (AG)"},"district":{"key":"1905","name":"Bezirk Kulm"},"canton":{"key":"19","code":"AG","name":"Aargau"},"status":"Real"},{"key":"10096546","name":"Tannholzweg","postalCode":"5723","locality":"Teufenthal AG","commune":{"key":"4145","name":"Teufenthal (AG)","shortName":"Teufenthal (AG)"},"district":{"key":"1905","name":"Bezirk Kulm"},"canton":{"key":"19","code":"AG","name":"Aargau"},"status":"Real"},{"key":"10051568","name":"Trostburgweg","postalCode":"5723","locality":"Teufenthal AG","commune":{"key":"4145","name":"Teufenthal (AG)","shortName":"Teufenthal (AG)"},"district":{"key":"1905","name":"Bezirk Kulm"},"canton":{"key":"19","code":"AG","name":"Aargau"},"status":"Real"},{"key":"10037788","name":"Vorstadtstrasse","postalCode":"5723","locality":"Teufenthal AG","commune":{"key":"4145","name":"Teufenthal (AG)","shortName":"Teufenthal (AG)"},"district":{"key":"1905","name":"Bezirk Kulm"},"canton":{"key":"19","code":"AG","name":"Aargau"},"status":"Real"},{"key":"10036389","name":"Wässerig","postalCode":"5723","locality":"Teufenthal AG","commune":{"key":"4145","name":"Teufenthal (AG)","shortName":"Teufenthal (AG)"},"district":{"key":"1905","name":"Bezirk Kulm"},"canton":{"key":"19","code":"AG","name":"Aargau"},"status":"Real"},{"key":"10190990","name":"Wiesenweg","postalCode":"5723","locality":"Teufenthal AG","commune":{"key":"4145","name":"Teufenthal (AG)","shortName":"Teufenthal (AG)"},"district":{"key":"1905","name":"Bezirk Kulm"},"canton":{"key":"19","code":"AG","name":"Aargau"},"status":"Real"},{"key":"10069116","name":"Wynaweg","postalCode":"5723","locality":"Teufenthal AG","commune":{"key":"4145","name":"Teufenthal (AG)","shortName":"Teufenthal (AG)"},"district":{"key":"1905","name":"Bezirk Kulm"},"canton":{"key":"19","code":"AG","name":"Aargau"},"status":"Real"},{"key":"10037789","name":"Wynentalstrasse","postalCode":"5723","locality":"Teufenthal AG","commune":{"key":"4145","name":"Teufenthal (AG)","shortName":"Teufenthal (AG)"},"district":{"key":"1905","name":"Bezirk Kulm"},"canton":{"key":"19","code":"AG","name":"Aargau"},"status":"Real"},{"key":"10069117","name":"Zypressenweg","postalCode":"5723","locality":"Teufenthal AG","commune":{"key":"4145","name":"Teufenthal (AG)","shortName":"Teufenthal (AG)"},"district":{"key":"1905","name":"Bezirk Kulm"},"canton":{"key":"19","code":"AG","name":"Aargau"},"status":"Real"},]