[{"name":"Adalfriedstr.","postalCode":"97725","locality":"Elfershausen","municipality":{"key":"09672121","name":"Elfershausen, M","type":"Markt"},"district":{"key":"09672","name":"Bad Kissingen","type":"Landkreis"},"federalState":{"key":"09","name":"Bayern"}},{"name":"Adolf-Holzinger-Platz","postalCode":"97725","locality":"Elfershausen","municipality":{"key":"09672121","name":"Elfershausen, M","type":"Markt"},"district":{"key":"09672","name":"Bad Kissingen","type":"Landkreis"},"federalState":{"key":"09","name":"Bayern"}},{"name":"Adolf-Kolping-Str.","postalCode":"97725","locality":"Elfershausen","municipality":{"key":"09672121","name":"Elfershausen, M","type":"Markt"},"district":{"key":"09672","name":"Bad Kissingen","type":"Landkreis"},"federalState":{"key":"09","name":"Bayern"}},{"name":"Ahlweg","postalCode":"97725","locality":"Elfershausen","municipality":{"key":"09672121","name":"Elfershausen, M","type":"Markt"},"district":{"key":"09672","name":"Bad Kissingen","type":"Landkreis"},"federalState":{"key":"09","name":"Bayern"}},{"name":"Am Altenhof","postalCode":"97725","locality":"Elfershausen","municipality":{"key":"09672121","name":"Elfershausen, M","type":"Markt"},"district":{"key":"09672","name":"Bad Kissingen","type":"Landkreis"},"federalState":{"key":"09","name":"Bayern"}},{"name":"Am Friedhof","postalCode":"97725","locality":"Elfershausen","municipality":{"key":"09672121","name":"Elfershausen, M","type":"Markt"},"district":{"key":"09672","name":"Bad Kissingen","type":"Landkreis"},"federalState":{"key":"09","name":"Bayern"}},{"name":"Am Gersberg","postalCode":"97725","locality":"Elfershausen","municipality":{"key":"09672121","name":"Elfershausen, M","type":"Markt"},"district":{"key":"09672","name":"Bad Kissingen","type":"Landkreis"},"federalState":{"key":"09","name":"Bayern"}},{"name":"Am Heerweg","postalCode":"97725","locality":"Elfershausen","municipality":{"key":"09672121","name":"Elfershausen, M","type":"Markt"},"district":{"key":"09672","name":"Bad Kissingen","type":"Landkreis"},"federalState":{"key":"09","name":"Bayern"}},{"name":"Am Kehrweg","postalCode":"97725","locality":"Elfershausen","municipality":{"key":"09672121","name":"Elfershausen, M","type":"Markt"},"district":{"key":"09672","name":"Bad Kissingen","type":"Landkreis"},"federalState":{"key":"09","name":"Bayern"}},{"name":"Am Kreuzberg","postalCode":"97725","locality":"Elfershausen","municipality":{"key":"09672121","name":"Elfershausen, M","type":"Markt"},"district":{"key":"09672","name":"Bad Kissingen","type":"Landkreis"},"federalState":{"key":"09","name":"Bayern"}},{"name":"Am Mönchshof","postalCode":"97725","locality":"Elfershausen","municipality":{"key":"09672121","name":"Elfershausen, M","type":"Markt"},"district":{"key":"09672","name":"Bad Kissingen","type":"Landkreis"},"federalState":{"key":"09","name":"Bayern"}},{"name":"Am Pfaffenberg","postalCode":"97725","locality":"Elfershausen","municipality":{"key":"09672121","name":"Elfershausen, M","type":"Markt"},"district":{"key":"09672","name":"Bad Kissingen","type":"Landkreis"},"federalState":{"key":"09","name":"Bayern"}},{"name":"Am Schwedenberg","postalCode":"97725","locality":"Elfershausen","municipality":{"key":"09672121","name":"Elfershausen, M","type":"Markt"},"district":{"key":"09672","name":"Bad Kissingen","type":"Landkreis"},"federalState":{"key":"09","name":"Bayern"}},{"name":"Am Zeicht","postalCode":"97725","locality":"Elfershausen","municipality":{"key":"09672121","name":"Elfershausen, M","type":"Markt"},"district":{"key":"09672","name":"Bad Kissingen","type":"Landkreis"},"federalState":{"key":"09","name":"Bayern"}},{"name":"An der Klinge","postalCode":"97725","locality":"Elfershausen","municipality":{"key":"09672121","name":"Elfershausen, M","type":"Markt"},"district":{"key":"09672","name":"Bad Kissingen","type":"Landkreis"},"federalState":{"key":"09","name":"Bayern"}},{"name":"An der Trie","postalCode":"97725","locality":"Elfershausen","municipality":{"key":"09672121","name":"Elfershausen, M","type":"Markt"},"district":{"key":"09672","name":"Bad Kissingen","type":"Landkreis"},"federalState":{"key":"09","name":"Bayern"}},{"name":"August-Ullrich-Str.","postalCode":"97725","locality":"Elfershausen","municipality":{"key":"09672121","name":"Elfershausen, M","type":"Markt"},"district":{"key":"09672","name":"Bad Kissingen","type":"Landkreis"},"federalState":{"key":"09","name":"Bayern"}},{"name":"Auraer Str.","postalCode":"97725","locality":"Elfershausen","municipality":{"key":"09672121","name":"Elfershausen, M","type":"Markt"},"district":{"key":"09672","name":"Bad Kissingen","type":"Landkreis"},"federalState":{"key":"09","name":"Bayern"}},{"name":"Bergstr.","postalCode":"97725","locality":"Elfershausen","municipality":{"key":"09672121","name":"Elfershausen, M","type":"Markt"},"district":{"key":"09672","name":"Bad Kissingen","type":"Landkreis"},"federalState":{"key":"09","name":"Bayern"}},{"name":"Bonifatiusstr.","postalCode":"97725","locality":"Elfershausen","municipality":{"key":"09672121","name":"Elfershausen, M","type":"Markt"},"district":{"key":"09672","name":"Bad Kissingen","type":"Landkreis"},"federalState":{"key":"09","name":"Bayern"}},{"name":"Brückenstr.","postalCode":"97725","locality":"Elfershausen","municipality":{"key":"09672121","name":"Elfershausen, M","type":"Markt"},"district":{"key":"09672","name":"Bad Kissingen","type":"Landkreis"},"federalState":{"key":"09","name":"Bayern"}},{"name":"Brunnenstr.","postalCode":"97725","locality":"Elfershausen","municipality":{"key":"09672121","name":"Elfershausen, M","type":"Markt"},"district":{"key":"09672","name":"Bad Kissingen","type":"Landkreis"},"federalState":{"key":"09","name":"Bayern"}},{"name":"Burkardstr.","postalCode":"97725","locality":"Elfershausen","municipality":{"key":"09672121","name":"Elfershausen, M","type":"Markt"},"district":{"key":"09672","name":"Bad Kissingen","type":"Landkreis"},"federalState":{"key":"09","name":"Bayern"}},{"name":"Carl-Diem-Str.","postalCode":"97688","locality":"Bad Kissingen","municipality":{"key":"09672114","name":"Bad Kissingen, GKSt","type":"Große_Kreisstadt"},"district":{"key":"09672","name":"Bad Kissingen","type":"Landkreis"},"federalState":{"key":"09","name":"Bayern"}},{"name":"Chakrenweg","postalCode":"97688","locality":"Bad Kissingen","municipality":{"key":"09672114","name":"Bad Kissingen, GKSt","type":"Große_Kreisstadt"},"district":{"key":"09672","name":"Bad Kissingen","type":"Landkreis"},"federalState":{"key":"09","name":"Bayern"}},{"name":"Columbiastr.","postalCode":"97688","locality":"Bad Kissingen","municipality":{"key":"09672114","name":"Bad Kissingen, GKSt","type":"Große_Kreisstadt"},"district":{"key":"09672","name":"Bad Kissingen","type":"Landkreis"},"federalState":{"key":"09","name":"Bayern"}},{"name":"Cyrill-Kistler-Weg","postalCode":"97688","locality":"Bad Kissingen","municipality":{"key":"09672114","name":"Bad Kissingen, GKSt","type":"Große_Kreisstadt"},"district":{"key":"09672","name":"Bad Kissingen","type":"Landkreis"},"federalState":{"key":"09","name":"Bayern"}},{"name":"Domstr.","postalCode":"97725","locality":"Elfershausen","municipality":{"key":"09672121","name":"Elfershausen, M","type":"Markt"},"district":{"key":"09672","name":"Bad Kissingen","type":"Landkreis"},"federalState":{"key":"09","name":"Bayern"}},{"name":"Engenthal","postalCode":"97725","locality":"Elfershausen","municipality":{"key":"09672121","name":"Elfershausen, M","type":"Markt"},"district":{"key":"09672","name":"Bad Kissingen","type":"Landkreis"},"federalState":{"key":"09","name":"Bayern"}},{"name":"Florianstr.","postalCode":"97725","locality":"Elfershausen","municipality":{"key":"09672121","name":"Elfershausen, M","type":"Markt"},"district":{"key":"09672","name":"Bad Kissingen","type":"Landkreis"},"federalState":{"key":"09","name":"Bayern"}},{"name":"Föhrenstr.","postalCode":"97725","locality":"Elfershausen","municipality":{"key":"09672121","name":"Elfershausen, M","type":"Markt"},"district":{"key":"09672","name":"Bad Kissingen","type":"Landkreis"},"federalState":{"key":"09","name":"Bayern"}},{"name":"Freihofstr.","postalCode":"97725","locality":"Elfershausen","municipality":{"key":"09672121","name":"Elfershausen, M","type":"Markt"},"district":{"key":"09672","name":"Bad Kissingen","type":"Landkreis"},"federalState":{"key":"09","name":"Bayern"}},{"name":"Friedhofstr.","postalCode":"97725","locality":"Elfershausen","municipality":{"key":"09672121","name":"Elfershausen, M","type":"Markt"},"district":{"key":"09672","name":"Bad Kissingen","type":"Landkreis"},"federalState":{"key":"09","name":"Bayern"}},{"name":"Fritz-Albrecht-Str.","postalCode":"97725","locality":"Elfershausen","municipality":{"key":"09672121","name":"Elfershausen, M","type":"Markt"},"district":{"key":"09672","name":"Bad Kissingen","type":"Landkreis"},"federalState":{"key":"09","name":"Bayern"}},{"name":"Gänsberg","postalCode":"97725","locality":"Elfershausen","municipality":{"key":"09672121","name":"Elfershausen, M","type":"Markt"},"district":{"key":"09672","name":"Bad Kissingen","type":"Landkreis"},"federalState":{"key":"09","name":"Bayern"}},{"name":"Gartenstr.","postalCode":"97725","locality":"Elfershausen","municipality":{"key":"09672121","name":"Elfershausen, M","type":"Markt"},"district":{"key":"09672","name":"Bad Kissingen","type":"Landkreis"},"federalState":{"key":"09","name":"Bayern"}},{"name":"Glückergasse","postalCode":"97725","locality":"Elfershausen","municipality":{"key":"09672121","name":"Elfershausen, M","type":"Markt"},"district":{"key":"09672","name":"Bad Kissingen","type":"Landkreis"},"federalState":{"key":"09","name":"Bayern"}},{"name":"Hännerstr.","postalCode":"97725","locality":"Elfershausen","municipality":{"key":"09672121","name":"Elfershausen, M","type":"Markt"},"district":{"key":"09672","name":"Bad Kissingen","type":"Landkreis"},"federalState":{"key":"09","name":"Bayern"}},{"name":"Hauptstr.","postalCode":"97725","locality":"Elfershausen","municipality":{"key":"09672121","name":"Elfershausen, M","type":"Markt"},"district":{"key":"09672","name":"Bad Kissingen","type":"Landkreis"},"federalState":{"key":"09","name":"Bayern"}},{"name":"Hugo-von-Trimberg-Str.","postalCode":"97725","locality":"Elfershausen","municipality":{"key":"09672121","name":"Elfershausen, M","type":"Markt"},"district":{"key":"09672","name":"Bad Kissingen","type":"Landkreis"},"federalState":{"key":"09","name":"Bayern"}},{"name":"Ignatius-Taschner-Str.","postalCode":"97688","locality":"Bad Kissingen","municipality":{"key":"09672114","name":"Bad Kissingen, GKSt","type":"Große_Kreisstadt"},"district":{"key":"09672","name":"Bad Kissingen","type":"Landkreis"},"federalState":{"key":"09","name":"Bayern"}},{"name":"Im Beiberich","postalCode":"97688","locality":"Bad Kissingen","municipality":{"key":"09672114","name":"Bad Kissingen, GKSt","type":"Große_Kreisstadt"},"district":{"key":"09672","name":"Bad Kissingen","type":"Landkreis"},"federalState":{"key":"09","name":"Bayern"}},{"name":"Im Brühl","postalCode":"97688","locality":"Bad Kissingen","municipality":{"key":"09672114","name":"Bad Kissingen, GKSt","type":"Große_Kreisstadt"},"district":{"key":"09672","name":"Bad Kissingen","type":"Landkreis"},"federalState":{"key":"09","name":"Bayern"}},{"name":"Im Krautgarten","postalCode":"97688","locality":"Bad Kissingen","municipality":{"key":"09672114","name":"Bad Kissingen, GKSt","type":"Große_Kreisstadt"},"district":{"key":"09672","name":"Bad Kissingen","type":"Landkreis"},"federalState":{"key":"09","name":"Bayern"}},{"name":"Im Pförtlein","postalCode":"97688","locality":"Bad Kissingen","municipality":{"key":"09672114","name":"Bad Kissingen, GKSt","type":"Große_Kreisstadt"},"district":{"key":"09672","name":"Bad Kissingen","type":"Landkreis"},"federalState":{"key":"09","name":"Bayern"}},{"name":"Im Premes","postalCode":"97688","locality":"Bad Kissingen","municipality":{"key":"09672114","name":"Bad Kissingen, GKSt","type":"Große_Kreisstadt"},"district":{"key":"09672","name":"Bad Kissingen","type":"Landkreis"},"federalState":{"key":"09","name":"Bayern"}},{"name":"Im Röder","postalCode":"97688","locality":"Bad Kissingen","municipality":{"key":"09672114","name":"Bad Kissingen, GKSt","type":"Große_Kreisstadt"},"district":{"key":"09672","name":"Bad Kissingen","type":"Landkreis"},"federalState":{"key":"09","name":"Bayern"}},{"name":"Im Roth","postalCode":"97688","locality":"Bad Kissingen","municipality":{"key":"09672114","name":"Bad Kissingen, GKSt","type":"Große_Kreisstadt"},"district":{"key":"09672","name":"Bad Kissingen","type":"Landkreis"},"federalState":{"key":"09","name":"Bayern"}},{"name":"Im Steinbusch","postalCode":"97688","locality":"Bad Kissingen","municipality":{"key":"09672114","name":"Bad Kissingen, GKSt","type":"Große_Kreisstadt"},"district":{"key":"09672","name":"Bad Kissingen","type":"Landkreis"},"federalState":{"key":"09","name":"Bayern"}},{"name":"Im Tiefrödlein","postalCode":"97688","locality":"Bad Kissingen","municipality":{"key":"09672114","name":"Bad Kissingen, GKSt","type":"Große_Kreisstadt"},"district":{"key":"09672","name":"Bad Kissingen","type":"Landkreis"},"federalState":{"key":"09","name":"Bayern"}},{"name":"In den Höfen","postalCode":"97688","locality":"Bad Kissingen","municipality":{"key":"09672114","name":"Bad Kissingen, GKSt","type":"Große_Kreisstadt"},"district":{"key":"09672","name":"Bad Kissingen","type":"Landkreis"},"federalState":{"key":"09","name":"Bayern"}},{"name":"In der Au","postalCode":"97688","locality":"Bad Kissingen","municipality":{"key":"09672114","name":"Bad Kissingen, GKSt","type":"Große_Kreisstadt"},"district":{"key":"09672","name":"Bad Kissingen","type":"Landkreis"},"federalState":{"key":"09","name":"Bayern"}},{"name":"Iringstr.","postalCode":"97688","locality":"Bad Kissingen","municipality":{"key":"09672114","name":"Bad Kissingen, GKSt","type":"Große_Kreisstadt"},"district":{"key":"09672","name":"Bad Kissingen","type":"Landkreis"},"federalState":{"key":"09","name":"Bayern"}},{"name":"Julian-Breitenbach-Str.","postalCode":"97725","locality":"Elfershausen","municipality":{"key":"09672121","name":"Elfershausen, M","type":"Markt"},"district":{"key":"09672","name":"Bad Kissingen","type":"Landkreis"},"federalState":{"key":"09","name":"Bayern"}},{"name":"Julius-Echter-Str.","postalCode":"97725","locality":"Elfershausen","municipality":{"key":"09672121","name":"Elfershausen, M","type":"Markt"},"district":{"key":"09672","name":"Bad Kissingen","type":"Landkreis"},"federalState":{"key":"09","name":"Bayern"}},{"name":"Kapellenstr.","postalCode":"97725","locality":"Elfershausen","municipality":{"key":"09672121","name":"Elfershausen, M","type":"Markt"},"district":{"key":"09672","name":"Bad Kissingen","type":"Landkreis"},"federalState":{"key":"09","name":"Bayern"}},{"name":"Kilianstr.","postalCode":"97725","locality":"Elfershausen","municipality":{"key":"09672121","name":"Elfershausen, M","type":"Markt"},"district":{"key":"09672","name":"Bad Kissingen","type":"Landkreis"},"federalState":{"key":"09","name":"Bayern"}},{"name":"Kirchgasse","postalCode":"97725","locality":"Elfershausen","municipality":{"key":"09672121","name":"Elfershausen, M","type":"Markt"},"district":{"key":"09672","name":"Bad Kissingen","type":"Landkreis"},"federalState":{"key":"09","name":"Bayern"}},{"name":"Kirchplatz","postalCode":"97725","locality":"Elfershausen","municipality":{"key":"09672121","name":"Elfershausen, M","type":"Markt"},"district":{"key":"09672","name":"Bad Kissingen","type":"Landkreis"},"federalState":{"key":"09","name":"Bayern"}},{"name":"Landwehrstr.","postalCode":"97688","locality":"Bad Kissingen","municipality":{"key":"09672114","name":"Bad Kissingen, GKSt","type":"Große_Kreisstadt"},"district":{"key":"09672","name":"Bad Kissingen","type":"Landkreis"},"federalState":{"key":"09","name":"Bayern"}},{"name":"Lärchenweg","postalCode":"97688","locality":"Bad Kissingen","municipality":{"key":"09672114","name":"Bad Kissingen, GKSt","type":"Große_Kreisstadt"},"district":{"key":"09672","name":"Bad Kissingen","type":"Landkreis"},"federalState":{"key":"09","name":"Bayern"}},{"name":"Lehmgrube","postalCode":"97688","locality":"Bad Kissingen","municipality":{"key":"09672114","name":"Bad Kissingen, GKSt","type":"Große_Kreisstadt"},"district":{"key":"09672","name":"Bad Kissingen","type":"Landkreis"},"federalState":{"key":"09","name":"Bayern"}},{"name":"Leibnizstr.","postalCode":"97688","locality":"Bad Kissingen","municipality":{"key":"09672114","name":"Bad Kissingen, GKSt","type":"Große_Kreisstadt"},"district":{"key":"09672","name":"Bad Kissingen","type":"Landkreis"},"federalState":{"key":"09","name":"Bayern"}},{"name":"Lenbachstr.","postalCode":"97688","locality":"Bad Kissingen","municipality":{"key":"09672114","name":"Bad Kissingen, GKSt","type":"Große_Kreisstadt"},"district":{"key":"09672","name":"Bad Kissingen","type":"Landkreis"},"federalState":{"key":"09","name":"Bayern"}},{"name":"Lessingstr.","postalCode":"97688","locality":"Bad Kissingen","municipality":{"key":"09672114","name":"Bad Kissingen, GKSt","type":"Große_Kreisstadt"},"district":{"key":"09672","name":"Bad Kissingen","type":"Landkreis"},"federalState":{"key":"09","name":"Bayern"}},{"name":"Liebfrauensee","postalCode":"97688","locality":"Bad Kissingen","municipality":{"key":"09672114","name":"Bad Kissingen, GKSt","type":"Große_Kreisstadt"},"district":{"key":"09672","name":"Bad Kissingen","type":"Landkreis"},"federalState":{"key":"09","name":"Bayern"}},{"name":"Liebigstr.","postalCode":"97688","locality":"Bad Kissingen","municipality":{"key":"09672114","name":"Bad Kissingen, GKSt","type":"Große_Kreisstadt"},"district":{"key":"09672","name":"Bad Kissingen","type":"Landkreis"},"federalState":{"key":"09","name":"Bayern"}},{"name":"Liegewiese","postalCode":"97688","locality":"Bad Kissingen","municipality":{"key":"09672114","name":"Bad Kissingen, GKSt","type":"Große_Kreisstadt"},"district":{"key":"09672","name":"Bad Kissingen","type":"Landkreis"},"federalState":{"key":"09","name":"Bayern"}},{"name":"Lilienstr.","postalCode":"97688","locality":"Bad Kissingen","municipality":{"key":"09672114","name":"Bad Kissingen, GKSt","type":"Große_Kreisstadt"},"district":{"key":"09672","name":"Bad Kissingen","type":"Landkreis"},"federalState":{"key":"09","name":"Bayern"}},{"name":"Lina-Schonder-Weg","postalCode":"97688","locality":"Bad Kissingen","municipality":{"key":"09672114","name":"Bad Kissingen, GKSt","type":"Große_Kreisstadt"},"district":{"key":"09672","name":"Bad Kissingen","type":"Landkreis"},"federalState":{"key":"09","name":"Bayern"}},{"name":"Lindenstr.","postalCode":"97688","locality":"Bad Kissingen","municipality":{"key":"09672114","name":"Bad Kissingen, GKSt","type":"Große_Kreisstadt"},"district":{"key":"09672","name":"Bad Kissingen","type":"Landkreis"},"federalState":{"key":"09","name":"Bayern"}},{"name":"Lindesmühl Passage","postalCode":"97688","locality":"Bad Kissingen","municipality":{"key":"09672114","name":"Bad Kissingen, GKSt","type":"Große_Kreisstadt"},"district":{"key":"09672","name":"Bad Kissingen","type":"Landkreis"},"federalState":{"key":"09","name":"Bayern"}},{"name":"Lindesmühlpromenade","postalCode":"97688","locality":"Bad Kissingen","municipality":{"key":"09672114","name":"Bad Kissingen, GKSt","type":"Große_Kreisstadt"},"district":{"key":"09672","name":"Bad Kissingen","type":"Landkreis"},"federalState":{"key":"09","name":"Bayern"}},{"name":"Lindesmühlsteg","postalCode":"97688","locality":"Bad Kissingen","municipality":{"key":"09672114","name":"Bad Kissingen, GKSt","type":"Große_Kreisstadt"},"district":{"key":"09672","name":"Bad Kissingen","type":"Landkreis"},"federalState":{"key":"09","name":"Bayern"}},{"name":"Linsenrain","postalCode":"97688","locality":"Bad Kissingen","municipality":{"key":"09672114","name":"Bad Kissingen, GKSt","type":"Große_Kreisstadt"},"district":{"key":"09672","name":"Bad Kissingen","type":"Landkreis"},"federalState":{"key":"09","name":"Bayern"}},{"name":"Littmannstr.","postalCode":"97688","locality":"Bad Kissingen","municipality":{"key":"09672114","name":"Bad Kissingen, GKSt","type":"Große_Kreisstadt"},"district":{"key":"09672","name":"Bad Kissingen","type":"Landkreis"},"federalState":{"key":"09","name":"Bayern"}},{"name":"Löhlein","postalCode":"97688","locality":"Bad Kissingen","municipality":{"key":"09672114","name":"Bad Kissingen, GKSt","type":"Große_Kreisstadt"},"district":{"key":"09672","name":"Bad Kissingen","type":"Landkreis"},"federalState":{"key":"09","name":"Bayern"}},{"name":"Lollbachgasse","postalCode":"97688","locality":"Bad Kissingen","municipality":{"key":"09672114","name":"Bad Kissingen, GKSt","type":"Große_Kreisstadt"},"district":{"key":"09672","name":"Bad Kissingen","type":"Landkreis"},"federalState":{"key":"09","name":"Bayern"}},{"name":"Lönsweg","postalCode":"97688","locality":"Bad Kissingen","municipality":{"key":"09672114","name":"Bad Kissingen, GKSt","type":"Große_Kreisstadt"},"district":{"key":"09672","name":"Bad Kissingen","type":"Landkreis"},"federalState":{"key":"09","name":"Bayern"}},{"name":"Ludwig-Licha-Weg","postalCode":"97688","locality":"Bad Kissingen","municipality":{"key":"09672114","name":"Bad Kissingen, GKSt","type":"Große_Kreisstadt"},"district":{"key":"09672","name":"Bad Kissingen","type":"Landkreis"},"federalState":{"key":"09","name":"Bayern"}},{"name":"Ludwigstr.","postalCode":"97688","locality":"Bad Kissingen","municipality":{"key":"09672114","name":"Bad Kissingen, GKSt","type":"Große_Kreisstadt"},"district":{"key":"09672","name":"Bad Kissingen","type":"Landkreis"},"federalState":{"key":"09","name":"Bayern"}},{"name":"Ludwigturm KG","postalCode":"97688","locality":"Bad Kissingen","municipality":{"key":"09672114","name":"Bad Kissingen, GKSt","type":"Große_Kreisstadt"},"district":{"key":"09672","name":"Bad Kissingen","type":"Landkreis"},"federalState":{"key":"09","name":"Bayern"}},{"name":"Luitpoldpark","postalCode":"97688","locality":"Bad Kissingen","municipality":{"key":"09672114","name":"Bad Kissingen, GKSt","type":"Große_Kreisstadt"},"district":{"key":"09672","name":"Bad Kissingen","type":"Landkreis"},"federalState":{"key":"09","name":"Bayern"}},{"name":"Luitpoldsteg","postalCode":"97688","locality":"Bad Kissingen","municipality":{"key":"09672114","name":"Bad Kissingen, GKSt","type":"Große_Kreisstadt"},"district":{"key":"09672","name":"Bad Kissingen","type":"Landkreis"},"federalState":{"key":"09","name":"Bayern"}},{"name":"Marktstr.","postalCode":"97725","locality":"Elfershausen","municipality":{"key":"09672121","name":"Elfershausen, M","type":"Markt"},"district":{"key":"09672","name":"Bad Kissingen","type":"Landkreis"},"federalState":{"key":"09","name":"Bayern"}},{"name":"Mauerackerstr.","postalCode":"97725","locality":"Elfershausen","municipality":{"key":"09672121","name":"Elfershausen, M","type":"Markt"},"district":{"key":"09672","name":"Bad Kissingen","type":"Landkreis"},"federalState":{"key":"09","name":"Bayern"}},{"name":"MTB","postalCode":"97725","locality":"Elfershausen","municipality":{"key":"09672121","name":"Elfershausen, M","type":"Markt"},"district":{"key":"09672","name":"Bad Kissingen","type":"Landkreis"},"federalState":{"key":"09","name":"Bayern"}},{"name":"Mühlweg","postalCode":"97725","locality":"Elfershausen","municipality":{"key":"09672121","name":"Elfershausen, M","type":"Markt"},"district":{"key":"09672","name":"Bad Kissingen","type":"Landkreis"},"federalState":{"key":"09","name":"Bayern"}},{"name":"Neuer Weg","postalCode":"97725","locality":"Elfershausen","municipality":{"key":"09672121","name":"Elfershausen, M","type":"Markt"},"district":{"key":"09672","name":"Bad Kissingen","type":"Landkreis"},"federalState":{"key":"09","name":"Bayern"}},{"name":"Oberthulbaer Str.","postalCode":"97725","locality":"Elfershausen","municipality":{"key":"09672121","name":"Elfershausen, M","type":"Markt"},"district":{"key":"09672","name":"Bad Kissingen","type":"Landkreis"},"federalState":{"key":"09","name":"Bayern"}},{"name":"Pfarrgasse","postalCode":"97725","locality":"Elfershausen","municipality":{"key":"09672121","name":"Elfershausen, M","type":"Markt"},"district":{"key":"09672","name":"Bad Kissingen","type":"Landkreis"},"federalState":{"key":"09","name":"Bayern"}},{"name":"Quellenstr.","postalCode":"97725","locality":"Elfershausen","municipality":{"key":"09672121","name":"Elfershausen, M","type":"Markt"},"district":{"key":"09672","name":"Bad Kissingen","type":"Landkreis"},"federalState":{"key":"09","name":"Bayern"}},{"name":"Ringstr.","postalCode":"97725","locality":"Elfershausen","municipality":{"key":"09672121","name":"Elfershausen, M","type":"Markt"},"district":{"key":"09672","name":"Bad Kissingen","type":"Landkreis"},"federalState":{"key":"09","name":"Bayern"}},{"name":"Rosenhügel","postalCode":"97725","locality":"Elfershausen","municipality":{"key":"09672121","name":"Elfershausen, M","type":"Markt"},"district":{"key":"09672","name":"Bad Kissingen","type":"Landkreis"},"federalState":{"key":"09","name":"Bayern"}},{"name":"Rosenstr.","postalCode":"97725","locality":"Elfershausen","municipality":{"key":"09672121","name":"Elfershausen, M","type":"Markt"},"district":{"key":"09672","name":"Bad Kissingen","type":"Landkreis"},"federalState":{"key":"09","name":"Bayern"}},{"name":"Saalestr.","postalCode":"97725","locality":"Elfershausen","municipality":{"key":"09672121","name":"Elfershausen, M","type":"Markt"},"district":{"key":"09672","name":"Bad Kissingen","type":"Landkreis"},"federalState":{"key":"09","name":"Bayern"}},{"name":"Saaleuferstr.","postalCode":"97725","locality":"Elfershausen","municipality":{"key":"09672121","name":"Elfershausen, M","type":"Markt"},"district":{"key":"09672","name":"Bad Kissingen","type":"Landkreis"},"federalState":{"key":"09","name":"Bayern"}},{"name":"Schäfersiedlung","postalCode":"97725","locality":"Elfershausen","municipality":{"key":"09672121","name":"Elfershausen, M","type":"Markt"},"district":{"key":"09672","name":"Bad Kissingen","type":"Landkreis"},"federalState":{"key":"09","name":"Bayern"}},{"name":"Schloßstr.","postalCode":"97725","locality":"Elfershausen","municipality":{"key":"09672121","name":"Elfershausen, M","type":"Markt"},"district":{"key":"09672","name":"Bad Kissingen","type":"Landkreis"},"federalState":{"key":"09","name":"Bayern"}},{"name":"Schwarze Gasse","postalCode":"97725","locality":"Elfershausen","municipality":{"key":"09672121","name":"Elfershausen, M","type":"Markt"},"district":{"key":"09672","name":"Bad Kissingen","type":"Landkreis"},"federalState":{"key":"09","name":"Bayern"}},{"name":"Sebastianstr.","postalCode":"97725","locality":"Elfershausen","municipality":{"key":"09672121","name":"Elfershausen, M","type":"Markt"},"district":{"key":"09672","name":"Bad Kissingen","type":"Landkreis"},"federalState":{"key":"09","name":"Bayern"}},{"name":"Siedlungsstr.","postalCode":"97725","locality":"Elfershausen","municipality":{"key":"09672121","name":"Elfershausen, M","type":"Markt"},"district":{"key":"09672","name":"Bad Kissingen","type":"Landkreis"},"federalState":{"key":"09","name":"Bayern"}},{"name":"Tränkstr.","postalCode":"97725","locality":"Elfershausen","municipality":{"key":"09672121","name":"Elfershausen, M","type":"Markt"},"district":{"key":"09672","name":"Bad Kissingen","type":"Landkreis"},"federalState":{"key":"09","name":"Bayern"}},{"name":"Trimberger Str.","postalCode":"97725","locality":"Elfershausen","municipality":{"key":"09672121","name":"Elfershausen, M","type":"Markt"},"district":{"key":"09672","name":"Bad Kissingen","type":"Landkreis"},"federalState":{"key":"09","name":"Bayern"}},{"name":"Trimburgblick","postalCode":"97725","locality":"Elfershausen","municipality":{"key":"09672121","name":"Elfershausen, M","type":"Markt"},"district":{"key":"09672","name":"Bad Kissingen","type":"Landkreis"},"federalState":{"key":"09","name":"Bayern"}},{"name":"Ulmenstr.","postalCode":"97688","locality":"Bad Kissingen","municipality":{"key":"09672114","name":"Bad Kissingen, GKSt","type":"Große_Kreisstadt"},"district":{"key":"09672","name":"Bad Kissingen","type":"Landkreis"},"federalState":{"key":"09","name":"Bayern"}},{"name":"Unterer Steinberg","postalCode":"97688","locality":"Bad Kissingen","municipality":{"key":"09672114","name":"Bad Kissingen, GKSt","type":"Große_Kreisstadt"},"district":{"key":"09672","name":"Bad Kissingen","type":"Landkreis"},"federalState":{"key":"09","name":"Bayern"}},{"name":"Unterer Zollweg","postalCode":"97688","locality":"Bad Kissingen","municipality":{"key":"09672114","name":"Bad Kissingen, GKSt","type":"Große_Kreisstadt"},"district":{"key":"09672","name":"Bad Kissingen","type":"Landkreis"},"federalState":{"key":"09","name":"Bayern"}},{"name":"Untere Saline","postalCode":"97688","locality":"Bad Kissingen","municipality":{"key":"09672114","name":"Bad Kissingen, GKSt","type":"Große_Kreisstadt"},"district":{"key":"09672","name":"Bad Kissingen","type":"Landkreis"},"federalState":{"key":"09","name":"Bayern"}},{"name":"Untere Wendelinusstr.","postalCode":"97688","locality":"Bad Kissingen","municipality":{"key":"09672114","name":"Bad Kissingen, GKSt","type":"Große_Kreisstadt"},"district":{"key":"09672","name":"Bad Kissingen","type":"Landkreis"},"federalState":{"key":"09","name":"Bayern"}},{"name":"Von-Erthal-Str.","postalCode":"97725","locality":"Elfershausen","municipality":{"key":"09672121","name":"Elfershausen, M","type":"Markt"},"district":{"key":"09672","name":"Bad Kissingen","type":"Landkreis"},"federalState":{"key":"09","name":"Bayern"}},{"name":"Wasserlosener Str.","postalCode":"97725","locality":"Elfershausen","municipality":{"key":"09672121","name":"Elfershausen, M","type":"Markt"},"district":{"key":"09672","name":"Bad Kissingen","type":"Landkreis"},"federalState":{"key":"09","name":"Bayern"}},{"name":"Weinbergstr.","postalCode":"97725","locality":"Elfershausen","municipality":{"key":"09672121","name":"Elfershausen, M","type":"Markt"},"district":{"key":"09672","name":"Bad Kissingen","type":"Landkreis"},"federalState":{"key":"09","name":"Bayern"}},{"name":"Westheimer Str.","postalCode":"97725","locality":"Elfershausen","municipality":{"key":"09672121","name":"Elfershausen, M","type":"Markt"},"district":{"key":"09672","name":"Bad Kissingen","type":"Landkreis"},"federalState":{"key":"09","name":"Bayern"}},{"name":"WH","postalCode":"97725","locality":"Elfershausen","municipality":{"key":"09672121","name":"Elfershausen, M","type":"Markt"},"district":{"key":"09672","name":"Bad Kissingen","type":"Landkreis"},"federalState":{"key":"09","name":"Bayern"}},{"name":"Wirtsstr.","postalCode":"97725","locality":"Elfershausen","municipality":{"key":"09672121","name":"Elfershausen, M","type":"Markt"},"district":{"key":"09672","name":"Bad Kissingen","type":"Landkreis"},"federalState":{"key":"09","name":"Bayern"}},{"name":"Wittershäuser Str.","postalCode":"97725","locality":"Elfershausen","municipality":{"key":"09672121","name":"Elfershausen, M","type":"Markt"},"district":{"key":"09672","name":"Bad Kissingen","type":"Landkreis"},"federalState":{"key":"09","name":"Bayern"}},{"name":"Wülfershäuser Str.","postalCode":"97725","locality":"Elfershausen","municipality":{"key":"09672121","name":"Elfershausen, M","type":"Markt"},"district":{"key":"09672","name":"Bad Kissingen","type":"Landkreis"},"federalState":{"key":"09","name":"Bayern"}},{"name":"Ysenburgstr.","postalCode":"97688","locality":"Bad Kissingen","municipality":{"key":"09672114","name":"Bad Kissingen, GKSt","type":"Große_Kreisstadt"},"district":{"key":"09672","name":"Bad Kissingen","type":"Landkreis"},"federalState":{"key":"09","name":"Bayern"}},{"name":"Ziegeleistr.","postalCode":"97725","locality":"Elfershausen","municipality":{"key":"09672121","name":"Elfershausen, M","type":"Markt"},"district":{"key":"09672","name":"Bad Kissingen","type":"Landkreis"},"federalState":{"key":"09","name":"Bayern"}},]