[{"name":"Altes Wasserwerk","postalCode":"89287","locality":"Bellenberg","municipality":{"key":"09775115","name":"Bellenberg","type":"Kreisangehörige_Gemeinde"},"district":{"key":"09775","name":"Neu-Ulm","type":"Landkreis"},"federalState":{"key":"09","name":"Bayern"}},{"name":"Am Bahndamm","postalCode":"89287","locality":"Bellenberg","municipality":{"key":"09775115","name":"Bellenberg","type":"Kreisangehörige_Gemeinde"},"district":{"key":"09775","name":"Neu-Ulm","type":"Landkreis"},"federalState":{"key":"09","name":"Bayern"}},{"name":"Am Kirchberg","postalCode":"89287","locality":"Bellenberg","municipality":{"key":"09775115","name":"Bellenberg","type":"Kreisangehörige_Gemeinde"},"district":{"key":"09775","name":"Neu-Ulm","type":"Landkreis"},"federalState":{"key":"09","name":"Bayern"}},{"name":"Am Mühlholz","postalCode":"89287","locality":"Bellenberg","municipality":{"key":"09775115","name":"Bellenberg","type":"Kreisangehörige_Gemeinde"},"district":{"key":"09775","name":"Neu-Ulm","type":"Landkreis"},"federalState":{"key":"09","name":"Bayern"}},{"name":"Am Plattenäcker","postalCode":"89287","locality":"Bellenberg","municipality":{"key":"09775115","name":"Bellenberg","type":"Kreisangehörige_Gemeinde"},"district":{"key":"09775","name":"Neu-Ulm","type":"Landkreis"},"federalState":{"key":"09","name":"Bayern"}},{"name":"Am Schlossberg","postalCode":"89287","locality":"Bellenberg","municipality":{"key":"09775115","name":"Bellenberg","type":"Kreisangehörige_Gemeinde"},"district":{"key":"09775","name":"Neu-Ulm","type":"Landkreis"},"federalState":{"key":"09","name":"Bayern"}},{"name":"Amselweg","postalCode":"89287","locality":"Bellenberg","municipality":{"key":"09775115","name":"Bellenberg","type":"Kreisangehörige_Gemeinde"},"district":{"key":"09775","name":"Neu-Ulm","type":"Landkreis"},"federalState":{"key":"09","name":"Bayern"}},{"name":"Am Sportplatz","postalCode":"89287","locality":"Bellenberg","municipality":{"key":"09775115","name":"Bellenberg","type":"Kreisangehörige_Gemeinde"},"district":{"key":"09775","name":"Neu-Ulm","type":"Landkreis"},"federalState":{"key":"09","name":"Bayern"}},{"name":"An der Halde","postalCode":"89287","locality":"Bellenberg","municipality":{"key":"09775115","name":"Bellenberg","type":"Kreisangehörige_Gemeinde"},"district":{"key":"09775","name":"Neu-Ulm","type":"Landkreis"},"federalState":{"key":"09","name":"Bayern"}},{"name":"An der Staig","postalCode":"89287","locality":"Bellenberg","municipality":{"key":"09775115","name":"Bellenberg","type":"Kreisangehörige_Gemeinde"},"district":{"key":"09775","name":"Neu-Ulm","type":"Landkreis"},"federalState":{"key":"09","name":"Bayern"}},{"name":"Bachstr.","postalCode":"89287","locality":"Bellenberg","municipality":{"key":"09775115","name":"Bellenberg","type":"Kreisangehörige_Gemeinde"},"district":{"key":"09775","name":"Neu-Ulm","type":"Landkreis"},"federalState":{"key":"09","name":"Bayern"}},{"name":"Bahnhofstr.","postalCode":"89287","locality":"Bellenberg","municipality":{"key":"09775115","name":"Bellenberg","type":"Kreisangehörige_Gemeinde"},"district":{"key":"09775","name":"Neu-Ulm","type":"Landkreis"},"federalState":{"key":"09","name":"Bayern"}},{"name":"Bauerngasse","postalCode":"89287","locality":"Bellenberg","municipality":{"key":"09775115","name":"Bellenberg","type":"Kreisangehörige_Gemeinde"},"district":{"key":"09775","name":"Neu-Ulm","type":"Landkreis"},"federalState":{"key":"09","name":"Bayern"}},{"name":"Baumgärtle","postalCode":"89287","locality":"Bellenberg","municipality":{"key":"09775115","name":"Bellenberg","type":"Kreisangehörige_Gemeinde"},"district":{"key":"09775","name":"Neu-Ulm","type":"Landkreis"},"federalState":{"key":"09","name":"Bayern"}},{"name":"Bayernstr.","postalCode":"89287","locality":"Bellenberg","municipality":{"key":"09775115","name":"Bellenberg","type":"Kreisangehörige_Gemeinde"},"district":{"key":"09775","name":"Neu-Ulm","type":"Landkreis"},"federalState":{"key":"09","name":"Bayern"}},{"name":"Berliner Str.","postalCode":"89287","locality":"Bellenberg","municipality":{"key":"09775115","name":"Bellenberg","type":"Kreisangehörige_Gemeinde"},"district":{"key":"09775","name":"Neu-Ulm","type":"Landkreis"},"federalState":{"key":"09","name":"Bayern"}},{"name":"Birkholzweg","postalCode":"89287","locality":"Bellenberg","municipality":{"key":"09775115","name":"Bellenberg","type":"Kreisangehörige_Gemeinde"},"district":{"key":"09775","name":"Neu-Ulm","type":"Landkreis"},"federalState":{"key":"09","name":"Bayern"}},{"name":"Blumenweg","postalCode":"89287","locality":"Bellenberg","municipality":{"key":"09775115","name":"Bellenberg","type":"Kreisangehörige_Gemeinde"},"district":{"key":"09775","name":"Neu-Ulm","type":"Landkreis"},"federalState":{"key":"09","name":"Bayern"}},{"name":"Blütenstr.","postalCode":"89287","locality":"Bellenberg","municipality":{"key":"09775115","name":"Bellenberg","type":"Kreisangehörige_Gemeinde"},"district":{"key":"09775","name":"Neu-Ulm","type":"Landkreis"},"federalState":{"key":"09","name":"Bayern"}},{"name":"Brandenburger Str.","postalCode":"89287","locality":"Bellenberg","municipality":{"key":"09775115","name":"Bellenberg","type":"Kreisangehörige_Gemeinde"},"district":{"key":"09775","name":"Neu-Ulm","type":"Landkreis"},"federalState":{"key":"09","name":"Bayern"}},{"name":"Breslauer Str.","postalCode":"89287","locality":"Bellenberg","municipality":{"key":"09775115","name":"Bellenberg","type":"Kreisangehörige_Gemeinde"},"district":{"key":"09775","name":"Neu-Ulm","type":"Landkreis"},"federalState":{"key":"09","name":"Bayern"}},{"name":"Brunnenmähder","postalCode":"89287","locality":"Bellenberg","municipality":{"key":"09775115","name":"Bellenberg","type":"Kreisangehörige_Gemeinde"},"district":{"key":"09775","name":"Neu-Ulm","type":"Landkreis"},"federalState":{"key":"09","name":"Bayern"}},{"name":"Bürgermeister-Zeller-Str.","postalCode":"89287","locality":"Bellenberg","municipality":{"key":"09775115","name":"Bellenberg","type":"Kreisangehörige_Gemeinde"},"district":{"key":"09775","name":"Neu-Ulm","type":"Landkreis"},"federalState":{"key":"09","name":"Bayern"}},{"name":"Carl-Zeiss-Str.","postalCode":"89231","locality":"Neu-Ulm","municipality":{"key":"09775135","name":"Neu-Ulm, GKSt","type":"Große_Kreisstadt"},"district":{"key":"09775","name":"Neu-Ulm","type":"Landkreis"},"federalState":{"key":"09","name":"Bayern"}},{"name":"Clara-Barton-Str.","postalCode":"89231","locality":"Neu-Ulm","municipality":{"key":"09775135","name":"Neu-Ulm, GKSt","type":"Große_Kreisstadt"},"district":{"key":"09775","name":"Neu-Ulm","type":"Landkreis"},"federalState":{"key":"09","name":"Bayern"}},{"name":"Clemens-Högg-Weg","postalCode":"89233","locality":"Neu-Ulm","municipality":{"key":"09775135","name":"Neu-Ulm, GKSt","type":"Große_Kreisstadt"},"district":{"key":"09775","name":"Neu-Ulm","type":"Landkreis"},"federalState":{"key":"09","name":"Bayern"}},{"name":"Danziger Str.","postalCode":"89287","locality":"Bellenberg","municipality":{"key":"09775115","name":"Bellenberg","type":"Kreisangehörige_Gemeinde"},"district":{"key":"09775","name":"Neu-Ulm","type":"Landkreis"},"federalState":{"key":"09","name":"Bayern"}},{"name":"Dresdener Str.","postalCode":"89287","locality":"Bellenberg","municipality":{"key":"09775115","name":"Bellenberg","type":"Kreisangehörige_Gemeinde"},"district":{"key":"09775","name":"Neu-Ulm","type":"Landkreis"},"federalState":{"key":"09","name":"Bayern"}},{"name":"Drosselweg","postalCode":"89287","locality":"Bellenberg","municipality":{"key":"09775115","name":"Bellenberg","type":"Kreisangehörige_Gemeinde"},"district":{"key":"09775","name":"Neu-Ulm","type":"Landkreis"},"federalState":{"key":"09","name":"Bayern"}},{"name":"Egerstr.","postalCode":"89287","locality":"Bellenberg","municipality":{"key":"09775115","name":"Bellenberg","type":"Kreisangehörige_Gemeinde"},"district":{"key":"09775","name":"Neu-Ulm","type":"Landkreis"},"federalState":{"key":"09","name":"Bayern"}},{"name":"Ellerbachstr.","postalCode":"89287","locality":"Bellenberg","municipality":{"key":"09775115","name":"Bellenberg","type":"Kreisangehörige_Gemeinde"},"district":{"key":"09775","name":"Neu-Ulm","type":"Landkreis"},"federalState":{"key":"09","name":"Bayern"}},{"name":"Erlenweg","postalCode":"89287","locality":"Bellenberg","municipality":{"key":"09775115","name":"Bellenberg","type":"Kreisangehörige_Gemeinde"},"district":{"key":"09775","name":"Neu-Ulm","type":"Landkreis"},"federalState":{"key":"09","name":"Bayern"}},{"name":"Fährweg","postalCode":"89287","locality":"Bellenberg","municipality":{"key":"09775115","name":"Bellenberg","type":"Kreisangehörige_Gemeinde"},"district":{"key":"09775","name":"Neu-Ulm","type":"Landkreis"},"federalState":{"key":"09","name":"Bayern"}},{"name":"Falkenstr.","postalCode":"89287","locality":"Bellenberg","municipality":{"key":"09775115","name":"Bellenberg","type":"Kreisangehörige_Gemeinde"},"district":{"key":"09775","name":"Neu-Ulm","type":"Landkreis"},"federalState":{"key":"09","name":"Bayern"}},{"name":"Finkenweg","postalCode":"89287","locality":"Bellenberg","municipality":{"key":"09775115","name":"Bellenberg","type":"Kreisangehörige_Gemeinde"},"district":{"key":"09775","name":"Neu-Ulm","type":"Landkreis"},"federalState":{"key":"09","name":"Bayern"}},{"name":"Fischäcker","postalCode":"89287","locality":"Bellenberg","municipality":{"key":"09775115","name":"Bellenberg","type":"Kreisangehörige_Gemeinde"},"district":{"key":"09775","name":"Neu-Ulm","type":"Landkreis"},"federalState":{"key":"09","name":"Bayern"}},{"name":"Flurstr.","postalCode":"89287","locality":"Bellenberg","municipality":{"key":"09775115","name":"Bellenberg","type":"Kreisangehörige_Gemeinde"},"district":{"key":"09775","name":"Neu-Ulm","type":"Landkreis"},"federalState":{"key":"09","name":"Bayern"}},{"name":"Freibergstr.","postalCode":"89287","locality":"Bellenberg","municipality":{"key":"09775115","name":"Bellenberg","type":"Kreisangehörige_Gemeinde"},"district":{"key":"09775","name":"Neu-Ulm","type":"Landkreis"},"federalState":{"key":"09","name":"Bayern"}},{"name":"Friedlandweg","postalCode":"89287","locality":"Bellenberg","municipality":{"key":"09775115","name":"Bellenberg","type":"Kreisangehörige_Gemeinde"},"district":{"key":"09775","name":"Neu-Ulm","type":"Landkreis"},"federalState":{"key":"09","name":"Bayern"}},{"name":"Gablonzer Weg","postalCode":"89287","locality":"Bellenberg","municipality":{"key":"09775115","name":"Bellenberg","type":"Kreisangehörige_Gemeinde"},"district":{"key":"09775","name":"Neu-Ulm","type":"Landkreis"},"federalState":{"key":"09","name":"Bayern"}},{"name":"Gartenstr.","postalCode":"89287","locality":"Bellenberg","municipality":{"key":"09775115","name":"Bellenberg","type":"Kreisangehörige_Gemeinde"},"district":{"key":"09775","name":"Neu-Ulm","type":"Landkreis"},"federalState":{"key":"09","name":"Bayern"}},{"name":"Grieshofweg","postalCode":"89287","locality":"Bellenberg","municipality":{"key":"09775115","name":"Bellenberg","type":"Kreisangehörige_Gemeinde"},"district":{"key":"09775","name":"Neu-Ulm","type":"Landkreis"},"federalState":{"key":"09","name":"Bayern"}},{"name":"Guido-Oberdorfer-Str.","postalCode":"89287","locality":"Bellenberg","municipality":{"key":"09775115","name":"Bellenberg","type":"Kreisangehörige_Gemeinde"},"district":{"key":"09775","name":"Neu-Ulm","type":"Landkreis"},"federalState":{"key":"09","name":"Bayern"}},{"name":"Hirtenweg","postalCode":"89287","locality":"Bellenberg","municipality":{"key":"09775115","name":"Bellenberg","type":"Kreisangehörige_Gemeinde"},"district":{"key":"09775","name":"Neu-Ulm","type":"Landkreis"},"federalState":{"key":"09","name":"Bayern"}},{"name":"Hoher Graben","postalCode":"89287","locality":"Bellenberg","municipality":{"key":"09775115","name":"Bellenberg","type":"Kreisangehörige_Gemeinde"},"district":{"key":"09775","name":"Neu-Ulm","type":"Landkreis"},"federalState":{"key":"09","name":"Bayern"}},{"name":"Illerstr.","postalCode":"89287","locality":"Bellenberg","municipality":{"key":"09775115","name":"Bellenberg","type":"Kreisangehörige_Gemeinde"},"district":{"key":"09775","name":"Neu-Ulm","type":"Landkreis"},"federalState":{"key":"09","name":"Bayern"}},{"name":"Illertaltangente","postalCode":"89287","locality":"Bellenberg","municipality":{"key":"09775115","name":"Bellenberg","type":"Kreisangehörige_Gemeinde"},"district":{"key":"09775","name":"Neu-Ulm","type":"Landkreis"},"federalState":{"key":"09","name":"Bayern"}},{"name":"Im Brühl","postalCode":"89287","locality":"Bellenberg","municipality":{"key":"09775115","name":"Bellenberg","type":"Kreisangehörige_Gemeinde"},"district":{"key":"09775","name":"Neu-Ulm","type":"Landkreis"},"federalState":{"key":"09","name":"Bayern"}},{"name":"Im Thal","postalCode":"89287","locality":"Bellenberg","municipality":{"key":"09775115","name":"Bellenberg","type":"Kreisangehörige_Gemeinde"},"district":{"key":"09775","name":"Neu-Ulm","type":"Landkreis"},"federalState":{"key":"09","name":"Bayern"}},{"name":"Josef-Roth-Str.","postalCode":"89287","locality":"Bellenberg","municipality":{"key":"09775115","name":"Bellenberg","type":"Kreisangehörige_Gemeinde"},"district":{"key":"09775","name":"Neu-Ulm","type":"Landkreis"},"federalState":{"key":"09","name":"Bayern"}},{"name":"Karlsbader Str.","postalCode":"89287","locality":"Bellenberg","municipality":{"key":"09775115","name":"Bellenberg","type":"Kreisangehörige_Gemeinde"},"district":{"key":"09775","name":"Neu-Ulm","type":"Landkreis"},"federalState":{"key":"09","name":"Bayern"}},{"name":"Kirchplatz","postalCode":"89287","locality":"Bellenberg","municipality":{"key":"09775115","name":"Bellenberg","type":"Kreisangehörige_Gemeinde"},"district":{"key":"09775","name":"Neu-Ulm","type":"Landkreis"},"federalState":{"key":"09","name":"Bayern"}},{"name":"Königsberger Str.","postalCode":"89287","locality":"Bellenberg","municipality":{"key":"09775115","name":"Bellenberg","type":"Kreisangehörige_Gemeinde"},"district":{"key":"09775","name":"Neu-Ulm","type":"Landkreis"},"federalState":{"key":"09","name":"Bayern"}},{"name":"Krautgartenweg","postalCode":"89287","locality":"Bellenberg","municipality":{"key":"09775115","name":"Bellenberg","type":"Kreisangehörige_Gemeinde"},"district":{"key":"09775","name":"Neu-Ulm","type":"Landkreis"},"federalState":{"key":"09","name":"Bayern"}},{"name":"Leipziger Str.","postalCode":"89287","locality":"Bellenberg","municipality":{"key":"09775115","name":"Bellenberg","type":"Kreisangehörige_Gemeinde"},"district":{"key":"09775","name":"Neu-Ulm","type":"Landkreis"},"federalState":{"key":"09","name":"Bayern"}},{"name":"Lerchenweg","postalCode":"89287","locality":"Bellenberg","municipality":{"key":"09775115","name":"Bellenberg","type":"Kreisangehörige_Gemeinde"},"district":{"key":"09775","name":"Neu-Ulm","type":"Landkreis"},"federalState":{"key":"09","name":"Bayern"}},{"name":"Lindenweg","postalCode":"89287","locality":"Bellenberg","municipality":{"key":"09775115","name":"Bellenberg","type":"Kreisangehörige_Gemeinde"},"district":{"key":"09775","name":"Neu-Ulm","type":"Landkreis"},"federalState":{"key":"09","name":"Bayern"}},{"name":"Marienbader Str.","postalCode":"89287","locality":"Bellenberg","municipality":{"key":"09775115","name":"Bellenberg","type":"Kreisangehörige_Gemeinde"},"district":{"key":"09775","name":"Neu-Ulm","type":"Landkreis"},"federalState":{"key":"09","name":"Bayern"}},{"name":"Memminger Str.","postalCode":"89287","locality":"Bellenberg","municipality":{"key":"09775115","name":"Bellenberg","type":"Kreisangehörige_Gemeinde"},"district":{"key":"09775","name":"Neu-Ulm","type":"Landkreis"},"federalState":{"key":"09","name":"Bayern"}},{"name":"Mühlenweg","postalCode":"89287","locality":"Bellenberg","municipality":{"key":"09775115","name":"Bellenberg","type":"Kreisangehörige_Gemeinde"},"district":{"key":"09775","name":"Neu-Ulm","type":"Landkreis"},"federalState":{"key":"09","name":"Bayern"}},{"name":"Narzissenweg","postalCode":"89233","locality":"Neu-Ulm","municipality":{"key":"09775135","name":"Neu-Ulm, GKSt","type":"Große_Kreisstadt"},"district":{"key":"09775","name":"Neu-Ulm","type":"Landkreis"},"federalState":{"key":"09","name":"Bayern"}},{"name":"Nebelhornweg","postalCode":"89231","locality":"Neu-Ulm","municipality":{"key":"09775135","name":"Neu-Ulm, GKSt","type":"Große_Kreisstadt"},"district":{"key":"09775","name":"Neu-Ulm","type":"Landkreis"},"federalState":{"key":"09","name":"Bayern"}},{"name":"Nebengasse","postalCode":"89231","locality":"Neu-Ulm","municipality":{"key":"09775135","name":"Neu-Ulm, GKSt","type":"Große_Kreisstadt"},"district":{"key":"09775","name":"Neu-Ulm","type":"Landkreis"},"federalState":{"key":"09","name":"Bayern"}},{"name":"Nelkenweg","postalCode":"89233","locality":"Neu-Ulm","municipality":{"key":"09775135","name":"Neu-Ulm, GKSt","type":"Große_Kreisstadt"},"district":{"key":"09775","name":"Neu-Ulm","type":"Landkreis"},"federalState":{"key":"09","name":"Bayern"}},{"name":"Nelsonallee","postalCode":"89231","locality":"Neu-Ulm","municipality":{"key":"09775135","name":"Neu-Ulm, GKSt","type":"Große_Kreisstadt"},"district":{"key":"09775","name":"Neu-Ulm","type":"Landkreis"},"federalState":{"key":"09","name":"Bayern"}},{"name":"Neue Gasse","postalCode":"89231","locality":"Neu-Ulm","municipality":{"key":"09775135","name":"Neu-Ulm, GKSt","type":"Große_Kreisstadt"},"district":{"key":"09775","name":"Neu-Ulm","type":"Landkreis"},"federalState":{"key":"09","name":"Bayern"}},{"name":"Neuhauser Str.","postalCode":"89233","locality":"Neu-Ulm","municipality":{"key":"09775135","name":"Neu-Ulm, GKSt","type":"Große_Kreisstadt"},"district":{"key":"09775","name":"Neu-Ulm","type":"Landkreis"},"federalState":{"key":"09","name":"Bayern"}},{"name":"Neu-Ulmer Str.","postalCode":"89233","locality":"Neu-Ulm","municipality":{"key":"09775135","name":"Neu-Ulm, GKSt","type":"Große_Kreisstadt"},"district":{"key":"09775","name":"Neu-Ulm","type":"Landkreis"},"federalState":{"key":"09","name":"Bayern"}},{"name":"Normanenstr.","postalCode":"89233","locality":"Neu-Ulm","municipality":{"key":"09775135","name":"Neu-Ulm, GKSt","type":"Große_Kreisstadt"},"district":{"key":"09775","name":"Neu-Ulm","type":"Landkreis"},"federalState":{"key":"09","name":"Bayern"}},{"name":"Obstwiese","postalCode":"89287","locality":"Bellenberg","municipality":{"key":"09775115","name":"Bellenberg","type":"Kreisangehörige_Gemeinde"},"district":{"key":"09775","name":"Neu-Ulm","type":"Landkreis"},"federalState":{"key":"09","name":"Bayern"}},{"name":"Olmützer Str.","postalCode":"89287","locality":"Bellenberg","municipality":{"key":"09775115","name":"Bellenberg","type":"Kreisangehörige_Gemeinde"},"district":{"key":"09775","name":"Neu-Ulm","type":"Landkreis"},"federalState":{"key":"09","name":"Bayern"}},{"name":"Ortsmitte","postalCode":"89287","locality":"Bellenberg","municipality":{"key":"09775115","name":"Bellenberg","type":"Kreisangehörige_Gemeinde"},"district":{"key":"09775","name":"Neu-Ulm","type":"Landkreis"},"federalState":{"key":"09","name":"Bayern"}},{"name":"Pappenheimstr.","postalCode":"89287","locality":"Bellenberg","municipality":{"key":"09775115","name":"Bellenberg","type":"Kreisangehörige_Gemeinde"},"district":{"key":"09775","name":"Neu-Ulm","type":"Landkreis"},"federalState":{"key":"09","name":"Bayern"}},{"name":"Pfarrer-Hölch-Str.","postalCode":"89287","locality":"Bellenberg","municipality":{"key":"09775115","name":"Bellenberg","type":"Kreisangehörige_Gemeinde"},"district":{"key":"09775","name":"Neu-Ulm","type":"Landkreis"},"federalState":{"key":"09","name":"Bayern"}},{"name":"Rechbergstr.","postalCode":"89287","locality":"Bellenberg","municipality":{"key":"09775115","name":"Bellenberg","type":"Kreisangehörige_Gemeinde"},"district":{"key":"09775","name":"Neu-Ulm","type":"Landkreis"},"federalState":{"key":"09","name":"Bayern"}},{"name":"Reichenberger Str.","postalCode":"89287","locality":"Bellenberg","municipality":{"key":"09775115","name":"Bellenberg","type":"Kreisangehörige_Gemeinde"},"district":{"key":"09775","name":"Neu-Ulm","type":"Landkreis"},"federalState":{"key":"09","name":"Bayern"}},{"name":"Reiherstr.","postalCode":"89287","locality":"Bellenberg","municipality":{"key":"09775115","name":"Bellenberg","type":"Kreisangehörige_Gemeinde"},"district":{"key":"09775","name":"Neu-Ulm","type":"Landkreis"},"federalState":{"key":"09","name":"Bayern"}},{"name":"Römerhalde","postalCode":"89287","locality":"Bellenberg","municipality":{"key":"09775115","name":"Bellenberg","type":"Kreisangehörige_Gemeinde"},"district":{"key":"09775","name":"Neu-Ulm","type":"Landkreis"},"federalState":{"key":"09","name":"Bayern"}},{"name":"Schlesier Weg","postalCode":"89287","locality":"Bellenberg","municipality":{"key":"09775115","name":"Bellenberg","type":"Kreisangehörige_Gemeinde"},"district":{"key":"09775","name":"Neu-Ulm","type":"Landkreis"},"federalState":{"key":"09","name":"Bayern"}},{"name":"Schöneberger Str.","postalCode":"89287","locality":"Bellenberg","municipality":{"key":"09775115","name":"Bellenberg","type":"Kreisangehörige_Gemeinde"},"district":{"key":"09775","name":"Neu-Ulm","type":"Landkreis"},"federalState":{"key":"09","name":"Bayern"}},{"name":"Schulstr.","postalCode":"89287","locality":"Bellenberg","municipality":{"key":"09775115","name":"Bellenberg","type":"Kreisangehörige_Gemeinde"},"district":{"key":"09775","name":"Neu-Ulm","type":"Landkreis"},"federalState":{"key":"09","name":"Bayern"}},{"name":"Schwabenstr.","postalCode":"89287","locality":"Bellenberg","municipality":{"key":"09775115","name":"Bellenberg","type":"Kreisangehörige_Gemeinde"},"district":{"key":"09775","name":"Neu-Ulm","type":"Landkreis"},"federalState":{"key":"09","name":"Bayern"}},{"name":"Siebenbrunnen","postalCode":"89287","locality":"Bellenberg","municipality":{"key":"09775115","name":"Bellenberg","type":"Kreisangehörige_Gemeinde"},"district":{"key":"09775","name":"Neu-Ulm","type":"Landkreis"},"federalState":{"key":"09","name":"Bayern"}},{"name":"Silcherweg","postalCode":"89287","locality":"Bellenberg","municipality":{"key":"09775115","name":"Bellenberg","type":"Kreisangehörige_Gemeinde"},"district":{"key":"09775","name":"Neu-Ulm","type":"Landkreis"},"federalState":{"key":"09","name":"Bayern"}},{"name":"Sportanlage","postalCode":"89287","locality":"Bellenberg","municipality":{"key":"09775115","name":"Bellenberg","type":"Kreisangehörige_Gemeinde"},"district":{"key":"09775","name":"Neu-Ulm","type":"Landkreis"},"federalState":{"key":"09","name":"Bayern"}},{"name":"Stettiner Weg","postalCode":"89287","locality":"Bellenberg","municipality":{"key":"09775115","name":"Bellenberg","type":"Kreisangehörige_Gemeinde"},"district":{"key":"09775","name":"Neu-Ulm","type":"Landkreis"},"federalState":{"key":"09","name":"Bayern"}},{"name":"Stiftsweg","postalCode":"89287","locality":"Bellenberg","municipality":{"key":"09775115","name":"Bellenberg","type":"Kreisangehörige_Gemeinde"},"district":{"key":"09775","name":"Neu-Ulm","type":"Landkreis"},"federalState":{"key":"09","name":"Bayern"}},{"name":"Tepler Weg","postalCode":"89287","locality":"Bellenberg","municipality":{"key":"09775115","name":"Bellenberg","type":"Kreisangehörige_Gemeinde"},"district":{"key":"09775","name":"Neu-Ulm","type":"Landkreis"},"federalState":{"key":"09","name":"Bayern"}},{"name":"Tiefenbacher Str.","postalCode":"89287","locality":"Bellenberg","municipality":{"key":"09775115","name":"Bellenberg","type":"Kreisangehörige_Gemeinde"},"district":{"key":"09775","name":"Neu-Ulm","type":"Landkreis"},"federalState":{"key":"09","name":"Bayern"}},{"name":"Treuliebstr.","postalCode":"89287","locality":"Bellenberg","municipality":{"key":"09775115","name":"Bellenberg","type":"Kreisangehörige_Gemeinde"},"district":{"key":"09775","name":"Neu-Ulm","type":"Landkreis"},"federalState":{"key":"09","name":"Bayern"}},{"name":"Troppauer Str.","postalCode":"89287","locality":"Bellenberg","municipality":{"key":"09775115","name":"Bellenberg","type":"Kreisangehörige_Gemeinde"},"district":{"key":"09775","name":"Neu-Ulm","type":"Landkreis"},"federalState":{"key":"09","name":"Bayern"}},{"name":"Ulmenweg","postalCode":"89287","locality":"Bellenberg","municipality":{"key":"09775115","name":"Bellenberg","type":"Kreisangehörige_Gemeinde"},"district":{"key":"09775","name":"Neu-Ulm","type":"Landkreis"},"federalState":{"key":"09","name":"Bayern"}},{"name":"Ulmer Str.","postalCode":"89287","locality":"Bellenberg","municipality":{"key":"09775115","name":"Bellenberg","type":"Kreisangehörige_Gemeinde"},"district":{"key":"09775","name":"Neu-Ulm","type":"Landkreis"},"federalState":{"key":"09","name":"Bayern"}},{"name":"Vöhringer Str.","postalCode":"89287","locality":"Bellenberg","municipality":{"key":"09775115","name":"Bellenberg","type":"Kreisangehörige_Gemeinde"},"district":{"key":"09775","name":"Neu-Ulm","type":"Landkreis"},"federalState":{"key":"09","name":"Bayern"}},{"name":"Welserstr.","postalCode":"89287","locality":"Bellenberg","municipality":{"key":"09775115","name":"Bellenberg","type":"Kreisangehörige_Gemeinde"},"district":{"key":"09775","name":"Neu-Ulm","type":"Landkreis"},"federalState":{"key":"09","name":"Bayern"}},{"name":"Werkstr.","postalCode":"89287","locality":"Bellenberg","municipality":{"key":"09775115","name":"Bellenberg","type":"Kreisangehörige_Gemeinde"},"district":{"key":"09775","name":"Neu-Ulm","type":"Landkreis"},"federalState":{"key":"09","name":"Bayern"}},{"name":"Xaver-Lochbrunner-Str.","postalCode":"89233","locality":"Neu-Ulm","municipality":{"key":"09775135","name":"Neu-Ulm, GKSt","type":"Große_Kreisstadt"},"district":{"key":"09775","name":"Neu-Ulm","type":"Landkreis"},"federalState":{"key":"09","name":"Bayern"}},{"name":"Ziegeleistr.","postalCode":"89287","locality":"Bellenberg","municipality":{"key":"09775115","name":"Bellenberg","type":"Kreisangehörige_Gemeinde"},"district":{"key":"09775","name":"Neu-Ulm","type":"Landkreis"},"federalState":{"key":"09","name":"Bayern"}},{"name":"Zum Weiherle","postalCode":"89287","locality":"Bellenberg","municipality":{"key":"09775115","name":"Bellenberg","type":"Kreisangehörige_Gemeinde"},"district":{"key":"09775","name":"Neu-Ulm","type":"Landkreis"},"federalState":{"key":"09","name":"Bayern"}},{"name":"Zur Biberau","postalCode":"89287","locality":"Bellenberg","municipality":{"key":"09775115","name":"Bellenberg","type":"Kreisangehörige_Gemeinde"},"district":{"key":"09775","name":"Neu-Ulm","type":"Landkreis"},"federalState":{"key":"09","name":"Bayern"}},{"name":"Zur Hammerschmiede","postalCode":"89287","locality":"Bellenberg","municipality":{"key":"09775115","name":"Bellenberg","type":"Kreisangehörige_Gemeinde"},"district":{"key":"09775","name":"Neu-Ulm","type":"Landkreis"},"federalState":{"key":"09","name":"Bayern"}},{"name":"Zur Illerau","postalCode":"89287","locality":"Bellenberg","municipality":{"key":"09775115","name":"Bellenberg","type":"Kreisangehörige_Gemeinde"},"district":{"key":"09775","name":"Neu-Ulm","type":"Landkreis"},"federalState":{"key":"09","name":"Bayern"}},{"name":"Zur Säge","postalCode":"89287","locality":"Bellenberg","municipality":{"key":"09775115","name":"Bellenberg","type":"Kreisangehörige_Gemeinde"},"district":{"key":"09775","name":"Neu-Ulm","type":"Landkreis"},"federalState":{"key":"09","name":"Bayern"}},{"name":"Öschweg","postalCode":"89231","locality":"Neu-Ulm","municipality":{"key":"09775135","name":"Neu-Ulm, GKSt","type":"Große_Kreisstadt"},"district":{"key":"09775","name":"Neu-Ulm","type":"Landkreis"},"federalState":{"key":"09","name":"Bayern"}},]