[{"name":"Alemannenstr.","postalCode":"85116","locality":"Egweil","municipality":{"key":"09176122","name":"Egweil","type":"Kreisangehörige_Gemeinde"},"district":{"key":"09176","name":"Eichstätt","type":"Landkreis"},"federalState":{"key":"09","name":"Bayern"}},{"name":"Am Mauret","postalCode":"85116","locality":"Egweil","municipality":{"key":"09176122","name":"Egweil","type":"Kreisangehörige_Gemeinde"},"district":{"key":"09176","name":"Eichstätt","type":"Landkreis"},"federalState":{"key":"09","name":"Bayern"}},{"name":"Am Riegel","postalCode":"85116","locality":"Egweil","municipality":{"key":"09176122","name":"Egweil","type":"Kreisangehörige_Gemeinde"},"district":{"key":"09176","name":"Eichstätt","type":"Landkreis"},"federalState":{"key":"09","name":"Bayern"}},{"name":"Angerweg","postalCode":"85116","locality":"Egweil","municipality":{"key":"09176122","name":"Egweil","type":"Kreisangehörige_Gemeinde"},"district":{"key":"09176","name":"Eichstätt","type":"Landkreis"},"federalState":{"key":"09","name":"Bayern"}},{"name":"Attenfelder Weg","postalCode":"85116","locality":"Egweil","municipality":{"key":"09176122","name":"Egweil","type":"Kreisangehörige_Gemeinde"},"district":{"key":"09176","name":"Eichstätt","type":"Landkreis"},"federalState":{"key":"09","name":"Bayern"}},{"name":"Bachweg","postalCode":"85072","locality":"Eichstätt","municipality":{"key":"09176123","name":"Eichstätt, GKSt","type":"Große_Kreisstadt"},"district":{"key":"09176","name":"Eichstätt","type":"Landkreis"},"federalState":{"key":"09","name":"Bayern"}},{"name":"Badsteg","postalCode":"85072","locality":"Eichstätt","municipality":{"key":"09176123","name":"Eichstätt, GKSt","type":"Große_Kreisstadt"},"district":{"key":"09176","name":"Eichstätt","type":"Landkreis"},"federalState":{"key":"09","name":"Bayern"}},{"name":"Bahnhofplatz","postalCode":"85072","locality":"Eichstätt","municipality":{"key":"09176123","name":"Eichstätt, GKSt","type":"Große_Kreisstadt"},"district":{"key":"09176","name":"Eichstätt","type":"Landkreis"},"federalState":{"key":"09","name":"Bayern"}},{"name":"Benedicta-von-Spiegel-Str.","postalCode":"85072","locality":"Eichstätt","municipality":{"key":"09176123","name":"Eichstätt, GKSt","type":"Große_Kreisstadt"},"district":{"key":"09176","name":"Eichstätt","type":"Landkreis"},"federalState":{"key":"09","name":"Bayern"}},{"name":"Birkenweg","postalCode":"85072","locality":"Eichstätt","municipality":{"key":"09176123","name":"Eichstätt, GKSt","type":"Große_Kreisstadt"},"district":{"key":"09176","name":"Eichstätt","type":"Landkreis"},"federalState":{"key":"09","name":"Bayern"}},{"name":"Blumenberger Str.","postalCode":"85072","locality":"Eichstätt","municipality":{"key":"09176123","name":"Eichstätt, GKSt","type":"Große_Kreisstadt"},"district":{"key":"09176","name":"Eichstätt","type":"Landkreis"},"federalState":{"key":"09","name":"Bayern"}},{"name":"Breitenauerstr.","postalCode":"85072","locality":"Eichstätt","municipality":{"key":"09176123","name":"Eichstätt, GKSt","type":"Große_Kreisstadt"},"district":{"key":"09176","name":"Eichstätt","type":"Landkreis"},"federalState":{"key":"09","name":"Bayern"}},{"name":"Brückenstr.","postalCode":"85072","locality":"Eichstätt","municipality":{"key":"09176123","name":"Eichstätt, GKSt","type":"Große_Kreisstadt"},"district":{"key":"09176","name":"Eichstätt","type":"Landkreis"},"federalState":{"key":"09","name":"Bayern"}},{"name":"Bruder-Egdon-Str.","postalCode":"85072","locality":"Eichstätt","municipality":{"key":"09176123","name":"Eichstätt, GKSt","type":"Große_Kreisstadt"},"district":{"key":"09176","name":"Eichstätt","type":"Landkreis"},"federalState":{"key":"09","name":"Bayern"}},{"name":"Buchenhüll","postalCode":"85072","locality":"Eichstätt","municipality":{"key":"09176123","name":"Eichstätt, GKSt","type":"Große_Kreisstadt"},"district":{"key":"09176","name":"Eichstätt","type":"Landkreis"},"federalState":{"key":"09","name":"Bayern"}},{"name":"Buchtal","postalCode":"85072","locality":"Eichstätt","municipality":{"key":"09176123","name":"Eichstätt, GKSt","type":"Große_Kreisstadt"},"district":{"key":"09176","name":"Eichstätt","type":"Landkreis"},"federalState":{"key":"09","name":"Bayern"}},{"name":"Burgstr.","postalCode":"85072","locality":"Eichstätt","municipality":{"key":"09176123","name":"Eichstätt, GKSt","type":"Große_Kreisstadt"},"district":{"key":"09176","name":"Eichstätt","type":"Landkreis"},"federalState":{"key":"09","name":"Bayern"}},{"name":"Büttelgasse","postalCode":"85072","locality":"Eichstätt","municipality":{"key":"09176123","name":"Eichstätt, GKSt","type":"Große_Kreisstadt"},"district":{"key":"09176","name":"Eichstätt","type":"Landkreis"},"federalState":{"key":"09","name":"Bayern"}},{"name":"Castellweg","postalCode":"85072","locality":"Eichstätt","municipality":{"key":"09176123","name":"Eichstätt, GKSt","type":"Große_Kreisstadt"},"district":{"key":"09176","name":"Eichstätt","type":"Landkreis"},"federalState":{"key":"09","name":"Bayern"}},{"name":"Christian-Wink-Str.","postalCode":"85072","locality":"Eichstätt","municipality":{"key":"09176123","name":"Eichstätt, GKSt","type":"Große_Kreisstadt"},"district":{"key":"09176","name":"Eichstätt","type":"Landkreis"},"federalState":{"key":"09","name":"Bayern"}},{"name":"Christoph-Willibald-Gluck-Weg","postalCode":"85072","locality":"Eichstätt","municipality":{"key":"09176123","name":"Eichstätt, GKSt","type":"Große_Kreisstadt"},"district":{"key":"09176","name":"Eichstätt","type":"Landkreis"},"federalState":{"key":"09","name":"Bayern"}},{"name":"Clara-Staiger-Str.","postalCode":"85072","locality":"Eichstätt","municipality":{"key":"09176123","name":"Eichstätt, GKSt","type":"Große_Kreisstadt"},"district":{"key":"09176","name":"Eichstätt","type":"Landkreis"},"federalState":{"key":"09","name":"Bayern"}},{"name":"Dominikanergasse","postalCode":"85072","locality":"Eichstätt","municipality":{"key":"09176123","name":"Eichstätt, GKSt","type":"Große_Kreisstadt"},"district":{"key":"09176","name":"Eichstätt","type":"Landkreis"},"federalState":{"key":"09","name":"Bayern"}},{"name":"Domplatz","postalCode":"85072","locality":"Eichstätt","municipality":{"key":"09176123","name":"Eichstätt, GKSt","type":"Große_Kreisstadt"},"district":{"key":"09176","name":"Eichstätt","type":"Landkreis"},"federalState":{"key":"09","name":"Bayern"}},{"name":"Dr.-Hans-Hutter-Str.","postalCode":"85072","locality":"Eichstätt","municipality":{"key":"09176123","name":"Eichstätt, GKSt","type":"Große_Kreisstadt"},"district":{"key":"09176","name":"Eichstätt","type":"Landkreis"},"federalState":{"key":"09","name":"Bayern"}},{"name":"Eichstätter Str.","postalCode":"85116","locality":"Egweil","municipality":{"key":"09176122","name":"Egweil","type":"Kreisangehörige_Gemeinde"},"district":{"key":"09176","name":"Eichstätt","type":"Landkreis"},"federalState":{"key":"09","name":"Bayern"}},{"name":"Figurenweg","postalCode":"85072","locality":"Eichstätt","municipality":{"key":"09176123","name":"Eichstätt, GKSt","type":"Große_Kreisstadt"},"district":{"key":"09176","name":"Eichstätt","type":"Landkreis"},"federalState":{"key":"09","name":"Bayern"}},{"name":"Fischerbuck","postalCode":"85072","locality":"Eichstätt","municipality":{"key":"09176123","name":"Eichstätt, GKSt","type":"Große_Kreisstadt"},"district":{"key":"09176","name":"Eichstätt","type":"Landkreis"},"federalState":{"key":"09","name":"Bayern"}},{"name":"Fischergasse","postalCode":"85072","locality":"Eichstätt","municipality":{"key":"09176123","name":"Eichstätt, GKSt","type":"Große_Kreisstadt"},"district":{"key":"09176","name":"Eichstätt","type":"Landkreis"},"federalState":{"key":"09","name":"Bayern"}},{"name":"Fossilienweg","postalCode":"85072","locality":"Eichstätt","municipality":{"key":"09176123","name":"Eichstätt, GKSt","type":"Große_Kreisstadt"},"district":{"key":"09176","name":"Eichstätt","type":"Landkreis"},"federalState":{"key":"09","name":"Bayern"}},{"name":"Franz-Liszt-Str.","postalCode":"85072","locality":"Eichstätt","municipality":{"key":"09176123","name":"Eichstätt, GKSt","type":"Große_Kreisstadt"},"district":{"key":"09176","name":"Eichstätt","type":"Landkreis"},"federalState":{"key":"09","name":"Bayern"}},{"name":"Frauenberg","postalCode":"85072","locality":"Eichstätt","municipality":{"key":"09176123","name":"Eichstätt, GKSt","type":"Große_Kreisstadt"},"district":{"key":"09176","name":"Eichstätt","type":"Landkreis"},"federalState":{"key":"09","name":"Bayern"}},{"name":"Freiwasser","postalCode":"85072","locality":"Eichstätt","municipality":{"key":"09176123","name":"Eichstätt, GKSt","type":"Große_Kreisstadt"},"district":{"key":"09176","name":"Eichstätt","type":"Landkreis"},"federalState":{"key":"09","name":"Bayern"}},{"name":"Friedhofgasse","postalCode":"85072","locality":"Eichstätt","municipality":{"key":"09176123","name":"Eichstätt, GKSt","type":"Große_Kreisstadt"},"district":{"key":"09176","name":"Eichstätt","type":"Landkreis"},"federalState":{"key":"09","name":"Bayern"}},{"name":"Fuchsbräugasse","postalCode":"85072","locality":"Eichstätt","municipality":{"key":"09176123","name":"Eichstätt, GKSt","type":"Große_Kreisstadt"},"district":{"key":"09176","name":"Eichstätt","type":"Landkreis"},"federalState":{"key":"09","name":"Bayern"}},{"name":"Gartenweg","postalCode":"85072","locality":"Eichstätt","municipality":{"key":"09176123","name":"Eichstätt, GKSt","type":"Große_Kreisstadt"},"district":{"key":"09176","name":"Eichstätt","type":"Landkreis"},"federalState":{"key":"09","name":"Bayern"}},{"name":"Gartenwiese","postalCode":"85072","locality":"Eichstätt","municipality":{"key":"09176123","name":"Eichstätt, GKSt","type":"Große_Kreisstadt"},"district":{"key":"09176","name":"Eichstätt","type":"Landkreis"},"federalState":{"key":"09","name":"Bayern"}},{"name":"Gemmingenstr.","postalCode":"85072","locality":"Eichstätt","municipality":{"key":"09176123","name":"Eichstätt, GKSt","type":"Große_Kreisstadt"},"district":{"key":"09176","name":"Eichstätt","type":"Landkreis"},"federalState":{"key":"09","name":"Bayern"}},{"name":"Gottesackergasse","postalCode":"85072","locality":"Eichstätt","municipality":{"key":"09176123","name":"Eichstätt, GKSt","type":"Große_Kreisstadt"},"district":{"key":"09176","name":"Eichstätt","type":"Landkreis"},"federalState":{"key":"09","name":"Bayern"}},{"name":"Grabmannstr.","postalCode":"85072","locality":"Eichstätt","municipality":{"key":"09176123","name":"Eichstätt, GKSt","type":"Große_Kreisstadt"},"district":{"key":"09176","name":"Eichstätt","type":"Landkreis"},"federalState":{"key":"09","name":"Bayern"}},{"name":"Gundekarstr.","postalCode":"85072","locality":"Eichstätt","municipality":{"key":"09176123","name":"Eichstätt, GKSt","type":"Große_Kreisstadt"},"district":{"key":"09176","name":"Eichstätt","type":"Landkreis"},"federalState":{"key":"09","name":"Bayern"}},{"name":"Hölzlerweg","postalCode":"85116","locality":"Egweil","municipality":{"key":"09176122","name":"Egweil","type":"Kreisangehörige_Gemeinde"},"district":{"key":"09176","name":"Eichstätt","type":"Landkreis"},"federalState":{"key":"09","name":"Bayern"}},{"name":"In der Siedlung","postalCode":"85116","locality":"Egweil","municipality":{"key":"09176122","name":"Egweil","type":"Kreisangehörige_Gemeinde"},"district":{"key":"09176","name":"Eichstätt","type":"Landkreis"},"federalState":{"key":"09","name":"Bayern"}},{"name":"Ingolstädter Str.","postalCode":"85116","locality":"Egweil","municipality":{"key":"09176122","name":"Egweil","type":"Kreisangehörige_Gemeinde"},"district":{"key":"09176","name":"Eichstätt","type":"Landkreis"},"federalState":{"key":"09","name":"Bayern"}},{"name":"Johannes-Kraus-Str.","postalCode":"85072","locality":"Eichstätt","municipality":{"key":"09176123","name":"Eichstätt, GKSt","type":"Große_Kreisstadt"},"district":{"key":"09176","name":"Eichstätt","type":"Landkreis"},"federalState":{"key":"09","name":"Bayern"}},{"name":"Johann-Herden-Weg","postalCode":"85072","locality":"Eichstätt","municipality":{"key":"09176123","name":"Eichstätt, GKSt","type":"Große_Kreisstadt"},"district":{"key":"09176","name":"Eichstätt","type":"Landkreis"},"federalState":{"key":"09","name":"Bayern"}},{"name":"Josef-Haas-Weg","postalCode":"85072","locality":"Eichstätt","municipality":{"key":"09176123","name":"Eichstätt, GKSt","type":"Große_Kreisstadt"},"district":{"key":"09176","name":"Eichstätt","type":"Landkreis"},"federalState":{"key":"09","name":"Bayern"}},{"name":"Josef-Kleber-Str.","postalCode":"85072","locality":"Eichstätt","municipality":{"key":"09176123","name":"Eichstätt, GKSt","type":"Große_Kreisstadt"},"district":{"key":"09176","name":"Eichstätt","type":"Landkreis"},"federalState":{"key":"09","name":"Bayern"}},{"name":"Kapellenring","postalCode":"85116","locality":"Egweil","municipality":{"key":"09176122","name":"Egweil","type":"Kreisangehörige_Gemeinde"},"district":{"key":"09176","name":"Eichstätt","type":"Landkreis"},"federalState":{"key":"09","name":"Bayern"}},{"name":"Keltenstr.","postalCode":"85116","locality":"Egweil","municipality":{"key":"09176122","name":"Egweil","type":"Kreisangehörige_Gemeinde"},"district":{"key":"09176","name":"Eichstätt","type":"Landkreis"},"federalState":{"key":"09","name":"Bayern"}},{"name":"Kirchweg","postalCode":"85116","locality":"Egweil","municipality":{"key":"09176122","name":"Egweil","type":"Kreisangehörige_Gemeinde"},"district":{"key":"09176","name":"Eichstätt","type":"Landkreis"},"federalState":{"key":"09","name":"Bayern"}},{"name":"Lämmertal","postalCode":"85072","locality":"Eichstätt","municipality":{"key":"09176123","name":"Eichstätt, GKSt","type":"Große_Kreisstadt"},"district":{"key":"09176","name":"Eichstätt","type":"Landkreis"},"federalState":{"key":"09","name":"Bayern"}},{"name":"Leonrodplatz","postalCode":"85072","locality":"Eichstätt","municipality":{"key":"09176123","name":"Eichstätt, GKSt","type":"Große_Kreisstadt"},"district":{"key":"09176","name":"Eichstätt","type":"Landkreis"},"federalState":{"key":"09","name":"Bayern"}},{"name":"Libellenweg","postalCode":"85072","locality":"Eichstätt","municipality":{"key":"09176123","name":"Eichstätt, GKSt","type":"Große_Kreisstadt"},"district":{"key":"09176","name":"Eichstätt","type":"Landkreis"},"federalState":{"key":"09","name":"Bayern"}},{"name":"Lindenallee","postalCode":"85072","locality":"Eichstätt","municipality":{"key":"09176123","name":"Eichstätt, GKSt","type":"Große_Kreisstadt"},"district":{"key":"09176","name":"Eichstätt","type":"Landkreis"},"federalState":{"key":"09","name":"Bayern"}},{"name":"Lindenstr.","postalCode":"85072","locality":"Eichstätt","municipality":{"key":"09176123","name":"Eichstätt, GKSt","type":"Große_Kreisstadt"},"district":{"key":"09176","name":"Eichstätt","type":"Landkreis"},"federalState":{"key":"09","name":"Bayern"}},{"name":"Ludwigweg","postalCode":"85072","locality":"Eichstätt","municipality":{"key":"09176123","name":"Eichstätt, GKSt","type":"Große_Kreisstadt"},"district":{"key":"09176","name":"Eichstätt","type":"Landkreis"},"federalState":{"key":"09","name":"Bayern"}},{"name":"Lüftenweg","postalCode":"85072","locality":"Eichstätt","municipality":{"key":"09176123","name":"Eichstätt, GKSt","type":"Große_Kreisstadt"},"district":{"key":"09176","name":"Eichstätt","type":"Landkreis"},"federalState":{"key":"09","name":"Bayern"}},{"name":"Luitpoldstr.","postalCode":"85072","locality":"Eichstätt","municipality":{"key":"09176123","name":"Eichstätt, GKSt","type":"Große_Kreisstadt"},"district":{"key":"09176","name":"Eichstätt","type":"Landkreis"},"federalState":{"key":"09","name":"Bayern"}},{"name":"Mühlberger Weg","postalCode":"85116","locality":"Egweil","municipality":{"key":"09176122","name":"Egweil","type":"Kreisangehörige_Gemeinde"},"district":{"key":"09176","name":"Eichstätt","type":"Landkreis"},"federalState":{"key":"09","name":"Bayern"}},{"name":"Notre-Dame-Weg","postalCode":"85072","locality":"Eichstätt","municipality":{"key":"09176123","name":"Eichstätt, GKSt","type":"Große_Kreisstadt"},"district":{"key":"09176","name":"Eichstätt","type":"Landkreis"},"federalState":{"key":"09","name":"Bayern"}},{"name":"Ochsenfelder Str.","postalCode":"85072","locality":"Eichstätt","municipality":{"key":"09176123","name":"Eichstätt, GKSt","type":"Große_Kreisstadt"},"district":{"key":"09176","name":"Eichstätt","type":"Landkreis"},"federalState":{"key":"09","name":"Bayern"}},{"name":"Oettingenstr.","postalCode":"85072","locality":"Eichstätt","municipality":{"key":"09176123","name":"Eichstätt, GKSt","type":"Große_Kreisstadt"},"district":{"key":"09176","name":"Eichstätt","type":"Landkreis"},"federalState":{"key":"09","name":"Bayern"}},{"name":"Osramweg","postalCode":"85072","locality":"Eichstätt","municipality":{"key":"09176123","name":"Eichstätt, GKSt","type":"Große_Kreisstadt"},"district":{"key":"09176","name":"Eichstätt","type":"Landkreis"},"federalState":{"key":"09","name":"Bayern"}},{"name":"Pappenbergerstr.","postalCode":"85072","locality":"Eichstätt","municipality":{"key":"09176123","name":"Eichstätt, GKSt","type":"Große_Kreisstadt"},"district":{"key":"09176","name":"Eichstätt","type":"Landkreis"},"federalState":{"key":"09","name":"Bayern"}},{"name":"Pappenheimer Passage","postalCode":"85072","locality":"Eichstätt","municipality":{"key":"09176123","name":"Eichstätt, GKSt","type":"Große_Kreisstadt"},"district":{"key":"09176","name":"Eichstätt","type":"Landkreis"},"federalState":{"key":"09","name":"Bayern"}},{"name":"Papst-Victor-Str.","postalCode":"85072","locality":"Eichstätt","municipality":{"key":"09176123","name":"Eichstätt, GKSt","type":"Große_Kreisstadt"},"district":{"key":"09176","name":"Eichstätt","type":"Landkreis"},"federalState":{"key":"09","name":"Bayern"}},{"name":"Parkhausstr.","postalCode":"85072","locality":"Eichstätt","municipality":{"key":"09176123","name":"Eichstätt, GKSt","type":"Große_Kreisstadt"},"district":{"key":"09176","name":"Eichstätt","type":"Landkreis"},"federalState":{"key":"09","name":"Bayern"}},{"name":"Pater-Hanne-Str.","postalCode":"85072","locality":"Eichstätt","municipality":{"key":"09176123","name":"Eichstätt, GKSt","type":"Große_Kreisstadt"},"district":{"key":"09176","name":"Eichstätt","type":"Landkreis"},"federalState":{"key":"09","name":"Bayern"}},{"name":"Pater-Ingbert-Naab-Str.","postalCode":"85072","locality":"Eichstätt","municipality":{"key":"09176123","name":"Eichstätt, GKSt","type":"Große_Kreisstadt"},"district":{"key":"09176","name":"Eichstätt","type":"Landkreis"},"federalState":{"key":"09","name":"Bayern"}},{"name":"Pater-Krottenthaler-Str.","postalCode":"85072","locality":"Eichstätt","municipality":{"key":"09176123","name":"Eichstätt, GKSt","type":"Große_Kreisstadt"},"district":{"key":"09176","name":"Eichstätt","type":"Landkreis"},"federalState":{"key":"09","name":"Bayern"}},{"name":"Pater-Marinus-Str.","postalCode":"85072","locality":"Eichstätt","municipality":{"key":"09176123","name":"Eichstätt, GKSt","type":"Große_Kreisstadt"},"district":{"key":"09176","name":"Eichstätt","type":"Landkreis"},"federalState":{"key":"09","name":"Bayern"}},{"name":"Pater-Moser-Str.","postalCode":"85072","locality":"Eichstätt","municipality":{"key":"09176123","name":"Eichstätt, GKSt","type":"Große_Kreisstadt"},"district":{"key":"09176","name":"Eichstätt","type":"Landkreis"},"federalState":{"key":"09","name":"Bayern"}},{"name":"Pater-Philipp-Jeningen-Platz","postalCode":"85072","locality":"Eichstätt","municipality":{"key":"09176123","name":"Eichstätt, GKSt","type":"Große_Kreisstadt"},"district":{"key":"09176","name":"Eichstätt","type":"Landkreis"},"federalState":{"key":"09","name":"Bayern"}},{"name":"Pedettistr.","postalCode":"85072","locality":"Eichstätt","municipality":{"key":"09176123","name":"Eichstätt, GKSt","type":"Große_Kreisstadt"},"district":{"key":"09176","name":"Eichstätt","type":"Landkreis"},"federalState":{"key":"09","name":"Bayern"}},{"name":"Petersleite","postalCode":"85072","locality":"Eichstätt","municipality":{"key":"09176123","name":"Eichstätt, GKSt","type":"Große_Kreisstadt"},"district":{"key":"09176","name":"Eichstätt","type":"Landkreis"},"federalState":{"key":"09","name":"Bayern"}},{"name":"Pfahlstr.","postalCode":"85072","locality":"Eichstätt","municipality":{"key":"09176123","name":"Eichstätt, GKSt","type":"Große_Kreisstadt"},"district":{"key":"09176","name":"Eichstätt","type":"Landkreis"},"federalState":{"key":"09","name":"Bayern"}},{"name":"Pflanzgarten","postalCode":"85072","locality":"Eichstätt","municipality":{"key":"09176123","name":"Eichstätt, GKSt","type":"Große_Kreisstadt"},"district":{"key":"09176","name":"Eichstätt","type":"Landkreis"},"federalState":{"key":"09","name":"Bayern"}},{"name":"Pfünzer Str.","postalCode":"85072","locality":"Eichstätt","municipality":{"key":"09176123","name":"Eichstätt, GKSt","type":"Große_Kreisstadt"},"district":{"key":"09176","name":"Eichstätt","type":"Landkreis"},"federalState":{"key":"09","name":"Bayern"}},{"name":"Pietenfelder Str.","postalCode":"85072","locality":"Eichstätt","municipality":{"key":"09176123","name":"Eichstätt, GKSt","type":"Große_Kreisstadt"},"district":{"key":"09176","name":"Eichstätt","type":"Landkreis"},"federalState":{"key":"09","name":"Bayern"}},{"name":"Pirkheimer Str.","postalCode":"85072","locality":"Eichstätt","municipality":{"key":"09176123","name":"Eichstätt, GKSt","type":"Große_Kreisstadt"},"district":{"key":"09176","name":"Eichstätt","type":"Landkreis"},"federalState":{"key":"09","name":"Bayern"}},{"name":"Professor-Mayr-Str.","postalCode":"85072","locality":"Eichstätt","municipality":{"key":"09176123","name":"Eichstätt, GKSt","type":"Große_Kreisstadt"},"district":{"key":"09176","name":"Eichstätt","type":"Landkreis"},"federalState":{"key":"09","name":"Bayern"}},{"name":"Retzbuck","postalCode":"85116","locality":"Egweil","municipality":{"key":"09176122","name":"Egweil","type":"Kreisangehörige_Gemeinde"},"district":{"key":"09176","name":"Eichstätt","type":"Landkreis"},"federalState":{"key":"09","name":"Bayern"}},{"name":"Römerstr.","postalCode":"85116","locality":"Egweil","municipality":{"key":"09176122","name":"Egweil","type":"Kreisangehörige_Gemeinde"},"district":{"key":"09176","name":"Eichstätt","type":"Landkreis"},"federalState":{"key":"09","name":"Bayern"}},{"name":"Schulweg","postalCode":"85116","locality":"Egweil","municipality":{"key":"09176122","name":"Egweil","type":"Kreisangehörige_Gemeinde"},"district":{"key":"09176","name":"Eichstätt","type":"Landkreis"},"federalState":{"key":"09","name":"Bayern"}},{"name":"Traubengäßchen","postalCode":"85072","locality":"Eichstätt","municipality":{"key":"09176123","name":"Eichstätt, GKSt","type":"Große_Kreisstadt"},"district":{"key":"09176","name":"Eichstätt","type":"Landkreis"},"federalState":{"key":"09","name":"Bayern"}},{"name":"Turmgasse","postalCode":"85072","locality":"Eichstätt","municipality":{"key":"09176123","name":"Eichstätt, GKSt","type":"Große_Kreisstadt"},"district":{"key":"09176","name":"Eichstätt","type":"Landkreis"},"federalState":{"key":"09","name":"Bayern"}},{"name":"Untere Str.","postalCode":"85116","locality":"Egweil","municipality":{"key":"09176122","name":"Egweil","type":"Kreisangehörige_Gemeinde"},"district":{"key":"09176","name":"Eichstätt","type":"Landkreis"},"federalState":{"key":"09","name":"Bayern"}},{"name":"Voglau","postalCode":"85116","locality":"Egweil","municipality":{"key":"09176122","name":"Egweil","type":"Kreisangehörige_Gemeinde"},"district":{"key":"09176","name":"Eichstätt","type":"Landkreis"},"federalState":{"key":"09","name":"Bayern"}},{"name":"Webergasse","postalCode":"85116","locality":"Egweil","municipality":{"key":"09176122","name":"Egweil","type":"Kreisangehörige_Gemeinde"},"district":{"key":"09176","name":"Eichstätt","type":"Landkreis"},"federalState":{"key":"09","name":"Bayern"}},{"name":"Weiherweg","postalCode":"85116","locality":"Egweil","municipality":{"key":"09176122","name":"Egweil","type":"Kreisangehörige_Gemeinde"},"district":{"key":"09176","name":"Eichstätt","type":"Landkreis"},"federalState":{"key":"09","name":"Bayern"}},{"name":"Wiesenweg","postalCode":"85116","locality":"Egweil","municipality":{"key":"09176122","name":"Egweil","type":"Kreisangehörige_Gemeinde"},"district":{"key":"09176","name":"Eichstätt","type":"Landkreis"},"federalState":{"key":"09","name":"Bayern"}},{"name":"Zum Tiefen Tal","postalCode":"85072","locality":"Eichstätt","municipality":{"key":"09176123","name":"Eichstätt, GKSt","type":"Große_Kreisstadt"},"district":{"key":"09176","name":"Eichstätt","type":"Landkreis"},"federalState":{"key":"09","name":"Bayern"}},{"name":"Zwittauer Weg","postalCode":"85072","locality":"Eichstätt","municipality":{"key":"09176123","name":"Eichstätt, GKSt","type":"Große_Kreisstadt"},"district":{"key":"09176","name":"Eichstätt","type":"Landkreis"},"federalState":{"key":"09","name":"Bayern"}},]