[{"name":"Ahornstr.","postalCode":"86556","locality":"Kühbach","municipality":{"key":"09771144","name":"Kühbach, M","type":"Markt"},"district":{"key":"09771","name":"Aichach-Friedberg","type":"Landkreis"},"federalState":{"key":"09","name":"Bayern"}},{"name":"Aichacher Str.","postalCode":"86556","locality":"Kühbach","municipality":{"key":"09771144","name":"Kühbach, M","type":"Markt"},"district":{"key":"09771","name":"Aichach-Friedberg","type":"Landkreis"},"federalState":{"key":"09","name":"Bayern"}},{"name":"Am Postanger","postalCode":"86556","locality":"Kühbach","municipality":{"key":"09771144","name":"Kühbach, M","type":"Markt"},"district":{"key":"09771","name":"Aichach-Friedberg","type":"Landkreis"},"federalState":{"key":"09","name":"Bayern"}},{"name":"Am Schneiderberg","postalCode":"86556","locality":"Kühbach","municipality":{"key":"09771144","name":"Kühbach, M","type":"Markt"},"district":{"key":"09771","name":"Aichach-Friedberg","type":"Landkreis"},"federalState":{"key":"09","name":"Bayern"}},{"name":"Am Schreierbach","postalCode":"86556","locality":"Kühbach","municipality":{"key":"09771144","name":"Kühbach, M","type":"Markt"},"district":{"key":"09771","name":"Aichach-Friedberg","type":"Landkreis"},"federalState":{"key":"09","name":"Bayern"}},{"name":"Amselstr.","postalCode":"86556","locality":"Kühbach","municipality":{"key":"09771144","name":"Kühbach, M","type":"Markt"},"district":{"key":"09771","name":"Aichach-Friedberg","type":"Landkreis"},"federalState":{"key":"09","name":"Bayern"}},{"name":"Am Sonnenhang","postalCode":"86556","locality":"Kühbach","municipality":{"key":"09771144","name":"Kühbach, M","type":"Markt"},"district":{"key":"09771","name":"Aichach-Friedberg","type":"Landkreis"},"federalState":{"key":"09","name":"Bayern"}},{"name":"An der Falterbreite","postalCode":"86556","locality":"Kühbach","municipality":{"key":"09771144","name":"Kühbach, M","type":"Markt"},"district":{"key":"09771","name":"Aichach-Friedberg","type":"Landkreis"},"federalState":{"key":"09","name":"Bayern"}},{"name":"An der Kreuzbreite","postalCode":"86556","locality":"Kühbach","municipality":{"key":"09771144","name":"Kühbach, M","type":"Markt"},"district":{"key":"09771","name":"Aichach-Friedberg","type":"Landkreis"},"federalState":{"key":"09","name":"Bayern"}},{"name":"An der Weinwiese","postalCode":"86556","locality":"Kühbach","municipality":{"key":"09771144","name":"Kühbach, M","type":"Markt"},"district":{"key":"09771","name":"Aichach-Friedberg","type":"Landkreis"},"federalState":{"key":"09","name":"Bayern"}},{"name":"Angerweg","postalCode":"86556","locality":"Kühbach","municipality":{"key":"09771144","name":"Kühbach, M","type":"Markt"},"district":{"key":"09771","name":"Aichach-Friedberg","type":"Landkreis"},"federalState":{"key":"09","name":"Bayern"}},{"name":"Asternstr.","postalCode":"86556","locality":"Kühbach","municipality":{"key":"09771144","name":"Kühbach, M","type":"Markt"},"district":{"key":"09771","name":"Aichach-Friedberg","type":"Landkreis"},"federalState":{"key":"09","name":"Bayern"}},{"name":"Auenstr.","postalCode":"86556","locality":"Kühbach","municipality":{"key":"09771144","name":"Kühbach, M","type":"Markt"},"district":{"key":"09771","name":"Aichach-Friedberg","type":"Landkreis"},"federalState":{"key":"09","name":"Bayern"}},{"name":"Bachstr.","postalCode":"86556","locality":"Kühbach","municipality":{"key":"09771144","name":"Kühbach, M","type":"Markt"},"district":{"key":"09771","name":"Aichach-Friedberg","type":"Landkreis"},"federalState":{"key":"09","name":"Bayern"}},{"name":"Baggerseestr.","postalCode":"86556","locality":"Kühbach","municipality":{"key":"09771144","name":"Kühbach, M","type":"Markt"},"district":{"key":"09771","name":"Aichach-Friedberg","type":"Landkreis"},"federalState":{"key":"09","name":"Bayern"}},{"name":"Bahnhofstr.","postalCode":"86556","locality":"Kühbach","municipality":{"key":"09771144","name":"Kühbach, M","type":"Markt"},"district":{"key":"09771","name":"Aichach-Friedberg","type":"Landkreis"},"federalState":{"key":"09","name":"Bayern"}},{"name":"Benefiziumweg","postalCode":"86556","locality":"Kühbach","municipality":{"key":"09771144","name":"Kühbach, M","type":"Markt"},"district":{"key":"09771","name":"Aichach-Friedberg","type":"Landkreis"},"federalState":{"key":"09","name":"Bayern"}},{"name":"Bergstr.","postalCode":"86556","locality":"Kühbach","municipality":{"key":"09771144","name":"Kühbach, M","type":"Markt"},"district":{"key":"09771","name":"Aichach-Friedberg","type":"Landkreis"},"federalState":{"key":"09","name":"Bayern"}},{"name":"Biberstr.","postalCode":"86556","locality":"Kühbach","municipality":{"key":"09771144","name":"Kühbach, M","type":"Markt"},"district":{"key":"09771","name":"Aichach-Friedberg","type":"Landkreis"},"federalState":{"key":"09","name":"Bayern"}},{"name":"Birkenweg","postalCode":"86556","locality":"Kühbach","municipality":{"key":"09771144","name":"Kühbach, M","type":"Markt"},"district":{"key":"09771","name":"Aichach-Friedberg","type":"Landkreis"},"federalState":{"key":"09","name":"Bayern"}},{"name":"Blumenstr.","postalCode":"86556","locality":"Kühbach","municipality":{"key":"09771144","name":"Kühbach, M","type":"Markt"},"district":{"key":"09771","name":"Aichach-Friedberg","type":"Landkreis"},"federalState":{"key":"09","name":"Bayern"}},{"name":"Blütenstr.","postalCode":"86556","locality":"Kühbach","municipality":{"key":"09771144","name":"Kühbach, M","type":"Markt"},"district":{"key":"09771","name":"Aichach-Friedberg","type":"Landkreis"},"federalState":{"key":"09","name":"Bayern"}},{"name":"Brunnenstr.","postalCode":"86556","locality":"Kühbach","municipality":{"key":"09771144","name":"Kühbach, M","type":"Markt"},"district":{"key":"09771","name":"Aichach-Friedberg","type":"Landkreis"},"federalState":{"key":"09","name":"Bayern"}},{"name":"Buchenweg","postalCode":"86556","locality":"Kühbach","municipality":{"key":"09771144","name":"Kühbach, M","type":"Markt"},"district":{"key":"09771","name":"Aichach-Friedberg","type":"Landkreis"},"federalState":{"key":"09","name":"Bayern"}},{"name":"Burgstr.","postalCode":"86556","locality":"Kühbach","municipality":{"key":"09771144","name":"Kühbach, M","type":"Markt"},"district":{"key":"09771","name":"Aichach-Friedberg","type":"Landkreis"},"federalState":{"key":"09","name":"Bayern"}},{"name":"Daimlerstr.","postalCode":"86556","locality":"Kühbach","municipality":{"key":"09771144","name":"Kühbach, M","type":"Markt"},"district":{"key":"09771","name":"Aichach-Friedberg","type":"Landkreis"},"federalState":{"key":"09","name":"Bayern"}},{"name":"Dekan-Moll-Str.","postalCode":"86556","locality":"Kühbach","municipality":{"key":"09771144","name":"Kühbach, M","type":"Markt"},"district":{"key":"09771","name":"Aichach-Friedberg","type":"Landkreis"},"federalState":{"key":"09","name":"Bayern"}},{"name":"Dieselstr.","postalCode":"86556","locality":"Kühbach","municipality":{"key":"09771144","name":"Kühbach, M","type":"Markt"},"district":{"key":"09771","name":"Aichach-Friedberg","type":"Landkreis"},"federalState":{"key":"09","name":"Bayern"}},{"name":"Dorflandstr.","postalCode":"86556","locality":"Kühbach","municipality":{"key":"09771144","name":"Kühbach, M","type":"Markt"},"district":{"key":"09771","name":"Aichach-Friedberg","type":"Landkreis"},"federalState":{"key":"09","name":"Bayern"}},{"name":"Dürranger","postalCode":"86556","locality":"Kühbach","municipality":{"key":"09771144","name":"Kühbach, M","type":"Markt"},"district":{"key":"09771","name":"Aichach-Friedberg","type":"Landkreis"},"federalState":{"key":"09","name":"Bayern"}},{"name":"Eichenstr.","postalCode":"86556","locality":"Kühbach","municipality":{"key":"09771144","name":"Kühbach, M","type":"Markt"},"district":{"key":"09771","name":"Aichach-Friedberg","type":"Landkreis"},"federalState":{"key":"09","name":"Bayern"}},{"name":"Erlenstr.","postalCode":"86556","locality":"Kühbach","municipality":{"key":"09771144","name":"Kühbach, M","type":"Markt"},"district":{"key":"09771","name":"Aichach-Friedberg","type":"Landkreis"},"federalState":{"key":"09","name":"Bayern"}},{"name":"Eschenstr.","postalCode":"86556","locality":"Kühbach","municipality":{"key":"09771144","name":"Kühbach, M","type":"Markt"},"district":{"key":"09771","name":"Aichach-Friedberg","type":"Landkreis"},"federalState":{"key":"09","name":"Bayern"}},{"name":"Feldstr.","postalCode":"86556","locality":"Kühbach","municipality":{"key":"09771144","name":"Kühbach, M","type":"Markt"},"district":{"key":"09771","name":"Aichach-Friedberg","type":"Landkreis"},"federalState":{"key":"09","name":"Bayern"}},{"name":"Fichtenweg","postalCode":"86556","locality":"Kühbach","municipality":{"key":"09771144","name":"Kühbach, M","type":"Markt"},"district":{"key":"09771","name":"Aichach-Friedberg","type":"Landkreis"},"federalState":{"key":"09","name":"Bayern"}},{"name":"Finkenweg","postalCode":"86556","locality":"Kühbach","municipality":{"key":"09771144","name":"Kühbach, M","type":"Markt"},"district":{"key":"09771","name":"Aichach-Friedberg","type":"Landkreis"},"federalState":{"key":"09","name":"Bayern"}},{"name":"Fliederweg","postalCode":"86556","locality":"Kühbach","municipality":{"key":"09771144","name":"Kühbach, M","type":"Markt"},"district":{"key":"09771","name":"Aichach-Friedberg","type":"Landkreis"},"federalState":{"key":"09","name":"Bayern"}},{"name":"Flurstr.","postalCode":"86556","locality":"Kühbach","municipality":{"key":"09771144","name":"Kühbach, M","type":"Markt"},"district":{"key":"09771","name":"Aichach-Friedberg","type":"Landkreis"},"federalState":{"key":"09","name":"Bayern"}},{"name":"Föhrenweg","postalCode":"86556","locality":"Kühbach","municipality":{"key":"09771144","name":"Kühbach, M","type":"Markt"},"district":{"key":"09771","name":"Aichach-Friedberg","type":"Landkreis"},"federalState":{"key":"09","name":"Bayern"}},{"name":"Friedhofstr.","postalCode":"86556","locality":"Kühbach","municipality":{"key":"09771144","name":"Kühbach, M","type":"Markt"},"district":{"key":"09771","name":"Aichach-Friedberg","type":"Landkreis"},"federalState":{"key":"09","name":"Bayern"}},{"name":"Frühlingstr.","postalCode":"86556","locality":"Kühbach","municipality":{"key":"09771144","name":"Kühbach, M","type":"Markt"},"district":{"key":"09771","name":"Aichach-Friedberg","type":"Landkreis"},"federalState":{"key":"09","name":"Bayern"}},{"name":"Gartenfeldstr.","postalCode":"86556","locality":"Kühbach","municipality":{"key":"09771144","name":"Kühbach, M","type":"Markt"},"district":{"key":"09771","name":"Aichach-Friedberg","type":"Landkreis"},"federalState":{"key":"09","name":"Bayern"}},{"name":"Gartenstr.","postalCode":"86556","locality":"Kühbach","municipality":{"key":"09771144","name":"Kühbach, M","type":"Markt"},"district":{"key":"09771","name":"Aichach-Friedberg","type":"Landkreis"},"federalState":{"key":"09","name":"Bayern"}},{"name":"Gärtnerweg","postalCode":"86556","locality":"Kühbach","municipality":{"key":"09771144","name":"Kühbach, M","type":"Markt"},"district":{"key":"09771","name":"Aichach-Friedberg","type":"Landkreis"},"federalState":{"key":"09","name":"Bayern"}},{"name":"Großhausener Str.","postalCode":"86556","locality":"Kühbach","municipality":{"key":"09771144","name":"Kühbach, M","type":"Markt"},"district":{"key":"09771","name":"Aichach-Friedberg","type":"Landkreis"},"federalState":{"key":"09","name":"Bayern"}},{"name":"Hauptstr.","postalCode":"86556","locality":"Kühbach","municipality":{"key":"09771144","name":"Kühbach, M","type":"Markt"},"district":{"key":"09771","name":"Aichach-Friedberg","type":"Landkreis"},"federalState":{"key":"09","name":"Bayern"}},{"name":"Heckenweg","postalCode":"86556","locality":"Kühbach","municipality":{"key":"09771144","name":"Kühbach, M","type":"Markt"},"district":{"key":"09771","name":"Aichach-Friedberg","type":"Landkreis"},"federalState":{"key":"09","name":"Bayern"}},{"name":"Heidestr.","postalCode":"86556","locality":"Kühbach","municipality":{"key":"09771144","name":"Kühbach, M","type":"Markt"},"district":{"key":"09771","name":"Aichach-Friedberg","type":"Landkreis"},"federalState":{"key":"09","name":"Bayern"}},{"name":"Herbststr.","postalCode":"86556","locality":"Kühbach","municipality":{"key":"09771144","name":"Kühbach, M","type":"Markt"},"district":{"key":"09771","name":"Aichach-Friedberg","type":"Landkreis"},"federalState":{"key":"09","name":"Bayern"}},{"name":"Hopfengarten","postalCode":"86556","locality":"Kühbach","municipality":{"key":"09771144","name":"Kühbach, M","type":"Markt"},"district":{"key":"09771","name":"Aichach-Friedberg","type":"Landkreis"},"federalState":{"key":"09","name":"Bayern"}},{"name":"Hopfenstr.","postalCode":"86556","locality":"Kühbach","municipality":{"key":"09771144","name":"Kühbach, M","type":"Markt"},"district":{"key":"09771","name":"Aichach-Friedberg","type":"Landkreis"},"federalState":{"key":"09","name":"Bayern"}},{"name":"Inchenhofener Str.","postalCode":"86556","locality":"Kühbach","municipality":{"key":"09771144","name":"Kühbach, M","type":"Markt"},"district":{"key":"09771","name":"Aichach-Friedberg","type":"Landkreis"},"federalState":{"key":"09","name":"Bayern"}},{"name":"Jägerweg","postalCode":"86556","locality":"Kühbach","municipality":{"key":"09771144","name":"Kühbach, M","type":"Markt"},"district":{"key":"09771","name":"Aichach-Friedberg","type":"Landkreis"},"federalState":{"key":"09","name":"Bayern"}},{"name":"Jahnstr.","postalCode":"86556","locality":"Kühbach","municipality":{"key":"09771144","name":"Kühbach, M","type":"Markt"},"district":{"key":"09771","name":"Aichach-Friedberg","type":"Landkreis"},"federalState":{"key":"09","name":"Bayern"}},{"name":"Johannisweg","postalCode":"86556","locality":"Kühbach","municipality":{"key":"09771144","name":"Kühbach, M","type":"Markt"},"district":{"key":"09771","name":"Aichach-Friedberg","type":"Landkreis"},"federalState":{"key":"09","name":"Bayern"}},{"name":"Kellerweg","postalCode":"86556","locality":"Kühbach","municipality":{"key":"09771144","name":"Kühbach, M","type":"Markt"},"district":{"key":"09771","name":"Aichach-Friedberg","type":"Landkreis"},"federalState":{"key":"09","name":"Bayern"}},{"name":"Kirchweg","postalCode":"86556","locality":"Kühbach","municipality":{"key":"09771144","name":"Kühbach, M","type":"Markt"},"district":{"key":"09771","name":"Aichach-Friedberg","type":"Landkreis"},"federalState":{"key":"09","name":"Bayern"}},{"name":"Klausenstr.","postalCode":"86556","locality":"Kühbach","municipality":{"key":"09771144","name":"Kühbach, M","type":"Markt"},"district":{"key":"09771","name":"Aichach-Friedberg","type":"Landkreis"},"federalState":{"key":"09","name":"Bayern"}},{"name":"Klausnerweg","postalCode":"86556","locality":"Kühbach","municipality":{"key":"09771144","name":"Kühbach, M","type":"Markt"},"district":{"key":"09771","name":"Aichach-Friedberg","type":"Landkreis"},"federalState":{"key":"09","name":"Bayern"}},{"name":"Kreisstr.","postalCode":"86556","locality":"Kühbach","municipality":{"key":"09771144","name":"Kühbach, M","type":"Markt"},"district":{"key":"09771","name":"Aichach-Friedberg","type":"Landkreis"},"federalState":{"key":"09","name":"Bayern"}},{"name":"Lerchenstr.","postalCode":"86556","locality":"Kühbach","municipality":{"key":"09771144","name":"Kühbach, M","type":"Markt"},"district":{"key":"09771","name":"Aichach-Friedberg","type":"Landkreis"},"federalState":{"key":"09","name":"Bayern"}},{"name":"Lilienstr.","postalCode":"86556","locality":"Kühbach","municipality":{"key":"09771144","name":"Kühbach, M","type":"Markt"},"district":{"key":"09771","name":"Aichach-Friedberg","type":"Landkreis"},"federalState":{"key":"09","name":"Bayern"}},{"name":"Lindenstr.","postalCode":"86556","locality":"Kühbach","municipality":{"key":"09771144","name":"Kühbach, M","type":"Markt"},"district":{"key":"09771","name":"Aichach-Friedberg","type":"Landkreis"},"federalState":{"key":"09","name":"Bayern"}},{"name":"Magnusstr.","postalCode":"86556","locality":"Kühbach","municipality":{"key":"09771144","name":"Kühbach, M","type":"Markt"},"district":{"key":"09771","name":"Aichach-Friedberg","type":"Landkreis"},"federalState":{"key":"09","name":"Bayern"}},{"name":"Mandelholzstr.","postalCode":"86556","locality":"Kühbach","municipality":{"key":"09771144","name":"Kühbach, M","type":"Markt"},"district":{"key":"09771","name":"Aichach-Friedberg","type":"Landkreis"},"federalState":{"key":"09","name":"Bayern"}},{"name":"Marklweg","postalCode":"86556","locality":"Kühbach","municipality":{"key":"09771144","name":"Kühbach, M","type":"Markt"},"district":{"key":"09771","name":"Aichach-Friedberg","type":"Landkreis"},"federalState":{"key":"09","name":"Bayern"}},{"name":"Marktplatz","postalCode":"86556","locality":"Kühbach","municipality":{"key":"09771144","name":"Kühbach, M","type":"Markt"},"district":{"key":"09771","name":"Aichach-Friedberg","type":"Landkreis"},"federalState":{"key":"09","name":"Bayern"}},{"name":"Martinstr.","postalCode":"86556","locality":"Kühbach","municipality":{"key":"09771144","name":"Kühbach, M","type":"Markt"},"district":{"key":"09771","name":"Aichach-Friedberg","type":"Landkreis"},"federalState":{"key":"09","name":"Bayern"}},{"name":"Mühlenstr.","postalCode":"86556","locality":"Kühbach","municipality":{"key":"09771144","name":"Kühbach, M","type":"Markt"},"district":{"key":"09771","name":"Aichach-Friedberg","type":"Landkreis"},"federalState":{"key":"09","name":"Bayern"}},{"name":"Nußbaumstr.","postalCode":"86556","locality":"Kühbach","municipality":{"key":"09771144","name":"Kühbach, M","type":"Markt"},"district":{"key":"09771","name":"Aichach-Friedberg","type":"Landkreis"},"federalState":{"key":"09","name":"Bayern"}},{"name":"Obere Dorfstr.","postalCode":"86556","locality":"Kühbach","municipality":{"key":"09771144","name":"Kühbach, M","type":"Markt"},"district":{"key":"09771","name":"Aichach-Friedberg","type":"Landkreis"},"federalState":{"key":"09","name":"Bayern"}},{"name":"Paarer Str.","postalCode":"86556","locality":"Kühbach","municipality":{"key":"09771144","name":"Kühbach, M","type":"Markt"},"district":{"key":"09771","name":"Aichach-Friedberg","type":"Landkreis"},"federalState":{"key":"09","name":"Bayern"}},{"name":"Pfarrer-Knaus-Str.","postalCode":"86556","locality":"Kühbach","municipality":{"key":"09771144","name":"Kühbach, M","type":"Markt"},"district":{"key":"09771","name":"Aichach-Friedberg","type":"Landkreis"},"federalState":{"key":"09","name":"Bayern"}},{"name":"Pfarrstr.","postalCode":"86556","locality":"Kühbach","municipality":{"key":"09771144","name":"Kühbach, M","type":"Markt"},"district":{"key":"09771","name":"Aichach-Friedberg","type":"Landkreis"},"federalState":{"key":"09","name":"Bayern"}},{"name":"Postweg","postalCode":"86556","locality":"Kühbach","municipality":{"key":"09771144","name":"Kühbach, M","type":"Markt"},"district":{"key":"09771","name":"Aichach-Friedberg","type":"Landkreis"},"federalState":{"key":"09","name":"Bayern"}},{"name":"Quellenstr.","postalCode":"86556","locality":"Kühbach","municipality":{"key":"09771144","name":"Kühbach, M","type":"Markt"},"district":{"key":"09771","name":"Aichach-Friedberg","type":"Landkreis"},"federalState":{"key":"09","name":"Bayern"}},{"name":"Raiffeisenstr.","postalCode":"86556","locality":"Kühbach","municipality":{"key":"09771144","name":"Kühbach, M","type":"Markt"},"district":{"key":"09771","name":"Aichach-Friedberg","type":"Landkreis"},"federalState":{"key":"09","name":"Bayern"}},{"name":"Ringstr.","postalCode":"86556","locality":"Kühbach","municipality":{"key":"09771144","name":"Kühbach, M","type":"Markt"},"district":{"key":"09771","name":"Aichach-Friedberg","type":"Landkreis"},"federalState":{"key":"09","name":"Bayern"}},{"name":"Rosenstr.","postalCode":"86556","locality":"Kühbach","municipality":{"key":"09771144","name":"Kühbach, M","type":"Markt"},"district":{"key":"09771","name":"Aichach-Friedberg","type":"Landkreis"},"federalState":{"key":"09","name":"Bayern"}},{"name":"Schloßstr.","postalCode":"86556","locality":"Kühbach","municipality":{"key":"09771144","name":"Kühbach, M","type":"Markt"},"district":{"key":"09771","name":"Aichach-Friedberg","type":"Landkreis"},"federalState":{"key":"09","name":"Bayern"}},{"name":"Schmiedgasse","postalCode":"86556","locality":"Kühbach","municipality":{"key":"09771144","name":"Kühbach, M","type":"Markt"},"district":{"key":"09771","name":"Aichach-Friedberg","type":"Landkreis"},"federalState":{"key":"09","name":"Bayern"}},{"name":"Schönbacher Str.","postalCode":"86556","locality":"Kühbach","municipality":{"key":"09771144","name":"Kühbach, M","type":"Markt"},"district":{"key":"09771","name":"Aichach-Friedberg","type":"Landkreis"},"federalState":{"key":"09","name":"Bayern"}},{"name":"Schrobenhausener Str.","postalCode":"86556","locality":"Kühbach","municipality":{"key":"09771144","name":"Kühbach, M","type":"Markt"},"district":{"key":"09771","name":"Aichach-Friedberg","type":"Landkreis"},"federalState":{"key":"09","name":"Bayern"}},{"name":"Schulstr.","postalCode":"86556","locality":"Kühbach","municipality":{"key":"09771144","name":"Kühbach, M","type":"Markt"},"district":{"key":"09771","name":"Aichach-Friedberg","type":"Landkreis"},"federalState":{"key":"09","name":"Bayern"}},{"name":"Siedlungsstr.","postalCode":"86556","locality":"Kühbach","municipality":{"key":"09771144","name":"Kühbach, M","type":"Markt"},"district":{"key":"09771","name":"Aichach-Friedberg","type":"Landkreis"},"federalState":{"key":"09","name":"Bayern"}},{"name":"Sommerstr.","postalCode":"86556","locality":"Kühbach","municipality":{"key":"09771144","name":"Kühbach, M","type":"Markt"},"district":{"key":"09771","name":"Aichach-Friedberg","type":"Landkreis"},"federalState":{"key":"09","name":"Bayern"}},{"name":"Sonnenweg","postalCode":"86556","locality":"Kühbach","municipality":{"key":"09771144","name":"Kühbach, M","type":"Markt"},"district":{"key":"09771","name":"Aichach-Friedberg","type":"Landkreis"},"federalState":{"key":"09","name":"Bayern"}},{"name":"Staufenstr.","postalCode":"86556","locality":"Kühbach","municipality":{"key":"09771144","name":"Kühbach, M","type":"Markt"},"district":{"key":"09771","name":"Aichach-Friedberg","type":"Landkreis"},"federalState":{"key":"09","name":"Bayern"}},{"name":"Steinberg","postalCode":"86556","locality":"Kühbach","municipality":{"key":"09771144","name":"Kühbach, M","type":"Markt"},"district":{"key":"09771","name":"Aichach-Friedberg","type":"Landkreis"},"federalState":{"key":"09","name":"Bayern"}},{"name":"Tannenstr.","postalCode":"86556","locality":"Kühbach","municipality":{"key":"09771144","name":"Kühbach, M","type":"Markt"},"district":{"key":"09771","name":"Aichach-Friedberg","type":"Landkreis"},"federalState":{"key":"09","name":"Bayern"}},{"name":"Taxbergweg","postalCode":"86556","locality":"Kühbach","municipality":{"key":"09771144","name":"Kühbach, M","type":"Markt"},"district":{"key":"09771","name":"Aichach-Friedberg","type":"Landkreis"},"federalState":{"key":"09","name":"Bayern"}},{"name":"Tulpenstr.","postalCode":"86556","locality":"Kühbach","municipality":{"key":"09771144","name":"Kühbach, M","type":"Markt"},"district":{"key":"09771","name":"Aichach-Friedberg","type":"Landkreis"},"federalState":{"key":"09","name":"Bayern"}},{"name":"Ulmenweg","postalCode":"86556","locality":"Kühbach","municipality":{"key":"09771144","name":"Kühbach, M","type":"Markt"},"district":{"key":"09771","name":"Aichach-Friedberg","type":"Landkreis"},"federalState":{"key":"09","name":"Bayern"}},{"name":"Von-Haslang-Str.","postalCode":"86556","locality":"Kühbach","municipality":{"key":"09771144","name":"Kühbach, M","type":"Markt"},"district":{"key":"09771","name":"Aichach-Friedberg","type":"Landkreis"},"federalState":{"key":"09","name":"Bayern"}},{"name":"Von-Lerchenfeld-Str.","postalCode":"86556","locality":"Kühbach","municipality":{"key":"09771144","name":"Kühbach, M","type":"Markt"},"district":{"key":"09771","name":"Aichach-Friedberg","type":"Landkreis"},"federalState":{"key":"09","name":"Bayern"}},{"name":"Wagnergasse","postalCode":"86556","locality":"Kühbach","municipality":{"key":"09771144","name":"Kühbach, M","type":"Markt"},"district":{"key":"09771","name":"Aichach-Friedberg","type":"Landkreis"},"federalState":{"key":"09","name":"Bayern"}},{"name":"Waldstr.","postalCode":"86556","locality":"Kühbach","municipality":{"key":"09771144","name":"Kühbach, M","type":"Markt"},"district":{"key":"09771","name":"Aichach-Friedberg","type":"Landkreis"},"federalState":{"key":"09","name":"Bayern"}},{"name":"Weidenstr.","postalCode":"86556","locality":"Kühbach","municipality":{"key":"09771144","name":"Kühbach, M","type":"Markt"},"district":{"key":"09771","name":"Aichach-Friedberg","type":"Landkreis"},"federalState":{"key":"09","name":"Bayern"}},{"name":"Weiherholzstr.","postalCode":"86556","locality":"Kühbach","municipality":{"key":"09771144","name":"Kühbach, M","type":"Markt"},"district":{"key":"09771","name":"Aichach-Friedberg","type":"Landkreis"},"federalState":{"key":"09","name":"Bayern"}},{"name":"Weinstr.","postalCode":"86556","locality":"Kühbach","municipality":{"key":"09771144","name":"Kühbach, M","type":"Markt"},"district":{"key":"09771","name":"Aichach-Friedberg","type":"Landkreis"},"federalState":{"key":"09","name":"Bayern"}},{"name":"Welfenstr.","postalCode":"86556","locality":"Kühbach","municipality":{"key":"09771144","name":"Kühbach, M","type":"Markt"},"district":{"key":"09771","name":"Aichach-Friedberg","type":"Landkreis"},"federalState":{"key":"09","name":"Bayern"}},{"name":"Wengenweg","postalCode":"86556","locality":"Kühbach","municipality":{"key":"09771144","name":"Kühbach, M","type":"Markt"},"district":{"key":"09771","name":"Aichach-Friedberg","type":"Landkreis"},"federalState":{"key":"09","name":"Bayern"}},{"name":"Westumfahrung","postalCode":"86556","locality":"Kühbach","municipality":{"key":"09771144","name":"Kühbach, M","type":"Markt"},"district":{"key":"09771","name":"Aichach-Friedberg","type":"Landkreis"},"federalState":{"key":"09","name":"Bayern"}},{"name":"Wiesenstr.","postalCode":"86556","locality":"Kühbach","municipality":{"key":"09771144","name":"Kühbach, M","type":"Markt"},"district":{"key":"09771","name":"Aichach-Friedberg","type":"Landkreis"},"federalState":{"key":"09","name":"Bayern"}},{"name":"Wiesenweg","postalCode":"86556","locality":"Kühbach","municipality":{"key":"09771144","name":"Kühbach, M","type":"Markt"},"district":{"key":"09771","name":"Aichach-Friedberg","type":"Landkreis"},"federalState":{"key":"09","name":"Bayern"}},{"name":"Winden","postalCode":"86556","locality":"Kühbach","municipality":{"key":"09771144","name":"Kühbach, M","type":"Markt"},"district":{"key":"09771","name":"Aichach-Friedberg","type":"Landkreis"},"federalState":{"key":"09","name":"Bayern"}},{"name":"Wittelsbacher Str.","postalCode":"86556","locality":"Kühbach","municipality":{"key":"09771144","name":"Kühbach, M","type":"Markt"},"district":{"key":"09771","name":"Aichach-Friedberg","type":"Landkreis"},"federalState":{"key":"09","name":"Bayern"}},{"name":"Wöresbacher Str.","postalCode":"86556","locality":"Kühbach","municipality":{"key":"09771144","name":"Kühbach, M","type":"Markt"},"district":{"key":"09771","name":"Aichach-Friedberg","type":"Landkreis"},"federalState":{"key":"09","name":"Bayern"}},{"name":"Ödmühlenweg","postalCode":"86556","locality":"Kühbach","municipality":{"key":"09771144","name":"Kühbach, M","type":"Markt"},"district":{"key":"09771","name":"Aichach-Friedberg","type":"Landkreis"},"federalState":{"key":"09","name":"Bayern"}},]