[{"name":"Am Lindenmahd","postalCode":"86479","locality":"Aichen","municipality":{"key":"09774166","name":"Aichen","type":"Kreisangehörige_Gemeinde"},"district":{"key":"09774","name":"Günzburg","type":"Landkreis"},"federalState":{"key":"09","name":"Bayern"}},{"name":"Am Oberfeld","postalCode":"86479","locality":"Aichen","municipality":{"key":"09774166","name":"Aichen","type":"Kreisangehörige_Gemeinde"},"district":{"key":"09774","name":"Günzburg","type":"Landkreis"},"federalState":{"key":"09","name":"Bayern"}},{"name":"Am Steigfeld","postalCode":"86479","locality":"Aichen","municipality":{"key":"09774166","name":"Aichen","type":"Kreisangehörige_Gemeinde"},"district":{"key":"09774","name":"Günzburg","type":"Landkreis"},"federalState":{"key":"09","name":"Bayern"}},{"name":"Am Tannenberg","postalCode":"86479","locality":"Aichen","municipality":{"key":"09774166","name":"Aichen","type":"Kreisangehörige_Gemeinde"},"district":{"key":"09774","name":"Günzburg","type":"Landkreis"},"federalState":{"key":"09","name":"Bayern"}},{"name":"Am Wachberg","postalCode":"86479","locality":"Aichen","municipality":{"key":"09774166","name":"Aichen","type":"Kreisangehörige_Gemeinde"},"district":{"key":"09774","name":"Günzburg","type":"Landkreis"},"federalState":{"key":"09","name":"Bayern"}},{"name":"Angerweg","postalCode":"86479","locality":"Aichen","municipality":{"key":"09774166","name":"Aichen","type":"Kreisangehörige_Gemeinde"},"district":{"key":"09774","name":"Günzburg","type":"Landkreis"},"federalState":{"key":"09","name":"Bayern"}},{"name":"Bachweg","postalCode":"86479","locality":"Aichen","municipality":{"key":"09774166","name":"Aichen","type":"Kreisangehörige_Gemeinde"},"district":{"key":"09774","name":"Günzburg","type":"Landkreis"},"federalState":{"key":"09","name":"Bayern"}},{"name":"Birkenweg","postalCode":"86479","locality":"Aichen","municipality":{"key":"09774166","name":"Aichen","type":"Kreisangehörige_Gemeinde"},"district":{"key":"09774","name":"Günzburg","type":"Landkreis"},"federalState":{"key":"09","name":"Bayern"}},{"name":"Blumenweg","postalCode":"86479","locality":"Aichen","municipality":{"key":"09774166","name":"Aichen","type":"Kreisangehörige_Gemeinde"},"district":{"key":"09774","name":"Günzburg","type":"Landkreis"},"federalState":{"key":"09","name":"Bayern"}},{"name":"Buschelweg","postalCode":"86479","locality":"Aichen","municipality":{"key":"09774166","name":"Aichen","type":"Kreisangehörige_Gemeinde"},"district":{"key":"09774","name":"Günzburg","type":"Landkreis"},"federalState":{"key":"09","name":"Bayern"}},{"name":"Carl von Linde Str.","postalCode":"89312","locality":"Günzburg","municipality":{"key":"09774135","name":"Günzburg, GKSt","type":"Große_Kreisstadt"},"district":{"key":"09774","name":"Günzburg","type":"Landkreis"},"federalState":{"key":"09","name":"Bayern"}},{"name":"Castellstr.","postalCode":"87634","locality":"Obergünzburg","municipality":{"key":"09777154","name":"Obergünzburg, M","type":"Markt"},"district":{"key":"09777","name":"Ostallgäu","type":"Landkreis"},"federalState":{"key":"09","name":"Bayern"}},{"name":"Christa-Wall-Str.","postalCode":"89312","locality":"Günzburg","municipality":{"key":"09774135","name":"Günzburg, GKSt","type":"Große_Kreisstadt"},"district":{"key":"09774","name":"Günzburg","type":"Landkreis"},"federalState":{"key":"09","name":"Bayern"}},{"name":"Christian-Frank-Weg","postalCode":"89312","locality":"Günzburg","municipality":{"key":"09774135","name":"Günzburg, GKSt","type":"Große_Kreisstadt"},"district":{"key":"09774","name":"Günzburg","type":"Landkreis"},"federalState":{"key":"09","name":"Bayern"}},{"name":"Christoph-Rodt-Str.","postalCode":"89312","locality":"Günzburg","municipality":{"key":"09774135","name":"Günzburg, GKSt","type":"Große_Kreisstadt"},"district":{"key":"09774","name":"Günzburg","type":"Landkreis"},"federalState":{"key":"09","name":"Bayern"}},{"name":"Clotzstr.","postalCode":"89312","locality":"Günzburg","municipality":{"key":"09774135","name":"Günzburg, GKSt","type":"Große_Kreisstadt"},"district":{"key":"09774","name":"Günzburg","type":"Landkreis"},"federalState":{"key":"09","name":"Bayern"}},{"name":"Dahlienweg","postalCode":"89312","locality":"Günzburg","municipality":{"key":"09774135","name":"Günzburg, GKSt","type":"Große_Kreisstadt"},"district":{"key":"09774","name":"Günzburg","type":"Landkreis"},"federalState":{"key":"09","name":"Bayern"}},{"name":"Daimlerstr.","postalCode":"89312","locality":"Günzburg","municipality":{"key":"09774135","name":"Günzburg, GKSt","type":"Große_Kreisstadt"},"district":{"key":"09774","name":"Günzburg","type":"Landkreis"},"federalState":{"key":"09","name":"Bayern"}},{"name":"Damaschkestr.","postalCode":"89312","locality":"Günzburg","municipality":{"key":"09774135","name":"Günzburg, GKSt","type":"Große_Kreisstadt"},"district":{"key":"09774","name":"Günzburg","type":"Landkreis"},"federalState":{"key":"09","name":"Bayern"}},{"name":"Dannesgässele","postalCode":"87634","locality":"Obergünzburg","municipality":{"key":"09777154","name":"Obergünzburg, M","type":"Markt"},"district":{"key":"09777","name":"Ostallgäu","type":"Landkreis"},"federalState":{"key":"09","name":"Bayern"}},{"name":"Danziger Str.","postalCode":"89312","locality":"Günzburg","municipality":{"key":"09774135","name":"Günzburg, GKSt","type":"Große_Kreisstadt"},"district":{"key":"09774","name":"Günzburg","type":"Landkreis"},"federalState":{"key":"09","name":"Bayern"}},{"name":"Deffinger Weg","postalCode":"89312","locality":"Günzburg","municipality":{"key":"09774135","name":"Günzburg, GKSt","type":"Große_Kreisstadt"},"district":{"key":"09774","name":"Günzburg","type":"Landkreis"},"federalState":{"key":"09","name":"Bayern"}},{"name":"Denzinger Str.","postalCode":"89312","locality":"Günzburg","municipality":{"key":"09774135","name":"Günzburg, GKSt","type":"Große_Kreisstadt"},"district":{"key":"09774","name":"Günzburg","type":"Landkreis"},"federalState":{"key":"09","name":"Bayern"}},{"name":"Deutsch-Zepling-Str.","postalCode":"89312","locality":"Günzburg","municipality":{"key":"09774135","name":"Günzburg, GKSt","type":"Große_Kreisstadt"},"district":{"key":"09774","name":"Günzburg","type":"Landkreis"},"federalState":{"key":"09","name":"Bayern"}},{"name":"Dillinger Str.","postalCode":"89312","locality":"Günzburg","municipality":{"key":"09774135","name":"Günzburg, GKSt","type":"Große_Kreisstadt"},"district":{"key":"09774","name":"Günzburg","type":"Landkreis"},"federalState":{"key":"09","name":"Bayern"}},{"name":"Doktor-Eberl-Str.","postalCode":"87634","locality":"Obergünzburg","municipality":{"key":"09777154","name":"Obergünzburg, M","type":"Markt"},"district":{"key":"09777","name":"Ostallgäu","type":"Landkreis"},"federalState":{"key":"09","name":"Bayern"}},{"name":"Doktor-Friton-Str.","postalCode":"89312","locality":"Günzburg","municipality":{"key":"09774135","name":"Günzburg, GKSt","type":"Große_Kreisstadt"},"district":{"key":"09774","name":"Günzburg","type":"Landkreis"},"federalState":{"key":"09","name":"Bayern"}},{"name":"Donaubrunnenweg","postalCode":"89312","locality":"Günzburg","municipality":{"key":"09774135","name":"Günzburg, GKSt","type":"Große_Kreisstadt"},"district":{"key":"09774","name":"Günzburg","type":"Landkreis"},"federalState":{"key":"09","name":"Bayern"}},{"name":"Donaustr.","postalCode":"89312","locality":"Günzburg","municipality":{"key":"09774135","name":"Günzburg, GKSt","type":"Große_Kreisstadt"},"district":{"key":"09774","name":"Günzburg","type":"Landkreis"},"federalState":{"key":"09","name":"Bayern"}},{"name":"Dorngasse","postalCode":"89312","locality":"Günzburg","municipality":{"key":"09774135","name":"Günzburg, GKSt","type":"Große_Kreisstadt"},"district":{"key":"09774","name":"Günzburg","type":"Landkreis"},"federalState":{"key":"09","name":"Bayern"}},{"name":"Dossenbergerstr.","postalCode":"89312","locality":"Günzburg","municipality":{"key":"09774135","name":"Günzburg, GKSt","type":"Große_Kreisstadt"},"district":{"key":"09774","name":"Günzburg","type":"Landkreis"},"federalState":{"key":"09","name":"Bayern"}},{"name":"Dr.-Birner-Str.","postalCode":"89312","locality":"Günzburg","municipality":{"key":"09774135","name":"Günzburg, GKSt","type":"Große_Kreisstadt"},"district":{"key":"09774","name":"Günzburg","type":"Landkreis"},"federalState":{"key":"09","name":"Bayern"}},{"name":"Dreirosenberg","postalCode":"89312","locality":"Günzburg","municipality":{"key":"09774135","name":"Günzburg, GKSt","type":"Große_Kreisstadt"},"district":{"key":"09774","name":"Günzburg","type":"Landkreis"},"federalState":{"key":"09","name":"Bayern"}},{"name":"Dr.-Friton-Str.","postalCode":"89312","locality":"Günzburg","municipality":{"key":"09774135","name":"Günzburg, GKSt","type":"Große_Kreisstadt"},"district":{"key":"09774","name":"Günzburg","type":"Landkreis"},"federalState":{"key":"09","name":"Bayern"}},{"name":"Drillgasse","postalCode":"89312","locality":"Günzburg","municipality":{"key":"09774135","name":"Günzburg, GKSt","type":"Große_Kreisstadt"},"district":{"key":"09774","name":"Günzburg","type":"Landkreis"},"federalState":{"key":"09","name":"Bayern"}},{"name":"Drosselweg","postalCode":"89312","locality":"Günzburg","municipality":{"key":"09774135","name":"Günzburg, GKSt","type":"Große_Kreisstadt"},"district":{"key":"09774","name":"Günzburg","type":"Landkreis"},"federalState":{"key":"09","name":"Bayern"}},{"name":"Dürerstr.","postalCode":"89312","locality":"Günzburg","municipality":{"key":"09774135","name":"Günzburg, GKSt","type":"Große_Kreisstadt"},"district":{"key":"09774","name":"Günzburg","type":"Landkreis"},"federalState":{"key":"09","name":"Bayern"}},{"name":"Ebersbacher Str.","postalCode":"87634","locality":"Obergünzburg","municipality":{"key":"09777154","name":"Obergünzburg, M","type":"Markt"},"district":{"key":"09777","name":"Ostallgäu","type":"Landkreis"},"federalState":{"key":"09","name":"Bayern"}},{"name":"Edelweißstr.","postalCode":"87634","locality":"Obergünzburg","municipality":{"key":"09777154","name":"Obergünzburg, M","type":"Markt"},"district":{"key":"09777","name":"Ostallgäu","type":"Landkreis"},"federalState":{"key":"09","name":"Bayern"}},{"name":"Edlhardstr.","postalCode":"89312","locality":"Günzburg","municipality":{"key":"09774135","name":"Günzburg, GKSt","type":"Große_Kreisstadt"},"district":{"key":"09774","name":"Günzburg","type":"Landkreis"},"federalState":{"key":"09","name":"Bayern"}},{"name":"Egelseegasse","postalCode":"89312","locality":"Günzburg","municipality":{"key":"09774135","name":"Günzburg, GKSt","type":"Große_Kreisstadt"},"district":{"key":"09774","name":"Günzburg","type":"Landkreis"},"federalState":{"key":"09","name":"Bayern"}},{"name":"Egerländer Weg","postalCode":"89312","locality":"Günzburg","municipality":{"key":"09774135","name":"Günzburg, GKSt","type":"Große_Kreisstadt"},"district":{"key":"09774","name":"Günzburg","type":"Landkreis"},"federalState":{"key":"09","name":"Bayern"}},{"name":"Eglofser Str.","postalCode":"87634","locality":"Obergünzburg","municipality":{"key":"09777154","name":"Obergünzburg, M","type":"Markt"},"district":{"key":"09777","name":"Ostallgäu","type":"Landkreis"},"federalState":{"key":"09","name":"Bayern"}},{"name":"Eichendorffstr.","postalCode":"89312","locality":"Günzburg","municipality":{"key":"09774135","name":"Günzburg, GKSt","type":"Große_Kreisstadt"},"district":{"key":"09774","name":"Günzburg","type":"Landkreis"},"federalState":{"key":"09","name":"Bayern"}},{"name":"Eichenweg","postalCode":"87634","locality":"Obergünzburg","municipality":{"key":"09777154","name":"Obergünzburg, M","type":"Markt"},"district":{"key":"09777","name":"Ostallgäu","type":"Landkreis"},"federalState":{"key":"09","name":"Bayern"}},{"name":"Eichenweg","postalCode":"89312","locality":"Günzburg","municipality":{"key":"09774135","name":"Günzburg, GKSt","type":"Große_Kreisstadt"},"district":{"key":"09774","name":"Günzburg","type":"Landkreis"},"federalState":{"key":"09","name":"Bayern"}},{"name":"Eisenhausgasse","postalCode":"89312","locality":"Günzburg","municipality":{"key":"09774135","name":"Günzburg, GKSt","type":"Große_Kreisstadt"},"district":{"key":"09774","name":"Günzburg","type":"Landkreis"},"federalState":{"key":"09","name":"Bayern"}},{"name":"Eisenlauerstr.","postalCode":"89312","locality":"Günzburg","municipality":{"key":"09774135","name":"Günzburg, GKSt","type":"Große_Kreisstadt"},"district":{"key":"09774","name":"Günzburg","type":"Landkreis"},"federalState":{"key":"09","name":"Bayern"}},{"name":"Elsa-Brändström-Str.","postalCode":"89312","locality":"Günzburg","municipality":{"key":"09774135","name":"Günzburg, GKSt","type":"Große_Kreisstadt"},"district":{"key":"09774","name":"Günzburg","type":"Landkreis"},"federalState":{"key":"09","name":"Bayern"}},{"name":"Enderlestr.","postalCode":"89312","locality":"Günzburg","municipality":{"key":"09774135","name":"Günzburg, GKSt","type":"Große_Kreisstadt"},"district":{"key":"09774","name":"Günzburg","type":"Landkreis"},"federalState":{"key":"09","name":"Bayern"}},{"name":"Entenmoos","postalCode":"87634","locality":"Obergünzburg","municipality":{"key":"09777154","name":"Obergünzburg, M","type":"Markt"},"district":{"key":"09777","name":"Ostallgäu","type":"Landkreis"},"federalState":{"key":"09","name":"Bayern"}},{"name":"Enzianstr.","postalCode":"89312","locality":"Günzburg","municipality":{"key":"09774135","name":"Günzburg, GKSt","type":"Große_Kreisstadt"},"district":{"key":"09774","name":"Günzburg","type":"Landkreis"},"federalState":{"key":"09","name":"Bayern"}},{"name":"Enzianweg","postalCode":"87634","locality":"Obergünzburg","municipality":{"key":"09777154","name":"Obergünzburg, M","type":"Markt"},"district":{"key":"09777","name":"Ostallgäu","type":"Landkreis"},"federalState":{"key":"09","name":"Bayern"}},{"name":"Erlenbadweg","postalCode":"89312","locality":"Günzburg","municipality":{"key":"09774135","name":"Günzburg, GKSt","type":"Große_Kreisstadt"},"district":{"key":"09774","name":"Günzburg","type":"Landkreis"},"federalState":{"key":"09","name":"Bayern"}},{"name":"Erzherzog-Ferdinand-Str.","postalCode":"89312","locality":"Günzburg","municipality":{"key":"09774135","name":"Günzburg, GKSt","type":"Große_Kreisstadt"},"district":{"key":"09774","name":"Günzburg","type":"Landkreis"},"federalState":{"key":"09","name":"Bayern"}},{"name":"Eschenlohweg","postalCode":"87634","locality":"Obergünzburg","municipality":{"key":"09777154","name":"Obergünzburg, M","type":"Markt"},"district":{"key":"09777","name":"Ostallgäu","type":"Landkreis"},"federalState":{"key":"09","name":"Bayern"}},{"name":"Eythstr.","postalCode":"89312","locality":"Günzburg","municipality":{"key":"09774135","name":"Günzburg, GKSt","type":"Große_Kreisstadt"},"district":{"key":"09774","name":"Günzburg","type":"Landkreis"},"federalState":{"key":"09","name":"Bayern"}},{"name":"Fabystr.","postalCode":"89312","locality":"Günzburg","municipality":{"key":"09774135","name":"Günzburg, GKSt","type":"Große_Kreisstadt"},"district":{"key":"09774","name":"Günzburg","type":"Landkreis"},"federalState":{"key":"09","name":"Bayern"}},{"name":"Falkenweg","postalCode":"87634","locality":"Obergünzburg","municipality":{"key":"09777154","name":"Obergünzburg, M","type":"Markt"},"district":{"key":"09777","name":"Ostallgäu","type":"Landkreis"},"federalState":{"key":"09","name":"Bayern"}},{"name":"Ferdinand-Porsche-Str.","postalCode":"89312","locality":"Günzburg","municipality":{"key":"09774135","name":"Günzburg, GKSt","type":"Große_Kreisstadt"},"district":{"key":"09774","name":"Günzburg","type":"Landkreis"},"federalState":{"key":"09","name":"Bayern"}},{"name":"Feuchtmayerstr.","postalCode":"89312","locality":"Günzburg","municipality":{"key":"09774135","name":"Günzburg, GKSt","type":"Große_Kreisstadt"},"district":{"key":"09774","name":"Günzburg","type":"Landkreis"},"federalState":{"key":"09","name":"Bayern"}},{"name":"Feuerbachstr.","postalCode":"89312","locality":"Günzburg","municipality":{"key":"09774135","name":"Günzburg, GKSt","type":"Große_Kreisstadt"},"district":{"key":"09774","name":"Günzburg","type":"Landkreis"},"federalState":{"key":"09","name":"Bayern"}},{"name":"Fichtestr.","postalCode":"89312","locality":"Günzburg","municipality":{"key":"09774135","name":"Günzburg, GKSt","type":"Große_Kreisstadt"},"district":{"key":"09774","name":"Günzburg","type":"Landkreis"},"federalState":{"key":"09","name":"Bayern"}},{"name":"Finkenweg","postalCode":"89312","locality":"Günzburg","municipality":{"key":"09774135","name":"Günzburg, GKSt","type":"Große_Kreisstadt"},"district":{"key":"09774","name":"Günzburg","type":"Landkreis"},"federalState":{"key":"09","name":"Bayern"}},{"name":"Fliederweg","postalCode":"89312","locality":"Günzburg","municipality":{"key":"09774135","name":"Günzburg, GKSt","type":"Große_Kreisstadt"},"district":{"key":"09774","name":"Günzburg","type":"Landkreis"},"federalState":{"key":"09","name":"Bayern"}},{"name":"Flurstr.","postalCode":"89312","locality":"Günzburg","municipality":{"key":"09774135","name":"Günzburg, GKSt","type":"Große_Kreisstadt"},"district":{"key":"09774","name":"Günzburg","type":"Landkreis"},"federalState":{"key":"09","name":"Bayern"}},{"name":"Föhrenweg","postalCode":"89312","locality":"Günzburg","municipality":{"key":"09774135","name":"Günzburg, GKSt","type":"Große_Kreisstadt"},"district":{"key":"09774","name":"Günzburg","type":"Landkreis"},"federalState":{"key":"09","name":"Bayern"}},{"name":"Forstweg","postalCode":"87634","locality":"Obergünzburg","municipality":{"key":"09777154","name":"Obergünzburg, M","type":"Markt"},"district":{"key":"09777","name":"Ostallgäu","type":"Landkreis"},"federalState":{"key":"09","name":"Bayern"}},{"name":"Franz-Lorenz-Str.","postalCode":"89312","locality":"Günzburg","municipality":{"key":"09774135","name":"Günzburg, GKSt","type":"Große_Kreisstadt"},"district":{"key":"09774","name":"Günzburg","type":"Landkreis"},"federalState":{"key":"09","name":"Bayern"}},{"name":"Frauenplatz","postalCode":"89312","locality":"Günzburg","municipality":{"key":"09774135","name":"Günzburg, GKSt","type":"Große_Kreisstadt"},"district":{"key":"09774","name":"Günzburg","type":"Landkreis"},"federalState":{"key":"09","name":"Bayern"}},{"name":"Freien","postalCode":"87634","locality":"Obergünzburg","municipality":{"key":"09777154","name":"Obergünzburg, M","type":"Markt"},"district":{"key":"09777","name":"Ostallgäu","type":"Landkreis"},"federalState":{"key":"09","name":"Bayern"}},{"name":"Friedhofweg","postalCode":"89312","locality":"Günzburg","municipality":{"key":"09774135","name":"Günzburg, GKSt","type":"Große_Kreisstadt"},"district":{"key":"09774","name":"Günzburg","type":"Landkreis"},"federalState":{"key":"09","name":"Bayern"}},{"name":"Friedrichsfeldweg","postalCode":"89312","locality":"Günzburg","municipality":{"key":"09774135","name":"Günzburg, GKSt","type":"Große_Kreisstadt"},"district":{"key":"09774","name":"Günzburg","type":"Landkreis"},"federalState":{"key":"09","name":"Bayern"}},{"name":"Frühlingstr.","postalCode":"89312","locality":"Günzburg","municipality":{"key":"09774135","name":"Günzburg, GKSt","type":"Große_Kreisstadt"},"district":{"key":"09774","name":"Günzburg","type":"Landkreis"},"federalState":{"key":"09","name":"Bayern"}},{"name":"Gartenweg","postalCode":"86479","locality":"Aichen","municipality":{"key":"09774166","name":"Aichen","type":"Kreisangehörige_Gemeinde"},"district":{"key":"09774","name":"Günzburg","type":"Landkreis"},"federalState":{"key":"09","name":"Bayern"}},{"name":"Hauptstr.","postalCode":"86479","locality":"Aichen","municipality":{"key":"09774166","name":"Aichen","type":"Kreisangehörige_Gemeinde"},"district":{"key":"09774","name":"Günzburg","type":"Landkreis"},"federalState":{"key":"09","name":"Bayern"}},{"name":"Im Gries","postalCode":"86479","locality":"Aichen","municipality":{"key":"09774166","name":"Aichen","type":"Kreisangehörige_Gemeinde"},"district":{"key":"09774","name":"Günzburg","type":"Landkreis"},"federalState":{"key":"09","name":"Bayern"}},{"name":"Im Grund","postalCode":"86479","locality":"Aichen","municipality":{"key":"09774166","name":"Aichen","type":"Kreisangehörige_Gemeinde"},"district":{"key":"09774","name":"Günzburg","type":"Landkreis"},"federalState":{"key":"09","name":"Bayern"}},{"name":"Im Unterfeld","postalCode":"86479","locality":"Aichen","municipality":{"key":"09774166","name":"Aichen","type":"Kreisangehörige_Gemeinde"},"district":{"key":"09774","name":"Günzburg","type":"Landkreis"},"federalState":{"key":"09","name":"Bayern"}},{"name":"Jägerndorfer Str.","postalCode":"89312","locality":"Günzburg","municipality":{"key":"09774135","name":"Günzburg, GKSt","type":"Große_Kreisstadt"},"district":{"key":"09774","name":"Günzburg","type":"Landkreis"},"federalState":{"key":"09","name":"Bayern"}},{"name":"Jahnstr.","postalCode":"89312","locality":"Günzburg","municipality":{"key":"09774135","name":"Günzburg, GKSt","type":"Große_Kreisstadt"},"district":{"key":"09774","name":"Günzburg","type":"Landkreis"},"federalState":{"key":"09","name":"Bayern"}},{"name":"Jahnweg","postalCode":"87634","locality":"Obergünzburg","municipality":{"key":"09777154","name":"Obergünzburg, M","type":"Markt"},"district":{"key":"09777","name":"Ostallgäu","type":"Landkreis"},"federalState":{"key":"09","name":"Bayern"}},{"name":"Johannes-Eck-Str.","postalCode":"89312","locality":"Günzburg","municipality":{"key":"09774135","name":"Günzburg, GKSt","type":"Große_Kreisstadt"},"district":{"key":"09774","name":"Günzburg","type":"Landkreis"},"federalState":{"key":"09","name":"Bayern"}},{"name":"Johann-Kempter-Str.","postalCode":"89312","locality":"Günzburg","municipality":{"key":"09774135","name":"Günzburg, GKSt","type":"Große_Kreisstadt"},"district":{"key":"09774","name":"Günzburg","type":"Landkreis"},"federalState":{"key":"09","name":"Bayern"}},{"name":"Johann-Litzel-Str.","postalCode":"89312","locality":"Günzburg","municipality":{"key":"09774135","name":"Günzburg, GKSt","type":"Große_Kreisstadt"},"district":{"key":"09774","name":"Günzburg","type":"Landkreis"},"federalState":{"key":"09","name":"Bayern"}},{"name":"Johann-Sauter-Str.","postalCode":"89312","locality":"Günzburg","municipality":{"key":"09774135","name":"Günzburg, GKSt","type":"Große_Kreisstadt"},"district":{"key":"09774","name":"Günzburg","type":"Landkreis"},"federalState":{"key":"09","name":"Bayern"}},{"name":"Josef-Haas-Str.","postalCode":"89312","locality":"Günzburg","municipality":{"key":"09774135","name":"Günzburg, GKSt","type":"Große_Kreisstadt"},"district":{"key":"09774","name":"Günzburg","type":"Landkreis"},"federalState":{"key":"09","name":"Bayern"}},{"name":"Josef-Kuhn-Str.","postalCode":"89312","locality":"Günzburg","municipality":{"key":"09774135","name":"Günzburg, GKSt","type":"Große_Kreisstadt"},"district":{"key":"09774","name":"Günzburg","type":"Landkreis"},"federalState":{"key":"09","name":"Bayern"}},{"name":"Judenweg","postalCode":"89312","locality":"Günzburg","municipality":{"key":"09774135","name":"Günzburg, GKSt","type":"Große_Kreisstadt"},"district":{"key":"09774","name":"Günzburg","type":"Landkreis"},"federalState":{"key":"09","name":"Bayern"}},{"name":"Junkersstr.","postalCode":"89312","locality":"Günzburg","municipality":{"key":"09774135","name":"Günzburg, GKSt","type":"Große_Kreisstadt"},"district":{"key":"09774","name":"Günzburg","type":"Landkreis"},"federalState":{"key":"09","name":"Bayern"}},{"name":"Kellerbergweg","postalCode":"86479","locality":"Aichen","municipality":{"key":"09774166","name":"Aichen","type":"Kreisangehörige_Gemeinde"},"district":{"key":"09774","name":"Günzburg","type":"Landkreis"},"federalState":{"key":"09","name":"Bayern"}},{"name":"Kirchweg","postalCode":"86479","locality":"Aichen","municipality":{"key":"09774166","name":"Aichen","type":"Kreisangehörige_Gemeinde"},"district":{"key":"09774","name":"Günzburg","type":"Landkreis"},"federalState":{"key":"09","name":"Bayern"}},{"name":"Kohlstattweg","postalCode":"86479","locality":"Aichen","municipality":{"key":"09774166","name":"Aichen","type":"Kreisangehörige_Gemeinde"},"district":{"key":"09774","name":"Günzburg","type":"Landkreis"},"federalState":{"key":"09","name":"Bayern"}},{"name":"Krautgartenweg","postalCode":"86479","locality":"Aichen","municipality":{"key":"09774166","name":"Aichen","type":"Kreisangehörige_Gemeinde"},"district":{"key":"09774","name":"Günzburg","type":"Landkreis"},"federalState":{"key":"09","name":"Bayern"}},{"name":"Kreuzweg","postalCode":"86479","locality":"Aichen","municipality":{"key":"09774166","name":"Aichen","type":"Kreisangehörige_Gemeinde"},"district":{"key":"09774","name":"Günzburg","type":"Landkreis"},"federalState":{"key":"09","name":"Bayern"}},{"name":"Lindenweg","postalCode":"86479","locality":"Aichen","municipality":{"key":"09774166","name":"Aichen","type":"Kreisangehörige_Gemeinde"},"district":{"key":"09774","name":"Günzburg","type":"Landkreis"},"federalState":{"key":"09","name":"Bayern"}},{"name":"Mösleweg","postalCode":"86479","locality":"Aichen","municipality":{"key":"09774166","name":"Aichen","type":"Kreisangehörige_Gemeinde"},"district":{"key":"09774","name":"Günzburg","type":"Landkreis"},"federalState":{"key":"09","name":"Bayern"}},{"name":"Mühlweg","postalCode":"86479","locality":"Aichen","municipality":{"key":"09774166","name":"Aichen","type":"Kreisangehörige_Gemeinde"},"district":{"key":"09774","name":"Günzburg","type":"Landkreis"},"federalState":{"key":"09","name":"Bayern"}},{"name":"Nagelschmiedeweg","postalCode":"87634","locality":"Obergünzburg","municipality":{"key":"09777154","name":"Obergünzburg, M","type":"Markt"},"district":{"key":"09777","name":"Ostallgäu","type":"Landkreis"},"federalState":{"key":"09","name":"Bayern"}},{"name":"Naturlehrpfad","postalCode":"89312","locality":"Günzburg","municipality":{"key":"09774135","name":"Günzburg, GKSt","type":"Große_Kreisstadt"},"district":{"key":"09774","name":"Günzburg","type":"Landkreis"},"federalState":{"key":"09","name":"Bayern"}},{"name":"Nelkenweg","postalCode":"87634","locality":"Obergünzburg","municipality":{"key":"09777154","name":"Obergünzburg, M","type":"Markt"},"district":{"key":"09777","name":"Ostallgäu","type":"Landkreis"},"federalState":{"key":"09","name":"Bayern"}},{"name":"Nelkenweg","postalCode":"89312","locality":"Günzburg","municipality":{"key":"09774135","name":"Günzburg, GKSt","type":"Große_Kreisstadt"},"district":{"key":"09774","name":"Günzburg","type":"Landkreis"},"federalState":{"key":"09","name":"Bayern"}},{"name":"Neubauerngäßle","postalCode":"87634","locality":"Obergünzburg","municipality":{"key":"09777154","name":"Obergünzburg, M","type":"Markt"},"district":{"key":"09777","name":"Ostallgäu","type":"Landkreis"},"federalState":{"key":"09","name":"Bayern"}},{"name":"Nikolausberg","postalCode":"87634","locality":"Obergünzburg","municipality":{"key":"09777154","name":"Obergünzburg, M","type":"Markt"},"district":{"key":"09777","name":"Ostallgäu","type":"Landkreis"},"federalState":{"key":"09","name":"Bayern"}},{"name":"Nikolausweg","postalCode":"87634","locality":"Obergünzburg","municipality":{"key":"09777154","name":"Obergünzburg, M","type":"Markt"},"district":{"key":"09777","name":"Ostallgäu","type":"Landkreis"},"federalState":{"key":"09","name":"Bayern"}},{"name":"Nördliches Günztal","postalCode":"89312","locality":"Günzburg","municipality":{"key":"09774135","name":"Günzburg, GKSt","type":"Große_Kreisstadt"},"district":{"key":"09774","name":"Günzburg","type":"Landkreis"},"federalState":{"key":"09","name":"Bayern"}},{"name":"Nordstr.","postalCode":"89312","locality":"Günzburg","municipality":{"key":"09774135","name":"Günzburg, GKSt","type":"Große_Kreisstadt"},"district":{"key":"09774","name":"Günzburg","type":"Landkreis"},"federalState":{"key":"09","name":"Bayern"}},{"name":"Nornheimer Berg","postalCode":"89312","locality":"Günzburg","municipality":{"key":"09774135","name":"Günzburg, GKSt","type":"Große_Kreisstadt"},"district":{"key":"09774","name":"Günzburg","type":"Landkreis"},"federalState":{"key":"09","name":"Bayern"}},{"name":"Nornheimer Str.","postalCode":"89312","locality":"Günzburg","municipality":{"key":"09774135","name":"Günzburg, GKSt","type":"Große_Kreisstadt"},"district":{"key":"09774","name":"Günzburg","type":"Landkreis"},"federalState":{"key":"09","name":"Bayern"}},{"name":"Nusser-von-Nußeck-Str.","postalCode":"89312","locality":"Günzburg","municipality":{"key":"09774135","name":"Günzburg, GKSt","type":"Große_Kreisstadt"},"district":{"key":"09774","name":"Günzburg","type":"Landkreis"},"federalState":{"key":"09","name":"Bayern"}},{"name":"Obere Dorfstr.","postalCode":"89312","locality":"Günzburg","municipality":{"key":"09774135","name":"Günzburg, GKSt","type":"Große_Kreisstadt"},"district":{"key":"09774","name":"Günzburg","type":"Landkreis"},"federalState":{"key":"09","name":"Bayern"}},{"name":"Oberer Markt","postalCode":"87634","locality":"Obergünzburg","municipality":{"key":"09777154","name":"Obergünzburg, M","type":"Markt"},"district":{"key":"09777","name":"Ostallgäu","type":"Landkreis"},"federalState":{"key":"09","name":"Bayern"}},{"name":"Oberer Röthelgrabenweg","postalCode":"89312","locality":"Günzburg","municipality":{"key":"09774135","name":"Günzburg, GKSt","type":"Große_Kreisstadt"},"district":{"key":"09774","name":"Günzburg","type":"Landkreis"},"federalState":{"key":"09","name":"Bayern"}},{"name":"Oberes Erlenbad","postalCode":"89312","locality":"Günzburg","municipality":{"key":"09774135","name":"Günzburg, GKSt","type":"Große_Kreisstadt"},"district":{"key":"09774","name":"Günzburg","type":"Landkreis"},"federalState":{"key":"09","name":"Bayern"}},{"name":"Oberes Hardtfeld","postalCode":"89312","locality":"Günzburg","municipality":{"key":"09774135","name":"Günzburg, GKSt","type":"Große_Kreisstadt"},"district":{"key":"09774","name":"Günzburg","type":"Landkreis"},"federalState":{"key":"09","name":"Bayern"}},{"name":"Oberndorferstr.","postalCode":"89312","locality":"Günzburg","municipality":{"key":"09774135","name":"Günzburg, GKSt","type":"Große_Kreisstadt"},"district":{"key":"09774","name":"Günzburg","type":"Landkreis"},"federalState":{"key":"09","name":"Bayern"}},{"name":"Ortsstr.","postalCode":"89312","locality":"Günzburg","municipality":{"key":"09774135","name":"Günzburg, GKSt","type":"Große_Kreisstadt"},"district":{"key":"09774","name":"Günzburg","type":"Landkreis"},"federalState":{"key":"09","name":"Bayern"}},{"name":"Ostpreußenweg","postalCode":"87634","locality":"Obergünzburg","municipality":{"key":"09777154","name":"Obergünzburg, M","type":"Markt"},"district":{"key":"09777","name":"Ostallgäu","type":"Landkreis"},"federalState":{"key":"09","name":"Bayern"}},{"name":"Otto-Geiselhart-Str.","postalCode":"89312","locality":"Günzburg","municipality":{"key":"09774135","name":"Günzburg, GKSt","type":"Große_Kreisstadt"},"district":{"key":"09774","name":"Günzburg","type":"Landkreis"},"federalState":{"key":"09","name":"Bayern"}},{"name":"Ottostr.","postalCode":"89312","locality":"Günzburg","municipality":{"key":"09774135","name":"Günzburg, GKSt","type":"Große_Kreisstadt"},"district":{"key":"09774","name":"Günzburg","type":"Landkreis"},"federalState":{"key":"09","name":"Bayern"}},{"name":"Oywiesenweg","postalCode":"87634","locality":"Obergünzburg","municipality":{"key":"09777154","name":"Obergünzburg, M","type":"Markt"},"district":{"key":"09777","name":"Ostallgäu","type":"Landkreis"},"federalState":{"key":"09","name":"Bayern"}},{"name":"Pfarrer-Bobinger-Str.","postalCode":"86479","locality":"Aichen","municipality":{"key":"09774166","name":"Aichen","type":"Kreisangehörige_Gemeinde"},"district":{"key":"09774","name":"Günzburg","type":"Landkreis"},"federalState":{"key":"09","name":"Bayern"}},{"name":"Plattenweg","postalCode":"86479","locality":"Aichen","municipality":{"key":"09774166","name":"Aichen","type":"Kreisangehörige_Gemeinde"},"district":{"key":"09774","name":"Günzburg","type":"Landkreis"},"federalState":{"key":"09","name":"Bayern"}},{"name":"Rieblinger Str.","postalCode":"86479","locality":"Aichen","municipality":{"key":"09774166","name":"Aichen","type":"Kreisangehörige_Gemeinde"},"district":{"key":"09774","name":"Günzburg","type":"Landkreis"},"federalState":{"key":"09","name":"Bayern"}},{"name":"Ringstr.","postalCode":"86479","locality":"Aichen","municipality":{"key":"09774166","name":"Aichen","type":"Kreisangehörige_Gemeinde"},"district":{"key":"09774","name":"Günzburg","type":"Landkreis"},"federalState":{"key":"09","name":"Bayern"}},{"name":"Sandweg","postalCode":"86479","locality":"Aichen","municipality":{"key":"09774166","name":"Aichen","type":"Kreisangehörige_Gemeinde"},"district":{"key":"09774","name":"Günzburg","type":"Landkreis"},"federalState":{"key":"09","name":"Bayern"}},{"name":"Sankt-Georg-Str.","postalCode":"86479","locality":"Aichen","municipality":{"key":"09774166","name":"Aichen","type":"Kreisangehörige_Gemeinde"},"district":{"key":"09774","name":"Günzburg","type":"Landkreis"},"federalState":{"key":"09","name":"Bayern"}},{"name":"Sankt-Peter-und-Paul-Platz","postalCode":"86479","locality":"Aichen","municipality":{"key":"09774166","name":"Aichen","type":"Kreisangehörige_Gemeinde"},"district":{"key":"09774","name":"Günzburg","type":"Landkreis"},"federalState":{"key":"09","name":"Bayern"}},{"name":"St.-Ulrich-Str.","postalCode":"86479","locality":"Aichen","municipality":{"key":"09774166","name":"Aichen","type":"Kreisangehörige_Gemeinde"},"district":{"key":"09774","name":"Günzburg","type":"Landkreis"},"federalState":{"key":"09","name":"Bayern"}},{"name":"Talblick","postalCode":"86479","locality":"Aichen","municipality":{"key":"09774166","name":"Aichen","type":"Kreisangehörige_Gemeinde"},"district":{"key":"09774","name":"Günzburg","type":"Landkreis"},"federalState":{"key":"09","name":"Bayern"}},{"name":"Tanzbühlweg","postalCode":"86479","locality":"Aichen","municipality":{"key":"09774166","name":"Aichen","type":"Kreisangehörige_Gemeinde"},"district":{"key":"09774","name":"Günzburg","type":"Landkreis"},"federalState":{"key":"09","name":"Bayern"}},{"name":"Uhlandstr.","postalCode":"89312","locality":"Günzburg","municipality":{"key":"09774135","name":"Günzburg, GKSt","type":"Große_Kreisstadt"},"district":{"key":"09774","name":"Günzburg","type":"Landkreis"},"federalState":{"key":"09","name":"Bayern"}},{"name":"Uhresweg","postalCode":"87634","locality":"Obergünzburg","municipality":{"key":"09777154","name":"Obergünzburg, M","type":"Markt"},"district":{"key":"09777","name":"Ostallgäu","type":"Landkreis"},"federalState":{"key":"09","name":"Bayern"}},{"name":"Ulmer-Boten-Weg","postalCode":"89312","locality":"Günzburg","municipality":{"key":"09774135","name":"Günzburg, GKSt","type":"Große_Kreisstadt"},"district":{"key":"09774","name":"Günzburg","type":"Landkreis"},"federalState":{"key":"09","name":"Bayern"}},{"name":"Ulmer Str.","postalCode":"89312","locality":"Günzburg","municipality":{"key":"09774135","name":"Günzburg, GKSt","type":"Große_Kreisstadt"},"district":{"key":"09774","name":"Günzburg","type":"Landkreis"},"federalState":{"key":"09","name":"Bayern"}},{"name":"Ulrich-Rapp-Str.","postalCode":"87634","locality":"Obergünzburg","municipality":{"key":"09777154","name":"Obergünzburg, M","type":"Markt"},"district":{"key":"09777","name":"Ostallgäu","type":"Landkreis"},"federalState":{"key":"09","name":"Bayern"}},{"name":"Ulrichstr.","postalCode":"89312","locality":"Günzburg","municipality":{"key":"09774135","name":"Günzburg, GKSt","type":"Große_Kreisstadt"},"district":{"key":"09774","name":"Günzburg","type":"Landkreis"},"federalState":{"key":"09","name":"Bayern"}},{"name":"Ulugasse","postalCode":"89312","locality":"Günzburg","municipality":{"key":"09774135","name":"Günzburg, GKSt","type":"Große_Kreisstadt"},"district":{"key":"09774","name":"Günzburg","type":"Landkreis"},"federalState":{"key":"09","name":"Bayern"}},{"name":"Untere Dorfstr.","postalCode":"89312","locality":"Günzburg","municipality":{"key":"09774135","name":"Günzburg, GKSt","type":"Große_Kreisstadt"},"district":{"key":"09774","name":"Günzburg","type":"Landkreis"},"federalState":{"key":"09","name":"Bayern"}},{"name":"Unterer Markt","postalCode":"87634","locality":"Obergünzburg","municipality":{"key":"09777154","name":"Obergünzburg, M","type":"Markt"},"district":{"key":"09777","name":"Ostallgäu","type":"Landkreis"},"federalState":{"key":"09","name":"Bayern"}},{"name":"Unterer Moosweg","postalCode":"89312","locality":"Günzburg","municipality":{"key":"09774135","name":"Günzburg, GKSt","type":"Große_Kreisstadt"},"district":{"key":"09774","name":"Günzburg","type":"Landkreis"},"federalState":{"key":"09","name":"Bayern"}},{"name":"Veilchenweg","postalCode":"89312","locality":"Günzburg","municipality":{"key":"09774135","name":"Günzburg, GKSt","type":"Große_Kreisstadt"},"district":{"key":"09774","name":"Günzburg","type":"Landkreis"},"federalState":{"key":"09","name":"Bayern"}},{"name":"Verkehrsinsel","postalCode":"89312","locality":"Günzburg","municipality":{"key":"09774135","name":"Günzburg, GKSt","type":"Große_Kreisstadt"},"district":{"key":"09774","name":"Günzburg","type":"Landkreis"},"federalState":{"key":"09","name":"Bayern"}},{"name":"Via-Julia-Ring","postalCode":"89312","locality":"Günzburg","municipality":{"key":"09774135","name":"Günzburg, GKSt","type":"Große_Kreisstadt"},"district":{"key":"09774","name":"Günzburg","type":"Landkreis"},"federalState":{"key":"09","name":"Bayern"}},{"name":"Viehweidweg","postalCode":"87634","locality":"Obergünzburg","municipality":{"key":"09777154","name":"Obergünzburg, M","type":"Markt"},"district":{"key":"09777","name":"Ostallgäu","type":"Landkreis"},"federalState":{"key":"09","name":"Bayern"}},{"name":"Vinzentinerinnenweg","postalCode":"87634","locality":"Obergünzburg","municipality":{"key":"09777154","name":"Obergünzburg, M","type":"Markt"},"district":{"key":"09777","name":"Ostallgäu","type":"Landkreis"},"federalState":{"key":"09","name":"Bayern"}},{"name":"Violastr.","postalCode":"89312","locality":"Günzburg","municipality":{"key":"09774135","name":"Günzburg, GKSt","type":"Große_Kreisstadt"},"district":{"key":"09774","name":"Günzburg","type":"Landkreis"},"federalState":{"key":"09","name":"Bayern"}},{"name":"Von-Burkhardt-Str.","postalCode":"89312","locality":"Günzburg","municipality":{"key":"09774135","name":"Günzburg, GKSt","type":"Große_Kreisstadt"},"district":{"key":"09774","name":"Günzburg","type":"Landkreis"},"federalState":{"key":"09","name":"Bayern"}},{"name":"Von-Gielsberg-Str.","postalCode":"89312","locality":"Günzburg","municipality":{"key":"09774135","name":"Günzburg, GKSt","type":"Große_Kreisstadt"},"district":{"key":"09774","name":"Günzburg","type":"Landkreis"},"federalState":{"key":"09","name":"Bayern"}},{"name":"Von-Grafenegg-Str.","postalCode":"87634","locality":"Obergünzburg","municipality":{"key":"09777154","name":"Obergünzburg, M","type":"Markt"},"district":{"key":"09777","name":"Ostallgäu","type":"Landkreis"},"federalState":{"key":"09","name":"Bayern"}},{"name":"Von-Greyerz-Str.","postalCode":"89312","locality":"Günzburg","municipality":{"key":"09774135","name":"Günzburg, GKSt","type":"Große_Kreisstadt"},"district":{"key":"09774","name":"Günzburg","type":"Landkreis"},"federalState":{"key":"09","name":"Bayern"}},{"name":"Von-Grünenstein-Str.","postalCode":"87634","locality":"Obergünzburg","municipality":{"key":"09777154","name":"Obergünzburg, M","type":"Markt"},"district":{"key":"09777","name":"Ostallgäu","type":"Landkreis"},"federalState":{"key":"09","name":"Bayern"}},{"name":"Von-Maldeghem-Str.","postalCode":"89312","locality":"Günzburg","municipality":{"key":"09774135","name":"Günzburg, GKSt","type":"Große_Kreisstadt"},"district":{"key":"09774","name":"Günzburg","type":"Landkreis"},"federalState":{"key":"09","name":"Bayern"}},{"name":"Von-Richthofen-Str.","postalCode":"89312","locality":"Günzburg","municipality":{"key":"09774135","name":"Günzburg, GKSt","type":"Große_Kreisstadt"},"district":{"key":"09774","name":"Günzburg","type":"Landkreis"},"federalState":{"key":"09","name":"Bayern"}},{"name":"Von-Riedheim-Str.","postalCode":"89312","locality":"Günzburg","municipality":{"key":"09774135","name":"Günzburg, GKSt","type":"Große_Kreisstadt"},"district":{"key":"09774","name":"Günzburg","type":"Landkreis"},"federalState":{"key":"09","name":"Bayern"}},{"name":"Von-Schönau-Weg","postalCode":"87634","locality":"Obergünzburg","municipality":{"key":"09777154","name":"Obergünzburg, M","type":"Markt"},"district":{"key":"09777","name":"Ostallgäu","type":"Landkreis"},"federalState":{"key":"09","name":"Bayern"}},{"name":"Von-Stain-Str.","postalCode":"89312","locality":"Günzburg","municipality":{"key":"09774135","name":"Günzburg, GKSt","type":"Große_Kreisstadt"},"district":{"key":"09774","name":"Günzburg","type":"Landkreis"},"federalState":{"key":"09","name":"Bayern"}},{"name":"Von-Stuben-Str.","postalCode":"87634","locality":"Obergünzburg","municipality":{"key":"09777154","name":"Obergünzburg, M","type":"Markt"},"district":{"key":"09777","name":"Ostallgäu","type":"Landkreis"},"federalState":{"key":"09","name":"Bayern"}},{"name":"Waldweg","postalCode":"86479","locality":"Aichen","municipality":{"key":"09774166","name":"Aichen","type":"Kreisangehörige_Gemeinde"},"district":{"key":"09774","name":"Günzburg","type":"Landkreis"},"federalState":{"key":"09","name":"Bayern"}},{"name":"Weiherweg","postalCode":"86479","locality":"Aichen","municipality":{"key":"09774166","name":"Aichen","type":"Kreisangehörige_Gemeinde"},"district":{"key":"09774","name":"Günzburg","type":"Landkreis"},"federalState":{"key":"09","name":"Bayern"}},{"name":"Wiesweg","postalCode":"86479","locality":"Aichen","municipality":{"key":"09774166","name":"Aichen","type":"Kreisangehörige_Gemeinde"},"district":{"key":"09774","name":"Günzburg","type":"Landkreis"},"federalState":{"key":"09","name":"Bayern"}},{"name":"Xaver-Bayer-Str.","postalCode":"89312","locality":"Günzburg","municipality":{"key":"09774135","name":"Günzburg, GKSt","type":"Große_Kreisstadt"},"district":{"key":"09774","name":"Günzburg","type":"Landkreis"},"federalState":{"key":"09","name":"Bayern"}},{"name":"Zusamstr.","postalCode":"86479","locality":"Aichen","municipality":{"key":"09774166","name":"Aichen","type":"Kreisangehörige_Gemeinde"},"district":{"key":"09774","name":"Günzburg","type":"Landkreis"},"federalState":{"key":"09","name":"Bayern"}},{"name":"Äußere Brunnengasse","postalCode":"89312","locality":"Günzburg","municipality":{"key":"09774135","name":"Günzburg, GKSt","type":"Große_Kreisstadt"},"district":{"key":"09774","name":"Günzburg","type":"Landkreis"},"federalState":{"key":"09","name":"Bayern"}},{"name":"Öschweg","postalCode":"87634","locality":"Obergünzburg","municipality":{"key":"09777154","name":"Obergünzburg, M","type":"Markt"},"district":{"key":"09777","name":"Ostallgäu","type":"Landkreis"},"federalState":{"key":"09","name":"Bayern"}},]