[{"key":"10068490","name":"Au Montélaz","postalCode":"1404","locality":"Cuarny","commune":{"key":"5911","name":"Cuarny","shortName":"Cuarny"},"district":{"key":"2224","name":"District du Jura-Nord vaudois"},"canton":{"key":"22","code":"VD","name":"Vaud"},"status":"Real"},{"key":"10165472","name":"Chemin Champ Toccan","postalCode":"1404","locality":"Cuarny","commune":{"key":"5911","name":"Cuarny","shortName":"Cuarny"},"district":{"key":"2224","name":"District du Jura-Nord vaudois"},"canton":{"key":"22","code":"VD","name":"Vaud"},"status":"Real"},{"key":"10168180","name":"Chemin de la Sauge","postalCode":"1404","locality":"Cuarny","commune":{"key":"5911","name":"Cuarny","shortName":"Cuarny"},"district":{"key":"2224","name":"District du Jura-Nord vaudois"},"canton":{"key":"22","code":"VD","name":"Vaud"},"status":"Real"},{"key":"10050420","name":"Chemin des Clos","postalCode":"1404","locality":"Cuarny","commune":{"key":"5911","name":"Cuarny","shortName":"Cuarny"},"district":{"key":"2224","name":"District du Jura-Nord vaudois"},"canton":{"key":"22","code":"VD","name":"Vaud"},"status":"Real"},{"key":"10098038","name":"Chemin des Rochettes","postalCode":"1404","locality":"Cuarny","commune":{"key":"5911","name":"Cuarny","shortName":"Cuarny"},"district":{"key":"2224","name":"District du Jura-Nord vaudois"},"canton":{"key":"22","code":"VD","name":"Vaud"},"status":"Real"},{"key":"10158071","name":"Chemin de Villars","postalCode":"1404","locality":"Cuarny","commune":{"key":"5911","name":"Cuarny","shortName":"Cuarny"},"district":{"key":"2224","name":"District du Jura-Nord vaudois"},"canton":{"key":"22","code":"VD","name":"Vaud"},"status":"Real"},{"key":"10165471","name":"Chemin du Jeu de Quilles","postalCode":"1404","locality":"Cuarny","commune":{"key":"5911","name":"Cuarny","shortName":"Cuarny"},"district":{"key":"2224","name":"District du Jura-Nord vaudois"},"canton":{"key":"22","code":"VD","name":"Vaud"},"status":"Real"},{"key":"10116336","name":"Clos-du-Moulin","postalCode":"1404","locality":"Cuarny","commune":{"key":"5911","name":"Cuarny","shortName":"Cuarny"},"district":{"key":"2224","name":"District du Jura-Nord vaudois"},"canton":{"key":"22","code":"VD","name":"Vaud"},"status":"Real"},{"key":"10050419","name":"Fignerolles","postalCode":"1404","locality":"Cuarny","commune":{"key":"5911","name":"Cuarny","shortName":"Cuarny"},"district":{"key":"2224","name":"District du Jura-Nord vaudois"},"canton":{"key":"22","code":"VD","name":"Vaud"},"status":"Real"},{"key":"10068489","name":"La Grand'Fin","postalCode":"1404","locality":"Cuarny","commune":{"key":"5911","name":"Cuarny","shortName":"Cuarny"},"district":{"key":"2224","name":"District du Jura-Nord vaudois"},"canton":{"key":"22","code":"VD","name":"Vaud"},"status":"Real"},{"key":"10158078","name":"Le Crô Lô","postalCode":"1404","locality":"Cuarny","commune":{"key":"5911","name":"Cuarny","shortName":"Cuarny"},"district":{"key":"2224","name":"District du Jura-Nord vaudois"},"canton":{"key":"22","code":"VD","name":"Vaud"},"status":"Real"},{"key":"10158079","name":"Le Grand Nouz","postalCode":"1404","locality":"Cuarny","commune":{"key":"5911","name":"Cuarny","shortName":"Cuarny"},"district":{"key":"2224","name":"District du Jura-Nord vaudois"},"canton":{"key":"22","code":"VD","name":"Vaud"},"status":"Real"},{"key":"10158073","name":"Le Petit Nouz","postalCode":"1404","locality":"Cuarny","commune":{"key":"5911","name":"Cuarny","shortName":"Cuarny"},"district":{"key":"2224","name":"District du Jura-Nord vaudois"},"canton":{"key":"22","code":"VD","name":"Vaud"},"status":"Real"},{"key":"10156347","name":"L'Epine","postalCode":"1404","locality":"Cuarny","commune":{"key":"5911","name":"Cuarny","shortName":"Cuarny"},"district":{"key":"2224","name":"District du Jura-Nord vaudois"},"canton":{"key":"22","code":"VD","name":"Vaud"},"status":"Real"},{"key":"10160068","name":"Le Sermon","postalCode":"1404","locality":"Cuarny","commune":{"key":"5911","name":"Cuarny","shortName":"Cuarny"},"district":{"key":"2224","name":"District du Jura-Nord vaudois"},"canton":{"key":"22","code":"VD","name":"Vaud"},"status":"Real"},{"key":"10156455","name":"Route du Levant","postalCode":"1404","locality":"Cuarny","commune":{"key":"5911","name":"Cuarny","shortName":"Cuarny"},"district":{"key":"2224","name":"District du Jura-Nord vaudois"},"canton":{"key":"22","code":"VD","name":"Vaud"},"status":"Real"},{"key":"10158070","name":"Rue de la Youque","postalCode":"1404","locality":"Cuarny","commune":{"key":"5911","name":"Cuarny","shortName":"Cuarny"},"district":{"key":"2224","name":"District du Jura-Nord vaudois"},"canton":{"key":"22","code":"VD","name":"Vaud"},"status":"Real"},{"key":"10156346","name":"Rue du Couchant","postalCode":"1404","locality":"Cuarny","commune":{"key":"5911","name":"Cuarny","shortName":"Cuarny"},"district":{"key":"2224","name":"District du Jura-Nord vaudois"},"canton":{"key":"22","code":"VD","name":"Vaud"},"status":"Real"},{"key":"10158072","name":"Rue du Théâtre","postalCode":"1404","locality":"Cuarny","commune":{"key":"5911","name":"Cuarny","shortName":"Cuarny"},"district":{"key":"2224","name":"District du Jura-Nord vaudois"},"canton":{"key":"22","code":"VD","name":"Vaud"},"status":"Real"},{"key":"10156461","name":"Ruelle à Guillet","postalCode":"1404","locality":"Cuarny","commune":{"key":"5911","name":"Cuarny","shortName":"Cuarny"},"district":{"key":"2224","name":"District du Jura-Nord vaudois"},"canton":{"key":"22","code":"VD","name":"Vaud"},"status":"Real"},]