[{"name":"Am Hang","postalCode":"19065","locality":"Gneven","municipality":{"key":"13076044","name":"Gneven","type":"Kreisangehörige_Gemeinde"},"district":{"key":"13076","name":"Ludwigslust-Parchim","type":"Landkreis"},"federalState":{"key":"13","name":"Mecklenburg-Vorpommern"}},{"name":"Am Schünsee","postalCode":"19065","locality":"Gneven","municipality":{"key":"13076044","name":"Gneven","type":"Kreisangehörige_Gemeinde"},"district":{"key":"13076","name":"Ludwigslust-Parchim","type":"Landkreis"},"federalState":{"key":"13","name":"Mecklenburg-Vorpommern"}},{"name":"An der Warnow","postalCode":"19065","locality":"Gneven","municipality":{"key":"13076044","name":"Gneven","type":"Kreisangehörige_Gemeinde"},"district":{"key":"13076","name":"Ludwigslust-Parchim","type":"Landkreis"},"federalState":{"key":"13","name":"Mecklenburg-Vorpommern"}},{"name":"Dorfstr.","postalCode":"19065","locality":"Gneven","municipality":{"key":"13076044","name":"Gneven","type":"Kreisangehörige_Gemeinde"},"district":{"key":"13076","name":"Ludwigslust-Parchim","type":"Landkreis"},"federalState":{"key":"13","name":"Mecklenburg-Vorpommern"}},{"name":"Ernie-Avenue","postalCode":"19065","locality":"Gneven","municipality":{"key":"13076044","name":"Gneven","type":"Kreisangehörige_Gemeinde"},"district":{"key":"13076","name":"Ludwigslust-Parchim","type":"Landkreis"},"federalState":{"key":"13","name":"Mecklenburg-Vorpommern"}},{"name":"Feuerpark","postalCode":"19065","locality":"Gneven","municipality":{"key":"13076044","name":"Gneven","type":"Kreisangehörige_Gemeinde"},"district":{"key":"13076","name":"Ludwigslust-Parchim","type":"Landkreis"},"federalState":{"key":"13","name":"Mecklenburg-Vorpommern"}},{"name":"Habern Koppel","postalCode":"19065","locality":"Gneven","municipality":{"key":"13076044","name":"Gneven","type":"Kreisangehörige_Gemeinde"},"district":{"key":"13076","name":"Ludwigslust-Parchim","type":"Landkreis"},"federalState":{"key":"13","name":"Mecklenburg-Vorpommern"}},{"name":"Kastanienweg","postalCode":"19065","locality":"Gneven","municipality":{"key":"13076044","name":"Gneven","type":"Kreisangehörige_Gemeinde"},"district":{"key":"13076","name":"Ludwigslust-Parchim","type":"Landkreis"},"federalState":{"key":"13","name":"Mecklenburg-Vorpommern"}},{"name":"Kladower Weg","postalCode":"19065","locality":"Gneven","municipality":{"key":"13076044","name":"Gneven","type":"Kreisangehörige_Gemeinde"},"district":{"key":"13076","name":"Ludwigslust-Parchim","type":"Landkreis"},"federalState":{"key":"13","name":"Mecklenburg-Vorpommern"}},{"name":"Kranichweg","postalCode":"19065","locality":"Gneven","municipality":{"key":"13076044","name":"Gneven","type":"Kreisangehörige_Gemeinde"},"district":{"key":"13076","name":"Ludwigslust-Parchim","type":"Landkreis"},"federalState":{"key":"13","name":"Mecklenburg-Vorpommern"}},{"name":"Kritzower Str.","postalCode":"19065","locality":"Gneven","municipality":{"key":"13076044","name":"Gneven","type":"Kreisangehörige_Gemeinde"},"district":{"key":"13076","name":"Ludwigslust-Parchim","type":"Landkreis"},"federalState":{"key":"13","name":"Mecklenburg-Vorpommern"}},{"name":"Vorbecker Str.","postalCode":"19065","locality":"Gneven","municipality":{"key":"13076044","name":"Gneven","type":"Kreisangehörige_Gemeinde"},"district":{"key":"13076","name":"Ludwigslust-Parchim","type":"Landkreis"},"federalState":{"key":"13","name":"Mecklenburg-Vorpommern"}},{"name":"Zum Vorbecker See","postalCode":"19065","locality":"Gneven","municipality":{"key":"13076044","name":"Gneven","type":"Kreisangehörige_Gemeinde"},"district":{"key":"13076","name":"Ludwigslust-Parchim","type":"Landkreis"},"federalState":{"key":"13","name":"Mecklenburg-Vorpommern"}},]