[{"name":"Am Mühlgarten","postalCode":"91080","locality":"Spardorf","municipality":{"key":"09572154","name":"Spardorf","type":"Kreisangehörige_Gemeinde"},"district":{"key":"09572","name":"Erlangen-Höchstadt","type":"Landkreis"},"federalState":{"key":"09","name":"Bayern"}},{"name":"Am Tennenbach","postalCode":"91080","locality":"Spardorf","municipality":{"key":"09572154","name":"Spardorf","type":"Kreisangehörige_Gemeinde"},"district":{"key":"09572","name":"Erlangen-Höchstadt","type":"Landkreis"},"federalState":{"key":"09","name":"Bayern"}},{"name":"Am Veilchenberg","postalCode":"91080","locality":"Spardorf","municipality":{"key":"09572154","name":"Spardorf","type":"Kreisangehörige_Gemeinde"},"district":{"key":"09572","name":"Erlangen-Höchstadt","type":"Landkreis"},"federalState":{"key":"09","name":"Bayern"}},{"name":"Am Ziegelacker","postalCode":"91080","locality":"Spardorf","municipality":{"key":"09572154","name":"Spardorf","type":"Kreisangehörige_Gemeinde"},"district":{"key":"09572","name":"Erlangen-Höchstadt","type":"Landkreis"},"federalState":{"key":"09","name":"Bayern"}},{"name":"Andreas-Paulus-Str.","postalCode":"91080","locality":"Spardorf","municipality":{"key":"09572154","name":"Spardorf","type":"Kreisangehörige_Gemeinde"},"district":{"key":"09572","name":"Erlangen-Höchstadt","type":"Landkreis"},"federalState":{"key":"09","name":"Bayern"}},{"name":"Bergstr.","postalCode":"91080","locality":"Spardorf","municipality":{"key":"09572154","name":"Spardorf","type":"Kreisangehörige_Gemeinde"},"district":{"key":"09572","name":"Erlangen-Höchstadt","type":"Landkreis"},"federalState":{"key":"09","name":"Bayern"}},{"name":"Buckenhofer Str.","postalCode":"91080","locality":"Spardorf","municipality":{"key":"09572154","name":"Spardorf","type":"Kreisangehörige_Gemeinde"},"district":{"key":"09572","name":"Erlangen-Höchstadt","type":"Landkreis"},"federalState":{"key":"09","name":"Bayern"}},{"name":"Eichenweg","postalCode":"91080","locality":"Spardorf","municipality":{"key":"09572154","name":"Spardorf","type":"Kreisangehörige_Gemeinde"},"district":{"key":"09572","name":"Erlangen-Höchstadt","type":"Landkreis"},"federalState":{"key":"09","name":"Bayern"}},{"name":"Erlanger Str.","postalCode":"91080","locality":"Spardorf","municipality":{"key":"09572154","name":"Spardorf","type":"Kreisangehörige_Gemeinde"},"district":{"key":"09572","name":"Erlangen-Höchstadt","type":"Landkreis"},"federalState":{"key":"09","name":"Bayern"}},{"name":"Ernst-Penzoldt-Weg","postalCode":"91080","locality":"Spardorf","municipality":{"key":"09572154","name":"Spardorf","type":"Kreisangehörige_Gemeinde"},"district":{"key":"09572","name":"Erlangen-Höchstadt","type":"Landkreis"},"federalState":{"key":"09","name":"Bayern"}},{"name":"Glockenblumenweg","postalCode":"91080","locality":"Spardorf","municipality":{"key":"09572154","name":"Spardorf","type":"Kreisangehörige_Gemeinde"},"district":{"key":"09572","name":"Erlangen-Höchstadt","type":"Landkreis"},"federalState":{"key":"09","name":"Bayern"}},{"name":"Hohe Warte","postalCode":"91080","locality":"Spardorf","municipality":{"key":"09572154","name":"Spardorf","type":"Kreisangehörige_Gemeinde"},"district":{"key":"09572","name":"Erlangen-Höchstadt","type":"Landkreis"},"federalState":{"key":"09","name":"Bayern"}},{"name":"Kellerweg","postalCode":"91080","locality":"Spardorf","municipality":{"key":"09572154","name":"Spardorf","type":"Kreisangehörige_Gemeinde"},"district":{"key":"09572","name":"Erlangen-Höchstadt","type":"Landkreis"},"federalState":{"key":"09","name":"Bayern"}},{"name":"Königsberger Str.","postalCode":"91080","locality":"Spardorf","municipality":{"key":"09572154","name":"Spardorf","type":"Kreisangehörige_Gemeinde"},"district":{"key":"09572","name":"Erlangen-Höchstadt","type":"Landkreis"},"federalState":{"key":"09","name":"Bayern"}},{"name":"Kornblumenweg","postalCode":"91080","locality":"Spardorf","municipality":{"key":"09572154","name":"Spardorf","type":"Kreisangehörige_Gemeinde"},"district":{"key":"09572","name":"Erlangen-Höchstadt","type":"Landkreis"},"federalState":{"key":"09","name":"Bayern"}},{"name":"Lichtnelkenweg","postalCode":"91080","locality":"Spardorf","municipality":{"key":"09572154","name":"Spardorf","type":"Kreisangehörige_Gemeinde"},"district":{"key":"09572","name":"Erlangen-Höchstadt","type":"Landkreis"},"federalState":{"key":"09","name":"Bayern"}},{"name":"Luzernenweg","postalCode":"91080","locality":"Spardorf","municipality":{"key":"09572154","name":"Spardorf","type":"Kreisangehörige_Gemeinde"},"district":{"key":"09572","name":"Erlangen-Höchstadt","type":"Landkreis"},"federalState":{"key":"09","name":"Bayern"}},{"name":"Malvenweg","postalCode":"91080","locality":"Spardorf","municipality":{"key":"09572154","name":"Spardorf","type":"Kreisangehörige_Gemeinde"},"district":{"key":"09572","name":"Erlangen-Höchstadt","type":"Landkreis"},"federalState":{"key":"09","name":"Bayern"}},{"name":"Marloffsteiner Str.","postalCode":"91080","locality":"Spardorf","municipality":{"key":"09572154","name":"Spardorf","type":"Kreisangehörige_Gemeinde"},"district":{"key":"09572","name":"Erlangen-Höchstadt","type":"Landkreis"},"federalState":{"key":"09","name":"Bayern"}},{"name":"Rathsberger Str.","postalCode":"91080","locality":"Spardorf","municipality":{"key":"09572154","name":"Spardorf","type":"Kreisangehörige_Gemeinde"},"district":{"key":"09572","name":"Erlangen-Höchstadt","type":"Landkreis"},"federalState":{"key":"09","name":"Bayern"}},{"name":"Ringstr.","postalCode":"91080","locality":"Spardorf","municipality":{"key":"09572154","name":"Spardorf","type":"Kreisangehörige_Gemeinde"},"district":{"key":"09572","name":"Erlangen-Höchstadt","type":"Landkreis"},"federalState":{"key":"09","name":"Bayern"}},{"name":"Sandstr.","postalCode":"91080","locality":"Spardorf","municipality":{"key":"09572154","name":"Spardorf","type":"Kreisangehörige_Gemeinde"},"district":{"key":"09572","name":"Erlangen-Höchstadt","type":"Landkreis"},"federalState":{"key":"09","name":"Bayern"}},{"name":"Schlesierstr.","postalCode":"91080","locality":"Spardorf","municipality":{"key":"09572154","name":"Spardorf","type":"Kreisangehörige_Gemeinde"},"district":{"key":"09572","name":"Erlangen-Höchstadt","type":"Landkreis"},"federalState":{"key":"09","name":"Bayern"}},{"name":"Schulstr.","postalCode":"91080","locality":"Spardorf","municipality":{"key":"09572154","name":"Spardorf","type":"Kreisangehörige_Gemeinde"},"district":{"key":"09572","name":"Erlangen-Höchstadt","type":"Landkreis"},"federalState":{"key":"09","name":"Bayern"}},{"name":"Schultheißstr.","postalCode":"91080","locality":"Spardorf","municipality":{"key":"09572154","name":"Spardorf","type":"Kreisangehörige_Gemeinde"},"district":{"key":"09572","name":"Erlangen-Höchstadt","type":"Landkreis"},"federalState":{"key":"09","name":"Bayern"}},{"name":"Schwedenstr.","postalCode":"91080","locality":"Spardorf","municipality":{"key":"09572154","name":"Spardorf","type":"Kreisangehörige_Gemeinde"},"district":{"key":"09572","name":"Erlangen-Höchstadt","type":"Landkreis"},"federalState":{"key":"09","name":"Bayern"}},{"name":"Siedlerstr.","postalCode":"91080","locality":"Spardorf","municipality":{"key":"09572154","name":"Spardorf","type":"Kreisangehörige_Gemeinde"},"district":{"key":"09572","name":"Erlangen-Höchstadt","type":"Landkreis"},"federalState":{"key":"09","name":"Bayern"}},{"name":"Sonnenblumenweg","postalCode":"91080","locality":"Spardorf","municipality":{"key":"09572154","name":"Spardorf","type":"Kreisangehörige_Gemeinde"},"district":{"key":"09572","name":"Erlangen-Höchstadt","type":"Landkreis"},"federalState":{"key":"09","name":"Bayern"}},{"name":"Steinbruchstr.","postalCode":"91080","locality":"Spardorf","municipality":{"key":"09572154","name":"Spardorf","type":"Kreisangehörige_Gemeinde"},"district":{"key":"09572","name":"Erlangen-Höchstadt","type":"Landkreis"},"federalState":{"key":"09","name":"Bayern"}},{"name":"Steinweg","postalCode":"91080","locality":"Spardorf","municipality":{"key":"09572154","name":"Spardorf","type":"Kreisangehörige_Gemeinde"},"district":{"key":"09572","name":"Erlangen-Höchstadt","type":"Landkreis"},"federalState":{"key":"09","name":"Bayern"}},{"name":"Sudetenstr.","postalCode":"91080","locality":"Spardorf","municipality":{"key":"09572154","name":"Spardorf","type":"Kreisangehörige_Gemeinde"},"district":{"key":"09572","name":"Erlangen-Höchstadt","type":"Landkreis"},"federalState":{"key":"09","name":"Bayern"}},{"name":"Uttenreuther Str.","postalCode":"91080","locality":"Spardorf","municipality":{"key":"09572154","name":"Spardorf","type":"Kreisangehörige_Gemeinde"},"district":{"key":"09572","name":"Erlangen-Höchstadt","type":"Landkreis"},"federalState":{"key":"09","name":"Bayern"}},]