[{"name":"Ahornstr.","postalCode":"56865","locality":"Blankenrath","municipality":{"key":"07135010","name":"Blankenrath","type":"Kreisangehörige_Gemeinde"},"district":{"key":"07135","name":"Cochem-Zell","type":"Landkreis"},"federalState":{"key":"07","name":"Rheinland-Pfalz"}},{"name":"Am Bienengäßchen","postalCode":"56865","locality":"Blankenrath","municipality":{"key":"07135010","name":"Blankenrath","type":"Kreisangehörige_Gemeinde"},"district":{"key":"07135","name":"Cochem-Zell","type":"Landkreis"},"federalState":{"key":"07","name":"Rheinland-Pfalz"}},{"name":"Am Rehling","postalCode":"56865","locality":"Blankenrath","municipality":{"key":"07135010","name":"Blankenrath","type":"Kreisangehörige_Gemeinde"},"district":{"key":"07135","name":"Cochem-Zell","type":"Landkreis"},"federalState":{"key":"07","name":"Rheinland-Pfalz"}},{"name":"Am Reitersgäßchen","postalCode":"56865","locality":"Blankenrath","municipality":{"key":"07135010","name":"Blankenrath","type":"Kreisangehörige_Gemeinde"},"district":{"key":"07135","name":"Cochem-Zell","type":"Landkreis"},"federalState":{"key":"07","name":"Rheinland-Pfalz"}},{"name":"An der Au","postalCode":"56865","locality":"Blankenrath","municipality":{"key":"07135010","name":"Blankenrath","type":"Kreisangehörige_Gemeinde"},"district":{"key":"07135","name":"Cochem-Zell","type":"Landkreis"},"federalState":{"key":"07","name":"Rheinland-Pfalz"}},{"name":"An der Kirche","postalCode":"56865","locality":"Blankenrath","municipality":{"key":"07135010","name":"Blankenrath","type":"Kreisangehörige_Gemeinde"},"district":{"key":"07135","name":"Cochem-Zell","type":"Landkreis"},"federalState":{"key":"07","name":"Rheinland-Pfalz"}},{"name":"Bergweg","postalCode":"56865","locality":"Blankenrath","municipality":{"key":"07135010","name":"Blankenrath","type":"Kreisangehörige_Gemeinde"},"district":{"key":"07135","name":"Cochem-Zell","type":"Landkreis"},"federalState":{"key":"07","name":"Rheinland-Pfalz"}},{"name":"Birkenweg","postalCode":"56865","locality":"Blankenrath","municipality":{"key":"07135010","name":"Blankenrath","type":"Kreisangehörige_Gemeinde"},"district":{"key":"07135","name":"Cochem-Zell","type":"Landkreis"},"federalState":{"key":"07","name":"Rheinland-Pfalz"}},{"name":"Buchenstr.","postalCode":"56865","locality":"Blankenrath","municipality":{"key":"07135010","name":"Blankenrath","type":"Kreisangehörige_Gemeinde"},"district":{"key":"07135","name":"Cochem-Zell","type":"Landkreis"},"federalState":{"key":"07","name":"Rheinland-Pfalz"}},{"name":"Flaumbachstr.","postalCode":"56865","locality":"Blankenrath","municipality":{"key":"07135010","name":"Blankenrath","type":"Kreisangehörige_Gemeinde"},"district":{"key":"07135","name":"Cochem-Zell","type":"Landkreis"},"federalState":{"key":"07","name":"Rheinland-Pfalz"}},{"name":"Gartenstr.","postalCode":"56865","locality":"Blankenrath","municipality":{"key":"07135010","name":"Blankenrath","type":"Kreisangehörige_Gemeinde"},"district":{"key":"07135","name":"Cochem-Zell","type":"Landkreis"},"federalState":{"key":"07","name":"Rheinland-Pfalz"}},{"name":"Hasericherstr.","postalCode":"56865","locality":"Blankenrath","municipality":{"key":"07135010","name":"Blankenrath","type":"Kreisangehörige_Gemeinde"},"district":{"key":"07135","name":"Cochem-Zell","type":"Landkreis"},"federalState":{"key":"07","name":"Rheinland-Pfalz"}},{"name":"Hesweilerstr.","postalCode":"56865","locality":"Blankenrath","municipality":{"key":"07135010","name":"Blankenrath","type":"Kreisangehörige_Gemeinde"},"district":{"key":"07135","name":"Cochem-Zell","type":"Landkreis"},"federalState":{"key":"07","name":"Rheinland-Pfalz"}},{"name":"Hunsrückstr.","postalCode":"56865","locality":"Blankenrath","municipality":{"key":"07135010","name":"Blankenrath","type":"Kreisangehörige_Gemeinde"},"district":{"key":"07135","name":"Cochem-Zell","type":"Landkreis"},"federalState":{"key":"07","name":"Rheinland-Pfalz"}},{"name":"Im Blumengarten","postalCode":"56865","locality":"Blankenrath","municipality":{"key":"07135010","name":"Blankenrath","type":"Kreisangehörige_Gemeinde"},"district":{"key":"07135","name":"Cochem-Zell","type":"Landkreis"},"federalState":{"key":"07","name":"Rheinland-Pfalz"}},{"name":"Im Brühl","postalCode":"56865","locality":"Blankenrath","municipality":{"key":"07135010","name":"Blankenrath","type":"Kreisangehörige_Gemeinde"},"district":{"key":"07135","name":"Cochem-Zell","type":"Landkreis"},"federalState":{"key":"07","name":"Rheinland-Pfalz"}},{"name":"Im Flürchen","postalCode":"56865","locality":"Blankenrath","municipality":{"key":"07135010","name":"Blankenrath","type":"Kreisangehörige_Gemeinde"},"district":{"key":"07135","name":"Cochem-Zell","type":"Landkreis"},"federalState":{"key":"07","name":"Rheinland-Pfalz"}},{"name":"Im Herrengarten","postalCode":"56865","locality":"Blankenrath","municipality":{"key":"07135010","name":"Blankenrath","type":"Kreisangehörige_Gemeinde"},"district":{"key":"07135","name":"Cochem-Zell","type":"Landkreis"},"federalState":{"key":"07","name":"Rheinland-Pfalz"}},{"name":"Im Spieß","postalCode":"56865","locality":"Blankenrath","municipality":{"key":"07135010","name":"Blankenrath","type":"Kreisangehörige_Gemeinde"},"district":{"key":"07135","name":"Cochem-Zell","type":"Landkreis"},"federalState":{"key":"07","name":"Rheinland-Pfalz"}},{"name":"Im Wiesengrund","postalCode":"56865","locality":"Blankenrath","municipality":{"key":"07135010","name":"Blankenrath","type":"Kreisangehörige_Gemeinde"},"district":{"key":"07135","name":"Cochem-Zell","type":"Landkreis"},"federalState":{"key":"07","name":"Rheinland-Pfalz"}},{"name":"In der Metzenwies","postalCode":"56865","locality":"Blankenrath","municipality":{"key":"07135010","name":"Blankenrath","type":"Kreisangehörige_Gemeinde"},"district":{"key":"07135","name":"Cochem-Zell","type":"Landkreis"},"federalState":{"key":"07","name":"Rheinland-Pfalz"}},{"name":"Lilienweg","postalCode":"56865","locality":"Blankenrath","municipality":{"key":"07135010","name":"Blankenrath","type":"Kreisangehörige_Gemeinde"},"district":{"key":"07135","name":"Cochem-Zell","type":"Landkreis"},"federalState":{"key":"07","name":"Rheinland-Pfalz"}},{"name":"Mühlenweg","postalCode":"56865","locality":"Blankenrath","municipality":{"key":"07135010","name":"Blankenrath","type":"Kreisangehörige_Gemeinde"},"district":{"key":"07135","name":"Cochem-Zell","type":"Landkreis"},"federalState":{"key":"07","name":"Rheinland-Pfalz"}},{"name":"Römerstr.","postalCode":"56865","locality":"Blankenrath","municipality":{"key":"07135010","name":"Blankenrath","type":"Kreisangehörige_Gemeinde"},"district":{"key":"07135","name":"Cochem-Zell","type":"Landkreis"},"federalState":{"key":"07","name":"Rheinland-Pfalz"}},{"name":"Rosenweg","postalCode":"56865","locality":"Blankenrath","municipality":{"key":"07135010","name":"Blankenrath","type":"Kreisangehörige_Gemeinde"},"district":{"key":"07135","name":"Cochem-Zell","type":"Landkreis"},"federalState":{"key":"07","name":"Rheinland-Pfalz"}},{"name":"Schulstr.","postalCode":"56865","locality":"Blankenrath","municipality":{"key":"07135010","name":"Blankenrath","type":"Kreisangehörige_Gemeinde"},"district":{"key":"07135","name":"Cochem-Zell","type":"Landkreis"},"federalState":{"key":"07","name":"Rheinland-Pfalz"}},{"name":"Sonnenstr.","postalCode":"56865","locality":"Blankenrath","municipality":{"key":"07135010","name":"Blankenrath","type":"Kreisangehörige_Gemeinde"},"district":{"key":"07135","name":"Cochem-Zell","type":"Landkreis"},"federalState":{"key":"07","name":"Rheinland-Pfalz"}},{"name":"Südstr.","postalCode":"56865","locality":"Blankenrath","municipality":{"key":"07135010","name":"Blankenrath","type":"Kreisangehörige_Gemeinde"},"district":{"key":"07135","name":"Cochem-Zell","type":"Landkreis"},"federalState":{"key":"07","name":"Rheinland-Pfalz"}},{"name":"Tulpenweg","postalCode":"56865","locality":"Blankenrath","municipality":{"key":"07135010","name":"Blankenrath","type":"Kreisangehörige_Gemeinde"},"district":{"key":"07135","name":"Cochem-Zell","type":"Landkreis"},"federalState":{"key":"07","name":"Rheinland-Pfalz"}},{"name":"Waldstr.","postalCode":"56865","locality":"Blankenrath","municipality":{"key":"07135010","name":"Blankenrath","type":"Kreisangehörige_Gemeinde"},"district":{"key":"07135","name":"Cochem-Zell","type":"Landkreis"},"federalState":{"key":"07","name":"Rheinland-Pfalz"}},{"name":"Walhausener Str.","postalCode":"56865","locality":"Blankenrath","municipality":{"key":"07135010","name":"Blankenrath","type":"Kreisangehörige_Gemeinde"},"district":{"key":"07135","name":"Cochem-Zell","type":"Landkreis"},"federalState":{"key":"07","name":"Rheinland-Pfalz"}},{"name":"Zehntweg","postalCode":"56865","locality":"Blankenrath","municipality":{"key":"07135010","name":"Blankenrath","type":"Kreisangehörige_Gemeinde"},"district":{"key":"07135","name":"Cochem-Zell","type":"Landkreis"},"federalState":{"key":"07","name":"Rheinland-Pfalz"}},{"name":"Zum Hochwald","postalCode":"56865","locality":"Blankenrath","municipality":{"key":"07135010","name":"Blankenrath","type":"Kreisangehörige_Gemeinde"},"district":{"key":"07135","name":"Cochem-Zell","type":"Landkreis"},"federalState":{"key":"07","name":"Rheinland-Pfalz"}},{"name":"Zum Marktplatz","postalCode":"56865","locality":"Blankenrath","municipality":{"key":"07135010","name":"Blankenrath","type":"Kreisangehörige_Gemeinde"},"district":{"key":"07135","name":"Cochem-Zell","type":"Landkreis"},"federalState":{"key":"07","name":"Rheinland-Pfalz"}},{"name":"Zum Rehberg","postalCode":"56865","locality":"Blankenrath","municipality":{"key":"07135010","name":"Blankenrath","type":"Kreisangehörige_Gemeinde"},"district":{"key":"07135","name":"Cochem-Zell","type":"Landkreis"},"federalState":{"key":"07","name":"Rheinland-Pfalz"}},{"name":"Zum Wäldchen","postalCode":"56865","locality":"Blankenrath","municipality":{"key":"07135010","name":"Blankenrath","type":"Kreisangehörige_Gemeinde"},"district":{"key":"07135","name":"Cochem-Zell","type":"Landkreis"},"federalState":{"key":"07","name":"Rheinland-Pfalz"}},{"name":"Zur Bleiche","postalCode":"56865","locality":"Blankenrath","municipality":{"key":"07135010","name":"Blankenrath","type":"Kreisangehörige_Gemeinde"},"district":{"key":"07135","name":"Cochem-Zell","type":"Landkreis"},"federalState":{"key":"07","name":"Rheinland-Pfalz"}},{"name":"Zur Höhe","postalCode":"56865","locality":"Blankenrath","municipality":{"key":"07135010","name":"Blankenrath","type":"Kreisangehörige_Gemeinde"},"district":{"key":"07135","name":"Cochem-Zell","type":"Landkreis"},"federalState":{"key":"07","name":"Rheinland-Pfalz"}},{"name":"Zur Oberen Heide","postalCode":"56865","locality":"Blankenrath","municipality":{"key":"07135010","name":"Blankenrath","type":"Kreisangehörige_Gemeinde"},"district":{"key":"07135","name":"Cochem-Zell","type":"Landkreis"},"federalState":{"key":"07","name":"Rheinland-Pfalz"}},]