[{"name":"Am Reifelstal","postalCode":"98617","locality":"Vachdorf","municipality":{"key":"16066081","name":"Vachdorf","type":"Kreisangehörige_Gemeinde"},"district":{"key":"16066","name":"Schmalkalden-Meiningen","type":"Landkreis"},"federalState":{"key":"16","name":"Thüringen"}},{"name":"Bahnhofstr.","postalCode":"98617","locality":"Vachdorf","municipality":{"key":"16066081","name":"Vachdorf","type":"Kreisangehörige_Gemeinde"},"district":{"key":"16066","name":"Schmalkalden-Meiningen","type":"Landkreis"},"federalState":{"key":"16","name":"Thüringen"}},{"name":"Brandgasse","postalCode":"98617","locality":"Vachdorf","municipality":{"key":"16066081","name":"Vachdorf","type":"Kreisangehörige_Gemeinde"},"district":{"key":"16066","name":"Schmalkalden-Meiningen","type":"Landkreis"},"federalState":{"key":"16","name":"Thüringen"}},{"name":"Dahlienweg","postalCode":"98617","locality":"Vachdorf","municipality":{"key":"16066081","name":"Vachdorf","type":"Kreisangehörige_Gemeinde"},"district":{"key":"16066","name":"Schmalkalden-Meiningen","type":"Landkreis"},"federalState":{"key":"16","name":"Thüringen"}},{"name":"Exdorfer Weg","postalCode":"98617","locality":"Vachdorf","municipality":{"key":"16066081","name":"Vachdorf","type":"Kreisangehörige_Gemeinde"},"district":{"key":"16066","name":"Schmalkalden-Meiningen","type":"Landkreis"},"federalState":{"key":"16","name":"Thüringen"}},{"name":"Fritzengasse","postalCode":"98617","locality":"Vachdorf","municipality":{"key":"16066081","name":"Vachdorf","type":"Kreisangehörige_Gemeinde"},"district":{"key":"16066","name":"Schmalkalden-Meiningen","type":"Landkreis"},"federalState":{"key":"16","name":"Thüringen"}},{"name":"Graben","postalCode":"98617","locality":"Vachdorf","municipality":{"key":"16066081","name":"Vachdorf","type":"Kreisangehörige_Gemeinde"},"district":{"key":"16066","name":"Schmalkalden-Meiningen","type":"Landkreis"},"federalState":{"key":"16","name":"Thüringen"}},{"name":"Herbertsgasse","postalCode":"98617","locality":"Vachdorf","municipality":{"key":"16066081","name":"Vachdorf","type":"Kreisangehörige_Gemeinde"},"district":{"key":"16066","name":"Schmalkalden-Meiningen","type":"Landkreis"},"federalState":{"key":"16","name":"Thüringen"}},{"name":"Hessenstr.","postalCode":"98617","locality":"Vachdorf","municipality":{"key":"16066081","name":"Vachdorf","type":"Kreisangehörige_Gemeinde"},"district":{"key":"16066","name":"Schmalkalden-Meiningen","type":"Landkreis"},"federalState":{"key":"16","name":"Thüringen"}},{"name":"Im Hessen","postalCode":"98617","locality":"Vachdorf","municipality":{"key":"16066081","name":"Vachdorf","type":"Kreisangehörige_Gemeinde"},"district":{"key":"16066","name":"Schmalkalden-Meiningen","type":"Landkreis"},"federalState":{"key":"16","name":"Thüringen"}},{"name":"Kindergartenstr.","postalCode":"98617","locality":"Vachdorf","municipality":{"key":"16066081","name":"Vachdorf","type":"Kreisangehörige_Gemeinde"},"district":{"key":"16066","name":"Schmalkalden-Meiningen","type":"Landkreis"},"federalState":{"key":"16","name":"Thüringen"}},{"name":"Kirchgasse","postalCode":"98617","locality":"Vachdorf","municipality":{"key":"16066081","name":"Vachdorf","type":"Kreisangehörige_Gemeinde"},"district":{"key":"16066","name":"Schmalkalden-Meiningen","type":"Landkreis"},"federalState":{"key":"16","name":"Thüringen"}},{"name":"Kirchweg","postalCode":"98617","locality":"Vachdorf","municipality":{"key":"16066081","name":"Vachdorf","type":"Kreisangehörige_Gemeinde"},"district":{"key":"16066","name":"Schmalkalden-Meiningen","type":"Landkreis"},"federalState":{"key":"16","name":"Thüringen"}},{"name":"Köhlersgasse","postalCode":"98617","locality":"Vachdorf","municipality":{"key":"16066081","name":"Vachdorf","type":"Kreisangehörige_Gemeinde"},"district":{"key":"16066","name":"Schmalkalden-Meiningen","type":"Landkreis"},"federalState":{"key":"16","name":"Thüringen"}},{"name":"Korngasse","postalCode":"98617","locality":"Vachdorf","municipality":{"key":"16066081","name":"Vachdorf","type":"Kreisangehörige_Gemeinde"},"district":{"key":"16066","name":"Schmalkalden-Meiningen","type":"Landkreis"},"federalState":{"key":"16","name":"Thüringen"}},{"name":"Kreuzweg","postalCode":"98617","locality":"Vachdorf","municipality":{"key":"16066081","name":"Vachdorf","type":"Kreisangehörige_Gemeinde"},"district":{"key":"16066","name":"Schmalkalden-Meiningen","type":"Landkreis"},"federalState":{"key":"16","name":"Thüringen"}},{"name":"Landstr.","postalCode":"98617","locality":"Vachdorf","municipality":{"key":"16066081","name":"Vachdorf","type":"Kreisangehörige_Gemeinde"},"district":{"key":"16066","name":"Schmalkalden-Meiningen","type":"Landkreis"},"federalState":{"key":"16","name":"Thüringen"}},{"name":"Marisfelder Str.","postalCode":"98617","locality":"Vachdorf","municipality":{"key":"16066081","name":"Vachdorf","type":"Kreisangehörige_Gemeinde"},"district":{"key":"16066","name":"Schmalkalden-Meiningen","type":"Landkreis"},"federalState":{"key":"16","name":"Thüringen"}},{"name":"Markt","postalCode":"98617","locality":"Vachdorf","municipality":{"key":"16066081","name":"Vachdorf","type":"Kreisangehörige_Gemeinde"},"district":{"key":"16066","name":"Schmalkalden-Meiningen","type":"Landkreis"},"federalState":{"key":"16","name":"Thüringen"}},{"name":"Mitteldorfstr.","postalCode":"98617","locality":"Vachdorf","municipality":{"key":"16066081","name":"Vachdorf","type":"Kreisangehörige_Gemeinde"},"district":{"key":"16066","name":"Schmalkalden-Meiningen","type":"Landkreis"},"federalState":{"key":"16","name":"Thüringen"}},{"name":"Mündel","postalCode":"98617","locality":"Vachdorf","municipality":{"key":"16066081","name":"Vachdorf","type":"Kreisangehörige_Gemeinde"},"district":{"key":"16066","name":"Schmalkalden-Meiningen","type":"Landkreis"},"federalState":{"key":"16","name":"Thüringen"}},{"name":"Neubaustr.","postalCode":"98617","locality":"Vachdorf","municipality":{"key":"16066081","name":"Vachdorf","type":"Kreisangehörige_Gemeinde"},"district":{"key":"16066","name":"Schmalkalden-Meiningen","type":"Landkreis"},"federalState":{"key":"16","name":"Thüringen"}},{"name":"Obendorfstr.","postalCode":"98617","locality":"Vachdorf","municipality":{"key":"16066081","name":"Vachdorf","type":"Kreisangehörige_Gemeinde"},"district":{"key":"16066","name":"Schmalkalden-Meiningen","type":"Landkreis"},"federalState":{"key":"16","name":"Thüringen"}},{"name":"Panoramaweg","postalCode":"98617","locality":"Vachdorf","municipality":{"key":"16066081","name":"Vachdorf","type":"Kreisangehörige_Gemeinde"},"district":{"key":"16066","name":"Schmalkalden-Meiningen","type":"Landkreis"},"federalState":{"key":"16","name":"Thüringen"}},{"name":"Perlengasse","postalCode":"98617","locality":"Vachdorf","municipality":{"key":"16066081","name":"Vachdorf","type":"Kreisangehörige_Gemeinde"},"district":{"key":"16066","name":"Schmalkalden-Meiningen","type":"Landkreis"},"federalState":{"key":"16","name":"Thüringen"}},{"name":"Pfarrgasse","postalCode":"98617","locality":"Vachdorf","municipality":{"key":"16066081","name":"Vachdorf","type":"Kreisangehörige_Gemeinde"},"district":{"key":"16066","name":"Schmalkalden-Meiningen","type":"Landkreis"},"federalState":{"key":"16","name":"Thüringen"}},{"name":"Plattengasse","postalCode":"98617","locality":"Vachdorf","municipality":{"key":"16066081","name":"Vachdorf","type":"Kreisangehörige_Gemeinde"},"district":{"key":"16066","name":"Schmalkalden-Meiningen","type":"Landkreis"},"federalState":{"key":"16","name":"Thüringen"}},{"name":"Poststr.","postalCode":"98617","locality":"Vachdorf","municipality":{"key":"16066081","name":"Vachdorf","type":"Kreisangehörige_Gemeinde"},"district":{"key":"16066","name":"Schmalkalden-Meiningen","type":"Landkreis"},"federalState":{"key":"16","name":"Thüringen"}},{"name":"Riethweg","postalCode":"98617","locality":"Vachdorf","municipality":{"key":"16066081","name":"Vachdorf","type":"Kreisangehörige_Gemeinde"},"district":{"key":"16066","name":"Schmalkalden-Meiningen","type":"Landkreis"},"federalState":{"key":"16","name":"Thüringen"}},{"name":"Rosenweg","postalCode":"98617","locality":"Vachdorf","municipality":{"key":"16066081","name":"Vachdorf","type":"Kreisangehörige_Gemeinde"},"district":{"key":"16066","name":"Schmalkalden-Meiningen","type":"Landkreis"},"federalState":{"key":"16","name":"Thüringen"}},{"name":"Schulstr.","postalCode":"98617","locality":"Vachdorf","municipality":{"key":"16066081","name":"Vachdorf","type":"Kreisangehörige_Gemeinde"},"district":{"key":"16066","name":"Schmalkalden-Meiningen","type":"Landkreis"},"federalState":{"key":"16","name":"Thüringen"}},{"name":"Steinfelder Weg","postalCode":"98617","locality":"Vachdorf","municipality":{"key":"16066081","name":"Vachdorf","type":"Kreisangehörige_Gemeinde"},"district":{"key":"16066","name":"Schmalkalden-Meiningen","type":"Landkreis"},"federalState":{"key":"16","name":"Thüringen"}},{"name":"Steingasse","postalCode":"98617","locality":"Vachdorf","municipality":{"key":"16066081","name":"Vachdorf","type":"Kreisangehörige_Gemeinde"},"district":{"key":"16066","name":"Schmalkalden-Meiningen","type":"Landkreis"},"federalState":{"key":"16","name":"Thüringen"}},{"name":"Str. der Jugend","postalCode":"98617","locality":"Vachdorf","municipality":{"key":"16066081","name":"Vachdorf","type":"Kreisangehörige_Gemeinde"},"district":{"key":"16066","name":"Schmalkalden-Meiningen","type":"Landkreis"},"federalState":{"key":"16","name":"Thüringen"}},{"name":"Str. des Friedens","postalCode":"98617","locality":"Vachdorf","municipality":{"key":"16066081","name":"Vachdorf","type":"Kreisangehörige_Gemeinde"},"district":{"key":"16066","name":"Schmalkalden-Meiningen","type":"Landkreis"},"federalState":{"key":"16","name":"Thüringen"}},{"name":"Werra-Burgen-Steig","postalCode":"98617","locality":"Vachdorf","municipality":{"key":"16066081","name":"Vachdorf","type":"Kreisangehörige_Gemeinde"},"district":{"key":"16066","name":"Schmalkalden-Meiningen","type":"Landkreis"},"federalState":{"key":"16","name":"Thüringen"}},{"name":"Wolfsbergweg","postalCode":"98617","locality":"Vachdorf","municipality":{"key":"16066081","name":"Vachdorf","type":"Kreisangehörige_Gemeinde"},"district":{"key":"16066","name":"Schmalkalden-Meiningen","type":"Landkreis"},"federalState":{"key":"16","name":"Thüringen"}},{"name":"Ökologiepfad","postalCode":"98617","locality":"Vachdorf","municipality":{"key":"16066081","name":"Vachdorf","type":"Kreisangehörige_Gemeinde"},"district":{"key":"16066","name":"Schmalkalden-Meiningen","type":"Landkreis"},"federalState":{"key":"16","name":"Thüringen"}},]