[{"key":"10211660","name":"Cappella Rotta","postalCode":"6645","locality":"Brione sopra Minusio","commune":{"key":"5096","name":"Brione sopra Minusio","shortName":"Brione sopra Minusio"},"district":{"key":"2104","name":"Distretto di Locarno"},"canton":{"key":"21","code":"TI","name":"Ticino"},"status":"Real"},{"key":"10236003","name":"Costa","postalCode":"6645","locality":"Brione sopra Minusio","commune":{"key":"5096","name":"Brione sopra Minusio","shortName":"Brione sopra Minusio"},"district":{"key":"2104","name":"Distretto di Locarno"},"canton":{"key":"21","code":"TI","name":"Ticino"},"status":"Real"},{"key":"10211661","name":"Fontai","postalCode":"6645","locality":"Brione sopra Minusio","commune":{"key":"5096","name":"Brione sopra Minusio","shortName":"Brione sopra Minusio"},"district":{"key":"2104","name":"Distretto di Locarno"},"canton":{"key":"21","code":"TI","name":"Ticino"},"status":"Real"},{"key":"10211662","name":"Gaggioi","postalCode":"6645","locality":"Brione sopra Minusio","commune":{"key":"5096","name":"Brione sopra Minusio","shortName":"Brione sopra Minusio"},"district":{"key":"2104","name":"Distretto di Locarno"},"canton":{"key":"21","code":"TI","name":"Ticino"},"status":"Real"},{"key":"10241677","name":"Lögh del Biàdigh","postalCode":"6645","locality":"Brione sopra Minusio","commune":{"key":"5096","name":"Brione sopra Minusio","shortName":"Brione sopra Minusio"},"district":{"key":"2104","name":"Distretto di Locarno"},"canton":{"key":"21","code":"TI","name":"Ticino"},"status":"Real"},{"key":"10211668","name":"Orecc","postalCode":"6645","locality":"Brione sopra Minusio","commune":{"key":"5096","name":"Brione sopra Minusio","shortName":"Brione sopra Minusio"},"district":{"key":"2104","name":"Distretto di Locarno"},"canton":{"key":"21","code":"TI","name":"Ticino"},"status":"Real"},{"key":"10211669","name":"Pra del Gatto","postalCode":"6645","locality":"Brione sopra Minusio","commune":{"key":"5096","name":"Brione sopra Minusio","shortName":"Brione sopra Minusio"},"district":{"key":"2104","name":"Distretto di Locarno"},"canton":{"key":"21","code":"TI","name":"Ticino"},"status":"Real"},{"key":"10211670","name":"Resa di dentro","postalCode":"6645","locality":"Brione sopra Minusio","commune":{"key":"5096","name":"Brione sopra Minusio","shortName":"Brione sopra Minusio"},"district":{"key":"2104","name":"Distretto di Locarno"},"canton":{"key":"21","code":"TI","name":"Ticino"},"status":"Real"},{"key":"10244467","name":"Resa di fuori","postalCode":"6645","locality":"Brione sopra Minusio","commune":{"key":"5096","name":"Brione sopra Minusio","shortName":"Brione sopra Minusio"},"district":{"key":"2104","name":"Distretto di Locarno"},"canton":{"key":"21","code":"TI","name":"Ticino"},"status":"Real"},{"key":"10244466","name":"Romerio","postalCode":"6645","locality":"Brione sopra Minusio","commune":{"key":"5096","name":"Brione sopra Minusio","shortName":"Brione sopra Minusio"},"district":{"key":"2104","name":"Distretto di Locarno"},"canton":{"key":"21","code":"TI","name":"Ticino"},"status":"Real"},{"key":"10132962","name":"Salita Campacci","postalCode":"6645","locality":"Brione sopra Minusio","commune":{"key":"5096","name":"Brione sopra Minusio","shortName":"Brione sopra Minusio"},"district":{"key":"2104","name":"Distretto di Locarno"},"canton":{"key":"21","code":"TI","name":"Ticino"},"status":"Real"},{"key":"10132963","name":"Salita Fontanone","postalCode":"6645","locality":"Brione sopra Minusio","commune":{"key":"5096","name":"Brione sopra Minusio","shortName":"Brione sopra Minusio"},"district":{"key":"2104","name":"Distretto di Locarno"},"canton":{"key":"21","code":"TI","name":"Ticino"},"status":"Real"},{"key":"10127207","name":"Salita Masnee","postalCode":"6645","locality":"Brione sopra Minusio","commune":{"key":"5096","name":"Brione sopra Minusio","shortName":"Brione sopra Minusio"},"district":{"key":"2104","name":"Distretto di Locarno"},"canton":{"key":"21","code":"TI","name":"Ticino"},"status":"Real"},{"key":"10132964","name":"Salita Sassello","postalCode":"6645","locality":"Brione sopra Minusio","commune":{"key":"5096","name":"Brione sopra Minusio","shortName":"Brione sopra Minusio"},"district":{"key":"2104","name":"Distretto di Locarno"},"canton":{"key":"21","code":"TI","name":"Ticino"},"status":"Real"},{"key":"10211671","name":"Sceresio","postalCode":"6645","locality":"Brione sopra Minusio","commune":{"key":"5096","name":"Brione sopra Minusio","shortName":"Brione sopra Minusio"},"district":{"key":"2104","name":"Distretto di Locarno"},"canton":{"key":"21","code":"TI","name":"Ticino"},"status":"Real"},{"key":"10211672","name":"Sira","postalCode":"6645","locality":"Brione sopra Minusio","commune":{"key":"5096","name":"Brione sopra Minusio","shortName":"Brione sopra Minusio"},"district":{"key":"2104","name":"Distretto di Locarno"},"canton":{"key":"21","code":"TI","name":"Ticino"},"status":"Real"},{"key":"10211673","name":"Tendrasca (nucleo)","postalCode":"6645","locality":"Brione sopra Minusio","commune":{"key":"5096","name":"Brione sopra Minusio","shortName":"Brione sopra Minusio"},"district":{"key":"2104","name":"Distretto di Locarno"},"canton":{"key":"21","code":"TI","name":"Ticino"},"status":"Real"},{"key":"10138066","name":"Via Albaredo","postalCode":"6645","locality":"Brione sopra Minusio","commune":{"key":"5096","name":"Brione sopra Minusio","shortName":"Brione sopra Minusio"},"district":{"key":"2104","name":"Distretto di Locarno"},"canton":{"key":"21","code":"TI","name":"Ticino"},"status":"Real"},{"key":"10132965","name":"Via al Chiosso","postalCode":"6645","locality":"Brione sopra Minusio","commune":{"key":"5096","name":"Brione sopra Minusio","shortName":"Brione sopra Minusio"},"district":{"key":"2104","name":"Distretto di Locarno"},"canton":{"key":"21","code":"TI","name":"Ticino"},"status":"Real"},{"key":"10132966","name":"Via alla Selva","postalCode":"6645","locality":"Brione sopra Minusio","commune":{"key":"5096","name":"Brione sopra Minusio","shortName":"Brione sopra Minusio"},"district":{"key":"2104","name":"Distretto di Locarno"},"canton":{"key":"21","code":"TI","name":"Ticino"},"status":"Real"},{"key":"10132967","name":"Via Bellavista","postalCode":"6645","locality":"Brione sopra Minusio","commune":{"key":"5096","name":"Brione sopra Minusio","shortName":"Brione sopra Minusio"},"district":{"key":"2104","name":"Distretto di Locarno"},"canton":{"key":"21","code":"TI","name":"Ticino"},"status":"Real"},{"key":"10132968","name":"Via Bollette","postalCode":"6645","locality":"Brione sopra Minusio","commune":{"key":"5096","name":"Brione sopra Minusio","shortName":"Brione sopra Minusio"},"district":{"key":"2104","name":"Distretto di Locarno"},"canton":{"key":"21","code":"TI","name":"Ticino"},"status":"Real"},{"key":"10132969","name":"Via Brione","postalCode":"6645","locality":"Brione sopra Minusio","commune":{"key":"5096","name":"Brione sopra Minusio","shortName":"Brione sopra Minusio"},"district":{"key":"2104","name":"Distretto di Locarno"},"canton":{"key":"21","code":"TI","name":"Ticino"},"status":"Real"},{"key":"10138071","name":"Via Brione","postalCode":"6645","locality":"Brione sopra Minusio","commune":{"key":"5096","name":"Brione sopra Minusio","shortName":"Brione sopra Minusio"},"district":{"key":"2104","name":"Distretto di Locarno"},"canton":{"key":"21","code":"TI","name":"Ticino"},"status":"Real"},{"key":"10138075","name":"Via Contra","postalCode":"6645","locality":"Brione sopra Minusio","commune":{"key":"5096","name":"Brione sopra Minusio","shortName":"Brione sopra Minusio"},"district":{"key":"2104","name":"Distretto di Locarno"},"canton":{"key":"21","code":"TI","name":"Ticino"},"status":"Real"},{"key":"10132970","name":"Via Contra","postalCode":"6645","locality":"Brione sopra Minusio","commune":{"key":"5096","name":"Brione sopra Minusio","shortName":"Brione sopra Minusio"},"district":{"key":"2104","name":"Distretto di Locarno"},"canton":{"key":"21","code":"TI","name":"Ticino"},"status":"Real"},{"key":"10138079","name":"Via dei Castagni","postalCode":"6645","locality":"Brione sopra Minusio","commune":{"key":"5096","name":"Brione sopra Minusio","shortName":"Brione sopra Minusio"},"district":{"key":"2104","name":"Distretto di Locarno"},"canton":{"key":"21","code":"TI","name":"Ticino"},"status":"Real"},{"key":"10132972","name":"Via del Sole","postalCode":"6645","locality":"Brione sopra Minusio","commune":{"key":"5096","name":"Brione sopra Minusio","shortName":"Brione sopra Minusio"},"district":{"key":"2104","name":"Distretto di Locarno"},"canton":{"key":"21","code":"TI","name":"Ticino"},"status":"Real"},{"key":"10132973","name":"Via Dr. Sciaroni","postalCode":"6645","locality":"Brione sopra Minusio","commune":{"key":"5096","name":"Brione sopra Minusio","shortName":"Brione sopra Minusio"},"district":{"key":"2104","name":"Distretto di Locarno"},"canton":{"key":"21","code":"TI","name":"Ticino"},"status":"Real"},{"key":"10132974","name":"Via Masnee","postalCode":"6645","locality":"Brione sopra Minusio","commune":{"key":"5096","name":"Brione sopra Minusio","shortName":"Brione sopra Minusio"},"district":{"key":"2104","name":"Distretto di Locarno"},"canton":{"key":"21","code":"TI","name":"Ticino"},"status":"Real"},{"key":"10136379","name":"Via Moranda","postalCode":"6645","locality":"Brione sopra Minusio","commune":{"key":"5096","name":"Brione sopra Minusio","shortName":"Brione sopra Minusio"},"district":{"key":"2104","name":"Distretto di Locarno"},"canton":{"key":"21","code":"TI","name":"Ticino"},"status":"Real"},{"key":"10132975","name":"Via Orselina","postalCode":"6645","locality":"Brione sopra Minusio","commune":{"key":"5096","name":"Brione sopra Minusio","shortName":"Brione sopra Minusio"},"district":{"key":"2104","name":"Distretto di Locarno"},"canton":{"key":"21","code":"TI","name":"Ticino"},"status":"Real"},{"key":"10136383","name":"Via Orselina","postalCode":"6645","locality":"Brione sopra Minusio","commune":{"key":"5096","name":"Brione sopra Minusio","shortName":"Brione sopra Minusio"},"district":{"key":"2104","name":"Distretto di Locarno"},"canton":{"key":"21","code":"TI","name":"Ticino"},"status":"Real"},{"key":"10132976","name":"Via Panoramica","postalCode":"6645","locality":"Brione sopra Minusio","commune":{"key":"5096","name":"Brione sopra Minusio","shortName":"Brione sopra Minusio"},"district":{"key":"2104","name":"Distretto di Locarno"},"canton":{"key":"21","code":"TI","name":"Ticino"},"status":"Real"},{"key":"10136384","name":"Via Panoramica","postalCode":"6645","locality":"Brione sopra Minusio","commune":{"key":"5096","name":"Brione sopra Minusio","shortName":"Brione sopra Minusio"},"district":{"key":"2104","name":"Distretto di Locarno"},"canton":{"key":"21","code":"TI","name":"Ticino"},"status":"Real"},{"key":"10137454","name":"Via Storta","postalCode":"6645","locality":"Brione sopra Minusio","commune":{"key":"5096","name":"Brione sopra Minusio","shortName":"Brione sopra Minusio"},"district":{"key":"2104","name":"Distretto di Locarno"},"canton":{"key":"21","code":"TI","name":"Ticino"},"status":"Real"},{"key":"10132977","name":"Via Storta","postalCode":"6645","locality":"Brione sopra Minusio","commune":{"key":"5096","name":"Brione sopra Minusio","shortName":"Brione sopra Minusio"},"district":{"key":"2104","name":"Distretto di Locarno"},"canton":{"key":"21","code":"TI","name":"Ticino"},"status":"Real"},{"key":"10211674","name":"Via Tecitt","postalCode":"6645","locality":"Brione sopra Minusio","commune":{"key":"5096","name":"Brione sopra Minusio","shortName":"Brione sopra Minusio"},"district":{"key":"2104","name":"Distretto di Locarno"},"canton":{"key":"21","code":"TI","name":"Ticino"},"status":"Real"},{"key":"10211632","name":"Via Val Resa","postalCode":"6645","locality":"Brione sopra Minusio","commune":{"key":"5096","name":"Brione sopra Minusio","shortName":"Brione sopra Minusio"},"district":{"key":"2104","name":"Distretto di Locarno"},"canton":{"key":"21","code":"TI","name":"Ticino"},"status":"Real"},{"key":"10132978","name":"Via Val Resa","postalCode":"6645","locality":"Brione sopra Minusio","commune":{"key":"5096","name":"Brione sopra Minusio","shortName":"Brione sopra Minusio"},"district":{"key":"2104","name":"Distretto di Locarno"},"canton":{"key":"21","code":"TI","name":"Ticino"},"status":"Real"},{"key":"10209827","name":"Via Zotte","postalCode":"6645","locality":"Brione sopra Minusio","commune":{"key":"5096","name":"Brione sopra Minusio","shortName":"Brione sopra Minusio"},"district":{"key":"2104","name":"Distretto di Locarno"},"canton":{"key":"21","code":"TI","name":"Ticino"},"status":"Real"},{"key":"10069828","name":"Vicolo alle Zotte","postalCode":"6645","locality":"Brione sopra Minusio","commune":{"key":"5096","name":"Brione sopra Minusio","shortName":"Brione sopra Minusio"},"district":{"key":"2104","name":"Distretto di Locarno"},"canton":{"key":"21","code":"TI","name":"Ticino"},"status":"Real"},{"key":"10132979","name":"Vicolo Belmonte","postalCode":"6645","locality":"Brione sopra Minusio","commune":{"key":"5096","name":"Brione sopra Minusio","shortName":"Brione sopra Minusio"},"district":{"key":"2104","name":"Distretto di Locarno"},"canton":{"key":"21","code":"TI","name":"Ticino"},"status":"Real"},{"key":"10132980","name":"Vicolo Capone","postalCode":"6645","locality":"Brione sopra Minusio","commune":{"key":"5096","name":"Brione sopra Minusio","shortName":"Brione sopra Minusio"},"district":{"key":"2104","name":"Distretto di Locarno"},"canton":{"key":"21","code":"TI","name":"Ticino"},"status":"Real"},{"key":"10202908","name":"Vicolo della Chiesa","postalCode":"6645","locality":"Brione sopra Minusio","commune":{"key":"5096","name":"Brione sopra Minusio","shortName":"Brione sopra Minusio"},"district":{"key":"2104","name":"Distretto di Locarno"},"canton":{"key":"21","code":"TI","name":"Ticino"},"status":"Real"},{"key":"10132981","name":"Vicolo Ponte Vetro","postalCode":"6645","locality":"Brione sopra Minusio","commune":{"key":"5096","name":"Brione sopra Minusio","shortName":"Brione sopra Minusio"},"district":{"key":"2104","name":"Distretto di Locarno"},"canton":{"key":"21","code":"TI","name":"Ticino"},"status":"Real"},{"key":"10211675","name":"Viona (nucleo)","postalCode":"6645","locality":"Brione sopra Minusio","commune":{"key":"5096","name":"Brione sopra Minusio","shortName":"Brione sopra Minusio"},"district":{"key":"2104","name":"Distretto di Locarno"},"canton":{"key":"21","code":"TI","name":"Ticino"},"status":"Real"},{"key":"10211605","name":"Zotte","postalCode":"6645","locality":"Brione sopra Minusio","commune":{"key":"5096","name":"Brione sopra Minusio","shortName":"Brione sopra Minusio"},"district":{"key":"2104","name":"Distretto di Locarno"},"canton":{"key":"21","code":"TI","name":"Ticino"},"status":"Real"},]