[{"name":"55er Str.","postalCode":"32756","locality":"Detmold","municipality":{"key":"05766020","name":"Detmold, Stadt","type":"Stadt"},"district":{"key":"05766","name":"Lippe","type":"Kreis"},"federalState":{"key":"05","name":"Nordrhein-Westfalen"}},{"name":"Aachener Str.","postalCode":"32758","locality":"Detmold","municipality":{"key":"05766020","name":"Detmold, Stadt","type":"Stadt"},"district":{"key":"05766","name":"Lippe","type":"Kreis"},"federalState":{"key":"05","name":"Nordrhein-Westfalen"}},{"name":"Adenauerstr.","postalCode":"32756","locality":"Detmold","municipality":{"key":"05766020","name":"Detmold, Stadt","type":"Stadt"},"district":{"key":"05766","name":"Lippe","type":"Kreis"},"federalState":{"key":"05","name":"Nordrhein-Westfalen"}},{"name":"Adlerweg","postalCode":"32760","locality":"Detmold","municipality":{"key":"05766020","name":"Detmold, Stadt","type":"Stadt"},"district":{"key":"05766","name":"Lippe","type":"Kreis"},"federalState":{"key":"05","name":"Nordrhein-Westfalen"}},{"name":"Adolf-Meier-Str.","postalCode":"32758","locality":"Detmold","municipality":{"key":"05766020","name":"Detmold, Stadt","type":"Stadt"},"district":{"key":"05766","name":"Lippe","type":"Kreis"},"federalState":{"key":"05","name":"Nordrhein-Westfalen"}},{"name":"Adolfstr.","postalCode":"32756","locality":"Detmold","municipality":{"key":"05766020","name":"Detmold, Stadt","type":"Stadt"},"district":{"key":"05766","name":"Lippe","type":"Kreis"},"federalState":{"key":"05","name":"Nordrhein-Westfalen"}},{"name":"Ahornweg","postalCode":"32760","locality":"Detmold","municipality":{"key":"05766020","name":"Detmold, Stadt","type":"Stadt"},"district":{"key":"05766","name":"Lippe","type":"Kreis"},"federalState":{"key":"05","name":"Nordrhein-Westfalen"}},{"name":"Akazienstr.","postalCode":"32760","locality":"Detmold","municipality":{"key":"05766020","name":"Detmold, Stadt","type":"Stadt"},"district":{"key":"05766","name":"Lippe","type":"Kreis"},"federalState":{"key":"05","name":"Nordrhein-Westfalen"}},{"name":"Albert-Schweitzer-Str.","postalCode":"32758","locality":"Detmold","municipality":{"key":"05766020","name":"Detmold, Stadt","type":"Stadt"},"district":{"key":"05766","name":"Lippe","type":"Kreis"},"federalState":{"key":"05","name":"Nordrhein-Westfalen"}},{"name":"Albertweg","postalCode":"32760","locality":"Detmold","municipality":{"key":"05766020","name":"Detmold, Stadt","type":"Stadt"},"district":{"key":"05766","name":"Lippe","type":"Kreis"},"federalState":{"key":"05","name":"Nordrhein-Westfalen"}},{"name":"Alexanderweg","postalCode":"32756","locality":"Detmold","municipality":{"key":"05766020","name":"Detmold, Stadt","type":"Stadt"},"district":{"key":"05766","name":"Lippe","type":"Kreis"},"federalState":{"key":"05","name":"Nordrhein-Westfalen"}},{"name":"Allandsbusch","postalCode":"32758","locality":"Detmold","municipality":{"key":"05766020","name":"Detmold, Stadt","type":"Stadt"},"district":{"key":"05766","name":"Lippe","type":"Kreis"},"federalState":{"key":"05","name":"Nordrhein-Westfalen"}},{"name":"Allee","postalCode":"32756","locality":"Detmold","municipality":{"key":"05766020","name":"Detmold, Stadt","type":"Stadt"},"district":{"key":"05766","name":"Lippe","type":"Kreis"},"federalState":{"key":"05","name":"Nordrhein-Westfalen"}},{"name":"Almbergweg","postalCode":"32758","locality":"Detmold","municipality":{"key":"05766020","name":"Detmold, Stadt","type":"Stadt"},"district":{"key":"05766","name":"Lippe","type":"Kreis"},"federalState":{"key":"05","name":"Nordrhein-Westfalen"}},{"name":"Alsterstr.","postalCode":"32760","locality":"Detmold","municipality":{"key":"05766020","name":"Detmold, Stadt","type":"Stadt"},"district":{"key":"05766","name":"Lippe","type":"Kreis"},"federalState":{"key":"05","name":"Nordrhein-Westfalen"}},{"name":"Altenberndstr.","postalCode":"32756","locality":"Detmold","municipality":{"key":"05766020","name":"Detmold, Stadt","type":"Stadt"},"district":{"key":"05766","name":"Lippe","type":"Kreis"},"federalState":{"key":"05","name":"Nordrhein-Westfalen"}},{"name":"Alter Fahrweg","postalCode":"32760","locality":"Detmold","municipality":{"key":"05766020","name":"Detmold, Stadt","type":"Stadt"},"district":{"key":"05766","name":"Lippe","type":"Kreis"},"federalState":{"key":"05","name":"Nordrhein-Westfalen"}},{"name":"Alter Mühlenweg","postalCode":"32760","locality":"Detmold","municipality":{"key":"05766020","name":"Detmold, Stadt","type":"Stadt"},"district":{"key":"05766","name":"Lippe","type":"Kreis"},"federalState":{"key":"05","name":"Nordrhein-Westfalen"}},{"name":"Alter Postweg","postalCode":"32756","locality":"Detmold","municipality":{"key":"05766020","name":"Detmold, Stadt","type":"Stadt"},"district":{"key":"05766","name":"Lippe","type":"Kreis"},"federalState":{"key":"05","name":"Nordrhein-Westfalen"}},{"name":"Alter Postweg","postalCode":"32760","locality":"Detmold","municipality":{"key":"05766020","name":"Detmold, Stadt","type":"Stadt"},"district":{"key":"05766","name":"Lippe","type":"Kreis"},"federalState":{"key":"05","name":"Nordrhein-Westfalen"}},{"name":"Alter Weg","postalCode":"32760","locality":"Detmold","municipality":{"key":"05766020","name":"Detmold, Stadt","type":"Stadt"},"district":{"key":"05766","name":"Lippe","type":"Kreis"},"federalState":{"key":"05","name":"Nordrhein-Westfalen"}},{"name":"Altonaer Weg","postalCode":"32760","locality":"Detmold","municipality":{"key":"05766020","name":"Detmold, Stadt","type":"Stadt"},"district":{"key":"05766","name":"Lippe","type":"Kreis"},"federalState":{"key":"05","name":"Nordrhein-Westfalen"}},{"name":"Am Anger","postalCode":"32760","locality":"Detmold","municipality":{"key":"05766020","name":"Detmold, Stadt","type":"Stadt"},"district":{"key":"05766","name":"Lippe","type":"Kreis"},"federalState":{"key":"05","name":"Nordrhein-Westfalen"}},{"name":"Am Bach","postalCode":"32758","locality":"Detmold","municipality":{"key":"05766020","name":"Detmold, Stadt","type":"Stadt"},"district":{"key":"05766","name":"Lippe","type":"Kreis"},"federalState":{"key":"05","name":"Nordrhein-Westfalen"}},{"name":"Am Bahnhof","postalCode":"32756","locality":"Detmold","municipality":{"key":"05766020","name":"Detmold, Stadt","type":"Stadt"},"district":{"key":"05766","name":"Lippe","type":"Kreis"},"federalState":{"key":"05","name":"Nordrhein-Westfalen"}},{"name":"Am Blumenkamp","postalCode":"32760","locality":"Detmold","municipality":{"key":"05766020","name":"Detmold, Stadt","type":"Stadt"},"district":{"key":"05766","name":"Lippe","type":"Kreis"},"federalState":{"key":"05","name":"Nordrhein-Westfalen"}},{"name":"Am Bosenberg","postalCode":"32760","locality":"Detmold","municipality":{"key":"05766020","name":"Detmold, Stadt","type":"Stadt"},"district":{"key":"05766","name":"Lippe","type":"Kreis"},"federalState":{"key":"05","name":"Nordrhein-Westfalen"}},{"name":"Am Broker Bach","postalCode":"32758","locality":"Detmold","municipality":{"key":"05766020","name":"Detmold, Stadt","type":"Stadt"},"district":{"key":"05766","name":"Lippe","type":"Kreis"},"federalState":{"key":"05","name":"Nordrhein-Westfalen"}},{"name":"Am Brommerfeld","postalCode":"32758","locality":"Detmold","municipality":{"key":"05766020","name":"Detmold, Stadt","type":"Stadt"},"district":{"key":"05766","name":"Lippe","type":"Kreis"},"federalState":{"key":"05","name":"Nordrhein-Westfalen"}},{"name":"Am Bruche","postalCode":"32758","locality":"Detmold","municipality":{"key":"05766020","name":"Detmold, Stadt","type":"Stadt"},"district":{"key":"05766","name":"Lippe","type":"Kreis"},"federalState":{"key":"05","name":"Nordrhein-Westfalen"}},{"name":"Am Büchenberg","postalCode":"32760","locality":"Detmold","municipality":{"key":"05766020","name":"Detmold, Stadt","type":"Stadt"},"district":{"key":"05766","name":"Lippe","type":"Kreis"},"federalState":{"key":"05","name":"Nordrhein-Westfalen"}},{"name":"Am Busch","postalCode":"32758","locality":"Detmold","municipality":{"key":"05766020","name":"Detmold, Stadt","type":"Stadt"},"district":{"key":"05766","name":"Lippe","type":"Kreis"},"federalState":{"key":"05","name":"Nordrhein-Westfalen"}},{"name":"Am Dolzerteich","postalCode":"32756","locality":"Detmold","municipality":{"key":"05766020","name":"Detmold, Stadt","type":"Stadt"},"district":{"key":"05766","name":"Lippe","type":"Kreis"},"federalState":{"key":"05","name":"Nordrhein-Westfalen"}},{"name":"Am Eicheneck","postalCode":"32756","locality":"Detmold","municipality":{"key":"05766020","name":"Detmold, Stadt","type":"Stadt"},"district":{"key":"05766","name":"Lippe","type":"Kreis"},"federalState":{"key":"05","name":"Nordrhein-Westfalen"}},{"name":"Am Eichenkrug","postalCode":"32758","locality":"Detmold","municipality":{"key":"05766020","name":"Detmold, Stadt","type":"Stadt"},"district":{"key":"05766","name":"Lippe","type":"Kreis"},"federalState":{"key":"05","name":"Nordrhein-Westfalen"}},{"name":"Am Eichenpohl","postalCode":"32760","locality":"Detmold","municipality":{"key":"05766020","name":"Detmold, Stadt","type":"Stadt"},"district":{"key":"05766","name":"Lippe","type":"Kreis"},"federalState":{"key":"05","name":"Nordrhein-Westfalen"}},{"name":"Am Fischerteich","postalCode":"32758","locality":"Detmold","municipality":{"key":"05766020","name":"Detmold, Stadt","type":"Stadt"},"district":{"key":"05766","name":"Lippe","type":"Kreis"},"federalState":{"key":"05","name":"Nordrhein-Westfalen"}},{"name":"Am Geeren","postalCode":"32760","locality":"Detmold","municipality":{"key":"05766020","name":"Detmold, Stadt","type":"Stadt"},"district":{"key":"05766","name":"Lippe","type":"Kreis"},"federalState":{"key":"05","name":"Nordrhein-Westfalen"}},{"name":"Am Gelskamp","postalCode":"32758","locality":"Detmold","municipality":{"key":"05766020","name":"Detmold, Stadt","type":"Stadt"},"district":{"key":"05766","name":"Lippe","type":"Kreis"},"federalState":{"key":"05","name":"Nordrhein-Westfalen"}},{"name":"Am Großen Feld","postalCode":"32758","locality":"Detmold","municipality":{"key":"05766020","name":"Detmold, Stadt","type":"Stadt"},"district":{"key":"05766","name":"Lippe","type":"Kreis"},"federalState":{"key":"05","name":"Nordrhein-Westfalen"}},{"name":"Am Grotenhof","postalCode":"32760","locality":"Detmold","municipality":{"key":"05766020","name":"Detmold, Stadt","type":"Stadt"},"district":{"key":"05766","name":"Lippe","type":"Kreis"},"federalState":{"key":"05","name":"Nordrhein-Westfalen"}},{"name":"Am Hahnberg","postalCode":"32760","locality":"Detmold","municipality":{"key":"05766020","name":"Detmold, Stadt","type":"Stadt"},"district":{"key":"05766","name":"Lippe","type":"Kreis"},"federalState":{"key":"05","name":"Nordrhein-Westfalen"}},{"name":"Am Hang","postalCode":"32760","locality":"Detmold","municipality":{"key":"05766020","name":"Detmold, Stadt","type":"Stadt"},"district":{"key":"05766","name":"Lippe","type":"Kreis"},"federalState":{"key":"05","name":"Nordrhein-Westfalen"}},{"name":"Am Hasselbach","postalCode":"32758","locality":"Detmold","municipality":{"key":"05766020","name":"Detmold, Stadt","type":"Stadt"},"district":{"key":"05766","name":"Lippe","type":"Kreis"},"federalState":{"key":"05","name":"Nordrhein-Westfalen"}},{"name":"Am Heidenbach","postalCode":"32758","locality":"Detmold","municipality":{"key":"05766020","name":"Detmold, Stadt","type":"Stadt"},"district":{"key":"05766","name":"Lippe","type":"Kreis"},"federalState":{"key":"05","name":"Nordrhein-Westfalen"}},{"name":"Am Hellberg","postalCode":"32760","locality":"Detmold","municipality":{"key":"05766020","name":"Detmold, Stadt","type":"Stadt"},"district":{"key":"05766","name":"Lippe","type":"Kreis"},"federalState":{"key":"05","name":"Nordrhein-Westfalen"}},{"name":"Am Hessentuch","postalCode":"32758","locality":"Detmold","municipality":{"key":"05766020","name":"Detmold, Stadt","type":"Stadt"},"district":{"key":"05766","name":"Lippe","type":"Kreis"},"federalState":{"key":"05","name":"Nordrhein-Westfalen"}},{"name":"Am Hinteren Kamp","postalCode":"32758","locality":"Detmold","municipality":{"key":"05766020","name":"Detmold, Stadt","type":"Stadt"},"district":{"key":"05766","name":"Lippe","type":"Kreis"},"federalState":{"key":"05","name":"Nordrhein-Westfalen"}},{"name":"Am Horst","postalCode":"32758","locality":"Detmold","municipality":{"key":"05766020","name":"Detmold, Stadt","type":"Stadt"},"district":{"key":"05766","name":"Lippe","type":"Kreis"},"federalState":{"key":"05","name":"Nordrhein-Westfalen"}},{"name":"Am Höwel","postalCode":"32760","locality":"Detmold","municipality":{"key":"05766020","name":"Detmold, Stadt","type":"Stadt"},"district":{"key":"05766","name":"Lippe","type":"Kreis"},"federalState":{"key":"05","name":"Nordrhein-Westfalen"}},{"name":"Am Hunebach","postalCode":"32758","locality":"Detmold","municipality":{"key":"05766020","name":"Detmold, Stadt","type":"Stadt"},"district":{"key":"05766","name":"Lippe","type":"Kreis"},"federalState":{"key":"05","name":"Nordrhein-Westfalen"}},{"name":"Bachstr.","postalCode":"32756","locality":"Detmold","municipality":{"key":"05766020","name":"Detmold, Stadt","type":"Stadt"},"district":{"key":"05766","name":"Lippe","type":"Kreis"},"federalState":{"key":"05","name":"Nordrhein-Westfalen"}},{"name":"Bad Meinberger Str.","postalCode":"32760","locality":"Detmold","municipality":{"key":"05766020","name":"Detmold, Stadt","type":"Stadt"},"district":{"key":"05766","name":"Lippe","type":"Kreis"},"federalState":{"key":"05","name":"Nordrhein-Westfalen"}},{"name":"Bahnhofstr.","postalCode":"32756","locality":"Detmold","municipality":{"key":"05766020","name":"Detmold, Stadt","type":"Stadt"},"district":{"key":"05766","name":"Lippe","type":"Kreis"},"federalState":{"key":"05","name":"Nordrhein-Westfalen"}},{"name":"Bandelhöhe","postalCode":"32756","locality":"Detmold","municipality":{"key":"05766020","name":"Detmold, Stadt","type":"Stadt"},"district":{"key":"05766","name":"Lippe","type":"Kreis"},"federalState":{"key":"05","name":"Nordrhein-Westfalen"}},{"name":"Bandelstr.","postalCode":"32756","locality":"Detmold","municipality":{"key":"05766020","name":"Detmold, Stadt","type":"Stadt"},"district":{"key":"05766","name":"Lippe","type":"Kreis"},"federalState":{"key":"05","name":"Nordrhein-Westfalen"}},{"name":"Barkhauser Str.","postalCode":"32758","locality":"Detmold","municipality":{"key":"05766020","name":"Detmold, Stadt","type":"Stadt"},"district":{"key":"05766","name":"Lippe","type":"Kreis"},"federalState":{"key":"05","name":"Nordrhein-Westfalen"}},{"name":"Barntruper Str.","postalCode":"32756","locality":"Detmold","municipality":{"key":"05766020","name":"Detmold, Stadt","type":"Stadt"},"district":{"key":"05766","name":"Lippe","type":"Kreis"},"federalState":{"key":"05","name":"Nordrhein-Westfalen"}},{"name":"Barntruper Str.","postalCode":"32758","locality":"Detmold","municipality":{"key":"05766020","name":"Detmold, Stadt","type":"Stadt"},"district":{"key":"05766","name":"Lippe","type":"Kreis"},"federalState":{"key":"05","name":"Nordrhein-Westfalen"}},{"name":"Bauernheide","postalCode":"32760","locality":"Detmold","municipality":{"key":"05766020","name":"Detmold, Stadt","type":"Stadt"},"district":{"key":"05766","name":"Lippe","type":"Kreis"},"federalState":{"key":"05","name":"Nordrhein-Westfalen"}},{"name":"Baumschulenweg","postalCode":"32760","locality":"Detmold","municipality":{"key":"05766020","name":"Detmold, Stadt","type":"Stadt"},"district":{"key":"05766","name":"Lippe","type":"Kreis"},"federalState":{"key":"05","name":"Nordrhein-Westfalen"}},{"name":"Baumstr.","postalCode":"32756","locality":"Detmold","municipality":{"key":"05766020","name":"Detmold, Stadt","type":"Stadt"},"district":{"key":"05766","name":"Lippe","type":"Kreis"},"federalState":{"key":"05","name":"Nordrhein-Westfalen"}},{"name":"Beethovenweg","postalCode":"32756","locality":"Detmold","municipality":{"key":"05766020","name":"Detmold, Stadt","type":"Stadt"},"district":{"key":"05766","name":"Lippe","type":"Kreis"},"federalState":{"key":"05","name":"Nordrhein-Westfalen"}},{"name":"Behringstr.","postalCode":"32756","locality":"Detmold","municipality":{"key":"05766020","name":"Detmold, Stadt","type":"Stadt"},"district":{"key":"05766","name":"Lippe","type":"Kreis"},"federalState":{"key":"05","name":"Nordrhein-Westfalen"}},{"name":"Benekestr.","postalCode":"32756","locality":"Detmold","municipality":{"key":"05766020","name":"Detmold, Stadt","type":"Stadt"},"district":{"key":"05766","name":"Lippe","type":"Kreis"},"federalState":{"key":"05","name":"Nordrhein-Westfalen"}},{"name":"Bentruper Weg","postalCode":"32758","locality":"Detmold","municipality":{"key":"05766020","name":"Detmold, Stadt","type":"Stadt"},"district":{"key":"05766","name":"Lippe","type":"Kreis"},"federalState":{"key":"05","name":"Nordrhein-Westfalen"}},{"name":"Bentweg","postalCode":"32760","locality":"Detmold","municipality":{"key":"05766020","name":"Detmold, Stadt","type":"Stadt"},"district":{"key":"05766","name":"Lippe","type":"Kreis"},"federalState":{"key":"05","name":"Nordrhein-Westfalen"}},{"name":"Bergstr.","postalCode":"32756","locality":"Detmold","municipality":{"key":"05766020","name":"Detmold, Stadt","type":"Stadt"},"district":{"key":"05766","name":"Lippe","type":"Kreis"},"federalState":{"key":"05","name":"Nordrhein-Westfalen"}},{"name":"Bergweg","postalCode":"32760","locality":"Detmold","municipality":{"key":"05766020","name":"Detmold, Stadt","type":"Stadt"},"district":{"key":"05766","name":"Lippe","type":"Kreis"},"federalState":{"key":"05","name":"Nordrhein-Westfalen"}},{"name":"Berlebecker Heide","postalCode":"32760","locality":"Detmold","municipality":{"key":"05766020","name":"Detmold, Stadt","type":"Stadt"},"district":{"key":"05766","name":"Lippe","type":"Kreis"},"federalState":{"key":"05","name":"Nordrhein-Westfalen"}},{"name":"Berliner Allee","postalCode":"32756","locality":"Detmold","municipality":{"key":"05766020","name":"Detmold, Stadt","type":"Stadt"},"district":{"key":"05766","name":"Lippe","type":"Kreis"},"federalState":{"key":"05","name":"Nordrhein-Westfalen"}},{"name":"Bernholdstr.","postalCode":"32756","locality":"Detmold","municipality":{"key":"05766020","name":"Detmold, Stadt","type":"Stadt"},"district":{"key":"05766","name":"Lippe","type":"Kreis"},"federalState":{"key":"05","name":"Nordrhein-Westfalen"}},{"name":"Bertastr.","postalCode":"32756","locality":"Detmold","municipality":{"key":"05766020","name":"Detmold, Stadt","type":"Stadt"},"district":{"key":"05766","name":"Lippe","type":"Kreis"},"federalState":{"key":"05","name":"Nordrhein-Westfalen"}},{"name":"Bielefelder Str.","postalCode":"32756","locality":"Detmold","municipality":{"key":"05766020","name":"Detmold, Stadt","type":"Stadt"},"district":{"key":"05766","name":"Lippe","type":"Kreis"},"federalState":{"key":"05","name":"Nordrhein-Westfalen"}},{"name":"Bielefelder Str.","postalCode":"32758","locality":"Detmold","municipality":{"key":"05766020","name":"Detmold, Stadt","type":"Stadt"},"district":{"key":"05766","name":"Lippe","type":"Kreis"},"federalState":{"key":"05","name":"Nordrhein-Westfalen"}},{"name":"Bielsteinweg","postalCode":"32760","locality":"Detmold","municipality":{"key":"05766020","name":"Detmold, Stadt","type":"Stadt"},"district":{"key":"05766","name":"Lippe","type":"Kreis"},"federalState":{"key":"05","name":"Nordrhein-Westfalen"}},{"name":"Birkenallee","postalCode":"32760","locality":"Detmold","municipality":{"key":"05766020","name":"Detmold, Stadt","type":"Stadt"},"district":{"key":"05766","name":"Lippe","type":"Kreis"},"federalState":{"key":"05","name":"Nordrhein-Westfalen"}},{"name":"Birkendamm","postalCode":"32758","locality":"Detmold","municipality":{"key":"05766020","name":"Detmold, Stadt","type":"Stadt"},"district":{"key":"05766","name":"Lippe","type":"Kreis"},"federalState":{"key":"05","name":"Nordrhein-Westfalen"}},{"name":"Birkenhügel","postalCode":"32760","locality":"Detmold","municipality":{"key":"05766020","name":"Detmold, Stadt","type":"Stadt"},"district":{"key":"05766","name":"Lippe","type":"Kreis"},"federalState":{"key":"05","name":"Nordrhein-Westfalen"}},{"name":"Birkenkamp","postalCode":"32760","locality":"Detmold","municipality":{"key":"05766020","name":"Detmold, Stadt","type":"Stadt"},"district":{"key":"05766","name":"Lippe","type":"Kreis"},"federalState":{"key":"05","name":"Nordrhein-Westfalen"}},{"name":"Birnenweg","postalCode":"32758","locality":"Detmold","municipality":{"key":"05766020","name":"Detmold, Stadt","type":"Stadt"},"district":{"key":"05766","name":"Lippe","type":"Kreis"},"federalState":{"key":"05","name":"Nordrhein-Westfalen"}},{"name":"Bismarckstr.","postalCode":"32756","locality":"Detmold","municipality":{"key":"05766020","name":"Detmold, Stadt","type":"Stadt"},"district":{"key":"05766","name":"Lippe","type":"Kreis"},"federalState":{"key":"05","name":"Nordrhein-Westfalen"}},{"name":"Blomberger Str.","postalCode":"32756","locality":"Detmold","municipality":{"key":"05766020","name":"Detmold, Stadt","type":"Stadt"},"district":{"key":"05766","name":"Lippe","type":"Kreis"},"federalState":{"key":"05","name":"Nordrhein-Westfalen"}},{"name":"Blomberger Str.","postalCode":"32760","locality":"Detmold","municipality":{"key":"05766020","name":"Detmold, Stadt","type":"Stadt"},"district":{"key":"05766","name":"Lippe","type":"Kreis"},"federalState":{"key":"05","name":"Nordrhein-Westfalen"}},{"name":"Blücherstr.","postalCode":"32756","locality":"Detmold","municipality":{"key":"05766020","name":"Detmold, Stadt","type":"Stadt"},"district":{"key":"05766","name":"Lippe","type":"Kreis"},"federalState":{"key":"05","name":"Nordrhein-Westfalen"}},{"name":"Blumenstr.","postalCode":"32758","locality":"Detmold","municipality":{"key":"05766020","name":"Detmold, Stadt","type":"Stadt"},"district":{"key":"05766","name":"Lippe","type":"Kreis"},"federalState":{"key":"05","name":"Nordrhein-Westfalen"}},{"name":"Boelckestr.","postalCode":"32756","locality":"Detmold","municipality":{"key":"05766020","name":"Detmold, Stadt","type":"Stadt"},"district":{"key":"05766","name":"Lippe","type":"Kreis"},"federalState":{"key":"05","name":"Nordrhein-Westfalen"}},{"name":"Bollweg","postalCode":"32760","locality":"Detmold","municipality":{"key":"05766020","name":"Detmold, Stadt","type":"Stadt"},"district":{"key":"05766","name":"Lippe","type":"Kreis"},"federalState":{"key":"05","name":"Nordrhein-Westfalen"}},{"name":"Bonhoefferstr.","postalCode":"32756","locality":"Detmold","municipality":{"key":"05766020","name":"Detmold, Stadt","type":"Stadt"},"district":{"key":"05766","name":"Lippe","type":"Kreis"},"federalState":{"key":"05","name":"Nordrhein-Westfalen"}},{"name":"Bornweg","postalCode":"32760","locality":"Detmold","municipality":{"key":"05766020","name":"Detmold, Stadt","type":"Stadt"},"district":{"key":"05766","name":"Lippe","type":"Kreis"},"federalState":{"key":"05","name":"Nordrhein-Westfalen"}},{"name":"Brahmsstr.","postalCode":"32756","locality":"Detmold","municipality":{"key":"05766020","name":"Detmold, Stadt","type":"Stadt"},"district":{"key":"05766","name":"Lippe","type":"Kreis"},"federalState":{"key":"05","name":"Nordrhein-Westfalen"}},{"name":"Braker Str.","postalCode":"32758","locality":"Detmold","municipality":{"key":"05766020","name":"Detmold, Stadt","type":"Stadt"},"district":{"key":"05766","name":"Lippe","type":"Kreis"},"federalState":{"key":"05","name":"Nordrhein-Westfalen"}},{"name":"Braugasse","postalCode":"32756","locality":"Detmold","municipality":{"key":"05766020","name":"Detmold, Stadt","type":"Stadt"},"district":{"key":"05766","name":"Lippe","type":"Kreis"},"federalState":{"key":"05","name":"Nordrhein-Westfalen"}},{"name":"Braunenbrucher Weg","postalCode":"32758","locality":"Detmold","municipality":{"key":"05766020","name":"Detmold, Stadt","type":"Stadt"},"district":{"key":"05766","name":"Lippe","type":"Kreis"},"federalState":{"key":"05","name":"Nordrhein-Westfalen"}},{"name":"Braunschweiger Str.","postalCode":"32756","locality":"Detmold","municipality":{"key":"05766020","name":"Detmold, Stadt","type":"Stadt"},"district":{"key":"05766","name":"Lippe","type":"Kreis"},"federalState":{"key":"05","name":"Nordrhein-Westfalen"}},{"name":"Breitenaht","postalCode":"32760","locality":"Detmold","municipality":{"key":"05766020","name":"Detmold, Stadt","type":"Stadt"},"district":{"key":"05766","name":"Lippe","type":"Kreis"},"federalState":{"key":"05","name":"Nordrhein-Westfalen"}},{"name":"Bremker Str.","postalCode":"32758","locality":"Detmold","municipality":{"key":"05766020","name":"Detmold, Stadt","type":"Stadt"},"district":{"key":"05766","name":"Lippe","type":"Kreis"},"federalState":{"key":"05","name":"Nordrhein-Westfalen"}},{"name":"Breslauer Str.","postalCode":"32760","locality":"Detmold","municipality":{"key":"05766020","name":"Detmold, Stadt","type":"Stadt"},"district":{"key":"05766","name":"Lippe","type":"Kreis"},"federalState":{"key":"05","name":"Nordrhein-Westfalen"}},{"name":"Brinkstr.","postalCode":"32758","locality":"Detmold","municipality":{"key":"05766020","name":"Detmold, Stadt","type":"Stadt"},"district":{"key":"05766","name":"Lippe","type":"Kreis"},"federalState":{"key":"05","name":"Nordrhein-Westfalen"}},{"name":"Brittaweg","postalCode":"32758","locality":"Detmold","municipality":{"key":"05766020","name":"Detmold, Stadt","type":"Stadt"},"district":{"key":"05766","name":"Lippe","type":"Kreis"},"federalState":{"key":"05","name":"Nordrhein-Westfalen"}},{"name":"Broker Holz","postalCode":"32758","locality":"Detmold","municipality":{"key":"05766020","name":"Detmold, Stadt","type":"Stadt"},"district":{"key":"05766","name":"Lippe","type":"Kreis"},"federalState":{"key":"05","name":"Nordrhein-Westfalen"}},{"name":"Casinogarten","postalCode":"32756","locality":"Detmold","municipality":{"key":"05766020","name":"Detmold, Stadt","type":"Stadt"},"district":{"key":"05766","name":"Lippe","type":"Kreis"},"federalState":{"key":"05","name":"Nordrhein-Westfalen"}},{"name":"Charles-Lindbergh-Ring","postalCode":"32756","locality":"Detmold","municipality":{"key":"05766020","name":"Detmold, Stadt","type":"Stadt"},"district":{"key":"05766","name":"Lippe","type":"Kreis"},"federalState":{"key":"05","name":"Nordrhein-Westfalen"}},{"name":"Charles-Lindbergh-Ring","postalCode":"32758","locality":"Detmold","municipality":{"key":"05766020","name":"Detmold, Stadt","type":"Stadt"},"district":{"key":"05766","name":"Lippe","type":"Kreis"},"federalState":{"key":"05","name":"Nordrhein-Westfalen"}},{"name":"Cheruskerweg","postalCode":"32760","locality":"Detmold","municipality":{"key":"05766020","name":"Detmold, Stadt","type":"Stadt"},"district":{"key":"05766","name":"Lippe","type":"Kreis"},"federalState":{"key":"05","name":"Nordrhein-Westfalen"}},{"name":"Cimbernweg","postalCode":"32760","locality":"Detmold","municipality":{"key":"05766020","name":"Detmold, Stadt","type":"Stadt"},"district":{"key":"05766","name":"Lippe","type":"Kreis"},"federalState":{"key":"05","name":"Nordrhein-Westfalen"}},{"name":"Dahlbrede","postalCode":"32758","locality":"Detmold","municipality":{"key":"05766020","name":"Detmold, Stadt","type":"Stadt"},"district":{"key":"05766","name":"Lippe","type":"Kreis"},"federalState":{"key":"05","name":"Nordrhein-Westfalen"}},{"name":"Dahlsheider Hang","postalCode":"32760","locality":"Detmold","municipality":{"key":"05766020","name":"Detmold, Stadt","type":"Stadt"},"district":{"key":"05766","name":"Lippe","type":"Kreis"},"federalState":{"key":"05","name":"Nordrhein-Westfalen"}},{"name":"Dahlsheider Str.","postalCode":"32760","locality":"Detmold","municipality":{"key":"05766020","name":"Detmold, Stadt","type":"Stadt"},"district":{"key":"05766","name":"Lippe","type":"Kreis"},"federalState":{"key":"05","name":"Nordrhein-Westfalen"}},{"name":"Dahlsheider Weg","postalCode":"32760","locality":"Detmold","municipality":{"key":"05766020","name":"Detmold, Stadt","type":"Stadt"},"district":{"key":"05766","name":"Lippe","type":"Kreis"},"federalState":{"key":"05","name":"Nordrhein-Westfalen"}},{"name":"Dalborner Str.","postalCode":"32758","locality":"Detmold","municipality":{"key":"05766020","name":"Detmold, Stadt","type":"Stadt"},"district":{"key":"05766","name":"Lippe","type":"Kreis"},"federalState":{"key":"05","name":"Nordrhein-Westfalen"}},{"name":"Dammberg","postalCode":"32760","locality":"Detmold","municipality":{"key":"05766020","name":"Detmold, Stadt","type":"Stadt"},"district":{"key":"05766","name":"Lippe","type":"Kreis"},"federalState":{"key":"05","name":"Nordrhein-Westfalen"}},{"name":"Dantestr.","postalCode":"32758","locality":"Detmold","municipality":{"key":"05766020","name":"Detmold, Stadt","type":"Stadt"},"district":{"key":"05766","name":"Lippe","type":"Kreis"},"federalState":{"key":"05","name":"Nordrhein-Westfalen"}},{"name":"Danziger Str.","postalCode":"32756","locality":"Detmold","municipality":{"key":"05766020","name":"Detmold, Stadt","type":"Stadt"},"district":{"key":"05766","name":"Lippe","type":"Kreis"},"federalState":{"key":"05","name":"Nordrhein-Westfalen"}},{"name":"Degenhardstr.","postalCode":"32760","locality":"Detmold","municipality":{"key":"05766020","name":"Detmold, Stadt","type":"Stadt"},"district":{"key":"05766","name":"Lippe","type":"Kreis"},"federalState":{"key":"05","name":"Nordrhein-Westfalen"}},{"name":"Dehlenkamp","postalCode":"32756","locality":"Detmold","municipality":{"key":"05766020","name":"Detmold, Stadt","type":"Stadt"},"district":{"key":"05766","name":"Lippe","type":"Kreis"},"federalState":{"key":"05","name":"Nordrhein-Westfalen"}},{"name":"Dehlentruper Weg","postalCode":"32758","locality":"Detmold","municipality":{"key":"05766020","name":"Detmold, Stadt","type":"Stadt"},"district":{"key":"05766","name":"Lippe","type":"Kreis"},"federalState":{"key":"05","name":"Nordrhein-Westfalen"}},{"name":"Denkmalstr.","postalCode":"32760","locality":"Detmold","municipality":{"key":"05766020","name":"Detmold, Stadt","type":"Stadt"},"district":{"key":"05766","name":"Lippe","type":"Kreis"},"federalState":{"key":"05","name":"Nordrhein-Westfalen"}},{"name":"Deppeweg","postalCode":"32758","locality":"Detmold","municipality":{"key":"05766020","name":"Detmold, Stadt","type":"Stadt"},"district":{"key":"05766","name":"Lippe","type":"Kreis"},"federalState":{"key":"05","name":"Nordrhein-Westfalen"}},{"name":"Dessauer Weg","postalCode":"32756","locality":"Detmold","municipality":{"key":"05766020","name":"Detmold, Stadt","type":"Stadt"},"district":{"key":"05766","name":"Lippe","type":"Kreis"},"federalState":{"key":"05","name":"Nordrhein-Westfalen"}},{"name":"Detmolder Str.","postalCode":"32760","locality":"Detmold","municipality":{"key":"05766020","name":"Detmold, Stadt","type":"Stadt"},"district":{"key":"05766","name":"Lippe","type":"Kreis"},"federalState":{"key":"05","name":"Nordrhein-Westfalen"}},{"name":"Dianastr.","postalCode":"32758","locality":"Detmold","municipality":{"key":"05766020","name":"Detmold, Stadt","type":"Stadt"},"district":{"key":"05766","name":"Lippe","type":"Kreis"},"federalState":{"key":"05","name":"Nordrhein-Westfalen"}},{"name":"Dickewiedsweg","postalCode":"32758","locality":"Detmold","municipality":{"key":"05766020","name":"Detmold, Stadt","type":"Stadt"},"district":{"key":"05766","name":"Lippe","type":"Kreis"},"federalState":{"key":"05","name":"Nordrhein-Westfalen"}},{"name":"Diestelbrucher Str.","postalCode":"32760","locality":"Detmold","municipality":{"key":"05766020","name":"Detmold, Stadt","type":"Stadt"},"district":{"key":"05766","name":"Lippe","type":"Kreis"},"federalState":{"key":"05","name":"Nordrhein-Westfalen"}},{"name":"Diestelkamp","postalCode":"32760","locality":"Detmold","municipality":{"key":"05766020","name":"Detmold, Stadt","type":"Stadt"},"district":{"key":"05766","name":"Lippe","type":"Kreis"},"federalState":{"key":"05","name":"Nordrhein-Westfalen"}},{"name":"Dissestr.","postalCode":"32756","locality":"Detmold","municipality":{"key":"05766020","name":"Detmold, Stadt","type":"Stadt"},"district":{"key":"05766","name":"Lippe","type":"Kreis"},"federalState":{"key":"05","name":"Nordrhein-Westfalen"}},{"name":"Dohlenweg","postalCode":"32758","locality":"Detmold","municipality":{"key":"05766020","name":"Detmold, Stadt","type":"Stadt"},"district":{"key":"05766","name":"Lippe","type":"Kreis"},"federalState":{"key":"05","name":"Nordrhein-Westfalen"}},{"name":"Doktorweg","postalCode":"32756","locality":"Detmold","municipality":{"key":"05766020","name":"Detmold, Stadt","type":"Stadt"},"district":{"key":"05766","name":"Lippe","type":"Kreis"},"federalState":{"key":"05","name":"Nordrhein-Westfalen"}},{"name":"Donoperteich","postalCode":"32758","locality":"Detmold","municipality":{"key":"05766020","name":"Detmold, Stadt","type":"Stadt"},"district":{"key":"05766","name":"Lippe","type":"Kreis"},"federalState":{"key":"05","name":"Nordrhein-Westfalen"}},{"name":"Dörenstr.","postalCode":"32758","locality":"Detmold","municipality":{"key":"05766020","name":"Detmold, Stadt","type":"Stadt"},"district":{"key":"05766","name":"Lippe","type":"Kreis"},"federalState":{"key":"05","name":"Nordrhein-Westfalen"}},{"name":"Dörenstr.","postalCode":"32760","locality":"Detmold","municipality":{"key":"05766020","name":"Detmold, Stadt","type":"Stadt"},"district":{"key":"05766","name":"Lippe","type":"Kreis"},"federalState":{"key":"05","name":"Nordrhein-Westfalen"}},{"name":"Dörenwaldstr.","postalCode":"32760","locality":"Detmold","municipality":{"key":"05766020","name":"Detmold, Stadt","type":"Stadt"},"district":{"key":"05766","name":"Lippe","type":"Kreis"},"federalState":{"key":"05","name":"Nordrhein-Westfalen"}},{"name":"Dorfpark","postalCode":"32760","locality":"Detmold","municipality":{"key":"05766020","name":"Detmold, Stadt","type":"Stadt"},"district":{"key":"05766","name":"Lippe","type":"Kreis"},"federalState":{"key":"05","name":"Nordrhein-Westfalen"}},{"name":"Dorfplatzweg","postalCode":"32758","locality":"Detmold","municipality":{"key":"05766020","name":"Detmold, Stadt","type":"Stadt"},"district":{"key":"05766","name":"Lippe","type":"Kreis"},"federalState":{"key":"05","name":"Nordrhein-Westfalen"}},{"name":"Dorlastr.","postalCode":"32760","locality":"Detmold","municipality":{"key":"05766020","name":"Detmold, Stadt","type":"Stadt"},"district":{"key":"05766","name":"Lippe","type":"Kreis"},"federalState":{"key":"05","name":"Nordrhein-Westfalen"}},{"name":"Dorotheenstr.","postalCode":"32756","locality":"Detmold","municipality":{"key":"05766020","name":"Detmold, Stadt","type":"Stadt"},"district":{"key":"05766","name":"Lippe","type":"Kreis"},"federalState":{"key":"05","name":"Nordrhein-Westfalen"}},{"name":"Dortmunder Str.","postalCode":"32760","locality":"Detmold","municipality":{"key":"05766020","name":"Detmold, Stadt","type":"Stadt"},"district":{"key":"05766","name":"Lippe","type":"Kreis"},"federalState":{"key":"05","name":"Nordrhein-Westfalen"}},{"name":"Dreierkrugplatz","postalCode":"32760","locality":"Detmold","municipality":{"key":"05766020","name":"Detmold, Stadt","type":"Stadt"},"district":{"key":"05766","name":"Lippe","type":"Kreis"},"federalState":{"key":"05","name":"Nordrhein-Westfalen"}},{"name":"Dreimannstr.","postalCode":"32760","locality":"Detmold","municipality":{"key":"05766020","name":"Detmold, Stadt","type":"Stadt"},"district":{"key":"05766","name":"Lippe","type":"Kreis"},"federalState":{"key":"05","name":"Nordrhein-Westfalen"}},{"name":"Dresdener Str.","postalCode":"32756","locality":"Detmold","municipality":{"key":"05766020","name":"Detmold, Stadt","type":"Stadt"},"district":{"key":"05766","name":"Lippe","type":"Kreis"},"federalState":{"key":"05","name":"Nordrhein-Westfalen"}},{"name":"Dr. Hans-Schurig-Weg","postalCode":"32758","locality":"Detmold","municipality":{"key":"05766020","name":"Detmold, Stadt","type":"Stadt"},"district":{"key":"05766","name":"Lippe","type":"Kreis"},"federalState":{"key":"05","name":"Nordrhein-Westfalen"}},{"name":"Drischbreite","postalCode":"32760","locality":"Detmold","municipality":{"key":"05766020","name":"Detmold, Stadt","type":"Stadt"},"district":{"key":"05766","name":"Lippe","type":"Kreis"},"federalState":{"key":"05","name":"Nordrhein-Westfalen"}},{"name":"Drosselweg","postalCode":"32758","locality":"Detmold","municipality":{"key":"05766020","name":"Detmold, Stadt","type":"Stadt"},"district":{"key":"05766","name":"Lippe","type":"Kreis"},"federalState":{"key":"05","name":"Nordrhein-Westfalen"}},{"name":"Droste-Hülshoff-Str.","postalCode":"32758","locality":"Detmold","municipality":{"key":"05766020","name":"Detmold, Stadt","type":"Stadt"},"district":{"key":"05766","name":"Lippe","type":"Kreis"},"federalState":{"key":"05","name":"Nordrhein-Westfalen"}},{"name":"Drostenkamp","postalCode":"32760","locality":"Detmold","municipality":{"key":"05766020","name":"Detmold, Stadt","type":"Stadt"},"district":{"key":"05766","name":"Lippe","type":"Kreis"},"federalState":{"key":"05","name":"Nordrhein-Westfalen"}},{"name":"Duisburger Str.","postalCode":"32760","locality":"Detmold","municipality":{"key":"05766020","name":"Detmold, Stadt","type":"Stadt"},"district":{"key":"05766","name":"Lippe","type":"Kreis"},"federalState":{"key":"05","name":"Nordrhein-Westfalen"}},{"name":"Dürener Str.","postalCode":"32758","locality":"Detmold","municipality":{"key":"05766020","name":"Detmold, Stadt","type":"Stadt"},"district":{"key":"05766","name":"Lippe","type":"Kreis"},"federalState":{"key":"05","name":"Nordrhein-Westfalen"}},{"name":"Dürerweg","postalCode":"32760","locality":"Detmold","municipality":{"key":"05766020","name":"Detmold, Stadt","type":"Stadt"},"district":{"key":"05766","name":"Lippe","type":"Kreis"},"federalState":{"key":"05","name":"Nordrhein-Westfalen"}},{"name":"Ecclesiastr.","postalCode":"32758","locality":"Detmold","municipality":{"key":"05766020","name":"Detmold, Stadt","type":"Stadt"},"district":{"key":"05766","name":"Lippe","type":"Kreis"},"federalState":{"key":"05","name":"Nordrhein-Westfalen"}},{"name":"Echternkampstr.","postalCode":"32760","locality":"Detmold","municipality":{"key":"05766020","name":"Detmold, Stadt","type":"Stadt"},"district":{"key":"05766","name":"Lippe","type":"Kreis"},"federalState":{"key":"05","name":"Nordrhein-Westfalen"}},{"name":"Eckenerstr.","postalCode":"32756","locality":"Detmold","municipality":{"key":"05766020","name":"Detmold, Stadt","type":"Stadt"},"district":{"key":"05766","name":"Lippe","type":"Kreis"},"federalState":{"key":"05","name":"Nordrhein-Westfalen"}},{"name":"Eckernförder Weg","postalCode":"32760","locality":"Detmold","municipality":{"key":"05766020","name":"Detmold, Stadt","type":"Stadt"},"district":{"key":"05766","name":"Lippe","type":"Kreis"},"federalState":{"key":"05","name":"Nordrhein-Westfalen"}},{"name":"Efeuweg","postalCode":"32760","locality":"Detmold","municipality":{"key":"05766020","name":"Detmold, Stadt","type":"Stadt"},"district":{"key":"05766","name":"Lippe","type":"Kreis"},"federalState":{"key":"05","name":"Nordrhein-Westfalen"}},{"name":"Eggestr.","postalCode":"32758","locality":"Detmold","municipality":{"key":"05766020","name":"Detmold, Stadt","type":"Stadt"},"district":{"key":"05766","name":"Lippe","type":"Kreis"},"federalState":{"key":"05","name":"Nordrhein-Westfalen"}},{"name":"Ehrenbergweg","postalCode":"32760","locality":"Detmold","municipality":{"key":"05766020","name":"Detmold, Stadt","type":"Stadt"},"district":{"key":"05766","name":"Lippe","type":"Kreis"},"federalState":{"key":"05","name":"Nordrhein-Westfalen"}},{"name":"Ehrentruper Str.","postalCode":"32758","locality":"Detmold","municipality":{"key":"05766020","name":"Detmold, Stadt","type":"Stadt"},"district":{"key":"05766","name":"Lippe","type":"Kreis"},"federalState":{"key":"05","name":"Nordrhein-Westfalen"}},{"name":"Eichendorffweg","postalCode":"32756","locality":"Detmold","municipality":{"key":"05766020","name":"Detmold, Stadt","type":"Stadt"},"district":{"key":"05766","name":"Lippe","type":"Kreis"},"federalState":{"key":"05","name":"Nordrhein-Westfalen"}},{"name":"Eichholzer Weg","postalCode":"32760","locality":"Detmold","municipality":{"key":"05766020","name":"Detmold, Stadt","type":"Stadt"},"district":{"key":"05766","name":"Lippe","type":"Kreis"},"federalState":{"key":"05","name":"Nordrhein-Westfalen"}},{"name":"Einsteinweg","postalCode":"32760","locality":"Detmold","municipality":{"key":"05766020","name":"Detmold, Stadt","type":"Stadt"},"district":{"key":"05766","name":"Lippe","type":"Kreis"},"federalState":{"key":"05","name":"Nordrhein-Westfalen"}},{"name":"Elias-van-Lennep-Weg","postalCode":"32756","locality":"Detmold","municipality":{"key":"05766020","name":"Detmold, Stadt","type":"Stadt"},"district":{"key":"05766","name":"Lippe","type":"Kreis"},"federalState":{"key":"05","name":"Nordrhein-Westfalen"}},{"name":"Elisabeth-Selbert-Weg","postalCode":"32756","locality":"Detmold","municipality":{"key":"05766020","name":"Detmold, Stadt","type":"Stadt"},"district":{"key":"05766","name":"Lippe","type":"Kreis"},"federalState":{"key":"05","name":"Nordrhein-Westfalen"}},{"name":"Elisabethstr.","postalCode":"32756","locality":"Detmold","municipality":{"key":"05766020","name":"Detmold, Stadt","type":"Stadt"},"district":{"key":"05766","name":"Lippe","type":"Kreis"},"federalState":{"key":"05","name":"Nordrhein-Westfalen"}},{"name":"Elisabethstr.","postalCode":"32758","locality":"Detmold","municipality":{"key":"05766020","name":"Detmold, Stadt","type":"Stadt"},"district":{"key":"05766","name":"Lippe","type":"Kreis"},"federalState":{"key":"05","name":"Nordrhein-Westfalen"}},{"name":"Ellernbruchweg","postalCode":"32760","locality":"Detmold","municipality":{"key":"05766020","name":"Detmold, Stadt","type":"Stadt"},"district":{"key":"05766","name":"Lippe","type":"Kreis"},"federalState":{"key":"05","name":"Nordrhein-Westfalen"}},{"name":"Ellernstr.","postalCode":"32760","locality":"Detmold","municipality":{"key":"05766020","name":"Detmold, Stadt","type":"Stadt"},"district":{"key":"05766","name":"Lippe","type":"Kreis"},"federalState":{"key":"05","name":"Nordrhein-Westfalen"}},{"name":"Elternselbsthilfe Kiebitz","postalCode":"32758","locality":"Detmold","municipality":{"key":"05766020","name":"Detmold, Stadt","type":"Stadt"},"district":{"key":"05766","name":"Lippe","type":"Kreis"},"federalState":{"key":"05","name":"Nordrhein-Westfalen"}},{"name":"Emilienstr.","postalCode":"32756","locality":"Detmold","municipality":{"key":"05766020","name":"Detmold, Stadt","type":"Stadt"},"district":{"key":"05766","name":"Lippe","type":"Kreis"},"federalState":{"key":"05","name":"Nordrhein-Westfalen"}},{"name":"Emil-Peters-Str.","postalCode":"32756","locality":"Detmold","municipality":{"key":"05766020","name":"Detmold, Stadt","type":"Stadt"},"district":{"key":"05766","name":"Lippe","type":"Kreis"},"federalState":{"key":"05","name":"Nordrhein-Westfalen"}},{"name":"Erbhofstr.","postalCode":"32760","locality":"Detmold","municipality":{"key":"05766020","name":"Detmold, Stadt","type":"Stadt"},"district":{"key":"05766","name":"Lippe","type":"Kreis"},"federalState":{"key":"05","name":"Nordrhein-Westfalen"}},{"name":"Erikastr.","postalCode":"32756","locality":"Detmold","municipality":{"key":"05766020","name":"Detmold, Stadt","type":"Stadt"},"district":{"key":"05766","name":"Lippe","type":"Kreis"},"federalState":{"key":"05","name":"Nordrhein-Westfalen"}},{"name":"Erlenweg","postalCode":"32758","locality":"Detmold","municipality":{"key":"05766020","name":"Detmold, Stadt","type":"Stadt"},"district":{"key":"05766","name":"Lippe","type":"Kreis"},"federalState":{"key":"05","name":"Nordrhein-Westfalen"}},{"name":"Ernest-Solvay-Weg","postalCode":"32760","locality":"Detmold","municipality":{"key":"05766020","name":"Detmold, Stadt","type":"Stadt"},"district":{"key":"05766","name":"Lippe","type":"Kreis"},"federalState":{"key":"05","name":"Nordrhein-Westfalen"}},{"name":"Ernst-Grote-Str.","postalCode":"32760","locality":"Detmold","municipality":{"key":"05766020","name":"Detmold, Stadt","type":"Stadt"},"district":{"key":"05766","name":"Lippe","type":"Kreis"},"federalState":{"key":"05","name":"Nordrhein-Westfalen"}},{"name":"Ernst-Hilker-Str.","postalCode":"32756","locality":"Detmold","municipality":{"key":"05766020","name":"Detmold, Stadt","type":"Stadt"},"district":{"key":"05766","name":"Lippe","type":"Kreis"},"federalState":{"key":"05","name":"Nordrhein-Westfalen"}},{"name":"Ernst-Hilker-Str.","postalCode":"32758","locality":"Detmold","municipality":{"key":"05766020","name":"Detmold, Stadt","type":"Stadt"},"district":{"key":"05766","name":"Lippe","type":"Kreis"},"federalState":{"key":"05","name":"Nordrhein-Westfalen"}},{"name":"Ernst-Klasing-Weg","postalCode":"32756","locality":"Detmold","municipality":{"key":"05766020","name":"Detmold, Stadt","type":"Stadt"},"district":{"key":"05766","name":"Lippe","type":"Kreis"},"federalState":{"key":"05","name":"Nordrhein-Westfalen"}},{"name":"Ernststr.","postalCode":"32756","locality":"Detmold","municipality":{"key":"05766020","name":"Detmold, Stadt","type":"Stadt"},"district":{"key":"05766","name":"Lippe","type":"Kreis"},"federalState":{"key":"05","name":"Nordrhein-Westfalen"}},{"name":"Eschenweg","postalCode":"32760","locality":"Detmold","municipality":{"key":"05766020","name":"Detmold, Stadt","type":"Stadt"},"district":{"key":"05766","name":"Lippe","type":"Kreis"},"federalState":{"key":"05","name":"Nordrhein-Westfalen"}},{"name":"Eschweilerstr.","postalCode":"32758","locality":"Detmold","municipality":{"key":"05766020","name":"Detmold, Stadt","type":"Stadt"},"district":{"key":"05766","name":"Lippe","type":"Kreis"},"federalState":{"key":"05","name":"Nordrhein-Westfalen"}},{"name":"Eulenweg","postalCode":"32758","locality":"Detmold","municipality":{"key":"05766020","name":"Detmold, Stadt","type":"Stadt"},"district":{"key":"05766","name":"Lippe","type":"Kreis"},"federalState":{"key":"05","name":"Nordrhein-Westfalen"}},{"name":"Externsteinestr.","postalCode":"32760","locality":"Detmold","municipality":{"key":"05766020","name":"Detmold, Stadt","type":"Stadt"},"district":{"key":"05766","name":"Lippe","type":"Kreis"},"federalState":{"key":"05","name":"Nordrhein-Westfalen"}},{"name":"Exterstr.","postalCode":"32756","locality":"Detmold","municipality":{"key":"05766020","name":"Detmold, Stadt","type":"Stadt"},"district":{"key":"05766","name":"Lippe","type":"Kreis"},"federalState":{"key":"05","name":"Nordrhein-Westfalen"}},{"name":"Fabrikstr.","postalCode":"32760","locality":"Detmold","municipality":{"key":"05766020","name":"Detmold, Stadt","type":"Stadt"},"district":{"key":"05766","name":"Lippe","type":"Kreis"},"federalState":{"key":"05","name":"Nordrhein-Westfalen"}},{"name":"Falkenburgweg","postalCode":"32760","locality":"Detmold","municipality":{"key":"05766020","name":"Detmold, Stadt","type":"Stadt"},"district":{"key":"05766","name":"Lippe","type":"Kreis"},"federalState":{"key":"05","name":"Nordrhein-Westfalen"}},{"name":"Falkenkrugstr.","postalCode":"32760","locality":"Detmold","municipality":{"key":"05766020","name":"Detmold, Stadt","type":"Stadt"},"district":{"key":"05766","name":"Lippe","type":"Kreis"},"federalState":{"key":"05","name":"Nordrhein-Westfalen"}},{"name":"Falkenweg","postalCode":"32758","locality":"Detmold","municipality":{"key":"05766020","name":"Detmold, Stadt","type":"Stadt"},"district":{"key":"05766","name":"Lippe","type":"Kreis"},"federalState":{"key":"05","name":"Nordrhein-Westfalen"}},{"name":"Falkmannstr.","postalCode":"32756","locality":"Detmold","municipality":{"key":"05766020","name":"Detmold, Stadt","type":"Stadt"},"district":{"key":"05766","name":"Lippe","type":"Kreis"},"federalState":{"key":"05","name":"Nordrhein-Westfalen"}},{"name":"Fasanenweg","postalCode":"32760","locality":"Detmold","municipality":{"key":"05766020","name":"Detmold, Stadt","type":"Stadt"},"district":{"key":"05766","name":"Lippe","type":"Kreis"},"federalState":{"key":"05","name":"Nordrhein-Westfalen"}},{"name":"Feldstr.","postalCode":"32756","locality":"Detmold","municipality":{"key":"05766020","name":"Detmold, Stadt","type":"Stadt"},"district":{"key":"05766","name":"Lippe","type":"Kreis"},"federalState":{"key":"05","name":"Nordrhein-Westfalen"}},{"name":"Feldweg Privat","postalCode":"32760","locality":"Detmold","municipality":{"key":"05766020","name":"Detmold, Stadt","type":"Stadt"},"district":{"key":"05766","name":"Lippe","type":"Kreis"},"federalState":{"key":"05","name":"Nordrhein-Westfalen"}},{"name":"Feldwiese","postalCode":"32758","locality":"Detmold","municipality":{"key":"05766020","name":"Detmold, Stadt","type":"Stadt"},"district":{"key":"05766","name":"Lippe","type":"Kreis"},"federalState":{"key":"05","name":"Nordrhein-Westfalen"}},{"name":"Felix-Fechenbach-Str.","postalCode":"32756","locality":"Detmold","municipality":{"key":"05766020","name":"Detmold, Stadt","type":"Stadt"},"district":{"key":"05766","name":"Lippe","type":"Kreis"},"federalState":{"key":"05","name":"Nordrhein-Westfalen"}},{"name":"Felsenweg","postalCode":"32760","locality":"Detmold","municipality":{"key":"05766020","name":"Detmold, Stadt","type":"Stadt"},"district":{"key":"05766","name":"Lippe","type":"Kreis"},"federalState":{"key":"05","name":"Nordrhein-Westfalen"}},{"name":"Feriendorfweg","postalCode":"32760","locality":"Detmold","municipality":{"key":"05766020","name":"Detmold, Stadt","type":"Stadt"},"district":{"key":"05766","name":"Lippe","type":"Kreis"},"federalState":{"key":"05","name":"Nordrhein-Westfalen"}},{"name":"Fichtenweg","postalCode":"32760","locality":"Detmold","municipality":{"key":"05766020","name":"Detmold, Stadt","type":"Stadt"},"district":{"key":"05766","name":"Lippe","type":"Kreis"},"federalState":{"key":"05","name":"Nordrhein-Westfalen"}},{"name":"Finkenweg","postalCode":"32760","locality":"Detmold","municipality":{"key":"05766020","name":"Detmold, Stadt","type":"Stadt"},"district":{"key":"05766","name":"Lippe","type":"Kreis"},"federalState":{"key":"05","name":"Nordrhein-Westfalen"}},{"name":"Fissenknicker Weg","postalCode":"32760","locality":"Detmold","municipality":{"key":"05766020","name":"Detmold, Stadt","type":"Stadt"},"district":{"key":"05766","name":"Lippe","type":"Kreis"},"federalState":{"key":"05","name":"Nordrhein-Westfalen"}},{"name":"Fitzweg","postalCode":"32758","locality":"Detmold","municipality":{"key":"05766020","name":"Detmold, Stadt","type":"Stadt"},"district":{"key":"05766","name":"Lippe","type":"Kreis"},"federalState":{"key":"05","name":"Nordrhein-Westfalen"}},{"name":"Flensburger Str.","postalCode":"32760","locality":"Detmold","municipality":{"key":"05766020","name":"Detmold, Stadt","type":"Stadt"},"district":{"key":"05766","name":"Lippe","type":"Kreis"},"federalState":{"key":"05","name":"Nordrhein-Westfalen"}},{"name":"Fliederweg","postalCode":"32756","locality":"Detmold","municipality":{"key":"05766020","name":"Detmold, Stadt","type":"Stadt"},"district":{"key":"05766","name":"Lippe","type":"Kreis"},"federalState":{"key":"05","name":"Nordrhein-Westfalen"}},{"name":"Flurstr.","postalCode":"32758","locality":"Detmold","municipality":{"key":"05766020","name":"Detmold, Stadt","type":"Stadt"},"district":{"key":"05766","name":"Lippe","type":"Kreis"},"federalState":{"key":"05","name":"Nordrhein-Westfalen"}},{"name":"Fluthstr.","postalCode":"32758","locality":"Detmold","municipality":{"key":"05766020","name":"Detmold, Stadt","type":"Stadt"},"district":{"key":"05766","name":"Lippe","type":"Kreis"},"federalState":{"key":"05","name":"Nordrhein-Westfalen"}},{"name":"Fontaneweg","postalCode":"32758","locality":"Detmold","municipality":{"key":"05766020","name":"Detmold, Stadt","type":"Stadt"},"district":{"key":"05766","name":"Lippe","type":"Kreis"},"federalState":{"key":"05","name":"Nordrhein-Westfalen"}},{"name":"Forellenweg","postalCode":"32760","locality":"Detmold","municipality":{"key":"05766020","name":"Detmold, Stadt","type":"Stadt"},"district":{"key":"05766","name":"Lippe","type":"Kreis"},"federalState":{"key":"05","name":"Nordrhein-Westfalen"}},{"name":"Forstweg","postalCode":"32760","locality":"Detmold","municipality":{"key":"05766020","name":"Detmold, Stadt","type":"Stadt"},"district":{"key":"05766","name":"Lippe","type":"Kreis"},"federalState":{"key":"05","name":"Nordrhein-Westfalen"}},{"name":"Forum Wissenschaft | Bibliothek | Musik","postalCode":"32756","locality":"Detmold","municipality":{"key":"05766020","name":"Detmold, Stadt","type":"Stadt"},"district":{"key":"05766","name":"Lippe","type":"Kreis"},"federalState":{"key":"05","name":"Nordrhein-Westfalen"}},{"name":"Frankenstr.","postalCode":"32760","locality":"Detmold","municipality":{"key":"05766020","name":"Detmold, Stadt","type":"Stadt"},"district":{"key":"05766","name":"Lippe","type":"Kreis"},"federalState":{"key":"05","name":"Nordrhein-Westfalen"}},{"name":"Freibadstr.","postalCode":"32758","locality":"Detmold","municipality":{"key":"05766020","name":"Detmold, Stadt","type":"Stadt"},"district":{"key":"05766","name":"Lippe","type":"Kreis"},"federalState":{"key":"05","name":"Nordrhein-Westfalen"}},{"name":"Freiligrathstr.","postalCode":"32756","locality":"Detmold","municipality":{"key":"05766020","name":"Detmold, Stadt","type":"Stadt"},"district":{"key":"05766","name":"Lippe","type":"Kreis"},"federalState":{"key":"05","name":"Nordrhein-Westfalen"}},{"name":"Freyastr.","postalCode":"32756","locality":"Detmold","municipality":{"key":"05766020","name":"Detmold, Stadt","type":"Stadt"},"district":{"key":"05766","name":"Lippe","type":"Kreis"},"federalState":{"key":"05","name":"Nordrhein-Westfalen"}},{"name":"Frieda-Nadig-Weg","postalCode":"32756","locality":"Detmold","municipality":{"key":"05766020","name":"Detmold, Stadt","type":"Stadt"},"district":{"key":"05766","name":"Lippe","type":"Kreis"},"federalState":{"key":"05","name":"Nordrhein-Westfalen"}},{"name":"Friedenstal","postalCode":"32756","locality":"Detmold","municipality":{"key":"05766020","name":"Detmold, Stadt","type":"Stadt"},"district":{"key":"05766","name":"Lippe","type":"Kreis"},"federalState":{"key":"05","name":"Nordrhein-Westfalen"}},{"name":"Friedrich-Ebert-Str.","postalCode":"32756","locality":"Detmold","municipality":{"key":"05766020","name":"Detmold, Stadt","type":"Stadt"},"district":{"key":"05766","name":"Lippe","type":"Kreis"},"federalState":{"key":"05","name":"Nordrhein-Westfalen"}},{"name":"Friedrich-Ebert-Str.","postalCode":"32760","locality":"Detmold","municipality":{"key":"05766020","name":"Detmold, Stadt","type":"Stadt"},"district":{"key":"05766","name":"Lippe","type":"Kreis"},"federalState":{"key":"05","name":"Nordrhein-Westfalen"}},{"name":"Friedrich-Pieper-Str.","postalCode":"32760","locality":"Detmold","municipality":{"key":"05766020","name":"Detmold, Stadt","type":"Stadt"},"district":{"key":"05766","name":"Lippe","type":"Kreis"},"federalState":{"key":"05","name":"Nordrhein-Westfalen"}},{"name":"Friedrich-Richter-Str.","postalCode":"32756","locality":"Detmold","municipality":{"key":"05766020","name":"Detmold, Stadt","type":"Stadt"},"district":{"key":"05766","name":"Lippe","type":"Kreis"},"federalState":{"key":"05","name":"Nordrhein-Westfalen"}},{"name":"Friedrichshöhe","postalCode":"32760","locality":"Detmold","municipality":{"key":"05766020","name":"Detmold, Stadt","type":"Stadt"},"district":{"key":"05766","name":"Lippe","type":"Kreis"},"federalState":{"key":"05","name":"Nordrhein-Westfalen"}},{"name":"Friedrichstr.","postalCode":"32756","locality":"Detmold","municipality":{"key":"05766020","name":"Detmold, Stadt","type":"Stadt"},"district":{"key":"05766","name":"Lippe","type":"Kreis"},"federalState":{"key":"05","name":"Nordrhein-Westfalen"}},{"name":"Friesenstr.","postalCode":"32760","locality":"Detmold","municipality":{"key":"05766020","name":"Detmold, Stadt","type":"Stadt"},"district":{"key":"05766","name":"Lippe","type":"Kreis"},"federalState":{"key":"05","name":"Nordrhein-Westfalen"}},{"name":"Fritz-Reuter-Str.","postalCode":"32756","locality":"Detmold","municipality":{"key":"05766020","name":"Detmold, Stadt","type":"Stadt"},"district":{"key":"05766","name":"Lippe","type":"Kreis"},"federalState":{"key":"05","name":"Nordrhein-Westfalen"}},{"name":"Fromhauser Str.","postalCode":"32760","locality":"Detmold","municipality":{"key":"05766020","name":"Detmold, Stadt","type":"Stadt"},"district":{"key":"05766","name":"Lippe","type":"Kreis"},"federalState":{"key":"05","name":"Nordrhein-Westfalen"}},{"name":"FSV Tennisanlage","postalCode":"32758","locality":"Detmold","municipality":{"key":"05766020","name":"Detmold, Stadt","type":"Stadt"},"district":{"key":"05766","name":"Lippe","type":"Kreis"},"federalState":{"key":"05","name":"Nordrhein-Westfalen"}},{"name":"Fuchsfichtenweg","postalCode":"32760","locality":"Detmold","municipality":{"key":"05766020","name":"Detmold, Stadt","type":"Stadt"},"district":{"key":"05766","name":"Lippe","type":"Kreis"},"federalState":{"key":"05","name":"Nordrhein-Westfalen"}},{"name":"Fuchsweg","postalCode":"32758","locality":"Detmold","municipality":{"key":"05766020","name":"Detmold, Stadt","type":"Stadt"},"district":{"key":"05766","name":"Lippe","type":"Kreis"},"federalState":{"key":"05","name":"Nordrhein-Westfalen"}},{"name":"Fürstengartenstr.","postalCode":"32756","locality":"Detmold","municipality":{"key":"05766020","name":"Detmold, Stadt","type":"Stadt"},"district":{"key":"05766","name":"Lippe","type":"Kreis"},"federalState":{"key":"05","name":"Nordrhein-Westfalen"}},{"name":"Fürst-Leopold-Str.","postalCode":"32760","locality":"Detmold","municipality":{"key":"05766020","name":"Detmold, Stadt","type":"Stadt"},"district":{"key":"05766","name":"Lippe","type":"Kreis"},"federalState":{"key":"05","name":"Nordrhein-Westfalen"}},{"name":"Gabelsbergerstr.","postalCode":"32758","locality":"Detmold","municipality":{"key":"05766020","name":"Detmold, Stadt","type":"Stadt"},"district":{"key":"05766","name":"Lippe","type":"Kreis"},"federalState":{"key":"05","name":"Nordrhein-Westfalen"}},{"name":"Gartenstr.","postalCode":"32756","locality":"Detmold","municipality":{"key":"05766020","name":"Detmold, Stadt","type":"Stadt"},"district":{"key":"05766","name":"Lippe","type":"Kreis"},"federalState":{"key":"05","name":"Nordrhein-Westfalen"}},{"name":"Gebrüder-Grimm-Weg","postalCode":"32758","locality":"Detmold","municipality":{"key":"05766020","name":"Detmold, Stadt","type":"Stadt"},"district":{"key":"05766","name":"Lippe","type":"Kreis"},"federalState":{"key":"05","name":"Nordrhein-Westfalen"}},{"name":"Gebrüder-Meyer-Str.","postalCode":"32758","locality":"Detmold","municipality":{"key":"05766020","name":"Detmold, Stadt","type":"Stadt"},"district":{"key":"05766","name":"Lippe","type":"Kreis"},"federalState":{"key":"05","name":"Nordrhein-Westfalen"}},{"name":"Gehrenkampstr.","postalCode":"32760","locality":"Detmold","municipality":{"key":"05766020","name":"Detmold, Stadt","type":"Stadt"},"district":{"key":"05766","name":"Lippe","type":"Kreis"},"federalState":{"key":"05","name":"Nordrhein-Westfalen"}},{"name":"Geierweg","postalCode":"32760","locality":"Detmold","municipality":{"key":"05766020","name":"Detmold, Stadt","type":"Stadt"},"district":{"key":"05766","name":"Lippe","type":"Kreis"},"federalState":{"key":"05","name":"Nordrhein-Westfalen"}},{"name":"Gellernweg","postalCode":"32758","locality":"Detmold","municipality":{"key":"05766020","name":"Detmold, Stadt","type":"Stadt"},"district":{"key":"05766","name":"Lippe","type":"Kreis"},"federalState":{"key":"05","name":"Nordrhein-Westfalen"}},{"name":"Georgstr.","postalCode":"32756","locality":"Detmold","municipality":{"key":"05766020","name":"Detmold, Stadt","type":"Stadt"},"district":{"key":"05766","name":"Lippe","type":"Kreis"},"federalState":{"key":"05","name":"Nordrhein-Westfalen"}},{"name":"Georg-Weerth-Str.","postalCode":"32756","locality":"Detmold","municipality":{"key":"05766020","name":"Detmold, Stadt","type":"Stadt"},"district":{"key":"05766","name":"Lippe","type":"Kreis"},"federalState":{"key":"05","name":"Nordrhein-Westfalen"}},{"name":"Gerhart-Hauptmann-Str.","postalCode":"32758","locality":"Detmold","municipality":{"key":"05766020","name":"Detmold, Stadt","type":"Stadt"},"district":{"key":"05766","name":"Lippe","type":"Kreis"},"federalState":{"key":"05","name":"Nordrhein-Westfalen"}},{"name":"Gerichtsstr.","postalCode":"32756","locality":"Detmold","municipality":{"key":"05766020","name":"Detmold, Stadt","type":"Stadt"},"district":{"key":"05766","name":"Lippe","type":"Kreis"},"federalState":{"key":"05","name":"Nordrhein-Westfalen"}},{"name":"Germanenweg","postalCode":"32760","locality":"Detmold","municipality":{"key":"05766020","name":"Detmold, Stadt","type":"Stadt"},"district":{"key":"05766","name":"Lippe","type":"Kreis"},"federalState":{"key":"05","name":"Nordrhein-Westfalen"}},{"name":"Gildestr.","postalCode":"32760","locality":"Detmold","municipality":{"key":"05766020","name":"Detmold, Stadt","type":"Stadt"},"district":{"key":"05766","name":"Lippe","type":"Kreis"},"federalState":{"key":"05","name":"Nordrhein-Westfalen"}},{"name":"Ginsterweg","postalCode":"32758","locality":"Detmold","municipality":{"key":"05766020","name":"Detmold, Stadt","type":"Stadt"},"district":{"key":"05766","name":"Lippe","type":"Kreis"},"federalState":{"key":"05","name":"Nordrhein-Westfalen"}},{"name":"Glashüttenweg","postalCode":"32760","locality":"Detmold","municipality":{"key":"05766020","name":"Detmold, Stadt","type":"Stadt"},"district":{"key":"05766","name":"Lippe","type":"Kreis"},"federalState":{"key":"05","name":"Nordrhein-Westfalen"}},{"name":"Glücksburger Str.","postalCode":"32760","locality":"Detmold","municipality":{"key":"05766020","name":"Detmold, Stadt","type":"Stadt"},"district":{"key":"05766","name":"Lippe","type":"Kreis"},"federalState":{"key":"05","name":"Nordrhein-Westfalen"}},{"name":"Goethestr.","postalCode":"32756","locality":"Detmold","municipality":{"key":"05766020","name":"Detmold, Stadt","type":"Stadt"},"district":{"key":"05766","name":"Lippe","type":"Kreis"},"federalState":{"key":"05","name":"Nordrhein-Westfalen"}},{"name":"Goldregenweg","postalCode":"32760","locality":"Detmold","municipality":{"key":"05766020","name":"Detmold, Stadt","type":"Stadt"},"district":{"key":"05766","name":"Lippe","type":"Kreis"},"federalState":{"key":"05","name":"Nordrhein-Westfalen"}},{"name":"Gottfried-Keller-Weg","postalCode":"32758","locality":"Detmold","municipality":{"key":"05766020","name":"Detmold, Stadt","type":"Stadt"},"district":{"key":"05766","name":"Lippe","type":"Kreis"},"federalState":{"key":"05","name":"Nordrhein-Westfalen"}},{"name":"Grabbestr.","postalCode":"32756","locality":"Detmold","municipality":{"key":"05766020","name":"Detmold, Stadt","type":"Stadt"},"district":{"key":"05766","name":"Lippe","type":"Kreis"},"federalState":{"key":"05","name":"Nordrhein-Westfalen"}},{"name":"Grabenstr.","postalCode":"32756","locality":"Detmold","municipality":{"key":"05766020","name":"Detmold, Stadt","type":"Stadt"},"district":{"key":"05766","name":"Lippe","type":"Kreis"},"federalState":{"key":"05","name":"Nordrhein-Westfalen"}},{"name":"Grenzstr.","postalCode":"32758","locality":"Detmold","municipality":{"key":"05766020","name":"Detmold, Stadt","type":"Stadt"},"district":{"key":"05766","name":"Lippe","type":"Kreis"},"federalState":{"key":"05","name":"Nordrhein-Westfalen"}},{"name":"Gretchenstr.","postalCode":"32756","locality":"Detmold","municipality":{"key":"05766020","name":"Detmold, Stadt","type":"Stadt"},"district":{"key":"05766","name":"Lippe","type":"Kreis"},"federalState":{"key":"05","name":"Nordrhein-Westfalen"}},{"name":"Griemensiek","postalCode":"32756","locality":"Detmold","municipality":{"key":"05766020","name":"Detmold, Stadt","type":"Stadt"},"district":{"key":"05766","name":"Lippe","type":"Kreis"},"federalState":{"key":"05","name":"Nordrhein-Westfalen"}},{"name":"Großer Kamp","postalCode":"32760","locality":"Detmold","municipality":{"key":"05766020","name":"Detmold, Stadt","type":"Stadt"},"district":{"key":"05766","name":"Lippe","type":"Kreis"},"federalState":{"key":"05","name":"Nordrhein-Westfalen"}},{"name":"Große Wiese","postalCode":"32760","locality":"Detmold","municipality":{"key":"05766020","name":"Detmold, Stadt","type":"Stadt"},"district":{"key":"05766","name":"Lippe","type":"Kreis"},"federalState":{"key":"05","name":"Nordrhein-Westfalen"}},{"name":"Grotenburg","postalCode":"32760","locality":"Detmold","municipality":{"key":"05766020","name":"Detmold, Stadt","type":"Stadt"},"district":{"key":"05766","name":"Lippe","type":"Kreis"},"federalState":{"key":"05","name":"Nordrhein-Westfalen"}},{"name":"Grundstr.","postalCode":"32760","locality":"Detmold","municipality":{"key":"05766020","name":"Detmold, Stadt","type":"Stadt"},"district":{"key":"05766","name":"Lippe","type":"Kreis"},"federalState":{"key":"05","name":"Nordrhein-Westfalen"}},{"name":"Grünental","postalCode":"32760","locality":"Detmold","municipality":{"key":"05766020","name":"Detmold, Stadt","type":"Stadt"},"district":{"key":"05766","name":"Lippe","type":"Kreis"},"federalState":{"key":"05","name":"Nordrhein-Westfalen"}},{"name":"Grüner Weg","postalCode":"32760","locality":"Detmold","municipality":{"key":"05766020","name":"Detmold, Stadt","type":"Stadt"},"district":{"key":"05766","name":"Lippe","type":"Kreis"},"federalState":{"key":"05","name":"Nordrhein-Westfalen"}},{"name":"Grünstr.","postalCode":"32756","locality":"Detmold","municipality":{"key":"05766020","name":"Detmold, Stadt","type":"Stadt"},"district":{"key":"05766","name":"Lippe","type":"Kreis"},"federalState":{"key":"05","name":"Nordrhein-Westfalen"}},{"name":"Grupenbergstr.","postalCode":"32758","locality":"Detmold","municipality":{"key":"05766020","name":"Detmold, Stadt","type":"Stadt"},"district":{"key":"05766","name":"Lippe","type":"Kreis"},"federalState":{"key":"05","name":"Nordrhein-Westfalen"}},{"name":"Gudrunstr.","postalCode":"32756","locality":"Detmold","municipality":{"key":"05766020","name":"Detmold, Stadt","type":"Stadt"},"district":{"key":"05766","name":"Lippe","type":"Kreis"},"federalState":{"key":"05","name":"Nordrhein-Westfalen"}},{"name":"Günter-Groenhoff-Str.","postalCode":"32756","locality":"Detmold","municipality":{"key":"05766020","name":"Detmold, Stadt","type":"Stadt"},"district":{"key":"05766","name":"Lippe","type":"Kreis"},"federalState":{"key":"05","name":"Nordrhein-Westfalen"}},{"name":"Gustav-Friedrich-Weg","postalCode":"32756","locality":"Detmold","municipality":{"key":"05766020","name":"Detmold, Stadt","type":"Stadt"},"district":{"key":"05766","name":"Lippe","type":"Kreis"},"federalState":{"key":"05","name":"Nordrhein-Westfalen"}},{"name":"Gustav-Mesch-Weg","postalCode":"32760","locality":"Detmold","municipality":{"key":"05766020","name":"Detmold, Stadt","type":"Stadt"},"district":{"key":"05766","name":"Lippe","type":"Kreis"},"federalState":{"key":"05","name":"Nordrhein-Westfalen"}},{"name":"Gutenbergstr.","postalCode":"32756","locality":"Detmold","municipality":{"key":"05766020","name":"Detmold, Stadt","type":"Stadt"},"district":{"key":"05766","name":"Lippe","type":"Kreis"},"federalState":{"key":"05","name":"Nordrhein-Westfalen"}},{"name":"Gutsweg","postalCode":"32760","locality":"Detmold","municipality":{"key":"05766020","name":"Detmold, Stadt","type":"Stadt"},"district":{"key":"05766","name":"Lippe","type":"Kreis"},"federalState":{"key":"05","name":"Nordrhein-Westfalen"}},{"name":"Habichtstr.","postalCode":"32758","locality":"Detmold","municipality":{"key":"05766020","name":"Detmold, Stadt","type":"Stadt"},"district":{"key":"05766","name":"Lippe","type":"Kreis"},"federalState":{"key":"05","name":"Nordrhein-Westfalen"}},{"name":"Hachholzweg","postalCode":"32758","locality":"Detmold","municipality":{"key":"05766020","name":"Detmold, Stadt","type":"Stadt"},"district":{"key":"05766","name":"Lippe","type":"Kreis"},"federalState":{"key":"05","name":"Nordrhein-Westfalen"}},{"name":"Haferkamp","postalCode":"32758","locality":"Detmold","municipality":{"key":"05766020","name":"Detmold, Stadt","type":"Stadt"},"district":{"key":"05766","name":"Lippe","type":"Kreis"},"federalState":{"key":"05","name":"Nordrhein-Westfalen"}},{"name":"Hagenstr.","postalCode":"32758","locality":"Detmold","municipality":{"key":"05766020","name":"Detmold, Stadt","type":"Stadt"},"district":{"key":"05766","name":"Lippe","type":"Kreis"},"federalState":{"key":"05","name":"Nordrhein-Westfalen"}},{"name":"Hahnbergstr.","postalCode":"32760","locality":"Detmold","municipality":{"key":"05766020","name":"Detmold, Stadt","type":"Stadt"},"district":{"key":"05766","name":"Lippe","type":"Kreis"},"federalState":{"key":"05","name":"Nordrhein-Westfalen"}},{"name":"Hahnbruchweg","postalCode":"32760","locality":"Detmold","municipality":{"key":"05766020","name":"Detmold, Stadt","type":"Stadt"},"district":{"key":"05766","name":"Lippe","type":"Kreis"},"federalState":{"key":"05","name":"Nordrhein-Westfalen"}},{"name":"Hainbuchenweg","postalCode":"32758","locality":"Detmold","municipality":{"key":"05766020","name":"Detmold, Stadt","type":"Stadt"},"district":{"key":"05766","name":"Lippe","type":"Kreis"},"federalState":{"key":"05","name":"Nordrhein-Westfalen"}},{"name":"Hambruchtwete","postalCode":"32756","locality":"Detmold","municipality":{"key":"05766020","name":"Detmold, Stadt","type":"Stadt"},"district":{"key":"05766","name":"Lippe","type":"Kreis"},"federalState":{"key":"05","name":"Nordrhein-Westfalen"}},{"name":"Hamburger Str.","postalCode":"32760","locality":"Detmold","municipality":{"key":"05766020","name":"Detmold, Stadt","type":"Stadt"},"district":{"key":"05766","name":"Lippe","type":"Kreis"},"federalState":{"key":"05","name":"Nordrhein-Westfalen"}},{"name":"Hamergrund","postalCode":"32758","locality":"Detmold","municipality":{"key":"05766020","name":"Detmold, Stadt","type":"Stadt"},"district":{"key":"05766","name":"Lippe","type":"Kreis"},"federalState":{"key":"05","name":"Nordrhein-Westfalen"}},{"name":"Händelstr.","postalCode":"32756","locality":"Detmold","municipality":{"key":"05766020","name":"Detmold, Stadt","type":"Stadt"},"district":{"key":"05766","name":"Lippe","type":"Kreis"},"federalState":{"key":"05","name":"Nordrhein-Westfalen"}},{"name":"Hangsteinstr.","postalCode":"32760","locality":"Detmold","municipality":{"key":"05766020","name":"Detmold, Stadt","type":"Stadt"},"district":{"key":"05766","name":"Lippe","type":"Kreis"},"federalState":{"key":"05","name":"Nordrhein-Westfalen"}},{"name":"Hannoversche Str.","postalCode":"32756","locality":"Detmold","municipality":{"key":"05766020","name":"Detmold, Stadt","type":"Stadt"},"district":{"key":"05766","name":"Lippe","type":"Kreis"},"federalState":{"key":"05","name":"Nordrhein-Westfalen"}},{"name":"Hansaweg","postalCode":"32758","locality":"Detmold","municipality":{"key":"05766020","name":"Detmold, Stadt","type":"Stadt"},"district":{"key":"05766","name":"Lippe","type":"Kreis"},"federalState":{"key":"05","name":"Nordrhein-Westfalen"}},{"name":"Hans-Hinrichs-Str.","postalCode":"32756","locality":"Detmold","municipality":{"key":"05766020","name":"Detmold, Stadt","type":"Stadt"},"district":{"key":"05766","name":"Lippe","type":"Kreis"},"federalState":{"key":"05","name":"Nordrhein-Westfalen"}},{"name":"Hardenbergstr.","postalCode":"32758","locality":"Detmold","municipality":{"key":"05766020","name":"Detmold, Stadt","type":"Stadt"},"district":{"key":"05766","name":"Lippe","type":"Kreis"},"federalState":{"key":"05","name":"Nordrhein-Westfalen"}},{"name":"Harte Kuhle","postalCode":"32760","locality":"Detmold","municipality":{"key":"05766020","name":"Detmold, Stadt","type":"Stadt"},"district":{"key":"05766","name":"Lippe","type":"Kreis"},"federalState":{"key":"05","name":"Nordrhein-Westfalen"}},{"name":"Haselnußweg","postalCode":"32760","locality":"Detmold","municipality":{"key":"05766020","name":"Detmold, Stadt","type":"Stadt"},"district":{"key":"05766","name":"Lippe","type":"Kreis"},"federalState":{"key":"05","name":"Nordrhein-Westfalen"}},{"name":"Hasenpfad","postalCode":"32758","locality":"Detmold","municipality":{"key":"05766020","name":"Detmold, Stadt","type":"Stadt"},"district":{"key":"05766","name":"Lippe","type":"Kreis"},"federalState":{"key":"05","name":"Nordrhein-Westfalen"}},{"name":"Hasselbachtal","postalCode":"32758","locality":"Detmold","municipality":{"key":"05766020","name":"Detmold, Stadt","type":"Stadt"},"district":{"key":"05766","name":"Lippe","type":"Kreis"},"federalState":{"key":"05","name":"Nordrhein-Westfalen"}},{"name":"Hasselter Platz","postalCode":"32756","locality":"Detmold","municipality":{"key":"05766020","name":"Detmold, Stadt","type":"Stadt"},"district":{"key":"05766","name":"Lippe","type":"Kreis"},"federalState":{"key":"05","name":"Nordrhein-Westfalen"}},{"name":"Haustenbecker Weg","postalCode":"32758","locality":"Detmold","municipality":{"key":"05766020","name":"Detmold, Stadt","type":"Stadt"},"district":{"key":"05766","name":"Lippe","type":"Kreis"},"federalState":{"key":"05","name":"Nordrhein-Westfalen"}},{"name":"Hebbelstr.","postalCode":"32758","locality":"Detmold","municipality":{"key":"05766020","name":"Detmold, Stadt","type":"Stadt"},"district":{"key":"05766","name":"Lippe","type":"Kreis"},"federalState":{"key":"05","name":"Nordrhein-Westfalen"}},{"name":"Heckenrosenweg","postalCode":"32758","locality":"Detmold","municipality":{"key":"05766020","name":"Detmold, Stadt","type":"Stadt"},"district":{"key":"05766","name":"Lippe","type":"Kreis"},"federalState":{"key":"05","name":"Nordrhein-Westfalen"}},{"name":"Heckenweg","postalCode":"32760","locality":"Detmold","municipality":{"key":"05766020","name":"Detmold, Stadt","type":"Stadt"},"district":{"key":"05766","name":"Lippe","type":"Kreis"},"federalState":{"key":"05","name":"Nordrhein-Westfalen"}},{"name":"Hedwig-Block-Str.","postalCode":"32756","locality":"Detmold","municipality":{"key":"05766020","name":"Detmold, Stadt","type":"Stadt"},"district":{"key":"05766","name":"Lippe","type":"Kreis"},"federalState":{"key":"05","name":"Nordrhein-Westfalen"}},{"name":"Hedwigstr.","postalCode":"32756","locality":"Detmold","municipality":{"key":"05766020","name":"Detmold, Stadt","type":"Stadt"},"district":{"key":"05766","name":"Lippe","type":"Kreis"},"federalState":{"key":"05","name":"Nordrhein-Westfalen"}},{"name":"Heidebachstr.","postalCode":"32760","locality":"Detmold","municipality":{"key":"05766020","name":"Detmold, Stadt","type":"Stadt"},"district":{"key":"05766","name":"Lippe","type":"Kreis"},"federalState":{"key":"05","name":"Nordrhein-Westfalen"}},{"name":"Heidener Str.","postalCode":"32758","locality":"Detmold","municipality":{"key":"05766020","name":"Detmold, Stadt","type":"Stadt"},"district":{"key":"05766","name":"Lippe","type":"Kreis"},"federalState":{"key":"05","name":"Nordrhein-Westfalen"}},{"name":"Heidenoldendorfer Str.","postalCode":"32758","locality":"Detmold","municipality":{"key":"05766020","name":"Detmold, Stadt","type":"Stadt"},"district":{"key":"05766","name":"Lippe","type":"Kreis"},"federalState":{"key":"05","name":"Nordrhein-Westfalen"}},{"name":"Heidensche Trift","postalCode":"32760","locality":"Detmold","municipality":{"key":"05766020","name":"Detmold, Stadt","type":"Stadt"},"district":{"key":"05766","name":"Lippe","type":"Kreis"},"federalState":{"key":"05","name":"Nordrhein-Westfalen"}},{"name":"Heidentalstr.","postalCode":"32760","locality":"Detmold","municipality":{"key":"05766020","name":"Detmold, Stadt","type":"Stadt"},"district":{"key":"05766","name":"Lippe","type":"Kreis"},"federalState":{"key":"05","name":"Nordrhein-Westfalen"}},{"name":"Heidestr.","postalCode":"32756","locality":"Detmold","municipality":{"key":"05766020","name":"Detmold, Stadt","type":"Stadt"},"district":{"key":"05766","name":"Lippe","type":"Kreis"},"federalState":{"key":"05","name":"Nordrhein-Westfalen"}},{"name":"Heidlandstr.","postalCode":"32756","locality":"Detmold","municipality":{"key":"05766020","name":"Detmold, Stadt","type":"Stadt"},"district":{"key":"05766","name":"Lippe","type":"Kreis"},"federalState":{"key":"05","name":"Nordrhein-Westfalen"}},{"name":"Heimstättenstr.","postalCode":"32758","locality":"Detmold","municipality":{"key":"05766020","name":"Detmold, Stadt","type":"Stadt"},"district":{"key":"05766","name":"Lippe","type":"Kreis"},"federalState":{"key":"05","name":"Nordrhein-Westfalen"}},{"name":"Heinrich-Drake-Str.","postalCode":"32756","locality":"Detmold","municipality":{"key":"05766020","name":"Detmold, Stadt","type":"Stadt"},"district":{"key":"05766","name":"Lippe","type":"Kreis"},"federalState":{"key":"05","name":"Nordrhein-Westfalen"}},{"name":"Heinrich-Flake-Weg","postalCode":"32756","locality":"Detmold","municipality":{"key":"05766020","name":"Detmold, Stadt","type":"Stadt"},"district":{"key":"05766","name":"Lippe","type":"Kreis"},"federalState":{"key":"05","name":"Nordrhein-Westfalen"}},{"name":"Heinrich-Röhr-Str.","postalCode":"32760","locality":"Detmold","municipality":{"key":"05766020","name":"Detmold, Stadt","type":"Stadt"},"district":{"key":"05766","name":"Lippe","type":"Kreis"},"federalState":{"key":"05","name":"Nordrhein-Westfalen"}},{"name":"Heinrich-Schacht-Weg","postalCode":"32756","locality":"Detmold","municipality":{"key":"05766020","name":"Detmold, Stadt","type":"Stadt"},"district":{"key":"05766","name":"Lippe","type":"Kreis"},"federalState":{"key":"05","name":"Nordrhein-Westfalen"}},{"name":"Heldmanstr.","postalCode":"32756","locality":"Detmold","municipality":{"key":"05766020","name":"Detmold, Stadt","type":"Stadt"},"district":{"key":"05766","name":"Lippe","type":"Kreis"},"federalState":{"key":"05","name":"Nordrhein-Westfalen"}},{"name":"Helgaweg","postalCode":"32756","locality":"Detmold","municipality":{"key":"05766020","name":"Detmold, Stadt","type":"Stadt"},"district":{"key":"05766","name":"Lippe","type":"Kreis"},"federalState":{"key":"05","name":"Nordrhein-Westfalen"}},{"name":"Herberhauser Str.","postalCode":"32756","locality":"Detmold","municipality":{"key":"05766020","name":"Detmold, Stadt","type":"Stadt"},"district":{"key":"05766","name":"Lippe","type":"Kreis"},"federalState":{"key":"05","name":"Nordrhein-Westfalen"}},{"name":"Herderstr.","postalCode":"32756","locality":"Detmold","municipality":{"key":"05766020","name":"Detmold, Stadt","type":"Stadt"},"district":{"key":"05766","name":"Lippe","type":"Kreis"},"federalState":{"key":"05","name":"Nordrhein-Westfalen"}},{"name":"Hermann-Funke-Str.","postalCode":"32758","locality":"Detmold","municipality":{"key":"05766020","name":"Detmold, Stadt","type":"Stadt"},"district":{"key":"05766","name":"Lippe","type":"Kreis"},"federalState":{"key":"05","name":"Nordrhein-Westfalen"}},{"name":"Hermann-Gmeiner-Str.","postalCode":"32758","locality":"Detmold","municipality":{"key":"05766020","name":"Detmold, Stadt","type":"Stadt"},"district":{"key":"05766","name":"Lippe","type":"Kreis"},"federalState":{"key":"05","name":"Nordrhein-Westfalen"}},{"name":"Hermann-Niebuhr-Str.","postalCode":"32758","locality":"Detmold","municipality":{"key":"05766020","name":"Detmold, Stadt","type":"Stadt"},"district":{"key":"05766","name":"Lippe","type":"Kreis"},"federalState":{"key":"05","name":"Nordrhein-Westfalen"}},{"name":"Hermannstr.","postalCode":"32756","locality":"Detmold","municipality":{"key":"05766020","name":"Detmold, Stadt","type":"Stadt"},"district":{"key":"05766","name":"Lippe","type":"Kreis"},"federalState":{"key":"05","name":"Nordrhein-Westfalen"}},{"name":"Hermannsweg","postalCode":"32756","locality":"Detmold","municipality":{"key":"05766020","name":"Detmold, Stadt","type":"Stadt"},"district":{"key":"05766","name":"Lippe","type":"Kreis"},"federalState":{"key":"05","name":"Nordrhein-Westfalen"}},{"name":"Hermannsweg","postalCode":"32760","locality":"Detmold","municipality":{"key":"05766020","name":"Detmold, Stadt","type":"Stadt"},"district":{"key":"05766","name":"Lippe","type":"Kreis"},"federalState":{"key":"05","name":"Nordrhein-Westfalen"}},{"name":"Herzogstr.","postalCode":"32760","locality":"Detmold","municipality":{"key":"05766020","name":"Detmold, Stadt","type":"Stadt"},"district":{"key":"05766","name":"Lippe","type":"Kreis"},"federalState":{"key":"05","name":"Nordrhein-Westfalen"}},{"name":"Ida-Gerhardi-Weg","postalCode":"32756","locality":"Detmold","municipality":{"key":"05766020","name":"Detmold, Stadt","type":"Stadt"},"district":{"key":"05766","name":"Lippe","type":"Kreis"},"federalState":{"key":"05","name":"Nordrhein-Westfalen"}},{"name":"Idaweg","postalCode":"32758","locality":"Detmold","municipality":{"key":"05766020","name":"Detmold, Stadt","type":"Stadt"},"district":{"key":"05766","name":"Lippe","type":"Kreis"},"federalState":{"key":"05","name":"Nordrhein-Westfalen"}},{"name":"Im Breiten Felde","postalCode":"32756","locality":"Detmold","municipality":{"key":"05766020","name":"Detmold, Stadt","type":"Stadt"},"district":{"key":"05766","name":"Lippe","type":"Kreis"},"federalState":{"key":"05","name":"Nordrhein-Westfalen"}},{"name":"Im Dorfe","postalCode":"32758","locality":"Detmold","municipality":{"key":"05766020","name":"Detmold, Stadt","type":"Stadt"},"district":{"key":"05766","name":"Lippe","type":"Kreis"},"federalState":{"key":"05","name":"Nordrhein-Westfalen"}},{"name":"Im Felde","postalCode":"32760","locality":"Detmold","municipality":{"key":"05766020","name":"Detmold, Stadt","type":"Stadt"},"district":{"key":"05766","name":"Lippe","type":"Kreis"},"federalState":{"key":"05","name":"Nordrhein-Westfalen"}},{"name":"Im Fliegerhorst","postalCode":"32756","locality":"Detmold","municipality":{"key":"05766020","name":"Detmold, Stadt","type":"Stadt"},"district":{"key":"05766","name":"Lippe","type":"Kreis"},"federalState":{"key":"05","name":"Nordrhein-Westfalen"}},{"name":"Im Grund","postalCode":"32758","locality":"Detmold","municipality":{"key":"05766020","name":"Detmold, Stadt","type":"Stadt"},"district":{"key":"05766","name":"Lippe","type":"Kreis"},"federalState":{"key":"05","name":"Nordrhein-Westfalen"}},{"name":"Im Grünen Winkel","postalCode":"32760","locality":"Detmold","municipality":{"key":"05766020","name":"Detmold, Stadt","type":"Stadt"},"district":{"key":"05766","name":"Lippe","type":"Kreis"},"federalState":{"key":"05","name":"Nordrhein-Westfalen"}},{"name":"Im Hain","postalCode":"32760","locality":"Detmold","municipality":{"key":"05766020","name":"Detmold, Stadt","type":"Stadt"},"district":{"key":"05766","name":"Lippe","type":"Kreis"},"federalState":{"key":"05","name":"Nordrhein-Westfalen"}},{"name":"Im Hoffeld","postalCode":"32760","locality":"Detmold","municipality":{"key":"05766020","name":"Detmold, Stadt","type":"Stadt"},"district":{"key":"05766","name":"Lippe","type":"Kreis"},"federalState":{"key":"05","name":"Nordrhein-Westfalen"}},{"name":"Im Hofkamp","postalCode":"32756","locality":"Detmold","municipality":{"key":"05766020","name":"Detmold, Stadt","type":"Stadt"},"district":{"key":"05766","name":"Lippe","type":"Kreis"},"federalState":{"key":"05","name":"Nordrhein-Westfalen"}},{"name":"Im Kampe","postalCode":"32760","locality":"Detmold","municipality":{"key":"05766020","name":"Detmold, Stadt","type":"Stadt"},"district":{"key":"05766","name":"Lippe","type":"Kreis"},"federalState":{"key":"05","name":"Nordrhein-Westfalen"}},{"name":"Im Knick","postalCode":"32760","locality":"Detmold","municipality":{"key":"05766020","name":"Detmold, Stadt","type":"Stadt"},"district":{"key":"05766","name":"Lippe","type":"Kreis"},"federalState":{"key":"05","name":"Nordrhein-Westfalen"}},{"name":"Im Kuhlenkamp","postalCode":"32760","locality":"Detmold","municipality":{"key":"05766020","name":"Detmold, Stadt","type":"Stadt"},"district":{"key":"05766","name":"Lippe","type":"Kreis"},"federalState":{"key":"05","name":"Nordrhein-Westfalen"}},{"name":"Im Langen Felde","postalCode":"32756","locality":"Detmold","municipality":{"key":"05766020","name":"Detmold, Stadt","type":"Stadt"},"district":{"key":"05766","name":"Lippe","type":"Kreis"},"federalState":{"key":"05","name":"Nordrhein-Westfalen"}},{"name":"Im Lindenort","postalCode":"32756","locality":"Detmold","municipality":{"key":"05766020","name":"Detmold, Stadt","type":"Stadt"},"district":{"key":"05766","name":"Lippe","type":"Kreis"},"federalState":{"key":"05","name":"Nordrhein-Westfalen"}},{"name":"Im Märchengrund","postalCode":"32760","locality":"Detmold","municipality":{"key":"05766020","name":"Detmold, Stadt","type":"Stadt"},"district":{"key":"05766","name":"Lippe","type":"Kreis"},"federalState":{"key":"05","name":"Nordrhein-Westfalen"}},{"name":"Im Meierbruch","postalCode":"32756","locality":"Detmold","municipality":{"key":"05766020","name":"Detmold, Stadt","type":"Stadt"},"district":{"key":"05766","name":"Lippe","type":"Kreis"},"federalState":{"key":"05","name":"Nordrhein-Westfalen"}},{"name":"Immelmannstr.","postalCode":"32756","locality":"Detmold","municipality":{"key":"05766020","name":"Detmold, Stadt","type":"Stadt"},"district":{"key":"05766","name":"Lippe","type":"Kreis"},"federalState":{"key":"05","name":"Nordrhein-Westfalen"}},{"name":"Im Mittelhain","postalCode":"32760","locality":"Detmold","municipality":{"key":"05766020","name":"Detmold, Stadt","type":"Stadt"},"district":{"key":"05766","name":"Lippe","type":"Kreis"},"federalState":{"key":"05","name":"Nordrhein-Westfalen"}},{"name":"Im Mühlenbruch","postalCode":"32758","locality":"Detmold","municipality":{"key":"05766020","name":"Detmold, Stadt","type":"Stadt"},"district":{"key":"05766","name":"Lippe","type":"Kreis"},"federalState":{"key":"05","name":"Nordrhein-Westfalen"}},{"name":"Im Nieleinen","postalCode":"32758","locality":"Detmold","municipality":{"key":"05766020","name":"Detmold, Stadt","type":"Stadt"},"district":{"key":"05766","name":"Lippe","type":"Kreis"},"federalState":{"key":"05","name":"Nordrhein-Westfalen"}},{"name":"Im Obstgarten","postalCode":"32756","locality":"Detmold","municipality":{"key":"05766020","name":"Detmold, Stadt","type":"Stadt"},"district":{"key":"05766","name":"Lippe","type":"Kreis"},"federalState":{"key":"05","name":"Nordrhein-Westfalen"}},{"name":"Im Oetterngrund","postalCode":"32758","locality":"Detmold","municipality":{"key":"05766020","name":"Detmold, Stadt","type":"Stadt"},"district":{"key":"05766","name":"Lippe","type":"Kreis"},"federalState":{"key":"05","name":"Nordrhein-Westfalen"}},{"name":"Im Orte","postalCode":"32760","locality":"Detmold","municipality":{"key":"05766020","name":"Detmold, Stadt","type":"Stadt"},"district":{"key":"05766","name":"Lippe","type":"Kreis"},"federalState":{"key":"05","name":"Nordrhein-Westfalen"}},{"name":"Im Rödlinghauser Felde","postalCode":"32758","locality":"Detmold","municipality":{"key":"05766020","name":"Detmold, Stadt","type":"Stadt"},"district":{"key":"05766","name":"Lippe","type":"Kreis"},"federalState":{"key":"05","name":"Nordrhein-Westfalen"}},{"name":"Im Schäfersiek","postalCode":"32758","locality":"Detmold","municipality":{"key":"05766020","name":"Detmold, Stadt","type":"Stadt"},"district":{"key":"05766","name":"Lippe","type":"Kreis"},"federalState":{"key":"05","name":"Nordrhein-Westfalen"}},{"name":"Im Schlage","postalCode":"32760","locality":"Detmold","municipality":{"key":"05766020","name":"Detmold, Stadt","type":"Stadt"},"district":{"key":"05766","name":"Lippe","type":"Kreis"},"federalState":{"key":"05","name":"Nordrhein-Westfalen"}},{"name":"Im Siek","postalCode":"32758","locality":"Detmold","municipality":{"key":"05766020","name":"Detmold, Stadt","type":"Stadt"},"district":{"key":"05766","name":"Lippe","type":"Kreis"},"federalState":{"key":"05","name":"Nordrhein-Westfalen"}},{"name":"Im Siekkamp","postalCode":"32758","locality":"Detmold","municipality":{"key":"05766020","name":"Detmold, Stadt","type":"Stadt"},"district":{"key":"05766","name":"Lippe","type":"Kreis"},"federalState":{"key":"05","name":"Nordrhein-Westfalen"}},{"name":"Im Teiche","postalCode":"32758","locality":"Detmold","municipality":{"key":"05766020","name":"Detmold, Stadt","type":"Stadt"},"district":{"key":"05766","name":"Lippe","type":"Kreis"},"federalState":{"key":"05","name":"Nordrhein-Westfalen"}},{"name":"Im Tor","postalCode":"32758","locality":"Detmold","municipality":{"key":"05766020","name":"Detmold, Stadt","type":"Stadt"},"district":{"key":"05766","name":"Lippe","type":"Kreis"},"federalState":{"key":"05","name":"Nordrhein-Westfalen"}},{"name":"Im Walde","postalCode":"32758","locality":"Detmold","municipality":{"key":"05766020","name":"Detmold, Stadt","type":"Stadt"},"district":{"key":"05766","name":"Lippe","type":"Kreis"},"federalState":{"key":"05","name":"Nordrhein-Westfalen"}},{"name":"Im Weidsiek","postalCode":"32760","locality":"Detmold","municipality":{"key":"05766020","name":"Detmold, Stadt","type":"Stadt"},"district":{"key":"05766","name":"Lippe","type":"Kreis"},"federalState":{"key":"05","name":"Nordrhein-Westfalen"}},{"name":"Im Wiesengrund","postalCode":"32760","locality":"Detmold","municipality":{"key":"05766020","name":"Detmold, Stadt","type":"Stadt"},"district":{"key":"05766","name":"Lippe","type":"Kreis"},"federalState":{"key":"05","name":"Nordrhein-Westfalen"}},{"name":"Im Winkel","postalCode":"32758","locality":"Detmold","municipality":{"key":"05766020","name":"Detmold, Stadt","type":"Stadt"},"district":{"key":"05766","name":"Lippe","type":"Kreis"},"federalState":{"key":"05","name":"Nordrhein-Westfalen"}},{"name":"Ina-Seidel-Weg","postalCode":"32758","locality":"Detmold","municipality":{"key":"05766020","name":"Detmold, Stadt","type":"Stadt"},"district":{"key":"05766","name":"Lippe","type":"Kreis"},"federalState":{"key":"05","name":"Nordrhein-Westfalen"}},{"name":"In den Benten","postalCode":"32758","locality":"Detmold","municipality":{"key":"05766020","name":"Detmold, Stadt","type":"Stadt"},"district":{"key":"05766","name":"Lippe","type":"Kreis"},"federalState":{"key":"05","name":"Nordrhein-Westfalen"}},{"name":"In den Ellern","postalCode":"32760","locality":"Detmold","municipality":{"key":"05766020","name":"Detmold, Stadt","type":"Stadt"},"district":{"key":"05766","name":"Lippe","type":"Kreis"},"federalState":{"key":"05","name":"Nordrhein-Westfalen"}},{"name":"In den Hülsen","postalCode":"32760","locality":"Detmold","municipality":{"key":"05766020","name":"Detmold, Stadt","type":"Stadt"},"district":{"key":"05766","name":"Lippe","type":"Kreis"},"federalState":{"key":"05","name":"Nordrhein-Westfalen"}},{"name":"In den Röhren","postalCode":"32760","locality":"Detmold","municipality":{"key":"05766020","name":"Detmold, Stadt","type":"Stadt"},"district":{"key":"05766","name":"Lippe","type":"Kreis"},"federalState":{"key":"05","name":"Nordrhein-Westfalen"}},{"name":"In den Steinen","postalCode":"32760","locality":"Detmold","municipality":{"key":"05766020","name":"Detmold, Stadt","type":"Stadt"},"district":{"key":"05766","name":"Lippe","type":"Kreis"},"federalState":{"key":"05","name":"Nordrhein-Westfalen"}},{"name":"In der Fried","postalCode":"32760","locality":"Detmold","municipality":{"key":"05766020","name":"Detmold, Stadt","type":"Stadt"},"district":{"key":"05766","name":"Lippe","type":"Kreis"},"federalState":{"key":"05","name":"Nordrhein-Westfalen"}},{"name":"In der Mesche","postalCode":"32758","locality":"Detmold","municipality":{"key":"05766020","name":"Detmold, Stadt","type":"Stadt"},"district":{"key":"05766","name":"Lippe","type":"Kreis"},"federalState":{"key":"05","name":"Nordrhein-Westfalen"}},{"name":"In der Steinbreite","postalCode":"32760","locality":"Detmold","municipality":{"key":"05766020","name":"Detmold, Stadt","type":"Stadt"},"district":{"key":"05766","name":"Lippe","type":"Kreis"},"federalState":{"key":"05","name":"Nordrhein-Westfalen"}},{"name":"In der Twete","postalCode":"32760","locality":"Detmold","municipality":{"key":"05766020","name":"Detmold, Stadt","type":"Stadt"},"district":{"key":"05766","name":"Lippe","type":"Kreis"},"federalState":{"key":"05","name":"Nordrhein-Westfalen"}},{"name":"Industriestr.","postalCode":"32756","locality":"Detmold","municipality":{"key":"05766020","name":"Detmold, Stadt","type":"Stadt"},"district":{"key":"05766","name":"Lippe","type":"Kreis"},"federalState":{"key":"05","name":"Nordrhein-Westfalen"}},{"name":"Irmgardstr.","postalCode":"32756","locality":"Detmold","municipality":{"key":"05766020","name":"Detmold, Stadt","type":"Stadt"},"district":{"key":"05766","name":"Lippe","type":"Kreis"},"federalState":{"key":"05","name":"Nordrhein-Westfalen"}},{"name":"Jagdstaken","postalCode":"32758","locality":"Detmold","municipality":{"key":"05766020","name":"Detmold, Stadt","type":"Stadt"},"district":{"key":"05766","name":"Lippe","type":"Kreis"},"federalState":{"key":"05","name":"Nordrhein-Westfalen"}},{"name":"Jahnstr.","postalCode":"32760","locality":"Detmold","municipality":{"key":"05766020","name":"Detmold, Stadt","type":"Stadt"},"district":{"key":"05766","name":"Lippe","type":"Kreis"},"federalState":{"key":"05","name":"Nordrhein-Westfalen"}},{"name":"Jerxer Str.","postalCode":"32758","locality":"Detmold","municipality":{"key":"05766020","name":"Detmold, Stadt","type":"Stadt"},"district":{"key":"05766","name":"Lippe","type":"Kreis"},"federalState":{"key":"05","name":"Nordrhein-Westfalen"}},{"name":"Johannaberger Weg","postalCode":"32760","locality":"Detmold","municipality":{"key":"05766020","name":"Detmold, Stadt","type":"Stadt"},"district":{"key":"05766","name":"Lippe","type":"Kreis"},"federalState":{"key":"05","name":"Nordrhein-Westfalen"}},{"name":"Johannettentaler Str.","postalCode":"32756","locality":"Detmold","municipality":{"key":"05766020","name":"Detmold, Stadt","type":"Stadt"},"district":{"key":"05766","name":"Lippe","type":"Kreis"},"federalState":{"key":"05","name":"Nordrhein-Westfalen"}},{"name":"Johannisweg","postalCode":"32758","locality":"Detmold","municipality":{"key":"05766020","name":"Detmold, Stadt","type":"Stadt"},"district":{"key":"05766","name":"Lippe","type":"Kreis"},"federalState":{"key":"05","name":"Nordrhein-Westfalen"}},{"name":"Joseph-Haydn-Weg","postalCode":"32756","locality":"Detmold","municipality":{"key":"05766020","name":"Detmold, Stadt","type":"Stadt"},"district":{"key":"05766","name":"Lippe","type":"Kreis"},"federalState":{"key":"05","name":"Nordrhein-Westfalen"}},{"name":"Joseph-Plaut-Weg","postalCode":"32756","locality":"Detmold","municipality":{"key":"05766020","name":"Detmold, Stadt","type":"Stadt"},"district":{"key":"05766","name":"Lippe","type":"Kreis"},"federalState":{"key":"05","name":"Nordrhein-Westfalen"}},{"name":"Jülicher Str.","postalCode":"32758","locality":"Detmold","municipality":{"key":"05766020","name":"Detmold, Stadt","type":"Stadt"},"district":{"key":"05766","name":"Lippe","type":"Kreis"},"federalState":{"key":"05","name":"Nordrhein-Westfalen"}},{"name":"Kaiser-Wilhelm-Platz","postalCode":"32756","locality":"Detmold","municipality":{"key":"05766020","name":"Detmold, Stadt","type":"Stadt"},"district":{"key":"05766","name":"Lippe","type":"Kreis"},"federalState":{"key":"05","name":"Nordrhein-Westfalen"}},{"name":"Kaiser-Wilhelm-Weg","postalCode":"32760","locality":"Detmold","municipality":{"key":"05766020","name":"Detmold, Stadt","type":"Stadt"},"district":{"key":"05766","name":"Lippe","type":"Kreis"},"federalState":{"key":"05","name":"Nordrhein-Westfalen"}},{"name":"Kampwiese","postalCode":"32756","locality":"Detmold","municipality":{"key":"05766020","name":"Detmold, Stadt","type":"Stadt"},"district":{"key":"05766","name":"Lippe","type":"Kreis"},"federalState":{"key":"05","name":"Nordrhein-Westfalen"}},{"name":"Kantstr.","postalCode":"32758","locality":"Detmold","municipality":{"key":"05766020","name":"Detmold, Stadt","type":"Stadt"},"district":{"key":"05766","name":"Lippe","type":"Kreis"},"federalState":{"key":"05","name":"Nordrhein-Westfalen"}},{"name":"Kanzelweg","postalCode":"32760","locality":"Detmold","municipality":{"key":"05766020","name":"Detmold, Stadt","type":"Stadt"},"district":{"key":"05766","name":"Lippe","type":"Kreis"},"federalState":{"key":"05","name":"Nordrhein-Westfalen"}},{"name":"Kapellenweg","postalCode":"32758","locality":"Detmold","municipality":{"key":"05766020","name":"Detmold, Stadt","type":"Stadt"},"district":{"key":"05766","name":"Lippe","type":"Kreis"},"federalState":{"key":"05","name":"Nordrhein-Westfalen"}},{"name":"Karbachpassage","postalCode":"32756","locality":"Detmold","municipality":{"key":"05766020","name":"Detmold, Stadt","type":"Stadt"},"district":{"key":"05766","name":"Lippe","type":"Kreis"},"federalState":{"key":"05","name":"Nordrhein-Westfalen"}},{"name":"Karl-Ehlers-Str.","postalCode":"32756","locality":"Detmold","municipality":{"key":"05766020","name":"Detmold, Stadt","type":"Stadt"},"district":{"key":"05766","name":"Lippe","type":"Kreis"},"federalState":{"key":"05","name":"Nordrhein-Westfalen"}},{"name":"Karlstr.","postalCode":"32756","locality":"Detmold","municipality":{"key":"05766020","name":"Detmold, Stadt","type":"Stadt"},"district":{"key":"05766","name":"Lippe","type":"Kreis"},"federalState":{"key":"05","name":"Nordrhein-Westfalen"}},{"name":"Karl-Wehrhan-Str.","postalCode":"32758","locality":"Detmold","municipality":{"key":"05766020","name":"Detmold, Stadt","type":"Stadt"},"district":{"key":"05766","name":"Lippe","type":"Kreis"},"federalState":{"key":"05","name":"Nordrhein-Westfalen"}},{"name":"Karolinenstr.","postalCode":"32756","locality":"Detmold","municipality":{"key":"05766020","name":"Detmold, Stadt","type":"Stadt"},"district":{"key":"05766","name":"Lippe","type":"Kreis"},"federalState":{"key":"05","name":"Nordrhein-Westfalen"}},{"name":"Kastanienallee","postalCode":"32760","locality":"Detmold","municipality":{"key":"05766020","name":"Detmold, Stadt","type":"Stadt"},"district":{"key":"05766","name":"Lippe","type":"Kreis"},"federalState":{"key":"05","name":"Nordrhein-Westfalen"}},{"name":"Kastanienweg","postalCode":"32758","locality":"Detmold","municipality":{"key":"05766020","name":"Detmold, Stadt","type":"Stadt"},"district":{"key":"05766","name":"Lippe","type":"Kreis"},"federalState":{"key":"05","name":"Nordrhein-Westfalen"}},{"name":"Katerallee","postalCode":"32760","locality":"Detmold","municipality":{"key":"05766020","name":"Detmold, Stadt","type":"Stadt"},"district":{"key":"05766","name":"Lippe","type":"Kreis"},"federalState":{"key":"05","name":"Nordrhein-Westfalen"}},{"name":"Kehrbüldeweg","postalCode":"32760","locality":"Detmold","municipality":{"key":"05766020","name":"Detmold, Stadt","type":"Stadt"},"district":{"key":"05766","name":"Lippe","type":"Kreis"},"federalState":{"key":"05","name":"Nordrhein-Westfalen"}},{"name":"Kessemeierweg","postalCode":"32756","locality":"Detmold","municipality":{"key":"05766020","name":"Detmold, Stadt","type":"Stadt"},"district":{"key":"05766","name":"Lippe","type":"Kreis"},"federalState":{"key":"05","name":"Nordrhein-Westfalen"}},{"name":"Kestnerstr.","postalCode":"32756","locality":"Detmold","municipality":{"key":"05766020","name":"Detmold, Stadt","type":"Stadt"},"district":{"key":"05766","name":"Lippe","type":"Kreis"},"federalState":{"key":"05","name":"Nordrhein-Westfalen"}},{"name":"Kiebitzweg","postalCode":"32758","locality":"Detmold","municipality":{"key":"05766020","name":"Detmold, Stadt","type":"Stadt"},"district":{"key":"05766","name":"Lippe","type":"Kreis"},"federalState":{"key":"05","name":"Nordrhein-Westfalen"}},{"name":"Kiefernweg","postalCode":"32758","locality":"Detmold","municipality":{"key":"05766020","name":"Detmold, Stadt","type":"Stadt"},"district":{"key":"05766","name":"Lippe","type":"Kreis"},"federalState":{"key":"05","name":"Nordrhein-Westfalen"}},{"name":"Kieler Str.","postalCode":"32760","locality":"Detmold","municipality":{"key":"05766020","name":"Detmold, Stadt","type":"Stadt"},"district":{"key":"05766","name":"Lippe","type":"Kreis"},"federalState":{"key":"05","name":"Nordrhein-Westfalen"}},{"name":"Kiewningstr.","postalCode":"32756","locality":"Detmold","municipality":{"key":"05766020","name":"Detmold, Stadt","type":"Stadt"},"district":{"key":"05766","name":"Lippe","type":"Kreis"},"federalState":{"key":"05","name":"Nordrhein-Westfalen"}},{"name":"Kindergartenweg","postalCode":"32760","locality":"Detmold","municipality":{"key":"05766020","name":"Detmold, Stadt","type":"Stadt"},"district":{"key":"05766","name":"Lippe","type":"Kreis"},"federalState":{"key":"05","name":"Nordrhein-Westfalen"}},{"name":"Kirchbredenstr.","postalCode":"32758","locality":"Detmold","municipality":{"key":"05766020","name":"Detmold, Stadt","type":"Stadt"},"district":{"key":"05766","name":"Lippe","type":"Kreis"},"federalState":{"key":"05","name":"Nordrhein-Westfalen"}},{"name":"Kirchhöhe","postalCode":"32760","locality":"Detmold","municipality":{"key":"05766020","name":"Detmold, Stadt","type":"Stadt"},"district":{"key":"05766","name":"Lippe","type":"Kreis"},"federalState":{"key":"05","name":"Nordrhein-Westfalen"}},{"name":"Kirchplatz","postalCode":"32756","locality":"Detmold","municipality":{"key":"05766020","name":"Detmold, Stadt","type":"Stadt"},"district":{"key":"05766","name":"Lippe","type":"Kreis"},"federalState":{"key":"05","name":"Nordrhein-Westfalen"}},{"name":"Kirchweg","postalCode":"32760","locality":"Detmold","municipality":{"key":"05766020","name":"Detmold, Stadt","type":"Stadt"},"district":{"key":"05766","name":"Lippe","type":"Kreis"},"federalState":{"key":"05","name":"Nordrhein-Westfalen"}},{"name":"Kissinger Str.","postalCode":"32756","locality":"Detmold","municipality":{"key":"05766020","name":"Detmold, Stadt","type":"Stadt"},"district":{"key":"05766","name":"Lippe","type":"Kreis"},"federalState":{"key":"05","name":"Nordrhein-Westfalen"}},{"name":"Klara-Nowak-Str.","postalCode":"32756","locality":"Detmold","municipality":{"key":"05766020","name":"Detmold, Stadt","type":"Stadt"},"district":{"key":"05766","name":"Lippe","type":"Kreis"},"federalState":{"key":"05","name":"Nordrhein-Westfalen"}},{"name":"Kleeweg","postalCode":"32758","locality":"Detmold","municipality":{"key":"05766020","name":"Detmold, Stadt","type":"Stadt"},"district":{"key":"05766","name":"Lippe","type":"Kreis"},"federalState":{"key":"05","name":"Nordrhein-Westfalen"}},{"name":"Kleiner Bergweg","postalCode":"32758","locality":"Detmold","municipality":{"key":"05766020","name":"Detmold, Stadt","type":"Stadt"},"district":{"key":"05766","name":"Lippe","type":"Kreis"},"federalState":{"key":"05","name":"Nordrhein-Westfalen"}},{"name":"Kleine Str.","postalCode":"32758","locality":"Detmold","municipality":{"key":"05766020","name":"Detmold, Stadt","type":"Stadt"},"district":{"key":"05766","name":"Lippe","type":"Kreis"},"federalState":{"key":"05","name":"Nordrhein-Westfalen"}},{"name":"Kleine Twete","postalCode":"32756","locality":"Detmold","municipality":{"key":"05766020","name":"Detmold, Stadt","type":"Stadt"},"district":{"key":"05766","name":"Lippe","type":"Kreis"},"federalState":{"key":"05","name":"Nordrhein-Westfalen"}},{"name":"Kleistweg","postalCode":"32756","locality":"Detmold","municipality":{"key":"05766020","name":"Detmold, Stadt","type":"Stadt"},"district":{"key":"05766","name":"Lippe","type":"Kreis"},"federalState":{"key":"05","name":"Nordrhein-Westfalen"}},{"name":"Klematisweg","postalCode":"32760","locality":"Detmold","municipality":{"key":"05766020","name":"Detmold, Stadt","type":"Stadt"},"district":{"key":"05766","name":"Lippe","type":"Kreis"},"federalState":{"key":"05","name":"Nordrhein-Westfalen"}},{"name":"Klingenbergstr.","postalCode":"32756","locality":"Detmold","municipality":{"key":"05766020","name":"Detmold, Stadt","type":"Stadt"},"district":{"key":"05766","name":"Lippe","type":"Kreis"},"federalState":{"key":"05","name":"Nordrhein-Westfalen"}},{"name":"Klingenbergstr.","postalCode":"32758","locality":"Detmold","municipality":{"key":"05766020","name":"Detmold, Stadt","type":"Stadt"},"district":{"key":"05766","name":"Lippe","type":"Kreis"},"federalState":{"key":"05","name":"Nordrhein-Westfalen"}},{"name":"Klippenbrede","postalCode":"32756","locality":"Detmold","municipality":{"key":"05766020","name":"Detmold, Stadt","type":"Stadt"},"district":{"key":"05766","name":"Lippe","type":"Kreis"},"federalState":{"key":"05","name":"Nordrhein-Westfalen"}},{"name":"Klusstr.","postalCode":"32756","locality":"Detmold","municipality":{"key":"05766020","name":"Detmold, Stadt","type":"Stadt"},"district":{"key":"05766","name":"Lippe","type":"Kreis"},"federalState":{"key":"05","name":"Nordrhein-Westfalen"}},{"name":"Klüter Heide","postalCode":"32758","locality":"Detmold","municipality":{"key":"05766020","name":"Detmold, Stadt","type":"Stadt"},"district":{"key":"05766","name":"Lippe","type":"Kreis"},"federalState":{"key":"05","name":"Nordrhein-Westfalen"}},{"name":"Klüter Str.","postalCode":"32758","locality":"Detmold","municipality":{"key":"05766020","name":"Detmold, Stadt","type":"Stadt"},"district":{"key":"05766","name":"Lippe","type":"Kreis"},"federalState":{"key":"05","name":"Nordrhein-Westfalen"}},{"name":"Köllerweg","postalCode":"32760","locality":"Detmold","municipality":{"key":"05766020","name":"Detmold, Stadt","type":"Stadt"},"district":{"key":"05766","name":"Lippe","type":"Kreis"},"federalState":{"key":"05","name":"Nordrhein-Westfalen"}},{"name":"Königsberger Str.","postalCode":"32760","locality":"Detmold","municipality":{"key":"05766020","name":"Detmold, Stadt","type":"Stadt"},"district":{"key":"05766","name":"Lippe","type":"Kreis"},"federalState":{"key":"05","name":"Nordrhein-Westfalen"}},{"name":"Königstr.","postalCode":"32760","locality":"Detmold","municipality":{"key":"05766020","name":"Detmold, Stadt","type":"Stadt"},"district":{"key":"05766","name":"Lippe","type":"Kreis"},"federalState":{"key":"05","name":"Nordrhein-Westfalen"}},{"name":"Kordhankeweg","postalCode":"32756","locality":"Detmold","municipality":{"key":"05766020","name":"Detmold, Stadt","type":"Stadt"},"district":{"key":"05766","name":"Lippe","type":"Kreis"},"federalState":{"key":"05","name":"Nordrhein-Westfalen"}},{"name":"Kornblumenweg","postalCode":"32760","locality":"Detmold","municipality":{"key":"05766020","name":"Detmold, Stadt","type":"Stadt"},"district":{"key":"05766","name":"Lippe","type":"Kreis"},"federalState":{"key":"05","name":"Nordrhein-Westfalen"}},{"name":"Körnerstr.","postalCode":"32758","locality":"Detmold","municipality":{"key":"05766020","name":"Detmold, Stadt","type":"Stadt"},"district":{"key":"05766","name":"Lippe","type":"Kreis"},"federalState":{"key":"05","name":"Nordrhein-Westfalen"}},{"name":"Krefelder Weg","postalCode":"32758","locality":"Detmold","municipality":{"key":"05766020","name":"Detmold, Stadt","type":"Stadt"},"district":{"key":"05766","name":"Lippe","type":"Kreis"},"federalState":{"key":"05","name":"Nordrhein-Westfalen"}},{"name":"Kreuzberger Str.","postalCode":"32760","locality":"Detmold","municipality":{"key":"05766020","name":"Detmold, Stadt","type":"Stadt"},"district":{"key":"05766","name":"Lippe","type":"Kreis"},"federalState":{"key":"05","name":"Nordrhein-Westfalen"}},{"name":"Kreuzbuschweg","postalCode":"32758","locality":"Detmold","municipality":{"key":"05766020","name":"Detmold, Stadt","type":"Stadt"},"district":{"key":"05766","name":"Lippe","type":"Kreis"},"federalState":{"key":"05","name":"Nordrhein-Westfalen"}},{"name":"Kreuzstr.","postalCode":"32756","locality":"Detmold","municipality":{"key":"05766020","name":"Detmold, Stadt","type":"Stadt"},"district":{"key":"05766","name":"Lippe","type":"Kreis"},"federalState":{"key":"05","name":"Nordrhein-Westfalen"}},{"name":"Lagesche Str.","postalCode":"32756","locality":"Detmold","municipality":{"key":"05766020","name":"Detmold, Stadt","type":"Stadt"},"district":{"key":"05766","name":"Lippe","type":"Kreis"},"federalState":{"key":"05","name":"Nordrhein-Westfalen"}},{"name":"Lagesche Str.","postalCode":"32758","locality":"Detmold","municipality":{"key":"05766020","name":"Detmold, Stadt","type":"Stadt"},"district":{"key":"05766","name":"Lippe","type":"Kreis"},"federalState":{"key":"05","name":"Nordrhein-Westfalen"}},{"name":"Landertweg","postalCode":"32758","locality":"Detmold","municipality":{"key":"05766020","name":"Detmold, Stadt","type":"Stadt"},"district":{"key":"05766","name":"Lippe","type":"Kreis"},"federalState":{"key":"05","name":"Nordrhein-Westfalen"}},{"name":"Lärchenweg","postalCode":"32760","locality":"Detmold","municipality":{"key":"05766020","name":"Detmold, Stadt","type":"Stadt"},"district":{"key":"05766","name":"Lippe","type":"Kreis"},"federalState":{"key":"05","name":"Nordrhein-Westfalen"}},{"name":"Lehmbrink","postalCode":"32758","locality":"Detmold","municipality":{"key":"05766020","name":"Detmold, Stadt","type":"Stadt"},"district":{"key":"05766","name":"Lippe","type":"Kreis"},"federalState":{"key":"05","name":"Nordrhein-Westfalen"}},{"name":"Leibnizweg","postalCode":"32756","locality":"Detmold","municipality":{"key":"05766020","name":"Detmold, Stadt","type":"Stadt"},"district":{"key":"05766","name":"Lippe","type":"Kreis"},"federalState":{"key":"05","name":"Nordrhein-Westfalen"}},{"name":"Leistruper-Wald-Str.","postalCode":"32760","locality":"Detmold","municipality":{"key":"05766020","name":"Detmold, Stadt","type":"Stadt"},"district":{"key":"05766","name":"Lippe","type":"Kreis"},"federalState":{"key":"05","name":"Nordrhein-Westfalen"}},{"name":"Lemgoer Str.","postalCode":"32756","locality":"Detmold","municipality":{"key":"05766020","name":"Detmold, Stadt","type":"Stadt"},"district":{"key":"05766","name":"Lippe","type":"Kreis"},"federalState":{"key":"05","name":"Nordrhein-Westfalen"}},{"name":"Lemgoer Str.","postalCode":"32758","locality":"Detmold","municipality":{"key":"05766020","name":"Detmold, Stadt","type":"Stadt"},"district":{"key":"05766","name":"Lippe","type":"Kreis"},"federalState":{"key":"05","name":"Nordrhein-Westfalen"}},{"name":"Lenauweg","postalCode":"32758","locality":"Detmold","municipality":{"key":"05766020","name":"Detmold, Stadt","type":"Stadt"},"district":{"key":"05766","name":"Lippe","type":"Kreis"},"federalState":{"key":"05","name":"Nordrhein-Westfalen"}},{"name":"Leonardo-da-Vinci-Weg","postalCode":"32760","locality":"Detmold","municipality":{"key":"05766020","name":"Detmold, Stadt","type":"Stadt"},"district":{"key":"05766","name":"Lippe","type":"Kreis"},"federalState":{"key":"05","name":"Nordrhein-Westfalen"}},{"name":"Leopoldstr.","postalCode":"32756","locality":"Detmold","municipality":{"key":"05766020","name":"Detmold, Stadt","type":"Stadt"},"district":{"key":"05766","name":"Lippe","type":"Kreis"},"federalState":{"key":"05","name":"Nordrhein-Westfalen"}},{"name":"Leopoldstr.","postalCode":"32760","locality":"Detmold","municipality":{"key":"05766020","name":"Detmold, Stadt","type":"Stadt"},"district":{"key":"05766","name":"Lippe","type":"Kreis"},"federalState":{"key":"05","name":"Nordrhein-Westfalen"}},{"name":"Leopold-Zunz-Weg","postalCode":"32756","locality":"Detmold","municipality":{"key":"05766020","name":"Detmold, Stadt","type":"Stadt"},"district":{"key":"05766","name":"Lippe","type":"Kreis"},"federalState":{"key":"05","name":"Nordrhein-Westfalen"}},{"name":"Lessingstr.","postalCode":"32756","locality":"Detmold","municipality":{"key":"05766020","name":"Detmold, Stadt","type":"Stadt"},"district":{"key":"05766","name":"Lippe","type":"Kreis"},"federalState":{"key":"05","name":"Nordrhein-Westfalen"}},{"name":"Libellenweg","postalCode":"32760","locality":"Detmold","municipality":{"key":"05766020","name":"Detmold, Stadt","type":"Stadt"},"district":{"key":"05766","name":"Lippe","type":"Kreis"},"federalState":{"key":"05","name":"Nordrhein-Westfalen"}},{"name":"Lichtenbergstr.","postalCode":"32758","locality":"Detmold","municipality":{"key":"05766020","name":"Detmold, Stadt","type":"Stadt"},"district":{"key":"05766","name":"Lippe","type":"Kreis"},"federalState":{"key":"05","name":"Nordrhein-Westfalen"}},{"name":"Liebigweg","postalCode":"32756","locality":"Detmold","municipality":{"key":"05766020","name":"Detmold, Stadt","type":"Stadt"},"district":{"key":"05766","name":"Lippe","type":"Kreis"},"federalState":{"key":"05","name":"Nordrhein-Westfalen"}},{"name":"Lieschenpfad","postalCode":"32760","locality":"Detmold","municipality":{"key":"05766020","name":"Detmold, Stadt","type":"Stadt"},"district":{"key":"05766","name":"Lippe","type":"Kreis"},"federalState":{"key":"05","name":"Nordrhein-Westfalen"}},{"name":"Lietheweg","postalCode":"32760","locality":"Detmold","municipality":{"key":"05766020","name":"Detmold, Stadt","type":"Stadt"},"district":{"key":"05766","name":"Lippe","type":"Kreis"},"federalState":{"key":"05","name":"Nordrhein-Westfalen"}},{"name":"Ligusterweg","postalCode":"32758","locality":"Detmold","municipality":{"key":"05766020","name":"Detmold, Stadt","type":"Stadt"},"district":{"key":"05766","name":"Lippe","type":"Kreis"},"federalState":{"key":"05","name":"Nordrhein-Westfalen"}},{"name":"Lilienthalstr.","postalCode":"32756","locality":"Detmold","municipality":{"key":"05766020","name":"Detmold, Stadt","type":"Stadt"},"district":{"key":"05766","name":"Lippe","type":"Kreis"},"federalState":{"key":"05","name":"Nordrhein-Westfalen"}},{"name":"Linnenkamp","postalCode":"32760","locality":"Detmold","municipality":{"key":"05766020","name":"Detmold, Stadt","type":"Stadt"},"district":{"key":"05766","name":"Lippe","type":"Kreis"},"federalState":{"key":"05","name":"Nordrhein-Westfalen"}},{"name":"Lippstädter Weg","postalCode":"32756","locality":"Detmold","municipality":{"key":"05766020","name":"Detmold, Stadt","type":"Stadt"},"district":{"key":"05766","name":"Lippe","type":"Kreis"},"federalState":{"key":"05","name":"Nordrhein-Westfalen"}},{"name":"Lohmannsweg","postalCode":"32760","locality":"Detmold","municipality":{"key":"05766020","name":"Detmold, Stadt","type":"Stadt"},"district":{"key":"05766","name":"Lippe","type":"Kreis"},"federalState":{"key":"05","name":"Nordrhein-Westfalen"}},{"name":"Lohmeierweg","postalCode":"32760","locality":"Detmold","municipality":{"key":"05766020","name":"Detmold, Stadt","type":"Stadt"},"district":{"key":"05766","name":"Lippe","type":"Kreis"},"federalState":{"key":"05","name":"Nordrhein-Westfalen"}},{"name":"Londoner Str.","postalCode":"32758","locality":"Detmold","municipality":{"key":"05766020","name":"Detmold, Stadt","type":"Stadt"},"district":{"key":"05766","name":"Lippe","type":"Kreis"},"federalState":{"key":"05","name":"Nordrhein-Westfalen"}},{"name":"Lönsstr.","postalCode":"32756","locality":"Detmold","municipality":{"key":"05766020","name":"Detmold, Stadt","type":"Stadt"},"district":{"key":"05766","name":"Lippe","type":"Kreis"},"federalState":{"key":"05","name":"Nordrhein-Westfalen"}},{"name":"Lopshorner Allee","postalCode":"32760","locality":"Detmold","municipality":{"key":"05766020","name":"Detmold, Stadt","type":"Stadt"},"district":{"key":"05766","name":"Lippe","type":"Kreis"},"federalState":{"key":"05","name":"Nordrhein-Westfalen"}},{"name":"Lortzingstr.","postalCode":"32756","locality":"Detmold","municipality":{"key":"05766020","name":"Detmold, Stadt","type":"Stadt"},"district":{"key":"05766","name":"Lippe","type":"Kreis"},"federalState":{"key":"05","name":"Nordrhein-Westfalen"}},{"name":"Loßbrucher Str.","postalCode":"32758","locality":"Detmold","municipality":{"key":"05766020","name":"Detmold, Stadt","type":"Stadt"},"district":{"key":"05766","name":"Lippe","type":"Kreis"},"federalState":{"key":"05","name":"Nordrhein-Westfalen"}},{"name":"Louis-Grothe-Str.","postalCode":"32760","locality":"Detmold","municipality":{"key":"05766020","name":"Detmold, Stadt","type":"Stadt"},"district":{"key":"05766","name":"Lippe","type":"Kreis"},"federalState":{"key":"05","name":"Nordrhein-Westfalen"}},{"name":"Lübecker Str.","postalCode":"32760","locality":"Detmold","municipality":{"key":"05766020","name":"Detmold, Stadt","type":"Stadt"},"district":{"key":"05766","name":"Lippe","type":"Kreis"},"federalState":{"key":"05","name":"Nordrhein-Westfalen"}},{"name":"Luise-Rinsche-Weg","postalCode":"32758","locality":"Detmold","municipality":{"key":"05766020","name":"Detmold, Stadt","type":"Stadt"},"district":{"key":"05766","name":"Lippe","type":"Kreis"},"federalState":{"key":"05","name":"Nordrhein-Westfalen"}},{"name":"Lüneburger Str.","postalCode":"32756","locality":"Detmold","municipality":{"key":"05766020","name":"Detmold, Stadt","type":"Stadt"},"district":{"key":"05766","name":"Lippe","type":"Kreis"},"federalState":{"key":"05","name":"Nordrhein-Westfalen"}},{"name":"Lupinenweg","postalCode":"32760","locality":"Detmold","municipality":{"key":"05766020","name":"Detmold, Stadt","type":"Stadt"},"district":{"key":"05766","name":"Lippe","type":"Kreis"},"federalState":{"key":"05","name":"Nordrhein-Westfalen"}},{"name":"Lützowstr.","postalCode":"32756","locality":"Detmold","municipality":{"key":"05766020","name":"Detmold, Stadt","type":"Stadt"},"district":{"key":"05766","name":"Lippe","type":"Kreis"},"federalState":{"key":"05","name":"Nordrhein-Westfalen"}},{"name":"Magnolienweg","postalCode":"32760","locality":"Detmold","municipality":{"key":"05766020","name":"Detmold, Stadt","type":"Stadt"},"district":{"key":"05766","name":"Lippe","type":"Kreis"},"federalState":{"key":"05","name":"Nordrhein-Westfalen"}},{"name":"Maiweg","postalCode":"32760","locality":"Detmold","municipality":{"key":"05766020","name":"Detmold, Stadt","type":"Stadt"},"district":{"key":"05766","name":"Lippe","type":"Kreis"},"federalState":{"key":"05","name":"Nordrhein-Westfalen"}},{"name":"Malvidastr.","postalCode":"32756","locality":"Detmold","municipality":{"key":"05766020","name":"Detmold, Stadt","type":"Stadt"},"district":{"key":"05766","name":"Lippe","type":"Kreis"},"federalState":{"key":"05","name":"Nordrhein-Westfalen"}},{"name":"Marie-Curie-Str.","postalCode":"32760","locality":"Detmold","municipality":{"key":"05766020","name":"Detmold, Stadt","type":"Stadt"},"district":{"key":"05766","name":"Lippe","type":"Kreis"},"federalState":{"key":"05","name":"Nordrhein-Westfalen"}},{"name":"Marienburger Str.","postalCode":"32756","locality":"Detmold","municipality":{"key":"05766020","name":"Detmold, Stadt","type":"Stadt"},"district":{"key":"05766","name":"Lippe","type":"Kreis"},"federalState":{"key":"05","name":"Nordrhein-Westfalen"}},{"name":"Marienstr.","postalCode":"32756","locality":"Detmold","municipality":{"key":"05766020","name":"Detmold, Stadt","type":"Stadt"},"district":{"key":"05766","name":"Lippe","type":"Kreis"},"federalState":{"key":"05","name":"Nordrhein-Westfalen"}},{"name":"Marktplatz","postalCode":"32756","locality":"Detmold","municipality":{"key":"05766020","name":"Detmold, Stadt","type":"Stadt"},"district":{"key":"05766","name":"Lippe","type":"Kreis"},"federalState":{"key":"05","name":"Nordrhein-Westfalen"}},{"name":"Markusplatz","postalCode":"32756","locality":"Detmold","municipality":{"key":"05766020","name":"Detmold, Stadt","type":"Stadt"},"district":{"key":"05766","name":"Lippe","type":"Kreis"},"federalState":{"key":"05","name":"Nordrhein-Westfalen"}},{"name":"Martin-Danjes-Weg","postalCode":"32756","locality":"Detmold","municipality":{"key":"05766020","name":"Detmold, Stadt","type":"Stadt"},"district":{"key":"05766","name":"Lippe","type":"Kreis"},"federalState":{"key":"05","name":"Nordrhein-Westfalen"}},{"name":"Martin-Luther-Kirchplatz","postalCode":"32756","locality":"Detmold","municipality":{"key":"05766020","name":"Detmold, Stadt","type":"Stadt"},"district":{"key":"05766","name":"Lippe","type":"Kreis"},"federalState":{"key":"05","name":"Nordrhein-Westfalen"}},{"name":"Martin-Luther-Str.","postalCode":"32756","locality":"Detmold","municipality":{"key":"05766020","name":"Detmold, Stadt","type":"Stadt"},"district":{"key":"05766","name":"Lippe","type":"Kreis"},"federalState":{"key":"05","name":"Nordrhein-Westfalen"}},{"name":"Martinstr.","postalCode":"32756","locality":"Detmold","municipality":{"key":"05766020","name":"Detmold, Stadt","type":"Stadt"},"district":{"key":"05766","name":"Lippe","type":"Kreis"},"federalState":{"key":"05","name":"Nordrhein-Westfalen"}},{"name":"Martsieksweg","postalCode":"32760","locality":"Detmold","municipality":{"key":"05766020","name":"Detmold, Stadt","type":"Stadt"},"district":{"key":"05766","name":"Lippe","type":"Kreis"},"federalState":{"key":"05","name":"Nordrhein-Westfalen"}},{"name":"Maßbruch","postalCode":"32760","locality":"Detmold","municipality":{"key":"05766020","name":"Detmold, Stadt","type":"Stadt"},"district":{"key":"05766","name":"Lippe","type":"Kreis"},"federalState":{"key":"05","name":"Nordrhein-Westfalen"}},{"name":"Matthias-Claudius-Weg","postalCode":"32756","locality":"Detmold","municipality":{"key":"05766020","name":"Detmold, Stadt","type":"Stadt"},"district":{"key":"05766","name":"Lippe","type":"Kreis"},"federalState":{"key":"05","name":"Nordrhein-Westfalen"}},{"name":"Meierkamp","postalCode":"32760","locality":"Detmold","municipality":{"key":"05766020","name":"Detmold, Stadt","type":"Stadt"},"district":{"key":"05766","name":"Lippe","type":"Kreis"},"federalState":{"key":"05","name":"Nordrhein-Westfalen"}},{"name":"Meiersfelder Str.","postalCode":"32760","locality":"Detmold","municipality":{"key":"05766020","name":"Detmold, Stadt","type":"Stadt"},"district":{"key":"05766","name":"Lippe","type":"Kreis"},"federalState":{"key":"05","name":"Nordrhein-Westfalen"}},{"name":"Meierstr.","postalCode":"32756","locality":"Detmold","municipality":{"key":"05766020","name":"Detmold, Stadt","type":"Stadt"},"district":{"key":"05766","name":"Lippe","type":"Kreis"},"federalState":{"key":"05","name":"Nordrhein-Westfalen"}},{"name":"Meisenweg","postalCode":"32758","locality":"Detmold","municipality":{"key":"05766020","name":"Detmold, Stadt","type":"Stadt"},"district":{"key":"05766","name":"Lippe","type":"Kreis"},"federalState":{"key":"05","name":"Nordrhein-Westfalen"}},{"name":"Melli-Beese-Weg","postalCode":"32756","locality":"Detmold","municipality":{"key":"05766020","name":"Detmold, Stadt","type":"Stadt"},"district":{"key":"05766","name":"Lippe","type":"Kreis"},"federalState":{"key":"05","name":"Nordrhein-Westfalen"}},{"name":"Memelstr.","postalCode":"32756","locality":"Detmold","municipality":{"key":"05766020","name":"Detmold, Stadt","type":"Stadt"},"district":{"key":"05766","name":"Lippe","type":"Kreis"},"federalState":{"key":"05","name":"Nordrhein-Westfalen"}},{"name":"Mergelweg","postalCode":"32758","locality":"Detmold","municipality":{"key":"05766020","name":"Detmold, Stadt","type":"Stadt"},"district":{"key":"05766","name":"Lippe","type":"Kreis"},"federalState":{"key":"05","name":"Nordrhein-Westfalen"}},{"name":"Michaelis-Jena-Weg","postalCode":"32756","locality":"Detmold","municipality":{"key":"05766020","name":"Detmold, Stadt","type":"Stadt"},"district":{"key":"05766","name":"Lippe","type":"Kreis"},"federalState":{"key":"05","name":"Nordrhein-Westfalen"}},{"name":"Michaelstr.","postalCode":"32756","locality":"Detmold","municipality":{"key":"05766020","name":"Detmold, Stadt","type":"Stadt"},"district":{"key":"05766","name":"Lippe","type":"Kreis"},"federalState":{"key":"05","name":"Nordrhein-Westfalen"}},{"name":"Mittelhain","postalCode":"32760","locality":"Detmold","municipality":{"key":"05766020","name":"Detmold, Stadt","type":"Stadt"},"district":{"key":"05766","name":"Lippe","type":"Kreis"},"federalState":{"key":"05","name":"Nordrhein-Westfalen"}},{"name":"Mittelstr.","postalCode":"32758","locality":"Detmold","municipality":{"key":"05766020","name":"Detmold, Stadt","type":"Stadt"},"district":{"key":"05766","name":"Lippe","type":"Kreis"},"federalState":{"key":"05","name":"Nordrhein-Westfalen"}},{"name":"Mohnweg","postalCode":"32760","locality":"Detmold","municipality":{"key":"05766020","name":"Detmold, Stadt","type":"Stadt"},"district":{"key":"05766","name":"Lippe","type":"Kreis"},"federalState":{"key":"05","name":"Nordrhein-Westfalen"}},{"name":"Mohrenkamp","postalCode":"32758","locality":"Detmold","municipality":{"key":"05766020","name":"Detmold, Stadt","type":"Stadt"},"district":{"key":"05766","name":"Lippe","type":"Kreis"},"federalState":{"key":"05","name":"Nordrhein-Westfalen"}},{"name":"Möllenweg","postalCode":"32760","locality":"Detmold","municipality":{"key":"05766020","name":"Detmold, Stadt","type":"Stadt"},"district":{"key":"05766","name":"Lippe","type":"Kreis"},"federalState":{"key":"05","name":"Nordrhein-Westfalen"}},{"name":"Moltkestr.","postalCode":"32756","locality":"Detmold","municipality":{"key":"05766020","name":"Detmold, Stadt","type":"Stadt"},"district":{"key":"05766","name":"Lippe","type":"Kreis"},"federalState":{"key":"05","name":"Nordrhein-Westfalen"}},{"name":"Monikaweg","postalCode":"32756","locality":"Detmold","municipality":{"key":"05766020","name":"Detmold, Stadt","type":"Stadt"},"district":{"key":"05766","name":"Lippe","type":"Kreis"},"federalState":{"key":"05","name":"Nordrhein-Westfalen"}},{"name":"Mönkebergweg","postalCode":"32758","locality":"Detmold","municipality":{"key":"05766020","name":"Detmold, Stadt","type":"Stadt"},"district":{"key":"05766","name":"Lippe","type":"Kreis"},"federalState":{"key":"05","name":"Nordrhein-Westfalen"}},{"name":"Moorweg","postalCode":"32758","locality":"Detmold","municipality":{"key":"05766020","name":"Detmold, Stadt","type":"Stadt"},"district":{"key":"05766","name":"Lippe","type":"Kreis"},"federalState":{"key":"05","name":"Nordrhein-Westfalen"}},{"name":"Mörikestr.","postalCode":"32758","locality":"Detmold","municipality":{"key":"05766020","name":"Detmold, Stadt","type":"Stadt"},"district":{"key":"05766","name":"Lippe","type":"Kreis"},"federalState":{"key":"05","name":"Nordrhein-Westfalen"}},{"name":"Moritz-Rülf-Str.","postalCode":"32756","locality":"Detmold","municipality":{"key":"05766020","name":"Detmold, Stadt","type":"Stadt"},"district":{"key":"05766","name":"Lippe","type":"Kreis"},"federalState":{"key":"05","name":"Nordrhein-Westfalen"}},{"name":"Mozartstr.","postalCode":"32756","locality":"Detmold","municipality":{"key":"05766020","name":"Detmold, Stadt","type":"Stadt"},"district":{"key":"05766","name":"Lippe","type":"Kreis"},"federalState":{"key":"05","name":"Nordrhein-Westfalen"}},{"name":"Mühlenbrink","postalCode":"32758","locality":"Detmold","municipality":{"key":"05766020","name":"Detmold, Stadt","type":"Stadt"},"district":{"key":"05766","name":"Lippe","type":"Kreis"},"federalState":{"key":"05","name":"Nordrhein-Westfalen"}},{"name":"Mühlenstr.","postalCode":"32756","locality":"Detmold","municipality":{"key":"05766020","name":"Detmold, Stadt","type":"Stadt"},"district":{"key":"05766","name":"Lippe","type":"Kreis"},"federalState":{"key":"05","name":"Nordrhein-Westfalen"}},{"name":"Nachtigallenweg","postalCode":"32756","locality":"Detmold","municipality":{"key":"05766020","name":"Detmold, Stadt","type":"Stadt"},"district":{"key":"05766","name":"Lippe","type":"Kreis"},"federalState":{"key":"05","name":"Nordrhein-Westfalen"}},{"name":"Naherholungsweg Gletscherschliff","postalCode":"32760","locality":"Detmold","municipality":{"key":"05766020","name":"Detmold, Stadt","type":"Stadt"},"district":{"key":"05766","name":"Lippe","type":"Kreis"},"federalState":{"key":"05","name":"Nordrhein-Westfalen"}},{"name":"Naherholungsweg Oetterbach","postalCode":"32758","locality":"Detmold","municipality":{"key":"05766020","name":"Detmold, Stadt","type":"Stadt"},"district":{"key":"05766","name":"Lippe","type":"Kreis"},"federalState":{"key":"05","name":"Nordrhein-Westfalen"}},{"name":"Naturgarten Rolfscher Hof","postalCode":"32760","locality":"Detmold","municipality":{"key":"05766020","name":"Detmold, Stadt","type":"Stadt"},"district":{"key":"05766","name":"Lippe","type":"Kreis"},"federalState":{"key":"05","name":"Nordrhein-Westfalen"}},{"name":"Neitzelweg","postalCode":"32756","locality":"Detmold","municipality":{"key":"05766020","name":"Detmold, Stadt","type":"Stadt"},"district":{"key":"05766","name":"Lippe","type":"Kreis"},"federalState":{"key":"05","name":"Nordrhein-Westfalen"}},{"name":"Neue Reihe","postalCode":"32760","locality":"Detmold","municipality":{"key":"05766020","name":"Detmold, Stadt","type":"Stadt"},"district":{"key":"05766","name":"Lippe","type":"Kreis"},"federalState":{"key":"05","name":"Nordrhein-Westfalen"}},{"name":"Neuer Weg","postalCode":"32758","locality":"Detmold","municipality":{"key":"05766020","name":"Detmold, Stadt","type":"Stadt"},"district":{"key":"05766","name":"Lippe","type":"Kreis"},"federalState":{"key":"05","name":"Nordrhein-Westfalen"}},{"name":"Neue Wiese","postalCode":"32760","locality":"Detmold","municipality":{"key":"05766020","name":"Detmold, Stadt","type":"Stadt"},"district":{"key":"05766","name":"Lippe","type":"Kreis"},"federalState":{"key":"05","name":"Nordrhein-Westfalen"}},{"name":"Neuköllner Str.","postalCode":"32760","locality":"Detmold","municipality":{"key":"05766020","name":"Detmold, Stadt","type":"Stadt"},"district":{"key":"05766","name":"Lippe","type":"Kreis"},"federalState":{"key":"05","name":"Nordrhein-Westfalen"}},{"name":"Neulandstr.","postalCode":"32758","locality":"Detmold","municipality":{"key":"05766020","name":"Detmold, Stadt","type":"Stadt"},"district":{"key":"05766","name":"Lippe","type":"Kreis"},"federalState":{"key":"05","name":"Nordrhein-Westfalen"}},{"name":"Neußer Weg","postalCode":"32758","locality":"Detmold","municipality":{"key":"05766020","name":"Detmold, Stadt","type":"Stadt"},"district":{"key":"05766","name":"Lippe","type":"Kreis"},"federalState":{"key":"05","name":"Nordrhein-Westfalen"}},{"name":"Neustadt","postalCode":"32756","locality":"Detmold","municipality":{"key":"05766020","name":"Detmold, Stadt","type":"Stadt"},"district":{"key":"05766","name":"Lippe","type":"Kreis"},"federalState":{"key":"05","name":"Nordrhein-Westfalen"}},{"name":"Nibelungenweg","postalCode":"32760","locality":"Detmold","municipality":{"key":"05766020","name":"Detmold, Stadt","type":"Stadt"},"district":{"key":"05766","name":"Lippe","type":"Kreis"},"federalState":{"key":"05","name":"Nordrhein-Westfalen"}},{"name":"Nicolaiweg","postalCode":"32756","locality":"Detmold","municipality":{"key":"05766020","name":"Detmold, Stadt","type":"Stadt"},"district":{"key":"05766","name":"Lippe","type":"Kreis"},"federalState":{"key":"05","name":"Nordrhein-Westfalen"}},{"name":"Niedernfeldweg","postalCode":"32758","locality":"Detmold","municipality":{"key":"05766020","name":"Detmold, Stadt","type":"Stadt"},"district":{"key":"05766","name":"Lippe","type":"Kreis"},"federalState":{"key":"05","name":"Nordrhein-Westfalen"}},{"name":"Niedernkampstr.","postalCode":"32758","locality":"Detmold","municipality":{"key":"05766020","name":"Detmold, Stadt","type":"Stadt"},"district":{"key":"05766","name":"Lippe","type":"Kreis"},"federalState":{"key":"05","name":"Nordrhein-Westfalen"}},{"name":"Niedersachsenstr.","postalCode":"32756","locality":"Detmold","municipality":{"key":"05766020","name":"Detmold, Stadt","type":"Stadt"},"district":{"key":"05766","name":"Lippe","type":"Kreis"},"federalState":{"key":"05","name":"Nordrhein-Westfalen"}},{"name":"Niemeierstr.","postalCode":"32758","locality":"Detmold","municipality":{"key":"05766020","name":"Detmold, Stadt","type":"Stadt"},"district":{"key":"05766","name":"Lippe","type":"Kreis"},"federalState":{"key":"05","name":"Nordrhein-Westfalen"}},{"name":"Niewaldstr.","postalCode":"32758","locality":"Detmold","municipality":{"key":"05766020","name":"Detmold, Stadt","type":"Stadt"},"district":{"key":"05766","name":"Lippe","type":"Kreis"},"federalState":{"key":"05","name":"Nordrhein-Westfalen"}},{"name":"Nordring","postalCode":"32758","locality":"Detmold","municipality":{"key":"05766020","name":"Detmold, Stadt","type":"Stadt"},"district":{"key":"05766","name":"Lippe","type":"Kreis"},"federalState":{"key":"05","name":"Nordrhein-Westfalen"}},{"name":"Nordring","postalCode":"32760","locality":"Detmold","municipality":{"key":"05766020","name":"Detmold, Stadt","type":"Stadt"},"district":{"key":"05766","name":"Lippe","type":"Kreis"},"federalState":{"key":"05","name":"Nordrhein-Westfalen"}},{"name":"Nordstr.","postalCode":"32756","locality":"Detmold","municipality":{"key":"05766020","name":"Detmold, Stadt","type":"Stadt"},"district":{"key":"05766","name":"Lippe","type":"Kreis"},"federalState":{"key":"05","name":"Nordrhein-Westfalen"}},{"name":"Nordstr.","postalCode":"32758","locality":"Detmold","municipality":{"key":"05766020","name":"Detmold, Stadt","type":"Stadt"},"district":{"key":"05766","name":"Lippe","type":"Kreis"},"federalState":{"key":"05","name":"Nordrhein-Westfalen"}},{"name":"Nullbrede","postalCode":"32760","locality":"Detmold","municipality":{"key":"05766020","name":"Detmold, Stadt","type":"Stadt"},"district":{"key":"05766","name":"Lippe","type":"Kreis"},"federalState":{"key":"05","name":"Nordrhein-Westfalen"}},{"name":"Oberer Ochsentalweg","postalCode":"32760","locality":"Detmold","municipality":{"key":"05766020","name":"Detmold, Stadt","type":"Stadt"},"district":{"key":"05766","name":"Lippe","type":"Kreis"},"federalState":{"key":"05","name":"Nordrhein-Westfalen"}},{"name":"Obere Schanze","postalCode":"32756","locality":"Detmold","municipality":{"key":"05766020","name":"Detmold, Stadt","type":"Stadt"},"district":{"key":"05766","name":"Lippe","type":"Kreis"},"federalState":{"key":"05","name":"Nordrhein-Westfalen"}},{"name":"Obere Str.","postalCode":"32756","locality":"Detmold","municipality":{"key":"05766020","name":"Detmold, Stadt","type":"Stadt"},"district":{"key":"05766","name":"Lippe","type":"Kreis"},"federalState":{"key":"05","name":"Nordrhein-Westfalen"}},{"name":"Oberloßbruch","postalCode":"32758","locality":"Detmold","municipality":{"key":"05766020","name":"Detmold, Stadt","type":"Stadt"},"district":{"key":"05766","name":"Lippe","type":"Kreis"},"federalState":{"key":"05","name":"Nordrhein-Westfalen"}},{"name":"Oberngarten","postalCode":"32758","locality":"Detmold","municipality":{"key":"05766020","name":"Detmold, Stadt","type":"Stadt"},"district":{"key":"05766","name":"Lippe","type":"Kreis"},"federalState":{"key":"05","name":"Nordrhein-Westfalen"}},{"name":"Ochsentalweg","postalCode":"32760","locality":"Detmold","municipality":{"key":"05766020","name":"Detmold, Stadt","type":"Stadt"},"district":{"key":"05766","name":"Lippe","type":"Kreis"},"federalState":{"key":"05","name":"Nordrhein-Westfalen"}},{"name":"Odermisser Str.","postalCode":"32756","locality":"Detmold","municipality":{"key":"05766020","name":"Detmold, Stadt","type":"Stadt"},"district":{"key":"05766","name":"Lippe","type":"Kreis"},"federalState":{"key":"05","name":"Nordrhein-Westfalen"}},{"name":"Oerlinghauser Str.","postalCode":"32758","locality":"Detmold","municipality":{"key":"05766020","name":"Detmold, Stadt","type":"Stadt"},"district":{"key":"05766","name":"Lippe","type":"Kreis"},"federalState":{"key":"05","name":"Nordrhein-Westfalen"}},{"name":"Oesterhausstr.","postalCode":"32756","locality":"Detmold","municipality":{"key":"05766020","name":"Detmold, Stadt","type":"Stadt"},"district":{"key":"05766","name":"Lippe","type":"Kreis"},"federalState":{"key":"05","name":"Nordrhein-Westfalen"}},{"name":"Oetternberg","postalCode":"32758","locality":"Detmold","municipality":{"key":"05766020","name":"Detmold, Stadt","type":"Stadt"},"district":{"key":"05766","name":"Lippe","type":"Kreis"},"federalState":{"key":"05","name":"Nordrhein-Westfalen"}},{"name":"Oetternstr.","postalCode":"32758","locality":"Detmold","municipality":{"key":"05766020","name":"Detmold, Stadt","type":"Stadt"},"district":{"key":"05766","name":"Lippe","type":"Kreis"},"federalState":{"key":"05","name":"Nordrhein-Westfalen"}},{"name":"Ohmstr.","postalCode":"32758","locality":"Detmold","municipality":{"key":"05766020","name":"Detmold, Stadt","type":"Stadt"},"district":{"key":"05766","name":"Lippe","type":"Kreis"},"federalState":{"key":"05","name":"Nordrhein-Westfalen"}},{"name":"Opfersteinweg","postalCode":"32760","locality":"Detmold","municipality":{"key":"05766020","name":"Detmold, Stadt","type":"Stadt"},"district":{"key":"05766","name":"Lippe","type":"Kreis"},"federalState":{"key":"05","name":"Nordrhein-Westfalen"}},{"name":"Orange Kugel","postalCode":"32756","locality":"Detmold","municipality":{"key":"05766020","name":"Detmold, Stadt","type":"Stadt"},"district":{"key":"05766","name":"Lippe","type":"Kreis"},"federalState":{"key":"05","name":"Nordrhein-Westfalen"}},{"name":"Orbker Str.","postalCode":"32758","locality":"Detmold","municipality":{"key":"05766020","name":"Detmold, Stadt","type":"Stadt"},"district":{"key":"05766","name":"Lippe","type":"Kreis"},"federalState":{"key":"05","name":"Nordrhein-Westfalen"}},{"name":"Osnabrücker Str.","postalCode":"32756","locality":"Detmold","municipality":{"key":"05766020","name":"Detmold, Stadt","type":"Stadt"},"district":{"key":"05766","name":"Lippe","type":"Kreis"},"federalState":{"key":"05","name":"Nordrhein-Westfalen"}},{"name":"Ostlandstr.","postalCode":"32760","locality":"Detmold","municipality":{"key":"05766020","name":"Detmold, Stadt","type":"Stadt"},"district":{"key":"05766","name":"Lippe","type":"Kreis"},"federalState":{"key":"05","name":"Nordrhein-Westfalen"}},{"name":"Otto-Hahn-Str.","postalCode":"32756","locality":"Detmold","municipality":{"key":"05766020","name":"Detmold, Stadt","type":"Stadt"},"district":{"key":"05766","name":"Lippe","type":"Kreis"},"federalState":{"key":"05","name":"Nordrhein-Westfalen"}},{"name":"Paderborner Str.","postalCode":"32756","locality":"Detmold","municipality":{"key":"05766020","name":"Detmold, Stadt","type":"Stadt"},"district":{"key":"05766","name":"Lippe","type":"Kreis"},"federalState":{"key":"05","name":"Nordrhein-Westfalen"}},{"name":"Paderborner Str.","postalCode":"32760","locality":"Detmold","municipality":{"key":"05766020","name":"Detmold, Stadt","type":"Stadt"},"district":{"key":"05766","name":"Lippe","type":"Kreis"},"federalState":{"key":"05","name":"Nordrhein-Westfalen"}},{"name":"Palaisgarten","postalCode":"32756","locality":"Detmold","municipality":{"key":"05766020","name":"Detmold, Stadt","type":"Stadt"},"district":{"key":"05766","name":"Lippe","type":"Kreis"},"federalState":{"key":"05","name":"Nordrhein-Westfalen"}},{"name":"Palaisstr.","postalCode":"32756","locality":"Detmold","municipality":{"key":"05766020","name":"Detmold, Stadt","type":"Stadt"},"district":{"key":"05766","name":"Lippe","type":"Kreis"},"federalState":{"key":"05","name":"Nordrhein-Westfalen"}},{"name":"Papenbergweg","postalCode":"32756","locality":"Detmold","municipality":{"key":"05766020","name":"Detmold, Stadt","type":"Stadt"},"district":{"key":"05766","name":"Lippe","type":"Kreis"},"federalState":{"key":"05","name":"Nordrhein-Westfalen"}},{"name":"Papenmeierstr.","postalCode":"32758","locality":"Detmold","municipality":{"key":"05766020","name":"Detmold, Stadt","type":"Stadt"},"district":{"key":"05766","name":"Lippe","type":"Kreis"},"federalState":{"key":"05","name":"Nordrhein-Westfalen"}},{"name":"Pappelweg","postalCode":"32758","locality":"Detmold","municipality":{"key":"05766020","name":"Detmold, Stadt","type":"Stadt"},"district":{"key":"05766","name":"Lippe","type":"Kreis"},"federalState":{"key":"05","name":"Nordrhein-Westfalen"}},{"name":"Parkanlage Werre Ufer","postalCode":"32756","locality":"Detmold","municipality":{"key":"05766020","name":"Detmold, Stadt","type":"Stadt"},"district":{"key":"05766","name":"Lippe","type":"Kreis"},"federalState":{"key":"05","name":"Nordrhein-Westfalen"}},{"name":"Parklandschaft Friedrichstal","postalCode":"32756","locality":"Detmold","municipality":{"key":"05766020","name":"Detmold, Stadt","type":"Stadt"},"district":{"key":"05766","name":"Lippe","type":"Kreis"},"federalState":{"key":"05","name":"Nordrhein-Westfalen"}},{"name":"Parkstreifen Wallgraben","postalCode":"32756","locality":"Detmold","municipality":{"key":"05766020","name":"Detmold, Stadt","type":"Stadt"},"district":{"key":"05766","name":"Lippe","type":"Kreis"},"federalState":{"key":"05","name":"Nordrhein-Westfalen"}},{"name":"Parkweg","postalCode":"32756","locality":"Detmold","municipality":{"key":"05766020","name":"Detmold, Stadt","type":"Stadt"},"district":{"key":"05766","name":"Lippe","type":"Kreis"},"federalState":{"key":"05","name":"Nordrhein-Westfalen"}},{"name":"Passadestr.","postalCode":"32758","locality":"Detmold","municipality":{"key":"05766020","name":"Detmold, Stadt","type":"Stadt"},"district":{"key":"05766","name":"Lippe","type":"Kreis"},"federalState":{"key":"05","name":"Nordrhein-Westfalen"}},{"name":"Paulinenstr.","postalCode":"32756","locality":"Detmold","municipality":{"key":"05766020","name":"Detmold, Stadt","type":"Stadt"},"district":{"key":"05766","name":"Lippe","type":"Kreis"},"federalState":{"key":"05","name":"Nordrhein-Westfalen"}},{"name":"Paul-Nipkow-Weg","postalCode":"32760","locality":"Detmold","municipality":{"key":"05766020","name":"Detmold, Stadt","type":"Stadt"},"district":{"key":"05766","name":"Lippe","type":"Kreis"},"federalState":{"key":"05","name":"Nordrhein-Westfalen"}},{"name":"Peckenweg","postalCode":"32758","locality":"Detmold","municipality":{"key":"05766020","name":"Detmold, Stadt","type":"Stadt"},"district":{"key":"05766","name":"Lippe","type":"Kreis"},"federalState":{"key":"05","name":"Nordrhein-Westfalen"}},{"name":"Pestalozzistr.","postalCode":"32760","locality":"Detmold","municipality":{"key":"05766020","name":"Detmold, Stadt","type":"Stadt"},"district":{"key":"05766","name":"Lippe","type":"Kreis"},"federalState":{"key":"05","name":"Nordrhein-Westfalen"}},{"name":"Peterstieg","postalCode":"32760","locality":"Detmold","municipality":{"key":"05766020","name":"Detmold, Stadt","type":"Stadt"},"district":{"key":"05766","name":"Lippe","type":"Kreis"},"federalState":{"key":"05","name":"Nordrhein-Westfalen"}},{"name":"Petristr.","postalCode":"32756","locality":"Detmold","municipality":{"key":"05766020","name":"Detmold, Stadt","type":"Stadt"},"district":{"key":"05766","name":"Lippe","type":"Kreis"},"federalState":{"key":"05","name":"Nordrhein-Westfalen"}},{"name":"Picknickwiese","postalCode":"32760","locality":"Detmold","municipality":{"key":"05766020","name":"Detmold, Stadt","type":"Stadt"},"district":{"key":"05766","name":"Lippe","type":"Kreis"},"federalState":{"key":"05","name":"Nordrhein-Westfalen"}},{"name":"Pieningsheide","postalCode":"32758","locality":"Detmold","municipality":{"key":"05766020","name":"Detmold, Stadt","type":"Stadt"},"district":{"key":"05766","name":"Lippe","type":"Kreis"},"federalState":{"key":"05","name":"Nordrhein-Westfalen"}},{"name":"Pieperweg","postalCode":"32756","locality":"Detmold","municipality":{"key":"05766020","name":"Detmold, Stadt","type":"Stadt"},"district":{"key":"05766","name":"Lippe","type":"Kreis"},"federalState":{"key":"05","name":"Nordrhein-Westfalen"}},{"name":"Pinneichenstr.","postalCode":"32756","locality":"Detmold","municipality":{"key":"05766020","name":"Detmold, Stadt","type":"Stadt"},"district":{"key":"05766","name":"Lippe","type":"Kreis"},"federalState":{"key":"05","name":"Nordrhein-Westfalen"}},{"name":"Pivitsheider Str.","postalCode":"32758","locality":"Detmold","municipality":{"key":"05766020","name":"Detmold, Stadt","type":"Stadt"},"district":{"key":"05766","name":"Lippe","type":"Kreis"},"federalState":{"key":"05","name":"Nordrhein-Westfalen"}},{"name":"Plantagenweg","postalCode":"32758","locality":"Detmold","municipality":{"key":"05766020","name":"Detmold, Stadt","type":"Stadt"},"district":{"key":"05766","name":"Lippe","type":"Kreis"},"federalState":{"key":"05","name":"Nordrhein-Westfalen"}},{"name":"Plögerkamp","postalCode":"32760","locality":"Detmold","municipality":{"key":"05766020","name":"Detmold, Stadt","type":"Stadt"},"district":{"key":"05766","name":"Lippe","type":"Kreis"},"federalState":{"key":"05","name":"Nordrhein-Westfalen"}},{"name":"Poggenpohl","postalCode":"32758","locality":"Detmold","municipality":{"key":"05766020","name":"Detmold, Stadt","type":"Stadt"},"district":{"key":"05766","name":"Lippe","type":"Kreis"},"federalState":{"key":"05","name":"Nordrhein-Westfalen"}},{"name":"Poppenbrede","postalCode":"32756","locality":"Detmold","municipality":{"key":"05766020","name":"Detmold, Stadt","type":"Stadt"},"district":{"key":"05766","name":"Lippe","type":"Kreis"},"federalState":{"key":"05","name":"Nordrhein-Westfalen"}},{"name":"Poppenbrede","postalCode":"32758","locality":"Detmold","municipality":{"key":"05766020","name":"Detmold, Stadt","type":"Stadt"},"district":{"key":"05766","name":"Lippe","type":"Kreis"},"federalState":{"key":"05","name":"Nordrhein-Westfalen"}},{"name":"Pöppinghauser Str.","postalCode":"32756","locality":"Detmold","municipality":{"key":"05766020","name":"Detmold, Stadt","type":"Stadt"},"district":{"key":"05766","name":"Lippe","type":"Kreis"},"federalState":{"key":"05","name":"Nordrhein-Westfalen"}},{"name":"Poststr.","postalCode":"32758","locality":"Detmold","municipality":{"key":"05766020","name":"Detmold, Stadt","type":"Stadt"},"district":{"key":"05766","name":"Lippe","type":"Kreis"},"federalState":{"key":"05","name":"Nordrhein-Westfalen"}},{"name":"Postteichweg","postalCode":"32758","locality":"Detmold","municipality":{"key":"05766020","name":"Detmold, Stadt","type":"Stadt"},"district":{"key":"05766","name":"Lippe","type":"Kreis"},"federalState":{"key":"05","name":"Nordrhein-Westfalen"}},{"name":"Potsdamer Str.","postalCode":"32756","locality":"Detmold","municipality":{"key":"05766020","name":"Detmold, Stadt","type":"Stadt"},"district":{"key":"05766","name":"Lippe","type":"Kreis"},"federalState":{"key":"05","name":"Nordrhein-Westfalen"}},{"name":"Primelweg","postalCode":"32760","locality":"Detmold","municipality":{"key":"05766020","name":"Detmold, Stadt","type":"Stadt"},"district":{"key":"05766","name":"Lippe","type":"Kreis"},"federalState":{"key":"05","name":"Nordrhein-Westfalen"}},{"name":"Prinzenweg","postalCode":"32758","locality":"Detmold","municipality":{"key":"05766020","name":"Detmold, Stadt","type":"Stadt"},"district":{"key":"05766","name":"Lippe","type":"Kreis"},"federalState":{"key":"05","name":"Nordrhein-Westfalen"}},{"name":"Pulverweg","postalCode":"32760","locality":"Detmold","municipality":{"key":"05766020","name":"Detmold, Stadt","type":"Stadt"},"district":{"key":"05766","name":"Lippe","type":"Kreis"},"federalState":{"key":"05","name":"Nordrhein-Westfalen"}},{"name":"Quellenstr.","postalCode":"32758","locality":"Detmold","municipality":{"key":"05766020","name":"Detmold, Stadt","type":"Stadt"},"district":{"key":"05766","name":"Lippe","type":"Kreis"},"federalState":{"key":"05","name":"Nordrhein-Westfalen"}},{"name":"Rainstr.","postalCode":"32760","locality":"Detmold","municipality":{"key":"05766020","name":"Detmold, Stadt","type":"Stadt"},"district":{"key":"05766","name":"Lippe","type":"Kreis"},"federalState":{"key":"05","name":"Nordrhein-Westfalen"}},{"name":"Rautenweg","postalCode":"32760","locality":"Detmold","municipality":{"key":"05766020","name":"Detmold, Stadt","type":"Stadt"},"district":{"key":"05766","name":"Lippe","type":"Kreis"},"federalState":{"key":"05","name":"Nordrhein-Westfalen"}},{"name":"Refers Siek","postalCode":"32760","locality":"Detmold","municipality":{"key":"05766020","name":"Detmold, Stadt","type":"Stadt"},"district":{"key":"05766","name":"Lippe","type":"Kreis"},"federalState":{"key":"05","name":"Nordrhein-Westfalen"}},{"name":"Refertrift","postalCode":"32760","locality":"Detmold","municipality":{"key":"05766020","name":"Detmold, Stadt","type":"Stadt"},"district":{"key":"05766","name":"Lippe","type":"Kreis"},"federalState":{"key":"05","name":"Nordrhein-Westfalen"}},{"name":"Regenbogenweg","postalCode":"32760","locality":"Detmold","municipality":{"key":"05766020","name":"Detmold, Stadt","type":"Stadt"},"district":{"key":"05766","name":"Lippe","type":"Kreis"},"federalState":{"key":"05","name":"Nordrhein-Westfalen"}},{"name":"Reiherweg","postalCode":"32758","locality":"Detmold","municipality":{"key":"05766020","name":"Detmold, Stadt","type":"Stadt"},"district":{"key":"05766","name":"Lippe","type":"Kreis"},"federalState":{"key":"05","name":"Nordrhein-Westfalen"}},{"name":"Rektenstr.","postalCode":"32758","locality":"Detmold","municipality":{"key":"05766020","name":"Detmold, Stadt","type":"Stadt"},"district":{"key":"05766","name":"Lippe","type":"Kreis"},"federalState":{"key":"05","name":"Nordrhein-Westfalen"}},{"name":"Remmighauser Str.","postalCode":"32758","locality":"Detmold","municipality":{"key":"05766020","name":"Detmold, Stadt","type":"Stadt"},"district":{"key":"05766","name":"Lippe","type":"Kreis"},"federalState":{"key":"05","name":"Nordrhein-Westfalen"}},{"name":"Remmighauser Str.","postalCode":"32760","locality":"Detmold","municipality":{"key":"05766020","name":"Detmold, Stadt","type":"Stadt"},"district":{"key":"05766","name":"Lippe","type":"Kreis"},"federalState":{"key":"05","name":"Nordrhein-Westfalen"}},{"name":"Rethlager Weg","postalCode":"32758","locality":"Detmold","municipality":{"key":"05766020","name":"Detmold, Stadt","type":"Stadt"},"district":{"key":"05766","name":"Lippe","type":"Kreis"},"federalState":{"key":"05","name":"Nordrhein-Westfalen"}},{"name":"Reuterpfad","postalCode":"32760","locality":"Detmold","municipality":{"key":"05766020","name":"Detmold, Stadt","type":"Stadt"},"district":{"key":"05766","name":"Lippe","type":"Kreis"},"federalState":{"key":"05","name":"Nordrhein-Westfalen"}},{"name":"Rhönweg","postalCode":"32760","locality":"Detmold","municipality":{"key":"05766020","name":"Detmold, Stadt","type":"Stadt"},"district":{"key":"05766","name":"Lippe","type":"Kreis"},"federalState":{"key":"05","name":"Nordrhein-Westfalen"}},{"name":"Richard-Moes-Str.","postalCode":"32758","locality":"Detmold","municipality":{"key":"05766020","name":"Detmold, Stadt","type":"Stadt"},"district":{"key":"05766","name":"Lippe","type":"Kreis"},"federalState":{"key":"05","name":"Nordrhein-Westfalen"}},{"name":"Richard-Thiemann-Str.","postalCode":"32760","locality":"Detmold","municipality":{"key":"05766020","name":"Detmold, Stadt","type":"Stadt"},"district":{"key":"05766","name":"Lippe","type":"Kreis"},"federalState":{"key":"05","name":"Nordrhein-Westfalen"}},{"name":"Richard-Wagner-Str.","postalCode":"32756","locality":"Detmold","municipality":{"key":"05766020","name":"Detmold, Stadt","type":"Stadt"},"district":{"key":"05766","name":"Lippe","type":"Kreis"},"federalState":{"key":"05","name":"Nordrhein-Westfalen"}},{"name":"Richthofenstr.","postalCode":"32756","locality":"Detmold","municipality":{"key":"05766020","name":"Detmold, Stadt","type":"Stadt"},"district":{"key":"05766","name":"Lippe","type":"Kreis"},"federalState":{"key":"05","name":"Nordrhein-Westfalen"}},{"name":"Rilkestr.","postalCode":"32758","locality":"Detmold","municipality":{"key":"05766020","name":"Detmold, Stadt","type":"Stadt"},"district":{"key":"05766","name":"Lippe","type":"Kreis"},"federalState":{"key":"05","name":"Nordrhein-Westfalen"}},{"name":"Rittergutsweg","postalCode":"32760","locality":"Detmold","municipality":{"key":"05766020","name":"Detmold, Stadt","type":"Stadt"},"district":{"key":"05766","name":"Lippe","type":"Kreis"},"federalState":{"key":"05","name":"Nordrhein-Westfalen"}},{"name":"Robert-Koch-Str.","postalCode":"32756","locality":"Detmold","municipality":{"key":"05766020","name":"Detmold, Stadt","type":"Stadt"},"district":{"key":"05766","name":"Lippe","type":"Kreis"},"federalState":{"key":"05","name":"Nordrhein-Westfalen"}},{"name":"Robert-Kronfeld-Str.","postalCode":"32756","locality":"Detmold","municipality":{"key":"05766020","name":"Detmold, Stadt","type":"Stadt"},"district":{"key":"05766","name":"Lippe","type":"Kreis"},"federalState":{"key":"05","name":"Nordrhein-Westfalen"}},{"name":"Rödlinghauser Str.","postalCode":"32760","locality":"Detmold","municipality":{"key":"05766020","name":"Detmold, Stadt","type":"Stadt"},"district":{"key":"05766","name":"Lippe","type":"Kreis"},"federalState":{"key":"05","name":"Nordrhein-Westfalen"}},{"name":"Römerweg","postalCode":"32760","locality":"Detmold","municipality":{"key":"05766020","name":"Detmold, Stadt","type":"Stadt"},"district":{"key":"05766","name":"Lippe","type":"Kreis"},"federalState":{"key":"05","name":"Nordrhein-Westfalen"}},{"name":"Röntgenstr.","postalCode":"32756","locality":"Detmold","municipality":{"key":"05766020","name":"Detmold, Stadt","type":"Stadt"},"district":{"key":"05766","name":"Lippe","type":"Kreis"},"federalState":{"key":"05","name":"Nordrhein-Westfalen"}},{"name":"Rosengarten","postalCode":"32756","locality":"Detmold","municipality":{"key":"05766020","name":"Detmold, Stadt","type":"Stadt"},"district":{"key":"05766","name":"Lippe","type":"Kreis"},"federalState":{"key":"05","name":"Nordrhein-Westfalen"}},{"name":"Rosengarten","postalCode":"32760","locality":"Detmold","municipality":{"key":"05766020","name":"Detmold, Stadt","type":"Stadt"},"district":{"key":"05766","name":"Lippe","type":"Kreis"},"federalState":{"key":"05","name":"Nordrhein-Westfalen"}},{"name":"Rosenkamp","postalCode":"32760","locality":"Detmold","municipality":{"key":"05766020","name":"Detmold, Stadt","type":"Stadt"},"district":{"key":"05766","name":"Lippe","type":"Kreis"},"federalState":{"key":"05","name":"Nordrhein-Westfalen"}},{"name":"Rosenstr.","postalCode":"32756","locality":"Detmold","municipality":{"key":"05766020","name":"Detmold, Stadt","type":"Stadt"},"district":{"key":"05766","name":"Lippe","type":"Kreis"},"federalState":{"key":"05","name":"Nordrhein-Westfalen"}},{"name":"Rosental","postalCode":"32756","locality":"Detmold","municipality":{"key":"05766020","name":"Detmold, Stadt","type":"Stadt"},"district":{"key":"05766","name":"Lippe","type":"Kreis"},"federalState":{"key":"05","name":"Nordrhein-Westfalen"}},{"name":"Rostocker Weg","postalCode":"32756","locality":"Detmold","municipality":{"key":"05766020","name":"Detmold, Stadt","type":"Stadt"},"district":{"key":"05766","name":"Lippe","type":"Kreis"},"federalState":{"key":"05","name":"Nordrhein-Westfalen"}},{"name":"Rotdornweg","postalCode":"32760","locality":"Detmold","municipality":{"key":"05766020","name":"Detmold, Stadt","type":"Stadt"},"district":{"key":"05766","name":"Lippe","type":"Kreis"},"federalState":{"key":"05","name":"Nordrhein-Westfalen"}},{"name":"Rötkersiek","postalCode":"32760","locality":"Detmold","municipality":{"key":"05766020","name":"Detmold, Stadt","type":"Stadt"},"district":{"key":"05766","name":"Lippe","type":"Kreis"},"federalState":{"key":"05","name":"Nordrhein-Westfalen"}},{"name":"Runenweg","postalCode":"32758","locality":"Detmold","municipality":{"key":"05766020","name":"Detmold, Stadt","type":"Stadt"},"district":{"key":"05766","name":"Lippe","type":"Kreis"},"federalState":{"key":"05","name":"Nordrhein-Westfalen"}},{"name":"Saarstr.","postalCode":"32756","locality":"Detmold","municipality":{"key":"05766020","name":"Detmold, Stadt","type":"Stadt"},"district":{"key":"05766","name":"Lippe","type":"Kreis"},"federalState":{"key":"05","name":"Nordrhein-Westfalen"}},{"name":"Sachsenstr.","postalCode":"32756","locality":"Detmold","municipality":{"key":"05766020","name":"Detmold, Stadt","type":"Stadt"},"district":{"key":"05766","name":"Lippe","type":"Kreis"},"federalState":{"key":"05","name":"Nordrhein-Westfalen"}},{"name":"Saganer Str.","postalCode":"32756","locality":"Detmold","municipality":{"key":"05766020","name":"Detmold, Stadt","type":"Stadt"},"district":{"key":"05766","name":"Lippe","type":"Kreis"},"federalState":{"key":"05","name":"Nordrhein-Westfalen"}},{"name":"Sandstr.","postalCode":"32758","locality":"Detmold","municipality":{"key":"05766020","name":"Detmold, Stadt","type":"Stadt"},"district":{"key":"05766","name":"Lippe","type":"Kreis"},"federalState":{"key":"05","name":"Nordrhein-Westfalen"}},{"name":"Sandwiesenweg","postalCode":"32758","locality":"Detmold","municipality":{"key":"05766020","name":"Detmold, Stadt","type":"Stadt"},"district":{"key":"05766","name":"Lippe","type":"Kreis"},"federalState":{"key":"05","name":"Nordrhein-Westfalen"}},{"name":"Sängerweg","postalCode":"32758","locality":"Detmold","municipality":{"key":"05766020","name":"Detmold, Stadt","type":"Stadt"},"district":{"key":"05766","name":"Lippe","type":"Kreis"},"federalState":{"key":"05","name":"Nordrhein-Westfalen"}},{"name":"Sängerweg","postalCode":"32760","locality":"Detmold","municipality":{"key":"05766020","name":"Detmold, Stadt","type":"Stadt"},"district":{"key":"05766","name":"Lippe","type":"Kreis"},"federalState":{"key":"05","name":"Nordrhein-Westfalen"}},{"name":"Schäferweg","postalCode":"32758","locality":"Detmold","municipality":{"key":"05766020","name":"Detmold, Stadt","type":"Stadt"},"district":{"key":"05766","name":"Lippe","type":"Kreis"},"federalState":{"key":"05","name":"Nordrhein-Westfalen"}},{"name":"Schau Ins Land","postalCode":"32760","locality":"Detmold","municipality":{"key":"05766020","name":"Detmold, Stadt","type":"Stadt"},"district":{"key":"05766","name":"Lippe","type":"Kreis"},"federalState":{"key":"05","name":"Nordrhein-Westfalen"}},{"name":"Schillerstr.","postalCode":"32756","locality":"Detmold","municipality":{"key":"05766020","name":"Detmold, Stadt","type":"Stadt"},"district":{"key":"05766","name":"Lippe","type":"Kreis"},"federalState":{"key":"05","name":"Nordrhein-Westfalen"}},{"name":"Schirrmannstr.","postalCode":"32756","locality":"Detmold","municipality":{"key":"05766020","name":"Detmold, Stadt","type":"Stadt"},"district":{"key":"05766","name":"Lippe","type":"Kreis"},"federalState":{"key":"05","name":"Nordrhein-Westfalen"}},{"name":"Schlabrendorffweg","postalCode":"32756","locality":"Detmold","municipality":{"key":"05766020","name":"Detmold, Stadt","type":"Stadt"},"district":{"key":"05766","name":"Lippe","type":"Kreis"},"federalState":{"key":"05","name":"Nordrhein-Westfalen"}},{"name":"Schlehenweg","postalCode":"32760","locality":"Detmold","municipality":{"key":"05766020","name":"Detmold, Stadt","type":"Stadt"},"district":{"key":"05766","name":"Lippe","type":"Kreis"},"federalState":{"key":"05","name":"Nordrhein-Westfalen"}},{"name":"Schlesierhöhe","postalCode":"32756","locality":"Detmold","municipality":{"key":"05766020","name":"Detmold, Stadt","type":"Stadt"},"district":{"key":"05766","name":"Lippe","type":"Kreis"},"federalState":{"key":"05","name":"Nordrhein-Westfalen"}},{"name":"Schlingenbusch","postalCode":"32758","locality":"Detmold","municipality":{"key":"05766020","name":"Detmold, Stadt","type":"Stadt"},"district":{"key":"05766","name":"Lippe","type":"Kreis"},"federalState":{"key":"05","name":"Nordrhein-Westfalen"}},{"name":"Schloßplatz","postalCode":"32756","locality":"Detmold","municipality":{"key":"05766020","name":"Detmold, Stadt","type":"Stadt"},"district":{"key":"05766","name":"Lippe","type":"Kreis"},"federalState":{"key":"05","name":"Nordrhein-Westfalen"}},{"name":"Schlüterweg","postalCode":"32758","locality":"Detmold","municipality":{"key":"05766020","name":"Detmold, Stadt","type":"Stadt"},"district":{"key":"05766","name":"Lippe","type":"Kreis"},"federalState":{"key":"05","name":"Nordrhein-Westfalen"}},{"name":"Schmaler Weg","postalCode":"32760","locality":"Detmold","municipality":{"key":"05766020","name":"Detmold, Stadt","type":"Stadt"},"district":{"key":"05766","name":"Lippe","type":"Kreis"},"federalState":{"key":"05","name":"Nordrhein-Westfalen"}},{"name":"Schmiedestr.","postalCode":"32758","locality":"Detmold","municipality":{"key":"05766020","name":"Detmold, Stadt","type":"Stadt"},"district":{"key":"05766","name":"Lippe","type":"Kreis"},"federalState":{"key":"05","name":"Nordrhein-Westfalen"}},{"name":"Schmiedeweg","postalCode":"32760","locality":"Detmold","municipality":{"key":"05766020","name":"Detmold, Stadt","type":"Stadt"},"district":{"key":"05766","name":"Lippe","type":"Kreis"},"federalState":{"key":"05","name":"Nordrhein-Westfalen"}},{"name":"Schnatstr.","postalCode":"32760","locality":"Detmold","municipality":{"key":"05766020","name":"Detmold, Stadt","type":"Stadt"},"district":{"key":"05766","name":"Lippe","type":"Kreis"},"federalState":{"key":"05","name":"Nordrhein-Westfalen"}},{"name":"Schneiderweg","postalCode":"32760","locality":"Detmold","municipality":{"key":"05766020","name":"Detmold, Stadt","type":"Stadt"},"district":{"key":"05766","name":"Lippe","type":"Kreis"},"federalState":{"key":"05","name":"Nordrhein-Westfalen"}},{"name":"Schorenstr.","postalCode":"32756","locality":"Detmold","municipality":{"key":"05766020","name":"Detmold, Stadt","type":"Stadt"},"district":{"key":"05766","name":"Lippe","type":"Kreis"},"federalState":{"key":"05","name":"Nordrhein-Westfalen"}},{"name":"Schröderweg","postalCode":"32760","locality":"Detmold","municipality":{"key":"05766020","name":"Detmold, Stadt","type":"Stadt"},"district":{"key":"05766","name":"Lippe","type":"Kreis"},"federalState":{"key":"05","name":"Nordrhein-Westfalen"}},{"name":"Schubertplatz","postalCode":"32756","locality":"Detmold","municipality":{"key":"05766020","name":"Detmold, Stadt","type":"Stadt"},"district":{"key":"05766","name":"Lippe","type":"Kreis"},"federalState":{"key":"05","name":"Nordrhein-Westfalen"}},{"name":"Schülerstr.","postalCode":"32756","locality":"Detmold","municipality":{"key":"05766020","name":"Detmold, Stadt","type":"Stadt"},"district":{"key":"05766","name":"Lippe","type":"Kreis"},"federalState":{"key":"05","name":"Nordrhein-Westfalen"}},{"name":"Schulfichtenweg","postalCode":"32760","locality":"Detmold","municipality":{"key":"05766020","name":"Detmold, Stadt","type":"Stadt"},"district":{"key":"05766","name":"Lippe","type":"Kreis"},"federalState":{"key":"05","name":"Nordrhein-Westfalen"}},{"name":"Schumannstr.","postalCode":"32756","locality":"Detmold","municipality":{"key":"05766020","name":"Detmold, Stadt","type":"Stadt"},"district":{"key":"05766","name":"Lippe","type":"Kreis"},"federalState":{"key":"05","name":"Nordrhein-Westfalen"}},{"name":"Schützenberg","postalCode":"32756","locality":"Detmold","municipality":{"key":"05766020","name":"Detmold, Stadt","type":"Stadt"},"district":{"key":"05766","name":"Lippe","type":"Kreis"},"federalState":{"key":"05","name":"Nordrhein-Westfalen"}},{"name":"Schützentwete","postalCode":"32756","locality":"Detmold","municipality":{"key":"05766020","name":"Detmold, Stadt","type":"Stadt"},"district":{"key":"05766","name":"Lippe","type":"Kreis"},"federalState":{"key":"05","name":"Nordrhein-Westfalen"}},{"name":"Schwalbenweg","postalCode":"32760","locality":"Detmold","municipality":{"key":"05766020","name":"Detmold, Stadt","type":"Stadt"},"district":{"key":"05766","name":"Lippe","type":"Kreis"},"federalState":{"key":"05","name":"Nordrhein-Westfalen"}},{"name":"Schwanoldstr.","postalCode":"32760","locality":"Detmold","municipality":{"key":"05766020","name":"Detmold, Stadt","type":"Stadt"},"district":{"key":"05766","name":"Lippe","type":"Kreis"},"federalState":{"key":"05","name":"Nordrhein-Westfalen"}},{"name":"Schwarzenbrinker Str.","postalCode":"32758","locality":"Detmold","municipality":{"key":"05766020","name":"Detmold, Stadt","type":"Stadt"},"district":{"key":"05766","name":"Lippe","type":"Kreis"},"federalState":{"key":"05","name":"Nordrhein-Westfalen"}},{"name":"Schwarzer Weg","postalCode":"32760","locality":"Detmold","municipality":{"key":"05766020","name":"Detmold, Stadt","type":"Stadt"},"district":{"key":"05766","name":"Lippe","type":"Kreis"},"federalState":{"key":"05","name":"Nordrhein-Westfalen"}},{"name":"Sedanstr.","postalCode":"32756","locality":"Detmold","municipality":{"key":"05766020","name":"Detmold, Stadt","type":"Stadt"},"district":{"key":"05766","name":"Lippe","type":"Kreis"},"federalState":{"key":"05","name":"Nordrhein-Westfalen"}},{"name":"Seminarstr.","postalCode":"32756","locality":"Detmold","municipality":{"key":"05766020","name":"Detmold, Stadt","type":"Stadt"},"district":{"key":"05766","name":"Lippe","type":"Kreis"},"federalState":{"key":"05","name":"Nordrhein-Westfalen"}},{"name":"Sentaweg","postalCode":"32756","locality":"Detmold","municipality":{"key":"05766020","name":"Detmold, Stadt","type":"Stadt"},"district":{"key":"05766","name":"Lippe","type":"Kreis"},"federalState":{"key":"05","name":"Nordrhein-Westfalen"}},{"name":"Sichterheidestr.","postalCode":"32758","locality":"Detmold","municipality":{"key":"05766020","name":"Detmold, Stadt","type":"Stadt"},"district":{"key":"05766","name":"Lippe","type":"Kreis"},"federalState":{"key":"05","name":"Nordrhein-Westfalen"}},{"name":"Sichterwiese","postalCode":"32758","locality":"Detmold","municipality":{"key":"05766020","name":"Detmold, Stadt","type":"Stadt"},"district":{"key":"05766","name":"Lippe","type":"Kreis"},"federalState":{"key":"05","name":"Nordrhein-Westfalen"}},{"name":"Siegfriedstr.","postalCode":"32756","locality":"Detmold","municipality":{"key":"05766020","name":"Detmold, Stadt","type":"Stadt"},"district":{"key":"05766","name":"Lippe","type":"Kreis"},"federalState":{"key":"05","name":"Nordrhein-Westfalen"}},{"name":"Siegfriedstr.","postalCode":"32758","locality":"Detmold","municipality":{"key":"05766020","name":"Detmold, Stadt","type":"Stadt"},"district":{"key":"05766","name":"Lippe","type":"Kreis"},"federalState":{"key":"05","name":"Nordrhein-Westfalen"}},{"name":"Siekhammer","postalCode":"32758","locality":"Detmold","municipality":{"key":"05766020","name":"Detmold, Stadt","type":"Stadt"},"district":{"key":"05766","name":"Lippe","type":"Kreis"},"federalState":{"key":"05","name":"Nordrhein-Westfalen"}},{"name":"Siekswiese","postalCode":"32760","locality":"Detmold","municipality":{"key":"05766020","name":"Detmold, Stadt","type":"Stadt"},"district":{"key":"05766","name":"Lippe","type":"Kreis"},"federalState":{"key":"05","name":"Nordrhein-Westfalen"}},{"name":"Silberweg","postalCode":"32758","locality":"Detmold","municipality":{"key":"05766020","name":"Detmold, Stadt","type":"Stadt"},"district":{"key":"05766","name":"Lippe","type":"Kreis"},"federalState":{"key":"05","name":"Nordrhein-Westfalen"}},{"name":"Simon-August-Str.","postalCode":"32756","locality":"Detmold","municipality":{"key":"05766020","name":"Detmold, Stadt","type":"Stadt"},"district":{"key":"05766","name":"Lippe","type":"Kreis"},"federalState":{"key":"05","name":"Nordrhein-Westfalen"}},{"name":"Simonshöhe","postalCode":"32760","locality":"Detmold","municipality":{"key":"05766020","name":"Detmold, Stadt","type":"Stadt"},"district":{"key":"05766","name":"Lippe","type":"Kreis"},"federalState":{"key":"05","name":"Nordrhein-Westfalen"}},{"name":"Sofienstr.","postalCode":"32756","locality":"Detmold","municipality":{"key":"05766020","name":"Detmold, Stadt","type":"Stadt"},"district":{"key":"05766","name":"Lippe","type":"Kreis"},"federalState":{"key":"05","name":"Nordrhein-Westfalen"}},{"name":"Sonnenanger","postalCode":"32760","locality":"Detmold","municipality":{"key":"05766020","name":"Detmold, Stadt","type":"Stadt"},"district":{"key":"05766","name":"Lippe","type":"Kreis"},"federalState":{"key":"05","name":"Nordrhein-Westfalen"}},{"name":"Sonnenhügel","postalCode":"32756","locality":"Detmold","municipality":{"key":"05766020","name":"Detmold, Stadt","type":"Stadt"},"district":{"key":"05766","name":"Lippe","type":"Kreis"},"federalState":{"key":"05","name":"Nordrhein-Westfalen"}},{"name":"Sperberweg","postalCode":"32760","locality":"Detmold","municipality":{"key":"05766020","name":"Detmold, Stadt","type":"Stadt"},"district":{"key":"05766","name":"Lippe","type":"Kreis"},"federalState":{"key":"05","name":"Nordrhein-Westfalen"}},{"name":"Talstr.","postalCode":"32760","locality":"Detmold","municipality":{"key":"05766020","name":"Detmold, Stadt","type":"Stadt"},"district":{"key":"05766","name":"Lippe","type":"Kreis"},"federalState":{"key":"05","name":"Nordrhein-Westfalen"}},{"name":"Tamaris-Str.","postalCode":"32758","locality":"Detmold","municipality":{"key":"05766020","name":"Detmold, Stadt","type":"Stadt"},"district":{"key":"05766","name":"Lippe","type":"Kreis"},"federalState":{"key":"05","name":"Nordrhein-Westfalen"}},{"name":"Tannenstr.","postalCode":"32760","locality":"Detmold","municipality":{"key":"05766020","name":"Detmold, Stadt","type":"Stadt"},"district":{"key":"05766","name":"Lippe","type":"Kreis"},"federalState":{"key":"05","name":"Nordrhein-Westfalen"}},{"name":"Taubenweg","postalCode":"32760","locality":"Detmold","municipality":{"key":"05766020","name":"Detmold, Stadt","type":"Stadt"},"district":{"key":"05766","name":"Lippe","type":"Kreis"},"federalState":{"key":"05","name":"Nordrhein-Westfalen"}},{"name":"Teichstr.","postalCode":"32756","locality":"Detmold","municipality":{"key":"05766020","name":"Detmold, Stadt","type":"Stadt"},"district":{"key":"05766","name":"Lippe","type":"Kreis"},"federalState":{"key":"05","name":"Nordrhein-Westfalen"}},{"name":"Teichstr.","postalCode":"32758","locality":"Detmold","municipality":{"key":"05766020","name":"Detmold, Stadt","type":"Stadt"},"district":{"key":"05766","name":"Lippe","type":"Kreis"},"federalState":{"key":"05","name":"Nordrhein-Westfalen"}},{"name":"Temdestr.","postalCode":"32756","locality":"Detmold","municipality":{"key":"05766020","name":"Detmold, Stadt","type":"Stadt"},"district":{"key":"05766","name":"Lippe","type":"Kreis"},"federalState":{"key":"05","name":"Nordrhein-Westfalen"}},{"name":"Tempelgrundweg","postalCode":"32760","locality":"Detmold","municipality":{"key":"05766020","name":"Detmold, Stadt","type":"Stadt"},"district":{"key":"05766","name":"Lippe","type":"Kreis"},"federalState":{"key":"05","name":"Nordrhein-Westfalen"}},{"name":"Teutholzweg","postalCode":"32760","locality":"Detmold","municipality":{"key":"05766020","name":"Detmold, Stadt","type":"Stadt"},"district":{"key":"05766","name":"Lippe","type":"Kreis"},"federalState":{"key":"05","name":"Nordrhein-Westfalen"}},{"name":"Teutonenweg","postalCode":"32760","locality":"Detmold","municipality":{"key":"05766020","name":"Detmold, Stadt","type":"Stadt"},"district":{"key":"05766","name":"Lippe","type":"Kreis"},"federalState":{"key":"05","name":"Nordrhein-Westfalen"}},{"name":"Theaterplatz","postalCode":"32756","locality":"Detmold","municipality":{"key":"05766020","name":"Detmold, Stadt","type":"Stadt"},"district":{"key":"05766","name":"Lippe","type":"Kreis"},"federalState":{"key":"05","name":"Nordrhein-Westfalen"}},{"name":"Theodor-Heuss-Str.","postalCode":"32756","locality":"Detmold","municipality":{"key":"05766020","name":"Detmold, Stadt","type":"Stadt"},"district":{"key":"05766","name":"Lippe","type":"Kreis"},"federalState":{"key":"05","name":"Nordrhein-Westfalen"}},{"name":"Theodor-Heuss-Str.","postalCode":"32760","locality":"Detmold","municipality":{"key":"05766020","name":"Detmold, Stadt","type":"Stadt"},"district":{"key":"05766","name":"Lippe","type":"Kreis"},"federalState":{"key":"05","name":"Nordrhein-Westfalen"}},{"name":"Theopoldstr.","postalCode":"32756","locality":"Detmold","municipality":{"key":"05766020","name":"Detmold, Stadt","type":"Stadt"},"district":{"key":"05766","name":"Lippe","type":"Kreis"},"federalState":{"key":"05","name":"Nordrhein-Westfalen"}},{"name":"Thüringerstr.","postalCode":"32760","locality":"Detmold","municipality":{"key":"05766020","name":"Detmold, Stadt","type":"Stadt"},"district":{"key":"05766","name":"Lippe","type":"Kreis"},"federalState":{"key":"05","name":"Nordrhein-Westfalen"}},{"name":"Thusneldastr.","postalCode":"32756","locality":"Detmold","municipality":{"key":"05766020","name":"Detmold, Stadt","type":"Stadt"},"district":{"key":"05766","name":"Lippe","type":"Kreis"},"federalState":{"key":"05","name":"Nordrhein-Westfalen"}},{"name":"Toloptwete","postalCode":"32756","locality":"Detmold","municipality":{"key":"05766020","name":"Detmold, Stadt","type":"Stadt"},"district":{"key":"05766","name":"Lippe","type":"Kreis"},"federalState":{"key":"05","name":"Nordrhein-Westfalen"}},{"name":"Trakehnerweg","postalCode":"32760","locality":"Detmold","municipality":{"key":"05766020","name":"Detmold, Stadt","type":"Stadt"},"district":{"key":"05766","name":"Lippe","type":"Kreis"},"federalState":{"key":"05","name":"Nordrhein-Westfalen"}},{"name":"Triftenbrede","postalCode":"32758","locality":"Detmold","municipality":{"key":"05766020","name":"Detmold, Stadt","type":"Stadt"},"district":{"key":"05766","name":"Lippe","type":"Kreis"},"federalState":{"key":"05","name":"Nordrhein-Westfalen"}},{"name":"Triftenstr.","postalCode":"32758","locality":"Detmold","municipality":{"key":"05766020","name":"Detmold, Stadt","type":"Stadt"},"district":{"key":"05766","name":"Lippe","type":"Kreis"},"federalState":{"key":"05","name":"Nordrhein-Westfalen"}},{"name":"Trockenheide","postalCode":"32758","locality":"Detmold","municipality":{"key":"05766020","name":"Detmold, Stadt","type":"Stadt"},"district":{"key":"05766","name":"Lippe","type":"Kreis"},"federalState":{"key":"05","name":"Nordrhein-Westfalen"}},{"name":"Tulpenweg","postalCode":"32758","locality":"Detmold","municipality":{"key":"05766020","name":"Detmold, Stadt","type":"Stadt"},"district":{"key":"05766","name":"Lippe","type":"Kreis"},"federalState":{"key":"05","name":"Nordrhein-Westfalen"}},{"name":"Twete zum Wehmhof","postalCode":"32756","locality":"Detmold","municipality":{"key":"05766020","name":"Detmold, Stadt","type":"Stadt"},"district":{"key":"05766","name":"Lippe","type":"Kreis"},"federalState":{"key":"05","name":"Nordrhein-Westfalen"}},{"name":"Twete zur ehemaligen Synagoge","postalCode":"32756","locality":"Detmold","municipality":{"key":"05766020","name":"Detmold, Stadt","type":"Stadt"},"district":{"key":"05766","name":"Lippe","type":"Kreis"},"federalState":{"key":"05","name":"Nordrhein-Westfalen"}},{"name":"Uferstr.","postalCode":"32760","locality":"Detmold","municipality":{"key":"05766020","name":"Detmold, Stadt","type":"Stadt"},"district":{"key":"05766","name":"Lippe","type":"Kreis"},"federalState":{"key":"05","name":"Nordrhein-Westfalen"}},{"name":"Uhlandstr.","postalCode":"32758","locality":"Detmold","municipality":{"key":"05766020","name":"Detmold, Stadt","type":"Stadt"},"district":{"key":"05766","name":"Lippe","type":"Kreis"},"federalState":{"key":"05","name":"Nordrhein-Westfalen"}},{"name":"Uhlenburgstr.","postalCode":"32760","locality":"Detmold","municipality":{"key":"05766020","name":"Detmold, Stadt","type":"Stadt"},"district":{"key":"05766","name":"Lippe","type":"Kreis"},"federalState":{"key":"05","name":"Nordrhein-Westfalen"}},{"name":"Uhlenrieker Weg","postalCode":"32758","locality":"Detmold","municipality":{"key":"05766020","name":"Detmold, Stadt","type":"Stadt"},"district":{"key":"05766","name":"Lippe","type":"Kreis"},"federalState":{"key":"05","name":"Nordrhein-Westfalen"}},{"name":"Ulmenweg","postalCode":"32760","locality":"Detmold","municipality":{"key":"05766020","name":"Detmold, Stadt","type":"Stadt"},"district":{"key":"05766","name":"Lippe","type":"Kreis"},"federalState":{"key":"05","name":"Nordrhein-Westfalen"}},{"name":"Unter der Grotenburg","postalCode":"32760","locality":"Detmold","municipality":{"key":"05766020","name":"Detmold, Stadt","type":"Stadt"},"district":{"key":"05766","name":"Lippe","type":"Kreis"},"federalState":{"key":"05","name":"Nordrhein-Westfalen"}},{"name":"Unter der Jugendherberge","postalCode":"32756","locality":"Detmold","municipality":{"key":"05766020","name":"Detmold, Stadt","type":"Stadt"},"district":{"key":"05766","name":"Lippe","type":"Kreis"},"federalState":{"key":"05","name":"Nordrhein-Westfalen"}},{"name":"Unterer Weg","postalCode":"32760","locality":"Detmold","municipality":{"key":"05766020","name":"Detmold, Stadt","type":"Stadt"},"district":{"key":"05766","name":"Lippe","type":"Kreis"},"federalState":{"key":"05","name":"Nordrhein-Westfalen"}},{"name":"Untere Schanze","postalCode":"32756","locality":"Detmold","municipality":{"key":"05766020","name":"Detmold, Stadt","type":"Stadt"},"district":{"key":"05766","name":"Lippe","type":"Kreis"},"federalState":{"key":"05","name":"Nordrhein-Westfalen"}},{"name":"Unterloßbruch","postalCode":"32758","locality":"Detmold","municipality":{"key":"05766020","name":"Detmold, Stadt","type":"Stadt"},"district":{"key":"05766","name":"Lippe","type":"Kreis"},"federalState":{"key":"05","name":"Nordrhein-Westfalen"}},{"name":"Vahlhauser Höhe","postalCode":"32760","locality":"Detmold","municipality":{"key":"05766020","name":"Detmold, Stadt","type":"Stadt"},"district":{"key":"05766","name":"Lippe","type":"Kreis"},"federalState":{"key":"05","name":"Nordrhein-Westfalen"}},{"name":"Vahlhauser Str.","postalCode":"32760","locality":"Detmold","municipality":{"key":"05766020","name":"Detmold, Stadt","type":"Stadt"},"district":{"key":"05766","name":"Lippe","type":"Kreis"},"federalState":{"key":"05","name":"Nordrhein-Westfalen"}},{"name":"Van-Melle-Str.","postalCode":"32760","locality":"Detmold","municipality":{"key":"05766020","name":"Detmold, Stadt","type":"Stadt"},"district":{"key":"05766","name":"Lippe","type":"Kreis"},"federalState":{"key":"05","name":"Nordrhein-Westfalen"}},{"name":"Volkhausenstr.","postalCode":"32760","locality":"Detmold","municipality":{"key":"05766020","name":"Detmold, Stadt","type":"Stadt"},"district":{"key":"05766","name":"Lippe","type":"Kreis"},"federalState":{"key":"05","name":"Nordrhein-Westfalen"}},{"name":"Volkwinstr.","postalCode":"32758","locality":"Detmold","municipality":{"key":"05766020","name":"Detmold, Stadt","type":"Stadt"},"district":{"key":"05766","name":"Lippe","type":"Kreis"},"federalState":{"key":"05","name":"Nordrhein-Westfalen"}},{"name":"Vorbruch","postalCode":"32760","locality":"Detmold","municipality":{"key":"05766020","name":"Detmold, Stadt","type":"Stadt"},"district":{"key":"05766","name":"Lippe","type":"Kreis"},"federalState":{"key":"05","name":"Nordrhein-Westfalen"}},{"name":"Vor den Eichen","postalCode":"32756","locality":"Detmold","municipality":{"key":"05766020","name":"Detmold, Stadt","type":"Stadt"},"district":{"key":"05766","name":"Lippe","type":"Kreis"},"federalState":{"key":"05","name":"Nordrhein-Westfalen"}},{"name":"Vor der Recke","postalCode":"32760","locality":"Detmold","municipality":{"key":"05766020","name":"Detmold, Stadt","type":"Stadt"},"district":{"key":"05766","name":"Lippe","type":"Kreis"},"federalState":{"key":"05","name":"Nordrhein-Westfalen"}},{"name":"Vorm Berge","postalCode":"32760","locality":"Detmold","municipality":{"key":"05766020","name":"Detmold, Stadt","type":"Stadt"},"district":{"key":"05766","name":"Lippe","type":"Kreis"},"federalState":{"key":"05","name":"Nordrhein-Westfalen"}},{"name":"Wahmbecker Str.","postalCode":"32758","locality":"Detmold","municipality":{"key":"05766020","name":"Detmold, Stadt","type":"Stadt"},"district":{"key":"05766","name":"Lippe","type":"Kreis"},"federalState":{"key":"05","name":"Nordrhein-Westfalen"}},{"name":"Waldeck","postalCode":"32760","locality":"Detmold","municipality":{"key":"05766020","name":"Detmold, Stadt","type":"Stadt"},"district":{"key":"05766","name":"Lippe","type":"Kreis"},"federalState":{"key":"05","name":"Nordrhein-Westfalen"}},{"name":"Waldheidestr.","postalCode":"32758","locality":"Detmold","municipality":{"key":"05766020","name":"Detmold, Stadt","type":"Stadt"},"district":{"key":"05766","name":"Lippe","type":"Kreis"},"federalState":{"key":"05","name":"Nordrhein-Westfalen"}},{"name":"Waldweg","postalCode":"32760","locality":"Detmold","municipality":{"key":"05766020","name":"Detmold, Stadt","type":"Stadt"},"district":{"key":"05766","name":"Lippe","type":"Kreis"},"federalState":{"key":"05","name":"Nordrhein-Westfalen"}},{"name":"Wall","postalCode":"32756","locality":"Detmold","municipality":{"key":"05766020","name":"Detmold, Stadt","type":"Stadt"},"district":{"key":"05766","name":"Lippe","type":"Kreis"},"federalState":{"key":"05","name":"Nordrhein-Westfalen"}},{"name":"Wallgraben","postalCode":"32756","locality":"Detmold","municipality":{"key":"05766020","name":"Detmold, Stadt","type":"Stadt"},"district":{"key":"05766","name":"Lippe","type":"Kreis"},"federalState":{"key":"05","name":"Nordrhein-Westfalen"}},{"name":"Walter-Bröker-Ring","postalCode":"32756","locality":"Detmold","municipality":{"key":"05766020","name":"Detmold, Stadt","type":"Stadt"},"district":{"key":"05766","name":"Lippe","type":"Kreis"},"federalState":{"key":"05","name":"Nordrhein-Westfalen"}},{"name":"Warweg","postalCode":"32760","locality":"Detmold","municipality":{"key":"05766020","name":"Detmold, Stadt","type":"Stadt"},"district":{"key":"05766","name":"Lippe","type":"Kreis"},"federalState":{"key":"05","name":"Nordrhein-Westfalen"}},{"name":"Webereck","postalCode":"32758","locality":"Detmold","municipality":{"key":"05766020","name":"Detmold, Stadt","type":"Stadt"},"district":{"key":"05766","name":"Lippe","type":"Kreis"},"federalState":{"key":"05","name":"Nordrhein-Westfalen"}},{"name":"Weberstr.","postalCode":"32758","locality":"Detmold","municipality":{"key":"05766020","name":"Detmold, Stadt","type":"Stadt"},"district":{"key":"05766","name":"Lippe","type":"Kreis"},"federalState":{"key":"05","name":"Nordrhein-Westfalen"}},{"name":"Weerthplatz","postalCode":"32756","locality":"Detmold","municipality":{"key":"05766020","name":"Detmold, Stadt","type":"Stadt"},"district":{"key":"05766","name":"Lippe","type":"Kreis"},"federalState":{"key":"05","name":"Nordrhein-Westfalen"}},{"name":"Wehrenhagenstr.","postalCode":"32756","locality":"Detmold","municipality":{"key":"05766020","name":"Detmold, Stadt","type":"Stadt"},"district":{"key":"05766","name":"Lippe","type":"Kreis"},"federalState":{"key":"05","name":"Nordrhein-Westfalen"}},{"name":"Wehrstr.","postalCode":"32758","locality":"Detmold","municipality":{"key":"05766020","name":"Detmold, Stadt","type":"Stadt"},"district":{"key":"05766","name":"Lippe","type":"Kreis"},"federalState":{"key":"05","name":"Nordrhein-Westfalen"}},{"name":"Weidenhagen","postalCode":"32758","locality":"Detmold","municipality":{"key":"05766020","name":"Detmold, Stadt","type":"Stadt"},"district":{"key":"05766","name":"Lippe","type":"Kreis"},"federalState":{"key":"05","name":"Nordrhein-Westfalen"}},{"name":"Weimarstr.","postalCode":"32756","locality":"Detmold","municipality":{"key":"05766020","name":"Detmold, Stadt","type":"Stadt"},"district":{"key":"05766","name":"Lippe","type":"Kreis"},"federalState":{"key":"05","name":"Nordrhein-Westfalen"}},{"name":"Weiße Brede","postalCode":"32758","locality":"Detmold","municipality":{"key":"05766020","name":"Detmold, Stadt","type":"Stadt"},"district":{"key":"05766","name":"Lippe","type":"Kreis"},"federalState":{"key":"05","name":"Nordrhein-Westfalen"}},{"name":"Wellenkamp","postalCode":"32758","locality":"Detmold","municipality":{"key":"05766020","name":"Detmold, Stadt","type":"Stadt"},"district":{"key":"05766","name":"Lippe","type":"Kreis"},"federalState":{"key":"05","name":"Nordrhein-Westfalen"}},{"name":"Wellnerweg","postalCode":"32760","locality":"Detmold","municipality":{"key":"05766020","name":"Detmold, Stadt","type":"Stadt"},"district":{"key":"05766","name":"Lippe","type":"Kreis"},"federalState":{"key":"05","name":"Nordrhein-Westfalen"}},{"name":"Werreaue","postalCode":"32758","locality":"Detmold","municipality":{"key":"05766020","name":"Detmold, Stadt","type":"Stadt"},"district":{"key":"05766","name":"Lippe","type":"Kreis"},"federalState":{"key":"05","name":"Nordrhein-Westfalen"}},{"name":"Werrebogen","postalCode":"32760","locality":"Detmold","municipality":{"key":"05766020","name":"Detmold, Stadt","type":"Stadt"},"district":{"key":"05766","name":"Lippe","type":"Kreis"},"federalState":{"key":"05","name":"Nordrhein-Westfalen"}},{"name":"Westerfeldstr.","postalCode":"32758","locality":"Detmold","municipality":{"key":"05766020","name":"Detmold, Stadt","type":"Stadt"},"district":{"key":"05766","name":"Lippe","type":"Kreis"},"federalState":{"key":"05","name":"Nordrhein-Westfalen"}},{"name":"Westmarkweg","postalCode":"32760","locality":"Detmold","municipality":{"key":"05766020","name":"Detmold, Stadt","type":"Stadt"},"district":{"key":"05766","name":"Lippe","type":"Kreis"},"federalState":{"key":"05","name":"Nordrhein-Westfalen"}},{"name":"Weygandstr.","postalCode":"32760","locality":"Detmold","municipality":{"key":"05766020","name":"Detmold, Stadt","type":"Stadt"},"district":{"key":"05766","name":"Lippe","type":"Kreis"},"federalState":{"key":"05","name":"Nordrhein-Westfalen"}},{"name":"Wiechertweg","postalCode":"32758","locality":"Detmold","municipality":{"key":"05766020","name":"Detmold, Stadt","type":"Stadt"},"district":{"key":"05766","name":"Lippe","type":"Kreis"},"federalState":{"key":"05","name":"Nordrhein-Westfalen"}},{"name":"Wielandstr.","postalCode":"32758","locality":"Detmold","municipality":{"key":"05766020","name":"Detmold, Stadt","type":"Stadt"},"district":{"key":"05766","name":"Lippe","type":"Kreis"},"federalState":{"key":"05","name":"Nordrhein-Westfalen"}},{"name":"Wiemannstr.","postalCode":"32760","locality":"Detmold","municipality":{"key":"05766020","name":"Detmold, Stadt","type":"Stadt"},"district":{"key":"05766","name":"Lippe","type":"Kreis"},"federalState":{"key":"05","name":"Nordrhein-Westfalen"}},{"name":"Wienkestr.","postalCode":"32756","locality":"Detmold","municipality":{"key":"05766020","name":"Detmold, Stadt","type":"Stadt"},"district":{"key":"05766","name":"Lippe","type":"Kreis"},"federalState":{"key":"05","name":"Nordrhein-Westfalen"}},{"name":"Wiesenstr.","postalCode":"32756","locality":"Detmold","municipality":{"key":"05766020","name":"Detmold, Stadt","type":"Stadt"},"district":{"key":"05766","name":"Lippe","type":"Kreis"},"federalState":{"key":"05","name":"Nordrhein-Westfalen"}},{"name":"Wiggengrundweg","postalCode":"32760","locality":"Detmold","municipality":{"key":"05766020","name":"Detmold, Stadt","type":"Stadt"},"district":{"key":"05766","name":"Lippe","type":"Kreis"},"federalState":{"key":"05","name":"Nordrhein-Westfalen"}},{"name":"Wilberger Str.","postalCode":"32760","locality":"Detmold","municipality":{"key":"05766020","name":"Detmold, Stadt","type":"Stadt"},"district":{"key":"05766","name":"Lippe","type":"Kreis"},"federalState":{"key":"05","name":"Nordrhein-Westfalen"}},{"name":"Wilhelm-Busch-Str.","postalCode":"32758","locality":"Detmold","municipality":{"key":"05766020","name":"Detmold, Stadt","type":"Stadt"},"district":{"key":"05766","name":"Lippe","type":"Kreis"},"federalState":{"key":"05","name":"Nordrhein-Westfalen"}},{"name":"Wilhelm-Grüttemeier-Weg","postalCode":"32760","locality":"Detmold","municipality":{"key":"05766020","name":"Detmold, Stadt","type":"Stadt"},"district":{"key":"05766","name":"Lippe","type":"Kreis"},"federalState":{"key":"05","name":"Nordrhein-Westfalen"}},{"name":"Wilhelm-Holländer-Weg","postalCode":"32760","locality":"Detmold","municipality":{"key":"05766020","name":"Detmold, Stadt","type":"Stadt"},"district":{"key":"05766","name":"Lippe","type":"Kreis"},"federalState":{"key":"05","name":"Nordrhein-Westfalen"}},{"name":"Wilhelm-Mellies-Str.","postalCode":"32758","locality":"Detmold","municipality":{"key":"05766020","name":"Detmold, Stadt","type":"Stadt"},"district":{"key":"05766","name":"Lippe","type":"Kreis"},"federalState":{"key":"05","name":"Nordrhein-Westfalen"}},{"name":"Wilhelm-Raabe-Str.","postalCode":"32758","locality":"Detmold","municipality":{"key":"05766020","name":"Detmold, Stadt","type":"Stadt"},"district":{"key":"05766","name":"Lippe","type":"Kreis"},"federalState":{"key":"05","name":"Nordrhein-Westfalen"}},{"name":"Wilhelmweg","postalCode":"32756","locality":"Detmold","municipality":{"key":"05766020","name":"Detmold, Stadt","type":"Stadt"},"district":{"key":"05766","name":"Lippe","type":"Kreis"},"federalState":{"key":"05","name":"Nordrhein-Westfalen"}},{"name":"Willi-Hofmann-Str.","postalCode":"32756","locality":"Detmold","municipality":{"key":"05766020","name":"Detmold, Stadt","type":"Stadt"},"district":{"key":"05766","name":"Lippe","type":"Kreis"},"federalState":{"key":"05","name":"Nordrhein-Westfalen"}},{"name":"Willi-Hofmann-Str.","postalCode":"32760","locality":"Detmold","municipality":{"key":"05766020","name":"Detmold, Stadt","type":"Stadt"},"district":{"key":"05766","name":"Lippe","type":"Kreis"},"federalState":{"key":"05","name":"Nordrhein-Westfalen"}},{"name":"Willi-Schramm-Str.","postalCode":"32756","locality":"Detmold","municipality":{"key":"05766020","name":"Detmold, Stadt","type":"Stadt"},"district":{"key":"05766","name":"Lippe","type":"Kreis"},"federalState":{"key":"05","name":"Nordrhein-Westfalen"}},{"name":"Willy-Brandt-Platz","postalCode":"32756","locality":"Detmold","municipality":{"key":"05766020","name":"Detmold, Stadt","type":"Stadt"},"district":{"key":"05766","name":"Lippe","type":"Kreis"},"federalState":{"key":"05","name":"Nordrhein-Westfalen"}},{"name":"Windmeierweg","postalCode":"32758","locality":"Detmold","municipality":{"key":"05766020","name":"Detmold, Stadt","type":"Stadt"},"district":{"key":"05766","name":"Lippe","type":"Kreis"},"federalState":{"key":"05","name":"Nordrhein-Westfalen"}},{"name":"Windweg","postalCode":"32758","locality":"Detmold","municipality":{"key":"05766020","name":"Detmold, Stadt","type":"Stadt"},"district":{"key":"05766","name":"Lippe","type":"Kreis"},"federalState":{"key":"05","name":"Nordrhein-Westfalen"}},{"name":"Winkelweg","postalCode":"32758","locality":"Detmold","municipality":{"key":"05766020","name":"Detmold, Stadt","type":"Stadt"},"district":{"key":"05766","name":"Lippe","type":"Kreis"},"federalState":{"key":"05","name":"Nordrhein-Westfalen"}},{"name":"Wismarer Weg","postalCode":"32756","locality":"Detmold","municipality":{"key":"05766020","name":"Detmold, Stadt","type":"Stadt"},"district":{"key":"05766","name":"Lippe","type":"Kreis"},"federalState":{"key":"05","name":"Nordrhein-Westfalen"}},{"name":"Wittekindstr.","postalCode":"32756","locality":"Detmold","municipality":{"key":"05766020","name":"Detmold, Stadt","type":"Stadt"},"district":{"key":"05766","name":"Lippe","type":"Kreis"},"federalState":{"key":"05","name":"Nordrhein-Westfalen"}},{"name":"Wittekindstr.","postalCode":"32758","locality":"Detmold","municipality":{"key":"05766020","name":"Detmold, Stadt","type":"Stadt"},"district":{"key":"05766","name":"Lippe","type":"Kreis"},"federalState":{"key":"05","name":"Nordrhein-Westfalen"}},{"name":"Wittenberger Weg","postalCode":"32756","locality":"Detmold","municipality":{"key":"05766020","name":"Detmold, Stadt","type":"Stadt"},"district":{"key":"05766","name":"Lippe","type":"Kreis"},"federalState":{"key":"05","name":"Nordrhein-Westfalen"}},{"name":"Wittensteinweg","postalCode":"32756","locality":"Detmold","municipality":{"key":"05766020","name":"Detmold, Stadt","type":"Stadt"},"district":{"key":"05766","name":"Lippe","type":"Kreis"},"federalState":{"key":"05","name":"Nordrhein-Westfalen"}},{"name":"Wittjestr.","postalCode":"32756","locality":"Detmold","municipality":{"key":"05766020","name":"Detmold, Stadt","type":"Stadt"},"district":{"key":"05766","name":"Lippe","type":"Kreis"},"federalState":{"key":"05","name":"Nordrhein-Westfalen"}},{"name":"Woldemarstr.","postalCode":"32756","locality":"Detmold","municipality":{"key":"05766020","name":"Detmold, Stadt","type":"Stadt"},"district":{"key":"05766","name":"Lippe","type":"Kreis"},"federalState":{"key":"05","name":"Nordrhein-Westfalen"}},{"name":"Zaunkönigweg","postalCode":"32760","locality":"Detmold","municipality":{"key":"05766020","name":"Detmold, Stadt","type":"Stadt"},"district":{"key":"05766","name":"Lippe","type":"Kreis"},"federalState":{"key":"05","name":"Nordrhein-Westfalen"}},{"name":"Zeisigweg","postalCode":"32760","locality":"Detmold","municipality":{"key":"05766020","name":"Detmold, Stadt","type":"Stadt"},"district":{"key":"05766","name":"Lippe","type":"Kreis"},"federalState":{"key":"05","name":"Nordrhein-Westfalen"}},{"name":"Zeitzer Weg","postalCode":"32756","locality":"Detmold","municipality":{"key":"05766020","name":"Detmold, Stadt","type":"Stadt"},"district":{"key":"05766","name":"Lippe","type":"Kreis"},"federalState":{"key":"05","name":"Nordrhein-Westfalen"}},{"name":"Zeppelinstr.","postalCode":"32756","locality":"Detmold","municipality":{"key":"05766020","name":"Detmold, Stadt","type":"Stadt"},"district":{"key":"05766","name":"Lippe","type":"Kreis"},"federalState":{"key":"05","name":"Nordrhein-Westfalen"}},{"name":"Zugbrücke","postalCode":"32760","locality":"Detmold","municipality":{"key":"05766020","name":"Detmold, Stadt","type":"Stadt"},"district":{"key":"05766","name":"Lippe","type":"Kreis"},"federalState":{"key":"05","name":"Nordrhein-Westfalen"}},{"name":"Zum Lustgarten","postalCode":"32756","locality":"Detmold","municipality":{"key":"05766020","name":"Detmold, Stadt","type":"Stadt"},"district":{"key":"05766","name":"Lippe","type":"Kreis"},"federalState":{"key":"05","name":"Nordrhein-Westfalen"}},{"name":"Zum Plaßfeld","postalCode":"32758","locality":"Detmold","municipality":{"key":"05766020","name":"Detmold, Stadt","type":"Stadt"},"district":{"key":"05766","name":"Lippe","type":"Kreis"},"federalState":{"key":"05","name":"Nordrhein-Westfalen"}},{"name":"Zum Rotenberg","postalCode":"32758","locality":"Detmold","municipality":{"key":"05766020","name":"Detmold, Stadt","type":"Stadt"},"district":{"key":"05766","name":"Lippe","type":"Kreis"},"federalState":{"key":"05","name":"Nordrhein-Westfalen"}},{"name":"Zum Schulberg","postalCode":"32758","locality":"Detmold","municipality":{"key":"05766020","name":"Detmold, Stadt","type":"Stadt"},"district":{"key":"05766","name":"Lippe","type":"Kreis"},"federalState":{"key":"05","name":"Nordrhein-Westfalen"}},{"name":"Zur Werrehude","postalCode":"32758","locality":"Detmold","municipality":{"key":"05766020","name":"Detmold, Stadt","type":"Stadt"},"district":{"key":"05766","name":"Lippe","type":"Kreis"},"federalState":{"key":"05","name":"Nordrhein-Westfalen"}},{"name":"Über den Höfen","postalCode":"32760","locality":"Detmold","municipality":{"key":"05766020","name":"Detmold, Stadt","type":"Stadt"},"district":{"key":"05766","name":"Lippe","type":"Kreis"},"federalState":{"key":"05","name":"Nordrhein-Westfalen"}},]