[{"name":"Alemannenstr.","postalCode":"72519","locality":"Veringenstadt","municipality":{"key":"08437114","name":"Veringenstadt, Stadt","type":"Stadt"},"district":{"key":"08437","name":"Sigmaringen","type":"Landkreis"},"federalState":{"key":"08","name":"Baden-Württemberg"}},{"name":"Altenburgstr.","postalCode":"72519","locality":"Veringenstadt","municipality":{"key":"08437114","name":"Veringenstadt, Stadt","type":"Stadt"},"district":{"key":"08437","name":"Sigmaringen","type":"Landkreis"},"federalState":{"key":"08","name":"Baden-Württemberg"}},{"name":"Amselweg","postalCode":"72519","locality":"Veringenstadt","municipality":{"key":"08437114","name":"Veringenstadt, Stadt","type":"Stadt"},"district":{"key":"08437","name":"Sigmaringen","type":"Landkreis"},"federalState":{"key":"08","name":"Baden-Württemberg"}},{"name":"An der Hüfte","postalCode":"72519","locality":"Veringenstadt","municipality":{"key":"08437114","name":"Veringenstadt, Stadt","type":"Stadt"},"district":{"key":"08437","name":"Sigmaringen","type":"Landkreis"},"federalState":{"key":"08","name":"Baden-Württemberg"}},{"name":"An der Reute","postalCode":"72519","locality":"Veringenstadt","municipality":{"key":"08437114","name":"Veringenstadt, Stadt","type":"Stadt"},"district":{"key":"08437","name":"Sigmaringen","type":"Landkreis"},"federalState":{"key":"08","name":"Baden-Württemberg"}},{"name":"Außerstadt","postalCode":"72519","locality":"Veringenstadt","municipality":{"key":"08437114","name":"Veringenstadt, Stadt","type":"Stadt"},"district":{"key":"08437","name":"Sigmaringen","type":"Landkreis"},"federalState":{"key":"08","name":"Baden-Württemberg"}},{"name":"Bahnhofstr.","postalCode":"72519","locality":"Veringenstadt","municipality":{"key":"08437114","name":"Veringenstadt, Stadt","type":"Stadt"},"district":{"key":"08437","name":"Sigmaringen","type":"Landkreis"},"federalState":{"key":"08","name":"Baden-Württemberg"}},{"name":"Beethovenstr.","postalCode":"72519","locality":"Veringenstadt","municipality":{"key":"08437114","name":"Veringenstadt, Stadt","type":"Stadt"},"district":{"key":"08437","name":"Sigmaringen","type":"Landkreis"},"federalState":{"key":"08","name":"Baden-Württemberg"}},{"name":"Bei der Lohmühle","postalCode":"72519","locality":"Veringenstadt","municipality":{"key":"08437114","name":"Veringenstadt, Stadt","type":"Stadt"},"district":{"key":"08437","name":"Sigmaringen","type":"Landkreis"},"federalState":{"key":"08","name":"Baden-Württemberg"}},{"name":"Beim Bildstöckle","postalCode":"72519","locality":"Veringenstadt","municipality":{"key":"08437114","name":"Veringenstadt, Stadt","type":"Stadt"},"district":{"key":"08437","name":"Sigmaringen","type":"Landkreis"},"federalState":{"key":"08","name":"Baden-Württemberg"}},{"name":"Benzinger Str.","postalCode":"72519","locality":"Veringenstadt","municipality":{"key":"08437114","name":"Veringenstadt, Stadt","type":"Stadt"},"district":{"key":"08437","name":"Sigmaringen","type":"Landkreis"},"federalState":{"key":"08","name":"Baden-Württemberg"}},{"name":"Bergweg","postalCode":"72519","locality":"Veringenstadt","municipality":{"key":"08437114","name":"Veringenstadt, Stadt","type":"Stadt"},"district":{"key":"08437","name":"Sigmaringen","type":"Landkreis"},"federalState":{"key":"08","name":"Baden-Württemberg"}},{"name":"Berliner Str.","postalCode":"72519","locality":"Veringenstadt","municipality":{"key":"08437114","name":"Veringenstadt, Stadt","type":"Stadt"},"district":{"key":"08437","name":"Sigmaringen","type":"Landkreis"},"federalState":{"key":"08","name":"Baden-Württemberg"}},{"name":"Birkenstr.","postalCode":"72519","locality":"Veringenstadt","municipality":{"key":"08437114","name":"Veringenstadt, Stadt","type":"Stadt"},"district":{"key":"08437","name":"Sigmaringen","type":"Landkreis"},"federalState":{"key":"08","name":"Baden-Württemberg"}},{"name":"Breitnaustr.","postalCode":"72519","locality":"Veringenstadt","municipality":{"key":"08437114","name":"Veringenstadt, Stadt","type":"Stadt"},"district":{"key":"08437","name":"Sigmaringen","type":"Landkreis"},"federalState":{"key":"08","name":"Baden-Württemberg"}},{"name":"Breitnauweg","postalCode":"72519","locality":"Veringenstadt","municipality":{"key":"08437114","name":"Veringenstadt, Stadt","type":"Stadt"},"district":{"key":"08437","name":"Sigmaringen","type":"Landkreis"},"federalState":{"key":"08","name":"Baden-Württemberg"}},{"name":"Brühlweg","postalCode":"72519","locality":"Veringenstadt","municipality":{"key":"08437114","name":"Veringenstadt, Stadt","type":"Stadt"},"district":{"key":"08437","name":"Sigmaringen","type":"Landkreis"},"federalState":{"key":"08","name":"Baden-Württemberg"}},{"name":"Buchenstr.","postalCode":"72519","locality":"Veringenstadt","municipality":{"key":"08437114","name":"Veringenstadt, Stadt","type":"Stadt"},"district":{"key":"08437","name":"Sigmaringen","type":"Landkreis"},"federalState":{"key":"08","name":"Baden-Württemberg"}},{"name":"Burgweg","postalCode":"72519","locality":"Veringenstadt","municipality":{"key":"08437114","name":"Veringenstadt, Stadt","type":"Stadt"},"district":{"key":"08437","name":"Sigmaringen","type":"Landkreis"},"federalState":{"key":"08","name":"Baden-Württemberg"}},{"name":"Büttnaustr.","postalCode":"72519","locality":"Veringenstadt","municipality":{"key":"08437114","name":"Veringenstadt, Stadt","type":"Stadt"},"district":{"key":"08437","name":"Sigmaringen","type":"Landkreis"},"federalState":{"key":"08","name":"Baden-Württemberg"}},{"name":"Carl-Ott-Weg","postalCode":"72488","locality":"Sigmaringen","municipality":{"key":"08437104","name":"Sigmaringen, Stadt","type":"Stadt"},"district":{"key":"08437","name":"Sigmaringen","type":"Landkreis"},"federalState":{"key":"08","name":"Baden-Württemberg"}},{"name":"Deutstetter Str.","postalCode":"72519","locality":"Veringenstadt","municipality":{"key":"08437114","name":"Veringenstadt, Stadt","type":"Stadt"},"district":{"key":"08437","name":"Sigmaringen","type":"Landkreis"},"federalState":{"key":"08","name":"Baden-Württemberg"}},{"name":"Dürerstr.","postalCode":"72519","locality":"Veringenstadt","municipality":{"key":"08437114","name":"Veringenstadt, Stadt","type":"Stadt"},"district":{"key":"08437","name":"Sigmaringen","type":"Landkreis"},"federalState":{"key":"08","name":"Baden-Württemberg"}},{"name":"Eichenstr.","postalCode":"72519","locality":"Veringenstadt","municipality":{"key":"08437114","name":"Veringenstadt, Stadt","type":"Stadt"},"district":{"key":"08437","name":"Sigmaringen","type":"Landkreis"},"federalState":{"key":"08","name":"Baden-Württemberg"}},{"name":"Eschenweg","postalCode":"72519","locality":"Veringenstadt","municipality":{"key":"08437114","name":"Veringenstadt, Stadt","type":"Stadt"},"district":{"key":"08437","name":"Sigmaringen","type":"Landkreis"},"federalState":{"key":"08","name":"Baden-Württemberg"}},{"name":"Eulentalweg","postalCode":"72519","locality":"Veringenstadt","municipality":{"key":"08437114","name":"Veringenstadt, Stadt","type":"Stadt"},"district":{"key":"08437","name":"Sigmaringen","type":"Landkreis"},"federalState":{"key":"08","name":"Baden-Württemberg"}},{"name":"Fichtenweg","postalCode":"72519","locality":"Veringenstadt","municipality":{"key":"08437114","name":"Veringenstadt, Stadt","type":"Stadt"},"district":{"key":"08437","name":"Sigmaringen","type":"Landkreis"},"federalState":{"key":"08","name":"Baden-Württemberg"}},{"name":"Friedrich-List-Str.","postalCode":"72519","locality":"Veringenstadt","municipality":{"key":"08437114","name":"Veringenstadt, Stadt","type":"Stadt"},"district":{"key":"08437","name":"Sigmaringen","type":"Landkreis"},"federalState":{"key":"08","name":"Baden-Württemberg"}},{"name":"Gasse","postalCode":"72519","locality":"Veringenstadt","municipality":{"key":"08437114","name":"Veringenstadt, Stadt","type":"Stadt"},"district":{"key":"08437","name":"Sigmaringen","type":"Landkreis"},"federalState":{"key":"08","name":"Baden-Württemberg"}},{"name":"Gayernstr.","postalCode":"72519","locality":"Veringenstadt","municipality":{"key":"08437114","name":"Veringenstadt, Stadt","type":"Stadt"},"district":{"key":"08437","name":"Sigmaringen","type":"Landkreis"},"federalState":{"key":"08","name":"Baden-Württemberg"}},{"name":"Goethestr.","postalCode":"72519","locality":"Veringenstadt","municipality":{"key":"08437114","name":"Veringenstadt, Stadt","type":"Stadt"},"district":{"key":"08437","name":"Sigmaringen","type":"Landkreis"},"federalState":{"key":"08","name":"Baden-Württemberg"}},{"name":"Hagentorweg","postalCode":"72519","locality":"Veringenstadt","municipality":{"key":"08437114","name":"Veringenstadt, Stadt","type":"Stadt"},"district":{"key":"08437","name":"Sigmaringen","type":"Landkreis"},"federalState":{"key":"08","name":"Baden-Württemberg"}},{"name":"Harthauser Str.","postalCode":"72519","locality":"Veringenstadt","municipality":{"key":"08437114","name":"Veringenstadt, Stadt","type":"Stadt"},"district":{"key":"08437","name":"Sigmaringen","type":"Landkreis"},"federalState":{"key":"08","name":"Baden-Württemberg"}},{"name":"Hauptstr.","postalCode":"72519","locality":"Veringenstadt","municipality":{"key":"08437114","name":"Veringenstadt, Stadt","type":"Stadt"},"district":{"key":"08437","name":"Sigmaringen","type":"Landkreis"},"federalState":{"key":"08","name":"Baden-Württemberg"}},{"name":"Hausbuchenweg","postalCode":"72519","locality":"Veringenstadt","municipality":{"key":"08437114","name":"Veringenstadt, Stadt","type":"Stadt"},"district":{"key":"08437","name":"Sigmaringen","type":"Landkreis"},"federalState":{"key":"08","name":"Baden-Württemberg"}},{"name":"Haydnstr.","postalCode":"72519","locality":"Veringenstadt","municipality":{"key":"08437114","name":"Veringenstadt, Stadt","type":"Stadt"},"district":{"key":"08437","name":"Sigmaringen","type":"Landkreis"},"federalState":{"key":"08","name":"Baden-Württemberg"}},{"name":"Heinestr.","postalCode":"72519","locality":"Veringenstadt","municipality":{"key":"08437114","name":"Veringenstadt, Stadt","type":"Stadt"},"district":{"key":"08437","name":"Sigmaringen","type":"Landkreis"},"federalState":{"key":"08","name":"Baden-Württemberg"}},{"name":"Hettinger Weg","postalCode":"72519","locality":"Veringenstadt","municipality":{"key":"08437114","name":"Veringenstadt, Stadt","type":"Stadt"},"district":{"key":"08437","name":"Sigmaringen","type":"Landkreis"},"federalState":{"key":"08","name":"Baden-Württemberg"}},{"name":"Hochbergstr.","postalCode":"72519","locality":"Veringenstadt","municipality":{"key":"08437114","name":"Veringenstadt, Stadt","type":"Stadt"},"district":{"key":"08437","name":"Sigmaringen","type":"Landkreis"},"federalState":{"key":"08","name":"Baden-Württemberg"}},{"name":"Hochdorfstr.","postalCode":"72519","locality":"Veringenstadt","municipality":{"key":"08437114","name":"Veringenstadt, Stadt","type":"Stadt"},"district":{"key":"08437","name":"Sigmaringen","type":"Landkreis"},"federalState":{"key":"08","name":"Baden-Württemberg"}},{"name":"Hohenzollernstr.","postalCode":"72519","locality":"Veringenstadt","municipality":{"key":"08437114","name":"Veringenstadt, Stadt","type":"Stadt"},"district":{"key":"08437","name":"Sigmaringen","type":"Landkreis"},"federalState":{"key":"08","name":"Baden-Württemberg"}},{"name":"Holbeinweg","postalCode":"72519","locality":"Veringenstadt","municipality":{"key":"08437114","name":"Veringenstadt, Stadt","type":"Stadt"},"district":{"key":"08437","name":"Sigmaringen","type":"Landkreis"},"federalState":{"key":"08","name":"Baden-Württemberg"}},{"name":"Hölderlinweg","postalCode":"72519","locality":"Veringenstadt","municipality":{"key":"08437114","name":"Veringenstadt, Stadt","type":"Stadt"},"district":{"key":"08437","name":"Sigmaringen","type":"Landkreis"},"federalState":{"key":"08","name":"Baden-Württemberg"}},{"name":"Höllgasse","postalCode":"72519","locality":"Veringenstadt","municipality":{"key":"08437114","name":"Veringenstadt, Stadt","type":"Stadt"},"district":{"key":"08437","name":"Sigmaringen","type":"Landkreis"},"federalState":{"key":"08","name":"Baden-Württemberg"}},{"name":"Im Städtle","postalCode":"72519","locality":"Veringenstadt","municipality":{"key":"08437114","name":"Veringenstadt, Stadt","type":"Stadt"},"district":{"key":"08437","name":"Sigmaringen","type":"Landkreis"},"federalState":{"key":"08","name":"Baden-Württemberg"}},{"name":"Inneringer Str.","postalCode":"72519","locality":"Veringenstadt","municipality":{"key":"08437114","name":"Veringenstadt, Stadt","type":"Stadt"},"district":{"key":"08437","name":"Sigmaringen","type":"Landkreis"},"federalState":{"key":"08","name":"Baden-Württemberg"}},{"name":"Inneringer Weg","postalCode":"72519","locality":"Veringenstadt","municipality":{"key":"08437114","name":"Veringenstadt, Stadt","type":"Stadt"},"district":{"key":"08437","name":"Sigmaringen","type":"Landkreis"},"federalState":{"key":"08","name":"Baden-Württemberg"}},{"name":"Jungnauer Str.","postalCode":"72519","locality":"Veringenstadt","municipality":{"key":"08437114","name":"Veringenstadt, Stadt","type":"Stadt"},"district":{"key":"08437","name":"Sigmaringen","type":"Landkreis"},"federalState":{"key":"08","name":"Baden-Württemberg"}},{"name":"Kirchberg","postalCode":"72519","locality":"Veringenstadt","municipality":{"key":"08437114","name":"Veringenstadt, Stadt","type":"Stadt"},"district":{"key":"08437","name":"Sigmaringen","type":"Landkreis"},"federalState":{"key":"08","name":"Baden-Württemberg"}},{"name":"Kirchgasse","postalCode":"72519","locality":"Veringenstadt","municipality":{"key":"08437114","name":"Veringenstadt, Stadt","type":"Stadt"},"district":{"key":"08437","name":"Sigmaringen","type":"Landkreis"},"federalState":{"key":"08","name":"Baden-Württemberg"}},{"name":"Königsgasse","postalCode":"72519","locality":"Veringenstadt","municipality":{"key":"08437114","name":"Veringenstadt, Stadt","type":"Stadt"},"district":{"key":"08437","name":"Sigmaringen","type":"Landkreis"},"federalState":{"key":"08","name":"Baden-Württemberg"}},{"name":"Lauchertstr.","postalCode":"72519","locality":"Veringenstadt","municipality":{"key":"08437114","name":"Veringenstadt, Stadt","type":"Stadt"},"district":{"key":"08437","name":"Sigmaringen","type":"Landkreis"},"federalState":{"key":"08","name":"Baden-Württemberg"}},{"name":"Lessingstr.","postalCode":"72519","locality":"Veringenstadt","municipality":{"key":"08437114","name":"Veringenstadt, Stadt","type":"Stadt"},"district":{"key":"08437","name":"Sigmaringen","type":"Landkreis"},"federalState":{"key":"08","name":"Baden-Württemberg"}},{"name":"Lindenstr.","postalCode":"72519","locality":"Veringenstadt","municipality":{"key":"08437114","name":"Veringenstadt, Stadt","type":"Stadt"},"district":{"key":"08437","name":"Sigmaringen","type":"Landkreis"},"federalState":{"key":"08","name":"Baden-Württemberg"}},{"name":"Mörikestr.","postalCode":"72519","locality":"Veringenstadt","municipality":{"key":"08437114","name":"Veringenstadt, Stadt","type":"Stadt"},"district":{"key":"08437","name":"Sigmaringen","type":"Landkreis"},"federalState":{"key":"08","name":"Baden-Württemberg"}},{"name":"Mozartstr.","postalCode":"72519","locality":"Veringenstadt","municipality":{"key":"08437114","name":"Veringenstadt, Stadt","type":"Stadt"},"district":{"key":"08437","name":"Sigmaringen","type":"Landkreis"},"federalState":{"key":"08","name":"Baden-Württemberg"}},{"name":"Mühlberg","postalCode":"72519","locality":"Veringenstadt","municipality":{"key":"08437114","name":"Veringenstadt, Stadt","type":"Stadt"},"district":{"key":"08437","name":"Sigmaringen","type":"Landkreis"},"federalState":{"key":"08","name":"Baden-Württemberg"}},{"name":"Mühlgasse","postalCode":"72519","locality":"Veringenstadt","municipality":{"key":"08437114","name":"Veringenstadt, Stadt","type":"Stadt"},"district":{"key":"08437","name":"Sigmaringen","type":"Landkreis"},"federalState":{"key":"08","name":"Baden-Württemberg"}},{"name":"Nebelseestr.","postalCode":"72519","locality":"Veringenstadt","municipality":{"key":"08437114","name":"Veringenstadt, Stadt","type":"Stadt"},"district":{"key":"08437","name":"Sigmaringen","type":"Landkreis"},"federalState":{"key":"08","name":"Baden-Württemberg"}},{"name":"Oberdorf","postalCode":"72519","locality":"Veringenstadt","municipality":{"key":"08437114","name":"Veringenstadt, Stadt","type":"Stadt"},"district":{"key":"08437","name":"Sigmaringen","type":"Landkreis"},"federalState":{"key":"08","name":"Baden-Württemberg"}},{"name":"Obere Wiesen","postalCode":"72519","locality":"Veringenstadt","municipality":{"key":"08437114","name":"Veringenstadt, Stadt","type":"Stadt"},"district":{"key":"08437","name":"Sigmaringen","type":"Landkreis"},"federalState":{"key":"08","name":"Baden-Württemberg"}},{"name":"Ortsstr.","postalCode":"72519","locality":"Veringenstadt","municipality":{"key":"08437114","name":"Veringenstadt, Stadt","type":"Stadt"},"district":{"key":"08437","name":"Sigmaringen","type":"Landkreis"},"federalState":{"key":"08","name":"Baden-Württemberg"}},{"name":"Panoramaweg","postalCode":"72519","locality":"Veringenstadt","municipality":{"key":"08437114","name":"Veringenstadt, Stadt","type":"Stadt"},"district":{"key":"08437","name":"Sigmaringen","type":"Landkreis"},"federalState":{"key":"08","name":"Baden-Württemberg"}},{"name":"Quellenweg","postalCode":"72519","locality":"Veringenstadt","municipality":{"key":"08437114","name":"Veringenstadt, Stadt","type":"Stadt"},"district":{"key":"08437","name":"Sigmaringen","type":"Landkreis"},"federalState":{"key":"08","name":"Baden-Württemberg"}},{"name":"Rampoldshalde","postalCode":"72519","locality":"Veringenstadt","municipality":{"key":"08437114","name":"Veringenstadt, Stadt","type":"Stadt"},"district":{"key":"08437","name":"Sigmaringen","type":"Landkreis"},"federalState":{"key":"08","name":"Baden-Württemberg"}},{"name":"Rettichsberg","postalCode":"72519","locality":"Veringenstadt","municipality":{"key":"08437114","name":"Veringenstadt, Stadt","type":"Stadt"},"district":{"key":"08437","name":"Sigmaringen","type":"Landkreis"},"federalState":{"key":"08","name":"Baden-Württemberg"}},{"name":"Richard-Wagner-Str.","postalCode":"72519","locality":"Veringenstadt","municipality":{"key":"08437114","name":"Veringenstadt, Stadt","type":"Stadt"},"district":{"key":"08437","name":"Sigmaringen","type":"Landkreis"},"federalState":{"key":"08","name":"Baden-Württemberg"}},{"name":"Rilkeweg","postalCode":"72519","locality":"Veringenstadt","municipality":{"key":"08437114","name":"Veringenstadt, Stadt","type":"Stadt"},"district":{"key":"08437","name":"Sigmaringen","type":"Landkreis"},"federalState":{"key":"08","name":"Baden-Württemberg"}},{"name":"Scheibenbergstr.","postalCode":"72519","locality":"Veringenstadt","municipality":{"key":"08437114","name":"Veringenstadt, Stadt","type":"Stadt"},"district":{"key":"08437","name":"Sigmaringen","type":"Landkreis"},"federalState":{"key":"08","name":"Baden-Württemberg"}},{"name":"Schellensteigle","postalCode":"72519","locality":"Veringenstadt","municipality":{"key":"08437114","name":"Veringenstadt, Stadt","type":"Stadt"},"district":{"key":"08437","name":"Sigmaringen","type":"Landkreis"},"federalState":{"key":"08","name":"Baden-Württemberg"}},{"name":"Schillerstr.","postalCode":"72519","locality":"Veringenstadt","municipality":{"key":"08437114","name":"Veringenstadt, Stadt","type":"Stadt"},"district":{"key":"08437","name":"Sigmaringen","type":"Landkreis"},"federalState":{"key":"08","name":"Baden-Württemberg"}},{"name":"Schlossbergtunnel","postalCode":"72519","locality":"Veringenstadt","municipality":{"key":"08437114","name":"Veringenstadt, Stadt","type":"Stadt"},"district":{"key":"08437","name":"Sigmaringen","type":"Landkreis"},"federalState":{"key":"08","name":"Baden-Württemberg"}},{"name":"Schulstr.","postalCode":"72519","locality":"Veringenstadt","municipality":{"key":"08437114","name":"Veringenstadt, Stadt","type":"Stadt"},"district":{"key":"08437","name":"Sigmaringen","type":"Landkreis"},"federalState":{"key":"08","name":"Baden-Württemberg"}},{"name":"Schwabenstr.","postalCode":"72519","locality":"Veringenstadt","municipality":{"key":"08437114","name":"Veringenstadt, Stadt","type":"Stadt"},"district":{"key":"08437","name":"Sigmaringen","type":"Landkreis"},"federalState":{"key":"08","name":"Baden-Württemberg"}},{"name":"Silcherstr.","postalCode":"72519","locality":"Veringenstadt","municipality":{"key":"08437114","name":"Veringenstadt, Stadt","type":"Stadt"},"district":{"key":"08437","name":"Sigmaringen","type":"Landkreis"},"federalState":{"key":"08","name":"Baden-Württemberg"}},{"name":"Sonnenweg","postalCode":"72519","locality":"Veringenstadt","municipality":{"key":"08437114","name":"Veringenstadt, Stadt","type":"Stadt"},"district":{"key":"08437","name":"Sigmaringen","type":"Landkreis"},"federalState":{"key":"08","name":"Baden-Württemberg"}},{"name":"Sportpark","postalCode":"72519","locality":"Veringenstadt","municipality":{"key":"08437114","name":"Veringenstadt, Stadt","type":"Stadt"},"district":{"key":"08437","name":"Sigmaringen","type":"Landkreis"},"federalState":{"key":"08","name":"Baden-Württemberg"}},{"name":"Stadtwiesenweg","postalCode":"72519","locality":"Veringenstadt","municipality":{"key":"08437114","name":"Veringenstadt, Stadt","type":"Stadt"},"district":{"key":"08437","name":"Sigmaringen","type":"Landkreis"},"federalState":{"key":"08","name":"Baden-Württemberg"}},{"name":"Strübstr.","postalCode":"72519","locality":"Veringenstadt","municipality":{"key":"08437114","name":"Veringenstadt, Stadt","type":"Stadt"},"district":{"key":"08437","name":"Sigmaringen","type":"Landkreis"},"federalState":{"key":"08","name":"Baden-Württemberg"}},{"name":"Tannenweg","postalCode":"72519","locality":"Veringenstadt","municipality":{"key":"08437114","name":"Veringenstadt, Stadt","type":"Stadt"},"district":{"key":"08437","name":"Sigmaringen","type":"Landkreis"},"federalState":{"key":"08","name":"Baden-Württemberg"}},{"name":"Tiroler Str.","postalCode":"72519","locality":"Veringenstadt","municipality":{"key":"08437114","name":"Veringenstadt, Stadt","type":"Stadt"},"district":{"key":"08437","name":"Sigmaringen","type":"Landkreis"},"federalState":{"key":"08","name":"Baden-Württemberg"}},{"name":"Uhlandstr.","postalCode":"72519","locality":"Veringenstadt","municipality":{"key":"08437114","name":"Veringenstadt, Stadt","type":"Stadt"},"district":{"key":"08437","name":"Sigmaringen","type":"Landkreis"},"federalState":{"key":"08","name":"Baden-Württemberg"}},{"name":"Unterdorf","postalCode":"72519","locality":"Veringenstadt","municipality":{"key":"08437114","name":"Veringenstadt, Stadt","type":"Stadt"},"district":{"key":"08437","name":"Sigmaringen","type":"Landkreis"},"federalState":{"key":"08","name":"Baden-Württemberg"}},{"name":"Unterstadt","postalCode":"72519","locality":"Veringenstadt","municipality":{"key":"08437114","name":"Veringenstadt, Stadt","type":"Stadt"},"district":{"key":"08437","name":"Sigmaringen","type":"Landkreis"},"federalState":{"key":"08","name":"Baden-Württemberg"}},{"name":"Veringendorfer Str.","postalCode":"72488","locality":"Sigmaringen","municipality":{"key":"08437104","name":"Sigmaringen, Stadt","type":"Stadt"},"district":{"key":"08437","name":"Sigmaringen","type":"Landkreis"},"federalState":{"key":"08","name":"Baden-Württemberg"}},{"name":"Volkwinhalde","postalCode":"72488","locality":"Sigmaringen","municipality":{"key":"08437104","name":"Sigmaringen, Stadt","type":"Stadt"},"district":{"key":"08437","name":"Sigmaringen","type":"Landkreis"},"federalState":{"key":"08","name":"Baden-Württemberg"}},{"name":"Von-Görtz-Str.","postalCode":"72488","locality":"Sigmaringen","municipality":{"key":"08437104","name":"Sigmaringen, Stadt","type":"Stadt"},"district":{"key":"08437","name":"Sigmaringen","type":"Landkreis"},"federalState":{"key":"08","name":"Baden-Württemberg"}},{"name":"Von-Ow-Str.","postalCode":"72488","locality":"Sigmaringen","municipality":{"key":"08437104","name":"Sigmaringen, Stadt","type":"Stadt"},"district":{"key":"08437","name":"Sigmaringen","type":"Landkreis"},"federalState":{"key":"08","name":"Baden-Württemberg"}},{"name":"Von-Sallwürk-Str.","postalCode":"72488","locality":"Sigmaringen","municipality":{"key":"08437104","name":"Sigmaringen, Stadt","type":"Stadt"},"district":{"key":"08437","name":"Sigmaringen","type":"Landkreis"},"federalState":{"key":"08","name":"Baden-Württemberg"}},{"name":"Wielandstr.","postalCode":"72519","locality":"Veringenstadt","municipality":{"key":"08437114","name":"Veringenstadt, Stadt","type":"Stadt"},"district":{"key":"08437","name":"Sigmaringen","type":"Landkreis"},"federalState":{"key":"08","name":"Baden-Württemberg"}},{"name":"Zeppelinstr.","postalCode":"72519","locality":"Veringenstadt","municipality":{"key":"08437114","name":"Veringenstadt, Stadt","type":"Stadt"},"district":{"key":"08437","name":"Sigmaringen","type":"Landkreis"},"federalState":{"key":"08","name":"Baden-Württemberg"}},{"name":"Äußerer Ghaibühl","postalCode":"72488","locality":"Sigmaringen","municipality":{"key":"08437104","name":"Sigmaringen, Stadt","type":"Stadt"},"district":{"key":"08437","name":"Sigmaringen","type":"Landkreis"},"federalState":{"key":"08","name":"Baden-Württemberg"}},]