[{"name":"Am Sportplatz","postalCode":"67725","locality":"Börrstadt","municipality":{"key":"07333009","name":"Börrstadt","type":"Kreisangehörige_Gemeinde"},"district":{"key":"07333","name":"Donnersbergkreis","type":"Landkreis"},"federalState":{"key":"07","name":"Rheinland-Pfalz"}},{"name":"Amtsstr.","postalCode":"67725","locality":"Börrstadt","municipality":{"key":"07333009","name":"Börrstadt","type":"Kreisangehörige_Gemeinde"},"district":{"key":"07333","name":"Donnersbergkreis","type":"Landkreis"},"federalState":{"key":"07","name":"Rheinland-Pfalz"}},{"name":"Born Tal","postalCode":"67725","locality":"Börrstadt","municipality":{"key":"07333009","name":"Börrstadt","type":"Kreisangehörige_Gemeinde"},"district":{"key":"07333","name":"Donnersbergkreis","type":"Landkreis"},"federalState":{"key":"07","name":"Rheinland-Pfalz"}},{"name":"Breunigweilerstr.","postalCode":"67725","locality":"Börrstadt","municipality":{"key":"07333009","name":"Börrstadt","type":"Kreisangehörige_Gemeinde"},"district":{"key":"07333","name":"Donnersbergkreis","type":"Landkreis"},"federalState":{"key":"07","name":"Rheinland-Pfalz"}},{"name":"Brunnenweg","postalCode":"67725","locality":"Börrstadt","municipality":{"key":"07333009","name":"Börrstadt","type":"Kreisangehörige_Gemeinde"},"district":{"key":"07333","name":"Donnersbergkreis","type":"Landkreis"},"federalState":{"key":"07","name":"Rheinland-Pfalz"}},{"name":"Eisenbahnstr.","postalCode":"67725","locality":"Börrstadt","municipality":{"key":"07333009","name":"Börrstadt","type":"Kreisangehörige_Gemeinde"},"district":{"key":"07333","name":"Donnersbergkreis","type":"Landkreis"},"federalState":{"key":"07","name":"Rheinland-Pfalz"}},{"name":"Flurstr.","postalCode":"67725","locality":"Börrstadt","municipality":{"key":"07333009","name":"Börrstadt","type":"Kreisangehörige_Gemeinde"},"district":{"key":"07333","name":"Donnersbergkreis","type":"Landkreis"},"federalState":{"key":"07","name":"Rheinland-Pfalz"}},{"name":"Friedhofstr.","postalCode":"67725","locality":"Börrstadt","municipality":{"key":"07333009","name":"Börrstadt","type":"Kreisangehörige_Gemeinde"},"district":{"key":"07333","name":"Donnersbergkreis","type":"Landkreis"},"federalState":{"key":"07","name":"Rheinland-Pfalz"}},{"name":"Gartenbahn Börrstadt","postalCode":"67725","locality":"Börrstadt","municipality":{"key":"07333009","name":"Börrstadt","type":"Kreisangehörige_Gemeinde"},"district":{"key":"07333","name":"Donnersbergkreis","type":"Landkreis"},"federalState":{"key":"07","name":"Rheinland-Pfalz"}},{"name":"Gartenweg","postalCode":"67725","locality":"Börrstadt","municipality":{"key":"07333009","name":"Börrstadt","type":"Kreisangehörige_Gemeinde"},"district":{"key":"07333","name":"Donnersbergkreis","type":"Landkreis"},"federalState":{"key":"07","name":"Rheinland-Pfalz"}},{"name":"Hahnweilerhof","postalCode":"67725","locality":"Börrstadt","municipality":{"key":"07333009","name":"Börrstadt","type":"Kreisangehörige_Gemeinde"},"district":{"key":"07333","name":"Donnersbergkreis","type":"Landkreis"},"federalState":{"key":"07","name":"Rheinland-Pfalz"}},{"name":"Hauptstr.","postalCode":"67725","locality":"Börrstadt","municipality":{"key":"07333009","name":"Börrstadt","type":"Kreisangehörige_Gemeinde"},"district":{"key":"07333","name":"Donnersbergkreis","type":"Landkreis"},"federalState":{"key":"07","name":"Rheinland-Pfalz"}},{"name":"Hintergasse","postalCode":"67725","locality":"Börrstadt","municipality":{"key":"07333009","name":"Börrstadt","type":"Kreisangehörige_Gemeinde"},"district":{"key":"07333","name":"Donnersbergkreis","type":"Landkreis"},"federalState":{"key":"07","name":"Rheinland-Pfalz"}},{"name":"Im Eck","postalCode":"67725","locality":"Börrstadt","municipality":{"key":"07333009","name":"Börrstadt","type":"Kreisangehörige_Gemeinde"},"district":{"key":"07333","name":"Donnersbergkreis","type":"Landkreis"},"federalState":{"key":"07","name":"Rheinland-Pfalz"}},{"name":"Im Kirchtal","postalCode":"67725","locality":"Börrstadt","municipality":{"key":"07333009","name":"Börrstadt","type":"Kreisangehörige_Gemeinde"},"district":{"key":"07333","name":"Donnersbergkreis","type":"Landkreis"},"federalState":{"key":"07","name":"Rheinland-Pfalz"}},{"name":"Kaiserstr.","postalCode":"67725","locality":"Börrstadt","municipality":{"key":"07333009","name":"Börrstadt","type":"Kreisangehörige_Gemeinde"},"district":{"key":"07333","name":"Donnersbergkreis","type":"Landkreis"},"federalState":{"key":"07","name":"Rheinland-Pfalz"}},{"name":"Kapellenweg","postalCode":"67725","locality":"Börrstadt","municipality":{"key":"07333009","name":"Börrstadt","type":"Kreisangehörige_Gemeinde"},"district":{"key":"07333","name":"Donnersbergkreis","type":"Landkreis"},"federalState":{"key":"07","name":"Rheinland-Pfalz"}},{"name":"Röderhof","postalCode":"67725","locality":"Börrstadt","municipality":{"key":"07333009","name":"Börrstadt","type":"Kreisangehörige_Gemeinde"},"district":{"key":"07333","name":"Donnersbergkreis","type":"Landkreis"},"federalState":{"key":"07","name":"Rheinland-Pfalz"}},{"name":"Schmittgasse","postalCode":"67725","locality":"Börrstadt","municipality":{"key":"07333009","name":"Börrstadt","type":"Kreisangehörige_Gemeinde"},"district":{"key":"07333","name":"Donnersbergkreis","type":"Landkreis"},"federalState":{"key":"07","name":"Rheinland-Pfalz"}},{"name":"Schulstr.","postalCode":"67725","locality":"Börrstadt","municipality":{"key":"07333009","name":"Börrstadt","type":"Kreisangehörige_Gemeinde"},"district":{"key":"07333","name":"Donnersbergkreis","type":"Landkreis"},"federalState":{"key":"07","name":"Rheinland-Pfalz"}},{"name":"Siedlerstr.","postalCode":"67725","locality":"Börrstadt","municipality":{"key":"07333009","name":"Börrstadt","type":"Kreisangehörige_Gemeinde"},"district":{"key":"07333","name":"Donnersbergkreis","type":"Landkreis"},"federalState":{"key":"07","name":"Rheinland-Pfalz"}},{"name":"Zum Petersberg","postalCode":"67725","locality":"Börrstadt","municipality":{"key":"07333009","name":"Börrstadt","type":"Kreisangehörige_Gemeinde"},"district":{"key":"07333","name":"Donnersbergkreis","type":"Landkreis"},"federalState":{"key":"07","name":"Rheinland-Pfalz"}},]