[{"name":"Alte Ziegelei","postalCode":"23968","locality":"Zierow","municipality":{"key":"13074089","name":"Zierow","type":"Kreisangehörige_Gemeinde"},"district":{"key":"13074","name":"Nordwestmecklenburg","type":"Landkreis"},"federalState":{"key":"13","name":"Mecklenburg-Vorpommern"}},{"name":"Am Schwanenteich","postalCode":"23968","locality":"Zierow","municipality":{"key":"13074089","name":"Zierow","type":"Kreisangehörige_Gemeinde"},"district":{"key":"13074","name":"Nordwestmecklenburg","type":"Landkreis"},"federalState":{"key":"13","name":"Mecklenburg-Vorpommern"}},{"name":"Amselweg","postalCode":"23968","locality":"Zierow","municipality":{"key":"13074089","name":"Zierow","type":"Kreisangehörige_Gemeinde"},"district":{"key":"13074","name":"Nordwestmecklenburg","type":"Landkreis"},"federalState":{"key":"13","name":"Mecklenburg-Vorpommern"}},{"name":"Bernsteinring","postalCode":"23968","locality":"Zierow","municipality":{"key":"13074089","name":"Zierow","type":"Kreisangehörige_Gemeinde"},"district":{"key":"13074","name":"Nordwestmecklenburg","type":"Landkreis"},"federalState":{"key":"13","name":"Mecklenburg-Vorpommern"}},{"name":"De Poeler Drift","postalCode":"23968","locality":"Zierow","municipality":{"key":"13074089","name":"Zierow","type":"Kreisangehörige_Gemeinde"},"district":{"key":"13074","name":"Nordwestmecklenburg","type":"Landkreis"},"federalState":{"key":"13","name":"Mecklenburg-Vorpommern"}},{"name":"Eggerstorf","postalCode":"23968","locality":"Zierow","municipality":{"key":"13074089","name":"Zierow","type":"Kreisangehörige_Gemeinde"},"district":{"key":"13074","name":"Nordwestmecklenburg","type":"Landkreis"},"federalState":{"key":"13","name":"Mecklenburg-Vorpommern"}},{"name":"Eulenseekoppel","postalCode":"23968","locality":"Zierow","municipality":{"key":"13074089","name":"Zierow","type":"Kreisangehörige_Gemeinde"},"district":{"key":"13074","name":"Nordwestmecklenburg","type":"Landkreis"},"federalState":{"key":"13","name":"Mecklenburg-Vorpommern"}},{"name":"Fliemstorf","postalCode":"23968","locality":"Zierow","municipality":{"key":"13074089","name":"Zierow","type":"Kreisangehörige_Gemeinde"},"district":{"key":"13074","name":"Nordwestmecklenburg","type":"Landkreis"},"federalState":{"key":"13","name":"Mecklenburg-Vorpommern"}},{"name":"Fliemstorfer Str.","postalCode":"23968","locality":"Zierow","municipality":{"key":"13074089","name":"Zierow","type":"Kreisangehörige_Gemeinde"},"district":{"key":"13074","name":"Nordwestmecklenburg","type":"Landkreis"},"federalState":{"key":"13","name":"Mecklenburg-Vorpommern"}},{"name":"Grasnelkenweg","postalCode":"23968","locality":"Zierow","municipality":{"key":"13074089","name":"Zierow","type":"Kreisangehörige_Gemeinde"},"district":{"key":"13074","name":"Nordwestmecklenburg","type":"Landkreis"},"federalState":{"key":"13","name":"Mecklenburg-Vorpommern"}},{"name":"Hofkoppel","postalCode":"23968","locality":"Zierow","municipality":{"key":"13074089","name":"Zierow","type":"Kreisangehörige_Gemeinde"},"district":{"key":"13074","name":"Nordwestmecklenburg","type":"Landkreis"},"federalState":{"key":"13","name":"Mecklenburg-Vorpommern"}},{"name":"Im Dorfe","postalCode":"23968","locality":"Zierow","municipality":{"key":"13074089","name":"Zierow","type":"Kreisangehörige_Gemeinde"},"district":{"key":"13074","name":"Nordwestmecklenburg","type":"Landkreis"},"federalState":{"key":"13","name":"Mecklenburg-Vorpommern"}},{"name":"Landstorf","postalCode":"23968","locality":"Zierow","municipality":{"key":"13074089","name":"Zierow","type":"Kreisangehörige_Gemeinde"},"district":{"key":"13074","name":"Nordwestmecklenburg","type":"Landkreis"},"federalState":{"key":"13","name":"Mecklenburg-Vorpommern"}},{"name":"Lindenstr.","postalCode":"23968","locality":"Zierow","municipality":{"key":"13074089","name":"Zierow","type":"Kreisangehörige_Gemeinde"},"district":{"key":"13074","name":"Nordwestmecklenburg","type":"Landkreis"},"federalState":{"key":"13","name":"Mecklenburg-Vorpommern"}},{"name":"Möwenweg","postalCode":"23968","locality":"Zierow","municipality":{"key":"13074089","name":"Zierow","type":"Kreisangehörige_Gemeinde"},"district":{"key":"13074","name":"Nordwestmecklenburg","type":"Landkreis"},"federalState":{"key":"13","name":"Mecklenburg-Vorpommern"}},{"name":"Muschelweg","postalCode":"23968","locality":"Zierow","municipality":{"key":"13074089","name":"Zierow","type":"Kreisangehörige_Gemeinde"},"district":{"key":"13074","name":"Nordwestmecklenburg","type":"Landkreis"},"federalState":{"key":"13","name":"Mecklenburg-Vorpommern"}},{"name":"Sanddornweg","postalCode":"23968","locality":"Zierow","municipality":{"key":"13074089","name":"Zierow","type":"Kreisangehörige_Gemeinde"},"district":{"key":"13074","name":"Nordwestmecklenburg","type":"Landkreis"},"federalState":{"key":"13","name":"Mecklenburg-Vorpommern"}},{"name":"Strandhaferweg","postalCode":"23968","locality":"Zierow","municipality":{"key":"13074089","name":"Zierow","type":"Kreisangehörige_Gemeinde"},"district":{"key":"13074","name":"Nordwestmecklenburg","type":"Landkreis"},"federalState":{"key":"13","name":"Mecklenburg-Vorpommern"}},{"name":"Weg nach Landstorf","postalCode":"23968","locality":"Zierow","municipality":{"key":"13074089","name":"Zierow","type":"Kreisangehörige_Gemeinde"},"district":{"key":"13074","name":"Nordwestmecklenburg","type":"Landkreis"},"federalState":{"key":"13","name":"Mecklenburg-Vorpommern"}},{"name":"Wisch","postalCode":"23968","locality":"Zierow","municipality":{"key":"13074089","name":"Zierow","type":"Kreisangehörige_Gemeinde"},"district":{"key":"13074","name":"Nordwestmecklenburg","type":"Landkreis"},"federalState":{"key":"13","name":"Mecklenburg-Vorpommern"}},{"name":"Wischer Str.","postalCode":"23968","locality":"Zierow","municipality":{"key":"13074089","name":"Zierow","type":"Kreisangehörige_Gemeinde"},"district":{"key":"13074","name":"Nordwestmecklenburg","type":"Landkreis"},"federalState":{"key":"13","name":"Mecklenburg-Vorpommern"}},{"name":"Zierower Landstr.","postalCode":"23968","locality":"Zierow","municipality":{"key":"13074089","name":"Zierow","type":"Kreisangehörige_Gemeinde"},"district":{"key":"13074","name":"Nordwestmecklenburg","type":"Landkreis"},"federalState":{"key":"13","name":"Mecklenburg-Vorpommern"}},]