[{"name":"Am Seebeek","postalCode":"24241","locality":"Blumenthal","municipality":{"key":"01058018","name":"Blumenthal","type":"Kreisangehörige_Gemeinde"},"district":{"key":"01058","name":"Rendsburg-Eckernförde","type":"Kreis"},"federalState":{"key":"01","name":"Schleswig-Holstein"}},{"name":"Blumenthaler Berg","postalCode":"24241","locality":"Blumenthal","municipality":{"key":"01058018","name":"Blumenthal","type":"Kreisangehörige_Gemeinde"},"district":{"key":"01058","name":"Rendsburg-Eckernförde","type":"Kreis"},"federalState":{"key":"01","name":"Schleswig-Holstein"}},{"name":"Dieker Weg","postalCode":"24241","locality":"Blumenthal","municipality":{"key":"01058018","name":"Blumenthal","type":"Kreisangehörige_Gemeinde"},"district":{"key":"01058","name":"Rendsburg-Eckernförde","type":"Kreis"},"federalState":{"key":"01","name":"Schleswig-Holstein"}},{"name":"Dorfstr.","postalCode":"24241","locality":"Blumenthal","municipality":{"key":"01058018","name":"Blumenthal","type":"Kreisangehörige_Gemeinde"},"district":{"key":"01058","name":"Rendsburg-Eckernförde","type":"Kreis"},"federalState":{"key":"01","name":"Schleswig-Holstein"}},{"name":"Forstweg","postalCode":"24241","locality":"Blumenthal","municipality":{"key":"01058018","name":"Blumenthal","type":"Kreisangehörige_Gemeinde"},"district":{"key":"01058","name":"Rendsburg-Eckernförde","type":"Kreis"},"federalState":{"key":"01","name":"Schleswig-Holstein"}},{"name":"Gärtnerstr.","postalCode":"24241","locality":"Blumenthal","municipality":{"key":"01058018","name":"Blumenthal","type":"Kreisangehörige_Gemeinde"},"district":{"key":"01058","name":"Rendsburg-Eckernförde","type":"Kreis"},"federalState":{"key":"01","name":"Schleswig-Holstein"}},{"name":"Hamburger Landstr.","postalCode":"24241","locality":"Blumenthal","municipality":{"key":"01058018","name":"Blumenthal","type":"Kreisangehörige_Gemeinde"},"district":{"key":"01058","name":"Rendsburg-Eckernförde","type":"Kreis"},"federalState":{"key":"01","name":"Schleswig-Holstein"}},{"name":"Hökerberg","postalCode":"24241","locality":"Blumenthal","municipality":{"key":"01058018","name":"Blumenthal","type":"Kreisangehörige_Gemeinde"},"district":{"key":"01058","name":"Rendsburg-Eckernförde","type":"Kreis"},"federalState":{"key":"01","name":"Schleswig-Holstein"}},{"name":"Im Winkel","postalCode":"24241","locality":"Blumenthal","municipality":{"key":"01058018","name":"Blumenthal","type":"Kreisangehörige_Gemeinde"},"district":{"key":"01058","name":"Rendsburg-Eckernförde","type":"Kreis"},"federalState":{"key":"01","name":"Schleswig-Holstein"}},{"name":"Jungfernstieg","postalCode":"24241","locality":"Blumenthal","municipality":{"key":"01058018","name":"Blumenthal","type":"Kreisangehörige_Gemeinde"},"district":{"key":"01058","name":"Rendsburg-Eckernförde","type":"Kreis"},"federalState":{"key":"01","name":"Schleswig-Holstein"}},{"name":"Kleiner Bornkrug","postalCode":"24241","locality":"Blumenthal","municipality":{"key":"01058018","name":"Blumenthal","type":"Kreisangehörige_Gemeinde"},"district":{"key":"01058","name":"Rendsburg-Eckernförde","type":"Kreis"},"federalState":{"key":"01","name":"Schleswig-Holstein"}},{"name":"Lehmberg","postalCode":"24241","locality":"Blumenthal","municipality":{"key":"01058018","name":"Blumenthal","type":"Kreisangehörige_Gemeinde"},"district":{"key":"01058","name":"Rendsburg-Eckernförde","type":"Kreis"},"federalState":{"key":"01","name":"Schleswig-Holstein"}},{"name":"Manhagener Weg","postalCode":"24241","locality":"Blumenthal","municipality":{"key":"01058018","name":"Blumenthal","type":"Kreisangehörige_Gemeinde"},"district":{"key":"01058","name":"Rendsburg-Eckernförde","type":"Kreis"},"federalState":{"key":"01","name":"Schleswig-Holstein"}},{"name":"Peter-Tews-Platz","postalCode":"24241","locality":"Blumenthal","municipality":{"key":"01058018","name":"Blumenthal","type":"Kreisangehörige_Gemeinde"},"district":{"key":"01058","name":"Rendsburg-Eckernförde","type":"Kreis"},"federalState":{"key":"01","name":"Schleswig-Holstein"}},{"name":"Roggenberg","postalCode":"24241","locality":"Blumenthal","municipality":{"key":"01058018","name":"Blumenthal","type":"Kreisangehörige_Gemeinde"},"district":{"key":"01058","name":"Rendsburg-Eckernförde","type":"Kreis"},"federalState":{"key":"01","name":"Schleswig-Holstein"}},{"name":"Schiepenholter Weg","postalCode":"24241","locality":"Blumenthal","municipality":{"key":"01058018","name":"Blumenthal","type":"Kreisangehörige_Gemeinde"},"district":{"key":"01058","name":"Rendsburg-Eckernförde","type":"Kreis"},"federalState":{"key":"01","name":"Schleswig-Holstein"}},{"name":"Schierenseer Weg","postalCode":"24241","locality":"Blumenthal","municipality":{"key":"01058018","name":"Blumenthal","type":"Kreisangehörige_Gemeinde"},"district":{"key":"01058","name":"Rendsburg-Eckernförde","type":"Kreis"},"federalState":{"key":"01","name":"Schleswig-Holstein"}},]