[{"key":"10008938","name":"Aareweg","postalCode":"4923","locality":"Wynau","commune":{"key":"345","name":"Wynau","shortName":"Wynau"},"district":{"key":"244","name":"Verwaltungskreis Oberaargau"},"canton":{"key":"2","code":"BE","name":"Bern / Berne"},"status":"Real"},{"key":"10084909","name":"Aarwangenstrasse","postalCode":"4923","locality":"Wynau","commune":{"key":"345","name":"Wynau","shortName":"Wynau"},"district":{"key":"244","name":"Verwaltungskreis Oberaargau"},"canton":{"key":"2","code":"BE","name":"Bern / Berne"},"status":"Real"},{"key":"10008939","name":"Aegertenstrasse","postalCode":"4923","locality":"Wynau","commune":{"key":"345","name":"Wynau","shortName":"Wynau"},"district":{"key":"244","name":"Verwaltungskreis Oberaargau"},"canton":{"key":"2","code":"BE","name":"Bern / Berne"},"status":"Real"},{"key":"10104225","name":"Belchenstrasse","postalCode":"4923","locality":"Wynau","commune":{"key":"345","name":"Wynau","shortName":"Wynau"},"district":{"key":"244","name":"Verwaltungskreis Oberaargau"},"canton":{"key":"2","code":"BE","name":"Bern / Berne"},"status":"Real"},{"key":"10008940","name":"Bernstrasse","postalCode":"4923","locality":"Wynau","commune":{"key":"345","name":"Wynau","shortName":"Wynau"},"district":{"key":"244","name":"Verwaltungskreis Oberaargau"},"canton":{"key":"2","code":"BE","name":"Bern / Berne"},"status":"Real"},{"key":"10182864","name":"Birchstrasse","postalCode":"4923","locality":"Wynau","commune":{"key":"345","name":"Wynau","shortName":"Wynau"},"district":{"key":"244","name":"Verwaltungskreis Oberaargau"},"canton":{"key":"2","code":"BE","name":"Bern / Berne"},"status":"Real"},{"key":"10084910","name":"Blüemlismattstrasse","postalCode":"4923","locality":"Wynau","commune":{"key":"345","name":"Wynau","shortName":"Wynau"},"district":{"key":"244","name":"Verwaltungskreis Oberaargau"},"canton":{"key":"2","code":"BE","name":"Bern / Berne"},"status":"Real"},{"key":"10008941","name":"Büntenweg","postalCode":"4923","locality":"Wynau","commune":{"key":"345","name":"Wynau","shortName":"Wynau"},"district":{"key":"244","name":"Verwaltungskreis Oberaargau"},"canton":{"key":"2","code":"BE","name":"Bern / Berne"},"status":"Real"},{"key":"10152583","name":"Burgerweg","postalCode":"4923","locality":"Wynau","commune":{"key":"345","name":"Wynau","shortName":"Wynau"},"district":{"key":"244","name":"Verwaltungskreis Oberaargau"},"canton":{"key":"2","code":"BE","name":"Bern / Berne"},"status":"Real"},{"key":"10188561","name":"Cholbettistrasse","postalCode":"4923","locality":"Wynau","commune":{"key":"345","name":"Wynau","shortName":"Wynau"},"district":{"key":"244","name":"Verwaltungskreis Oberaargau"},"canton":{"key":"2","code":"BE","name":"Bern / Berne"},"status":"Real"},{"key":"10117842","name":"Einschlagstrasse","postalCode":"4923","locality":"Wynau","commune":{"key":"345","name":"Wynau","shortName":"Wynau"},"district":{"key":"244","name":"Verwaltungskreis Oberaargau"},"canton":{"key":"2","code":"BE","name":"Bern / Berne"},"status":"Real"},{"key":"10180919","name":"Engelbergstrasse","postalCode":"4923","locality":"Wynau","commune":{"key":"345","name":"Wynau","shortName":"Wynau"},"district":{"key":"244","name":"Verwaltungskreis Oberaargau"},"canton":{"key":"2","code":"BE","name":"Bern / Berne"},"status":"Real"},{"key":"10008943","name":"Feldstrasse","postalCode":"4923","locality":"Wynau","commune":{"key":"345","name":"Wynau","shortName":"Wynau"},"district":{"key":"244","name":"Verwaltungskreis Oberaargau"},"canton":{"key":"2","code":"BE","name":"Bern / Berne"},"status":"Real"},{"key":"10062640","name":"Flurweg","postalCode":"4923","locality":"Wynau","commune":{"key":"345","name":"Wynau","shortName":"Wynau"},"district":{"key":"244","name":"Verwaltungskreis Oberaargau"},"canton":{"key":"2","code":"BE","name":"Bern / Berne"},"status":"Real"},{"key":"10112368","name":"Friedaustrasse","postalCode":"4923","locality":"Wynau","commune":{"key":"345","name":"Wynau","shortName":"Wynau"},"district":{"key":"244","name":"Verwaltungskreis Oberaargau"},"canton":{"key":"2","code":"BE","name":"Bern / Berne"},"status":"Real"},{"key":"10084911","name":"Gässli","postalCode":"4923","locality":"Wynau","commune":{"key":"345","name":"Wynau","shortName":"Wynau"},"district":{"key":"244","name":"Verwaltungskreis Oberaargau"},"canton":{"key":"2","code":"BE","name":"Bern / Berne"},"status":"Real"},{"key":"10217228","name":"Gerberain","postalCode":"4923","locality":"Wynau","commune":{"key":"345","name":"Wynau","shortName":"Wynau"},"district":{"key":"244","name":"Verwaltungskreis Oberaargau"},"canton":{"key":"2","code":"BE","name":"Bern / Berne"},"status":"Real"},{"key":"10062641","name":"Grubenstrasse","postalCode":"4923","locality":"Wynau","commune":{"key":"345","name":"Wynau","shortName":"Wynau"},"district":{"key":"244","name":"Verwaltungskreis Oberaargau"},"canton":{"key":"2","code":"BE","name":"Bern / Berne"},"status":"Real"},{"key":"10008944","name":"Grünweg","postalCode":"4923","locality":"Wynau","commune":{"key":"345","name":"Wynau","shortName":"Wynau"},"district":{"key":"244","name":"Verwaltungskreis Oberaargau"},"canton":{"key":"2","code":"BE","name":"Bern / Berne"},"status":"Real"},{"key":"10182865","name":"Gsteigweg","postalCode":"4923","locality":"Wynau","commune":{"key":"345","name":"Wynau","shortName":"Wynau"},"district":{"key":"244","name":"Verwaltungskreis Oberaargau"},"canton":{"key":"2","code":"BE","name":"Bern / Berne"},"status":"Real"},{"key":"10127996","name":"Gugelmannstrasse","postalCode":"4923","locality":"Wynau","commune":{"key":"345","name":"Wynau","shortName":"Wynau"},"district":{"key":"244","name":"Verwaltungskreis Oberaargau"},"canton":{"key":"2","code":"BE","name":"Bern / Berne"},"status":"Real"},{"key":"10008945","name":"Höchackerweg","postalCode":"4923","locality":"Wynau","commune":{"key":"345","name":"Wynau","shortName":"Wynau"},"district":{"key":"244","name":"Verwaltungskreis Oberaargau"},"canton":{"key":"2","code":"BE","name":"Bern / Berne"},"status":"Real"},{"key":"10062642","name":"Hoferrain","postalCode":"4923","locality":"Wynau","commune":{"key":"345","name":"Wynau","shortName":"Wynau"},"district":{"key":"244","name":"Verwaltungskreis Oberaargau"},"canton":{"key":"2","code":"BE","name":"Bern / Berne"},"status":"Real"},{"key":"10008946","name":"Höhestrasse","postalCode":"4923","locality":"Wynau","commune":{"key":"345","name":"Wynau","shortName":"Wynau"},"district":{"key":"244","name":"Verwaltungskreis Oberaargau"},"canton":{"key":"2","code":"BE","name":"Bern / Berne"},"status":"Real"},{"key":"10217231","name":"Hüttenrain","postalCode":"4923","locality":"Wynau","commune":{"key":"345","name":"Wynau","shortName":"Wynau"},"district":{"key":"244","name":"Verwaltungskreis Oberaargau"},"canton":{"key":"2","code":"BE","name":"Bern / Berne"},"status":"Real"},{"key":"10084912","name":"Industriestrasse","postalCode":"4923","locality":"Wynau","commune":{"key":"345","name":"Wynau","shortName":"Wynau"},"district":{"key":"244","name":"Verwaltungskreis Oberaargau"},"canton":{"key":"2","code":"BE","name":"Bern / Berne"},"status":"Real"},{"key":"10062643","name":"Jurastrasse","postalCode":"4923","locality":"Wynau","commune":{"key":"345","name":"Wynau","shortName":"Wynau"},"district":{"key":"244","name":"Verwaltungskreis Oberaargau"},"canton":{"key":"2","code":"BE","name":"Bern / Berne"},"status":"Real"},{"key":"10008947","name":"Kanzleistrasse","postalCode":"4923","locality":"Wynau","commune":{"key":"345","name":"Wynau","shortName":"Wynau"},"district":{"key":"244","name":"Verwaltungskreis Oberaargau"},"canton":{"key":"2","code":"BE","name":"Bern / Berne"},"status":"Real"},{"key":"10008948","name":"Kapellenweg","postalCode":"4923","locality":"Wynau","commune":{"key":"345","name":"Wynau","shortName":"Wynau"},"district":{"key":"244","name":"Verwaltungskreis Oberaargau"},"canton":{"key":"2","code":"BE","name":"Bern / Berne"},"status":"Real"},{"key":"10217235","name":"Kellenboden","postalCode":"4923","locality":"Wynau","commune":{"key":"345","name":"Wynau","shortName":"Wynau"},"district":{"key":"244","name":"Verwaltungskreis Oberaargau"},"canton":{"key":"2","code":"BE","name":"Bern / Berne"},"status":"Real"},{"key":"10182866","name":"Kirchweg","postalCode":"4923","locality":"Wynau","commune":{"key":"345","name":"Wynau","shortName":"Wynau"},"district":{"key":"244","name":"Verwaltungskreis Oberaargau"},"canton":{"key":"2","code":"BE","name":"Bern / Berne"},"status":"Real"},{"key":"10104226","name":"Kleinfeldweg","postalCode":"4923","locality":"Wynau","commune":{"key":"345","name":"Wynau","shortName":"Wynau"},"district":{"key":"244","name":"Verwaltungskreis Oberaargau"},"canton":{"key":"2","code":"BE","name":"Bern / Berne"},"status":"Real"},{"key":"10008949","name":"Leutschenweg","postalCode":"4923","locality":"Wynau","commune":{"key":"345","name":"Wynau","shortName":"Wynau"},"district":{"key":"244","name":"Verwaltungskreis Oberaargau"},"canton":{"key":"2","code":"BE","name":"Bern / Berne"},"status":"Real"},{"key":"10008950","name":"Mettlenweg","postalCode":"4923","locality":"Wynau","commune":{"key":"345","name":"Wynau","shortName":"Wynau"},"district":{"key":"244","name":"Verwaltungskreis Oberaargau"},"canton":{"key":"2","code":"BE","name":"Bern / Berne"},"status":"Real"},{"key":"10084913","name":"Murgstrasse","postalCode":"4923","locality":"Wynau","commune":{"key":"345","name":"Wynau","shortName":"Wynau"},"district":{"key":"244","name":"Verwaltungskreis Oberaargau"},"canton":{"key":"2","code":"BE","name":"Bern / Berne"},"status":"Real"},{"key":"10117843","name":"Poststrasse","postalCode":"4923","locality":"Wynau","commune":{"key":"345","name":"Wynau","shortName":"Wynau"},"district":{"key":"244","name":"Verwaltungskreis Oberaargau"},"canton":{"key":"2","code":"BE","name":"Bern / Berne"},"status":"Real"},{"key":"10008951","name":"Quellenweg","postalCode":"4923","locality":"Wynau","commune":{"key":"345","name":"Wynau","shortName":"Wynau"},"district":{"key":"244","name":"Verwaltungskreis Oberaargau"},"canton":{"key":"2","code":"BE","name":"Bern / Berne"},"status":"Real"},{"key":"10008952","name":"Ringstrasse","postalCode":"4923","locality":"Wynau","commune":{"key":"345","name":"Wynau","shortName":"Wynau"},"district":{"key":"244","name":"Verwaltungskreis Oberaargau"},"canton":{"key":"2","code":"BE","name":"Bern / Berne"},"status":"Real"},{"key":"10084914","name":"Roggenweg","postalCode":"4923","locality":"Wynau","commune":{"key":"345","name":"Wynau","shortName":"Wynau"},"district":{"key":"244","name":"Verwaltungskreis Oberaargau"},"canton":{"key":"2","code":"BE","name":"Bern / Berne"},"status":"Real"},{"key":"10179927","name":"Rüti","postalCode":"4923","locality":"Wynau","commune":{"key":"345","name":"Wynau","shortName":"Wynau"},"district":{"key":"244","name":"Verwaltungskreis Oberaargau"},"canton":{"key":"2","code":"BE","name":"Bern / Berne"},"status":"Real"},{"key":"10062644","name":"Rütiweg","postalCode":"4923","locality":"Wynau","commune":{"key":"345","name":"Wynau","shortName":"Wynau"},"district":{"key":"244","name":"Verwaltungskreis Oberaargau"},"canton":{"key":"2","code":"BE","name":"Bern / Berne"},"status":"Real"},{"key":"10104227","name":"Sälistrasse","postalCode":"4923","locality":"Wynau","commune":{"key":"345","name":"Wynau","shortName":"Wynau"},"district":{"key":"244","name":"Verwaltungskreis Oberaargau"},"canton":{"key":"2","code":"BE","name":"Bern / Berne"},"status":"Real"},{"key":"10124129","name":"Schoneggweg","postalCode":"4923","locality":"Wynau","commune":{"key":"345","name":"Wynau","shortName":"Wynau"},"district":{"key":"244","name":"Verwaltungskreis Oberaargau"},"canton":{"key":"2","code":"BE","name":"Bern / Berne"},"status":"Real"},{"key":"10008953","name":"Schulhausstrasse","postalCode":"4923","locality":"Wynau","commune":{"key":"345","name":"Wynau","shortName":"Wynau"},"district":{"key":"244","name":"Verwaltungskreis Oberaargau"},"canton":{"key":"2","code":"BE","name":"Bern / Berne"},"status":"Real"},{"key":"10008954","name":"Schützenrain","postalCode":"4923","locality":"Wynau","commune":{"key":"345","name":"Wynau","shortName":"Wynau"},"district":{"key":"244","name":"Verwaltungskreis Oberaargau"},"canton":{"key":"2","code":"BE","name":"Bern / Berne"},"status":"Real"},{"key":"10128976","name":"Untere Einschlagstrasse","postalCode":"4923","locality":"Wynau","commune":{"key":"345","name":"Wynau","shortName":"Wynau"},"district":{"key":"244","name":"Verwaltungskreis Oberaargau"},"canton":{"key":"2","code":"BE","name":"Bern / Berne"},"status":"Real"},{"key":"10182867","name":"Weiherweg","postalCode":"4923","locality":"Wynau","commune":{"key":"345","name":"Wynau","shortName":"Wynau"},"district":{"key":"244","name":"Verwaltungskreis Oberaargau"},"canton":{"key":"2","code":"BE","name":"Bern / Berne"},"status":"Real"},{"key":"10084915","name":"Weissensteinstrasse","postalCode":"4923","locality":"Wynau","commune":{"key":"345","name":"Wynau","shortName":"Wynau"},"district":{"key":"244","name":"Verwaltungskreis Oberaargau"},"canton":{"key":"2","code":"BE","name":"Bern / Berne"},"status":"Real"},{"key":"10220572","name":"Winkelbergwald","postalCode":"4923","locality":"Wynau","commune":{"key":"345","name":"Wynau","shortName":"Wynau"},"district":{"key":"244","name":"Verwaltungskreis Oberaargau"},"canton":{"key":"2","code":"BE","name":"Bern / Berne"},"status":"Real"},]