[{"name":"Aalbruch","postalCode":"17489","locality":"Greifswald","municipality":{"key":"13075039","name":"Greifswald, Universitäts- und Hansestadt","type":"Stadt"},"district":{"key":"13075","name":"Vorpommern-Greifswald","type":"Landkreis"},"federalState":{"key":"13","name":"Mecklenburg-Vorpommern"}},{"name":"Adolf-Hofmeister-Weg","postalCode":"17491","locality":"Greifswald","municipality":{"key":"13075039","name":"Greifswald, Universitäts- und Hansestadt","type":"Stadt"},"district":{"key":"13075","name":"Vorpommern-Greifswald","type":"Landkreis"},"federalState":{"key":"13","name":"Mecklenburg-Vorpommern"}},{"name":"Ahornweg","postalCode":"17493","locality":"Greifswald","municipality":{"key":"13075039","name":"Greifswald, Universitäts- und Hansestadt","type":"Stadt"},"district":{"key":"13075","name":"Vorpommern-Greifswald","type":"Landkreis"},"federalState":{"key":"13","name":"Mecklenburg-Vorpommern"}},{"name":"Alfred-Wegener-Str.","postalCode":"17493","locality":"Greifswald","municipality":{"key":"13075039","name":"Greifswald, Universitäts- und Hansestadt","type":"Stadt"},"district":{"key":"13075","name":"Vorpommern-Greifswald","type":"Landkreis"},"federalState":{"key":"13","name":"Mecklenburg-Vorpommern"}},{"name":"Alte Brauerei","postalCode":"17489","locality":"Greifswald","municipality":{"key":"13075039","name":"Greifswald, Universitäts- und Hansestadt","type":"Stadt"},"district":{"key":"13075","name":"Vorpommern-Greifswald","type":"Landkreis"},"federalState":{"key":"13","name":"Mecklenburg-Vorpommern"}},{"name":"Am Bierbach","postalCode":"17493","locality":"Greifswald","municipality":{"key":"13075039","name":"Greifswald, Universitäts- und Hansestadt","type":"Stadt"},"district":{"key":"13075","name":"Vorpommern-Greifswald","type":"Landkreis"},"federalState":{"key":"13","name":"Mecklenburg-Vorpommern"}},{"name":"Am Elisenpark","postalCode":"17491","locality":"Greifswald","municipality":{"key":"13075039","name":"Greifswald, Universitäts- und Hansestadt","type":"Stadt"},"district":{"key":"13075","name":"Vorpommern-Greifswald","type":"Landkreis"},"federalState":{"key":"13","name":"Mecklenburg-Vorpommern"}},{"name":"Am Gorzberg","postalCode":"17489","locality":"Greifswald","municipality":{"key":"13075039","name":"Greifswald, Universitäts- und Hansestadt","type":"Stadt"},"district":{"key":"13075","name":"Vorpommern-Greifswald","type":"Landkreis"},"federalState":{"key":"13","name":"Mecklenburg-Vorpommern"}},{"name":"Am Grünland","postalCode":"17489","locality":"Greifswald","municipality":{"key":"13075039","name":"Greifswald, Universitäts- und Hansestadt","type":"Stadt"},"district":{"key":"13075","name":"Vorpommern-Greifswald","type":"Landkreis"},"federalState":{"key":"13","name":"Mecklenburg-Vorpommern"}},{"name":"Am Hafen","postalCode":"17493","locality":"Greifswald","municipality":{"key":"13075039","name":"Greifswald, Universitäts- und Hansestadt","type":"Stadt"},"district":{"key":"13075","name":"Vorpommern-Greifswald","type":"Landkreis"},"federalState":{"key":"13","name":"Mecklenburg-Vorpommern"}},{"name":"Am Hang","postalCode":"17493","locality":"Greifswald","municipality":{"key":"13075039","name":"Greifswald, Universitäts- und Hansestadt","type":"Stadt"},"district":{"key":"13075","name":"Vorpommern-Greifswald","type":"Landkreis"},"federalState":{"key":"13","name":"Mecklenburg-Vorpommern"}},{"name":"Am Helmshäger Berg","postalCode":"17489","locality":"Greifswald","municipality":{"key":"13075039","name":"Greifswald, Universitäts- und Hansestadt","type":"Stadt"},"district":{"key":"13075","name":"Vorpommern-Greifswald","type":"Landkreis"},"federalState":{"key":"13","name":"Mecklenburg-Vorpommern"}},{"name":"Am Koppelberg","postalCode":"17489","locality":"Greifswald","municipality":{"key":"13075039","name":"Greifswald, Universitäts- und Hansestadt","type":"Stadt"},"district":{"key":"13075","name":"Vorpommern-Greifswald","type":"Landkreis"},"federalState":{"key":"13","name":"Mecklenburg-Vorpommern"}},{"name":"Am Neuen Friedhof","postalCode":"17489","locality":"Greifswald","municipality":{"key":"13075039","name":"Greifswald, Universitäts- und Hansestadt","type":"Stadt"},"district":{"key":"13075","name":"Vorpommern-Greifswald","type":"Landkreis"},"federalState":{"key":"13","name":"Mecklenburg-Vorpommern"}},{"name":"Am Rundling","postalCode":"17493","locality":"Greifswald","municipality":{"key":"13075039","name":"Greifswald, Universitäts- und Hansestadt","type":"Stadt"},"district":{"key":"13075","name":"Vorpommern-Greifswald","type":"Landkreis"},"federalState":{"key":"13","name":"Mecklenburg-Vorpommern"}},{"name":"Am Ryck","postalCode":"17493","locality":"Greifswald","municipality":{"key":"13075039","name":"Greifswald, Universitäts- und Hansestadt","type":"Stadt"},"district":{"key":"13075","name":"Vorpommern-Greifswald","type":"Landkreis"},"federalState":{"key":"13","name":"Mecklenburg-Vorpommern"}},{"name":"Am Schießwall","postalCode":"17489","locality":"Greifswald","municipality":{"key":"13075039","name":"Greifswald, Universitäts- und Hansestadt","type":"Stadt"},"district":{"key":"13075","name":"Vorpommern-Greifswald","type":"Landkreis"},"federalState":{"key":"13","name":"Mecklenburg-Vorpommern"}},{"name":"Amselweg","postalCode":"17493","locality":"Greifswald","municipality":{"key":"13075039","name":"Greifswald, Universitäts- und Hansestadt","type":"Stadt"},"district":{"key":"13075","name":"Vorpommern-Greifswald","type":"Landkreis"},"federalState":{"key":"13","name":"Mecklenburg-Vorpommern"}},{"name":"Am St.Georgsfeld","postalCode":"17489","locality":"Greifswald","municipality":{"key":"13075039","name":"Greifswald, Universitäts- und Hansestadt","type":"Stadt"},"district":{"key":"13075","name":"Vorpommern-Greifswald","type":"Landkreis"},"federalState":{"key":"13","name":"Mecklenburg-Vorpommern"}},{"name":"Am Teich","postalCode":"17493","locality":"Greifswald","municipality":{"key":"13075039","name":"Greifswald, Universitäts- und Hansestadt","type":"Stadt"},"district":{"key":"13075","name":"Vorpommern-Greifswald","type":"Landkreis"},"federalState":{"key":"13","name":"Mecklenburg-Vorpommern"}},{"name":"An den Bäckerwiesen","postalCode":"17489","locality":"Greifswald","municipality":{"key":"13075039","name":"Greifswald, Universitäts- und Hansestadt","type":"Stadt"},"district":{"key":"13075","name":"Vorpommern-Greifswald","type":"Landkreis"},"federalState":{"key":"13","name":"Mecklenburg-Vorpommern"}},{"name":"An den Martenswiesen","postalCode":"17489","locality":"Greifswald","municipality":{"key":"13075039","name":"Greifswald, Universitäts- und Hansestadt","type":"Stadt"},"district":{"key":"13075","name":"Vorpommern-Greifswald","type":"Landkreis"},"federalState":{"key":"13","name":"Mecklenburg-Vorpommern"}},{"name":"An den Wurthen","postalCode":"17489","locality":"Greifswald","municipality":{"key":"13075039","name":"Greifswald, Universitäts- und Hansestadt","type":"Stadt"},"district":{"key":"13075","name":"Vorpommern-Greifswald","type":"Landkreis"},"federalState":{"key":"13","name":"Mecklenburg-Vorpommern"}},{"name":"An der Bleiche","postalCode":"17489","locality":"Greifswald","municipality":{"key":"13075039","name":"Greifswald, Universitäts- und Hansestadt","type":"Stadt"},"district":{"key":"13075","name":"Vorpommern-Greifswald","type":"Landkreis"},"federalState":{"key":"13","name":"Mecklenburg-Vorpommern"}},{"name":"An der Christuskirche","postalCode":"17491","locality":"Greifswald","municipality":{"key":"13075039","name":"Greifswald, Universitäts- und Hansestadt","type":"Stadt"},"district":{"key":"13075","name":"Vorpommern-Greifswald","type":"Landkreis"},"federalState":{"key":"13","name":"Mecklenburg-Vorpommern"}},{"name":"An der Heuwiese","postalCode":"17491","locality":"Greifswald","municipality":{"key":"13075039","name":"Greifswald, Universitäts- und Hansestadt","type":"Stadt"},"district":{"key":"13075","name":"Vorpommern-Greifswald","type":"Landkreis"},"federalState":{"key":"13","name":"Mecklenburg-Vorpommern"}},{"name":"An der Jungfernwiese","postalCode":"17489","locality":"Greifswald","municipality":{"key":"13075039","name":"Greifswald, Universitäts- und Hansestadt","type":"Stadt"},"district":{"key":"13075","name":"Vorpommern-Greifswald","type":"Landkreis"},"federalState":{"key":"13","name":"Mecklenburg-Vorpommern"}},{"name":"An der Klosterruine","postalCode":"17493","locality":"Greifswald","municipality":{"key":"13075039","name":"Greifswald, Universitäts- und Hansestadt","type":"Stadt"},"district":{"key":"13075","name":"Vorpommern-Greifswald","type":"Landkreis"},"federalState":{"key":"13","name":"Mecklenburg-Vorpommern"}},{"name":"An der Mühle","postalCode":"17493","locality":"Greifswald","municipality":{"key":"13075039","name":"Greifswald, Universitäts- und Hansestadt","type":"Stadt"},"district":{"key":"13075","name":"Vorpommern-Greifswald","type":"Landkreis"},"federalState":{"key":"13","name":"Mecklenburg-Vorpommern"}},{"name":"An der Silberpappel","postalCode":"17493","locality":"Greifswald","municipality":{"key":"13075039","name":"Greifswald, Universitäts- und Hansestadt","type":"Stadt"},"district":{"key":"13075","name":"Vorpommern-Greifswald","type":"Landkreis"},"federalState":{"key":"13","name":"Mecklenburg-Vorpommern"}},{"name":"An der Sparkasse","postalCode":"17489","locality":"Greifswald","municipality":{"key":"13075039","name":"Greifswald, Universitäts- und Hansestadt","type":"Stadt"},"district":{"key":"13075","name":"Vorpommern-Greifswald","type":"Landkreis"},"federalState":{"key":"13","name":"Mecklenburg-Vorpommern"}},{"name":"An der Thronpost","postalCode":"17489","locality":"Greifswald","municipality":{"key":"13075039","name":"Greifswald, Universitäts- und Hansestadt","type":"Stadt"},"district":{"key":"13075","name":"Vorpommern-Greifswald","type":"Landkreis"},"federalState":{"key":"13","name":"Mecklenburg-Vorpommern"}},{"name":"An der Wiek","postalCode":"17493","locality":"Greifswald","municipality":{"key":"13075039","name":"Greifswald, Universitäts- und Hansestadt","type":"Stadt"},"district":{"key":"13075","name":"Vorpommern-Greifswald","type":"Landkreis"},"federalState":{"key":"13","name":"Mecklenburg-Vorpommern"}},{"name":"Andreas-Mayer-Str.","postalCode":"17491","locality":"Greifswald","municipality":{"key":"13075039","name":"Greifswald, Universitäts- und Hansestadt","type":"Stadt"},"district":{"key":"13075","name":"Vorpommern-Greifswald","type":"Landkreis"},"federalState":{"key":"13","name":"Mecklenburg-Vorpommern"}},{"name":"Anger","postalCode":"17489","locality":"Greifswald","municipality":{"key":"13075039","name":"Greifswald, Universitäts- und Hansestadt","type":"Stadt"},"district":{"key":"13075","name":"Vorpommern-Greifswald","type":"Landkreis"},"federalState":{"key":"13","name":"Mecklenburg-Vorpommern"}},{"name":"Anklamer Landstr.","postalCode":"17491","locality":"Greifswald","municipality":{"key":"13075039","name":"Greifswald, Universitäts- und Hansestadt","type":"Stadt"},"district":{"key":"13075","name":"Vorpommern-Greifswald","type":"Landkreis"},"federalState":{"key":"13","name":"Mecklenburg-Vorpommern"}},{"name":"Anklamer Str.","postalCode":"17489","locality":"Greifswald","municipality":{"key":"13075039","name":"Greifswald, Universitäts- und Hansestadt","type":"Stadt"},"district":{"key":"13075","name":"Vorpommern-Greifswald","type":"Landkreis"},"federalState":{"key":"13","name":"Mecklenburg-Vorpommern"}},{"name":"Anklamer Str.","postalCode":"17491","locality":"Greifswald","municipality":{"key":"13075039","name":"Greifswald, Universitäts- und Hansestadt","type":"Stadt"},"district":{"key":"13075","name":"Vorpommern-Greifswald","type":"Landkreis"},"federalState":{"key":"13","name":"Mecklenburg-Vorpommern"}},{"name":"Anlagen","postalCode":"17489","locality":"Greifswald","municipality":{"key":"13075039","name":"Greifswald, Universitäts- und Hansestadt","type":"Stadt"},"district":{"key":"13075","name":"Vorpommern-Greifswald","type":"Landkreis"},"federalState":{"key":"13","name":"Mecklenburg-Vorpommern"}},{"name":"Apfelweg","postalCode":"17489","locality":"Greifswald","municipality":{"key":"13075039","name":"Greifswald, Universitäts- und Hansestadt","type":"Stadt"},"district":{"key":"13075","name":"Vorpommern-Greifswald","type":"Landkreis"},"federalState":{"key":"13","name":"Mecklenburg-Vorpommern"}},{"name":"Arndtstr.","postalCode":"17489","locality":"Greifswald","municipality":{"key":"13075039","name":"Greifswald, Universitäts- und Hansestadt","type":"Stadt"},"district":{"key":"13075","name":"Vorpommern-Greifswald","type":"Landkreis"},"federalState":{"key":"13","name":"Mecklenburg-Vorpommern"}},{"name":"August-Bebel-Platz","postalCode":"17489","locality":"Greifswald","municipality":{"key":"13075039","name":"Greifswald, Universitäts- und Hansestadt","type":"Stadt"},"district":{"key":"13075","name":"Vorpommern-Greifswald","type":"Landkreis"},"federalState":{"key":"13","name":"Mecklenburg-Vorpommern"}},{"name":"Baderstr.","postalCode":"17489","locality":"Greifswald","municipality":{"key":"13075039","name":"Greifswald, Universitäts- und Hansestadt","type":"Stadt"},"district":{"key":"13075","name":"Vorpommern-Greifswald","type":"Landkreis"},"federalState":{"key":"13","name":"Mecklenburg-Vorpommern"}},{"name":"Bahnhofstr.","postalCode":"17489","locality":"Greifswald","municipality":{"key":"13075039","name":"Greifswald, Universitäts- und Hansestadt","type":"Stadt"},"district":{"key":"13075","name":"Vorpommern-Greifswald","type":"Landkreis"},"federalState":{"key":"13","name":"Mecklenburg-Vorpommern"}},{"name":"Bauernstr.","postalCode":"17493","locality":"Greifswald","municipality":{"key":"13075039","name":"Greifswald, Universitäts- und Hansestadt","type":"Stadt"},"district":{"key":"13075","name":"Vorpommern-Greifswald","type":"Landkreis"},"federalState":{"key":"13","name":"Mecklenburg-Vorpommern"}},{"name":"Baumhaselweg","postalCode":"17493","locality":"Greifswald","municipality":{"key":"13075039","name":"Greifswald, Universitäts- und Hansestadt","type":"Stadt"},"district":{"key":"13075","name":"Vorpommern-Greifswald","type":"Landkreis"},"federalState":{"key":"13","name":"Mecklenburg-Vorpommern"}},{"name":"Baustr.","postalCode":"17489","locality":"Greifswald","municipality":{"key":"13075039","name":"Greifswald, Universitäts- und Hansestadt","type":"Stadt"},"district":{"key":"13075","name":"Vorpommern-Greifswald","type":"Landkreis"},"federalState":{"key":"13","name":"Mecklenburg-Vorpommern"}},{"name":"Bergweg","postalCode":"17493","locality":"Greifswald","municipality":{"key":"13075039","name":"Greifswald, Universitäts- und Hansestadt","type":"Stadt"},"district":{"key":"13075","name":"Vorpommern-Greifswald","type":"Landkreis"},"federalState":{"key":"13","name":"Mecklenburg-Vorpommern"}},{"name":"Bernhard-Birkhahn-Weg","postalCode":"17491","locality":"Greifswald","municipality":{"key":"13075039","name":"Greifswald, Universitäts- und Hansestadt","type":"Stadt"},"district":{"key":"13075","name":"Vorpommern-Greifswald","type":"Landkreis"},"federalState":{"key":"13","name":"Mecklenburg-Vorpommern"}},{"name":"Bertha-von-Suttner-Str.","postalCode":"17493","locality":"Greifswald","municipality":{"key":"13075039","name":"Greifswald, Universitäts- und Hansestadt","type":"Stadt"},"district":{"key":"13075","name":"Vorpommern-Greifswald","type":"Landkreis"},"federalState":{"key":"13","name":"Mecklenburg-Vorpommern"}},{"name":"Berthold-Beitz-Platz","postalCode":"17489","locality":"Greifswald","municipality":{"key":"13075039","name":"Greifswald, Universitäts- und Hansestadt","type":"Stadt"},"district":{"key":"13075","name":"Vorpommern-Greifswald","type":"Landkreis"},"federalState":{"key":"13","name":"Mecklenburg-Vorpommern"}},{"name":"Bettina-von-Arnim-Str.","postalCode":"17489","locality":"Greifswald","municipality":{"key":"13075039","name":"Greifswald, Universitäts- und Hansestadt","type":"Stadt"},"district":{"key":"13075","name":"Vorpommern-Greifswald","type":"Landkreis"},"federalState":{"key":"13","name":"Mecklenburg-Vorpommern"}},{"name":"Bienenweg","postalCode":"17491","locality":"Greifswald","municipality":{"key":"13075039","name":"Greifswald, Universitäts- und Hansestadt","type":"Stadt"},"district":{"key":"13075","name":"Vorpommern-Greifswald","type":"Landkreis"},"federalState":{"key":"13","name":"Mecklenburg-Vorpommern"}},{"name":"Billrothstr.","postalCode":"17489","locality":"Greifswald","municipality":{"key":"13075039","name":"Greifswald, Universitäts- und Hansestadt","type":"Stadt"},"district":{"key":"13075","name":"Vorpommern-Greifswald","type":"Landkreis"},"federalState":{"key":"13","name":"Mecklenburg-Vorpommern"}},{"name":"Birkenweg","postalCode":"17493","locality":"Greifswald","municipality":{"key":"13075039","name":"Greifswald, Universitäts- und Hansestadt","type":"Stadt"},"district":{"key":"13075","name":"Vorpommern-Greifswald","type":"Landkreis"},"federalState":{"key":"13","name":"Mecklenburg-Vorpommern"}},{"name":"Birnenweg","postalCode":"17489","locality":"Greifswald","municipality":{"key":"13075039","name":"Greifswald, Universitäts- und Hansestadt","type":"Stadt"},"district":{"key":"13075","name":"Vorpommern-Greifswald","type":"Landkreis"},"federalState":{"key":"13","name":"Mecklenburg-Vorpommern"}},{"name":"Bleichstr.","postalCode":"17489","locality":"Greifswald","municipality":{"key":"13075039","name":"Greifswald, Universitäts- und Hansestadt","type":"Stadt"},"district":{"key":"13075","name":"Vorpommern-Greifswald","type":"Landkreis"},"federalState":{"key":"13","name":"Mecklenburg-Vorpommern"}},{"name":"Boddenblick","postalCode":"17493","locality":"Greifswald","municipality":{"key":"13075039","name":"Greifswald, Universitäts- und Hansestadt","type":"Stadt"},"district":{"key":"13075","name":"Vorpommern-Greifswald","type":"Landkreis"},"federalState":{"key":"13","name":"Mecklenburg-Vorpommern"}},{"name":"Boddenweg","postalCode":"17493","locality":"Greifswald","municipality":{"key":"13075039","name":"Greifswald, Universitäts- und Hansestadt","type":"Stadt"},"district":{"key":"13075","name":"Vorpommern-Greifswald","type":"Landkreis"},"federalState":{"key":"13","name":"Mecklenburg-Vorpommern"}},{"name":"Bornholmer Weg","postalCode":"17493","locality":"Greifswald","municipality":{"key":"13075039","name":"Greifswald, Universitäts- und Hansestadt","type":"Stadt"},"district":{"key":"13075","name":"Vorpommern-Greifswald","type":"Landkreis"},"federalState":{"key":"13","name":"Mecklenburg-Vorpommern"}},{"name":"Brandteichstr.","postalCode":"17489","locality":"Greifswald","municipality":{"key":"13075039","name":"Greifswald, Universitäts- und Hansestadt","type":"Stadt"},"district":{"key":"13075","name":"Vorpommern-Greifswald","type":"Landkreis"},"federalState":{"key":"13","name":"Mecklenburg-Vorpommern"}},{"name":"Brinkstr.","postalCode":"17489","locality":"Greifswald","municipality":{"key":"13075039","name":"Greifswald, Universitäts- und Hansestadt","type":"Stadt"},"district":{"key":"13075","name":"Vorpommern-Greifswald","type":"Landkreis"},"federalState":{"key":"13","name":"Mecklenburg-Vorpommern"}},{"name":"Brooker Weg","postalCode":"17493","locality":"Greifswald","municipality":{"key":"13075039","name":"Greifswald, Universitäts- und Hansestadt","type":"Stadt"},"district":{"key":"13075","name":"Vorpommern-Greifswald","type":"Landkreis"},"federalState":{"key":"13","name":"Mecklenburg-Vorpommern"}},{"name":"Brüggstr.","postalCode":"17489","locality":"Greifswald","municipality":{"key":"13075039","name":"Greifswald, Universitäts- und Hansestadt","type":"Stadt"},"district":{"key":"13075","name":"Vorpommern-Greifswald","type":"Landkreis"},"federalState":{"key":"13","name":"Mecklenburg-Vorpommern"}},{"name":"Brünzower Wende","postalCode":"17491","locality":"Greifswald","municipality":{"key":"13075039","name":"Greifswald, Universitäts- und Hansestadt","type":"Stadt"},"district":{"key":"13075","name":"Vorpommern-Greifswald","type":"Landkreis"},"federalState":{"key":"13","name":"Mecklenburg-Vorpommern"}},{"name":"Bugenhagenstr.","postalCode":"17489","locality":"Greifswald","municipality":{"key":"13075039","name":"Greifswald, Universitäts- und Hansestadt","type":"Stadt"},"district":{"key":"13075","name":"Vorpommern-Greifswald","type":"Landkreis"},"federalState":{"key":"13","name":"Mecklenburg-Vorpommern"}},{"name":"Bukowberg","postalCode":"17493","locality":"Greifswald","municipality":{"key":"13075039","name":"Greifswald, Universitäts- und Hansestadt","type":"Stadt"},"district":{"key":"13075","name":"Vorpommern-Greifswald","type":"Landkreis"},"federalState":{"key":"13","name":"Mecklenburg-Vorpommern"}},{"name":"Burgstr.","postalCode":"17489","locality":"Greifswald","municipality":{"key":"13075039","name":"Greifswald, Universitäts- und Hansestadt","type":"Stadt"},"district":{"key":"13075","name":"Vorpommern-Greifswald","type":"Landkreis"},"federalState":{"key":"13","name":"Mecklenburg-Vorpommern"}},{"name":"Carl-Paepke-Platz","postalCode":"17489","locality":"Greifswald","municipality":{"key":"13075039","name":"Greifswald, Universitäts- und Hansestadt","type":"Stadt"},"district":{"key":"13075","name":"Vorpommern-Greifswald","type":"Landkreis"},"federalState":{"key":"13","name":"Mecklenburg-Vorpommern"}},{"name":"Caspar-David-Friedrich-Str.","postalCode":"17489","locality":"Greifswald","municipality":{"key":"13075039","name":"Greifswald, Universitäts- und Hansestadt","type":"Stadt"},"district":{"key":"13075","name":"Vorpommern-Greifswald","type":"Landkreis"},"federalState":{"key":"13","name":"Mecklenburg-Vorpommern"}},{"name":"Chamissostr.","postalCode":"17489","locality":"Greifswald","municipality":{"key":"13075039","name":"Greifswald, Universitäts- und Hansestadt","type":"Stadt"},"district":{"key":"13075","name":"Vorpommern-Greifswald","type":"Landkreis"},"federalState":{"key":"13","name":"Mecklenburg-Vorpommern"}},{"name":"Chausseestr.","postalCode":"17489","locality":"Greifswald","municipality":{"key":"13075039","name":"Greifswald, Universitäts- und Hansestadt","type":"Stadt"},"district":{"key":"13075","name":"Vorpommern-Greifswald","type":"Landkreis"},"federalState":{"key":"13","name":"Mecklenburg-Vorpommern"}},{"name":"Clara-Zetkin-Str.","postalCode":"17493","locality":"Greifswald","municipality":{"key":"13075039","name":"Greifswald, Universitäts- und Hansestadt","type":"Stadt"},"district":{"key":"13075","name":"Vorpommern-Greifswald","type":"Landkreis"},"federalState":{"key":"13","name":"Mecklenburg-Vorpommern"}},{"name":"Clemens-Brentano-Str.","postalCode":"17489","locality":"Greifswald","municipality":{"key":"13075039","name":"Greifswald, Universitäts- und Hansestadt","type":"Stadt"},"district":{"key":"13075","name":"Vorpommern-Greifswald","type":"Landkreis"},"federalState":{"key":"13","name":"Mecklenburg-Vorpommern"}},{"name":"Credner Anlagen","postalCode":"17489","locality":"Greifswald","municipality":{"key":"13075039","name":"Greifswald, Universitäts- und Hansestadt","type":"Stadt"},"district":{"key":"13075","name":"Vorpommern-Greifswald","type":"Landkreis"},"federalState":{"key":"13","name":"Mecklenburg-Vorpommern"}},{"name":"Crednerstr.","postalCode":"17489","locality":"Greifswald","municipality":{"key":"13075039","name":"Greifswald, Universitäts- und Hansestadt","type":"Stadt"},"district":{"key":"13075","name":"Vorpommern-Greifswald","type":"Landkreis"},"federalState":{"key":"13","name":"Mecklenburg-Vorpommern"}},{"name":"Daniel-Teßmann-Str.","postalCode":"17491","locality":"Greifswald","municipality":{"key":"13075039","name":"Greifswald, Universitäts- und Hansestadt","type":"Stadt"},"district":{"key":"13075","name":"Vorpommern-Greifswald","type":"Landkreis"},"federalState":{"key":"13","name":"Mecklenburg-Vorpommern"}},{"name":"Darßer Weg","postalCode":"17493","locality":"Greifswald","municipality":{"key":"13075039","name":"Greifswald, Universitäts- und Hansestadt","type":"Stadt"},"district":{"key":"13075","name":"Vorpommern-Greifswald","type":"Landkreis"},"federalState":{"key":"13","name":"Mecklenburg-Vorpommern"}},{"name":"Deichstr.","postalCode":"17489","locality":"Greifswald","municipality":{"key":"13075039","name":"Greifswald, Universitäts- und Hansestadt","type":"Stadt"},"district":{"key":"13075","name":"Vorpommern-Greifswald","type":"Landkreis"},"federalState":{"key":"13","name":"Mecklenburg-Vorpommern"}},{"name":"Demminer Str.","postalCode":"17493","locality":"Greifswald","municipality":{"key":"13075039","name":"Greifswald, Universitäts- und Hansestadt","type":"Stadt"},"district":{"key":"13075","name":"Vorpommern-Greifswald","type":"Landkreis"},"federalState":{"key":"13","name":"Mecklenburg-Vorpommern"}},{"name":"Dietrich-Bonhoeffer-Platz","postalCode":"17489","locality":"Greifswald","municipality":{"key":"13075039","name":"Greifswald, Universitäts- und Hansestadt","type":"Stadt"},"district":{"key":"13075","name":"Vorpommern-Greifswald","type":"Landkreis"},"federalState":{"key":"13","name":"Mecklenburg-Vorpommern"}},{"name":"Domstr.","postalCode":"17489","locality":"Greifswald","municipality":{"key":"13075039","name":"Greifswald, Universitäts- und Hansestadt","type":"Stadt"},"district":{"key":"13075","name":"Vorpommern-Greifswald","type":"Landkreis"},"federalState":{"key":"13","name":"Mecklenburg-Vorpommern"}},{"name":"Dorfstr.","postalCode":"17493","locality":"Greifswald","municipality":{"key":"13075039","name":"Greifswald, Universitäts- und Hansestadt","type":"Stadt"},"district":{"key":"13075","name":"Vorpommern-Greifswald","type":"Landkreis"},"federalState":{"key":"13","name":"Mecklenburg-Vorpommern"}},{"name":"Dostojewskistr.","postalCode":"17491","locality":"Greifswald","municipality":{"key":"13075039","name":"Greifswald, Universitäts- und Hansestadt","type":"Stadt"},"district":{"key":"13075","name":"Vorpommern-Greifswald","type":"Landkreis"},"federalState":{"key":"13","name":"Mecklenburg-Vorpommern"}},{"name":"Dubnaring","postalCode":"17491","locality":"Greifswald","municipality":{"key":"13075039","name":"Greifswald, Universitäts- und Hansestadt","type":"Stadt"},"district":{"key":"13075","name":"Vorpommern-Greifswald","type":"Landkreis"},"federalState":{"key":"13","name":"Mecklenburg-Vorpommern"}},{"name":"Ebereschenweg","postalCode":"17493","locality":"Greifswald","municipality":{"key":"13075039","name":"Greifswald, Universitäts- und Hansestadt","type":"Stadt"},"district":{"key":"13075","name":"Vorpommern-Greifswald","type":"Landkreis"},"federalState":{"key":"13","name":"Mecklenburg-Vorpommern"}},{"name":"Eckhardsberg","postalCode":"17489","locality":"Greifswald","municipality":{"key":"13075039","name":"Greifswald, Universitäts- und Hansestadt","type":"Stadt"},"district":{"key":"13075","name":"Vorpommern-Greifswald","type":"Landkreis"},"federalState":{"key":"13","name":"Mecklenburg-Vorpommern"}},{"name":"Einsteinstr.","postalCode":"17491","locality":"Greifswald","municipality":{"key":"13075039","name":"Greifswald, Universitäts- und Hansestadt","type":"Stadt"},"district":{"key":"13075","name":"Vorpommern-Greifswald","type":"Landkreis"},"federalState":{"key":"13","name":"Mecklenburg-Vorpommern"}},{"name":"Eisenhammer","postalCode":"17489","locality":"Greifswald","municipality":{"key":"13075039","name":"Greifswald, Universitäts- und Hansestadt","type":"Stadt"},"district":{"key":"13075","name":"Vorpommern-Greifswald","type":"Landkreis"},"federalState":{"key":"13","name":"Mecklenburg-Vorpommern"}},{"name":"Eldenaer Wende","postalCode":"17491","locality":"Greifswald","municipality":{"key":"13075039","name":"Greifswald, Universitäts- und Hansestadt","type":"Stadt"},"district":{"key":"13075","name":"Vorpommern-Greifswald","type":"Landkreis"},"federalState":{"key":"13","name":"Mecklenburg-Vorpommern"}},{"name":"Ellernholzstr.","postalCode":"17489","locality":"Greifswald","municipality":{"key":"13075039","name":"Greifswald, Universitäts- und Hansestadt","type":"Stadt"},"district":{"key":"13075","name":"Vorpommern-Greifswald","type":"Landkreis"},"federalState":{"key":"13","name":"Mecklenburg-Vorpommern"}},{"name":"Erich-Böhmke-Str.","postalCode":"17489","locality":"Greifswald","municipality":{"key":"13075039","name":"Greifswald, Universitäts- und Hansestadt","type":"Stadt"},"district":{"key":"13075","name":"Vorpommern-Greifswald","type":"Landkreis"},"federalState":{"key":"13","name":"Mecklenburg-Vorpommern"}},{"name":"Erich-Kästner-Str.","postalCode":"17489","locality":"Greifswald","municipality":{"key":"13075039","name":"Greifswald, Universitäts- und Hansestadt","type":"Stadt"},"district":{"key":"13075","name":"Vorpommern-Greifswald","type":"Landkreis"},"federalState":{"key":"13","name":"Mecklenburg-Vorpommern"}},{"name":"Erich-Peiper-Str.","postalCode":"17489","locality":"Greifswald","municipality":{"key":"13075039","name":"Greifswald, Universitäts- und Hansestadt","type":"Stadt"},"district":{"key":"13075","name":"Vorpommern-Greifswald","type":"Landkreis"},"federalState":{"key":"13","name":"Mecklenburg-Vorpommern"}},{"name":"Erich-Weinert-Str.","postalCode":"17489","locality":"Greifswald","municipality":{"key":"13075039","name":"Greifswald, Universitäts- und Hansestadt","type":"Stadt"},"district":{"key":"13075","name":"Vorpommern-Greifswald","type":"Landkreis"},"federalState":{"key":"13","name":"Mecklenburg-Vorpommern"}},{"name":"Ernst-Bernheim-Str.","postalCode":"17491","locality":"Greifswald","municipality":{"key":"13075039","name":"Greifswald, Universitäts- und Hansestadt","type":"Stadt"},"district":{"key":"13075","name":"Vorpommern-Greifswald","type":"Landkreis"},"federalState":{"key":"13","name":"Mecklenburg-Vorpommern"}},{"name":"Ernsthofer Wende","postalCode":"17491","locality":"Greifswald","municipality":{"key":"13075039","name":"Greifswald, Universitäts- und Hansestadt","type":"Stadt"},"district":{"key":"13075","name":"Vorpommern-Greifswald","type":"Landkreis"},"federalState":{"key":"13","name":"Mecklenburg-Vorpommern"}},{"name":"Ernst-Lohmeyer-Platz","postalCode":"17489","locality":"Greifswald","municipality":{"key":"13075039","name":"Greifswald, Universitäts- und Hansestadt","type":"Stadt"},"district":{"key":"13075","name":"Vorpommern-Greifswald","type":"Landkreis"},"federalState":{"key":"13","name":"Mecklenburg-Vorpommern"}},{"name":"Ernst-Thälmann-Ring","postalCode":"17491","locality":"Greifswald","municipality":{"key":"13075039","name":"Greifswald, Universitäts- und Hansestadt","type":"Stadt"},"district":{"key":"13075","name":"Vorpommern-Greifswald","type":"Landkreis"},"federalState":{"key":"13","name":"Mecklenburg-Vorpommern"}},{"name":"Ernst-Wulff-Weg","postalCode":"17491","locality":"Greifswald","municipality":{"key":"13075039","name":"Greifswald, Universitäts- und Hansestadt","type":"Stadt"},"district":{"key":"13075","name":"Vorpommern-Greifswald","type":"Landkreis"},"federalState":{"key":"13","name":"Mecklenburg-Vorpommern"}},{"name":"Ernteweg","postalCode":"17491","locality":"Greifswald","municipality":{"key":"13075039","name":"Greifswald, Universitäts- und Hansestadt","type":"Stadt"},"district":{"key":"13075","name":"Vorpommern-Greifswald","type":"Landkreis"},"federalState":{"key":"13","name":"Mecklenburg-Vorpommern"}},{"name":"Erwin-Haack-Weg","postalCode":"17491","locality":"Greifswald","municipality":{"key":"13075039","name":"Greifswald, Universitäts- und Hansestadt","type":"Stadt"},"district":{"key":"13075","name":"Vorpommern-Greifswald","type":"Landkreis"},"federalState":{"key":"13","name":"Mecklenburg-Vorpommern"}},{"name":"Fährweg","postalCode":"17493","locality":"Greifswald","municipality":{"key":"13075039","name":"Greifswald, Universitäts- und Hansestadt","type":"Stadt"},"district":{"key":"13075","name":"Vorpommern-Greifswald","type":"Landkreis"},"federalState":{"key":"13","name":"Mecklenburg-Vorpommern"}},{"name":"Feldstr.","postalCode":"17489","locality":"Greifswald","municipality":{"key":"13075039","name":"Greifswald, Universitäts- und Hansestadt","type":"Stadt"},"district":{"key":"13075","name":"Vorpommern-Greifswald","type":"Landkreis"},"federalState":{"key":"13","name":"Mecklenburg-Vorpommern"}},{"name":"Felix-Hausdorff-Str.","postalCode":"17489","locality":"Greifswald","municipality":{"key":"13075039","name":"Greifswald, Universitäts- und Hansestadt","type":"Stadt"},"district":{"key":"13075","name":"Vorpommern-Greifswald","type":"Landkreis"},"federalState":{"key":"13","name":"Mecklenburg-Vorpommern"}},{"name":"Ferdinand-Sauerbruch-Str.","postalCode":"17489","locality":"Greifswald","municipality":{"key":"13075039","name":"Greifswald, Universitäts- und Hansestadt","type":"Stadt"},"district":{"key":"13075","name":"Vorpommern-Greifswald","type":"Landkreis"},"federalState":{"key":"13","name":"Mecklenburg-Vorpommern"}},{"name":"Finkenweg","postalCode":"17493","locality":"Greifswald","municipality":{"key":"13075039","name":"Greifswald, Universitäts- und Hansestadt","type":"Stadt"},"district":{"key":"13075","name":"Vorpommern-Greifswald","type":"Landkreis"},"federalState":{"key":"13","name":"Mecklenburg-Vorpommern"}},{"name":"Fischstr.","postalCode":"17489","locality":"Greifswald","municipality":{"key":"13075039","name":"Greifswald, Universitäts- und Hansestadt","type":"Stadt"},"district":{"key":"13075","name":"Vorpommern-Greifswald","type":"Landkreis"},"federalState":{"key":"13","name":"Mecklenburg-Vorpommern"}},{"name":"Fleischerstr.","postalCode":"17489","locality":"Greifswald","municipality":{"key":"13075039","name":"Greifswald, Universitäts- und Hansestadt","type":"Stadt"},"district":{"key":"13075","name":"Vorpommern-Greifswald","type":"Landkreis"},"federalState":{"key":"13","name":"Mecklenburg-Vorpommern"}},{"name":"Fleischerwiese","postalCode":"17489","locality":"Greifswald","municipality":{"key":"13075039","name":"Greifswald, Universitäts- und Hansestadt","type":"Stadt"},"district":{"key":"13075","name":"Vorpommern-Greifswald","type":"Landkreis"},"federalState":{"key":"13","name":"Mecklenburg-Vorpommern"}},{"name":"Fleischmannstr.","postalCode":"17489","locality":"Greifswald","municipality":{"key":"13075039","name":"Greifswald, Universitäts- und Hansestadt","type":"Stadt"},"district":{"key":"13075","name":"Vorpommern-Greifswald","type":"Landkreis"},"federalState":{"key":"13","name":"Mecklenburg-Vorpommern"}},{"name":"Fliederweg","postalCode":"17489","locality":"Greifswald","municipality":{"key":"13075039","name":"Greifswald, Universitäts- und Hansestadt","type":"Stadt"},"district":{"key":"13075","name":"Vorpommern-Greifswald","type":"Landkreis"},"federalState":{"key":"13","name":"Mecklenburg-Vorpommern"}},{"name":"Franz-Mehring-Str.","postalCode":"17489","locality":"Greifswald","municipality":{"key":"13075039","name":"Greifswald, Universitäts- und Hansestadt","type":"Stadt"},"district":{"key":"13075","name":"Vorpommern-Greifswald","type":"Landkreis"},"federalState":{"key":"13","name":"Mecklenburg-Vorpommern"}},{"name":"Franz-Wehrstedt-Weg","postalCode":"17493","locality":"Greifswald","municipality":{"key":"13075039","name":"Greifswald, Universitäts- und Hansestadt","type":"Stadt"},"district":{"key":"13075","name":"Vorpommern-Greifswald","type":"Landkreis"},"federalState":{"key":"13","name":"Mecklenburg-Vorpommern"}},{"name":"Fridtjof-Nansen-Str.","postalCode":"17493","locality":"Greifswald","municipality":{"key":"13075039","name":"Greifswald, Universitäts- und Hansestadt","type":"Stadt"},"district":{"key":"13075","name":"Vorpommern-Greifswald","type":"Landkreis"},"federalState":{"key":"13","name":"Mecklenburg-Vorpommern"}},{"name":"Friedhofsweg","postalCode":"17489","locality":"Greifswald","municipality":{"key":"13075039","name":"Greifswald, Universitäts- und Hansestadt","type":"Stadt"},"district":{"key":"13075","name":"Vorpommern-Greifswald","type":"Landkreis"},"federalState":{"key":"13","name":"Mecklenburg-Vorpommern"}},{"name":"Friedhofsweg","postalCode":"17493","locality":"Greifswald","municipality":{"key":"13075039","name":"Greifswald, Universitäts- und Hansestadt","type":"Stadt"},"district":{"key":"13075","name":"Vorpommern-Greifswald","type":"Landkreis"},"federalState":{"key":"13","name":"Mecklenburg-Vorpommern"}},{"name":"Friedrich-Krüger-Str.","postalCode":"17489","locality":"Greifswald","municipality":{"key":"13075039","name":"Greifswald, Universitäts- und Hansestadt","type":"Stadt"},"district":{"key":"13075","name":"Vorpommern-Greifswald","type":"Landkreis"},"federalState":{"key":"13","name":"Mecklenburg-Vorpommern"}},{"name":"Friedrich-Loeffler-Str.","postalCode":"17489","locality":"Greifswald","municipality":{"key":"13075039","name":"Greifswald, Universitäts- und Hansestadt","type":"Stadt"},"district":{"key":"13075","name":"Vorpommern-Greifswald","type":"Landkreis"},"federalState":{"key":"13","name":"Mecklenburg-Vorpommern"}},{"name":"Friedrich-Ludwig-Jahn-Str.","postalCode":"17489","locality":"Greifswald","municipality":{"key":"13075039","name":"Greifswald, Universitäts- und Hansestadt","type":"Stadt"},"district":{"key":"13075","name":"Vorpommern-Greifswald","type":"Landkreis"},"federalState":{"key":"13","name":"Mecklenburg-Vorpommern"}},{"name":"Friedrichshäger Str.","postalCode":"17493","locality":"Greifswald","municipality":{"key":"13075039","name":"Greifswald, Universitäts- und Hansestadt","type":"Stadt"},"district":{"key":"13075","name":"Vorpommern-Greifswald","type":"Landkreis"},"federalState":{"key":"13","name":"Mecklenburg-Vorpommern"}},{"name":"Fritz-Curschmann-Weg","postalCode":"17491","locality":"Greifswald","municipality":{"key":"13075039","name":"Greifswald, Universitäts- und Hansestadt","type":"Stadt"},"district":{"key":"13075","name":"Vorpommern-Greifswald","type":"Landkreis"},"federalState":{"key":"13","name":"Mecklenburg-Vorpommern"}},{"name":"Fritz-Reuter-Str.","postalCode":"17489","locality":"Greifswald","municipality":{"key":"13075039","name":"Greifswald, Universitäts- und Hansestadt","type":"Stadt"},"district":{"key":"13075","name":"Vorpommern-Greifswald","type":"Landkreis"},"federalState":{"key":"13","name":"Mecklenburg-Vorpommern"}},{"name":"Gahlkower Wende","postalCode":"17491","locality":"Greifswald","municipality":{"key":"13075039","name":"Greifswald, Universitäts- und Hansestadt","type":"Stadt"},"district":{"key":"13075","name":"Vorpommern-Greifswald","type":"Landkreis"},"federalState":{"key":"13","name":"Mecklenburg-Vorpommern"}},{"name":"Gartenweg","postalCode":"17493","locality":"Greifswald","municipality":{"key":"13075039","name":"Greifswald, Universitäts- und Hansestadt","type":"Stadt"},"district":{"key":"13075","name":"Vorpommern-Greifswald","type":"Landkreis"},"federalState":{"key":"13","name":"Mecklenburg-Vorpommern"}},{"name":"Gaußstr.","postalCode":"17491","locality":"Greifswald","municipality":{"key":"13075039","name":"Greifswald, Universitäts- und Hansestadt","type":"Stadt"},"district":{"key":"13075","name":"Vorpommern-Greifswald","type":"Landkreis"},"federalState":{"key":"13","name":"Mecklenburg-Vorpommern"}},{"name":"Gebrüder-Grimm-Weg","postalCode":"17489","locality":"Greifswald","municipality":{"key":"13075039","name":"Greifswald, Universitäts- und Hansestadt","type":"Stadt"},"district":{"key":"13075","name":"Vorpommern-Greifswald","type":"Landkreis"},"federalState":{"key":"13","name":"Mecklenburg-Vorpommern"}},{"name":"Gebrüder-Witte-Str.","postalCode":"17489","locality":"Greifswald","municipality":{"key":"13075039","name":"Greifswald, Universitäts- und Hansestadt","type":"Stadt"},"district":{"key":"13075","name":"Vorpommern-Greifswald","type":"Landkreis"},"federalState":{"key":"13","name":"Mecklenburg-Vorpommern"}},{"name":"Gedserring","postalCode":"17493","locality":"Greifswald","municipality":{"key":"13075039","name":"Greifswald, Universitäts- und Hansestadt","type":"Stadt"},"district":{"key":"13075","name":"Vorpommern-Greifswald","type":"Landkreis"},"federalState":{"key":"13","name":"Mecklenburg-Vorpommern"}},{"name":"Georg-Büchner-Str.","postalCode":"17489","locality":"Greifswald","municipality":{"key":"13075039","name":"Greifswald, Universitäts- und Hansestadt","type":"Stadt"},"district":{"key":"13075","name":"Vorpommern-Greifswald","type":"Landkreis"},"federalState":{"key":"13","name":"Mecklenburg-Vorpommern"}},{"name":"Georg-Engel-Str.","postalCode":"17489","locality":"Greifswald","municipality":{"key":"13075039","name":"Greifswald, Universitäts- und Hansestadt","type":"Stadt"},"district":{"key":"13075","name":"Vorpommern-Greifswald","type":"Landkreis"},"federalState":{"key":"13","name":"Mecklenburg-Vorpommern"}},{"name":"Gerdingstr.","postalCode":"17489","locality":"Greifswald","municipality":{"key":"13075039","name":"Greifswald, Universitäts- und Hansestadt","type":"Stadt"},"district":{"key":"13075","name":"Vorpommern-Greifswald","type":"Landkreis"},"federalState":{"key":"13","name":"Mecklenburg-Vorpommern"}},{"name":"Gerhardt-Katsch-Str.","postalCode":"17489","locality":"Greifswald","municipality":{"key":"13075039","name":"Greifswald, Universitäts- und Hansestadt","type":"Stadt"},"district":{"key":"13075","name":"Vorpommern-Greifswald","type":"Landkreis"},"federalState":{"key":"13","name":"Mecklenburg-Vorpommern"}},{"name":"Gertrudenstr.","postalCode":"17489","locality":"Greifswald","municipality":{"key":"13075039","name":"Greifswald, Universitäts- und Hansestadt","type":"Stadt"},"district":{"key":"13075","name":"Vorpommern-Greifswald","type":"Landkreis"},"federalState":{"key":"13","name":"Mecklenburg-Vorpommern"}},{"name":"Geschwister-Scholl-Str.","postalCode":"17491","locality":"Greifswald","municipality":{"key":"13075039","name":"Greifswald, Universitäts- und Hansestadt","type":"Stadt"},"district":{"key":"13075","name":"Vorpommern-Greifswald","type":"Landkreis"},"federalState":{"key":"13","name":"Mecklenburg-Vorpommern"}},{"name":"Gesterdingstr.","postalCode":"17489","locality":"Greifswald","municipality":{"key":"13075039","name":"Greifswald, Universitäts- und Hansestadt","type":"Stadt"},"district":{"key":"13075","name":"Vorpommern-Greifswald","type":"Landkreis"},"federalState":{"key":"13","name":"Mecklenburg-Vorpommern"}},{"name":"Goethestr.","postalCode":"17489","locality":"Greifswald","municipality":{"key":"13075039","name":"Greifswald, Universitäts- und Hansestadt","type":"Stadt"},"district":{"key":"13075","name":"Vorpommern-Greifswald","type":"Landkreis"},"federalState":{"key":"13","name":"Mecklenburg-Vorpommern"}},{"name":"Grillenweg","postalCode":"17491","locality":"Greifswald","municipality":{"key":"13075039","name":"Greifswald, Universitäts- und Hansestadt","type":"Stadt"},"district":{"key":"13075","name":"Vorpommern-Greifswald","type":"Landkreis"},"federalState":{"key":"13","name":"Mecklenburg-Vorpommern"}},{"name":"Grimmer Landstr.","postalCode":"17489","locality":"Greifswald","municipality":{"key":"13075039","name":"Greifswald, Universitäts- und Hansestadt","type":"Stadt"},"district":{"key":"13075","name":"Vorpommern-Greifswald","type":"Landkreis"},"federalState":{"key":"13","name":"Mecklenburg-Vorpommern"}},{"name":"Grimmer Str.","postalCode":"17489","locality":"Greifswald","municipality":{"key":"13075039","name":"Greifswald, Universitäts- und Hansestadt","type":"Stadt"},"district":{"key":"13075","name":"Vorpommern-Greifswald","type":"Landkreis"},"federalState":{"key":"13","name":"Mecklenburg-Vorpommern"}},{"name":"Gustebiner Wende","postalCode":"17491","locality":"Greifswald","municipality":{"key":"13075039","name":"Greifswald, Universitäts- und Hansestadt","type":"Stadt"},"district":{"key":"13075","name":"Vorpommern-Greifswald","type":"Landkreis"},"federalState":{"key":"13","name":"Mecklenburg-Vorpommern"}},{"name":"Gutsweg","postalCode":"17491","locality":"Greifswald","municipality":{"key":"13075039","name":"Greifswald, Universitäts- und Hansestadt","type":"Stadt"},"district":{"key":"13075","name":"Vorpommern-Greifswald","type":"Landkreis"},"federalState":{"key":"13","name":"Mecklenburg-Vorpommern"}},{"name":"Gützkower Landstr.","postalCode":"17489","locality":"Greifswald","municipality":{"key":"13075039","name":"Greifswald, Universitäts- und Hansestadt","type":"Stadt"},"district":{"key":"13075","name":"Vorpommern-Greifswald","type":"Landkreis"},"federalState":{"key":"13","name":"Mecklenburg-Vorpommern"}},{"name":"Gützkower Str.","postalCode":"17489","locality":"Greifswald","municipality":{"key":"13075039","name":"Greifswald, Universitäts- und Hansestadt","type":"Stadt"},"district":{"key":"13075","name":"Vorpommern-Greifswald","type":"Landkreis"},"federalState":{"key":"13","name":"Mecklenburg-Vorpommern"}},{"name":"Hafenstr.","postalCode":"17489","locality":"Greifswald","municipality":{"key":"13075039","name":"Greifswald, Universitäts- und Hansestadt","type":"Stadt"},"district":{"key":"13075","name":"Vorpommern-Greifswald","type":"Landkreis"},"federalState":{"key":"13","name":"Mecklenburg-Vorpommern"}},{"name":"Hainstr.","postalCode":"17493","locality":"Greifswald","municipality":{"key":"13075039","name":"Greifswald, Universitäts- und Hansestadt","type":"Stadt"},"district":{"key":"13075","name":"Vorpommern-Greifswald","type":"Landkreis"},"federalState":{"key":"13","name":"Mecklenburg-Vorpommern"}},{"name":"Hans-Beimler-Str.","postalCode":"17489","locality":"Greifswald","municipality":{"key":"13075039","name":"Greifswald, Universitäts- und Hansestadt","type":"Stadt"},"district":{"key":"13075","name":"Vorpommern-Greifswald","type":"Landkreis"},"federalState":{"key":"13","name":"Mecklenburg-Vorpommern"}},{"name":"Hans-Beimler-Str.","postalCode":"17491","locality":"Greifswald","municipality":{"key":"13075039","name":"Greifswald, Universitäts- und Hansestadt","type":"Stadt"},"district":{"key":"13075","name":"Vorpommern-Greifswald","type":"Landkreis"},"federalState":{"key":"13","name":"Mecklenburg-Vorpommern"}},{"name":"Hansering","postalCode":"17489","locality":"Greifswald","municipality":{"key":"13075039","name":"Greifswald, Universitäts- und Hansestadt","type":"Stadt"},"district":{"key":"13075","name":"Vorpommern-Greifswald","type":"Landkreis"},"federalState":{"key":"13","name":"Mecklenburg-Vorpommern"}},{"name":"Hans-Fallada-Str.","postalCode":"17489","locality":"Greifswald","municipality":{"key":"13075039","name":"Greifswald, Universitäts- und Hansestadt","type":"Stadt"},"district":{"key":"13075","name":"Vorpommern-Greifswald","type":"Landkreis"},"federalState":{"key":"13","name":"Mecklenburg-Vorpommern"}},{"name":"Hasenwinkel","postalCode":"17491","locality":"Greifswald","municipality":{"key":"13075039","name":"Greifswald, Universitäts- und Hansestadt","type":"Stadt"},"district":{"key":"13075","name":"Vorpommern-Greifswald","type":"Landkreis"},"federalState":{"key":"13","name":"Mecklenburg-Vorpommern"}},{"name":"Hauptstr.","postalCode":"17493","locality":"Greifswald","municipality":{"key":"13075039","name":"Greifswald, Universitäts- und Hansestadt","type":"Stadt"},"district":{"key":"13075","name":"Vorpommern-Greifswald","type":"Landkreis"},"federalState":{"key":"13","name":"Mecklenburg-Vorpommern"}},{"name":"Hebbelstr.","postalCode":"17489","locality":"Greifswald","municipality":{"key":"13075039","name":"Greifswald, Universitäts- und Hansestadt","type":"Stadt"},"district":{"key":"13075","name":"Vorpommern-Greifswald","type":"Landkreis"},"federalState":{"key":"13","name":"Mecklenburg-Vorpommern"}},{"name":"Heidebrink","postalCode":"17489","locality":"Greifswald","municipality":{"key":"13075039","name":"Greifswald, Universitäts- und Hansestadt","type":"Stadt"},"district":{"key":"13075","name":"Vorpommern-Greifswald","type":"Landkreis"},"federalState":{"key":"13","name":"Mecklenburg-Vorpommern"}},{"name":"Heimattierpark Greifswald","postalCode":"17489","locality":"Greifswald","municipality":{"key":"13075039","name":"Greifswald, Universitäts- und Hansestadt","type":"Stadt"},"district":{"key":"13075","name":"Vorpommern-Greifswald","type":"Landkreis"},"federalState":{"key":"13","name":"Mecklenburg-Vorpommern"}},{"name":"Heinrich-Böll-Str.","postalCode":"17489","locality":"Greifswald","municipality":{"key":"13075039","name":"Greifswald, Universitäts- und Hansestadt","type":"Stadt"},"district":{"key":"13075","name":"Vorpommern-Greifswald","type":"Landkreis"},"federalState":{"key":"13","name":"Mecklenburg-Vorpommern"}},{"name":"Heinrich-Heine-Str.","postalCode":"17489","locality":"Greifswald","municipality":{"key":"13075039","name":"Greifswald, Universitäts- und Hansestadt","type":"Stadt"},"district":{"key":"13075","name":"Vorpommern-Greifswald","type":"Landkreis"},"federalState":{"key":"13","name":"Mecklenburg-Vorpommern"}},{"name":"Heinrich-Hertz-Str.","postalCode":"17491","locality":"Greifswald","municipality":{"key":"13075039","name":"Greifswald, Universitäts- und Hansestadt","type":"Stadt"},"district":{"key":"13075","name":"Vorpommern-Greifswald","type":"Landkreis"},"federalState":{"key":"13","name":"Mecklenburg-Vorpommern"}},{"name":"Heinrich-von-Kleist-Str.","postalCode":"17489","locality":"Greifswald","municipality":{"key":"13075039","name":"Greifswald, Universitäts- und Hansestadt","type":"Stadt"},"district":{"key":"13075","name":"Vorpommern-Greifswald","type":"Landkreis"},"federalState":{"key":"13","name":"Mecklenburg-Vorpommern"}},{"name":"Helmshäger Str.","postalCode":"17489","locality":"Greifswald","municipality":{"key":"13075039","name":"Greifswald, Universitäts- und Hansestadt","type":"Stadt"},"district":{"key":"13075","name":"Vorpommern-Greifswald","type":"Landkreis"},"federalState":{"key":"13","name":"Mecklenburg-Vorpommern"}},{"name":"Helsinkiring","postalCode":"17493","locality":"Greifswald","municipality":{"key":"13075039","name":"Greifswald, Universitäts- und Hansestadt","type":"Stadt"},"district":{"key":"13075","name":"Vorpommern-Greifswald","type":"Landkreis"},"federalState":{"key":"13","name":"Mecklenburg-Vorpommern"}},{"name":"Herderstr.","postalCode":"17489","locality":"Greifswald","municipality":{"key":"13075039","name":"Greifswald, Universitäts- und Hansestadt","type":"Stadt"},"district":{"key":"13075","name":"Vorpommern-Greifswald","type":"Landkreis"},"federalState":{"key":"13","name":"Mecklenburg-Vorpommern"}},{"name":"Herrenhufenstr.","postalCode":"17489","locality":"Greifswald","municipality":{"key":"13075039","name":"Greifswald, Universitäts- und Hansestadt","type":"Stadt"},"district":{"key":"13075","name":"Vorpommern-Greifswald","type":"Landkreis"},"federalState":{"key":"13","name":"Mecklenburg-Vorpommern"}},{"name":"Herzog-Bogislaw-Weg","postalCode":"17493","locality":"Greifswald","municipality":{"key":"13075039","name":"Greifswald, Universitäts- und Hansestadt","type":"Stadt"},"district":{"key":"13075","name":"Vorpommern-Greifswald","type":"Landkreis"},"federalState":{"key":"13","name":"Mecklenburg-Vorpommern"}},{"name":"Hirtenstr.","postalCode":"17489","locality":"Greifswald","municipality":{"key":"13075039","name":"Greifswald, Universitäts- und Hansestadt","type":"Stadt"},"district":{"key":"13075","name":"Vorpommern-Greifswald","type":"Landkreis"},"federalState":{"key":"13","name":"Mecklenburg-Vorpommern"}},{"name":"Hoher Graben","postalCode":"17493","locality":"Greifswald","municipality":{"key":"13075039","name":"Greifswald, Universitäts- und Hansestadt","type":"Stadt"},"district":{"key":"13075","name":"Vorpommern-Greifswald","type":"Landkreis"},"federalState":{"key":"13","name":"Mecklenburg-Vorpommern"}},{"name":"Hoher Weg","postalCode":"17489","locality":"Greifswald","municipality":{"key":"13075039","name":"Greifswald, Universitäts- und Hansestadt","type":"Stadt"},"district":{"key":"13075","name":"Vorpommern-Greifswald","type":"Landkreis"},"federalState":{"key":"13","name":"Mecklenburg-Vorpommern"}},{"name":"Hölderlinstr.","postalCode":"17489","locality":"Greifswald","municipality":{"key":"13075039","name":"Greifswald, Universitäts- und Hansestadt","type":"Stadt"},"district":{"key":"13075","name":"Vorpommern-Greifswald","type":"Landkreis"},"federalState":{"key":"13","name":"Mecklenburg-Vorpommern"}},{"name":"Holunderweg","postalCode":"17491","locality":"Greifswald","municipality":{"key":"13075039","name":"Greifswald, Universitäts- und Hansestadt","type":"Stadt"},"district":{"key":"13075","name":"Vorpommern-Greifswald","type":"Landkreis"},"federalState":{"key":"13","name":"Mecklenburg-Vorpommern"}},{"name":"Holzgasse","postalCode":"17489","locality":"Greifswald","municipality":{"key":"13075039","name":"Greifswald, Universitäts- und Hansestadt","type":"Stadt"},"district":{"key":"13075","name":"Vorpommern-Greifswald","type":"Landkreis"},"federalState":{"key":"13","name":"Mecklenburg-Vorpommern"}},{"name":"Holzteichstr.","postalCode":"17489","locality":"Greifswald","municipality":{"key":"13075039","name":"Greifswald, Universitäts- und Hansestadt","type":"Stadt"},"district":{"key":"13075","name":"Vorpommern-Greifswald","type":"Landkreis"},"federalState":{"key":"13","name":"Mecklenburg-Vorpommern"}},{"name":"Hornschuchstr.","postalCode":"17489","locality":"Greifswald","municipality":{"key":"13075039","name":"Greifswald, Universitäts- und Hansestadt","type":"Stadt"},"district":{"key":"13075","name":"Vorpommern-Greifswald","type":"Landkreis"},"federalState":{"key":"13","name":"Mecklenburg-Vorpommern"}},{"name":"Hugo-Finke-Str.","postalCode":"17493","locality":"Greifswald","municipality":{"key":"13075039","name":"Greifswald, Universitäts- und Hansestadt","type":"Stadt"},"district":{"key":"13075","name":"Vorpommern-Greifswald","type":"Landkreis"},"federalState":{"key":"13","name":"Mecklenburg-Vorpommern"}},{"name":"Hugo-Helfritz-Str.","postalCode":"17489","locality":"Greifswald","municipality":{"key":"13075039","name":"Greifswald, Universitäts- und Hansestadt","type":"Stadt"},"district":{"key":"13075","name":"Vorpommern-Greifswald","type":"Landkreis"},"federalState":{"key":"13","name":"Mecklenburg-Vorpommern"}},{"name":"Hummelweg","postalCode":"17491","locality":"Greifswald","municipality":{"key":"13075039","name":"Greifswald, Universitäts- und Hansestadt","type":"Stadt"},"district":{"key":"13075","name":"Vorpommern-Greifswald","type":"Landkreis"},"federalState":{"key":"13","name":"Mecklenburg-Vorpommern"}},{"name":"Hunnenstr.","postalCode":"17489","locality":"Greifswald","municipality":{"key":"13075039","name":"Greifswald, Universitäts- und Hansestadt","type":"Stadt"},"district":{"key":"13075","name":"Vorpommern-Greifswald","type":"Landkreis"},"federalState":{"key":"13","name":"Mecklenburg-Vorpommern"}},{"name":"Inselweg","postalCode":"17493","locality":"Greifswald","municipality":{"key":"13075039","name":"Greifswald, Universitäts- und Hansestadt","type":"Stadt"},"district":{"key":"13075","name":"Vorpommern-Greifswald","type":"Landkreis"},"federalState":{"key":"13","name":"Mecklenburg-Vorpommern"}},{"name":"Jasmunder Weg","postalCode":"17493","locality":"Greifswald","municipality":{"key":"13075039","name":"Greifswald, Universitäts- und Hansestadt","type":"Stadt"},"district":{"key":"13075","name":"Vorpommern-Greifswald","type":"Landkreis"},"federalState":{"key":"13","name":"Mecklenburg-Vorpommern"}},{"name":"Johannes-Bobrowski-Str.","postalCode":"17489","locality":"Greifswald","municipality":{"key":"13075039","name":"Greifswald, Universitäts- und Hansestadt","type":"Stadt"},"district":{"key":"13075","name":"Vorpommern-Greifswald","type":"Landkreis"},"federalState":{"key":"13","name":"Mecklenburg-Vorpommern"}},{"name":"Johann-Sebastian-Bach-Str.","postalCode":"17489","locality":"Greifswald","municipality":{"key":"13075039","name":"Greifswald, Universitäts- und Hansestadt","type":"Stadt"},"district":{"key":"13075","name":"Vorpommern-Greifswald","type":"Landkreis"},"federalState":{"key":"13","name":"Mecklenburg-Vorpommern"}},{"name":"Johann-Stelling-Str.","postalCode":"17489","locality":"Greifswald","municipality":{"key":"13075039","name":"Greifswald, Universitäts- und Hansestadt","type":"Stadt"},"district":{"key":"13075","name":"Vorpommern-Greifswald","type":"Landkreis"},"federalState":{"key":"13","name":"Mecklenburg-Vorpommern"}},{"name":"Joliot-Curie-Str.","postalCode":"17491","locality":"Greifswald","municipality":{"key":"13075039","name":"Greifswald, Universitäts- und Hansestadt","type":"Stadt"},"district":{"key":"13075","name":"Vorpommern-Greifswald","type":"Landkreis"},"federalState":{"key":"13","name":"Mecklenburg-Vorpommern"}},{"name":"Kampswiese","postalCode":"17489","locality":"Greifswald","municipality":{"key":"13075039","name":"Greifswald, Universitäts- und Hansestadt","type":"Stadt"},"district":{"key":"13075","name":"Vorpommern-Greifswald","type":"Landkreis"},"federalState":{"key":"13","name":"Mecklenburg-Vorpommern"}},{"name":"Kapaunenstr.","postalCode":"17489","locality":"Greifswald","municipality":{"key":"13075039","name":"Greifswald, Universitäts- und Hansestadt","type":"Stadt"},"district":{"key":"13075","name":"Vorpommern-Greifswald","type":"Landkreis"},"federalState":{"key":"13","name":"Mecklenburg-Vorpommern"}},{"name":"Karl-Behrendt-Weg","postalCode":"17491","locality":"Greifswald","municipality":{"key":"13075039","name":"Greifswald, Universitäts- und Hansestadt","type":"Stadt"},"district":{"key":"13075","name":"Vorpommern-Greifswald","type":"Landkreis"},"federalState":{"key":"13","name":"Mecklenburg-Vorpommern"}},{"name":"Karl-Krull-Str.","postalCode":"17491","locality":"Greifswald","municipality":{"key":"13075039","name":"Greifswald, Universitäts- und Hansestadt","type":"Stadt"},"district":{"key":"13075","name":"Vorpommern-Greifswald","type":"Landkreis"},"federalState":{"key":"13","name":"Mecklenburg-Vorpommern"}},{"name":"Karl-Liebknecht-Ring","postalCode":"17489","locality":"Greifswald","municipality":{"key":"13075039","name":"Greifswald, Universitäts- und Hansestadt","type":"Stadt"},"district":{"key":"13075","name":"Vorpommern-Greifswald","type":"Landkreis"},"federalState":{"key":"13","name":"Mecklenburg-Vorpommern"}},{"name":"Karl-Liebknecht-Ring","postalCode":"17491","locality":"Greifswald","municipality":{"key":"13075039","name":"Greifswald, Universitäts- und Hansestadt","type":"Stadt"},"district":{"key":"13075","name":"Vorpommern-Greifswald","type":"Landkreis"},"federalState":{"key":"13","name":"Mecklenburg-Vorpommern"}},{"name":"Karl-Marx-Platz","postalCode":"17489","locality":"Greifswald","municipality":{"key":"13075039","name":"Greifswald, Universitäts- und Hansestadt","type":"Stadt"},"district":{"key":"13075","name":"Vorpommern-Greifswald","type":"Landkreis"},"federalState":{"key":"13","name":"Mecklenburg-Vorpommern"}},{"name":"Karl-Schildener-Str.","postalCode":"17491","locality":"Greifswald","municipality":{"key":"13075039","name":"Greifswald, Universitäts- und Hansestadt","type":"Stadt"},"district":{"key":"13075","name":"Vorpommern-Greifswald","type":"Landkreis"},"federalState":{"key":"13","name":"Mecklenburg-Vorpommern"}},{"name":"Kastanienstr.","postalCode":"17493","locality":"Greifswald","municipality":{"key":"13075039","name":"Greifswald, Universitäts- und Hansestadt","type":"Stadt"},"district":{"key":"13075","name":"Vorpommern-Greifswald","type":"Landkreis"},"federalState":{"key":"13","name":"Mecklenburg-Vorpommern"}},{"name":"Kastanienwall","postalCode":"17489","locality":"Greifswald","municipality":{"key":"13075039","name":"Greifswald, Universitäts- und Hansestadt","type":"Stadt"},"district":{"key":"13075","name":"Vorpommern-Greifswald","type":"Landkreis"},"federalState":{"key":"13","name":"Mecklenburg-Vorpommern"}},{"name":"Käthe-Kollwitz-Str.","postalCode":"17489","locality":"Greifswald","municipality":{"key":"13075039","name":"Greifswald, Universitäts- und Hansestadt","type":"Stadt"},"district":{"key":"13075","name":"Vorpommern-Greifswald","type":"Landkreis"},"federalState":{"key":"13","name":"Mecklenburg-Vorpommern"}},{"name":"Kegelkamp","postalCode":"17493","locality":"Greifswald","municipality":{"key":"13075039","name":"Greifswald, Universitäts- und Hansestadt","type":"Stadt"},"district":{"key":"13075","name":"Vorpommern-Greifswald","type":"Landkreis"},"federalState":{"key":"13","name":"Mecklenburg-Vorpommern"}},{"name":"Kemnitzer Wende","postalCode":"17491","locality":"Greifswald","municipality":{"key":"13075039","name":"Greifswald, Universitäts- und Hansestadt","type":"Stadt"},"district":{"key":"13075","name":"Vorpommern-Greifswald","type":"Landkreis"},"federalState":{"key":"13","name":"Mecklenburg-Vorpommern"}},{"name":"Kiebitzhörn","postalCode":"17489","locality":"Greifswald","municipality":{"key":"13075039","name":"Greifswald, Universitäts- und Hansestadt","type":"Stadt"},"district":{"key":"13075","name":"Vorpommern-Greifswald","type":"Landkreis"},"federalState":{"key":"13","name":"Mecklenburg-Vorpommern"}},{"name":"Kirchstr.","postalCode":"17493","locality":"Greifswald","municipality":{"key":"13075039","name":"Greifswald, Universitäts- und Hansestadt","type":"Stadt"},"district":{"key":"13075","name":"Vorpommern-Greifswald","type":"Landkreis"},"federalState":{"key":"13","name":"Mecklenburg-Vorpommern"}},{"name":"Kirschenweg","postalCode":"17489","locality":"Greifswald","municipality":{"key":"13075039","name":"Greifswald, Universitäts- und Hansestadt","type":"Stadt"},"district":{"key":"13075","name":"Vorpommern-Greifswald","type":"Landkreis"},"federalState":{"key":"13","name":"Mecklenburg-Vorpommern"}},{"name":"Klaus-Groth-Str.","postalCode":"17489","locality":"Greifswald","municipality":{"key":"13075039","name":"Greifswald, Universitäts- und Hansestadt","type":"Stadt"},"district":{"key":"13075","name":"Vorpommern-Greifswald","type":"Landkreis"},"federalState":{"key":"13","name":"Mecklenburg-Vorpommern"}},{"name":"Kleine Hafenstr.","postalCode":"17489","locality":"Greifswald","municipality":{"key":"13075039","name":"Greifswald, Universitäts- und Hansestadt","type":"Stadt"},"district":{"key":"13075","name":"Vorpommern-Greifswald","type":"Landkreis"},"federalState":{"key":"13","name":"Mecklenburg-Vorpommern"}},{"name":"Klosterruine Eldena","postalCode":"17493","locality":"Greifswald","municipality":{"key":"13075039","name":"Greifswald, Universitäts- und Hansestadt","type":"Stadt"},"district":{"key":"13075","name":"Vorpommern-Greifswald","type":"Landkreis"},"federalState":{"key":"13","name":"Mecklenburg-Vorpommern"}},{"name":"Knud-Rasmussen-Str.","postalCode":"17493","locality":"Greifswald","municipality":{"key":"13075039","name":"Greifswald, Universitäts- und Hansestadt","type":"Stadt"},"district":{"key":"13075","name":"Vorpommern-Greifswald","type":"Landkreis"},"federalState":{"key":"13","name":"Mecklenburg-Vorpommern"}},{"name":"Koitenhäger Landstr.","postalCode":"17491","locality":"Greifswald","municipality":{"key":"13075039","name":"Greifswald, Universitäts- und Hansestadt","type":"Stadt"},"district":{"key":"13075","name":"Vorpommern-Greifswald","type":"Landkreis"},"federalState":{"key":"13","name":"Mecklenburg-Vorpommern"}},{"name":"Koitenhäger Landstr.","postalCode":"17493","locality":"Greifswald","municipality":{"key":"13075039","name":"Greifswald, Universitäts- und Hansestadt","type":"Stadt"},"district":{"key":"13075","name":"Vorpommern-Greifswald","type":"Landkreis"},"federalState":{"key":"13","name":"Mecklenburg-Vorpommern"}},{"name":"Kooser Weg","postalCode":"17493","locality":"Greifswald","municipality":{"key":"13075039","name":"Greifswald, Universitäts- und Hansestadt","type":"Stadt"},"district":{"key":"13075","name":"Vorpommern-Greifswald","type":"Landkreis"},"federalState":{"key":"13","name":"Mecklenburg-Vorpommern"}},{"name":"Kopenhagener Str.","postalCode":"17493","locality":"Greifswald","municipality":{"key":"13075039","name":"Greifswald, Universitäts- und Hansestadt","type":"Stadt"},"district":{"key":"13075","name":"Vorpommern-Greifswald","type":"Landkreis"},"federalState":{"key":"13","name":"Mecklenburg-Vorpommern"}},{"name":"Kornblumenweg","postalCode":"17491","locality":"Greifswald","municipality":{"key":"13075039","name":"Greifswald, Universitäts- und Hansestadt","type":"Stadt"},"district":{"key":"13075","name":"Vorpommern-Greifswald","type":"Landkreis"},"federalState":{"key":"13","name":"Mecklenburg-Vorpommern"}},{"name":"Kosegartenstr.","postalCode":"17489","locality":"Greifswald","municipality":{"key":"13075039","name":"Greifswald, Universitäts- und Hansestadt","type":"Stadt"},"district":{"key":"13075","name":"Vorpommern-Greifswald","type":"Landkreis"},"federalState":{"key":"13","name":"Mecklenburg-Vorpommern"}},{"name":"Kotkaring","postalCode":"17493","locality":"Greifswald","municipality":{"key":"13075039","name":"Greifswald, Universitäts- und Hansestadt","type":"Stadt"},"district":{"key":"13075","name":"Vorpommern-Greifswald","type":"Landkreis"},"federalState":{"key":"13","name":"Mecklenburg-Vorpommern"}},{"name":"Kräpeliner Wende","postalCode":"17491","locality":"Greifswald","municipality":{"key":"13075039","name":"Greifswald, Universitäts- und Hansestadt","type":"Stadt"},"district":{"key":"13075","name":"Vorpommern-Greifswald","type":"Landkreis"},"federalState":{"key":"13","name":"Mecklenburg-Vorpommern"}},{"name":"Kuhstr.","postalCode":"17489","locality":"Greifswald","municipality":{"key":"13075039","name":"Greifswald, Universitäts- und Hansestadt","type":"Stadt"},"district":{"key":"13075","name":"Vorpommern-Greifswald","type":"Landkreis"},"federalState":{"key":"13","name":"Mecklenburg-Vorpommern"}},{"name":"Kurtschatowweg","postalCode":"17491","locality":"Greifswald","municipality":{"key":"13075039","name":"Greifswald, Universitäts- und Hansestadt","type":"Stadt"},"district":{"key":"13075","name":"Vorpommern-Greifswald","type":"Landkreis"},"federalState":{"key":"13","name":"Mecklenburg-Vorpommern"}},{"name":"Kurt-Tucholsky-Str.","postalCode":"17489","locality":"Greifswald","municipality":{"key":"13075039","name":"Greifswald, Universitäts- und Hansestadt","type":"Stadt"},"district":{"key":"13075","name":"Vorpommern-Greifswald","type":"Landkreis"},"federalState":{"key":"13","name":"Mecklenburg-Vorpommern"}},{"name":"Kurzer Weg","postalCode":"17493","locality":"Greifswald","municipality":{"key":"13075039","name":"Greifswald, Universitäts- und Hansestadt","type":"Stadt"},"district":{"key":"13075","name":"Vorpommern-Greifswald","type":"Landkreis"},"federalState":{"key":"13","name":"Mecklenburg-Vorpommern"}},{"name":"Ladebower Chaussee","postalCode":"17493","locality":"Greifswald","municipality":{"key":"13075039","name":"Greifswald, Universitäts- und Hansestadt","type":"Stadt"},"district":{"key":"13075","name":"Vorpommern-Greifswald","type":"Landkreis"},"federalState":{"key":"13","name":"Mecklenburg-Vorpommern"}},{"name":"Lange Reihe","postalCode":"17489","locality":"Greifswald","municipality":{"key":"13075039","name":"Greifswald, Universitäts- und Hansestadt","type":"Stadt"},"district":{"key":"13075","name":"Vorpommern-Greifswald","type":"Landkreis"},"federalState":{"key":"13","name":"Mecklenburg-Vorpommern"}},{"name":"Lange Str.","postalCode":"17489","locality":"Greifswald","municipality":{"key":"13075039","name":"Greifswald, Universitäts- und Hansestadt","type":"Stadt"},"district":{"key":"13075","name":"Vorpommern-Greifswald","type":"Landkreis"},"federalState":{"key":"13","name":"Mecklenburg-Vorpommern"}},{"name":"Längsfuhr","postalCode":"17489","locality":"Greifswald","municipality":{"key":"13075039","name":"Greifswald, Universitäts- und Hansestadt","type":"Stadt"},"district":{"key":"13075","name":"Vorpommern-Greifswald","type":"Landkreis"},"federalState":{"key":"13","name":"Mecklenburg-Vorpommern"}},{"name":"Lessingstr.","postalCode":"17489","locality":"Greifswald","municipality":{"key":"13075039","name":"Greifswald, Universitäts- und Hansestadt","type":"Stadt"},"district":{"key":"13075","name":"Vorpommern-Greifswald","type":"Landkreis"},"federalState":{"key":"13","name":"Mecklenburg-Vorpommern"}},{"name":"Lindenstr.","postalCode":"17493","locality":"Greifswald","municipality":{"key":"13075039","name":"Greifswald, Universitäts- und Hansestadt","type":"Stadt"},"district":{"key":"13075","name":"Vorpommern-Greifswald","type":"Landkreis"},"federalState":{"key":"13","name":"Mecklenburg-Vorpommern"}},{"name":"Lindenwall","postalCode":"17489","locality":"Greifswald","municipality":{"key":"13075039","name":"Greifswald, Universitäts- und Hansestadt","type":"Stadt"},"district":{"key":"13075","name":"Vorpommern-Greifswald","type":"Landkreis"},"federalState":{"key":"13","name":"Mecklenburg-Vorpommern"}},{"name":"Lise-Meitner-Str.","postalCode":"17491","locality":"Greifswald","municipality":{"key":"13075039","name":"Greifswald, Universitäts- und Hansestadt","type":"Stadt"},"district":{"key":"13075","name":"Vorpommern-Greifswald","type":"Landkreis"},"federalState":{"key":"13","name":"Mecklenburg-Vorpommern"}},{"name":"Loissiner Wende","postalCode":"17491","locality":"Greifswald","municipality":{"key":"13075039","name":"Greifswald, Universitäts- und Hansestadt","type":"Stadt"},"district":{"key":"13075","name":"Vorpommern-Greifswald","type":"Landkreis"},"federalState":{"key":"13","name":"Mecklenburg-Vorpommern"}},{"name":"Loitzer Landstr.","postalCode":"17489","locality":"Greifswald","municipality":{"key":"13075039","name":"Greifswald, Universitäts- und Hansestadt","type":"Stadt"},"district":{"key":"13075","name":"Vorpommern-Greifswald","type":"Landkreis"},"federalState":{"key":"13","name":"Mecklenburg-Vorpommern"}},{"name":"Loitzer Str.","postalCode":"17489","locality":"Greifswald","municipality":{"key":"13075039","name":"Greifswald, Universitäts- und Hansestadt","type":"Stadt"},"district":{"key":"13075","name":"Vorpommern-Greifswald","type":"Landkreis"},"federalState":{"key":"13","name":"Mecklenburg-Vorpommern"}},{"name":"Lomonossowallee","postalCode":"17491","locality":"Greifswald","municipality":{"key":"13075039","name":"Greifswald, Universitäts- und Hansestadt","type":"Stadt"},"district":{"key":"13075","name":"Vorpommern-Greifswald","type":"Landkreis"},"federalState":{"key":"13","name":"Mecklenburg-Vorpommern"}},{"name":"Lübecker Str.","postalCode":"17493","locality":"Greifswald","municipality":{"key":"13075039","name":"Greifswald, Universitäts- und Hansestadt","type":"Stadt"},"district":{"key":"13075","name":"Vorpommern-Greifswald","type":"Landkreis"},"federalState":{"key":"13","name":"Mecklenburg-Vorpommern"}},{"name":"Ludwigsburger Wende","postalCode":"17491","locality":"Greifswald","municipality":{"key":"13075039","name":"Greifswald, Universitäts- und Hansestadt","type":"Stadt"},"district":{"key":"13075","name":"Vorpommern-Greifswald","type":"Landkreis"},"federalState":{"key":"13","name":"Mecklenburg-Vorpommern"}},{"name":"Makarenkostr.","postalCode":"17491","locality":"Greifswald","municipality":{"key":"13075039","name":"Greifswald, Universitäts- und Hansestadt","type":"Stadt"},"district":{"key":"13075","name":"Vorpommern-Greifswald","type":"Landkreis"},"federalState":{"key":"13","name":"Mecklenburg-Vorpommern"}},{"name":"Margarethe-Lachmund-Str.","postalCode":"17493","locality":"Greifswald","municipality":{"key":"13075039","name":"Greifswald, Universitäts- und Hansestadt","type":"Stadt"},"district":{"key":"13075","name":"Vorpommern-Greifswald","type":"Landkreis"},"federalState":{"key":"13","name":"Mecklenburg-Vorpommern"}},{"name":"Marienkirchplatz","postalCode":"17489","locality":"Greifswald","municipality":{"key":"13075039","name":"Greifswald, Universitäts- und Hansestadt","type":"Stadt"},"district":{"key":"13075","name":"Vorpommern-Greifswald","type":"Landkreis"},"federalState":{"key":"13","name":"Mecklenburg-Vorpommern"}},{"name":"Marienstr.","postalCode":"17489","locality":"Greifswald","municipality":{"key":"13075039","name":"Greifswald, Universitäts- und Hansestadt","type":"Stadt"},"district":{"key":"13075","name":"Vorpommern-Greifswald","type":"Landkreis"},"federalState":{"key":"13","name":"Mecklenburg-Vorpommern"}},{"name":"Markt","postalCode":"17489","locality":"Greifswald","municipality":{"key":"13075039","name":"Greifswald, Universitäts- und Hansestadt","type":"Stadt"},"district":{"key":"13075","name":"Vorpommern-Greifswald","type":"Landkreis"},"federalState":{"key":"13","name":"Mecklenburg-Vorpommern"}},{"name":"Martin-Andersen-Nexö-Platz","postalCode":"17489","locality":"Greifswald","municipality":{"key":"13075039","name":"Greifswald, Universitäts- und Hansestadt","type":"Stadt"},"district":{"key":"13075","name":"Vorpommern-Greifswald","type":"Landkreis"},"federalState":{"key":"13","name":"Mecklenburg-Vorpommern"}},{"name":"Martin-Luther-Str.","postalCode":"17489","locality":"Greifswald","municipality":{"key":"13075039","name":"Greifswald, Universitäts- und Hansestadt","type":"Stadt"},"district":{"key":"13075","name":"Vorpommern-Greifswald","type":"Landkreis"},"federalState":{"key":"13","name":"Mecklenburg-Vorpommern"}},{"name":"Max-Born-Str.","postalCode":"17491","locality":"Greifswald","municipality":{"key":"13075039","name":"Greifswald, Universitäts- und Hansestadt","type":"Stadt"},"district":{"key":"13075","name":"Vorpommern-Greifswald","type":"Landkreis"},"federalState":{"key":"13","name":"Mecklenburg-Vorpommern"}},{"name":"Max-Hagen-Weg","postalCode":"17491","locality":"Greifswald","municipality":{"key":"13075039","name":"Greifswald, Universitäts- und Hansestadt","type":"Stadt"},"district":{"key":"13075","name":"Vorpommern-Greifswald","type":"Landkreis"},"federalState":{"key":"13","name":"Mecklenburg-Vorpommern"}},{"name":"Maxim-Gorki-Str.","postalCode":"17491","locality":"Greifswald","municipality":{"key":"13075039","name":"Greifswald, Universitäts- und Hansestadt","type":"Stadt"},"district":{"key":"13075","name":"Vorpommern-Greifswald","type":"Landkreis"},"federalState":{"key":"13","name":"Mecklenburg-Vorpommern"}},{"name":"Max-Planck-Str.","postalCode":"17491","locality":"Greifswald","municipality":{"key":"13075039","name":"Greifswald, Universitäts- und Hansestadt","type":"Stadt"},"district":{"key":"13075","name":"Vorpommern-Greifswald","type":"Landkreis"},"federalState":{"key":"13","name":"Mecklenburg-Vorpommern"}},{"name":"Max-Reimann-Str.","postalCode":"17493","locality":"Greifswald","municipality":{"key":"13075039","name":"Greifswald, Universitäts- und Hansestadt","type":"Stadt"},"district":{"key":"13075","name":"Vorpommern-Greifswald","type":"Landkreis"},"federalState":{"key":"13","name":"Mecklenburg-Vorpommern"}},{"name":"Mendelejewweg","postalCode":"17491","locality":"Greifswald","municipality":{"key":"13075039","name":"Greifswald, Universitäts- und Hansestadt","type":"Stadt"},"district":{"key":"13075","name":"Vorpommern-Greifswald","type":"Landkreis"},"federalState":{"key":"13","name":"Mecklenburg-Vorpommern"}},{"name":"Mittelstr.","postalCode":"17489","locality":"Greifswald","municipality":{"key":"13075039","name":"Greifswald, Universitäts- und Hansestadt","type":"Stadt"},"district":{"key":"13075","name":"Vorpommern-Greifswald","type":"Landkreis"},"federalState":{"key":"13","name":"Mecklenburg-Vorpommern"}},{"name":"Mönchguter Weg","postalCode":"17493","locality":"Greifswald","municipality":{"key":"13075039","name":"Greifswald, Universitäts- und Hansestadt","type":"Stadt"},"district":{"key":"13075","name":"Vorpommern-Greifswald","type":"Landkreis"},"federalState":{"key":"13","name":"Mecklenburg-Vorpommern"}},{"name":"Moorweide","postalCode":"17493","locality":"Greifswald","municipality":{"key":"13075039","name":"Greifswald, Universitäts- und Hansestadt","type":"Stadt"},"district":{"key":"13075","name":"Vorpommern-Greifswald","type":"Landkreis"},"federalState":{"key":"13","name":"Mecklenburg-Vorpommern"}},{"name":"Moritz-Becherer-Str.","postalCode":"17491","locality":"Greifswald","municipality":{"key":"13075039","name":"Greifswald, Universitäts- und Hansestadt","type":"Stadt"},"district":{"key":"13075","name":"Vorpommern-Greifswald","type":"Landkreis"},"federalState":{"key":"13","name":"Mecklenburg-Vorpommern"}},{"name":"Mühlenstr.","postalCode":"17489","locality":"Greifswald","municipality":{"key":"13075039","name":"Greifswald, Universitäts- und Hansestadt","type":"Stadt"},"district":{"key":"13075","name":"Vorpommern-Greifswald","type":"Landkreis"},"federalState":{"key":"13","name":"Mecklenburg-Vorpommern"}},{"name":"Mühlenweg","postalCode":"17489","locality":"Greifswald","municipality":{"key":"13075039","name":"Greifswald, Universitäts- und Hansestadt","type":"Stadt"},"district":{"key":"13075","name":"Vorpommern-Greifswald","type":"Landkreis"},"federalState":{"key":"13","name":"Mecklenburg-Vorpommern"}},{"name":"Münterstr.","postalCode":"17489","locality":"Greifswald","municipality":{"key":"13075039","name":"Greifswald, Universitäts- und Hansestadt","type":"Stadt"},"district":{"key":"13075","name":"Vorpommern-Greifswald","type":"Landkreis"},"federalState":{"key":"13","name":"Mecklenburg-Vorpommern"}},{"name":"Nelkenweg","postalCode":"17489","locality":"Greifswald","municipality":{"key":"13075039","name":"Greifswald, Universitäts- und Hansestadt","type":"Stadt"},"district":{"key":"13075","name":"Vorpommern-Greifswald","type":"Landkreis"},"federalState":{"key":"13","name":"Mecklenburg-Vorpommern"}},{"name":"Neuendorfer Wende","postalCode":"17491","locality":"Greifswald","municipality":{"key":"13075039","name":"Greifswald, Universitäts- und Hansestadt","type":"Stadt"},"district":{"key":"13075","name":"Vorpommern-Greifswald","type":"Landkreis"},"federalState":{"key":"13","name":"Mecklenburg-Vorpommern"}},{"name":"Neuer Brinkhof","postalCode":"17489","locality":"Greifswald","municipality":{"key":"13075039","name":"Greifswald, Universitäts- und Hansestadt","type":"Stadt"},"district":{"key":"13075","name":"Vorpommern-Greifswald","type":"Landkreis"},"federalState":{"key":"13","name":"Mecklenburg-Vorpommern"}},{"name":"Neuer Friedhof","postalCode":"17489","locality":"Greifswald","municipality":{"key":"13075039","name":"Greifswald, Universitäts- und Hansestadt","type":"Stadt"},"district":{"key":"13075","name":"Vorpommern-Greifswald","type":"Landkreis"},"federalState":{"key":"13","name":"Mecklenburg-Vorpommern"}},{"name":"Neue Str.","postalCode":"17493","locality":"Greifswald","municipality":{"key":"13075039","name":"Greifswald, Universitäts- und Hansestadt","type":"Stadt"},"district":{"key":"13075","name":"Vorpommern-Greifswald","type":"Landkreis"},"federalState":{"key":"13","name":"Mecklenburg-Vorpommern"}},{"name":"Neunmorgenstr.","postalCode":"17489","locality":"Greifswald","municipality":{"key":"13075039","name":"Greifswald, Universitäts- und Hansestadt","type":"Stadt"},"district":{"key":"13075","name":"Vorpommern-Greifswald","type":"Landkreis"},"federalState":{"key":"13","name":"Mecklenburg-Vorpommern"}},{"name":"Newtonstr.","postalCode":"17491","locality":"Greifswald","municipality":{"key":"13075039","name":"Greifswald, Universitäts- und Hansestadt","type":"Stadt"},"district":{"key":"13075","name":"Vorpommern-Greifswald","type":"Landkreis"},"federalState":{"key":"13","name":"Mecklenburg-Vorpommern"}},{"name":"Niels-Bohr-Str.","postalCode":"17491","locality":"Greifswald","municipality":{"key":"13075039","name":"Greifswald, Universitäts- und Hansestadt","type":"Stadt"},"district":{"key":"13075","name":"Vorpommern-Greifswald","type":"Landkreis"},"federalState":{"key":"13","name":"Mecklenburg-Vorpommern"}},{"name":"Nikolaikirchplatz","postalCode":"17489","locality":"Greifswald","municipality":{"key":"13075039","name":"Greifswald, Universitäts- und Hansestadt","type":"Stadt"},"district":{"key":"13075","name":"Vorpommern-Greifswald","type":"Landkreis"},"federalState":{"key":"13","name":"Mecklenburg-Vorpommern"}},{"name":"Nikolajewweg","postalCode":"17491","locality":"Greifswald","municipality":{"key":"13075039","name":"Greifswald, Universitäts- und Hansestadt","type":"Stadt"},"district":{"key":"13075","name":"Vorpommern-Greifswald","type":"Landkreis"},"federalState":{"key":"13","name":"Mecklenburg-Vorpommern"}},{"name":"Odebrechtsstiftung","postalCode":"17489","locality":"Greifswald","municipality":{"key":"13075039","name":"Greifswald, Universitäts- und Hansestadt","type":"Stadt"},"district":{"key":"13075","name":"Vorpommern-Greifswald","type":"Landkreis"},"federalState":{"key":"13","name":"Mecklenburg-Vorpommern"}},{"name":"Osloer Str.","postalCode":"17493","locality":"Greifswald","municipality":{"key":"13075039","name":"Greifswald, Universitäts- und Hansestadt","type":"Stadt"},"district":{"key":"13075","name":"Vorpommern-Greifswald","type":"Landkreis"},"federalState":{"key":"13","name":"Mecklenburg-Vorpommern"}},{"name":"Osnabrücker Str.","postalCode":"17489","locality":"Greifswald","municipality":{"key":"13075039","name":"Greifswald, Universitäts- und Hansestadt","type":"Stadt"},"district":{"key":"13075","name":"Vorpommern-Greifswald","type":"Landkreis"},"federalState":{"key":"13","name":"Mecklenburg-Vorpommern"}},{"name":"Ostrowskistr.","postalCode":"17491","locality":"Greifswald","municipality":{"key":"13075039","name":"Greifswald, Universitäts- und Hansestadt","type":"Stadt"},"district":{"key":"13075","name":"Vorpommern-Greifswald","type":"Landkreis"},"federalState":{"key":"13","name":"Mecklenburg-Vorpommern"}},{"name":"Ostseestr.","postalCode":"17493","locality":"Greifswald","municipality":{"key":"13075039","name":"Greifswald, Universitäts- und Hansestadt","type":"Stadt"},"district":{"key":"13075","name":"Vorpommern-Greifswald","type":"Landkreis"},"federalState":{"key":"13","name":"Mecklenburg-Vorpommern"}},{"name":"Pappelallee","postalCode":"17489","locality":"Greifswald","municipality":{"key":"13075039","name":"Greifswald, Universitäts- und Hansestadt","type":"Stadt"},"district":{"key":"13075","name":"Vorpommern-Greifswald","type":"Landkreis"},"federalState":{"key":"13","name":"Mecklenburg-Vorpommern"}},{"name":"Pappelallee","postalCode":"17493","locality":"Greifswald","municipality":{"key":"13075039","name":"Greifswald, Universitäts- und Hansestadt","type":"Stadt"},"district":{"key":"13075","name":"Vorpommern-Greifswald","type":"Landkreis"},"federalState":{"key":"13","name":"Mecklenburg-Vorpommern"}},{"name":"Paul-Uhlenhuth-Str.","postalCode":"17489","locality":"Greifswald","municipality":{"key":"13075039","name":"Greifswald, Universitäts- und Hansestadt","type":"Stadt"},"district":{"key":"13075","name":"Vorpommern-Greifswald","type":"Landkreis"},"federalState":{"key":"13","name":"Mecklenburg-Vorpommern"}},{"name":"Pestalozzistr.","postalCode":"17489","locality":"Greifswald","municipality":{"key":"13075039","name":"Greifswald, Universitäts- und Hansestadt","type":"Stadt"},"district":{"key":"13075","name":"Vorpommern-Greifswald","type":"Landkreis"},"federalState":{"key":"13","name":"Mecklenburg-Vorpommern"}},{"name":"Peter-Warschow-Str.","postalCode":"17489","locality":"Greifswald","municipality":{"key":"13075039","name":"Greifswald, Universitäts- und Hansestadt","type":"Stadt"},"district":{"key":"13075","name":"Vorpommern-Greifswald","type":"Landkreis"},"federalState":{"key":"13","name":"Mecklenburg-Vorpommern"}},{"name":"Pfarrer-Wachsmann-Str.","postalCode":"17489","locality":"Greifswald","municipality":{"key":"13075039","name":"Greifswald, Universitäts- und Hansestadt","type":"Stadt"},"district":{"key":"13075","name":"Vorpommern-Greifswald","type":"Landkreis"},"federalState":{"key":"13","name":"Mecklenburg-Vorpommern"}},{"name":"Platz der Freiheit","postalCode":"17489","locality":"Greifswald","municipality":{"key":"13075039","name":"Greifswald, Universitäts- und Hansestadt","type":"Stadt"},"district":{"key":"13075","name":"Vorpommern-Greifswald","type":"Landkreis"},"federalState":{"key":"13","name":"Mecklenburg-Vorpommern"}},{"name":"Poeler Weg","postalCode":"17493","locality":"Greifswald","municipality":{"key":"13075039","name":"Greifswald, Universitäts- und Hansestadt","type":"Stadt"},"district":{"key":"13075","name":"Vorpommern-Greifswald","type":"Landkreis"},"federalState":{"key":"13","name":"Mecklenburg-Vorpommern"}},{"name":"Pomeroder Platz","postalCode":"17489","locality":"Greifswald","municipality":{"key":"13075039","name":"Greifswald, Universitäts- und Hansestadt","type":"Stadt"},"district":{"key":"13075","name":"Vorpommern-Greifswald","type":"Landkreis"},"federalState":{"key":"13","name":"Mecklenburg-Vorpommern"}},{"name":"Prokofjewstr.","postalCode":"17491","locality":"Greifswald","municipality":{"key":"13075039","name":"Greifswald, Universitäts- und Hansestadt","type":"Stadt"},"district":{"key":"13075","name":"Vorpommern-Greifswald","type":"Landkreis"},"federalState":{"key":"13","name":"Mecklenburg-Vorpommern"}},{"name":"Promenade am Museumshafen","postalCode":"17489","locality":"Greifswald","municipality":{"key":"13075039","name":"Greifswald, Universitäts- und Hansestadt","type":"Stadt"},"district":{"key":"13075","name":"Vorpommern-Greifswald","type":"Landkreis"},"federalState":{"key":"13","name":"Mecklenburg-Vorpommern"}},{"name":"Puschkinring","postalCode":"17491","locality":"Greifswald","municipality":{"key":"13075039","name":"Greifswald, Universitäts- und Hansestadt","type":"Stadt"},"district":{"key":"13075","name":"Vorpommern-Greifswald","type":"Landkreis"},"federalState":{"key":"13","name":"Mecklenburg-Vorpommern"}},{"name":"Querfeld","postalCode":"17489","locality":"Greifswald","municipality":{"key":"13075039","name":"Greifswald, Universitäts- und Hansestadt","type":"Stadt"},"district":{"key":"13075","name":"Vorpommern-Greifswald","type":"Landkreis"},"federalState":{"key":"13","name":"Mecklenburg-Vorpommern"}},{"name":"Quistorpweg","postalCode":"17491","locality":"Greifswald","municipality":{"key":"13075039","name":"Greifswald, Universitäts- und Hansestadt","type":"Stadt"},"district":{"key":"13075","name":"Vorpommern-Greifswald","type":"Landkreis"},"federalState":{"key":"13","name":"Mecklenburg-Vorpommern"}},{"name":"Rakower Str.","postalCode":"17489","locality":"Greifswald","municipality":{"key":"13075039","name":"Greifswald, Universitäts- und Hansestadt","type":"Stadt"},"district":{"key":"13075","name":"Vorpommern-Greifswald","type":"Landkreis"},"federalState":{"key":"13","name":"Mecklenburg-Vorpommern"}},{"name":"Ratswiese","postalCode":"17489","locality":"Greifswald","municipality":{"key":"13075039","name":"Greifswald, Universitäts- und Hansestadt","type":"Stadt"},"district":{"key":"13075","name":"Vorpommern-Greifswald","type":"Landkreis"},"federalState":{"key":"13","name":"Mecklenburg-Vorpommern"}},{"name":"Reitweg","postalCode":"17491","locality":"Greifswald","municipality":{"key":"13075039","name":"Greifswald, Universitäts- und Hansestadt","type":"Stadt"},"district":{"key":"13075","name":"Vorpommern-Greifswald","type":"Landkreis"},"federalState":{"key":"13","name":"Mecklenburg-Vorpommern"}},{"name":"Riemser Weg","postalCode":"17493","locality":"Greifswald","municipality":{"key":"13075039","name":"Greifswald, Universitäts- und Hansestadt","type":"Stadt"},"district":{"key":"13075","name":"Vorpommern-Greifswald","type":"Landkreis"},"federalState":{"key":"13","name":"Mecklenburg-Vorpommern"}},{"name":"Rigaer Str.","postalCode":"17493","locality":"Greifswald","municipality":{"key":"13075039","name":"Greifswald, Universitäts- und Hansestadt","type":"Stadt"},"district":{"key":"13075","name":"Vorpommern-Greifswald","type":"Landkreis"},"federalState":{"key":"13","name":"Mecklenburg-Vorpommern"}},{"name":"Ringstr.","postalCode":"17493","locality":"Greifswald","municipality":{"key":"13075039","name":"Greifswald, Universitäts- und Hansestadt","type":"Stadt"},"district":{"key":"13075","name":"Vorpommern-Greifswald","type":"Landkreis"},"federalState":{"key":"13","name":"Mecklenburg-Vorpommern"}},{"name":"Roald-Amundsen-Str.","postalCode":"17493","locality":"Greifswald","municipality":{"key":"13075039","name":"Greifswald, Universitäts- und Hansestadt","type":"Stadt"},"district":{"key":"13075","name":"Vorpommern-Greifswald","type":"Landkreis"},"federalState":{"key":"13","name":"Mecklenburg-Vorpommern"}},{"name":"Robert-Blum-Str.","postalCode":"17489","locality":"Greifswald","municipality":{"key":"13075039","name":"Greifswald, Universitäts- und Hansestadt","type":"Stadt"},"district":{"key":"13075","name":"Vorpommern-Greifswald","type":"Landkreis"},"federalState":{"key":"13","name":"Mecklenburg-Vorpommern"}},{"name":"Röntgenstr.","postalCode":"17491","locality":"Greifswald","municipality":{"key":"13075039","name":"Greifswald, Universitäts- und Hansestadt","type":"Stadt"},"district":{"key":"13075","name":"Vorpommern-Greifswald","type":"Landkreis"},"federalState":{"key":"13","name":"Mecklenburg-Vorpommern"}},{"name":"Rosa-Luxemburg-Str.","postalCode":"17489","locality":"Greifswald","municipality":{"key":"13075039","name":"Greifswald, Universitäts- und Hansestadt","type":"Stadt"},"district":{"key":"13075","name":"Vorpommern-Greifswald","type":"Landkreis"},"federalState":{"key":"13","name":"Mecklenburg-Vorpommern"}},{"name":"Rosengarten","postalCode":"17489","locality":"Greifswald","municipality":{"key":"13075039","name":"Greifswald, Universitäts- und Hansestadt","type":"Stadt"},"district":{"key":"13075","name":"Vorpommern-Greifswald","type":"Landkreis"},"federalState":{"key":"13","name":"Mecklenburg-Vorpommern"}},{"name":"Rosenstr.","postalCode":"17493","locality":"Greifswald","municipality":{"key":"13075039","name":"Greifswald, Universitäts- und Hansestadt","type":"Stadt"},"district":{"key":"13075","name":"Vorpommern-Greifswald","type":"Landkreis"},"federalState":{"key":"13","name":"Mecklenburg-Vorpommern"}},{"name":"Rosenweg","postalCode":"17489","locality":"Greifswald","municipality":{"key":"13075039","name":"Greifswald, Universitäts- und Hansestadt","type":"Stadt"},"district":{"key":"13075","name":"Vorpommern-Greifswald","type":"Landkreis"},"federalState":{"key":"13","name":"Mecklenburg-Vorpommern"}},{"name":"Roßmühlenstr.","postalCode":"17489","locality":"Greifswald","municipality":{"key":"13075039","name":"Greifswald, Universitäts- und Hansestadt","type":"Stadt"},"district":{"key":"13075","name":"Vorpommern-Greifswald","type":"Landkreis"},"federalState":{"key":"13","name":"Mecklenburg-Vorpommern"}},{"name":"Rostocker Str.","postalCode":"17493","locality":"Greifswald","municipality":{"key":"13075039","name":"Greifswald, Universitäts- und Hansestadt","type":"Stadt"},"district":{"key":"13075","name":"Vorpommern-Greifswald","type":"Landkreis"},"federalState":{"key":"13","name":"Mecklenburg-Vorpommern"}},{"name":"Rotdornweg","postalCode":"17493","locality":"Greifswald","municipality":{"key":"13075039","name":"Greifswald, Universitäts- und Hansestadt","type":"Stadt"},"district":{"key":"13075","name":"Vorpommern-Greifswald","type":"Landkreis"},"federalState":{"key":"13","name":"Mecklenburg-Vorpommern"}},{"name":"Rotgerberstr.","postalCode":"17489","locality":"Greifswald","municipality":{"key":"13075039","name":"Greifswald, Universitäts- und Hansestadt","type":"Stadt"},"district":{"key":"13075","name":"Vorpommern-Greifswald","type":"Landkreis"},"federalState":{"key":"13","name":"Mecklenburg-Vorpommern"}},{"name":"Rubenowplatz","postalCode":"17489","locality":"Greifswald","municipality":{"key":"13075039","name":"Greifswald, Universitäts- und Hansestadt","type":"Stadt"},"district":{"key":"13075","name":"Vorpommern-Greifswald","type":"Landkreis"},"federalState":{"key":"13","name":"Mecklenburg-Vorpommern"}},{"name":"Rubenowstr.","postalCode":"17489","locality":"Greifswald","municipality":{"key":"13075039","name":"Greifswald, Universitäts- und Hansestadt","type":"Stadt"},"district":{"key":"13075","name":"Vorpommern-Greifswald","type":"Landkreis"},"federalState":{"key":"13","name":"Mecklenburg-Vorpommern"}},{"name":"Rudolf-Breitscheid-Str.","postalCode":"17489","locality":"Greifswald","municipality":{"key":"13075039","name":"Greifswald, Universitäts- und Hansestadt","type":"Stadt"},"district":{"key":"13075","name":"Vorpommern-Greifswald","type":"Landkreis"},"federalState":{"key":"13","name":"Mecklenburg-Vorpommern"}},{"name":"Rudolf-Petershagen-Allee","postalCode":"17489","locality":"Greifswald","municipality":{"key":"13075039","name":"Greifswald, Universitäts- und Hansestadt","type":"Stadt"},"district":{"key":"13075","name":"Vorpommern-Greifswald","type":"Landkreis"},"federalState":{"key":"13","name":"Mecklenburg-Vorpommern"}},{"name":"Rudolf-Seeliger-Str.","postalCode":"17489","locality":"Greifswald","municipality":{"key":"13075039","name":"Greifswald, Universitäts- und Hansestadt","type":"Stadt"},"district":{"key":"13075","name":"Vorpommern-Greifswald","type":"Landkreis"},"federalState":{"key":"13","name":"Mecklenburg-Vorpommern"}},{"name":"Rügener Weg","postalCode":"17493","locality":"Greifswald","municipality":{"key":"13075039","name":"Greifswald, Universitäts- und Hansestadt","type":"Stadt"},"district":{"key":"13075","name":"Vorpommern-Greifswald","type":"Landkreis"},"federalState":{"key":"13","name":"Mecklenburg-Vorpommern"}},{"name":"Runde Wiese","postalCode":"17491","locality":"Greifswald","municipality":{"key":"13075039","name":"Greifswald, Universitäts- und Hansestadt","type":"Stadt"},"district":{"key":"13075","name":"Vorpommern-Greifswald","type":"Landkreis"},"federalState":{"key":"13","name":"Mecklenburg-Vorpommern"}},{"name":"Salinenstr.","postalCode":"17489","locality":"Greifswald","municipality":{"key":"13075039","name":"Greifswald, Universitäts- und Hansestadt","type":"Stadt"},"district":{"key":"13075","name":"Vorpommern-Greifswald","type":"Landkreis"},"federalState":{"key":"13","name":"Mecklenburg-Vorpommern"}},{"name":"Sandfuhr","postalCode":"17491","locality":"Greifswald","municipality":{"key":"13075039","name":"Greifswald, Universitäts- und Hansestadt","type":"Stadt"},"district":{"key":"13075","name":"Vorpommern-Greifswald","type":"Landkreis"},"federalState":{"key":"13","name":"Mecklenburg-Vorpommern"}},{"name":"Sassnitzer Weg","postalCode":"17493","locality":"Greifswald","municipality":{"key":"13075039","name":"Greifswald, Universitäts- und Hansestadt","type":"Stadt"},"district":{"key":"13075","name":"Vorpommern-Greifswald","type":"Landkreis"},"federalState":{"key":"13","name":"Mecklenburg-Vorpommern"}},{"name":"Scharnhorststr.","postalCode":"17489","locality":"Greifswald","municipality":{"key":"13075039","name":"Greifswald, Universitäts- und Hansestadt","type":"Stadt"},"district":{"key":"13075","name":"Vorpommern-Greifswald","type":"Landkreis"},"federalState":{"key":"13","name":"Mecklenburg-Vorpommern"}},{"name":"Schillerplatz","postalCode":"17489","locality":"Greifswald","municipality":{"key":"13075039","name":"Greifswald, Universitäts- und Hansestadt","type":"Stadt"},"district":{"key":"13075","name":"Vorpommern-Greifswald","type":"Landkreis"},"federalState":{"key":"13","name":"Mecklenburg-Vorpommern"}},{"name":"Schillerstr.","postalCode":"17489","locality":"Greifswald","municipality":{"key":"13075039","name":"Greifswald, Universitäts- und Hansestadt","type":"Stadt"},"district":{"key":"13075","name":"Vorpommern-Greifswald","type":"Landkreis"},"federalState":{"key":"13","name":"Mecklenburg-Vorpommern"}},{"name":"Schillstr.","postalCode":"17489","locality":"Greifswald","municipality":{"key":"13075039","name":"Greifswald, Universitäts- und Hansestadt","type":"Stadt"},"district":{"key":"13075","name":"Vorpommern-Greifswald","type":"Landkreis"},"federalState":{"key":"13","name":"Mecklenburg-Vorpommern"}},{"name":"Schlehdornweg","postalCode":"17493","locality":"Greifswald","municipality":{"key":"13075039","name":"Greifswald, Universitäts- und Hansestadt","type":"Stadt"},"district":{"key":"13075","name":"Vorpommern-Greifswald","type":"Landkreis"},"federalState":{"key":"13","name":"Mecklenburg-Vorpommern"}},{"name":"Schönwalder Landstr.","postalCode":"17489","locality":"Greifswald","municipality":{"key":"13075039","name":"Greifswald, Universitäts- und Hansestadt","type":"Stadt"},"district":{"key":"13075","name":"Vorpommern-Greifswald","type":"Landkreis"},"federalState":{"key":"13","name":"Mecklenburg-Vorpommern"}},{"name":"Schönwalder Landstr.","postalCode":"17491","locality":"Greifswald","municipality":{"key":"13075039","name":"Greifswald, Universitäts- und Hansestadt","type":"Stadt"},"district":{"key":"13075","name":"Vorpommern-Greifswald","type":"Landkreis"},"federalState":{"key":"13","name":"Mecklenburg-Vorpommern"}},{"name":"Schulstr.","postalCode":"17493","locality":"Greifswald","municipality":{"key":"13075039","name":"Greifswald, Universitäts- und Hansestadt","type":"Stadt"},"district":{"key":"13075","name":"Vorpommern-Greifswald","type":"Landkreis"},"federalState":{"key":"13","name":"Mecklenburg-Vorpommern"}},{"name":"Schützenstr.","postalCode":"17489","locality":"Greifswald","municipality":{"key":"13075039","name":"Greifswald, Universitäts- und Hansestadt","type":"Stadt"},"district":{"key":"13075","name":"Vorpommern-Greifswald","type":"Landkreis"},"federalState":{"key":"13","name":"Mecklenburg-Vorpommern"}},{"name":"Selma-Lagerlöf-Str.","postalCode":"17489","locality":"Greifswald","municipality":{"key":"13075039","name":"Greifswald, Universitäts- und Hansestadt","type":"Stadt"},"district":{"key":"13075","name":"Vorpommern-Greifswald","type":"Landkreis"},"federalState":{"key":"13","name":"Mecklenburg-Vorpommern"}},{"name":"Sibylla-Schwarz-Str.","postalCode":"17489","locality":"Greifswald","municipality":{"key":"13075039","name":"Greifswald, Universitäts- und Hansestadt","type":"Stadt"},"district":{"key":"13075","name":"Vorpommern-Greifswald","type":"Landkreis"},"federalState":{"key":"13","name":"Mecklenburg-Vorpommern"}},{"name":"Siemensallee","postalCode":"17489","locality":"Greifswald","municipality":{"key":"13075039","name":"Greifswald, Universitäts- und Hansestadt","type":"Stadt"},"district":{"key":"13075","name":"Vorpommern-Greifswald","type":"Landkreis"},"federalState":{"key":"13","name":"Mecklenburg-Vorpommern"}},{"name":"Soldmannstr.","postalCode":"17489","locality":"Greifswald","municipality":{"key":"13075039","name":"Greifswald, Universitäts- und Hansestadt","type":"Stadt"},"district":{"key":"13075","name":"Vorpommern-Greifswald","type":"Landkreis"},"federalState":{"key":"13","name":"Mecklenburg-Vorpommern"}},{"name":"Spiegelsdorfer Wende","postalCode":"17491","locality":"Greifswald","municipality":{"key":"13075039","name":"Greifswald, Universitäts- und Hansestadt","type":"Stadt"},"district":{"key":"13075","name":"Vorpommern-Greifswald","type":"Landkreis"},"federalState":{"key":"13","name":"Mecklenburg-Vorpommern"}},{"name":"Sprosserweg","postalCode":"17493","locality":"Greifswald","municipality":{"key":"13075039","name":"Greifswald, Universitäts- und Hansestadt","type":"Stadt"},"district":{"key":"13075","name":"Vorpommern-Greifswald","type":"Landkreis"},"federalState":{"key":"13","name":"Mecklenburg-Vorpommern"}},{"name":"Stadtpark","postalCode":"17493","locality":"Greifswald","municipality":{"key":"13075039","name":"Greifswald, Universitäts- und Hansestadt","type":"Stadt"},"district":{"key":"13075","name":"Vorpommern-Greifswald","type":"Landkreis"},"federalState":{"key":"13","name":"Mecklenburg-Vorpommern"}},{"name":"Steinbeckerstr.","postalCode":"17489","locality":"Greifswald","municipality":{"key":"13075039","name":"Greifswald, Universitäts- und Hansestadt","type":"Stadt"},"district":{"key":"13075","name":"Vorpommern-Greifswald","type":"Landkreis"},"federalState":{"key":"13","name":"Mecklenburg-Vorpommern"}},{"name":"Steinstr.","postalCode":"17489","locality":"Greifswald","municipality":{"key":"13075039","name":"Greifswald, Universitäts- und Hansestadt","type":"Stadt"},"district":{"key":"13075","name":"Vorpommern-Greifswald","type":"Landkreis"},"federalState":{"key":"13","name":"Mecklenburg-Vorpommern"}},{"name":"Stephanistr.","postalCode":"17489","locality":"Greifswald","municipality":{"key":"13075039","name":"Greifswald, Universitäts- und Hansestadt","type":"Stadt"},"district":{"key":"13075","name":"Vorpommern-Greifswald","type":"Landkreis"},"federalState":{"key":"13","name":"Mecklenburg-Vorpommern"}},{"name":"Stettiner Str.","postalCode":"17493","locality":"Greifswald","municipality":{"key":"13075039","name":"Greifswald, Universitäts- und Hansestadt","type":"Stadt"},"district":{"key":"13075","name":"Vorpommern-Greifswald","type":"Landkreis"},"federalState":{"key":"13","name":"Mecklenburg-Vorpommern"}},{"name":"Stilower Wende","postalCode":"17491","locality":"Greifswald","municipality":{"key":"13075039","name":"Greifswald, Universitäts- und Hansestadt","type":"Stadt"},"district":{"key":"13075","name":"Vorpommern-Greifswald","type":"Landkreis"},"federalState":{"key":"13","name":"Mecklenburg-Vorpommern"}},{"name":"Storchenwiese","postalCode":"17489","locality":"Greifswald","municipality":{"key":"13075039","name":"Greifswald, Universitäts- und Hansestadt","type":"Stadt"},"district":{"key":"13075","name":"Vorpommern-Greifswald","type":"Landkreis"},"federalState":{"key":"13","name":"Mecklenburg-Vorpommern"}},{"name":"St. Petersburger Str.","postalCode":"17493","locality":"Greifswald","municipality":{"key":"13075039","name":"Greifswald, Universitäts- und Hansestadt","type":"Stadt"},"district":{"key":"13075","name":"Vorpommern-Greifswald","type":"Landkreis"},"federalState":{"key":"13","name":"Mecklenburg-Vorpommern"}},{"name":"Stralsunder Landstr.","postalCode":"17489","locality":"Greifswald","municipality":{"key":"13075039","name":"Greifswald, Universitäts- und Hansestadt","type":"Stadt"},"district":{"key":"13075","name":"Vorpommern-Greifswald","type":"Landkreis"},"federalState":{"key":"13","name":"Mecklenburg-Vorpommern"}},{"name":"Stralsunder Str.","postalCode":"17489","locality":"Greifswald","municipality":{"key":"13075039","name":"Greifswald, Universitäts- und Hansestadt","type":"Stadt"},"district":{"key":"13075","name":"Vorpommern-Greifswald","type":"Landkreis"},"federalState":{"key":"13","name":"Mecklenburg-Vorpommern"}},{"name":"Strandstr.","postalCode":"17493","locality":"Greifswald","municipality":{"key":"13075039","name":"Greifswald, Universitäts- und Hansestadt","type":"Stadt"},"district":{"key":"13075","name":"Vorpommern-Greifswald","type":"Landkreis"},"federalState":{"key":"13","name":"Mecklenburg-Vorpommern"}},{"name":"Str. des Friedens","postalCode":"17493","locality":"Greifswald","municipality":{"key":"13075039","name":"Greifswald, Universitäts- und Hansestadt","type":"Stadt"},"district":{"key":"13075","name":"Vorpommern-Greifswald","type":"Landkreis"},"federalState":{"key":"13","name":"Mecklenburg-Vorpommern"}},{"name":"Studentenberg","postalCode":"17489","locality":"Greifswald","municipality":{"key":"13075039","name":"Greifswald, Universitäts- und Hansestadt","type":"Stadt"},"district":{"key":"13075","name":"Vorpommern-Greifswald","type":"Landkreis"},"federalState":{"key":"13","name":"Mecklenburg-Vorpommern"}},{"name":"Studentensteig","postalCode":"17493","locality":"Greifswald","municipality":{"key":"13075039","name":"Greifswald, Universitäts- und Hansestadt","type":"Stadt"},"district":{"key":"13075","name":"Vorpommern-Greifswald","type":"Landkreis"},"federalState":{"key":"13","name":"Mecklenburg-Vorpommern"}},{"name":"Südufer","postalCode":"17493","locality":"Greifswald","municipality":{"key":"13075039","name":"Greifswald, Universitäts- und Hansestadt","type":"Stadt"},"district":{"key":"13075","name":"Vorpommern-Greifswald","type":"Landkreis"},"federalState":{"key":"13","name":"Mecklenburg-Vorpommern"}},{"name":"Tallinner Str.","postalCode":"17493","locality":"Greifswald","municipality":{"key":"13075039","name":"Greifswald, Universitäts- und Hansestadt","type":"Stadt"},"district":{"key":"13075","name":"Vorpommern-Greifswald","type":"Landkreis"},"federalState":{"key":"13","name":"Mecklenburg-Vorpommern"}},{"name":"Technologiezentrum","postalCode":"17489","locality":"Greifswald","municipality":{"key":"13075039","name":"Greifswald, Universitäts- und Hansestadt","type":"Stadt"},"district":{"key":"13075","name":"Vorpommern-Greifswald","type":"Landkreis"},"federalState":{"key":"13","name":"Mecklenburg-Vorpommern"}},{"name":"Teßmannstr.","postalCode":"17491","locality":"Greifswald","municipality":{"key":"13075039","name":"Greifswald, Universitäts- und Hansestadt","type":"Stadt"},"district":{"key":"13075","name":"Vorpommern-Greifswald","type":"Landkreis"},"federalState":{"key":"13","name":"Mecklenburg-Vorpommern"}},{"name":"Theodor-Fontane-Str.","postalCode":"17489","locality":"Greifswald","municipality":{"key":"13075039","name":"Greifswald, Universitäts- und Hansestadt","type":"Stadt"},"district":{"key":"13075","name":"Vorpommern-Greifswald","type":"Landkreis"},"federalState":{"key":"13","name":"Mecklenburg-Vorpommern"}},{"name":"Theodor-Storm-Str.","postalCode":"17489","locality":"Greifswald","municipality":{"key":"13075039","name":"Greifswald, Universitäts- und Hansestadt","type":"Stadt"},"district":{"key":"13075","name":"Vorpommern-Greifswald","type":"Landkreis"},"federalState":{"key":"13","name":"Mecklenburg-Vorpommern"}},{"name":"Thomas-Müntzer-Str.","postalCode":"17493","locality":"Greifswald","municipality":{"key":"13075039","name":"Greifswald, Universitäts- und Hansestadt","type":"Stadt"},"district":{"key":"13075","name":"Vorpommern-Greifswald","type":"Landkreis"},"federalState":{"key":"13","name":"Mecklenburg-Vorpommern"}},{"name":"Tolstoistr.","postalCode":"17491","locality":"Greifswald","municipality":{"key":"13075039","name":"Greifswald, Universitäts- und Hansestadt","type":"Stadt"},"district":{"key":"13075","name":"Vorpommern-Greifswald","type":"Landkreis"},"federalState":{"key":"13","name":"Mecklenburg-Vorpommern"}},{"name":"Trelleborger Weg","postalCode":"17493","locality":"Greifswald","municipality":{"key":"13075039","name":"Greifswald, Universitäts- und Hansestadt","type":"Stadt"},"district":{"key":"13075","name":"Vorpommern-Greifswald","type":"Landkreis"},"federalState":{"key":"13","name":"Mecklenburg-Vorpommern"}},{"name":"Treppenberg","postalCode":"17489","locality":"Greifswald","municipality":{"key":"13075039","name":"Greifswald, Universitäts- und Hansestadt","type":"Stadt"},"district":{"key":"13075","name":"Vorpommern-Greifswald","type":"Landkreis"},"federalState":{"key":"13","name":"Mecklenburg-Vorpommern"}},{"name":"Tulpenweg","postalCode":"17489","locality":"Greifswald","municipality":{"key":"13075039","name":"Greifswald, Universitäts- und Hansestadt","type":"Stadt"},"district":{"key":"13075","name":"Vorpommern-Greifswald","type":"Landkreis"},"federalState":{"key":"13","name":"Mecklenburg-Vorpommern"}},{"name":"Turmgasse","postalCode":"17489","locality":"Greifswald","municipality":{"key":"13075039","name":"Greifswald, Universitäts- und Hansestadt","type":"Stadt"},"district":{"key":"13075","name":"Vorpommern-Greifswald","type":"Landkreis"},"federalState":{"key":"13","name":"Mecklenburg-Vorpommern"}},{"name":"Uhlandstr.","postalCode":"17489","locality":"Greifswald","municipality":{"key":"13075039","name":"Greifswald, Universitäts- und Hansestadt","type":"Stadt"},"district":{"key":"13075","name":"Vorpommern-Greifswald","type":"Landkreis"},"federalState":{"key":"13","name":"Mecklenburg-Vorpommern"}},{"name":"Ummanzer Weg","postalCode":"17493","locality":"Greifswald","municipality":{"key":"13075039","name":"Greifswald, Universitäts- und Hansestadt","type":"Stadt"},"district":{"key":"13075","name":"Vorpommern-Greifswald","type":"Landkreis"},"federalState":{"key":"13","name":"Mecklenburg-Vorpommern"}},{"name":"Usedomer Weg","postalCode":"17493","locality":"Greifswald","municipality":{"key":"13075039","name":"Greifswald, Universitäts- und Hansestadt","type":"Stadt"},"district":{"key":"13075","name":"Vorpommern-Greifswald","type":"Landkreis"},"federalState":{"key":"13","name":"Mecklenburg-Vorpommern"}},{"name":"Verlängerte Scharnhorststr.","postalCode":"17489","locality":"Greifswald","municipality":{"key":"13075039","name":"Greifswald, Universitäts- und Hansestadt","type":"Stadt"},"district":{"key":"13075","name":"Vorpommern-Greifswald","type":"Landkreis"},"federalState":{"key":"13","name":"Mecklenburg-Vorpommern"}},{"name":"Victor-Klemperer-Str.","postalCode":"17489","locality":"Greifswald","municipality":{"key":"13075039","name":"Greifswald, Universitäts- und Hansestadt","type":"Stadt"},"district":{"key":"13075","name":"Vorpommern-Greifswald","type":"Landkreis"},"federalState":{"key":"13","name":"Mecklenburg-Vorpommern"}},{"name":"Vierower Wende","postalCode":"17491","locality":"Greifswald","municipality":{"key":"13075039","name":"Greifswald, Universitäts- und Hansestadt","type":"Stadt"},"district":{"key":"13075","name":"Vorpommern-Greifswald","type":"Landkreis"},"federalState":{"key":"13","name":"Mecklenburg-Vorpommern"}},{"name":"Vilmer Weg","postalCode":"17493","locality":"Greifswald","municipality":{"key":"13075039","name":"Greifswald, Universitäts- und Hansestadt","type":"Stadt"},"district":{"key":"13075","name":"Vorpommern-Greifswald","type":"Landkreis"},"federalState":{"key":"13","name":"Mecklenburg-Vorpommern"}},{"name":"Vitus-Bering-Str.","postalCode":"17493","locality":"Greifswald","municipality":{"key":"13075039","name":"Greifswald, Universitäts- und Hansestadt","type":"Stadt"},"district":{"key":"13075","name":"Vorpommern-Greifswald","type":"Landkreis"},"federalState":{"key":"13","name":"Mecklenburg-Vorpommern"}},{"name":"Vulkanstr.","postalCode":"17489","locality":"Greifswald","municipality":{"key":"13075039","name":"Greifswald, Universitäts- und Hansestadt","type":"Stadt"},"district":{"key":"13075","name":"Vorpommern-Greifswald","type":"Landkreis"},"federalState":{"key":"13","name":"Mecklenburg-Vorpommern"}},{"name":"Wacholderweg","postalCode":"17491","locality":"Greifswald","municipality":{"key":"13075039","name":"Greifswald, Universitäts- und Hansestadt","type":"Stadt"},"district":{"key":"13075","name":"Vorpommern-Greifswald","type":"Landkreis"},"federalState":{"key":"13","name":"Mecklenburg-Vorpommern"}},{"name":"Wallanlage am Schießwall","postalCode":"17489","locality":"Greifswald","municipality":{"key":"13075039","name":"Greifswald, Universitäts- und Hansestadt","type":"Stadt"},"district":{"key":"13075","name":"Vorpommern-Greifswald","type":"Landkreis"},"federalState":{"key":"13","name":"Mecklenburg-Vorpommern"}},{"name":"Wallstr.","postalCode":"17489","locality":"Greifswald","municipality":{"key":"13075039","name":"Greifswald, Universitäts- und Hansestadt","type":"Stadt"},"district":{"key":"13075","name":"Vorpommern-Greifswald","type":"Landkreis"},"federalState":{"key":"13","name":"Mecklenburg-Vorpommern"}},{"name":"Walter-Schlaak-Str.","postalCode":"17489","locality":"Greifswald","municipality":{"key":"13075039","name":"Greifswald, Universitäts- und Hansestadt","type":"Stadt"},"district":{"key":"13075","name":"Vorpommern-Greifswald","type":"Landkreis"},"federalState":{"key":"13","name":"Mecklenburg-Vorpommern"}},{"name":"Walther-Rathenau-Str.","postalCode":"17489","locality":"Greifswald","municipality":{"key":"13075039","name":"Greifswald, Universitäts- und Hansestadt","type":"Stadt"},"district":{"key":"13075","name":"Vorpommern-Greifswald","type":"Landkreis"},"federalState":{"key":"13","name":"Mecklenburg-Vorpommern"}},{"name":"Warschauer Str.","postalCode":"17493","locality":"Greifswald","municipality":{"key":"13075039","name":"Greifswald, Universitäts- und Hansestadt","type":"Stadt"},"district":{"key":"13075","name":"Vorpommern-Greifswald","type":"Landkreis"},"federalState":{"key":"13","name":"Mecklenburg-Vorpommern"}},{"name":"Weidegang","postalCode":"17491","locality":"Greifswald","municipality":{"key":"13075039","name":"Greifswald, Universitäts- und Hansestadt","type":"Stadt"},"district":{"key":"13075","name":"Vorpommern-Greifswald","type":"Landkreis"},"federalState":{"key":"13","name":"Mecklenburg-Vorpommern"}},{"name":"Weidenweg","postalCode":"17493","locality":"Greifswald","municipality":{"key":"13075039","name":"Greifswald, Universitäts- und Hansestadt","type":"Stadt"},"district":{"key":"13075","name":"Vorpommern-Greifswald","type":"Landkreis"},"federalState":{"key":"13","name":"Mecklenburg-Vorpommern"}},{"name":"Weißbuchenweg","postalCode":"17493","locality":"Greifswald","municipality":{"key":"13075039","name":"Greifswald, Universitäts- und Hansestadt","type":"Stadt"},"district":{"key":"13075","name":"Vorpommern-Greifswald","type":"Landkreis"},"federalState":{"key":"13","name":"Mecklenburg-Vorpommern"}},{"name":"Weißgerberstr.","postalCode":"17489","locality":"Greifswald","municipality":{"key":"13075039","name":"Greifswald, Universitäts- und Hansestadt","type":"Stadt"},"district":{"key":"13075","name":"Vorpommern-Greifswald","type":"Landkreis"},"federalState":{"key":"13","name":"Mecklenburg-Vorpommern"}},{"name":"Werftstr.","postalCode":"17489","locality":"Greifswald","municipality":{"key":"13075039","name":"Greifswald, Universitäts- und Hansestadt","type":"Stadt"},"district":{"key":"13075","name":"Vorpommern-Greifswald","type":"Landkreis"},"federalState":{"key":"13","name":"Mecklenburg-Vorpommern"}},{"name":"Wiecker Wende","postalCode":"17491","locality":"Greifswald","municipality":{"key":"13075039","name":"Greifswald, Universitäts- und Hansestadt","type":"Stadt"},"district":{"key":"13075","name":"Vorpommern-Greifswald","type":"Landkreis"},"federalState":{"key":"13","name":"Mecklenburg-Vorpommern"}},{"name":"Wielandstr.","postalCode":"17489","locality":"Greifswald","municipality":{"key":"13075039","name":"Greifswald, Universitäts- und Hansestadt","type":"Stadt"},"district":{"key":"13075","name":"Vorpommern-Greifswald","type":"Landkreis"},"federalState":{"key":"13","name":"Mecklenburg-Vorpommern"}},{"name":"Wiesenstr.","postalCode":"17489","locality":"Greifswald","municipality":{"key":"13075039","name":"Greifswald, Universitäts- und Hansestadt","type":"Stadt"},"district":{"key":"13075","name":"Vorpommern-Greifswald","type":"Landkreis"},"federalState":{"key":"13","name":"Mecklenburg-Vorpommern"}},{"name":"Wiesenweg","postalCode":"17493","locality":"Greifswald","municipality":{"key":"13075039","name":"Greifswald, Universitäts- und Hansestadt","type":"Stadt"},"district":{"key":"13075","name":"Vorpommern-Greifswald","type":"Landkreis"},"federalState":{"key":"13","name":"Mecklenburg-Vorpommern"}},{"name":"Wilhelm-Busch-Str.","postalCode":"17489","locality":"Greifswald","municipality":{"key":"13075039","name":"Greifswald, Universitäts- und Hansestadt","type":"Stadt"},"district":{"key":"13075","name":"Vorpommern-Greifswald","type":"Landkreis"},"federalState":{"key":"13","name":"Mecklenburg-Vorpommern"}},{"name":"Wilhelm-Holtz-Str.","postalCode":"17489","locality":"Greifswald","municipality":{"key":"13075039","name":"Greifswald, Universitäts- und Hansestadt","type":"Stadt"},"district":{"key":"13075","name":"Vorpommern-Greifswald","type":"Landkreis"},"federalState":{"key":"13","name":"Mecklenburg-Vorpommern"}},{"name":"Wilhelm-Raabe-Str.","postalCode":"17489","locality":"Greifswald","municipality":{"key":"13075039","name":"Greifswald, Universitäts- und Hansestadt","type":"Stadt"},"district":{"key":"13075","name":"Vorpommern-Greifswald","type":"Landkreis"},"federalState":{"key":"13","name":"Mecklenburg-Vorpommern"}},{"name":"Wismarer Str.","postalCode":"17493","locality":"Greifswald","municipality":{"key":"13075039","name":"Greifswald, Universitäts- und Hansestadt","type":"Stadt"},"district":{"key":"13075","name":"Vorpommern-Greifswald","type":"Landkreis"},"federalState":{"key":"13","name":"Mecklenburg-Vorpommern"}},{"name":"Wittower Weg","postalCode":"17493","locality":"Greifswald","municipality":{"key":"13075039","name":"Greifswald, Universitäts- und Hansestadt","type":"Stadt"},"district":{"key":"13075","name":"Vorpommern-Greifswald","type":"Landkreis"},"federalState":{"key":"13","name":"Mecklenburg-Vorpommern"}},{"name":"Wolfgang-Koeppen-Str.","postalCode":"17489","locality":"Greifswald","municipality":{"key":"13075039","name":"Greifswald, Universitäts- und Hansestadt","type":"Stadt"},"district":{"key":"13075","name":"Vorpommern-Greifswald","type":"Landkreis"},"federalState":{"key":"13","name":"Mecklenburg-Vorpommern"}},{"name":"Wolgaster Landstr.","postalCode":"17493","locality":"Greifswald","municipality":{"key":"13075039","name":"Greifswald, Universitäts- und Hansestadt","type":"Stadt"},"district":{"key":"13075","name":"Vorpommern-Greifswald","type":"Landkreis"},"federalState":{"key":"13","name":"Mecklenburg-Vorpommern"}},{"name":"Wolgaster Str.","postalCode":"17489","locality":"Greifswald","municipality":{"key":"13075039","name":"Greifswald, Universitäts- und Hansestadt","type":"Stadt"},"district":{"key":"13075","name":"Vorpommern-Greifswald","type":"Landkreis"},"federalState":{"key":"13","name":"Mecklenburg-Vorpommern"}},{"name":"Wolgaster Str.","postalCode":"17493","locality":"Greifswald","municipality":{"key":"13075039","name":"Greifswald, Universitäts- und Hansestadt","type":"Stadt"},"district":{"key":"13075","name":"Vorpommern-Greifswald","type":"Landkreis"},"federalState":{"key":"13","name":"Mecklenburg-Vorpommern"}},{"name":"Wollweberstr.","postalCode":"17489","locality":"Greifswald","municipality":{"key":"13075039","name":"Greifswald, Universitäts- und Hansestadt","type":"Stadt"},"district":{"key":"13075","name":"Vorpommern-Greifswald","type":"Landkreis"},"federalState":{"key":"13","name":"Mecklenburg-Vorpommern"}},{"name":"Wustrower Weg","postalCode":"17493","locality":"Greifswald","municipality":{"key":"13075039","name":"Greifswald, Universitäts- und Hansestadt","type":"Stadt"},"district":{"key":"13075","name":"Vorpommern-Greifswald","type":"Landkreis"},"federalState":{"key":"13","name":"Mecklenburg-Vorpommern"}},{"name":"Yacht","postalCode":"17493","locality":"Greifswald","municipality":{"key":"13075039","name":"Greifswald, Universitäts- und Hansestadt","type":"Stadt"},"district":{"key":"13075","name":"Vorpommern-Greifswald","type":"Landkreis"},"federalState":{"key":"13","name":"Mecklenburg-Vorpommern"}},{"name":"Yachtweg","postalCode":"17493","locality":"Greifswald","municipality":{"key":"13075039","name":"Greifswald, Universitäts- und Hansestadt","type":"Stadt"},"district":{"key":"13075","name":"Vorpommern-Greifswald","type":"Landkreis"},"federalState":{"key":"13","name":"Mecklenburg-Vorpommern"}},{"name":"Zum Ryckwäldchen","postalCode":"17489","locality":"Greifswald","municipality":{"key":"13075039","name":"Greifswald, Universitäts- und Hansestadt","type":"Stadt"},"district":{"key":"13075","name":"Vorpommern-Greifswald","type":"Landkreis"},"federalState":{"key":"13","name":"Mecklenburg-Vorpommern"}},{"name":"Zum Strohkamp","postalCode":"17493","locality":"Greifswald","municipality":{"key":"13075039","name":"Greifswald, Universitäts- und Hansestadt","type":"Stadt"},"district":{"key":"13075","name":"Vorpommern-Greifswald","type":"Landkreis"},"federalState":{"key":"13","name":"Mecklenburg-Vorpommern"}},]