[{"name":"Altenthal","postalCode":"57572","locality":"Niederfischbach","municipality":{"key":"07132076","name":"Niederfischbach","type":"Kreisangehörige_Gemeinde"},"district":{"key":"07132","name":"Altenkirchen (Westerwald)","type":"Landkreis"},"federalState":{"key":"07","name":"Rheinland-Pfalz"}},{"name":"Am Friedhof","postalCode":"57572","locality":"Niederfischbach","municipality":{"key":"07132076","name":"Niederfischbach","type":"Kreisangehörige_Gemeinde"},"district":{"key":"07132","name":"Altenkirchen (Westerwald)","type":"Landkreis"},"federalState":{"key":"07","name":"Rheinland-Pfalz"}},{"name":"Am Hötzberg","postalCode":"57572","locality":"Niederfischbach","municipality":{"key":"07132076","name":"Niederfischbach","type":"Kreisangehörige_Gemeinde"},"district":{"key":"07132","name":"Altenkirchen (Westerwald)","type":"Landkreis"},"federalState":{"key":"07","name":"Rheinland-Pfalz"}},{"name":"Am Looskittel","postalCode":"57572","locality":"Niederfischbach","municipality":{"key":"07132076","name":"Niederfischbach","type":"Kreisangehörige_Gemeinde"},"district":{"key":"07132","name":"Altenkirchen (Westerwald)","type":"Landkreis"},"federalState":{"key":"07","name":"Rheinland-Pfalz"}},{"name":"Amperfeld","postalCode":"57572","locality":"Niederfischbach","municipality":{"key":"07132076","name":"Niederfischbach","type":"Kreisangehörige_Gemeinde"},"district":{"key":"07132","name":"Altenkirchen (Westerwald)","type":"Landkreis"},"federalState":{"key":"07","name":"Rheinland-Pfalz"}},{"name":"Am Raffenberg","postalCode":"57572","locality":"Niederfischbach","municipality":{"key":"07132076","name":"Niederfischbach","type":"Kreisangehörige_Gemeinde"},"district":{"key":"07132","name":"Altenkirchen (Westerwald)","type":"Landkreis"},"federalState":{"key":"07","name":"Rheinland-Pfalz"}},{"name":"An der Stürze","postalCode":"57572","locality":"Niederfischbach","municipality":{"key":"07132076","name":"Niederfischbach","type":"Kreisangehörige_Gemeinde"},"district":{"key":"07132","name":"Altenkirchen (Westerwald)","type":"Landkreis"},"federalState":{"key":"07","name":"Rheinland-Pfalz"}},{"name":"Auengartenstr.","postalCode":"57572","locality":"Niederfischbach","municipality":{"key":"07132076","name":"Niederfischbach","type":"Kreisangehörige_Gemeinde"},"district":{"key":"07132","name":"Altenkirchen (Westerwald)","type":"Landkreis"},"federalState":{"key":"07","name":"Rheinland-Pfalz"}},{"name":"Auf der Hütte","postalCode":"57572","locality":"Niederfischbach","municipality":{"key":"07132076","name":"Niederfischbach","type":"Kreisangehörige_Gemeinde"},"district":{"key":"07132","name":"Altenkirchen (Westerwald)","type":"Landkreis"},"federalState":{"key":"07","name":"Rheinland-Pfalz"}},{"name":"Auf der Schmelze","postalCode":"57572","locality":"Niederfischbach","municipality":{"key":"07132076","name":"Niederfischbach","type":"Kreisangehörige_Gemeinde"},"district":{"key":"07132","name":"Altenkirchen (Westerwald)","type":"Landkreis"},"federalState":{"key":"07","name":"Rheinland-Pfalz"}},{"name":"Bachstr.","postalCode":"57572","locality":"Niederfischbach","municipality":{"key":"07132076","name":"Niederfischbach","type":"Kreisangehörige_Gemeinde"},"district":{"key":"07132","name":"Altenkirchen (Westerwald)","type":"Landkreis"},"federalState":{"key":"07","name":"Rheinland-Pfalz"}},{"name":"Backesstr.","postalCode":"57572","locality":"Niederfischbach","municipality":{"key":"07132076","name":"Niederfischbach","type":"Kreisangehörige_Gemeinde"},"district":{"key":"07132","name":"Altenkirchen (Westerwald)","type":"Landkreis"},"federalState":{"key":"07","name":"Rheinland-Pfalz"}},{"name":"Bahnhofstr.","postalCode":"57572","locality":"Niederfischbach","municipality":{"key":"07132076","name":"Niederfischbach","type":"Kreisangehörige_Gemeinde"},"district":{"key":"07132","name":"Altenkirchen (Westerwald)","type":"Landkreis"},"federalState":{"key":"07","name":"Rheinland-Pfalz"}},{"name":"Bergstr.","postalCode":"57572","locality":"Niederfischbach","municipality":{"key":"07132076","name":"Niederfischbach","type":"Kreisangehörige_Gemeinde"},"district":{"key":"07132","name":"Altenkirchen (Westerwald)","type":"Landkreis"},"federalState":{"key":"07","name":"Rheinland-Pfalz"}},{"name":"Betzelseifen","postalCode":"57572","locality":"Niederfischbach","municipality":{"key":"07132076","name":"Niederfischbach","type":"Kreisangehörige_Gemeinde"},"district":{"key":"07132","name":"Altenkirchen (Westerwald)","type":"Landkreis"},"federalState":{"key":"07","name":"Rheinland-Pfalz"}},{"name":"Blumenstr.","postalCode":"57572","locality":"Niederfischbach","municipality":{"key":"07132076","name":"Niederfischbach","type":"Kreisangehörige_Gemeinde"},"district":{"key":"07132","name":"Altenkirchen (Westerwald)","type":"Landkreis"},"federalState":{"key":"07","name":"Rheinland-Pfalz"}},{"name":"Brückenstr.","postalCode":"57572","locality":"Niederfischbach","municipality":{"key":"07132076","name":"Niederfischbach","type":"Kreisangehörige_Gemeinde"},"district":{"key":"07132","name":"Altenkirchen (Westerwald)","type":"Landkreis"},"federalState":{"key":"07","name":"Rheinland-Pfalz"}},{"name":"Bürgerpark Niederfischbach","postalCode":"57572","locality":"Niederfischbach","municipality":{"key":"07132076","name":"Niederfischbach","type":"Kreisangehörige_Gemeinde"},"district":{"key":"07132","name":"Altenkirchen (Westerwald)","type":"Landkreis"},"federalState":{"key":"07","name":"Rheinland-Pfalz"}},{"name":"Dahlienweg","postalCode":"57572","locality":"Niederfischbach","municipality":{"key":"07132076","name":"Niederfischbach","type":"Kreisangehörige_Gemeinde"},"district":{"key":"07132","name":"Altenkirchen (Westerwald)","type":"Landkreis"},"federalState":{"key":"07","name":"Rheinland-Pfalz"}},{"name":"Donzenbachstr.","postalCode":"57572","locality":"Niederfischbach","municipality":{"key":"07132076","name":"Niederfischbach","type":"Kreisangehörige_Gemeinde"},"district":{"key":"07132","name":"Altenkirchen (Westerwald)","type":"Landkreis"},"federalState":{"key":"07","name":"Rheinland-Pfalz"}},{"name":"Eckstr.","postalCode":"57572","locality":"Niederfischbach","municipality":{"key":"07132076","name":"Niederfischbach","type":"Kreisangehörige_Gemeinde"},"district":{"key":"07132","name":"Altenkirchen (Westerwald)","type":"Landkreis"},"federalState":{"key":"07","name":"Rheinland-Pfalz"}},{"name":"Eicherfeldstr.","postalCode":"57572","locality":"Niederfischbach","municipality":{"key":"07132076","name":"Niederfischbach","type":"Kreisangehörige_Gemeinde"},"district":{"key":"07132","name":"Altenkirchen (Westerwald)","type":"Landkreis"},"federalState":{"key":"07","name":"Rheinland-Pfalz"}},{"name":"Eicherweg","postalCode":"57572","locality":"Niederfischbach","municipality":{"key":"07132076","name":"Niederfischbach","type":"Kreisangehörige_Gemeinde"},"district":{"key":"07132","name":"Altenkirchen (Westerwald)","type":"Landkreis"},"federalState":{"key":"07","name":"Rheinland-Pfalz"}},{"name":"Eichholzweg","postalCode":"57572","locality":"Niederfischbach","municipality":{"key":"07132076","name":"Niederfischbach","type":"Kreisangehörige_Gemeinde"},"district":{"key":"07132","name":"Altenkirchen (Westerwald)","type":"Landkreis"},"federalState":{"key":"07","name":"Rheinland-Pfalz"}},{"name":"Eisenstr.","postalCode":"57572","locality":"Niederfischbach","municipality":{"key":"07132076","name":"Niederfischbach","type":"Kreisangehörige_Gemeinde"},"district":{"key":"07132","name":"Altenkirchen (Westerwald)","type":"Landkreis"},"federalState":{"key":"07","name":"Rheinland-Pfalz"}},{"name":"Eisenweg","postalCode":"57572","locality":"Niederfischbach","municipality":{"key":"07132076","name":"Niederfischbach","type":"Kreisangehörige_Gemeinde"},"district":{"key":"07132","name":"Altenkirchen (Westerwald)","type":"Landkreis"},"federalState":{"key":"07","name":"Rheinland-Pfalz"}},{"name":"Fillbachstr.","postalCode":"57572","locality":"Niederfischbach","municipality":{"key":"07132076","name":"Niederfischbach","type":"Kreisangehörige_Gemeinde"},"district":{"key":"07132","name":"Altenkirchen (Westerwald)","type":"Landkreis"},"federalState":{"key":"07","name":"Rheinland-Pfalz"}},{"name":"Fischbacher Str.","postalCode":"57572","locality":"Niederfischbach","municipality":{"key":"07132076","name":"Niederfischbach","type":"Kreisangehörige_Gemeinde"},"district":{"key":"07132","name":"Altenkirchen (Westerwald)","type":"Landkreis"},"federalState":{"key":"07","name":"Rheinland-Pfalz"}},{"name":"Glückaufstr.","postalCode":"57572","locality":"Niederfischbach","municipality":{"key":"07132076","name":"Niederfischbach","type":"Kreisangehörige_Gemeinde"},"district":{"key":"07132","name":"Altenkirchen (Westerwald)","type":"Landkreis"},"federalState":{"key":"07","name":"Rheinland-Pfalz"}},{"name":"Hahnhof","postalCode":"57572","locality":"Niederfischbach","municipality":{"key":"07132076","name":"Niederfischbach","type":"Kreisangehörige_Gemeinde"},"district":{"key":"07132","name":"Altenkirchen (Westerwald)","type":"Landkreis"},"federalState":{"key":"07","name":"Rheinland-Pfalz"}},{"name":"Hahnseifenstr.","postalCode":"57572","locality":"Niederfischbach","municipality":{"key":"07132076","name":"Niederfischbach","type":"Kreisangehörige_Gemeinde"},"district":{"key":"07132","name":"Altenkirchen (Westerwald)","type":"Landkreis"},"federalState":{"key":"07","name":"Rheinland-Pfalz"}},{"name":"Heinrich-Görg-Str.","postalCode":"57572","locality":"Niederfischbach","municipality":{"key":"07132076","name":"Niederfischbach","type":"Kreisangehörige_Gemeinde"},"district":{"key":"07132","name":"Altenkirchen (Westerwald)","type":"Landkreis"},"federalState":{"key":"07","name":"Rheinland-Pfalz"}},{"name":"Hofweg","postalCode":"57572","locality":"Niederfischbach","municipality":{"key":"07132076","name":"Niederfischbach","type":"Kreisangehörige_Gemeinde"},"district":{"key":"07132","name":"Altenkirchen (Westerwald)","type":"Landkreis"},"federalState":{"key":"07","name":"Rheinland-Pfalz"}},{"name":"Hoppengarten","postalCode":"57572","locality":"Niederfischbach","municipality":{"key":"07132076","name":"Niederfischbach","type":"Kreisangehörige_Gemeinde"},"district":{"key":"07132","name":"Altenkirchen (Westerwald)","type":"Landkreis"},"federalState":{"key":"07","name":"Rheinland-Pfalz"}},{"name":"Hüttseifen","postalCode":"57572","locality":"Niederfischbach","municipality":{"key":"07132076","name":"Niederfischbach","type":"Kreisangehörige_Gemeinde"},"district":{"key":"07132","name":"Altenkirchen (Westerwald)","type":"Landkreis"},"federalState":{"key":"07","name":"Rheinland-Pfalz"}},{"name":"Im Alten Wald","postalCode":"57572","locality":"Niederfischbach","municipality":{"key":"07132076","name":"Niederfischbach","type":"Kreisangehörige_Gemeinde"},"district":{"key":"07132","name":"Altenkirchen (Westerwald)","type":"Landkreis"},"federalState":{"key":"07","name":"Rheinland-Pfalz"}},{"name":"Im Schlädchen","postalCode":"57572","locality":"Niederfischbach","municipality":{"key":"07132076","name":"Niederfischbach","type":"Kreisangehörige_Gemeinde"},"district":{"key":"07132","name":"Altenkirchen (Westerwald)","type":"Landkreis"},"federalState":{"key":"07","name":"Rheinland-Pfalz"}},{"name":"Im Schulwäldchen","postalCode":"57572","locality":"Niederfischbach","municipality":{"key":"07132076","name":"Niederfischbach","type":"Kreisangehörige_Gemeinde"},"district":{"key":"07132","name":"Altenkirchen (Westerwald)","type":"Landkreis"},"federalState":{"key":"07","name":"Rheinland-Pfalz"}},{"name":"In den Eichen","postalCode":"57572","locality":"Niederfischbach","municipality":{"key":"07132076","name":"Niederfischbach","type":"Kreisangehörige_Gemeinde"},"district":{"key":"07132","name":"Altenkirchen (Westerwald)","type":"Landkreis"},"federalState":{"key":"07","name":"Rheinland-Pfalz"}},{"name":"In den Weiden","postalCode":"57572","locality":"Niederfischbach","municipality":{"key":"07132076","name":"Niederfischbach","type":"Kreisangehörige_Gemeinde"},"district":{"key":"07132","name":"Altenkirchen (Westerwald)","type":"Landkreis"},"federalState":{"key":"07","name":"Rheinland-Pfalz"}},{"name":"In der Kräm","postalCode":"57572","locality":"Niederfischbach","municipality":{"key":"07132076","name":"Niederfischbach","type":"Kreisangehörige_Gemeinde"},"district":{"key":"07132","name":"Altenkirchen (Westerwald)","type":"Landkreis"},"federalState":{"key":"07","name":"Rheinland-Pfalz"}},{"name":"Industriestr.","postalCode":"57572","locality":"Niederfischbach","municipality":{"key":"07132076","name":"Niederfischbach","type":"Kreisangehörige_Gemeinde"},"district":{"key":"07132","name":"Altenkirchen (Westerwald)","type":"Landkreis"},"federalState":{"key":"07","name":"Rheinland-Pfalz"}},{"name":"Junkernthal","postalCode":"57572","locality":"Niederfischbach","municipality":{"key":"07132076","name":"Niederfischbach","type":"Kreisangehörige_Gemeinde"},"district":{"key":"07132","name":"Altenkirchen (Westerwald)","type":"Landkreis"},"federalState":{"key":"07","name":"Rheinland-Pfalz"}},{"name":"Kettelerstr.","postalCode":"57572","locality":"Niederfischbach","municipality":{"key":"07132076","name":"Niederfischbach","type":"Kreisangehörige_Gemeinde"},"district":{"key":"07132","name":"Altenkirchen (Westerwald)","type":"Landkreis"},"federalState":{"key":"07","name":"Rheinland-Pfalz"}},{"name":"Kirchhofstr.","postalCode":"57572","locality":"Niederfischbach","municipality":{"key":"07132076","name":"Niederfischbach","type":"Kreisangehörige_Gemeinde"},"district":{"key":"07132","name":"Altenkirchen (Westerwald)","type":"Landkreis"},"federalState":{"key":"07","name":"Rheinland-Pfalz"}},{"name":"Konrad-Adenauer-Str.","postalCode":"57572","locality":"Niederfischbach","municipality":{"key":"07132076","name":"Niederfischbach","type":"Kreisangehörige_Gemeinde"},"district":{"key":"07132","name":"Altenkirchen (Westerwald)","type":"Landkreis"},"federalState":{"key":"07","name":"Rheinland-Pfalz"}},{"name":"Kreuzstr.","postalCode":"57572","locality":"Niederfischbach","municipality":{"key":"07132076","name":"Niederfischbach","type":"Kreisangehörige_Gemeinde"},"district":{"key":"07132","name":"Altenkirchen (Westerwald)","type":"Landkreis"},"federalState":{"key":"07","name":"Rheinland-Pfalz"}},{"name":"Kuhweg","postalCode":"57572","locality":"Niederfischbach","municipality":{"key":"07132076","name":"Niederfischbach","type":"Kreisangehörige_Gemeinde"},"district":{"key":"07132","name":"Altenkirchen (Westerwald)","type":"Landkreis"},"federalState":{"key":"07","name":"Rheinland-Pfalz"}},{"name":"Langemarkstr.","postalCode":"57572","locality":"Niederfischbach","municipality":{"key":"07132076","name":"Niederfischbach","type":"Kreisangehörige_Gemeinde"},"district":{"key":"07132","name":"Altenkirchen (Westerwald)","type":"Landkreis"},"federalState":{"key":"07","name":"Rheinland-Pfalz"}},{"name":"Langenbach","postalCode":"57572","locality":"Niederfischbach","municipality":{"key":"07132076","name":"Niederfischbach","type":"Kreisangehörige_Gemeinde"},"district":{"key":"07132","name":"Altenkirchen (Westerwald)","type":"Landkreis"},"federalState":{"key":"07","name":"Rheinland-Pfalz"}},{"name":"Lindenweg","postalCode":"57572","locality":"Niederfischbach","municipality":{"key":"07132076","name":"Niederfischbach","type":"Kreisangehörige_Gemeinde"},"district":{"key":"07132","name":"Altenkirchen (Westerwald)","type":"Landkreis"},"federalState":{"key":"07","name":"Rheinland-Pfalz"}},{"name":"Mehlbergstr.","postalCode":"57572","locality":"Niederfischbach","municipality":{"key":"07132076","name":"Niederfischbach","type":"Kreisangehörige_Gemeinde"},"district":{"key":"07132","name":"Altenkirchen (Westerwald)","type":"Landkreis"},"federalState":{"key":"07","name":"Rheinland-Pfalz"}},{"name":"Mühlenhardstr.","postalCode":"57572","locality":"Niederfischbach","municipality":{"key":"07132076","name":"Niederfischbach","type":"Kreisangehörige_Gemeinde"},"district":{"key":"07132","name":"Altenkirchen (Westerwald)","type":"Landkreis"},"federalState":{"key":"07","name":"Rheinland-Pfalz"}},{"name":"Mühlenhardtstr.","postalCode":"57572","locality":"Niederfischbach","municipality":{"key":"07132076","name":"Niederfischbach","type":"Kreisangehörige_Gemeinde"},"district":{"key":"07132","name":"Altenkirchen (Westerwald)","type":"Landkreis"},"federalState":{"key":"07","name":"Rheinland-Pfalz"}},{"name":"Mühlenstr.","postalCode":"57572","locality":"Niederfischbach","municipality":{"key":"07132076","name":"Niederfischbach","type":"Kreisangehörige_Gemeinde"},"district":{"key":"07132","name":"Altenkirchen (Westerwald)","type":"Landkreis"},"federalState":{"key":"07","name":"Rheinland-Pfalz"}},{"name":"N14","postalCode":"57572","locality":"Niederfischbach","municipality":{"key":"07132076","name":"Niederfischbach","type":"Kreisangehörige_Gemeinde"},"district":{"key":"07132","name":"Altenkirchen (Westerwald)","type":"Landkreis"},"federalState":{"key":"07","name":"Rheinland-Pfalz"}},{"name":"Oberasdorfer Str.","postalCode":"57572","locality":"Niederfischbach","municipality":{"key":"07132076","name":"Niederfischbach","type":"Kreisangehörige_Gemeinde"},"district":{"key":"07132","name":"Altenkirchen (Westerwald)","type":"Landkreis"},"federalState":{"key":"07","name":"Rheinland-Pfalz"}},{"name":"Paulinus-Junker-Str.","postalCode":"57572","locality":"Niederfischbach","municipality":{"key":"07132076","name":"Niederfischbach","type":"Kreisangehörige_Gemeinde"},"district":{"key":"07132","name":"Altenkirchen (Westerwald)","type":"Landkreis"},"federalState":{"key":"07","name":"Rheinland-Pfalz"}},{"name":"Peter-Weiler-Str.","postalCode":"57572","locality":"Niederfischbach","municipality":{"key":"07132076","name":"Niederfischbach","type":"Kreisangehörige_Gemeinde"},"district":{"key":"07132","name":"Altenkirchen (Westerwald)","type":"Landkreis"},"federalState":{"key":"07","name":"Rheinland-Pfalz"}},{"name":"Plittershagener Str.","postalCode":"57572","locality":"Niederfischbach","municipality":{"key":"07132076","name":"Niederfischbach","type":"Kreisangehörige_Gemeinde"},"district":{"key":"07132","name":"Altenkirchen (Westerwald)","type":"Landkreis"},"federalState":{"key":"07","name":"Rheinland-Pfalz"}},{"name":"Raiffeisenstr.","postalCode":"57572","locality":"Niederfischbach","municipality":{"key":"07132076","name":"Niederfischbach","type":"Kreisangehörige_Gemeinde"},"district":{"key":"07132","name":"Altenkirchen (Westerwald)","type":"Landkreis"},"federalState":{"key":"07","name":"Rheinland-Pfalz"}},{"name":"Rosenweg","postalCode":"57572","locality":"Niederfischbach","municipality":{"key":"07132076","name":"Niederfischbach","type":"Kreisangehörige_Gemeinde"},"district":{"key":"07132","name":"Altenkirchen (Westerwald)","type":"Landkreis"},"federalState":{"key":"07","name":"Rheinland-Pfalz"}},{"name":"Rothenbergstr.","postalCode":"57572","locality":"Niederfischbach","municipality":{"key":"07132076","name":"Niederfischbach","type":"Kreisangehörige_Gemeinde"},"district":{"key":"07132","name":"Altenkirchen (Westerwald)","type":"Landkreis"},"federalState":{"key":"07","name":"Rheinland-Pfalz"}},{"name":"Schladenweg","postalCode":"57572","locality":"Niederfischbach","municipality":{"key":"07132076","name":"Niederfischbach","type":"Kreisangehörige_Gemeinde"},"district":{"key":"07132","name":"Altenkirchen (Westerwald)","type":"Landkreis"},"federalState":{"key":"07","name":"Rheinland-Pfalz"}},{"name":"Schlesingstr.","postalCode":"57572","locality":"Niederfischbach","municipality":{"key":"07132076","name":"Niederfischbach","type":"Kreisangehörige_Gemeinde"},"district":{"key":"07132","name":"Altenkirchen (Westerwald)","type":"Landkreis"},"federalState":{"key":"07","name":"Rheinland-Pfalz"}},{"name":"Schulstr.","postalCode":"57572","locality":"Niederfischbach","municipality":{"key":"07132076","name":"Niederfischbach","type":"Kreisangehörige_Gemeinde"},"district":{"key":"07132","name":"Altenkirchen (Westerwald)","type":"Landkreis"},"federalState":{"key":"07","name":"Rheinland-Pfalz"}},{"name":"Siegener Str.","postalCode":"57572","locality":"Niederfischbach","municipality":{"key":"07132076","name":"Niederfischbach","type":"Kreisangehörige_Gemeinde"},"district":{"key":"07132","name":"Altenkirchen (Westerwald)","type":"Landkreis"},"federalState":{"key":"07","name":"Rheinland-Pfalz"}},{"name":"Silberbergstr.","postalCode":"57572","locality":"Niederfischbach","municipality":{"key":"07132076","name":"Niederfischbach","type":"Kreisangehörige_Gemeinde"},"district":{"key":"07132","name":"Altenkirchen (Westerwald)","type":"Landkreis"},"federalState":{"key":"07","name":"Rheinland-Pfalz"}},{"name":"Weiherstr.","postalCode":"57572","locality":"Niederfischbach","municipality":{"key":"07132076","name":"Niederfischbach","type":"Kreisangehörige_Gemeinde"},"district":{"key":"07132","name":"Altenkirchen (Westerwald)","type":"Landkreis"},"federalState":{"key":"07","name":"Rheinland-Pfalz"}},{"name":"Wilhelminestr.","postalCode":"57572","locality":"Niederfischbach","municipality":{"key":"07132076","name":"Niederfischbach","type":"Kreisangehörige_Gemeinde"},"district":{"key":"07132","name":"Altenkirchen (Westerwald)","type":"Landkreis"},"federalState":{"key":"07","name":"Rheinland-Pfalz"}},{"name":"Windeckenstr.","postalCode":"57572","locality":"Niederfischbach","municipality":{"key":"07132076","name":"Niederfischbach","type":"Kreisangehörige_Gemeinde"},"district":{"key":"07132","name":"Altenkirchen (Westerwald)","type":"Landkreis"},"federalState":{"key":"07","name":"Rheinland-Pfalz"}},{"name":"Wittumhofstr.","postalCode":"57572","locality":"Niederfischbach","municipality":{"key":"07132076","name":"Niederfischbach","type":"Kreisangehörige_Gemeinde"},"district":{"key":"07132","name":"Altenkirchen (Westerwald)","type":"Landkreis"},"federalState":{"key":"07","name":"Rheinland-Pfalz"}},{"name":"Wüstseifen","postalCode":"57572","locality":"Niederfischbach","municipality":{"key":"07132076","name":"Niederfischbach","type":"Kreisangehörige_Gemeinde"},"district":{"key":"07132","name":"Altenkirchen (Westerwald)","type":"Landkreis"},"federalState":{"key":"07","name":"Rheinland-Pfalz"}},]