[{"key":"10153405","name":"Ai Boschetti","postalCode":"6593","locality":"Cadenazzo","commune":{"key":"5003","name":"Cadenazzo","shortName":"Cadenazzo"},"district":{"key":"2101","name":"Distretto di Bellinzona"},"canton":{"key":"21","code":"TI","name":"Ticino"},"status":"Real"},{"key":"10125067","name":"Ai Boschi","postalCode":"6593","locality":"Cadenazzo","commune":{"key":"5003","name":"Cadenazzo","shortName":"Cadenazzo"},"district":{"key":"2101","name":"Distretto di Bellinzona"},"canton":{"key":"21","code":"TI","name":"Ticino"},"status":"Real"},{"key":"10156120","name":"Ai Camp Lung","postalCode":"6593","locality":"Cadenazzo","commune":{"key":"5003","name":"Cadenazzo","shortName":"Cadenazzo"},"district":{"key":"2101","name":"Distretto di Bellinzona"},"canton":{"key":"21","code":"TI","name":"Ticino"},"status":"Real"},{"key":"10151536","name":"Ai Cassinéi","postalCode":"6593","locality":"Cadenazzo","commune":{"key":"5003","name":"Cadenazzo","shortName":"Cadenazzo"},"district":{"key":"2101","name":"Distretto di Bellinzona"},"canton":{"key":"21","code":"TI","name":"Ticino"},"status":"Real"},{"key":"10125068","name":"ai Cióss","postalCode":"6593","locality":"Cadenazzo","commune":{"key":"5003","name":"Cadenazzo","shortName":"Cadenazzo"},"district":{"key":"2101","name":"Distretto di Bellinzona"},"canton":{"key":"21","code":"TI","name":"Ticino"},"status":"Real"},{"key":"10125069","name":"Ai Curtun","postalCode":"6593","locality":"Cadenazzo","commune":{"key":"5003","name":"Cadenazzo","shortName":"Cadenazzo"},"district":{"key":"2101","name":"Distretto di Bellinzona"},"canton":{"key":"21","code":"TI","name":"Ticino"},"status":"Real"},{"key":"10125070","name":"Ai Lischèe","postalCode":"6593","locality":"Cadenazzo","commune":{"key":"5003","name":"Cadenazzo","shortName":"Cadenazzo"},"district":{"key":"2101","name":"Distretto di Bellinzona"},"canton":{"key":"21","code":"TI","name":"Ticino"},"status":"Real"},{"key":"10125071","name":"Ai Sasséi","postalCode":"6593","locality":"Cadenazzo","commune":{"key":"5003","name":"Cadenazzo","shortName":"Cadenazzo"},"district":{"key":"2101","name":"Distretto di Bellinzona"},"canton":{"key":"21","code":"TI","name":"Ticino"},"status":"Real"},{"key":"10125075","name":"Ala Brüga","postalCode":"6593","locality":"Cadenazzo","commune":{"key":"5003","name":"Cadenazzo","shortName":"Cadenazzo"},"district":{"key":"2101","name":"Distretto di Bellinzona"},"canton":{"key":"21","code":"TI","name":"Ticino"},"status":"Real"},{"key":"10125076","name":"Ala Campagna","postalCode":"6593","locality":"Cadenazzo","commune":{"key":"5003","name":"Cadenazzo","shortName":"Cadenazzo"},"district":{"key":"2101","name":"Distretto di Bellinzona"},"canton":{"key":"21","code":"TI","name":"Ticino"},"status":"Real"},{"key":"10125077","name":"Ala Capelina","postalCode":"6593","locality":"Cadenazzo","commune":{"key":"5003","name":"Cadenazzo","shortName":"Cadenazzo"},"district":{"key":"2101","name":"Distretto di Bellinzona"},"canton":{"key":"21","code":"TI","name":"Ticino"},"status":"Real"},{"key":"10125078","name":"Ala Crus","postalCode":"6593","locality":"Cadenazzo","commune":{"key":"5003","name":"Cadenazzo","shortName":"Cadenazzo"},"district":{"key":"2101","name":"Distretto di Bellinzona"},"canton":{"key":"21","code":"TI","name":"Ticino"},"status":"Real"},{"key":"10125079","name":"Ala Mota di Zopp","postalCode":"6593","locality":"Cadenazzo","commune":{"key":"5003","name":"Cadenazzo","shortName":"Cadenazzo"},"district":{"key":"2101","name":"Distretto di Bellinzona"},"canton":{"key":"21","code":"TI","name":"Ticino"},"status":"Real"},{"key":"10125080","name":"Ala Revöira","postalCode":"6593","locality":"Cadenazzo","commune":{"key":"5003","name":"Cadenazzo","shortName":"Cadenazzo"},"district":{"key":"2101","name":"Distretto di Bellinzona"},"canton":{"key":"21","code":"TI","name":"Ticino"},"status":"Real"},{"key":"10125081","name":"Alla Monda","postalCode":"6593","locality":"Cadenazzo","commune":{"key":"5003","name":"Cadenazzo","shortName":"Cadenazzo"},"district":{"key":"2101","name":"Distretto di Bellinzona"},"canton":{"key":"21","code":"TI","name":"Ticino"},"status":"Real"},{"key":"10125072","name":"Al Pian","postalCode":"6593","locality":"Cadenazzo","commune":{"key":"5003","name":"Cadenazzo","shortName":"Cadenazzo"},"district":{"key":"2101","name":"Distretto di Bellinzona"},"canton":{"key":"21","code":"TI","name":"Ticino"},"status":"Real"},{"key":"10125073","name":"Al Precassin","postalCode":"6593","locality":"Cadenazzo","commune":{"key":"5003","name":"Cadenazzo","shortName":"Cadenazzo"},"district":{"key":"2101","name":"Distretto di Bellinzona"},"canton":{"key":"21","code":"TI","name":"Ticino"},"status":"Real"},{"key":"10125074","name":"Al Sass","postalCode":"6593","locality":"Cadenazzo","commune":{"key":"5003","name":"Cadenazzo","shortName":"Cadenazzo"},"district":{"key":"2101","name":"Distretto di Bellinzona"},"canton":{"key":"21","code":"TI","name":"Ticino"},"status":"Real"},{"key":"10125065","name":"A Piantürin","postalCode":"6593","locality":"Cadenazzo","commune":{"key":"5003","name":"Cadenazzo","shortName":"Cadenazzo"},"district":{"key":"2101","name":"Distretto di Bellinzona"},"canton":{"key":"21","code":"TI","name":"Ticino"},"status":"Real"},{"key":"10207566","name":"A Ramél","postalCode":"6593","locality":"Cadenazzo","commune":{"key":"5003","name":"Cadenazzo","shortName":"Cadenazzo"},"district":{"key":"2101","name":"Distretto di Bellinzona"},"canton":{"key":"21","code":"TI","name":"Ticino"},"status":"Real"},{"key":"10125066","name":"A Ramél","postalCode":"6593","locality":"Cadenazzo","commune":{"key":"5003","name":"Cadenazzo","shortName":"Cadenazzo"},"district":{"key":"2101","name":"Distretto di Bellinzona"},"canton":{"key":"21","code":"TI","name":"Ticino"},"status":"Real"},{"key":"10125083","name":"Cará","postalCode":"6593","locality":"Cadenazzo","commune":{"key":"5003","name":"Cadenazzo","shortName":"Cadenazzo"},"district":{"key":"2101","name":"Distretto di Bellinzona"},"canton":{"key":"21","code":"TI","name":"Ticino"},"status":"Real"},{"key":"10125084","name":"Cará de l'Era","postalCode":"6593","locality":"Cadenazzo","commune":{"key":"5003","name":"Cadenazzo","shortName":"Cadenazzo"},"district":{"key":"2101","name":"Distretto di Bellinzona"},"canton":{"key":"21","code":"TI","name":"Ticino"},"status":"Real"},{"key":"10125085","name":"Caresèla","postalCode":"6593","locality":"Cadenazzo","commune":{"key":"5003","name":"Cadenazzo","shortName":"Cadenazzo"},"district":{"key":"2101","name":"Distretto di Bellinzona"},"canton":{"key":"21","code":"TI","name":"Ticino"},"status":"Real"},{"key":"10125086","name":"Carrale degli Orti","postalCode":"6593","locality":"Cadenazzo","commune":{"key":"5003","name":"Cadenazzo","shortName":"Cadenazzo"},"district":{"key":"2101","name":"Distretto di Bellinzona"},"canton":{"key":"21","code":"TI","name":"Ticino"},"status":"Real"},{"key":"10125087","name":"Rüscadèla","postalCode":"6593","locality":"Cadenazzo","commune":{"key":"5003","name":"Cadenazzo","shortName":"Cadenazzo"},"district":{"key":"2101","name":"Distretto di Bellinzona"},"canton":{"key":"21","code":"TI","name":"Ticino"},"status":"Real"},{"key":"10125088","name":"Strada 53","postalCode":"6593","locality":"Cadenazzo","commune":{"key":"5003","name":"Cadenazzo","shortName":"Cadenazzo"},"district":{"key":"2101","name":"Distretto di Bellinzona"},"canton":{"key":"21","code":"TI","name":"Ticino"},"status":"Real"},{"key":"10125089","name":"Strada Vegia","postalCode":"6593","locality":"Cadenazzo","commune":{"key":"5003","name":"Cadenazzo","shortName":"Cadenazzo"},"district":{"key":"2101","name":"Distretto di Bellinzona"},"canton":{"key":"21","code":"TI","name":"Ticino"},"status":"Real"},{"key":"10125090","name":"Strada Verzasca","postalCode":"6593","locality":"Cadenazzo","commune":{"key":"5003","name":"Cadenazzo","shortName":"Cadenazzo"},"district":{"key":"2101","name":"Distretto di Bellinzona"},"canton":{"key":"21","code":"TI","name":"Ticino"},"status":"Real"},{"key":"10125091","name":"Via ai Pozzi","postalCode":"6593","locality":"Cadenazzo","commune":{"key":"5003","name":"Cadenazzo","shortName":"Cadenazzo"},"district":{"key":"2101","name":"Distretto di Bellinzona"},"canton":{"key":"21","code":"TI","name":"Ticino"},"status":"Real"},{"key":"10125092","name":"Via alle Stalle","postalCode":"6593","locality":"Cadenazzo","commune":{"key":"5003","name":"Cadenazzo","shortName":"Cadenazzo"},"district":{"key":"2101","name":"Distretto di Bellinzona"},"canton":{"key":"21","code":"TI","name":"Ticino"},"status":"Real"},{"key":"10125093","name":"Via alle Vigne","postalCode":"6593","locality":"Cadenazzo","commune":{"key":"5003","name":"Cadenazzo","shortName":"Cadenazzo"},"district":{"key":"2101","name":"Distretto di Bellinzona"},"canton":{"key":"21","code":"TI","name":"Ticino"},"status":"Real"},{"key":"10125094","name":"Via Camoghè","postalCode":"6593","locality":"Cadenazzo","commune":{"key":"5003","name":"Cadenazzo","shortName":"Cadenazzo"},"district":{"key":"2101","name":"Distretto di Bellinzona"},"canton":{"key":"21","code":"TI","name":"Ticino"},"status":"Real"},{"key":"10134728","name":"Via Campo delle Vigne","postalCode":"6593","locality":"Cadenazzo","commune":{"key":"5003","name":"Cadenazzo","shortName":"Cadenazzo"},"district":{"key":"2101","name":"Distretto di Bellinzona"},"canton":{"key":"21","code":"TI","name":"Ticino"},"status":"Real"},{"key":"10120846","name":"Via Cantonale","postalCode":"6593","locality":"Cadenazzo","commune":{"key":"5003","name":"Cadenazzo","shortName":"Cadenazzo"},"district":{"key":"2101","name":"Distretto di Bellinzona"},"canton":{"key":"21","code":"TI","name":"Ticino"},"status":"Real"},{"key":"10120848","name":"Via Cascine Gadda","postalCode":"6593","locality":"Cadenazzo","commune":{"key":"5003","name":"Cadenazzo","shortName":"Cadenazzo"},"district":{"key":"2101","name":"Distretto di Bellinzona"},"canton":{"key":"21","code":"TI","name":"Ticino"},"status":"Real"},{"key":"10125095","name":"Via dei Giardini","postalCode":"6593","locality":"Cadenazzo","commune":{"key":"5003","name":"Cadenazzo","shortName":"Cadenazzo"},"district":{"key":"2101","name":"Distretto di Bellinzona"},"canton":{"key":"21","code":"TI","name":"Ticino"},"status":"Real"},{"key":"10125096","name":"Via delle Scuole","postalCode":"6593","locality":"Cadenazzo","commune":{"key":"5003","name":"Cadenazzo","shortName":"Cadenazzo"},"district":{"key":"2101","name":"Distretto di Bellinzona"},"canton":{"key":"21","code":"TI","name":"Ticino"},"status":"Real"},{"key":"10125097","name":"Via Industrie","postalCode":"6593","locality":"Cadenazzo","commune":{"key":"5003","name":"Cadenazzo","shortName":"Cadenazzo"},"district":{"key":"2101","name":"Distretto di Bellinzona"},"canton":{"key":"21","code":"TI","name":"Ticino"},"status":"Real"},{"key":"10244641","name":"Via Monte Ceneri","postalCode":"6593","locality":"Cadenazzo","commune":{"key":"5003","name":"Cadenazzo","shortName":"Cadenazzo"},"district":{"key":"2101","name":"Distretto di Bellinzona"},"canton":{"key":"21","code":"TI","name":"Ticino"},"status":"Real"},{"key":"10125098","name":"Via Monte Ceneri","postalCode":"6593","locality":"Cadenazzo","commune":{"key":"5003","name":"Cadenazzo","shortName":"Cadenazzo"},"district":{"key":"2101","name":"Distretto di Bellinzona"},"canton":{"key":"21","code":"TI","name":"Ticino"},"status":"Real"},{"key":"10125099","name":"Via Prati Grandi","postalCode":"6593","locality":"Cadenazzo","commune":{"key":"5003","name":"Cadenazzo","shortName":"Cadenazzo"},"district":{"key":"2101","name":"Distretto di Bellinzona"},"canton":{"key":"21","code":"TI","name":"Ticino"},"status":"Real"},{"key":"10164510","name":"Via Ronchi Ferrini","postalCode":"6593","locality":"Cadenazzo","commune":{"key":"5003","name":"Cadenazzo","shortName":"Cadenazzo"},"district":{"key":"2101","name":"Distretto di Bellinzona"},"canton":{"key":"21","code":"TI","name":"Ticino"},"status":"Real"},{"key":"10125100","name":"Via San Gottardo","postalCode":"6593","locality":"Cadenazzo","commune":{"key":"5003","name":"Cadenazzo","shortName":"Cadenazzo"},"district":{"key":"2101","name":"Distretto di Bellinzona"},"canton":{"key":"21","code":"TI","name":"Ticino"},"status":"Real"},{"key":"10123325","name":"Via Sasso Corbaro","postalCode":"6593","locality":"Cadenazzo","commune":{"key":"5003","name":"Cadenazzo","shortName":"Cadenazzo"},"district":{"key":"2101","name":"Distretto di Bellinzona"},"canton":{"key":"21","code":"TI","name":"Ticino"},"status":"Real"},{"key":"10123326","name":"Via Sottomontagna","postalCode":"6593","locality":"Cadenazzo","commune":{"key":"5003","name":"Cadenazzo","shortName":"Cadenazzo"},"district":{"key":"2101","name":"Distretto di Bellinzona"},"canton":{"key":"21","code":"TI","name":"Ticino"},"status":"Real"},{"key":"10123327","name":"Via Stazione","postalCode":"6593","locality":"Cadenazzo","commune":{"key":"5003","name":"Cadenazzo","shortName":"Cadenazzo"},"district":{"key":"2101","name":"Distretto di Bellinzona"},"canton":{"key":"21","code":"TI","name":"Ticino"},"status":"Real"},{"key":"10125197","name":"Via Stradonino","postalCode":"6593","locality":"Cadenazzo","commune":{"key":"5003","name":"Cadenazzo","shortName":"Cadenazzo"},"district":{"key":"2101","name":"Distretto di Bellinzona"},"canton":{"key":"21","code":"TI","name":"Ticino"},"status":"Real"},{"key":"10123328","name":"Vicolo Vecchio","postalCode":"6593","locality":"Cadenazzo","commune":{"key":"5003","name":"Cadenazzo","shortName":"Cadenazzo"},"district":{"key":"2101","name":"Distretto di Bellinzona"},"canton":{"key":"21","code":"TI","name":"Ticino"},"status":"Real"},]