[{"name":"Achtern Diek","postalCode":"25761","locality":"Büsumer Deichhausen","municipality":{"key":"01051014","name":"Büsumer Deichhausen","type":"Kreisangehörige_Gemeinde"},"district":{"key":"01051","name":"Dithmarschen","type":"Kreis"},"federalState":{"key":"01","name":"Schleswig-Holstein"}},{"name":"Am Knüll","postalCode":"25761","locality":"Büsumer Deichhausen","municipality":{"key":"01051014","name":"Büsumer Deichhausen","type":"Kreisangehörige_Gemeinde"},"district":{"key":"01051","name":"Dithmarschen","type":"Kreis"},"federalState":{"key":"01","name":"Schleswig-Holstein"}},{"name":"Breecksweg","postalCode":"25761","locality":"Büsumer Deichhausen","municipality":{"key":"01051014","name":"Büsumer Deichhausen","type":"Kreisangehörige_Gemeinde"},"district":{"key":"01051","name":"Dithmarschen","type":"Kreis"},"federalState":{"key":"01","name":"Schleswig-Holstein"}},{"name":"Bürgermeister-Ott-Str.","postalCode":"25761","locality":"Büsumer Deichhausen","municipality":{"key":"01051014","name":"Büsumer Deichhausen","type":"Kreisangehörige_Gemeinde"},"district":{"key":"01051","name":"Dithmarschen","type":"Kreis"},"federalState":{"key":"01","name":"Schleswig-Holstein"}},{"name":"Büsumer Str.","postalCode":"25761","locality":"Büsumer Deichhausen","municipality":{"key":"01051014","name":"Büsumer Deichhausen","type":"Kreisangehörige_Gemeinde"},"district":{"key":"01051","name":"Dithmarschen","type":"Kreis"},"federalState":{"key":"01","name":"Schleswig-Holstein"}},{"name":"Deichweg","postalCode":"25761","locality":"Büsumer Deichhausen","municipality":{"key":"01051014","name":"Büsumer Deichhausen","type":"Kreisangehörige_Gemeinde"},"district":{"key":"01051","name":"Dithmarschen","type":"Kreis"},"federalState":{"key":"01","name":"Schleswig-Holstein"}},{"name":"Eichenweg","postalCode":"25712","locality":"Burg (Dithmarschen)","municipality":{"key":"01051016","name":"Burg (Dithmarschen)","type":"Kreisangehörige_Gemeinde"},"district":{"key":"01051","name":"Dithmarschen","type":"Kreis"},"federalState":{"key":"01","name":"Schleswig-Holstein"}},{"name":"Emil-Thießen-Str.","postalCode":"25712","locality":"Burg (Dithmarschen)","municipality":{"key":"01051016","name":"Burg (Dithmarschen)","type":"Kreisangehörige_Gemeinde"},"district":{"key":"01051","name":"Dithmarschen","type":"Kreis"},"federalState":{"key":"01","name":"Schleswig-Holstein"}},{"name":"Erlengrund","postalCode":"25712","locality":"Burg (Dithmarschen)","municipality":{"key":"01051016","name":"Burg (Dithmarschen)","type":"Kreisangehörige_Gemeinde"},"district":{"key":"01051","name":"Dithmarschen","type":"Kreis"},"federalState":{"key":"01","name":"Schleswig-Holstein"}},{"name":"Erwin-Behn-Str.","postalCode":"25712","locality":"Burg (Dithmarschen)","municipality":{"key":"01051016","name":"Burg (Dithmarschen)","type":"Kreisangehörige_Gemeinde"},"district":{"key":"01051","name":"Dithmarschen","type":"Kreis"},"federalState":{"key":"01","name":"Schleswig-Holstein"}},{"name":"Fähre-Süd","postalCode":"25572","locality":"Burg (Dithmarschen)","municipality":{"key":"01051016","name":"Burg (Dithmarschen)","type":"Kreisangehörige_Gemeinde"},"district":{"key":"01051","name":"Dithmarschen","type":"Kreis"},"federalState":{"key":"01","name":"Schleswig-Holstein"}},{"name":"Fähre-Süd","postalCode":"25712","locality":"Burg (Dithmarschen)","municipality":{"key":"01051016","name":"Burg (Dithmarschen)","type":"Kreisangehörige_Gemeinde"},"district":{"key":"01051","name":"Dithmarschen","type":"Kreis"},"federalState":{"key":"01","name":"Schleswig-Holstein"}},{"name":"Fasanenweg","postalCode":"25712","locality":"Burg (Dithmarschen)","municipality":{"key":"01051016","name":"Burg (Dithmarschen)","type":"Kreisangehörige_Gemeinde"},"district":{"key":"01051","name":"Dithmarschen","type":"Kreis"},"federalState":{"key":"01","name":"Schleswig-Holstein"}},{"name":"Feldstr.","postalCode":"25712","locality":"Burg (Dithmarschen)","municipality":{"key":"01051016","name":"Burg (Dithmarschen)","type":"Kreisangehörige_Gemeinde"},"district":{"key":"01051","name":"Dithmarschen","type":"Kreis"},"federalState":{"key":"01","name":"Schleswig-Holstein"}},{"name":"Finkenweg","postalCode":"25712","locality":"Burg (Dithmarschen)","municipality":{"key":"01051016","name":"Burg (Dithmarschen)","type":"Kreisangehörige_Gemeinde"},"district":{"key":"01051","name":"Dithmarschen","type":"Kreis"},"federalState":{"key":"01","name":"Schleswig-Holstein"}},{"name":"Friedrich-Hebbel-Weg","postalCode":"25712","locality":"Burg (Dithmarschen)","municipality":{"key":"01051016","name":"Burg (Dithmarschen)","type":"Kreisangehörige_Gemeinde"},"district":{"key":"01051","name":"Dithmarschen","type":"Kreis"},"federalState":{"key":"01","name":"Schleswig-Holstein"}},{"name":"Gartenstr.","postalCode":"25712","locality":"Burg (Dithmarschen)","municipality":{"key":"01051016","name":"Burg (Dithmarschen)","type":"Kreisangehörige_Gemeinde"},"district":{"key":"01051","name":"Dithmarschen","type":"Kreis"},"federalState":{"key":"01","name":"Schleswig-Holstein"}},{"name":"Große Bergstr.","postalCode":"25712","locality":"Burg (Dithmarschen)","municipality":{"key":"01051016","name":"Burg (Dithmarschen)","type":"Kreisangehörige_Gemeinde"},"district":{"key":"01051","name":"Dithmarschen","type":"Kreis"},"federalState":{"key":"01","name":"Schleswig-Holstein"}},{"name":"Große Mühlenstr.","postalCode":"25712","locality":"Burg (Dithmarschen)","municipality":{"key":"01051016","name":"Burg (Dithmarschen)","type":"Kreisangehörige_Gemeinde"},"district":{"key":"01051","name":"Dithmarschen","type":"Kreis"},"federalState":{"key":"01","name":"Schleswig-Holstein"}},{"name":"Große Schulstr.","postalCode":"25712","locality":"Burg (Dithmarschen)","municipality":{"key":"01051016","name":"Burg (Dithmarschen)","type":"Kreisangehörige_Gemeinde"},"district":{"key":"01051","name":"Dithmarschen","type":"Kreis"},"federalState":{"key":"01","name":"Schleswig-Holstein"}},{"name":"Gustav-Frenssen-Weg","postalCode":"25712","locality":"Burg (Dithmarschen)","municipality":{"key":"01051016","name":"Burg (Dithmarschen)","type":"Kreisangehörige_Gemeinde"},"district":{"key":"01051","name":"Dithmarschen","type":"Kreis"},"federalState":{"key":"01","name":"Schleswig-Holstein"}},{"name":"Hemmweg","postalCode":"25761","locality":"Büsumer Deichhausen","municipality":{"key":"01051014","name":"Büsumer Deichhausen","type":"Kreisangehörige_Gemeinde"},"district":{"key":"01051","name":"Dithmarschen","type":"Kreis"},"federalState":{"key":"01","name":"Schleswig-Holstein"}},{"name":"Johannes-Kuhrt-Str.","postalCode":"25712","locality":"Burg (Dithmarschen)","municipality":{"key":"01051016","name":"Burg (Dithmarschen)","type":"Kreisangehörige_Gemeinde"},"district":{"key":"01051","name":"Dithmarschen","type":"Kreis"},"federalState":{"key":"01","name":"Schleswig-Holstein"}},{"name":"Klaus-Groth-Weg","postalCode":"25712","locality":"Burg (Dithmarschen)","municipality":{"key":"01051016","name":"Burg (Dithmarschen)","type":"Kreisangehörige_Gemeinde"},"district":{"key":"01051","name":"Dithmarschen","type":"Kreis"},"federalState":{"key":"01","name":"Schleswig-Holstein"}},{"name":"Kleine Bergstr.","postalCode":"25712","locality":"Burg (Dithmarschen)","municipality":{"key":"01051016","name":"Burg (Dithmarschen)","type":"Kreisangehörige_Gemeinde"},"district":{"key":"01051","name":"Dithmarschen","type":"Kreis"},"federalState":{"key":"01","name":"Schleswig-Holstein"}},{"name":"Kleine Mühlenstr.","postalCode":"25712","locality":"Burg (Dithmarschen)","municipality":{"key":"01051016","name":"Burg (Dithmarschen)","type":"Kreisangehörige_Gemeinde"},"district":{"key":"01051","name":"Dithmarschen","type":"Kreis"},"federalState":{"key":"01","name":"Schleswig-Holstein"}},{"name":"Kleine Schulstr.","postalCode":"25712","locality":"Burg (Dithmarschen)","municipality":{"key":"01051016","name":"Burg (Dithmarschen)","type":"Kreisangehörige_Gemeinde"},"district":{"key":"01051","name":"Dithmarschen","type":"Kreis"},"federalState":{"key":"01","name":"Schleswig-Holstein"}},{"name":"Königsweg","postalCode":"25712","locality":"Burg (Dithmarschen)","municipality":{"key":"01051016","name":"Burg (Dithmarschen)","type":"Kreisangehörige_Gemeinde"},"district":{"key":"01051","name":"Dithmarschen","type":"Kreis"},"federalState":{"key":"01","name":"Schleswig-Holstein"}},{"name":"Krenzerstr.","postalCode":"25712","locality":"Burg (Dithmarschen)","municipality":{"key":"01051016","name":"Burg (Dithmarschen)","type":"Kreisangehörige_Gemeinde"},"district":{"key":"01051","name":"Dithmarschen","type":"Kreis"},"federalState":{"key":"01","name":"Schleswig-Holstein"}},{"name":"Lindenstr.","postalCode":"25712","locality":"Burg (Dithmarschen)","municipality":{"key":"01051016","name":"Burg (Dithmarschen)","type":"Kreisangehörige_Gemeinde"},"district":{"key":"01051","name":"Dithmarschen","type":"Kreis"},"federalState":{"key":"01","name":"Schleswig-Holstein"}},{"name":"Marschenweg","postalCode":"25761","locality":"Büsumer Deichhausen","municipality":{"key":"01051014","name":"Büsumer Deichhausen","type":"Kreisangehörige_Gemeinde"},"district":{"key":"01051","name":"Dithmarschen","type":"Kreis"},"federalState":{"key":"01","name":"Schleswig-Holstein"}},{"name":"Mitteldeichweg","postalCode":"25761","locality":"Büsumer Deichhausen","municipality":{"key":"01051014","name":"Büsumer Deichhausen","type":"Kreisangehörige_Gemeinde"},"district":{"key":"01051","name":"Dithmarschen","type":"Kreis"},"federalState":{"key":"01","name":"Schleswig-Holstein"}},{"name":"Norderwurth","postalCode":"25761","locality":"Büsumer Deichhausen","municipality":{"key":"01051014","name":"Büsumer Deichhausen","type":"Kreisangehörige_Gemeinde"},"district":{"key":"01051","name":"Dithmarschen","type":"Kreis"},"federalState":{"key":"01","name":"Schleswig-Holstein"}},{"name":"Ohl Lühr","postalCode":"25761","locality":"Büsumer Deichhausen","municipality":{"key":"01051014","name":"Büsumer Deichhausen","type":"Kreisangehörige_Gemeinde"},"district":{"key":"01051","name":"Dithmarschen","type":"Kreis"},"federalState":{"key":"01","name":"Schleswig-Holstein"}},{"name":"Ole Twiete","postalCode":"25761","locality":"Büsumer Deichhausen","municipality":{"key":"01051014","name":"Büsumer Deichhausen","type":"Kreisangehörige_Gemeinde"},"district":{"key":"01051","name":"Dithmarschen","type":"Kreis"},"federalState":{"key":"01","name":"Schleswig-Holstein"}},{"name":"Parallelstr.","postalCode":"25712","locality":"Burg (Dithmarschen)","municipality":{"key":"01051016","name":"Burg (Dithmarschen)","type":"Kreisangehörige_Gemeinde"},"district":{"key":"01051","name":"Dithmarschen","type":"Kreis"},"federalState":{"key":"01","name":"Schleswig-Holstein"}},{"name":"Peter-Göttsche-Str.","postalCode":"25712","locality":"Burg (Dithmarschen)","municipality":{"key":"01051016","name":"Burg (Dithmarschen)","type":"Kreisangehörige_Gemeinde"},"district":{"key":"01051","name":"Dithmarschen","type":"Kreis"},"federalState":{"key":"01","name":"Schleswig-Holstein"}},{"name":"Rotkehlchenweg","postalCode":"25712","locality":"Burg (Dithmarschen)","municipality":{"key":"01051016","name":"Burg (Dithmarschen)","type":"Kreisangehörige_Gemeinde"},"district":{"key":"01051","name":"Dithmarschen","type":"Kreis"},"federalState":{"key":"01","name":"Schleswig-Holstein"}},{"name":"Schulsteig","postalCode":"25761","locality":"Büsumer Deichhausen","municipality":{"key":"01051014","name":"Büsumer Deichhausen","type":"Kreisangehörige_Gemeinde"},"district":{"key":"01051","name":"Dithmarschen","type":"Kreis"},"federalState":{"key":"01","name":"Schleswig-Holstein"}},{"name":"Strandweg","postalCode":"25761","locality":"Büsumer Deichhausen","municipality":{"key":"01051014","name":"Büsumer Deichhausen","type":"Kreisangehörige_Gemeinde"},"district":{"key":"01051","name":"Dithmarschen","type":"Kreis"},"federalState":{"key":"01","name":"Schleswig-Holstein"}},{"name":"Süderwarft","postalCode":"25761","locality":"Büsumer Deichhausen","municipality":{"key":"01051014","name":"Büsumer Deichhausen","type":"Kreisangehörige_Gemeinde"},"district":{"key":"01051","name":"Dithmarschen","type":"Kreis"},"federalState":{"key":"01","name":"Schleswig-Holstein"}},{"name":"To Wurth","postalCode":"25761","locality":"Büsumer Deichhausen","municipality":{"key":"01051014","name":"Büsumer Deichhausen","type":"Kreisangehörige_Gemeinde"},"district":{"key":"01051","name":"Dithmarschen","type":"Kreis"},"federalState":{"key":"01","name":"Schleswig-Holstein"}},{"name":"Viehzugsweg","postalCode":"25761","locality":"Büsumer Deichhausen","municipality":{"key":"01051014","name":"Büsumer Deichhausen","type":"Kreisangehörige_Gemeinde"},"district":{"key":"01051","name":"Dithmarschen","type":"Kreis"},"federalState":{"key":"01","name":"Schleswig-Holstein"}},{"name":"Wasserholm","postalCode":"25761","locality":"Büsumer Deichhausen","municipality":{"key":"01051014","name":"Büsumer Deichhausen","type":"Kreisangehörige_Gemeinde"},"district":{"key":"01051","name":"Dithmarschen","type":"Kreis"},"federalState":{"key":"01","name":"Schleswig-Holstein"}},{"name":"Wickenweg","postalCode":"25761","locality":"Büsumer Deichhausen","municipality":{"key":"01051014","name":"Büsumer Deichhausen","type":"Kreisangehörige_Gemeinde"},"district":{"key":"01051","name":"Dithmarschen","type":"Kreis"},"federalState":{"key":"01","name":"Schleswig-Holstein"}},{"name":"Wiesengrund","postalCode":"25761","locality":"Büsumer Deichhausen","municipality":{"key":"01051014","name":"Büsumer Deichhausen","type":"Kreisangehörige_Gemeinde"},"district":{"key":"01051","name":"Dithmarschen","type":"Kreis"},"federalState":{"key":"01","name":"Schleswig-Holstein"}},{"name":"Zaunkönigweg","postalCode":"25712","locality":"Burg (Dithmarschen)","municipality":{"key":"01051016","name":"Burg (Dithmarschen)","type":"Kreisangehörige_Gemeinde"},"district":{"key":"01051","name":"Dithmarschen","type":"Kreis"},"federalState":{"key":"01","name":"Schleswig-Holstein"}},{"name":"Öber'n Barg","postalCode":"25761","locality":"Büsumer Deichhausen","municipality":{"key":"01051014","name":"Büsumer Deichhausen","type":"Kreisangehörige_Gemeinde"},"district":{"key":"01051","name":"Dithmarschen","type":"Kreis"},"federalState":{"key":"01","name":"Schleswig-Holstein"}},]