[{"name":"Achtern Toslag","postalCode":"25494","locality":"Borstel-Hohenraden","municipality":{"key":"01056009","name":"Borstel-Hohenraden","type":"Kreisangehörige_Gemeinde"},"district":{"key":"01056","name":"Pinneberg","type":"Kreis"},"federalState":{"key":"01","name":"Schleswig-Holstein"}},{"name":"Alte Dorfstr.","postalCode":"27245","locality":"Bahrenborstel","municipality":{"key":"03251003","name":"Bahrenborstel","type":"Kreisangehörige_Gemeinde"},"district":{"key":"03251","name":"Diepholz","type":"Landkreis"},"federalState":{"key":"03","name":"Niedersachsen"}},{"name":"Alter See","postalCode":"27245","locality":"Bahrenborstel","municipality":{"key":"03251003","name":"Bahrenborstel","type":"Kreisangehörige_Gemeinde"},"district":{"key":"03251","name":"Diepholz","type":"Landkreis"},"federalState":{"key":"03","name":"Niedersachsen"}},{"name":"Am Bürgerwald","postalCode":"27245","locality":"Bahrenborstel","municipality":{"key":"03251003","name":"Bahrenborstel","type":"Kreisangehörige_Gemeinde"},"district":{"key":"03251","name":"Diepholz","type":"Landkreis"},"federalState":{"key":"03","name":"Niedersachsen"}},{"name":"Am Graben","postalCode":"27245","locality":"Bahrenborstel","municipality":{"key":"03251003","name":"Bahrenborstel","type":"Kreisangehörige_Gemeinde"},"district":{"key":"03251","name":"Diepholz","type":"Landkreis"},"federalState":{"key":"03","name":"Niedersachsen"}},{"name":"Am Heidplacken","postalCode":"27245","locality":"Bahrenborstel","municipality":{"key":"03251003","name":"Bahrenborstel","type":"Kreisangehörige_Gemeinde"},"district":{"key":"03251","name":"Diepholz","type":"Landkreis"},"federalState":{"key":"03","name":"Niedersachsen"}},{"name":"Am Hof","postalCode":"25494","locality":"Borstel-Hohenraden","municipality":{"key":"01056009","name":"Borstel-Hohenraden","type":"Kreisangehörige_Gemeinde"},"district":{"key":"01056","name":"Pinneberg","type":"Kreis"},"federalState":{"key":"01","name":"Schleswig-Holstein"}},{"name":"Am Hörn","postalCode":"25494","locality":"Borstel-Hohenraden","municipality":{"key":"01056009","name":"Borstel-Hohenraden","type":"Kreisangehörige_Gemeinde"},"district":{"key":"01056","name":"Pinneberg","type":"Kreis"},"federalState":{"key":"01","name":"Schleswig-Holstein"}},{"name":"Am Schlatt","postalCode":"27246","locality":"Borstel","municipality":{"key":"03251008","name":"Borstel","type":"Kreisangehörige_Gemeinde"},"district":{"key":"03251","name":"Diepholz","type":"Landkreis"},"federalState":{"key":"03","name":"Niedersachsen"}},{"name":"Am Schulhof","postalCode":"25494","locality":"Borstel-Hohenraden","municipality":{"key":"01056009","name":"Borstel-Hohenraden","type":"Kreisangehörige_Gemeinde"},"district":{"key":"01056","name":"Pinneberg","type":"Kreis"},"federalState":{"key":"01","name":"Schleswig-Holstein"}},{"name":"Am See","postalCode":"27245","locality":"Bahrenborstel","municipality":{"key":"03251003","name":"Bahrenborstel","type":"Kreisangehörige_Gemeinde"},"district":{"key":"03251","name":"Diepholz","type":"Landkreis"},"federalState":{"key":"03","name":"Niedersachsen"}},{"name":"Am Stoppelhof","postalCode":"25494","locality":"Borstel-Hohenraden","municipality":{"key":"01056009","name":"Borstel-Hohenraden","type":"Kreisangehörige_Gemeinde"},"district":{"key":"01056","name":"Pinneberg","type":"Kreis"},"federalState":{"key":"01","name":"Schleswig-Holstein"}},{"name":"An den Kuhlen","postalCode":"27245","locality":"Bahrenborstel","municipality":{"key":"03251003","name":"Bahrenborstel","type":"Kreisangehörige_Gemeinde"},"district":{"key":"03251","name":"Diepholz","type":"Landkreis"},"federalState":{"key":"03","name":"Niedersachsen"}},{"name":"An der Bahn","postalCode":"24616","locality":"Borstel","municipality":{"key":"01060013","name":"Borstel","type":"Kreisangehörige_Gemeinde"},"district":{"key":"01060","name":"Segeberg","type":"Kreis"},"federalState":{"key":"01","name":"Schleswig-Holstein"}},{"name":"An der Bundesstr.","postalCode":"25560","locality":"Kaisborstel","municipality":{"key":"01061048","name":"Kaisborstel","type":"Kreisangehörige_Gemeinde"},"district":{"key":"01061","name":"Steinburg","type":"Kreis"},"federalState":{"key":"01","name":"Schleswig-Holstein"}},{"name":"An der Landriede","postalCode":"27245","locality":"Bahrenborstel","municipality":{"key":"03251003","name":"Bahrenborstel","type":"Kreisangehörige_Gemeinde"},"district":{"key":"03251","name":"Diepholz","type":"Landkreis"},"federalState":{"key":"03","name":"Niedersachsen"}},{"name":"An der Sudriede","postalCode":"27246","locality":"Borstel","municipality":{"key":"03251008","name":"Borstel","type":"Kreisangehörige_Gemeinde"},"district":{"key":"03251","name":"Diepholz","type":"Landkreis"},"federalState":{"key":"03","name":"Niedersachsen"}},{"name":"Auf dem Kamp","postalCode":"27245","locality":"Bahrenborstel","municipality":{"key":"03251003","name":"Bahrenborstel","type":"Kreisangehörige_Gemeinde"},"district":{"key":"03251","name":"Diepholz","type":"Landkreis"},"federalState":{"key":"03","name":"Niedersachsen"}},{"name":"Auf dem Sande","postalCode":"27245","locality":"Bahrenborstel","municipality":{"key":"03251003","name":"Bahrenborstel","type":"Kreisangehörige_Gemeinde"},"district":{"key":"03251","name":"Diepholz","type":"Landkreis"},"federalState":{"key":"03","name":"Niedersachsen"}},{"name":"Bahnhofstr.","postalCode":"25560","locality":"Oldenborstel","municipality":{"key":"01061081","name":"Oldenborstel","type":"Kreisangehörige_Gemeinde"},"district":{"key":"01061","name":"Steinburg","type":"Kreis"},"federalState":{"key":"01","name":"Schleswig-Holstein"}},{"name":"Bargfelder Weg","postalCode":"24613","locality":"Wiedenborstel","municipality":{"key":"01061111","name":"Wiedenborstel","type":"Kreisangehörige_Gemeinde"},"district":{"key":"01061","name":"Steinburg","type":"Kreis"},"federalState":{"key":"01","name":"Schleswig-Holstein"}},{"name":"Böhmerwald","postalCode":"24594","locality":"Heinkenborstel","municipality":{"key":"01058074","name":"Heinkenborstel","type":"Kreisangehörige_Gemeinde"},"district":{"key":"01058","name":"Rendsburg-Eckernförde","type":"Kreis"},"federalState":{"key":"01","name":"Schleswig-Holstein"}},{"name":"Brachenfeld","postalCode":"24819","locality":"Nienborstel","municipality":{"key":"01058113","name":"Nienborstel","type":"Kreisangehörige_Gemeinde"},"district":{"key":"01058","name":"Rendsburg-Eckernförde","type":"Kreis"},"federalState":{"key":"01","name":"Schleswig-Holstein"}},{"name":"Brahmberg","postalCode":"24594","locality":"Heinkenborstel","municipality":{"key":"01058074","name":"Heinkenborstel","type":"Kreisangehörige_Gemeinde"},"district":{"key":"01058","name":"Rendsburg-Eckernförde","type":"Kreis"},"federalState":{"key":"01","name":"Schleswig-Holstein"}},{"name":"Brinjaher Weg","postalCode":"24819","locality":"Nienborstel","municipality":{"key":"01058113","name":"Nienborstel","type":"Kreisangehörige_Gemeinde"},"district":{"key":"01058","name":"Rendsburg-Eckernförde","type":"Kreis"},"federalState":{"key":"01","name":"Schleswig-Holstein"}},{"name":"Brinker Str.","postalCode":"27245","locality":"Bahrenborstel","municipality":{"key":"03251003","name":"Bahrenborstel","type":"Kreisangehörige_Gemeinde"},"district":{"key":"03251","name":"Diepholz","type":"Landkreis"},"federalState":{"key":"03","name":"Niedersachsen"}},{"name":"Buchenstr.","postalCode":"27245","locality":"Bahrenborstel","municipality":{"key":"03251003","name":"Bahrenborstel","type":"Kreisangehörige_Gemeinde"},"district":{"key":"03251","name":"Diepholz","type":"Landkreis"},"federalState":{"key":"03","name":"Niedersachsen"}},{"name":"Campen","postalCode":"27246","locality":"Borstel","municipality":{"key":"03251008","name":"Borstel","type":"Kreisangehörige_Gemeinde"},"district":{"key":"03251","name":"Diepholz","type":"Landkreis"},"federalState":{"key":"03","name":"Niedersachsen"}},{"name":"Deepenbrookweg","postalCode":"25494","locality":"Borstel-Hohenraden","municipality":{"key":"01056009","name":"Borstel-Hohenraden","type":"Kreisangehörige_Gemeinde"},"district":{"key":"01056","name":"Pinneberg","type":"Kreis"},"federalState":{"key":"01","name":"Schleswig-Holstein"}},{"name":"Dorfstr.","postalCode":"24594","locality":"Heinkenborstel","municipality":{"key":"01058074","name":"Heinkenborstel","type":"Kreisangehörige_Gemeinde"},"district":{"key":"01058","name":"Rendsburg-Eckernförde","type":"Kreis"},"federalState":{"key":"01","name":"Schleswig-Holstein"}},{"name":"Dorfstr.","postalCode":"24819","locality":"Nienborstel","municipality":{"key":"01058113","name":"Nienborstel","type":"Kreisangehörige_Gemeinde"},"district":{"key":"01058","name":"Rendsburg-Eckernförde","type":"Kreis"},"federalState":{"key":"01","name":"Schleswig-Holstein"}},{"name":"Dorfstr.","postalCode":"25494","locality":"Borstel-Hohenraden","municipality":{"key":"01056009","name":"Borstel-Hohenraden","type":"Kreisangehörige_Gemeinde"},"district":{"key":"01056","name":"Pinneberg","type":"Kreis"},"federalState":{"key":"01","name":"Schleswig-Holstein"}},{"name":"Dorfstr.","postalCode":"25560","locality":"Oldenborstel","municipality":{"key":"01061081","name":"Oldenborstel","type":"Kreisangehörige_Gemeinde"},"district":{"key":"01061","name":"Steinburg","type":"Kreis"},"federalState":{"key":"01","name":"Schleswig-Holstein"}},{"name":"Dörpstedter Str.","postalCode":"24819","locality":"Nienborstel","municipality":{"key":"01058113","name":"Nienborstel","type":"Kreisangehörige_Gemeinde"},"district":{"key":"01058","name":"Rendsburg-Eckernförde","type":"Kreis"},"federalState":{"key":"01","name":"Schleswig-Holstein"}},{"name":"Dreeheid","postalCode":"25494","locality":"Borstel-Hohenraden","municipality":{"key":"01056009","name":"Borstel-Hohenraden","type":"Kreisangehörige_Gemeinde"},"district":{"key":"01056","name":"Pinneberg","type":"Kreis"},"federalState":{"key":"01","name":"Schleswig-Holstein"}},{"name":"Eichenweg","postalCode":"24616","locality":"Borstel","municipality":{"key":"01060013","name":"Borstel","type":"Kreisangehörige_Gemeinde"},"district":{"key":"01060","name":"Segeberg","type":"Kreis"},"federalState":{"key":"01","name":"Schleswig-Holstein"}},{"name":"Elsbarg","postalCode":"24594","locality":"Heinkenborstel","municipality":{"key":"01058074","name":"Heinkenborstel","type":"Kreisangehörige_Gemeinde"},"district":{"key":"01058","name":"Rendsburg-Eckernförde","type":"Kreis"},"federalState":{"key":"01","name":"Schleswig-Holstein"}},{"name":"Fohlenweg","postalCode":"25494","locality":"Borstel-Hohenraden","municipality":{"key":"01056009","name":"Borstel-Hohenraden","type":"Kreisangehörige_Gemeinde"},"district":{"key":"01056","name":"Pinneberg","type":"Kreis"},"federalState":{"key":"01","name":"Schleswig-Holstein"}},{"name":"Fornhorst","postalCode":"24819","locality":"Nienborstel","municipality":{"key":"01058113","name":"Nienborstel","type":"Kreisangehörige_Gemeinde"},"district":{"key":"01058","name":"Rendsburg-Eckernförde","type":"Kreis"},"federalState":{"key":"01","name":"Schleswig-Holstein"}},{"name":"Forstmeister-Mentz-Weg","postalCode":"24819","locality":"Nienborstel","municipality":{"key":"01058113","name":"Nienborstel","type":"Kreisangehörige_Gemeinde"},"district":{"key":"01058","name":"Rendsburg-Eckernförde","type":"Kreis"},"federalState":{"key":"01","name":"Schleswig-Holstein"}},{"name":"Forstweg","postalCode":"24819","locality":"Nienborstel","municipality":{"key":"01058113","name":"Nienborstel","type":"Kreisangehörige_Gemeinde"},"district":{"key":"01058","name":"Rendsburg-Eckernförde","type":"Kreis"},"federalState":{"key":"01","name":"Schleswig-Holstein"}},{"name":"Fuchsweg","postalCode":"25494","locality":"Borstel-Hohenraden","municipality":{"key":"01056009","name":"Borstel-Hohenraden","type":"Kreisangehörige_Gemeinde"},"district":{"key":"01056","name":"Pinneberg","type":"Kreis"},"federalState":{"key":"01","name":"Schleswig-Holstein"}},{"name":"Fuhlenbek","postalCode":"24819","locality":"Nienborstel","municipality":{"key":"01058113","name":"Nienborstel","type":"Kreisangehörige_Gemeinde"},"district":{"key":"01058","name":"Rendsburg-Eckernförde","type":"Kreis"},"federalState":{"key":"01","name":"Schleswig-Holstein"}},{"name":"Gartenstr.","postalCode":"27246","locality":"Borstel","municipality":{"key":"03251008","name":"Borstel","type":"Kreisangehörige_Gemeinde"},"district":{"key":"03251","name":"Diepholz","type":"Landkreis"},"federalState":{"key":"03","name":"Niedersachsen"}},{"name":"Gnutzer Str.","postalCode":"24594","locality":"Heinkenborstel","municipality":{"key":"01058074","name":"Heinkenborstel","type":"Kreisangehörige_Gemeinde"},"district":{"key":"01058","name":"Rendsburg-Eckernförde","type":"Kreis"},"federalState":{"key":"01","name":"Schleswig-Holstein"}},{"name":"Golfcart Pfad","postalCode":"25494","locality":"Borstel-Hohenraden","municipality":{"key":"01056009","name":"Borstel-Hohenraden","type":"Kreisangehörige_Gemeinde"},"district":{"key":"01056","name":"Pinneberg","type":"Kreis"},"federalState":{"key":"01","name":"Schleswig-Holstein"}},{"name":"Göthen","postalCode":"27245","locality":"Bahrenborstel","municipality":{"key":"03251003","name":"Bahrenborstel","type":"Kreisangehörige_Gemeinde"},"district":{"key":"03251","name":"Diepholz","type":"Landkreis"},"federalState":{"key":"03","name":"Niedersachsen"}},{"name":"Göthener Str.","postalCode":"27245","locality":"Bahrenborstel","municipality":{"key":"03251003","name":"Bahrenborstel","type":"Kreisangehörige_Gemeinde"},"district":{"key":"03251","name":"Diepholz","type":"Landkreis"},"federalState":{"key":"03","name":"Niedersachsen"}},{"name":"Grotenkamp","postalCode":"25494","locality":"Borstel-Hohenraden","municipality":{"key":"01056009","name":"Borstel-Hohenraden","type":"Kreisangehörige_Gemeinde"},"district":{"key":"01056","name":"Pinneberg","type":"Kreis"},"federalState":{"key":"01","name":"Schleswig-Holstein"}},{"name":"Grüner Bogen","postalCode":"25494","locality":"Borstel-Hohenraden","municipality":{"key":"01056009","name":"Borstel-Hohenraden","type":"Kreisangehörige_Gemeinde"},"district":{"key":"01056","name":"Pinneberg","type":"Kreis"},"federalState":{"key":"01","name":"Schleswig-Holstein"}},{"name":"Grüne Riede","postalCode":"27245","locality":"Bahrenborstel","municipality":{"key":"03251003","name":"Bahrenborstel","type":"Kreisangehörige_Gemeinde"},"district":{"key":"03251","name":"Diepholz","type":"Landkreis"},"federalState":{"key":"03","name":"Niedersachsen"}},{"name":"Grüner Weg","postalCode":"24819","locality":"Nienborstel","municipality":{"key":"01058113","name":"Nienborstel","type":"Kreisangehörige_Gemeinde"},"district":{"key":"01058","name":"Rendsburg-Eckernförde","type":"Kreis"},"federalState":{"key":"01","name":"Schleswig-Holstein"}},{"name":"Hagedorn","postalCode":"24819","locality":"Nienborstel","municipality":{"key":"01058113","name":"Nienborstel","type":"Kreisangehörige_Gemeinde"},"district":{"key":"01058","name":"Rendsburg-Eckernförde","type":"Kreis"},"federalState":{"key":"01","name":"Schleswig-Holstein"}},{"name":"Hagener Weg","postalCode":"24616","locality":"Borstel","municipality":{"key":"01060013","name":"Borstel","type":"Kreisangehörige_Gemeinde"},"district":{"key":"01060","name":"Segeberg","type":"Kreis"},"federalState":{"key":"01","name":"Schleswig-Holstein"}},{"name":"Hahnkamp","postalCode":"24594","locality":"Heinkenborstel","municipality":{"key":"01058074","name":"Heinkenborstel","type":"Kreisangehörige_Gemeinde"},"district":{"key":"01058","name":"Rendsburg-Eckernförde","type":"Kreis"},"federalState":{"key":"01","name":"Schleswig-Holstein"}},{"name":"Hanredder","postalCode":"25494","locality":"Borstel-Hohenraden","municipality":{"key":"01056009","name":"Borstel-Hohenraden","type":"Kreisangehörige_Gemeinde"},"district":{"key":"01056","name":"Pinneberg","type":"Kreis"},"federalState":{"key":"01","name":"Schleswig-Holstein"}},{"name":"Harbrookweg","postalCode":"25494","locality":"Borstel-Hohenraden","municipality":{"key":"01056009","name":"Borstel-Hohenraden","type":"Kreisangehörige_Gemeinde"},"district":{"key":"01056","name":"Pinneberg","type":"Kreis"},"federalState":{"key":"01","name":"Schleswig-Holstein"}},{"name":"Hasenweg","postalCode":"27246","locality":"Borstel","municipality":{"key":"03251008","name":"Borstel","type":"Kreisangehörige_Gemeinde"},"district":{"key":"03251","name":"Diepholz","type":"Landkreis"},"federalState":{"key":"03","name":"Niedersachsen"}},{"name":"Hauptstr.","postalCode":"24616","locality":"Borstel","municipality":{"key":"01060013","name":"Borstel","type":"Kreisangehörige_Gemeinde"},"district":{"key":"01060","name":"Segeberg","type":"Kreis"},"federalState":{"key":"01","name":"Schleswig-Holstein"}},{"name":"Hauskamp","postalCode":"27245","locality":"Bahrenborstel","municipality":{"key":"03251003","name":"Bahrenborstel","type":"Kreisangehörige_Gemeinde"},"district":{"key":"03251","name":"Diepholz","type":"Landkreis"},"federalState":{"key":"03","name":"Niedersachsen"}},{"name":"Heerder Str.","postalCode":"27245","locality":"Bahrenborstel","municipality":{"key":"03251003","name":"Bahrenborstel","type":"Kreisangehörige_Gemeinde"},"district":{"key":"03251","name":"Diepholz","type":"Landkreis"},"federalState":{"key":"03","name":"Niedersachsen"}},{"name":"Hessenweg","postalCode":"25560","locality":"Oldenborstel","municipality":{"key":"01061081","name":"Oldenborstel","type":"Kreisangehörige_Gemeinde"},"district":{"key":"01061","name":"Steinburg","type":"Kreis"},"federalState":{"key":"01","name":"Schleswig-Holstein"}},{"name":"Hesterberger Str.","postalCode":"27246","locality":"Borstel","municipality":{"key":"03251008","name":"Borstel","type":"Kreisangehörige_Gemeinde"},"district":{"key":"03251","name":"Diepholz","type":"Landkreis"},"federalState":{"key":"03","name":"Niedersachsen"}},{"name":"Hexentwiete","postalCode":"25494","locality":"Borstel-Hohenraden","municipality":{"key":"01056009","name":"Borstel-Hohenraden","type":"Kreisangehörige_Gemeinde"},"district":{"key":"01056","name":"Pinneberg","type":"Kreis"},"federalState":{"key":"01","name":"Schleswig-Holstein"}},{"name":"Himmelmoorweg","postalCode":"25494","locality":"Borstel-Hohenraden","municipality":{"key":"01056009","name":"Borstel-Hohenraden","type":"Kreisangehörige_Gemeinde"},"district":{"key":"01056","name":"Pinneberg","type":"Kreis"},"federalState":{"key":"01","name":"Schleswig-Holstein"}},{"name":"Hofkoppel","postalCode":"24819","locality":"Nienborstel","municipality":{"key":"01058113","name":"Nienborstel","type":"Kreisangehörige_Gemeinde"},"district":{"key":"01058","name":"Rendsburg-Eckernförde","type":"Kreis"},"federalState":{"key":"01","name":"Schleswig-Holstein"}},{"name":"Hohenwestedter Str.","postalCode":"24819","locality":"Nienborstel","municipality":{"key":"01058113","name":"Nienborstel","type":"Kreisangehörige_Gemeinde"},"district":{"key":"01058","name":"Rendsburg-Eckernförde","type":"Kreis"},"federalState":{"key":"01","name":"Schleswig-Holstein"}},{"name":"Holzhauser Str.","postalCode":"27245","locality":"Bahrenborstel","municipality":{"key":"03251003","name":"Bahrenborstel","type":"Kreisangehörige_Gemeinde"},"district":{"key":"03251","name":"Diepholz","type":"Landkreis"},"federalState":{"key":"03","name":"Niedersachsen"}},{"name":"Hüttener Pforte","postalCode":"24819","locality":"Nienborstel","municipality":{"key":"01058113","name":"Nienborstel","type":"Kreisangehörige_Gemeinde"},"district":{"key":"01058","name":"Rendsburg-Eckernförde","type":"Kreis"},"federalState":{"key":"01","name":"Schleswig-Holstein"}},{"name":"Huweg","postalCode":"25494","locality":"Borstel-Hohenraden","municipality":{"key":"01056009","name":"Borstel-Hohenraden","type":"Kreisangehörige_Gemeinde"},"district":{"key":"01056","name":"Pinneberg","type":"Kreis"},"federalState":{"key":"01","name":"Schleswig-Holstein"}},{"name":"Im Dorf","postalCode":"27245","locality":"Bahrenborstel","municipality":{"key":"03251003","name":"Bahrenborstel","type":"Kreisangehörige_Gemeinde"},"district":{"key":"03251","name":"Diepholz","type":"Landkreis"},"federalState":{"key":"03","name":"Niedersachsen"}},{"name":"Im Dorfe","postalCode":"27246","locality":"Borstel","municipality":{"key":"03251008","name":"Borstel","type":"Kreisangehörige_Gemeinde"},"district":{"key":"03251","name":"Diepholz","type":"Landkreis"},"federalState":{"key":"03","name":"Niedersachsen"}},{"name":"Im Feld","postalCode":"27246","locality":"Borstel","municipality":{"key":"03251008","name":"Borstel","type":"Kreisangehörige_Gemeinde"},"district":{"key":"03251","name":"Diepholz","type":"Landkreis"},"federalState":{"key":"03","name":"Niedersachsen"}},{"name":"Im Großen Felde","postalCode":"27246","locality":"Borstel","municipality":{"key":"03251008","name":"Borstel","type":"Kreisangehörige_Gemeinde"},"district":{"key":"03251","name":"Diepholz","type":"Landkreis"},"federalState":{"key":"03","name":"Niedersachsen"}},{"name":"Im Wiesengrunde","postalCode":"27246","locality":"Borstel","municipality":{"key":"03251008","name":"Borstel","type":"Kreisangehörige_Gemeinde"},"district":{"key":"03251","name":"Diepholz","type":"Landkreis"},"federalState":{"key":"03","name":"Niedersachsen"}},{"name":"In de Eck","postalCode":"24819","locality":"Nienborstel","municipality":{"key":"01058113","name":"Nienborstel","type":"Kreisangehörige_Gemeinde"},"district":{"key":"01058","name":"Rendsburg-Eckernförde","type":"Kreis"},"federalState":{"key":"01","name":"Schleswig-Holstein"}},{"name":"In de Masch","postalCode":"25494","locality":"Borstel-Hohenraden","municipality":{"key":"01056009","name":"Borstel-Hohenraden","type":"Kreisangehörige_Gemeinde"},"district":{"key":"01056","name":"Pinneberg","type":"Kreis"},"federalState":{"key":"01","name":"Schleswig-Holstein"}},{"name":"In den Gärten","postalCode":"27245","locality":"Bahrenborstel","municipality":{"key":"03251003","name":"Bahrenborstel","type":"Kreisangehörige_Gemeinde"},"district":{"key":"03251","name":"Diepholz","type":"Landkreis"},"federalState":{"key":"03","name":"Niedersachsen"}},{"name":"In den Hofgärten","postalCode":"27246","locality":"Borstel","municipality":{"key":"03251008","name":"Borstel","type":"Kreisangehörige_Gemeinde"},"district":{"key":"03251","name":"Diepholz","type":"Landkreis"},"federalState":{"key":"03","name":"Niedersachsen"}},{"name":"In den Schleppen","postalCode":"27246","locality":"Borstel","municipality":{"key":"03251008","name":"Borstel","type":"Kreisangehörige_Gemeinde"},"district":{"key":"03251","name":"Diepholz","type":"Landkreis"},"federalState":{"key":"03","name":"Niedersachsen"}},{"name":"In der Heimat","postalCode":"27246","locality":"Borstel","municipality":{"key":"03251008","name":"Borstel","type":"Kreisangehörige_Gemeinde"},"district":{"key":"03251","name":"Diepholz","type":"Landkreis"},"federalState":{"key":"03","name":"Niedersachsen"}},{"name":"In Dörp","postalCode":"25494","locality":"Borstel-Hohenraden","municipality":{"key":"01056009","name":"Borstel-Hohenraden","type":"Kreisangehörige_Gemeinde"},"district":{"key":"01056","name":"Pinneberg","type":"Kreis"},"federalState":{"key":"01","name":"Schleswig-Holstein"}},{"name":"Jägerweg","postalCode":"27245","locality":"Bahrenborstel","municipality":{"key":"03251003","name":"Bahrenborstel","type":"Kreisangehörige_Gemeinde"},"district":{"key":"03251","name":"Diepholz","type":"Landkreis"},"federalState":{"key":"03","name":"Niedersachsen"}},{"name":"Janenberger Weg","postalCode":"25560","locality":"Kaisborstel","municipality":{"key":"01061048","name":"Kaisborstel","type":"Kreisangehörige_Gemeinde"},"district":{"key":"01061","name":"Steinburg","type":"Kreis"},"federalState":{"key":"01","name":"Schleswig-Holstein"}},{"name":"Kirchdorfer Str.","postalCode":"27245","locality":"Bahrenborstel","municipality":{"key":"03251003","name":"Bahrenborstel","type":"Kreisangehörige_Gemeinde"},"district":{"key":"03251","name":"Diepholz","type":"Landkreis"},"federalState":{"key":"03","name":"Niedersachsen"}},{"name":"Kirchenstieg","postalCode":"25494","locality":"Borstel-Hohenraden","municipality":{"key":"01056009","name":"Borstel-Hohenraden","type":"Kreisangehörige_Gemeinde"},"district":{"key":"01056","name":"Pinneberg","type":"Kreis"},"federalState":{"key":"01","name":"Schleswig-Holstein"}},{"name":"Kirchkiefern","postalCode":"27245","locality":"Bahrenborstel","municipality":{"key":"03251003","name":"Bahrenborstel","type":"Kreisangehörige_Gemeinde"},"district":{"key":"03251","name":"Diepholz","type":"Landkreis"},"federalState":{"key":"03","name":"Niedersachsen"}},{"name":"Kirschallee","postalCode":"27245","locality":"Bahrenborstel","municipality":{"key":"03251003","name":"Bahrenborstel","type":"Kreisangehörige_Gemeinde"},"district":{"key":"03251","name":"Diepholz","type":"Landkreis"},"federalState":{"key":"03","name":"Niedersachsen"}},{"name":"Kleine Str.","postalCode":"27245","locality":"Bahrenborstel","municipality":{"key":"03251003","name":"Bahrenborstel","type":"Kreisangehörige_Gemeinde"},"district":{"key":"03251","name":"Diepholz","type":"Landkreis"},"federalState":{"key":"03","name":"Niedersachsen"}},{"name":"Kluhs","postalCode":"24819","locality":"Nienborstel","municipality":{"key":"01058113","name":"Nienborstel","type":"Kreisangehörige_Gemeinde"},"district":{"key":"01058","name":"Rendsburg-Eckernförde","type":"Kreis"},"federalState":{"key":"01","name":"Schleswig-Holstein"}},{"name":"Kummerfelder Str.","postalCode":"25494","locality":"Borstel-Hohenraden","municipality":{"key":"01056009","name":"Borstel-Hohenraden","type":"Kreisangehörige_Gemeinde"},"district":{"key":"01056","name":"Pinneberg","type":"Kreis"},"federalState":{"key":"01","name":"Schleswig-Holstein"}},{"name":"Landweg","postalCode":"27246","locality":"Borstel","municipality":{"key":"03251008","name":"Borstel","type":"Kreisangehörige_Gemeinde"},"district":{"key":"03251","name":"Diepholz","type":"Landkreis"},"federalState":{"key":"03","name":"Niedersachsen"}},{"name":"Lehmberg","postalCode":"24819","locality":"Nienborstel","municipality":{"key":"01058113","name":"Nienborstel","type":"Kreisangehörige_Gemeinde"},"district":{"key":"01058","name":"Rendsburg-Eckernförde","type":"Kreis"},"federalState":{"key":"01","name":"Schleswig-Holstein"}},{"name":"Mühlenkamp","postalCode":"24819","locality":"Nienborstel","municipality":{"key":"01058113","name":"Nienborstel","type":"Kreisangehörige_Gemeinde"},"district":{"key":"01058","name":"Rendsburg-Eckernförde","type":"Kreis"},"federalState":{"key":"01","name":"Schleswig-Holstein"}},{"name":"Mühlenweg","postalCode":"24819","locality":"Nienborstel","municipality":{"key":"01058113","name":"Nienborstel","type":"Kreisangehörige_Gemeinde"},"district":{"key":"01058","name":"Rendsburg-Eckernförde","type":"Kreis"},"federalState":{"key":"01","name":"Schleswig-Holstein"}},{"name":"Mühlenweg","postalCode":"25494","locality":"Borstel-Hohenraden","municipality":{"key":"01056009","name":"Borstel-Hohenraden","type":"Kreisangehörige_Gemeinde"},"district":{"key":"01056","name":"Pinneberg","type":"Kreis"},"federalState":{"key":"01","name":"Schleswig-Holstein"}},{"name":"Mühlenweg","postalCode":"27246","locality":"Borstel","municipality":{"key":"03251008","name":"Borstel","type":"Kreisangehörige_Gemeinde"},"district":{"key":"03251","name":"Diepholz","type":"Landkreis"},"federalState":{"key":"03","name":"Niedersachsen"}},{"name":"Nedderhulden","postalCode":"25494","locality":"Borstel-Hohenraden","municipality":{"key":"01056009","name":"Borstel-Hohenraden","type":"Kreisangehörige_Gemeinde"},"district":{"key":"01056","name":"Pinneberg","type":"Kreis"},"federalState":{"key":"01","name":"Schleswig-Holstein"}},{"name":"Nienburger Str.","postalCode":"27246","locality":"Borstel","municipality":{"key":"03251008","name":"Borstel","type":"Kreisangehörige_Gemeinde"},"district":{"key":"03251","name":"Diepholz","type":"Landkreis"},"federalState":{"key":"03","name":"Niedersachsen"}},{"name":"Nindorfer Str.","postalCode":"24594","locality":"Heinkenborstel","municipality":{"key":"01058074","name":"Heinkenborstel","type":"Kreisangehörige_Gemeinde"},"district":{"key":"01058","name":"Rendsburg-Eckernförde","type":"Kreis"},"federalState":{"key":"01","name":"Schleswig-Holstein"}},{"name":"Op de Loh","postalCode":"25494","locality":"Borstel-Hohenraden","municipality":{"key":"01056009","name":"Borstel-Hohenraden","type":"Kreisangehörige_Gemeinde"},"district":{"key":"01056","name":"Pinneberg","type":"Kreis"},"federalState":{"key":"01","name":"Schleswig-Holstein"}},{"name":"Opn Barg","postalCode":"25494","locality":"Borstel-Hohenraden","municipality":{"key":"01056009","name":"Borstel-Hohenraden","type":"Kreisangehörige_Gemeinde"},"district":{"key":"01056","name":"Pinneberg","type":"Kreis"},"federalState":{"key":"01","name":"Schleswig-Holstein"}},{"name":"Osterstr.","postalCode":"27246","locality":"Borstel","municipality":{"key":"03251008","name":"Borstel","type":"Kreisangehörige_Gemeinde"},"district":{"key":"03251","name":"Diepholz","type":"Landkreis"},"federalState":{"key":"03","name":"Niedersachsen"}},{"name":"Ostpreußenstr.","postalCode":"27245","locality":"Bahrenborstel","municipality":{"key":"03251003","name":"Bahrenborstel","type":"Kreisangehörige_Gemeinde"},"district":{"key":"03251","name":"Diepholz","type":"Landkreis"},"federalState":{"key":"03","name":"Niedersachsen"}},{"name":"Papenau","postalCode":"24819","locality":"Nienborstel","municipality":{"key":"01058113","name":"Nienborstel","type":"Kreisangehörige_Gemeinde"},"district":{"key":"01058","name":"Rendsburg-Eckernförde","type":"Kreis"},"federalState":{"key":"01","name":"Schleswig-Holstein"}},{"name":"Päpser Weg","postalCode":"27246","locality":"Borstel","municipality":{"key":"03251008","name":"Borstel","type":"Kreisangehörige_Gemeinde"},"district":{"key":"03251","name":"Diepholz","type":"Landkreis"},"federalState":{"key":"03","name":"Niedersachsen"}},{"name":"Pommernweg","postalCode":"27245","locality":"Bahrenborstel","municipality":{"key":"03251003","name":"Bahrenborstel","type":"Kreisangehörige_Gemeinde"},"district":{"key":"03251","name":"Diepholz","type":"Landkreis"},"federalState":{"key":"03","name":"Niedersachsen"}},{"name":"Quickborner Str.","postalCode":"25494","locality":"Borstel-Hohenraden","municipality":{"key":"01056009","name":"Borstel-Hohenraden","type":"Kreisangehörige_Gemeinde"},"district":{"key":"01056","name":"Pinneberg","type":"Kreis"},"federalState":{"key":"01","name":"Schleswig-Holstein"}},{"name":"Redder","postalCode":"24616","locality":"Borstel","municipality":{"key":"01060013","name":"Borstel","type":"Kreisangehörige_Gemeinde"},"district":{"key":"01060","name":"Segeberg","type":"Kreis"},"federalState":{"key":"01","name":"Schleswig-Holstein"}},{"name":"Rendsburger Str.","postalCode":"24819","locality":"Nienborstel","municipality":{"key":"01058113","name":"Nienborstel","type":"Kreisangehörige_Gemeinde"},"district":{"key":"01058","name":"Rendsburg-Eckernförde","type":"Kreis"},"federalState":{"key":"01","name":"Schleswig-Holstein"}},{"name":"Roffloh","postalCode":"25494","locality":"Borstel-Hohenraden","municipality":{"key":"01056009","name":"Borstel-Hohenraden","type":"Kreisangehörige_Gemeinde"},"district":{"key":"01056","name":"Pinneberg","type":"Kreis"},"federalState":{"key":"01","name":"Schleswig-Holstein"}},{"name":"Rubargen","postalCode":"25494","locality":"Borstel-Hohenraden","municipality":{"key":"01056009","name":"Borstel-Hohenraden","type":"Kreisangehörige_Gemeinde"},"district":{"key":"01056","name":"Pinneberg","type":"Kreis"},"federalState":{"key":"01","name":"Schleswig-Holstein"}},{"name":"Sandfichten","postalCode":"27245","locality":"Bahrenborstel","municipality":{"key":"03251003","name":"Bahrenborstel","type":"Kreisangehörige_Gemeinde"},"district":{"key":"03251","name":"Diepholz","type":"Landkreis"},"federalState":{"key":"03","name":"Niedersachsen"}},{"name":"Schamwege","postalCode":"27246","locality":"Borstel","municipality":{"key":"03251008","name":"Borstel","type":"Kreisangehörige_Gemeinde"},"district":{"key":"03251","name":"Diepholz","type":"Landkreis"},"federalState":{"key":"03","name":"Niedersachsen"}},{"name":"Schierloh","postalCode":"27245","locality":"Bahrenborstel","municipality":{"key":"03251003","name":"Bahrenborstel","type":"Kreisangehörige_Gemeinde"},"district":{"key":"03251","name":"Diepholz","type":"Landkreis"},"federalState":{"key":"03","name":"Niedersachsen"}},{"name":"Schillingsbarg","postalCode":"25494","locality":"Borstel-Hohenraden","municipality":{"key":"01056009","name":"Borstel-Hohenraden","type":"Kreisangehörige_Gemeinde"},"district":{"key":"01056","name":"Pinneberg","type":"Kreis"},"federalState":{"key":"01","name":"Schleswig-Holstein"}},{"name":"Schlesier Weg","postalCode":"27245","locality":"Bahrenborstel","municipality":{"key":"03251003","name":"Bahrenborstel","type":"Kreisangehörige_Gemeinde"},"district":{"key":"03251","name":"Diepholz","type":"Landkreis"},"federalState":{"key":"03","name":"Niedersachsen"}},{"name":"Schoolkoppel","postalCode":"24819","locality":"Nienborstel","municipality":{"key":"01058113","name":"Nienborstel","type":"Kreisangehörige_Gemeinde"},"district":{"key":"01058","name":"Rendsburg-Eckernförde","type":"Kreis"},"federalState":{"key":"01","name":"Schleswig-Holstein"}},{"name":"Sieden","postalCode":"27246","locality":"Borstel","municipality":{"key":"03251008","name":"Borstel","type":"Kreisangehörige_Gemeinde"},"district":{"key":"03251","name":"Diepholz","type":"Landkreis"},"federalState":{"key":"03","name":"Niedersachsen"}},{"name":"Siedenburger Str.","postalCode":"27246","locality":"Borstel","municipality":{"key":"03251008","name":"Borstel","type":"Kreisangehörige_Gemeinde"},"district":{"key":"03251","name":"Diepholz","type":"Landkreis"},"federalState":{"key":"03","name":"Niedersachsen"}},{"name":"Stafstedter Weg","postalCode":"24819","locality":"Nienborstel","municipality":{"key":"01058113","name":"Nienborstel","type":"Kreisangehörige_Gemeinde"},"district":{"key":"01058","name":"Rendsburg-Eckernförde","type":"Kreis"},"federalState":{"key":"01","name":"Schleswig-Holstein"}},{"name":"Steinloher Damm","postalCode":"27245","locality":"Bahrenborstel","municipality":{"key":"03251003","name":"Bahrenborstel","type":"Kreisangehörige_Gemeinde"},"district":{"key":"03251","name":"Diepholz","type":"Landkreis"},"federalState":{"key":"03","name":"Niedersachsen"}},{"name":"Ströher Str.","postalCode":"27245","locality":"Bahrenborstel","municipality":{"key":"03251003","name":"Bahrenborstel","type":"Kreisangehörige_Gemeinde"},"district":{"key":"03251","name":"Diepholz","type":"Landkreis"},"federalState":{"key":"03","name":"Niedersachsen"}},{"name":"Stücker Weg","postalCode":"24819","locality":"Nienborstel","municipality":{"key":"01058113","name":"Nienborstel","type":"Kreisangehörige_Gemeinde"},"district":{"key":"01058","name":"Rendsburg-Eckernförde","type":"Kreis"},"federalState":{"key":"01","name":"Schleswig-Holstein"}},{"name":"Sulinger Str.","postalCode":"27246","locality":"Borstel","municipality":{"key":"03251008","name":"Borstel","type":"Kreisangehörige_Gemeinde"},"district":{"key":"03251","name":"Diepholz","type":"Landkreis"},"federalState":{"key":"03","name":"Niedersachsen"}},{"name":"Tannenweg","postalCode":"27245","locality":"Bahrenborstel","municipality":{"key":"03251003","name":"Bahrenborstel","type":"Kreisangehörige_Gemeinde"},"district":{"key":"03251","name":"Diepholz","type":"Landkreis"},"federalState":{"key":"03","name":"Niedersachsen"}},{"name":"Teichstr.","postalCode":"25560","locality":"Oldenborstel","municipality":{"key":"01061081","name":"Oldenborstel","type":"Kreisangehörige_Gemeinde"},"district":{"key":"01061","name":"Steinburg","type":"Kreis"},"federalState":{"key":"01","name":"Schleswig-Holstein"}},{"name":"Teichweg","postalCode":"24819","locality":"Nienborstel","municipality":{"key":"01058113","name":"Nienborstel","type":"Kreisangehörige_Gemeinde"},"district":{"key":"01058","name":"Rendsburg-Eckernförde","type":"Kreis"},"federalState":{"key":"01","name":"Schleswig-Holstein"}},{"name":"Tellingstedter Str.","postalCode":"25782","locality":"Westerborstel","municipality":{"key":"01051131","name":"Westerborstel","type":"Kreisangehörige_Gemeinde"},"district":{"key":"01051","name":"Dithmarschen","type":"Kreis"},"federalState":{"key":"01","name":"Schleswig-Holstein"}},{"name":"Tempelberg","postalCode":"27245","locality":"Bahrenborstel","municipality":{"key":"03251003","name":"Bahrenborstel","type":"Kreisangehörige_Gemeinde"},"district":{"key":"03251","name":"Diepholz","type":"Landkreis"},"federalState":{"key":"03","name":"Niedersachsen"}},{"name":"Unter den Eichen","postalCode":"27245","locality":"Bahrenborstel","municipality":{"key":"03251003","name":"Bahrenborstel","type":"Kreisangehörige_Gemeinde"},"district":{"key":"03251","name":"Diepholz","type":"Landkreis"},"federalState":{"key":"03","name":"Niedersachsen"}},{"name":"Volquartzdamm","postalCode":"24819","locality":"Nienborstel","municipality":{"key":"01058113","name":"Nienborstel","type":"Kreisangehörige_Gemeinde"},"district":{"key":"01058","name":"Rendsburg-Eckernförde","type":"Kreis"},"federalState":{"key":"01","name":"Schleswig-Holstein"}},{"name":"Vorm See","postalCode":"27245","locality":"Bahrenborstel","municipality":{"key":"03251003","name":"Bahrenborstel","type":"Kreisangehörige_Gemeinde"},"district":{"key":"03251","name":"Diepholz","type":"Landkreis"},"federalState":{"key":"03","name":"Niedersachsen"}},{"name":"Vorm Stellohberg","postalCode":"27245","locality":"Bahrenborstel","municipality":{"key":"03251003","name":"Bahrenborstel","type":"Kreisangehörige_Gemeinde"},"district":{"key":"03251","name":"Diepholz","type":"Landkreis"},"federalState":{"key":"03","name":"Niedersachsen"}},{"name":"Waldesruh","postalCode":"27245","locality":"Bahrenborstel","municipality":{"key":"03251003","name":"Bahrenborstel","type":"Kreisangehörige_Gemeinde"},"district":{"key":"03251","name":"Diepholz","type":"Landkreis"},"federalState":{"key":"03","name":"Niedersachsen"}},{"name":"Waldgärten","postalCode":"27245","locality":"Bahrenborstel","municipality":{"key":"03251003","name":"Bahrenborstel","type":"Kreisangehörige_Gemeinde"},"district":{"key":"03251","name":"Diepholz","type":"Landkreis"},"federalState":{"key":"03","name":"Niedersachsen"}},{"name":"Waldweg","postalCode":"27245","locality":"Bahrenborstel","municipality":{"key":"03251003","name":"Bahrenborstel","type":"Kreisangehörige_Gemeinde"},"district":{"key":"03251","name":"Diepholz","type":"Landkreis"},"federalState":{"key":"03","name":"Niedersachsen"}},{"name":"Weider Weg","postalCode":"24819","locality":"Nienborstel","municipality":{"key":"01058113","name":"Nienborstel","type":"Kreisangehörige_Gemeinde"},"district":{"key":"01058","name":"Rendsburg-Eckernförde","type":"Kreis"},"federalState":{"key":"01","name":"Schleswig-Holstein"}},{"name":"Wendelkamp","postalCode":"25494","locality":"Borstel-Hohenraden","municipality":{"key":"01056009","name":"Borstel-Hohenraden","type":"Kreisangehörige_Gemeinde"},"district":{"key":"01056","name":"Pinneberg","type":"Kreis"},"federalState":{"key":"01","name":"Schleswig-Holstein"}},{"name":"Wiedenborstel","postalCode":"24613","locality":"Wiedenborstel","municipality":{"key":"01061111","name":"Wiedenborstel","type":"Kreisangehörige_Gemeinde"},"district":{"key":"01061","name":"Steinburg","type":"Kreis"},"federalState":{"key":"01","name":"Schleswig-Holstein"}},{"name":"Wiesengrund","postalCode":"25494","locality":"Borstel-Hohenraden","municipality":{"key":"01056009","name":"Borstel-Hohenraden","type":"Kreisangehörige_Gemeinde"},"district":{"key":"01056","name":"Pinneberg","type":"Kreis"},"federalState":{"key":"01","name":"Schleswig-Holstein"}},{"name":"Wiesenweg","postalCode":"27246","locality":"Borstel","municipality":{"key":"03251008","name":"Borstel","type":"Kreisangehörige_Gemeinde"},"district":{"key":"03251","name":"Diepholz","type":"Landkreis"},"federalState":{"key":"03","name":"Niedersachsen"}},{"name":"Wietensholz","postalCode":"27245","locality":"Bahrenborstel","municipality":{"key":"03251003","name":"Bahrenborstel","type":"Kreisangehörige_Gemeinde"},"district":{"key":"03251","name":"Diepholz","type":"Landkreis"},"federalState":{"key":"03","name":"Niedersachsen"}},{"name":"Wilhelm-Tönsing-Weg","postalCode":"27245","locality":"Bahrenborstel","municipality":{"key":"03251003","name":"Bahrenborstel","type":"Kreisangehörige_Gemeinde"},"district":{"key":"03251","name":"Diepholz","type":"Landkreis"},"federalState":{"key":"03","name":"Niedersachsen"}},{"name":"Wohldweg","postalCode":"25494","locality":"Borstel-Hohenraden","municipality":{"key":"01056009","name":"Borstel-Hohenraden","type":"Kreisangehörige_Gemeinde"},"district":{"key":"01056","name":"Pinneberg","type":"Kreis"},"federalState":{"key":"01","name":"Schleswig-Holstein"}},{"name":"Zollhausstr.","postalCode":"27246","locality":"Borstel","municipality":{"key":"03251008","name":"Borstel","type":"Kreisangehörige_Gemeinde"},"district":{"key":"03251","name":"Diepholz","type":"Landkreis"},"federalState":{"key":"03","name":"Niedersachsen"}},{"name":"Zum Hespeloh","postalCode":"27245","locality":"Bahrenborstel","municipality":{"key":"03251003","name":"Bahrenborstel","type":"Kreisangehörige_Gemeinde"},"district":{"key":"03251","name":"Diepholz","type":"Landkreis"},"federalState":{"key":"03","name":"Niedersachsen"}},]