[{"name":"Achter d' Muer","postalCode":"19309","locality":"Lenzen (Elbe)","municipality":{"key":"12070244","name":"Lenzen (Elbe), Stadt","type":"Stadt"},"district":{"key":"12070","name":"Prignitz","type":"Landkreis"},"federalState":{"key":"12","name":"Brandenburg"}},{"name":"Adam-Klein-Str.","postalCode":"90579","locality":"Langenzenn","municipality":{"key":"09573120","name":"Langenzenn, St","type":"Stadt"},"district":{"key":"09573","name":"Fürth","type":"Landkreis"},"federalState":{"key":"09","name":"Bayern"}},{"name":"Adlerstr.","postalCode":"90579","locality":"Langenzenn","municipality":{"key":"09573120","name":"Langenzenn, St","type":"Stadt"},"district":{"key":"09573","name":"Fürth","type":"Landkreis"},"federalState":{"key":"09","name":"Bayern"}},{"name":"Ahornweg","postalCode":"93173","locality":"Wenzenbach","municipality":{"key":"09375208","name":"Wenzenbach","type":"Kreisangehörige_Gemeinde"},"district":{"key":"09375","name":"Regensburg","type":"Landkreis"},"federalState":{"key":"09","name":"Bayern"}},{"name":"Akazienweg","postalCode":"93173","locality":"Wenzenbach","municipality":{"key":"09375208","name":"Wenzenbach","type":"Kreisangehörige_Gemeinde"},"district":{"key":"09375","name":"Regensburg","type":"Landkreis"},"federalState":{"key":"09","name":"Bayern"}},{"name":"Albrecht-Achilles-Str.","postalCode":"90579","locality":"Langenzenn","municipality":{"key":"09573120","name":"Langenzenn, St","type":"Stadt"},"district":{"key":"09573","name":"Fürth","type":"Landkreis"},"federalState":{"key":"09","name":"Bayern"}},{"name":"Albrecht-Dürer-Str.","postalCode":"90579","locality":"Langenzenn","municipality":{"key":"09573120","name":"Langenzenn, St","type":"Stadt"},"district":{"key":"09573","name":"Fürth","type":"Landkreis"},"federalState":{"key":"09","name":"Bayern"}},{"name":"Allensteiner Str.","postalCode":"90579","locality":"Langenzenn","municipality":{"key":"09573120","name":"Langenzenn, St","type":"Stadt"},"district":{"key":"09573","name":"Fürth","type":"Landkreis"},"federalState":{"key":"09","name":"Bayern"}},{"name":"Altbuchweg","postalCode":"90579","locality":"Langenzenn","municipality":{"key":"09573120","name":"Langenzenn, St","type":"Stadt"},"district":{"key":"09573","name":"Fürth","type":"Landkreis"},"federalState":{"key":"09","name":"Bayern"}},{"name":"Alte Hochstr.","postalCode":"90579","locality":"Langenzenn","municipality":{"key":"09573120","name":"Langenzenn, St","type":"Stadt"},"district":{"key":"09573","name":"Fürth","type":"Landkreis"},"federalState":{"key":"09","name":"Bayern"}},{"name":"Alte Loher Str.","postalCode":"90579","locality":"Langenzenn","municipality":{"key":"09573120","name":"Langenzenn, St","type":"Stadt"},"district":{"key":"09573","name":"Fürth","type":"Landkreis"},"federalState":{"key":"09","name":"Bayern"}},{"name":"Alte Lüneburger Bahn","postalCode":"19309","locality":"Lenzen (Elbe)","municipality":{"key":"12070244","name":"Lenzen (Elbe), Stadt","type":"Stadt"},"district":{"key":"12070","name":"Prignitz","type":"Landkreis"},"federalState":{"key":"12","name":"Brandenburg"}},{"name":"Altenkirchener Weg","postalCode":"57612","locality":"Helmenzen","municipality":{"key":"07132047","name":"Helmenzen","type":"Kreisangehörige_Gemeinde"},"district":{"key":"07132","name":"Altenkirchen (Westerwald)","type":"Landkreis"},"federalState":{"key":"07","name":"Rheinland-Pfalz"}},{"name":"Alter Schulweg","postalCode":"21279","locality":"Wenzendorf","municipality":{"key":"03353039","name":"Wenzendorf","type":"Kreisangehörige_Gemeinde"},"district":{"key":"03353","name":"Harburg","type":"Landkreis"},"federalState":{"key":"03","name":"Niedersachsen"}},{"name":"Alte Zennstr.","postalCode":"90579","locality":"Langenzenn","municipality":{"key":"09573120","name":"Langenzenn, St","type":"Stadt"},"district":{"key":"09573","name":"Fürth","type":"Landkreis"},"federalState":{"key":"09","name":"Bayern"}},{"name":"Am Bahndamm","postalCode":"19309","locality":"Lenzen (Elbe)","municipality":{"key":"12070244","name":"Lenzen (Elbe), Stadt","type":"Stadt"},"district":{"key":"12070","name":"Prignitz","type":"Landkreis"},"federalState":{"key":"12","name":"Brandenburg"}},{"name":"Am Bahndamm","postalCode":"93173","locality":"Wenzenbach","municipality":{"key":"09375208","name":"Wenzenbach","type":"Kreisangehörige_Gemeinde"},"district":{"key":"09375","name":"Regensburg","type":"Landkreis"},"federalState":{"key":"09","name":"Bayern"}},{"name":"Am Birket","postalCode":"93173","locality":"Wenzenbach","municipality":{"key":"09375208","name":"Wenzenbach","type":"Kreisangehörige_Gemeinde"},"district":{"key":"09375","name":"Regensburg","type":"Landkreis"},"federalState":{"key":"09","name":"Bayern"}},{"name":"Am Brink","postalCode":"19309","locality":"Lenzen (Elbe)","municipality":{"key":"12070244","name":"Lenzen (Elbe), Stadt","type":"Stadt"},"district":{"key":"12070","name":"Prignitz","type":"Landkreis"},"federalState":{"key":"12","name":"Brandenburg"}},{"name":"Am Dorfweiher","postalCode":"90579","locality":"Langenzenn","municipality":{"key":"09573120","name":"Langenzenn, St","type":"Stadt"},"district":{"key":"09573","name":"Fürth","type":"Landkreis"},"federalState":{"key":"09","name":"Bayern"}},{"name":"Am Drift","postalCode":"19309","locality":"Lenzen (Elbe)","municipality":{"key":"12070244","name":"Lenzen (Elbe), Stadt","type":"Stadt"},"district":{"key":"12070","name":"Prignitz","type":"Landkreis"},"federalState":{"key":"12","name":"Brandenburg"}},{"name":"Am Eichenwald","postalCode":"90579","locality":"Langenzenn","municipality":{"key":"09573120","name":"Langenzenn, St","type":"Stadt"},"district":{"key":"09573","name":"Fürth","type":"Landkreis"},"federalState":{"key":"09","name":"Bayern"}},{"name":"Am Fußenbühl","postalCode":"93173","locality":"Wenzenbach","municipality":{"key":"09375208","name":"Wenzenbach","type":"Kreisangehörige_Gemeinde"},"district":{"key":"09375","name":"Regensburg","type":"Landkreis"},"federalState":{"key":"09","name":"Bayern"}},{"name":"Am Gefängnishof","postalCode":"19309","locality":"Lenzen (Elbe)","municipality":{"key":"12070244","name":"Lenzen (Elbe), Stadt","type":"Stadt"},"district":{"key":"12070","name":"Prignitz","type":"Landkreis"},"federalState":{"key":"12","name":"Brandenburg"}},{"name":"Am Haberort","postalCode":"19309","locality":"Lenzen (Elbe)","municipality":{"key":"12070244","name":"Lenzen (Elbe), Stadt","type":"Stadt"},"district":{"key":"12070","name":"Prignitz","type":"Landkreis"},"federalState":{"key":"12","name":"Brandenburg"}},{"name":"Am Hang","postalCode":"90579","locality":"Langenzenn","municipality":{"key":"09573120","name":"Langenzenn, St","type":"Stadt"},"district":{"key":"09573","name":"Fürth","type":"Landkreis"},"federalState":{"key":"09","name":"Bayern"}},{"name":"Am Hang","postalCode":"93173","locality":"Wenzenbach","municipality":{"key":"09375208","name":"Wenzenbach","type":"Kreisangehörige_Gemeinde"},"district":{"key":"09375","name":"Regensburg","type":"Landkreis"},"federalState":{"key":"09","name":"Bayern"}},{"name":"Am Hochbehälter","postalCode":"93173","locality":"Wenzenbach","municipality":{"key":"09375208","name":"Wenzenbach","type":"Kreisangehörige_Gemeinde"},"district":{"key":"09375","name":"Regensburg","type":"Landkreis"},"federalState":{"key":"09","name":"Bayern"}},{"name":"Am Höllberg","postalCode":"93173","locality":"Wenzenbach","municipality":{"key":"09375208","name":"Wenzenbach","type":"Kreisangehörige_Gemeinde"},"district":{"key":"09375","name":"Regensburg","type":"Landkreis"},"federalState":{"key":"09","name":"Bayern"}},{"name":"Am Lankenberg","postalCode":"19309","locality":"Lenzen (Elbe)","municipality":{"key":"12070244","name":"Lenzen (Elbe), Stadt","type":"Stadt"},"district":{"key":"12070","name":"Prignitz","type":"Landkreis"},"federalState":{"key":"12","name":"Brandenburg"}},{"name":"Am Mühlrangen","postalCode":"90579","locality":"Langenzenn","municipality":{"key":"09573120","name":"Langenzenn, St","type":"Stadt"},"district":{"key":"09573","name":"Fürth","type":"Landkreis"},"federalState":{"key":"09","name":"Bayern"}},{"name":"Am Neuen Weg","postalCode":"90579","locality":"Langenzenn","municipality":{"key":"09573120","name":"Langenzenn, St","type":"Stadt"},"district":{"key":"09573","name":"Fürth","type":"Landkreis"},"federalState":{"key":"09","name":"Bayern"}},{"name":"Am Neuholz","postalCode":"90579","locality":"Langenzenn","municipality":{"key":"09573120","name":"Langenzenn, St","type":"Stadt"},"district":{"key":"09573","name":"Fürth","type":"Landkreis"},"federalState":{"key":"09","name":"Bayern"}},{"name":"Am Nordhang","postalCode":"93173","locality":"Wenzenbach","municipality":{"key":"09375208","name":"Wenzenbach","type":"Kreisangehörige_Gemeinde"},"district":{"key":"09375","name":"Regensburg","type":"Landkreis"},"federalState":{"key":"09","name":"Bayern"}},{"name":"Am Ölberg","postalCode":"93173","locality":"Wenzenbach","municipality":{"key":"09375208","name":"Wenzenbach","type":"Kreisangehörige_Gemeinde"},"district":{"key":"09375","name":"Regensburg","type":"Landkreis"},"federalState":{"key":"09","name":"Bayern"}},{"name":"Am Osthang","postalCode":"93173","locality":"Wenzenbach","municipality":{"key":"09375208","name":"Wenzenbach","type":"Kreisangehörige_Gemeinde"},"district":{"key":"09375","name":"Regensburg","type":"Landkreis"},"federalState":{"key":"09","name":"Bayern"}},{"name":"Am Pfarrgarten","postalCode":"19309","locality":"Lenzen (Elbe)","municipality":{"key":"12070244","name":"Lenzen (Elbe), Stadt","type":"Stadt"},"district":{"key":"12070","name":"Prignitz","type":"Landkreis"},"federalState":{"key":"12","name":"Brandenburg"}},{"name":"Am Roither Berg","postalCode":"93173","locality":"Wenzenbach","municipality":{"key":"09375208","name":"Wenzenbach","type":"Kreisangehörige_Gemeinde"},"district":{"key":"09375","name":"Regensburg","type":"Landkreis"},"federalState":{"key":"09","name":"Bayern"}},{"name":"Am Schäferstieg","postalCode":"21279","locality":"Wenzendorf","municipality":{"key":"03353039","name":"Wenzendorf","type":"Kreisangehörige_Gemeinde"},"district":{"key":"03353","name":"Harburg","type":"Landkreis"},"federalState":{"key":"03","name":"Niedersachsen"}},{"name":"Am Schindlfeld","postalCode":"93173","locality":"Wenzenbach","municipality":{"key":"09375208","name":"Wenzenbach","type":"Kreisangehörige_Gemeinde"},"district":{"key":"09375","name":"Regensburg","type":"Landkreis"},"federalState":{"key":"09","name":"Bayern"}},{"name":"Am Schloß","postalCode":"93173","locality":"Wenzenbach","municipality":{"key":"09375208","name":"Wenzenbach","type":"Kreisangehörige_Gemeinde"},"district":{"key":"09375","name":"Regensburg","type":"Landkreis"},"federalState":{"key":"09","name":"Bayern"}},{"name":"Am Schlossberg","postalCode":"93173","locality":"Wenzenbach","municipality":{"key":"09375208","name":"Wenzenbach","type":"Kreisangehörige_Gemeinde"},"district":{"key":"09375","name":"Regensburg","type":"Landkreis"},"federalState":{"key":"09","name":"Bayern"}},{"name":"Am Schönberg","postalCode":"93173","locality":"Wenzenbach","municipality":{"key":"09375208","name":"Wenzenbach","type":"Kreisangehörige_Gemeinde"},"district":{"key":"09375","name":"Regensburg","type":"Landkreis"},"federalState":{"key":"09","name":"Bayern"}},{"name":"Am Schulberg","postalCode":"21279","locality":"Wenzendorf","municipality":{"key":"03353039","name":"Wenzendorf","type":"Kreisangehörige_Gemeinde"},"district":{"key":"03353","name":"Harburg","type":"Landkreis"},"federalState":{"key":"03","name":"Niedersachsen"}},{"name":"Am See","postalCode":"23923","locality":"Menzendorf","municipality":{"key":"13074052","name":"Menzendorf","type":"Kreisangehörige_Gemeinde"},"district":{"key":"13074","name":"Nordwestmecklenburg","type":"Landkreis"},"federalState":{"key":"13","name":"Mecklenburg-Vorpommern"}},{"name":"Amselschlag","postalCode":"90579","locality":"Langenzenn","municipality":{"key":"09573120","name":"Langenzenn, St","type":"Stadt"},"district":{"key":"09573","name":"Fürth","type":"Landkreis"},"federalState":{"key":"09","name":"Bayern"}},{"name":"Amselweg","postalCode":"21279","locality":"Wenzendorf","municipality":{"key":"03353039","name":"Wenzendorf","type":"Kreisangehörige_Gemeinde"},"district":{"key":"03353","name":"Harburg","type":"Landkreis"},"federalState":{"key":"03","name":"Niedersachsen"}},{"name":"Amselweg","postalCode":"93173","locality":"Wenzenbach","municipality":{"key":"09375208","name":"Wenzenbach","type":"Kreisangehörige_Gemeinde"},"district":{"key":"09375","name":"Regensburg","type":"Landkreis"},"federalState":{"key":"09","name":"Bayern"}},{"name":"Am Sportplatz","postalCode":"23923","locality":"Menzendorf","municipality":{"key":"13074052","name":"Menzendorf","type":"Kreisangehörige_Gemeinde"},"district":{"key":"13074","name":"Nordwestmecklenburg","type":"Landkreis"},"federalState":{"key":"13","name":"Mecklenburg-Vorpommern"}},{"name":"Am Stadtweg","postalCode":"21279","locality":"Wenzendorf","municipality":{"key":"03353039","name":"Wenzendorf","type":"Kreisangehörige_Gemeinde"},"district":{"key":"03353","name":"Harburg","type":"Landkreis"},"federalState":{"key":"03","name":"Niedersachsen"}},{"name":"Bachstr.","postalCode":"54646","locality":"Enzen","municipality":{"key":"07232032","name":"Enzen","type":"Kreisangehörige_Gemeinde"},"district":{"key":"07232","name":"Eifelkreis Bitburg-Prüm","type":"Landkreis"},"federalState":{"key":"07","name":"Rheinland-Pfalz"}},{"name":"Bachweg","postalCode":"93173","locality":"Wenzenbach","municipality":{"key":"09375208","name":"Wenzenbach","type":"Kreisangehörige_Gemeinde"},"district":{"key":"09375","name":"Regensburg","type":"Landkreis"},"federalState":{"key":"09","name":"Bayern"}},{"name":"Badstr.","postalCode":"90579","locality":"Langenzenn","municipality":{"key":"09573120","name":"Langenzenn, St","type":"Stadt"},"district":{"key":"09573","name":"Fürth","type":"Landkreis"},"federalState":{"key":"09","name":"Bayern"}},{"name":"Bahnhofstr.","postalCode":"93173","locality":"Wenzenbach","municipality":{"key":"09375208","name":"Wenzenbach","type":"Kreisangehörige_Gemeinde"},"district":{"key":"09375","name":"Regensburg","type":"Landkreis"},"federalState":{"key":"09","name":"Bayern"}},{"name":"Bayernstr.","postalCode":"90579","locality":"Langenzenn","municipality":{"key":"09573120","name":"Langenzenn, St","type":"Stadt"},"district":{"key":"09573","name":"Fürth","type":"Landkreis"},"federalState":{"key":"09","name":"Bayern"}},{"name":"Bayerwaldstr.","postalCode":"93173","locality":"Wenzenbach","municipality":{"key":"09375208","name":"Wenzenbach","type":"Kreisangehörige_Gemeinde"},"district":{"key":"09375","name":"Regensburg","type":"Landkreis"},"federalState":{"key":"09","name":"Bayern"}},{"name":"Bayreuther Str.","postalCode":"90579","locality":"Langenzenn","municipality":{"key":"09573120","name":"Langenzenn, St","type":"Stadt"},"district":{"key":"09573","name":"Fürth","type":"Landkreis"},"federalState":{"key":"09","name":"Bayern"}},{"name":"Beckerberg","postalCode":"21279","locality":"Wenzendorf","municipality":{"key":"03353039","name":"Wenzendorf","type":"Kreisangehörige_Gemeinde"},"district":{"key":"03353","name":"Harburg","type":"Landkreis"},"federalState":{"key":"03","name":"Niedersachsen"}},{"name":"Beim Alten Hof","postalCode":"21279","locality":"Wenzendorf","municipality":{"key":"03353039","name":"Wenzendorf","type":"Kreisangehörige_Gemeinde"},"district":{"key":"03353","name":"Harburg","type":"Landkreis"},"federalState":{"key":"03","name":"Niedersachsen"}},{"name":"Bergstr.","postalCode":"19309","locality":"Lenzen (Elbe)","municipality":{"key":"12070244","name":"Lenzen (Elbe), Stadt","type":"Stadt"},"district":{"key":"12070","name":"Prignitz","type":"Landkreis"},"federalState":{"key":"12","name":"Brandenburg"}},{"name":"Bergstr.","postalCode":"90579","locality":"Langenzenn","municipality":{"key":"09573120","name":"Langenzenn, St","type":"Stadt"},"district":{"key":"09573","name":"Fürth","type":"Landkreis"},"federalState":{"key":"09","name":"Bayern"}},{"name":"Bergstr.","postalCode":"93173","locality":"Wenzenbach","municipality":{"key":"09375208","name":"Wenzenbach","type":"Kreisangehörige_Gemeinde"},"district":{"key":"09375","name":"Regensburg","type":"Landkreis"},"federalState":{"key":"09","name":"Bayern"}},{"name":"Berliner Str.","postalCode":"19309","locality":"Lenzen (Elbe)","municipality":{"key":"12070244","name":"Lenzen (Elbe), Stadt","type":"Stadt"},"district":{"key":"12070","name":"Prignitz","type":"Landkreis"},"federalState":{"key":"12","name":"Brandenburg"}},{"name":"Berliner Str.","postalCode":"90579","locality":"Langenzenn","municipality":{"key":"09573120","name":"Langenzenn, St","type":"Stadt"},"district":{"key":"09573","name":"Fürth","type":"Landkreis"},"federalState":{"key":"09","name":"Bayern"}},{"name":"Berliner Vorstadt","postalCode":"19309","locality":"Lenzen (Elbe)","municipality":{"key":"12070244","name":"Lenzen (Elbe), Stadt","type":"Stadt"},"district":{"key":"12070","name":"Prignitz","type":"Landkreis"},"federalState":{"key":"12","name":"Brandenburg"}},{"name":"Birkenhain","postalCode":"21279","locality":"Wenzendorf","municipality":{"key":"03353039","name":"Wenzendorf","type":"Kreisangehörige_Gemeinde"},"district":{"key":"03353","name":"Harburg","type":"Landkreis"},"federalState":{"key":"03","name":"Niedersachsen"}},{"name":"Birkenstr.","postalCode":"90579","locality":"Langenzenn","municipality":{"key":"09573120","name":"Langenzenn, St","type":"Stadt"},"district":{"key":"09573","name":"Fürth","type":"Landkreis"},"federalState":{"key":"09","name":"Bayern"}},{"name":"Birkenweg","postalCode":"19309","locality":"Lenzen (Elbe)","municipality":{"key":"12070244","name":"Lenzen (Elbe), Stadt","type":"Stadt"},"district":{"key":"12070","name":"Prignitz","type":"Landkreis"},"federalState":{"key":"12","name":"Brandenburg"}},{"name":"Birkenweg","postalCode":"93173","locality":"Wenzenbach","municipality":{"key":"09375208","name":"Wenzenbach","type":"Kreisangehörige_Gemeinde"},"district":{"key":"09375","name":"Regensburg","type":"Landkreis"},"federalState":{"key":"09","name":"Bayern"}},{"name":"Blumenstr.","postalCode":"90579","locality":"Langenzenn","municipality":{"key":"09573120","name":"Langenzenn, St","type":"Stadt"},"district":{"key":"09573","name":"Fürth","type":"Landkreis"},"federalState":{"key":"09","name":"Bayern"}},{"name":"Blütenstr.","postalCode":"90579","locality":"Langenzenn","municipality":{"key":"09573120","name":"Langenzenn, St","type":"Stadt"},"district":{"key":"09573","name":"Fürth","type":"Landkreis"},"federalState":{"key":"09","name":"Bayern"}},{"name":"Böhmerwaldstr.","postalCode":"93173","locality":"Wenzenbach","municipality":{"key":"09375208","name":"Wenzenbach","type":"Kreisangehörige_Gemeinde"},"district":{"key":"09375","name":"Regensburg","type":"Landkreis"},"federalState":{"key":"09","name":"Bayern"}},{"name":"Bornenweg","postalCode":"57612","locality":"Helmenzen","municipality":{"key":"07132047","name":"Helmenzen","type":"Kreisangehörige_Gemeinde"},"district":{"key":"07132","name":"Altenkirchen (Westerwald)","type":"Landkreis"},"federalState":{"key":"07","name":"Rheinland-Pfalz"}},{"name":"Brachweg","postalCode":"93173","locality":"Wenzenbach","municipality":{"key":"09375208","name":"Wenzenbach","type":"Kreisangehörige_Gemeinde"},"district":{"key":"09375","name":"Regensburg","type":"Landkreis"},"federalState":{"key":"09","name":"Bayern"}},{"name":"Brahmsstr.","postalCode":"93173","locality":"Wenzenbach","municipality":{"key":"09375208","name":"Wenzenbach","type":"Kreisangehörige_Gemeinde"},"district":{"key":"09375","name":"Regensburg","type":"Landkreis"},"federalState":{"key":"09","name":"Bayern"}},{"name":"Brandenburger Str.","postalCode":"90579","locality":"Langenzenn","municipality":{"key":"09573120","name":"Langenzenn, St","type":"Stadt"},"district":{"key":"09573","name":"Fürth","type":"Landkreis"},"federalState":{"key":"09","name":"Bayern"}},{"name":"Bräuweg","postalCode":"93173","locality":"Wenzenbach","municipality":{"key":"09375208","name":"Wenzenbach","type":"Kreisangehörige_Gemeinde"},"district":{"key":"09375","name":"Regensburg","type":"Landkreis"},"federalState":{"key":"09","name":"Bayern"}},{"name":"Bremer Str.","postalCode":"90579","locality":"Langenzenn","municipality":{"key":"09573120","name":"Langenzenn, St","type":"Stadt"},"district":{"key":"09573","name":"Fürth","type":"Landkreis"},"federalState":{"key":"09","name":"Bayern"}},{"name":"Breslauer Str.","postalCode":"90579","locality":"Langenzenn","municipality":{"key":"09573120","name":"Langenzenn, St","type":"Stadt"},"district":{"key":"09573","name":"Fürth","type":"Landkreis"},"federalState":{"key":"09","name":"Bayern"}},{"name":"Bronnespan","postalCode":"90579","locality":"Langenzenn","municipality":{"key":"09573120","name":"Langenzenn, St","type":"Stadt"},"district":{"key":"09573","name":"Fürth","type":"Landkreis"},"federalState":{"key":"09","name":"Bayern"}},{"name":"Brückenstr.","postalCode":"54646","locality":"Enzen","municipality":{"key":"07232032","name":"Enzen","type":"Kreisangehörige_Gemeinde"},"district":{"key":"07232","name":"Eifelkreis Bitburg-Prüm","type":"Landkreis"},"federalState":{"key":"07","name":"Rheinland-Pfalz"}},{"name":"Brunnenweg","postalCode":"90579","locality":"Langenzenn","municipality":{"key":"09573120","name":"Langenzenn, St","type":"Stadt"},"district":{"key":"09573","name":"Fürth","type":"Landkreis"},"federalState":{"key":"09","name":"Bayern"}},{"name":"Brunnweg","postalCode":"93173","locality":"Wenzenbach","municipality":{"key":"09375208","name":"Wenzenbach","type":"Kreisangehörige_Gemeinde"},"district":{"key":"09375","name":"Regensburg","type":"Landkreis"},"federalState":{"key":"09","name":"Bayern"}},{"name":"Buchenstr.","postalCode":"90579","locality":"Langenzenn","municipality":{"key":"09573120","name":"Langenzenn, St","type":"Stadt"},"district":{"key":"09573","name":"Fürth","type":"Landkreis"},"federalState":{"key":"09","name":"Bayern"}},{"name":"Buchenweg","postalCode":"93173","locality":"Wenzenbach","municipality":{"key":"09375208","name":"Wenzenbach","type":"Kreisangehörige_Gemeinde"},"district":{"key":"09375","name":"Regensburg","type":"Landkreis"},"federalState":{"key":"09","name":"Bayern"}},{"name":"Bullengang","postalCode":"19309","locality":"Lenzen (Elbe)","municipality":{"key":"12070244","name":"Lenzen (Elbe), Stadt","type":"Stadt"},"district":{"key":"12070","name":"Prignitz","type":"Landkreis"},"federalState":{"key":"12","name":"Brandenburg"}},{"name":"Bürgermeisterweg","postalCode":"21279","locality":"Wenzendorf","municipality":{"key":"03353039","name":"Wenzendorf","type":"Kreisangehörige_Gemeinde"},"district":{"key":"03353","name":"Harburg","type":"Landkreis"},"federalState":{"key":"03","name":"Niedersachsen"}},{"name":"Burggrafenhofer Str.","postalCode":"90579","locality":"Langenzenn","municipality":{"key":"09573120","name":"Langenzenn, St","type":"Stadt"},"district":{"key":"09573","name":"Fürth","type":"Landkreis"},"federalState":{"key":"09","name":"Bayern"}},{"name":"Burggrund","postalCode":"31073","locality":"Wenzen","municipality":{"key":"03255508","name":"Wenzen, gemfr. Gebiet","type":"Gemeindefreies_Gebiet_Unbewohnt"},"district":{"key":"03255","name":"Holzminden","type":"Landkreis"},"federalState":{"key":"03","name":"Niedersachsen"}},{"name":"Burgpark Lenzen","postalCode":"19309","locality":"Lenzen (Elbe)","municipality":{"key":"12070244","name":"Lenzen (Elbe), Stadt","type":"Stadt"},"district":{"key":"12070","name":"Prignitz","type":"Landkreis"},"federalState":{"key":"12","name":"Brandenburg"}},{"name":"Burgstr.","postalCode":"19309","locality":"Lenzen (Elbe)","municipality":{"key":"12070244","name":"Lenzen (Elbe), Stadt","type":"Stadt"},"district":{"key":"12070","name":"Prignitz","type":"Landkreis"},"federalState":{"key":"12","name":"Brandenburg"}},{"name":"Cadolzburger Weg","postalCode":"90579","locality":"Langenzenn","municipality":{"key":"09573120","name":"Langenzenn, St","type":"Stadt"},"district":{"key":"09573","name":"Fürth","type":"Landkreis"},"federalState":{"key":"09","name":"Bayern"}},{"name":"Chamerstr.","postalCode":"93173","locality":"Wenzenbach","municipality":{"key":"09375208","name":"Wenzenbach","type":"Kreisangehörige_Gemeinde"},"district":{"key":"09375","name":"Regensburg","type":"Landkreis"},"federalState":{"key":"09","name":"Bayern"}},{"name":"Chamer Str.","postalCode":"93173","locality":"Wenzenbach","municipality":{"key":"09375208","name":"Wenzenbach","type":"Kreisangehörige_Gemeinde"},"district":{"key":"09375","name":"Regensburg","type":"Landkreis"},"federalState":{"key":"09","name":"Bayern"}},{"name":"Coburger Str.","postalCode":"90579","locality":"Langenzenn","municipality":{"key":"09573120","name":"Langenzenn, St","type":"Stadt"},"district":{"key":"09573","name":"Fürth","type":"Landkreis"},"federalState":{"key":"09","name":"Bayern"}},{"name":"Dahlienweg","postalCode":"93173","locality":"Wenzenbach","municipality":{"key":"09375208","name":"Wenzenbach","type":"Kreisangehörige_Gemeinde"},"district":{"key":"09375","name":"Regensburg","type":"Landkreis"},"federalState":{"key":"09","name":"Bayern"}},{"name":"Danziger Str.","postalCode":"90579","locality":"Langenzenn","municipality":{"key":"09573120","name":"Langenzenn, St","type":"Stadt"},"district":{"key":"09573","name":"Fürth","type":"Landkreis"},"federalState":{"key":"09","name":"Bayern"}},{"name":"Deberndorfer Str.","postalCode":"90579","locality":"Langenzenn","municipality":{"key":"09573120","name":"Langenzenn, St","type":"Stadt"},"district":{"key":"09573","name":"Fürth","type":"Landkreis"},"federalState":{"key":"09","name":"Bayern"}},{"name":"Deelweg","postalCode":"31073","locality":"Wenzen","municipality":{"key":"03255508","name":"Wenzen, gemfr. Gebiet","type":"Gemeindefreies_Gebiet_Unbewohnt"},"district":{"key":"03255","name":"Holzminden","type":"Landkreis"},"federalState":{"key":"03","name":"Niedersachsen"}},{"name":"Denkmalplatz","postalCode":"90579","locality":"Langenzenn","municipality":{"key":"09573120","name":"Langenzenn, St","type":"Stadt"},"district":{"key":"09573","name":"Fürth","type":"Landkreis"},"federalState":{"key":"09","name":"Bayern"}},{"name":"Dillenbergstr.","postalCode":"90579","locality":"Langenzenn","municipality":{"key":"09573120","name":"Langenzenn, St","type":"Stadt"},"district":{"key":"09573","name":"Fürth","type":"Landkreis"},"federalState":{"key":"09","name":"Bayern"}},{"name":"Dorfstr.","postalCode":"19309","locality":"Lenzen (Elbe)","municipality":{"key":"12070244","name":"Lenzen (Elbe), Stadt","type":"Stadt"},"district":{"key":"12070","name":"Prignitz","type":"Landkreis"},"federalState":{"key":"12","name":"Brandenburg"}},{"name":"Dorfstr.","postalCode":"90579","locality":"Langenzenn","municipality":{"key":"09573120","name":"Langenzenn, St","type":"Stadt"},"district":{"key":"09573","name":"Fürth","type":"Landkreis"},"federalState":{"key":"09","name":"Bayern"}},{"name":"Dorfstr.","postalCode":"93173","locality":"Wenzenbach","municipality":{"key":"09375208","name":"Wenzenbach","type":"Kreisangehörige_Gemeinde"},"district":{"key":"09375","name":"Regensburg","type":"Landkreis"},"federalState":{"key":"09","name":"Bayern"}},{"name":"Dorfweg","postalCode":"23923","locality":"Menzendorf","municipality":{"key":"13074052","name":"Menzendorf","type":"Kreisangehörige_Gemeinde"},"district":{"key":"13074","name":"Nordwestmecklenburg","type":"Landkreis"},"federalState":{"key":"13","name":"Mecklenburg-Vorpommern"}},{"name":"Dresdner Str.","postalCode":"90579","locality":"Langenzenn","municipality":{"key":"09573120","name":"Langenzenn, St","type":"Stadt"},"district":{"key":"09573","name":"Fürth","type":"Landkreis"},"federalState":{"key":"09","name":"Bayern"}},{"name":"Drestedter Weg","postalCode":"21279","locality":"Wenzendorf","municipality":{"key":"03353039","name":"Wenzendorf","type":"Kreisangehörige_Gemeinde"},"district":{"key":"03353","name":"Harburg","type":"Landkreis"},"federalState":{"key":"03","name":"Niedersachsen"}},{"name":"Drosselstr.","postalCode":"90579","locality":"Langenzenn","municipality":{"key":"09573120","name":"Langenzenn, St","type":"Stadt"},"district":{"key":"09573","name":"Fürth","type":"Landkreis"},"federalState":{"key":"09","name":"Bayern"}},{"name":"Dürrnbucher Str.","postalCode":"90579","locality":"Langenzenn","municipality":{"key":"09573120","name":"Langenzenn, St","type":"Stadt"},"district":{"key":"09573","name":"Fürth","type":"Landkreis"},"federalState":{"key":"09","name":"Bayern"}},{"name":"Eckertsberg","postalCode":"90579","locality":"Langenzenn","municipality":{"key":"09573120","name":"Langenzenn, St","type":"Stadt"},"district":{"key":"09573","name":"Fürth","type":"Landkreis"},"federalState":{"key":"09","name":"Bayern"}},{"name":"Egerstr.","postalCode":"93173","locality":"Wenzenbach","municipality":{"key":"09375208","name":"Wenzenbach","type":"Kreisangehörige_Gemeinde"},"district":{"key":"09375","name":"Regensburg","type":"Landkreis"},"federalState":{"key":"09","name":"Bayern"}},{"name":"Eichenweg","postalCode":"90579","locality":"Langenzenn","municipality":{"key":"09573120","name":"Langenzenn, St","type":"Stadt"},"district":{"key":"09573","name":"Fürth","type":"Landkreis"},"federalState":{"key":"09","name":"Bayern"}},{"name":"Eichenweg","postalCode":"93173","locality":"Wenzenbach","municipality":{"key":"09375208","name":"Wenzenbach","type":"Kreisangehörige_Gemeinde"},"district":{"key":"09375","name":"Regensburg","type":"Landkreis"},"federalState":{"key":"09","name":"Bayern"}},{"name":"Eichholzstr.","postalCode":"90579","locality":"Langenzenn","municipality":{"key":"09573120","name":"Langenzenn, St","type":"Stadt"},"district":{"key":"09573","name":"Fürth","type":"Landkreis"},"federalState":{"key":"09","name":"Bayern"}},{"name":"Eimener Stieg","postalCode":"31073","locality":"Wenzen","municipality":{"key":"03255508","name":"Wenzen, gemfr. Gebiet","type":"Gemeindefreies_Gebiet_Unbewohnt"},"district":{"key":"03255","name":"Holzminden","type":"Landkreis"},"federalState":{"key":"03","name":"Niedersachsen"}},{"name":"Elbinger Str.","postalCode":"90579","locality":"Langenzenn","municipality":{"key":"09573120","name":"Langenzenn, St","type":"Stadt"},"district":{"key":"09573","name":"Fürth","type":"Landkreis"},"federalState":{"key":"09","name":"Bayern"}},{"name":"Elise-Hagen-Hain","postalCode":"19309","locality":"Lenzen (Elbe)","municipality":{"key":"12070244","name":"Lenzen (Elbe), Stadt","type":"Stadt"},"district":{"key":"12070","name":"Prignitz","type":"Landkreis"},"federalState":{"key":"12","name":"Brandenburg"}},{"name":"Elise-Lensing-Weg","postalCode":"19309","locality":"Lenzen (Elbe)","municipality":{"key":"12070244","name":"Lenzen (Elbe), Stadt","type":"Stadt"},"district":{"key":"12070","name":"Prignitz","type":"Landkreis"},"federalState":{"key":"12","name":"Brandenburg"}},{"name":"Enzianweg","postalCode":"93173","locality":"Wenzenbach","municipality":{"key":"09375208","name":"Wenzenbach","type":"Kreisangehörige_Gemeinde"},"district":{"key":"09375","name":"Regensburg","type":"Landkreis"},"federalState":{"key":"09","name":"Bayern"}},{"name":"Erlenstr.","postalCode":"90579","locality":"Langenzenn","municipality":{"key":"09573120","name":"Langenzenn, St","type":"Stadt"},"district":{"key":"09573","name":"Fürth","type":"Landkreis"},"federalState":{"key":"09","name":"Bayern"}},{"name":"Erlenweg","postalCode":"93173","locality":"Wenzenbach","municipality":{"key":"09375208","name":"Wenzenbach","type":"Kreisangehörige_Gemeinde"},"district":{"key":"09375","name":"Regensburg","type":"Landkreis"},"federalState":{"key":"09","name":"Bayern"}},{"name":"erster Heuweg","postalCode":"19309","locality":"Lenzen (Elbe)","municipality":{"key":"12070244","name":"Lenzen (Elbe), Stadt","type":"Stadt"},"district":{"key":"12070","name":"Prignitz","type":"Landkreis"},"federalState":{"key":"12","name":"Brandenburg"}},{"name":"Erzweg","postalCode":"93173","locality":"Wenzenbach","municipality":{"key":"09375208","name":"Wenzenbach","type":"Kreisangehörige_Gemeinde"},"district":{"key":"09375","name":"Regensburg","type":"Landkreis"},"federalState":{"key":"09","name":"Bayern"}},{"name":"Fabrikstr.","postalCode":"90579","locality":"Langenzenn","municipality":{"key":"09573120","name":"Langenzenn, St","type":"Stadt"},"district":{"key":"09573","name":"Fürth","type":"Landkreis"},"federalState":{"key":"09","name":"Bayern"}},{"name":"Fährhaus","postalCode":"19309","locality":"Lenzen (Elbe)","municipality":{"key":"12070244","name":"Lenzen (Elbe), Stadt","type":"Stadt"},"district":{"key":"12070","name":"Prignitz","type":"Landkreis"},"federalState":{"key":"12","name":"Brandenburg"}},{"name":"Falkenstr.","postalCode":"90579","locality":"Langenzenn","municipality":{"key":"09573120","name":"Langenzenn, St","type":"Stadt"},"district":{"key":"09573","name":"Fürth","type":"Landkreis"},"federalState":{"key":"09","name":"Bayern"}},{"name":"Farrnbachstr.","postalCode":"90579","locality":"Langenzenn","municipality":{"key":"09573120","name":"Langenzenn, St","type":"Stadt"},"district":{"key":"09573","name":"Fürth","type":"Landkreis"},"federalState":{"key":"09","name":"Bayern"}},{"name":"Fichtelgebirgstr.","postalCode":"93173","locality":"Wenzenbach","municipality":{"key":"09375208","name":"Wenzenbach","type":"Kreisangehörige_Gemeinde"},"district":{"key":"09375","name":"Regensburg","type":"Landkreis"},"federalState":{"key":"09","name":"Bayern"}},{"name":"Fichtenstr.","postalCode":"90579","locality":"Langenzenn","municipality":{"key":"09573120","name":"Langenzenn, St","type":"Stadt"},"district":{"key":"09573","name":"Fürth","type":"Landkreis"},"federalState":{"key":"09","name":"Bayern"}},{"name":"Fichtenweg","postalCode":"93173","locality":"Wenzenbach","municipality":{"key":"09375208","name":"Wenzenbach","type":"Kreisangehörige_Gemeinde"},"district":{"key":"09375","name":"Regensburg","type":"Landkreis"},"federalState":{"key":"09","name":"Bayern"}},{"name":"Finkenbergstr.","postalCode":"19309","locality":"Lenzen (Elbe)","municipality":{"key":"12070244","name":"Lenzen (Elbe), Stadt","type":"Stadt"},"district":{"key":"12070","name":"Prignitz","type":"Landkreis"},"federalState":{"key":"12","name":"Brandenburg"}},{"name":"Finkenschlag","postalCode":"90579","locality":"Langenzenn","municipality":{"key":"09573120","name":"Langenzenn, St","type":"Stadt"},"district":{"key":"09573","name":"Fürth","type":"Landkreis"},"federalState":{"key":"09","name":"Bayern"}},{"name":"Finkenweg","postalCode":"93173","locality":"Wenzenbach","municipality":{"key":"09375208","name":"Wenzenbach","type":"Kreisangehörige_Gemeinde"},"district":{"key":"09375","name":"Regensburg","type":"Landkreis"},"federalState":{"key":"09","name":"Bayern"}},{"name":"Fliederstr.","postalCode":"90579","locality":"Langenzenn","municipality":{"key":"09573120","name":"Langenzenn, St","type":"Stadt"},"district":{"key":"09573","name":"Fürth","type":"Landkreis"},"federalState":{"key":"09","name":"Bayern"}},{"name":"Florianweg","postalCode":"93173","locality":"Wenzenbach","municipality":{"key":"09375208","name":"Wenzenbach","type":"Kreisangehörige_Gemeinde"},"district":{"key":"09375","name":"Regensburg","type":"Landkreis"},"federalState":{"key":"09","name":"Bayern"}},{"name":"Flurstr.","postalCode":"90579","locality":"Langenzenn","municipality":{"key":"09573120","name":"Langenzenn, St","type":"Stadt"},"district":{"key":"09573","name":"Fürth","type":"Landkreis"},"federalState":{"key":"09","name":"Bayern"}},{"name":"Flurweg","postalCode":"93173","locality":"Wenzenbach","municipality":{"key":"09375208","name":"Wenzenbach","type":"Kreisangehörige_Gemeinde"},"district":{"key":"09375","name":"Regensburg","type":"Landkreis"},"federalState":{"key":"09","name":"Bayern"}},{"name":"Flutstr.","postalCode":"19309","locality":"Lenzen (Elbe)","municipality":{"key":"12070244","name":"Lenzen (Elbe), Stadt","type":"Stadt"},"district":{"key":"12070","name":"Prignitz","type":"Landkreis"},"federalState":{"key":"12","name":"Brandenburg"}},{"name":"Föhrenweg","postalCode":"93173","locality":"Wenzenbach","municipality":{"key":"09375208","name":"Wenzenbach","type":"Kreisangehörige_Gemeinde"},"district":{"key":"09375","name":"Regensburg","type":"Landkreis"},"federalState":{"key":"09","name":"Bayern"}},{"name":"Forstacker","postalCode":"93173","locality":"Wenzenbach","municipality":{"key":"09375208","name":"Wenzenbach","type":"Kreisangehörige_Gemeinde"},"district":{"key":"09375","name":"Regensburg","type":"Landkreis"},"federalState":{"key":"09","name":"Bayern"}},{"name":"Forststr.","postalCode":"90579","locality":"Langenzenn","municipality":{"key":"09573120","name":"Langenzenn, St","type":"Stadt"},"district":{"key":"09573","name":"Fürth","type":"Landkreis"},"federalState":{"key":"09","name":"Bayern"}},{"name":"Frankenstr.","postalCode":"90579","locality":"Langenzenn","municipality":{"key":"09573120","name":"Langenzenn, St","type":"Stadt"},"district":{"key":"09573","name":"Fürth","type":"Landkreis"},"federalState":{"key":"09","name":"Bayern"}},{"name":"Frauenholzstr.","postalCode":"93173","locality":"Wenzenbach","municipality":{"key":"09375208","name":"Wenzenbach","type":"Kreisangehörige_Gemeinde"},"district":{"key":"09375","name":"Regensburg","type":"Landkreis"},"federalState":{"key":"09","name":"Bayern"}},{"name":"Friedrich-Ebert-Str.","postalCode":"90579","locality":"Langenzenn","municipality":{"key":"09573120","name":"Langenzenn, St","type":"Stadt"},"district":{"key":"09573","name":"Fürth","type":"Landkreis"},"federalState":{"key":"09","name":"Bayern"}},{"name":"Friedrich-Ludwig-Jahn-Str.","postalCode":"19309","locality":"Lenzen (Elbe)","municipality":{"key":"12070244","name":"Lenzen (Elbe), Stadt","type":"Stadt"},"district":{"key":"12070","name":"Prignitz","type":"Landkreis"},"federalState":{"key":"12","name":"Brandenburg"}},{"name":"Frundsbergallee","postalCode":"93173","locality":"Wenzenbach","municipality":{"key":"09375208","name":"Wenzenbach","type":"Kreisangehörige_Gemeinde"},"district":{"key":"09375","name":"Regensburg","type":"Landkreis"},"federalState":{"key":"09","name":"Bayern"}},{"name":"Fuchsstr.","postalCode":"90579","locality":"Langenzenn","municipality":{"key":"09573120","name":"Langenzenn, St","type":"Stadt"},"district":{"key":"09573","name":"Fürth","type":"Landkreis"},"federalState":{"key":"09","name":"Bayern"}},{"name":"Führsamweg","postalCode":"93173","locality":"Wenzenbach","municipality":{"key":"09375208","name":"Wenzenbach","type":"Kreisangehörige_Gemeinde"},"district":{"key":"09375","name":"Regensburg","type":"Landkreis"},"federalState":{"key":"09","name":"Bayern"}},{"name":"Fürther Str.","postalCode":"90579","locality":"Langenzenn","municipality":{"key":"09573120","name":"Langenzenn, St","type":"Stadt"},"district":{"key":"09573","name":"Fürth","type":"Landkreis"},"federalState":{"key":"09","name":"Bayern"}},{"name":"Gambachstr.","postalCode":"93173","locality":"Wenzenbach","municipality":{"key":"09375208","name":"Wenzenbach","type":"Kreisangehörige_Gemeinde"},"district":{"key":"09375","name":"Regensburg","type":"Landkreis"},"federalState":{"key":"09","name":"Bayern"}},{"name":"Gartenfeld","postalCode":"93173","locality":"Wenzenbach","municipality":{"key":"09375208","name":"Wenzenbach","type":"Kreisangehörige_Gemeinde"},"district":{"key":"09375","name":"Regensburg","type":"Landkreis"},"federalState":{"key":"09","name":"Bayern"}},{"name":"Gartenstr.","postalCode":"90579","locality":"Langenzenn","municipality":{"key":"09573120","name":"Langenzenn, St","type":"Stadt"},"district":{"key":"09573","name":"Fürth","type":"Landkreis"},"federalState":{"key":"09","name":"Bayern"}},{"name":"Gartenstr.","postalCode":"93173","locality":"Wenzenbach","municipality":{"key":"09375208","name":"Wenzenbach","type":"Kreisangehörige_Gemeinde"},"district":{"key":"09375","name":"Regensburg","type":"Landkreis"},"federalState":{"key":"09","name":"Bayern"}},{"name":"Gartenweg","postalCode":"57612","locality":"Helmenzen","municipality":{"key":"07132047","name":"Helmenzen","type":"Kreisangehörige_Gemeinde"},"district":{"key":"07132","name":"Altenkirchen (Westerwald)","type":"Landkreis"},"federalState":{"key":"07","name":"Rheinland-Pfalz"}},{"name":"Gleiwitzer Str.","postalCode":"90579","locality":"Langenzenn","municipality":{"key":"09573120","name":"Langenzenn, St","type":"Stadt"},"district":{"key":"09573","name":"Fürth","type":"Landkreis"},"federalState":{"key":"09","name":"Bayern"}},{"name":"Glogauer Str.","postalCode":"90579","locality":"Langenzenn","municipality":{"key":"09573120","name":"Langenzenn, St","type":"Stadt"},"district":{"key":"09573","name":"Fürth","type":"Landkreis"},"federalState":{"key":"09","name":"Bayern"}},{"name":"Goethestr.","postalCode":"93173","locality":"Wenzenbach","municipality":{"key":"09375208","name":"Wenzenbach","type":"Kreisangehörige_Gemeinde"},"district":{"key":"09375","name":"Regensburg","type":"Landkreis"},"federalState":{"key":"09","name":"Bayern"}},{"name":"Görlitzer Str.","postalCode":"90579","locality":"Langenzenn","municipality":{"key":"09573120","name":"Langenzenn, St","type":"Stadt"},"district":{"key":"09573","name":"Fürth","type":"Landkreis"},"federalState":{"key":"09","name":"Bayern"}},{"name":"Gräfenweg","postalCode":"90579","locality":"Langenzenn","municipality":{"key":"09573120","name":"Langenzenn, St","type":"Stadt"},"district":{"key":"09573","name":"Fürth","type":"Landkreis"},"federalState":{"key":"09","name":"Bayern"}},{"name":"Greimersdorfer Weg","postalCode":"90579","locality":"Langenzenn","municipality":{"key":"09573120","name":"Langenzenn, St","type":"Stadt"},"district":{"key":"09573","name":"Fürth","type":"Landkreis"},"federalState":{"key":"09","name":"Bayern"}},{"name":"Grünstr.","postalCode":"90579","locality":"Langenzenn","municipality":{"key":"09573120","name":"Langenzenn, St","type":"Stadt"},"district":{"key":"09573","name":"Fürth","type":"Landkreis"},"federalState":{"key":"09","name":"Bayern"}},{"name":"Gustav-Adolf-Str.","postalCode":"90579","locality":"Langenzenn","municipality":{"key":"09573120","name":"Langenzenn, St","type":"Stadt"},"district":{"key":"09573","name":"Fürth","type":"Landkreis"},"federalState":{"key":"09","name":"Bayern"}},{"name":"Gutsweg","postalCode":"93173","locality":"Wenzenbach","municipality":{"key":"09375208","name":"Wenzenbach","type":"Kreisangehörige_Gemeinde"},"district":{"key":"09375","name":"Regensburg","type":"Landkreis"},"federalState":{"key":"09","name":"Bayern"}},{"name":"Hagen","postalCode":"19309","locality":"Lenzen (Elbe)","municipality":{"key":"12070244","name":"Lenzen (Elbe), Stadt","type":"Stadt"},"district":{"key":"12070","name":"Prignitz","type":"Landkreis"},"federalState":{"key":"12","name":"Brandenburg"}},{"name":"Hagenmühlweg","postalCode":"90579","locality":"Langenzenn","municipality":{"key":"09573120","name":"Langenzenn, St","type":"Stadt"},"district":{"key":"09573","name":"Fürth","type":"Landkreis"},"federalState":{"key":"09","name":"Bayern"}},{"name":"Halsdorfer Str.","postalCode":"54646","locality":"Enzen","municipality":{"key":"07232032","name":"Enzen","type":"Kreisangehörige_Gemeinde"},"district":{"key":"07232","name":"Eifelkreis Bitburg-Prüm","type":"Landkreis"},"federalState":{"key":"07","name":"Rheinland-Pfalz"}},{"name":"Hamburger Str.","postalCode":"19309","locality":"Lenzen (Elbe)","municipality":{"key":"12070244","name":"Lenzen (Elbe), Stadt","type":"Stadt"},"district":{"key":"12070","name":"Prignitz","type":"Landkreis"},"federalState":{"key":"12","name":"Brandenburg"}},{"name":"Hamburger Str.","postalCode":"90579","locality":"Langenzenn","municipality":{"key":"09573120","name":"Langenzenn, St","type":"Stadt"},"district":{"key":"09573","name":"Fürth","type":"Landkreis"},"federalState":{"key":"09","name":"Bayern"}},{"name":"Hamburger Torstr.","postalCode":"19309","locality":"Lenzen (Elbe)","municipality":{"key":"12070244","name":"Lenzen (Elbe), Stadt","type":"Stadt"},"district":{"key":"12070","name":"Prignitz","type":"Landkreis"},"federalState":{"key":"12","name":"Brandenburg"}},{"name":"Hammermühlweg","postalCode":"90579","locality":"Langenzenn","municipality":{"key":"09573120","name":"Langenzenn, St","type":"Stadt"},"district":{"key":"09573","name":"Fürth","type":"Landkreis"},"federalState":{"key":"09","name":"Bayern"}},{"name":"Hangstr.","postalCode":"93173","locality":"Wenzenbach","municipality":{"key":"09375208","name":"Wenzenbach","type":"Kreisangehörige_Gemeinde"},"district":{"key":"09375","name":"Regensburg","type":"Landkreis"},"federalState":{"key":"09","name":"Bayern"}},{"name":"Hans-Sachs-Str.","postalCode":"90579","locality":"Langenzenn","municipality":{"key":"09573120","name":"Langenzenn, St","type":"Stadt"},"district":{"key":"09573","name":"Fürth","type":"Landkreis"},"federalState":{"key":"09","name":"Bayern"}},{"name":"Hardgraben","postalCode":"90579","locality":"Langenzenn","municipality":{"key":"09573120","name":"Langenzenn, St","type":"Stadt"},"district":{"key":"09573","name":"Fürth","type":"Landkreis"},"federalState":{"key":"09","name":"Bayern"}},{"name":"Haselweg","postalCode":"93173","locality":"Wenzenbach","municipality":{"key":"09375208","name":"Wenzenbach","type":"Kreisangehörige_Gemeinde"},"district":{"key":"09375","name":"Regensburg","type":"Landkreis"},"federalState":{"key":"09","name":"Bayern"}},{"name":"Hasenweg","postalCode":"90579","locality":"Langenzenn","municipality":{"key":"09573120","name":"Langenzenn, St","type":"Stadt"},"district":{"key":"09573","name":"Fürth","type":"Landkreis"},"federalState":{"key":"09","name":"Bayern"}},{"name":"Hauptstr.","postalCode":"23923","locality":"Menzendorf","municipality":{"key":"13074052","name":"Menzendorf","type":"Kreisangehörige_Gemeinde"},"district":{"key":"13074","name":"Nordwestmecklenburg","type":"Landkreis"},"federalState":{"key":"13","name":"Mecklenburg-Vorpommern"}},{"name":"Hauptstr.","postalCode":"54646","locality":"Enzen","municipality":{"key":"07232032","name":"Enzen","type":"Kreisangehörige_Gemeinde"},"district":{"key":"07232","name":"Eifelkreis Bitburg-Prüm","type":"Landkreis"},"federalState":{"key":"07","name":"Rheinland-Pfalz"}},{"name":"Hauptstr.","postalCode":"93173","locality":"Wenzenbach","municipality":{"key":"09375208","name":"Wenzenbach","type":"Kreisangehörige_Gemeinde"},"district":{"key":"09375","name":"Regensburg","type":"Landkreis"},"federalState":{"key":"09","name":"Bayern"}},{"name":"Hauptwache","postalCode":"19309","locality":"Lenzen (Elbe)","municipality":{"key":"12070244","name":"Lenzen (Elbe), Stadt","type":"Stadt"},"district":{"key":"12070","name":"Prignitz","type":"Landkreis"},"federalState":{"key":"12","name":"Brandenburg"}},{"name":"Hausener Weg","postalCode":"90579","locality":"Langenzenn","municipality":{"key":"09573120","name":"Langenzenn, St","type":"Stadt"},"district":{"key":"09573","name":"Fürth","type":"Landkreis"},"federalState":{"key":"09","name":"Bayern"}},{"name":"Hauzensteiner Str.","postalCode":"93173","locality":"Wenzenbach","municipality":{"key":"09375208","name":"Wenzenbach","type":"Kreisangehörige_Gemeinde"},"district":{"key":"09375","name":"Regensburg","type":"Landkreis"},"federalState":{"key":"09","name":"Bayern"}},{"name":"Haydnstr.","postalCode":"93173","locality":"Wenzenbach","municipality":{"key":"09375208","name":"Wenzenbach","type":"Kreisangehörige_Gemeinde"},"district":{"key":"09375","name":"Regensburg","type":"Landkreis"},"federalState":{"key":"09","name":"Bayern"}},{"name":"Heiglbauerweg","postalCode":"93173","locality":"Wenzenbach","municipality":{"key":"09375208","name":"Wenzenbach","type":"Kreisangehörige_Gemeinde"},"district":{"key":"09375","name":"Regensburg","type":"Landkreis"},"federalState":{"key":"09","name":"Bayern"}},{"name":"Helmenzer Weg","postalCode":"57612","locality":"Helmenzen","municipality":{"key":"07132047","name":"Helmenzen","type":"Kreisangehörige_Gemeinde"},"district":{"key":"07132","name":"Altenkirchen (Westerwald)","type":"Landkreis"},"federalState":{"key":"07","name":"Rheinland-Pfalz"}},{"name":"Hilgermannstr.","postalCode":"19309","locality":"Lenzen (Elbe)","municipality":{"key":"12070244","name":"Lenzen (Elbe), Stadt","type":"Stadt"},"district":{"key":"12070","name":"Prignitz","type":"Landkreis"},"federalState":{"key":"12","name":"Brandenburg"}},{"name":"Hindenburgstr.","postalCode":"90579","locality":"Langenzenn","municipality":{"key":"09573120","name":"Langenzenn, St","type":"Stadt"},"district":{"key":"09573","name":"Fürth","type":"Landkreis"},"federalState":{"key":"09","name":"Bayern"}},{"name":"Hirschberger Str.","postalCode":"90579","locality":"Langenzenn","municipality":{"key":"09573120","name":"Langenzenn, St","type":"Stadt"},"district":{"key":"09573","name":"Fürth","type":"Landkreis"},"federalState":{"key":"09","name":"Bayern"}},{"name":"Hochstr.","postalCode":"90579","locality":"Langenzenn","municipality":{"key":"09573120","name":"Langenzenn, St","type":"Stadt"},"district":{"key":"09573","name":"Fürth","type":"Landkreis"},"federalState":{"key":"09","name":"Bayern"}},{"name":"Hochweg","postalCode":"93173","locality":"Wenzenbach","municipality":{"key":"09375208","name":"Wenzenbach","type":"Kreisangehörige_Gemeinde"},"district":{"key":"09375","name":"Regensburg","type":"Landkreis"},"federalState":{"key":"09","name":"Bayern"}},{"name":"Hofweg","postalCode":"57612","locality":"Helmenzen","municipality":{"key":"07132047","name":"Helmenzen","type":"Kreisangehörige_Gemeinde"},"district":{"key":"07132","name":"Altenkirchen (Westerwald)","type":"Landkreis"},"federalState":{"key":"07","name":"Rheinland-Pfalz"}},{"name":"Hohenbergweg","postalCode":"90579","locality":"Langenzenn","municipality":{"key":"09573120","name":"Langenzenn, St","type":"Stadt"},"district":{"key":"09573","name":"Fürth","type":"Landkreis"},"federalState":{"key":"09","name":"Bayern"}},{"name":"Hohle Str.","postalCode":"21279","locality":"Wenzendorf","municipality":{"key":"03353039","name":"Wenzendorf","type":"Kreisangehörige_Gemeinde"},"district":{"key":"03353","name":"Harburg","type":"Landkreis"},"federalState":{"key":"03","name":"Niedersachsen"}},{"name":"Hohlweg","postalCode":"57612","locality":"Helmenzen","municipality":{"key":"07132047","name":"Helmenzen","type":"Kreisangehörige_Gemeinde"},"district":{"key":"07132","name":"Altenkirchen (Westerwald)","type":"Landkreis"},"federalState":{"key":"07","name":"Rheinland-Pfalz"}},{"name":"Höllenberg","postalCode":"90579","locality":"Langenzenn","municipality":{"key":"09573120","name":"Langenzenn, St","type":"Stadt"},"district":{"key":"09573","name":"Fürth","type":"Landkreis"},"federalState":{"key":"09","name":"Bayern"}},{"name":"Hollenstedter Str.","postalCode":"21279","locality":"Wenzendorf","municipality":{"key":"03353039","name":"Wenzendorf","type":"Kreisangehörige_Gemeinde"},"district":{"key":"03353","name":"Harburg","type":"Landkreis"},"federalState":{"key":"03","name":"Niedersachsen"}},{"name":"Holzbreiten","postalCode":"93173","locality":"Wenzenbach","municipality":{"key":"09375208","name":"Wenzenbach","type":"Kreisangehörige_Gemeinde"},"district":{"key":"09375","name":"Regensburg","type":"Landkreis"},"federalState":{"key":"09","name":"Bayern"}},{"name":"Hölzlhofstr.","postalCode":"93173","locality":"Wenzenbach","municipality":{"key":"09375208","name":"Wenzenbach","type":"Kreisangehörige_Gemeinde"},"district":{"key":"09375","name":"Regensburg","type":"Landkreis"},"federalState":{"key":"09","name":"Bayern"}},{"name":"Hopfenstr.","postalCode":"90579","locality":"Langenzenn","municipality":{"key":"09573120","name":"Langenzenn, St","type":"Stadt"},"district":{"key":"09573","name":"Fürth","type":"Landkreis"},"federalState":{"key":"09","name":"Bayern"}},{"name":"Hubertusstr.","postalCode":"90579","locality":"Langenzenn","municipality":{"key":"09573120","name":"Langenzenn, St","type":"Stadt"},"district":{"key":"09573","name":"Fürth","type":"Landkreis"},"federalState":{"key":"09","name":"Bayern"}},{"name":"Hügelauweg","postalCode":"90579","locality":"Langenzenn","municipality":{"key":"09573120","name":"Langenzenn, St","type":"Stadt"},"district":{"key":"09573","name":"Fürth","type":"Landkreis"},"federalState":{"key":"09","name":"Bayern"}},{"name":"Hünenburgweg","postalCode":"31073","locality":"Wenzen","municipality":{"key":"03255508","name":"Wenzen, gemfr. Gebiet","type":"Gemeindefreies_Gebiet_Unbewohnt"},"district":{"key":"03255","name":"Holzminden","type":"Landkreis"},"federalState":{"key":"03","name":"Niedersachsen"}},{"name":"Hüttenstr.","postalCode":"93173","locality":"Wenzenbach","municipality":{"key":"09375208","name":"Wenzenbach","type":"Kreisangehörige_Gemeinde"},"district":{"key":"09375","name":"Regensburg","type":"Landkreis"},"federalState":{"key":"09","name":"Bayern"}},{"name":"Im Gründl","postalCode":"90579","locality":"Langenzenn","municipality":{"key":"09573120","name":"Langenzenn, St","type":"Stadt"},"district":{"key":"09573","name":"Fürth","type":"Landkreis"},"federalState":{"key":"09","name":"Bayern"}},{"name":"Im Heiter","postalCode":"57612","locality":"Helmenzen","municipality":{"key":"07132047","name":"Helmenzen","type":"Kreisangehörige_Gemeinde"},"district":{"key":"07132","name":"Altenkirchen (Westerwald)","type":"Landkreis"},"federalState":{"key":"07","name":"Rheinland-Pfalz"}},{"name":"Imhofstr.","postalCode":"90579","locality":"Langenzenn","municipality":{"key":"09573120","name":"Langenzenn, St","type":"Stadt"},"district":{"key":"09573","name":"Fürth","type":"Landkreis"},"federalState":{"key":"09","name":"Bayern"}},{"name":"Im Löhrsgarten","postalCode":"57612","locality":"Helmenzen","municipality":{"key":"07132047","name":"Helmenzen","type":"Kreisangehörige_Gemeinde"},"district":{"key":"07132","name":"Altenkirchen (Westerwald)","type":"Landkreis"},"federalState":{"key":"07","name":"Rheinland-Pfalz"}},{"name":"Im Stückgarten","postalCode":"57612","locality":"Helmenzen","municipality":{"key":"07132047","name":"Helmenzen","type":"Kreisangehörige_Gemeinde"},"district":{"key":"07132","name":"Altenkirchen (Westerwald)","type":"Landkreis"},"federalState":{"key":"07","name":"Rheinland-Pfalz"}},{"name":"Im Weihertal","postalCode":"93173","locality":"Wenzenbach","municipality":{"key":"09375208","name":"Wenzenbach","type":"Kreisangehörige_Gemeinde"},"district":{"key":"09375","name":"Regensburg","type":"Landkreis"},"federalState":{"key":"09","name":"Bayern"}},{"name":"In den Büchen","postalCode":"21279","locality":"Wenzendorf","municipality":{"key":"03353039","name":"Wenzendorf","type":"Kreisangehörige_Gemeinde"},"district":{"key":"03353","name":"Harburg","type":"Landkreis"},"federalState":{"key":"03","name":"Niedersachsen"}},{"name":"In den Gärten","postalCode":"57612","locality":"Helmenzen","municipality":{"key":"07132047","name":"Helmenzen","type":"Kreisangehörige_Gemeinde"},"district":{"key":"07132","name":"Altenkirchen (Westerwald)","type":"Landkreis"},"federalState":{"key":"07","name":"Rheinland-Pfalz"}},{"name":"Industriestr.","postalCode":"90579","locality":"Langenzenn","municipality":{"key":"09573120","name":"Langenzenn, St","type":"Stadt"},"district":{"key":"09573","name":"Fürth","type":"Landkreis"},"federalState":{"key":"09","name":"Bayern"}},{"name":"Irlweg","postalCode":"93173","locality":"Wenzenbach","municipality":{"key":"09375208","name":"Wenzenbach","type":"Kreisangehörige_Gemeinde"},"district":{"key":"09375","name":"Regensburg","type":"Landkreis"},"federalState":{"key":"09","name":"Bayern"}},{"name":"Jägersteig","postalCode":"93173","locality":"Wenzenbach","municipality":{"key":"09375208","name":"Wenzenbach","type":"Kreisangehörige_Gemeinde"},"district":{"key":"09375","name":"Regensburg","type":"Landkreis"},"federalState":{"key":"09","name":"Bayern"}},{"name":"Jägerweg","postalCode":"93173","locality":"Wenzenbach","municipality":{"key":"09375208","name":"Wenzenbach","type":"Kreisangehörige_Gemeinde"},"district":{"key":"09375","name":"Regensburg","type":"Landkreis"},"federalState":{"key":"09","name":"Bayern"}},{"name":"Jahnweg","postalCode":"93173","locality":"Wenzenbach","municipality":{"key":"09375208","name":"Wenzenbach","type":"Kreisangehörige_Gemeinde"},"district":{"key":"09375","name":"Regensburg","type":"Landkreis"},"federalState":{"key":"09","name":"Bayern"}},{"name":"Josefstr.","postalCode":"93173","locality":"Wenzenbach","municipality":{"key":"09375208","name":"Wenzenbach","type":"Kreisangehörige_Gemeinde"},"district":{"key":"09375","name":"Regensburg","type":"Landkreis"},"federalState":{"key":"09","name":"Bayern"}},{"name":"Kapellenweg","postalCode":"93173","locality":"Wenzenbach","municipality":{"key":"09375208","name":"Wenzenbach","type":"Kreisangehörige_Gemeinde"},"district":{"key":"09375","name":"Regensburg","type":"Landkreis"},"federalState":{"key":"09","name":"Bayern"}},{"name":"Karlsbader Str.","postalCode":"90579","locality":"Langenzenn","municipality":{"key":"09573120","name":"Langenzenn, St","type":"Stadt"},"district":{"key":"09573","name":"Fürth","type":"Landkreis"},"federalState":{"key":"09","name":"Bayern"}},{"name":"Karstädter Str.","postalCode":"19309","locality":"Lenzen (Elbe)","municipality":{"key":"12070244","name":"Lenzen (Elbe), Stadt","type":"Stadt"},"district":{"key":"12070","name":"Prignitz","type":"Landkreis"},"federalState":{"key":"12","name":"Brandenburg"}},{"name":"Kastanienallee","postalCode":"19309","locality":"Lenzen (Elbe)","municipality":{"key":"12070244","name":"Lenzen (Elbe), Stadt","type":"Stadt"},"district":{"key":"12070","name":"Prignitz","type":"Landkreis"},"federalState":{"key":"12","name":"Brandenburg"}},{"name":"Kastanienweg","postalCode":"93173","locality":"Wenzenbach","municipality":{"key":"09375208","name":"Wenzenbach","type":"Kreisangehörige_Gemeinde"},"district":{"key":"09375","name":"Regensburg","type":"Landkreis"},"federalState":{"key":"09","name":"Bayern"}},{"name":"Keidenzeller Str.","postalCode":"90579","locality":"Langenzenn","municipality":{"key":"09573120","name":"Langenzenn, St","type":"Stadt"},"district":{"key":"09573","name":"Fürth","type":"Landkreis"},"federalState":{"key":"09","name":"Bayern"}},{"name":"Keidenzeller Weg","postalCode":"90579","locality":"Langenzenn","municipality":{"key":"09573120","name":"Langenzenn, St","type":"Stadt"},"district":{"key":"09573","name":"Fürth","type":"Landkreis"},"federalState":{"key":"09","name":"Bayern"}},{"name":"Keilbergstr.","postalCode":"93173","locality":"Wenzenbach","municipality":{"key":"09375208","name":"Wenzenbach","type":"Kreisangehörige_Gemeinde"},"district":{"key":"09375","name":"Regensburg","type":"Landkreis"},"federalState":{"key":"09","name":"Bayern"}},{"name":"Kellerstr.","postalCode":"19309","locality":"Lenzen (Elbe)","municipality":{"key":"12070244","name":"Lenzen (Elbe), Stadt","type":"Stadt"},"district":{"key":"12070","name":"Prignitz","type":"Landkreis"},"federalState":{"key":"12","name":"Brandenburg"}},{"name":"Keplerstr.","postalCode":"93173","locality":"Wenzenbach","municipality":{"key":"09375208","name":"Wenzenbach","type":"Kreisangehörige_Gemeinde"},"district":{"key":"09375","name":"Regensburg","type":"Landkreis"},"federalState":{"key":"09","name":"Bayern"}},{"name":"Kiefernweg","postalCode":"19309","locality":"Lenzen (Elbe)","municipality":{"key":"12070244","name":"Lenzen (Elbe), Stadt","type":"Stadt"},"district":{"key":"12070","name":"Prignitz","type":"Landkreis"},"federalState":{"key":"12","name":"Brandenburg"}},{"name":"Kieferweg","postalCode":"93173","locality":"Wenzenbach","municipality":{"key":"09375208","name":"Wenzenbach","type":"Kreisangehörige_Gemeinde"},"district":{"key":"09375","name":"Regensburg","type":"Landkreis"},"federalState":{"key":"09","name":"Bayern"}},{"name":"Kieler Str.","postalCode":"90579","locality":"Langenzenn","municipality":{"key":"09573120","name":"Langenzenn, St","type":"Stadt"},"district":{"key":"09573","name":"Fürth","type":"Landkreis"},"federalState":{"key":"09","name":"Bayern"}},{"name":"Kirchfembacher Str.","postalCode":"90579","locality":"Langenzenn","municipality":{"key":"09573120","name":"Langenzenn, St","type":"Stadt"},"district":{"key":"09573","name":"Fürth","type":"Landkreis"},"federalState":{"key":"09","name":"Bayern"}},{"name":"Kirchhofstr.","postalCode":"19309","locality":"Lenzen (Elbe)","municipality":{"key":"12070244","name":"Lenzen (Elbe), Stadt","type":"Stadt"},"district":{"key":"12070","name":"Prignitz","type":"Landkreis"},"federalState":{"key":"12","name":"Brandenburg"}},{"name":"Kirchweg","postalCode":"93173","locality":"Wenzenbach","municipality":{"key":"09375208","name":"Wenzenbach","type":"Kreisangehörige_Gemeinde"},"district":{"key":"09375","name":"Regensburg","type":"Landkreis"},"federalState":{"key":"09","name":"Bayern"}},{"name":"Kirschweg","postalCode":"19309","locality":"Lenzen (Elbe)","municipality":{"key":"12070244","name":"Lenzen (Elbe), Stadt","type":"Stadt"},"district":{"key":"12070","name":"Prignitz","type":"Landkreis"},"federalState":{"key":"12","name":"Brandenburg"}},{"name":"Klauenburg","postalCode":"21279","locality":"Wenzendorf","municipality":{"key":"03353039","name":"Wenzendorf","type":"Kreisangehörige_Gemeinde"},"district":{"key":"03353","name":"Harburg","type":"Landkreis"},"federalState":{"key":"03","name":"Niedersachsen"}},{"name":"Klaushofer Weg","postalCode":"90579","locality":"Langenzenn","municipality":{"key":"09573120","name":"Langenzenn, St","type":"Stadt"},"district":{"key":"09573","name":"Fürth","type":"Landkreis"},"federalState":{"key":"09","name":"Bayern"}},{"name":"Kleine Str.","postalCode":"19309","locality":"Lenzen (Elbe)","municipality":{"key":"12070244","name":"Lenzen (Elbe), Stadt","type":"Stadt"},"district":{"key":"12070","name":"Prignitz","type":"Landkreis"},"federalState":{"key":"12","name":"Brandenburg"}},{"name":"Kleinfeldweg","postalCode":"90579","locality":"Langenzenn","municipality":{"key":"09573120","name":"Langenzenn, St","type":"Stadt"},"district":{"key":"09573","name":"Fürth","type":"Landkreis"},"federalState":{"key":"09","name":"Bayern"}},{"name":"Klosterstr.","postalCode":"90579","locality":"Langenzenn","municipality":{"key":"09573120","name":"Langenzenn, St","type":"Stadt"},"district":{"key":"09573","name":"Fürth","type":"Landkreis"},"federalState":{"key":"09","name":"Bayern"}},{"name":"Kölner Str.","postalCode":"57612","locality":"Helmenzen","municipality":{"key":"07132047","name":"Helmenzen","type":"Kreisangehörige_Gemeinde"},"district":{"key":"07132","name":"Altenkirchen (Westerwald)","type":"Landkreis"},"federalState":{"key":"07","name":"Rheinland-Pfalz"}},{"name":"Kolpingstr.","postalCode":"93173","locality":"Wenzenbach","municipality":{"key":"09375208","name":"Wenzenbach","type":"Kreisangehörige_Gemeinde"},"district":{"key":"09375","name":"Regensburg","type":"Landkreis"},"federalState":{"key":"09","name":"Bayern"}},{"name":"Kömbchesweg","postalCode":"57612","locality":"Helmenzen","municipality":{"key":"07132047","name":"Helmenzen","type":"Kreisangehörige_Gemeinde"},"district":{"key":"07132","name":"Altenkirchen (Westerwald)","type":"Landkreis"},"federalState":{"key":"07","name":"Rheinland-Pfalz"}},{"name":"Komotauer Str.","postalCode":"90579","locality":"Langenzenn","municipality":{"key":"09573120","name":"Langenzenn, St","type":"Stadt"},"district":{"key":"09573","name":"Fürth","type":"Landkreis"},"federalState":{"key":"09","name":"Bayern"}},{"name":"Königsberger Str.","postalCode":"90579","locality":"Langenzenn","municipality":{"key":"09573120","name":"Langenzenn, St","type":"Stadt"},"district":{"key":"09573","name":"Fürth","type":"Landkreis"},"federalState":{"key":"09","name":"Bayern"}},{"name":"Körbitz","postalCode":"19309","locality":"Lenzen (Elbe)","municipality":{"key":"12070244","name":"Lenzen (Elbe), Stadt","type":"Stadt"},"district":{"key":"12070","name":"Prignitz","type":"Landkreis"},"federalState":{"key":"12","name":"Brandenburg"}},{"name":"Krämergasse","postalCode":"90579","locality":"Langenzenn","municipality":{"key":"09573120","name":"Langenzenn, St","type":"Stadt"},"district":{"key":"09573","name":"Fürth","type":"Landkreis"},"federalState":{"key":"09","name":"Bayern"}},{"name":"Kufberger Str.","postalCode":"93173","locality":"Wenzenbach","municipality":{"key":"09375208","name":"Wenzenbach","type":"Kreisangehörige_Gemeinde"},"district":{"key":"09375","name":"Regensburg","type":"Landkreis"},"federalState":{"key":"09","name":"Bayern"}},{"name":"Kühbettstr.","postalCode":"93173","locality":"Wenzenbach","municipality":{"key":"09375208","name":"Wenzenbach","type":"Kreisangehörige_Gemeinde"},"district":{"key":"09375","name":"Regensburg","type":"Landkreis"},"federalState":{"key":"09","name":"Bayern"}},{"name":"Kulmbacher Str.","postalCode":"90579","locality":"Langenzenn","municipality":{"key":"09573120","name":"Langenzenn, St","type":"Stadt"},"district":{"key":"09573","name":"Fürth","type":"Landkreis"},"federalState":{"key":"09","name":"Bayern"}},{"name":"Kürner Str.","postalCode":"93173","locality":"Wenzenbach","municipality":{"key":"09375208","name":"Wenzenbach","type":"Kreisangehörige_Gemeinde"},"district":{"key":"09375","name":"Regensburg","type":"Landkreis"},"federalState":{"key":"09","name":"Bayern"}},{"name":"Kurze Str.","postalCode":"21279","locality":"Wenzendorf","municipality":{"key":"03353039","name":"Wenzendorf","type":"Kreisangehörige_Gemeinde"},"district":{"key":"03353","name":"Harburg","type":"Landkreis"},"federalState":{"key":"03","name":"Niedersachsen"}},{"name":"Lange Felder","postalCode":"19309","locality":"Lenzen (Elbe)","municipality":{"key":"12070244","name":"Lenzen (Elbe), Stadt","type":"Stadt"},"district":{"key":"12070","name":"Prignitz","type":"Landkreis"},"federalState":{"key":"12","name":"Brandenburg"}},{"name":"Langenbergweg","postalCode":"90579","locality":"Langenzenn","municipality":{"key":"09573120","name":"Langenzenn, St","type":"Stadt"},"district":{"key":"09573","name":"Fürth","type":"Landkreis"},"federalState":{"key":"09","name":"Bayern"}},{"name":"Langenzenner Weg","postalCode":"90579","locality":"Langenzenn","municipality":{"key":"09573120","name":"Langenzenn, St","type":"Stadt"},"district":{"key":"09573","name":"Fürth","type":"Landkreis"},"federalState":{"key":"09","name":"Bayern"}},{"name":"Laubendorfer Brücke","postalCode":"90579","locality":"Langenzenn","municipality":{"key":"09573120","name":"Langenzenn, St","type":"Stadt"},"district":{"key":"09573","name":"Fürth","type":"Landkreis"},"federalState":{"key":"09","name":"Bayern"}},{"name":"Laubendorfer Weg","postalCode":"90579","locality":"Langenzenn","municipality":{"key":"09573120","name":"Langenzenn, St","type":"Stadt"},"district":{"key":"09573","name":"Fürth","type":"Landkreis"},"federalState":{"key":"09","name":"Bayern"}},{"name":"Leitenstr.","postalCode":"90579","locality":"Langenzenn","municipality":{"key":"09573120","name":"Langenzenn, St","type":"Stadt"},"district":{"key":"09573","name":"Fürth","type":"Landkreis"},"federalState":{"key":"09","name":"Bayern"}},{"name":"Lenzener Str.","postalCode":"19309","locality":"Lenzen (Elbe)","municipality":{"key":"12070244","name":"Lenzen (Elbe), Stadt","type":"Stadt"},"district":{"key":"12070","name":"Prignitz","type":"Landkreis"},"federalState":{"key":"12","name":"Brandenburg"}},{"name":"Lenzenstr.","postalCode":"90579","locality":"Langenzenn","municipality":{"key":"09573120","name":"Langenzenn, St","type":"Stadt"},"district":{"key":"09573","name":"Fürth","type":"Landkreis"},"federalState":{"key":"09","name":"Bayern"}},{"name":"Lerchenweg","postalCode":"93173","locality":"Wenzenbach","municipality":{"key":"09375208","name":"Wenzenbach","type":"Kreisangehörige_Gemeinde"},"district":{"key":"09375","name":"Regensburg","type":"Landkreis"},"federalState":{"key":"09","name":"Bayern"}},{"name":"Leuengarten","postalCode":"19309","locality":"Lenzen (Elbe)","municipality":{"key":"12070244","name":"Lenzen (Elbe), Stadt","type":"Stadt"},"district":{"key":"12070","name":"Prignitz","type":"Landkreis"},"federalState":{"key":"12","name":"Brandenburg"}},{"name":"Lilienstr.","postalCode":"90579","locality":"Langenzenn","municipality":{"key":"09573120","name":"Langenzenn, St","type":"Stadt"},"district":{"key":"09573","name":"Fürth","type":"Landkreis"},"federalState":{"key":"09","name":"Bayern"}},{"name":"Lilienstr.","postalCode":"93173","locality":"Wenzenbach","municipality":{"key":"09375208","name":"Wenzenbach","type":"Kreisangehörige_Gemeinde"},"district":{"key":"09375","name":"Regensburg","type":"Landkreis"},"federalState":{"key":"09","name":"Bayern"}},{"name":"Lindenallee","postalCode":"93173","locality":"Wenzenbach","municipality":{"key":"09375208","name":"Wenzenbach","type":"Kreisangehörige_Gemeinde"},"district":{"key":"09375","name":"Regensburg","type":"Landkreis"},"federalState":{"key":"09","name":"Bayern"}},{"name":"Lindenstr.","postalCode":"19309","locality":"Lenzen (Elbe)","municipality":{"key":"12070244","name":"Lenzen (Elbe), Stadt","type":"Stadt"},"district":{"key":"12070","name":"Prignitz","type":"Landkreis"},"federalState":{"key":"12","name":"Brandenburg"}},{"name":"Lindenstr.","postalCode":"21279","locality":"Wenzendorf","municipality":{"key":"03353039","name":"Wenzendorf","type":"Kreisangehörige_Gemeinde"},"district":{"key":"03353","name":"Harburg","type":"Landkreis"},"federalState":{"key":"03","name":"Niedersachsen"}},{"name":"Lindenturm","postalCode":"90579","locality":"Langenzenn","municipality":{"key":"09573120","name":"Langenzenn, St","type":"Stadt"},"district":{"key":"09573","name":"Fürth","type":"Landkreis"},"federalState":{"key":"09","name":"Bayern"}},{"name":"Lindhofstr.","postalCode":"93173","locality":"Wenzenbach","municipality":{"key":"09375208","name":"Wenzenbach","type":"Kreisangehörige_Gemeinde"},"district":{"key":"09375","name":"Regensburg","type":"Landkreis"},"federalState":{"key":"09","name":"Bayern"}},{"name":"Lisztstr.","postalCode":"93173","locality":"Wenzenbach","municipality":{"key":"09375208","name":"Wenzenbach","type":"Kreisangehörige_Gemeinde"},"district":{"key":"09375","name":"Regensburg","type":"Landkreis"},"federalState":{"key":"09","name":"Bayern"}},{"name":"Löcknitzstr.","postalCode":"19309","locality":"Lenzen (Elbe)","municipality":{"key":"12070244","name":"Lenzen (Elbe), Stadt","type":"Stadt"},"district":{"key":"12070","name":"Prignitz","type":"Landkreis"},"federalState":{"key":"12","name":"Brandenburg"}},{"name":"Lohäckerstr.","postalCode":"90579","locality":"Langenzenn","municipality":{"key":"09573120","name":"Langenzenn, St","type":"Stadt"},"district":{"key":"09573","name":"Fürth","type":"Landkreis"},"federalState":{"key":"09","name":"Bayern"}},{"name":"Loher Berg","postalCode":"90579","locality":"Langenzenn","municipality":{"key":"09573120","name":"Langenzenn, St","type":"Stadt"},"district":{"key":"09573","name":"Fürth","type":"Landkreis"},"federalState":{"key":"09","name":"Bayern"}},{"name":"Loher Sonnenhang","postalCode":"90579","locality":"Langenzenn","municipality":{"key":"09573120","name":"Langenzenn, St","type":"Stadt"},"district":{"key":"09573","name":"Fürth","type":"Landkreis"},"federalState":{"key":"09","name":"Bayern"}},{"name":"Loher Sonnenleite","postalCode":"90579","locality":"Langenzenn","municipality":{"key":"09573120","name":"Langenzenn, St","type":"Stadt"},"district":{"key":"09573","name":"Fürth","type":"Landkreis"},"federalState":{"key":"09","name":"Bayern"}},{"name":"Lohmühle","postalCode":"90579","locality":"Langenzenn","municipality":{"key":"09573120","name":"Langenzenn, St","type":"Stadt"},"district":{"key":"09573","name":"Fürth","type":"Landkreis"},"federalState":{"key":"09","name":"Bayern"}},{"name":"Lösleinstr.","postalCode":"90579","locality":"Langenzenn","municipality":{"key":"09573120","name":"Langenzenn, St","type":"Stadt"},"district":{"key":"09573","name":"Fürth","type":"Landkreis"},"federalState":{"key":"09","name":"Bayern"}},{"name":"Ludwigstr.","postalCode":"93173","locality":"Wenzenbach","municipality":{"key":"09375208","name":"Wenzenbach","type":"Kreisangehörige_Gemeinde"},"district":{"key":"09375","name":"Regensburg","type":"Landkreis"},"federalState":{"key":"09","name":"Bayern"}},{"name":"Lukas-Cranach-Str.","postalCode":"90579","locality":"Langenzenn","municipality":{"key":"09573120","name":"Langenzenn, St","type":"Stadt"},"district":{"key":"09573","name":"Fürth","type":"Landkreis"},"federalState":{"key":"09","name":"Bayern"}},{"name":"Marie-Curie-Str.","postalCode":"93173","locality":"Wenzenbach","municipality":{"key":"09375208","name":"Wenzenbach","type":"Kreisangehörige_Gemeinde"},"district":{"key":"09375","name":"Regensburg","type":"Landkreis"},"federalState":{"key":"09","name":"Bayern"}},{"name":"Markgrafenstr.","postalCode":"90579","locality":"Langenzenn","municipality":{"key":"09573120","name":"Langenzenn, St","type":"Stadt"},"district":{"key":"09573","name":"Fürth","type":"Landkreis"},"federalState":{"key":"09","name":"Bayern"}},{"name":"Martin-Behaim-Str.","postalCode":"90579","locality":"Langenzenn","municipality":{"key":"09573120","name":"Langenzenn, St","type":"Stadt"},"district":{"key":"09573","name":"Fürth","type":"Landkreis"},"federalState":{"key":"09","name":"Bayern"}},{"name":"Martin-Luther-Platz","postalCode":"90579","locality":"Langenzenn","municipality":{"key":"09573120","name":"Langenzenn, St","type":"Stadt"},"district":{"key":"09573","name":"Fürth","type":"Landkreis"},"federalState":{"key":"09","name":"Bayern"}},{"name":"Martin-Weber-Weg","postalCode":"90579","locality":"Langenzenn","municipality":{"key":"09573120","name":"Langenzenn, St","type":"Stadt"},"district":{"key":"09573","name":"Fürth","type":"Landkreis"},"federalState":{"key":"09","name":"Bayern"}},{"name":"Maxhüttenstr.","postalCode":"93173","locality":"Wenzenbach","municipality":{"key":"09375208","name":"Wenzenbach","type":"Kreisangehörige_Gemeinde"},"district":{"key":"09375","name":"Regensburg","type":"Landkreis"},"federalState":{"key":"09","name":"Bayern"}},{"name":"Mecklenburger Str.","postalCode":"90579","locality":"Langenzenn","municipality":{"key":"09573120","name":"Langenzenn, St","type":"Stadt"},"district":{"key":"09573","name":"Fürth","type":"Landkreis"},"federalState":{"key":"09","name":"Bayern"}},{"name":"Meiersberger Str.","postalCode":"90579","locality":"Langenzenn","municipality":{"key":"09573120","name":"Langenzenn, St","type":"Stadt"},"district":{"key":"09573","name":"Fürth","type":"Landkreis"},"federalState":{"key":"09","name":"Bayern"}},{"name":"Meisenweg","postalCode":"21279","locality":"Wenzendorf","municipality":{"key":"03353039","name":"Wenzendorf","type":"Kreisangehörige_Gemeinde"},"district":{"key":"03353","name":"Harburg","type":"Landkreis"},"federalState":{"key":"03","name":"Niedersachsen"}},{"name":"Meisenweg","postalCode":"90579","locality":"Langenzenn","municipality":{"key":"09573120","name":"Langenzenn, St","type":"Stadt"},"district":{"key":"09573","name":"Fürth","type":"Landkreis"},"federalState":{"key":"09","name":"Bayern"}},{"name":"Mienenbütteler Weg","postalCode":"21279","locality":"Wenzendorf","municipality":{"key":"03353039","name":"Wenzendorf","type":"Kreisangehörige_Gemeinde"},"district":{"key":"03353","name":"Harburg","type":"Landkreis"},"federalState":{"key":"03","name":"Niedersachsen"}},{"name":"Milchgasse","postalCode":"90579","locality":"Langenzenn","municipality":{"key":"09573120","name":"Langenzenn, St","type":"Stadt"},"district":{"key":"09573","name":"Fürth","type":"Landkreis"},"federalState":{"key":"09","name":"Bayern"}},{"name":"Mittelweg","postalCode":"93173","locality":"Wenzenbach","municipality":{"key":"09375208","name":"Wenzenbach","type":"Kreisangehörige_Gemeinde"},"district":{"key":"09375","name":"Regensburg","type":"Landkreis"},"federalState":{"key":"09","name":"Bayern"}},{"name":"Mitterfeldweg","postalCode":"93173","locality":"Wenzenbach","municipality":{"key":"09375208","name":"Wenzenbach","type":"Kreisangehörige_Gemeinde"},"district":{"key":"09375","name":"Regensburg","type":"Landkreis"},"federalState":{"key":"09","name":"Bayern"}},{"name":"Mittlere Talstr.","postalCode":"93173","locality":"Wenzenbach","municipality":{"key":"09375208","name":"Wenzenbach","type":"Kreisangehörige_Gemeinde"},"district":{"key":"09375","name":"Regensburg","type":"Landkreis"},"federalState":{"key":"09","name":"Bayern"}},{"name":"Mozartstr.","postalCode":"93173","locality":"Wenzenbach","municipality":{"key":"09375208","name":"Wenzenbach","type":"Kreisangehörige_Gemeinde"},"district":{"key":"09375","name":"Regensburg","type":"Landkreis"},"federalState":{"key":"09","name":"Bayern"}},{"name":"MTS-Siedlung","postalCode":"19309","locality":"Lenzen (Elbe)","municipality":{"key":"12070244","name":"Lenzen (Elbe), Stadt","type":"Stadt"},"district":{"key":"12070","name":"Prignitz","type":"Landkreis"},"federalState":{"key":"12","name":"Brandenburg"}},{"name":"Mühlberg","postalCode":"90579","locality":"Langenzenn","municipality":{"key":"09573120","name":"Langenzenn, St","type":"Stadt"},"district":{"key":"09573","name":"Fürth","type":"Landkreis"},"federalState":{"key":"09","name":"Bayern"}},{"name":"Mühlenstr.","postalCode":"21279","locality":"Wenzendorf","municipality":{"key":"03353039","name":"Wenzendorf","type":"Kreisangehörige_Gemeinde"},"district":{"key":"03353","name":"Harburg","type":"Landkreis"},"federalState":{"key":"03","name":"Niedersachsen"}},{"name":"Mühlenweg","postalCode":"19309","locality":"Lenzen (Elbe)","municipality":{"key":"12070244","name":"Lenzen (Elbe), Stadt","type":"Stadt"},"district":{"key":"12070","name":"Prignitz","type":"Landkreis"},"federalState":{"key":"12","name":"Brandenburg"}},{"name":"Mühlenweg","postalCode":"57612","locality":"Helmenzen","municipality":{"key":"07132047","name":"Helmenzen","type":"Kreisangehörige_Gemeinde"},"district":{"key":"07132","name":"Altenkirchen (Westerwald)","type":"Landkreis"},"federalState":{"key":"07","name":"Rheinland-Pfalz"}},{"name":"Mühlenweg","postalCode":"93173","locality":"Wenzenbach","municipality":{"key":"09375208","name":"Wenzenbach","type":"Kreisangehörige_Gemeinde"},"district":{"key":"09375","name":"Regensburg","type":"Landkreis"},"federalState":{"key":"09","name":"Bayern"}},{"name":"Mühlleite","postalCode":"90579","locality":"Langenzenn","municipality":{"key":"09573120","name":"Langenzenn, St","type":"Stadt"},"district":{"key":"09573","name":"Fürth","type":"Landkreis"},"federalState":{"key":"09","name":"Bayern"}},{"name":"Mühlweg","postalCode":"90579","locality":"Langenzenn","municipality":{"key":"09573120","name":"Langenzenn, St","type":"Stadt"},"district":{"key":"09573","name":"Fürth","type":"Landkreis"},"federalState":{"key":"09","name":"Bayern"}},{"name":"Münzgasse","postalCode":"90579","locality":"Langenzenn","municipality":{"key":"09573120","name":"Langenzenn, St","type":"Stadt"},"district":{"key":"09573","name":"Fürth","type":"Landkreis"},"federalState":{"key":"09","name":"Bayern"}},{"name":"Nelkenstr.","postalCode":"90579","locality":"Langenzenn","municipality":{"key":"09573120","name":"Langenzenn, St","type":"Stadt"},"district":{"key":"09573","name":"Fürth","type":"Landkreis"},"federalState":{"key":"09","name":"Bayern"}},{"name":"Nelkenweg","postalCode":"93173","locality":"Wenzenbach","municipality":{"key":"09375208","name":"Wenzenbach","type":"Kreisangehörige_Gemeinde"},"district":{"key":"09375","name":"Regensburg","type":"Landkreis"},"federalState":{"key":"09","name":"Bayern"}},{"name":"Neue Reihe","postalCode":"19309","locality":"Lenzen (Elbe)","municipality":{"key":"12070244","name":"Lenzen (Elbe), Stadt","type":"Stadt"},"district":{"key":"12070","name":"Prignitz","type":"Landkreis"},"federalState":{"key":"12","name":"Brandenburg"}},{"name":"Neue Str.","postalCode":"21279","locality":"Wenzendorf","municipality":{"key":"03353039","name":"Wenzendorf","type":"Kreisangehörige_Gemeinde"},"district":{"key":"03353","name":"Harburg","type":"Landkreis"},"federalState":{"key":"03","name":"Niedersachsen"}},{"name":"Neustadtstr.","postalCode":"19309","locality":"Lenzen (Elbe)","municipality":{"key":"12070244","name":"Lenzen (Elbe), Stadt","type":"Stadt"},"district":{"key":"12070","name":"Prignitz","type":"Landkreis"},"federalState":{"key":"12","name":"Brandenburg"}},{"name":"Nürnberger Str.","postalCode":"90579","locality":"Langenzenn","municipality":{"key":"09573120","name":"Langenzenn, St","type":"Stadt"},"district":{"key":"09573","name":"Fürth","type":"Landkreis"},"federalState":{"key":"09","name":"Bayern"}},{"name":"Nusbaumer Str.","postalCode":"54646","locality":"Enzen","municipality":{"key":"07232032","name":"Enzen","type":"Kreisangehörige_Gemeinde"},"district":{"key":"07232","name":"Eifelkreis Bitburg-Prüm","type":"Landkreis"},"federalState":{"key":"07","name":"Rheinland-Pfalz"}},{"name":"Obere Ringstr.","postalCode":"90579","locality":"Langenzenn","municipality":{"key":"09573120","name":"Langenzenn, St","type":"Stadt"},"district":{"key":"09573","name":"Fürth","type":"Landkreis"},"federalState":{"key":"09","name":"Bayern"}},{"name":"Oberes Steinert","postalCode":"93173","locality":"Wenzenbach","municipality":{"key":"09375208","name":"Wenzenbach","type":"Kreisangehörige_Gemeinde"},"district":{"key":"09375","name":"Regensburg","type":"Landkreis"},"federalState":{"key":"09","name":"Bayern"}},{"name":"Obere Stadtmauer","postalCode":"90579","locality":"Langenzenn","municipality":{"key":"09573120","name":"Langenzenn, St","type":"Stadt"},"district":{"key":"09573","name":"Fürth","type":"Landkreis"},"federalState":{"key":"09","name":"Bayern"}},{"name":"Obere Talstr.","postalCode":"93173","locality":"Wenzenbach","municipality":{"key":"09375208","name":"Wenzenbach","type":"Kreisangehörige_Gemeinde"},"district":{"key":"09375","name":"Regensburg","type":"Landkreis"},"federalState":{"key":"09","name":"Bayern"}},{"name":"Oberfembacher Str.","postalCode":"90579","locality":"Langenzenn","municipality":{"key":"09573120","name":"Langenzenn, St","type":"Stadt"},"district":{"key":"09573","name":"Fürth","type":"Landkreis"},"federalState":{"key":"09","name":"Bayern"}},{"name":"Oberlindhofstr.","postalCode":"93173","locality":"Wenzenbach","municipality":{"key":"09375208","name":"Wenzenbach","type":"Kreisangehörige_Gemeinde"},"district":{"key":"09375","name":"Regensburg","type":"Landkreis"},"federalState":{"key":"09","name":"Bayern"}},{"name":"Odenwaldstr.","postalCode":"93173","locality":"Wenzenbach","municipality":{"key":"09375208","name":"Wenzenbach","type":"Kreisangehörige_Gemeinde"},"district":{"key":"09375","name":"Regensburg","type":"Landkreis"},"federalState":{"key":"09","name":"Bayern"}},{"name":"Ostendstr.","postalCode":"90579","locality":"Langenzenn","municipality":{"key":"09573120","name":"Langenzenn, St","type":"Stadt"},"district":{"key":"09573","name":"Fürth","type":"Landkreis"},"federalState":{"key":"09","name":"Bayern"}},{"name":"Pappelweg","postalCode":"93173","locality":"Wenzenbach","municipality":{"key":"09375208","name":"Wenzenbach","type":"Kreisangehörige_Gemeinde"},"district":{"key":"09375","name":"Regensburg","type":"Landkreis"},"federalState":{"key":"09","name":"Bayern"}},{"name":"Paul Richter Str.","postalCode":"21279","locality":"Wenzendorf","municipality":{"key":"03353039","name":"Wenzendorf","type":"Kreisangehörige_Gemeinde"},"district":{"key":"03353","name":"Harburg","type":"Landkreis"},"federalState":{"key":"03","name":"Niedersachsen"}},{"name":"Peperlingstal","postalCode":"31073","locality":"Wenzen","municipality":{"key":"03255508","name":"Wenzen, gemfr. Gebiet","type":"Gemeindefreies_Gebiet_Unbewohnt"},"district":{"key":"03255","name":"Holzminden","type":"Landkreis"},"federalState":{"key":"03","name":"Niedersachsen"}},{"name":"Pestalozzistr.","postalCode":"93173","locality":"Wenzenbach","municipality":{"key":"09375208","name":"Wenzenbach","type":"Kreisangehörige_Gemeinde"},"district":{"key":"09375","name":"Regensburg","type":"Landkreis"},"federalState":{"key":"09","name":"Bayern"}},{"name":"Pfaffenleite","postalCode":"90579","locality":"Langenzenn","municipality":{"key":"09573120","name":"Langenzenn, St","type":"Stadt"},"district":{"key":"09573","name":"Fürth","type":"Landkreis"},"federalState":{"key":"09","name":"Bayern"}},{"name":"Pfarrer-Brumbach-Weg","postalCode":"93173","locality":"Wenzenbach","municipality":{"key":"09375208","name":"Wenzenbach","type":"Kreisangehörige_Gemeinde"},"district":{"key":"09375","name":"Regensburg","type":"Landkreis"},"federalState":{"key":"09","name":"Bayern"}},{"name":"Pfarrer-Lichtenwald-Str.","postalCode":"93173","locality":"Wenzenbach","municipality":{"key":"09375208","name":"Wenzenbach","type":"Kreisangehörige_Gemeinde"},"district":{"key":"09375","name":"Regensburg","type":"Landkreis"},"federalState":{"key":"09","name":"Bayern"}},{"name":"Pilgerstr.","postalCode":"90579","locality":"Langenzenn","municipality":{"key":"09573120","name":"Langenzenn, St","type":"Stadt"},"district":{"key":"09573","name":"Fürth","type":"Landkreis"},"federalState":{"key":"09","name":"Bayern"}},{"name":"Pirkacher Str.","postalCode":"90579","locality":"Langenzenn","municipality":{"key":"09573120","name":"Langenzenn, St","type":"Stadt"},"district":{"key":"09573","name":"Fürth","type":"Landkreis"},"federalState":{"key":"09","name":"Bayern"}},{"name":"Postallee","postalCode":"21279","locality":"Wenzendorf","municipality":{"key":"03353039","name":"Wenzendorf","type":"Kreisangehörige_Gemeinde"},"district":{"key":"03353","name":"Harburg","type":"Landkreis"},"federalState":{"key":"03","name":"Niedersachsen"}},{"name":"Prignitzstr.","postalCode":"19309","locality":"Lenzen (Elbe)","municipality":{"key":"12070244","name":"Lenzen (Elbe), Stadt","type":"Stadt"},"district":{"key":"12070","name":"Prignitz","type":"Landkreis"},"federalState":{"key":"12","name":"Brandenburg"}},{"name":"Prinzregentenplatz","postalCode":"90579","locality":"Langenzenn","municipality":{"key":"09573120","name":"Langenzenn, St","type":"Stadt"},"district":{"key":"09573","name":"Fürth","type":"Landkreis"},"federalState":{"key":"09","name":"Bayern"}},{"name":"Probstberg","postalCode":"93173","locality":"Wenzenbach","municipality":{"key":"09375208","name":"Wenzenbach","type":"Kreisangehörige_Gemeinde"},"district":{"key":"09375","name":"Regensburg","type":"Landkreis"},"federalState":{"key":"09","name":"Bayern"}},{"name":"Protsorgstr.","postalCode":"90579","locality":"Langenzenn","municipality":{"key":"09573120","name":"Langenzenn, St","type":"Stadt"},"district":{"key":"09573","name":"Fürth","type":"Landkreis"},"federalState":{"key":"09","name":"Bayern"}},{"name":"Puschendorfer Str.","postalCode":"90579","locality":"Langenzenn","municipality":{"key":"09573120","name":"Langenzenn, St","type":"Stadt"},"district":{"key":"09573","name":"Fürth","type":"Landkreis"},"federalState":{"key":"09","name":"Bayern"}},{"name":"Raiffeisenstr.","postalCode":"93173","locality":"Wenzenbach","municipality":{"key":"09375208","name":"Wenzenbach","type":"Kreisangehörige_Gemeinde"},"district":{"key":"09375","name":"Regensburg","type":"Landkreis"},"federalState":{"key":"09","name":"Bayern"}},{"name":"Raindorfer Weg","postalCode":"90579","locality":"Langenzenn","municipality":{"key":"09573120","name":"Langenzenn, St","type":"Stadt"},"district":{"key":"09573","name":"Fürth","type":"Landkreis"},"federalState":{"key":"09","name":"Bayern"}},{"name":"Rathausgasse","postalCode":"93173","locality":"Wenzenbach","municipality":{"key":"09375208","name":"Wenzenbach","type":"Kreisangehörige_Gemeinde"},"district":{"key":"09375","name":"Regensburg","type":"Landkreis"},"federalState":{"key":"09","name":"Bayern"}},{"name":"Rathausstr.","postalCode":"19309","locality":"Lenzen (Elbe)","municipality":{"key":"12070244","name":"Lenzen (Elbe), Stadt","type":"Stadt"},"district":{"key":"12070","name":"Prignitz","type":"Landkreis"},"federalState":{"key":"12","name":"Brandenburg"}},{"name":"Raubbergstr.","postalCode":"93173","locality":"Wenzenbach","municipality":{"key":"09375208","name":"Wenzenbach","type":"Kreisangehörige_Gemeinde"},"district":{"key":"09375","name":"Regensburg","type":"Landkreis"},"federalState":{"key":"09","name":"Bayern"}},{"name":"Redenbacher Str.","postalCode":"90579","locality":"Langenzenn","municipality":{"key":"09573120","name":"Langenzenn, St","type":"Stadt"},"district":{"key":"09573","name":"Fürth","type":"Landkreis"},"federalState":{"key":"09","name":"Bayern"}},{"name":"Regensburger Str.","postalCode":"93173","locality":"Wenzenbach","municipality":{"key":"09375208","name":"Wenzenbach","type":"Kreisangehörige_Gemeinde"},"district":{"key":"09375","name":"Regensburg","type":"Landkreis"},"federalState":{"key":"09","name":"Bayern"}},{"name":"Rehhardt","postalCode":"57612","locality":"Helmenzen","municipality":{"key":"07132047","name":"Helmenzen","type":"Kreisangehörige_Gemeinde"},"district":{"key":"07132","name":"Altenkirchen (Westerwald)","type":"Landkreis"},"federalState":{"key":"07","name":"Rheinland-Pfalz"}},{"name":"Rehkamp","postalCode":"21279","locality":"Wenzendorf","municipality":{"key":"03353039","name":"Wenzendorf","type":"Kreisangehörige_Gemeinde"},"district":{"key":"03353","name":"Harburg","type":"Landkreis"},"federalState":{"key":"03","name":"Niedersachsen"}},{"name":"Reibergassel","postalCode":"93173","locality":"Wenzenbach","municipality":{"key":"09375208","name":"Wenzenbach","type":"Kreisangehörige_Gemeinde"},"district":{"key":"09375","name":"Regensburg","type":"Landkreis"},"federalState":{"key":"09","name":"Bayern"}},{"name":"Reichenberger Str.","postalCode":"90579","locality":"Langenzenn","municipality":{"key":"09573120","name":"Langenzenn, St","type":"Stadt"},"district":{"key":"09573","name":"Fürth","type":"Landkreis"},"federalState":{"key":"09","name":"Bayern"}},{"name":"Rekener Str.","postalCode":"19309","locality":"Lenzen (Elbe)","municipality":{"key":"12070244","name":"Lenzen (Elbe), Stadt","type":"Stadt"},"district":{"key":"12070","name":"Prignitz","type":"Landkreis"},"federalState":{"key":"12","name":"Brandenburg"}},{"name":"Retelsdorfer Weg","postalCode":"23923","locality":"Menzendorf","municipality":{"key":"13074052","name":"Menzendorf","type":"Kreisangehörige_Gemeinde"},"district":{"key":"13074","name":"Nordwestmecklenburg","type":"Landkreis"},"federalState":{"key":"13","name":"Mecklenburg-Vorpommern"}},{"name":"Rhönweg","postalCode":"93173","locality":"Wenzenbach","municipality":{"key":"09375208","name":"Wenzenbach","type":"Kreisangehörige_Gemeinde"},"district":{"key":"09375","name":"Regensburg","type":"Landkreis"},"federalState":{"key":"09","name":"Bayern"}},{"name":"Riedsteigstr.","postalCode":"93173","locality":"Wenzenbach","municipality":{"key":"09375208","name":"Wenzenbach","type":"Kreisangehörige_Gemeinde"},"district":{"key":"09375","name":"Regensburg","type":"Landkreis"},"federalState":{"key":"09","name":"Bayern"}},{"name":"Riesengebirgestr.","postalCode":"93173","locality":"Wenzenbach","municipality":{"key":"09375208","name":"Wenzenbach","type":"Kreisangehörige_Gemeinde"},"district":{"key":"09375","name":"Regensburg","type":"Landkreis"},"federalState":{"key":"09","name":"Bayern"}},{"name":"Ringstr.","postalCode":"93173","locality":"Wenzenbach","municipality":{"key":"09375208","name":"Wenzenbach","type":"Kreisangehörige_Gemeinde"},"district":{"key":"09375","name":"Regensburg","type":"Landkreis"},"federalState":{"key":"09","name":"Bayern"}},{"name":"Ringweg","postalCode":"57612","locality":"Helmenzen","municipality":{"key":"07132047","name":"Helmenzen","type":"Kreisangehörige_Gemeinde"},"district":{"key":"07132","name":"Altenkirchen (Westerwald)","type":"Landkreis"},"federalState":{"key":"07","name":"Rheinland-Pfalz"}},{"name":"Roither Weg","postalCode":"93173","locality":"Wenzenbach","municipality":{"key":"09375208","name":"Wenzenbach","type":"Kreisangehörige_Gemeinde"},"district":{"key":"09375","name":"Regensburg","type":"Landkreis"},"federalState":{"key":"09","name":"Bayern"}},{"name":"Rosenstr.","postalCode":"90579","locality":"Langenzenn","municipality":{"key":"09573120","name":"Langenzenn, St","type":"Stadt"},"district":{"key":"09573","name":"Fürth","type":"Landkreis"},"federalState":{"key":"09","name":"Bayern"}},{"name":"Rosenstr.","postalCode":"93173","locality":"Wenzenbach","municipality":{"key":"09375208","name":"Wenzenbach","type":"Kreisangehörige_Gemeinde"},"district":{"key":"09375","name":"Regensburg","type":"Landkreis"},"federalState":{"key":"09","name":"Bayern"}},{"name":"Rothenburger Str.","postalCode":"90579","locality":"Langenzenn","municipality":{"key":"09573120","name":"Langenzenn, St","type":"Stadt"},"district":{"key":"09573","name":"Fürth","type":"Landkreis"},"federalState":{"key":"09","name":"Bayern"}},{"name":"Rudolf-Breitscheid-Str.","postalCode":"19309","locality":"Lenzen (Elbe)","municipality":{"key":"12070244","name":"Lenzen (Elbe), Stadt","type":"Stadt"},"district":{"key":"12070","name":"Prignitz","type":"Landkreis"},"federalState":{"key":"12","name":"Brandenburg"}},{"name":"Rupprechtweg","postalCode":"93173","locality":"Wenzenbach","municipality":{"key":"09375208","name":"Wenzenbach","type":"Kreisangehörige_Gemeinde"},"district":{"key":"09375","name":"Regensburg","type":"Landkreis"},"federalState":{"key":"09","name":"Bayern"}},{"name":"Sandhofstr.","postalCode":"93173","locality":"Wenzenbach","municipality":{"key":"09375208","name":"Wenzenbach","type":"Kreisangehörige_Gemeinde"},"district":{"key":"09375","name":"Regensburg","type":"Landkreis"},"federalState":{"key":"09","name":"Bayern"}},{"name":"Sandstr.","postalCode":"93173","locality":"Wenzenbach","municipality":{"key":"09375208","name":"Wenzenbach","type":"Kreisangehörige_Gemeinde"},"district":{"key":"09375","name":"Regensburg","type":"Landkreis"},"federalState":{"key":"09","name":"Bayern"}},{"name":"Sandweg","postalCode":"19309","locality":"Lenzen (Elbe)","municipality":{"key":"12070244","name":"Lenzen (Elbe), Stadt","type":"Stadt"},"district":{"key":"12070","name":"Prignitz","type":"Landkreis"},"federalState":{"key":"12","name":"Brandenburg"}},{"name":"Sanktustorstr.","postalCode":"90579","locality":"Langenzenn","municipality":{"key":"09573120","name":"Langenzenn, St","type":"Stadt"},"district":{"key":"09573","name":"Fürth","type":"Landkreis"},"federalState":{"key":"09","name":"Bayern"}},{"name":"Sauerwies","postalCode":"93173","locality":"Wenzenbach","municipality":{"key":"09375208","name":"Wenzenbach","type":"Kreisangehörige_Gemeinde"},"district":{"key":"09375","name":"Regensburg","type":"Landkreis"},"federalState":{"key":"09","name":"Bayern"}},{"name":"Schäfersbuck","postalCode":"90579","locality":"Langenzenn","municipality":{"key":"09573120","name":"Langenzenn, St","type":"Stadt"},"district":{"key":"09573","name":"Fürth","type":"Landkreis"},"federalState":{"key":"09","name":"Bayern"}},{"name":"Scharfrichtergang","postalCode":"19309","locality":"Lenzen (Elbe)","municipality":{"key":"12070244","name":"Lenzen (Elbe), Stadt","type":"Stadt"},"district":{"key":"12070","name":"Prignitz","type":"Landkreis"},"federalState":{"key":"12","name":"Brandenburg"}},{"name":"Schatzgrabenweg","postalCode":"90579","locality":"Langenzenn","municipality":{"key":"09573120","name":"Langenzenn, St","type":"Stadt"},"district":{"key":"09573","name":"Fürth","type":"Landkreis"},"federalState":{"key":"09","name":"Bayern"}},{"name":"Scheuerkreuzweg","postalCode":"93173","locality":"Wenzenbach","municipality":{"key":"09375208","name":"Wenzenbach","type":"Kreisangehörige_Gemeinde"},"district":{"key":"09375","name":"Regensburg","type":"Landkreis"},"federalState":{"key":"09","name":"Bayern"}},{"name":"Scheunen am Brink","postalCode":"19309","locality":"Lenzen (Elbe)","municipality":{"key":"12070244","name":"Lenzen (Elbe), Stadt","type":"Stadt"},"district":{"key":"12070","name":"Prignitz","type":"Landkreis"},"federalState":{"key":"12","name":"Brandenburg"}},{"name":"Schießhausplatz","postalCode":"90579","locality":"Langenzenn","municipality":{"key":"09573120","name":"Langenzenn, St","type":"Stadt"},"district":{"key":"09573","name":"Fürth","type":"Landkreis"},"federalState":{"key":"09","name":"Bayern"}},{"name":"Schillerstr.","postalCode":"93173","locality":"Wenzenbach","municipality":{"key":"09375208","name":"Wenzenbach","type":"Kreisangehörige_Gemeinde"},"district":{"key":"09375","name":"Regensburg","type":"Landkreis"},"federalState":{"key":"09","name":"Bayern"}},{"name":"Schlehenstr.","postalCode":"90579","locality":"Langenzenn","municipality":{"key":"09573120","name":"Langenzenn, St","type":"Stadt"},"district":{"key":"09573","name":"Fürth","type":"Landkreis"},"federalState":{"key":"09","name":"Bayern"}},{"name":"Schlehenweg","postalCode":"93173","locality":"Wenzenbach","municipality":{"key":"09375208","name":"Wenzenbach","type":"Kreisangehörige_Gemeinde"},"district":{"key":"09375","name":"Regensburg","type":"Landkreis"},"federalState":{"key":"09","name":"Bayern"}},{"name":"Schleifweg","postalCode":"90579","locality":"Langenzenn","municipality":{"key":"09573120","name":"Langenzenn, St","type":"Stadt"},"district":{"key":"09573","name":"Fürth","type":"Landkreis"},"federalState":{"key":"09","name":"Bayern"}},{"name":"Schloßäckerstr.","postalCode":"90579","locality":"Langenzenn","municipality":{"key":"09573120","name":"Langenzenn, St","type":"Stadt"},"district":{"key":"09573","name":"Fürth","type":"Landkreis"},"federalState":{"key":"09","name":"Bayern"}},{"name":"Schloßstr.","postalCode":"93173","locality":"Wenzenbach","municipality":{"key":"09375208","name":"Wenzenbach","type":"Kreisangehörige_Gemeinde"},"district":{"key":"09375","name":"Regensburg","type":"Landkreis"},"federalState":{"key":"09","name":"Bayern"}},{"name":"Schnaitterhofstr.","postalCode":"93173","locality":"Wenzenbach","municipality":{"key":"09375208","name":"Wenzenbach","type":"Kreisangehörige_Gemeinde"},"district":{"key":"09375","name":"Regensburg","type":"Landkreis"},"federalState":{"key":"09","name":"Bayern"}},{"name":"Schollerwiese","postalCode":"90579","locality":"Langenzenn","municipality":{"key":"09573120","name":"Langenzenn, St","type":"Stadt"},"district":{"key":"09573","name":"Fürth","type":"Landkreis"},"federalState":{"key":"09","name":"Bayern"}},{"name":"Schönberger Str.","postalCode":"23923","locality":"Menzendorf","municipality":{"key":"13074052","name":"Menzendorf","type":"Kreisangehörige_Gemeinde"},"district":{"key":"13074","name":"Nordwestmecklenburg","type":"Landkreis"},"federalState":{"key":"13","name":"Mecklenburg-Vorpommern"}},{"name":"Schönberger Str.","postalCode":"93173","locality":"Wenzenbach","municipality":{"key":"09375208","name":"Wenzenbach","type":"Kreisangehörige_Gemeinde"},"district":{"key":"09375","name":"Regensburg","type":"Landkreis"},"federalState":{"key":"09","name":"Bayern"}},{"name":"Schönberger Str. Rottensdorf","postalCode":"23923","locality":"Menzendorf","municipality":{"key":"13074052","name":"Menzendorf","type":"Kreisangehörige_Gemeinde"},"district":{"key":"13074","name":"Nordwestmecklenburg","type":"Landkreis"},"federalState":{"key":"13","name":"Mecklenburg-Vorpommern"}},{"name":"Schönhofweg","postalCode":"93173","locality":"Wenzenbach","municipality":{"key":"09375208","name":"Wenzenbach","type":"Kreisangehörige_Gemeinde"},"district":{"key":"09375","name":"Regensburg","type":"Landkreis"},"federalState":{"key":"09","name":"Bayern"}},{"name":"Schreiberstorberg","postalCode":"90579","locality":"Langenzenn","municipality":{"key":"09573120","name":"Langenzenn, St","type":"Stadt"},"district":{"key":"09573","name":"Fürth","type":"Landkreis"},"federalState":{"key":"09","name":"Bayern"}},{"name":"Schulstr.","postalCode":"19309","locality":"Lenzen (Elbe)","municipality":{"key":"12070244","name":"Lenzen (Elbe), Stadt","type":"Stadt"},"district":{"key":"12070","name":"Prignitz","type":"Landkreis"},"federalState":{"key":"12","name":"Brandenburg"}},{"name":"Schulstr.","postalCode":"90579","locality":"Langenzenn","municipality":{"key":"09573120","name":"Langenzenn, St","type":"Stadt"},"district":{"key":"09573","name":"Fürth","type":"Landkreis"},"federalState":{"key":"09","name":"Bayern"}},{"name":"Schulweg","postalCode":"57612","locality":"Helmenzen","municipality":{"key":"07132047","name":"Helmenzen","type":"Kreisangehörige_Gemeinde"},"district":{"key":"07132","name":"Altenkirchen (Westerwald)","type":"Landkreis"},"federalState":{"key":"07","name":"Rheinland-Pfalz"}},{"name":"Schützenstr.","postalCode":"90579","locality":"Langenzenn","municipality":{"key":"09573120","name":"Langenzenn, St","type":"Stadt"},"district":{"key":"09573","name":"Fürth","type":"Landkreis"},"federalState":{"key":"09","name":"Bayern"}},{"name":"Schwabenberg","postalCode":"90579","locality":"Langenzenn","municipality":{"key":"09573120","name":"Langenzenn, St","type":"Stadt"},"district":{"key":"09573","name":"Fürth","type":"Landkreis"},"federalState":{"key":"09","name":"Bayern"}},{"name":"Schwabengasse","postalCode":"93173","locality":"Wenzenbach","municipality":{"key":"09375208","name":"Wenzenbach","type":"Kreisangehörige_Gemeinde"},"district":{"key":"09375","name":"Regensburg","type":"Landkreis"},"federalState":{"key":"09","name":"Bayern"}},{"name":"Schwalbenstr.","postalCode":"90579","locality":"Langenzenn","municipality":{"key":"09573120","name":"Langenzenn, St","type":"Stadt"},"district":{"key":"09573","name":"Fürth","type":"Landkreis"},"federalState":{"key":"09","name":"Bayern"}},{"name":"Schwalbenweg","postalCode":"57612","locality":"Helmenzen","municipality":{"key":"07132047","name":"Helmenzen","type":"Kreisangehörige_Gemeinde"},"district":{"key":"07132","name":"Altenkirchen (Westerwald)","type":"Landkreis"},"federalState":{"key":"07","name":"Rheinland-Pfalz"}},{"name":"Schwarzwaldstr.","postalCode":"93173","locality":"Wenzenbach","municipality":{"key":"09375208","name":"Wenzenbach","type":"Kreisangehörige_Gemeinde"},"district":{"key":"09375","name":"Regensburg","type":"Landkreis"},"federalState":{"key":"09","name":"Bayern"}},{"name":"Schwedenstr.","postalCode":"90579","locality":"Langenzenn","municipality":{"key":"09573120","name":"Langenzenn, St","type":"Stadt"},"district":{"key":"09573","name":"Fürth","type":"Landkreis"},"federalState":{"key":"09","name":"Bayern"}},{"name":"Schweidnitzer Str.","postalCode":"90579","locality":"Langenzenn","municipality":{"key":"09573120","name":"Langenzenn, St","type":"Stadt"},"district":{"key":"09573","name":"Fürth","type":"Landkreis"},"federalState":{"key":"09","name":"Bayern"}},{"name":"Seestr.","postalCode":"19309","locality":"Lenzen (Elbe)","municipality":{"key":"12070244","name":"Lenzen (Elbe), Stadt","type":"Stadt"},"district":{"key":"12070","name":"Prignitz","type":"Landkreis"},"federalState":{"key":"12","name":"Brandenburg"}},{"name":"Seestr.","postalCode":"23923","locality":"Menzendorf","municipality":{"key":"13074052","name":"Menzendorf","type":"Kreisangehörige_Gemeinde"},"district":{"key":"13074","name":"Nordwestmecklenburg","type":"Landkreis"},"federalState":{"key":"13","name":"Mecklenburg-Vorpommern"}},{"name":"Seetorstr.","postalCode":"19309","locality":"Lenzen (Elbe)","municipality":{"key":"12070244","name":"Lenzen (Elbe), Stadt","type":"Stadt"},"district":{"key":"12070","name":"Prignitz","type":"Landkreis"},"federalState":{"key":"12","name":"Brandenburg"}},{"name":"Seidlweg","postalCode":"93173","locality":"Wenzenbach","municipality":{"key":"09375208","name":"Wenzenbach","type":"Kreisangehörige_Gemeinde"},"district":{"key":"09375","name":"Regensburg","type":"Landkreis"},"federalState":{"key":"09","name":"Bayern"}},{"name":"Seukendorfer Str.","postalCode":"90579","locality":"Langenzenn","municipality":{"key":"09573120","name":"Langenzenn, St","type":"Stadt"},"district":{"key":"09573","name":"Fürth","type":"Landkreis"},"federalState":{"key":"09","name":"Bayern"}},{"name":"Siedelbacher Str.","postalCode":"90579","locality":"Langenzenn","municipality":{"key":"09573120","name":"Langenzenn, St","type":"Stadt"},"district":{"key":"09573","name":"Fürth","type":"Landkreis"},"federalState":{"key":"09","name":"Bayern"}},{"name":"Siedlerweg","postalCode":"93173","locality":"Wenzenbach","municipality":{"key":"09375208","name":"Wenzenbach","type":"Kreisangehörige_Gemeinde"},"district":{"key":"09375","name":"Regensburg","type":"Landkreis"},"federalState":{"key":"09","name":"Bayern"}},{"name":"Siedlungsstr.","postalCode":"90579","locality":"Langenzenn","municipality":{"key":"09573120","name":"Langenzenn, St","type":"Stadt"},"district":{"key":"09573","name":"Fürth","type":"Landkreis"},"federalState":{"key":"09","name":"Bayern"}},{"name":"Siedlungsweg","postalCode":"19309","locality":"Lenzen (Elbe)","municipality":{"key":"12070244","name":"Lenzen (Elbe), Stadt","type":"Stadt"},"district":{"key":"12070","name":"Prignitz","type":"Landkreis"},"federalState":{"key":"12","name":"Brandenburg"}},{"name":"Silbertalstr.","postalCode":"93173","locality":"Wenzenbach","municipality":{"key":"09375208","name":"Wenzenbach","type":"Kreisangehörige_Gemeinde"},"district":{"key":"09375","name":"Regensburg","type":"Landkreis"},"federalState":{"key":"09","name":"Bayern"}},{"name":"Silberthalstr.","postalCode":"93173","locality":"Wenzenbach","municipality":{"key":"09375208","name":"Wenzenbach","type":"Kreisangehörige_Gemeinde"},"district":{"key":"09375","name":"Regensburg","type":"Landkreis"},"federalState":{"key":"09","name":"Bayern"}},{"name":"Sonnenstr.","postalCode":"93173","locality":"Wenzenbach","municipality":{"key":"09375208","name":"Wenzenbach","type":"Kreisangehörige_Gemeinde"},"district":{"key":"09375","name":"Regensburg","type":"Landkreis"},"federalState":{"key":"09","name":"Bayern"}},{"name":"Sophie-Scholl-Str.","postalCode":"93173","locality":"Wenzenbach","municipality":{"key":"09375208","name":"Wenzenbach","type":"Kreisangehörige_Gemeinde"},"district":{"key":"09375","name":"Regensburg","type":"Landkreis"},"federalState":{"key":"09","name":"Bayern"}},{"name":"Spindelbachstr.","postalCode":"93173","locality":"Wenzenbach","municipality":{"key":"09375208","name":"Wenzenbach","type":"Kreisangehörige_Gemeinde"},"district":{"key":"09375","name":"Regensburg","type":"Landkreis"},"federalState":{"key":"09","name":"Bayern"}},{"name":"Sportplatzstr.","postalCode":"90579","locality":"Langenzenn","municipality":{"key":"09573120","name":"Langenzenn, St","type":"Stadt"},"district":{"key":"09573","name":"Fürth","type":"Landkreis"},"federalState":{"key":"09","name":"Bayern"}},{"name":"Talblick","postalCode":"93173","locality":"Wenzenbach","municipality":{"key":"09375208","name":"Wenzenbach","type":"Kreisangehörige_Gemeinde"},"district":{"key":"09375","name":"Regensburg","type":"Landkreis"},"federalState":{"key":"09","name":"Bayern"}},{"name":"Talstr.","postalCode":"93173","locality":"Wenzenbach","municipality":{"key":"09375208","name":"Wenzenbach","type":"Kreisangehörige_Gemeinde"},"district":{"key":"09375","name":"Regensburg","type":"Landkreis"},"federalState":{"key":"09","name":"Bayern"}},{"name":"Talweg","postalCode":"57612","locality":"Helmenzen","municipality":{"key":"07132047","name":"Helmenzen","type":"Kreisangehörige_Gemeinde"},"district":{"key":"07132","name":"Altenkirchen (Westerwald)","type":"Landkreis"},"federalState":{"key":"07","name":"Rheinland-Pfalz"}},{"name":"Tannenbergstr.","postalCode":"90579","locality":"Langenzenn","municipality":{"key":"09573120","name":"Langenzenn, St","type":"Stadt"},"district":{"key":"09573","name":"Fürth","type":"Landkreis"},"federalState":{"key":"09","name":"Bayern"}},{"name":"Tannenstr.","postalCode":"90579","locality":"Langenzenn","municipality":{"key":"09573120","name":"Langenzenn, St","type":"Stadt"},"district":{"key":"09573","name":"Fürth","type":"Landkreis"},"federalState":{"key":"09","name":"Bayern"}},{"name":"Tannenweg","postalCode":"93173","locality":"Wenzenbach","municipality":{"key":"09375208","name":"Wenzenbach","type":"Kreisangehörige_Gemeinde"},"district":{"key":"09375","name":"Regensburg","type":"Landkreis"},"federalState":{"key":"09","name":"Bayern"}},{"name":"Taunusweg","postalCode":"93173","locality":"Wenzenbach","municipality":{"key":"09375208","name":"Wenzenbach","type":"Kreisangehörige_Gemeinde"},"district":{"key":"09375","name":"Regensburg","type":"Landkreis"},"federalState":{"key":"09","name":"Bayern"}},{"name":"Teichenbach","postalCode":"90579","locality":"Langenzenn","municipality":{"key":"09573120","name":"Langenzenn, St","type":"Stadt"},"district":{"key":"09573","name":"Fürth","type":"Landkreis"},"federalState":{"key":"09","name":"Bayern"}},{"name":"Thüringer Str.","postalCode":"90579","locality":"Langenzenn","municipality":{"key":"09573120","name":"Langenzenn, St","type":"Stadt"},"district":{"key":"09573","name":"Fürth","type":"Landkreis"},"federalState":{"key":"09","name":"Bayern"}},{"name":"Tillystr.","postalCode":"90579","locality":"Langenzenn","municipality":{"key":"09573120","name":"Langenzenn, St","type":"Stadt"},"district":{"key":"09573","name":"Fürth","type":"Landkreis"},"federalState":{"key":"09","name":"Bayern"}},{"name":"Tilsiter Str.","postalCode":"90579","locality":"Langenzenn","municipality":{"key":"09573120","name":"Langenzenn, St","type":"Stadt"},"district":{"key":"09573","name":"Fürth","type":"Landkreis"},"federalState":{"key":"09","name":"Bayern"}},{"name":"Trebenstr.","postalCode":"19309","locality":"Lenzen (Elbe)","municipality":{"key":"12070244","name":"Lenzen (Elbe), Stadt","type":"Stadt"},"district":{"key":"12070","name":"Prignitz","type":"Landkreis"},"federalState":{"key":"12","name":"Brandenburg"}},{"name":"Tulpenstr.","postalCode":"90579","locality":"Langenzenn","municipality":{"key":"09573120","name":"Langenzenn, St","type":"Stadt"},"district":{"key":"09573","name":"Fürth","type":"Landkreis"},"federalState":{"key":"09","name":"Bayern"}},{"name":"Tulpenweg","postalCode":"93173","locality":"Wenzenbach","municipality":{"key":"09375208","name":"Wenzenbach","type":"Kreisangehörige_Gemeinde"},"district":{"key":"09375","name":"Regensburg","type":"Landkreis"},"federalState":{"key":"09","name":"Bayern"}},{"name":"Türkengasse","postalCode":"90579","locality":"Langenzenn","municipality":{"key":"09573120","name":"Langenzenn, St","type":"Stadt"},"district":{"key":"09573","name":"Fürth","type":"Landkreis"},"federalState":{"key":"09","name":"Bayern"}},{"name":"Turnstr.","postalCode":"90579","locality":"Langenzenn","municipality":{"key":"09573120","name":"Langenzenn, St","type":"Stadt"},"district":{"key":"09573","name":"Fürth","type":"Landkreis"},"federalState":{"key":"09","name":"Bayern"}},{"name":"Ulmenweg","postalCode":"93173","locality":"Wenzenbach","municipality":{"key":"09375208","name":"Wenzenbach","type":"Kreisangehörige_Gemeinde"},"district":{"key":"09375","name":"Regensburg","type":"Landkreis"},"federalState":{"key":"09","name":"Bayern"}},{"name":"Unter den Eichen","postalCode":"21279","locality":"Wenzendorf","municipality":{"key":"03353039","name":"Wenzendorf","type":"Kreisangehörige_Gemeinde"},"district":{"key":"03353","name":"Harburg","type":"Landkreis"},"federalState":{"key":"03","name":"Niedersachsen"}},{"name":"Untere Ringstr.","postalCode":"90579","locality":"Langenzenn","municipality":{"key":"09573120","name":"Langenzenn, St","type":"Stadt"},"district":{"key":"09573","name":"Fürth","type":"Landkreis"},"federalState":{"key":"09","name":"Bayern"}},{"name":"Unterlindhofstr.","postalCode":"93173","locality":"Wenzenbach","municipality":{"key":"09375208","name":"Wenzenbach","type":"Kreisangehörige_Gemeinde"},"district":{"key":"09375","name":"Regensburg","type":"Landkreis"},"federalState":{"key":"09","name":"Bayern"}},{"name":"Veit-Stoß-Str.","postalCode":"90579","locality":"Langenzenn","municipality":{"key":"09573120","name":"Langenzenn, St","type":"Stadt"},"district":{"key":"09573","name":"Fürth","type":"Landkreis"},"federalState":{"key":"09","name":"Bayern"}},{"name":"Vogesenstr.","postalCode":"93173","locality":"Wenzenbach","municipality":{"key":"09375208","name":"Wenzenbach","type":"Kreisangehörige_Gemeinde"},"district":{"key":"09375","name":"Regensburg","type":"Landkreis"},"federalState":{"key":"09","name":"Bayern"}},{"name":"Von-Wildenfels-Str.","postalCode":"90579","locality":"Langenzenn","municipality":{"key":"09573120","name":"Langenzenn, St","type":"Stadt"},"district":{"key":"09573","name":"Fürth","type":"Landkreis"},"federalState":{"key":"09","name":"Bayern"}},{"name":"Waldenburger Str.","postalCode":"90579","locality":"Langenzenn","municipality":{"key":"09573120","name":"Langenzenn, St","type":"Stadt"},"district":{"key":"09573","name":"Fürth","type":"Landkreis"},"federalState":{"key":"09","name":"Bayern"}},{"name":"Waldheimweg","postalCode":"93173","locality":"Wenzenbach","municipality":{"key":"09375208","name":"Wenzenbach","type":"Kreisangehörige_Gemeinde"},"district":{"key":"09375","name":"Regensburg","type":"Landkreis"},"federalState":{"key":"09","name":"Bayern"}},{"name":"Waldsiedlung","postalCode":"19309","locality":"Lenzen (Elbe)","municipality":{"key":"12070244","name":"Lenzen (Elbe), Stadt","type":"Stadt"},"district":{"key":"12070","name":"Prignitz","type":"Landkreis"},"federalState":{"key":"12","name":"Brandenburg"}},{"name":"Waldstr.","postalCode":"90579","locality":"Langenzenn","municipality":{"key":"09573120","name":"Langenzenn, St","type":"Stadt"},"district":{"key":"09573","name":"Fürth","type":"Landkreis"},"federalState":{"key":"09","name":"Bayern"}},{"name":"Waldstr.","postalCode":"93173","locality":"Wenzenbach","municipality":{"key":"09375208","name":"Wenzenbach","type":"Kreisangehörige_Gemeinde"},"district":{"key":"09375","name":"Regensburg","type":"Landkreis"},"federalState":{"key":"09","name":"Bayern"}},{"name":"Wallensteinstr.","postalCode":"90579","locality":"Langenzenn","municipality":{"key":"09573120","name":"Langenzenn, St","type":"Stadt"},"district":{"key":"09573","name":"Fürth","type":"Landkreis"},"federalState":{"key":"09","name":"Bayern"}},{"name":"Warnower Str.","postalCode":"19309","locality":"Lenzen (Elbe)","municipality":{"key":"12070244","name":"Lenzen (Elbe), Stadt","type":"Stadt"},"district":{"key":"12070","name":"Prignitz","type":"Landkreis"},"federalState":{"key":"12","name":"Brandenburg"}},{"name":"Wasenstetter Weg","postalCode":"93173","locality":"Wenzenbach","municipality":{"key":"09375208","name":"Wenzenbach","type":"Kreisangehörige_Gemeinde"},"district":{"key":"09375","name":"Regensburg","type":"Landkreis"},"federalState":{"key":"09","name":"Bayern"}},{"name":"Weberweg","postalCode":"93173","locality":"Wenzenbach","municipality":{"key":"09375208","name":"Wenzenbach","type":"Kreisangehörige_Gemeinde"},"district":{"key":"09375","name":"Regensburg","type":"Landkreis"},"federalState":{"key":"09","name":"Bayern"}},{"name":"Weg zum Hochbehälter","postalCode":"90579","locality":"Langenzenn","municipality":{"key":"09573120","name":"Langenzenn, St","type":"Stadt"},"district":{"key":"09573","name":"Fürth","type":"Landkreis"},"federalState":{"key":"09","name":"Bayern"}},{"name":"Weihermühlweg","postalCode":"93173","locality":"Wenzenbach","municipality":{"key":"09375208","name":"Wenzenbach","type":"Kreisangehörige_Gemeinde"},"district":{"key":"09375","name":"Regensburg","type":"Landkreis"},"federalState":{"key":"09","name":"Bayern"}},{"name":"Weiherstr.","postalCode":"90579","locality":"Langenzenn","municipality":{"key":"09573120","name":"Langenzenn, St","type":"Stadt"},"district":{"key":"09573","name":"Fürth","type":"Landkreis"},"federalState":{"key":"09","name":"Bayern"}},{"name":"Weinbergstr.","postalCode":"90579","locality":"Langenzenn","municipality":{"key":"09573120","name":"Langenzenn, St","type":"Stadt"},"district":{"key":"09573","name":"Fürth","type":"Landkreis"},"federalState":{"key":"09","name":"Bayern"}},{"name":"Weinbergstr.","postalCode":"93173","locality":"Wenzenbach","municipality":{"key":"09375208","name":"Wenzenbach","type":"Kreisangehörige_Gemeinde"},"district":{"key":"09375","name":"Regensburg","type":"Landkreis"},"federalState":{"key":"09","name":"Bayern"}},{"name":"Weiße Marter","postalCode":"93173","locality":"Wenzenbach","municipality":{"key":"09375208","name":"Wenzenbach","type":"Kreisangehörige_Gemeinde"},"district":{"key":"09375","name":"Regensburg","type":"Landkreis"},"federalState":{"key":"09","name":"Bayern"}},{"name":"Wennerstorfer Kirchweg","postalCode":"21279","locality":"Wenzendorf","municipality":{"key":"03353039","name":"Wenzendorf","type":"Kreisangehörige_Gemeinde"},"district":{"key":"03353","name":"Harburg","type":"Landkreis"},"federalState":{"key":"03","name":"Niedersachsen"}},{"name":"Wenzendorfer Str.","postalCode":"21279","locality":"Wenzendorf","municipality":{"key":"03353039","name":"Wenzendorf","type":"Kreisangehörige_Gemeinde"},"district":{"key":"03353","name":"Harburg","type":"Landkreis"},"federalState":{"key":"03","name":"Niedersachsen"}},{"name":"Werkstr.","postalCode":"90579","locality":"Langenzenn","municipality":{"key":"09573120","name":"Langenzenn, St","type":"Stadt"},"district":{"key":"09573","name":"Fürth","type":"Landkreis"},"federalState":{"key":"09","name":"Bayern"}},{"name":"Widukindstr.","postalCode":"90579","locality":"Langenzenn","municipality":{"key":"09573120","name":"Langenzenn, St","type":"Stadt"},"district":{"key":"09573","name":"Fürth","type":"Landkreis"},"federalState":{"key":"09","name":"Bayern"}},{"name":"Wiesenweg","postalCode":"21279","locality":"Wenzendorf","municipality":{"key":"03353039","name":"Wenzendorf","type":"Kreisangehörige_Gemeinde"},"district":{"key":"03353","name":"Harburg","type":"Landkreis"},"federalState":{"key":"03","name":"Niedersachsen"}},{"name":"Wiesenweg","postalCode":"90579","locality":"Langenzenn","municipality":{"key":"09573120","name":"Langenzenn, St","type":"Stadt"},"district":{"key":"09573","name":"Fürth","type":"Landkreis"},"federalState":{"key":"09","name":"Bayern"}},{"name":"Wiesenweg","postalCode":"93173","locality":"Wenzenbach","municipality":{"key":"09375208","name":"Wenzenbach","type":"Kreisangehörige_Gemeinde"},"district":{"key":"09375","name":"Regensburg","type":"Landkreis"},"federalState":{"key":"09","name":"Bayern"}},{"name":"Wilhermsdorfer Str.","postalCode":"90579","locality":"Langenzenn","municipality":{"key":"09573120","name":"Langenzenn, St","type":"Stadt"},"district":{"key":"09573","name":"Fürth","type":"Landkreis"},"federalState":{"key":"09","name":"Bayern"}},{"name":"Windsheimer Str.","postalCode":"90579","locality":"Langenzenn","municipality":{"key":"09573120","name":"Langenzenn, St","type":"Stadt"},"district":{"key":"09573","name":"Fürth","type":"Landkreis"},"federalState":{"key":"09","name":"Bayern"}},{"name":"Winkel","postalCode":"19309","locality":"Lenzen (Elbe)","municipality":{"key":"12070244","name":"Lenzen (Elbe), Stadt","type":"Stadt"},"district":{"key":"12070","name":"Prignitz","type":"Landkreis"},"federalState":{"key":"12","name":"Brandenburg"}},{"name":"Winkelhuderweg","postalCode":"31073","locality":"Wenzen","municipality":{"key":"03255508","name":"Wenzen, gemfr. Gebiet","type":"Gemeindefreies_Gebiet_Unbewohnt"},"district":{"key":"03255","name":"Holzminden","type":"Landkreis"},"federalState":{"key":"03","name":"Niedersachsen"}},{"name":"Wittenberger Chaussee","postalCode":"19309","locality":"Lenzen (Elbe)","municipality":{"key":"12070244","name":"Lenzen (Elbe), Stadt","type":"Stadt"},"district":{"key":"12070","name":"Prignitz","type":"Landkreis"},"federalState":{"key":"12","name":"Brandenburg"}},{"name":"Würzburger Str.","postalCode":"90579","locality":"Langenzenn","municipality":{"key":"09573120","name":"Langenzenn, St","type":"Stadt"},"district":{"key":"09573","name":"Fürth","type":"Landkreis"},"federalState":{"key":"09","name":"Bayern"}},{"name":"Zeitlhof","postalCode":"93173","locality":"Wenzenbach","municipality":{"key":"09375208","name":"Wenzenbach","type":"Kreisangehörige_Gemeinde"},"district":{"key":"09375","name":"Regensburg","type":"Landkreis"},"federalState":{"key":"09","name":"Bayern"}},{"name":"Zeitlhofweg","postalCode":"93173","locality":"Wenzenbach","municipality":{"key":"09375208","name":"Wenzenbach","type":"Kreisangehörige_Gemeinde"},"district":{"key":"09375","name":"Regensburg","type":"Landkreis"},"federalState":{"key":"09","name":"Bayern"}},{"name":"Zengerweg","postalCode":"93173","locality":"Wenzenbach","municipality":{"key":"09375208","name":"Wenzenbach","type":"Kreisangehörige_Gemeinde"},"district":{"key":"09375","name":"Regensburg","type":"Landkreis"},"federalState":{"key":"09","name":"Bayern"}},{"name":"Zennoase","postalCode":"90579","locality":"Langenzenn","municipality":{"key":"09573120","name":"Langenzenn, St","type":"Stadt"},"district":{"key":"09573","name":"Fürth","type":"Landkreis"},"federalState":{"key":"09","name":"Bayern"}},{"name":"Zenntalradweg","postalCode":"90579","locality":"Langenzenn","municipality":{"key":"09573120","name":"Langenzenn, St","type":"Stadt"},"district":{"key":"09573","name":"Fürth","type":"Landkreis"},"federalState":{"key":"09","name":"Bayern"}},{"name":"Ziegelstr.","postalCode":"90579","locality":"Langenzenn","municipality":{"key":"09573120","name":"Langenzenn, St","type":"Stadt"},"district":{"key":"09573","name":"Fürth","type":"Landkreis"},"federalState":{"key":"09","name":"Bayern"}},{"name":"Ziegelstr.","postalCode":"93173","locality":"Wenzenbach","municipality":{"key":"09375208","name":"Wenzenbach","type":"Kreisangehörige_Gemeinde"},"district":{"key":"09375","name":"Regensburg","type":"Landkreis"},"federalState":{"key":"09","name":"Bayern"}},{"name":"Ziegenberg","postalCode":"90579","locality":"Langenzenn","municipality":{"key":"09573120","name":"Langenzenn, St","type":"Stadt"},"district":{"key":"09573","name":"Fürth","type":"Landkreis"},"federalState":{"key":"09","name":"Bayern"}},{"name":"Ziegenhofstr.","postalCode":"93173","locality":"Wenzenbach","municipality":{"key":"09375208","name":"Wenzenbach","type":"Kreisangehörige_Gemeinde"},"district":{"key":"09375","name":"Regensburg","type":"Landkreis"},"federalState":{"key":"09","name":"Bayern"}},{"name":"Zollnerstr.","postalCode":"90579","locality":"Langenzenn","municipality":{"key":"09573120","name":"Langenzenn, St","type":"Stadt"},"district":{"key":"09573","name":"Fürth","type":"Landkreis"},"federalState":{"key":"09","name":"Bayern"}},{"name":"Zum Eckernkamp","postalCode":"21279","locality":"Wenzendorf","municipality":{"key":"03353039","name":"Wenzendorf","type":"Kreisangehörige_Gemeinde"},"district":{"key":"03353","name":"Harburg","type":"Landkreis"},"federalState":{"key":"03","name":"Niedersachsen"}},{"name":"Zum Galgenberg","postalCode":"57612","locality":"Helmenzen","municipality":{"key":"07132047","name":"Helmenzen","type":"Kreisangehörige_Gemeinde"},"district":{"key":"07132","name":"Altenkirchen (Westerwald)","type":"Landkreis"},"federalState":{"key":"07","name":"Rheinland-Pfalz"}},{"name":"Zum Kronsberg","postalCode":"21279","locality":"Wenzendorf","municipality":{"key":"03353039","name":"Wenzendorf","type":"Kreisangehörige_Gemeinde"},"district":{"key":"03353","name":"Harburg","type":"Landkreis"},"federalState":{"key":"03","name":"Niedersachsen"}},{"name":"Zum Sonnenfelsen","postalCode":"93173","locality":"Wenzenbach","municipality":{"key":"09375208","name":"Wenzenbach","type":"Kreisangehörige_Gemeinde"},"district":{"key":"09375","name":"Regensburg","type":"Landkreis"},"federalState":{"key":"09","name":"Bayern"}},{"name":"Zur Kegelbahn","postalCode":"19309","locality":"Lenzen (Elbe)","municipality":{"key":"12070244","name":"Lenzen (Elbe), Stadt","type":"Stadt"},"district":{"key":"12070","name":"Prignitz","type":"Landkreis"},"federalState":{"key":"12","name":"Brandenburg"}},{"name":"zweiter Heuweg","postalCode":"19309","locality":"Lenzen (Elbe)","municipality":{"key":"12070244","name":"Lenzen (Elbe), Stadt","type":"Stadt"},"district":{"key":"12070","name":"Prignitz","type":"Landkreis"},"federalState":{"key":"12","name":"Brandenburg"}},{"name":"Äußere Windsheimer Str.","postalCode":"90579","locality":"Langenzenn","municipality":{"key":"09573120","name":"Langenzenn, St","type":"Stadt"},"district":{"key":"09573","name":"Fürth","type":"Landkreis"},"federalState":{"key":"09","name":"Bayern"}},{"name":"Ölbergstr.","postalCode":"93173","locality":"Wenzenbach","municipality":{"key":"09375208","name":"Wenzenbach","type":"Kreisangehörige_Gemeinde"},"district":{"key":"09375","name":"Regensburg","type":"Landkreis"},"federalState":{"key":"09","name":"Bayern"}},]