[{"name":"Am Eichenhain","postalCode":"67745","locality":"Grumbach","municipality":{"key":"07336033","name":"Grumbach","type":"Kreisangehörige_Gemeinde"},"district":{"key":"07336","name":"Kusel","type":"Landkreis"},"federalState":{"key":"07","name":"Rheinland-Pfalz"}},{"name":"Am Schloßberg","postalCode":"67745","locality":"Grumbach","municipality":{"key":"07336033","name":"Grumbach","type":"Kreisangehörige_Gemeinde"},"district":{"key":"07336","name":"Kusel","type":"Landkreis"},"federalState":{"key":"07","name":"Rheinland-Pfalz"}},{"name":"Am Wäldchen","postalCode":"67745","locality":"Grumbach","municipality":{"key":"07336033","name":"Grumbach","type":"Kreisangehörige_Gemeinde"},"district":{"key":"07336","name":"Kusel","type":"Landkreis"},"federalState":{"key":"07","name":"Rheinland-Pfalz"}},{"name":"Auf der Weide","postalCode":"67745","locality":"Grumbach","municipality":{"key":"07336033","name":"Grumbach","type":"Kreisangehörige_Gemeinde"},"district":{"key":"07336","name":"Kusel","type":"Landkreis"},"federalState":{"key":"07","name":"Rheinland-Pfalz"}},{"name":"Buchenweg","postalCode":"67745","locality":"Grumbach","municipality":{"key":"07336033","name":"Grumbach","type":"Kreisangehörige_Gemeinde"},"district":{"key":"07336","name":"Kusel","type":"Landkreis"},"federalState":{"key":"07","name":"Rheinland-Pfalz"}},{"name":"Christian-Böhmer-Weg","postalCode":"66869","locality":"Kusel","municipality":{"key":"07336055","name":"Kusel, Stadt","type":"Stadt"},"district":{"key":"07336","name":"Kusel","type":"Landkreis"},"federalState":{"key":"07","name":"Rheinland-Pfalz"}},{"name":"Danziger Str.","postalCode":"66869","locality":"Kusel","municipality":{"key":"07336055","name":"Kusel, Stadt","type":"Stadt"},"district":{"key":"07336","name":"Kusel","type":"Landkreis"},"federalState":{"key":"07","name":"Rheinland-Pfalz"}},{"name":"Dr.-Albert-Jung-Str.","postalCode":"66869","locality":"Kusel","municipality":{"key":"07336055","name":"Kusel, Stadt","type":"Stadt"},"district":{"key":"07336","name":"Kusel","type":"Landkreis"},"federalState":{"key":"07","name":"Rheinland-Pfalz"}},{"name":"Eckweg","postalCode":"66869","locality":"Kusel","municipality":{"key":"07336055","name":"Kusel, Stadt","type":"Stadt"},"district":{"key":"07336","name":"Kusel","type":"Landkreis"},"federalState":{"key":"07","name":"Rheinland-Pfalz"}},{"name":"Etschberger Weg","postalCode":"66869","locality":"Kusel","municipality":{"key":"07336055","name":"Kusel, Stadt","type":"Stadt"},"district":{"key":"07336","name":"Kusel","type":"Landkreis"},"federalState":{"key":"07","name":"Rheinland-Pfalz"}},{"name":"Fichtenweg","postalCode":"67745","locality":"Grumbach","municipality":{"key":"07336033","name":"Grumbach","type":"Kreisangehörige_Gemeinde"},"district":{"key":"07336","name":"Kusel","type":"Landkreis"},"federalState":{"key":"07","name":"Rheinland-Pfalz"}},{"name":"Gartenstr.","postalCode":"66869","locality":"Kusel","municipality":{"key":"07336055","name":"Kusel, Stadt","type":"Stadt"},"district":{"key":"07336","name":"Kusel","type":"Landkreis"},"federalState":{"key":"07","name":"Rheinland-Pfalz"}},{"name":"Glanstr.","postalCode":"66869","locality":"Kusel","municipality":{"key":"07336055","name":"Kusel, Stadt","type":"Stadt"},"district":{"key":"07336","name":"Kusel","type":"Landkreis"},"federalState":{"key":"07","name":"Rheinland-Pfalz"}},{"name":"Großenstein","postalCode":"66869","locality":"Kusel","municipality":{"key":"07336055","name":"Kusel, Stadt","type":"Stadt"},"district":{"key":"07336","name":"Kusel","type":"Landkreis"},"federalState":{"key":"07","name":"Rheinland-Pfalz"}},{"name":"Haischbachstr.","postalCode":"66869","locality":"Kusel","municipality":{"key":"07336055","name":"Kusel, Stadt","type":"Stadt"},"district":{"key":"07336","name":"Kusel","type":"Landkreis"},"federalState":{"key":"07","name":"Rheinland-Pfalz"}},{"name":"Haschbacher Str.","postalCode":"66869","locality":"Kusel","municipality":{"key":"07336055","name":"Kusel, Stadt","type":"Stadt"},"district":{"key":"07336","name":"Kusel","type":"Landkreis"},"federalState":{"key":"07","name":"Rheinland-Pfalz"}},{"name":"Haselrech","postalCode":"66869","locality":"Kusel","municipality":{"key":"07336055","name":"Kusel, Stadt","type":"Stadt"},"district":{"key":"07336","name":"Kusel","type":"Landkreis"},"federalState":{"key":"07","name":"Rheinland-Pfalz"}},{"name":"Hintergasse","postalCode":"66869","locality":"Kusel","municipality":{"key":"07336055","name":"Kusel, Stadt","type":"Stadt"},"district":{"key":"07336","name":"Kusel","type":"Landkreis"},"federalState":{"key":"07","name":"Rheinland-Pfalz"}},{"name":"Hohlweg","postalCode":"66869","locality":"Kusel","municipality":{"key":"07336055","name":"Kusel, Stadt","type":"Stadt"},"district":{"key":"07336","name":"Kusel","type":"Landkreis"},"federalState":{"key":"07","name":"Rheinland-Pfalz"}},{"name":"Hollerstr.","postalCode":"66869","locality":"Kusel","municipality":{"key":"07336055","name":"Kusel, Stadt","type":"Stadt"},"district":{"key":"07336","name":"Kusel","type":"Landkreis"},"federalState":{"key":"07","name":"Rheinland-Pfalz"}},{"name":"Homburger Str.","postalCode":"66869","locality":"Kusel","municipality":{"key":"07336055","name":"Kusel, Stadt","type":"Stadt"},"district":{"key":"07336","name":"Kusel","type":"Landkreis"},"federalState":{"key":"07","name":"Rheinland-Pfalz"}},{"name":"Im Grund","postalCode":"67745","locality":"Grumbach","municipality":{"key":"07336033","name":"Grumbach","type":"Kreisangehörige_Gemeinde"},"district":{"key":"07336","name":"Kusel","type":"Landkreis"},"federalState":{"key":"07","name":"Rheinland-Pfalz"}},{"name":"Kirchenpfad","postalCode":"66869","locality":"Kusel","municipality":{"key":"07336055","name":"Kusel, Stadt","type":"Stadt"},"district":{"key":"07336","name":"Kusel","type":"Landkreis"},"federalState":{"key":"07","name":"Rheinland-Pfalz"}},{"name":"Kirschenrech","postalCode":"66869","locality":"Kusel","municipality":{"key":"07336055","name":"Kusel, Stadt","type":"Stadt"},"district":{"key":"07336","name":"Kusel","type":"Landkreis"},"federalState":{"key":"07","name":"Rheinland-Pfalz"}},{"name":"Koch'scher Markt","postalCode":"66869","locality":"Kusel","municipality":{"key":"07336055","name":"Kusel, Stadt","type":"Stadt"},"district":{"key":"07336","name":"Kusel","type":"Landkreis"},"federalState":{"key":"07","name":"Rheinland-Pfalz"}},{"name":"Königsberger Str.","postalCode":"66869","locality":"Kusel","municipality":{"key":"07336055","name":"Kusel, Stadt","type":"Stadt"},"district":{"key":"07336","name":"Kusel","type":"Landkreis"},"federalState":{"key":"07","name":"Rheinland-Pfalz"}},{"name":"Körborner Str.","postalCode":"66869","locality":"Kusel","municipality":{"key":"07336055","name":"Kusel, Stadt","type":"Stadt"},"district":{"key":"07336","name":"Kusel","type":"Landkreis"},"federalState":{"key":"07","name":"Rheinland-Pfalz"}},{"name":"Kottenberg","postalCode":"66869","locality":"Kusel","municipality":{"key":"07336055","name":"Kusel, Stadt","type":"Stadt"},"district":{"key":"07336","name":"Kusel","type":"Landkreis"},"federalState":{"key":"07","name":"Rheinland-Pfalz"}},{"name":"Kreuzwiesenstr.","postalCode":"66869","locality":"Kusel","municipality":{"key":"07336055","name":"Kusel, Stadt","type":"Stadt"},"district":{"key":"07336","name":"Kusel","type":"Landkreis"},"federalState":{"key":"07","name":"Rheinland-Pfalz"}},{"name":"Kuseler Str.","postalCode":"66869","locality":"Kusel","municipality":{"key":"07336055","name":"Kusel, Stadt","type":"Stadt"},"district":{"key":"07336","name":"Kusel","type":"Landkreis"},"federalState":{"key":"07","name":"Rheinland-Pfalz"}},{"name":"Landschaftsstr.","postalCode":"66869","locality":"Kusel","municipality":{"key":"07336055","name":"Kusel, Stadt","type":"Stadt"},"district":{"key":"07336","name":"Kusel","type":"Landkreis"},"federalState":{"key":"07","name":"Rheinland-Pfalz"}},{"name":"Lehnstaffel","postalCode":"66869","locality":"Kusel","municipality":{"key":"07336055","name":"Kusel, Stadt","type":"Stadt"},"district":{"key":"07336","name":"Kusel","type":"Landkreis"},"federalState":{"key":"07","name":"Rheinland-Pfalz"}},{"name":"Lehnstr.","postalCode":"66869","locality":"Kusel","municipality":{"key":"07336055","name":"Kusel, Stadt","type":"Stadt"},"district":{"key":"07336","name":"Kusel","type":"Landkreis"},"federalState":{"key":"07","name":"Rheinland-Pfalz"}},{"name":"Luitpoldstr.","postalCode":"66869","locality":"Kusel","municipality":{"key":"07336055","name":"Kusel, Stadt","type":"Stadt"},"district":{"key":"07336","name":"Kusel","type":"Landkreis"},"federalState":{"key":"07","name":"Rheinland-Pfalz"}},{"name":"Marktplatz","postalCode":"66869","locality":"Kusel","municipality":{"key":"07336055","name":"Kusel, Stadt","type":"Stadt"},"district":{"key":"07336","name":"Kusel","type":"Landkreis"},"federalState":{"key":"07","name":"Rheinland-Pfalz"}},{"name":"Marktstr.","postalCode":"66869","locality":"Kusel","municipality":{"key":"07336055","name":"Kusel, Stadt","type":"Stadt"},"district":{"key":"07336","name":"Kusel","type":"Landkreis"},"federalState":{"key":"07","name":"Rheinland-Pfalz"}},{"name":"Matzenberg","postalCode":"66869","locality":"Kusel","municipality":{"key":"07336055","name":"Kusel, Stadt","type":"Stadt"},"district":{"key":"07336","name":"Kusel","type":"Landkreis"},"federalState":{"key":"07","name":"Rheinland-Pfalz"}},{"name":"Mühlstr.","postalCode":"66869","locality":"Kusel","municipality":{"key":"07336055","name":"Kusel, Stadt","type":"Stadt"},"district":{"key":"07336","name":"Kusel","type":"Landkreis"},"federalState":{"key":"07","name":"Rheinland-Pfalz"}},{"name":"Mühlweg","postalCode":"66869","locality":"Kusel","municipality":{"key":"07336055","name":"Kusel, Stadt","type":"Stadt"},"district":{"key":"07336","name":"Kusel","type":"Landkreis"},"federalState":{"key":"07","name":"Rheinland-Pfalz"}},{"name":"Niederhoferstr.","postalCode":"66869","locality":"Kusel","municipality":{"key":"07336055","name":"Kusel, Stadt","type":"Stadt"},"district":{"key":"07336","name":"Kusel","type":"Landkreis"},"federalState":{"key":"07","name":"Rheinland-Pfalz"}},{"name":"Obergasse","postalCode":"67745","locality":"Grumbach","municipality":{"key":"07336033","name":"Grumbach","type":"Kreisangehörige_Gemeinde"},"district":{"key":"07336","name":"Kusel","type":"Landkreis"},"federalState":{"key":"07","name":"Rheinland-Pfalz"}},{"name":"Oberstr.","postalCode":"67745","locality":"Grumbach","municipality":{"key":"07336033","name":"Grumbach","type":"Kreisangehörige_Gemeinde"},"district":{"key":"07336","name":"Kusel","type":"Landkreis"},"federalState":{"key":"07","name":"Rheinland-Pfalz"}},{"name":"Park Toucy","postalCode":"66869","locality":"Kusel","municipality":{"key":"07336055","name":"Kusel, Stadt","type":"Stadt"},"district":{"key":"07336","name":"Kusel","type":"Landkreis"},"federalState":{"key":"07","name":"Rheinland-Pfalz"}},{"name":"Paul-Münch-Str.","postalCode":"66869","locality":"Kusel","municipality":{"key":"07336055","name":"Kusel, Stadt","type":"Stadt"},"district":{"key":"07336","name":"Kusel","type":"Landkreis"},"federalState":{"key":"07","name":"Rheinland-Pfalz"}},{"name":"Raiffeisenplatz","postalCode":"66869","locality":"Kusel","municipality":{"key":"07336055","name":"Kusel, Stadt","type":"Stadt"},"district":{"key":"07336","name":"Kusel","type":"Landkreis"},"federalState":{"key":"07","name":"Rheinland-Pfalz"}},{"name":"Reiheichen","postalCode":"66869","locality":"Kusel","municipality":{"key":"07336055","name":"Kusel, Stadt","type":"Stadt"},"district":{"key":"07336","name":"Kusel","type":"Landkreis"},"federalState":{"key":"07","name":"Rheinland-Pfalz"}},{"name":"Remigiusbergstr.","postalCode":"66869","locality":"Kusel","municipality":{"key":"07336055","name":"Kusel, Stadt","type":"Stadt"},"district":{"key":"07336","name":"Kusel","type":"Landkreis"},"federalState":{"key":"07","name":"Rheinland-Pfalz"}},{"name":"Ringstr.","postalCode":"66869","locality":"Kusel","municipality":{"key":"07336055","name":"Kusel, Stadt","type":"Stadt"},"district":{"key":"07336","name":"Kusel","type":"Landkreis"},"federalState":{"key":"07","name":"Rheinland-Pfalz"}},{"name":"Röbelweg","postalCode":"66869","locality":"Kusel","municipality":{"key":"07336055","name":"Kusel, Stadt","type":"Stadt"},"district":{"key":"07336","name":"Kusel","type":"Landkreis"},"federalState":{"key":"07","name":"Rheinland-Pfalz"}},{"name":"Römerweg","postalCode":"66869","locality":"Kusel","municipality":{"key":"07336055","name":"Kusel, Stadt","type":"Stadt"},"district":{"key":"07336","name":"Kusel","type":"Landkreis"},"federalState":{"key":"07","name":"Rheinland-Pfalz"}},{"name":"Rotenturmweg","postalCode":"66869","locality":"Kusel","municipality":{"key":"07336055","name":"Kusel, Stadt","type":"Stadt"},"district":{"key":"07336","name":"Kusel","type":"Landkreis"},"federalState":{"key":"07","name":"Rheinland-Pfalz"}},{"name":"Sonnenhof","postalCode":"67745","locality":"Grumbach","municipality":{"key":"07336033","name":"Grumbach","type":"Kreisangehörige_Gemeinde"},"district":{"key":"07336","name":"Kusel","type":"Landkreis"},"federalState":{"key":"07","name":"Rheinland-Pfalz"}},{"name":"Sonnhofweg","postalCode":"67745","locality":"Grumbach","municipality":{"key":"07336033","name":"Grumbach","type":"Kreisangehörige_Gemeinde"},"district":{"key":"07336","name":"Kusel","type":"Landkreis"},"federalState":{"key":"07","name":"Rheinland-Pfalz"}},{"name":"Triebstr.","postalCode":"66869","locality":"Kusel","municipality":{"key":"07336055","name":"Kusel, Stadt","type":"Stadt"},"district":{"key":"07336","name":"Kusel","type":"Landkreis"},"federalState":{"key":"07","name":"Rheinland-Pfalz"}},{"name":"Trierer Str.","postalCode":"66869","locality":"Kusel","municipality":{"key":"07336055","name":"Kusel, Stadt","type":"Stadt"},"district":{"key":"07336","name":"Kusel","type":"Landkreis"},"federalState":{"key":"07","name":"Rheinland-Pfalz"}},{"name":"Tuchrahmstr.","postalCode":"66869","locality":"Kusel","municipality":{"key":"07336055","name":"Kusel, Stadt","type":"Stadt"},"district":{"key":"07336","name":"Kusel","type":"Landkreis"},"federalState":{"key":"07","name":"Rheinland-Pfalz"}},{"name":"Tuchrahmtreppchen","postalCode":"66869","locality":"Kusel","municipality":{"key":"07336055","name":"Kusel, Stadt","type":"Stadt"},"district":{"key":"07336","name":"Kusel","type":"Landkreis"},"federalState":{"key":"07","name":"Rheinland-Pfalz"}},{"name":"Unter dem Schloß","postalCode":"67745","locality":"Grumbach","municipality":{"key":"07336033","name":"Grumbach","type":"Kreisangehörige_Gemeinde"},"district":{"key":"07336","name":"Kusel","type":"Landkreis"},"federalState":{"key":"07","name":"Rheinland-Pfalz"}},{"name":"Untergasse","postalCode":"67745","locality":"Grumbach","municipality":{"key":"07336033","name":"Grumbach","type":"Kreisangehörige_Gemeinde"},"district":{"key":"07336","name":"Kusel","type":"Landkreis"},"federalState":{"key":"07","name":"Rheinland-Pfalz"}},{"name":"Unterstr.","postalCode":"67745","locality":"Grumbach","municipality":{"key":"07336033","name":"Grumbach","type":"Kreisangehörige_Gemeinde"},"district":{"key":"07336","name":"Kusel","type":"Landkreis"},"federalState":{"key":"07","name":"Rheinland-Pfalz"}},{"name":"Vogelsheerd","postalCode":"67745","locality":"Grumbach","municipality":{"key":"07336033","name":"Grumbach","type":"Kreisangehörige_Gemeinde"},"district":{"key":"07336","name":"Kusel","type":"Landkreis"},"federalState":{"key":"07","name":"Rheinland-Pfalz"}},{"name":"Walkmühlstr.","postalCode":"66869","locality":"Kusel","municipality":{"key":"07336055","name":"Kusel, Stadt","type":"Stadt"},"district":{"key":"07336","name":"Kusel","type":"Landkreis"},"federalState":{"key":"07","name":"Rheinland-Pfalz"}},{"name":"Weibergraben","postalCode":"66869","locality":"Kusel","municipality":{"key":"07336055","name":"Kusel, Stadt","type":"Stadt"},"district":{"key":"07336","name":"Kusel","type":"Landkreis"},"federalState":{"key":"07","name":"Rheinland-Pfalz"}},{"name":"Weiherhäuschen","postalCode":"66869","locality":"Kusel","municipality":{"key":"07336055","name":"Kusel, Stadt","type":"Stadt"},"district":{"key":"07336","name":"Kusel","type":"Landkreis"},"federalState":{"key":"07","name":"Rheinland-Pfalz"}},{"name":"Weiherplatz","postalCode":"66869","locality":"Kusel","municipality":{"key":"07336055","name":"Kusel, Stadt","type":"Stadt"},"district":{"key":"07336","name":"Kusel","type":"Landkreis"},"federalState":{"key":"07","name":"Rheinland-Pfalz"}},{"name":"Wingertstr.","postalCode":"66869","locality":"Kusel","municipality":{"key":"07336055","name":"Kusel, Stadt","type":"Stadt"},"district":{"key":"07336","name":"Kusel","type":"Landkreis"},"federalState":{"key":"07","name":"Rheinland-Pfalz"}},{"name":"Zalaweg","postalCode":"66869","locality":"Kusel","municipality":{"key":"07336055","name":"Kusel, Stadt","type":"Stadt"},"district":{"key":"07336","name":"Kusel","type":"Landkreis"},"federalState":{"key":"07","name":"Rheinland-Pfalz"}},{"name":"Zieselbach","postalCode":"66869","locality":"Kusel","municipality":{"key":"07336055","name":"Kusel, Stadt","type":"Stadt"},"district":{"key":"07336","name":"Kusel","type":"Landkreis"},"federalState":{"key":"07","name":"Rheinland-Pfalz"}},{"name":"Zum halben Mond","postalCode":"66869","locality":"Kusel","municipality":{"key":"07336055","name":"Kusel, Stadt","type":"Stadt"},"district":{"key":"07336","name":"Kusel","type":"Landkreis"},"federalState":{"key":"07","name":"Rheinland-Pfalz"}},{"name":"Zur Winterhelle","postalCode":"66869","locality":"Kusel","municipality":{"key":"07336055","name":"Kusel, Stadt","type":"Stadt"},"district":{"key":"07336","name":"Kusel","type":"Landkreis"},"federalState":{"key":"07","name":"Rheinland-Pfalz"}},{"name":"Ödesrech","postalCode":"67745","locality":"Grumbach","municipality":{"key":"07336033","name":"Grumbach","type":"Kreisangehörige_Gemeinde"},"district":{"key":"07336","name":"Kusel","type":"Landkreis"},"federalState":{"key":"07","name":"Rheinland-Pfalz"}},]