[{"name":"Alte Str.","postalCode":"54570","locality":"Mürlenbach","municipality":{"key":"07233227","name":"Mürlenbach","type":"Kreisangehörige_Gemeinde"},"district":{"key":"07233","name":"Vulkaneifel","type":"Landkreis"},"federalState":{"key":"07","name":"Rheinland-Pfalz"}},{"name":"Am Heimelchen","postalCode":"54570","locality":"Mürlenbach","municipality":{"key":"07233227","name":"Mürlenbach","type":"Kreisangehörige_Gemeinde"},"district":{"key":"07233","name":"Vulkaneifel","type":"Landkreis"},"federalState":{"key":"07","name":"Rheinland-Pfalz"}},{"name":"Am Remelsbach","postalCode":"54570","locality":"Mürlenbach","municipality":{"key":"07233227","name":"Mürlenbach","type":"Kreisangehörige_Gemeinde"},"district":{"key":"07233","name":"Vulkaneifel","type":"Landkreis"},"federalState":{"key":"07","name":"Rheinland-Pfalz"}},{"name":"Aud der Heid","postalCode":"54570","locality":"Mürlenbach","municipality":{"key":"07233227","name":"Mürlenbach","type":"Kreisangehörige_Gemeinde"},"district":{"key":"07233","name":"Vulkaneifel","type":"Landkreis"},"federalState":{"key":"07","name":"Rheinland-Pfalz"}},{"name":"Auf dem Hostert","postalCode":"54570","locality":"Mürlenbach","municipality":{"key":"07233227","name":"Mürlenbach","type":"Kreisangehörige_Gemeinde"},"district":{"key":"07233","name":"Vulkaneifel","type":"Landkreis"},"federalState":{"key":"07","name":"Rheinland-Pfalz"}},{"name":"Auf Walbern","postalCode":"54570","locality":"Mürlenbach","municipality":{"key":"07233227","name":"Mürlenbach","type":"Kreisangehörige_Gemeinde"},"district":{"key":"07233","name":"Vulkaneifel","type":"Landkreis"},"federalState":{"key":"07","name":"Rheinland-Pfalz"}},{"name":"Bahnhofstr.","postalCode":"54570","locality":"Mürlenbach","municipality":{"key":"07233227","name":"Mürlenbach","type":"Kreisangehörige_Gemeinde"},"district":{"key":"07233","name":"Vulkaneifel","type":"Landkreis"},"federalState":{"key":"07","name":"Rheinland-Pfalz"}},{"name":"Bergstr.","postalCode":"54570","locality":"Mürlenbach","municipality":{"key":"07233227","name":"Mürlenbach","type":"Kreisangehörige_Gemeinde"},"district":{"key":"07233","name":"Vulkaneifel","type":"Landkreis"},"federalState":{"key":"07","name":"Rheinland-Pfalz"}},{"name":"Beulertweg","postalCode":"54570","locality":"Mürlenbach","municipality":{"key":"07233227","name":"Mürlenbach","type":"Kreisangehörige_Gemeinde"},"district":{"key":"07233","name":"Vulkaneifel","type":"Landkreis"},"federalState":{"key":"07","name":"Rheinland-Pfalz"}},{"name":"Birresborner Str.","postalCode":"54570","locality":"Mürlenbach","municipality":{"key":"07233227","name":"Mürlenbach","type":"Kreisangehörige_Gemeinde"},"district":{"key":"07233","name":"Vulkaneifel","type":"Landkreis"},"federalState":{"key":"07","name":"Rheinland-Pfalz"}},{"name":"Buchholzweg","postalCode":"54570","locality":"Mürlenbach","municipality":{"key":"07233227","name":"Mürlenbach","type":"Kreisangehörige_Gemeinde"},"district":{"key":"07233","name":"Vulkaneifel","type":"Landkreis"},"federalState":{"key":"07","name":"Rheinland-Pfalz"}},{"name":"Burgring","postalCode":"54570","locality":"Mürlenbach","municipality":{"key":"07233227","name":"Mürlenbach","type":"Kreisangehörige_Gemeinde"},"district":{"key":"07233","name":"Vulkaneifel","type":"Landkreis"},"federalState":{"key":"07","name":"Rheinland-Pfalz"}},{"name":"Densborner Str.","postalCode":"54570","locality":"Mürlenbach","municipality":{"key":"07233227","name":"Mürlenbach","type":"Kreisangehörige_Gemeinde"},"district":{"key":"07233","name":"Vulkaneifel","type":"Landkreis"},"federalState":{"key":"07","name":"Rheinland-Pfalz"}},{"name":"Eichelseifen","postalCode":"54570","locality":"Mürlenbach","municipality":{"key":"07233227","name":"Mürlenbach","type":"Kreisangehörige_Gemeinde"},"district":{"key":"07233","name":"Vulkaneifel","type":"Landkreis"},"federalState":{"key":"07","name":"Rheinland-Pfalz"}},{"name":"Hanert","postalCode":"54570","locality":"Mürlenbach","municipality":{"key":"07233227","name":"Mürlenbach","type":"Kreisangehörige_Gemeinde"},"district":{"key":"07233","name":"Vulkaneifel","type":"Landkreis"},"federalState":{"key":"07","name":"Rheinland-Pfalz"}},{"name":"Hardter Weg","postalCode":"54570","locality":"Mürlenbach","municipality":{"key":"07233227","name":"Mürlenbach","type":"Kreisangehörige_Gemeinde"},"district":{"key":"07233","name":"Vulkaneifel","type":"Landkreis"},"federalState":{"key":"07","name":"Rheinland-Pfalz"}},{"name":"Hauptstr.","postalCode":"54570","locality":"Mürlenbach","municipality":{"key":"07233227","name":"Mürlenbach","type":"Kreisangehörige_Gemeinde"},"district":{"key":"07233","name":"Vulkaneifel","type":"Landkreis"},"federalState":{"key":"07","name":"Rheinland-Pfalz"}},{"name":"Hinter Herschenhaus","postalCode":"54570","locality":"Mürlenbach","municipality":{"key":"07233227","name":"Mürlenbach","type":"Kreisangehörige_Gemeinde"},"district":{"key":"07233","name":"Vulkaneifel","type":"Landkreis"},"federalState":{"key":"07","name":"Rheinland-Pfalz"}},{"name":"Im Braunebachtal","postalCode":"54570","locality":"Mürlenbach","municipality":{"key":"07233227","name":"Mürlenbach","type":"Kreisangehörige_Gemeinde"},"district":{"key":"07233","name":"Vulkaneifel","type":"Landkreis"},"federalState":{"key":"07","name":"Rheinland-Pfalz"}},{"name":"Im Mühlenpesch","postalCode":"54570","locality":"Mürlenbach","municipality":{"key":"07233227","name":"Mürlenbach","type":"Kreisangehörige_Gemeinde"},"district":{"key":"07233","name":"Vulkaneifel","type":"Landkreis"},"federalState":{"key":"07","name":"Rheinland-Pfalz"}},{"name":"In den Wiesen","postalCode":"54570","locality":"Mürlenbach","municipality":{"key":"07233227","name":"Mürlenbach","type":"Kreisangehörige_Gemeinde"},"district":{"key":"07233","name":"Vulkaneifel","type":"Landkreis"},"federalState":{"key":"07","name":"Rheinland-Pfalz"}},{"name":"Meisburger Str.","postalCode":"54570","locality":"Mürlenbach","municipality":{"key":"07233227","name":"Mürlenbach","type":"Kreisangehörige_Gemeinde"},"district":{"key":"07233","name":"Vulkaneifel","type":"Landkreis"},"federalState":{"key":"07","name":"Rheinland-Pfalz"}},{"name":"Neuenweg","postalCode":"54570","locality":"Mürlenbach","municipality":{"key":"07233227","name":"Mürlenbach","type":"Kreisangehörige_Gemeinde"},"district":{"key":"07233","name":"Vulkaneifel","type":"Landkreis"},"federalState":{"key":"07","name":"Rheinland-Pfalz"}},{"name":"Neustadt","postalCode":"54570","locality":"Mürlenbach","municipality":{"key":"07233227","name":"Mürlenbach","type":"Kreisangehörige_Gemeinde"},"district":{"key":"07233","name":"Vulkaneifel","type":"Landkreis"},"federalState":{"key":"07","name":"Rheinland-Pfalz"}},{"name":"Schönecker Str.","postalCode":"54570","locality":"Mürlenbach","municipality":{"key":"07233227","name":"Mürlenbach","type":"Kreisangehörige_Gemeinde"},"district":{"key":"07233","name":"Vulkaneifel","type":"Landkreis"},"federalState":{"key":"07","name":"Rheinland-Pfalz"}},{"name":"Schulplatz","postalCode":"54570","locality":"Mürlenbach","municipality":{"key":"07233227","name":"Mürlenbach","type":"Kreisangehörige_Gemeinde"},"district":{"key":"07233","name":"Vulkaneifel","type":"Landkreis"},"federalState":{"key":"07","name":"Rheinland-Pfalz"}},{"name":"Steinertweg","postalCode":"54570","locality":"Mürlenbach","municipality":{"key":"07233227","name":"Mürlenbach","type":"Kreisangehörige_Gemeinde"},"district":{"key":"07233","name":"Vulkaneifel","type":"Landkreis"},"federalState":{"key":"07","name":"Rheinland-Pfalz"}},]