[{"name":"Alte Gasse","postalCode":"55487","locality":"Laufersweiler","municipality":{"key":"07140081","name":"Laufersweiler","type":"Kreisangehörige_Gemeinde"},"district":{"key":"07140","name":"Rhein-Hunsrück-Kreis","type":"Landkreis"},"federalState":{"key":"07","name":"Rheinland-Pfalz"}},{"name":"Auf der Linde","postalCode":"55487","locality":"Laufersweiler","municipality":{"key":"07140081","name":"Laufersweiler","type":"Kreisangehörige_Gemeinde"},"district":{"key":"07140","name":"Rhein-Hunsrück-Kreis","type":"Landkreis"},"federalState":{"key":"07","name":"Rheinland-Pfalz"}},{"name":"Bergstr.","postalCode":"55487","locality":"Laufersweiler","municipality":{"key":"07140081","name":"Laufersweiler","type":"Kreisangehörige_Gemeinde"},"district":{"key":"07140","name":"Rhein-Hunsrück-Kreis","type":"Landkreis"},"federalState":{"key":"07","name":"Rheinland-Pfalz"}},{"name":"Burenbach","postalCode":"55487","locality":"Laufersweiler","municipality":{"key":"07140081","name":"Laufersweiler","type":"Kreisangehörige_Gemeinde"},"district":{"key":"07140","name":"Rhein-Hunsrück-Kreis","type":"Landkreis"},"federalState":{"key":"07","name":"Rheinland-Pfalz"}},{"name":"Die Fahrt","postalCode":"55487","locality":"Laufersweiler","municipality":{"key":"07140081","name":"Laufersweiler","type":"Kreisangehörige_Gemeinde"},"district":{"key":"07140","name":"Rhein-Hunsrück-Kreis","type":"Landkreis"},"federalState":{"key":"07","name":"Rheinland-Pfalz"}},{"name":"Die Hell","postalCode":"55487","locality":"Laufersweiler","municipality":{"key":"07140081","name":"Laufersweiler","type":"Kreisangehörige_Gemeinde"},"district":{"key":"07140","name":"Rhein-Hunsrück-Kreis","type":"Landkreis"},"federalState":{"key":"07","name":"Rheinland-Pfalz"}},{"name":"Diller Weg","postalCode":"55487","locality":"Laufersweiler","municipality":{"key":"07140081","name":"Laufersweiler","type":"Kreisangehörige_Gemeinde"},"district":{"key":"07140","name":"Rhein-Hunsrück-Kreis","type":"Landkreis"},"federalState":{"key":"07","name":"Rheinland-Pfalz"}},{"name":"Flakweg","postalCode":"55487","locality":"Laufersweiler","municipality":{"key":"07140081","name":"Laufersweiler","type":"Kreisangehörige_Gemeinde"},"district":{"key":"07140","name":"Rhein-Hunsrück-Kreis","type":"Landkreis"},"federalState":{"key":"07","name":"Rheinland-Pfalz"}},{"name":"Fuckerter Weg","postalCode":"55487","locality":"Laufersweiler","municipality":{"key":"07140081","name":"Laufersweiler","type":"Kreisangehörige_Gemeinde"},"district":{"key":"07140","name":"Rhein-Hunsrück-Kreis","type":"Landkreis"},"federalState":{"key":"07","name":"Rheinland-Pfalz"}},{"name":"Im Dellenbaum","postalCode":"55487","locality":"Laufersweiler","municipality":{"key":"07140081","name":"Laufersweiler","type":"Kreisangehörige_Gemeinde"},"district":{"key":"07140","name":"Rhein-Hunsrück-Kreis","type":"Landkreis"},"federalState":{"key":"07","name":"Rheinland-Pfalz"}},{"name":"Im Hang","postalCode":"55487","locality":"Laufersweiler","municipality":{"key":"07140081","name":"Laufersweiler","type":"Kreisangehörige_Gemeinde"},"district":{"key":"07140","name":"Rhein-Hunsrück-Kreis","type":"Landkreis"},"federalState":{"key":"07","name":"Rheinland-Pfalz"}},{"name":"Kelebann","postalCode":"55487","locality":"Laufersweiler","municipality":{"key":"07140081","name":"Laufersweiler","type":"Kreisangehörige_Gemeinde"},"district":{"key":"07140","name":"Rhein-Hunsrück-Kreis","type":"Landkreis"},"federalState":{"key":"07","name":"Rheinland-Pfalz"}},{"name":"Kirchgasse","postalCode":"55487","locality":"Laufersweiler","municipality":{"key":"07140081","name":"Laufersweiler","type":"Kreisangehörige_Gemeinde"},"district":{"key":"07140","name":"Rhein-Hunsrück-Kreis","type":"Landkreis"},"federalState":{"key":"07","name":"Rheinland-Pfalz"}},{"name":"Krummenauer Weg","postalCode":"55487","locality":"Laufersweiler","municipality":{"key":"07140081","name":"Laufersweiler","type":"Kreisangehörige_Gemeinde"},"district":{"key":"07140","name":"Rhein-Hunsrück-Kreis","type":"Landkreis"},"federalState":{"key":"07","name":"Rheinland-Pfalz"}},{"name":"Mühlenweg","postalCode":"55487","locality":"Laufersweiler","municipality":{"key":"07140081","name":"Laufersweiler","type":"Kreisangehörige_Gemeinde"},"district":{"key":"07140","name":"Rhein-Hunsrück-Kreis","type":"Landkreis"},"federalState":{"key":"07","name":"Rheinland-Pfalz"}},{"name":"Neuer Weg","postalCode":"55487","locality":"Laufersweiler","municipality":{"key":"07140081","name":"Laufersweiler","type":"Kreisangehörige_Gemeinde"},"district":{"key":"07140","name":"Rhein-Hunsrück-Kreis","type":"Landkreis"},"federalState":{"key":"07","name":"Rheinland-Pfalz"}},{"name":"Niederweiler Weg","postalCode":"55487","locality":"Laufersweiler","municipality":{"key":"07140081","name":"Laufersweiler","type":"Kreisangehörige_Gemeinde"},"district":{"key":"07140","name":"Rhein-Hunsrück-Kreis","type":"Landkreis"},"federalState":{"key":"07","name":"Rheinland-Pfalz"}},{"name":"Obere Anspann","postalCode":"55487","locality":"Laufersweiler","municipality":{"key":"07140081","name":"Laufersweiler","type":"Kreisangehörige_Gemeinde"},"district":{"key":"07140","name":"Rhein-Hunsrück-Kreis","type":"Landkreis"},"federalState":{"key":"07","name":"Rheinland-Pfalz"}},{"name":"Provinzialstr.","postalCode":"55487","locality":"Laufersweiler","municipality":{"key":"07140081","name":"Laufersweiler","type":"Kreisangehörige_Gemeinde"},"district":{"key":"07140","name":"Rhein-Hunsrück-Kreis","type":"Landkreis"},"federalState":{"key":"07","name":"Rheinland-Pfalz"}},{"name":"Schulstr.","postalCode":"55487","locality":"Laufersweiler","municipality":{"key":"07140081","name":"Laufersweiler","type":"Kreisangehörige_Gemeinde"},"district":{"key":"07140","name":"Rhein-Hunsrück-Kreis","type":"Landkreis"},"federalState":{"key":"07","name":"Rheinland-Pfalz"}},{"name":"Sonnenstr.","postalCode":"55487","locality":"Laufersweiler","municipality":{"key":"07140081","name":"Laufersweiler","type":"Kreisangehörige_Gemeinde"},"district":{"key":"07140","name":"Rhein-Hunsrück-Kreis","type":"Landkreis"},"federalState":{"key":"07","name":"Rheinland-Pfalz"}},{"name":"Unterdorf","postalCode":"55487","locality":"Laufersweiler","municipality":{"key":"07140081","name":"Laufersweiler","type":"Kreisangehörige_Gemeinde"},"district":{"key":"07140","name":"Rhein-Hunsrück-Kreis","type":"Landkreis"},"federalState":{"key":"07","name":"Rheinland-Pfalz"}},{"name":"Wiesenstr.","postalCode":"55487","locality":"Laufersweiler","municipality":{"key":"07140081","name":"Laufersweiler","type":"Kreisangehörige_Gemeinde"},"district":{"key":"07140","name":"Rhein-Hunsrück-Kreis","type":"Landkreis"},"federalState":{"key":"07","name":"Rheinland-Pfalz"}},]