[{"name":"Alter Bahnweg","postalCode":"21445","locality":"Wulfsen","municipality":{"key":"03353042","name":"Wulfsen","type":"Kreisangehörige_Gemeinde"},"district":{"key":"03353","name":"Harburg","type":"Landkreis"},"federalState":{"key":"03","name":"Niedersachsen"}},{"name":"Am Bahnhof","postalCode":"21445","locality":"Wulfsen","municipality":{"key":"03353042","name":"Wulfsen","type":"Kreisangehörige_Gemeinde"},"district":{"key":"03353","name":"Harburg","type":"Landkreis"},"federalState":{"key":"03","name":"Niedersachsen"}},{"name":"Am Finkenberg","postalCode":"21445","locality":"Wulfsen","municipality":{"key":"03353042","name":"Wulfsen","type":"Kreisangehörige_Gemeinde"},"district":{"key":"03353","name":"Harburg","type":"Landkreis"},"federalState":{"key":"03","name":"Niedersachsen"}},{"name":"Am Langenberg","postalCode":"21445","locality":"Wulfsen","municipality":{"key":"03353042","name":"Wulfsen","type":"Kreisangehörige_Gemeinde"},"district":{"key":"03353","name":"Harburg","type":"Landkreis"},"federalState":{"key":"03","name":"Niedersachsen"}},{"name":"An der Aue","postalCode":"21445","locality":"Wulfsen","municipality":{"key":"03353042","name":"Wulfsen","type":"Kreisangehörige_Gemeinde"},"district":{"key":"03353","name":"Harburg","type":"Landkreis"},"federalState":{"key":"03","name":"Niedersachsen"}},{"name":"Bergfeld","postalCode":"21445","locality":"Wulfsen","municipality":{"key":"03353042","name":"Wulfsen","type":"Kreisangehörige_Gemeinde"},"district":{"key":"03353","name":"Harburg","type":"Landkreis"},"federalState":{"key":"03","name":"Niedersachsen"}},{"name":"Bergstr.","postalCode":"21445","locality":"Wulfsen","municipality":{"key":"03353042","name":"Wulfsen","type":"Kreisangehörige_Gemeinde"},"district":{"key":"03353","name":"Harburg","type":"Landkreis"},"federalState":{"key":"03","name":"Niedersachsen"}},{"name":"Birkenstr.","postalCode":"21445","locality":"Wulfsen","municipality":{"key":"03353042","name":"Wulfsen","type":"Kreisangehörige_Gemeinde"},"district":{"key":"03353","name":"Harburg","type":"Landkreis"},"federalState":{"key":"03","name":"Niedersachsen"}},{"name":"Bogenstr.","postalCode":"21445","locality":"Wulfsen","municipality":{"key":"03353042","name":"Wulfsen","type":"Kreisangehörige_Gemeinde"},"district":{"key":"03353","name":"Harburg","type":"Landkreis"},"federalState":{"key":"03","name":"Niedersachsen"}},{"name":"Dorfstr.","postalCode":"21445","locality":"Wulfsen","municipality":{"key":"03353042","name":"Wulfsen","type":"Kreisangehörige_Gemeinde"},"district":{"key":"03353","name":"Harburg","type":"Landkreis"},"federalState":{"key":"03","name":"Niedersachsen"}},{"name":"Egelseestr.","postalCode":"86655","locality":"Harburg (Schwaben)","municipality":{"key":"09779155","name":"Harburg (Schwaben), St","type":"Stadt"},"district":{"key":"09779","name":"Donau-Ries","type":"Landkreis"},"federalState":{"key":"09","name":"Bayern"}},{"name":"Eichendorffstr.","postalCode":"86655","locality":"Harburg (Schwaben)","municipality":{"key":"09779155","name":"Harburg (Schwaben), St","type":"Stadt"},"district":{"key":"09779","name":"Donau-Ries","type":"Landkreis"},"federalState":{"key":"09","name":"Bayern"}},{"name":"Eichenstr.","postalCode":"86655","locality":"Harburg (Schwaben)","municipality":{"key":"09779155","name":"Harburg (Schwaben), St","type":"Stadt"},"district":{"key":"09779","name":"Donau-Ries","type":"Landkreis"},"federalState":{"key":"09","name":"Bayern"}},{"name":"Erich-M.-Müller-Str.","postalCode":"86655","locality":"Harburg (Schwaben)","municipality":{"key":"09779155","name":"Harburg (Schwaben), St","type":"Stadt"},"district":{"key":"09779","name":"Donau-Ries","type":"Landkreis"},"federalState":{"key":"09","name":"Bayern"}},{"name":"Eschenlohrstr.","postalCode":"86655","locality":"Harburg (Schwaben)","municipality":{"key":"09779155","name":"Harburg (Schwaben), St","type":"Stadt"},"district":{"key":"09779","name":"Donau-Ries","type":"Landkreis"},"federalState":{"key":"09","name":"Bayern"}},{"name":"Espenstr.","postalCode":"86655","locality":"Harburg (Schwaben)","municipality":{"key":"09779155","name":"Harburg (Schwaben), St","type":"Stadt"},"district":{"key":"09779","name":"Donau-Ries","type":"Landkreis"},"federalState":{"key":"09","name":"Bayern"}},{"name":"Flurstr.","postalCode":"21445","locality":"Wulfsen","municipality":{"key":"03353042","name":"Wulfsen","type":"Kreisangehörige_Gemeinde"},"district":{"key":"03353","name":"Harburg","type":"Landkreis"},"federalState":{"key":"03","name":"Niedersachsen"}},{"name":"Gartenweg","postalCode":"21445","locality":"Wulfsen","municipality":{"key":"03353042","name":"Wulfsen","type":"Kreisangehörige_Gemeinde"},"district":{"key":"03353","name":"Harburg","type":"Landkreis"},"federalState":{"key":"03","name":"Niedersachsen"}},{"name":"Ginsterweg","postalCode":"21445","locality":"Wulfsen","municipality":{"key":"03353042","name":"Wulfsen","type":"Kreisangehörige_Gemeinde"},"district":{"key":"03353","name":"Harburg","type":"Landkreis"},"federalState":{"key":"03","name":"Niedersachsen"}},{"name":"Hainbuchen","postalCode":"21445","locality":"Wulfsen","municipality":{"key":"03353042","name":"Wulfsen","type":"Kreisangehörige_Gemeinde"},"district":{"key":"03353","name":"Harburg","type":"Landkreis"},"federalState":{"key":"03","name":"Niedersachsen"}},{"name":"Heidkoppel","postalCode":"21445","locality":"Wulfsen","municipality":{"key":"03353042","name":"Wulfsen","type":"Kreisangehörige_Gemeinde"},"district":{"key":"03353","name":"Harburg","type":"Landkreis"},"federalState":{"key":"03","name":"Niedersachsen"}},{"name":"Im Osterfelde","postalCode":"21445","locality":"Wulfsen","municipality":{"key":"03353042","name":"Wulfsen","type":"Kreisangehörige_Gemeinde"},"district":{"key":"03353","name":"Harburg","type":"Landkreis"},"federalState":{"key":"03","name":"Niedersachsen"}},{"name":"Im Winkel","postalCode":"21445","locality":"Wulfsen","municipality":{"key":"03353042","name":"Wulfsen","type":"Kreisangehörige_Gemeinde"},"district":{"key":"03353","name":"Harburg","type":"Landkreis"},"federalState":{"key":"03","name":"Niedersachsen"}},{"name":"Judengasse","postalCode":"86655","locality":"Harburg (Schwaben)","municipality":{"key":"09779155","name":"Harburg (Schwaben), St","type":"Stadt"},"district":{"key":"09779","name":"Donau-Ries","type":"Landkreis"},"federalState":{"key":"09","name":"Bayern"}},{"name":"Jurastr.","postalCode":"86655","locality":"Harburg (Schwaben)","municipality":{"key":"09779155","name":"Harburg (Schwaben), St","type":"Stadt"},"district":{"key":"09779","name":"Donau-Ries","type":"Landkreis"},"federalState":{"key":"09","name":"Bayern"}},{"name":"Kartoffelhöfen","postalCode":"21445","locality":"Wulfsen","municipality":{"key":"03353042","name":"Wulfsen","type":"Kreisangehörige_Gemeinde"},"district":{"key":"03353","name":"Harburg","type":"Landkreis"},"federalState":{"key":"03","name":"Niedersachsen"}},{"name":"Kornweg","postalCode":"21445","locality":"Wulfsen","municipality":{"key":"03353042","name":"Wulfsen","type":"Kreisangehörige_Gemeinde"},"district":{"key":"03353","name":"Harburg","type":"Landkreis"},"federalState":{"key":"03","name":"Niedersachsen"}},{"name":"Kreisstr.","postalCode":"21445","locality":"Wulfsen","municipality":{"key":"03353042","name":"Wulfsen","type":"Kreisangehörige_Gemeinde"},"district":{"key":"03353","name":"Harburg","type":"Landkreis"},"federalState":{"key":"03","name":"Niedersachsen"}},{"name":"Lehmbusch","postalCode":"21445","locality":"Wulfsen","municipality":{"key":"03353042","name":"Wulfsen","type":"Kreisangehörige_Gemeinde"},"district":{"key":"03353","name":"Harburg","type":"Landkreis"},"federalState":{"key":"03","name":"Niedersachsen"}},{"name":"Löschweg","postalCode":"21445","locality":"Wulfsen","municipality":{"key":"03353042","name":"Wulfsen","type":"Kreisangehörige_Gemeinde"},"district":{"key":"03353","name":"Harburg","type":"Landkreis"},"federalState":{"key":"03","name":"Niedersachsen"}},{"name":"Moorweg","postalCode":"21445","locality":"Wulfsen","municipality":{"key":"03353042","name":"Wulfsen","type":"Kreisangehörige_Gemeinde"},"district":{"key":"03353","name":"Harburg","type":"Landkreis"},"federalState":{"key":"03","name":"Niedersachsen"}},{"name":"Mühlenberg","postalCode":"21445","locality":"Wulfsen","municipality":{"key":"03353042","name":"Wulfsen","type":"Kreisangehörige_Gemeinde"},"district":{"key":"03353","name":"Harburg","type":"Landkreis"},"federalState":{"key":"03","name":"Niedersachsen"}},{"name":"Mühlenweg","postalCode":"21445","locality":"Wulfsen","municipality":{"key":"03353042","name":"Wulfsen","type":"Kreisangehörige_Gemeinde"},"district":{"key":"03353","name":"Harburg","type":"Landkreis"},"federalState":{"key":"03","name":"Niedersachsen"}},{"name":"Niedereichfeld","postalCode":"21445","locality":"Wulfsen","municipality":{"key":"03353042","name":"Wulfsen","type":"Kreisangehörige_Gemeinde"},"district":{"key":"03353","name":"Harburg","type":"Landkreis"},"federalState":{"key":"03","name":"Niedersachsen"}},{"name":"Osterheide","postalCode":"21445","locality":"Wulfsen","municipality":{"key":"03353042","name":"Wulfsen","type":"Kreisangehörige_Gemeinde"},"district":{"key":"03353","name":"Harburg","type":"Landkreis"},"federalState":{"key":"03","name":"Niedersachsen"}},{"name":"Pattensener Str.","postalCode":"21445","locality":"Wulfsen","municipality":{"key":"03353042","name":"Wulfsen","type":"Kreisangehörige_Gemeinde"},"district":{"key":"03353","name":"Harburg","type":"Landkreis"},"federalState":{"key":"03","name":"Niedersachsen"}},{"name":"Pennbargweg","postalCode":"21445","locality":"Wulfsen","municipality":{"key":"03353042","name":"Wulfsen","type":"Kreisangehörige_Gemeinde"},"district":{"key":"03353","name":"Harburg","type":"Landkreis"},"federalState":{"key":"03","name":"Niedersachsen"}},{"name":"Rüschweg","postalCode":"21445","locality":"Wulfsen","municipality":{"key":"03353042","name":"Wulfsen","type":"Kreisangehörige_Gemeinde"},"district":{"key":"03353","name":"Harburg","type":"Landkreis"},"federalState":{"key":"03","name":"Niedersachsen"}},{"name":"Schulstr.","postalCode":"21445","locality":"Wulfsen","municipality":{"key":"03353042","name":"Wulfsen","type":"Kreisangehörige_Gemeinde"},"district":{"key":"03353","name":"Harburg","type":"Landkreis"},"federalState":{"key":"03","name":"Niedersachsen"}},{"name":"Teufelskuhle","postalCode":"21445","locality":"Wulfsen","municipality":{"key":"03353042","name":"Wulfsen","type":"Kreisangehörige_Gemeinde"},"district":{"key":"03353","name":"Harburg","type":"Landkreis"},"federalState":{"key":"03","name":"Niedersachsen"}},{"name":"Toppenstedter Mühlenweg","postalCode":"21445","locality":"Wulfsen","municipality":{"key":"03353042","name":"Wulfsen","type":"Kreisangehörige_Gemeinde"},"district":{"key":"03353","name":"Harburg","type":"Landkreis"},"federalState":{"key":"03","name":"Niedersachsen"}},{"name":"Toppenstedter Str.","postalCode":"21445","locality":"Wulfsen","municipality":{"key":"03353042","name":"Wulfsen","type":"Kreisangehörige_Gemeinde"},"district":{"key":"03353","name":"Harburg","type":"Landkreis"},"federalState":{"key":"03","name":"Niedersachsen"}},{"name":"Uhlandstr.","postalCode":"86655","locality":"Harburg (Schwaben)","municipality":{"key":"09779155","name":"Harburg (Schwaben), St","type":"Stadt"},"district":{"key":"09779","name":"Donau-Ries","type":"Landkreis"},"federalState":{"key":"09","name":"Bayern"}},{"name":"Untere Breige","postalCode":"86655","locality":"Harburg (Schwaben)","municipality":{"key":"09779155","name":"Harburg (Schwaben), St","type":"Stadt"},"district":{"key":"09779","name":"Donau-Ries","type":"Landkreis"},"federalState":{"key":"09","name":"Bayern"}},{"name":"Unterer Leitenberg","postalCode":"86655","locality":"Harburg (Schwaben)","municipality":{"key":"09779155","name":"Harburg (Schwaben), St","type":"Stadt"},"district":{"key":"09779","name":"Donau-Ries","type":"Landkreis"},"federalState":{"key":"09","name":"Bayern"}},{"name":"Untere Wiedenäcker","postalCode":"86655","locality":"Harburg (Schwaben)","municipality":{"key":"09779155","name":"Harburg (Schwaben), St","type":"Stadt"},"district":{"key":"09779","name":"Donau-Ries","type":"Landkreis"},"federalState":{"key":"09","name":"Bayern"}},{"name":"Vossbarg","postalCode":"21445","locality":"Wulfsen","municipality":{"key":"03353042","name":"Wulfsen","type":"Kreisangehörige_Gemeinde"},"district":{"key":"03353","name":"Harburg","type":"Landkreis"},"federalState":{"key":"03","name":"Niedersachsen"}},{"name":"Wulfsener Mühlenweg","postalCode":"21445","locality":"Wulfsen","municipality":{"key":"03353042","name":"Wulfsen","type":"Kreisangehörige_Gemeinde"},"district":{"key":"03353","name":"Harburg","type":"Landkreis"},"federalState":{"key":"03","name":"Niedersachsen"}},{"name":"Ziegelhütte","postalCode":"86655","locality":"Harburg (Schwaben)","municipality":{"key":"09779155","name":"Harburg (Schwaben), St","type":"Stadt"},"district":{"key":"09779","name":"Donau-Ries","type":"Landkreis"},"federalState":{"key":"09","name":"Bayern"}},]