[{"key":"10139041","name":"Contrada Artisti lamonesi","postalCode":"6814","locality":"Lamone","commune":{"key":"5189","name":"Lamone","shortName":"Lamone"},"district":{"key":"2105","name":"Distretto di Lugano"},"canton":{"key":"21","code":"TI","name":"Ticino"},"status":"Real"},{"key":"10139043","name":"Piazza da Scima","postalCode":"6814","locality":"Lamone","commune":{"key":"5189","name":"Lamone","shortName":"Lamone"},"district":{"key":"2105","name":"Distretto di Lugano"},"canton":{"key":"21","code":"TI","name":"Ticino"},"status":"Real"},{"key":"10165185","name":"Piazza Emigranti","postalCode":"6814","locality":"Lamone","commune":{"key":"5189","name":"Lamone","shortName":"Lamone"},"district":{"key":"2105","name":"Distretto di Lugano"},"canton":{"key":"21","code":"TI","name":"Ticino"},"status":"Real"},{"key":"10139044","name":"Piazza Pasquee","postalCode":"6814","locality":"Lamone","commune":{"key":"5189","name":"Lamone","shortName":"Lamone"},"district":{"key":"2105","name":"Distretto di Lugano"},"canton":{"key":"21","code":"TI","name":"Ticino"},"status":"Real"},{"key":"10139045","name":"Salida di Fra","postalCode":"6814","locality":"Lamone","commune":{"key":"5189","name":"Lamone","shortName":"Lamone"},"district":{"key":"2105","name":"Distretto di Lugano"},"canton":{"key":"21","code":"TI","name":"Ticino"},"status":"Real"},{"key":"10139046","name":"Salita San Grato","postalCode":"6814","locality":"Lamone","commune":{"key":"5189","name":"Lamone","shortName":"Lamone"},"district":{"key":"2105","name":"Distretto di Lugano"},"canton":{"key":"21","code":"TI","name":"Ticino"},"status":"Real"},{"key":"10139047","name":"Sentiero Vecchio Ricudino","postalCode":"6814","locality":"Lamone","commune":{"key":"5189","name":"Lamone","shortName":"Lamone"},"district":{"key":"2105","name":"Distretto di Lugano"},"canton":{"key":"21","code":"TI","name":"Ticino"},"status":"Real"},{"key":"10139048","name":"Strada degli Stemmi","postalCode":"6814","locality":"Lamone","commune":{"key":"5189","name":"Lamone","shortName":"Lamone"},"district":{"key":"2105","name":"Distretto di Lugano"},"canton":{"key":"21","code":"TI","name":"Ticino"},"status":"Real"},{"key":"10139049","name":"Strada di Maestri","postalCode":"6814","locality":"Lamone","commune":{"key":"5189","name":"Lamone","shortName":"Lamone"},"district":{"key":"2105","name":"Distretto di Lugano"},"canton":{"key":"21","code":"TI","name":"Ticino"},"status":"Real"},{"key":"10139050","name":"Strada di Pevri","postalCode":"6814","locality":"Lamone","commune":{"key":"5189","name":"Lamone","shortName":"Lamone"},"district":{"key":"2105","name":"Distretto di Lugano"},"canton":{"key":"21","code":"TI","name":"Ticino"},"status":"Real"},{"key":"10139051","name":"Via agli Orti","postalCode":"6814","locality":"Lamone","commune":{"key":"5189","name":"Lamone","shortName":"Lamone"},"district":{"key":"2105","name":"Distretto di Lugano"},"canton":{"key":"21","code":"TI","name":"Ticino"},"status":"Real"},{"key":"10139052","name":"Via ai Ronchi","postalCode":"6814","locality":"Lamone","commune":{"key":"5189","name":"Lamone","shortName":"Lamone"},"district":{"key":"2105","name":"Distretto di Lugano"},"canton":{"key":"21","code":"TI","name":"Ticino"},"status":"Real"},{"key":"10139053","name":"Via al Casello","postalCode":"6814","locality":"Lamone","commune":{"key":"5189","name":"Lamone","shortName":"Lamone"},"district":{"key":"2105","name":"Distretto di Lugano"},"canton":{"key":"21","code":"TI","name":"Ticino"},"status":"Real"},{"key":"10139054","name":"Via alla Chiesa","postalCode":"6814","locality":"Lamone","commune":{"key":"5189","name":"Lamone","shortName":"Lamone"},"district":{"key":"2105","name":"Distretto di Lugano"},"canton":{"key":"21","code":"TI","name":"Ticino"},"status":"Real"},{"key":"10139055","name":"Via alla Resega","postalCode":"6814","locality":"Lamone","commune":{"key":"5189","name":"Lamone","shortName":"Lamone"},"district":{"key":"2105","name":"Distretto di Lugano"},"canton":{"key":"21","code":"TI","name":"Ticino"},"status":"Real"},{"key":"10149103","name":"Via al Parco","postalCode":"6814","locality":"Lamone","commune":{"key":"5189","name":"Lamone","shortName":"Lamone"},"district":{"key":"2105","name":"Distretto di Lugano"},"canton":{"key":"21","code":"TI","name":"Ticino"},"status":"Real"},{"key":"10054412","name":"Via Artigiani","postalCode":"6814","locality":"Lamone","commune":{"key":"5189","name":"Lamone","shortName":"Lamone"},"district":{"key":"2105","name":"Distretto di Lugano"},"canton":{"key":"21","code":"TI","name":"Ticino"},"status":"Real"},{"key":"10139056","name":"Via Brüga","postalCode":"6814","locality":"Lamone","commune":{"key":"5189","name":"Lamone","shortName":"Lamone"},"district":{"key":"2105","name":"Distretto di Lugano"},"canton":{"key":"21","code":"TI","name":"Ticino"},"status":"Real"},{"key":"10139057","name":"Via Campelli","postalCode":"6814","locality":"Lamone","commune":{"key":"5189","name":"Lamone","shortName":"Lamone"},"district":{"key":"2105","name":"Distretto di Lugano"},"canton":{"key":"21","code":"TI","name":"Ticino"},"status":"Real"},{"key":"10139058","name":"Via Cantonale","postalCode":"6814","locality":"Lamone","commune":{"key":"5189","name":"Lamone","shortName":"Lamone"},"district":{"key":"2105","name":"Distretto di Lugano"},"canton":{"key":"21","code":"TI","name":"Ticino"},"status":"Real"},{"key":"10139059","name":"Via Capelascia","postalCode":"6814","locality":"Lamone","commune":{"key":"5189","name":"Lamone","shortName":"Lamone"},"district":{"key":"2105","name":"Distretto di Lugano"},"canton":{"key":"21","code":"TI","name":"Ticino"},"status":"Real"},{"key":"10139060","name":"Via Carsiné","postalCode":"6814","locality":"Lamone","commune":{"key":"5189","name":"Lamone","shortName":"Lamone"},"district":{"key":"2105","name":"Distretto di Lugano"},"canton":{"key":"21","code":"TI","name":"Ticino"},"status":"Real"},{"key":"10139061","name":"Via Ciossett","postalCode":"6814","locality":"Lamone","commune":{"key":"5189","name":"Lamone","shortName":"Lamone"},"district":{"key":"2105","name":"Distretto di Lugano"},"canton":{"key":"21","code":"TI","name":"Ticino"},"status":"Real"},{"key":"10139062","name":"Via di Zocurin","postalCode":"6814","locality":"Lamone","commune":{"key":"5189","name":"Lamone","shortName":"Lamone"},"district":{"key":"2105","name":"Distretto di Lugano"},"canton":{"key":"21","code":"TI","name":"Ticino"},"status":"Real"},{"key":"10139063","name":"Via Girella","postalCode":"6814","locality":"Lamone","commune":{"key":"5189","name":"Lamone","shortName":"Lamone"},"district":{"key":"2105","name":"Distretto di Lugano"},"canton":{"key":"21","code":"TI","name":"Ticino"},"status":"Real"},{"key":"10139064","name":"Via Girönim","postalCode":"6814","locality":"Lamone","commune":{"key":"5189","name":"Lamone","shortName":"Lamone"},"district":{"key":"2105","name":"Distretto di Lugano"},"canton":{"key":"21","code":"TI","name":"Ticino"},"status":"Real"},{"key":"10139065","name":"Via Industria","postalCode":"6814","locality":"Lamone","commune":{"key":"5189","name":"Lamone","shortName":"Lamone"},"district":{"key":"2105","name":"Distretto di Lugano"},"canton":{"key":"21","code":"TI","name":"Ticino"},"status":"Real"},{"key":"10164107","name":"Via Pré d'là","postalCode":"6814","locality":"Lamone","commune":{"key":"5189","name":"Lamone","shortName":"Lamone"},"district":{"key":"2105","name":"Distretto di Lugano"},"canton":{"key":"21","code":"TI","name":"Ticino"},"status":"Real"},{"key":"10032599","name":"Via Puntell","postalCode":"6814","locality":"Lamone","commune":{"key":"5189","name":"Lamone","shortName":"Lamone"},"district":{"key":"2105","name":"Distretto di Lugano"},"canton":{"key":"21","code":"TI","name":"Ticino"},"status":"Real"},{"key":"10139066","name":"Via Ricanaa","postalCode":"6814","locality":"Lamone","commune":{"key":"5189","name":"Lamone","shortName":"Lamone"},"district":{"key":"2105","name":"Distretto di Lugano"},"canton":{"key":"21","code":"TI","name":"Ticino"},"status":"Real"},{"key":"10139067","name":"Via Roculin","postalCode":"6814","locality":"Lamone","commune":{"key":"5189","name":"Lamone","shortName":"Lamone"},"district":{"key":"2105","name":"Distretto di Lugano"},"canton":{"key":"21","code":"TI","name":"Ticino"},"status":"Real"},{"key":"10139068","name":"Via San Zeno","postalCode":"6814","locality":"Lamone","commune":{"key":"5189","name":"Lamone","shortName":"Lamone"},"district":{"key":"2105","name":"Distretto di Lugano"},"canton":{"key":"21","code":"TI","name":"Ticino"},"status":"Real"},{"key":"10139069","name":"Via Scesca","postalCode":"6814","locality":"Lamone","commune":{"key":"5189","name":"Lamone","shortName":"Lamone"},"district":{"key":"2105","name":"Distretto di Lugano"},"canton":{"key":"21","code":"TI","name":"Ticino"},"status":"Real"},{"key":"10139070","name":"Via Selva","postalCode":"6814","locality":"Lamone","commune":{"key":"5189","name":"Lamone","shortName":"Lamone"},"district":{"key":"2105","name":"Distretto di Lugano"},"canton":{"key":"21","code":"TI","name":"Ticino"},"status":"Real"},{"key":"10139078","name":"Via Serta","postalCode":"6814","locality":"Lamone","commune":{"key":"5189","name":"Lamone","shortName":"Lamone"},"district":{"key":"2105","name":"Distretto di Lugano"},"canton":{"key":"21","code":"TI","name":"Ticino"},"status":"Real"},{"key":"10139071","name":"Via Sirana","postalCode":"6814","locality":"Lamone","commune":{"key":"5189","name":"Lamone","shortName":"Lamone"},"district":{"key":"2105","name":"Distretto di Lugano"},"canton":{"key":"21","code":"TI","name":"Ticino"},"status":"Real"},{"key":"10139072","name":"Via Stazione","postalCode":"6814","locality":"Lamone","commune":{"key":"5189","name":"Lamone","shortName":"Lamone"},"district":{"key":"2105","name":"Distretto di Lugano"},"canton":{"key":"21","code":"TI","name":"Ticino"},"status":"Real"},{"key":"10139073","name":"Via Valeggia","postalCode":"6814","locality":"Lamone","commune":{"key":"5189","name":"Lamone","shortName":"Lamone"},"district":{"key":"2105","name":"Distretto di Lugano"},"canton":{"key":"21","code":"TI","name":"Ticino"},"status":"Real"},{"key":"10136006","name":"Via Valeggia","postalCode":"6814","locality":"Lamone","commune":{"key":"5189","name":"Lamone","shortName":"Lamone"},"district":{"key":"2105","name":"Distretto di Lugano"},"canton":{"key":"21","code":"TI","name":"Ticino"},"status":"Real"},{"key":"10139074","name":"Via Vedeggio","postalCode":"6814","locality":"Lamone","commune":{"key":"5189","name":"Lamone","shortName":"Lamone"},"district":{"key":"2105","name":"Distretto di Lugano"},"canton":{"key":"21","code":"TI","name":"Ticino"},"status":"Real"},{"key":"10139075","name":"Vicolo Bigatèra","postalCode":"6814","locality":"Lamone","commune":{"key":"5189","name":"Lamone","shortName":"Lamone"},"district":{"key":"2105","name":"Distretto di Lugano"},"canton":{"key":"21","code":"TI","name":"Ticino"},"status":"Real"},{"key":"10139076","name":"Vicolo San Domenico","postalCode":"6814","locality":"Lamone","commune":{"key":"5189","name":"Lamone","shortName":"Lamone"},"district":{"key":"2105","name":"Distretto di Lugano"},"canton":{"key":"21","code":"TI","name":"Ticino"},"status":"Real"},{"key":"10139077","name":"Vicolo Scuderia","postalCode":"6814","locality":"Lamone","commune":{"key":"5189","name":"Lamone","shortName":"Lamone"},"district":{"key":"2105","name":"Distretto di Lugano"},"canton":{"key":"21","code":"TI","name":"Ticino"},"status":"Real"},]