[{"key":"10199756","name":"A2","postalCode":"6023","locality":"Rothenburg","commune":{"key":"1040","name":"Rothenburg","shortName":"Rothenburg"},"district":{"key":"313","name":"Wahlkreis Hochdorf"},"canton":{"key":"3","code":"LU","name":"Luzern"},"status":"Real"},{"key":"10209584","name":"A2","postalCode":"6023","locality":"Rothenburg","commune":{"key":"1040","name":"Rothenburg","shortName":"Rothenburg"},"district":{"key":"313","name":"Wahlkreis Hochdorf"},"canton":{"key":"3","code":"LU","name":"Luzern"},"status":"Real"},{"key":"10015012","name":"Allmend","postalCode":"6023","locality":"Rothenburg","commune":{"key":"1040","name":"Rothenburg","shortName":"Rothenburg"},"district":{"key":"313","name":"Wahlkreis Hochdorf"},"canton":{"key":"3","code":"LU","name":"Luzern"},"status":"Real"},{"key":"10064038","name":"Allmendhus","postalCode":"6023","locality":"Rothenburg","commune":{"key":"1040","name":"Rothenburg","shortName":"Rothenburg"},"district":{"key":"313","name":"Wahlkreis Hochdorf"},"canton":{"key":"3","code":"LU","name":"Luzern"},"status":"Real"},{"key":"10085623","name":"Alpenstrasse","postalCode":"6023","locality":"Rothenburg","commune":{"key":"1040","name":"Rothenburg","shortName":"Rothenburg"},"district":{"key":"313","name":"Wahlkreis Hochdorf"},"canton":{"key":"3","code":"LU","name":"Luzern"},"status":"Real"},{"key":"10199755","name":"Alte Kantonsstrasse","postalCode":"6023","locality":"Rothenburg","commune":{"key":"1040","name":"Rothenburg","shortName":"Rothenburg"},"district":{"key":"313","name":"Wahlkreis Hochdorf"},"canton":{"key":"3","code":"LU","name":"Luzern"},"status":"Real"},{"key":"10111757","name":"Bertholdstrasse","postalCode":"6023","locality":"Rothenburg","commune":{"key":"1040","name":"Rothenburg","shortName":"Rothenburg"},"district":{"key":"313","name":"Wahlkreis Hochdorf"},"canton":{"key":"3","code":"LU","name":"Luzern"},"status":"Real"},{"key":"10204998","name":"Bertiswilerwald","postalCode":"6023","locality":"Rothenburg","commune":{"key":"1040","name":"Rothenburg","shortName":"Rothenburg"},"district":{"key":"313","name":"Wahlkreis Hochdorf"},"canton":{"key":"3","code":"LU","name":"Luzern"},"status":"Real"},{"key":"10205498","name":"Bertiswilhöhe","postalCode":"6023","locality":"Rothenburg","commune":{"key":"1040","name":"Rothenburg","shortName":"Rothenburg"},"district":{"key":"313","name":"Wahlkreis Hochdorf"},"canton":{"key":"3","code":"LU","name":"Luzern"},"status":"Real"},{"key":"10105383","name":"Bertiswilstrasse","postalCode":"6023","locality":"Rothenburg","commune":{"key":"1040","name":"Rothenburg","shortName":"Rothenburg"},"district":{"key":"313","name":"Wahlkreis Hochdorf"},"canton":{"key":"3","code":"LU","name":"Luzern"},"status":"Real"},{"key":"10179010","name":"Böltschi","postalCode":"6023","locality":"Rothenburg","commune":{"key":"1040","name":"Rothenburg","shortName":"Rothenburg"},"district":{"key":"313","name":"Wahlkreis Hochdorf"},"canton":{"key":"3","code":"LU","name":"Luzern"},"status":"Real"},{"key":"10178808","name":"Bruderhusen","postalCode":"6023","locality":"Rothenburg","commune":{"key":"1040","name":"Rothenburg","shortName":"Rothenburg"},"district":{"key":"313","name":"Wahlkreis Hochdorf"},"canton":{"key":"3","code":"LU","name":"Luzern"},"status":"Real"},{"key":"10259099","name":"Bruderhusen","postalCode":"6023","locality":"Rothenburg","commune":{"key":"1040","name":"Rothenburg","shortName":"Rothenburg"},"district":{"key":"313","name":"Wahlkreis Hochdorf"},"canton":{"key":"3","code":"LU","name":"Luzern"},"status":"Real"},{"key":"10015013","name":"Buhusen","postalCode":"6023","locality":"Rothenburg","commune":{"key":"1040","name":"Rothenburg","shortName":"Rothenburg"},"district":{"key":"313","name":"Wahlkreis Hochdorf"},"canton":{"key":"3","code":"LU","name":"Luzern"},"status":"Real"},{"key":"10064039","name":"Burghof","postalCode":"6023","locality":"Rothenburg","commune":{"key":"1040","name":"Rothenburg","shortName":"Rothenburg"},"district":{"key":"313","name":"Wahlkreis Hochdorf"},"canton":{"key":"3","code":"LU","name":"Luzern"},"status":"Real"},{"key":"10015014","name":"Burgstrasse","postalCode":"6023","locality":"Rothenburg","commune":{"key":"1040","name":"Rothenburg","shortName":"Rothenburg"},"district":{"key":"313","name":"Wahlkreis Hochdorf"},"canton":{"key":"3","code":"LU","name":"Luzern"},"status":"Real"},{"key":"10199757","name":"Bürlimoosstrasse","postalCode":"6023","locality":"Rothenburg","commune":{"key":"1040","name":"Rothenburg","shortName":"Rothenburg"},"district":{"key":"313","name":"Wahlkreis Hochdorf"},"canton":{"key":"3","code":"LU","name":"Luzern"},"status":"Real"},{"key":"10085624","name":"Buzibachring","postalCode":"6023","locality":"Rothenburg","commune":{"key":"1040","name":"Rothenburg","shortName":"Rothenburg"},"district":{"key":"313","name":"Wahlkreis Hochdorf"},"canton":{"key":"3","code":"LU","name":"Luzern"},"status":"Real"},{"key":"10015015","name":"Buzibachstrasse","postalCode":"6023","locality":"Rothenburg","commune":{"key":"1040","name":"Rothenburg","shortName":"Rothenburg"},"district":{"key":"313","name":"Wahlkreis Hochdorf"},"canton":{"key":"3","code":"LU","name":"Luzern"},"status":"Real"},{"key":"10156392","name":"Chärns","postalCode":"6023","locality":"Rothenburg","commune":{"key":"1040","name":"Rothenburg","shortName":"Rothenburg"},"district":{"key":"313","name":"Wahlkreis Hochdorf"},"canton":{"key":"3","code":"LU","name":"Luzern"},"status":"Real"},{"key":"10201318","name":"Chärnsmatt","postalCode":"6023","locality":"Rothenburg","commune":{"key":"1040","name":"Rothenburg","shortName":"Rothenburg"},"district":{"key":"313","name":"Wahlkreis Hochdorf"},"canton":{"key":"3","code":"LU","name":"Luzern"},"status":"Real"},{"key":"10199758","name":"Chärnsmattstrasse","postalCode":"6023","locality":"Rothenburg","commune":{"key":"1040","name":"Rothenburg","shortName":"Rothenburg"},"district":{"key":"313","name":"Wahlkreis Hochdorf"},"canton":{"key":"3","code":"LU","name":"Luzern"},"status":"Real"},{"key":"10015016","name":"Chüegass","postalCode":"6023","locality":"Rothenburg","commune":{"key":"1040","name":"Rothenburg","shortName":"Rothenburg"},"district":{"key":"313","name":"Wahlkreis Hochdorf"},"canton":{"key":"3","code":"LU","name":"Luzern"},"status":"Real"},{"key":"10055795","name":"Chüeschwand","postalCode":"6023","locality":"Rothenburg","commune":{"key":"1040","name":"Rothenburg","shortName":"Rothenburg"},"district":{"key":"313","name":"Wahlkreis Hochdorf"},"canton":{"key":"3","code":"LU","name":"Luzern"},"status":"Real"},{"key":"10180725","name":"Eichenring","postalCode":"6023","locality":"Rothenburg","commune":{"key":"1040","name":"Rothenburg","shortName":"Rothenburg"},"district":{"key":"313","name":"Wahlkreis Hochdorf"},"canton":{"key":"3","code":"LU","name":"Luzern"},"status":"Real"},{"key":"10064041","name":"Eichenstrasse","postalCode":"6023","locality":"Rothenburg","commune":{"key":"1040","name":"Rothenburg","shortName":"Rothenburg"},"district":{"key":"313","name":"Wahlkreis Hochdorf"},"canton":{"key":"3","code":"LU","name":"Luzern"},"status":"Real"},{"key":"10015017","name":"Eschenbachstrasse","postalCode":"6023","locality":"Rothenburg","commune":{"key":"1040","name":"Rothenburg","shortName":"Rothenburg"},"district":{"key":"313","name":"Wahlkreis Hochdorf"},"canton":{"key":"3","code":"LU","name":"Luzern"},"status":"Real"},{"key":"10085625","name":"Eschenmatte","postalCode":"6023","locality":"Rothenburg","commune":{"key":"1040","name":"Rothenburg","shortName":"Rothenburg"},"district":{"key":"313","name":"Wahlkreis Hochdorf"},"canton":{"key":"3","code":"LU","name":"Luzern"},"status":"Real"},{"key":"10015018","name":"Eschenstrasse","postalCode":"6023","locality":"Rothenburg","commune":{"key":"1040","name":"Rothenburg","shortName":"Rothenburg"},"district":{"key":"313","name":"Wahlkreis Hochdorf"},"canton":{"key":"3","code":"LU","name":"Luzern"},"status":"Real"},{"key":"10015019","name":"Feldheim","postalCode":"6023","locality":"Rothenburg","commune":{"key":"1040","name":"Rothenburg","shortName":"Rothenburg"},"district":{"key":"313","name":"Wahlkreis Hochdorf"},"canton":{"key":"3","code":"LU","name":"Luzern"},"status":"Real"},{"key":"10127850","name":"Felsenegg","postalCode":"6023","locality":"Rothenburg","commune":{"key":"1040","name":"Rothenburg","shortName":"Rothenburg"},"district":{"key":"313","name":"Wahlkreis Hochdorf"},"canton":{"key":"3","code":"LU","name":"Luzern"},"status":"Real"},{"key":"10085626","name":"Fläckehof","postalCode":"6023","locality":"Rothenburg","commune":{"key":"1040","name":"Rothenburg","shortName":"Rothenburg"},"district":{"key":"313","name":"Wahlkreis Hochdorf"},"canton":{"key":"3","code":"LU","name":"Luzern"},"status":"Real"},{"key":"10105384","name":"Fläckematte","postalCode":"6023","locality":"Rothenburg","commune":{"key":"1040","name":"Rothenburg","shortName":"Rothenburg"},"district":{"key":"313","name":"Wahlkreis Hochdorf"},"canton":{"key":"3","code":"LU","name":"Luzern"},"status":"Real"},{"key":"10149295","name":"Fläckepark","postalCode":"6023","locality":"Rothenburg","commune":{"key":"1040","name":"Rothenburg","shortName":"Rothenburg"},"district":{"key":"313","name":"Wahlkreis Hochdorf"},"canton":{"key":"3","code":"LU","name":"Luzern"},"status":"Real"},{"key":"10015020","name":"Fläckeweid","postalCode":"6023","locality":"Rothenburg","commune":{"key":"1040","name":"Rothenburg","shortName":"Rothenburg"},"district":{"key":"313","name":"Wahlkreis Hochdorf"},"canton":{"key":"3","code":"LU","name":"Luzern"},"status":"Real"},{"key":"10179011","name":"Flecken","postalCode":"6023","locality":"Rothenburg","commune":{"key":"1040","name":"Rothenburg","shortName":"Rothenburg"},"district":{"key":"313","name":"Wahlkreis Hochdorf"},"canton":{"key":"3","code":"LU","name":"Luzern"},"status":"Real"},{"key":"10085627","name":"Franz-Zelgerstrasse","postalCode":"6023","locality":"Rothenburg","commune":{"key":"1040","name":"Rothenburg","shortName":"Rothenburg"},"district":{"key":"313","name":"Wahlkreis Hochdorf"},"canton":{"key":"3","code":"LU","name":"Luzern"},"status":"Real"},{"key":"10064042","name":"Friedaustrasse","postalCode":"6023","locality":"Rothenburg","commune":{"key":"1040","name":"Rothenburg","shortName":"Rothenburg"},"district":{"key":"313","name":"Wahlkreis Hochdorf"},"canton":{"key":"3","code":"LU","name":"Luzern"},"status":"Real"},{"key":"10189718","name":"Friedauweg","postalCode":"6023","locality":"Rothenburg","commune":{"key":"1040","name":"Rothenburg","shortName":"Rothenburg"},"district":{"key":"313","name":"Wahlkreis Hochdorf"},"canton":{"key":"3","code":"LU","name":"Luzern"},"status":"Real"},{"key":"10055793","name":"Gerbematt","postalCode":"6023","locality":"Rothenburg","commune":{"key":"1040","name":"Rothenburg","shortName":"Rothenburg"},"district":{"key":"313","name":"Wahlkreis Hochdorf"},"canton":{"key":"3","code":"LU","name":"Luzern"},"status":"Real"},{"key":"10195377","name":"Gibelstrasse","postalCode":"6023","locality":"Rothenburg","commune":{"key":"1040","name":"Rothenburg","shortName":"Rothenburg"},"district":{"key":"313","name":"Wahlkreis Hochdorf"},"canton":{"key":"3","code":"LU","name":"Luzern"},"status":"Real"},{"key":"10117066","name":"Giebel","postalCode":"6023","locality":"Rothenburg","commune":{"key":"1040","name":"Rothenburg","shortName":"Rothenburg"},"district":{"key":"313","name":"Wahlkreis Hochdorf"},"canton":{"key":"3","code":"LU","name":"Luzern"},"status":"Real"},{"key":"10210235","name":"Giebel","postalCode":"6023","locality":"Rothenburg","commune":{"key":"1040","name":"Rothenburg","shortName":"Rothenburg"},"district":{"key":"313","name":"Wahlkreis Hochdorf"},"canton":{"key":"3","code":"LU","name":"Luzern"},"status":"Real"},{"key":"10175324","name":"Gimmermee","postalCode":"6023","locality":"Rothenburg","commune":{"key":"1040","name":"Rothenburg","shortName":"Rothenburg"},"district":{"key":"313","name":"Wahlkreis Hochdorf"},"canton":{"key":"3","code":"LU","name":"Luzern"},"status":"Real"},{"key":"10015021","name":"Gossenrain","postalCode":"6023","locality":"Rothenburg","commune":{"key":"1040","name":"Rothenburg","shortName":"Rothenburg"},"district":{"key":"313","name":"Wahlkreis Hochdorf"},"canton":{"key":"3","code":"LU","name":"Luzern"},"status":"Real"},{"key":"10136861","name":"Grabenweg","postalCode":"6023","locality":"Rothenburg","commune":{"key":"1040","name":"Rothenburg","shortName":"Rothenburg"},"district":{"key":"313","name":"Wahlkreis Hochdorf"},"canton":{"key":"3","code":"LU","name":"Luzern"},"status":"Real"},{"key":"10179012","name":"Grossmatt","postalCode":"6023","locality":"Rothenburg","commune":{"key":"1040","name":"Rothenburg","shortName":"Rothenburg"},"district":{"key":"313","name":"Wahlkreis Hochdorf"},"canton":{"key":"3","code":"LU","name":"Luzern"},"status":"Real"},{"key":"10123202","name":"Hasegässli","postalCode":"6023","locality":"Rothenburg","commune":{"key":"1040","name":"Rothenburg","shortName":"Rothenburg"},"district":{"key":"313","name":"Wahlkreis Hochdorf"},"canton":{"key":"3","code":"LU","name":"Luzern"},"status":"Real"},{"key":"10085628","name":"Hasenmoosstrasse","postalCode":"6023","locality":"Rothenburg","commune":{"key":"1040","name":"Rothenburg","shortName":"Rothenburg"},"district":{"key":"313","name":"Wahlkreis Hochdorf"},"canton":{"key":"3","code":"LU","name":"Luzern"},"status":"Real"},{"key":"10111758","name":"Hermolingen","postalCode":"6023","locality":"Rothenburg","commune":{"key":"1040","name":"Rothenburg","shortName":"Rothenburg"},"district":{"key":"313","name":"Wahlkreis Hochdorf"},"canton":{"key":"3","code":"LU","name":"Luzern"},"status":"Real"},{"key":"10014560","name":"Hermolingenhalde","postalCode":"6023","locality":"Rothenburg","commune":{"key":"1040","name":"Rothenburg","shortName":"Rothenburg"},"district":{"key":"313","name":"Wahlkreis Hochdorf"},"canton":{"key":"3","code":"LU","name":"Luzern"},"status":"Real"},{"key":"10188359","name":"Hermolingenmatte","postalCode":"6023","locality":"Rothenburg","commune":{"key":"1040","name":"Rothenburg","shortName":"Rothenburg"},"district":{"key":"313","name":"Wahlkreis Hochdorf"},"canton":{"key":"3","code":"LU","name":"Luzern"},"status":"Real"},{"key":"10014561","name":"Hermolingenstrasse","postalCode":"6023","locality":"Rothenburg","commune":{"key":"1040","name":"Rothenburg","shortName":"Rothenburg"},"district":{"key":"313","name":"Wahlkreis Hochdorf"},"canton":{"key":"3","code":"LU","name":"Luzern"},"status":"Real"},{"key":"10085629","name":"Hinterfeld","postalCode":"6023","locality":"Rothenburg","commune":{"key":"1040","name":"Rothenburg","shortName":"Rothenburg"},"district":{"key":"313","name":"Wahlkreis Hochdorf"},"canton":{"key":"3","code":"LU","name":"Luzern"},"status":"Real"},{"key":"10103889","name":"Hinter-Riedhof","postalCode":"6023","locality":"Rothenburg","commune":{"key":"1040","name":"Rothenburg","shortName":"Rothenburg"},"district":{"key":"313","name":"Wahlkreis Hochdorf"},"canton":{"key":"3","code":"LU","name":"Luzern"},"status":"Real"},{"key":"10014562","name":"Hinter-Schlatt","postalCode":"6023","locality":"Rothenburg","commune":{"key":"1040","name":"Rothenburg","shortName":"Rothenburg"},"district":{"key":"313","name":"Wahlkreis Hochdorf"},"canton":{"key":"3","code":"LU","name":"Luzern"},"status":"Real"},{"key":"10064043","name":"Höchweid","postalCode":"6023","locality":"Rothenburg","commune":{"key":"1040","name":"Rothenburg","shortName":"Rothenburg"},"district":{"key":"313","name":"Wahlkreis Hochdorf"},"canton":{"key":"3","code":"LU","name":"Luzern"},"status":"Real"},{"key":"10014563","name":"Holzhüsern","postalCode":"6023","locality":"Rothenburg","commune":{"key":"1040","name":"Rothenburg","shortName":"Rothenburg"},"district":{"key":"313","name":"Wahlkreis Hochdorf"},"canton":{"key":"3","code":"LU","name":"Luzern"},"status":"Real"},{"key":"10195378","name":"Huebenstrasse","postalCode":"6023","locality":"Rothenburg","commune":{"key":"1040","name":"Rothenburg","shortName":"Rothenburg"},"district":{"key":"313","name":"Wahlkreis Hochdorf"},"canton":{"key":"3","code":"LU","name":"Luzern"},"status":"Real"},{"key":"10105385","name":"Hunghus","postalCode":"6023","locality":"Rothenburg","commune":{"key":"1040","name":"Rothenburg","shortName":"Rothenburg"},"district":{"key":"313","name":"Wahlkreis Hochdorf"},"canton":{"key":"3","code":"LU","name":"Luzern"},"status":"Real"},{"key":"10014564","name":"Huoben","postalCode":"6023","locality":"Rothenburg","commune":{"key":"1040","name":"Rothenburg","shortName":"Rothenburg"},"district":{"key":"313","name":"Wahlkreis Hochdorf"},"canton":{"key":"3","code":"LU","name":"Luzern"},"status":"Real"},{"key":"10139505","name":"Huobenfang","postalCode":"6023","locality":"Rothenburg","commune":{"key":"1040","name":"Rothenburg","shortName":"Rothenburg"},"district":{"key":"313","name":"Wahlkreis Hochdorf"},"canton":{"key":"3","code":"LU","name":"Luzern"},"status":"Real"},{"key":"10014565","name":"Huobenfangstrasse","postalCode":"6023","locality":"Rothenburg","commune":{"key":"1040","name":"Rothenburg","shortName":"Rothenburg"},"district":{"key":"313","name":"Wahlkreis Hochdorf"},"canton":{"key":"3","code":"LU","name":"Luzern"},"status":"Real"},{"key":"10179013","name":"Im Hang","postalCode":"6023","locality":"Rothenburg","commune":{"key":"1040","name":"Rothenburg","shortName":"Rothenburg"},"district":{"key":"313","name":"Wahlkreis Hochdorf"},"canton":{"key":"3","code":"LU","name":"Luzern"},"status":"Real"},{"key":"10185838","name":"Kilchweid","postalCode":"6023","locality":"Rothenburg","commune":{"key":"1040","name":"Rothenburg","shortName":"Rothenburg"},"district":{"key":"313","name":"Wahlkreis Hochdorf"},"canton":{"key":"3","code":"LU","name":"Luzern"},"status":"Real"},{"key":"10195380","name":"Kleewaldstrasse","postalCode":"6023","locality":"Rothenburg","commune":{"key":"1040","name":"Rothenburg","shortName":"Rothenburg"},"district":{"key":"313","name":"Wahlkreis Hochdorf"},"canton":{"key":"3","code":"LU","name":"Luzern"},"status":"Real"},{"key":"10014566","name":"Konstanz","postalCode":"6023","locality":"Rothenburg","commune":{"key":"1040","name":"Rothenburg","shortName":"Rothenburg"},"district":{"key":"313","name":"Wahlkreis Hochdorf"},"canton":{"key":"3","code":"LU","name":"Luzern"},"status":"Real"},{"key":"10120493","name":"Konstanzmatte","postalCode":"6023","locality":"Rothenburg","commune":{"key":"1040","name":"Rothenburg","shortName":"Rothenburg"},"district":{"key":"313","name":"Wahlkreis Hochdorf"},"canton":{"key":"3","code":"LU","name":"Luzern"},"status":"Real"},{"key":"10189719","name":"Lehn","postalCode":"6023","locality":"Rothenburg","commune":{"key":"1040","name":"Rothenburg","shortName":"Rothenburg"},"district":{"key":"313","name":"Wahlkreis Hochdorf"},"canton":{"key":"3","code":"LU","name":"Luzern"},"status":"Real"},{"key":"10064044","name":"Lehnstrasse","postalCode":"6023","locality":"Rothenburg","commune":{"key":"1040","name":"Rothenburg","shortName":"Rothenburg"},"district":{"key":"313","name":"Wahlkreis Hochdorf"},"canton":{"key":"3","code":"LU","name":"Luzern"},"status":"Real"},{"key":"10014567","name":"Lindau","postalCode":"6023","locality":"Rothenburg","commune":{"key":"1040","name":"Rothenburg","shortName":"Rothenburg"},"district":{"key":"313","name":"Wahlkreis Hochdorf"},"canton":{"key":"3","code":"LU","name":"Luzern"},"status":"Real"},{"key":"10085630","name":"Lindauhalde","postalCode":"6023","locality":"Rothenburg","commune":{"key":"1040","name":"Rothenburg","shortName":"Rothenburg"},"district":{"key":"313","name":"Wahlkreis Hochdorf"},"canton":{"key":"3","code":"LU","name":"Luzern"},"status":"Real"},{"key":"10014568","name":"Lindauring","postalCode":"6023","locality":"Rothenburg","commune":{"key":"1040","name":"Rothenburg","shortName":"Rothenburg"},"district":{"key":"313","name":"Wahlkreis Hochdorf"},"canton":{"key":"3","code":"LU","name":"Luzern"},"status":"Real"},{"key":"10138377","name":"Lindauweg","postalCode":"6023","locality":"Rothenburg","commune":{"key":"1040","name":"Rothenburg","shortName":"Rothenburg"},"district":{"key":"313","name":"Wahlkreis Hochdorf"},"canton":{"key":"3","code":"LU","name":"Luzern"},"status":"Real"},{"key":"10064045","name":"Lindenfels","postalCode":"6023","locality":"Rothenburg","commune":{"key":"1040","name":"Rothenburg","shortName":"Rothenburg"},"district":{"key":"313","name":"Wahlkreis Hochdorf"},"canton":{"key":"3","code":"LU","name":"Luzern"},"status":"Real"},{"key":"10179014","name":"Löchenrain","postalCode":"6023","locality":"Rothenburg","commune":{"key":"1040","name":"Rothenburg","shortName":"Rothenburg"},"district":{"key":"313","name":"Wahlkreis Hochdorf"},"canton":{"key":"3","code":"LU","name":"Luzern"},"status":"Real"},{"key":"10195379","name":"Lüegisingenstrasse","postalCode":"6023","locality":"Rothenburg","commune":{"key":"1040","name":"Rothenburg","shortName":"Rothenburg"},"district":{"key":"313","name":"Wahlkreis Hochdorf"},"canton":{"key":"3","code":"LU","name":"Luzern"},"status":"Real"},{"key":"10111759","name":"Lügisingen","postalCode":"6023","locality":"Rothenburg","commune":{"key":"1040","name":"Rothenburg","shortName":"Rothenburg"},"district":{"key":"313","name":"Wahlkreis Hochdorf"},"canton":{"key":"3","code":"LU","name":"Luzern"},"status":"Real"},{"key":"10245012","name":"Luzerner Raststätte A2","postalCode":"6023","locality":"Rothenburg","commune":{"key":"1040","name":"Rothenburg","shortName":"Rothenburg"},"district":{"key":"313","name":"Wahlkreis Hochdorf"},"canton":{"key":"3","code":"LU","name":"Luzern"},"status":"Real"},{"key":"10105386","name":"Mauritiusring","postalCode":"6023","locality":"Rothenburg","commune":{"key":"1040","name":"Rothenburg","shortName":"Rothenburg"},"district":{"key":"313","name":"Wahlkreis Hochdorf"},"canton":{"key":"3","code":"LU","name":"Luzern"},"status":"Real"},{"key":"10085631","name":"Nelkenstrasse","postalCode":"6023","locality":"Rothenburg","commune":{"key":"1040","name":"Rothenburg","shortName":"Rothenburg"},"district":{"key":"313","name":"Wahlkreis Hochdorf"},"canton":{"key":"3","code":"LU","name":"Luzern"},"status":"Real"},{"key":"10014569","name":"Neugossenrain","postalCode":"6023","locality":"Rothenburg","commune":{"key":"1040","name":"Rothenburg","shortName":"Rothenburg"},"district":{"key":"313","name":"Wahlkreis Hochdorf"},"canton":{"key":"3","code":"LU","name":"Luzern"},"status":"Real"},{"key":"10169147","name":"Neuguet","postalCode":"6023","locality":"Rothenburg","commune":{"key":"1040","name":"Rothenburg","shortName":"Rothenburg"},"district":{"key":"313","name":"Wahlkreis Hochdorf"},"canton":{"key":"3","code":"LU","name":"Luzern"},"status":"Real"},{"key":"10064046","name":"Neugüetlistrasse","postalCode":"6023","locality":"Rothenburg","commune":{"key":"1040","name":"Rothenburg","shortName":"Rothenburg"},"district":{"key":"313","name":"Wahlkreis Hochdorf"},"canton":{"key":"3","code":"LU","name":"Luzern"},"status":"Real"},{"key":"10169215","name":"Neugüetliweg","postalCode":"6023","locality":"Rothenburg","commune":{"key":"1040","name":"Rothenburg","shortName":"Rothenburg"},"district":{"key":"313","name":"Wahlkreis Hochdorf"},"canton":{"key":"3","code":"LU","name":"Luzern"},"status":"Real"},{"key":"10055796","name":"Neuhof","postalCode":"6023","locality":"Rothenburg","commune":{"key":"1040","name":"Rothenburg","shortName":"Rothenburg"},"district":{"key":"313","name":"Wahlkreis Hochdorf"},"canton":{"key":"3","code":"LU","name":"Luzern"},"status":"Real"},{"key":"10052260","name":"Neuhuoben","postalCode":"6023","locality":"Rothenburg","commune":{"key":"1040","name":"Rothenburg","shortName":"Rothenburg"},"district":{"key":"313","name":"Wahlkreis Hochdorf"},"canton":{"key":"3","code":"LU","name":"Luzern"},"status":"Real"},{"key":"10085632","name":"Neumoosstrasse","postalCode":"6023","locality":"Rothenburg","commune":{"key":"1040","name":"Rothenburg","shortName":"Rothenburg"},"district":{"key":"313","name":"Wahlkreis Hochdorf"},"canton":{"key":"3","code":"LU","name":"Luzern"},"status":"Real"},{"key":"10014570","name":"Neumoosweg","postalCode":"6023","locality":"Rothenburg","commune":{"key":"1040","name":"Rothenburg","shortName":"Rothenburg"},"district":{"key":"313","name":"Wahlkreis Hochdorf"},"canton":{"key":"3","code":"LU","name":"Luzern"},"status":"Real"},{"key":"10064040","name":"Oberbürlimoos","postalCode":"6023","locality":"Rothenburg","commune":{"key":"1040","name":"Rothenburg","shortName":"Rothenburg"},"district":{"key":"313","name":"Wahlkreis Hochdorf"},"canton":{"key":"3","code":"LU","name":"Luzern"},"status":"Real"},{"key":"10064047","name":"Oberchärns","postalCode":"6023","locality":"Rothenburg","commune":{"key":"1040","name":"Rothenburg","shortName":"Rothenburg"},"district":{"key":"313","name":"Wahlkreis Hochdorf"},"canton":{"key":"3","code":"LU","name":"Luzern"},"status":"Real"},{"key":"10014571","name":"Oberhinterfeld","postalCode":"6023","locality":"Rothenburg","commune":{"key":"1040","name":"Rothenburg","shortName":"Rothenburg"},"district":{"key":"313","name":"Wahlkreis Hochdorf"},"canton":{"key":"3","code":"LU","name":"Luzern"},"status":"Real"},{"key":"10179015","name":"Oberhocken","postalCode":"6023","locality":"Rothenburg","commune":{"key":"1040","name":"Rothenburg","shortName":"Rothenburg"},"district":{"key":"313","name":"Wahlkreis Hochdorf"},"canton":{"key":"3","code":"LU","name":"Luzern"},"status":"Real"},{"key":"10155479","name":"Oberhus","postalCode":"6023","locality":"Rothenburg","commune":{"key":"1040","name":"Rothenburg","shortName":"Rothenburg"},"district":{"key":"313","name":"Wahlkreis Hochdorf"},"canton":{"key":"3","code":"LU","name":"Luzern"},"status":"Real"},{"key":"10085633","name":"Oberwahligen","postalCode":"6023","locality":"Rothenburg","commune":{"key":"1040","name":"Rothenburg","shortName":"Rothenburg"},"district":{"key":"313","name":"Wahlkreis Hochdorf"},"canton":{"key":"3","code":"LU","name":"Luzern"},"status":"Real"},{"key":"10195381","name":"Oberwahligenstrasse","postalCode":"6023","locality":"Rothenburg","commune":{"key":"1040","name":"Rothenburg","shortName":"Rothenburg"},"district":{"key":"313","name":"Wahlkreis Hochdorf"},"canton":{"key":"3","code":"LU","name":"Luzern"},"status":"Real"},{"key":"10055797","name":"Obmoos","postalCode":"6023","locality":"Rothenburg","commune":{"key":"1040","name":"Rothenburg","shortName":"Rothenburg"},"district":{"key":"313","name":"Wahlkreis Hochdorf"},"canton":{"key":"3","code":"LU","name":"Luzern"},"status":"Real"},{"key":"10010191","name":"Ottenrüti","postalCode":"6023","locality":"Rothenburg","commune":{"key":"1040","name":"Rothenburg","shortName":"Rothenburg"},"district":{"key":"313","name":"Wahlkreis Hochdorf"},"canton":{"key":"3","code":"LU","name":"Luzern"},"status":"Real"},{"key":"10144835","name":"Pfrundmatte","postalCode":"6023","locality":"Rothenburg","commune":{"key":"1040","name":"Rothenburg","shortName":"Rothenburg"},"district":{"key":"313","name":"Wahlkreis Hochdorf"},"canton":{"key":"3","code":"LU","name":"Luzern"},"status":"Real"},{"key":"10105387","name":"Pfrundweg","postalCode":"6023","locality":"Rothenburg","commune":{"key":"1040","name":"Rothenburg","shortName":"Rothenburg"},"district":{"key":"313","name":"Wahlkreis Hochdorf"},"canton":{"key":"3","code":"LU","name":"Luzern"},"status":"Real"},{"key":"10189720","name":"Pilatusring","postalCode":"6023","locality":"Rothenburg","commune":{"key":"1040","name":"Rothenburg","shortName":"Rothenburg"},"district":{"key":"313","name":"Wahlkreis Hochdorf"},"canton":{"key":"3","code":"LU","name":"Luzern"},"status":"Real"},{"key":"10010192","name":"Rank","postalCode":"6023","locality":"Rothenburg","commune":{"key":"1040","name":"Rothenburg","shortName":"Rothenburg"},"district":{"key":"313","name":"Wahlkreis Hochdorf"},"canton":{"key":"3","code":"LU","name":"Luzern"},"status":"Real"},{"key":"10085634","name":"Riedhof","postalCode":"6023","locality":"Rothenburg","commune":{"key":"1040","name":"Rothenburg","shortName":"Rothenburg"},"district":{"key":"313","name":"Wahlkreis Hochdorf"},"canton":{"key":"3","code":"LU","name":"Luzern"},"status":"Real"},{"key":"10117067","name":"Rigihof","postalCode":"6023","locality":"Rothenburg","commune":{"key":"1040","name":"Rothenburg","shortName":"Rothenburg"},"district":{"key":"313","name":"Wahlkreis Hochdorf"},"canton":{"key":"3","code":"LU","name":"Luzern"},"status":"Real"},{"key":"10064048","name":"Rigistrasse","postalCode":"6023","locality":"Rothenburg","commune":{"key":"1040","name":"Rothenburg","shortName":"Rothenburg"},"district":{"key":"313","name":"Wahlkreis Hochdorf"},"canton":{"key":"3","code":"LU","name":"Luzern"},"status":"Real"},{"key":"10195382","name":"Rosegässli","postalCode":"6023","locality":"Rothenburg","commune":{"key":"1040","name":"Rothenburg","shortName":"Rothenburg"},"district":{"key":"313","name":"Wahlkreis Hochdorf"},"canton":{"key":"3","code":"LU","name":"Luzern"},"status":"Real"},{"key":"10085635","name":"Rosengartenstrasse","postalCode":"6023","locality":"Rothenburg","commune":{"key":"1040","name":"Rothenburg","shortName":"Rothenburg"},"district":{"key":"313","name":"Wahlkreis Hochdorf"},"canton":{"key":"3","code":"LU","name":"Luzern"},"status":"Real"},{"key":"10111760","name":"Rosshalde","postalCode":"6023","locality":"Rothenburg","commune":{"key":"1040","name":"Rothenburg","shortName":"Rothenburg"},"district":{"key":"313","name":"Wahlkreis Hochdorf"},"canton":{"key":"3","code":"LU","name":"Luzern"},"status":"Real"},{"key":"10010193","name":"Rotbachmatte","postalCode":"6023","locality":"Rothenburg","commune":{"key":"1040","name":"Rothenburg","shortName":"Rothenburg"},"district":{"key":"313","name":"Wahlkreis Hochdorf"},"canton":{"key":"3","code":"LU","name":"Luzern"},"status":"Real"},{"key":"10064049","name":"Rudolfstrasse","postalCode":"6023","locality":"Rothenburg","commune":{"key":"1040","name":"Rothenburg","shortName":"Rothenburg"},"district":{"key":"313","name":"Wahlkreis Hochdorf"},"canton":{"key":"3","code":"LU","name":"Luzern"},"status":"Real"},{"key":"10114834","name":"Rüeckringen","postalCode":"6023","locality":"Rothenburg","commune":{"key":"1040","name":"Rothenburg","shortName":"Rothenburg"},"district":{"key":"313","name":"Wahlkreis Hochdorf"},"canton":{"key":"3","code":"LU","name":"Luzern"},"status":"Real"},{"key":"10010194","name":"Rüeckringenstrasse","postalCode":"6023","locality":"Rothenburg","commune":{"key":"1040","name":"Rothenburg","shortName":"Rothenburg"},"district":{"key":"313","name":"Wahlkreis Hochdorf"},"canton":{"key":"3","code":"LU","name":"Luzern"},"status":"Real"},{"key":"10179016","name":"Rüti","postalCode":"6023","locality":"Rothenburg","commune":{"key":"1040","name":"Rothenburg","shortName":"Rothenburg"},"district":{"key":"313","name":"Wahlkreis Hochdorf"},"canton":{"key":"3","code":"LU","name":"Luzern"},"status":"Real"},{"key":"10010195","name":"Rütiacher","postalCode":"6023","locality":"Rothenburg","commune":{"key":"1040","name":"Rothenburg","shortName":"Rothenburg"},"district":{"key":"313","name":"Wahlkreis Hochdorf"},"canton":{"key":"3","code":"LU","name":"Luzern"},"status":"Real"},{"key":"10246845","name":"Rütihalde","postalCode":"6023","locality":"Rothenburg","commune":{"key":"1040","name":"Rothenburg","shortName":"Rothenburg"},"district":{"key":"313","name":"Wahlkreis Hochdorf"},"canton":{"key":"3","code":"LU","name":"Luzern"},"status":"Planned"},{"key":"10085636","name":"Rütiweid","postalCode":"6023","locality":"Rothenburg","commune":{"key":"1040","name":"Rothenburg","shortName":"Rothenburg"},"district":{"key":"313","name":"Wahlkreis Hochdorf"},"canton":{"key":"3","code":"LU","name":"Luzern"},"status":"Real"},{"key":"10055798","name":"Schlag","postalCode":"6023","locality":"Rothenburg","commune":{"key":"1040","name":"Rothenburg","shortName":"Rothenburg"},"district":{"key":"313","name":"Wahlkreis Hochdorf"},"canton":{"key":"3","code":"LU","name":"Luzern"},"status":"Real"},{"key":"10064050","name":"Schlatt","postalCode":"6023","locality":"Rothenburg","commune":{"key":"1040","name":"Rothenburg","shortName":"Rothenburg"},"district":{"key":"313","name":"Wahlkreis Hochdorf"},"canton":{"key":"3","code":"LU","name":"Luzern"},"status":"Real"},{"key":"10134228","name":"Schöneggrain","postalCode":"6023","locality":"Rothenburg","commune":{"key":"1040","name":"Rothenburg","shortName":"Rothenburg"},"district":{"key":"313","name":"Wahlkreis Hochdorf"},"canton":{"key":"3","code":"LU","name":"Luzern"},"status":"Real"},{"key":"10010197","name":"Schönenfels","postalCode":"6023","locality":"Rothenburg","commune":{"key":"1040","name":"Rothenburg","shortName":"Rothenburg"},"district":{"key":"313","name":"Wahlkreis Hochdorf"},"canton":{"key":"3","code":"LU","name":"Luzern"},"status":"Real"},{"key":"10010196","name":"Schroten","postalCode":"6023","locality":"Rothenburg","commune":{"key":"1040","name":"Rothenburg","shortName":"Rothenburg"},"district":{"key":"313","name":"Wahlkreis Hochdorf"},"canton":{"key":"3","code":"LU","name":"Luzern"},"status":"Real"},{"key":"10085637","name":"Schulhausstrasse","postalCode":"6023","locality":"Rothenburg","commune":{"key":"1040","name":"Rothenburg","shortName":"Rothenburg"},"district":{"key":"313","name":"Wahlkreis Hochdorf"},"canton":{"key":"3","code":"LU","name":"Luzern"},"status":"Real"},{"key":"10064051","name":"Schützenweidstrasse","postalCode":"6023","locality":"Rothenburg","commune":{"key":"1040","name":"Rothenburg","shortName":"Rothenburg"},"district":{"key":"313","name":"Wahlkreis Hochdorf"},"canton":{"key":"3","code":"LU","name":"Luzern"},"status":"Real"},{"key":"10198432","name":"Sonnmatthof","postalCode":"6023","locality":"Rothenburg","commune":{"key":"1040","name":"Rothenburg","shortName":"Rothenburg"},"district":{"key":"313","name":"Wahlkreis Hochdorf"},"canton":{"key":"3","code":"LU","name":"Luzern"},"status":"Real"},{"key":"10179017","name":"Speckbaum","postalCode":"6023","locality":"Rothenburg","commune":{"key":"1040","name":"Rothenburg","shortName":"Rothenburg"},"district":{"key":"313","name":"Wahlkreis Hochdorf"},"canton":{"key":"3","code":"LU","name":"Luzern"},"status":"Real"},{"key":"10055799","name":"Stampfi","postalCode":"6023","locality":"Rothenburg","commune":{"key":"1040","name":"Rothenburg","shortName":"Rothenburg"},"district":{"key":"313","name":"Wahlkreis Hochdorf"},"canton":{"key":"3","code":"LU","name":"Luzern"},"status":"Real"},{"key":"10137262","name":"Station-Ost","postalCode":"6023","locality":"Rothenburg","commune":{"key":"1040","name":"Rothenburg","shortName":"Rothenburg"},"district":{"key":"313","name":"Wahlkreis Hochdorf"},"canton":{"key":"3","code":"LU","name":"Luzern"},"status":"Real"},{"key":"10010198","name":"Stationsstrasse","postalCode":"6023","locality":"Rothenburg","commune":{"key":"1040","name":"Rothenburg","shortName":"Rothenburg"},"district":{"key":"313","name":"Wahlkreis Hochdorf"},"canton":{"key":"3","code":"LU","name":"Luzern"},"status":"Real"},{"key":"10137263","name":"Station-West","postalCode":"6023","locality":"Rothenburg","commune":{"key":"1040","name":"Rothenburg","shortName":"Rothenburg"},"district":{"key":"313","name":"Wahlkreis Hochdorf"},"canton":{"key":"3","code":"LU","name":"Luzern"},"status":"Real"},{"key":"10085638","name":"Süesstannen","postalCode":"6023","locality":"Rothenburg","commune":{"key":"1040","name":"Rothenburg","shortName":"Rothenburg"},"district":{"key":"313","name":"Wahlkreis Hochdorf"},"canton":{"key":"3","code":"LU","name":"Luzern"},"status":"Real"},{"key":"10195383","name":"Süesswinkel","postalCode":"6023","locality":"Rothenburg","commune":{"key":"1040","name":"Rothenburg","shortName":"Rothenburg"},"district":{"key":"313","name":"Wahlkreis Hochdorf"},"canton":{"key":"3","code":"LU","name":"Luzern"},"status":"Real"},{"key":"10111761","name":"Tannenfels","postalCode":"6023","locality":"Rothenburg","commune":{"key":"1040","name":"Rothenburg","shortName":"Rothenburg"},"district":{"key":"313","name":"Wahlkreis Hochdorf"},"canton":{"key":"3","code":"LU","name":"Luzern"},"status":"Real"},{"key":"10064052","name":"Thurm","postalCode":"6023","locality":"Rothenburg","commune":{"key":"1040","name":"Rothenburg","shortName":"Rothenburg"},"district":{"key":"313","name":"Wahlkreis Hochdorf"},"canton":{"key":"3","code":"LU","name":"Luzern"},"status":"Real"},{"key":"10010199","name":"Thurmweg","postalCode":"6023","locality":"Rothenburg","commune":{"key":"1040","name":"Rothenburg","shortName":"Rothenburg"},"district":{"key":"313","name":"Wahlkreis Hochdorf"},"canton":{"key":"3","code":"LU","name":"Luzern"},"status":"Real"},{"key":"10085639","name":"Titlisstrasse","postalCode":"6023","locality":"Rothenburg","commune":{"key":"1040","name":"Rothenburg","shortName":"Rothenburg"},"district":{"key":"313","name":"Wahlkreis Hochdorf"},"canton":{"key":"3","code":"LU","name":"Luzern"},"status":"Real"},{"key":"10064053","name":"Tulpenstrasse","postalCode":"6023","locality":"Rothenburg","commune":{"key":"1040","name":"Rothenburg","shortName":"Rothenburg"},"district":{"key":"313","name":"Wahlkreis Hochdorf"},"canton":{"key":"3","code":"LU","name":"Luzern"},"status":"Real"},{"key":"10179018","name":"Unterbürlimoos","postalCode":"6023","locality":"Rothenburg","commune":{"key":"1040","name":"Rothenburg","shortName":"Rothenburg"},"district":{"key":"313","name":"Wahlkreis Hochdorf"},"canton":{"key":"3","code":"LU","name":"Luzern"},"status":"Real"},{"key":"10010200","name":"Unterhocken","postalCode":"6023","locality":"Rothenburg","commune":{"key":"1040","name":"Rothenburg","shortName":"Rothenburg"},"district":{"key":"313","name":"Wahlkreis Hochdorf"},"canton":{"key":"3","code":"LU","name":"Luzern"},"status":"Real"},{"key":"10085640","name":"Unter-Ottenrüti","postalCode":"6023","locality":"Rothenburg","commune":{"key":"1040","name":"Rothenburg","shortName":"Rothenburg"},"district":{"key":"313","name":"Wahlkreis Hochdorf"},"canton":{"key":"3","code":"LU","name":"Luzern"},"status":"Real"},{"key":"10117068","name":"Unterwahligen","postalCode":"6023","locality":"Rothenburg","commune":{"key":"1040","name":"Rothenburg","shortName":"Rothenburg"},"district":{"key":"313","name":"Wahlkreis Hochdorf"},"canton":{"key":"3","code":"LU","name":"Luzern"},"status":"Real"},{"key":"10195384","name":"Unterwahligenstrasse","postalCode":"6023","locality":"Rothenburg","commune":{"key":"1040","name":"Rothenburg","shortName":"Rothenburg"},"district":{"key":"313","name":"Wahlkreis Hochdorf"},"canton":{"key":"3","code":"LU","name":"Luzern"},"status":"Real"},{"key":"10064054","name":"Usserhus","postalCode":"6023","locality":"Rothenburg","commune":{"key":"1040","name":"Rothenburg","shortName":"Rothenburg"},"district":{"key":"313","name":"Wahlkreis Hochdorf"},"canton":{"key":"3","code":"LU","name":"Luzern"},"status":"Real"},{"key":"10111762","name":"Wahligen","postalCode":"6023","locality":"Rothenburg","commune":{"key":"1040","name":"Rothenburg","shortName":"Rothenburg"},"district":{"key":"313","name":"Wahlkreis Hochdorf"},"canton":{"key":"3","code":"LU","name":"Luzern"},"status":"Real"},{"key":"10205948","name":"Wahligenpark","postalCode":"6023","locality":"Rothenburg","commune":{"key":"1040","name":"Rothenburg","shortName":"Rothenburg"},"district":{"key":"313","name":"Wahlkreis Hochdorf"},"canton":{"key":"3","code":"LU","name":"Luzern"},"status":"Real"},{"key":"10168107","name":"Wahligenstrasse","postalCode":"6023","locality":"Rothenburg","commune":{"key":"1040","name":"Rothenburg","shortName":"Rothenburg"},"district":{"key":"313","name":"Wahlkreis Hochdorf"},"canton":{"key":"3","code":"LU","name":"Luzern"},"status":"Real"},{"key":"10010201","name":"Wegscheiden","postalCode":"6023","locality":"Rothenburg","commune":{"key":"1040","name":"Rothenburg","shortName":"Rothenburg"},"district":{"key":"313","name":"Wahlkreis Hochdorf"},"canton":{"key":"3","code":"LU","name":"Luzern"},"status":"Real"},{"key":"10188633","name":"Wüesti","postalCode":"6023","locality":"Rothenburg","commune":{"key":"1040","name":"Rothenburg","shortName":"Rothenburg"},"district":{"key":"313","name":"Wahlkreis Hochdorf"},"canton":{"key":"3","code":"LU","name":"Luzern"},"status":"Real"},{"key":"10120494","name":"Wurmistrasse","postalCode":"6023","locality":"Rothenburg","commune":{"key":"1040","name":"Rothenburg","shortName":"Rothenburg"},"district":{"key":"313","name":"Wahlkreis Hochdorf"},"canton":{"key":"3","code":"LU","name":"Luzern"},"status":"Real"},{"key":"10209580","name":"Wurmistrasse","postalCode":"6023","locality":"Rothenburg","commune":{"key":"1040","name":"Rothenburg","shortName":"Rothenburg"},"district":{"key":"313","name":"Wahlkreis Hochdorf"},"canton":{"key":"3","code":"LU","name":"Luzern"},"status":"Real"},{"key":"10206942","name":"Zoostrasse","postalCode":"6023","locality":"Rothenburg","commune":{"key":"1040","name":"Rothenburg","shortName":"Rothenburg"},"district":{"key":"313","name":"Wahlkreis Hochdorf"},"canton":{"key":"3","code":"LU","name":"Luzern"},"status":"Real"},]