[{"name":"10. Schneise","postalCode":"35394","locality":"Gießen","municipality":{"key":"06531005","name":"Gießen, Universitätsstadt","type":"Stadt"},"district":{"key":"06531","name":"Gießen","type":"Landkreis"},"federalState":{"key":"06","name":"Hessen"}},{"name":"11. Schneise","postalCode":"35394","locality":"Gießen","municipality":{"key":"06531005","name":"Gießen, Universitätsstadt","type":"Stadt"},"district":{"key":"06531","name":"Gießen","type":"Landkreis"},"federalState":{"key":"06","name":"Hessen"}},{"name":"12. Schneise","postalCode":"35394","locality":"Gießen","municipality":{"key":"06531005","name":"Gießen, Universitätsstadt","type":"Stadt"},"district":{"key":"06531","name":"Gießen","type":"Landkreis"},"federalState":{"key":"06","name":"Hessen"}},{"name":"13. Schneise","postalCode":"35394","locality":"Gießen","municipality":{"key":"06531005","name":"Gießen, Universitätsstadt","type":"Stadt"},"district":{"key":"06531","name":"Gießen","type":"Landkreis"},"federalState":{"key":"06","name":"Hessen"}},{"name":"1. Schneise","postalCode":"35394","locality":"Gießen","municipality":{"key":"06531005","name":"Gießen, Universitätsstadt","type":"Stadt"},"district":{"key":"06531","name":"Gießen","type":"Landkreis"},"federalState":{"key":"06","name":"Hessen"}},{"name":"2. Schneise","postalCode":"35394","locality":"Gießen","municipality":{"key":"06531005","name":"Gießen, Universitätsstadt","type":"Stadt"},"district":{"key":"06531","name":"Gießen","type":"Landkreis"},"federalState":{"key":"06","name":"Hessen"}},{"name":"3. Schneise","postalCode":"35394","locality":"Gießen","municipality":{"key":"06531005","name":"Gießen, Universitätsstadt","type":"Stadt"},"district":{"key":"06531","name":"Gießen","type":"Landkreis"},"federalState":{"key":"06","name":"Hessen"}},{"name":"4. Schneise","postalCode":"35394","locality":"Gießen","municipality":{"key":"06531005","name":"Gießen, Universitätsstadt","type":"Stadt"},"district":{"key":"06531","name":"Gießen","type":"Landkreis"},"federalState":{"key":"06","name":"Hessen"}},{"name":"5. Schneise","postalCode":"35394","locality":"Gießen","municipality":{"key":"06531005","name":"Gießen, Universitätsstadt","type":"Stadt"},"district":{"key":"06531","name":"Gießen","type":"Landkreis"},"federalState":{"key":"06","name":"Hessen"}},{"name":"6. Schneise","postalCode":"35394","locality":"Gießen","municipality":{"key":"06531005","name":"Gießen, Universitätsstadt","type":"Stadt"},"district":{"key":"06531","name":"Gießen","type":"Landkreis"},"federalState":{"key":"06","name":"Hessen"}},{"name":"7. Schneise","postalCode":"35394","locality":"Gießen","municipality":{"key":"06531005","name":"Gießen, Universitätsstadt","type":"Stadt"},"district":{"key":"06531","name":"Gießen","type":"Landkreis"},"federalState":{"key":"06","name":"Hessen"}},{"name":"8. Schneise","postalCode":"35394","locality":"Gießen","municipality":{"key":"06531005","name":"Gießen, Universitätsstadt","type":"Stadt"},"district":{"key":"06531","name":"Gießen","type":"Landkreis"},"federalState":{"key":"06","name":"Hessen"}},{"name":"9. Schneise","postalCode":"35394","locality":"Gießen","municipality":{"key":"06531005","name":"Gießen, Universitätsstadt","type":"Stadt"},"district":{"key":"06531","name":"Gießen","type":"Landkreis"},"federalState":{"key":"06","name":"Hessen"}},{"name":"Abtwiese","postalCode":"85664","locality":"Hohenlinden","municipality":{"key":"09175123","name":"Hohenlinden","type":"Kreisangehörige_Gemeinde"},"district":{"key":"09175","name":"Ebersberg","type":"Landkreis"},"federalState":{"key":"09","name":"Bayern"}},{"name":"Ahornallee","postalCode":"16818","locality":"Märkisch Linden","municipality":{"key":"12068306","name":"Märkisch Linden","type":"Kreisangehörige_Gemeinde"},"district":{"key":"12068","name":"Ostprignitz-Ruppin","type":"Landkreis"},"federalState":{"key":"12","name":"Brandenburg"}},{"name":"Ahornstr.","postalCode":"85664","locality":"Hohenlinden","municipality":{"key":"09175123","name":"Hohenlinden","type":"Kreisangehörige_Gemeinde"},"district":{"key":"09175","name":"Ebersberg","type":"Landkreis"},"federalState":{"key":"09","name":"Bayern"}},{"name":"Ahornweg","postalCode":"88161","locality":"Lindenberg im Allgäu","municipality":{"key":"09776117","name":"Lindenberg i.Allgäu, St","type":"Stadt"},"district":{"key":"09776","name":"Lindau (Bodensee)","type":"Landkreis"},"federalState":{"key":"09","name":"Bayern"}},{"name":"Albert-Schweitzer-Str.","postalCode":"35440","locality":"Linden","municipality":{"key":"06531012","name":"Linden, Stadt","type":"Stadt"},"district":{"key":"06531","name":"Gießen","type":"Landkreis"},"federalState":{"key":"06","name":"Hessen"}},{"name":"Alemannenstr.","postalCode":"88161","locality":"Lindenberg im Allgäu","municipality":{"key":"09776117","name":"Lindenberg i.Allgäu, St","type":"Stadt"},"district":{"key":"09776","name":"Lindau (Bodensee)","type":"Landkreis"},"federalState":{"key":"09","name":"Bayern"}},{"name":"Alfons-Werndl-Str.","postalCode":"85664","locality":"Hohenlinden","municipality":{"key":"09175123","name":"Hohenlinden","type":"Kreisangehörige_Gemeinde"},"district":{"key":"09175","name":"Ebersberg","type":"Landkreis"},"federalState":{"key":"09","name":"Bayern"}},{"name":"Almenweg","postalCode":"64678","locality":"Lindenfels","municipality":{"key":"06431015","name":"Lindenfels, Stadt","type":"Stadt"},"district":{"key":"06431","name":"Bergstraße","type":"Landkreis"},"federalState":{"key":"06","name":"Hessen"}},{"name":"Alte Försterei","postalCode":"15306","locality":"Vierlinden","municipality":{"key":"12064482","name":"Vierlinden","type":"Kreisangehörige_Gemeinde"},"district":{"key":"12064","name":"Märkisch-Oderland","type":"Landkreis"},"federalState":{"key":"12","name":"Brandenburg"}},{"name":"Alte Heerstr.","postalCode":"35440","locality":"Linden","municipality":{"key":"06531012","name":"Linden, Stadt","type":"Stadt"},"district":{"key":"06531","name":"Gießen","type":"Landkreis"},"federalState":{"key":"06","name":"Hessen"}},{"name":"Alte Poststr.","postalCode":"15306","locality":"Lindendorf","municipality":{"key":"12064290","name":"Lindendorf","type":"Kreisangehörige_Gemeinde"},"district":{"key":"12064","name":"Märkisch-Oderland","type":"Landkreis"},"federalState":{"key":"12","name":"Brandenburg"}},{"name":"Alte Siedlung","postalCode":"01945","locality":"Lindenau","municipality":{"key":"12066188","name":"Lindenau","type":"Kreisangehörige_Gemeinde"},"district":{"key":"12066","name":"Oberspreewald-Lausitz","type":"Landkreis"},"federalState":{"key":"12","name":"Brandenburg"}},{"name":"Alte Str.","postalCode":"07589","locality":"Lindenkreuz","municipality":{"key":"16076044","name":"Lindenkreuz","type":"Kreisangehörige_Gemeinde"},"district":{"key":"16076","name":"Greiz","type":"Landkreis"},"federalState":{"key":"16","name":"Thüringen"}},{"name":"Alte Str.","postalCode":"15306","locality":"Lindendorf","municipality":{"key":"12064290","name":"Lindendorf","type":"Kreisangehörige_Gemeinde"},"district":{"key":"12064","name":"Märkisch-Oderland","type":"Landkreis"},"federalState":{"key":"12","name":"Brandenburg"}},{"name":"Alte Str.","postalCode":"15306","locality":"Vierlinden","municipality":{"key":"12064482","name":"Vierlinden","type":"Kreisangehörige_Gemeinde"},"district":{"key":"12064","name":"Märkisch-Oderland","type":"Landkreis"},"federalState":{"key":"12","name":"Brandenburg"}},{"name":"Althausweg","postalCode":"88161","locality":"Lindenberg im Allgäu","municipality":{"key":"09776117","name":"Lindenberg i.Allgäu, St","type":"Stadt"},"district":{"key":"09776","name":"Lindau (Bodensee)","type":"Landkreis"},"federalState":{"key":"09","name":"Bayern"}},{"name":"Altmannweg","postalCode":"88161","locality":"Lindenberg im Allgäu","municipality":{"key":"09776117","name":"Lindenberg i.Allgäu, St","type":"Stadt"},"district":{"key":"09776","name":"Lindau (Bodensee)","type":"Landkreis"},"federalState":{"key":"09","name":"Bayern"}},{"name":"Altmühlhausen","postalCode":"85664","locality":"Hohenlinden","municipality":{"key":"09175123","name":"Hohenlinden","type":"Kreisangehörige_Gemeinde"},"district":{"key":"09175","name":"Ebersberg","type":"Landkreis"},"federalState":{"key":"09","name":"Bayern"}},{"name":"Am Abendfrieden","postalCode":"64678","locality":"Lindenfels","municipality":{"key":"06431015","name":"Lindenfels, Stadt","type":"Stadt"},"district":{"key":"06431","name":"Bergstraße","type":"Landkreis"},"federalState":{"key":"06","name":"Hessen"}},{"name":"Am alten Bahndamm","postalCode":"88161","locality":"Lindenberg im Allgäu","municipality":{"key":"09776117","name":"Lindenberg i.Allgäu, St","type":"Stadt"},"district":{"key":"09776","name":"Lindau (Bodensee)","type":"Landkreis"},"federalState":{"key":"09","name":"Bayern"}},{"name":"Am Anger","postalCode":"16818","locality":"Märkisch Linden","municipality":{"key":"12068306","name":"Märkisch Linden","type":"Kreisangehörige_Gemeinde"},"district":{"key":"12068","name":"Ostprignitz-Ruppin","type":"Landkreis"},"federalState":{"key":"12","name":"Brandenburg"}},{"name":"Am Augraben","postalCode":"17111","locality":"Lindenberg","municipality":{"key":"13071089","name":"Lindenberg","type":"Kreisangehörige_Gemeinde"},"district":{"key":"13071","name":"Mecklenburgische Seenplatte","type":"Landkreis"},"federalState":{"key":"13","name":"Mecklenburg-Vorpommern"}},{"name":"Am Bahnhof","postalCode":"15306","locality":"Vierlinden","municipality":{"key":"12064482","name":"Vierlinden","type":"Kreisangehörige_Gemeinde"},"district":{"key":"12064","name":"Märkisch-Oderland","type":"Landkreis"},"federalState":{"key":"12","name":"Brandenburg"}},{"name":"Am Bergwerkswald","postalCode":"35440","locality":"Linden","municipality":{"key":"06531012","name":"Linden, Stadt","type":"Stadt"},"district":{"key":"06531","name":"Gießen","type":"Landkreis"},"federalState":{"key":"06","name":"Hessen"}},{"name":"Am Bruchweg","postalCode":"15306","locality":"Lindendorf","municipality":{"key":"12064290","name":"Lindendorf","type":"Kreisangehörige_Gemeinde"},"district":{"key":"12064","name":"Märkisch-Oderland","type":"Landkreis"},"federalState":{"key":"12","name":"Brandenburg"}},{"name":"Am Brünnchen","postalCode":"64678","locality":"Lindenfels","municipality":{"key":"06431015","name":"Lindenfels, Stadt","type":"Stadt"},"district":{"key":"06431","name":"Bergstraße","type":"Landkreis"},"federalState":{"key":"06","name":"Hessen"}},{"name":"Am Buchacker","postalCode":"64678","locality":"Lindenfels","municipality":{"key":"06431015","name":"Lindenfels, Stadt","type":"Stadt"},"district":{"key":"06431","name":"Bergstraße","type":"Landkreis"},"federalState":{"key":"06","name":"Hessen"}},{"name":"Am Denkmal","postalCode":"55777","locality":"Fohren-Linden","municipality":{"key":"07134026","name":"Fohren-Linden","type":"Kreisangehörige_Gemeinde"},"district":{"key":"07134","name":"Birkenfeld","type":"Landkreis"},"federalState":{"key":"07","name":"Rheinland-Pfalz"}},{"name":"Am Dürrenbühl","postalCode":"88161","locality":"Lindenberg im Allgäu","municipality":{"key":"09776117","name":"Lindenberg i.Allgäu, St","type":"Stadt"},"district":{"key":"09776","name":"Lindau (Bodensee)","type":"Landkreis"},"federalState":{"key":"09","name":"Bayern"}},{"name":"Am Feriendorf","postalCode":"88161","locality":"Lindenberg im Allgäu","municipality":{"key":"09776117","name":"Lindenberg i.Allgäu, St","type":"Stadt"},"district":{"key":"09776","name":"Lindau (Bodensee)","type":"Landkreis"},"federalState":{"key":"09","name":"Bayern"}},{"name":"Am Festplatz","postalCode":"35440","locality":"Linden","municipality":{"key":"06531012","name":"Linden, Stadt","type":"Stadt"},"district":{"key":"06531","name":"Gießen","type":"Landkreis"},"federalState":{"key":"06","name":"Hessen"}},{"name":"Am Fließ","postalCode":"15306","locality":"Vierlinden","municipality":{"key":"12064482","name":"Vierlinden","type":"Kreisangehörige_Gemeinde"},"district":{"key":"12064","name":"Märkisch-Oderland","type":"Landkreis"},"federalState":{"key":"12","name":"Brandenburg"}},{"name":"Am Gerätehaus","postalCode":"25791","locality":"Linden","municipality":{"key":"01051068","name":"Linden","type":"Kreisangehörige_Gemeinde"},"district":{"key":"01051","name":"Dithmarschen","type":"Kreis"},"federalState":{"key":"01","name":"Schleswig-Holstein"}},{"name":"Am Großteich","postalCode":"01945","locality":"Lindenau","municipality":{"key":"12066188","name":"Lindenau","type":"Kreisangehörige_Gemeinde"},"district":{"key":"12066","name":"Oberspreewald-Lausitz","type":"Landkreis"},"federalState":{"key":"12","name":"Brandenburg"}},{"name":"Am Gutshof","postalCode":"88161","locality":"Lindenberg im Allgäu","municipality":{"key":"09776117","name":"Lindenberg i.Allgäu, St","type":"Stadt"},"district":{"key":"09776","name":"Lindau (Bodensee)","type":"Landkreis"},"federalState":{"key":"09","name":"Bayern"}},{"name":"Am Haanes","postalCode":"35440","locality":"Linden","municipality":{"key":"06531012","name":"Linden, Stadt","type":"Stadt"},"district":{"key":"06531","name":"Gießen","type":"Landkreis"},"federalState":{"key":"06","name":"Hessen"}},{"name":"Am Hang","postalCode":"66851","locality":"Linden","municipality":{"key":"07335023","name":"Linden","type":"Kreisangehörige_Gemeinde"},"district":{"key":"07335","name":"Kaiserslautern","type":"Landkreis"},"federalState":{"key":"07","name":"Rheinland-Pfalz"}},{"name":"Am Hasentobel","postalCode":"88161","locality":"Lindenberg im Allgäu","municipality":{"key":"09776117","name":"Lindenberg i.Allgäu, St","type":"Stadt"},"district":{"key":"09776","name":"Lindau (Bodensee)","type":"Landkreis"},"federalState":{"key":"09","name":"Bayern"}},{"name":"Am Heimatmuseum","postalCode":"35440","locality":"Linden","municipality":{"key":"06531012","name":"Linden, Stadt","type":"Stadt"},"district":{"key":"06531","name":"Gießen","type":"Landkreis"},"federalState":{"key":"06","name":"Hessen"}},{"name":"Am Hergesgrund","postalCode":"64678","locality":"Lindenfels","municipality":{"key":"06431015","name":"Lindenfels, Stadt","type":"Stadt"},"district":{"key":"06431","name":"Bergstraße","type":"Landkreis"},"federalState":{"key":"06","name":"Hessen"}},{"name":"Am Hirtenacker","postalCode":"64678","locality":"Lindenfels","municipality":{"key":"06431015","name":"Lindenfels, Stadt","type":"Stadt"},"district":{"key":"06431","name":"Bergstraße","type":"Landkreis"},"federalState":{"key":"06","name":"Hessen"}},{"name":"Am Hofacker","postalCode":"64678","locality":"Lindenfels","municipality":{"key":"06431015","name":"Lindenfels, Stadt","type":"Stadt"},"district":{"key":"06431","name":"Bergstraße","type":"Landkreis"},"federalState":{"key":"06","name":"Hessen"}},{"name":"Am Hüttenberg","postalCode":"66851","locality":"Linden","municipality":{"key":"07335023","name":"Linden","type":"Kreisangehörige_Gemeinde"},"district":{"key":"07335","name":"Kaiserslautern","type":"Landkreis"},"federalState":{"key":"07","name":"Rheinland-Pfalz"}},{"name":"Am Junkerkopf","postalCode":"66851","locality":"Linden","municipality":{"key":"07335023","name":"Linden","type":"Kreisangehörige_Gemeinde"},"district":{"key":"07335","name":"Kaiserslautern","type":"Landkreis"},"federalState":{"key":"07","name":"Rheinland-Pfalz"}},{"name":"Am Kaiserturm","postalCode":"64678","locality":"Lindenfels","municipality":{"key":"06431015","name":"Lindenfels, Stadt","type":"Stadt"},"district":{"key":"06431","name":"Bergstraße","type":"Landkreis"},"federalState":{"key":"06","name":"Hessen"}},{"name":"Am Kappacker","postalCode":"64678","locality":"Lindenfels","municipality":{"key":"06431015","name":"Lindenfels, Stadt","type":"Stadt"},"district":{"key":"06431","name":"Bergstraße","type":"Landkreis"},"federalState":{"key":"06","name":"Hessen"}},{"name":"Am Katzenholz","postalCode":"88161","locality":"Lindenberg im Allgäu","municipality":{"key":"09776117","name":"Lindenberg i.Allgäu, St","type":"Stadt"},"district":{"key":"09776","name":"Lindau (Bodensee)","type":"Landkreis"},"federalState":{"key":"09","name":"Bayern"}},{"name":"Am Kolmbach","postalCode":"64678","locality":"Lindenfels","municipality":{"key":"06431015","name":"Lindenfels, Stadt","type":"Stadt"},"district":{"key":"06431","name":"Bergstraße","type":"Landkreis"},"federalState":{"key":"06","name":"Hessen"}},{"name":"Am Köpfchen","postalCode":"66851","locality":"Linden","municipality":{"key":"07335023","name":"Linden","type":"Kreisangehörige_Gemeinde"},"district":{"key":"07335","name":"Kaiserslautern","type":"Landkreis"},"federalState":{"key":"07","name":"Rheinland-Pfalz"}},{"name":"Am Krimmelsweideweg","postalCode":"35440","locality":"Linden","municipality":{"key":"06531012","name":"Linden, Stadt","type":"Stadt"},"district":{"key":"06531","name":"Gießen","type":"Landkreis"},"federalState":{"key":"06","name":"Hessen"}},{"name":"Bachgärten","postalCode":"35440","locality":"Linden","municipality":{"key":"06531012","name":"Linden, Stadt","type":"Stadt"},"district":{"key":"06531","name":"Gießen","type":"Landkreis"},"federalState":{"key":"06","name":"Hessen"}},{"name":"Bachgasse","postalCode":"64678","locality":"Lindenfels","municipality":{"key":"06431015","name":"Lindenfels, Stadt","type":"Stadt"},"district":{"key":"06431","name":"Bergstraße","type":"Landkreis"},"federalState":{"key":"06","name":"Hessen"}},{"name":"Bachstr.","postalCode":"15306","locality":"Vierlinden","municipality":{"key":"12064482","name":"Vierlinden","type":"Kreisangehörige_Gemeinde"},"district":{"key":"12064","name":"Märkisch-Oderland","type":"Landkreis"},"federalState":{"key":"12","name":"Brandenburg"}},{"name":"Bachstr.","postalCode":"67473","locality":"Lindenberg","municipality":{"key":"07332034","name":"Lindenberg","type":"Kreisangehörige_Gemeinde"},"district":{"key":"07332","name":"Bad Dürkheim","type":"Landkreis"},"federalState":{"key":"07","name":"Rheinland-Pfalz"}},{"name":"Badstr.","postalCode":"88161","locality":"Lindenberg im Allgäu","municipality":{"key":"09776117","name":"Lindenberg i.Allgäu, St","type":"Stadt"},"district":{"key":"09776","name":"Lindau (Bodensee)","type":"Landkreis"},"federalState":{"key":"09","name":"Bayern"}},{"name":"Bahnhofstr.","postalCode":"15306","locality":"Lindendorf","municipality":{"key":"12064290","name":"Lindendorf","type":"Kreisangehörige_Gemeinde"},"district":{"key":"12064","name":"Märkisch-Oderland","type":"Landkreis"},"federalState":{"key":"12","name":"Brandenburg"}},{"name":"Bahnhofstr.","postalCode":"15306","locality":"Vierlinden","municipality":{"key":"12064482","name":"Vierlinden","type":"Kreisangehörige_Gemeinde"},"district":{"key":"12064","name":"Märkisch-Oderland","type":"Landkreis"},"federalState":{"key":"12","name":"Brandenburg"}},{"name":"Bahnhofstr.","postalCode":"35440","locality":"Linden","municipality":{"key":"06531012","name":"Linden, Stadt","type":"Stadt"},"district":{"key":"06531","name":"Gießen","type":"Landkreis"},"federalState":{"key":"06","name":"Hessen"}},{"name":"Bahnhofstr.","postalCode":"88161","locality":"Lindenberg im Allgäu","municipality":{"key":"09776117","name":"Lindenberg i.Allgäu, St","type":"Stadt"},"district":{"key":"09776","name":"Lindau (Bodensee)","type":"Landkreis"},"federalState":{"key":"09","name":"Bayern"}},{"name":"Barfußpfad","postalCode":"67473","locality":"Lindenberg","municipality":{"key":"07332034","name":"Lindenberg","type":"Kreisangehörige_Gemeinde"},"district":{"key":"07332","name":"Bad Dürkheim","type":"Landkreis"},"federalState":{"key":"07","name":"Rheinland-Pfalz"}},{"name":"Barkenholmer Weg","postalCode":"25791","locality":"Linden","municipality":{"key":"01051068","name":"Linden","type":"Kreisangehörige_Gemeinde"},"district":{"key":"01051","name":"Dithmarschen","type":"Kreis"},"federalState":{"key":"01","name":"Schleswig-Holstein"}},{"name":"Baumeister-Specht-Str.","postalCode":"88161","locality":"Lindenberg im Allgäu","municipality":{"key":"09776117","name":"Lindenberg i.Allgäu, St","type":"Stadt"},"district":{"key":"09776","name":"Lindau (Bodensee)","type":"Landkreis"},"federalState":{"key":"09","name":"Bayern"}},{"name":"Baumschulenweg","postalCode":"16818","locality":"Märkisch Linden","municipality":{"key":"12068306","name":"Märkisch Linden","type":"Kreisangehörige_Gemeinde"},"district":{"key":"12068","name":"Ostprignitz-Ruppin","type":"Landkreis"},"federalState":{"key":"12","name":"Brandenburg"}},{"name":"Beethovenstr.","postalCode":"35440","locality":"Linden","municipality":{"key":"06531012","name":"Linden, Stadt","type":"Stadt"},"district":{"key":"06531","name":"Gießen","type":"Landkreis"},"federalState":{"key":"06","name":"Hessen"}},{"name":"Beim Heim","postalCode":"15306","locality":"Vierlinden","municipality":{"key":"12064482","name":"Vierlinden","type":"Kreisangehörige_Gemeinde"},"district":{"key":"12064","name":"Märkisch-Oderland","type":"Landkreis"},"federalState":{"key":"12","name":"Brandenburg"}},{"name":"Bensheimer Str.","postalCode":"64678","locality":"Lindenfels","municipality":{"key":"06431015","name":"Lindenfels, Stadt","type":"Stadt"},"district":{"key":"06431","name":"Bergstraße","type":"Landkreis"},"federalState":{"key":"06","name":"Hessen"}},{"name":"Bergstr.","postalCode":"35440","locality":"Linden","municipality":{"key":"06531012","name":"Linden, Stadt","type":"Stadt"},"district":{"key":"06531","name":"Gießen","type":"Landkreis"},"federalState":{"key":"06","name":"Hessen"}},{"name":"Bergstr.","postalCode":"57629","locality":"Linden","municipality":{"key":"07143258","name":"Linden","type":"Kreisangehörige_Gemeinde"},"district":{"key":"07143","name":"Westerwaldkreis","type":"Landkreis"},"federalState":{"key":"07","name":"Rheinland-Pfalz"}},{"name":"Bergstr.","postalCode":"66851","locality":"Linden","municipality":{"key":"07335023","name":"Linden","type":"Kreisangehörige_Gemeinde"},"district":{"key":"07335","name":"Kaiserslautern","type":"Landkreis"},"federalState":{"key":"07","name":"Rheinland-Pfalz"}},{"name":"Bergstr.","postalCode":"85664","locality":"Hohenlinden","municipality":{"key":"09175123","name":"Hohenlinden","type":"Kreisangehörige_Gemeinde"},"district":{"key":"09175","name":"Ebersberg","type":"Landkreis"},"federalState":{"key":"09","name":"Bayern"}},{"name":"Bergstr.","postalCode":"88161","locality":"Lindenberg im Allgäu","municipality":{"key":"09776117","name":"Lindenberg i.Allgäu, St","type":"Stadt"},"district":{"key":"09776","name":"Lindau (Bodensee)","type":"Landkreis"},"federalState":{"key":"09","name":"Bayern"}},{"name":"Bergweg","postalCode":"64678","locality":"Lindenfels","municipality":{"key":"06431015","name":"Lindenfels, Stadt","type":"Stadt"},"district":{"key":"06431","name":"Bergstraße","type":"Landkreis"},"federalState":{"key":"06","name":"Hessen"}},{"name":"Bergwiesenweg","postalCode":"64678","locality":"Lindenfels","municipality":{"key":"06431015","name":"Lindenfels, Stadt","type":"Stadt"},"district":{"key":"06431","name":"Bergstraße","type":"Landkreis"},"federalState":{"key":"06","name":"Hessen"}},{"name":"Berliner Str.","postalCode":"88161","locality":"Lindenberg im Allgäu","municipality":{"key":"09776117","name":"Lindenberg i.Allgäu, St","type":"Stadt"},"district":{"key":"09776","name":"Lindau (Bodensee)","type":"Landkreis"},"federalState":{"key":"09","name":"Bayern"}},{"name":"Bgm.-Schmitt-Str.","postalCode":"88161","locality":"Lindenberg im Allgäu","municipality":{"key":"09776117","name":"Lindenberg i.Allgäu, St","type":"Stadt"},"district":{"key":"09776","name":"Lindau (Bodensee)","type":"Landkreis"},"federalState":{"key":"09","name":"Bayern"}},{"name":"Binsengasse","postalCode":"01945","locality":"Lindenau","municipality":{"key":"12066188","name":"Lindenau","type":"Kreisangehörige_Gemeinde"},"district":{"key":"12066","name":"Oberspreewald-Lausitz","type":"Landkreis"},"federalState":{"key":"12","name":"Brandenburg"}},{"name":"Birkach","postalCode":"85664","locality":"Hohenlinden","municipality":{"key":"09175123","name":"Hohenlinden","type":"Kreisangehörige_Gemeinde"},"district":{"key":"09175","name":"Ebersberg","type":"Landkreis"},"federalState":{"key":"09","name":"Bayern"}},{"name":"Birkenweg","postalCode":"15306","locality":"Lindendorf","municipality":{"key":"12064290","name":"Lindendorf","type":"Kreisangehörige_Gemeinde"},"district":{"key":"12064","name":"Märkisch-Oderland","type":"Landkreis"},"federalState":{"key":"12","name":"Brandenburg"}},{"name":"Birkenweg","postalCode":"16818","locality":"Märkisch Linden","municipality":{"key":"12068306","name":"Märkisch Linden","type":"Kreisangehörige_Gemeinde"},"district":{"key":"12068","name":"Ostprignitz-Ruppin","type":"Landkreis"},"federalState":{"key":"12","name":"Brandenburg"}},{"name":"Birkenweg","postalCode":"25791","locality":"Linden","municipality":{"key":"01051068","name":"Linden","type":"Kreisangehörige_Gemeinde"},"district":{"key":"01051","name":"Dithmarschen","type":"Kreis"},"federalState":{"key":"01","name":"Schleswig-Holstein"}},{"name":"Birkenweg","postalCode":"64678","locality":"Lindenfels","municipality":{"key":"06431015","name":"Lindenfels, Stadt","type":"Stadt"},"district":{"key":"06431","name":"Bergstraße","type":"Landkreis"},"federalState":{"key":"06","name":"Hessen"}},{"name":"Birkenweg","postalCode":"88161","locality":"Lindenberg im Allgäu","municipality":{"key":"09776117","name":"Lindenberg i.Allgäu, St","type":"Stadt"},"district":{"key":"09776","name":"Lindau (Bodensee)","type":"Landkreis"},"federalState":{"key":"09","name":"Bayern"}},{"name":"Bismarckstr.","postalCode":"35440","locality":"Linden","municipality":{"key":"06531012","name":"Linden, Stadt","type":"Stadt"},"district":{"key":"06531","name":"Gießen","type":"Landkreis"},"federalState":{"key":"06","name":"Hessen"}},{"name":"Bismarckstr.","postalCode":"88161","locality":"Lindenberg im Allgäu","municipality":{"key":"09776117","name":"Lindenberg i.Allgäu, St","type":"Stadt"},"district":{"key":"09776","name":"Lindau (Bodensee)","type":"Landkreis"},"federalState":{"key":"09","name":"Bayern"}},{"name":"Bismarckturmstr.","postalCode":"64678","locality":"Lindenfels","municipality":{"key":"06431015","name":"Lindenfels, Stadt","type":"Stadt"},"district":{"key":"06431","name":"Bergstraße","type":"Landkreis"},"federalState":{"key":"06","name":"Hessen"}},{"name":"Bletzen","postalCode":"25791","locality":"Linden","municipality":{"key":"01051068","name":"Linden","type":"Kreisangehörige_Gemeinde"},"district":{"key":"01051","name":"Dithmarschen","type":"Kreis"},"federalState":{"key":"01","name":"Schleswig-Holstein"}},{"name":"Blumenstr.","postalCode":"88161","locality":"Lindenberg im Allgäu","municipality":{"key":"09776117","name":"Lindenberg i.Allgäu, St","type":"Stadt"},"district":{"key":"09776","name":"Lindau (Bodensee)","type":"Landkreis"},"federalState":{"key":"09","name":"Bayern"}},{"name":"Bodenstr.","postalCode":"64678","locality":"Lindenfels","municipality":{"key":"06431015","name":"Lindenfels, Stadt","type":"Stadt"},"district":{"key":"06431","name":"Bergstraße","type":"Landkreis"},"federalState":{"key":"06","name":"Hessen"}},{"name":"Böhmerwald","postalCode":"35440","locality":"Linden","municipality":{"key":"06531012","name":"Linden, Stadt","type":"Stadt"},"district":{"key":"06531","name":"Gießen","type":"Landkreis"},"federalState":{"key":"06","name":"Hessen"}},{"name":"Bonhoefferstr.","postalCode":"35440","locality":"Linden","municipality":{"key":"06531012","name":"Linden, Stadt","type":"Stadt"},"district":{"key":"06531","name":"Gießen","type":"Landkreis"},"federalState":{"key":"06","name":"Hessen"}},{"name":"Bornstr.","postalCode":"57629","locality":"Linden","municipality":{"key":"07143258","name":"Linden","type":"Kreisangehörige_Gemeinde"},"district":{"key":"07143","name":"Westerwaldkreis","type":"Landkreis"},"federalState":{"key":"07","name":"Rheinland-Pfalz"}},{"name":"Bräuhausstr.","postalCode":"88161","locality":"Lindenberg im Allgäu","municipality":{"key":"09776117","name":"Lindenberg i.Allgäu, St","type":"Stadt"},"district":{"key":"09776","name":"Lindau (Bodensee)","type":"Landkreis"},"federalState":{"key":"09","name":"Bayern"}},{"name":"Braunackerweg","postalCode":"64678","locality":"Lindenfels","municipality":{"key":"06431015","name":"Lindenfels, Stadt","type":"Stadt"},"district":{"key":"06431","name":"Bergstraße","type":"Landkreis"},"federalState":{"key":"06","name":"Hessen"}},{"name":"Breitenwieser Weg","postalCode":"64678","locality":"Lindenfels","municipality":{"key":"06431015","name":"Lindenfels, Stadt","type":"Stadt"},"district":{"key":"06431","name":"Bergstraße","type":"Landkreis"},"federalState":{"key":"06","name":"Hessen"}},{"name":"Breiter Weg","postalCode":"35440","locality":"Linden","municipality":{"key":"06531012","name":"Linden, Stadt","type":"Stadt"},"district":{"key":"06531","name":"Gießen","type":"Landkreis"},"federalState":{"key":"06","name":"Hessen"}},{"name":"Brennterwinkel","postalCode":"88161","locality":"Lindenberg im Allgäu","municipality":{"key":"09776117","name":"Lindenberg i.Allgäu, St","type":"Stadt"},"district":{"key":"09776","name":"Lindau (Bodensee)","type":"Landkreis"},"federalState":{"key":"09","name":"Bayern"}},{"name":"Brentanostr.","postalCode":"35440","locality":"Linden","municipality":{"key":"06531012","name":"Linden, Stadt","type":"Stadt"},"district":{"key":"06531","name":"Gießen","type":"Landkreis"},"federalState":{"key":"06","name":"Hessen"}},{"name":"Briefelbachstr.","postalCode":"64678","locality":"Lindenfels","municipality":{"key":"06431015","name":"Lindenfels, Stadt","type":"Stadt"},"district":{"key":"06431","name":"Bergstraße","type":"Landkreis"},"federalState":{"key":"06","name":"Hessen"}},{"name":"Brückenweg","postalCode":"85664","locality":"Hohenlinden","municipality":{"key":"09175123","name":"Hohenlinden","type":"Kreisangehörige_Gemeinde"},"district":{"key":"09175","name":"Ebersberg","type":"Landkreis"},"federalState":{"key":"09","name":"Bayern"}},{"name":"Brüder-Grimm-Str.","postalCode":"35440","locality":"Linden","municipality":{"key":"06531012","name":"Linden, Stadt","type":"Stadt"},"district":{"key":"06531","name":"Gießen","type":"Landkreis"},"federalState":{"key":"06","name":"Hessen"}},{"name":"Carl-Benz-Str.","postalCode":"35440","locality":"Linden","municipality":{"key":"06531012","name":"Linden, Stadt","type":"Stadt"},"district":{"key":"06531","name":"Gießen","type":"Landkreis"},"federalState":{"key":"06","name":"Hessen"}},{"name":"Christian-Faber-Weg","postalCode":"35440","locality":"Linden","municipality":{"key":"06531012","name":"Linden, Stadt","type":"Stadt"},"district":{"key":"06531","name":"Gießen","type":"Landkreis"},"federalState":{"key":"06","name":"Hessen"}},{"name":"Cottbuser Str.","postalCode":"35440","locality":"Linden","municipality":{"key":"06531012","name":"Linden, Stadt","type":"Stadt"},"district":{"key":"06531","name":"Gießen","type":"Landkreis"},"federalState":{"key":"06","name":"Hessen"}},{"name":"Darritzer Str.","postalCode":"16818","locality":"Märkisch Linden","municipality":{"key":"12068306","name":"Märkisch Linden","type":"Kreisangehörige_Gemeinde"},"district":{"key":"12068","name":"Ostprignitz-Ruppin","type":"Landkreis"},"federalState":{"key":"12","name":"Brandenburg"}},{"name":"Darritzer Weg","postalCode":"16818","locality":"Märkisch Linden","municipality":{"key":"12068306","name":"Märkisch Linden","type":"Kreisangehörige_Gemeinde"},"district":{"key":"12068","name":"Ostprignitz-Ruppin","type":"Landkreis"},"federalState":{"key":"12","name":"Brandenburg"}},{"name":"Diedersdorf","postalCode":"15306","locality":"Vierlinden","municipality":{"key":"12064482","name":"Vierlinden","type":"Kreisangehörige_Gemeinde"},"district":{"key":"12064","name":"Märkisch-Oderland","type":"Landkreis"},"federalState":{"key":"12","name":"Brandenburg"}},{"name":"Diedersdorfer Str.","postalCode":"15306","locality":"Vierlinden","municipality":{"key":"12064482","name":"Vierlinden","type":"Kreisangehörige_Gemeinde"},"district":{"key":"12064","name":"Märkisch-Oderland","type":"Landkreis"},"federalState":{"key":"12","name":"Brandenburg"}},{"name":"Die Tränke","postalCode":"35440","locality":"Linden","municipality":{"key":"06531012","name":"Linden, Stadt","type":"Stadt"},"district":{"key":"06531","name":"Gießen","type":"Landkreis"},"federalState":{"key":"06","name":"Hessen"}},{"name":"Dolgeliner Weg","postalCode":"15306","locality":"Lindendorf","municipality":{"key":"12064290","name":"Lindendorf","type":"Kreisangehörige_Gemeinde"},"district":{"key":"12064","name":"Märkisch-Oderland","type":"Landkreis"},"federalState":{"key":"12","name":"Brandenburg"}},{"name":"Dorfstr.","postalCode":"15306","locality":"Lindendorf","municipality":{"key":"12064290","name":"Lindendorf","type":"Kreisangehörige_Gemeinde"},"district":{"key":"12064","name":"Märkisch-Oderland","type":"Landkreis"},"federalState":{"key":"12","name":"Brandenburg"}},{"name":"Dorfstr.","postalCode":"15306","locality":"Vierlinden","municipality":{"key":"12064482","name":"Vierlinden","type":"Kreisangehörige_Gemeinde"},"district":{"key":"12064","name":"Märkisch-Oderland","type":"Landkreis"},"federalState":{"key":"12","name":"Brandenburg"}},{"name":"Dorfstr.","postalCode":"25791","locality":"Linden","municipality":{"key":"01051068","name":"Linden","type":"Kreisangehörige_Gemeinde"},"district":{"key":"01051","name":"Dithmarschen","type":"Kreis"},"federalState":{"key":"01","name":"Schleswig-Holstein"}},{"name":"Dresdener Str.","postalCode":"35440","locality":"Linden","municipality":{"key":"06531012","name":"Linden, Stadt","type":"Stadt"},"district":{"key":"06531","name":"Gießen","type":"Landkreis"},"federalState":{"key":"06","name":"Hessen"}},{"name":"Dritter Geräumtweg","postalCode":"85664","locality":"Hohenlinden","municipality":{"key":"09175123","name":"Hohenlinden","type":"Kreisangehörige_Gemeinde"},"district":{"key":"09175","name":"Ebersberg","type":"Landkreis"},"federalState":{"key":"09","name":"Bayern"}},{"name":"Dr.-Otto-Geßler-Platz","postalCode":"88161","locality":"Lindenberg im Allgäu","municipality":{"key":"09776117","name":"Lindenberg i.Allgäu, St","type":"Stadt"},"district":{"key":"09776","name":"Lindau (Bodensee)","type":"Landkreis"},"federalState":{"key":"09","name":"Bayern"}},{"name":"Ebersberger Str.","postalCode":"85664","locality":"Hohenlinden","municipality":{"key":"09175123","name":"Hohenlinden","type":"Kreisangehörige_Gemeinde"},"district":{"key":"09175","name":"Ebersberg","type":"Landkreis"},"federalState":{"key":"09","name":"Bayern"}},{"name":"Eckweg","postalCode":"64678","locality":"Lindenfels","municipality":{"key":"06431015","name":"Lindenfels, Stadt","type":"Stadt"},"district":{"key":"06431","name":"Bergstraße","type":"Landkreis"},"federalState":{"key":"06","name":"Hessen"}},{"name":"Eichendorffring","postalCode":"35440","locality":"Linden","municipality":{"key":"06531012","name":"Linden, Stadt","type":"Stadt"},"district":{"key":"06531","name":"Gießen","type":"Landkreis"},"federalState":{"key":"06","name":"Hessen"}},{"name":"Eichenstr.","postalCode":"85664","locality":"Hohenlinden","municipality":{"key":"09175123","name":"Hohenlinden","type":"Kreisangehörige_Gemeinde"},"district":{"key":"09175","name":"Ebersberg","type":"Landkreis"},"federalState":{"key":"09","name":"Bayern"}},{"name":"Eichenweg","postalCode":"64678","locality":"Lindenfels","municipality":{"key":"06431015","name":"Lindenfels, Stadt","type":"Stadt"},"district":{"key":"06431","name":"Bergstraße","type":"Landkreis"},"federalState":{"key":"06","name":"Hessen"}},{"name":"Eimerbach","postalCode":"66851","locality":"Linden","municipality":{"key":"07335023","name":"Linden","type":"Kreisangehörige_Gemeinde"},"district":{"key":"07335","name":"Kaiserslautern","type":"Landkreis"},"federalState":{"key":"07","name":"Rheinland-Pfalz"}},{"name":"Elisabeth-Schwarzhaupt-Str.","postalCode":"35440","locality":"Linden","municipality":{"key":"06531012","name":"Linden, Stadt","type":"Stadt"},"district":{"key":"06531","name":"Gießen","type":"Landkreis"},"federalState":{"key":"06","name":"Hessen"}},{"name":"Ellenbacher Str.","postalCode":"64678","locality":"Lindenfels","municipality":{"key":"06431015","name":"Lindenfels, Stadt","type":"Stadt"},"district":{"key":"06431","name":"Bergstraße","type":"Landkreis"},"federalState":{"key":"06","name":"Hessen"}},{"name":"Ellenbacher Weg","postalCode":"64678","locality":"Lindenfels","municipality":{"key":"06431015","name":"Lindenfels, Stadt","type":"Stadt"},"district":{"key":"06431","name":"Bergstraße","type":"Landkreis"},"federalState":{"key":"06","name":"Hessen"}},{"name":"Ellgassen","postalCode":"88161","locality":"Lindenberg im Allgäu","municipality":{"key":"09776117","name":"Lindenberg i.Allgäu, St","type":"Stadt"},"district":{"key":"09776","name":"Lindau (Bodensee)","type":"Landkreis"},"federalState":{"key":"09","name":"Bayern"}},{"name":"Ellgasser Str.","postalCode":"88161","locality":"Lindenberg im Allgäu","municipality":{"key":"09776117","name":"Lindenberg i.Allgäu, St","type":"Stadt"},"district":{"key":"09776","name":"Lindau (Bodensee)","type":"Landkreis"},"federalState":{"key":"09","name":"Bayern"}},{"name":"Elsterwerdaer Str.","postalCode":"01945","locality":"Lindenau","municipality":{"key":"12066188","name":"Lindenau","type":"Kreisangehörige_Gemeinde"},"district":{"key":"12066","name":"Oberspreewald-Lausitz","type":"Landkreis"},"federalState":{"key":"12","name":"Brandenburg"}},{"name":"Erdinger Str.","postalCode":"85664","locality":"Hohenlinden","municipality":{"key":"09175123","name":"Hohenlinden","type":"Kreisangehörige_Gemeinde"},"district":{"key":"09175","name":"Ebersberg","type":"Landkreis"},"federalState":{"key":"09","name":"Bayern"}},{"name":"Erfurter Str.","postalCode":"35440","locality":"Linden","municipality":{"key":"06531012","name":"Linden, Stadt","type":"Stadt"},"district":{"key":"06531","name":"Gießen","type":"Landkreis"},"federalState":{"key":"06","name":"Hessen"}},{"name":"Erich-Kästner-Str.","postalCode":"35440","locality":"Linden","municipality":{"key":"06531012","name":"Linden, Stadt","type":"Stadt"},"district":{"key":"06531","name":"Gießen","type":"Landkreis"},"federalState":{"key":"06","name":"Hessen"}},{"name":"Erlenbacher Weg","postalCode":"64678","locality":"Lindenfels","municipality":{"key":"06431015","name":"Lindenfels, Stadt","type":"Stadt"},"district":{"key":"06431","name":"Bergstraße","type":"Landkreis"},"federalState":{"key":"06","name":"Hessen"}},{"name":"Ernst-Thälmann-Str.","postalCode":"15306","locality":"Lindendorf","municipality":{"key":"12064290","name":"Lindendorf","type":"Kreisangehörige_Gemeinde"},"district":{"key":"12064","name":"Märkisch-Oderland","type":"Landkreis"},"federalState":{"key":"12","name":"Brandenburg"}},{"name":"Erster Geräumtweg","postalCode":"85664","locality":"Hohenlinden","municipality":{"key":"09175123","name":"Hohenlinden","type":"Kreisangehörige_Gemeinde"},"district":{"key":"09175","name":"Ebersberg","type":"Landkreis"},"federalState":{"key":"09","name":"Bayern"}},{"name":"Eschenallee","postalCode":"16818","locality":"Märkisch Linden","municipality":{"key":"12068306","name":"Märkisch Linden","type":"Kreisangehörige_Gemeinde"},"district":{"key":"12068","name":"Ostprignitz-Ruppin","type":"Landkreis"},"federalState":{"key":"12","name":"Brandenburg"}},{"name":"Falkenhagener Str.","postalCode":"15306","locality":"Lindendorf","municipality":{"key":"12064290","name":"Lindendorf","type":"Kreisangehörige_Gemeinde"},"district":{"key":"12064","name":"Märkisch-Oderland","type":"Landkreis"},"federalState":{"key":"12","name":"Brandenburg"}},{"name":"Falkenhagener Str.","postalCode":"15306","locality":"Vierlinden","municipality":{"key":"12064482","name":"Vierlinden","type":"Kreisangehörige_Gemeinde"},"district":{"key":"12064","name":"Märkisch-Oderland","type":"Landkreis"},"federalState":{"key":"12","name":"Brandenburg"}},{"name":"Falkenweg","postalCode":"88161","locality":"Lindenberg im Allgäu","municipality":{"key":"09776117","name":"Lindenberg i.Allgäu, St","type":"Stadt"},"district":{"key":"09776","name":"Lindau (Bodensee)","type":"Landkreis"},"federalState":{"key":"09","name":"Bayern"}},{"name":"Falltorstr.","postalCode":"35440","locality":"Linden","municipality":{"key":"06531012","name":"Linden, Stadt","type":"Stadt"},"district":{"key":"06531","name":"Gießen","type":"Landkreis"},"federalState":{"key":"06","name":"Hessen"}},{"name":"Färberstr.","postalCode":"88161","locality":"Lindenberg im Allgäu","municipality":{"key":"09776117","name":"Lindenberg i.Allgäu, St","type":"Stadt"},"district":{"key":"09776","name":"Lindau (Bodensee)","type":"Landkreis"},"federalState":{"key":"09","name":"Bayern"}},{"name":"Fasanenweg","postalCode":"64678","locality":"Lindenfels","municipality":{"key":"06431015","name":"Lindenfels, Stadt","type":"Stadt"},"district":{"key":"06431","name":"Bergstraße","type":"Landkreis"},"federalState":{"key":"06","name":"Hessen"}},{"name":"Fechenbachstr.","postalCode":"64678","locality":"Lindenfels","municipality":{"key":"06431015","name":"Lindenfels, Stadt","type":"Stadt"},"district":{"key":"06431","name":"Bergstraße","type":"Landkreis"},"federalState":{"key":"06","name":"Hessen"}},{"name":"Ferniestr.","postalCode":"35440","locality":"Linden","municipality":{"key":"06531012","name":"Linden, Stadt","type":"Stadt"},"district":{"key":"06531","name":"Gießen","type":"Landkreis"},"federalState":{"key":"06","name":"Hessen"}},{"name":"Fichtenweg","postalCode":"64678","locality":"Lindenfels","municipality":{"key":"06431015","name":"Lindenfels, Stadt","type":"Stadt"},"district":{"key":"06431","name":"Bergstraße","type":"Landkreis"},"federalState":{"key":"06","name":"Hessen"}},{"name":"Finkenbusch","postalCode":"35440","locality":"Linden","municipality":{"key":"06531012","name":"Linden, Stadt","type":"Stadt"},"district":{"key":"06531","name":"Gießen","type":"Landkreis"},"federalState":{"key":"06","name":"Hessen"}},{"name":"Finkenstr.","postalCode":"64678","locality":"Lindenfels","municipality":{"key":"06431015","name":"Lindenfels, Stadt","type":"Stadt"},"district":{"key":"06431","name":"Bergstraße","type":"Landkreis"},"federalState":{"key":"06","name":"Hessen"}},{"name":"Finkenweg","postalCode":"35440","locality":"Linden","municipality":{"key":"06531012","name":"Linden, Stadt","type":"Stadt"},"district":{"key":"06531","name":"Gießen","type":"Landkreis"},"federalState":{"key":"06","name":"Hessen"}},{"name":"Finkenweg","postalCode":"88161","locality":"Lindenberg im Allgäu","municipality":{"key":"09776117","name":"Lindenberg i.Allgäu, St","type":"Stadt"},"district":{"key":"09776","name":"Lindau (Bodensee)","type":"Landkreis"},"federalState":{"key":"09","name":"Bayern"}},{"name":"Fliederstr.","postalCode":"66851","locality":"Linden","municipality":{"key":"07335023","name":"Linden","type":"Kreisangehörige_Gemeinde"},"district":{"key":"07335","name":"Kaiserslautern","type":"Landkreis"},"federalState":{"key":"07","name":"Rheinland-Pfalz"}},{"name":"Fliederweg","postalCode":"15306","locality":"Vierlinden","municipality":{"key":"12064482","name":"Vierlinden","type":"Kreisangehörige_Gemeinde"},"district":{"key":"12064","name":"Märkisch-Oderland","type":"Landkreis"},"federalState":{"key":"12","name":"Brandenburg"}},{"name":"Flürchenstr.","postalCode":"66851","locality":"Linden","municipality":{"key":"07335023","name":"Linden","type":"Kreisangehörige_Gemeinde"},"district":{"key":"07335","name":"Kaiserslautern","type":"Landkreis"},"federalState":{"key":"07","name":"Rheinland-Pfalz"}},{"name":"Flurstr.","postalCode":"85664","locality":"Hohenlinden","municipality":{"key":"09175123","name":"Hohenlinden","type":"Kreisangehörige_Gemeinde"},"district":{"key":"09175","name":"Ebersberg","type":"Landkreis"},"federalState":{"key":"09","name":"Bayern"}},{"name":"Forststr.","postalCode":"64678","locality":"Lindenfels","municipality":{"key":"06431015","name":"Lindenfels, Stadt","type":"Stadt"},"district":{"key":"06431","name":"Bergstraße","type":"Landkreis"},"federalState":{"key":"06","name":"Hessen"}},{"name":"Forstweg","postalCode":"35440","locality":"Linden","municipality":{"key":"06531012","name":"Linden, Stadt","type":"Stadt"},"district":{"key":"06531","name":"Gießen","type":"Landkreis"},"federalState":{"key":"06","name":"Hessen"}},{"name":"Frankfurter Str.","postalCode":"15306","locality":"Lindendorf","municipality":{"key":"12064290","name":"Lindendorf","type":"Kreisangehörige_Gemeinde"},"district":{"key":"12064","name":"Märkisch-Oderland","type":"Landkreis"},"federalState":{"key":"12","name":"Brandenburg"}},{"name":"Frankfurter Str.","postalCode":"15306","locality":"Vierlinden","municipality":{"key":"12064482","name":"Vierlinden","type":"Kreisangehörige_Gemeinde"},"district":{"key":"12064","name":"Märkisch-Oderland","type":"Landkreis"},"federalState":{"key":"12","name":"Brandenburg"}},{"name":"Frankfurter Str.","postalCode":"35440","locality":"Linden","municipality":{"key":"06531012","name":"Linden, Stadt","type":"Stadt"},"district":{"key":"06531","name":"Gießen","type":"Landkreis"},"federalState":{"key":"06","name":"Hessen"}},{"name":"Frauendorfer Str.","postalCode":"01945","locality":"Lindenau","municipality":{"key":"12066188","name":"Lindenau","type":"Kreisangehörige_Gemeinde"},"district":{"key":"12066","name":"Oberspreewald-Lausitz","type":"Landkreis"},"federalState":{"key":"12","name":"Brandenburg"}},{"name":"Freiensehnerstr.","postalCode":"64678","locality":"Lindenfels","municipality":{"key":"06431015","name":"Lindenfels, Stadt","type":"Stadt"},"district":{"key":"06431","name":"Bergstraße","type":"Landkreis"},"federalState":{"key":"06","name":"Hessen"}},{"name":"Freiherr-vom-Stein-Str.","postalCode":"64678","locality":"Lindenfels","municipality":{"key":"06431015","name":"Lindenfels, Stadt","type":"Stadt"},"district":{"key":"06431","name":"Bergstraße","type":"Landkreis"},"federalState":{"key":"06","name":"Hessen"}},{"name":"Freiherr-Vom-Stein-Str.","postalCode":"35440","locality":"Linden","municipality":{"key":"06531012","name":"Linden, Stadt","type":"Stadt"},"district":{"key":"06531","name":"Gießen","type":"Landkreis"},"federalState":{"key":"06","name":"Hessen"}},{"name":"Fridolin-Holzer-Str.","postalCode":"88161","locality":"Lindenberg im Allgäu","municipality":{"key":"09776117","name":"Lindenberg i.Allgäu, St","type":"Stadt"},"district":{"key":"09776","name":"Lindau (Bodensee)","type":"Landkreis"},"federalState":{"key":"09","name":"Bayern"}},{"name":"Friedensstr.","postalCode":"35440","locality":"Linden","municipality":{"key":"06531012","name":"Linden, Stadt","type":"Stadt"},"district":{"key":"06531","name":"Gießen","type":"Landkreis"},"federalState":{"key":"06","name":"Hessen"}},{"name":"Friedenstal","postalCode":"15306","locality":"Lindendorf","municipality":{"key":"12064290","name":"Lindendorf","type":"Kreisangehörige_Gemeinde"},"district":{"key":"12064","name":"Märkisch-Oderland","type":"Landkreis"},"federalState":{"key":"12","name":"Brandenburg"}},{"name":"Friedhofsweg","postalCode":"35440","locality":"Linden","municipality":{"key":"06531012","name":"Linden, Stadt","type":"Stadt"},"district":{"key":"06531","name":"Gießen","type":"Landkreis"},"federalState":{"key":"06","name":"Hessen"}},{"name":"Friedhofsweg","postalCode":"64678","locality":"Lindenfels","municipality":{"key":"06431015","name":"Lindenfels, Stadt","type":"Stadt"},"district":{"key":"06431","name":"Bergstraße","type":"Landkreis"},"federalState":{"key":"06","name":"Hessen"}},{"name":"Friedhofsweg","postalCode":"67473","locality":"Lindenberg","municipality":{"key":"07332034","name":"Lindenberg","type":"Kreisangehörige_Gemeinde"},"district":{"key":"07332","name":"Bad Dürkheim","type":"Landkreis"},"federalState":{"key":"07","name":"Rheinland-Pfalz"}},{"name":"Friedrich-Ebert-Str.","postalCode":"35440","locality":"Linden","municipality":{"key":"06531012","name":"Linden, Stadt","type":"Stadt"},"district":{"key":"06531","name":"Gießen","type":"Landkreis"},"federalState":{"key":"06","name":"Hessen"}},{"name":"Fronhofsgäßchen","postalCode":"35440","locality":"Linden","municipality":{"key":"06531012","name":"Linden, Stadt","type":"Stadt"},"district":{"key":"06531","name":"Gießen","type":"Landkreis"},"federalState":{"key":"06","name":"Hessen"}},{"name":"Fronhofstr.","postalCode":"35440","locality":"Linden","municipality":{"key":"06531012","name":"Linden, Stadt","type":"Stadt"},"district":{"key":"06531","name":"Gießen","type":"Landkreis"},"federalState":{"key":"06","name":"Hessen"}},{"name":"Frühlingstr.","postalCode":"88161","locality":"Lindenberg im Allgäu","municipality":{"key":"09776117","name":"Lindenberg i.Allgäu, St","type":"Stadt"},"district":{"key":"09776","name":"Lindau (Bodensee)","type":"Landkreis"},"federalState":{"key":"09","name":"Bayern"}},{"name":"Fürther Str.","postalCode":"64678","locality":"Lindenfels","municipality":{"key":"06431015","name":"Lindenfels, Stadt","type":"Stadt"},"district":{"key":"06431","name":"Bergstraße","type":"Landkreis"},"federalState":{"key":"06","name":"Hessen"}},{"name":"Gartenstr.","postalCode":"35440","locality":"Linden","municipality":{"key":"06531012","name":"Linden, Stadt","type":"Stadt"},"district":{"key":"06531","name":"Gießen","type":"Landkreis"},"federalState":{"key":"06","name":"Hessen"}},{"name":"Gartenstr.","postalCode":"66851","locality":"Linden","municipality":{"key":"07335023","name":"Linden","type":"Kreisangehörige_Gemeinde"},"district":{"key":"07335","name":"Kaiserslautern","type":"Landkreis"},"federalState":{"key":"07","name":"Rheinland-Pfalz"}},{"name":"Gartenweg","postalCode":"55481","locality":"Lindenschied","municipality":{"key":"07140086","name":"Lindenschied","type":"Kreisangehörige_Gemeinde"},"district":{"key":"07140","name":"Rhein-Hunsrück-Kreis","type":"Landkreis"},"federalState":{"key":"07","name":"Rheinland-Pfalz"}},{"name":"Gärtnerweg","postalCode":"64678","locality":"Lindenfels","municipality":{"key":"06431015","name":"Lindenfels, Stadt","type":"Stadt"},"district":{"key":"06431","name":"Bergstraße","type":"Landkreis"},"federalState":{"key":"06","name":"Hessen"}},{"name":"Gebhard-Huber-Str.","postalCode":"88161","locality":"Lindenberg im Allgäu","municipality":{"key":"09776117","name":"Lindenberg i.Allgäu, St","type":"Stadt"},"district":{"key":"09776","name":"Lindau (Bodensee)","type":"Landkreis"},"federalState":{"key":"09","name":"Bayern"}},{"name":"Gehmkower Weg","postalCode":"17111","locality":"Lindenberg","municipality":{"key":"13071089","name":"Lindenberg","type":"Kreisangehörige_Gemeinde"},"district":{"key":"13071","name":"Mecklenburgische Seenplatte","type":"Landkreis"},"federalState":{"key":"13","name":"Mecklenburg-Vorpommern"}},{"name":"Gerhart-Hauptmann-Str.","postalCode":"35440","locality":"Linden","municipality":{"key":"06531012","name":"Linden, Stadt","type":"Stadt"},"district":{"key":"06531","name":"Gießen","type":"Landkreis"},"federalState":{"key":"06","name":"Hessen"}},{"name":"Gerichtspfad","postalCode":"64678","locality":"Lindenfels","municipality":{"key":"06431015","name":"Lindenfels, Stadt","type":"Stadt"},"district":{"key":"06431","name":"Bergstraße","type":"Landkreis"},"federalState":{"key":"06","name":"Hessen"}},{"name":"Gießener Pforte","postalCode":"35440","locality":"Linden","municipality":{"key":"06531012","name":"Linden, Stadt","type":"Stadt"},"district":{"key":"06531","name":"Gießen","type":"Landkreis"},"federalState":{"key":"06","name":"Hessen"}},{"name":"Gießener Str.","postalCode":"35440","locality":"Linden","municipality":{"key":"06531012","name":"Linden, Stadt","type":"Stadt"},"district":{"key":"06531","name":"Gießen","type":"Landkreis"},"federalState":{"key":"06","name":"Hessen"}},{"name":"Glasbühlstr.","postalCode":"88161","locality":"Lindenberg im Allgäu","municipality":{"key":"09776117","name":"Lindenberg i.Allgäu, St","type":"Stadt"},"district":{"key":"09776","name":"Lindau (Bodensee)","type":"Landkreis"},"federalState":{"key":"09","name":"Bayern"}},{"name":"Glashüttenweg","postalCode":"64678","locality":"Lindenfels","municipality":{"key":"06431015","name":"Lindenfels, Stadt","type":"Stadt"},"district":{"key":"06431","name":"Bergstraße","type":"Landkreis"},"federalState":{"key":"06","name":"Hessen"}},{"name":"Glattbacher Str.","postalCode":"64678","locality":"Lindenfels","municipality":{"key":"06431015","name":"Lindenfels, Stadt","type":"Stadt"},"district":{"key":"06431","name":"Bergstraße","type":"Landkreis"},"federalState":{"key":"06","name":"Hessen"}},{"name":"Glüsinger Weg","postalCode":"25791","locality":"Linden","municipality":{"key":"01051068","name":"Linden","type":"Kreisangehörige_Gemeinde"},"district":{"key":"01051","name":"Dithmarschen","type":"Kreis"},"federalState":{"key":"01","name":"Schleswig-Holstein"}},{"name":"Goethestr.","postalCode":"35440","locality":"Linden","municipality":{"key":"06531012","name":"Linden, Stadt","type":"Stadt"},"district":{"key":"06531","name":"Gießen","type":"Landkreis"},"federalState":{"key":"06","name":"Hessen"}},{"name":"Goethestr.","postalCode":"88161","locality":"Lindenberg im Allgäu","municipality":{"key":"09776117","name":"Lindenberg i.Allgäu, St","type":"Stadt"},"district":{"key":"09776","name":"Lindau (Bodensee)","type":"Landkreis"},"federalState":{"key":"09","name":"Bayern"}},{"name":"Goldberg","postalCode":"25791","locality":"Linden","municipality":{"key":"01051068","name":"Linden","type":"Kreisangehörige_Gemeinde"},"district":{"key":"01051","name":"Dithmarschen","type":"Kreis"},"federalState":{"key":"01","name":"Schleswig-Holstein"}},{"name":"Goßholz","postalCode":"88161","locality":"Lindenberg im Allgäu","municipality":{"key":"09776117","name":"Lindenberg i.Allgäu, St","type":"Stadt"},"district":{"key":"09776","name":"Lindau (Bodensee)","type":"Landkreis"},"federalState":{"key":"09","name":"Bayern"}},{"name":"Goßholzer Str.","postalCode":"88161","locality":"Lindenberg im Allgäu","municipality":{"key":"09776117","name":"Lindenberg i.Allgäu, St","type":"Stadt"},"district":{"key":"09776","name":"Lindau (Bodensee)","type":"Landkreis"},"federalState":{"key":"09","name":"Bayern"}},{"name":"Gottberger Dorfstr.","postalCode":"16818","locality":"Märkisch Linden","municipality":{"key":"12068306","name":"Märkisch Linden","type":"Kreisangehörige_Gemeinde"},"district":{"key":"12068","name":"Ostprignitz-Ruppin","type":"Landkreis"},"federalState":{"key":"12","name":"Brandenburg"}},{"name":"Gottlieb-Daimler-Str.","postalCode":"35440","locality":"Linden","municipality":{"key":"06531012","name":"Linden, Stadt","type":"Stadt"},"district":{"key":"06531","name":"Gießen","type":"Landkreis"},"federalState":{"key":"06","name":"Hessen"}},{"name":"Graben","postalCode":"64678","locality":"Lindenfels","municipality":{"key":"06431015","name":"Lindenfels, Stadt","type":"Stadt"},"district":{"key":"06431","name":"Bergstraße","type":"Landkreis"},"federalState":{"key":"06","name":"Hessen"}},{"name":"Gregor-Mendel-Str.","postalCode":"35440","locality":"Linden","municipality":{"key":"06531012","name":"Linden, Stadt","type":"Stadt"},"district":{"key":"06531","name":"Gießen","type":"Landkreis"},"federalState":{"key":"06","name":"Hessen"}},{"name":"Grimmenhügel","postalCode":"55777","locality":"Fohren-Linden","municipality":{"key":"07134026","name":"Fohren-Linden","type":"Kreisangehörige_Gemeinde"},"district":{"key":"07134","name":"Birkenfeld","type":"Landkreis"},"federalState":{"key":"07","name":"Rheinland-Pfalz"}},{"name":"Großen-Lindener-Str.","postalCode":"35440","locality":"Linden","municipality":{"key":"06531012","name":"Linden, Stadt","type":"Stadt"},"district":{"key":"06531","name":"Gießen","type":"Landkreis"},"federalState":{"key":"06","name":"Hessen"}},{"name":"Große Str.","postalCode":"16818","locality":"Märkisch Linden","municipality":{"key":"12068306","name":"Märkisch Linden","type":"Kreisangehörige_Gemeinde"},"district":{"key":"12068","name":"Ostprignitz-Ruppin","type":"Landkreis"},"federalState":{"key":"12","name":"Brandenburg"}},{"name":"Grubenstr.","postalCode":"64678","locality":"Lindenfels","municipality":{"key":"06431015","name":"Lindenfels, Stadt","type":"Stadt"},"district":{"key":"06431","name":"Bergstraße","type":"Landkreis"},"federalState":{"key":"06","name":"Hessen"}},{"name":"Grundstr.","postalCode":"64678","locality":"Lindenfels","municipality":{"key":"06431015","name":"Lindenfels, Stadt","type":"Stadt"},"district":{"key":"06431","name":"Bergstraße","type":"Landkreis"},"federalState":{"key":"06","name":"Hessen"}},{"name":"Grüner Ring","postalCode":"25791","locality":"Linden","municipality":{"key":"01051068","name":"Linden","type":"Kreisangehörige_Gemeinde"},"district":{"key":"01051","name":"Dithmarschen","type":"Kreis"},"federalState":{"key":"01","name":"Schleswig-Holstein"}},{"name":"Grüner Weg","postalCode":"25791","locality":"Linden","municipality":{"key":"01051068","name":"Linden","type":"Kreisangehörige_Gemeinde"},"district":{"key":"01051","name":"Dithmarschen","type":"Kreis"},"federalState":{"key":"01","name":"Schleswig-Holstein"}},{"name":"Grüntenweg","postalCode":"88161","locality":"Lindenberg im Allgäu","municipality":{"key":"09776117","name":"Lindenberg i.Allgäu, St","type":"Stadt"},"district":{"key":"09776","name":"Lindau (Bodensee)","type":"Landkreis"},"federalState":{"key":"09","name":"Bayern"}},{"name":"Gumpener-Kreuz-Str.","postalCode":"64678","locality":"Lindenfels","municipality":{"key":"06431015","name":"Lindenfels, Stadt","type":"Stadt"},"district":{"key":"06431","name":"Bergstraße","type":"Landkreis"},"federalState":{"key":"06","name":"Hessen"}},{"name":"Gumpener Str.","postalCode":"64678","locality":"Lindenfels","municipality":{"key":"06431015","name":"Lindenfels, Stadt","type":"Stadt"},"district":{"key":"06431","name":"Bergstraße","type":"Landkreis"},"federalState":{"key":"06","name":"Hessen"}},{"name":"Gustav-Heinemann-Str.","postalCode":"35440","locality":"Linden","municipality":{"key":"06531012","name":"Linden, Stadt","type":"Stadt"},"district":{"key":"06531","name":"Gießen","type":"Landkreis"},"federalState":{"key":"06","name":"Hessen"}},{"name":"Hädrichweg","postalCode":"88161","locality":"Lindenberg im Allgäu","municipality":{"key":"09776117","name":"Lindenberg i.Allgäu, St","type":"Stadt"},"district":{"key":"09776","name":"Lindau (Bodensee)","type":"Landkreis"},"federalState":{"key":"09","name":"Bayern"}},{"name":"Hahnstrauch","postalCode":"35440","locality":"Linden","municipality":{"key":"06531012","name":"Linden, Stadt","type":"Stadt"},"district":{"key":"06531","name":"Gießen","type":"Landkreis"},"federalState":{"key":"06","name":"Hessen"}},{"name":"Haingasse","postalCode":"35440","locality":"Linden","municipality":{"key":"06531012","name":"Linden, Stadt","type":"Stadt"},"district":{"key":"06531","name":"Gießen","type":"Landkreis"},"federalState":{"key":"06","name":"Hessen"}},{"name":"Hang-Schneise","postalCode":"35440","locality":"Linden","municipality":{"key":"06531012","name":"Linden, Stadt","type":"Stadt"},"district":{"key":"06531","name":"Gießen","type":"Landkreis"},"federalState":{"key":"06","name":"Hessen"}},{"name":"Hangweg","postalCode":"64678","locality":"Lindenfels","municipality":{"key":"06431015","name":"Lindenfels, Stadt","type":"Stadt"},"district":{"key":"06431","name":"Bergstraße","type":"Landkreis"},"federalState":{"key":"06","name":"Hessen"}},{"name":"Hans-Böckler-Str.","postalCode":"35440","locality":"Linden","municipality":{"key":"06531012","name":"Linden, Stadt","type":"Stadt"},"district":{"key":"06531","name":"Gießen","type":"Landkreis"},"federalState":{"key":"06","name":"Hessen"}},{"name":"Hansenweiherstr.","postalCode":"88161","locality":"Lindenberg im Allgäu","municipality":{"key":"09776117","name":"Lindenberg i.Allgäu, St","type":"Stadt"},"district":{"key":"09776","name":"Lindau (Bodensee)","type":"Landkreis"},"federalState":{"key":"09","name":"Bayern"}},{"name":"Hans-Liebherr-Str.","postalCode":"88161","locality":"Lindenberg im Allgäu","municipality":{"key":"09776117","name":"Lindenberg i.Allgäu, St","type":"Stadt"},"district":{"key":"09776","name":"Lindau (Bodensee)","type":"Landkreis"},"federalState":{"key":"09","name":"Bayern"}},{"name":"Hardtweg","postalCode":"35440","locality":"Linden","municipality":{"key":"06531012","name":"Linden, Stadt","type":"Stadt"},"district":{"key":"06531","name":"Gießen","type":"Landkreis"},"federalState":{"key":"06","name":"Hessen"}},{"name":"Harsperweg","postalCode":"35440","locality":"Linden","municipality":{"key":"06531012","name":"Linden, Stadt","type":"Stadt"},"district":{"key":"06531","name":"Gießen","type":"Landkreis"},"federalState":{"key":"06","name":"Hessen"}},{"name":"Hasenpfad","postalCode":"35440","locality":"Linden","municipality":{"key":"06531012","name":"Linden, Stadt","type":"Stadt"},"district":{"key":"06531","name":"Gießen","type":"Landkreis"},"federalState":{"key":"06","name":"Hessen"}},{"name":"Hasseldorf","postalCode":"17111","locality":"Lindenberg","municipality":{"key":"13071089","name":"Lindenberg","type":"Kreisangehörige_Gemeinde"},"district":{"key":"13071","name":"Mecklenburgische Seenplatte","type":"Landkreis"},"federalState":{"key":"13","name":"Mecklenburg-Vorpommern"}},{"name":"Hathenower Str.","postalCode":"15306","locality":"Lindendorf","municipality":{"key":"12064290","name":"Lindendorf","type":"Kreisangehörige_Gemeinde"},"district":{"key":"12064","name":"Märkisch-Oderland","type":"Landkreis"},"federalState":{"key":"12","name":"Brandenburg"}},{"name":"Hauptstr.","postalCode":"01945","locality":"Lindenau","municipality":{"key":"12066188","name":"Lindenau","type":"Kreisangehörige_Gemeinde"},"district":{"key":"12066","name":"Oberspreewald-Lausitz","type":"Landkreis"},"federalState":{"key":"12","name":"Brandenburg"}},{"name":"Hauptstr.","postalCode":"15306","locality":"Lindendorf","municipality":{"key":"12064290","name":"Lindendorf","type":"Kreisangehörige_Gemeinde"},"district":{"key":"12064","name":"Märkisch-Oderland","type":"Landkreis"},"federalState":{"key":"12","name":"Brandenburg"}},{"name":"Hauptstr.","postalCode":"25791","locality":"Linden","municipality":{"key":"01051068","name":"Linden","type":"Kreisangehörige_Gemeinde"},"district":{"key":"01051","name":"Dithmarschen","type":"Kreis"},"federalState":{"key":"01","name":"Schleswig-Holstein"}},{"name":"Hauptstr.","postalCode":"35440","locality":"Linden","municipality":{"key":"06531012","name":"Linden, Stadt","type":"Stadt"},"district":{"key":"06531","name":"Gießen","type":"Landkreis"},"federalState":{"key":"06","name":"Hessen"}},{"name":"Hauptstr.","postalCode":"55481","locality":"Lindenschied","municipality":{"key":"07140086","name":"Lindenschied","type":"Kreisangehörige_Gemeinde"},"district":{"key":"07140","name":"Rhein-Hunsrück-Kreis","type":"Landkreis"},"federalState":{"key":"07","name":"Rheinland-Pfalz"}},{"name":"Hauptstr.","postalCode":"55777","locality":"Fohren-Linden","municipality":{"key":"07134026","name":"Fohren-Linden","type":"Kreisangehörige_Gemeinde"},"district":{"key":"07134","name":"Birkenfeld","type":"Landkreis"},"federalState":{"key":"07","name":"Rheinland-Pfalz"}},{"name":"Hauptstr.","postalCode":"57629","locality":"Linden","municipality":{"key":"07143258","name":"Linden","type":"Kreisangehörige_Gemeinde"},"district":{"key":"07143","name":"Westerwaldkreis","type":"Landkreis"},"federalState":{"key":"07","name":"Rheinland-Pfalz"}},{"name":"Hauptstr.","postalCode":"64678","locality":"Lindenfels","municipality":{"key":"06431015","name":"Lindenfels, Stadt","type":"Stadt"},"district":{"key":"06431","name":"Bergstraße","type":"Landkreis"},"federalState":{"key":"06","name":"Hessen"}},{"name":"Hauptstr.","postalCode":"66851","locality":"Linden","municipality":{"key":"07335023","name":"Linden","type":"Kreisangehörige_Gemeinde"},"district":{"key":"07335","name":"Kaiserslautern","type":"Landkreis"},"federalState":{"key":"07","name":"Rheinland-Pfalz"}},{"name":"Hauptstr.","postalCode":"67473","locality":"Lindenberg","municipality":{"key":"07332034","name":"Lindenberg","type":"Kreisangehörige_Gemeinde"},"district":{"key":"07332","name":"Bad Dürkheim","type":"Landkreis"},"federalState":{"key":"07","name":"Rheinland-Pfalz"}},{"name":"Hauptstr.","postalCode":"85664","locality":"Hohenlinden","municipality":{"key":"09175123","name":"Hohenlinden","type":"Kreisangehörige_Gemeinde"},"district":{"key":"09175","name":"Ebersberg","type":"Landkreis"},"federalState":{"key":"09","name":"Bayern"}},{"name":"Hauptstr.","postalCode":"88161","locality":"Lindenberg im Allgäu","municipality":{"key":"09776117","name":"Lindenberg i.Allgäu, St","type":"Stadt"},"district":{"key":"09776","name":"Lindau (Bodensee)","type":"Landkreis"},"federalState":{"key":"09","name":"Bayern"}},{"name":"Haydnstr.","postalCode":"35440","locality":"Linden","municipality":{"key":"06531012","name":"Linden, Stadt","type":"Stadt"},"district":{"key":"06531","name":"Gießen","type":"Landkreis"},"federalState":{"key":"06","name":"Hessen"}},{"name":"Heckenweg","postalCode":"88161","locality":"Lindenberg im Allgäu","municipality":{"key":"09776117","name":"Lindenberg i.Allgäu, St","type":"Stadt"},"district":{"key":"09776","name":"Lindau (Bodensee)","type":"Landkreis"},"federalState":{"key":"09","name":"Bayern"}},{"name":"Hedwigshof","postalCode":"15306","locality":"Vierlinden","municipality":{"key":"12064482","name":"Vierlinden","type":"Kreisangehörige_Gemeinde"},"district":{"key":"12064","name":"Märkisch-Oderland","type":"Landkreis"},"federalState":{"key":"12","name":"Brandenburg"}},{"name":"Heeggraben","postalCode":"35440","locality":"Linden","municipality":{"key":"06531012","name":"Linden, Stadt","type":"Stadt"},"district":{"key":"06531","name":"Gießen","type":"Landkreis"},"federalState":{"key":"06","name":"Hessen"}},{"name":"Heergasse","postalCode":"35440","locality":"Linden","municipality":{"key":"06531012","name":"Linden, Stadt","type":"Stadt"},"district":{"key":"06531","name":"Gießen","type":"Landkreis"},"federalState":{"key":"06","name":"Hessen"}},{"name":"Heinrich-Brauns-Str.","postalCode":"88161","locality":"Lindenberg im Allgäu","municipality":{"key":"09776117","name":"Lindenberg i.Allgäu, St","type":"Stadt"},"district":{"key":"09776","name":"Lindau (Bodensee)","type":"Landkreis"},"federalState":{"key":"09","name":"Bayern"}},{"name":"Heinrich-Heine-Str.","postalCode":"35440","locality":"Linden","municipality":{"key":"06531012","name":"Linden, Stadt","type":"Stadt"},"district":{"key":"06531","name":"Gießen","type":"Landkreis"},"federalState":{"key":"06","name":"Hessen"}},{"name":"Hennstedter Weg","postalCode":"25791","locality":"Linden","municipality":{"key":"01051068","name":"Linden","type":"Kreisangehörige_Gemeinde"},"district":{"key":"01051","name":"Dithmarschen","type":"Kreis"},"federalState":{"key":"01","name":"Schleswig-Holstein"}},{"name":"Herderstr.","postalCode":"35440","locality":"Linden","municipality":{"key":"06531012","name":"Linden, Stadt","type":"Stadt"},"district":{"key":"06531","name":"Gießen","type":"Landkreis"},"federalState":{"key":"06","name":"Hessen"}},{"name":"Hermesdorfer Str.","postalCode":"35440","locality":"Linden","municipality":{"key":"06531012","name":"Linden, Stadt","type":"Stadt"},"district":{"key":"06531","name":"Gießen","type":"Landkreis"},"federalState":{"key":"06","name":"Hessen"}},{"name":"Hintere Weiherstr.","postalCode":"66851","locality":"Linden","municipality":{"key":"07335023","name":"Linden","type":"Kreisangehörige_Gemeinde"},"district":{"key":"07335","name":"Kaiserslautern","type":"Landkreis"},"federalState":{"key":"07","name":"Rheinland-Pfalz"}},{"name":"Hinterstr.","postalCode":"15306","locality":"Lindendorf","municipality":{"key":"12064290","name":"Lindendorf","type":"Kreisangehörige_Gemeinde"},"district":{"key":"12064","name":"Märkisch-Oderland","type":"Landkreis"},"federalState":{"key":"12","name":"Brandenburg"}},{"name":"Hirschauer-Geräumt","postalCode":"85664","locality":"Hohenlinden","municipality":{"key":"09175123","name":"Hohenlinden","type":"Kreisangehörige_Gemeinde"},"district":{"key":"09175","name":"Ebersberg","type":"Landkreis"},"federalState":{"key":"09","name":"Bayern"}},{"name":"Hirschbergstr.","postalCode":"88161","locality":"Lindenberg im Allgäu","municipality":{"key":"09776117","name":"Lindenberg i.Allgäu, St","type":"Stadt"},"district":{"key":"09776","name":"Lindau (Bodensee)","type":"Landkreis"},"federalState":{"key":"09","name":"Bayern"}},{"name":"Hirschstr.","postalCode":"88161","locality":"Lindenberg im Allgäu","municipality":{"key":"09776117","name":"Lindenberg i.Allgäu, St","type":"Stadt"},"district":{"key":"09776","name":"Lindau (Bodensee)","type":"Landkreis"},"federalState":{"key":"09","name":"Bayern"}},{"name":"Hirtenstr.","postalCode":"66851","locality":"Linden","municipality":{"key":"07335023","name":"Linden","type":"Kreisangehörige_Gemeinde"},"district":{"key":"07335","name":"Kaiserslautern","type":"Landkreis"},"federalState":{"key":"07","name":"Rheinland-Pfalz"}},{"name":"Hochgratstr.","postalCode":"88161","locality":"Lindenberg im Allgäu","municipality":{"key":"09776117","name":"Lindenberg i.Allgäu, St","type":"Stadt"},"district":{"key":"09776","name":"Lindau (Bodensee)","type":"Landkreis"},"federalState":{"key":"09","name":"Bayern"}},{"name":"Hof Konrad","postalCode":"35440","locality":"Linden","municipality":{"key":"06531012","name":"Linden, Stadt","type":"Stadt"},"district":{"key":"06531","name":"Gießen","type":"Landkreis"},"federalState":{"key":"06","name":"Hessen"}},{"name":"Hofwiese","postalCode":"64678","locality":"Lindenfels","municipality":{"key":"06431015","name":"Lindenfels, Stadt","type":"Stadt"},"district":{"key":"06431","name":"Bergstraße","type":"Landkreis"},"federalState":{"key":"06","name":"Hessen"}},{"name":"Hohensteinstr.","postalCode":"64678","locality":"Lindenfels","municipality":{"key":"06431015","name":"Lindenfels, Stadt","type":"Stadt"},"district":{"key":"06431","name":"Bergstraße","type":"Landkreis"},"federalState":{"key":"06","name":"Hessen"}},{"name":"Höhenstr.","postalCode":"64678","locality":"Lindenfels","municipality":{"key":"06431015","name":"Lindenfels, Stadt","type":"Stadt"},"district":{"key":"06431","name":"Bergstraße","type":"Landkreis"},"federalState":{"key":"06","name":"Hessen"}},{"name":"Hölderlinstr.","postalCode":"35440","locality":"Linden","municipality":{"key":"06531012","name":"Linden, Stadt","type":"Stadt"},"district":{"key":"06531","name":"Gießen","type":"Landkreis"},"federalState":{"key":"06","name":"Hessen"}},{"name":"Holtweg","postalCode":"25791","locality":"Linden","municipality":{"key":"01051068","name":"Linden","type":"Kreisangehörige_Gemeinde"},"district":{"key":"01051","name":"Dithmarschen","type":"Kreis"},"federalState":{"key":"01","name":"Schleswig-Holstein"}},{"name":"Holzstr.","postalCode":"88161","locality":"Lindenberg im Allgäu","municipality":{"key":"09776117","name":"Lindenberg i.Allgäu, St","type":"Stadt"},"district":{"key":"09776","name":"Lindau (Bodensee)","type":"Landkreis"},"federalState":{"key":"09","name":"Bayern"}},{"name":"Hörnsheimer Pfad","postalCode":"35440","locality":"Linden","municipality":{"key":"06531012","name":"Linden, Stadt","type":"Stadt"},"district":{"key":"06531","name":"Gießen","type":"Landkreis"},"federalState":{"key":"06","name":"Hessen"}},{"name":"Imbergweg","postalCode":"88161","locality":"Lindenberg im Allgäu","municipality":{"key":"09776117","name":"Lindenberg i.Allgäu, St","type":"Stadt"},"district":{"key":"09776","name":"Lindau (Bodensee)","type":"Landkreis"},"federalState":{"key":"09","name":"Bayern"}},{"name":"Im Boden","postalCode":"35440","locality":"Linden","municipality":{"key":"06531012","name":"Linden, Stadt","type":"Stadt"},"district":{"key":"06531","name":"Gießen","type":"Landkreis"},"federalState":{"key":"06","name":"Hessen"}},{"name":"Im Erlengrund","postalCode":"64678","locality":"Lindenfels","municipality":{"key":"06431015","name":"Lindenfels, Stadt","type":"Stadt"},"district":{"key":"06431","name":"Bergstraße","type":"Landkreis"},"federalState":{"key":"06","name":"Hessen"}},{"name":"Im Friedhag","postalCode":"88161","locality":"Lindenberg im Allgäu","municipality":{"key":"09776117","name":"Lindenberg i.Allgäu, St","type":"Stadt"},"district":{"key":"09776","name":"Lindau (Bodensee)","type":"Landkreis"},"federalState":{"key":"09","name":"Bayern"}},{"name":"Im Großfeld","postalCode":"64678","locality":"Lindenfels","municipality":{"key":"06431015","name":"Lindenfels, Stadt","type":"Stadt"},"district":{"key":"06431","name":"Bergstraße","type":"Landkreis"},"federalState":{"key":"06","name":"Hessen"}},{"name":"Im Niederfeld","postalCode":"35440","locality":"Linden","municipality":{"key":"06531012","name":"Linden, Stadt","type":"Stadt"},"district":{"key":"06531","name":"Gießen","type":"Landkreis"},"federalState":{"key":"06","name":"Hessen"}},{"name":"Im Nomesfeld","postalCode":"55481","locality":"Lindenschied","municipality":{"key":"07140086","name":"Lindenschied","type":"Kreisangehörige_Gemeinde"},"district":{"key":"07140","name":"Rhein-Hunsrück-Kreis","type":"Landkreis"},"federalState":{"key":"07","name":"Rheinland-Pfalz"}},{"name":"Im Ort","postalCode":"64678","locality":"Lindenfels","municipality":{"key":"06431015","name":"Lindenfels, Stadt","type":"Stadt"},"district":{"key":"06431","name":"Bergstraße","type":"Landkreis"},"federalState":{"key":"06","name":"Hessen"}},{"name":"Im Schmidtfeld","postalCode":"64678","locality":"Lindenfels","municipality":{"key":"06431015","name":"Lindenfels, Stadt","type":"Stadt"},"district":{"key":"06431","name":"Bergstraße","type":"Landkreis"},"federalState":{"key":"06","name":"Hessen"}},{"name":"Im Sommerkornroth","postalCode":"64678","locality":"Lindenfels","municipality":{"key":"06431015","name":"Lindenfels, Stadt","type":"Stadt"},"district":{"key":"06431","name":"Bergstraße","type":"Landkreis"},"federalState":{"key":"06","name":"Hessen"}},{"name":"Im Steinborn","postalCode":"55481","locality":"Lindenschied","municipality":{"key":"07140086","name":"Lindenschied","type":"Kreisangehörige_Gemeinde"},"district":{"key":"07140","name":"Rhein-Hunsrück-Kreis","type":"Landkreis"},"federalState":{"key":"07","name":"Rheinland-Pfalz"}},{"name":"Im Steingels","postalCode":"64678","locality":"Lindenfels","municipality":{"key":"06431015","name":"Lindenfels, Stadt","type":"Stadt"},"district":{"key":"06431","name":"Bergstraße","type":"Landkreis"},"federalState":{"key":"06","name":"Hessen"}},{"name":"In der Au","postalCode":"55481","locality":"Lindenschied","municipality":{"key":"07140086","name":"Lindenschied","type":"Kreisangehörige_Gemeinde"},"district":{"key":"07140","name":"Rhein-Hunsrück-Kreis","type":"Landkreis"},"federalState":{"key":"07","name":"Rheinland-Pfalz"}},{"name":"In der Bain","postalCode":"64678","locality":"Lindenfels","municipality":{"key":"06431015","name":"Lindenfels, Stadt","type":"Stadt"},"district":{"key":"06431","name":"Bergstraße","type":"Landkreis"},"federalState":{"key":"06","name":"Hessen"}},{"name":"In der Dell","postalCode":"55777","locality":"Fohren-Linden","municipality":{"key":"07134026","name":"Fohren-Linden","type":"Kreisangehörige_Gemeinde"},"district":{"key":"07134","name":"Birkenfeld","type":"Landkreis"},"federalState":{"key":"07","name":"Rheinland-Pfalz"}},{"name":"In der Hohl","postalCode":"64678","locality":"Lindenfels","municipality":{"key":"06431015","name":"Lindenfels, Stadt","type":"Stadt"},"district":{"key":"06431","name":"Bergstraße","type":"Landkreis"},"federalState":{"key":"06","name":"Hessen"}},{"name":"In der Imsbach","postalCode":"35440","locality":"Linden","municipality":{"key":"06531012","name":"Linden, Stadt","type":"Stadt"},"district":{"key":"06531","name":"Gießen","type":"Landkreis"},"federalState":{"key":"06","name":"Hessen"}},{"name":"In der Mauerwies","postalCode":"55777","locality":"Fohren-Linden","municipality":{"key":"07134026","name":"Fohren-Linden","type":"Kreisangehörige_Gemeinde"},"district":{"key":"07134","name":"Birkenfeld","type":"Landkreis"},"federalState":{"key":"07","name":"Rheinland-Pfalz"}},{"name":"In der Stadt","postalCode":"64678","locality":"Lindenfels","municipality":{"key":"06431015","name":"Lindenfels, Stadt","type":"Stadt"},"district":{"key":"06431","name":"Bergstraße","type":"Landkreis"},"federalState":{"key":"06","name":"Hessen"}},{"name":"Industrieweg","postalCode":"25791","locality":"Linden","municipality":{"key":"01051068","name":"Linden","type":"Kreisangehörige_Gemeinde"},"district":{"key":"01051","name":"Dithmarschen","type":"Kreis"},"federalState":{"key":"01","name":"Schleswig-Holstein"}},{"name":"Isener Str.","postalCode":"85664","locality":"Hohenlinden","municipality":{"key":"09175123","name":"Hohenlinden","type":"Kreisangehörige_Gemeinde"},"district":{"key":"09175","name":"Ebersberg","type":"Landkreis"},"federalState":{"key":"09","name":"Bayern"}},{"name":"Jägerschneise","postalCode":"35440","locality":"Linden","municipality":{"key":"06531012","name":"Linden, Stadt","type":"Stadt"},"district":{"key":"06531","name":"Gießen","type":"Landkreis"},"federalState":{"key":"06","name":"Hessen"}},{"name":"Jägersgarten","postalCode":"64678","locality":"Lindenfels","municipality":{"key":"06431015","name":"Lindenfels, Stadt","type":"Stadt"},"district":{"key":"06431","name":"Bergstraße","type":"Landkreis"},"federalState":{"key":"06","name":"Hessen"}},{"name":"Jägerstr.","postalCode":"88161","locality":"Lindenberg im Allgäu","municipality":{"key":"09776117","name":"Lindenberg i.Allgäu, St","type":"Stadt"},"district":{"key":"09776","name":"Lindau (Bodensee)","type":"Landkreis"},"federalState":{"key":"09","name":"Bayern"}},{"name":"Jahnsfelder Weg","postalCode":"15306","locality":"Vierlinden","municipality":{"key":"12064482","name":"Vierlinden","type":"Kreisangehörige_Gemeinde"},"district":{"key":"12064","name":"Märkisch-Oderland","type":"Landkreis"},"federalState":{"key":"12","name":"Brandenburg"}},{"name":"Jahnstr.","postalCode":"35440","locality":"Linden","municipality":{"key":"06531012","name":"Linden, Stadt","type":"Stadt"},"district":{"key":"06531","name":"Gießen","type":"Landkreis"},"federalState":{"key":"06","name":"Hessen"}},{"name":"Jenaer Str.","postalCode":"35440","locality":"Linden","municipality":{"key":"06531012","name":"Linden, Stadt","type":"Stadt"},"district":{"key":"06531","name":"Gießen","type":"Landkreis"},"federalState":{"key":"06","name":"Hessen"}},{"name":"Johannes-Heß-Str.","postalCode":"35440","locality":"Linden","municipality":{"key":"06531012","name":"Linden, Stadt","type":"Stadt"},"district":{"key":"06531","name":"Gießen","type":"Landkreis"},"federalState":{"key":"06","name":"Hessen"}},{"name":"Johannes-Leun-Str.","postalCode":"35440","locality":"Linden","municipality":{"key":"06531012","name":"Linden, Stadt","type":"Stadt"},"district":{"key":"06531","name":"Gießen","type":"Landkreis"},"federalState":{"key":"06","name":"Hessen"}},{"name":"Joppenholzstr.","postalCode":"67473","locality":"Lindenberg","municipality":{"key":"07332034","name":"Lindenberg","type":"Kreisangehörige_Gemeinde"},"district":{"key":"07332","name":"Bad Dürkheim","type":"Landkreis"},"federalState":{"key":"07","name":"Rheinland-Pfalz"}},{"name":"Josef-Katterloher-Ring","postalCode":"85664","locality":"Hohenlinden","municipality":{"key":"09175123","name":"Hohenlinden","type":"Kreisangehörige_Gemeinde"},"district":{"key":"09175","name":"Ebersberg","type":"Landkreis"},"federalState":{"key":"09","name":"Bayern"}},{"name":"Josef-Maurer-Str.","postalCode":"85664","locality":"Hohenlinden","municipality":{"key":"09175123","name":"Hohenlinden","type":"Kreisangehörige_Gemeinde"},"district":{"key":"09175","name":"Ebersberg","type":"Landkreis"},"federalState":{"key":"09","name":"Bayern"}},{"name":"Josef-Neumeier-Str.","postalCode":"85664","locality":"Hohenlinden","municipality":{"key":"09175123","name":"Hohenlinden","type":"Kreisangehörige_Gemeinde"},"district":{"key":"09175","name":"Ebersberg","type":"Landkreis"},"federalState":{"key":"09","name":"Bayern"}},{"name":"Josef-Reich-Str.","postalCode":"88161","locality":"Lindenberg im Allgäu","municipality":{"key":"09776117","name":"Lindenberg i.Allgäu, St","type":"Stadt"},"district":{"key":"09776","name":"Lindau (Bodensee)","type":"Landkreis"},"federalState":{"key":"09","name":"Bayern"}},{"name":"Jugendpfad","postalCode":"64678","locality":"Lindenfels","municipality":{"key":"06431015","name":"Lindenfels, Stadt","type":"Stadt"},"district":{"key":"06431","name":"Bergstraße","type":"Landkreis"},"federalState":{"key":"06","name":"Hessen"}},{"name":"Junkergasse","postalCode":"35440","locality":"Linden","municipality":{"key":"06531012","name":"Linden, Stadt","type":"Stadt"},"district":{"key":"06531","name":"Gießen","type":"Landkreis"},"federalState":{"key":"06","name":"Hessen"}},{"name":"Kaffenbergstr.","postalCode":"64678","locality":"Lindenfels","municipality":{"key":"06431015","name":"Lindenfels, Stadt","type":"Stadt"},"district":{"key":"06431","name":"Bergstraße","type":"Landkreis"},"federalState":{"key":"06","name":"Hessen"}},{"name":"Kamsbachweg","postalCode":"64678","locality":"Lindenfels","municipality":{"key":"06431015","name":"Lindenfels, Stadt","type":"Stadt"},"district":{"key":"06431","name":"Bergstraße","type":"Landkreis"},"federalState":{"key":"06","name":"Hessen"}},{"name":"Kantstr.","postalCode":"35440","locality":"Linden","municipality":{"key":"06531012","name":"Linden, Stadt","type":"Stadt"},"district":{"key":"06531","name":"Gießen","type":"Landkreis"},"federalState":{"key":"06","name":"Hessen"}},{"name":"Kanzleiweg","postalCode":"85664","locality":"Hohenlinden","municipality":{"key":"09175123","name":"Hohenlinden","type":"Kreisangehörige_Gemeinde"},"district":{"key":"09175","name":"Ebersberg","type":"Landkreis"},"federalState":{"key":"09","name":"Bayern"}},{"name":"Kapellenweg","postalCode":"64678","locality":"Lindenfels","municipality":{"key":"06431015","name":"Lindenfels, Stadt","type":"Stadt"},"district":{"key":"06431","name":"Bergstraße","type":"Landkreis"},"federalState":{"key":"06","name":"Hessen"}},{"name":"Kapellenweg","postalCode":"85664","locality":"Hohenlinden","municipality":{"key":"09175123","name":"Hohenlinden","type":"Kreisangehörige_Gemeinde"},"district":{"key":"09175","name":"Ebersberg","type":"Landkreis"},"federalState":{"key":"09","name":"Bayern"}},{"name":"Kappstr.","postalCode":"64678","locality":"Lindenfels","municipality":{"key":"06431015","name":"Lindenfels, Stadt","type":"Stadt"},"district":{"key":"06431","name":"Bergstraße","type":"Landkreis"},"federalState":{"key":"06","name":"Hessen"}},{"name":"Karl-Aßfalg-Str.","postalCode":"88161","locality":"Lindenberg im Allgäu","municipality":{"key":"09776117","name":"Lindenberg i.Allgäu, St","type":"Stadt"},"district":{"key":"09776","name":"Lindau (Bodensee)","type":"Landkreis"},"federalState":{"key":"09","name":"Bayern"}},{"name":"Karlstr.","postalCode":"67473","locality":"Lindenberg","municipality":{"key":"07332034","name":"Lindenberg","type":"Kreisangehörige_Gemeinde"},"district":{"key":"07332","name":"Bad Dürkheim","type":"Landkreis"},"federalState":{"key":"07","name":"Rheinland-Pfalz"}},{"name":"Kastanienallee","postalCode":"15306","locality":"Vierlinden","municipality":{"key":"12064482","name":"Vierlinden","type":"Kreisangehörige_Gemeinde"},"district":{"key":"12064","name":"Märkisch-Oderland","type":"Landkreis"},"federalState":{"key":"12","name":"Brandenburg"}},{"name":"Kastanienweg","postalCode":"85664","locality":"Hohenlinden","municipality":{"key":"09175123","name":"Hohenlinden","type":"Kreisangehörige_Gemeinde"},"district":{"key":"09175","name":"Ebersberg","type":"Landkreis"},"federalState":{"key":"09","name":"Bayern"}},{"name":"Kellershub","postalCode":"88161","locality":"Lindenberg im Allgäu","municipality":{"key":"09776117","name":"Lindenberg i.Allgäu, St","type":"Stadt"},"district":{"key":"09776","name":"Lindau (Bodensee)","type":"Landkreis"},"federalState":{"key":"09","name":"Bayern"}},{"name":"Kettenplatz","postalCode":"35440","locality":"Linden","municipality":{"key":"06531012","name":"Linden, Stadt","type":"Stadt"},"district":{"key":"06531","name":"Gießen","type":"Landkreis"},"federalState":{"key":"06","name":"Hessen"}},{"name":"Kieferstädteler Str.","postalCode":"35440","locality":"Linden","municipality":{"key":"06531012","name":"Linden, Stadt","type":"Stadt"},"district":{"key":"06531","name":"Gießen","type":"Landkreis"},"federalState":{"key":"06","name":"Hessen"}},{"name":"Kirchberger Weg","postalCode":"55481","locality":"Lindenschied","municipality":{"key":"07140086","name":"Lindenschied","type":"Kreisangehörige_Gemeinde"},"district":{"key":"07140","name":"Rhein-Hunsrück-Kreis","type":"Landkreis"},"federalState":{"key":"07","name":"Rheinland-Pfalz"}},{"name":"Kirchenweg","postalCode":"85664","locality":"Hohenlinden","municipality":{"key":"09175123","name":"Hohenlinden","type":"Kreisangehörige_Gemeinde"},"district":{"key":"09175","name":"Ebersberg","type":"Landkreis"},"federalState":{"key":"09","name":"Bayern"}},{"name":"Kirchstr.","postalCode":"35440","locality":"Linden","municipality":{"key":"06531012","name":"Linden, Stadt","type":"Stadt"},"district":{"key":"06531","name":"Gießen","type":"Landkreis"},"federalState":{"key":"06","name":"Hessen"}},{"name":"Kirchstr.","postalCode":"64678","locality":"Lindenfels","municipality":{"key":"06431015","name":"Lindenfels, Stadt","type":"Stadt"},"district":{"key":"06431","name":"Bergstraße","type":"Landkreis"},"federalState":{"key":"06","name":"Hessen"}},{"name":"Kirschenweg","postalCode":"64678","locality":"Lindenfels","municipality":{"key":"06431015","name":"Lindenfels, Stadt","type":"Stadt"},"district":{"key":"06431","name":"Bergstraße","type":"Landkreis"},"federalState":{"key":"06","name":"Hessen"}},{"name":"Klausegasse","postalCode":"35440","locality":"Linden","municipality":{"key":"06531012","name":"Linden, Stadt","type":"Stadt"},"district":{"key":"06531","name":"Gießen","type":"Landkreis"},"federalState":{"key":"06","name":"Hessen"}},{"name":"Kleiner Ring","postalCode":"35440","locality":"Linden","municipality":{"key":"06531012","name":"Linden, Stadt","type":"Stadt"},"district":{"key":"06531","name":"Gießen","type":"Landkreis"},"federalState":{"key":"06","name":"Hessen"}},{"name":"Kleine Str.","postalCode":"16818","locality":"Märkisch Linden","municipality":{"key":"12068306","name":"Märkisch Linden","type":"Kreisangehörige_Gemeinde"},"district":{"key":"12068","name":"Ostprignitz-Ruppin","type":"Landkreis"},"federalState":{"key":"12","name":"Brandenburg"}},{"name":"Knodener Str.","postalCode":"64678","locality":"Lindenfels","municipality":{"key":"06431015","name":"Lindenfels, Stadt","type":"Stadt"},"district":{"key":"06431","name":"Bergstraße","type":"Landkreis"},"federalState":{"key":"06","name":"Hessen"}},{"name":"Kohlstattweg","postalCode":"88161","locality":"Lindenberg im Allgäu","municipality":{"key":"09776117","name":"Lindenberg i.Allgäu, St","type":"Stadt"},"district":{"key":"09776","name":"Lindau (Bodensee)","type":"Landkreis"},"federalState":{"key":"09","name":"Bayern"}},{"name":"Konrad-Adenauer-Str.","postalCode":"35440","locality":"Linden","municipality":{"key":"06531012","name":"Linden, Stadt","type":"Stadt"},"district":{"key":"06531","name":"Gießen","type":"Landkreis"},"federalState":{"key":"06","name":"Hessen"}},{"name":"Konrad-Zuse-Str.","postalCode":"35440","locality":"Linden","municipality":{"key":"06531012","name":"Linden, Stadt","type":"Stadt"},"district":{"key":"06531","name":"Gießen","type":"Landkreis"},"federalState":{"key":"06","name":"Hessen"}},{"name":"Kränzliner Bahnhofstr.","postalCode":"16818","locality":"Märkisch Linden","municipality":{"key":"12068306","name":"Märkisch Linden","type":"Kreisangehörige_Gemeinde"},"district":{"key":"12068","name":"Ostprignitz-Ruppin","type":"Landkreis"},"federalState":{"key":"12","name":"Brandenburg"}},{"name":"Kränzliner Weg","postalCode":"16818","locality":"Märkisch Linden","municipality":{"key":"12068306","name":"Märkisch Linden","type":"Kreisangehörige_Gemeinde"},"district":{"key":"12068","name":"Ostprignitz-Ruppin","type":"Landkreis"},"federalState":{"key":"12","name":"Brandenburg"}},{"name":"Krehbergstr.","postalCode":"64678","locality":"Lindenfels","municipality":{"key":"06431015","name":"Lindenfels, Stadt","type":"Stadt"},"district":{"key":"06431","name":"Bergstraße","type":"Landkreis"},"federalState":{"key":"06","name":"Hessen"}},{"name":"Kreith","postalCode":"85664","locality":"Hohenlinden","municipality":{"key":"09175123","name":"Hohenlinden","type":"Kreisangehörige_Gemeinde"},"district":{"key":"09175","name":"Ebersberg","type":"Landkreis"},"federalState":{"key":"09","name":"Bayern"}},{"name":"Kreuzdelle","postalCode":"66851","locality":"Linden","municipality":{"key":"07335023","name":"Linden","type":"Kreisangehörige_Gemeinde"},"district":{"key":"07335","name":"Kaiserslautern","type":"Landkreis"},"federalState":{"key":"07","name":"Rheinland-Pfalz"}},{"name":"Kreuzgartenstr.","postalCode":"64678","locality":"Lindenfels","municipality":{"key":"06431015","name":"Lindenfels, Stadt","type":"Stadt"},"district":{"key":"06431","name":"Bergstraße","type":"Landkreis"},"federalState":{"key":"06","name":"Hessen"}},{"name":"Kreuzgasse","postalCode":"35440","locality":"Linden","municipality":{"key":"06531012","name":"Linden, Stadt","type":"Stadt"},"district":{"key":"06531","name":"Gießen","type":"Landkreis"},"federalState":{"key":"06","name":"Hessen"}},{"name":"Kreuzhofstr.","postalCode":"88161","locality":"Lindenberg im Allgäu","municipality":{"key":"09776117","name":"Lindenberg i.Allgäu, St","type":"Stadt"},"district":{"key":"09776","name":"Lindau (Bodensee)","type":"Landkreis"},"federalState":{"key":"09","name":"Bayern"}},{"name":"Kreuzstr.","postalCode":"85664","locality":"Hohenlinden","municipality":{"key":"09175123","name":"Hohenlinden","type":"Kreisangehörige_Gemeinde"},"district":{"key":"09175","name":"Ebersberg","type":"Landkreis"},"federalState":{"key":"09","name":"Bayern"}},{"name":"Krickenbacher Str.","postalCode":"66851","locality":"Linden","municipality":{"key":"07335023","name":"Linden","type":"Kreisangehörige_Gemeinde"},"district":{"key":"07335","name":"Kaiserslautern","type":"Landkreis"},"federalState":{"key":"07","name":"Rheinland-Pfalz"}},{"name":"Kriegergäßchen","postalCode":"35440","locality":"Linden","municipality":{"key":"06531012","name":"Linden, Stadt","type":"Stadt"},"district":{"key":"06531","name":"Gießen","type":"Landkreis"},"federalState":{"key":"06","name":"Hessen"}},{"name":"Kronacker","postalCode":"85664","locality":"Hohenlinden","municipality":{"key":"09175123","name":"Hohenlinden","type":"Kreisangehörige_Gemeinde"},"district":{"key":"09175","name":"Ebersberg","type":"Landkreis"},"federalState":{"key":"09","name":"Bayern"}},{"name":"Kronacker Weg","postalCode":"85664","locality":"Hohenlinden","municipality":{"key":"09175123","name":"Hohenlinden","type":"Kreisangehörige_Gemeinde"},"district":{"key":"09175","name":"Ebersberg","type":"Landkreis"},"federalState":{"key":"09","name":"Bayern"}},{"name":"Kronenstr.","postalCode":"88161","locality":"Lindenberg im Allgäu","municipality":{"key":"09776117","name":"Lindenberg i.Allgäu, St","type":"Stadt"},"district":{"key":"09776","name":"Lindau (Bodensee)","type":"Landkreis"},"federalState":{"key":"09","name":"Bayern"}},{"name":"Krusemarkshagen","postalCode":"17111","locality":"Lindenberg","municipality":{"key":"13071089","name":"Lindenberg","type":"Kreisangehörige_Gemeinde"},"district":{"key":"13071","name":"Mecklenburgische Seenplatte","type":"Landkreis"},"federalState":{"key":"13","name":"Mecklenburg-Vorpommern"}},{"name":"Kuckucksweg","postalCode":"35440","locality":"Linden","municipality":{"key":"06531012","name":"Linden, Stadt","type":"Stadt"},"district":{"key":"06531","name":"Gießen","type":"Landkreis"},"federalState":{"key":"06","name":"Hessen"}},{"name":"Kurgarten","postalCode":"64678","locality":"Lindenfels","municipality":{"key":"06431015","name":"Lindenfels, Stadt","type":"Stadt"},"district":{"key":"06431","name":"Bergstraße","type":"Landkreis"},"federalState":{"key":"06","name":"Hessen"}},{"name":"Kurt-Schumacher-Str.","postalCode":"35440","locality":"Linden","municipality":{"key":"06531012","name":"Linden, Stadt","type":"Stadt"},"district":{"key":"06531","name":"Gießen","type":"Landkreis"},"federalState":{"key":"06","name":"Hessen"}},{"name":"Kurzer Weg","postalCode":"64678","locality":"Lindenfels","municipality":{"key":"06431015","name":"Lindenfels, Stadt","type":"Stadt"},"district":{"key":"06431","name":"Bergstraße","type":"Landkreis"},"federalState":{"key":"06","name":"Hessen"}},{"name":"Lagerhausstr.","postalCode":"85664","locality":"Hohenlinden","municipality":{"key":"09175123","name":"Hohenlinden","type":"Kreisangehörige_Gemeinde"},"district":{"key":"09175","name":"Ebersberg","type":"Landkreis"},"federalState":{"key":"09","name":"Bayern"}},{"name":"Lambrechter Str.","postalCode":"67473","locality":"Lindenberg","municipality":{"key":"07332034","name":"Lindenberg","type":"Kreisangehörige_Gemeinde"},"district":{"key":"07332","name":"Bad Dürkheim","type":"Landkreis"},"federalState":{"key":"07","name":"Rheinland-Pfalz"}},{"name":"Lärchenweg","postalCode":"88161","locality":"Lindenberg im Allgäu","municipality":{"key":"09776117","name":"Lindenberg i.Allgäu, St","type":"Stadt"},"district":{"key":"09776","name":"Lindau (Bodensee)","type":"Landkreis"},"federalState":{"key":"09","name":"Bayern"}},{"name":"Laubachweg","postalCode":"88161","locality":"Lindenberg im Allgäu","municipality":{"key":"09776117","name":"Lindenberg i.Allgäu, St","type":"Stadt"},"district":{"key":"09776","name":"Lindau (Bodensee)","type":"Landkreis"},"federalState":{"key":"09","name":"Bayern"}},{"name":"Laudenauer Weg","postalCode":"64678","locality":"Lindenfels","municipality":{"key":"06431015","name":"Lindenfels, Stadt","type":"Stadt"},"district":{"key":"06431","name":"Bergstraße","type":"Landkreis"},"federalState":{"key":"06","name":"Hessen"}},{"name":"Lauenbühlstr.","postalCode":"88161","locality":"Lindenberg im Allgäu","municipality":{"key":"09776117","name":"Lindenberg i.Allgäu, St","type":"Stadt"},"district":{"key":"09776","name":"Lindau (Bodensee)","type":"Landkreis"},"federalState":{"key":"09","name":"Bayern"}},{"name":"Leihgesterner Str.","postalCode":"35440","locality":"Linden","municipality":{"key":"06531012","name":"Linden, Stadt","type":"Stadt"},"district":{"key":"06531","name":"Gießen","type":"Landkreis"},"federalState":{"key":"06","name":"Hessen"}},{"name":"Leipziger Str.","postalCode":"35440","locality":"Linden","municipality":{"key":"06531012","name":"Linden, Stadt","type":"Stadt"},"district":{"key":"06531","name":"Gießen","type":"Landkreis"},"federalState":{"key":"06","name":"Hessen"}},{"name":"Lessingstr.","postalCode":"35440","locality":"Linden","municipality":{"key":"06531012","name":"Linden, Stadt","type":"Stadt"},"district":{"key":"06531","name":"Gießen","type":"Landkreis"},"federalState":{"key":"06","name":"Hessen"}},{"name":"Liebigstr.","postalCode":"35440","locality":"Linden","municipality":{"key":"06531012","name":"Linden, Stadt","type":"Stadt"},"district":{"key":"06531","name":"Gießen","type":"Landkreis"},"federalState":{"key":"06","name":"Hessen"}},{"name":"Lietzener Weg","postalCode":"15306","locality":"Vierlinden","municipality":{"key":"12064482","name":"Vierlinden","type":"Kreisangehörige_Gemeinde"},"district":{"key":"12064","name":"Märkisch-Oderland","type":"Landkreis"},"federalState":{"key":"12","name":"Brandenburg"}},{"name":"Lindenallee","postalCode":"15306","locality":"Vierlinden","municipality":{"key":"12064482","name":"Vierlinden","type":"Kreisangehörige_Gemeinde"},"district":{"key":"12064","name":"Märkisch-Oderland","type":"Landkreis"},"federalState":{"key":"12","name":"Brandenburg"}},{"name":"Lindener Koog","postalCode":"25791","locality":"Linden","municipality":{"key":"01051068","name":"Linden","type":"Kreisangehörige_Gemeinde"},"district":{"key":"01051","name":"Dithmarschen","type":"Kreis"},"federalState":{"key":"01","name":"Schleswig-Holstein"}},{"name":"Lindenfelser Str.","postalCode":"64678","locality":"Lindenfels","municipality":{"key":"06431015","name":"Lindenfels, Stadt","type":"Stadt"},"district":{"key":"06431","name":"Bergstraße","type":"Landkreis"},"federalState":{"key":"06","name":"Hessen"}},{"name":"Lindenfelser Weg","postalCode":"64678","locality":"Lindenfels","municipality":{"key":"06431015","name":"Lindenfels, Stadt","type":"Stadt"},"district":{"key":"06431","name":"Bergstraße","type":"Landkreis"},"federalState":{"key":"06","name":"Hessen"}},{"name":"Lindenkreuz","postalCode":"07589","locality":"Lindenkreuz","municipality":{"key":"16076044","name":"Lindenkreuz","type":"Kreisangehörige_Gemeinde"},"district":{"key":"16076","name":"Greiz","type":"Landkreis"},"federalState":{"key":"16","name":"Thüringen"}},{"name":"Lindenplatz","postalCode":"64678","locality":"Lindenfels","municipality":{"key":"06431015","name":"Lindenfels, Stadt","type":"Stadt"},"district":{"key":"06431","name":"Bergstraße","type":"Landkreis"},"federalState":{"key":"06","name":"Hessen"}},{"name":"Lindensteg","postalCode":"16818","locality":"Märkisch Linden","municipality":{"key":"12068306","name":"Märkisch Linden","type":"Kreisangehörige_Gemeinde"},"district":{"key":"12068","name":"Ostprignitz-Ruppin","type":"Landkreis"},"federalState":{"key":"12","name":"Brandenburg"}},{"name":"Lindenstr.","postalCode":"15306","locality":"Lindendorf","municipality":{"key":"12064290","name":"Lindendorf","type":"Kreisangehörige_Gemeinde"},"district":{"key":"12064","name":"Märkisch-Oderland","type":"Landkreis"},"federalState":{"key":"12","name":"Brandenburg"}},{"name":"Lindenstr.","postalCode":"16818","locality":"Märkisch Linden","municipality":{"key":"12068306","name":"Märkisch Linden","type":"Kreisangehörige_Gemeinde"},"district":{"key":"12068","name":"Ostprignitz-Ruppin","type":"Landkreis"},"federalState":{"key":"12","name":"Brandenburg"}},{"name":"Lindenstr.","postalCode":"17111","locality":"Lindenberg","municipality":{"key":"13071089","name":"Lindenberg","type":"Kreisangehörige_Gemeinde"},"district":{"key":"13071","name":"Mecklenburgische Seenplatte","type":"Landkreis"},"federalState":{"key":"13","name":"Mecklenburg-Vorpommern"}},{"name":"Lindenstr.","postalCode":"35440","locality":"Linden","municipality":{"key":"06531012","name":"Linden, Stadt","type":"Stadt"},"district":{"key":"06531","name":"Gießen","type":"Landkreis"},"federalState":{"key":"06","name":"Hessen"}},{"name":"Lindenstr.","postalCode":"55777","locality":"Fohren-Linden","municipality":{"key":"07134026","name":"Fohren-Linden","type":"Kreisangehörige_Gemeinde"},"district":{"key":"07134","name":"Birkenfeld","type":"Landkreis"},"federalState":{"key":"07","name":"Rheinland-Pfalz"}},{"name":"Lindenstr.","postalCode":"85664","locality":"Hohenlinden","municipality":{"key":"09175123","name":"Hohenlinden","type":"Kreisangehörige_Gemeinde"},"district":{"key":"09175","name":"Ebersberg","type":"Landkreis"},"federalState":{"key":"09","name":"Bayern"}},{"name":"Lindenweg","postalCode":"16818","locality":"Märkisch Linden","municipality":{"key":"12068306","name":"Märkisch Linden","type":"Kreisangehörige_Gemeinde"},"district":{"key":"12068","name":"Ostprignitz-Ruppin","type":"Landkreis"},"federalState":{"key":"12","name":"Brandenburg"}},{"name":"Löken","postalCode":"25791","locality":"Linden","municipality":{"key":"01051068","name":"Linden","type":"Kreisangehörige_Gemeinde"},"district":{"key":"01051","name":"Dithmarschen","type":"Kreis"},"federalState":{"key":"01","name":"Schleswig-Holstein"}},{"name":"Lorenz-Rädler-Weg","postalCode":"88161","locality":"Lindenberg im Allgäu","municipality":{"key":"09776117","name":"Lindenberg i.Allgäu, St","type":"Stadt"},"district":{"key":"09776","name":"Lindau (Bodensee)","type":"Landkreis"},"federalState":{"key":"09","name":"Bayern"}},{"name":"Lösnitzstr.","postalCode":"15306","locality":"Vierlinden","municipality":{"key":"12064482","name":"Vierlinden","type":"Kreisangehörige_Gemeinde"},"district":{"key":"12064","name":"Märkisch-Oderland","type":"Landkreis"},"federalState":{"key":"12","name":"Brandenburg"}},{"name":"Ludwig-Erhard-Str.","postalCode":"35440","locality":"Linden","municipality":{"key":"06531012","name":"Linden, Stadt","type":"Stadt"},"district":{"key":"06531","name":"Gießen","type":"Landkreis"},"federalState":{"key":"06","name":"Hessen"}},{"name":"Ludwig-Schüßler-Str.","postalCode":"64678","locality":"Lindenfels","municipality":{"key":"06431015","name":"Lindenfels, Stadt","type":"Stadt"},"district":{"key":"06431","name":"Bergstraße","type":"Landkreis"},"federalState":{"key":"06","name":"Hessen"}},{"name":"Ludwigsplatz","postalCode":"35440","locality":"Linden","municipality":{"key":"06531012","name":"Linden, Stadt","type":"Stadt"},"district":{"key":"06531","name":"Gießen","type":"Landkreis"},"federalState":{"key":"06","name":"Hessen"}},{"name":"Ludwigstr.","postalCode":"35440","locality":"Linden","municipality":{"key":"06531012","name":"Linden, Stadt","type":"Stadt"},"district":{"key":"06531","name":"Gießen","type":"Landkreis"},"federalState":{"key":"06","name":"Hessen"}},{"name":"Ludwig-Uhland-Str.","postalCode":"35440","locality":"Linden","municipality":{"key":"06531012","name":"Linden, Stadt","type":"Stadt"},"district":{"key":"06531","name":"Gießen","type":"Landkreis"},"federalState":{"key":"06","name":"Hessen"}},{"name":"Luisenweg","postalCode":"64678","locality":"Lindenfels","municipality":{"key":"06431015","name":"Lindenfels, Stadt","type":"Stadt"},"district":{"key":"06431","name":"Bergstraße","type":"Landkreis"},"federalState":{"key":"06","name":"Hessen"}},{"name":"Lurup","postalCode":"25791","locality":"Linden","municipality":{"key":"01051068","name":"Linden","type":"Kreisangehörige_Gemeinde"},"district":{"key":"01051","name":"Dithmarschen","type":"Kreis"},"federalState":{"key":"01","name":"Schleswig-Holstein"}},{"name":"Lützellindener Str.","postalCode":"35440","locality":"Linden","municipality":{"key":"06531012","name":"Linden, Stadt","type":"Stadt"},"district":{"key":"06531","name":"Gießen","type":"Landkreis"},"federalState":{"key":"06","name":"Hessen"}},{"name":"Macherenstr.","postalCode":"35440","locality":"Linden","municipality":{"key":"06531012","name":"Linden, Stadt","type":"Stadt"},"district":{"key":"06531","name":"Gießen","type":"Landkreis"},"federalState":{"key":"06","name":"Hessen"}},{"name":"Magdeburger Str.","postalCode":"35440","locality":"Linden","municipality":{"key":"06531012","name":"Linden, Stadt","type":"Stadt"},"district":{"key":"06531","name":"Gießen","type":"Landkreis"},"federalState":{"key":"06","name":"Hessen"}},{"name":"Mahrweg","postalCode":"35440","locality":"Linden","municipality":{"key":"06531012","name":"Linden, Stadt","type":"Stadt"},"district":{"key":"06531","name":"Gießen","type":"Landkreis"},"federalState":{"key":"06","name":"Hessen"}},{"name":"Mallnower Str.","postalCode":"15306","locality":"Lindendorf","municipality":{"key":"12064290","name":"Lindendorf","type":"Kreisangehörige_Gemeinde"},"district":{"key":"12064","name":"Märkisch-Oderland","type":"Landkreis"},"federalState":{"key":"12","name":"Brandenburg"}},{"name":"Manzen","postalCode":"88161","locality":"Lindenberg im Allgäu","municipality":{"key":"09776117","name":"Lindenberg i.Allgäu, St","type":"Stadt"},"district":{"key":"09776","name":"Lindau (Bodensee)","type":"Landkreis"},"federalState":{"key":"09","name":"Bayern"}},{"name":"Marktstr.","postalCode":"88161","locality":"Lindenberg im Allgäu","municipality":{"key":"09776117","name":"Lindenberg i.Allgäu, St","type":"Stadt"},"district":{"key":"09776","name":"Lindau (Bodensee)","type":"Landkreis"},"federalState":{"key":"09","name":"Bayern"}},{"name":"Martinstr.","postalCode":"88161","locality":"Lindenberg im Allgäu","municipality":{"key":"09776117","name":"Lindenberg i.Allgäu, St","type":"Stadt"},"district":{"key":"09776","name":"Lindau (Bodensee)","type":"Landkreis"},"federalState":{"key":"09","name":"Bayern"}},{"name":"Mauerweg","postalCode":"67473","locality":"Lindenberg","municipality":{"key":"07332034","name":"Lindenberg","type":"Kreisangehörige_Gemeinde"},"district":{"key":"07332","name":"Bad Dürkheim","type":"Landkreis"},"federalState":{"key":"07","name":"Rheinland-Pfalz"}},{"name":"Max-Eyth-Weg","postalCode":"35440","locality":"Linden","municipality":{"key":"06531012","name":"Linden, Stadt","type":"Stadt"},"district":{"key":"06531","name":"Gießen","type":"Landkreis"},"federalState":{"key":"06","name":"Hessen"}},{"name":"Maxim-Gorki-Str.","postalCode":"15306","locality":"Lindendorf","municipality":{"key":"12064290","name":"Lindendorf","type":"Kreisangehörige_Gemeinde"},"district":{"key":"12064","name":"Märkisch-Oderland","type":"Landkreis"},"federalState":{"key":"12","name":"Brandenburg"}},{"name":"Maximilian-Bentele-Str.","postalCode":"88161","locality":"Lindenberg im Allgäu","municipality":{"key":"09776117","name":"Lindenberg i.Allgäu, St","type":"Stadt"},"district":{"key":"09776","name":"Lindau (Bodensee)","type":"Landkreis"},"federalState":{"key":"09","name":"Bayern"}},{"name":"Mittelgasse","postalCode":"64678","locality":"Lindenfels","municipality":{"key":"06431015","name":"Lindenfels, Stadt","type":"Stadt"},"district":{"key":"06431","name":"Bergstraße","type":"Landkreis"},"federalState":{"key":"06","name":"Hessen"}},{"name":"Mittelweg","postalCode":"35440","locality":"Linden","municipality":{"key":"06531012","name":"Linden, Stadt","type":"Stadt"},"district":{"key":"06531","name":"Gießen","type":"Landkreis"},"federalState":{"key":"06","name":"Hessen"}},{"name":"Moltkestr.","postalCode":"35440","locality":"Linden","municipality":{"key":"06531012","name":"Linden, Stadt","type":"Stadt"},"district":{"key":"06531","name":"Gießen","type":"Landkreis"},"federalState":{"key":"06","name":"Hessen"}},{"name":"Mozartstr.","postalCode":"35440","locality":"Linden","municipality":{"key":"06531012","name":"Linden, Stadt","type":"Stadt"},"district":{"key":"06531","name":"Gießen","type":"Landkreis"},"federalState":{"key":"06","name":"Hessen"}},{"name":"Mühlenstr.","postalCode":"85664","locality":"Hohenlinden","municipality":{"key":"09175123","name":"Hohenlinden","type":"Kreisangehörige_Gemeinde"},"district":{"key":"09175","name":"Ebersberg","type":"Landkreis"},"federalState":{"key":"09","name":"Bayern"}},{"name":"Mühlenweg","postalCode":"57629","locality":"Linden","municipality":{"key":"07143258","name":"Linden","type":"Kreisangehörige_Gemeinde"},"district":{"key":"07143","name":"Westerwaldkreis","type":"Landkreis"},"federalState":{"key":"07","name":"Rheinland-Pfalz"}},{"name":"Mühlgasse","postalCode":"01945","locality":"Lindenau","municipality":{"key":"12066188","name":"Lindenau","type":"Kreisangehörige_Gemeinde"},"district":{"key":"12066","name":"Oberspreewald-Lausitz","type":"Landkreis"},"federalState":{"key":"12","name":"Brandenburg"}},{"name":"Mühlhauser Feld","postalCode":"85664","locality":"Hohenlinden","municipality":{"key":"09175123","name":"Hohenlinden","type":"Kreisangehörige_Gemeinde"},"district":{"key":"09175","name":"Ebersberg","type":"Landkreis"},"federalState":{"key":"09","name":"Bayern"}},{"name":"Mühlweg","postalCode":"35440","locality":"Linden","municipality":{"key":"06531012","name":"Linden, Stadt","type":"Stadt"},"district":{"key":"06531","name":"Gießen","type":"Landkreis"},"federalState":{"key":"06","name":"Hessen"}},{"name":"Mühlweg","postalCode":"55777","locality":"Fohren-Linden","municipality":{"key":"07134026","name":"Fohren-Linden","type":"Kreisangehörige_Gemeinde"},"district":{"key":"07134","name":"Birkenfeld","type":"Landkreis"},"federalState":{"key":"07","name":"Rheinland-Pfalz"}},{"name":"Mühlweg","postalCode":"88161","locality":"Lindenberg im Allgäu","municipality":{"key":"09776117","name":"Lindenberg i.Allgäu, St","type":"Stadt"},"district":{"key":"09776","name":"Lindau (Bodensee)","type":"Landkreis"},"federalState":{"key":"09","name":"Bayern"}},{"name":"Müllerweg","postalCode":"17111","locality":"Lindenberg","municipality":{"key":"13071089","name":"Lindenberg","type":"Kreisangehörige_Gemeinde"},"district":{"key":"13071","name":"Mecklenburgische Seenplatte","type":"Landkreis"},"federalState":{"key":"13","name":"Mecklenburg-Vorpommern"}},{"name":"Münchner Str.","postalCode":"85664","locality":"Hohenlinden","municipality":{"key":"09175123","name":"Hohenlinden","type":"Kreisangehörige_Gemeinde"},"district":{"key":"09175","name":"Ebersberg","type":"Landkreis"},"federalState":{"key":"09","name":"Bayern"}},{"name":"Münzenberger Weg","postalCode":"35440","locality":"Linden","municipality":{"key":"06531012","name":"Linden, Stadt","type":"Stadt"},"district":{"key":"06531","name":"Gießen","type":"Landkreis"},"federalState":{"key":"06","name":"Hessen"}},{"name":"Museumsplatz","postalCode":"88161","locality":"Lindenberg im Allgäu","municipality":{"key":"09776117","name":"Lindenberg i.Allgäu, St","type":"Stadt"},"district":{"key":"09776","name":"Lindau (Bodensee)","type":"Landkreis"},"federalState":{"key":"09","name":"Bayern"}},{"name":"Nadenberg","postalCode":"88161","locality":"Lindenberg im Allgäu","municipality":{"key":"09776117","name":"Lindenberg i.Allgäu, St","type":"Stadt"},"district":{"key":"09776","name":"Lindau (Bodensee)","type":"Landkreis"},"federalState":{"key":"09","name":"Bayern"}},{"name":"Nadenbergstr.","postalCode":"88161","locality":"Lindenberg im Allgäu","municipality":{"key":"09776117","name":"Lindenberg i.Allgäu, St","type":"Stadt"},"district":{"key":"09776","name":"Lindau (Bodensee)","type":"Landkreis"},"federalState":{"key":"09","name":"Bayern"}},{"name":"Nebengasse","postalCode":"35440","locality":"Linden","municipality":{"key":"06531012","name":"Linden, Stadt","type":"Stadt"},"district":{"key":"06531","name":"Gießen","type":"Landkreis"},"federalState":{"key":"06","name":"Hessen"}},{"name":"Nelkenweg","postalCode":"35440","locality":"Linden","municipality":{"key":"06531012","name":"Linden, Stadt","type":"Stadt"},"district":{"key":"06531","name":"Gießen","type":"Landkreis"},"federalState":{"key":"06","name":"Hessen"}},{"name":"Neuentempel","postalCode":"15306","locality":"Vierlinden","municipality":{"key":"12064482","name":"Vierlinden","type":"Kreisangehörige_Gemeinde"},"district":{"key":"12064","name":"Märkisch-Oderland","type":"Landkreis"},"federalState":{"key":"12","name":"Brandenburg"}},{"name":"Neuer Weg","postalCode":"15306","locality":"Vierlinden","municipality":{"key":"12064482","name":"Vierlinden","type":"Kreisangehörige_Gemeinde"},"district":{"key":"12064","name":"Märkisch-Oderland","type":"Landkreis"},"federalState":{"key":"12","name":"Brandenburg"}},{"name":"Neumühlhausen","postalCode":"85664","locality":"Hohenlinden","municipality":{"key":"09175123","name":"Hohenlinden","type":"Kreisangehörige_Gemeinde"},"district":{"key":"09175","name":"Ebersberg","type":"Landkreis"},"federalState":{"key":"09","name":"Bayern"}},{"name":"Neustockach","postalCode":"85664","locality":"Hohenlinden","municipality":{"key":"09175123","name":"Hohenlinden","type":"Kreisangehörige_Gemeinde"},"district":{"key":"09175","name":"Ebersberg","type":"Landkreis"},"federalState":{"key":"09","name":"Bayern"}},{"name":"Neutalstr.","postalCode":"67473","locality":"Lindenberg","municipality":{"key":"07332034","name":"Lindenberg","type":"Kreisangehörige_Gemeinde"},"district":{"key":"07332","name":"Bad Dürkheim","type":"Landkreis"},"federalState":{"key":"07","name":"Rheinland-Pfalz"}},{"name":"Nibelungenstr.","postalCode":"64678","locality":"Lindenfels","municipality":{"key":"06431015","name":"Lindenfels, Stadt","type":"Stadt"},"district":{"key":"06431","name":"Bergstraße","type":"Landkreis"},"federalState":{"key":"06","name":"Hessen"}},{"name":"Nikolaus-Otto-Str.","postalCode":"35440","locality":"Linden","municipality":{"key":"06531012","name":"Linden, Stadt","type":"Stadt"},"district":{"key":"06531","name":"Gießen","type":"Landkreis"},"federalState":{"key":"06","name":"Hessen"}},{"name":"Oberer Steinweg","postalCode":"85664","locality":"Hohenlinden","municipality":{"key":"09175123","name":"Hohenlinden","type":"Kreisangehörige_Gemeinde"},"district":{"key":"09175","name":"Ebersberg","type":"Landkreis"},"federalState":{"key":"09","name":"Bayern"}},{"name":"Obere Steinstr.","postalCode":"85664","locality":"Hohenlinden","municipality":{"key":"09175123","name":"Hohenlinden","type":"Kreisangehörige_Gemeinde"},"district":{"key":"09175","name":"Ebersberg","type":"Landkreis"},"federalState":{"key":"09","name":"Bayern"}},{"name":"Obergasse","postalCode":"35440","locality":"Linden","municipality":{"key":"06531012","name":"Linden, Stadt","type":"Stadt"},"district":{"key":"06531","name":"Gießen","type":"Landkreis"},"federalState":{"key":"06","name":"Hessen"}},{"name":"Obergasse","postalCode":"64678","locality":"Lindenfels","municipality":{"key":"06431015","name":"Lindenfels, Stadt","type":"Stadt"},"district":{"key":"06431","name":"Bergstraße","type":"Landkreis"},"federalState":{"key":"06","name":"Hessen"}},{"name":"Oberhof","postalCode":"35440","locality":"Linden","municipality":{"key":"06531012","name":"Linden, Stadt","type":"Stadt"},"district":{"key":"06531","name":"Gießen","type":"Landkreis"},"federalState":{"key":"06","name":"Hessen"}},{"name":"Oberlehrer-Stoeckl-Str.","postalCode":"85664","locality":"Hohenlinden","municipality":{"key":"09175123","name":"Hohenlinden","type":"Kreisangehörige_Gemeinde"},"district":{"key":"09175","name":"Ebersberg","type":"Landkreis"},"federalState":{"key":"09","name":"Bayern"}},{"name":"Oberm Haus","postalCode":"64678","locality":"Lindenfels","municipality":{"key":"06431015","name":"Lindenfels, Stadt","type":"Stadt"},"district":{"key":"06431","name":"Bergstraße","type":"Landkreis"},"federalState":{"key":"06","name":"Hessen"}},{"name":"Oldörp","postalCode":"25791","locality":"Linden","municipality":{"key":"01051068","name":"Linden","type":"Kreisangehörige_Gemeinde"},"district":{"key":"01051","name":"Dithmarschen","type":"Kreis"},"federalState":{"key":"01","name":"Schleswig-Holstein"}},{"name":"Olmöhlen","postalCode":"25791","locality":"Linden","municipality":{"key":"01051068","name":"Linden","type":"Kreisangehörige_Gemeinde"},"district":{"key":"01051","name":"Dithmarschen","type":"Kreis"},"federalState":{"key":"01","name":"Schleswig-Holstein"}},{"name":"Ortrander Str.","postalCode":"01945","locality":"Lindenau","municipality":{"key":"12066188","name":"Lindenau","type":"Kreisangehörige_Gemeinde"},"district":{"key":"12066","name":"Oberspreewald-Lausitz","type":"Landkreis"},"federalState":{"key":"12","name":"Brandenburg"}},{"name":"Ortsstr.","postalCode":"64678","locality":"Lindenfels","municipality":{"key":"06431015","name":"Lindenfels, Stadt","type":"Stadt"},"district":{"key":"06431","name":"Bergstraße","type":"Landkreis"},"federalState":{"key":"06","name":"Hessen"}},{"name":"Otto-Grotewohl-Str.","postalCode":"15306","locality":"Lindendorf","municipality":{"key":"12064290","name":"Lindendorf","type":"Kreisangehörige_Gemeinde"},"district":{"key":"12064","name":"Märkisch-Oderland","type":"Landkreis"},"federalState":{"key":"12","name":"Brandenburg"}},{"name":"Otto-Keck-Str.","postalCode":"88161","locality":"Lindenberg im Allgäu","municipality":{"key":"09776117","name":"Lindenberg i.Allgäu, St","type":"Stadt"},"district":{"key":"09776","name":"Lindau (Bodensee)","type":"Landkreis"},"federalState":{"key":"09","name":"Bayern"}},{"name":"Otto-Schulte-Str.","postalCode":"35440","locality":"Linden","municipality":{"key":"06531012","name":"Linden, Stadt","type":"Stadt"},"district":{"key":"06531","name":"Gießen","type":"Landkreis"},"federalState":{"key":"06","name":"Hessen"}},{"name":"Paalzower Weg","postalCode":"16818","locality":"Märkisch Linden","municipality":{"key":"12068306","name":"Märkisch Linden","type":"Kreisangehörige_Gemeinde"},"district":{"key":"12068","name":"Ostprignitz-Ruppin","type":"Landkreis"},"federalState":{"key":"12","name":"Brandenburg"}},{"name":"Pahlkrug","postalCode":"25791","locality":"Linden","municipality":{"key":"01051068","name":"Linden","type":"Kreisangehörige_Gemeinde"},"district":{"key":"01051","name":"Dithmarschen","type":"Kreis"},"federalState":{"key":"01","name":"Schleswig-Holstein"}},{"name":"Pappelrain","postalCode":"35440","locality":"Linden","municipality":{"key":"06531012","name":"Linden, Stadt","type":"Stadt"},"district":{"key":"06531","name":"Gießen","type":"Landkreis"},"federalState":{"key":"06","name":"Hessen"}},{"name":"Pauluswiese","postalCode":"35440","locality":"Linden","municipality":{"key":"06531012","name":"Linden, Stadt","type":"Stadt"},"district":{"key":"06531","name":"Gießen","type":"Landkreis"},"federalState":{"key":"06","name":"Hessen"}},{"name":"Pehrskoppel","postalCode":"25791","locality":"Linden","municipality":{"key":"01051068","name":"Linden","type":"Kreisangehörige_Gemeinde"},"district":{"key":"01051","name":"Dithmarschen","type":"Kreis"},"federalState":{"key":"01","name":"Schleswig-Holstein"}},{"name":"Peter-Dörfler-Str.","postalCode":"88161","locality":"Lindenberg im Allgäu","municipality":{"key":"09776117","name":"Lindenberg i.Allgäu, St","type":"Stadt"},"district":{"key":"09776","name":"Lindau (Bodensee)","type":"Landkreis"},"federalState":{"key":"09","name":"Bayern"}},{"name":"Pfänderstr.","postalCode":"88161","locality":"Lindenberg im Allgäu","municipality":{"key":"09776117","name":"Lindenberg i.Allgäu, St","type":"Stadt"},"district":{"key":"09776","name":"Lindau (Bodensee)","type":"Landkreis"},"federalState":{"key":"09","name":"Bayern"}},{"name":"Pfarrer-Andrä-Str.","postalCode":"85664","locality":"Hohenlinden","municipality":{"key":"09175123","name":"Hohenlinden","type":"Kreisangehörige_Gemeinde"},"district":{"key":"09175","name":"Ebersberg","type":"Landkreis"},"federalState":{"key":"09","name":"Bayern"}},{"name":"Philipp-Reis-Str.","postalCode":"35440","locality":"Linden","municipality":{"key":"06531012","name":"Linden, Stadt","type":"Stadt"},"district":{"key":"06531","name":"Gießen","type":"Landkreis"},"federalState":{"key":"06","name":"Hessen"}},{"name":"Platz der Einheit","postalCode":"01945","locality":"Lindenau","municipality":{"key":"12066188","name":"Lindenau","type":"Kreisangehörige_Gemeinde"},"district":{"key":"12066","name":"Oberspreewald-Lausitz","type":"Landkreis"},"federalState":{"key":"12","name":"Brandenburg"}},{"name":"Podelziger Str.","postalCode":"15306","locality":"Lindendorf","municipality":{"key":"12064290","name":"Lindendorf","type":"Kreisangehörige_Gemeinde"},"district":{"key":"12064","name":"Märkisch-Oderland","type":"Landkreis"},"federalState":{"key":"12","name":"Brandenburg"}},{"name":"Poststr.","postalCode":"64678","locality":"Lindenfels","municipality":{"key":"06431015","name":"Lindenfels, Stadt","type":"Stadt"},"district":{"key":"06431","name":"Bergstraße","type":"Landkreis"},"federalState":{"key":"06","name":"Hessen"}},{"name":"Poststr.","postalCode":"88161","locality":"Lindenberg im Allgäu","municipality":{"key":"09776117","name":"Lindenberg i.Allgäu, St","type":"Stadt"},"district":{"key":"09776","name":"Lindau (Bodensee)","type":"Landkreis"},"federalState":{"key":"09","name":"Bayern"}},{"name":"Potsdamer Str.","postalCode":"35440","locality":"Linden","municipality":{"key":"06531012","name":"Linden, Stadt","type":"Stadt"},"district":{"key":"06531","name":"Gießen","type":"Landkreis"},"federalState":{"key":"06","name":"Hessen"}},{"name":"Ranzen-Schneise","postalCode":"35440","locality":"Linden","municipality":{"key":"06531012","name":"Linden, Stadt","type":"Stadt"},"district":{"key":"06531","name":"Gießen","type":"Landkreis"},"federalState":{"key":"06","name":"Hessen"}},{"name":"Rathausplatz","postalCode":"85664","locality":"Hohenlinden","municipality":{"key":"09175123","name":"Hohenlinden","type":"Kreisangehörige_Gemeinde"},"district":{"key":"09175","name":"Ebersberg","type":"Landkreis"},"federalState":{"key":"09","name":"Bayern"}},{"name":"Rathausstr.","postalCode":"35440","locality":"Linden","municipality":{"key":"06531012","name":"Linden, Stadt","type":"Stadt"},"district":{"key":"06531","name":"Gießen","type":"Landkreis"},"federalState":{"key":"06","name":"Hessen"}},{"name":"Rathausstr.","postalCode":"88161","locality":"Lindenberg im Allgäu","municipality":{"key":"09776117","name":"Lindenberg i.Allgäu, St","type":"Stadt"},"district":{"key":"09776","name":"Lindau (Bodensee)","type":"Landkreis"},"federalState":{"key":"09","name":"Bayern"}},{"name":"Ratzenberg","postalCode":"88161","locality":"Lindenberg im Allgäu","municipality":{"key":"09776117","name":"Lindenberg i.Allgäu, St","type":"Stadt"},"district":{"key":"09776","name":"Lindau (Bodensee)","type":"Landkreis"},"federalState":{"key":"09","name":"Bayern"}},{"name":"Raupensteinweg","postalCode":"64678","locality":"Lindenfels","municipality":{"key":"06431015","name":"Lindenfels, Stadt","type":"Stadt"},"district":{"key":"06431","name":"Bergstraße","type":"Landkreis"},"federalState":{"key":"06","name":"Hessen"}},{"name":"Rehweide","postalCode":"35440","locality":"Linden","municipality":{"key":"06531012","name":"Linden, Stadt","type":"Stadt"},"district":{"key":"06531","name":"Gießen","type":"Landkreis"},"federalState":{"key":"06","name":"Hessen"}},{"name":"Rellyner Str.","postalCode":"17111","locality":"Lindenberg","municipality":{"key":"13071089","name":"Lindenberg","type":"Kreisangehörige_Gemeinde"},"district":{"key":"13071","name":"Mecklenburgische Seenplatte","type":"Landkreis"},"federalState":{"key":"13","name":"Mecklenburg-Vorpommern"}},{"name":"Reuthweg","postalCode":"85664","locality":"Hohenlinden","municipality":{"key":"09175123","name":"Hohenlinden","type":"Kreisangehörige_Gemeinde"},"district":{"key":"09175","name":"Ebersberg","type":"Landkreis"},"federalState":{"key":"09","name":"Bayern"}},{"name":"Ried","postalCode":"88161","locality":"Lindenberg im Allgäu","municipality":{"key":"09776117","name":"Lindenberg i.Allgäu, St","type":"Stadt"},"district":{"key":"09776","name":"Lindau (Bodensee)","type":"Landkreis"},"federalState":{"key":"09","name":"Bayern"}},{"name":"Ringstr.","postalCode":"15306","locality":"Vierlinden","municipality":{"key":"12064482","name":"Vierlinden","type":"Kreisangehörige_Gemeinde"},"district":{"key":"12064","name":"Märkisch-Oderland","type":"Landkreis"},"federalState":{"key":"12","name":"Brandenburg"}},{"name":"Ringstr.","postalCode":"35440","locality":"Linden","municipality":{"key":"06531012","name":"Linden, Stadt","type":"Stadt"},"district":{"key":"06531","name":"Gießen","type":"Landkreis"},"federalState":{"key":"06","name":"Hessen"}},{"name":"Ringstr.","postalCode":"57629","locality":"Linden","municipality":{"key":"07143258","name":"Linden","type":"Kreisangehörige_Gemeinde"},"district":{"key":"07143","name":"Westerwaldkreis","type":"Landkreis"},"federalState":{"key":"07","name":"Rheinland-Pfalz"}},{"name":"Robert-Bosch-Str.","postalCode":"35440","locality":"Linden","municipality":{"key":"06531012","name":"Linden, Stadt","type":"Stadt"},"district":{"key":"06531","name":"Gießen","type":"Landkreis"},"federalState":{"key":"06","name":"Hessen"}},{"name":"Römerweg","postalCode":"55481","locality":"Lindenschied","municipality":{"key":"07140086","name":"Lindenschied","type":"Kreisangehörige_Gemeinde"},"district":{"key":"07140","name":"Rhein-Hunsrück-Kreis","type":"Landkreis"},"federalState":{"key":"07","name":"Rheinland-Pfalz"}},{"name":"Röntgenstr.","postalCode":"35440","locality":"Linden","municipality":{"key":"06531012","name":"Linden, Stadt","type":"Stadt"},"district":{"key":"06531","name":"Gießen","type":"Landkreis"},"federalState":{"key":"06","name":"Hessen"}},{"name":"Rosenstr.","postalCode":"66851","locality":"Linden","municipality":{"key":"07335023","name":"Linden","type":"Kreisangehörige_Gemeinde"},"district":{"key":"07335","name":"Kaiserslautern","type":"Landkreis"},"federalState":{"key":"07","name":"Rheinland-Pfalz"}},{"name":"Rosenthaler Str.","postalCode":"15306","locality":"Vierlinden","municipality":{"key":"12064482","name":"Vierlinden","type":"Kreisangehörige_Gemeinde"},"district":{"key":"12064","name":"Märkisch-Oderland","type":"Landkreis"},"federalState":{"key":"12","name":"Brandenburg"}},{"name":"Rosenweg","postalCode":"15306","locality":"Lindendorf","municipality":{"key":"12064290","name":"Lindendorf","type":"Kreisangehörige_Gemeinde"},"district":{"key":"12064","name":"Märkisch-Oderland","type":"Landkreis"},"federalState":{"key":"12","name":"Brandenburg"}},{"name":"Rosenweg","postalCode":"35440","locality":"Linden","municipality":{"key":"06531012","name":"Linden, Stadt","type":"Stadt"},"district":{"key":"06531","name":"Gießen","type":"Landkreis"},"federalState":{"key":"06","name":"Hessen"}},{"name":"Rotenbergweg","postalCode":"64678","locality":"Lindenfels","municipality":{"key":"06431015","name":"Lindenfels, Stadt","type":"Stadt"},"district":{"key":"06431","name":"Bergstraße","type":"Landkreis"},"federalState":{"key":"06","name":"Hessen"}},{"name":"Rothenbach","postalCode":"07589","locality":"Lindenkreuz","municipality":{"key":"16076044","name":"Lindenkreuz","type":"Kreisangehörige_Gemeinde"},"district":{"key":"16076","name":"Greiz","type":"Landkreis"},"federalState":{"key":"16","name":"Thüringen"}},{"name":"Rotkreuzplatz","postalCode":"88161","locality":"Lindenberg im Allgäu","municipality":{"key":"09776117","name":"Lindenberg i.Allgäu, St","type":"Stadt"},"district":{"key":"09776","name":"Lindau (Bodensee)","type":"Landkreis"},"federalState":{"key":"09","name":"Bayern"}},{"name":"Röttweg","postalCode":"64678","locality":"Lindenfels","municipality":{"key":"06431015","name":"Lindenfels, Stadt","type":"Stadt"},"district":{"key":"06431","name":"Bergstraße","type":"Landkreis"},"federalState":{"key":"06","name":"Hessen"}},{"name":"Rübenauer Str.","postalCode":"35440","locality":"Linden","municipality":{"key":"06531012","name":"Linden, Stadt","type":"Stadt"},"district":{"key":"06531","name":"Gießen","type":"Landkreis"},"federalState":{"key":"06","name":"Hessen"}},{"name":"Rudolf-Breitscheid-Str.","postalCode":"15306","locality":"Lindendorf","municipality":{"key":"12064290","name":"Lindendorf","type":"Kreisangehörige_Gemeinde"},"district":{"key":"12064","name":"Märkisch-Oderland","type":"Landkreis"},"federalState":{"key":"12","name":"Brandenburg"}},{"name":"Rudolf-Diesel-Str.","postalCode":"35440","locality":"Linden","municipality":{"key":"06531012","name":"Linden, Stadt","type":"Stadt"},"district":{"key":"06531","name":"Gießen","type":"Landkreis"},"federalState":{"key":"06","name":"Hessen"}},{"name":"Ruhlander Weg","postalCode":"01945","locality":"Lindenau","municipality":{"key":"12066188","name":"Lindenau","type":"Kreisangehörige_Gemeinde"},"district":{"key":"12066","name":"Oberspreewald-Lausitz","type":"Landkreis"},"federalState":{"key":"12","name":"Brandenburg"}},{"name":"Sachsendorfer Str.","postalCode":"15306","locality":"Lindendorf","municipality":{"key":"12064290","name":"Lindendorf","type":"Kreisangehörige_Gemeinde"},"district":{"key":"12064","name":"Märkisch-Oderland","type":"Landkreis"},"federalState":{"key":"12","name":"Brandenburg"}},{"name":"Sandstr.","postalCode":"88161","locality":"Lindenberg im Allgäu","municipality":{"key":"09776117","name":"Lindenberg i.Allgäu, St","type":"Stadt"},"district":{"key":"09776","name":"Lindau (Bodensee)","type":"Landkreis"},"federalState":{"key":"09","name":"Bayern"}},{"name":"Sandweg","postalCode":"64678","locality":"Lindenfels","municipality":{"key":"06431015","name":"Lindenfels, Stadt","type":"Stadt"},"district":{"key":"06431","name":"Bergstraße","type":"Landkreis"},"federalState":{"key":"06","name":"Hessen"}},{"name":"Säntisweg","postalCode":"88161","locality":"Lindenberg im Allgäu","municipality":{"key":"09776117","name":"Lindenberg i.Allgäu, St","type":"Stadt"},"district":{"key":"09776","name":"Lindau (Bodensee)","type":"Landkreis"},"federalState":{"key":"09","name":"Bayern"}},{"name":"Schaasfeldstr.","postalCode":"64678","locality":"Lindenfels","municipality":{"key":"06431015","name":"Lindenfels, Stadt","type":"Stadt"},"district":{"key":"06431","name":"Bergstraße","type":"Landkreis"},"federalState":{"key":"06","name":"Hessen"}},{"name":"Schäfflerstr.","postalCode":"88161","locality":"Lindenberg im Allgäu","municipality":{"key":"09776117","name":"Lindenberg i.Allgäu, St","type":"Stadt"},"district":{"key":"09776","name":"Lindau (Bodensee)","type":"Landkreis"},"federalState":{"key":"09","name":"Bayern"}},{"name":"Schankgarten","postalCode":"55777","locality":"Fohren-Linden","municipality":{"key":"07134026","name":"Fohren-Linden","type":"Kreisangehörige_Gemeinde"},"district":{"key":"07134","name":"Birkenfeld","type":"Landkreis"},"federalState":{"key":"07","name":"Rheinland-Pfalz"}},{"name":"Schenkenbergstr.","postalCode":"64678","locality":"Lindenfels","municipality":{"key":"06431015","name":"Lindenfels, Stadt","type":"Stadt"},"district":{"key":"06431","name":"Bergstraße","type":"Landkreis"},"federalState":{"key":"06","name":"Hessen"}},{"name":"Schillerstr.","postalCode":"35440","locality":"Linden","municipality":{"key":"06531012","name":"Linden, Stadt","type":"Stadt"},"district":{"key":"06531","name":"Gießen","type":"Landkreis"},"federalState":{"key":"06","name":"Hessen"}},{"name":"Schillerstr.","postalCode":"88161","locality":"Lindenberg im Allgäu","municipality":{"key":"09776117","name":"Lindenberg i.Allgäu, St","type":"Stadt"},"district":{"key":"09776","name":"Lindau (Bodensee)","type":"Landkreis"},"federalState":{"key":"09","name":"Bayern"}},{"name":"Schleichweg","postalCode":"64678","locality":"Lindenfels","municipality":{"key":"06431015","name":"Lindenfels, Stadt","type":"Stadt"},"district":{"key":"06431","name":"Bergstraße","type":"Landkreis"},"federalState":{"key":"06","name":"Hessen"}},{"name":"Schlierbacher Weg","postalCode":"64678","locality":"Lindenfels","municipality":{"key":"06431015","name":"Lindenfels, Stadt","type":"Stadt"},"district":{"key":"06431","name":"Bergstraße","type":"Landkreis"},"federalState":{"key":"06","name":"Hessen"}},{"name":"Schlossplatz","postalCode":"01945","locality":"Lindenau","municipality":{"key":"12066188","name":"Lindenau","type":"Kreisangehörige_Gemeinde"},"district":{"key":"12066","name":"Oberspreewald-Lausitz","type":"Landkreis"},"federalState":{"key":"12","name":"Brandenburg"}},{"name":"Schloßwaldweg","postalCode":"64678","locality":"Lindenfels","municipality":{"key":"06431015","name":"Lindenfels, Stadt","type":"Stadt"},"district":{"key":"06431","name":"Bergstraße","type":"Landkreis"},"federalState":{"key":"06","name":"Hessen"}},{"name":"Schmuckental","postalCode":"35440","locality":"Linden","municipality":{"key":"06531012","name":"Linden, Stadt","type":"Stadt"},"district":{"key":"06531","name":"Gießen","type":"Landkreis"},"federalState":{"key":"06","name":"Hessen"}},{"name":"Schubertstr.","postalCode":"35440","locality":"Linden","municipality":{"key":"06531012","name":"Linden, Stadt","type":"Stadt"},"district":{"key":"06531","name":"Gießen","type":"Landkreis"},"federalState":{"key":"06","name":"Hessen"}},{"name":"Schulstr.","postalCode":"01945","locality":"Lindenau","municipality":{"key":"12066188","name":"Lindenau","type":"Kreisangehörige_Gemeinde"},"district":{"key":"12066","name":"Oberspreewald-Lausitz","type":"Landkreis"},"federalState":{"key":"12","name":"Brandenburg"}},{"name":"Schulstr.","postalCode":"35440","locality":"Linden","municipality":{"key":"06531012","name":"Linden, Stadt","type":"Stadt"},"district":{"key":"06531","name":"Gießen","type":"Landkreis"},"federalState":{"key":"06","name":"Hessen"}},{"name":"Schulstr.","postalCode":"64678","locality":"Lindenfels","municipality":{"key":"06431015","name":"Lindenfels, Stadt","type":"Stadt"},"district":{"key":"06431","name":"Bergstraße","type":"Landkreis"},"federalState":{"key":"06","name":"Hessen"}},{"name":"Schulstr.","postalCode":"66851","locality":"Linden","municipality":{"key":"07335023","name":"Linden","type":"Kreisangehörige_Gemeinde"},"district":{"key":"07335","name":"Kaiserslautern","type":"Landkreis"},"federalState":{"key":"07","name":"Rheinland-Pfalz"}},{"name":"Schulweg","postalCode":"55481","locality":"Lindenschied","municipality":{"key":"07140086","name":"Lindenschied","type":"Kreisangehörige_Gemeinde"},"district":{"key":"07140","name":"Rhein-Hunsrück-Kreis","type":"Landkreis"},"federalState":{"key":"07","name":"Rheinland-Pfalz"}},{"name":"Schulweg","postalCode":"55777","locality":"Fohren-Linden","municipality":{"key":"07134026","name":"Fohren-Linden","type":"Kreisangehörige_Gemeinde"},"district":{"key":"07134","name":"Birkenfeld","type":"Landkreis"},"federalState":{"key":"07","name":"Rheinland-Pfalz"}},{"name":"Schützenschneise","postalCode":"35440","locality":"Linden","municipality":{"key":"06531012","name":"Linden, Stadt","type":"Stadt"},"district":{"key":"06531","name":"Gießen","type":"Landkreis"},"federalState":{"key":"06","name":"Hessen"}},{"name":"Schützenweg","postalCode":"85664","locality":"Hohenlinden","municipality":{"key":"09175123","name":"Hohenlinden","type":"Kreisangehörige_Gemeinde"},"district":{"key":"09175","name":"Ebersberg","type":"Landkreis"},"federalState":{"key":"09","name":"Bayern"}},{"name":"Schwannstr.","postalCode":"64678","locality":"Lindenfels","municipality":{"key":"06431015","name":"Lindenfels, Stadt","type":"Stadt"},"district":{"key":"06431","name":"Bergstraße","type":"Landkreis"},"federalState":{"key":"06","name":"Hessen"}},{"name":"Schwimmbadstr.","postalCode":"64678","locality":"Lindenfels","municipality":{"key":"06431015","name":"Lindenfels, Stadt","type":"Stadt"},"district":{"key":"06431","name":"Bergstraße","type":"Landkreis"},"federalState":{"key":"06","name":"Hessen"}},{"name":"Schwinzweg","postalCode":"01945","locality":"Lindenau","municipality":{"key":"12066188","name":"Lindenau","type":"Kreisangehörige_Gemeinde"},"district":{"key":"12066","name":"Oberspreewald-Lausitz","type":"Landkreis"},"federalState":{"key":"12","name":"Brandenburg"}},{"name":"Sedanstr.","postalCode":"88161","locality":"Lindenberg im Allgäu","municipality":{"key":"09776117","name":"Lindenberg i.Allgäu, St","type":"Stadt"},"district":{"key":"09776","name":"Lindau (Bodensee)","type":"Landkreis"},"federalState":{"key":"09","name":"Bayern"}},{"name":"Seehofweg","postalCode":"64678","locality":"Lindenfels","municipality":{"key":"06431015","name":"Lindenfels, Stadt","type":"Stadt"},"district":{"key":"06431","name":"Bergstraße","type":"Landkreis"},"federalState":{"key":"06","name":"Hessen"}},{"name":"Seelower Str.","postalCode":"15306","locality":"Vierlinden","municipality":{"key":"12064482","name":"Vierlinden","type":"Kreisangehörige_Gemeinde"},"district":{"key":"12064","name":"Märkisch-Oderland","type":"Landkreis"},"federalState":{"key":"12","name":"Brandenburg"}},{"name":"Seelower Weg","postalCode":"15306","locality":"Vierlinden","municipality":{"key":"12064482","name":"Vierlinden","type":"Kreisangehörige_Gemeinde"},"district":{"key":"12064","name":"Märkisch-Oderland","type":"Landkreis"},"federalState":{"key":"12","name":"Brandenburg"}},{"name":"Seestr.","postalCode":"15306","locality":"Vierlinden","municipality":{"key":"12064482","name":"Vierlinden","type":"Kreisangehörige_Gemeinde"},"district":{"key":"12064","name":"Märkisch-Oderland","type":"Landkreis"},"federalState":{"key":"12","name":"Brandenburg"}},{"name":"Seewiesenweg","postalCode":"64678","locality":"Lindenfels","municipality":{"key":"06431015","name":"Lindenfels, Stadt","type":"Stadt"},"district":{"key":"06431","name":"Bergstraße","type":"Landkreis"},"federalState":{"key":"06","name":"Hessen"}},{"name":"Siedlerstr.","postalCode":"15306","locality":"Lindendorf","municipality":{"key":"12064290","name":"Lindendorf","type":"Kreisangehörige_Gemeinde"},"district":{"key":"12064","name":"Märkisch-Oderland","type":"Landkreis"},"federalState":{"key":"12","name":"Brandenburg"}},{"name":"Siedlung","postalCode":"15306","locality":"Lindendorf","municipality":{"key":"12064290","name":"Lindendorf","type":"Kreisangehörige_Gemeinde"},"district":{"key":"12064","name":"Märkisch-Oderland","type":"Landkreis"},"federalState":{"key":"12","name":"Brandenburg"}},{"name":"Siemensstr.","postalCode":"35440","locality":"Linden","municipality":{"key":"06531012","name":"Linden, Stadt","type":"Stadt"},"district":{"key":"06531","name":"Gießen","type":"Landkreis"},"federalState":{"key":"06","name":"Hessen"}},{"name":"Sommerkornrothweg","postalCode":"64678","locality":"Lindenfels","municipality":{"key":"06431015","name":"Lindenfels, Stadt","type":"Stadt"},"district":{"key":"06431","name":"Bergstraße","type":"Landkreis"},"federalState":{"key":"06","name":"Hessen"}},{"name":"Sonnenhalde","postalCode":"88161","locality":"Lindenberg im Allgäu","municipality":{"key":"09776117","name":"Lindenberg i.Allgäu, St","type":"Stadt"},"district":{"key":"09776","name":"Lindau (Bodensee)","type":"Landkreis"},"federalState":{"key":"09","name":"Bayern"}},{"name":"Sonnenhof","postalCode":"35440","locality":"Linden","municipality":{"key":"06531012","name":"Linden, Stadt","type":"Stadt"},"district":{"key":"06531","name":"Gießen","type":"Landkreis"},"federalState":{"key":"06","name":"Hessen"}},{"name":"Sonnenstr.","postalCode":"66851","locality":"Linden","municipality":{"key":"07335023","name":"Linden","type":"Kreisangehörige_Gemeinde"},"district":{"key":"07335","name":"Kaiserslautern","type":"Landkreis"},"federalState":{"key":"07","name":"Rheinland-Pfalz"}},{"name":"Sonnenstr.","postalCode":"88161","locality":"Lindenberg im Allgäu","municipality":{"key":"09776117","name":"Lindenberg i.Allgäu, St","type":"Stadt"},"district":{"key":"09776","name":"Lindau (Bodensee)","type":"Landkreis"},"federalState":{"key":"09","name":"Bayern"}},{"name":"Sonnenweg","postalCode":"64678","locality":"Lindenfels","municipality":{"key":"06431015","name":"Lindenfels, Stadt","type":"Stadt"},"district":{"key":"06431","name":"Bergstraße","type":"Landkreis"},"federalState":{"key":"06","name":"Hessen"}},{"name":"Spelzenackerstr.","postalCode":"67473","locality":"Lindenberg","municipality":{"key":"07332034","name":"Lindenberg","type":"Kreisangehörige_Gemeinde"},"district":{"key":"07332","name":"Bad Dürkheim","type":"Landkreis"},"federalState":{"key":"07","name":"Rheinland-Pfalz"}},{"name":"Spielermoos","postalCode":"88161","locality":"Lindenberg im Allgäu","municipality":{"key":"09776117","name":"Lindenberg i.Allgäu, St","type":"Stadt"},"district":{"key":"09776","name":"Lindau (Bodensee)","type":"Landkreis"},"federalState":{"key":"09","name":"Bayern"}},{"name":"Staatsstr.","postalCode":"67473","locality":"Lindenberg","municipality":{"key":"07332034","name":"Lindenberg","type":"Kreisangehörige_Gemeinde"},"district":{"key":"07332","name":"Bad Dürkheim","type":"Landkreis"},"federalState":{"key":"07","name":"Rheinland-Pfalz"}},{"name":"Stadtpark","postalCode":"88161","locality":"Lindenberg im Allgäu","municipality":{"key":"09776117","name":"Lindenberg i.Allgäu, St","type":"Stadt"},"district":{"key":"09776","name":"Lindau (Bodensee)","type":"Landkreis"},"federalState":{"key":"09","name":"Bayern"}},{"name":"St.-Afra-Steg","postalCode":"88161","locality":"Lindenberg im Allgäu","municipality":{"key":"09776117","name":"Lindenberg i.Allgäu, St","type":"Stadt"},"district":{"key":"09776","name":"Lindau (Bodensee)","type":"Landkreis"},"federalState":{"key":"09","name":"Bayern"}},{"name":"Staufner Str.","postalCode":"88161","locality":"Lindenberg im Allgäu","municipality":{"key":"09776117","name":"Lindenberg i.Allgäu, St","type":"Stadt"},"district":{"key":"09776","name":"Lindau (Bodensee)","type":"Landkreis"},"federalState":{"key":"09","name":"Bayern"}},{"name":"Steckwaldweg","postalCode":"64678","locality":"Lindenfels","municipality":{"key":"06431015","name":"Lindenfels, Stadt","type":"Stadt"},"district":{"key":"06431","name":"Bergstraße","type":"Landkreis"},"federalState":{"key":"06","name":"Hessen"}},{"name":"Steinstr.","postalCode":"85664","locality":"Hohenlinden","municipality":{"key":"09175123","name":"Hohenlinden","type":"Kreisangehörige_Gemeinde"},"district":{"key":"09175","name":"Ebersberg","type":"Landkreis"},"federalState":{"key":"09","name":"Bayern"}},{"name":"Talstr.","postalCode":"64678","locality":"Lindenfels","municipality":{"key":"06431015","name":"Lindenfels, Stadt","type":"Stadt"},"district":{"key":"06431","name":"Bergstraße","type":"Landkreis"},"federalState":{"key":"06","name":"Hessen"}},{"name":"Talstr.","postalCode":"66851","locality":"Linden","municipality":{"key":"07335023","name":"Linden","type":"Kreisangehörige_Gemeinde"},"district":{"key":"07335","name":"Kaiserslautern","type":"Landkreis"},"federalState":{"key":"07","name":"Rheinland-Pfalz"}},{"name":"Tannenweg","postalCode":"35440","locality":"Linden","municipality":{"key":"06531012","name":"Linden, Stadt","type":"Stadt"},"district":{"key":"06531","name":"Gießen","type":"Landkreis"},"federalState":{"key":"06","name":"Hessen"}},{"name":"Teichweg","postalCode":"01945","locality":"Lindenau","municipality":{"key":"12066188","name":"Lindenau","type":"Kreisangehörige_Gemeinde"},"district":{"key":"12066","name":"Oberspreewald-Lausitz","type":"Landkreis"},"federalState":{"key":"12","name":"Brandenburg"}},{"name":"Temnitz-Park-Chaussee","postalCode":"16818","locality":"Märkisch Linden","municipality":{"key":"12068306","name":"Märkisch Linden","type":"Kreisangehörige_Gemeinde"},"district":{"key":"12068","name":"Ostprignitz-Ruppin","type":"Landkreis"},"federalState":{"key":"12","name":"Brandenburg"}},{"name":"Tettauer Str.","postalCode":"01945","locality":"Lindenau","municipality":{"key":"12066188","name":"Lindenau","type":"Kreisangehörige_Gemeinde"},"district":{"key":"12066","name":"Oberspreewald-Lausitz","type":"Landkreis"},"federalState":{"key":"12","name":"Brandenburg"}},{"name":"Teufelslochweg","postalCode":"64678","locality":"Lindenfels","municipality":{"key":"06431015","name":"Lindenfels, Stadt","type":"Stadt"},"district":{"key":"06431","name":"Bergstraße","type":"Landkreis"},"federalState":{"key":"06","name":"Hessen"}},{"name":"Theodor-Heuss-Str.","postalCode":"35440","locality":"Linden","municipality":{"key":"06531012","name":"Linden, Stadt","type":"Stadt"},"district":{"key":"06531","name":"Gießen","type":"Landkreis"},"federalState":{"key":"06","name":"Hessen"}},{"name":"Triftweg","postalCode":"16818","locality":"Märkisch Linden","municipality":{"key":"12068306","name":"Märkisch Linden","type":"Kreisangehörige_Gemeinde"},"district":{"key":"12068","name":"Ostprignitz-Ruppin","type":"Landkreis"},"federalState":{"key":"12","name":"Brandenburg"}},{"name":"Tuchebander Weg","postalCode":"15306","locality":"Vierlinden","municipality":{"key":"12064482","name":"Vierlinden","type":"Kreisangehörige_Gemeinde"},"district":{"key":"12064","name":"Märkisch-Oderland","type":"Landkreis"},"federalState":{"key":"12","name":"Brandenburg"}},{"name":"Tulpenweg","postalCode":"35440","locality":"Linden","municipality":{"key":"06531012","name":"Linden, Stadt","type":"Stadt"},"district":{"key":"06531","name":"Gießen","type":"Landkreis"},"federalState":{"key":"06","name":"Hessen"}},{"name":"Unterer Steinweg","postalCode":"85664","locality":"Hohenlinden","municipality":{"key":"09175123","name":"Hohenlinden","type":"Kreisangehörige_Gemeinde"},"district":{"key":"09175","name":"Ebersberg","type":"Landkreis"},"federalState":{"key":"09","name":"Bayern"}},{"name":"Untere Steinstr.","postalCode":"85664","locality":"Hohenlinden","municipality":{"key":"09175123","name":"Hohenlinden","type":"Kreisangehörige_Gemeinde"},"district":{"key":"09175","name":"Ebersberg","type":"Landkreis"},"federalState":{"key":"09","name":"Bayern"}},{"name":"Von-Minckwitz-Allee","postalCode":"01945","locality":"Lindenau","municipality":{"key":"12066188","name":"Lindenau","type":"Kreisangehörige_Gemeinde"},"district":{"key":"12066","name":"Oberspreewald-Lausitz","type":"Landkreis"},"federalState":{"key":"12","name":"Brandenburg"}},{"name":"Vorwerk","postalCode":"15306","locality":"Vierlinden","municipality":{"key":"12064482","name":"Vierlinden","type":"Kreisangehörige_Gemeinde"},"district":{"key":"12064","name":"Märkisch-Oderland","type":"Landkreis"},"federalState":{"key":"12","name":"Brandenburg"}},{"name":"Waldsee Rundweg","postalCode":"88161","locality":"Lindenberg im Allgäu","municipality":{"key":"09776117","name":"Lindenberg i.Allgäu, St","type":"Stadt"},"district":{"key":"09776","name":"Lindau (Bodensee)","type":"Landkreis"},"federalState":{"key":"09","name":"Bayern"}},{"name":"Waldseeweg","postalCode":"88161","locality":"Lindenberg im Allgäu","municipality":{"key":"09776117","name":"Lindenberg i.Allgäu, St","type":"Stadt"},"district":{"key":"09776","name":"Lindau (Bodensee)","type":"Landkreis"},"federalState":{"key":"09","name":"Bayern"}},{"name":"Waldsiedlung-Eichendamm","postalCode":"15306","locality":"Vierlinden","municipality":{"key":"12064482","name":"Vierlinden","type":"Kreisangehörige_Gemeinde"},"district":{"key":"12064","name":"Märkisch-Oderland","type":"Landkreis"},"federalState":{"key":"12","name":"Brandenburg"}},{"name":"Waldsiedlung-Fichtendamm","postalCode":"15306","locality":"Vierlinden","municipality":{"key":"12064482","name":"Vierlinden","type":"Kreisangehörige_Gemeinde"},"district":{"key":"12064","name":"Märkisch-Oderland","type":"Landkreis"},"federalState":{"key":"12","name":"Brandenburg"}},{"name":"Waldsiedlung-Pappelring","postalCode":"15306","locality":"Vierlinden","municipality":{"key":"12064482","name":"Vierlinden","type":"Kreisangehörige_Gemeinde"},"district":{"key":"12064","name":"Märkisch-Oderland","type":"Landkreis"},"federalState":{"key":"12","name":"Brandenburg"}},{"name":"Waldstr.","postalCode":"15306","locality":"Vierlinden","municipality":{"key":"12064482","name":"Vierlinden","type":"Kreisangehörige_Gemeinde"},"district":{"key":"12064","name":"Märkisch-Oderland","type":"Landkreis"},"federalState":{"key":"12","name":"Brandenburg"}},{"name":"Waldstr.","postalCode":"35440","locality":"Linden","municipality":{"key":"06531012","name":"Linden, Stadt","type":"Stadt"},"district":{"key":"06531","name":"Gießen","type":"Landkreis"},"federalState":{"key":"06","name":"Hessen"}},{"name":"Waldstr.","postalCode":"57629","locality":"Linden","municipality":{"key":"07143258","name":"Linden","type":"Kreisangehörige_Gemeinde"},"district":{"key":"07143","name":"Westerwaldkreis","type":"Landkreis"},"federalState":{"key":"07","name":"Rheinland-Pfalz"}},{"name":"Waldstr.","postalCode":"64678","locality":"Lindenfels","municipality":{"key":"06431015","name":"Lindenfels, Stadt","type":"Stadt"},"district":{"key":"06431","name":"Bergstraße","type":"Landkreis"},"federalState":{"key":"06","name":"Hessen"}},{"name":"Waldstr.","postalCode":"88161","locality":"Lindenberg im Allgäu","municipality":{"key":"09776117","name":"Lindenberg i.Allgäu, St","type":"Stadt"},"district":{"key":"09776","name":"Lindau (Bodensee)","type":"Landkreis"},"federalState":{"key":"09","name":"Bayern"}},{"name":"Waltersdorf","postalCode":"07589","locality":"Lindenkreuz","municipality":{"key":"16076044","name":"Lindenkreuz","type":"Kreisangehörige_Gemeinde"},"district":{"key":"16076","name":"Greiz","type":"Landkreis"},"federalState":{"key":"16","name":"Thüringen"}},{"name":"Wannweg","postalCode":"64678","locality":"Lindenfels","municipality":{"key":"06431015","name":"Lindenfels, Stadt","type":"Stadt"},"district":{"key":"06431","name":"Bergstraße","type":"Landkreis"},"federalState":{"key":"06","name":"Hessen"}},{"name":"Warabistr.","postalCode":"35440","locality":"Linden","municipality":{"key":"06531012","name":"Linden, Stadt","type":"Stadt"},"district":{"key":"06531","name":"Gießen","type":"Landkreis"},"federalState":{"key":"06","name":"Hessen"}},{"name":"Wassergasse","postalCode":"64678","locality":"Lindenfels","municipality":{"key":"06431015","name":"Lindenfels, Stadt","type":"Stadt"},"district":{"key":"06431","name":"Bergstraße","type":"Landkreis"},"federalState":{"key":"06","name":"Hessen"}},{"name":"Weidenkamp","postalCode":"25791","locality":"Linden","municipality":{"key":"01051068","name":"Linden","type":"Kreisangehörige_Gemeinde"},"district":{"key":"01051","name":"Dithmarschen","type":"Kreis"},"federalState":{"key":"01","name":"Schleswig-Holstein"}},{"name":"Weihers","postalCode":"88161","locality":"Lindenberg im Allgäu","municipality":{"key":"09776117","name":"Lindenberg i.Allgäu, St","type":"Stadt"},"district":{"key":"09776","name":"Lindau (Bodensee)","type":"Landkreis"},"federalState":{"key":"09","name":"Bayern"}},{"name":"Weiherstr.","postalCode":"66851","locality":"Linden","municipality":{"key":"07335023","name":"Linden","type":"Kreisangehörige_Gemeinde"},"district":{"key":"07335","name":"Kaiserslautern","type":"Landkreis"},"federalState":{"key":"07","name":"Rheinland-Pfalz"}},{"name":"Weimarer Str.","postalCode":"35440","locality":"Linden","municipality":{"key":"06531012","name":"Linden, Stadt","type":"Stadt"},"district":{"key":"06531","name":"Gießen","type":"Landkreis"},"federalState":{"key":"06","name":"Hessen"}},{"name":"Weinbergstr.","postalCode":"35440","locality":"Linden","municipality":{"key":"06531012","name":"Linden, Stadt","type":"Stadt"},"district":{"key":"06531","name":"Gießen","type":"Landkreis"},"federalState":{"key":"06","name":"Hessen"}},{"name":"Weinbietweg","postalCode":"67473","locality":"Lindenberg","municipality":{"key":"07332034","name":"Lindenberg","type":"Kreisangehörige_Gemeinde"},"district":{"key":"07332","name":"Bad Dürkheim","type":"Landkreis"},"federalState":{"key":"07","name":"Rheinland-Pfalz"}},{"name":"Weinstr.","postalCode":"88161","locality":"Lindenberg im Allgäu","municipality":{"key":"09776117","name":"Lindenberg i.Allgäu, St","type":"Stadt"},"district":{"key":"09776","name":"Lindau (Bodensee)","type":"Landkreis"},"federalState":{"key":"09","name":"Bayern"}},{"name":"Weinweg","postalCode":"64678","locality":"Lindenfels","municipality":{"key":"06431015","name":"Lindenfels, Stadt","type":"Stadt"},"district":{"key":"06431","name":"Bergstraße","type":"Landkreis"},"federalState":{"key":"06","name":"Hessen"}},{"name":"Werner-Seelenbinder-Str.","postalCode":"15306","locality":"Lindendorf","municipality":{"key":"12064290","name":"Lindendorf","type":"Kreisangehörige_Gemeinde"},"district":{"key":"12064","name":"Märkisch-Oderland","type":"Landkreis"},"federalState":{"key":"12","name":"Brandenburg"}},{"name":"Westpark","postalCode":"88161","locality":"Lindenberg im Allgäu","municipality":{"key":"09776117","name":"Lindenberg i.Allgäu, St","type":"Stadt"},"district":{"key":"09776","name":"Lindau (Bodensee)","type":"Landkreis"},"federalState":{"key":"09","name":"Bayern"}},{"name":"Wiesenberger Ring","postalCode":"35440","locality":"Linden","municipality":{"key":"06531012","name":"Linden, Stadt","type":"Stadt"},"district":{"key":"06531","name":"Gießen","type":"Landkreis"},"federalState":{"key":"06","name":"Hessen"}},{"name":"Wiesenstr.","postalCode":"35440","locality":"Linden","municipality":{"key":"06531012","name":"Linden, Stadt","type":"Stadt"},"district":{"key":"06531","name":"Gießen","type":"Landkreis"},"federalState":{"key":"06","name":"Hessen"}},{"name":"Wiesenstr.","postalCode":"64678","locality":"Lindenfels","municipality":{"key":"06431015","name":"Lindenfels, Stadt","type":"Stadt"},"district":{"key":"06431","name":"Bergstraße","type":"Landkreis"},"federalState":{"key":"06","name":"Hessen"}},{"name":"Wiesenstr.","postalCode":"66851","locality":"Linden","municipality":{"key":"07335023","name":"Linden","type":"Kreisangehörige_Gemeinde"},"district":{"key":"07335","name":"Kaiserslautern","type":"Landkreis"},"federalState":{"key":"07","name":"Rheinland-Pfalz"}},{"name":"Wiesenstr.","postalCode":"67473","locality":"Lindenberg","municipality":{"key":"07332034","name":"Lindenberg","type":"Kreisangehörige_Gemeinde"},"district":{"key":"07332","name":"Bad Dürkheim","type":"Landkreis"},"federalState":{"key":"07","name":"Rheinland-Pfalz"}},{"name":"Wildenhahnstr.","postalCode":"57629","locality":"Linden","municipality":{"key":"07143258","name":"Linden","type":"Kreisangehörige_Gemeinde"},"district":{"key":"07143","name":"Westerwaldkreis","type":"Landkreis"},"federalState":{"key":"07","name":"Rheinland-Pfalz"}},{"name":"Wilhelm-Baur-Str.","postalCode":"64678","locality":"Lindenfels","municipality":{"key":"06431015","name":"Lindenfels, Stadt","type":"Stadt"},"district":{"key":"06431","name":"Bergstraße","type":"Landkreis"},"federalState":{"key":"06","name":"Hessen"}},{"name":"Wilhelm-Hauff-Str.","postalCode":"35440","locality":"Linden","municipality":{"key":"06531012","name":"Linden, Stadt","type":"Stadt"},"district":{"key":"06531","name":"Gießen","type":"Landkreis"},"federalState":{"key":"06","name":"Hessen"}},{"name":"Wilhelm-Leuschner-Str.","postalCode":"35440","locality":"Linden","municipality":{"key":"06531012","name":"Linden, Stadt","type":"Stadt"},"district":{"key":"06531","name":"Gießen","type":"Landkreis"},"federalState":{"key":"06","name":"Hessen"}},{"name":"Wilhelmstr.","postalCode":"35440","locality":"Linden","municipality":{"key":"06531012","name":"Linden, Stadt","type":"Stadt"},"district":{"key":"06531","name":"Gießen","type":"Landkreis"},"federalState":{"key":"06","name":"Hessen"}},{"name":"Willi-Führer-Steg","postalCode":"88161","locality":"Lindenberg im Allgäu","municipality":{"key":"09776117","name":"Lindenberg i.Allgäu, St","type":"Stadt"},"district":{"key":"09776","name":"Lindau (Bodensee)","type":"Landkreis"},"federalState":{"key":"09","name":"Bayern"}},{"name":"Winkel-Schneise","postalCode":"35440","locality":"Linden","municipality":{"key":"06531012","name":"Linden, Stadt","type":"Stadt"},"district":{"key":"06531","name":"Gießen","type":"Landkreis"},"federalState":{"key":"06","name":"Hessen"}},{"name":"Winterkastener Weg","postalCode":"64678","locality":"Lindenfels","municipality":{"key":"06431015","name":"Lindenfels, Stadt","type":"Stadt"},"district":{"key":"06431","name":"Bergstraße","type":"Landkreis"},"federalState":{"key":"06","name":"Hessen"}},{"name":"Winzebacher Pfad","postalCode":"55481","locality":"Lindenschied","municipality":{"key":"07140086","name":"Lindenschied","type":"Kreisangehörige_Gemeinde"},"district":{"key":"07140","name":"Rhein-Hunsrück-Kreis","type":"Landkreis"},"federalState":{"key":"07","name":"Rheinland-Pfalz"}},{"name":"Wolfgang-Schwabe-Weg","postalCode":"64678","locality":"Lindenfels","municipality":{"key":"06431015","name":"Lindenfels, Stadt","type":"Stadt"},"district":{"key":"06431","name":"Bergstraße","type":"Landkreis"},"federalState":{"key":"06","name":"Hessen"}},{"name":"Wolfskaute","postalCode":"35440","locality":"Linden","municipality":{"key":"06531012","name":"Linden, Stadt","type":"Stadt"},"district":{"key":"06531","name":"Gießen","type":"Landkreis"},"federalState":{"key":"06","name":"Hessen"}},{"name":"Woltersdorf","postalCode":"16818","locality":"Märkisch Linden","municipality":{"key":"12068306","name":"Märkisch Linden","type":"Kreisangehörige_Gemeinde"},"district":{"key":"12068","name":"Ostprignitz-Ruppin","type":"Landkreis"},"federalState":{"key":"12","name":"Brandenburg"}},{"name":"Woriner Str.","postalCode":"15306","locality":"Vierlinden","municipality":{"key":"12064482","name":"Vierlinden","type":"Kreisangehörige_Gemeinde"},"district":{"key":"12064","name":"Märkisch-Oderland","type":"Landkreis"},"federalState":{"key":"12","name":"Brandenburg"}},{"name":"Wusterhausener Str.","postalCode":"16818","locality":"Märkisch Linden","municipality":{"key":"12068306","name":"Märkisch Linden","type":"Kreisangehörige_Gemeinde"},"district":{"key":"12068","name":"Ostprignitz-Ruppin","type":"Landkreis"},"federalState":{"key":"12","name":"Brandenburg"}},{"name":"Xaver-Milz-Weg","postalCode":"88161","locality":"Lindenberg im Allgäu","municipality":{"key":"09776117","name":"Lindenberg i.Allgäu, St","type":"Stadt"},"district":{"key":"09776","name":"Lindau (Bodensee)","type":"Landkreis"},"federalState":{"key":"09","name":"Bayern"}},{"name":"Ziegeleiweg","postalCode":"25791","locality":"Linden","municipality":{"key":"01051068","name":"Linden","type":"Kreisangehörige_Gemeinde"},"district":{"key":"01051","name":"Dithmarschen","type":"Kreis"},"federalState":{"key":"01","name":"Schleswig-Holstein"}},{"name":"Zum Bahnhof","postalCode":"16818","locality":"Märkisch Linden","municipality":{"key":"12068306","name":"Märkisch Linden","type":"Kreisangehörige_Gemeinde"},"district":{"key":"12068","name":"Ostprignitz-Ruppin","type":"Landkreis"},"federalState":{"key":"12","name":"Brandenburg"}},{"name":"Zum Goldenberg","postalCode":"17111","locality":"Lindenberg","municipality":{"key":"13071089","name":"Lindenberg","type":"Kreisangehörige_Gemeinde"},"district":{"key":"13071","name":"Mecklenburgische Seenplatte","type":"Landkreis"},"federalState":{"key":"13","name":"Mecklenburg-Vorpommern"}},{"name":"Zum Gutshof","postalCode":"17111","locality":"Lindenberg","municipality":{"key":"13071089","name":"Lindenberg","type":"Kreisangehörige_Gemeinde"},"district":{"key":"13071","name":"Mecklenburgische Seenplatte","type":"Landkreis"},"federalState":{"key":"13","name":"Mecklenburg-Vorpommern"}},{"name":"Zum Storchennest","postalCode":"16818","locality":"Märkisch Linden","municipality":{"key":"12068306","name":"Märkisch Linden","type":"Kreisangehörige_Gemeinde"},"district":{"key":"12068","name":"Ostprignitz-Ruppin","type":"Landkreis"},"federalState":{"key":"12","name":"Brandenburg"}},{"name":"Zum Teich","postalCode":"16818","locality":"Märkisch Linden","municipality":{"key":"12068306","name":"Märkisch Linden","type":"Kreisangehörige_Gemeinde"},"district":{"key":"12068","name":"Ostprignitz-Ruppin","type":"Landkreis"},"federalState":{"key":"12","name":"Brandenburg"}},{"name":"Zur Frauenwiese","postalCode":"64678","locality":"Lindenfels","municipality":{"key":"06431015","name":"Lindenfels, Stadt","type":"Stadt"},"district":{"key":"06431","name":"Bergstraße","type":"Landkreis"},"federalState":{"key":"06","name":"Hessen"}},{"name":"Zur Serr","postalCode":"55777","locality":"Fohren-Linden","municipality":{"key":"07134026","name":"Fohren-Linden","type":"Kreisangehörige_Gemeinde"},"district":{"key":"07134","name":"Birkenfeld","type":"Landkreis"},"federalState":{"key":"07","name":"Rheinland-Pfalz"}},{"name":"Zur Stege","postalCode":"16818","locality":"Märkisch Linden","municipality":{"key":"12068306","name":"Märkisch Linden","type":"Kreisangehörige_Gemeinde"},"district":{"key":"12068","name":"Ostprignitz-Ruppin","type":"Landkreis"},"federalState":{"key":"12","name":"Brandenburg"}},{"name":"Zweiter Geräumtweg","postalCode":"85664","locality":"Hohenlinden","municipality":{"key":"09175123","name":"Hohenlinden","type":"Kreisangehörige_Gemeinde"},"district":{"key":"09175","name":"Ebersberg","type":"Landkreis"},"federalState":{"key":"09","name":"Bayern"}},{"name":"Zwerch-Geräumt","postalCode":"85664","locality":"Hohenlinden","municipality":{"key":"09175123","name":"Hohenlinden","type":"Kreisangehörige_Gemeinde"},"district":{"key":"09175","name":"Ebersberg","type":"Landkreis"},"federalState":{"key":"09","name":"Bayern"}},{"name":"Über der Seife","postalCode":"35398","locality":"Gießen","municipality":{"key":"06531005","name":"Gießen, Universitätsstadt","type":"Stadt"},"district":{"key":"06531","name":"Gießen","type":"Landkreis"},"federalState":{"key":"06","name":"Hessen"}},]