[{"name":"Alt Reddevitz","postalCode":"18586","locality":"Mönchgut","municipality":{"key":"13073107","name":"Mönchgut, Ostseebad","type":"Kreisangehörige_Gemeinde"},"district":{"key":"13073","name":"Vorpommern-Rügen","type":"Landkreis"},"federalState":{"key":"13","name":"Mecklenburg-Vorpommern"}},{"name":"Am Hafen","postalCode":"18586","locality":"Mönchgut","municipality":{"key":"13073107","name":"Mönchgut, Ostseebad","type":"Kreisangehörige_Gemeinde"},"district":{"key":"13073","name":"Vorpommern-Rügen","type":"Landkreis"},"federalState":{"key":"13","name":"Mecklenburg-Vorpommern"}},{"name":"Am Strandpark","postalCode":"18586","locality":"Mönchgut","municipality":{"key":"13073107","name":"Mönchgut, Ostseebad","type":"Kreisangehörige_Gemeinde"},"district":{"key":"13073","name":"Vorpommern-Rügen","type":"Landkreis"},"federalState":{"key":"13","name":"Mecklenburg-Vorpommern"}},{"name":"Boddenstr.","postalCode":"18586","locality":"Mönchgut","municipality":{"key":"13073107","name":"Mönchgut, Ostseebad","type":"Kreisangehörige_Gemeinde"},"district":{"key":"13073","name":"Vorpommern-Rügen","type":"Landkreis"},"federalState":{"key":"13","name":"Mecklenburg-Vorpommern"}},{"name":"Campingplatz","postalCode":"18586","locality":"Mönchgut","municipality":{"key":"13073107","name":"Mönchgut, Ostseebad","type":"Kreisangehörige_Gemeinde"},"district":{"key":"13073","name":"Vorpommern-Rügen","type":"Landkreis"},"federalState":{"key":"13","name":"Mecklenburg-Vorpommern"}},{"name":"Dampferweg","postalCode":"18586","locality":"Mönchgut","municipality":{"key":"13073107","name":"Mönchgut, Ostseebad","type":"Kreisangehörige_Gemeinde"},"district":{"key":"13073","name":"Vorpommern-Rügen","type":"Landkreis"},"federalState":{"key":"13","name":"Mecklenburg-Vorpommern"}},{"name":"De Gang","postalCode":"18586","locality":"Mönchgut","municipality":{"key":"13073107","name":"Mönchgut, Ostseebad","type":"Kreisangehörige_Gemeinde"},"district":{"key":"13073","name":"Vorpommern-Rügen","type":"Landkreis"},"federalState":{"key":"13","name":"Mecklenburg-Vorpommern"}},{"name":"De niege Wech","postalCode":"18586","locality":"Mönchgut","municipality":{"key":"13073107","name":"Mönchgut, Ostseebad","type":"Kreisangehörige_Gemeinde"},"district":{"key":"13073","name":"Vorpommern-Rügen","type":"Landkreis"},"federalState":{"key":"13","name":"Mecklenburg-Vorpommern"}},{"name":"Dorfstr.","postalCode":"18586","locality":"Mönchgut","municipality":{"key":"13073107","name":"Mönchgut, Ostseebad","type":"Kreisangehörige_Gemeinde"},"district":{"key":"13073","name":"Vorpommern-Rügen","type":"Landkreis"},"federalState":{"key":"13","name":"Mecklenburg-Vorpommern"}},{"name":"Dörpstrat","postalCode":"18586","locality":"Mönchgut","municipality":{"key":"13073107","name":"Mönchgut, Ostseebad","type":"Kreisangehörige_Gemeinde"},"district":{"key":"13073","name":"Vorpommern-Rügen","type":"Landkreis"},"federalState":{"key":"13","name":"Mecklenburg-Vorpommern"}},{"name":"Fußweg Dünenvilla Sommerhaus","postalCode":"18586","locality":"Mönchgut","municipality":{"key":"13073107","name":"Mönchgut, Ostseebad","type":"Kreisangehörige_Gemeinde"},"district":{"key":"13073","name":"Vorpommern-Rügen","type":"Landkreis"},"federalState":{"key":"13","name":"Mecklenburg-Vorpommern"}},{"name":"Göhrener Weg","postalCode":"18586","locality":"Mönchgut","municipality":{"key":"13073107","name":"Mönchgut, Ostseebad","type":"Kreisangehörige_Gemeinde"},"district":{"key":"13073","name":"Vorpommern-Rügen","type":"Landkreis"},"federalState":{"key":"13","name":"Mecklenburg-Vorpommern"}},{"name":"Hauptstr.","postalCode":"18586","locality":"Mönchgut","municipality":{"key":"13073107","name":"Mönchgut, Ostseebad","type":"Kreisangehörige_Gemeinde"},"district":{"key":"13073","name":"Vorpommern-Rügen","type":"Landkreis"},"federalState":{"key":"13","name":"Mecklenburg-Vorpommern"}},{"name":"Im Dünenwald","postalCode":"18586","locality":"Mönchgut","municipality":{"key":"13073107","name":"Mönchgut, Ostseebad","type":"Kreisangehörige_Gemeinde"},"district":{"key":"13073","name":"Vorpommern-Rügen","type":"Landkreis"},"federalState":{"key":"13","name":"Mecklenburg-Vorpommern"}},{"name":"Kurpark Thiesow","postalCode":"18586","locality":"Mönchgut","municipality":{"key":"13073107","name":"Mönchgut, Ostseebad","type":"Kreisangehörige_Gemeinde"},"district":{"key":"13073","name":"Vorpommern-Rügen","type":"Landkreis"},"federalState":{"key":"13","name":"Mecklenburg-Vorpommern"}},{"name":"Lobbe","postalCode":"18586","locality":"Mönchgut","municipality":{"key":"13073107","name":"Mönchgut, Ostseebad","type":"Kreisangehörige_Gemeinde"},"district":{"key":"13073","name":"Vorpommern-Rügen","type":"Landkreis"},"federalState":{"key":"13","name":"Mecklenburg-Vorpommern"}},{"name":"Mariendorf","postalCode":"18586","locality":"Mönchgut","municipality":{"key":"13073107","name":"Mönchgut, Ostseebad","type":"Kreisangehörige_Gemeinde"},"district":{"key":"13073","name":"Vorpommern-Rügen","type":"Landkreis"},"federalState":{"key":"13","name":"Mecklenburg-Vorpommern"}},{"name":"Norddeich","postalCode":"18586","locality":"Mönchgut","municipality":{"key":"13073107","name":"Mönchgut, Ostseebad","type":"Kreisangehörige_Gemeinde"},"district":{"key":"13073","name":"Vorpommern-Rügen","type":"Landkreis"},"federalState":{"key":"13","name":"Mecklenburg-Vorpommern"}},{"name":"Ortskern","postalCode":"18586","locality":"Mönchgut","municipality":{"key":"13073107","name":"Mönchgut, Ostseebad","type":"Kreisangehörige_Gemeinde"},"district":{"key":"13073","name":"Vorpommern-Rügen","type":"Landkreis"},"federalState":{"key":"13","name":"Mecklenburg-Vorpommern"}},{"name":"Rotdornweg","postalCode":"18586","locality":"Mönchgut","municipality":{"key":"13073107","name":"Mönchgut, Ostseebad","type":"Kreisangehörige_Gemeinde"},"district":{"key":"13073","name":"Vorpommern-Rügen","type":"Landkreis"},"federalState":{"key":"13","name":"Mecklenburg-Vorpommern"}},{"name":"Siedlerweg","postalCode":"18586","locality":"Mönchgut","municipality":{"key":"13073107","name":"Mönchgut, Ostseebad","type":"Kreisangehörige_Gemeinde"},"district":{"key":"13073","name":"Vorpommern-Rügen","type":"Landkreis"},"federalState":{"key":"13","name":"Mecklenburg-Vorpommern"}},{"name":"Strandpromenade","postalCode":"18586","locality":"Mönchgut","municipality":{"key":"13073107","name":"Mönchgut, Ostseebad","type":"Kreisangehörige_Gemeinde"},"district":{"key":"13073","name":"Vorpommern-Rügen","type":"Landkreis"},"federalState":{"key":"13","name":"Mecklenburg-Vorpommern"}},{"name":"Strandstr.","postalCode":"18586","locality":"Mönchgut","municipality":{"key":"13073107","name":"Mönchgut, Ostseebad","type":"Kreisangehörige_Gemeinde"},"district":{"key":"13073","name":"Vorpommern-Rügen","type":"Landkreis"},"federalState":{"key":"13","name":"Mecklenburg-Vorpommern"}},{"name":"Strandzugang","postalCode":"18586","locality":"Mönchgut","municipality":{"key":"13073107","name":"Mönchgut, Ostseebad","type":"Kreisangehörige_Gemeinde"},"district":{"key":"13073","name":"Vorpommern-Rügen","type":"Landkreis"},"federalState":{"key":"13","name":"Mecklenburg-Vorpommern"}},{"name":"Südperdweg","postalCode":"18586","locality":"Mönchgut","municipality":{"key":"13073107","name":"Mönchgut, Ostseebad","type":"Kreisangehörige_Gemeinde"},"district":{"key":"13073","name":"Vorpommern-Rügen","type":"Landkreis"},"federalState":{"key":"13","name":"Mecklenburg-Vorpommern"}},{"name":"Utkiek","postalCode":"18586","locality":"Mönchgut","municipality":{"key":"13073107","name":"Mönchgut, Ostseebad","type":"Kreisangehörige_Gemeinde"},"district":{"key":"13073","name":"Vorpommern-Rügen","type":"Landkreis"},"federalState":{"key":"13","name":"Mecklenburg-Vorpommern"}},{"name":"Waldweg","postalCode":"18586","locality":"Mönchgut","municipality":{"key":"13073107","name":"Mönchgut, Ostseebad","type":"Kreisangehörige_Gemeinde"},"district":{"key":"13073","name":"Vorpommern-Rügen","type":"Landkreis"},"federalState":{"key":"13","name":"Mecklenburg-Vorpommern"}},{"name":"Zum Höft","postalCode":"18586","locality":"Mönchgut","municipality":{"key":"13073107","name":"Mönchgut, Ostseebad","type":"Kreisangehörige_Gemeinde"},"district":{"key":"13073","name":"Vorpommern-Rügen","type":"Landkreis"},"federalState":{"key":"13","name":"Mecklenburg-Vorpommern"}},{"name":"Zum See","postalCode":"18586","locality":"Mönchgut","municipality":{"key":"13073107","name":"Mönchgut, Ostseebad","type":"Kreisangehörige_Gemeinde"},"district":{"key":"13073","name":"Vorpommern-Rügen","type":"Landkreis"},"federalState":{"key":"13","name":"Mecklenburg-Vorpommern"}},]