[{"name":"Ahornweg","postalCode":"57271","locality":"Hilchenbach","municipality":{"key":"05970020","name":"Hilchenbach, Stadt","type":"Stadt"},"district":{"key":"05970","name":"Siegen-Wittgenstein","type":"Kreis"},"federalState":{"key":"05","name":"Nordrhein-Westfalen"}},{"name":"Albert-Menn-Weg","postalCode":"57271","locality":"Hilchenbach","municipality":{"key":"05970020","name":"Hilchenbach, Stadt","type":"Stadt"},"district":{"key":"05970","name":"Siegen-Wittgenstein","type":"Kreis"},"federalState":{"key":"05","name":"Nordrhein-Westfalen"}},{"name":"Almenweg","postalCode":"57271","locality":"Hilchenbach","municipality":{"key":"05970020","name":"Hilchenbach, Stadt","type":"Stadt"},"district":{"key":"05970","name":"Siegen-Wittgenstein","type":"Kreis"},"federalState":{"key":"05","name":"Nordrhein-Westfalen"}},{"name":"Alte Erndtebrücker Landstr.","postalCode":"57271","locality":"Hilchenbach","municipality":{"key":"05970020","name":"Hilchenbach, Stadt","type":"Stadt"},"district":{"key":"05970","name":"Siegen-Wittgenstein","type":"Kreis"},"federalState":{"key":"05","name":"Nordrhein-Westfalen"}},{"name":"Alte Landstr.","postalCode":"57271","locality":"Hilchenbach","municipality":{"key":"05970020","name":"Hilchenbach, Stadt","type":"Stadt"},"district":{"key":"05970","name":"Siegen-Wittgenstein","type":"Kreis"},"federalState":{"key":"05","name":"Nordrhein-Westfalen"}},{"name":"Am Alten Stahlbergschacht","postalCode":"57271","locality":"Hilchenbach","municipality":{"key":"05970020","name":"Hilchenbach, Stadt","type":"Stadt"},"district":{"key":"05970","name":"Siegen-Wittgenstein","type":"Kreis"},"federalState":{"key":"05","name":"Nordrhein-Westfalen"}},{"name":"Am Backes","postalCode":"57271","locality":"Hilchenbach","municipality":{"key":"05970020","name":"Hilchenbach, Stadt","type":"Stadt"},"district":{"key":"05970","name":"Siegen-Wittgenstein","type":"Kreis"},"federalState":{"key":"05","name":"Nordrhein-Westfalen"}},{"name":"Am Bocherich","postalCode":"57271","locality":"Hilchenbach","municipality":{"key":"05970020","name":"Hilchenbach, Stadt","type":"Stadt"},"district":{"key":"05970","name":"Siegen-Wittgenstein","type":"Kreis"},"federalState":{"key":"05","name":"Nordrhein-Westfalen"}},{"name":"Am Bühl","postalCode":"57271","locality":"Hilchenbach","municipality":{"key":"05970020","name":"Hilchenbach, Stadt","type":"Stadt"},"district":{"key":"05970","name":"Siegen-Wittgenstein","type":"Kreis"},"federalState":{"key":"05","name":"Nordrhein-Westfalen"}},{"name":"Am Bühlberg","postalCode":"57271","locality":"Hilchenbach","municipality":{"key":"05970020","name":"Hilchenbach, Stadt","type":"Stadt"},"district":{"key":"05970","name":"Siegen-Wittgenstein","type":"Kreis"},"federalState":{"key":"05","name":"Nordrhein-Westfalen"}},{"name":"Am Egelsbruch","postalCode":"57271","locality":"Hilchenbach","municipality":{"key":"05970020","name":"Hilchenbach, Stadt","type":"Stadt"},"district":{"key":"05970","name":"Siegen-Wittgenstein","type":"Kreis"},"federalState":{"key":"05","name":"Nordrhein-Westfalen"}},{"name":"Am Elme","postalCode":"57271","locality":"Hilchenbach","municipality":{"key":"05970020","name":"Hilchenbach, Stadt","type":"Stadt"},"district":{"key":"05970","name":"Siegen-Wittgenstein","type":"Kreis"},"federalState":{"key":"05","name":"Nordrhein-Westfalen"}},{"name":"Am Fröbbel","postalCode":"57271","locality":"Hilchenbach","municipality":{"key":"05970020","name":"Hilchenbach, Stadt","type":"Stadt"},"district":{"key":"05970","name":"Siegen-Wittgenstein","type":"Kreis"},"federalState":{"key":"05","name":"Nordrhein-Westfalen"}},{"name":"Am Galgenberg","postalCode":"57271","locality":"Hilchenbach","municipality":{"key":"05970020","name":"Hilchenbach, Stadt","type":"Stadt"},"district":{"key":"05970","name":"Siegen-Wittgenstein","type":"Kreis"},"federalState":{"key":"05","name":"Nordrhein-Westfalen"}},{"name":"Am Herrnberg","postalCode":"57271","locality":"Hilchenbach","municipality":{"key":"05970020","name":"Hilchenbach, Stadt","type":"Stadt"},"district":{"key":"05970","name":"Siegen-Wittgenstein","type":"Kreis"},"federalState":{"key":"05","name":"Nordrhein-Westfalen"}},{"name":"Am Höchsten","postalCode":"57271","locality":"Hilchenbach","municipality":{"key":"05970020","name":"Hilchenbach, Stadt","type":"Stadt"},"district":{"key":"05970","name":"Siegen-Wittgenstein","type":"Kreis"},"federalState":{"key":"05","name":"Nordrhein-Westfalen"}},{"name":"Am Hofacker","postalCode":"57271","locality":"Hilchenbach","municipality":{"key":"05970020","name":"Hilchenbach, Stadt","type":"Stadt"},"district":{"key":"05970","name":"Siegen-Wittgenstein","type":"Kreis"},"federalState":{"key":"05","name":"Nordrhein-Westfalen"}},{"name":"Am Kampen","postalCode":"57271","locality":"Hilchenbach","municipality":{"key":"05970020","name":"Hilchenbach, Stadt","type":"Stadt"},"district":{"key":"05970","name":"Siegen-Wittgenstein","type":"Kreis"},"federalState":{"key":"05","name":"Nordrhein-Westfalen"}},{"name":"Am Langenstück","postalCode":"57271","locality":"Hilchenbach","municipality":{"key":"05970020","name":"Hilchenbach, Stadt","type":"Stadt"},"district":{"key":"05970","name":"Siegen-Wittgenstein","type":"Kreis"},"federalState":{"key":"05","name":"Nordrhein-Westfalen"}},{"name":"Am Lohberg","postalCode":"57271","locality":"Hilchenbach","municipality":{"key":"05970020","name":"Hilchenbach, Stadt","type":"Stadt"},"district":{"key":"05970","name":"Siegen-Wittgenstein","type":"Kreis"},"federalState":{"key":"05","name":"Nordrhein-Westfalen"}},{"name":"Am Loher Wald","postalCode":"57271","locality":"Hilchenbach","municipality":{"key":"05970020","name":"Hilchenbach, Stadt","type":"Stadt"},"district":{"key":"05970","name":"Siegen-Wittgenstein","type":"Kreis"},"federalState":{"key":"05","name":"Nordrhein-Westfalen"}},{"name":"Am Lützelbach","postalCode":"57271","locality":"Hilchenbach","municipality":{"key":"05970020","name":"Hilchenbach, Stadt","type":"Stadt"},"district":{"key":"05970","name":"Siegen-Wittgenstein","type":"Kreis"},"federalState":{"key":"05","name":"Nordrhein-Westfalen"}},{"name":"Am Mückenberg","postalCode":"57271","locality":"Hilchenbach","municipality":{"key":"05970020","name":"Hilchenbach, Stadt","type":"Stadt"},"district":{"key":"05970","name":"Siegen-Wittgenstein","type":"Kreis"},"federalState":{"key":"05","name":"Nordrhein-Westfalen"}},{"name":"Am neuen Schacht","postalCode":"57271","locality":"Hilchenbach","municipality":{"key":"05970020","name":"Hilchenbach, Stadt","type":"Stadt"},"district":{"key":"05970","name":"Siegen-Wittgenstein","type":"Kreis"},"federalState":{"key":"05","name":"Nordrhein-Westfalen"}},{"name":"Am Neuen Schacht","postalCode":"57271","locality":"Hilchenbach","municipality":{"key":"05970020","name":"Hilchenbach, Stadt","type":"Stadt"},"district":{"key":"05970","name":"Siegen-Wittgenstein","type":"Kreis"},"federalState":{"key":"05","name":"Nordrhein-Westfalen"}},{"name":"Am Oberrain","postalCode":"57271","locality":"Hilchenbach","municipality":{"key":"05970020","name":"Hilchenbach, Stadt","type":"Stadt"},"district":{"key":"05970","name":"Siegen-Wittgenstein","type":"Kreis"},"federalState":{"key":"05","name":"Nordrhein-Westfalen"}},{"name":"Am Pfaffenhain","postalCode":"57271","locality":"Hilchenbach","municipality":{"key":"05970020","name":"Hilchenbach, Stadt","type":"Stadt"},"district":{"key":"05970","name":"Siegen-Wittgenstein","type":"Kreis"},"federalState":{"key":"05","name":"Nordrhein-Westfalen"}},{"name":"Am Preist","postalCode":"57271","locality":"Hilchenbach","municipality":{"key":"05970020","name":"Hilchenbach, Stadt","type":"Stadt"},"district":{"key":"05970","name":"Siegen-Wittgenstein","type":"Kreis"},"federalState":{"key":"05","name":"Nordrhein-Westfalen"}},{"name":"Am Rauhen Berg","postalCode":"57271","locality":"Hilchenbach","municipality":{"key":"05970020","name":"Hilchenbach, Stadt","type":"Stadt"},"district":{"key":"05970","name":"Siegen-Wittgenstein","type":"Kreis"},"federalState":{"key":"05","name":"Nordrhein-Westfalen"}},{"name":"Am Rösberg","postalCode":"57271","locality":"Hilchenbach","municipality":{"key":"05970020","name":"Hilchenbach, Stadt","type":"Stadt"},"district":{"key":"05970","name":"Siegen-Wittgenstein","type":"Kreis"},"federalState":{"key":"05","name":"Nordrhein-Westfalen"}},{"name":"Am Rosenhof","postalCode":"57271","locality":"Hilchenbach","municipality":{"key":"05970020","name":"Hilchenbach, Stadt","type":"Stadt"},"district":{"key":"05970","name":"Siegen-Wittgenstein","type":"Kreis"},"federalState":{"key":"05","name":"Nordrhein-Westfalen"}},{"name":"Am Schüttelberg","postalCode":"57271","locality":"Hilchenbach","municipality":{"key":"05970020","name":"Hilchenbach, Stadt","type":"Stadt"},"district":{"key":"05970","name":"Siegen-Wittgenstein","type":"Kreis"},"federalState":{"key":"05","name":"Nordrhein-Westfalen"}},{"name":"Am Schwanenweiher","postalCode":"57271","locality":"Hilchenbach","municipality":{"key":"05970020","name":"Hilchenbach, Stadt","type":"Stadt"},"district":{"key":"05970","name":"Siegen-Wittgenstein","type":"Kreis"},"federalState":{"key":"05","name":"Nordrhein-Westfalen"}},{"name":"Amselweg","postalCode":"57271","locality":"Hilchenbach","municipality":{"key":"05970020","name":"Hilchenbach, Stadt","type":"Stadt"},"district":{"key":"05970","name":"Siegen-Wittgenstein","type":"Kreis"},"federalState":{"key":"05","name":"Nordrhein-Westfalen"}},{"name":"Am Sonnenhang","postalCode":"57271","locality":"Hilchenbach","municipality":{"key":"05970020","name":"Hilchenbach, Stadt","type":"Stadt"},"district":{"key":"05970","name":"Siegen-Wittgenstein","type":"Kreis"},"federalState":{"key":"05","name":"Nordrhein-Westfalen"}},{"name":"Am Steimel","postalCode":"57271","locality":"Hilchenbach","municipality":{"key":"05970020","name":"Hilchenbach, Stadt","type":"Stadt"},"district":{"key":"05970","name":"Siegen-Wittgenstein","type":"Kreis"},"federalState":{"key":"05","name":"Nordrhein-Westfalen"}},{"name":"Am Steinbruch","postalCode":"57271","locality":"Hilchenbach","municipality":{"key":"05970020","name":"Hilchenbach, Stadt","type":"Stadt"},"district":{"key":"05970","name":"Siegen-Wittgenstein","type":"Kreis"},"federalState":{"key":"05","name":"Nordrhein-Westfalen"}},{"name":"Am Wäschebach","postalCode":"57271","locality":"Hilchenbach","municipality":{"key":"05970020","name":"Hilchenbach, Stadt","type":"Stadt"},"district":{"key":"05970","name":"Siegen-Wittgenstein","type":"Kreis"},"federalState":{"key":"05","name":"Nordrhein-Westfalen"}},{"name":"Am Wieserweg","postalCode":"57271","locality":"Hilchenbach","municipality":{"key":"05970020","name":"Hilchenbach, Stadt","type":"Stadt"},"district":{"key":"05970","name":"Siegen-Wittgenstein","type":"Kreis"},"federalState":{"key":"05","name":"Nordrhein-Westfalen"}},{"name":"Am Witschenberg","postalCode":"57271","locality":"Hilchenbach","municipality":{"key":"05970020","name":"Hilchenbach, Stadt","type":"Stadt"},"district":{"key":"05970","name":"Siegen-Wittgenstein","type":"Kreis"},"federalState":{"key":"05","name":"Nordrhein-Westfalen"}},{"name":"Am Zollposten","postalCode":"57271","locality":"Hilchenbach","municipality":{"key":"05970020","name":"Hilchenbach, Stadt","type":"Stadt"},"district":{"key":"05970","name":"Siegen-Wittgenstein","type":"Kreis"},"federalState":{"key":"05","name":"Nordrhein-Westfalen"}},{"name":"An den Weißen Steinen","postalCode":"57271","locality":"Hilchenbach","municipality":{"key":"05970020","name":"Hilchenbach, Stadt","type":"Stadt"},"district":{"key":"05970","name":"Siegen-Wittgenstein","type":"Kreis"},"federalState":{"key":"05","name":"Nordrhein-Westfalen"}},{"name":"An der Erzwäsche","postalCode":"57271","locality":"Hilchenbach","municipality":{"key":"05970020","name":"Hilchenbach, Stadt","type":"Stadt"},"district":{"key":"05970","name":"Siegen-Wittgenstein","type":"Kreis"},"federalState":{"key":"05","name":"Nordrhein-Westfalen"}},{"name":"An der Ferndorf","postalCode":"57271","locality":"Hilchenbach","municipality":{"key":"05970020","name":"Hilchenbach, Stadt","type":"Stadt"},"district":{"key":"05970","name":"Siegen-Wittgenstein","type":"Kreis"},"federalState":{"key":"05","name":"Nordrhein-Westfalen"}},{"name":"An der Höh","postalCode":"57271","locality":"Hilchenbach","municipality":{"key":"05970020","name":"Hilchenbach, Stadt","type":"Stadt"},"district":{"key":"05970","name":"Siegen-Wittgenstein","type":"Kreis"},"federalState":{"key":"05","name":"Nordrhein-Westfalen"}},{"name":"An der Lohmühle","postalCode":"57271","locality":"Hilchenbach","municipality":{"key":"05970020","name":"Hilchenbach, Stadt","type":"Stadt"},"district":{"key":"05970","name":"Siegen-Wittgenstein","type":"Kreis"},"federalState":{"key":"05","name":"Nordrhein-Westfalen"}},{"name":"An der Sang","postalCode":"57271","locality":"Hilchenbach","municipality":{"key":"05970020","name":"Hilchenbach, Stadt","type":"Stadt"},"district":{"key":"05970","name":"Siegen-Wittgenstein","type":"Kreis"},"federalState":{"key":"05","name":"Nordrhein-Westfalen"}},{"name":"An der Steinkuhl","postalCode":"57271","locality":"Hilchenbach","municipality":{"key":"05970020","name":"Hilchenbach, Stadt","type":"Stadt"},"district":{"key":"05970","name":"Siegen-Wittgenstein","type":"Kreis"},"federalState":{"key":"05","name":"Nordrhein-Westfalen"}},{"name":"An der Stern","postalCode":"57271","locality":"Hilchenbach","municipality":{"key":"05970020","name":"Hilchenbach, Stadt","type":"Stadt"},"district":{"key":"05970","name":"Siegen-Wittgenstein","type":"Kreis"},"federalState":{"key":"05","name":"Nordrhein-Westfalen"}},{"name":"An der Wilhelmsburg","postalCode":"57271","locality":"Hilchenbach","municipality":{"key":"05970020","name":"Hilchenbach, Stadt","type":"Stadt"},"district":{"key":"05970","name":"Siegen-Wittgenstein","type":"Kreis"},"federalState":{"key":"05","name":"Nordrhein-Westfalen"}},{"name":"Bahnhofstr.","postalCode":"57271","locality":"Hilchenbach","municipality":{"key":"05970020","name":"Hilchenbach, Stadt","type":"Stadt"},"district":{"key":"05970","name":"Siegen-Wittgenstein","type":"Kreis"},"federalState":{"key":"05","name":"Nordrhein-Westfalen"}},{"name":"Baume Ecke","postalCode":"57271","locality":"Hilchenbach","municipality":{"key":"05970020","name":"Hilchenbach, Stadt","type":"Stadt"},"district":{"key":"05970","name":"Siegen-Wittgenstein","type":"Kreis"},"federalState":{"key":"05","name":"Nordrhein-Westfalen"}},{"name":"Beethovenstr.","postalCode":"57271","locality":"Hilchenbach","municipality":{"key":"05970020","name":"Hilchenbach, Stadt","type":"Stadt"},"district":{"key":"05970","name":"Siegen-Wittgenstein","type":"Kreis"},"federalState":{"key":"05","name":"Nordrhein-Westfalen"}},{"name":"Berglichter Weg","postalCode":"57271","locality":"Hilchenbach","municipality":{"key":"05970020","name":"Hilchenbach, Stadt","type":"Stadt"},"district":{"key":"05970","name":"Siegen-Wittgenstein","type":"Kreis"},"federalState":{"key":"05","name":"Nordrhein-Westfalen"}},{"name":"Bergstr.","postalCode":"57271","locality":"Hilchenbach","municipality":{"key":"05970020","name":"Hilchenbach, Stadt","type":"Stadt"},"district":{"key":"05970","name":"Siegen-Wittgenstein","type":"Kreis"},"federalState":{"key":"05","name":"Nordrhein-Westfalen"}},{"name":"Berliner Str.","postalCode":"57271","locality":"Hilchenbach","municipality":{"key":"05970020","name":"Hilchenbach, Stadt","type":"Stadt"},"district":{"key":"05970","name":"Siegen-Wittgenstein","type":"Kreis"},"federalState":{"key":"05","name":"Nordrhein-Westfalen"}},{"name":"Bernhard-Weiss-Platz","postalCode":"57271","locality":"Hilchenbach","municipality":{"key":"05970020","name":"Hilchenbach, Stadt","type":"Stadt"},"district":{"key":"05970","name":"Siegen-Wittgenstein","type":"Kreis"},"federalState":{"key":"05","name":"Nordrhein-Westfalen"}},{"name":"Birkenweg","postalCode":"57271","locality":"Hilchenbach","municipality":{"key":"05970020","name":"Hilchenbach, Stadt","type":"Stadt"},"district":{"key":"05970","name":"Siegen-Wittgenstein","type":"Kreis"},"federalState":{"key":"05","name":"Nordrhein-Westfalen"}},{"name":"Brachthäuser Str.","postalCode":"57271","locality":"Hilchenbach","municipality":{"key":"05970020","name":"Hilchenbach, Stadt","type":"Stadt"},"district":{"key":"05970","name":"Siegen-Wittgenstein","type":"Kreis"},"federalState":{"key":"05","name":"Nordrhein-Westfalen"}},{"name":"Breitenbacher Str.","postalCode":"57271","locality":"Hilchenbach","municipality":{"key":"05970020","name":"Hilchenbach, Stadt","type":"Stadt"},"district":{"key":"05970","name":"Siegen-Wittgenstein","type":"Kreis"},"federalState":{"key":"05","name":"Nordrhein-Westfalen"}},{"name":"Breslauer Weg","postalCode":"57271","locality":"Hilchenbach","municipality":{"key":"05970020","name":"Hilchenbach, Stadt","type":"Stadt"},"district":{"key":"05970","name":"Siegen-Wittgenstein","type":"Kreis"},"federalState":{"key":"05","name":"Nordrhein-Westfalen"}},{"name":"Brücherwiese","postalCode":"57271","locality":"Hilchenbach","municipality":{"key":"05970020","name":"Hilchenbach, Stadt","type":"Stadt"},"district":{"key":"05970","name":"Siegen-Wittgenstein","type":"Kreis"},"federalState":{"key":"05","name":"Nordrhein-Westfalen"}},{"name":"Bruchstr.","postalCode":"57271","locality":"Hilchenbach","municipality":{"key":"05970020","name":"Hilchenbach, Stadt","type":"Stadt"},"district":{"key":"05970","name":"Siegen-Wittgenstein","type":"Kreis"},"federalState":{"key":"05","name":"Nordrhein-Westfalen"}},{"name":"Brückenstr.","postalCode":"57271","locality":"Hilchenbach","municipality":{"key":"05970020","name":"Hilchenbach, Stadt","type":"Stadt"},"district":{"key":"05970","name":"Siegen-Wittgenstein","type":"Kreis"},"federalState":{"key":"05","name":"Nordrhein-Westfalen"}},{"name":"Brunnenstr.","postalCode":"57271","locality":"Hilchenbach","municipality":{"key":"05970020","name":"Hilchenbach, Stadt","type":"Stadt"},"district":{"key":"05970","name":"Siegen-Wittgenstein","type":"Kreis"},"federalState":{"key":"05","name":"Nordrhein-Westfalen"}},{"name":"Buchenhain","postalCode":"57271","locality":"Hilchenbach","municipality":{"key":"05970020","name":"Hilchenbach, Stadt","type":"Stadt"},"district":{"key":"05970","name":"Siegen-Wittgenstein","type":"Kreis"},"federalState":{"key":"05","name":"Nordrhein-Westfalen"}},{"name":"Buchenweg","postalCode":"57271","locality":"Hilchenbach","municipality":{"key":"05970020","name":"Hilchenbach, Stadt","type":"Stadt"},"district":{"key":"05970","name":"Siegen-Wittgenstein","type":"Kreis"},"federalState":{"key":"05","name":"Nordrhein-Westfalen"}},{"name":"Carl-Kraemer-Weg","postalCode":"57271","locality":"Hilchenbach","municipality":{"key":"05970020","name":"Hilchenbach, Stadt","type":"Stadt"},"district":{"key":"05970","name":"Siegen-Wittgenstein","type":"Kreis"},"federalState":{"key":"05","name":"Nordrhein-Westfalen"}},{"name":"Carl-Kraus-Str.","postalCode":"57271","locality":"Hilchenbach","municipality":{"key":"05970020","name":"Hilchenbach, Stadt","type":"Stadt"},"district":{"key":"05970","name":"Siegen-Wittgenstein","type":"Kreis"},"federalState":{"key":"05","name":"Nordrhein-Westfalen"}},{"name":"Dammstr.","postalCode":"57271","locality":"Hilchenbach","municipality":{"key":"05970020","name":"Hilchenbach, Stadt","type":"Stadt"},"district":{"key":"05970","name":"Siegen-Wittgenstein","type":"Kreis"},"federalState":{"key":"05","name":"Nordrhein-Westfalen"}},{"name":"Dorfstr.","postalCode":"57271","locality":"Hilchenbach","municipality":{"key":"05970020","name":"Hilchenbach, Stadt","type":"Stadt"},"district":{"key":"05970","name":"Siegen-Wittgenstein","type":"Kreis"},"federalState":{"key":"05","name":"Nordrhein-Westfalen"}},{"name":"Dreifichtenweg","postalCode":"57271","locality":"Hilchenbach","municipality":{"key":"05970020","name":"Hilchenbach, Stadt","type":"Stadt"},"district":{"key":"05970","name":"Siegen-Wittgenstein","type":"Kreis"},"federalState":{"key":"05","name":"Nordrhein-Westfalen"}},{"name":"Dreisbachstr.","postalCode":"57271","locality":"Hilchenbach","municipality":{"key":"05970020","name":"Hilchenbach, Stadt","type":"Stadt"},"district":{"key":"05970","name":"Siegen-Wittgenstein","type":"Kreis"},"federalState":{"key":"05","name":"Nordrhein-Westfalen"}},{"name":"Driescher Seifen","postalCode":"57271","locality":"Hilchenbach","municipality":{"key":"05970020","name":"Hilchenbach, Stadt","type":"Stadt"},"district":{"key":"05970","name":"Siegen-Wittgenstein","type":"Kreis"},"federalState":{"key":"05","name":"Nordrhein-Westfalen"}},{"name":"Dr.-Moning-Str.","postalCode":"57271","locality":"Hilchenbach","municipality":{"key":"05970020","name":"Hilchenbach, Stadt","type":"Stadt"},"district":{"key":"05970","name":"Siegen-Wittgenstein","type":"Kreis"},"federalState":{"key":"05","name":"Nordrhein-Westfalen"}},{"name":"Drosselweg","postalCode":"57271","locality":"Hilchenbach","municipality":{"key":"05970020","name":"Hilchenbach, Stadt","type":"Stadt"},"district":{"key":"05970","name":"Siegen-Wittgenstein","type":"Kreis"},"federalState":{"key":"05","name":"Nordrhein-Westfalen"}},{"name":"Dürerstr.","postalCode":"57271","locality":"Hilchenbach","municipality":{"key":"05970020","name":"Hilchenbach, Stadt","type":"Stadt"},"district":{"key":"05970","name":"Siegen-Wittgenstein","type":"Kreis"},"federalState":{"key":"05","name":"Nordrhein-Westfalen"}},{"name":"Eberhard-Jung-Weg","postalCode":"57271","locality":"Hilchenbach","municipality":{"key":"05970020","name":"Hilchenbach, Stadt","type":"Stadt"},"district":{"key":"05970","name":"Siegen-Wittgenstein","type":"Kreis"},"federalState":{"key":"05","name":"Nordrhein-Westfalen"}},{"name":"Eckstr.","postalCode":"57271","locality":"Hilchenbach","municipality":{"key":"05970020","name":"Hilchenbach, Stadt","type":"Stadt"},"district":{"key":"05970","name":"Siegen-Wittgenstein","type":"Kreis"},"federalState":{"key":"05","name":"Nordrhein-Westfalen"}},{"name":"Eichendorffstr.","postalCode":"57271","locality":"Hilchenbach","municipality":{"key":"05970020","name":"Hilchenbach, Stadt","type":"Stadt"},"district":{"key":"05970","name":"Siegen-Wittgenstein","type":"Kreis"},"federalState":{"key":"05","name":"Nordrhein-Westfalen"}},{"name":"Eichenhof","postalCode":"57271","locality":"Hilchenbach","municipality":{"key":"05970020","name":"Hilchenbach, Stadt","type":"Stadt"},"district":{"key":"05970","name":"Siegen-Wittgenstein","type":"Kreis"},"federalState":{"key":"05","name":"Nordrhein-Westfalen"}},{"name":"Eichholz","postalCode":"57271","locality":"Hilchenbach","municipality":{"key":"05970020","name":"Hilchenbach, Stadt","type":"Stadt"},"district":{"key":"05970","name":"Siegen-Wittgenstein","type":"Kreis"},"federalState":{"key":"05","name":"Nordrhein-Westfalen"}},{"name":"Eisenstr.","postalCode":"57271","locality":"Hilchenbach","municipality":{"key":"05970020","name":"Hilchenbach, Stadt","type":"Stadt"},"district":{"key":"05970","name":"Siegen-Wittgenstein","type":"Kreis"},"federalState":{"key":"05","name":"Nordrhein-Westfalen"}},{"name":"Engelsweg","postalCode":"57271","locality":"Hilchenbach","municipality":{"key":"05970020","name":"Hilchenbach, Stadt","type":"Stadt"},"district":{"key":"05970","name":"Siegen-Wittgenstein","type":"Kreis"},"federalState":{"key":"05","name":"Nordrhein-Westfalen"}},{"name":"Erlenweg","postalCode":"57271","locality":"Hilchenbach","municipality":{"key":"05970020","name":"Hilchenbach, Stadt","type":"Stadt"},"district":{"key":"05970","name":"Siegen-Wittgenstein","type":"Kreis"},"federalState":{"key":"05","name":"Nordrhein-Westfalen"}},{"name":"Ernst-August-Platz","postalCode":"57271","locality":"Hilchenbach","municipality":{"key":"05970020","name":"Hilchenbach, Stadt","type":"Stadt"},"district":{"key":"05970","name":"Siegen-Wittgenstein","type":"Kreis"},"federalState":{"key":"05","name":"Nordrhein-Westfalen"}},{"name":"Feldstr.","postalCode":"57271","locality":"Hilchenbach","municipality":{"key":"05970020","name":"Hilchenbach, Stadt","type":"Stadt"},"district":{"key":"05970","name":"Siegen-Wittgenstein","type":"Kreis"},"federalState":{"key":"05","name":"Nordrhein-Westfalen"}},{"name":"Ferndorfstr.","postalCode":"57271","locality":"Hilchenbach","municipality":{"key":"05970020","name":"Hilchenbach, Stadt","type":"Stadt"},"district":{"key":"05970","name":"Siegen-Wittgenstein","type":"Kreis"},"federalState":{"key":"05","name":"Nordrhein-Westfalen"}},{"name":"Fichtenweg","postalCode":"57271","locality":"Hilchenbach","municipality":{"key":"05970020","name":"Hilchenbach, Stadt","type":"Stadt"},"district":{"key":"05970","name":"Siegen-Wittgenstein","type":"Kreis"},"federalState":{"key":"05","name":"Nordrhein-Westfalen"}},{"name":"Finkenweg","postalCode":"57271","locality":"Hilchenbach","municipality":{"key":"05970020","name":"Hilchenbach, Stadt","type":"Stadt"},"district":{"key":"05970","name":"Siegen-Wittgenstein","type":"Kreis"},"federalState":{"key":"05","name":"Nordrhein-Westfalen"}},{"name":"Flurstr.","postalCode":"57271","locality":"Hilchenbach","municipality":{"key":"05970020","name":"Hilchenbach, Stadt","type":"Stadt"},"district":{"key":"05970","name":"Siegen-Wittgenstein","type":"Kreis"},"federalState":{"key":"05","name":"Nordrhein-Westfalen"}},{"name":"Friedrich-Ebert-Str.","postalCode":"57271","locality":"Hilchenbach","municipality":{"key":"05970020","name":"Hilchenbach, Stadt","type":"Stadt"},"district":{"key":"05970","name":"Siegen-Wittgenstein","type":"Kreis"},"federalState":{"key":"05","name":"Nordrhein-Westfalen"}},{"name":"Gartenstr.","postalCode":"57271","locality":"Hilchenbach","municipality":{"key":"05970020","name":"Hilchenbach, Stadt","type":"Stadt"},"district":{"key":"05970","name":"Siegen-Wittgenstein","type":"Kreis"},"federalState":{"key":"05","name":"Nordrhein-Westfalen"}},{"name":"Gillerbergstr.","postalCode":"57271","locality":"Hilchenbach","municipality":{"key":"05970020","name":"Hilchenbach, Stadt","type":"Stadt"},"district":{"key":"05970","name":"Siegen-Wittgenstein","type":"Kreis"},"federalState":{"key":"05","name":"Nordrhein-Westfalen"}},{"name":"Ginsburgstr.","postalCode":"57271","locality":"Hilchenbach","municipality":{"key":"05970020","name":"Hilchenbach, Stadt","type":"Stadt"},"district":{"key":"05970","name":"Siegen-Wittgenstein","type":"Kreis"},"federalState":{"key":"05","name":"Nordrhein-Westfalen"}},{"name":"Ginsterweg","postalCode":"57271","locality":"Hilchenbach","municipality":{"key":"05970020","name":"Hilchenbach, Stadt","type":"Stadt"},"district":{"key":"05970","name":"Siegen-Wittgenstein","type":"Kreis"},"federalState":{"key":"05","name":"Nordrhein-Westfalen"}},{"name":"Glück-Auf-Str.","postalCode":"57271","locality":"Hilchenbach","municipality":{"key":"05970020","name":"Hilchenbach, Stadt","type":"Stadt"},"district":{"key":"05970","name":"Siegen-Wittgenstein","type":"Kreis"},"federalState":{"key":"05","name":"Nordrhein-Westfalen"}},{"name":"Goethestr.","postalCode":"57271","locality":"Hilchenbach","municipality":{"key":"05970020","name":"Hilchenbach, Stadt","type":"Stadt"},"district":{"key":"05970","name":"Siegen-Wittgenstein","type":"Kreis"},"federalState":{"key":"05","name":"Nordrhein-Westfalen"}},{"name":"Grunder Str.","postalCode":"57271","locality":"Hilchenbach","municipality":{"key":"05970020","name":"Hilchenbach, Stadt","type":"Stadt"},"district":{"key":"05970","name":"Siegen-Wittgenstein","type":"Kreis"},"federalState":{"key":"05","name":"Nordrhein-Westfalen"}},{"name":"Gurgelgäßchen","postalCode":"57271","locality":"Hilchenbach","municipality":{"key":"05970020","name":"Hilchenbach, Stadt","type":"Stadt"},"district":{"key":"05970","name":"Siegen-Wittgenstein","type":"Kreis"},"federalState":{"key":"05","name":"Nordrhein-Westfalen"}},{"name":"Haarhäuser Str.","postalCode":"57271","locality":"Hilchenbach","municipality":{"key":"05970020","name":"Hilchenbach, Stadt","type":"Stadt"},"district":{"key":"05970","name":"Siegen-Wittgenstein","type":"Kreis"},"federalState":{"key":"05","name":"Nordrhein-Westfalen"}},{"name":"Habenhain","postalCode":"57271","locality":"Hilchenbach","municipality":{"key":"05970020","name":"Hilchenbach, Stadt","type":"Stadt"},"district":{"key":"05970","name":"Siegen-Wittgenstein","type":"Kreis"},"federalState":{"key":"05","name":"Nordrhein-Westfalen"}},{"name":"Hainstr.","postalCode":"57271","locality":"Hilchenbach","municipality":{"key":"05970020","name":"Hilchenbach, Stadt","type":"Stadt"},"district":{"key":"05970","name":"Siegen-Wittgenstein","type":"Kreis"},"federalState":{"key":"05","name":"Nordrhein-Westfalen"}},{"name":"Haldenweg","postalCode":"57271","locality":"Hilchenbach","municipality":{"key":"05970020","name":"Hilchenbach, Stadt","type":"Stadt"},"district":{"key":"05970","name":"Siegen-Wittgenstein","type":"Kreis"},"federalState":{"key":"05","name":"Nordrhein-Westfalen"}},{"name":"Hauptstr.","postalCode":"57271","locality":"Hilchenbach","municipality":{"key":"05970020","name":"Hilchenbach, Stadt","type":"Stadt"},"district":{"key":"05970","name":"Siegen-Wittgenstein","type":"Kreis"},"federalState":{"key":"05","name":"Nordrhein-Westfalen"}},{"name":"Heinsberger Str.","postalCode":"57271","locality":"Hilchenbach","municipality":{"key":"05970020","name":"Hilchenbach, Stadt","type":"Stadt"},"district":{"key":"05970","name":"Siegen-Wittgenstein","type":"Kreis"},"federalState":{"key":"05","name":"Nordrhein-Westfalen"}},{"name":"Helberhäuser Weg","postalCode":"57271","locality":"Hilchenbach","municipality":{"key":"05970020","name":"Hilchenbach, Stadt","type":"Stadt"},"district":{"key":"05970","name":"Siegen-Wittgenstein","type":"Kreis"},"federalState":{"key":"05","name":"Nordrhein-Westfalen"}},{"name":"Hennerichs Ecke","postalCode":"57271","locality":"Hilchenbach","municipality":{"key":"05970020","name":"Hilchenbach, Stadt","type":"Stadt"},"district":{"key":"05970","name":"Siegen-Wittgenstein","type":"Kreis"},"federalState":{"key":"05","name":"Nordrhein-Westfalen"}},{"name":"Hermannstr.","postalCode":"57271","locality":"Hilchenbach","municipality":{"key":"05970020","name":"Hilchenbach, Stadt","type":"Stadt"},"district":{"key":"05970","name":"Siegen-Wittgenstein","type":"Kreis"},"federalState":{"key":"05","name":"Nordrhein-Westfalen"}},{"name":"Hilchenbacher Str.","postalCode":"57271","locality":"Hilchenbach","municipality":{"key":"05970020","name":"Hilchenbach, Stadt","type":"Stadt"},"district":{"key":"05970","name":"Siegen-Wittgenstein","type":"Kreis"},"federalState":{"key":"05","name":"Nordrhein-Westfalen"}},{"name":"Hillnhütter Str.","postalCode":"57271","locality":"Hilchenbach","municipality":{"key":"05970020","name":"Hilchenbach, Stadt","type":"Stadt"},"district":{"key":"05970","name":"Siegen-Wittgenstein","type":"Kreis"},"federalState":{"key":"05","name":"Nordrhein-Westfalen"}},{"name":"Hindenburgstr.","postalCode":"57271","locality":"Hilchenbach","municipality":{"key":"05970020","name":"Hilchenbach, Stadt","type":"Stadt"},"district":{"key":"05970","name":"Siegen-Wittgenstein","type":"Kreis"},"federalState":{"key":"05","name":"Nordrhein-Westfalen"}},{"name":"Hochstr.","postalCode":"57271","locality":"Hilchenbach","municipality":{"key":"05970020","name":"Hilchenbach, Stadt","type":"Stadt"},"district":{"key":"05970","name":"Siegen-Wittgenstein","type":"Kreis"},"federalState":{"key":"05","name":"Nordrhein-Westfalen"}},{"name":"Hochwaldstr.","postalCode":"57271","locality":"Hilchenbach","municipality":{"key":"05970020","name":"Hilchenbach, Stadt","type":"Stadt"},"district":{"key":"05970","name":"Siegen-Wittgenstein","type":"Kreis"},"federalState":{"key":"05","name":"Nordrhein-Westfalen"}},{"name":"Hof Buchen","postalCode":"57271","locality":"Hilchenbach","municipality":{"key":"05970020","name":"Hilchenbach, Stadt","type":"Stadt"},"district":{"key":"05970","name":"Siegen-Wittgenstein","type":"Kreis"},"federalState":{"key":"05","name":"Nordrhein-Westfalen"}},{"name":"Hof Ginsberg","postalCode":"57271","locality":"Hilchenbach","municipality":{"key":"05970020","name":"Hilchenbach, Stadt","type":"Stadt"},"district":{"key":"05970","name":"Siegen-Wittgenstein","type":"Kreis"},"federalState":{"key":"05","name":"Nordrhein-Westfalen"}},{"name":"Hof-Stöcken-Weg","postalCode":"57271","locality":"Hilchenbach","municipality":{"key":"05970020","name":"Hilchenbach, Stadt","type":"Stadt"},"district":{"key":"05970","name":"Siegen-Wittgenstein","type":"Kreis"},"federalState":{"key":"05","name":"Nordrhein-Westfalen"}},{"name":"Höhenweg","postalCode":"57271","locality":"Hilchenbach","municipality":{"key":"05970020","name":"Hilchenbach, Stadt","type":"Stadt"},"district":{"key":"05970","name":"Siegen-Wittgenstein","type":"Kreis"},"federalState":{"key":"05","name":"Nordrhein-Westfalen"}},{"name":"Hohler Weg","postalCode":"57271","locality":"Hilchenbach","municipality":{"key":"05970020","name":"Hilchenbach, Stadt","type":"Stadt"},"district":{"key":"05970","name":"Siegen-Wittgenstein","type":"Kreis"},"federalState":{"key":"05","name":"Nordrhein-Westfalen"}},{"name":"Hörbachstr.","postalCode":"57271","locality":"Hilchenbach","municipality":{"key":"05970020","name":"Hilchenbach, Stadt","type":"Stadt"},"district":{"key":"05970","name":"Siegen-Wittgenstein","type":"Kreis"},"federalState":{"key":"05","name":"Nordrhein-Westfalen"}},{"name":"Hubertusweg","postalCode":"57271","locality":"Hilchenbach","municipality":{"key":"05970020","name":"Hilchenbach, Stadt","type":"Stadt"},"district":{"key":"05970","name":"Siegen-Wittgenstein","type":"Kreis"},"federalState":{"key":"05","name":"Nordrhein-Westfalen"}},{"name":"Hüttenweg","postalCode":"57271","locality":"Hilchenbach","municipality":{"key":"05970020","name":"Hilchenbach, Stadt","type":"Stadt"},"district":{"key":"05970","name":"Siegen-Wittgenstein","type":"Kreis"},"federalState":{"key":"05","name":"Nordrhein-Westfalen"}},{"name":"Im Acker","postalCode":"57271","locality":"Hilchenbach","municipality":{"key":"05970020","name":"Hilchenbach, Stadt","type":"Stadt"},"district":{"key":"05970","name":"Siegen-Wittgenstein","type":"Kreis"},"federalState":{"key":"05","name":"Nordrhein-Westfalen"}},{"name":"Im Alten Bruch","postalCode":"57271","locality":"Hilchenbach","municipality":{"key":"05970020","name":"Hilchenbach, Stadt","type":"Stadt"},"district":{"key":"05970","name":"Siegen-Wittgenstein","type":"Kreis"},"federalState":{"key":"05","name":"Nordrhein-Westfalen"}},{"name":"Im Hänchen","postalCode":"57271","locality":"Hilchenbach","municipality":{"key":"05970020","name":"Hilchenbach, Stadt","type":"Stadt"},"district":{"key":"05970","name":"Siegen-Wittgenstein","type":"Kreis"},"federalState":{"key":"05","name":"Nordrhein-Westfalen"}},{"name":"Im Henkenhof","postalCode":"57271","locality":"Hilchenbach","municipality":{"key":"05970020","name":"Hilchenbach, Stadt","type":"Stadt"},"district":{"key":"05970","name":"Siegen-Wittgenstein","type":"Kreis"},"federalState":{"key":"05","name":"Nordrhein-Westfalen"}},{"name":"Im Holzbruch","postalCode":"57271","locality":"Hilchenbach","municipality":{"key":"05970020","name":"Hilchenbach, Stadt","type":"Stadt"},"district":{"key":"05970","name":"Siegen-Wittgenstein","type":"Kreis"},"federalState":{"key":"05","name":"Nordrhein-Westfalen"}},{"name":"Im Kurzen Seifen","postalCode":"57271","locality":"Hilchenbach","municipality":{"key":"05970020","name":"Hilchenbach, Stadt","type":"Stadt"},"district":{"key":"05970","name":"Siegen-Wittgenstein","type":"Kreis"},"federalState":{"key":"05","name":"Nordrhein-Westfalen"}},{"name":"Im Langen Feld","postalCode":"57271","locality":"Hilchenbach","municipality":{"key":"05970020","name":"Hilchenbach, Stadt","type":"Stadt"},"district":{"key":"05970","name":"Siegen-Wittgenstein","type":"Kreis"},"federalState":{"key":"05","name":"Nordrhein-Westfalen"}},{"name":"Im Oberen Marktfeld","postalCode":"57271","locality":"Hilchenbach","municipality":{"key":"05970020","name":"Hilchenbach, Stadt","type":"Stadt"},"district":{"key":"05970","name":"Siegen-Wittgenstein","type":"Kreis"},"federalState":{"key":"05","name":"Nordrhein-Westfalen"}},{"name":"Im Rauhen Seifen","postalCode":"57271","locality":"Hilchenbach","municipality":{"key":"05970020","name":"Hilchenbach, Stadt","type":"Stadt"},"district":{"key":"05970","name":"Siegen-Wittgenstein","type":"Kreis"},"federalState":{"key":"05","name":"Nordrhein-Westfalen"}},{"name":"Im Stillen Winkel","postalCode":"57271","locality":"Hilchenbach","municipality":{"key":"05970020","name":"Hilchenbach, Stadt","type":"Stadt"},"district":{"key":"05970","name":"Siegen-Wittgenstein","type":"Kreis"},"federalState":{"key":"05","name":"Nordrhein-Westfalen"}},{"name":"Im Unteren Marktfeld","postalCode":"57271","locality":"Hilchenbach","municipality":{"key":"05970020","name":"Hilchenbach, Stadt","type":"Stadt"},"district":{"key":"05970","name":"Siegen-Wittgenstein","type":"Kreis"},"federalState":{"key":"05","name":"Nordrhein-Westfalen"}},{"name":"Im Watzenseifen","postalCode":"57271","locality":"Hilchenbach","municipality":{"key":"05970020","name":"Hilchenbach, Stadt","type":"Stadt"},"district":{"key":"05970","name":"Siegen-Wittgenstein","type":"Kreis"},"federalState":{"key":"05","name":"Nordrhein-Westfalen"}},{"name":"In den Eichen","postalCode":"57271","locality":"Hilchenbach","municipality":{"key":"05970020","name":"Hilchenbach, Stadt","type":"Stadt"},"district":{"key":"05970","name":"Siegen-Wittgenstein","type":"Kreis"},"federalState":{"key":"05","name":"Nordrhein-Westfalen"}},{"name":"In den Kämpen","postalCode":"57271","locality":"Hilchenbach","municipality":{"key":"05970020","name":"Hilchenbach, Stadt","type":"Stadt"},"district":{"key":"05970","name":"Siegen-Wittgenstein","type":"Kreis"},"federalState":{"key":"05","name":"Nordrhein-Westfalen"}},{"name":"In der Allenbach","postalCode":"57271","locality":"Hilchenbach","municipality":{"key":"05970020","name":"Hilchenbach, Stadt","type":"Stadt"},"district":{"key":"05970","name":"Siegen-Wittgenstein","type":"Kreis"},"federalState":{"key":"05","name":"Nordrhein-Westfalen"}},{"name":"In der Aspe","postalCode":"57271","locality":"Hilchenbach","municipality":{"key":"05970020","name":"Hilchenbach, Stadt","type":"Stadt"},"district":{"key":"05970","name":"Siegen-Wittgenstein","type":"Kreis"},"federalState":{"key":"05","name":"Nordrhein-Westfalen"}},{"name":"In der Bäche","postalCode":"57271","locality":"Hilchenbach","municipality":{"key":"05970020","name":"Hilchenbach, Stadt","type":"Stadt"},"district":{"key":"05970","name":"Siegen-Wittgenstein","type":"Kreis"},"federalState":{"key":"05","name":"Nordrhein-Westfalen"}},{"name":"In der Dahl","postalCode":"57271","locality":"Hilchenbach","municipality":{"key":"05970020","name":"Hilchenbach, Stadt","type":"Stadt"},"district":{"key":"05970","name":"Siegen-Wittgenstein","type":"Kreis"},"federalState":{"key":"05","name":"Nordrhein-Westfalen"}},{"name":"In der Delle","postalCode":"57271","locality":"Hilchenbach","municipality":{"key":"05970020","name":"Hilchenbach, Stadt","type":"Stadt"},"district":{"key":"05970","name":"Siegen-Wittgenstein","type":"Kreis"},"federalState":{"key":"05","name":"Nordrhein-Westfalen"}},{"name":"In der Erzebach","postalCode":"57271","locality":"Hilchenbach","municipality":{"key":"05970020","name":"Hilchenbach, Stadt","type":"Stadt"},"district":{"key":"05970","name":"Siegen-Wittgenstein","type":"Kreis"},"federalState":{"key":"05","name":"Nordrhein-Westfalen"}},{"name":"In der Hasselsbach","postalCode":"57271","locality":"Hilchenbach","municipality":{"key":"05970020","name":"Hilchenbach, Stadt","type":"Stadt"},"district":{"key":"05970","name":"Siegen-Wittgenstein","type":"Kreis"},"federalState":{"key":"05","name":"Nordrhein-Westfalen"}},{"name":"In der Herrenwiese","postalCode":"57271","locality":"Hilchenbach","municipality":{"key":"05970020","name":"Hilchenbach, Stadt","type":"Stadt"},"district":{"key":"05970","name":"Siegen-Wittgenstein","type":"Kreis"},"federalState":{"key":"05","name":"Nordrhein-Westfalen"}},{"name":"In der Himbeerwiese","postalCode":"57271","locality":"Hilchenbach","municipality":{"key":"05970020","name":"Hilchenbach, Stadt","type":"Stadt"},"district":{"key":"05970","name":"Siegen-Wittgenstein","type":"Kreis"},"federalState":{"key":"05","name":"Nordrhein-Westfalen"}},{"name":"In der Mahlbach","postalCode":"57271","locality":"Hilchenbach","municipality":{"key":"05970020","name":"Hilchenbach, Stadt","type":"Stadt"},"district":{"key":"05970","name":"Siegen-Wittgenstein","type":"Kreis"},"federalState":{"key":"05","name":"Nordrhein-Westfalen"}},{"name":"In der Molzekuhl","postalCode":"57271","locality":"Hilchenbach","municipality":{"key":"05970020","name":"Hilchenbach, Stadt","type":"Stadt"},"district":{"key":"05970","name":"Siegen-Wittgenstein","type":"Kreis"},"federalState":{"key":"05","name":"Nordrhein-Westfalen"}},{"name":"In der Pächtwiese","postalCode":"57271","locality":"Hilchenbach","municipality":{"key":"05970020","name":"Hilchenbach, Stadt","type":"Stadt"},"district":{"key":"05970","name":"Siegen-Wittgenstein","type":"Kreis"},"federalState":{"key":"05","name":"Nordrhein-Westfalen"}},{"name":"In der Rembach","postalCode":"57271","locality":"Hilchenbach","municipality":{"key":"05970020","name":"Hilchenbach, Stadt","type":"Stadt"},"district":{"key":"05970","name":"Siegen-Wittgenstein","type":"Kreis"},"federalState":{"key":"05","name":"Nordrhein-Westfalen"}},{"name":"In der Tränke","postalCode":"57271","locality":"Hilchenbach","municipality":{"key":"05970020","name":"Hilchenbach, Stadt","type":"Stadt"},"district":{"key":"05970","name":"Siegen-Wittgenstein","type":"Kreis"},"federalState":{"key":"05","name":"Nordrhein-Westfalen"}},{"name":"In der Wiere","postalCode":"57271","locality":"Hilchenbach","municipality":{"key":"05970020","name":"Hilchenbach, Stadt","type":"Stadt"},"district":{"key":"05970","name":"Siegen-Wittgenstein","type":"Kreis"},"federalState":{"key":"05","name":"Nordrhein-Westfalen"}},{"name":"Jahnstr.","postalCode":"57271","locality":"Hilchenbach","municipality":{"key":"05970020","name":"Hilchenbach, Stadt","type":"Stadt"},"district":{"key":"05970","name":"Siegen-Wittgenstein","type":"Kreis"},"federalState":{"key":"05","name":"Nordrhein-Westfalen"}},{"name":"Jakobstr.","postalCode":"57271","locality":"Hilchenbach","municipality":{"key":"05970020","name":"Hilchenbach, Stadt","type":"Stadt"},"district":{"key":"05970","name":"Siegen-Wittgenstein","type":"Kreis"},"federalState":{"key":"05","name":"Nordrhein-Westfalen"}},{"name":"Jung-Stilling-Allee","postalCode":"57271","locality":"Hilchenbach","municipality":{"key":"05970020","name":"Hilchenbach, Stadt","type":"Stadt"},"district":{"key":"05970","name":"Siegen-Wittgenstein","type":"Kreis"},"federalState":{"key":"05","name":"Nordrhein-Westfalen"}},{"name":"Jung-Stilling-Str.","postalCode":"57271","locality":"Hilchenbach","municipality":{"key":"05970020","name":"Hilchenbach, Stadt","type":"Stadt"},"district":{"key":"05970","name":"Siegen-Wittgenstein","type":"Kreis"},"federalState":{"key":"05","name":"Nordrhein-Westfalen"}},{"name":"Kiefernweg","postalCode":"57271","locality":"Hilchenbach","municipality":{"key":"05970020","name":"Hilchenbach, Stadt","type":"Stadt"},"district":{"key":"05970","name":"Siegen-Wittgenstein","type":"Kreis"},"federalState":{"key":"05","name":"Nordrhein-Westfalen"}},{"name":"Kindelsbergstr.","postalCode":"57271","locality":"Hilchenbach","municipality":{"key":"05970020","name":"Hilchenbach, Stadt","type":"Stadt"},"district":{"key":"05970","name":"Siegen-Wittgenstein","type":"Kreis"},"federalState":{"key":"05","name":"Nordrhein-Westfalen"}},{"name":"Kirchstr.","postalCode":"57271","locality":"Hilchenbach","municipality":{"key":"05970020","name":"Hilchenbach, Stadt","type":"Stadt"},"district":{"key":"05970","name":"Siegen-Wittgenstein","type":"Kreis"},"federalState":{"key":"05","name":"Nordrhein-Westfalen"}},{"name":"Kirchweg","postalCode":"57271","locality":"Hilchenbach","municipality":{"key":"05970020","name":"Hilchenbach, Stadt","type":"Stadt"},"district":{"key":"05970","name":"Siegen-Wittgenstein","type":"Kreis"},"federalState":{"key":"05","name":"Nordrhein-Westfalen"}},{"name":"Königsberger Str.","postalCode":"57271","locality":"Hilchenbach","municipality":{"key":"05970020","name":"Hilchenbach, Stadt","type":"Stadt"},"district":{"key":"05970","name":"Siegen-Wittgenstein","type":"Kreis"},"federalState":{"key":"05","name":"Nordrhein-Westfalen"}},{"name":"Konrad-Adenauer-Str.","postalCode":"57271","locality":"Hilchenbach","municipality":{"key":"05970020","name":"Hilchenbach, Stadt","type":"Stadt"},"district":{"key":"05970","name":"Siegen-Wittgenstein","type":"Kreis"},"federalState":{"key":"05","name":"Nordrhein-Westfalen"}},{"name":"Krackertsberg","postalCode":"57271","locality":"Hilchenbach","municipality":{"key":"05970020","name":"Hilchenbach, Stadt","type":"Stadt"},"district":{"key":"05970","name":"Siegen-Wittgenstein","type":"Kreis"},"federalState":{"key":"05","name":"Nordrhein-Westfalen"}},{"name":"Kronprinzenstr.","postalCode":"57271","locality":"Hilchenbach","municipality":{"key":"05970020","name":"Hilchenbach, Stadt","type":"Stadt"},"district":{"key":"05970","name":"Siegen-Wittgenstein","type":"Kreis"},"federalState":{"key":"05","name":"Nordrhein-Westfalen"}},{"name":"Kürschnerweg","postalCode":"57271","locality":"Hilchenbach","municipality":{"key":"05970020","name":"Hilchenbach, Stadt","type":"Stadt"},"district":{"key":"05970","name":"Siegen-Wittgenstein","type":"Kreis"},"federalState":{"key":"05","name":"Nordrhein-Westfalen"}},{"name":"Kurt-Schumacher-Str.","postalCode":"57271","locality":"Hilchenbach","municipality":{"key":"05970020","name":"Hilchenbach, Stadt","type":"Stadt"},"district":{"key":"05970","name":"Siegen-Wittgenstein","type":"Kreis"},"federalState":{"key":"05","name":"Nordrhein-Westfalen"}},{"name":"Lärchenweg","postalCode":"57271","locality":"Hilchenbach","municipality":{"key":"05970020","name":"Hilchenbach, Stadt","type":"Stadt"},"district":{"key":"05970","name":"Siegen-Wittgenstein","type":"Kreis"},"federalState":{"key":"05","name":"Nordrhein-Westfalen"}},{"name":"Lindenstr.","postalCode":"57271","locality":"Hilchenbach","municipality":{"key":"05970020","name":"Hilchenbach, Stadt","type":"Stadt"},"district":{"key":"05970","name":"Siegen-Wittgenstein","type":"Kreis"},"federalState":{"key":"05","name":"Nordrhein-Westfalen"}},{"name":"Littfelder Str.","postalCode":"57271","locality":"Hilchenbach","municipality":{"key":"05970020","name":"Hilchenbach, Stadt","type":"Stadt"},"district":{"key":"05970","name":"Siegen-Wittgenstein","type":"Kreis"},"federalState":{"key":"05","name":"Nordrhein-Westfalen"}},{"name":"Löffelstr.","postalCode":"57271","locality":"Hilchenbach","municipality":{"key":"05970020","name":"Hilchenbach, Stadt","type":"Stadt"},"district":{"key":"05970","name":"Siegen-Wittgenstein","type":"Kreis"},"federalState":{"key":"05","name":"Nordrhein-Westfalen"}},{"name":"Ludwigsecker Weg","postalCode":"57271","locality":"Hilchenbach","municipality":{"key":"05970020","name":"Hilchenbach, Stadt","type":"Stadt"},"district":{"key":"05970","name":"Siegen-Wittgenstein","type":"Kreis"},"federalState":{"key":"05","name":"Nordrhein-Westfalen"}},{"name":"Marburger Str.","postalCode":"57271","locality":"Hilchenbach","municipality":{"key":"05970020","name":"Hilchenbach, Stadt","type":"Stadt"},"district":{"key":"05970","name":"Siegen-Wittgenstein","type":"Kreis"},"federalState":{"key":"05","name":"Nordrhein-Westfalen"}},{"name":"Markt","postalCode":"57271","locality":"Hilchenbach","municipality":{"key":"05970020","name":"Hilchenbach, Stadt","type":"Stadt"},"district":{"key":"05970","name":"Siegen-Wittgenstein","type":"Kreis"},"federalState":{"key":"05","name":"Nordrhein-Westfalen"}},{"name":"Marktfelder Gärten","postalCode":"57271","locality":"Hilchenbach","municipality":{"key":"05970020","name":"Hilchenbach, Stadt","type":"Stadt"},"district":{"key":"05970","name":"Siegen-Wittgenstein","type":"Kreis"},"federalState":{"key":"05","name":"Nordrhein-Westfalen"}},{"name":"Martinshardtstr.","postalCode":"57271","locality":"Hilchenbach","municipality":{"key":"05970020","name":"Hilchenbach, Stadt","type":"Stadt"},"district":{"key":"05970","name":"Siegen-Wittgenstein","type":"Kreis"},"federalState":{"key":"05","name":"Nordrhein-Westfalen"}},{"name":"Merdes Ecke","postalCode":"57271","locality":"Hilchenbach","municipality":{"key":"05970020","name":"Hilchenbach, Stadt","type":"Stadt"},"district":{"key":"05970","name":"Siegen-Wittgenstein","type":"Kreis"},"federalState":{"key":"05","name":"Nordrhein-Westfalen"}},{"name":"Merklinghäuser Weg","postalCode":"57271","locality":"Hilchenbach","municipality":{"key":"05970020","name":"Hilchenbach, Stadt","type":"Stadt"},"district":{"key":"05970","name":"Siegen-Wittgenstein","type":"Kreis"},"federalState":{"key":"05","name":"Nordrhein-Westfalen"}},{"name":"Mittelweg","postalCode":"57271","locality":"Hilchenbach","municipality":{"key":"05970020","name":"Hilchenbach, Stadt","type":"Stadt"},"district":{"key":"05970","name":"Siegen-Wittgenstein","type":"Kreis"},"federalState":{"key":"05","name":"Nordrhein-Westfalen"}},{"name":"Mozartstr.","postalCode":"57271","locality":"Hilchenbach","municipality":{"key":"05970020","name":"Hilchenbach, Stadt","type":"Stadt"},"district":{"key":"05970","name":"Siegen-Wittgenstein","type":"Kreis"},"federalState":{"key":"05","name":"Nordrhein-Westfalen"}},{"name":"Mühlenseifen","postalCode":"57271","locality":"Hilchenbach","municipality":{"key":"05970020","name":"Hilchenbach, Stadt","type":"Stadt"},"district":{"key":"05970","name":"Siegen-Wittgenstein","type":"Kreis"},"federalState":{"key":"05","name":"Nordrhein-Westfalen"}},{"name":"Mühlenweg","postalCode":"57271","locality":"Hilchenbach","municipality":{"key":"05970020","name":"Hilchenbach, Stadt","type":"Stadt"},"district":{"key":"05970","name":"Siegen-Wittgenstein","type":"Kreis"},"federalState":{"key":"05","name":"Nordrhein-Westfalen"}},{"name":"Müsener Bruch","postalCode":"57271","locality":"Hilchenbach","municipality":{"key":"05970020","name":"Hilchenbach, Stadt","type":"Stadt"},"district":{"key":"05970","name":"Siegen-Wittgenstein","type":"Kreis"},"federalState":{"key":"05","name":"Nordrhein-Westfalen"}},{"name":"Müsener Str.","postalCode":"57271","locality":"Hilchenbach","municipality":{"key":"05970020","name":"Hilchenbach, Stadt","type":"Stadt"},"district":{"key":"05970","name":"Siegen-Wittgenstein","type":"Kreis"},"federalState":{"key":"05","name":"Nordrhein-Westfalen"}},{"name":"Nassauische Str.","postalCode":"57271","locality":"Hilchenbach","municipality":{"key":"05970020","name":"Hilchenbach, Stadt","type":"Stadt"},"district":{"key":"05970","name":"Siegen-Wittgenstein","type":"Kreis"},"federalState":{"key":"05","name":"Nordrhein-Westfalen"}},{"name":"Neulohe","postalCode":"57271","locality":"Hilchenbach","municipality":{"key":"05970020","name":"Hilchenbach, Stadt","type":"Stadt"},"district":{"key":"05970","name":"Siegen-Wittgenstein","type":"Kreis"},"federalState":{"key":"05","name":"Nordrhein-Westfalen"}},{"name":"Neustr.","postalCode":"57271","locality":"Hilchenbach","municipality":{"key":"05970020","name":"Hilchenbach, Stadt","type":"Stadt"},"district":{"key":"05970","name":"Siegen-Wittgenstein","type":"Kreis"},"federalState":{"key":"05","name":"Nordrhein-Westfalen"}},{"name":"Noldestr.","postalCode":"57271","locality":"Hilchenbach","municipality":{"key":"05970020","name":"Hilchenbach, Stadt","type":"Stadt"},"district":{"key":"05970","name":"Siegen-Wittgenstein","type":"Kreis"},"federalState":{"key":"05","name":"Nordrhein-Westfalen"}},{"name":"Nordstr.","postalCode":"57271","locality":"Hilchenbach","municipality":{"key":"05970020","name":"Hilchenbach, Stadt","type":"Stadt"},"district":{"key":"05970","name":"Siegen-Wittgenstein","type":"Kreis"},"federalState":{"key":"05","name":"Nordrhein-Westfalen"}},{"name":"Obere Allenbach","postalCode":"57271","locality":"Hilchenbach","municipality":{"key":"05970020","name":"Hilchenbach, Stadt","type":"Stadt"},"district":{"key":"05970","name":"Siegen-Wittgenstein","type":"Kreis"},"federalState":{"key":"05","name":"Nordrhein-Westfalen"}},{"name":"Obere Hörbach","postalCode":"57271","locality":"Hilchenbach","municipality":{"key":"05970020","name":"Hilchenbach, Stadt","type":"Stadt"},"district":{"key":"05970","name":"Siegen-Wittgenstein","type":"Kreis"},"federalState":{"key":"05","name":"Nordrhein-Westfalen"}},{"name":"Obere Klappeiche","postalCode":"57271","locality":"Hilchenbach","municipality":{"key":"05970020","name":"Hilchenbach, Stadt","type":"Stadt"},"district":{"key":"05970","name":"Siegen-Wittgenstein","type":"Kreis"},"federalState":{"key":"05","name":"Nordrhein-Westfalen"}},{"name":"Oberer Eichhain","postalCode":"57271","locality":"Hilchenbach","municipality":{"key":"05970020","name":"Hilchenbach, Stadt","type":"Stadt"},"district":{"key":"05970","name":"Siegen-Wittgenstein","type":"Kreis"},"federalState":{"key":"05","name":"Nordrhein-Westfalen"}},{"name":"Oberer Kirchberg","postalCode":"57271","locality":"Hilchenbach","municipality":{"key":"05970020","name":"Hilchenbach, Stadt","type":"Stadt"},"district":{"key":"05970","name":"Siegen-Wittgenstein","type":"Kreis"},"federalState":{"key":"05","name":"Nordrhein-Westfalen"}},{"name":"Obere Schweisfurth","postalCode":"57271","locality":"Hilchenbach","municipality":{"key":"05970020","name":"Hilchenbach, Stadt","type":"Stadt"},"district":{"key":"05970","name":"Siegen-Wittgenstein","type":"Kreis"},"federalState":{"key":"05","name":"Nordrhein-Westfalen"}},{"name":"Oberstr.","postalCode":"57271","locality":"Hilchenbach","municipality":{"key":"05970020","name":"Hilchenbach, Stadt","type":"Stadt"},"district":{"key":"05970","name":"Siegen-Wittgenstein","type":"Kreis"},"federalState":{"key":"05","name":"Nordrhein-Westfalen"}},{"name":"Oranienstr.","postalCode":"57271","locality":"Hilchenbach","municipality":{"key":"05970020","name":"Hilchenbach, Stadt","type":"Stadt"},"district":{"key":"05970","name":"Siegen-Wittgenstein","type":"Kreis"},"federalState":{"key":"05","name":"Nordrhein-Westfalen"}},{"name":"Oststr.","postalCode":"57271","locality":"Hilchenbach","municipality":{"key":"05970020","name":"Hilchenbach, Stadt","type":"Stadt"},"district":{"key":"05970","name":"Siegen-Wittgenstein","type":"Kreis"},"federalState":{"key":"05","name":"Nordrhein-Westfalen"}},{"name":"Parkanlage des Richard Martin Haus","postalCode":"57271","locality":"Hilchenbach","municipality":{"key":"05970020","name":"Hilchenbach, Stadt","type":"Stadt"},"district":{"key":"05970","name":"Siegen-Wittgenstein","type":"Kreis"},"federalState":{"key":"05","name":"Nordrhein-Westfalen"}},{"name":"Patt","postalCode":"57271","locality":"Hilchenbach","municipality":{"key":"05970020","name":"Hilchenbach, Stadt","type":"Stadt"},"district":{"key":"05970","name":"Siegen-Wittgenstein","type":"Kreis"},"federalState":{"key":"05","name":"Nordrhein-Westfalen"}},{"name":"Poststr.","postalCode":"57271","locality":"Hilchenbach","municipality":{"key":"05970020","name":"Hilchenbach, Stadt","type":"Stadt"},"district":{"key":"05970","name":"Siegen-Wittgenstein","type":"Kreis"},"federalState":{"key":"05","name":"Nordrhein-Westfalen"}},{"name":"Pulvermühlenweg","postalCode":"57271","locality":"Hilchenbach","municipality":{"key":"05970020","name":"Hilchenbach, Stadt","type":"Stadt"},"district":{"key":"05970","name":"Siegen-Wittgenstein","type":"Kreis"},"federalState":{"key":"05","name":"Nordrhein-Westfalen"}},{"name":"Rittersbergstr.","postalCode":"57271","locality":"Hilchenbach","municipality":{"key":"05970020","name":"Hilchenbach, Stadt","type":"Stadt"},"district":{"key":"05970","name":"Siegen-Wittgenstein","type":"Kreis"},"federalState":{"key":"05","name":"Nordrhein-Westfalen"}},{"name":"Römmler Wiese","postalCode":"57271","locality":"Hilchenbach","municipality":{"key":"05970020","name":"Hilchenbach, Stadt","type":"Stadt"},"district":{"key":"05970","name":"Siegen-Wittgenstein","type":"Kreis"},"federalState":{"key":"05","name":"Nordrhein-Westfalen"}},{"name":"Rothaarsteig","postalCode":"57271","locality":"Hilchenbach","municipality":{"key":"05970020","name":"Hilchenbach, Stadt","type":"Stadt"},"district":{"key":"05970","name":"Siegen-Wittgenstein","type":"Kreis"},"federalState":{"key":"05","name":"Nordrhein-Westfalen"}},{"name":"Rothenberger Gärten","postalCode":"57271","locality":"Hilchenbach","municipality":{"key":"05970020","name":"Hilchenbach, Stadt","type":"Stadt"},"district":{"key":"05970","name":"Siegen-Wittgenstein","type":"Kreis"},"federalState":{"key":"05","name":"Nordrhein-Westfalen"}},{"name":"Rothenberger Str.","postalCode":"57271","locality":"Hilchenbach","municipality":{"key":"05970020","name":"Hilchenbach, Stadt","type":"Stadt"},"district":{"key":"05970","name":"Siegen-Wittgenstein","type":"Kreis"},"federalState":{"key":"05","name":"Nordrhein-Westfalen"}},{"name":"Ruinener Weg","postalCode":"57271","locality":"Hilchenbach","municipality":{"key":"05970020","name":"Hilchenbach, Stadt","type":"Stadt"},"district":{"key":"05970","name":"Siegen-Wittgenstein","type":"Kreis"},"federalState":{"key":"05","name":"Nordrhein-Westfalen"}},{"name":"Sankt-Friedrichs-Weg","postalCode":"57271","locality":"Hilchenbach","municipality":{"key":"05970020","name":"Hilchenbach, Stadt","type":"Stadt"},"district":{"key":"05970","name":"Siegen-Wittgenstein","type":"Kreis"},"federalState":{"key":"05","name":"Nordrhein-Westfalen"}},{"name":"Sankt-Veits-Weg","postalCode":"57271","locality":"Hilchenbach","municipality":{"key":"05970020","name":"Hilchenbach, Stadt","type":"Stadt"},"district":{"key":"05970","name":"Siegen-Wittgenstein","type":"Kreis"},"federalState":{"key":"05","name":"Nordrhein-Westfalen"}},{"name":"Schartenbergweg","postalCode":"57271","locality":"Hilchenbach","municipality":{"key":"05970020","name":"Hilchenbach, Stadt","type":"Stadt"},"district":{"key":"05970","name":"Siegen-Wittgenstein","type":"Kreis"},"federalState":{"key":"05","name":"Nordrhein-Westfalen"}},{"name":"Schleppbahn","postalCode":"57271","locality":"Hilchenbach","municipality":{"key":"05970020","name":"Hilchenbach, Stadt","type":"Stadt"},"district":{"key":"05970","name":"Siegen-Wittgenstein","type":"Kreis"},"federalState":{"key":"05","name":"Nordrhein-Westfalen"}},{"name":"Schloßberg","postalCode":"57271","locality":"Hilchenbach","municipality":{"key":"05970020","name":"Hilchenbach, Stadt","type":"Stadt"},"district":{"key":"05970","name":"Siegen-Wittgenstein","type":"Kreis"},"federalState":{"key":"05","name":"Nordrhein-Westfalen"}},{"name":"Schmeddeweg","postalCode":"57271","locality":"Hilchenbach","municipality":{"key":"05970020","name":"Hilchenbach, Stadt","type":"Stadt"},"district":{"key":"05970","name":"Siegen-Wittgenstein","type":"Kreis"},"federalState":{"key":"05","name":"Nordrhein-Westfalen"}},{"name":"Schmidtseifen","postalCode":"57271","locality":"Hilchenbach","municipality":{"key":"05970020","name":"Hilchenbach, Stadt","type":"Stadt"},"district":{"key":"05970","name":"Siegen-Wittgenstein","type":"Kreis"},"federalState":{"key":"05","name":"Nordrhein-Westfalen"}},{"name":"Schmiedeweg","postalCode":"57271","locality":"Hilchenbach","municipality":{"key":"05970020","name":"Hilchenbach, Stadt","type":"Stadt"},"district":{"key":"05970","name":"Siegen-Wittgenstein","type":"Kreis"},"federalState":{"key":"05","name":"Nordrhein-Westfalen"}},{"name":"Schotterweg","postalCode":"57271","locality":"Hilchenbach","municipality":{"key":"05970020","name":"Hilchenbach, Stadt","type":"Stadt"},"district":{"key":"05970","name":"Siegen-Wittgenstein","type":"Kreis"},"federalState":{"key":"05","name":"Nordrhein-Westfalen"}},{"name":"Schreiberg","postalCode":"57271","locality":"Hilchenbach","municipality":{"key":"05970020","name":"Hilchenbach, Stadt","type":"Stadt"},"district":{"key":"05970","name":"Siegen-Wittgenstein","type":"Kreis"},"federalState":{"key":"05","name":"Nordrhein-Westfalen"}},{"name":"Schulstr.","postalCode":"57271","locality":"Hilchenbach","municipality":{"key":"05970020","name":"Hilchenbach, Stadt","type":"Stadt"},"district":{"key":"05970","name":"Siegen-Wittgenstein","type":"Kreis"},"federalState":{"key":"05","name":"Nordrhein-Westfalen"}},{"name":"Schützenstr.","postalCode":"57271","locality":"Hilchenbach","municipality":{"key":"05970020","name":"Hilchenbach, Stadt","type":"Stadt"},"district":{"key":"05970","name":"Siegen-Wittgenstein","type":"Kreis"},"federalState":{"key":"05","name":"Nordrhein-Westfalen"}},{"name":"Schwabengrube","postalCode":"57271","locality":"Hilchenbach","municipality":{"key":"05970020","name":"Hilchenbach, Stadt","type":"Stadt"},"district":{"key":"05970","name":"Siegen-Wittgenstein","type":"Kreis"},"federalState":{"key":"05","name":"Nordrhein-Westfalen"}},{"name":"Seifenfeld","postalCode":"57271","locality":"Hilchenbach","municipality":{"key":"05970020","name":"Hilchenbach, Stadt","type":"Stadt"},"district":{"key":"05970","name":"Siegen-Wittgenstein","type":"Kreis"},"federalState":{"key":"05","name":"Nordrhein-Westfalen"}},{"name":"Seiffener Str.","postalCode":"57271","locality":"Hilchenbach","municipality":{"key":"05970020","name":"Hilchenbach, Stadt","type":"Stadt"},"district":{"key":"05970","name":"Siegen-Wittgenstein","type":"Kreis"},"federalState":{"key":"05","name":"Nordrhein-Westfalen"}},{"name":"Seminarweg","postalCode":"57271","locality":"Hilchenbach","municipality":{"key":"05970020","name":"Hilchenbach, Stadt","type":"Stadt"},"district":{"key":"05970","name":"Siegen-Wittgenstein","type":"Kreis"},"federalState":{"key":"05","name":"Nordrhein-Westfalen"}},{"name":"Siebelnhofer Str.","postalCode":"57271","locality":"Hilchenbach","municipality":{"key":"05970020","name":"Hilchenbach, Stadt","type":"Stadt"},"district":{"key":"05970","name":"Siegen-Wittgenstein","type":"Kreis"},"federalState":{"key":"05","name":"Nordrhein-Westfalen"}},{"name":"Sieben Eichen","postalCode":"57271","locality":"Hilchenbach","municipality":{"key":"05970020","name":"Hilchenbach, Stadt","type":"Stadt"},"district":{"key":"05970","name":"Siegen-Wittgenstein","type":"Kreis"},"federalState":{"key":"05","name":"Nordrhein-Westfalen"}},{"name":"Siedlung","postalCode":"57271","locality":"Hilchenbach","municipality":{"key":"05970020","name":"Hilchenbach, Stadt","type":"Stadt"},"district":{"key":"05970","name":"Siegen-Wittgenstein","type":"Kreis"},"federalState":{"key":"05","name":"Nordrhein-Westfalen"}},{"name":"Siegener Str.","postalCode":"57271","locality":"Hilchenbach","municipality":{"key":"05970020","name":"Hilchenbach, Stadt","type":"Stadt"},"district":{"key":"05970","name":"Siegen-Wittgenstein","type":"Kreis"},"federalState":{"key":"05","name":"Nordrhein-Westfalen"}},{"name":"Silberger Weg","postalCode":"57271","locality":"Hilchenbach","municipality":{"key":"05970020","name":"Hilchenbach, Stadt","type":"Stadt"},"district":{"key":"05970","name":"Siegen-Wittgenstein","type":"Kreis"},"federalState":{"key":"05","name":"Nordrhein-Westfalen"}},{"name":"Spandauer Str.","postalCode":"57271","locality":"Hilchenbach","municipality":{"key":"05970020","name":"Hilchenbach, Stadt","type":"Stadt"},"district":{"key":"05970","name":"Siegen-Wittgenstein","type":"Kreis"},"federalState":{"key":"05","name":"Nordrhein-Westfalen"}},{"name":"Stahlbergstr.","postalCode":"57271","locality":"Hilchenbach","municipality":{"key":"05970020","name":"Hilchenbach, Stadt","type":"Stadt"},"district":{"key":"05970","name":"Siegen-Wittgenstein","type":"Kreis"},"federalState":{"key":"05","name":"Nordrhein-Westfalen"}},{"name":"Starenweg","postalCode":"57271","locality":"Hilchenbach","municipality":{"key":"05970020","name":"Hilchenbach, Stadt","type":"Stadt"},"district":{"key":"05970","name":"Siegen-Wittgenstein","type":"Kreis"},"federalState":{"key":"05","name":"Nordrhein-Westfalen"}},{"name":"Steiler Weg","postalCode":"57271","locality":"Hilchenbach","municipality":{"key":"05970020","name":"Hilchenbach, Stadt","type":"Stadt"},"district":{"key":"05970","name":"Siegen-Wittgenstein","type":"Kreis"},"federalState":{"key":"05","name":"Nordrhein-Westfalen"}},{"name":"Steinweg","postalCode":"57271","locality":"Hilchenbach","municipality":{"key":"05970020","name":"Hilchenbach, Stadt","type":"Stadt"},"district":{"key":"05970","name":"Siegen-Wittgenstein","type":"Kreis"},"federalState":{"key":"05","name":"Nordrhein-Westfalen"}},{"name":"Sterzenbacher Str.","postalCode":"57271","locality":"Hilchenbach","municipality":{"key":"05970020","name":"Hilchenbach, Stadt","type":"Stadt"},"district":{"key":"05970","name":"Siegen-Wittgenstein","type":"Kreis"},"federalState":{"key":"05","name":"Nordrhein-Westfalen"}},{"name":"Stift-Keppel-Weg","postalCode":"57271","locality":"Hilchenbach","municipality":{"key":"05970020","name":"Hilchenbach, Stadt","type":"Stadt"},"district":{"key":"05970","name":"Siegen-Wittgenstein","type":"Kreis"},"federalState":{"key":"05","name":"Nordrhein-Westfalen"}},{"name":"Stockweg","postalCode":"57271","locality":"Hilchenbach","municipality":{"key":"05970020","name":"Hilchenbach, Stadt","type":"Stadt"},"district":{"key":"05970","name":"Siegen-Wittgenstein","type":"Kreis"},"federalState":{"key":"05","name":"Nordrhein-Westfalen"}},{"name":"Talsperrenstr.","postalCode":"57271","locality":"Hilchenbach","municipality":{"key":"05970020","name":"Hilchenbach, Stadt","type":"Stadt"},"district":{"key":"05970","name":"Siegen-Wittgenstein","type":"Kreis"},"federalState":{"key":"05","name":"Nordrhein-Westfalen"}},{"name":"Tannenweg","postalCode":"57271","locality":"Hilchenbach","municipality":{"key":"05970020","name":"Hilchenbach, Stadt","type":"Stadt"},"district":{"key":"05970","name":"Siegen-Wittgenstein","type":"Kreis"},"federalState":{"key":"05","name":"Nordrhein-Westfalen"}},{"name":"Theodor-Heuss-Str.","postalCode":"57271","locality":"Hilchenbach","municipality":{"key":"05970020","name":"Hilchenbach, Stadt","type":"Stadt"},"district":{"key":"05970","name":"Siegen-Wittgenstein","type":"Kreis"},"federalState":{"key":"05","name":"Nordrhein-Westfalen"}},{"name":"Trift","postalCode":"57271","locality":"Hilchenbach","municipality":{"key":"05970020","name":"Hilchenbach, Stadt","type":"Stadt"},"district":{"key":"05970","name":"Siegen-Wittgenstein","type":"Kreis"},"federalState":{"key":"05","name":"Nordrhein-Westfalen"}},{"name":"Untere Klappeiche","postalCode":"57271","locality":"Hilchenbach","municipality":{"key":"05970020","name":"Hilchenbach, Stadt","type":"Stadt"},"district":{"key":"05970","name":"Siegen-Wittgenstein","type":"Kreis"},"federalState":{"key":"05","name":"Nordrhein-Westfalen"}},{"name":"Unterer Kirchberg","postalCode":"57271","locality":"Hilchenbach","municipality":{"key":"05970020","name":"Hilchenbach, Stadt","type":"Stadt"},"district":{"key":"05970","name":"Siegen-Wittgenstein","type":"Kreis"},"federalState":{"key":"05","name":"Nordrhein-Westfalen"}},{"name":"Untere Wiesenstr.","postalCode":"57271","locality":"Hilchenbach","municipality":{"key":"05970020","name":"Hilchenbach, Stadt","type":"Stadt"},"district":{"key":"05970","name":"Siegen-Wittgenstein","type":"Kreis"},"federalState":{"key":"05","name":"Nordrhein-Westfalen"}},{"name":"Unterm Wäldchen","postalCode":"57271","locality":"Hilchenbach","municipality":{"key":"05970020","name":"Hilchenbach, Stadt","type":"Stadt"},"district":{"key":"05970","name":"Siegen-Wittgenstein","type":"Kreis"},"federalState":{"key":"05","name":"Nordrhein-Westfalen"}},{"name":"Unterzeche","postalCode":"57271","locality":"Hilchenbach","municipality":{"key":"05970020","name":"Hilchenbach, Stadt","type":"Stadt"},"district":{"key":"05970","name":"Siegen-Wittgenstein","type":"Kreis"},"federalState":{"key":"05","name":"Nordrhein-Westfalen"}},{"name":"Vor dem Eichhain","postalCode":"57271","locality":"Hilchenbach","municipality":{"key":"05970020","name":"Hilchenbach, Stadt","type":"Stadt"},"district":{"key":"05970","name":"Siegen-Wittgenstein","type":"Kreis"},"federalState":{"key":"05","name":"Nordrhein-Westfalen"}},{"name":"Vor der Aspe","postalCode":"57271","locality":"Hilchenbach","municipality":{"key":"05970020","name":"Hilchenbach, Stadt","type":"Stadt"},"district":{"key":"05970","name":"Siegen-Wittgenstein","type":"Kreis"},"federalState":{"key":"05","name":"Nordrhein-Westfalen"}},{"name":"Vordere Insbach","postalCode":"57271","locality":"Hilchenbach","municipality":{"key":"05970020","name":"Hilchenbach, Stadt","type":"Stadt"},"district":{"key":"05970","name":"Siegen-Wittgenstein","type":"Kreis"},"federalState":{"key":"05","name":"Nordrhein-Westfalen"}},{"name":"Vormwalder Str.","postalCode":"57271","locality":"Hilchenbach","municipality":{"key":"05970020","name":"Hilchenbach, Stadt","type":"Stadt"},"district":{"key":"05970","name":"Siegen-Wittgenstein","type":"Kreis"},"federalState":{"key":"05","name":"Nordrhein-Westfalen"}},{"name":"Waldstr.","postalCode":"57271","locality":"Hilchenbach","municipality":{"key":"05970020","name":"Hilchenbach, Stadt","type":"Stadt"},"district":{"key":"05970","name":"Siegen-Wittgenstein","type":"Kreis"},"federalState":{"key":"05","name":"Nordrhein-Westfalen"}},{"name":"Weiherstr.","postalCode":"57271","locality":"Hilchenbach","municipality":{"key":"05970020","name":"Hilchenbach, Stadt","type":"Stadt"},"district":{"key":"05970","name":"Siegen-Wittgenstein","type":"Kreis"},"federalState":{"key":"05","name":"Nordrhein-Westfalen"}},{"name":"Werbelsbrunnen","postalCode":"57271","locality":"Hilchenbach","municipality":{"key":"05970020","name":"Hilchenbach, Stadt","type":"Stadt"},"district":{"key":"05970","name":"Siegen-Wittgenstein","type":"Kreis"},"federalState":{"key":"05","name":"Nordrhein-Westfalen"}},{"name":"Wiesenstr.","postalCode":"57271","locality":"Hilchenbach","municipality":{"key":"05970020","name":"Hilchenbach, Stadt","type":"Stadt"},"district":{"key":"05970","name":"Siegen-Wittgenstein","type":"Kreis"},"federalState":{"key":"05","name":"Nordrhein-Westfalen"}},{"name":"Wiesenweg","postalCode":"57271","locality":"Hilchenbach","municipality":{"key":"05970020","name":"Hilchenbach, Stadt","type":"Stadt"},"district":{"key":"05970","name":"Siegen-Wittgenstein","type":"Kreis"},"federalState":{"key":"05","name":"Nordrhein-Westfalen"}},{"name":"Wildermann","postalCode":"57271","locality":"Hilchenbach","municipality":{"key":"05970020","name":"Hilchenbach, Stadt","type":"Stadt"},"district":{"key":"05970","name":"Siegen-Wittgenstein","type":"Kreis"},"federalState":{"key":"05","name":"Nordrhein-Westfalen"}},{"name":"Wilhelm-Krämer-Weg","postalCode":"57271","locality":"Hilchenbach","municipality":{"key":"05970020","name":"Hilchenbach, Stadt","type":"Stadt"},"district":{"key":"05970","name":"Siegen-Wittgenstein","type":"Kreis"},"federalState":{"key":"05","name":"Nordrhein-Westfalen"}},{"name":"Wilhelmstr.","postalCode":"57271","locality":"Hilchenbach","municipality":{"key":"05970020","name":"Hilchenbach, Stadt","type":"Stadt"},"district":{"key":"05970","name":"Siegen-Wittgenstein","type":"Kreis"},"federalState":{"key":"05","name":"Nordrhein-Westfalen"}},{"name":"Winterbachstr.","postalCode":"57271","locality":"Hilchenbach","municipality":{"key":"05970020","name":"Hilchenbach, Stadt","type":"Stadt"},"district":{"key":"05970","name":"Siegen-Wittgenstein","type":"Kreis"},"federalState":{"key":"05","name":"Nordrhein-Westfalen"}},{"name":"Wittgensteiner Str.","postalCode":"57271","locality":"Hilchenbach","municipality":{"key":"05970020","name":"Hilchenbach, Stadt","type":"Stadt"},"district":{"key":"05970","name":"Siegen-Wittgenstein","type":"Kreis"},"federalState":{"key":"05","name":"Nordrhein-Westfalen"}},{"name":"Zum Ewertshahn","postalCode":"57271","locality":"Hilchenbach","municipality":{"key":"05970020","name":"Hilchenbach, Stadt","type":"Stadt"},"district":{"key":"05970","name":"Siegen-Wittgenstein","type":"Kreis"},"federalState":{"key":"05","name":"Nordrhein-Westfalen"}},{"name":"Zum Hohlseifen","postalCode":"57271","locality":"Hilchenbach","municipality":{"key":"05970020","name":"Hilchenbach, Stadt","type":"Stadt"},"district":{"key":"05970","name":"Siegen-Wittgenstein","type":"Kreis"},"federalState":{"key":"05","name":"Nordrhein-Westfalen"}},{"name":"Zur Dörrhöhe","postalCode":"57271","locality":"Hilchenbach","municipality":{"key":"05970020","name":"Hilchenbach, Stadt","type":"Stadt"},"district":{"key":"05970","name":"Siegen-Wittgenstein","type":"Kreis"},"federalState":{"key":"05","name":"Nordrhein-Westfalen"}},{"name":"Zur Kreuzkapelle","postalCode":"57271","locality":"Hilchenbach","municipality":{"key":"05970020","name":"Hilchenbach, Stadt","type":"Stadt"},"district":{"key":"05970","name":"Siegen-Wittgenstein","type":"Kreis"},"federalState":{"key":"05","name":"Nordrhein-Westfalen"}},{"name":"Zur Steinwäsche","postalCode":"57271","locality":"Hilchenbach","municipality":{"key":"05970020","name":"Hilchenbach, Stadt","type":"Stadt"},"district":{"key":"05970","name":"Siegen-Wittgenstein","type":"Kreis"},"federalState":{"key":"05","name":"Nordrhein-Westfalen"}},{"name":"Zur Stollenhalde","postalCode":"57271","locality":"Hilchenbach","municipality":{"key":"05970020","name":"Hilchenbach, Stadt","type":"Stadt"},"district":{"key":"05970","name":"Siegen-Wittgenstein","type":"Kreis"},"federalState":{"key":"05","name":"Nordrhein-Westfalen"}},{"name":"Über der Schneidemühle","postalCode":"57271","locality":"Hilchenbach","municipality":{"key":"05970020","name":"Hilchenbach, Stadt","type":"Stadt"},"district":{"key":"05970","name":"Siegen-Wittgenstein","type":"Kreis"},"federalState":{"key":"05","name":"Nordrhein-Westfalen"}},]