[{"name":"Ahornweg","postalCode":"79256","locality":"Buchenbach","municipality":{"key":"08315020","name":"Buchenbach","type":"Kreisangehörige_Gemeinde"},"district":{"key":"08315","name":"Breisgau-Hochschwarzwald","type":"Landkreis"},"federalState":{"key":"08","name":"Baden-Württemberg"}},{"name":"Am Hitzenhof","postalCode":"79256","locality":"Buchenbach","municipality":{"key":"08315020","name":"Buchenbach","type":"Kreisangehörige_Gemeinde"},"district":{"key":"08315","name":"Breisgau-Hochschwarzwald","type":"Landkreis"},"federalState":{"key":"08","name":"Baden-Württemberg"}},{"name":"Am Hofacker","postalCode":"79256","locality":"Buchenbach","municipality":{"key":"08315020","name":"Buchenbach","type":"Kreisangehörige_Gemeinde"},"district":{"key":"08315","name":"Breisgau-Hochschwarzwald","type":"Landkreis"},"federalState":{"key":"08","name":"Baden-Württemberg"}},{"name":"Bärtelweg","postalCode":"79256","locality":"Buchenbach","municipality":{"key":"08315020","name":"Buchenbach","type":"Kreisangehörige_Gemeinde"},"district":{"key":"08315","name":"Breisgau-Hochschwarzwald","type":"Landkreis"},"federalState":{"key":"08","name":"Baden-Württemberg"}},{"name":"Bergstr.","postalCode":"79256","locality":"Buchenbach","municipality":{"key":"08315020","name":"Buchenbach","type":"Kreisangehörige_Gemeinde"},"district":{"key":"08315","name":"Breisgau-Hochschwarzwald","type":"Landkreis"},"federalState":{"key":"08","name":"Baden-Württemberg"}},{"name":"Bernauerhof","postalCode":"79256","locality":"Buchenbach","municipality":{"key":"08315020","name":"Buchenbach","type":"Kreisangehörige_Gemeinde"},"district":{"key":"08315","name":"Breisgau-Hochschwarzwald","type":"Landkreis"},"federalState":{"key":"08","name":"Baden-Württemberg"}},{"name":"Birkenstr.","postalCode":"79256","locality":"Buchenbach","municipality":{"key":"08315020","name":"Buchenbach","type":"Kreisangehörige_Gemeinde"},"district":{"key":"08315","name":"Breisgau-Hochschwarzwald","type":"Landkreis"},"federalState":{"key":"08","name":"Baden-Württemberg"}},{"name":"Blechschmiede","postalCode":"79256","locality":"Buchenbach","municipality":{"key":"08315020","name":"Buchenbach","type":"Kreisangehörige_Gemeinde"},"district":{"key":"08315","name":"Breisgau-Hochschwarzwald","type":"Landkreis"},"federalState":{"key":"08","name":"Baden-Württemberg"}},{"name":"Bockmättleweg","postalCode":"79256","locality":"Buchenbach","municipality":{"key":"08315020","name":"Buchenbach","type":"Kreisangehörige_Gemeinde"},"district":{"key":"08315","name":"Breisgau-Hochschwarzwald","type":"Landkreis"},"federalState":{"key":"08","name":"Baden-Württemberg"}},{"name":"Diezendobel","postalCode":"79256","locality":"Buchenbach","municipality":{"key":"08315020","name":"Buchenbach","type":"Kreisangehörige_Gemeinde"},"district":{"key":"08315","name":"Breisgau-Hochschwarzwald","type":"Landkreis"},"federalState":{"key":"08","name":"Baden-Württemberg"}},{"name":"Dorfstr.","postalCode":"79256","locality":"Buchenbach","municipality":{"key":"08315020","name":"Buchenbach","type":"Kreisangehörige_Gemeinde"},"district":{"key":"08315","name":"Breisgau-Hochschwarzwald","type":"Landkreis"},"federalState":{"key":"08","name":"Baden-Württemberg"}},{"name":"Erlenhofstr.","postalCode":"79256","locality":"Buchenbach","municipality":{"key":"08315020","name":"Buchenbach","type":"Kreisangehörige_Gemeinde"},"district":{"key":"08315","name":"Breisgau-Hochschwarzwald","type":"Landkreis"},"federalState":{"key":"08","name":"Baden-Württemberg"}},{"name":"Eulenbachweg","postalCode":"79256","locality":"Buchenbach","municipality":{"key":"08315020","name":"Buchenbach","type":"Kreisangehörige_Gemeinde"},"district":{"key":"08315","name":"Breisgau-Hochschwarzwald","type":"Landkreis"},"federalState":{"key":"08","name":"Baden-Württemberg"}},{"name":"Falkenhofweg","postalCode":"79256","locality":"Buchenbach","municipality":{"key":"08315020","name":"Buchenbach","type":"Kreisangehörige_Gemeinde"},"district":{"key":"08315","name":"Breisgau-Hochschwarzwald","type":"Landkreis"},"federalState":{"key":"08","name":"Baden-Württemberg"}},{"name":"Falkensteinweg","postalCode":"79256","locality":"Buchenbach","municipality":{"key":"08315020","name":"Buchenbach","type":"Kreisangehörige_Gemeinde"},"district":{"key":"08315","name":"Breisgau-Hochschwarzwald","type":"Landkreis"},"federalState":{"key":"08","name":"Baden-Württemberg"}},{"name":"Frauensteigstr.","postalCode":"79256","locality":"Buchenbach","municipality":{"key":"08315020","name":"Buchenbach","type":"Kreisangehörige_Gemeinde"},"district":{"key":"08315","name":"Breisgau-Hochschwarzwald","type":"Landkreis"},"federalState":{"key":"08","name":"Baden-Württemberg"}},{"name":"Frauensteigweg","postalCode":"79256","locality":"Buchenbach","municipality":{"key":"08315020","name":"Buchenbach","type":"Kreisangehörige_Gemeinde"},"district":{"key":"08315","name":"Breisgau-Hochschwarzwald","type":"Landkreis"},"federalState":{"key":"08","name":"Baden-Württemberg"}},{"name":"Freyelweg","postalCode":"79256","locality":"Buchenbach","municipality":{"key":"08315020","name":"Buchenbach","type":"Kreisangehörige_Gemeinde"},"district":{"key":"08315","name":"Breisgau-Hochschwarzwald","type":"Landkreis"},"federalState":{"key":"08","name":"Baden-Württemberg"}},{"name":"Gewerbestr.","postalCode":"79256","locality":"Buchenbach","municipality":{"key":"08315020","name":"Buchenbach","type":"Kreisangehörige_Gemeinde"},"district":{"key":"08315","name":"Breisgau-Hochschwarzwald","type":"Landkreis"},"federalState":{"key":"08","name":"Baden-Württemberg"}},{"name":"Griesdobelstr.","postalCode":"79256","locality":"Buchenbach","municipality":{"key":"08315020","name":"Buchenbach","type":"Kreisangehörige_Gemeinde"},"district":{"key":"08315","name":"Breisgau-Hochschwarzwald","type":"Landkreis"},"federalState":{"key":"08","name":"Baden-Württemberg"}},{"name":"Griesdobelweg","postalCode":"79256","locality":"Buchenbach","municipality":{"key":"08315020","name":"Buchenbach","type":"Kreisangehörige_Gemeinde"},"district":{"key":"08315","name":"Breisgau-Hochschwarzwald","type":"Landkreis"},"federalState":{"key":"08","name":"Baden-Württemberg"}},{"name":"Hallerweg","postalCode":"79256","locality":"Buchenbach","municipality":{"key":"08315020","name":"Buchenbach","type":"Kreisangehörige_Gemeinde"},"district":{"key":"08315","name":"Breisgau-Hochschwarzwald","type":"Landkreis"},"federalState":{"key":"08","name":"Baden-Württemberg"}},{"name":"Hauptstr.","postalCode":"79256","locality":"Buchenbach","municipality":{"key":"08315020","name":"Buchenbach","type":"Kreisangehörige_Gemeinde"},"district":{"key":"08315","name":"Breisgau-Hochschwarzwald","type":"Landkreis"},"federalState":{"key":"08","name":"Baden-Württemberg"}},{"name":"Haurihofweg","postalCode":"79256","locality":"Buchenbach","municipality":{"key":"08315020","name":"Buchenbach","type":"Kreisangehörige_Gemeinde"},"district":{"key":"08315","name":"Breisgau-Hochschwarzwald","type":"Landkreis"},"federalState":{"key":"08","name":"Baden-Württemberg"}},{"name":"Himmelreichstr.","postalCode":"79256","locality":"Buchenbach","municipality":{"key":"08315020","name":"Buchenbach","type":"Kreisangehörige_Gemeinde"},"district":{"key":"08315","name":"Breisgau-Hochschwarzwald","type":"Landkreis"},"federalState":{"key":"08","name":"Baden-Württemberg"}},{"name":"Hirschenweg","postalCode":"79256","locality":"Buchenbach","municipality":{"key":"08315020","name":"Buchenbach","type":"Kreisangehörige_Gemeinde"},"district":{"key":"08315","name":"Breisgau-Hochschwarzwald","type":"Landkreis"},"federalState":{"key":"08","name":"Baden-Württemberg"}},{"name":"Höfnerwaldweg","postalCode":"79256","locality":"Buchenbach","municipality":{"key":"08315020","name":"Buchenbach","type":"Kreisangehörige_Gemeinde"},"district":{"key":"08315","name":"Breisgau-Hochschwarzwald","type":"Landkreis"},"federalState":{"key":"08","name":"Baden-Württemberg"}},{"name":"Hohfelsendobelweg","postalCode":"79256","locality":"Buchenbach","municipality":{"key":"08315020","name":"Buchenbach","type":"Kreisangehörige_Gemeinde"},"district":{"key":"08315","name":"Breisgau-Hochschwarzwald","type":"Landkreis"},"federalState":{"key":"08","name":"Baden-Württemberg"}},{"name":"Höllentalstr.","postalCode":"79256","locality":"Buchenbach","municipality":{"key":"08315020","name":"Buchenbach","type":"Kreisangehörige_Gemeinde"},"district":{"key":"08315","name":"Breisgau-Hochschwarzwald","type":"Landkreis"},"federalState":{"key":"08","name":"Baden-Württemberg"}},{"name":"Holzeckweg","postalCode":"79256","locality":"Buchenbach","municipality":{"key":"08315020","name":"Buchenbach","type":"Kreisangehörige_Gemeinde"},"district":{"key":"08315","name":"Breisgau-Hochschwarzwald","type":"Landkreis"},"federalState":{"key":"08","name":"Baden-Württemberg"}},{"name":"Hornbühlweg","postalCode":"79256","locality":"Buchenbach","municipality":{"key":"08315020","name":"Buchenbach","type":"Kreisangehörige_Gemeinde"},"district":{"key":"08315","name":"Breisgau-Hochschwarzwald","type":"Landkreis"},"federalState":{"key":"08","name":"Baden-Württemberg"}},{"name":"Ibenbachstr.","postalCode":"79256","locality":"Buchenbach","municipality":{"key":"08315020","name":"Buchenbach","type":"Kreisangehörige_Gemeinde"},"district":{"key":"08315","name":"Breisgau-Hochschwarzwald","type":"Landkreis"},"federalState":{"key":"08","name":"Baden-Württemberg"}},{"name":"Ibentalstr.","postalCode":"79256","locality":"Buchenbach","municipality":{"key":"08315020","name":"Buchenbach","type":"Kreisangehörige_Gemeinde"},"district":{"key":"08315","name":"Breisgau-Hochschwarzwald","type":"Landkreis"},"federalState":{"key":"08","name":"Baden-Württemberg"}},{"name":"Johanniterweg","postalCode":"79256","locality":"Buchenbach","municipality":{"key":"08315020","name":"Buchenbach","type":"Kreisangehörige_Gemeinde"},"district":{"key":"08315","name":"Breisgau-Hochschwarzwald","type":"Landkreis"},"federalState":{"key":"08","name":"Baden-Württemberg"}},{"name":"Kappenhofstr.","postalCode":"79256","locality":"Buchenbach","municipality":{"key":"08315020","name":"Buchenbach","type":"Kreisangehörige_Gemeinde"},"district":{"key":"08315","name":"Breisgau-Hochschwarzwald","type":"Landkreis"},"federalState":{"key":"08","name":"Baden-Württemberg"}},{"name":"Kreuzmattenweg","postalCode":"79256","locality":"Buchenbach","municipality":{"key":"08315020","name":"Buchenbach","type":"Kreisangehörige_Gemeinde"},"district":{"key":"08315","name":"Breisgau-Hochschwarzwald","type":"Landkreis"},"federalState":{"key":"08","name":"Baden-Württemberg"}},{"name":"Küchleweg","postalCode":"79256","locality":"Buchenbach","municipality":{"key":"08315020","name":"Buchenbach","type":"Kreisangehörige_Gemeinde"},"district":{"key":"08315","name":"Breisgau-Hochschwarzwald","type":"Landkreis"},"federalState":{"key":"08","name":"Baden-Württemberg"}},{"name":"Lärchenstr.","postalCode":"79256","locality":"Buchenbach","municipality":{"key":"08315020","name":"Buchenbach","type":"Kreisangehörige_Gemeinde"},"district":{"key":"08315","name":"Breisgau-Hochschwarzwald","type":"Landkreis"},"federalState":{"key":"08","name":"Baden-Württemberg"}},{"name":"Lorenzenhäusleweg","postalCode":"79874","locality":"Buchenbach","municipality":{"key":"08315020","name":"Buchenbach","type":"Kreisangehörige_Gemeinde"},"district":{"key":"08315","name":"Breisgau-Hochschwarzwald","type":"Landkreis"},"federalState":{"key":"08","name":"Baden-Württemberg"}},{"name":"Mattenweg","postalCode":"79256","locality":"Buchenbach","municipality":{"key":"08315020","name":"Buchenbach","type":"Kreisangehörige_Gemeinde"},"district":{"key":"08315","name":"Breisgau-Hochschwarzwald","type":"Landkreis"},"federalState":{"key":"08","name":"Baden-Württemberg"}},{"name":"Meierbachweg","postalCode":"79256","locality":"Buchenbach","municipality":{"key":"08315020","name":"Buchenbach","type":"Kreisangehörige_Gemeinde"},"district":{"key":"08315","name":"Breisgau-Hochschwarzwald","type":"Landkreis"},"federalState":{"key":"08","name":"Baden-Württemberg"}},{"name":"Mittlerer Rohrwaldweg","postalCode":"79256","locality":"Buchenbach","municipality":{"key":"08315020","name":"Buchenbach","type":"Kreisangehörige_Gemeinde"},"district":{"key":"08315","name":"Breisgau-Hochschwarzwald","type":"Landkreis"},"federalState":{"key":"08","name":"Baden-Württemberg"}},{"name":"Moosbachstr.","postalCode":"79256","locality":"Buchenbach","municipality":{"key":"08315020","name":"Buchenbach","type":"Kreisangehörige_Gemeinde"},"district":{"key":"08315","name":"Breisgau-Hochschwarzwald","type":"Landkreis"},"federalState":{"key":"08","name":"Baden-Württemberg"}},{"name":"Nessellachenweg","postalCode":"79256","locality":"Buchenbach","municipality":{"key":"08315020","name":"Buchenbach","type":"Kreisangehörige_Gemeinde"},"district":{"key":"08315","name":"Breisgau-Hochschwarzwald","type":"Landkreis"},"federalState":{"key":"08","name":"Baden-Württemberg"}},{"name":"Neuer Weg","postalCode":"79256","locality":"Buchenbach","municipality":{"key":"08315020","name":"Buchenbach","type":"Kreisangehörige_Gemeinde"},"district":{"key":"08315","name":"Breisgau-Hochschwarzwald","type":"Landkreis"},"federalState":{"key":"08","name":"Baden-Württemberg"}},{"name":"Ottenweg","postalCode":"79256","locality":"Buchenbach","municipality":{"key":"08315020","name":"Buchenbach","type":"Kreisangehörige_Gemeinde"},"district":{"key":"08315","name":"Breisgau-Hochschwarzwald","type":"Landkreis"},"federalState":{"key":"08","name":"Baden-Württemberg"}},{"name":"Otto-Maier-Weg","postalCode":"79256","locality":"Buchenbach","municipality":{"key":"08315020","name":"Buchenbach","type":"Kreisangehörige_Gemeinde"},"district":{"key":"08315","name":"Breisgau-Hochschwarzwald","type":"Landkreis"},"federalState":{"key":"08","name":"Baden-Württemberg"}},{"name":"Pfaffendobelstr.","postalCode":"79256","locality":"Buchenbach","municipality":{"key":"08315020","name":"Buchenbach","type":"Kreisangehörige_Gemeinde"},"district":{"key":"08315","name":"Breisgau-Hochschwarzwald","type":"Landkreis"},"federalState":{"key":"08","name":"Baden-Württemberg"}},{"name":"Pfaffeneckschleifweg","postalCode":"79256","locality":"Buchenbach","municipality":{"key":"08315020","name":"Buchenbach","type":"Kreisangehörige_Gemeinde"},"district":{"key":"08315","name":"Breisgau-Hochschwarzwald","type":"Landkreis"},"federalState":{"key":"08","name":"Baden-Württemberg"}},{"name":"Pfaffeneckweg","postalCode":"79256","locality":"Buchenbach","municipality":{"key":"08315020","name":"Buchenbach","type":"Kreisangehörige_Gemeinde"},"district":{"key":"08315","name":"Breisgau-Hochschwarzwald","type":"Landkreis"},"federalState":{"key":"08","name":"Baden-Württemberg"}},{"name":"Prägenhofstr.","postalCode":"79256","locality":"Buchenbach","municipality":{"key":"08315020","name":"Buchenbach","type":"Kreisangehörige_Gemeinde"},"district":{"key":"08315","name":"Breisgau-Hochschwarzwald","type":"Landkreis"},"federalState":{"key":"08","name":"Baden-Württemberg"}},{"name":"Rotenhofweg","postalCode":"79256","locality":"Buchenbach","municipality":{"key":"08315020","name":"Buchenbach","type":"Kreisangehörige_Gemeinde"},"district":{"key":"08315","name":"Breisgau-Hochschwarzwald","type":"Landkreis"},"federalState":{"key":"08","name":"Baden-Württemberg"}},{"name":"Saierhäusle","postalCode":"79256","locality":"Buchenbach","municipality":{"key":"08315020","name":"Buchenbach","type":"Kreisangehörige_Gemeinde"},"district":{"key":"08315","name":"Breisgau-Hochschwarzwald","type":"Landkreis"},"federalState":{"key":"08","name":"Baden-Württemberg"}},{"name":"Schloßhofstr.","postalCode":"79256","locality":"Buchenbach","municipality":{"key":"08315020","name":"Buchenbach","type":"Kreisangehörige_Gemeinde"},"district":{"key":"08315","name":"Breisgau-Hochschwarzwald","type":"Landkreis"},"federalState":{"key":"08","name":"Baden-Württemberg"}},{"name":"Schuhseppleweg","postalCode":"79256","locality":"Buchenbach","municipality":{"key":"08315020","name":"Buchenbach","type":"Kreisangehörige_Gemeinde"},"district":{"key":"08315","name":"Breisgau-Hochschwarzwald","type":"Landkreis"},"federalState":{"key":"08","name":"Baden-Württemberg"}},{"name":"Schulstr.","postalCode":"79256","locality":"Buchenbach","municipality":{"key":"08315020","name":"Buchenbach","type":"Kreisangehörige_Gemeinde"},"district":{"key":"08315","name":"Breisgau-Hochschwarzwald","type":"Landkreis"},"federalState":{"key":"08","name":"Baden-Württemberg"}},{"name":"Schulterdobel","postalCode":"79256","locality":"Buchenbach","municipality":{"key":"08315020","name":"Buchenbach","type":"Kreisangehörige_Gemeinde"},"district":{"key":"08315","name":"Breisgau-Hochschwarzwald","type":"Landkreis"},"federalState":{"key":"08","name":"Baden-Württemberg"}},{"name":"Schweigbrunnenstr.","postalCode":"79256","locality":"Buchenbach","municipality":{"key":"08315020","name":"Buchenbach","type":"Kreisangehörige_Gemeinde"},"district":{"key":"08315","name":"Breisgau-Hochschwarzwald","type":"Landkreis"},"federalState":{"key":"08","name":"Baden-Württemberg"}},{"name":"Schweizerlehofweg","postalCode":"79256","locality":"Buchenbach","municipality":{"key":"08315020","name":"Buchenbach","type":"Kreisangehörige_Gemeinde"},"district":{"key":"08315","name":"Breisgau-Hochschwarzwald","type":"Landkreis"},"federalState":{"key":"08","name":"Baden-Württemberg"}},{"name":"Sommerberg","postalCode":"79256","locality":"Buchenbach","municipality":{"key":"08315020","name":"Buchenbach","type":"Kreisangehörige_Gemeinde"},"district":{"key":"08315","name":"Breisgau-Hochschwarzwald","type":"Landkreis"},"federalState":{"key":"08","name":"Baden-Württemberg"}},{"name":"Spirzenhaldenweg","postalCode":"79256","locality":"Buchenbach","municipality":{"key":"08315020","name":"Buchenbach","type":"Kreisangehörige_Gemeinde"},"district":{"key":"08315","name":"Breisgau-Hochschwarzwald","type":"Landkreis"},"federalState":{"key":"08","name":"Baden-Württemberg"}},{"name":"Spirzenstr.","postalCode":"79256","locality":"Buchenbach","municipality":{"key":"08315020","name":"Buchenbach","type":"Kreisangehörige_Gemeinde"},"district":{"key":"08315","name":"Breisgau-Hochschwarzwald","type":"Landkreis"},"federalState":{"key":"08","name":"Baden-Württemberg"}},{"name":"Stationenweg","postalCode":"79256","locality":"Buchenbach","municipality":{"key":"08315020","name":"Buchenbach","type":"Kreisangehörige_Gemeinde"},"district":{"key":"08315","name":"Breisgau-Hochschwarzwald","type":"Landkreis"},"federalState":{"key":"08","name":"Baden-Württemberg"}},{"name":"Steigweg","postalCode":"79256","locality":"Buchenbach","municipality":{"key":"08315020","name":"Buchenbach","type":"Kreisangehörige_Gemeinde"},"district":{"key":"08315","name":"Breisgau-Hochschwarzwald","type":"Landkreis"},"federalState":{"key":"08","name":"Baden-Württemberg"}},{"name":"Steinmoosweg","postalCode":"79256","locality":"Buchenbach","municipality":{"key":"08315020","name":"Buchenbach","type":"Kreisangehörige_Gemeinde"},"district":{"key":"08315","name":"Breisgau-Hochschwarzwald","type":"Landkreis"},"federalState":{"key":"08","name":"Baden-Württemberg"}},{"name":"Talstr.","postalCode":"79256","locality":"Buchenbach","municipality":{"key":"08315020","name":"Buchenbach","type":"Kreisangehörige_Gemeinde"},"district":{"key":"08315","name":"Breisgau-Hochschwarzwald","type":"Landkreis"},"federalState":{"key":"08","name":"Baden-Württemberg"}},{"name":"Thomashansenweg","postalCode":"79256","locality":"Buchenbach","municipality":{"key":"08315020","name":"Buchenbach","type":"Kreisangehörige_Gemeinde"},"district":{"key":"08315","name":"Breisgau-Hochschwarzwald","type":"Landkreis"},"federalState":{"key":"08","name":"Baden-Württemberg"}},{"name":"Thomashansenweg","postalCode":"79271","locality":"Buchenbach","municipality":{"key":"08315020","name":"Buchenbach","type":"Kreisangehörige_Gemeinde"},"district":{"key":"08315","name":"Breisgau-Hochschwarzwald","type":"Landkreis"},"federalState":{"key":"08","name":"Baden-Württemberg"}},{"name":"Todtnauweg","postalCode":"79256","locality":"Buchenbach","municipality":{"key":"08315020","name":"Buchenbach","type":"Kreisangehörige_Gemeinde"},"district":{"key":"08315","name":"Breisgau-Hochschwarzwald","type":"Landkreis"},"federalState":{"key":"08","name":"Baden-Württemberg"}},{"name":"Tumichelweg","postalCode":"79256","locality":"Buchenbach","municipality":{"key":"08315020","name":"Buchenbach","type":"Kreisangehörige_Gemeinde"},"district":{"key":"08315","name":"Breisgau-Hochschwarzwald","type":"Landkreis"},"federalState":{"key":"08","name":"Baden-Württemberg"}},{"name":"Unterer Kohlbachweg","postalCode":"79256","locality":"Buchenbach","municipality":{"key":"08315020","name":"Buchenbach","type":"Kreisangehörige_Gemeinde"},"district":{"key":"08315","name":"Breisgau-Hochschwarzwald","type":"Landkreis"},"federalState":{"key":"08","name":"Baden-Württemberg"}},{"name":"Unterer Rohrwaldweg","postalCode":"79256","locality":"Buchenbach","municipality":{"key":"08315020","name":"Buchenbach","type":"Kreisangehörige_Gemeinde"},"district":{"key":"08315","name":"Breisgau-Hochschwarzwald","type":"Landkreis"},"federalState":{"key":"08","name":"Baden-Württemberg"}},{"name":"Weberdobel","postalCode":"79256","locality":"Buchenbach","municipality":{"key":"08315020","name":"Buchenbach","type":"Kreisangehörige_Gemeinde"},"district":{"key":"08315","name":"Breisgau-Hochschwarzwald","type":"Landkreis"},"federalState":{"key":"08","name":"Baden-Württemberg"}},{"name":"Weber-Peter-Weg","postalCode":"79256","locality":"Buchenbach","municipality":{"key":"08315020","name":"Buchenbach","type":"Kreisangehörige_Gemeinde"},"district":{"key":"08315","name":"Breisgau-Hochschwarzwald","type":"Landkreis"},"federalState":{"key":"08","name":"Baden-Württemberg"}},{"name":"Weihermattenweg","postalCode":"79256","locality":"Buchenbach","municipality":{"key":"08315020","name":"Buchenbach","type":"Kreisangehörige_Gemeinde"},"district":{"key":"08315","name":"Breisgau-Hochschwarzwald","type":"Landkreis"},"federalState":{"key":"08","name":"Baden-Württemberg"}},{"name":"Wickenhofweg","postalCode":"79256","locality":"Buchenbach","municipality":{"key":"08315020","name":"Buchenbach","type":"Kreisangehörige_Gemeinde"},"district":{"key":"08315","name":"Breisgau-Hochschwarzwald","type":"Landkreis"},"federalState":{"key":"08","name":"Baden-Württemberg"}},{"name":"Wiesneckstr.","postalCode":"79256","locality":"Buchenbach","municipality":{"key":"08315020","name":"Buchenbach","type":"Kreisangehörige_Gemeinde"},"district":{"key":"08315","name":"Breisgau-Hochschwarzwald","type":"Landkreis"},"federalState":{"key":"08","name":"Baden-Württemberg"}},{"name":"Winterackerweg","postalCode":"79256","locality":"Buchenbach","municipality":{"key":"08315020","name":"Buchenbach","type":"Kreisangehörige_Gemeinde"},"district":{"key":"08315","name":"Breisgau-Hochschwarzwald","type":"Landkreis"},"federalState":{"key":"08","name":"Baden-Württemberg"}},{"name":"Winterwaldweg","postalCode":"79256","locality":"Buchenbach","municipality":{"key":"08315020","name":"Buchenbach","type":"Kreisangehörige_Gemeinde"},"district":{"key":"08315","name":"Breisgau-Hochschwarzwald","type":"Landkreis"},"federalState":{"key":"08","name":"Baden-Württemberg"}},{"name":"Wolfsteige","postalCode":"79256","locality":"Buchenbach","municipality":{"key":"08315020","name":"Buchenbach","type":"Kreisangehörige_Gemeinde"},"district":{"key":"08315","name":"Breisgau-Hochschwarzwald","type":"Landkreis"},"federalState":{"key":"08","name":"Baden-Württemberg"}},]