[{"name":"Adlergässle","postalCode":"88456","locality":"Ingoldingen","municipality":{"key":"08426062","name":"Ingoldingen","type":"Kreisangehörige_Gemeinde"},"district":{"key":"08426","name":"Biberach","type":"Landkreis"},"federalState":{"key":"08","name":"Baden-Württemberg"}},{"name":"Ahornweg","postalCode":"88456","locality":"Ingoldingen","municipality":{"key":"08426062","name":"Ingoldingen","type":"Kreisangehörige_Gemeinde"},"district":{"key":"08426","name":"Biberach","type":"Landkreis"},"federalState":{"key":"08","name":"Baden-Württemberg"}},{"name":"Alpenblick","postalCode":"88456","locality":"Ingoldingen","municipality":{"key":"08426062","name":"Ingoldingen","type":"Kreisangehörige_Gemeinde"},"district":{"key":"08426","name":"Biberach","type":"Landkreis"},"federalState":{"key":"08","name":"Baden-Württemberg"}},{"name":"Am Krautland","postalCode":"88456","locality":"Ingoldingen","municipality":{"key":"08426062","name":"Ingoldingen","type":"Kreisangehörige_Gemeinde"},"district":{"key":"08426","name":"Biberach","type":"Landkreis"},"federalState":{"key":"08","name":"Baden-Württemberg"}},{"name":"Am Ölberg","postalCode":"88456","locality":"Ingoldingen","municipality":{"key":"08426062","name":"Ingoldingen","type":"Kreisangehörige_Gemeinde"},"district":{"key":"08426","name":"Biberach","type":"Landkreis"},"federalState":{"key":"08","name":"Baden-Württemberg"}},{"name":"Am Rißbogen","postalCode":"88456","locality":"Ingoldingen","municipality":{"key":"08426062","name":"Ingoldingen","type":"Kreisangehörige_Gemeinde"},"district":{"key":"08426","name":"Biberach","type":"Landkreis"},"federalState":{"key":"08","name":"Baden-Württemberg"}},{"name":"Auf dem Burren","postalCode":"88456","locality":"Ingoldingen","municipality":{"key":"08426062","name":"Ingoldingen","type":"Kreisangehörige_Gemeinde"},"district":{"key":"08426","name":"Biberach","type":"Landkreis"},"federalState":{"key":"08","name":"Baden-Württemberg"}},{"name":"Bachstr.","postalCode":"88456","locality":"Ingoldingen","municipality":{"key":"08426062","name":"Ingoldingen","type":"Kreisangehörige_Gemeinde"},"district":{"key":"08426","name":"Biberach","type":"Landkreis"},"federalState":{"key":"08","name":"Baden-Württemberg"}},{"name":"Bahnhofgasse","postalCode":"88456","locality":"Ingoldingen","municipality":{"key":"08426062","name":"Ingoldingen","type":"Kreisangehörige_Gemeinde"},"district":{"key":"08426","name":"Biberach","type":"Landkreis"},"federalState":{"key":"08","name":"Baden-Württemberg"}},{"name":"Bahnhofstr.","postalCode":"88456","locality":"Ingoldingen","municipality":{"key":"08426062","name":"Ingoldingen","type":"Kreisangehörige_Gemeinde"},"district":{"key":"08426","name":"Biberach","type":"Landkreis"},"federalState":{"key":"08","name":"Baden-Württemberg"}},{"name":"Barockblick","postalCode":"88456","locality":"Ingoldingen","municipality":{"key":"08426062","name":"Ingoldingen","type":"Kreisangehörige_Gemeinde"},"district":{"key":"08426","name":"Biberach","type":"Landkreis"},"federalState":{"key":"08","name":"Baden-Württemberg"}},{"name":"Beckengasse","postalCode":"88456","locality":"Ingoldingen","municipality":{"key":"08426062","name":"Ingoldingen","type":"Kreisangehörige_Gemeinde"},"district":{"key":"08426","name":"Biberach","type":"Landkreis"},"federalState":{"key":"08","name":"Baden-Württemberg"}},{"name":"Bergstr.","postalCode":"88456","locality":"Ingoldingen","municipality":{"key":"08426062","name":"Ingoldingen","type":"Kreisangehörige_Gemeinde"},"district":{"key":"08426","name":"Biberach","type":"Landkreis"},"federalState":{"key":"08","name":"Baden-Württemberg"}},{"name":"Biberacher Str.","postalCode":"88456","locality":"Ingoldingen","municipality":{"key":"08426062","name":"Ingoldingen","type":"Kreisangehörige_Gemeinde"},"district":{"key":"08426","name":"Biberach","type":"Landkreis"},"federalState":{"key":"08","name":"Baden-Württemberg"}},{"name":"Birkenweg","postalCode":"88456","locality":"Ingoldingen","municipality":{"key":"08426062","name":"Ingoldingen","type":"Kreisangehörige_Gemeinde"},"district":{"key":"08426","name":"Biberach","type":"Landkreis"},"federalState":{"key":"08","name":"Baden-Württemberg"}},{"name":"Buchenblick","postalCode":"88456","locality":"Ingoldingen","municipality":{"key":"08426062","name":"Ingoldingen","type":"Kreisangehörige_Gemeinde"},"district":{"key":"08426","name":"Biberach","type":"Landkreis"},"federalState":{"key":"08","name":"Baden-Württemberg"}},{"name":"Buchenweg","postalCode":"88456","locality":"Ingoldingen","municipality":{"key":"08426062","name":"Ingoldingen","type":"Kreisangehörige_Gemeinde"},"district":{"key":"08426","name":"Biberach","type":"Landkreis"},"federalState":{"key":"08","name":"Baden-Württemberg"}},{"name":"Büchsenmachergasse","postalCode":"88456","locality":"Ingoldingen","municipality":{"key":"08426062","name":"Ingoldingen","type":"Kreisangehörige_Gemeinde"},"district":{"key":"08426","name":"Biberach","type":"Landkreis"},"federalState":{"key":"08","name":"Baden-Württemberg"}},{"name":"Bühlweg","postalCode":"88456","locality":"Ingoldingen","municipality":{"key":"08426062","name":"Ingoldingen","type":"Kreisangehörige_Gemeinde"},"district":{"key":"08426","name":"Biberach","type":"Landkreis"},"federalState":{"key":"08","name":"Baden-Württemberg"}},{"name":"Bürgergasse","postalCode":"88456","locality":"Ingoldingen","municipality":{"key":"08426062","name":"Ingoldingen","type":"Kreisangehörige_Gemeinde"},"district":{"key":"08426","name":"Biberach","type":"Landkreis"},"federalState":{"key":"08","name":"Baden-Württemberg"}},{"name":"Burgstr.","postalCode":"88456","locality":"Ingoldingen","municipality":{"key":"08426062","name":"Ingoldingen","type":"Kreisangehörige_Gemeinde"},"district":{"key":"08426","name":"Biberach","type":"Landkreis"},"federalState":{"key":"08","name":"Baden-Württemberg"}},{"name":"Christian-Koehler-Weg","postalCode":"88400","locality":"Biberach an der Riß","municipality":{"key":"08426021","name":"Biberach an der Riß, Stadt","type":"Große_Kreisstadt"},"district":{"key":"08426","name":"Biberach","type":"Landkreis"},"federalState":{"key":"08","name":"Baden-Württemberg"}},{"name":"Christian-Xeller-Weg","postalCode":"88400","locality":"Biberach an der Riß","municipality":{"key":"08426021","name":"Biberach an der Riß, Stadt","type":"Große_Kreisstadt"},"district":{"key":"08426","name":"Biberach","type":"Landkreis"},"federalState":{"key":"08","name":"Baden-Württemberg"}},{"name":"Clara-Schumann-Str.","postalCode":"88400","locality":"Biberach an der Riß","municipality":{"key":"08426021","name":"Biberach an der Riß, Stadt","type":"Große_Kreisstadt"},"district":{"key":"08426","name":"Biberach","type":"Landkreis"},"federalState":{"key":"08","name":"Baden-Württemberg"}},{"name":"Consulentengasse","postalCode":"88400","locality":"Biberach an der Riß","municipality":{"key":"08426021","name":"Biberach an der Riß, Stadt","type":"Große_Kreisstadt"},"district":{"key":"08426","name":"Biberach","type":"Landkreis"},"federalState":{"key":"08","name":"Baden-Württemberg"}},{"name":"Dorfstr.","postalCode":"88456","locality":"Ingoldingen","municipality":{"key":"08426062","name":"Ingoldingen","type":"Kreisangehörige_Gemeinde"},"district":{"key":"08426","name":"Biberach","type":"Landkreis"},"federalState":{"key":"08","name":"Baden-Württemberg"}},{"name":"Eichener Str.","postalCode":"88456","locality":"Ingoldingen","municipality":{"key":"08426062","name":"Ingoldingen","type":"Kreisangehörige_Gemeinde"},"district":{"key":"08426","name":"Biberach","type":"Landkreis"},"federalState":{"key":"08","name":"Baden-Württemberg"}},{"name":"Eichenweg","postalCode":"88456","locality":"Ingoldingen","municipality":{"key":"08426062","name":"Ingoldingen","type":"Kreisangehörige_Gemeinde"},"district":{"key":"08426","name":"Biberach","type":"Landkreis"},"federalState":{"key":"08","name":"Baden-Württemberg"}},{"name":"Erlenweg","postalCode":"88456","locality":"Ingoldingen","municipality":{"key":"08426062","name":"Ingoldingen","type":"Kreisangehörige_Gemeinde"},"district":{"key":"08426","name":"Biberach","type":"Landkreis"},"federalState":{"key":"08","name":"Baden-Württemberg"}},{"name":"Eschweg","postalCode":"88456","locality":"Ingoldingen","municipality":{"key":"08426062","name":"Ingoldingen","type":"Kreisangehörige_Gemeinde"},"district":{"key":"08426","name":"Biberach","type":"Landkreis"},"federalState":{"key":"08","name":"Baden-Württemberg"}},{"name":"Espach","postalCode":"88456","locality":"Ingoldingen","municipality":{"key":"08426062","name":"Ingoldingen","type":"Kreisangehörige_Gemeinde"},"district":{"key":"08426","name":"Biberach","type":"Landkreis"},"federalState":{"key":"08","name":"Baden-Württemberg"}},{"name":"Esperlingasse","postalCode":"88456","locality":"Ingoldingen","municipality":{"key":"08426062","name":"Ingoldingen","type":"Kreisangehörige_Gemeinde"},"district":{"key":"08426","name":"Biberach","type":"Landkreis"},"federalState":{"key":"08","name":"Baden-Württemberg"}},{"name":"Friedhofweg","postalCode":"88456","locality":"Ingoldingen","municipality":{"key":"08426062","name":"Ingoldingen","type":"Kreisangehörige_Gemeinde"},"district":{"key":"08426","name":"Biberach","type":"Landkreis"},"federalState":{"key":"08","name":"Baden-Württemberg"}},{"name":"Gaisergasse","postalCode":"88456","locality":"Ingoldingen","municipality":{"key":"08426062","name":"Ingoldingen","type":"Kreisangehörige_Gemeinde"},"district":{"key":"08426","name":"Biberach","type":"Landkreis"},"federalState":{"key":"08","name":"Baden-Württemberg"}},{"name":"Gartenstr.","postalCode":"88456","locality":"Ingoldingen","municipality":{"key":"08426062","name":"Ingoldingen","type":"Kreisangehörige_Gemeinde"},"district":{"key":"08426","name":"Biberach","type":"Landkreis"},"federalState":{"key":"08","name":"Baden-Württemberg"}},{"name":"Gässele","postalCode":"88456","locality":"Ingoldingen","municipality":{"key":"08426062","name":"Ingoldingen","type":"Kreisangehörige_Gemeinde"},"district":{"key":"08426","name":"Biberach","type":"Landkreis"},"federalState":{"key":"08","name":"Baden-Württemberg"}},{"name":"Hagnaufurter Str.","postalCode":"88456","locality":"Ingoldingen","municipality":{"key":"08426062","name":"Ingoldingen","type":"Kreisangehörige_Gemeinde"},"district":{"key":"08426","name":"Biberach","type":"Landkreis"},"federalState":{"key":"08","name":"Baden-Württemberg"}},{"name":"Härte","postalCode":"88456","locality":"Ingoldingen","municipality":{"key":"08426062","name":"Ingoldingen","type":"Kreisangehörige_Gemeinde"},"district":{"key":"08426","name":"Biberach","type":"Landkreis"},"federalState":{"key":"08","name":"Baden-Württemberg"}},{"name":"Hauptstr.","postalCode":"88456","locality":"Ingoldingen","municipality":{"key":"08426062","name":"Ingoldingen","type":"Kreisangehörige_Gemeinde"},"district":{"key":"08426","name":"Biberach","type":"Landkreis"},"federalState":{"key":"08","name":"Baden-Württemberg"}},{"name":"Hinter den Gärten","postalCode":"88456","locality":"Ingoldingen","municipality":{"key":"08426062","name":"Ingoldingen","type":"Kreisangehörige_Gemeinde"},"district":{"key":"08426","name":"Biberach","type":"Landkreis"},"federalState":{"key":"08","name":"Baden-Württemberg"}},{"name":"Hirtenweg","postalCode":"88456","locality":"Ingoldingen","municipality":{"key":"08426062","name":"Ingoldingen","type":"Kreisangehörige_Gemeinde"},"district":{"key":"08426","name":"Biberach","type":"Landkreis"},"federalState":{"key":"08","name":"Baden-Württemberg"}},{"name":"Hochbergstr.","postalCode":"88456","locality":"Ingoldingen","municipality":{"key":"08426062","name":"Ingoldingen","type":"Kreisangehörige_Gemeinde"},"district":{"key":"08426","name":"Biberach","type":"Landkreis"},"federalState":{"key":"08","name":"Baden-Württemberg"}},{"name":"Hochdorfer Str.","postalCode":"88456","locality":"Ingoldingen","municipality":{"key":"08426062","name":"Ingoldingen","type":"Kreisangehörige_Gemeinde"},"district":{"key":"08426","name":"Biberach","type":"Landkreis"},"federalState":{"key":"08","name":"Baden-Württemberg"}},{"name":"Höhenweg","postalCode":"88456","locality":"Ingoldingen","municipality":{"key":"08426062","name":"Ingoldingen","type":"Kreisangehörige_Gemeinde"},"district":{"key":"08426","name":"Biberach","type":"Landkreis"},"federalState":{"key":"08","name":"Baden-Württemberg"}},{"name":"Ingoldinger Str.","postalCode":"88456","locality":"Ingoldingen","municipality":{"key":"08426062","name":"Ingoldingen","type":"Kreisangehörige_Gemeinde"},"district":{"key":"08426","name":"Biberach","type":"Landkreis"},"federalState":{"key":"08","name":"Baden-Württemberg"}},{"name":"Ingoldinger Weg","postalCode":"88456","locality":"Ingoldingen","municipality":{"key":"08426062","name":"Ingoldingen","type":"Kreisangehörige_Gemeinde"},"district":{"key":"08426","name":"Biberach","type":"Landkreis"},"federalState":{"key":"08","name":"Baden-Württemberg"}},{"name":"Jakobusweg","postalCode":"88456","locality":"Ingoldingen","municipality":{"key":"08426062","name":"Ingoldingen","type":"Kreisangehörige_Gemeinde"},"district":{"key":"08426","name":"Biberach","type":"Landkreis"},"federalState":{"key":"08","name":"Baden-Württemberg"}},{"name":"Kapellenweg","postalCode":"88456","locality":"Ingoldingen","municipality":{"key":"08426062","name":"Ingoldingen","type":"Kreisangehörige_Gemeinde"},"district":{"key":"08426","name":"Biberach","type":"Landkreis"},"federalState":{"key":"08","name":"Baden-Württemberg"}},{"name":"Kirchenplatz","postalCode":"88456","locality":"Ingoldingen","municipality":{"key":"08426062","name":"Ingoldingen","type":"Kreisangehörige_Gemeinde"},"district":{"key":"08426","name":"Biberach","type":"Landkreis"},"federalState":{"key":"08","name":"Baden-Württemberg"}},{"name":"Kirchenweg","postalCode":"88456","locality":"Ingoldingen","municipality":{"key":"08426062","name":"Ingoldingen","type":"Kreisangehörige_Gemeinde"},"district":{"key":"08426","name":"Biberach","type":"Landkreis"},"federalState":{"key":"08","name":"Baden-Württemberg"}},{"name":"Kirchgasse","postalCode":"88456","locality":"Ingoldingen","municipality":{"key":"08426062","name":"Ingoldingen","type":"Kreisangehörige_Gemeinde"},"district":{"key":"08426","name":"Biberach","type":"Landkreis"},"federalState":{"key":"08","name":"Baden-Württemberg"}},{"name":"Kirchweg","postalCode":"88456","locality":"Ingoldingen","municipality":{"key":"08426062","name":"Ingoldingen","type":"Kreisangehörige_Gemeinde"},"district":{"key":"08426","name":"Biberach","type":"Landkreis"},"federalState":{"key":"08","name":"Baden-Württemberg"}},{"name":"Kohlstatt","postalCode":"88456","locality":"Ingoldingen","municipality":{"key":"08426062","name":"Ingoldingen","type":"Kreisangehörige_Gemeinde"},"district":{"key":"08426","name":"Biberach","type":"Landkreis"},"federalState":{"key":"08","name":"Baden-Württemberg"}},{"name":"Krämergasse","postalCode":"88456","locality":"Ingoldingen","municipality":{"key":"08426062","name":"Ingoldingen","type":"Kreisangehörige_Gemeinde"},"district":{"key":"08426","name":"Biberach","type":"Landkreis"},"federalState":{"key":"08","name":"Baden-Württemberg"}},{"name":"Lärchenweg","postalCode":"88456","locality":"Ingoldingen","municipality":{"key":"08426062","name":"Ingoldingen","type":"Kreisangehörige_Gemeinde"},"district":{"key":"08426","name":"Biberach","type":"Landkreis"},"federalState":{"key":"08","name":"Baden-Württemberg"}},{"name":"Leimgrube","postalCode":"88456","locality":"Ingoldingen","municipality":{"key":"08426062","name":"Ingoldingen","type":"Kreisangehörige_Gemeinde"},"district":{"key":"08426","name":"Biberach","type":"Landkreis"},"federalState":{"key":"08","name":"Baden-Württemberg"}},{"name":"Lettenäcker","postalCode":"88456","locality":"Ingoldingen","municipality":{"key":"08426062","name":"Ingoldingen","type":"Kreisangehörige_Gemeinde"},"district":{"key":"08426","name":"Biberach","type":"Landkreis"},"federalState":{"key":"08","name":"Baden-Württemberg"}},{"name":"Lindenstr.","postalCode":"88456","locality":"Ingoldingen","municipality":{"key":"08426062","name":"Ingoldingen","type":"Kreisangehörige_Gemeinde"},"district":{"key":"08426","name":"Biberach","type":"Landkreis"},"federalState":{"key":"08","name":"Baden-Württemberg"}},{"name":"Marktstr.","postalCode":"88456","locality":"Ingoldingen","municipality":{"key":"08426062","name":"Ingoldingen","type":"Kreisangehörige_Gemeinde"},"district":{"key":"08426","name":"Biberach","type":"Landkreis"},"federalState":{"key":"08","name":"Baden-Württemberg"}},{"name":"Mühlesteig","postalCode":"88456","locality":"Ingoldingen","municipality":{"key":"08426062","name":"Ingoldingen","type":"Kreisangehörige_Gemeinde"},"district":{"key":"08426","name":"Biberach","type":"Landkreis"},"federalState":{"key":"08","name":"Baden-Württemberg"}},{"name":"Mühlgasse","postalCode":"88456","locality":"Ingoldingen","municipality":{"key":"08426062","name":"Ingoldingen","type":"Kreisangehörige_Gemeinde"},"district":{"key":"08426","name":"Biberach","type":"Landkreis"},"federalState":{"key":"08","name":"Baden-Württemberg"}},{"name":"Muttensweilerweg","postalCode":"88456","locality":"Ingoldingen","municipality":{"key":"08426062","name":"Ingoldingen","type":"Kreisangehörige_Gemeinde"},"district":{"key":"08426","name":"Biberach","type":"Landkreis"},"federalState":{"key":"08","name":"Baden-Württemberg"}},{"name":"Niederbergstr.","postalCode":"88456","locality":"Ingoldingen","municipality":{"key":"08426062","name":"Ingoldingen","type":"Kreisangehörige_Gemeinde"},"district":{"key":"08426","name":"Biberach","type":"Landkreis"},"federalState":{"key":"08","name":"Baden-Württemberg"}},{"name":"Obere Gasse","postalCode":"88456","locality":"Ingoldingen","municipality":{"key":"08426062","name":"Ingoldingen","type":"Kreisangehörige_Gemeinde"},"district":{"key":"08426","name":"Biberach","type":"Landkreis"},"federalState":{"key":"08","name":"Baden-Württemberg"}},{"name":"Oberessendorfer Str.","postalCode":"88456","locality":"Ingoldingen","municipality":{"key":"08426062","name":"Ingoldingen","type":"Kreisangehörige_Gemeinde"},"district":{"key":"08426","name":"Biberach","type":"Landkreis"},"federalState":{"key":"08","name":"Baden-Württemberg"}},{"name":"Obere Wiesenteile","postalCode":"88456","locality":"Ingoldingen","municipality":{"key":"08426062","name":"Ingoldingen","type":"Kreisangehörige_Gemeinde"},"district":{"key":"08426","name":"Biberach","type":"Landkreis"},"federalState":{"key":"08","name":"Baden-Württemberg"}},{"name":"Osterholzweg","postalCode":"88456","locality":"Ingoldingen","municipality":{"key":"08426062","name":"Ingoldingen","type":"Kreisangehörige_Gemeinde"},"district":{"key":"08426","name":"Biberach","type":"Landkreis"},"federalState":{"key":"08","name":"Baden-Württemberg"}},{"name":"Panoramaweg","postalCode":"88456","locality":"Ingoldingen","municipality":{"key":"08426062","name":"Ingoldingen","type":"Kreisangehörige_Gemeinde"},"district":{"key":"08426","name":"Biberach","type":"Landkreis"},"federalState":{"key":"08","name":"Baden-Württemberg"}},{"name":"Pfandäcker","postalCode":"88456","locality":"Ingoldingen","municipality":{"key":"08426062","name":"Ingoldingen","type":"Kreisangehörige_Gemeinde"},"district":{"key":"08426","name":"Biberach","type":"Landkreis"},"federalState":{"key":"08","name":"Baden-Württemberg"}},{"name":"Pfeifenmachergasse","postalCode":"88456","locality":"Ingoldingen","municipality":{"key":"08426062","name":"Ingoldingen","type":"Kreisangehörige_Gemeinde"},"district":{"key":"08426","name":"Biberach","type":"Landkreis"},"federalState":{"key":"08","name":"Baden-Württemberg"}},{"name":"Pilgerweg","postalCode":"88456","locality":"Ingoldingen","municipality":{"key":"08426062","name":"Ingoldingen","type":"Kreisangehörige_Gemeinde"},"district":{"key":"08426","name":"Biberach","type":"Landkreis"},"federalState":{"key":"08","name":"Baden-Württemberg"}},{"name":"Ränkle","postalCode":"88456","locality":"Ingoldingen","municipality":{"key":"08426062","name":"Ingoldingen","type":"Kreisangehörige_Gemeinde"},"district":{"key":"08426","name":"Biberach","type":"Landkreis"},"federalState":{"key":"08","name":"Baden-Württemberg"}},{"name":"Rauhöschweg","postalCode":"88456","locality":"Ingoldingen","municipality":{"key":"08426062","name":"Ingoldingen","type":"Kreisangehörige_Gemeinde"},"district":{"key":"08426","name":"Biberach","type":"Landkreis"},"federalState":{"key":"08","name":"Baden-Württemberg"}},{"name":"Rißtal","postalCode":"88456","locality":"Ingoldingen","municipality":{"key":"08426062","name":"Ingoldingen","type":"Kreisangehörige_Gemeinde"},"district":{"key":"08426","name":"Biberach","type":"Landkreis"},"federalState":{"key":"08","name":"Baden-Württemberg"}},{"name":"Rohrach","postalCode":"88456","locality":"Ingoldingen","municipality":{"key":"08426062","name":"Ingoldingen","type":"Kreisangehörige_Gemeinde"},"district":{"key":"08426","name":"Biberach","type":"Landkreis"},"federalState":{"key":"08","name":"Baden-Württemberg"}},{"name":"Rohrachstr.","postalCode":"88456","locality":"Ingoldingen","municipality":{"key":"08426062","name":"Ingoldingen","type":"Kreisangehörige_Gemeinde"},"district":{"key":"08426","name":"Biberach","type":"Landkreis"},"federalState":{"key":"08","name":"Baden-Württemberg"}},{"name":"Römerweg","postalCode":"88456","locality":"Ingoldingen","municipality":{"key":"08426062","name":"Ingoldingen","type":"Kreisangehörige_Gemeinde"},"district":{"key":"08426","name":"Biberach","type":"Landkreis"},"federalState":{"key":"08","name":"Baden-Württemberg"}},{"name":"Salzstr.","postalCode":"88456","locality":"Ingoldingen","municipality":{"key":"08426062","name":"Ingoldingen","type":"Kreisangehörige_Gemeinde"},"district":{"key":"08426","name":"Biberach","type":"Landkreis"},"federalState":{"key":"08","name":"Baden-Württemberg"}},{"name":"Saumwiesen","postalCode":"88456","locality":"Ingoldingen","municipality":{"key":"08426062","name":"Ingoldingen","type":"Kreisangehörige_Gemeinde"},"district":{"key":"08426","name":"Biberach","type":"Landkreis"},"federalState":{"key":"08","name":"Baden-Württemberg"}},{"name":"Schießhüttenweg","postalCode":"88456","locality":"Ingoldingen","municipality":{"key":"08426062","name":"Ingoldingen","type":"Kreisangehörige_Gemeinde"},"district":{"key":"08426","name":"Biberach","type":"Landkreis"},"federalState":{"key":"08","name":"Baden-Württemberg"}},{"name":"Schloßbühl","postalCode":"88456","locality":"Ingoldingen","municipality":{"key":"08426062","name":"Ingoldingen","type":"Kreisangehörige_Gemeinde"},"district":{"key":"08426","name":"Biberach","type":"Landkreis"},"federalState":{"key":"08","name":"Baden-Württemberg"}},{"name":"Schmidsgasse","postalCode":"88456","locality":"Ingoldingen","municipality":{"key":"08426062","name":"Ingoldingen","type":"Kreisangehörige_Gemeinde"},"district":{"key":"08426","name":"Biberach","type":"Landkreis"},"federalState":{"key":"08","name":"Baden-Württemberg"}},{"name":"Schulstr.","postalCode":"88456","locality":"Ingoldingen","municipality":{"key":"08426062","name":"Ingoldingen","type":"Kreisangehörige_Gemeinde"},"district":{"key":"08426","name":"Biberach","type":"Landkreis"},"federalState":{"key":"08","name":"Baden-Württemberg"}},{"name":"Schussenrieder Str.","postalCode":"88456","locality":"Ingoldingen","municipality":{"key":"08426062","name":"Ingoldingen","type":"Kreisangehörige_Gemeinde"},"district":{"key":"08426","name":"Biberach","type":"Landkreis"},"federalState":{"key":"08","name":"Baden-Württemberg"}},{"name":"Sonnenrain","postalCode":"88456","locality":"Ingoldingen","municipality":{"key":"08426062","name":"Ingoldingen","type":"Kreisangehörige_Gemeinde"},"district":{"key":"08426","name":"Biberach","type":"Landkreis"},"federalState":{"key":"08","name":"Baden-Württemberg"}},{"name":"Stadelhofweg","postalCode":"88456","locality":"Ingoldingen","municipality":{"key":"08426062","name":"Ingoldingen","type":"Kreisangehörige_Gemeinde"},"district":{"key":"08426","name":"Biberach","type":"Landkreis"},"federalState":{"key":"08","name":"Baden-Württemberg"}},{"name":"Stadtgraben","postalCode":"88456","locality":"Ingoldingen","municipality":{"key":"08426062","name":"Ingoldingen","type":"Kreisangehörige_Gemeinde"},"district":{"key":"08426","name":"Biberach","type":"Landkreis"},"federalState":{"key":"08","name":"Baden-Württemberg"}},{"name":"Stationenweg","postalCode":"88456","locality":"Ingoldingen","municipality":{"key":"08426062","name":"Ingoldingen","type":"Kreisangehörige_Gemeinde"},"district":{"key":"08426","name":"Biberach","type":"Landkreis"},"federalState":{"key":"08","name":"Baden-Württemberg"}},{"name":"Steinhauser Str.","postalCode":"88456","locality":"Ingoldingen","municipality":{"key":"08426062","name":"Ingoldingen","type":"Kreisangehörige_Gemeinde"},"district":{"key":"08426","name":"Biberach","type":"Landkreis"},"federalState":{"key":"08","name":"Baden-Württemberg"}},{"name":"Steinrinnenweg","postalCode":"88456","locality":"Ingoldingen","municipality":{"key":"08426062","name":"Ingoldingen","type":"Kreisangehörige_Gemeinde"},"district":{"key":"08426","name":"Biberach","type":"Landkreis"},"federalState":{"key":"08","name":"Baden-Württemberg"}},{"name":"St. Georgenstr.","postalCode":"88456","locality":"Ingoldingen","municipality":{"key":"08426062","name":"Ingoldingen","type":"Kreisangehörige_Gemeinde"},"district":{"key":"08426","name":"Biberach","type":"Landkreis"},"federalState":{"key":"08","name":"Baden-Württemberg"}},{"name":"Stöckachweg","postalCode":"88456","locality":"Ingoldingen","municipality":{"key":"08426062","name":"Ingoldingen","type":"Kreisangehörige_Gemeinde"},"district":{"key":"08426","name":"Biberach","type":"Landkreis"},"federalState":{"key":"08","name":"Baden-Württemberg"}},{"name":"Talblick","postalCode":"88456","locality":"Ingoldingen","municipality":{"key":"08426062","name":"Ingoldingen","type":"Kreisangehörige_Gemeinde"},"district":{"key":"08426","name":"Biberach","type":"Landkreis"},"federalState":{"key":"08","name":"Baden-Württemberg"}},{"name":"Triebweg","postalCode":"88456","locality":"Ingoldingen","municipality":{"key":"08426062","name":"Ingoldingen","type":"Kreisangehörige_Gemeinde"},"district":{"key":"08426","name":"Biberach","type":"Landkreis"},"federalState":{"key":"08","name":"Baden-Württemberg"}},{"name":"Untere Gasse","postalCode":"88456","locality":"Ingoldingen","municipality":{"key":"08426062","name":"Ingoldingen","type":"Kreisangehörige_Gemeinde"},"district":{"key":"08426","name":"Biberach","type":"Landkreis"},"federalState":{"key":"08","name":"Baden-Württemberg"}},{"name":"Unteressendorfer Str.","postalCode":"88456","locality":"Ingoldingen","municipality":{"key":"08426062","name":"Ingoldingen","type":"Kreisangehörige_Gemeinde"},"district":{"key":"08426","name":"Biberach","type":"Landkreis"},"federalState":{"key":"08","name":"Baden-Württemberg"}},{"name":"Valenceallee","postalCode":"88400","locality":"Biberach an der Riß","municipality":{"key":"08426021","name":"Biberach an der Riß, Stadt","type":"Große_Kreisstadt"},"district":{"key":"08426","name":"Biberach","type":"Landkreis"},"federalState":{"key":"08","name":"Baden-Württemberg"}},{"name":"Viehmarktplatz","postalCode":"88400","locality":"Biberach an der Riß","municipality":{"key":"08426021","name":"Biberach an der Riß, Stadt","type":"Große_Kreisstadt"},"district":{"key":"08426","name":"Biberach","type":"Landkreis"},"federalState":{"key":"08","name":"Baden-Württemberg"}},{"name":"Viehmarktstr.","postalCode":"88400","locality":"Biberach an der Riß","municipality":{"key":"08426021","name":"Biberach an der Riß, Stadt","type":"Große_Kreisstadt"},"district":{"key":"08426","name":"Biberach","type":"Landkreis"},"federalState":{"key":"08","name":"Baden-Württemberg"}},{"name":"Vogesenstr.","postalCode":"77781","locality":"Biberach","municipality":{"key":"08317011","name":"Biberach","type":"Kreisangehörige_Gemeinde"},"district":{"key":"08317","name":"Ortenaukreis","type":"Landkreis"},"federalState":{"key":"08","name":"Baden-Württemberg"}},{"name":"Vogteistr.","postalCode":"88441","locality":"Mittelbiberach","municipality":{"key":"08426074","name":"Mittelbiberach","type":"Kreisangehörige_Gemeinde"},"district":{"key":"08426","name":"Biberach","type":"Landkreis"},"federalState":{"key":"08","name":"Baden-Württemberg"}},{"name":"Vollmerstr.","postalCode":"88400","locality":"Biberach an der Riß","municipality":{"key":"08426021","name":"Biberach an der Riß, Stadt","type":"Große_Kreisstadt"},"district":{"key":"08426","name":"Biberach","type":"Landkreis"},"federalState":{"key":"08","name":"Baden-Württemberg"}},{"name":"Volmarweg","postalCode":"88400","locality":"Biberach an der Riß","municipality":{"key":"08426021","name":"Biberach an der Riß, Stadt","type":"Große_Kreisstadt"},"district":{"key":"08426","name":"Biberach","type":"Landkreis"},"federalState":{"key":"08","name":"Baden-Württemberg"}},{"name":"Vonierweg","postalCode":"88400","locality":"Biberach an der Riß","municipality":{"key":"08426021","name":"Biberach an der Riß, Stadt","type":"Große_Kreisstadt"},"district":{"key":"08426","name":"Biberach","type":"Landkreis"},"federalState":{"key":"08","name":"Baden-Württemberg"}},{"name":"Vorarlberger Str.","postalCode":"88400","locality":"Biberach an der Riß","municipality":{"key":"08426021","name":"Biberach an der Riß, Stadt","type":"Große_Kreisstadt"},"district":{"key":"08426","name":"Biberach","type":"Landkreis"},"federalState":{"key":"08","name":"Baden-Württemberg"}},{"name":"Vordere Au","postalCode":"88400","locality":"Biberach an der Riß","municipality":{"key":"08426021","name":"Biberach an der Riß, Stadt","type":"Große_Kreisstadt"},"district":{"key":"08426","name":"Biberach","type":"Landkreis"},"federalState":{"key":"08","name":"Baden-Württemberg"}},{"name":"Waldblick","postalCode":"88456","locality":"Ingoldingen","municipality":{"key":"08426062","name":"Ingoldingen","type":"Kreisangehörige_Gemeinde"},"district":{"key":"08426","name":"Biberach","type":"Landkreis"},"federalState":{"key":"08","name":"Baden-Württemberg"}},{"name":"Waldseer Str.","postalCode":"88456","locality":"Ingoldingen","municipality":{"key":"08426062","name":"Ingoldingen","type":"Kreisangehörige_Gemeinde"},"district":{"key":"08426","name":"Biberach","type":"Landkreis"},"federalState":{"key":"08","name":"Baden-Württemberg"}},{"name":"Wasserscheide","postalCode":"88456","locality":"Ingoldingen","municipality":{"key":"08426062","name":"Ingoldingen","type":"Kreisangehörige_Gemeinde"},"district":{"key":"08426","name":"Biberach","type":"Landkreis"},"federalState":{"key":"08","name":"Baden-Württemberg"}},{"name":"Wiesenhölzle","postalCode":"88456","locality":"Ingoldingen","municipality":{"key":"08426062","name":"Ingoldingen","type":"Kreisangehörige_Gemeinde"},"district":{"key":"08426","name":"Biberach","type":"Landkreis"},"federalState":{"key":"08","name":"Baden-Württemberg"}},{"name":"Winterstetter Weg","postalCode":"88456","locality":"Ingoldingen","municipality":{"key":"08426062","name":"Ingoldingen","type":"Kreisangehörige_Gemeinde"},"district":{"key":"08426","name":"Biberach","type":"Landkreis"},"federalState":{"key":"08","name":"Baden-Württemberg"}},{"name":"Ziegelhütte","postalCode":"88456","locality":"Ingoldingen","municipality":{"key":"08426062","name":"Ingoldingen","type":"Kreisangehörige_Gemeinde"},"district":{"key":"08426","name":"Biberach","type":"Landkreis"},"federalState":{"key":"08","name":"Baden-Württemberg"}},{"name":"Ziegelstr.","postalCode":"88456","locality":"Ingoldingen","municipality":{"key":"08426062","name":"Ingoldingen","type":"Kreisangehörige_Gemeinde"},"district":{"key":"08426","name":"Biberach","type":"Landkreis"},"federalState":{"key":"08","name":"Baden-Württemberg"}},{"name":"Ziegelweg","postalCode":"88456","locality":"Ingoldingen","municipality":{"key":"08426062","name":"Ingoldingen","type":"Kreisangehörige_Gemeinde"},"district":{"key":"08426","name":"Biberach","type":"Landkreis"},"federalState":{"key":"08","name":"Baden-Württemberg"}},{"name":"Öschweg","postalCode":"88441","locality":"Mittelbiberach","municipality":{"key":"08426074","name":"Mittelbiberach","type":"Kreisangehörige_Gemeinde"},"district":{"key":"08426","name":"Biberach","type":"Landkreis"},"federalState":{"key":"08","name":"Baden-Württemberg"}},]