[{"name":"Am Bruderweg","postalCode":"54298","locality":"Gilzem","municipality":{"key":"07232225","name":"Gilzem","type":"Kreisangehörige_Gemeinde"},"district":{"key":"07232","name":"Eifelkreis Bitburg-Prüm","type":"Landkreis"},"federalState":{"key":"07","name":"Rheinland-Pfalz"}},{"name":"Eisenacher Str.","postalCode":"54298","locality":"Gilzem","municipality":{"key":"07232225","name":"Gilzem","type":"Kreisangehörige_Gemeinde"},"district":{"key":"07232","name":"Eifelkreis Bitburg-Prüm","type":"Landkreis"},"federalState":{"key":"07","name":"Rheinland-Pfalz"}},{"name":"Gartenstr.","postalCode":"54298","locality":"Gilzem","municipality":{"key":"07232225","name":"Gilzem","type":"Kreisangehörige_Gemeinde"},"district":{"key":"07232","name":"Eifelkreis Bitburg-Prüm","type":"Landkreis"},"federalState":{"key":"07","name":"Rheinland-Pfalz"}},{"name":"Hauptstr.","postalCode":"54298","locality":"Gilzem","municipality":{"key":"07232225","name":"Gilzem","type":"Kreisangehörige_Gemeinde"},"district":{"key":"07232","name":"Eifelkreis Bitburg-Prüm","type":"Landkreis"},"federalState":{"key":"07","name":"Rheinland-Pfalz"}},{"name":"Idesheimer Str.","postalCode":"54298","locality":"Gilzem","municipality":{"key":"07232225","name":"Gilzem","type":"Kreisangehörige_Gemeinde"},"district":{"key":"07232","name":"Eifelkreis Bitburg-Prüm","type":"Landkreis"},"federalState":{"key":"07","name":"Rheinland-Pfalz"}},{"name":"In der Querheck","postalCode":"54298","locality":"Gilzem","municipality":{"key":"07232225","name":"Gilzem","type":"Kreisangehörige_Gemeinde"},"district":{"key":"07232","name":"Eifelkreis Bitburg-Prüm","type":"Landkreis"},"federalState":{"key":"07","name":"Rheinland-Pfalz"}},{"name":"Kirchstr.","postalCode":"54298","locality":"Gilzem","municipality":{"key":"07232225","name":"Gilzem","type":"Kreisangehörige_Gemeinde"},"district":{"key":"07232","name":"Eifelkreis Bitburg-Prüm","type":"Landkreis"},"federalState":{"key":"07","name":"Rheinland-Pfalz"}},{"name":"Meckeler Str.","postalCode":"54298","locality":"Gilzem","municipality":{"key":"07232225","name":"Gilzem","type":"Kreisangehörige_Gemeinde"},"district":{"key":"07232","name":"Eifelkreis Bitburg-Prüm","type":"Landkreis"},"federalState":{"key":"07","name":"Rheinland-Pfalz"}},{"name":"Osterborn","postalCode":"54298","locality":"Gilzem","municipality":{"key":"07232225","name":"Gilzem","type":"Kreisangehörige_Gemeinde"},"district":{"key":"07232","name":"Eifelkreis Bitburg-Prüm","type":"Landkreis"},"federalState":{"key":"07","name":"Rheinland-Pfalz"}},{"name":"Zitadelle","postalCode":"54298","locality":"Gilzem","municipality":{"key":"07232225","name":"Gilzem","type":"Kreisangehörige_Gemeinde"},"district":{"key":"07232","name":"Eifelkreis Bitburg-Prüm","type":"Landkreis"},"federalState":{"key":"07","name":"Rheinland-Pfalz"}},{"name":"Zum Sportplatz","postalCode":"54298","locality":"Gilzem","municipality":{"key":"07232225","name":"Gilzem","type":"Kreisangehörige_Gemeinde"},"district":{"key":"07232","name":"Eifelkreis Bitburg-Prüm","type":"Landkreis"},"federalState":{"key":"07","name":"Rheinland-Pfalz"}},{"name":"Zur Dorfwiese","postalCode":"54298","locality":"Gilzem","municipality":{"key":"07232225","name":"Gilzem","type":"Kreisangehörige_Gemeinde"},"district":{"key":"07232","name":"Eifelkreis Bitburg-Prüm","type":"Landkreis"},"federalState":{"key":"07","name":"Rheinland-Pfalz"}},]