[{"name":"Adelholzener Str.","postalCode":"83313","locality":"Siegsdorf","municipality":{"key":"09189145","name":"Siegsdorf","type":"Kreisangehörige_Gemeinde"},"district":{"key":"09189","name":"Traunstein","type":"Landkreis"},"federalState":{"key":"09","name":"Bayern"}},{"name":"Adlgastag","postalCode":"83313","locality":"Siegsdorf","municipality":{"key":"09189145","name":"Siegsdorf","type":"Kreisangehörige_Gemeinde"},"district":{"key":"09189","name":"Traunstein","type":"Landkreis"},"federalState":{"key":"09","name":"Bayern"}},{"name":"Ahornstr.","postalCode":"83313","locality":"Siegsdorf","municipality":{"key":"09189145","name":"Siegsdorf","type":"Kreisangehörige_Gemeinde"},"district":{"key":"09189","name":"Traunstein","type":"Landkreis"},"federalState":{"key":"09","name":"Bayern"}},{"name":"Aicher","postalCode":"83313","locality":"Siegsdorf","municipality":{"key":"09189145","name":"Siegsdorf","type":"Kreisangehörige_Gemeinde"},"district":{"key":"09189","name":"Traunstein","type":"Landkreis"},"federalState":{"key":"09","name":"Bayern"}},{"name":"Aigen","postalCode":"83313","locality":"Siegsdorf","municipality":{"key":"09189145","name":"Siegsdorf","type":"Kreisangehörige_Gemeinde"},"district":{"key":"09189","name":"Traunstein","type":"Landkreis"},"federalState":{"key":"09","name":"Bayern"}},{"name":"Alpenrosenweg","postalCode":"83313","locality":"Siegsdorf","municipality":{"key":"09189145","name":"Siegsdorf","type":"Kreisangehörige_Gemeinde"},"district":{"key":"09189","name":"Traunstein","type":"Landkreis"},"federalState":{"key":"09","name":"Bayern"}},{"name":"Alzinger Feld","postalCode":"83313","locality":"Siegsdorf","municipality":{"key":"09189145","name":"Siegsdorf","type":"Kreisangehörige_Gemeinde"},"district":{"key":"09189","name":"Traunstein","type":"Landkreis"},"federalState":{"key":"09","name":"Bayern"}},{"name":"Am Buchenwald","postalCode":"83313","locality":"Siegsdorf","municipality":{"key":"09189145","name":"Siegsdorf","type":"Kreisangehörige_Gemeinde"},"district":{"key":"09189","name":"Traunstein","type":"Landkreis"},"federalState":{"key":"09","name":"Bayern"}},{"name":"Am Himmelreich","postalCode":"83313","locality":"Siegsdorf","municipality":{"key":"09189145","name":"Siegsdorf","type":"Kreisangehörige_Gemeinde"},"district":{"key":"09189","name":"Traunstein","type":"Landkreis"},"federalState":{"key":"09","name":"Bayern"}},{"name":"Am Mooswinklbach","postalCode":"83313","locality":"Siegsdorf","municipality":{"key":"09189145","name":"Siegsdorf","type":"Kreisangehörige_Gemeinde"},"district":{"key":"09189","name":"Traunstein","type":"Landkreis"},"federalState":{"key":"09","name":"Bayern"}},{"name":"Am Schafgraben","postalCode":"83313","locality":"Siegsdorf","municipality":{"key":"09189145","name":"Siegsdorf","type":"Kreisangehörige_Gemeinde"},"district":{"key":"09189","name":"Traunstein","type":"Landkreis"},"federalState":{"key":"09","name":"Bayern"}},{"name":"Am Thannberg","postalCode":"83313","locality":"Siegsdorf","municipality":{"key":"09189145","name":"Siegsdorf","type":"Kreisangehörige_Gemeinde"},"district":{"key":"09189","name":"Traunstein","type":"Landkreis"},"federalState":{"key":"09","name":"Bayern"}},{"name":"Am Venusberg","postalCode":"83313","locality":"Siegsdorf","municipality":{"key":"09189145","name":"Siegsdorf","type":"Kreisangehörige_Gemeinde"},"district":{"key":"09189","name":"Traunstein","type":"Landkreis"},"federalState":{"key":"09","name":"Bayern"}},{"name":"Am Vogeltenn","postalCode":"83313","locality":"Siegsdorf","municipality":{"key":"09189145","name":"Siegsdorf","type":"Kreisangehörige_Gemeinde"},"district":{"key":"09189","name":"Traunstein","type":"Landkreis"},"federalState":{"key":"09","name":"Bayern"}},{"name":"Am Wehr","postalCode":"83313","locality":"Siegsdorf","municipality":{"key":"09189145","name":"Siegsdorf","type":"Kreisangehörige_Gemeinde"},"district":{"key":"09189","name":"Traunstein","type":"Landkreis"},"federalState":{"key":"09","name":"Bayern"}},{"name":"An der Ag","postalCode":"83313","locality":"Siegsdorf","municipality":{"key":"09189145","name":"Siegsdorf","type":"Kreisangehörige_Gemeinde"},"district":{"key":"09189","name":"Traunstein","type":"Landkreis"},"federalState":{"key":"09","name":"Bayern"}},{"name":"An der Schule","postalCode":"83313","locality":"Siegsdorf","municipality":{"key":"09189145","name":"Siegsdorf","type":"Kreisangehörige_Gemeinde"},"district":{"key":"09189","name":"Traunstein","type":"Landkreis"},"federalState":{"key":"09","name":"Bayern"}},{"name":"Angererweg","postalCode":"83313","locality":"Siegsdorf","municipality":{"key":"09189145","name":"Siegsdorf","type":"Kreisangehörige_Gemeinde"},"district":{"key":"09189","name":"Traunstein","type":"Landkreis"},"federalState":{"key":"09","name":"Bayern"}},{"name":"Arztbergstr.","postalCode":"83313","locality":"Siegsdorf","municipality":{"key":"09189145","name":"Siegsdorf","type":"Kreisangehörige_Gemeinde"},"district":{"key":"09189","name":"Traunstein","type":"Landkreis"},"federalState":{"key":"09","name":"Bayern"}},{"name":"Auenstr.","postalCode":"83313","locality":"Siegsdorf","municipality":{"key":"09189145","name":"Siegsdorf","type":"Kreisangehörige_Gemeinde"},"district":{"key":"09189","name":"Traunstein","type":"Landkreis"},"federalState":{"key":"09","name":"Bayern"}},{"name":"Auf der Mauer","postalCode":"83313","locality":"Siegsdorf","municipality":{"key":"09189145","name":"Siegsdorf","type":"Kreisangehörige_Gemeinde"},"district":{"key":"09189","name":"Traunstein","type":"Landkreis"},"federalState":{"key":"09","name":"Bayern"}},{"name":"Augraben","postalCode":"83313","locality":"Siegsdorf","municipality":{"key":"09189145","name":"Siegsdorf","type":"Kreisangehörige_Gemeinde"},"district":{"key":"09189","name":"Traunstein","type":"Landkreis"},"federalState":{"key":"09","name":"Bayern"}},{"name":"Auweg","postalCode":"83313","locality":"Siegsdorf","municipality":{"key":"09189145","name":"Siegsdorf","type":"Kreisangehörige_Gemeinde"},"district":{"key":"09189","name":"Traunstein","type":"Landkreis"},"federalState":{"key":"09","name":"Bayern"}},{"name":"Bahnhofstr.","postalCode":"83313","locality":"Siegsdorf","municipality":{"key":"09189145","name":"Siegsdorf","type":"Kreisangehörige_Gemeinde"},"district":{"key":"09189","name":"Traunstein","type":"Landkreis"},"federalState":{"key":"09","name":"Bayern"}},{"name":"Bärenweg","postalCode":"83313","locality":"Siegsdorf","municipality":{"key":"09189145","name":"Siegsdorf","type":"Kreisangehörige_Gemeinde"},"district":{"key":"09189","name":"Traunstein","type":"Landkreis"},"federalState":{"key":"09","name":"Bayern"}},{"name":"Bergener Str.","postalCode":"83313","locality":"Siegsdorf","municipality":{"key":"09189145","name":"Siegsdorf","type":"Kreisangehörige_Gemeinde"},"district":{"key":"09189","name":"Traunstein","type":"Landkreis"},"federalState":{"key":"09","name":"Bayern"}},{"name":"Bergstr.","postalCode":"83313","locality":"Siegsdorf","municipality":{"key":"09189145","name":"Siegsdorf","type":"Kreisangehörige_Gemeinde"},"district":{"key":"09189","name":"Traunstein","type":"Landkreis"},"federalState":{"key":"09","name":"Bayern"}},{"name":"Berliner Str.","postalCode":"83313","locality":"Siegsdorf","municipality":{"key":"09189145","name":"Siegsdorf","type":"Kreisangehörige_Gemeinde"},"district":{"key":"09189","name":"Traunstein","type":"Landkreis"},"federalState":{"key":"09","name":"Bayern"}},{"name":"Betzstr.","postalCode":"83313","locality":"Siegsdorf","municipality":{"key":"09189145","name":"Siegsdorf","type":"Kreisangehörige_Gemeinde"},"district":{"key":"09189","name":"Traunstein","type":"Landkreis"},"federalState":{"key":"09","name":"Bayern"}},{"name":"Bichlweg","postalCode":"83313","locality":"Siegsdorf","municipality":{"key":"09189145","name":"Siegsdorf","type":"Kreisangehörige_Gemeinde"},"district":{"key":"09189","name":"Traunstein","type":"Landkreis"},"federalState":{"key":"09","name":"Bayern"}},{"name":"Billmayerberg","postalCode":"83313","locality":"Siegsdorf","municipality":{"key":"09189145","name":"Siegsdorf","type":"Kreisangehörige_Gemeinde"},"district":{"key":"09189","name":"Traunstein","type":"Landkreis"},"federalState":{"key":"09","name":"Bayern"}},{"name":"Birkenweg","postalCode":"83313","locality":"Siegsdorf","municipality":{"key":"09189145","name":"Siegsdorf","type":"Kreisangehörige_Gemeinde"},"district":{"key":"09189","name":"Traunstein","type":"Landkreis"},"federalState":{"key":"09","name":"Bayern"}},{"name":"Blaue-Wand-Str.","postalCode":"83313","locality":"Siegsdorf","municipality":{"key":"09189145","name":"Siegsdorf","type":"Kreisangehörige_Gemeinde"},"district":{"key":"09189","name":"Traunstein","type":"Landkreis"},"federalState":{"key":"09","name":"Bayern"}},{"name":"Blumenstr.","postalCode":"83313","locality":"Siegsdorf","municipality":{"key":"09189145","name":"Siegsdorf","type":"Kreisangehörige_Gemeinde"},"district":{"key":"09189","name":"Traunstein","type":"Landkreis"},"federalState":{"key":"09","name":"Bayern"}},{"name":"Breslauer Str.","postalCode":"83313","locality":"Siegsdorf","municipality":{"key":"09189145","name":"Siegsdorf","type":"Kreisangehörige_Gemeinde"},"district":{"key":"09189","name":"Traunstein","type":"Landkreis"},"federalState":{"key":"09","name":"Bayern"}},{"name":"Brombichlweg","postalCode":"83313","locality":"Siegsdorf","municipality":{"key":"09189145","name":"Siegsdorf","type":"Kreisangehörige_Gemeinde"},"district":{"key":"09189","name":"Traunstein","type":"Landkreis"},"federalState":{"key":"09","name":"Bayern"}},{"name":"Brunnweg","postalCode":"83313","locality":"Siegsdorf","municipality":{"key":"09189145","name":"Siegsdorf","type":"Kreisangehörige_Gemeinde"},"district":{"key":"09189","name":"Traunstein","type":"Landkreis"},"federalState":{"key":"09","name":"Bayern"}},{"name":"Buchecker Weg","postalCode":"83313","locality":"Siegsdorf","municipality":{"key":"09189145","name":"Siegsdorf","type":"Kreisangehörige_Gemeinde"},"district":{"key":"09189","name":"Traunstein","type":"Landkreis"},"federalState":{"key":"09","name":"Bayern"}},{"name":"Buchenweg","postalCode":"83313","locality":"Siegsdorf","municipality":{"key":"09189145","name":"Siegsdorf","type":"Kreisangehörige_Gemeinde"},"district":{"key":"09189","name":"Traunstein","type":"Landkreis"},"federalState":{"key":"09","name":"Bayern"}},{"name":"Chiemseestr.","postalCode":"83278","locality":"Traunstein","municipality":{"key":"09189155","name":"Traunstein, GKSt","type":"Große_Kreisstadt"},"district":{"key":"09189","name":"Traunstein","type":"Landkreis"},"federalState":{"key":"09","name":"Bayern"}},{"name":"Crailsheimstr.","postalCode":"83278","locality":"Traunstein","municipality":{"key":"09189155","name":"Traunstein, GKSt","type":"Große_Kreisstadt"},"district":{"key":"09189","name":"Traunstein","type":"Landkreis"},"federalState":{"key":"09","name":"Bayern"}},{"name":"Daburgerstr.","postalCode":"83313","locality":"Siegsdorf","municipality":{"key":"09189145","name":"Siegsdorf","type":"Kreisangehörige_Gemeinde"},"district":{"key":"09189","name":"Traunstein","type":"Landkreis"},"federalState":{"key":"09","name":"Bayern"}},{"name":"Danziger Str.","postalCode":"83313","locality":"Siegsdorf","municipality":{"key":"09189145","name":"Siegsdorf","type":"Kreisangehörige_Gemeinde"},"district":{"key":"09189","name":"Traunstein","type":"Landkreis"},"federalState":{"key":"09","name":"Bayern"}},{"name":"Daxastr.","postalCode":"83313","locality":"Siegsdorf","municipality":{"key":"09189145","name":"Siegsdorf","type":"Kreisangehörige_Gemeinde"},"district":{"key":"09189","name":"Traunstein","type":"Landkreis"},"federalState":{"key":"09","name":"Bayern"}},{"name":"Daxenbacher Str.","postalCode":"83313","locality":"Siegsdorf","municipality":{"key":"09189145","name":"Siegsdorf","type":"Kreisangehörige_Gemeinde"},"district":{"key":"09189","name":"Traunstein","type":"Landkreis"},"federalState":{"key":"09","name":"Bayern"}},{"name":"Deutsche Alpenstr.","postalCode":"83313","locality":"Siegsdorf","municipality":{"key":"09189145","name":"Siegsdorf","type":"Kreisangehörige_Gemeinde"},"district":{"key":"09189","name":"Traunstein","type":"Landkreis"},"federalState":{"key":"09","name":"Bayern"}},{"name":"Dießelbachweg","postalCode":"83313","locality":"Siegsdorf","municipality":{"key":"09189145","name":"Siegsdorf","type":"Kreisangehörige_Gemeinde"},"district":{"key":"09189","name":"Traunstein","type":"Landkreis"},"federalState":{"key":"09","name":"Bayern"}},{"name":"Dorfstr.","postalCode":"83313","locality":"Siegsdorf","municipality":{"key":"09189145","name":"Siegsdorf","type":"Kreisangehörige_Gemeinde"},"district":{"key":"09189","name":"Traunstein","type":"Landkreis"},"federalState":{"key":"09","name":"Bayern"}},{"name":"Dr.-Kliegl-Str.","postalCode":"83313","locality":"Siegsdorf","municipality":{"key":"09189145","name":"Siegsdorf","type":"Kreisangehörige_Gemeinde"},"district":{"key":"09189","name":"Traunstein","type":"Landkreis"},"federalState":{"key":"09","name":"Bayern"}},{"name":"Dr.-Liegl-Str.","postalCode":"83313","locality":"Siegsdorf","municipality":{"key":"09189145","name":"Siegsdorf","type":"Kreisangehörige_Gemeinde"},"district":{"key":"09189","name":"Traunstein","type":"Landkreis"},"federalState":{"key":"09","name":"Bayern"}},{"name":"Eckhofstr.","postalCode":"83313","locality":"Siegsdorf","municipality":{"key":"09189145","name":"Siegsdorf","type":"Kreisangehörige_Gemeinde"},"district":{"key":"09189","name":"Traunstein","type":"Landkreis"},"federalState":{"key":"09","name":"Bayern"}},{"name":"Eibenweg","postalCode":"83313","locality":"Siegsdorf","municipality":{"key":"09189145","name":"Siegsdorf","type":"Kreisangehörige_Gemeinde"},"district":{"key":"09189","name":"Traunstein","type":"Landkreis"},"federalState":{"key":"09","name":"Bayern"}},{"name":"Eichenweg","postalCode":"83313","locality":"Siegsdorf","municipality":{"key":"09189145","name":"Siegsdorf","type":"Kreisangehörige_Gemeinde"},"district":{"key":"09189","name":"Traunstein","type":"Landkreis"},"federalState":{"key":"09","name":"Bayern"}},{"name":"Erlenweg","postalCode":"83313","locality":"Siegsdorf","municipality":{"key":"09189145","name":"Siegsdorf","type":"Kreisangehörige_Gemeinde"},"district":{"key":"09189","name":"Traunstein","type":"Landkreis"},"federalState":{"key":"09","name":"Bayern"}},{"name":"Eschenweg","postalCode":"83313","locality":"Siegsdorf","municipality":{"key":"09189145","name":"Siegsdorf","type":"Kreisangehörige_Gemeinde"},"district":{"key":"09189","name":"Traunstein","type":"Landkreis"},"federalState":{"key":"09","name":"Bayern"}},{"name":"Espenweg","postalCode":"83313","locality":"Siegsdorf","municipality":{"key":"09189145","name":"Siegsdorf","type":"Kreisangehörige_Gemeinde"},"district":{"key":"09189","name":"Traunstein","type":"Landkreis"},"federalState":{"key":"09","name":"Bayern"}},{"name":"Ferienparkstr.","postalCode":"83313","locality":"Siegsdorf","municipality":{"key":"09189145","name":"Siegsdorf","type":"Kreisangehörige_Gemeinde"},"district":{"key":"09189","name":"Traunstein","type":"Landkreis"},"federalState":{"key":"09","name":"Bayern"}},{"name":"Fichtenweg","postalCode":"83313","locality":"Siegsdorf","municipality":{"key":"09189145","name":"Siegsdorf","type":"Kreisangehörige_Gemeinde"},"district":{"key":"09189","name":"Traunstein","type":"Landkreis"},"federalState":{"key":"09","name":"Bayern"}},{"name":"Fliederweg","postalCode":"83313","locality":"Siegsdorf","municipality":{"key":"09189145","name":"Siegsdorf","type":"Kreisangehörige_Gemeinde"},"district":{"key":"09189","name":"Traunstein","type":"Landkreis"},"federalState":{"key":"09","name":"Bayern"}},{"name":"Flink","postalCode":"83313","locality":"Siegsdorf","municipality":{"key":"09189145","name":"Siegsdorf","type":"Kreisangehörige_Gemeinde"},"district":{"key":"09189","name":"Traunstein","type":"Landkreis"},"federalState":{"key":"09","name":"Bayern"}},{"name":"Föhrenweg","postalCode":"83313","locality":"Siegsdorf","municipality":{"key":"09189145","name":"Siegsdorf","type":"Kreisangehörige_Gemeinde"},"district":{"key":"09189","name":"Traunstein","type":"Landkreis"},"federalState":{"key":"09","name":"Bayern"}},{"name":"Frauenstätt","postalCode":"83313","locality":"Siegsdorf","municipality":{"key":"09189145","name":"Siegsdorf","type":"Kreisangehörige_Gemeinde"},"district":{"key":"09189","name":"Traunstein","type":"Landkreis"},"federalState":{"key":"09","name":"Bayern"}},{"name":"Friedenstr.","postalCode":"83313","locality":"Siegsdorf","municipality":{"key":"09189145","name":"Siegsdorf","type":"Kreisangehörige_Gemeinde"},"district":{"key":"09189","name":"Traunstein","type":"Landkreis"},"federalState":{"key":"09","name":"Bayern"}},{"name":"Frühlingstr.","postalCode":"83313","locality":"Siegsdorf","municipality":{"key":"09189145","name":"Siegsdorf","type":"Kreisangehörige_Gemeinde"},"district":{"key":"09189","name":"Traunstein","type":"Landkreis"},"federalState":{"key":"09","name":"Bayern"}},{"name":"Gamperlmühlstr.","postalCode":"83313","locality":"Siegsdorf","municipality":{"key":"09189145","name":"Siegsdorf","type":"Kreisangehörige_Gemeinde"},"district":{"key":"09189","name":"Traunstein","type":"Landkreis"},"federalState":{"key":"09","name":"Bayern"}},{"name":"Gamstr.","postalCode":"83313","locality":"Siegsdorf","municipality":{"key":"09189145","name":"Siegsdorf","type":"Kreisangehörige_Gemeinde"},"district":{"key":"09189","name":"Traunstein","type":"Landkreis"},"federalState":{"key":"09","name":"Bayern"}},{"name":"Gastager Feld","postalCode":"83313","locality":"Siegsdorf","municipality":{"key":"09189145","name":"Siegsdorf","type":"Kreisangehörige_Gemeinde"},"district":{"key":"09189","name":"Traunstein","type":"Landkreis"},"federalState":{"key":"09","name":"Bayern"}},{"name":"Gastagweg","postalCode":"83313","locality":"Siegsdorf","municipality":{"key":"09189145","name":"Siegsdorf","type":"Kreisangehörige_Gemeinde"},"district":{"key":"09189","name":"Traunstein","type":"Landkreis"},"federalState":{"key":"09","name":"Bayern"}},{"name":"Gehstr.","postalCode":"83313","locality":"Siegsdorf","municipality":{"key":"09189145","name":"Siegsdorf","type":"Kreisangehörige_Gemeinde"},"district":{"key":"09189","name":"Traunstein","type":"Landkreis"},"federalState":{"key":"09","name":"Bayern"}},{"name":"Georg-Bichler-Str.","postalCode":"83313","locality":"Siegsdorf","municipality":{"key":"09189145","name":"Siegsdorf","type":"Kreisangehörige_Gemeinde"},"district":{"key":"09189","name":"Traunstein","type":"Landkreis"},"federalState":{"key":"09","name":"Bayern"}},{"name":"Gerhartsreit","postalCode":"83313","locality":"Siegsdorf","municipality":{"key":"09189145","name":"Siegsdorf","type":"Kreisangehörige_Gemeinde"},"district":{"key":"09189","name":"Traunstein","type":"Landkreis"},"federalState":{"key":"09","name":"Bayern"}},{"name":"Gerhartsreiter Feld","postalCode":"83313","locality":"Siegsdorf","municipality":{"key":"09189145","name":"Siegsdorf","type":"Kreisangehörige_Gemeinde"},"district":{"key":"09189","name":"Traunstein","type":"Landkreis"},"federalState":{"key":"09","name":"Bayern"}},{"name":"Gerhartsreiter Str.","postalCode":"83313","locality":"Siegsdorf","municipality":{"key":"09189145","name":"Siegsdorf","type":"Kreisangehörige_Gemeinde"},"district":{"key":"09189","name":"Traunstein","type":"Landkreis"},"federalState":{"key":"09","name":"Bayern"}},{"name":"Grubweg","postalCode":"83313","locality":"Siegsdorf","municipality":{"key":"09189145","name":"Siegsdorf","type":"Kreisangehörige_Gemeinde"},"district":{"key":"09189","name":"Traunstein","type":"Landkreis"},"federalState":{"key":"09","name":"Bayern"}},{"name":"Gschwend","postalCode":"83313","locality":"Siegsdorf","municipality":{"key":"09189145","name":"Siegsdorf","type":"Kreisangehörige_Gemeinde"},"district":{"key":"09189","name":"Traunstein","type":"Landkreis"},"federalState":{"key":"09","name":"Bayern"}},{"name":"Gschwendstr.","postalCode":"83313","locality":"Siegsdorf","municipality":{"key":"09189145","name":"Siegsdorf","type":"Kreisangehörige_Gemeinde"},"district":{"key":"09189","name":"Traunstein","type":"Landkreis"},"federalState":{"key":"09","name":"Bayern"}},{"name":"Hachau","postalCode":"83313","locality":"Siegsdorf","municipality":{"key":"09189145","name":"Siegsdorf","type":"Kreisangehörige_Gemeinde"},"district":{"key":"09189","name":"Traunstein","type":"Landkreis"},"federalState":{"key":"09","name":"Bayern"}},{"name":"Hainbuchenweg","postalCode":"83313","locality":"Siegsdorf","municipality":{"key":"09189145","name":"Siegsdorf","type":"Kreisangehörige_Gemeinde"},"district":{"key":"09189","name":"Traunstein","type":"Landkreis"},"federalState":{"key":"09","name":"Bayern"}},{"name":"Hammerfeld","postalCode":"83313","locality":"Siegsdorf","municipality":{"key":"09189145","name":"Siegsdorf","type":"Kreisangehörige_Gemeinde"},"district":{"key":"09189","name":"Traunstein","type":"Landkreis"},"federalState":{"key":"09","name":"Bayern"}},{"name":"Hammernock","postalCode":"83313","locality":"Siegsdorf","municipality":{"key":"09189145","name":"Siegsdorf","type":"Kreisangehörige_Gemeinde"},"district":{"key":"09189","name":"Traunstein","type":"Landkreis"},"federalState":{"key":"09","name":"Bayern"}},{"name":"Haselnußweg","postalCode":"83313","locality":"Siegsdorf","municipality":{"key":"09189145","name":"Siegsdorf","type":"Kreisangehörige_Gemeinde"},"district":{"key":"09189","name":"Traunstein","type":"Landkreis"},"federalState":{"key":"09","name":"Bayern"}},{"name":"Haslachweg","postalCode":"83313","locality":"Siegsdorf","municipality":{"key":"09189145","name":"Siegsdorf","type":"Kreisangehörige_Gemeinde"},"district":{"key":"09189","name":"Traunstein","type":"Landkreis"},"federalState":{"key":"09","name":"Bayern"}},{"name":"Haunertinger Str.","postalCode":"83313","locality":"Siegsdorf","municipality":{"key":"09189145","name":"Siegsdorf","type":"Kreisangehörige_Gemeinde"},"district":{"key":"09189","name":"Traunstein","type":"Landkreis"},"federalState":{"key":"09","name":"Bayern"}},{"name":"Hauptstr.","postalCode":"83313","locality":"Siegsdorf","municipality":{"key":"09189145","name":"Siegsdorf","type":"Kreisangehörige_Gemeinde"},"district":{"key":"09189","name":"Traunstein","type":"Landkreis"},"federalState":{"key":"09","name":"Bayern"}},{"name":"Heidekrautweg","postalCode":"83313","locality":"Siegsdorf","municipality":{"key":"09189145","name":"Siegsdorf","type":"Kreisangehörige_Gemeinde"},"district":{"key":"09189","name":"Traunstein","type":"Landkreis"},"federalState":{"key":"09","name":"Bayern"}},{"name":"Heutauer Str.","postalCode":"83313","locality":"Siegsdorf","municipality":{"key":"09189145","name":"Siegsdorf","type":"Kreisangehörige_Gemeinde"},"district":{"key":"09189","name":"Traunstein","type":"Landkreis"},"federalState":{"key":"09","name":"Bayern"}},{"name":"Hochbergstr.","postalCode":"83313","locality":"Siegsdorf","municipality":{"key":"09189145","name":"Siegsdorf","type":"Kreisangehörige_Gemeinde"},"district":{"key":"09189","name":"Traunstein","type":"Landkreis"},"federalState":{"key":"09","name":"Bayern"}},{"name":"Hochfellnstr.","postalCode":"83313","locality":"Siegsdorf","municipality":{"key":"09189145","name":"Siegsdorf","type":"Kreisangehörige_Gemeinde"},"district":{"key":"09189","name":"Traunstein","type":"Landkreis"},"federalState":{"key":"09","name":"Bayern"}},{"name":"Hochgernstr.","postalCode":"83313","locality":"Siegsdorf","municipality":{"key":"09189145","name":"Siegsdorf","type":"Kreisangehörige_Gemeinde"},"district":{"key":"09189","name":"Traunstein","type":"Landkreis"},"federalState":{"key":"09","name":"Bayern"}},{"name":"Höll","postalCode":"83313","locality":"Siegsdorf","municipality":{"key":"09189145","name":"Siegsdorf","type":"Kreisangehörige_Gemeinde"},"district":{"key":"09189","name":"Traunstein","type":"Landkreis"},"federalState":{"key":"09","name":"Bayern"}},{"name":"Holunderweg","postalCode":"83313","locality":"Siegsdorf","municipality":{"key":"09189145","name":"Siegsdorf","type":"Kreisangehörige_Gemeinde"},"district":{"key":"09189","name":"Traunstein","type":"Landkreis"},"federalState":{"key":"09","name":"Bayern"}},{"name":"Höpfling","postalCode":"83313","locality":"Siegsdorf","municipality":{"key":"09189145","name":"Siegsdorf","type":"Kreisangehörige_Gemeinde"},"district":{"key":"09189","name":"Traunstein","type":"Landkreis"},"federalState":{"key":"09","name":"Bayern"}},{"name":"Höpflinger Weg","postalCode":"83313","locality":"Siegsdorf","municipality":{"key":"09189145","name":"Siegsdorf","type":"Kreisangehörige_Gemeinde"},"district":{"key":"09189","name":"Traunstein","type":"Landkreis"},"federalState":{"key":"09","name":"Bayern"}},{"name":"Hörgeringer Str.","postalCode":"83313","locality":"Siegsdorf","municipality":{"key":"09189145","name":"Siegsdorf","type":"Kreisangehörige_Gemeinde"},"district":{"key":"09189","name":"Traunstein","type":"Landkreis"},"federalState":{"key":"09","name":"Bayern"}},{"name":"Inzeller Str.","postalCode":"83313","locality":"Siegsdorf","municipality":{"key":"09189145","name":"Siegsdorf","type":"Kreisangehörige_Gemeinde"},"district":{"key":"09189","name":"Traunstein","type":"Landkreis"},"federalState":{"key":"09","name":"Bayern"}},{"name":"Jakob-Eder-Str.","postalCode":"83313","locality":"Siegsdorf","municipality":{"key":"09189145","name":"Siegsdorf","type":"Kreisangehörige_Gemeinde"},"district":{"key":"09189","name":"Traunstein","type":"Landkreis"},"federalState":{"key":"09","name":"Bayern"}},{"name":"Josefsweg","postalCode":"83313","locality":"Siegsdorf","municipality":{"key":"09189145","name":"Siegsdorf","type":"Kreisangehörige_Gemeinde"},"district":{"key":"09189","name":"Traunstein","type":"Landkreis"},"federalState":{"key":"09","name":"Bayern"}},{"name":"Kardinal-Döpfner-Platz","postalCode":"83313","locality":"Siegsdorf","municipality":{"key":"09189145","name":"Siegsdorf","type":"Kreisangehörige_Gemeinde"},"district":{"key":"09189","name":"Traunstein","type":"Landkreis"},"federalState":{"key":"09","name":"Bayern"}},{"name":"Kardinal-von-Faulhaber-Platz","postalCode":"83313","locality":"Siegsdorf","municipality":{"key":"09189145","name":"Siegsdorf","type":"Kreisangehörige_Gemeinde"},"district":{"key":"09189","name":"Traunstein","type":"Landkreis"},"federalState":{"key":"09","name":"Bayern"}},{"name":"Kastanienweg","postalCode":"83313","locality":"Siegsdorf","municipality":{"key":"09189145","name":"Siegsdorf","type":"Kreisangehörige_Gemeinde"},"district":{"key":"09189","name":"Traunstein","type":"Landkreis"},"federalState":{"key":"09","name":"Bayern"}},{"name":"Kiefernstr.","postalCode":"83313","locality":"Siegsdorf","municipality":{"key":"09189145","name":"Siegsdorf","type":"Kreisangehörige_Gemeinde"},"district":{"key":"09189","name":"Traunstein","type":"Landkreis"},"federalState":{"key":"09","name":"Bayern"}},{"name":"Kök","postalCode":"83313","locality":"Siegsdorf","municipality":{"key":"09189145","name":"Siegsdorf","type":"Kreisangehörige_Gemeinde"},"district":{"key":"09189","name":"Traunstein","type":"Landkreis"},"federalState":{"key":"09","name":"Bayern"}},{"name":"Königsberger Str.","postalCode":"83313","locality":"Siegsdorf","municipality":{"key":"09189145","name":"Siegsdorf","type":"Kreisangehörige_Gemeinde"},"district":{"key":"09189","name":"Traunstein","type":"Landkreis"},"federalState":{"key":"09","name":"Bayern"}},{"name":"Krätzstr.","postalCode":"83313","locality":"Siegsdorf","municipality":{"key":"09189145","name":"Siegsdorf","type":"Kreisangehörige_Gemeinde"},"district":{"key":"09189","name":"Traunstein","type":"Landkreis"},"federalState":{"key":"09","name":"Bayern"}},{"name":"Lärchenstr.","postalCode":"83313","locality":"Siegsdorf","municipality":{"key":"09189145","name":"Siegsdorf","type":"Kreisangehörige_Gemeinde"},"district":{"key":"09189","name":"Traunstein","type":"Landkreis"},"federalState":{"key":"09","name":"Bayern"}},{"name":"Lechnerstr.","postalCode":"83313","locality":"Siegsdorf","municipality":{"key":"09189145","name":"Siegsdorf","type":"Kreisangehörige_Gemeinde"},"district":{"key":"09189","name":"Traunstein","type":"Landkreis"},"federalState":{"key":"09","name":"Bayern"}},{"name":"Lerchmoosstr.","postalCode":"83313","locality":"Siegsdorf","municipality":{"key":"09189145","name":"Siegsdorf","type":"Kreisangehörige_Gemeinde"},"district":{"key":"09189","name":"Traunstein","type":"Landkreis"},"federalState":{"key":"09","name":"Bayern"}},{"name":"Lichtsberger Weg","postalCode":"83313","locality":"Siegsdorf","municipality":{"key":"09189145","name":"Siegsdorf","type":"Kreisangehörige_Gemeinde"},"district":{"key":"09189","name":"Traunstein","type":"Landkreis"},"federalState":{"key":"09","name":"Bayern"}},{"name":"Ligusterweg","postalCode":"83313","locality":"Siegsdorf","municipality":{"key":"09189145","name":"Siegsdorf","type":"Kreisangehörige_Gemeinde"},"district":{"key":"09189","name":"Traunstein","type":"Landkreis"},"federalState":{"key":"09","name":"Bayern"}},{"name":"Lindenstr.","postalCode":"83313","locality":"Siegsdorf","municipality":{"key":"09189145","name":"Siegsdorf","type":"Kreisangehörige_Gemeinde"},"district":{"key":"09189","name":"Traunstein","type":"Landkreis"},"federalState":{"key":"09","name":"Bayern"}},{"name":"Lipp","postalCode":"83313","locality":"Siegsdorf","municipality":{"key":"09189145","name":"Siegsdorf","type":"Kreisangehörige_Gemeinde"},"district":{"key":"09189","name":"Traunstein","type":"Landkreis"},"federalState":{"key":"09","name":"Bayern"}},{"name":"Lohfeldstr.","postalCode":"83313","locality":"Siegsdorf","municipality":{"key":"09189145","name":"Siegsdorf","type":"Kreisangehörige_Gemeinde"},"district":{"key":"09189","name":"Traunstein","type":"Landkreis"},"federalState":{"key":"09","name":"Bayern"}},{"name":"Lohhäusl","postalCode":"83313","locality":"Siegsdorf","municipality":{"key":"09189145","name":"Siegsdorf","type":"Kreisangehörige_Gemeinde"},"district":{"key":"09189","name":"Traunstein","type":"Landkreis"},"federalState":{"key":"09","name":"Bayern"}},{"name":"Maria-Eck-Str.","postalCode":"83313","locality":"Siegsdorf","municipality":{"key":"09189145","name":"Siegsdorf","type":"Kreisangehörige_Gemeinde"},"district":{"key":"09189","name":"Traunstein","type":"Landkreis"},"federalState":{"key":"09","name":"Bayern"}},{"name":"Marienstr.","postalCode":"83313","locality":"Siegsdorf","municipality":{"key":"09189145","name":"Siegsdorf","type":"Kreisangehörige_Gemeinde"},"district":{"key":"09189","name":"Traunstein","type":"Landkreis"},"federalState":{"key":"09","name":"Bayern"}},{"name":"Marienwerderstr.","postalCode":"83313","locality":"Siegsdorf","municipality":{"key":"09189145","name":"Siegsdorf","type":"Kreisangehörige_Gemeinde"},"district":{"key":"09189","name":"Traunstein","type":"Landkreis"},"federalState":{"key":"09","name":"Bayern"}},{"name":"Meisau","postalCode":"83313","locality":"Siegsdorf","municipality":{"key":"09189145","name":"Siegsdorf","type":"Kreisangehörige_Gemeinde"},"district":{"key":"09189","name":"Traunstein","type":"Landkreis"},"federalState":{"key":"09","name":"Bayern"}},{"name":"Mistelweg","postalCode":"83313","locality":"Siegsdorf","municipality":{"key":"09189145","name":"Siegsdorf","type":"Kreisangehörige_Gemeinde"},"district":{"key":"09189","name":"Traunstein","type":"Landkreis"},"federalState":{"key":"09","name":"Bayern"}},{"name":"Molbertinger Str.","postalCode":"83313","locality":"Siegsdorf","municipality":{"key":"09189145","name":"Siegsdorf","type":"Kreisangehörige_Gemeinde"},"district":{"key":"09189","name":"Traunstein","type":"Landkreis"},"federalState":{"key":"09","name":"Bayern"}},{"name":"Moosweg","postalCode":"83313","locality":"Siegsdorf","municipality":{"key":"09189145","name":"Siegsdorf","type":"Kreisangehörige_Gemeinde"},"district":{"key":"09189","name":"Traunstein","type":"Landkreis"},"federalState":{"key":"09","name":"Bayern"}},{"name":"Mühlenstr.","postalCode":"83313","locality":"Siegsdorf","municipality":{"key":"09189145","name":"Siegsdorf","type":"Kreisangehörige_Gemeinde"},"district":{"key":"09189","name":"Traunstein","type":"Landkreis"},"federalState":{"key":"09","name":"Bayern"}},{"name":"Neukirchener Str.","postalCode":"83313","locality":"Siegsdorf","municipality":{"key":"09189145","name":"Siegsdorf","type":"Kreisangehörige_Gemeinde"},"district":{"key":"09189","name":"Traunstein","type":"Landkreis"},"federalState":{"key":"09","name":"Bayern"}},{"name":"Neumayerstr.","postalCode":"83313","locality":"Siegsdorf","municipality":{"key":"09189145","name":"Siegsdorf","type":"Kreisangehörige_Gemeinde"},"district":{"key":"09189","name":"Traunstein","type":"Landkreis"},"federalState":{"key":"09","name":"Bayern"}},{"name":"Obermayerweg","postalCode":"83313","locality":"Siegsdorf","municipality":{"key":"09189145","name":"Siegsdorf","type":"Kreisangehörige_Gemeinde"},"district":{"key":"09189","name":"Traunstein","type":"Landkreis"},"federalState":{"key":"09","name":"Bayern"}},{"name":"Oberscharam","postalCode":"83313","locality":"Siegsdorf","municipality":{"key":"09189145","name":"Siegsdorf","type":"Kreisangehörige_Gemeinde"},"district":{"key":"09189","name":"Traunstein","type":"Landkreis"},"federalState":{"key":"09","name":"Bayern"}},{"name":"Osterhamer Leite","postalCode":"83313","locality":"Siegsdorf","municipality":{"key":"09189145","name":"Siegsdorf","type":"Kreisangehörige_Gemeinde"},"district":{"key":"09189","name":"Traunstein","type":"Landkreis"},"federalState":{"key":"09","name":"Bayern"}},{"name":"Otto-Kögl-Str.","postalCode":"83313","locality":"Siegsdorf","municipality":{"key":"09189145","name":"Siegsdorf","type":"Kreisangehörige_Gemeinde"},"district":{"key":"09189","name":"Traunstein","type":"Landkreis"},"federalState":{"key":"09","name":"Bayern"}},{"name":"Pfundersstr.","postalCode":"83313","locality":"Siegsdorf","municipality":{"key":"09189145","name":"Siegsdorf","type":"Kreisangehörige_Gemeinde"},"district":{"key":"09189","name":"Traunstein","type":"Landkreis"},"federalState":{"key":"09","name":"Bayern"}},{"name":"Rabensteinstr.","postalCode":"83313","locality":"Siegsdorf","municipality":{"key":"09189145","name":"Siegsdorf","type":"Kreisangehörige_Gemeinde"},"district":{"key":"09189","name":"Traunstein","type":"Landkreis"},"federalState":{"key":"09","name":"Bayern"}},{"name":"Raiffeisenstr.","postalCode":"83313","locality":"Siegsdorf","municipality":{"key":"09189145","name":"Siegsdorf","type":"Kreisangehörige_Gemeinde"},"district":{"key":"09189","name":"Traunstein","type":"Landkreis"},"federalState":{"key":"09","name":"Bayern"}},{"name":"Raitlweg","postalCode":"83313","locality":"Siegsdorf","municipality":{"key":"09189145","name":"Siegsdorf","type":"Kreisangehörige_Gemeinde"},"district":{"key":"09189","name":"Traunstein","type":"Landkreis"},"federalState":{"key":"09","name":"Bayern"}},{"name":"Rathausplatz","postalCode":"83313","locality":"Siegsdorf","municipality":{"key":"09189145","name":"Siegsdorf","type":"Kreisangehörige_Gemeinde"},"district":{"key":"09189","name":"Traunstein","type":"Landkreis"},"federalState":{"key":"09","name":"Bayern"}},{"name":"Rauschbergstr.","postalCode":"83313","locality":"Siegsdorf","municipality":{"key":"09189145","name":"Siegsdorf","type":"Kreisangehörige_Gemeinde"},"district":{"key":"09189","name":"Traunstein","type":"Landkreis"},"federalState":{"key":"09","name":"Bayern"}},{"name":"Reichenhaller Str.","postalCode":"83313","locality":"Siegsdorf","municipality":{"key":"09189145","name":"Siegsdorf","type":"Kreisangehörige_Gemeinde"},"district":{"key":"09189","name":"Traunstein","type":"Landkreis"},"federalState":{"key":"09","name":"Bayern"}},{"name":"Reichhausener Str.","postalCode":"83313","locality":"Siegsdorf","municipality":{"key":"09189145","name":"Siegsdorf","type":"Kreisangehörige_Gemeinde"},"district":{"key":"09189","name":"Traunstein","type":"Landkreis"},"federalState":{"key":"09","name":"Bayern"}},{"name":"Reifelbergstr.","postalCode":"83313","locality":"Siegsdorf","municipality":{"key":"09189145","name":"Siegsdorf","type":"Kreisangehörige_Gemeinde"},"district":{"key":"09189","name":"Traunstein","type":"Landkreis"},"federalState":{"key":"09","name":"Bayern"}},{"name":"Reinerbachweg","postalCode":"83313","locality":"Siegsdorf","municipality":{"key":"09189145","name":"Siegsdorf","type":"Kreisangehörige_Gemeinde"},"district":{"key":"09189","name":"Traunstein","type":"Landkreis"},"federalState":{"key":"09","name":"Bayern"}},{"name":"Reiterhofstr.","postalCode":"83313","locality":"Siegsdorf","municipality":{"key":"09189145","name":"Siegsdorf","type":"Kreisangehörige_Gemeinde"},"district":{"key":"09189","name":"Traunstein","type":"Landkreis"},"federalState":{"key":"09","name":"Bayern"}},{"name":"Reuten","postalCode":"83313","locality":"Siegsdorf","municipality":{"key":"09189145","name":"Siegsdorf","type":"Kreisangehörige_Gemeinde"},"district":{"key":"09189","name":"Traunstein","type":"Landkreis"},"federalState":{"key":"09","name":"Bayern"}},{"name":"Riedlweg","postalCode":"83313","locality":"Siegsdorf","municipality":{"key":"09189145","name":"Siegsdorf","type":"Kreisangehörige_Gemeinde"},"district":{"key":"09189","name":"Traunstein","type":"Landkreis"},"federalState":{"key":"09","name":"Bayern"}},{"name":"Rotdornweg","postalCode":"83313","locality":"Siegsdorf","municipality":{"key":"09189145","name":"Siegsdorf","type":"Kreisangehörige_Gemeinde"},"district":{"key":"09189","name":"Traunstein","type":"Landkreis"},"federalState":{"key":"09","name":"Bayern"}},{"name":"Rudhardt","postalCode":"83313","locality":"Siegsdorf","municipality":{"key":"09189145","name":"Siegsdorf","type":"Kreisangehörige_Gemeinde"},"district":{"key":"09189","name":"Traunstein","type":"Landkreis"},"federalState":{"key":"09","name":"Bayern"}},{"name":"Ruhpoldinger Str.","postalCode":"83313","locality":"Siegsdorf","municipality":{"key":"09189145","name":"Siegsdorf","type":"Kreisangehörige_Gemeinde"},"district":{"key":"09189","name":"Traunstein","type":"Landkreis"},"federalState":{"key":"09","name":"Bayern"}},{"name":"Rundweg Maria Eck","postalCode":"83313","locality":"Siegsdorf","municipality":{"key":"09189145","name":"Siegsdorf","type":"Kreisangehörige_Gemeinde"},"district":{"key":"09189","name":"Traunstein","type":"Landkreis"},"federalState":{"key":"09","name":"Bayern"}},{"name":"Rupertusstr.","postalCode":"83313","locality":"Siegsdorf","municipality":{"key":"09189145","name":"Siegsdorf","type":"Kreisangehörige_Gemeinde"},"district":{"key":"09189","name":"Traunstein","type":"Landkreis"},"federalState":{"key":"09","name":"Bayern"}},{"name":"Salinenweg","postalCode":"83313","locality":"Siegsdorf","municipality":{"key":"09189145","name":"Siegsdorf","type":"Kreisangehörige_Gemeinde"},"district":{"key":"09189","name":"Traunstein","type":"Landkreis"},"federalState":{"key":"09","name":"Bayern"}},{"name":"Salzstr.","postalCode":"83313","locality":"Siegsdorf","municipality":{"key":"09189145","name":"Siegsdorf","type":"Kreisangehörige_Gemeinde"},"district":{"key":"09189","name":"Traunstein","type":"Landkreis"},"federalState":{"key":"09","name":"Bayern"}},{"name":"Scharamer Weg","postalCode":"83313","locality":"Siegsdorf","municipality":{"key":"09189145","name":"Siegsdorf","type":"Kreisangehörige_Gemeinde"},"district":{"key":"09189","name":"Traunstein","type":"Landkreis"},"federalState":{"key":"09","name":"Bayern"}},{"name":"Scheichenbergstr.","postalCode":"83313","locality":"Siegsdorf","municipality":{"key":"09189145","name":"Siegsdorf","type":"Kreisangehörige_Gemeinde"},"district":{"key":"09189","name":"Traunstein","type":"Landkreis"},"federalState":{"key":"09","name":"Bayern"}},{"name":"Schlinzgerstr.","postalCode":"83313","locality":"Siegsdorf","municipality":{"key":"09189145","name":"Siegsdorf","type":"Kreisangehörige_Gemeinde"},"district":{"key":"09189","name":"Traunstein","type":"Landkreis"},"federalState":{"key":"09","name":"Bayern"}},{"name":"Schmiedstr.","postalCode":"83313","locality":"Siegsdorf","municipality":{"key":"09189145","name":"Siegsdorf","type":"Kreisangehörige_Gemeinde"},"district":{"key":"09189","name":"Traunstein","type":"Landkreis"},"federalState":{"key":"09","name":"Bayern"}},{"name":"Schneiderbachweg","postalCode":"83313","locality":"Siegsdorf","municipality":{"key":"09189145","name":"Siegsdorf","type":"Kreisangehörige_Gemeinde"},"district":{"key":"09189","name":"Traunstein","type":"Landkreis"},"federalState":{"key":"09","name":"Bayern"}},{"name":"Schönecker Str.","postalCode":"83313","locality":"Siegsdorf","municipality":{"key":"09189145","name":"Siegsdorf","type":"Kreisangehörige_Gemeinde"},"district":{"key":"09189","name":"Traunstein","type":"Landkreis"},"federalState":{"key":"09","name":"Bayern"}},{"name":"Schwimmbadweg","postalCode":"83313","locality":"Siegsdorf","municipality":{"key":"09189145","name":"Siegsdorf","type":"Kreisangehörige_Gemeinde"},"district":{"key":"09189","name":"Traunstein","type":"Landkreis"},"federalState":{"key":"09","name":"Bayern"}},{"name":"Sedlmayrstr.","postalCode":"83313","locality":"Siegsdorf","municipality":{"key":"09189145","name":"Siegsdorf","type":"Kreisangehörige_Gemeinde"},"district":{"key":"09189","name":"Traunstein","type":"Landkreis"},"federalState":{"key":"09","name":"Bayern"}},{"name":"Seelauer Str.","postalCode":"83313","locality":"Siegsdorf","municipality":{"key":"09189145","name":"Siegsdorf","type":"Kreisangehörige_Gemeinde"},"district":{"key":"09189","name":"Traunstein","type":"Landkreis"},"federalState":{"key":"09","name":"Bayern"}},{"name":"Seidelbastweg","postalCode":"83313","locality":"Siegsdorf","municipality":{"key":"09189145","name":"Siegsdorf","type":"Kreisangehörige_Gemeinde"},"district":{"key":"09189","name":"Traunstein","type":"Landkreis"},"federalState":{"key":"09","name":"Bayern"}},{"name":"Sonnenstr.","postalCode":"83313","locality":"Siegsdorf","municipality":{"key":"09189145","name":"Siegsdorf","type":"Kreisangehörige_Gemeinde"},"district":{"key":"09189","name":"Traunstein","type":"Landkreis"},"federalState":{"key":"09","name":"Bayern"}},{"name":"Sparzer Weg","postalCode":"83313","locality":"Siegsdorf","municipality":{"key":"09189145","name":"Siegsdorf","type":"Kreisangehörige_Gemeinde"},"district":{"key":"09189","name":"Traunstein","type":"Landkreis"},"federalState":{"key":"09","name":"Bayern"}},{"name":"Spatzreiter Str.","postalCode":"83313","locality":"Siegsdorf","municipality":{"key":"09189145","name":"Siegsdorf","type":"Kreisangehörige_Gemeinde"},"district":{"key":"09189","name":"Traunstein","type":"Landkreis"},"federalState":{"key":"09","name":"Bayern"}},{"name":"Spirkastr.","postalCode":"83313","locality":"Siegsdorf","municipality":{"key":"09189145","name":"Siegsdorf","type":"Kreisangehörige_Gemeinde"},"district":{"key":"09189","name":"Traunstein","type":"Landkreis"},"federalState":{"key":"09","name":"Bayern"}},{"name":"Spitzacker","postalCode":"83313","locality":"Siegsdorf","municipality":{"key":"09189145","name":"Siegsdorf","type":"Kreisangehörige_Gemeinde"},"district":{"key":"09189","name":"Traunstein","type":"Landkreis"},"federalState":{"key":"09","name":"Bayern"}},{"name":"Sportfeldstr.","postalCode":"83313","locality":"Siegsdorf","municipality":{"key":"09189145","name":"Siegsdorf","type":"Kreisangehörige_Gemeinde"},"district":{"key":"09189","name":"Traunstein","type":"Landkreis"},"federalState":{"key":"09","name":"Bayern"}},{"name":"Staufenstr.","postalCode":"83313","locality":"Siegsdorf","municipality":{"key":"09189145","name":"Siegsdorf","type":"Kreisangehörige_Gemeinde"},"district":{"key":"09189","name":"Traunstein","type":"Landkreis"},"federalState":{"key":"09","name":"Bayern"}},{"name":"Stein","postalCode":"83313","locality":"Siegsdorf","municipality":{"key":"09189145","name":"Siegsdorf","type":"Kreisangehörige_Gemeinde"},"district":{"key":"09189","name":"Traunstein","type":"Landkreis"},"federalState":{"key":"09","name":"Bayern"}},{"name":"Steinwandweg","postalCode":"83313","locality":"Siegsdorf","municipality":{"key":"09189145","name":"Siegsdorf","type":"Kreisangehörige_Gemeinde"},"district":{"key":"09189","name":"Traunstein","type":"Landkreis"},"federalState":{"key":"09","name":"Bayern"}},{"name":"St.-Johann-Str.","postalCode":"83313","locality":"Siegsdorf","municipality":{"key":"09189145","name":"Siegsdorf","type":"Kreisangehörige_Gemeinde"},"district":{"key":"09189","name":"Traunstein","type":"Landkreis"},"federalState":{"key":"09","name":"Bayern"}},{"name":"Sturmstr.","postalCode":"83313","locality":"Siegsdorf","municipality":{"key":"09189145","name":"Siegsdorf","type":"Kreisangehörige_Gemeinde"},"district":{"key":"09189","name":"Traunstein","type":"Landkreis"},"federalState":{"key":"09","name":"Bayern"}},{"name":"Sudetenstr.","postalCode":"83313","locality":"Siegsdorf","municipality":{"key":"09189145","name":"Siegsdorf","type":"Kreisangehörige_Gemeinde"},"district":{"key":"09189","name":"Traunstein","type":"Landkreis"},"federalState":{"key":"09","name":"Bayern"}},{"name":"Sulzbergstr.","postalCode":"83313","locality":"Siegsdorf","municipality":{"key":"09189145","name":"Siegsdorf","type":"Kreisangehörige_Gemeinde"},"district":{"key":"09189","name":"Traunstein","type":"Landkreis"},"federalState":{"key":"09","name":"Bayern"}},{"name":"Tannenweg","postalCode":"83313","locality":"Siegsdorf","municipality":{"key":"09189145","name":"Siegsdorf","type":"Kreisangehörige_Gemeinde"},"district":{"key":"09189","name":"Traunstein","type":"Landkreis"},"federalState":{"key":"09","name":"Bayern"}},{"name":"Thalhamer Str.","postalCode":"83313","locality":"Siegsdorf","municipality":{"key":"09189145","name":"Siegsdorf","type":"Kreisangehörige_Gemeinde"},"district":{"key":"09189","name":"Traunstein","type":"Landkreis"},"federalState":{"key":"09","name":"Bayern"}},{"name":"Thannhäuserstr.","postalCode":"83313","locality":"Siegsdorf","municipality":{"key":"09189145","name":"Siegsdorf","type":"Kreisangehörige_Gemeinde"},"district":{"key":"09189","name":"Traunstein","type":"Landkreis"},"federalState":{"key":"09","name":"Bayern"}},{"name":"Thannstr.","postalCode":"83313","locality":"Siegsdorf","municipality":{"key":"09189145","name":"Siegsdorf","type":"Kreisangehörige_Gemeinde"},"district":{"key":"09189","name":"Traunstein","type":"Landkreis"},"federalState":{"key":"09","name":"Bayern"}},{"name":"Theresienpark","postalCode":"83313","locality":"Siegsdorf","municipality":{"key":"09189145","name":"Siegsdorf","type":"Kreisangehörige_Gemeinde"},"district":{"key":"09189","name":"Traunstein","type":"Landkreis"},"federalState":{"key":"09","name":"Bayern"}},{"name":"Theresienstr.","postalCode":"83313","locality":"Siegsdorf","municipality":{"key":"09189145","name":"Siegsdorf","type":"Kreisangehörige_Gemeinde"},"district":{"key":"09189","name":"Traunstein","type":"Landkreis"},"federalState":{"key":"09","name":"Bayern"}},{"name":"Traundorf","postalCode":"83313","locality":"Siegsdorf","municipality":{"key":"09189145","name":"Siegsdorf","type":"Kreisangehörige_Gemeinde"},"district":{"key":"09189","name":"Traunstein","type":"Landkreis"},"federalState":{"key":"09","name":"Bayern"}},{"name":"Traunfeldstr.","postalCode":"83313","locality":"Siegsdorf","municipality":{"key":"09189145","name":"Siegsdorf","type":"Kreisangehörige_Gemeinde"},"district":{"key":"09189","name":"Traunstein","type":"Landkreis"},"federalState":{"key":"09","name":"Bayern"}},{"name":"Traunsteiner Str.","postalCode":"83313","locality":"Siegsdorf","municipality":{"key":"09189145","name":"Siegsdorf","type":"Kreisangehörige_Gemeinde"},"district":{"key":"09189","name":"Traunstein","type":"Landkreis"},"federalState":{"key":"09","name":"Bayern"}},{"name":"Traunweg","postalCode":"83313","locality":"Siegsdorf","municipality":{"key":"09189145","name":"Siegsdorf","type":"Kreisangehörige_Gemeinde"},"district":{"key":"09189","name":"Traunstein","type":"Landkreis"},"federalState":{"key":"09","name":"Bayern"}},{"name":"Ulmenweg","postalCode":"83313","locality":"Siegsdorf","municipality":{"key":"09189145","name":"Siegsdorf","type":"Kreisangehörige_Gemeinde"},"district":{"key":"09189","name":"Traunstein","type":"Landkreis"},"federalState":{"key":"09","name":"Bayern"}},{"name":"Untergalling","postalCode":"83313","locality":"Siegsdorf","municipality":{"key":"09189145","name":"Siegsdorf","type":"Kreisangehörige_Gemeinde"},"district":{"key":"09189","name":"Traunstein","type":"Landkreis"},"federalState":{"key":"09","name":"Bayern"}},{"name":"Vachendorfer Str.","postalCode":"83313","locality":"Siegsdorf","municipality":{"key":"09189145","name":"Siegsdorf","type":"Kreisangehörige_Gemeinde"},"district":{"key":"09189","name":"Traunstein","type":"Landkreis"},"federalState":{"key":"09","name":"Bayern"}},{"name":"Venusberger Weg","postalCode":"83313","locality":"Siegsdorf","municipality":{"key":"09189145","name":"Siegsdorf","type":"Kreisangehörige_Gemeinde"},"district":{"key":"09189","name":"Traunstein","type":"Landkreis"},"federalState":{"key":"09","name":"Bayern"}},{"name":"Vogelwald","postalCode":"83313","locality":"Siegsdorf","municipality":{"key":"09189145","name":"Siegsdorf","type":"Kreisangehörige_Gemeinde"},"district":{"key":"09189","name":"Traunstein","type":"Landkreis"},"federalState":{"key":"09","name":"Bayern"}},{"name":"Voglinger Str.","postalCode":"83313","locality":"Siegsdorf","municipality":{"key":"09189145","name":"Siegsdorf","type":"Kreisangehörige_Gemeinde"},"district":{"key":"09189","name":"Traunstein","type":"Landkreis"},"federalState":{"key":"09","name":"Bayern"}},{"name":"Von-Kohlbrenner-Str.","postalCode":"83313","locality":"Siegsdorf","municipality":{"key":"09189145","name":"Siegsdorf","type":"Kreisangehörige_Gemeinde"},"district":{"key":"09189","name":"Traunstein","type":"Landkreis"},"federalState":{"key":"09","name":"Bayern"}},{"name":"Wacholderweg","postalCode":"83313","locality":"Siegsdorf","municipality":{"key":"09189145","name":"Siegsdorf","type":"Kreisangehörige_Gemeinde"},"district":{"key":"09189","name":"Traunstein","type":"Landkreis"},"federalState":{"key":"09","name":"Bayern"}},{"name":"Wagnerstr.","postalCode":"83313","locality":"Siegsdorf","municipality":{"key":"09189145","name":"Siegsdorf","type":"Kreisangehörige_Gemeinde"},"district":{"key":"09189","name":"Traunstein","type":"Landkreis"},"federalState":{"key":"09","name":"Bayern"}},{"name":"Wald","postalCode":"83313","locality":"Siegsdorf","municipality":{"key":"09189145","name":"Siegsdorf","type":"Kreisangehörige_Gemeinde"},"district":{"key":"09189","name":"Traunstein","type":"Landkreis"},"federalState":{"key":"09","name":"Bayern"}},{"name":"Weberstr.","postalCode":"83313","locality":"Siegsdorf","municipality":{"key":"09189145","name":"Siegsdorf","type":"Kreisangehörige_Gemeinde"},"district":{"key":"09189","name":"Traunstein","type":"Landkreis"},"federalState":{"key":"09","name":"Bayern"}},{"name":"Weidenstr.","postalCode":"83313","locality":"Siegsdorf","municipality":{"key":"09189145","name":"Siegsdorf","type":"Kreisangehörige_Gemeinde"},"district":{"key":"09189","name":"Traunstein","type":"Landkreis"},"federalState":{"key":"09","name":"Bayern"}},{"name":"Weißdornweg","postalCode":"83313","locality":"Siegsdorf","municipality":{"key":"09189145","name":"Siegsdorf","type":"Kreisangehörige_Gemeinde"},"district":{"key":"09189","name":"Traunstein","type":"Landkreis"},"federalState":{"key":"09","name":"Bayern"}},{"name":"Wernleitenstr.","postalCode":"83313","locality":"Siegsdorf","municipality":{"key":"09189145","name":"Siegsdorf","type":"Kreisangehörige_Gemeinde"},"district":{"key":"09189","name":"Traunstein","type":"Landkreis"},"federalState":{"key":"09","name":"Bayern"}},{"name":"Wolfsberger Str.","postalCode":"83313","locality":"Siegsdorf","municipality":{"key":"09189145","name":"Siegsdorf","type":"Kreisangehörige_Gemeinde"},"district":{"key":"09189","name":"Traunstein","type":"Landkreis"},"federalState":{"key":"09","name":"Bayern"}},{"name":"Wolfsgrubenweg","postalCode":"83313","locality":"Siegsdorf","municipality":{"key":"09189145","name":"Siegsdorf","type":"Kreisangehörige_Gemeinde"},"district":{"key":"09189","name":"Traunstein","type":"Landkreis"},"federalState":{"key":"09","name":"Bayern"}},{"name":"Zapfendorfstr.","postalCode":"83313","locality":"Siegsdorf","municipality":{"key":"09189145","name":"Siegsdorf","type":"Kreisangehörige_Gemeinde"},"district":{"key":"09189","name":"Traunstein","type":"Landkreis"},"federalState":{"key":"09","name":"Bayern"}},{"name":"Zedernweg","postalCode":"83313","locality":"Siegsdorf","municipality":{"key":"09189145","name":"Siegsdorf","type":"Kreisangehörige_Gemeinde"},"district":{"key":"09189","name":"Traunstein","type":"Landkreis"},"federalState":{"key":"09","name":"Bayern"}},{"name":"Zinnkopf-Pfad","postalCode":"83313","locality":"Siegsdorf","municipality":{"key":"09189145","name":"Siegsdorf","type":"Kreisangehörige_Gemeinde"},"district":{"key":"09189","name":"Traunstein","type":"Landkreis"},"federalState":{"key":"09","name":"Bayern"}},{"name":"Zinnkopfweg","postalCode":"83313","locality":"Siegsdorf","municipality":{"key":"09189145","name":"Siegsdorf","type":"Kreisangehörige_Gemeinde"},"district":{"key":"09189","name":"Traunstein","type":"Landkreis"},"federalState":{"key":"09","name":"Bayern"}},{"name":"Zirbelweg","postalCode":"83313","locality":"Siegsdorf","municipality":{"key":"09189145","name":"Siegsdorf","type":"Kreisangehörige_Gemeinde"},"district":{"key":"09189","name":"Traunstein","type":"Landkreis"},"federalState":{"key":"09","name":"Bayern"}},{"name":"Zottmayerstr.","postalCode":"83313","locality":"Siegsdorf","municipality":{"key":"09189145","name":"Siegsdorf","type":"Kreisangehörige_Gemeinde"},"district":{"key":"09189","name":"Traunstein","type":"Landkreis"},"federalState":{"key":"09","name":"Bayern"}},{"name":"Äußere Rosenheimer Str.","postalCode":"83278","locality":"Traunstein","municipality":{"key":"09189155","name":"Traunstein, GKSt","type":"Große_Kreisstadt"},"district":{"key":"09189","name":"Traunstein","type":"Landkreis"},"federalState":{"key":"09","name":"Bayern"}},{"name":"Öttinger Gasse","postalCode":"83278","locality":"Traunstein","municipality":{"key":"09189155","name":"Traunstein, GKSt","type":"Große_Kreisstadt"},"district":{"key":"09189","name":"Traunstein","type":"Landkreis"},"federalState":{"key":"09","name":"Bayern"}},]