[{"name":"Ahornstr.","postalCode":"97535","locality":"Wasserlosen","municipality":{"key":"09678192","name":"Wasserlosen","type":"Kreisangehörige_Gemeinde"},"district":{"key":"09678","name":"Schweinfurt","type":"Landkreis"},"federalState":{"key":"09","name":"Bayern"}},{"name":"Am Auweg","postalCode":"97535","locality":"Wasserlosen","municipality":{"key":"09678192","name":"Wasserlosen","type":"Kreisangehörige_Gemeinde"},"district":{"key":"09678","name":"Schweinfurt","type":"Landkreis"},"federalState":{"key":"09","name":"Bayern"}},{"name":"Am Berg","postalCode":"97535","locality":"Wasserlosen","municipality":{"key":"09678192","name":"Wasserlosen","type":"Kreisangehörige_Gemeinde"},"district":{"key":"09678","name":"Schweinfurt","type":"Landkreis"},"federalState":{"key":"09","name":"Bayern"}},{"name":"Am Buchenweg","postalCode":"97535","locality":"Wasserlosen","municipality":{"key":"09678192","name":"Wasserlosen","type":"Kreisangehörige_Gemeinde"},"district":{"key":"09678","name":"Schweinfurt","type":"Landkreis"},"federalState":{"key":"09","name":"Bayern"}},{"name":"Am Effig","postalCode":"97535","locality":"Wasserlosen","municipality":{"key":"09678192","name":"Wasserlosen","type":"Kreisangehörige_Gemeinde"},"district":{"key":"09678","name":"Schweinfurt","type":"Landkreis"},"federalState":{"key":"09","name":"Bayern"}},{"name":"Am Eulenberg","postalCode":"97535","locality":"Wasserlosen","municipality":{"key":"09678192","name":"Wasserlosen","type":"Kreisangehörige_Gemeinde"},"district":{"key":"09678","name":"Schweinfurt","type":"Landkreis"},"federalState":{"key":"09","name":"Bayern"}},{"name":"Am Feldweinberg","postalCode":"97535","locality":"Wasserlosen","municipality":{"key":"09678192","name":"Wasserlosen","type":"Kreisangehörige_Gemeinde"},"district":{"key":"09678","name":"Schweinfurt","type":"Landkreis"},"federalState":{"key":"09","name":"Bayern"}},{"name":"Am Geissberg","postalCode":"97535","locality":"Wasserlosen","municipality":{"key":"09678192","name":"Wasserlosen","type":"Kreisangehörige_Gemeinde"},"district":{"key":"09678","name":"Schweinfurt","type":"Landkreis"},"federalState":{"key":"09","name":"Bayern"}},{"name":"Am Heckenweg","postalCode":"97535","locality":"Wasserlosen","municipality":{"key":"09678192","name":"Wasserlosen","type":"Kreisangehörige_Gemeinde"},"district":{"key":"09678","name":"Schweinfurt","type":"Landkreis"},"federalState":{"key":"09","name":"Bayern"}},{"name":"Am Hoog","postalCode":"97535","locality":"Wasserlosen","municipality":{"key":"09678192","name":"Wasserlosen","type":"Kreisangehörige_Gemeinde"},"district":{"key":"09678","name":"Schweinfurt","type":"Landkreis"},"federalState":{"key":"09","name":"Bayern"}},{"name":"Am Kirchberg","postalCode":"97535","locality":"Wasserlosen","municipality":{"key":"09678192","name":"Wasserlosen","type":"Kreisangehörige_Gemeinde"},"district":{"key":"09678","name":"Schweinfurt","type":"Landkreis"},"federalState":{"key":"09","name":"Bayern"}},{"name":"Am Kreuz","postalCode":"97535","locality":"Wasserlosen","municipality":{"key":"09678192","name":"Wasserlosen","type":"Kreisangehörige_Gemeinde"},"district":{"key":"09678","name":"Schweinfurt","type":"Landkreis"},"federalState":{"key":"09","name":"Bayern"}},{"name":"Am Mühlweg","postalCode":"97535","locality":"Wasserlosen","municipality":{"key":"09678192","name":"Wasserlosen","type":"Kreisangehörige_Gemeinde"},"district":{"key":"09678","name":"Schweinfurt","type":"Landkreis"},"federalState":{"key":"09","name":"Bayern"}},{"name":"Am Rain","postalCode":"97535","locality":"Wasserlosen","municipality":{"key":"09678192","name":"Wasserlosen","type":"Kreisangehörige_Gemeinde"},"district":{"key":"09678","name":"Schweinfurt","type":"Landkreis"},"federalState":{"key":"09","name":"Bayern"}},{"name":"Am Schafhof","postalCode":"97535","locality":"Wasserlosen","municipality":{"key":"09678192","name":"Wasserlosen","type":"Kreisangehörige_Gemeinde"},"district":{"key":"09678","name":"Schweinfurt","type":"Landkreis"},"federalState":{"key":"09","name":"Bayern"}},{"name":"Am Schieferberg","postalCode":"97535","locality":"Wasserlosen","municipality":{"key":"09678192","name":"Wasserlosen","type":"Kreisangehörige_Gemeinde"},"district":{"key":"09678","name":"Schweinfurt","type":"Landkreis"},"federalState":{"key":"09","name":"Bayern"}},{"name":"Am Sonnenhang","postalCode":"97535","locality":"Wasserlosen","municipality":{"key":"09678192","name":"Wasserlosen","type":"Kreisangehörige_Gemeinde"},"district":{"key":"09678","name":"Schweinfurt","type":"Landkreis"},"federalState":{"key":"09","name":"Bayern"}},{"name":"Am Sportplatz","postalCode":"97535","locality":"Wasserlosen","municipality":{"key":"09678192","name":"Wasserlosen","type":"Kreisangehörige_Gemeinde"},"district":{"key":"09678","name":"Schweinfurt","type":"Landkreis"},"federalState":{"key":"09","name":"Bayern"}},{"name":"Am Stiegel","postalCode":"97535","locality":"Wasserlosen","municipality":{"key":"09678192","name":"Wasserlosen","type":"Kreisangehörige_Gemeinde"},"district":{"key":"09678","name":"Schweinfurt","type":"Landkreis"},"federalState":{"key":"09","name":"Bayern"}},{"name":"Am Tännig","postalCode":"97535","locality":"Wasserlosen","municipality":{"key":"09678192","name":"Wasserlosen","type":"Kreisangehörige_Gemeinde"},"district":{"key":"09678","name":"Schweinfurt","type":"Landkreis"},"federalState":{"key":"09","name":"Bayern"}},{"name":"Am Trieb","postalCode":"97535","locality":"Wasserlosen","municipality":{"key":"09678192","name":"Wasserlosen","type":"Kreisangehörige_Gemeinde"},"district":{"key":"09678","name":"Schweinfurt","type":"Landkreis"},"federalState":{"key":"09","name":"Bayern"}},{"name":"Am Waldweg","postalCode":"97535","locality":"Wasserlosen","municipality":{"key":"09678192","name":"Wasserlosen","type":"Kreisangehörige_Gemeinde"},"district":{"key":"09678","name":"Schweinfurt","type":"Landkreis"},"federalState":{"key":"09","name":"Bayern"}},{"name":"Am Weiher","postalCode":"97535","locality":"Wasserlosen","municipality":{"key":"09678192","name":"Wasserlosen","type":"Kreisangehörige_Gemeinde"},"district":{"key":"09678","name":"Schweinfurt","type":"Landkreis"},"federalState":{"key":"09","name":"Bayern"}},{"name":"Am Wengert","postalCode":"97535","locality":"Wasserlosen","municipality":{"key":"09678192","name":"Wasserlosen","type":"Kreisangehörige_Gemeinde"},"district":{"key":"09678","name":"Schweinfurt","type":"Landkreis"},"federalState":{"key":"09","name":"Bayern"}},{"name":"An der Bundesstr.","postalCode":"97535","locality":"Wasserlosen","municipality":{"key":"09678192","name":"Wasserlosen","type":"Kreisangehörige_Gemeinde"},"district":{"key":"09678","name":"Schweinfurt","type":"Landkreis"},"federalState":{"key":"09","name":"Bayern"}},{"name":"An der Hauptstr.","postalCode":"97535","locality":"Wasserlosen","municipality":{"key":"09678192","name":"Wasserlosen","type":"Kreisangehörige_Gemeinde"},"district":{"key":"09678","name":"Schweinfurt","type":"Landkreis"},"federalState":{"key":"09","name":"Bayern"}},{"name":"An der Klinge","postalCode":"97535","locality":"Wasserlosen","municipality":{"key":"09678192","name":"Wasserlosen","type":"Kreisangehörige_Gemeinde"},"district":{"key":"09678","name":"Schweinfurt","type":"Landkreis"},"federalState":{"key":"09","name":"Bayern"}},{"name":"Aussiedler","postalCode":"97535","locality":"Wasserlosen","municipality":{"key":"09678192","name":"Wasserlosen","type":"Kreisangehörige_Gemeinde"},"district":{"key":"09678","name":"Schweinfurt","type":"Landkreis"},"federalState":{"key":"09","name":"Bayern"}},{"name":"Beethovenstr.","postalCode":"97535","locality":"Wasserlosen","municipality":{"key":"09678192","name":"Wasserlosen","type":"Kreisangehörige_Gemeinde"},"district":{"key":"09678","name":"Schweinfurt","type":"Landkreis"},"federalState":{"key":"09","name":"Bayern"}},{"name":"Bergstr.","postalCode":"97535","locality":"Wasserlosen","municipality":{"key":"09678192","name":"Wasserlosen","type":"Kreisangehörige_Gemeinde"},"district":{"key":"09678","name":"Schweinfurt","type":"Landkreis"},"federalState":{"key":"09","name":"Bayern"}},{"name":"Birkenstr.","postalCode":"97535","locality":"Wasserlosen","municipality":{"key":"09678192","name":"Wasserlosen","type":"Kreisangehörige_Gemeinde"},"district":{"key":"09678","name":"Schweinfurt","type":"Landkreis"},"federalState":{"key":"09","name":"Bayern"}},{"name":"Bodenweg","postalCode":"97535","locality":"Wasserlosen","municipality":{"key":"09678192","name":"Wasserlosen","type":"Kreisangehörige_Gemeinde"},"district":{"key":"09678","name":"Schweinfurt","type":"Landkreis"},"federalState":{"key":"09","name":"Bayern"}},{"name":"Brebersdorfer Str.","postalCode":"97535","locality":"Wasserlosen","municipality":{"key":"09678192","name":"Wasserlosen","type":"Kreisangehörige_Gemeinde"},"district":{"key":"09678","name":"Schweinfurt","type":"Landkreis"},"federalState":{"key":"09","name":"Bayern"}},{"name":"Brombeerweg","postalCode":"97535","locality":"Wasserlosen","municipality":{"key":"09678192","name":"Wasserlosen","type":"Kreisangehörige_Gemeinde"},"district":{"key":"09678","name":"Schweinfurt","type":"Landkreis"},"federalState":{"key":"09","name":"Bayern"}},{"name":"Brunnenberg","postalCode":"97535","locality":"Wasserlosen","municipality":{"key":"09678192","name":"Wasserlosen","type":"Kreisangehörige_Gemeinde"},"district":{"key":"09678","name":"Schweinfurt","type":"Landkreis"},"federalState":{"key":"09","name":"Bayern"}},{"name":"Brunnenstr.","postalCode":"97535","locality":"Wasserlosen","municipality":{"key":"09678192","name":"Wasserlosen","type":"Kreisangehörige_Gemeinde"},"district":{"key":"09678","name":"Schweinfurt","type":"Landkreis"},"federalState":{"key":"09","name":"Bayern"}},{"name":"Carl-Orff-Str.","postalCode":"97421","locality":"Schweinfurt","municipality":{"key":"09662000","name":"Schweinfurt","type":"Kreisfreie_Stadt"},"district":{"key":"09662","name":"Schweinfurt","type":"Kreisfreie_Stadt"},"federalState":{"key":"09","name":"Bayern"}},{"name":"Carl-Spitzweg-Str.","postalCode":"97422","locality":"Schweinfurt","municipality":{"key":"09662000","name":"Schweinfurt","type":"Kreisfreie_Stadt"},"district":{"key":"09662","name":"Schweinfurt","type":"Kreisfreie_Stadt"},"federalState":{"key":"09","name":"Bayern"}},{"name":"Celtesstr.","postalCode":"97422","locality":"Schweinfurt","municipality":{"key":"09662000","name":"Schweinfurt","type":"Kreisfreie_Stadt"},"district":{"key":"09662","name":"Schweinfurt","type":"Kreisfreie_Stadt"},"federalState":{"key":"09","name":"Bayern"}},{"name":"Châteaudun-Park","postalCode":"97421","locality":"Schweinfurt","municipality":{"key":"09662000","name":"Schweinfurt","type":"Kreisfreie_Stadt"},"district":{"key":"09662","name":"Schweinfurt","type":"Kreisfreie_Stadt"},"federalState":{"key":"09","name":"Bayern"}},{"name":"Christoph-Krebs-Str.","postalCode":"97422","locality":"Schweinfurt","municipality":{"key":"09662000","name":"Schweinfurt","type":"Kreisfreie_Stadt"},"district":{"key":"09662","name":"Schweinfurt","type":"Kreisfreie_Stadt"},"federalState":{"key":"09","name":"Bayern"}},{"name":"Coloradostr.","postalCode":"97424","locality":"Schweinfurt","municipality":{"key":"09662000","name":"Schweinfurt","type":"Kreisfreie_Stadt"},"district":{"key":"09662","name":"Schweinfurt","type":"Kreisfreie_Stadt"},"federalState":{"key":"09","name":"Bayern"}},{"name":"Cramerstr.","postalCode":"97421","locality":"Schweinfurt","municipality":{"key":"09662000","name":"Schweinfurt","type":"Kreisfreie_Stadt"},"district":{"key":"09662","name":"Schweinfurt","type":"Kreisfreie_Stadt"},"federalState":{"key":"09","name":"Bayern"}},{"name":"Cuspinianstr.","postalCode":"97422","locality":"Schweinfurt","municipality":{"key":"09662000","name":"Schweinfurt","type":"Kreisfreie_Stadt"},"district":{"key":"09662","name":"Schweinfurt","type":"Kreisfreie_Stadt"},"federalState":{"key":"09","name":"Bayern"}},{"name":"Dorfplatz","postalCode":"97535","locality":"Wasserlosen","municipality":{"key":"09678192","name":"Wasserlosen","type":"Kreisangehörige_Gemeinde"},"district":{"key":"09678","name":"Schweinfurt","type":"Landkreis"},"federalState":{"key":"09","name":"Bayern"}},{"name":"Dorfstr.","postalCode":"97535","locality":"Wasserlosen","municipality":{"key":"09678192","name":"Wasserlosen","type":"Kreisangehörige_Gemeinde"},"district":{"key":"09678","name":"Schweinfurt","type":"Landkreis"},"federalState":{"key":"09","name":"Bayern"}},{"name":"Eichenstr.","postalCode":"97535","locality":"Wasserlosen","municipality":{"key":"09678192","name":"Wasserlosen","type":"Kreisangehörige_Gemeinde"},"district":{"key":"09678","name":"Schweinfurt","type":"Landkreis"},"federalState":{"key":"09","name":"Bayern"}},{"name":"Eichenweg","postalCode":"97535","locality":"Wasserlosen","municipality":{"key":"09678192","name":"Wasserlosen","type":"Kreisangehörige_Gemeinde"},"district":{"key":"09678","name":"Schweinfurt","type":"Landkreis"},"federalState":{"key":"09","name":"Bayern"}},{"name":"Eichtalstr.","postalCode":"97535","locality":"Wasserlosen","municipality":{"key":"09678192","name":"Wasserlosen","type":"Kreisangehörige_Gemeinde"},"district":{"key":"09678","name":"Schweinfurt","type":"Landkreis"},"federalState":{"key":"09","name":"Bayern"}},{"name":"Erwin-Amman-Str.","postalCode":"97535","locality":"Wasserlosen","municipality":{"key":"09678192","name":"Wasserlosen","type":"Kreisangehörige_Gemeinde"},"district":{"key":"09678","name":"Schweinfurt","type":"Landkreis"},"federalState":{"key":"09","name":"Bayern"}},{"name":"Fichtenweg","postalCode":"97535","locality":"Wasserlosen","municipality":{"key":"09678192","name":"Wasserlosen","type":"Kreisangehörige_Gemeinde"},"district":{"key":"09678","name":"Schweinfurt","type":"Landkreis"},"federalState":{"key":"09","name":"Bayern"}},{"name":"Flöahüggl","postalCode":"97535","locality":"Wasserlosen","municipality":{"key":"09678192","name":"Wasserlosen","type":"Kreisangehörige_Gemeinde"},"district":{"key":"09678","name":"Schweinfurt","type":"Landkreis"},"federalState":{"key":"09","name":"Bayern"}},{"name":"Forstweg","postalCode":"97535","locality":"Wasserlosen","municipality":{"key":"09678192","name":"Wasserlosen","type":"Kreisangehörige_Gemeinde"},"district":{"key":"09678","name":"Schweinfurt","type":"Landkreis"},"federalState":{"key":"09","name":"Bayern"}},{"name":"Frankenstr.","postalCode":"97535","locality":"Wasserlosen","municipality":{"key":"09678192","name":"Wasserlosen","type":"Kreisangehörige_Gemeinde"},"district":{"key":"09678","name":"Schweinfurt","type":"Landkreis"},"federalState":{"key":"09","name":"Bayern"}},{"name":"Friedhofstr.","postalCode":"97535","locality":"Wasserlosen","municipality":{"key":"09678192","name":"Wasserlosen","type":"Kreisangehörige_Gemeinde"},"district":{"key":"09678","name":"Schweinfurt","type":"Landkreis"},"federalState":{"key":"09","name":"Bayern"}},{"name":"Friedhofweg","postalCode":"97535","locality":"Wasserlosen","municipality":{"key":"09678192","name":"Wasserlosen","type":"Kreisangehörige_Gemeinde"},"district":{"key":"09678","name":"Schweinfurt","type":"Landkreis"},"federalState":{"key":"09","name":"Bayern"}},{"name":"Frühlingsstr.","postalCode":"97535","locality":"Wasserlosen","municipality":{"key":"09678192","name":"Wasserlosen","type":"Kreisangehörige_Gemeinde"},"district":{"key":"09678","name":"Schweinfurt","type":"Landkreis"},"federalState":{"key":"09","name":"Bayern"}},{"name":"Gartenstr.","postalCode":"97535","locality":"Wasserlosen","municipality":{"key":"09678192","name":"Wasserlosen","type":"Kreisangehörige_Gemeinde"},"district":{"key":"09678","name":"Schweinfurt","type":"Landkreis"},"federalState":{"key":"09","name":"Bayern"}},{"name":"Goldgasse","postalCode":"97535","locality":"Wasserlosen","municipality":{"key":"09678192","name":"Wasserlosen","type":"Kreisangehörige_Gemeinde"},"district":{"key":"09678","name":"Schweinfurt","type":"Landkreis"},"federalState":{"key":"09","name":"Bayern"}},{"name":"Grombühl","postalCode":"97535","locality":"Wasserlosen","municipality":{"key":"09678192","name":"Wasserlosen","type":"Kreisangehörige_Gemeinde"},"district":{"key":"09678","name":"Schweinfurt","type":"Landkreis"},"federalState":{"key":"09","name":"Bayern"}},{"name":"Hahnengasse","postalCode":"97535","locality":"Wasserlosen","municipality":{"key":"09678192","name":"Wasserlosen","type":"Kreisangehörige_Gemeinde"},"district":{"key":"09678","name":"Schweinfurt","type":"Landkreis"},"federalState":{"key":"09","name":"Bayern"}},{"name":"Hassenbach","postalCode":"97535","locality":"Wasserlosen","municipality":{"key":"09678192","name":"Wasserlosen","type":"Kreisangehörige_Gemeinde"},"district":{"key":"09678","name":"Schweinfurt","type":"Landkreis"},"federalState":{"key":"09","name":"Bayern"}},{"name":"Hauptstr.","postalCode":"97535","locality":"Wasserlosen","municipality":{"key":"09678192","name":"Wasserlosen","type":"Kreisangehörige_Gemeinde"},"district":{"key":"09678","name":"Schweinfurt","type":"Landkreis"},"federalState":{"key":"09","name":"Bayern"}},{"name":"Haydnstr.","postalCode":"97535","locality":"Wasserlosen","municipality":{"key":"09678192","name":"Wasserlosen","type":"Kreisangehörige_Gemeinde"},"district":{"key":"09678","name":"Schweinfurt","type":"Landkreis"},"federalState":{"key":"09","name":"Bayern"}},{"name":"Hirtenweg","postalCode":"97535","locality":"Wasserlosen","municipality":{"key":"09678192","name":"Wasserlosen","type":"Kreisangehörige_Gemeinde"},"district":{"key":"09678","name":"Schweinfurt","type":"Landkreis"},"federalState":{"key":"09","name":"Bayern"}},{"name":"Ignaz-Schön-Str.","postalCode":"97421","locality":"Schweinfurt","municipality":{"key":"09662000","name":"Schweinfurt","type":"Kreisfreie_Stadt"},"district":{"key":"09662","name":"Schweinfurt","type":"Kreisfreie_Stadt"},"federalState":{"key":"09","name":"Bayern"}},{"name":"Ilmenbergstr.","postalCode":"97422","locality":"Schweinfurt","municipality":{"key":"09662000","name":"Schweinfurt","type":"Kreisfreie_Stadt"},"district":{"key":"09662","name":"Schweinfurt","type":"Kreisfreie_Stadt"},"federalState":{"key":"09","name":"Bayern"}},{"name":"Im Grund","postalCode":"97422","locality":"Schweinfurt","municipality":{"key":"09662000","name":"Schweinfurt","type":"Kreisfreie_Stadt"},"district":{"key":"09662","name":"Schweinfurt","type":"Kreisfreie_Stadt"},"federalState":{"key":"09","name":"Bayern"}},{"name":"Im II. Wehr","postalCode":"97424","locality":"Schweinfurt","municipality":{"key":"09662000","name":"Schweinfurt","type":"Kreisfreie_Stadt"},"district":{"key":"09662","name":"Schweinfurt","type":"Kreisfreie_Stadt"},"federalState":{"key":"09","name":"Bayern"}},{"name":"Im I. Wehr","postalCode":"97424","locality":"Schweinfurt","municipality":{"key":"09662000","name":"Schweinfurt","type":"Kreisfreie_Stadt"},"district":{"key":"09662","name":"Schweinfurt","type":"Kreisfreie_Stadt"},"federalState":{"key":"09","name":"Bayern"}},{"name":"Im Steinach","postalCode":"97424","locality":"Schweinfurt","municipality":{"key":"09662000","name":"Schweinfurt","type":"Kreisfreie_Stadt"},"district":{"key":"09662","name":"Schweinfurt","type":"Kreisfreie_Stadt"},"federalState":{"key":"09","name":"Bayern"}},{"name":"Ina-Seidel-Str.","postalCode":"97422","locality":"Schweinfurt","municipality":{"key":"09662000","name":"Schweinfurt","type":"Kreisfreie_Stadt"},"district":{"key":"09662","name":"Schweinfurt","type":"Kreisfreie_Stadt"},"federalState":{"key":"09","name":"Bayern"}},{"name":"In den Maingärten","postalCode":"97422","locality":"Schweinfurt","municipality":{"key":"09662000","name":"Schweinfurt","type":"Kreisfreie_Stadt"},"district":{"key":"09662","name":"Schweinfurt","type":"Kreisfreie_Stadt"},"federalState":{"key":"09","name":"Bayern"}},{"name":"Isi-Huber-Str.","postalCode":"97424","locality":"Schweinfurt","municipality":{"key":"09662000","name":"Schweinfurt","type":"Kreisfreie_Stadt"},"district":{"key":"09662","name":"Schweinfurt","type":"Kreisfreie_Stadt"},"federalState":{"key":"09","name":"Bayern"}},{"name":"Jahnstr.","postalCode":"97535","locality":"Wasserlosen","municipality":{"key":"09678192","name":"Wasserlosen","type":"Kreisangehörige_Gemeinde"},"district":{"key":"09678","name":"Schweinfurt","type":"Landkreis"},"federalState":{"key":"09","name":"Bayern"}},{"name":"Kaistener Str.","postalCode":"97535","locality":"Wasserlosen","municipality":{"key":"09678192","name":"Wasserlosen","type":"Kreisangehörige_Gemeinde"},"district":{"key":"09678","name":"Schweinfurt","type":"Landkreis"},"federalState":{"key":"09","name":"Bayern"}},{"name":"Kapellenweg","postalCode":"97535","locality":"Wasserlosen","municipality":{"key":"09678192","name":"Wasserlosen","type":"Kreisangehörige_Gemeinde"},"district":{"key":"09678","name":"Schweinfurt","type":"Landkreis"},"federalState":{"key":"09","name":"Bayern"}},{"name":"Karl-Rupert-Str.","postalCode":"97535","locality":"Wasserlosen","municipality":{"key":"09678192","name":"Wasserlosen","type":"Kreisangehörige_Gemeinde"},"district":{"key":"09678","name":"Schweinfurt","type":"Landkreis"},"federalState":{"key":"09","name":"Bayern"}},{"name":"Kastanienstr.","postalCode":"97535","locality":"Wasserlosen","municipality":{"key":"09678192","name":"Wasserlosen","type":"Kreisangehörige_Gemeinde"},"district":{"key":"09678","name":"Schweinfurt","type":"Landkreis"},"federalState":{"key":"09","name":"Bayern"}},{"name":"Kirchenpfad","postalCode":"97535","locality":"Wasserlosen","municipality":{"key":"09678192","name":"Wasserlosen","type":"Kreisangehörige_Gemeinde"},"district":{"key":"09678","name":"Schweinfurt","type":"Landkreis"},"federalState":{"key":"09","name":"Bayern"}},{"name":"Kirchgängle","postalCode":"97535","locality":"Wasserlosen","municipality":{"key":"09678192","name":"Wasserlosen","type":"Kreisangehörige_Gemeinde"},"district":{"key":"09678","name":"Schweinfurt","type":"Landkreis"},"federalState":{"key":"09","name":"Bayern"}},{"name":"Kirchgasse","postalCode":"97535","locality":"Wasserlosen","municipality":{"key":"09678192","name":"Wasserlosen","type":"Kreisangehörige_Gemeinde"},"district":{"key":"09678","name":"Schweinfurt","type":"Landkreis"},"federalState":{"key":"09","name":"Bayern"}},{"name":"Kirchgässle","postalCode":"97535","locality":"Wasserlosen","municipality":{"key":"09678192","name":"Wasserlosen","type":"Kreisangehörige_Gemeinde"},"district":{"key":"09678","name":"Schweinfurt","type":"Landkreis"},"federalState":{"key":"09","name":"Bayern"}},{"name":"Kirchstr.","postalCode":"97535","locality":"Wasserlosen","municipality":{"key":"09678192","name":"Wasserlosen","type":"Kreisangehörige_Gemeinde"},"district":{"key":"09678","name":"Schweinfurt","type":"Landkreis"},"federalState":{"key":"09","name":"Bayern"}},{"name":"Klingenweg","postalCode":"97535","locality":"Wasserlosen","municipality":{"key":"09678192","name":"Wasserlosen","type":"Kreisangehörige_Gemeinde"},"district":{"key":"09678","name":"Schweinfurt","type":"Landkreis"},"federalState":{"key":"09","name":"Bayern"}},{"name":"Konrad-Adenauer-Str.","postalCode":"97535","locality":"Wasserlosen","municipality":{"key":"09678192","name":"Wasserlosen","type":"Kreisangehörige_Gemeinde"},"district":{"key":"09678","name":"Schweinfurt","type":"Landkreis"},"federalState":{"key":"09","name":"Bayern"}},{"name":"Kreuzbergstr.","postalCode":"97535","locality":"Wasserlosen","municipality":{"key":"09678192","name":"Wasserlosen","type":"Kreisangehörige_Gemeinde"},"district":{"key":"09678","name":"Schweinfurt","type":"Landkreis"},"federalState":{"key":"09","name":"Bayern"}},{"name":"Laubengasse","postalCode":"97535","locality":"Wasserlosen","municipality":{"key":"09678192","name":"Wasserlosen","type":"Kreisangehörige_Gemeinde"},"district":{"key":"09678","name":"Schweinfurt","type":"Landkreis"},"federalState":{"key":"09","name":"Bayern"}},{"name":"Lerchenstr.","postalCode":"97535","locality":"Wasserlosen","municipality":{"key":"09678192","name":"Wasserlosen","type":"Kreisangehörige_Gemeinde"},"district":{"key":"09678","name":"Schweinfurt","type":"Landkreis"},"federalState":{"key":"09","name":"Bayern"}},{"name":"Lindenweg","postalCode":"97535","locality":"Wasserlosen","municipality":{"key":"09678192","name":"Wasserlosen","type":"Kreisangehörige_Gemeinde"},"district":{"key":"09678","name":"Schweinfurt","type":"Landkreis"},"federalState":{"key":"09","name":"Bayern"}},{"name":"Machtilshäuser Str.","postalCode":"97535","locality":"Wasserlosen","municipality":{"key":"09678192","name":"Wasserlosen","type":"Kreisangehörige_Gemeinde"},"district":{"key":"09678","name":"Schweinfurt","type":"Landkreis"},"federalState":{"key":"09","name":"Bayern"}},{"name":"Maria von der Thann Str.","postalCode":"97535","locality":"Wasserlosen","municipality":{"key":"09678192","name":"Wasserlosen","type":"Kreisangehörige_Gemeinde"},"district":{"key":"09678","name":"Schweinfurt","type":"Landkreis"},"federalState":{"key":"09","name":"Bayern"}},{"name":"Mozartstr.","postalCode":"97535","locality":"Wasserlosen","municipality":{"key":"09678192","name":"Wasserlosen","type":"Kreisangehörige_Gemeinde"},"district":{"key":"09678","name":"Schweinfurt","type":"Landkreis"},"federalState":{"key":"09","name":"Bayern"}},{"name":"Mühlweg","postalCode":"97535","locality":"Wasserlosen","municipality":{"key":"09678192","name":"Wasserlosen","type":"Kreisangehörige_Gemeinde"},"district":{"key":"09678","name":"Schweinfurt","type":"Landkreis"},"federalState":{"key":"09","name":"Bayern"}},{"name":"Nelkenstr.","postalCode":"97535","locality":"Wasserlosen","municipality":{"key":"09678192","name":"Wasserlosen","type":"Kreisangehörige_Gemeinde"},"district":{"key":"09678","name":"Schweinfurt","type":"Landkreis"},"federalState":{"key":"09","name":"Bayern"}},{"name":"Neubessinger Str.","postalCode":"97535","locality":"Wasserlosen","municipality":{"key":"09678192","name":"Wasserlosen","type":"Kreisangehörige_Gemeinde"},"district":{"key":"09678","name":"Schweinfurt","type":"Landkreis"},"federalState":{"key":"09","name":"Bayern"}},{"name":"Obbacher Str.","postalCode":"97535","locality":"Wasserlosen","municipality":{"key":"09678192","name":"Wasserlosen","type":"Kreisangehörige_Gemeinde"},"district":{"key":"09678","name":"Schweinfurt","type":"Landkreis"},"federalState":{"key":"09","name":"Bayern"}},{"name":"Paulusstr.","postalCode":"97535","locality":"Wasserlosen","municipality":{"key":"09678192","name":"Wasserlosen","type":"Kreisangehörige_Gemeinde"},"district":{"key":"09678","name":"Schweinfurt","type":"Landkreis"},"federalState":{"key":"09","name":"Bayern"}},{"name":"Pfarrberg","postalCode":"97535","locality":"Wasserlosen","municipality":{"key":"09678192","name":"Wasserlosen","type":"Kreisangehörige_Gemeinde"},"district":{"key":"09678","name":"Schweinfurt","type":"Landkreis"},"federalState":{"key":"09","name":"Bayern"}},{"name":"Quellenweg","postalCode":"97422","locality":"Schweinfurt","municipality":{"key":"09662000","name":"Schweinfurt","type":"Kreisfreie_Stadt"},"district":{"key":"09662","name":"Schweinfurt","type":"Kreisfreie_Stadt"},"federalState":{"key":"09","name":"Bayern"}},{"name":"Raiffeisenplatz","postalCode":"97535","locality":"Wasserlosen","municipality":{"key":"09678192","name":"Wasserlosen","type":"Kreisangehörige_Gemeinde"},"district":{"key":"09678","name":"Schweinfurt","type":"Landkreis"},"federalState":{"key":"09","name":"Bayern"}},{"name":"Raiffeisenstr.","postalCode":"97535","locality":"Wasserlosen","municipality":{"key":"09678192","name":"Wasserlosen","type":"Kreisangehörige_Gemeinde"},"district":{"key":"09678","name":"Schweinfurt","type":"Landkreis"},"federalState":{"key":"09","name":"Bayern"}},{"name":"Rhönstr.","postalCode":"97535","locality":"Wasserlosen","municipality":{"key":"09678192","name":"Wasserlosen","type":"Kreisangehörige_Gemeinde"},"district":{"key":"09678","name":"Schweinfurt","type":"Landkreis"},"federalState":{"key":"09","name":"Bayern"}},{"name":"Richard-Strauss-Str.","postalCode":"97535","locality":"Wasserlosen","municipality":{"key":"09678192","name":"Wasserlosen","type":"Kreisangehörige_Gemeinde"},"district":{"key":"09678","name":"Schweinfurt","type":"Landkreis"},"federalState":{"key":"09","name":"Bayern"}},{"name":"Richard-Wagner-Str.","postalCode":"97535","locality":"Wasserlosen","municipality":{"key":"09678192","name":"Wasserlosen","type":"Kreisangehörige_Gemeinde"},"district":{"key":"09678","name":"Schweinfurt","type":"Landkreis"},"federalState":{"key":"09","name":"Bayern"}},{"name":"Rosengartenstr.","postalCode":"97535","locality":"Wasserlosen","municipality":{"key":"09678192","name":"Wasserlosen","type":"Kreisangehörige_Gemeinde"},"district":{"key":"09678","name":"Schweinfurt","type":"Landkreis"},"federalState":{"key":"09","name":"Bayern"}},{"name":"Rosengasse","postalCode":"97535","locality":"Wasserlosen","municipality":{"key":"09678192","name":"Wasserlosen","type":"Kreisangehörige_Gemeinde"},"district":{"key":"09678","name":"Schweinfurt","type":"Landkreis"},"federalState":{"key":"09","name":"Bayern"}},{"name":"Rosenstr.","postalCode":"97535","locality":"Wasserlosen","municipality":{"key":"09678192","name":"Wasserlosen","type":"Kreisangehörige_Gemeinde"},"district":{"key":"09678","name":"Schweinfurt","type":"Landkreis"},"federalState":{"key":"09","name":"Bayern"}},{"name":"Rötenweg","postalCode":"97535","locality":"Wasserlosen","municipality":{"key":"09678192","name":"Wasserlosen","type":"Kreisangehörige_Gemeinde"},"district":{"key":"09678","name":"Schweinfurt","type":"Landkreis"},"federalState":{"key":"09","name":"Bayern"}},{"name":"Sankt-Kilian-Str.","postalCode":"97535","locality":"Wasserlosen","municipality":{"key":"09678192","name":"Wasserlosen","type":"Kreisangehörige_Gemeinde"},"district":{"key":"09678","name":"Schweinfurt","type":"Landkreis"},"federalState":{"key":"09","name":"Bayern"}},{"name":"Sankt-Peter-Str.","postalCode":"97535","locality":"Wasserlosen","municipality":{"key":"09678192","name":"Wasserlosen","type":"Kreisangehörige_Gemeinde"},"district":{"key":"09678","name":"Schweinfurt","type":"Landkreis"},"federalState":{"key":"09","name":"Bayern"}},{"name":"Schneidersberg","postalCode":"97535","locality":"Wasserlosen","municipality":{"key":"09678192","name":"Wasserlosen","type":"Kreisangehörige_Gemeinde"},"district":{"key":"09678","name":"Schweinfurt","type":"Landkreis"},"federalState":{"key":"09","name":"Bayern"}},{"name":"Schubertstr.","postalCode":"97535","locality":"Wasserlosen","municipality":{"key":"09678192","name":"Wasserlosen","type":"Kreisangehörige_Gemeinde"},"district":{"key":"09678","name":"Schweinfurt","type":"Landkreis"},"federalState":{"key":"09","name":"Bayern"}},{"name":"Schulgasse","postalCode":"97535","locality":"Wasserlosen","municipality":{"key":"09678192","name":"Wasserlosen","type":"Kreisangehörige_Gemeinde"},"district":{"key":"09678","name":"Schweinfurt","type":"Landkreis"},"federalState":{"key":"09","name":"Bayern"}},{"name":"Schwabbachstr.","postalCode":"97535","locality":"Wasserlosen","municipality":{"key":"09678192","name":"Wasserlosen","type":"Kreisangehörige_Gemeinde"},"district":{"key":"09678","name":"Schweinfurt","type":"Landkreis"},"federalState":{"key":"09","name":"Bayern"}},{"name":"Schweinfurter Str.","postalCode":"97535","locality":"Wasserlosen","municipality":{"key":"09678192","name":"Wasserlosen","type":"Kreisangehörige_Gemeinde"},"district":{"key":"09678","name":"Schweinfurt","type":"Landkreis"},"federalState":{"key":"09","name":"Bayern"}},{"name":"Schweinfurter Weg","postalCode":"97535","locality":"Wasserlosen","municipality":{"key":"09678192","name":"Wasserlosen","type":"Kreisangehörige_Gemeinde"},"district":{"key":"09678","name":"Schweinfurt","type":"Landkreis"},"federalState":{"key":"09","name":"Bayern"}},{"name":"Schwemmelsbacher Str.","postalCode":"97535","locality":"Wasserlosen","municipality":{"key":"09678192","name":"Wasserlosen","type":"Kreisangehörige_Gemeinde"},"district":{"key":"09678","name":"Schweinfurt","type":"Landkreis"},"federalState":{"key":"09","name":"Bayern"}},{"name":"Seegärten","postalCode":"97535","locality":"Wasserlosen","municipality":{"key":"09678192","name":"Wasserlosen","type":"Kreisangehörige_Gemeinde"},"district":{"key":"09678","name":"Schweinfurt","type":"Landkreis"},"federalState":{"key":"09","name":"Bayern"}},{"name":"Seegasse","postalCode":"97535","locality":"Wasserlosen","municipality":{"key":"09678192","name":"Wasserlosen","type":"Kreisangehörige_Gemeinde"},"district":{"key":"09678","name":"Schweinfurt","type":"Landkreis"},"federalState":{"key":"09","name":"Bayern"}},{"name":"Seestr.","postalCode":"97535","locality":"Wasserlosen","municipality":{"key":"09678192","name":"Wasserlosen","type":"Kreisangehörige_Gemeinde"},"district":{"key":"09678","name":"Schweinfurt","type":"Landkreis"},"federalState":{"key":"09","name":"Bayern"}},{"name":"Sonnengasse","postalCode":"97535","locality":"Wasserlosen","municipality":{"key":"09678192","name":"Wasserlosen","type":"Kreisangehörige_Gemeinde"},"district":{"key":"09678","name":"Schweinfurt","type":"Landkreis"},"federalState":{"key":"09","name":"Bayern"}},{"name":"Sonnenleite","postalCode":"97535","locality":"Wasserlosen","municipality":{"key":"09678192","name":"Wasserlosen","type":"Kreisangehörige_Gemeinde"},"district":{"key":"09678","name":"Schweinfurt","type":"Landkreis"},"federalState":{"key":"09","name":"Bayern"}},{"name":"Sonnenstr.","postalCode":"97535","locality":"Wasserlosen","municipality":{"key":"09678192","name":"Wasserlosen","type":"Kreisangehörige_Gemeinde"},"district":{"key":"09678","name":"Schweinfurt","type":"Landkreis"},"federalState":{"key":"09","name":"Bayern"}},{"name":"Sportplatzstr.","postalCode":"97535","locality":"Wasserlosen","municipality":{"key":"09678192","name":"Wasserlosen","type":"Kreisangehörige_Gemeinde"},"district":{"key":"09678","name":"Schweinfurt","type":"Landkreis"},"federalState":{"key":"09","name":"Bayern"}},{"name":"Steinstr.","postalCode":"97535","locality":"Wasserlosen","municipality":{"key":"09678192","name":"Wasserlosen","type":"Kreisangehörige_Gemeinde"},"district":{"key":"09678","name":"Schweinfurt","type":"Landkreis"},"federalState":{"key":"09","name":"Bayern"}},{"name":"Talstr.","postalCode":"97535","locality":"Wasserlosen","municipality":{"key":"09678192","name":"Wasserlosen","type":"Kreisangehörige_Gemeinde"},"district":{"key":"09678","name":"Schweinfurt","type":"Landkreis"},"federalState":{"key":"09","name":"Bayern"}},{"name":"Tannenstr.","postalCode":"97535","locality":"Wasserlosen","municipality":{"key":"09678192","name":"Wasserlosen","type":"Kreisangehörige_Gemeinde"},"district":{"key":"09678","name":"Schweinfurt","type":"Landkreis"},"federalState":{"key":"09","name":"Bayern"}},{"name":"Triebweg","postalCode":"97535","locality":"Wasserlosen","municipality":{"key":"09678192","name":"Wasserlosen","type":"Kreisangehörige_Gemeinde"},"district":{"key":"09678","name":"Schweinfurt","type":"Landkreis"},"federalState":{"key":"09","name":"Bayern"}},{"name":"Tulpenstr.","postalCode":"97535","locality":"Wasserlosen","municipality":{"key":"09678192","name":"Wasserlosen","type":"Kreisangehörige_Gemeinde"},"district":{"key":"09678","name":"Schweinfurt","type":"Landkreis"},"federalState":{"key":"09","name":"Bayern"}},{"name":"Untere Gasse","postalCode":"97535","locality":"Wasserlosen","municipality":{"key":"09678192","name":"Wasserlosen","type":"Kreisangehörige_Gemeinde"},"district":{"key":"09678","name":"Schweinfurt","type":"Landkreis"},"federalState":{"key":"09","name":"Bayern"}},{"name":"Vasbühler Str.","postalCode":"97535","locality":"Wasserlosen","municipality":{"key":"09678192","name":"Wasserlosen","type":"Kreisangehörige_Gemeinde"},"district":{"key":"09678","name":"Schweinfurt","type":"Landkreis"},"federalState":{"key":"09","name":"Bayern"}},{"name":"Veilchenstr.","postalCode":"97535","locality":"Wasserlosen","municipality":{"key":"09678192","name":"Wasserlosen","type":"Kreisangehörige_Gemeinde"},"district":{"key":"09678","name":"Schweinfurt","type":"Landkreis"},"federalState":{"key":"09","name":"Bayern"}},{"name":"Waldsiedlung","postalCode":"97535","locality":"Wasserlosen","municipality":{"key":"09678192","name":"Wasserlosen","type":"Kreisangehörige_Gemeinde"},"district":{"key":"09678","name":"Schweinfurt","type":"Landkreis"},"federalState":{"key":"09","name":"Bayern"}},{"name":"Waldstr.","postalCode":"97535","locality":"Wasserlosen","municipality":{"key":"09678192","name":"Wasserlosen","type":"Kreisangehörige_Gemeinde"},"district":{"key":"09678","name":"Schweinfurt","type":"Landkreis"},"federalState":{"key":"09","name":"Bayern"}},{"name":"Weiherstr.","postalCode":"97535","locality":"Wasserlosen","municipality":{"key":"09678192","name":"Wasserlosen","type":"Kreisangehörige_Gemeinde"},"district":{"key":"09678","name":"Schweinfurt","type":"Landkreis"},"federalState":{"key":"09","name":"Bayern"}},{"name":"Weinbergspfad","postalCode":"97535","locality":"Wasserlosen","municipality":{"key":"09678192","name":"Wasserlosen","type":"Kreisangehörige_Gemeinde"},"district":{"key":"09678","name":"Schweinfurt","type":"Landkreis"},"federalState":{"key":"09","name":"Bayern"}},{"name":"Weinbergsweg","postalCode":"97535","locality":"Wasserlosen","municipality":{"key":"09678192","name":"Wasserlosen","type":"Kreisangehörige_Gemeinde"},"district":{"key":"09678","name":"Schweinfurt","type":"Landkreis"},"federalState":{"key":"09","name":"Bayern"}},{"name":"Weinstr.","postalCode":"97535","locality":"Wasserlosen","municipality":{"key":"09678192","name":"Wasserlosen","type":"Kreisangehörige_Gemeinde"},"district":{"key":"09678","name":"Schweinfurt","type":"Landkreis"},"federalState":{"key":"09","name":"Bayern"}},{"name":"Wolfsgasse","postalCode":"97535","locality":"Wasserlosen","municipality":{"key":"09678192","name":"Wasserlosen","type":"Kreisangehörige_Gemeinde"},"district":{"key":"09678","name":"Schweinfurt","type":"Landkreis"},"federalState":{"key":"09","name":"Bayern"}},{"name":"Ziegelhütte","postalCode":"97535","locality":"Wasserlosen","municipality":{"key":"09678192","name":"Wasserlosen","type":"Kreisangehörige_Gemeinde"},"district":{"key":"09678","name":"Schweinfurt","type":"Landkreis"},"federalState":{"key":"09","name":"Bayern"}},{"name":"Zum Schnellert","postalCode":"97535","locality":"Wasserlosen","municipality":{"key":"09678192","name":"Wasserlosen","type":"Kreisangehörige_Gemeinde"},"district":{"key":"09678","name":"Schweinfurt","type":"Landkreis"},"federalState":{"key":"09","name":"Bayern"}},]