[{"name":"Adalbert-Stifter-Weg","postalCode":"73550","locality":"Waldstetten","municipality":{"key":"08136079","name":"Waldstetten","type":"Kreisangehörige_Gemeinde"},"district":{"key":"08136","name":"Ostalbkreis","type":"Landkreis"},"federalState":{"key":"08","name":"Baden-Württemberg"}},{"name":"Adlerstr.","postalCode":"73550","locality":"Waldstetten","municipality":{"key":"08136079","name":"Waldstetten","type":"Kreisangehörige_Gemeinde"},"district":{"key":"08136","name":"Ostalbkreis","type":"Landkreis"},"federalState":{"key":"08","name":"Baden-Württemberg"}},{"name":"Ahornweg","postalCode":"73550","locality":"Waldstetten","municipality":{"key":"08136079","name":"Waldstetten","type":"Kreisangehörige_Gemeinde"},"district":{"key":"08136","name":"Ostalbkreis","type":"Landkreis"},"federalState":{"key":"08","name":"Baden-Württemberg"}},{"name":"Albblickstr.","postalCode":"73550","locality":"Waldstetten","municipality":{"key":"08136079","name":"Waldstetten","type":"Kreisangehörige_Gemeinde"},"district":{"key":"08136","name":"Ostalbkreis","type":"Landkreis"},"federalState":{"key":"08","name":"Baden-Württemberg"}},{"name":"Albweg","postalCode":"73550","locality":"Waldstetten","municipality":{"key":"08136079","name":"Waldstetten","type":"Kreisangehörige_Gemeinde"},"district":{"key":"08136","name":"Ostalbkreis","type":"Landkreis"},"federalState":{"key":"08","name":"Baden-Württemberg"}},{"name":"Almenweg","postalCode":"73550","locality":"Waldstetten","municipality":{"key":"08136079","name":"Waldstetten","type":"Kreisangehörige_Gemeinde"},"district":{"key":"08136","name":"Ostalbkreis","type":"Landkreis"},"federalState":{"key":"08","name":"Baden-Württemberg"}},{"name":"Alte Steige","postalCode":"73550","locality":"Waldstetten","municipality":{"key":"08136079","name":"Waldstetten","type":"Kreisangehörige_Gemeinde"},"district":{"key":"08136","name":"Ostalbkreis","type":"Landkreis"},"federalState":{"key":"08","name":"Baden-Württemberg"}},{"name":"Am Brühl","postalCode":"89367","locality":"Waldstetten","municipality":{"key":"09774191","name":"Waldstetten, M","type":"Markt"},"district":{"key":"09774","name":"Günzburg","type":"Landkreis"},"federalState":{"key":"09","name":"Bayern"}},{"name":"Am Erlenbach","postalCode":"89367","locality":"Waldstetten","municipality":{"key":"09774191","name":"Waldstetten, M","type":"Markt"},"district":{"key":"09774","name":"Günzburg","type":"Landkreis"},"federalState":{"key":"09","name":"Bayern"}},{"name":"Am Fischgärtle","postalCode":"89367","locality":"Waldstetten","municipality":{"key":"09774191","name":"Waldstetten, M","type":"Markt"},"district":{"key":"09774","name":"Günzburg","type":"Landkreis"},"federalState":{"key":"09","name":"Bayern"}},{"name":"Am Gehag","postalCode":"89367","locality":"Waldstetten","municipality":{"key":"09774191","name":"Waldstetten, M","type":"Markt"},"district":{"key":"09774","name":"Günzburg","type":"Landkreis"},"federalState":{"key":"09","name":"Bayern"}},{"name":"Am Hohenrain","postalCode":"73550","locality":"Waldstetten","municipality":{"key":"08136079","name":"Waldstetten","type":"Kreisangehörige_Gemeinde"},"district":{"key":"08136","name":"Ostalbkreis","type":"Landkreis"},"federalState":{"key":"08","name":"Baden-Württemberg"}},{"name":"Am Holunderweg","postalCode":"73550","locality":"Waldstetten","municipality":{"key":"08136079","name":"Waldstetten","type":"Kreisangehörige_Gemeinde"},"district":{"key":"08136","name":"Ostalbkreis","type":"Landkreis"},"federalState":{"key":"08","name":"Baden-Württemberg"}},{"name":"Am Rackerzeil","postalCode":"73550","locality":"Waldstetten","municipality":{"key":"08136079","name":"Waldstetten","type":"Kreisangehörige_Gemeinde"},"district":{"key":"08136","name":"Ostalbkreis","type":"Landkreis"},"federalState":{"key":"08","name":"Baden-Württemberg"}},{"name":"Am Rohrbach","postalCode":"89367","locality":"Waldstetten","municipality":{"key":"09774191","name":"Waldstetten, M","type":"Markt"},"district":{"key":"09774","name":"Günzburg","type":"Landkreis"},"federalState":{"key":"09","name":"Bayern"}},{"name":"Am Schönblick","postalCode":"73550","locality":"Waldstetten","municipality":{"key":"08136079","name":"Waldstetten","type":"Kreisangehörige_Gemeinde"},"district":{"key":"08136","name":"Ostalbkreis","type":"Landkreis"},"federalState":{"key":"08","name":"Baden-Württemberg"}},{"name":"Amselweg","postalCode":"73550","locality":"Waldstetten","municipality":{"key":"08136079","name":"Waldstetten","type":"Kreisangehörige_Gemeinde"},"district":{"key":"08136","name":"Ostalbkreis","type":"Landkreis"},"federalState":{"key":"08","name":"Baden-Württemberg"}},{"name":"Amselweg","postalCode":"89367","locality":"Waldstetten","municipality":{"key":"09774191","name":"Waldstetten, M","type":"Markt"},"district":{"key":"09774","name":"Günzburg","type":"Landkreis"},"federalState":{"key":"09","name":"Bayern"}},{"name":"Am Sommerrain","postalCode":"73550","locality":"Waldstetten","municipality":{"key":"08136079","name":"Waldstetten","type":"Kreisangehörige_Gemeinde"},"district":{"key":"08136","name":"Ostalbkreis","type":"Landkreis"},"federalState":{"key":"08","name":"Baden-Württemberg"}},{"name":"Am Stoffelbach","postalCode":"73550","locality":"Waldstetten","municipality":{"key":"08136079","name":"Waldstetten","type":"Kreisangehörige_Gemeinde"},"district":{"key":"08136","name":"Ostalbkreis","type":"Landkreis"},"federalState":{"key":"08","name":"Baden-Württemberg"}},{"name":"Am Wäldle","postalCode":"73550","locality":"Waldstetten","municipality":{"key":"08136079","name":"Waldstetten","type":"Kreisangehörige_Gemeinde"},"district":{"key":"08136","name":"Ostalbkreis","type":"Landkreis"},"federalState":{"key":"08","name":"Baden-Württemberg"}},{"name":"Am Wurfbrunnen","postalCode":"89367","locality":"Waldstetten","municipality":{"key":"09774191","name":"Waldstetten, M","type":"Markt"},"district":{"key":"09774","name":"Günzburg","type":"Landkreis"},"federalState":{"key":"09","name":"Bayern"}},{"name":"An der Hausener Str.","postalCode":"89367","locality":"Waldstetten","municipality":{"key":"09774191","name":"Waldstetten, M","type":"Markt"},"district":{"key":"09774","name":"Günzburg","type":"Landkreis"},"federalState":{"key":"09","name":"Bayern"}},{"name":"Auweg","postalCode":"73550","locality":"Waldstetten","municipality":{"key":"08136079","name":"Waldstetten","type":"Kreisangehörige_Gemeinde"},"district":{"key":"08136","name":"Ostalbkreis","type":"Landkreis"},"federalState":{"key":"08","name":"Baden-Württemberg"}},{"name":"Barbarossaweg","postalCode":"73550","locality":"Waldstetten","municipality":{"key":"08136079","name":"Waldstetten","type":"Kreisangehörige_Gemeinde"},"district":{"key":"08136","name":"Ostalbkreis","type":"Landkreis"},"federalState":{"key":"08","name":"Baden-Württemberg"}},{"name":"Beethovenstr.","postalCode":"73550","locality":"Waldstetten","municipality":{"key":"08136079","name":"Waldstetten","type":"Kreisangehörige_Gemeinde"},"district":{"key":"08136","name":"Ostalbkreis","type":"Landkreis"},"federalState":{"key":"08","name":"Baden-Württemberg"}},{"name":"Beim Schlößle","postalCode":"73550","locality":"Waldstetten","municipality":{"key":"08136079","name":"Waldstetten","type":"Kreisangehörige_Gemeinde"},"district":{"key":"08136","name":"Ostalbkreis","type":"Landkreis"},"federalState":{"key":"08","name":"Baden-Württemberg"}},{"name":"Bergstr.","postalCode":"73550","locality":"Waldstetten","municipality":{"key":"08136079","name":"Waldstetten","type":"Kreisangehörige_Gemeinde"},"district":{"key":"08136","name":"Ostalbkreis","type":"Landkreis"},"federalState":{"key":"08","name":"Baden-Württemberg"}},{"name":"Bergstr.","postalCode":"89367","locality":"Waldstetten","municipality":{"key":"09774191","name":"Waldstetten, M","type":"Markt"},"district":{"key":"09774","name":"Günzburg","type":"Landkreis"},"federalState":{"key":"09","name":"Bayern"}},{"name":"Bernhardusweg","postalCode":"73550","locality":"Waldstetten","municipality":{"key":"08136079","name":"Waldstetten","type":"Kreisangehörige_Gemeinde"},"district":{"key":"08136","name":"Ostalbkreis","type":"Landkreis"},"federalState":{"key":"08","name":"Baden-Württemberg"}},{"name":"Bettringer Str.","postalCode":"73550","locality":"Waldstetten","municipality":{"key":"08136079","name":"Waldstetten","type":"Kreisangehörige_Gemeinde"},"district":{"key":"08136","name":"Ostalbkreis","type":"Landkreis"},"federalState":{"key":"08","name":"Baden-Württemberg"}},{"name":"Birkenweg","postalCode":"73550","locality":"Waldstetten","municipality":{"key":"08136079","name":"Waldstetten","type":"Kreisangehörige_Gemeinde"},"district":{"key":"08136","name":"Ostalbkreis","type":"Landkreis"},"federalState":{"key":"08","name":"Baden-Württemberg"}},{"name":"Bischof-Keppler-Str.","postalCode":"73550","locality":"Waldstetten","municipality":{"key":"08136079","name":"Waldstetten","type":"Kreisangehörige_Gemeinde"},"district":{"key":"08136","name":"Ostalbkreis","type":"Landkreis"},"federalState":{"key":"08","name":"Baden-Württemberg"}},{"name":"Blumenweg","postalCode":"73550","locality":"Waldstetten","municipality":{"key":"08136079","name":"Waldstetten","type":"Kreisangehörige_Gemeinde"},"district":{"key":"08136","name":"Ostalbkreis","type":"Landkreis"},"federalState":{"key":"08","name":"Baden-Württemberg"}},{"name":"Blumenweg","postalCode":"89367","locality":"Waldstetten","municipality":{"key":"09774191","name":"Waldstetten, M","type":"Markt"},"district":{"key":"09774","name":"Günzburg","type":"Landkreis"},"federalState":{"key":"09","name":"Bayern"}},{"name":"Brahmsweg","postalCode":"73550","locality":"Waldstetten","municipality":{"key":"08136079","name":"Waldstetten","type":"Kreisangehörige_Gemeinde"},"district":{"key":"08136","name":"Ostalbkreis","type":"Landkreis"},"federalState":{"key":"08","name":"Baden-Württemberg"}},{"name":"Brandfeldstr.","postalCode":"89367","locality":"Waldstetten","municipality":{"key":"09774191","name":"Waldstetten, M","type":"Markt"},"district":{"key":"09774","name":"Günzburg","type":"Landkreis"},"federalState":{"key":"09","name":"Bayern"}},{"name":"Breitestr.","postalCode":"73550","locality":"Waldstetten","municipality":{"key":"08136079","name":"Waldstetten","type":"Kreisangehörige_Gemeinde"},"district":{"key":"08136","name":"Ostalbkreis","type":"Landkreis"},"federalState":{"key":"08","name":"Baden-Württemberg"}},{"name":"Breslauer Str.","postalCode":"73550","locality":"Waldstetten","municipality":{"key":"08136079","name":"Waldstetten","type":"Kreisangehörige_Gemeinde"},"district":{"key":"08136","name":"Ostalbkreis","type":"Landkreis"},"federalState":{"key":"08","name":"Baden-Württemberg"}},{"name":"Brucknerweg","postalCode":"73550","locality":"Waldstetten","municipality":{"key":"08136079","name":"Waldstetten","type":"Kreisangehörige_Gemeinde"},"district":{"key":"08136","name":"Ostalbkreis","type":"Landkreis"},"federalState":{"key":"08","name":"Baden-Württemberg"}},{"name":"Brunnengasse","postalCode":"73550","locality":"Waldstetten","municipality":{"key":"08136079","name":"Waldstetten","type":"Kreisangehörige_Gemeinde"},"district":{"key":"08136","name":"Ostalbkreis","type":"Landkreis"},"federalState":{"key":"08","name":"Baden-Württemberg"}},{"name":"Buchenweg","postalCode":"73550","locality":"Waldstetten","municipality":{"key":"08136079","name":"Waldstetten","type":"Kreisangehörige_Gemeinde"},"district":{"key":"08136","name":"Ostalbkreis","type":"Landkreis"},"federalState":{"key":"08","name":"Baden-Württemberg"}},{"name":"Bühlweg","postalCode":"73550","locality":"Waldstetten","municipality":{"key":"08136079","name":"Waldstetten","type":"Kreisangehörige_Gemeinde"},"district":{"key":"08136","name":"Ostalbkreis","type":"Landkreis"},"federalState":{"key":"08","name":"Baden-Württemberg"}},{"name":"Bussardweg","postalCode":"73550","locality":"Waldstetten","municipality":{"key":"08136079","name":"Waldstetten","type":"Kreisangehörige_Gemeinde"},"district":{"key":"08136","name":"Ostalbkreis","type":"Landkreis"},"federalState":{"key":"08","name":"Baden-Württemberg"}},{"name":"Danziger Str.","postalCode":"73550","locality":"Waldstetten","municipality":{"key":"08136079","name":"Waldstetten","type":"Kreisangehörige_Gemeinde"},"district":{"key":"08136","name":"Ostalbkreis","type":"Landkreis"},"federalState":{"key":"08","name":"Baden-Württemberg"}},{"name":"Donzdorfer Str.","postalCode":"73550","locality":"Waldstetten","municipality":{"key":"08136079","name":"Waldstetten","type":"Kreisangehörige_Gemeinde"},"district":{"key":"08136","name":"Ostalbkreis","type":"Landkreis"},"federalState":{"key":"08","name":"Baden-Württemberg"}},{"name":"Dreifaltigkeitsstr.","postalCode":"73550","locality":"Waldstetten","municipality":{"key":"08136079","name":"Waldstetten","type":"Kreisangehörige_Gemeinde"},"district":{"key":"08136","name":"Ostalbkreis","type":"Landkreis"},"federalState":{"key":"08","name":"Baden-Württemberg"}},{"name":"Dr.-Frick-Str.","postalCode":"89367","locality":"Waldstetten","municipality":{"key":"09774191","name":"Waldstetten, M","type":"Markt"},"district":{"key":"09774","name":"Günzburg","type":"Landkreis"},"federalState":{"key":"09","name":"Bayern"}},{"name":"Dr.-Hofele-Str.","postalCode":"73550","locality":"Waldstetten","municipality":{"key":"08136079","name":"Waldstetten","type":"Kreisangehörige_Gemeinde"},"district":{"key":"08136","name":"Ostalbkreis","type":"Landkreis"},"federalState":{"key":"08","name":"Baden-Württemberg"}},{"name":"Drosselweg","postalCode":"73550","locality":"Waldstetten","municipality":{"key":"08136079","name":"Waldstetten","type":"Kreisangehörige_Gemeinde"},"district":{"key":"08136","name":"Ostalbkreis","type":"Landkreis"},"federalState":{"key":"08","name":"Baden-Württemberg"}},{"name":"Egerstr.","postalCode":"73550","locality":"Waldstetten","municipality":{"key":"08136079","name":"Waldstetten","type":"Kreisangehörige_Gemeinde"},"district":{"key":"08136","name":"Ostalbkreis","type":"Landkreis"},"federalState":{"key":"08","name":"Baden-Württemberg"}},{"name":"Eichendorffweg","postalCode":"73550","locality":"Waldstetten","municipality":{"key":"08136079","name":"Waldstetten","type":"Kreisangehörige_Gemeinde"},"district":{"key":"08136","name":"Ostalbkreis","type":"Landkreis"},"federalState":{"key":"08","name":"Baden-Württemberg"}},{"name":"Eichhölzlesweg","postalCode":"73550","locality":"Waldstetten","municipality":{"key":"08136079","name":"Waldstetten","type":"Kreisangehörige_Gemeinde"},"district":{"key":"08136","name":"Ostalbkreis","type":"Landkreis"},"federalState":{"key":"08","name":"Baden-Württemberg"}},{"name":"Erlenweg","postalCode":"73550","locality":"Waldstetten","municipality":{"key":"08136079","name":"Waldstetten","type":"Kreisangehörige_Gemeinde"},"district":{"key":"08136","name":"Ostalbkreis","type":"Landkreis"},"federalState":{"key":"08","name":"Baden-Württemberg"}},{"name":"Falkenweg","postalCode":"73550","locality":"Waldstetten","municipality":{"key":"08136079","name":"Waldstetten","type":"Kreisangehörige_Gemeinde"},"district":{"key":"08136","name":"Ostalbkreis","type":"Landkreis"},"federalState":{"key":"08","name":"Baden-Württemberg"}},{"name":"Fasanenweg","postalCode":"73550","locality":"Waldstetten","municipality":{"key":"08136079","name":"Waldstetten","type":"Kreisangehörige_Gemeinde"},"district":{"key":"08136","name":"Ostalbkreis","type":"Landkreis"},"federalState":{"key":"08","name":"Baden-Württemberg"}},{"name":"Fichtenstr.","postalCode":"73550","locality":"Waldstetten","municipality":{"key":"08136079","name":"Waldstetten","type":"Kreisangehörige_Gemeinde"},"district":{"key":"08136","name":"Ostalbkreis","type":"Landkreis"},"federalState":{"key":"08","name":"Baden-Württemberg"}},{"name":"Finkenweg","postalCode":"73550","locality":"Waldstetten","municipality":{"key":"08136079","name":"Waldstetten","type":"Kreisangehörige_Gemeinde"},"district":{"key":"08136","name":"Ostalbkreis","type":"Landkreis"},"federalState":{"key":"08","name":"Baden-Württemberg"}},{"name":"Forchenweg","postalCode":"73550","locality":"Waldstetten","municipality":{"key":"08136079","name":"Waldstetten","type":"Kreisangehörige_Gemeinde"},"district":{"key":"08136","name":"Ostalbkreis","type":"Landkreis"},"federalState":{"key":"08","name":"Baden-Württemberg"}},{"name":"Forstweg","postalCode":"73550","locality":"Waldstetten","municipality":{"key":"08136079","name":"Waldstetten","type":"Kreisangehörige_Gemeinde"},"district":{"key":"08136","name":"Ostalbkreis","type":"Landkreis"},"federalState":{"key":"08","name":"Baden-Württemberg"}},{"name":"Fossilienweg","postalCode":"73550","locality":"Waldstetten","municipality":{"key":"08136079","name":"Waldstetten","type":"Kreisangehörige_Gemeinde"},"district":{"key":"08136","name":"Ostalbkreis","type":"Landkreis"},"federalState":{"key":"08","name":"Baden-Württemberg"}},{"name":"Franz-Liszt-Weg","postalCode":"73550","locality":"Waldstetten","municipality":{"key":"08136079","name":"Waldstetten","type":"Kreisangehörige_Gemeinde"},"district":{"key":"08136","name":"Ostalbkreis","type":"Landkreis"},"federalState":{"key":"08","name":"Baden-Württemberg"}},{"name":"Frauenholzweg","postalCode":"73550","locality":"Waldstetten","municipality":{"key":"08136079","name":"Waldstetten","type":"Kreisangehörige_Gemeinde"},"district":{"key":"08136","name":"Ostalbkreis","type":"Landkreis"},"federalState":{"key":"08","name":"Baden-Württemberg"}},{"name":"Friedhofstr.","postalCode":"73550","locality":"Waldstetten","municipality":{"key":"08136079","name":"Waldstetten","type":"Kreisangehörige_Gemeinde"},"district":{"key":"08136","name":"Ostalbkreis","type":"Landkreis"},"federalState":{"key":"08","name":"Baden-Württemberg"}},{"name":"Frühlingstr.","postalCode":"89367","locality":"Waldstetten","municipality":{"key":"09774191","name":"Waldstetten, M","type":"Markt"},"district":{"key":"09774","name":"Günzburg","type":"Landkreis"},"federalState":{"key":"09","name":"Bayern"}},{"name":"Gablonzer Weg","postalCode":"73550","locality":"Waldstetten","municipality":{"key":"08136079","name":"Waldstetten","type":"Kreisangehörige_Gemeinde"},"district":{"key":"08136","name":"Ostalbkreis","type":"Landkreis"},"federalState":{"key":"08","name":"Baden-Württemberg"}},{"name":"Gartenstr.","postalCode":"73550","locality":"Waldstetten","municipality":{"key":"08136079","name":"Waldstetten","type":"Kreisangehörige_Gemeinde"},"district":{"key":"08136","name":"Ostalbkreis","type":"Landkreis"},"federalState":{"key":"08","name":"Baden-Württemberg"}},{"name":"Gartenstr.","postalCode":"89367","locality":"Waldstetten","municipality":{"key":"09774191","name":"Waldstetten, M","type":"Markt"},"district":{"key":"09774","name":"Günzburg","type":"Landkreis"},"federalState":{"key":"09","name":"Bayern"}},{"name":"Gmünder Str.","postalCode":"73550","locality":"Waldstetten","municipality":{"key":"08136079","name":"Waldstetten","type":"Kreisangehörige_Gemeinde"},"district":{"key":"08136","name":"Ostalbkreis","type":"Landkreis"},"federalState":{"key":"08","name":"Baden-Württemberg"}},{"name":"Goethestr.","postalCode":"73550","locality":"Waldstetten","municipality":{"key":"08136079","name":"Waldstetten","type":"Kreisangehörige_Gemeinde"},"district":{"key":"08136","name":"Ostalbkreis","type":"Landkreis"},"federalState":{"key":"08","name":"Baden-Württemberg"}},{"name":"Goldbachweg","postalCode":"73550","locality":"Waldstetten","municipality":{"key":"08136079","name":"Waldstetten","type":"Kreisangehörige_Gemeinde"},"district":{"key":"08136","name":"Ostalbkreis","type":"Landkreis"},"federalState":{"key":"08","name":"Baden-Württemberg"}},{"name":"Gottlieb-Daimler-Str.","postalCode":"73550","locality":"Waldstetten","municipality":{"key":"08136079","name":"Waldstetten","type":"Kreisangehörige_Gemeinde"},"district":{"key":"08136","name":"Ostalbkreis","type":"Landkreis"},"federalState":{"key":"08","name":"Baden-Württemberg"}},{"name":"Graneggweg","postalCode":"73550","locality":"Waldstetten","municipality":{"key":"08136079","name":"Waldstetten","type":"Kreisangehörige_Gemeinde"},"district":{"key":"08136","name":"Ostalbkreis","type":"Landkreis"},"federalState":{"key":"08","name":"Baden-Württemberg"}},{"name":"Hardtstr.","postalCode":"73550","locality":"Waldstetten","municipality":{"key":"08136079","name":"Waldstetten","type":"Kreisangehörige_Gemeinde"},"district":{"key":"08136","name":"Ostalbkreis","type":"Landkreis"},"federalState":{"key":"08","name":"Baden-Württemberg"}},{"name":"Hauptstr.","postalCode":"73550","locality":"Waldstetten","municipality":{"key":"08136079","name":"Waldstetten","type":"Kreisangehörige_Gemeinde"},"district":{"key":"08136","name":"Ostalbkreis","type":"Landkreis"},"federalState":{"key":"08","name":"Baden-Württemberg"}},{"name":"Hauptstr.","postalCode":"89367","locality":"Waldstetten","municipality":{"key":"09774191","name":"Waldstetten, M","type":"Markt"},"district":{"key":"09774","name":"Günzburg","type":"Landkreis"},"federalState":{"key":"09","name":"Bayern"}},{"name":"Heldenbergweg","postalCode":"73550","locality":"Waldstetten","municipality":{"key":"08136079","name":"Waldstetten","type":"Kreisangehörige_Gemeinde"},"district":{"key":"08136","name":"Ostalbkreis","type":"Landkreis"},"federalState":{"key":"08","name":"Baden-Württemberg"}},{"name":"Herderstr.","postalCode":"73550","locality":"Waldstetten","municipality":{"key":"08136079","name":"Waldstetten","type":"Kreisangehörige_Gemeinde"},"district":{"key":"08136","name":"Ostalbkreis","type":"Landkreis"},"federalState":{"key":"08","name":"Baden-Württemberg"}},{"name":"Herrengasse","postalCode":"73550","locality":"Waldstetten","municipality":{"key":"08136079","name":"Waldstetten","type":"Kreisangehörige_Gemeinde"},"district":{"key":"08136","name":"Ostalbkreis","type":"Landkreis"},"federalState":{"key":"08","name":"Baden-Württemberg"}},{"name":"Herzenklinge","postalCode":"73550","locality":"Waldstetten","municipality":{"key":"08136079","name":"Waldstetten","type":"Kreisangehörige_Gemeinde"},"district":{"key":"08136","name":"Ostalbkreis","type":"Landkreis"},"federalState":{"key":"08","name":"Baden-Württemberg"}},{"name":"Hinterbergweg","postalCode":"73550","locality":"Waldstetten","municipality":{"key":"08136079","name":"Waldstetten","type":"Kreisangehörige_Gemeinde"},"district":{"key":"08136","name":"Ostalbkreis","type":"Landkreis"},"federalState":{"key":"08","name":"Baden-Württemberg"}},{"name":"Hintere Wolfsgasse","postalCode":"73550","locality":"Waldstetten","municipality":{"key":"08136079","name":"Waldstetten","type":"Kreisangehörige_Gemeinde"},"district":{"key":"08136","name":"Ostalbkreis","type":"Landkreis"},"federalState":{"key":"08","name":"Baden-Württemberg"}},{"name":"Hohenstaufenstr.","postalCode":"73550","locality":"Waldstetten","municipality":{"key":"08136079","name":"Waldstetten","type":"Kreisangehörige_Gemeinde"},"district":{"key":"08136","name":"Ostalbkreis","type":"Landkreis"},"federalState":{"key":"08","name":"Baden-Württemberg"}},{"name":"Hölderlinweg","postalCode":"73550","locality":"Waldstetten","municipality":{"key":"08136079","name":"Waldstetten","type":"Kreisangehörige_Gemeinde"},"district":{"key":"08136","name":"Ostalbkreis","type":"Landkreis"},"federalState":{"key":"08","name":"Baden-Württemberg"}},{"name":"Hornbergsteige","postalCode":"73550","locality":"Waldstetten","municipality":{"key":"08136079","name":"Waldstetten","type":"Kreisangehörige_Gemeinde"},"district":{"key":"08136","name":"Ostalbkreis","type":"Landkreis"},"federalState":{"key":"08","name":"Baden-Württemberg"}},{"name":"Iglauer Weg","postalCode":"73550","locality":"Waldstetten","municipality":{"key":"08136079","name":"Waldstetten","type":"Kreisangehörige_Gemeinde"},"district":{"key":"08136","name":"Ostalbkreis","type":"Landkreis"},"federalState":{"key":"08","name":"Baden-Württemberg"}},{"name":"Im Brühl","postalCode":"73550","locality":"Waldstetten","municipality":{"key":"08136079","name":"Waldstetten","type":"Kreisangehörige_Gemeinde"},"district":{"key":"08136","name":"Ostalbkreis","type":"Landkreis"},"federalState":{"key":"08","name":"Baden-Württemberg"}},{"name":"Im Eichich","postalCode":"73550","locality":"Waldstetten","municipality":{"key":"08136079","name":"Waldstetten","type":"Kreisangehörige_Gemeinde"},"district":{"key":"08136","name":"Ostalbkreis","type":"Landkreis"},"federalState":{"key":"08","name":"Baden-Württemberg"}},{"name":"Im Graben","postalCode":"73550","locality":"Waldstetten","municipality":{"key":"08136079","name":"Waldstetten","type":"Kreisangehörige_Gemeinde"},"district":{"key":"08136","name":"Ostalbkreis","type":"Landkreis"},"federalState":{"key":"08","name":"Baden-Württemberg"}},{"name":"Im Steinboß","postalCode":"73550","locality":"Waldstetten","municipality":{"key":"08136079","name":"Waldstetten","type":"Kreisangehörige_Gemeinde"},"district":{"key":"08136","name":"Ostalbkreis","type":"Landkreis"},"federalState":{"key":"08","name":"Baden-Württemberg"}},{"name":"Im Storren","postalCode":"73550","locality":"Waldstetten","municipality":{"key":"08136079","name":"Waldstetten","type":"Kreisangehörige_Gemeinde"},"district":{"key":"08136","name":"Ostalbkreis","type":"Landkreis"},"federalState":{"key":"08","name":"Baden-Württemberg"}},{"name":"In den Grabenäckern","postalCode":"73550","locality":"Waldstetten","municipality":{"key":"08136079","name":"Waldstetten","type":"Kreisangehörige_Gemeinde"},"district":{"key":"08136","name":"Ostalbkreis","type":"Landkreis"},"federalState":{"key":"08","name":"Baden-Württemberg"}},{"name":"In den Schädeläckern","postalCode":"73550","locality":"Waldstetten","municipality":{"key":"08136079","name":"Waldstetten","type":"Kreisangehörige_Gemeinde"},"district":{"key":"08136","name":"Ostalbkreis","type":"Landkreis"},"federalState":{"key":"08","name":"Baden-Württemberg"}},{"name":"In der Breite","postalCode":"73550","locality":"Waldstetten","municipality":{"key":"08136079","name":"Waldstetten","type":"Kreisangehörige_Gemeinde"},"district":{"key":"08136","name":"Ostalbkreis","type":"Landkreis"},"federalState":{"key":"08","name":"Baden-Württemberg"}},{"name":"Industriestr.","postalCode":"89367","locality":"Waldstetten","municipality":{"key":"09774191","name":"Waldstetten, M","type":"Markt"},"district":{"key":"09774","name":"Günzburg","type":"Landkreis"},"federalState":{"key":"09","name":"Bayern"}},{"name":"Jahnstr.","postalCode":"73550","locality":"Waldstetten","municipality":{"key":"08136079","name":"Waldstetten","type":"Kreisangehörige_Gemeinde"},"district":{"key":"08136","name":"Ostalbkreis","type":"Landkreis"},"federalState":{"key":"08","name":"Baden-Württemberg"}},{"name":"Josef-Leicht-Weg","postalCode":"73550","locality":"Waldstetten","municipality":{"key":"08136079","name":"Waldstetten","type":"Kreisangehörige_Gemeinde"},"district":{"key":"08136","name":"Ostalbkreis","type":"Landkreis"},"federalState":{"key":"08","name":"Baden-Württemberg"}},{"name":"Joseph-Haydn-Str.","postalCode":"73550","locality":"Waldstetten","municipality":{"key":"08136079","name":"Waldstetten","type":"Kreisangehörige_Gemeinde"},"district":{"key":"08136","name":"Ostalbkreis","type":"Landkreis"},"federalState":{"key":"08","name":"Baden-Württemberg"}},{"name":"Kaiserbergstr.","postalCode":"73550","locality":"Waldstetten","municipality":{"key":"08136079","name":"Waldstetten","type":"Kreisangehörige_Gemeinde"},"district":{"key":"08136","name":"Ostalbkreis","type":"Landkreis"},"federalState":{"key":"08","name":"Baden-Württemberg"}},{"name":"Kaltes Feld","postalCode":"73529","locality":"Waldstetten","municipality":{"key":"08136079","name":"Waldstetten","type":"Kreisangehörige_Gemeinde"},"district":{"key":"08136","name":"Ostalbkreis","type":"Landkreis"},"federalState":{"key":"08","name":"Baden-Württemberg"}},{"name":"Kapellengasse","postalCode":"73550","locality":"Waldstetten","municipality":{"key":"08136079","name":"Waldstetten","type":"Kreisangehörige_Gemeinde"},"district":{"key":"08136","name":"Ostalbkreis","type":"Landkreis"},"federalState":{"key":"08","name":"Baden-Württemberg"}},{"name":"Kapellhaus","postalCode":"73550","locality":"Waldstetten","municipality":{"key":"08136079","name":"Waldstetten","type":"Kreisangehörige_Gemeinde"},"district":{"key":"08136","name":"Ostalbkreis","type":"Landkreis"},"federalState":{"key":"08","name":"Baden-Württemberg"}},{"name":"Kesslerstr.","postalCode":"89367","locality":"Waldstetten","municipality":{"key":"09774191","name":"Waldstetten, M","type":"Markt"},"district":{"key":"09774","name":"Günzburg","type":"Landkreis"},"federalState":{"key":"09","name":"Bayern"}},{"name":"Kirchberg","postalCode":"73550","locality":"Waldstetten","municipality":{"key":"08136079","name":"Waldstetten","type":"Kreisangehörige_Gemeinde"},"district":{"key":"08136","name":"Ostalbkreis","type":"Landkreis"},"federalState":{"key":"08","name":"Baden-Württemberg"}},{"name":"Kirchberg","postalCode":"89367","locality":"Waldstetten","municipality":{"key":"09774191","name":"Waldstetten, M","type":"Markt"},"district":{"key":"09774","name":"Günzburg","type":"Landkreis"},"federalState":{"key":"09","name":"Bayern"}},{"name":"Kirchplatz","postalCode":"89367","locality":"Waldstetten","municipality":{"key":"09774191","name":"Waldstetten, M","type":"Markt"},"district":{"key":"09774","name":"Günzburg","type":"Landkreis"},"federalState":{"key":"09","name":"Bayern"}},{"name":"Kolpingstr.","postalCode":"73550","locality":"Waldstetten","municipality":{"key":"08136079","name":"Waldstetten","type":"Kreisangehörige_Gemeinde"},"district":{"key":"08136","name":"Ostalbkreis","type":"Landkreis"},"federalState":{"key":"08","name":"Baden-Württemberg"}},{"name":"Königsberger Str.","postalCode":"73550","locality":"Waldstetten","municipality":{"key":"08136079","name":"Waldstetten","type":"Kreisangehörige_Gemeinde"},"district":{"key":"08136","name":"Ostalbkreis","type":"Landkreis"},"federalState":{"key":"08","name":"Baden-Württemberg"}},{"name":"Kreutzerweg","postalCode":"73550","locality":"Waldstetten","municipality":{"key":"08136079","name":"Waldstetten","type":"Kreisangehörige_Gemeinde"},"district":{"key":"08136","name":"Ostalbkreis","type":"Landkreis"},"federalState":{"key":"08","name":"Baden-Württemberg"}},{"name":"Krummhaldenweg","postalCode":"73550","locality":"Waldstetten","municipality":{"key":"08136079","name":"Waldstetten","type":"Kreisangehörige_Gemeinde"},"district":{"key":"08136","name":"Ostalbkreis","type":"Landkreis"},"federalState":{"key":"08","name":"Baden-Württemberg"}},{"name":"Lauchgasse","postalCode":"73550","locality":"Waldstetten","municipality":{"key":"08136079","name":"Waldstetten","type":"Kreisangehörige_Gemeinde"},"district":{"key":"08136","name":"Ostalbkreis","type":"Landkreis"},"federalState":{"key":"08","name":"Baden-Württemberg"}},{"name":"Leipziger Str.","postalCode":"73550","locality":"Waldstetten","municipality":{"key":"08136079","name":"Waldstetten","type":"Kreisangehörige_Gemeinde"},"district":{"key":"08136","name":"Ostalbkreis","type":"Landkreis"},"federalState":{"key":"08","name":"Baden-Württemberg"}},{"name":"Lenauweg","postalCode":"73550","locality":"Waldstetten","municipality":{"key":"08136079","name":"Waldstetten","type":"Kreisangehörige_Gemeinde"},"district":{"key":"08136","name":"Ostalbkreis","type":"Landkreis"},"federalState":{"key":"08","name":"Baden-Württemberg"}},{"name":"Leonhardshalde","postalCode":"73550","locality":"Waldstetten","municipality":{"key":"08136079","name":"Waldstetten","type":"Kreisangehörige_Gemeinde"},"district":{"key":"08136","name":"Ostalbkreis","type":"Landkreis"},"federalState":{"key":"08","name":"Baden-Württemberg"}},{"name":"Lerchenweg","postalCode":"73550","locality":"Waldstetten","municipality":{"key":"08136079","name":"Waldstetten","type":"Kreisangehörige_Gemeinde"},"district":{"key":"08136","name":"Ostalbkreis","type":"Landkreis"},"federalState":{"key":"08","name":"Baden-Württemberg"}},{"name":"Lindenstr.","postalCode":"73550","locality":"Waldstetten","municipality":{"key":"08136079","name":"Waldstetten","type":"Kreisangehörige_Gemeinde"},"district":{"key":"08136","name":"Ostalbkreis","type":"Landkreis"},"federalState":{"key":"08","name":"Baden-Württemberg"}},{"name":"Lindenweg","postalCode":"89367","locality":"Waldstetten","municipality":{"key":"09774191","name":"Waldstetten, M","type":"Markt"},"district":{"key":"09774","name":"Günzburg","type":"Landkreis"},"federalState":{"key":"09","name":"Bayern"}},{"name":"Ludwig-Nusser-Str.","postalCode":"73550","locality":"Waldstetten","municipality":{"key":"08136079","name":"Waldstetten","type":"Kreisangehörige_Gemeinde"},"district":{"key":"08136","name":"Ostalbkreis","type":"Landkreis"},"federalState":{"key":"08","name":"Baden-Württemberg"}},{"name":"Malzeviller Platz","postalCode":"73550","locality":"Waldstetten","municipality":{"key":"08136079","name":"Waldstetten","type":"Kreisangehörige_Gemeinde"},"district":{"key":"08136","name":"Ostalbkreis","type":"Landkreis"},"federalState":{"key":"08","name":"Baden-Württemberg"}},{"name":"Max-Reger-Weg","postalCode":"73550","locality":"Waldstetten","municipality":{"key":"08136079","name":"Waldstetten","type":"Kreisangehörige_Gemeinde"},"district":{"key":"08136","name":"Ostalbkreis","type":"Landkreis"},"federalState":{"key":"08","name":"Baden-Württemberg"}},{"name":"Molkereistr.","postalCode":"89367","locality":"Waldstetten","municipality":{"key":"09774191","name":"Waldstetten, M","type":"Markt"},"district":{"key":"09774","name":"Günzburg","type":"Landkreis"},"federalState":{"key":"09","name":"Bayern"}},{"name":"Mörikestr.","postalCode":"73550","locality":"Waldstetten","municipality":{"key":"08136079","name":"Waldstetten","type":"Kreisangehörige_Gemeinde"},"district":{"key":"08136","name":"Ostalbkreis","type":"Landkreis"},"federalState":{"key":"08","name":"Baden-Württemberg"}},{"name":"Mozartstr.","postalCode":"73550","locality":"Waldstetten","municipality":{"key":"08136079","name":"Waldstetten","type":"Kreisangehörige_Gemeinde"},"district":{"key":"08136","name":"Ostalbkreis","type":"Landkreis"},"federalState":{"key":"08","name":"Baden-Württemberg"}},{"name":"Mühlweg","postalCode":"89367","locality":"Waldstetten","municipality":{"key":"09774191","name":"Waldstetten, M","type":"Markt"},"district":{"key":"09774","name":"Günzburg","type":"Landkreis"},"federalState":{"key":"09","name":"Bayern"}},{"name":"Oxenbronner Str.","postalCode":"89367","locality":"Waldstetten","municipality":{"key":"09774191","name":"Waldstetten, M","type":"Markt"},"district":{"key":"09774","name":"Günzburg","type":"Landkreis"},"federalState":{"key":"09","name":"Bayern"}},{"name":"Patriziusweg","postalCode":"73550","locality":"Waldstetten","municipality":{"key":"08136079","name":"Waldstetten","type":"Kreisangehörige_Gemeinde"},"district":{"key":"08136","name":"Ostalbkreis","type":"Landkreis"},"federalState":{"key":"08","name":"Baden-Württemberg"}},{"name":"Petershofgasse","postalCode":"73550","locality":"Waldstetten","municipality":{"key":"08136079","name":"Waldstetten","type":"Kreisangehörige_Gemeinde"},"district":{"key":"08136","name":"Ostalbkreis","type":"Landkreis"},"federalState":{"key":"08","name":"Baden-Württemberg"}},{"name":"Pfefferweg","postalCode":"73550","locality":"Waldstetten","municipality":{"key":"08136079","name":"Waldstetten","type":"Kreisangehörige_Gemeinde"},"district":{"key":"08136","name":"Ostalbkreis","type":"Landkreis"},"federalState":{"key":"08","name":"Baden-Württemberg"}},{"name":"Poststr.","postalCode":"73550","locality":"Waldstetten","municipality":{"key":"08136079","name":"Waldstetten","type":"Kreisangehörige_Gemeinde"},"district":{"key":"08136","name":"Ostalbkreis","type":"Landkreis"},"federalState":{"key":"08","name":"Baden-Württemberg"}},{"name":"Raiffeisenstr.","postalCode":"73550","locality":"Waldstetten","municipality":{"key":"08136079","name":"Waldstetten","type":"Kreisangehörige_Gemeinde"},"district":{"key":"08136","name":"Ostalbkreis","type":"Landkreis"},"federalState":{"key":"08","name":"Baden-Württemberg"}},{"name":"Raiffeisenstr.","postalCode":"89367","locality":"Waldstetten","municipality":{"key":"09774191","name":"Waldstetten, M","type":"Markt"},"district":{"key":"09774","name":"Günzburg","type":"Landkreis"},"federalState":{"key":"09","name":"Bayern"}},{"name":"Rathausplatz","postalCode":"89367","locality":"Waldstetten","municipality":{"key":"09774191","name":"Waldstetten, M","type":"Markt"},"district":{"key":"09774","name":"Günzburg","type":"Landkreis"},"federalState":{"key":"09","name":"Bayern"}},{"name":"Rechbachweg","postalCode":"73550","locality":"Waldstetten","municipality":{"key":"08136079","name":"Waldstetten","type":"Kreisangehörige_Gemeinde"},"district":{"key":"08136","name":"Ostalbkreis","type":"Landkreis"},"federalState":{"key":"08","name":"Baden-Württemberg"}},{"name":"Rechbergstr.","postalCode":"73550","locality":"Waldstetten","municipality":{"key":"08136079","name":"Waldstetten","type":"Kreisangehörige_Gemeinde"},"district":{"key":"08136","name":"Ostalbkreis","type":"Landkreis"},"federalState":{"key":"08","name":"Baden-Württemberg"}},{"name":"Rehgebirgsstr.","postalCode":"73550","locality":"Waldstetten","municipality":{"key":"08136079","name":"Waldstetten","type":"Kreisangehörige_Gemeinde"},"district":{"key":"08136","name":"Ostalbkreis","type":"Landkreis"},"federalState":{"key":"08","name":"Baden-Württemberg"}},{"name":"Reichenberger Str.","postalCode":"73550","locality":"Waldstetten","municipality":{"key":"08136079","name":"Waldstetten","type":"Kreisangehörige_Gemeinde"},"district":{"key":"08136","name":"Ostalbkreis","type":"Landkreis"},"federalState":{"key":"08","name":"Baden-Württemberg"}},{"name":"Richard-Strauss-Str.","postalCode":"73550","locality":"Waldstetten","municipality":{"key":"08136079","name":"Waldstetten","type":"Kreisangehörige_Gemeinde"},"district":{"key":"08136","name":"Ostalbkreis","type":"Landkreis"},"federalState":{"key":"08","name":"Baden-Württemberg"}},{"name":"Richard-Wagner-Str.","postalCode":"73550","locality":"Waldstetten","municipality":{"key":"08136079","name":"Waldstetten","type":"Kreisangehörige_Gemeinde"},"district":{"key":"08136","name":"Ostalbkreis","type":"Landkreis"},"federalState":{"key":"08","name":"Baden-Württemberg"}},{"name":"Ringstr.","postalCode":"73550","locality":"Waldstetten","municipality":{"key":"08136079","name":"Waldstetten","type":"Kreisangehörige_Gemeinde"},"district":{"key":"08136","name":"Ostalbkreis","type":"Landkreis"},"federalState":{"key":"08","name":"Baden-Württemberg"}},{"name":"Robert-Bosch-Str.","postalCode":"73550","locality":"Waldstetten","municipality":{"key":"08136079","name":"Waldstetten","type":"Kreisangehörige_Gemeinde"},"district":{"key":"08136","name":"Ostalbkreis","type":"Landkreis"},"federalState":{"key":"08","name":"Baden-Württemberg"}},{"name":"Rosensteinstr.","postalCode":"73550","locality":"Waldstetten","municipality":{"key":"08136079","name":"Waldstetten","type":"Kreisangehörige_Gemeinde"},"district":{"key":"08136","name":"Ostalbkreis","type":"Landkreis"},"federalState":{"key":"08","name":"Baden-Württemberg"}},{"name":"Rosenstr.","postalCode":"73550","locality":"Waldstetten","municipality":{"key":"08136079","name":"Waldstetten","type":"Kreisangehörige_Gemeinde"},"district":{"key":"08136","name":"Ostalbkreis","type":"Landkreis"},"federalState":{"key":"08","name":"Baden-Württemberg"}},{"name":"Rostocker Str.","postalCode":"73550","locality":"Waldstetten","municipality":{"key":"08136079","name":"Waldstetten","type":"Kreisangehörige_Gemeinde"},"district":{"key":"08136","name":"Ostalbkreis","type":"Landkreis"},"federalState":{"key":"08","name":"Baden-Württemberg"}},{"name":"Rudolf-Diesel-Str.","postalCode":"73550","locality":"Waldstetten","municipality":{"key":"08136079","name":"Waldstetten","type":"Kreisangehörige_Gemeinde"},"district":{"key":"08136","name":"Ostalbkreis","type":"Landkreis"},"federalState":{"key":"08","name":"Baden-Württemberg"}},{"name":"Schäfflergasse","postalCode":"89367","locality":"Waldstetten","municipality":{"key":"09774191","name":"Waldstetten, M","type":"Markt"},"district":{"key":"09774","name":"Günzburg","type":"Landkreis"},"federalState":{"key":"09","name":"Bayern"}},{"name":"Schießwasen","postalCode":"73550","locality":"Waldstetten","municipality":{"key":"08136079","name":"Waldstetten","type":"Kreisangehörige_Gemeinde"},"district":{"key":"08136","name":"Ostalbkreis","type":"Landkreis"},"federalState":{"key":"08","name":"Baden-Württemberg"}},{"name":"Schillerstr.","postalCode":"73550","locality":"Waldstetten","municipality":{"key":"08136079","name":"Waldstetten","type":"Kreisangehörige_Gemeinde"},"district":{"key":"08136","name":"Ostalbkreis","type":"Landkreis"},"federalState":{"key":"08","name":"Baden-Württemberg"}},{"name":"Schlanderhof","postalCode":"89367","locality":"Waldstetten","municipality":{"key":"09774191","name":"Waldstetten, M","type":"Markt"},"district":{"key":"09774","name":"Günzburg","type":"Landkreis"},"federalState":{"key":"09","name":"Bayern"}},{"name":"Schlatthölzlesweg","postalCode":"73550","locality":"Waldstetten","municipality":{"key":"08136079","name":"Waldstetten","type":"Kreisangehörige_Gemeinde"},"district":{"key":"08136","name":"Ostalbkreis","type":"Landkreis"},"federalState":{"key":"08","name":"Baden-Württemberg"}},{"name":"Schmiedgasse","postalCode":"73550","locality":"Waldstetten","municipality":{"key":"08136079","name":"Waldstetten","type":"Kreisangehörige_Gemeinde"},"district":{"key":"08136","name":"Ostalbkreis","type":"Landkreis"},"federalState":{"key":"08","name":"Baden-Württemberg"}},{"name":"Schönbergle","postalCode":"73550","locality":"Waldstetten","municipality":{"key":"08136079","name":"Waldstetten","type":"Kreisangehörige_Gemeinde"},"district":{"key":"08136","name":"Ostalbkreis","type":"Landkreis"},"federalState":{"key":"08","name":"Baden-Württemberg"}},{"name":"Schorrenweiherstr.","postalCode":"73550","locality":"Waldstetten","municipality":{"key":"08136079","name":"Waldstetten","type":"Kreisangehörige_Gemeinde"},"district":{"key":"08136","name":"Ostalbkreis","type":"Landkreis"},"federalState":{"key":"08","name":"Baden-Württemberg"}},{"name":"Schubertweg","postalCode":"73550","locality":"Waldstetten","municipality":{"key":"08136079","name":"Waldstetten","type":"Kreisangehörige_Gemeinde"},"district":{"key":"08136","name":"Ostalbkreis","type":"Landkreis"},"federalState":{"key":"08","name":"Baden-Württemberg"}},{"name":"Schulstr.","postalCode":"89367","locality":"Waldstetten","municipality":{"key":"09774191","name":"Waldstetten, M","type":"Markt"},"district":{"key":"09774","name":"Günzburg","type":"Landkreis"},"federalState":{"key":"09","name":"Bayern"}},{"name":"Schumannweg","postalCode":"73550","locality":"Waldstetten","municipality":{"key":"08136079","name":"Waldstetten","type":"Kreisangehörige_Gemeinde"},"district":{"key":"08136","name":"Ostalbkreis","type":"Landkreis"},"federalState":{"key":"08","name":"Baden-Württemberg"}},{"name":"Schwarzhornweg","postalCode":"73550","locality":"Waldstetten","municipality":{"key":"08136079","name":"Waldstetten","type":"Kreisangehörige_Gemeinde"},"district":{"key":"08136","name":"Ostalbkreis","type":"Landkreis"},"federalState":{"key":"08","name":"Baden-Württemberg"}},{"name":"Silcherstr.","postalCode":"73550","locality":"Waldstetten","municipality":{"key":"08136079","name":"Waldstetten","type":"Kreisangehörige_Gemeinde"},"district":{"key":"08136","name":"Ostalbkreis","type":"Landkreis"},"federalState":{"key":"08","name":"Baden-Württemberg"}},{"name":"s'Molkegässle","postalCode":"73550","locality":"Waldstetten","municipality":{"key":"08136079","name":"Waldstetten","type":"Kreisangehörige_Gemeinde"},"district":{"key":"08136","name":"Ostalbkreis","type":"Landkreis"},"federalState":{"key":"08","name":"Baden-Württemberg"}},{"name":"Sonnenweg","postalCode":"73550","locality":"Waldstetten","municipality":{"key":"08136079","name":"Waldstetten","type":"Kreisangehörige_Gemeinde"},"district":{"key":"08136","name":"Ostalbkreis","type":"Landkreis"},"federalState":{"key":"08","name":"Baden-Württemberg"}},{"name":"Stadtgraben","postalCode":"89367","locality":"Waldstetten","municipality":{"key":"09774191","name":"Waldstetten, M","type":"Markt"},"district":{"key":"09774","name":"Günzburg","type":"Landkreis"},"federalState":{"key":"09","name":"Bayern"}},{"name":"Stauferstr.","postalCode":"73550","locality":"Waldstetten","municipality":{"key":"08136079","name":"Waldstetten","type":"Kreisangehörige_Gemeinde"},"district":{"key":"08136","name":"Ostalbkreis","type":"Landkreis"},"federalState":{"key":"08","name":"Baden-Württemberg"}},{"name":"Stettiner Str.","postalCode":"73550","locality":"Waldstetten","municipality":{"key":"08136079","name":"Waldstetten","type":"Kreisangehörige_Gemeinde"},"district":{"key":"08136","name":"Ostalbkreis","type":"Landkreis"},"federalState":{"key":"08","name":"Baden-Württemberg"}},{"name":"St.-Jakob-Str.","postalCode":"89367","locality":"Waldstetten","municipality":{"key":"09774191","name":"Waldstetten, M","type":"Markt"},"district":{"key":"09774","name":"Günzburg","type":"Landkreis"},"federalState":{"key":"09","name":"Bayern"}},{"name":"St.-Leonhard-Str.","postalCode":"89367","locality":"Waldstetten","municipality":{"key":"09774191","name":"Waldstetten, M","type":"Markt"},"district":{"key":"09774","name":"Günzburg","type":"Landkreis"},"federalState":{"key":"09","name":"Bayern"}},{"name":"Strängenweg","postalCode":"73550","locality":"Waldstetten","municipality":{"key":"08136079","name":"Waldstetten","type":"Kreisangehörige_Gemeinde"},"district":{"key":"08136","name":"Ostalbkreis","type":"Landkreis"},"federalState":{"key":"08","name":"Baden-Württemberg"}},{"name":"Straßdorfer Str.","postalCode":"73550","locality":"Waldstetten","municipality":{"key":"08136079","name":"Waldstetten","type":"Kreisangehörige_Gemeinde"},"district":{"key":"08136","name":"Ostalbkreis","type":"Landkreis"},"federalState":{"key":"08","name":"Baden-Württemberg"}},{"name":"Stuifenstr.","postalCode":"73550","locality":"Waldstetten","municipality":{"key":"08136079","name":"Waldstetten","type":"Kreisangehörige_Gemeinde"},"district":{"key":"08136","name":"Ostalbkreis","type":"Landkreis"},"federalState":{"key":"08","name":"Baden-Württemberg"}},{"name":"Talstr.","postalCode":"73550","locality":"Waldstetten","municipality":{"key":"08136079","name":"Waldstetten","type":"Kreisangehörige_Gemeinde"},"district":{"key":"08136","name":"Ostalbkreis","type":"Landkreis"},"federalState":{"key":"08","name":"Baden-Württemberg"}},{"name":"Tanngasse","postalCode":"73550","locality":"Waldstetten","municipality":{"key":"08136079","name":"Waldstetten","type":"Kreisangehörige_Gemeinde"},"district":{"key":"08136","name":"Ostalbkreis","type":"Landkreis"},"federalState":{"key":"08","name":"Baden-Württemberg"}},{"name":"Tannhofweg","postalCode":"73550","locality":"Waldstetten","municipality":{"key":"08136079","name":"Waldstetten","type":"Kreisangehörige_Gemeinde"},"district":{"key":"08136","name":"Ostalbkreis","type":"Landkreis"},"federalState":{"key":"08","name":"Baden-Württemberg"}},{"name":"Tannlöherweg","postalCode":"73550","locality":"Waldstetten","municipality":{"key":"08136079","name":"Waldstetten","type":"Kreisangehörige_Gemeinde"},"district":{"key":"08136","name":"Ostalbkreis","type":"Landkreis"},"federalState":{"key":"08","name":"Baden-Württemberg"}},{"name":"Tannweiler","postalCode":"73550","locality":"Waldstetten","municipality":{"key":"08136079","name":"Waldstetten","type":"Kreisangehörige_Gemeinde"},"district":{"key":"08136","name":"Ostalbkreis","type":"Landkreis"},"federalState":{"key":"08","name":"Baden-Württemberg"}},{"name":"Tannweiler Str.","postalCode":"73550","locality":"Waldstetten","municipality":{"key":"08136079","name":"Waldstetten","type":"Kreisangehörige_Gemeinde"},"district":{"key":"08136","name":"Ostalbkreis","type":"Landkreis"},"federalState":{"key":"08","name":"Baden-Württemberg"}},{"name":"Tannweiler Weg","postalCode":"73550","locality":"Waldstetten","municipality":{"key":"08136079","name":"Waldstetten","type":"Kreisangehörige_Gemeinde"},"district":{"key":"08136","name":"Ostalbkreis","type":"Landkreis"},"federalState":{"key":"08","name":"Baden-Württemberg"}},{"name":"Tobelgasse","postalCode":"73550","locality":"Waldstetten","municipality":{"key":"08136079","name":"Waldstetten","type":"Kreisangehörige_Gemeinde"},"district":{"key":"08136","name":"Ostalbkreis","type":"Landkreis"},"federalState":{"key":"08","name":"Baden-Württemberg"}},{"name":"Uhlandstr.","postalCode":"73550","locality":"Waldstetten","municipality":{"key":"08136079","name":"Waldstetten","type":"Kreisangehörige_Gemeinde"},"district":{"key":"08136","name":"Ostalbkreis","type":"Landkreis"},"federalState":{"key":"08","name":"Baden-Württemberg"}},{"name":"Urengartensträßle","postalCode":"73550","locality":"Waldstetten","municipality":{"key":"08136079","name":"Waldstetten","type":"Kreisangehörige_Gemeinde"},"district":{"key":"08136","name":"Ostalbkreis","type":"Landkreis"},"federalState":{"key":"08","name":"Baden-Württemberg"}},{"name":"Wacholderweg","postalCode":"73550","locality":"Waldstetten","municipality":{"key":"08136079","name":"Waldstetten","type":"Kreisangehörige_Gemeinde"},"district":{"key":"08136","name":"Ostalbkreis","type":"Landkreis"},"federalState":{"key":"08","name":"Baden-Württemberg"}},{"name":"Waldstetter Str.","postalCode":"73550","locality":"Waldstetten","municipality":{"key":"08136079","name":"Waldstetten","type":"Kreisangehörige_Gemeinde"},"district":{"key":"08136","name":"Ostalbkreis","type":"Landkreis"},"federalState":{"key":"08","name":"Baden-Württemberg"}},{"name":"Wäschgöltengässle","postalCode":"73550","locality":"Waldstetten","municipality":{"key":"08136079","name":"Waldstetten","type":"Kreisangehörige_Gemeinde"},"district":{"key":"08136","name":"Ostalbkreis","type":"Landkreis"},"federalState":{"key":"08","name":"Baden-Württemberg"}},{"name":"Weißenhorner Str.","postalCode":"89367","locality":"Waldstetten","municipality":{"key":"09774191","name":"Waldstetten, M","type":"Markt"},"district":{"key":"09774","name":"Günzburg","type":"Landkreis"},"federalState":{"key":"09","name":"Bayern"}},{"name":"Wolfsgasse","postalCode":"73550","locality":"Waldstetten","municipality":{"key":"08136079","name":"Waldstetten","type":"Kreisangehörige_Gemeinde"},"district":{"key":"08136","name":"Ostalbkreis","type":"Landkreis"},"federalState":{"key":"08","name":"Baden-Württemberg"}},{"name":"Zum Langenbach","postalCode":"73550","locality":"Waldstetten","municipality":{"key":"08136079","name":"Waldstetten","type":"Kreisangehörige_Gemeinde"},"district":{"key":"08136","name":"Ostalbkreis","type":"Landkreis"},"federalState":{"key":"08","name":"Baden-Württemberg"}},{"name":"Zum Stuifen","postalCode":"73550","locality":"Waldstetten","municipality":{"key":"08136079","name":"Waldstetten","type":"Kreisangehörige_Gemeinde"},"district":{"key":"08136","name":"Ostalbkreis","type":"Landkreis"},"federalState":{"key":"08","name":"Baden-Württemberg"}},{"name":"Zur Kapelle","postalCode":"73550","locality":"Waldstetten","municipality":{"key":"08136079","name":"Waldstetten","type":"Kreisangehörige_Gemeinde"},"district":{"key":"08136","name":"Ostalbkreis","type":"Landkreis"},"federalState":{"key":"08","name":"Baden-Württemberg"}},{"name":"Zur Vorstatt","postalCode":"73550","locality":"Waldstetten","municipality":{"key":"08136079","name":"Waldstetten","type":"Kreisangehörige_Gemeinde"},"district":{"key":"08136","name":"Ostalbkreis","type":"Landkreis"},"federalState":{"key":"08","name":"Baden-Württemberg"}},]