[{"name":"Adlergasse","postalCode":"99734","locality":"Nordhausen","municipality":{"key":"16062041","name":"Nordhausen, Stadt","type":"Stadt"},"district":{"key":"16062","name":"Nordhausen","type":"Landkreis"},"federalState":{"key":"16","name":"Thüringen"}},{"name":"Ahornstr.","postalCode":"99734","locality":"Nordhausen","municipality":{"key":"16062041","name":"Nordhausen, Stadt","type":"Stadt"},"district":{"key":"16062","name":"Nordhausen","type":"Landkreis"},"federalState":{"key":"16","name":"Thüringen"}},{"name":"Akazienweg","postalCode":"99195","locality":"Riethnordhausen","municipality":{"key":"16068044","name":"Riethnordhausen","type":"Kreisangehörige_Gemeinde"},"district":{"key":"16068","name":"Sömmerda","type":"Landkreis"},"federalState":{"key":"16","name":"Thüringen"}},{"name":"Albert-Traeger-Str.","postalCode":"99734","locality":"Nordhausen","municipality":{"key":"16062041","name":"Nordhausen, Stadt","type":"Stadt"},"district":{"key":"16062","name":"Nordhausen","type":"Landkreis"},"federalState":{"key":"16","name":"Thüringen"}},{"name":"Alexander-Puschkin-Str.","postalCode":"99734","locality":"Nordhausen","municipality":{"key":"16062041","name":"Nordhausen, Stadt","type":"Stadt"},"district":{"key":"16062","name":"Nordhausen","type":"Landkreis"},"federalState":{"key":"16","name":"Thüringen"}},{"name":"Alperstedter Weg","postalCode":"99195","locality":"Riethnordhausen","municipality":{"key":"16068044","name":"Riethnordhausen","type":"Kreisangehörige_Gemeinde"},"district":{"key":"16068","name":"Sömmerda","type":"Landkreis"},"federalState":{"key":"16","name":"Thüringen"}},{"name":"Alte Bauernstr.","postalCode":"99734","locality":"Nordhausen","municipality":{"key":"16062041","name":"Nordhausen, Stadt","type":"Stadt"},"district":{"key":"16062","name":"Nordhausen","type":"Landkreis"},"federalState":{"key":"16","name":"Thüringen"}},{"name":"Alte Breitensteiner Str.","postalCode":"99734","locality":"Nordhausen","municipality":{"key":"16062041","name":"Nordhausen, Stadt","type":"Stadt"},"district":{"key":"16062","name":"Nordhausen","type":"Landkreis"},"federalState":{"key":"16","name":"Thüringen"}},{"name":"Alte Dorfstr.","postalCode":"99734","locality":"Nordhausen","municipality":{"key":"16062041","name":"Nordhausen, Stadt","type":"Stadt"},"district":{"key":"16062","name":"Nordhausen","type":"Landkreis"},"federalState":{"key":"16","name":"Thüringen"}},{"name":"Alte Leipziger Str.","postalCode":"99734","locality":"Nordhausen","municipality":{"key":"16062041","name":"Nordhausen, Stadt","type":"Stadt"},"district":{"key":"16062","name":"Nordhausen","type":"Landkreis"},"federalState":{"key":"16","name":"Thüringen"}},{"name":"Altendorf","postalCode":"99734","locality":"Nordhausen","municipality":{"key":"16062041","name":"Nordhausen, Stadt","type":"Stadt"},"district":{"key":"16062","name":"Nordhausen","type":"Landkreis"},"federalState":{"key":"16","name":"Thüringen"}},{"name":"Altendorfer Kirchgasse","postalCode":"99734","locality":"Nordhausen","municipality":{"key":"16062041","name":"Nordhausen, Stadt","type":"Stadt"},"district":{"key":"16062","name":"Nordhausen","type":"Landkreis"},"federalState":{"key":"16","name":"Thüringen"}},{"name":"Alter Friedhof Nordhausen","postalCode":"99734","locality":"Nordhausen","municipality":{"key":"16062041","name":"Nordhausen, Stadt","type":"Stadt"},"district":{"key":"16062","name":"Nordhausen","type":"Landkreis"},"federalState":{"key":"16","name":"Thüringen"}},{"name":"Am Alten Graben","postalCode":"99734","locality":"Nordhausen","municipality":{"key":"16062041","name":"Nordhausen, Stadt","type":"Stadt"},"district":{"key":"16062","name":"Nordhausen","type":"Landkreis"},"federalState":{"key":"16","name":"Thüringen"}},{"name":"Am Alten Tor","postalCode":"99734","locality":"Nordhausen","municipality":{"key":"16062041","name":"Nordhausen, Stadt","type":"Stadt"},"district":{"key":"16062","name":"Nordhausen","type":"Landkreis"},"federalState":{"key":"16","name":"Thüringen"}},{"name":"Am Bahndamm","postalCode":"99734","locality":"Nordhausen","municipality":{"key":"16062041","name":"Nordhausen, Stadt","type":"Stadt"},"district":{"key":"16062","name":"Nordhausen","type":"Landkreis"},"federalState":{"key":"16","name":"Thüringen"}},{"name":"Am Disselberg","postalCode":"99734","locality":"Nordhausen","municipality":{"key":"16062041","name":"Nordhausen, Stadt","type":"Stadt"},"district":{"key":"16062","name":"Nordhausen","type":"Landkreis"},"federalState":{"key":"16","name":"Thüringen"}},{"name":"Am Dorfteich","postalCode":"99734","locality":"Nordhausen","municipality":{"key":"16062041","name":"Nordhausen, Stadt","type":"Stadt"},"district":{"key":"16062","name":"Nordhausen","type":"Landkreis"},"federalState":{"key":"16","name":"Thüringen"}},{"name":"Am Dornrain","postalCode":"99734","locality":"Nordhausen","municipality":{"key":"16062041","name":"Nordhausen, Stadt","type":"Stadt"},"district":{"key":"16062","name":"Nordhausen","type":"Landkreis"},"federalState":{"key":"16","name":"Thüringen"}},{"name":"Am Erdfall","postalCode":"99734","locality":"Nordhausen","municipality":{"key":"16062041","name":"Nordhausen, Stadt","type":"Stadt"},"district":{"key":"16062","name":"Nordhausen","type":"Landkreis"},"federalState":{"key":"16","name":"Thüringen"}},{"name":"Am Flugplatz","postalCode":"99734","locality":"Nordhausen","municipality":{"key":"16062041","name":"Nordhausen, Stadt","type":"Stadt"},"district":{"key":"16062","name":"Nordhausen","type":"Landkreis"},"federalState":{"key":"16","name":"Thüringen"}},{"name":"Am Frauenberg","postalCode":"99734","locality":"Nordhausen","municipality":{"key":"16062041","name":"Nordhausen, Stadt","type":"Stadt"},"district":{"key":"16062","name":"Nordhausen","type":"Landkreis"},"federalState":{"key":"16","name":"Thüringen"}},{"name":"Am Gasthofe","postalCode":"99195","locality":"Riethnordhausen","municipality":{"key":"16068044","name":"Riethnordhausen","type":"Kreisangehörige_Gemeinde"},"district":{"key":"16068","name":"Sömmerda","type":"Landkreis"},"federalState":{"key":"16","name":"Thüringen"}},{"name":"Am Gesundbrunnen","postalCode":"99734","locality":"Nordhausen","municipality":{"key":"16062041","name":"Nordhausen, Stadt","type":"Stadt"},"district":{"key":"16062","name":"Nordhausen","type":"Landkreis"},"federalState":{"key":"16","name":"Thüringen"}},{"name":"Am Grenzrasen","postalCode":"99734","locality":"Nordhausen","municipality":{"key":"16062041","name":"Nordhausen, Stadt","type":"Stadt"},"district":{"key":"16062","name":"Nordhausen","type":"Landkreis"},"federalState":{"key":"16","name":"Thüringen"}},{"name":"Am Hagenberg","postalCode":"99734","locality":"Nordhausen","municipality":{"key":"16062041","name":"Nordhausen, Stadt","type":"Stadt"},"district":{"key":"16062","name":"Nordhausen","type":"Landkreis"},"federalState":{"key":"16","name":"Thüringen"}},{"name":"Am Handwege","postalCode":"99734","locality":"Nordhausen","municipality":{"key":"16062041","name":"Nordhausen, Stadt","type":"Stadt"},"district":{"key":"16062","name":"Nordhausen","type":"Landkreis"},"federalState":{"key":"16","name":"Thüringen"}},{"name":"Am Hang","postalCode":"99734","locality":"Nordhausen","municipality":{"key":"16062041","name":"Nordhausen, Stadt","type":"Stadt"},"district":{"key":"16062","name":"Nordhausen","type":"Landkreis"},"federalState":{"key":"16","name":"Thüringen"}},{"name":"Am Herreder Bach","postalCode":"99734","locality":"Nordhausen","municipality":{"key":"16062041","name":"Nordhausen, Stadt","type":"Stadt"},"district":{"key":"16062","name":"Nordhausen","type":"Landkreis"},"federalState":{"key":"16","name":"Thüringen"}},{"name":"Am Hochstedter Bach","postalCode":"99734","locality":"Nordhausen","municipality":{"key":"16062041","name":"Nordhausen, Stadt","type":"Stadt"},"district":{"key":"16062","name":"Nordhausen","type":"Landkreis"},"federalState":{"key":"16","name":"Thüringen"}},{"name":"Am Hofberg","postalCode":"99734","locality":"Nordhausen","municipality":{"key":"16062041","name":"Nordhausen, Stadt","type":"Stadt"},"district":{"key":"16062","name":"Nordhausen","type":"Landkreis"},"federalState":{"key":"16","name":"Thüringen"}},{"name":"Am Holungsbügel","postalCode":"99734","locality":"Nordhausen","municipality":{"key":"16062041","name":"Nordhausen, Stadt","type":"Stadt"},"district":{"key":"16062","name":"Nordhausen","type":"Landkreis"},"federalState":{"key":"16","name":"Thüringen"}},{"name":"Am Kirchholz","postalCode":"99734","locality":"Nordhausen","municipality":{"key":"16062041","name":"Nordhausen, Stadt","type":"Stadt"},"district":{"key":"16062","name":"Nordhausen","type":"Landkreis"},"federalState":{"key":"16","name":"Thüringen"}},{"name":"Am Kloster","postalCode":"99734","locality":"Nordhausen","municipality":{"key":"16062041","name":"Nordhausen, Stadt","type":"Stadt"},"district":{"key":"16062","name":"Nordhausen","type":"Landkreis"},"federalState":{"key":"16","name":"Thüringen"}},{"name":"Am Knackelberg","postalCode":"99734","locality":"Nordhausen","municipality":{"key":"16062041","name":"Nordhausen, Stadt","type":"Stadt"},"district":{"key":"16062","name":"Nordhausen","type":"Landkreis"},"federalState":{"key":"16","name":"Thüringen"}},{"name":"Am Kornhaus","postalCode":"99734","locality":"Nordhausen","municipality":{"key":"16062041","name":"Nordhausen, Stadt","type":"Stadt"},"district":{"key":"16062","name":"Nordhausen","type":"Landkreis"},"federalState":{"key":"16","name":"Thüringen"}},{"name":"Am Kuhberg","postalCode":"99734","locality":"Nordhausen","municipality":{"key":"16062041","name":"Nordhausen, Stadt","type":"Stadt"},"district":{"key":"16062","name":"Nordhausen","type":"Landkreis"},"federalState":{"key":"16","name":"Thüringen"}},{"name":"Am langen Weg","postalCode":"99734","locality":"Nordhausen","municipality":{"key":"16062041","name":"Nordhausen, Stadt","type":"Stadt"},"district":{"key":"16062","name":"Nordhausen","type":"Landkreis"},"federalState":{"key":"16","name":"Thüringen"}},{"name":"Ammerberg","postalCode":"99734","locality":"Nordhausen","municipality":{"key":"16062041","name":"Nordhausen, Stadt","type":"Stadt"},"district":{"key":"16062","name":"Nordhausen","type":"Landkreis"},"federalState":{"key":"16","name":"Thüringen"}},{"name":"Am Mühlgraben","postalCode":"99734","locality":"Nordhausen","municipality":{"key":"16062041","name":"Nordhausen, Stadt","type":"Stadt"},"district":{"key":"16062","name":"Nordhausen","type":"Landkreis"},"federalState":{"key":"16","name":"Thüringen"}},{"name":"Am Nebelungsberg","postalCode":"99734","locality":"Nordhausen","municipality":{"key":"16062041","name":"Nordhausen, Stadt","type":"Stadt"},"district":{"key":"16062","name":"Nordhausen","type":"Landkreis"},"federalState":{"key":"16","name":"Thüringen"}},{"name":"Am Petersberg","postalCode":"99734","locality":"Nordhausen","municipality":{"key":"16062041","name":"Nordhausen, Stadt","type":"Stadt"},"district":{"key":"16062","name":"Nordhausen","type":"Landkreis"},"federalState":{"key":"16","name":"Thüringen"}},{"name":"Am Pfingstrasen","postalCode":"99734","locality":"Nordhausen","municipality":{"key":"16062041","name":"Nordhausen, Stadt","type":"Stadt"},"district":{"key":"16062","name":"Nordhausen","type":"Landkreis"},"federalState":{"key":"16","name":"Thüringen"}},{"name":"Am Rasen","postalCode":"99734","locality":"Nordhausen","municipality":{"key":"16062041","name":"Nordhausen, Stadt","type":"Stadt"},"district":{"key":"16062","name":"Nordhausen","type":"Landkreis"},"federalState":{"key":"16","name":"Thüringen"}},{"name":"Am Riethberg","postalCode":"99734","locality":"Nordhausen","municipality":{"key":"16062041","name":"Nordhausen, Stadt","type":"Stadt"},"district":{"key":"16062","name":"Nordhausen","type":"Landkreis"},"federalState":{"key":"16","name":"Thüringen"}},{"name":"Am Rosenhag","postalCode":"99734","locality":"Nordhausen","municipality":{"key":"16062041","name":"Nordhausen, Stadt","type":"Stadt"},"district":{"key":"16062","name":"Nordhausen","type":"Landkreis"},"federalState":{"key":"16","name":"Thüringen"}},{"name":"Am Roßmannsbach","postalCode":"99734","locality":"Nordhausen","municipality":{"key":"16062041","name":"Nordhausen, Stadt","type":"Stadt"},"district":{"key":"16062","name":"Nordhausen","type":"Landkreis"},"federalState":{"key":"16","name":"Thüringen"}},{"name":"Am Salzagraben","postalCode":"99734","locality":"Nordhausen","municipality":{"key":"16062041","name":"Nordhausen, Stadt","type":"Stadt"},"district":{"key":"16062","name":"Nordhausen","type":"Landkreis"},"federalState":{"key":"16","name":"Thüringen"}},{"name":"Am Schorfe","postalCode":"99734","locality":"Nordhausen","municipality":{"key":"16062041","name":"Nordhausen, Stadt","type":"Stadt"},"district":{"key":"16062","name":"Nordhausen","type":"Landkreis"},"federalState":{"key":"16","name":"Thüringen"}},{"name":"Am Schrebergarten","postalCode":"99734","locality":"Nordhausen","municipality":{"key":"16062041","name":"Nordhausen, Stadt","type":"Stadt"},"district":{"key":"16062","name":"Nordhausen","type":"Landkreis"},"federalState":{"key":"16","name":"Thüringen"}},{"name":"Bachstr.","postalCode":"99734","locality":"Nordhausen","municipality":{"key":"16062041","name":"Nordhausen, Stadt","type":"Stadt"},"district":{"key":"16062","name":"Nordhausen","type":"Landkreis"},"federalState":{"key":"16","name":"Thüringen"}},{"name":"Bäckerstr.","postalCode":"99734","locality":"Nordhausen","municipality":{"key":"16062041","name":"Nordhausen, Stadt","type":"Stadt"},"district":{"key":"16062","name":"Nordhausen","type":"Landkreis"},"federalState":{"key":"16","name":"Thüringen"}},{"name":"Badergasse","postalCode":"99195","locality":"Riethnordhausen","municipality":{"key":"16068044","name":"Riethnordhausen","type":"Kreisangehörige_Gemeinde"},"district":{"key":"16068","name":"Sömmerda","type":"Landkreis"},"federalState":{"key":"16","name":"Thüringen"}},{"name":"Bahnhofsplatz","postalCode":"99734","locality":"Nordhausen","municipality":{"key":"16062041","name":"Nordhausen, Stadt","type":"Stadt"},"district":{"key":"16062","name":"Nordhausen","type":"Landkreis"},"federalState":{"key":"16","name":"Thüringen"}},{"name":"Bahnhofstr.","postalCode":"99734","locality":"Nordhausen","municipality":{"key":"16062041","name":"Nordhausen, Stadt","type":"Stadt"},"district":{"key":"16062","name":"Nordhausen","type":"Landkreis"},"federalState":{"key":"16","name":"Thüringen"}},{"name":"Bahnstr.","postalCode":"99734","locality":"Nordhausen","municipality":{"key":"16062041","name":"Nordhausen, Stadt","type":"Stadt"},"district":{"key":"16062","name":"Nordhausen","type":"Landkreis"},"federalState":{"key":"16","name":"Thüringen"}},{"name":"Baltzerstr.","postalCode":"99734","locality":"Nordhausen","municipality":{"key":"16062041","name":"Nordhausen, Stadt","type":"Stadt"},"district":{"key":"16062","name":"Nordhausen","type":"Landkreis"},"federalState":{"key":"16","name":"Thüringen"}},{"name":"Barbarossastr.","postalCode":"99734","locality":"Nordhausen","municipality":{"key":"16062041","name":"Nordhausen, Stadt","type":"Stadt"},"district":{"key":"16062","name":"Nordhausen","type":"Landkreis"},"federalState":{"key":"16","name":"Thüringen"}},{"name":"Barfüßerstr.","postalCode":"99734","locality":"Nordhausen","municipality":{"key":"16062041","name":"Nordhausen, Stadt","type":"Stadt"},"district":{"key":"16062","name":"Nordhausen","type":"Landkreis"},"federalState":{"key":"16","name":"Thüringen"}},{"name":"Beethovenring","postalCode":"99734","locality":"Nordhausen","municipality":{"key":"16062041","name":"Nordhausen, Stadt","type":"Stadt"},"district":{"key":"16062","name":"Nordhausen","type":"Landkreis"},"federalState":{"key":"16","name":"Thüringen"}},{"name":"Behringstr.","postalCode":"99734","locality":"Nordhausen","municipality":{"key":"16062041","name":"Nordhausen, Stadt","type":"Stadt"},"district":{"key":"16062","name":"Nordhausen","type":"Landkreis"},"federalState":{"key":"16","name":"Thüringen"}},{"name":"Benteröder Weg","postalCode":"99734","locality":"Nordhausen","municipality":{"key":"16062041","name":"Nordhausen, Stadt","type":"Stadt"},"district":{"key":"16062","name":"Nordhausen","type":"Landkreis"},"federalState":{"key":"16","name":"Thüringen"}},{"name":"Bergstr.","postalCode":"99734","locality":"Nordhausen","municipality":{"key":"16062041","name":"Nordhausen, Stadt","type":"Stadt"},"district":{"key":"16062","name":"Nordhausen","type":"Landkreis"},"federalState":{"key":"16","name":"Thüringen"}},{"name":"Bertha-von-Suttner-Str.","postalCode":"99734","locality":"Nordhausen","municipality":{"key":"16062041","name":"Nordhausen, Stadt","type":"Stadt"},"district":{"key":"16062","name":"Nordhausen","type":"Landkreis"},"federalState":{"key":"16","name":"Thüringen"}},{"name":"Bertolt-Brecht-Str.","postalCode":"99734","locality":"Nordhausen","municipality":{"key":"16062041","name":"Nordhausen, Stadt","type":"Stadt"},"district":{"key":"16062","name":"Nordhausen","type":"Landkreis"},"federalState":{"key":"16","name":"Thüringen"}},{"name":"Betonstr.","postalCode":"99734","locality":"Nordhausen","municipality":{"key":"16062041","name":"Nordhausen, Stadt","type":"Stadt"},"district":{"key":"16062","name":"Nordhausen","type":"Landkreis"},"federalState":{"key":"16","name":"Thüringen"}},{"name":"Bet-Shemesh-Str.","postalCode":"99734","locality":"Nordhausen","municipality":{"key":"16062041","name":"Nordhausen, Stadt","type":"Stadt"},"district":{"key":"16062","name":"Nordhausen","type":"Landkreis"},"federalState":{"key":"16","name":"Thüringen"}},{"name":"Bielener Str.","postalCode":"99734","locality":"Nordhausen","municipality":{"key":"16062041","name":"Nordhausen, Stadt","type":"Stadt"},"district":{"key":"16062","name":"Nordhausen","type":"Landkreis"},"federalState":{"key":"16","name":"Thüringen"}},{"name":"Bingerhof","postalCode":"99734","locality":"Nordhausen","municipality":{"key":"16062041","name":"Nordhausen, Stadt","type":"Stadt"},"district":{"key":"16062","name":"Nordhausen","type":"Landkreis"},"federalState":{"key":"16","name":"Thüringen"}},{"name":"Birkenweg","postalCode":"99734","locality":"Nordhausen","municipality":{"key":"16062041","name":"Nordhausen, Stadt","type":"Stadt"},"district":{"key":"16062","name":"Nordhausen","type":"Landkreis"},"federalState":{"key":"16","name":"Thüringen"}},{"name":"Blasiikirchplatz","postalCode":"99734","locality":"Nordhausen","municipality":{"key":"16062041","name":"Nordhausen, Stadt","type":"Stadt"},"district":{"key":"16062","name":"Nordhausen","type":"Landkreis"},"federalState":{"key":"16","name":"Thüringen"}},{"name":"Blasiistr.","postalCode":"99734","locality":"Nordhausen","municipality":{"key":"16062041","name":"Nordhausen, Stadt","type":"Stadt"},"district":{"key":"16062","name":"Nordhausen","type":"Landkreis"},"federalState":{"key":"16","name":"Thüringen"}},{"name":"Bleicheröder Str.","postalCode":"99734","locality":"Nordhausen","municipality":{"key":"16062041","name":"Nordhausen, Stadt","type":"Stadt"},"district":{"key":"16062","name":"Nordhausen","type":"Landkreis"},"federalState":{"key":"16","name":"Thüringen"}},{"name":"Blödaustr.","postalCode":"99734","locality":"Nordhausen","municipality":{"key":"16062041","name":"Nordhausen, Stadt","type":"Stadt"},"district":{"key":"16062","name":"Nordhausen","type":"Landkreis"},"federalState":{"key":"16","name":"Thüringen"}},{"name":"Blumenstr.","postalCode":"99734","locality":"Nordhausen","municipality":{"key":"16062041","name":"Nordhausen, Stadt","type":"Stadt"},"district":{"key":"16062","name":"Nordhausen","type":"Landkreis"},"federalState":{"key":"16","name":"Thüringen"}},{"name":"Bochumer Str.","postalCode":"99734","locality":"Nordhausen","municipality":{"key":"16062041","name":"Nordhausen, Stadt","type":"Stadt"},"district":{"key":"16062","name":"Nordhausen","type":"Landkreis"},"federalState":{"key":"16","name":"Thüringen"}},{"name":"Bockstr.","postalCode":"99734","locality":"Nordhausen","municipality":{"key":"16062041","name":"Nordhausen, Stadt","type":"Stadt"},"district":{"key":"16062","name":"Nordhausen","type":"Landkreis"},"federalState":{"key":"16","name":"Thüringen"}},{"name":"Bornleite","postalCode":"99734","locality":"Nordhausen","municipality":{"key":"16062041","name":"Nordhausen, Stadt","type":"Stadt"},"district":{"key":"16062","name":"Nordhausen","type":"Landkreis"},"federalState":{"key":"16","name":"Thüringen"}},{"name":"Brahmsweg","postalCode":"99734","locality":"Nordhausen","municipality":{"key":"16062041","name":"Nordhausen, Stadt","type":"Stadt"},"district":{"key":"16062","name":"Nordhausen","type":"Landkreis"},"federalState":{"key":"16","name":"Thüringen"}},{"name":"Brauhausgasse","postalCode":"99195","locality":"Riethnordhausen","municipality":{"key":"16068044","name":"Riethnordhausen","type":"Kreisangehörige_Gemeinde"},"district":{"key":"16068","name":"Sömmerda","type":"Landkreis"},"federalState":{"key":"16","name":"Thüringen"}},{"name":"Brauhausstr.","postalCode":"99734","locality":"Nordhausen","municipality":{"key":"16062041","name":"Nordhausen, Stadt","type":"Stadt"},"district":{"key":"16062","name":"Nordhausen","type":"Landkreis"},"federalState":{"key":"16","name":"Thüringen"}},{"name":"Brücke an der Untermühle","postalCode":"99195","locality":"Riethnordhausen","municipality":{"key":"16068044","name":"Riethnordhausen","type":"Kreisangehörige_Gemeinde"},"district":{"key":"16068","name":"Sömmerda","type":"Landkreis"},"federalState":{"key":"16","name":"Thüringen"}},{"name":"Bruno-Kunze-Str.","postalCode":"99734","locality":"Nordhausen","municipality":{"key":"16062041","name":"Nordhausen, Stadt","type":"Stadt"},"district":{"key":"16062","name":"Nordhausen","type":"Landkreis"},"federalState":{"key":"16","name":"Thüringen"}},{"name":"Buchenweg","postalCode":"99734","locality":"Nordhausen","municipality":{"key":"16062041","name":"Nordhausen, Stadt","type":"Stadt"},"district":{"key":"16062","name":"Nordhausen","type":"Landkreis"},"federalState":{"key":"16","name":"Thüringen"}},{"name":"Buchholzer Landstr.","postalCode":"99734","locality":"Nordhausen","municipality":{"key":"16062041","name":"Nordhausen, Stadt","type":"Stadt"},"district":{"key":"16062","name":"Nordhausen","type":"Landkreis"},"federalState":{"key":"16","name":"Thüringen"}},{"name":"Buchholzer Weg","postalCode":"99734","locality":"Nordhausen","municipality":{"key":"16062041","name":"Nordhausen, Stadt","type":"Stadt"},"district":{"key":"16062","name":"Nordhausen","type":"Landkreis"},"federalState":{"key":"16","name":"Thüringen"}},{"name":"Carlsburger Str.","postalCode":"99734","locality":"Nordhausen","municipality":{"key":"16062041","name":"Nordhausen, Stadt","type":"Stadt"},"district":{"key":"16062","name":"Nordhausen","type":"Landkreis"},"federalState":{"key":"16","name":"Thüringen"}},{"name":"Carl-von-Ossietzky-Str.","postalCode":"99734","locality":"Nordhausen","municipality":{"key":"16062041","name":"Nordhausen, Stadt","type":"Stadt"},"district":{"key":"16062","name":"Nordhausen","type":"Landkreis"},"federalState":{"key":"16","name":"Thüringen"}},{"name":"Charleville-Mézières-Str.","postalCode":"99734","locality":"Nordhausen","municipality":{"key":"16062041","name":"Nordhausen, Stadt","type":"Stadt"},"district":{"key":"16062","name":"Nordhausen","type":"Landkreis"},"federalState":{"key":"16","name":"Thüringen"}},{"name":"Chopinstr.","postalCode":"99734","locality":"Nordhausen","municipality":{"key":"16062041","name":"Nordhausen, Stadt","type":"Stadt"},"district":{"key":"16062","name":"Nordhausen","type":"Landkreis"},"federalState":{"key":"16","name":"Thüringen"}},{"name":"Clara-Zetkin-Str.","postalCode":"99734","locality":"Nordhausen","municipality":{"key":"16062041","name":"Nordhausen, Stadt","type":"Stadt"},"district":{"key":"16062","name":"Nordhausen","type":"Landkreis"},"federalState":{"key":"16","name":"Thüringen"}},{"name":"Conrad-Fromann-Str.","postalCode":"99734","locality":"Nordhausen","municipality":{"key":"16062041","name":"Nordhausen, Stadt","type":"Stadt"},"district":{"key":"16062","name":"Nordhausen","type":"Landkreis"},"federalState":{"key":"16","name":"Thüringen"}},{"name":"Damaschkestr.","postalCode":"99734","locality":"Nordhausen","municipality":{"key":"16062041","name":"Nordhausen, Stadt","type":"Stadt"},"district":{"key":"16062","name":"Nordhausen","type":"Landkreis"},"federalState":{"key":"16","name":"Thüringen"}},{"name":"Dammgasse","postalCode":"99195","locality":"Riethnordhausen","municipality":{"key":"16068044","name":"Riethnordhausen","type":"Kreisangehörige_Gemeinde"},"district":{"key":"16068","name":"Sömmerda","type":"Landkreis"},"federalState":{"key":"16","name":"Thüringen"}},{"name":"Darrweg","postalCode":"99734","locality":"Nordhausen","municipality":{"key":"16062041","name":"Nordhausen, Stadt","type":"Stadt"},"district":{"key":"16062","name":"Nordhausen","type":"Landkreis"},"federalState":{"key":"16","name":"Thüringen"}},{"name":"Dietrich-Bonhoeffer-Str.","postalCode":"99734","locality":"Nordhausen","municipality":{"key":"16062041","name":"Nordhausen, Stadt","type":"Stadt"},"district":{"key":"16062","name":"Nordhausen","type":"Landkreis"},"federalState":{"key":"16","name":"Thüringen"}},{"name":"Doktor-Silberborth-Str.","postalCode":"99734","locality":"Nordhausen","municipality":{"key":"16062041","name":"Nordhausen, Stadt","type":"Stadt"},"district":{"key":"16062","name":"Nordhausen","type":"Landkreis"},"federalState":{"key":"16","name":"Thüringen"}},{"name":"Domstr.","postalCode":"99734","locality":"Nordhausen","municipality":{"key":"16062041","name":"Nordhausen, Stadt","type":"Stadt"},"district":{"key":"16062","name":"Nordhausen","type":"Landkreis"},"federalState":{"key":"16","name":"Thüringen"}},{"name":"Dorfrasen","postalCode":"99734","locality":"Nordhausen","municipality":{"key":"16062041","name":"Nordhausen, Stadt","type":"Stadt"},"district":{"key":"16062","name":"Nordhausen","type":"Landkreis"},"federalState":{"key":"16","name":"Thüringen"}},{"name":"Dorfstr.","postalCode":"99734","locality":"Nordhausen","municipality":{"key":"16062041","name":"Nordhausen, Stadt","type":"Stadt"},"district":{"key":"16062","name":"Nordhausen","type":"Landkreis"},"federalState":{"key":"16","name":"Thüringen"}},{"name":"Dr.-Hasse-Str.","postalCode":"99734","locality":"Nordhausen","municipality":{"key":"16062041","name":"Nordhausen, Stadt","type":"Stadt"},"district":{"key":"16062","name":"Nordhausen","type":"Landkreis"},"federalState":{"key":"16","name":"Thüringen"}},{"name":"Dr.-Külz-Str.","postalCode":"99734","locality":"Nordhausen","municipality":{"key":"16062041","name":"Nordhausen, Stadt","type":"Stadt"},"district":{"key":"16062","name":"Nordhausen","type":"Landkreis"},"federalState":{"key":"16","name":"Thüringen"}},{"name":"Dr.-Kurt-Isemann-Str.","postalCode":"99734","locality":"Nordhausen","municipality":{"key":"16062041","name":"Nordhausen, Stadt","type":"Stadt"},"district":{"key":"16062","name":"Nordhausen","type":"Landkreis"},"federalState":{"key":"16","name":"Thüringen"}},{"name":"Drosselgasse","postalCode":"99734","locality":"Nordhausen","municipality":{"key":"16062041","name":"Nordhausen, Stadt","type":"Stadt"},"district":{"key":"16062","name":"Nordhausen","type":"Landkreis"},"federalState":{"key":"16","name":"Thüringen"}},{"name":"Dr.-Robert-Koch-Str.","postalCode":"99734","locality":"Nordhausen","municipality":{"key":"16062041","name":"Nordhausen, Stadt","type":"Stadt"},"district":{"key":"16062","name":"Nordhausen","type":"Landkreis"},"federalState":{"key":"16","name":"Thüringen"}},{"name":"Dr.-Silberborth-Str.","postalCode":"99734","locality":"Nordhausen","municipality":{"key":"16062041","name":"Nordhausen, Stadt","type":"Stadt"},"district":{"key":"16062","name":"Nordhausen","type":"Landkreis"},"federalState":{"key":"16","name":"Thüringen"}},{"name":"Durch die Windlücke","postalCode":"99734","locality":"Nordhausen","municipality":{"key":"16062041","name":"Nordhausen, Stadt","type":"Stadt"},"district":{"key":"16062","name":"Nordhausen","type":"Landkreis"},"federalState":{"key":"16","name":"Thüringen"}},{"name":"Ebertplatz","postalCode":"99734","locality":"Nordhausen","municipality":{"key":"16062041","name":"Nordhausen, Stadt","type":"Stadt"},"district":{"key":"16062","name":"Nordhausen","type":"Landkreis"},"federalState":{"key":"16","name":"Thüringen"}},{"name":"Eichäckerstr.","postalCode":"99734","locality":"Nordhausen","municipality":{"key":"16062041","name":"Nordhausen, Stadt","type":"Stadt"},"district":{"key":"16062","name":"Nordhausen","type":"Landkreis"},"federalState":{"key":"16","name":"Thüringen"}},{"name":"Eichendorffstr.","postalCode":"99734","locality":"Nordhausen","municipality":{"key":"16062041","name":"Nordhausen, Stadt","type":"Stadt"},"district":{"key":"16062","name":"Nordhausen","type":"Landkreis"},"federalState":{"key":"16","name":"Thüringen"}},{"name":"Eichenweg","postalCode":"99734","locality":"Nordhausen","municipality":{"key":"16062041","name":"Nordhausen, Stadt","type":"Stadt"},"district":{"key":"16062","name":"Nordhausen","type":"Landkreis"},"federalState":{"key":"16","name":"Thüringen"}},{"name":"Eichsfelder Str.","postalCode":"99734","locality":"Nordhausen","municipality":{"key":"16062041","name":"Nordhausen, Stadt","type":"Stadt"},"district":{"key":"16062","name":"Nordhausen","type":"Landkreis"},"federalState":{"key":"16","name":"Thüringen"}},{"name":"Elisabethstr.","postalCode":"99734","locality":"Nordhausen","municipality":{"key":"16062041","name":"Nordhausen, Stadt","type":"Stadt"},"district":{"key":"16062","name":"Nordhausen","type":"Landkreis"},"federalState":{"key":"16","name":"Thüringen"}},{"name":"Ellernstr.","postalCode":"99734","locality":"Nordhausen","municipality":{"key":"16062041","name":"Nordhausen, Stadt","type":"Stadt"},"district":{"key":"16062","name":"Nordhausen","type":"Landkreis"},"federalState":{"key":"16","name":"Thüringen"}},{"name":"Elsterstieg","postalCode":"99734","locality":"Nordhausen","municipality":{"key":"16062041","name":"Nordhausen, Stadt","type":"Stadt"},"district":{"key":"16062","name":"Nordhausen","type":"Landkreis"},"federalState":{"key":"16","name":"Thüringen"}},{"name":"Emil-Reichardt-Str.","postalCode":"99734","locality":"Nordhausen","municipality":{"key":"16062041","name":"Nordhausen, Stadt","type":"Stadt"},"district":{"key":"16062","name":"Nordhausen","type":"Landkreis"},"federalState":{"key":"16","name":"Thüringen"}},{"name":"Engelsburg","postalCode":"99734","locality":"Nordhausen","municipality":{"key":"16062041","name":"Nordhausen, Stadt","type":"Stadt"},"district":{"key":"16062","name":"Nordhausen","type":"Landkreis"},"federalState":{"key":"16","name":"Thüringen"}},{"name":"Enges Gässchen","postalCode":"99195","locality":"Riethnordhausen","municipality":{"key":"16068044","name":"Riethnordhausen","type":"Kreisangehörige_Gemeinde"},"district":{"key":"16068","name":"Sömmerda","type":"Landkreis"},"federalState":{"key":"16","name":"Thüringen"}},{"name":"Erfurter Str.","postalCode":"99195","locality":"Riethnordhausen","municipality":{"key":"16068044","name":"Riethnordhausen","type":"Kreisangehörige_Gemeinde"},"district":{"key":"16068","name":"Sömmerda","type":"Landkreis"},"federalState":{"key":"16","name":"Thüringen"}},{"name":"Erfurter Str.","postalCode":"99734","locality":"Nordhausen","municipality":{"key":"16062041","name":"Nordhausen, Stadt","type":"Stadt"},"district":{"key":"16062","name":"Nordhausen","type":"Landkreis"},"federalState":{"key":"16","name":"Thüringen"}},{"name":"Erich-Weinert-Str.","postalCode":"99734","locality":"Nordhausen","municipality":{"key":"16062041","name":"Nordhausen, Stadt","type":"Stadt"},"district":{"key":"16062","name":"Nordhausen","type":"Landkreis"},"federalState":{"key":"16","name":"Thüringen"}},{"name":"Ernst-Toller-Str.","postalCode":"99734","locality":"Nordhausen","municipality":{"key":"16062041","name":"Nordhausen, Stadt","type":"Stadt"},"district":{"key":"16062","name":"Nordhausen","type":"Landkreis"},"federalState":{"key":"16","name":"Thüringen"}},{"name":"Erzbergerstr.","postalCode":"99734","locality":"Nordhausen","municipality":{"key":"16062041","name":"Nordhausen, Stadt","type":"Stadt"},"district":{"key":"16062","name":"Nordhausen","type":"Landkreis"},"federalState":{"key":"16","name":"Thüringen"}},{"name":"Falkenweg","postalCode":"99734","locality":"Nordhausen","municipality":{"key":"16062041","name":"Nordhausen, Stadt","type":"Stadt"},"district":{"key":"16062","name":"Nordhausen","type":"Landkreis"},"federalState":{"key":"16","name":"Thüringen"}},{"name":"Feldgewende","postalCode":"99734","locality":"Nordhausen","municipality":{"key":"16062041","name":"Nordhausen, Stadt","type":"Stadt"},"district":{"key":"16062","name":"Nordhausen","type":"Landkreis"},"federalState":{"key":"16","name":"Thüringen"}},{"name":"Feldstr.","postalCode":"99734","locality":"Nordhausen","municipality":{"key":"16062041","name":"Nordhausen, Stadt","type":"Stadt"},"district":{"key":"16062","name":"Nordhausen","type":"Landkreis"},"federalState":{"key":"16","name":"Thüringen"}},{"name":"Festplatz","postalCode":"99734","locality":"Nordhausen","municipality":{"key":"16062041","name":"Nordhausen, Stadt","type":"Stadt"},"district":{"key":"16062","name":"Nordhausen","type":"Landkreis"},"federalState":{"key":"16","name":"Thüringen"}},{"name":"Feuerland","postalCode":"99734","locality":"Nordhausen","municipality":{"key":"16062041","name":"Nordhausen, Stadt","type":"Stadt"},"district":{"key":"16062","name":"Nordhausen","type":"Landkreis"},"federalState":{"key":"16","name":"Thüringen"}},{"name":"Fichtestr.","postalCode":"99734","locality":"Nordhausen","municipality":{"key":"16062041","name":"Nordhausen, Stadt","type":"Stadt"},"district":{"key":"16062","name":"Nordhausen","type":"Landkreis"},"federalState":{"key":"16","name":"Thüringen"}},{"name":"Finkenstieg","postalCode":"99734","locality":"Nordhausen","municipality":{"key":"16062041","name":"Nordhausen, Stadt","type":"Stadt"},"district":{"key":"16062","name":"Nordhausen","type":"Landkreis"},"federalState":{"key":"16","name":"Thüringen"}},{"name":"Flickengasse","postalCode":"99734","locality":"Nordhausen","municipality":{"key":"16062041","name":"Nordhausen, Stadt","type":"Stadt"},"district":{"key":"16062","name":"Nordhausen","type":"Landkreis"},"federalState":{"key":"16","name":"Thüringen"}},{"name":"Fliederweg","postalCode":"99734","locality":"Nordhausen","municipality":{"key":"16062041","name":"Nordhausen, Stadt","type":"Stadt"},"district":{"key":"16062","name":"Nordhausen","type":"Landkreis"},"federalState":{"key":"16","name":"Thüringen"}},{"name":"Flurstr.","postalCode":"99734","locality":"Nordhausen","municipality":{"key":"16062041","name":"Nordhausen, Stadt","type":"Stadt"},"district":{"key":"16062","name":"Nordhausen","type":"Landkreis"},"federalState":{"key":"16","name":"Thüringen"}},{"name":"Flutweg","postalCode":"99734","locality":"Nordhausen","municipality":{"key":"16062041","name":"Nordhausen, Stadt","type":"Stadt"},"district":{"key":"16062","name":"Nordhausen","type":"Landkreis"},"federalState":{"key":"16","name":"Thüringen"}},{"name":"Fontanestr.","postalCode":"99734","locality":"Nordhausen","municipality":{"key":"16062041","name":"Nordhausen, Stadt","type":"Stadt"},"district":{"key":"16062","name":"Nordhausen","type":"Landkreis"},"federalState":{"key":"16","name":"Thüringen"}},{"name":"Förstemann Park","postalCode":"99734","locality":"Nordhausen","municipality":{"key":"16062041","name":"Nordhausen, Stadt","type":"Stadt"},"district":{"key":"16062","name":"Nordhausen","type":"Landkreis"},"federalState":{"key":"16","name":"Thüringen"}},{"name":"Förstemannstr.","postalCode":"99734","locality":"Nordhausen","municipality":{"key":"16062041","name":"Nordhausen, Stadt","type":"Stadt"},"district":{"key":"16062","name":"Nordhausen","type":"Landkreis"},"federalState":{"key":"16","name":"Thüringen"}},{"name":"Förstemannweg","postalCode":"99734","locality":"Nordhausen","municipality":{"key":"16062041","name":"Nordhausen, Stadt","type":"Stadt"},"district":{"key":"16062","name":"Nordhausen","type":"Landkreis"},"federalState":{"key":"16","name":"Thüringen"}},{"name":"Frankenstr.","postalCode":"99734","locality":"Nordhausen","municipality":{"key":"16062041","name":"Nordhausen, Stadt","type":"Stadt"},"district":{"key":"16062","name":"Nordhausen","type":"Landkreis"},"federalState":{"key":"16","name":"Thüringen"}},{"name":"Franz-Krieger-Str.","postalCode":"99734","locality":"Nordhausen","municipality":{"key":"16062041","name":"Nordhausen, Stadt","type":"Stadt"},"district":{"key":"16062","name":"Nordhausen","type":"Landkreis"},"federalState":{"key":"16","name":"Thüringen"}},{"name":"Franz-Mehring-Str.","postalCode":"99734","locality":"Nordhausen","municipality":{"key":"16062041","name":"Nordhausen, Stadt","type":"Stadt"},"district":{"key":"16062","name":"Nordhausen","type":"Landkreis"},"federalState":{"key":"16","name":"Thüringen"}},{"name":"Frauenberg","postalCode":"99734","locality":"Nordhausen","municipality":{"key":"16062041","name":"Nordhausen, Stadt","type":"Stadt"},"district":{"key":"16062","name":"Nordhausen","type":"Landkreis"},"federalState":{"key":"16","name":"Thüringen"}},{"name":"Freiheitsstr.","postalCode":"99734","locality":"Nordhausen","municipality":{"key":"16062041","name":"Nordhausen, Stadt","type":"Stadt"},"district":{"key":"16062","name":"Nordhausen","type":"Landkreis"},"federalState":{"key":"16","name":"Thüringen"}},{"name":"Freiherr-vom-Stein-Str.","postalCode":"99734","locality":"Nordhausen","municipality":{"key":"16062041","name":"Nordhausen, Stadt","type":"Stadt"},"district":{"key":"16062","name":"Nordhausen","type":"Landkreis"},"federalState":{"key":"16","name":"Thüringen"}},{"name":"Freundschaftsstr.","postalCode":"99734","locality":"Nordhausen","municipality":{"key":"16062041","name":"Nordhausen, Stadt","type":"Stadt"},"district":{"key":"16062","name":"Nordhausen","type":"Landkreis"},"federalState":{"key":"16","name":"Thüringen"}},{"name":"Freundschaftsweg","postalCode":"99734","locality":"Nordhausen","municipality":{"key":"16062041","name":"Nordhausen, Stadt","type":"Stadt"},"district":{"key":"16062","name":"Nordhausen","type":"Landkreis"},"federalState":{"key":"16","name":"Thüringen"}},{"name":"Freystr.","postalCode":"99734","locality":"Nordhausen","municipality":{"key":"16062041","name":"Nordhausen, Stadt","type":"Stadt"},"district":{"key":"16062","name":"Nordhausen","type":"Landkreis"},"federalState":{"key":"16","name":"Thüringen"}},{"name":"Friedensstr.","postalCode":"99734","locality":"Nordhausen","municipality":{"key":"16062041","name":"Nordhausen, Stadt","type":"Stadt"},"district":{"key":"16062","name":"Nordhausen","type":"Landkreis"},"federalState":{"key":"16","name":"Thüringen"}},{"name":"Friedhofsweg","postalCode":"99734","locality":"Nordhausen","municipality":{"key":"16062041","name":"Nordhausen, Stadt","type":"Stadt"},"district":{"key":"16062","name":"Nordhausen","type":"Landkreis"},"federalState":{"key":"16","name":"Thüringen"}},{"name":"Friedrich-Ebert-Str.","postalCode":"99734","locality":"Nordhausen","municipality":{"key":"16062041","name":"Nordhausen, Stadt","type":"Stadt"},"district":{"key":"16062","name":"Nordhausen","type":"Landkreis"},"federalState":{"key":"16","name":"Thüringen"}},{"name":"Friedrich-Engels-Str.","postalCode":"99734","locality":"Nordhausen","municipality":{"key":"16062041","name":"Nordhausen, Stadt","type":"Stadt"},"district":{"key":"16062","name":"Nordhausen","type":"Landkreis"},"federalState":{"key":"16","name":"Thüringen"}},{"name":"Friedrich-List-Str.","postalCode":"99734","locality":"Nordhausen","municipality":{"key":"16062041","name":"Nordhausen, Stadt","type":"Stadt"},"district":{"key":"16062","name":"Nordhausen","type":"Landkreis"},"federalState":{"key":"16","name":"Thüringen"}},{"name":"Friedrich-Naumann-Str.","postalCode":"99734","locality":"Nordhausen","municipality":{"key":"16062041","name":"Nordhausen, Stadt","type":"Stadt"},"district":{"key":"16062","name":"Nordhausen","type":"Landkreis"},"federalState":{"key":"16","name":"Thüringen"}},{"name":"Friedrichstr.","postalCode":"99734","locality":"Nordhausen","municipality":{"key":"16062041","name":"Nordhausen, Stadt","type":"Stadt"},"district":{"key":"16062","name":"Nordhausen","type":"Landkreis"},"federalState":{"key":"16","name":"Thüringen"}},{"name":"Friedrichsweg","postalCode":"99734","locality":"Nordhausen","municipality":{"key":"16062041","name":"Nordhausen, Stadt","type":"Stadt"},"district":{"key":"16062","name":"Nordhausen","type":"Landkreis"},"federalState":{"key":"16","name":"Thüringen"}},{"name":"Friesenstr.","postalCode":"99734","locality":"Nordhausen","municipality":{"key":"16062041","name":"Nordhausen, Stadt","type":"Stadt"},"district":{"key":"16062","name":"Nordhausen","type":"Landkreis"},"federalState":{"key":"16","name":"Thüringen"}},{"name":"Frühlingsweg","postalCode":"99734","locality":"Nordhausen","municipality":{"key":"16062041","name":"Nordhausen, Stadt","type":"Stadt"},"district":{"key":"16062","name":"Nordhausen","type":"Landkreis"},"federalState":{"key":"16","name":"Thüringen"}},{"name":"Fußgängerüberweg","postalCode":"99734","locality":"Nordhausen","municipality":{"key":"16062041","name":"Nordhausen, Stadt","type":"Stadt"},"district":{"key":"16062","name":"Nordhausen","type":"Landkreis"},"federalState":{"key":"16","name":"Thüringen"}},{"name":"Gartenstr.","postalCode":"99734","locality":"Nordhausen","municipality":{"key":"16062041","name":"Nordhausen, Stadt","type":"Stadt"},"district":{"key":"16062","name":"Nordhausen","type":"Landkreis"},"federalState":{"key":"16","name":"Thüringen"}},{"name":"Gebrüder-Grimm-Str.","postalCode":"99734","locality":"Nordhausen","municipality":{"key":"16062041","name":"Nordhausen, Stadt","type":"Stadt"},"district":{"key":"16062","name":"Nordhausen","type":"Landkreis"},"federalState":{"key":"16","name":"Thüringen"}},{"name":"Gehege","postalCode":"99734","locality":"Nordhausen","municipality":{"key":"16062041","name":"Nordhausen, Stadt","type":"Stadt"},"district":{"key":"16062","name":"Nordhausen","type":"Landkreis"},"federalState":{"key":"16","name":"Thüringen"}},{"name":"Geiersberg","postalCode":"99734","locality":"Nordhausen","municipality":{"key":"16062041","name":"Nordhausen, Stadt","type":"Stadt"},"district":{"key":"16062","name":"Nordhausen","type":"Landkreis"},"federalState":{"key":"16","name":"Thüringen"}},{"name":"Georg-Andreas-Hanewacker-Str.","postalCode":"99734","locality":"Nordhausen","municipality":{"key":"16062041","name":"Nordhausen, Stadt","type":"Stadt"},"district":{"key":"16062","name":"Nordhausen","type":"Landkreis"},"federalState":{"key":"16","name":"Thüringen"}},{"name":"Georgengasse","postalCode":"99734","locality":"Nordhausen","municipality":{"key":"16062041","name":"Nordhausen, Stadt","type":"Stadt"},"district":{"key":"16062","name":"Nordhausen","type":"Landkreis"},"federalState":{"key":"16","name":"Thüringen"}},{"name":"Georg-Weerth-Str.","postalCode":"99734","locality":"Nordhausen","municipality":{"key":"16062041","name":"Nordhausen, Stadt","type":"Stadt"},"district":{"key":"16062","name":"Nordhausen","type":"Landkreis"},"federalState":{"key":"16","name":"Thüringen"}},{"name":"Gerhart-Hauptmann-Str.","postalCode":"99734","locality":"Nordhausen","municipality":{"key":"16062041","name":"Nordhausen, Stadt","type":"Stadt"},"district":{"key":"16062","name":"Nordhausen","type":"Landkreis"},"federalState":{"key":"16","name":"Thüringen"}},{"name":"Geschwister-Scholl-Str.","postalCode":"99734","locality":"Nordhausen","municipality":{"key":"16062041","name":"Nordhausen, Stadt","type":"Stadt"},"district":{"key":"16062","name":"Nordhausen","type":"Landkreis"},"federalState":{"key":"16","name":"Thüringen"}},{"name":"Geseniusstr.","postalCode":"99734","locality":"Nordhausen","municipality":{"key":"16062041","name":"Nordhausen, Stadt","type":"Stadt"},"district":{"key":"16062","name":"Nordhausen","type":"Landkreis"},"federalState":{"key":"16","name":"Thüringen"}},{"name":"Giekersgasse","postalCode":"99734","locality":"Nordhausen","municipality":{"key":"16062041","name":"Nordhausen, Stadt","type":"Stadt"},"district":{"key":"16062","name":"Nordhausen","type":"Landkreis"},"federalState":{"key":"16","name":"Thüringen"}},{"name":"Goetheweg","postalCode":"99734","locality":"Nordhausen","municipality":{"key":"16062041","name":"Nordhausen, Stadt","type":"Stadt"},"district":{"key":"16062","name":"Nordhausen","type":"Landkreis"},"federalState":{"key":"16","name":"Thüringen"}},{"name":"Goldäcker","postalCode":"99734","locality":"Nordhausen","municipality":{"key":"16062041","name":"Nordhausen, Stadt","type":"Stadt"},"district":{"key":"16062","name":"Nordhausen","type":"Landkreis"},"federalState":{"key":"16","name":"Thüringen"}},{"name":"Gottfried-Erich-Rosenthal-Str.","postalCode":"99734","locality":"Nordhausen","municipality":{"key":"16062041","name":"Nordhausen, Stadt","type":"Stadt"},"district":{"key":"16062","name":"Nordhausen","type":"Landkreis"},"federalState":{"key":"16","name":"Thüringen"}},{"name":"Grabenstr.","postalCode":"99734","locality":"Nordhausen","municipality":{"key":"16062041","name":"Nordhausen, Stadt","type":"Stadt"},"district":{"key":"16062","name":"Nordhausen","type":"Landkreis"},"federalState":{"key":"16","name":"Thüringen"}},{"name":"Graf-von-Stauffenberg-Str.","postalCode":"99734","locality":"Nordhausen","municipality":{"key":"16062041","name":"Nordhausen, Stadt","type":"Stadt"},"district":{"key":"16062","name":"Nordhausen","type":"Landkreis"},"federalState":{"key":"16","name":"Thüringen"}},{"name":"Grenzstr.","postalCode":"99734","locality":"Nordhausen","municipality":{"key":"16062041","name":"Nordhausen, Stadt","type":"Stadt"},"district":{"key":"16062","name":"Nordhausen","type":"Landkreis"},"federalState":{"key":"16","name":"Thüringen"}},{"name":"Grenztriftweg","postalCode":"99734","locality":"Nordhausen","municipality":{"key":"16062041","name":"Nordhausen, Stadt","type":"Stadt"},"district":{"key":"16062","name":"Nordhausen","type":"Landkreis"},"federalState":{"key":"16","name":"Thüringen"}},{"name":"Grimmel","postalCode":"99734","locality":"Nordhausen","municipality":{"key":"16062041","name":"Nordhausen, Stadt","type":"Stadt"},"district":{"key":"16062","name":"Nordhausen","type":"Landkreis"},"federalState":{"key":"16","name":"Thüringen"}},{"name":"Grimmelallee","postalCode":"99734","locality":"Nordhausen","municipality":{"key":"16062041","name":"Nordhausen, Stadt","type":"Stadt"},"district":{"key":"16062","name":"Nordhausen","type":"Landkreis"},"federalState":{"key":"16","name":"Thüringen"}},{"name":"Großwechsunger Str.","postalCode":"99734","locality":"Nordhausen","municipality":{"key":"16062041","name":"Nordhausen, Stadt","type":"Stadt"},"district":{"key":"16062","name":"Nordhausen","type":"Landkreis"},"federalState":{"key":"16","name":"Thüringen"}},{"name":"Gummel","postalCode":"99734","locality":"Nordhausen","municipality":{"key":"16062041","name":"Nordhausen, Stadt","type":"Stadt"},"district":{"key":"16062","name":"Nordhausen","type":"Landkreis"},"federalState":{"key":"16","name":"Thüringen"}},{"name":"Gumpestr.","postalCode":"99734","locality":"Nordhausen","municipality":{"key":"16062041","name":"Nordhausen, Stadt","type":"Stadt"},"district":{"key":"16062","name":"Nordhausen","type":"Landkreis"},"federalState":{"key":"16","name":"Thüringen"}},{"name":"Günzeröder Str.","postalCode":"99734","locality":"Nordhausen","municipality":{"key":"16062041","name":"Nordhausen, Stadt","type":"Stadt"},"district":{"key":"16062","name":"Nordhausen","type":"Landkreis"},"federalState":{"key":"16","name":"Thüringen"}},{"name":"Gutsweg","postalCode":"99734","locality":"Nordhausen","municipality":{"key":"16062041","name":"Nordhausen, Stadt","type":"Stadt"},"district":{"key":"16062","name":"Nordhausen","type":"Landkreis"},"federalState":{"key":"16","name":"Thüringen"}},{"name":"Haardfeld","postalCode":"99734","locality":"Nordhausen","municipality":{"key":"16062041","name":"Nordhausen, Stadt","type":"Stadt"},"district":{"key":"16062","name":"Nordhausen","type":"Landkreis"},"federalState":{"key":"16","name":"Thüringen"}},{"name":"Hagen","postalCode":"99734","locality":"Nordhausen","municipality":{"key":"16062041","name":"Nordhausen, Stadt","type":"Stadt"},"district":{"key":"16062","name":"Nordhausen","type":"Landkreis"},"federalState":{"key":"16","name":"Thüringen"}},{"name":"Hainfeldstr.","postalCode":"99734","locality":"Nordhausen","municipality":{"key":"16062041","name":"Nordhausen, Stadt","type":"Stadt"},"district":{"key":"16062","name":"Nordhausen","type":"Landkreis"},"federalState":{"key":"16","name":"Thüringen"}},{"name":"Hallesche Str.","postalCode":"99734","locality":"Nordhausen","municipality":{"key":"16062041","name":"Nordhausen, Stadt","type":"Stadt"},"district":{"key":"16062","name":"Nordhausen","type":"Landkreis"},"federalState":{"key":"16","name":"Thüringen"}},{"name":"Hardenbergstr.","postalCode":"99734","locality":"Nordhausen","municipality":{"key":"16062041","name":"Nordhausen, Stadt","type":"Stadt"},"district":{"key":"16062","name":"Nordhausen","type":"Landkreis"},"federalState":{"key":"16","name":"Thüringen"}},{"name":"Hardtstr.","postalCode":"99734","locality":"Nordhausen","municipality":{"key":"16062041","name":"Nordhausen, Stadt","type":"Stadt"},"district":{"key":"16062","name":"Nordhausen","type":"Landkreis"},"federalState":{"key":"16","name":"Thüringen"}},{"name":"Hartmannsdamm","postalCode":"99734","locality":"Nordhausen","municipality":{"key":"16062041","name":"Nordhausen, Stadt","type":"Stadt"},"district":{"key":"16062","name":"Nordhausen","type":"Landkreis"},"federalState":{"key":"16","name":"Thüringen"}},{"name":"Harzblick","postalCode":"99734","locality":"Nordhausen","municipality":{"key":"16062041","name":"Nordhausen, Stadt","type":"Stadt"},"district":{"key":"16062","name":"Nordhausen","type":"Landkreis"},"federalState":{"key":"16","name":"Thüringen"}},{"name":"Harzrigiblick","postalCode":"99734","locality":"Nordhausen","municipality":{"key":"16062041","name":"Nordhausen, Stadt","type":"Stadt"},"district":{"key":"16062","name":"Nordhausen","type":"Landkreis"},"federalState":{"key":"16","name":"Thüringen"}},{"name":"Harzrigiweg","postalCode":"99734","locality":"Nordhausen","municipality":{"key":"16062041","name":"Nordhausen, Stadt","type":"Stadt"},"district":{"key":"16062","name":"Nordhausen","type":"Landkreis"},"federalState":{"key":"16","name":"Thüringen"}},{"name":"Harzstr.","postalCode":"99734","locality":"Nordhausen","municipality":{"key":"16062041","name":"Nordhausen, Stadt","type":"Stadt"},"district":{"key":"16062","name":"Nordhausen","type":"Landkreis"},"federalState":{"key":"16","name":"Thüringen"}},{"name":"Hauptstr.","postalCode":"99734","locality":"Nordhausen","municipality":{"key":"16062041","name":"Nordhausen, Stadt","type":"Stadt"},"district":{"key":"16062","name":"Nordhausen","type":"Landkreis"},"federalState":{"key":"16","name":"Thüringen"}},{"name":"Hautal","postalCode":"99734","locality":"Nordhausen","municipality":{"key":"16062041","name":"Nordhausen, Stadt","type":"Stadt"},"district":{"key":"16062","name":"Nordhausen","type":"Landkreis"},"federalState":{"key":"16","name":"Thüringen"}},{"name":"Haydnstr.","postalCode":"99734","locality":"Nordhausen","municipality":{"key":"16062041","name":"Nordhausen, Stadt","type":"Stadt"},"district":{"key":"16062","name":"Nordhausen","type":"Landkreis"},"federalState":{"key":"16","name":"Thüringen"}},{"name":"Heidelbergblick","postalCode":"99734","locality":"Nordhausen","municipality":{"key":"16062041","name":"Nordhausen, Stadt","type":"Stadt"},"district":{"key":"16062","name":"Nordhausen","type":"Landkreis"},"federalState":{"key":"16","name":"Thüringen"}},{"name":"Heimstr.","postalCode":"99734","locality":"Nordhausen","municipality":{"key":"16062041","name":"Nordhausen, Stadt","type":"Stadt"},"district":{"key":"16062","name":"Nordhausen","type":"Landkreis"},"federalState":{"key":"16","name":"Thüringen"}},{"name":"Heinrich-Heine-Str.","postalCode":"99734","locality":"Nordhausen","municipality":{"key":"16062041","name":"Nordhausen, Stadt","type":"Stadt"},"district":{"key":"16062","name":"Nordhausen","type":"Landkreis"},"federalState":{"key":"16","name":"Thüringen"}},{"name":"Heinrichsweg","postalCode":"99734","locality":"Nordhausen","municipality":{"key":"16062041","name":"Nordhausen, Stadt","type":"Stadt"},"district":{"key":"16062","name":"Nordhausen","type":"Landkreis"},"federalState":{"key":"16","name":"Thüringen"}},{"name":"Heinrich-Zille-Str.","postalCode":"99734","locality":"Nordhausen","municipality":{"key":"16062041","name":"Nordhausen, Stadt","type":"Stadt"},"district":{"key":"16062","name":"Nordhausen","type":"Landkreis"},"federalState":{"key":"16","name":"Thüringen"}},{"name":"Helmestr.","postalCode":"99734","locality":"Nordhausen","municipality":{"key":"16062041","name":"Nordhausen, Stadt","type":"Stadt"},"district":{"key":"16062","name":"Nordhausen","type":"Landkreis"},"federalState":{"key":"16","name":"Thüringen"}},{"name":"Herforder Str.","postalCode":"99734","locality":"Nordhausen","municipality":{"key":"16062041","name":"Nordhausen, Stadt","type":"Stadt"},"district":{"key":"16062","name":"Nordhausen","type":"Landkreis"},"federalState":{"key":"16","name":"Thüringen"}},{"name":"Heringer Weg","postalCode":"99734","locality":"Nordhausen","municipality":{"key":"16062041","name":"Nordhausen, Stadt","type":"Stadt"},"district":{"key":"16062","name":"Nordhausen","type":"Landkreis"},"federalState":{"key":"16","name":"Thüringen"}},{"name":"Herreder Str.","postalCode":"99734","locality":"Nordhausen","municipality":{"key":"16062041","name":"Nordhausen, Stadt","type":"Stadt"},"district":{"key":"16062","name":"Nordhausen","type":"Landkreis"},"federalState":{"key":"16","name":"Thüringen"}},{"name":"Herrengasse","postalCode":"99195","locality":"Riethnordhausen","municipality":{"key":"16068044","name":"Riethnordhausen","type":"Kreisangehörige_Gemeinde"},"district":{"key":"16068","name":"Sömmerda","type":"Landkreis"},"federalState":{"key":"16","name":"Thüringen"}},{"name":"Hesseröder Landstr.","postalCode":"99734","locality":"Nordhausen","municipality":{"key":"16062041","name":"Nordhausen, Stadt","type":"Stadt"},"district":{"key":"16062","name":"Nordhausen","type":"Landkreis"},"federalState":{"key":"16","name":"Thüringen"}},{"name":"Hesseröder Str.","postalCode":"99734","locality":"Nordhausen","municipality":{"key":"16062041","name":"Nordhausen, Stadt","type":"Stadt"},"district":{"key":"16062","name":"Nordhausen","type":"Landkreis"},"federalState":{"key":"16","name":"Thüringen"}},{"name":"Hinter dem Anger","postalCode":"99195","locality":"Riethnordhausen","municipality":{"key":"16068044","name":"Riethnordhausen","type":"Kreisangehörige_Gemeinde"},"district":{"key":"16068","name":"Sömmerda","type":"Landkreis"},"federalState":{"key":"16","name":"Thüringen"}},{"name":"Hinter dem Friedhof","postalCode":"99734","locality":"Nordhausen","municipality":{"key":"16062041","name":"Nordhausen, Stadt","type":"Stadt"},"district":{"key":"16062","name":"Nordhausen","type":"Landkreis"},"federalState":{"key":"16","name":"Thüringen"}},{"name":"Hinter dem Hammer","postalCode":"99734","locality":"Nordhausen","municipality":{"key":"16062041","name":"Nordhausen, Stadt","type":"Stadt"},"district":{"key":"16062","name":"Nordhausen","type":"Landkreis"},"federalState":{"key":"16","name":"Thüringen"}},{"name":"Hinter dem Rain","postalCode":"99734","locality":"Nordhausen","municipality":{"key":"16062041","name":"Nordhausen, Stadt","type":"Stadt"},"district":{"key":"16062","name":"Nordhausen","type":"Landkreis"},"federalState":{"key":"16","name":"Thüringen"}},{"name":"Hinter den Gärten","postalCode":"99734","locality":"Nordhausen","municipality":{"key":"16062041","name":"Nordhausen, Stadt","type":"Stadt"},"district":{"key":"16062","name":"Nordhausen","type":"Landkreis"},"federalState":{"key":"16","name":"Thüringen"}},{"name":"Hinter der Alten Mühle","postalCode":"99734","locality":"Nordhausen","municipality":{"key":"16062041","name":"Nordhausen, Stadt","type":"Stadt"},"district":{"key":"16062","name":"Nordhausen","type":"Landkreis"},"federalState":{"key":"16","name":"Thüringen"}},{"name":"Hinter der Steinmühle","postalCode":"99734","locality":"Nordhausen","municipality":{"key":"16062041","name":"Nordhausen, Stadt","type":"Stadt"},"district":{"key":"16062","name":"Nordhausen","type":"Landkreis"},"federalState":{"key":"16","name":"Thüringen"}},{"name":"Hochstedter Str.","postalCode":"99734","locality":"Nordhausen","municipality":{"key":"16062041","name":"Nordhausen, Stadt","type":"Stadt"},"district":{"key":"16062","name":"Nordhausen","type":"Landkreis"},"federalState":{"key":"16","name":"Thüringen"}},{"name":"Hohekreuzstr.","postalCode":"99734","locality":"Nordhausen","municipality":{"key":"16062041","name":"Nordhausen, Stadt","type":"Stadt"},"district":{"key":"16062","name":"Nordhausen","type":"Landkreis"},"federalState":{"key":"16","name":"Thüringen"}},{"name":"Hohenstaufenstr.","postalCode":"99734","locality":"Nordhausen","municipality":{"key":"16062041","name":"Nordhausen, Stadt","type":"Stadt"},"district":{"key":"16062","name":"Nordhausen","type":"Landkreis"},"federalState":{"key":"16","name":"Thüringen"}},{"name":"Hohensteinerstr.","postalCode":"99734","locality":"Nordhausen","municipality":{"key":"16062041","name":"Nordhausen, Stadt","type":"Stadt"},"district":{"key":"16062","name":"Nordhausen","type":"Landkreis"},"federalState":{"key":"16","name":"Thüringen"}},{"name":"Hohnsdorfer Weg","postalCode":"99734","locality":"Nordhausen","municipality":{"key":"16062041","name":"Nordhausen, Stadt","type":"Stadt"},"district":{"key":"16062","name":"Nordhausen","type":"Landkreis"},"federalState":{"key":"16","name":"Thüringen"}},{"name":"Hölderlinstr.","postalCode":"99734","locality":"Nordhausen","municipality":{"key":"16062041","name":"Nordhausen, Stadt","type":"Stadt"},"district":{"key":"16062","name":"Nordhausen","type":"Landkreis"},"federalState":{"key":"16","name":"Thüringen"}},{"name":"Holundergasse","postalCode":"99734","locality":"Nordhausen","municipality":{"key":"16062041","name":"Nordhausen, Stadt","type":"Stadt"},"district":{"key":"16062","name":"Nordhausen","type":"Landkreis"},"federalState":{"key":"16","name":"Thüringen"}},{"name":"Hölzchenweg","postalCode":"99734","locality":"Nordhausen","municipality":{"key":"16062041","name":"Nordhausen, Stadt","type":"Stadt"},"district":{"key":"16062","name":"Nordhausen","type":"Landkreis"},"federalState":{"key":"16","name":"Thüringen"}},{"name":"Holzweg","postalCode":"99734","locality":"Nordhausen","municipality":{"key":"16062041","name":"Nordhausen, Stadt","type":"Stadt"},"district":{"key":"16062","name":"Nordhausen","type":"Landkreis"},"federalState":{"key":"16","name":"Thüringen"}},{"name":"Hopfgartenbrücke","postalCode":"99195","locality":"Riethnordhausen","municipality":{"key":"16068044","name":"Riethnordhausen","type":"Kreisangehörige_Gemeinde"},"district":{"key":"16068","name":"Sömmerda","type":"Landkreis"},"federalState":{"key":"16","name":"Thüringen"}},{"name":"Hoppegarten","postalCode":"99734","locality":"Nordhausen","municipality":{"key":"16062041","name":"Nordhausen, Stadt","type":"Stadt"},"district":{"key":"16062","name":"Nordhausen","type":"Landkreis"},"federalState":{"key":"16","name":"Thüringen"}},{"name":"Hosenbein","postalCode":"99734","locality":"Nordhausen","municipality":{"key":"16062041","name":"Nordhausen, Stadt","type":"Stadt"},"district":{"key":"16062","name":"Nordhausen","type":"Landkreis"},"federalState":{"key":"16","name":"Thüringen"}},{"name":"Hufelandstr.","postalCode":"99734","locality":"Nordhausen","municipality":{"key":"16062041","name":"Nordhausen, Stadt","type":"Stadt"},"district":{"key":"16062","name":"Nordhausen","type":"Landkreis"},"federalState":{"key":"16","name":"Thüringen"}},{"name":"Hundgasse","postalCode":"99734","locality":"Nordhausen","municipality":{"key":"16062041","name":"Nordhausen, Stadt","type":"Stadt"},"district":{"key":"16062","name":"Nordhausen","type":"Landkreis"},"federalState":{"key":"16","name":"Thüringen"}},{"name":"Hunnengasse","postalCode":"99195","locality":"Riethnordhausen","municipality":{"key":"16068044","name":"Riethnordhausen","type":"Kreisangehörige_Gemeinde"},"district":{"key":"16068","name":"Sömmerda","type":"Landkreis"},"federalState":{"key":"16","name":"Thüringen"}},{"name":"Hüpedenweg","postalCode":"99734","locality":"Nordhausen","municipality":{"key":"16062041","name":"Nordhausen, Stadt","type":"Stadt"},"district":{"key":"16062","name":"Nordhausen","type":"Landkreis"},"federalState":{"key":"16","name":"Thüringen"}},{"name":"Hütteplatz","postalCode":"99734","locality":"Nordhausen","municipality":{"key":"16062041","name":"Nordhausen, Stadt","type":"Stadt"},"district":{"key":"16062","name":"Nordhausen","type":"Landkreis"},"federalState":{"key":"16","name":"Thüringen"}},{"name":"Ilfelder Str.","postalCode":"99734","locality":"Nordhausen","municipality":{"key":"16062041","name":"Nordhausen, Stadt","type":"Stadt"},"district":{"key":"16062","name":"Nordhausen","type":"Landkreis"},"federalState":{"key":"16","name":"Thüringen"}},{"name":"Im Biegen","postalCode":"99734","locality":"Nordhausen","municipality":{"key":"16062041","name":"Nordhausen, Stadt","type":"Stadt"},"district":{"key":"16062","name":"Nordhausen","type":"Landkreis"},"federalState":{"key":"16","name":"Thüringen"}},{"name":"Im Grund","postalCode":"99734","locality":"Nordhausen","municipality":{"key":"16062041","name":"Nordhausen, Stadt","type":"Stadt"},"district":{"key":"16062","name":"Nordhausen","type":"Landkreis"},"federalState":{"key":"16","name":"Thüringen"}},{"name":"Im Krug","postalCode":"99734","locality":"Nordhausen","municipality":{"key":"16062041","name":"Nordhausen, Stadt","type":"Stadt"},"district":{"key":"16062","name":"Nordhausen","type":"Landkreis"},"federalState":{"key":"16","name":"Thüringen"}},{"name":"Im Stürzetal","postalCode":"99734","locality":"Nordhausen","municipality":{"key":"16062041","name":"Nordhausen, Stadt","type":"Stadt"},"district":{"key":"16062","name":"Nordhausen","type":"Landkreis"},"federalState":{"key":"16","name":"Thüringen"}},{"name":"Industriegebiet Goldene Aue West","postalCode":"99734","locality":"Nordhausen","municipality":{"key":"16062041","name":"Nordhausen, Stadt","type":"Stadt"},"district":{"key":"16062","name":"Nordhausen","type":"Landkreis"},"federalState":{"key":"16","name":"Thüringen"}},{"name":"Industrieweg","postalCode":"99734","locality":"Nordhausen","municipality":{"key":"16062041","name":"Nordhausen, Stadt","type":"Stadt"},"district":{"key":"16062","name":"Nordhausen","type":"Landkreis"},"federalState":{"key":"16","name":"Thüringen"}},{"name":"Jacob-Plaut-Str.","postalCode":"99734","locality":"Nordhausen","municipality":{"key":"16062041","name":"Nordhausen, Stadt","type":"Stadt"},"district":{"key":"16062","name":"Nordhausen","type":"Landkreis"},"federalState":{"key":"16","name":"Thüringen"}},{"name":"Jahnstr.","postalCode":"99734","locality":"Nordhausen","municipality":{"key":"16062041","name":"Nordhausen, Stadt","type":"Stadt"},"district":{"key":"16062","name":"Nordhausen","type":"Landkreis"},"federalState":{"key":"16","name":"Thüringen"}},{"name":"Johannes-Kleinspehn-Str.","postalCode":"99734","locality":"Nordhausen","municipality":{"key":"16062041","name":"Nordhausen, Stadt","type":"Stadt"},"district":{"key":"16062","name":"Nordhausen","type":"Landkreis"},"federalState":{"key":"16","name":"Thüringen"}},{"name":"Johannes-Thal-Str.","postalCode":"99734","locality":"Nordhausen","municipality":{"key":"16062041","name":"Nordhausen, Stadt","type":"Stadt"},"district":{"key":"16062","name":"Nordhausen","type":"Landkreis"},"federalState":{"key":"16","name":"Thüringen"}},{"name":"Johannistreppe","postalCode":"99734","locality":"Nordhausen","municipality":{"key":"16062041","name":"Nordhausen, Stadt","type":"Stadt"},"district":{"key":"16062","name":"Nordhausen","type":"Landkreis"},"federalState":{"key":"16","name":"Thüringen"}},{"name":"Johanniswall","postalCode":"99734","locality":"Nordhausen","municipality":{"key":"16062041","name":"Nordhausen, Stadt","type":"Stadt"},"district":{"key":"16062","name":"Nordhausen","type":"Landkreis"},"federalState":{"key":"16","name":"Thüringen"}},{"name":"Johann-Sebastian-Bach-Str.","postalCode":"99734","locality":"Nordhausen","municipality":{"key":"16062041","name":"Nordhausen, Stadt","type":"Stadt"},"district":{"key":"16062","name":"Nordhausen","type":"Landkreis"},"federalState":{"key":"16","name":"Thüringen"}},{"name":"Jüdenstr.","postalCode":"99734","locality":"Nordhausen","municipality":{"key":"16062041","name":"Nordhausen, Stadt","type":"Stadt"},"district":{"key":"16062","name":"Nordhausen","type":"Landkreis"},"federalState":{"key":"16","name":"Thüringen"}},{"name":"Justus-Jonas-Str.","postalCode":"99734","locality":"Nordhausen","municipality":{"key":"16062041","name":"Nordhausen, Stadt","type":"Stadt"},"district":{"key":"16062","name":"Nordhausen","type":"Landkreis"},"federalState":{"key":"16","name":"Thüringen"}},{"name":"Kalkhüttenstr.","postalCode":"99734","locality":"Nordhausen","municipality":{"key":"16062041","name":"Nordhausen, Stadt","type":"Stadt"},"district":{"key":"16062","name":"Nordhausen","type":"Landkreis"},"federalState":{"key":"16","name":"Thüringen"}},{"name":"Kalte Gasse","postalCode":"99734","locality":"Nordhausen","municipality":{"key":"16062041","name":"Nordhausen, Stadt","type":"Stadt"},"district":{"key":"16062","name":"Nordhausen","type":"Landkreis"},"federalState":{"key":"16","name":"Thüringen"}},{"name":"Kantor-Pabst-Str.","postalCode":"99734","locality":"Nordhausen","municipality":{"key":"16062041","name":"Nordhausen, Stadt","type":"Stadt"},"district":{"key":"16062","name":"Nordhausen","type":"Landkreis"},"federalState":{"key":"16","name":"Thüringen"}},{"name":"Kantstr.","postalCode":"99734","locality":"Nordhausen","municipality":{"key":"16062041","name":"Nordhausen, Stadt","type":"Stadt"},"district":{"key":"16062","name":"Nordhausen","type":"Landkreis"},"federalState":{"key":"16","name":"Thüringen"}},{"name":"Karl-Liebknecht-Platz","postalCode":"99734","locality":"Nordhausen","municipality":{"key":"16062041","name":"Nordhausen, Stadt","type":"Stadt"},"district":{"key":"16062","name":"Nordhausen","type":"Landkreis"},"federalState":{"key":"16","name":"Thüringen"}},{"name":"Karl-Meyer-Str.","postalCode":"99734","locality":"Nordhausen","municipality":{"key":"16062041","name":"Nordhausen, Stadt","type":"Stadt"},"district":{"key":"16062","name":"Nordhausen","type":"Landkreis"},"federalState":{"key":"16","name":"Thüringen"}},{"name":"Karlstr.","postalCode":"99734","locality":"Nordhausen","municipality":{"key":"16062041","name":"Nordhausen, Stadt","type":"Stadt"},"district":{"key":"16062","name":"Nordhausen","type":"Landkreis"},"federalState":{"key":"16","name":"Thüringen"}},{"name":"Karolingerstr.","postalCode":"99734","locality":"Nordhausen","municipality":{"key":"16062041","name":"Nordhausen, Stadt","type":"Stadt"},"district":{"key":"16062","name":"Nordhausen","type":"Landkreis"},"federalState":{"key":"16","name":"Thüringen"}},{"name":"Kasseler Landstr.","postalCode":"99734","locality":"Nordhausen","municipality":{"key":"16062041","name":"Nordhausen, Stadt","type":"Stadt"},"district":{"key":"16062","name":"Nordhausen","type":"Landkreis"},"federalState":{"key":"16","name":"Thüringen"}},{"name":"Kastanienweg","postalCode":"99195","locality":"Riethnordhausen","municipality":{"key":"16068044","name":"Riethnordhausen","type":"Kreisangehörige_Gemeinde"},"district":{"key":"16068","name":"Sömmerda","type":"Landkreis"},"federalState":{"key":"16","name":"Thüringen"}},{"name":"Kastanienweg","postalCode":"99734","locality":"Nordhausen","municipality":{"key":"16062041","name":"Nordhausen, Stadt","type":"Stadt"},"district":{"key":"16062","name":"Nordhausen","type":"Landkreis"},"federalState":{"key":"16","name":"Thüringen"}},{"name":"Käthe-Kollwitz-Str.","postalCode":"99734","locality":"Nordhausen","municipality":{"key":"16062041","name":"Nordhausen, Stadt","type":"Stadt"},"district":{"key":"16062","name":"Nordhausen","type":"Landkreis"},"federalState":{"key":"16","name":"Thüringen"}},{"name":"Kesselberg","postalCode":"99734","locality":"Nordhausen","municipality":{"key":"16062041","name":"Nordhausen, Stadt","type":"Stadt"},"district":{"key":"16062","name":"Nordhausen","type":"Landkreis"},"federalState":{"key":"16","name":"Thüringen"}},{"name":"Kesselweg","postalCode":"99734","locality":"Nordhausen","municipality":{"key":"16062041","name":"Nordhausen, Stadt","type":"Stadt"},"district":{"key":"16062","name":"Nordhausen","type":"Landkreis"},"federalState":{"key":"16","name":"Thüringen"}},{"name":"Kirchberg","postalCode":"99734","locality":"Nordhausen","municipality":{"key":"16062041","name":"Nordhausen, Stadt","type":"Stadt"},"district":{"key":"16062","name":"Nordhausen","type":"Landkreis"},"federalState":{"key":"16","name":"Thüringen"}},{"name":"Kirchplatz","postalCode":"99734","locality":"Nordhausen","municipality":{"key":"16062041","name":"Nordhausen, Stadt","type":"Stadt"},"district":{"key":"16062","name":"Nordhausen","type":"Landkreis"},"federalState":{"key":"16","name":"Thüringen"}},{"name":"Kirschweg","postalCode":"99734","locality":"Nordhausen","municipality":{"key":"16062041","name":"Nordhausen, Stadt","type":"Stadt"},"district":{"key":"16062","name":"Nordhausen","type":"Landkreis"},"federalState":{"key":"16","name":"Thüringen"}},{"name":"Kleine Gasse","postalCode":"99734","locality":"Nordhausen","municipality":{"key":"16062041","name":"Nordhausen, Stadt","type":"Stadt"},"district":{"key":"16062","name":"Nordhausen","type":"Landkreis"},"federalState":{"key":"16","name":"Thüringen"}},{"name":"Kleines Borntal","postalCode":"99734","locality":"Nordhausen","municipality":{"key":"16062041","name":"Nordhausen, Stadt","type":"Stadt"},"district":{"key":"16062","name":"Nordhausen","type":"Landkreis"},"federalState":{"key":"16","name":"Thüringen"}},{"name":"Kleingartenverein Kyffhäuserblick e.V.","postalCode":"99734","locality":"Nordhausen","municipality":{"key":"16062041","name":"Nordhausen, Stadt","type":"Stadt"},"district":{"key":"16062","name":"Nordhausen","type":"Landkreis"},"federalState":{"key":"16","name":"Thüringen"}},{"name":"Kleinwertherstr.","postalCode":"99734","locality":"Nordhausen","municipality":{"key":"16062041","name":"Nordhausen, Stadt","type":"Stadt"},"district":{"key":"16062","name":"Nordhausen","type":"Landkreis"},"federalState":{"key":"16","name":"Thüringen"}},{"name":"Kleiststr.","postalCode":"99734","locality":"Nordhausen","municipality":{"key":"16062041","name":"Nordhausen, Stadt","type":"Stadt"},"district":{"key":"16062","name":"Nordhausen","type":"Landkreis"},"federalState":{"key":"16","name":"Thüringen"}},{"name":"Klostergasse","postalCode":"99734","locality":"Nordhausen","municipality":{"key":"16062041","name":"Nordhausen, Stadt","type":"Stadt"},"district":{"key":"16062","name":"Nordhausen","type":"Landkreis"},"federalState":{"key":"16","name":"Thüringen"}},{"name":"Kohlenstr.","postalCode":"99734","locality":"Nordhausen","municipality":{"key":"16062041","name":"Nordhausen, Stadt","type":"Stadt"},"district":{"key":"16062","name":"Nordhausen","type":"Landkreis"},"federalState":{"key":"16","name":"Thüringen"}},{"name":"Kohnsteinbrücke","postalCode":"99734","locality":"Nordhausen","municipality":{"key":"16062041","name":"Nordhausen, Stadt","type":"Stadt"},"district":{"key":"16062","name":"Nordhausen","type":"Landkreis"},"federalState":{"key":"16","name":"Thüringen"}},{"name":"Kohnsteinsteg","postalCode":"99734","locality":"Nordhausen","municipality":{"key":"16062041","name":"Nordhausen, Stadt","type":"Stadt"},"district":{"key":"16062","name":"Nordhausen","type":"Landkreis"},"federalState":{"key":"16","name":"Thüringen"}},{"name":"Kohnsteinweg","postalCode":"99734","locality":"Nordhausen","municipality":{"key":"16062041","name":"Nordhausen, Stadt","type":"Stadt"},"district":{"key":"16062","name":"Nordhausen","type":"Landkreis"},"federalState":{"key":"16","name":"Thüringen"}},{"name":"Köllingstr.","postalCode":"99734","locality":"Nordhausen","municipality":{"key":"16062041","name":"Nordhausen, Stadt","type":"Stadt"},"district":{"key":"16062","name":"Nordhausen","type":"Landkreis"},"federalState":{"key":"16","name":"Thüringen"}},{"name":"Kollung","postalCode":"99734","locality":"Nordhausen","municipality":{"key":"16062041","name":"Nordhausen, Stadt","type":"Stadt"},"district":{"key":"16062","name":"Nordhausen","type":"Landkreis"},"federalState":{"key":"16","name":"Thüringen"}},{"name":"Kommunikationsweg","postalCode":"99734","locality":"Nordhausen","municipality":{"key":"16062041","name":"Nordhausen, Stadt","type":"Stadt"},"district":{"key":"16062","name":"Nordhausen","type":"Landkreis"},"federalState":{"key":"16","name":"Thüringen"}},{"name":"Königsberg","postalCode":"99734","locality":"Nordhausen","municipality":{"key":"16062041","name":"Nordhausen, Stadt","type":"Stadt"},"district":{"key":"16062","name":"Nordhausen","type":"Landkreis"},"federalState":{"key":"16","name":"Thüringen"}},{"name":"Königshof","postalCode":"99734","locality":"Nordhausen","municipality":{"key":"16062041","name":"Nordhausen, Stadt","type":"Stadt"},"district":{"key":"16062","name":"Nordhausen","type":"Landkreis"},"federalState":{"key":"16","name":"Thüringen"}},{"name":"Königshofwall","postalCode":"99734","locality":"Nordhausen","municipality":{"key":"16062041","name":"Nordhausen, Stadt","type":"Stadt"},"district":{"key":"16062","name":"Nordhausen","type":"Landkreis"},"federalState":{"key":"16","name":"Thüringen"}},{"name":"Königsplatz","postalCode":"99734","locality":"Nordhausen","municipality":{"key":"16062041","name":"Nordhausen, Stadt","type":"Stadt"},"district":{"key":"16062","name":"Nordhausen","type":"Landkreis"},"federalState":{"key":"16","name":"Thüringen"}},{"name":"Körnerstr.","postalCode":"99734","locality":"Nordhausen","municipality":{"key":"16062041","name":"Nordhausen, Stadt","type":"Stadt"},"district":{"key":"16062","name":"Nordhausen","type":"Landkreis"},"federalState":{"key":"16","name":"Thüringen"}},{"name":"Kornmarkt","postalCode":"99734","locality":"Nordhausen","municipality":{"key":"16062041","name":"Nordhausen, Stadt","type":"Stadt"},"district":{"key":"16062","name":"Nordhausen","type":"Landkreis"},"federalState":{"key":"16","name":"Thüringen"}},{"name":"Kranichstr.","postalCode":"99734","locality":"Nordhausen","municipality":{"key":"16062041","name":"Nordhausen, Stadt","type":"Stadt"},"district":{"key":"16062","name":"Nordhausen","type":"Landkreis"},"federalState":{"key":"16","name":"Thüringen"}},{"name":"Kreuzen","postalCode":"99734","locality":"Nordhausen","municipality":{"key":"16062041","name":"Nordhausen, Stadt","type":"Stadt"},"district":{"key":"16062","name":"Nordhausen","type":"Landkreis"},"federalState":{"key":"16","name":"Thüringen"}},{"name":"Kreuzsteinweg","postalCode":"99734","locality":"Nordhausen","municipality":{"key":"16062041","name":"Nordhausen, Stadt","type":"Stadt"},"district":{"key":"16062","name":"Nordhausen","type":"Landkreis"},"federalState":{"key":"16","name":"Thüringen"}},{"name":"Krimderöder Str.","postalCode":"99734","locality":"Nordhausen","municipality":{"key":"16062041","name":"Nordhausen, Stadt","type":"Stadt"},"district":{"key":"16062","name":"Nordhausen","type":"Landkreis"},"federalState":{"key":"16","name":"Thüringen"}},{"name":"Krugweg","postalCode":"99734","locality":"Nordhausen","municipality":{"key":"16062041","name":"Nordhausen, Stadt","type":"Stadt"},"district":{"key":"16062","name":"Nordhausen","type":"Landkreis"},"federalState":{"key":"16","name":"Thüringen"}},{"name":"Kuckucksmühle","postalCode":"99734","locality":"Nordhausen","municipality":{"key":"16062041","name":"Nordhausen, Stadt","type":"Stadt"},"district":{"key":"16062","name":"Nordhausen","type":"Landkreis"},"federalState":{"key":"16","name":"Thüringen"}},{"name":"Kurt-Wein-Str.","postalCode":"99734","locality":"Nordhausen","municipality":{"key":"16062041","name":"Nordhausen, Stadt","type":"Stadt"},"district":{"key":"16062","name":"Nordhausen","type":"Landkreis"},"federalState":{"key":"16","name":"Thüringen"}},{"name":"Kurze Str.","postalCode":"99734","locality":"Nordhausen","municipality":{"key":"16062041","name":"Nordhausen, Stadt","type":"Stadt"},"district":{"key":"16062","name":"Nordhausen","type":"Landkreis"},"federalState":{"key":"16","name":"Thüringen"}},{"name":"Kützingstr.","postalCode":"99734","locality":"Nordhausen","municipality":{"key":"16062041","name":"Nordhausen, Stadt","type":"Stadt"},"district":{"key":"16062","name":"Nordhausen","type":"Landkreis"},"federalState":{"key":"16","name":"Thüringen"}},{"name":"Kyffhäuserstr.","postalCode":"99734","locality":"Nordhausen","municipality":{"key":"16062041","name":"Nordhausen, Stadt","type":"Stadt"},"district":{"key":"16062","name":"Nordhausen","type":"Landkreis"},"federalState":{"key":"16","name":"Thüringen"}},{"name":"Landgrabenstr.","postalCode":"99734","locality":"Nordhausen","municipality":{"key":"16062041","name":"Nordhausen, Stadt","type":"Stadt"},"district":{"key":"16062","name":"Nordhausen","type":"Landkreis"},"federalState":{"key":"16","name":"Thüringen"}},{"name":"Lange Gasse","postalCode":"99734","locality":"Nordhausen","municipality":{"key":"16062041","name":"Nordhausen, Stadt","type":"Stadt"},"district":{"key":"16062","name":"Nordhausen","type":"Landkreis"},"federalState":{"key":"16","name":"Thüringen"}},{"name":"Lange Str.","postalCode":"99734","locality":"Nordhausen","municipality":{"key":"16062041","name":"Nordhausen, Stadt","type":"Stadt"},"district":{"key":"16062","name":"Nordhausen","type":"Landkreis"},"federalState":{"key":"16","name":"Thüringen"}},{"name":"Lärchenweg","postalCode":"99734","locality":"Nordhausen","municipality":{"key":"16062041","name":"Nordhausen, Stadt","type":"Stadt"},"district":{"key":"16062","name":"Nordhausen","type":"Landkreis"},"federalState":{"key":"16","name":"Thüringen"}},{"name":"Leimbacher Str.","postalCode":"99734","locality":"Nordhausen","municipality":{"key":"16062041","name":"Nordhausen, Stadt","type":"Stadt"},"district":{"key":"16062","name":"Nordhausen","type":"Landkreis"},"federalState":{"key":"16","name":"Thüringen"}},{"name":"Leopoldweg","postalCode":"99734","locality":"Nordhausen","municipality":{"key":"16062041","name":"Nordhausen, Stadt","type":"Stadt"},"district":{"key":"16062","name":"Nordhausen","type":"Landkreis"},"federalState":{"key":"16","name":"Thüringen"}},{"name":"Lesserplatz","postalCode":"99734","locality":"Nordhausen","municipality":{"key":"16062041","name":"Nordhausen, Stadt","type":"Stadt"},"district":{"key":"16062","name":"Nordhausen","type":"Landkreis"},"federalState":{"key":"16","name":"Thüringen"}},{"name":"Lessingweg","postalCode":"99734","locality":"Nordhausen","municipality":{"key":"16062041","name":"Nordhausen, Stadt","type":"Stadt"},"district":{"key":"16062","name":"Nordhausen","type":"Landkreis"},"federalState":{"key":"16","name":"Thüringen"}},{"name":"Lichte Höhe","postalCode":"99734","locality":"Nordhausen","municipality":{"key":"16062041","name":"Nordhausen, Stadt","type":"Stadt"},"district":{"key":"16062","name":"Nordhausen","type":"Landkreis"},"federalState":{"key":"16","name":"Thüringen"}},{"name":"Liebestunnel","postalCode":"99734","locality":"Nordhausen","municipality":{"key":"16062041","name":"Nordhausen, Stadt","type":"Stadt"},"district":{"key":"16062","name":"Nordhausen","type":"Landkreis"},"federalState":{"key":"16","name":"Thüringen"}},{"name":"Lilienweg","postalCode":"99734","locality":"Nordhausen","municipality":{"key":"16062041","name":"Nordhausen, Stadt","type":"Stadt"},"district":{"key":"16062","name":"Nordhausen","type":"Landkreis"},"federalState":{"key":"16","name":"Thüringen"}},{"name":"Lindenplatz","postalCode":"99734","locality":"Nordhausen","municipality":{"key":"16062041","name":"Nordhausen, Stadt","type":"Stadt"},"district":{"key":"16062","name":"Nordhausen","type":"Landkreis"},"federalState":{"key":"16","name":"Thüringen"}},{"name":"Lindenstr.","postalCode":"99734","locality":"Nordhausen","municipality":{"key":"16062041","name":"Nordhausen, Stadt","type":"Stadt"},"district":{"key":"16062","name":"Nordhausen","type":"Landkreis"},"federalState":{"key":"16","name":"Thüringen"}},{"name":"Lindenweg","postalCode":"99734","locality":"Nordhausen","municipality":{"key":"16062041","name":"Nordhausen, Stadt","type":"Stadt"},"district":{"key":"16062","name":"Nordhausen","type":"Landkreis"},"federalState":{"key":"16","name":"Thüringen"}},{"name":"Linkes Hosenbein","postalCode":"99734","locality":"Nordhausen","municipality":{"key":"16062041","name":"Nordhausen, Stadt","type":"Stadt"},"district":{"key":"16062","name":"Nordhausen","type":"Landkreis"},"federalState":{"key":"16","name":"Thüringen"}},{"name":"Löbnitzstr.","postalCode":"99734","locality":"Nordhausen","municipality":{"key":"16062041","name":"Nordhausen, Stadt","type":"Stadt"},"district":{"key":"16062","name":"Nordhausen","type":"Landkreis"},"federalState":{"key":"16","name":"Thüringen"}},{"name":"Lohmarkt","postalCode":"99734","locality":"Nordhausen","municipality":{"key":"16062041","name":"Nordhausen, Stadt","type":"Stadt"},"district":{"key":"16062","name":"Nordhausen","type":"Landkreis"},"federalState":{"key":"16","name":"Thüringen"}},{"name":"Lokomotivenstr.","postalCode":"99734","locality":"Nordhausen","municipality":{"key":"16062041","name":"Nordhausen, Stadt","type":"Stadt"},"district":{"key":"16062","name":"Nordhausen","type":"Landkreis"},"federalState":{"key":"16","name":"Thüringen"}},{"name":"Lönsstr.","postalCode":"99734","locality":"Nordhausen","municipality":{"key":"16062041","name":"Nordhausen, Stadt","type":"Stadt"},"district":{"key":"16062","name":"Nordhausen","type":"Landkreis"},"federalState":{"key":"16","name":"Thüringen"}},{"name":"Ludolfingerstr.","postalCode":"99734","locality":"Nordhausen","municipality":{"key":"16062041","name":"Nordhausen, Stadt","type":"Stadt"},"district":{"key":"16062","name":"Nordhausen","type":"Landkreis"},"federalState":{"key":"16","name":"Thüringen"}},{"name":"Lutherborngasse","postalCode":"99195","locality":"Riethnordhausen","municipality":{"key":"16068044","name":"Riethnordhausen","type":"Kreisangehörige_Gemeinde"},"district":{"key":"16068","name":"Sömmerda","type":"Landkreis"},"federalState":{"key":"16","name":"Thüringen"}},{"name":"Lutherplatz","postalCode":"99734","locality":"Nordhausen","municipality":{"key":"16062041","name":"Nordhausen, Stadt","type":"Stadt"},"district":{"key":"16062","name":"Nordhausen","type":"Landkreis"},"federalState":{"key":"16","name":"Thüringen"}},{"name":"Lutherweg","postalCode":"99195","locality":"Riethnordhausen","municipality":{"key":"16068044","name":"Riethnordhausen","type":"Kreisangehörige_Gemeinde"},"district":{"key":"16068","name":"Sömmerda","type":"Landkreis"},"federalState":{"key":"16","name":"Thüringen"}},{"name":"Lützowstr.","postalCode":"99734","locality":"Nordhausen","municipality":{"key":"16062041","name":"Nordhausen, Stadt","type":"Stadt"},"district":{"key":"16062","name":"Nordhausen","type":"Landkreis"},"federalState":{"key":"16","name":"Thüringen"}},{"name":"Marienweg","postalCode":"99734","locality":"Nordhausen","municipality":{"key":"16062041","name":"Nordhausen, Stadt","type":"Stadt"},"district":{"key":"16062","name":"Nordhausen","type":"Landkreis"},"federalState":{"key":"16","name":"Thüringen"}},{"name":"Markt","postalCode":"99734","locality":"Nordhausen","municipality":{"key":"16062041","name":"Nordhausen, Stadt","type":"Stadt"},"district":{"key":"16062","name":"Nordhausen","type":"Landkreis"},"federalState":{"key":"16","name":"Thüringen"}},{"name":"Marktstr.","postalCode":"99734","locality":"Nordhausen","municipality":{"key":"16062041","name":"Nordhausen, Stadt","type":"Stadt"},"district":{"key":"16062","name":"Nordhausen","type":"Landkreis"},"federalState":{"key":"16","name":"Thüringen"}},{"name":"Martin-Niemöller-Str.","postalCode":"99734","locality":"Nordhausen","municipality":{"key":"16062041","name":"Nordhausen, Stadt","type":"Stadt"},"district":{"key":"16062","name":"Nordhausen","type":"Landkreis"},"federalState":{"key":"16","name":"Thüringen"}},{"name":"Martinstr.","postalCode":"99734","locality":"Nordhausen","municipality":{"key":"16062041","name":"Nordhausen, Stadt","type":"Stadt"},"district":{"key":"16062","name":"Nordhausen","type":"Landkreis"},"federalState":{"key":"16","name":"Thüringen"}},{"name":"Mathildenweg","postalCode":"99734","locality":"Nordhausen","municipality":{"key":"16062041","name":"Nordhausen, Stadt","type":"Stadt"},"district":{"key":"16062","name":"Nordhausen","type":"Landkreis"},"federalState":{"key":"16","name":"Thüringen"}},{"name":"Merowingerstr.","postalCode":"99734","locality":"Nordhausen","municipality":{"key":"16062041","name":"Nordhausen, Stadt","type":"Stadt"},"district":{"key":"16062","name":"Nordhausen","type":"Landkreis"},"federalState":{"key":"16","name":"Thüringen"}},{"name":"Meyenburgstr.","postalCode":"99734","locality":"Nordhausen","municipality":{"key":"16062041","name":"Nordhausen, Stadt","type":"Stadt"},"district":{"key":"16062","name":"Nordhausen","type":"Landkreis"},"federalState":{"key":"16","name":"Thüringen"}},{"name":"Mittelbergweg","postalCode":"99734","locality":"Nordhausen","municipality":{"key":"16062041","name":"Nordhausen, Stadt","type":"Stadt"},"district":{"key":"16062","name":"Nordhausen","type":"Landkreis"},"federalState":{"key":"16","name":"Thüringen"}},{"name":"Mittelstr.","postalCode":"99734","locality":"Nordhausen","municipality":{"key":"16062041","name":"Nordhausen, Stadt","type":"Stadt"},"district":{"key":"16062","name":"Nordhausen","type":"Landkreis"},"federalState":{"key":"16","name":"Thüringen"}},{"name":"Montaniastr.","postalCode":"99734","locality":"Nordhausen","municipality":{"key":"16062041","name":"Nordhausen, Stadt","type":"Stadt"},"district":{"key":"16062","name":"Nordhausen","type":"Landkreis"},"federalState":{"key":"16","name":"Thüringen"}},{"name":"Morgenröte","postalCode":"99734","locality":"Nordhausen","municipality":{"key":"16062041","name":"Nordhausen, Stadt","type":"Stadt"},"district":{"key":"16062","name":"Nordhausen","type":"Landkreis"},"federalState":{"key":"16","name":"Thüringen"}},{"name":"Motorenstr.","postalCode":"99734","locality":"Nordhausen","municipality":{"key":"16062041","name":"Nordhausen, Stadt","type":"Stadt"},"district":{"key":"16062","name":"Nordhausen","type":"Landkreis"},"federalState":{"key":"16","name":"Thüringen"}},{"name":"Mozartstr.","postalCode":"99734","locality":"Nordhausen","municipality":{"key":"16062041","name":"Nordhausen, Stadt","type":"Stadt"},"district":{"key":"16062","name":"Nordhausen","type":"Landkreis"},"federalState":{"key":"16","name":"Thüringen"}},{"name":"Mühle","postalCode":"99734","locality":"Nordhausen","municipality":{"key":"16062041","name":"Nordhausen, Stadt","type":"Stadt"},"district":{"key":"16062","name":"Nordhausen","type":"Landkreis"},"federalState":{"key":"16","name":"Thüringen"}},{"name":"Mühlenweg","postalCode":"99734","locality":"Nordhausen","municipality":{"key":"16062041","name":"Nordhausen, Stadt","type":"Stadt"},"district":{"key":"16062","name":"Nordhausen","type":"Landkreis"},"federalState":{"key":"16","name":"Thüringen"}},{"name":"Mühlgasse","postalCode":"99195","locality":"Riethnordhausen","municipality":{"key":"16068044","name":"Riethnordhausen","type":"Kreisangehörige_Gemeinde"},"district":{"key":"16068","name":"Sömmerda","type":"Landkreis"},"federalState":{"key":"16","name":"Thüringen"}},{"name":"Mühlhof","postalCode":"99734","locality":"Nordhausen","municipality":{"key":"16062041","name":"Nordhausen, Stadt","type":"Stadt"},"district":{"key":"16062","name":"Nordhausen","type":"Landkreis"},"federalState":{"key":"16","name":"Thüringen"}},{"name":"Mühlstr.","postalCode":"99734","locality":"Nordhausen","municipality":{"key":"16062041","name":"Nordhausen, Stadt","type":"Stadt"},"district":{"key":"16062","name":"Nordhausen","type":"Landkreis"},"federalState":{"key":"16","name":"Thüringen"}},{"name":"Nachtigallenpforte","postalCode":"99734","locality":"Nordhausen","municipality":{"key":"16062041","name":"Nordhausen, Stadt","type":"Stadt"},"district":{"key":"16062","name":"Nordhausen","type":"Landkreis"},"federalState":{"key":"16","name":"Thüringen"}},{"name":"Nachtigallenweg","postalCode":"99734","locality":"Nordhausen","municipality":{"key":"16062041","name":"Nordhausen, Stadt","type":"Stadt"},"district":{"key":"16062","name":"Nordhausen","type":"Landkreis"},"federalState":{"key":"16","name":"Thüringen"}},{"name":"Neanderstr.","postalCode":"99734","locality":"Nordhausen","municipality":{"key":"16062041","name":"Nordhausen, Stadt","type":"Stadt"},"district":{"key":"16062","name":"Nordhausen","type":"Landkreis"},"federalState":{"key":"16","name":"Thüringen"}},{"name":"Nelkenweg","postalCode":"99734","locality":"Nordhausen","municipality":{"key":"16062041","name":"Nordhausen, Stadt","type":"Stadt"},"district":{"key":"16062","name":"Nordhausen","type":"Landkreis"},"federalState":{"key":"16","name":"Thüringen"}},{"name":"Neue Dorfstr. I","postalCode":"99734","locality":"Nordhausen","municipality":{"key":"16062041","name":"Nordhausen, Stadt","type":"Stadt"},"district":{"key":"16062","name":"Nordhausen","type":"Landkreis"},"federalState":{"key":"16","name":"Thüringen"}},{"name":"Neue Dorfstr. II","postalCode":"99734","locality":"Nordhausen","municipality":{"key":"16062041","name":"Nordhausen, Stadt","type":"Stadt"},"district":{"key":"16062","name":"Nordhausen","type":"Landkreis"},"federalState":{"key":"16","name":"Thüringen"}},{"name":"Neue Reihe","postalCode":"99734","locality":"Nordhausen","municipality":{"key":"16062041","name":"Nordhausen, Stadt","type":"Stadt"},"district":{"key":"16062","name":"Nordhausen","type":"Landkreis"},"federalState":{"key":"16","name":"Thüringen"}},{"name":"Neuer Weg","postalCode":"99734","locality":"Nordhausen","municipality":{"key":"16062041","name":"Nordhausen, Stadt","type":"Stadt"},"district":{"key":"16062","name":"Nordhausen","type":"Landkreis"},"federalState":{"key":"16","name":"Thüringen"}},{"name":"Neue Str.","postalCode":"99734","locality":"Nordhausen","municipality":{"key":"16062041","name":"Nordhausen, Stadt","type":"Stadt"},"district":{"key":"16062","name":"Nordhausen","type":"Landkreis"},"federalState":{"key":"16","name":"Thüringen"}},{"name":"Neustädter Weg","postalCode":"99734","locality":"Nordhausen","municipality":{"key":"16062041","name":"Nordhausen, Stadt","type":"Stadt"},"district":{"key":"16062","name":"Nordhausen","type":"Landkreis"},"federalState":{"key":"16","name":"Thüringen"}},{"name":"Neustadtstr.","postalCode":"99734","locality":"Nordhausen","municipality":{"key":"16062041","name":"Nordhausen, Stadt","type":"Stadt"},"district":{"key":"16062","name":"Nordhausen","type":"Landkreis"},"federalState":{"key":"16","name":"Thüringen"}},{"name":"Nikolaiplatz","postalCode":"99734","locality":"Nordhausen","municipality":{"key":"16062041","name":"Nordhausen, Stadt","type":"Stadt"},"district":{"key":"16062","name":"Nordhausen","type":"Landkreis"},"federalState":{"key":"16","name":"Thüringen"}},{"name":"Nordhäuser Str.","postalCode":"99734","locality":"Nordhausen","municipality":{"key":"16062041","name":"Nordhausen, Stadt","type":"Stadt"},"district":{"key":"16062","name":"Nordhausen","type":"Landkreis"},"federalState":{"key":"16","name":"Thüringen"}},{"name":"Northeimer Str.","postalCode":"99734","locality":"Nordhausen","municipality":{"key":"16062041","name":"Nordhausen, Stadt","type":"Stadt"},"district":{"key":"16062","name":"Nordhausen","type":"Landkreis"},"federalState":{"key":"16","name":"Thüringen"}},{"name":"Nüxeier Str.","postalCode":"99734","locality":"Nordhausen","municipality":{"key":"16062041","name":"Nordhausen, Stadt","type":"Stadt"},"district":{"key":"16062","name":"Nordhausen","type":"Landkreis"},"federalState":{"key":"16","name":"Thüringen"}},{"name":"Obere Dorfstr.","postalCode":"99195","locality":"Riethnordhausen","municipality":{"key":"16068044","name":"Riethnordhausen","type":"Kreisangehörige_Gemeinde"},"district":{"key":"16068","name":"Sömmerda","type":"Landkreis"},"federalState":{"key":"16","name":"Thüringen"}},{"name":"Oskar-Cohn-Str.","postalCode":"99734","locality":"Nordhausen","municipality":{"key":"16062041","name":"Nordhausen, Stadt","type":"Stadt"},"district":{"key":"16062","name":"Nordhausen","type":"Landkreis"},"federalState":{"key":"16","name":"Thüringen"}},{"name":"Osteröder Landstr.","postalCode":"99734","locality":"Nordhausen","municipality":{"key":"16062041","name":"Nordhausen, Stadt","type":"Stadt"},"district":{"key":"16062","name":"Nordhausen","type":"Landkreis"},"federalState":{"key":"16","name":"Thüringen"}},{"name":"Ostrower Str.","postalCode":"99734","locality":"Nordhausen","municipality":{"key":"16062041","name":"Nordhausen, Stadt","type":"Stadt"},"district":{"key":"16062","name":"Nordhausen","type":"Landkreis"},"federalState":{"key":"16","name":"Thüringen"}},{"name":"Oststr.","postalCode":"99734","locality":"Nordhausen","municipality":{"key":"16062041","name":"Nordhausen, Stadt","type":"Stadt"},"district":{"key":"16062","name":"Nordhausen","type":"Landkreis"},"federalState":{"key":"16","name":"Thüringen"}},{"name":"Otto-Ludwig-Str.","postalCode":"99734","locality":"Nordhausen","municipality":{"key":"16062041","name":"Nordhausen, Stadt","type":"Stadt"},"district":{"key":"16062","name":"Nordhausen","type":"Landkreis"},"federalState":{"key":"16","name":"Thüringen"}},{"name":"Ottoweg","postalCode":"99734","locality":"Nordhausen","municipality":{"key":"16062041","name":"Nordhausen, Stadt","type":"Stadt"},"district":{"key":"16062","name":"Nordhausen","type":"Landkreis"},"federalState":{"key":"16","name":"Thüringen"}},{"name":"Parkallee","postalCode":"99734","locality":"Nordhausen","municipality":{"key":"16062041","name":"Nordhausen, Stadt","type":"Stadt"},"district":{"key":"16062","name":"Nordhausen","type":"Landkreis"},"federalState":{"key":"16","name":"Thüringen"}},{"name":"Park Hohenrode","postalCode":"99734","locality":"Nordhausen","municipality":{"key":"16062041","name":"Nordhausen, Stadt","type":"Stadt"},"district":{"key":"16062","name":"Nordhausen","type":"Landkreis"},"federalState":{"key":"16","name":"Thüringen"}},{"name":"Paul-Ernst-Str.","postalCode":"99734","locality":"Nordhausen","municipality":{"key":"16062041","name":"Nordhausen, Stadt","type":"Stadt"},"district":{"key":"16062","name":"Nordhausen","type":"Landkreis"},"federalState":{"key":"16","name":"Thüringen"}},{"name":"Paul-Schneider-Str.","postalCode":"99734","locality":"Nordhausen","municipality":{"key":"16062041","name":"Nordhausen, Stadt","type":"Stadt"},"district":{"key":"16062","name":"Nordhausen","type":"Landkreis"},"federalState":{"key":"16","name":"Thüringen"}},{"name":"Paul-Urban-Siedlung","postalCode":"99734","locality":"Nordhausen","municipality":{"key":"16062041","name":"Nordhausen, Stadt","type":"Stadt"},"district":{"key":"16062","name":"Nordhausen","type":"Landkreis"},"federalState":{"key":"16","name":"Thüringen"}},{"name":"Pestalozzistr.","postalCode":"99734","locality":"Nordhausen","municipality":{"key":"16062041","name":"Nordhausen, Stadt","type":"Stadt"},"district":{"key":"16062","name":"Nordhausen","type":"Landkreis"},"federalState":{"key":"16","name":"Thüringen"}},{"name":"Petersbergtreppe","postalCode":"99734","locality":"Nordhausen","municipality":{"key":"16062041","name":"Nordhausen, Stadt","type":"Stadt"},"district":{"key":"16062","name":"Nordhausen","type":"Landkreis"},"federalState":{"key":"16","name":"Thüringen"}},{"name":"Petersdorfer Str.","postalCode":"99734","locality":"Nordhausen","municipality":{"key":"16062041","name":"Nordhausen, Stadt","type":"Stadt"},"district":{"key":"16062","name":"Nordhausen","type":"Landkreis"},"federalState":{"key":"16","name":"Thüringen"}},{"name":"Petriblick","postalCode":"99734","locality":"Nordhausen","municipality":{"key":"16062041","name":"Nordhausen, Stadt","type":"Stadt"},"district":{"key":"16062","name":"Nordhausen","type":"Landkreis"},"federalState":{"key":"16","name":"Thüringen"}},{"name":"Pfaffengasse","postalCode":"99734","locality":"Nordhausen","municipality":{"key":"16062041","name":"Nordhausen, Stadt","type":"Stadt"},"district":{"key":"16062","name":"Nordhausen","type":"Landkreis"},"federalState":{"key":"16","name":"Thüringen"}},{"name":"Pfarrholz","postalCode":"99734","locality":"Nordhausen","municipality":{"key":"16062041","name":"Nordhausen, Stadt","type":"Stadt"},"district":{"key":"16062","name":"Nordhausen","type":"Landkreis"},"federalState":{"key":"16","name":"Thüringen"}},{"name":"Pfarrstr.","postalCode":"99734","locality":"Nordhausen","municipality":{"key":"16062041","name":"Nordhausen, Stadt","type":"Stadt"},"district":{"key":"16062","name":"Nordhausen","type":"Landkreis"},"federalState":{"key":"16","name":"Thüringen"}},{"name":"Pferdemarkt","postalCode":"99734","locality":"Nordhausen","municipality":{"key":"16062041","name":"Nordhausen, Stadt","type":"Stadt"},"district":{"key":"16062","name":"Nordhausen","type":"Landkreis"},"federalState":{"key":"16","name":"Thüringen"}},{"name":"Plan","postalCode":"99734","locality":"Nordhausen","municipality":{"key":"16062041","name":"Nordhausen, Stadt","type":"Stadt"},"district":{"key":"16062","name":"Nordhausen","type":"Landkreis"},"federalState":{"key":"16","name":"Thüringen"}},{"name":"Plangasse","postalCode":"99734","locality":"Nordhausen","municipality":{"key":"16062041","name":"Nordhausen, Stadt","type":"Stadt"},"district":{"key":"16062","name":"Nordhausen","type":"Landkreis"},"federalState":{"key":"16","name":"Thüringen"}},{"name":"Planweg","postalCode":"99734","locality":"Nordhausen","municipality":{"key":"16062041","name":"Nordhausen, Stadt","type":"Stadt"},"district":{"key":"16062","name":"Nordhausen","type":"Landkreis"},"federalState":{"key":"16","name":"Thüringen"}},{"name":"Platz der Gewerkschaften","postalCode":"99734","locality":"Nordhausen","municipality":{"key":"16062041","name":"Nordhausen, Stadt","type":"Stadt"},"district":{"key":"16062","name":"Nordhausen","type":"Landkreis"},"federalState":{"key":"16","name":"Thüringen"}},{"name":"Pliethstr.","postalCode":"99734","locality":"Nordhausen","municipality":{"key":"16062041","name":"Nordhausen, Stadt","type":"Stadt"},"district":{"key":"16062","name":"Nordhausen","type":"Landkreis"},"federalState":{"key":"16","name":"Thüringen"}},{"name":"Poppenbergweg","postalCode":"99734","locality":"Nordhausen","municipality":{"key":"16062041","name":"Nordhausen, Stadt","type":"Stadt"},"district":{"key":"16062","name":"Nordhausen","type":"Landkreis"},"federalState":{"key":"16","name":"Thüringen"}},{"name":"Poststr.","postalCode":"99734","locality":"Nordhausen","municipality":{"key":"16062041","name":"Nordhausen, Stadt","type":"Stadt"},"district":{"key":"16062","name":"Nordhausen","type":"Landkreis"},"federalState":{"key":"16","name":"Thüringen"}},{"name":"Predigerstr.","postalCode":"99734","locality":"Nordhausen","municipality":{"key":"16062041","name":"Nordhausen, Stadt","type":"Stadt"},"district":{"key":"16062","name":"Nordhausen","type":"Landkreis"},"federalState":{"key":"16","name":"Thüringen"}},{"name":"Primariusgraben","postalCode":"99734","locality":"Nordhausen","municipality":{"key":"16062041","name":"Nordhausen, Stadt","type":"Stadt"},"district":{"key":"16062","name":"Nordhausen","type":"Landkreis"},"federalState":{"key":"16","name":"Thüringen"}},{"name":"Promenade","postalCode":"99734","locality":"Nordhausen","municipality":{"key":"16062041","name":"Nordhausen, Stadt","type":"Stadt"},"district":{"key":"16062","name":"Nordhausen","type":"Landkreis"},"federalState":{"key":"16","name":"Thüringen"}},{"name":"Pulverhausweg","postalCode":"99734","locality":"Nordhausen","municipality":{"key":"16062041","name":"Nordhausen, Stadt","type":"Stadt"},"district":{"key":"16062","name":"Nordhausen","type":"Landkreis"},"federalState":{"key":"16","name":"Thüringen"}},{"name":"Pumpenweg","postalCode":"99734","locality":"Nordhausen","municipality":{"key":"16062041","name":"Nordhausen, Stadt","type":"Stadt"},"district":{"key":"16062","name":"Nordhausen","type":"Landkreis"},"federalState":{"key":"16","name":"Thüringen"}},{"name":"Querstr.","postalCode":"99734","locality":"Nordhausen","municipality":{"key":"16062041","name":"Nordhausen, Stadt","type":"Stadt"},"district":{"key":"16062","name":"Nordhausen","type":"Landkreis"},"federalState":{"key":"16","name":"Thüringen"}},{"name":"Rabenstieg","postalCode":"99734","locality":"Nordhausen","municipality":{"key":"16062041","name":"Nordhausen, Stadt","type":"Stadt"},"district":{"key":"16062","name":"Nordhausen","type":"Landkreis"},"federalState":{"key":"16","name":"Thüringen"}},{"name":"Rathsfelder Str.","postalCode":"99734","locality":"Nordhausen","municipality":{"key":"16062041","name":"Nordhausen, Stadt","type":"Stadt"},"district":{"key":"16062","name":"Nordhausen","type":"Landkreis"},"federalState":{"key":"16","name":"Thüringen"}},{"name":"Rautenstr.","postalCode":"99734","locality":"Nordhausen","municipality":{"key":"16062041","name":"Nordhausen, Stadt","type":"Stadt"},"district":{"key":"16062","name":"Nordhausen","type":"Landkreis"},"federalState":{"key":"16","name":"Thüringen"}},{"name":"Rechtes Hosenbein","postalCode":"99734","locality":"Nordhausen","municipality":{"key":"16062041","name":"Nordhausen, Stadt","type":"Stadt"},"district":{"key":"16062","name":"Nordhausen","type":"Landkreis"},"federalState":{"key":"16","name":"Thüringen"}},{"name":"Reichsstr.","postalCode":"99734","locality":"Nordhausen","municipality":{"key":"16062041","name":"Nordhausen, Stadt","type":"Stadt"},"district":{"key":"16062","name":"Nordhausen","type":"Landkreis"},"federalState":{"key":"16","name":"Thüringen"}},{"name":"Ricarda-Huch-Str.","postalCode":"99734","locality":"Nordhausen","municipality":{"key":"16062041","name":"Nordhausen, Stadt","type":"Stadt"},"district":{"key":"16062","name":"Nordhausen","type":"Landkreis"},"federalState":{"key":"16","name":"Thüringen"}},{"name":"Richard-Dehmel-Str.","postalCode":"99734","locality":"Nordhausen","municipality":{"key":"16062041","name":"Nordhausen, Stadt","type":"Stadt"},"district":{"key":"16062","name":"Nordhausen","type":"Landkreis"},"federalState":{"key":"16","name":"Thüringen"}},{"name":"Richard-Wagner-Str.","postalCode":"99734","locality":"Nordhausen","municipality":{"key":"16062041","name":"Nordhausen, Stadt","type":"Stadt"},"district":{"key":"16062","name":"Nordhausen","type":"Landkreis"},"federalState":{"key":"16","name":"Thüringen"}},{"name":"Riedgasse","postalCode":"99734","locality":"Nordhausen","municipality":{"key":"16062041","name":"Nordhausen, Stadt","type":"Stadt"},"district":{"key":"16062","name":"Nordhausen","type":"Landkreis"},"federalState":{"key":"16","name":"Thüringen"}},{"name":"Riedgraben","postalCode":"99734","locality":"Nordhausen","municipality":{"key":"16062041","name":"Nordhausen, Stadt","type":"Stadt"},"district":{"key":"16062","name":"Nordhausen","type":"Landkreis"},"federalState":{"key":"16","name":"Thüringen"}},{"name":"Riesleber Str.","postalCode":"99734","locality":"Nordhausen","municipality":{"key":"16062041","name":"Nordhausen, Stadt","type":"Stadt"},"district":{"key":"16062","name":"Nordhausen","type":"Landkreis"},"federalState":{"key":"16","name":"Thüringen"}},{"name":"Ringstr.","postalCode":"99734","locality":"Nordhausen","municipality":{"key":"16062041","name":"Nordhausen, Stadt","type":"Stadt"},"district":{"key":"16062","name":"Nordhausen","type":"Landkreis"},"federalState":{"key":"16","name":"Thüringen"}},{"name":"Rinnestr.","postalCode":"99734","locality":"Nordhausen","municipality":{"key":"16062041","name":"Nordhausen, Stadt","type":"Stadt"},"district":{"key":"16062","name":"Nordhausen","type":"Landkreis"},"federalState":{"key":"16","name":"Thüringen"}},{"name":"Rodegasse","postalCode":"99734","locality":"Nordhausen","municipality":{"key":"16062041","name":"Nordhausen, Stadt","type":"Stadt"},"district":{"key":"16062","name":"Nordhausen","type":"Landkreis"},"federalState":{"key":"16","name":"Thüringen"}},{"name":"Rodishainer Weg","postalCode":"99734","locality":"Nordhausen","municipality":{"key":"16062041","name":"Nordhausen, Stadt","type":"Stadt"},"district":{"key":"16062","name":"Nordhausen","type":"Landkreis"},"federalState":{"key":"16","name":"Thüringen"}},{"name":"Rolandstr.","postalCode":"99734","locality":"Nordhausen","municipality":{"key":"16062041","name":"Nordhausen, Stadt","type":"Stadt"},"district":{"key":"16062","name":"Nordhausen","type":"Landkreis"},"federalState":{"key":"16","name":"Thüringen"}},{"name":"Rolandsweg","postalCode":"99734","locality":"Nordhausen","municipality":{"key":"16062041","name":"Nordhausen, Stadt","type":"Stadt"},"district":{"key":"16062","name":"Nordhausen","type":"Landkreis"},"federalState":{"key":"16","name":"Thüringen"}},{"name":"Ronneberg","postalCode":"99734","locality":"Nordhausen","municipality":{"key":"16062041","name":"Nordhausen, Stadt","type":"Stadt"},"district":{"key":"16062","name":"Nordhausen","type":"Landkreis"},"federalState":{"key":"16","name":"Thüringen"}},{"name":"Rosa-Luxemburg-Str.","postalCode":"99734","locality":"Nordhausen","municipality":{"key":"16062041","name":"Nordhausen, Stadt","type":"Stadt"},"district":{"key":"16062","name":"Nordhausen","type":"Landkreis"},"federalState":{"key":"16","name":"Thüringen"}},{"name":"Rosenberg","postalCode":"99734","locality":"Nordhausen","municipality":{"key":"16062041","name":"Nordhausen, Stadt","type":"Stadt"},"district":{"key":"16062","name":"Nordhausen","type":"Landkreis"},"federalState":{"key":"16","name":"Thüringen"}},{"name":"Rosengarten","postalCode":"99734","locality":"Nordhausen","municipality":{"key":"16062041","name":"Nordhausen, Stadt","type":"Stadt"},"district":{"key":"16062","name":"Nordhausen","type":"Landkreis"},"federalState":{"key":"16","name":"Thüringen"}},{"name":"Rosengasse","postalCode":"99734","locality":"Nordhausen","municipality":{"key":"16062041","name":"Nordhausen, Stadt","type":"Stadt"},"district":{"key":"16062","name":"Nordhausen","type":"Landkreis"},"federalState":{"key":"16","name":"Thüringen"}},{"name":"Rosenstr.","postalCode":"99734","locality":"Nordhausen","municipality":{"key":"16062041","name":"Nordhausen, Stadt","type":"Stadt"},"district":{"key":"16062","name":"Nordhausen","type":"Landkreis"},"federalState":{"key":"16","name":"Thüringen"}},{"name":"Rosenweg","postalCode":"99734","locality":"Nordhausen","municipality":{"key":"16062041","name":"Nordhausen, Stadt","type":"Stadt"},"district":{"key":"16062","name":"Nordhausen","type":"Landkreis"},"federalState":{"key":"16","name":"Thüringen"}},{"name":"Rothenburgstr.","postalCode":"99734","locality":"Nordhausen","municipality":{"key":"16062041","name":"Nordhausen, Stadt","type":"Stadt"},"district":{"key":"16062","name":"Nordhausen","type":"Landkreis"},"federalState":{"key":"16","name":"Thüringen"}},{"name":"Rückertstr.","postalCode":"99734","locality":"Nordhausen","municipality":{"key":"16062041","name":"Nordhausen, Stadt","type":"Stadt"},"district":{"key":"16062","name":"Nordhausen","type":"Landkreis"},"federalState":{"key":"16","name":"Thüringen"}},{"name":"Rüdigsdorfer Str.","postalCode":"99734","locality":"Nordhausen","municipality":{"key":"16062041","name":"Nordhausen, Stadt","type":"Stadt"},"district":{"key":"16062","name":"Nordhausen","type":"Landkreis"},"federalState":{"key":"16","name":"Thüringen"}},{"name":"Rüdigsdorfer Weg","postalCode":"99734","locality":"Nordhausen","municipality":{"key":"16062041","name":"Nordhausen, Stadt","type":"Stadt"},"district":{"key":"16062","name":"Nordhausen","type":"Landkreis"},"federalState":{"key":"16","name":"Thüringen"}},{"name":"Rudolf-Breitscheid-Str.","postalCode":"99734","locality":"Nordhausen","municipality":{"key":"16062041","name":"Nordhausen, Stadt","type":"Stadt"},"district":{"key":"16062","name":"Nordhausen","type":"Landkreis"},"federalState":{"key":"16","name":"Thüringen"}},{"name":"Rudolf-Diesel-Str.","postalCode":"99734","locality":"Nordhausen","municipality":{"key":"16062041","name":"Nordhausen, Stadt","type":"Stadt"},"district":{"key":"16062","name":"Nordhausen","type":"Landkreis"},"federalState":{"key":"16","name":"Thüringen"}},{"name":"Rudolf-Leonhard-Str.","postalCode":"99734","locality":"Nordhausen","municipality":{"key":"16062041","name":"Nordhausen, Stadt","type":"Stadt"},"district":{"key":"16062","name":"Nordhausen","type":"Landkreis"},"federalState":{"key":"16","name":"Thüringen"}},{"name":"Sachsenhof","postalCode":"99734","locality":"Nordhausen","municipality":{"key":"16062041","name":"Nordhausen, Stadt","type":"Stadt"},"district":{"key":"16062","name":"Nordhausen","type":"Landkreis"},"federalState":{"key":"16","name":"Thüringen"}},{"name":"Sachsenweg","postalCode":"99734","locality":"Nordhausen","municipality":{"key":"16062041","name":"Nordhausen, Stadt","type":"Stadt"},"district":{"key":"16062","name":"Nordhausen","type":"Landkreis"},"federalState":{"key":"16","name":"Thüringen"}},{"name":"Salzaer Str.","postalCode":"99734","locality":"Nordhausen","municipality":{"key":"16062041","name":"Nordhausen, Stadt","type":"Stadt"},"district":{"key":"16062","name":"Nordhausen","type":"Landkreis"},"federalState":{"key":"16","name":"Thüringen"}},{"name":"Salzaquellweg","postalCode":"99734","locality":"Nordhausen","municipality":{"key":"16062041","name":"Nordhausen, Stadt","type":"Stadt"},"district":{"key":"16062","name":"Nordhausen","type":"Landkreis"},"federalState":{"key":"16","name":"Thüringen"}},{"name":"Sandstr.","postalCode":"99734","locality":"Nordhausen","municipality":{"key":"16062041","name":"Nordhausen, Stadt","type":"Stadt"},"district":{"key":"16062","name":"Nordhausen","type":"Landkreis"},"federalState":{"key":"16","name":"Thüringen"}},{"name":"Sangerhäuser Str.","postalCode":"99734","locality":"Nordhausen","municipality":{"key":"16062041","name":"Nordhausen, Stadt","type":"Stadt"},"district":{"key":"16062","name":"Nordhausen","type":"Landkreis"},"federalState":{"key":"16","name":"Thüringen"}},{"name":"Schärfgasse","postalCode":"99734","locality":"Nordhausen","municipality":{"key":"16062041","name":"Nordhausen, Stadt","type":"Stadt"},"district":{"key":"16062","name":"Nordhausen","type":"Landkreis"},"federalState":{"key":"16","name":"Thüringen"}},{"name":"Schenkegasse","postalCode":"99734","locality":"Nordhausen","municipality":{"key":"16062041","name":"Nordhausen, Stadt","type":"Stadt"},"district":{"key":"16062","name":"Nordhausen","type":"Landkreis"},"federalState":{"key":"16","name":"Thüringen"}},{"name":"Schenkendorfstr.","postalCode":"99734","locality":"Nordhausen","municipality":{"key":"16062041","name":"Nordhausen, Stadt","type":"Stadt"},"district":{"key":"16062","name":"Nordhausen","type":"Landkreis"},"federalState":{"key":"16","name":"Thüringen"}},{"name":"Schenkplatz","postalCode":"99734","locality":"Nordhausen","municipality":{"key":"16062041","name":"Nordhausen, Stadt","type":"Stadt"},"district":{"key":"16062","name":"Nordhausen","type":"Landkreis"},"federalState":{"key":"16","name":"Thüringen"}},{"name":"Schieferliethen","postalCode":"99734","locality":"Nordhausen","municipality":{"key":"16062041","name":"Nordhausen, Stadt","type":"Stadt"},"district":{"key":"16062","name":"Nordhausen","type":"Landkreis"},"federalState":{"key":"16","name":"Thüringen"}},{"name":"Schillerstr.","postalCode":"99734","locality":"Nordhausen","municipality":{"key":"16062041","name":"Nordhausen, Stadt","type":"Stadt"},"district":{"key":"16062","name":"Nordhausen","type":"Landkreis"},"federalState":{"key":"16","name":"Thüringen"}},{"name":"Schlehenweg","postalCode":"99195","locality":"Riethnordhausen","municipality":{"key":"16068044","name":"Riethnordhausen","type":"Kreisangehörige_Gemeinde"},"district":{"key":"16068","name":"Sömmerda","type":"Landkreis"},"federalState":{"key":"16","name":"Thüringen"}},{"name":"Schröterstr.","postalCode":"99734","locality":"Nordhausen","municipality":{"key":"16062041","name":"Nordhausen, Stadt","type":"Stadt"},"district":{"key":"16062","name":"Nordhausen","type":"Landkreis"},"federalState":{"key":"16","name":"Thüringen"}},{"name":"Schubertplatz","postalCode":"99734","locality":"Nordhausen","municipality":{"key":"16062041","name":"Nordhausen, Stadt","type":"Stadt"},"district":{"key":"16062","name":"Nordhausen","type":"Landkreis"},"federalState":{"key":"16","name":"Thüringen"}},{"name":"Schulplatz","postalCode":"99734","locality":"Nordhausen","municipality":{"key":"16062041","name":"Nordhausen, Stadt","type":"Stadt"},"district":{"key":"16062","name":"Nordhausen","type":"Landkreis"},"federalState":{"key":"16","name":"Thüringen"}},{"name":"Schulstr.","postalCode":"99734","locality":"Nordhausen","municipality":{"key":"16062041","name":"Nordhausen, Stadt","type":"Stadt"},"district":{"key":"16062","name":"Nordhausen","type":"Landkreis"},"federalState":{"key":"16","name":"Thüringen"}},{"name":"Schumannstr.","postalCode":"99734","locality":"Nordhausen","municipality":{"key":"16062041","name":"Nordhausen, Stadt","type":"Stadt"},"district":{"key":"16062","name":"Nordhausen","type":"Landkreis"},"federalState":{"key":"16","name":"Thüringen"}},{"name":"Schurzfell","postalCode":"99734","locality":"Nordhausen","municipality":{"key":"16062041","name":"Nordhausen, Stadt","type":"Stadt"},"district":{"key":"16062","name":"Nordhausen","type":"Landkreis"},"federalState":{"key":"16","name":"Thüringen"}},{"name":"Schwalbenweg","postalCode":"99734","locality":"Nordhausen","municipality":{"key":"16062041","name":"Nordhausen, Stadt","type":"Stadt"},"district":{"key":"16062","name":"Nordhausen","type":"Landkreis"},"federalState":{"key":"16","name":"Thüringen"}},{"name":"Schwarzer Weg","postalCode":"99734","locality":"Nordhausen","municipality":{"key":"16062041","name":"Nordhausen, Stadt","type":"Stadt"},"district":{"key":"16062","name":"Nordhausen","type":"Landkreis"},"federalState":{"key":"16","name":"Thüringen"}},{"name":"Seelochweg","postalCode":"99734","locality":"Nordhausen","municipality":{"key":"16062041","name":"Nordhausen, Stadt","type":"Stadt"},"district":{"key":"16062","name":"Nordhausen","type":"Landkreis"},"federalState":{"key":"16","name":"Thüringen"}},{"name":"Seestr.","postalCode":"99734","locality":"Nordhausen","municipality":{"key":"16062041","name":"Nordhausen, Stadt","type":"Stadt"},"district":{"key":"16062","name":"Nordhausen","type":"Landkreis"},"federalState":{"key":"16","name":"Thüringen"}},{"name":"Seetetriftweg","postalCode":"99734","locality":"Nordhausen","municipality":{"key":"16062041","name":"Nordhausen, Stadt","type":"Stadt"},"district":{"key":"16062","name":"Nordhausen","type":"Landkreis"},"federalState":{"key":"16","name":"Thüringen"}},{"name":"Semmelweisstr.","postalCode":"99734","locality":"Nordhausen","municipality":{"key":"16062041","name":"Nordhausen, Stadt","type":"Stadt"},"district":{"key":"16062","name":"Nordhausen","type":"Landkreis"},"federalState":{"key":"16","name":"Thüringen"}},{"name":"Siedlung","postalCode":"99734","locality":"Nordhausen","municipality":{"key":"16062041","name":"Nordhausen, Stadt","type":"Stadt"},"district":{"key":"16062","name":"Nordhausen","type":"Landkreis"},"federalState":{"key":"16","name":"Thüringen"}},{"name":"Siedlungsweg","postalCode":"99734","locality":"Nordhausen","municipality":{"key":"16062041","name":"Nordhausen, Stadt","type":"Stadt"},"district":{"key":"16062","name":"Nordhausen","type":"Landkreis"},"federalState":{"key":"16","name":"Thüringen"}},{"name":"Sondershäuser Str.","postalCode":"99734","locality":"Nordhausen","municipality":{"key":"16062041","name":"Nordhausen, Stadt","type":"Stadt"},"district":{"key":"16062","name":"Nordhausen","type":"Landkreis"},"federalState":{"key":"16","name":"Thüringen"}},{"name":"Sonnenwinkel","postalCode":"99734","locality":"Nordhausen","municipality":{"key":"16062041","name":"Nordhausen, Stadt","type":"Stadt"},"district":{"key":"16062","name":"Nordhausen","type":"Landkreis"},"federalState":{"key":"16","name":"Thüringen"}},{"name":"Spangenbergstr.","postalCode":"99734","locality":"Nordhausen","municipality":{"key":"16062041","name":"Nordhausen, Stadt","type":"Stadt"},"district":{"key":"16062","name":"Nordhausen","type":"Landkreis"},"federalState":{"key":"16","name":"Thüringen"}},{"name":"Speicherstr.","postalCode":"99734","locality":"Nordhausen","municipality":{"key":"16062041","name":"Nordhausen, Stadt","type":"Stadt"},"district":{"key":"16062","name":"Nordhausen","type":"Landkreis"},"federalState":{"key":"16","name":"Thüringen"}},{"name":"Sperbergasse","postalCode":"99734","locality":"Nordhausen","municipality":{"key":"16062041","name":"Nordhausen, Stadt","type":"Stadt"},"district":{"key":"16062","name":"Nordhausen","type":"Landkreis"},"federalState":{"key":"16","name":"Thüringen"}},{"name":"Sperlingsgasse","postalCode":"99734","locality":"Nordhausen","municipality":{"key":"16062041","name":"Nordhausen, Stadt","type":"Stadt"},"district":{"key":"16062","name":"Nordhausen","type":"Landkreis"},"federalState":{"key":"16","name":"Thüringen"}},{"name":"Spiegelstr.","postalCode":"99734","locality":"Nordhausen","municipality":{"key":"16062041","name":"Nordhausen, Stadt","type":"Stadt"},"district":{"key":"16062","name":"Nordhausen","type":"Landkreis"},"federalState":{"key":"16","name":"Thüringen"}},{"name":"Stadtpark","postalCode":"99734","locality":"Nordhausen","municipality":{"key":"16062041","name":"Nordhausen, Stadt","type":"Stadt"},"district":{"key":"16062","name":"Nordhausen","type":"Landkreis"},"federalState":{"key":"16","name":"Thüringen"}},{"name":"Steigerthäler Str.","postalCode":"99734","locality":"Nordhausen","municipality":{"key":"16062041","name":"Nordhausen, Stadt","type":"Stadt"},"district":{"key":"16062","name":"Nordhausen","type":"Landkreis"},"federalState":{"key":"16","name":"Thüringen"}},{"name":"Steigerthaler Weg","postalCode":"99734","locality":"Nordhausen","municipality":{"key":"16062041","name":"Nordhausen, Stadt","type":"Stadt"},"district":{"key":"16062","name":"Nordhausen","type":"Landkreis"},"federalState":{"key":"16","name":"Thüringen"}},{"name":"Steile","postalCode":"99734","locality":"Nordhausen","municipality":{"key":"16062041","name":"Nordhausen, Stadt","type":"Stadt"},"district":{"key":"16062","name":"Nordhausen","type":"Landkreis"},"federalState":{"key":"16","name":"Thüringen"}},{"name":"Steinbrücker Ring","postalCode":"99734","locality":"Nordhausen","municipality":{"key":"16062041","name":"Nordhausen, Stadt","type":"Stadt"},"district":{"key":"16062","name":"Nordhausen","type":"Landkreis"},"federalState":{"key":"16","name":"Thüringen"}},{"name":"Steinbrücker Weg","postalCode":"99734","locality":"Nordhausen","municipality":{"key":"16062041","name":"Nordhausen, Stadt","type":"Stadt"},"district":{"key":"16062","name":"Nordhausen","type":"Landkreis"},"federalState":{"key":"16","name":"Thüringen"}},{"name":"Steinfeld","postalCode":"99734","locality":"Nordhausen","municipality":{"key":"16062041","name":"Nordhausen, Stadt","type":"Stadt"},"district":{"key":"16062","name":"Nordhausen","type":"Landkreis"},"federalState":{"key":"16","name":"Thüringen"}},{"name":"Sternstr.","postalCode":"99734","locality":"Nordhausen","municipality":{"key":"16062041","name":"Nordhausen, Stadt","type":"Stadt"},"district":{"key":"16062","name":"Nordhausen","type":"Landkreis"},"federalState":{"key":"16","name":"Thüringen"}},{"name":"St.-Jacobi-Weg","postalCode":"99734","locality":"Nordhausen","municipality":{"key":"16062041","name":"Nordhausen, Stadt","type":"Stadt"},"district":{"key":"16062","name":"Nordhausen","type":"Landkreis"},"federalState":{"key":"16","name":"Thüringen"}},{"name":"St.-Katharina-Gasse","postalCode":"99734","locality":"Nordhausen","municipality":{"key":"16062041","name":"Nordhausen, Stadt","type":"Stadt"},"district":{"key":"16062","name":"Nordhausen","type":"Landkreis"},"federalState":{"key":"16","name":"Thüringen"}},{"name":"Stolberger Str.","postalCode":"99734","locality":"Nordhausen","municipality":{"key":"16062041","name":"Nordhausen, Stadt","type":"Stadt"},"district":{"key":"16062","name":"Nordhausen","type":"Landkreis"},"federalState":{"key":"16","name":"Thüringen"}},{"name":"Storchengasse","postalCode":"99734","locality":"Nordhausen","municipality":{"key":"16062041","name":"Nordhausen, Stadt","type":"Stadt"},"district":{"key":"16062","name":"Nordhausen","type":"Landkreis"},"federalState":{"key":"16","name":"Thüringen"}},{"name":"Strauchstieggasse","postalCode":"99195","locality":"Riethnordhausen","municipality":{"key":"16068044","name":"Riethnordhausen","type":"Kreisangehörige_Gemeinde"},"district":{"key":"16068","name":"Sömmerda","type":"Landkreis"},"federalState":{"key":"16","name":"Thüringen"}},{"name":"Str. der Einheit","postalCode":"99734","locality":"Nordhausen","municipality":{"key":"16062041","name":"Nordhausen, Stadt","type":"Stadt"},"district":{"key":"16062","name":"Nordhausen","type":"Landkreis"},"federalState":{"key":"16","name":"Thüringen"}},{"name":"Str. der Genossenschaften","postalCode":"99734","locality":"Nordhausen","municipality":{"key":"16062041","name":"Nordhausen, Stadt","type":"Stadt"},"district":{"key":"16062","name":"Nordhausen","type":"Landkreis"},"federalState":{"key":"16","name":"Thüringen"}},{"name":"Str. der Opfer des Faschismus","postalCode":"99734","locality":"Nordhausen","municipality":{"key":"16062041","name":"Nordhausen, Stadt","type":"Stadt"},"district":{"key":"16062","name":"Nordhausen","type":"Landkreis"},"federalState":{"key":"16","name":"Thüringen"}},{"name":"Tannenweg","postalCode":"99734","locality":"Nordhausen","municipality":{"key":"16062041","name":"Nordhausen, Stadt","type":"Stadt"},"district":{"key":"16062","name":"Nordhausen","type":"Landkreis"},"federalState":{"key":"16","name":"Thüringen"}},{"name":"Taschenberg","postalCode":"99734","locality":"Nordhausen","municipality":{"key":"16062041","name":"Nordhausen, Stadt","type":"Stadt"},"district":{"key":"16062","name":"Nordhausen","type":"Landkreis"},"federalState":{"key":"16","name":"Thüringen"}},{"name":"Taubengasse","postalCode":"99734","locality":"Nordhausen","municipality":{"key":"16062041","name":"Nordhausen, Stadt","type":"Stadt"},"district":{"key":"16062","name":"Nordhausen","type":"Landkreis"},"federalState":{"key":"16","name":"Thüringen"}},{"name":"Teichstr.","postalCode":"99734","locality":"Nordhausen","municipality":{"key":"16062041","name":"Nordhausen, Stadt","type":"Stadt"},"district":{"key":"16062","name":"Nordhausen","type":"Landkreis"},"federalState":{"key":"16","name":"Thüringen"}},{"name":"Theodor-Neubauer-Str.","postalCode":"99734","locality":"Nordhausen","municipality":{"key":"16062041","name":"Nordhausen, Stadt","type":"Stadt"},"district":{"key":"16062","name":"Nordhausen","type":"Landkreis"},"federalState":{"key":"16","name":"Thüringen"}},{"name":"Theodor-Storm-Str.","postalCode":"99734","locality":"Nordhausen","municipality":{"key":"16062041","name":"Nordhausen, Stadt","type":"Stadt"},"district":{"key":"16062","name":"Nordhausen","type":"Landkreis"},"federalState":{"key":"16","name":"Thüringen"}},{"name":"Thomas-Mann-Str.","postalCode":"99734","locality":"Nordhausen","municipality":{"key":"16062041","name":"Nordhausen, Stadt","type":"Stadt"},"district":{"key":"16062","name":"Nordhausen","type":"Landkreis"},"federalState":{"key":"16","name":"Thüringen"}},{"name":"Thomas-Müntzer-Str.","postalCode":"99734","locality":"Nordhausen","municipality":{"key":"16062041","name":"Nordhausen, Stadt","type":"Stadt"},"district":{"key":"16062","name":"Nordhausen","type":"Landkreis"},"federalState":{"key":"16","name":"Thüringen"}},{"name":"Thüringerstr.","postalCode":"99734","locality":"Nordhausen","municipality":{"key":"16062041","name":"Nordhausen, Stadt","type":"Stadt"},"district":{"key":"16062","name":"Nordhausen","type":"Landkreis"},"federalState":{"key":"16","name":"Thüringen"}},{"name":"Töpferstr.","postalCode":"99734","locality":"Nordhausen","municipality":{"key":"16062041","name":"Nordhausen, Stadt","type":"Stadt"},"district":{"key":"16062","name":"Nordhausen","type":"Landkreis"},"federalState":{"key":"16","name":"Thüringen"}},{"name":"Traktorenstr.","postalCode":"99734","locality":"Nordhausen","municipality":{"key":"16062041","name":"Nordhausen, Stadt","type":"Stadt"},"district":{"key":"16062","name":"Nordhausen","type":"Landkreis"},"federalState":{"key":"16","name":"Thüringen"}},{"name":"Trift","postalCode":"99734","locality":"Nordhausen","municipality":{"key":"16062041","name":"Nordhausen, Stadt","type":"Stadt"},"district":{"key":"16062","name":"Nordhausen","type":"Landkreis"},"federalState":{"key":"16","name":"Thüringen"}},{"name":"Uferstr.","postalCode":"99734","locality":"Nordhausen","municipality":{"key":"16062041","name":"Nordhausen, Stadt","type":"Stadt"},"district":{"key":"16062","name":"Nordhausen","type":"Landkreis"},"federalState":{"key":"16","name":"Thüringen"}},{"name":"Uhlandstr.","postalCode":"99734","locality":"Nordhausen","municipality":{"key":"16062041","name":"Nordhausen, Stadt","type":"Stadt"},"district":{"key":"16062","name":"Nordhausen","type":"Landkreis"},"federalState":{"key":"16","name":"Thüringen"}},{"name":"Ullrichstr.","postalCode":"99734","locality":"Nordhausen","municipality":{"key":"16062041","name":"Nordhausen, Stadt","type":"Stadt"},"district":{"key":"16062","name":"Nordhausen","type":"Landkreis"},"federalState":{"key":"16","name":"Thüringen"}},{"name":"Ulrich-von-Hutten-Str.","postalCode":"99734","locality":"Nordhausen","municipality":{"key":"16062041","name":"Nordhausen, Stadt","type":"Stadt"},"district":{"key":"16062","name":"Nordhausen","type":"Landkreis"},"federalState":{"key":"16","name":"Thüringen"}},{"name":"Unter dem Schellenberg","postalCode":"99734","locality":"Nordhausen","municipality":{"key":"16062041","name":"Nordhausen, Stadt","type":"Stadt"},"district":{"key":"16062","name":"Nordhausen","type":"Landkreis"},"federalState":{"key":"16","name":"Thüringen"}},{"name":"Untere Dorfstr.","postalCode":"99195","locality":"Riethnordhausen","municipality":{"key":"16068044","name":"Riethnordhausen","type":"Kreisangehörige_Gemeinde"},"district":{"key":"16068","name":"Sömmerda","type":"Landkreis"},"federalState":{"key":"16","name":"Thüringen"}},{"name":"Uthleber Str.","postalCode":"99734","locality":"Nordhausen","municipality":{"key":"16062041","name":"Nordhausen, Stadt","type":"Stadt"},"district":{"key":"16062","name":"Nordhausen","type":"Landkreis"},"federalState":{"key":"16","name":"Thüringen"}},{"name":"Uthleber Weg","postalCode":"99734","locality":"Nordhausen","municipality":{"key":"16062041","name":"Nordhausen, Stadt","type":"Stadt"},"district":{"key":"16062","name":"Nordhausen","type":"Landkreis"},"federalState":{"key":"16","name":"Thüringen"}},{"name":"Van-der-Foehr-Damm","postalCode":"99734","locality":"Nordhausen","municipality":{"key":"16062041","name":"Nordhausen, Stadt","type":"Stadt"},"district":{"key":"16062","name":"Nordhausen","type":"Landkreis"},"federalState":{"key":"16","name":"Thüringen"}},{"name":"Veilchengasse","postalCode":"99734","locality":"Nordhausen","municipality":{"key":"16062041","name":"Nordhausen, Stadt","type":"Stadt"},"district":{"key":"16062","name":"Nordhausen","type":"Landkreis"},"federalState":{"key":"16","name":"Thüringen"}},{"name":"Verlobungsweg","postalCode":"99734","locality":"Nordhausen","municipality":{"key":"16062041","name":"Nordhausen, Stadt","type":"Stadt"},"district":{"key":"16062","name":"Nordhausen","type":"Landkreis"},"federalState":{"key":"16","name":"Thüringen"}},{"name":"Vogelherd","postalCode":"99734","locality":"Nordhausen","municipality":{"key":"16062041","name":"Nordhausen, Stadt","type":"Stadt"},"district":{"key":"16062","name":"Nordhausen","type":"Landkreis"},"federalState":{"key":"16","name":"Thüringen"}},{"name":"Vor dem Brommelsberg","postalCode":"99734","locality":"Nordhausen","municipality":{"key":"16062041","name":"Nordhausen, Stadt","type":"Stadt"},"district":{"key":"16062","name":"Nordhausen","type":"Landkreis"},"federalState":{"key":"16","name":"Thüringen"}},{"name":"Vor dem Dorf","postalCode":"99734","locality":"Nordhausen","municipality":{"key":"16062041","name":"Nordhausen, Stadt","type":"Stadt"},"district":{"key":"16062","name":"Nordhausen","type":"Landkreis"},"federalState":{"key":"16","name":"Thüringen"}},{"name":"Vor dem Hagentor","postalCode":"99734","locality":"Nordhausen","municipality":{"key":"16062041","name":"Nordhausen, Stadt","type":"Stadt"},"district":{"key":"16062","name":"Nordhausen","type":"Landkreis"},"federalState":{"key":"16","name":"Thüringen"}},{"name":"Vor dem Hammer","postalCode":"99734","locality":"Nordhausen","municipality":{"key":"16062041","name":"Nordhausen, Stadt","type":"Stadt"},"district":{"key":"16062","name":"Nordhausen","type":"Landkreis"},"federalState":{"key":"16","name":"Thüringen"}},{"name":"Vor dem Mühlentor","postalCode":"99734","locality":"Nordhausen","municipality":{"key":"16062041","name":"Nordhausen, Stadt","type":"Stadt"},"district":{"key":"16062","name":"Nordhausen","type":"Landkreis"},"federalState":{"key":"16","name":"Thüringen"}},{"name":"Vor dem Vogel","postalCode":"99734","locality":"Nordhausen","municipality":{"key":"16062041","name":"Nordhausen, Stadt","type":"Stadt"},"district":{"key":"16062","name":"Nordhausen","type":"Landkreis"},"federalState":{"key":"16","name":"Thüringen"}},{"name":"Vorwerk","postalCode":"99734","locality":"Nordhausen","municipality":{"key":"16062041","name":"Nordhausen, Stadt","type":"Stadt"},"district":{"key":"16062","name":"Nordhausen","type":"Landkreis"},"federalState":{"key":"16","name":"Thüringen"}},{"name":"Waisenstr.","postalCode":"99734","locality":"Nordhausen","municipality":{"key":"16062041","name":"Nordhausen, Stadt","type":"Stadt"},"district":{"key":"16062","name":"Nordhausen","type":"Landkreis"},"federalState":{"key":"16","name":"Thüringen"}},{"name":"Waldstr.","postalCode":"99734","locality":"Nordhausen","municipality":{"key":"16062041","name":"Nordhausen, Stadt","type":"Stadt"},"district":{"key":"16062","name":"Nordhausen","type":"Landkreis"},"federalState":{"key":"16","name":"Thüringen"}},{"name":"Wallrothstr.","postalCode":"99734","locality":"Nordhausen","municipality":{"key":"16062041","name":"Nordhausen, Stadt","type":"Stadt"},"district":{"key":"16062","name":"Nordhausen","type":"Landkreis"},"federalState":{"key":"16","name":"Thüringen"}},{"name":"Walschlebener Str.","postalCode":"99195","locality":"Riethnordhausen","municipality":{"key":"16068044","name":"Riethnordhausen","type":"Kreisangehörige_Gemeinde"},"district":{"key":"16068","name":"Sömmerda","type":"Landkreis"},"federalState":{"key":"16","name":"Thüringen"}},{"name":"Walther-Rathenau-Str.","postalCode":"99734","locality":"Nordhausen","municipality":{"key":"16062041","name":"Nordhausen, Stadt","type":"Stadt"},"district":{"key":"16062","name":"Nordhausen","type":"Landkreis"},"federalState":{"key":"16","name":"Thüringen"}},{"name":"Weberstr.","postalCode":"99734","locality":"Nordhausen","municipality":{"key":"16062041","name":"Nordhausen, Stadt","type":"Stadt"},"district":{"key":"16062","name":"Nordhausen","type":"Landkreis"},"federalState":{"key":"16","name":"Thüringen"}},{"name":"Wehrstr.","postalCode":"99734","locality":"Nordhausen","municipality":{"key":"16062041","name":"Nordhausen, Stadt","type":"Stadt"},"district":{"key":"16062","name":"Nordhausen","type":"Landkreis"},"federalState":{"key":"16","name":"Thüringen"}},{"name":"Weidenstr.","postalCode":"99734","locality":"Nordhausen","municipality":{"key":"16062041","name":"Nordhausen, Stadt","type":"Stadt"},"district":{"key":"16062","name":"Nordhausen","type":"Landkreis"},"federalState":{"key":"16","name":"Thüringen"}},{"name":"Weidenweg","postalCode":"99195","locality":"Riethnordhausen","municipality":{"key":"16068044","name":"Riethnordhausen","type":"Kreisangehörige_Gemeinde"},"district":{"key":"16068","name":"Sömmerda","type":"Landkreis"},"federalState":{"key":"16","name":"Thüringen"}},{"name":"Weinberg","postalCode":"99734","locality":"Nordhausen","municipality":{"key":"16062041","name":"Nordhausen, Stadt","type":"Stadt"},"district":{"key":"16062","name":"Nordhausen","type":"Landkreis"},"federalState":{"key":"16","name":"Thüringen"}},{"name":"Weinberghof","postalCode":"99734","locality":"Nordhausen","municipality":{"key":"16062041","name":"Nordhausen, Stadt","type":"Stadt"},"district":{"key":"16062","name":"Nordhausen","type":"Landkreis"},"federalState":{"key":"16","name":"Thüringen"}},{"name":"Welfenweg","postalCode":"99734","locality":"Nordhausen","municipality":{"key":"16062041","name":"Nordhausen, Stadt","type":"Stadt"},"district":{"key":"16062","name":"Nordhausen","type":"Landkreis"},"federalState":{"key":"16","name":"Thüringen"}},{"name":"Wendenstr.","postalCode":"99734","locality":"Nordhausen","municipality":{"key":"16062041","name":"Nordhausen, Stadt","type":"Stadt"},"district":{"key":"16062","name":"Nordhausen","type":"Landkreis"},"federalState":{"key":"16","name":"Thüringen"}},{"name":"Wernigeröder Str.","postalCode":"99734","locality":"Nordhausen","municipality":{"key":"16062041","name":"Nordhausen, Stadt","type":"Stadt"},"district":{"key":"16062","name":"Nordhausen","type":"Landkreis"},"federalState":{"key":"16","name":"Thüringen"}},{"name":"Wertherstr.","postalCode":"99734","locality":"Nordhausen","municipality":{"key":"16062041","name":"Nordhausen, Stadt","type":"Stadt"},"district":{"key":"16062","name":"Nordhausen","type":"Landkreis"},"federalState":{"key":"16","name":"Thüringen"}},{"name":"Wiedigsburg","postalCode":"99734","locality":"Nordhausen","municipality":{"key":"16062041","name":"Nordhausen, Stadt","type":"Stadt"},"district":{"key":"16062","name":"Nordhausen","type":"Landkreis"},"federalState":{"key":"16","name":"Thüringen"}},{"name":"Wiesenweg","postalCode":"99734","locality":"Nordhausen","municipality":{"key":"16062041","name":"Nordhausen, Stadt","type":"Stadt"},"district":{"key":"16062","name":"Nordhausen","type":"Landkreis"},"federalState":{"key":"16","name":"Thüringen"}},{"name":"Wilhelm-Carl-Schreiber-Str.","postalCode":"99734","locality":"Nordhausen","municipality":{"key":"16062041","name":"Nordhausen, Stadt","type":"Stadt"},"district":{"key":"16062","name":"Nordhausen","type":"Landkreis"},"federalState":{"key":"16","name":"Thüringen"}},{"name":"Wilhelm-Nebelung-Str.","postalCode":"99734","locality":"Nordhausen","municipality":{"key":"16062041","name":"Nordhausen, Stadt","type":"Stadt"},"district":{"key":"16062","name":"Nordhausen","type":"Landkreis"},"federalState":{"key":"16","name":"Thüringen"}},{"name":"Wilhelm-Pieck-Str.","postalCode":"99734","locality":"Nordhausen","municipality":{"key":"16062041","name":"Nordhausen, Stadt","type":"Stadt"},"district":{"key":"16062","name":"Nordhausen","type":"Landkreis"},"federalState":{"key":"16","name":"Thüringen"}},{"name":"Wilhelm-Raabe-Str.","postalCode":"99734","locality":"Nordhausen","municipality":{"key":"16062041","name":"Nordhausen, Stadt","type":"Stadt"},"district":{"key":"16062","name":"Nordhausen","type":"Landkreis"},"federalState":{"key":"16","name":"Thüringen"}},{"name":"Wilhelmstr.","postalCode":"99734","locality":"Nordhausen","municipality":{"key":"16062041","name":"Nordhausen, Stadt","type":"Stadt"},"district":{"key":"16062","name":"Nordhausen","type":"Landkreis"},"federalState":{"key":"16","name":"Thüringen"}},{"name":"Willi-Schmidt-Str.","postalCode":"99734","locality":"Nordhausen","municipality":{"key":"16062041","name":"Nordhausen, Stadt","type":"Stadt"},"district":{"key":"16062","name":"Nordhausen","type":"Landkreis"},"federalState":{"key":"16","name":"Thüringen"}},{"name":"Windische Lache","postalCode":"99195","locality":"Riethnordhausen","municipality":{"key":"16068044","name":"Riethnordhausen","type":"Kreisangehörige_Gemeinde"},"district":{"key":"16068","name":"Sömmerda","type":"Landkreis"},"federalState":{"key":"16","name":"Thüringen"}},{"name":"Windlücke","postalCode":"99734","locality":"Nordhausen","municipality":{"key":"16062041","name":"Nordhausen, Stadt","type":"Stadt"},"district":{"key":"16062","name":"Nordhausen","type":"Landkreis"},"federalState":{"key":"16","name":"Thüringen"}},{"name":"Windlücker Weg","postalCode":"99734","locality":"Nordhausen","municipality":{"key":"16062041","name":"Nordhausen, Stadt","type":"Stadt"},"district":{"key":"16062","name":"Nordhausen","type":"Landkreis"},"federalState":{"key":"16","name":"Thüringen"}},{"name":"Winkelberg","postalCode":"99734","locality":"Nordhausen","municipality":{"key":"16062041","name":"Nordhausen, Stadt","type":"Stadt"},"district":{"key":"16062","name":"Nordhausen","type":"Landkreis"},"federalState":{"key":"16","name":"Thüringen"}},{"name":"Wolfsgasse","postalCode":"99734","locality":"Nordhausen","municipality":{"key":"16062041","name":"Nordhausen, Stadt","type":"Stadt"},"district":{"key":"16062","name":"Nordhausen","type":"Landkreis"},"federalState":{"key":"16","name":"Thüringen"}},{"name":"Wolfstr.","postalCode":"99734","locality":"Nordhausen","municipality":{"key":"16062041","name":"Nordhausen, Stadt","type":"Stadt"},"district":{"key":"16062","name":"Nordhausen","type":"Landkreis"},"federalState":{"key":"16","name":"Thüringen"}},{"name":"Yorckstr.","postalCode":"99734","locality":"Nordhausen","municipality":{"key":"16062041","name":"Nordhausen, Stadt","type":"Stadt"},"district":{"key":"16062","name":"Nordhausen","type":"Landkreis"},"federalState":{"key":"16","name":"Thüringen"}},{"name":"Zeppelinweg","postalCode":"99734","locality":"Nordhausen","municipality":{"key":"16062041","name":"Nordhausen, Stadt","type":"Stadt"},"district":{"key":"16062","name":"Nordhausen","type":"Landkreis"},"federalState":{"key":"16","name":"Thüringen"}},{"name":"Zorgelandstr.","postalCode":"99734","locality":"Nordhausen","municipality":{"key":"16062041","name":"Nordhausen, Stadt","type":"Stadt"},"district":{"key":"16062","name":"Nordhausen","type":"Landkreis"},"federalState":{"key":"16","name":"Thüringen"}},{"name":"Zorgestr.","postalCode":"99734","locality":"Nordhausen","municipality":{"key":"16062041","name":"Nordhausen, Stadt","type":"Stadt"},"district":{"key":"16062","name":"Nordhausen","type":"Landkreis"},"federalState":{"key":"16","name":"Thüringen"}},{"name":"Zuckerweg","postalCode":"99734","locality":"Nordhausen","municipality":{"key":"16062041","name":"Nordhausen, Stadt","type":"Stadt"},"district":{"key":"16062","name":"Nordhausen","type":"Landkreis"},"federalState":{"key":"16","name":"Thüringen"}},{"name":"Zu den Glockensteinen","postalCode":"99734","locality":"Nordhausen","municipality":{"key":"16062041","name":"Nordhausen, Stadt","type":"Stadt"},"district":{"key":"16062","name":"Nordhausen","type":"Landkreis"},"federalState":{"key":"16","name":"Thüringen"}},{"name":"Zu den Steinkreuzen","postalCode":"99734","locality":"Nordhausen","municipality":{"key":"16062041","name":"Nordhausen, Stadt","type":"Stadt"},"district":{"key":"16062","name":"Nordhausen","type":"Landkreis"},"federalState":{"key":"16","name":"Thüringen"}},{"name":"Zum alten Sportplatz","postalCode":"99195","locality":"Riethnordhausen","municipality":{"key":"16068044","name":"Riethnordhausen","type":"Kreisangehörige_Gemeinde"},"district":{"key":"16068","name":"Sömmerda","type":"Landkreis"},"federalState":{"key":"16","name":"Thüringen"}},{"name":"Zum Alten Stolberg","postalCode":"99734","locality":"Nordhausen","municipality":{"key":"16062041","name":"Nordhausen, Stadt","type":"Stadt"},"district":{"key":"16062","name":"Nordhausen","type":"Landkreis"},"federalState":{"key":"16","name":"Thüringen"}},{"name":"Zum Eichenforst","postalCode":"99734","locality":"Nordhausen","municipality":{"key":"16062041","name":"Nordhausen, Stadt","type":"Stadt"},"district":{"key":"16062","name":"Nordhausen","type":"Landkreis"},"federalState":{"key":"16","name":"Thüringen"}},{"name":"Zum Felde","postalCode":"99734","locality":"Nordhausen","municipality":{"key":"16062041","name":"Nordhausen, Stadt","type":"Stadt"},"district":{"key":"16062","name":"Nordhausen","type":"Landkreis"},"federalState":{"key":"16","name":"Thüringen"}},{"name":"Zum Gumpetal","postalCode":"99734","locality":"Nordhausen","municipality":{"key":"16062041","name":"Nordhausen, Stadt","type":"Stadt"},"district":{"key":"16062","name":"Nordhausen","type":"Landkreis"},"federalState":{"key":"16","name":"Thüringen"}},{"name":"Zum Käsperschen Grund","postalCode":"99734","locality":"Nordhausen","municipality":{"key":"16062041","name":"Nordhausen, Stadt","type":"Stadt"},"district":{"key":"16062","name":"Nordhausen","type":"Landkreis"},"federalState":{"key":"16","name":"Thüringen"}},{"name":"Zum Kromberg","postalCode":"99734","locality":"Nordhausen","municipality":{"key":"16062041","name":"Nordhausen, Stadt","type":"Stadt"},"district":{"key":"16062","name":"Nordhausen","type":"Landkreis"},"federalState":{"key":"16","name":"Thüringen"}},{"name":"Zum Mäusetal","postalCode":"99734","locality":"Nordhausen","municipality":{"key":"16062041","name":"Nordhausen, Stadt","type":"Stadt"},"district":{"key":"16062","name":"Nordhausen","type":"Landkreis"},"federalState":{"key":"16","name":"Thüringen"}},{"name":"Zum Rittertal","postalCode":"99734","locality":"Nordhausen","municipality":{"key":"16062041","name":"Nordhausen, Stadt","type":"Stadt"},"district":{"key":"16062","name":"Nordhausen","type":"Landkreis"},"federalState":{"key":"16","name":"Thüringen"}},{"name":"Zum Sattelkopf","postalCode":"99734","locality":"Nordhausen","municipality":{"key":"16062041","name":"Nordhausen, Stadt","type":"Stadt"},"district":{"key":"16062","name":"Nordhausen","type":"Landkreis"},"federalState":{"key":"16","name":"Thüringen"}},{"name":"Zum Schmiedetor","postalCode":"99734","locality":"Nordhausen","municipality":{"key":"16062041","name":"Nordhausen, Stadt","type":"Stadt"},"district":{"key":"16062","name":"Nordhausen","type":"Landkreis"},"federalState":{"key":"16","name":"Thüringen"}},{"name":"Zum Schützenhaus","postalCode":"99734","locality":"Nordhausen","municipality":{"key":"16062041","name":"Nordhausen, Stadt","type":"Stadt"},"district":{"key":"16062","name":"Nordhausen","type":"Landkreis"},"federalState":{"key":"16","name":"Thüringen"}},{"name":"Zum Siegen","postalCode":"99734","locality":"Nordhausen","municipality":{"key":"16062041","name":"Nordhausen, Stadt","type":"Stadt"},"district":{"key":"16062","name":"Nordhausen","type":"Landkreis"},"federalState":{"key":"16","name":"Thüringen"}},{"name":"Zum Stadtberg","postalCode":"99734","locality":"Nordhausen","municipality":{"key":"16062041","name":"Nordhausen, Stadt","type":"Stadt"},"district":{"key":"16062","name":"Nordhausen","type":"Landkreis"},"federalState":{"key":"16","name":"Thüringen"}},{"name":"Zum Stöckerberg","postalCode":"99734","locality":"Nordhausen","municipality":{"key":"16062041","name":"Nordhausen, Stadt","type":"Stadt"},"district":{"key":"16062","name":"Nordhausen","type":"Landkreis"},"federalState":{"key":"16","name":"Thüringen"}},{"name":"Zum Wolfental","postalCode":"99734","locality":"Nordhausen","municipality":{"key":"16062041","name":"Nordhausen, Stadt","type":"Stadt"},"district":{"key":"16062","name":"Nordhausen","type":"Landkreis"},"federalState":{"key":"16","name":"Thüringen"}},{"name":"Zum Ziegental","postalCode":"99734","locality":"Nordhausen","municipality":{"key":"16062041","name":"Nordhausen, Stadt","type":"Stadt"},"district":{"key":"16062","name":"Nordhausen","type":"Landkreis"},"federalState":{"key":"16","name":"Thüringen"}},{"name":"Zur Eiche","postalCode":"99734","locality":"Nordhausen","municipality":{"key":"16062041","name":"Nordhausen, Stadt","type":"Stadt"},"district":{"key":"16062","name":"Nordhausen","type":"Landkreis"},"federalState":{"key":"16","name":"Thüringen"}},{"name":"Zur Obermühle","postalCode":"99195","locality":"Riethnordhausen","municipality":{"key":"16068044","name":"Riethnordhausen","type":"Kreisangehörige_Gemeinde"},"district":{"key":"16068","name":"Sömmerda","type":"Landkreis"},"federalState":{"key":"16","name":"Thüringen"}},{"name":"Zur Schönen Aussicht","postalCode":"99734","locality":"Nordhausen","municipality":{"key":"16062041","name":"Nordhausen, Stadt","type":"Stadt"},"district":{"key":"16062","name":"Nordhausen","type":"Landkreis"},"federalState":{"key":"16","name":"Thüringen"}},{"name":"Zur Wolfsmühle","postalCode":"99734","locality":"Nordhausen","municipality":{"key":"16062041","name":"Nordhausen, Stadt","type":"Stadt"},"district":{"key":"16062","name":"Nordhausen","type":"Landkreis"},"federalState":{"key":"16","name":"Thüringen"}},]