[{"name":"Alpenstr.","postalCode":"82281","locality":"Egenhofen","municipality":{"key":"09179117","name":"Egenhofen","type":"Kreisangehörige_Gemeinde"},"district":{"key":"09179","name":"Fürstenfeldbruck","type":"Landkreis"},"federalState":{"key":"09","name":"Bayern"}},{"name":"Am Anger","postalCode":"82281","locality":"Egenhofen","municipality":{"key":"09179117","name":"Egenhofen","type":"Kreisangehörige_Gemeinde"},"district":{"key":"09179","name":"Fürstenfeldbruck","type":"Landkreis"},"federalState":{"key":"09","name":"Bayern"}},{"name":"Am Gartenfeld","postalCode":"82281","locality":"Egenhofen","municipality":{"key":"09179117","name":"Egenhofen","type":"Kreisangehörige_Gemeinde"},"district":{"key":"09179","name":"Fürstenfeldbruck","type":"Landkreis"},"federalState":{"key":"09","name":"Bayern"}},{"name":"Am Hang","postalCode":"82281","locality":"Egenhofen","municipality":{"key":"09179117","name":"Egenhofen","type":"Kreisangehörige_Gemeinde"},"district":{"key":"09179","name":"Fürstenfeldbruck","type":"Landkreis"},"federalState":{"key":"09","name":"Bayern"}},{"name":"Am Lindenfeld","postalCode":"82281","locality":"Egenhofen","municipality":{"key":"09179117","name":"Egenhofen","type":"Kreisangehörige_Gemeinde"},"district":{"key":"09179","name":"Fürstenfeldbruck","type":"Landkreis"},"federalState":{"key":"09","name":"Bayern"}},{"name":"Am Mühlberg","postalCode":"82281","locality":"Egenhofen","municipality":{"key":"09179117","name":"Egenhofen","type":"Kreisangehörige_Gemeinde"},"district":{"key":"09179","name":"Fürstenfeldbruck","type":"Landkreis"},"federalState":{"key":"09","name":"Bayern"}},{"name":"Am Reitersberg","postalCode":"82281","locality":"Egenhofen","municipality":{"key":"09179117","name":"Egenhofen","type":"Kreisangehörige_Gemeinde"},"district":{"key":"09179","name":"Fürstenfeldbruck","type":"Landkreis"},"federalState":{"key":"09","name":"Bayern"}},{"name":"Am Schreinerberg","postalCode":"82281","locality":"Egenhofen","municipality":{"key":"09179117","name":"Egenhofen","type":"Kreisangehörige_Gemeinde"},"district":{"key":"09179","name":"Fürstenfeldbruck","type":"Landkreis"},"federalState":{"key":"09","name":"Bayern"}},{"name":"Am Selzer","postalCode":"82281","locality":"Egenhofen","municipality":{"key":"09179117","name":"Egenhofen","type":"Kreisangehörige_Gemeinde"},"district":{"key":"09179","name":"Fürstenfeldbruck","type":"Landkreis"},"federalState":{"key":"09","name":"Bayern"}},{"name":"Baarerstr.","postalCode":"82281","locality":"Egenhofen","municipality":{"key":"09179117","name":"Egenhofen","type":"Kreisangehörige_Gemeinde"},"district":{"key":"09179","name":"Fürstenfeldbruck","type":"Landkreis"},"federalState":{"key":"09","name":"Bayern"}},{"name":"Bachweg","postalCode":"82281","locality":"Egenhofen","municipality":{"key":"09179117","name":"Egenhofen","type":"Kreisangehörige_Gemeinde"},"district":{"key":"09179","name":"Fürstenfeldbruck","type":"Landkreis"},"federalState":{"key":"09","name":"Bayern"}},{"name":"Bäckerweg","postalCode":"82281","locality":"Egenhofen","municipality":{"key":"09179117","name":"Egenhofen","type":"Kreisangehörige_Gemeinde"},"district":{"key":"09179","name":"Fürstenfeldbruck","type":"Landkreis"},"federalState":{"key":"09","name":"Bayern"}},{"name":"Benzstr.","postalCode":"82281","locality":"Egenhofen","municipality":{"key":"09179117","name":"Egenhofen","type":"Kreisangehörige_Gemeinde"},"district":{"key":"09179","name":"Fürstenfeldbruck","type":"Landkreis"},"federalState":{"key":"09","name":"Bayern"}},{"name":"Bergstr.","postalCode":"82281","locality":"Egenhofen","municipality":{"key":"09179117","name":"Egenhofen","type":"Kreisangehörige_Gemeinde"},"district":{"key":"09179","name":"Fürstenfeldbruck","type":"Landkreis"},"federalState":{"key":"09","name":"Bayern"}},{"name":"Bgm.-Zeiler-Weg","postalCode":"82281","locality":"Egenhofen","municipality":{"key":"09179117","name":"Egenhofen","type":"Kreisangehörige_Gemeinde"},"district":{"key":"09179","name":"Fürstenfeldbruck","type":"Landkreis"},"federalState":{"key":"09","name":"Bayern"}},{"name":"Biberanger","postalCode":"82281","locality":"Egenhofen","municipality":{"key":"09179117","name":"Egenhofen","type":"Kreisangehörige_Gemeinde"},"district":{"key":"09179","name":"Fürstenfeldbruck","type":"Landkreis"},"federalState":{"key":"09","name":"Bayern"}},{"name":"Biberzellweg","postalCode":"82281","locality":"Egenhofen","municipality":{"key":"09179117","name":"Egenhofen","type":"Kreisangehörige_Gemeinde"},"district":{"key":"09179","name":"Fürstenfeldbruck","type":"Landkreis"},"federalState":{"key":"09","name":"Bayern"}},{"name":"Birkenstr.","postalCode":"82281","locality":"Egenhofen","municipality":{"key":"09179117","name":"Egenhofen","type":"Kreisangehörige_Gemeinde"},"district":{"key":"09179","name":"Fürstenfeldbruck","type":"Landkreis"},"federalState":{"key":"09","name":"Bayern"}},{"name":"Birkfeldweg","postalCode":"82281","locality":"Egenhofen","municipality":{"key":"09179117","name":"Egenhofen","type":"Kreisangehörige_Gemeinde"},"district":{"key":"09179","name":"Fürstenfeldbruck","type":"Landkreis"},"federalState":{"key":"09","name":"Bayern"}},{"name":"Blumentstr.","postalCode":"82281","locality":"Egenhofen","municipality":{"key":"09179117","name":"Egenhofen","type":"Kreisangehörige_Gemeinde"},"district":{"key":"09179","name":"Fürstenfeldbruck","type":"Landkreis"},"federalState":{"key":"09","name":"Bayern"}},{"name":"Brandlstr.","postalCode":"82281","locality":"Egenhofen","municipality":{"key":"09179117","name":"Egenhofen","type":"Kreisangehörige_Gemeinde"},"district":{"key":"09179","name":"Fürstenfeldbruck","type":"Landkreis"},"federalState":{"key":"09","name":"Bayern"}},{"name":"Brucker Str.","postalCode":"82281","locality":"Egenhofen","municipality":{"key":"09179117","name":"Egenhofen","type":"Kreisangehörige_Gemeinde"},"district":{"key":"09179","name":"Fürstenfeldbruck","type":"Landkreis"},"federalState":{"key":"09","name":"Bayern"}},{"name":"Brunnenweg","postalCode":"82281","locality":"Egenhofen","municipality":{"key":"09179117","name":"Egenhofen","type":"Kreisangehörige_Gemeinde"},"district":{"key":"09179","name":"Fürstenfeldbruck","type":"Landkreis"},"federalState":{"key":"09","name":"Bayern"}},{"name":"Buchenstr.","postalCode":"82281","locality":"Egenhofen","municipality":{"key":"09179117","name":"Egenhofen","type":"Kreisangehörige_Gemeinde"},"district":{"key":"09179","name":"Fürstenfeldbruck","type":"Landkreis"},"federalState":{"key":"09","name":"Bayern"}},{"name":"Bürgermeister-Langwieder-Str.","postalCode":"82281","locality":"Egenhofen","municipality":{"key":"09179117","name":"Egenhofen","type":"Kreisangehörige_Gemeinde"},"district":{"key":"09179","name":"Fürstenfeldbruck","type":"Landkreis"},"federalState":{"key":"09","name":"Bayern"}},{"name":"Bürgermeister-Schräfl-Str.","postalCode":"82281","locality":"Egenhofen","municipality":{"key":"09179117","name":"Egenhofen","type":"Kreisangehörige_Gemeinde"},"district":{"key":"09179","name":"Fürstenfeldbruck","type":"Landkreis"},"federalState":{"key":"09","name":"Bayern"}},{"name":"Bürgermeister-Wörl-Str.","postalCode":"82281","locality":"Egenhofen","municipality":{"key":"09179117","name":"Egenhofen","type":"Kreisangehörige_Gemeinde"},"district":{"key":"09179","name":"Fürstenfeldbruck","type":"Landkreis"},"federalState":{"key":"09","name":"Bayern"}},{"name":"Burgstallstr.","postalCode":"82281","locality":"Egenhofen","municipality":{"key":"09179117","name":"Egenhofen","type":"Kreisangehörige_Gemeinde"},"district":{"key":"09179","name":"Fürstenfeldbruck","type":"Landkreis"},"federalState":{"key":"09","name":"Bayern"}},{"name":"Carl-von-Linde-Str.","postalCode":"82256","locality":"Fürstenfeldbruck","municipality":{"key":"09179121","name":"Fürstenfeldbruck, GKSt","type":"Große_Kreisstadt"},"district":{"key":"09179","name":"Fürstenfeldbruck","type":"Landkreis"},"federalState":{"key":"09","name":"Bayern"}},{"name":"Cerveteristr.","postalCode":"82256","locality":"Fürstenfeldbruck","municipality":{"key":"09179121","name":"Fürstenfeldbruck, GKSt","type":"Große_Kreisstadt"},"district":{"key":"09179","name":"Fürstenfeldbruck","type":"Landkreis"},"federalState":{"key":"09","name":"Bayern"}},{"name":"Dachauer Str.","postalCode":"82281","locality":"Egenhofen","municipality":{"key":"09179117","name":"Egenhofen","type":"Kreisangehörige_Gemeinde"},"district":{"key":"09179","name":"Fürstenfeldbruck","type":"Landkreis"},"federalState":{"key":"09","name":"Bayern"}},{"name":"Dieselstr.","postalCode":"82281","locality":"Egenhofen","municipality":{"key":"09179117","name":"Egenhofen","type":"Kreisangehörige_Gemeinde"},"district":{"key":"09179","name":"Fürstenfeldbruck","type":"Landkreis"},"federalState":{"key":"09","name":"Bayern"}},{"name":"Dorfstr.","postalCode":"82281","locality":"Egenhofen","municipality":{"key":"09179117","name":"Egenhofen","type":"Kreisangehörige_Gemeinde"},"district":{"key":"09179","name":"Fürstenfeldbruck","type":"Landkreis"},"federalState":{"key":"09","name":"Bayern"}},{"name":"Eichenstr.","postalCode":"82281","locality":"Egenhofen","municipality":{"key":"09179117","name":"Egenhofen","type":"Kreisangehörige_Gemeinde"},"district":{"key":"09179","name":"Fürstenfeldbruck","type":"Landkreis"},"federalState":{"key":"09","name":"Bayern"}},{"name":"Enzianstr.","postalCode":"82281","locality":"Egenhofen","municipality":{"key":"09179117","name":"Egenhofen","type":"Kreisangehörige_Gemeinde"},"district":{"key":"09179","name":"Fürstenfeldbruck","type":"Landkreis"},"federalState":{"key":"09","name":"Bayern"}},{"name":"Feldstr.","postalCode":"82281","locality":"Egenhofen","municipality":{"key":"09179117","name":"Egenhofen","type":"Kreisangehörige_Gemeinde"},"district":{"key":"09179","name":"Fürstenfeldbruck","type":"Landkreis"},"federalState":{"key":"09","name":"Bayern"}},{"name":"Fichtenstr.","postalCode":"82281","locality":"Egenhofen","municipality":{"key":"09179117","name":"Egenhofen","type":"Kreisangehörige_Gemeinde"},"district":{"key":"09179","name":"Fürstenfeldbruck","type":"Landkreis"},"federalState":{"key":"09","name":"Bayern"}},{"name":"Fliederstr.","postalCode":"82281","locality":"Egenhofen","municipality":{"key":"09179117","name":"Egenhofen","type":"Kreisangehörige_Gemeinde"},"district":{"key":"09179","name":"Fürstenfeldbruck","type":"Landkreis"},"federalState":{"key":"09","name":"Bayern"}},{"name":"Flurstr.","postalCode":"82281","locality":"Egenhofen","municipality":{"key":"09179117","name":"Egenhofen","type":"Kreisangehörige_Gemeinde"},"district":{"key":"09179","name":"Fürstenfeldbruck","type":"Landkreis"},"federalState":{"key":"09","name":"Bayern"}},{"name":"Föhrenstr.","postalCode":"82281","locality":"Egenhofen","municipality":{"key":"09179117","name":"Egenhofen","type":"Kreisangehörige_Gemeinde"},"district":{"key":"09179","name":"Fürstenfeldbruck","type":"Landkreis"},"federalState":{"key":"09","name":"Bayern"}},{"name":"Forellenstr.","postalCode":"82281","locality":"Egenhofen","municipality":{"key":"09179117","name":"Egenhofen","type":"Kreisangehörige_Gemeinde"},"district":{"key":"09179","name":"Fürstenfeldbruck","type":"Landkreis"},"federalState":{"key":"09","name":"Bayern"}},{"name":"Friedberger Str.","postalCode":"82281","locality":"Egenhofen","municipality":{"key":"09179117","name":"Egenhofen","type":"Kreisangehörige_Gemeinde"},"district":{"key":"09179","name":"Fürstenfeldbruck","type":"Landkreis"},"federalState":{"key":"09","name":"Bayern"}},{"name":"Gartenstr.","postalCode":"82281","locality":"Egenhofen","municipality":{"key":"09179117","name":"Egenhofen","type":"Kreisangehörige_Gemeinde"},"district":{"key":"09179","name":"Fürstenfeldbruck","type":"Landkreis"},"federalState":{"key":"09","name":"Bayern"}},{"name":"Geisenhofen","postalCode":"82281","locality":"Egenhofen","municipality":{"key":"09179117","name":"Egenhofen","type":"Kreisangehörige_Gemeinde"},"district":{"key":"09179","name":"Fürstenfeldbruck","type":"Landkreis"},"federalState":{"key":"09","name":"Bayern"}},{"name":"Gewerbepark","postalCode":"82281","locality":"Egenhofen","municipality":{"key":"09179117","name":"Egenhofen","type":"Kreisangehörige_Gemeinde"},"district":{"key":"09179","name":"Fürstenfeldbruck","type":"Landkreis"},"federalState":{"key":"09","name":"Bayern"}},{"name":"Glonnweg","postalCode":"82281","locality":"Egenhofen","municipality":{"key":"09179117","name":"Egenhofen","type":"Kreisangehörige_Gemeinde"},"district":{"key":"09179","name":"Fürstenfeldbruck","type":"Landkreis"},"federalState":{"key":"09","name":"Bayern"}},{"name":"Hauptstr.","postalCode":"82281","locality":"Egenhofen","municipality":{"key":"09179117","name":"Egenhofen","type":"Kreisangehörige_Gemeinde"},"district":{"key":"09179","name":"Fürstenfeldbruck","type":"Landkreis"},"federalState":{"key":"09","name":"Bayern"}},{"name":"Hochweg","postalCode":"82281","locality":"Egenhofen","municipality":{"key":"09179117","name":"Egenhofen","type":"Kreisangehörige_Gemeinde"},"district":{"key":"09179","name":"Fürstenfeldbruck","type":"Landkreis"},"federalState":{"key":"09","name":"Bayern"}},{"name":"Hoffeldstr.","postalCode":"82281","locality":"Egenhofen","municipality":{"key":"09179117","name":"Egenhofen","type":"Kreisangehörige_Gemeinde"},"district":{"key":"09179","name":"Fürstenfeldbruck","type":"Landkreis"},"federalState":{"key":"09","name":"Bayern"}},{"name":"Holunderweg","postalCode":"82281","locality":"Egenhofen","municipality":{"key":"09179117","name":"Egenhofen","type":"Kreisangehörige_Gemeinde"},"district":{"key":"09179","name":"Fürstenfeldbruck","type":"Landkreis"},"federalState":{"key":"09","name":"Bayern"}},{"name":"Imkerweg","postalCode":"82281","locality":"Egenhofen","municipality":{"key":"09179117","name":"Egenhofen","type":"Kreisangehörige_Gemeinde"},"district":{"key":"09179","name":"Fürstenfeldbruck","type":"Landkreis"},"federalState":{"key":"09","name":"Bayern"}},{"name":"Jägerstr.","postalCode":"82256","locality":"Fürstenfeldbruck","municipality":{"key":"09179121","name":"Fürstenfeldbruck, GKSt","type":"Große_Kreisstadt"},"district":{"key":"09179","name":"Fürstenfeldbruck","type":"Landkreis"},"federalState":{"key":"09","name":"Bayern"}},{"name":"Jahnstr.","postalCode":"82256","locality":"Fürstenfeldbruck","municipality":{"key":"09179121","name":"Fürstenfeldbruck, GKSt","type":"Große_Kreisstadt"},"district":{"key":"09179","name":"Fürstenfeldbruck","type":"Landkreis"},"federalState":{"key":"09","name":"Bayern"}},{"name":"Jakob-Groß-Str.","postalCode":"82256","locality":"Fürstenfeldbruck","municipality":{"key":"09179121","name":"Fürstenfeldbruck, GKSt","type":"Große_Kreisstadt"},"district":{"key":"09179","name":"Fürstenfeldbruck","type":"Landkreis"},"federalState":{"key":"09","name":"Bayern"}},{"name":"Jexlau","postalCode":"82256","locality":"Fürstenfeldbruck","municipality":{"key":"09179121","name":"Fürstenfeldbruck, GKSt","type":"Große_Kreisstadt"},"district":{"key":"09179","name":"Fürstenfeldbruck","type":"Landkreis"},"federalState":{"key":"09","name":"Bayern"}},{"name":"Josef-Priller-Str.","postalCode":"82256","locality":"Fürstenfeldbruck","municipality":{"key":"09179121","name":"Fürstenfeldbruck, GKSt","type":"Große_Kreisstadt"},"district":{"key":"09179","name":"Fürstenfeldbruck","type":"Landkreis"},"federalState":{"key":"09","name":"Bayern"}},{"name":"Josef-Spital-Str.","postalCode":"82256","locality":"Fürstenfeldbruck","municipality":{"key":"09179121","name":"Fürstenfeldbruck, GKSt","type":"Große_Kreisstadt"},"district":{"key":"09179","name":"Fürstenfeldbruck","type":"Landkreis"},"federalState":{"key":"09","name":"Bayern"}},{"name":"Jupiterstr.","postalCode":"82256","locality":"Fürstenfeldbruck","municipality":{"key":"09179121","name":"Fürstenfeldbruck, GKSt","type":"Große_Kreisstadt"},"district":{"key":"09179","name":"Fürstenfeldbruck","type":"Landkreis"},"federalState":{"key":"09","name":"Bayern"}},{"name":"Kahrstr.","postalCode":"82281","locality":"Egenhofen","municipality":{"key":"09179117","name":"Egenhofen","type":"Kreisangehörige_Gemeinde"},"district":{"key":"09179","name":"Fürstenfeldbruck","type":"Landkreis"},"federalState":{"key":"09","name":"Bayern"}},{"name":"Kalvarienbergstr.","postalCode":"82281","locality":"Egenhofen","municipality":{"key":"09179117","name":"Egenhofen","type":"Kreisangehörige_Gemeinde"},"district":{"key":"09179","name":"Fürstenfeldbruck","type":"Landkreis"},"federalState":{"key":"09","name":"Bayern"}},{"name":"Kastanienweg","postalCode":"82281","locality":"Egenhofen","municipality":{"key":"09179117","name":"Egenhofen","type":"Kreisangehörige_Gemeinde"},"district":{"key":"09179","name":"Fürstenfeldbruck","type":"Landkreis"},"federalState":{"key":"09","name":"Bayern"}},{"name":"Kirchweg","postalCode":"82281","locality":"Egenhofen","municipality":{"key":"09179117","name":"Egenhofen","type":"Kreisangehörige_Gemeinde"},"district":{"key":"09179","name":"Fürstenfeldbruck","type":"Landkreis"},"federalState":{"key":"09","name":"Bayern"}},{"name":"Kornweg","postalCode":"82281","locality":"Egenhofen","municipality":{"key":"09179117","name":"Egenhofen","type":"Kreisangehörige_Gemeinde"},"district":{"key":"09179","name":"Fürstenfeldbruck","type":"Landkreis"},"federalState":{"key":"09","name":"Bayern"}},{"name":"Kreisstr.","postalCode":"82281","locality":"Egenhofen","municipality":{"key":"09179117","name":"Egenhofen","type":"Kreisangehörige_Gemeinde"},"district":{"key":"09179","name":"Fürstenfeldbruck","type":"Landkreis"},"federalState":{"key":"09","name":"Bayern"}},{"name":"Kreuzstr.","postalCode":"82281","locality":"Egenhofen","municipality":{"key":"09179117","name":"Egenhofen","type":"Kreisangehörige_Gemeinde"},"district":{"key":"09179","name":"Fürstenfeldbruck","type":"Landkreis"},"federalState":{"key":"09","name":"Bayern"}},{"name":"Krokusstr.","postalCode":"82281","locality":"Egenhofen","municipality":{"key":"09179117","name":"Egenhofen","type":"Kreisangehörige_Gemeinde"},"district":{"key":"09179","name":"Fürstenfeldbruck","type":"Landkreis"},"federalState":{"key":"09","name":"Bayern"}},{"name":"Lilienstr.","postalCode":"82281","locality":"Egenhofen","municipality":{"key":"09179117","name":"Egenhofen","type":"Kreisangehörige_Gemeinde"},"district":{"key":"09179","name":"Fürstenfeldbruck","type":"Landkreis"},"federalState":{"key":"09","name":"Bayern"}},{"name":"Lindenstr.","postalCode":"82281","locality":"Egenhofen","municipality":{"key":"09179117","name":"Egenhofen","type":"Kreisangehörige_Gemeinde"},"district":{"key":"09179","name":"Fürstenfeldbruck","type":"Landkreis"},"federalState":{"key":"09","name":"Bayern"}},{"name":"Maisacher Str.","postalCode":"82281","locality":"Egenhofen","municipality":{"key":"09179117","name":"Egenhofen","type":"Kreisangehörige_Gemeinde"},"district":{"key":"09179","name":"Fürstenfeldbruck","type":"Landkreis"},"federalState":{"key":"09","name":"Bayern"}},{"name":"Mammendorfer Str.","postalCode":"82281","locality":"Egenhofen","municipality":{"key":"09179117","name":"Egenhofen","type":"Kreisangehörige_Gemeinde"},"district":{"key":"09179","name":"Fürstenfeldbruck","type":"Landkreis"},"federalState":{"key":"09","name":"Bayern"}},{"name":"Mühlstr.","postalCode":"82281","locality":"Egenhofen","municipality":{"key":"09179117","name":"Egenhofen","type":"Kreisangehörige_Gemeinde"},"district":{"key":"09179","name":"Fürstenfeldbruck","type":"Landkreis"},"federalState":{"key":"09","name":"Bayern"}},{"name":"Nelkenstr.","postalCode":"82281","locality":"Egenhofen","municipality":{"key":"09179117","name":"Egenhofen","type":"Kreisangehörige_Gemeinde"},"district":{"key":"09179","name":"Fürstenfeldbruck","type":"Landkreis"},"federalState":{"key":"09","name":"Bayern"}},{"name":"Nikolausweg","postalCode":"82281","locality":"Egenhofen","municipality":{"key":"09179117","name":"Egenhofen","type":"Kreisangehörige_Gemeinde"},"district":{"key":"09179","name":"Fürstenfeldbruck","type":"Landkreis"},"federalState":{"key":"09","name":"Bayern"}},{"name":"Nußbaumstr.","postalCode":"82281","locality":"Egenhofen","municipality":{"key":"09179117","name":"Egenhofen","type":"Kreisangehörige_Gemeinde"},"district":{"key":"09179","name":"Fürstenfeldbruck","type":"Landkreis"},"federalState":{"key":"09","name":"Bayern"}},{"name":"Ortsstr.","postalCode":"82281","locality":"Egenhofen","municipality":{"key":"09179117","name":"Egenhofen","type":"Kreisangehörige_Gemeinde"},"district":{"key":"09179","name":"Fürstenfeldbruck","type":"Landkreis"},"federalState":{"key":"09","name":"Bayern"}},{"name":"Pfarrstr.","postalCode":"82281","locality":"Egenhofen","municipality":{"key":"09179117","name":"Egenhofen","type":"Kreisangehörige_Gemeinde"},"district":{"key":"09179","name":"Fürstenfeldbruck","type":"Landkreis"},"federalState":{"key":"09","name":"Bayern"}},{"name":"Rohrbachstr.","postalCode":"82281","locality":"Egenhofen","municipality":{"key":"09179117","name":"Egenhofen","type":"Kreisangehörige_Gemeinde"},"district":{"key":"09179","name":"Fürstenfeldbruck","type":"Landkreis"},"federalState":{"key":"09","name":"Bayern"}},{"name":"Rosenstr.","postalCode":"82281","locality":"Egenhofen","municipality":{"key":"09179117","name":"Egenhofen","type":"Kreisangehörige_Gemeinde"},"district":{"key":"09179","name":"Fürstenfeldbruck","type":"Landkreis"},"federalState":{"key":"09","name":"Bayern"}},{"name":"Samweg","postalCode":"82281","locality":"Egenhofen","municipality":{"key":"09179117","name":"Egenhofen","type":"Kreisangehörige_Gemeinde"},"district":{"key":"09179","name":"Fürstenfeldbruck","type":"Landkreis"},"federalState":{"key":"09","name":"Bayern"}},{"name":"Sankt-Michael-Str.","postalCode":"82281","locality":"Egenhofen","municipality":{"key":"09179117","name":"Egenhofen","type":"Kreisangehörige_Gemeinde"},"district":{"key":"09179","name":"Fürstenfeldbruck","type":"Landkreis"},"federalState":{"key":"09","name":"Bayern"}},{"name":"Schmiedweg","postalCode":"82281","locality":"Egenhofen","municipality":{"key":"09179117","name":"Egenhofen","type":"Kreisangehörige_Gemeinde"},"district":{"key":"09179","name":"Fürstenfeldbruck","type":"Landkreis"},"federalState":{"key":"09","name":"Bayern"}},{"name":"Schulstr.","postalCode":"82281","locality":"Egenhofen","municipality":{"key":"09179117","name":"Egenhofen","type":"Kreisangehörige_Gemeinde"},"district":{"key":"09179","name":"Fürstenfeldbruck","type":"Landkreis"},"federalState":{"key":"09","name":"Bayern"}},{"name":"Sonnenstr.","postalCode":"82281","locality":"Egenhofen","municipality":{"key":"09179117","name":"Egenhofen","type":"Kreisangehörige_Gemeinde"},"district":{"key":"09179","name":"Fürstenfeldbruck","type":"Landkreis"},"federalState":{"key":"09","name":"Bayern"}},{"name":"Sternstr.","postalCode":"82281","locality":"Egenhofen","municipality":{"key":"09179117","name":"Egenhofen","type":"Kreisangehörige_Gemeinde"},"district":{"key":"09179","name":"Fürstenfeldbruck","type":"Landkreis"},"federalState":{"key":"09","name":"Bayern"}},{"name":"Stiglfeldweg","postalCode":"82281","locality":"Egenhofen","municipality":{"key":"09179117","name":"Egenhofen","type":"Kreisangehörige_Gemeinde"},"district":{"key":"09179","name":"Fürstenfeldbruck","type":"Landkreis"},"federalState":{"key":"09","name":"Bayern"}},{"name":"südlicher Mühlweg","postalCode":"82281","locality":"Egenhofen","municipality":{"key":"09179117","name":"Egenhofen","type":"Kreisangehörige_Gemeinde"},"district":{"key":"09179","name":"Fürstenfeldbruck","type":"Landkreis"},"federalState":{"key":"09","name":"Bayern"}},{"name":"Tulpenstr.","postalCode":"82281","locality":"Egenhofen","municipality":{"key":"09179117","name":"Egenhofen","type":"Kreisangehörige_Gemeinde"},"district":{"key":"09179","name":"Fürstenfeldbruck","type":"Landkreis"},"federalState":{"key":"09","name":"Bayern"}},{"name":"Uhlandstr.","postalCode":"82256","locality":"Fürstenfeldbruck","municipality":{"key":"09179121","name":"Fürstenfeldbruck, GKSt","type":"Große_Kreisstadt"},"district":{"key":"09179","name":"Fürstenfeldbruck","type":"Landkreis"},"federalState":{"key":"09","name":"Bayern"}},{"name":"Ulmenstr.","postalCode":"82256","locality":"Fürstenfeldbruck","municipality":{"key":"09179121","name":"Fürstenfeldbruck, GKSt","type":"Große_Kreisstadt"},"district":{"key":"09179","name":"Fürstenfeldbruck","type":"Landkreis"},"federalState":{"key":"09","name":"Bayern"}},{"name":"Unfaltstr.","postalCode":"82256","locality":"Fürstenfeldbruck","municipality":{"key":"09179121","name":"Fürstenfeldbruck, GKSt","type":"Große_Kreisstadt"},"district":{"key":"09179","name":"Fürstenfeldbruck","type":"Landkreis"},"federalState":{"key":"09","name":"Bayern"}},{"name":"Veilchenstr.","postalCode":"82256","locality":"Fürstenfeldbruck","municipality":{"key":"09179121","name":"Fürstenfeldbruck, GKSt","type":"Große_Kreisstadt"},"district":{"key":"09179","name":"Fürstenfeldbruck","type":"Landkreis"},"federalState":{"key":"09","name":"Bayern"}},{"name":"Veit-Stoß-Str.","postalCode":"82256","locality":"Fürstenfeldbruck","municipality":{"key":"09179121","name":"Fürstenfeldbruck, GKSt","type":"Große_Kreisstadt"},"district":{"key":"09179","name":"Fürstenfeldbruck","type":"Landkreis"},"federalState":{"key":"09","name":"Bayern"}},{"name":"Viehmarktstr.","postalCode":"82256","locality":"Fürstenfeldbruck","municipality":{"key":"09179121","name":"Fürstenfeldbruck, GKSt","type":"Große_Kreisstadt"},"district":{"key":"09179","name":"Fürstenfeldbruck","type":"Landkreis"},"federalState":{"key":"09","name":"Bayern"}},{"name":"Viscardistr.","postalCode":"82256","locality":"Fürstenfeldbruck","municipality":{"key":"09179121","name":"Fürstenfeldbruck, GKSt","type":"Große_Kreisstadt"},"district":{"key":"09179","name":"Fürstenfeldbruck","type":"Landkreis"},"federalState":{"key":"09","name":"Bayern"}},{"name":"Vogelbeerweg","postalCode":"82256","locality":"Fürstenfeldbruck","municipality":{"key":"09179121","name":"Fürstenfeldbruck, GKSt","type":"Große_Kreisstadt"},"district":{"key":"09179","name":"Fürstenfeldbruck","type":"Landkreis"},"federalState":{"key":"09","name":"Bayern"}},{"name":"Wagnerstr.","postalCode":"82281","locality":"Egenhofen","municipality":{"key":"09179117","name":"Egenhofen","type":"Kreisangehörige_Gemeinde"},"district":{"key":"09179","name":"Fürstenfeldbruck","type":"Landkreis"},"federalState":{"key":"09","name":"Bayern"}},{"name":"Waldstr.","postalCode":"82281","locality":"Egenhofen","municipality":{"key":"09179117","name":"Egenhofen","type":"Kreisangehörige_Gemeinde"},"district":{"key":"09179","name":"Fürstenfeldbruck","type":"Landkreis"},"federalState":{"key":"09","name":"Bayern"}},{"name":"Waltershofen","postalCode":"82281","locality":"Egenhofen","municipality":{"key":"09179117","name":"Egenhofen","type":"Kreisangehörige_Gemeinde"},"district":{"key":"09179","name":"Fürstenfeldbruck","type":"Landkreis"},"federalState":{"key":"09","name":"Bayern"}},{"name":"Weihermoos","postalCode":"82281","locality":"Egenhofen","municipality":{"key":"09179117","name":"Egenhofen","type":"Kreisangehörige_Gemeinde"},"district":{"key":"09179","name":"Fürstenfeldbruck","type":"Landkreis"},"federalState":{"key":"09","name":"Bayern"}},{"name":"Weiherstr.","postalCode":"82281","locality":"Egenhofen","municipality":{"key":"09179117","name":"Egenhofen","type":"Kreisangehörige_Gemeinde"},"district":{"key":"09179","name":"Fürstenfeldbruck","type":"Landkreis"},"federalState":{"key":"09","name":"Bayern"}},{"name":"Wiesenstr.","postalCode":"82281","locality":"Egenhofen","municipality":{"key":"09179117","name":"Egenhofen","type":"Kreisangehörige_Gemeinde"},"district":{"key":"09179","name":"Fürstenfeldbruck","type":"Landkreis"},"federalState":{"key":"09","name":"Bayern"}},{"name":"Xaver-Hartl-Str.","postalCode":"82281","locality":"Egenhofen","municipality":{"key":"09179117","name":"Egenhofen","type":"Kreisangehörige_Gemeinde"},"district":{"key":"09179","name":"Fürstenfeldbruck","type":"Landkreis"},"federalState":{"key":"09","name":"Bayern"}},{"name":"Zeilstr.","postalCode":"82256","locality":"Fürstenfeldbruck","municipality":{"key":"09179121","name":"Fürstenfeldbruck, GKSt","type":"Große_Kreisstadt"},"district":{"key":"09179","name":"Fürstenfeldbruck","type":"Landkreis"},"federalState":{"key":"09","name":"Bayern"}},{"name":"Zellhofstr.","postalCode":"82256","locality":"Fürstenfeldbruck","municipality":{"key":"09179121","name":"Fürstenfeldbruck, GKSt","type":"Große_Kreisstadt"},"district":{"key":"09179","name":"Fürstenfeldbruck","type":"Landkreis"},"federalState":{"key":"09","name":"Bayern"}},{"name":"Zeppelinstr.","postalCode":"82256","locality":"Fürstenfeldbruck","municipality":{"key":"09179121","name":"Fürstenfeldbruck, GKSt","type":"Große_Kreisstadt"},"district":{"key":"09179","name":"Fürstenfeldbruck","type":"Landkreis"},"federalState":{"key":"09","name":"Bayern"}},{"name":"Zugspitzstr.","postalCode":"82256","locality":"Fürstenfeldbruck","municipality":{"key":"09179121","name":"Fürstenfeldbruck, GKSt","type":"Große_Kreisstadt"},"district":{"key":"09179","name":"Fürstenfeldbruck","type":"Landkreis"},"federalState":{"key":"09","name":"Bayern"}},{"name":"Zum Krebsenbach","postalCode":"82256","locality":"Fürstenfeldbruck","municipality":{"key":"09179121","name":"Fürstenfeldbruck, GKSt","type":"Große_Kreisstadt"},"district":{"key":"09179","name":"Fürstenfeldbruck","type":"Landkreis"},"federalState":{"key":"09","name":"Bayern"}},]