[{"name":"Am kalten Bühl","postalCode":"94359","locality":"Loitzendorf","municipality":{"key":"09278147","name":"Loitzendorf","type":"Kreisangehörige_Gemeinde"},"district":{"key":"09278","name":"Straubing-Bogen","type":"Landkreis"},"federalState":{"key":"09","name":"Bayern"}},{"name":"Au","postalCode":"94359","locality":"Loitzendorf","municipality":{"key":"09278147","name":"Loitzendorf","type":"Kreisangehörige_Gemeinde"},"district":{"key":"09278","name":"Straubing-Bogen","type":"Landkreis"},"federalState":{"key":"09","name":"Bayern"}},{"name":"Bachstr.","postalCode":"94359","locality":"Loitzendorf","municipality":{"key":"09278147","name":"Loitzendorf","type":"Kreisangehörige_Gemeinde"},"district":{"key":"09278","name":"Straubing-Bogen","type":"Landkreis"},"federalState":{"key":"09","name":"Bayern"}},{"name":"Baderstr.","postalCode":"94359","locality":"Loitzendorf","municipality":{"key":"09278147","name":"Loitzendorf","type":"Kreisangehörige_Gemeinde"},"district":{"key":"09278","name":"Straubing-Bogen","type":"Landkreis"},"federalState":{"key":"09","name":"Bayern"}},{"name":"Dorfplatz","postalCode":"94359","locality":"Loitzendorf","municipality":{"key":"09278147","name":"Loitzendorf","type":"Kreisangehörige_Gemeinde"},"district":{"key":"09278","name":"Straubing-Bogen","type":"Landkreis"},"federalState":{"key":"09","name":"Bayern"}},{"name":"Gittensdorfer Str.","postalCode":"94359","locality":"Loitzendorf","municipality":{"key":"09278147","name":"Loitzendorf","type":"Kreisangehörige_Gemeinde"},"district":{"key":"09278","name":"Straubing-Bogen","type":"Landkreis"},"federalState":{"key":"09","name":"Bayern"}},{"name":"Kirchgasse","postalCode":"94359","locality":"Loitzendorf","municipality":{"key":"09278147","name":"Loitzendorf","type":"Kreisangehörige_Gemeinde"},"district":{"key":"09278","name":"Straubing-Bogen","type":"Landkreis"},"federalState":{"key":"09","name":"Bayern"}},{"name":"Kleinfeld Str.","postalCode":"94359","locality":"Loitzendorf","municipality":{"key":"09278147","name":"Loitzendorf","type":"Kreisangehörige_Gemeinde"},"district":{"key":"09278","name":"Straubing-Bogen","type":"Landkreis"},"federalState":{"key":"09","name":"Bayern"}},{"name":"Landorfer Str.","postalCode":"94359","locality":"Loitzendorf","municipality":{"key":"09278147","name":"Loitzendorf","type":"Kreisangehörige_Gemeinde"},"district":{"key":"09278","name":"Straubing-Bogen","type":"Landkreis"},"federalState":{"key":"09","name":"Bayern"}},{"name":"Rißmannsdorf","postalCode":"94359","locality":"Loitzendorf","municipality":{"key":"09278147","name":"Loitzendorf","type":"Kreisangehörige_Gemeinde"},"district":{"key":"09278","name":"Straubing-Bogen","type":"Landkreis"},"federalState":{"key":"09","name":"Bayern"}},{"name":"Schmiedstr.","postalCode":"94359","locality":"Loitzendorf","municipality":{"key":"09278147","name":"Loitzendorf","type":"Kreisangehörige_Gemeinde"},"district":{"key":"09278","name":"Straubing-Bogen","type":"Landkreis"},"federalState":{"key":"09","name":"Bayern"}},{"name":"Wagnerweg","postalCode":"94359","locality":"Loitzendorf","municipality":{"key":"09278147","name":"Loitzendorf","type":"Kreisangehörige_Gemeinde"},"district":{"key":"09278","name":"Straubing-Bogen","type":"Landkreis"},"federalState":{"key":"09","name":"Bayern"}},]