[{"name":"An der Schiere","postalCode":"07751","locality":"Zöllnitz","municipality":{"key":"16074114","name":"Zöllnitz","type":"Kreisangehörige_Gemeinde"},"district":{"key":"16074","name":"Saale-Holzland-Kreis","type":"Landkreis"},"federalState":{"key":"16","name":"Thüringen"}},{"name":"Erlanger Allee","postalCode":"07751","locality":"Zöllnitz","municipality":{"key":"16074114","name":"Zöllnitz","type":"Kreisangehörige_Gemeinde"},"district":{"key":"16074","name":"Saale-Holzland-Kreis","type":"Landkreis"},"federalState":{"key":"16","name":"Thüringen"}},{"name":"Gerhard-Ost-Str.","postalCode":"07751","locality":"Zöllnitz","municipality":{"key":"16074114","name":"Zöllnitz","type":"Kreisangehörige_Gemeinde"},"district":{"key":"16074","name":"Saale-Holzland-Kreis","type":"Landkreis"},"federalState":{"key":"16","name":"Thüringen"}},{"name":"Ilmnitzer Landstr.","postalCode":"07751","locality":"Zöllnitz","municipality":{"key":"16074114","name":"Zöllnitz","type":"Kreisangehörige_Gemeinde"},"district":{"key":"16074","name":"Saale-Holzland-Kreis","type":"Landkreis"},"federalState":{"key":"16","name":"Thüringen"}},{"name":"Im Lerchenfeld","postalCode":"07751","locality":"Zöllnitz","municipality":{"key":"16074114","name":"Zöllnitz","type":"Kreisangehörige_Gemeinde"},"district":{"key":"16074","name":"Saale-Holzland-Kreis","type":"Landkreis"},"federalState":{"key":"16","name":"Thüringen"}},{"name":"Im Osterfeld","postalCode":"07751","locality":"Zöllnitz","municipality":{"key":"16074114","name":"Zöllnitz","type":"Kreisangehörige_Gemeinde"},"district":{"key":"16074","name":"Saale-Holzland-Kreis","type":"Landkreis"},"federalState":{"key":"16","name":"Thüringen"}},{"name":"Im Unterdorf","postalCode":"07751","locality":"Zöllnitz","municipality":{"key":"16074114","name":"Zöllnitz","type":"Kreisangehörige_Gemeinde"},"district":{"key":"16074","name":"Saale-Holzland-Kreis","type":"Landkreis"},"federalState":{"key":"16","name":"Thüringen"}},{"name":"In der Salschge","postalCode":"07751","locality":"Zöllnitz","municipality":{"key":"16074114","name":"Zöllnitz","type":"Kreisangehörige_Gemeinde"},"district":{"key":"16074","name":"Saale-Holzland-Kreis","type":"Landkreis"},"federalState":{"key":"16","name":"Thüringen"}},{"name":"Mittelstr.","postalCode":"07751","locality":"Zöllnitz","municipality":{"key":"16074114","name":"Zöllnitz","type":"Kreisangehörige_Gemeinde"},"district":{"key":"16074","name":"Saale-Holzland-Kreis","type":"Landkreis"},"federalState":{"key":"16","name":"Thüringen"}},{"name":"Rodatalstr.","postalCode":"07751","locality":"Zöllnitz","municipality":{"key":"16074114","name":"Zöllnitz","type":"Kreisangehörige_Gemeinde"},"district":{"key":"16074","name":"Saale-Holzland-Kreis","type":"Landkreis"},"federalState":{"key":"16","name":"Thüringen"}},{"name":"Stadtrodaer Landstr.","postalCode":"07751","locality":"Zöllnitz","municipality":{"key":"16074114","name":"Zöllnitz","type":"Kreisangehörige_Gemeinde"},"district":{"key":"16074","name":"Saale-Holzland-Kreis","type":"Landkreis"},"federalState":{"key":"16","name":"Thüringen"}},{"name":"Stadtrodaer Str.","postalCode":"07751","locality":"Zöllnitz","municipality":{"key":"16074114","name":"Zöllnitz","type":"Kreisangehörige_Gemeinde"},"district":{"key":"16074","name":"Saale-Holzland-Kreis","type":"Landkreis"},"federalState":{"key":"16","name":"Thüringen"}},{"name":"Zöllnitzer Str.","postalCode":"07751","locality":"Zöllnitz","municipality":{"key":"16074114","name":"Zöllnitz","type":"Kreisangehörige_Gemeinde"},"district":{"key":"16074","name":"Saale-Holzland-Kreis","type":"Landkreis"},"federalState":{"key":"16","name":"Thüringen"}},{"name":"Zur Kirche","postalCode":"07751","locality":"Zöllnitz","municipality":{"key":"16074114","name":"Zöllnitz","type":"Kreisangehörige_Gemeinde"},"district":{"key":"16074","name":"Saale-Holzland-Kreis","type":"Landkreis"},"federalState":{"key":"16","name":"Thüringen"}},{"name":"Zur Untermühle","postalCode":"07751","locality":"Zöllnitz","municipality":{"key":"16074114","name":"Zöllnitz","type":"Kreisangehörige_Gemeinde"},"district":{"key":"16074","name":"Saale-Holzland-Kreis","type":"Landkreis"},"federalState":{"key":"16","name":"Thüringen"}},]