[{"name":"Alter Töpferweg","postalCode":"23744","locality":"Schönwalde am Bungsberg","municipality":{"key":"01055038","name":"Schönwalde am Bungsberg","type":"Kreisangehörige_Gemeinde"},"district":{"key":"01055","name":"Ostholstein","type":"Kreis"},"federalState":{"key":"01","name":"Schleswig-Holstein"}},{"name":"Am Diekshagen","postalCode":"23744","locality":"Schönwalde am Bungsberg","municipality":{"key":"01055038","name":"Schönwalde am Bungsberg","type":"Kreisangehörige_Gemeinde"},"district":{"key":"01055","name":"Ostholstein","type":"Kreis"},"federalState":{"key":"01","name":"Schleswig-Holstein"}},{"name":"Am Kornhof","postalCode":"23744","locality":"Schönwalde am Bungsberg","municipality":{"key":"01055038","name":"Schönwalde am Bungsberg","type":"Kreisangehörige_Gemeinde"},"district":{"key":"01055","name":"Ostholstein","type":"Kreis"},"federalState":{"key":"01","name":"Schleswig-Holstein"}},{"name":"Am Lachsbach","postalCode":"23744","locality":"Schönwalde am Bungsberg","municipality":{"key":"01055038","name":"Schönwalde am Bungsberg","type":"Kreisangehörige_Gemeinde"},"district":{"key":"01055","name":"Ostholstein","type":"Kreis"},"federalState":{"key":"01","name":"Schleswig-Holstein"}},{"name":"Am Ruhsal","postalCode":"23744","locality":"Schönwalde am Bungsberg","municipality":{"key":"01055038","name":"Schönwalde am Bungsberg","type":"Kreisangehörige_Gemeinde"},"district":{"key":"01055","name":"Ostholstein","type":"Kreis"},"federalState":{"key":"01","name":"Schleswig-Holstein"}},{"name":"Am Schönberg","postalCode":"23744","locality":"Schönwalde am Bungsberg","municipality":{"key":"01055038","name":"Schönwalde am Bungsberg","type":"Kreisangehörige_Gemeinde"},"district":{"key":"01055","name":"Ostholstein","type":"Kreis"},"federalState":{"key":"01","name":"Schleswig-Holstein"}},{"name":"Am Steinberg","postalCode":"23744","locality":"Schönwalde am Bungsberg","municipality":{"key":"01055038","name":"Schönwalde am Bungsberg","type":"Kreisangehörige_Gemeinde"},"district":{"key":"01055","name":"Ostholstein","type":"Kreis"},"federalState":{"key":"01","name":"Schleswig-Holstein"}},{"name":"Auf dem Lehm","postalCode":"23744","locality":"Schönwalde am Bungsberg","municipality":{"key":"01055038","name":"Schönwalde am Bungsberg","type":"Kreisangehörige_Gemeinde"},"district":{"key":"01055","name":"Ostholstein","type":"Kreis"},"federalState":{"key":"01","name":"Schleswig-Holstein"}},{"name":"Bergfelder Str.","postalCode":"23744","locality":"Schönwalde am Bungsberg","municipality":{"key":"01055038","name":"Schönwalde am Bungsberg","type":"Kreisangehörige_Gemeinde"},"district":{"key":"01055","name":"Ostholstein","type":"Kreis"},"federalState":{"key":"01","name":"Schleswig-Holstein"}},{"name":"Breslauer Str.","postalCode":"23744","locality":"Schönwalde am Bungsberg","municipality":{"key":"01055038","name":"Schönwalde am Bungsberg","type":"Kreisangehörige_Gemeinde"},"district":{"key":"01055","name":"Ostholstein","type":"Kreis"},"federalState":{"key":"01","name":"Schleswig-Holstein"}},{"name":"Bungsbergstr.","postalCode":"23744","locality":"Schönwalde am Bungsberg","municipality":{"key":"01055038","name":"Schönwalde am Bungsberg","type":"Kreisangehörige_Gemeinde"},"district":{"key":"01055","name":"Ostholstein","type":"Kreis"},"federalState":{"key":"01","name":"Schleswig-Holstein"}},{"name":"Eutiner Str.","postalCode":"23744","locality":"Schönwalde am Bungsberg","municipality":{"key":"01055038","name":"Schönwalde am Bungsberg","type":"Kreisangehörige_Gemeinde"},"district":{"key":"01055","name":"Ostholstein","type":"Kreis"},"federalState":{"key":"01","name":"Schleswig-Holstein"}},{"name":"Gläserland","postalCode":"23744","locality":"Schönwalde am Bungsberg","municipality":{"key":"01055038","name":"Schönwalde am Bungsberg","type":"Kreisangehörige_Gemeinde"},"district":{"key":"01055","name":"Ostholstein","type":"Kreis"},"federalState":{"key":"01","name":"Schleswig-Holstein"}},{"name":"Glinder Weg","postalCode":"23744","locality":"Schönwalde am Bungsberg","municipality":{"key":"01055038","name":"Schönwalde am Bungsberg","type":"Kreisangehörige_Gemeinde"},"district":{"key":"01055","name":"Ostholstein","type":"Kreis"},"federalState":{"key":"01","name":"Schleswig-Holstein"}},{"name":"Halendorf","postalCode":"23744","locality":"Schönwalde am Bungsberg","municipality":{"key":"01055038","name":"Schönwalde am Bungsberg","type":"Kreisangehörige_Gemeinde"},"district":{"key":"01055","name":"Ostholstein","type":"Kreis"},"federalState":{"key":"01","name":"Schleswig-Holstein"}},{"name":"Hansühner Str.","postalCode":"23744","locality":"Schönwalde am Bungsberg","municipality":{"key":"01055038","name":"Schönwalde am Bungsberg","type":"Kreisangehörige_Gemeinde"},"district":{"key":"01055","name":"Ostholstein","type":"Kreis"},"federalState":{"key":"01","name":"Schleswig-Holstein"}},{"name":"Helms Teich","postalCode":"23744","locality":"Schönwalde am Bungsberg","municipality":{"key":"01055038","name":"Schönwalde am Bungsberg","type":"Kreisangehörige_Gemeinde"},"district":{"key":"01055","name":"Ostholstein","type":"Kreis"},"federalState":{"key":"01","name":"Schleswig-Holstein"}},{"name":"Hof Mühlenberg","postalCode":"23744","locality":"Schönwalde am Bungsberg","municipality":{"key":"01055038","name":"Schönwalde am Bungsberg","type":"Kreisangehörige_Gemeinde"},"district":{"key":"01055","name":"Ostholstein","type":"Kreis"},"federalState":{"key":"01","name":"Schleswig-Holstein"}},{"name":"Hörn","postalCode":"23744","locality":"Schönwalde am Bungsberg","municipality":{"key":"01055038","name":"Schönwalde am Bungsberg","type":"Kreisangehörige_Gemeinde"},"district":{"key":"01055","name":"Ostholstein","type":"Kreis"},"federalState":{"key":"01","name":"Schleswig-Holstein"}},{"name":"Jahnweg","postalCode":"23744","locality":"Schönwalde am Bungsberg","municipality":{"key":"01055038","name":"Schönwalde am Bungsberg","type":"Kreisangehörige_Gemeinde"},"district":{"key":"01055","name":"Ostholstein","type":"Kreis"},"federalState":{"key":"01","name":"Schleswig-Holstein"}},{"name":"Kesselkrug","postalCode":"23744","locality":"Schönwalde am Bungsberg","municipality":{"key":"01055038","name":"Schönwalde am Bungsberg","type":"Kreisangehörige_Gemeinde"},"district":{"key":"01055","name":"Ostholstein","type":"Kreis"},"federalState":{"key":"01","name":"Schleswig-Holstein"}},{"name":"Kirchnücheler Weg","postalCode":"23744","locality":"Schönwalde am Bungsberg","municipality":{"key":"01055038","name":"Schönwalde am Bungsberg","type":"Kreisangehörige_Gemeinde"},"district":{"key":"01055","name":"Ostholstein","type":"Kreis"},"federalState":{"key":"01","name":"Schleswig-Holstein"}},{"name":"Kniphagener Weg","postalCode":"23744","locality":"Schönwalde am Bungsberg","municipality":{"key":"01055038","name":"Schönwalde am Bungsberg","type":"Kreisangehörige_Gemeinde"},"district":{"key":"01055","name":"Ostholstein","type":"Kreis"},"federalState":{"key":"01","name":"Schleswig-Holstein"}},{"name":"Langenreiherkoppel","postalCode":"23744","locality":"Schönwalde am Bungsberg","municipality":{"key":"01055038","name":"Schönwalde am Bungsberg","type":"Kreisangehörige_Gemeinde"},"district":{"key":"01055","name":"Ostholstein","type":"Kreis"},"federalState":{"key":"01","name":"Schleswig-Holstein"}},{"name":"Lange Reihe","postalCode":"23744","locality":"Schönwalde am Bungsberg","municipality":{"key":"01055038","name":"Schönwalde am Bungsberg","type":"Kreisangehörige_Gemeinde"},"district":{"key":"01055","name":"Ostholstein","type":"Kreis"},"federalState":{"key":"01","name":"Schleswig-Holstein"}},{"name":"Langer Redder","postalCode":"23744","locality":"Schönwalde am Bungsberg","municipality":{"key":"01055038","name":"Schönwalde am Bungsberg","type":"Kreisangehörige_Gemeinde"},"district":{"key":"01055","name":"Ostholstein","type":"Kreis"},"federalState":{"key":"01","name":"Schleswig-Holstein"}},{"name":"Leezer Weg","postalCode":"23744","locality":"Schönwalde am Bungsberg","municipality":{"key":"01055038","name":"Schönwalde am Bungsberg","type":"Kreisangehörige_Gemeinde"},"district":{"key":"01055","name":"Ostholstein","type":"Kreis"},"federalState":{"key":"01","name":"Schleswig-Holstein"}},{"name":"Lindhorst","postalCode":"23744","locality":"Schönwalde am Bungsberg","municipality":{"key":"01055038","name":"Schönwalde am Bungsberg","type":"Kreisangehörige_Gemeinde"},"district":{"key":"01055","name":"Ostholstein","type":"Kreis"},"federalState":{"key":"01","name":"Schleswig-Holstein"}},{"name":"Lütjenburger Str.","postalCode":"23744","locality":"Schönwalde am Bungsberg","municipality":{"key":"01055038","name":"Schönwalde am Bungsberg","type":"Kreisangehörige_Gemeinde"},"district":{"key":"01055","name":"Ostholstein","type":"Kreis"},"federalState":{"key":"01","name":"Schleswig-Holstein"}},{"name":"Meiereiberg","postalCode":"23744","locality":"Schönwalde am Bungsberg","municipality":{"key":"01055038","name":"Schönwalde am Bungsberg","type":"Kreisangehörige_Gemeinde"},"district":{"key":"01055","name":"Ostholstein","type":"Kreis"},"federalState":{"key":"01","name":"Schleswig-Holstein"}},{"name":"Milchstr.","postalCode":"23744","locality":"Schönwalde am Bungsberg","municipality":{"key":"01055038","name":"Schönwalde am Bungsberg","type":"Kreisangehörige_Gemeinde"},"district":{"key":"01055","name":"Ostholstein","type":"Kreis"},"federalState":{"key":"01","name":"Schleswig-Holstein"}},{"name":"Naturerlebnisraum Pfarrhof Schönwalde","postalCode":"23744","locality":"Schönwalde am Bungsberg","municipality":{"key":"01055038","name":"Schönwalde am Bungsberg","type":"Kreisangehörige_Gemeinde"},"district":{"key":"01055","name":"Ostholstein","type":"Kreis"},"federalState":{"key":"01","name":"Schleswig-Holstein"}},{"name":"Neu-Petersdorf","postalCode":"23744","locality":"Schönwalde am Bungsberg","municipality":{"key":"01055038","name":"Schönwalde am Bungsberg","type":"Kreisangehörige_Gemeinde"},"district":{"key":"01055","name":"Ostholstein","type":"Kreis"},"federalState":{"key":"01","name":"Schleswig-Holstein"}},{"name":"Oldenburger Str.","postalCode":"23744","locality":"Schönwalde am Bungsberg","municipality":{"key":"01055038","name":"Schönwalde am Bungsberg","type":"Kreisangehörige_Gemeinde"},"district":{"key":"01055","name":"Ostholstein","type":"Kreis"},"federalState":{"key":"01","name":"Schleswig-Holstein"}},{"name":"Ostpreußenweg","postalCode":"23744","locality":"Schönwalde am Bungsberg","municipality":{"key":"01055038","name":"Schönwalde am Bungsberg","type":"Kreisangehörige_Gemeinde"},"district":{"key":"01055","name":"Ostholstein","type":"Kreis"},"federalState":{"key":"01","name":"Schleswig-Holstein"}},{"name":"Pommernring","postalCode":"23744","locality":"Schönwalde am Bungsberg","municipality":{"key":"01055038","name":"Schönwalde am Bungsberg","type":"Kreisangehörige_Gemeinde"},"district":{"key":"01055","name":"Ostholstein","type":"Kreis"},"federalState":{"key":"01","name":"Schleswig-Holstein"}},{"name":"Quitschenbarg","postalCode":"23744","locality":"Schönwalde am Bungsberg","municipality":{"key":"01055038","name":"Schönwalde am Bungsberg","type":"Kreisangehörige_Gemeinde"},"district":{"key":"01055","name":"Ostholstein","type":"Kreis"},"federalState":{"key":"01","name":"Schleswig-Holstein"}},{"name":"Rosenstr.","postalCode":"23744","locality":"Schönwalde am Bungsberg","municipality":{"key":"01055038","name":"Schönwalde am Bungsberg","type":"Kreisangehörige_Gemeinde"},"district":{"key":"01055","name":"Ostholstein","type":"Kreis"},"federalState":{"key":"01","name":"Schleswig-Holstein"}},{"name":"Rundweg/Kreuzweg","postalCode":"23744","locality":"Schönwalde am Bungsberg","municipality":{"key":"01055038","name":"Schönwalde am Bungsberg","type":"Kreisangehörige_Gemeinde"},"district":{"key":"01055","name":"Ostholstein","type":"Kreis"},"federalState":{"key":"01","name":"Schleswig-Holstein"}},{"name":"Sandwurth","postalCode":"23744","locality":"Schönwalde am Bungsberg","municipality":{"key":"01055038","name":"Schönwalde am Bungsberg","type":"Kreisangehörige_Gemeinde"},"district":{"key":"01055","name":"Ostholstein","type":"Kreis"},"federalState":{"key":"01","name":"Schleswig-Holstein"}},{"name":"Scheelholz","postalCode":"23744","locality":"Schönwalde am Bungsberg","municipality":{"key":"01055038","name":"Schönwalde am Bungsberg","type":"Kreisangehörige_Gemeinde"},"district":{"key":"01055","name":"Ostholstein","type":"Kreis"},"federalState":{"key":"01","name":"Schleswig-Holstein"}},{"name":"Schmiedekamp","postalCode":"23744","locality":"Schönwalde am Bungsberg","municipality":{"key":"01055038","name":"Schönwalde am Bungsberg","type":"Kreisangehörige_Gemeinde"},"district":{"key":"01055","name":"Ostholstein","type":"Kreis"},"federalState":{"key":"01","name":"Schleswig-Holstein"}},{"name":"To'n Rösterbarg","postalCode":"23744","locality":"Schönwalde am Bungsberg","municipality":{"key":"01055038","name":"Schönwalde am Bungsberg","type":"Kreisangehörige_Gemeinde"},"district":{"key":"01055","name":"Ostholstein","type":"Kreis"},"federalState":{"key":"01","name":"Schleswig-Holstein"}},{"name":"Trimmplatz","postalCode":"23744","locality":"Schönwalde am Bungsberg","municipality":{"key":"01055038","name":"Schönwalde am Bungsberg","type":"Kreisangehörige_Gemeinde"},"district":{"key":"01055","name":"Ostholstein","type":"Kreis"},"federalState":{"key":"01","name":"Schleswig-Holstein"}},{"name":"Walkmühle","postalCode":"23744","locality":"Schönwalde am Bungsberg","municipality":{"key":"01055038","name":"Schönwalde am Bungsberg","type":"Kreisangehörige_Gemeinde"},"district":{"key":"01055","name":"Ostholstein","type":"Kreis"},"federalState":{"key":"01","name":"Schleswig-Holstein"}},{"name":"Wiesenweg","postalCode":"23744","locality":"Schönwalde am Bungsberg","municipality":{"key":"01055038","name":"Schönwalde am Bungsberg","type":"Kreisangehörige_Gemeinde"},"district":{"key":"01055","name":"Ostholstein","type":"Kreis"},"federalState":{"key":"01","name":"Schleswig-Holstein"}},{"name":"Zum Eichholz","postalCode":"23744","locality":"Schönwalde am Bungsberg","municipality":{"key":"01055038","name":"Schönwalde am Bungsberg","type":"Kreisangehörige_Gemeinde"},"district":{"key":"01055","name":"Ostholstein","type":"Kreis"},"federalState":{"key":"01","name":"Schleswig-Holstein"}},{"name":"Zum Kavian","postalCode":"23744","locality":"Schönwalde am Bungsberg","municipality":{"key":"01055038","name":"Schönwalde am Bungsberg","type":"Kreisangehörige_Gemeinde"},"district":{"key":"01055","name":"Ostholstein","type":"Kreis"},"federalState":{"key":"01","name":"Schleswig-Holstein"}},{"name":"Zum Schloßberg","postalCode":"23744","locality":"Schönwalde am Bungsberg","municipality":{"key":"01055038","name":"Schönwalde am Bungsberg","type":"Kreisangehörige_Gemeinde"},"district":{"key":"01055","name":"Ostholstein","type":"Kreis"},"federalState":{"key":"01","name":"Schleswig-Holstein"}},]