[{"name":"Am Mühlbach","postalCode":"86682","locality":"Genderkingen","municipality":{"key":"09779149","name":"Genderkingen","type":"Kreisangehörige_Gemeinde"},"district":{"key":"09779","name":"Donau-Ries","type":"Landkreis"},"federalState":{"key":"09","name":"Bayern"}},{"name":"Am Schulweg","postalCode":"86682","locality":"Genderkingen","municipality":{"key":"09779149","name":"Genderkingen","type":"Kreisangehörige_Gemeinde"},"district":{"key":"09779","name":"Donau-Ries","type":"Landkreis"},"federalState":{"key":"09","name":"Bayern"}},{"name":"An der Mühlbachquelle","postalCode":"86682","locality":"Genderkingen","municipality":{"key":"09779149","name":"Genderkingen","type":"Kreisangehörige_Gemeinde"},"district":{"key":"09779","name":"Donau-Ries","type":"Landkreis"},"federalState":{"key":"09","name":"Bayern"}},{"name":"Angerstr.","postalCode":"86682","locality":"Genderkingen","municipality":{"key":"09779149","name":"Genderkingen","type":"Kreisangehörige_Gemeinde"},"district":{"key":"09779","name":"Donau-Ries","type":"Landkreis"},"federalState":{"key":"09","name":"Bayern"}},{"name":"Bachstr.","postalCode":"86682","locality":"Genderkingen","municipality":{"key":"09779149","name":"Genderkingen","type":"Kreisangehörige_Gemeinde"},"district":{"key":"09779","name":"Donau-Ries","type":"Landkreis"},"federalState":{"key":"09","name":"Bayern"}},{"name":"Bäckerstr.","postalCode":"86682","locality":"Genderkingen","municipality":{"key":"09779149","name":"Genderkingen","type":"Kreisangehörige_Gemeinde"},"district":{"key":"09779","name":"Donau-Ries","type":"Landkreis"},"federalState":{"key":"09","name":"Bayern"}},{"name":"Dekan-Fischer-Str.","postalCode":"86682","locality":"Genderkingen","municipality":{"key":"09779149","name":"Genderkingen","type":"Kreisangehörige_Gemeinde"},"district":{"key":"09779","name":"Donau-Ries","type":"Landkreis"},"federalState":{"key":"09","name":"Bayern"}},{"name":"Donauwörther Str.","postalCode":"86682","locality":"Genderkingen","municipality":{"key":"09779149","name":"Genderkingen","type":"Kreisangehörige_Gemeinde"},"district":{"key":"09779","name":"Donau-Ries","type":"Landkreis"},"federalState":{"key":"09","name":"Bayern"}},{"name":"Flugplatz","postalCode":"86682","locality":"Genderkingen","municipality":{"key":"09779149","name":"Genderkingen","type":"Kreisangehörige_Gemeinde"},"district":{"key":"09779","name":"Donau-Ries","type":"Landkreis"},"federalState":{"key":"09","name":"Bayern"}},{"name":"Forstmahd","postalCode":"86682","locality":"Genderkingen","municipality":{"key":"09779149","name":"Genderkingen","type":"Kreisangehörige_Gemeinde"},"district":{"key":"09779","name":"Donau-Ries","type":"Landkreis"},"federalState":{"key":"09","name":"Bayern"}},{"name":"Fritz-Freisleben-Str.","postalCode":"86682","locality":"Genderkingen","municipality":{"key":"09779149","name":"Genderkingen","type":"Kreisangehörige_Gemeinde"},"district":{"key":"09779","name":"Donau-Ries","type":"Landkreis"},"federalState":{"key":"09","name":"Bayern"}},{"name":"Gartenstr.","postalCode":"86682","locality":"Genderkingen","municipality":{"key":"09779149","name":"Genderkingen","type":"Kreisangehörige_Gemeinde"},"district":{"key":"09779","name":"Donau-Ries","type":"Landkreis"},"federalState":{"key":"09","name":"Bayern"}},{"name":"Gewerbegebiet Neuteile","postalCode":"86682","locality":"Genderkingen","municipality":{"key":"09779149","name":"Genderkingen","type":"Kreisangehörige_Gemeinde"},"district":{"key":"09779","name":"Donau-Ries","type":"Landkreis"},"federalState":{"key":"09","name":"Bayern"}},{"name":"Hauptstr.","postalCode":"86682","locality":"Genderkingen","municipality":{"key":"09779149","name":"Genderkingen","type":"Kreisangehörige_Gemeinde"},"district":{"key":"09779","name":"Donau-Ries","type":"Landkreis"},"federalState":{"key":"09","name":"Bayern"}},{"name":"Josef-Eigner-Str.","postalCode":"86682","locality":"Genderkingen","municipality":{"key":"09779149","name":"Genderkingen","type":"Kreisangehörige_Gemeinde"},"district":{"key":"09779","name":"Donau-Ries","type":"Landkreis"},"federalState":{"key":"09","name":"Bayern"}},{"name":"Kapellstr.","postalCode":"86682","locality":"Genderkingen","municipality":{"key":"09779149","name":"Genderkingen","type":"Kreisangehörige_Gemeinde"},"district":{"key":"09779","name":"Donau-Ries","type":"Landkreis"},"federalState":{"key":"09","name":"Bayern"}},{"name":"Kirchplatz","postalCode":"86682","locality":"Genderkingen","municipality":{"key":"09779149","name":"Genderkingen","type":"Kreisangehörige_Gemeinde"},"district":{"key":"09779","name":"Donau-Ries","type":"Landkreis"},"federalState":{"key":"09","name":"Bayern"}},{"name":"Lange Gwand","postalCode":"86682","locality":"Genderkingen","municipality":{"key":"09779149","name":"Genderkingen","type":"Kreisangehörige_Gemeinde"},"district":{"key":"09779","name":"Donau-Ries","type":"Landkreis"},"federalState":{"key":"09","name":"Bayern"}},{"name":"Lechstr.","postalCode":"86682","locality":"Genderkingen","municipality":{"key":"09779149","name":"Genderkingen","type":"Kreisangehörige_Gemeinde"},"district":{"key":"09779","name":"Donau-Ries","type":"Landkreis"},"federalState":{"key":"09","name":"Bayern"}},{"name":"Philomena-Sailer-Str.","postalCode":"86682","locality":"Genderkingen","municipality":{"key":"09779149","name":"Genderkingen","type":"Kreisangehörige_Gemeinde"},"district":{"key":"09779","name":"Donau-Ries","type":"Landkreis"},"federalState":{"key":"09","name":"Bayern"}},{"name":"Raiffeisenstr.","postalCode":"86682","locality":"Genderkingen","municipality":{"key":"09779149","name":"Genderkingen","type":"Kreisangehörige_Gemeinde"},"district":{"key":"09779","name":"Donau-Ries","type":"Landkreis"},"federalState":{"key":"09","name":"Bayern"}},{"name":"Riedstr.","postalCode":"86682","locality":"Genderkingen","municipality":{"key":"09779149","name":"Genderkingen","type":"Kreisangehörige_Gemeinde"},"district":{"key":"09779","name":"Donau-Ries","type":"Landkreis"},"federalState":{"key":"09","name":"Bayern"}},{"name":"Schloßstr.","postalCode":"86682","locality":"Genderkingen","municipality":{"key":"09779149","name":"Genderkingen","type":"Kreisangehörige_Gemeinde"},"district":{"key":"09779","name":"Donau-Ries","type":"Landkreis"},"federalState":{"key":"09","name":"Bayern"}},{"name":"Schulstr.","postalCode":"86682","locality":"Genderkingen","municipality":{"key":"09779149","name":"Genderkingen","type":"Kreisangehörige_Gemeinde"},"district":{"key":"09779","name":"Donau-Ries","type":"Landkreis"},"federalState":{"key":"09","name":"Bayern"}},{"name":"Sonnenstr.","postalCode":"86682","locality":"Genderkingen","municipality":{"key":"09779149","name":"Genderkingen","type":"Kreisangehörige_Gemeinde"},"district":{"key":"09779","name":"Donau-Ries","type":"Landkreis"},"federalState":{"key":"09","name":"Bayern"}},{"name":"Spitzgartenweg","postalCode":"86682","locality":"Genderkingen","municipality":{"key":"09779149","name":"Genderkingen","type":"Kreisangehörige_Gemeinde"},"district":{"key":"09779","name":"Donau-Ries","type":"Landkreis"},"federalState":{"key":"09","name":"Bayern"}},{"name":"Südstr.","postalCode":"86682","locality":"Genderkingen","municipality":{"key":"09779149","name":"Genderkingen","type":"Kreisangehörige_Gemeinde"},"district":{"key":"09779","name":"Donau-Ries","type":"Landkreis"},"federalState":{"key":"09","name":"Bayern"}},{"name":"Theodor-Leißl-Str.","postalCode":"86682","locality":"Genderkingen","municipality":{"key":"09779149","name":"Genderkingen","type":"Kreisangehörige_Gemeinde"},"district":{"key":"09779","name":"Donau-Ries","type":"Landkreis"},"federalState":{"key":"09","name":"Bayern"}},{"name":"Wertachstr.","postalCode":"86682","locality":"Genderkingen","municipality":{"key":"09779149","name":"Genderkingen","type":"Kreisangehörige_Gemeinde"},"district":{"key":"09779","name":"Donau-Ries","type":"Landkreis"},"federalState":{"key":"09","name":"Bayern"}},{"name":"Westendstr.","postalCode":"86682","locality":"Genderkingen","municipality":{"key":"09779149","name":"Genderkingen","type":"Kreisangehörige_Gemeinde"},"district":{"key":"09779","name":"Donau-Ries","type":"Landkreis"},"federalState":{"key":"09","name":"Bayern"}},{"name":"Zollackerstr.","postalCode":"86682","locality":"Genderkingen","municipality":{"key":"09779149","name":"Genderkingen","type":"Kreisangehörige_Gemeinde"},"district":{"key":"09779","name":"Donau-Ries","type":"Landkreis"},"federalState":{"key":"09","name":"Bayern"}},]