[{"name":"Adlergasse","postalCode":"71282","locality":"Hemmingen","municipality":{"key":"08118027","name":"Hemmingen","type":"Kreisangehörige_Gemeinde"},"district":{"key":"08118","name":"Ludwigsburg","type":"Landkreis"},"federalState":{"key":"08","name":"Baden-Württemberg"}},{"name":"Albert-Schweitzer-Str.","postalCode":"71282","locality":"Hemmingen","municipality":{"key":"08118027","name":"Hemmingen","type":"Kreisangehörige_Gemeinde"},"district":{"key":"08118","name":"Ludwigsburg","type":"Landkreis"},"federalState":{"key":"08","name":"Baden-Württemberg"}},{"name":"Alemannenweg","postalCode":"71282","locality":"Hemmingen","municipality":{"key":"08118027","name":"Hemmingen","type":"Kreisangehörige_Gemeinde"},"district":{"key":"08118","name":"Ludwigsburg","type":"Landkreis"},"federalState":{"key":"08","name":"Baden-Württemberg"}},{"name":"Alfred-Bentz-Str.","postalCode":"30966","locality":"Hemmingen","municipality":{"key":"03241007","name":"Hemmingen, Stadt","type":"Stadt"},"district":{"key":"03241","name":"Region Hannover","type":"Landkreis"},"federalState":{"key":"03","name":"Niedersachsen"}},{"name":"Alfred-Delp-Weg","postalCode":"71282","locality":"Hemmingen","municipality":{"key":"08118027","name":"Hemmingen","type":"Kreisangehörige_Gemeinde"},"district":{"key":"08118","name":"Ludwigsburg","type":"Landkreis"},"federalState":{"key":"08","name":"Baden-Württemberg"}},{"name":"Allmendstr.","postalCode":"71282","locality":"Hemmingen","municipality":{"key":"08118027","name":"Hemmingen","type":"Kreisangehörige_Gemeinde"},"district":{"key":"08118","name":"Ludwigsburg","type":"Landkreis"},"federalState":{"key":"08","name":"Baden-Württemberg"}},{"name":"Alte Dorfstr.","postalCode":"30966","locality":"Hemmingen","municipality":{"key":"03241007","name":"Hemmingen, Stadt","type":"Stadt"},"district":{"key":"03241","name":"Region Hannover","type":"Landkreis"},"federalState":{"key":"03","name":"Niedersachsen"}},{"name":"Alte Molkerei","postalCode":"30966","locality":"Hemmingen","municipality":{"key":"03241007","name":"Hemmingen, Stadt","type":"Stadt"},"district":{"key":"03241","name":"Region Hannover","type":"Landkreis"},"federalState":{"key":"03","name":"Niedersachsen"}},{"name":"Alter Damm","postalCode":"30966","locality":"Hemmingen","municipality":{"key":"03241007","name":"Hemmingen, Stadt","type":"Stadt"},"district":{"key":"03241","name":"Region Hannover","type":"Landkreis"},"federalState":{"key":"03","name":"Niedersachsen"}},{"name":"Alte Schöckinger Str.","postalCode":"71282","locality":"Hemmingen","municipality":{"key":"08118027","name":"Hemmingen","type":"Kreisangehörige_Gemeinde"},"district":{"key":"08118","name":"Ludwigsburg","type":"Landkreis"},"federalState":{"key":"08","name":"Baden-Württemberg"}},{"name":"Am Bildstöckle","postalCode":"71282","locality":"Hemmingen","municipality":{"key":"08118027","name":"Hemmingen","type":"Kreisangehörige_Gemeinde"},"district":{"key":"08118","name":"Ludwigsburg","type":"Landkreis"},"federalState":{"key":"08","name":"Baden-Württemberg"}},{"name":"Am Burggraben","postalCode":"30966","locality":"Hemmingen","municipality":{"key":"03241007","name":"Hemmingen, Stadt","type":"Stadt"},"district":{"key":"03241","name":"Region Hannover","type":"Landkreis"},"federalState":{"key":"03","name":"Niedersachsen"}},{"name":"Am Damm","postalCode":"30966","locality":"Hemmingen","municipality":{"key":"03241007","name":"Hemmingen, Stadt","type":"Stadt"},"district":{"key":"03241","name":"Region Hannover","type":"Landkreis"},"federalState":{"key":"03","name":"Niedersachsen"}},{"name":"Am Denkmal","postalCode":"30966","locality":"Hemmingen","municipality":{"key":"03241007","name":"Hemmingen, Stadt","type":"Stadt"},"district":{"key":"03241","name":"Region Hannover","type":"Landkreis"},"federalState":{"key":"03","name":"Niedersachsen"}},{"name":"Am Ellernbusch","postalCode":"30966","locality":"Hemmingen","municipality":{"key":"03241007","name":"Hemmingen, Stadt","type":"Stadt"},"district":{"key":"03241","name":"Region Hannover","type":"Landkreis"},"federalState":{"key":"03","name":"Niedersachsen"}},{"name":"Am Eschenacker","postalCode":"30966","locality":"Hemmingen","municipality":{"key":"03241007","name":"Hemmingen, Stadt","type":"Stadt"},"district":{"key":"03241","name":"Region Hannover","type":"Landkreis"},"federalState":{"key":"03","name":"Niedersachsen"}},{"name":"Am Friedhof","postalCode":"30966","locality":"Hemmingen","municipality":{"key":"03241007","name":"Hemmingen, Stadt","type":"Stadt"},"district":{"key":"03241","name":"Region Hannover","type":"Landkreis"},"federalState":{"key":"03","name":"Niedersachsen"}},{"name":"Am Gutshof","postalCode":"30966","locality":"Hemmingen","municipality":{"key":"03241007","name":"Hemmingen, Stadt","type":"Stadt"},"district":{"key":"03241","name":"Region Hannover","type":"Landkreis"},"federalState":{"key":"03","name":"Niedersachsen"}},{"name":"Am Hohen Hagen","postalCode":"30966","locality":"Hemmingen","municipality":{"key":"03241007","name":"Hemmingen, Stadt","type":"Stadt"},"district":{"key":"03241","name":"Region Hannover","type":"Landkreis"},"federalState":{"key":"03","name":"Niedersachsen"}},{"name":"Am Hopfenberg","postalCode":"30966","locality":"Hemmingen","municipality":{"key":"03241007","name":"Hemmingen, Stadt","type":"Stadt"},"district":{"key":"03241","name":"Region Hannover","type":"Landkreis"},"federalState":{"key":"03","name":"Niedersachsen"}},{"name":"Am Ricklinger Holze","postalCode":"30966","locality":"Hemmingen","municipality":{"key":"03241007","name":"Hemmingen, Stadt","type":"Stadt"},"district":{"key":"03241","name":"Region Hannover","type":"Landkreis"},"federalState":{"key":"03","name":"Niedersachsen"}},{"name":"Am Roggenkamp","postalCode":"30966","locality":"Hemmingen","municipality":{"key":"03241007","name":"Hemmingen, Stadt","type":"Stadt"},"district":{"key":"03241","name":"Region Hannover","type":"Landkreis"},"federalState":{"key":"03","name":"Niedersachsen"}},{"name":"Am Spielfeld","postalCode":"30966","locality":"Hemmingen","municipality":{"key":"03241007","name":"Hemmingen, Stadt","type":"Stadt"},"district":{"key":"03241","name":"Region Hannover","type":"Landkreis"},"federalState":{"key":"03","name":"Niedersachsen"}},{"name":"Am Sportfeld","postalCode":"30966","locality":"Hemmingen","municipality":{"key":"03241007","name":"Hemmingen, Stadt","type":"Stadt"},"district":{"key":"03241","name":"Region Hannover","type":"Landkreis"},"federalState":{"key":"03","name":"Niedersachsen"}},{"name":"Am Weidenbrunnen","postalCode":"30966","locality":"Hemmingen","municipality":{"key":"03241007","name":"Hemmingen, Stadt","type":"Stadt"},"district":{"key":"03241","name":"Region Hannover","type":"Landkreis"},"federalState":{"key":"03","name":"Niedersachsen"}},{"name":"An den Wettenwiesen","postalCode":"71282","locality":"Hemmingen","municipality":{"key":"08118027","name":"Hemmingen","type":"Kreisangehörige_Gemeinde"},"district":{"key":"08118","name":"Ludwigsburg","type":"Landkreis"},"federalState":{"key":"08","name":"Baden-Württemberg"}},{"name":"An der Eiche","postalCode":"30966","locality":"Hemmingen","municipality":{"key":"03241007","name":"Hemmingen, Stadt","type":"Stadt"},"district":{"key":"03241","name":"Region Hannover","type":"Landkreis"},"federalState":{"key":"03","name":"Niedersachsen"}},{"name":"An der Kapelle","postalCode":"30966","locality":"Hemmingen","municipality":{"key":"03241007","name":"Hemmingen, Stadt","type":"Stadt"},"district":{"key":"03241","name":"Region Hannover","type":"Landkreis"},"federalState":{"key":"03","name":"Niedersachsen"}},{"name":"An der Landwehr","postalCode":"30966","locality":"Hemmingen","municipality":{"key":"03241007","name":"Hemmingen, Stadt","type":"Stadt"},"district":{"key":"03241","name":"Region Hannover","type":"Landkreis"},"federalState":{"key":"03","name":"Niedersachsen"}},{"name":"An der Mühle","postalCode":"30966","locality":"Hemmingen","municipality":{"key":"03241007","name":"Hemmingen, Stadt","type":"Stadt"},"district":{"key":"03241","name":"Region Hannover","type":"Landkreis"},"federalState":{"key":"03","name":"Niedersachsen"}},{"name":"An der Teufelskuhle","postalCode":"30966","locality":"Hemmingen","municipality":{"key":"03241007","name":"Hemmingen, Stadt","type":"Stadt"},"district":{"key":"03241","name":"Region Hannover","type":"Landkreis"},"federalState":{"key":"03","name":"Niedersachsen"}},{"name":"An der Wehrkirche","postalCode":"30966","locality":"Hemmingen","municipality":{"key":"03241007","name":"Hemmingen, Stadt","type":"Stadt"},"district":{"key":"03241","name":"Region Hannover","type":"Landkreis"},"federalState":{"key":"03","name":"Niedersachsen"}},{"name":"An der Worth","postalCode":"30966","locality":"Hemmingen","municipality":{"key":"03241007","name":"Hemmingen, Stadt","type":"Stadt"},"district":{"key":"03241","name":"Region Hannover","type":"Landkreis"},"federalState":{"key":"03","name":"Niedersachsen"}},{"name":"Angerweg","postalCode":"30966","locality":"Hemmingen","municipality":{"key":"03241007","name":"Hemmingen, Stadt","type":"Stadt"},"district":{"key":"03241","name":"Region Hannover","type":"Landkreis"},"federalState":{"key":"03","name":"Niedersachsen"}},{"name":"Arnumer Kirchstr.","postalCode":"30966","locality":"Hemmingen","municipality":{"key":"03241007","name":"Hemmingen, Stadt","type":"Stadt"},"district":{"key":"03241","name":"Region Hannover","type":"Landkreis"},"federalState":{"key":"03","name":"Niedersachsen"}},{"name":"Arnumer Landwehr","postalCode":"30966","locality":"Hemmingen","municipality":{"key":"03241007","name":"Hemmingen, Stadt","type":"Stadt"},"district":{"key":"03241","name":"Region Hannover","type":"Landkreis"},"federalState":{"key":"03","name":"Niedersachsen"}},{"name":"Arnumer Str.","postalCode":"30966","locality":"Hemmingen","municipality":{"key":"03241007","name":"Hemmingen, Stadt","type":"Stadt"},"district":{"key":"03241","name":"Region Hannover","type":"Landkreis"},"federalState":{"key":"03","name":"Niedersachsen"}},{"name":"Astrid-Lindgren-Str.","postalCode":"30966","locality":"Hemmingen","municipality":{"key":"03241007","name":"Hemmingen, Stadt","type":"Stadt"},"district":{"key":"03241","name":"Region Hannover","type":"Landkreis"},"federalState":{"key":"03","name":"Niedersachsen"}},{"name":"Aueweg","postalCode":"30966","locality":"Hemmingen","municipality":{"key":"03241007","name":"Hemmingen, Stadt","type":"Stadt"},"district":{"key":"03241","name":"Region Hannover","type":"Landkreis"},"federalState":{"key":"03","name":"Niedersachsen"}},{"name":"Auf dem Anger","postalCode":"30966","locality":"Hemmingen","municipality":{"key":"03241007","name":"Hemmingen, Stadt","type":"Stadt"},"district":{"key":"03241","name":"Region Hannover","type":"Landkreis"},"federalState":{"key":"03","name":"Niedersachsen"}},{"name":"Auf dem Sandberg","postalCode":"30966","locality":"Hemmingen","municipality":{"key":"03241007","name":"Hemmingen, Stadt","type":"Stadt"},"district":{"key":"03241","name":"Region Hannover","type":"Landkreis"},"federalState":{"key":"03","name":"Niedersachsen"}},{"name":"Auf den Äckern","postalCode":"30966","locality":"Hemmingen","municipality":{"key":"03241007","name":"Hemmingen, Stadt","type":"Stadt"},"district":{"key":"03241","name":"Region Hannover","type":"Landkreis"},"federalState":{"key":"03","name":"Niedersachsen"}},{"name":"Auf der Masch","postalCode":"30966","locality":"Hemmingen","municipality":{"key":"03241007","name":"Hemmingen, Stadt","type":"Stadt"},"district":{"key":"03241","name":"Region Hannover","type":"Landkreis"},"federalState":{"key":"03","name":"Niedersachsen"}},{"name":"Auf der Pferdekoppel","postalCode":"30966","locality":"Hemmingen","municipality":{"key":"03241007","name":"Hemmingen, Stadt","type":"Stadt"},"district":{"key":"03241","name":"Region Hannover","type":"Landkreis"},"federalState":{"key":"03","name":"Niedersachsen"}},{"name":"August-Blessing-Str.","postalCode":"71282","locality":"Hemmingen","municipality":{"key":"08118027","name":"Hemmingen","type":"Kreisangehörige_Gemeinde"},"district":{"key":"08118","name":"Ludwigsburg","type":"Landkreis"},"federalState":{"key":"08","name":"Baden-Württemberg"}},{"name":"Bachstr.","postalCode":"30966","locality":"Hemmingen","municipality":{"key":"03241007","name":"Hemmingen, Stadt","type":"Stadt"},"district":{"key":"03241","name":"Region Hannover","type":"Landkreis"},"federalState":{"key":"03","name":"Niedersachsen"}},{"name":"Bahnhofstr.","postalCode":"71282","locality":"Hemmingen","municipality":{"key":"08118027","name":"Hemmingen","type":"Kreisangehörige_Gemeinde"},"district":{"key":"08118","name":"Ludwigsburg","type":"Landkreis"},"federalState":{"key":"08","name":"Baden-Württemberg"}},{"name":"Baumgarten","postalCode":"30966","locality":"Hemmingen","municipality":{"key":"03241007","name":"Hemmingen, Stadt","type":"Stadt"},"district":{"key":"03241","name":"Region Hannover","type":"Landkreis"},"federalState":{"key":"03","name":"Niedersachsen"}},{"name":"Beekeweg","postalCode":"30966","locality":"Hemmingen","municipality":{"key":"03241007","name":"Hemmingen, Stadt","type":"Stadt"},"district":{"key":"03241","name":"Region Hannover","type":"Landkreis"},"federalState":{"key":"03","name":"Niedersachsen"}},{"name":"Beethovenstr.","postalCode":"30966","locality":"Hemmingen","municipality":{"key":"03241007","name":"Hemmingen, Stadt","type":"Stadt"},"district":{"key":"03241","name":"Region Hannover","type":"Landkreis"},"federalState":{"key":"03","name":"Niedersachsen"}},{"name":"Bergstr.","postalCode":"71282","locality":"Hemmingen","municipality":{"key":"08118027","name":"Hemmingen","type":"Kreisangehörige_Gemeinde"},"district":{"key":"08118","name":"Ludwigsburg","type":"Landkreis"},"federalState":{"key":"08","name":"Baden-Württemberg"}},{"name":"Berliner Str.","postalCode":"30966","locality":"Hemmingen","municipality":{"key":"03241007","name":"Hemmingen, Stadt","type":"Stadt"},"district":{"key":"03241","name":"Region Hannover","type":"Landkreis"},"federalState":{"key":"03","name":"Niedersachsen"}},{"name":"Besselhof","postalCode":"30966","locality":"Hemmingen","municipality":{"key":"03241007","name":"Hemmingen, Stadt","type":"Stadt"},"district":{"key":"03241","name":"Region Hannover","type":"Landkreis"},"federalState":{"key":"03","name":"Niedersachsen"}},{"name":"Birkenkamp","postalCode":"30966","locality":"Hemmingen","municipality":{"key":"03241007","name":"Hemmingen, Stadt","type":"Stadt"},"district":{"key":"03241","name":"Region Hannover","type":"Landkreis"},"federalState":{"key":"03","name":"Niedersachsen"}},{"name":"Birkenweg","postalCode":"30966","locality":"Hemmingen","municipality":{"key":"03241007","name":"Hemmingen, Stadt","type":"Stadt"},"district":{"key":"03241","name":"Region Hannover","type":"Landkreis"},"federalState":{"key":"03","name":"Niedersachsen"}},{"name":"Blohnstr.","postalCode":"71282","locality":"Hemmingen","municipality":{"key":"08118027","name":"Hemmingen","type":"Kreisangehörige_Gemeinde"},"district":{"key":"08118","name":"Ludwigsburg","type":"Landkreis"},"federalState":{"key":"08","name":"Baden-Württemberg"}},{"name":"Blumenstr.","postalCode":"71282","locality":"Hemmingen","municipality":{"key":"08118027","name":"Hemmingen","type":"Kreisangehörige_Gemeinde"},"district":{"key":"08118","name":"Ludwigsburg","type":"Landkreis"},"federalState":{"key":"08","name":"Baden-Württemberg"}},{"name":"Blumenweg","postalCode":"30966","locality":"Hemmingen","municipality":{"key":"03241007","name":"Hemmingen, Stadt","type":"Stadt"},"district":{"key":"03241","name":"Region Hannover","type":"Landkreis"},"federalState":{"key":"03","name":"Niedersachsen"}},{"name":"Boberweg","postalCode":"30966","locality":"Hemmingen","municipality":{"key":"03241007","name":"Hemmingen, Stadt","type":"Stadt"},"district":{"key":"03241","name":"Region Hannover","type":"Landkreis"},"federalState":{"key":"03","name":"Niedersachsen"}},{"name":"Bockstr.","postalCode":"30966","locality":"Hemmingen","municipality":{"key":"03241007","name":"Hemmingen, Stadt","type":"Stadt"},"district":{"key":"03241","name":"Region Hannover","type":"Landkreis"},"federalState":{"key":"03","name":"Niedersachsen"}},{"name":"Börie","postalCode":"30966","locality":"Hemmingen","municipality":{"key":"03241007","name":"Hemmingen, Stadt","type":"Stadt"},"district":{"key":"03241","name":"Region Hannover","type":"Landkreis"},"federalState":{"key":"03","name":"Niedersachsen"}},{"name":"Borkwinkel","postalCode":"30966","locality":"Hemmingen","municipality":{"key":"03241007","name":"Hemmingen, Stadt","type":"Stadt"},"district":{"key":"03241","name":"Region Hannover","type":"Landkreis"},"federalState":{"key":"03","name":"Niedersachsen"}},{"name":"Breite Str.","postalCode":"30966","locality":"Hemmingen","municipality":{"key":"03241007","name":"Hemmingen, Stadt","type":"Stadt"},"district":{"key":"03241","name":"Region Hannover","type":"Landkreis"},"federalState":{"key":"03","name":"Niedersachsen"}},{"name":"Brennereistr.","postalCode":"71282","locality":"Hemmingen","municipality":{"key":"08118027","name":"Hemmingen","type":"Kreisangehörige_Gemeinde"},"district":{"key":"08118","name":"Ludwigsburg","type":"Landkreis"},"federalState":{"key":"08","name":"Baden-Württemberg"}},{"name":"Breslauer Weg","postalCode":"30966","locality":"Hemmingen","municipality":{"key":"03241007","name":"Hemmingen, Stadt","type":"Stadt"},"district":{"key":"03241","name":"Region Hannover","type":"Landkreis"},"federalState":{"key":"03","name":"Niedersachsen"}},{"name":"Bruchgraben","postalCode":"30966","locality":"Hemmingen","municipality":{"key":"03241007","name":"Hemmingen, Stadt","type":"Stadt"},"district":{"key":"03241","name":"Region Hannover","type":"Landkreis"},"federalState":{"key":"03","name":"Niedersachsen"}},{"name":"Bruchweg","postalCode":"30966","locality":"Hemmingen","municipality":{"key":"03241007","name":"Hemmingen, Stadt","type":"Stadt"},"district":{"key":"03241","name":"Region Hannover","type":"Landkreis"},"federalState":{"key":"03","name":"Niedersachsen"}},{"name":"Brückstr.","postalCode":"30966","locality":"Hemmingen","municipality":{"key":"03241007","name":"Hemmingen, Stadt","type":"Stadt"},"district":{"key":"03241","name":"Region Hannover","type":"Landkreis"},"federalState":{"key":"03","name":"Niedersachsen"}},{"name":"Brühlwiesen","postalCode":"71282","locality":"Hemmingen","municipality":{"key":"08118027","name":"Hemmingen","type":"Kreisangehörige_Gemeinde"},"district":{"key":"08118","name":"Ludwigsburg","type":"Landkreis"},"federalState":{"key":"08","name":"Baden-Württemberg"}},{"name":"Brunnenweg","postalCode":"71282","locality":"Hemmingen","municipality":{"key":"08118027","name":"Hemmingen","type":"Kreisangehörige_Gemeinde"},"district":{"key":"08118","name":"Ludwigsburg","type":"Landkreis"},"federalState":{"key":"08","name":"Baden-Württemberg"}},{"name":"Bürgermeister-Bormann-Weg","postalCode":"30966","locality":"Hemmingen","municipality":{"key":"03241007","name":"Hemmingen, Stadt","type":"Stadt"},"district":{"key":"03241","name":"Region Hannover","type":"Landkreis"},"federalState":{"key":"03","name":"Niedersachsen"}},{"name":"Carl-Zeiss-Str.","postalCode":"30966","locality":"Hemmingen","municipality":{"key":"03241007","name":"Hemmingen, Stadt","type":"Stadt"},"district":{"key":"03241","name":"Region Hannover","type":"Landkreis"},"federalState":{"key":"03","name":"Niedersachsen"}},{"name":"Clara-Immerwahr-Str.","postalCode":"30966","locality":"Hemmingen","municipality":{"key":"03241007","name":"Hemmingen, Stadt","type":"Stadt"},"district":{"key":"03241","name":"Region Hannover","type":"Landkreis"},"federalState":{"key":"03","name":"Niedersachsen"}},{"name":"Clydesdale","postalCode":"30966","locality":"Hemmingen","municipality":{"key":"03241007","name":"Hemmingen, Stadt","type":"Stadt"},"district":{"key":"03241","name":"Region Hannover","type":"Landkreis"},"federalState":{"key":"03","name":"Niedersachsen"}},{"name":"Danziger Weg","postalCode":"30966","locality":"Hemmingen","municipality":{"key":"03241007","name":"Hemmingen, Stadt","type":"Stadt"},"district":{"key":"03241","name":"Region Hannover","type":"Landkreis"},"federalState":{"key":"03","name":"Niedersachsen"}},{"name":"Deisterstr.","postalCode":"30966","locality":"Hemmingen","municipality":{"key":"03241007","name":"Hemmingen, Stadt","type":"Stadt"},"district":{"key":"03241","name":"Region Hannover","type":"Landkreis"},"federalState":{"key":"03","name":"Niedersachsen"}},{"name":"Deveser Str.","postalCode":"30966","locality":"Hemmingen","municipality":{"key":"03241007","name":"Hemmingen, Stadt","type":"Stadt"},"district":{"key":"03241","name":"Region Hannover","type":"Landkreis"},"federalState":{"key":"03","name":"Niedersachsen"}},{"name":"Dicken Riede","postalCode":"30966","locality":"Hemmingen","municipality":{"key":"03241007","name":"Hemmingen, Stadt","type":"Stadt"},"district":{"key":"03241","name":"Region Hannover","type":"Landkreis"},"federalState":{"key":"03","name":"Niedersachsen"}},{"name":"Dieselstr.","postalCode":"71282","locality":"Hemmingen","municipality":{"key":"08118027","name":"Hemmingen","type":"Kreisangehörige_Gemeinde"},"district":{"key":"08118","name":"Ludwigsburg","type":"Landkreis"},"federalState":{"key":"08","name":"Baden-Württemberg"}},{"name":"Döhrener Str.","postalCode":"30966","locality":"Hemmingen","municipality":{"key":"03241007","name":"Hemmingen, Stadt","type":"Stadt"},"district":{"key":"03241","name":"Region Hannover","type":"Landkreis"},"federalState":{"key":"03","name":"Niedersachsen"}},{"name":"Dollinger Pfad","postalCode":"71282","locality":"Hemmingen","municipality":{"key":"08118027","name":"Hemmingen","type":"Kreisangehörige_Gemeinde"},"district":{"key":"08118","name":"Ludwigsburg","type":"Landkreis"},"federalState":{"key":"08","name":"Baden-Württemberg"}},{"name":"Dorfstr.","postalCode":"30966","locality":"Hemmingen","municipality":{"key":"03241007","name":"Hemmingen, Stadt","type":"Stadt"},"district":{"key":"03241","name":"Region Hannover","type":"Landkreis"},"federalState":{"key":"03","name":"Niedersachsen"}},{"name":"Dörrieweg","postalCode":"30966","locality":"Hemmingen","municipality":{"key":"03241007","name":"Hemmingen, Stadt","type":"Stadt"},"district":{"key":"03241","name":"Region Hannover","type":"Landkreis"},"federalState":{"key":"03","name":"Niedersachsen"}},{"name":"Dresdener Weg","postalCode":"30966","locality":"Hemmingen","municipality":{"key":"03241007","name":"Hemmingen, Stadt","type":"Stadt"},"district":{"key":"03241","name":"Region Hannover","type":"Landkreis"},"federalState":{"key":"03","name":"Niedersachsen"}},{"name":"Dunkle Str.","postalCode":"30966","locality":"Hemmingen","municipality":{"key":"03241007","name":"Hemmingen, Stadt","type":"Stadt"},"district":{"key":"03241","name":"Region Hannover","type":"Landkreis"},"federalState":{"key":"03","name":"Niedersachsen"}},{"name":"Durchgangssträßle","postalCode":"71282","locality":"Hemmingen","municipality":{"key":"08118027","name":"Hemmingen","type":"Kreisangehörige_Gemeinde"},"district":{"key":"08118","name":"Ludwigsburg","type":"Landkreis"},"federalState":{"key":"08","name":"Baden-Württemberg"}},{"name":"Eberdinger Str.","postalCode":"71282","locality":"Hemmingen","municipality":{"key":"08118027","name":"Hemmingen","type":"Kreisangehörige_Gemeinde"},"district":{"key":"08118","name":"Ludwigsburg","type":"Landkreis"},"federalState":{"key":"08","name":"Baden-Württemberg"}},{"name":"Eckernkamp","postalCode":"30966","locality":"Hemmingen","municipality":{"key":"03241007","name":"Hemmingen, Stadt","type":"Stadt"},"district":{"key":"03241","name":"Region Hannover","type":"Landkreis"},"federalState":{"key":"03","name":"Niedersachsen"}},{"name":"Eisenbahnstr.","postalCode":"71282","locality":"Hemmingen","municipality":{"key":"08118027","name":"Hemmingen","type":"Kreisangehörige_Gemeinde"},"district":{"key":"08118","name":"Ludwigsburg","type":"Landkreis"},"federalState":{"key":"08","name":"Baden-Württemberg"}},{"name":"Eisgasse","postalCode":"71282","locality":"Hemmingen","municipality":{"key":"08118027","name":"Hemmingen","type":"Kreisangehörige_Gemeinde"},"district":{"key":"08118","name":"Ludwigsburg","type":"Landkreis"},"federalState":{"key":"08","name":"Baden-Württemberg"}},{"name":"Elisabeth-Selbert-Weg","postalCode":"71282","locality":"Hemmingen","municipality":{"key":"08118027","name":"Hemmingen","type":"Kreisangehörige_Gemeinde"},"district":{"key":"08118","name":"Ludwigsburg","type":"Landkreis"},"federalState":{"key":"08","name":"Baden-Württemberg"}},{"name":"Else-Kienle-Weg","postalCode":"71282","locality":"Hemmingen","municipality":{"key":"08118027","name":"Hemmingen","type":"Kreisangehörige_Gemeinde"},"district":{"key":"08118","name":"Ludwigsburg","type":"Landkreis"},"federalState":{"key":"08","name":"Baden-Württemberg"}},{"name":"Emmy-Noether-Str.","postalCode":"30966","locality":"Hemmingen","municipality":{"key":"03241007","name":"Hemmingen, Stadt","type":"Stadt"},"district":{"key":"03241","name":"Region Hannover","type":"Landkreis"},"federalState":{"key":"03","name":"Niedersachsen"}},{"name":"Erlenweg","postalCode":"30966","locality":"Hemmingen","municipality":{"key":"03241007","name":"Hemmingen, Stadt","type":"Stadt"},"district":{"key":"03241","name":"Region Hannover","type":"Landkreis"},"federalState":{"key":"03","name":"Niedersachsen"}},{"name":"Ernst-von-Alten-Allee","postalCode":"30966","locality":"Hemmingen","municipality":{"key":"03241007","name":"Hemmingen, Stadt","type":"Stadt"},"district":{"key":"03241","name":"Region Hannover","type":"Landkreis"},"federalState":{"key":"03","name":"Niedersachsen"}},{"name":"Erwin-Rommel-Str.","postalCode":"71282","locality":"Hemmingen","municipality":{"key":"08118027","name":"Hemmingen","type":"Kreisangehörige_Gemeinde"},"district":{"key":"08118","name":"Ludwigsburg","type":"Landkreis"},"federalState":{"key":"08","name":"Baden-Württemberg"}},{"name":"Eugen-Bolz-Str.","postalCode":"71282","locality":"Hemmingen","municipality":{"key":"08118027","name":"Hemmingen","type":"Kreisangehörige_Gemeinde"},"district":{"key":"08118","name":"Ludwigsburg","type":"Landkreis"},"federalState":{"key":"08","name":"Baden-Württemberg"}},{"name":"Eulenkamp","postalCode":"30966","locality":"Hemmingen","municipality":{"key":"03241007","name":"Hemmingen, Stadt","type":"Stadt"},"district":{"key":"03241","name":"Region Hannover","type":"Landkreis"},"federalState":{"key":"03","name":"Niedersachsen"}},{"name":"Falkenstr.","postalCode":"71282","locality":"Hemmingen","municipality":{"key":"08118027","name":"Hemmingen","type":"Kreisangehörige_Gemeinde"},"district":{"key":"08118","name":"Ludwigsburg","type":"Landkreis"},"federalState":{"key":"08","name":"Baden-Württemberg"}},{"name":"Fichtenwinkel","postalCode":"30966","locality":"Hemmingen","municipality":{"key":"03241007","name":"Hemmingen, Stadt","type":"Stadt"},"district":{"key":"03241","name":"Region Hannover","type":"Landkreis"},"federalState":{"key":"03","name":"Niedersachsen"}},{"name":"Finkenstr.","postalCode":"71282","locality":"Hemmingen","municipality":{"key":"08118027","name":"Hemmingen","type":"Kreisangehörige_Gemeinde"},"district":{"key":"08118","name":"Ludwigsburg","type":"Landkreis"},"federalState":{"key":"08","name":"Baden-Württemberg"}},{"name":"Finkenweg","postalCode":"30966","locality":"Hemmingen","municipality":{"key":"03241007","name":"Hemmingen, Stadt","type":"Stadt"},"district":{"key":"03241","name":"Region Hannover","type":"Landkreis"},"federalState":{"key":"03","name":"Niedersachsen"}},{"name":"Flauchhalde","postalCode":"71282","locality":"Hemmingen","municipality":{"key":"08118027","name":"Hemmingen","type":"Kreisangehörige_Gemeinde"},"district":{"key":"08118","name":"Ludwigsburg","type":"Landkreis"},"federalState":{"key":"08","name":"Baden-Württemberg"}},{"name":"Flinsberger Weg","postalCode":"30966","locality":"Hemmingen","municipality":{"key":"03241007","name":"Hemmingen, Stadt","type":"Stadt"},"district":{"key":"03241","name":"Region Hannover","type":"Landkreis"},"federalState":{"key":"03","name":"Niedersachsen"}},{"name":"Freda-Wuesthoff-Str.","postalCode":"30966","locality":"Hemmingen","municipality":{"key":"03241007","name":"Hemmingen, Stadt","type":"Stadt"},"district":{"key":"03241","name":"Region Hannover","type":"Landkreis"},"federalState":{"key":"03","name":"Niedersachsen"}},{"name":"Freiherr-von-Varnbüler-Str.","postalCode":"71282","locality":"Hemmingen","municipality":{"key":"08118027","name":"Hemmingen","type":"Kreisangehörige_Gemeinde"},"district":{"key":"08118","name":"Ludwigsburg","type":"Landkreis"},"federalState":{"key":"08","name":"Baden-Württemberg"}},{"name":"Freiwillige Feuerwehr Hemmingen/Wilkenburg (neu)","postalCode":"30966","locality":"Hemmingen","municipality":{"key":"03241007","name":"Hemmingen, Stadt","type":"Stadt"},"district":{"key":"03241","name":"Region Hannover","type":"Landkreis"},"federalState":{"key":"03","name":"Niedersachsen"}},{"name":"Friedenstr.","postalCode":"71282","locality":"Hemmingen","municipality":{"key":"08118027","name":"Hemmingen","type":"Kreisangehörige_Gemeinde"},"district":{"key":"08118","name":"Ludwigsburg","type":"Landkreis"},"federalState":{"key":"08","name":"Baden-Württemberg"}},{"name":"Friedrich-Müller-Weg","postalCode":"30966","locality":"Hemmingen","municipality":{"key":"03241007","name":"Hemmingen, Stadt","type":"Stadt"},"district":{"key":"03241","name":"Region Hannover","type":"Landkreis"},"federalState":{"key":"03","name":"Niedersachsen"}},{"name":"Friedrich-Rodehorst-Str.","postalCode":"30966","locality":"Hemmingen","municipality":{"key":"03241007","name":"Hemmingen, Stadt","type":"Stadt"},"district":{"key":"03241","name":"Region Hannover","type":"Landkreis"},"federalState":{"key":"03","name":"Niedersachsen"}},{"name":"Fritz-Kuckuck-Str.","postalCode":"30966","locality":"Hemmingen","municipality":{"key":"03241007","name":"Hemmingen, Stadt","type":"Stadt"},"district":{"key":"03241","name":"Region Hannover","type":"Landkreis"},"federalState":{"key":"03","name":"Niedersachsen"}},{"name":"Fronstr.","postalCode":"71282","locality":"Hemmingen","municipality":{"key":"08118027","name":"Hemmingen","type":"Kreisangehörige_Gemeinde"},"district":{"key":"08118","name":"Ludwigsburg","type":"Landkreis"},"federalState":{"key":"08","name":"Baden-Württemberg"}},{"name":"Fuchsbachweg","postalCode":"30966","locality":"Hemmingen","municipality":{"key":"03241007","name":"Hemmingen, Stadt","type":"Stadt"},"district":{"key":"03241","name":"Region Hannover","type":"Landkreis"},"federalState":{"key":"03","name":"Niedersachsen"}},{"name":"Gänsekamp","postalCode":"30966","locality":"Hemmingen","municipality":{"key":"03241007","name":"Hemmingen, Stadt","type":"Stadt"},"district":{"key":"03241","name":"Region Hannover","type":"Landkreis"},"federalState":{"key":"03","name":"Niedersachsen"}},{"name":"Gänsemarsch","postalCode":"30966","locality":"Hemmingen","municipality":{"key":"03241007","name":"Hemmingen, Stadt","type":"Stadt"},"district":{"key":"03241","name":"Region Hannover","type":"Landkreis"},"federalState":{"key":"03","name":"Niedersachsen"}},{"name":"Gartenplatz","postalCode":"30966","locality":"Hemmingen","municipality":{"key":"03241007","name":"Hemmingen, Stadt","type":"Stadt"},"district":{"key":"03241","name":"Region Hannover","type":"Landkreis"},"federalState":{"key":"03","name":"Niedersachsen"}},{"name":"Gartenstr.","postalCode":"30966","locality":"Hemmingen","municipality":{"key":"03241007","name":"Hemmingen, Stadt","type":"Stadt"},"district":{"key":"03241","name":"Region Hannover","type":"Landkreis"},"federalState":{"key":"03","name":"Niedersachsen"}},{"name":"Gartenstr.","postalCode":"71282","locality":"Hemmingen","municipality":{"key":"08118027","name":"Hemmingen","type":"Kreisangehörige_Gemeinde"},"district":{"key":"08118","name":"Ludwigsburg","type":"Landkreis"},"federalState":{"key":"08","name":"Baden-Württemberg"}},{"name":"Gartenweg","postalCode":"30966","locality":"Hemmingen","municipality":{"key":"03241007","name":"Hemmingen, Stadt","type":"Stadt"},"district":{"key":"03241","name":"Region Hannover","type":"Landkreis"},"federalState":{"key":"03","name":"Niedersachsen"}},{"name":"Gebrüder-Grimm-Weg","postalCode":"30966","locality":"Hemmingen","municipality":{"key":"03241007","name":"Hemmingen, Stadt","type":"Stadt"},"district":{"key":"03241","name":"Region Hannover","type":"Landkreis"},"federalState":{"key":"03","name":"Niedersachsen"}},{"name":"Gertrud-Bäumer-Weg","postalCode":"71282","locality":"Hemmingen","municipality":{"key":"08118027","name":"Hemmingen","type":"Kreisangehörige_Gemeinde"},"district":{"key":"08118","name":"Ludwigsburg","type":"Landkreis"},"federalState":{"key":"08","name":"Baden-Württemberg"}},{"name":"Gertrud-Kochanowski-Weg","postalCode":"30966","locality":"Hemmingen","municipality":{"key":"03241007","name":"Hemmingen, Stadt","type":"Stadt"},"district":{"key":"03241","name":"Region Hannover","type":"Landkreis"},"federalState":{"key":"03","name":"Niedersachsen"}},{"name":"Geschwister-Scholl-Str.","postalCode":"71282","locality":"Hemmingen","municipality":{"key":"08118027","name":"Hemmingen","type":"Kreisangehörige_Gemeinde"},"district":{"key":"08118","name":"Ludwigsburg","type":"Landkreis"},"federalState":{"key":"08","name":"Baden-Württemberg"}},{"name":"Giebelkamp","postalCode":"30966","locality":"Hemmingen","municipality":{"key":"03241007","name":"Hemmingen, Stadt","type":"Stadt"},"district":{"key":"03241","name":"Region Hannover","type":"Landkreis"},"federalState":{"key":"03","name":"Niedersachsen"}},{"name":"Glatzer Weg","postalCode":"30966","locality":"Hemmingen","municipality":{"key":"03241007","name":"Hemmingen, Stadt","type":"Stadt"},"district":{"key":"03241","name":"Region Hannover","type":"Landkreis"},"federalState":{"key":"03","name":"Niedersachsen"}},{"name":"Goethestr.","postalCode":"71282","locality":"Hemmingen","municipality":{"key":"08118027","name":"Hemmingen","type":"Kreisangehörige_Gemeinde"},"district":{"key":"08118","name":"Ludwigsburg","type":"Landkreis"},"federalState":{"key":"08","name":"Baden-Württemberg"}},{"name":"Göttinger Landstr.","postalCode":"30966","locality":"Hemmingen","municipality":{"key":"03241007","name":"Hemmingen, Stadt","type":"Stadt"},"district":{"key":"03241","name":"Region Hannover","type":"Landkreis"},"federalState":{"key":"03","name":"Niedersachsen"}},{"name":"Göttinger Str.","postalCode":"30966","locality":"Hemmingen","municipality":{"key":"03241007","name":"Hemmingen, Stadt","type":"Stadt"},"district":{"key":"03241","name":"Region Hannover","type":"Landkreis"},"federalState":{"key":"03","name":"Niedersachsen"}},{"name":"Grasweg","postalCode":"30966","locality":"Hemmingen","municipality":{"key":"03241007","name":"Hemmingen, Stadt","type":"Stadt"},"district":{"key":"03241","name":"Region Hannover","type":"Landkreis"},"federalState":{"key":"03","name":"Niedersachsen"}},{"name":"Greiffenberger Str.","postalCode":"30966","locality":"Hemmingen","municipality":{"key":"03241007","name":"Hemmingen, Stadt","type":"Stadt"},"district":{"key":"03241","name":"Region Hannover","type":"Landkreis"},"federalState":{"key":"03","name":"Niedersachsen"}},{"name":"Grevenbleck","postalCode":"30966","locality":"Hemmingen","municipality":{"key":"03241007","name":"Hemmingen, Stadt","type":"Stadt"},"district":{"key":"03241","name":"Region Hannover","type":"Landkreis"},"federalState":{"key":"03","name":"Niedersachsen"}},{"name":"Gröninger Weg","postalCode":"71282","locality":"Hemmingen","municipality":{"key":"08118027","name":"Hemmingen","type":"Kreisangehörige_Gemeinde"},"district":{"key":"08118","name":"Ludwigsburg","type":"Landkreis"},"federalState":{"key":"08","name":"Baden-Württemberg"}},{"name":"Gustav-Pries-Str.","postalCode":"30966","locality":"Hemmingen","municipality":{"key":"03241007","name":"Hemmingen, Stadt","type":"Stadt"},"district":{"key":"03241","name":"Region Hannover","type":"Landkreis"},"federalState":{"key":"03","name":"Niedersachsen"}},{"name":"Gut","postalCode":"30966","locality":"Hemmingen","municipality":{"key":"03241007","name":"Hemmingen, Stadt","type":"Stadt"},"district":{"key":"03241","name":"Region Hannover","type":"Landkreis"},"federalState":{"key":"03","name":"Niedersachsen"}},{"name":"Gutenbergstr.","postalCode":"30966","locality":"Hemmingen","municipality":{"key":"03241007","name":"Hemmingen, Stadt","type":"Stadt"},"district":{"key":"03241","name":"Region Hannover","type":"Landkreis"},"federalState":{"key":"03","name":"Niedersachsen"}},{"name":"Hahnenkamp","postalCode":"30966","locality":"Hemmingen","municipality":{"key":"03241007","name":"Hemmingen, Stadt","type":"Stadt"},"district":{"key":"03241","name":"Region Hannover","type":"Landkreis"},"federalState":{"key":"03","name":"Niedersachsen"}},{"name":"Haldenhöfe","postalCode":"71282","locality":"Hemmingen","municipality":{"key":"08118027","name":"Hemmingen","type":"Kreisangehörige_Gemeinde"},"district":{"key":"08118","name":"Ludwigsburg","type":"Landkreis"},"federalState":{"key":"08","name":"Baden-Württemberg"}},{"name":"Hallerskamp","postalCode":"30966","locality":"Hemmingen","municipality":{"key":"03241007","name":"Hemmingen, Stadt","type":"Stadt"},"district":{"key":"03241","name":"Region Hannover","type":"Landkreis"},"federalState":{"key":"03","name":"Niedersachsen"}},{"name":"Hallerweg","postalCode":"30966","locality":"Hemmingen","municipality":{"key":"03241007","name":"Hemmingen, Stadt","type":"Stadt"},"district":{"key":"03241","name":"Region Hannover","type":"Landkreis"},"federalState":{"key":"03","name":"Niedersachsen"}},{"name":"Hannah-Arendt-Str.","postalCode":"30966","locality":"Hemmingen","municipality":{"key":"03241007","name":"Hemmingen, Stadt","type":"Stadt"},"district":{"key":"03241","name":"Region Hannover","type":"Landkreis"},"federalState":{"key":"03","name":"Niedersachsen"}},{"name":"Hans-Theismann-Weg","postalCode":"30966","locality":"Hemmingen","municipality":{"key":"03241007","name":"Hemmingen, Stadt","type":"Stadt"},"district":{"key":"03241","name":"Region Hannover","type":"Landkreis"},"federalState":{"key":"03","name":"Niedersachsen"}},{"name":"Harkenblecker Furt","postalCode":"30966","locality":"Hemmingen","municipality":{"key":"03241007","name":"Hemmingen, Stadt","type":"Stadt"},"district":{"key":"03241","name":"Region Hannover","type":"Landkreis"},"federalState":{"key":"03","name":"Niedersachsen"}},{"name":"Harkenblecker Weg","postalCode":"30966","locality":"Hemmingen","municipality":{"key":"03241007","name":"Hemmingen, Stadt","type":"Stadt"},"district":{"key":"03241","name":"Region Hannover","type":"Landkreis"},"federalState":{"key":"03","name":"Niedersachsen"}},{"name":"Hauptstr.","postalCode":"30966","locality":"Hemmingen","municipality":{"key":"03241007","name":"Hemmingen, Stadt","type":"Stadt"},"district":{"key":"03241","name":"Region Hannover","type":"Landkreis"},"federalState":{"key":"03","name":"Niedersachsen"}},{"name":"Hauptstr.","postalCode":"71282","locality":"Hemmingen","municipality":{"key":"08118027","name":"Hemmingen","type":"Kreisangehörige_Gemeinde"},"district":{"key":"08118","name":"Ludwigsburg","type":"Landkreis"},"federalState":{"key":"08","name":"Baden-Württemberg"}},{"name":"Haydnweg","postalCode":"30966","locality":"Hemmingen","municipality":{"key":"03241007","name":"Hemmingen, Stadt","type":"Stadt"},"district":{"key":"03241","name":"Region Hannover","type":"Landkreis"},"federalState":{"key":"03","name":"Niedersachsen"}},{"name":"Hegelstr.","postalCode":"71282","locality":"Hemmingen","municipality":{"key":"08118027","name":"Hemmingen","type":"Kreisangehörige_Gemeinde"},"district":{"key":"08118","name":"Ludwigsburg","type":"Landkreis"},"federalState":{"key":"08","name":"Baden-Württemberg"}},{"name":"Hegnachweg","postalCode":"71282","locality":"Hemmingen","municipality":{"key":"08118027","name":"Hemmingen","type":"Kreisangehörige_Gemeinde"},"district":{"key":"08118","name":"Ludwigsburg","type":"Landkreis"},"federalState":{"key":"08","name":"Baden-Württemberg"}},{"name":"Heifeld","postalCode":"30966","locality":"Hemmingen","municipality":{"key":"03241007","name":"Hemmingen, Stadt","type":"Stadt"},"district":{"key":"03241","name":"Region Hannover","type":"Landkreis"},"federalState":{"key":"03","name":"Niedersachsen"}},{"name":"Heimerdinger Str.","postalCode":"71282","locality":"Hemmingen","municipality":{"key":"08118027","name":"Hemmingen","type":"Kreisangehörige_Gemeinde"},"district":{"key":"08118","name":"Ludwigsburg","type":"Landkreis"},"federalState":{"key":"08","name":"Baden-Württemberg"}},{"name":"Heinrich-Hertz-Str.","postalCode":"30966","locality":"Hemmingen","municipality":{"key":"03241007","name":"Hemmingen, Stadt","type":"Stadt"},"district":{"key":"03241","name":"Region Hannover","type":"Landkreis"},"federalState":{"key":"03","name":"Niedersachsen"}},{"name":"Heisterkamp","postalCode":"30966","locality":"Hemmingen","municipality":{"key":"03241007","name":"Hemmingen, Stadt","type":"Stadt"},"district":{"key":"03241","name":"Region Hannover","type":"Landkreis"},"federalState":{"key":"03","name":"Niedersachsen"}},{"name":"Helene-Lange-Str.","postalCode":"71282","locality":"Hemmingen","municipality":{"key":"08118027","name":"Hemmingen","type":"Kreisangehörige_Gemeinde"},"district":{"key":"08118","name":"Ludwigsburg","type":"Landkreis"},"federalState":{"key":"08","name":"Baden-Württemberg"}},{"name":"Hemminger Kirchweg","postalCode":"30966","locality":"Hemmingen","municipality":{"key":"03241007","name":"Hemmingen, Stadt","type":"Stadt"},"district":{"key":"03241","name":"Region Hannover","type":"Landkreis"},"federalState":{"key":"03","name":"Niedersachsen"}},{"name":"Hemminger Str.","postalCode":"71282","locality":"Hemmingen","municipality":{"key":"08118027","name":"Hemmingen","type":"Kreisangehörige_Gemeinde"},"district":{"key":"08118","name":"Ludwigsburg","type":"Landkreis"},"federalState":{"key":"08","name":"Baden-Württemberg"}},{"name":"Hermann-Baxmann-Weg","postalCode":"30966","locality":"Hemmingen","municipality":{"key":"03241007","name":"Hemmingen, Stadt","type":"Stadt"},"district":{"key":"03241","name":"Region Hannover","type":"Landkreis"},"federalState":{"key":"03","name":"Niedersachsen"}},{"name":"Heukamp","postalCode":"30966","locality":"Hemmingen","municipality":{"key":"03241007","name":"Hemmingen, Stadt","type":"Stadt"},"district":{"key":"03241","name":"Region Hannover","type":"Landkreis"},"federalState":{"key":"03","name":"Niedersachsen"}},{"name":"Hiddestorfer Str.","postalCode":"30966","locality":"Hemmingen","municipality":{"key":"03241007","name":"Hemmingen, Stadt","type":"Stadt"},"district":{"key":"03241","name":"Region Hannover","type":"Landkreis"},"federalState":{"key":"03","name":"Niedersachsen"}},{"name":"Hirschstr.","postalCode":"71282","locality":"Hemmingen","municipality":{"key":"08118027","name":"Hemmingen","type":"Kreisangehörige_Gemeinde"},"district":{"key":"08118","name":"Ludwigsburg","type":"Landkreis"},"federalState":{"key":"08","name":"Baden-Württemberg"}},{"name":"Hochdorfer Str.","postalCode":"71282","locality":"Hemmingen","municipality":{"key":"08118027","name":"Hemmingen","type":"Kreisangehörige_Gemeinde"},"district":{"key":"08118","name":"Ludwigsburg","type":"Landkreis"},"federalState":{"key":"08","name":"Baden-Württemberg"}},{"name":"Hochstetter Str.","postalCode":"71282","locality":"Hemmingen","municipality":{"key":"08118027","name":"Hemmingen","type":"Kreisangehörige_Gemeinde"},"district":{"key":"08118","name":"Ludwigsburg","type":"Landkreis"},"federalState":{"key":"08","name":"Baden-Württemberg"}},{"name":"Hohe Bünte","postalCode":"30966","locality":"Hemmingen","municipality":{"key":"03241007","name":"Hemmingen, Stadt","type":"Stadt"},"district":{"key":"03241","name":"Region Hannover","type":"Landkreis"},"federalState":{"key":"03","name":"Niedersachsen"}},{"name":"Hoher Eschenweg","postalCode":"30966","locality":"Hemmingen","municipality":{"key":"03241007","name":"Hemmingen, Stadt","type":"Stadt"},"district":{"key":"03241","name":"Region Hannover","type":"Landkreis"},"federalState":{"key":"03","name":"Niedersachsen"}},{"name":"Hoher Holzweg","postalCode":"30966","locality":"Hemmingen","municipality":{"key":"03241007","name":"Hemmingen, Stadt","type":"Stadt"},"district":{"key":"03241","name":"Region Hannover","type":"Landkreis"},"federalState":{"key":"03","name":"Niedersachsen"}},{"name":"Hohes Feld","postalCode":"30966","locality":"Hemmingen","municipality":{"key":"03241007","name":"Hemmingen, Stadt","type":"Stadt"},"district":{"key":"03241","name":"Region Hannover","type":"Landkreis"},"federalState":{"key":"03","name":"Niedersachsen"}},{"name":"Holzwiesen","postalCode":"30966","locality":"Hemmingen","municipality":{"key":"03241007","name":"Hemmingen, Stadt","type":"Stadt"},"district":{"key":"03241","name":"Region Hannover","type":"Landkreis"},"federalState":{"key":"03","name":"Niedersachsen"}},{"name":"Humboldtstr.","postalCode":"71282","locality":"Hemmingen","municipality":{"key":"08118027","name":"Hemmingen","type":"Kreisangehörige_Gemeinde"},"district":{"key":"08118","name":"Ludwigsburg","type":"Landkreis"},"federalState":{"key":"08","name":"Baden-Württemberg"}},{"name":"Hundepfuhlsweg","postalCode":"30966","locality":"Hemmingen","municipality":{"key":"03241007","name":"Hemmingen, Stadt","type":"Stadt"},"district":{"key":"03241","name":"Region Hannover","type":"Landkreis"},"federalState":{"key":"03","name":"Niedersachsen"}},{"name":"Huthüttenweg","postalCode":"71282","locality":"Hemmingen","municipality":{"key":"08118027","name":"Hemmingen","type":"Kreisangehörige_Gemeinde"},"district":{"key":"08118","name":"Ludwigsburg","type":"Landkreis"},"federalState":{"key":"08","name":"Baden-Württemberg"}},{"name":"Ihmer Str.","postalCode":"30966","locality":"Hemmingen","municipality":{"key":"03241007","name":"Hemmingen, Stadt","type":"Stadt"},"district":{"key":"03241","name":"Region Hannover","type":"Landkreis"},"federalState":{"key":"03","name":"Niedersachsen"}},{"name":"Ilse Entenmann Platz","postalCode":"71282","locality":"Hemmingen","municipality":{"key":"08118027","name":"Hemmingen","type":"Kreisangehörige_Gemeinde"},"district":{"key":"08118","name":"Ludwigsburg","type":"Landkreis"},"federalState":{"key":"08","name":"Baden-Württemberg"}},{"name":"Im Bergfeld","postalCode":"30966","locality":"Hemmingen","municipality":{"key":"03241007","name":"Hemmingen, Stadt","type":"Stadt"},"district":{"key":"03241","name":"Region Hannover","type":"Landkreis"},"federalState":{"key":"03","name":"Niedersachsen"}},{"name":"Im Buchholzfelde","postalCode":"30966","locality":"Hemmingen","municipality":{"key":"03241007","name":"Hemmingen, Stadt","type":"Stadt"},"district":{"key":"03241","name":"Region Hannover","type":"Landkreis"},"federalState":{"key":"03","name":"Niedersachsen"}},{"name":"Im Bultfeld","postalCode":"30966","locality":"Hemmingen","municipality":{"key":"03241007","name":"Hemmingen, Stadt","type":"Stadt"},"district":{"key":"03241","name":"Region Hannover","type":"Landkreis"},"federalState":{"key":"03","name":"Niedersachsen"}},{"name":"Im Büntefeld","postalCode":"30966","locality":"Hemmingen","municipality":{"key":"03241007","name":"Hemmingen, Stadt","type":"Stadt"},"district":{"key":"03241","name":"Region Hannover","type":"Landkreis"},"federalState":{"key":"03","name":"Niedersachsen"}},{"name":"Im Dorffeld","postalCode":"30966","locality":"Hemmingen","municipality":{"key":"03241007","name":"Hemmingen, Stadt","type":"Stadt"},"district":{"key":"03241","name":"Region Hannover","type":"Landkreis"},"federalState":{"key":"03","name":"Niedersachsen"}},{"name":"Im Häge","postalCode":"30966","locality":"Hemmingen","municipality":{"key":"03241007","name":"Hemmingen, Stadt","type":"Stadt"},"district":{"key":"03241","name":"Region Hannover","type":"Landkreis"},"federalState":{"key":"03","name":"Niedersachsen"}},{"name":"Im Hammfeld","postalCode":"30966","locality":"Hemmingen","municipality":{"key":"03241007","name":"Hemmingen, Stadt","type":"Stadt"},"district":{"key":"03241","name":"Region Hannover","type":"Landkreis"},"federalState":{"key":"03","name":"Niedersachsen"}},{"name":"Im Klampfeld","postalCode":"30966","locality":"Hemmingen","municipality":{"key":"03241007","name":"Hemmingen, Stadt","type":"Stadt"},"district":{"key":"03241","name":"Region Hannover","type":"Landkreis"},"federalState":{"key":"03","name":"Niedersachsen"}},{"name":"Immanuel-Kant-Str.","postalCode":"71282","locality":"Hemmingen","municipality":{"key":"08118027","name":"Hemmingen","type":"Kreisangehörige_Gemeinde"},"district":{"key":"08118","name":"Ludwigsburg","type":"Landkreis"},"federalState":{"key":"08","name":"Baden-Württemberg"}},{"name":"Immenkamp","postalCode":"30966","locality":"Hemmingen","municipality":{"key":"03241007","name":"Hemmingen, Stadt","type":"Stadt"},"district":{"key":"03241","name":"Region Hannover","type":"Landkreis"},"federalState":{"key":"03","name":"Niedersachsen"}},{"name":"Im Pfädle","postalCode":"71282","locality":"Hemmingen","municipality":{"key":"08118027","name":"Hemmingen","type":"Kreisangehörige_Gemeinde"},"district":{"key":"08118","name":"Ludwigsburg","type":"Landkreis"},"federalState":{"key":"08","name":"Baden-Württemberg"}},{"name":"Im Riepenfelde","postalCode":"30966","locality":"Hemmingen","municipality":{"key":"03241007","name":"Hemmingen, Stadt","type":"Stadt"},"district":{"key":"03241","name":"Region Hannover","type":"Landkreis"},"federalState":{"key":"03","name":"Niedersachsen"}},{"name":"Im Siek","postalCode":"30966","locality":"Hemmingen","municipality":{"key":"03241007","name":"Hemmingen, Stadt","type":"Stadt"},"district":{"key":"03241","name":"Region Hannover","type":"Landkreis"},"federalState":{"key":"03","name":"Niedersachsen"}},{"name":"Im Sieksfeld","postalCode":"30966","locality":"Hemmingen","municipality":{"key":"03241007","name":"Hemmingen, Stadt","type":"Stadt"},"district":{"key":"03241","name":"Region Hannover","type":"Landkreis"},"federalState":{"key":"03","name":"Niedersachsen"}},{"name":"Im Sundern","postalCode":"30966","locality":"Hemmingen","municipality":{"key":"03241007","name":"Hemmingen, Stadt","type":"Stadt"},"district":{"key":"03241","name":"Region Hannover","type":"Landkreis"},"federalState":{"key":"03","name":"Niedersachsen"}},{"name":"Im Wiesenfeld","postalCode":"30966","locality":"Hemmingen","municipality":{"key":"03241007","name":"Hemmingen, Stadt","type":"Stadt"},"district":{"key":"03241","name":"Region Hannover","type":"Landkreis"},"federalState":{"key":"03","name":"Niedersachsen"}},{"name":"In der Gatze","postalCode":"30966","locality":"Hemmingen","municipality":{"key":"03241007","name":"Hemmingen, Stadt","type":"Stadt"},"district":{"key":"03241","name":"Region Hannover","type":"Landkreis"},"federalState":{"key":"03","name":"Niedersachsen"}},{"name":"In der Hälde","postalCode":"71282","locality":"Hemmingen","municipality":{"key":"08118027","name":"Hemmingen","type":"Kreisangehörige_Gemeinde"},"district":{"key":"08118","name":"Ludwigsburg","type":"Landkreis"},"federalState":{"key":"08","name":"Baden-Württemberg"}},{"name":"In der Klewert","postalCode":"30966","locality":"Hemmingen","municipality":{"key":"03241007","name":"Hemmingen, Stadt","type":"Stadt"},"district":{"key":"03241","name":"Region Hannover","type":"Landkreis"},"federalState":{"key":"03","name":"Niedersachsen"}},{"name":"Innersteweg","postalCode":"30966","locality":"Hemmingen","municipality":{"key":"03241007","name":"Hemmingen, Stadt","type":"Stadt"},"district":{"key":"03241","name":"Region Hannover","type":"Landkreis"},"federalState":{"key":"03","name":"Niedersachsen"}},{"name":"James-Krüss-Weg","postalCode":"30966","locality":"Hemmingen","municipality":{"key":"03241007","name":"Hemmingen, Stadt","type":"Stadt"},"district":{"key":"03241","name":"Region Hannover","type":"Landkreis"},"federalState":{"key":"03","name":"Niedersachsen"}},{"name":"Junkerngarten","postalCode":"30966","locality":"Hemmingen","municipality":{"key":"03241007","name":"Hemmingen, Stadt","type":"Stadt"},"district":{"key":"03241","name":"Region Hannover","type":"Landkreis"},"federalState":{"key":"03","name":"Niedersachsen"}},{"name":"Kapellenweg","postalCode":"30966","locality":"Hemmingen","municipality":{"key":"03241007","name":"Hemmingen, Stadt","type":"Stadt"},"district":{"key":"03241","name":"Region Hannover","type":"Landkreis"},"federalState":{"key":"03","name":"Niedersachsen"}},{"name":"Karlstr.","postalCode":"71282","locality":"Hemmingen","municipality":{"key":"08118027","name":"Hemmingen","type":"Kreisangehörige_Gemeinde"},"district":{"key":"08118","name":"Ludwigsburg","type":"Landkreis"},"federalState":{"key":"08","name":"Baden-Württemberg"}},{"name":"Karoline-Herschel-Str.","postalCode":"30966","locality":"Hemmingen","municipality":{"key":"03241007","name":"Hemmingen, Stadt","type":"Stadt"},"district":{"key":"03241","name":"Region Hannover","type":"Landkreis"},"federalState":{"key":"03","name":"Niedersachsen"}},{"name":"Katermahl","postalCode":"30966","locality":"Hemmingen","municipality":{"key":"03241007","name":"Hemmingen, Stadt","type":"Stadt"},"district":{"key":"03241","name":"Region Hannover","type":"Landkreis"},"federalState":{"key":"03","name":"Niedersachsen"}},{"name":"Katzbachweg","postalCode":"30966","locality":"Hemmingen","municipality":{"key":"03241007","name":"Hemmingen, Stadt","type":"Stadt"},"district":{"key":"03241","name":"Region Hannover","type":"Landkreis"},"federalState":{"key":"03","name":"Niedersachsen"}},{"name":"Katzenwinkel","postalCode":"30966","locality":"Hemmingen","municipality":{"key":"03241007","name":"Hemmingen, Stadt","type":"Stadt"},"district":{"key":"03241","name":"Region Hannover","type":"Landkreis"},"federalState":{"key":"03","name":"Niedersachsen"}},{"name":"Kelterstr.","postalCode":"71282","locality":"Hemmingen","municipality":{"key":"08118027","name":"Hemmingen","type":"Kreisangehörige_Gemeinde"},"district":{"key":"08118","name":"Ludwigsburg","type":"Landkreis"},"federalState":{"key":"08","name":"Baden-Württemberg"}},{"name":"Kirchdamm","postalCode":"30966","locality":"Hemmingen","municipality":{"key":"03241007","name":"Hemmingen, Stadt","type":"Stadt"},"district":{"key":"03241","name":"Region Hannover","type":"Landkreis"},"federalState":{"key":"03","name":"Niedersachsen"}},{"name":"Kirchstr.","postalCode":"30966","locality":"Hemmingen","municipality":{"key":"03241007","name":"Hemmingen, Stadt","type":"Stadt"},"district":{"key":"03241","name":"Region Hannover","type":"Landkreis"},"federalState":{"key":"03","name":"Niedersachsen"}},{"name":"Klagesgarten","postalCode":"30966","locality":"Hemmingen","municipality":{"key":"03241007","name":"Hemmingen, Stadt","type":"Stadt"},"district":{"key":"03241","name":"Region Hannover","type":"Landkreis"},"federalState":{"key":"03","name":"Niedersachsen"}},{"name":"Klapperweg","postalCode":"30966","locality":"Hemmingen","municipality":{"key":"03241007","name":"Hemmingen, Stadt","type":"Stadt"},"district":{"key":"03241","name":"Region Hannover","type":"Landkreis"},"federalState":{"key":"03","name":"Niedersachsen"}},{"name":"Kleines Feld","postalCode":"30966","locality":"Hemmingen","municipality":{"key":"03241007","name":"Hemmingen, Stadt","type":"Stadt"},"district":{"key":"03241","name":"Region Hannover","type":"Landkreis"},"federalState":{"key":"03","name":"Niedersachsen"}},{"name":"Klewertweg","postalCode":"30966","locality":"Hemmingen","municipality":{"key":"03241007","name":"Hemmingen, Stadt","type":"Stadt"},"district":{"key":"03241","name":"Region Hannover","type":"Landkreis"},"federalState":{"key":"03","name":"Niedersachsen"}},{"name":"Köllnbrinkweg","postalCode":"30966","locality":"Hemmingen","municipality":{"key":"03241007","name":"Hemmingen, Stadt","type":"Stadt"},"district":{"key":"03241","name":"Region Hannover","type":"Landkreis"},"federalState":{"key":"03","name":"Niedersachsen"}},{"name":"Königsberger Weg","postalCode":"30966","locality":"Hemmingen","municipality":{"key":"03241007","name":"Hemmingen, Stadt","type":"Stadt"},"district":{"key":"03241","name":"Region Hannover","type":"Landkreis"},"federalState":{"key":"03","name":"Niedersachsen"}},{"name":"Konrad-Haller-Str.","postalCode":"71282","locality":"Hemmingen","municipality":{"key":"08118027","name":"Hemmingen","type":"Kreisangehörige_Gemeinde"},"district":{"key":"08118","name":"Ludwigsburg","type":"Landkreis"},"federalState":{"key":"08","name":"Baden-Württemberg"}},{"name":"Kösterecke","postalCode":"30966","locality":"Hemmingen","municipality":{"key":"03241007","name":"Hemmingen, Stadt","type":"Stadt"},"district":{"key":"03241","name":"Region Hannover","type":"Landkreis"},"federalState":{"key":"03","name":"Niedersachsen"}},{"name":"Kötnerreihe","postalCode":"30966","locality":"Hemmingen","municipality":{"key":"03241007","name":"Hemmingen, Stadt","type":"Stadt"},"district":{"key":"03241","name":"Region Hannover","type":"Landkreis"},"federalState":{"key":"03","name":"Niedersachsen"}},{"name":"Kreithwinkel","postalCode":"30966","locality":"Hemmingen","municipality":{"key":"03241007","name":"Hemmingen, Stadt","type":"Stadt"},"district":{"key":"03241","name":"Region Hannover","type":"Landkreis"},"federalState":{"key":"03","name":"Niedersachsen"}},{"name":"Kronenstr.","postalCode":"71282","locality":"Hemmingen","municipality":{"key":"08118027","name":"Hemmingen","type":"Kreisangehörige_Gemeinde"},"district":{"key":"08118","name":"Ludwigsburg","type":"Landkreis"},"federalState":{"key":"08","name":"Baden-Württemberg"}},{"name":"Krumme Str.","postalCode":"30966","locality":"Hemmingen","municipality":{"key":"03241007","name":"Hemmingen, Stadt","type":"Stadt"},"district":{"key":"03241","name":"Region Hannover","type":"Landkreis"},"federalState":{"key":"03","name":"Niedersachsen"}},{"name":"Langer Bruch","postalCode":"30966","locality":"Hemmingen","municipality":{"key":"03241007","name":"Hemmingen, Stadt","type":"Stadt"},"district":{"key":"03241","name":"Region Hannover","type":"Landkreis"},"federalState":{"key":"03","name":"Niedersachsen"}},{"name":"Lange Wiese","postalCode":"30966","locality":"Hemmingen","municipality":{"key":"03241007","name":"Hemmingen, Stadt","type":"Stadt"},"district":{"key":"03241","name":"Region Hannover","type":"Landkreis"},"federalState":{"key":"03","name":"Niedersachsen"}},{"name":"Laubeichenfeld","postalCode":"30966","locality":"Hemmingen","municipality":{"key":"03241007","name":"Hemmingen, Stadt","type":"Stadt"},"district":{"key":"03241","name":"Region Hannover","type":"Landkreis"},"federalState":{"key":"03","name":"Niedersachsen"}},{"name":"Laurentiusstr.","postalCode":"71282","locality":"Hemmingen","municipality":{"key":"08118027","name":"Hemmingen","type":"Kreisangehörige_Gemeinde"},"district":{"key":"08118","name":"Ludwigsburg","type":"Landkreis"},"federalState":{"key":"08","name":"Baden-Württemberg"}},{"name":"Leimthaler Weg","postalCode":"71282","locality":"Hemmingen","municipality":{"key":"08118027","name":"Hemmingen","type":"Kreisangehörige_Gemeinde"},"district":{"key":"08118","name":"Ludwigsburg","type":"Landkreis"},"federalState":{"key":"08","name":"Baden-Württemberg"}},{"name":"Leinestr.","postalCode":"30966","locality":"Hemmingen","municipality":{"key":"03241007","name":"Hemmingen, Stadt","type":"Stadt"},"district":{"key":"03241","name":"Region Hannover","type":"Landkreis"},"federalState":{"key":"03","name":"Niedersachsen"}},{"name":"Lerchenstr.","postalCode":"71282","locality":"Hemmingen","municipality":{"key":"08118027","name":"Hemmingen","type":"Kreisangehörige_Gemeinde"},"district":{"key":"08118","name":"Ludwigsburg","type":"Landkreis"},"federalState":{"key":"08","name":"Baden-Württemberg"}},{"name":"Lerchenweg","postalCode":"30966","locality":"Hemmingen","municipality":{"key":"03241007","name":"Hemmingen, Stadt","type":"Stadt"},"district":{"key":"03241","name":"Region Hannover","type":"Landkreis"},"federalState":{"key":"03","name":"Niedersachsen"}},{"name":"Lindenhof","postalCode":"71282","locality":"Hemmingen","municipality":{"key":"08118027","name":"Hemmingen","type":"Kreisangehörige_Gemeinde"},"district":{"key":"08118","name":"Ludwigsburg","type":"Landkreis"},"federalState":{"key":"08","name":"Baden-Württemberg"}},{"name":"Lindenstr.","postalCode":"71282","locality":"Hemmingen","municipality":{"key":"08118027","name":"Hemmingen","type":"Kreisangehörige_Gemeinde"},"district":{"key":"08118","name":"Ludwigsburg","type":"Landkreis"},"federalState":{"key":"08","name":"Baden-Württemberg"}},{"name":"Lindenweg","postalCode":"30966","locality":"Hemmingen","municipality":{"key":"03241007","name":"Hemmingen, Stadt","type":"Stadt"},"district":{"key":"03241","name":"Region Hannover","type":"Landkreis"},"federalState":{"key":"03","name":"Niedersachsen"}},{"name":"Lise-Meitner-Str.","postalCode":"30966","locality":"Hemmingen","municipality":{"key":"03241007","name":"Hemmingen, Stadt","type":"Stadt"},"district":{"key":"03241","name":"Region Hannover","type":"Landkreis"},"federalState":{"key":"03","name":"Niedersachsen"}},{"name":"Lortzingweg","postalCode":"30966","locality":"Hemmingen","municipality":{"key":"03241007","name":"Hemmingen, Stadt","type":"Stadt"},"district":{"key":"03241","name":"Region Hannover","type":"Landkreis"},"federalState":{"key":"03","name":"Niedersachsen"}},{"name":"Löwenberger Str.","postalCode":"30966","locality":"Hemmingen","municipality":{"key":"03241007","name":"Hemmingen, Stadt","type":"Stadt"},"district":{"key":"03241","name":"Region Hannover","type":"Landkreis"},"federalState":{"key":"03","name":"Niedersachsen"}},{"name":"Loydbrunnenweg","postalCode":"30966","locality":"Hemmingen","municipality":{"key":"03241007","name":"Hemmingen, Stadt","type":"Stadt"},"district":{"key":"03241","name":"Region Hannover","type":"Landkreis"},"federalState":{"key":"03","name":"Niedersachsen"}},{"name":"Ludwig-Speidel-Str.","postalCode":"71282","locality":"Hemmingen","municipality":{"key":"08118027","name":"Hemmingen","type":"Kreisangehörige_Gemeinde"},"district":{"key":"08118","name":"Ludwigsburg","type":"Landkreis"},"federalState":{"key":"08","name":"Baden-Württemberg"}},{"name":"Ludwig-Windthorst-Str.","postalCode":"30966","locality":"Hemmingen","municipality":{"key":"03241007","name":"Hemmingen, Stadt","type":"Stadt"},"district":{"key":"03241","name":"Region Hannover","type":"Landkreis"},"federalState":{"key":"03","name":"Niedersachsen"}},{"name":"Luise-Rist-Weg","postalCode":"71282","locality":"Hemmingen","municipality":{"key":"08118027","name":"Hemmingen","type":"Kreisangehörige_Gemeinde"},"district":{"key":"08118","name":"Ludwigsburg","type":"Landkreis"},"federalState":{"key":"08","name":"Baden-Württemberg"}},{"name":"Maria-Montessori-Str.","postalCode":"71282","locality":"Hemmingen","municipality":{"key":"08118027","name":"Hemmingen","type":"Kreisangehörige_Gemeinde"},"district":{"key":"08118","name":"Ludwigsburg","type":"Landkreis"},"federalState":{"key":"08","name":"Baden-Württemberg"}},{"name":"Marie-Curie-Str.","postalCode":"30966","locality":"Hemmingen","municipality":{"key":"03241007","name":"Hemmingen, Stadt","type":"Stadt"},"district":{"key":"03241","name":"Region Hannover","type":"Landkreis"},"federalState":{"key":"03","name":"Niedersachsen"}},{"name":"Marienbader Str.","postalCode":"71282","locality":"Hemmingen","municipality":{"key":"08118027","name":"Hemmingen","type":"Kreisangehörige_Gemeinde"},"district":{"key":"08118","name":"Ludwigsburg","type":"Landkreis"},"federalState":{"key":"08","name":"Baden-Württemberg"}},{"name":"Maschweg","postalCode":"30966","locality":"Hemmingen","municipality":{"key":"03241007","name":"Hemmingen, Stadt","type":"Stadt"},"district":{"key":"03241","name":"Region Hannover","type":"Landkreis"},"federalState":{"key":"03","name":"Niedersachsen"}},{"name":"Mathilde-Planck-Str.","postalCode":"71282","locality":"Hemmingen","municipality":{"key":"08118027","name":"Hemmingen","type":"Kreisangehörige_Gemeinde"},"district":{"key":"08118","name":"Ludwigsburg","type":"Landkreis"},"federalState":{"key":"08","name":"Baden-Württemberg"}},{"name":"Matzdorfer Weg","postalCode":"30966","locality":"Hemmingen","municipality":{"key":"03241007","name":"Hemmingen, Stadt","type":"Stadt"},"district":{"key":"03241","name":"Region Hannover","type":"Landkreis"},"federalState":{"key":"03","name":"Niedersachsen"}},{"name":"Max-Eyth-Str.","postalCode":"71282","locality":"Hemmingen","municipality":{"key":"08118027","name":"Hemmingen","type":"Kreisangehörige_Gemeinde"},"district":{"key":"08118","name":"Ludwigsburg","type":"Landkreis"},"federalState":{"key":"08","name":"Baden-Württemberg"}},{"name":"Max-Planck-Str.","postalCode":"30966","locality":"Hemmingen","municipality":{"key":"03241007","name":"Hemmingen, Stadt","type":"Stadt"},"district":{"key":"03241","name":"Region Hannover","type":"Landkreis"},"federalState":{"key":"03","name":"Niedersachsen"}},{"name":"Max-von-Laue-Str.","postalCode":"30966","locality":"Hemmingen","municipality":{"key":"03241007","name":"Hemmingen, Stadt","type":"Stadt"},"district":{"key":"03241","name":"Region Hannover","type":"Landkreis"},"federalState":{"key":"03","name":"Niedersachsen"}},{"name":"Meisenstr.","postalCode":"71282","locality":"Hemmingen","municipality":{"key":"08118027","name":"Hemmingen","type":"Kreisangehörige_Gemeinde"},"district":{"key":"08118","name":"Ludwigsburg","type":"Landkreis"},"federalState":{"key":"08","name":"Baden-Württemberg"}},{"name":"Michael-Ende-Weg","postalCode":"30966","locality":"Hemmingen","municipality":{"key":"03241007","name":"Hemmingen, Stadt","type":"Stadt"},"district":{"key":"03241","name":"Region Hannover","type":"Landkreis"},"federalState":{"key":"03","name":"Niedersachsen"}},{"name":"Mörikestr.","postalCode":"71282","locality":"Hemmingen","municipality":{"key":"08118027","name":"Hemmingen","type":"Kreisangehörige_Gemeinde"},"district":{"key":"08118","name":"Ludwigsburg","type":"Landkreis"},"federalState":{"key":"08","name":"Baden-Württemberg"}},{"name":"Moulineauxplatz","postalCode":"30966","locality":"Hemmingen","municipality":{"key":"03241007","name":"Hemmingen, Stadt","type":"Stadt"},"district":{"key":"03241","name":"Region Hannover","type":"Landkreis"},"federalState":{"key":"03","name":"Niedersachsen"}},{"name":"Mozartstr.","postalCode":"30966","locality":"Hemmingen","municipality":{"key":"03241007","name":"Hemmingen, Stadt","type":"Stadt"},"district":{"key":"03241","name":"Region Hannover","type":"Landkreis"},"federalState":{"key":"03","name":"Niedersachsen"}},{"name":"Müggenwinkel","postalCode":"30966","locality":"Hemmingen","municipality":{"key":"03241007","name":"Hemmingen, Stadt","type":"Stadt"},"district":{"key":"03241","name":"Region Hannover","type":"Landkreis"},"federalState":{"key":"03","name":"Niedersachsen"}},{"name":"Mühlenfeld","postalCode":"30966","locality":"Hemmingen","municipality":{"key":"03241007","name":"Hemmingen, Stadt","type":"Stadt"},"district":{"key":"03241","name":"Region Hannover","type":"Landkreis"},"federalState":{"key":"03","name":"Niedersachsen"}},{"name":"Mühlenstr.","postalCode":"30966","locality":"Hemmingen","municipality":{"key":"03241007","name":"Hemmingen, Stadt","type":"Stadt"},"district":{"key":"03241","name":"Region Hannover","type":"Landkreis"},"federalState":{"key":"03","name":"Niedersachsen"}},{"name":"Mühlenweg","postalCode":"30966","locality":"Hemmingen","municipality":{"key":"03241007","name":"Hemmingen, Stadt","type":"Stadt"},"district":{"key":"03241","name":"Region Hannover","type":"Landkreis"},"federalState":{"key":"03","name":"Niedersachsen"}},{"name":"Mühlweg","postalCode":"71282","locality":"Hemmingen","municipality":{"key":"08118027","name":"Hemmingen","type":"Kreisangehörige_Gemeinde"},"district":{"key":"08118","name":"Ludwigsburg","type":"Landkreis"},"federalState":{"key":"08","name":"Baden-Württemberg"}},{"name":"Münchinger Str.","postalCode":"71282","locality":"Hemmingen","municipality":{"key":"08118027","name":"Hemmingen","type":"Kreisangehörige_Gemeinde"},"district":{"key":"08118","name":"Ludwigsburg","type":"Landkreis"},"federalState":{"key":"08","name":"Baden-Württemberg"}},{"name":"Murowana-Goslina-Park","postalCode":"30966","locality":"Hemmingen","municipality":{"key":"03241007","name":"Hemmingen, Stadt","type":"Stadt"},"district":{"key":"03241","name":"Region Hannover","type":"Landkreis"},"federalState":{"key":"03","name":"Niedersachsen"}},{"name":"Neue Schöckinger Str.","postalCode":"71282","locality":"Hemmingen","municipality":{"key":"08118027","name":"Hemmingen","type":"Kreisangehörige_Gemeinde"},"district":{"key":"08118","name":"Ludwigsburg","type":"Landkreis"},"federalState":{"key":"08","name":"Baden-Württemberg"}},{"name":"Nordstr.","postalCode":"30966","locality":"Hemmingen","municipality":{"key":"03241007","name":"Hemmingen, Stadt","type":"Stadt"},"district":{"key":"03241","name":"Region Hannover","type":"Landkreis"},"federalState":{"key":"03","name":"Niedersachsen"}},{"name":"Oderweg","postalCode":"30966","locality":"Hemmingen","municipality":{"key":"03241007","name":"Hemmingen, Stadt","type":"Stadt"},"district":{"key":"03241","name":"Region Hannover","type":"Landkreis"},"federalState":{"key":"03","name":"Niedersachsen"}},{"name":"Orffstr.","postalCode":"30966","locality":"Hemmingen","municipality":{"key":"03241007","name":"Hemmingen, Stadt","type":"Stadt"},"district":{"key":"03241","name":"Region Hannover","type":"Landkreis"},"federalState":{"key":"03","name":"Niedersachsen"}},{"name":"Ortsstr.","postalCode":"30966","locality":"Hemmingen","municipality":{"key":"03241007","name":"Hemmingen, Stadt","type":"Stadt"},"district":{"key":"03241","name":"Region Hannover","type":"Landkreis"},"federalState":{"key":"03","name":"Niedersachsen"}},{"name":"Osterbruchweg","postalCode":"30966","locality":"Hemmingen","municipality":{"key":"03241007","name":"Hemmingen, Stadt","type":"Stadt"},"district":{"key":"03241","name":"Region Hannover","type":"Landkreis"},"federalState":{"key":"03","name":"Niedersachsen"}},{"name":"Ostertorstr.","postalCode":"30966","locality":"Hemmingen","municipality":{"key":"03241007","name":"Hemmingen, Stadt","type":"Stadt"},"district":{"key":"03241","name":"Region Hannover","type":"Landkreis"},"federalState":{"key":"03","name":"Niedersachsen"}},{"name":"Otto-Hahn-Str.","postalCode":"30966","locality":"Hemmingen","municipality":{"key":"03241007","name":"Hemmingen, Stadt","type":"Stadt"},"district":{"key":"03241","name":"Region Hannover","type":"Landkreis"},"federalState":{"key":"03","name":"Niedersachsen"}},{"name":"Papendieksfeld","postalCode":"30966","locality":"Hemmingen","municipality":{"key":"03241007","name":"Hemmingen, Stadt","type":"Stadt"},"district":{"key":"03241","name":"Region Hannover","type":"Landkreis"},"federalState":{"key":"03","name":"Niedersachsen"}},{"name":"Pastorenkamp","postalCode":"30966","locality":"Hemmingen","municipality":{"key":"03241007","name":"Hemmingen, Stadt","type":"Stadt"},"district":{"key":"03241","name":"Region Hannover","type":"Landkreis"},"federalState":{"key":"03","name":"Niedersachsen"}},{"name":"Patronatstr.","postalCode":"71282","locality":"Hemmingen","municipality":{"key":"08118027","name":"Hemmingen","type":"Kreisangehörige_Gemeinde"},"district":{"key":"08118","name":"Ludwigsburg","type":"Landkreis"},"federalState":{"key":"08","name":"Baden-Württemberg"}},{"name":"Pattenser Feldweg","postalCode":"30966","locality":"Hemmingen","municipality":{"key":"03241007","name":"Hemmingen, Stadt","type":"Stadt"},"district":{"key":"03241","name":"Region Hannover","type":"Landkreis"},"federalState":{"key":"03","name":"Niedersachsen"}},{"name":"Pestalozzistr.","postalCode":"71282","locality":"Hemmingen","municipality":{"key":"08118027","name":"Hemmingen","type":"Kreisangehörige_Gemeinde"},"district":{"key":"08118","name":"Ludwigsburg","type":"Landkreis"},"federalState":{"key":"08","name":"Baden-Württemberg"}},{"name":"Pfarrgasse","postalCode":"71282","locality":"Hemmingen","municipality":{"key":"08118027","name":"Hemmingen","type":"Kreisangehörige_Gemeinde"},"district":{"key":"08118","name":"Ludwigsburg","type":"Landkreis"},"federalState":{"key":"08","name":"Baden-Württemberg"}},{"name":"Rathausplatz","postalCode":"30966","locality":"Hemmingen","municipality":{"key":"03241007","name":"Hemmingen, Stadt","type":"Stadt"},"district":{"key":"03241","name":"Region Hannover","type":"Landkreis"},"federalState":{"key":"03","name":"Niedersachsen"}},{"name":"Redener Str.","postalCode":"30966","locality":"Hemmingen","municipality":{"key":"03241007","name":"Hemmingen, Stadt","type":"Stadt"},"district":{"key":"03241","name":"Region Hannover","type":"Landkreis"},"federalState":{"key":"03","name":"Niedersachsen"}},{"name":"Rehmenbreiten","postalCode":"30966","locality":"Hemmingen","municipality":{"key":"03241007","name":"Hemmingen, Stadt","type":"Stadt"},"district":{"key":"03241","name":"Region Hannover","type":"Landkreis"},"federalState":{"key":"03","name":"Niedersachsen"}},{"name":"Reichenberger Str.","postalCode":"71282","locality":"Hemmingen","municipality":{"key":"08118027","name":"Hemmingen","type":"Kreisangehörige_Gemeinde"},"district":{"key":"08118","name":"Ludwigsburg","type":"Landkreis"},"federalState":{"key":"08","name":"Baden-Württemberg"}},{"name":"Reinekestr.","postalCode":"30966","locality":"Hemmingen","municipality":{"key":"03241007","name":"Hemmingen, Stadt","type":"Stadt"},"district":{"key":"03241","name":"Region Hannover","type":"Landkreis"},"federalState":{"key":"03","name":"Niedersachsen"}},{"name":"Reuterwiese","postalCode":"30966","locality":"Hemmingen","municipality":{"key":"03241007","name":"Hemmingen, Stadt","type":"Stadt"},"district":{"key":"03241","name":"Region Hannover","type":"Landkreis"},"federalState":{"key":"03","name":"Niedersachsen"}},{"name":"Rhumeweg","postalCode":"30966","locality":"Hemmingen","municipality":{"key":"03241007","name":"Hemmingen, Stadt","type":"Stadt"},"district":{"key":"03241","name":"Region Hannover","type":"Landkreis"},"federalState":{"key":"03","name":"Niedersachsen"}},{"name":"Ringstr.","postalCode":"30966","locality":"Hemmingen","municipality":{"key":"03241007","name":"Hemmingen, Stadt","type":"Stadt"},"district":{"key":"03241","name":"Region Hannover","type":"Landkreis"},"federalState":{"key":"03","name":"Niedersachsen"}},{"name":"Robert-Koch-Str.","postalCode":"71282","locality":"Hemmingen","municipality":{"key":"08118027","name":"Hemmingen","type":"Kreisangehörige_Gemeinde"},"district":{"key":"08118","name":"Ludwigsburg","type":"Landkreis"},"federalState":{"key":"08","name":"Baden-Württemberg"}},{"name":"Rohrdiek","postalCode":"30966","locality":"Hemmingen","municipality":{"key":"03241007","name":"Hemmingen, Stadt","type":"Stadt"},"district":{"key":"03241","name":"Region Hannover","type":"Landkreis"},"federalState":{"key":"03","name":"Niedersachsen"}},{"name":"Rosenstr.","postalCode":"30966","locality":"Hemmingen","municipality":{"key":"03241007","name":"Hemmingen, Stadt","type":"Stadt"},"district":{"key":"03241","name":"Region Hannover","type":"Landkreis"},"federalState":{"key":"03","name":"Niedersachsen"}},{"name":"Rosenstr.","postalCode":"71282","locality":"Hemmingen","municipality":{"key":"08118027","name":"Hemmingen","type":"Kreisangehörige_Gemeinde"},"district":{"key":"08118","name":"Ludwigsburg","type":"Landkreis"},"federalState":{"key":"08","name":"Baden-Württemberg"}},{"name":"Rotdornweg","postalCode":"30966","locality":"Hemmingen","municipality":{"key":"03241007","name":"Hemmingen, Stadt","type":"Stadt"},"district":{"key":"03241","name":"Region Hannover","type":"Landkreis"},"federalState":{"key":"03","name":"Niedersachsen"}},{"name":"Saarstr.","postalCode":"30966","locality":"Hemmingen","municipality":{"key":"03241007","name":"Hemmingen, Stadt","type":"Stadt"},"district":{"key":"03241","name":"Region Hannover","type":"Landkreis"},"federalState":{"key":"03","name":"Niedersachsen"}},{"name":"Saarstr.","postalCode":"71282","locality":"Hemmingen","municipality":{"key":"08118027","name":"Hemmingen","type":"Kreisangehörige_Gemeinde"},"district":{"key":"08118","name":"Ludwigsburg","type":"Landkreis"},"federalState":{"key":"08","name":"Baden-Württemberg"}},{"name":"Schäfereiweg","postalCode":"30966","locality":"Hemmingen","municipality":{"key":"03241007","name":"Hemmingen, Stadt","type":"Stadt"},"district":{"key":"03241","name":"Region Hannover","type":"Landkreis"},"federalState":{"key":"03","name":"Niedersachsen"}},{"name":"Schaperweg","postalCode":"30966","locality":"Hemmingen","municipality":{"key":"03241007","name":"Hemmingen, Stadt","type":"Stadt"},"district":{"key":"03241","name":"Region Hannover","type":"Landkreis"},"federalState":{"key":"03","name":"Niedersachsen"}},{"name":"Schauchertstr.","postalCode":"71282","locality":"Hemmingen","municipality":{"key":"08118027","name":"Hemmingen","type":"Kreisangehörige_Gemeinde"},"district":{"key":"08118","name":"Ludwigsburg","type":"Landkreis"},"federalState":{"key":"08","name":"Baden-Württemberg"}},{"name":"Schellingstr.","postalCode":"71282","locality":"Hemmingen","municipality":{"key":"08118027","name":"Hemmingen","type":"Kreisangehörige_Gemeinde"},"district":{"key":"08118","name":"Ludwigsburg","type":"Landkreis"},"federalState":{"key":"08","name":"Baden-Württemberg"}},{"name":"Schillerstr.","postalCode":"71282","locality":"Hemmingen","municipality":{"key":"08118027","name":"Hemmingen","type":"Kreisangehörige_Gemeinde"},"district":{"key":"08118","name":"Ludwigsburg","type":"Landkreis"},"federalState":{"key":"08","name":"Baden-Württemberg"}},{"name":"Schillingswinkel","postalCode":"30966","locality":"Hemmingen","municipality":{"key":"03241007","name":"Hemmingen, Stadt","type":"Stadt"},"district":{"key":"03241","name":"Region Hannover","type":"Landkreis"},"federalState":{"key":"03","name":"Niedersachsen"}},{"name":"Schlossgartenstr.","postalCode":"71282","locality":"Hemmingen","municipality":{"key":"08118027","name":"Hemmingen","type":"Kreisangehörige_Gemeinde"},"district":{"key":"08118","name":"Ludwigsburg","type":"Landkreis"},"federalState":{"key":"08","name":"Baden-Württemberg"}},{"name":"Schlosshaldenstr.","postalCode":"71282","locality":"Hemmingen","municipality":{"key":"08118027","name":"Hemmingen","type":"Kreisangehörige_Gemeinde"},"district":{"key":"08118","name":"Ludwigsburg","type":"Landkreis"},"federalState":{"key":"08","name":"Baden-Württemberg"}},{"name":"Schlosspark","postalCode":"71282","locality":"Hemmingen","municipality":{"key":"08118027","name":"Hemmingen","type":"Kreisangehörige_Gemeinde"},"district":{"key":"08118","name":"Ludwigsburg","type":"Landkreis"},"federalState":{"key":"08","name":"Baden-Württemberg"}},{"name":"Schmedesstr.","postalCode":"30966","locality":"Hemmingen","municipality":{"key":"03241007","name":"Hemmingen, Stadt","type":"Stadt"},"district":{"key":"03241","name":"Region Hannover","type":"Landkreis"},"federalState":{"key":"03","name":"Niedersachsen"}},{"name":"Schubartstr.","postalCode":"71282","locality":"Hemmingen","municipality":{"key":"08118027","name":"Hemmingen","type":"Kreisangehörige_Gemeinde"},"district":{"key":"08118","name":"Ludwigsburg","type":"Landkreis"},"federalState":{"key":"08","name":"Baden-Württemberg"}},{"name":"Schulstr.","postalCode":"30966","locality":"Hemmingen","municipality":{"key":"03241007","name":"Hemmingen, Stadt","type":"Stadt"},"district":{"key":"03241","name":"Region Hannover","type":"Landkreis"},"federalState":{"key":"03","name":"Niedersachsen"}},{"name":"Schulweg","postalCode":"30966","locality":"Hemmingen","municipality":{"key":"03241007","name":"Hemmingen, Stadt","type":"Stadt"},"district":{"key":"03241","name":"Region Hannover","type":"Landkreis"},"federalState":{"key":"03","name":"Niedersachsen"}},{"name":"Schwalbenstr.","postalCode":"71282","locality":"Hemmingen","municipality":{"key":"08118027","name":"Hemmingen","type":"Kreisangehörige_Gemeinde"},"district":{"key":"08118","name":"Ludwigsburg","type":"Landkreis"},"federalState":{"key":"08","name":"Baden-Württemberg"}},{"name":"Schwalbenweg","postalCode":"30966","locality":"Hemmingen","municipality":{"key":"03241007","name":"Hemmingen, Stadt","type":"Stadt"},"district":{"key":"03241","name":"Region Hannover","type":"Landkreis"},"federalState":{"key":"03","name":"Niedersachsen"}},{"name":"Schwieberdinger Str.","postalCode":"71282","locality":"Hemmingen","municipality":{"key":"08118027","name":"Hemmingen","type":"Kreisangehörige_Gemeinde"},"district":{"key":"08118","name":"Ludwigsburg","type":"Landkreis"},"federalState":{"key":"08","name":"Baden-Württemberg"}},{"name":"Seestr.","postalCode":"71282","locality":"Hemmingen","municipality":{"key":"08118027","name":"Hemmingen","type":"Kreisangehörige_Gemeinde"},"district":{"key":"08118","name":"Ludwigsburg","type":"Landkreis"},"federalState":{"key":"08","name":"Baden-Württemberg"}},{"name":"Sennieweg","postalCode":"30966","locality":"Hemmingen","municipality":{"key":"03241007","name":"Hemmingen, Stadt","type":"Stadt"},"district":{"key":"03241","name":"Region Hannover","type":"Landkreis"},"federalState":{"key":"03","name":"Niedersachsen"}},{"name":"Sieben Buchen Weg","postalCode":"71282","locality":"Hemmingen","municipality":{"key":"08118027","name":"Hemmingen","type":"Kreisangehörige_Gemeinde"},"district":{"key":"08118","name":"Ludwigsburg","type":"Landkreis"},"federalState":{"key":"08","name":"Baden-Württemberg"}},{"name":"Siecum","postalCode":"30966","locality":"Hemmingen","municipality":{"key":"03241007","name":"Hemmingen, Stadt","type":"Stadt"},"district":{"key":"03241","name":"Region Hannover","type":"Landkreis"},"federalState":{"key":"03","name":"Niedersachsen"}},{"name":"Sohlkamp","postalCode":"30966","locality":"Hemmingen","municipality":{"key":"03241007","name":"Hemmingen, Stadt","type":"Stadt"},"district":{"key":"03241","name":"Region Hannover","type":"Landkreis"},"federalState":{"key":"03","name":"Niedersachsen"}},{"name":"Sollingstr.","postalCode":"30966","locality":"Hemmingen","municipality":{"key":"03241007","name":"Hemmingen, Stadt","type":"Stadt"},"district":{"key":"03241","name":"Region Hannover","type":"Landkreis"},"federalState":{"key":"03","name":"Niedersachsen"}},{"name":"Sonnenweg","postalCode":"30966","locality":"Hemmingen","municipality":{"key":"03241007","name":"Hemmingen, Stadt","type":"Stadt"},"district":{"key":"03241","name":"Region Hannover","type":"Landkreis"},"federalState":{"key":"03","name":"Niedersachsen"}},{"name":"Söseweg","postalCode":"30966","locality":"Hemmingen","municipality":{"key":"03241007","name":"Hemmingen, Stadt","type":"Stadt"},"district":{"key":"03241","name":"Region Hannover","type":"Landkreis"},"federalState":{"key":"03","name":"Niedersachsen"}},{"name":"Stadtweg","postalCode":"30966","locality":"Hemmingen","municipality":{"key":"03241007","name":"Hemmingen, Stadt","type":"Stadt"},"district":{"key":"03241","name":"Region Hannover","type":"Landkreis"},"federalState":{"key":"03","name":"Niedersachsen"}},{"name":"Stangenweg","postalCode":"71282","locality":"Hemmingen","municipality":{"key":"08118027","name":"Hemmingen","type":"Kreisangehörige_Gemeinde"},"district":{"key":"08118","name":"Ludwigsburg","type":"Landkreis"},"federalState":{"key":"08","name":"Baden-Württemberg"}},{"name":"Steinbrink","postalCode":"30966","locality":"Hemmingen","municipality":{"key":"03241007","name":"Hemmingen, Stadt","type":"Stadt"},"district":{"key":"03241","name":"Region Hannover","type":"Landkreis"},"federalState":{"key":"03","name":"Niedersachsen"}},{"name":"Steinweg","postalCode":"30966","locality":"Hemmingen","municipality":{"key":"03241007","name":"Hemmingen, Stadt","type":"Stadt"},"district":{"key":"03241","name":"Region Hannover","type":"Landkreis"},"federalState":{"key":"03","name":"Niedersachsen"}},{"name":"Südring","postalCode":"30966","locality":"Hemmingen","municipality":{"key":"03241007","name":"Hemmingen, Stadt","type":"Stadt"},"district":{"key":"03241","name":"Region Hannover","type":"Landkreis"},"federalState":{"key":"03","name":"Niedersachsen"}},{"name":"Südstr.","postalCode":"30966","locality":"Hemmingen","municipality":{"key":"03241007","name":"Hemmingen, Stadt","type":"Stadt"},"district":{"key":"03241","name":"Region Hannover","type":"Landkreis"},"federalState":{"key":"03","name":"Niedersachsen"}},{"name":"Sundernstr.","postalCode":"30966","locality":"Hemmingen","municipality":{"key":"03241007","name":"Hemmingen, Stadt","type":"Stadt"},"district":{"key":"03241","name":"Region Hannover","type":"Landkreis"},"federalState":{"key":"03","name":"Niedersachsen"}},{"name":"Sundernweg","postalCode":"30966","locality":"Hemmingen","municipality":{"key":"03241007","name":"Hemmingen, Stadt","type":"Stadt"},"district":{"key":"03241","name":"Region Hannover","type":"Landkreis"},"federalState":{"key":"03","name":"Niedersachsen"}},{"name":"Süntelstr.","postalCode":"30966","locality":"Hemmingen","municipality":{"key":"03241007","name":"Hemmingen, Stadt","type":"Stadt"},"district":{"key":"03241","name":"Region Hannover","type":"Landkreis"},"federalState":{"key":"03","name":"Niedersachsen"}},{"name":"Texas","postalCode":"30966","locality":"Hemmingen","municipality":{"key":"03241007","name":"Hemmingen, Stadt","type":"Stadt"},"district":{"key":"03241","name":"Region Hannover","type":"Landkreis"},"federalState":{"key":"03","name":"Niedersachsen"}},{"name":"Theodor-Heuss-Str.","postalCode":"71282","locality":"Hemmingen","municipality":{"key":"08118027","name":"Hemmingen","type":"Kreisangehörige_Gemeinde"},"district":{"key":"08118","name":"Ludwigsburg","type":"Landkreis"},"federalState":{"key":"08","name":"Baden-Württemberg"}},{"name":"Uhlandstr.","postalCode":"71282","locality":"Hemmingen","municipality":{"key":"08118027","name":"Hemmingen","type":"Kreisangehörige_Gemeinde"},"district":{"key":"08118","name":"Ludwigsburg","type":"Landkreis"},"federalState":{"key":"08","name":"Baden-Württemberg"}},{"name":"Vera-Vollmer-Weg","postalCode":"71282","locality":"Hemmingen","municipality":{"key":"08118027","name":"Hemmingen","type":"Kreisangehörige_Gemeinde"},"district":{"key":"08118","name":"Ludwigsburg","type":"Landkreis"},"federalState":{"key":"08","name":"Baden-Württemberg"}},{"name":"Vorm Dorfe","postalCode":"30966","locality":"Hemmingen","municipality":{"key":"03241007","name":"Hemmingen, Stadt","type":"Stadt"},"district":{"key":"03241","name":"Region Hannover","type":"Landkreis"},"federalState":{"key":"03","name":"Niedersachsen"}},{"name":"Wagnerweg","postalCode":"30966","locality":"Hemmingen","municipality":{"key":"03241007","name":"Hemmingen, Stadt","type":"Stadt"},"district":{"key":"03241","name":"Region Hannover","type":"Landkreis"},"federalState":{"key":"03","name":"Niedersachsen"}},{"name":"Weetzener Landstr.","postalCode":"30966","locality":"Hemmingen","municipality":{"key":"03241007","name":"Hemmingen, Stadt","type":"Stadt"},"district":{"key":"03241","name":"Region Hannover","type":"Landkreis"},"federalState":{"key":"03","name":"Niedersachsen"}},{"name":"Weidenkamp","postalCode":"30966","locality":"Hemmingen","municipality":{"key":"03241007","name":"Hemmingen, Stadt","type":"Stadt"},"district":{"key":"03241","name":"Region Hannover","type":"Landkreis"},"federalState":{"key":"03","name":"Niedersachsen"}},{"name":"Weißdornweg","postalCode":"30966","locality":"Hemmingen","municipality":{"key":"03241007","name":"Hemmingen, Stadt","type":"Stadt"},"district":{"key":"03241","name":"Region Hannover","type":"Landkreis"},"federalState":{"key":"03","name":"Niedersachsen"}},{"name":"Weißer Kamp","postalCode":"30966","locality":"Hemmingen","municipality":{"key":"03241007","name":"Hemmingen, Stadt","type":"Stadt"},"district":{"key":"03241","name":"Region Hannover","type":"Landkreis"},"federalState":{"key":"03","name":"Niedersachsen"}},{"name":"Westerfelder Weg","postalCode":"30966","locality":"Hemmingen","municipality":{"key":"03241007","name":"Hemmingen, Stadt","type":"Stadt"},"district":{"key":"03241","name":"Region Hannover","type":"Landkreis"},"federalState":{"key":"03","name":"Niedersachsen"}},{"name":"Westerriede","postalCode":"30966","locality":"Hemmingen","municipality":{"key":"03241007","name":"Hemmingen, Stadt","type":"Stadt"},"district":{"key":"03241","name":"Region Hannover","type":"Landkreis"},"federalState":{"key":"03","name":"Niedersachsen"}},{"name":"Wiedholz","postalCode":"30966","locality":"Hemmingen","municipality":{"key":"03241007","name":"Hemmingen, Stadt","type":"Stadt"},"district":{"key":"03241","name":"Region Hannover","type":"Landkreis"},"federalState":{"key":"03","name":"Niedersachsen"}},{"name":"Wiesenweg","postalCode":"30966","locality":"Hemmingen","municipality":{"key":"03241007","name":"Hemmingen, Stadt","type":"Stadt"},"district":{"key":"03241","name":"Region Hannover","type":"Landkreis"},"federalState":{"key":"03","name":"Niedersachsen"}},{"name":"Wilhelm-Gramann-Weg","postalCode":"30966","locality":"Hemmingen","municipality":{"key":"03241007","name":"Hemmingen, Stadt","type":"Stadt"},"district":{"key":"03241","name":"Region Hannover","type":"Landkreis"},"federalState":{"key":"03","name":"Niedersachsen"}},{"name":"Wilhelm-Röntgen-Str.","postalCode":"30966","locality":"Hemmingen","municipality":{"key":"03241007","name":"Hemmingen, Stadt","type":"Stadt"},"district":{"key":"03241","name":"Region Hannover","type":"Landkreis"},"federalState":{"key":"03","name":"Niedersachsen"}},{"name":"Wilkenburger Str.","postalCode":"30966","locality":"Hemmingen","municipality":{"key":"03241007","name":"Hemmingen, Stadt","type":"Stadt"},"district":{"key":"03241","name":"Region Hannover","type":"Landkreis"},"federalState":{"key":"03","name":"Niedersachsen"}},{"name":"Willi-Bleicher-Str.","postalCode":"71282","locality":"Hemmingen","municipality":{"key":"08118027","name":"Hemmingen","type":"Kreisangehörige_Gemeinde"},"district":{"key":"08118","name":"Ludwigsburg","type":"Landkreis"},"federalState":{"key":"08","name":"Baden-Württemberg"}},{"name":"Wülfeler Str.","postalCode":"30966","locality":"Hemmingen","municipality":{"key":"03241007","name":"Hemmingen, Stadt","type":"Stadt"},"district":{"key":"03241","name":"Region Hannover","type":"Landkreis"},"federalState":{"key":"03","name":"Niedersachsen"}},{"name":"Wundramstr.","postalCode":"30966","locality":"Hemmingen","municipality":{"key":"03241007","name":"Hemmingen, Stadt","type":"Stadt"},"district":{"key":"03241","name":"Region Hannover","type":"Landkreis"},"federalState":{"key":"03","name":"Niedersachsen"}},{"name":"Yvetotstr.","postalCode":"30966","locality":"Hemmingen","municipality":{"key":"03241007","name":"Hemmingen, Stadt","type":"Stadt"},"district":{"key":"03241","name":"Region Hannover","type":"Landkreis"},"federalState":{"key":"03","name":"Niedersachsen"}},{"name":"Zeilweg","postalCode":"71282","locality":"Hemmingen","municipality":{"key":"08118027","name":"Hemmingen","type":"Kreisangehörige_Gemeinde"},"district":{"key":"08118","name":"Ludwigsburg","type":"Landkreis"},"federalState":{"key":"08","name":"Baden-Württemberg"}},{"name":"Zeppelinstr.","postalCode":"71282","locality":"Hemmingen","municipality":{"key":"08118027","name":"Hemmingen","type":"Kreisangehörige_Gemeinde"},"district":{"key":"08118","name":"Ludwigsburg","type":"Landkreis"},"federalState":{"key":"08","name":"Baden-Württemberg"}},{"name":"Ziegeleiweg","postalCode":"30966","locality":"Hemmingen","municipality":{"key":"03241007","name":"Hemmingen, Stadt","type":"Stadt"},"district":{"key":"03241","name":"Region Hannover","type":"Landkreis"},"federalState":{"key":"03","name":"Niedersachsen"}},{"name":"Znaimer Str.","postalCode":"71282","locality":"Hemmingen","municipality":{"key":"08118027","name":"Hemmingen","type":"Kreisangehörige_Gemeinde"},"district":{"key":"08118","name":"Ludwigsburg","type":"Landkreis"},"federalState":{"key":"08","name":"Baden-Württemberg"}},]