[{"name":"Ahlenweg","postalCode":"66679","locality":"Losheim am See","municipality":{"key":"10042112","name":"Losheim am See","type":"Kreisangehörige_Gemeinde"},"district":{"key":"10042","name":"Merzig-Wadern","type":"Landkreis"},"federalState":{"key":"10","name":"Saarland"}},{"name":"Ahornweg","postalCode":"66679","locality":"Losheim am See","municipality":{"key":"10042112","name":"Losheim am See","type":"Kreisangehörige_Gemeinde"},"district":{"key":"10042","name":"Merzig-Wadern","type":"Landkreis"},"federalState":{"key":"10","name":"Saarland"}},{"name":"Akazienweg","postalCode":"66679","locality":"Losheim am See","municipality":{"key":"10042112","name":"Losheim am See","type":"Kreisangehörige_Gemeinde"},"district":{"key":"10042","name":"Merzig-Wadern","type":"Landkreis"},"federalState":{"key":"10","name":"Saarland"}},{"name":"Altbachstr.","postalCode":"66679","locality":"Losheim am See","municipality":{"key":"10042112","name":"Losheim am See","type":"Kreisangehörige_Gemeinde"},"district":{"key":"10042","name":"Merzig-Wadern","type":"Landkreis"},"federalState":{"key":"10","name":"Saarland"}},{"name":"Am Berg","postalCode":"66679","locality":"Losheim am See","municipality":{"key":"10042112","name":"Losheim am See","type":"Kreisangehörige_Gemeinde"},"district":{"key":"10042","name":"Merzig-Wadern","type":"Landkreis"},"federalState":{"key":"10","name":"Saarland"}},{"name":"Am Birkwald","postalCode":"66679","locality":"Losheim am See","municipality":{"key":"10042112","name":"Losheim am See","type":"Kreisangehörige_Gemeinde"},"district":{"key":"10042","name":"Merzig-Wadern","type":"Landkreis"},"federalState":{"key":"10","name":"Saarland"}},{"name":"Am Carl-Dewes-Platz","postalCode":"66679","locality":"Losheim am See","municipality":{"key":"10042112","name":"Losheim am See","type":"Kreisangehörige_Gemeinde"},"district":{"key":"10042","name":"Merzig-Wadern","type":"Landkreis"},"federalState":{"key":"10","name":"Saarland"}},{"name":"Am Grauenstein","postalCode":"66679","locality":"Losheim am See","municipality":{"key":"10042112","name":"Losheim am See","type":"Kreisangehörige_Gemeinde"},"district":{"key":"10042","name":"Merzig-Wadern","type":"Landkreis"},"federalState":{"key":"10","name":"Saarland"}},{"name":"Am Hanfberg","postalCode":"66679","locality":"Losheim am See","municipality":{"key":"10042112","name":"Losheim am See","type":"Kreisangehörige_Gemeinde"},"district":{"key":"10042","name":"Merzig-Wadern","type":"Landkreis"},"federalState":{"key":"10","name":"Saarland"}},{"name":"Am Hang","postalCode":"66679","locality":"Losheim am See","municipality":{"key":"10042112","name":"Losheim am See","type":"Kreisangehörige_Gemeinde"},"district":{"key":"10042","name":"Merzig-Wadern","type":"Landkreis"},"federalState":{"key":"10","name":"Saarland"}},{"name":"Am Hansenberg","postalCode":"66679","locality":"Losheim am See","municipality":{"key":"10042112","name":"Losheim am See","type":"Kreisangehörige_Gemeinde"},"district":{"key":"10042","name":"Merzig-Wadern","type":"Landkreis"},"federalState":{"key":"10","name":"Saarland"}},{"name":"Am Hasensprung","postalCode":"66679","locality":"Losheim am See","municipality":{"key":"10042112","name":"Losheim am See","type":"Kreisangehörige_Gemeinde"},"district":{"key":"10042","name":"Merzig-Wadern","type":"Landkreis"},"federalState":{"key":"10","name":"Saarland"}},{"name":"Am Herrenpfad","postalCode":"66679","locality":"Losheim am See","municipality":{"key":"10042112","name":"Losheim am See","type":"Kreisangehörige_Gemeinde"},"district":{"key":"10042","name":"Merzig-Wadern","type":"Landkreis"},"federalState":{"key":"10","name":"Saarland"}},{"name":"Am Kapellenberg","postalCode":"66679","locality":"Losheim am See","municipality":{"key":"10042112","name":"Losheim am See","type":"Kreisangehörige_Gemeinde"},"district":{"key":"10042","name":"Merzig-Wadern","type":"Landkreis"},"federalState":{"key":"10","name":"Saarland"}},{"name":"Am Kappelwald","postalCode":"66679","locality":"Losheim am See","municipality":{"key":"10042112","name":"Losheim am See","type":"Kreisangehörige_Gemeinde"},"district":{"key":"10042","name":"Merzig-Wadern","type":"Landkreis"},"federalState":{"key":"10","name":"Saarland"}},{"name":"Am Kirchberg","postalCode":"66679","locality":"Losheim am See","municipality":{"key":"10042112","name":"Losheim am See","type":"Kreisangehörige_Gemeinde"},"district":{"key":"10042","name":"Merzig-Wadern","type":"Landkreis"},"federalState":{"key":"10","name":"Saarland"}},{"name":"Am Mühlenberg","postalCode":"66679","locality":"Losheim am See","municipality":{"key":"10042112","name":"Losheim am See","type":"Kreisangehörige_Gemeinde"},"district":{"key":"10042","name":"Merzig-Wadern","type":"Landkreis"},"federalState":{"key":"10","name":"Saarland"}},{"name":"Am Rund","postalCode":"66679","locality":"Losheim am See","municipality":{"key":"10042112","name":"Losheim am See","type":"Kreisangehörige_Gemeinde"},"district":{"key":"10042","name":"Merzig-Wadern","type":"Landkreis"},"federalState":{"key":"10","name":"Saarland"}},{"name":"Am Seffersbach","postalCode":"66679","locality":"Losheim am See","municipality":{"key":"10042112","name":"Losheim am See","type":"Kreisangehörige_Gemeinde"},"district":{"key":"10042","name":"Merzig-Wadern","type":"Landkreis"},"federalState":{"key":"10","name":"Saarland"}},{"name":"Am Sermesberg","postalCode":"66679","locality":"Losheim am See","municipality":{"key":"10042112","name":"Losheim am See","type":"Kreisangehörige_Gemeinde"},"district":{"key":"10042","name":"Merzig-Wadern","type":"Landkreis"},"federalState":{"key":"10","name":"Saarland"}},{"name":"Am Sportplatz","postalCode":"66679","locality":"Losheim am See","municipality":{"key":"10042112","name":"Losheim am See","type":"Kreisangehörige_Gemeinde"},"district":{"key":"10042","name":"Merzig-Wadern","type":"Landkreis"},"federalState":{"key":"10","name":"Saarland"}},{"name":"Am Steil","postalCode":"66679","locality":"Losheim am See","municipality":{"key":"10042112","name":"Losheim am See","type":"Kreisangehörige_Gemeinde"},"district":{"key":"10042","name":"Merzig-Wadern","type":"Landkreis"},"federalState":{"key":"10","name":"Saarland"}},{"name":"Am Steuerfeld","postalCode":"66679","locality":"Losheim am See","municipality":{"key":"10042112","name":"Losheim am See","type":"Kreisangehörige_Gemeinde"},"district":{"key":"10042","name":"Merzig-Wadern","type":"Landkreis"},"federalState":{"key":"10","name":"Saarland"}},{"name":"Am Südhang","postalCode":"66679","locality":"Losheim am See","municipality":{"key":"10042112","name":"Losheim am See","type":"Kreisangehörige_Gemeinde"},"district":{"key":"10042","name":"Merzig-Wadern","type":"Landkreis"},"federalState":{"key":"10","name":"Saarland"}},{"name":"Am Zoll","postalCode":"66679","locality":"Losheim am See","municipality":{"key":"10042112","name":"Losheim am See","type":"Kreisangehörige_Gemeinde"},"district":{"key":"10042","name":"Merzig-Wadern","type":"Landkreis"},"federalState":{"key":"10","name":"Saarland"}},{"name":"An der Dreifaltigkeit","postalCode":"66679","locality":"Losheim am See","municipality":{"key":"10042112","name":"Losheim am See","type":"Kreisangehörige_Gemeinde"},"district":{"key":"10042","name":"Merzig-Wadern","type":"Landkreis"},"federalState":{"key":"10","name":"Saarland"}},{"name":"An der Grotte","postalCode":"66679","locality":"Losheim am See","municipality":{"key":"10042112","name":"Losheim am See","type":"Kreisangehörige_Gemeinde"},"district":{"key":"10042","name":"Merzig-Wadern","type":"Landkreis"},"federalState":{"key":"10","name":"Saarland"}},{"name":"An der Kopp","postalCode":"66679","locality":"Losheim am See","municipality":{"key":"10042112","name":"Losheim am See","type":"Kreisangehörige_Gemeinde"},"district":{"key":"10042","name":"Merzig-Wadern","type":"Landkreis"},"federalState":{"key":"10","name":"Saarland"}},{"name":"Arnikaweg","postalCode":"66679","locality":"Losheim am See","municipality":{"key":"10042112","name":"Losheim am See","type":"Kreisangehörige_Gemeinde"},"district":{"key":"10042","name":"Merzig-Wadern","type":"Landkreis"},"federalState":{"key":"10","name":"Saarland"}},{"name":"Auf Bandels","postalCode":"66679","locality":"Losheim am See","municipality":{"key":"10042112","name":"Losheim am See","type":"Kreisangehörige_Gemeinde"},"district":{"key":"10042","name":"Merzig-Wadern","type":"Landkreis"},"federalState":{"key":"10","name":"Saarland"}},{"name":"Auf dem Feld","postalCode":"66679","locality":"Losheim am See","municipality":{"key":"10042112","name":"Losheim am See","type":"Kreisangehörige_Gemeinde"},"district":{"key":"10042","name":"Merzig-Wadern","type":"Landkreis"},"federalState":{"key":"10","name":"Saarland"}},{"name":"Auf dem Klöpfchen","postalCode":"66679","locality":"Losheim am See","municipality":{"key":"10042112","name":"Losheim am See","type":"Kreisangehörige_Gemeinde"},"district":{"key":"10042","name":"Merzig-Wadern","type":"Landkreis"},"federalState":{"key":"10","name":"Saarland"}},{"name":"Auf den Athen","postalCode":"66679","locality":"Losheim am See","municipality":{"key":"10042112","name":"Losheim am See","type":"Kreisangehörige_Gemeinde"},"district":{"key":"10042","name":"Merzig-Wadern","type":"Landkreis"},"federalState":{"key":"10","name":"Saarland"}},{"name":"Auf den Espen","postalCode":"66679","locality":"Losheim am See","municipality":{"key":"10042112","name":"Losheim am See","type":"Kreisangehörige_Gemeinde"},"district":{"key":"10042","name":"Merzig-Wadern","type":"Landkreis"},"federalState":{"key":"10","name":"Saarland"}},{"name":"Auf der Acht","postalCode":"66679","locality":"Losheim am See","municipality":{"key":"10042112","name":"Losheim am See","type":"Kreisangehörige_Gemeinde"},"district":{"key":"10042","name":"Merzig-Wadern","type":"Landkreis"},"federalState":{"key":"10","name":"Saarland"}},{"name":"Auf der Fels","postalCode":"66679","locality":"Losheim am See","municipality":{"key":"10042112","name":"Losheim am See","type":"Kreisangehörige_Gemeinde"},"district":{"key":"10042","name":"Merzig-Wadern","type":"Landkreis"},"federalState":{"key":"10","name":"Saarland"}},{"name":"Auf der Heide","postalCode":"66679","locality":"Losheim am See","municipality":{"key":"10042112","name":"Losheim am See","type":"Kreisangehörige_Gemeinde"},"district":{"key":"10042","name":"Merzig-Wadern","type":"Landkreis"},"federalState":{"key":"10","name":"Saarland"}},{"name":"Auf der Hild","postalCode":"66679","locality":"Losheim am See","municipality":{"key":"10042112","name":"Losheim am See","type":"Kreisangehörige_Gemeinde"},"district":{"key":"10042","name":"Merzig-Wadern","type":"Landkreis"},"federalState":{"key":"10","name":"Saarland"}},{"name":"Auf der Schlädt","postalCode":"66679","locality":"Losheim am See","municipality":{"key":"10042112","name":"Losheim am See","type":"Kreisangehörige_Gemeinde"},"district":{"key":"10042","name":"Merzig-Wadern","type":"Landkreis"},"federalState":{"key":"10","name":"Saarland"}},{"name":"Auf Drei Eichen","postalCode":"66679","locality":"Losheim am See","municipality":{"key":"10042112","name":"Losheim am See","type":"Kreisangehörige_Gemeinde"},"district":{"key":"10042","name":"Merzig-Wadern","type":"Landkreis"},"federalState":{"key":"10","name":"Saarland"}},{"name":"Auf Grauenthal","postalCode":"66679","locality":"Losheim am See","municipality":{"key":"10042112","name":"Losheim am See","type":"Kreisangehörige_Gemeinde"},"district":{"key":"10042","name":"Merzig-Wadern","type":"Landkreis"},"federalState":{"key":"10","name":"Saarland"}},{"name":"Auf Kellerchen","postalCode":"66679","locality":"Losheim am See","municipality":{"key":"10042112","name":"Losheim am See","type":"Kreisangehörige_Gemeinde"},"district":{"key":"10042","name":"Merzig-Wadern","type":"Landkreis"},"federalState":{"key":"10","name":"Saarland"}},{"name":"Auf Steinert","postalCode":"66679","locality":"Losheim am See","municipality":{"key":"10042112","name":"Losheim am See","type":"Kreisangehörige_Gemeinde"},"district":{"key":"10042","name":"Merzig-Wadern","type":"Landkreis"},"federalState":{"key":"10","name":"Saarland"}},{"name":"Auf Wenzelt","postalCode":"66679","locality":"Losheim am See","municipality":{"key":"10042112","name":"Losheim am See","type":"Kreisangehörige_Gemeinde"},"district":{"key":"10042","name":"Merzig-Wadern","type":"Landkreis"},"federalState":{"key":"10","name":"Saarland"}},{"name":"Bachemer Str.","postalCode":"66679","locality":"Losheim am See","municipality":{"key":"10042112","name":"Losheim am See","type":"Kreisangehörige_Gemeinde"},"district":{"key":"10042","name":"Merzig-Wadern","type":"Landkreis"},"federalState":{"key":"10","name":"Saarland"}},{"name":"Bachstr.","postalCode":"66679","locality":"Losheim am See","municipality":{"key":"10042112","name":"Losheim am See","type":"Kreisangehörige_Gemeinde"},"district":{"key":"10042","name":"Merzig-Wadern","type":"Landkreis"},"federalState":{"key":"10","name":"Saarland"}},{"name":"Bahnhofstr.","postalCode":"66679","locality":"Losheim am See","municipality":{"key":"10042112","name":"Losheim am See","type":"Kreisangehörige_Gemeinde"},"district":{"key":"10042","name":"Merzig-Wadern","type":"Landkreis"},"federalState":{"key":"10","name":"Saarland"}},{"name":"Beim alten Weg","postalCode":"66679","locality":"Losheim am See","municipality":{"key":"10042112","name":"Losheim am See","type":"Kreisangehörige_Gemeinde"},"district":{"key":"10042","name":"Merzig-Wadern","type":"Landkreis"},"federalState":{"key":"10","name":"Saarland"}},{"name":"Berendstr.","postalCode":"66679","locality":"Losheim am See","municipality":{"key":"10042112","name":"Losheim am See","type":"Kreisangehörige_Gemeinde"},"district":{"key":"10042","name":"Merzig-Wadern","type":"Landkreis"},"federalState":{"key":"10","name":"Saarland"}},{"name":"Bergener Str.","postalCode":"66679","locality":"Losheim am See","municipality":{"key":"10042112","name":"Losheim am See","type":"Kreisangehörige_Gemeinde"},"district":{"key":"10042","name":"Merzig-Wadern","type":"Landkreis"},"federalState":{"key":"10","name":"Saarland"}},{"name":"Bergstr.","postalCode":"66679","locality":"Losheim am See","municipality":{"key":"10042112","name":"Losheim am See","type":"Kreisangehörige_Gemeinde"},"district":{"key":"10042","name":"Merzig-Wadern","type":"Landkreis"},"federalState":{"key":"10","name":"Saarland"}},{"name":"Birkenweg","postalCode":"66679","locality":"Losheim am See","municipality":{"key":"10042112","name":"Losheim am See","type":"Kreisangehörige_Gemeinde"},"district":{"key":"10042","name":"Merzig-Wadern","type":"Landkreis"},"federalState":{"key":"10","name":"Saarland"}},{"name":"Bleichwiesen","postalCode":"66679","locality":"Losheim am See","municipality":{"key":"10042112","name":"Losheim am See","type":"Kreisangehörige_Gemeinde"},"district":{"key":"10042","name":"Merzig-Wadern","type":"Landkreis"},"federalState":{"key":"10","name":"Saarland"}},{"name":"Blumenstr.","postalCode":"66679","locality":"Losheim am See","municipality":{"key":"10042112","name":"Losheim am See","type":"Kreisangehörige_Gemeinde"},"district":{"key":"10042","name":"Merzig-Wadern","type":"Landkreis"},"federalState":{"key":"10","name":"Saarland"}},{"name":"Bonzenberg","postalCode":"66679","locality":"Losheim am See","municipality":{"key":"10042112","name":"Losheim am See","type":"Kreisangehörige_Gemeinde"},"district":{"key":"10042","name":"Merzig-Wadern","type":"Landkreis"},"federalState":{"key":"10","name":"Saarland"}},{"name":"Bormigstr.","postalCode":"66679","locality":"Losheim am See","municipality":{"key":"10042112","name":"Losheim am See","type":"Kreisangehörige_Gemeinde"},"district":{"key":"10042","name":"Merzig-Wadern","type":"Landkreis"},"federalState":{"key":"10","name":"Saarland"}},{"name":"Bornbergstr.","postalCode":"66679","locality":"Losheim am See","municipality":{"key":"10042112","name":"Losheim am See","type":"Kreisangehörige_Gemeinde"},"district":{"key":"10042","name":"Merzig-Wadern","type":"Landkreis"},"federalState":{"key":"10","name":"Saarland"}},{"name":"Bornstr.","postalCode":"66679","locality":"Losheim am See","municipality":{"key":"10042112","name":"Losheim am See","type":"Kreisangehörige_Gemeinde"},"district":{"key":"10042","name":"Merzig-Wadern","type":"Landkreis"},"federalState":{"key":"10","name":"Saarland"}},{"name":"Brechkaul","postalCode":"66679","locality":"Losheim am See","municipality":{"key":"10042112","name":"Losheim am See","type":"Kreisangehörige_Gemeinde"},"district":{"key":"10042","name":"Merzig-Wadern","type":"Landkreis"},"federalState":{"key":"10","name":"Saarland"}},{"name":"Brittener Str.","postalCode":"66679","locality":"Losheim am See","municipality":{"key":"10042112","name":"Losheim am See","type":"Kreisangehörige_Gemeinde"},"district":{"key":"10042","name":"Merzig-Wadern","type":"Landkreis"},"federalState":{"key":"10","name":"Saarland"}},{"name":"Brunnenstr.","postalCode":"66679","locality":"Losheim am See","municipality":{"key":"10042112","name":"Losheim am See","type":"Kreisangehörige_Gemeinde"},"district":{"key":"10042","name":"Merzig-Wadern","type":"Landkreis"},"federalState":{"key":"10","name":"Saarland"}},{"name":"Buchenstr.","postalCode":"66679","locality":"Losheim am See","municipality":{"key":"10042112","name":"Losheim am See","type":"Kreisangehörige_Gemeinde"},"district":{"key":"10042","name":"Merzig-Wadern","type":"Landkreis"},"federalState":{"key":"10","name":"Saarland"}},{"name":"Bundweg","postalCode":"66679","locality":"Losheim am See","municipality":{"key":"10042112","name":"Losheim am See","type":"Kreisangehörige_Gemeinde"},"district":{"key":"10042","name":"Merzig-Wadern","type":"Landkreis"},"federalState":{"key":"10","name":"Saarland"}},{"name":"Büschenberg","postalCode":"66679","locality":"Losheim am See","municipality":{"key":"10042112","name":"Losheim am See","type":"Kreisangehörige_Gemeinde"},"district":{"key":"10042","name":"Merzig-Wadern","type":"Landkreis"},"federalState":{"key":"10","name":"Saarland"}},{"name":"Dellbornerstr.","postalCode":"66679","locality":"Losheim am See","municipality":{"key":"10042112","name":"Losheim am See","type":"Kreisangehörige_Gemeinde"},"district":{"key":"10042","name":"Merzig-Wadern","type":"Landkreis"},"federalState":{"key":"10","name":"Saarland"}},{"name":"Diedenhofenstr.","postalCode":"66679","locality":"Losheim am See","municipality":{"key":"10042112","name":"Losheim am See","type":"Kreisangehörige_Gemeinde"},"district":{"key":"10042","name":"Merzig-Wadern","type":"Landkreis"},"federalState":{"key":"10","name":"Saarland"}},{"name":"Dillinger Str.","postalCode":"66679","locality":"Losheim am See","municipality":{"key":"10042112","name":"Losheim am See","type":"Kreisangehörige_Gemeinde"},"district":{"key":"10042","name":"Merzig-Wadern","type":"Landkreis"},"federalState":{"key":"10","name":"Saarland"}},{"name":"Dorfplatz","postalCode":"66679","locality":"Losheim am See","municipality":{"key":"10042112","name":"Losheim am See","type":"Kreisangehörige_Gemeinde"},"district":{"key":"10042","name":"Merzig-Wadern","type":"Landkreis"},"federalState":{"key":"10","name":"Saarland"}},{"name":"Dorfstr.","postalCode":"66679","locality":"Losheim am See","municipality":{"key":"10042112","name":"Losheim am See","type":"Kreisangehörige_Gemeinde"},"district":{"key":"10042","name":"Merzig-Wadern","type":"Landkreis"},"federalState":{"key":"10","name":"Saarland"}},{"name":"Dorfwies","postalCode":"66679","locality":"Losheim am See","municipality":{"key":"10042112","name":"Losheim am See","type":"Kreisangehörige_Gemeinde"},"district":{"key":"10042","name":"Merzig-Wadern","type":"Landkreis"},"federalState":{"key":"10","name":"Saarland"}},{"name":"Ehrigerstr.","postalCode":"66679","locality":"Losheim am See","municipality":{"key":"10042112","name":"Losheim am See","type":"Kreisangehörige_Gemeinde"},"district":{"key":"10042","name":"Merzig-Wadern","type":"Landkreis"},"federalState":{"key":"10","name":"Saarland"}},{"name":"Eichenlaubstr.","postalCode":"66679","locality":"Losheim am See","municipality":{"key":"10042112","name":"Losheim am See","type":"Kreisangehörige_Gemeinde"},"district":{"key":"10042","name":"Merzig-Wadern","type":"Landkreis"},"federalState":{"key":"10","name":"Saarland"}},{"name":"Eisenbahnstr.","postalCode":"66679","locality":"Losheim am See","municipality":{"key":"10042112","name":"Losheim am See","type":"Kreisangehörige_Gemeinde"},"district":{"key":"10042","name":"Merzig-Wadern","type":"Landkreis"},"federalState":{"key":"10","name":"Saarland"}},{"name":"Elt","postalCode":"66679","locality":"Losheim am See","municipality":{"key":"10042112","name":"Losheim am See","type":"Kreisangehörige_Gemeinde"},"district":{"key":"10042","name":"Merzig-Wadern","type":"Landkreis"},"federalState":{"key":"10","name":"Saarland"}},{"name":"Entschelwies","postalCode":"66679","locality":"Losheim am See","municipality":{"key":"10042112","name":"Losheim am See","type":"Kreisangehörige_Gemeinde"},"district":{"key":"10042","name":"Merzig-Wadern","type":"Landkreis"},"federalState":{"key":"10","name":"Saarland"}},{"name":"Erlenweg","postalCode":"66679","locality":"Losheim am See","municipality":{"key":"10042112","name":"Losheim am See","type":"Kreisangehörige_Gemeinde"},"district":{"key":"10042","name":"Merzig-Wadern","type":"Landkreis"},"federalState":{"key":"10","name":"Saarland"}},{"name":"Feldstr.","postalCode":"66679","locality":"Losheim am See","municipality":{"key":"10042112","name":"Losheim am See","type":"Kreisangehörige_Gemeinde"},"district":{"key":"10042","name":"Merzig-Wadern","type":"Landkreis"},"federalState":{"key":"10","name":"Saarland"}},{"name":"Flürchen","postalCode":"66679","locality":"Losheim am See","municipality":{"key":"10042112","name":"Losheim am See","type":"Kreisangehörige_Gemeinde"},"district":{"key":"10042","name":"Merzig-Wadern","type":"Landkreis"},"federalState":{"key":"10","name":"Saarland"}},{"name":"Fortunastr.","postalCode":"66679","locality":"Losheim am See","municipality":{"key":"10042112","name":"Losheim am See","type":"Kreisangehörige_Gemeinde"},"district":{"key":"10042","name":"Merzig-Wadern","type":"Landkreis"},"federalState":{"key":"10","name":"Saarland"}},{"name":"Franz-Schuhmacher-Str.","postalCode":"66679","locality":"Losheim am See","municipality":{"key":"10042112","name":"Losheim am See","type":"Kreisangehörige_Gemeinde"},"district":{"key":"10042","name":"Merzig-Wadern","type":"Landkreis"},"federalState":{"key":"10","name":"Saarland"}},{"name":"Friedhofstr.","postalCode":"66679","locality":"Losheim am See","municipality":{"key":"10042112","name":"Losheim am See","type":"Kreisangehörige_Gemeinde"},"district":{"key":"10042","name":"Merzig-Wadern","type":"Landkreis"},"federalState":{"key":"10","name":"Saarland"}},{"name":"Gangolfswald","postalCode":"66679","locality":"Losheim am See","municipality":{"key":"10042112","name":"Losheim am See","type":"Kreisangehörige_Gemeinde"},"district":{"key":"10042","name":"Merzig-Wadern","type":"Landkreis"},"federalState":{"key":"10","name":"Saarland"}},{"name":"Gartenstr.","postalCode":"66679","locality":"Losheim am See","municipality":{"key":"10042112","name":"Losheim am See","type":"Kreisangehörige_Gemeinde"},"district":{"key":"10042","name":"Merzig-Wadern","type":"Landkreis"},"federalState":{"key":"10","name":"Saarland"}},{"name":"Ginsterweg","postalCode":"66679","locality":"Losheim am See","municipality":{"key":"10042112","name":"Losheim am See","type":"Kreisangehörige_Gemeinde"},"district":{"key":"10042","name":"Merzig-Wadern","type":"Landkreis"},"federalState":{"key":"10","name":"Saarland"}},{"name":"Goethestr.","postalCode":"66679","locality":"Losheim am See","municipality":{"key":"10042112","name":"Losheim am See","type":"Kreisangehörige_Gemeinde"},"district":{"key":"10042","name":"Merzig-Wadern","type":"Landkreis"},"federalState":{"key":"10","name":"Saarland"}},{"name":"Grabenstr.","postalCode":"66679","locality":"Losheim am See","municipality":{"key":"10042112","name":"Losheim am See","type":"Kreisangehörige_Gemeinde"},"district":{"key":"10042","name":"Merzig-Wadern","type":"Landkreis"},"federalState":{"key":"10","name":"Saarland"}},{"name":"Großjungenwald","postalCode":"66679","locality":"Losheim am See","municipality":{"key":"10042112","name":"Losheim am See","type":"Kreisangehörige_Gemeinde"},"district":{"key":"10042","name":"Merzig-Wadern","type":"Landkreis"},"federalState":{"key":"10","name":"Saarland"}},{"name":"Grünstadt","postalCode":"66679","locality":"Losheim am See","municipality":{"key":"10042112","name":"Losheim am See","type":"Kreisangehörige_Gemeinde"},"district":{"key":"10042","name":"Merzig-Wadern","type":"Landkreis"},"federalState":{"key":"10","name":"Saarland"}},{"name":"Grünstr.","postalCode":"66679","locality":"Losheim am See","municipality":{"key":"10042112","name":"Losheim am See","type":"Kreisangehörige_Gemeinde"},"district":{"key":"10042","name":"Merzig-Wadern","type":"Landkreis"},"federalState":{"key":"10","name":"Saarland"}},{"name":"Haagstr.","postalCode":"66679","locality":"Losheim am See","municipality":{"key":"10042112","name":"Losheim am See","type":"Kreisangehörige_Gemeinde"},"district":{"key":"10042","name":"Merzig-Wadern","type":"Landkreis"},"federalState":{"key":"10","name":"Saarland"}},{"name":"Hasenbornsenke","postalCode":"66679","locality":"Losheim am See","municipality":{"key":"10042112","name":"Losheim am See","type":"Kreisangehörige_Gemeinde"},"district":{"key":"10042","name":"Merzig-Wadern","type":"Landkreis"},"federalState":{"key":"10","name":"Saarland"}},{"name":"Hasenweg","postalCode":"66679","locality":"Losheim am See","municipality":{"key":"10042112","name":"Losheim am See","type":"Kreisangehörige_Gemeinde"},"district":{"key":"10042","name":"Merzig-Wadern","type":"Landkreis"},"federalState":{"key":"10","name":"Saarland"}},{"name":"Hausbacher Str.","postalCode":"66679","locality":"Losheim am See","municipality":{"key":"10042112","name":"Losheim am See","type":"Kreisangehörige_Gemeinde"},"district":{"key":"10042","name":"Merzig-Wadern","type":"Landkreis"},"federalState":{"key":"10","name":"Saarland"}},{"name":"Heimlingerstr.","postalCode":"66679","locality":"Losheim am See","municipality":{"key":"10042112","name":"Losheim am See","type":"Kreisangehörige_Gemeinde"},"district":{"key":"10042","name":"Merzig-Wadern","type":"Landkreis"},"federalState":{"key":"10","name":"Saarland"}},{"name":"Heisbornstr.","postalCode":"66679","locality":"Losheim am See","municipality":{"key":"10042112","name":"Losheim am See","type":"Kreisangehörige_Gemeinde"},"district":{"key":"10042","name":"Merzig-Wadern","type":"Landkreis"},"federalState":{"key":"10","name":"Saarland"}},{"name":"Herkeswald","postalCode":"66679","locality":"Losheim am See","municipality":{"key":"10042112","name":"Losheim am See","type":"Kreisangehörige_Gemeinde"},"district":{"key":"10042","name":"Merzig-Wadern","type":"Landkreis"},"federalState":{"key":"10","name":"Saarland"}},{"name":"Heuweg","postalCode":"66679","locality":"Losheim am See","municipality":{"key":"10042112","name":"Losheim am See","type":"Kreisangehörige_Gemeinde"},"district":{"key":"10042","name":"Merzig-Wadern","type":"Landkreis"},"federalState":{"key":"10","name":"Saarland"}},{"name":"Hochstr.","postalCode":"66679","locality":"Losheim am See","municipality":{"key":"10042112","name":"Losheim am See","type":"Kreisangehörige_Gemeinde"},"district":{"key":"10042","name":"Merzig-Wadern","type":"Landkreis"},"federalState":{"key":"10","name":"Saarland"}},{"name":"Hochwaldstr.","postalCode":"66679","locality":"Losheim am See","municipality":{"key":"10042112","name":"Losheim am See","type":"Kreisangehörige_Gemeinde"},"district":{"key":"10042","name":"Merzig-Wadern","type":"Landkreis"},"federalState":{"key":"10","name":"Saarland"}},{"name":"Hohbergstr.","postalCode":"66679","locality":"Losheim am See","municipality":{"key":"10042112","name":"Losheim am See","type":"Kreisangehörige_Gemeinde"},"district":{"key":"10042","name":"Merzig-Wadern","type":"Landkreis"},"federalState":{"key":"10","name":"Saarland"}},{"name":"Hohe Tannen","postalCode":"66679","locality":"Losheim am See","municipality":{"key":"10042112","name":"Losheim am See","type":"Kreisangehörige_Gemeinde"},"district":{"key":"10042","name":"Merzig-Wadern","type":"Landkreis"},"federalState":{"key":"10","name":"Saarland"}},{"name":"Hundscheiderweg","postalCode":"66679","locality":"Losheim am See","municipality":{"key":"10042112","name":"Losheim am See","type":"Kreisangehörige_Gemeinde"},"district":{"key":"10042","name":"Merzig-Wadern","type":"Landkreis"},"federalState":{"key":"10","name":"Saarland"}},{"name":"Hunsrückstr.","postalCode":"66679","locality":"Losheim am See","municipality":{"key":"10042112","name":"Losheim am See","type":"Kreisangehörige_Gemeinde"},"district":{"key":"10042","name":"Merzig-Wadern","type":"Landkreis"},"federalState":{"key":"10","name":"Saarland"}},{"name":"Hüttcheshügel","postalCode":"66679","locality":"Losheim am See","municipality":{"key":"10042112","name":"Losheim am See","type":"Kreisangehörige_Gemeinde"},"district":{"key":"10042","name":"Merzig-Wadern","type":"Landkreis"},"federalState":{"key":"10","name":"Saarland"}},{"name":"Im Algäu","postalCode":"66679","locality":"Losheim am See","municipality":{"key":"10042112","name":"Losheim am See","type":"Kreisangehörige_Gemeinde"},"district":{"key":"10042","name":"Merzig-Wadern","type":"Landkreis"},"federalState":{"key":"10","name":"Saarland"}},{"name":"Im Bornwald","postalCode":"66679","locality":"Losheim am See","municipality":{"key":"10042112","name":"Losheim am See","type":"Kreisangehörige_Gemeinde"},"district":{"key":"10042","name":"Merzig-Wadern","type":"Landkreis"},"federalState":{"key":"10","name":"Saarland"}},{"name":"Im Buchwald","postalCode":"66679","locality":"Losheim am See","municipality":{"key":"10042112","name":"Losheim am See","type":"Kreisangehörige_Gemeinde"},"district":{"key":"10042","name":"Merzig-Wadern","type":"Landkreis"},"federalState":{"key":"10","name":"Saarland"}},{"name":"Im Burgarten","postalCode":"66679","locality":"Losheim am See","municipality":{"key":"10042112","name":"Losheim am See","type":"Kreisangehörige_Gemeinde"},"district":{"key":"10042","name":"Merzig-Wadern","type":"Landkreis"},"federalState":{"key":"10","name":"Saarland"}},{"name":"Im Dell","postalCode":"66679","locality":"Losheim am See","municipality":{"key":"10042112","name":"Losheim am See","type":"Kreisangehörige_Gemeinde"},"district":{"key":"10042","name":"Merzig-Wadern","type":"Landkreis"},"federalState":{"key":"10","name":"Saarland"}},{"name":"Im Eichenwäldchen","postalCode":"66679","locality":"Losheim am See","municipality":{"key":"10042112","name":"Losheim am See","type":"Kreisangehörige_Gemeinde"},"district":{"key":"10042","name":"Merzig-Wadern","type":"Landkreis"},"federalState":{"key":"10","name":"Saarland"}},{"name":"Im Friedelchen","postalCode":"66679","locality":"Losheim am See","municipality":{"key":"10042112","name":"Losheim am See","type":"Kreisangehörige_Gemeinde"},"district":{"key":"10042","name":"Merzig-Wadern","type":"Landkreis"},"federalState":{"key":"10","name":"Saarland"}},{"name":"Im Haag","postalCode":"66679","locality":"Losheim am See","municipality":{"key":"10042112","name":"Losheim am See","type":"Kreisangehörige_Gemeinde"},"district":{"key":"10042","name":"Merzig-Wadern","type":"Landkreis"},"federalState":{"key":"10","name":"Saarland"}},{"name":"Im Hof","postalCode":"66679","locality":"Losheim am See","municipality":{"key":"10042112","name":"Losheim am See","type":"Kreisangehörige_Gemeinde"},"district":{"key":"10042","name":"Merzig-Wadern","type":"Landkreis"},"federalState":{"key":"10","name":"Saarland"}},{"name":"Im Hünninger","postalCode":"66679","locality":"Losheim am See","municipality":{"key":"10042112","name":"Losheim am See","type":"Kreisangehörige_Gemeinde"},"district":{"key":"10042","name":"Merzig-Wadern","type":"Landkreis"},"federalState":{"key":"10","name":"Saarland"}},{"name":"Im Jungenwald","postalCode":"66679","locality":"Losheim am See","municipality":{"key":"10042112","name":"Losheim am See","type":"Kreisangehörige_Gemeinde"},"district":{"key":"10042","name":"Merzig-Wadern","type":"Landkreis"},"federalState":{"key":"10","name":"Saarland"}},{"name":"Im Kromröder","postalCode":"66679","locality":"Losheim am See","municipality":{"key":"10042112","name":"Losheim am See","type":"Kreisangehörige_Gemeinde"},"district":{"key":"10042","name":"Merzig-Wadern","type":"Landkreis"},"federalState":{"key":"10","name":"Saarland"}},{"name":"Im Mees","postalCode":"66679","locality":"Losheim am See","municipality":{"key":"10042112","name":"Losheim am See","type":"Kreisangehörige_Gemeinde"},"district":{"key":"10042","name":"Merzig-Wadern","type":"Landkreis"},"federalState":{"key":"10","name":"Saarland"}},{"name":"Im Moosbruch","postalCode":"66679","locality":"Losheim am See","municipality":{"key":"10042112","name":"Losheim am See","type":"Kreisangehörige_Gemeinde"},"district":{"key":"10042","name":"Merzig-Wadern","type":"Landkreis"},"federalState":{"key":"10","name":"Saarland"}},{"name":"Im Neef","postalCode":"66679","locality":"Losheim am See","municipality":{"key":"10042112","name":"Losheim am See","type":"Kreisangehörige_Gemeinde"},"district":{"key":"10042","name":"Merzig-Wadern","type":"Landkreis"},"federalState":{"key":"10","name":"Saarland"}},{"name":"Im Schlimmfeld","postalCode":"66679","locality":"Losheim am See","municipality":{"key":"10042112","name":"Losheim am See","type":"Kreisangehörige_Gemeinde"},"district":{"key":"10042","name":"Merzig-Wadern","type":"Landkreis"},"federalState":{"key":"10","name":"Saarland"}},{"name":"Im Schneppenbruch","postalCode":"66679","locality":"Losheim am See","municipality":{"key":"10042112","name":"Losheim am See","type":"Kreisangehörige_Gemeinde"},"district":{"key":"10042","name":"Merzig-Wadern","type":"Landkreis"},"federalState":{"key":"10","name":"Saarland"}},{"name":"Im Sonnengarten","postalCode":"66679","locality":"Losheim am See","municipality":{"key":"10042112","name":"Losheim am See","type":"Kreisangehörige_Gemeinde"},"district":{"key":"10042","name":"Merzig-Wadern","type":"Landkreis"},"federalState":{"key":"10","name":"Saarland"}},{"name":"Im Wiesengrund","postalCode":"66679","locality":"Losheim am See","municipality":{"key":"10042112","name":"Losheim am See","type":"Kreisangehörige_Gemeinde"},"district":{"key":"10042","name":"Merzig-Wadern","type":"Landkreis"},"federalState":{"key":"10","name":"Saarland"}},{"name":"In den Fronfeldern","postalCode":"66679","locality":"Losheim am See","municipality":{"key":"10042112","name":"Losheim am See","type":"Kreisangehörige_Gemeinde"},"district":{"key":"10042","name":"Merzig-Wadern","type":"Landkreis"},"federalState":{"key":"10","name":"Saarland"}},{"name":"In den Gärten","postalCode":"66679","locality":"Losheim am See","municipality":{"key":"10042112","name":"Losheim am See","type":"Kreisangehörige_Gemeinde"},"district":{"key":"10042","name":"Merzig-Wadern","type":"Landkreis"},"federalState":{"key":"10","name":"Saarland"}},{"name":"In den Wiesen","postalCode":"66679","locality":"Losheim am See","municipality":{"key":"10042112","name":"Losheim am See","type":"Kreisangehörige_Gemeinde"},"district":{"key":"10042","name":"Merzig-Wadern","type":"Landkreis"},"federalState":{"key":"10","name":"Saarland"}},{"name":"Josefstr.","postalCode":"66679","locality":"Losheim am See","municipality":{"key":"10042112","name":"Losheim am See","type":"Kreisangehörige_Gemeinde"},"district":{"key":"10042","name":"Merzig-Wadern","type":"Landkreis"},"federalState":{"key":"10","name":"Saarland"}},{"name":"Kapellenstr.","postalCode":"66679","locality":"Losheim am See","municipality":{"key":"10042112","name":"Losheim am See","type":"Kreisangehörige_Gemeinde"},"district":{"key":"10042","name":"Merzig-Wadern","type":"Landkreis"},"federalState":{"key":"10","name":"Saarland"}},{"name":"Kastanienweg","postalCode":"66679","locality":"Losheim am See","municipality":{"key":"10042112","name":"Losheim am See","type":"Kreisangehörige_Gemeinde"},"district":{"key":"10042","name":"Merzig-Wadern","type":"Landkreis"},"federalState":{"key":"10","name":"Saarland"}},{"name":"Kerzenbergstr.","postalCode":"66679","locality":"Losheim am See","municipality":{"key":"10042112","name":"Losheim am See","type":"Kreisangehörige_Gemeinde"},"district":{"key":"10042","name":"Merzig-Wadern","type":"Landkreis"},"federalState":{"key":"10","name":"Saarland"}},{"name":"Kiefernweg","postalCode":"66679","locality":"Losheim am See","municipality":{"key":"10042112","name":"Losheim am See","type":"Kreisangehörige_Gemeinde"},"district":{"key":"10042","name":"Merzig-Wadern","type":"Landkreis"},"federalState":{"key":"10","name":"Saarland"}},{"name":"Kirchenweg","postalCode":"66679","locality":"Losheim am See","municipality":{"key":"10042112","name":"Losheim am See","type":"Kreisangehörige_Gemeinde"},"district":{"key":"10042","name":"Merzig-Wadern","type":"Landkreis"},"federalState":{"key":"10","name":"Saarland"}},{"name":"Klaffenborn","postalCode":"66679","locality":"Losheim am See","municipality":{"key":"10042112","name":"Losheim am See","type":"Kreisangehörige_Gemeinde"},"district":{"key":"10042","name":"Merzig-Wadern","type":"Landkreis"},"federalState":{"key":"10","name":"Saarland"}},{"name":"Krähenheck","postalCode":"66679","locality":"Losheim am See","municipality":{"key":"10042112","name":"Losheim am See","type":"Kreisangehörige_Gemeinde"},"district":{"key":"10042","name":"Merzig-Wadern","type":"Landkreis"},"federalState":{"key":"10","name":"Saarland"}},{"name":"Krankenhausstr.","postalCode":"66679","locality":"Losheim am See","municipality":{"key":"10042112","name":"Losheim am See","type":"Kreisangehörige_Gemeinde"},"district":{"key":"10042","name":"Merzig-Wadern","type":"Landkreis"},"federalState":{"key":"10","name":"Saarland"}},{"name":"Kreuzwäldchen","postalCode":"66679","locality":"Losheim am See","municipality":{"key":"10042112","name":"Losheim am See","type":"Kreisangehörige_Gemeinde"},"district":{"key":"10042","name":"Merzig-Wadern","type":"Landkreis"},"federalState":{"key":"10","name":"Saarland"}},{"name":"Kreuzweg","postalCode":"66679","locality":"Losheim am See","municipality":{"key":"10042112","name":"Losheim am See","type":"Kreisangehörige_Gemeinde"},"district":{"key":"10042","name":"Merzig-Wadern","type":"Landkreis"},"federalState":{"key":"10","name":"Saarland"}},{"name":"Kunengarten","postalCode":"66679","locality":"Losheim am See","municipality":{"key":"10042112","name":"Losheim am See","type":"Kreisangehörige_Gemeinde"},"district":{"key":"10042","name":"Merzig-Wadern","type":"Landkreis"},"federalState":{"key":"10","name":"Saarland"}},{"name":"Kurstr.","postalCode":"66679","locality":"Losheim am See","municipality":{"key":"10042112","name":"Losheim am See","type":"Kreisangehörige_Gemeinde"},"district":{"key":"10042","name":"Merzig-Wadern","type":"Landkreis"},"federalState":{"key":"10","name":"Saarland"}},{"name":"Lacherbruch","postalCode":"66679","locality":"Losheim am See","municipality":{"key":"10042112","name":"Losheim am See","type":"Kreisangehörige_Gemeinde"},"district":{"key":"10042","name":"Merzig-Wadern","type":"Landkreis"},"federalState":{"key":"10","name":"Saarland"}},{"name":"Langenwäldchen","postalCode":"66679","locality":"Losheim am See","municipality":{"key":"10042112","name":"Losheim am See","type":"Kreisangehörige_Gemeinde"},"district":{"key":"10042","name":"Merzig-Wadern","type":"Landkreis"},"federalState":{"key":"10","name":"Saarland"}},{"name":"Langfeld","postalCode":"66679","locality":"Losheim am See","municipality":{"key":"10042112","name":"Losheim am See","type":"Kreisangehörige_Gemeinde"},"district":{"key":"10042","name":"Merzig-Wadern","type":"Landkreis"},"federalState":{"key":"10","name":"Saarland"}},{"name":"Lannenbach","postalCode":"66679","locality":"Losheim am See","municipality":{"key":"10042112","name":"Losheim am See","type":"Kreisangehörige_Gemeinde"},"district":{"key":"10042","name":"Merzig-Wadern","type":"Landkreis"},"federalState":{"key":"10","name":"Saarland"}},{"name":"Lärchenweg","postalCode":"66679","locality":"Losheim am See","municipality":{"key":"10042112","name":"Losheim am See","type":"Kreisangehörige_Gemeinde"},"district":{"key":"10042","name":"Merzig-Wadern","type":"Landkreis"},"federalState":{"key":"10","name":"Saarland"}},{"name":"Lehmbergstr.","postalCode":"66679","locality":"Losheim am See","municipality":{"key":"10042112","name":"Losheim am See","type":"Kreisangehörige_Gemeinde"},"district":{"key":"10042","name":"Merzig-Wadern","type":"Landkreis"},"federalState":{"key":"10","name":"Saarland"}},{"name":"Lehmweg","postalCode":"66679","locality":"Losheim am See","municipality":{"key":"10042112","name":"Losheim am See","type":"Kreisangehörige_Gemeinde"},"district":{"key":"10042","name":"Merzig-Wadern","type":"Landkreis"},"federalState":{"key":"10","name":"Saarland"}},{"name":"Lessingstr.","postalCode":"66679","locality":"Losheim am See","municipality":{"key":"10042112","name":"Losheim am See","type":"Kreisangehörige_Gemeinde"},"district":{"key":"10042","name":"Merzig-Wadern","type":"Landkreis"},"federalState":{"key":"10","name":"Saarland"}},{"name":"Lilienstr.","postalCode":"66679","locality":"Losheim am See","municipality":{"key":"10042112","name":"Losheim am See","type":"Kreisangehörige_Gemeinde"},"district":{"key":"10042","name":"Merzig-Wadern","type":"Landkreis"},"federalState":{"key":"10","name":"Saarland"}},{"name":"Lindenweg","postalCode":"66679","locality":"Losheim am See","municipality":{"key":"10042112","name":"Losheim am See","type":"Kreisangehörige_Gemeinde"},"district":{"key":"10042","name":"Merzig-Wadern","type":"Landkreis"},"federalState":{"key":"10","name":"Saarland"}},{"name":"Marienstr.","postalCode":"66679","locality":"Losheim am See","municipality":{"key":"10042112","name":"Losheim am See","type":"Kreisangehörige_Gemeinde"},"district":{"key":"10042","name":"Merzig-Wadern","type":"Landkreis"},"federalState":{"key":"10","name":"Saarland"}},{"name":"Meiersgrund","postalCode":"66679","locality":"Losheim am See","municipality":{"key":"10042112","name":"Losheim am See","type":"Kreisangehörige_Gemeinde"},"district":{"key":"10042","name":"Merzig-Wadern","type":"Landkreis"},"federalState":{"key":"10","name":"Saarland"}},{"name":"Merziger Str.","postalCode":"66679","locality":"Losheim am See","municipality":{"key":"10042112","name":"Losheim am See","type":"Kreisangehörige_Gemeinde"},"district":{"key":"10042","name":"Merzig-Wadern","type":"Landkreis"},"federalState":{"key":"10","name":"Saarland"}},{"name":"Mettlacher Str.","postalCode":"66679","locality":"Losheim am See","municipality":{"key":"10042112","name":"Losheim am See","type":"Kreisangehörige_Gemeinde"},"district":{"key":"10042","name":"Merzig-Wadern","type":"Landkreis"},"federalState":{"key":"10","name":"Saarland"}},{"name":"Mitlosheimer Str.","postalCode":"66679","locality":"Losheim am See","municipality":{"key":"10042112","name":"Losheim am See","type":"Kreisangehörige_Gemeinde"},"district":{"key":"10042","name":"Merzig-Wadern","type":"Landkreis"},"federalState":{"key":"10","name":"Saarland"}},{"name":"Mühlenstr.","postalCode":"66679","locality":"Losheim am See","municipality":{"key":"10042112","name":"Losheim am See","type":"Kreisangehörige_Gemeinde"},"district":{"key":"10042","name":"Merzig-Wadern","type":"Landkreis"},"federalState":{"key":"10","name":"Saarland"}},{"name":"Mühlenteich","postalCode":"66679","locality":"Losheim am See","municipality":{"key":"10042112","name":"Losheim am See","type":"Kreisangehörige_Gemeinde"},"district":{"key":"10042","name":"Merzig-Wadern","type":"Landkreis"},"federalState":{"key":"10","name":"Saarland"}},{"name":"Nackflur","postalCode":"66679","locality":"Losheim am See","municipality":{"key":"10042112","name":"Losheim am See","type":"Kreisangehörige_Gemeinde"},"district":{"key":"10042","name":"Merzig-Wadern","type":"Landkreis"},"federalState":{"key":"10","name":"Saarland"}},{"name":"Nelkenstr.","postalCode":"66679","locality":"Losheim am See","municipality":{"key":"10042112","name":"Losheim am See","type":"Kreisangehörige_Gemeinde"},"district":{"key":"10042","name":"Merzig-Wadern","type":"Landkreis"},"federalState":{"key":"10","name":"Saarland"}},{"name":"Neustr.","postalCode":"66679","locality":"Losheim am See","municipality":{"key":"10042112","name":"Losheim am See","type":"Kreisangehörige_Gemeinde"},"district":{"key":"10042","name":"Merzig-Wadern","type":"Landkreis"},"federalState":{"key":"10","name":"Saarland"}},{"name":"Niederlosheimer Str.","postalCode":"66679","locality":"Losheim am See","municipality":{"key":"10042112","name":"Losheim am See","type":"Kreisangehörige_Gemeinde"},"district":{"key":"10042","name":"Merzig-Wadern","type":"Landkreis"},"federalState":{"key":"10","name":"Saarland"}},{"name":"Obere Gerberstr.","postalCode":"66679","locality":"Losheim am See","municipality":{"key":"10042112","name":"Losheim am See","type":"Kreisangehörige_Gemeinde"},"district":{"key":"10042","name":"Merzig-Wadern","type":"Landkreis"},"federalState":{"key":"10","name":"Saarland"}},{"name":"Obstbaumallee","postalCode":"66679","locality":"Losheim am See","municipality":{"key":"10042112","name":"Losheim am See","type":"Kreisangehörige_Gemeinde"},"district":{"key":"10042","name":"Merzig-Wadern","type":"Landkreis"},"federalState":{"key":"10","name":"Saarland"}},{"name":"Palz","postalCode":"66679","locality":"Losheim am See","municipality":{"key":"10042112","name":"Losheim am See","type":"Kreisangehörige_Gemeinde"},"district":{"key":"10042","name":"Merzig-Wadern","type":"Landkreis"},"federalState":{"key":"10","name":"Saarland"}},{"name":"Parkstr.","postalCode":"66679","locality":"Losheim am See","municipality":{"key":"10042112","name":"Losheim am See","type":"Kreisangehörige_Gemeinde"},"district":{"key":"10042","name":"Merzig-Wadern","type":"Landkreis"},"federalState":{"key":"10","name":"Saarland"}},{"name":"Pfarrer Kneipp Weg","postalCode":"66679","locality":"Losheim am See","municipality":{"key":"10042112","name":"Losheim am See","type":"Kreisangehörige_Gemeinde"},"district":{"key":"10042","name":"Merzig-Wadern","type":"Landkreis"},"federalState":{"key":"10","name":"Saarland"}},{"name":"Pfarrhausstr.","postalCode":"66679","locality":"Losheim am See","municipality":{"key":"10042112","name":"Losheim am See","type":"Kreisangehörige_Gemeinde"},"district":{"key":"10042","name":"Merzig-Wadern","type":"Landkreis"},"federalState":{"key":"10","name":"Saarland"}},{"name":"Poststr.","postalCode":"66679","locality":"Losheim am See","municipality":{"key":"10042112","name":"Losheim am See","type":"Kreisangehörige_Gemeinde"},"district":{"key":"10042","name":"Merzig-Wadern","type":"Landkreis"},"federalState":{"key":"10","name":"Saarland"}},{"name":"Prof.-Peter-Wust-Str.","postalCode":"66679","locality":"Losheim am See","municipality":{"key":"10042112","name":"Losheim am See","type":"Kreisangehörige_Gemeinde"},"district":{"key":"10042","name":"Merzig-Wadern","type":"Landkreis"},"federalState":{"key":"10","name":"Saarland"}},{"name":"Prof.-Pirlet-Str.","postalCode":"66679","locality":"Losheim am See","municipality":{"key":"10042112","name":"Losheim am See","type":"Kreisangehörige_Gemeinde"},"district":{"key":"10042","name":"Merzig-Wadern","type":"Landkreis"},"federalState":{"key":"10","name":"Saarland"}},{"name":"Prof.-Pirlett-Str.","postalCode":"66679","locality":"Losheim am See","municipality":{"key":"10042112","name":"Losheim am See","type":"Kreisangehörige_Gemeinde"},"district":{"key":"10042","name":"Merzig-Wadern","type":"Landkreis"},"federalState":{"key":"10","name":"Saarland"}},{"name":"Provinzialstr.","postalCode":"66679","locality":"Losheim am See","municipality":{"key":"10042112","name":"Losheim am See","type":"Kreisangehörige_Gemeinde"},"district":{"key":"10042","name":"Merzig-Wadern","type":"Landkreis"},"federalState":{"key":"10","name":"Saarland"}},{"name":"Quellenstr.","postalCode":"66679","locality":"Losheim am See","municipality":{"key":"10042112","name":"Losheim am See","type":"Kreisangehörige_Gemeinde"},"district":{"key":"10042","name":"Merzig-Wadern","type":"Landkreis"},"federalState":{"key":"10","name":"Saarland"}},{"name":"Rennpfad","postalCode":"66679","locality":"Losheim am See","municipality":{"key":"10042112","name":"Losheim am See","type":"Kreisangehörige_Gemeinde"},"district":{"key":"10042","name":"Merzig-Wadern","type":"Landkreis"},"federalState":{"key":"10","name":"Saarland"}},{"name":"Rimlinger Str.","postalCode":"66679","locality":"Losheim am See","municipality":{"key":"10042112","name":"Losheim am See","type":"Kreisangehörige_Gemeinde"},"district":{"key":"10042","name":"Merzig-Wadern","type":"Landkreis"},"federalState":{"key":"10","name":"Saarland"}},{"name":"Rissenthaler Str.","postalCode":"66679","locality":"Losheim am See","municipality":{"key":"10042112","name":"Losheim am See","type":"Kreisangehörige_Gemeinde"},"district":{"key":"10042","name":"Merzig-Wadern","type":"Landkreis"},"federalState":{"key":"10","name":"Saarland"}},{"name":"Römerstr.","postalCode":"66679","locality":"Losheim am See","municipality":{"key":"10042112","name":"Losheim am See","type":"Kreisangehörige_Gemeinde"},"district":{"key":"10042","name":"Merzig-Wadern","type":"Landkreis"},"federalState":{"key":"10","name":"Saarland"}},{"name":"Rosenstr.","postalCode":"66679","locality":"Losheim am See","municipality":{"key":"10042112","name":"Losheim am See","type":"Kreisangehörige_Gemeinde"},"district":{"key":"10042","name":"Merzig-Wadern","type":"Landkreis"},"federalState":{"key":"10","name":"Saarland"}},{"name":"Saarbrücker Str.","postalCode":"66679","locality":"Losheim am See","municipality":{"key":"10042112","name":"Losheim am See","type":"Kreisangehörige_Gemeinde"},"district":{"key":"10042","name":"Merzig-Wadern","type":"Landkreis"},"federalState":{"key":"10","name":"Saarland"}},{"name":"Saarlouiser Str.","postalCode":"66679","locality":"Losheim am See","municipality":{"key":"10042112","name":"Losheim am See","type":"Kreisangehörige_Gemeinde"},"district":{"key":"10042","name":"Merzig-Wadern","type":"Landkreis"},"federalState":{"key":"10","name":"Saarland"}},{"name":"Saarstr.","postalCode":"66679","locality":"Losheim am See","municipality":{"key":"10042112","name":"Losheim am See","type":"Kreisangehörige_Gemeinde"},"district":{"key":"10042","name":"Merzig-Wadern","type":"Landkreis"},"federalState":{"key":"10","name":"Saarland"}},{"name":"Schachenstr.","postalCode":"66679","locality":"Losheim am See","municipality":{"key":"10042112","name":"Losheim am See","type":"Kreisangehörige_Gemeinde"},"district":{"key":"10042","name":"Merzig-Wadern","type":"Landkreis"},"federalState":{"key":"10","name":"Saarland"}},{"name":"Scheidener Str.","postalCode":"66679","locality":"Losheim am See","municipality":{"key":"10042112","name":"Losheim am See","type":"Kreisangehörige_Gemeinde"},"district":{"key":"10042","name":"Merzig-Wadern","type":"Landkreis"},"federalState":{"key":"10","name":"Saarland"}},{"name":"Schillerstr.","postalCode":"66679","locality":"Losheim am See","municipality":{"key":"10042112","name":"Losheim am See","type":"Kreisangehörige_Gemeinde"},"district":{"key":"10042","name":"Merzig-Wadern","type":"Landkreis"},"federalState":{"key":"10","name":"Saarland"}},{"name":"Schulstr.","postalCode":"66679","locality":"Losheim am See","municipality":{"key":"10042112","name":"Losheim am See","type":"Kreisangehörige_Gemeinde"},"district":{"key":"10042","name":"Merzig-Wadern","type":"Landkreis"},"federalState":{"key":"10","name":"Saarland"}},{"name":"Schwarzwälderweg","postalCode":"66679","locality":"Losheim am See","municipality":{"key":"10042112","name":"Losheim am See","type":"Kreisangehörige_Gemeinde"},"district":{"key":"10042","name":"Merzig-Wadern","type":"Landkreis"},"federalState":{"key":"10","name":"Saarland"}},{"name":"Sonnenhang","postalCode":"66679","locality":"Losheim am See","municipality":{"key":"10042112","name":"Losheim am See","type":"Kreisangehörige_Gemeinde"},"district":{"key":"10042","name":"Merzig-Wadern","type":"Landkreis"},"federalState":{"key":"10","name":"Saarland"}},{"name":"St. Hubertusstr.","postalCode":"66679","locality":"Losheim am See","municipality":{"key":"10042112","name":"Losheim am See","type":"Kreisangehörige_Gemeinde"},"district":{"key":"10042","name":"Merzig-Wadern","type":"Landkreis"},"federalState":{"key":"10","name":"Saarland"}},{"name":"Streifstr.","postalCode":"66679","locality":"Losheim am See","municipality":{"key":"10042112","name":"Losheim am See","type":"Kreisangehörige_Gemeinde"},"district":{"key":"10042","name":"Merzig-Wadern","type":"Landkreis"},"federalState":{"key":"10","name":"Saarland"}},{"name":"Tafeltour","postalCode":"66679","locality":"Losheim am See","municipality":{"key":"10042112","name":"Losheim am See","type":"Kreisangehörige_Gemeinde"},"district":{"key":"10042","name":"Merzig-Wadern","type":"Landkreis"},"federalState":{"key":"10","name":"Saarland"}},{"name":"Talstr.","postalCode":"66679","locality":"Losheim am See","municipality":{"key":"10042112","name":"Losheim am See","type":"Kreisangehörige_Gemeinde"},"district":{"key":"10042","name":"Merzig-Wadern","type":"Landkreis"},"federalState":{"key":"10","name":"Saarland"}},{"name":"Tannenhof","postalCode":"66679","locality":"Losheim am See","municipality":{"key":"10042112","name":"Losheim am See","type":"Kreisangehörige_Gemeinde"},"district":{"key":"10042","name":"Merzig-Wadern","type":"Landkreis"},"federalState":{"key":"10","name":"Saarland"}},{"name":"Trierer Str.","postalCode":"66679","locality":"Losheim am See","municipality":{"key":"10042112","name":"Losheim am See","type":"Kreisangehörige_Gemeinde"},"district":{"key":"10042","name":"Merzig-Wadern","type":"Landkreis"},"federalState":{"key":"10","name":"Saarland"}},{"name":"Tulpenstr.","postalCode":"66679","locality":"Losheim am See","municipality":{"key":"10042112","name":"Losheim am See","type":"Kreisangehörige_Gemeinde"},"district":{"key":"10042","name":"Merzig-Wadern","type":"Landkreis"},"federalState":{"key":"10","name":"Saarland"}},{"name":"Uhlandstr.","postalCode":"66679","locality":"Losheim am See","municipality":{"key":"10042112","name":"Losheim am See","type":"Kreisangehörige_Gemeinde"},"district":{"key":"10042","name":"Merzig-Wadern","type":"Landkreis"},"federalState":{"key":"10","name":"Saarland"}},{"name":"Unterdorfstr.","postalCode":"66679","locality":"Losheim am See","municipality":{"key":"10042112","name":"Losheim am See","type":"Kreisangehörige_Gemeinde"},"district":{"key":"10042","name":"Merzig-Wadern","type":"Landkreis"},"federalState":{"key":"10","name":"Saarland"}},{"name":"Untere Gerberstr.","postalCode":"66679","locality":"Losheim am See","municipality":{"key":"10042112","name":"Losheim am See","type":"Kreisangehörige_Gemeinde"},"district":{"key":"10042","name":"Merzig-Wadern","type":"Landkreis"},"federalState":{"key":"10","name":"Saarland"}},{"name":"Unter Ringel","postalCode":"66679","locality":"Losheim am See","municipality":{"key":"10042112","name":"Losheim am See","type":"Kreisangehörige_Gemeinde"},"district":{"key":"10042","name":"Merzig-Wadern","type":"Landkreis"},"federalState":{"key":"10","name":"Saarland"}},{"name":"Urwahlenerstr.","postalCode":"66679","locality":"Losheim am See","municipality":{"key":"10042112","name":"Losheim am See","type":"Kreisangehörige_Gemeinde"},"district":{"key":"10042","name":"Merzig-Wadern","type":"Landkreis"},"federalState":{"key":"10","name":"Saarland"}},{"name":"Veilchenstr.","postalCode":"66679","locality":"Losheim am See","municipality":{"key":"10042112","name":"Losheim am See","type":"Kreisangehörige_Gemeinde"},"district":{"key":"10042","name":"Merzig-Wadern","type":"Landkreis"},"federalState":{"key":"10","name":"Saarland"}},{"name":"Vierherrenwald","postalCode":"66679","locality":"Losheim am See","municipality":{"key":"10042112","name":"Losheim am See","type":"Kreisangehörige_Gemeinde"},"district":{"key":"10042","name":"Merzig-Wadern","type":"Landkreis"},"federalState":{"key":"10","name":"Saarland"}},{"name":"Vogelschau","postalCode":"66679","locality":"Losheim am See","municipality":{"key":"10042112","name":"Losheim am See","type":"Kreisangehörige_Gemeinde"},"district":{"key":"10042","name":"Merzig-Wadern","type":"Landkreis"},"federalState":{"key":"10","name":"Saarland"}},{"name":"Vogteistr.","postalCode":"66679","locality":"Losheim am See","municipality":{"key":"10042112","name":"Losheim am See","type":"Kreisangehörige_Gemeinde"},"district":{"key":"10042","name":"Merzig-Wadern","type":"Landkreis"},"federalState":{"key":"10","name":"Saarland"}},{"name":"Vogtsweg","postalCode":"66679","locality":"Losheim am See","municipality":{"key":"10042112","name":"Losheim am See","type":"Kreisangehörige_Gemeinde"},"district":{"key":"10042","name":"Merzig-Wadern","type":"Landkreis"},"federalState":{"key":"10","name":"Saarland"}},{"name":"Von-Boch-Str.","postalCode":"66679","locality":"Losheim am See","municipality":{"key":"10042112","name":"Losheim am See","type":"Kreisangehörige_Gemeinde"},"district":{"key":"10042","name":"Merzig-Wadern","type":"Landkreis"},"federalState":{"key":"10","name":"Saarland"}},{"name":"Von-Brentano-Str.","postalCode":"66679","locality":"Losheim am See","municipality":{"key":"10042112","name":"Losheim am See","type":"Kreisangehörige_Gemeinde"},"district":{"key":"10042","name":"Merzig-Wadern","type":"Landkreis"},"federalState":{"key":"10","name":"Saarland"}},{"name":"Wagnerbruch","postalCode":"66679","locality":"Losheim am See","municipality":{"key":"10042112","name":"Losheim am See","type":"Kreisangehörige_Gemeinde"},"district":{"key":"10042","name":"Merzig-Wadern","type":"Landkreis"},"federalState":{"key":"10","name":"Saarland"}},{"name":"Wahlener Str.","postalCode":"66679","locality":"Losheim am See","municipality":{"key":"10042112","name":"Losheim am See","type":"Kreisangehörige_Gemeinde"},"district":{"key":"10042","name":"Merzig-Wadern","type":"Landkreis"},"federalState":{"key":"10","name":"Saarland"}},{"name":"Waldeck","postalCode":"66679","locality":"Losheim am See","municipality":{"key":"10042112","name":"Losheim am See","type":"Kreisangehörige_Gemeinde"},"district":{"key":"10042","name":"Merzig-Wadern","type":"Landkreis"},"federalState":{"key":"10","name":"Saarland"}},{"name":"Waldhölzbacher Str.","postalCode":"66679","locality":"Losheim am See","municipality":{"key":"10042112","name":"Losheim am See","type":"Kreisangehörige_Gemeinde"},"district":{"key":"10042","name":"Merzig-Wadern","type":"Landkreis"},"federalState":{"key":"10","name":"Saarland"}},{"name":"Waldstr.","postalCode":"66679","locality":"Losheim am See","municipality":{"key":"10042112","name":"Losheim am See","type":"Kreisangehörige_Gemeinde"},"district":{"key":"10042","name":"Merzig-Wadern","type":"Landkreis"},"federalState":{"key":"10","name":"Saarland"}},{"name":"Weiherberg","postalCode":"66679","locality":"Losheim am See","municipality":{"key":"10042112","name":"Losheim am See","type":"Kreisangehörige_Gemeinde"},"district":{"key":"10042","name":"Merzig-Wadern","type":"Landkreis"},"federalState":{"key":"10","name":"Saarland"}},{"name":"Weiherfeld","postalCode":"66679","locality":"Losheim am See","municipality":{"key":"10042112","name":"Losheim am See","type":"Kreisangehörige_Gemeinde"},"district":{"key":"10042","name":"Merzig-Wadern","type":"Landkreis"},"federalState":{"key":"10","name":"Saarland"}},{"name":"Weinstr.","postalCode":"66679","locality":"Losheim am See","municipality":{"key":"10042112","name":"Losheim am See","type":"Kreisangehörige_Gemeinde"},"district":{"key":"10042","name":"Merzig-Wadern","type":"Landkreis"},"federalState":{"key":"10","name":"Saarland"}},{"name":"Weiskirchener Str.","postalCode":"66679","locality":"Losheim am See","municipality":{"key":"10042112","name":"Losheim am See","type":"Kreisangehörige_Gemeinde"},"district":{"key":"10042","name":"Merzig-Wadern","type":"Landkreis"},"federalState":{"key":"10","name":"Saarland"}},{"name":"Wendalinusstr.","postalCode":"66679","locality":"Losheim am See","municipality":{"key":"10042112","name":"Losheim am See","type":"Kreisangehörige_Gemeinde"},"district":{"key":"10042","name":"Merzig-Wadern","type":"Landkreis"},"federalState":{"key":"10","name":"Saarland"}},{"name":"Wiesenstr.","postalCode":"66679","locality":"Losheim am See","municipality":{"key":"10042112","name":"Losheim am See","type":"Kreisangehörige_Gemeinde"},"district":{"key":"10042","name":"Merzig-Wadern","type":"Landkreis"},"federalState":{"key":"10","name":"Saarland"}},{"name":"Willibrordstr.","postalCode":"66679","locality":"Losheim am See","municipality":{"key":"10042112","name":"Losheim am See","type":"Kreisangehörige_Gemeinde"},"district":{"key":"10042","name":"Merzig-Wadern","type":"Landkreis"},"federalState":{"key":"10","name":"Saarland"}},{"name":"Wolfsborn","postalCode":"66679","locality":"Losheim am See","municipality":{"key":"10042112","name":"Losheim am See","type":"Kreisangehörige_Gemeinde"},"district":{"key":"10042","name":"Merzig-Wadern","type":"Landkreis"},"federalState":{"key":"10","name":"Saarland"}},{"name":"Zerfer Weg","postalCode":"66679","locality":"Losheim am See","municipality":{"key":"10042112","name":"Losheim am See","type":"Kreisangehörige_Gemeinde"},"district":{"key":"10042","name":"Merzig-Wadern","type":"Landkreis"},"federalState":{"key":"10","name":"Saarland"}},{"name":"Zum Edersberg","postalCode":"66679","locality":"Losheim am See","municipality":{"key":"10042112","name":"Losheim am See","type":"Kreisangehörige_Gemeinde"},"district":{"key":"10042","name":"Merzig-Wadern","type":"Landkreis"},"federalState":{"key":"10","name":"Saarland"}},{"name":"Zum Eiskeller","postalCode":"66679","locality":"Losheim am See","municipality":{"key":"10042112","name":"Losheim am See","type":"Kreisangehörige_Gemeinde"},"district":{"key":"10042","name":"Merzig-Wadern","type":"Landkreis"},"federalState":{"key":"10","name":"Saarland"}},{"name":"Zum Heidenpeter","postalCode":"66679","locality":"Losheim am See","municipality":{"key":"10042112","name":"Losheim am See","type":"Kreisangehörige_Gemeinde"},"district":{"key":"10042","name":"Merzig-Wadern","type":"Landkreis"},"federalState":{"key":"10","name":"Saarland"}},{"name":"Zum Hirschborn","postalCode":"66679","locality":"Losheim am See","municipality":{"key":"10042112","name":"Losheim am See","type":"Kreisangehörige_Gemeinde"},"district":{"key":"10042","name":"Merzig-Wadern","type":"Landkreis"},"federalState":{"key":"10","name":"Saarland"}},{"name":"Zum Igelsborn","postalCode":"66679","locality":"Losheim am See","municipality":{"key":"10042112","name":"Losheim am See","type":"Kreisangehörige_Gemeinde"},"district":{"key":"10042","name":"Merzig-Wadern","type":"Landkreis"},"federalState":{"key":"10","name":"Saarland"}},{"name":"Zum Kahlenborn","postalCode":"66679","locality":"Losheim am See","municipality":{"key":"10042112","name":"Losheim am See","type":"Kreisangehörige_Gemeinde"},"district":{"key":"10042","name":"Merzig-Wadern","type":"Landkreis"},"federalState":{"key":"10","name":"Saarland"}},{"name":"Zum Kalkofen","postalCode":"66679","locality":"Losheim am See","municipality":{"key":"10042112","name":"Losheim am See","type":"Kreisangehörige_Gemeinde"},"district":{"key":"10042","name":"Merzig-Wadern","type":"Landkreis"},"federalState":{"key":"10","name":"Saarland"}},{"name":"Zum Kammerforst","postalCode":"66679","locality":"Losheim am See","municipality":{"key":"10042112","name":"Losheim am See","type":"Kreisangehörige_Gemeinde"},"district":{"key":"10042","name":"Merzig-Wadern","type":"Landkreis"},"federalState":{"key":"10","name":"Saarland"}},{"name":"Zum Lachenwald","postalCode":"66679","locality":"Losheim am See","municipality":{"key":"10042112","name":"Losheim am See","type":"Kreisangehörige_Gemeinde"},"district":{"key":"10042","name":"Merzig-Wadern","type":"Landkreis"},"federalState":{"key":"10","name":"Saarland"}},{"name":"Zum Langenbruch","postalCode":"66679","locality":"Losheim am See","municipality":{"key":"10042112","name":"Losheim am See","type":"Kreisangehörige_Gemeinde"},"district":{"key":"10042","name":"Merzig-Wadern","type":"Landkreis"},"federalState":{"key":"10","name":"Saarland"}},{"name":"Zum Springerbach","postalCode":"66679","locality":"Losheim am See","municipality":{"key":"10042112","name":"Losheim am See","type":"Kreisangehörige_Gemeinde"},"district":{"key":"10042","name":"Merzig-Wadern","type":"Landkreis"},"federalState":{"key":"10","name":"Saarland"}},{"name":"Zum Stangenwald","postalCode":"66679","locality":"Losheim am See","municipality":{"key":"10042112","name":"Losheim am See","type":"Kreisangehörige_Gemeinde"},"district":{"key":"10042","name":"Merzig-Wadern","type":"Landkreis"},"federalState":{"key":"10","name":"Saarland"}},{"name":"Zum Stausee","postalCode":"66679","locality":"Losheim am See","municipality":{"key":"10042112","name":"Losheim am See","type":"Kreisangehörige_Gemeinde"},"district":{"key":"10042","name":"Merzig-Wadern","type":"Landkreis"},"federalState":{"key":"10","name":"Saarland"}},{"name":"Zur Bornwiese","postalCode":"66679","locality":"Losheim am See","municipality":{"key":"10042112","name":"Losheim am See","type":"Kreisangehörige_Gemeinde"},"district":{"key":"10042","name":"Merzig-Wadern","type":"Landkreis"},"federalState":{"key":"10","name":"Saarland"}},{"name":"Zur Hartwiese","postalCode":"66679","locality":"Losheim am See","municipality":{"key":"10042112","name":"Losheim am See","type":"Kreisangehörige_Gemeinde"},"district":{"key":"10042","name":"Merzig-Wadern","type":"Landkreis"},"federalState":{"key":"10","name":"Saarland"}},{"name":"Zur KÜS","postalCode":"66679","locality":"Losheim am See","municipality":{"key":"10042112","name":"Losheim am See","type":"Kreisangehörige_Gemeinde"},"district":{"key":"10042","name":"Merzig-Wadern","type":"Landkreis"},"federalState":{"key":"10","name":"Saarland"}},{"name":"Zur Ziegelhütte","postalCode":"66679","locality":"Losheim am See","municipality":{"key":"10042112","name":"Losheim am See","type":"Kreisangehörige_Gemeinde"},"district":{"key":"10042","name":"Merzig-Wadern","type":"Landkreis"},"federalState":{"key":"10","name":"Saarland"}},{"name":"Zwischen den Wegen","postalCode":"66679","locality":"Losheim am See","municipality":{"key":"10042112","name":"Losheim am See","type":"Kreisangehörige_Gemeinde"},"district":{"key":"10042","name":"Merzig-Wadern","type":"Landkreis"},"federalState":{"key":"10","name":"Saarland"}},]