[{"key":"10255658","name":"Bois de Chavailles","postalCode":"1741","locality":"Cottens FR","commune":{"key":"2186","name":"Cottens (FR)","shortName":"Cottens (FR)"},"district":{"key":"1004","name":"District de la Sarine"},"canton":{"key":"10","code":"FR","name":"Fribourg / Freiburg"},"status":"Real"},{"key":"10055677","name":"Impasse du Bimont","postalCode":"1741","locality":"Cottens FR","commune":{"key":"2186","name":"Cottens (FR)","shortName":"Cottens (FR)"},"district":{"key":"1004","name":"District de la Sarine"},"canton":{"key":"10","code":"FR","name":"Fribourg / Freiburg"},"status":"Real"},{"key":"10188251","name":"Route d'Autigny","postalCode":"1741","locality":"Cottens FR","commune":{"key":"2186","name":"Cottens (FR)","shortName":"Cottens (FR)"},"district":{"key":"1004","name":"District de la Sarine"},"canton":{"key":"10","code":"FR","name":"Fribourg / Freiburg"},"status":"Real"},{"key":"10145279","name":"Route de Belmont","postalCode":"1741","locality":"Cottens FR","commune":{"key":"2186","name":"Cottens (FR)","shortName":"Cottens (FR)"},"district":{"key":"1004","name":"District de la Sarine"},"canton":{"key":"10","code":"FR","name":"Fribourg / Freiburg"},"status":"Real"},{"key":"10022874","name":"Route de Chavailles","postalCode":"1741","locality":"Cottens FR","commune":{"key":"2186","name":"Cottens (FR)","shortName":"Cottens (FR)"},"district":{"key":"1004","name":"District de la Sarine"},"canton":{"key":"10","code":"FR","name":"Fribourg / Freiburg"},"status":"Real"},{"key":"10055678","name":"Route de Fribourg","postalCode":"1741","locality":"Cottens FR","commune":{"key":"2186","name":"Cottens (FR)","shortName":"Cottens (FR)"},"district":{"key":"1004","name":"District de la Sarine"},"canton":{"key":"10","code":"FR","name":"Fribourg / Freiburg"},"status":"Real"},{"key":"10102816","name":"Route de la Côte","postalCode":"1741","locality":"Cottens FR","commune":{"key":"2186","name":"Cottens (FR)","shortName":"Cottens (FR)"},"district":{"key":"1004","name":"District de la Sarine"},"canton":{"key":"10","code":"FR","name":"Fribourg / Freiburg"},"status":"Real"},{"key":"10121471","name":"Route de la Croix","postalCode":"1741","locality":"Cottens FR","commune":{"key":"2186","name":"Cottens (FR)","shortName":"Cottens (FR)"},"district":{"key":"1004","name":"District de la Sarine"},"canton":{"key":"10","code":"FR","name":"Fribourg / Freiburg"},"status":"Real"},{"key":"10062458","name":"Route de la Fin de Devant","postalCode":"1741","locality":"Cottens FR","commune":{"key":"2186","name":"Cottens (FR)","shortName":"Cottens (FR)"},"district":{"key":"1004","name":"District de la Sarine"},"canton":{"key":"10","code":"FR","name":"Fribourg / Freiburg"},"status":"Real"},{"key":"10088533","name":"Route de la Goille","postalCode":"1741","locality":"Cottens FR","commune":{"key":"2186","name":"Cottens (FR)","shortName":"Cottens (FR)"},"district":{"key":"1004","name":"District de la Sarine"},"canton":{"key":"10","code":"FR","name":"Fribourg / Freiburg"},"status":"Real"},{"key":"10055679","name":"Route de la Résidence","postalCode":"1741","locality":"Cottens FR","commune":{"key":"2186","name":"Cottens (FR)","shortName":"Cottens (FR)"},"district":{"key":"1004","name":"District de la Sarine"},"canton":{"key":"10","code":"FR","name":"Fribourg / Freiburg"},"status":"Real"},{"key":"10137220","name":"Route de la Scie","postalCode":"1741","locality":"Cottens FR","commune":{"key":"2186","name":"Cottens (FR)","shortName":"Cottens (FR)"},"district":{"key":"1004","name":"District de la Sarine"},"canton":{"key":"10","code":"FR","name":"Fribourg / Freiburg"},"status":"Real"},{"key":"10022875","name":"Route de la Verna","postalCode":"1741","locality":"Cottens FR","commune":{"key":"2186","name":"Cottens (FR)","shortName":"Cottens (FR)"},"district":{"key":"1004","name":"District de la Sarine"},"canton":{"key":"10","code":"FR","name":"Fribourg / Freiburg"},"status":"Real"},{"key":"10088532","name":"Route de Lentigny","postalCode":"1741","locality":"Cottens FR","commune":{"key":"2186","name":"Cottens (FR)","shortName":"Cottens (FR)"},"district":{"key":"1004","name":"District de la Sarine"},"canton":{"key":"10","code":"FR","name":"Fribourg / Freiburg"},"status":"Real"},{"key":"10192024","name":"Route de Romont","postalCode":"1741","locality":"Cottens FR","commune":{"key":"2186","name":"Cottens (FR)","shortName":"Cottens (FR)"},"district":{"key":"1004","name":"District de la Sarine"},"canton":{"key":"10","code":"FR","name":"Fribourg / Freiburg"},"status":"Real"},{"key":"10022876","name":"Route des Brévires","postalCode":"1741","locality":"Cottens FR","commune":{"key":"2186","name":"Cottens (FR)","shortName":"Cottens (FR)"},"district":{"key":"1004","name":"District de la Sarine"},"canton":{"key":"10","code":"FR","name":"Fribourg / Freiburg"},"status":"Real"},{"key":"10088534","name":"Route des Rapillettes","postalCode":"1741","locality":"Cottens FR","commune":{"key":"2186","name":"Cottens (FR)","shortName":"Cottens (FR)"},"district":{"key":"1004","name":"District de la Sarine"},"canton":{"key":"10","code":"FR","name":"Fribourg / Freiburg"},"status":"Real"},{"key":"10022877","name":"Route des Rialets","postalCode":"1741","locality":"Cottens FR","commune":{"key":"2186","name":"Cottens (FR)","shortName":"Cottens (FR)"},"district":{"key":"1004","name":"District de la Sarine"},"canton":{"key":"10","code":"FR","name":"Fribourg / Freiburg"},"status":"Real"},{"key":"10098257","name":"Route des Vulpillères","postalCode":"1741","locality":"Cottens FR","commune":{"key":"2186","name":"Cottens (FR)","shortName":"Cottens (FR)"},"district":{"key":"1004","name":"District de la Sarine"},"canton":{"key":"10","code":"FR","name":"Fribourg / Freiburg"},"status":"Real"},{"key":"10022873","name":"Route d'Onnens","postalCode":"1741","locality":"Cottens FR","commune":{"key":"2186","name":"Cottens (FR)","shortName":"Cottens (FR)"},"district":{"key":"1004","name":"District de la Sarine"},"canton":{"key":"10","code":"FR","name":"Fribourg / Freiburg"},"status":"Real"},{"key":"10022878","name":"Route du Centre","postalCode":"1741","locality":"Cottens FR","commune":{"key":"2186","name":"Cottens (FR)","shortName":"Cottens (FR)"},"district":{"key":"1004","name":"District de la Sarine"},"canton":{"key":"10","code":"FR","name":"Fribourg / Freiburg"},"status":"Real"},{"key":"10062459","name":"Route du Clos-Richard","postalCode":"1741","locality":"Cottens FR","commune":{"key":"2186","name":"Cottens (FR)","shortName":"Cottens (FR)"},"district":{"key":"1004","name":"District de la Sarine"},"canton":{"key":"10","code":"FR","name":"Fribourg / Freiburg"},"status":"Real"},{"key":"10088784","name":"Route du Grand-Bois","postalCode":"1741","locality":"Cottens FR","commune":{"key":"2186","name":"Cottens (FR)","shortName":"Cottens (FR)"},"district":{"key":"1004","name":"District de la Sarine"},"canton":{"key":"10","code":"FR","name":"Fribourg / Freiburg"},"status":"Real"},{"key":"10102817","name":"Route du Rossi","postalCode":"1741","locality":"Cottens FR","commune":{"key":"2186","name":"Cottens (FR)","shortName":"Cottens (FR)"},"district":{"key":"1004","name":"District de la Sarine"},"canton":{"key":"10","code":"FR","name":"Fribourg / Freiburg"},"status":"Real"},{"key":"10022879","name":"Route du Trimbié","postalCode":"1741","locality":"Cottens FR","commune":{"key":"2186","name":"Cottens (FR)","shortName":"Cottens (FR)"},"district":{"key":"1004","name":"District de la Sarine"},"canton":{"key":"10","code":"FR","name":"Fribourg / Freiburg"},"status":"Real"},]