[{"key":"10068852","name":"Alte Dorfstrasse","postalCode":"8487","locality":"Zell ZH","commune":{"key":"231","name":"Zell (ZH)","shortName":"Zell (ZH)"},"district":{"key":"110","name":"Bezirk Winterthur"},"canton":{"key":"1","code":"ZH","name":"Zürich"},"status":"Real"},{"key":"10160386","name":"Bachstrasse","postalCode":"8487","locality":"Zell ZH","commune":{"key":"231","name":"Zell (ZH)","shortName":"Zell (ZH)"},"district":{"key":"110","name":"Bezirk Winterthur"},"canton":{"key":"1","code":"ZH","name":"Zürich"},"status":"Real"},{"key":"10068853","name":"Breitistrasse","postalCode":"8487","locality":"Zell ZH","commune":{"key":"231","name":"Zell (ZH)","shortName":"Zell (ZH)"},"district":{"key":"110","name":"Bezirk Winterthur"},"canton":{"key":"1","code":"ZH","name":"Zürich"},"status":"Real"},{"key":"10147899","name":"Burghaldenstrasse","postalCode":"8487","locality":"Zell ZH","commune":{"key":"231","name":"Zell (ZH)","shortName":"Zell (ZH)"},"district":{"key":"110","name":"Bezirk Winterthur"},"canton":{"key":"1","code":"ZH","name":"Zürich"},"status":"Real"},{"key":"10007454","name":"Dorfplatz","postalCode":"8487","locality":"Zell ZH","commune":{"key":"231","name":"Zell (ZH)","shortName":"Zell (ZH)"},"district":{"key":"110","name":"Bezirk Winterthur"},"canton":{"key":"1","code":"ZH","name":"Zürich"},"status":"Real"},{"key":"10054755","name":"Friedhofstrasse","postalCode":"8487","locality":"Zell ZH","commune":{"key":"231","name":"Zell (ZH)","shortName":"Zell (ZH)"},"district":{"key":"110","name":"Bezirk Winterthur"},"canton":{"key":"1","code":"ZH","name":"Zürich"},"status":"Real"},{"key":"10007455","name":"Garten","postalCode":"8487","locality":"Zell ZH","commune":{"key":"231","name":"Zell (ZH)","shortName":"Zell (ZH)"},"district":{"key":"110","name":"Bezirk Winterthur"},"canton":{"key":"1","code":"ZH","name":"Zürich"},"status":"Real"},{"key":"10155514","name":"Gartenstrasse","postalCode":"8487","locality":"Zell ZH","commune":{"key":"231","name":"Zell (ZH)","shortName":"Zell (ZH)"},"district":{"key":"110","name":"Bezirk Winterthur"},"canton":{"key":"1","code":"ZH","name":"Zürich"},"status":"Real"},{"key":"10195121","name":"Girenbadstrasse","postalCode":"8487","locality":"Zell ZH","commune":{"key":"231","name":"Zell (ZH)","shortName":"Zell (ZH)"},"district":{"key":"110","name":"Bezirk Winterthur"},"canton":{"key":"1","code":"ZH","name":"Zürich"},"status":"Real"},{"key":"10193926","name":"Handstrasse","postalCode":"8487","locality":"Zell ZH","commune":{"key":"231","name":"Zell (ZH)","shortName":"Zell (ZH)"},"district":{"key":"110","name":"Bezirk Winterthur"},"canton":{"key":"1","code":"ZH","name":"Zürich"},"status":"Real"},{"key":"10193927","name":"Hinterbuchweg","postalCode":"8487","locality":"Zell ZH","commune":{"key":"231","name":"Zell (ZH)","shortName":"Zell (ZH)"},"district":{"key":"110","name":"Bezirk Winterthur"},"canton":{"key":"1","code":"ZH","name":"Zürich"},"status":"Real"},{"key":"10248066","name":"Hinterdorfstrasse","postalCode":"8487","locality":"Zell ZH","commune":{"key":"231","name":"Zell (ZH)","shortName":"Zell (ZH)"},"district":{"key":"110","name":"Bezirk Winterthur"},"canton":{"key":"1","code":"ZH","name":"Zürich"},"status":"Real"},{"key":"10193928","name":"Höchholzweg","postalCode":"8487","locality":"Zell ZH","commune":{"key":"231","name":"Zell (ZH)","shortName":"Zell (ZH)"},"district":{"key":"110","name":"Bezirk Winterthur"},"canton":{"key":"1","code":"ZH","name":"Zürich"},"status":"Real"},{"key":"10193935","name":"Holzwisen","postalCode":"8487","locality":"Zell ZH","commune":{"key":"231","name":"Zell (ZH)","shortName":"Zell (ZH)"},"district":{"key":"110","name":"Bezirk Winterthur"},"canton":{"key":"1","code":"ZH","name":"Zürich"},"status":"Real"},{"key":"10058976","name":"Im Königstal","postalCode":"8487","locality":"Zell ZH","commune":{"key":"231","name":"Zell (ZH)","shortName":"Zell (ZH)"},"district":{"key":"110","name":"Bezirk Winterthur"},"canton":{"key":"1","code":"ZH","name":"Zürich"},"status":"Real"},{"key":"10117993","name":"Langenhardstrasse","postalCode":"8487","locality":"Zell ZH","commune":{"key":"231","name":"Zell (ZH)","shortName":"Zell (ZH)"},"district":{"key":"110","name":"Bezirk Winterthur"},"canton":{"key":"1","code":"ZH","name":"Zürich"},"status":"Real"},{"key":"10115209","name":"Lettenberg","postalCode":"8487","locality":"Zell ZH","commune":{"key":"231","name":"Zell (ZH)","shortName":"Zell (ZH)"},"district":{"key":"110","name":"Bezirk Winterthur"},"canton":{"key":"1","code":"ZH","name":"Zürich"},"status":"Real"},{"key":"10068854","name":"Lettenbergstrasse","postalCode":"8487","locality":"Zell ZH","commune":{"key":"231","name":"Zell (ZH)","shortName":"Zell (ZH)"},"district":{"key":"110","name":"Bezirk Winterthur"},"canton":{"key":"1","code":"ZH","name":"Zürich"},"status":"Real"},{"key":"10249010","name":"Lindenweg","postalCode":"8487","locality":"Zell ZH","commune":{"key":"231","name":"Zell (ZH)","shortName":"Zell (ZH)"},"district":{"key":"110","name":"Bezirk Winterthur"},"canton":{"key":"1","code":"ZH","name":"Zürich"},"status":"Real"},{"key":"10007456","name":"Müliwiesstrasse","postalCode":"8487","locality":"Zell ZH","commune":{"key":"231","name":"Zell (ZH)","shortName":"Zell (ZH)"},"district":{"key":"110","name":"Bezirk Winterthur"},"canton":{"key":"1","code":"ZH","name":"Zürich"},"status":"Real"},{"key":"10007457","name":"Obere Rüti","postalCode":"8487","locality":"Zell ZH","commune":{"key":"231","name":"Zell (ZH)","shortName":"Zell (ZH)"},"district":{"key":"110","name":"Bezirk Winterthur"},"canton":{"key":"1","code":"ZH","name":"Zürich"},"status":"Real"},{"key":"10194098","name":"Püntacherstrasse","postalCode":"8487","locality":"Zell ZH","commune":{"key":"231","name":"Zell (ZH)","shortName":"Zell (ZH)"},"district":{"key":"110","name":"Bezirk Winterthur"},"canton":{"key":"1","code":"ZH","name":"Zürich"},"status":"Real"},{"key":"10058979","name":"Schooren","postalCode":"8487","locality":"Zell ZH","commune":{"key":"231","name":"Zell (ZH)","shortName":"Zell (ZH)"},"district":{"key":"110","name":"Bezirk Winterthur"},"canton":{"key":"1","code":"ZH","name":"Zürich"},"status":"Real"},{"key":"10193930","name":"Schoorenstrasse","postalCode":"8487","locality":"Zell ZH","commune":{"key":"231","name":"Zell (ZH)","shortName":"Zell (ZH)"},"district":{"key":"110","name":"Bezirk Winterthur"},"canton":{"key":"1","code":"ZH","name":"Zürich"},"status":"Real"},{"key":"10195122","name":"Schoorenweg","postalCode":"8487","locality":"Zell ZH","commune":{"key":"231","name":"Zell (ZH)","shortName":"Zell (ZH)"},"district":{"key":"110","name":"Bezirk Winterthur"},"canton":{"key":"1","code":"ZH","name":"Zürich"},"status":"Real"},{"key":"10007458","name":"Spychergasse","postalCode":"8487","locality":"Zell ZH","commune":{"key":"231","name":"Zell (ZH)","shortName":"Zell (ZH)"},"district":{"key":"110","name":"Bezirk Winterthur"},"canton":{"key":"1","code":"ZH","name":"Zürich"},"status":"Real"},{"key":"10058981","name":"Stationsstrasse","postalCode":"8487","locality":"Zell ZH","commune":{"key":"231","name":"Zell (ZH)","shortName":"Zell (ZH)"},"district":{"key":"110","name":"Bezirk Winterthur"},"canton":{"key":"1","code":"ZH","name":"Zürich"},"status":"Real"},{"key":"10108556","name":"Unter Rüti","postalCode":"8487","locality":"Zell ZH","commune":{"key":"231","name":"Zell (ZH)","shortName":"Zell (ZH)"},"district":{"key":"110","name":"Bezirk Winterthur"},"canton":{"key":"1","code":"ZH","name":"Zürich"},"status":"Real"},]