[{"name":"Alkerter Weg","postalCode":"54570","locality":"Niederstadtfeld","municipality":{"key":"07233052","name":"Niederstadtfeld","type":"Kreisangehörige_Gemeinde"},"district":{"key":"07233","name":"Vulkaneifel","type":"Landkreis"},"federalState":{"key":"07","name":"Rheinland-Pfalz"}},{"name":"An Mühlscheid","postalCode":"54570","locality":"Niederstadtfeld","municipality":{"key":"07233052","name":"Niederstadtfeld","type":"Kreisangehörige_Gemeinde"},"district":{"key":"07233","name":"Vulkaneifel","type":"Landkreis"},"federalState":{"key":"07","name":"Rheinland-Pfalz"}},{"name":"Auf der Acht","postalCode":"54570","locality":"Niederstadtfeld","municipality":{"key":"07233052","name":"Niederstadtfeld","type":"Kreisangehörige_Gemeinde"},"district":{"key":"07233","name":"Vulkaneifel","type":"Landkreis"},"federalState":{"key":"07","name":"Rheinland-Pfalz"}},{"name":"Auf der Däll","postalCode":"54570","locality":"Niederstadtfeld","municipality":{"key":"07233052","name":"Niederstadtfeld","type":"Kreisangehörige_Gemeinde"},"district":{"key":"07233","name":"Vulkaneifel","type":"Landkreis"},"federalState":{"key":"07","name":"Rheinland-Pfalz"}},{"name":"Auf Schmitzpesch","postalCode":"54570","locality":"Niederstadtfeld","municipality":{"key":"07233052","name":"Niederstadtfeld","type":"Kreisangehörige_Gemeinde"},"district":{"key":"07233","name":"Vulkaneifel","type":"Landkreis"},"federalState":{"key":"07","name":"Rheinland-Pfalz"}},{"name":"Brunnenstr.","postalCode":"54570","locality":"Niederstadtfeld","municipality":{"key":"07233052","name":"Niederstadtfeld","type":"Kreisangehörige_Gemeinde"},"district":{"key":"07233","name":"Vulkaneifel","type":"Landkreis"},"federalState":{"key":"07","name":"Rheinland-Pfalz"}},{"name":"Flurstr.","postalCode":"54570","locality":"Niederstadtfeld","municipality":{"key":"07233052","name":"Niederstadtfeld","type":"Kreisangehörige_Gemeinde"},"district":{"key":"07233","name":"Vulkaneifel","type":"Landkreis"},"federalState":{"key":"07","name":"Rheinland-Pfalz"}},{"name":"Gartenstr.","postalCode":"54570","locality":"Niederstadtfeld","municipality":{"key":"07233052","name":"Niederstadtfeld","type":"Kreisangehörige_Gemeinde"},"district":{"key":"07233","name":"Vulkaneifel","type":"Landkreis"},"federalState":{"key":"07","name":"Rheinland-Pfalz"}},{"name":"Ginsterweg","postalCode":"54570","locality":"Niederstadtfeld","municipality":{"key":"07233052","name":"Niederstadtfeld","type":"Kreisangehörige_Gemeinde"},"district":{"key":"07233","name":"Vulkaneifel","type":"Landkreis"},"federalState":{"key":"07","name":"Rheinland-Pfalz"}},{"name":"Hauptstr.","postalCode":"54570","locality":"Niederstadtfeld","municipality":{"key":"07233052","name":"Niederstadtfeld","type":"Kreisangehörige_Gemeinde"},"district":{"key":"07233","name":"Vulkaneifel","type":"Landkreis"},"federalState":{"key":"07","name":"Rheinland-Pfalz"}},{"name":"Im Wiesengrund","postalCode":"54570","locality":"Niederstadtfeld","municipality":{"key":"07233052","name":"Niederstadtfeld","type":"Kreisangehörige_Gemeinde"},"district":{"key":"07233","name":"Vulkaneifel","type":"Landkreis"},"federalState":{"key":"07","name":"Rheinland-Pfalz"}},{"name":"In der Holl","postalCode":"54570","locality":"Niederstadtfeld","municipality":{"key":"07233052","name":"Niederstadtfeld","type":"Kreisangehörige_Gemeinde"},"district":{"key":"07233","name":"Vulkaneifel","type":"Landkreis"},"federalState":{"key":"07","name":"Rheinland-Pfalz"}},{"name":"Obere Str.","postalCode":"54570","locality":"Niederstadtfeld","municipality":{"key":"07233052","name":"Niederstadtfeld","type":"Kreisangehörige_Gemeinde"},"district":{"key":"07233","name":"Vulkaneifel","type":"Landkreis"},"federalState":{"key":"07","name":"Rheinland-Pfalz"}},{"name":"Rosengasse","postalCode":"54570","locality":"Niederstadtfeld","municipality":{"key":"07233052","name":"Niederstadtfeld","type":"Kreisangehörige_Gemeinde"},"district":{"key":"07233","name":"Vulkaneifel","type":"Landkreis"},"federalState":{"key":"07","name":"Rheinland-Pfalz"}},{"name":"Schulstr.","postalCode":"54570","locality":"Niederstadtfeld","municipality":{"key":"07233052","name":"Niederstadtfeld","type":"Kreisangehörige_Gemeinde"},"district":{"key":"07233","name":"Vulkaneifel","type":"Landkreis"},"federalState":{"key":"07","name":"Rheinland-Pfalz"}},{"name":"Tulpengasse","postalCode":"54570","locality":"Niederstadtfeld","municipality":{"key":"07233052","name":"Niederstadtfeld","type":"Kreisangehörige_Gemeinde"},"district":{"key":"07233","name":"Vulkaneifel","type":"Landkreis"},"federalState":{"key":"07","name":"Rheinland-Pfalz"}},{"name":"Wallenborner Weg","postalCode":"54570","locality":"Niederstadtfeld","municipality":{"key":"07233052","name":"Niederstadtfeld","type":"Kreisangehörige_Gemeinde"},"district":{"key":"07233","name":"Vulkaneifel","type":"Landkreis"},"federalState":{"key":"07","name":"Rheinland-Pfalz"}},{"name":"Zum Flürchen","postalCode":"54570","locality":"Niederstadtfeld","municipality":{"key":"07233052","name":"Niederstadtfeld","type":"Kreisangehörige_Gemeinde"},"district":{"key":"07233","name":"Vulkaneifel","type":"Landkreis"},"federalState":{"key":"07","name":"Rheinland-Pfalz"}},{"name":"Zum Mühlenbach","postalCode":"54570","locality":"Niederstadtfeld","municipality":{"key":"07233052","name":"Niederstadtfeld","type":"Kreisangehörige_Gemeinde"},"district":{"key":"07233","name":"Vulkaneifel","type":"Landkreis"},"federalState":{"key":"07","name":"Rheinland-Pfalz"}},{"name":"Zum Weiher","postalCode":"54570","locality":"Niederstadtfeld","municipality":{"key":"07233052","name":"Niederstadtfeld","type":"Kreisangehörige_Gemeinde"},"district":{"key":"07233","name":"Vulkaneifel","type":"Landkreis"},"federalState":{"key":"07","name":"Rheinland-Pfalz"}},{"name":"Üdersdorfer Str.","postalCode":"54570","locality":"Niederstadtfeld","municipality":{"key":"07233052","name":"Niederstadtfeld","type":"Kreisangehörige_Gemeinde"},"district":{"key":"07233","name":"Vulkaneifel","type":"Landkreis"},"federalState":{"key":"07","name":"Rheinland-Pfalz"}},]