[{"key":"10208121","name":"Ai Bariér","postalCode":"6537","locality":"Grono","commune":{"key":"3832","name":"Grono","shortName":"Grono"},"district":{"key":"1847","name":"Region Moesa"},"canton":{"key":"18","code":"GR","name":"Graubünden / Grigioni / Grischun"},"status":"Real"},{"key":"10204977","name":"Ai Splendor","postalCode":"6537","locality":"Grono","commune":{"key":"3832","name":"Grono","shortName":"Grono"},"district":{"key":"1847","name":"Region Moesa"},"canton":{"key":"18","code":"GR","name":"Graubünden / Grigioni / Grischun"},"status":"Real"},{"key":"10204473","name":"Al Pont del Ram","postalCode":"6537","locality":"Grono","commune":{"key":"3832","name":"Grono","shortName":"Grono"},"district":{"key":"1847","name":"Region Moesa"},"canton":{"key":"18","code":"GR","name":"Graubünden / Grigioni / Grischun"},"status":"Real"},{"key":"10208122","name":"Carà dei Paneté","postalCode":"6537","locality":"Grono","commune":{"key":"3832","name":"Grono","shortName":"Grono"},"district":{"key":"1847","name":"Region Moesa"},"canton":{"key":"18","code":"GR","name":"Graubünden / Grigioni / Grischun"},"status":"Real"},{"key":"10216058","name":"Carà dela Fontana","postalCode":"6537","locality":"Grono","commune":{"key":"3832","name":"Grono","shortName":"Grono"},"district":{"key":"1847","name":"Region Moesa"},"canton":{"key":"18","code":"GR","name":"Graubünden / Grigioni / Grischun"},"status":"Real"},{"key":"10204975","name":"Carà dela Mota","postalCode":"6537","locality":"Grono","commune":{"key":"3832","name":"Grono","shortName":"Grono"},"district":{"key":"1847","name":"Region Moesa"},"canton":{"key":"18","code":"GR","name":"Graubünden / Grigioni / Grischun"},"status":"Real"},{"key":"10205384","name":"Carà dela Peloterìa","postalCode":"6537","locality":"Grono","commune":{"key":"3832","name":"Grono","shortName":"Grono"},"district":{"key":"1847","name":"Region Moesa"},"canton":{"key":"18","code":"GR","name":"Graubünden / Grigioni / Grischun"},"status":"Real"},{"key":"10204472","name":"Carà del Molinèt","postalCode":"6537","locality":"Grono","commune":{"key":"3832","name":"Grono","shortName":"Grono"},"district":{"key":"1847","name":"Region Moesa"},"canton":{"key":"18","code":"GR","name":"Graubünden / Grigioni / Grischun"},"status":"Real"},{"key":"10208123","name":"Carà del'Ugo","postalCode":"6537","locality":"Grono","commune":{"key":"3832","name":"Grono","shortName":"Grono"},"district":{"key":"1847","name":"Region Moesa"},"canton":{"key":"18","code":"GR","name":"Graubünden / Grigioni / Grischun"},"status":"Real"},{"key":"10216056","name":"Carà del Zucon","postalCode":"6537","locality":"Grono","commune":{"key":"3832","name":"Grono","shortName":"Grono"},"district":{"key":"1847","name":"Region Moesa"},"canton":{"key":"18","code":"GR","name":"Graubünden / Grigioni / Grischun"},"status":"Real"},{"key":"10216048","name":"Carà de San Girolam","postalCode":"6537","locality":"Grono","commune":{"key":"3832","name":"Grono","shortName":"Grono"},"district":{"key":"1847","name":"Region Moesa"},"canton":{"key":"18","code":"GR","name":"Graubünden / Grigioni / Grischun"},"status":"Real"},{"key":"10208124","name":"Carà di Carasc","postalCode":"6537","locality":"Grono","commune":{"key":"3832","name":"Grono","shortName":"Grono"},"district":{"key":"1847","name":"Region Moesa"},"canton":{"key":"18","code":"GR","name":"Graubünden / Grigioni / Grischun"},"status":"Real"},{"key":"10216068","name":"Carà Guernasc","postalCode":"6537","locality":"Grono","commune":{"key":"3832","name":"Grono","shortName":"Grono"},"district":{"key":"1847","name":"Region Moesa"},"canton":{"key":"18","code":"GR","name":"Graubünden / Grigioni / Grischun"},"status":"Real"},{"key":"10205396","name":"Carà Priola","postalCode":"6537","locality":"Grono","commune":{"key":"3832","name":"Grono","shortName":"Grono"},"district":{"key":"1847","name":"Region Moesa"},"canton":{"key":"18","code":"GR","name":"Graubünden / Grigioni / Grischun"},"status":"Real"},{"key":"10205397","name":"Carà Pro sècch","postalCode":"6537","locality":"Grono","commune":{"key":"3832","name":"Grono","shortName":"Grono"},"district":{"key":"1847","name":"Region Moesa"},"canton":{"key":"18","code":"GR","name":"Graubünden / Grigioni / Grischun"},"status":"Real"},{"key":"10205389","name":"Carà Quartina","postalCode":"6537","locality":"Grono","commune":{"key":"3832","name":"Grono","shortName":"Grono"},"district":{"key":"1847","name":"Region Moesa"},"canton":{"key":"18","code":"GR","name":"Graubünden / Grigioni / Grischun"},"status":"Real"},{"key":"10216071","name":"Carà Ranzo di Sotto","postalCode":"6537","locality":"Grono","commune":{"key":"3832","name":"Grono","shortName":"Grono"},"district":{"key":"1847","name":"Region Moesa"},"canton":{"key":"18","code":"GR","name":"Graubünden / Grigioni / Grischun"},"status":"Real"},{"key":"10208116","name":"Carà Rompéda","postalCode":"6537","locality":"Grono","commune":{"key":"3832","name":"Grono","shortName":"Grono"},"district":{"key":"1847","name":"Region Moesa"},"canton":{"key":"18","code":"GR","name":"Graubünden / Grigioni / Grischun"},"status":"Real"},{"key":"10208114","name":"Carà Scima Gron","postalCode":"6537","locality":"Grono","commune":{"key":"3832","name":"Grono","shortName":"Grono"},"district":{"key":"1847","name":"Region Moesa"},"canton":{"key":"18","code":"GR","name":"Graubünden / Grigioni / Grischun"},"status":"Real"},{"key":"10204464","name":"Carà Torr Fiorenzana","postalCode":"6537","locality":"Grono","commune":{"key":"3832","name":"Grono","shortName":"Grono"},"district":{"key":"1847","name":"Region Moesa"},"canton":{"key":"18","code":"GR","name":"Graubünden / Grigioni / Grischun"},"status":"Real"},{"key":"10204467","name":"Carà Travéa","postalCode":"6537","locality":"Grono","commune":{"key":"3832","name":"Grono","shortName":"Grono"},"district":{"key":"1847","name":"Region Moesa"},"canton":{"key":"18","code":"GR","name":"Graubünden / Grigioni / Grischun"},"status":"Real"},{"key":"10204466","name":"Lech di Cius","postalCode":"6537","locality":"Grono","commune":{"key":"3832","name":"Grono","shortName":"Grono"},"district":{"key":"1847","name":"Region Moesa"},"canton":{"key":"18","code":"GR","name":"Graubünden / Grigioni / Grischun"},"status":"Real"},{"key":"10204465","name":"Pianzarìa","postalCode":"6537","locality":"Grono","commune":{"key":"3832","name":"Grono","shortName":"Grono"},"district":{"key":"1847","name":"Region Moesa"},"canton":{"key":"18","code":"GR","name":"Graubünden / Grigioni / Grischun"},"status":"Real"},{"key":"10210414","name":"Piazza Mota","postalCode":"6537","locality":"Grono","commune":{"key":"3832","name":"Grono","shortName":"Grono"},"district":{"key":"1847","name":"Region Moesa"},"canton":{"key":"18","code":"GR","name":"Graubünden / Grigioni / Grischun"},"status":"Real"},{"key":"10035754","name":"Piazza Nuova","postalCode":"6537","locality":"Grono","commune":{"key":"3832","name":"Grono","shortName":"Grono"},"district":{"key":"1847","name":"Region Moesa"},"canton":{"key":"18","code":"GR","name":"Graubünden / Grigioni / Grischun"},"status":"Real"},{"key":"10210413","name":"Piazza San Roch","postalCode":"6537","locality":"Grono","commune":{"key":"3832","name":"Grono","shortName":"Grono"},"district":{"key":"1847","name":"Region Moesa"},"canton":{"key":"18","code":"GR","name":"Graubünden / Grigioni / Grischun"},"status":"Real"},{"key":"10210415","name":"Piazza Stazione","postalCode":"6537","locality":"Grono","commune":{"key":"3832","name":"Grono","shortName":"Grono"},"district":{"key":"1847","name":"Region Moesa"},"canton":{"key":"18","code":"GR","name":"Graubünden / Grigioni / Grischun"},"status":"Real"},{"key":"10204461","name":"Scalàder","postalCode":"6537","locality":"Grono","commune":{"key":"3832","name":"Grono","shortName":"Grono"},"district":{"key":"1847","name":"Region Moesa"},"canton":{"key":"18","code":"GR","name":"Graubünden / Grigioni / Grischun"},"status":"Real"},{"key":"10204462","name":"Scorciatoia per Calcinaròla","postalCode":"6537","locality":"Grono","commune":{"key":"3832","name":"Grono","shortName":"Grono"},"district":{"key":"1847","name":"Region Moesa"},"canton":{"key":"18","code":"GR","name":"Graubünden / Grigioni / Grischun"},"status":"Real"},{"key":"10216414","name":"Scorciatoia per Calcinaròla","postalCode":"6537","locality":"Grono","commune":{"key":"3832","name":"Grono","shortName":"Grono"},"district":{"key":"1847","name":"Region Moesa"},"canton":{"key":"18","code":"GR","name":"Graubünden / Grigioni / Grischun"},"status":"Real"},{"key":"10259543","name":"Senté del Torrion","postalCode":"6537","locality":"Grono","commune":{"key":"3832","name":"Grono","shortName":"Grono"},"district":{"key":"1847","name":"Region Moesa"},"canton":{"key":"18","code":"GR","name":"Graubünden / Grigioni / Grischun"},"status":"Real"},{"key":"10259552","name":"Senté de Ponciola","postalCode":"6537","locality":"Grono","commune":{"key":"3832","name":"Grono","shortName":"Grono"},"district":{"key":"1847","name":"Region Moesa"},"canton":{"key":"18","code":"GR","name":"Graubünden / Grigioni / Grischun"},"status":"Real"},{"key":"10259526","name":"Senté de Portola","postalCode":"6537","locality":"Grono","commune":{"key":"3832","name":"Grono","shortName":"Grono"},"district":{"key":"1847","name":"Region Moesa"},"canton":{"key":"18","code":"GR","name":"Graubünden / Grigioni / Grischun"},"status":"Real"},{"key":"10259536","name":"Senté de Val Gron","postalCode":"6537","locality":"Grono","commune":{"key":"3832","name":"Grono","shortName":"Grono"},"district":{"key":"1847","name":"Region Moesa"},"canton":{"key":"18","code":"GR","name":"Graubünden / Grigioni / Grischun"},"status":"Real"},{"key":"10236139","name":"Sentée de Nadro","postalCode":"6537","locality":"Grono","commune":{"key":"3832","name":"Grono","shortName":"Grono"},"district":{"key":"1847","name":"Region Moesa"},"canton":{"key":"18","code":"GR","name":"Graubünden / Grigioni / Grischun"},"status":"Real"},{"key":"10255561","name":"Strada Cantonal","postalCode":"6537","locality":"Grono","commune":{"key":"3832","name":"Grono","shortName":"Grono"},"district":{"key":"1847","name":"Region Moesa"},"canton":{"key":"18","code":"GR","name":"Graubünden / Grigioni / Grischun"},"status":"Real"},{"key":"10259525","name":"Strada della Calanca","postalCode":"6537","locality":"Grono","commune":{"key":"3832","name":"Grono","shortName":"Grono"},"district":{"key":"1847","name":"Region Moesa"},"canton":{"key":"18","code":"GR","name":"Graubünden / Grigioni / Grischun"},"status":"Real"},{"key":"10205381","name":"Via ai Balon","postalCode":"6537","locality":"Grono","commune":{"key":"3832","name":"Grono","shortName":"Grono"},"district":{"key":"1847","name":"Region Moesa"},"canton":{"key":"18","code":"GR","name":"Graubünden / Grigioni / Grischun"},"status":"Real"},{"key":"10216075","name":"Via ai Crosér","postalCode":"6537","locality":"Grono","commune":{"key":"3832","name":"Grono","shortName":"Grono"},"district":{"key":"1847","name":"Region Moesa"},"canton":{"key":"18","code":"GR","name":"Graubünden / Grigioni / Grischun"},"status":"Real"},{"key":"10210408","name":"Via a la Mota","postalCode":"6537","locality":"Grono","commune":{"key":"3832","name":"Grono","shortName":"Grono"},"district":{"key":"1847","name":"Region Moesa"},"canton":{"key":"18","code":"GR","name":"Graubünden / Grigioni / Grischun"},"status":"Real"},{"key":"10259534","name":"Via a la Possa","postalCode":"6537","locality":"Grono","commune":{"key":"3832","name":"Grono","shortName":"Grono"},"district":{"key":"1847","name":"Region Moesa"},"canton":{"key":"18","code":"GR","name":"Graubünden / Grigioni / Grischun"},"status":"Real"},{"key":"10208003","name":"Via alla Cascata","postalCode":"6537","locality":"Grono","commune":{"key":"3832","name":"Grono","shortName":"Grono"},"district":{"key":"1847","name":"Region Moesa"},"canton":{"key":"18","code":"GR","name":"Graubünden / Grigioni / Grischun"},"status":"Real"},{"key":"10204978","name":"Via alla Centrale","postalCode":"6537","locality":"Grono","commune":{"key":"3832","name":"Grono","shortName":"Grono"},"district":{"key":"1847","name":"Region Moesa"},"canton":{"key":"18","code":"GR","name":"Graubünden / Grigioni / Grischun"},"status":"Real"},{"key":"10205391","name":"Via alla Stazione","postalCode":"6537","locality":"Grono","commune":{"key":"3832","name":"Grono","shortName":"Grono"},"district":{"key":"1847","name":"Region Moesa"},"canton":{"key":"18","code":"GR","name":"Graubünden / Grigioni / Grischun"},"status":"Real"},{"key":"10208119","name":"Via alle Scuole","postalCode":"6537","locality":"Grono","commune":{"key":"3832","name":"Grono","shortName":"Grono"},"district":{"key":"1847","name":"Region Moesa"},"canton":{"key":"18","code":"GR","name":"Graubünden / Grigioni / Grischun"},"status":"Real"},{"key":"10210404","name":"Via al Mot","postalCode":"6537","locality":"Grono","commune":{"key":"3832","name":"Grono","shortName":"Grono"},"district":{"key":"1847","name":"Region Moesa"},"canton":{"key":"18","code":"GR","name":"Graubünden / Grigioni / Grischun"},"status":"Real"},{"key":"10205392","name":"Via al Rogion","postalCode":"6537","locality":"Grono","commune":{"key":"3832","name":"Grono","shortName":"Grono"},"district":{"key":"1847","name":"Region Moesa"},"canton":{"key":"18","code":"GR","name":"Graubünden / Grigioni / Grischun"},"status":"Real"},{"key":"10204976","name":"Via Calancasca","postalCode":"6537","locality":"Grono","commune":{"key":"3832","name":"Grono","shortName":"Grono"},"district":{"key":"1847","name":"Region Moesa"},"canton":{"key":"18","code":"GR","name":"Graubünden / Grigioni / Grischun"},"status":"Real"},{"key":"10195819","name":"Via Cantonale","postalCode":"6537","locality":"Grono","commune":{"key":"3832","name":"Grono","shortName":"Grono"},"district":{"key":"1847","name":"Region Moesa"},"canton":{"key":"18","code":"GR","name":"Graubünden / Grigioni / Grischun"},"status":"Real"},{"key":"10210412","name":"Via Ca' Rossa","postalCode":"6537","locality":"Grono","commune":{"key":"3832","name":"Grono","shortName":"Grono"},"district":{"key":"1847","name":"Region Moesa"},"canton":{"key":"18","code":"GR","name":"Graubünden / Grigioni / Grischun"},"status":"Real"},{"key":"10208118","name":"Via Centro sportivo","postalCode":"6537","locality":"Grono","commune":{"key":"3832","name":"Grono","shortName":"Grono"},"district":{"key":"1847","name":"Region Moesa"},"canton":{"key":"18","code":"GR","name":"Graubünden / Grigioni / Grischun"},"status":"Real"},{"key":"10208120","name":"Via Cobolénz","postalCode":"6537","locality":"Grono","commune":{"key":"3832","name":"Grono","shortName":"Grono"},"district":{"key":"1847","name":"Region Moesa"},"canton":{"key":"18","code":"GR","name":"Graubünden / Grigioni / Grischun"},"status":"Real"},{"key":"10205395","name":"Via di Rei","postalCode":"6537","locality":"Grono","commune":{"key":"3832","name":"Grono","shortName":"Grono"},"district":{"key":"1847","name":"Region Moesa"},"canton":{"key":"18","code":"GR","name":"Graubünden / Grigioni / Grischun"},"status":"Real"},{"key":"10204469","name":"Via Femnùscia","postalCode":"6537","locality":"Grono","commune":{"key":"3832","name":"Grono","shortName":"Grono"},"district":{"key":"1847","name":"Region Moesa"},"canton":{"key":"18","code":"GR","name":"Graubünden / Grigioni / Grischun"},"status":"Real"},{"key":"10204474","name":"Via Golena","postalCode":"6537","locality":"Grono","commune":{"key":"3832","name":"Grono","shortName":"Grono"},"district":{"key":"1847","name":"Region Moesa"},"canton":{"key":"18","code":"GR","name":"Graubünden / Grigioni / Grischun"},"status":"Real"},{"key":"10259535","name":"Via Guernasc","postalCode":"6537","locality":"Grono","commune":{"key":"3832","name":"Grono","shortName":"Grono"},"district":{"key":"1847","name":"Region Moesa"},"canton":{"key":"18","code":"GR","name":"Graubünden / Grigioni / Grischun"},"status":"Real"},{"key":"10205393","name":"Via la Ronca","postalCode":"6537","locality":"Grono","commune":{"key":"3832","name":"Grono","shortName":"Grono"},"district":{"key":"1847","name":"Region Moesa"},"canton":{"key":"18","code":"GR","name":"Graubünden / Grigioni / Grischun"},"status":"Real"},{"key":"10259538","name":"Via Mela","postalCode":"6537","locality":"Grono","commune":{"key":"3832","name":"Grono","shortName":"Grono"},"district":{"key":"1847","name":"Region Moesa"},"canton":{"key":"18","code":"GR","name":"Graubünden / Grigioni / Grischun"},"status":"Real"},{"key":"10259541","name":"Via Mondascia","postalCode":"6537","locality":"Grono","commune":{"key":"3832","name":"Grono","shortName":"Grono"},"district":{"key":"1847","name":"Region Moesa"},"canton":{"key":"18","code":"GR","name":"Graubünden / Grigioni / Grischun"},"status":"Real"},{"key":"10205382","name":"Via Nadro","postalCode":"6537","locality":"Grono","commune":{"key":"3832","name":"Grono","shortName":"Grono"},"district":{"key":"1847","name":"Region Moesa"},"canton":{"key":"18","code":"GR","name":"Graubünden / Grigioni / Grischun"},"status":"Real"},{"key":"10215779","name":"Via Nadro","postalCode":"6537","locality":"Grono","commune":{"key":"3832","name":"Grono","shortName":"Grono"},"district":{"key":"1847","name":"Region Moesa"},"canton":{"key":"18","code":"GR","name":"Graubünden / Grigioni / Grischun"},"status":"Real"},{"key":"10204973","name":"Via Nuova","postalCode":"6537","locality":"Grono","commune":{"key":"3832","name":"Grono","shortName":"Grono"},"district":{"key":"1847","name":"Region Moesa"},"canton":{"key":"18","code":"GR","name":"Graubünden / Grigioni / Grischun"},"status":"Real"},{"key":"10205400","name":"Via Oltra","postalCode":"6537","locality":"Grono","commune":{"key":"3832","name":"Grono","shortName":"Grono"},"district":{"key":"1847","name":"Region Moesa"},"canton":{"key":"18","code":"GR","name":"Graubünden / Grigioni / Grischun"},"status":"Real"},{"key":"10205390","name":"Via Pascolet","postalCode":"6537","locality":"Grono","commune":{"key":"3832","name":"Grono","shortName":"Grono"},"district":{"key":"1847","name":"Region Moesa"},"canton":{"key":"18","code":"GR","name":"Graubünden / Grigioni / Grischun"},"status":"Real"},{"key":"10205398","name":"Via Pont de Fèr","postalCode":"6537","locality":"Grono","commune":{"key":"3832","name":"Grono","shortName":"Grono"},"district":{"key":"1847","name":"Region Moesa"},"canton":{"key":"18","code":"GR","name":"Graubünden / Grigioni / Grischun"},"status":"Real"},{"key":"10204972","name":"Via Porta Piazzetta","postalCode":"6537","locality":"Grono","commune":{"key":"3832","name":"Grono","shortName":"Grono"},"district":{"key":"1847","name":"Region Moesa"},"canton":{"key":"18","code":"GR","name":"Graubünden / Grigioni / Grischun"},"status":"Real"},{"key":"10259550","name":"Via Pro Lorenz","postalCode":"6537","locality":"Grono","commune":{"key":"3832","name":"Grono","shortName":"Grono"},"district":{"key":"1847","name":"Region Moesa"},"canton":{"key":"18","code":"GR","name":"Graubünden / Grigioni / Grischun"},"status":"Real"},{"key":"10259523","name":"Via Promazzola","postalCode":"6537","locality":"Grono","commune":{"key":"3832","name":"Grono","shortName":"Grono"},"district":{"key":"1847","name":"Region Moesa"},"canton":{"key":"18","code":"GR","name":"Graubünden / Grigioni / Grischun"},"status":"Real"},{"key":"10208115","name":"Via Ranzo di Sopra","postalCode":"6537","locality":"Grono","commune":{"key":"3832","name":"Grono","shortName":"Grono"},"district":{"key":"1847","name":"Region Moesa"},"canton":{"key":"18","code":"GR","name":"Graubünden / Grigioni / Grischun"},"status":"Real"},{"key":"10205388","name":"Via Ronch dei Molina","postalCode":"6537","locality":"Grono","commune":{"key":"3832","name":"Grono","shortName":"Grono"},"district":{"key":"1847","name":"Region Moesa"},"canton":{"key":"18","code":"GR","name":"Graubünden / Grigioni / Grischun"},"status":"Real"},{"key":"10205385","name":"Via San Clement","postalCode":"6537","locality":"Grono","commune":{"key":"3832","name":"Grono","shortName":"Grono"},"district":{"key":"1847","name":"Region Moesa"},"canton":{"key":"18","code":"GR","name":"Graubünden / Grigioni / Grischun"},"status":"Real"},{"key":"10210411","name":"Via Scima Gron","postalCode":"6537","locality":"Grono","commune":{"key":"3832","name":"Grono","shortName":"Grono"},"district":{"key":"1847","name":"Region Moesa"},"canton":{"key":"18","code":"GR","name":"Graubünden / Grigioni / Grischun"},"status":"Real"},{"key":"10205399","name":"Via Scimavera","postalCode":"6537","locality":"Grono","commune":{"key":"3832","name":"Grono","shortName":"Grono"},"district":{"key":"1847","name":"Region Moesa"},"canton":{"key":"18","code":"GR","name":"Graubünden / Grigioni / Grischun"},"status":"Real"},{"key":"10204974","name":"Via Signù","postalCode":"6537","locality":"Grono","commune":{"key":"3832","name":"Grono","shortName":"Grono"},"district":{"key":"1847","name":"Region Moesa"},"canton":{"key":"18","code":"GR","name":"Graubünden / Grigioni / Grischun"},"status":"Real"},{"key":"10204470","name":"Via Stalòn","postalCode":"6537","locality":"Grono","commune":{"key":"3832","name":"Grono","shortName":"Grono"},"district":{"key":"1847","name":"Region Moesa"},"canton":{"key":"18","code":"GR","name":"Graubünden / Grigioni / Grischun"},"status":"Real"},{"key":"10208113","name":"Via Verdabbio","postalCode":"6537","locality":"Grono","commune":{"key":"3832","name":"Grono","shortName":"Grono"},"district":{"key":"1847","name":"Region Moesa"},"canton":{"key":"18","code":"GR","name":"Graubünden / Grigioni / Grischun"},"status":"Real"},{"key":"10208117","name":"Via Vigna de Sacco","postalCode":"6537","locality":"Grono","commune":{"key":"3832","name":"Grono","shortName":"Grono"},"district":{"key":"1847","name":"Region Moesa"},"canton":{"key":"18","code":"GR","name":"Graubünden / Grigioni / Grischun"},"status":"Real"},]