[{"name":"Adolf-Michelssen-Str.","postalCode":"31303","locality":"Burgdorf","municipality":{"key":"03241003","name":"Burgdorf, Stadt","type":"Stadt"},"district":{"key":"03241","name":"Region Hannover","type":"Landkreis"},"federalState":{"key":"03","name":"Niedersachsen"}},{"name":"Ahornallee","postalCode":"31303","locality":"Burgdorf","municipality":{"key":"03241003","name":"Burgdorf, Stadt","type":"Stadt"},"district":{"key":"03241","name":"Region Hannover","type":"Landkreis"},"federalState":{"key":"03","name":"Niedersachsen"}},{"name":"Ahrbergenweg","postalCode":"31303","locality":"Burgdorf","municipality":{"key":"03241003","name":"Burgdorf, Stadt","type":"Stadt"},"district":{"key":"03241","name":"Region Hannover","type":"Landkreis"},"federalState":{"key":"03","name":"Niedersachsen"}},{"name":"Akazienweg","postalCode":"31303","locality":"Burgdorf","municipality":{"key":"03241003","name":"Burgdorf, Stadt","type":"Stadt"},"district":{"key":"03241","name":"Region Hannover","type":"Landkreis"},"federalState":{"key":"03","name":"Niedersachsen"}},{"name":"Alandweg","postalCode":"31303","locality":"Burgdorf","municipality":{"key":"03241003","name":"Burgdorf, Stadt","type":"Stadt"},"district":{"key":"03241","name":"Region Hannover","type":"Landkreis"},"federalState":{"key":"03","name":"Niedersachsen"}},{"name":"Alfred-Oehme-Str.","postalCode":"31303","locality":"Burgdorf","municipality":{"key":"03241003","name":"Burgdorf, Stadt","type":"Stadt"},"district":{"key":"03241","name":"Region Hannover","type":"Landkreis"},"federalState":{"key":"03","name":"Niedersachsen"}},{"name":"Allerstr.","postalCode":"31303","locality":"Burgdorf","municipality":{"key":"03241003","name":"Burgdorf, Stadt","type":"Stadt"},"district":{"key":"03241","name":"Region Hannover","type":"Landkreis"},"federalState":{"key":"03","name":"Niedersachsen"}},{"name":"Alsterweg","postalCode":"31303","locality":"Burgdorf","municipality":{"key":"03241003","name":"Burgdorf, Stadt","type":"Stadt"},"district":{"key":"03241","name":"Region Hannover","type":"Landkreis"},"federalState":{"key":"03","name":"Niedersachsen"}},{"name":"Alt Ahrbeck","postalCode":"31303","locality":"Burgdorf","municipality":{"key":"03241003","name":"Burgdorf, Stadt","type":"Stadt"},"district":{"key":"03241","name":"Region Hannover","type":"Landkreis"},"federalState":{"key":"03","name":"Niedersachsen"}},{"name":"Alte Bundesstr.","postalCode":"31303","locality":"Burgdorf","municipality":{"key":"03241003","name":"Burgdorf, Stadt","type":"Stadt"},"district":{"key":"03241","name":"Region Hannover","type":"Landkreis"},"federalState":{"key":"03","name":"Niedersachsen"}},{"name":"Alte Heerstr.","postalCode":"31303","locality":"Burgdorf","municipality":{"key":"03241003","name":"Burgdorf, Stadt","type":"Stadt"},"district":{"key":"03241","name":"Region Hannover","type":"Landkreis"},"federalState":{"key":"03","name":"Niedersachsen"}},{"name":"Alter Dorfteich","postalCode":"31303","locality":"Burgdorf","municipality":{"key":"03241003","name":"Burgdorf, Stadt","type":"Stadt"},"district":{"key":"03241","name":"Region Hannover","type":"Landkreis"},"federalState":{"key":"03","name":"Niedersachsen"}},{"name":"Alte Schanze","postalCode":"31303","locality":"Burgdorf","municipality":{"key":"03241003","name":"Burgdorf, Stadt","type":"Stadt"},"district":{"key":"03241","name":"Region Hannover","type":"Landkreis"},"federalState":{"key":"03","name":"Niedersachsen"}},{"name":"Am Bereler Berg","postalCode":"38272","locality":"Burgdorf","municipality":{"key":"03158004","name":"Burgdorf","type":"Kreisangehörige_Gemeinde"},"district":{"key":"03158","name":"Wolfenbüttel","type":"Landkreis"},"federalState":{"key":"03","name":"Niedersachsen"}},{"name":"Am Bergfeld","postalCode":"31303","locality":"Burgdorf","municipality":{"key":"03241003","name":"Burgdorf, Stadt","type":"Stadt"},"district":{"key":"03241","name":"Region Hannover","type":"Landkreis"},"federalState":{"key":"03","name":"Niedersachsen"}},{"name":"Am Bösselberg","postalCode":"31303","locality":"Burgdorf","municipality":{"key":"03241003","name":"Burgdorf, Stadt","type":"Stadt"},"district":{"key":"03241","name":"Region Hannover","type":"Landkreis"},"federalState":{"key":"03","name":"Niedersachsen"}},{"name":"Amboßweg","postalCode":"31303","locality":"Burgdorf","municipality":{"key":"03241003","name":"Burgdorf, Stadt","type":"Stadt"},"district":{"key":"03241","name":"Region Hannover","type":"Landkreis"},"federalState":{"key":"03","name":"Niedersachsen"}},{"name":"Am Brandende","postalCode":"31303","locality":"Burgdorf","municipality":{"key":"03241003","name":"Burgdorf, Stadt","type":"Stadt"},"district":{"key":"03241","name":"Region Hannover","type":"Landkreis"},"federalState":{"key":"03","name":"Niedersachsen"}},{"name":"Am Braunen Hirsch","postalCode":"31303","locality":"Burgdorf","municipality":{"key":"03241003","name":"Burgdorf, Stadt","type":"Stadt"},"district":{"key":"03241","name":"Region Hannover","type":"Landkreis"},"federalState":{"key":"03","name":"Niedersachsen"}},{"name":"Am Brink","postalCode":"31303","locality":"Burgdorf","municipality":{"key":"03241003","name":"Burgdorf, Stadt","type":"Stadt"},"district":{"key":"03241","name":"Region Hannover","type":"Landkreis"},"federalState":{"key":"03","name":"Niedersachsen"}},{"name":"Am Brinke","postalCode":"38272","locality":"Burgdorf","municipality":{"key":"03158004","name":"Burgdorf","type":"Kreisangehörige_Gemeinde"},"district":{"key":"03158","name":"Wolfenbüttel","type":"Landkreis"},"federalState":{"key":"03","name":"Niedersachsen"}},{"name":"Am Buchenhof","postalCode":"31303","locality":"Burgdorf","municipality":{"key":"03241003","name":"Burgdorf, Stadt","type":"Stadt"},"district":{"key":"03241","name":"Region Hannover","type":"Landkreis"},"federalState":{"key":"03","name":"Niedersachsen"}},{"name":"Am Dorfe","postalCode":"31303","locality":"Burgdorf","municipality":{"key":"03241003","name":"Burgdorf, Stadt","type":"Stadt"},"district":{"key":"03241","name":"Region Hannover","type":"Landkreis"},"federalState":{"key":"03","name":"Niedersachsen"}},{"name":"Am Dornbusch","postalCode":"31303","locality":"Burgdorf","municipality":{"key":"03241003","name":"Burgdorf, Stadt","type":"Stadt"},"district":{"key":"03241","name":"Region Hannover","type":"Landkreis"},"federalState":{"key":"03","name":"Niedersachsen"}},{"name":"Am Eschenhof","postalCode":"31303","locality":"Burgdorf","municipality":{"key":"03241003","name":"Burgdorf, Stadt","type":"Stadt"},"district":{"key":"03241","name":"Region Hannover","type":"Landkreis"},"federalState":{"key":"03","name":"Niedersachsen"}},{"name":"Am Flugplatz","postalCode":"31303","locality":"Burgdorf","municipality":{"key":"03241003","name":"Burgdorf, Stadt","type":"Stadt"},"district":{"key":"03241","name":"Region Hannover","type":"Landkreis"},"federalState":{"key":"03","name":"Niedersachsen"}},{"name":"Am Försterberg","postalCode":"31303","locality":"Burgdorf","municipality":{"key":"03241003","name":"Burgdorf, Stadt","type":"Stadt"},"district":{"key":"03241","name":"Region Hannover","type":"Landkreis"},"federalState":{"key":"03","name":"Niedersachsen"}},{"name":"Am Friedhof","postalCode":"31303","locality":"Burgdorf","municipality":{"key":"03241003","name":"Burgdorf, Stadt","type":"Stadt"},"district":{"key":"03241","name":"Region Hannover","type":"Landkreis"},"federalState":{"key":"03","name":"Niedersachsen"}},{"name":"Am Fuhrenkamp","postalCode":"31303","locality":"Burgdorf","municipality":{"key":"03241003","name":"Burgdorf, Stadt","type":"Stadt"},"district":{"key":"03241","name":"Region Hannover","type":"Landkreis"},"federalState":{"key":"03","name":"Niedersachsen"}},{"name":"Am Geisenfeld","postalCode":"38272","locality":"Burgdorf","municipality":{"key":"03158004","name":"Burgdorf","type":"Kreisangehörige_Gemeinde"},"district":{"key":"03158","name":"Wolfenbüttel","type":"Landkreis"},"federalState":{"key":"03","name":"Niedersachsen"}},{"name":"Am Gümmekanal","postalCode":"31303","locality":"Burgdorf","municipality":{"key":"03241003","name":"Burgdorf, Stadt","type":"Stadt"},"district":{"key":"03241","name":"Region Hannover","type":"Landkreis"},"federalState":{"key":"03","name":"Niedersachsen"}},{"name":"Am Güterbahnhof","postalCode":"31303","locality":"Burgdorf","municipality":{"key":"03241003","name":"Burgdorf, Stadt","type":"Stadt"},"district":{"key":"03241","name":"Region Hannover","type":"Landkreis"},"federalState":{"key":"03","name":"Niedersachsen"}},{"name":"Am Heidberg","postalCode":"31303","locality":"Burgdorf","municipality":{"key":"03241003","name":"Burgdorf, Stadt","type":"Stadt"},"district":{"key":"03241","name":"Region Hannover","type":"Landkreis"},"federalState":{"key":"03","name":"Niedersachsen"}},{"name":"Am Hütteberg","postalCode":"31303","locality":"Burgdorf","municipality":{"key":"03241003","name":"Burgdorf, Stadt","type":"Stadt"},"district":{"key":"03241","name":"Region Hannover","type":"Landkreis"},"federalState":{"key":"03","name":"Niedersachsen"}},{"name":"Am Kahlen Lehn","postalCode":"31303","locality":"Burgdorf","municipality":{"key":"03241003","name":"Burgdorf, Stadt","type":"Stadt"},"district":{"key":"03241","name":"Region Hannover","type":"Landkreis"},"federalState":{"key":"03","name":"Niedersachsen"}},{"name":"Am Katasteramt","postalCode":"31303","locality":"Burgdorf","municipality":{"key":"03241003","name":"Burgdorf, Stadt","type":"Stadt"},"district":{"key":"03241","name":"Region Hannover","type":"Landkreis"},"federalState":{"key":"03","name":"Niedersachsen"}},{"name":"Am Kieswerk","postalCode":"31303","locality":"Burgdorf","municipality":{"key":"03241003","name":"Burgdorf, Stadt","type":"Stadt"},"district":{"key":"03241","name":"Region Hannover","type":"Landkreis"},"federalState":{"key":"03","name":"Niedersachsen"}},{"name":"Am Lahkamp","postalCode":"31303","locality":"Burgdorf","municipality":{"key":"03241003","name":"Burgdorf, Stadt","type":"Stadt"},"district":{"key":"03241","name":"Region Hannover","type":"Landkreis"},"federalState":{"key":"03","name":"Niedersachsen"}},{"name":"Am Mittelfeld","postalCode":"31303","locality":"Burgdorf","municipality":{"key":"03241003","name":"Burgdorf, Stadt","type":"Stadt"},"district":{"key":"03241","name":"Region Hannover","type":"Landkreis"},"federalState":{"key":"03","name":"Niedersachsen"}},{"name":"Am Nassen Berg","postalCode":"31303","locality":"Burgdorf","municipality":{"key":"03241003","name":"Burgdorf, Stadt","type":"Stadt"},"district":{"key":"03241","name":"Region Hannover","type":"Landkreis"},"federalState":{"key":"03","name":"Niedersachsen"}},{"name":"Am Rickenfeld","postalCode":"31303","locality":"Burgdorf","municipality":{"key":"03241003","name":"Burgdorf, Stadt","type":"Stadt"},"district":{"key":"03241","name":"Region Hannover","type":"Landkreis"},"federalState":{"key":"03","name":"Niedersachsen"}},{"name":"Amrumweg","postalCode":"31303","locality":"Burgdorf","municipality":{"key":"03241003","name":"Burgdorf, Stadt","type":"Stadt"},"district":{"key":"03241","name":"Region Hannover","type":"Landkreis"},"federalState":{"key":"03","name":"Niedersachsen"}},{"name":"Am Sägewerk","postalCode":"31303","locality":"Burgdorf","municipality":{"key":"03241003","name":"Burgdorf, Stadt","type":"Stadt"},"district":{"key":"03241","name":"Region Hannover","type":"Landkreis"},"federalState":{"key":"03","name":"Niedersachsen"}},{"name":"Am Sandberge","postalCode":"31303","locality":"Burgdorf","municipality":{"key":"03241003","name":"Burgdorf, Stadt","type":"Stadt"},"district":{"key":"03241","name":"Region Hannover","type":"Landkreis"},"federalState":{"key":"03","name":"Niedersachsen"}},{"name":"Am Sande","postalCode":"31303","locality":"Burgdorf","municipality":{"key":"03241003","name":"Burgdorf, Stadt","type":"Stadt"},"district":{"key":"03241","name":"Region Hannover","type":"Landkreis"},"federalState":{"key":"03","name":"Niedersachsen"}},{"name":"Am Schrebergarten","postalCode":"31303","locality":"Burgdorf","municipality":{"key":"03241003","name":"Burgdorf, Stadt","type":"Stadt"},"district":{"key":"03241","name":"Region Hannover","type":"Landkreis"},"federalState":{"key":"03","name":"Niedersachsen"}},{"name":"Am Schulhof","postalCode":"31303","locality":"Burgdorf","municipality":{"key":"03241003","name":"Burgdorf, Stadt","type":"Stadt"},"district":{"key":"03241","name":"Region Hannover","type":"Landkreis"},"federalState":{"key":"03","name":"Niedersachsen"}},{"name":"Amselstr.","postalCode":"31303","locality":"Burgdorf","municipality":{"key":"03241003","name":"Burgdorf, Stadt","type":"Stadt"},"district":{"key":"03241","name":"Region Hannover","type":"Landkreis"},"federalState":{"key":"03","name":"Niedersachsen"}},{"name":"Am Speicher","postalCode":"31303","locality":"Burgdorf","municipality":{"key":"03241003","name":"Burgdorf, Stadt","type":"Stadt"},"district":{"key":"03241","name":"Region Hannover","type":"Landkreis"},"federalState":{"key":"03","name":"Niedersachsen"}},{"name":"Am Spring","postalCode":"38272","locality":"Burgdorf","municipality":{"key":"03158004","name":"Burgdorf","type":"Kreisangehörige_Gemeinde"},"district":{"key":"03158","name":"Wolfenbüttel","type":"Landkreis"},"federalState":{"key":"03","name":"Niedersachsen"}},{"name":"Bachstr.","postalCode":"31303","locality":"Burgdorf","municipality":{"key":"03241003","name":"Burgdorf, Stadt","type":"Stadt"},"district":{"key":"03241","name":"Region Hannover","type":"Landkreis"},"federalState":{"key":"03","name":"Niedersachsen"}},{"name":"Bachstr.","postalCode":"38272","locality":"Burgdorf","municipality":{"key":"03158004","name":"Burgdorf","type":"Kreisangehörige_Gemeinde"},"district":{"key":"03158","name":"Wolfenbüttel","type":"Landkreis"},"federalState":{"key":"03","name":"Niedersachsen"}},{"name":"Bahnhofstr.","postalCode":"31303","locality":"Burgdorf","municipality":{"key":"03241003","name":"Burgdorf, Stadt","type":"Stadt"},"district":{"key":"03241","name":"Region Hannover","type":"Landkreis"},"federalState":{"key":"03","name":"Niedersachsen"}},{"name":"Baltrumweg","postalCode":"31303","locality":"Burgdorf","municipality":{"key":"03241003","name":"Burgdorf, Stadt","type":"Stadt"},"district":{"key":"03241","name":"Region Hannover","type":"Landkreis"},"federalState":{"key":"03","name":"Niedersachsen"}},{"name":"Barnackersweg","postalCode":"31303","locality":"Burgdorf","municipality":{"key":"03241003","name":"Burgdorf, Stadt","type":"Stadt"},"district":{"key":"03241","name":"Region Hannover","type":"Landkreis"},"federalState":{"key":"03","name":"Niedersachsen"}},{"name":"Barwersweg","postalCode":"31303","locality":"Burgdorf","municipality":{"key":"03241003","name":"Burgdorf, Stadt","type":"Stadt"},"district":{"key":"03241","name":"Region Hannover","type":"Landkreis"},"federalState":{"key":"03","name":"Niedersachsen"}},{"name":"Beatenbergstr.","postalCode":"31303","locality":"Burgdorf","municipality":{"key":"03241003","name":"Burgdorf, Stadt","type":"Stadt"},"district":{"key":"03241","name":"Region Hannover","type":"Landkreis"},"federalState":{"key":"03","name":"Niedersachsen"}},{"name":"Beckstr.","postalCode":"31303","locality":"Burgdorf","municipality":{"key":"03241003","name":"Burgdorf, Stadt","type":"Stadt"},"district":{"key":"03241","name":"Region Hannover","type":"Landkreis"},"federalState":{"key":"03","name":"Niedersachsen"}},{"name":"Beekgarten","postalCode":"31303","locality":"Burgdorf","municipality":{"key":"03241003","name":"Burgdorf, Stadt","type":"Stadt"},"district":{"key":"03241","name":"Region Hannover","type":"Landkreis"},"federalState":{"key":"03","name":"Niedersachsen"}},{"name":"Beerbuschweg","postalCode":"31303","locality":"Burgdorf","municipality":{"key":"03241003","name":"Burgdorf, Stadt","type":"Stadt"},"district":{"key":"03241","name":"Region Hannover","type":"Landkreis"},"federalState":{"key":"03","name":"Niedersachsen"}},{"name":"Beethovenstr.","postalCode":"31303","locality":"Burgdorf","municipality":{"key":"03241003","name":"Burgdorf, Stadt","type":"Stadt"},"district":{"key":"03241","name":"Region Hannover","type":"Landkreis"},"federalState":{"key":"03","name":"Niedersachsen"}},{"name":"Berghop","postalCode":"31303","locality":"Burgdorf","municipality":{"key":"03241003","name":"Burgdorf, Stadt","type":"Stadt"},"district":{"key":"03241","name":"Region Hannover","type":"Landkreis"},"federalState":{"key":"03","name":"Niedersachsen"}},{"name":"Bergkamp","postalCode":"38272","locality":"Burgdorf","municipality":{"key":"03158004","name":"Burgdorf","type":"Kreisangehörige_Gemeinde"},"district":{"key":"03158","name":"Wolfenbüttel","type":"Landkreis"},"federalState":{"key":"03","name":"Niedersachsen"}},{"name":"Bergstr.","postalCode":"31303","locality":"Burgdorf","municipality":{"key":"03241003","name":"Burgdorf, Stadt","type":"Stadt"},"district":{"key":"03241","name":"Region Hannover","type":"Landkreis"},"federalState":{"key":"03","name":"Niedersachsen"}},{"name":"Berliner Ring","postalCode":"31303","locality":"Burgdorf","municipality":{"key":"03241003","name":"Burgdorf, Stadt","type":"Stadt"},"district":{"key":"03241","name":"Region Hannover","type":"Landkreis"},"federalState":{"key":"03","name":"Niedersachsen"}},{"name":"Bindestr.","postalCode":"38272","locality":"Burgdorf","municipality":{"key":"03158004","name":"Burgdorf","type":"Kreisangehörige_Gemeinde"},"district":{"key":"03158","name":"Wolfenbüttel","type":"Landkreis"},"federalState":{"key":"03","name":"Niedersachsen"}},{"name":"Birkenweg","postalCode":"31303","locality":"Burgdorf","municipality":{"key":"03241003","name":"Burgdorf, Stadt","type":"Stadt"},"district":{"key":"03241","name":"Region Hannover","type":"Landkreis"},"federalState":{"key":"03","name":"Niedersachsen"}},{"name":"Birkhuhnweg","postalCode":"31303","locality":"Burgdorf","municipality":{"key":"03241003","name":"Burgdorf, Stadt","type":"Stadt"},"district":{"key":"03241","name":"Region Hannover","type":"Landkreis"},"federalState":{"key":"03","name":"Niedersachsen"}},{"name":"Blücherstr.","postalCode":"31303","locality":"Burgdorf","municipality":{"key":"03241003","name":"Burgdorf, Stadt","type":"Stadt"},"district":{"key":"03241","name":"Region Hannover","type":"Landkreis"},"federalState":{"key":"03","name":"Niedersachsen"}},{"name":"Blumenweg","postalCode":"31303","locality":"Burgdorf","municipality":{"key":"03241003","name":"Burgdorf, Stadt","type":"Stadt"},"district":{"key":"03241","name":"Region Hannover","type":"Landkreis"},"federalState":{"key":"03","name":"Niedersachsen"}},{"name":"Blumenweg","postalCode":"38272","locality":"Burgdorf","municipality":{"key":"03158004","name":"Burgdorf","type":"Kreisangehörige_Gemeinde"},"district":{"key":"03158","name":"Wolfenbüttel","type":"Landkreis"},"federalState":{"key":"03","name":"Niedersachsen"}},{"name":"Bocksweg","postalCode":"38272","locality":"Burgdorf","municipality":{"key":"03158004","name":"Burgdorf","type":"Kreisangehörige_Gemeinde"},"district":{"key":"03158","name":"Wolfenbüttel","type":"Landkreis"},"federalState":{"key":"03","name":"Niedersachsen"}},{"name":"Böhmeweg","postalCode":"31303","locality":"Burgdorf","municipality":{"key":"03241003","name":"Burgdorf, Stadt","type":"Stadt"},"district":{"key":"03241","name":"Region Hannover","type":"Landkreis"},"federalState":{"key":"03","name":"Niedersachsen"}},{"name":"Bonhoefferweg","postalCode":"31303","locality":"Burgdorf","municipality":{"key":"03241003","name":"Burgdorf, Stadt","type":"Stadt"},"district":{"key":"03241","name":"Region Hannover","type":"Landkreis"},"federalState":{"key":"03","name":"Niedersachsen"}},{"name":"Borkumweg","postalCode":"31303","locality":"Burgdorf","municipality":{"key":"03241003","name":"Burgdorf, Stadt","type":"Stadt"},"district":{"key":"03241","name":"Region Hannover","type":"Landkreis"},"federalState":{"key":"03","name":"Niedersachsen"}},{"name":"Brachfeld","postalCode":"38272","locality":"Burgdorf","municipality":{"key":"03158004","name":"Burgdorf","type":"Kreisangehörige_Gemeinde"},"district":{"key":"03158","name":"Wolfenbüttel","type":"Landkreis"},"federalState":{"key":"03","name":"Niedersachsen"}},{"name":"Brahmsstr.","postalCode":"31303","locality":"Burgdorf","municipality":{"key":"03241003","name":"Burgdorf, Stadt","type":"Stadt"},"district":{"key":"03241","name":"Region Hannover","type":"Landkreis"},"federalState":{"key":"03","name":"Niedersachsen"}},{"name":"Braunschweiger Str.","postalCode":"31303","locality":"Burgdorf","municipality":{"key":"03241003","name":"Burgdorf, Stadt","type":"Stadt"},"district":{"key":"03241","name":"Region Hannover","type":"Landkreis"},"federalState":{"key":"03","name":"Niedersachsen"}},{"name":"Breite Str.","postalCode":"38272","locality":"Burgdorf","municipality":{"key":"03158004","name":"Burgdorf","type":"Kreisangehörige_Gemeinde"},"district":{"key":"03158","name":"Wolfenbüttel","type":"Landkreis"},"federalState":{"key":"03","name":"Niedersachsen"}},{"name":"Bremerweg","postalCode":"31303","locality":"Burgdorf","municipality":{"key":"03241003","name":"Burgdorf, Stadt","type":"Stadt"},"district":{"key":"03241","name":"Region Hannover","type":"Landkreis"},"federalState":{"key":"03","name":"Niedersachsen"}},{"name":"Breslauer Str.","postalCode":"31303","locality":"Burgdorf","municipality":{"key":"03241003","name":"Burgdorf, Stadt","type":"Stadt"},"district":{"key":"03241","name":"Region Hannover","type":"Landkreis"},"federalState":{"key":"03","name":"Niedersachsen"}},{"name":"Bromberger Str.","postalCode":"31303","locality":"Burgdorf","municipality":{"key":"03241003","name":"Burgdorf, Stadt","type":"Stadt"},"district":{"key":"03241","name":"Region Hannover","type":"Landkreis"},"federalState":{"key":"03","name":"Niedersachsen"}},{"name":"Bruchsweg","postalCode":"31303","locality":"Burgdorf","municipality":{"key":"03241003","name":"Burgdorf, Stadt","type":"Stadt"},"district":{"key":"03241","name":"Region Hannover","type":"Landkreis"},"federalState":{"key":"03","name":"Niedersachsen"}},{"name":"Brüder-Grimm-Weg","postalCode":"31303","locality":"Burgdorf","municipality":{"key":"03241003","name":"Burgdorf, Stadt","type":"Stadt"},"district":{"key":"03241","name":"Region Hannover","type":"Landkreis"},"federalState":{"key":"03","name":"Niedersachsen"}},{"name":"Buchenweg","postalCode":"31303","locality":"Burgdorf","municipality":{"key":"03241003","name":"Burgdorf, Stadt","type":"Stadt"},"district":{"key":"03241","name":"Region Hannover","type":"Landkreis"},"federalState":{"key":"03","name":"Niedersachsen"}},{"name":"Büchenweg","postalCode":"31303","locality":"Burgdorf","municipality":{"key":"03241003","name":"Burgdorf, Stadt","type":"Stadt"},"district":{"key":"03241","name":"Region Hannover","type":"Landkreis"},"federalState":{"key":"03","name":"Niedersachsen"}},{"name":"Buchweizenfeld","postalCode":"31303","locality":"Burgdorf","municipality":{"key":"03241003","name":"Burgdorf, Stadt","type":"Stadt"},"district":{"key":"03241","name":"Region Hannover","type":"Landkreis"},"federalState":{"key":"03","name":"Niedersachsen"}},{"name":"Burgdorfer Str.","postalCode":"31303","locality":"Burgdorf","municipality":{"key":"03241003","name":"Burgdorf, Stadt","type":"Stadt"},"district":{"key":"03241","name":"Region Hannover","type":"Landkreis"},"federalState":{"key":"03","name":"Niedersachsen"}},{"name":"Burgdorfer Str.","postalCode":"38272","locality":"Burgdorf","municipality":{"key":"03158004","name":"Burgdorf","type":"Kreisangehörige_Gemeinde"},"district":{"key":"03158","name":"Wolfenbüttel","type":"Landkreis"},"federalState":{"key":"03","name":"Niedersachsen"}},{"name":"Bürgerweg","postalCode":"31303","locality":"Burgdorf","municipality":{"key":"03241003","name":"Burgdorf, Stadt","type":"Stadt"},"district":{"key":"03241","name":"Region Hannover","type":"Landkreis"},"federalState":{"key":"03","name":"Niedersachsen"}},{"name":"Burgstr.","postalCode":"38272","locality":"Burgdorf","municipality":{"key":"03158004","name":"Burgdorf","type":"Kreisangehörige_Gemeinde"},"district":{"key":"03158","name":"Wolfenbüttel","type":"Landkreis"},"federalState":{"key":"03","name":"Niedersachsen"}},{"name":"Burgweg","postalCode":"31303","locality":"Burgdorf","municipality":{"key":"03241003","name":"Burgdorf, Stadt","type":"Stadt"},"district":{"key":"03241","name":"Region Hannover","type":"Landkreis"},"federalState":{"key":"03","name":"Niedersachsen"}},{"name":"Buschriede","postalCode":"31303","locality":"Burgdorf","municipality":{"key":"03241003","name":"Burgdorf, Stadt","type":"Stadt"},"district":{"key":"03241","name":"Region Hannover","type":"Landkreis"},"federalState":{"key":"03","name":"Niedersachsen"}},{"name":"Bussardweg","postalCode":"31303","locality":"Burgdorf","municipality":{"key":"03241003","name":"Burgdorf, Stadt","type":"Stadt"},"district":{"key":"03241","name":"Region Hannover","type":"Landkreis"},"federalState":{"key":"03","name":"Niedersachsen"}},{"name":"Calbenser Str.","postalCode":"31303","locality":"Burgdorf","municipality":{"key":"03241003","name":"Burgdorf, Stadt","type":"Stadt"},"district":{"key":"03241","name":"Region Hannover","type":"Landkreis"},"federalState":{"key":"03","name":"Niedersachsen"}},{"name":"Carl-Ehlers-Str.","postalCode":"31303","locality":"Burgdorf","municipality":{"key":"03241003","name":"Burgdorf, Stadt","type":"Stadt"},"district":{"key":"03241","name":"Region Hannover","type":"Landkreis"},"federalState":{"key":"03","name":"Niedersachsen"}},{"name":"Celler Heide","postalCode":"31303","locality":"Burgdorf","municipality":{"key":"03241003","name":"Burgdorf, Stadt","type":"Stadt"},"district":{"key":"03241","name":"Region Hannover","type":"Landkreis"},"federalState":{"key":"03","name":"Niedersachsen"}},{"name":"Celler Weg","postalCode":"31303","locality":"Burgdorf","municipality":{"key":"03241003","name":"Burgdorf, Stadt","type":"Stadt"},"district":{"key":"03241","name":"Region Hannover","type":"Landkreis"},"federalState":{"key":"03","name":"Niedersachsen"}},{"name":"Cranachstr.","postalCode":"31303","locality":"Burgdorf","municipality":{"key":"03241003","name":"Burgdorf, Stadt","type":"Stadt"},"district":{"key":"03241","name":"Region Hannover","type":"Landkreis"},"federalState":{"key":"03","name":"Niedersachsen"}},{"name":"Dachsweg","postalCode":"31303","locality":"Burgdorf","municipality":{"key":"03241003","name":"Burgdorf, Stadt","type":"Stadt"},"district":{"key":"03241","name":"Region Hannover","type":"Landkreis"},"federalState":{"key":"03","name":"Niedersachsen"}},{"name":"Dachtmisser Weg","postalCode":"31303","locality":"Burgdorf","municipality":{"key":"03241003","name":"Burgdorf, Stadt","type":"Stadt"},"district":{"key":"03241","name":"Region Hannover","type":"Landkreis"},"federalState":{"key":"03","name":"Niedersachsen"}},{"name":"Damenstieg","postalCode":"38272","locality":"Burgdorf","municipality":{"key":"03158004","name":"Burgdorf","type":"Kreisangehörige_Gemeinde"},"district":{"key":"03158","name":"Wolfenbüttel","type":"Landkreis"},"federalState":{"key":"03","name":"Niedersachsen"}},{"name":"Damm","postalCode":"38272","locality":"Burgdorf","municipality":{"key":"03158004","name":"Burgdorf","type":"Kreisangehörige_Gemeinde"},"district":{"key":"03158","name":"Wolfenbüttel","type":"Landkreis"},"federalState":{"key":"03","name":"Niedersachsen"}},{"name":"Dammbruch","postalCode":"31303","locality":"Burgdorf","municipality":{"key":"03241003","name":"Burgdorf, Stadt","type":"Stadt"},"district":{"key":"03241","name":"Region Hannover","type":"Landkreis"},"federalState":{"key":"03","name":"Niedersachsen"}},{"name":"Dammgartenfeld","postalCode":"31303","locality":"Burgdorf","municipality":{"key":"03241003","name":"Burgdorf, Stadt","type":"Stadt"},"district":{"key":"03241","name":"Region Hannover","type":"Landkreis"},"federalState":{"key":"03","name":"Niedersachsen"}},{"name":"Dammgartenstr.","postalCode":"31303","locality":"Burgdorf","municipality":{"key":"03241003","name":"Burgdorf, Stadt","type":"Stadt"},"district":{"key":"03241","name":"Region Hannover","type":"Landkreis"},"federalState":{"key":"03","name":"Niedersachsen"}},{"name":"Danziger Str.","postalCode":"31303","locality":"Burgdorf","municipality":{"key":"03241003","name":"Burgdorf, Stadt","type":"Stadt"},"district":{"key":"03241","name":"Region Hannover","type":"Landkreis"},"federalState":{"key":"03","name":"Niedersachsen"}},{"name":"Delpstr.","postalCode":"31303","locality":"Burgdorf","municipality":{"key":"03241003","name":"Burgdorf, Stadt","type":"Stadt"},"district":{"key":"03241","name":"Region Hannover","type":"Landkreis"},"federalState":{"key":"03","name":"Niedersachsen"}},{"name":"Demmoor","postalCode":"31303","locality":"Burgdorf","municipality":{"key":"03241003","name":"Burgdorf, Stadt","type":"Stadt"},"district":{"key":"03241","name":"Region Hannover","type":"Landkreis"},"federalState":{"key":"03","name":"Niedersachsen"}},{"name":"Demmorweg","postalCode":"31303","locality":"Burgdorf","municipality":{"key":"03241003","name":"Burgdorf, Stadt","type":"Stadt"},"district":{"key":"03241","name":"Region Hannover","type":"Landkreis"},"federalState":{"key":"03","name":"Niedersachsen"}},{"name":"Depenauerweg","postalCode":"31303","locality":"Burgdorf","municipality":{"key":"03241003","name":"Burgdorf, Stadt","type":"Stadt"},"district":{"key":"03241","name":"Region Hannover","type":"Landkreis"},"federalState":{"key":"03","name":"Niedersachsen"}},{"name":"De-Steeg-Weg","postalCode":"31303","locality":"Burgdorf","municipality":{"key":"03241003","name":"Burgdorf, Stadt","type":"Stadt"},"district":{"key":"03241","name":"Region Hannover","type":"Landkreis"},"federalState":{"key":"03","name":"Niedersachsen"}},{"name":"Die Alten Gärten","postalCode":"31303","locality":"Burgdorf","municipality":{"key":"03241003","name":"Burgdorf, Stadt","type":"Stadt"},"district":{"key":"03241","name":"Region Hannover","type":"Landkreis"},"federalState":{"key":"03","name":"Niedersachsen"}},{"name":"Dierener Str.","postalCode":"31303","locality":"Burgdorf","municipality":{"key":"03241003","name":"Burgdorf, Stadt","type":"Stadt"},"district":{"key":"03241","name":"Region Hannover","type":"Landkreis"},"federalState":{"key":"03","name":"Niedersachsen"}},{"name":"Dietrichstr.","postalCode":"31303","locality":"Burgdorf","municipality":{"key":"03241003","name":"Burgdorf, Stadt","type":"Stadt"},"district":{"key":"03241","name":"Region Hannover","type":"Landkreis"},"federalState":{"key":"03","name":"Niedersachsen"}},{"name":"Dohlenweg","postalCode":"31303","locality":"Burgdorf","municipality":{"key":"03241003","name":"Burgdorf, Stadt","type":"Stadt"},"district":{"key":"03241","name":"Region Hannover","type":"Landkreis"},"federalState":{"key":"03","name":"Niedersachsen"}},{"name":"Dorfgraben","postalCode":"38272","locality":"Burgdorf","municipality":{"key":"03158004","name":"Burgdorf","type":"Kreisangehörige_Gemeinde"},"district":{"key":"03158","name":"Wolfenbüttel","type":"Landkreis"},"federalState":{"key":"03","name":"Niedersachsen"}},{"name":"Dorfstr.","postalCode":"31303","locality":"Burgdorf","municipality":{"key":"03241003","name":"Burgdorf, Stadt","type":"Stadt"},"district":{"key":"03241","name":"Region Hannover","type":"Landkreis"},"federalState":{"key":"03","name":"Niedersachsen"}},{"name":"Dorfwiesen","postalCode":"31303","locality":"Burgdorf","municipality":{"key":"03241003","name":"Burgdorf, Stadt","type":"Stadt"},"district":{"key":"03241","name":"Region Hannover","type":"Landkreis"},"federalState":{"key":"03","name":"Niedersachsen"}},{"name":"Dragonerweg","postalCode":"31303","locality":"Burgdorf","municipality":{"key":"03241003","name":"Burgdorf, Stadt","type":"Stadt"},"district":{"key":"03241","name":"Region Hannover","type":"Landkreis"},"federalState":{"key":"03","name":"Niedersachsen"}},{"name":"Drei Eichen","postalCode":"31303","locality":"Burgdorf","municipality":{"key":"03241003","name":"Burgdorf, Stadt","type":"Stadt"},"district":{"key":"03241","name":"Region Hannover","type":"Landkreis"},"federalState":{"key":"03","name":"Niedersachsen"}},{"name":"Dresdener Str.","postalCode":"31303","locality":"Burgdorf","municipality":{"key":"03241003","name":"Burgdorf, Stadt","type":"Stadt"},"district":{"key":"03241","name":"Region Hannover","type":"Landkreis"},"federalState":{"key":"03","name":"Niedersachsen"}},{"name":"Drosselstr.","postalCode":"31303","locality":"Burgdorf","municipality":{"key":"03241003","name":"Burgdorf, Stadt","type":"Stadt"},"district":{"key":"03241","name":"Region Hannover","type":"Landkreis"},"federalState":{"key":"03","name":"Niedersachsen"}},{"name":"Duderstädter Weg","postalCode":"31303","locality":"Burgdorf","municipality":{"key":"03241003","name":"Burgdorf, Stadt","type":"Stadt"},"district":{"key":"03241","name":"Region Hannover","type":"Landkreis"},"federalState":{"key":"03","name":"Niedersachsen"}},{"name":"Dürerplatz","postalCode":"31303","locality":"Burgdorf","municipality":{"key":"03241003","name":"Burgdorf, Stadt","type":"Stadt"},"district":{"key":"03241","name":"Region Hannover","type":"Landkreis"},"federalState":{"key":"03","name":"Niedersachsen"}},{"name":"Edental","postalCode":"31303","locality":"Burgdorf","municipality":{"key":"03241003","name":"Burgdorf, Stadt","type":"Stadt"},"district":{"key":"03241","name":"Region Hannover","type":"Landkreis"},"federalState":{"key":"03","name":"Niedersachsen"}},{"name":"Ehlershäuser Weg","postalCode":"31303","locality":"Burgdorf","municipality":{"key":"03241003","name":"Burgdorf, Stadt","type":"Stadt"},"district":{"key":"03241","name":"Region Hannover","type":"Landkreis"},"federalState":{"key":"03","name":"Niedersachsen"}},{"name":"Eichelhäherweg","postalCode":"31303","locality":"Burgdorf","municipality":{"key":"03241003","name":"Burgdorf, Stadt","type":"Stadt"},"district":{"key":"03241","name":"Region Hannover","type":"Landkreis"},"federalState":{"key":"03","name":"Niedersachsen"}},{"name":"Eichendorffstr.","postalCode":"31303","locality":"Burgdorf","municipality":{"key":"03241003","name":"Burgdorf, Stadt","type":"Stadt"},"district":{"key":"03241","name":"Region Hannover","type":"Landkreis"},"federalState":{"key":"03","name":"Niedersachsen"}},{"name":"Eichengrund","postalCode":"31303","locality":"Burgdorf","municipality":{"key":"03241003","name":"Burgdorf, Stadt","type":"Stadt"},"district":{"key":"03241","name":"Region Hannover","type":"Landkreis"},"federalState":{"key":"03","name":"Niedersachsen"}},{"name":"Eichhornstr.","postalCode":"31303","locality":"Burgdorf","municipality":{"key":"03241003","name":"Burgdorf, Stadt","type":"Stadt"},"district":{"key":"03241","name":"Region Hannover","type":"Landkreis"},"federalState":{"key":"03","name":"Niedersachsen"}},{"name":"Eickhoop","postalCode":"31303","locality":"Burgdorf","municipality":{"key":"03241003","name":"Burgdorf, Stadt","type":"Stadt"},"district":{"key":"03241","name":"Region Hannover","type":"Landkreis"},"federalState":{"key":"03","name":"Niedersachsen"}},{"name":"Elbestr.","postalCode":"31303","locality":"Burgdorf","municipality":{"key":"03241003","name":"Burgdorf, Stadt","type":"Stadt"},"district":{"key":"03241","name":"Region Hannover","type":"Landkreis"},"federalState":{"key":"03","name":"Niedersachsen"}},{"name":"Elchweg","postalCode":"31303","locality":"Burgdorf","municipality":{"key":"03241003","name":"Burgdorf, Stadt","type":"Stadt"},"district":{"key":"03241","name":"Region Hannover","type":"Landkreis"},"federalState":{"key":"03","name":"Niedersachsen"}},{"name":"Elisabeth-Hahne-Str.","postalCode":"31303","locality":"Burgdorf","municipality":{"key":"03241003","name":"Burgdorf, Stadt","type":"Stadt"},"district":{"key":"03241","name":"Region Hannover","type":"Landkreis"},"federalState":{"key":"03","name":"Niedersachsen"}},{"name":"Ellerngrund","postalCode":"31303","locality":"Burgdorf","municipality":{"key":"03241003","name":"Burgdorf, Stadt","type":"Stadt"},"district":{"key":"03241","name":"Region Hannover","type":"Landkreis"},"federalState":{"key":"03","name":"Niedersachsen"}},{"name":"Elserstr.","postalCode":"31303","locality":"Burgdorf","municipality":{"key":"03241003","name":"Burgdorf, Stadt","type":"Stadt"},"district":{"key":"03241","name":"Region Hannover","type":"Landkreis"},"federalState":{"key":"03","name":"Niedersachsen"}},{"name":"Elsternstieg","postalCode":"31303","locality":"Burgdorf","municipality":{"key":"03241003","name":"Burgdorf, Stadt","type":"Stadt"},"district":{"key":"03241","name":"Region Hannover","type":"Landkreis"},"federalState":{"key":"03","name":"Niedersachsen"}},{"name":"Emmentaler Str.","postalCode":"31303","locality":"Burgdorf","municipality":{"key":"03241003","name":"Burgdorf, Stadt","type":"Stadt"},"district":{"key":"03241","name":"Region Hannover","type":"Landkreis"},"federalState":{"key":"03","name":"Niedersachsen"}},{"name":"Engelsche Wiesen","postalCode":"31303","locality":"Burgdorf","municipality":{"key":"03241003","name":"Burgdorf, Stadt","type":"Stadt"},"district":{"key":"03241","name":"Region Hannover","type":"Landkreis"},"federalState":{"key":"03","name":"Niedersachsen"}},{"name":"Engenser Str.","postalCode":"31303","locality":"Burgdorf","municipality":{"key":"03241003","name":"Burgdorf, Stadt","type":"Stadt"},"district":{"key":"03241","name":"Region Hannover","type":"Landkreis"},"federalState":{"key":"03","name":"Niedersachsen"}},{"name":"Enge Str.","postalCode":"38272","locality":"Burgdorf","municipality":{"key":"03158004","name":"Burgdorf","type":"Kreisangehörige_Gemeinde"},"district":{"key":"03158","name":"Wolfenbüttel","type":"Landkreis"},"federalState":{"key":"03","name":"Niedersachsen"}},{"name":"Erika-Stiens-Str.","postalCode":"31303","locality":"Burgdorf","municipality":{"key":"03241003","name":"Burgdorf, Stadt","type":"Stadt"},"district":{"key":"03241","name":"Region Hannover","type":"Landkreis"},"federalState":{"key":"03","name":"Niedersachsen"}},{"name":"Erlenweg","postalCode":"31303","locality":"Burgdorf","municipality":{"key":"03241003","name":"Burgdorf, Stadt","type":"Stadt"},"district":{"key":"03241","name":"Region Hannover","type":"Landkreis"},"federalState":{"key":"03","name":"Niedersachsen"}},{"name":"Eschenweg","postalCode":"31303","locality":"Burgdorf","municipality":{"key":"03241003","name":"Burgdorf, Stadt","type":"Stadt"},"district":{"key":"03241","name":"Region Hannover","type":"Landkreis"},"federalState":{"key":"03","name":"Niedersachsen"}},{"name":"Eseringer Str.","postalCode":"31303","locality":"Burgdorf","municipality":{"key":"03241003","name":"Burgdorf, Stadt","type":"Stadt"},"district":{"key":"03241","name":"Region Hannover","type":"Landkreis"},"federalState":{"key":"03","name":"Niedersachsen"}},{"name":"Esteweg","postalCode":"31303","locality":"Burgdorf","municipality":{"key":"03241003","name":"Burgdorf, Stadt","type":"Stadt"},"district":{"key":"03241","name":"Region Hannover","type":"Landkreis"},"federalState":{"key":"03","name":"Niedersachsen"}},{"name":"Eulenkamp","postalCode":"31303","locality":"Burgdorf","municipality":{"key":"03241003","name":"Burgdorf, Stadt","type":"Stadt"},"district":{"key":"03241","name":"Region Hannover","type":"Landkreis"},"federalState":{"key":"03","name":"Niedersachsen"}},{"name":"Falkenhorst","postalCode":"31303","locality":"Burgdorf","municipality":{"key":"03241003","name":"Burgdorf, Stadt","type":"Stadt"},"district":{"key":"03241","name":"Region Hannover","type":"Landkreis"},"federalState":{"key":"03","name":"Niedersachsen"}},{"name":"Färberstr.","postalCode":"31303","locality":"Burgdorf","municipality":{"key":"03241003","name":"Burgdorf, Stadt","type":"Stadt"},"district":{"key":"03241","name":"Region Hannover","type":"Landkreis"},"federalState":{"key":"03","name":"Niedersachsen"}},{"name":"Fasanenweg","postalCode":"31303","locality":"Burgdorf","municipality":{"key":"03241003","name":"Burgdorf, Stadt","type":"Stadt"},"district":{"key":"03241","name":"Region Hannover","type":"Landkreis"},"federalState":{"key":"03","name":"Niedersachsen"}},{"name":"Fasanenweg","postalCode":"38272","locality":"Burgdorf","municipality":{"key":"03158004","name":"Burgdorf","type":"Kreisangehörige_Gemeinde"},"district":{"key":"03158","name":"Wolfenbüttel","type":"Landkreis"},"federalState":{"key":"03","name":"Niedersachsen"}},{"name":"Feldstr.","postalCode":"31303","locality":"Burgdorf","municipality":{"key":"03241003","name":"Burgdorf, Stadt","type":"Stadt"},"district":{"key":"03241","name":"Region Hannover","type":"Landkreis"},"federalState":{"key":"03","name":"Niedersachsen"}},{"name":"Ferdinand-Brandes-Str.","postalCode":"38272","locality":"Burgdorf","municipality":{"key":"03158004","name":"Burgdorf","type":"Kreisangehörige_Gemeinde"},"district":{"key":"03158","name":"Wolfenbüttel","type":"Landkreis"},"federalState":{"key":"03","name":"Niedersachsen"}},{"name":"Fichtestr.","postalCode":"31303","locality":"Burgdorf","municipality":{"key":"03241003","name":"Burgdorf, Stadt","type":"Stadt"},"district":{"key":"03241","name":"Region Hannover","type":"Landkreis"},"federalState":{"key":"03","name":"Niedersachsen"}},{"name":"Finkenweg","postalCode":"31303","locality":"Burgdorf","municipality":{"key":"03241003","name":"Burgdorf, Stadt","type":"Stadt"},"district":{"key":"03241","name":"Region Hannover","type":"Landkreis"},"federalState":{"key":"03","name":"Niedersachsen"}},{"name":"Fitness-Parcours","postalCode":"31303","locality":"Burgdorf","municipality":{"key":"03241003","name":"Burgdorf, Stadt","type":"Stadt"},"district":{"key":"03241","name":"Region Hannover","type":"Landkreis"},"federalState":{"key":"03","name":"Niedersachsen"}},{"name":"Flaatmoor","postalCode":"31303","locality":"Burgdorf","municipality":{"key":"03241003","name":"Burgdorf, Stadt","type":"Stadt"},"district":{"key":"03241","name":"Region Hannover","type":"Landkreis"},"federalState":{"key":"03","name":"Niedersachsen"}},{"name":"Flachsfeld","postalCode":"31303","locality":"Burgdorf","municipality":{"key":"03241003","name":"Burgdorf, Stadt","type":"Stadt"},"district":{"key":"03241","name":"Region Hannover","type":"Landkreis"},"federalState":{"key":"03","name":"Niedersachsen"}},{"name":"Fliederstr.","postalCode":"31303","locality":"Burgdorf","municipality":{"key":"03241003","name":"Burgdorf, Stadt","type":"Stadt"},"district":{"key":"03241","name":"Region Hannover","type":"Landkreis"},"federalState":{"key":"03","name":"Niedersachsen"}},{"name":"Föhrenkamp","postalCode":"31303","locality":"Burgdorf","municipality":{"key":"03241003","name":"Burgdorf, Stadt","type":"Stadt"},"district":{"key":"03241","name":"Region Hannover","type":"Landkreis"},"federalState":{"key":"03","name":"Niedersachsen"}},{"name":"Freiengericht","postalCode":"31303","locality":"Burgdorf","municipality":{"key":"03241003","name":"Burgdorf, Stadt","type":"Stadt"},"district":{"key":"03241","name":"Region Hannover","type":"Landkreis"},"federalState":{"key":"03","name":"Niedersachsen"}},{"name":"Friederikenstr.","postalCode":"31303","locality":"Burgdorf","municipality":{"key":"03241003","name":"Burgdorf, Stadt","type":"Stadt"},"district":{"key":"03241","name":"Region Hannover","type":"Landkreis"},"federalState":{"key":"03","name":"Niedersachsen"}},{"name":"Fröbelweg","postalCode":"31303","locality":"Burgdorf","municipality":{"key":"03241003","name":"Burgdorf, Stadt","type":"Stadt"},"district":{"key":"03241","name":"Region Hannover","type":"Landkreis"},"federalState":{"key":"03","name":"Niedersachsen"}},{"name":"Fuchsweg","postalCode":"31303","locality":"Burgdorf","municipality":{"key":"03241003","name":"Burgdorf, Stadt","type":"Stadt"},"district":{"key":"03241","name":"Region Hannover","type":"Landkreis"},"federalState":{"key":"03","name":"Niedersachsen"}},{"name":"Gartenstr.","postalCode":"31303","locality":"Burgdorf","municipality":{"key":"03241003","name":"Burgdorf, Stadt","type":"Stadt"},"district":{"key":"03241","name":"Region Hannover","type":"Landkreis"},"federalState":{"key":"03","name":"Niedersachsen"}},{"name":"Gartenstr.","postalCode":"38272","locality":"Burgdorf","municipality":{"key":"03158004","name":"Burgdorf","type":"Kreisangehörige_Gemeinde"},"district":{"key":"03158","name":"Wolfenbüttel","type":"Landkreis"},"federalState":{"key":"03","name":"Niedersachsen"}},{"name":"Gehrbergsweg","postalCode":"31303","locality":"Burgdorf","municipality":{"key":"03241003","name":"Burgdorf, Stadt","type":"Stadt"},"district":{"key":"03241","name":"Region Hannover","type":"Landkreis"},"federalState":{"key":"03","name":"Niedersachsen"}},{"name":"Geibelstr.","postalCode":"31303","locality":"Burgdorf","municipality":{"key":"03241003","name":"Burgdorf, Stadt","type":"Stadt"},"district":{"key":"03241","name":"Region Hannover","type":"Landkreis"},"federalState":{"key":"03","name":"Niedersachsen"}},{"name":"Georg-Wilhelm-Weg","postalCode":"31303","locality":"Burgdorf","municipality":{"key":"03241003","name":"Burgdorf, Stadt","type":"Stadt"},"district":{"key":"03241","name":"Region Hannover","type":"Landkreis"},"federalState":{"key":"03","name":"Niedersachsen"}},{"name":"Gerätehausweg","postalCode":"31303","locality":"Burgdorf","municipality":{"key":"03241003","name":"Burgdorf, Stadt","type":"Stadt"},"district":{"key":"03241","name":"Region Hannover","type":"Landkreis"},"federalState":{"key":"03","name":"Niedersachsen"}},{"name":"Gerhart-Hauptmann-Platz","postalCode":"31303","locality":"Burgdorf","municipality":{"key":"03241003","name":"Burgdorf, Stadt","type":"Stadt"},"district":{"key":"03241","name":"Region Hannover","type":"Landkreis"},"federalState":{"key":"03","name":"Niedersachsen"}},{"name":"Gerickestr.","postalCode":"31303","locality":"Burgdorf","municipality":{"key":"03241003","name":"Burgdorf, Stadt","type":"Stadt"},"district":{"key":"03241","name":"Region Hannover","type":"Landkreis"},"federalState":{"key":"03","name":"Niedersachsen"}},{"name":"Gersteweg","postalCode":"38272","locality":"Burgdorf","municipality":{"key":"03158004","name":"Burgdorf","type":"Kreisangehörige_Gemeinde"},"district":{"key":"03158","name":"Wolfenbüttel","type":"Landkreis"},"federalState":{"key":"03","name":"Niedersachsen"}},{"name":"Giesenwinkel","postalCode":"31303","locality":"Burgdorf","municipality":{"key":"03241003","name":"Burgdorf, Stadt","type":"Stadt"},"district":{"key":"03241","name":"Region Hannover","type":"Landkreis"},"federalState":{"key":"03","name":"Niedersachsen"}},{"name":"Ginsterweg","postalCode":"31303","locality":"Burgdorf","municipality":{"key":"03241003","name":"Burgdorf, Stadt","type":"Stadt"},"district":{"key":"03241","name":"Region Hannover","type":"Landkreis"},"federalState":{"key":"03","name":"Niedersachsen"}},{"name":"Goerdelerstr.","postalCode":"31303","locality":"Burgdorf","municipality":{"key":"03241003","name":"Burgdorf, Stadt","type":"Stadt"},"district":{"key":"03241","name":"Region Hannover","type":"Landkreis"},"federalState":{"key":"03","name":"Niedersachsen"}},{"name":"Goethestr.","postalCode":"31303","locality":"Burgdorf","municipality":{"key":"03241003","name":"Burgdorf, Stadt","type":"Stadt"},"district":{"key":"03241","name":"Region Hannover","type":"Landkreis"},"federalState":{"key":"03","name":"Niedersachsen"}},{"name":"Goldkuhle","postalCode":"31303","locality":"Burgdorf","municipality":{"key":"03241003","name":"Burgdorf, Stadt","type":"Stadt"},"district":{"key":"03241","name":"Region Hannover","type":"Landkreis"},"federalState":{"key":"03","name":"Niedersachsen"}},{"name":"Grafhornweg","postalCode":"31303","locality":"Burgdorf","municipality":{"key":"03241003","name":"Burgdorf, Stadt","type":"Stadt"},"district":{"key":"03241","name":"Region Hannover","type":"Landkreis"},"federalState":{"key":"03","name":"Niedersachsen"}},{"name":"Grandkuhlenweg","postalCode":"38272","locality":"Burgdorf","municipality":{"key":"03158004","name":"Burgdorf","type":"Kreisangehörige_Gemeinde"},"district":{"key":"03158","name":"Wolfenbüttel","type":"Landkreis"},"federalState":{"key":"03","name":"Niedersachsen"}},{"name":"Grashöfe","postalCode":"31303","locality":"Burgdorf","municipality":{"key":"03241003","name":"Burgdorf, Stadt","type":"Stadt"},"district":{"key":"03241","name":"Region Hannover","type":"Landkreis"},"federalState":{"key":"03","name":"Niedersachsen"}},{"name":"Grenzstr.","postalCode":"31303","locality":"Burgdorf","municipality":{"key":"03241003","name":"Burgdorf, Stadt","type":"Stadt"},"district":{"key":"03241","name":"Region Hannover","type":"Landkreis"},"federalState":{"key":"03","name":"Niedersachsen"}},{"name":"Grimbartschlucht","postalCode":"31303","locality":"Burgdorf","municipality":{"key":"03241003","name":"Burgdorf, Stadt","type":"Stadt"},"district":{"key":"03241","name":"Region Hannover","type":"Landkreis"},"federalState":{"key":"03","name":"Niedersachsen"}},{"name":"Grundstöber","postalCode":"38272","locality":"Burgdorf","municipality":{"key":"03158004","name":"Burgdorf","type":"Kreisangehörige_Gemeinde"},"district":{"key":"03158","name":"Wolfenbüttel","type":"Landkreis"},"federalState":{"key":"03","name":"Niedersachsen"}},{"name":"Grüne Allee","postalCode":"31303","locality":"Burgdorf","municipality":{"key":"03241003","name":"Burgdorf, Stadt","type":"Stadt"},"district":{"key":"03241","name":"Region Hannover","type":"Landkreis"},"federalState":{"key":"03","name":"Niedersachsen"}},{"name":"Grünewaldstr.","postalCode":"31303","locality":"Burgdorf","municipality":{"key":"03241003","name":"Burgdorf, Stadt","type":"Stadt"},"district":{"key":"03241","name":"Region Hannover","type":"Landkreis"},"federalState":{"key":"03","name":"Niedersachsen"}},{"name":"Grupenstr.","postalCode":"31303","locality":"Burgdorf","municipality":{"key":"03241003","name":"Burgdorf, Stadt","type":"Stadt"},"district":{"key":"03241","name":"Region Hannover","type":"Landkreis"},"federalState":{"key":"03","name":"Niedersachsen"}},{"name":"Gutenbergstr.","postalCode":"31303","locality":"Burgdorf","municipality":{"key":"03241003","name":"Burgdorf, Stadt","type":"Stadt"},"district":{"key":"03241","name":"Region Hannover","type":"Landkreis"},"federalState":{"key":"03","name":"Niedersachsen"}},{"name":"Habichtshorst","postalCode":"31303","locality":"Burgdorf","municipality":{"key":"03241003","name":"Burgdorf, Stadt","type":"Stadt"},"district":{"key":"03241","name":"Region Hannover","type":"Landkreis"},"federalState":{"key":"03","name":"Niedersachsen"}},{"name":"Hainbuchenstr.","postalCode":"31303","locality":"Burgdorf","municipality":{"key":"03241003","name":"Burgdorf, Stadt","type":"Stadt"},"district":{"key":"03241","name":"Region Hannover","type":"Landkreis"},"federalState":{"key":"03","name":"Niedersachsen"}},{"name":"Hammeweg","postalCode":"31303","locality":"Burgdorf","municipality":{"key":"03241003","name":"Burgdorf, Stadt","type":"Stadt"},"district":{"key":"03241","name":"Region Hannover","type":"Landkreis"},"federalState":{"key":"03","name":"Niedersachsen"}},{"name":"Hamsterbau","postalCode":"31303","locality":"Burgdorf","municipality":{"key":"03241003","name":"Burgdorf, Stadt","type":"Stadt"},"district":{"key":"03241","name":"Region Hannover","type":"Landkreis"},"federalState":{"key":"03","name":"Niedersachsen"}},{"name":"Händelstr.","postalCode":"31303","locality":"Burgdorf","municipality":{"key":"03241003","name":"Burgdorf, Stadt","type":"Stadt"},"district":{"key":"03241","name":"Region Hannover","type":"Landkreis"},"federalState":{"key":"03","name":"Niedersachsen"}},{"name":"Hanffeld","postalCode":"31303","locality":"Burgdorf","municipality":{"key":"03241003","name":"Burgdorf, Stadt","type":"Stadt"},"district":{"key":"03241","name":"Region Hannover","type":"Landkreis"},"federalState":{"key":"03","name":"Niedersachsen"}},{"name":"Hänigser Str.","postalCode":"31303","locality":"Burgdorf","municipality":{"key":"03241003","name":"Burgdorf, Stadt","type":"Stadt"},"district":{"key":"03241","name":"Region Hannover","type":"Landkreis"},"federalState":{"key":"03","name":"Niedersachsen"}},{"name":"Hannoversche Neustadt","postalCode":"31303","locality":"Burgdorf","municipality":{"key":"03241003","name":"Burgdorf, Stadt","type":"Stadt"},"district":{"key":"03241","name":"Region Hannover","type":"Landkreis"},"federalState":{"key":"03","name":"Niedersachsen"}},{"name":"Hans-Sachs-Weg","postalCode":"31303","locality":"Burgdorf","municipality":{"key":"03241003","name":"Burgdorf, Stadt","type":"Stadt"},"district":{"key":"03241","name":"Region Hannover","type":"Landkreis"},"federalState":{"key":"03","name":"Niedersachsen"}},{"name":"Harm-Wulf-Str.","postalCode":"31303","locality":"Burgdorf","municipality":{"key":"03241003","name":"Burgdorf, Stadt","type":"Stadt"},"district":{"key":"03241","name":"Region Hannover","type":"Landkreis"},"federalState":{"key":"03","name":"Niedersachsen"}},{"name":"Haselweg","postalCode":"31303","locality":"Burgdorf","municipality":{"key":"03241003","name":"Burgdorf, Stadt","type":"Stadt"},"district":{"key":"03241","name":"Region Hannover","type":"Landkreis"},"federalState":{"key":"03","name":"Niedersachsen"}},{"name":"Hasenheide","postalCode":"31303","locality":"Burgdorf","municipality":{"key":"03241003","name":"Burgdorf, Stadt","type":"Stadt"},"district":{"key":"03241","name":"Region Hannover","type":"Landkreis"},"federalState":{"key":"03","name":"Niedersachsen"}},{"name":"Hastraweg","postalCode":"31303","locality":"Burgdorf","municipality":{"key":"03241003","name":"Burgdorf, Stadt","type":"Stadt"},"district":{"key":"03241","name":"Region Hannover","type":"Landkreis"},"federalState":{"key":"03","name":"Niedersachsen"}},{"name":"Hauffstr.","postalCode":"31303","locality":"Burgdorf","municipality":{"key":"03241003","name":"Burgdorf, Stadt","type":"Stadt"},"district":{"key":"03241","name":"Region Hannover","type":"Landkreis"},"federalState":{"key":"03","name":"Niedersachsen"}},{"name":"Hauptstr.","postalCode":"31303","locality":"Burgdorf","municipality":{"key":"03241003","name":"Burgdorf, Stadt","type":"Stadt"},"district":{"key":"03241","name":"Region Hannover","type":"Landkreis"},"federalState":{"key":"03","name":"Niedersachsen"}},{"name":"Hauptstr.","postalCode":"38272","locality":"Burgdorf","municipality":{"key":"03158004","name":"Burgdorf","type":"Kreisangehörige_Gemeinde"},"district":{"key":"03158","name":"Wolfenbüttel","type":"Landkreis"},"federalState":{"key":"03","name":"Niedersachsen"}},{"name":"Havelstr.","postalCode":"31303","locality":"Burgdorf","municipality":{"key":"03241003","name":"Burgdorf, Stadt","type":"Stadt"},"district":{"key":"03241","name":"Region Hannover","type":"Landkreis"},"federalState":{"key":"03","name":"Niedersachsen"}},{"name":"Haydnstr.","postalCode":"31303","locality":"Burgdorf","municipality":{"key":"03241003","name":"Burgdorf, Stadt","type":"Stadt"},"district":{"key":"03241","name":"Region Hannover","type":"Landkreis"},"federalState":{"key":"03","name":"Niedersachsen"}},{"name":"Hebbelstr.","postalCode":"31303","locality":"Burgdorf","municipality":{"key":"03241003","name":"Burgdorf, Stadt","type":"Stadt"},"district":{"key":"03241","name":"Region Hannover","type":"Landkreis"},"federalState":{"key":"03","name":"Niedersachsen"}},{"name":"Heckendamm","postalCode":"31303","locality":"Burgdorf","municipality":{"key":"03241003","name":"Burgdorf, Stadt","type":"Stadt"},"district":{"key":"03241","name":"Region Hannover","type":"Landkreis"},"federalState":{"key":"03","name":"Niedersachsen"}},{"name":"Heeg","postalCode":"31303","locality":"Burgdorf","municipality":{"key":"03241003","name":"Burgdorf, Stadt","type":"Stadt"},"district":{"key":"03241","name":"Region Hannover","type":"Landkreis"},"federalState":{"key":"03","name":"Niedersachsen"}},{"name":"Heeßeler Damm","postalCode":"31303","locality":"Burgdorf","municipality":{"key":"03241003","name":"Burgdorf, Stadt","type":"Stadt"},"district":{"key":"03241","name":"Region Hannover","type":"Landkreis"},"federalState":{"key":"03","name":"Niedersachsen"}},{"name":"Heeßeler Kirchweg","postalCode":"31303","locality":"Burgdorf","municipality":{"key":"03241003","name":"Burgdorf, Stadt","type":"Stadt"},"district":{"key":"03241","name":"Region Hannover","type":"Landkreis"},"federalState":{"key":"03","name":"Niedersachsen"}},{"name":"Heideweg","postalCode":"31303","locality":"Burgdorf","municipality":{"key":"03241003","name":"Burgdorf, Stadt","type":"Stadt"},"district":{"key":"03241","name":"Region Hannover","type":"Landkreis"},"federalState":{"key":"03","name":"Niedersachsen"}},{"name":"Heiligenbeiler Str.","postalCode":"31303","locality":"Burgdorf","municipality":{"key":"03241003","name":"Burgdorf, Stadt","type":"Stadt"},"district":{"key":"03241","name":"Region Hannover","type":"Landkreis"},"federalState":{"key":"03","name":"Niedersachsen"}},{"name":"Heinrichstr.","postalCode":"31303","locality":"Burgdorf","municipality":{"key":"03241003","name":"Burgdorf, Stadt","type":"Stadt"},"district":{"key":"03241","name":"Region Hannover","type":"Landkreis"},"federalState":{"key":"03","name":"Niedersachsen"}},{"name":"Heisterkampsweg","postalCode":"31303","locality":"Burgdorf","municipality":{"key":"03241003","name":"Burgdorf, Stadt","type":"Stadt"},"district":{"key":"03241","name":"Region Hannover","type":"Landkreis"},"federalState":{"key":"03","name":"Niedersachsen"}},{"name":"Hermann-Hoffmann-Kreisel","postalCode":"31303","locality":"Burgdorf","municipality":{"key":"03241003","name":"Burgdorf, Stadt","type":"Stadt"},"district":{"key":"03241","name":"Region Hannover","type":"Landkreis"},"federalState":{"key":"03","name":"Niedersachsen"}},{"name":"Hermelinstr.","postalCode":"31303","locality":"Burgdorf","municipality":{"key":"03241003","name":"Burgdorf, Stadt","type":"Stadt"},"district":{"key":"03241","name":"Region Hannover","type":"Landkreis"},"federalState":{"key":"03","name":"Niedersachsen"}},{"name":"Hessenweg","postalCode":"31303","locality":"Burgdorf","municipality":{"key":"03241003","name":"Burgdorf, Stadt","type":"Stadt"},"district":{"key":"03241","name":"Region Hannover","type":"Landkreis"},"federalState":{"key":"03","name":"Niedersachsen"}},{"name":"Hesseweg","postalCode":"38272","locality":"Burgdorf","municipality":{"key":"03158004","name":"Burgdorf","type":"Kreisangehörige_Gemeinde"},"district":{"key":"03158","name":"Wolfenbüttel","type":"Landkreis"},"federalState":{"key":"03","name":"Niedersachsen"}},{"name":"Heutrift","postalCode":"31303","locality":"Burgdorf","municipality":{"key":"03241003","name":"Burgdorf, Stadt","type":"Stadt"},"district":{"key":"03241","name":"Region Hannover","type":"Landkreis"},"federalState":{"key":"03","name":"Niedersachsen"}},{"name":"Himstedter Str.","postalCode":"38272","locality":"Burgdorf","municipality":{"key":"03158004","name":"Burgdorf","type":"Kreisangehörige_Gemeinde"},"district":{"key":"03158","name":"Wolfenbüttel","type":"Landkreis"},"federalState":{"key":"03","name":"Niedersachsen"}},{"name":"Hinter dem Dorfe","postalCode":"38272","locality":"Burgdorf","municipality":{"key":"03158004","name":"Burgdorf","type":"Kreisangehörige_Gemeinde"},"district":{"key":"03158","name":"Wolfenbüttel","type":"Landkreis"},"federalState":{"key":"03","name":"Niedersachsen"}},{"name":"Hinter den Höfen","postalCode":"31303","locality":"Burgdorf","municipality":{"key":"03241003","name":"Burgdorf, Stadt","type":"Stadt"},"district":{"key":"03241","name":"Region Hannover","type":"Landkreis"},"federalState":{"key":"03","name":"Niedersachsen"}},{"name":"Hinterstr.","postalCode":"31303","locality":"Burgdorf","municipality":{"key":"03241003","name":"Burgdorf, Stadt","type":"Stadt"},"district":{"key":"03241","name":"Region Hannover","type":"Landkreis"},"federalState":{"key":"03","name":"Niedersachsen"}},{"name":"Hirtenweg","postalCode":"31303","locality":"Burgdorf","municipality":{"key":"03241003","name":"Burgdorf, Stadt","type":"Stadt"},"district":{"key":"03241","name":"Region Hannover","type":"Landkreis"},"federalState":{"key":"03","name":"Niedersachsen"}},{"name":"Höhenweg","postalCode":"31303","locality":"Burgdorf","municipality":{"key":"03241003","name":"Burgdorf, Stadt","type":"Stadt"},"district":{"key":"03241","name":"Region Hannover","type":"Landkreis"},"federalState":{"key":"03","name":"Niedersachsen"}},{"name":"Höhenweg","postalCode":"38272","locality":"Burgdorf","municipality":{"key":"03158004","name":"Burgdorf","type":"Kreisangehörige_Gemeinde"},"district":{"key":"03158","name":"Wolfenbüttel","type":"Landkreis"},"federalState":{"key":"03","name":"Niedersachsen"}},{"name":"Hoher Kamp","postalCode":"31303","locality":"Burgdorf","municipality":{"key":"03241003","name":"Burgdorf, Stadt","type":"Stadt"},"district":{"key":"03241","name":"Region Hannover","type":"Landkreis"},"federalState":{"key":"03","name":"Niedersachsen"}},{"name":"Holbeinstr.","postalCode":"31303","locality":"Burgdorf","municipality":{"key":"03241003","name":"Burgdorf, Stadt","type":"Stadt"},"district":{"key":"03241","name":"Region Hannover","type":"Landkreis"},"federalState":{"key":"03","name":"Niedersachsen"}},{"name":"Hölderlinstr.","postalCode":"31303","locality":"Burgdorf","municipality":{"key":"03241003","name":"Burgdorf, Stadt","type":"Stadt"},"district":{"key":"03241","name":"Region Hannover","type":"Landkreis"},"federalState":{"key":"03","name":"Niedersachsen"}},{"name":"Holzwiesen","postalCode":"31303","locality":"Burgdorf","municipality":{"key":"03241003","name":"Burgdorf, Stadt","type":"Stadt"},"district":{"key":"03241","name":"Region Hannover","type":"Landkreis"},"federalState":{"key":"03","name":"Niedersachsen"}},{"name":"Hornweg","postalCode":"31303","locality":"Burgdorf","municipality":{"key":"03241003","name":"Burgdorf, Stadt","type":"Stadt"},"district":{"key":"03241","name":"Region Hannover","type":"Landkreis"},"federalState":{"key":"03","name":"Niedersachsen"}},{"name":"Hühnergarten","postalCode":"31303","locality":"Burgdorf","municipality":{"key":"03241003","name":"Burgdorf, Stadt","type":"Stadt"},"district":{"key":"03241","name":"Region Hannover","type":"Landkreis"},"federalState":{"key":"03","name":"Niedersachsen"}},{"name":"Hülptingser Weg","postalCode":"31303","locality":"Burgdorf","municipality":{"key":"03241003","name":"Burgdorf, Stadt","type":"Stadt"},"district":{"key":"03241","name":"Region Hannover","type":"Landkreis"},"federalState":{"key":"03","name":"Niedersachsen"}},{"name":"Humboldtstr.","postalCode":"31303","locality":"Burgdorf","municipality":{"key":"03241003","name":"Burgdorf, Stadt","type":"Stadt"},"district":{"key":"03241","name":"Region Hannover","type":"Landkreis"},"federalState":{"key":"03","name":"Niedersachsen"}},{"name":"Husarenweg","postalCode":"31303","locality":"Burgdorf","municipality":{"key":"03241003","name":"Burgdorf, Stadt","type":"Stadt"},"district":{"key":"03241","name":"Region Hannover","type":"Landkreis"},"federalState":{"key":"03","name":"Niedersachsen"}},{"name":"Ilmenauweg","postalCode":"31303","locality":"Burgdorf","municipality":{"key":"03241003","name":"Burgdorf, Stadt","type":"Stadt"},"district":{"key":"03241","name":"Region Hannover","type":"Landkreis"},"federalState":{"key":"03","name":"Niedersachsen"}},{"name":"Im Baderkamp","postalCode":"38272","locality":"Burgdorf","municipality":{"key":"03158004","name":"Burgdorf","type":"Kreisangehörige_Gemeinde"},"district":{"key":"03158","name":"Wolfenbüttel","type":"Landkreis"},"federalState":{"key":"03","name":"Niedersachsen"}},{"name":"Im Dorfe","postalCode":"31303","locality":"Burgdorf","municipality":{"key":"03241003","name":"Burgdorf, Stadt","type":"Stadt"},"district":{"key":"03241","name":"Region Hannover","type":"Landkreis"},"federalState":{"key":"03","name":"Niedersachsen"}},{"name":"Im Dorfe","postalCode":"38272","locality":"Burgdorf","municipality":{"key":"03158004","name":"Burgdorf","type":"Kreisangehörige_Gemeinde"},"district":{"key":"03158","name":"Wolfenbüttel","type":"Landkreis"},"federalState":{"key":"03","name":"Niedersachsen"}},{"name":"Im Dorfsfeld","postalCode":"31303","locality":"Burgdorf","municipality":{"key":"03241003","name":"Burgdorf, Stadt","type":"Stadt"},"district":{"key":"03241","name":"Region Hannover","type":"Landkreis"},"federalState":{"key":"03","name":"Niedersachsen"}},{"name":"Im Felde","postalCode":"31303","locality":"Burgdorf","municipality":{"key":"03241003","name":"Burgdorf, Stadt","type":"Stadt"},"district":{"key":"03241","name":"Region Hannover","type":"Landkreis"},"federalState":{"key":"03","name":"Niedersachsen"}},{"name":"Im Gänsewinkel","postalCode":"38272","locality":"Burgdorf","municipality":{"key":"03158004","name":"Burgdorf","type":"Kreisangehörige_Gemeinde"},"district":{"key":"03158","name":"Wolfenbüttel","type":"Landkreis"},"federalState":{"key":"03","name":"Niedersachsen"}},{"name":"Im Grenzacker","postalCode":"31303","locality":"Burgdorf","municipality":{"key":"03241003","name":"Burgdorf, Stadt","type":"Stadt"},"district":{"key":"03241","name":"Region Hannover","type":"Landkreis"},"federalState":{"key":"03","name":"Niedersachsen"}},{"name":"Im Hagenfeld","postalCode":"31303","locality":"Burgdorf","municipality":{"key":"03241003","name":"Burgdorf, Stadt","type":"Stadt"},"district":{"key":"03241","name":"Region Hannover","type":"Landkreis"},"federalState":{"key":"03","name":"Niedersachsen"}},{"name":"Imhof","postalCode":"31303","locality":"Burgdorf","municipality":{"key":"03241003","name":"Burgdorf, Stadt","type":"Stadt"},"district":{"key":"03241","name":"Region Hannover","type":"Landkreis"},"federalState":{"key":"03","name":"Niedersachsen"}},{"name":"Im Jägerfeld","postalCode":"31303","locality":"Burgdorf","municipality":{"key":"03241003","name":"Burgdorf, Stadt","type":"Stadt"},"district":{"key":"03241","name":"Region Hannover","type":"Landkreis"},"federalState":{"key":"03","name":"Niedersachsen"}},{"name":"Im kleinen Kampe","postalCode":"38272","locality":"Burgdorf","municipality":{"key":"03158004","name":"Burgdorf","type":"Kreisangehörige_Gemeinde"},"district":{"key":"03158","name":"Wolfenbüttel","type":"Landkreis"},"federalState":{"key":"03","name":"Niedersachsen"}},{"name":"Im kleinen Lah","postalCode":"38272","locality":"Burgdorf","municipality":{"key":"03158004","name":"Burgdorf","type":"Kreisangehörige_Gemeinde"},"district":{"key":"03158","name":"Wolfenbüttel","type":"Landkreis"},"federalState":{"key":"03","name":"Niedersachsen"}},{"name":"Im Kreitwinkel","postalCode":"31303","locality":"Burgdorf","municipality":{"key":"03241003","name":"Burgdorf, Stadt","type":"Stadt"},"district":{"key":"03241","name":"Region Hannover","type":"Landkreis"},"federalState":{"key":"03","name":"Niedersachsen"}},{"name":"Im Langen Mühlenfeld","postalCode":"31303","locality":"Burgdorf","municipality":{"key":"03241003","name":"Burgdorf, Stadt","type":"Stadt"},"district":{"key":"03241","name":"Region Hannover","type":"Landkreis"},"federalState":{"key":"03","name":"Niedersachsen"}},{"name":"Im Lindenhof","postalCode":"31303","locality":"Burgdorf","municipality":{"key":"03241003","name":"Burgdorf, Stadt","type":"Stadt"},"district":{"key":"03241","name":"Region Hannover","type":"Landkreis"},"federalState":{"key":"03","name":"Niedersachsen"}},{"name":"Immenser Landstr.","postalCode":"31303","locality":"Burgdorf","municipality":{"key":"03241003","name":"Burgdorf, Stadt","type":"Stadt"},"district":{"key":"03241","name":"Region Hannover","type":"Landkreis"},"federalState":{"key":"03","name":"Niedersachsen"}},{"name":"Immenser Str.","postalCode":"31303","locality":"Burgdorf","municipality":{"key":"03241003","name":"Burgdorf, Stadt","type":"Stadt"},"district":{"key":"03241","name":"Region Hannover","type":"Landkreis"},"federalState":{"key":"03","name":"Niedersachsen"}},{"name":"Im Osterfeld","postalCode":"38272","locality":"Burgdorf","municipality":{"key":"03158004","name":"Burgdorf","type":"Kreisangehörige_Gemeinde"},"district":{"key":"03158","name":"Wolfenbüttel","type":"Landkreis"},"federalState":{"key":"03","name":"Niedersachsen"}},{"name":"Im Paulsfeld","postalCode":"31303","locality":"Burgdorf","municipality":{"key":"03241003","name":"Burgdorf, Stadt","type":"Stadt"},"district":{"key":"03241","name":"Region Hannover","type":"Landkreis"},"federalState":{"key":"03","name":"Niedersachsen"}},{"name":"Im Schlage","postalCode":"38272","locality":"Burgdorf","municipality":{"key":"03158004","name":"Burgdorf","type":"Kreisangehörige_Gemeinde"},"district":{"key":"03158","name":"Wolfenbüttel","type":"Landkreis"},"federalState":{"key":"03","name":"Niedersachsen"}},{"name":"Im Sonneneck","postalCode":"31303","locality":"Burgdorf","municipality":{"key":"03241003","name":"Burgdorf, Stadt","type":"Stadt"},"district":{"key":"03241","name":"Region Hannover","type":"Landkreis"},"federalState":{"key":"03","name":"Niedersachsen"}},{"name":"Im stillen Winkel","postalCode":"38272","locality":"Burgdorf","municipality":{"key":"03158004","name":"Burgdorf","type":"Kreisangehörige_Gemeinde"},"district":{"key":"03158","name":"Wolfenbüttel","type":"Landkreis"},"federalState":{"key":"03","name":"Niedersachsen"}},{"name":"Im Stillen Winkel","postalCode":"31303","locality":"Burgdorf","municipality":{"key":"03241003","name":"Burgdorf, Stadt","type":"Stadt"},"district":{"key":"03241","name":"Region Hannover","type":"Landkreis"},"federalState":{"key":"03","name":"Niedersachsen"}},{"name":"Im Wiesengrund","postalCode":"31303","locality":"Burgdorf","municipality":{"key":"03241003","name":"Burgdorf, Stadt","type":"Stadt"},"district":{"key":"03241","name":"Region Hannover","type":"Landkreis"},"federalState":{"key":"03","name":"Niedersachsen"}},{"name":"Im Winkel","postalCode":"38272","locality":"Burgdorf","municipality":{"key":"03158004","name":"Burgdorf","type":"Kreisangehörige_Gemeinde"},"district":{"key":"03158","name":"Wolfenbüttel","type":"Landkreis"},"federalState":{"key":"03","name":"Niedersachsen"}},{"name":"In den Hormorgen","postalCode":"38272","locality":"Burgdorf","municipality":{"key":"03158004","name":"Burgdorf","type":"Kreisangehörige_Gemeinde"},"district":{"key":"03158","name":"Wolfenbüttel","type":"Landkreis"},"federalState":{"key":"03","name":"Niedersachsen"}},{"name":"In den Kämmern","postalCode":"31303","locality":"Burgdorf","municipality":{"key":"03241003","name":"Burgdorf, Stadt","type":"Stadt"},"district":{"key":"03241","name":"Region Hannover","type":"Landkreis"},"federalState":{"key":"03","name":"Niedersachsen"}},{"name":"In den Klappen","postalCode":"38272","locality":"Burgdorf","municipality":{"key":"03158004","name":"Burgdorf","type":"Kreisangehörige_Gemeinde"},"district":{"key":"03158","name":"Wolfenbüttel","type":"Landkreis"},"federalState":{"key":"03","name":"Niedersachsen"}},{"name":"Inselweg","postalCode":"31303","locality":"Burgdorf","municipality":{"key":"03241003","name":"Burgdorf, Stadt","type":"Stadt"},"district":{"key":"03241","name":"Region Hannover","type":"Landkreis"},"federalState":{"key":"03","name":"Niedersachsen"}},{"name":"Iseweg","postalCode":"31303","locality":"Burgdorf","municipality":{"key":"03241003","name":"Burgdorf, Stadt","type":"Stadt"},"district":{"key":"03241","name":"Region Hannover","type":"Landkreis"},"federalState":{"key":"03","name":"Niedersachsen"}},{"name":"Jägerstr.","postalCode":"31303","locality":"Burgdorf","municipality":{"key":"03241003","name":"Burgdorf, Stadt","type":"Stadt"},"district":{"key":"03241","name":"Region Hannover","type":"Landkreis"},"federalState":{"key":"03","name":"Niedersachsen"}},{"name":"Jahnstr.","postalCode":"31303","locality":"Burgdorf","municipality":{"key":"03241003","name":"Burgdorf, Stadt","type":"Stadt"},"district":{"key":"03241","name":"Region Hannover","type":"Landkreis"},"federalState":{"key":"03","name":"Niedersachsen"}},{"name":"Jeetzelweg","postalCode":"31303","locality":"Burgdorf","municipality":{"key":"03241003","name":"Burgdorf, Stadt","type":"Stadt"},"district":{"key":"03241","name":"Region Hannover","type":"Landkreis"},"federalState":{"key":"03","name":"Niedersachsen"}},{"name":"Juistweg","postalCode":"31303","locality":"Burgdorf","municipality":{"key":"03241003","name":"Burgdorf, Stadt","type":"Stadt"},"district":{"key":"03241","name":"Region Hannover","type":"Landkreis"},"federalState":{"key":"03","name":"Niedersachsen"}},{"name":"Kantstr.","postalCode":"31303","locality":"Burgdorf","municipality":{"key":"03241003","name":"Burgdorf, Stadt","type":"Stadt"},"district":{"key":"03241","name":"Region Hannover","type":"Landkreis"},"federalState":{"key":"03","name":"Niedersachsen"}},{"name":"Kapellenweg","postalCode":"31303","locality":"Burgdorf","municipality":{"key":"03241003","name":"Burgdorf, Stadt","type":"Stadt"},"district":{"key":"03241","name":"Region Hannover","type":"Landkreis"},"federalState":{"key":"03","name":"Niedersachsen"}},{"name":"Kasselberg","postalCode":"38272","locality":"Burgdorf","municipality":{"key":"03158004","name":"Burgdorf","type":"Kreisangehörige_Gemeinde"},"district":{"key":"03158","name":"Wolfenbüttel","type":"Landkreis"},"federalState":{"key":"03","name":"Niedersachsen"}},{"name":"Kastanieneck","postalCode":"31303","locality":"Burgdorf","municipality":{"key":"03241003","name":"Burgdorf, Stadt","type":"Stadt"},"district":{"key":"03241","name":"Region Hannover","type":"Landkreis"},"federalState":{"key":"03","name":"Niedersachsen"}},{"name":"Kattreppeln","postalCode":"38272","locality":"Burgdorf","municipality":{"key":"03158004","name":"Burgdorf","type":"Kreisangehörige_Gemeinde"},"district":{"key":"03158","name":"Wolfenbüttel","type":"Landkreis"},"federalState":{"key":"03","name":"Niedersachsen"}},{"name":"Kellermeyerweg","postalCode":"31303","locality":"Burgdorf","municipality":{"key":"03241003","name":"Burgdorf, Stadt","type":"Stadt"},"district":{"key":"03241","name":"Region Hannover","type":"Landkreis"},"federalState":{"key":"03","name":"Niedersachsen"}},{"name":"Keplerweg","postalCode":"31303","locality":"Burgdorf","municipality":{"key":"03241003","name":"Burgdorf, Stadt","type":"Stadt"},"district":{"key":"03241","name":"Region Hannover","type":"Landkreis"},"federalState":{"key":"03","name":"Niedersachsen"}},{"name":"Kiebitzweg","postalCode":"31303","locality":"Burgdorf","municipality":{"key":"03241003","name":"Burgdorf, Stadt","type":"Stadt"},"district":{"key":"03241","name":"Region Hannover","type":"Landkreis"},"federalState":{"key":"03","name":"Niedersachsen"}},{"name":"Kiefernweg","postalCode":"31303","locality":"Burgdorf","municipality":{"key":"03241003","name":"Burgdorf, Stadt","type":"Stadt"},"district":{"key":"03241","name":"Region Hannover","type":"Landkreis"},"federalState":{"key":"03","name":"Niedersachsen"}},{"name":"Kirchberg","postalCode":"31303","locality":"Burgdorf","municipality":{"key":"03241003","name":"Burgdorf, Stadt","type":"Stadt"},"district":{"key":"03241","name":"Region Hannover","type":"Landkreis"},"federalState":{"key":"03","name":"Niedersachsen"}},{"name":"Kirchstr.","postalCode":"38272","locality":"Burgdorf","municipality":{"key":"03158004","name":"Burgdorf","type":"Kreisangehörige_Gemeinde"},"district":{"key":"03158","name":"Wolfenbüttel","type":"Landkreis"},"federalState":{"key":"03","name":"Niedersachsen"}},{"name":"Klaukengasse","postalCode":"31303","locality":"Burgdorf","municipality":{"key":"03241003","name":"Burgdorf, Stadt","type":"Stadt"},"district":{"key":"03241","name":"Region Hannover","type":"Landkreis"},"federalState":{"key":"03","name":"Niedersachsen"}},{"name":"Klaus-Groth-Weg","postalCode":"31303","locality":"Burgdorf","municipality":{"key":"03241003","name":"Burgdorf, Stadt","type":"Stadt"},"district":{"key":"03241","name":"Region Hannover","type":"Landkreis"},"federalState":{"key":"03","name":"Niedersachsen"}},{"name":"Kleine Bahnhofstr.","postalCode":"31303","locality":"Burgdorf","municipality":{"key":"03241003","name":"Burgdorf, Stadt","type":"Stadt"},"district":{"key":"03241","name":"Region Hannover","type":"Landkreis"},"federalState":{"key":"03","name":"Niedersachsen"}},{"name":"Kleine Bergstr.","postalCode":"31303","locality":"Burgdorf","municipality":{"key":"03241003","name":"Burgdorf, Stadt","type":"Stadt"},"district":{"key":"03241","name":"Region Hannover","type":"Landkreis"},"federalState":{"key":"03","name":"Niedersachsen"}},{"name":"Kleiner Brückendamm","postalCode":"31303","locality":"Burgdorf","municipality":{"key":"03241003","name":"Burgdorf, Stadt","type":"Stadt"},"district":{"key":"03241","name":"Region Hannover","type":"Landkreis"},"federalState":{"key":"03","name":"Niedersachsen"}},{"name":"Klein Schillerslage","postalCode":"31303","locality":"Burgdorf","municipality":{"key":"03241003","name":"Burgdorf, Stadt","type":"Stadt"},"district":{"key":"03241","name":"Region Hannover","type":"Landkreis"},"federalState":{"key":"03","name":"Niedersachsen"}},{"name":"Kleiststr.","postalCode":"31303","locality":"Burgdorf","municipality":{"key":"03241003","name":"Burgdorf, Stadt","type":"Stadt"},"district":{"key":"03241","name":"Region Hannover","type":"Landkreis"},"federalState":{"key":"03","name":"Niedersachsen"}},{"name":"Klüterstr.","postalCode":"38272","locality":"Burgdorf","municipality":{"key":"03158004","name":"Burgdorf","type":"Kreisangehörige_Gemeinde"},"district":{"key":"03158","name":"Wolfenbüttel","type":"Landkreis"},"federalState":{"key":"03","name":"Niedersachsen"}},{"name":"Knickstr.","postalCode":"31303","locality":"Burgdorf","municipality":{"key":"03241003","name":"Burgdorf, Stadt","type":"Stadt"},"district":{"key":"03241","name":"Region Hannover","type":"Landkreis"},"federalState":{"key":"03","name":"Niedersachsen"}},{"name":"Knopsberg","postalCode":"31303","locality":"Burgdorf","municipality":{"key":"03241003","name":"Burgdorf, Stadt","type":"Stadt"},"district":{"key":"03241","name":"Region Hannover","type":"Landkreis"},"federalState":{"key":"03","name":"Niedersachsen"}},{"name":"Knüppelberg","postalCode":"38272","locality":"Burgdorf","municipality":{"key":"03158004","name":"Burgdorf","type":"Kreisangehörige_Gemeinde"},"district":{"key":"03158","name":"Wolfenbüttel","type":"Landkreis"},"federalState":{"key":"03","name":"Niedersachsen"}},{"name":"Kolberger Str.","postalCode":"31303","locality":"Burgdorf","municipality":{"key":"03241003","name":"Burgdorf, Stadt","type":"Stadt"},"district":{"key":"03241","name":"Region Hannover","type":"Landkreis"},"federalState":{"key":"03","name":"Niedersachsen"}},{"name":"Kolshorner Weg","postalCode":"31303","locality":"Burgdorf","municipality":{"key":"03241003","name":"Burgdorf, Stadt","type":"Stadt"},"district":{"key":"03241","name":"Region Hannover","type":"Landkreis"},"federalState":{"key":"03","name":"Niedersachsen"}},{"name":"Königsberger Str.","postalCode":"31303","locality":"Burgdorf","municipality":{"key":"03241003","name":"Burgdorf, Stadt","type":"Stadt"},"district":{"key":"03241","name":"Region Hannover","type":"Landkreis"},"federalState":{"key":"03","name":"Niedersachsen"}},{"name":"Körnerstr.","postalCode":"31303","locality":"Burgdorf","municipality":{"key":"03241003","name":"Burgdorf, Stadt","type":"Stadt"},"district":{"key":"03241","name":"Region Hannover","type":"Landkreis"},"federalState":{"key":"03","name":"Niedersachsen"}},{"name":"Köthnerkamp","postalCode":"31303","locality":"Burgdorf","municipality":{"key":"03241003","name":"Burgdorf, Stadt","type":"Stadt"},"district":{"key":"03241","name":"Region Hannover","type":"Landkreis"},"federalState":{"key":"03","name":"Niedersachsen"}},{"name":"Krähenwinkel","postalCode":"31303","locality":"Burgdorf","municipality":{"key":"03241003","name":"Burgdorf, Stadt","type":"Stadt"},"district":{"key":"03241","name":"Region Hannover","type":"Landkreis"},"federalState":{"key":"03","name":"Niedersachsen"}},{"name":"Kreisbahnstr.","postalCode":"31303","locality":"Burgdorf","municipality":{"key":"03241003","name":"Burgdorf, Stadt","type":"Stadt"},"district":{"key":"03241","name":"Region Hannover","type":"Landkreis"},"federalState":{"key":"03","name":"Niedersachsen"}},{"name":"Kreuzbruch","postalCode":"31303","locality":"Burgdorf","municipality":{"key":"03241003","name":"Burgdorf, Stadt","type":"Stadt"},"district":{"key":"03241","name":"Region Hannover","type":"Landkreis"},"federalState":{"key":"03","name":"Niedersachsen"}},{"name":"Kronenkamp","postalCode":"31303","locality":"Burgdorf","municipality":{"key":"03241003","name":"Burgdorf, Stadt","type":"Stadt"},"district":{"key":"03241","name":"Region Hannover","type":"Landkreis"},"federalState":{"key":"03","name":"Niedersachsen"}},{"name":"Kronsberg","postalCode":"31303","locality":"Burgdorf","municipality":{"key":"03241003","name":"Burgdorf, Stadt","type":"Stadt"},"district":{"key":"03241","name":"Region Hannover","type":"Landkreis"},"federalState":{"key":"03","name":"Niedersachsen"}},{"name":"Kurzer Hoop","postalCode":"31303","locality":"Burgdorf","municipality":{"key":"03241003","name":"Burgdorf, Stadt","type":"Stadt"},"district":{"key":"03241","name":"Region Hannover","type":"Landkreis"},"federalState":{"key":"03","name":"Niedersachsen"}},{"name":"Kurzer Weg","postalCode":"31303","locality":"Burgdorf","municipality":{"key":"03241003","name":"Burgdorf, Stadt","type":"Stadt"},"district":{"key":"03241","name":"Region Hannover","type":"Landkreis"},"federalState":{"key":"03","name":"Niedersachsen"}},{"name":"Lachteweg","postalCode":"31303","locality":"Burgdorf","municipality":{"key":"03241003","name":"Burgdorf, Stadt","type":"Stadt"},"district":{"key":"03241","name":"Region Hannover","type":"Landkreis"},"federalState":{"key":"03","name":"Niedersachsen"}},{"name":"Langeoogstr.","postalCode":"31303","locality":"Burgdorf","municipality":{"key":"03241003","name":"Burgdorf, Stadt","type":"Stadt"},"district":{"key":"03241","name":"Region Hannover","type":"Landkreis"},"federalState":{"key":"03","name":"Niedersachsen"}},{"name":"Laubenweg","postalCode":"31303","locality":"Burgdorf","municipality":{"key":"03241003","name":"Burgdorf, Stadt","type":"Stadt"},"district":{"key":"03241","name":"Region Hannover","type":"Landkreis"},"federalState":{"key":"03","name":"Niedersachsen"}},{"name":"Lehmkuhlenweg","postalCode":"31303","locality":"Burgdorf","municipality":{"key":"03241003","name":"Burgdorf, Stadt","type":"Stadt"},"district":{"key":"03241","name":"Region Hannover","type":"Landkreis"},"federalState":{"key":"03","name":"Niedersachsen"}},{"name":"Lehrter Str.","postalCode":"31303","locality":"Burgdorf","municipality":{"key":"03241003","name":"Burgdorf, Stadt","type":"Stadt"},"district":{"key":"03241","name":"Region Hannover","type":"Landkreis"},"federalState":{"key":"03","name":"Niedersachsen"}},{"name":"Leibnizweg","postalCode":"31303","locality":"Burgdorf","municipality":{"key":"03241003","name":"Burgdorf, Stadt","type":"Stadt"},"district":{"key":"03241","name":"Region Hannover","type":"Landkreis"},"federalState":{"key":"03","name":"Niedersachsen"}},{"name":"Leinemannweg","postalCode":"31303","locality":"Burgdorf","municipality":{"key":"03241003","name":"Burgdorf, Stadt","type":"Stadt"},"district":{"key":"03241","name":"Region Hannover","type":"Landkreis"},"federalState":{"key":"03","name":"Niedersachsen"}},{"name":"Leineweberstr.","postalCode":"31303","locality":"Burgdorf","municipality":{"key":"03241003","name":"Burgdorf, Stadt","type":"Stadt"},"district":{"key":"03241","name":"Region Hannover","type":"Landkreis"},"federalState":{"key":"03","name":"Niedersachsen"}},{"name":"Leipziger Str.","postalCode":"31303","locality":"Burgdorf","municipality":{"key":"03241003","name":"Burgdorf, Stadt","type":"Stadt"},"district":{"key":"03241","name":"Region Hannover","type":"Landkreis"},"federalState":{"key":"03","name":"Niedersachsen"}},{"name":"Lerchenring","postalCode":"38272","locality":"Burgdorf","municipality":{"key":"03158004","name":"Burgdorf","type":"Kreisangehörige_Gemeinde"},"district":{"key":"03158","name":"Wolfenbüttel","type":"Landkreis"},"federalState":{"key":"03","name":"Niedersachsen"}},{"name":"Lerchenstr.","postalCode":"31303","locality":"Burgdorf","municipality":{"key":"03241003","name":"Burgdorf, Stadt","type":"Stadt"},"district":{"key":"03241","name":"Region Hannover","type":"Landkreis"},"federalState":{"key":"03","name":"Niedersachsen"}},{"name":"Lessingstr.","postalCode":"31303","locality":"Burgdorf","municipality":{"key":"03241003","name":"Burgdorf, Stadt","type":"Stadt"},"district":{"key":"03241","name":"Region Hannover","type":"Landkreis"},"federalState":{"key":"03","name":"Niedersachsen"}},{"name":"Liebermannstr.","postalCode":"31303","locality":"Burgdorf","municipality":{"key":"03241003","name":"Burgdorf, Stadt","type":"Stadt"},"district":{"key":"03241","name":"Region Hannover","type":"Landkreis"},"federalState":{"key":"03","name":"Niedersachsen"}},{"name":"Liebigstr.","postalCode":"31303","locality":"Burgdorf","municipality":{"key":"03241003","name":"Burgdorf, Stadt","type":"Stadt"},"district":{"key":"03241","name":"Region Hannover","type":"Landkreis"},"federalState":{"key":"03","name":"Niedersachsen"}},{"name":"Liegnitzer Str.","postalCode":"31303","locality":"Burgdorf","municipality":{"key":"03241003","name":"Burgdorf, Stadt","type":"Stadt"},"district":{"key":"03241","name":"Region Hannover","type":"Landkreis"},"federalState":{"key":"03","name":"Niedersachsen"}},{"name":"Lindenweg","postalCode":"31303","locality":"Burgdorf","municipality":{"key":"03241003","name":"Burgdorf, Stadt","type":"Stadt"},"district":{"key":"03241","name":"Region Hannover","type":"Landkreis"},"federalState":{"key":"03","name":"Niedersachsen"}},{"name":"Lippoldstr.","postalCode":"31303","locality":"Burgdorf","municipality":{"key":"03241003","name":"Burgdorf, Stadt","type":"Stadt"},"district":{"key":"03241","name":"Region Hannover","type":"Landkreis"},"federalState":{"key":"03","name":"Niedersachsen"}},{"name":"Lise-Meitner-Str.","postalCode":"31303","locality":"Burgdorf","municipality":{"key":"03241003","name":"Burgdorf, Stadt","type":"Stadt"},"district":{"key":"03241","name":"Region Hannover","type":"Landkreis"},"federalState":{"key":"03","name":"Niedersachsen"}},{"name":"Loheweg","postalCode":"31303","locality":"Burgdorf","municipality":{"key":"03241003","name":"Burgdorf, Stadt","type":"Stadt"},"district":{"key":"03241","name":"Region Hannover","type":"Landkreis"},"federalState":{"key":"03","name":"Niedersachsen"}},{"name":"Lohgerberstr.","postalCode":"31303","locality":"Burgdorf","municipality":{"key":"03241003","name":"Burgdorf, Stadt","type":"Stadt"},"district":{"key":"03241","name":"Region Hannover","type":"Landkreis"},"federalState":{"key":"03","name":"Niedersachsen"}},{"name":"Louisenstr.","postalCode":"31303","locality":"Burgdorf","municipality":{"key":"03241003","name":"Burgdorf, Stadt","type":"Stadt"},"district":{"key":"03241","name":"Region Hannover","type":"Landkreis"},"federalState":{"key":"03","name":"Niedersachsen"}},{"name":"Luchsweg","postalCode":"31303","locality":"Burgdorf","municipality":{"key":"03241003","name":"Burgdorf, Stadt","type":"Stadt"},"district":{"key":"03241","name":"Region Hannover","type":"Landkreis"},"federalState":{"key":"03","name":"Niedersachsen"}},{"name":"Lüneburger Str.","postalCode":"31303","locality":"Burgdorf","municipality":{"key":"03241003","name":"Burgdorf, Stadt","type":"Stadt"},"district":{"key":"03241","name":"Region Hannover","type":"Landkreis"},"federalState":{"key":"03","name":"Niedersachsen"}},{"name":"Lustgarten","postalCode":"31303","locality":"Burgdorf","municipality":{"key":"03241003","name":"Burgdorf, Stadt","type":"Stadt"},"district":{"key":"03241","name":"Region Hannover","type":"Landkreis"},"federalState":{"key":"03","name":"Niedersachsen"}},{"name":"Magarethe-Cohn-Str.","postalCode":"31303","locality":"Burgdorf","municipality":{"key":"03241003","name":"Burgdorf, Stadt","type":"Stadt"},"district":{"key":"03241","name":"Region Hannover","type":"Landkreis"},"federalState":{"key":"03","name":"Niedersachsen"}},{"name":"Magdalenenweg","postalCode":"31303","locality":"Burgdorf","municipality":{"key":"03241003","name":"Burgdorf, Stadt","type":"Stadt"},"district":{"key":"03241","name":"Region Hannover","type":"Landkreis"},"federalState":{"key":"03","name":"Niedersachsen"}},{"name":"Marderstr.","postalCode":"31303","locality":"Burgdorf","municipality":{"key":"03241003","name":"Burgdorf, Stadt","type":"Stadt"},"district":{"key":"03241","name":"Region Hannover","type":"Landkreis"},"federalState":{"key":"03","name":"Niedersachsen"}},{"name":"Margarethe-Cohn-Str.","postalCode":"31303","locality":"Burgdorf","municipality":{"key":"03241003","name":"Burgdorf, Stadt","type":"Stadt"},"district":{"key":"03241","name":"Region Hannover","type":"Landkreis"},"federalState":{"key":"03","name":"Niedersachsen"}},{"name":"Marktstr.","postalCode":"31303","locality":"Burgdorf","municipality":{"key":"03241003","name":"Burgdorf, Stadt","type":"Stadt"},"district":{"key":"03241","name":"Region Hannover","type":"Landkreis"},"federalState":{"key":"03","name":"Niedersachsen"}},{"name":"Marris-Mühlen-Weg","postalCode":"31303","locality":"Burgdorf","municipality":{"key":"03241003","name":"Burgdorf, Stadt","type":"Stadt"},"district":{"key":"03241","name":"Region Hannover","type":"Landkreis"},"federalState":{"key":"03","name":"Niedersachsen"}},{"name":"Masurenstr.","postalCode":"31303","locality":"Burgdorf","municipality":{"key":"03241003","name":"Burgdorf, Stadt","type":"Stadt"},"district":{"key":"03241","name":"Region Hannover","type":"Landkreis"},"federalState":{"key":"03","name":"Niedersachsen"}},{"name":"Mäversweg","postalCode":"38272","locality":"Burgdorf","municipality":{"key":"03158004","name":"Burgdorf","type":"Kreisangehörige_Gemeinde"},"district":{"key":"03158","name":"Wolfenbüttel","type":"Landkreis"},"federalState":{"key":"03","name":"Niedersachsen"}},{"name":"Meerfeld","postalCode":"31303","locality":"Burgdorf","municipality":{"key":"03241003","name":"Burgdorf, Stadt","type":"Stadt"},"district":{"key":"03241","name":"Region Hannover","type":"Landkreis"},"federalState":{"key":"03","name":"Niedersachsen"}},{"name":"Meinackersgrund","postalCode":"31303","locality":"Burgdorf","municipality":{"key":"03241003","name":"Burgdorf, Stadt","type":"Stadt"},"district":{"key":"03241","name":"Region Hannover","type":"Landkreis"},"federalState":{"key":"03","name":"Niedersachsen"}},{"name":"Meisenweg","postalCode":"31303","locality":"Burgdorf","municipality":{"key":"03241003","name":"Burgdorf, Stadt","type":"Stadt"},"district":{"key":"03241","name":"Region Hannover","type":"Landkreis"},"federalState":{"key":"03","name":"Niedersachsen"}},{"name":"Memeler Str.","postalCode":"31303","locality":"Burgdorf","municipality":{"key":"03241003","name":"Burgdorf, Stadt","type":"Stadt"},"district":{"key":"03241","name":"Region Hannover","type":"Landkreis"},"federalState":{"key":"03","name":"Niedersachsen"}},{"name":"Messenberg","postalCode":"31303","locality":"Burgdorf","municipality":{"key":"03241003","name":"Burgdorf, Stadt","type":"Stadt"},"district":{"key":"03241","name":"Region Hannover","type":"Landkreis"},"federalState":{"key":"03","name":"Niedersachsen"}},{"name":"Milanweg","postalCode":"31303","locality":"Burgdorf","municipality":{"key":"03241003","name":"Burgdorf, Stadt","type":"Stadt"},"district":{"key":"03241","name":"Region Hannover","type":"Landkreis"},"federalState":{"key":"03","name":"Niedersachsen"}},{"name":"Minnenstr.","postalCode":"31303","locality":"Burgdorf","municipality":{"key":"03241003","name":"Burgdorf, Stadt","type":"Stadt"},"district":{"key":"03241","name":"Region Hannover","type":"Landkreis"},"federalState":{"key":"03","name":"Niedersachsen"}},{"name":"Misdroyer Str.","postalCode":"31303","locality":"Burgdorf","municipality":{"key":"03241003","name":"Burgdorf, Stadt","type":"Stadt"},"district":{"key":"03241","name":"Region Hannover","type":"Landkreis"},"federalState":{"key":"03","name":"Niedersachsen"}},{"name":"Mittelstr.","postalCode":"31303","locality":"Burgdorf","municipality":{"key":"03241003","name":"Burgdorf, Stadt","type":"Stadt"},"district":{"key":"03241","name":"Region Hannover","type":"Landkreis"},"federalState":{"key":"03","name":"Niedersachsen"}},{"name":"Mittelstr.","postalCode":"38272","locality":"Burgdorf","municipality":{"key":"03158004","name":"Burgdorf","type":"Kreisangehörige_Gemeinde"},"district":{"key":"03158","name":"Wolfenbüttel","type":"Landkreis"},"federalState":{"key":"03","name":"Niedersachsen"}},{"name":"Mönkeburgstr.","postalCode":"31303","locality":"Burgdorf","municipality":{"key":"03241003","name":"Burgdorf, Stadt","type":"Stadt"},"district":{"key":"03241","name":"Region Hannover","type":"Landkreis"},"federalState":{"key":"03","name":"Niedersachsen"}},{"name":"Moormühlenweg","postalCode":"31303","locality":"Burgdorf","municipality":{"key":"03241003","name":"Burgdorf, Stadt","type":"Stadt"},"district":{"key":"03241","name":"Region Hannover","type":"Landkreis"},"federalState":{"key":"03","name":"Niedersachsen"}},{"name":"Moorstr.","postalCode":"31303","locality":"Burgdorf","municipality":{"key":"03241003","name":"Burgdorf, Stadt","type":"Stadt"},"district":{"key":"03241","name":"Region Hannover","type":"Landkreis"},"federalState":{"key":"03","name":"Niedersachsen"}},{"name":"Mörikeweg","postalCode":"31303","locality":"Burgdorf","municipality":{"key":"03241003","name":"Burgdorf, Stadt","type":"Stadt"},"district":{"key":"03241","name":"Region Hannover","type":"Landkreis"},"federalState":{"key":"03","name":"Niedersachsen"}},{"name":"Mozartstr.","postalCode":"31303","locality":"Burgdorf","municipality":{"key":"03241003","name":"Burgdorf, Stadt","type":"Stadt"},"district":{"key":"03241","name":"Region Hannover","type":"Landkreis"},"federalState":{"key":"03","name":"Niedersachsen"}},{"name":"Mühle","postalCode":"38272","locality":"Burgdorf","municipality":{"key":"03158004","name":"Burgdorf","type":"Kreisangehörige_Gemeinde"},"district":{"key":"03158","name":"Wolfenbüttel","type":"Landkreis"},"federalState":{"key":"03","name":"Niedersachsen"}},{"name":"Mühlenstr.","postalCode":"31303","locality":"Burgdorf","municipality":{"key":"03241003","name":"Burgdorf, Stadt","type":"Stadt"},"district":{"key":"03241","name":"Region Hannover","type":"Landkreis"},"federalState":{"key":"03","name":"Niedersachsen"}},{"name":"Münchhausenstieg","postalCode":"31303","locality":"Burgdorf","municipality":{"key":"03241003","name":"Burgdorf, Stadt","type":"Stadt"},"district":{"key":"03241","name":"Region Hannover","type":"Landkreis"},"federalState":{"key":"03","name":"Niedersachsen"}},{"name":"Müsseweg","postalCode":"31303","locality":"Burgdorf","municipality":{"key":"03241003","name":"Burgdorf, Stadt","type":"Stadt"},"district":{"key":"03241","name":"Region Hannover","type":"Landkreis"},"federalState":{"key":"03","name":"Niedersachsen"}},{"name":"Nachtigallenweg","postalCode":"31303","locality":"Burgdorf","municipality":{"key":"03241003","name":"Burgdorf, Stadt","type":"Stadt"},"district":{"key":"03241","name":"Region Hannover","type":"Landkreis"},"federalState":{"key":"03","name":"Niedersachsen"}},{"name":"Nelkenweg","postalCode":"31303","locality":"Burgdorf","municipality":{"key":"03241003","name":"Burgdorf, Stadt","type":"Stadt"},"district":{"key":"03241","name":"Region Hannover","type":"Landkreis"},"federalState":{"key":"03","name":"Niedersachsen"}},{"name":"Nettlinger Str.","postalCode":"38272","locality":"Burgdorf","municipality":{"key":"03158004","name":"Burgdorf","type":"Kreisangehörige_Gemeinde"},"district":{"key":"03158","name":"Wolfenbüttel","type":"Landkreis"},"federalState":{"key":"03","name":"Niedersachsen"}},{"name":"Neuer Weg","postalCode":"38272","locality":"Burgdorf","municipality":{"key":"03158004","name":"Burgdorf","type":"Kreisangehörige_Gemeinde"},"district":{"key":"03158","name":"Wolfenbüttel","type":"Landkreis"},"federalState":{"key":"03","name":"Niedersachsen"}},{"name":"Neue Torstr.","postalCode":"31303","locality":"Burgdorf","municipality":{"key":"03241003","name":"Burgdorf, Stadt","type":"Stadt"},"district":{"key":"03241","name":"Region Hannover","type":"Landkreis"},"federalState":{"key":"03","name":"Niedersachsen"}},{"name":"Neuwerkweg","postalCode":"31303","locality":"Burgdorf","municipality":{"key":"03241003","name":"Burgdorf, Stadt","type":"Stadt"},"district":{"key":"03241","name":"Region Hannover","type":"Landkreis"},"federalState":{"key":"03","name":"Niedersachsen"}},{"name":"Niedersachsenring","postalCode":"31303","locality":"Burgdorf","municipality":{"key":"03241003","name":"Burgdorf, Stadt","type":"Stadt"},"district":{"key":"03241","name":"Region Hannover","type":"Landkreis"},"federalState":{"key":"03","name":"Niedersachsen"}},{"name":"Norderneystr.","postalCode":"31303","locality":"Burgdorf","municipality":{"key":"03241003","name":"Burgdorf, Stadt","type":"Stadt"},"district":{"key":"03241","name":"Region Hannover","type":"Landkreis"},"federalState":{"key":"03","name":"Niedersachsen"}},{"name":"Nordstr.","postalCode":"31303","locality":"Burgdorf","municipality":{"key":"03241003","name":"Burgdorf, Stadt","type":"Stadt"},"district":{"key":"03241","name":"Region Hannover","type":"Landkreis"},"federalState":{"key":"03","name":"Niedersachsen"}},{"name":"Obershagener Str.","postalCode":"31303","locality":"Burgdorf","municipality":{"key":"03241003","name":"Burgdorf, Stadt","type":"Stadt"},"district":{"key":"03241","name":"Region Hannover","type":"Landkreis"},"federalState":{"key":"03","name":"Niedersachsen"}},{"name":"Oelber Weg","postalCode":"38272","locality":"Burgdorf","municipality":{"key":"03158004","name":"Burgdorf","type":"Kreisangehörige_Gemeinde"},"district":{"key":"03158","name":"Wolfenbüttel","type":"Landkreis"},"federalState":{"key":"03","name":"Niedersachsen"}},{"name":"Okerweg","postalCode":"31303","locality":"Burgdorf","municipality":{"key":"03241003","name":"Burgdorf, Stadt","type":"Stadt"},"district":{"key":"03241","name":"Region Hannover","type":"Landkreis"},"federalState":{"key":"03","name":"Niedersachsen"}},{"name":"Oldhorster Moor","postalCode":"31303","locality":"Burgdorf","municipality":{"key":"03241003","name":"Burgdorf, Stadt","type":"Stadt"},"district":{"key":"03241","name":"Region Hannover","type":"Landkreis"},"federalState":{"key":"03","name":"Niedersachsen"}},{"name":"Ortbruch","postalCode":"31303","locality":"Burgdorf","municipality":{"key":"03241003","name":"Burgdorf, Stadt","type":"Stadt"},"district":{"key":"03241","name":"Region Hannover","type":"Landkreis"},"federalState":{"key":"03","name":"Niedersachsen"}},{"name":"Osterfeuer Ramlingen","postalCode":"31303","locality":"Burgdorf","municipality":{"key":"03241003","name":"Burgdorf, Stadt","type":"Stadt"},"district":{"key":"03241","name":"Region Hannover","type":"Landkreis"},"federalState":{"key":"03","name":"Niedersachsen"}},{"name":"Osterlinder Str.","postalCode":"38272","locality":"Burgdorf","municipality":{"key":"03158004","name":"Burgdorf","type":"Kreisangehörige_Gemeinde"},"district":{"key":"03158","name":"Wolfenbüttel","type":"Landkreis"},"federalState":{"key":"03","name":"Niedersachsen"}},{"name":"Ostlandring","postalCode":"31303","locality":"Burgdorf","municipality":{"key":"03241003","name":"Burgdorf, Stadt","type":"Stadt"},"district":{"key":"03241","name":"Region Hannover","type":"Landkreis"},"federalState":{"key":"03","name":"Niedersachsen"}},{"name":"Oststr.","postalCode":"38272","locality":"Burgdorf","municipality":{"key":"03158004","name":"Burgdorf","type":"Kreisangehörige_Gemeinde"},"district":{"key":"03158","name":"Wolfenbüttel","type":"Landkreis"},"federalState":{"key":"03","name":"Niedersachsen"}},{"name":"Otto-Hahn-Str.","postalCode":"31303","locality":"Burgdorf","municipality":{"key":"03241003","name":"Burgdorf, Stadt","type":"Stadt"},"district":{"key":"03241","name":"Region Hannover","type":"Landkreis"},"federalState":{"key":"03","name":"Niedersachsen"}},{"name":"Otzer Landstr.","postalCode":"31303","locality":"Burgdorf","municipality":{"key":"03241003","name":"Burgdorf, Stadt","type":"Stadt"},"district":{"key":"03241","name":"Region Hannover","type":"Landkreis"},"federalState":{"key":"03","name":"Niedersachsen"}},{"name":"Pahlberg","postalCode":"31303","locality":"Burgdorf","municipality":{"key":"03241003","name":"Burgdorf, Stadt","type":"Stadt"},"district":{"key":"03241","name":"Region Hannover","type":"Landkreis"},"federalState":{"key":"03","name":"Niedersachsen"}},{"name":"Papenkamp","postalCode":"31303","locality":"Burgdorf","municipality":{"key":"03241003","name":"Burgdorf, Stadt","type":"Stadt"},"district":{"key":"03241","name":"Region Hannover","type":"Landkreis"},"federalState":{"key":"03","name":"Niedersachsen"}},{"name":"Papenwiese","postalCode":"38272","locality":"Burgdorf","municipality":{"key":"03158004","name":"Burgdorf","type":"Kreisangehörige_Gemeinde"},"district":{"key":"03158","name":"Wolfenbüttel","type":"Landkreis"},"federalState":{"key":"03","name":"Niedersachsen"}},{"name":"Paradiesweg","postalCode":"31303","locality":"Burgdorf","municipality":{"key":"03241003","name":"Burgdorf, Stadt","type":"Stadt"},"district":{"key":"03241","name":"Region Hannover","type":"Landkreis"},"federalState":{"key":"03","name":"Niedersachsen"}},{"name":"Parkstr.","postalCode":"31303","locality":"Burgdorf","municipality":{"key":"03241003","name":"Burgdorf, Stadt","type":"Stadt"},"district":{"key":"03241","name":"Region Hannover","type":"Landkreis"},"federalState":{"key":"03","name":"Niedersachsen"}},{"name":"Paul-Lincke-Weg","postalCode":"31303","locality":"Burgdorf","municipality":{"key":"03241003","name":"Burgdorf, Stadt","type":"Stadt"},"district":{"key":"03241","name":"Region Hannover","type":"Landkreis"},"federalState":{"key":"03","name":"Niedersachsen"}},{"name":"Peiner Weg","postalCode":"31303","locality":"Burgdorf","municipality":{"key":"03241003","name":"Burgdorf, Stadt","type":"Stadt"},"district":{"key":"03241","name":"Region Hannover","type":"Landkreis"},"federalState":{"key":"03","name":"Niedersachsen"}},{"name":"Petersstr.","postalCode":"31303","locality":"Burgdorf","municipality":{"key":"03241003","name":"Burgdorf, Stadt","type":"Stadt"},"district":{"key":"03241","name":"Region Hannover","type":"Landkreis"},"federalState":{"key":"03","name":"Niedersachsen"}},{"name":"Pfingstangerweg","postalCode":"38272","locality":"Burgdorf","municipality":{"key":"03158004","name":"Burgdorf","type":"Kreisangehörige_Gemeinde"},"district":{"key":"03158","name":"Wolfenbüttel","type":"Landkreis"},"federalState":{"key":"03","name":"Niedersachsen"}},{"name":"Pirolweg","postalCode":"31303","locality":"Burgdorf","municipality":{"key":"03241003","name":"Burgdorf, Stadt","type":"Stadt"},"district":{"key":"03241","name":"Region Hannover","type":"Landkreis"},"federalState":{"key":"03","name":"Niedersachsen"}},{"name":"Plantagenweg","postalCode":"31303","locality":"Burgdorf","municipality":{"key":"03241003","name":"Burgdorf, Stadt","type":"Stadt"},"district":{"key":"03241","name":"Region Hannover","type":"Landkreis"},"federalState":{"key":"03","name":"Niedersachsen"}},{"name":"Posener Str.","postalCode":"31303","locality":"Burgdorf","municipality":{"key":"03241003","name":"Burgdorf, Stadt","type":"Stadt"},"district":{"key":"03241","name":"Region Hannover","type":"Landkreis"},"federalState":{"key":"03","name":"Niedersachsen"}},{"name":"Poststr.","postalCode":"31303","locality":"Burgdorf","municipality":{"key":"03241003","name":"Burgdorf, Stadt","type":"Stadt"},"district":{"key":"03241","name":"Region Hannover","type":"Landkreis"},"federalState":{"key":"03","name":"Niedersachsen"}},{"name":"Potsdamer Winkel","postalCode":"31303","locality":"Burgdorf","municipality":{"key":"03241003","name":"Burgdorf, Stadt","type":"Stadt"},"district":{"key":"03241","name":"Region Hannover","type":"Landkreis"},"federalState":{"key":"03","name":"Niedersachsen"}},{"name":"Quellenweg","postalCode":"38302","locality":"Wolfenbüttel","municipality":{"key":"03158037","name":"Wolfenbüttel, Stadt","type":"Stadt"},"district":{"key":"03158","name":"Wolfenbüttel","type":"Landkreis"},"federalState":{"key":"03","name":"Niedersachsen"}},{"name":"Raabeweg","postalCode":"31303","locality":"Burgdorf","municipality":{"key":"03241003","name":"Burgdorf, Stadt","type":"Stadt"},"district":{"key":"03241","name":"Region Hannover","type":"Landkreis"},"federalState":{"key":"03","name":"Niedersachsen"}},{"name":"Raiffeisenstr.","postalCode":"31303","locality":"Burgdorf","municipality":{"key":"03241003","name":"Burgdorf, Stadt","type":"Stadt"},"district":{"key":"03241","name":"Region Hannover","type":"Landkreis"},"federalState":{"key":"03","name":"Niedersachsen"}},{"name":"Ramlinger Str.","postalCode":"31303","locality":"Burgdorf","municipality":{"key":"03241003","name":"Burgdorf, Stadt","type":"Stadt"},"district":{"key":"03241","name":"Region Hannover","type":"Landkreis"},"federalState":{"key":"03","name":"Niedersachsen"}},{"name":"Rapsfeld","postalCode":"31303","locality":"Burgdorf","municipality":{"key":"03241003","name":"Burgdorf, Stadt","type":"Stadt"},"district":{"key":"03241","name":"Region Hannover","type":"Landkreis"},"federalState":{"key":"03","name":"Niedersachsen"}},{"name":"Rathausstr.","postalCode":"31303","locality":"Burgdorf","municipality":{"key":"03241003","name":"Burgdorf, Stadt","type":"Stadt"},"district":{"key":"03241","name":"Region Hannover","type":"Landkreis"},"federalState":{"key":"03","name":"Niedersachsen"}},{"name":"Ratsweg","postalCode":"31303","locality":"Burgdorf","municipality":{"key":"03241003","name":"Burgdorf, Stadt","type":"Stadt"},"district":{"key":"03241","name":"Region Hannover","type":"Landkreis"},"federalState":{"key":"03","name":"Niedersachsen"}},{"name":"Rehmweg","postalCode":"31303","locality":"Burgdorf","municipality":{"key":"03241003","name":"Burgdorf, Stadt","type":"Stadt"},"district":{"key":"03241","name":"Region Hannover","type":"Landkreis"},"federalState":{"key":"03","name":"Niedersachsen"}},{"name":"Rehsprung","postalCode":"31303","locality":"Burgdorf","municipality":{"key":"03241003","name":"Burgdorf, Stadt","type":"Stadt"},"district":{"key":"03241","name":"Region Hannover","type":"Landkreis"},"federalState":{"key":"03","name":"Niedersachsen"}},{"name":"Reichweinstr.","postalCode":"31303","locality":"Burgdorf","municipality":{"key":"03241003","name":"Burgdorf, Stadt","type":"Stadt"},"district":{"key":"03241","name":"Region Hannover","type":"Landkreis"},"federalState":{"key":"03","name":"Niedersachsen"}},{"name":"Reiherstieg","postalCode":"31303","locality":"Burgdorf","municipality":{"key":"03241003","name":"Burgdorf, Stadt","type":"Stadt"},"district":{"key":"03241","name":"Region Hannover","type":"Landkreis"},"federalState":{"key":"03","name":"Niedersachsen"}},{"name":"Retschystr.","postalCode":"31303","locality":"Burgdorf","municipality":{"key":"03241003","name":"Burgdorf, Stadt","type":"Stadt"},"district":{"key":"03241","name":"Region Hannover","type":"Landkreis"},"federalState":{"key":"03","name":"Niedersachsen"}},{"name":"Reuterstr.","postalCode":"31303","locality":"Burgdorf","municipality":{"key":"03241003","name":"Burgdorf, Stadt","type":"Stadt"},"district":{"key":"03241","name":"Region Hannover","type":"Landkreis"},"federalState":{"key":"03","name":"Niedersachsen"}},{"name":"Rhedener Str.","postalCode":"31303","locality":"Burgdorf","municipality":{"key":"03241003","name":"Burgdorf, Stadt","type":"Stadt"},"district":{"key":"03241","name":"Region Hannover","type":"Landkreis"},"federalState":{"key":"03","name":"Niedersachsen"}},{"name":"Richard-Wagner-Str.","postalCode":"31303","locality":"Burgdorf","municipality":{"key":"03241003","name":"Burgdorf, Stadt","type":"Stadt"},"district":{"key":"03241","name":"Region Hannover","type":"Landkreis"},"federalState":{"key":"03","name":"Niedersachsen"}},{"name":"Rieheweg","postalCode":"31303","locality":"Burgdorf","municipality":{"key":"03241003","name":"Burgdorf, Stadt","type":"Stadt"},"district":{"key":"03241","name":"Region Hannover","type":"Landkreis"},"federalState":{"key":"03","name":"Niedersachsen"}},{"name":"Riethornweg","postalCode":"31303","locality":"Burgdorf","municipality":{"key":"03241003","name":"Burgdorf, Stadt","type":"Stadt"},"district":{"key":"03241","name":"Region Hannover","type":"Landkreis"},"federalState":{"key":"03","name":"Niedersachsen"}},{"name":"Roggenweg","postalCode":"38272","locality":"Burgdorf","municipality":{"key":"03158004","name":"Burgdorf","type":"Kreisangehörige_Gemeinde"},"district":{"key":"03158","name":"Wolfenbüttel","type":"Landkreis"},"federalState":{"key":"03","name":"Niedersachsen"}},{"name":"Röhnweg","postalCode":"31303","locality":"Burgdorf","municipality":{"key":"03241003","name":"Burgdorf, Stadt","type":"Stadt"},"district":{"key":"03241","name":"Region Hannover","type":"Landkreis"},"federalState":{"key":"03","name":"Niedersachsen"}},{"name":"Rohrkampsweg","postalCode":"31303","locality":"Burgdorf","municipality":{"key":"03241003","name":"Burgdorf, Stadt","type":"Stadt"},"district":{"key":"03241","name":"Region Hannover","type":"Landkreis"},"federalState":{"key":"03","name":"Niedersachsen"}},{"name":"Rohrwiesen","postalCode":"31303","locality":"Burgdorf","municipality":{"key":"03241003","name":"Burgdorf, Stadt","type":"Stadt"},"district":{"key":"03241","name":"Region Hannover","type":"Landkreis"},"federalState":{"key":"03","name":"Niedersachsen"}},{"name":"Rolandstr.","postalCode":"31303","locality":"Burgdorf","municipality":{"key":"03241003","name":"Burgdorf, Stadt","type":"Stadt"},"district":{"key":"03241","name":"Region Hannover","type":"Landkreis"},"federalState":{"key":"03","name":"Niedersachsen"}},{"name":"Rominter Weg","postalCode":"31303","locality":"Burgdorf","municipality":{"key":"03241003","name":"Burgdorf, Stadt","type":"Stadt"},"district":{"key":"03241","name":"Region Hannover","type":"Landkreis"},"federalState":{"key":"03","name":"Niedersachsen"}},{"name":"Rosengasse","postalCode":"31303","locality":"Burgdorf","municipality":{"key":"03241003","name":"Burgdorf, Stadt","type":"Stadt"},"district":{"key":"03241","name":"Region Hannover","type":"Landkreis"},"federalState":{"key":"03","name":"Niedersachsen"}},{"name":"Rotdornstr.","postalCode":"31303","locality":"Burgdorf","municipality":{"key":"03241003","name":"Burgdorf, Stadt","type":"Stadt"},"district":{"key":"03241","name":"Region Hannover","type":"Landkreis"},"federalState":{"key":"03","name":"Niedersachsen"}},{"name":"Rotkehlchenweg","postalCode":"31303","locality":"Burgdorf","municipality":{"key":"03241003","name":"Burgdorf, Stadt","type":"Stadt"},"district":{"key":"03241","name":"Region Hannover","type":"Landkreis"},"federalState":{"key":"03","name":"Niedersachsen"}},{"name":"Rubensplatz","postalCode":"31303","locality":"Burgdorf","municipality":{"key":"03241003","name":"Burgdorf, Stadt","type":"Stadt"},"district":{"key":"03241","name":"Region Hannover","type":"Landkreis"},"federalState":{"key":"03","name":"Niedersachsen"}},{"name":"Rübezahlweg","postalCode":"31303","locality":"Burgdorf","municipality":{"key":"03241003","name":"Burgdorf, Stadt","type":"Stadt"},"district":{"key":"03241","name":"Region Hannover","type":"Landkreis"},"federalState":{"key":"03","name":"Niedersachsen"}},{"name":"Rückertstr.","postalCode":"31303","locality":"Burgdorf","municipality":{"key":"03241003","name":"Burgdorf, Stadt","type":"Stadt"},"district":{"key":"03241","name":"Region Hannover","type":"Landkreis"},"federalState":{"key":"03","name":"Niedersachsen"}},{"name":"Saalestr.","postalCode":"31303","locality":"Burgdorf","municipality":{"key":"03241003","name":"Burgdorf, Stadt","type":"Stadt"},"district":{"key":"03241","name":"Region Hannover","type":"Landkreis"},"federalState":{"key":"03","name":"Niedersachsen"}},{"name":"Saarstr.","postalCode":"31303","locality":"Burgdorf","municipality":{"key":"03241003","name":"Burgdorf, Stadt","type":"Stadt"},"district":{"key":"03241","name":"Region Hannover","type":"Landkreis"},"federalState":{"key":"03","name":"Niedersachsen"}},{"name":"Sackstr.","postalCode":"31303","locality":"Burgdorf","municipality":{"key":"03241003","name":"Burgdorf, Stadt","type":"Stadt"},"district":{"key":"03241","name":"Region Hannover","type":"Landkreis"},"federalState":{"key":"03","name":"Niedersachsen"}},{"name":"Sackstr.","postalCode":"38272","locality":"Burgdorf","municipality":{"key":"03158004","name":"Burgdorf","type":"Kreisangehörige_Gemeinde"},"district":{"key":"03158","name":"Wolfenbüttel","type":"Landkreis"},"federalState":{"key":"03","name":"Niedersachsen"}},{"name":"Salzstr.","postalCode":"31303","locality":"Burgdorf","municipality":{"key":"03241003","name":"Burgdorf, Stadt","type":"Stadt"},"district":{"key":"03241","name":"Region Hannover","type":"Landkreis"},"federalState":{"key":"03","name":"Niedersachsen"}},{"name":"Sandkuhlenweg","postalCode":"31303","locality":"Burgdorf","municipality":{"key":"03241003","name":"Burgdorf, Stadt","type":"Stadt"},"district":{"key":"03241","name":"Region Hannover","type":"Landkreis"},"federalState":{"key":"03","name":"Niedersachsen"}},{"name":"Schäferkamp-Kreisel","postalCode":"31303","locality":"Burgdorf","municipality":{"key":"03241003","name":"Burgdorf, Stadt","type":"Stadt"},"district":{"key":"03241","name":"Region Hannover","type":"Landkreis"},"federalState":{"key":"03","name":"Niedersachsen"}},{"name":"Schafmarkweg","postalCode":"31303","locality":"Burgdorf","municipality":{"key":"03241003","name":"Burgdorf, Stadt","type":"Stadt"},"district":{"key":"03241","name":"Region Hannover","type":"Landkreis"},"federalState":{"key":"03","name":"Niedersachsen"}},{"name":"Schaperstr.","postalCode":"38272","locality":"Burgdorf","municipality":{"key":"03158004","name":"Burgdorf","type":"Kreisangehörige_Gemeinde"},"district":{"key":"03158","name":"Wolfenbüttel","type":"Landkreis"},"federalState":{"key":"03","name":"Niedersachsen"}},{"name":"Scharhörnweg","postalCode":"31303","locality":"Burgdorf","municipality":{"key":"03241003","name":"Burgdorf, Stadt","type":"Stadt"},"district":{"key":"03241","name":"Region Hannover","type":"Landkreis"},"federalState":{"key":"03","name":"Niedersachsen"}},{"name":"Scharlemannstr.","postalCode":"31303","locality":"Burgdorf","municipality":{"key":"03241003","name":"Burgdorf, Stadt","type":"Stadt"},"district":{"key":"03241","name":"Region Hannover","type":"Landkreis"},"federalState":{"key":"03","name":"Niedersachsen"}},{"name":"Scharnhorststr.","postalCode":"31303","locality":"Burgdorf","municipality":{"key":"03241003","name":"Burgdorf, Stadt","type":"Stadt"},"district":{"key":"03241","name":"Region Hannover","type":"Landkreis"},"federalState":{"key":"03","name":"Niedersachsen"}},{"name":"Scheibenbergsweg","postalCode":"31303","locality":"Burgdorf","municipality":{"key":"03241003","name":"Burgdorf, Stadt","type":"Stadt"},"district":{"key":"03241","name":"Region Hannover","type":"Landkreis"},"federalState":{"key":"03","name":"Niedersachsen"}},{"name":"Scheibenbier","postalCode":"31303","locality":"Burgdorf","municipality":{"key":"03241003","name":"Burgdorf, Stadt","type":"Stadt"},"district":{"key":"03241","name":"Region Hannover","type":"Landkreis"},"federalState":{"key":"03","name":"Niedersachsen"}},{"name":"Schilfweg","postalCode":"31303","locality":"Burgdorf","municipality":{"key":"03241003","name":"Burgdorf, Stadt","type":"Stadt"},"district":{"key":"03241","name":"Region Hannover","type":"Landkreis"},"federalState":{"key":"03","name":"Niedersachsen"}},{"name":"Schillerslager Landstr.","postalCode":"31303","locality":"Burgdorf","municipality":{"key":"03241003","name":"Burgdorf, Stadt","type":"Stadt"},"district":{"key":"03241","name":"Region Hannover","type":"Landkreis"},"federalState":{"key":"03","name":"Niedersachsen"}},{"name":"Schillerslager Str.","postalCode":"31303","locality":"Burgdorf","municipality":{"key":"03241003","name":"Burgdorf, Stadt","type":"Stadt"},"district":{"key":"03241","name":"Region Hannover","type":"Landkreis"},"federalState":{"key":"03","name":"Niedersachsen"}},{"name":"Schillerstr.","postalCode":"31303","locality":"Burgdorf","municipality":{"key":"03241003","name":"Burgdorf, Stadt","type":"Stadt"},"district":{"key":"03241","name":"Region Hannover","type":"Landkreis"},"federalState":{"key":"03","name":"Niedersachsen"}},{"name":"Schlesierweg","postalCode":"38272","locality":"Burgdorf","municipality":{"key":"03158004","name":"Burgdorf","type":"Kreisangehörige_Gemeinde"},"district":{"key":"03158","name":"Wolfenbüttel","type":"Landkreis"},"federalState":{"key":"03","name":"Niedersachsen"}},{"name":"Schloßstr.","postalCode":"31303","locality":"Burgdorf","municipality":{"key":"03241003","name":"Burgdorf, Stadt","type":"Stadt"},"district":{"key":"03241","name":"Region Hannover","type":"Landkreis"},"federalState":{"key":"03","name":"Niedersachsen"}},{"name":"Schmiedestr.","postalCode":"31303","locality":"Burgdorf","municipality":{"key":"03241003","name":"Burgdorf, Stadt","type":"Stadt"},"district":{"key":"03241","name":"Region Hannover","type":"Landkreis"},"federalState":{"key":"03","name":"Niedersachsen"}},{"name":"Schmiedestr.","postalCode":"38272","locality":"Burgdorf","municipality":{"key":"03158004","name":"Burgdorf","type":"Kreisangehörige_Gemeinde"},"district":{"key":"03158","name":"Wolfenbüttel","type":"Landkreis"},"federalState":{"key":"03","name":"Niedersachsen"}},{"name":"Schnepfenstieg","postalCode":"31303","locality":"Burgdorf","municipality":{"key":"03241003","name":"Burgdorf, Stadt","type":"Stadt"},"district":{"key":"03241","name":"Region Hannover","type":"Landkreis"},"federalState":{"key":"03","name":"Niedersachsen"}},{"name":"Schopenhauerstr.","postalCode":"31303","locality":"Burgdorf","municipality":{"key":"03241003","name":"Burgdorf, Stadt","type":"Stadt"},"district":{"key":"03241","name":"Region Hannover","type":"Landkreis"},"federalState":{"key":"03","name":"Niedersachsen"}},{"name":"Schulstr.","postalCode":"31303","locality":"Burgdorf","municipality":{"key":"03241003","name":"Burgdorf, Stadt","type":"Stadt"},"district":{"key":"03241","name":"Region Hannover","type":"Landkreis"},"federalState":{"key":"03","name":"Niedersachsen"}},{"name":"Schulweg","postalCode":"38272","locality":"Burgdorf","municipality":{"key":"03158004","name":"Burgdorf","type":"Kreisangehörige_Gemeinde"},"district":{"key":"03158","name":"Wolfenbüttel","type":"Landkreis"},"federalState":{"key":"03","name":"Niedersachsen"}},{"name":"Schützenweg","postalCode":"31303","locality":"Burgdorf","municipality":{"key":"03241003","name":"Burgdorf, Stadt","type":"Stadt"},"district":{"key":"03241","name":"Region Hannover","type":"Landkreis"},"federalState":{"key":"03","name":"Niedersachsen"}},{"name":"Schwalbenweg","postalCode":"31303","locality":"Burgdorf","municipality":{"key":"03241003","name":"Burgdorf, Stadt","type":"Stadt"},"district":{"key":"03241","name":"Region Hannover","type":"Landkreis"},"federalState":{"key":"03","name":"Niedersachsen"}},{"name":"Schwarzenbergsfeld","postalCode":"31303","locality":"Burgdorf","municipality":{"key":"03241003","name":"Burgdorf, Stadt","type":"Stadt"},"district":{"key":"03241","name":"Region Hannover","type":"Landkreis"},"federalState":{"key":"03","name":"Niedersachsen"}},{"name":"Schwarzer Berg","postalCode":"31303","locality":"Burgdorf","municipality":{"key":"03241003","name":"Burgdorf, Stadt","type":"Stadt"},"district":{"key":"03241","name":"Region Hannover","type":"Landkreis"},"federalState":{"key":"03","name":"Niedersachsen"}},{"name":"Schwarzer-Herzog-Kreisel","postalCode":"31303","locality":"Burgdorf","municipality":{"key":"03241003","name":"Burgdorf, Stadt","type":"Stadt"},"district":{"key":"03241","name":"Region Hannover","type":"Landkreis"},"federalState":{"key":"03","name":"Niedersachsen"}},{"name":"Schweriner Reihe","postalCode":"31303","locality":"Burgdorf","municipality":{"key":"03241003","name":"Burgdorf, Stadt","type":"Stadt"},"district":{"key":"03241","name":"Region Hannover","type":"Landkreis"},"federalState":{"key":"03","name":"Niedersachsen"}},{"name":"Schwüblingser Weg","postalCode":"31303","locality":"Burgdorf","municipality":{"key":"03241003","name":"Burgdorf, Stadt","type":"Stadt"},"district":{"key":"03241","name":"Region Hannover","type":"Landkreis"},"federalState":{"key":"03","name":"Niedersachsen"}},{"name":"Senator-Hilmer-Str.","postalCode":"31303","locality":"Burgdorf","municipality":{"key":"03241003","name":"Burgdorf, Stadt","type":"Stadt"},"district":{"key":"03241","name":"Region Hannover","type":"Landkreis"},"federalState":{"key":"03","name":"Niedersachsen"}},{"name":"Siedlerweg","postalCode":"31303","locality":"Burgdorf","municipality":{"key":"03241003","name":"Burgdorf, Stadt","type":"Stadt"},"district":{"key":"03241","name":"Region Hannover","type":"Landkreis"},"federalState":{"key":"03","name":"Niedersachsen"}},{"name":"Siedlungsweg","postalCode":"38272","locality":"Burgdorf","municipality":{"key":"03158004","name":"Burgdorf","type":"Kreisangehörige_Gemeinde"},"district":{"key":"03158","name":"Wolfenbüttel","type":"Landkreis"},"federalState":{"key":"03","name":"Niedersachsen"}},{"name":"Söchtigweg","postalCode":"38272","locality":"Burgdorf","municipality":{"key":"03158004","name":"Burgdorf","type":"Kreisangehörige_Gemeinde"},"district":{"key":"03158","name":"Wolfenbüttel","type":"Landkreis"},"federalState":{"key":"03","name":"Niedersachsen"}},{"name":"Sorgenser Grundweg","postalCode":"31303","locality":"Burgdorf","municipality":{"key":"03241003","name":"Burgdorf, Stadt","type":"Stadt"},"district":{"key":"03241","name":"Region Hannover","type":"Landkreis"},"federalState":{"key":"03","name":"Niedersachsen"}},{"name":"Sorgenser Str.","postalCode":"31303","locality":"Burgdorf","municipality":{"key":"03241003","name":"Burgdorf, Stadt","type":"Stadt"},"district":{"key":"03241","name":"Region Hannover","type":"Landkreis"},"federalState":{"key":"03","name":"Niedersachsen"}},{"name":"Specken","postalCode":"38272","locality":"Burgdorf","municipality":{"key":"03158004","name":"Burgdorf","type":"Kreisangehörige_Gemeinde"},"district":{"key":"03158","name":"Wolfenbüttel","type":"Landkreis"},"federalState":{"key":"03","name":"Niedersachsen"}},{"name":"Sperbergasse","postalCode":"31303","locality":"Burgdorf","municipality":{"key":"03241003","name":"Burgdorf, Stadt","type":"Stadt"},"district":{"key":"03241","name":"Region Hannover","type":"Landkreis"},"federalState":{"key":"03","name":"Niedersachsen"}},{"name":"Sperlingsweg","postalCode":"31303","locality":"Burgdorf","municipality":{"key":"03241003","name":"Burgdorf, Stadt","type":"Stadt"},"district":{"key":"03241","name":"Region Hannover","type":"Landkreis"},"federalState":{"key":"03","name":"Niedersachsen"}},{"name":"Spiekeroogweg","postalCode":"31303","locality":"Burgdorf","municipality":{"key":"03241003","name":"Burgdorf, Stadt","type":"Stadt"},"district":{"key":"03241","name":"Region Hannover","type":"Landkreis"},"federalState":{"key":"03","name":"Niedersachsen"}},{"name":"Spittaplatz","postalCode":"31303","locality":"Burgdorf","municipality":{"key":"03241003","name":"Burgdorf, Stadt","type":"Stadt"},"district":{"key":"03241","name":"Region Hannover","type":"Landkreis"},"federalState":{"key":"03","name":"Niedersachsen"}},{"name":"Sprengelstr.","postalCode":"31303","locality":"Burgdorf","municipality":{"key":"03241003","name":"Burgdorf, Stadt","type":"Stadt"},"district":{"key":"03241","name":"Region Hannover","type":"Landkreis"},"federalState":{"key":"03","name":"Niedersachsen"}},{"name":"Spröselberg","postalCode":"31303","locality":"Burgdorf","municipality":{"key":"03241003","name":"Burgdorf, Stadt","type":"Stadt"},"district":{"key":"03241","name":"Region Hannover","type":"Landkreis"},"federalState":{"key":"03","name":"Niedersachsen"}},{"name":"Sprosserweg","postalCode":"31303","locality":"Burgdorf","municipality":{"key":"03241003","name":"Burgdorf, Stadt","type":"Stadt"},"district":{"key":"03241","name":"Region Hannover","type":"Landkreis"},"federalState":{"key":"03","name":"Niedersachsen"}},{"name":"Stauffenbergstr.","postalCode":"31303","locality":"Burgdorf","municipality":{"key":"03241003","name":"Burgdorf, Stadt","type":"Stadt"},"district":{"key":"03241","name":"Region Hannover","type":"Landkreis"},"federalState":{"key":"03","name":"Niedersachsen"}},{"name":"Stegefeldbusch","postalCode":"31303","locality":"Burgdorf","municipality":{"key":"03241003","name":"Burgdorf, Stadt","type":"Stadt"},"district":{"key":"03241","name":"Region Hannover","type":"Landkreis"},"federalState":{"key":"03","name":"Niedersachsen"}},{"name":"Steinkamp","postalCode":"31303","locality":"Burgdorf","municipality":{"key":"03241003","name":"Burgdorf, Stadt","type":"Stadt"},"district":{"key":"03241","name":"Region Hannover","type":"Landkreis"},"federalState":{"key":"03","name":"Niedersachsen"}},{"name":"Tannengrund","postalCode":"31303","locality":"Burgdorf","municipality":{"key":"03241003","name":"Burgdorf, Stadt","type":"Stadt"},"district":{"key":"03241","name":"Region Hannover","type":"Landkreis"},"federalState":{"key":"03","name":"Niedersachsen"}},{"name":"Tappenstr.","postalCode":"31303","locality":"Burgdorf","municipality":{"key":"03241003","name":"Burgdorf, Stadt","type":"Stadt"},"district":{"key":"03241","name":"Region Hannover","type":"Landkreis"},"federalState":{"key":"03","name":"Niedersachsen"}},{"name":"Taubenkamp","postalCode":"38272","locality":"Burgdorf","municipality":{"key":"03158004","name":"Burgdorf","type":"Kreisangehörige_Gemeinde"},"district":{"key":"03158","name":"Wolfenbüttel","type":"Landkreis"},"federalState":{"key":"03","name":"Niedersachsen"}},{"name":"Tennisweg","postalCode":"31303","locality":"Burgdorf","municipality":{"key":"03241003","name":"Burgdorf, Stadt","type":"Stadt"},"district":{"key":"03241","name":"Region Hannover","type":"Landkreis"},"federalState":{"key":"03","name":"Niedersachsen"}},{"name":"Theodor-Storm-Str.","postalCode":"31303","locality":"Burgdorf","municipality":{"key":"03241003","name":"Burgdorf, Stadt","type":"Stadt"},"district":{"key":"03241","name":"Region Hannover","type":"Landkreis"},"federalState":{"key":"03","name":"Niedersachsen"}},{"name":"Theodorstr.","postalCode":"31303","locality":"Burgdorf","municipality":{"key":"03241003","name":"Burgdorf, Stadt","type":"Stadt"},"district":{"key":"03241","name":"Region Hannover","type":"Landkreis"},"federalState":{"key":"03","name":"Niedersachsen"}},{"name":"Tiefenauweg","postalCode":"31303","locality":"Burgdorf","municipality":{"key":"03241003","name":"Burgdorf, Stadt","type":"Stadt"},"district":{"key":"03241","name":"Region Hannover","type":"Landkreis"},"federalState":{"key":"03","name":"Niedersachsen"}},{"name":"Tiefenwiesenweg","postalCode":"31303","locality":"Burgdorf","municipality":{"key":"03241003","name":"Burgdorf, Stadt","type":"Stadt"},"district":{"key":"03241","name":"Region Hannover","type":"Landkreis"},"federalState":{"key":"03","name":"Niedersachsen"}},{"name":"Tiefer Weg","postalCode":"38272","locality":"Burgdorf","municipality":{"key":"03158004","name":"Burgdorf","type":"Kreisangehörige_Gemeinde"},"district":{"key":"03158","name":"Wolfenbüttel","type":"Landkreis"},"federalState":{"key":"03","name":"Niedersachsen"}},{"name":"Tiefe Str.","postalCode":"38272","locality":"Burgdorf","municipality":{"key":"03158004","name":"Burgdorf","type":"Kreisangehörige_Gemeinde"},"district":{"key":"03158","name":"Wolfenbüttel","type":"Landkreis"},"federalState":{"key":"03","name":"Niedersachsen"}},{"name":"Tilsiter Str.","postalCode":"31303","locality":"Burgdorf","municipality":{"key":"03241003","name":"Burgdorf, Stadt","type":"Stadt"},"district":{"key":"03241","name":"Region Hannover","type":"Landkreis"},"federalState":{"key":"03","name":"Niedersachsen"}},{"name":"Trakehnerweg","postalCode":"31303","locality":"Burgdorf","municipality":{"key":"03241003","name":"Burgdorf, Stadt","type":"Stadt"},"district":{"key":"03241","name":"Region Hannover","type":"Landkreis"},"federalState":{"key":"03","name":"Niedersachsen"}},{"name":"Tuchmacherweg","postalCode":"31303","locality":"Burgdorf","municipality":{"key":"03241003","name":"Burgdorf, Stadt","type":"Stadt"},"district":{"key":"03241","name":"Region Hannover","type":"Landkreis"},"federalState":{"key":"03","name":"Niedersachsen"}},{"name":"Tulpenweg","postalCode":"31303","locality":"Burgdorf","municipality":{"key":"03241003","name":"Burgdorf, Stadt","type":"Stadt"},"district":{"key":"03241","name":"Region Hannover","type":"Landkreis"},"federalState":{"key":"03","name":"Niedersachsen"}},{"name":"Tweegden","postalCode":"31303","locality":"Burgdorf","municipality":{"key":"03241003","name":"Burgdorf, Stadt","type":"Stadt"},"district":{"key":"03241","name":"Region Hannover","type":"Landkreis"},"federalState":{"key":"03","name":"Niedersachsen"}},{"name":"Uetzer Str.","postalCode":"31303","locality":"Burgdorf","municipality":{"key":"03241003","name":"Burgdorf, Stadt","type":"Stadt"},"district":{"key":"03241","name":"Region Hannover","type":"Landkreis"},"federalState":{"key":"03","name":"Niedersachsen"}},{"name":"Uhlandstr.","postalCode":"31303","locality":"Burgdorf","municipality":{"key":"03241003","name":"Burgdorf, Stadt","type":"Stadt"},"district":{"key":"03241","name":"Region Hannover","type":"Landkreis"},"federalState":{"key":"03","name":"Niedersachsen"}},{"name":"Uhlenflucht","postalCode":"31303","locality":"Burgdorf","municipality":{"key":"03241003","name":"Burgdorf, Stadt","type":"Stadt"},"district":{"key":"03241","name":"Region Hannover","type":"Landkreis"},"federalState":{"key":"03","name":"Niedersachsen"}},{"name":"Ulmenweg","postalCode":"31303","locality":"Burgdorf","municipality":{"key":"03241003","name":"Burgdorf, Stadt","type":"Stadt"},"district":{"key":"03241","name":"Region Hannover","type":"Landkreis"},"federalState":{"key":"03","name":"Niedersachsen"}},{"name":"Um die Woot","postalCode":"38272","locality":"Burgdorf","municipality":{"key":"03158004","name":"Burgdorf","type":"Kreisangehörige_Gemeinde"},"district":{"key":"03158","name":"Wolfenbüttel","type":"Landkreis"},"federalState":{"key":"03","name":"Niedersachsen"}},{"name":"Unter dem Dorfe","postalCode":"38272","locality":"Burgdorf","municipality":{"key":"03158004","name":"Burgdorf","type":"Kreisangehörige_Gemeinde"},"district":{"key":"03158","name":"Wolfenbüttel","type":"Landkreis"},"federalState":{"key":"03","name":"Niedersachsen"}},{"name":"Unter den Günnen","postalCode":"38272","locality":"Burgdorf","municipality":{"key":"03158004","name":"Burgdorf","type":"Kreisangehörige_Gemeinde"},"district":{"key":"03158","name":"Wolfenbüttel","type":"Landkreis"},"federalState":{"key":"03","name":"Niedersachsen"}},{"name":"Varrel","postalCode":"31303","locality":"Burgdorf","municipality":{"key":"03241003","name":"Burgdorf, Stadt","type":"Stadt"},"district":{"key":"03241","name":"Region Hannover","type":"Landkreis"},"federalState":{"key":"03","name":"Niedersachsen"}},{"name":"Velper Str.","postalCode":"31303","locality":"Burgdorf","municipality":{"key":"03241003","name":"Burgdorf, Stadt","type":"Stadt"},"district":{"key":"03241","name":"Region Hannover","type":"Landkreis"},"federalState":{"key":"03","name":"Niedersachsen"}},{"name":"Vizestr.","postalCode":"31303","locality":"Burgdorf","municipality":{"key":"03241003","name":"Burgdorf, Stadt","type":"Stadt"},"district":{"key":"03241","name":"Region Hannover","type":"Landkreis"},"federalState":{"key":"03","name":"Niedersachsen"}},{"name":"Vor dem Braunschweiger Tor","postalCode":"31303","locality":"Burgdorf","municipality":{"key":"03241003","name":"Burgdorf, Stadt","type":"Stadt"},"district":{"key":"03241","name":"Region Hannover","type":"Landkreis"},"federalState":{"key":"03","name":"Niedersachsen"}},{"name":"Vor dem Celler Tor","postalCode":"31303","locality":"Burgdorf","municipality":{"key":"03241003","name":"Burgdorf, Stadt","type":"Stadt"},"district":{"key":"03241","name":"Region Hannover","type":"Landkreis"},"federalState":{"key":"03","name":"Niedersachsen"}},{"name":"Vor dem Hannoverschen Tor","postalCode":"31303","locality":"Burgdorf","municipality":{"key":"03241003","name":"Burgdorf, Stadt","type":"Stadt"},"district":{"key":"03241","name":"Region Hannover","type":"Landkreis"},"federalState":{"key":"03","name":"Niedersachsen"}},{"name":"Vor den Höfen","postalCode":"31303","locality":"Burgdorf","municipality":{"key":"03241003","name":"Burgdorf, Stadt","type":"Stadt"},"district":{"key":"03241","name":"Region Hannover","type":"Landkreis"},"federalState":{"key":"03","name":"Niedersachsen"}},{"name":"Wacholderweg","postalCode":"31303","locality":"Burgdorf","municipality":{"key":"03241003","name":"Burgdorf, Stadt","type":"Stadt"},"district":{"key":"03241","name":"Region Hannover","type":"Landkreis"},"federalState":{"key":"03","name":"Niedersachsen"}},{"name":"Wächterstieg","postalCode":"31303","locality":"Burgdorf","municipality":{"key":"03241003","name":"Burgdorf, Stadt","type":"Stadt"},"district":{"key":"03241","name":"Region Hannover","type":"Landkreis"},"federalState":{"key":"03","name":"Niedersachsen"}},{"name":"Wackenroder Weg","postalCode":"31303","locality":"Burgdorf","municipality":{"key":"03241003","name":"Burgdorf, Stadt","type":"Stadt"},"district":{"key":"03241","name":"Region Hannover","type":"Landkreis"},"federalState":{"key":"03","name":"Niedersachsen"}},{"name":"Waldstr.","postalCode":"31303","locality":"Burgdorf","municipality":{"key":"03241003","name":"Burgdorf, Stadt","type":"Stadt"},"district":{"key":"03241","name":"Region Hannover","type":"Landkreis"},"federalState":{"key":"03","name":"Niedersachsen"}},{"name":"Waldstr.","postalCode":"38272","locality":"Burgdorf","municipality":{"key":"03158004","name":"Burgdorf","type":"Kreisangehörige_Gemeinde"},"district":{"key":"03158","name":"Wolfenbüttel","type":"Landkreis"},"federalState":{"key":"03","name":"Niedersachsen"}},{"name":"Waldweg","postalCode":"38272","locality":"Burgdorf","municipality":{"key":"03158004","name":"Burgdorf","type":"Kreisangehörige_Gemeinde"},"district":{"key":"03158","name":"Wolfenbüttel","type":"Landkreis"},"federalState":{"key":"03","name":"Niedersachsen"}},{"name":"Wallgartenstr.","postalCode":"31303","locality":"Burgdorf","municipality":{"key":"03241003","name":"Burgdorf, Stadt","type":"Stadt"},"district":{"key":"03241","name":"Region Hannover","type":"Landkreis"},"federalState":{"key":"03","name":"Niedersachsen"}},{"name":"Wallstr.","postalCode":"31303","locality":"Burgdorf","municipality":{"key":"03241003","name":"Burgdorf, Stadt","type":"Stadt"},"district":{"key":"03241","name":"Region Hannover","type":"Landkreis"},"federalState":{"key":"03","name":"Niedersachsen"}},{"name":"Wandelbergsfeld","postalCode":"31303","locality":"Burgdorf","municipality":{"key":"03241003","name":"Burgdorf, Stadt","type":"Stadt"},"district":{"key":"03241","name":"Region Hannover","type":"Landkreis"},"federalState":{"key":"03","name":"Niedersachsen"}},{"name":"Wangeroogeweg","postalCode":"31303","locality":"Burgdorf","municipality":{"key":"03241003","name":"Burgdorf, Stadt","type":"Stadt"},"district":{"key":"03241","name":"Region Hannover","type":"Landkreis"},"federalState":{"key":"03","name":"Niedersachsen"}},{"name":"Warneckeweg","postalCode":"31303","locality":"Burgdorf","municipality":{"key":"03241003","name":"Burgdorf, Stadt","type":"Stadt"},"district":{"key":"03241","name":"Region Hannover","type":"Landkreis"},"federalState":{"key":"03","name":"Niedersachsen"}},{"name":"Wasserwerksweg","postalCode":"31303","locality":"Burgdorf","municipality":{"key":"03241003","name":"Burgdorf, Stadt","type":"Stadt"},"district":{"key":"03241","name":"Region Hannover","type":"Landkreis"},"federalState":{"key":"03","name":"Niedersachsen"}},{"name":"Weferlingser Weg","postalCode":"31303","locality":"Burgdorf","municipality":{"key":"03241003","name":"Burgdorf, Stadt","type":"Stadt"},"district":{"key":"03241","name":"Region Hannover","type":"Landkreis"},"federalState":{"key":"03","name":"Niedersachsen"}},{"name":"Weidendamm","postalCode":"31303","locality":"Burgdorf","municipality":{"key":"03241003","name":"Burgdorf, Stadt","type":"Stadt"},"district":{"key":"03241","name":"Region Hannover","type":"Landkreis"},"federalState":{"key":"03","name":"Niedersachsen"}},{"name":"Weimarer Bogen","postalCode":"31303","locality":"Burgdorf","municipality":{"key":"03241003","name":"Burgdorf, Stadt","type":"Stadt"},"district":{"key":"03241","name":"Region Hannover","type":"Landkreis"},"federalState":{"key":"03","name":"Niedersachsen"}},{"name":"Weizenkamp","postalCode":"31303","locality":"Burgdorf","municipality":{"key":"03241003","name":"Burgdorf, Stadt","type":"Stadt"},"district":{"key":"03241","name":"Region Hannover","type":"Landkreis"},"federalState":{"key":"03","name":"Niedersachsen"}},{"name":"Weizenweg","postalCode":"38272","locality":"Burgdorf","municipality":{"key":"03158004","name":"Burgdorf","type":"Kreisangehörige_Gemeinde"},"district":{"key":"03158","name":"Wolfenbüttel","type":"Landkreis"},"federalState":{"key":"03","name":"Niedersachsen"}},{"name":"Welfenweg","postalCode":"31303","locality":"Burgdorf","municipality":{"key":"03241003","name":"Burgdorf, Stadt","type":"Stadt"},"district":{"key":"03241","name":"Region Hannover","type":"Landkreis"},"federalState":{"key":"03","name":"Niedersachsen"}},{"name":"Werwolfsweg","postalCode":"31303","locality":"Burgdorf","municipality":{"key":"03241003","name":"Burgdorf, Stadt","type":"Stadt"},"district":{"key":"03241","name":"Region Hannover","type":"Landkreis"},"federalState":{"key":"03","name":"Niedersachsen"}},{"name":"Weserstr.","postalCode":"31303","locality":"Burgdorf","municipality":{"key":"03241003","name":"Burgdorf, Stadt","type":"Stadt"},"district":{"key":"03241","name":"Region Hannover","type":"Landkreis"},"federalState":{"key":"03","name":"Niedersachsen"}},{"name":"Wieselweg","postalCode":"31303","locality":"Burgdorf","municipality":{"key":"03241003","name":"Burgdorf, Stadt","type":"Stadt"},"district":{"key":"03241","name":"Region Hannover","type":"Landkreis"},"federalState":{"key":"03","name":"Niedersachsen"}},{"name":"Wiesenhofring","postalCode":"38272","locality":"Burgdorf","municipality":{"key":"03158004","name":"Burgdorf","type":"Kreisangehörige_Gemeinde"},"district":{"key":"03158","name":"Wolfenbüttel","type":"Landkreis"},"federalState":{"key":"03","name":"Niedersachsen"}},{"name":"Wiesenkamp","postalCode":"31303","locality":"Burgdorf","municipality":{"key":"03241003","name":"Burgdorf, Stadt","type":"Stadt"},"district":{"key":"03241","name":"Region Hannover","type":"Landkreis"},"federalState":{"key":"03","name":"Niedersachsen"}},{"name":"Wiesenweg","postalCode":"38272","locality":"Burgdorf","municipality":{"key":"03158004","name":"Burgdorf","type":"Kreisangehörige_Gemeinde"},"district":{"key":"03158","name":"Wolfenbüttel","type":"Landkreis"},"federalState":{"key":"03","name":"Niedersachsen"}},{"name":"Wiezerweg","postalCode":"38272","locality":"Burgdorf","municipality":{"key":"03158004","name":"Burgdorf","type":"Kreisangehörige_Gemeinde"},"district":{"key":"03158","name":"Wolfenbüttel","type":"Landkreis"},"federalState":{"key":"03","name":"Niedersachsen"}},{"name":"Wildwechsel","postalCode":"31303","locality":"Burgdorf","municipality":{"key":"03241003","name":"Burgdorf, Stadt","type":"Stadt"},"district":{"key":"03241","name":"Region Hannover","type":"Landkreis"},"federalState":{"key":"03","name":"Niedersachsen"}},{"name":"Wilhelm-Busch-Str.","postalCode":"31303","locality":"Burgdorf","municipality":{"key":"03241003","name":"Burgdorf, Stadt","type":"Stadt"},"district":{"key":"03241","name":"Region Hannover","type":"Landkreis"},"federalState":{"key":"03","name":"Niedersachsen"}},{"name":"Wilhelm-Henze-Weg","postalCode":"31303","locality":"Burgdorf","municipality":{"key":"03241003","name":"Burgdorf, Stadt","type":"Stadt"},"district":{"key":"03241","name":"Region Hannover","type":"Landkreis"},"federalState":{"key":"03","name":"Niedersachsen"}},{"name":"Willersgasse","postalCode":"31303","locality":"Burgdorf","municipality":{"key":"03241003","name":"Burgdorf, Stadt","type":"Stadt"},"district":{"key":"03241","name":"Region Hannover","type":"Landkreis"},"federalState":{"key":"03","name":"Niedersachsen"}},{"name":"Windmühlenstr.","postalCode":"31303","locality":"Burgdorf","municipality":{"key":"03241003","name":"Burgdorf, Stadt","type":"Stadt"},"district":{"key":"03241","name":"Region Hannover","type":"Landkreis"},"federalState":{"key":"03","name":"Niedersachsen"}},{"name":"Witzlebenstr.","postalCode":"31303","locality":"Burgdorf","municipality":{"key":"03241003","name":"Burgdorf, Stadt","type":"Stadt"},"district":{"key":"03241","name":"Region Hannover","type":"Landkreis"},"federalState":{"key":"03","name":"Niedersachsen"}},{"name":"Wollenweberstr.","postalCode":"31303","locality":"Burgdorf","municipality":{"key":"03241003","name":"Burgdorf, Stadt","type":"Stadt"},"district":{"key":"03241","name":"Region Hannover","type":"Landkreis"},"federalState":{"key":"03","name":"Niedersachsen"}},{"name":"Wolliner Str.","postalCode":"31303","locality":"Burgdorf","municipality":{"key":"03241003","name":"Burgdorf, Stadt","type":"Stadt"},"district":{"key":"03241","name":"Region Hannover","type":"Landkreis"},"federalState":{"key":"03","name":"Niedersachsen"}},{"name":"Worthstr.","postalCode":"31303","locality":"Burgdorf","municipality":{"key":"03241003","name":"Burgdorf, Stadt","type":"Stadt"},"district":{"key":"03241","name":"Region Hannover","type":"Landkreis"},"federalState":{"key":"03","name":"Niedersachsen"}},{"name":"Wullbeck","postalCode":"31303","locality":"Burgdorf","municipality":{"key":"03241003","name":"Burgdorf, Stadt","type":"Stadt"},"district":{"key":"03241","name":"Region Hannover","type":"Landkreis"},"federalState":{"key":"03","name":"Niedersachsen"}},{"name":"Wümmeweg","postalCode":"31303","locality":"Burgdorf","municipality":{"key":"03241003","name":"Burgdorf, Stadt","type":"Stadt"},"district":{"key":"03241","name":"Region Hannover","type":"Landkreis"},"federalState":{"key":"03","name":"Niedersachsen"}},{"name":"Wundramweg","postalCode":"31303","locality":"Burgdorf","municipality":{"key":"03241003","name":"Burgdorf, Stadt","type":"Stadt"},"district":{"key":"03241","name":"Region Hannover","type":"Landkreis"},"federalState":{"key":"03","name":"Niedersachsen"}},{"name":"Zilleweg","postalCode":"31303","locality":"Burgdorf","municipality":{"key":"03241003","name":"Burgdorf, Stadt","type":"Stadt"},"district":{"key":"03241","name":"Region Hannover","type":"Landkreis"},"federalState":{"key":"03","name":"Niedersachsen"}},{"name":"Zintener Str.","postalCode":"31303","locality":"Burgdorf","municipality":{"key":"03241003","name":"Burgdorf, Stadt","type":"Stadt"},"district":{"key":"03241","name":"Region Hannover","type":"Landkreis"},"federalState":{"key":"03","name":"Niedersachsen"}},{"name":"Zollstr.","postalCode":"31303","locality":"Burgdorf","municipality":{"key":"03241003","name":"Burgdorf, Stadt","type":"Stadt"},"district":{"key":"03241","name":"Region Hannover","type":"Landkreis"},"federalState":{"key":"03","name":"Niedersachsen"}},{"name":"Zum Anger","postalCode":"38272","locality":"Burgdorf","municipality":{"key":"03158004","name":"Burgdorf","type":"Kreisangehörige_Gemeinde"},"district":{"key":"03158","name":"Wolfenbüttel","type":"Landkreis"},"federalState":{"key":"03","name":"Niedersachsen"}},{"name":"Zum Walde","postalCode":"38272","locality":"Burgdorf","municipality":{"key":"03158004","name":"Burgdorf","type":"Kreisangehörige_Gemeinde"},"district":{"key":"03158","name":"Wolfenbüttel","type":"Landkreis"},"federalState":{"key":"03","name":"Niedersachsen"}},{"name":"Zunftweg","postalCode":"31303","locality":"Burgdorf","municipality":{"key":"03241003","name":"Burgdorf, Stadt","type":"Stadt"},"district":{"key":"03241","name":"Region Hannover","type":"Landkreis"},"federalState":{"key":"03","name":"Niedersachsen"}},{"name":"Zur Papenkuhle","postalCode":"31303","locality":"Burgdorf","municipality":{"key":"03241003","name":"Burgdorf, Stadt","type":"Stadt"},"district":{"key":"03241","name":"Region Hannover","type":"Landkreis"},"federalState":{"key":"03","name":"Niedersachsen"}},{"name":"Zwischen den Alleen","postalCode":"31303","locality":"Burgdorf","municipality":{"key":"03241003","name":"Burgdorf, Stadt","type":"Stadt"},"district":{"key":"03241","name":"Region Hannover","type":"Landkreis"},"federalState":{"key":"03","name":"Niedersachsen"}},{"name":"Örtzeweg","postalCode":"31303","locality":"Burgdorf","municipality":{"key":"03241003","name":"Burgdorf, Stadt","type":"Stadt"},"district":{"key":"03241","name":"Region Hannover","type":"Landkreis"},"federalState":{"key":"03","name":"Niedersachsen"}},{"name":"Über dem Dorfe","postalCode":"38304","locality":"Wolfenbüttel","municipality":{"key":"03158037","name":"Wolfenbüttel, Stadt","type":"Stadt"},"district":{"key":"03158","name":"Wolfenbüttel","type":"Landkreis"},"federalState":{"key":"03","name":"Niedersachsen"}},{"name":"Über der Wiese","postalCode":"38304","locality":"Wolfenbüttel","municipality":{"key":"03158037","name":"Wolfenbüttel, Stadt","type":"Stadt"},"district":{"key":"03158","name":"Wolfenbüttel","type":"Landkreis"},"federalState":{"key":"03","name":"Niedersachsen"}},]