[{"key":"10013773","name":"Acher","postalCode":"6468","locality":"Attinghausen","commune":{"key":"1203","name":"Attinghausen","shortName":"Attinghausen"},"district":{"key":"400","name":"Kanton Uri"},"canton":{"key":"4","code":"UR","name":"Uri"},"status":"Real"},{"key":"10058539","name":"Acherli","postalCode":"6468","locality":"Attinghausen","commune":{"key":"1203","name":"Attinghausen","shortName":"Attinghausen"},"district":{"key":"400","name":"Kanton Uri"},"canton":{"key":"4","code":"UR","name":"Uri"},"status":"Real"},{"key":"10066635","name":"Albenschitt","postalCode":"6468","locality":"Attinghausen","commune":{"key":"1203","name":"Attinghausen","shortName":"Attinghausen"},"district":{"key":"400","name":"Kanton Uri"},"canton":{"key":"4","code":"UR","name":"Uri"},"status":"Real"},{"key":"10131226","name":"Allmendstrasse","postalCode":"6468","locality":"Attinghausen","commune":{"key":"1203","name":"Attinghausen","shortName":"Attinghausen"},"district":{"key":"400","name":"Kanton Uri"},"canton":{"key":"4","code":"UR","name":"Uri"},"status":"Real"},{"key":"10013774","name":"Andreasweg","postalCode":"6468","locality":"Attinghausen","commune":{"key":"1203","name":"Attinghausen","shortName":"Attinghausen"},"district":{"key":"400","name":"Kanton Uri"},"canton":{"key":"4","code":"UR","name":"Uri"},"status":"Real"},{"key":"10113880","name":"Ballweg","postalCode":"6468","locality":"Attinghausen","commune":{"key":"1203","name":"Attinghausen","shortName":"Attinghausen"},"district":{"key":"400","name":"Kanton Uri"},"canton":{"key":"4","code":"UR","name":"Uri"},"status":"Real"},{"key":"10066636","name":"Berg","postalCode":"6468","locality":"Attinghausen","commune":{"key":"1203","name":"Attinghausen","shortName":"Attinghausen"},"district":{"key":"400","name":"Kanton Uri"},"canton":{"key":"4","code":"UR","name":"Uri"},"status":"Real"},{"key":"10171141","name":"Bittmändi","postalCode":"6468","locality":"Attinghausen","commune":{"key":"1203","name":"Attinghausen","shortName":"Attinghausen"},"district":{"key":"400","name":"Kanton Uri"},"canton":{"key":"4","code":"UR","name":"Uri"},"status":"Real"},{"key":"10013777","name":"Bödeli","postalCode":"6468","locality":"Attinghausen","commune":{"key":"1203","name":"Attinghausen","shortName":"Attinghausen"},"district":{"key":"400","name":"Kanton Uri"},"canton":{"key":"4","code":"UR","name":"Uri"},"status":"Real"},{"key":"10112658","name":"Boden","postalCode":"6468","locality":"Attinghausen","commune":{"key":"1203","name":"Attinghausen","shortName":"Attinghausen"},"district":{"key":"400","name":"Kanton Uri"},"canton":{"key":"4","code":"UR","name":"Uri"},"status":"Real"},{"key":"10013775","name":"Bodenwaldstrasse","postalCode":"6468","locality":"Attinghausen","commune":{"key":"1203","name":"Attinghausen","shortName":"Attinghausen"},"district":{"key":"400","name":"Kanton Uri"},"canton":{"key":"4","code":"UR","name":"Uri"},"status":"Real"},{"key":"10013776","name":"Brüsti","postalCode":"6468","locality":"Attinghausen","commune":{"key":"1203","name":"Attinghausen","shortName":"Attinghausen"},"district":{"key":"400","name":"Kanton Uri"},"canton":{"key":"4","code":"UR","name":"Uri"},"status":"Real"},{"key":"10088114","name":"Burglihofstatt","postalCode":"6468","locality":"Attinghausen","commune":{"key":"1203","name":"Attinghausen","shortName":"Attinghausen"},"district":{"key":"400","name":"Kanton Uri"},"canton":{"key":"4","code":"UR","name":"Uri"},"status":"Real"},{"key":"10115455","name":"Burgstrasse","postalCode":"6468","locality":"Attinghausen","commune":{"key":"1203","name":"Attinghausen","shortName":"Attinghausen"},"district":{"key":"400","name":"Kanton Uri"},"canton":{"key":"4","code":"UR","name":"Uri"},"status":"Real"},{"key":"10172074","name":"Chulmli","postalCode":"6468","locality":"Attinghausen","commune":{"key":"1203","name":"Attinghausen","shortName":"Attinghausen"},"district":{"key":"400","name":"Kanton Uri"},"canton":{"key":"4","code":"UR","name":"Uri"},"status":"Real"},{"key":"10114382","name":"Emmeten","postalCode":"6468","locality":"Attinghausen","commune":{"key":"1203","name":"Attinghausen","shortName":"Attinghausen"},"district":{"key":"400","name":"Kanton Uri"},"canton":{"key":"4","code":"UR","name":"Uri"},"status":"Real"},{"key":"10013778","name":"Eyelen","postalCode":"6468","locality":"Attinghausen","commune":{"key":"1203","name":"Attinghausen","shortName":"Attinghausen"},"district":{"key":"400","name":"Kanton Uri"},"canton":{"key":"4","code":"UR","name":"Uri"},"status":"Real"},{"key":"10058540","name":"Feldli","postalCode":"6468","locality":"Attinghausen","commune":{"key":"1203","name":"Attinghausen","shortName":"Attinghausen"},"district":{"key":"400","name":"Kanton Uri"},"canton":{"key":"4","code":"UR","name":"Uri"},"status":"Real"},{"key":"10188489","name":"Feldstrasse","postalCode":"6468","locality":"Attinghausen","commune":{"key":"1203","name":"Attinghausen","shortName":"Attinghausen"},"district":{"key":"400","name":"Kanton Uri"},"canton":{"key":"4","code":"UR","name":"Uri"},"status":"Real"},{"key":"10088115","name":"Freiherrenstrasse","postalCode":"6468","locality":"Attinghausen","commune":{"key":"1203","name":"Attinghausen","shortName":"Attinghausen"},"district":{"key":"400","name":"Kanton Uri"},"canton":{"key":"4","code":"UR","name":"Uri"},"status":"Real"},{"key":"10066637","name":"Galliried","postalCode":"6468","locality":"Attinghausen","commune":{"key":"1203","name":"Attinghausen","shortName":"Attinghausen"},"district":{"key":"400","name":"Kanton Uri"},"canton":{"key":"4","code":"UR","name":"Uri"},"status":"Real"},{"key":"10127855","name":"Gändli","postalCode":"6468","locality":"Attinghausen","commune":{"key":"1203","name":"Attinghausen","shortName":"Attinghausen"},"district":{"key":"400","name":"Kanton Uri"},"canton":{"key":"4","code":"UR","name":"Uri"},"status":"Real"},{"key":"10014894","name":"Gändlistrasse","postalCode":"6468","locality":"Attinghausen","commune":{"key":"1203","name":"Attinghausen","shortName":"Attinghausen"},"district":{"key":"400","name":"Kanton Uri"},"canton":{"key":"4","code":"UR","name":"Uri"},"status":"Real"},{"key":"10113881","name":"Gezig","postalCode":"6468","locality":"Attinghausen","commune":{"key":"1203","name":"Attinghausen","shortName":"Attinghausen"},"district":{"key":"400","name":"Kanton Uri"},"canton":{"key":"4","code":"UR","name":"Uri"},"status":"Real"},{"key":"10014893","name":"Grossacher","postalCode":"6468","locality":"Attinghausen","commune":{"key":"1203","name":"Attinghausen","shortName":"Attinghausen"},"district":{"key":"400","name":"Kanton Uri"},"canton":{"key":"4","code":"UR","name":"Uri"},"status":"Real"},{"key":"10014896","name":"Häldi","postalCode":"6468","locality":"Attinghausen","commune":{"key":"1203","name":"Attinghausen","shortName":"Attinghausen"},"district":{"key":"400","name":"Kanton Uri"},"canton":{"key":"4","code":"UR","name":"Uri"},"status":"Real"},{"key":"10058541","name":"Heretswis","postalCode":"6468","locality":"Attinghausen","commune":{"key":"1203","name":"Attinghausen","shortName":"Attinghausen"},"district":{"key":"400","name":"Kanton Uri"},"canton":{"key":"4","code":"UR","name":"Uri"},"status":"Real"},{"key":"10111598","name":"Hochweg","postalCode":"6468","locality":"Attinghausen","commune":{"key":"1203","name":"Attinghausen","shortName":"Attinghausen"},"district":{"key":"400","name":"Kanton Uri"},"canton":{"key":"4","code":"UR","name":"Uri"},"status":"Real"},{"key":"10014895","name":"Hofstättli","postalCode":"6468","locality":"Attinghausen","commune":{"key":"1203","name":"Attinghausen","shortName":"Attinghausen"},"district":{"key":"400","name":"Kanton Uri"},"canton":{"key":"4","code":"UR","name":"Uri"},"status":"Real"},{"key":"10066638","name":"Hofstettli","postalCode":"6468","locality":"Attinghausen","commune":{"key":"1203","name":"Attinghausen","shortName":"Attinghausen"},"district":{"key":"400","name":"Kanton Uri"},"canton":{"key":"4","code":"UR","name":"Uri"},"status":"Real"},{"key":"10087080","name":"Höhiberg","postalCode":"6468","locality":"Attinghausen","commune":{"key":"1203","name":"Attinghausen","shortName":"Attinghausen"},"district":{"key":"400","name":"Kanton Uri"},"canton":{"key":"4","code":"UR","name":"Uri"},"status":"Real"},{"key":"10190790","name":"Hohl","postalCode":"6468","locality":"Attinghausen","commune":{"key":"1203","name":"Attinghausen","shortName":"Attinghausen"},"district":{"key":"400","name":"Kanton Uri"},"canton":{"key":"4","code":"UR","name":"Uri"},"status":"Real"},{"key":"10058542","name":"Islerli","postalCode":"6468","locality":"Attinghausen","commune":{"key":"1203","name":"Attinghausen","shortName":"Attinghausen"},"district":{"key":"400","name":"Kanton Uri"},"canton":{"key":"4","code":"UR","name":"Uri"},"status":"Real"},{"key":"10088116","name":"Jägerweg","postalCode":"6468","locality":"Attinghausen","commune":{"key":"1203","name":"Attinghausen","shortName":"Attinghausen"},"district":{"key":"400","name":"Kanton Uri"},"canton":{"key":"4","code":"UR","name":"Uri"},"status":"Real"},{"key":"10014897","name":"Kirchweg","postalCode":"6468","locality":"Attinghausen","commune":{"key":"1203","name":"Attinghausen","shortName":"Attinghausen"},"district":{"key":"400","name":"Kanton Uri"},"canton":{"key":"4","code":"UR","name":"Uri"},"status":"Real"},{"key":"10066639","name":"Klosterweg","postalCode":"6468","locality":"Attinghausen","commune":{"key":"1203","name":"Attinghausen","shortName":"Attinghausen"},"district":{"key":"400","name":"Kanton Uri"},"canton":{"key":"4","code":"UR","name":"Uri"},"status":"Real"},{"key":"10113882","name":"Kohlplatz","postalCode":"6468","locality":"Attinghausen","commune":{"key":"1203","name":"Attinghausen","shortName":"Attinghausen"},"district":{"key":"400","name":"Kanton Uri"},"canton":{"key":"4","code":"UR","name":"Uri"},"status":"Real"},{"key":"10014898","name":"Kornmattweg","postalCode":"6468","locality":"Attinghausen","commune":{"key":"1203","name":"Attinghausen","shortName":"Attinghausen"},"district":{"key":"400","name":"Kanton Uri"},"canton":{"key":"4","code":"UR","name":"Uri"},"status":"Real"},{"key":"10088117","name":"Kulm","postalCode":"6468","locality":"Attinghausen","commune":{"key":"1203","name":"Attinghausen","shortName":"Attinghausen"},"district":{"key":"400","name":"Kanton Uri"},"canton":{"key":"4","code":"UR","name":"Uri"},"status":"Real"},{"key":"10014899","name":"Kummetstrasse","postalCode":"6468","locality":"Attinghausen","commune":{"key":"1203","name":"Attinghausen","shortName":"Attinghausen"},"district":{"key":"400","name":"Kanton Uri"},"canton":{"key":"4","code":"UR","name":"Uri"},"status":"Real"},{"key":"10105762","name":"Langacher","postalCode":"6468","locality":"Attinghausen","commune":{"key":"1203","name":"Attinghausen","shortName":"Attinghausen"},"district":{"key":"400","name":"Kanton Uri"},"canton":{"key":"4","code":"UR","name":"Uri"},"status":"Real"},{"key":"10058543","name":"Langried","postalCode":"6468","locality":"Attinghausen","commune":{"key":"1203","name":"Attinghausen","shortName":"Attinghausen"},"district":{"key":"400","name":"Kanton Uri"},"canton":{"key":"4","code":"UR","name":"Uri"},"status":"Real"},{"key":"10014900","name":"Lindenweg","postalCode":"6468","locality":"Attinghausen","commune":{"key":"1203","name":"Attinghausen","shortName":"Attinghausen"},"district":{"key":"400","name":"Kanton Uri"},"canton":{"key":"4","code":"UR","name":"Uri"},"status":"Real"},{"key":"10112659","name":"Mätteli","postalCode":"6468","locality":"Attinghausen","commune":{"key":"1203","name":"Attinghausen","shortName":"Attinghausen"},"district":{"key":"400","name":"Kanton Uri"},"canton":{"key":"4","code":"UR","name":"Uri"},"status":"Real"},{"key":"10088118","name":"Mettlen","postalCode":"6468","locality":"Attinghausen","commune":{"key":"1203","name":"Attinghausen","shortName":"Attinghausen"},"district":{"key":"400","name":"Kanton Uri"},"canton":{"key":"4","code":"UR","name":"Uri"},"status":"Real"},{"key":"10014901","name":"Mühlestatt","postalCode":"6468","locality":"Attinghausen","commune":{"key":"1203","name":"Attinghausen","shortName":"Attinghausen"},"district":{"key":"400","name":"Kanton Uri"},"canton":{"key":"4","code":"UR","name":"Uri"},"status":"Real"},{"key":"10150720","name":"Obere Postmatte","postalCode":"6468","locality":"Attinghausen","commune":{"key":"1203","name":"Attinghausen","shortName":"Attinghausen"},"district":{"key":"400","name":"Kanton Uri"},"canton":{"key":"4","code":"UR","name":"Uri"},"status":"Real"},{"key":"10113883","name":"Oberer Langacher","postalCode":"6468","locality":"Attinghausen","commune":{"key":"1203","name":"Attinghausen","shortName":"Attinghausen"},"district":{"key":"400","name":"Kanton Uri"},"canton":{"key":"4","code":"UR","name":"Uri"},"status":"Real"},{"key":"10175346","name":"Oberer Tschingel","postalCode":"6468","locality":"Attinghausen","commune":{"key":"1203","name":"Attinghausen","shortName":"Attinghausen"},"district":{"key":"400","name":"Kanton Uri"},"canton":{"key":"4","code":"UR","name":"Uri"},"status":"Real"},{"key":"10133918","name":"Oberes Stockbergli","postalCode":"6468","locality":"Attinghausen","commune":{"key":"1203","name":"Attinghausen","shortName":"Attinghausen"},"district":{"key":"400","name":"Kanton Uri"},"canton":{"key":"4","code":"UR","name":"Uri"},"status":"Real"},{"key":"10088119","name":"Obermatt","postalCode":"6468","locality":"Attinghausen","commune":{"key":"1203","name":"Attinghausen","shortName":"Attinghausen"},"district":{"key":"400","name":"Kanton Uri"},"canton":{"key":"4","code":"UR","name":"Uri"},"status":"Real"},{"key":"10188490","name":"Obermattli","postalCode":"6468","locality":"Attinghausen","commune":{"key":"1203","name":"Attinghausen","shortName":"Attinghausen"},"district":{"key":"400","name":"Kanton Uri"},"canton":{"key":"4","code":"UR","name":"Uri"},"status":"Real"},{"key":"10111599","name":"Plattli","postalCode":"6468","locality":"Attinghausen","commune":{"key":"1203","name":"Attinghausen","shortName":"Attinghausen"},"district":{"key":"400","name":"Kanton Uri"},"canton":{"key":"4","code":"UR","name":"Uri"},"status":"Real"},{"key":"10155866","name":"Port","postalCode":"6468","locality":"Attinghausen","commune":{"key":"1203","name":"Attinghausen","shortName":"Attinghausen"},"district":{"key":"400","name":"Kanton Uri"},"canton":{"key":"4","code":"UR","name":"Uri"},"status":"Real"},{"key":"10159612","name":"Rämseli","postalCode":"6468","locality":"Attinghausen","commune":{"key":"1203","name":"Attinghausen","shortName":"Attinghausen"},"district":{"key":"400","name":"Kanton Uri"},"canton":{"key":"4","code":"UR","name":"Uri"},"status":"Real"},{"key":"10190737","name":"Regliberg","postalCode":"6468","locality":"Attinghausen","commune":{"key":"1203","name":"Attinghausen","shortName":"Attinghausen"},"district":{"key":"400","name":"Kanton Uri"},"canton":{"key":"4","code":"UR","name":"Uri"},"status":"Real"},{"key":"10014902","name":"Reussmatt","postalCode":"6468","locality":"Attinghausen","commune":{"key":"1203","name":"Attinghausen","shortName":"Attinghausen"},"district":{"key":"400","name":"Kanton Uri"},"canton":{"key":"4","code":"UR","name":"Uri"},"status":"Real"},{"key":"10088120","name":"Reussstrasse","postalCode":"6468","locality":"Attinghausen","commune":{"key":"1203","name":"Attinghausen","shortName":"Attinghausen"},"district":{"key":"400","name":"Kanton Uri"},"canton":{"key":"4","code":"UR","name":"Uri"},"status":"Real"},{"key":"10014903","name":"Ribi","postalCode":"6468","locality":"Attinghausen","commune":{"key":"1203","name":"Attinghausen","shortName":"Attinghausen"},"district":{"key":"400","name":"Kanton Uri"},"canton":{"key":"4","code":"UR","name":"Uri"},"status":"Real"},{"key":"10066641","name":"Ring","postalCode":"6468","locality":"Attinghausen","commune":{"key":"1203","name":"Attinghausen","shortName":"Attinghausen"},"district":{"key":"400","name":"Kanton Uri"},"canton":{"key":"4","code":"UR","name":"Uri"},"status":"Real"},{"key":"10014904","name":"Ringweg","postalCode":"6468","locality":"Attinghausen","commune":{"key":"1203","name":"Attinghausen","shortName":"Attinghausen"},"district":{"key":"400","name":"Kanton Uri"},"canton":{"key":"4","code":"UR","name":"Uri"},"status":"Real"},{"key":"10058544","name":"Rösti","postalCode":"6468","locality":"Attinghausen","commune":{"key":"1203","name":"Attinghausen","shortName":"Attinghausen"},"district":{"key":"400","name":"Kanton Uri"},"canton":{"key":"4","code":"UR","name":"Uri"},"status":"Real"},{"key":"10180538","name":"Rotach","postalCode":"6468","locality":"Attinghausen","commune":{"key":"1203","name":"Attinghausen","shortName":"Attinghausen"},"district":{"key":"400","name":"Kanton Uri"},"canton":{"key":"4","code":"UR","name":"Uri"},"status":"Real"},{"key":"10014905","name":"Ruberli","postalCode":"6468","locality":"Attinghausen","commune":{"key":"1203","name":"Attinghausen","shortName":"Attinghausen"},"district":{"key":"400","name":"Kanton Uri"},"canton":{"key":"4","code":"UR","name":"Uri"},"status":"Real"},{"key":"10173715","name":"Rüteli","postalCode":"6468","locality":"Attinghausen","commune":{"key":"1203","name":"Attinghausen","shortName":"Attinghausen"},"district":{"key":"400","name":"Kanton Uri"},"canton":{"key":"4","code":"UR","name":"Uri"},"status":"Real"},{"key":"10014906","name":"Rüti","postalCode":"6468","locality":"Attinghausen","commune":{"key":"1203","name":"Attinghausen","shortName":"Attinghausen"},"district":{"key":"400","name":"Kanton Uri"},"canton":{"key":"4","code":"UR","name":"Uri"},"status":"Real"},{"key":"10115456","name":"Schafmatt","postalCode":"6468","locality":"Attinghausen","commune":{"key":"1203","name":"Attinghausen","shortName":"Attinghausen"},"district":{"key":"400","name":"Kanton Uri"},"canton":{"key":"4","code":"UR","name":"Uri"},"status":"Real"},{"key":"10088121","name":"Schulhausweg","postalCode":"6468","locality":"Attinghausen","commune":{"key":"1203","name":"Attinghausen","shortName":"Attinghausen"},"district":{"key":"400","name":"Kanton Uri"},"canton":{"key":"4","code":"UR","name":"Uri"},"status":"Real"},{"key":"10112660","name":"Schwandenberg","postalCode":"6468","locality":"Attinghausen","commune":{"key":"1203","name":"Attinghausen","shortName":"Attinghausen"},"district":{"key":"400","name":"Kanton Uri"},"canton":{"key":"4","code":"UR","name":"Uri"},"status":"Real"},{"key":"10014908","name":"Schwändi","postalCode":"6468","locality":"Attinghausen","commune":{"key":"1203","name":"Attinghausen","shortName":"Attinghausen"},"district":{"key":"400","name":"Kanton Uri"},"canton":{"key":"4","code":"UR","name":"Uri"},"status":"Real"},{"key":"10014907","name":"Schweinsberggasse","postalCode":"6468","locality":"Attinghausen","commune":{"key":"1203","name":"Attinghausen","shortName":"Attinghausen"},"district":{"key":"400","name":"Kanton Uri"},"canton":{"key":"4","code":"UR","name":"Uri"},"status":"Real"},{"key":"10066642","name":"Silgen","postalCode":"6468","locality":"Attinghausen","commune":{"key":"1203","name":"Attinghausen","shortName":"Attinghausen"},"district":{"key":"400","name":"Kanton Uri"},"canton":{"key":"4","code":"UR","name":"Uri"},"status":"Real"},{"key":"10116585","name":"Spälten","postalCode":"6468","locality":"Attinghausen","commune":{"key":"1203","name":"Attinghausen","shortName":"Attinghausen"},"district":{"key":"400","name":"Kanton Uri"},"canton":{"key":"4","code":"UR","name":"Uri"},"status":"Real"},{"key":"10088122","name":"Stachelmätteli","postalCode":"6468","locality":"Attinghausen","commune":{"key":"1203","name":"Attinghausen","shortName":"Attinghausen"},"district":{"key":"400","name":"Kanton Uri"},"canton":{"key":"4","code":"UR","name":"Uri"},"status":"Real"},{"key":"10111600","name":"Stämpfig","postalCode":"6468","locality":"Attinghausen","commune":{"key":"1203","name":"Attinghausen","shortName":"Attinghausen"},"district":{"key":"400","name":"Kanton Uri"},"canton":{"key":"4","code":"UR","name":"Uri"},"status":"Real"},{"key":"10058545","name":"Stapfen","postalCode":"6468","locality":"Attinghausen","commune":{"key":"1203","name":"Attinghausen","shortName":"Attinghausen"},"district":{"key":"400","name":"Kanton Uri"},"canton":{"key":"4","code":"UR","name":"Uri"},"status":"Real"},{"key":"10014909","name":"Sticki","postalCode":"6468","locality":"Attinghausen","commune":{"key":"1203","name":"Attinghausen","shortName":"Attinghausen"},"district":{"key":"400","name":"Kanton Uri"},"canton":{"key":"4","code":"UR","name":"Uri"},"status":"Real"},{"key":"10014910","name":"Stücke","postalCode":"6468","locality":"Attinghausen","commune":{"key":"1203","name":"Attinghausen","shortName":"Attinghausen"},"district":{"key":"400","name":"Kanton Uri"},"canton":{"key":"4","code":"UR","name":"Uri"},"status":"Real"},{"key":"10188491","name":"Tafleten","postalCode":"6468","locality":"Attinghausen","commune":{"key":"1203","name":"Attinghausen","shortName":"Attinghausen"},"district":{"key":"400","name":"Kanton Uri"},"canton":{"key":"4","code":"UR","name":"Uri"},"status":"Real"},{"key":"10112661","name":"Talacker","postalCode":"6468","locality":"Attinghausen","commune":{"key":"1203","name":"Attinghausen","shortName":"Attinghausen"},"district":{"key":"400","name":"Kanton Uri"},"canton":{"key":"4","code":"UR","name":"Uri"},"status":"Real"},{"key":"10174446","name":"Teppenriedli","postalCode":"6468","locality":"Attinghausen","commune":{"key":"1203","name":"Attinghausen","shortName":"Attinghausen"},"district":{"key":"400","name":"Kanton Uri"},"canton":{"key":"4","code":"UR","name":"Uri"},"status":"Real"},{"key":"10212118","name":"Untere Postmatte","postalCode":"6468","locality":"Attinghausen","commune":{"key":"1203","name":"Attinghausen","shortName":"Attinghausen"},"district":{"key":"400","name":"Kanton Uri"},"canton":{"key":"4","code":"UR","name":"Uri"},"status":"Real"},{"key":"10088123","name":"Unterer Tschingel","postalCode":"6468","locality":"Attinghausen","commune":{"key":"1203","name":"Attinghausen","shortName":"Attinghausen"},"district":{"key":"400","name":"Kanton Uri"},"canton":{"key":"4","code":"UR","name":"Uri"},"status":"Real"},{"key":"10066643","name":"Unteres Stockbergli","postalCode":"6468","locality":"Attinghausen","commune":{"key":"1203","name":"Attinghausen","shortName":"Attinghausen"},"district":{"key":"400","name":"Kanton Uri"},"canton":{"key":"4","code":"UR","name":"Uri"},"status":"Real"},{"key":"10058547","name":"Waldnacht","postalCode":"6468","locality":"Attinghausen","commune":{"key":"1203","name":"Attinghausen","shortName":"Attinghausen"},"district":{"key":"400","name":"Kanton Uri"},"canton":{"key":"4","code":"UR","name":"Uri"},"status":"Real"},{"key":"10014911","name":"Walter-Fürststrasse","postalCode":"6468","locality":"Attinghausen","commune":{"key":"1203","name":"Attinghausen","shortName":"Attinghausen"},"district":{"key":"400","name":"Kanton Uri"},"canton":{"key":"4","code":"UR","name":"Uri"},"status":"Real"},{"key":"10193214","name":"Wehrheim","postalCode":"6468","locality":"Attinghausen","commune":{"key":"1203","name":"Attinghausen","shortName":"Attinghausen"},"district":{"key":"400","name":"Kanton Uri"},"canton":{"key":"4","code":"UR","name":"Uri"},"status":"Real"},{"key":"10172143","name":"Weid","postalCode":"6468","locality":"Attinghausen","commune":{"key":"1203","name":"Attinghausen","shortName":"Attinghausen"},"district":{"key":"400","name":"Kanton Uri"},"canton":{"key":"4","code":"UR","name":"Uri"},"status":"Real"},{"key":"10162157","name":"Wetmatt","postalCode":"6468","locality":"Attinghausen","commune":{"key":"1203","name":"Attinghausen","shortName":"Attinghausen"},"district":{"key":"400","name":"Kanton Uri"},"canton":{"key":"4","code":"UR","name":"Uri"},"status":"Real"},{"key":"10014912","name":"Wilerli","postalCode":"6468","locality":"Attinghausen","commune":{"key":"1203","name":"Attinghausen","shortName":"Attinghausen"},"district":{"key":"400","name":"Kanton Uri"},"canton":{"key":"4","code":"UR","name":"Uri"},"status":"Real"},{"key":"10113885","name":"Zibeggi","postalCode":"6468","locality":"Attinghausen","commune":{"key":"1203","name":"Attinghausen","shortName":"Attinghausen"},"district":{"key":"400","name":"Kanton Uri"},"canton":{"key":"4","code":"UR","name":"Uri"},"status":"Real"},]