[{"name":"Alte Stroth","postalCode":"57586","locality":"Weitefeld","municipality":{"key":"07132113","name":"Weitefeld","type":"Kreisangehörige_Gemeinde"},"district":{"key":"07132","name":"Altenkirchen (Westerwald)","type":"Landkreis"},"federalState":{"key":"07","name":"Rheinland-Pfalz"}},{"name":"Am Hochbehälter","postalCode":"57586","locality":"Weitefeld","municipality":{"key":"07132113","name":"Weitefeld","type":"Kreisangehörige_Gemeinde"},"district":{"key":"07132","name":"Altenkirchen (Westerwald)","type":"Landkreis"},"federalState":{"key":"07","name":"Rheinland-Pfalz"}},{"name":"Am Rain","postalCode":"57586","locality":"Weitefeld","municipality":{"key":"07132113","name":"Weitefeld","type":"Kreisangehörige_Gemeinde"},"district":{"key":"07132","name":"Altenkirchen (Westerwald)","type":"Landkreis"},"federalState":{"key":"07","name":"Rheinland-Pfalz"}},{"name":"Am Spielplatz","postalCode":"57586","locality":"Weitefeld","municipality":{"key":"07132113","name":"Weitefeld","type":"Kreisangehörige_Gemeinde"},"district":{"key":"07132","name":"Altenkirchen (Westerwald)","type":"Landkreis"},"federalState":{"key":"07","name":"Rheinland-Pfalz"}},{"name":"Am Weitenstück","postalCode":"57586","locality":"Weitefeld","municipality":{"key":"07132113","name":"Weitefeld","type":"Kreisangehörige_Gemeinde"},"district":{"key":"07132","name":"Altenkirchen (Westerwald)","type":"Landkreis"},"federalState":{"key":"07","name":"Rheinland-Pfalz"}},{"name":"An der Steinart","postalCode":"57586","locality":"Weitefeld","municipality":{"key":"07132113","name":"Weitefeld","type":"Kreisangehörige_Gemeinde"},"district":{"key":"07132","name":"Altenkirchen (Westerwald)","type":"Landkreis"},"federalState":{"key":"07","name":"Rheinland-Pfalz"}},{"name":"Bahnhofstr.","postalCode":"57586","locality":"Weitefeld","municipality":{"key":"07132113","name":"Weitefeld","type":"Kreisangehörige_Gemeinde"},"district":{"key":"07132","name":"Altenkirchen (Westerwald)","type":"Landkreis"},"federalState":{"key":"07","name":"Rheinland-Pfalz"}},{"name":"Bergstr.","postalCode":"57586","locality":"Weitefeld","municipality":{"key":"07132113","name":"Weitefeld","type":"Kreisangehörige_Gemeinde"},"district":{"key":"07132","name":"Altenkirchen (Westerwald)","type":"Landkreis"},"federalState":{"key":"07","name":"Rheinland-Pfalz"}},{"name":"Betzdorfer Str.","postalCode":"57586","locality":"Weitefeld","municipality":{"key":"07132113","name":"Weitefeld","type":"Kreisangehörige_Gemeinde"},"district":{"key":"07132","name":"Altenkirchen (Westerwald)","type":"Landkreis"},"federalState":{"key":"07","name":"Rheinland-Pfalz"}},{"name":"Brunnenstr.","postalCode":"57586","locality":"Weitefeld","municipality":{"key":"07132113","name":"Weitefeld","type":"Kreisangehörige_Gemeinde"},"district":{"key":"07132","name":"Altenkirchen (Westerwald)","type":"Landkreis"},"federalState":{"key":"07","name":"Rheinland-Pfalz"}},{"name":"Buchenweg","postalCode":"57586","locality":"Weitefeld","municipality":{"key":"07132113","name":"Weitefeld","type":"Kreisangehörige_Gemeinde"},"district":{"key":"07132","name":"Altenkirchen (Westerwald)","type":"Landkreis"},"federalState":{"key":"07","name":"Rheinland-Pfalz"}},{"name":"Daadener Str.","postalCode":"57586","locality":"Weitefeld","municipality":{"key":"07132113","name":"Weitefeld","type":"Kreisangehörige_Gemeinde"},"district":{"key":"07132","name":"Altenkirchen (Westerwald)","type":"Landkreis"},"federalState":{"key":"07","name":"Rheinland-Pfalz"}},{"name":"Dreisbachtal","postalCode":"57586","locality":"Weitefeld","municipality":{"key":"07132113","name":"Weitefeld","type":"Kreisangehörige_Gemeinde"},"district":{"key":"07132","name":"Altenkirchen (Westerwald)","type":"Landkreis"},"federalState":{"key":"07","name":"Rheinland-Pfalz"}},{"name":"Gartenstr.","postalCode":"57586","locality":"Weitefeld","municipality":{"key":"07132113","name":"Weitefeld","type":"Kreisangehörige_Gemeinde"},"district":{"key":"07132","name":"Altenkirchen (Westerwald)","type":"Landkreis"},"federalState":{"key":"07","name":"Rheinland-Pfalz"}},{"name":"Gartenstr. 30 A bis 32 B","postalCode":"57586","locality":"Weitefeld","municipality":{"key":"07132113","name":"Weitefeld","type":"Kreisangehörige_Gemeinde"},"district":{"key":"07132","name":"Altenkirchen (Westerwald)","type":"Landkreis"},"federalState":{"key":"07","name":"Rheinland-Pfalz"}},{"name":"Hachenburger Str.","postalCode":"57586","locality":"Weitefeld","municipality":{"key":"07132113","name":"Weitefeld","type":"Kreisangehörige_Gemeinde"},"district":{"key":"07132","name":"Altenkirchen (Westerwald)","type":"Landkreis"},"federalState":{"key":"07","name":"Rheinland-Pfalz"}},{"name":"Hellweg","postalCode":"57586","locality":"Weitefeld","municipality":{"key":"07132113","name":"Weitefeld","type":"Kreisangehörige_Gemeinde"},"district":{"key":"07132","name":"Altenkirchen (Westerwald)","type":"Landkreis"},"federalState":{"key":"07","name":"Rheinland-Pfalz"}},{"name":"Herrigsweg","postalCode":"57586","locality":"Weitefeld","municipality":{"key":"07132113","name":"Weitefeld","type":"Kreisangehörige_Gemeinde"},"district":{"key":"07132","name":"Altenkirchen (Westerwald)","type":"Landkreis"},"federalState":{"key":"07","name":"Rheinland-Pfalz"}},{"name":"Hintere Buchwiese","postalCode":"57586","locality":"Weitefeld","municipality":{"key":"07132113","name":"Weitefeld","type":"Kreisangehörige_Gemeinde"},"district":{"key":"07132","name":"Altenkirchen (Westerwald)","type":"Landkreis"},"federalState":{"key":"07","name":"Rheinland-Pfalz"}},{"name":"Höhenweg","postalCode":"57586","locality":"Weitefeld","municipality":{"key":"07132113","name":"Weitefeld","type":"Kreisangehörige_Gemeinde"},"district":{"key":"07132","name":"Altenkirchen (Westerwald)","type":"Landkreis"},"federalState":{"key":"07","name":"Rheinland-Pfalz"}},{"name":"Hollerweg","postalCode":"57586","locality":"Weitefeld","municipality":{"key":"07132113","name":"Weitefeld","type":"Kreisangehörige_Gemeinde"},"district":{"key":"07132","name":"Altenkirchen (Westerwald)","type":"Landkreis"},"federalState":{"key":"07","name":"Rheinland-Pfalz"}},{"name":"Im Samensgarten","postalCode":"57586","locality":"Weitefeld","municipality":{"key":"07132113","name":"Weitefeld","type":"Kreisangehörige_Gemeinde"},"district":{"key":"07132","name":"Altenkirchen (Westerwald)","type":"Landkreis"},"federalState":{"key":"07","name":"Rheinland-Pfalz"}},{"name":"Im Schloßsteinchen","postalCode":"57586","locality":"Weitefeld","municipality":{"key":"07132113","name":"Weitefeld","type":"Kreisangehörige_Gemeinde"},"district":{"key":"07132","name":"Altenkirchen (Westerwald)","type":"Landkreis"},"federalState":{"key":"07","name":"Rheinland-Pfalz"}},{"name":"Im Steingarten","postalCode":"57586","locality":"Weitefeld","municipality":{"key":"07132113","name":"Weitefeld","type":"Kreisangehörige_Gemeinde"},"district":{"key":"07132","name":"Altenkirchen (Westerwald)","type":"Landkreis"},"federalState":{"key":"07","name":"Rheinland-Pfalz"}},{"name":"In der Buchwiese","postalCode":"57586","locality":"Weitefeld","municipality":{"key":"07132113","name":"Weitefeld","type":"Kreisangehörige_Gemeinde"},"district":{"key":"07132","name":"Altenkirchen (Westerwald)","type":"Landkreis"},"federalState":{"key":"07","name":"Rheinland-Pfalz"}},{"name":"In der Theiswies","postalCode":"57586","locality":"Weitefeld","municipality":{"key":"07132113","name":"Weitefeld","type":"Kreisangehörige_Gemeinde"},"district":{"key":"07132","name":"Altenkirchen (Westerwald)","type":"Landkreis"},"federalState":{"key":"07","name":"Rheinland-Pfalz"}},{"name":"Kirchweg","postalCode":"57586","locality":"Weitefeld","municipality":{"key":"07132113","name":"Weitefeld","type":"Kreisangehörige_Gemeinde"},"district":{"key":"07132","name":"Altenkirchen (Westerwald)","type":"Landkreis"},"federalState":{"key":"07","name":"Rheinland-Pfalz"}},{"name":"Langenbacher Str.","postalCode":"57586","locality":"Weitefeld","municipality":{"key":"07132113","name":"Weitefeld","type":"Kreisangehörige_Gemeinde"},"district":{"key":"07132","name":"Altenkirchen (Westerwald)","type":"Landkreis"},"federalState":{"key":"07","name":"Rheinland-Pfalz"}},{"name":"Martin-Luther-Str.","postalCode":"57586","locality":"Weitefeld","municipality":{"key":"07132113","name":"Weitefeld","type":"Kreisangehörige_Gemeinde"},"district":{"key":"07132","name":"Altenkirchen (Westerwald)","type":"Landkreis"},"federalState":{"key":"07","name":"Rheinland-Pfalz"}},{"name":"Mittelstr.","postalCode":"57586","locality":"Weitefeld","municipality":{"key":"07132113","name":"Weitefeld","type":"Kreisangehörige_Gemeinde"},"district":{"key":"07132","name":"Altenkirchen (Westerwald)","type":"Landkreis"},"federalState":{"key":"07","name":"Rheinland-Pfalz"}},{"name":"Neuer Weg","postalCode":"57586","locality":"Weitefeld","municipality":{"key":"07132113","name":"Weitefeld","type":"Kreisangehörige_Gemeinde"},"district":{"key":"07132","name":"Altenkirchen (Westerwald)","type":"Landkreis"},"federalState":{"key":"07","name":"Rheinland-Pfalz"}},{"name":"Pudelwiese","postalCode":"57586","locality":"Weitefeld","municipality":{"key":"07132113","name":"Weitefeld","type":"Kreisangehörige_Gemeinde"},"district":{"key":"07132","name":"Altenkirchen (Westerwald)","type":"Landkreis"},"federalState":{"key":"07","name":"Rheinland-Pfalz"}},{"name":"Ringstr.","postalCode":"57586","locality":"Weitefeld","municipality":{"key":"07132113","name":"Weitefeld","type":"Kreisangehörige_Gemeinde"},"district":{"key":"07132","name":"Altenkirchen (Westerwald)","type":"Landkreis"},"federalState":{"key":"07","name":"Rheinland-Pfalz"}},{"name":"Sandstr.","postalCode":"57586","locality":"Weitefeld","municipality":{"key":"07132113","name":"Weitefeld","type":"Kreisangehörige_Gemeinde"},"district":{"key":"07132","name":"Altenkirchen (Westerwald)","type":"Landkreis"},"federalState":{"key":"07","name":"Rheinland-Pfalz"}},{"name":"Schulstr.","postalCode":"57586","locality":"Weitefeld","municipality":{"key":"07132113","name":"Weitefeld","type":"Kreisangehörige_Gemeinde"},"district":{"key":"07132","name":"Altenkirchen (Westerwald)","type":"Landkreis"},"federalState":{"key":"07","name":"Rheinland-Pfalz"}},{"name":"Sonnenweg","postalCode":"57586","locality":"Weitefeld","municipality":{"key":"07132113","name":"Weitefeld","type":"Kreisangehörige_Gemeinde"},"district":{"key":"07132","name":"Altenkirchen (Westerwald)","type":"Landkreis"},"federalState":{"key":"07","name":"Rheinland-Pfalz"}},{"name":"Talstr.","postalCode":"57586","locality":"Weitefeld","municipality":{"key":"07132113","name":"Weitefeld","type":"Kreisangehörige_Gemeinde"},"district":{"key":"07132","name":"Altenkirchen (Westerwald)","type":"Landkreis"},"federalState":{"key":"07","name":"Rheinland-Pfalz"}},{"name":"Triftweg","postalCode":"57586","locality":"Weitefeld","municipality":{"key":"07132113","name":"Weitefeld","type":"Kreisangehörige_Gemeinde"},"district":{"key":"07132","name":"Altenkirchen (Westerwald)","type":"Landkreis"},"federalState":{"key":"07","name":"Rheinland-Pfalz"}},{"name":"Turnhallenweg","postalCode":"57586","locality":"Weitefeld","municipality":{"key":"07132113","name":"Weitefeld","type":"Kreisangehörige_Gemeinde"},"district":{"key":"07132","name":"Altenkirchen (Westerwald)","type":"Landkreis"},"federalState":{"key":"07","name":"Rheinland-Pfalz"}},{"name":"Waldweg","postalCode":"57586","locality":"Weitefeld","municipality":{"key":"07132113","name":"Weitefeld","type":"Kreisangehörige_Gemeinde"},"district":{"key":"07132","name":"Altenkirchen (Westerwald)","type":"Landkreis"},"federalState":{"key":"07","name":"Rheinland-Pfalz"}},{"name":"Weiherweg","postalCode":"57586","locality":"Weitefeld","municipality":{"key":"07132113","name":"Weitefeld","type":"Kreisangehörige_Gemeinde"},"district":{"key":"07132","name":"Altenkirchen (Westerwald)","type":"Landkreis"},"federalState":{"key":"07","name":"Rheinland-Pfalz"}},{"name":"Westerwaldbahn (Kreis Altenkirchen)","postalCode":"57586","locality":"Weitefeld","municipality":{"key":"07132113","name":"Weitefeld","type":"Kreisangehörige_Gemeinde"},"district":{"key":"07132","name":"Altenkirchen (Westerwald)","type":"Landkreis"},"federalState":{"key":"07","name":"Rheinland-Pfalz"}},{"name":"Wiesenstr.","postalCode":"57586","locality":"Weitefeld","municipality":{"key":"07132113","name":"Weitefeld","type":"Kreisangehörige_Gemeinde"},"district":{"key":"07132","name":"Altenkirchen (Westerwald)","type":"Landkreis"},"federalState":{"key":"07","name":"Rheinland-Pfalz"}},{"name":"Zum Baumert","postalCode":"57586","locality":"Weitefeld","municipality":{"key":"07132113","name":"Weitefeld","type":"Kreisangehörige_Gemeinde"},"district":{"key":"07132","name":"Altenkirchen (Westerwald)","type":"Landkreis"},"federalState":{"key":"07","name":"Rheinland-Pfalz"}},{"name":"Zum Erlenborn","postalCode":"57586","locality":"Weitefeld","municipality":{"key":"07132113","name":"Weitefeld","type":"Kreisangehörige_Gemeinde"},"district":{"key":"07132","name":"Altenkirchen (Westerwald)","type":"Landkreis"},"federalState":{"key":"07","name":"Rheinland-Pfalz"}},{"name":"Zum Steimel","postalCode":"57586","locality":"Weitefeld","municipality":{"key":"07132113","name":"Weitefeld","type":"Kreisangehörige_Gemeinde"},"district":{"key":"07132","name":"Altenkirchen (Westerwald)","type":"Landkreis"},"federalState":{"key":"07","name":"Rheinland-Pfalz"}},]