[{"name":"Ahornweg","postalCode":"73119","locality":"Zell unter Aichelberg","municipality":{"key":"08117060","name":"Zell unter Aichelberg","type":"Kreisangehörige_Gemeinde"},"district":{"key":"08117","name":"Göppingen","type":"Landkreis"},"federalState":{"key":"08","name":"Baden-Württemberg"}},{"name":"Aichelberger Sträßle","postalCode":"73101","locality":"Aichelberg","municipality":{"key":"08117002","name":"Aichelberg","type":"Kreisangehörige_Gemeinde"},"district":{"key":"08117","name":"Göppingen","type":"Landkreis"},"federalState":{"key":"08","name":"Baden-Württemberg"}},{"name":"Aichelberger Weg","postalCode":"73119","locality":"Zell unter Aichelberg","municipality":{"key":"08117060","name":"Zell unter Aichelberg","type":"Kreisangehörige_Gemeinde"},"district":{"key":"08117","name":"Göppingen","type":"Landkreis"},"federalState":{"key":"08","name":"Baden-Württemberg"}},{"name":"Akazienweg","postalCode":"73119","locality":"Zell unter Aichelberg","municipality":{"key":"08117060","name":"Zell unter Aichelberg","type":"Kreisangehörige_Gemeinde"},"district":{"key":"08117","name":"Göppingen","type":"Landkreis"},"federalState":{"key":"08","name":"Baden-Württemberg"}},{"name":"Am Bunzenberg","postalCode":"73101","locality":"Aichelberg","municipality":{"key":"08117002","name":"Aichelberg","type":"Kreisangehörige_Gemeinde"},"district":{"key":"08117","name":"Göppingen","type":"Landkreis"},"federalState":{"key":"08","name":"Baden-Württemberg"}},{"name":"Autobahnweg","postalCode":"73101","locality":"Aichelberg","municipality":{"key":"08117002","name":"Aichelberg","type":"Kreisangehörige_Gemeinde"},"district":{"key":"08117","name":"Göppingen","type":"Landkreis"},"federalState":{"key":"08","name":"Baden-Württemberg"}},{"name":"Bachstr.","postalCode":"73119","locality":"Zell unter Aichelberg","municipality":{"key":"08117060","name":"Zell unter Aichelberg","type":"Kreisangehörige_Gemeinde"},"district":{"key":"08117","name":"Göppingen","type":"Landkreis"},"federalState":{"key":"08","name":"Baden-Württemberg"}},{"name":"Bergstr.","postalCode":"73119","locality":"Zell unter Aichelberg","municipality":{"key":"08117060","name":"Zell unter Aichelberg","type":"Kreisangehörige_Gemeinde"},"district":{"key":"08117","name":"Göppingen","type":"Landkreis"},"federalState":{"key":"08","name":"Baden-Württemberg"}},{"name":"Birnen-Lehrpfad","postalCode":"73119","locality":"Zell unter Aichelberg","municipality":{"key":"08117060","name":"Zell unter Aichelberg","type":"Kreisangehörige_Gemeinde"},"district":{"key":"08117","name":"Göppingen","type":"Landkreis"},"federalState":{"key":"08","name":"Baden-Württemberg"}},{"name":"Blumenstr.","postalCode":"73119","locality":"Zell unter Aichelberg","municipality":{"key":"08117060","name":"Zell unter Aichelberg","type":"Kreisangehörige_Gemeinde"},"district":{"key":"08117","name":"Göppingen","type":"Landkreis"},"federalState":{"key":"08","name":"Baden-Württemberg"}},{"name":"Blumhardtweg","postalCode":"73119","locality":"Zell unter Aichelberg","municipality":{"key":"08117060","name":"Zell unter Aichelberg","type":"Kreisangehörige_Gemeinde"},"district":{"key":"08117","name":"Göppingen","type":"Landkreis"},"federalState":{"key":"08","name":"Baden-Württemberg"}},{"name":"Boller Str.","postalCode":"73101","locality":"Aichelberg","municipality":{"key":"08117002","name":"Aichelberg","type":"Kreisangehörige_Gemeinde"},"district":{"key":"08117","name":"Göppingen","type":"Landkreis"},"federalState":{"key":"08","name":"Baden-Württemberg"}},{"name":"Boller Str.","postalCode":"73119","locality":"Zell unter Aichelberg","municipality":{"key":"08117060","name":"Zell unter Aichelberg","type":"Kreisangehörige_Gemeinde"},"district":{"key":"08117","name":"Göppingen","type":"Landkreis"},"federalState":{"key":"08","name":"Baden-Württemberg"}},{"name":"Boßlerstr.","postalCode":"73119","locality":"Zell unter Aichelberg","municipality":{"key":"08117060","name":"Zell unter Aichelberg","type":"Kreisangehörige_Gemeinde"},"district":{"key":"08117","name":"Göppingen","type":"Landkreis"},"federalState":{"key":"08","name":"Baden-Württemberg"}},{"name":"Breitenloh","postalCode":"73101","locality":"Aichelberg","municipality":{"key":"08117002","name":"Aichelberg","type":"Kreisangehörige_Gemeinde"},"district":{"key":"08117","name":"Göppingen","type":"Landkreis"},"federalState":{"key":"08","name":"Baden-Württemberg"}},{"name":"Breitenwang","postalCode":"73119","locality":"Zell unter Aichelberg","municipality":{"key":"08117060","name":"Zell unter Aichelberg","type":"Kreisangehörige_Gemeinde"},"district":{"key":"08117","name":"Göppingen","type":"Landkreis"},"federalState":{"key":"08","name":"Baden-Württemberg"}},{"name":"Bruck","postalCode":"73119","locality":"Zell unter Aichelberg","municipality":{"key":"08117060","name":"Zell unter Aichelberg","type":"Kreisangehörige_Gemeinde"},"district":{"key":"08117","name":"Göppingen","type":"Landkreis"},"federalState":{"key":"08","name":"Baden-Württemberg"}},{"name":"Brunnenwiesen","postalCode":"73119","locality":"Zell unter Aichelberg","municipality":{"key":"08117060","name":"Zell unter Aichelberg","type":"Kreisangehörige_Gemeinde"},"district":{"key":"08117","name":"Göppingen","type":"Landkreis"},"federalState":{"key":"08","name":"Baden-Württemberg"}},{"name":"Buchenweg","postalCode":"73119","locality":"Zell unter Aichelberg","municipality":{"key":"08117060","name":"Zell unter Aichelberg","type":"Kreisangehörige_Gemeinde"},"district":{"key":"08117","name":"Göppingen","type":"Landkreis"},"federalState":{"key":"08","name":"Baden-Württemberg"}},{"name":"Bunzenberg","postalCode":"73101","locality":"Aichelberg","municipality":{"key":"08117002","name":"Aichelberg","type":"Kreisangehörige_Gemeinde"},"district":{"key":"08117","name":"Göppingen","type":"Landkreis"},"federalState":{"key":"08","name":"Baden-Württemberg"}},{"name":"Carl-Benz-Str.","postalCode":"73037","locality":"Göppingen","municipality":{"key":"08117026","name":"Göppingen, Stadt","type":"Große_Kreisstadt"},"district":{"key":"08117","name":"Göppingen","type":"Landkreis"},"federalState":{"key":"08","name":"Baden-Württemberg"}},{"name":"Carl-Hermann-Gaiser-Str.","postalCode":"73033","locality":"Göppingen","municipality":{"key":"08117026","name":"Göppingen, Stadt","type":"Große_Kreisstadt"},"district":{"key":"08117","name":"Göppingen","type":"Landkreis"},"federalState":{"key":"08","name":"Baden-Württemberg"}},{"name":"Carl-Martin-Weg","postalCode":"73037","locality":"Göppingen","municipality":{"key":"08117026","name":"Göppingen, Stadt","type":"Große_Kreisstadt"},"district":{"key":"08117","name":"Göppingen","type":"Landkreis"},"federalState":{"key":"08","name":"Baden-Württemberg"}},{"name":"Cäsar-Flaischlen-Str.","postalCode":"73033","locality":"Göppingen","municipality":{"key":"08117026","name":"Göppingen, Stadt","type":"Große_Kreisstadt"},"district":{"key":"08117","name":"Göppingen","type":"Landkreis"},"federalState":{"key":"08","name":"Baden-Württemberg"}},{"name":"Charlottenstr.","postalCode":"73037","locality":"Göppingen","municipality":{"key":"08117026","name":"Göppingen, Stadt","type":"Große_Kreisstadt"},"district":{"key":"08117","name":"Göppingen","type":"Landkreis"},"federalState":{"key":"08","name":"Baden-Württemberg"}},{"name":"Christian-Grüninger-Str.","postalCode":"73033","locality":"Göppingen","municipality":{"key":"08117026","name":"Göppingen, Stadt","type":"Große_Kreisstadt"},"district":{"key":"08117","name":"Göppingen","type":"Landkreis"},"federalState":{"key":"08","name":"Baden-Württemberg"}},{"name":"Christian-Grüninger-Str.","postalCode":"73035","locality":"Göppingen","municipality":{"key":"08117026","name":"Göppingen, Stadt","type":"Große_Kreisstadt"},"district":{"key":"08117","name":"Göppingen","type":"Landkreis"},"federalState":{"key":"08","name":"Baden-Württemberg"}},{"name":"Christophstr.","postalCode":"73033","locality":"Göppingen","municipality":{"key":"08117026","name":"Göppingen, Stadt","type":"Große_Kreisstadt"},"district":{"key":"08117","name":"Göppingen","type":"Landkreis"},"federalState":{"key":"08","name":"Baden-Württemberg"}},{"name":"Cranachweg","postalCode":"73033","locality":"Göppingen","municipality":{"key":"08117026","name":"Göppingen, Stadt","type":"Große_Kreisstadt"},"district":{"key":"08117","name":"Göppingen","type":"Landkreis"},"federalState":{"key":"08","name":"Baden-Württemberg"}},{"name":"Daimlerstr.","postalCode":"73119","locality":"Zell unter Aichelberg","municipality":{"key":"08117060","name":"Zell unter Aichelberg","type":"Kreisangehörige_Gemeinde"},"district":{"key":"08117","name":"Göppingen","type":"Landkreis"},"federalState":{"key":"08","name":"Baden-Württemberg"}},{"name":"Diepoldstr.","postalCode":"73101","locality":"Aichelberg","municipality":{"key":"08117002","name":"Aichelberg","type":"Kreisangehörige_Gemeinde"},"district":{"key":"08117","name":"Göppingen","type":"Landkreis"},"federalState":{"key":"08","name":"Baden-Württemberg"}},{"name":"Eichenweg","postalCode":"73119","locality":"Zell unter Aichelberg","municipality":{"key":"08117060","name":"Zell unter Aichelberg","type":"Kreisangehörige_Gemeinde"},"district":{"key":"08117","name":"Göppingen","type":"Landkreis"},"federalState":{"key":"08","name":"Baden-Württemberg"}},{"name":"Erlenweg","postalCode":"73119","locality":"Zell unter Aichelberg","municipality":{"key":"08117060","name":"Zell unter Aichelberg","type":"Kreisangehörige_Gemeinde"},"district":{"key":"08117","name":"Göppingen","type":"Landkreis"},"federalState":{"key":"08","name":"Baden-Württemberg"}},{"name":"Ernst-Haußmann-Weg","postalCode":"73119","locality":"Zell unter Aichelberg","municipality":{"key":"08117060","name":"Zell unter Aichelberg","type":"Kreisangehörige_Gemeinde"},"district":{"key":"08117","name":"Göppingen","type":"Landkreis"},"federalState":{"key":"08","name":"Baden-Württemberg"}},{"name":"Eschenweg","postalCode":"73119","locality":"Zell unter Aichelberg","municipality":{"key":"08117060","name":"Zell unter Aichelberg","type":"Kreisangehörige_Gemeinde"},"district":{"key":"08117","name":"Göppingen","type":"Landkreis"},"federalState":{"key":"08","name":"Baden-Württemberg"}},{"name":"Fliederweg","postalCode":"73119","locality":"Zell unter Aichelberg","municipality":{"key":"08117060","name":"Zell unter Aichelberg","type":"Kreisangehörige_Gemeinde"},"district":{"key":"08117","name":"Göppingen","type":"Landkreis"},"federalState":{"key":"08","name":"Baden-Württemberg"}},{"name":"Friedhofweg","postalCode":"73119","locality":"Zell unter Aichelberg","municipality":{"key":"08117060","name":"Zell unter Aichelberg","type":"Kreisangehörige_Gemeinde"},"district":{"key":"08117","name":"Göppingen","type":"Landkreis"},"federalState":{"key":"08","name":"Baden-Württemberg"}},{"name":"Frühlingstr.","postalCode":"73119","locality":"Zell unter Aichelberg","municipality":{"key":"08117060","name":"Zell unter Aichelberg","type":"Kreisangehörige_Gemeinde"},"district":{"key":"08117","name":"Göppingen","type":"Landkreis"},"federalState":{"key":"08","name":"Baden-Württemberg"}},{"name":"Gartenstr.","postalCode":"73101","locality":"Aichelberg","municipality":{"key":"08117002","name":"Aichelberg","type":"Kreisangehörige_Gemeinde"},"district":{"key":"08117","name":"Göppingen","type":"Landkreis"},"federalState":{"key":"08","name":"Baden-Württemberg"}},{"name":"Gartenstr.","postalCode":"73119","locality":"Zell unter Aichelberg","municipality":{"key":"08117060","name":"Zell unter Aichelberg","type":"Kreisangehörige_Gemeinde"},"district":{"key":"08117","name":"Göppingen","type":"Landkreis"},"federalState":{"key":"08","name":"Baden-Württemberg"}},{"name":"Gereut","postalCode":"73119","locality":"Zell unter Aichelberg","municipality":{"key":"08117060","name":"Zell unter Aichelberg","type":"Kreisangehörige_Gemeinde"},"district":{"key":"08117","name":"Göppingen","type":"Landkreis"},"federalState":{"key":"08","name":"Baden-Württemberg"}},{"name":"Gießweg","postalCode":"73119","locality":"Zell unter Aichelberg","municipality":{"key":"08117060","name":"Zell unter Aichelberg","type":"Kreisangehörige_Gemeinde"},"district":{"key":"08117","name":"Göppingen","type":"Landkreis"},"federalState":{"key":"08","name":"Baden-Württemberg"}},{"name":"Goethestr.","postalCode":"73119","locality":"Zell unter Aichelberg","municipality":{"key":"08117060","name":"Zell unter Aichelberg","type":"Kreisangehörige_Gemeinde"},"district":{"key":"08117","name":"Göppingen","type":"Landkreis"},"federalState":{"key":"08","name":"Baden-Württemberg"}},{"name":"Göppinger Str.","postalCode":"73119","locality":"Zell unter Aichelberg","municipality":{"key":"08117060","name":"Zell unter Aichelberg","type":"Kreisangehörige_Gemeinde"},"district":{"key":"08117","name":"Göppingen","type":"Landkreis"},"federalState":{"key":"08","name":"Baden-Württemberg"}},{"name":"Grünbrückenweg","postalCode":"73101","locality":"Aichelberg","municipality":{"key":"08117002","name":"Aichelberg","type":"Kreisangehörige_Gemeinde"},"district":{"key":"08117","name":"Göppingen","type":"Landkreis"},"federalState":{"key":"08","name":"Baden-Württemberg"}},{"name":"Haldenstr.","postalCode":"73119","locality":"Zell unter Aichelberg","municipality":{"key":"08117060","name":"Zell unter Aichelberg","type":"Kreisangehörige_Gemeinde"},"district":{"key":"08117","name":"Göppingen","type":"Landkreis"},"federalState":{"key":"08","name":"Baden-Württemberg"}},{"name":"Hattenhofer Weg","postalCode":"73119","locality":"Zell unter Aichelberg","municipality":{"key":"08117060","name":"Zell unter Aichelberg","type":"Kreisangehörige_Gemeinde"},"district":{"key":"08117","name":"Göppingen","type":"Landkreis"},"federalState":{"key":"08","name":"Baden-Württemberg"}},{"name":"Hinterbergstr.","postalCode":"73101","locality":"Aichelberg","municipality":{"key":"08117002","name":"Aichelberg","type":"Kreisangehörige_Gemeinde"},"district":{"key":"08117","name":"Göppingen","type":"Landkreis"},"federalState":{"key":"08","name":"Baden-Württemberg"}},{"name":"Hinter dem Weiler","postalCode":"73119","locality":"Zell unter Aichelberg","municipality":{"key":"08117060","name":"Zell unter Aichelberg","type":"Kreisangehörige_Gemeinde"},"district":{"key":"08117","name":"Göppingen","type":"Landkreis"},"federalState":{"key":"08","name":"Baden-Württemberg"}},{"name":"Hirschstr.","postalCode":"73119","locality":"Zell unter Aichelberg","municipality":{"key":"08117060","name":"Zell unter Aichelberg","type":"Kreisangehörige_Gemeinde"},"district":{"key":"08117","name":"Göppingen","type":"Landkreis"},"federalState":{"key":"08","name":"Baden-Württemberg"}},{"name":"Hohenstaufenstr.","postalCode":"73101","locality":"Aichelberg","municipality":{"key":"08117002","name":"Aichelberg","type":"Kreisangehörige_Gemeinde"},"district":{"key":"08117","name":"Göppingen","type":"Landkreis"},"federalState":{"key":"08","name":"Baden-Württemberg"}},{"name":"Hohenstaufenstr.","postalCode":"73119","locality":"Zell unter Aichelberg","municipality":{"key":"08117060","name":"Zell unter Aichelberg","type":"Kreisangehörige_Gemeinde"},"district":{"key":"08117","name":"Göppingen","type":"Landkreis"},"federalState":{"key":"08","name":"Baden-Württemberg"}},{"name":"Holzmader Str.","postalCode":"73101","locality":"Aichelberg","municipality":{"key":"08117002","name":"Aichelberg","type":"Kreisangehörige_Gemeinde"},"district":{"key":"08117","name":"Göppingen","type":"Landkreis"},"federalState":{"key":"08","name":"Baden-Württemberg"}},{"name":"Hungerberg","postalCode":"73101","locality":"Aichelberg","municipality":{"key":"08117002","name":"Aichelberg","type":"Kreisangehörige_Gemeinde"},"district":{"key":"08117","name":"Göppingen","type":"Landkreis"},"federalState":{"key":"08","name":"Baden-Württemberg"}},{"name":"Im Auchtert","postalCode":"73119","locality":"Zell unter Aichelberg","municipality":{"key":"08117060","name":"Zell unter Aichelberg","type":"Kreisangehörige_Gemeinde"},"district":{"key":"08117","name":"Göppingen","type":"Landkreis"},"federalState":{"key":"08","name":"Baden-Württemberg"}},{"name":"Im Kreben","postalCode":"73119","locality":"Zell unter Aichelberg","municipality":{"key":"08117060","name":"Zell unter Aichelberg","type":"Kreisangehörige_Gemeinde"},"district":{"key":"08117","name":"Göppingen","type":"Landkreis"},"federalState":{"key":"08","name":"Baden-Württemberg"}},{"name":"Immenweg","postalCode":"73101","locality":"Aichelberg","municipality":{"key":"08117002","name":"Aichelberg","type":"Kreisangehörige_Gemeinde"},"district":{"key":"08117","name":"Göppingen","type":"Landkreis"},"federalState":{"key":"08","name":"Baden-Württemberg"}},{"name":"In den Kreuzäckern","postalCode":"73101","locality":"Aichelberg","municipality":{"key":"08117002","name":"Aichelberg","type":"Kreisangehörige_Gemeinde"},"district":{"key":"08117","name":"Göppingen","type":"Landkreis"},"federalState":{"key":"08","name":"Baden-Württemberg"}},{"name":"In den Kreuzgärten","postalCode":"73119","locality":"Zell unter Aichelberg","municipality":{"key":"08117060","name":"Zell unter Aichelberg","type":"Kreisangehörige_Gemeinde"},"district":{"key":"08117","name":"Göppingen","type":"Landkreis"},"federalState":{"key":"08","name":"Baden-Württemberg"}},{"name":"Jurastr.","postalCode":"73119","locality":"Zell unter Aichelberg","municipality":{"key":"08117060","name":"Zell unter Aichelberg","type":"Kreisangehörige_Gemeinde"},"district":{"key":"08117","name":"Göppingen","type":"Landkreis"},"federalState":{"key":"08","name":"Baden-Württemberg"}},{"name":"Karlstr.","postalCode":"73101","locality":"Aichelberg","municipality":{"key":"08117002","name":"Aichelberg","type":"Kreisangehörige_Gemeinde"},"district":{"key":"08117","name":"Göppingen","type":"Landkreis"},"federalState":{"key":"08","name":"Baden-Württemberg"}},{"name":"Kastanienweg","postalCode":"73119","locality":"Zell unter Aichelberg","municipality":{"key":"08117060","name":"Zell unter Aichelberg","type":"Kreisangehörige_Gemeinde"},"district":{"key":"08117","name":"Göppingen","type":"Landkreis"},"federalState":{"key":"08","name":"Baden-Württemberg"}},{"name":"Kirchenweg","postalCode":"73119","locality":"Zell unter Aichelberg","municipality":{"key":"08117060","name":"Zell unter Aichelberg","type":"Kreisangehörige_Gemeinde"},"district":{"key":"08117","name":"Göppingen","type":"Landkreis"},"federalState":{"key":"08","name":"Baden-Württemberg"}},{"name":"Kirchheimer Str.","postalCode":"73119","locality":"Zell unter Aichelberg","municipality":{"key":"08117060","name":"Zell unter Aichelberg","type":"Kreisangehörige_Gemeinde"},"district":{"key":"08117","name":"Göppingen","type":"Landkreis"},"federalState":{"key":"08","name":"Baden-Württemberg"}},{"name":"Kirchstr.","postalCode":"73119","locality":"Zell unter Aichelberg","municipality":{"key":"08117060","name":"Zell unter Aichelberg","type":"Kreisangehörige_Gemeinde"},"district":{"key":"08117","name":"Göppingen","type":"Landkreis"},"federalState":{"key":"08","name":"Baden-Württemberg"}},{"name":"Königssträßle","postalCode":"73101","locality":"Aichelberg","municipality":{"key":"08117002","name":"Aichelberg","type":"Kreisangehörige_Gemeinde"},"district":{"key":"08117","name":"Göppingen","type":"Landkreis"},"federalState":{"key":"08","name":"Baden-Württemberg"}},{"name":"Kornbergweg","postalCode":"73101","locality":"Aichelberg","municipality":{"key":"08117002","name":"Aichelberg","type":"Kreisangehörige_Gemeinde"},"district":{"key":"08117","name":"Göppingen","type":"Landkreis"},"federalState":{"key":"08","name":"Baden-Württemberg"}},{"name":"Kreisparkassen Wegle","postalCode":"73119","locality":"Zell unter Aichelberg","municipality":{"key":"08117060","name":"Zell unter Aichelberg","type":"Kreisangehörige_Gemeinde"},"district":{"key":"08117","name":"Göppingen","type":"Landkreis"},"federalState":{"key":"08","name":"Baden-Württemberg"}},{"name":"Kreuzgärten","postalCode":"73119","locality":"Zell unter Aichelberg","municipality":{"key":"08117060","name":"Zell unter Aichelberg","type":"Kreisangehörige_Gemeinde"},"district":{"key":"08117","name":"Göppingen","type":"Landkreis"},"federalState":{"key":"08","name":"Baden-Württemberg"}},{"name":"L1214","postalCode":"73101","locality":"Aichelberg","municipality":{"key":"08117002","name":"Aichelberg","type":"Kreisangehörige_Gemeinde"},"district":{"key":"08117","name":"Göppingen","type":"Landkreis"},"federalState":{"key":"08","name":"Baden-Württemberg"}},{"name":"L1214","postalCode":"73119","locality":"Zell unter Aichelberg","municipality":{"key":"08117060","name":"Zell unter Aichelberg","type":"Kreisangehörige_Gemeinde"},"district":{"key":"08117","name":"Göppingen","type":"Landkreis"},"federalState":{"key":"08","name":"Baden-Württemberg"}},{"name":"Lenauweg","postalCode":"73119","locality":"Zell unter Aichelberg","municipality":{"key":"08117060","name":"Zell unter Aichelberg","type":"Kreisangehörige_Gemeinde"},"district":{"key":"08117","name":"Göppingen","type":"Landkreis"},"federalState":{"key":"08","name":"Baden-Württemberg"}},{"name":"Lerchenweg","postalCode":"73119","locality":"Zell unter Aichelberg","municipality":{"key":"08117060","name":"Zell unter Aichelberg","type":"Kreisangehörige_Gemeinde"},"district":{"key":"08117","name":"Göppingen","type":"Landkreis"},"federalState":{"key":"08","name":"Baden-Württemberg"}},{"name":"Lindenstr.","postalCode":"73119","locality":"Zell unter Aichelberg","municipality":{"key":"08117060","name":"Zell unter Aichelberg","type":"Kreisangehörige_Gemeinde"},"district":{"key":"08117","name":"Göppingen","type":"Landkreis"},"federalState":{"key":"08","name":"Baden-Württemberg"}},{"name":"Mausäcker","postalCode":"73119","locality":"Zell unter Aichelberg","municipality":{"key":"08117060","name":"Zell unter Aichelberg","type":"Kreisangehörige_Gemeinde"},"district":{"key":"08117","name":"Göppingen","type":"Landkreis"},"federalState":{"key":"08","name":"Baden-Württemberg"}},{"name":"Mörikestr.","postalCode":"73119","locality":"Zell unter Aichelberg","municipality":{"key":"08117060","name":"Zell unter Aichelberg","type":"Kreisangehörige_Gemeinde"},"district":{"key":"08117","name":"Göppingen","type":"Landkreis"},"federalState":{"key":"08","name":"Baden-Württemberg"}},{"name":"Mühlgarten","postalCode":"73119","locality":"Zell unter Aichelberg","municipality":{"key":"08117060","name":"Zell unter Aichelberg","type":"Kreisangehörige_Gemeinde"},"district":{"key":"08117","name":"Göppingen","type":"Landkreis"},"federalState":{"key":"08","name":"Baden-Württemberg"}},{"name":"N. Aichelbergsträssle","postalCode":"73101","locality":"Aichelberg","municipality":{"key":"08117002","name":"Aichelberg","type":"Kreisangehörige_Gemeinde"},"district":{"key":"08117","name":"Göppingen","type":"Landkreis"},"federalState":{"key":"08","name":"Baden-Württemberg"}},{"name":"Neues Aichelbergsträßle","postalCode":"73101","locality":"Aichelberg","municipality":{"key":"08117002","name":"Aichelberg","type":"Kreisangehörige_Gemeinde"},"district":{"key":"08117","name":"Göppingen","type":"Landkreis"},"federalState":{"key":"08","name":"Baden-Württemberg"}},{"name":"Ohmder Str.","postalCode":"73119","locality":"Zell unter Aichelberg","municipality":{"key":"08117060","name":"Zell unter Aichelberg","type":"Kreisangehörige_Gemeinde"},"district":{"key":"08117","name":"Göppingen","type":"Landkreis"},"federalState":{"key":"08","name":"Baden-Württemberg"}},{"name":"Ohrengasse","postalCode":"73119","locality":"Zell unter Aichelberg","municipality":{"key":"08117060","name":"Zell unter Aichelberg","type":"Kreisangehörige_Gemeinde"},"district":{"key":"08117","name":"Göppingen","type":"Landkreis"},"federalState":{"key":"08","name":"Baden-Württemberg"}},{"name":"Panoramastr.","postalCode":"73101","locality":"Aichelberg","municipality":{"key":"08117002","name":"Aichelberg","type":"Kreisangehörige_Gemeinde"},"district":{"key":"08117","name":"Göppingen","type":"Landkreis"},"federalState":{"key":"08","name":"Baden-Württemberg"}},{"name":"Paradiesstr.","postalCode":"73101","locality":"Aichelberg","municipality":{"key":"08117002","name":"Aichelberg","type":"Kreisangehörige_Gemeinde"},"district":{"key":"08117","name":"Göppingen","type":"Landkreis"},"federalState":{"key":"08","name":"Baden-Württemberg"}},{"name":"Pflugeisenweg","postalCode":"73101","locality":"Aichelberg","municipality":{"key":"08117002","name":"Aichelberg","type":"Kreisangehörige_Gemeinde"},"district":{"key":"08117","name":"Göppingen","type":"Landkreis"},"federalState":{"key":"08","name":"Baden-Württemberg"}},{"name":"Pliensbacher Str.","postalCode":"73119","locality":"Zell unter Aichelberg","municipality":{"key":"08117060","name":"Zell unter Aichelberg","type":"Kreisangehörige_Gemeinde"},"district":{"key":"08117","name":"Göppingen","type":"Landkreis"},"federalState":{"key":"08","name":"Baden-Württemberg"}},{"name":"Quäkerstr.","postalCode":"73033","locality":"Göppingen","municipality":{"key":"08117026","name":"Göppingen, Stadt","type":"Große_Kreisstadt"},"district":{"key":"08117","name":"Göppingen","type":"Landkreis"},"federalState":{"key":"08","name":"Baden-Württemberg"}},{"name":"Querstr.","postalCode":"73033","locality":"Göppingen","municipality":{"key":"08117026","name":"Göppingen, Stadt","type":"Große_Kreisstadt"},"district":{"key":"08117","name":"Göppingen","type":"Landkreis"},"federalState":{"key":"08","name":"Baden-Württemberg"}},{"name":"Rechbergstr.","postalCode":"73101","locality":"Aichelberg","municipality":{"key":"08117002","name":"Aichelberg","type":"Kreisangehörige_Gemeinde"},"district":{"key":"08117","name":"Göppingen","type":"Landkreis"},"federalState":{"key":"08","name":"Baden-Württemberg"}},{"name":"Rechbergstr.","postalCode":"73119","locality":"Zell unter Aichelberg","municipality":{"key":"08117060","name":"Zell unter Aichelberg","type":"Kreisangehörige_Gemeinde"},"district":{"key":"08117","name":"Göppingen","type":"Landkreis"},"federalState":{"key":"08","name":"Baden-Württemberg"}},{"name":"Rosenstr.","postalCode":"73119","locality":"Zell unter Aichelberg","municipality":{"key":"08117060","name":"Zell unter Aichelberg","type":"Kreisangehörige_Gemeinde"},"district":{"key":"08117","name":"Göppingen","type":"Landkreis"},"federalState":{"key":"08","name":"Baden-Württemberg"}},{"name":"Schäferweg","postalCode":"73119","locality":"Zell unter Aichelberg","municipality":{"key":"08117060","name":"Zell unter Aichelberg","type":"Kreisangehörige_Gemeinde"},"district":{"key":"08117","name":"Göppingen","type":"Landkreis"},"federalState":{"key":"08","name":"Baden-Württemberg"}},{"name":"Schelmahdstr.","postalCode":"73119","locality":"Zell unter Aichelberg","municipality":{"key":"08117060","name":"Zell unter Aichelberg","type":"Kreisangehörige_Gemeinde"},"district":{"key":"08117","name":"Göppingen","type":"Landkreis"},"federalState":{"key":"08","name":"Baden-Württemberg"}},{"name":"Schieferstr.","postalCode":"73119","locality":"Zell unter Aichelberg","municipality":{"key":"08117060","name":"Zell unter Aichelberg","type":"Kreisangehörige_Gemeinde"},"district":{"key":"08117","name":"Göppingen","type":"Landkreis"},"federalState":{"key":"08","name":"Baden-Württemberg"}},{"name":"Schillerstr.","postalCode":"73101","locality":"Aichelberg","municipality":{"key":"08117002","name":"Aichelberg","type":"Kreisangehörige_Gemeinde"},"district":{"key":"08117","name":"Göppingen","type":"Landkreis"},"federalState":{"key":"08","name":"Baden-Württemberg"}},{"name":"Schillerstr.","postalCode":"73119","locality":"Zell unter Aichelberg","municipality":{"key":"08117060","name":"Zell unter Aichelberg","type":"Kreisangehörige_Gemeinde"},"district":{"key":"08117","name":"Göppingen","type":"Landkreis"},"federalState":{"key":"08","name":"Baden-Württemberg"}},{"name":"Schulstr.","postalCode":"73119","locality":"Zell unter Aichelberg","municipality":{"key":"08117060","name":"Zell unter Aichelberg","type":"Kreisangehörige_Gemeinde"},"district":{"key":"08117","name":"Göppingen","type":"Landkreis"},"federalState":{"key":"08","name":"Baden-Württemberg"}},{"name":"Sonnenweg","postalCode":"73119","locality":"Zell unter Aichelberg","municipality":{"key":"08117060","name":"Zell unter Aichelberg","type":"Kreisangehörige_Gemeinde"},"district":{"key":"08117","name":"Göppingen","type":"Landkreis"},"federalState":{"key":"08","name":"Baden-Württemberg"}},{"name":"Spellerweg","postalCode":"73101","locality":"Aichelberg","municipality":{"key":"08117002","name":"Aichelberg","type":"Kreisangehörige_Gemeinde"},"district":{"key":"08117","name":"Göppingen","type":"Landkreis"},"federalState":{"key":"08","name":"Baden-Württemberg"}},{"name":"Staufenweg","postalCode":"73101","locality":"Aichelberg","municipality":{"key":"08117002","name":"Aichelberg","type":"Kreisangehörige_Gemeinde"},"district":{"key":"08117","name":"Göppingen","type":"Landkreis"},"federalState":{"key":"08","name":"Baden-Württemberg"}},{"name":"Steigstr.","postalCode":"73101","locality":"Aichelberg","municipality":{"key":"08117002","name":"Aichelberg","type":"Kreisangehörige_Gemeinde"},"district":{"key":"08117","name":"Göppingen","type":"Landkreis"},"federalState":{"key":"08","name":"Baden-Württemberg"}},{"name":"Streichbett","postalCode":"73119","locality":"Zell unter Aichelberg","municipality":{"key":"08117060","name":"Zell unter Aichelberg","type":"Kreisangehörige_Gemeinde"},"district":{"key":"08117","name":"Göppingen","type":"Landkreis"},"federalState":{"key":"08","name":"Baden-Württemberg"}},{"name":"Stuifenstr.","postalCode":"73101","locality":"Aichelberg","municipality":{"key":"08117002","name":"Aichelberg","type":"Kreisangehörige_Gemeinde"},"district":{"key":"08117","name":"Göppingen","type":"Landkreis"},"federalState":{"key":"08","name":"Baden-Württemberg"}},{"name":"Stuifenstr.","postalCode":"73119","locality":"Zell unter Aichelberg","municipality":{"key":"08117060","name":"Zell unter Aichelberg","type":"Kreisangehörige_Gemeinde"},"district":{"key":"08117","name":"Göppingen","type":"Landkreis"},"federalState":{"key":"08","name":"Baden-Württemberg"}},{"name":"Teckstr.","postalCode":"73119","locality":"Zell unter Aichelberg","municipality":{"key":"08117060","name":"Zell unter Aichelberg","type":"Kreisangehörige_Gemeinde"},"district":{"key":"08117","name":"Göppingen","type":"Landkreis"},"federalState":{"key":"08","name":"Baden-Württemberg"}},{"name":"Tobelweg","postalCode":"73101","locality":"Aichelberg","municipality":{"key":"08117002","name":"Aichelberg","type":"Kreisangehörige_Gemeinde"},"district":{"key":"08117","name":"Göppingen","type":"Landkreis"},"federalState":{"key":"08","name":"Baden-Württemberg"}},{"name":"Turmbergstr.","postalCode":"73119","locality":"Zell unter Aichelberg","municipality":{"key":"08117060","name":"Zell unter Aichelberg","type":"Kreisangehörige_Gemeinde"},"district":{"key":"08117","name":"Göppingen","type":"Landkreis"},"federalState":{"key":"08","name":"Baden-Württemberg"}},{"name":"Turmbergweg","postalCode":"73101","locality":"Aichelberg","municipality":{"key":"08117002","name":"Aichelberg","type":"Kreisangehörige_Gemeinde"},"district":{"key":"08117","name":"Göppingen","type":"Landkreis"},"federalState":{"key":"08","name":"Baden-Württemberg"}},{"name":"Uhlandstr.","postalCode":"73119","locality":"Zell unter Aichelberg","municipality":{"key":"08117060","name":"Zell unter Aichelberg","type":"Kreisangehörige_Gemeinde"},"district":{"key":"08117","name":"Göppingen","type":"Landkreis"},"federalState":{"key":"08","name":"Baden-Württemberg"}},{"name":"Ulrichstr.","postalCode":"73101","locality":"Aichelberg","municipality":{"key":"08117002","name":"Aichelberg","type":"Kreisangehörige_Gemeinde"},"district":{"key":"08117","name":"Göppingen","type":"Landkreis"},"federalState":{"key":"08","name":"Baden-Württemberg"}},{"name":"Verbindungsbauwerk 1","postalCode":"73101","locality":"Aichelberg","municipality":{"key":"08117002","name":"Aichelberg","type":"Kreisangehörige_Gemeinde"},"district":{"key":"08117","name":"Göppingen","type":"Landkreis"},"federalState":{"key":"08","name":"Baden-Württemberg"}},{"name":"Verbindungsbauwerk 2","postalCode":"73101","locality":"Aichelberg","municipality":{"key":"08117002","name":"Aichelberg","type":"Kreisangehörige_Gemeinde"},"district":{"key":"08117","name":"Göppingen","type":"Landkreis"},"federalState":{"key":"08","name":"Baden-Württemberg"}},{"name":"Verbindungsbauwerk 4","postalCode":"73101","locality":"Aichelberg","municipality":{"key":"08117002","name":"Aichelberg","type":"Kreisangehörige_Gemeinde"},"district":{"key":"08117","name":"Göppingen","type":"Landkreis"},"federalState":{"key":"08","name":"Baden-Württemberg"}},{"name":"Vorderbergstr.","postalCode":"73101","locality":"Aichelberg","municipality":{"key":"08117002","name":"Aichelberg","type":"Kreisangehörige_Gemeinde"},"district":{"key":"08117","name":"Göppingen","type":"Landkreis"},"federalState":{"key":"08","name":"Baden-Württemberg"}},{"name":"Wasserbergweg","postalCode":"73101","locality":"Aichelberg","municipality":{"key":"08117002","name":"Aichelberg","type":"Kreisangehörige_Gemeinde"},"district":{"key":"08117","name":"Göppingen","type":"Landkreis"},"federalState":{"key":"08","name":"Baden-Württemberg"}},{"name":"Weidestr.","postalCode":"73101","locality":"Aichelberg","municipality":{"key":"08117002","name":"Aichelberg","type":"Kreisangehörige_Gemeinde"},"district":{"key":"08117","name":"Göppingen","type":"Landkreis"},"federalState":{"key":"08","name":"Baden-Württemberg"}},{"name":"Weilerstr.","postalCode":"73119","locality":"Zell unter Aichelberg","municipality":{"key":"08117060","name":"Zell unter Aichelberg","type":"Kreisangehörige_Gemeinde"},"district":{"key":"08117","name":"Göppingen","type":"Landkreis"},"federalState":{"key":"08","name":"Baden-Württemberg"}},{"name":"Weilheimer Str.","postalCode":"73101","locality":"Aichelberg","municipality":{"key":"08117002","name":"Aichelberg","type":"Kreisangehörige_Gemeinde"},"district":{"key":"08117","name":"Göppingen","type":"Landkreis"},"federalState":{"key":"08","name":"Baden-Württemberg"}},{"name":"Weilheimer Str.","postalCode":"73119","locality":"Zell unter Aichelberg","municipality":{"key":"08117060","name":"Zell unter Aichelberg","type":"Kreisangehörige_Gemeinde"},"district":{"key":"08117","name":"Göppingen","type":"Landkreis"},"federalState":{"key":"08","name":"Baden-Württemberg"}},{"name":"Wiesenweg","postalCode":"73119","locality":"Zell unter Aichelberg","municipality":{"key":"08117060","name":"Zell unter Aichelberg","type":"Kreisangehörige_Gemeinde"},"district":{"key":"08117","name":"Göppingen","type":"Landkreis"},"federalState":{"key":"08","name":"Baden-Württemberg"}},{"name":"Zeller Str.","postalCode":"73101","locality":"Aichelberg","municipality":{"key":"08117002","name":"Aichelberg","type":"Kreisangehörige_Gemeinde"},"district":{"key":"08117","name":"Göppingen","type":"Landkreis"},"federalState":{"key":"08","name":"Baden-Württemberg"}},{"name":"Öchslinstr.","postalCode":"73033","locality":"Göppingen","municipality":{"key":"08117026","name":"Göppingen, Stadt","type":"Große_Kreisstadt"},"district":{"key":"08117","name":"Göppingen","type":"Landkreis"},"federalState":{"key":"08","name":"Baden-Württemberg"}},{"name":"Ödeweg","postalCode":"73035","locality":"Göppingen","municipality":{"key":"08117026","name":"Göppingen, Stadt","type":"Große_Kreisstadt"},"district":{"key":"08117","name":"Göppingen","type":"Landkreis"},"federalState":{"key":"08","name":"Baden-Württemberg"}},{"name":"Österbachstr.","postalCode":"73033","locality":"Göppingen","municipality":{"key":"08117026","name":"Göppingen, Stadt","type":"Große_Kreisstadt"},"district":{"key":"08117","name":"Göppingen","type":"Landkreis"},"federalState":{"key":"08","name":"Baden-Württemberg"}},{"name":"Östliche Linsenholz-Ausfahrt","postalCode":"73037","locality":"Göppingen","municipality":{"key":"08117026","name":"Göppingen, Stadt","type":"Große_Kreisstadt"},"district":{"key":"08117","name":"Göppingen","type":"Landkreis"},"federalState":{"key":"08","name":"Baden-Württemberg"}},{"name":"Östliche Ringstr.","postalCode":"73033","locality":"Göppingen","municipality":{"key":"08117026","name":"Göppingen, Stadt","type":"Große_Kreisstadt"},"district":{"key":"08117","name":"Göppingen","type":"Landkreis"},"federalState":{"key":"08","name":"Baden-Württemberg"}},]