[{"key":"10008367","name":"Bergweg","postalCode":"3234","locality":"Vinelz","commune":{"key":"502","name":"Vinelz","shortName":"Vinelz"},"district":{"key":"243","name":"Verwaltungskreis Seeland"},"canton":{"key":"2","code":"BE","name":"Bern / Berne"},"status":"Real"},{"key":"10008368","name":"Breiten","postalCode":"3234","locality":"Vinelz","commune":{"key":"502","name":"Vinelz","shortName":"Vinelz"},"district":{"key":"243","name":"Verwaltungskreis Seeland"},"canton":{"key":"2","code":"BE","name":"Bern / Berne"},"status":"Real"},{"key":"10066289","name":"Dorfstrasse","postalCode":"3234","locality":"Vinelz","commune":{"key":"502","name":"Vinelz","shortName":"Vinelz"},"district":{"key":"243","name":"Verwaltungskreis Seeland"},"canton":{"key":"2","code":"BE","name":"Bern / Berne"},"status":"Real"},{"key":"10114005","name":"Erlachstrasse","postalCode":"3234","locality":"Vinelz","commune":{"key":"502","name":"Vinelz","shortName":"Vinelz"},"district":{"key":"243","name":"Verwaltungskreis Seeland"},"canton":{"key":"2","code":"BE","name":"Bern / Berne"},"status":"Real"},{"key":"10008369","name":"Flachseren","postalCode":"3234","locality":"Vinelz","commune":{"key":"502","name":"Vinelz","shortName":"Vinelz"},"district":{"key":"243","name":"Verwaltungskreis Seeland"},"canton":{"key":"2","code":"BE","name":"Bern / Berne"},"status":"Real"},{"key":"10082518","name":"Gasse","postalCode":"3234","locality":"Vinelz","commune":{"key":"502","name":"Vinelz","shortName":"Vinelz"},"district":{"key":"243","name":"Verwaltungskreis Seeland"},"canton":{"key":"2","code":"BE","name":"Bern / Berne"},"status":"Real"},{"key":"10008370","name":"Gostel","postalCode":"3234","locality":"Vinelz","commune":{"key":"502","name":"Vinelz","shortName":"Vinelz"},"district":{"key":"243","name":"Verwaltungskreis Seeland"},"canton":{"key":"2","code":"BE","name":"Bern / Berne"},"status":"Real"},{"key":"10154008","name":"Hofmatte","postalCode":"3234","locality":"Vinelz","commune":{"key":"502","name":"Vinelz","shortName":"Vinelz"},"district":{"key":"243","name":"Verwaltungskreis Seeland"},"canton":{"key":"2","code":"BE","name":"Bern / Berne"},"status":"Real"},{"key":"10157647","name":"H체beli","postalCode":"3234","locality":"Vinelz","commune":{"key":"502","name":"Vinelz","shortName":"Vinelz"},"district":{"key":"243","name":"Verwaltungskreis Seeland"},"canton":{"key":"2","code":"BE","name":"Bern / Berne"},"status":"Real"},{"key":"10114004","name":"Insstrasse","postalCode":"3234","locality":"Vinelz","commune":{"key":"502","name":"Vinelz","shortName":"Vinelz"},"district":{"key":"243","name":"Verwaltungskreis Seeland"},"canton":{"key":"2","code":"BE","name":"Bern / Berne"},"status":"Real"},{"key":"10050743","name":"Kappelenacker","postalCode":"3234","locality":"Vinelz","commune":{"key":"502","name":"Vinelz","shortName":"Vinelz"},"district":{"key":"243","name":"Verwaltungskreis Seeland"},"canton":{"key":"2","code":"BE","name":"Bern / Berne"},"status":"Real"},{"key":"10157649","name":"K채sereiweg","postalCode":"3234","locality":"Vinelz","commune":{"key":"502","name":"Vinelz","shortName":"Vinelz"},"district":{"key":"243","name":"Verwaltungskreis Seeland"},"canton":{"key":"2","code":"BE","name":"Bern / Berne"},"status":"Real"},{"key":"10066290","name":"L채ndteweg","postalCode":"3234","locality":"Vinelz","commune":{"key":"502","name":"Vinelz","shortName":"Vinelz"},"district":{"key":"243","name":"Verwaltungskreis Seeland"},"canton":{"key":"2","code":"BE","name":"Bern / Berne"},"status":"Real"},{"key":"10177336","name":"L체scherzstrasse","postalCode":"3234","locality":"Vinelz","commune":{"key":"502","name":"Vinelz","shortName":"Vinelz"},"district":{"key":"243","name":"Verwaltungskreis Seeland"},"canton":{"key":"2","code":"BE","name":"Bern / Berne"},"status":"Real"},{"key":"10082519","name":"Mattenweg","postalCode":"3234","locality":"Vinelz","commune":{"key":"502","name":"Vinelz","shortName":"Vinelz"},"district":{"key":"243","name":"Verwaltungskreis Seeland"},"canton":{"key":"2","code":"BE","name":"Bern / Berne"},"status":"Real"},{"key":"10217406","name":"Muelere","postalCode":"3234","locality":"Vinelz","commune":{"key":"502","name":"Vinelz","shortName":"Vinelz"},"district":{"key":"243","name":"Verwaltungskreis Seeland"},"canton":{"key":"2","code":"BE","name":"Bern / Berne"},"status":"Real"},{"key":"10008371","name":"Obere Budlei","postalCode":"3234","locality":"Vinelz","commune":{"key":"502","name":"Vinelz","shortName":"Vinelz"},"district":{"key":"243","name":"Verwaltungskreis Seeland"},"canton":{"key":"2","code":"BE","name":"Bern / Berne"},"status":"Real"},{"key":"10157650","name":"Rebenweg","postalCode":"3234","locality":"Vinelz","commune":{"key":"502","name":"Vinelz","shortName":"Vinelz"},"district":{"key":"243","name":"Verwaltungskreis Seeland"},"canton":{"key":"2","code":"BE","name":"Bern / Berne"},"status":"Real"},{"key":"10102690","name":"Seestrandweg","postalCode":"3234","locality":"Vinelz","commune":{"key":"502","name":"Vinelz","shortName":"Vinelz"},"district":{"key":"243","name":"Verwaltungskreis Seeland"},"canton":{"key":"2","code":"BE","name":"Bern / Berne"},"status":"Real"},]