[{"name":"Alte Friedhofstr.","postalCode":"98724","locality":"Neuhaus am Rennweg","municipality":{"key":"16072013","name":"Neuhaus am Rennweg, Stadt","type":"Stadt"},"district":{"key":"16072","name":"Sonneberg","type":"Landkreis"},"federalState":{"key":"16","name":"Thüringen"}},{"name":"Alte Mutter","postalCode":"98724","locality":"Neuhaus am Rennweg","municipality":{"key":"16072013","name":"Neuhaus am Rennweg, Stadt","type":"Stadt"},"district":{"key":"16072","name":"Sonneberg","type":"Landkreis"},"federalState":{"key":"16","name":"Thüringen"}},{"name":"Alte Poststr.","postalCode":"98724","locality":"Neuhaus am Rennweg","municipality":{"key":"16072013","name":"Neuhaus am Rennweg, Stadt","type":"Stadt"},"district":{"key":"16072","name":"Sonneberg","type":"Landkreis"},"federalState":{"key":"16","name":"Thüringen"}},{"name":"alter Grenzweg","postalCode":"98724","locality":"Neuhaus am Rennweg","municipality":{"key":"16072013","name":"Neuhaus am Rennweg, Stadt","type":"Stadt"},"district":{"key":"16072","name":"Sonneberg","type":"Landkreis"},"federalState":{"key":"16","name":"Thüringen"}},{"name":"Alter Weg","postalCode":"98724","locality":"Neuhaus am Rennweg","municipality":{"key":"16072013","name":"Neuhaus am Rennweg, Stadt","type":"Stadt"},"district":{"key":"16072","name":"Sonneberg","type":"Landkreis"},"federalState":{"key":"16","name":"Thüringen"}},{"name":"Alte Str.","postalCode":"98724","locality":"Neuhaus am Rennweg","municipality":{"key":"16072013","name":"Neuhaus am Rennweg, Stadt","type":"Stadt"},"district":{"key":"16072","name":"Sonneberg","type":"Landkreis"},"federalState":{"key":"16","name":"Thüringen"}},{"name":"Altstadtstr.","postalCode":"98724","locality":"Neuhaus am Rennweg","municipality":{"key":"16072013","name":"Neuhaus am Rennweg, Stadt","type":"Stadt"},"district":{"key":"16072","name":"Sonneberg","type":"Landkreis"},"federalState":{"key":"16","name":"Thüringen"}},{"name":"Am Alsbachberg","postalCode":"98724","locality":"Neuhaus am Rennweg","municipality":{"key":"16072013","name":"Neuhaus am Rennweg, Stadt","type":"Stadt"},"district":{"key":"16072","name":"Sonneberg","type":"Landkreis"},"federalState":{"key":"16","name":"Thüringen"}},{"name":"Am Bahndamm","postalCode":"98724","locality":"Neuhaus am Rennweg","municipality":{"key":"16072013","name":"Neuhaus am Rennweg, Stadt","type":"Stadt"},"district":{"key":"16072","name":"Sonneberg","type":"Landkreis"},"federalState":{"key":"16","name":"Thüringen"}},{"name":"Am Bornhügel","postalCode":"98724","locality":"Neuhaus am Rennweg","municipality":{"key":"16072013","name":"Neuhaus am Rennweg, Stadt","type":"Stadt"},"district":{"key":"16072","name":"Sonneberg","type":"Landkreis"},"federalState":{"key":"16","name":"Thüringen"}},{"name":"Ameisenweg","postalCode":"98724","locality":"Neuhaus am Rennweg","municipality":{"key":"16072013","name":"Neuhaus am Rennweg, Stadt","type":"Stadt"},"district":{"key":"16072","name":"Sonneberg","type":"Landkreis"},"federalState":{"key":"16","name":"Thüringen"}},{"name":"Am Forsthaus","postalCode":"98724","locality":"Neuhaus am Rennweg","municipality":{"key":"16072013","name":"Neuhaus am Rennweg, Stadt","type":"Stadt"},"district":{"key":"16072","name":"Sonneberg","type":"Landkreis"},"federalState":{"key":"16","name":"Thüringen"}},{"name":"Am Friedhof","postalCode":"98724","locality":"Neuhaus am Rennweg","municipality":{"key":"16072013","name":"Neuhaus am Rennweg, Stadt","type":"Stadt"},"district":{"key":"16072","name":"Sonneberg","type":"Landkreis"},"federalState":{"key":"16","name":"Thüringen"}},{"name":"Am Markt","postalCode":"98724","locality":"Neuhaus am Rennweg","municipality":{"key":"16072013","name":"Neuhaus am Rennweg, Stadt","type":"Stadt"},"district":{"key":"16072","name":"Sonneberg","type":"Landkreis"},"federalState":{"key":"16","name":"Thüringen"}},{"name":"Am Mühlteich","postalCode":"98724","locality":"Neuhaus am Rennweg","municipality":{"key":"16072013","name":"Neuhaus am Rennweg, Stadt","type":"Stadt"},"district":{"key":"16072","name":"Sonneberg","type":"Landkreis"},"federalState":{"key":"16","name":"Thüringen"}},{"name":"Am Rangen","postalCode":"98724","locality":"Neuhaus am Rennweg","municipality":{"key":"16072013","name":"Neuhaus am Rennweg, Stadt","type":"Stadt"},"district":{"key":"16072","name":"Sonneberg","type":"Landkreis"},"federalState":{"key":"16","name":"Thüringen"}},{"name":"Am Rennsteig","postalCode":"98724","locality":"Neuhaus am Rennweg","municipality":{"key":"16072013","name":"Neuhaus am Rennweg, Stadt","type":"Stadt"},"district":{"key":"16072","name":"Sonneberg","type":"Landkreis"},"federalState":{"key":"16","name":"Thüringen"}},{"name":"Am Rennweg","postalCode":"98724","locality":"Neuhaus am Rennweg","municipality":{"key":"16072013","name":"Neuhaus am Rennweg, Stadt","type":"Stadt"},"district":{"key":"16072","name":"Sonneberg","type":"Landkreis"},"federalState":{"key":"16","name":"Thüringen"}},{"name":"Am Rodeberg","postalCode":"98724","locality":"Neuhaus am Rennweg","municipality":{"key":"16072013","name":"Neuhaus am Rennweg, Stadt","type":"Stadt"},"district":{"key":"16072","name":"Sonneberg","type":"Landkreis"},"federalState":{"key":"16","name":"Thüringen"}},{"name":"Am Rußtiegel","postalCode":"98724","locality":"Neuhaus am Rennweg","municipality":{"key":"16072013","name":"Neuhaus am Rennweg, Stadt","type":"Stadt"},"district":{"key":"16072","name":"Sonneberg","type":"Landkreis"},"federalState":{"key":"16","name":"Thüringen"}},{"name":"Am Sommerberg","postalCode":"98724","locality":"Neuhaus am Rennweg","municipality":{"key":"16072013","name":"Neuhaus am Rennweg, Stadt","type":"Stadt"},"district":{"key":"16072","name":"Sonneberg","type":"Landkreis"},"federalState":{"key":"16","name":"Thüringen"}},{"name":"Am Wasserturm","postalCode":"98724","locality":"Neuhaus am Rennweg","municipality":{"key":"16072013","name":"Neuhaus am Rennweg, Stadt","type":"Stadt"},"district":{"key":"16072","name":"Sonneberg","type":"Landkreis"},"federalState":{"key":"16","name":"Thüringen"}},{"name":"Andruffstr.","postalCode":"98724","locality":"Neuhaus am Rennweg","municipality":{"key":"16072013","name":"Neuhaus am Rennweg, Stadt","type":"Stadt"},"district":{"key":"16072","name":"Sonneberg","type":"Landkreis"},"federalState":{"key":"16","name":"Thüringen"}},{"name":"Apelsbergstr.","postalCode":"98724","locality":"Neuhaus am Rennweg","municipality":{"key":"16072013","name":"Neuhaus am Rennweg, Stadt","type":"Stadt"},"district":{"key":"16072","name":"Sonneberg","type":"Landkreis"},"federalState":{"key":"16","name":"Thüringen"}},{"name":"August-Bebel-Str.","postalCode":"98724","locality":"Neuhaus am Rennweg","municipality":{"key":"16072013","name":"Neuhaus am Rennweg, Stadt","type":"Stadt"},"district":{"key":"16072","name":"Sonneberg","type":"Landkreis"},"federalState":{"key":"16","name":"Thüringen"}},{"name":"Bahnhofstr.","postalCode":"98724","locality":"Neuhaus am Rennweg","municipality":{"key":"16072013","name":"Neuhaus am Rennweg, Stadt","type":"Stadt"},"district":{"key":"16072","name":"Sonneberg","type":"Landkreis"},"federalState":{"key":"16","name":"Thüringen"}},{"name":"Bahnweg","postalCode":"98724","locality":"Neuhaus am Rennweg","municipality":{"key":"16072013","name":"Neuhaus am Rennweg, Stadt","type":"Stadt"},"district":{"key":"16072","name":"Sonneberg","type":"Landkreis"},"federalState":{"key":"16","name":"Thüringen"}},{"name":"Bärenbachstr.","postalCode":"98724","locality":"Neuhaus am Rennweg","municipality":{"key":"16072013","name":"Neuhaus am Rennweg, Stadt","type":"Stadt"},"district":{"key":"16072","name":"Sonneberg","type":"Landkreis"},"federalState":{"key":"16","name":"Thüringen"}},{"name":"Bärensäcker","postalCode":"98724","locality":"Neuhaus am Rennweg","municipality":{"key":"16072013","name":"Neuhaus am Rennweg, Stadt","type":"Stadt"},"district":{"key":"16072","name":"Sonneberg","type":"Landkreis"},"federalState":{"key":"16","name":"Thüringen"}},{"name":"Bernhardsthal","postalCode":"98724","locality":"Neuhaus am Rennweg","municipality":{"key":"16072013","name":"Neuhaus am Rennweg, Stadt","type":"Stadt"},"district":{"key":"16072","name":"Sonneberg","type":"Landkreis"},"federalState":{"key":"16","name":"Thüringen"}},{"name":"Brandweg","postalCode":"98724","locality":"Neuhaus am Rennweg","municipality":{"key":"16072013","name":"Neuhaus am Rennweg, Stadt","type":"Stadt"},"district":{"key":"16072","name":"Sonneberg","type":"Landkreis"},"federalState":{"key":"16","name":"Thüringen"}},{"name":"Brunnenstr.","postalCode":"98724","locality":"Neuhaus am Rennweg","municipality":{"key":"16072013","name":"Neuhaus am Rennweg, Stadt","type":"Stadt"},"district":{"key":"16072","name":"Sonneberg","type":"Landkreis"},"federalState":{"key":"16","name":"Thüringen"}},{"name":"Clara-Zetkin-Str.","postalCode":"98724","locality":"Neuhaus am Rennweg","municipality":{"key":"16072013","name":"Neuhaus am Rennweg, Stadt","type":"Stadt"},"district":{"key":"16072","name":"Sonneberg","type":"Landkreis"},"federalState":{"key":"16","name":"Thüringen"}},{"name":"Dorststr.","postalCode":"98724","locality":"Neuhaus am Rennweg","municipality":{"key":"16072013","name":"Neuhaus am Rennweg, Stadt","type":"Stadt"},"district":{"key":"16072","name":"Sonneberg","type":"Landkreis"},"federalState":{"key":"16","name":"Thüringen"}},{"name":"Eisfelder Str.","postalCode":"98724","locality":"Neuhaus am Rennweg","municipality":{"key":"16072013","name":"Neuhaus am Rennweg, Stadt","type":"Stadt"},"district":{"key":"16072","name":"Sonneberg","type":"Landkreis"},"federalState":{"key":"16","name":"Thüringen"}},{"name":"Engelbert-Schoner-Str.","postalCode":"98724","locality":"Neuhaus am Rennweg","municipality":{"key":"16072013","name":"Neuhaus am Rennweg, Stadt","type":"Stadt"},"district":{"key":"16072","name":"Sonneberg","type":"Landkreis"},"federalState":{"key":"16","name":"Thüringen"}},{"name":"Ernst-Moritz-Arndt-Str.","postalCode":"98724","locality":"Neuhaus am Rennweg","municipality":{"key":"16072013","name":"Neuhaus am Rennweg, Stadt","type":"Stadt"},"district":{"key":"16072","name":"Sonneberg","type":"Landkreis"},"federalState":{"key":"16","name":"Thüringen"}},{"name":"Ernst-Thälmann-Str.","postalCode":"98724","locality":"Neuhaus am Rennweg","municipality":{"key":"16072013","name":"Neuhaus am Rennweg, Stadt","type":"Stadt"},"district":{"key":"16072","name":"Sonneberg","type":"Landkreis"},"federalState":{"key":"16","name":"Thüringen"}},{"name":"Fabrikstr.","postalCode":"98724","locality":"Neuhaus am Rennweg","municipality":{"key":"16072013","name":"Neuhaus am Rennweg, Stadt","type":"Stadt"},"district":{"key":"16072","name":"Sonneberg","type":"Landkreis"},"federalState":{"key":"16","name":"Thüringen"}},{"name":"Festeburgstr.","postalCode":"98724","locality":"Neuhaus am Rennweg","municipality":{"key":"16072013","name":"Neuhaus am Rennweg, Stadt","type":"Stadt"},"district":{"key":"16072","name":"Sonneberg","type":"Landkreis"},"federalState":{"key":"16","name":"Thüringen"}},{"name":"Fränkischer Weg","postalCode":"98724","locality":"Neuhaus am Rennweg","municipality":{"key":"16072013","name":"Neuhaus am Rennweg, Stadt","type":"Stadt"},"district":{"key":"16072","name":"Sonneberg","type":"Landkreis"},"federalState":{"key":"16","name":"Thüringen"}},{"name":"Friedensstr.","postalCode":"98724","locality":"Neuhaus am Rennweg","municipality":{"key":"16072013","name":"Neuhaus am Rennweg, Stadt","type":"Stadt"},"district":{"key":"16072","name":"Sonneberg","type":"Landkreis"},"federalState":{"key":"16","name":"Thüringen"}},{"name":"Friedhofstr.","postalCode":"98724","locality":"Neuhaus am Rennweg","municipality":{"key":"16072013","name":"Neuhaus am Rennweg, Stadt","type":"Stadt"},"district":{"key":"16072","name":"Sonneberg","type":"Landkreis"},"federalState":{"key":"16","name":"Thüringen"}},{"name":"Friedhofsweg","postalCode":"98724","locality":"Neuhaus am Rennweg","municipality":{"key":"16072013","name":"Neuhaus am Rennweg, Stadt","type":"Stadt"},"district":{"key":"16072","name":"Sonneberg","type":"Landkreis"},"federalState":{"key":"16","name":"Thüringen"}},{"name":"Froschgrund","postalCode":"98724","locality":"Neuhaus am Rennweg","municipality":{"key":"16072013","name":"Neuhaus am Rennweg, Stadt","type":"Stadt"},"district":{"key":"16072","name":"Sonneberg","type":"Landkreis"},"federalState":{"key":"16","name":"Thüringen"}},{"name":"Gasse","postalCode":"98724","locality":"Neuhaus am Rennweg","municipality":{"key":"16072013","name":"Neuhaus am Rennweg, Stadt","type":"Stadt"},"district":{"key":"16072","name":"Sonneberg","type":"Landkreis"},"federalState":{"key":"16","name":"Thüringen"}},{"name":"Geiersthaler Str.","postalCode":"98724","locality":"Neuhaus am Rennweg","municipality":{"key":"16072013","name":"Neuhaus am Rennweg, Stadt","type":"Stadt"},"district":{"key":"16072","name":"Sonneberg","type":"Landkreis"},"federalState":{"key":"16","name":"Thüringen"}},{"name":"Geißlerstr.","postalCode":"98724","locality":"Neuhaus am Rennweg","municipality":{"key":"16072013","name":"Neuhaus am Rennweg, Stadt","type":"Stadt"},"district":{"key":"16072","name":"Sonneberg","type":"Landkreis"},"federalState":{"key":"16","name":"Thüringen"}},{"name":"Gemeindeweg","postalCode":"98724","locality":"Neuhaus am Rennweg","municipality":{"key":"16072013","name":"Neuhaus am Rennweg, Stadt","type":"Stadt"},"district":{"key":"16072","name":"Sonneberg","type":"Landkreis"},"federalState":{"key":"16","name":"Thüringen"}},{"name":"Göritzweg","postalCode":"98724","locality":"Neuhaus am Rennweg","municipality":{"key":"16072013","name":"Neuhaus am Rennweg, Stadt","type":"Stadt"},"district":{"key":"16072","name":"Sonneberg","type":"Landkreis"},"federalState":{"key":"16","name":"Thüringen"}},{"name":"Gotthelf-Greiner-Str.","postalCode":"98724","locality":"Neuhaus am Rennweg","municipality":{"key":"16072013","name":"Neuhaus am Rennweg, Stadt","type":"Stadt"},"district":{"key":"16072","name":"Sonneberg","type":"Landkreis"},"federalState":{"key":"16","name":"Thüringen"}},{"name":"Grimmweg","postalCode":"98724","locality":"Neuhaus am Rennweg","municipality":{"key":"16072013","name":"Neuhaus am Rennweg, Stadt","type":"Stadt"},"district":{"key":"16072","name":"Sonneberg","type":"Landkreis"},"federalState":{"key":"16","name":"Thüringen"}},{"name":"Grund","postalCode":"98724","locality":"Neuhaus am Rennweg","municipality":{"key":"16072013","name":"Neuhaus am Rennweg, Stadt","type":"Stadt"},"district":{"key":"16072","name":"Sonneberg","type":"Landkreis"},"federalState":{"key":"16","name":"Thüringen"}},{"name":"Gutshof","postalCode":"98724","locality":"Neuhaus am Rennweg","municipality":{"key":"16072013","name":"Neuhaus am Rennweg, Stadt","type":"Stadt"},"district":{"key":"16072","name":"Sonneberg","type":"Landkreis"},"federalState":{"key":"16","name":"Thüringen"}},{"name":"Hauptstr.","postalCode":"98724","locality":"Neuhaus am Rennweg","municipality":{"key":"16072013","name":"Neuhaus am Rennweg, Stadt","type":"Stadt"},"district":{"key":"16072","name":"Sonneberg","type":"Landkreis"},"federalState":{"key":"16","name":"Thüringen"}},{"name":"Hauptweg","postalCode":"98724","locality":"Neuhaus am Rennweg","municipality":{"key":"16072013","name":"Neuhaus am Rennweg, Stadt","type":"Stadt"},"district":{"key":"16072","name":"Sonneberg","type":"Landkreis"},"federalState":{"key":"16","name":"Thüringen"}},{"name":"Heuweg","postalCode":"98724","locality":"Neuhaus am Rennweg","municipality":{"key":"16072013","name":"Neuhaus am Rennweg, Stadt","type":"Stadt"},"district":{"key":"16072","name":"Sonneberg","type":"Landkreis"},"federalState":{"key":"16","name":"Thüringen"}},{"name":"Hiftenberg","postalCode":"98724","locality":"Neuhaus am Rennweg","municipality":{"key":"16072013","name":"Neuhaus am Rennweg, Stadt","type":"Stadt"},"district":{"key":"16072","name":"Sonneberg","type":"Landkreis"},"federalState":{"key":"16","name":"Thüringen"}},{"name":"Hohewartstr.","postalCode":"98724","locality":"Neuhaus am Rennweg","municipality":{"key":"16072013","name":"Neuhaus am Rennweg, Stadt","type":"Stadt"},"district":{"key":"16072","name":"Sonneberg","type":"Landkreis"},"federalState":{"key":"16","name":"Thüringen"}},{"name":"Hohlweg","postalCode":"98724","locality":"Neuhaus am Rennweg","municipality":{"key":"16072013","name":"Neuhaus am Rennweg, Stadt","type":"Stadt"},"district":{"key":"16072","name":"Sonneberg","type":"Landkreis"},"federalState":{"key":"16","name":"Thüringen"}},{"name":"Höllthal","postalCode":"98724","locality":"Neuhaus am Rennweg","municipality":{"key":"16072013","name":"Neuhaus am Rennweg, Stadt","type":"Stadt"},"district":{"key":"16072","name":"Sonneberg","type":"Landkreis"},"federalState":{"key":"16","name":"Thüringen"}},{"name":"Hufelandstr.","postalCode":"98724","locality":"Neuhaus am Rennweg","municipality":{"key":"16072013","name":"Neuhaus am Rennweg, Stadt","type":"Stadt"},"district":{"key":"16072","name":"Sonneberg","type":"Landkreis"},"federalState":{"key":"16","name":"Thüringen"}},{"name":"Hügel","postalCode":"98724","locality":"Neuhaus am Rennweg","municipality":{"key":"16072013","name":"Neuhaus am Rennweg, Stadt","type":"Stadt"},"district":{"key":"16072","name":"Sonneberg","type":"Landkreis"},"federalState":{"key":"16","name":"Thüringen"}},{"name":"Hüttenring","postalCode":"98724","locality":"Neuhaus am Rennweg","municipality":{"key":"16072013","name":"Neuhaus am Rennweg, Stadt","type":"Stadt"},"district":{"key":"16072","name":"Sonneberg","type":"Landkreis"},"federalState":{"key":"16","name":"Thüringen"}},{"name":"Igelskuppe","postalCode":"98724","locality":"Neuhaus am Rennweg","municipality":{"key":"16072013","name":"Neuhaus am Rennweg, Stadt","type":"Stadt"},"district":{"key":"16072","name":"Sonneberg","type":"Landkreis"},"federalState":{"key":"16","name":"Thüringen"}},{"name":"Im Winkel","postalCode":"98724","locality":"Neuhaus am Rennweg","municipality":{"key":"16072013","name":"Neuhaus am Rennweg, Stadt","type":"Stadt"},"district":{"key":"16072","name":"Sonneberg","type":"Landkreis"},"federalState":{"key":"16","name":"Thüringen"}},{"name":"Jungfrauenbachsweg","postalCode":"98724","locality":"Neuhaus am Rennweg","municipality":{"key":"16072013","name":"Neuhaus am Rennweg, Stadt","type":"Stadt"},"district":{"key":"16072","name":"Sonneberg","type":"Landkreis"},"federalState":{"key":"16","name":"Thüringen"}},{"name":"Kalugaer Str.","postalCode":"98724","locality":"Neuhaus am Rennweg","municipality":{"key":"16072013","name":"Neuhaus am Rennweg, Stadt","type":"Stadt"},"district":{"key":"16072","name":"Sonneberg","type":"Landkreis"},"federalState":{"key":"16","name":"Thüringen"}},{"name":"Karl-Liebknecht-Str.","postalCode":"98724","locality":"Neuhaus am Rennweg","municipality":{"key":"16072013","name":"Neuhaus am Rennweg, Stadt","type":"Stadt"},"district":{"key":"16072","name":"Sonneberg","type":"Landkreis"},"federalState":{"key":"16","name":"Thüringen"}},{"name":"Karl-Marx-Str.","postalCode":"98724","locality":"Neuhaus am Rennweg","municipality":{"key":"16072013","name":"Neuhaus am Rennweg, Stadt","type":"Stadt"},"district":{"key":"16072","name":"Sonneberg","type":"Landkreis"},"federalState":{"key":"16","name":"Thüringen"}},{"name":"Kastanienweg","postalCode":"98724","locality":"Neuhaus am Rennweg","municipality":{"key":"16072013","name":"Neuhaus am Rennweg, Stadt","type":"Stadt"},"district":{"key":"16072","name":"Sonneberg","type":"Landkreis"},"federalState":{"key":"16","name":"Thüringen"}},{"name":"Kerbenweg","postalCode":"98724","locality":"Neuhaus am Rennweg","municipality":{"key":"16072013","name":"Neuhaus am Rennweg, Stadt","type":"Stadt"},"district":{"key":"16072","name":"Sonneberg","type":"Landkreis"},"federalState":{"key":"16","name":"Thüringen"}},{"name":"Kieferlestr.","postalCode":"98724","locality":"Neuhaus am Rennweg","municipality":{"key":"16072013","name":"Neuhaus am Rennweg, Stadt","type":"Stadt"},"district":{"key":"16072","name":"Sonneberg","type":"Landkreis"},"federalState":{"key":"16","name":"Thüringen"}},{"name":"Kindergartenweg","postalCode":"98724","locality":"Neuhaus am Rennweg","municipality":{"key":"16072013","name":"Neuhaus am Rennweg, Stadt","type":"Stadt"},"district":{"key":"16072","name":"Sonneberg","type":"Landkreis"},"federalState":{"key":"16","name":"Thüringen"}},{"name":"Kirchsteig","postalCode":"98724","locality":"Neuhaus am Rennweg","municipality":{"key":"16072013","name":"Neuhaus am Rennweg, Stadt","type":"Stadt"},"district":{"key":"16072","name":"Sonneberg","type":"Landkreis"},"federalState":{"key":"16","name":"Thüringen"}},{"name":"Kirchweg","postalCode":"98724","locality":"Neuhaus am Rennweg","municipality":{"key":"16072013","name":"Neuhaus am Rennweg, Stadt","type":"Stadt"},"district":{"key":"16072","name":"Sonneberg","type":"Landkreis"},"federalState":{"key":"16","name":"Thüringen"}},{"name":"Klarenweg","postalCode":"98724","locality":"Neuhaus am Rennweg","municipality":{"key":"16072013","name":"Neuhaus am Rennweg, Stadt","type":"Stadt"},"district":{"key":"16072","name":"Sonneberg","type":"Landkreis"},"federalState":{"key":"16","name":"Thüringen"}},{"name":"Lamprechtgasse","postalCode":"98724","locality":"Neuhaus am Rennweg","municipality":{"key":"16072013","name":"Neuhaus am Rennweg, Stadt","type":"Stadt"},"district":{"key":"16072","name":"Sonneberg","type":"Landkreis"},"federalState":{"key":"16","name":"Thüringen"}},{"name":"Lamprechtstr.","postalCode":"98724","locality":"Neuhaus am Rennweg","municipality":{"key":"16072013","name":"Neuhaus am Rennweg, Stadt","type":"Stadt"},"district":{"key":"16072","name":"Sonneberg","type":"Landkreis"},"federalState":{"key":"16","name":"Thüringen"}},{"name":"Langenbachstr.","postalCode":"98724","locality":"Neuhaus am Rennweg","municipality":{"key":"16072013","name":"Neuhaus am Rennweg, Stadt","type":"Stadt"},"district":{"key":"16072","name":"Sonneberg","type":"Landkreis"},"federalState":{"key":"16","name":"Thüringen"}},{"name":"Lärchenweg","postalCode":"98724","locality":"Neuhaus am Rennweg","municipality":{"key":"16072013","name":"Neuhaus am Rennweg, Stadt","type":"Stadt"},"district":{"key":"16072","name":"Sonneberg","type":"Landkreis"},"federalState":{"key":"16","name":"Thüringen"}},{"name":"Leninstr.","postalCode":"98724","locality":"Neuhaus am Rennweg","municipality":{"key":"16072013","name":"Neuhaus am Rennweg, Stadt","type":"Stadt"},"district":{"key":"16072","name":"Sonneberg","type":"Landkreis"},"federalState":{"key":"16","name":"Thüringen"}},{"name":"Lichtetalstr.","postalCode":"98724","locality":"Neuhaus am Rennweg","municipality":{"key":"16072013","name":"Neuhaus am Rennweg, Stadt","type":"Stadt"},"district":{"key":"16072","name":"Sonneberg","type":"Landkreis"},"federalState":{"key":"16","name":"Thüringen"}},{"name":"Lichtner Str.","postalCode":"98724","locality":"Neuhaus am Rennweg","municipality":{"key":"16072013","name":"Neuhaus am Rennweg, Stadt","type":"Stadt"},"district":{"key":"16072","name":"Sonneberg","type":"Landkreis"},"federalState":{"key":"16","name":"Thüringen"}},{"name":"Limbacher Str.","postalCode":"98724","locality":"Neuhaus am Rennweg","municipality":{"key":"16072013","name":"Neuhaus am Rennweg, Stadt","type":"Stadt"},"district":{"key":"16072","name":"Sonneberg","type":"Landkreis"},"federalState":{"key":"16","name":"Thüringen"}},{"name":"Löschleite","postalCode":"98724","locality":"Neuhaus am Rennweg","municipality":{"key":"16072013","name":"Neuhaus am Rennweg, Stadt","type":"Stadt"},"district":{"key":"16072","name":"Sonneberg","type":"Landkreis"},"federalState":{"key":"16","name":"Thüringen"}},{"name":"Mantelstr.","postalCode":"98724","locality":"Neuhaus am Rennweg","municipality":{"key":"16072013","name":"Neuhaus am Rennweg, Stadt","type":"Stadt"},"district":{"key":"16072","name":"Sonneberg","type":"Landkreis"},"federalState":{"key":"16","name":"Thüringen"}},{"name":"Markt","postalCode":"98724","locality":"Neuhaus am Rennweg","municipality":{"key":"16072013","name":"Neuhaus am Rennweg, Stadt","type":"Stadt"},"district":{"key":"16072","name":"Sonneberg","type":"Landkreis"},"federalState":{"key":"16","name":"Thüringen"}},{"name":"Marktstr.","postalCode":"98724","locality":"Neuhaus am Rennweg","municipality":{"key":"16072013","name":"Neuhaus am Rennweg, Stadt","type":"Stadt"},"district":{"key":"16072","name":"Sonneberg","type":"Landkreis"},"federalState":{"key":"16","name":"Thüringen"}},{"name":"Mittelbergstr.","postalCode":"98724","locality":"Neuhaus am Rennweg","municipality":{"key":"16072013","name":"Neuhaus am Rennweg, Stadt","type":"Stadt"},"district":{"key":"16072","name":"Sonneberg","type":"Landkreis"},"federalState":{"key":"16","name":"Thüringen"}},{"name":"Neuer Weg","postalCode":"98724","locality":"Neuhaus am Rennweg","municipality":{"key":"16072013","name":"Neuhaus am Rennweg, Stadt","type":"Stadt"},"district":{"key":"16072","name":"Sonneberg","type":"Landkreis"},"federalState":{"key":"16","name":"Thüringen"}},{"name":"Neue Str.","postalCode":"98724","locality":"Neuhaus am Rennweg","municipality":{"key":"16072013","name":"Neuhaus am Rennweg, Stadt","type":"Stadt"},"district":{"key":"16072","name":"Sonneberg","type":"Landkreis"},"federalState":{"key":"16","name":"Thüringen"}},{"name":"Neuhäuser Hauptweg","postalCode":"98724","locality":"Neuhaus am Rennweg","municipality":{"key":"16072013","name":"Neuhaus am Rennweg, Stadt","type":"Stadt"},"district":{"key":"16072","name":"Sonneberg","type":"Landkreis"},"federalState":{"key":"16","name":"Thüringen"}},{"name":"Neuhäuser Str.","postalCode":"98724","locality":"Neuhaus am Rennweg","municipality":{"key":"16072013","name":"Neuhaus am Rennweg, Stadt","type":"Stadt"},"district":{"key":"16072","name":"Sonneberg","type":"Landkreis"},"federalState":{"key":"16","name":"Thüringen"}},{"name":"Neumannsgrund","postalCode":"98724","locality":"Neuhaus am Rennweg","municipality":{"key":"16072013","name":"Neuhaus am Rennweg, Stadt","type":"Stadt"},"district":{"key":"16072","name":"Sonneberg","type":"Landkreis"},"federalState":{"key":"16","name":"Thüringen"}},{"name":"Neumannsgrunder Str.","postalCode":"98724","locality":"Neuhaus am Rennweg","municipality":{"key":"16072013","name":"Neuhaus am Rennweg, Stadt","type":"Stadt"},"district":{"key":"16072","name":"Sonneberg","type":"Landkreis"},"federalState":{"key":"16","name":"Thüringen"}},{"name":"Notausgang 2 Bleßbergtunnel","postalCode":"98724","locality":"Neuhaus am Rennweg","municipality":{"key":"16072013","name":"Neuhaus am Rennweg, Stadt","type":"Stadt"},"district":{"key":"16072","name":"Sonneberg","type":"Landkreis"},"federalState":{"key":"16","name":"Thüringen"}},{"name":"Oberer Friedhofsweg","postalCode":"98724","locality":"Neuhaus am Rennweg","municipality":{"key":"16072013","name":"Neuhaus am Rennweg, Stadt","type":"Stadt"},"district":{"key":"16072","name":"Sonneberg","type":"Landkreis"},"federalState":{"key":"16","name":"Thüringen"}},{"name":"Oberer Hügel","postalCode":"98724","locality":"Neuhaus am Rennweg","municipality":{"key":"16072013","name":"Neuhaus am Rennweg, Stadt","type":"Stadt"},"district":{"key":"16072","name":"Sonneberg","type":"Landkreis"},"federalState":{"key":"16","name":"Thüringen"}},{"name":"Oberer Löschleitenweg","postalCode":"98724","locality":"Neuhaus am Rennweg","municipality":{"key":"16072013","name":"Neuhaus am Rennweg, Stadt","type":"Stadt"},"district":{"key":"16072","name":"Sonneberg","type":"Landkreis"},"federalState":{"key":"16","name":"Thüringen"}},{"name":"Oberer Mittelberg","postalCode":"98724","locality":"Neuhaus am Rennweg","municipality":{"key":"16072013","name":"Neuhaus am Rennweg, Stadt","type":"Stadt"},"district":{"key":"16072","name":"Sonneberg","type":"Landkreis"},"federalState":{"key":"16","name":"Thüringen"}},{"name":"Oberer Weg","postalCode":"98724","locality":"Neuhaus am Rennweg","municipality":{"key":"16072013","name":"Neuhaus am Rennweg, Stadt","type":"Stadt"},"district":{"key":"16072","name":"Sonneberg","type":"Landkreis"},"federalState":{"key":"16","name":"Thüringen"}},{"name":"Obere Str.","postalCode":"98724","locality":"Neuhaus am Rennweg","municipality":{"key":"16072013","name":"Neuhaus am Rennweg, Stadt","type":"Stadt"},"district":{"key":"16072","name":"Sonneberg","type":"Landkreis"},"federalState":{"key":"16","name":"Thüringen"}},{"name":"Oberland","postalCode":"98724","locality":"Neuhaus am Rennweg","municipality":{"key":"16072013","name":"Neuhaus am Rennweg, Stadt","type":"Stadt"},"district":{"key":"16072","name":"Sonneberg","type":"Landkreis"},"federalState":{"key":"16","name":"Thüringen"}},{"name":"Oberlandstr.","postalCode":"98724","locality":"Neuhaus am Rennweg","municipality":{"key":"16072013","name":"Neuhaus am Rennweg, Stadt","type":"Stadt"},"district":{"key":"16072","name":"Sonneberg","type":"Landkreis"},"federalState":{"key":"16","name":"Thüringen"}},{"name":"Otto-Engert-Str.","postalCode":"98724","locality":"Neuhaus am Rennweg","municipality":{"key":"16072013","name":"Neuhaus am Rennweg, Stadt","type":"Stadt"},"district":{"key":"16072","name":"Sonneberg","type":"Landkreis"},"federalState":{"key":"16","name":"Thüringen"}},{"name":"Ottosweg","postalCode":"98724","locality":"Neuhaus am Rennweg","municipality":{"key":"16072013","name":"Neuhaus am Rennweg, Stadt","type":"Stadt"},"district":{"key":"16072","name":"Sonneberg","type":"Landkreis"},"federalState":{"key":"16","name":"Thüringen"}},{"name":"Petershüttenweg","postalCode":"98724","locality":"Neuhaus am Rennweg","municipality":{"key":"16072013","name":"Neuhaus am Rennweg, Stadt","type":"Stadt"},"district":{"key":"16072","name":"Sonneberg","type":"Landkreis"},"federalState":{"key":"16","name":"Thüringen"}},{"name":"Piesauer Str.","postalCode":"98724","locality":"Neuhaus am Rennweg","municipality":{"key":"16072013","name":"Neuhaus am Rennweg, Stadt","type":"Stadt"},"district":{"key":"16072","name":"Sonneberg","type":"Landkreis"},"federalState":{"key":"16","name":"Thüringen"}},{"name":"Poststr.","postalCode":"98724","locality":"Neuhaus am Rennweg","municipality":{"key":"16072013","name":"Neuhaus am Rennweg, Stadt","type":"Stadt"},"district":{"key":"16072","name":"Sonneberg","type":"Landkreis"},"federalState":{"key":"16","name":"Thüringen"}},{"name":"Prachaticer Str.","postalCode":"98724","locality":"Neuhaus am Rennweg","municipality":{"key":"16072013","name":"Neuhaus am Rennweg, Stadt","type":"Stadt"},"district":{"key":"16072","name":"Sonneberg","type":"Landkreis"},"federalState":{"key":"16","name":"Thüringen"}},{"name":"Querstr.","postalCode":"98724","locality":"Neuhaus am Rennweg","municipality":{"key":"16072013","name":"Neuhaus am Rennweg, Stadt","type":"Stadt"},"district":{"key":"16072","name":"Sonneberg","type":"Landkreis"},"federalState":{"key":"16","name":"Thüringen"}},{"name":"Radrennsteig","postalCode":"98724","locality":"Neuhaus am Rennweg","municipality":{"key":"16072013","name":"Neuhaus am Rennweg, Stadt","type":"Stadt"},"district":{"key":"16072","name":"Sonneberg","type":"Landkreis"},"federalState":{"key":"16","name":"Thüringen"}},{"name":"Raiffeisenstr.","postalCode":"98724","locality":"Neuhaus am Rennweg","municipality":{"key":"16072013","name":"Neuhaus am Rennweg, Stadt","type":"Stadt"},"district":{"key":"16072","name":"Sonneberg","type":"Landkreis"},"federalState":{"key":"16","name":"Thüringen"}},{"name":"Rathauspark mit Stadtkirche","postalCode":"98724","locality":"Neuhaus am Rennweg","municipality":{"key":"16072013","name":"Neuhaus am Rennweg, Stadt","type":"Stadt"},"district":{"key":"16072","name":"Sonneberg","type":"Landkreis"},"federalState":{"key":"16","name":"Thüringen"}},{"name":"Reifweg","postalCode":"98724","locality":"Neuhaus am Rennweg","municipality":{"key":"16072013","name":"Neuhaus am Rennweg, Stadt","type":"Stadt"},"district":{"key":"16072","name":"Sonneberg","type":"Landkreis"},"federalState":{"key":"16","name":"Thüringen"}},{"name":"Rennsteig","postalCode":"98724","locality":"Neuhaus am Rennweg","municipality":{"key":"16072013","name":"Neuhaus am Rennweg, Stadt","type":"Stadt"},"district":{"key":"16072","name":"Sonneberg","type":"Landkreis"},"federalState":{"key":"16","name":"Thüringen"}},{"name":"Rennsteigstr.","postalCode":"98724","locality":"Neuhaus am Rennweg","municipality":{"key":"16072013","name":"Neuhaus am Rennweg, Stadt","type":"Stadt"},"district":{"key":"16072","name":"Sonneberg","type":"Landkreis"},"federalState":{"key":"16","name":"Thüringen"}},{"name":"Ringstr.","postalCode":"98724","locality":"Neuhaus am Rennweg","municipality":{"key":"16072013","name":"Neuhaus am Rennweg, Stadt","type":"Stadt"},"district":{"key":"16072","name":"Sonneberg","type":"Landkreis"},"federalState":{"key":"16","name":"Thüringen"}},{"name":"Robert-Koch-Str.","postalCode":"98724","locality":"Neuhaus am Rennweg","municipality":{"key":"16072013","name":"Neuhaus am Rennweg, Stadt","type":"Stadt"},"district":{"key":"16072","name":"Sonneberg","type":"Landkreis"},"federalState":{"key":"16","name":"Thüringen"}},{"name":"Rosa-Luxemburg-Str.","postalCode":"98724","locality":"Neuhaus am Rennweg","municipality":{"key":"16072013","name":"Neuhaus am Rennweg, Stadt","type":"Stadt"},"district":{"key":"16072","name":"Sonneberg","type":"Landkreis"},"federalState":{"key":"16","name":"Thüringen"}},{"name":"Rosenweg","postalCode":"98724","locality":"Neuhaus am Rennweg","municipality":{"key":"16072013","name":"Neuhaus am Rennweg, Stadt","type":"Stadt"},"district":{"key":"16072","name":"Sonneberg","type":"Landkreis"},"federalState":{"key":"16","name":"Thüringen"}},{"name":"Rote Brücke","postalCode":"98724","locality":"Neuhaus am Rennweg","municipality":{"key":"16072013","name":"Neuhaus am Rennweg, Stadt","type":"Stadt"},"district":{"key":"16072","name":"Sonneberg","type":"Landkreis"},"federalState":{"key":"16","name":"Thüringen"}},{"name":"Rote Chaussee","postalCode":"98724","locality":"Neuhaus am Rennweg","municipality":{"key":"16072013","name":"Neuhaus am Rennweg, Stadt","type":"Stadt"},"district":{"key":"16072","name":"Sonneberg","type":"Landkreis"},"federalState":{"key":"16","name":"Thüringen"}},{"name":"Rund um den Zigeunersberg","postalCode":"98724","locality":"Neuhaus am Rennweg","municipality":{"key":"16072013","name":"Neuhaus am Rennweg, Stadt","type":"Stadt"},"district":{"key":"16072","name":"Sonneberg","type":"Landkreis"},"federalState":{"key":"16","name":"Thüringen"}},{"name":"Saalfelder Str.","postalCode":"98724","locality":"Neuhaus am Rennweg","municipality":{"key":"16072013","name":"Neuhaus am Rennweg, Stadt","type":"Stadt"},"district":{"key":"16072","name":"Sonneberg","type":"Landkreis"},"federalState":{"key":"16","name":"Thüringen"}},{"name":"Saarweg","postalCode":"98724","locality":"Neuhaus am Rennweg","municipality":{"key":"16072013","name":"Neuhaus am Rennweg, Stadt","type":"Stadt"},"district":{"key":"16072","name":"Sonneberg","type":"Landkreis"},"federalState":{"key":"16","name":"Thüringen"}},{"name":"Schanzweg","postalCode":"98724","locality":"Neuhaus am Rennweg","municipality":{"key":"16072013","name":"Neuhaus am Rennweg, Stadt","type":"Stadt"},"district":{"key":"16072","name":"Sonneberg","type":"Landkreis"},"federalState":{"key":"16","name":"Thüringen"}},{"name":"Scheibener Str.","postalCode":"98724","locality":"Neuhaus am Rennweg","municipality":{"key":"16072013","name":"Neuhaus am Rennweg, Stadt","type":"Stadt"},"district":{"key":"16072","name":"Sonneberg","type":"Landkreis"},"federalState":{"key":"16","name":"Thüringen"}},{"name":"Schmalenbuchener Str.","postalCode":"98724","locality":"Neuhaus am Rennweg","municipality":{"key":"16072013","name":"Neuhaus am Rennweg, Stadt","type":"Stadt"},"district":{"key":"16072","name":"Sonneberg","type":"Landkreis"},"federalState":{"key":"16","name":"Thüringen"}},{"name":"Schmidtenhof","postalCode":"98724","locality":"Neuhaus am Rennweg","municipality":{"key":"16072013","name":"Neuhaus am Rennweg, Stadt","type":"Stadt"},"district":{"key":"16072","name":"Sonneberg","type":"Landkreis"},"federalState":{"key":"16","name":"Thüringen"}},{"name":"Schneidersweg","postalCode":"98724","locality":"Neuhaus am Rennweg","municipality":{"key":"16072013","name":"Neuhaus am Rennweg, Stadt","type":"Stadt"},"district":{"key":"16072","name":"Sonneberg","type":"Landkreis"},"federalState":{"key":"16","name":"Thüringen"}},{"name":"Schöne Aussicht","postalCode":"98724","locality":"Neuhaus am Rennweg","municipality":{"key":"16072013","name":"Neuhaus am Rennweg, Stadt","type":"Stadt"},"district":{"key":"16072","name":"Sonneberg","type":"Landkreis"},"federalState":{"key":"16","name":"Thüringen"}},{"name":"Schulstr.","postalCode":"98724","locality":"Neuhaus am Rennweg","municipality":{"key":"16072013","name":"Neuhaus am Rennweg, Stadt","type":"Stadt"},"district":{"key":"16072","name":"Sonneberg","type":"Landkreis"},"federalState":{"key":"16","name":"Thüringen"}},{"name":"Schulweg","postalCode":"98724","locality":"Neuhaus am Rennweg","municipality":{"key":"16072013","name":"Neuhaus am Rennweg, Stadt","type":"Stadt"},"district":{"key":"16072","name":"Sonneberg","type":"Landkreis"},"federalState":{"key":"16","name":"Thüringen"}},{"name":"Schwarzburger Str.","postalCode":"98724","locality":"Neuhaus am Rennweg","municipality":{"key":"16072013","name":"Neuhaus am Rennweg, Stadt","type":"Stadt"},"district":{"key":"16072","name":"Sonneberg","type":"Landkreis"},"federalState":{"key":"16","name":"Thüringen"}},{"name":"Sebastian-Kneipp-Str.","postalCode":"98724","locality":"Neuhaus am Rennweg","municipality":{"key":"16072013","name":"Neuhaus am Rennweg, Stadt","type":"Stadt"},"district":{"key":"16072","name":"Sonneberg","type":"Landkreis"},"federalState":{"key":"16","name":"Thüringen"}},{"name":"Sebastian Kneipstr.","postalCode":"98724","locality":"Neuhaus am Rennweg","municipality":{"key":"16072013","name":"Neuhaus am Rennweg, Stadt","type":"Stadt"},"district":{"key":"16072","name":"Sonneberg","type":"Landkreis"},"federalState":{"key":"16","name":"Thüringen"}},{"name":"Sechs-Kilometer-Weg","postalCode":"98724","locality":"Neuhaus am Rennweg","municipality":{"key":"16072013","name":"Neuhaus am Rennweg, Stadt","type":"Stadt"},"district":{"key":"16072","name":"Sonneberg","type":"Landkreis"},"federalState":{"key":"16","name":"Thüringen"}},{"name":"Semmelweisstr.","postalCode":"98724","locality":"Neuhaus am Rennweg","municipality":{"key":"16072013","name":"Neuhaus am Rennweg, Stadt","type":"Stadt"},"district":{"key":"16072","name":"Sonneberg","type":"Landkreis"},"federalState":{"key":"16","name":"Thüringen"}},{"name":"Siedlung","postalCode":"98724","locality":"Neuhaus am Rennweg","municipality":{"key":"16072013","name":"Neuhaus am Rennweg, Stadt","type":"Stadt"},"district":{"key":"16072","name":"Sonneberg","type":"Landkreis"},"federalState":{"key":"16","name":"Thüringen"}},{"name":"Sonneberger Str.","postalCode":"98724","locality":"Neuhaus am Rennweg","municipality":{"key":"16072013","name":"Neuhaus am Rennweg, Stadt","type":"Stadt"},"district":{"key":"16072","name":"Sonneberg","type":"Landkreis"},"federalState":{"key":"16","name":"Thüringen"}},{"name":"Str. des Friedens","postalCode":"98724","locality":"Neuhaus am Rennweg","municipality":{"key":"16072013","name":"Neuhaus am Rennweg, Stadt","type":"Stadt"},"district":{"key":"16072","name":"Sonneberg","type":"Landkreis"},"federalState":{"key":"16","name":"Thüringen"}},{"name":"Talweg","postalCode":"98724","locality":"Neuhaus am Rennweg","municipality":{"key":"16072013","name":"Neuhaus am Rennweg, Stadt","type":"Stadt"},"district":{"key":"16072","name":"Sonneberg","type":"Landkreis"},"federalState":{"key":"16","name":"Thüringen"}},{"name":"Thomas-Mann-Str.","postalCode":"98724","locality":"Neuhaus am Rennweg","municipality":{"key":"16072013","name":"Neuhaus am Rennweg, Stadt","type":"Stadt"},"district":{"key":"16072","name":"Sonneberg","type":"Landkreis"},"federalState":{"key":"16","name":"Thüringen"}},{"name":"Treibe","postalCode":"98724","locality":"Neuhaus am Rennweg","municipality":{"key":"16072013","name":"Neuhaus am Rennweg, Stadt","type":"Stadt"},"district":{"key":"16072","name":"Sonneberg","type":"Landkreis"},"federalState":{"key":"16","name":"Thüringen"}},{"name":"Unterer Friedhofsweg","postalCode":"98724","locality":"Neuhaus am Rennweg","municipality":{"key":"16072013","name":"Neuhaus am Rennweg, Stadt","type":"Stadt"},"district":{"key":"16072","name":"Sonneberg","type":"Landkreis"},"federalState":{"key":"16","name":"Thüringen"}},{"name":"Unterer Hügel","postalCode":"98724","locality":"Neuhaus am Rennweg","municipality":{"key":"16072013","name":"Neuhaus am Rennweg, Stadt","type":"Stadt"},"district":{"key":"16072","name":"Sonneberg","type":"Landkreis"},"federalState":{"key":"16","name":"Thüringen"}},{"name":"Unterer Löschleitenweg","postalCode":"98724","locality":"Neuhaus am Rennweg","municipality":{"key":"16072013","name":"Neuhaus am Rennweg, Stadt","type":"Stadt"},"district":{"key":"16072","name":"Sonneberg","type":"Landkreis"},"federalState":{"key":"16","name":"Thüringen"}},{"name":"Unterer Mittelberg","postalCode":"98724","locality":"Neuhaus am Rennweg","municipality":{"key":"16072013","name":"Neuhaus am Rennweg, Stadt","type":"Stadt"},"district":{"key":"16072","name":"Sonneberg","type":"Landkreis"},"federalState":{"key":"16","name":"Thüringen"}},{"name":"Unterlandstr.","postalCode":"98724","locality":"Neuhaus am Rennweg","municipality":{"key":"16072013","name":"Neuhaus am Rennweg, Stadt","type":"Stadt"},"district":{"key":"16072","name":"Sonneberg","type":"Landkreis"},"federalState":{"key":"16","name":"Thüringen"}},{"name":"Urians Brücke","postalCode":"98724","locality":"Neuhaus am Rennweg","municipality":{"key":"16072013","name":"Neuhaus am Rennweg, Stadt","type":"Stadt"},"district":{"key":"16072","name":"Sonneberg","type":"Landkreis"},"federalState":{"key":"16","name":"Thüringen"}},{"name":"Veilchenweg","postalCode":"96515","locality":"Sonneberg","municipality":{"key":"16072018","name":"Sonneberg, Stadt","type":"Stadt"},"district":{"key":"16072","name":"Sonneberg","type":"Landkreis"},"federalState":{"key":"16","name":"Thüringen"}},{"name":"Vorwerker Str.","postalCode":"96515","locality":"Sonneberg","municipality":{"key":"16072018","name":"Sonneberg, Stadt","type":"Stadt"},"district":{"key":"16072","name":"Sonneberg","type":"Landkreis"},"federalState":{"key":"16","name":"Thüringen"}},{"name":"Waldweg","postalCode":"98724","locality":"Neuhaus am Rennweg","municipality":{"key":"16072013","name":"Neuhaus am Rennweg, Stadt","type":"Stadt"},"district":{"key":"16072","name":"Sonneberg","type":"Landkreis"},"federalState":{"key":"16","name":"Thüringen"}},{"name":"Waschdorfstr.","postalCode":"98724","locality":"Neuhaus am Rennweg","municipality":{"key":"16072013","name":"Neuhaus am Rennweg, Stadt","type":"Stadt"},"district":{"key":"16072","name":"Sonneberg","type":"Landkreis"},"federalState":{"key":"16","name":"Thüringen"}},{"name":"Werra-Burgen-Steig","postalCode":"98724","locality":"Neuhaus am Rennweg","municipality":{"key":"16072013","name":"Neuhaus am Rennweg, Stadt","type":"Stadt"},"district":{"key":"16072","name":"Sonneberg","type":"Landkreis"},"federalState":{"key":"16","name":"Thüringen"}},{"name":"Wiesenweg","postalCode":"98724","locality":"Neuhaus am Rennweg","municipality":{"key":"16072013","name":"Neuhaus am Rennweg, Stadt","type":"Stadt"},"district":{"key":"16072","name":"Sonneberg","type":"Landkreis"},"federalState":{"key":"16","name":"Thüringen"}},{"name":"Wulststr.","postalCode":"98724","locality":"Neuhaus am Rennweg","municipality":{"key":"16072013","name":"Neuhaus am Rennweg, Stadt","type":"Stadt"},"district":{"key":"16072","name":"Sonneberg","type":"Landkreis"},"federalState":{"key":"16","name":"Thüringen"}},{"name":"Zum Hochwald","postalCode":"98724","locality":"Neuhaus am Rennweg","municipality":{"key":"16072013","name":"Neuhaus am Rennweg, Stadt","type":"Stadt"},"district":{"key":"16072","name":"Sonneberg","type":"Landkreis"},"federalState":{"key":"16","name":"Thüringen"}},{"name":"Zum Sportplatz","postalCode":"98724","locality":"Neuhaus am Rennweg","municipality":{"key":"16072013","name":"Neuhaus am Rennweg, Stadt","type":"Stadt"},"district":{"key":"16072","name":"Sonneberg","type":"Landkreis"},"federalState":{"key":"16","name":"Thüringen"}},{"name":"Zur Alten Mutter","postalCode":"98724","locality":"Neuhaus am Rennweg","municipality":{"key":"16072013","name":"Neuhaus am Rennweg, Stadt","type":"Stadt"},"district":{"key":"16072","name":"Sonneberg","type":"Landkreis"},"federalState":{"key":"16","name":"Thüringen"}},{"name":"Zur Kirche","postalCode":"98724","locality":"Neuhaus am Rennweg","municipality":{"key":"16072013","name":"Neuhaus am Rennweg, Stadt","type":"Stadt"},"district":{"key":"16072","name":"Sonneberg","type":"Landkreis"},"federalState":{"key":"16","name":"Thüringen"}},{"name":"Zur Petersburg","postalCode":"98724","locality":"Neuhaus am Rennweg","municipality":{"key":"16072013","name":"Neuhaus am Rennweg, Stadt","type":"Stadt"},"district":{"key":"16072","name":"Sonneberg","type":"Landkreis"},"federalState":{"key":"16","name":"Thüringen"}},{"name":"Zur Reihe","postalCode":"98724","locality":"Neuhaus am Rennweg","municipality":{"key":"16072013","name":"Neuhaus am Rennweg, Stadt","type":"Stadt"},"district":{"key":"16072","name":"Sonneberg","type":"Landkreis"},"federalState":{"key":"16","name":"Thüringen"}},{"name":"Zwickerweg","postalCode":"98724","locality":"Neuhaus am Rennweg","municipality":{"key":"16072013","name":"Neuhaus am Rennweg, Stadt","type":"Stadt"},"district":{"key":"16072","name":"Sonneberg","type":"Landkreis"},"federalState":{"key":"16","name":"Thüringen"}},]