[{"name":"Alter Platz","postalCode":"97859","locality":"Wiesthal","municipality":{"key":"09677200","name":"Wiesthal","type":"Kreisangehörige_Gemeinde"},"district":{"key":"09677","name":"Main-Spessart","type":"Landkreis"},"federalState":{"key":"09","name":"Bayern"}},{"name":"Am Bahnhof","postalCode":"97859","locality":"Wiesthal","municipality":{"key":"09677200","name":"Wiesthal","type":"Kreisangehörige_Gemeinde"},"district":{"key":"09677","name":"Main-Spessart","type":"Landkreis"},"federalState":{"key":"09","name":"Bayern"}},{"name":"Am Kirchberg","postalCode":"97859","locality":"Wiesthal","municipality":{"key":"09677200","name":"Wiesthal","type":"Kreisangehörige_Gemeinde"},"district":{"key":"09677","name":"Main-Spessart","type":"Landkreis"},"federalState":{"key":"09","name":"Bayern"}},{"name":"Am Mühlberg","postalCode":"97859","locality":"Wiesthal","municipality":{"key":"09677200","name":"Wiesthal","type":"Kreisangehörige_Gemeinde"},"district":{"key":"09677","name":"Main-Spessart","type":"Landkreis"},"federalState":{"key":"09","name":"Bayern"}},{"name":"Am Münzberg","postalCode":"97859","locality":"Wiesthal","municipality":{"key":"09677200","name":"Wiesthal","type":"Kreisangehörige_Gemeinde"},"district":{"key":"09677","name":"Main-Spessart","type":"Landkreis"},"federalState":{"key":"09","name":"Bayern"}},{"name":"Am Sportplatz","postalCode":"97859","locality":"Wiesthal","municipality":{"key":"09677200","name":"Wiesthal","type":"Kreisangehörige_Gemeinde"},"district":{"key":"09677","name":"Main-Spessart","type":"Landkreis"},"federalState":{"key":"09","name":"Bayern"}},{"name":"Am Steinbruch","postalCode":"97859","locality":"Wiesthal","municipality":{"key":"09677200","name":"Wiesthal","type":"Kreisangehörige_Gemeinde"},"district":{"key":"09677","name":"Main-Spessart","type":"Landkreis"},"federalState":{"key":"09","name":"Bayern"}},{"name":"Aubachbrücke","postalCode":"97859","locality":"Wiesthal","municipality":{"key":"09677200","name":"Wiesthal","type":"Kreisangehörige_Gemeinde"},"district":{"key":"09677","name":"Main-Spessart","type":"Landkreis"},"federalState":{"key":"09","name":"Bayern"}},{"name":"Bachweg","postalCode":"97859","locality":"Wiesthal","municipality":{"key":"09677200","name":"Wiesthal","type":"Kreisangehörige_Gemeinde"},"district":{"key":"09677","name":"Main-Spessart","type":"Landkreis"},"federalState":{"key":"09","name":"Bayern"}},{"name":"Bahnhofstr.","postalCode":"97859","locality":"Wiesthal","municipality":{"key":"09677200","name":"Wiesthal","type":"Kreisangehörige_Gemeinde"},"district":{"key":"09677","name":"Main-Spessart","type":"Landkreis"},"federalState":{"key":"09","name":"Bayern"}},{"name":"Bergstr.","postalCode":"97859","locality":"Wiesthal","municipality":{"key":"09677200","name":"Wiesthal","type":"Kreisangehörige_Gemeinde"},"district":{"key":"09677","name":"Main-Spessart","type":"Landkreis"},"federalState":{"key":"09","name":"Bayern"}},{"name":"Birkenweg","postalCode":"97859","locality":"Wiesthal","municipality":{"key":"09677200","name":"Wiesthal","type":"Kreisangehörige_Gemeinde"},"district":{"key":"09677","name":"Main-Spessart","type":"Landkreis"},"federalState":{"key":"09","name":"Bayern"}},{"name":"Brückenstr.","postalCode":"97859","locality":"Wiesthal","municipality":{"key":"09677200","name":"Wiesthal","type":"Kreisangehörige_Gemeinde"},"district":{"key":"09677","name":"Main-Spessart","type":"Landkreis"},"federalState":{"key":"09","name":"Bayern"}},{"name":"Buchenweg","postalCode":"97859","locality":"Wiesthal","municipality":{"key":"09677200","name":"Wiesthal","type":"Kreisangehörige_Gemeinde"},"district":{"key":"09677","name":"Main-Spessart","type":"Landkreis"},"federalState":{"key":"09","name":"Bayern"}},{"name":"Dorfstr.","postalCode":"97859","locality":"Wiesthal","municipality":{"key":"09677200","name":"Wiesthal","type":"Kreisangehörige_Gemeinde"},"district":{"key":"09677","name":"Main-Spessart","type":"Landkreis"},"federalState":{"key":"09","name":"Bayern"}},{"name":"Engersgrundstr.","postalCode":"97859","locality":"Wiesthal","municipality":{"key":"09677200","name":"Wiesthal","type":"Kreisangehörige_Gemeinde"},"district":{"key":"09677","name":"Main-Spessart","type":"Landkreis"},"federalState":{"key":"09","name":"Bayern"}},{"name":"Fichtenweg","postalCode":"97859","locality":"Wiesthal","municipality":{"key":"09677200","name":"Wiesthal","type":"Kreisangehörige_Gemeinde"},"district":{"key":"09677","name":"Main-Spessart","type":"Landkreis"},"federalState":{"key":"09","name":"Bayern"}},{"name":"Forststr.","postalCode":"97859","locality":"Wiesthal","municipality":{"key":"09677200","name":"Wiesthal","type":"Kreisangehörige_Gemeinde"},"district":{"key":"09677","name":"Main-Spessart","type":"Landkreis"},"federalState":{"key":"09","name":"Bayern"}},{"name":"Furthweg","postalCode":"97859","locality":"Wiesthal","municipality":{"key":"09677200","name":"Wiesthal","type":"Kreisangehörige_Gemeinde"},"district":{"key":"09677","name":"Main-Spessart","type":"Landkreis"},"federalState":{"key":"09","name":"Bayern"}},{"name":"Grabengasse","postalCode":"97859","locality":"Wiesthal","municipality":{"key":"09677200","name":"Wiesthal","type":"Kreisangehörige_Gemeinde"},"district":{"key":"09677","name":"Main-Spessart","type":"Landkreis"},"federalState":{"key":"09","name":"Bayern"}},{"name":"Gräfenbergstr.","postalCode":"97859","locality":"Wiesthal","municipality":{"key":"09677200","name":"Wiesthal","type":"Kreisangehörige_Gemeinde"},"district":{"key":"09677","name":"Main-Spessart","type":"Landkreis"},"federalState":{"key":"09","name":"Bayern"}},{"name":"Graupnerstr.","postalCode":"97859","locality":"Wiesthal","municipality":{"key":"09677200","name":"Wiesthal","type":"Kreisangehörige_Gemeinde"},"district":{"key":"09677","name":"Main-Spessart","type":"Landkreis"},"federalState":{"key":"09","name":"Bayern"}},{"name":"Grottenweg","postalCode":"97859","locality":"Wiesthal","municipality":{"key":"09677200","name":"Wiesthal","type":"Kreisangehörige_Gemeinde"},"district":{"key":"09677","name":"Main-Spessart","type":"Landkreis"},"federalState":{"key":"09","name":"Bayern"}},{"name":"Grundstr.","postalCode":"97859","locality":"Wiesthal","municipality":{"key":"09677200","name":"Wiesthal","type":"Kreisangehörige_Gemeinde"},"district":{"key":"09677","name":"Main-Spessart","type":"Landkreis"},"federalState":{"key":"09","name":"Bayern"}},{"name":"Haardtstr.","postalCode":"97859","locality":"Wiesthal","municipality":{"key":"09677200","name":"Wiesthal","type":"Kreisangehörige_Gemeinde"},"district":{"key":"09677","name":"Main-Spessart","type":"Landkreis"},"federalState":{"key":"09","name":"Bayern"}},{"name":"Hauptstr.","postalCode":"97859","locality":"Wiesthal","municipality":{"key":"09677200","name":"Wiesthal","type":"Kreisangehörige_Gemeinde"},"district":{"key":"09677","name":"Main-Spessart","type":"Landkreis"},"federalState":{"key":"09","name":"Bayern"}},{"name":"Hirtenweg","postalCode":"97859","locality":"Wiesthal","municipality":{"key":"09677200","name":"Wiesthal","type":"Kreisangehörige_Gemeinde"},"district":{"key":"09677","name":"Main-Spessart","type":"Landkreis"},"federalState":{"key":"09","name":"Bayern"}},{"name":"Hockenruh","postalCode":"97859","locality":"Wiesthal","municipality":{"key":"09677200","name":"Wiesthal","type":"Kreisangehörige_Gemeinde"},"district":{"key":"09677","name":"Main-Spessart","type":"Landkreis"},"federalState":{"key":"09","name":"Bayern"}},{"name":"Im Stengerts","postalCode":"97859","locality":"Wiesthal","municipality":{"key":"09677200","name":"Wiesthal","type":"Kreisangehörige_Gemeinde"},"district":{"key":"09677","name":"Main-Spessart","type":"Landkreis"},"federalState":{"key":"09","name":"Bayern"}},{"name":"Kirchstr.","postalCode":"97859","locality":"Wiesthal","municipality":{"key":"09677200","name":"Wiesthal","type":"Kreisangehörige_Gemeinde"},"district":{"key":"09677","name":"Main-Spessart","type":"Landkreis"},"federalState":{"key":"09","name":"Bayern"}},{"name":"Krommenthaler Str.","postalCode":"97859","locality":"Wiesthal","municipality":{"key":"09677200","name":"Wiesthal","type":"Kreisangehörige_Gemeinde"},"district":{"key":"09677","name":"Main-Spessart","type":"Landkreis"},"federalState":{"key":"09","name":"Bayern"}},{"name":"Neuer Weg","postalCode":"97859","locality":"Wiesthal","municipality":{"key":"09677200","name":"Wiesthal","type":"Kreisangehörige_Gemeinde"},"district":{"key":"09677","name":"Main-Spessart","type":"Landkreis"},"federalState":{"key":"09","name":"Bayern"}},{"name":"Partensteiner Str.","postalCode":"97859","locality":"Wiesthal","municipality":{"key":"09677200","name":"Wiesthal","type":"Kreisangehörige_Gemeinde"},"district":{"key":"09677","name":"Main-Spessart","type":"Landkreis"},"federalState":{"key":"09","name":"Bayern"}},{"name":"Ringstr.","postalCode":"97859","locality":"Wiesthal","municipality":{"key":"09677200","name":"Wiesthal","type":"Kreisangehörige_Gemeinde"},"district":{"key":"09677","name":"Main-Spessart","type":"Landkreis"},"federalState":{"key":"09","name":"Bayern"}},{"name":"Schöllersgrund","postalCode":"97859","locality":"Wiesthal","municipality":{"key":"09677200","name":"Wiesthal","type":"Kreisangehörige_Gemeinde"},"district":{"key":"09677","name":"Main-Spessart","type":"Landkreis"},"federalState":{"key":"09","name":"Bayern"}},{"name":"Schulstr.","postalCode":"97859","locality":"Wiesthal","municipality":{"key":"09677200","name":"Wiesthal","type":"Kreisangehörige_Gemeinde"},"district":{"key":"09677","name":"Main-Spessart","type":"Landkreis"},"federalState":{"key":"09","name":"Bayern"}},{"name":"Seewieseneck","postalCode":"97859","locality":"Wiesthal","municipality":{"key":"09677200","name":"Wiesthal","type":"Kreisangehörige_Gemeinde"},"district":{"key":"09677","name":"Main-Spessart","type":"Landkreis"},"federalState":{"key":"09","name":"Bayern"}},{"name":"Sonnenrain","postalCode":"97859","locality":"Wiesthal","municipality":{"key":"09677200","name":"Wiesthal","type":"Kreisangehörige_Gemeinde"},"district":{"key":"09677","name":"Main-Spessart","type":"Landkreis"},"federalState":{"key":"09","name":"Bayern"}},{"name":"Spertelsweg","postalCode":"97859","locality":"Wiesthal","municipality":{"key":"09677200","name":"Wiesthal","type":"Kreisangehörige_Gemeinde"},"district":{"key":"09677","name":"Main-Spessart","type":"Landkreis"},"federalState":{"key":"09","name":"Bayern"}},{"name":"Tannenweg","postalCode":"97859","locality":"Wiesthal","municipality":{"key":"09677200","name":"Wiesthal","type":"Kreisangehörige_Gemeinde"},"district":{"key":"09677","name":"Main-Spessart","type":"Landkreis"},"federalState":{"key":"09","name":"Bayern"}},{"name":"Werner-Wenzel-Str.","postalCode":"97859","locality":"Wiesthal","municipality":{"key":"09677200","name":"Wiesthal","type":"Kreisangehörige_Gemeinde"},"district":{"key":"09677","name":"Main-Spessart","type":"Landkreis"},"federalState":{"key":"09","name":"Bayern"}},{"name":"Wiesthaler Str.","postalCode":"97859","locality":"Wiesthal","municipality":{"key":"09677200","name":"Wiesthal","type":"Kreisangehörige_Gemeinde"},"district":{"key":"09677","name":"Main-Spessart","type":"Landkreis"},"federalState":{"key":"09","name":"Bayern"}},]