[{"name":"Ahornweg","postalCode":"89349","locality":"Burtenbach","municipality":{"key":"09774122","name":"Burtenbach, M","type":"Markt"},"district":{"key":"09774","name":"Günzburg","type":"Landkreis"},"federalState":{"key":"09","name":"Bayern"}},{"name":"Albert-Schweitzer-Str.","postalCode":"89349","locality":"Burtenbach","municipality":{"key":"09774122","name":"Burtenbach, M","type":"Markt"},"district":{"key":"09774","name":"Günzburg","type":"Landkreis"},"federalState":{"key":"09","name":"Bayern"}},{"name":"Am Galgenberg","postalCode":"89349","locality":"Burtenbach","municipality":{"key":"09774122","name":"Burtenbach, M","type":"Markt"},"district":{"key":"09774","name":"Günzburg","type":"Landkreis"},"federalState":{"key":"09","name":"Bayern"}},{"name":"Am Gartenacker","postalCode":"89349","locality":"Burtenbach","municipality":{"key":"09774122","name":"Burtenbach, M","type":"Markt"},"district":{"key":"09774","name":"Günzburg","type":"Landkreis"},"federalState":{"key":"09","name":"Bayern"}},{"name":"Am Geigenberg","postalCode":"89349","locality":"Burtenbach","municipality":{"key":"09774122","name":"Burtenbach, M","type":"Markt"},"district":{"key":"09774","name":"Günzburg","type":"Landkreis"},"federalState":{"key":"09","name":"Bayern"}},{"name":"Am Höges","postalCode":"89349","locality":"Burtenbach","municipality":{"key":"09774122","name":"Burtenbach, M","type":"Markt"},"district":{"key":"09774","name":"Günzburg","type":"Landkreis"},"federalState":{"key":"09","name":"Bayern"}},{"name":"Am Junkersgraben","postalCode":"89349","locality":"Burtenbach","municipality":{"key":"09774122","name":"Burtenbach, M","type":"Markt"},"district":{"key":"09774","name":"Günzburg","type":"Landkreis"},"federalState":{"key":"09","name":"Bayern"}},{"name":"Am Kögel-Werk","postalCode":"89349","locality":"Burtenbach","municipality":{"key":"09774122","name":"Burtenbach, M","type":"Markt"},"district":{"key":"09774","name":"Günzburg","type":"Landkreis"},"federalState":{"key":"09","name":"Bayern"}},{"name":"Am Schertlinpark","postalCode":"89349","locality":"Burtenbach","municipality":{"key":"09774122","name":"Burtenbach, M","type":"Markt"},"district":{"key":"09774","name":"Günzburg","type":"Landkreis"},"federalState":{"key":"09","name":"Bayern"}},{"name":"An der Holzstr.","postalCode":"89349","locality":"Burtenbach","municipality":{"key":"09774122","name":"Burtenbach, M","type":"Markt"},"district":{"key":"09774","name":"Günzburg","type":"Landkreis"},"federalState":{"key":"09","name":"Bayern"}},{"name":"An der Kohlstatt","postalCode":"89349","locality":"Burtenbach","municipality":{"key":"09774122","name":"Burtenbach, M","type":"Markt"},"district":{"key":"09774","name":"Günzburg","type":"Landkreis"},"federalState":{"key":"09","name":"Bayern"}},{"name":"An der Stelle","postalCode":"89349","locality":"Burtenbach","municipality":{"key":"09774122","name":"Burtenbach, M","type":"Markt"},"district":{"key":"09774","name":"Günzburg","type":"Landkreis"},"federalState":{"key":"09","name":"Bayern"}},{"name":"Angerweg","postalCode":"89349","locality":"Burtenbach","municipality":{"key":"09774122","name":"Burtenbach, M","type":"Markt"},"district":{"key":"09774","name":"Günzburg","type":"Landkreis"},"federalState":{"key":"09","name":"Bayern"}},{"name":"Auschberg","postalCode":"89349","locality":"Burtenbach","municipality":{"key":"09774122","name":"Burtenbach, M","type":"Markt"},"district":{"key":"09774","name":"Günzburg","type":"Landkreis"},"federalState":{"key":"09","name":"Bayern"}},{"name":"Bachgasse","postalCode":"89349","locality":"Burtenbach","municipality":{"key":"09774122","name":"Burtenbach, M","type":"Markt"},"district":{"key":"09774","name":"Günzburg","type":"Landkreis"},"federalState":{"key":"09","name":"Bayern"}},{"name":"Badgasse","postalCode":"89349","locality":"Burtenbach","municipality":{"key":"09774122","name":"Burtenbach, M","type":"Markt"},"district":{"key":"09774","name":"Günzburg","type":"Landkreis"},"federalState":{"key":"09","name":"Bayern"}},{"name":"Bergstr.","postalCode":"89349","locality":"Burtenbach","municipality":{"key":"09774122","name":"Burtenbach, M","type":"Markt"},"district":{"key":"09774","name":"Günzburg","type":"Landkreis"},"federalState":{"key":"09","name":"Bayern"}},{"name":"Bgm.-Faulbacher-Str.","postalCode":"89349","locality":"Burtenbach","municipality":{"key":"09774122","name":"Burtenbach, M","type":"Markt"},"district":{"key":"09774","name":"Günzburg","type":"Landkreis"},"federalState":{"key":"09","name":"Bayern"}},{"name":"Binderweg","postalCode":"89349","locality":"Burtenbach","municipality":{"key":"09774122","name":"Burtenbach, M","type":"Markt"},"district":{"key":"09774","name":"Günzburg","type":"Landkreis"},"federalState":{"key":"09","name":"Bayern"}},{"name":"Birkenweg","postalCode":"89349","locality":"Burtenbach","municipality":{"key":"09774122","name":"Burtenbach, M","type":"Markt"},"district":{"key":"09774","name":"Günzburg","type":"Landkreis"},"federalState":{"key":"09","name":"Bayern"}},{"name":"Bleichstr.","postalCode":"89349","locality":"Burtenbach","municipality":{"key":"09774122","name":"Burtenbach, M","type":"Markt"},"district":{"key":"09774","name":"Günzburg","type":"Landkreis"},"federalState":{"key":"09","name":"Bayern"}},{"name":"Bodelschwinghstr.","postalCode":"89349","locality":"Burtenbach","municipality":{"key":"09774122","name":"Burtenbach, M","type":"Markt"},"district":{"key":"09774","name":"Günzburg","type":"Landkreis"},"federalState":{"key":"09","name":"Bayern"}},{"name":"Brunnenweg","postalCode":"89349","locality":"Burtenbach","municipality":{"key":"09774122","name":"Burtenbach, M","type":"Markt"},"district":{"key":"09774","name":"Günzburg","type":"Landkreis"},"federalState":{"key":"09","name":"Bayern"}},{"name":"Buchenweg","postalCode":"89349","locality":"Burtenbach","municipality":{"key":"09774122","name":"Burtenbach, M","type":"Markt"},"district":{"key":"09774","name":"Günzburg","type":"Landkreis"},"federalState":{"key":"09","name":"Bayern"}},{"name":"Carl von Linde Str.","postalCode":"89312","locality":"Günzburg","municipality":{"key":"09774135","name":"Günzburg, GKSt","type":"Große_Kreisstadt"},"district":{"key":"09774","name":"Günzburg","type":"Landkreis"},"federalState":{"key":"09","name":"Bayern"}},{"name":"Castellstr.","postalCode":"87634","locality":"Obergünzburg","municipality":{"key":"09777154","name":"Obergünzburg, M","type":"Markt"},"district":{"key":"09777","name":"Ostallgäu","type":"Landkreis"},"federalState":{"key":"09","name":"Bayern"}},{"name":"Christa-Wall-Str.","postalCode":"89312","locality":"Günzburg","municipality":{"key":"09774135","name":"Günzburg, GKSt","type":"Große_Kreisstadt"},"district":{"key":"09774","name":"Günzburg","type":"Landkreis"},"federalState":{"key":"09","name":"Bayern"}},{"name":"Christian-Frank-Weg","postalCode":"89312","locality":"Günzburg","municipality":{"key":"09774135","name":"Günzburg, GKSt","type":"Große_Kreisstadt"},"district":{"key":"09774","name":"Günzburg","type":"Landkreis"},"federalState":{"key":"09","name":"Bayern"}},{"name":"Christoph-Rodt-Str.","postalCode":"89312","locality":"Günzburg","municipality":{"key":"09774135","name":"Günzburg, GKSt","type":"Große_Kreisstadt"},"district":{"key":"09774","name":"Günzburg","type":"Landkreis"},"federalState":{"key":"09","name":"Bayern"}},{"name":"Clotzstr.","postalCode":"89312","locality":"Günzburg","municipality":{"key":"09774135","name":"Günzburg, GKSt","type":"Große_Kreisstadt"},"district":{"key":"09774","name":"Günzburg","type":"Landkreis"},"federalState":{"key":"09","name":"Bayern"}},{"name":"Dorfstr.","postalCode":"89349","locality":"Burtenbach","municipality":{"key":"09774122","name":"Burtenbach, M","type":"Markt"},"district":{"key":"09774","name":"Günzburg","type":"Landkreis"},"federalState":{"key":"09","name":"Bayern"}},{"name":"Drescherweg","postalCode":"89349","locality":"Burtenbach","municipality":{"key":"09774122","name":"Burtenbach, M","type":"Markt"},"district":{"key":"09774","name":"Günzburg","type":"Landkreis"},"federalState":{"key":"09","name":"Bayern"}},{"name":"Eichenweg","postalCode":"89349","locality":"Burtenbach","municipality":{"key":"09774122","name":"Burtenbach, M","type":"Markt"},"district":{"key":"09774","name":"Günzburg","type":"Landkreis"},"federalState":{"key":"09","name":"Bayern"}},{"name":"Färbergasse","postalCode":"89349","locality":"Burtenbach","municipality":{"key":"09774122","name":"Burtenbach, M","type":"Markt"},"district":{"key":"09774","name":"Günzburg","type":"Landkreis"},"federalState":{"key":"09","name":"Bayern"}},{"name":"Feuerhausgasse","postalCode":"89349","locality":"Burtenbach","municipality":{"key":"09774122","name":"Burtenbach, M","type":"Markt"},"district":{"key":"09774","name":"Günzburg","type":"Landkreis"},"federalState":{"key":"09","name":"Bayern"}},{"name":"Fichtenweg","postalCode":"89349","locality":"Burtenbach","municipality":{"key":"09774122","name":"Burtenbach, M","type":"Markt"},"district":{"key":"09774","name":"Günzburg","type":"Landkreis"},"federalState":{"key":"09","name":"Bayern"}},{"name":"Friedensweg","postalCode":"89349","locality":"Burtenbach","municipality":{"key":"09774122","name":"Burtenbach, M","type":"Markt"},"district":{"key":"09774","name":"Günzburg","type":"Landkreis"},"federalState":{"key":"09","name":"Bayern"}},{"name":"Friedhofstr.","postalCode":"89349","locality":"Burtenbach","municipality":{"key":"09774122","name":"Burtenbach, M","type":"Markt"},"district":{"key":"09774","name":"Günzburg","type":"Landkreis"},"federalState":{"key":"09","name":"Bayern"}},{"name":"Friedrich-von-Halder-Str.","postalCode":"89349","locality":"Burtenbach","municipality":{"key":"09774122","name":"Burtenbach, M","type":"Markt"},"district":{"key":"09774","name":"Günzburg","type":"Landkreis"},"federalState":{"key":"09","name":"Bayern"}},{"name":"Gartenäckerweg","postalCode":"89349","locality":"Burtenbach","municipality":{"key":"09774122","name":"Burtenbach, M","type":"Markt"},"district":{"key":"09774","name":"Günzburg","type":"Landkreis"},"federalState":{"key":"09","name":"Bayern"}},{"name":"Hagenrieder Str.","postalCode":"89349","locality":"Burtenbach","municipality":{"key":"09774122","name":"Burtenbach, M","type":"Markt"},"district":{"key":"09774","name":"Günzburg","type":"Landkreis"},"federalState":{"key":"09","name":"Bayern"}},{"name":"Haldenweg","postalCode":"89349","locality":"Burtenbach","municipality":{"key":"09774122","name":"Burtenbach, M","type":"Markt"},"district":{"key":"09774","name":"Günzburg","type":"Landkreis"},"federalState":{"key":"09","name":"Bayern"}},{"name":"Hauptstr.","postalCode":"89349","locality":"Burtenbach","municipality":{"key":"09774122","name":"Burtenbach, M","type":"Markt"},"district":{"key":"09774","name":"Günzburg","type":"Landkreis"},"federalState":{"key":"09","name":"Bayern"}},{"name":"Höhenweg","postalCode":"89349","locality":"Burtenbach","municipality":{"key":"09774122","name":"Burtenbach, M","type":"Markt"},"district":{"key":"09774","name":"Günzburg","type":"Landkreis"},"federalState":{"key":"09","name":"Bayern"}},{"name":"Im Alten Krautgarten","postalCode":"89349","locality":"Burtenbach","municipality":{"key":"09774122","name":"Burtenbach, M","type":"Markt"},"district":{"key":"09774","name":"Günzburg","type":"Landkreis"},"federalState":{"key":"09","name":"Bayern"}},{"name":"Im Buchfeld","postalCode":"89349","locality":"Burtenbach","municipality":{"key":"09774122","name":"Burtenbach, M","type":"Markt"},"district":{"key":"09774","name":"Günzburg","type":"Landkreis"},"federalState":{"key":"09","name":"Bayern"}},{"name":"Im Feldle","postalCode":"89349","locality":"Burtenbach","municipality":{"key":"09774122","name":"Burtenbach, M","type":"Markt"},"district":{"key":"09774","name":"Günzburg","type":"Landkreis"},"federalState":{"key":"09","name":"Bayern"}},{"name":"Im Fretzmahd","postalCode":"89349","locality":"Burtenbach","municipality":{"key":"09774122","name":"Burtenbach, M","type":"Markt"},"district":{"key":"09774","name":"Günzburg","type":"Landkreis"},"federalState":{"key":"09","name":"Bayern"}},{"name":"In der Steige","postalCode":"89349","locality":"Burtenbach","municipality":{"key":"09774122","name":"Burtenbach, M","type":"Markt"},"district":{"key":"09774","name":"Günzburg","type":"Landkreis"},"federalState":{"key":"09","name":"Bayern"}},{"name":"Industriestr.","postalCode":"89349","locality":"Burtenbach","municipality":{"key":"09774122","name":"Burtenbach, M","type":"Markt"},"district":{"key":"09774","name":"Günzburg","type":"Landkreis"},"federalState":{"key":"09","name":"Bayern"}},{"name":"Innerer Krautgartenweg","postalCode":"89349","locality":"Burtenbach","municipality":{"key":"09774122","name":"Burtenbach, M","type":"Markt"},"district":{"key":"09774","name":"Günzburg","type":"Landkreis"},"federalState":{"key":"09","name":"Bayern"}},{"name":"Jägerndorfer Str.","postalCode":"89312","locality":"Günzburg","municipality":{"key":"09774135","name":"Günzburg, GKSt","type":"Große_Kreisstadt"},"district":{"key":"09774","name":"Günzburg","type":"Landkreis"},"federalState":{"key":"09","name":"Bayern"}},{"name":"Jahnstr.","postalCode":"89312","locality":"Günzburg","municipality":{"key":"09774135","name":"Günzburg, GKSt","type":"Große_Kreisstadt"},"district":{"key":"09774","name":"Günzburg","type":"Landkreis"},"federalState":{"key":"09","name":"Bayern"}},{"name":"Jahnweg","postalCode":"87634","locality":"Obergünzburg","municipality":{"key":"09777154","name":"Obergünzburg, M","type":"Markt"},"district":{"key":"09777","name":"Ostallgäu","type":"Landkreis"},"federalState":{"key":"09","name":"Bayern"}},{"name":"Johannes-Eck-Str.","postalCode":"89312","locality":"Günzburg","municipality":{"key":"09774135","name":"Günzburg, GKSt","type":"Große_Kreisstadt"},"district":{"key":"09774","name":"Günzburg","type":"Landkreis"},"federalState":{"key":"09","name":"Bayern"}},{"name":"Johann-Kempter-Str.","postalCode":"89312","locality":"Günzburg","municipality":{"key":"09774135","name":"Günzburg, GKSt","type":"Große_Kreisstadt"},"district":{"key":"09774","name":"Günzburg","type":"Landkreis"},"federalState":{"key":"09","name":"Bayern"}},{"name":"Johann-Litzel-Str.","postalCode":"89312","locality":"Günzburg","municipality":{"key":"09774135","name":"Günzburg, GKSt","type":"Große_Kreisstadt"},"district":{"key":"09774","name":"Günzburg","type":"Landkreis"},"federalState":{"key":"09","name":"Bayern"}},{"name":"Johann-Sauter-Str.","postalCode":"89312","locality":"Günzburg","municipality":{"key":"09774135","name":"Günzburg, GKSt","type":"Große_Kreisstadt"},"district":{"key":"09774","name":"Günzburg","type":"Landkreis"},"federalState":{"key":"09","name":"Bayern"}},{"name":"Josef-Haas-Str.","postalCode":"89312","locality":"Günzburg","municipality":{"key":"09774135","name":"Günzburg, GKSt","type":"Große_Kreisstadt"},"district":{"key":"09774","name":"Günzburg","type":"Landkreis"},"federalState":{"key":"09","name":"Bayern"}},{"name":"Josef-Kuhn-Str.","postalCode":"89312","locality":"Günzburg","municipality":{"key":"09774135","name":"Günzburg, GKSt","type":"Große_Kreisstadt"},"district":{"key":"09774","name":"Günzburg","type":"Landkreis"},"federalState":{"key":"09","name":"Bayern"}},{"name":"Judenweg","postalCode":"89312","locality":"Günzburg","municipality":{"key":"09774135","name":"Günzburg, GKSt","type":"Große_Kreisstadt"},"district":{"key":"09774","name":"Günzburg","type":"Landkreis"},"federalState":{"key":"09","name":"Bayern"}},{"name":"Junkersstr.","postalCode":"89312","locality":"Günzburg","municipality":{"key":"09774135","name":"Günzburg, GKSt","type":"Große_Kreisstadt"},"district":{"key":"09774","name":"Günzburg","type":"Landkreis"},"federalState":{"key":"09","name":"Bayern"}},{"name":"Kapellenweg","postalCode":"89349","locality":"Burtenbach","municipality":{"key":"09774122","name":"Burtenbach, M","type":"Markt"},"district":{"key":"09774","name":"Günzburg","type":"Landkreis"},"federalState":{"key":"09","name":"Bayern"}},{"name":"Kemnater Str.","postalCode":"89349","locality":"Burtenbach","municipality":{"key":"09774122","name":"Burtenbach, M","type":"Markt"},"district":{"key":"09774","name":"Günzburg","type":"Landkreis"},"federalState":{"key":"09","name":"Bayern"}},{"name":"Kirchberg","postalCode":"89349","locality":"Burtenbach","municipality":{"key":"09774122","name":"Burtenbach, M","type":"Markt"},"district":{"key":"09774","name":"Günzburg","type":"Landkreis"},"federalState":{"key":"09","name":"Bayern"}},{"name":"Kirchenweg","postalCode":"89349","locality":"Burtenbach","municipality":{"key":"09774122","name":"Burtenbach, M","type":"Markt"},"district":{"key":"09774","name":"Günzburg","type":"Landkreis"},"federalState":{"key":"09","name":"Bayern"}},{"name":"Kirchhalde","postalCode":"89349","locality":"Burtenbach","municipality":{"key":"09774122","name":"Burtenbach, M","type":"Markt"},"district":{"key":"09774","name":"Günzburg","type":"Landkreis"},"federalState":{"key":"09","name":"Bayern"}},{"name":"Klingenburger Weg","postalCode":"89349","locality":"Burtenbach","municipality":{"key":"09774122","name":"Burtenbach, M","type":"Markt"},"district":{"key":"09774","name":"Günzburg","type":"Landkreis"},"federalState":{"key":"09","name":"Bayern"}},{"name":"Kolpingstr.","postalCode":"89349","locality":"Burtenbach","municipality":{"key":"09774122","name":"Burtenbach, M","type":"Markt"},"district":{"key":"09774","name":"Günzburg","type":"Landkreis"},"federalState":{"key":"09","name":"Bayern"}},{"name":"Lärchenweg","postalCode":"89349","locality":"Burtenbach","municipality":{"key":"09774122","name":"Burtenbach, M","type":"Markt"},"district":{"key":"09774","name":"Günzburg","type":"Landkreis"},"federalState":{"key":"09","name":"Bayern"}},{"name":"Lichtenaustr.","postalCode":"89349","locality":"Burtenbach","municipality":{"key":"09774122","name":"Burtenbach, M","type":"Markt"},"district":{"key":"09774","name":"Günzburg","type":"Landkreis"},"federalState":{"key":"09","name":"Bayern"}},{"name":"Lindenweg","postalCode":"89349","locality":"Burtenbach","municipality":{"key":"09774122","name":"Burtenbach, M","type":"Markt"},"district":{"key":"09774","name":"Günzburg","type":"Landkreis"},"federalState":{"key":"09","name":"Bayern"}},{"name":"Lohweg","postalCode":"89349","locality":"Burtenbach","municipality":{"key":"09774122","name":"Burtenbach, M","type":"Markt"},"district":{"key":"09774","name":"Günzburg","type":"Landkreis"},"federalState":{"key":"09","name":"Bayern"}},{"name":"Lußweg","postalCode":"89349","locality":"Burtenbach","municipality":{"key":"09774122","name":"Burtenbach, M","type":"Markt"},"district":{"key":"09774","name":"Günzburg","type":"Landkreis"},"federalState":{"key":"09","name":"Bayern"}},{"name":"Mindelweg","postalCode":"89349","locality":"Burtenbach","municipality":{"key":"09774122","name":"Burtenbach, M","type":"Markt"},"district":{"key":"09774","name":"Günzburg","type":"Landkreis"},"federalState":{"key":"09","name":"Bayern"}},{"name":"Mittelberg","postalCode":"89349","locality":"Burtenbach","municipality":{"key":"09774122","name":"Burtenbach, M","type":"Markt"},"district":{"key":"09774","name":"Günzburg","type":"Landkreis"},"federalState":{"key":"09","name":"Bayern"}},{"name":"Mösleweg","postalCode":"89349","locality":"Burtenbach","municipality":{"key":"09774122","name":"Burtenbach, M","type":"Markt"},"district":{"key":"09774","name":"Günzburg","type":"Landkreis"},"federalState":{"key":"09","name":"Bayern"}},{"name":"Mühlstr.","postalCode":"89349","locality":"Burtenbach","municipality":{"key":"09774122","name":"Burtenbach, M","type":"Markt"},"district":{"key":"09774","name":"Günzburg","type":"Landkreis"},"federalState":{"key":"09","name":"Bayern"}},{"name":"Mühlweg","postalCode":"89349","locality":"Burtenbach","municipality":{"key":"09774122","name":"Burtenbach, M","type":"Markt"},"district":{"key":"09774","name":"Günzburg","type":"Landkreis"},"federalState":{"key":"09","name":"Bayern"}},{"name":"Nagelschmiedeweg","postalCode":"87634","locality":"Obergünzburg","municipality":{"key":"09777154","name":"Obergünzburg, M","type":"Markt"},"district":{"key":"09777","name":"Ostallgäu","type":"Landkreis"},"federalState":{"key":"09","name":"Bayern"}},{"name":"Naturlehrpfad","postalCode":"89312","locality":"Günzburg","municipality":{"key":"09774135","name":"Günzburg, GKSt","type":"Große_Kreisstadt"},"district":{"key":"09774","name":"Günzburg","type":"Landkreis"},"federalState":{"key":"09","name":"Bayern"}},{"name":"Nelkenweg","postalCode":"87634","locality":"Obergünzburg","municipality":{"key":"09777154","name":"Obergünzburg, M","type":"Markt"},"district":{"key":"09777","name":"Ostallgäu","type":"Landkreis"},"federalState":{"key":"09","name":"Bayern"}},{"name":"Nelkenweg","postalCode":"89312","locality":"Günzburg","municipality":{"key":"09774135","name":"Günzburg, GKSt","type":"Große_Kreisstadt"},"district":{"key":"09774","name":"Günzburg","type":"Landkreis"},"federalState":{"key":"09","name":"Bayern"}},{"name":"Neubauerngäßle","postalCode":"87634","locality":"Obergünzburg","municipality":{"key":"09777154","name":"Obergünzburg, M","type":"Markt"},"district":{"key":"09777","name":"Ostallgäu","type":"Landkreis"},"federalState":{"key":"09","name":"Bayern"}},{"name":"Nikolausberg","postalCode":"87634","locality":"Obergünzburg","municipality":{"key":"09777154","name":"Obergünzburg, M","type":"Markt"},"district":{"key":"09777","name":"Ostallgäu","type":"Landkreis"},"federalState":{"key":"09","name":"Bayern"}},{"name":"Nikolausweg","postalCode":"87634","locality":"Obergünzburg","municipality":{"key":"09777154","name":"Obergünzburg, M","type":"Markt"},"district":{"key":"09777","name":"Ostallgäu","type":"Landkreis"},"federalState":{"key":"09","name":"Bayern"}},{"name":"Nördliches Günztal","postalCode":"89312","locality":"Günzburg","municipality":{"key":"09774135","name":"Günzburg, GKSt","type":"Große_Kreisstadt"},"district":{"key":"09774","name":"Günzburg","type":"Landkreis"},"federalState":{"key":"09","name":"Bayern"}},{"name":"Nordstr.","postalCode":"89312","locality":"Günzburg","municipality":{"key":"09774135","name":"Günzburg, GKSt","type":"Große_Kreisstadt"},"district":{"key":"09774","name":"Günzburg","type":"Landkreis"},"federalState":{"key":"09","name":"Bayern"}},{"name":"Nornheimer Berg","postalCode":"89312","locality":"Günzburg","municipality":{"key":"09774135","name":"Günzburg, GKSt","type":"Große_Kreisstadt"},"district":{"key":"09774","name":"Günzburg","type":"Landkreis"},"federalState":{"key":"09","name":"Bayern"}},{"name":"Nornheimer Str.","postalCode":"89312","locality":"Günzburg","municipality":{"key":"09774135","name":"Günzburg, GKSt","type":"Große_Kreisstadt"},"district":{"key":"09774","name":"Günzburg","type":"Landkreis"},"federalState":{"key":"09","name":"Bayern"}},{"name":"Nusser-von-Nußeck-Str.","postalCode":"89312","locality":"Günzburg","municipality":{"key":"09774135","name":"Günzburg, GKSt","type":"Große_Kreisstadt"},"district":{"key":"09774","name":"Günzburg","type":"Landkreis"},"federalState":{"key":"09","name":"Bayern"}},{"name":"Oberes Wiegenfeld","postalCode":"89349","locality":"Burtenbach","municipality":{"key":"09774122","name":"Burtenbach, M","type":"Markt"},"district":{"key":"09774","name":"Günzburg","type":"Landkreis"},"federalState":{"key":"09","name":"Bayern"}},{"name":"Obere Waldstr.","postalCode":"89349","locality":"Burtenbach","municipality":{"key":"09774122","name":"Burtenbach, M","type":"Markt"},"district":{"key":"09774","name":"Günzburg","type":"Landkreis"},"federalState":{"key":"09","name":"Bayern"}},{"name":"Ohrengasse","postalCode":"89349","locality":"Burtenbach","municipality":{"key":"09774122","name":"Burtenbach, M","type":"Markt"},"district":{"key":"09774","name":"Günzburg","type":"Landkreis"},"federalState":{"key":"09","name":"Bayern"}},{"name":"Ortsstr.","postalCode":"89349","locality":"Burtenbach","municipality":{"key":"09774122","name":"Burtenbach, M","type":"Markt"},"district":{"key":"09774","name":"Günzburg","type":"Landkreis"},"federalState":{"key":"09","name":"Bayern"}},{"name":"Pappelweg","postalCode":"89312","locality":"Günzburg","municipality":{"key":"09774135","name":"Günzburg, GKSt","type":"Große_Kreisstadt"},"district":{"key":"09774","name":"Günzburg","type":"Landkreis"},"federalState":{"key":"09","name":"Bayern"}},{"name":"Park im ehemaligen Hofgarten","postalCode":"89312","locality":"Günzburg","municipality":{"key":"09774135","name":"Günzburg, GKSt","type":"Große_Kreisstadt"},"district":{"key":"09774","name":"Günzburg","type":"Landkreis"},"federalState":{"key":"09","name":"Bayern"}},{"name":"Parkstr.","postalCode":"89312","locality":"Günzburg","municipality":{"key":"09774135","name":"Günzburg, GKSt","type":"Große_Kreisstadt"},"district":{"key":"09774","name":"Günzburg","type":"Landkreis"},"federalState":{"key":"09","name":"Bayern"}},{"name":"Paul-Auer-Str.","postalCode":"89312","locality":"Günzburg","municipality":{"key":"09774135","name":"Günzburg, GKSt","type":"Große_Kreisstadt"},"district":{"key":"09774","name":"Günzburg","type":"Landkreis"},"federalState":{"key":"09","name":"Bayern"}},{"name":"Pestalozzistr.","postalCode":"89312","locality":"Günzburg","municipality":{"key":"09774135","name":"Günzburg, GKSt","type":"Große_Kreisstadt"},"district":{"key":"09774","name":"Günzburg","type":"Landkreis"},"federalState":{"key":"09","name":"Bayern"}},{"name":"Peter-Henlein-Str.","postalCode":"89312","locality":"Günzburg","municipality":{"key":"09774135","name":"Günzburg, GKSt","type":"Große_Kreisstadt"},"district":{"key":"09774","name":"Günzburg","type":"Landkreis"},"federalState":{"key":"09","name":"Bayern"}},{"name":"Pfarrer-Bunz-Str.","postalCode":"89312","locality":"Günzburg","municipality":{"key":"09774135","name":"Günzburg, GKSt","type":"Große_Kreisstadt"},"district":{"key":"09774","name":"Günzburg","type":"Landkreis"},"federalState":{"key":"09","name":"Bayern"}},{"name":"Pfarrgasse","postalCode":"89312","locality":"Günzburg","municipality":{"key":"09774135","name":"Günzburg, GKSt","type":"Große_Kreisstadt"},"district":{"key":"09774","name":"Günzburg","type":"Landkreis"},"federalState":{"key":"09","name":"Bayern"}},{"name":"Pfarrhofplatz","postalCode":"89312","locality":"Günzburg","municipality":{"key":"09774135","name":"Günzburg, GKSt","type":"Große_Kreisstadt"},"district":{"key":"09774","name":"Günzburg","type":"Landkreis"},"federalState":{"key":"09","name":"Bayern"}},{"name":"Pfarrweg","postalCode":"87634","locality":"Obergünzburg","municipality":{"key":"09777154","name":"Obergünzburg, M","type":"Markt"},"district":{"key":"09777","name":"Ostallgäu","type":"Landkreis"},"federalState":{"key":"09","name":"Bayern"}},{"name":"Philippine-Welser-Str.","postalCode":"89312","locality":"Günzburg","municipality":{"key":"09774135","name":"Günzburg, GKSt","type":"Große_Kreisstadt"},"district":{"key":"09774","name":"Günzburg","type":"Landkreis"},"federalState":{"key":"09","name":"Bayern"}},{"name":"Pointgasse","postalCode":"89312","locality":"Günzburg","municipality":{"key":"09774135","name":"Günzburg, GKSt","type":"Große_Kreisstadt"},"district":{"key":"09774","name":"Günzburg","type":"Landkreis"},"federalState":{"key":"09","name":"Bayern"}},{"name":"Pommernweg","postalCode":"87634","locality":"Obergünzburg","municipality":{"key":"09777154","name":"Obergünzburg, M","type":"Markt"},"district":{"key":"09777","name":"Ostallgäu","type":"Landkreis"},"federalState":{"key":"09","name":"Bayern"}},{"name":"Postgasse","postalCode":"89312","locality":"Günzburg","municipality":{"key":"09774135","name":"Günzburg, GKSt","type":"Große_Kreisstadt"},"district":{"key":"09774","name":"Günzburg","type":"Landkreis"},"federalState":{"key":"09","name":"Bayern"}},{"name":"Poststr.","postalCode":"87634","locality":"Obergünzburg","municipality":{"key":"09777154","name":"Obergünzburg, M","type":"Markt"},"district":{"key":"09777","name":"Ostallgäu","type":"Landkreis"},"federalState":{"key":"09","name":"Bayern"}},{"name":"Primelweg","postalCode":"87634","locality":"Obergünzburg","municipality":{"key":"09777154","name":"Obergünzburg, M","type":"Markt"},"district":{"key":"09777","name":"Ostallgäu","type":"Landkreis"},"federalState":{"key":"09","name":"Bayern"}},{"name":"Quellenweg","postalCode":"89349","locality":"Burtenbach","municipality":{"key":"09774122","name":"Burtenbach, M","type":"Markt"},"district":{"key":"09774","name":"Günzburg","type":"Landkreis"},"federalState":{"key":"09","name":"Bayern"}},{"name":"Rathausgäßchen","postalCode":"89349","locality":"Burtenbach","municipality":{"key":"09774122","name":"Burtenbach, M","type":"Markt"},"district":{"key":"09774","name":"Günzburg","type":"Landkreis"},"federalState":{"key":"09","name":"Bayern"}},{"name":"Rebenstr.","postalCode":"89349","locality":"Burtenbach","municipality":{"key":"09774122","name":"Burtenbach, M","type":"Markt"},"district":{"key":"09774","name":"Günzburg","type":"Landkreis"},"federalState":{"key":"09","name":"Bayern"}},{"name":"Ridlerweg","postalCode":"89349","locality":"Burtenbach","municipality":{"key":"09774122","name":"Burtenbach, M","type":"Markt"},"district":{"key":"09774","name":"Günzburg","type":"Landkreis"},"federalState":{"key":"09","name":"Bayern"}},{"name":"Rieder Str.","postalCode":"89349","locality":"Burtenbach","municipality":{"key":"09774122","name":"Burtenbach, M","type":"Markt"},"district":{"key":"09774","name":"Günzburg","type":"Landkreis"},"federalState":{"key":"09","name":"Bayern"}},{"name":"Riedweg","postalCode":"89349","locality":"Burtenbach","municipality":{"key":"09774122","name":"Burtenbach, M","type":"Markt"},"district":{"key":"09774","name":"Günzburg","type":"Landkreis"},"federalState":{"key":"09","name":"Bayern"}},{"name":"Robert-Koch-Str.","postalCode":"89349","locality":"Burtenbach","municipality":{"key":"09774122","name":"Burtenbach, M","type":"Markt"},"district":{"key":"09774","name":"Günzburg","type":"Landkreis"},"federalState":{"key":"09","name":"Bayern"}},{"name":"Römerweg","postalCode":"89349","locality":"Burtenbach","municipality":{"key":"09774122","name":"Burtenbach, M","type":"Markt"},"district":{"key":"09774","name":"Günzburg","type":"Landkreis"},"federalState":{"key":"09","name":"Bayern"}},{"name":"Rosengasse","postalCode":"89349","locality":"Burtenbach","municipality":{"key":"09774122","name":"Burtenbach, M","type":"Markt"},"district":{"key":"09774","name":"Günzburg","type":"Landkreis"},"federalState":{"key":"09","name":"Bayern"}},{"name":"Rummelsbergerstr.","postalCode":"89349","locality":"Burtenbach","municipality":{"key":"09774122","name":"Burtenbach, M","type":"Markt"},"district":{"key":"09774","name":"Günzburg","type":"Landkreis"},"federalState":{"key":"09","name":"Bayern"}},{"name":"Sägmühlenweg","postalCode":"89349","locality":"Burtenbach","municipality":{"key":"09774122","name":"Burtenbach, M","type":"Markt"},"district":{"key":"09774","name":"Günzburg","type":"Landkreis"},"federalState":{"key":"09","name":"Bayern"}},{"name":"Sägmühlweg","postalCode":"89349","locality":"Burtenbach","municipality":{"key":"09774122","name":"Burtenbach, M","type":"Markt"},"district":{"key":"09774","name":"Günzburg","type":"Landkreis"},"federalState":{"key":"09","name":"Bayern"}},{"name":"Schäferberg","postalCode":"89349","locality":"Burtenbach","municipality":{"key":"09774122","name":"Burtenbach, M","type":"Markt"},"district":{"key":"09774","name":"Günzburg","type":"Landkreis"},"federalState":{"key":"09","name":"Bayern"}},{"name":"Schertlinhaus","postalCode":"89349","locality":"Burtenbach","municipality":{"key":"09774122","name":"Burtenbach, M","type":"Markt"},"district":{"key":"09774","name":"Günzburg","type":"Landkreis"},"federalState":{"key":"09","name":"Bayern"}},{"name":"Schertlinpark","postalCode":"89349","locality":"Burtenbach","municipality":{"key":"09774122","name":"Burtenbach, M","type":"Markt"},"district":{"key":"09774","name":"Günzburg","type":"Landkreis"},"federalState":{"key":"09","name":"Bayern"}},{"name":"Schertlinweg","postalCode":"89349","locality":"Burtenbach","municipality":{"key":"09774122","name":"Burtenbach, M","type":"Markt"},"district":{"key":"09774","name":"Günzburg","type":"Landkreis"},"federalState":{"key":"09","name":"Bayern"}},{"name":"Schleifweg","postalCode":"89349","locality":"Burtenbach","municipality":{"key":"09774122","name":"Burtenbach, M","type":"Markt"},"district":{"key":"09774","name":"Günzburg","type":"Landkreis"},"federalState":{"key":"09","name":"Bayern"}},{"name":"Schnauzenbauerweg","postalCode":"89349","locality":"Burtenbach","municipality":{"key":"09774122","name":"Burtenbach, M","type":"Markt"},"district":{"key":"09774","name":"Günzburg","type":"Landkreis"},"federalState":{"key":"09","name":"Bayern"}},{"name":"Schulstr.","postalCode":"89349","locality":"Burtenbach","municipality":{"key":"09774122","name":"Burtenbach, M","type":"Markt"},"district":{"key":"09774","name":"Günzburg","type":"Landkreis"},"federalState":{"key":"09","name":"Bayern"}},{"name":"Sebastian-Schertlin-Str.","postalCode":"89349","locality":"Burtenbach","municipality":{"key":"09774122","name":"Burtenbach, M","type":"Markt"},"district":{"key":"09774","name":"Günzburg","type":"Landkreis"},"federalState":{"key":"09","name":"Bayern"}},{"name":"St.-Anna-Weg","postalCode":"89349","locality":"Burtenbach","municipality":{"key":"09774122","name":"Burtenbach, M","type":"Markt"},"district":{"key":"09774","name":"Günzburg","type":"Landkreis"},"federalState":{"key":"09","name":"Bayern"}},{"name":"St.-Georg-Weg","postalCode":"89349","locality":"Burtenbach","municipality":{"key":"09774122","name":"Burtenbach, M","type":"Markt"},"district":{"key":"09774","name":"Günzburg","type":"Landkreis"},"federalState":{"key":"09","name":"Bayern"}},{"name":"Talgäßle","postalCode":"89349","locality":"Burtenbach","municipality":{"key":"09774122","name":"Burtenbach, M","type":"Markt"},"district":{"key":"09774","name":"Günzburg","type":"Landkreis"},"federalState":{"key":"09","name":"Bayern"}},{"name":"Torberg","postalCode":"89349","locality":"Burtenbach","municipality":{"key":"09774122","name":"Burtenbach, M","type":"Markt"},"district":{"key":"09774","name":"Günzburg","type":"Landkreis"},"federalState":{"key":"09","name":"Bayern"}},{"name":"Ulmenweg","postalCode":"89349","locality":"Burtenbach","municipality":{"key":"09774122","name":"Burtenbach, M","type":"Markt"},"district":{"key":"09774","name":"Günzburg","type":"Landkreis"},"federalState":{"key":"09","name":"Bayern"}},{"name":"Ulrich-Burggraf-Str.","postalCode":"89349","locality":"Burtenbach","municipality":{"key":"09774122","name":"Burtenbach, M","type":"Markt"},"district":{"key":"09774","name":"Günzburg","type":"Landkreis"},"federalState":{"key":"09","name":"Bayern"}},{"name":"Von-Haunsberg-Weg","postalCode":"89349","locality":"Burtenbach","municipality":{"key":"09774122","name":"Burtenbach, M","type":"Markt"},"district":{"key":"09774","name":"Günzburg","type":"Landkreis"},"federalState":{"key":"09","name":"Bayern"}},{"name":"Waldheimer Str.","postalCode":"89349","locality":"Burtenbach","municipality":{"key":"09774122","name":"Burtenbach, M","type":"Markt"},"district":{"key":"09774","name":"Günzburg","type":"Landkreis"},"federalState":{"key":"09","name":"Bayern"}},{"name":"Waldstr.","postalCode":"89349","locality":"Burtenbach","municipality":{"key":"09774122","name":"Burtenbach, M","type":"Markt"},"district":{"key":"09774","name":"Günzburg","type":"Landkreis"},"federalState":{"key":"09","name":"Bayern"}},{"name":"Weg zur Walk","postalCode":"89349","locality":"Burtenbach","municipality":{"key":"09774122","name":"Burtenbach, M","type":"Markt"},"district":{"key":"09774","name":"Günzburg","type":"Landkreis"},"federalState":{"key":"09","name":"Bayern"}},{"name":"Weinbergstr.","postalCode":"89349","locality":"Burtenbach","municipality":{"key":"09774122","name":"Burtenbach, M","type":"Markt"},"district":{"key":"09774","name":"Günzburg","type":"Landkreis"},"federalState":{"key":"09","name":"Bayern"}},{"name":"Wiedenangerweg","postalCode":"89349","locality":"Burtenbach","municipality":{"key":"09774122","name":"Burtenbach, M","type":"Markt"},"district":{"key":"09774","name":"Günzburg","type":"Landkreis"},"federalState":{"key":"09","name":"Bayern"}},{"name":"Wiegenfeld","postalCode":"89349","locality":"Burtenbach","municipality":{"key":"09774122","name":"Burtenbach, M","type":"Markt"},"district":{"key":"09774","name":"Günzburg","type":"Landkreis"},"federalState":{"key":"09","name":"Bayern"}},{"name":"Wilhelm-Löhe-Weg","postalCode":"89349","locality":"Burtenbach","municipality":{"key":"09774122","name":"Burtenbach, M","type":"Markt"},"district":{"key":"09774","name":"Günzburg","type":"Landkreis"},"federalState":{"key":"09","name":"Bayern"}},{"name":"Xaver-Bayer-Str.","postalCode":"89312","locality":"Günzburg","municipality":{"key":"09774135","name":"Günzburg, GKSt","type":"Große_Kreisstadt"},"district":{"key":"09774","name":"Günzburg","type":"Landkreis"},"federalState":{"key":"09","name":"Bayern"}},{"name":"Zundelweg","postalCode":"89349","locality":"Burtenbach","municipality":{"key":"09774122","name":"Burtenbach, M","type":"Markt"},"district":{"key":"09774","name":"Günzburg","type":"Landkreis"},"federalState":{"key":"09","name":"Bayern"}},{"name":"Zur Mindel","postalCode":"89349","locality":"Burtenbach","municipality":{"key":"09774122","name":"Burtenbach, M","type":"Markt"},"district":{"key":"09774","name":"Günzburg","type":"Landkreis"},"federalState":{"key":"09","name":"Bayern"}},{"name":"Äußerer Krautgartenweg","postalCode":"89349","locality":"Burtenbach","municipality":{"key":"09774122","name":"Burtenbach, M","type":"Markt"},"district":{"key":"09774","name":"Günzburg","type":"Landkreis"},"federalState":{"key":"09","name":"Bayern"}},{"name":"Öschweg","postalCode":"87634","locality":"Obergünzburg","municipality":{"key":"09777154","name":"Obergünzburg, M","type":"Markt"},"district":{"key":"09777","name":"Ostallgäu","type":"Landkreis"},"federalState":{"key":"09","name":"Bayern"}},]