[{"name":"Alter Frachtweg","postalCode":"23909","locality":"Fredeburg","municipality":{"key":"01053030","name":"Fredeburg","type":"Kreisangehörige_Gemeinde"},"district":{"key":"01053","name":"Herzogtum Lauenburg","type":"Kreis"},"federalState":{"key":"01","name":"Schleswig-Holstein"}},{"name":"Am Wildgehege","postalCode":"23909","locality":"Fredeburg","municipality":{"key":"01053030","name":"Fredeburg","type":"Kreisangehörige_Gemeinde"},"district":{"key":"01053","name":"Herzogtum Lauenburg","type":"Kreis"},"federalState":{"key":"01","name":"Schleswig-Holstein"}},{"name":"Domänenweg","postalCode":"23909","locality":"Fredeburg","municipality":{"key":"01053030","name":"Fredeburg","type":"Kreisangehörige_Gemeinde"},"district":{"key":"01053","name":"Herzogtum Lauenburg","type":"Kreis"},"federalState":{"key":"01","name":"Schleswig-Holstein"}},{"name":"Farchau","postalCode":"23909","locality":"Fredeburg","municipality":{"key":"01053030","name":"Fredeburg","type":"Kreisangehörige_Gemeinde"},"district":{"key":"01053","name":"Herzogtum Lauenburg","type":"Kreis"},"federalState":{"key":"01","name":"Schleswig-Holstein"}},{"name":"Möllner Str.","postalCode":"23909","locality":"Fredeburg","municipality":{"key":"01053030","name":"Fredeburg","type":"Kreisangehörige_Gemeinde"},"district":{"key":"01053","name":"Herzogtum Lauenburg","type":"Kreis"},"federalState":{"key":"01","name":"Schleswig-Holstein"}},{"name":"Wasserkrüger Weg","postalCode":"23909","locality":"Fredeburg","municipality":{"key":"01053030","name":"Fredeburg","type":"Kreisangehörige_Gemeinde"},"district":{"key":"01053","name":"Herzogtum Lauenburg","type":"Kreis"},"federalState":{"key":"01","name":"Schleswig-Holstein"}},{"name":"Weiße Brücke","postalCode":"23909","locality":"Fredeburg","municipality":{"key":"01053030","name":"Fredeburg","type":"Kreisangehörige_Gemeinde"},"district":{"key":"01053","name":"Herzogtum Lauenburg","type":"Kreis"},"federalState":{"key":"01","name":"Schleswig-Holstein"}},{"name":"Wensöhlenweg","postalCode":"23909","locality":"Fredeburg","municipality":{"key":"01053030","name":"Fredeburg","type":"Kreisangehörige_Gemeinde"},"district":{"key":"01053","name":"Herzogtum Lauenburg","type":"Kreis"},"federalState":{"key":"01","name":"Schleswig-Holstein"}},]