[{"name":"Albert-Steiert-Weg","postalCode":"79238","locality":"Ehrenkirchen","municipality":{"key":"08315131","name":"Ehrenkirchen","type":"Kreisangehörige_Gemeinde"},"district":{"key":"08315","name":"Breisgau-Hochschwarzwald","type":"Landkreis"},"federalState":{"key":"08","name":"Baden-Württemberg"}},{"name":"Alemannenstr.","postalCode":"79238","locality":"Ehrenkirchen","municipality":{"key":"08315131","name":"Ehrenkirchen","type":"Kreisangehörige_Gemeinde"},"district":{"key":"08315","name":"Breisgau-Hochschwarzwald","type":"Landkreis"},"federalState":{"key":"08","name":"Baden-Württemberg"}},{"name":"Alfons-Oswald-Str.","postalCode":"79238","locality":"Ehrenkirchen","municipality":{"key":"08315131","name":"Ehrenkirchen","type":"Kreisangehörige_Gemeinde"},"district":{"key":"08315","name":"Breisgau-Hochschwarzwald","type":"Landkreis"},"federalState":{"key":"08","name":"Baden-Württemberg"}},{"name":"Alte Lindenstr.","postalCode":"79238","locality":"Ehrenkirchen","municipality":{"key":"08315131","name":"Ehrenkirchen","type":"Kreisangehörige_Gemeinde"},"district":{"key":"08315","name":"Breisgau-Hochschwarzwald","type":"Landkreis"},"federalState":{"key":"08","name":"Baden-Württemberg"}},{"name":"Alter Forlenstiegweg","postalCode":"79238","locality":"Ehrenkirchen","municipality":{"key":"08315131","name":"Ehrenkirchen","type":"Kreisangehörige_Gemeinde"},"district":{"key":"08315","name":"Breisgau-Hochschwarzwald","type":"Landkreis"},"federalState":{"key":"08","name":"Baden-Württemberg"}},{"name":"Am Alten Sportplatz","postalCode":"79238","locality":"Ehrenkirchen","municipality":{"key":"08315131","name":"Ehrenkirchen","type":"Kreisangehörige_Gemeinde"},"district":{"key":"08315","name":"Breisgau-Hochschwarzwald","type":"Landkreis"},"federalState":{"key":"08","name":"Baden-Württemberg"}},{"name":"Ambringer Grundweg","postalCode":"79238","locality":"Ehrenkirchen","municipality":{"key":"08315131","name":"Ehrenkirchen","type":"Kreisangehörige_Gemeinde"},"district":{"key":"08315","name":"Breisgau-Hochschwarzwald","type":"Landkreis"},"federalState":{"key":"08","name":"Baden-Württemberg"}},{"name":"Ambringer Ring","postalCode":"79238","locality":"Ehrenkirchen","municipality":{"key":"08315131","name":"Ehrenkirchen","type":"Kreisangehörige_Gemeinde"},"district":{"key":"08315","name":"Breisgau-Hochschwarzwald","type":"Landkreis"},"federalState":{"key":"08","name":"Baden-Württemberg"}},{"name":"Ambringer Weg","postalCode":"79238","locality":"Ehrenkirchen","municipality":{"key":"08315131","name":"Ehrenkirchen","type":"Kreisangehörige_Gemeinde"},"district":{"key":"08315","name":"Breisgau-Hochschwarzwald","type":"Landkreis"},"federalState":{"key":"08","name":"Baden-Württemberg"}},{"name":"Am Mühlbach","postalCode":"79238","locality":"Ehrenkirchen","municipality":{"key":"08315131","name":"Ehrenkirchen","type":"Kreisangehörige_Gemeinde"},"district":{"key":"08315","name":"Breisgau-Hochschwarzwald","type":"Landkreis"},"federalState":{"key":"08","name":"Baden-Württemberg"}},{"name":"Am Rosenberg","postalCode":"79238","locality":"Ehrenkirchen","municipality":{"key":"08315131","name":"Ehrenkirchen","type":"Kreisangehörige_Gemeinde"},"district":{"key":"08315","name":"Breisgau-Hochschwarzwald","type":"Landkreis"},"federalState":{"key":"08","name":"Baden-Württemberg"}},{"name":"Bachstr.","postalCode":"79238","locality":"Ehrenkirchen","municipality":{"key":"08315131","name":"Ehrenkirchen","type":"Kreisangehörige_Gemeinde"},"district":{"key":"08315","name":"Breisgau-Hochschwarzwald","type":"Landkreis"},"federalState":{"key":"08","name":"Baden-Württemberg"}},{"name":"Bärenstr.","postalCode":"79238","locality":"Ehrenkirchen","municipality":{"key":"08315131","name":"Ehrenkirchen","type":"Kreisangehörige_Gemeinde"},"district":{"key":"08315","name":"Breisgau-Hochschwarzwald","type":"Landkreis"},"federalState":{"key":"08","name":"Baden-Württemberg"}},{"name":"Batzenbergstr.","postalCode":"79238","locality":"Ehrenkirchen","municipality":{"key":"08315131","name":"Ehrenkirchen","type":"Kreisangehörige_Gemeinde"},"district":{"key":"08315","name":"Breisgau-Hochschwarzwald","type":"Landkreis"},"federalState":{"key":"08","name":"Baden-Württemberg"}},{"name":"Belchenstr.","postalCode":"79238","locality":"Ehrenkirchen","municipality":{"key":"08315131","name":"Ehrenkirchen","type":"Kreisangehörige_Gemeinde"},"district":{"key":"08315","name":"Breisgau-Hochschwarzwald","type":"Landkreis"},"federalState":{"key":"08","name":"Baden-Württemberg"}},{"name":"Belzgasse","postalCode":"79238","locality":"Ehrenkirchen","municipality":{"key":"08315131","name":"Ehrenkirchen","type":"Kreisangehörige_Gemeinde"},"district":{"key":"08315","name":"Breisgau-Hochschwarzwald","type":"Landkreis"},"federalState":{"key":"08","name":"Baden-Württemberg"}},{"name":"Berggasse","postalCode":"79238","locality":"Ehrenkirchen","municipality":{"key":"08315131","name":"Ehrenkirchen","type":"Kreisangehörige_Gemeinde"},"district":{"key":"08315","name":"Breisgau-Hochschwarzwald","type":"Landkreis"},"federalState":{"key":"08","name":"Baden-Württemberg"}},{"name":"Bergstr.","postalCode":"79238","locality":"Ehrenkirchen","municipality":{"key":"08315131","name":"Ehrenkirchen","type":"Kreisangehörige_Gemeinde"},"district":{"key":"08315","name":"Breisgau-Hochschwarzwald","type":"Landkreis"},"federalState":{"key":"08","name":"Baden-Württemberg"}},{"name":"Bernhardusstr.","postalCode":"79238","locality":"Ehrenkirchen","municipality":{"key":"08315131","name":"Ehrenkirchen","type":"Kreisangehörige_Gemeinde"},"district":{"key":"08315","name":"Breisgau-Hochschwarzwald","type":"Landkreis"},"federalState":{"key":"08","name":"Baden-Württemberg"}},{"name":"Bettlerpfad","postalCode":"79238","locality":"Ehrenkirchen","municipality":{"key":"08315131","name":"Ehrenkirchen","type":"Kreisangehörige_Gemeinde"},"district":{"key":"08315","name":"Breisgau-Hochschwarzwald","type":"Landkreis"},"federalState":{"key":"08","name":"Baden-Württemberg"}},{"name":"Biegartenweg","postalCode":"79238","locality":"Ehrenkirchen","municipality":{"key":"08315131","name":"Ehrenkirchen","type":"Kreisangehörige_Gemeinde"},"district":{"key":"08315","name":"Breisgau-Hochschwarzwald","type":"Landkreis"},"federalState":{"key":"08","name":"Baden-Württemberg"}},{"name":"Bienger Str.","postalCode":"79238","locality":"Ehrenkirchen","municipality":{"key":"08315131","name":"Ehrenkirchen","type":"Kreisangehörige_Gemeinde"},"district":{"key":"08315","name":"Breisgau-Hochschwarzwald","type":"Landkreis"},"federalState":{"key":"08","name":"Baden-Württemberg"}},{"name":"Bittersweg","postalCode":"79238","locality":"Ehrenkirchen","municipality":{"key":"08315131","name":"Ehrenkirchen","type":"Kreisangehörige_Gemeinde"},"district":{"key":"08315","name":"Breisgau-Hochschwarzwald","type":"Landkreis"},"federalState":{"key":"08","name":"Baden-Württemberg"}},{"name":"Breitackerweg","postalCode":"79238","locality":"Ehrenkirchen","municipality":{"key":"08315131","name":"Ehrenkirchen","type":"Kreisangehörige_Gemeinde"},"district":{"key":"08315","name":"Breisgau-Hochschwarzwald","type":"Landkreis"},"federalState":{"key":"08","name":"Baden-Württemberg"}},{"name":"Brunnmattenstr.","postalCode":"79238","locality":"Ehrenkirchen","municipality":{"key":"08315131","name":"Ehrenkirchen","type":"Kreisangehörige_Gemeinde"},"district":{"key":"08315","name":"Breisgau-Hochschwarzwald","type":"Landkreis"},"federalState":{"key":"08","name":"Baden-Württemberg"}},{"name":"Bumattenweg","postalCode":"79238","locality":"Ehrenkirchen","municipality":{"key":"08315131","name":"Ehrenkirchen","type":"Kreisangehörige_Gemeinde"},"district":{"key":"08315","name":"Breisgau-Hochschwarzwald","type":"Landkreis"},"federalState":{"key":"08","name":"Baden-Württemberg"}},{"name":"Bundesstr.","postalCode":"79238","locality":"Ehrenkirchen","municipality":{"key":"08315131","name":"Ehrenkirchen","type":"Kreisangehörige_Gemeinde"},"district":{"key":"08315","name":"Breisgau-Hochschwarzwald","type":"Landkreis"},"federalState":{"key":"08","name":"Baden-Württemberg"}},{"name":"Dorfstr.","postalCode":"79238","locality":"Ehrenkirchen","municipality":{"key":"08315131","name":"Ehrenkirchen","type":"Kreisangehörige_Gemeinde"},"district":{"key":"08315","name":"Breisgau-Hochschwarzwald","type":"Landkreis"},"federalState":{"key":"08","name":"Baden-Württemberg"}},{"name":"Dreifeldbrücke","postalCode":"79238","locality":"Ehrenkirchen","municipality":{"key":"08315131","name":"Ehrenkirchen","type":"Kreisangehörige_Gemeinde"},"district":{"key":"08315","name":"Breisgau-Hochschwarzwald","type":"Landkreis"},"federalState":{"key":"08","name":"Baden-Württemberg"}},{"name":"Dudelsbachweg","postalCode":"79238","locality":"Ehrenkirchen","municipality":{"key":"08315131","name":"Ehrenkirchen","type":"Kreisangehörige_Gemeinde"},"district":{"key":"08315","name":"Breisgau-Hochschwarzwald","type":"Landkreis"},"federalState":{"key":"08","name":"Baden-Württemberg"}},{"name":"Ehrenstetter Grundweg","postalCode":"79238","locality":"Ehrenkirchen","municipality":{"key":"08315131","name":"Ehrenkirchen","type":"Kreisangehörige_Gemeinde"},"district":{"key":"08315","name":"Breisgau-Hochschwarzwald","type":"Landkreis"},"federalState":{"key":"08","name":"Baden-Württemberg"}},{"name":"Ehrenstetter Maistollenweg","postalCode":"79238","locality":"Ehrenkirchen","municipality":{"key":"08315131","name":"Ehrenkirchen","type":"Kreisangehörige_Gemeinde"},"district":{"key":"08315","name":"Breisgau-Hochschwarzwald","type":"Landkreis"},"federalState":{"key":"08","name":"Baden-Württemberg"}},{"name":"Eisbrunnenweg","postalCode":"79238","locality":"Ehrenkirchen","municipality":{"key":"08315131","name":"Ehrenkirchen","type":"Kreisangehörige_Gemeinde"},"district":{"key":"08315","name":"Breisgau-Hochschwarzwald","type":"Landkreis"},"federalState":{"key":"08","name":"Baden-Württemberg"}},{"name":"Erlenweg","postalCode":"79238","locality":"Ehrenkirchen","municipality":{"key":"08315131","name":"Ehrenkirchen","type":"Kreisangehörige_Gemeinde"},"district":{"key":"08315","name":"Breisgau-Hochschwarzwald","type":"Landkreis"},"federalState":{"key":"08","name":"Baden-Württemberg"}},{"name":"Federerweg","postalCode":"79238","locality":"Ehrenkirchen","municipality":{"key":"08315131","name":"Ehrenkirchen","type":"Kreisangehörige_Gemeinde"},"district":{"key":"08315","name":"Breisgau-Hochschwarzwald","type":"Landkreis"},"federalState":{"key":"08","name":"Baden-Württemberg"}},{"name":"Feimlisburgweg","postalCode":"79238","locality":"Ehrenkirchen","municipality":{"key":"08315131","name":"Ehrenkirchen","type":"Kreisangehörige_Gemeinde"},"district":{"key":"08315","name":"Breisgau-Hochschwarzwald","type":"Landkreis"},"federalState":{"key":"08","name":"Baden-Württemberg"}},{"name":"Felsengrundweg","postalCode":"79238","locality":"Ehrenkirchen","municipality":{"key":"08315131","name":"Ehrenkirchen","type":"Kreisangehörige_Gemeinde"},"district":{"key":"08315","name":"Breisgau-Hochschwarzwald","type":"Landkreis"},"federalState":{"key":"08","name":"Baden-Württemberg"}},{"name":"Finkerstalweg","postalCode":"79238","locality":"Ehrenkirchen","municipality":{"key":"08315131","name":"Ehrenkirchen","type":"Kreisangehörige_Gemeinde"},"district":{"key":"08315","name":"Breisgau-Hochschwarzwald","type":"Landkreis"},"federalState":{"key":"08","name":"Baden-Württemberg"}},{"name":"Forlenstiegweg","postalCode":"79238","locality":"Ehrenkirchen","municipality":{"key":"08315131","name":"Ehrenkirchen","type":"Kreisangehörige_Gemeinde"},"district":{"key":"08315","name":"Breisgau-Hochschwarzwald","type":"Landkreis"},"federalState":{"key":"08","name":"Baden-Württemberg"}},{"name":"Freiburger Str.","postalCode":"79238","locality":"Ehrenkirchen","municipality":{"key":"08315131","name":"Ehrenkirchen","type":"Kreisangehörige_Gemeinde"},"district":{"key":"08315","name":"Breisgau-Hochschwarzwald","type":"Landkreis"},"federalState":{"key":"08","name":"Baden-Württemberg"}},{"name":"Fridolin-Mayer-Str.","postalCode":"79238","locality":"Ehrenkirchen","municipality":{"key":"08315131","name":"Ehrenkirchen","type":"Kreisangehörige_Gemeinde"},"district":{"key":"08315","name":"Breisgau-Hochschwarzwald","type":"Landkreis"},"federalState":{"key":"08","name":"Baden-Württemberg"}},{"name":"Gebrüder-Dorner-Str.","postalCode":"79238","locality":"Ehrenkirchen","municipality":{"key":"08315131","name":"Ehrenkirchen","type":"Kreisangehörige_Gemeinde"},"district":{"key":"08315","name":"Breisgau-Hochschwarzwald","type":"Landkreis"},"federalState":{"key":"08","name":"Baden-Württemberg"}},{"name":"Gerbergasse","postalCode":"79238","locality":"Ehrenkirchen","municipality":{"key":"08315131","name":"Ehrenkirchen","type":"Kreisangehörige_Gemeinde"},"district":{"key":"08315","name":"Breisgau-Hochschwarzwald","type":"Landkreis"},"federalState":{"key":"08","name":"Baden-Württemberg"}},{"name":"Grießbachhangweg","postalCode":"79238","locality":"Ehrenkirchen","municipality":{"key":"08315131","name":"Ehrenkirchen","type":"Kreisangehörige_Gemeinde"},"district":{"key":"08315","name":"Breisgau-Hochschwarzwald","type":"Landkreis"},"federalState":{"key":"08","name":"Baden-Württemberg"}},{"name":"Grießbachweg","postalCode":"79238","locality":"Ehrenkirchen","municipality":{"key":"08315131","name":"Ehrenkirchen","type":"Kreisangehörige_Gemeinde"},"district":{"key":"08315","name":"Breisgau-Hochschwarzwald","type":"Landkreis"},"federalState":{"key":"08","name":"Baden-Württemberg"}},{"name":"Grundeckweg","postalCode":"79238","locality":"Ehrenkirchen","municipality":{"key":"08315131","name":"Ehrenkirchen","type":"Kreisangehörige_Gemeinde"},"district":{"key":"08315","name":"Breisgau-Hochschwarzwald","type":"Landkreis"},"federalState":{"key":"08","name":"Baden-Württemberg"}},{"name":"Gütighofen","postalCode":"79238","locality":"Ehrenkirchen","municipality":{"key":"08315131","name":"Ehrenkirchen","type":"Kreisangehörige_Gemeinde"},"district":{"key":"08315","name":"Breisgau-Hochschwarzwald","type":"Landkreis"},"federalState":{"key":"08","name":"Baden-Württemberg"}},{"name":"Hägeleweg","postalCode":"79238","locality":"Ehrenkirchen","municipality":{"key":"08315131","name":"Ehrenkirchen","type":"Kreisangehörige_Gemeinde"},"district":{"key":"08315","name":"Breisgau-Hochschwarzwald","type":"Landkreis"},"federalState":{"key":"08","name":"Baden-Württemberg"}},{"name":"Hans-Scherlin-Str.","postalCode":"79238","locality":"Ehrenkirchen","municipality":{"key":"08315131","name":"Ehrenkirchen","type":"Kreisangehörige_Gemeinde"},"district":{"key":"08315","name":"Breisgau-Hochschwarzwald","type":"Landkreis"},"federalState":{"key":"08","name":"Baden-Württemberg"}},{"name":"Hauptstr.","postalCode":"79238","locality":"Ehrenkirchen","municipality":{"key":"08315131","name":"Ehrenkirchen","type":"Kreisangehörige_Gemeinde"},"district":{"key":"08315","name":"Breisgau-Hochschwarzwald","type":"Landkreis"},"federalState":{"key":"08","name":"Baden-Württemberg"}},{"name":"Heinislochweg","postalCode":"79238","locality":"Ehrenkirchen","municipality":{"key":"08315131","name":"Ehrenkirchen","type":"Kreisangehörige_Gemeinde"},"district":{"key":"08315","name":"Breisgau-Hochschwarzwald","type":"Landkreis"},"federalState":{"key":"08","name":"Baden-Württemberg"}},{"name":"Herrenstr.","postalCode":"79238","locality":"Ehrenkirchen","municipality":{"key":"08315131","name":"Ehrenkirchen","type":"Kreisangehörige_Gemeinde"},"district":{"key":"08315","name":"Breisgau-Hochschwarzwald","type":"Landkreis"},"federalState":{"key":"08","name":"Baden-Württemberg"}},{"name":"Herrenweg","postalCode":"79238","locality":"Ehrenkirchen","municipality":{"key":"08315131","name":"Ehrenkirchen","type":"Kreisangehörige_Gemeinde"},"district":{"key":"08315","name":"Breisgau-Hochschwarzwald","type":"Landkreis"},"federalState":{"key":"08","name":"Baden-Württemberg"}},{"name":"Hexenbodenweg","postalCode":"79238","locality":"Ehrenkirchen","municipality":{"key":"08315131","name":"Ehrenkirchen","type":"Kreisangehörige_Gemeinde"},"district":{"key":"08315","name":"Breisgau-Hochschwarzwald","type":"Landkreis"},"federalState":{"key":"08","name":"Baden-Württemberg"}},{"name":"Hinteres Walterstal","postalCode":"79238","locality":"Ehrenkirchen","municipality":{"key":"08315131","name":"Ehrenkirchen","type":"Kreisangehörige_Gemeinde"},"district":{"key":"08315","name":"Breisgau-Hochschwarzwald","type":"Landkreis"},"federalState":{"key":"08","name":"Baden-Württemberg"}},{"name":"Hofenstr.","postalCode":"79238","locality":"Ehrenkirchen","municipality":{"key":"08315131","name":"Ehrenkirchen","type":"Kreisangehörige_Gemeinde"},"district":{"key":"08315","name":"Breisgau-Hochschwarzwald","type":"Landkreis"},"federalState":{"key":"08","name":"Baden-Württemberg"}},{"name":"Hofmattenweg","postalCode":"79238","locality":"Ehrenkirchen","municipality":{"key":"08315131","name":"Ehrenkirchen","type":"Kreisangehörige_Gemeinde"},"district":{"key":"08315","name":"Breisgau-Hochschwarzwald","type":"Landkreis"},"federalState":{"key":"08","name":"Baden-Württemberg"}},{"name":"Hohbannsteinweg","postalCode":"79238","locality":"Ehrenkirchen","municipality":{"key":"08315131","name":"Ehrenkirchen","type":"Kreisangehörige_Gemeinde"},"district":{"key":"08315","name":"Breisgau-Hochschwarzwald","type":"Landkreis"},"federalState":{"key":"08","name":"Baden-Württemberg"}},{"name":"Hohlgaß","postalCode":"79238","locality":"Ehrenkirchen","municipality":{"key":"08315131","name":"Ehrenkirchen","type":"Kreisangehörige_Gemeinde"},"district":{"key":"08315","name":"Breisgau-Hochschwarzwald","type":"Landkreis"},"federalState":{"key":"08","name":"Baden-Württemberg"}},{"name":"Hörnleweg","postalCode":"79238","locality":"Ehrenkirchen","municipality":{"key":"08315131","name":"Ehrenkirchen","type":"Kreisangehörige_Gemeinde"},"district":{"key":"08315","name":"Breisgau-Hochschwarzwald","type":"Landkreis"},"federalState":{"key":"08","name":"Baden-Württemberg"}},{"name":"Hudelweg","postalCode":"79238","locality":"Ehrenkirchen","municipality":{"key":"08315131","name":"Ehrenkirchen","type":"Kreisangehörige_Gemeinde"},"district":{"key":"08315","name":"Breisgau-Hochschwarzwald","type":"Landkreis"},"federalState":{"key":"08","name":"Baden-Württemberg"}},{"name":"Hüttenweg","postalCode":"79238","locality":"Ehrenkirchen","municipality":{"key":"08315131","name":"Ehrenkirchen","type":"Kreisangehörige_Gemeinde"},"district":{"key":"08315","name":"Breisgau-Hochschwarzwald","type":"Landkreis"},"federalState":{"key":"08","name":"Baden-Württemberg"}},{"name":"Im Bauertle","postalCode":"79238","locality":"Ehrenkirchen","municipality":{"key":"08315131","name":"Ehrenkirchen","type":"Kreisangehörige_Gemeinde"},"district":{"key":"08315","name":"Breisgau-Hochschwarzwald","type":"Landkreis"},"federalState":{"key":"08","name":"Baden-Württemberg"}},{"name":"Im Büfang","postalCode":"79238","locality":"Ehrenkirchen","municipality":{"key":"08315131","name":"Ehrenkirchen","type":"Kreisangehörige_Gemeinde"},"district":{"key":"08315","name":"Breisgau-Hochschwarzwald","type":"Landkreis"},"federalState":{"key":"08","name":"Baden-Württemberg"}},{"name":"Im Ebnet","postalCode":"79238","locality":"Ehrenkirchen","municipality":{"key":"08315131","name":"Ehrenkirchen","type":"Kreisangehörige_Gemeinde"},"district":{"key":"08315","name":"Breisgau-Hochschwarzwald","type":"Landkreis"},"federalState":{"key":"08","name":"Baden-Württemberg"}},{"name":"Im Hägele","postalCode":"79238","locality":"Ehrenkirchen","municipality":{"key":"08315131","name":"Ehrenkirchen","type":"Kreisangehörige_Gemeinde"},"district":{"key":"08315","name":"Breisgau-Hochschwarzwald","type":"Landkreis"},"federalState":{"key":"08","name":"Baden-Württemberg"}},{"name":"Im Hägle","postalCode":"79238","locality":"Ehrenkirchen","municipality":{"key":"08315131","name":"Ehrenkirchen","type":"Kreisangehörige_Gemeinde"},"district":{"key":"08315","name":"Breisgau-Hochschwarzwald","type":"Landkreis"},"federalState":{"key":"08","name":"Baden-Württemberg"}},{"name":"Im Himmelreich","postalCode":"79238","locality":"Ehrenkirchen","municipality":{"key":"08315131","name":"Ehrenkirchen","type":"Kreisangehörige_Gemeinde"},"district":{"key":"08315","name":"Breisgau-Hochschwarzwald","type":"Landkreis"},"federalState":{"key":"08","name":"Baden-Württemberg"}},{"name":"Im Kleinfeldele","postalCode":"79238","locality":"Ehrenkirchen","municipality":{"key":"08315131","name":"Ehrenkirchen","type":"Kreisangehörige_Gemeinde"},"district":{"key":"08315","name":"Breisgau-Hochschwarzwald","type":"Landkreis"},"federalState":{"key":"08","name":"Baden-Württemberg"}},{"name":"Im Kreuzacker","postalCode":"79238","locality":"Ehrenkirchen","municipality":{"key":"08315131","name":"Ehrenkirchen","type":"Kreisangehörige_Gemeinde"},"district":{"key":"08315","name":"Breisgau-Hochschwarzwald","type":"Landkreis"},"federalState":{"key":"08","name":"Baden-Württemberg"}},{"name":"Im Quellengrund","postalCode":"79238","locality":"Ehrenkirchen","municipality":{"key":"08315131","name":"Ehrenkirchen","type":"Kreisangehörige_Gemeinde"},"district":{"key":"08315","name":"Breisgau-Hochschwarzwald","type":"Landkreis"},"federalState":{"key":"08","name":"Baden-Württemberg"}},{"name":"Im Schanzacker","postalCode":"79238","locality":"Ehrenkirchen","municipality":{"key":"08315131","name":"Ehrenkirchen","type":"Kreisangehörige_Gemeinde"},"district":{"key":"08315","name":"Breisgau-Hochschwarzwald","type":"Landkreis"},"federalState":{"key":"08","name":"Baden-Württemberg"}},{"name":"Im Weinberg","postalCode":"79238","locality":"Ehrenkirchen","municipality":{"key":"08315131","name":"Ehrenkirchen","type":"Kreisangehörige_Gemeinde"},"district":{"key":"08315","name":"Breisgau-Hochschwarzwald","type":"Landkreis"},"federalState":{"key":"08","name":"Baden-Württemberg"}},{"name":"Im Wiesenrain","postalCode":"79238","locality":"Ehrenkirchen","municipality":{"key":"08315131","name":"Ehrenkirchen","type":"Kreisangehörige_Gemeinde"},"district":{"key":"08315","name":"Breisgau-Hochschwarzwald","type":"Landkreis"},"federalState":{"key":"08","name":"Baden-Württemberg"}},{"name":"Im Winzergarten","postalCode":"79238","locality":"Ehrenkirchen","municipality":{"key":"08315131","name":"Ehrenkirchen","type":"Kreisangehörige_Gemeinde"},"district":{"key":"08315","name":"Breisgau-Hochschwarzwald","type":"Landkreis"},"federalState":{"key":"08","name":"Baden-Württemberg"}},{"name":"In den Gärten","postalCode":"79238","locality":"Ehrenkirchen","municipality":{"key":"08315131","name":"Ehrenkirchen","type":"Kreisangehörige_Gemeinde"},"district":{"key":"08315","name":"Breisgau-Hochschwarzwald","type":"Landkreis"},"federalState":{"key":"08","name":"Baden-Württemberg"}},{"name":"In der Au","postalCode":"79238","locality":"Ehrenkirchen","municipality":{"key":"08315131","name":"Ehrenkirchen","type":"Kreisangehörige_Gemeinde"},"district":{"key":"08315","name":"Breisgau-Hochschwarzwald","type":"Landkreis"},"federalState":{"key":"08","name":"Baden-Württemberg"}},{"name":"Inneres Imlet","postalCode":"79238","locality":"Ehrenkirchen","municipality":{"key":"08315131","name":"Ehrenkirchen","type":"Kreisangehörige_Gemeinde"},"district":{"key":"08315","name":"Breisgau-Hochschwarzwald","type":"Landkreis"},"federalState":{"key":"08","name":"Baden-Württemberg"}},{"name":"Insel","postalCode":"79238","locality":"Ehrenkirchen","municipality":{"key":"08315131","name":"Ehrenkirchen","type":"Kreisangehörige_Gemeinde"},"district":{"key":"08315","name":"Breisgau-Hochschwarzwald","type":"Landkreis"},"federalState":{"key":"08","name":"Baden-Württemberg"}},{"name":"Jägermattenweg","postalCode":"79238","locality":"Ehrenkirchen","municipality":{"key":"08315131","name":"Ehrenkirchen","type":"Kreisangehörige_Gemeinde"},"district":{"key":"08315","name":"Breisgau-Hochschwarzwald","type":"Landkreis"},"federalState":{"key":"08","name":"Baden-Württemberg"}},{"name":"Jengerstr.","postalCode":"79238","locality":"Ehrenkirchen","municipality":{"key":"08315131","name":"Ehrenkirchen","type":"Kreisangehörige_Gemeinde"},"district":{"key":"08315","name":"Breisgau-Hochschwarzwald","type":"Landkreis"},"federalState":{"key":"08","name":"Baden-Württemberg"}},{"name":"Johann-Karl-Schmitt-Str.","postalCode":"79238","locality":"Ehrenkirchen","municipality":{"key":"08315131","name":"Ehrenkirchen","type":"Kreisangehörige_Gemeinde"},"district":{"key":"08315","name":"Breisgau-Hochschwarzwald","type":"Landkreis"},"federalState":{"key":"08","name":"Baden-Württemberg"}},{"name":"Josef-Faller-Weg","postalCode":"79238","locality":"Ehrenkirchen","municipality":{"key":"08315131","name":"Ehrenkirchen","type":"Kreisangehörige_Gemeinde"},"district":{"key":"08315","name":"Breisgau-Hochschwarzwald","type":"Landkreis"},"federalState":{"key":"08","name":"Baden-Württemberg"}},{"name":"Kaibegäßle","postalCode":"79238","locality":"Ehrenkirchen","municipality":{"key":"08315131","name":"Ehrenkirchen","type":"Kreisangehörige_Gemeinde"},"district":{"key":"08315","name":"Breisgau-Hochschwarzwald","type":"Landkreis"},"federalState":{"key":"08","name":"Baden-Württemberg"}},{"name":"Kaibengäßle","postalCode":"79238","locality":"Ehrenkirchen","municipality":{"key":"08315131","name":"Ehrenkirchen","type":"Kreisangehörige_Gemeinde"},"district":{"key":"08315","name":"Breisgau-Hochschwarzwald","type":"Landkreis"},"federalState":{"key":"08","name":"Baden-Württemberg"}},{"name":"Känelgärten","postalCode":"79238","locality":"Ehrenkirchen","municipality":{"key":"08315131","name":"Ehrenkirchen","type":"Kreisangehörige_Gemeinde"},"district":{"key":"08315","name":"Breisgau-Hochschwarzwald","type":"Landkreis"},"federalState":{"key":"08","name":"Baden-Württemberg"}},{"name":"Kapellenring","postalCode":"79238","locality":"Ehrenkirchen","municipality":{"key":"08315131","name":"Ehrenkirchen","type":"Kreisangehörige_Gemeinde"},"district":{"key":"08315","name":"Breisgau-Hochschwarzwald","type":"Landkreis"},"federalState":{"key":"08","name":"Baden-Württemberg"}},{"name":"Kapfengasse","postalCode":"79238","locality":"Ehrenkirchen","municipality":{"key":"08315131","name":"Ehrenkirchen","type":"Kreisangehörige_Gemeinde"},"district":{"key":"08315","name":"Breisgau-Hochschwarzwald","type":"Landkreis"},"federalState":{"key":"08","name":"Baden-Württemberg"}},{"name":"Kartaus","postalCode":"79238","locality":"Ehrenkirchen","municipality":{"key":"08315131","name":"Ehrenkirchen","type":"Kreisangehörige_Gemeinde"},"district":{"key":"08315","name":"Breisgau-Hochschwarzwald","type":"Landkreis"},"federalState":{"key":"08","name":"Baden-Württemberg"}},{"name":"Kientzheimer Str.","postalCode":"79238","locality":"Ehrenkirchen","municipality":{"key":"08315131","name":"Ehrenkirchen","type":"Kreisangehörige_Gemeinde"},"district":{"key":"08315","name":"Breisgau-Hochschwarzwald","type":"Landkreis"},"federalState":{"key":"08","name":"Baden-Württemberg"}},{"name":"Kirchbergstr.","postalCode":"79238","locality":"Ehrenkirchen","municipality":{"key":"08315131","name":"Ehrenkirchen","type":"Kreisangehörige_Gemeinde"},"district":{"key":"08315","name":"Breisgau-Hochschwarzwald","type":"Landkreis"},"federalState":{"key":"08","name":"Baden-Württemberg"}},{"name":"Kirchhofener Str.","postalCode":"79238","locality":"Ehrenkirchen","municipality":{"key":"08315131","name":"Ehrenkirchen","type":"Kreisangehörige_Gemeinde"},"district":{"key":"08315","name":"Breisgau-Hochschwarzwald","type":"Landkreis"},"federalState":{"key":"08","name":"Baden-Württemberg"}},{"name":"Kohlbühlweg","postalCode":"79238","locality":"Ehrenkirchen","municipality":{"key":"08315131","name":"Ehrenkirchen","type":"Kreisangehörige_Gemeinde"},"district":{"key":"08315","name":"Breisgau-Hochschwarzwald","type":"Landkreis"},"federalState":{"key":"08","name":"Baden-Württemberg"}},{"name":"Kohlerweg","postalCode":"79238","locality":"Ehrenkirchen","municipality":{"key":"08315131","name":"Ehrenkirchen","type":"Kreisangehörige_Gemeinde"},"district":{"key":"08315","name":"Breisgau-Hochschwarzwald","type":"Landkreis"},"federalState":{"key":"08","name":"Baden-Württemberg"}},{"name":"Kohlplattenweg","postalCode":"79238","locality":"Ehrenkirchen","municipality":{"key":"08315131","name":"Ehrenkirchen","type":"Kreisangehörige_Gemeinde"},"district":{"key":"08315","name":"Breisgau-Hochschwarzwald","type":"Landkreis"},"federalState":{"key":"08","name":"Baden-Württemberg"}},{"name":"Kreuzgartenstr.","postalCode":"79238","locality":"Ehrenkirchen","municipality":{"key":"08315131","name":"Ehrenkirchen","type":"Kreisangehörige_Gemeinde"},"district":{"key":"08315","name":"Breisgau-Hochschwarzwald","type":"Landkreis"},"federalState":{"key":"08","name":"Baden-Württemberg"}},{"name":"Krozinger Str.","postalCode":"79238","locality":"Ehrenkirchen","municipality":{"key":"08315131","name":"Ehrenkirchen","type":"Kreisangehörige_Gemeinde"},"district":{"key":"08315","name":"Breisgau-Hochschwarzwald","type":"Landkreis"},"federalState":{"key":"08","name":"Baden-Württemberg"}},{"name":"Lairenstr.","postalCode":"79238","locality":"Ehrenkirchen","municipality":{"key":"08315131","name":"Ehrenkirchen","type":"Kreisangehörige_Gemeinde"},"district":{"key":"08315","name":"Breisgau-Hochschwarzwald","type":"Landkreis"},"federalState":{"key":"08","name":"Baden-Württemberg"}},{"name":"Lazarus-Schwendi-Str.","postalCode":"79238","locality":"Ehrenkirchen","municipality":{"key":"08315131","name":"Ehrenkirchen","type":"Kreisangehörige_Gemeinde"},"district":{"key":"08315","name":"Breisgau-Hochschwarzwald","type":"Landkreis"},"federalState":{"key":"08","name":"Baden-Württemberg"}},{"name":"Ledergasse","postalCode":"79238","locality":"Ehrenkirchen","municipality":{"key":"08315131","name":"Ehrenkirchen","type":"Kreisangehörige_Gemeinde"},"district":{"key":"08315","name":"Breisgau-Hochschwarzwald","type":"Landkreis"},"federalState":{"key":"08","name":"Baden-Württemberg"}},{"name":"Lehn","postalCode":"79238","locality":"Ehrenkirchen","municipality":{"key":"08315131","name":"Ehrenkirchen","type":"Kreisangehörige_Gemeinde"},"district":{"key":"08315","name":"Breisgau-Hochschwarzwald","type":"Landkreis"},"federalState":{"key":"08","name":"Baden-Württemberg"}},{"name":"Lettenweg","postalCode":"79238","locality":"Ehrenkirchen","municipality":{"key":"08315131","name":"Ehrenkirchen","type":"Kreisangehörige_Gemeinde"},"district":{"key":"08315","name":"Breisgau-Hochschwarzwald","type":"Landkreis"},"federalState":{"key":"08","name":"Baden-Württemberg"}},{"name":"Lindenstr.","postalCode":"79238","locality":"Ehrenkirchen","municipality":{"key":"08315131","name":"Ehrenkirchen","type":"Kreisangehörige_Gemeinde"},"district":{"key":"08315","name":"Breisgau-Hochschwarzwald","type":"Landkreis"},"federalState":{"key":"08","name":"Baden-Württemberg"}},{"name":"Lingelegrundweg","postalCode":"79238","locality":"Ehrenkirchen","municipality":{"key":"08315131","name":"Ehrenkirchen","type":"Kreisangehörige_Gemeinde"},"district":{"key":"08315","name":"Breisgau-Hochschwarzwald","type":"Landkreis"},"federalState":{"key":"08","name":"Baden-Württemberg"}},{"name":"Marktplatz","postalCode":"79238","locality":"Ehrenkirchen","municipality":{"key":"08315131","name":"Ehrenkirchen","type":"Kreisangehörige_Gemeinde"},"district":{"key":"08315","name":"Breisgau-Hochschwarzwald","type":"Landkreis"},"federalState":{"key":"08","name":"Baden-Württemberg"}},{"name":"Marktstr.","postalCode":"79238","locality":"Ehrenkirchen","municipality":{"key":"08315131","name":"Ehrenkirchen","type":"Kreisangehörige_Gemeinde"},"district":{"key":"08315","name":"Breisgau-Hochschwarzwald","type":"Landkreis"},"federalState":{"key":"08","name":"Baden-Württemberg"}},{"name":"Märzenstr.","postalCode":"79238","locality":"Ehrenkirchen","municipality":{"key":"08315131","name":"Ehrenkirchen","type":"Kreisangehörige_Gemeinde"},"district":{"key":"08315","name":"Breisgau-Hochschwarzwald","type":"Landkreis"},"federalState":{"key":"08","name":"Baden-Württemberg"}},{"name":"Mittlerer Rosenbergweg","postalCode":"79238","locality":"Ehrenkirchen","municipality":{"key":"08315131","name":"Ehrenkirchen","type":"Kreisangehörige_Gemeinde"},"district":{"key":"08315","name":"Breisgau-Hochschwarzwald","type":"Landkreis"},"federalState":{"key":"08","name":"Baden-Württemberg"}},{"name":"Möhlinstr.","postalCode":"79238","locality":"Ehrenkirchen","municipality":{"key":"08315131","name":"Ehrenkirchen","type":"Kreisangehörige_Gemeinde"},"district":{"key":"08315","name":"Breisgau-Hochschwarzwald","type":"Landkreis"},"federalState":{"key":"08","name":"Baden-Württemberg"}},{"name":"Möhnestr.","postalCode":"79238","locality":"Ehrenkirchen","municipality":{"key":"08315131","name":"Ehrenkirchen","type":"Kreisangehörige_Gemeinde"},"district":{"key":"08315","name":"Breisgau-Hochschwarzwald","type":"Landkreis"},"federalState":{"key":"08","name":"Baden-Württemberg"}},{"name":"Mühlepfad","postalCode":"79238","locality":"Ehrenkirchen","municipality":{"key":"08315131","name":"Ehrenkirchen","type":"Kreisangehörige_Gemeinde"},"district":{"key":"08315","name":"Breisgau-Hochschwarzwald","type":"Landkreis"},"federalState":{"key":"08","name":"Baden-Württemberg"}},{"name":"Neustrassweg","postalCode":"79238","locality":"Ehrenkirchen","municipality":{"key":"08315131","name":"Ehrenkirchen","type":"Kreisangehörige_Gemeinde"},"district":{"key":"08315","name":"Breisgau-Hochschwarzwald","type":"Landkreis"},"federalState":{"key":"08","name":"Baden-Württemberg"}},{"name":"Niederdorfstr.","postalCode":"79238","locality":"Ehrenkirchen","municipality":{"key":"08315131","name":"Ehrenkirchen","type":"Kreisangehörige_Gemeinde"},"district":{"key":"08315","name":"Breisgau-Hochschwarzwald","type":"Landkreis"},"federalState":{"key":"08","name":"Baden-Württemberg"}},{"name":"Norsinger Grundweg","postalCode":"79238","locality":"Ehrenkirchen","municipality":{"key":"08315131","name":"Ehrenkirchen","type":"Kreisangehörige_Gemeinde"},"district":{"key":"08315","name":"Breisgau-Hochschwarzwald","type":"Landkreis"},"federalState":{"key":"08","name":"Baden-Württemberg"}},{"name":"Norsinger Maistollenweg","postalCode":"79238","locality":"Ehrenkirchen","municipality":{"key":"08315131","name":"Ehrenkirchen","type":"Kreisangehörige_Gemeinde"},"district":{"key":"08315","name":"Breisgau-Hochschwarzwald","type":"Landkreis"},"federalState":{"key":"08","name":"Baden-Württemberg"}},{"name":"Obere Dorfstr.","postalCode":"79238","locality":"Ehrenkirchen","municipality":{"key":"08315131","name":"Ehrenkirchen","type":"Kreisangehörige_Gemeinde"},"district":{"key":"08315","name":"Breisgau-Hochschwarzwald","type":"Landkreis"},"federalState":{"key":"08","name":"Baden-Württemberg"}},{"name":"Oberer Rosenbergweg","postalCode":"79238","locality":"Ehrenkirchen","municipality":{"key":"08315131","name":"Ehrenkirchen","type":"Kreisangehörige_Gemeinde"},"district":{"key":"08315","name":"Breisgau-Hochschwarzwald","type":"Landkreis"},"federalState":{"key":"08","name":"Baden-Württemberg"}},{"name":"Offnadinger Str.","postalCode":"79238","locality":"Ehrenkirchen","municipality":{"key":"08315131","name":"Ehrenkirchen","type":"Kreisangehörige_Gemeinde"},"district":{"key":"08315","name":"Breisgau-Hochschwarzwald","type":"Landkreis"},"federalState":{"key":"08","name":"Baden-Württemberg"}},{"name":"Offnadinger Weg","postalCode":"79238","locality":"Ehrenkirchen","municipality":{"key":"08315131","name":"Ehrenkirchen","type":"Kreisangehörige_Gemeinde"},"district":{"key":"08315","name":"Breisgau-Hochschwarzwald","type":"Landkreis"},"federalState":{"key":"08","name":"Baden-Württemberg"}},{"name":"Otto-Löw-Str.","postalCode":"79238","locality":"Ehrenkirchen","municipality":{"key":"08315131","name":"Ehrenkirchen","type":"Kreisangehörige_Gemeinde"},"district":{"key":"08315","name":"Breisgau-Hochschwarzwald","type":"Landkreis"},"federalState":{"key":"08","name":"Baden-Württemberg"}},{"name":"Palmengrundweg","postalCode":"79238","locality":"Ehrenkirchen","municipality":{"key":"08315131","name":"Ehrenkirchen","type":"Kreisangehörige_Gemeinde"},"district":{"key":"08315","name":"Breisgau-Hochschwarzwald","type":"Landkreis"},"federalState":{"key":"08","name":"Baden-Württemberg"}},{"name":"Postgasse","postalCode":"79238","locality":"Ehrenkirchen","municipality":{"key":"08315131","name":"Ehrenkirchen","type":"Kreisangehörige_Gemeinde"},"district":{"key":"08315","name":"Breisgau-Hochschwarzwald","type":"Landkreis"},"federalState":{"key":"08","name":"Baden-Württemberg"}},{"name":"Prälat-Stiefvater-Weg","postalCode":"79238","locality":"Ehrenkirchen","municipality":{"key":"08315131","name":"Ehrenkirchen","type":"Kreisangehörige_Gemeinde"},"district":{"key":"08315","name":"Breisgau-Hochschwarzwald","type":"Landkreis"},"federalState":{"key":"08","name":"Baden-Württemberg"}},{"name":"Professor-Waldvogel-Str.","postalCode":"79238","locality":"Ehrenkirchen","municipality":{"key":"08315131","name":"Ehrenkirchen","type":"Kreisangehörige_Gemeinde"},"district":{"key":"08315","name":"Breisgau-Hochschwarzwald","type":"Landkreis"},"federalState":{"key":"08","name":"Baden-Württemberg"}},{"name":"Raiffeisenstr.","postalCode":"79238","locality":"Ehrenkirchen","municipality":{"key":"08315131","name":"Ehrenkirchen","type":"Kreisangehörige_Gemeinde"},"district":{"key":"08315","name":"Breisgau-Hochschwarzwald","type":"Landkreis"},"federalState":{"key":"08","name":"Baden-Württemberg"}},{"name":"Riedmattenweg","postalCode":"79238","locality":"Ehrenkirchen","municipality":{"key":"08315131","name":"Ehrenkirchen","type":"Kreisangehörige_Gemeinde"},"district":{"key":"08315","name":"Breisgau-Hochschwarzwald","type":"Landkreis"},"federalState":{"key":"08","name":"Baden-Württemberg"}},{"name":"Sägegasse","postalCode":"79238","locality":"Ehrenkirchen","municipality":{"key":"08315131","name":"Ehrenkirchen","type":"Kreisangehörige_Gemeinde"},"district":{"key":"08315","name":"Breisgau-Hochschwarzwald","type":"Landkreis"},"federalState":{"key":"08","name":"Baden-Württemberg"}},{"name":"Sägengrundweg","postalCode":"79238","locality":"Ehrenkirchen","municipality":{"key":"08315131","name":"Ehrenkirchen","type":"Kreisangehörige_Gemeinde"},"district":{"key":"08315","name":"Breisgau-Hochschwarzwald","type":"Landkreis"},"federalState":{"key":"08","name":"Baden-Württemberg"}},{"name":"Sankt-Gallus-Str.","postalCode":"79238","locality":"Ehrenkirchen","municipality":{"key":"08315131","name":"Ehrenkirchen","type":"Kreisangehörige_Gemeinde"},"district":{"key":"08315","name":"Breisgau-Hochschwarzwald","type":"Landkreis"},"federalState":{"key":"08","name":"Baden-Württemberg"}},{"name":"Sankt Michaelstr.","postalCode":"79238","locality":"Ehrenkirchen","municipality":{"key":"08315131","name":"Ehrenkirchen","type":"Kreisangehörige_Gemeinde"},"district":{"key":"08315","name":"Breisgau-Hochschwarzwald","type":"Landkreis"},"federalState":{"key":"08","name":"Baden-Württemberg"}},{"name":"Schänzleweg","postalCode":"79238","locality":"Ehrenkirchen","municipality":{"key":"08315131","name":"Ehrenkirchen","type":"Kreisangehörige_Gemeinde"},"district":{"key":"08315","name":"Breisgau-Hochschwarzwald","type":"Landkreis"},"federalState":{"key":"08","name":"Baden-Württemberg"}},{"name":"Schäubleweg","postalCode":"79238","locality":"Ehrenkirchen","municipality":{"key":"08315131","name":"Ehrenkirchen","type":"Kreisangehörige_Gemeinde"},"district":{"key":"08315","name":"Breisgau-Hochschwarzwald","type":"Landkreis"},"federalState":{"key":"08","name":"Baden-Württemberg"}},{"name":"Schauinslandstr.","postalCode":"79238","locality":"Ehrenkirchen","municipality":{"key":"08315131","name":"Ehrenkirchen","type":"Kreisangehörige_Gemeinde"},"district":{"key":"08315","name":"Breisgau-Hochschwarzwald","type":"Landkreis"},"federalState":{"key":"08","name":"Baden-Württemberg"}},{"name":"Schlangengässle","postalCode":"79238","locality":"Ehrenkirchen","municipality":{"key":"08315131","name":"Ehrenkirchen","type":"Kreisangehörige_Gemeinde"},"district":{"key":"08315","name":"Breisgau-Hochschwarzwald","type":"Landkreis"},"federalState":{"key":"08","name":"Baden-Württemberg"}},{"name":"Schlierberg","postalCode":"79238","locality":"Ehrenkirchen","municipality":{"key":"08315131","name":"Ehrenkirchen","type":"Kreisangehörige_Gemeinde"},"district":{"key":"08315","name":"Breisgau-Hochschwarzwald","type":"Landkreis"},"federalState":{"key":"08","name":"Baden-Württemberg"}},{"name":"Schloßstr.","postalCode":"79238","locality":"Ehrenkirchen","municipality":{"key":"08315131","name":"Ehrenkirchen","type":"Kreisangehörige_Gemeinde"},"district":{"key":"08315","name":"Breisgau-Hochschwarzwald","type":"Landkreis"},"federalState":{"key":"08","name":"Baden-Württemberg"}},{"name":"Schmiedeweg","postalCode":"79238","locality":"Ehrenkirchen","municipality":{"key":"08315131","name":"Ehrenkirchen","type":"Kreisangehörige_Gemeinde"},"district":{"key":"08315","name":"Breisgau-Hochschwarzwald","type":"Landkreis"},"federalState":{"key":"08","name":"Baden-Württemberg"}},{"name":"Schwabengässle","postalCode":"79238","locality":"Ehrenkirchen","municipality":{"key":"08315131","name":"Ehrenkirchen","type":"Kreisangehörige_Gemeinde"},"district":{"key":"08315","name":"Breisgau-Hochschwarzwald","type":"Landkreis"},"federalState":{"key":"08","name":"Baden-Württemberg"}},{"name":"Schwarzwaldstr.","postalCode":"79238","locality":"Ehrenkirchen","municipality":{"key":"08315131","name":"Ehrenkirchen","type":"Kreisangehörige_Gemeinde"},"district":{"key":"08315","name":"Breisgau-Hochschwarzwald","type":"Landkreis"},"federalState":{"key":"08","name":"Baden-Württemberg"}},{"name":"Schwimmbadstr.","postalCode":"79238","locality":"Ehrenkirchen","municipality":{"key":"08315131","name":"Ehrenkirchen","type":"Kreisangehörige_Gemeinde"},"district":{"key":"08315","name":"Breisgau-Hochschwarzwald","type":"Landkreis"},"federalState":{"key":"08","name":"Baden-Württemberg"}},{"name":"Staufener Grundweg","postalCode":"79238","locality":"Ehrenkirchen","municipality":{"key":"08315131","name":"Ehrenkirchen","type":"Kreisangehörige_Gemeinde"},"district":{"key":"08315","name":"Breisgau-Hochschwarzwald","type":"Landkreis"},"federalState":{"key":"08","name":"Baden-Württemberg"}},{"name":"Steinebachweg","postalCode":"79238","locality":"Ehrenkirchen","municipality":{"key":"08315131","name":"Ehrenkirchen","type":"Kreisangehörige_Gemeinde"},"district":{"key":"08315","name":"Breisgau-Hochschwarzwald","type":"Landkreis"},"federalState":{"key":"08","name":"Baden-Württemberg"}},{"name":"Steinleweg","postalCode":"79238","locality":"Ehrenkirchen","municipality":{"key":"08315131","name":"Ehrenkirchen","type":"Kreisangehörige_Gemeinde"},"district":{"key":"08315","name":"Breisgau-Hochschwarzwald","type":"Landkreis"},"federalState":{"key":"08","name":"Baden-Württemberg"}},{"name":"Stiedlengäßle","postalCode":"79238","locality":"Ehrenkirchen","municipality":{"key":"08315131","name":"Ehrenkirchen","type":"Kreisangehörige_Gemeinde"},"district":{"key":"08315","name":"Breisgau-Hochschwarzwald","type":"Landkreis"},"federalState":{"key":"08","name":"Baden-Württemberg"}},{"name":"Stühleckweg","postalCode":"79238","locality":"Ehrenkirchen","municipality":{"key":"08315131","name":"Ehrenkirchen","type":"Kreisangehörige_Gemeinde"},"district":{"key":"08315","name":"Breisgau-Hochschwarzwald","type":"Landkreis"},"federalState":{"key":"08","name":"Baden-Württemberg"}},{"name":"Tanzbodenweg","postalCode":"79238","locality":"Ehrenkirchen","municipality":{"key":"08315131","name":"Ehrenkirchen","type":"Kreisangehörige_Gemeinde"},"district":{"key":"08315","name":"Breisgau-Hochschwarzwald","type":"Landkreis"},"federalState":{"key":"08","name":"Baden-Württemberg"}},{"name":"Thiloweg","postalCode":"79238","locality":"Ehrenkirchen","municipality":{"key":"08315131","name":"Ehrenkirchen","type":"Kreisangehörige_Gemeinde"},"district":{"key":"08315","name":"Breisgau-Hochschwarzwald","type":"Landkreis"},"federalState":{"key":"08","name":"Baden-Württemberg"}},{"name":"Thomafluh","postalCode":"79238","locality":"Ehrenkirchen","municipality":{"key":"08315131","name":"Ehrenkirchen","type":"Kreisangehörige_Gemeinde"},"district":{"key":"08315","name":"Breisgau-Hochschwarzwald","type":"Landkreis"},"federalState":{"key":"08","name":"Baden-Württemberg"}},{"name":"Tunibergstr.","postalCode":"79238","locality":"Ehrenkirchen","municipality":{"key":"08315131","name":"Ehrenkirchen","type":"Kreisangehörige_Gemeinde"},"district":{"key":"08315","name":"Breisgau-Hochschwarzwald","type":"Landkreis"},"federalState":{"key":"08","name":"Baden-Württemberg"}},{"name":"Unterdorfstr.","postalCode":"79238","locality":"Ehrenkirchen","municipality":{"key":"08315131","name":"Ehrenkirchen","type":"Kreisangehörige_Gemeinde"},"district":{"key":"08315","name":"Breisgau-Hochschwarzwald","type":"Landkreis"},"federalState":{"key":"08","name":"Baden-Württemberg"}},{"name":"Untere Lindenstr.","postalCode":"79238","locality":"Ehrenkirchen","municipality":{"key":"08315131","name":"Ehrenkirchen","type":"Kreisangehörige_Gemeinde"},"district":{"key":"08315","name":"Breisgau-Hochschwarzwald","type":"Landkreis"},"federalState":{"key":"08","name":"Baden-Württemberg"}},{"name":"Urbergweg","postalCode":"79238","locality":"Ehrenkirchen","municipality":{"key":"08315131","name":"Ehrenkirchen","type":"Kreisangehörige_Gemeinde"},"district":{"key":"08315","name":"Breisgau-Hochschwarzwald","type":"Landkreis"},"federalState":{"key":"08","name":"Baden-Württemberg"}},{"name":"Vogesenring","postalCode":"79238","locality":"Ehrenkirchen","municipality":{"key":"08315131","name":"Ehrenkirchen","type":"Kreisangehörige_Gemeinde"},"district":{"key":"08315","name":"Breisgau-Hochschwarzwald","type":"Landkreis"},"federalState":{"key":"08","name":"Baden-Württemberg"}},{"name":"Weinbergstr.","postalCode":"79238","locality":"Ehrenkirchen","municipality":{"key":"08315131","name":"Ehrenkirchen","type":"Kreisangehörige_Gemeinde"},"district":{"key":"08315","name":"Breisgau-Hochschwarzwald","type":"Landkreis"},"federalState":{"key":"08","name":"Baden-Württemberg"}},{"name":"Wentzingerplatz","postalCode":"79238","locality":"Ehrenkirchen","municipality":{"key":"08315131","name":"Ehrenkirchen","type":"Kreisangehörige_Gemeinde"},"district":{"key":"08315","name":"Breisgau-Hochschwarzwald","type":"Landkreis"},"federalState":{"key":"08","name":"Baden-Württemberg"}},{"name":"Wentzinger Str.","postalCode":"79238","locality":"Ehrenkirchen","municipality":{"key":"08315131","name":"Ehrenkirchen","type":"Kreisangehörige_Gemeinde"},"district":{"key":"08315","name":"Breisgau-Hochschwarzwald","type":"Landkreis"},"federalState":{"key":"08","name":"Baden-Württemberg"}},{"name":"Winzerstr.","postalCode":"79238","locality":"Ehrenkirchen","municipality":{"key":"08315131","name":"Ehrenkirchen","type":"Kreisangehörige_Gemeinde"},"district":{"key":"08315","name":"Breisgau-Hochschwarzwald","type":"Landkreis"},"federalState":{"key":"08","name":"Baden-Württemberg"}},{"name":"Wölfslöcherweg","postalCode":"79238","locality":"Ehrenkirchen","municipality":{"key":"08315131","name":"Ehrenkirchen","type":"Kreisangehörige_Gemeinde"},"district":{"key":"08315","name":"Breisgau-Hochschwarzwald","type":"Landkreis"},"federalState":{"key":"08","name":"Baden-Württemberg"}},{"name":"Ziegelmattenstr.","postalCode":"79238","locality":"Ehrenkirchen","municipality":{"key":"08315131","name":"Ehrenkirchen","type":"Kreisangehörige_Gemeinde"},"district":{"key":"08315","name":"Breisgau-Hochschwarzwald","type":"Landkreis"},"federalState":{"key":"08","name":"Baden-Württemberg"}},{"name":"Zum Wasserhäusle","postalCode":"79238","locality":"Ehrenkirchen","municipality":{"key":"08315131","name":"Ehrenkirchen","type":"Kreisangehörige_Gemeinde"},"district":{"key":"08315","name":"Breisgau-Hochschwarzwald","type":"Landkreis"},"federalState":{"key":"08","name":"Baden-Württemberg"}},{"name":"Zwischendörfer","postalCode":"79238","locality":"Ehrenkirchen","municipality":{"key":"08315131","name":"Ehrenkirchen","type":"Kreisangehörige_Gemeinde"},"district":{"key":"08315","name":"Breisgau-Hochschwarzwald","type":"Landkreis"},"federalState":{"key":"08","name":"Baden-Württemberg"}},{"name":"Ölbergweg","postalCode":"79238","locality":"Ehrenkirchen","municipality":{"key":"08315131","name":"Ehrenkirchen","type":"Kreisangehörige_Gemeinde"},"district":{"key":"08315","name":"Breisgau-Hochschwarzwald","type":"Landkreis"},"federalState":{"key":"08","name":"Baden-Württemberg"}},]