[{"key":"10201949","name":"Allmendweg","postalCode":"8421","locality":"Dättlikon","commune":{"key":"215","name":"Dättlikon","shortName":"Dättlikon"},"district":{"key":"110","name":"Bezirk Winterthur"},"canton":{"key":"1","code":"ZH","name":"Zürich"},"status":"Real"},{"key":"10127975","name":"Ausserdorf","postalCode":"8421","locality":"Dättlikon","commune":{"key":"215","name":"Dättlikon","shortName":"Dättlikon"},"district":{"key":"110","name":"Bezirk Winterthur"},"canton":{"key":"1","code":"ZH","name":"Zürich"},"status":"Real"},{"key":"10079992","name":"Berghofstrasse","postalCode":"8421","locality":"Dättlikon","commune":{"key":"215","name":"Dättlikon","shortName":"Dättlikon"},"district":{"key":"110","name":"Bezirk Winterthur"},"canton":{"key":"1","code":"ZH","name":"Zürich"},"status":"Real"},{"key":"10201950","name":"Bergsteig","postalCode":"8421","locality":"Dättlikon","commune":{"key":"215","name":"Dättlikon","shortName":"Dättlikon"},"district":{"key":"110","name":"Bezirk Winterthur"},"canton":{"key":"1","code":"ZH","name":"Zürich"},"status":"Real"},{"key":"10054265","name":"Birkenstrasse","postalCode":"8421","locality":"Dättlikon","commune":{"key":"215","name":"Dättlikon","shortName":"Dättlikon"},"district":{"key":"110","name":"Bezirk Winterthur"},"canton":{"key":"1","code":"ZH","name":"Zürich"},"status":"Real"},{"key":"10201951","name":"Birkentritt","postalCode":"8421","locality":"Dättlikon","commune":{"key":"215","name":"Dättlikon","shortName":"Dättlikon"},"district":{"key":"110","name":"Bezirk Winterthur"},"canton":{"key":"1","code":"ZH","name":"Zürich"},"status":"Real"},{"key":"10201952","name":"Blindensteg","postalCode":"8421","locality":"Dättlikon","commune":{"key":"215","name":"Dättlikon","shortName":"Dättlikon"},"district":{"key":"110","name":"Bezirk Winterthur"},"canton":{"key":"1","code":"ZH","name":"Zürich"},"status":"Real"},{"key":"10064569","name":"Blumetshalde","postalCode":"8421","locality":"Dättlikon","commune":{"key":"215","name":"Dättlikon","shortName":"Dättlikon"},"district":{"key":"110","name":"Bezirk Winterthur"},"canton":{"key":"1","code":"ZH","name":"Zürich"},"status":"Real"},{"key":"10201953","name":"Böcklistrasse","postalCode":"8421","locality":"Dättlikon","commune":{"key":"215","name":"Dättlikon","shortName":"Dättlikon"},"district":{"key":"110","name":"Bezirk Winterthur"},"canton":{"key":"1","code":"ZH","name":"Zürich"},"status":"Real"},{"key":"10183661","name":"Böckliweg","postalCode":"8421","locality":"Dättlikon","commune":{"key":"215","name":"Dättlikon","shortName":"Dättlikon"},"district":{"key":"110","name":"Bezirk Winterthur"},"canton":{"key":"1","code":"ZH","name":"Zürich"},"status":"Real"},{"key":"10141595","name":"Bodenackerstrasse","postalCode":"8421","locality":"Dättlikon","commune":{"key":"215","name":"Dättlikon","shortName":"Dättlikon"},"district":{"key":"110","name":"Bezirk Winterthur"},"canton":{"key":"1","code":"ZH","name":"Zürich"},"status":"Real"},{"key":"10201954","name":"Brandstrasse","postalCode":"8421","locality":"Dättlikon","commune":{"key":"215","name":"Dättlikon","shortName":"Dättlikon"},"district":{"key":"110","name":"Bezirk Winterthur"},"canton":{"key":"1","code":"ZH","name":"Zürich"},"status":"Real"},{"key":"10157863","name":"Breitistrasse","postalCode":"8421","locality":"Dättlikon","commune":{"key":"215","name":"Dättlikon","shortName":"Dättlikon"},"district":{"key":"110","name":"Bezirk Winterthur"},"canton":{"key":"1","code":"ZH","name":"Zürich"},"status":"Real"},{"key":"10201955","name":"Breitiweg","postalCode":"8421","locality":"Dättlikon","commune":{"key":"215","name":"Dättlikon","shortName":"Dättlikon"},"district":{"key":"110","name":"Bezirk Winterthur"},"canton":{"key":"1","code":"ZH","name":"Zürich"},"status":"Real"},{"key":"10201956","name":"Breitmattstrasse","postalCode":"8421","locality":"Dättlikon","commune":{"key":"215","name":"Dättlikon","shortName":"Dättlikon"},"district":{"key":"110","name":"Bezirk Winterthur"},"canton":{"key":"1","code":"ZH","name":"Zürich"},"status":"Real"},{"key":"10201957","name":"Bsetziweg","postalCode":"8421","locality":"Dättlikon","commune":{"key":"215","name":"Dättlikon","shortName":"Dättlikon"},"district":{"key":"110","name":"Bezirk Winterthur"},"canton":{"key":"1","code":"ZH","name":"Zürich"},"status":"Real"},{"key":"10201958","name":"Buckstrasse","postalCode":"8421","locality":"Dättlikon","commune":{"key":"215","name":"Dättlikon","shortName":"Dättlikon"},"district":{"key":"110","name":"Bezirk Winterthur"},"canton":{"key":"1","code":"ZH","name":"Zürich"},"status":"Real"},{"key":"10201959","name":"Dachslöchernstrasse","postalCode":"8421","locality":"Dättlikon","commune":{"key":"215","name":"Dättlikon","shortName":"Dättlikon"},"district":{"key":"110","name":"Bezirk Winterthur"},"canton":{"key":"1","code":"ZH","name":"Zürich"},"status":"Real"},{"key":"10125722","name":"Dellerstrasse","postalCode":"8421","locality":"Dättlikon","commune":{"key":"215","name":"Dättlikon","shortName":"Dättlikon"},"district":{"key":"110","name":"Bezirk Winterthur"},"canton":{"key":"1","code":"ZH","name":"Zürich"},"status":"Real"},{"key":"10201960","name":"Eichstrasse","postalCode":"8421","locality":"Dättlikon","commune":{"key":"215","name":"Dättlikon","shortName":"Dättlikon"},"district":{"key":"110","name":"Bezirk Winterthur"},"canton":{"key":"1","code":"ZH","name":"Zürich"},"status":"Real"},{"key":"10201961","name":"Eschenstrasse","postalCode":"8421","locality":"Dättlikon","commune":{"key":"215","name":"Dättlikon","shortName":"Dättlikon"},"district":{"key":"110","name":"Bezirk Winterthur"},"canton":{"key":"1","code":"ZH","name":"Zürich"},"status":"Real"},{"key":"10157864","name":"Eschenweg","postalCode":"8421","locality":"Dättlikon","commune":{"key":"215","name":"Dättlikon","shortName":"Dättlikon"},"district":{"key":"110","name":"Bezirk Winterthur"},"canton":{"key":"1","code":"ZH","name":"Zürich"},"status":"Real"},{"key":"10054266","name":"Eulenstrasse","postalCode":"8421","locality":"Dättlikon","commune":{"key":"215","name":"Dättlikon","shortName":"Dättlikon"},"district":{"key":"110","name":"Bezirk Winterthur"},"canton":{"key":"1","code":"ZH","name":"Zürich"},"status":"Real"},{"key":"10201962","name":"Fluhstrasse","postalCode":"8421","locality":"Dättlikon","commune":{"key":"215","name":"Dättlikon","shortName":"Dättlikon"},"district":{"key":"110","name":"Bezirk Winterthur"},"canton":{"key":"1","code":"ZH","name":"Zürich"},"status":"Real"},{"key":"10201963","name":"Freiensteinerstrasse","postalCode":"8421","locality":"Dättlikon","commune":{"key":"215","name":"Dättlikon","shortName":"Dättlikon"},"district":{"key":"110","name":"Bezirk Winterthur"},"canton":{"key":"1","code":"ZH","name":"Zürich"},"status":"Real"},{"key":"10201964","name":"Frohbergsteig","postalCode":"8421","locality":"Dättlikon","commune":{"key":"215","name":"Dättlikon","shortName":"Dättlikon"},"district":{"key":"110","name":"Bezirk Winterthur"},"canton":{"key":"1","code":"ZH","name":"Zürich"},"status":"Real"},{"key":"10201965","name":"Frohbergweg","postalCode":"8421","locality":"Dättlikon","commune":{"key":"215","name":"Dättlikon","shortName":"Dättlikon"},"district":{"key":"110","name":"Bezirk Winterthur"},"canton":{"key":"1","code":"ZH","name":"Zürich"},"status":"Real"},{"key":"10201966","name":"Gmeimerigstrasse","postalCode":"8421","locality":"Dättlikon","commune":{"key":"215","name":"Dättlikon","shortName":"Dättlikon"},"district":{"key":"110","name":"Bezirk Winterthur"},"canton":{"key":"1","code":"ZH","name":"Zürich"},"status":"Real"},{"key":"10201967","name":"Grütstrasse","postalCode":"8421","locality":"Dättlikon","commune":{"key":"215","name":"Dättlikon","shortName":"Dättlikon"},"district":{"key":"110","name":"Bezirk Winterthur"},"canton":{"key":"1","code":"ZH","name":"Zürich"},"status":"Real"},{"key":"10052047","name":"Haldenrain","postalCode":"8421","locality":"Dättlikon","commune":{"key":"215","name":"Dättlikon","shortName":"Dättlikon"},"district":{"key":"110","name":"Bezirk Winterthur"},"canton":{"key":"1","code":"ZH","name":"Zürich"},"status":"Real"},{"key":"10123025","name":"Haldenweg","postalCode":"8421","locality":"Dättlikon","commune":{"key":"215","name":"Dättlikon","shortName":"Dättlikon"},"district":{"key":"110","name":"Bezirk Winterthur"},"canton":{"key":"1","code":"ZH","name":"Zürich"},"status":"Real"},{"key":"10201968","name":"Hasliweg","postalCode":"8421","locality":"Dättlikon","commune":{"key":"215","name":"Dättlikon","shortName":"Dättlikon"},"district":{"key":"110","name":"Bezirk Winterthur"},"canton":{"key":"1","code":"ZH","name":"Zürich"},"status":"Real"},{"key":"10201969","name":"Heerenbänklistrasse","postalCode":"8421","locality":"Dättlikon","commune":{"key":"215","name":"Dättlikon","shortName":"Dättlikon"},"district":{"key":"110","name":"Bezirk Winterthur"},"canton":{"key":"1","code":"ZH","name":"Zürich"},"status":"Real"},{"key":"10201970","name":"Hohrütistrasse","postalCode":"8421","locality":"Dättlikon","commune":{"key":"215","name":"Dättlikon","shortName":"Dättlikon"},"district":{"key":"110","name":"Bezirk Winterthur"},"canton":{"key":"1","code":"ZH","name":"Zürich"},"status":"Real"},{"key":"10201971","name":"Hohrütiweg","postalCode":"8421","locality":"Dättlikon","commune":{"key":"215","name":"Dättlikon","shortName":"Dättlikon"},"district":{"key":"110","name":"Bezirk Winterthur"},"canton":{"key":"1","code":"ZH","name":"Zürich"},"status":"Real"},{"key":"10201972","name":"Hubholzstrasse","postalCode":"8421","locality":"Dättlikon","commune":{"key":"215","name":"Dättlikon","shortName":"Dättlikon"},"district":{"key":"110","name":"Bezirk Winterthur"},"canton":{"key":"1","code":"ZH","name":"Zürich"},"status":"Real"},{"key":"10110078","name":"Im Boden","postalCode":"8421","locality":"Dättlikon","commune":{"key":"215","name":"Dättlikon","shortName":"Dättlikon"},"district":{"key":"110","name":"Bezirk Winterthur"},"canton":{"key":"1","code":"ZH","name":"Zürich"},"status":"Real"},{"key":"10079993","name":"Kalchhofstrasse","postalCode":"8421","locality":"Dättlikon","commune":{"key":"215","name":"Dättlikon","shortName":"Dättlikon"},"district":{"key":"110","name":"Bezirk Winterthur"},"canton":{"key":"1","code":"ZH","name":"Zürich"},"status":"Real"},{"key":"10097122","name":"Kirchgasse","postalCode":"8421","locality":"Dättlikon","commune":{"key":"215","name":"Dättlikon","shortName":"Dättlikon"},"district":{"key":"110","name":"Bezirk Winterthur"},"canton":{"key":"1","code":"ZH","name":"Zürich"},"status":"Real"},{"key":"10201973","name":"Kochstrasse","postalCode":"8421","locality":"Dättlikon","commune":{"key":"215","name":"Dättlikon","shortName":"Dättlikon"},"district":{"key":"110","name":"Bezirk Winterthur"},"canton":{"key":"1","code":"ZH","name":"Zürich"},"status":"Real"},{"key":"10009075","name":"Lärchenstrasse","postalCode":"8421","locality":"Dättlikon","commune":{"key":"215","name":"Dättlikon","shortName":"Dättlikon"},"district":{"key":"110","name":"Bezirk Winterthur"},"canton":{"key":"1","code":"ZH","name":"Zürich"},"status":"Real"},{"key":"10170599","name":"Lettenstrasse","postalCode":"8421","locality":"Dättlikon","commune":{"key":"215","name":"Dättlikon","shortName":"Dättlikon"},"district":{"key":"110","name":"Bezirk Winterthur"},"canton":{"key":"1","code":"ZH","name":"Zürich"},"status":"Real"},{"key":"10009074","name":"Lettenweg","postalCode":"8421","locality":"Dättlikon","commune":{"key":"215","name":"Dättlikon","shortName":"Dättlikon"},"district":{"key":"110","name":"Bezirk Winterthur"},"canton":{"key":"1","code":"ZH","name":"Zürich"},"status":"Real"},{"key":"10201974","name":"Lochhaldenstrasse","postalCode":"8421","locality":"Dättlikon","commune":{"key":"215","name":"Dättlikon","shortName":"Dättlikon"},"district":{"key":"110","name":"Bezirk Winterthur"},"canton":{"key":"1","code":"ZH","name":"Zürich"},"status":"Real"},{"key":"10064570","name":"Meienhof","postalCode":"8421","locality":"Dättlikon","commune":{"key":"215","name":"Dättlikon","shortName":"Dättlikon"},"district":{"key":"110","name":"Bezirk Winterthur"},"canton":{"key":"1","code":"ZH","name":"Zürich"},"status":"Real"},{"key":"10201975","name":"Mettlenweg","postalCode":"8421","locality":"Dättlikon","commune":{"key":"215","name":"Dättlikon","shortName":"Dättlikon"},"district":{"key":"110","name":"Bezirk Winterthur"},"canton":{"key":"1","code":"ZH","name":"Zürich"},"status":"Real"},{"key":"10201976","name":"Nübrächtenstrasse","postalCode":"8421","locality":"Dättlikon","commune":{"key":"215","name":"Dättlikon","shortName":"Dättlikon"},"district":{"key":"110","name":"Bezirk Winterthur"},"canton":{"key":"1","code":"ZH","name":"Zürich"},"status":"Real"},{"key":"10113300","name":"Nussbaumweg","postalCode":"8421","locality":"Dättlikon","commune":{"key":"215","name":"Dättlikon","shortName":"Dättlikon"},"district":{"key":"110","name":"Bezirk Winterthur"},"canton":{"key":"1","code":"ZH","name":"Zürich"},"status":"Real"},{"key":"10009076","name":"Oberdorf","postalCode":"8421","locality":"Dättlikon","commune":{"key":"215","name":"Dättlikon","shortName":"Dättlikon"},"district":{"key":"110","name":"Bezirk Winterthur"},"canton":{"key":"1","code":"ZH","name":"Zürich"},"status":"Real"},{"key":"10201977","name":"Prügelstrasse","postalCode":"8421","locality":"Dättlikon","commune":{"key":"215","name":"Dättlikon","shortName":"Dättlikon"},"district":{"key":"110","name":"Bezirk Winterthur"},"canton":{"key":"1","code":"ZH","name":"Zürich"},"status":"Real"},{"key":"10105180","name":"Rebhalde","postalCode":"8421","locality":"Dättlikon","commune":{"key":"215","name":"Dättlikon","shortName":"Dättlikon"},"district":{"key":"110","name":"Bezirk Winterthur"},"canton":{"key":"1","code":"ZH","name":"Zürich"},"status":"Real"},{"key":"10201978","name":"Ruespenstrasse","postalCode":"8421","locality":"Dättlikon","commune":{"key":"215","name":"Dättlikon","shortName":"Dättlikon"},"district":{"key":"110","name":"Bezirk Winterthur"},"canton":{"key":"1","code":"ZH","name":"Zürich"},"status":"Real"},{"key":"10054267","name":"Schulstrasse","postalCode":"8421","locality":"Dättlikon","commune":{"key":"215","name":"Dättlikon","shortName":"Dättlikon"},"district":{"key":"110","name":"Bezirk Winterthur"},"canton":{"key":"1","code":"ZH","name":"Zürich"},"status":"Real"},{"key":"10009077","name":"Sonnhalde","postalCode":"8421","locality":"Dättlikon","commune":{"key":"215","name":"Dättlikon","shortName":"Dättlikon"},"district":{"key":"110","name":"Bezirk Winterthur"},"canton":{"key":"1","code":"ZH","name":"Zürich"},"status":"Real"},{"key":"10201979","name":"Steinbruchstrasse","postalCode":"8421","locality":"Dättlikon","commune":{"key":"215","name":"Dättlikon","shortName":"Dättlikon"},"district":{"key":"110","name":"Bezirk Winterthur"},"canton":{"key":"1","code":"ZH","name":"Zürich"},"status":"Real"},{"key":"10052048","name":"Steindler","postalCode":"8421","locality":"Dättlikon","commune":{"key":"215","name":"Dättlikon","shortName":"Dättlikon"},"district":{"key":"110","name":"Bezirk Winterthur"},"canton":{"key":"1","code":"ZH","name":"Zürich"},"status":"Real"},{"key":"10201980","name":"Talgutstrasse","postalCode":"8421","locality":"Dättlikon","commune":{"key":"215","name":"Dättlikon","shortName":"Dättlikon"},"district":{"key":"110","name":"Bezirk Winterthur"},"canton":{"key":"1","code":"ZH","name":"Zürich"},"status":"Real"},{"key":"10201981","name":"Talstrasse","postalCode":"8421","locality":"Dättlikon","commune":{"key":"215","name":"Dättlikon","shortName":"Dättlikon"},"district":{"key":"110","name":"Bezirk Winterthur"},"canton":{"key":"1","code":"ZH","name":"Zürich"},"status":"Real"},{"key":"10201982","name":"Tiefengassstrasse","postalCode":"8421","locality":"Dättlikon","commune":{"key":"215","name":"Dättlikon","shortName":"Dättlikon"},"district":{"key":"110","name":"Bezirk Winterthur"},"canton":{"key":"1","code":"ZH","name":"Zürich"},"status":"Real"},{"key":"10201983","name":"Tössrietstrasse","postalCode":"8421","locality":"Dättlikon","commune":{"key":"215","name":"Dättlikon","shortName":"Dättlikon"},"district":{"key":"110","name":"Bezirk Winterthur"},"canton":{"key":"1","code":"ZH","name":"Zürich"},"status":"Real"},{"key":"10244008","name":"Tössweg","postalCode":"8421","locality":"Dättlikon","commune":{"key":"215","name":"Dättlikon","shortName":"Dättlikon"},"district":{"key":"110","name":"Bezirk Winterthur"},"canton":{"key":"1","code":"ZH","name":"Zürich"},"status":"Real"},{"key":"10200189","name":"Umfahrungsstrasse","postalCode":"8421","locality":"Dättlikon","commune":{"key":"215","name":"Dättlikon","shortName":"Dättlikon"},"district":{"key":"110","name":"Bezirk Winterthur"},"canton":{"key":"1","code":"ZH","name":"Zürich"},"status":"Real"},{"key":"10064571","name":"Unterdorf","postalCode":"8421","locality":"Dättlikon","commune":{"key":"215","name":"Dättlikon","shortName":"Dättlikon"},"district":{"key":"110","name":"Bezirk Winterthur"},"canton":{"key":"1","code":"ZH","name":"Zürich"},"status":"Real"},{"key":"10201984","name":"Vogelsangstrasse","postalCode":"8421","locality":"Dättlikon","commune":{"key":"215","name":"Dättlikon","shortName":"Dättlikon"},"district":{"key":"110","name":"Bezirk Winterthur"},"canton":{"key":"1","code":"ZH","name":"Zürich"},"status":"Real"},{"key":"10009078","name":"Wartbadstrasse","postalCode":"8421","locality":"Dättlikon","commune":{"key":"215","name":"Dättlikon","shortName":"Dättlikon"},"district":{"key":"110","name":"Bezirk Winterthur"},"canton":{"key":"1","code":"ZH","name":"Zürich"},"status":"Real"},{"key":"10201985","name":"Winklenstrasse","postalCode":"8421","locality":"Dättlikon","commune":{"key":"215","name":"Dättlikon","shortName":"Dättlikon"},"district":{"key":"110","name":"Bezirk Winterthur"},"canton":{"key":"1","code":"ZH","name":"Zürich"},"status":"Real"},{"key":"10117597","name":"Wurzerstrasse","postalCode":"8421","locality":"Dättlikon","commune":{"key":"215","name":"Dättlikon","shortName":"Dättlikon"},"district":{"key":"110","name":"Bezirk Winterthur"},"canton":{"key":"1","code":"ZH","name":"Zürich"},"status":"Real"},]