[{"key":"10049932","name":"Avenue des Crosets","postalCode":"1804","locality":"Corsier-sur-Vevey","commune":{"key":"5884","name":"Corsier-sur-Vevey","shortName":"Corsier-sur-Vevey"},"district":{"key":"2230","name":"District de la Riviera-Pays-d'Enhaut"},"canton":{"key":"22","code":"VD","name":"Vaud"},"status":"Real"},{"key":"10125290","name":"Avenue Reller","postalCode":"1804","locality":"Corsier-sur-Vevey","commune":{"key":"5884","name":"Corsier-sur-Vevey","shortName":"Corsier-sur-Vevey"},"district":{"key":"2230","name":"District de la Riviera-Pays-d'Enhaut"},"canton":{"key":"22","code":"VD","name":"Vaud"},"status":"Real"},{"key":"10092169","name":"Chemin de Bon Vallon","postalCode":"1804","locality":"Corsier-sur-Vevey","commune":{"key":"5884","name":"Corsier-sur-Vevey","shortName":"Corsier-sur-Vevey"},"district":{"key":"2230","name":"District de la Riviera-Pays-d'Enhaut"},"canton":{"key":"22","code":"VD","name":"Vaud"},"status":"Real"},{"key":"10050152","name":"Chemin de Champ de Ban","postalCode":"1804","locality":"Corsier-sur-Vevey","commune":{"key":"5884","name":"Corsier-sur-Vevey","shortName":"Corsier-sur-Vevey"},"district":{"key":"2230","name":"District de la Riviera-Pays-d'Enhaut"},"canton":{"key":"22","code":"VD","name":"Vaud"},"status":"Real"},{"key":"10076676","name":"Chemin de Châtillon","postalCode":"1804","locality":"Corsier-sur-Vevey","commune":{"key":"5884","name":"Corsier-sur-Vevey","shortName":"Corsier-sur-Vevey"},"district":{"key":"2230","name":"District de la Riviera-Pays-d'Enhaut"},"canton":{"key":"22","code":"VD","name":"Vaud"},"status":"Real"},{"key":"10160066","name":"Chemin de Châtillon","postalCode":"1804","locality":"Corsier-sur-Vevey","commune":{"key":"5884","name":"Corsier-sur-Vevey","shortName":"Corsier-sur-Vevey"},"district":{"key":"2230","name":"District de la Riviera-Pays-d'Enhaut"},"canton":{"key":"22","code":"VD","name":"Vaud"},"status":"Real"},{"key":"10237872","name":"Chemin de Châtonneyre","postalCode":"1804","locality":"Corsier-sur-Vevey","commune":{"key":"5884","name":"Corsier-sur-Vevey","shortName":"Corsier-sur-Vevey"},"district":{"key":"2230","name":"District de la Riviera-Pays-d'Enhaut"},"canton":{"key":"22","code":"VD","name":"Vaud"},"status":"Real"},{"key":"10237874","name":"Chemin de Creux Vallais","postalCode":"1804","locality":"Corsier-sur-Vevey","commune":{"key":"5884","name":"Corsier-sur-Vevey","shortName":"Corsier-sur-Vevey"},"district":{"key":"2230","name":"District de la Riviera-Pays-d'Enhaut"},"canton":{"key":"22","code":"VD","name":"Vaud"},"status":"Real"},{"key":"10092168","name":"Chemin de la Côte Rouge","postalCode":"1804","locality":"Corsier-sur-Vevey","commune":{"key":"5884","name":"Corsier-sur-Vevey","shortName":"Corsier-sur-Vevey"},"district":{"key":"2230","name":"District de la Riviera-Pays-d'Enhaut"},"canton":{"key":"22","code":"VD","name":"Vaud"},"status":"Real"},{"key":"10237875","name":"Chemin de la Cure d'Attalens","postalCode":"1804","locality":"Corsier-sur-Vevey","commune":{"key":"5884","name":"Corsier-sur-Vevey","shortName":"Corsier-sur-Vevey"},"district":{"key":"2230","name":"District de la Riviera-Pays-d'Enhaut"},"canton":{"key":"22","code":"VD","name":"Vaud"},"status":"Real"},{"key":"10050153","name":"Chemin de la Vigie","postalCode":"1804","locality":"Corsier-sur-Vevey","commune":{"key":"5884","name":"Corsier-sur-Vevey","shortName":"Corsier-sur-Vevey"},"district":{"key":"2230","name":"District de la Riviera-Pays-d'Enhaut"},"canton":{"key":"22","code":"VD","name":"Vaud"},"status":"Real"},{"key":"10122023","name":"Chemin de Meruz","postalCode":"1804","locality":"Corsier-sur-Vevey","commune":{"key":"5884","name":"Corsier-sur-Vevey","shortName":"Corsier-sur-Vevey"},"district":{"key":"2230","name":"District de la Riviera-Pays-d'Enhaut"},"canton":{"key":"22","code":"VD","name":"Vaud"},"status":"Real"},{"key":"10055024","name":"Chemin de Riant-Mont","postalCode":"1804","locality":"Corsier-sur-Vevey","commune":{"key":"5884","name":"Corsier-sur-Vevey","shortName":"Corsier-sur-Vevey"},"district":{"key":"2230","name":"District de la Riviera-Pays-d'Enhaut"},"canton":{"key":"22","code":"VD","name":"Vaud"},"status":"Real"},{"key":"10076669","name":"Chemin des Vergers","postalCode":"1804","locality":"Corsier-sur-Vevey","commune":{"key":"5884","name":"Corsier-sur-Vevey","shortName":"Corsier-sur-Vevey"},"district":{"key":"2230","name":"District de la Riviera-Pays-d'Enhaut"},"canton":{"key":"22","code":"VD","name":"Vaud"},"status":"Real"},{"key":"10050154","name":"Chemin des Vignes","postalCode":"1804","locality":"Corsier-sur-Vevey","commune":{"key":"5884","name":"Corsier-sur-Vevey","shortName":"Corsier-sur-Vevey"},"district":{"key":"2230","name":"District de la Riviera-Pays-d'Enhaut"},"canton":{"key":"22","code":"VD","name":"Vaud"},"status":"Real"},{"key":"10102879","name":"Chemin du Barlataz","postalCode":"1804","locality":"Corsier-sur-Vevey","commune":{"key":"5884","name":"Corsier-sur-Vevey","shortName":"Corsier-sur-Vevey"},"district":{"key":"2230","name":"District de la Riviera-Pays-d'Enhaut"},"canton":{"key":"22","code":"VD","name":"Vaud"},"status":"Real"},{"key":"10050155","name":"Chemin du Châtelard","postalCode":"1804","locality":"Corsier-sur-Vevey","commune":{"key":"5884","name":"Corsier-sur-Vevey","shortName":"Corsier-sur-Vevey"},"district":{"key":"2230","name":"District de la Riviera-Pays-d'Enhaut"},"canton":{"key":"22","code":"VD","name":"Vaud"},"status":"Real"},{"key":"10139350","name":"Chemin du Four Banal","postalCode":"1804","locality":"Corsier-sur-Vevey","commune":{"key":"5884","name":"Corsier-sur-Vevey","shortName":"Corsier-sur-Vevey"},"district":{"key":"2230","name":"District de la Riviera-Pays-d'Enhaut"},"canton":{"key":"22","code":"VD","name":"Vaud"},"status":"Real"},{"key":"10076670","name":"Chemin du Frâne","postalCode":"1804","locality":"Corsier-sur-Vevey","commune":{"key":"5884","name":"Corsier-sur-Vevey","shortName":"Corsier-sur-Vevey"},"district":{"key":"2230","name":"District de la Riviera-Pays-d'Enhaut"},"canton":{"key":"22","code":"VD","name":"Vaud"},"status":"Real"},{"key":"10050156","name":"Chemin Sur le Crêt","postalCode":"1804","locality":"Corsier-sur-Vevey","commune":{"key":"5884","name":"Corsier-sur-Vevey","shortName":"Corsier-sur-Vevey"},"district":{"key":"2230","name":"District de la Riviera-Pays-d'Enhaut"},"canton":{"key":"22","code":"VD","name":"Vaud"},"status":"Real"},{"key":"10049938","name":"Chemin Vert","postalCode":"1804","locality":"Corsier-sur-Vevey","commune":{"key":"5884","name":"Corsier-sur-Vevey","shortName":"Corsier-sur-Vevey"},"district":{"key":"2230","name":"District de la Riviera-Pays-d'Enhaut"},"canton":{"key":"22","code":"VD","name":"Vaud"},"status":"Real"},{"key":"10050157","name":"Place du Temple","postalCode":"1804","locality":"Corsier-sur-Vevey","commune":{"key":"5884","name":"Corsier-sur-Vevey","shortName":"Corsier-sur-Vevey"},"district":{"key":"2230","name":"District de la Riviera-Pays-d'Enhaut"},"canton":{"key":"22","code":"VD","name":"Vaud"},"status":"Real"},{"key":"10257433","name":"Route de Châtel-St-Denis","postalCode":"1804","locality":"Corsier-sur-Vevey","commune":{"key":"5884","name":"Corsier-sur-Vevey","shortName":"Corsier-sur-Vevey"},"district":{"key":"2230","name":"District de la Riviera-Pays-d'Enhaut"},"canton":{"key":"22","code":"VD","name":"Vaud"},"status":"Real"},{"key":"10139616","name":"Route de Châtel-St-Denis","postalCode":"1804","locality":"Corsier-sur-Vevey","commune":{"key":"5884","name":"Corsier-sur-Vevey","shortName":"Corsier-sur-Vevey"},"district":{"key":"2230","name":"District de la Riviera-Pays-d'Enhaut"},"canton":{"key":"22","code":"VD","name":"Vaud"},"status":"Real"},{"key":"10092170","name":"Route de Châtillon","postalCode":"1804","locality":"Corsier-sur-Vevey","commune":{"key":"5884","name":"Corsier-sur-Vevey","shortName":"Corsier-sur-Vevey"},"district":{"key":"2230","name":"District de la Riviera-Pays-d'Enhaut"},"canton":{"key":"22","code":"VD","name":"Vaud"},"status":"Real"},{"key":"10076672","name":"Route de Corseaux","postalCode":"1804","locality":"Corsier-sur-Vevey","commune":{"key":"5884","name":"Corsier-sur-Vevey","shortName":"Corsier-sur-Vevey"},"district":{"key":"2230","name":"District de la Riviera-Pays-d'Enhaut"},"canton":{"key":"22","code":"VD","name":"Vaud"},"status":"Real"},{"key":"10055025","name":"Route de Fenil","postalCode":"1804","locality":"Corsier-sur-Vevey","commune":{"key":"5884","name":"Corsier-sur-Vevey","shortName":"Corsier-sur-Vevey"},"district":{"key":"2230","name":"District de la Riviera-Pays-d'Enhaut"},"canton":{"key":"22","code":"VD","name":"Vaud"},"status":"Real"},{"key":"10050159","name":"Route de l'Esplanade","postalCode":"1804","locality":"Corsier-sur-Vevey","commune":{"key":"5884","name":"Corsier-sur-Vevey","shortName":"Corsier-sur-Vevey"},"district":{"key":"2230","name":"District de la Riviera-Pays-d'Enhaut"},"canton":{"key":"22","code":"VD","name":"Vaud"},"status":"Real"},{"key":"10050158","name":"Route de Nant","postalCode":"1804","locality":"Corsier-sur-Vevey","commune":{"key":"5884","name":"Corsier-sur-Vevey","shortName":"Corsier-sur-Vevey"},"district":{"key":"2230","name":"District de la Riviera-Pays-d'Enhaut"},"canton":{"key":"22","code":"VD","name":"Vaud"},"status":"Real"},{"key":"10050160","name":"Rue Carlo Hemmerling","postalCode":"1804","locality":"Corsier-sur-Vevey","commune":{"key":"5884","name":"Corsier-sur-Vevey","shortName":"Corsier-sur-Vevey"},"district":{"key":"2230","name":"District de la Riviera-Pays-d'Enhaut"},"canton":{"key":"22","code":"VD","name":"Vaud"},"status":"Real"},{"key":"10187058","name":"Rue Centrale","postalCode":"1804","locality":"Corsier-sur-Vevey","commune":{"key":"5884","name":"Corsier-sur-Vevey","shortName":"Corsier-sur-Vevey"},"district":{"key":"2230","name":"District de la Riviera-Pays-d'Enhaut"},"canton":{"key":"22","code":"VD","name":"Vaud"},"status":"Real"},{"key":"10092171","name":"Rue de Jaman","postalCode":"1804","locality":"Corsier-sur-Vevey","commune":{"key":"5884","name":"Corsier-sur-Vevey","shortName":"Corsier-sur-Vevey"},"district":{"key":"2230","name":"District de la Riviera-Pays-d'Enhaut"},"canton":{"key":"22","code":"VD","name":"Vaud"},"status":"Real"},{"key":"10050161","name":"Rue des Terreaux","postalCode":"1804","locality":"Corsier-sur-Vevey","commune":{"key":"5884","name":"Corsier-sur-Vevey","shortName":"Corsier-sur-Vevey"},"district":{"key":"2230","name":"District de la Riviera-Pays-d'Enhaut"},"canton":{"key":"22","code":"VD","name":"Vaud"},"status":"Real"},{"key":"10050162","name":"Rue du Château","postalCode":"1804","locality":"Corsier-sur-Vevey","commune":{"key":"5884","name":"Corsier-sur-Vevey","shortName":"Corsier-sur-Vevey"},"district":{"key":"2230","name":"District de la Riviera-Pays-d'Enhaut"},"canton":{"key":"22","code":"VD","name":"Vaud"},"status":"Real"},{"key":"10092172","name":"Rue du Collège","postalCode":"1804","locality":"Corsier-sur-Vevey","commune":{"key":"5884","name":"Corsier-sur-Vevey","shortName":"Corsier-sur-Vevey"},"district":{"key":"2230","name":"District de la Riviera-Pays-d'Enhaut"},"canton":{"key":"22","code":"VD","name":"Vaud"},"status":"Real"},{"key":"10050163","name":"Sentier de Beau-Site","postalCode":"1804","locality":"Corsier-sur-Vevey","commune":{"key":"5884","name":"Corsier-sur-Vevey","shortName":"Corsier-sur-Vevey"},"district":{"key":"2230","name":"District de la Riviera-Pays-d'Enhaut"},"canton":{"key":"22","code":"VD","name":"Vaud"},"status":"Real"},{"key":"10238040","name":"Sentier de Galatry","postalCode":"1804","locality":"Corsier-sur-Vevey","commune":{"key":"5884","name":"Corsier-sur-Vevey","shortName":"Corsier-sur-Vevey"},"district":{"key":"2230","name":"District de la Riviera-Pays-d'Enhaut"},"canton":{"key":"22","code":"VD","name":"Vaud"},"status":"Real"},{"key":"10092173","name":"Sentier de la Condémine","postalCode":"1804","locality":"Corsier-sur-Vevey","commune":{"key":"5884","name":"Corsier-sur-Vevey","shortName":"Corsier-sur-Vevey"},"district":{"key":"2230","name":"District de la Riviera-Pays-d'Enhaut"},"canton":{"key":"22","code":"VD","name":"Vaud"},"status":"Real"},{"key":"10050164","name":"Sentier des Crosets","postalCode":"1804","locality":"Corsier-sur-Vevey","commune":{"key":"5884","name":"Corsier-sur-Vevey","shortName":"Corsier-sur-Vevey"},"district":{"key":"2230","name":"District de la Riviera-Pays-d'Enhaut"},"canton":{"key":"22","code":"VD","name":"Vaud"},"status":"Real"},{"key":"10050165","name":"Sentier du Mont","postalCode":"1804","locality":"Corsier-sur-Vevey","commune":{"key":"5884","name":"Corsier-sur-Vevey","shortName":"Corsier-sur-Vevey"},"district":{"key":"2230","name":"District de la Riviera-Pays-d'Enhaut"},"canton":{"key":"22","code":"VD","name":"Vaud"},"status":"Real"},{"key":"10050166","name":"Sous les Terreaux","postalCode":"1804","locality":"Corsier-sur-Vevey","commune":{"key":"5884","name":"Corsier-sur-Vevey","shortName":"Corsier-sur-Vevey"},"district":{"key":"2230","name":"District de la Riviera-Pays-d'Enhaut"},"canton":{"key":"22","code":"VD","name":"Vaud"},"status":"Real"},{"key":"10076675","name":"Verger de Meruz","postalCode":"1804","locality":"Corsier-sur-Vevey","commune":{"key":"5884","name":"Corsier-sur-Vevey","shortName":"Corsier-sur-Vevey"},"district":{"key":"2230","name":"District de la Riviera-Pays-d'Enhaut"},"canton":{"key":"22","code":"VD","name":"Vaud"},"status":"Real"},]