[{"name":"An der Landstr.","postalCode":"18334","locality":"Eixen","municipality":{"key":"13073022","name":"Eixen","type":"Kreisangehörige_Gemeinde"},"district":{"key":"13073","name":"Vorpommern-Rügen","type":"Landkreis"},"federalState":{"key":"13","name":"Mecklenburg-Vorpommern"}},{"name":"Bad Sülzer Str.","postalCode":"18334","locality":"Eixen","municipality":{"key":"13073022","name":"Eixen","type":"Kreisangehörige_Gemeinde"},"district":{"key":"13073","name":"Vorpommern-Rügen","type":"Landkreis"},"federalState":{"key":"13","name":"Mecklenburg-Vorpommern"}},{"name":"Barther Str.","postalCode":"18334","locality":"Eixen","municipality":{"key":"13073022","name":"Eixen","type":"Kreisangehörige_Gemeinde"},"district":{"key":"13073","name":"Vorpommern-Rügen","type":"Landkreis"},"federalState":{"key":"13","name":"Mecklenburg-Vorpommern"}},{"name":"Bisdorfer Dorfstr.","postalCode":"18334","locality":"Eixen","municipality":{"key":"13073022","name":"Eixen","type":"Kreisangehörige_Gemeinde"},"district":{"key":"13073","name":"Vorpommern-Rügen","type":"Landkreis"},"federalState":{"key":"13","name":"Mecklenburg-Vorpommern"}},{"name":"Dorfstr.","postalCode":"18334","locality":"Eixen","municipality":{"key":"13073022","name":"Eixen","type":"Kreisangehörige_Gemeinde"},"district":{"key":"13073","name":"Vorpommern-Rügen","type":"Landkreis"},"federalState":{"key":"13","name":"Mecklenburg-Vorpommern"}},{"name":"Feldstr.","postalCode":"18334","locality":"Eixen","municipality":{"key":"13073022","name":"Eixen","type":"Kreisangehörige_Gemeinde"},"district":{"key":"13073","name":"Vorpommern-Rügen","type":"Landkreis"},"federalState":{"key":"13","name":"Mecklenburg-Vorpommern"}},{"name":"Gutshofstr.","postalCode":"18334","locality":"Eixen","municipality":{"key":"13073022","name":"Eixen","type":"Kreisangehörige_Gemeinde"},"district":{"key":"13073","name":"Vorpommern-Rügen","type":"Landkreis"},"federalState":{"key":"13","name":"Mecklenburg-Vorpommern"}},{"name":"Hauptstr.","postalCode":"18334","locality":"Eixen","municipality":{"key":"13073022","name":"Eixen","type":"Kreisangehörige_Gemeinde"},"district":{"key":"13073","name":"Vorpommern-Rügen","type":"Landkreis"},"federalState":{"key":"13","name":"Mecklenburg-Vorpommern"}},{"name":"Hof","postalCode":"18334","locality":"Eixen","municipality":{"key":"13073022","name":"Eixen","type":"Kreisangehörige_Gemeinde"},"district":{"key":"13073","name":"Vorpommern-Rügen","type":"Landkreis"},"federalState":{"key":"13","name":"Mecklenburg-Vorpommern"}},{"name":"Hofstr.","postalCode":"18334","locality":"Eixen","municipality":{"key":"13073022","name":"Eixen","type":"Kreisangehörige_Gemeinde"},"district":{"key":"13073","name":"Vorpommern-Rügen","type":"Landkreis"},"federalState":{"key":"13","name":"Mecklenburg-Vorpommern"}},{"name":"Kastanienallee","postalCode":"18334","locality":"Eixen","municipality":{"key":"13073022","name":"Eixen","type":"Kreisangehörige_Gemeinde"},"district":{"key":"13073","name":"Vorpommern-Rügen","type":"Landkreis"},"federalState":{"key":"13","name":"Mecklenburg-Vorpommern"}},{"name":"Salinenstr.","postalCode":"18334","locality":"Eixen","municipality":{"key":"13073022","name":"Eixen","type":"Kreisangehörige_Gemeinde"},"district":{"key":"13073","name":"Vorpommern-Rügen","type":"Landkreis"},"federalState":{"key":"13","name":"Mecklenburg-Vorpommern"}},{"name":"Schlemminer Weg","postalCode":"18334","locality":"Eixen","municipality":{"key":"13073022","name":"Eixen","type":"Kreisangehörige_Gemeinde"},"district":{"key":"13073","name":"Vorpommern-Rügen","type":"Landkreis"},"federalState":{"key":"13","name":"Mecklenburg-Vorpommern"}},{"name":"Semlower Str.","postalCode":"18334","locality":"Eixen","municipality":{"key":"13073022","name":"Eixen","type":"Kreisangehörige_Gemeinde"},"district":{"key":"13073","name":"Vorpommern-Rügen","type":"Landkreis"},"federalState":{"key":"13","name":"Mecklenburg-Vorpommern"}},{"name":"Stormsdorfer Str.","postalCode":"18334","locality":"Eixen","municipality":{"key":"13073022","name":"Eixen","type":"Kreisangehörige_Gemeinde"},"district":{"key":"13073","name":"Vorpommern-Rügen","type":"Landkreis"},"federalState":{"key":"13","name":"Mecklenburg-Vorpommern"}},{"name":"Tribseeser Str.","postalCode":"18334","locality":"Eixen","municipality":{"key":"13073022","name":"Eixen","type":"Kreisangehörige_Gemeinde"},"district":{"key":"13073","name":"Vorpommern-Rügen","type":"Landkreis"},"federalState":{"key":"13","name":"Mecklenburg-Vorpommern"}},{"name":"Wohsener Dorfstr.","postalCode":"18334","locality":"Eixen","municipality":{"key":"13073022","name":"Eixen","type":"Kreisangehörige_Gemeinde"},"district":{"key":"13073","name":"Vorpommern-Rügen","type":"Landkreis"},"federalState":{"key":"13","name":"Mecklenburg-Vorpommern"}},{"name":"Zum Forsthaus","postalCode":"18334","locality":"Eixen","municipality":{"key":"13073022","name":"Eixen","type":"Kreisangehörige_Gemeinde"},"district":{"key":"13073","name":"Vorpommern-Rügen","type":"Landkreis"},"federalState":{"key":"13","name":"Mecklenburg-Vorpommern"}},{"name":"Zum See","postalCode":"18334","locality":"Eixen","municipality":{"key":"13073022","name":"Eixen","type":"Kreisangehörige_Gemeinde"},"district":{"key":"13073","name":"Vorpommern-Rügen","type":"Landkreis"},"federalState":{"key":"13","name":"Mecklenburg-Vorpommern"}},{"name":"Zur Kirche","postalCode":"18334","locality":"Eixen","municipality":{"key":"13073022","name":"Eixen","type":"Kreisangehörige_Gemeinde"},"district":{"key":"13073","name":"Vorpommern-Rügen","type":"Landkreis"},"federalState":{"key":"13","name":"Mecklenburg-Vorpommern"}},]