[{"name":"Ahornweg","postalCode":"23820","locality":"Pronstorf","municipality":{"key":"01060067","name":"Pronstorf","type":"Kreisangehörige_Gemeinde"},"district":{"key":"01060","name":"Segeberg","type":"Kreis"},"federalState":{"key":"01","name":"Schleswig-Holstein"}},{"name":"Am Bahndamm","postalCode":"23820","locality":"Pronstorf","municipality":{"key":"01060067","name":"Pronstorf","type":"Kreisangehörige_Gemeinde"},"district":{"key":"01060","name":"Segeberg","type":"Kreis"},"federalState":{"key":"01","name":"Schleswig-Holstein"}},{"name":"Am Dorfplatz","postalCode":"23820","locality":"Pronstorf","municipality":{"key":"01060067","name":"Pronstorf","type":"Kreisangehörige_Gemeinde"},"district":{"key":"01060","name":"Segeberg","type":"Kreis"},"federalState":{"key":"01","name":"Schleswig-Holstein"}},{"name":"Am Wald","postalCode":"23820","locality":"Pronstorf","municipality":{"key":"01060067","name":"Pronstorf","type":"Kreisangehörige_Gemeinde"},"district":{"key":"01060","name":"Segeberg","type":"Kreis"},"federalState":{"key":"01","name":"Schleswig-Holstein"}},{"name":"An der Kirche","postalCode":"23820","locality":"Pronstorf","municipality":{"key":"01060067","name":"Pronstorf","type":"Kreisangehörige_Gemeinde"},"district":{"key":"01060","name":"Segeberg","type":"Kreis"},"federalState":{"key":"01","name":"Schleswig-Holstein"}},{"name":"A'n Diek","postalCode":"23820","locality":"Pronstorf","municipality":{"key":"01060067","name":"Pronstorf","type":"Kreisangehörige_Gemeinde"},"district":{"key":"01060","name":"Segeberg","type":"Kreis"},"federalState":{"key":"01","name":"Schleswig-Holstein"}},{"name":"Buchenweg","postalCode":"23820","locality":"Pronstorf","municipality":{"key":"01060067","name":"Pronstorf","type":"Kreisangehörige_Gemeinde"},"district":{"key":"01060","name":"Segeberg","type":"Kreis"},"federalState":{"key":"01","name":"Schleswig-Holstein"}},{"name":"Butterstieg","postalCode":"23820","locality":"Pronstorf","municipality":{"key":"01060067","name":"Pronstorf","type":"Kreisangehörige_Gemeinde"},"district":{"key":"01060","name":"Segeberg","type":"Kreis"},"federalState":{"key":"01","name":"Schleswig-Holstein"}},{"name":"Carl-Stämmler-Weg","postalCode":"23795","locality":"Bad Segeberg","municipality":{"key":"01060005","name":"Bad Segeberg, Stadt","type":"Stadt"},"district":{"key":"01060","name":"Segeberg","type":"Kreis"},"federalState":{"key":"01","name":"Schleswig-Holstein"}},{"name":"Christian-Rohlfs-Str.","postalCode":"23795","locality":"Bad Segeberg","municipality":{"key":"01060005","name":"Bad Segeberg, Stadt","type":"Stadt"},"district":{"key":"01060","name":"Segeberg","type":"Kreis"},"federalState":{"key":"01","name":"Schleswig-Holstein"}},{"name":"Christiansfelde","postalCode":"23795","locality":"Bad Segeberg","municipality":{"key":"01060005","name":"Bad Segeberg, Stadt","type":"Stadt"},"district":{"key":"01060","name":"Segeberg","type":"Kreis"},"federalState":{"key":"01","name":"Schleswig-Holstein"}},{"name":"Dorfstr.","postalCode":"23820","locality":"Pronstorf","municipality":{"key":"01060067","name":"Pronstorf","type":"Kreisangehörige_Gemeinde"},"district":{"key":"01060","name":"Segeberg","type":"Kreis"},"federalState":{"key":"01","name":"Schleswig-Holstein"}},{"name":"Dreiangel","postalCode":"23820","locality":"Pronstorf","municipality":{"key":"01060067","name":"Pronstorf","type":"Kreisangehörige_Gemeinde"},"district":{"key":"01060","name":"Segeberg","type":"Kreis"},"federalState":{"key":"01","name":"Schleswig-Holstein"}},{"name":"Eichenweg","postalCode":"23820","locality":"Pronstorf","municipality":{"key":"01060067","name":"Pronstorf","type":"Kreisangehörige_Gemeinde"},"district":{"key":"01060","name":"Segeberg","type":"Kreis"},"federalState":{"key":"01","name":"Schleswig-Holstein"}},{"name":"Eschenweg","postalCode":"23820","locality":"Pronstorf","municipality":{"key":"01060067","name":"Pronstorf","type":"Kreisangehörige_Gemeinde"},"district":{"key":"01060","name":"Segeberg","type":"Kreis"},"federalState":{"key":"01","name":"Schleswig-Holstein"}},{"name":"Falkenburger Str.","postalCode":"23795","locality":"Bad Segeberg","municipality":{"key":"01060005","name":"Bad Segeberg, Stadt","type":"Stadt"},"district":{"key":"01060","name":"Segeberg","type":"Kreis"},"federalState":{"key":"01","name":"Schleswig-Holstein"}},{"name":"Fehrsweg","postalCode":"23795","locality":"Bad Segeberg","municipality":{"key":"01060005","name":"Bad Segeberg, Stadt","type":"Stadt"},"district":{"key":"01060","name":"Segeberg","type":"Kreis"},"federalState":{"key":"01","name":"Schleswig-Holstein"}},{"name":"Feldstr.","postalCode":"23795","locality":"Bad Segeberg","municipality":{"key":"01060005","name":"Bad Segeberg, Stadt","type":"Stadt"},"district":{"key":"01060","name":"Segeberg","type":"Kreis"},"federalState":{"key":"01","name":"Schleswig-Holstein"}},{"name":"Fliederweg","postalCode":"23795","locality":"Bad Segeberg","municipality":{"key":"01060005","name":"Bad Segeberg, Stadt","type":"Stadt"},"district":{"key":"01060","name":"Segeberg","type":"Kreis"},"federalState":{"key":"01","name":"Schleswig-Holstein"}},{"name":"Fritz-Reuter-Weg","postalCode":"23795","locality":"Bad Segeberg","municipality":{"key":"01060005","name":"Bad Segeberg, Stadt","type":"Stadt"},"district":{"key":"01060","name":"Segeberg","type":"Kreis"},"federalState":{"key":"01","name":"Schleswig-Holstein"}},{"name":"Gartenstr.","postalCode":"23820","locality":"Pronstorf","municipality":{"key":"01060067","name":"Pronstorf","type":"Kreisangehörige_Gemeinde"},"district":{"key":"01060","name":"Segeberg","type":"Kreis"},"federalState":{"key":"01","name":"Schleswig-Holstein"}},{"name":"Gärtnergasse","postalCode":"23820","locality":"Pronstorf","municipality":{"key":"01060067","name":"Pronstorf","type":"Kreisangehörige_Gemeinde"},"district":{"key":"01060","name":"Segeberg","type":"Kreis"},"federalState":{"key":"01","name":"Schleswig-Holstein"}},{"name":"Goldener Hahn","postalCode":"23820","locality":"Pronstorf","municipality":{"key":"01060067","name":"Pronstorf","type":"Kreisangehörige_Gemeinde"},"district":{"key":"01060","name":"Segeberg","type":"Kreis"},"federalState":{"key":"01","name":"Schleswig-Holstein"}},{"name":"Grüner Weg","postalCode":"23820","locality":"Pronstorf","municipality":{"key":"01060067","name":"Pronstorf","type":"Kreisangehörige_Gemeinde"},"district":{"key":"01060","name":"Segeberg","type":"Kreis"},"federalState":{"key":"01","name":"Schleswig-Holstein"}},{"name":"Hauptstr.","postalCode":"23820","locality":"Pronstorf","municipality":{"key":"01060067","name":"Pronstorf","type":"Kreisangehörige_Gemeinde"},"district":{"key":"01060","name":"Segeberg","type":"Kreis"},"federalState":{"key":"01","name":"Schleswig-Holstein"}},{"name":"Heistkampweg","postalCode":"23820","locality":"Pronstorf","municipality":{"key":"01060067","name":"Pronstorf","type":"Kreisangehörige_Gemeinde"},"district":{"key":"01060","name":"Segeberg","type":"Kreis"},"federalState":{"key":"01","name":"Schleswig-Holstein"}},{"name":"Hilbertskamp","postalCode":"23820","locality":"Pronstorf","municipality":{"key":"01060067","name":"Pronstorf","type":"Kreisangehörige_Gemeinde"},"district":{"key":"01060","name":"Segeberg","type":"Kreis"},"federalState":{"key":"01","name":"Schleswig-Holstein"}},{"name":"Im Winkel","postalCode":"23820","locality":"Pronstorf","municipality":{"key":"01060067","name":"Pronstorf","type":"Kreisangehörige_Gemeinde"},"district":{"key":"01060","name":"Segeberg","type":"Kreis"},"federalState":{"key":"01","name":"Schleswig-Holstein"}},{"name":"Jasminstr.","postalCode":"23795","locality":"Bad Segeberg","municipality":{"key":"01060005","name":"Bad Segeberg, Stadt","type":"Stadt"},"district":{"key":"01060","name":"Segeberg","type":"Kreis"},"federalState":{"key":"01","name":"Schleswig-Holstein"}},{"name":"Julius-Leber-Str.","postalCode":"23795","locality":"Bad Segeberg","municipality":{"key":"01060005","name":"Bad Segeberg, Stadt","type":"Stadt"},"district":{"key":"01060","name":"Segeberg","type":"Kreis"},"federalState":{"key":"01","name":"Schleswig-Holstein"}},{"name":"Jürgensweg","postalCode":"23795","locality":"Bad Segeberg","municipality":{"key":"01060005","name":"Bad Segeberg, Stadt","type":"Stadt"},"district":{"key":"01060","name":"Segeberg","type":"Kreis"},"federalState":{"key":"01","name":"Schleswig-Holstein"}},{"name":"Kamp","postalCode":"23820","locality":"Pronstorf","municipality":{"key":"01060067","name":"Pronstorf","type":"Kreisangehörige_Gemeinde"},"district":{"key":"01060","name":"Segeberg","type":"Kreis"},"federalState":{"key":"01","name":"Schleswig-Holstein"}},{"name":"Kastanienweg","postalCode":"23820","locality":"Pronstorf","municipality":{"key":"01060067","name":"Pronstorf","type":"Kreisangehörige_Gemeinde"},"district":{"key":"01060","name":"Segeberg","type":"Kreis"},"federalState":{"key":"01","name":"Schleswig-Holstein"}},{"name":"Kornhof","postalCode":"23820","locality":"Pronstorf","municipality":{"key":"01060067","name":"Pronstorf","type":"Kreisangehörige_Gemeinde"},"district":{"key":"01060","name":"Segeberg","type":"Kreis"},"federalState":{"key":"01","name":"Schleswig-Holstein"}},{"name":"Landstr.","postalCode":"23820","locality":"Pronstorf","municipality":{"key":"01060067","name":"Pronstorf","type":"Kreisangehörige_Gemeinde"},"district":{"key":"01060","name":"Segeberg","type":"Kreis"},"federalState":{"key":"01","name":"Schleswig-Holstein"}},{"name":"Ligusterstr.","postalCode":"23820","locality":"Pronstorf","municipality":{"key":"01060067","name":"Pronstorf","type":"Kreisangehörige_Gemeinde"},"district":{"key":"01060","name":"Segeberg","type":"Kreis"},"federalState":{"key":"01","name":"Schleswig-Holstein"}},{"name":"Lindenstr.","postalCode":"23820","locality":"Pronstorf","municipality":{"key":"01060067","name":"Pronstorf","type":"Kreisangehörige_Gemeinde"},"district":{"key":"01060","name":"Segeberg","type":"Kreis"},"federalState":{"key":"01","name":"Schleswig-Holstein"}},{"name":"Löthenweg","postalCode":"23820","locality":"Pronstorf","municipality":{"key":"01060067","name":"Pronstorf","type":"Kreisangehörige_Gemeinde"},"district":{"key":"01060","name":"Segeberg","type":"Kreis"},"federalState":{"key":"01","name":"Schleswig-Holstein"}},{"name":"Moorweg","postalCode":"23820","locality":"Pronstorf","municipality":{"key":"01060067","name":"Pronstorf","type":"Kreisangehörige_Gemeinde"},"district":{"key":"01060","name":"Segeberg","type":"Kreis"},"federalState":{"key":"01","name":"Schleswig-Holstein"}},{"name":"Mühlenstr.","postalCode":"23820","locality":"Pronstorf","municipality":{"key":"01060067","name":"Pronstorf","type":"Kreisangehörige_Gemeinde"},"district":{"key":"01060","name":"Segeberg","type":"Kreis"},"federalState":{"key":"01","name":"Schleswig-Holstein"}},{"name":"Neukoppeler Str.","postalCode":"23820","locality":"Pronstorf","municipality":{"key":"01060067","name":"Pronstorf","type":"Kreisangehörige_Gemeinde"},"district":{"key":"01060","name":"Segeberg","type":"Kreis"},"federalState":{"key":"01","name":"Schleswig-Holstein"}},{"name":"Oberbergstr.","postalCode":"23795","locality":"Bad Segeberg","municipality":{"key":"01060005","name":"Bad Segeberg, Stadt","type":"Stadt"},"district":{"key":"01060","name":"Segeberg","type":"Kreis"},"federalState":{"key":"01","name":"Schleswig-Holstein"}},{"name":"Oldesloer Str.","postalCode":"23795","locality":"Bad Segeberg","municipality":{"key":"01060005","name":"Bad Segeberg, Stadt","type":"Stadt"},"district":{"key":"01060","name":"Segeberg","type":"Kreis"},"federalState":{"key":"01","name":"Schleswig-Holstein"}},{"name":"Ostlandstr.","postalCode":"23795","locality":"Bad Segeberg","municipality":{"key":"01060005","name":"Bad Segeberg, Stadt","type":"Stadt"},"district":{"key":"01060","name":"Segeberg","type":"Kreis"},"federalState":{"key":"01","name":"Schleswig-Holstein"}},{"name":"Ostpreußenstr.","postalCode":"23795","locality":"Bad Segeberg","municipality":{"key":"01060005","name":"Bad Segeberg, Stadt","type":"Stadt"},"district":{"key":"01060","name":"Segeberg","type":"Kreis"},"federalState":{"key":"01","name":"Schleswig-Holstein"}},{"name":"Otto-Flath-Str.","postalCode":"23795","locality":"Bad Segeberg","municipality":{"key":"01060005","name":"Bad Segeberg, Stadt","type":"Stadt"},"district":{"key":"01060","name":"Segeberg","type":"Kreis"},"federalState":{"key":"01","name":"Schleswig-Holstein"}},{"name":"Pappelweg","postalCode":"23820","locality":"Pronstorf","municipality":{"key":"01060067","name":"Pronstorf","type":"Kreisangehörige_Gemeinde"},"district":{"key":"01060","name":"Segeberg","type":"Kreis"},"federalState":{"key":"01","name":"Schleswig-Holstein"}},{"name":"Pronsdorfer Weg","postalCode":"23820","locality":"Pronstorf","municipality":{"key":"01060067","name":"Pronstorf","type":"Kreisangehörige_Gemeinde"},"district":{"key":"01060","name":"Segeberg","type":"Kreis"},"federalState":{"key":"01","name":"Schleswig-Holstein"}},{"name":"Pronstorfer Str.","postalCode":"23820","locality":"Pronstorf","municipality":{"key":"01060067","name":"Pronstorf","type":"Kreisangehörige_Gemeinde"},"district":{"key":"01060","name":"Segeberg","type":"Kreis"},"federalState":{"key":"01","name":"Schleswig-Holstein"}},{"name":"Querweg","postalCode":"23820","locality":"Pronstorf","municipality":{"key":"01060067","name":"Pronstorf","type":"Kreisangehörige_Gemeinde"},"district":{"key":"01060","name":"Segeberg","type":"Kreis"},"federalState":{"key":"01","name":"Schleswig-Holstein"}},{"name":"Reinsbeker Str.","postalCode":"23820","locality":"Pronstorf","municipality":{"key":"01060067","name":"Pronstorf","type":"Kreisangehörige_Gemeinde"},"district":{"key":"01060","name":"Segeberg","type":"Kreis"},"federalState":{"key":"01","name":"Schleswig-Holstein"}},{"name":"Schippbrookredder","postalCode":"23820","locality":"Pronstorf","municipality":{"key":"01060067","name":"Pronstorf","type":"Kreisangehörige_Gemeinde"},"district":{"key":"01060","name":"Segeberg","type":"Kreis"},"federalState":{"key":"01","name":"Schleswig-Holstein"}},{"name":"Schmiederedder","postalCode":"23820","locality":"Pronstorf","municipality":{"key":"01060067","name":"Pronstorf","type":"Kreisangehörige_Gemeinde"},"district":{"key":"01060","name":"Segeberg","type":"Kreis"},"federalState":{"key":"01","name":"Schleswig-Holstein"}},{"name":"Schneiderweg","postalCode":"23820","locality":"Pronstorf","municipality":{"key":"01060067","name":"Pronstorf","type":"Kreisangehörige_Gemeinde"},"district":{"key":"01060","name":"Segeberg","type":"Kreis"},"federalState":{"key":"01","name":"Schleswig-Holstein"}},{"name":"Schwarzer Weg","postalCode":"23820","locality":"Pronstorf","municipality":{"key":"01060067","name":"Pronstorf","type":"Kreisangehörige_Gemeinde"},"district":{"key":"01060","name":"Segeberg","type":"Kreis"},"federalState":{"key":"01","name":"Schleswig-Holstein"}},{"name":"Steenkamp","postalCode":"23820","locality":"Pronstorf","municipality":{"key":"01060067","name":"Pronstorf","type":"Kreisangehörige_Gemeinde"},"district":{"key":"01060","name":"Segeberg","type":"Kreis"},"federalState":{"key":"01","name":"Schleswig-Holstein"}},{"name":"Steinrade","postalCode":"23820","locality":"Pronstorf","municipality":{"key":"01060067","name":"Pronstorf","type":"Kreisangehörige_Gemeinde"},"district":{"key":"01060","name":"Segeberg","type":"Kreis"},"federalState":{"key":"01","name":"Schleswig-Holstein"}},{"name":"Teichstr.","postalCode":"23820","locality":"Pronstorf","municipality":{"key":"01060067","name":"Pronstorf","type":"Kreisangehörige_Gemeinde"},"district":{"key":"01060","name":"Segeberg","type":"Kreis"},"federalState":{"key":"01","name":"Schleswig-Holstein"}},{"name":"Torfredder","postalCode":"23820","locality":"Pronstorf","municipality":{"key":"01060067","name":"Pronstorf","type":"Kreisangehörige_Gemeinde"},"district":{"key":"01060","name":"Segeberg","type":"Kreis"},"federalState":{"key":"01","name":"Schleswig-Holstein"}},{"name":"Vogtkamp","postalCode":"23795","locality":"Bad Segeberg","municipality":{"key":"01060005","name":"Bad Segeberg, Stadt","type":"Stadt"},"district":{"key":"01060","name":"Segeberg","type":"Kreis"},"federalState":{"key":"01","name":"Schleswig-Holstein"}},{"name":"Waldweg","postalCode":"23820","locality":"Pronstorf","municipality":{"key":"01060067","name":"Pronstorf","type":"Kreisangehörige_Gemeinde"},"district":{"key":"01060","name":"Segeberg","type":"Kreis"},"federalState":{"key":"01","name":"Schleswig-Holstein"}},{"name":"Westerrader Weg","postalCode":"23820","locality":"Pronstorf","municipality":{"key":"01060067","name":"Pronstorf","type":"Kreisangehörige_Gemeinde"},"district":{"key":"01060","name":"Segeberg","type":"Kreis"},"federalState":{"key":"01","name":"Schleswig-Holstein"}},{"name":"Wieschhof","postalCode":"23820","locality":"Pronstorf","municipality":{"key":"01060067","name":"Pronstorf","type":"Kreisangehörige_Gemeinde"},"district":{"key":"01060","name":"Segeberg","type":"Kreis"},"federalState":{"key":"01","name":"Schleswig-Holstein"}},{"name":"Zum Wiesengrund","postalCode":"23820","locality":"Pronstorf","municipality":{"key":"01060067","name":"Pronstorf","type":"Kreisangehörige_Gemeinde"},"district":{"key":"01060","name":"Segeberg","type":"Kreis"},"federalState":{"key":"01","name":"Schleswig-Holstein"}},]