[{"name":"Am Bildstock","postalCode":"55430","locality":"Perscheid","municipality":{"key":"07140116","name":"Perscheid","type":"Kreisangehörige_Gemeinde"},"district":{"key":"07140","name":"Rhein-Hunsrück-Kreis","type":"Landkreis"},"federalState":{"key":"07","name":"Rheinland-Pfalz"}},{"name":"Am Dorfbrunnen","postalCode":"55430","locality":"Perscheid","municipality":{"key":"07140116","name":"Perscheid","type":"Kreisangehörige_Gemeinde"},"district":{"key":"07140","name":"Rhein-Hunsrück-Kreis","type":"Landkreis"},"federalState":{"key":"07","name":"Rheinland-Pfalz"}},{"name":"Am Eichelweg","postalCode":"55430","locality":"Perscheid","municipality":{"key":"07140116","name":"Perscheid","type":"Kreisangehörige_Gemeinde"},"district":{"key":"07140","name":"Rhein-Hunsrück-Kreis","type":"Landkreis"},"federalState":{"key":"07","name":"Rheinland-Pfalz"}},{"name":"Am Südwall","postalCode":"55430","locality":"Perscheid","municipality":{"key":"07140116","name":"Perscheid","type":"Kreisangehörige_Gemeinde"},"district":{"key":"07140","name":"Rhein-Hunsrück-Kreis","type":"Landkreis"},"federalState":{"key":"07","name":"Rheinland-Pfalz"}},{"name":"Gebückpfad","postalCode":"55430","locality":"Perscheid","municipality":{"key":"07140116","name":"Perscheid","type":"Kreisangehörige_Gemeinde"},"district":{"key":"07140","name":"Rhein-Hunsrück-Kreis","type":"Landkreis"},"federalState":{"key":"07","name":"Rheinland-Pfalz"}},{"name":"Graulpfad","postalCode":"55430","locality":"Perscheid","municipality":{"key":"07140116","name":"Perscheid","type":"Kreisangehörige_Gemeinde"},"district":{"key":"07140","name":"Rhein-Hunsrück-Kreis","type":"Landkreis"},"federalState":{"key":"07","name":"Rheinland-Pfalz"}},{"name":"Hermesweg","postalCode":"55430","locality":"Perscheid","municipality":{"key":"07140116","name":"Perscheid","type":"Kreisangehörige_Gemeinde"},"district":{"key":"07140","name":"Rhein-Hunsrück-Kreis","type":"Landkreis"},"federalState":{"key":"07","name":"Rheinland-Pfalz"}},{"name":"Meilerweg","postalCode":"55430","locality":"Perscheid","municipality":{"key":"07140116","name":"Perscheid","type":"Kreisangehörige_Gemeinde"},"district":{"key":"07140","name":"Rhein-Hunsrück-Kreis","type":"Landkreis"},"federalState":{"key":"07","name":"Rheinland-Pfalz"}},{"name":"Rheingoldstr.","postalCode":"55430","locality":"Perscheid","municipality":{"key":"07140116","name":"Perscheid","type":"Kreisangehörige_Gemeinde"},"district":{"key":"07140","name":"Rhein-Hunsrück-Kreis","type":"Landkreis"},"federalState":{"key":"07","name":"Rheinland-Pfalz"}},{"name":"Römerstr.","postalCode":"55430","locality":"Perscheid","municipality":{"key":"07140116","name":"Perscheid","type":"Kreisangehörige_Gemeinde"},"district":{"key":"07140","name":"Rhein-Hunsrück-Kreis","type":"Landkreis"},"federalState":{"key":"07","name":"Rheinland-Pfalz"}},{"name":"Rosentalblick","postalCode":"55430","locality":"Perscheid","municipality":{"key":"07140116","name":"Perscheid","type":"Kreisangehörige_Gemeinde"},"district":{"key":"07140","name":"Rhein-Hunsrück-Kreis","type":"Landkreis"},"federalState":{"key":"07","name":"Rheinland-Pfalz"}},{"name":"St.-Albanus-Weg","postalCode":"55430","locality":"Perscheid","municipality":{"key":"07140116","name":"Perscheid","type":"Kreisangehörige_Gemeinde"},"district":{"key":"07140","name":"Rhein-Hunsrück-Kreis","type":"Landkreis"},"federalState":{"key":"07","name":"Rheinland-Pfalz"}},]