[{"name":"Alte Dorfstr.","postalCode":"21493","locality":"Grove","municipality":{"key":"01053045","name":"Grove","type":"Kreisangehörige_Gemeinde"},"district":{"key":"01053","name":"Herzogtum Lauenburg","type":"Kreis"},"federalState":{"key":"01","name":"Schleswig-Holstein"}},{"name":"Am Wiesengrund","postalCode":"21493","locality":"Grove","municipality":{"key":"01053045","name":"Grove","type":"Kreisangehörige_Gemeinde"},"district":{"key":"01053","name":"Herzogtum Lauenburg","type":"Kreis"},"federalState":{"key":"01","name":"Schleswig-Holstein"}},{"name":"Dorfstr.","postalCode":"25764","locality":"Hillgroven","municipality":{"key":"01051050","name":"Hillgroven","type":"Kreisangehörige_Gemeinde"},"district":{"key":"01051","name":"Dithmarschen","type":"Kreis"},"federalState":{"key":"01","name":"Schleswig-Holstein"}},{"name":"Groven","postalCode":"25774","locality":"Groven","municipality":{"key":"01051038","name":"Groven","type":"Kreisangehörige_Gemeinde"},"district":{"key":"01051","name":"Dithmarschen","type":"Kreis"},"federalState":{"key":"01","name":"Schleswig-Holstein"}},{"name":"Hochgrovener Weg","postalCode":"25774","locality":"Groven","municipality":{"key":"01051038","name":"Groven","type":"Kreisangehörige_Gemeinde"},"district":{"key":"01051","name":"Dithmarschen","type":"Kreis"},"federalState":{"key":"01","name":"Schleswig-Holstein"}},{"name":"Kastanienallee","postalCode":"21493","locality":"Grove","municipality":{"key":"01053045","name":"Grove","type":"Kreisangehörige_Gemeinde"},"district":{"key":"01053","name":"Herzogtum Lauenburg","type":"Kreis"},"federalState":{"key":"01","name":"Schleswig-Holstein"}},{"name":"Mahde","postalCode":"25774","locality":"Groven","municipality":{"key":"01051038","name":"Groven","type":"Kreisangehörige_Gemeinde"},"district":{"key":"01051","name":"Dithmarschen","type":"Kreis"},"federalState":{"key":"01","name":"Schleswig-Holstein"}},{"name":"Nesserdeich","postalCode":"25774","locality":"Groven","municipality":{"key":"01051038","name":"Groven","type":"Kreisangehörige_Gemeinde"},"district":{"key":"01051","name":"Dithmarschen","type":"Kreis"},"federalState":{"key":"01","name":"Schleswig-Holstein"}},{"name":"Ottenkrogsweg","postalCode":"25774","locality":"Groven","municipality":{"key":"01051038","name":"Groven","type":"Kreisangehörige_Gemeinde"},"district":{"key":"01051","name":"Dithmarschen","type":"Kreis"},"federalState":{"key":"01","name":"Schleswig-Holstein"}},{"name":"Schäferkamp","postalCode":"21493","locality":"Grove","municipality":{"key":"01053045","name":"Grove","type":"Kreisangehörige_Gemeinde"},"district":{"key":"01053","name":"Herzogtum Lauenburg","type":"Kreis"},"federalState":{"key":"01","name":"Schleswig-Holstein"}},{"name":"Schulstr.","postalCode":"21493","locality":"Grove","municipality":{"key":"01053045","name":"Grove","type":"Kreisangehörige_Gemeinde"},"district":{"key":"01053","name":"Herzogtum Lauenburg","type":"Kreis"},"federalState":{"key":"01","name":"Schleswig-Holstein"}},{"name":"Siddeldeich","postalCode":"25764","locality":"Hillgroven","municipality":{"key":"01051050","name":"Hillgroven","type":"Kreisangehörige_Gemeinde"},"district":{"key":"01051","name":"Dithmarschen","type":"Kreis"},"federalState":{"key":"01","name":"Schleswig-Holstein"}},{"name":"Steinautal","postalCode":"21493","locality":"Grove","municipality":{"key":"01053045","name":"Grove","type":"Kreisangehörige_Gemeinde"},"district":{"key":"01053","name":"Herzogtum Lauenburg","type":"Kreis"},"federalState":{"key":"01","name":"Schleswig-Holstein"}},{"name":"Totenweg","postalCode":"21493","locality":"Grove","municipality":{"key":"01053045","name":"Grove","type":"Kreisangehörige_Gemeinde"},"district":{"key":"01053","name":"Herzogtum Lauenburg","type":"Kreis"},"federalState":{"key":"01","name":"Schleswig-Holstein"}},{"name":"Vor den Höfen","postalCode":"21493","locality":"Grove","municipality":{"key":"01053045","name":"Grove","type":"Kreisangehörige_Gemeinde"},"district":{"key":"01053","name":"Herzogtum Lauenburg","type":"Kreis"},"federalState":{"key":"01","name":"Schleswig-Holstein"}},{"name":"Wollersum","postalCode":"25774","locality":"Groven","municipality":{"key":"01051038","name":"Groven","type":"Kreisangehörige_Gemeinde"},"district":{"key":"01051","name":"Dithmarschen","type":"Kreis"},"federalState":{"key":"01","name":"Schleswig-Holstein"}},]