[{"key":"10190438","name":"Chemin Champ-des-Pierres","postalCode":"1052","locality":"Le Mont-sur-Lausanne","commune":{"key":"5587","name":"Le Mont-sur-Lausanne","shortName":"Le Mont-sur-Lausanne"},"district":{"key":"2225","name":"District de Lausanne"},"canton":{"key":"22","code":"VD","name":"Vaud"},"status":"Real"},{"key":"10044462","name":"Chemin Creux","postalCode":"1052","locality":"Le Mont-sur-Lausanne","commune":{"key":"5587","name":"Le Mont-sur-Lausanne","shortName":"Le Mont-sur-Lausanne"},"district":{"key":"2225","name":"District de Lausanne"},"canton":{"key":"22","code":"VD","name":"Vaud"},"status":"Real"},{"key":"10093718","name":"Chemin de Bellevue","postalCode":"1052","locality":"Le Mont-sur-Lausanne","commune":{"key":"5587","name":"Le Mont-sur-Lausanne","shortName":"Le Mont-sur-Lausanne"},"district":{"key":"2225","name":"District de Lausanne"},"canton":{"key":"22","code":"VD","name":"Vaud"},"status":"Real"},{"key":"10080174","name":"Chemin de Budron A","postalCode":"1052","locality":"Le Mont-sur-Lausanne","commune":{"key":"5587","name":"Le Mont-sur-Lausanne","shortName":"Le Mont-sur-Lausanne"},"district":{"key":"2225","name":"District de Lausanne"},"canton":{"key":"22","code":"VD","name":"Vaud"},"status":"Real"},{"key":"10040288","name":"Chemin de Budron B","postalCode":"1052","locality":"Le Mont-sur-Lausanne","commune":{"key":"5587","name":"Le Mont-sur-Lausanne","shortName":"Le Mont-sur-Lausanne"},"district":{"key":"2225","name":"District de Lausanne"},"canton":{"key":"22","code":"VD","name":"Vaud"},"status":"Real"},{"key":"10093716","name":"Chemin de Budron C","postalCode":"1052","locality":"Le Mont-sur-Lausanne","commune":{"key":"5587","name":"Le Mont-sur-Lausanne","shortName":"Le Mont-sur-Lausanne"},"district":{"key":"2225","name":"District de Lausanne"},"canton":{"key":"22","code":"VD","name":"Vaud"},"status":"Real"},{"key":"10047013","name":"Chemin de Budron D","postalCode":"1052","locality":"Le Mont-sur-Lausanne","commune":{"key":"5587","name":"Le Mont-sur-Lausanne","shortName":"Le Mont-sur-Lausanne"},"district":{"key":"2225","name":"District de Lausanne"},"canton":{"key":"22","code":"VD","name":"Vaud"},"status":"Real"},{"key":"10044459","name":"Chemin de Budron E","postalCode":"1052","locality":"Le Mont-sur-Lausanne","commune":{"key":"5587","name":"Le Mont-sur-Lausanne","shortName":"Le Mont-sur-Lausanne"},"district":{"key":"2225","name":"District de Lausanne"},"canton":{"key":"22","code":"VD","name":"Vaud"},"status":"Real"},{"key":"10044460","name":"Chemin de Budron F","postalCode":"1052","locality":"Le Mont-sur-Lausanne","commune":{"key":"5587","name":"Le Mont-sur-Lausanne","shortName":"Le Mont-sur-Lausanne"},"district":{"key":"2225","name":"District de Lausanne"},"canton":{"key":"22","code":"VD","name":"Vaud"},"status":"Real"},{"key":"10044461","name":"Chemin de Budron G","postalCode":"1052","locality":"Le Mont-sur-Lausanne","commune":{"key":"5587","name":"Le Mont-sur-Lausanne","shortName":"Le Mont-sur-Lausanne"},"district":{"key":"2225","name":"District de Lausanne"},"canton":{"key":"22","code":"VD","name":"Vaud"},"status":"Real"},{"key":"10102178","name":"Chemin de Budron H","postalCode":"1052","locality":"Le Mont-sur-Lausanne","commune":{"key":"5587","name":"Le Mont-sur-Lausanne","shortName":"Le Mont-sur-Lausanne"},"district":{"key":"2225","name":"District de Lausanne"},"canton":{"key":"22","code":"VD","name":"Vaud"},"status":"Real"},{"key":"10044464","name":"Chemin de Champ-Soleil","postalCode":"1052","locality":"Le Mont-sur-Lausanne","commune":{"key":"5587","name":"Le Mont-sur-Lausanne","shortName":"Le Mont-sur-Lausanne"},"district":{"key":"2225","name":"District de Lausanne"},"canton":{"key":"22","code":"VD","name":"Vaud"},"status":"Real"},{"key":"10093719","name":"Chemin de Chantemerle","postalCode":"1052","locality":"Le Mont-sur-Lausanne","commune":{"key":"5587","name":"Le Mont-sur-Lausanne","shortName":"Le Mont-sur-Lausanne"},"district":{"key":"2225","name":"District de Lausanne"},"canton":{"key":"22","code":"VD","name":"Vaud"},"status":"Real"},{"key":"10047015","name":"Chemin de Chatifeuillet","postalCode":"1052","locality":"Le Mont-sur-Lausanne","commune":{"key":"5587","name":"Le Mont-sur-Lausanne","shortName":"Le Mont-sur-Lausanne"},"district":{"key":"2225","name":"District de Lausanne"},"canton":{"key":"22","code":"VD","name":"Vaud"},"status":"Real"},{"key":"10080175","name":"Chemin de Fontanney","postalCode":"1052","locality":"Le Mont-sur-Lausanne","commune":{"key":"5587","name":"Le Mont-sur-Lausanne","shortName":"Le Mont-sur-Lausanne"},"district":{"key":"2225","name":"District de Lausanne"},"canton":{"key":"22","code":"VD","name":"Vaud"},"status":"Real"},{"key":"10044469","name":"Chemin de Haute-Brise","postalCode":"1052","locality":"Le Mont-sur-Lausanne","commune":{"key":"5587","name":"Le Mont-sur-Lausanne","shortName":"Le Mont-sur-Lausanne"},"district":{"key":"2225","name":"District de Lausanne"},"canton":{"key":"22","code":"VD","name":"Vaud"},"status":"Real"},{"key":"10180841","name":"Chemin de Jorattez","postalCode":"1052","locality":"Le Mont-sur-Lausanne","commune":{"key":"5587","name":"Le Mont-sur-Lausanne","shortName":"Le Mont-sur-Lausanne"},"district":{"key":"2225","name":"District de Lausanne"},"canton":{"key":"22","code":"VD","name":"Vaud"},"status":"Real"},{"key":"10080176","name":"Chemin de la Cazon","postalCode":"1052","locality":"Le Mont-sur-Lausanne","commune":{"key":"5587","name":"Le Mont-sur-Lausanne","shortName":"Le Mont-sur-Lausanne"},"district":{"key":"2225","name":"District de Lausanne"},"canton":{"key":"22","code":"VD","name":"Vaud"},"status":"Real"},{"key":"10093717","name":"Chemin de la Côte-à-Deux-Sous","postalCode":"1052","locality":"Le Mont-sur-Lausanne","commune":{"key":"5587","name":"Le Mont-sur-Lausanne","shortName":"Le Mont-sur-Lausanne"},"district":{"key":"2225","name":"District de Lausanne"},"canton":{"key":"22","code":"VD","name":"Vaud"},"status":"Real"},{"key":"10044468","name":"Chemin de la Croix","postalCode":"1052","locality":"Le Mont-sur-Lausanne","commune":{"key":"5587","name":"Le Mont-sur-Lausanne","shortName":"Le Mont-sur-Lausanne"},"district":{"key":"2225","name":"District de Lausanne"},"canton":{"key":"22","code":"VD","name":"Vaud"},"status":"Real"},{"key":"10093721","name":"Chemin de la Dépale","postalCode":"1052","locality":"Le Mont-sur-Lausanne","commune":{"key":"5587","name":"Le Mont-sur-Lausanne","shortName":"Le Mont-sur-Lausanne"},"district":{"key":"2225","name":"District de Lausanne"},"canton":{"key":"22","code":"VD","name":"Vaud"},"status":"Real"},{"key":"10116868","name":"Chemin de la Farandole","postalCode":"1052","locality":"Le Mont-sur-Lausanne","commune":{"key":"5587","name":"Le Mont-sur-Lausanne","shortName":"Le Mont-sur-Lausanne"},"district":{"key":"2225","name":"District de Lausanne"},"canton":{"key":"22","code":"VD","name":"Vaud"},"status":"Real"},{"key":"10149437","name":"Chemin de la Fontaine-des-Meules","postalCode":"1052","locality":"Le Mont-sur-Lausanne","commune":{"key":"5587","name":"Le Mont-sur-Lausanne","shortName":"Le Mont-sur-Lausanne"},"district":{"key":"2225","name":"District de Lausanne"},"canton":{"key":"22","code":"VD","name":"Vaud"},"status":"Real"},{"key":"10047017","name":"Chemin de la Forêt","postalCode":"1052","locality":"Le Mont-sur-Lausanne","commune":{"key":"5587","name":"Le Mont-sur-Lausanne","shortName":"Le Mont-sur-Lausanne"},"district":{"key":"2225","name":"District de Lausanne"},"canton":{"key":"22","code":"VD","name":"Vaud"},"status":"Real"},{"key":"10154013","name":"Chemin de la Grangette","postalCode":"1052","locality":"Le Mont-sur-Lausanne","commune":{"key":"5587","name":"Le Mont-sur-Lausanne","shortName":"Le Mont-sur-Lausanne"},"district":{"key":"2225","name":"District de Lausanne"},"canton":{"key":"22","code":"VD","name":"Vaud"},"status":"Real"},{"key":"10093722","name":"Chemin de la Lanterne","postalCode":"1052","locality":"Le Mont-sur-Lausanne","commune":{"key":"5587","name":"Le Mont-sur-Lausanne","shortName":"Le Mont-sur-Lausanne"},"district":{"key":"2225","name":"District de Lausanne"},"canton":{"key":"22","code":"VD","name":"Vaud"},"status":"Real"},{"key":"10044471","name":"Chemin de la Marchaude","postalCode":"1052","locality":"Le Mont-sur-Lausanne","commune":{"key":"5587","name":"Le Mont-sur-Lausanne","shortName":"Le Mont-sur-Lausanne"},"district":{"key":"2225","name":"District de Lausanne"},"canton":{"key":"22","code":"VD","name":"Vaud"},"status":"Real"},{"key":"10080177","name":"Chemin de la Marjolatte","postalCode":"1052","locality":"Le Mont-sur-Lausanne","commune":{"key":"5587","name":"Le Mont-sur-Lausanne","shortName":"Le Mont-sur-Lausanne"},"district":{"key":"2225","name":"District de Lausanne"},"canton":{"key":"22","code":"VD","name":"Vaud"},"status":"Real"},{"key":"10044472","name":"Chemin de la Millière","postalCode":"1052","locality":"Le Mont-sur-Lausanne","commune":{"key":"5587","name":"Le Mont-sur-Lausanne","shortName":"Le Mont-sur-Lausanne"},"district":{"key":"2225","name":"District de Lausanne"},"canton":{"key":"22","code":"VD","name":"Vaud"},"status":"Real"},{"key":"10093723","name":"Chemin de la Naz","postalCode":"1052","locality":"Le Mont-sur-Lausanne","commune":{"key":"5587","name":"Le Mont-sur-Lausanne","shortName":"Le Mont-sur-Lausanne"},"district":{"key":"2225","name":"District de Lausanne"},"canton":{"key":"22","code":"VD","name":"Vaud"},"status":"Real"},{"key":"10044473","name":"Chemin de la Perrause","postalCode":"1052","locality":"Le Mont-sur-Lausanne","commune":{"key":"5587","name":"Le Mont-sur-Lausanne","shortName":"Le Mont-sur-Lausanne"},"district":{"key":"2225","name":"District de Lausanne"},"canton":{"key":"22","code":"VD","name":"Vaud"},"status":"Real"},{"key":"10093724","name":"Chemin de la Picholette","postalCode":"1052","locality":"Le Mont-sur-Lausanne","commune":{"key":"5587","name":"Le Mont-sur-Lausanne","shortName":"Le Mont-sur-Lausanne"},"district":{"key":"2225","name":"District de Lausanne"},"canton":{"key":"22","code":"VD","name":"Vaud"},"status":"Real"},{"key":"10044474","name":"Chemin de la Praz","postalCode":"1052","locality":"Le Mont-sur-Lausanne","commune":{"key":"5587","name":"Le Mont-sur-Lausanne","shortName":"Le Mont-sur-Lausanne"},"district":{"key":"2225","name":"District de Lausanne"},"canton":{"key":"22","code":"VD","name":"Vaud"},"status":"Real"},{"key":"10044475","name":"Chemin de la Roche","postalCode":"1052","locality":"Le Mont-sur-Lausanne","commune":{"key":"5587","name":"Le Mont-sur-Lausanne","shortName":"Le Mont-sur-Lausanne"},"district":{"key":"2225","name":"District de Lausanne"},"canton":{"key":"22","code":"VD","name":"Vaud"},"status":"Real"},{"key":"10080178","name":"Chemin de la Tuilière","postalCode":"1052","locality":"Le Mont-sur-Lausanne","commune":{"key":"5587","name":"Le Mont-sur-Lausanne","shortName":"Le Mont-sur-Lausanne"},"district":{"key":"2225","name":"District de Lausanne"},"canton":{"key":"22","code":"VD","name":"Vaud"},"status":"Real"},{"key":"10044476","name":"Chemin de la Valleyre","postalCode":"1052","locality":"Le Mont-sur-Lausanne","commune":{"key":"5587","name":"Le Mont-sur-Lausanne","shortName":"Le Mont-sur-Lausanne"},"district":{"key":"2225","name":"District de Lausanne"},"canton":{"key":"22","code":"VD","name":"Vaud"},"status":"Real"},{"key":"10093725","name":"Chemin de la Viane","postalCode":"1052","locality":"Le Mont-sur-Lausanne","commune":{"key":"5587","name":"Le Mont-sur-Lausanne","shortName":"Le Mont-sur-Lausanne"},"district":{"key":"2225","name":"District de Lausanne"},"canton":{"key":"22","code":"VD","name":"Vaud"},"status":"Real"},{"key":"10047016","name":"Chemin de l'Esplanade","postalCode":"1052","locality":"Le Mont-sur-Lausanne","commune":{"key":"5587","name":"Le Mont-sur-Lausanne","shortName":"Le Mont-sur-Lausanne"},"district":{"key":"2225","name":"District de Lausanne"},"canton":{"key":"22","code":"VD","name":"Vaud"},"status":"Real"},{"key":"10044470","name":"Chemin de Longeraie","postalCode":"1052","locality":"Le Mont-sur-Lausanne","commune":{"key":"5587","name":"Le Mont-sur-Lausanne","shortName":"Le Mont-sur-Lausanne"},"district":{"key":"2225","name":"District de Lausanne"},"canton":{"key":"22","code":"VD","name":"Vaud"},"status":"Real"},{"key":"10044465","name":"Chemin de Maillefer","postalCode":"1052","locality":"Le Mont-sur-Lausanne","commune":{"key":"5587","name":"Le Mont-sur-Lausanne","shortName":"Le Mont-sur-Lausanne"},"district":{"key":"2225","name":"District de Lausanne"},"canton":{"key":"22","code":"VD","name":"Vaud"},"status":"Real"},{"key":"10102179","name":"Chemin de Pernessy","postalCode":"1052","locality":"Le Mont-sur-Lausanne","commune":{"key":"5587","name":"Le Mont-sur-Lausanne","shortName":"Le Mont-sur-Lausanne"},"district":{"key":"2225","name":"District de Lausanne"},"canton":{"key":"22","code":"VD","name":"Vaud"},"status":"Real"},{"key":"10044466","name":"Chemin de Praz-Longet","postalCode":"1052","locality":"Le Mont-sur-Lausanne","commune":{"key":"5587","name":"Le Mont-sur-Lausanne","shortName":"Le Mont-sur-Lausanne"},"district":{"key":"2225","name":"District de Lausanne"},"canton":{"key":"22","code":"VD","name":"Vaud"},"status":"Real"},{"key":"10093720","name":"Chemin de Praz-Mandry","postalCode":"1052","locality":"Le Mont-sur-Lausanne","commune":{"key":"5587","name":"Le Mont-sur-Lausanne","shortName":"Le Mont-sur-Lausanne"},"district":{"key":"2225","name":"District de Lausanne"},"canton":{"key":"22","code":"VD","name":"Vaud"},"status":"Real"},{"key":"10044467","name":"Chemin de Pré-Marin","postalCode":"1052","locality":"Le Mont-sur-Lausanne","commune":{"key":"5587","name":"Le Mont-sur-Lausanne","shortName":"Le Mont-sur-Lausanne"},"district":{"key":"2225","name":"District de Lausanne"},"canton":{"key":"22","code":"VD","name":"Vaud"},"status":"Real"},{"key":"10044477","name":"Chemin des Bouleaux","postalCode":"1052","locality":"Le Mont-sur-Lausanne","commune":{"key":"5587","name":"Le Mont-sur-Lausanne","shortName":"Le Mont-sur-Lausanne"},"district":{"key":"2225","name":"District de Lausanne"},"canton":{"key":"22","code":"VD","name":"Vaud"},"status":"Real"},{"key":"10180842","name":"Chemin des Bouvreuils","postalCode":"1052","locality":"Le Mont-sur-Lausanne","commune":{"key":"5587","name":"Le Mont-sur-Lausanne","shortName":"Le Mont-sur-Lausanne"},"district":{"key":"2225","name":"District de Lausanne"},"canton":{"key":"22","code":"VD","name":"Vaud"},"status":"Real"},{"key":"10093726","name":"Chemin des Buchilles","postalCode":"1052","locality":"Le Mont-sur-Lausanne","commune":{"key":"5587","name":"Le Mont-sur-Lausanne","shortName":"Le Mont-sur-Lausanne"},"district":{"key":"2225","name":"District de Lausanne"},"canton":{"key":"22","code":"VD","name":"Vaud"},"status":"Real"},{"key":"10106959","name":"Chemin des Cerisiers","postalCode":"1052","locality":"Le Mont-sur-Lausanne","commune":{"key":"5587","name":"Le Mont-sur-Lausanne","shortName":"Le Mont-sur-Lausanne"},"district":{"key":"2225","name":"District de Lausanne"},"canton":{"key":"22","code":"VD","name":"Vaud"},"status":"Real"},{"key":"10193948","name":"Chemin des Champs-Meunier","postalCode":"1052","locality":"Le Mont-sur-Lausanne","commune":{"key":"5587","name":"Le Mont-sur-Lausanne","shortName":"Le Mont-sur-Lausanne"},"district":{"key":"2225","name":"District de Lausanne"},"canton":{"key":"22","code":"VD","name":"Vaud"},"status":"Real"},{"key":"10080179","name":"Chemin des Corjons","postalCode":"1052","locality":"Le Mont-sur-Lausanne","commune":{"key":"5587","name":"Le Mont-sur-Lausanne","shortName":"Le Mont-sur-Lausanne"},"district":{"key":"2225","name":"District de Lausanne"},"canton":{"key":"22","code":"VD","name":"Vaud"},"status":"Real"},{"key":"10106960","name":"Place de Coppoz","postalCode":"1052","locality":"Le Mont-sur-Lausanne","commune":{"key":"5587","name":"Le Mont-sur-Lausanne","shortName":"Le Mont-sur-Lausanne"},"district":{"key":"2225","name":"District de Lausanne"},"canton":{"key":"22","code":"VD","name":"Vaud"},"status":"Real"},{"key":"10044764","name":"Place du Grand-Mont","postalCode":"1052","locality":"Le Mont-sur-Lausanne","commune":{"key":"5587","name":"Le Mont-sur-Lausanne","shortName":"Le Mont-sur-Lausanne"},"district":{"key":"2225","name":"District de Lausanne"},"canton":{"key":"22","code":"VD","name":"Vaud"},"status":"Real"},{"key":"10104980","name":"Place du Petit-Mont","postalCode":"1052","locality":"Le Mont-sur-Lausanne","commune":{"key":"5587","name":"Le Mont-sur-Lausanne","shortName":"Le Mont-sur-Lausanne"},"district":{"key":"2225","name":"District de Lausanne"},"canton":{"key":"22","code":"VD","name":"Vaud"},"status":"Real"},{"key":"10255252","name":"Pré Guillaume","postalCode":"1052","locality":"Le Mont-sur-Lausanne","commune":{"key":"5587","name":"Le Mont-sur-Lausanne","shortName":"Le Mont-sur-Lausanne"},"district":{"key":"2225","name":"District de Lausanne"},"canton":{"key":"22","code":"VD","name":"Vaud"},"status":"Real"},{"key":"10149438","name":"Route de Ballègue","postalCode":"1052","locality":"Le Mont-sur-Lausanne","commune":{"key":"5587","name":"Le Mont-sur-Lausanne","shortName":"Le Mont-sur-Lausanne"},"district":{"key":"2225","name":"District de Lausanne"},"canton":{"key":"22","code":"VD","name":"Vaud"},"status":"Real"},{"key":"10149439","name":"Route de Benenté","postalCode":"1052","locality":"Le Mont-sur-Lausanne","commune":{"key":"5587","name":"Le Mont-sur-Lausanne","shortName":"Le Mont-sur-Lausanne"},"district":{"key":"2225","name":"District de Lausanne"},"canton":{"key":"22","code":"VD","name":"Vaud"},"status":"Real"},{"key":"10048054","name":"Route de Coppoz","postalCode":"1052","locality":"Le Mont-sur-Lausanne","commune":{"key":"5587","name":"Le Mont-sur-Lausanne","shortName":"Le Mont-sur-Lausanne"},"district":{"key":"2225","name":"District de Lausanne"},"canton":{"key":"22","code":"VD","name":"Vaud"},"status":"Real"},{"key":"10180844","name":"Route de Cugy","postalCode":"1052","locality":"Le Mont-sur-Lausanne","commune":{"key":"5587","name":"Le Mont-sur-Lausanne","shortName":"Le Mont-sur-Lausanne"},"district":{"key":"2225","name":"District de Lausanne"},"canton":{"key":"22","code":"VD","name":"Vaud"},"status":"Real"},{"key":"10115393","name":"Route de la Blécherette","postalCode":"1052","locality":"Le Mont-sur-Lausanne","commune":{"key":"5587","name":"Le Mont-sur-Lausanne","shortName":"Le Mont-sur-Lausanne"},"district":{"key":"2225","name":"District de Lausanne"},"canton":{"key":"22","code":"VD","name":"Vaud"},"status":"Real"},{"key":"10094009","name":"Route de la Clochatte","postalCode":"1052","locality":"Le Mont-sur-Lausanne","commune":{"key":"5587","name":"Le Mont-sur-Lausanne","shortName":"Le Mont-sur-Lausanne"},"district":{"key":"2225","name":"District de Lausanne"},"canton":{"key":"22","code":"VD","name":"Vaud"},"status":"Real"},{"key":"10094008","name":"Route de Lausanne","postalCode":"1052","locality":"Le Mont-sur-Lausanne","commune":{"key":"5587","name":"Le Mont-sur-Lausanne","shortName":"Le Mont-sur-Lausanne"},"district":{"key":"2225","name":"District de Lausanne"},"canton":{"key":"22","code":"VD","name":"Vaud"},"status":"Real"},{"key":"10102180","name":"Route de Manloud","postalCode":"1052","locality":"Le Mont-sur-Lausanne","commune":{"key":"5587","name":"Le Mont-sur-Lausanne","shortName":"Le Mont-sur-Lausanne"},"district":{"key":"2225","name":"District de Lausanne"},"canton":{"key":"22","code":"VD","name":"Vaud"},"status":"Real"},{"key":"10044765","name":"Route de Penau","postalCode":"1052","locality":"Le Mont-sur-Lausanne","commune":{"key":"5587","name":"Le Mont-sur-Lausanne","shortName":"Le Mont-sur-Lausanne"},"district":{"key":"2225","name":"District de Lausanne"},"canton":{"key":"22","code":"VD","name":"Vaud"},"status":"Real"},{"key":"10080185","name":"Route de Sauvabelin","postalCode":"1052","locality":"Le Mont-sur-Lausanne","commune":{"key":"5587","name":"Le Mont-sur-Lausanne","shortName":"Le Mont-sur-Lausanne"},"district":{"key":"2225","name":"District de Lausanne"},"canton":{"key":"22","code":"VD","name":"Vaud"},"status":"Real"},{"key":"10044767","name":"Route des Martines","postalCode":"1052","locality":"Le Mont-sur-Lausanne","commune":{"key":"5587","name":"Le Mont-sur-Lausanne","shortName":"Le Mont-sur-Lausanne"},"district":{"key":"2225","name":"District de Lausanne"},"canton":{"key":"22","code":"VD","name":"Vaud"},"status":"Real"},{"key":"10151427","name":"Route des Planches","postalCode":"1052","locality":"Le Mont-sur-Lausanne","commune":{"key":"5587","name":"Le Mont-sur-Lausanne","shortName":"Le Mont-sur-Lausanne"},"district":{"key":"2225","name":"District de Lausanne"},"canton":{"key":"22","code":"VD","name":"Vaud"},"status":"Real"},{"key":"10044766","name":"Route de Vernand","postalCode":"1052","locality":"Le Mont-sur-Lausanne","commune":{"key":"5587","name":"Le Mont-sur-Lausanne","shortName":"Le Mont-sur-Lausanne"},"district":{"key":"2225","name":"District de Lausanne"},"canton":{"key":"22","code":"VD","name":"Vaud"},"status":"Real"},{"key":"10044768","name":"Route du Chalet-à-Gobet","postalCode":"1052","locality":"Le Mont-sur-Lausanne","commune":{"key":"5587","name":"Le Mont-sur-Lausanne","shortName":"Le Mont-sur-Lausanne"},"district":{"key":"2225","name":"District de Lausanne"},"canton":{"key":"22","code":"VD","name":"Vaud"},"status":"Real"},{"key":"10159053","name":"Route du Chalet-Boverat","postalCode":"1052","locality":"Le Mont-sur-Lausanne","commune":{"key":"5587","name":"Le Mont-sur-Lausanne","shortName":"Le Mont-sur-Lausanne"},"district":{"key":"2225","name":"District de Lausanne"},"canton":{"key":"22","code":"VD","name":"Vaud"},"status":"Real"},{"key":"10058842","name":"Route du Chalet-des-Enfants","postalCode":"1052","locality":"Le Mont-sur-Lausanne","commune":{"key":"5587","name":"Le Mont-sur-Lausanne","shortName":"Le Mont-sur-Lausanne"},"district":{"key":"2225","name":"District de Lausanne"},"canton":{"key":"22","code":"VD","name":"Vaud"},"status":"Real"},{"key":"10094010","name":"Route du Châtelard","postalCode":"1052","locality":"Le Mont-sur-Lausanne","commune":{"key":"5587","name":"Le Mont-sur-Lausanne","shortName":"Le Mont-sur-Lausanne"},"district":{"key":"2225","name":"District de Lausanne"},"canton":{"key":"22","code":"VD","name":"Vaud"},"status":"Real"},{"key":"10048055","name":"Route du Grand-Mont","postalCode":"1052","locality":"Le Mont-sur-Lausanne","commune":{"key":"5587","name":"Le Mont-sur-Lausanne","shortName":"Le Mont-sur-Lausanne"},"district":{"key":"2225","name":"District de Lausanne"},"canton":{"key":"22","code":"VD","name":"Vaud"},"status":"Real"},{"key":"10190439","name":"Route du Jorat","postalCode":"1052","locality":"Le Mont-sur-Lausanne","commune":{"key":"5587","name":"Le Mont-sur-Lausanne","shortName":"Le Mont-sur-Lausanne"},"district":{"key":"2225","name":"District de Lausanne"},"canton":{"key":"22","code":"VD","name":"Vaud"},"status":"Real"},{"key":"10142471","name":"Rue du Champ-du-Bois","postalCode":"1052","locality":"Le Mont-sur-Lausanne","commune":{"key":"5587","name":"Le Mont-sur-Lausanne","shortName":"Le Mont-sur-Lausanne"},"district":{"key":"2225","name":"District de Lausanne"},"canton":{"key":"22","code":"VD","name":"Vaud"},"status":"Real"},{"key":"10044769","name":"Rue du Petit-Mont","postalCode":"1052","locality":"Le Mont-sur-Lausanne","commune":{"key":"5587","name":"Le Mont-sur-Lausanne","shortName":"Le Mont-sur-Lausanne"},"district":{"key":"2225","name":"District de Lausanne"},"canton":{"key":"22","code":"VD","name":"Vaud"},"status":"Real"},{"key":"10102181","name":"Rue du Village","postalCode":"1052","locality":"Le Mont-sur-Lausanne","commune":{"key":"5587","name":"Le Mont-sur-Lausanne","shortName":"Le Mont-sur-Lausanne"},"district":{"key":"2225","name":"District de Lausanne"},"canton":{"key":"22","code":"VD","name":"Vaud"},"status":"Real"},]