[{"name":"Am Hang","postalCode":"17219","locality":"Ankershagen","municipality":{"key":"13071005","name":"Ankershagen, Schliemanngemeinde","type":"Kreisangehörige_Gemeinde"},"district":{"key":"13071","name":"Mecklenburgische Seenplatte","type":"Landkreis"},"federalState":{"key":"13","name":"Mecklenburg-Vorpommern"}},{"name":"Am Nationalpark","postalCode":"17219","locality":"Ankershagen","municipality":{"key":"13071005","name":"Ankershagen, Schliemanngemeinde","type":"Kreisangehörige_Gemeinde"},"district":{"key":"13071","name":"Mecklenburgische Seenplatte","type":"Landkreis"},"federalState":{"key":"13","name":"Mecklenburg-Vorpommern"}},{"name":"Ankershagener Str.","postalCode":"17219","locality":"Ankershagen","municipality":{"key":"13071005","name":"Ankershagen, Schliemanngemeinde","type":"Kreisangehörige_Gemeinde"},"district":{"key":"13071","name":"Mecklenburgische Seenplatte","type":"Landkreis"},"federalState":{"key":"13","name":"Mecklenburg-Vorpommern"}},{"name":"Gartenweg","postalCode":"17219","locality":"Ankershagen","municipality":{"key":"13071005","name":"Ankershagen, Schliemanngemeinde","type":"Kreisangehörige_Gemeinde"},"district":{"key":"13071","name":"Mecklenburgische Seenplatte","type":"Landkreis"},"federalState":{"key":"13","name":"Mecklenburg-Vorpommern"}},{"name":"Klockower Str.","postalCode":"17219","locality":"Ankershagen","municipality":{"key":"13071005","name":"Ankershagen, Schliemanngemeinde","type":"Kreisangehörige_Gemeinde"},"district":{"key":"13071","name":"Mecklenburgische Seenplatte","type":"Landkreis"},"federalState":{"key":"13","name":"Mecklenburg-Vorpommern"}},{"name":"Klockower Weg","postalCode":"17219","locality":"Ankershagen","municipality":{"key":"13071005","name":"Ankershagen, Schliemanngemeinde","type":"Kreisangehörige_Gemeinde"},"district":{"key":"13071","name":"Mecklenburgische Seenplatte","type":"Landkreis"},"federalState":{"key":"13","name":"Mecklenburg-Vorpommern"}},{"name":"Landschaftspark","postalCode":"17219","locality":"Ankershagen","municipality":{"key":"13071005","name":"Ankershagen, Schliemanngemeinde","type":"Kreisangehörige_Gemeinde"},"district":{"key":"13071","name":"Mecklenburgische Seenplatte","type":"Landkreis"},"federalState":{"key":"13","name":"Mecklenburg-Vorpommern"}},{"name":"Lindenallee","postalCode":"17219","locality":"Ankershagen","municipality":{"key":"13071005","name":"Ankershagen, Schliemanngemeinde","type":"Kreisangehörige_Gemeinde"},"district":{"key":"13071","name":"Mecklenburgische Seenplatte","type":"Landkreis"},"federalState":{"key":"13","name":"Mecklenburg-Vorpommern"}},{"name":"Lindenweg","postalCode":"17219","locality":"Ankershagen","municipality":{"key":"13071005","name":"Ankershagen, Schliemanngemeinde","type":"Kreisangehörige_Gemeinde"},"district":{"key":"13071","name":"Mecklenburgische Seenplatte","type":"Landkreis"},"federalState":{"key":"13","name":"Mecklenburg-Vorpommern"}},{"name":"Marihner Weg","postalCode":"17219","locality":"Ankershagen","municipality":{"key":"13071005","name":"Ankershagen, Schliemanngemeinde","type":"Kreisangehörige_Gemeinde"},"district":{"key":"13071","name":"Mecklenburgische Seenplatte","type":"Landkreis"},"federalState":{"key":"13","name":"Mecklenburg-Vorpommern"}},{"name":"MTS-Siedlung","postalCode":"17219","locality":"Ankershagen","municipality":{"key":"13071005","name":"Ankershagen, Schliemanngemeinde","type":"Kreisangehörige_Gemeinde"},"district":{"key":"13071","name":"Mecklenburgische Seenplatte","type":"Landkreis"},"federalState":{"key":"13","name":"Mecklenburg-Vorpommern"}},{"name":"Oberdorf","postalCode":"17219","locality":"Ankershagen","municipality":{"key":"13071005","name":"Ankershagen, Schliemanngemeinde","type":"Kreisangehörige_Gemeinde"},"district":{"key":"13071","name":"Mecklenburgische Seenplatte","type":"Landkreis"},"federalState":{"key":"13","name":"Mecklenburg-Vorpommern"}},{"name":"Parkstr.","postalCode":"17219","locality":"Ankershagen","municipality":{"key":"13071005","name":"Ankershagen, Schliemanngemeinde","type":"Kreisangehörige_Gemeinde"},"district":{"key":"13071","name":"Mecklenburgische Seenplatte","type":"Landkreis"},"federalState":{"key":"13","name":"Mecklenburg-Vorpommern"}},{"name":"Rethwischer Str.","postalCode":"17219","locality":"Ankershagen","municipality":{"key":"13071005","name":"Ankershagen, Schliemanngemeinde","type":"Kreisangehörige_Gemeinde"},"district":{"key":"13071","name":"Mecklenburgische Seenplatte","type":"Landkreis"},"federalState":{"key":"13","name":"Mecklenburg-Vorpommern"}},{"name":"Ringstr.","postalCode":"17219","locality":"Ankershagen","municipality":{"key":"13071005","name":"Ankershagen, Schliemanngemeinde","type":"Kreisangehörige_Gemeinde"},"district":{"key":"13071","name":"Mecklenburgische Seenplatte","type":"Landkreis"},"federalState":{"key":"13","name":"Mecklenburg-Vorpommern"}},{"name":"Unterdorf","postalCode":"17219","locality":"Ankershagen","municipality":{"key":"13071005","name":"Ankershagen, Schliemanngemeinde","type":"Kreisangehörige_Gemeinde"},"district":{"key":"13071","name":"Mecklenburgische Seenplatte","type":"Landkreis"},"federalState":{"key":"13","name":"Mecklenburg-Vorpommern"}},{"name":"Waldstr.","postalCode":"17219","locality":"Ankershagen","municipality":{"key":"13071005","name":"Ankershagen, Schliemanngemeinde","type":"Kreisangehörige_Gemeinde"},"district":{"key":"13071","name":"Mecklenburgische Seenplatte","type":"Landkreis"},"federalState":{"key":"13","name":"Mecklenburg-Vorpommern"}},{"name":"Wendorfer Str.","postalCode":"17219","locality":"Ankershagen","municipality":{"key":"13071005","name":"Ankershagen, Schliemanngemeinde","type":"Kreisangehörige_Gemeinde"},"district":{"key":"13071","name":"Mecklenburgische Seenplatte","type":"Landkreis"},"federalState":{"key":"13","name":"Mecklenburg-Vorpommern"}},{"name":"Zum Tannenberg","postalCode":"17219","locality":"Ankershagen","municipality":{"key":"13071005","name":"Ankershagen, Schliemanngemeinde","type":"Kreisangehörige_Gemeinde"},"district":{"key":"13071","name":"Mecklenburgische Seenplatte","type":"Landkreis"},"federalState":{"key":"13","name":"Mecklenburg-Vorpommern"}},]