[{"key":"12060005","name":"Ahrensfelde","type":"Kreisangehörige_Gemeinde","postalCode":"16356","multiplePostalCodes":false,"association":{"key":"12060","name":"Ahrensfelde","type":"Verbandsfreie_Gemeinde"},"district":{"key":"12060","name":"Barnim","type":"Landkreis"},"federalState":{"key":"12","name":"Brandenburg"}},{"key":"12060012","name":"Althüttendorf","type":"Kreisangehörige_Gemeinde","postalCode":"16247","multiplePostalCodes":false,"association":{"key":"12060","name":"Joachimsthal (Schorfheide)","type":"Amt"},"district":{"key":"12060","name":"Barnim","type":"Landkreis"},"federalState":{"key":"12","name":"Brandenburg"}},{"key":"12060020","name":"Bernau bei Berlin, Stadt","type":"Stadt","postalCode":"16321","multiplePostalCodes":false,"association":{"key":"12060","name":"Bernau bei Berlin, Stadt","type":"Verbandsfreie_Gemeinde"},"district":{"key":"12060","name":"Barnim","type":"Landkreis"},"federalState":{"key":"12","name":"Brandenburg"}},{"key":"12060024","name":"Biesenthal, Stadt","type":"Stadt","postalCode":"16359","multiplePostalCodes":false,"association":{"key":"12060","name":"Biesenthal-Barnim","type":"Amt"},"district":{"key":"12060","name":"Barnim","type":"Landkreis"},"federalState":{"key":"12","name":"Brandenburg"}},{"key":"12060034","name":"Breydin","type":"Kreisangehörige_Gemeinde","postalCode":"16230","multiplePostalCodes":true,"association":{"key":"12060","name":"Biesenthal-Barnim","type":"Amt"},"district":{"key":"12060","name":"Barnim","type":"Landkreis"},"federalState":{"key":"12","name":"Brandenburg"}},{"key":"12060036","name":"Britz","type":"Kreisangehörige_Gemeinde","postalCode":"16230","multiplePostalCodes":false,"association":{"key":"12060","name":"Britz-Chorin-Oderberg","type":"Amt"},"district":{"key":"12060","name":"Barnim","type":"Landkreis"},"federalState":{"key":"12","name":"Brandenburg"}},{"key":"12060045","name":"Chorin","type":"Kreisangehörige_Gemeinde","postalCode":"16230","multiplePostalCodes":false,"association":{"key":"12060","name":"Britz-Chorin-Oderberg","type":"Amt"},"district":{"key":"12060","name":"Barnim","type":"Landkreis"},"federalState":{"key":"12","name":"Brandenburg"}},{"key":"12060052","name":"Eberswalde, Stadt","type":"Stadt","postalCode":"16225","multiplePostalCodes":true,"association":{"key":"12060","name":"Eberswalde, Stadt","type":"Verbandsfreie_Gemeinde"},"district":{"key":"12060","name":"Barnim","type":"Landkreis"},"federalState":{"key":"12","name":"Brandenburg"}},{"key":"12060068","name":"Friedrichswalde","type":"Kreisangehörige_Gemeinde","postalCode":"16247","multiplePostalCodes":false,"association":{"key":"12060","name":"Joachimsthal (Schorfheide)","type":"Amt"},"district":{"key":"12060","name":"Barnim","type":"Landkreis"},"federalState":{"key":"12","name":"Brandenburg"}},{"key":"12060092","name":"Hohenfinow","type":"Kreisangehörige_Gemeinde","postalCode":"16248","multiplePostalCodes":true,"association":{"key":"12060","name":"Britz-Chorin-Oderberg","type":"Amt"},"district":{"key":"12060","name":"Barnim","type":"Landkreis"},"federalState":{"key":"12","name":"Brandenburg"}},{"key":"12060100","name":"Joachimsthal, Stadt","type":"Stadt","postalCode":"16247","multiplePostalCodes":false,"association":{"key":"12060","name":"Joachimsthal (Schorfheide)","type":"Amt"},"district":{"key":"12060","name":"Barnim","type":"Landkreis"},"federalState":{"key":"12","name":"Brandenburg"}},{"key":"12060128","name":"Liepe","type":"Kreisangehörige_Gemeinde","postalCode":"16248","multiplePostalCodes":true,"association":{"key":"12060","name":"Britz-Chorin-Oderberg","type":"Amt"},"district":{"key":"12060","name":"Barnim","type":"Landkreis"},"federalState":{"key":"12","name":"Brandenburg"}},{"key":"12060149","name":"Lunow-Stolzenhagen","type":"Kreisangehörige_Gemeinde","postalCode":"16248","multiplePostalCodes":true,"association":{"key":"12060","name":"Britz-Chorin-Oderberg","type":"Amt"},"district":{"key":"12060","name":"Barnim","type":"Landkreis"},"federalState":{"key":"12","name":"Brandenburg"}},{"key":"12060154","name":"Marienwerder","type":"Kreisangehörige_Gemeinde","postalCode":"16348","multiplePostalCodes":true,"association":{"key":"12060","name":"Biesenthal-Barnim","type":"Amt"},"district":{"key":"12060","name":"Barnim","type":"Landkreis"},"federalState":{"key":"12","name":"Brandenburg"}},{"key":"12060161","name":"Melchow","type":"Kreisangehörige_Gemeinde","postalCode":"16230","multiplePostalCodes":true,"association":{"key":"12060","name":"Biesenthal-Barnim","type":"Amt"},"district":{"key":"12060","name":"Barnim","type":"Landkreis"},"federalState":{"key":"12","name":"Brandenburg"}},{"key":"12060172","name":"Niederfinow","type":"Kreisangehörige_Gemeinde","postalCode":"16248","multiplePostalCodes":false,"association":{"key":"12060","name":"Britz-Chorin-Oderberg","type":"Amt"},"district":{"key":"12060","name":"Barnim","type":"Landkreis"},"federalState":{"key":"12","name":"Brandenburg"}},{"key":"12060176","name":"Oderberg, Stadt","type":"Stadt","postalCode":"16248","multiplePostalCodes":true,"association":{"key":"12060","name":"Britz-Chorin-Oderberg","type":"Amt"},"district":{"key":"12060","name":"Barnim","type":"Landkreis"},"federalState":{"key":"12","name":"Brandenburg"}},{"key":"12060181","name":"Panketal","type":"Kreisangehörige_Gemeinde","postalCode":"16341","multiplePostalCodes":false,"association":{"key":"12060","name":"Panketal","type":"Verbandsfreie_Gemeinde"},"district":{"key":"12060","name":"Barnim","type":"Landkreis"},"federalState":{"key":"12","name":"Brandenburg"}},{"key":"12060185","name":"Parsteinsee","type":"Kreisangehörige_Gemeinde","postalCode":"16248","multiplePostalCodes":true,"association":{"key":"12060","name":"Britz-Chorin-Oderberg","type":"Amt"},"district":{"key":"12060","name":"Barnim","type":"Landkreis"},"federalState":{"key":"12","name":"Brandenburg"}},{"key":"12060192","name":"Rüdnitz","type":"Kreisangehörige_Gemeinde","postalCode":"16321","multiplePostalCodes":false,"association":{"key":"12060","name":"Biesenthal-Barnim","type":"Amt"},"district":{"key":"12060","name":"Barnim","type":"Landkreis"},"federalState":{"key":"12","name":"Brandenburg"}},{"key":"12060198","name":"Schorfheide","type":"Kreisangehörige_Gemeinde","postalCode":"16244","multiplePostalCodes":false,"association":{"key":"12060","name":"Schorfheide","type":"Verbandsfreie_Gemeinde"},"district":{"key":"12060","name":"Barnim","type":"Landkreis"},"federalState":{"key":"12","name":"Brandenburg"}},{"key":"12060250","name":"Sydower Fließ","type":"Kreisangehörige_Gemeinde","postalCode":"16230","multiplePostalCodes":true,"association":{"key":"12060","name":"Biesenthal-Barnim","type":"Amt"},"district":{"key":"12060","name":"Barnim","type":"Landkreis"},"federalState":{"key":"12","name":"Brandenburg"}},{"key":"12060269","name":"Wandlitz","type":"Kreisangehörige_Gemeinde","postalCode":"16348","multiplePostalCodes":false,"association":{"key":"12060","name":"Wandlitz","type":"Verbandsfreie_Gemeinde"},"district":{"key":"12060","name":"Barnim","type":"Landkreis"},"federalState":{"key":"12","name":"Brandenburg"}},{"key":"12060280","name":"Werneuchen, Stadt","type":"Stadt","postalCode":"16356","multiplePostalCodes":false,"association":{"key":"12060","name":"Werneuchen, Stadt","type":"Verbandsfreie_Gemeinde"},"district":{"key":"12060","name":"Barnim","type":"Landkreis"},"federalState":{"key":"12","name":"Brandenburg"}},{"key":"12060296","name":"Ziethen","type":"Kreisangehörige_Gemeinde","postalCode":"16247","multiplePostalCodes":false,"association":{"key":"12060","name":"Joachimsthal (Schorfheide)","type":"Amt"},"district":{"key":"12060","name":"Barnim","type":"Landkreis"},"federalState":{"key":"12","name":"Brandenburg"}}]