[{"name":"Adelheid","postalCode":"78098","locality":"Triberg im Schwarzwald","municipality":{"key":"08326060","name":"Triberg im Schwarzwald, Stadt","type":"Stadt"},"district":{"key":"08326","name":"Schwarzwald-Baar-Kreis","type":"Landkreis"},"federalState":{"key":"08","name":"Baden-Württemberg"}},{"name":"Altenbergweg","postalCode":"78098","locality":"Triberg im Schwarzwald","municipality":{"key":"08326060","name":"Triberg im Schwarzwald, Stadt","type":"Stadt"},"district":{"key":"08326","name":"Schwarzwald-Baar-Kreis","type":"Landkreis"},"federalState":{"key":"08","name":"Baden-Württemberg"}},{"name":"Alte Schonacher Str.","postalCode":"78098","locality":"Triberg im Schwarzwald","municipality":{"key":"08326060","name":"Triberg im Schwarzwald, Stadt","type":"Stadt"},"district":{"key":"08326","name":"Schwarzwald-Baar-Kreis","type":"Landkreis"},"federalState":{"key":"08","name":"Baden-Württemberg"}},{"name":"Am Bach","postalCode":"78098","locality":"Triberg im Schwarzwald","municipality":{"key":"08326060","name":"Triberg im Schwarzwald, Stadt","type":"Stadt"},"district":{"key":"08326","name":"Schwarzwald-Baar-Kreis","type":"Landkreis"},"federalState":{"key":"08","name":"Baden-Württemberg"}},{"name":"Am Firstberg","postalCode":"78098","locality":"Triberg im Schwarzwald","municipality":{"key":"08326060","name":"Triberg im Schwarzwald, Stadt","type":"Stadt"},"district":{"key":"08326","name":"Schwarzwald-Baar-Kreis","type":"Landkreis"},"federalState":{"key":"08","name":"Baden-Württemberg"}},{"name":"Amthausweg","postalCode":"78098","locality":"Triberg im Schwarzwald","municipality":{"key":"08326060","name":"Triberg im Schwarzwald, Stadt","type":"Stadt"},"district":{"key":"08326","name":"Schwarzwald-Baar-Kreis","type":"Landkreis"},"federalState":{"key":"08","name":"Baden-Württemberg"}},{"name":"An der Gutach","postalCode":"78098","locality":"Triberg im Schwarzwald","municipality":{"key":"08326060","name":"Triberg im Schwarzwald, Stadt","type":"Stadt"},"district":{"key":"08326","name":"Schwarzwald-Baar-Kreis","type":"Landkreis"},"federalState":{"key":"08","name":"Baden-Württemberg"}},{"name":"Bahnhofstr.","postalCode":"78098","locality":"Triberg im Schwarzwald","municipality":{"key":"08326060","name":"Triberg im Schwarzwald, Stadt","type":"Stadt"},"district":{"key":"08326","name":"Schwarzwald-Baar-Kreis","type":"Landkreis"},"federalState":{"key":"08","name":"Baden-Württemberg"}},{"name":"Bergseebrücke","postalCode":"78098","locality":"Triberg im Schwarzwald","municipality":{"key":"08326060","name":"Triberg im Schwarzwald, Stadt","type":"Stadt"},"district":{"key":"08326","name":"Schwarzwald-Baar-Kreis","type":"Landkreis"},"federalState":{"key":"08","name":"Baden-Württemberg"}},{"name":"Bergstr.","postalCode":"78098","locality":"Triberg im Schwarzwald","municipality":{"key":"08326060","name":"Triberg im Schwarzwald, Stadt","type":"Stadt"},"district":{"key":"08326","name":"Schwarzwald-Baar-Kreis","type":"Landkreis"},"federalState":{"key":"08","name":"Baden-Württemberg"}},{"name":"Birkenweg","postalCode":"78098","locality":"Triberg im Schwarzwald","municipality":{"key":"08326060","name":"Triberg im Schwarzwald, Stadt","type":"Stadt"},"district":{"key":"08326","name":"Schwarzwald-Baar-Kreis","type":"Landkreis"},"federalState":{"key":"08","name":"Baden-Württemberg"}},{"name":"Bruelweg","postalCode":"78098","locality":"Triberg im Schwarzwald","municipality":{"key":"08326060","name":"Triberg im Schwarzwald, Stadt","type":"Stadt"},"district":{"key":"08326","name":"Schwarzwald-Baar-Kreis","type":"Landkreis"},"federalState":{"key":"08","name":"Baden-Württemberg"}},{"name":"Clemens-Maria-Hofbauer-Str.","postalCode":"78098","locality":"Triberg im Schwarzwald","municipality":{"key":"08326060","name":"Triberg im Schwarzwald, Stadt","type":"Stadt"},"district":{"key":"08326","name":"Schwarzwald-Baar-Kreis","type":"Landkreis"},"federalState":{"key":"08","name":"Baden-Württemberg"}},{"name":"De-Pellegrini-Str.","postalCode":"78098","locality":"Triberg im Schwarzwald","municipality":{"key":"08326060","name":"Triberg im Schwarzwald, Stadt","type":"Stadt"},"district":{"key":"08326","name":"Schwarzwald-Baar-Kreis","type":"Landkreis"},"federalState":{"key":"08","name":"Baden-Württemberg"}},{"name":"Dorf","postalCode":"78098","locality":"Triberg im Schwarzwald","municipality":{"key":"08326060","name":"Triberg im Schwarzwald, Stadt","type":"Stadt"},"district":{"key":"08326","name":"Schwarzwald-Baar-Kreis","type":"Landkreis"},"federalState":{"key":"08","name":"Baden-Württemberg"}},{"name":"Eichendorffweg","postalCode":"78098","locality":"Triberg im Schwarzwald","municipality":{"key":"08326060","name":"Triberg im Schwarzwald, Stadt","type":"Stadt"},"district":{"key":"08326","name":"Schwarzwald-Baar-Kreis","type":"Landkreis"},"federalState":{"key":"08","name":"Baden-Württemberg"}},{"name":"Faulbergweg","postalCode":"78098","locality":"Triberg im Schwarzwald","municipality":{"key":"08326060","name":"Triberg im Schwarzwald, Stadt","type":"Stadt"},"district":{"key":"08326","name":"Schwarzwald-Baar-Kreis","type":"Landkreis"},"federalState":{"key":"08","name":"Baden-Württemberg"}},{"name":"Feierabendfelsenweg","postalCode":"78098","locality":"Triberg im Schwarzwald","municipality":{"key":"08326060","name":"Triberg im Schwarzwald, Stadt","type":"Stadt"},"district":{"key":"08326","name":"Schwarzwald-Baar-Kreis","type":"Landkreis"},"federalState":{"key":"08","name":"Baden-Württemberg"}},{"name":"Franz-Göttler-Weg","postalCode":"78098","locality":"Triberg im Schwarzwald","municipality":{"key":"08326060","name":"Triberg im Schwarzwald, Stadt","type":"Stadt"},"district":{"key":"08326","name":"Schwarzwald-Baar-Kreis","type":"Landkreis"},"federalState":{"key":"08","name":"Baden-Württemberg"}},{"name":"Frejusstr.","postalCode":"78098","locality":"Triberg im Schwarzwald","municipality":{"key":"08326060","name":"Triberg im Schwarzwald, Stadt","type":"Stadt"},"district":{"key":"08326","name":"Schwarzwald-Baar-Kreis","type":"Landkreis"},"federalState":{"key":"08","name":"Baden-Württemberg"}},{"name":"Friedrichstr.","postalCode":"78098","locality":"Triberg im Schwarzwald","municipality":{"key":"08326060","name":"Triberg im Schwarzwald, Stadt","type":"Stadt"},"district":{"key":"08326","name":"Schwarzwald-Baar-Kreis","type":"Landkreis"},"federalState":{"key":"08","name":"Baden-Württemberg"}},{"name":"Gartenstr.","postalCode":"78098","locality":"Triberg im Schwarzwald","municipality":{"key":"08326060","name":"Triberg im Schwarzwald, Stadt","type":"Stadt"},"district":{"key":"08326","name":"Schwarzwald-Baar-Kreis","type":"Landkreis"},"federalState":{"key":"08","name":"Baden-Württemberg"}},{"name":"Gerwigstr.","postalCode":"78098","locality":"Triberg im Schwarzwald","municipality":{"key":"08326060","name":"Triberg im Schwarzwald, Stadt","type":"Stadt"},"district":{"key":"08326","name":"Schwarzwald-Baar-Kreis","type":"Landkreis"},"federalState":{"key":"08","name":"Baden-Württemberg"}},{"name":"Geutschenstr.","postalCode":"78098","locality":"Triberg im Schwarzwald","municipality":{"key":"08326060","name":"Triberg im Schwarzwald, Stadt","type":"Stadt"},"district":{"key":"08326","name":"Schwarzwald-Baar-Kreis","type":"Landkreis"},"federalState":{"key":"08","name":"Baden-Württemberg"}},{"name":"Hauptstr.","postalCode":"78098","locality":"Triberg im Schwarzwald","municipality":{"key":"08326060","name":"Triberg im Schwarzwald, Stadt","type":"Stadt"},"district":{"key":"08326","name":"Schwarzwald-Baar-Kreis","type":"Landkreis"},"federalState":{"key":"08","name":"Baden-Württemberg"}},{"name":"Hermann-Schwer-Str.","postalCode":"78098","locality":"Triberg im Schwarzwald","municipality":{"key":"08326060","name":"Triberg im Schwarzwald, Stadt","type":"Stadt"},"district":{"key":"08326","name":"Schwarzwald-Baar-Kreis","type":"Landkreis"},"federalState":{"key":"08","name":"Baden-Württemberg"}},{"name":"Himmelreichtunnel","postalCode":"78098","locality":"Triberg im Schwarzwald","municipality":{"key":"08326060","name":"Triberg im Schwarzwald, Stadt","type":"Stadt"},"district":{"key":"08326","name":"Schwarzwald-Baar-Kreis","type":"Landkreis"},"federalState":{"key":"08","name":"Baden-Württemberg"}},{"name":"Hintertalstr.","postalCode":"78098","locality":"Triberg im Schwarzwald","municipality":{"key":"08326060","name":"Triberg im Schwarzwald, Stadt","type":"Stadt"},"district":{"key":"08326","name":"Schwarzwald-Baar-Kreis","type":"Landkreis"},"federalState":{"key":"08","name":"Baden-Württemberg"}},{"name":"Hofbauernweg","postalCode":"78098","locality":"Triberg im Schwarzwald","municipality":{"key":"08326060","name":"Triberg im Schwarzwald, Stadt","type":"Stadt"},"district":{"key":"08326","name":"Schwarzwald-Baar-Kreis","type":"Landkreis"},"federalState":{"key":"08","name":"Baden-Württemberg"}},{"name":"Hohnenweg","postalCode":"78098","locality":"Triberg im Schwarzwald","municipality":{"key":"08326060","name":"Triberg im Schwarzwald, Stadt","type":"Stadt"},"district":{"key":"08326","name":"Schwarzwald-Baar-Kreis","type":"Landkreis"},"federalState":{"key":"08","name":"Baden-Württemberg"}},{"name":"Hornberger Str.","postalCode":"78098","locality":"Triberg im Schwarzwald","municipality":{"key":"08326060","name":"Triberg im Schwarzwald, Stadt","type":"Stadt"},"district":{"key":"08326","name":"Schwarzwald-Baar-Kreis","type":"Landkreis"},"federalState":{"key":"08","name":"Baden-Württemberg"}},{"name":"Hubertusweg","postalCode":"78098","locality":"Triberg im Schwarzwald","municipality":{"key":"08326060","name":"Triberg im Schwarzwald, Stadt","type":"Stadt"},"district":{"key":"08326","name":"Schwarzwald-Baar-Kreis","type":"Landkreis"},"federalState":{"key":"08","name":"Baden-Württemberg"}},{"name":"Ignaz-Schöller-Str.","postalCode":"78098","locality":"Triberg im Schwarzwald","municipality":{"key":"08326060","name":"Triberg im Schwarzwald, Stadt","type":"Stadt"},"district":{"key":"08326","name":"Schwarzwald-Baar-Kreis","type":"Landkreis"},"federalState":{"key":"08","name":"Baden-Württemberg"}},{"name":"Im Grund","postalCode":"78098","locality":"Triberg im Schwarzwald","municipality":{"key":"08326060","name":"Triberg im Schwarzwald, Stadt","type":"Stadt"},"district":{"key":"08326","name":"Schwarzwald-Baar-Kreis","type":"Landkreis"},"federalState":{"key":"08","name":"Baden-Württemberg"}},{"name":"Im Hälmenwinkel","postalCode":"78098","locality":"Triberg im Schwarzwald","municipality":{"key":"08326060","name":"Triberg im Schwarzwald, Stadt","type":"Stadt"},"district":{"key":"08326","name":"Schwarzwald-Baar-Kreis","type":"Landkreis"},"federalState":{"key":"08","name":"Baden-Württemberg"}},{"name":"Im Hoflehen","postalCode":"78098","locality":"Triberg im Schwarzwald","municipality":{"key":"08326060","name":"Triberg im Schwarzwald, Stadt","type":"Stadt"},"district":{"key":"08326","name":"Schwarzwald-Baar-Kreis","type":"Landkreis"},"federalState":{"key":"08","name":"Baden-Württemberg"}},{"name":"Im Roßgrund","postalCode":"78098","locality":"Triberg im Schwarzwald","municipality":{"key":"08326060","name":"Triberg im Schwarzwald, Stadt","type":"Stadt"},"district":{"key":"08326","name":"Schwarzwald-Baar-Kreis","type":"Landkreis"},"federalState":{"key":"08","name":"Baden-Württemberg"}},{"name":"Im Sägedobel","postalCode":"78098","locality":"Triberg im Schwarzwald","municipality":{"key":"08326060","name":"Triberg im Schwarzwald, Stadt","type":"Stadt"},"district":{"key":"08326","name":"Schwarzwald-Baar-Kreis","type":"Landkreis"},"federalState":{"key":"08","name":"Baden-Württemberg"}},{"name":"Klosterstr.","postalCode":"78098","locality":"Triberg im Schwarzwald","municipality":{"key":"08326060","name":"Triberg im Schwarzwald, Stadt","type":"Stadt"},"district":{"key":"08326","name":"Schwarzwald-Baar-Kreis","type":"Landkreis"},"federalState":{"key":"08","name":"Baden-Württemberg"}},{"name":"Kreuzstr.","postalCode":"78098","locality":"Triberg im Schwarzwald","municipality":{"key":"08326060","name":"Triberg im Schwarzwald, Stadt","type":"Stadt"},"district":{"key":"08326","name":"Schwarzwald-Baar-Kreis","type":"Landkreis"},"federalState":{"key":"08","name":"Baden-Württemberg"}},{"name":"Kroneckweg","postalCode":"78098","locality":"Triberg im Schwarzwald","municipality":{"key":"08326060","name":"Triberg im Schwarzwald, Stadt","type":"Stadt"},"district":{"key":"08326","name":"Schwarzwald-Baar-Kreis","type":"Landkreis"},"federalState":{"key":"08","name":"Baden-Württemberg"}},{"name":"Kurpark","postalCode":"78098","locality":"Triberg im Schwarzwald","municipality":{"key":"08326060","name":"Triberg im Schwarzwald, Stadt","type":"Stadt"},"district":{"key":"08326","name":"Schwarzwald-Baar-Kreis","type":"Landkreis"},"federalState":{"key":"08","name":"Baden-Württemberg"}},{"name":"Lehrer-Holzmann-Weg","postalCode":"78098","locality":"Triberg im Schwarzwald","municipality":{"key":"08326060","name":"Triberg im Schwarzwald, Stadt","type":"Stadt"},"district":{"key":"08326","name":"Schwarzwald-Baar-Kreis","type":"Landkreis"},"federalState":{"key":"08","name":"Baden-Württemberg"}},{"name":"Ludwigstr.","postalCode":"78098","locality":"Triberg im Schwarzwald","municipality":{"key":"08326060","name":"Triberg im Schwarzwald, Stadt","type":"Stadt"},"district":{"key":"08326","name":"Schwarzwald-Baar-Kreis","type":"Landkreis"},"federalState":{"key":"08","name":"Baden-Württemberg"}},{"name":"Luisenstr.","postalCode":"78098","locality":"Triberg im Schwarzwald","municipality":{"key":"08326060","name":"Triberg im Schwarzwald, Stadt","type":"Stadt"},"district":{"key":"08326","name":"Schwarzwald-Baar-Kreis","type":"Landkreis"},"federalState":{"key":"08","name":"Baden-Württemberg"}},{"name":"Mozartstr.","postalCode":"78098","locality":"Triberg im Schwarzwald","municipality":{"key":"08326060","name":"Triberg im Schwarzwald, Stadt","type":"Stadt"},"district":{"key":"08326","name":"Schwarzwald-Baar-Kreis","type":"Landkreis"},"federalState":{"key":"08","name":"Baden-Württemberg"}},{"name":"Nußbacher Str.","postalCode":"78098","locality":"Triberg im Schwarzwald","municipality":{"key":"08326060","name":"Triberg im Schwarzwald, Stadt","type":"Stadt"},"district":{"key":"08326","name":"Schwarzwald-Baar-Kreis","type":"Landkreis"},"federalState":{"key":"08","name":"Baden-Württemberg"}},{"name":"Obervogt-Huber-Str.","postalCode":"78098","locality":"Triberg im Schwarzwald","municipality":{"key":"08326060","name":"Triberg im Schwarzwald, Stadt","type":"Stadt"},"district":{"key":"08326","name":"Schwarzwald-Baar-Kreis","type":"Landkreis"},"federalState":{"key":"08","name":"Baden-Württemberg"}},{"name":"Parkdeck des daHeim Indoor Camping","postalCode":"78098","locality":"Triberg im Schwarzwald","municipality":{"key":"08326060","name":"Triberg im Schwarzwald, Stadt","type":"Stadt"},"district":{"key":"08326","name":"Schwarzwald-Baar-Kreis","type":"Landkreis"},"federalState":{"key":"08","name":"Baden-Württemberg"}},{"name":"Pfarrer-Dold-Str.","postalCode":"78098","locality":"Triberg im Schwarzwald","municipality":{"key":"08326060","name":"Triberg im Schwarzwald, Stadt","type":"Stadt"},"district":{"key":"08326","name":"Schwarzwald-Baar-Kreis","type":"Landkreis"},"federalState":{"key":"08","name":"Baden-Württemberg"}},{"name":"Prälat-Fries-Str.","postalCode":"78098","locality":"Triberg im Schwarzwald","municipality":{"key":"08326060","name":"Triberg im Schwarzwald, Stadt","type":"Stadt"},"district":{"key":"08326","name":"Schwarzwald-Baar-Kreis","type":"Landkreis"},"federalState":{"key":"08","name":"Baden-Württemberg"}},{"name":"Retschenweg","postalCode":"78098","locality":"Triberg im Schwarzwald","municipality":{"key":"08326060","name":"Triberg im Schwarzwald, Stadt","type":"Stadt"},"district":{"key":"08326","name":"Schwarzwald-Baar-Kreis","type":"Landkreis"},"federalState":{"key":"08","name":"Baden-Württemberg"}},{"name":"Riffhaldenweg","postalCode":"78098","locality":"Triberg im Schwarzwald","municipality":{"key":"08326060","name":"Triberg im Schwarzwald, Stadt","type":"Stadt"},"district":{"key":"08326","name":"Schwarzwald-Baar-Kreis","type":"Landkreis"},"federalState":{"key":"08","name":"Baden-Württemberg"}},{"name":"Rigiweg","postalCode":"78098","locality":"Triberg im Schwarzwald","municipality":{"key":"08326060","name":"Triberg im Schwarzwald, Stadt","type":"Stadt"},"district":{"key":"08326","name":"Schwarzwald-Baar-Kreis","type":"Landkreis"},"federalState":{"key":"08","name":"Baden-Württemberg"}},{"name":"Ringmauerweg","postalCode":"78098","locality":"Triberg im Schwarzwald","municipality":{"key":"08326060","name":"Triberg im Schwarzwald, Stadt","type":"Stadt"},"district":{"key":"08326","name":"Schwarzwald-Baar-Kreis","type":"Landkreis"},"federalState":{"key":"08","name":"Baden-Württemberg"}},{"name":"Rohrbacher Str.","postalCode":"78098","locality":"Triberg im Schwarzwald","municipality":{"key":"08326060","name":"Triberg im Schwarzwald, Stadt","type":"Stadt"},"district":{"key":"08326","name":"Schwarzwald-Baar-Kreis","type":"Landkreis"},"federalState":{"key":"08","name":"Baden-Württemberg"}},{"name":"Scheffelplatzbrücke","postalCode":"78098","locality":"Triberg im Schwarzwald","municipality":{"key":"08326060","name":"Triberg im Schwarzwald, Stadt","type":"Stadt"},"district":{"key":"08326","name":"Schwarzwald-Baar-Kreis","type":"Landkreis"},"federalState":{"key":"08","name":"Baden-Württemberg"}},{"name":"Schelmenlochweg","postalCode":"78098","locality":"Triberg im Schwarzwald","municipality":{"key":"08326060","name":"Triberg im Schwarzwald, Stadt","type":"Stadt"},"district":{"key":"08326","name":"Schwarzwald-Baar-Kreis","type":"Landkreis"},"federalState":{"key":"08","name":"Baden-Württemberg"}},{"name":"Schlachthausstr.","postalCode":"78098","locality":"Triberg im Schwarzwald","municipality":{"key":"08326060","name":"Triberg im Schwarzwald, Stadt","type":"Stadt"},"district":{"key":"08326","name":"Schwarzwald-Baar-Kreis","type":"Landkreis"},"federalState":{"key":"08","name":"Baden-Württemberg"}},{"name":"Schonacher Str.","postalCode":"78098","locality":"Triberg im Schwarzwald","municipality":{"key":"08326060","name":"Triberg im Schwarzwald, Stadt","type":"Stadt"},"district":{"key":"08326","name":"Schwarzwald-Baar-Kreis","type":"Landkreis"},"federalState":{"key":"08","name":"Baden-Württemberg"}},{"name":"Schönwälder Str.","postalCode":"78098","locality":"Triberg im Schwarzwald","municipality":{"key":"08326060","name":"Triberg im Schwarzwald, Stadt","type":"Stadt"},"district":{"key":"08326","name":"Schwarzwald-Baar-Kreis","type":"Landkreis"},"federalState":{"key":"08","name":"Baden-Württemberg"}},{"name":"Schulhausweg","postalCode":"78098","locality":"Triberg im Schwarzwald","municipality":{"key":"08326060","name":"Triberg im Schwarzwald, Stadt","type":"Stadt"},"district":{"key":"08326","name":"Schwarzwald-Baar-Kreis","type":"Landkreis"},"federalState":{"key":"08","name":"Baden-Württemberg"}},{"name":"Schulstr.","postalCode":"78098","locality":"Triberg im Schwarzwald","municipality":{"key":"08326060","name":"Triberg im Schwarzwald, Stadt","type":"Stadt"},"district":{"key":"08326","name":"Schwarzwald-Baar-Kreis","type":"Landkreis"},"federalState":{"key":"08","name":"Baden-Württemberg"}},{"name":"Schwendistr.","postalCode":"78098","locality":"Triberg im Schwarzwald","municipality":{"key":"08326060","name":"Triberg im Schwarzwald, Stadt","type":"Stadt"},"district":{"key":"08326","name":"Schwarzwald-Baar-Kreis","type":"Landkreis"},"federalState":{"key":"08","name":"Baden-Württemberg"}},{"name":"Sebastianweg","postalCode":"78098","locality":"Triberg im Schwarzwald","municipality":{"key":"08326060","name":"Triberg im Schwarzwald, Stadt","type":"Stadt"},"district":{"key":"08326","name":"Schwarzwald-Baar-Kreis","type":"Landkreis"},"federalState":{"key":"08","name":"Baden-Württemberg"}},{"name":"Sommerauer Str.","postalCode":"78098","locality":"Triberg im Schwarzwald","municipality":{"key":"08326060","name":"Triberg im Schwarzwald, Stadt","type":"Stadt"},"district":{"key":"08326","name":"Schwarzwald-Baar-Kreis","type":"Landkreis"},"federalState":{"key":"08","name":"Baden-Württemberg"}},{"name":"Sommerberg","postalCode":"78098","locality":"Triberg im Schwarzwald","municipality":{"key":"08326060","name":"Triberg im Schwarzwald, Stadt","type":"Stadt"},"district":{"key":"08326","name":"Schwarzwald-Baar-Kreis","type":"Landkreis"},"federalState":{"key":"08","name":"Baden-Württemberg"}},{"name":"Sonnenhalde","postalCode":"78098","locality":"Triberg im Schwarzwald","municipality":{"key":"08326060","name":"Triberg im Schwarzwald, Stadt","type":"Stadt"},"district":{"key":"08326","name":"Schwarzwald-Baar-Kreis","type":"Landkreis"},"federalState":{"key":"08","name":"Baden-Württemberg"}},{"name":"Steinbis","postalCode":"78098","locality":"Triberg im Schwarzwald","municipality":{"key":"08326060","name":"Triberg im Schwarzwald, Stadt","type":"Stadt"},"district":{"key":"08326","name":"Schwarzwald-Baar-Kreis","type":"Landkreis"},"federalState":{"key":"08","name":"Baden-Württemberg"}},{"name":"Steinbiß Tunnel","postalCode":"78098","locality":"Triberg im Schwarzwald","municipality":{"key":"08326060","name":"Triberg im Schwarzwald, Stadt","type":"Stadt"},"district":{"key":"08326","name":"Schwarzwald-Baar-Kreis","type":"Landkreis"},"federalState":{"key":"08","name":"Baden-Württemberg"}},{"name":"Steinhalden","postalCode":"78098","locality":"Triberg im Schwarzwald","municipality":{"key":"08326060","name":"Triberg im Schwarzwald, Stadt","type":"Stadt"},"district":{"key":"08326","name":"Schwarzwald-Baar-Kreis","type":"Landkreis"},"federalState":{"key":"08","name":"Baden-Württemberg"}},{"name":"Untertal","postalCode":"78098","locality":"Triberg im Schwarzwald","municipality":{"key":"08326060","name":"Triberg im Schwarzwald, Stadt","type":"Stadt"},"district":{"key":"08326","name":"Schwarzwald-Baar-Kreis","type":"Landkreis"},"federalState":{"key":"08","name":"Baden-Württemberg"}},{"name":"Waldstr.","postalCode":"78098","locality":"Triberg im Schwarzwald","municipality":{"key":"08326060","name":"Triberg im Schwarzwald, Stadt","type":"Stadt"},"district":{"key":"08326","name":"Schwarzwald-Baar-Kreis","type":"Landkreis"},"federalState":{"key":"08","name":"Baden-Württemberg"}},{"name":"Wallfahrtstr.","postalCode":"78098","locality":"Triberg im Schwarzwald","municipality":{"key":"08326060","name":"Triberg im Schwarzwald, Stadt","type":"Stadt"},"district":{"key":"08326","name":"Schwarzwald-Baar-Kreis","type":"Landkreis"},"federalState":{"key":"08","name":"Baden-Württemberg"}},{"name":"Zum Kapellenberg","postalCode":"78098","locality":"Triberg im Schwarzwald","municipality":{"key":"08326060","name":"Triberg im Schwarzwald, Stadt","type":"Stadt"},"district":{"key":"08326","name":"Schwarzwald-Baar-Kreis","type":"Landkreis"},"federalState":{"key":"08","name":"Baden-Württemberg"}},]