[{"name":"Am Park","postalCode":"18445","locality":"Groß Mohrdorf","municipality":{"key":"13073037","name":"Groß Mohrdorf","type":"Kreisangehörige_Gemeinde"},"district":{"key":"13073","name":"Vorpommern-Rügen","type":"Landkreis"},"federalState":{"key":"13","name":"Mecklenburg-Vorpommern"}},{"name":"An der Kirche","postalCode":"18445","locality":"Groß Mohrdorf","municipality":{"key":"13073037","name":"Groß Mohrdorf","type":"Kreisangehörige_Gemeinde"},"district":{"key":"13073","name":"Vorpommern-Rügen","type":"Landkreis"},"federalState":{"key":"13","name":"Mecklenburg-Vorpommern"}},{"name":"Boddenweg","postalCode":"18445","locality":"Groß Mohrdorf","municipality":{"key":"13073037","name":"Groß Mohrdorf","type":"Kreisangehörige_Gemeinde"},"district":{"key":"13073","name":"Vorpommern-Rügen","type":"Landkreis"},"federalState":{"key":"13","name":"Mecklenburg-Vorpommern"}},{"name":"Chausseestr.","postalCode":"18445","locality":"Groß Mohrdorf","municipality":{"key":"13073037","name":"Groß Mohrdorf","type":"Kreisangehörige_Gemeinde"},"district":{"key":"13073","name":"Vorpommern-Rügen","type":"Landkreis"},"federalState":{"key":"13","name":"Mecklenburg-Vorpommern"}},{"name":"Gartenstr.","postalCode":"18445","locality":"Groß Mohrdorf","municipality":{"key":"13073037","name":"Groß Mohrdorf","type":"Kreisangehörige_Gemeinde"},"district":{"key":"13073","name":"Vorpommern-Rügen","type":"Landkreis"},"federalState":{"key":"13","name":"Mecklenburg-Vorpommern"}},{"name":"Katharinenberg","postalCode":"18445","locality":"Groß Mohrdorf","municipality":{"key":"13073037","name":"Groß Mohrdorf","type":"Kreisangehörige_Gemeinde"},"district":{"key":"13073","name":"Vorpommern-Rügen","type":"Landkreis"},"federalState":{"key":"13","name":"Mecklenburg-Vorpommern"}},{"name":"Klausdorfer Weg","postalCode":"18445","locality":"Groß Mohrdorf","municipality":{"key":"13073037","name":"Groß Mohrdorf","type":"Kreisangehörige_Gemeinde"},"district":{"key":"13073","name":"Vorpommern-Rügen","type":"Landkreis"},"federalState":{"key":"13","name":"Mecklenburg-Vorpommern"}},{"name":"Klein Mohrdorf-Dorfstr.","postalCode":"18445","locality":"Groß Mohrdorf","municipality":{"key":"13073037","name":"Groß Mohrdorf","type":"Kreisangehörige_Gemeinde"},"district":{"key":"13073","name":"Vorpommern-Rügen","type":"Landkreis"},"federalState":{"key":"13","name":"Mecklenburg-Vorpommern"}},{"name":"Kranichweg","postalCode":"18445","locality":"Groß Mohrdorf","municipality":{"key":"13073037","name":"Groß Mohrdorf","type":"Kreisangehörige_Gemeinde"},"district":{"key":"13073","name":"Vorpommern-Rügen","type":"Landkreis"},"federalState":{"key":"13","name":"Mecklenburg-Vorpommern"}},{"name":"Langendorfer Weg","postalCode":"18445","locality":"Groß Mohrdorf","municipality":{"key":"13073037","name":"Groß Mohrdorf","type":"Kreisangehörige_Gemeinde"},"district":{"key":"13073","name":"Vorpommern-Rügen","type":"Landkreis"},"federalState":{"key":"13","name":"Mecklenburg-Vorpommern"}},{"name":"Lindenstr.","postalCode":"18445","locality":"Groß Mohrdorf","municipality":{"key":"13073037","name":"Groß Mohrdorf","type":"Kreisangehörige_Gemeinde"},"district":{"key":"13073","name":"Vorpommern-Rügen","type":"Landkreis"},"federalState":{"key":"13","name":"Mecklenburg-Vorpommern"}},{"name":"Neuer Weg","postalCode":"18445","locality":"Groß Mohrdorf","municipality":{"key":"13073037","name":"Groß Mohrdorf","type":"Kreisangehörige_Gemeinde"},"district":{"key":"13073","name":"Vorpommern-Rügen","type":"Landkreis"},"federalState":{"key":"13","name":"Mecklenburg-Vorpommern"}},{"name":"Pappelweg","postalCode":"18445","locality":"Groß Mohrdorf","municipality":{"key":"13073037","name":"Groß Mohrdorf","type":"Kreisangehörige_Gemeinde"},"district":{"key":"13073","name":"Vorpommern-Rügen","type":"Landkreis"},"federalState":{"key":"13","name":"Mecklenburg-Vorpommern"}},{"name":"Ringstr.","postalCode":"18445","locality":"Groß Mohrdorf","municipality":{"key":"13073037","name":"Groß Mohrdorf","type":"Kreisangehörige_Gemeinde"},"district":{"key":"13073","name":"Vorpommern-Rügen","type":"Landkreis"},"federalState":{"key":"13","name":"Mecklenburg-Vorpommern"}},{"name":"Strandstr.","postalCode":"18445","locality":"Groß Mohrdorf","municipality":{"key":"13073037","name":"Groß Mohrdorf","type":"Kreisangehörige_Gemeinde"},"district":{"key":"13073","name":"Vorpommern-Rügen","type":"Landkreis"},"federalState":{"key":"13","name":"Mecklenburg-Vorpommern"}},{"name":"Teichweg","postalCode":"18445","locality":"Groß Mohrdorf","municipality":{"key":"13073037","name":"Groß Mohrdorf","type":"Kreisangehörige_Gemeinde"},"district":{"key":"13073","name":"Vorpommern-Rügen","type":"Landkreis"},"federalState":{"key":"13","name":"Mecklenburg-Vorpommern"}},{"name":"Wiesenweg","postalCode":"18445","locality":"Groß Mohrdorf","municipality":{"key":"13073037","name":"Groß Mohrdorf","type":"Kreisangehörige_Gemeinde"},"district":{"key":"13073","name":"Vorpommern-Rügen","type":"Landkreis"},"federalState":{"key":"13","name":"Mecklenburg-Vorpommern"}},]