[{"name":"Achatweg","postalCode":"09337","locality":"Hohenstein-Ernstthal","municipality":{"key":"14524120","name":"Hohenstein-Ernstthal, Stadt","type":"Stadt"},"district":{"key":"14524","name":"Zwickau","type":"Landkreis"},"federalState":{"key":"14","name":"Sachsen"}},{"name":"Aktienstr.","postalCode":"09337","locality":"Hohenstein-Ernstthal","municipality":{"key":"14524120","name":"Hohenstein-Ernstthal, Stadt","type":"Stadt"},"district":{"key":"14524","name":"Zwickau","type":"Landkreis"},"federalState":{"key":"14","name":"Sachsen"}},{"name":"Altmarkt","postalCode":"09337","locality":"Hohenstein-Ernstthal","municipality":{"key":"14524120","name":"Hohenstein-Ernstthal, Stadt","type":"Stadt"},"district":{"key":"14524","name":"Zwickau","type":"Landkreis"},"federalState":{"key":"14","name":"Sachsen"}},{"name":"Am Bahnhof","postalCode":"09337","locality":"Hohenstein-Ernstthal","municipality":{"key":"14524120","name":"Hohenstein-Ernstthal, Stadt","type":"Stadt"},"district":{"key":"14524","name":"Zwickau","type":"Landkreis"},"federalState":{"key":"14","name":"Sachsen"}},{"name":"Am Berg","postalCode":"09337","locality":"Hohenstein-Ernstthal","municipality":{"key":"14524120","name":"Hohenstein-Ernstthal, Stadt","type":"Stadt"},"district":{"key":"14524","name":"Zwickau","type":"Landkreis"},"federalState":{"key":"14","name":"Sachsen"}},{"name":"Am Fichtenthal","postalCode":"09337","locality":"Hohenstein-Ernstthal","municipality":{"key":"14524120","name":"Hohenstein-Ernstthal, Stadt","type":"Stadt"},"district":{"key":"14524","name":"Zwickau","type":"Landkreis"},"federalState":{"key":"14","name":"Sachsen"}},{"name":"Am Finkenschlag","postalCode":"09337","locality":"Hohenstein-Ernstthal","municipality":{"key":"14524120","name":"Hohenstein-Ernstthal, Stadt","type":"Stadt"},"district":{"key":"14524","name":"Zwickau","type":"Landkreis"},"federalState":{"key":"14","name":"Sachsen"}},{"name":"Am Fuchsgrund","postalCode":"09337","locality":"Hohenstein-Ernstthal","municipality":{"key":"14524120","name":"Hohenstein-Ernstthal, Stadt","type":"Stadt"},"district":{"key":"14524","name":"Zwickau","type":"Landkreis"},"federalState":{"key":"14","name":"Sachsen"}},{"name":"Am Grund","postalCode":"09337","locality":"Hohenstein-Ernstthal","municipality":{"key":"14524120","name":"Hohenstein-Ernstthal, Stadt","type":"Stadt"},"district":{"key":"14524","name":"Zwickau","type":"Landkreis"},"federalState":{"key":"14","name":"Sachsen"}},{"name":"Am Güterbahnhof","postalCode":"09337","locality":"Hohenstein-Ernstthal","municipality":{"key":"14524120","name":"Hohenstein-Ernstthal, Stadt","type":"Stadt"},"district":{"key":"14524","name":"Zwickau","type":"Landkreis"},"federalState":{"key":"14","name":"Sachsen"}},{"name":"Am Hang","postalCode":"09337","locality":"Hohenstein-Ernstthal","municipality":{"key":"14524120","name":"Hohenstein-Ernstthal, Stadt","type":"Stadt"},"district":{"key":"14524","name":"Zwickau","type":"Landkreis"},"federalState":{"key":"14","name":"Sachsen"}},{"name":"Am Hasenhügel","postalCode":"09337","locality":"Hohenstein-Ernstthal","municipality":{"key":"14524120","name":"Hohenstein-Ernstthal, Stadt","type":"Stadt"},"district":{"key":"14524","name":"Zwickau","type":"Landkreis"},"federalState":{"key":"14","name":"Sachsen"}},{"name":"Am Heidelberg","postalCode":"09337","locality":"Hohenstein-Ernstthal","municipality":{"key":"14524120","name":"Hohenstein-Ernstthal, Stadt","type":"Stadt"},"district":{"key":"14524","name":"Zwickau","type":"Landkreis"},"federalState":{"key":"14","name":"Sachsen"}},{"name":"Am Kirchenfeld","postalCode":"09337","locality":"Hohenstein-Ernstthal","municipality":{"key":"14524120","name":"Hohenstein-Ernstthal, Stadt","type":"Stadt"},"district":{"key":"14524","name":"Zwickau","type":"Landkreis"},"federalState":{"key":"14","name":"Sachsen"}},{"name":"Am Logenberg","postalCode":"09337","locality":"Hohenstein-Ernstthal","municipality":{"key":"14524120","name":"Hohenstein-Ernstthal, Stadt","type":"Stadt"},"district":{"key":"14524","name":"Zwickau","type":"Landkreis"},"federalState":{"key":"14","name":"Sachsen"}},{"name":"Am Ochsenborn","postalCode":"09337","locality":"Hohenstein-Ernstthal","municipality":{"key":"14524120","name":"Hohenstein-Ernstthal, Stadt","type":"Stadt"},"district":{"key":"14524","name":"Zwickau","type":"Landkreis"},"federalState":{"key":"14","name":"Sachsen"}},{"name":"Am Plan","postalCode":"09337","locality":"Hohenstein-Ernstthal","municipality":{"key":"14524120","name":"Hohenstein-Ernstthal, Stadt","type":"Stadt"},"district":{"key":"14524","name":"Zwickau","type":"Landkreis"},"federalState":{"key":"14","name":"Sachsen"}},{"name":"Am Sachsenring","postalCode":"09337","locality":"Hohenstein-Ernstthal","municipality":{"key":"14524120","name":"Hohenstein-Ernstthal, Stadt","type":"Stadt"},"district":{"key":"14524","name":"Zwickau","type":"Landkreis"},"federalState":{"key":"14","name":"Sachsen"}},{"name":"Am Schulberg","postalCode":"09337","locality":"Hohenstein-Ernstthal","municipality":{"key":"14524120","name":"Hohenstein-Ernstthal, Stadt","type":"Stadt"},"district":{"key":"14524","name":"Zwickau","type":"Landkreis"},"federalState":{"key":"14","name":"Sachsen"}},{"name":"Am Steinbruch","postalCode":"09337","locality":"Hohenstein-Ernstthal","municipality":{"key":"14524120","name":"Hohenstein-Ernstthal, Stadt","type":"Stadt"},"district":{"key":"14524","name":"Zwickau","type":"Landkreis"},"federalState":{"key":"14","name":"Sachsen"}},{"name":"Am Ziegeleiweg","postalCode":"09337","locality":"Hohenstein-Ernstthal","municipality":{"key":"14524120","name":"Hohenstein-Ernstthal, Stadt","type":"Stadt"},"district":{"key":"14524","name":"Zwickau","type":"Landkreis"},"federalState":{"key":"14","name":"Sachsen"}},{"name":"An den Heroldteichen","postalCode":"09337","locality":"Hohenstein-Ernstthal","municipality":{"key":"14524120","name":"Hohenstein-Ernstthal, Stadt","type":"Stadt"},"district":{"key":"14524","name":"Zwickau","type":"Landkreis"},"federalState":{"key":"14","name":"Sachsen"}},{"name":"An der Baumschule","postalCode":"09337","locality":"Hohenstein-Ernstthal","municipality":{"key":"14524120","name":"Hohenstein-Ernstthal, Stadt","type":"Stadt"},"district":{"key":"14524","name":"Zwickau","type":"Landkreis"},"federalState":{"key":"14","name":"Sachsen"}},{"name":"An der Halde","postalCode":"09337","locality":"Hohenstein-Ernstthal","municipality":{"key":"14524120","name":"Hohenstein-Ernstthal, Stadt","type":"Stadt"},"district":{"key":"14524","name":"Zwickau","type":"Landkreis"},"federalState":{"key":"14","name":"Sachsen"}},{"name":"An der Insel","postalCode":"09337","locality":"Hohenstein-Ernstthal","municipality":{"key":"14524120","name":"Hohenstein-Ernstthal, Stadt","type":"Stadt"},"district":{"key":"14524","name":"Zwickau","type":"Landkreis"},"federalState":{"key":"14","name":"Sachsen"}},{"name":"An der Schwimmhalle","postalCode":"09337","locality":"Hohenstein-Ernstthal","municipality":{"key":"14524120","name":"Hohenstein-Ernstthal, Stadt","type":"Stadt"},"district":{"key":"14524","name":"Zwickau","type":"Landkreis"},"federalState":{"key":"14","name":"Sachsen"}},{"name":"An der Windmühle","postalCode":"09337","locality":"Hohenstein-Ernstthal","municipality":{"key":"14524120","name":"Hohenstein-Ernstthal, Stadt","type":"Stadt"},"district":{"key":"14524","name":"Zwickau","type":"Landkreis"},"federalState":{"key":"14","name":"Sachsen"}},{"name":"Antonstr.","postalCode":"09337","locality":"Hohenstein-Ernstthal","municipality":{"key":"14524120","name":"Hohenstein-Ernstthal, Stadt","type":"Stadt"},"district":{"key":"14524","name":"Zwickau","type":"Landkreis"},"federalState":{"key":"14","name":"Sachsen"}},{"name":"Aue","postalCode":"09337","locality":"Hohenstein-Ernstthal","municipality":{"key":"14524120","name":"Hohenstein-Ernstthal, Stadt","type":"Stadt"},"district":{"key":"14524","name":"Zwickau","type":"Landkreis"},"federalState":{"key":"14","name":"Sachsen"}},{"name":"August-Bebel-Str.","postalCode":"09337","locality":"Hohenstein-Ernstthal","municipality":{"key":"14524120","name":"Hohenstein-Ernstthal, Stadt","type":"Stadt"},"district":{"key":"14524","name":"Zwickau","type":"Landkreis"},"federalState":{"key":"14","name":"Sachsen"}},{"name":"Badegasse","postalCode":"09337","locality":"Hohenstein-Ernstthal","municipality":{"key":"14524120","name":"Hohenstein-Ernstthal, Stadt","type":"Stadt"},"district":{"key":"14524","name":"Zwickau","type":"Landkreis"},"federalState":{"key":"14","name":"Sachsen"}},{"name":"Bahnhofstr.","postalCode":"09337","locality":"Hohenstein-Ernstthal","municipality":{"key":"14524120","name":"Hohenstein-Ernstthal, Stadt","type":"Stadt"},"district":{"key":"14524","name":"Zwickau","type":"Landkreis"},"federalState":{"key":"14","name":"Sachsen"}},{"name":"Baumgartenstr.","postalCode":"09337","locality":"Hohenstein-Ernstthal","municipality":{"key":"14524120","name":"Hohenstein-Ernstthal, Stadt","type":"Stadt"},"district":{"key":"14524","name":"Zwickau","type":"Landkreis"},"federalState":{"key":"14","name":"Sachsen"}},{"name":"Bergstr.","postalCode":"09337","locality":"Hohenstein-Ernstthal","municipality":{"key":"14524120","name":"Hohenstein-Ernstthal, Stadt","type":"Stadt"},"district":{"key":"14524","name":"Zwickau","type":"Landkreis"},"federalState":{"key":"14","name":"Sachsen"}},{"name":"Bernhard-Anger-Str.","postalCode":"09337","locality":"Hohenstein-Ernstthal","municipality":{"key":"14524120","name":"Hohenstein-Ernstthal, Stadt","type":"Stadt"},"district":{"key":"14524","name":"Zwickau","type":"Landkreis"},"federalState":{"key":"14","name":"Sachsen"}},{"name":"Birkensteig","postalCode":"09337","locality":"Hohenstein-Ernstthal","municipality":{"key":"14524120","name":"Hohenstein-Ernstthal, Stadt","type":"Stadt"},"district":{"key":"14524","name":"Zwickau","type":"Landkreis"},"federalState":{"key":"14","name":"Sachsen"}},{"name":"Braugasse","postalCode":"09337","locality":"Hohenstein-Ernstthal","municipality":{"key":"14524120","name":"Hohenstein-Ernstthal, Stadt","type":"Stadt"},"district":{"key":"14524","name":"Zwickau","type":"Landkreis"},"federalState":{"key":"14","name":"Sachsen"}},{"name":"Breite Str.","postalCode":"09337","locality":"Hohenstein-Ernstthal","municipality":{"key":"14524120","name":"Hohenstein-Ernstthal, Stadt","type":"Stadt"},"district":{"key":"14524","name":"Zwickau","type":"Landkreis"},"federalState":{"key":"14","name":"Sachsen"}},{"name":"Brückenstr.","postalCode":"09337","locality":"Hohenstein-Ernstthal","municipality":{"key":"14524120","name":"Hohenstein-Ernstthal, Stadt","type":"Stadt"},"district":{"key":"14524","name":"Zwickau","type":"Landkreis"},"federalState":{"key":"14","name":"Sachsen"}},{"name":"Charlottenstr.","postalCode":"09337","locality":"Hohenstein-Ernstthal","municipality":{"key":"14524120","name":"Hohenstein-Ernstthal, Stadt","type":"Stadt"},"district":{"key":"14524","name":"Zwickau","type":"Landkreis"},"federalState":{"key":"14","name":"Sachsen"}},{"name":"Conrad-Clauß-Str.","postalCode":"09337","locality":"Hohenstein-Ernstthal","municipality":{"key":"14524120","name":"Hohenstein-Ernstthal, Stadt","type":"Stadt"},"district":{"key":"14524","name":"Zwickau","type":"Landkreis"},"federalState":{"key":"14","name":"Sachsen"}},{"name":"Damaschkeweg","postalCode":"09337","locality":"Hohenstein-Ernstthal","municipality":{"key":"14524120","name":"Hohenstein-Ernstthal, Stadt","type":"Stadt"},"district":{"key":"14524","name":"Zwickau","type":"Landkreis"},"federalState":{"key":"14","name":"Sachsen"}},{"name":"Dammstr.","postalCode":"09337","locality":"Hohenstein-Ernstthal","municipality":{"key":"14524120","name":"Hohenstein-Ernstthal, Stadt","type":"Stadt"},"district":{"key":"14524","name":"Zwickau","type":"Landkreis"},"federalState":{"key":"14","name":"Sachsen"}},{"name":"Dammweg","postalCode":"09337","locality":"Hohenstein-Ernstthal","municipality":{"key":"14524120","name":"Hohenstein-Ernstthal, Stadt","type":"Stadt"},"district":{"key":"14524","name":"Zwickau","type":"Landkreis"},"federalState":{"key":"14","name":"Sachsen"}},{"name":"Dr.-Charlotte-Krenzer-Str.","postalCode":"09337","locality":"Hohenstein-Ernstthal","municipality":{"key":"14524120","name":"Hohenstein-Ernstthal, Stadt","type":"Stadt"},"district":{"key":"14524","name":"Zwickau","type":"Landkreis"},"federalState":{"key":"14","name":"Sachsen"}},{"name":"Dreibrüderweg","postalCode":"09337","locality":"Hohenstein-Ernstthal","municipality":{"key":"14524120","name":"Hohenstein-Ernstthal, Stadt","type":"Stadt"},"district":{"key":"14524","name":"Zwickau","type":"Landkreis"},"federalState":{"key":"14","name":"Sachsen"}},{"name":"Dresdner Str.","postalCode":"09337","locality":"Hohenstein-Ernstthal","municipality":{"key":"14524120","name":"Hohenstein-Ernstthal, Stadt","type":"Stadt"},"district":{"key":"14524","name":"Zwickau","type":"Landkreis"},"federalState":{"key":"14","name":"Sachsen"}},{"name":"Dr.-Wilhelm-Külz-Platz","postalCode":"09337","locality":"Hohenstein-Ernstthal","municipality":{"key":"14524120","name":"Hohenstein-Ernstthal, Stadt","type":"Stadt"},"district":{"key":"14524","name":"Zwickau","type":"Landkreis"},"federalState":{"key":"14","name":"Sachsen"}},{"name":"Ebersbachweg","postalCode":"09337","locality":"Hohenstein-Ernstthal","municipality":{"key":"14524120","name":"Hohenstein-Ernstthal, Stadt","type":"Stadt"},"district":{"key":"14524","name":"Zwickau","type":"Landkreis"},"federalState":{"key":"14","name":"Sachsen"}},{"name":"Erlengrund","postalCode":"09337","locality":"Hohenstein-Ernstthal","municipality":{"key":"14524120","name":"Hohenstein-Ernstthal, Stadt","type":"Stadt"},"district":{"key":"14524","name":"Zwickau","type":"Landkreis"},"federalState":{"key":"14","name":"Sachsen"}},{"name":"Ernst-Thälmann-Siedlung","postalCode":"09337","locality":"Hohenstein-Ernstthal","municipality":{"key":"14524120","name":"Hohenstein-Ernstthal, Stadt","type":"Stadt"},"district":{"key":"14524","name":"Zwickau","type":"Landkreis"},"federalState":{"key":"14","name":"Sachsen"}},{"name":"Erzgebirgsblick","postalCode":"09337","locality":"Hohenstein-Ernstthal","municipality":{"key":"14524120","name":"Hohenstein-Ernstthal, Stadt","type":"Stadt"},"district":{"key":"14524","name":"Zwickau","type":"Landkreis"},"federalState":{"key":"14","name":"Sachsen"}},{"name":"Feldstr.","postalCode":"09337","locality":"Hohenstein-Ernstthal","municipality":{"key":"14524120","name":"Hohenstein-Ernstthal, Stadt","type":"Stadt"},"district":{"key":"14524","name":"Zwickau","type":"Landkreis"},"federalState":{"key":"14","name":"Sachsen"}},{"name":"Forststr.","postalCode":"09337","locality":"Hohenstein-Ernstthal","municipality":{"key":"14524120","name":"Hohenstein-Ernstthal, Stadt","type":"Stadt"},"district":{"key":"14524","name":"Zwickau","type":"Landkreis"},"federalState":{"key":"14","name":"Sachsen"}},{"name":"Friedrich-Engels-Str.","postalCode":"09337","locality":"Hohenstein-Ernstthal","municipality":{"key":"14524120","name":"Hohenstein-Ernstthal, Stadt","type":"Stadt"},"district":{"key":"14524","name":"Zwickau","type":"Landkreis"},"federalState":{"key":"14","name":"Sachsen"}},{"name":"Fritz-Heckert-Siedlung","postalCode":"09337","locality":"Hohenstein-Ernstthal","municipality":{"key":"14524120","name":"Hohenstein-Ernstthal, Stadt","type":"Stadt"},"district":{"key":"14524","name":"Zwickau","type":"Landkreis"},"federalState":{"key":"14","name":"Sachsen"}},{"name":"Fuchsgrund","postalCode":"09337","locality":"Hohenstein-Ernstthal","municipality":{"key":"14524120","name":"Hohenstein-Ernstthal, Stadt","type":"Stadt"},"district":{"key":"14524","name":"Zwickau","type":"Landkreis"},"federalState":{"key":"14","name":"Sachsen"}},{"name":"Funkegässchen","postalCode":"09337","locality":"Hohenstein-Ernstthal","municipality":{"key":"14524120","name":"Hohenstein-Ernstthal, Stadt","type":"Stadt"},"district":{"key":"14524","name":"Zwickau","type":"Landkreis"},"federalState":{"key":"14","name":"Sachsen"}},{"name":"Gartenstr.","postalCode":"09337","locality":"Hohenstein-Ernstthal","municipality":{"key":"14524120","name":"Hohenstein-Ernstthal, Stadt","type":"Stadt"},"district":{"key":"14524","name":"Zwickau","type":"Landkreis"},"federalState":{"key":"14","name":"Sachsen"}},{"name":"Gensch","postalCode":"09337","locality":"Hohenstein-Ernstthal","municipality":{"key":"14524120","name":"Hohenstein-Ernstthal, Stadt","type":"Stadt"},"district":{"key":"14524","name":"Zwickau","type":"Landkreis"},"federalState":{"key":"14","name":"Sachsen"}},{"name":"Gewerbering","postalCode":"09337","locality":"Hohenstein-Ernstthal","municipality":{"key":"14524120","name":"Hohenstein-Ernstthal, Stadt","type":"Stadt"},"district":{"key":"14524","name":"Zwickau","type":"Landkreis"},"federalState":{"key":"14","name":"Sachsen"}},{"name":"Goethestr.","postalCode":"09337","locality":"Hohenstein-Ernstthal","municipality":{"key":"14524120","name":"Hohenstein-Ernstthal, Stadt","type":"Stadt"},"district":{"key":"14524","name":"Zwickau","type":"Landkreis"},"federalState":{"key":"14","name":"Sachsen"}},{"name":"Goldbachstr.","postalCode":"09337","locality":"Hohenstein-Ernstthal","municipality":{"key":"14524120","name":"Hohenstein-Ernstthal, Stadt","type":"Stadt"},"district":{"key":"14524","name":"Zwickau","type":"Landkreis"},"federalState":{"key":"14","name":"Sachsen"}},{"name":"Goldforstweg","postalCode":"09337","locality":"Hohenstein-Ernstthal","municipality":{"key":"14524120","name":"Hohenstein-Ernstthal, Stadt","type":"Stadt"},"district":{"key":"14524","name":"Zwickau","type":"Landkreis"},"federalState":{"key":"14","name":"Sachsen"}},{"name":"Grenzweg","postalCode":"09337","locality":"Hohenstein-Ernstthal","municipality":{"key":"14524120","name":"Hohenstein-Ernstthal, Stadt","type":"Stadt"},"district":{"key":"14524","name":"Zwickau","type":"Landkreis"},"federalState":{"key":"14","name":"Sachsen"}},{"name":"Große Teichstr.","postalCode":"09337","locality":"Hohenstein-Ernstthal","municipality":{"key":"14524120","name":"Hohenstein-Ernstthal, Stadt","type":"Stadt"},"district":{"key":"14524","name":"Zwickau","type":"Landkreis"},"federalState":{"key":"14","name":"Sachsen"}},{"name":"Gutsweg","postalCode":"09337","locality":"Hohenstein-Ernstthal","municipality":{"key":"14524120","name":"Hohenstein-Ernstthal, Stadt","type":"Stadt"},"district":{"key":"14524","name":"Zwickau","type":"Landkreis"},"federalState":{"key":"14","name":"Sachsen"}},{"name":"Hainholzsiedlung","postalCode":"09337","locality":"Hohenstein-Ernstthal","municipality":{"key":"14524120","name":"Hohenstein-Ernstthal, Stadt","type":"Stadt"},"district":{"key":"14524","name":"Zwickau","type":"Landkreis"},"federalState":{"key":"14","name":"Sachsen"}},{"name":"Heinrich-Heine-Str.","postalCode":"09337","locality":"Hohenstein-Ernstthal","municipality":{"key":"14524120","name":"Hohenstein-Ernstthal, Stadt","type":"Stadt"},"district":{"key":"14524","name":"Zwickau","type":"Landkreis"},"federalState":{"key":"14","name":"Sachsen"}},{"name":"Hermann-Schubert-Str.","postalCode":"09337","locality":"Hohenstein-Ernstthal","municipality":{"key":"14524120","name":"Hohenstein-Ernstthal, Stadt","type":"Stadt"},"district":{"key":"14524","name":"Zwickau","type":"Landkreis"},"federalState":{"key":"14","name":"Sachsen"}},{"name":"Herrmannstr.","postalCode":"09337","locality":"Hohenstein-Ernstthal","municipality":{"key":"14524120","name":"Hohenstein-Ernstthal, Stadt","type":"Stadt"},"district":{"key":"14524","name":"Zwickau","type":"Landkreis"},"federalState":{"key":"14","name":"Sachsen"}},{"name":"Hinrich-Wichern-Str.","postalCode":"09337","locality":"Hohenstein-Ernstthal","municipality":{"key":"14524120","name":"Hohenstein-Ernstthal, Stadt","type":"Stadt"},"district":{"key":"14524","name":"Zwickau","type":"Landkreis"},"federalState":{"key":"14","name":"Sachsen"}},{"name":"Hinter dem Gaswerk","postalCode":"09337","locality":"Hohenstein-Ernstthal","municipality":{"key":"14524120","name":"Hohenstein-Ernstthal, Stadt","type":"Stadt"},"district":{"key":"14524","name":"Zwickau","type":"Landkreis"},"federalState":{"key":"14","name":"Sachsen"}},{"name":"Hockenheimer Str.","postalCode":"09337","locality":"Hohenstein-Ernstthal","municipality":{"key":"14524120","name":"Hohenstein-Ernstthal, Stadt","type":"Stadt"},"district":{"key":"14524","name":"Zwickau","type":"Landkreis"},"federalState":{"key":"14","name":"Sachsen"}},{"name":"Hohensteiner Str.","postalCode":"09337","locality":"Hohenstein-Ernstthal","municipality":{"key":"14524120","name":"Hohenstein-Ernstthal, Stadt","type":"Stadt"},"district":{"key":"14524","name":"Zwickau","type":"Landkreis"},"federalState":{"key":"14","name":"Sachsen"}},{"name":"Hohe Str.","postalCode":"09337","locality":"Hohenstein-Ernstthal","municipality":{"key":"14524120","name":"Hohenstein-Ernstthal, Stadt","type":"Stadt"},"district":{"key":"14524","name":"Zwickau","type":"Landkreis"},"federalState":{"key":"14","name":"Sachsen"}},{"name":"Hüttengrund","postalCode":"09337","locality":"Hohenstein-Ernstthal","municipality":{"key":"14524120","name":"Hohenstein-Ernstthal, Stadt","type":"Stadt"},"district":{"key":"14524","name":"Zwickau","type":"Landkreis"},"federalState":{"key":"14","name":"Sachsen"}},{"name":"Hüttengrundsiedlung","postalCode":"09337","locality":"Hohenstein-Ernstthal","municipality":{"key":"14524120","name":"Hohenstein-Ernstthal, Stadt","type":"Stadt"},"district":{"key":"14524","name":"Zwickau","type":"Landkreis"},"federalState":{"key":"14","name":"Sachsen"}},{"name":"Hüttengrundstr.","postalCode":"09337","locality":"Hohenstein-Ernstthal","municipality":{"key":"14524120","name":"Hohenstein-Ernstthal, Stadt","type":"Stadt"},"district":{"key":"14524","name":"Zwickau","type":"Landkreis"},"federalState":{"key":"14","name":"Sachsen"}},{"name":"Im Grünen Winkel","postalCode":"09337","locality":"Hohenstein-Ernstthal","municipality":{"key":"14524120","name":"Hohenstein-Ernstthal, Stadt","type":"Stadt"},"district":{"key":"14524","name":"Zwickau","type":"Landkreis"},"federalState":{"key":"14","name":"Sachsen"}},{"name":"Im Viertel","postalCode":"09337","locality":"Hohenstein-Ernstthal","municipality":{"key":"14524120","name":"Hohenstein-Ernstthal, Stadt","type":"Stadt"},"district":{"key":"14524","name":"Zwickau","type":"Landkreis"},"federalState":{"key":"14","name":"Sachsen"}},{"name":"Jahnpark","postalCode":"09337","locality":"Hohenstein-Ernstthal","municipality":{"key":"14524120","name":"Hohenstein-Ernstthal, Stadt","type":"Stadt"},"district":{"key":"14524","name":"Zwickau","type":"Landkreis"},"federalState":{"key":"14","name":"Sachsen"}},{"name":"Jahnweg","postalCode":"09337","locality":"Hohenstein-Ernstthal","municipality":{"key":"14524120","name":"Hohenstein-Ernstthal, Stadt","type":"Stadt"},"district":{"key":"14524","name":"Zwickau","type":"Landkreis"},"federalState":{"key":"14","name":"Sachsen"}},{"name":"Johann-Simon-Str.","postalCode":"09337","locality":"Hohenstein-Ernstthal","municipality":{"key":"14524120","name":"Hohenstein-Ernstthal, Stadt","type":"Stadt"},"district":{"key":"14524","name":"Zwickau","type":"Landkreis"},"federalState":{"key":"14","name":"Sachsen"}},{"name":"Karl-Jähnig-Str.","postalCode":"09337","locality":"Hohenstein-Ernstthal","municipality":{"key":"14524120","name":"Hohenstein-Ernstthal, Stadt","type":"Stadt"},"district":{"key":"14524","name":"Zwickau","type":"Landkreis"},"federalState":{"key":"14","name":"Sachsen"}},{"name":"Karl-May-Str.","postalCode":"09337","locality":"Hohenstein-Ernstthal","municipality":{"key":"14524120","name":"Hohenstein-Ernstthal, Stadt","type":"Stadt"},"district":{"key":"14524","name":"Zwickau","type":"Landkreis"},"federalState":{"key":"14","name":"Sachsen"}},{"name":"Käthe-Kollwitz-Str.","postalCode":"09337","locality":"Hohenstein-Ernstthal","municipality":{"key":"14524120","name":"Hohenstein-Ernstthal, Stadt","type":"Stadt"},"district":{"key":"14524","name":"Zwickau","type":"Landkreis"},"federalState":{"key":"14","name":"Sachsen"}},{"name":"Kirchweg","postalCode":"09337","locality":"Hohenstein-Ernstthal","municipality":{"key":"14524120","name":"Hohenstein-Ernstthal, Stadt","type":"Stadt"},"district":{"key":"14524","name":"Zwickau","type":"Landkreis"},"federalState":{"key":"14","name":"Sachsen"}},{"name":"Kleine Teichstr.","postalCode":"09337","locality":"Hohenstein-Ernstthal","municipality":{"key":"14524120","name":"Hohenstein-Ernstthal, Stadt","type":"Stadt"},"district":{"key":"14524","name":"Zwickau","type":"Landkreis"},"federalState":{"key":"14","name":"Sachsen"}},{"name":"Kroatenweg","postalCode":"09337","locality":"Hohenstein-Ernstthal","municipality":{"key":"14524120","name":"Hohenstein-Ernstthal, Stadt","type":"Stadt"},"district":{"key":"14524","name":"Zwickau","type":"Landkreis"},"federalState":{"key":"14","name":"Sachsen"}},{"name":"Kühler Morgen","postalCode":"09337","locality":"Hohenstein-Ernstthal","municipality":{"key":"14524120","name":"Hohenstein-Ernstthal, Stadt","type":"Stadt"},"district":{"key":"14524","name":"Zwickau","type":"Landkreis"},"federalState":{"key":"14","name":"Sachsen"}},{"name":"Kunzegasse","postalCode":"09337","locality":"Hohenstein-Ernstthal","municipality":{"key":"14524120","name":"Hohenstein-Ernstthal, Stadt","type":"Stadt"},"district":{"key":"14524","name":"Zwickau","type":"Landkreis"},"federalState":{"key":"14","name":"Sachsen"}},{"name":"Kurze Str.","postalCode":"09337","locality":"Hohenstein-Ernstthal","municipality":{"key":"14524120","name":"Hohenstein-Ernstthal, Stadt","type":"Stadt"},"district":{"key":"14524","name":"Zwickau","type":"Landkreis"},"federalState":{"key":"14","name":"Sachsen"}},{"name":"Lampertusweg","postalCode":"09337","locality":"Hohenstein-Ernstthal","municipality":{"key":"14524120","name":"Hohenstein-Ernstthal, Stadt","type":"Stadt"},"district":{"key":"14524","name":"Zwickau","type":"Landkreis"},"federalState":{"key":"14","name":"Sachsen"}},{"name":"Landgraben","postalCode":"09337","locality":"Hohenstein-Ernstthal","municipality":{"key":"14524120","name":"Hohenstein-Ernstthal, Stadt","type":"Stadt"},"district":{"key":"14524","name":"Zwickau","type":"Landkreis"},"federalState":{"key":"14","name":"Sachsen"}},{"name":"Langenberger Str.","postalCode":"09337","locality":"Hohenstein-Ernstthal","municipality":{"key":"14524120","name":"Hohenstein-Ernstthal, Stadt","type":"Stadt"},"district":{"key":"14524","name":"Zwickau","type":"Landkreis"},"federalState":{"key":"14","name":"Sachsen"}},{"name":"Lichtensteiner Str.","postalCode":"09337","locality":"Hohenstein-Ernstthal","municipality":{"key":"14524120","name":"Hohenstein-Ernstthal, Stadt","type":"Stadt"},"district":{"key":"14524","name":"Zwickau","type":"Landkreis"},"federalState":{"key":"14","name":"Sachsen"}},{"name":"Limbacher Str.","postalCode":"09337","locality":"Hohenstein-Ernstthal","municipality":{"key":"14524120","name":"Hohenstein-Ernstthal, Stadt","type":"Stadt"},"district":{"key":"14524","name":"Zwickau","type":"Landkreis"},"federalState":{"key":"14","name":"Sachsen"}},{"name":"Lindenhofweg","postalCode":"09337","locality":"Hohenstein-Ernstthal","municipality":{"key":"14524120","name":"Hohenstein-Ernstthal, Stadt","type":"Stadt"},"district":{"key":"14524","name":"Zwickau","type":"Landkreis"},"federalState":{"key":"14","name":"Sachsen"}},{"name":"Lindenstr.","postalCode":"09337","locality":"Hohenstein-Ernstthal","municipality":{"key":"14524120","name":"Hohenstein-Ernstthal, Stadt","type":"Stadt"},"district":{"key":"14524","name":"Zwickau","type":"Landkreis"},"federalState":{"key":"14","name":"Sachsen"}},{"name":"Logenstr.","postalCode":"09337","locality":"Hohenstein-Ernstthal","municipality":{"key":"14524120","name":"Hohenstein-Ernstthal, Stadt","type":"Stadt"},"district":{"key":"14524","name":"Zwickau","type":"Landkreis"},"federalState":{"key":"14","name":"Sachsen"}},{"name":"Lungwitzer Str.","postalCode":"09337","locality":"Hohenstein-Ernstthal","municipality":{"key":"14524120","name":"Hohenstein-Ernstthal, Stadt","type":"Stadt"},"district":{"key":"14524","name":"Zwickau","type":"Landkreis"},"federalState":{"key":"14","name":"Sachsen"}},{"name":"Lutherstr.","postalCode":"09337","locality":"Hohenstein-Ernstthal","municipality":{"key":"14524120","name":"Hohenstein-Ernstthal, Stadt","type":"Stadt"},"district":{"key":"14524","name":"Zwickau","type":"Landkreis"},"federalState":{"key":"14","name":"Sachsen"}},{"name":"Maria-Reiff-Weg","postalCode":"09337","locality":"Hohenstein-Ernstthal","municipality":{"key":"14524120","name":"Hohenstein-Ernstthal, Stadt","type":"Stadt"},"district":{"key":"14524","name":"Zwickau","type":"Landkreis"},"federalState":{"key":"14","name":"Sachsen"}},{"name":"Marktstr.","postalCode":"09337","locality":"Hohenstein-Ernstthal","municipality":{"key":"14524120","name":"Hohenstein-Ernstthal, Stadt","type":"Stadt"},"district":{"key":"14524","name":"Zwickau","type":"Landkreis"},"federalState":{"key":"14","name":"Sachsen"}},{"name":"Meinsdorfer Str.","postalCode":"09337","locality":"Hohenstein-Ernstthal","municipality":{"key":"14524120","name":"Hohenstein-Ernstthal, Stadt","type":"Stadt"},"district":{"key":"14524","name":"Zwickau","type":"Landkreis"},"federalState":{"key":"14","name":"Sachsen"}},{"name":"Meinsdorfer Weg","postalCode":"09337","locality":"Hohenstein-Ernstthal","municipality":{"key":"14524120","name":"Hohenstein-Ernstthal, Stadt","type":"Stadt"},"district":{"key":"14524","name":"Zwickau","type":"Landkreis"},"federalState":{"key":"14","name":"Sachsen"}},{"name":"Meißnergasse","postalCode":"09337","locality":"Hohenstein-Ernstthal","municipality":{"key":"14524120","name":"Hohenstein-Ernstthal, Stadt","type":"Stadt"},"district":{"key":"14524","name":"Zwickau","type":"Landkreis"},"federalState":{"key":"14","name":"Sachsen"}},{"name":"Melanchthonstr.","postalCode":"09337","locality":"Hohenstein-Ernstthal","municipality":{"key":"14524120","name":"Hohenstein-Ernstthal, Stadt","type":"Stadt"},"district":{"key":"14524","name":"Zwickau","type":"Landkreis"},"federalState":{"key":"14","name":"Sachsen"}},{"name":"Mittelstr.","postalCode":"09337","locality":"Hohenstein-Ernstthal","municipality":{"key":"14524120","name":"Hohenstein-Ernstthal, Stadt","type":"Stadt"},"district":{"key":"14524","name":"Zwickau","type":"Landkreis"},"federalState":{"key":"14","name":"Sachsen"}},{"name":"Mühlenweg","postalCode":"09337","locality":"Hohenstein-Ernstthal","municipality":{"key":"14524120","name":"Hohenstein-Ernstthal, Stadt","type":"Stadt"},"district":{"key":"14524","name":"Zwickau","type":"Landkreis"},"federalState":{"key":"14","name":"Sachsen"}},{"name":"Neue Str.","postalCode":"09337","locality":"Hohenstein-Ernstthal","municipality":{"key":"14524120","name":"Hohenstein-Ernstthal, Stadt","type":"Stadt"},"district":{"key":"14524","name":"Zwickau","type":"Landkreis"},"federalState":{"key":"14","name":"Sachsen"}},{"name":"Neumarkt","postalCode":"09337","locality":"Hohenstein-Ernstthal","municipality":{"key":"14524120","name":"Hohenstein-Ernstthal, Stadt","type":"Stadt"},"district":{"key":"14524","name":"Zwickau","type":"Landkreis"},"federalState":{"key":"14","name":"Sachsen"}},{"name":"Oberlungwitzer Str.","postalCode":"09337","locality":"Hohenstein-Ernstthal","municipality":{"key":"14524120","name":"Hohenstein-Ernstthal, Stadt","type":"Stadt"},"district":{"key":"14524","name":"Zwickau","type":"Landkreis"},"federalState":{"key":"14","name":"Sachsen"}},{"name":"Oststr.","postalCode":"09337","locality":"Hohenstein-Ernstthal","municipality":{"key":"14524120","name":"Hohenstein-Ernstthal, Stadt","type":"Stadt"},"district":{"key":"14524","name":"Zwickau","type":"Landkreis"},"federalState":{"key":"14","name":"Sachsen"}},{"name":"Ottostr.","postalCode":"09337","locality":"Hohenstein-Ernstthal","municipality":{"key":"14524120","name":"Hohenstein-Ernstthal, Stadt","type":"Stadt"},"district":{"key":"14524","name":"Zwickau","type":"Landkreis"},"federalState":{"key":"14","name":"Sachsen"}},{"name":"Paul-Greifzu-Str.","postalCode":"09337","locality":"Hohenstein-Ernstthal","municipality":{"key":"14524120","name":"Hohenstein-Ernstthal, Stadt","type":"Stadt"},"district":{"key":"14524","name":"Zwickau","type":"Landkreis"},"federalState":{"key":"14","name":"Sachsen"}},{"name":"Pestalozzistr.","postalCode":"09337","locality":"Hohenstein-Ernstthal","municipality":{"key":"14524120","name":"Hohenstein-Ernstthal, Stadt","type":"Stadt"},"district":{"key":"14524","name":"Zwickau","type":"Landkreis"},"federalState":{"key":"14","name":"Sachsen"}},{"name":"Pfaffenberg","postalCode":"09337","locality":"Hohenstein-Ernstthal","municipality":{"key":"14524120","name":"Hohenstein-Ernstthal, Stadt","type":"Stadt"},"district":{"key":"14524","name":"Zwickau","type":"Landkreis"},"federalState":{"key":"14","name":"Sachsen"}},{"name":"Pfarrhain","postalCode":"09337","locality":"Hohenstein-Ernstthal","municipality":{"key":"14524120","name":"Hohenstein-Ernstthal, Stadt","type":"Stadt"},"district":{"key":"14524","name":"Zwickau","type":"Landkreis"},"federalState":{"key":"14","name":"Sachsen"}},{"name":"Pölitzstr.","postalCode":"09337","locality":"Hohenstein-Ernstthal","municipality":{"key":"14524120","name":"Hohenstein-Ernstthal, Stadt","type":"Stadt"},"district":{"key":"14524","name":"Zwickau","type":"Landkreis"},"federalState":{"key":"14","name":"Sachsen"}},{"name":"Poststr.","postalCode":"09337","locality":"Hohenstein-Ernstthal","municipality":{"key":"14524120","name":"Hohenstein-Ernstthal, Stadt","type":"Stadt"},"district":{"key":"14524","name":"Zwickau","type":"Landkreis"},"federalState":{"key":"14","name":"Sachsen"}},{"name":"Quergasse","postalCode":"08058","locality":"Zwickau","municipality":{"key":"14524330","name":"Zwickau, Stadt","type":"Stadt"},"district":{"key":"14524","name":"Zwickau","type":"Landkreis"},"federalState":{"key":"14","name":"Sachsen"}},{"name":"Querstr.","postalCode":"08056","locality":"Zwickau","municipality":{"key":"14524330","name":"Zwickau, Stadt","type":"Stadt"},"district":{"key":"14524","name":"Zwickau","type":"Landkreis"},"federalState":{"key":"14","name":"Sachsen"}},{"name":"Querweg","postalCode":"08064","locality":"Zwickau","municipality":{"key":"14524330","name":"Zwickau, Stadt","type":"Stadt"},"district":{"key":"14524","name":"Zwickau","type":"Landkreis"},"federalState":{"key":"14","name":"Sachsen"}},{"name":"Ringstr.","postalCode":"09337","locality":"Hohenstein-Ernstthal","municipality":{"key":"14524120","name":"Hohenstein-Ernstthal, Stadt","type":"Stadt"},"district":{"key":"14524","name":"Zwickau","type":"Landkreis"},"federalState":{"key":"14","name":"Sachsen"}},{"name":"Röhrensteig","postalCode":"09337","locality":"Hohenstein-Ernstthal","municipality":{"key":"14524120","name":"Hohenstein-Ernstthal, Stadt","type":"Stadt"},"district":{"key":"14524","name":"Zwickau","type":"Landkreis"},"federalState":{"key":"14","name":"Sachsen"}},{"name":"Sachsenring","postalCode":"09337","locality":"Hohenstein-Ernstthal","municipality":{"key":"14524120","name":"Hohenstein-Ernstthal, Stadt","type":"Stadt"},"district":{"key":"14524","name":"Zwickau","type":"Landkreis"},"federalState":{"key":"14","name":"Sachsen"}},{"name":"Scherfstr.","postalCode":"09337","locality":"Hohenstein-Ernstthal","municipality":{"key":"14524120","name":"Hohenstein-Ernstthal, Stadt","type":"Stadt"},"district":{"key":"14524","name":"Zwickau","type":"Landkreis"},"federalState":{"key":"14","name":"Sachsen"}},{"name":"Schillerstr.","postalCode":"09337","locality":"Hohenstein-Ernstthal","municipality":{"key":"14524120","name":"Hohenstein-Ernstthal, Stadt","type":"Stadt"},"district":{"key":"14524","name":"Zwickau","type":"Landkreis"},"federalState":{"key":"14","name":"Sachsen"}},{"name":"Schlackenweg","postalCode":"09337","locality":"Hohenstein-Ernstthal","municipality":{"key":"14524120","name":"Hohenstein-Ernstthal, Stadt","type":"Stadt"},"district":{"key":"14524","name":"Zwickau","type":"Landkreis"},"federalState":{"key":"14","name":"Sachsen"}},{"name":"Schubertstr.","postalCode":"09337","locality":"Hohenstein-Ernstthal","municipality":{"key":"14524120","name":"Hohenstein-Ernstthal, Stadt","type":"Stadt"},"district":{"key":"14524","name":"Zwickau","type":"Landkreis"},"federalState":{"key":"14","name":"Sachsen"}},{"name":"Schülergässchen","postalCode":"09337","locality":"Hohenstein-Ernstthal","municipality":{"key":"14524120","name":"Hohenstein-Ernstthal, Stadt","type":"Stadt"},"district":{"key":"14524","name":"Zwickau","type":"Landkreis"},"federalState":{"key":"14","name":"Sachsen"}},{"name":"Schulstr.","postalCode":"09337","locality":"Hohenstein-Ernstthal","municipality":{"key":"14524120","name":"Hohenstein-Ernstthal, Stadt","type":"Stadt"},"district":{"key":"14524","name":"Zwickau","type":"Landkreis"},"federalState":{"key":"14","name":"Sachsen"}},{"name":"Schulzegasse","postalCode":"09337","locality":"Hohenstein-Ernstthal","municipality":{"key":"14524120","name":"Hohenstein-Ernstthal, Stadt","type":"Stadt"},"district":{"key":"14524","name":"Zwickau","type":"Landkreis"},"federalState":{"key":"14","name":"Sachsen"}},{"name":"Schützenstr.","postalCode":"09337","locality":"Hohenstein-Ernstthal","municipality":{"key":"14524120","name":"Hohenstein-Ernstthal, Stadt","type":"Stadt"},"district":{"key":"14524","name":"Zwickau","type":"Landkreis"},"federalState":{"key":"14","name":"Sachsen"}},{"name":"Siedlerweg","postalCode":"09337","locality":"Hohenstein-Ernstthal","municipality":{"key":"14524120","name":"Hohenstein-Ernstthal, Stadt","type":"Stadt"},"district":{"key":"14524","name":"Zwickau","type":"Landkreis"},"federalState":{"key":"14","name":"Sachsen"}},{"name":"Siedlungsweg","postalCode":"09337","locality":"Hohenstein-Ernstthal","municipality":{"key":"14524120","name":"Hohenstein-Ernstthal, Stadt","type":"Stadt"},"district":{"key":"14524","name":"Zwickau","type":"Landkreis"},"federalState":{"key":"14","name":"Sachsen"}},{"name":"Silbergäßchen","postalCode":"09337","locality":"Hohenstein-Ernstthal","municipality":{"key":"14524120","name":"Hohenstein-Ernstthal, Stadt","type":"Stadt"},"district":{"key":"14524","name":"Zwickau","type":"Landkreis"},"federalState":{"key":"14","name":"Sachsen"}},{"name":"Sonnenhof","postalCode":"09337","locality":"Hohenstein-Ernstthal","municipality":{"key":"14524120","name":"Hohenstein-Ernstthal, Stadt","type":"Stadt"},"district":{"key":"14524","name":"Zwickau","type":"Landkreis"},"federalState":{"key":"14","name":"Sachsen"}},{"name":"Sonnenstr.","postalCode":"09337","locality":"Hohenstein-Ernstthal","municipality":{"key":"14524120","name":"Hohenstein-Ernstthal, Stadt","type":"Stadt"},"district":{"key":"14524","name":"Zwickau","type":"Landkreis"},"federalState":{"key":"14","name":"Sachsen"}},{"name":"St.-Anna-Weg","postalCode":"09337","locality":"Hohenstein-Ernstthal","municipality":{"key":"14524120","name":"Hohenstein-Ernstthal, Stadt","type":"Stadt"},"district":{"key":"14524","name":"Zwickau","type":"Landkreis"},"federalState":{"key":"14","name":"Sachsen"}},{"name":"Steinberg","postalCode":"09337","locality":"Hohenstein-Ernstthal","municipality":{"key":"14524120","name":"Hohenstein-Ernstthal, Stadt","type":"Stadt"},"district":{"key":"14524","name":"Zwickau","type":"Landkreis"},"federalState":{"key":"14","name":"Sachsen"}},{"name":"Str. der Einheit","postalCode":"09337","locality":"Hohenstein-Ernstthal","municipality":{"key":"14524120","name":"Hohenstein-Ernstthal, Stadt","type":"Stadt"},"district":{"key":"14524","name":"Zwickau","type":"Landkreis"},"federalState":{"key":"14","name":"Sachsen"}},{"name":"Str. des Friedens","postalCode":"09337","locality":"Hohenstein-Ernstthal","municipality":{"key":"14524120","name":"Hohenstein-Ernstthal, Stadt","type":"Stadt"},"district":{"key":"14524","name":"Zwickau","type":"Landkreis"},"federalState":{"key":"14","name":"Sachsen"}},{"name":"Südstr.","postalCode":"09337","locality":"Hohenstein-Ernstthal","municipality":{"key":"14524120","name":"Hohenstein-Ernstthal, Stadt","type":"Stadt"},"district":{"key":"14524","name":"Zwickau","type":"Landkreis"},"federalState":{"key":"14","name":"Sachsen"}},{"name":"Talstr.","postalCode":"09337","locality":"Hohenstein-Ernstthal","municipality":{"key":"14524120","name":"Hohenstein-Ernstthal, Stadt","type":"Stadt"},"district":{"key":"14524","name":"Zwickau","type":"Landkreis"},"federalState":{"key":"14","name":"Sachsen"}},{"name":"Theodor-Körner-Str.","postalCode":"09337","locality":"Hohenstein-Ernstthal","municipality":{"key":"14524120","name":"Hohenstein-Ernstthal, Stadt","type":"Stadt"},"district":{"key":"14524","name":"Zwickau","type":"Landkreis"},"federalState":{"key":"14","name":"Sachsen"}},{"name":"Turnerstr.","postalCode":"09337","locality":"Hohenstein-Ernstthal","municipality":{"key":"14524120","name":"Hohenstein-Ernstthal, Stadt","type":"Stadt"},"district":{"key":"14524","name":"Zwickau","type":"Landkreis"},"federalState":{"key":"14","name":"Sachsen"}},{"name":"Uferstr.","postalCode":"09337","locality":"Hohenstein-Ernstthal","municipality":{"key":"14524120","name":"Hohenstein-Ernstthal, Stadt","type":"Stadt"},"district":{"key":"14524","name":"Zwickau","type":"Landkreis"},"federalState":{"key":"14","name":"Sachsen"}},{"name":"Veilchenweg","postalCode":"08058","locality":"Zwickau","municipality":{"key":"14524330","name":"Zwickau, Stadt","type":"Stadt"},"district":{"key":"14524","name":"Zwickau","type":"Landkreis"},"federalState":{"key":"14","name":"Sachsen"}},{"name":"Vereinsglückstr.","postalCode":"08056","locality":"Zwickau","municipality":{"key":"14524330","name":"Zwickau, Stadt","type":"Stadt"},"district":{"key":"14524","name":"Zwickau","type":"Landkreis"},"federalState":{"key":"14","name":"Sachsen"}},{"name":"Virchowplatz","postalCode":"08060","locality":"Zwickau","municipality":{"key":"14524330","name":"Zwickau, Stadt","type":"Stadt"},"district":{"key":"14524","name":"Zwickau","type":"Landkreis"},"federalState":{"key":"14","name":"Sachsen"}},{"name":"Vollrathstr.","postalCode":"08066","locality":"Zwickau","municipality":{"key":"14524330","name":"Zwickau, Stadt","type":"Stadt"},"district":{"key":"14524","name":"Zwickau","type":"Landkreis"},"federalState":{"key":"14","name":"Sachsen"}},{"name":"Von-Schlegel-Str.","postalCode":"08056","locality":"Zwickau","municipality":{"key":"14524330","name":"Zwickau, Stadt","type":"Stadt"},"district":{"key":"14524","name":"Zwickau","type":"Landkreis"},"federalState":{"key":"14","name":"Sachsen"}},{"name":"Von-Weber-Str.","postalCode":"08064","locality":"Zwickau","municipality":{"key":"14524330","name":"Zwickau, Stadt","type":"Stadt"},"district":{"key":"14524","name":"Zwickau","type":"Landkreis"},"federalState":{"key":"14","name":"Sachsen"}},{"name":"Waldenburger Str.","postalCode":"09337","locality":"Hohenstein-Ernstthal","municipality":{"key":"14524120","name":"Hohenstein-Ernstthal, Stadt","type":"Stadt"},"district":{"key":"14524","name":"Zwickau","type":"Landkreis"},"federalState":{"key":"14","name":"Sachsen"}},{"name":"Weinkellerstr.","postalCode":"09337","locality":"Hohenstein-Ernstthal","municipality":{"key":"14524120","name":"Hohenstein-Ernstthal, Stadt","type":"Stadt"},"district":{"key":"14524","name":"Zwickau","type":"Landkreis"},"federalState":{"key":"14","name":"Sachsen"}},{"name":"Weststr.","postalCode":"09337","locality":"Hohenstein-Ernstthal","municipality":{"key":"14524120","name":"Hohenstein-Ernstthal, Stadt","type":"Stadt"},"district":{"key":"14524","name":"Zwickau","type":"Landkreis"},"federalState":{"key":"14","name":"Sachsen"}},{"name":"Wettinstr.","postalCode":"09337","locality":"Hohenstein-Ernstthal","municipality":{"key":"14524120","name":"Hohenstein-Ernstthal, Stadt","type":"Stadt"},"district":{"key":"14524","name":"Zwickau","type":"Landkreis"},"federalState":{"key":"14","name":"Sachsen"}},{"name":"Wetzelstr.","postalCode":"09337","locality":"Hohenstein-Ernstthal","municipality":{"key":"14524120","name":"Hohenstein-Ernstthal, Stadt","type":"Stadt"},"district":{"key":"14524","name":"Zwickau","type":"Landkreis"},"federalState":{"key":"14","name":"Sachsen"}},{"name":"Wiesenstr.","postalCode":"09337","locality":"Hohenstein-Ernstthal","municipality":{"key":"14524120","name":"Hohenstein-Ernstthal, Stadt","type":"Stadt"},"district":{"key":"14524","name":"Zwickau","type":"Landkreis"},"federalState":{"key":"14","name":"Sachsen"}},{"name":"Wilhelm-Liebknecht-Str.","postalCode":"09337","locality":"Hohenstein-Ernstthal","municipality":{"key":"14524120","name":"Hohenstein-Ernstthal, Stadt","type":"Stadt"},"district":{"key":"14524","name":"Zwickau","type":"Landkreis"},"federalState":{"key":"14","name":"Sachsen"}},{"name":"Wilhelmstr.","postalCode":"09337","locality":"Hohenstein-Ernstthal","municipality":{"key":"14524120","name":"Hohenstein-Ernstthal, Stadt","type":"Stadt"},"district":{"key":"14524","name":"Zwickau","type":"Landkreis"},"federalState":{"key":"14","name":"Sachsen"}},{"name":"Wind","postalCode":"09337","locality":"Hohenstein-Ernstthal","municipality":{"key":"14524120","name":"Hohenstein-Ernstthal, Stadt","type":"Stadt"},"district":{"key":"14524","name":"Zwickau","type":"Landkreis"},"federalState":{"key":"14","name":"Sachsen"}},{"name":"Windmühlengässchen","postalCode":"09337","locality":"Hohenstein-Ernstthal","municipality":{"key":"14524120","name":"Hohenstein-Ernstthal, Stadt","type":"Stadt"},"district":{"key":"14524","name":"Zwickau","type":"Landkreis"},"federalState":{"key":"14","name":"Sachsen"}},{"name":"Windsiedlung","postalCode":"09337","locality":"Hohenstein-Ernstthal","municipality":{"key":"14524120","name":"Hohenstein-Ernstthal, Stadt","type":"Stadt"},"district":{"key":"14524","name":"Zwickau","type":"Landkreis"},"federalState":{"key":"14","name":"Sachsen"}},{"name":"Wüstenbrander Schulstr.","postalCode":"09337","locality":"Hohenstein-Ernstthal","municipality":{"key":"14524120","name":"Hohenstein-Ernstthal, Stadt","type":"Stadt"},"district":{"key":"14524","name":"Zwickau","type":"Landkreis"},"federalState":{"key":"14","name":"Sachsen"}},{"name":"Zechenstr.","postalCode":"09337","locality":"Hohenstein-Ernstthal","municipality":{"key":"14524120","name":"Hohenstein-Ernstthal, Stadt","type":"Stadt"},"district":{"key":"14524","name":"Zwickau","type":"Landkreis"},"federalState":{"key":"14","name":"Sachsen"}},{"name":"Zeißigstr.","postalCode":"09337","locality":"Hohenstein-Ernstthal","municipality":{"key":"14524120","name":"Hohenstein-Ernstthal, Stadt","type":"Stadt"},"district":{"key":"14524","name":"Zwickau","type":"Landkreis"},"federalState":{"key":"14","name":"Sachsen"}},{"name":"Zillplatz","postalCode":"09337","locality":"Hohenstein-Ernstthal","municipality":{"key":"14524120","name":"Hohenstein-Ernstthal, Stadt","type":"Stadt"},"district":{"key":"14524","name":"Zwickau","type":"Landkreis"},"federalState":{"key":"14","name":"Sachsen"}},{"name":"Zur Schönen Aussicht","postalCode":"09337","locality":"Hohenstein-Ernstthal","municipality":{"key":"14524120","name":"Hohenstein-Ernstthal, Stadt","type":"Stadt"},"district":{"key":"14524","name":"Zwickau","type":"Landkreis"},"federalState":{"key":"14","name":"Sachsen"}},{"name":"Äußere Dresdner Str.","postalCode":"08066","locality":"Zwickau","municipality":{"key":"14524330","name":"Zwickau, Stadt","type":"Stadt"},"district":{"key":"14524","name":"Zwickau","type":"Landkreis"},"federalState":{"key":"14","name":"Sachsen"}},{"name":"Äußere Schneeberger Str.","postalCode":"08056","locality":"Zwickau","municipality":{"key":"14524330","name":"Zwickau, Stadt","type":"Stadt"},"district":{"key":"14524","name":"Zwickau","type":"Landkreis"},"federalState":{"key":"14","name":"Sachsen"}},{"name":"Äußere Zwickauer Str.","postalCode":"08064","locality":"Zwickau","municipality":{"key":"14524330","name":"Zwickau, Stadt","type":"Stadt"},"district":{"key":"14524","name":"Zwickau","type":"Landkreis"},"federalState":{"key":"14","name":"Sachsen"}},]