[{"key":"10165898","name":"Alp Prünella","postalCode":"7523","locality":"Madulain","commune":{"key":"3783","name":"Madulain","shortName":"Madulain"},"district":{"key":"1846","name":"Region Maloja"},"canton":{"key":"18","code":"GR","name":"Graubünden / Grigioni / Grischun"},"status":"Real"},{"key":"10259048","name":"Via Chantunela","postalCode":"7523","locality":"Madulain","commune":{"key":"3783","name":"Madulain","shortName":"Madulain"},"district":{"key":"1846","name":"Region Maloja"},"canton":{"key":"18","code":"GR","name":"Graubünden / Grigioni / Grischun"},"status":"Real"},{"key":"10173974","name":"Via da la Staziun","postalCode":"7523","locality":"Madulain","commune":{"key":"3783","name":"Madulain","shortName":"Madulain"},"district":{"key":"1846","name":"Region Maloja"},"canton":{"key":"18","code":"GR","name":"Graubünden / Grigioni / Grischun"},"status":"Real"},{"key":"10161088","name":"Via d'Alp","postalCode":"7523","locality":"Madulain","commune":{"key":"3783","name":"Madulain","shortName":"Madulain"},"district":{"key":"1846","name":"Region Maloja"},"canton":{"key":"18","code":"GR","name":"Graubünden / Grigioni / Grischun"},"status":"Real"},{"key":"10039016","name":"Via Fops","postalCode":"7523","locality":"Madulain","commune":{"key":"3783","name":"Madulain","shortName":"Madulain"},"district":{"key":"1846","name":"Region Maloja"},"canton":{"key":"18","code":"GR","name":"Graubünden / Grigioni / Grischun"},"status":"Real"},{"key":"10137914","name":"Via Gravulaina","postalCode":"7523","locality":"Madulain","commune":{"key":"3783","name":"Madulain","shortName":"Madulain"},"district":{"key":"1846","name":"Region Maloja"},"canton":{"key":"18","code":"GR","name":"Graubünden / Grigioni / Grischun"},"status":"Real"},{"key":"10129815","name":"Via Principela","postalCode":"7523","locality":"Madulain","commune":{"key":"3783","name":"Madulain","shortName":"Madulain"},"district":{"key":"1846","name":"Region Maloja"},"canton":{"key":"18","code":"GR","name":"Graubünden / Grigioni / Grischun"},"status":"Real"},{"key":"10039017","name":"Via Somvih","postalCode":"7523","locality":"Madulain","commune":{"key":"3783","name":"Madulain","shortName":"Madulain"},"district":{"key":"1846","name":"Region Maloja"},"canton":{"key":"18","code":"GR","name":"Graubünden / Grigioni / Grischun"},"status":"Real"},{"key":"10191172","name":"Via Spih","postalCode":"7523","locality":"Madulain","commune":{"key":"3783","name":"Madulain","shortName":"Madulain"},"district":{"key":"1846","name":"Region Maloja"},"canton":{"key":"18","code":"GR","name":"Graubünden / Grigioni / Grischun"},"status":"Real"},{"key":"10075222","name":"Via Suot","postalCode":"7523","locality":"Madulain","commune":{"key":"3783","name":"Madulain","shortName":"Madulain"},"district":{"key":"1846","name":"Region Maloja"},"canton":{"key":"18","code":"GR","name":"Graubünden / Grigioni / Grischun"},"status":"Real"},{"key":"10165895","name":"Via Sur En","postalCode":"7523","locality":"Madulain","commune":{"key":"3783","name":"Madulain","shortName":"Madulain"},"district":{"key":"1846","name":"Region Maloja"},"canton":{"key":"18","code":"GR","name":"Graubünden / Grigioni / Grischun"},"status":"Real"},{"key":"10137913","name":"Via Vallatscha","postalCode":"7523","locality":"Madulain","commune":{"key":"3783","name":"Madulain","shortName":"Madulain"},"district":{"key":"1846","name":"Region Maloja"},"canton":{"key":"18","code":"GR","name":"Graubünden / Grigioni / Grischun"},"status":"Real"},]