[{"name":"Ackerstr.","postalCode":"56727","locality":"Mayen","municipality":{"key":"07137068","name":"Mayen, Stadt","type":"Stadt"},"district":{"key":"07137","name":"Mayen-Koblenz","type":"Landkreis"},"federalState":{"key":"07","name":"Rheinland-Pfalz"}},{"name":"Ahornweg","postalCode":"56727","locality":"Mayen","municipality":{"key":"07137068","name":"Mayen, Stadt","type":"Stadt"},"district":{"key":"07137","name":"Mayen-Koblenz","type":"Landkreis"},"federalState":{"key":"07","name":"Rheinland-Pfalz"}},{"name":"Albert-Schweitzer-Str.","postalCode":"56727","locality":"Mayen","municipality":{"key":"07137068","name":"Mayen, Stadt","type":"Stadt"},"district":{"key":"07137","name":"Mayen-Koblenz","type":"Landkreis"},"federalState":{"key":"07","name":"Rheinland-Pfalz"}},{"name":"Albertus-Magnus-Str.","postalCode":"56727","locality":"Mayen","municipality":{"key":"07137068","name":"Mayen, Stadt","type":"Stadt"},"district":{"key":"07137","name":"Mayen-Koblenz","type":"Landkreis"},"federalState":{"key":"07","name":"Rheinland-Pfalz"}},{"name":"Alexander-von-Humboldt-Str.","postalCode":"56727","locality":"Mayen","municipality":{"key":"07137068","name":"Mayen, Stadt","type":"Stadt"},"district":{"key":"07137","name":"Mayen-Koblenz","type":"Landkreis"},"federalState":{"key":"07","name":"Rheinland-Pfalz"}},{"name":"Alkenstr.","postalCode":"56727","locality":"Mayen","municipality":{"key":"07137068","name":"Mayen, Stadt","type":"Stadt"},"district":{"key":"07137","name":"Mayen-Koblenz","type":"Landkreis"},"federalState":{"key":"07","name":"Rheinland-Pfalz"}},{"name":"Alleestr.","postalCode":"56727","locality":"Mayen","municipality":{"key":"07137068","name":"Mayen, Stadt","type":"Stadt"},"district":{"key":"07137","name":"Mayen-Koblenz","type":"Landkreis"},"federalState":{"key":"07","name":"Rheinland-Pfalz"}},{"name":"Allenzer Str.","postalCode":"56727","locality":"Mayen","municipality":{"key":"07137068","name":"Mayen, Stadt","type":"Stadt"},"district":{"key":"07137","name":"Mayen-Koblenz","type":"Landkreis"},"federalState":{"key":"07","name":"Rheinland-Pfalz"}},{"name":"Alte Heerstr.","postalCode":"56727","locality":"Mayen","municipality":{"key":"07137068","name":"Mayen, Stadt","type":"Stadt"},"district":{"key":"07137","name":"Mayen-Koblenz","type":"Landkreis"},"federalState":{"key":"07","name":"Rheinland-Pfalz"}},{"name":"Alte Hohl","postalCode":"56727","locality":"Mayen","municipality":{"key":"07137068","name":"Mayen, Stadt","type":"Stadt"},"district":{"key":"07137","name":"Mayen-Koblenz","type":"Landkreis"},"federalState":{"key":"07","name":"Rheinland-Pfalz"}},{"name":"Alter Andernacher Weg","postalCode":"56727","locality":"Mayen","municipality":{"key":"07137068","name":"Mayen, Stadt","type":"Stadt"},"district":{"key":"07137","name":"Mayen-Koblenz","type":"Landkreis"},"federalState":{"key":"07","name":"Rheinland-Pfalz"}},{"name":"Am Barwinkel","postalCode":"56727","locality":"Mayen","municipality":{"key":"07137068","name":"Mayen, Stadt","type":"Stadt"},"district":{"key":"07137","name":"Mayen-Koblenz","type":"Landkreis"},"federalState":{"key":"07","name":"Rheinland-Pfalz"}},{"name":"Am Brückentor","postalCode":"56727","locality":"Mayen","municipality":{"key":"07137068","name":"Mayen, Stadt","type":"Stadt"},"district":{"key":"07137","name":"Mayen-Koblenz","type":"Landkreis"},"federalState":{"key":"07","name":"Rheinland-Pfalz"}},{"name":"Am Dorfbrunnen","postalCode":"56727","locality":"Mayen","municipality":{"key":"07137068","name":"Mayen, Stadt","type":"Stadt"},"district":{"key":"07137","name":"Mayen-Koblenz","type":"Landkreis"},"federalState":{"key":"07","name":"Rheinland-Pfalz"}},{"name":"Am Erdwall","postalCode":"56727","locality":"Mayen","municipality":{"key":"07137068","name":"Mayen, Stadt","type":"Stadt"},"district":{"key":"07137","name":"Mayen-Koblenz","type":"Landkreis"},"federalState":{"key":"07","name":"Rheinland-Pfalz"}},{"name":"Am Hansenkreuz","postalCode":"56727","locality":"Mayen","municipality":{"key":"07137068","name":"Mayen, Stadt","type":"Stadt"},"district":{"key":"07137","name":"Mayen-Koblenz","type":"Landkreis"},"federalState":{"key":"07","name":"Rheinland-Pfalz"}},{"name":"Am Hasberg","postalCode":"56727","locality":"Mayen","municipality":{"key":"07137068","name":"Mayen, Stadt","type":"Stadt"},"district":{"key":"07137","name":"Mayen-Koblenz","type":"Landkreis"},"federalState":{"key":"07","name":"Rheinland-Pfalz"}},{"name":"Am Heckenberg","postalCode":"56727","locality":"Mayen","municipality":{"key":"07137068","name":"Mayen, Stadt","type":"Stadt"},"district":{"key":"07137","name":"Mayen-Koblenz","type":"Landkreis"},"federalState":{"key":"07","name":"Rheinland-Pfalz"}},{"name":"Am Hungerbach","postalCode":"56727","locality":"Mayen","municipality":{"key":"07137068","name":"Mayen, Stadt","type":"Stadt"},"district":{"key":"07137","name":"Mayen-Koblenz","type":"Landkreis"},"federalState":{"key":"07","name":"Rheinland-Pfalz"}},{"name":"Am Kirchenhügel","postalCode":"56727","locality":"Mayen","municipality":{"key":"07137068","name":"Mayen, Stadt","type":"Stadt"},"district":{"key":"07137","name":"Mayen-Koblenz","type":"Landkreis"},"federalState":{"key":"07","name":"Rheinland-Pfalz"}},{"name":"Am Knüppchen","postalCode":"56727","locality":"Mayen","municipality":{"key":"07137068","name":"Mayen, Stadt","type":"Stadt"},"district":{"key":"07137","name":"Mayen-Koblenz","type":"Landkreis"},"federalState":{"key":"07","name":"Rheinland-Pfalz"}},{"name":"Am Lavafeld","postalCode":"56727","locality":"Mayen","municipality":{"key":"07137068","name":"Mayen, Stadt","type":"Stadt"},"district":{"key":"07137","name":"Mayen-Koblenz","type":"Landkreis"},"federalState":{"key":"07","name":"Rheinland-Pfalz"}},{"name":"Am Layenborn","postalCode":"56727","locality":"Mayen","municipality":{"key":"07137068","name":"Mayen, Stadt","type":"Stadt"},"district":{"key":"07137","name":"Mayen-Koblenz","type":"Landkreis"},"federalState":{"key":"07","name":"Rheinland-Pfalz"}},{"name":"Am Layerhof","postalCode":"56727","locality":"Mayen","municipality":{"key":"07137068","name":"Mayen, Stadt","type":"Stadt"},"district":{"key":"07137","name":"Mayen-Koblenz","type":"Landkreis"},"federalState":{"key":"07","name":"Rheinland-Pfalz"}},{"name":"Am Mosellaplatz","postalCode":"56727","locality":"Mayen","municipality":{"key":"07137068","name":"Mayen, Stadt","type":"Stadt"},"district":{"key":"07137","name":"Mayen-Koblenz","type":"Landkreis"},"federalState":{"key":"07","name":"Rheinland-Pfalz"}},{"name":"Am Neutor","postalCode":"56727","locality":"Mayen","municipality":{"key":"07137068","name":"Mayen, Stadt","type":"Stadt"},"district":{"key":"07137","name":"Mayen-Koblenz","type":"Landkreis"},"federalState":{"key":"07","name":"Rheinland-Pfalz"}},{"name":"Am Obertor","postalCode":"56727","locality":"Mayen","municipality":{"key":"07137068","name":"Mayen, Stadt","type":"Stadt"},"district":{"key":"07137","name":"Mayen-Koblenz","type":"Landkreis"},"federalState":{"key":"07","name":"Rheinland-Pfalz"}},{"name":"Am Park","postalCode":"56727","locality":"Mayen","municipality":{"key":"07137068","name":"Mayen, Stadt","type":"Stadt"},"district":{"key":"07137","name":"Mayen-Koblenz","type":"Landkreis"},"federalState":{"key":"07","name":"Rheinland-Pfalz"}},{"name":"Am Scheid","postalCode":"56727","locality":"Mayen","municipality":{"key":"07137068","name":"Mayen, Stadt","type":"Stadt"},"district":{"key":"07137","name":"Mayen-Koblenz","type":"Landkreis"},"federalState":{"key":"07","name":"Rheinland-Pfalz"}},{"name":"Amselweg","postalCode":"56727","locality":"Mayen","municipality":{"key":"07137068","name":"Mayen, Stadt","type":"Stadt"},"district":{"key":"07137","name":"Mayen-Koblenz","type":"Landkreis"},"federalState":{"key":"07","name":"Rheinland-Pfalz"}},{"name":"Am Sonnenhang","postalCode":"56727","locality":"Mayen","municipality":{"key":"07137068","name":"Mayen, Stadt","type":"Stadt"},"district":{"key":"07137","name":"Mayen-Koblenz","type":"Landkreis"},"federalState":{"key":"07","name":"Rheinland-Pfalz"}},{"name":"Am Sürchen","postalCode":"56727","locality":"Mayen","municipality":{"key":"07137068","name":"Mayen, Stadt","type":"Stadt"},"district":{"key":"07137","name":"Mayen-Koblenz","type":"Landkreis"},"federalState":{"key":"07","name":"Rheinland-Pfalz"}},{"name":"Am Taubenberg","postalCode":"56727","locality":"Mayen","municipality":{"key":"07137068","name":"Mayen, Stadt","type":"Stadt"},"district":{"key":"07137","name":"Mayen-Koblenz","type":"Landkreis"},"federalState":{"key":"07","name":"Rheinland-Pfalz"}},{"name":"Am Vulkanpark","postalCode":"56727","locality":"Mayen","municipality":{"key":"07137068","name":"Mayen, Stadt","type":"Stadt"},"district":{"key":"07137","name":"Mayen-Koblenz","type":"Landkreis"},"federalState":{"key":"07","name":"Rheinland-Pfalz"}},{"name":"Am Wasserturm","postalCode":"56727","locality":"Mayen","municipality":{"key":"07137068","name":"Mayen, Stadt","type":"Stadt"},"district":{"key":"07137","name":"Mayen-Koblenz","type":"Landkreis"},"federalState":{"key":"07","name":"Rheinland-Pfalz"}},{"name":"Am Wittbender Tor","postalCode":"56727","locality":"Mayen","municipality":{"key":"07137068","name":"Mayen, Stadt","type":"Stadt"},"district":{"key":"07137","name":"Mayen-Koblenz","type":"Landkreis"},"federalState":{"key":"07","name":"Rheinland-Pfalz"}},{"name":"An den Mühlsteinen","postalCode":"56727","locality":"Mayen","municipality":{"key":"07137068","name":"Mayen, Stadt","type":"Stadt"},"district":{"key":"07137","name":"Mayen-Koblenz","type":"Landkreis"},"federalState":{"key":"07","name":"Rheinland-Pfalz"}},{"name":"An der Bleiche","postalCode":"56727","locality":"Mayen","municipality":{"key":"07137068","name":"Mayen, Stadt","type":"Stadt"},"district":{"key":"07137","name":"Mayen-Koblenz","type":"Landkreis"},"federalState":{"key":"07","name":"Rheinland-Pfalz"}},{"name":"An der Kirche","postalCode":"56727","locality":"Mayen","municipality":{"key":"07137068","name":"Mayen, Stadt","type":"Stadt"},"district":{"key":"07137","name":"Mayen-Koblenz","type":"Landkreis"},"federalState":{"key":"07","name":"Rheinland-Pfalz"}},{"name":"An der Lay","postalCode":"56727","locality":"Mayen","municipality":{"key":"07137068","name":"Mayen, Stadt","type":"Stadt"},"district":{"key":"07137","name":"Mayen-Koblenz","type":"Landkreis"},"federalState":{"key":"07","name":"Rheinland-Pfalz"}},{"name":"An der Saalburg","postalCode":"56727","locality":"Mayen","municipality":{"key":"07137068","name":"Mayen, Stadt","type":"Stadt"},"district":{"key":"07137","name":"Mayen-Koblenz","type":"Landkreis"},"federalState":{"key":"07","name":"Rheinland-Pfalz"}},{"name":"An der Stadtmauer","postalCode":"56727","locality":"Mayen","municipality":{"key":"07137068","name":"Mayen, Stadt","type":"Stadt"},"district":{"key":"07137","name":"Mayen-Koblenz","type":"Landkreis"},"federalState":{"key":"07","name":"Rheinland-Pfalz"}},{"name":"An der Teichwiese","postalCode":"56727","locality":"Mayen","municipality":{"key":"07137068","name":"Mayen, Stadt","type":"Stadt"},"district":{"key":"07137","name":"Mayen-Koblenz","type":"Landkreis"},"federalState":{"key":"07","name":"Rheinland-Pfalz"}},{"name":"Auf Briddel","postalCode":"56727","locality":"Mayen","municipality":{"key":"07137068","name":"Mayen, Stadt","type":"Stadt"},"district":{"key":"07137","name":"Mayen-Koblenz","type":"Landkreis"},"federalState":{"key":"07","name":"Rheinland-Pfalz"}},{"name":"Auf dem Hügel","postalCode":"56727","locality":"Mayen","municipality":{"key":"07137068","name":"Mayen, Stadt","type":"Stadt"},"district":{"key":"07137","name":"Mayen-Koblenz","type":"Landkreis"},"federalState":{"key":"07","name":"Rheinland-Pfalz"}},{"name":"Auf dem Weingarten","postalCode":"56727","locality":"Mayen","municipality":{"key":"07137068","name":"Mayen, Stadt","type":"Stadt"},"district":{"key":"07137","name":"Mayen-Koblenz","type":"Landkreis"},"federalState":{"key":"07","name":"Rheinland-Pfalz"}},{"name":"Auf dem Werth","postalCode":"56727","locality":"Mayen","municipality":{"key":"07137068","name":"Mayen, Stadt","type":"Stadt"},"district":{"key":"07137","name":"Mayen-Koblenz","type":"Landkreis"},"federalState":{"key":"07","name":"Rheinland-Pfalz"}},{"name":"Auf den Steinen","postalCode":"56727","locality":"Mayen","municipality":{"key":"07137068","name":"Mayen, Stadt","type":"Stadt"},"district":{"key":"07137","name":"Mayen-Koblenz","type":"Landkreis"},"federalState":{"key":"07","name":"Rheinland-Pfalz"}},{"name":"Auf der Eich","postalCode":"56727","locality":"Mayen","municipality":{"key":"07137068","name":"Mayen, Stadt","type":"Stadt"},"district":{"key":"07137","name":"Mayen-Koblenz","type":"Landkreis"},"federalState":{"key":"07","name":"Rheinland-Pfalz"}},{"name":"Auf der Klapp","postalCode":"56727","locality":"Mayen","municipality":{"key":"07137068","name":"Mayen, Stadt","type":"Stadt"},"district":{"key":"07137","name":"Mayen-Koblenz","type":"Landkreis"},"federalState":{"key":"07","name":"Rheinland-Pfalz"}},{"name":"Bachstr.","postalCode":"56727","locality":"Mayen","municipality":{"key":"07137068","name":"Mayen, Stadt","type":"Stadt"},"district":{"key":"07137","name":"Mayen-Koblenz","type":"Landkreis"},"federalState":{"key":"07","name":"Rheinland-Pfalz"}},{"name":"Bäckerstr.","postalCode":"56727","locality":"Mayen","municipality":{"key":"07137068","name":"Mayen, Stadt","type":"Stadt"},"district":{"key":"07137","name":"Mayen-Koblenz","type":"Landkreis"},"federalState":{"key":"07","name":"Rheinland-Pfalz"}},{"name":"Backewiese","postalCode":"56727","locality":"Mayen","municipality":{"key":"07137068","name":"Mayen, Stadt","type":"Stadt"},"district":{"key":"07137","name":"Mayen-Koblenz","type":"Landkreis"},"federalState":{"key":"07","name":"Rheinland-Pfalz"}},{"name":"Bahnhofstr.","postalCode":"56727","locality":"Mayen","municipality":{"key":"07137068","name":"Mayen, Stadt","type":"Stadt"},"district":{"key":"07137","name":"Mayen-Koblenz","type":"Landkreis"},"federalState":{"key":"07","name":"Rheinland-Pfalz"}},{"name":"Balduinstr.","postalCode":"56727","locality":"Mayen","municipality":{"key":"07137068","name":"Mayen, Stadt","type":"Stadt"},"district":{"key":"07137","name":"Mayen-Koblenz","type":"Landkreis"},"federalState":{"key":"07","name":"Rheinland-Pfalz"}},{"name":"Balthasar-Krems-Str.","postalCode":"56727","locality":"Mayen","municipality":{"key":"07137068","name":"Mayen, Stadt","type":"Stadt"},"district":{"key":"07137","name":"Mayen-Koblenz","type":"Landkreis"},"federalState":{"key":"07","name":"Rheinland-Pfalz"}},{"name":"Bannerberg","postalCode":"56727","locality":"Mayen","municipality":{"key":"07137068","name":"Mayen, Stadt","type":"Stadt"},"district":{"key":"07137","name":"Mayen-Koblenz","type":"Landkreis"},"federalState":{"key":"07","name":"Rheinland-Pfalz"}},{"name":"Bärengasse","postalCode":"56727","locality":"Mayen","municipality":{"key":"07137068","name":"Mayen, Stadt","type":"Stadt"},"district":{"key":"07137","name":"Mayen-Koblenz","type":"Landkreis"},"federalState":{"key":"07","name":"Rheinland-Pfalz"}},{"name":"Basaltweg","postalCode":"56727","locality":"Mayen","municipality":{"key":"07137068","name":"Mayen, Stadt","type":"Stadt"},"district":{"key":"07137","name":"Mayen-Koblenz","type":"Landkreis"},"federalState":{"key":"07","name":"Rheinland-Pfalz"}},{"name":"Bergstr.","postalCode":"56727","locality":"Mayen","municipality":{"key":"07137068","name":"Mayen, Stadt","type":"Stadt"},"district":{"key":"07137","name":"Mayen-Koblenz","type":"Landkreis"},"federalState":{"key":"07","name":"Rheinland-Pfalz"}},{"name":"Berresheimer Str.","postalCode":"56727","locality":"Mayen","municipality":{"key":"07137068","name":"Mayen, Stadt","type":"Stadt"},"district":{"key":"07137","name":"Mayen-Koblenz","type":"Landkreis"},"federalState":{"key":"07","name":"Rheinland-Pfalz"}},{"name":"Betzinger Weg","postalCode":"56727","locality":"Mayen","municipality":{"key":"07137068","name":"Mayen, Stadt","type":"Stadt"},"district":{"key":"07137","name":"Mayen-Koblenz","type":"Landkreis"},"federalState":{"key":"07","name":"Rheinland-Pfalz"}},{"name":"Birkenweg","postalCode":"56727","locality":"Mayen","municipality":{"key":"07137068","name":"Mayen, Stadt","type":"Stadt"},"district":{"key":"07137","name":"Mayen-Koblenz","type":"Landkreis"},"federalState":{"key":"07","name":"Rheinland-Pfalz"}},{"name":"Bleichenweg","postalCode":"56727","locality":"Mayen","municipality":{"key":"07137068","name":"Mayen, Stadt","type":"Stadt"},"district":{"key":"07137","name":"Mayen-Koblenz","type":"Landkreis"},"federalState":{"key":"07","name":"Rheinland-Pfalz"}},{"name":"Blumenstr.","postalCode":"56727","locality":"Mayen","municipality":{"key":"07137068","name":"Mayen, Stadt","type":"Stadt"},"district":{"key":"07137","name":"Mayen-Koblenz","type":"Landkreis"},"federalState":{"key":"07","name":"Rheinland-Pfalz"}},{"name":"Boemundring","postalCode":"56727","locality":"Mayen","municipality":{"key":"07137068","name":"Mayen, Stadt","type":"Stadt"},"district":{"key":"07137","name":"Mayen-Koblenz","type":"Landkreis"},"federalState":{"key":"07","name":"Rheinland-Pfalz"}},{"name":"Bornhaustert","postalCode":"56727","locality":"Mayen","municipality":{"key":"07137068","name":"Mayen, Stadt","type":"Stadt"},"district":{"key":"07137","name":"Mayen-Koblenz","type":"Landkreis"},"federalState":{"key":"07","name":"Rheinland-Pfalz"}},{"name":"Breslaustr.","postalCode":"56727","locality":"Mayen","municipality":{"key":"07137068","name":"Mayen, Stadt","type":"Stadt"},"district":{"key":"07137","name":"Mayen-Koblenz","type":"Landkreis"},"federalState":{"key":"07","name":"Rheinland-Pfalz"}},{"name":"Brückenstr.","postalCode":"56727","locality":"Mayen","municipality":{"key":"07137068","name":"Mayen, Stadt","type":"Stadt"},"district":{"key":"07137","name":"Mayen-Koblenz","type":"Landkreis"},"federalState":{"key":"07","name":"Rheinland-Pfalz"}},{"name":"Brückentor","postalCode":"56727","locality":"Mayen","municipality":{"key":"07137068","name":"Mayen, Stadt","type":"Stadt"},"district":{"key":"07137","name":"Mayen-Koblenz","type":"Landkreis"},"federalState":{"key":"07","name":"Rheinland-Pfalz"}},{"name":"Brunnenstr.","postalCode":"56727","locality":"Mayen","municipality":{"key":"07137068","name":"Mayen, Stadt","type":"Stadt"},"district":{"key":"07137","name":"Mayen-Koblenz","type":"Landkreis"},"federalState":{"key":"07","name":"Rheinland-Pfalz"}},{"name":"Buchenstr.","postalCode":"56727","locality":"Mayen","municipality":{"key":"07137068","name":"Mayen, Stadt","type":"Stadt"},"district":{"key":"07137","name":"Mayen-Koblenz","type":"Landkreis"},"federalState":{"key":"07","name":"Rheinland-Pfalz"}},{"name":"Burgfrieden","postalCode":"56727","locality":"Mayen","municipality":{"key":"07137068","name":"Mayen, Stadt","type":"Stadt"},"district":{"key":"07137","name":"Mayen-Koblenz","type":"Landkreis"},"federalState":{"key":"07","name":"Rheinland-Pfalz"}},{"name":"Bürresheimer Str.","postalCode":"56727","locality":"Mayen","municipality":{"key":"07137068","name":"Mayen, Stadt","type":"Stadt"},"district":{"key":"07137","name":"Mayen-Koblenz","type":"Landkreis"},"federalState":{"key":"07","name":"Rheinland-Pfalz"}},{"name":"Conder Str.","postalCode":"56727","locality":"Mayen","municipality":{"key":"07137068","name":"Mayen, Stadt","type":"Stadt"},"district":{"key":"07137","name":"Mayen-Koblenz","type":"Landkreis"},"federalState":{"key":"07","name":"Rheinland-Pfalz"}},{"name":"Dorfstr.","postalCode":"56727","locality":"Mayen","municipality":{"key":"07137068","name":"Mayen, Stadt","type":"Stadt"},"district":{"key":"07137","name":"Mayen-Koblenz","type":"Landkreis"},"federalState":{"key":"07","name":"Rheinland-Pfalz"}},{"name":"Droetscher Str.","postalCode":"56727","locality":"Mayen","municipality":{"key":"07137068","name":"Mayen, Stadt","type":"Stadt"},"district":{"key":"07137","name":"Mayen-Koblenz","type":"Landkreis"},"federalState":{"key":"07","name":"Rheinland-Pfalz"}},{"name":"Eduard-Rhein-Str.","postalCode":"56727","locality":"Mayen","municipality":{"key":"07137068","name":"Mayen, Stadt","type":"Stadt"},"district":{"key":"07137","name":"Mayen-Koblenz","type":"Landkreis"},"federalState":{"key":"07","name":"Rheinland-Pfalz"}},{"name":"Eichendorffstr.","postalCode":"56727","locality":"Mayen","municipality":{"key":"07137068","name":"Mayen, Stadt","type":"Stadt"},"district":{"key":"07137","name":"Mayen-Koblenz","type":"Landkreis"},"federalState":{"key":"07","name":"Rheinland-Pfalz"}},{"name":"Eichenstr.","postalCode":"56727","locality":"Mayen","municipality":{"key":"07137068","name":"Mayen, Stadt","type":"Stadt"},"district":{"key":"07137","name":"Mayen-Koblenz","type":"Landkreis"},"federalState":{"key":"07","name":"Rheinland-Pfalz"}},{"name":"Eifelplatz","postalCode":"56727","locality":"Mayen","municipality":{"key":"07137068","name":"Mayen, Stadt","type":"Stadt"},"district":{"key":"07137","name":"Mayen-Koblenz","type":"Landkreis"},"federalState":{"key":"07","name":"Rheinland-Pfalz"}},{"name":"Eifelstr.","postalCode":"56727","locality":"Mayen","municipality":{"key":"07137068","name":"Mayen, Stadt","type":"Stadt"},"district":{"key":"07137","name":"Mayen-Koblenz","type":"Landkreis"},"federalState":{"key":"07","name":"Rheinland-Pfalz"}},{"name":"Einsteinstr.","postalCode":"56727","locality":"Mayen","municipality":{"key":"07137068","name":"Mayen, Stadt","type":"Stadt"},"district":{"key":"07137","name":"Mayen-Koblenz","type":"Landkreis"},"federalState":{"key":"07","name":"Rheinland-Pfalz"}},{"name":"Eintrachtstr.","postalCode":"56727","locality":"Mayen","municipality":{"key":"07137068","name":"Mayen, Stadt","type":"Stadt"},"district":{"key":"07137","name":"Mayen-Koblenz","type":"Landkreis"},"federalState":{"key":"07","name":"Rheinland-Pfalz"}},{"name":"Eiterbachtal","postalCode":"56727","locality":"Mayen","municipality":{"key":"07137068","name":"Mayen, Stadt","type":"Stadt"},"district":{"key":"07137","name":"Mayen-Koblenz","type":"Landkreis"},"federalState":{"key":"07","name":"Rheinland-Pfalz"}},{"name":"Eltzer Str.","postalCode":"56727","locality":"Mayen","municipality":{"key":"07137068","name":"Mayen, Stadt","type":"Stadt"},"district":{"key":"07137","name":"Mayen-Koblenz","type":"Landkreis"},"federalState":{"key":"07","name":"Rheinland-Pfalz"}},{"name":"Entenpfuhl","postalCode":"56727","locality":"Mayen","municipality":{"key":"07137068","name":"Mayen, Stadt","type":"Stadt"},"district":{"key":"07137","name":"Mayen-Koblenz","type":"Landkreis"},"federalState":{"key":"07","name":"Rheinland-Pfalz"}},{"name":"Erlenstr.","postalCode":"56727","locality":"Mayen","municipality":{"key":"07137068","name":"Mayen, Stadt","type":"Stadt"},"district":{"key":"07137","name":"Mayen-Koblenz","type":"Landkreis"},"federalState":{"key":"07","name":"Rheinland-Pfalz"}},{"name":"Ettringer Weg","postalCode":"56727","locality":"Mayen","municipality":{"key":"07137068","name":"Mayen, Stadt","type":"Stadt"},"district":{"key":"07137","name":"Mayen-Koblenz","type":"Landkreis"},"federalState":{"key":"07","name":"Rheinland-Pfalz"}},{"name":"Feilsgraben","postalCode":"56727","locality":"Mayen","municipality":{"key":"07137068","name":"Mayen, Stadt","type":"Stadt"},"district":{"key":"07137","name":"Mayen-Koblenz","type":"Landkreis"},"federalState":{"key":"07","name":"Rheinland-Pfalz"}},{"name":"Fernblick","postalCode":"56727","locality":"Mayen","municipality":{"key":"07137068","name":"Mayen, Stadt","type":"Stadt"},"district":{"key":"07137","name":"Mayen-Koblenz","type":"Landkreis"},"federalState":{"key":"07","name":"Rheinland-Pfalz"}},{"name":"Finkenweg","postalCode":"56727","locality":"Mayen","municipality":{"key":"07137068","name":"Mayen, Stadt","type":"Stadt"},"district":{"key":"07137","name":"Mayen-Koblenz","type":"Landkreis"},"federalState":{"key":"07","name":"Rheinland-Pfalz"}},{"name":"Finstingenstr.","postalCode":"56727","locality":"Mayen","municipality":{"key":"07137068","name":"Mayen, Stadt","type":"Stadt"},"district":{"key":"07137","name":"Mayen-Koblenz","type":"Landkreis"},"federalState":{"key":"07","name":"Rheinland-Pfalz"}},{"name":"Fontanestr.","postalCode":"56727","locality":"Mayen","municipality":{"key":"07137068","name":"Mayen, Stadt","type":"Stadt"},"district":{"key":"07137","name":"Mayen-Koblenz","type":"Landkreis"},"federalState":{"key":"07","name":"Rheinland-Pfalz"}},{"name":"Frankenstr.","postalCode":"56727","locality":"Mayen","municipality":{"key":"07137068","name":"Mayen, Stadt","type":"Stadt"},"district":{"key":"07137","name":"Mayen-Koblenz","type":"Landkreis"},"federalState":{"key":"07","name":"Rheinland-Pfalz"}},{"name":"Freizeitzentrum Mayen","postalCode":"56727","locality":"Mayen","municipality":{"key":"07137068","name":"Mayen, Stadt","type":"Stadt"},"district":{"key":"07137","name":"Mayen-Koblenz","type":"Landkreis"},"federalState":{"key":"07","name":"Rheinland-Pfalz"}},{"name":"Friedlandstr.","postalCode":"56727","locality":"Mayen","municipality":{"key":"07137068","name":"Mayen, Stadt","type":"Stadt"},"district":{"key":"07137","name":"Mayen-Koblenz","type":"Landkreis"},"federalState":{"key":"07","name":"Rheinland-Pfalz"}},{"name":"Friedrich-Ebert-Str.","postalCode":"56727","locality":"Mayen","municipality":{"key":"07137068","name":"Mayen, Stadt","type":"Stadt"},"district":{"key":"07137","name":"Mayen-Koblenz","type":"Landkreis"},"federalState":{"key":"07","name":"Rheinland-Pfalz"}},{"name":"Gartenstr.","postalCode":"56727","locality":"Mayen","municipality":{"key":"07137068","name":"Mayen, Stadt","type":"Stadt"},"district":{"key":"07137","name":"Mayen-Koblenz","type":"Landkreis"},"federalState":{"key":"07","name":"Rheinland-Pfalz"}},{"name":"Genovevastr.","postalCode":"56727","locality":"Mayen","municipality":{"key":"07137068","name":"Mayen, Stadt","type":"Stadt"},"district":{"key":"07137","name":"Mayen-Koblenz","type":"Landkreis"},"federalState":{"key":"07","name":"Rheinland-Pfalz"}},{"name":"Gerberstr.","postalCode":"56727","locality":"Mayen","municipality":{"key":"07137068","name":"Mayen, Stadt","type":"Stadt"},"district":{"key":"07137","name":"Mayen-Koblenz","type":"Landkreis"},"federalState":{"key":"07","name":"Rheinland-Pfalz"}},{"name":"Gerberweg","postalCode":"56727","locality":"Mayen","municipality":{"key":"07137068","name":"Mayen, Stadt","type":"Stadt"},"district":{"key":"07137","name":"Mayen-Koblenz","type":"Landkreis"},"federalState":{"key":"07","name":"Rheinland-Pfalz"}},{"name":"Geringer Str.","postalCode":"56727","locality":"Mayen","municipality":{"key":"07137068","name":"Mayen, Stadt","type":"Stadt"},"district":{"key":"07137","name":"Mayen-Koblenz","type":"Landkreis"},"federalState":{"key":"07","name":"Rheinland-Pfalz"}},{"name":"Germanenstr.","postalCode":"56727","locality":"Mayen","municipality":{"key":"07137068","name":"Mayen, Stadt","type":"Stadt"},"district":{"key":"07137","name":"Mayen-Koblenz","type":"Landkreis"},"federalState":{"key":"07","name":"Rheinland-Pfalz"}},{"name":"Gevelsbergstr.","postalCode":"56727","locality":"Mayen","municipality":{"key":"07137068","name":"Mayen, Stadt","type":"Stadt"},"district":{"key":"07137","name":"Mayen-Koblenz","type":"Landkreis"},"federalState":{"key":"07","name":"Rheinland-Pfalz"}},{"name":"Gipsmühle","postalCode":"56727","locality":"Mayen","municipality":{"key":"07137068","name":"Mayen, Stadt","type":"Stadt"},"district":{"key":"07137","name":"Mayen-Koblenz","type":"Landkreis"},"federalState":{"key":"07","name":"Rheinland-Pfalz"}},{"name":"Göbelstr.","postalCode":"56727","locality":"Mayen","municipality":{"key":"07137068","name":"Mayen, Stadt","type":"Stadt"},"district":{"key":"07137","name":"Mayen-Koblenz","type":"Landkreis"},"federalState":{"key":"07","name":"Rheinland-Pfalz"}},{"name":"Goethestr.","postalCode":"56727","locality":"Mayen","municipality":{"key":"07137068","name":"Mayen, Stadt","type":"Stadt"},"district":{"key":"07137","name":"Mayen-Koblenz","type":"Landkreis"},"federalState":{"key":"07","name":"Rheinland-Pfalz"}},{"name":"Goldbuschweg","postalCode":"56727","locality":"Mayen","municipality":{"key":"07137068","name":"Mayen, Stadt","type":"Stadt"},"district":{"key":"07137","name":"Mayen-Koblenz","type":"Landkreis"},"federalState":{"key":"07","name":"Rheinland-Pfalz"}},{"name":"Golostr.","postalCode":"56727","locality":"Mayen","municipality":{"key":"07137068","name":"Mayen, Stadt","type":"Stadt"},"district":{"key":"07137","name":"Mayen-Koblenz","type":"Landkreis"},"federalState":{"key":"07","name":"Rheinland-Pfalz"}},{"name":"Gottlieb-Daimler-Str.","postalCode":"56727","locality":"Mayen","municipality":{"key":"07137068","name":"Mayen, Stadt","type":"Stadt"},"district":{"key":"07137","name":"Mayen-Koblenz","type":"Landkreis"},"federalState":{"key":"07","name":"Rheinland-Pfalz"}},{"name":"Graf-Zeppelin-Str.","postalCode":"56727","locality":"Mayen","municipality":{"key":"07137068","name":"Mayen, Stadt","type":"Stadt"},"district":{"key":"07137","name":"Mayen-Koblenz","type":"Landkreis"},"federalState":{"key":"07","name":"Rheinland-Pfalz"}},{"name":"Grubenfeld","postalCode":"56727","locality":"Mayen","municipality":{"key":"07137068","name":"Mayen, Stadt","type":"Stadt"},"district":{"key":"07137","name":"Mayen-Koblenz","type":"Landkreis"},"federalState":{"key":"07","name":"Rheinland-Pfalz"}},{"name":"Habsburgring","postalCode":"56727","locality":"Mayen","municipality":{"key":"07137068","name":"Mayen, Stadt","type":"Stadt"},"district":{"key":"07137","name":"Mayen-Koblenz","type":"Landkreis"},"federalState":{"key":"07","name":"Rheinland-Pfalz"}},{"name":"Hahnengasse","postalCode":"56727","locality":"Mayen","municipality":{"key":"07137068","name":"Mayen, Stadt","type":"Stadt"},"district":{"key":"07137","name":"Mayen-Koblenz","type":"Landkreis"},"federalState":{"key":"07","name":"Rheinland-Pfalz"}},{"name":"Harry-Garm-Weg","postalCode":"56727","locality":"Mayen","municipality":{"key":"07137068","name":"Mayen, Stadt","type":"Stadt"},"district":{"key":"07137","name":"Mayen-Koblenz","type":"Landkreis"},"federalState":{"key":"07","name":"Rheinland-Pfalz"}},{"name":"Haselnussweg","postalCode":"56727","locality":"Mayen","municipality":{"key":"07137068","name":"Mayen, Stadt","type":"Stadt"},"district":{"key":"07137","name":"Mayen-Koblenz","type":"Landkreis"},"federalState":{"key":"07","name":"Rheinland-Pfalz"}},{"name":"Hauptstr.","postalCode":"56727","locality":"Mayen","municipality":{"key":"07137068","name":"Mayen, Stadt","type":"Stadt"},"district":{"key":"07137","name":"Mayen-Koblenz","type":"Landkreis"},"federalState":{"key":"07","name":"Rheinland-Pfalz"}},{"name":"Hausener Landstr.","postalCode":"56727","locality":"Mayen","municipality":{"key":"07137068","name":"Mayen, Stadt","type":"Stadt"},"district":{"key":"07137","name":"Mayen-Koblenz","type":"Landkreis"},"federalState":{"key":"07","name":"Rheinland-Pfalz"}},{"name":"Hausener Str.","postalCode":"56727","locality":"Mayen","municipality":{"key":"07137068","name":"Mayen, Stadt","type":"Stadt"},"district":{"key":"07137","name":"Mayen-Koblenz","type":"Landkreis"},"federalState":{"key":"07","name":"Rheinland-Pfalz"}},{"name":"Haydn-Weg","postalCode":"56727","locality":"Mayen","municipality":{"key":"07137068","name":"Mayen, Stadt","type":"Stadt"},"district":{"key":"07137","name":"Mayen-Koblenz","type":"Landkreis"},"federalState":{"key":"07","name":"Rheinland-Pfalz"}},{"name":"Hinter Burg","postalCode":"56727","locality":"Mayen","municipality":{"key":"07137068","name":"Mayen, Stadt","type":"Stadt"},"district":{"key":"07137","name":"Mayen-Koblenz","type":"Landkreis"},"federalState":{"key":"07","name":"Rheinland-Pfalz"}},{"name":"Hinter den Ställen","postalCode":"56727","locality":"Mayen","municipality":{"key":"07137068","name":"Mayen, Stadt","type":"Stadt"},"district":{"key":"07137","name":"Mayen-Koblenz","type":"Landkreis"},"federalState":{"key":"07","name":"Rheinland-Pfalz"}},{"name":"Hinter Forst","postalCode":"56727","locality":"Mayen","municipality":{"key":"07137068","name":"Mayen, Stadt","type":"Stadt"},"district":{"key":"07137","name":"Mayen-Koblenz","type":"Landkreis"},"federalState":{"key":"07","name":"Rheinland-Pfalz"}},{"name":"Hochscheidstr.","postalCode":"56727","locality":"Mayen","municipality":{"key":"07137068","name":"Mayen, Stadt","type":"Stadt"},"district":{"key":"07137","name":"Mayen-Koblenz","type":"Landkreis"},"federalState":{"key":"07","name":"Rheinland-Pfalz"}},{"name":"Hochstr.","postalCode":"56727","locality":"Mayen","municipality":{"key":"07137068","name":"Mayen, Stadt","type":"Stadt"},"district":{"key":"07137","name":"Mayen-Koblenz","type":"Landkreis"},"federalState":{"key":"07","name":"Rheinland-Pfalz"}},{"name":"Hohlstr.","postalCode":"56727","locality":"Mayen","municipality":{"key":"07137068","name":"Mayen, Stadt","type":"Stadt"},"district":{"key":"07137","name":"Mayen-Koblenz","type":"Landkreis"},"federalState":{"key":"07","name":"Rheinland-Pfalz"}},{"name":"Hohlweiden","postalCode":"56727","locality":"Mayen","municipality":{"key":"07137068","name":"Mayen, Stadt","type":"Stadt"},"district":{"key":"07137","name":"Mayen-Koblenz","type":"Landkreis"},"federalState":{"key":"07","name":"Rheinland-Pfalz"}},{"name":"Hölderlinstr.","postalCode":"56727","locality":"Mayen","municipality":{"key":"07137068","name":"Mayen, Stadt","type":"Stadt"},"district":{"key":"07137","name":"Mayen-Koblenz","type":"Landkreis"},"federalState":{"key":"07","name":"Rheinland-Pfalz"}},{"name":"Holler Pfad","postalCode":"56727","locality":"Mayen","municipality":{"key":"07137068","name":"Mayen, Stadt","type":"Stadt"},"district":{"key":"07137","name":"Mayen-Koblenz","type":"Landkreis"},"federalState":{"key":"07","name":"Rheinland-Pfalz"}},{"name":"Holunderweg","postalCode":"56727","locality":"Mayen","municipality":{"key":"07137068","name":"Mayen, Stadt","type":"Stadt"},"district":{"key":"07137","name":"Mayen-Koblenz","type":"Landkreis"},"federalState":{"key":"07","name":"Rheinland-Pfalz"}},{"name":"Hubertusstr.","postalCode":"56727","locality":"Mayen","municipality":{"key":"07137068","name":"Mayen, Stadt","type":"Stadt"},"district":{"key":"07137","name":"Mayen-Koblenz","type":"Landkreis"},"federalState":{"key":"07","name":"Rheinland-Pfalz"}},{"name":"Im Aller","postalCode":"56727","locality":"Mayen","municipality":{"key":"07137068","name":"Mayen, Stadt","type":"Stadt"},"district":{"key":"07137","name":"Mayen-Koblenz","type":"Landkreis"},"federalState":{"key":"07","name":"Rheinland-Pfalz"}},{"name":"Im Altenborn","postalCode":"56727","locality":"Mayen","municipality":{"key":"07137068","name":"Mayen, Stadt","type":"Stadt"},"district":{"key":"07137","name":"Mayen-Koblenz","type":"Landkreis"},"federalState":{"key":"07","name":"Rheinland-Pfalz"}},{"name":"Im Bannen","postalCode":"56727","locality":"Mayen","municipality":{"key":"07137068","name":"Mayen, Stadt","type":"Stadt"},"district":{"key":"07137","name":"Mayen-Koblenz","type":"Landkreis"},"federalState":{"key":"07","name":"Rheinland-Pfalz"}},{"name":"Im Bienengarten","postalCode":"56727","locality":"Mayen","municipality":{"key":"07137068","name":"Mayen, Stadt","type":"Stadt"},"district":{"key":"07137","name":"Mayen-Koblenz","type":"Landkreis"},"federalState":{"key":"07","name":"Rheinland-Pfalz"}},{"name":"Im Borngraben","postalCode":"56727","locality":"Mayen","municipality":{"key":"07137068","name":"Mayen, Stadt","type":"Stadt"},"district":{"key":"07137","name":"Mayen-Koblenz","type":"Landkreis"},"federalState":{"key":"07","name":"Rheinland-Pfalz"}},{"name":"Im Borntal","postalCode":"56727","locality":"Mayen","municipality":{"key":"07137068","name":"Mayen, Stadt","type":"Stadt"},"district":{"key":"07137","name":"Mayen-Koblenz","type":"Landkreis"},"federalState":{"key":"07","name":"Rheinland-Pfalz"}},{"name":"Im Bungert","postalCode":"56727","locality":"Mayen","municipality":{"key":"07137068","name":"Mayen, Stadt","type":"Stadt"},"district":{"key":"07137","name":"Mayen-Koblenz","type":"Landkreis"},"federalState":{"key":"07","name":"Rheinland-Pfalz"}},{"name":"Im Dehlengarten","postalCode":"56727","locality":"Mayen","municipality":{"key":"07137068","name":"Mayen, Stadt","type":"Stadt"},"district":{"key":"07137","name":"Mayen-Koblenz","type":"Landkreis"},"federalState":{"key":"07","name":"Rheinland-Pfalz"}},{"name":"Im Etzlergraben","postalCode":"56727","locality":"Mayen","municipality":{"key":"07137068","name":"Mayen, Stadt","type":"Stadt"},"district":{"key":"07137","name":"Mayen-Koblenz","type":"Landkreis"},"federalState":{"key":"07","name":"Rheinland-Pfalz"}},{"name":"Im Evgestal","postalCode":"56727","locality":"Mayen","municipality":{"key":"07137068","name":"Mayen, Stadt","type":"Stadt"},"district":{"key":"07137","name":"Mayen-Koblenz","type":"Landkreis"},"federalState":{"key":"07","name":"Rheinland-Pfalz"}},{"name":"Im Flürchen","postalCode":"56727","locality":"Mayen","municipality":{"key":"07137068","name":"Mayen, Stadt","type":"Stadt"},"district":{"key":"07137","name":"Mayen-Koblenz","type":"Landkreis"},"federalState":{"key":"07","name":"Rheinland-Pfalz"}},{"name":"Im Hombrich","postalCode":"56727","locality":"Mayen","municipality":{"key":"07137068","name":"Mayen, Stadt","type":"Stadt"},"district":{"key":"07137","name":"Mayen-Koblenz","type":"Landkreis"},"federalState":{"key":"07","name":"Rheinland-Pfalz"}},{"name":"Im Hostert","postalCode":"56727","locality":"Mayen","municipality":{"key":"07137068","name":"Mayen, Stadt","type":"Stadt"},"district":{"key":"07137","name":"Mayen-Koblenz","type":"Landkreis"},"federalState":{"key":"07","name":"Rheinland-Pfalz"}},{"name":"Im Keutel","postalCode":"56727","locality":"Mayen","municipality":{"key":"07137068","name":"Mayen, Stadt","type":"Stadt"},"district":{"key":"07137","name":"Mayen-Koblenz","type":"Landkreis"},"federalState":{"key":"07","name":"Rheinland-Pfalz"}},{"name":"Im Möhren","postalCode":"56727","locality":"Mayen","municipality":{"key":"07137068","name":"Mayen, Stadt","type":"Stadt"},"district":{"key":"07137","name":"Mayen-Koblenz","type":"Landkreis"},"federalState":{"key":"07","name":"Rheinland-Pfalz"}},{"name":"Im Nettetal","postalCode":"56727","locality":"Mayen","municipality":{"key":"07137068","name":"Mayen, Stadt","type":"Stadt"},"district":{"key":"07137","name":"Mayen-Koblenz","type":"Landkreis"},"federalState":{"key":"07","name":"Rheinland-Pfalz"}},{"name":"Im Preul","postalCode":"56727","locality":"Mayen","municipality":{"key":"07137068","name":"Mayen, Stadt","type":"Stadt"},"district":{"key":"07137","name":"Mayen-Koblenz","type":"Landkreis"},"federalState":{"key":"07","name":"Rheinland-Pfalz"}},{"name":"Im Trinnel","postalCode":"56727","locality":"Mayen","municipality":{"key":"07137068","name":"Mayen, Stadt","type":"Stadt"},"district":{"key":"07137","name":"Mayen-Koblenz","type":"Landkreis"},"federalState":{"key":"07","name":"Rheinland-Pfalz"}},{"name":"Im Vogelsang","postalCode":"56727","locality":"Mayen","municipality":{"key":"07137068","name":"Mayen, Stadt","type":"Stadt"},"district":{"key":"07137","name":"Mayen-Koblenz","type":"Landkreis"},"federalState":{"key":"07","name":"Rheinland-Pfalz"}},{"name":"Im Weiherhölzchen","postalCode":"56727","locality":"Mayen","municipality":{"key":"07137068","name":"Mayen, Stadt","type":"Stadt"},"district":{"key":"07137","name":"Mayen-Koblenz","type":"Landkreis"},"federalState":{"key":"07","name":"Rheinland-Pfalz"}},{"name":"Im Wingert","postalCode":"56727","locality":"Mayen","municipality":{"key":"07137068","name":"Mayen, Stadt","type":"Stadt"},"district":{"key":"07137","name":"Mayen-Koblenz","type":"Landkreis"},"federalState":{"key":"07","name":"Rheinland-Pfalz"}},{"name":"In den Steingärten","postalCode":"56727","locality":"Mayen","municipality":{"key":"07137068","name":"Mayen, Stadt","type":"Stadt"},"district":{"key":"07137","name":"Mayen-Koblenz","type":"Landkreis"},"federalState":{"key":"07","name":"Rheinland-Pfalz"}},{"name":"In den Wingerten","postalCode":"56727","locality":"Mayen","municipality":{"key":"07137068","name":"Mayen, Stadt","type":"Stadt"},"district":{"key":"07137","name":"Mayen-Koblenz","type":"Landkreis"},"federalState":{"key":"07","name":"Rheinland-Pfalz"}},{"name":"In der Merk","postalCode":"56727","locality":"Mayen","municipality":{"key":"07137068","name":"Mayen, Stadt","type":"Stadt"},"district":{"key":"07137","name":"Mayen-Koblenz","type":"Landkreis"},"federalState":{"key":"07","name":"Rheinland-Pfalz"}},{"name":"In der Weiersbach","postalCode":"56727","locality":"Mayen","municipality":{"key":"07137068","name":"Mayen, Stadt","type":"Stadt"},"district":{"key":"07137","name":"Mayen-Koblenz","type":"Landkreis"},"federalState":{"key":"07","name":"Rheinland-Pfalz"}},{"name":"Industriestr.","postalCode":"56727","locality":"Mayen","municipality":{"key":"07137068","name":"Mayen, Stadt","type":"Stadt"},"district":{"key":"07137","name":"Mayen-Koblenz","type":"Landkreis"},"federalState":{"key":"07","name":"Rheinland-Pfalz"}},{"name":"Jägersköpfchen","postalCode":"56727","locality":"Mayen","municipality":{"key":"07137068","name":"Mayen, Stadt","type":"Stadt"},"district":{"key":"07137","name":"Mayen-Koblenz","type":"Landkreis"},"federalState":{"key":"07","name":"Rheinland-Pfalz"}},{"name":"Jägerstieg","postalCode":"56727","locality":"Mayen","municipality":{"key":"07137068","name":"Mayen, Stadt","type":"Stadt"},"district":{"key":"07137","name":"Mayen-Koblenz","type":"Landkreis"},"federalState":{"key":"07","name":"Rheinland-Pfalz"}},{"name":"Jägerstr.","postalCode":"56727","locality":"Mayen","municipality":{"key":"07137068","name":"Mayen, Stadt","type":"Stadt"},"district":{"key":"07137","name":"Mayen-Koblenz","type":"Landkreis"},"federalState":{"key":"07","name":"Rheinland-Pfalz"}},{"name":"Joignystr.","postalCode":"56727","locality":"Mayen","municipality":{"key":"07137068","name":"Mayen, Stadt","type":"Stadt"},"district":{"key":"07137","name":"Mayen-Koblenz","type":"Landkreis"},"federalState":{"key":"07","name":"Rheinland-Pfalz"}},{"name":"Justus-von-Liebig-Str.","postalCode":"56727","locality":"Mayen","municipality":{"key":"07137068","name":"Mayen, Stadt","type":"Stadt"},"district":{"key":"07137","name":"Mayen-Koblenz","type":"Landkreis"},"federalState":{"key":"07","name":"Rheinland-Pfalz"}},{"name":"Kaiserstr.","postalCode":"56727","locality":"Mayen","municipality":{"key":"07137068","name":"Mayen, Stadt","type":"Stadt"},"district":{"key":"07137","name":"Mayen-Koblenz","type":"Landkreis"},"federalState":{"key":"07","name":"Rheinland-Pfalz"}},{"name":"Karbach-Serpentinen","postalCode":"56727","locality":"Mayen","municipality":{"key":"07137068","name":"Mayen, Stadt","type":"Stadt"},"district":{"key":"07137","name":"Mayen-Koblenz","type":"Landkreis"},"federalState":{"key":"07","name":"Rheinland-Pfalz"}},{"name":"Karolingerstr.","postalCode":"56727","locality":"Mayen","municipality":{"key":"07137068","name":"Mayen, Stadt","type":"Stadt"},"district":{"key":"07137","name":"Mayen-Koblenz","type":"Landkreis"},"federalState":{"key":"07","name":"Rheinland-Pfalz"}},{"name":"Kastanienweg","postalCode":"56727","locality":"Mayen","municipality":{"key":"07137068","name":"Mayen, Stadt","type":"Stadt"},"district":{"key":"07137","name":"Mayen-Koblenz","type":"Landkreis"},"federalState":{"key":"07","name":"Rheinland-Pfalz"}},{"name":"Katzenberger Weg","postalCode":"56727","locality":"Mayen","municipality":{"key":"07137068","name":"Mayen, Stadt","type":"Stadt"},"district":{"key":"07137","name":"Mayen-Koblenz","type":"Landkreis"},"federalState":{"key":"07","name":"Rheinland-Pfalz"}},{"name":"Kehriger Str.","postalCode":"56727","locality":"Mayen","municipality":{"key":"07137068","name":"Mayen, Stadt","type":"Stadt"},"district":{"key":"07137","name":"Mayen-Koblenz","type":"Landkreis"},"federalState":{"key":"07","name":"Rheinland-Pfalz"}},{"name":"Kelberger Str.","postalCode":"56727","locality":"Mayen","municipality":{"key":"07137068","name":"Mayen, Stadt","type":"Stadt"},"district":{"key":"07137","name":"Mayen-Koblenz","type":"Landkreis"},"federalState":{"key":"07","name":"Rheinland-Pfalz"}},{"name":"Keltenstr.","postalCode":"56727","locality":"Mayen","municipality":{"key":"07137068","name":"Mayen, Stadt","type":"Stadt"},"district":{"key":"07137","name":"Mayen-Koblenz","type":"Landkreis"},"federalState":{"key":"07","name":"Rheinland-Pfalz"}},{"name":"Kirchgasse","postalCode":"56727","locality":"Mayen","municipality":{"key":"07137068","name":"Mayen, Stadt","type":"Stadt"},"district":{"key":"07137","name":"Mayen-Koblenz","type":"Landkreis"},"federalState":{"key":"07","name":"Rheinland-Pfalz"}},{"name":"Kirchstr.","postalCode":"56727","locality":"Mayen","municipality":{"key":"07137068","name":"Mayen, Stadt","type":"Stadt"},"district":{"key":"07137","name":"Mayen-Koblenz","type":"Landkreis"},"federalState":{"key":"07","name":"Rheinland-Pfalz"}},{"name":"Kirchwalder Str.","postalCode":"56727","locality":"Mayen","municipality":{"key":"07137068","name":"Mayen, Stadt","type":"Stadt"},"district":{"key":"07137","name":"Mayen-Koblenz","type":"Landkreis"},"federalState":{"key":"07","name":"Rheinland-Pfalz"}},{"name":"Koblenzer Str.","postalCode":"56727","locality":"Mayen","municipality":{"key":"07137068","name":"Mayen, Stadt","type":"Stadt"},"district":{"key":"07137","name":"Mayen-Koblenz","type":"Landkreis"},"federalState":{"key":"07","name":"Rheinland-Pfalz"}},{"name":"Kolpingstr.","postalCode":"56727","locality":"Mayen","municipality":{"key":"07137068","name":"Mayen, Stadt","type":"Stadt"},"district":{"key":"07137","name":"Mayen-Koblenz","type":"Landkreis"},"federalState":{"key":"07","name":"Rheinland-Pfalz"}},{"name":"Königsbergstr.","postalCode":"56727","locality":"Mayen","municipality":{"key":"07137068","name":"Mayen, Stadt","type":"Stadt"},"district":{"key":"07137","name":"Mayen-Koblenz","type":"Landkreis"},"federalState":{"key":"07","name":"Rheinland-Pfalz"}},{"name":"Konner Paradies","postalCode":"56727","locality":"Mayen","municipality":{"key":"07137068","name":"Mayen, Stadt","type":"Stadt"},"district":{"key":"07137","name":"Mayen-Koblenz","type":"Landkreis"},"federalState":{"key":"07","name":"Rheinland-Pfalz"}},{"name":"Konner Pfad","postalCode":"56727","locality":"Mayen","municipality":{"key":"07137068","name":"Mayen, Stadt","type":"Stadt"},"district":{"key":"07137","name":"Mayen-Koblenz","type":"Landkreis"},"federalState":{"key":"07","name":"Rheinland-Pfalz"}},{"name":"Kottenheimer Str.","postalCode":"56727","locality":"Mayen","municipality":{"key":"07137068","name":"Mayen, Stadt","type":"Stadt"},"district":{"key":"07137","name":"Mayen-Koblenz","type":"Landkreis"},"federalState":{"key":"07","name":"Rheinland-Pfalz"}},{"name":"Kottenheimer Weg","postalCode":"56727","locality":"Mayen","municipality":{"key":"07137068","name":"Mayen, Stadt","type":"Stadt"},"district":{"key":"07137","name":"Mayen-Koblenz","type":"Landkreis"},"federalState":{"key":"07","name":"Rheinland-Pfalz"}},{"name":"Krechels Eck","postalCode":"56727","locality":"Mayen","municipality":{"key":"07137068","name":"Mayen, Stadt","type":"Stadt"},"district":{"key":"07137","name":"Mayen-Koblenz","type":"Landkreis"},"federalState":{"key":"07","name":"Rheinland-Pfalz"}},{"name":"Kreuzgang","postalCode":"56727","locality":"Mayen","municipality":{"key":"07137068","name":"Mayen, Stadt","type":"Stadt"},"district":{"key":"07137","name":"Mayen-Koblenz","type":"Landkreis"},"federalState":{"key":"07","name":"Rheinland-Pfalz"}},{"name":"Kuckucksberg","postalCode":"56727","locality":"Mayen","municipality":{"key":"07137068","name":"Mayen, Stadt","type":"Stadt"},"district":{"key":"07137","name":"Mayen-Koblenz","type":"Landkreis"},"federalState":{"key":"07","name":"Rheinland-Pfalz"}},{"name":"Kuhtrift","postalCode":"56727","locality":"Mayen","municipality":{"key":"07137068","name":"Mayen, Stadt","type":"Stadt"},"district":{"key":"07137","name":"Mayen-Koblenz","type":"Landkreis"},"federalState":{"key":"07","name":"Rheinland-Pfalz"}},{"name":"Kürrenberger Steig","postalCode":"56727","locality":"Mayen","municipality":{"key":"07137068","name":"Mayen, Stadt","type":"Stadt"},"district":{"key":"07137","name":"Mayen-Koblenz","type":"Landkreis"},"federalState":{"key":"07","name":"Rheinland-Pfalz"}},{"name":"Kurze Kunde","postalCode":"56727","locality":"Mayen","municipality":{"key":"07137068","name":"Mayen, Stadt","type":"Stadt"},"district":{"key":"07137","name":"Mayen-Koblenz","type":"Landkreis"},"federalState":{"key":"07","name":"Rheinland-Pfalz"}},{"name":"Laachstr.","postalCode":"56727","locality":"Mayen","municipality":{"key":"07137068","name":"Mayen, Stadt","type":"Stadt"},"district":{"key":"07137","name":"Mayen-Koblenz","type":"Landkreis"},"federalState":{"key":"07","name":"Rheinland-Pfalz"}},{"name":"Lapideaweg","postalCode":"56727","locality":"Mayen","municipality":{"key":"07137068","name":"Mayen, Stadt","type":"Stadt"},"district":{"key":"07137","name":"Mayen-Koblenz","type":"Landkreis"},"federalState":{"key":"07","name":"Rheinland-Pfalz"}},{"name":"Lavastr.","postalCode":"56727","locality":"Mayen","municipality":{"key":"07137068","name":"Mayen, Stadt","type":"Stadt"},"district":{"key":"07137","name":"Mayen-Koblenz","type":"Landkreis"},"federalState":{"key":"07","name":"Rheinland-Pfalz"}},{"name":"Layenweg","postalCode":"56727","locality":"Mayen","municipality":{"key":"07137068","name":"Mayen, Stadt","type":"Stadt"},"district":{"key":"07137","name":"Mayen-Koblenz","type":"Landkreis"},"federalState":{"key":"07","name":"Rheinland-Pfalz"}},{"name":"Leanderweg","postalCode":"56727","locality":"Mayen","municipality":{"key":"07137068","name":"Mayen, Stadt","type":"Stadt"},"district":{"key":"07137","name":"Mayen-Koblenz","type":"Landkreis"},"federalState":{"key":"07","name":"Rheinland-Pfalz"}},{"name":"Lenauweg","postalCode":"56727","locality":"Mayen","municipality":{"key":"07137068","name":"Mayen, Stadt","type":"Stadt"},"district":{"key":"07137","name":"Mayen-Koblenz","type":"Landkreis"},"federalState":{"key":"07","name":"Rheinland-Pfalz"}},{"name":"Lendstr.","postalCode":"56727","locality":"Mayen","municipality":{"key":"07137068","name":"Mayen, Stadt","type":"Stadt"},"district":{"key":"07137","name":"Mayen-Koblenz","type":"Landkreis"},"federalState":{"key":"07","name":"Rheinland-Pfalz"}},{"name":"Lerchenweg","postalCode":"56727","locality":"Mayen","municipality":{"key":"07137068","name":"Mayen, Stadt","type":"Stadt"},"district":{"key":"07137","name":"Mayen-Koblenz","type":"Landkreis"},"federalState":{"key":"07","name":"Rheinland-Pfalz"}},{"name":"Lindenstr.","postalCode":"56727","locality":"Mayen","municipality":{"key":"07137068","name":"Mayen, Stadt","type":"Stadt"},"district":{"key":"07137","name":"Mayen-Koblenz","type":"Landkreis"},"federalState":{"key":"07","name":"Rheinland-Pfalz"}},{"name":"Liszt-Weg","postalCode":"56727","locality":"Mayen","municipality":{"key":"07137068","name":"Mayen, Stadt","type":"Stadt"},"district":{"key":"07137","name":"Mayen-Koblenz","type":"Landkreis"},"federalState":{"key":"07","name":"Rheinland-Pfalz"}},{"name":"Ludwig-Erhard-Str.","postalCode":"56727","locality":"Mayen","municipality":{"key":"07137068","name":"Mayen, Stadt","type":"Stadt"},"district":{"key":"07137","name":"Mayen-Koblenz","type":"Landkreis"},"federalState":{"key":"07","name":"Rheinland-Pfalz"}},{"name":"Magmastr.","postalCode":"56727","locality":"Mayen","municipality":{"key":"07137068","name":"Mayen, Stadt","type":"Stadt"},"district":{"key":"07137","name":"Mayen-Koblenz","type":"Landkreis"},"federalState":{"key":"07","name":"Rheinland-Pfalz"}},{"name":"Mahlerstr.","postalCode":"56727","locality":"Mayen","municipality":{"key":"07137068","name":"Mayen, Stadt","type":"Stadt"},"district":{"key":"07137","name":"Mayen-Koblenz","type":"Landkreis"},"federalState":{"key":"07","name":"Rheinland-Pfalz"}},{"name":"Maifeldstr.","postalCode":"56727","locality":"Mayen","municipality":{"key":"07137068","name":"Mayen, Stadt","type":"Stadt"},"district":{"key":"07137","name":"Mayen-Koblenz","type":"Landkreis"},"federalState":{"key":"07","name":"Rheinland-Pfalz"}},{"name":"Marienburgstr.","postalCode":"56727","locality":"Mayen","municipality":{"key":"07137068","name":"Mayen, Stadt","type":"Stadt"},"district":{"key":"07137","name":"Mayen-Koblenz","type":"Landkreis"},"federalState":{"key":"07","name":"Rheinland-Pfalz"}},{"name":"Mario-Adorf-Burgweg","postalCode":"56727","locality":"Mayen","municipality":{"key":"07137068","name":"Mayen, Stadt","type":"Stadt"},"district":{"key":"07137","name":"Mayen-Koblenz","type":"Landkreis"},"federalState":{"key":"07","name":"Rheinland-Pfalz"}},{"name":"Marktplatz","postalCode":"56727","locality":"Mayen","municipality":{"key":"07137068","name":"Mayen, Stadt","type":"Stadt"},"district":{"key":"07137","name":"Mayen-Koblenz","type":"Landkreis"},"federalState":{"key":"07","name":"Rheinland-Pfalz"}},{"name":"Mauerstr.","postalCode":"56727","locality":"Mayen","municipality":{"key":"07137068","name":"Mayen, Stadt","type":"Stadt"},"district":{"key":"07137","name":"Mayen-Koblenz","type":"Landkreis"},"federalState":{"key":"07","name":"Rheinland-Pfalz"}},{"name":"Mayener Grubenfeld","postalCode":"56727","locality":"Mayen","municipality":{"key":"07137068","name":"Mayen, Stadt","type":"Stadt"},"district":{"key":"07137","name":"Mayen-Koblenz","type":"Landkreis"},"federalState":{"key":"07","name":"Rheinland-Pfalz"}},{"name":"Mayener Str.","postalCode":"56727","locality":"Mayen","municipality":{"key":"07137068","name":"Mayen, Stadt","type":"Stadt"},"district":{"key":"07137","name":"Mayen-Koblenz","type":"Landkreis"},"federalState":{"key":"07","name":"Rheinland-Pfalz"}},{"name":"Meisenweg","postalCode":"56727","locality":"Mayen","municipality":{"key":"07137068","name":"Mayen, Stadt","type":"Stadt"},"district":{"key":"07137","name":"Mayen-Koblenz","type":"Landkreis"},"federalState":{"key":"07","name":"Rheinland-Pfalz"}},{"name":"Mendelssohnweg","postalCode":"56727","locality":"Mayen","municipality":{"key":"07137068","name":"Mayen, Stadt","type":"Stadt"},"district":{"key":"07137","name":"Mayen-Koblenz","type":"Landkreis"},"federalState":{"key":"07","name":"Rheinland-Pfalz"}},{"name":"Michel-Schäfer-Str.","postalCode":"56727","locality":"Mayen","municipality":{"key":"07137068","name":"Mayen, Stadt","type":"Stadt"},"district":{"key":"07137","name":"Mayen-Koblenz","type":"Landkreis"},"federalState":{"key":"07","name":"Rheinland-Pfalz"}},{"name":"Mittelstr.","postalCode":"56727","locality":"Mayen","municipality":{"key":"07137068","name":"Mayen, Stadt","type":"Stadt"},"district":{"key":"07137","name":"Mayen-Koblenz","type":"Landkreis"},"federalState":{"key":"07","name":"Rheinland-Pfalz"}},{"name":"Monrealer Str.","postalCode":"56727","locality":"Mayen","municipality":{"key":"07137068","name":"Mayen, Stadt","type":"Stadt"},"district":{"key":"07137","name":"Mayen-Koblenz","type":"Landkreis"},"federalState":{"key":"07","name":"Rheinland-Pfalz"}},{"name":"Mörikestr.","postalCode":"56727","locality":"Mayen","municipality":{"key":"07137068","name":"Mayen, Stadt","type":"Stadt"},"district":{"key":"07137","name":"Mayen-Koblenz","type":"Landkreis"},"federalState":{"key":"07","name":"Rheinland-Pfalz"}},{"name":"Mosellaschacht","postalCode":"56727","locality":"Mayen","municipality":{"key":"07137068","name":"Mayen, Stadt","type":"Stadt"},"district":{"key":"07137","name":"Mayen-Koblenz","type":"Landkreis"},"federalState":{"key":"07","name":"Rheinland-Pfalz"}},{"name":"Mozart-Weg","postalCode":"56727","locality":"Mayen","municipality":{"key":"07137068","name":"Mayen, Stadt","type":"Stadt"},"district":{"key":"07137","name":"Mayen-Koblenz","type":"Landkreis"},"federalState":{"key":"07","name":"Rheinland-Pfalz"}},{"name":"Mühlenweg","postalCode":"56727","locality":"Mayen","municipality":{"key":"07137068","name":"Mayen, Stadt","type":"Stadt"},"district":{"key":"07137","name":"Mayen-Koblenz","type":"Landkreis"},"federalState":{"key":"07","name":"Rheinland-Pfalz"}},{"name":"Nachtigallenweg","postalCode":"56727","locality":"Mayen","municipality":{"key":"07137068","name":"Mayen, Stadt","type":"Stadt"},"district":{"key":"07137","name":"Mayen-Koblenz","type":"Landkreis"},"federalState":{"key":"07","name":"Rheinland-Pfalz"}},{"name":"Neustr.","postalCode":"56727","locality":"Mayen","municipality":{"key":"07137068","name":"Mayen, Stadt","type":"Stadt"},"district":{"key":"07137","name":"Mayen-Koblenz","type":"Landkreis"},"federalState":{"key":"07","name":"Rheinland-Pfalz"}},{"name":"Nikolaus-Otto-Str.","postalCode":"56727","locality":"Mayen","municipality":{"key":"07137068","name":"Mayen, Stadt","type":"Stadt"},"district":{"key":"07137","name":"Mayen-Koblenz","type":"Landkreis"},"federalState":{"key":"07","name":"Rheinland-Pfalz"}},{"name":"Nordumgehung","postalCode":"56727","locality":"Mayen","municipality":{"key":"07137068","name":"Mayen, Stadt","type":"Stadt"},"district":{"key":"07137","name":"Mayen-Koblenz","type":"Landkreis"},"federalState":{"key":"07","name":"Rheinland-Pfalz"}},{"name":"Ober dem Driesch","postalCode":"56727","locality":"Mayen","municipality":{"key":"07137068","name":"Mayen, Stadt","type":"Stadt"},"district":{"key":"07137","name":"Mayen-Koblenz","type":"Landkreis"},"federalState":{"key":"07","name":"Rheinland-Pfalz"}},{"name":"Obere Grabenstr.","postalCode":"56727","locality":"Mayen","municipality":{"key":"07137068","name":"Mayen, Stadt","type":"Stadt"},"district":{"key":"07137","name":"Mayen-Koblenz","type":"Landkreis"},"federalState":{"key":"07","name":"Rheinland-Pfalz"}},{"name":"Obere Kond","postalCode":"56727","locality":"Mayen","municipality":{"key":"07137068","name":"Mayen, Stadt","type":"Stadt"},"district":{"key":"07137","name":"Mayen-Koblenz","type":"Landkreis"},"federalState":{"key":"07","name":"Rheinland-Pfalz"}},{"name":"Orsbeckstr.","postalCode":"56727","locality":"Mayen","municipality":{"key":"07137068","name":"Mayen, Stadt","type":"Stadt"},"district":{"key":"07137","name":"Mayen-Koblenz","type":"Landkreis"},"federalState":{"key":"07","name":"Rheinland-Pfalz"}},{"name":"Ostbahnhofstr.","postalCode":"56727","locality":"Mayen","municipality":{"key":"07137068","name":"Mayen, Stadt","type":"Stadt"},"district":{"key":"07137","name":"Mayen-Koblenz","type":"Landkreis"},"federalState":{"key":"07","name":"Rheinland-Pfalz"}},{"name":"Pastor-Schlink-Str.","postalCode":"56727","locality":"Mayen","municipality":{"key":"07137068","name":"Mayen, Stadt","type":"Stadt"},"district":{"key":"07137","name":"Mayen-Koblenz","type":"Landkreis"},"federalState":{"key":"07","name":"Rheinland-Pfalz"}},{"name":"Pellenzstr.","postalCode":"56727","locality":"Mayen","municipality":{"key":"07137068","name":"Mayen, Stadt","type":"Stadt"},"district":{"key":"07137","name":"Mayen-Koblenz","type":"Landkreis"},"federalState":{"key":"07","name":"Rheinland-Pfalz"}},{"name":"Peter-Diederich-Weg","postalCode":"56727","locality":"Mayen","municipality":{"key":"07137068","name":"Mayen, Stadt","type":"Stadt"},"district":{"key":"07137","name":"Mayen-Koblenz","type":"Landkreis"},"federalState":{"key":"07","name":"Rheinland-Pfalz"}},{"name":"Pfarrer-Kneipp-Str.","postalCode":"56727","locality":"Mayen","municipality":{"key":"07137068","name":"Mayen, Stadt","type":"Stadt"},"district":{"key":"07137","name":"Mayen-Koblenz","type":"Landkreis"},"federalState":{"key":"07","name":"Rheinland-Pfalz"}},{"name":"Pfarrer-Kowollik-Weg","postalCode":"56727","locality":"Mayen","municipality":{"key":"07137068","name":"Mayen, Stadt","type":"Stadt"},"district":{"key":"07137","name":"Mayen-Koblenz","type":"Landkreis"},"federalState":{"key":"07","name":"Rheinland-Pfalz"}},{"name":"Pfarrer-Winand-Str.","postalCode":"56727","locality":"Mayen","municipality":{"key":"07137068","name":"Mayen, Stadt","type":"Stadt"},"district":{"key":"07137","name":"Mayen-Koblenz","type":"Landkreis"},"federalState":{"key":"07","name":"Rheinland-Pfalz"}},{"name":"Pfarrstr.","postalCode":"56727","locality":"Mayen","municipality":{"key":"07137068","name":"Mayen, Stadt","type":"Stadt"},"district":{"key":"07137","name":"Mayen-Koblenz","type":"Landkreis"},"federalState":{"key":"07","name":"Rheinland-Pfalz"}},{"name":"Polcher Str.","postalCode":"56727","locality":"Mayen","municipality":{"key":"07137068","name":"Mayen, Stadt","type":"Stadt"},"district":{"key":"07137","name":"Mayen-Koblenz","type":"Landkreis"},"federalState":{"key":"07","name":"Rheinland-Pfalz"}},{"name":"Pumpenweg","postalCode":"56727","locality":"Mayen","municipality":{"key":"07137068","name":"Mayen, Stadt","type":"Stadt"},"district":{"key":"07137","name":"Mayen-Koblenz","type":"Landkreis"},"federalState":{"key":"07","name":"Rheinland-Pfalz"}},{"name":"Ravensteynweg","postalCode":"56727","locality":"Mayen","municipality":{"key":"07137068","name":"Mayen, Stadt","type":"Stadt"},"district":{"key":"07137","name":"Mayen-Koblenz","type":"Landkreis"},"federalState":{"key":"07","name":"Rheinland-Pfalz"}},{"name":"Richard-Labonte-Str.","postalCode":"56727","locality":"Mayen","municipality":{"key":"07137068","name":"Mayen, Stadt","type":"Stadt"},"district":{"key":"07137","name":"Mayen-Koblenz","type":"Landkreis"},"federalState":{"key":"07","name":"Rheinland-Pfalz"}},{"name":"Robert-Bosch-Str.","postalCode":"56727","locality":"Mayen","municipality":{"key":"07137068","name":"Mayen, Stadt","type":"Stadt"},"district":{"key":"07137","name":"Mayen-Koblenz","type":"Landkreis"},"federalState":{"key":"07","name":"Rheinland-Pfalz"}},{"name":"Robert-Koch-Str.","postalCode":"56727","locality":"Mayen","municipality":{"key":"07137068","name":"Mayen, Stadt","type":"Stadt"},"district":{"key":"07137","name":"Mayen-Koblenz","type":"Landkreis"},"federalState":{"key":"07","name":"Rheinland-Pfalz"}},{"name":"Römerhügel","postalCode":"56727","locality":"Mayen","municipality":{"key":"07137068","name":"Mayen, Stadt","type":"Stadt"},"district":{"key":"07137","name":"Mayen-Koblenz","type":"Landkreis"},"federalState":{"key":"07","name":"Rheinland-Pfalz"}},{"name":"Römerstieg","postalCode":"56727","locality":"Mayen","municipality":{"key":"07137068","name":"Mayen, Stadt","type":"Stadt"},"district":{"key":"07137","name":"Mayen-Koblenz","type":"Landkreis"},"federalState":{"key":"07","name":"Rheinland-Pfalz"}},{"name":"Römerstr.","postalCode":"56727","locality":"Mayen","municipality":{"key":"07137068","name":"Mayen, Stadt","type":"Stadt"},"district":{"key":"07137","name":"Mayen-Koblenz","type":"Landkreis"},"federalState":{"key":"07","name":"Rheinland-Pfalz"}},{"name":"Röntgenstr.","postalCode":"56727","locality":"Mayen","municipality":{"key":"07137068","name":"Mayen, Stadt","type":"Stadt"},"district":{"key":"07137","name":"Mayen-Koblenz","type":"Landkreis"},"federalState":{"key":"07","name":"Rheinland-Pfalz"}},{"name":"Rosengasse","postalCode":"56727","locality":"Mayen","municipality":{"key":"07137068","name":"Mayen, Stadt","type":"Stadt"},"district":{"key":"07137","name":"Mayen-Koblenz","type":"Landkreis"},"federalState":{"key":"07","name":"Rheinland-Pfalz"}},{"name":"Rotdornweg","postalCode":"56727","locality":"Mayen","municipality":{"key":"07137068","name":"Mayen, Stadt","type":"Stadt"},"district":{"key":"07137","name":"Mayen-Koblenz","type":"Landkreis"},"federalState":{"key":"07","name":"Rheinland-Pfalz"}},{"name":"Rübers Winkel","postalCode":"56727","locality":"Mayen","municipality":{"key":"07137068","name":"Mayen, Stadt","type":"Stadt"},"district":{"key":"07137","name":"Mayen-Koblenz","type":"Landkreis"},"federalState":{"key":"07","name":"Rheinland-Pfalz"}},{"name":"Rudolf-Diesel-Str.","postalCode":"56727","locality":"Mayen","municipality":{"key":"07137068","name":"Mayen, Stadt","type":"Stadt"},"district":{"key":"07137","name":"Mayen-Koblenz","type":"Landkreis"},"federalState":{"key":"07","name":"Rheinland-Pfalz"}},{"name":"Sauerbruchstr.","postalCode":"56727","locality":"Mayen","municipality":{"key":"07137068","name":"Mayen, Stadt","type":"Stadt"},"district":{"key":"07137","name":"Mayen-Koblenz","type":"Landkreis"},"federalState":{"key":"07","name":"Rheinland-Pfalz"}},{"name":"Schieferweg","postalCode":"56727","locality":"Mayen","municipality":{"key":"07137068","name":"Mayen, Stadt","type":"Stadt"},"district":{"key":"07137","name":"Mayen-Koblenz","type":"Landkreis"},"federalState":{"key":"07","name":"Rheinland-Pfalz"}},{"name":"Schillerstr.","postalCode":"56727","locality":"Mayen","municipality":{"key":"07137068","name":"Mayen, Stadt","type":"Stadt"},"district":{"key":"07137","name":"Mayen-Koblenz","type":"Landkreis"},"federalState":{"key":"07","name":"Rheinland-Pfalz"}},{"name":"Schloßstr.","postalCode":"56727","locality":"Mayen","municipality":{"key":"07137068","name":"Mayen, Stadt","type":"Stadt"},"district":{"key":"07137","name":"Mayen-Koblenz","type":"Landkreis"},"federalState":{"key":"07","name":"Rheinland-Pfalz"}},{"name":"Schlotterhof","postalCode":"56727","locality":"Mayen","municipality":{"key":"07137068","name":"Mayen, Stadt","type":"Stadt"},"district":{"key":"07137","name":"Mayen-Koblenz","type":"Landkreis"},"federalState":{"key":"07","name":"Rheinland-Pfalz"}},{"name":"Schöne Aussicht","postalCode":"56727","locality":"Mayen","municipality":{"key":"07137068","name":"Mayen, Stadt","type":"Stadt"},"district":{"key":"07137","name":"Mayen-Koblenz","type":"Landkreis"},"federalState":{"key":"07","name":"Rheinland-Pfalz"}},{"name":"Schulweg","postalCode":"56727","locality":"Mayen","municipality":{"key":"07137068","name":"Mayen, Stadt","type":"Stadt"},"district":{"key":"07137","name":"Mayen-Koblenz","type":"Landkreis"},"federalState":{"key":"07","name":"Rheinland-Pfalz"}},{"name":"Schützenstr.","postalCode":"56727","locality":"Mayen","municipality":{"key":"07137068","name":"Mayen, Stadt","type":"Stadt"},"district":{"key":"07137","name":"Mayen-Koblenz","type":"Landkreis"},"federalState":{"key":"07","name":"Rheinland-Pfalz"}},{"name":"Semmelweisstr.","postalCode":"56727","locality":"Mayen","municipality":{"key":"07137068","name":"Mayen, Stadt","type":"Stadt"},"district":{"key":"07137","name":"Mayen-Koblenz","type":"Landkreis"},"federalState":{"key":"07","name":"Rheinland-Pfalz"}},{"name":"Siegfriedstr.","postalCode":"56727","locality":"Mayen","municipality":{"key":"07137068","name":"Mayen, Stadt","type":"Stadt"},"district":{"key":"07137","name":"Mayen-Koblenz","type":"Landkreis"},"federalState":{"key":"07","name":"Rheinland-Pfalz"}},{"name":"Siska-Kunz-Weg","postalCode":"56727","locality":"Mayen","municipality":{"key":"07137068","name":"Mayen, Stadt","type":"Stadt"},"district":{"key":"07137","name":"Mayen-Koblenz","type":"Landkreis"},"federalState":{"key":"07","name":"Rheinland-Pfalz"}},{"name":"Sonnenstr.","postalCode":"56727","locality":"Mayen","municipality":{"key":"07137068","name":"Mayen, Stadt","type":"Stadt"},"district":{"key":"07137","name":"Mayen-Koblenz","type":"Landkreis"},"federalState":{"key":"07","name":"Rheinland-Pfalz"}},{"name":"Spechtsgraben","postalCode":"56727","locality":"Mayen","municipality":{"key":"07137068","name":"Mayen, Stadt","type":"Stadt"},"district":{"key":"07137","name":"Mayen-Koblenz","type":"Landkreis"},"federalState":{"key":"07","name":"Rheinland-Pfalz"}},{"name":"Spurzemer Weg","postalCode":"56727","locality":"Mayen","municipality":{"key":"07137068","name":"Mayen, Stadt","type":"Stadt"},"district":{"key":"07137","name":"Mayen-Koblenz","type":"Landkreis"},"federalState":{"key":"07","name":"Rheinland-Pfalz"}},{"name":"St.-Barbara-Str.","postalCode":"56727","locality":"Mayen","municipality":{"key":"07137068","name":"Mayen, Stadt","type":"Stadt"},"district":{"key":"07137","name":"Mayen-Koblenz","type":"Landkreis"},"federalState":{"key":"07","name":"Rheinland-Pfalz"}},{"name":"St.-Bernhard-Str.","postalCode":"56727","locality":"Mayen","municipality":{"key":"07137068","name":"Mayen, Stadt","type":"Stadt"},"district":{"key":"07137","name":"Mayen-Koblenz","type":"Landkreis"},"federalState":{"key":"07","name":"Rheinland-Pfalz"}},{"name":"Stehbach","postalCode":"56727","locality":"Mayen","municipality":{"key":"07137068","name":"Mayen, Stadt","type":"Stadt"},"district":{"key":"07137","name":"Mayen-Koblenz","type":"Landkreis"},"federalState":{"key":"07","name":"Rheinland-Pfalz"}},{"name":"Steinweg","postalCode":"56727","locality":"Mayen","municipality":{"key":"07137068","name":"Mayen, Stadt","type":"Stadt"},"district":{"key":"07137","name":"Mayen-Koblenz","type":"Landkreis"},"federalState":{"key":"07","name":"Rheinland-Pfalz"}},{"name":"Stettinstr.","postalCode":"56727","locality":"Mayen","municipality":{"key":"07137068","name":"Mayen, Stadt","type":"Stadt"},"district":{"key":"07137","name":"Mayen-Koblenz","type":"Landkreis"},"federalState":{"key":"07","name":"Rheinland-Pfalz"}},{"name":"Strauss-Weg","postalCode":"56727","locality":"Mayen","municipality":{"key":"07137068","name":"Mayen, Stadt","type":"Stadt"},"district":{"key":"07137","name":"Mayen-Koblenz","type":"Landkreis"},"federalState":{"key":"07","name":"Rheinland-Pfalz"}},{"name":"St.-Sylvester-Str.","postalCode":"56727","locality":"Mayen","municipality":{"key":"07137068","name":"Mayen, Stadt","type":"Stadt"},"district":{"key":"07137","name":"Mayen-Koblenz","type":"Landkreis"},"federalState":{"key":"07","name":"Rheinland-Pfalz"}},{"name":"St. Veit Park","postalCode":"56727","locality":"Mayen","municipality":{"key":"07137068","name":"Mayen, Stadt","type":"Stadt"},"district":{"key":"07137","name":"Mayen-Koblenz","type":"Landkreis"},"federalState":{"key":"07","name":"Rheinland-Pfalz"}},{"name":"St.-Veit-Str.","postalCode":"56727","locality":"Mayen","municipality":{"key":"07137068","name":"Mayen, Stadt","type":"Stadt"},"district":{"key":"07137","name":"Mayen-Koblenz","type":"Landkreis"},"federalState":{"key":"07","name":"Rheinland-Pfalz"}},{"name":"Talstr.","postalCode":"56727","locality":"Mayen","municipality":{"key":"07137068","name":"Mayen, Stadt","type":"Stadt"},"district":{"key":"07137","name":"Mayen-Koblenz","type":"Landkreis"},"federalState":{"key":"07","name":"Rheinland-Pfalz"}},{"name":"Tannenweg","postalCode":"56727","locality":"Mayen","municipality":{"key":"07137068","name":"Mayen, Stadt","type":"Stadt"},"district":{"key":"07137","name":"Mayen-Koblenz","type":"Landkreis"},"federalState":{"key":"07","name":"Rheinland-Pfalz"}},{"name":"Töpferstr.","postalCode":"56727","locality":"Mayen","municipality":{"key":"07137068","name":"Mayen, Stadt","type":"Stadt"},"district":{"key":"07137","name":"Mayen-Koblenz","type":"Landkreis"},"federalState":{"key":"07","name":"Rheinland-Pfalz"}},{"name":"Trevererweg","postalCode":"56727","locality":"Mayen","municipality":{"key":"07137068","name":"Mayen, Stadt","type":"Stadt"},"district":{"key":"07137","name":"Mayen-Koblenz","type":"Landkreis"},"federalState":{"key":"07","name":"Rheinland-Pfalz"}},{"name":"Triaccaweg","postalCode":"56727","locality":"Mayen","municipality":{"key":"07137068","name":"Mayen, Stadt","type":"Stadt"},"district":{"key":"07137","name":"Mayen-Koblenz","type":"Landkreis"},"federalState":{"key":"07","name":"Rheinland-Pfalz"}},{"name":"Trierer Weg","postalCode":"56727","locality":"Mayen","municipality":{"key":"07137068","name":"Mayen, Stadt","type":"Stadt"},"district":{"key":"07137","name":"Mayen-Koblenz","type":"Landkreis"},"federalState":{"key":"07","name":"Rheinland-Pfalz"}},{"name":"Trimbser Weg","postalCode":"56727","locality":"Mayen","municipality":{"key":"07137068","name":"Mayen, Stadt","type":"Stadt"},"district":{"key":"07137","name":"Mayen-Koblenz","type":"Landkreis"},"federalState":{"key":"07","name":"Rheinland-Pfalz"}},{"name":"Uferstr.","postalCode":"56727","locality":"Mayen","municipality":{"key":"07137068","name":"Mayen, Stadt","type":"Stadt"},"district":{"key":"07137","name":"Mayen-Koblenz","type":"Landkreis"},"federalState":{"key":"07","name":"Rheinland-Pfalz"}},{"name":"Uhlandstr.","postalCode":"56727","locality":"Mayen","municipality":{"key":"07137068","name":"Mayen, Stadt","type":"Stadt"},"district":{"key":"07137","name":"Mayen-Koblenz","type":"Landkreis"},"federalState":{"key":"07","name":"Rheinland-Pfalz"}},{"name":"Untere Grabenstr.","postalCode":"56727","locality":"Mayen","municipality":{"key":"07137068","name":"Mayen, Stadt","type":"Stadt"},"district":{"key":"07137","name":"Mayen-Koblenz","type":"Landkreis"},"federalState":{"key":"07","name":"Rheinland-Pfalz"}},{"name":"Van-Beethoven-Weg","postalCode":"56727","locality":"Mayen","municipality":{"key":"07137068","name":"Mayen, Stadt","type":"Stadt"},"district":{"key":"07137","name":"Mayen-Koblenz","type":"Landkreis"},"federalState":{"key":"07","name":"Rheinland-Pfalz"}},{"name":"Virchowstr.","postalCode":"56727","locality":"Mayen","municipality":{"key":"07137068","name":"Mayen, Stadt","type":"Stadt"},"district":{"key":"07137","name":"Mayen-Koblenz","type":"Landkreis"},"federalState":{"key":"07","name":"Rheinland-Pfalz"}},{"name":"Von-Behring-Str.","postalCode":"56727","locality":"Mayen","municipality":{"key":"07137068","name":"Mayen, Stadt","type":"Stadt"},"district":{"key":"07137","name":"Mayen-Koblenz","type":"Landkreis"},"federalState":{"key":"07","name":"Rheinland-Pfalz"}},{"name":"Von-der-Leyen-Str.","postalCode":"56727","locality":"Mayen","municipality":{"key":"07137068","name":"Mayen, Stadt","type":"Stadt"},"district":{"key":"07137","name":"Mayen-Koblenz","type":"Landkreis"},"federalState":{"key":"07","name":"Rheinland-Pfalz"}},{"name":"Vulkaneifelstr.","postalCode":"56727","locality":"Mayen","municipality":{"key":"07137068","name":"Mayen, Stadt","type":"Stadt"},"district":{"key":"07137","name":"Mayen-Koblenz","type":"Landkreis"},"federalState":{"key":"07","name":"Rheinland-Pfalz"}},{"name":"Wacholderweg","postalCode":"56727","locality":"Mayen","municipality":{"key":"07137068","name":"Mayen, Stadt","type":"Stadt"},"district":{"key":"07137","name":"Mayen-Koblenz","type":"Landkreis"},"federalState":{"key":"07","name":"Rheinland-Pfalz"}},{"name":"Waldstr.","postalCode":"56727","locality":"Mayen","municipality":{"key":"07137068","name":"Mayen, Stadt","type":"Stadt"},"district":{"key":"07137","name":"Mayen-Koblenz","type":"Landkreis"},"federalState":{"key":"07","name":"Rheinland-Pfalz"}},{"name":"Wasserpförtchen","postalCode":"56727","locality":"Mayen","municipality":{"key":"07137068","name":"Mayen, Stadt","type":"Stadt"},"district":{"key":"07137","name":"Mayen-Koblenz","type":"Landkreis"},"federalState":{"key":"07","name":"Rheinland-Pfalz"}},{"name":"Werkelslay","postalCode":"56727","locality":"Mayen","municipality":{"key":"07137068","name":"Mayen, Stadt","type":"Stadt"},"district":{"key":"07137","name":"Mayen-Koblenz","type":"Landkreis"},"federalState":{"key":"07","name":"Rheinland-Pfalz"}},{"name":"Westbahnhofstr.","postalCode":"56727","locality":"Mayen","municipality":{"key":"07137068","name":"Mayen, Stadt","type":"Stadt"},"district":{"key":"07137","name":"Mayen-Koblenz","type":"Landkreis"},"federalState":{"key":"07","name":"Rheinland-Pfalz"}},{"name":"Wiesenweg","postalCode":"56727","locality":"Mayen","municipality":{"key":"07137068","name":"Mayen, Stadt","type":"Stadt"},"district":{"key":"07137","name":"Mayen-Koblenz","type":"Landkreis"},"federalState":{"key":"07","name":"Rheinland-Pfalz"}},{"name":"Wittbende","postalCode":"56727","locality":"Mayen","municipality":{"key":"07137068","name":"Mayen, Stadt","type":"Stadt"},"district":{"key":"07137","name":"Mayen-Koblenz","type":"Landkreis"},"federalState":{"key":"07","name":"Rheinland-Pfalz"}},{"name":"Zum Eichenhügel","postalCode":"56727","locality":"Mayen","municipality":{"key":"07137068","name":"Mayen, Stadt","type":"Stadt"},"district":{"key":"07137","name":"Mayen-Koblenz","type":"Landkreis"},"federalState":{"key":"07","name":"Rheinland-Pfalz"}},{"name":"Zum Funkental","postalCode":"56727","locality":"Mayen","municipality":{"key":"07137068","name":"Mayen, Stadt","type":"Stadt"},"district":{"key":"07137","name":"Mayen-Koblenz","type":"Landkreis"},"federalState":{"key":"07","name":"Rheinland-Pfalz"}},{"name":"Zur Mühle","postalCode":"56727","locality":"Mayen","municipality":{"key":"07137068","name":"Mayen, Stadt","type":"Stadt"},"district":{"key":"07137","name":"Mayen-Koblenz","type":"Landkreis"},"federalState":{"key":"07","name":"Rheinland-Pfalz"}},]