[{"name":"Ahornweg","postalCode":"74214","locality":"Schöntal","municipality":{"key":"08126072","name":"Schöntal","type":"Kreisangehörige_Gemeinde"},"district":{"key":"08126","name":"Hohenlohekreis","type":"Landkreis"},"federalState":{"key":"08","name":"Baden-Württemberg"}},{"name":"Alleestr.","postalCode":"74214","locality":"Schöntal","municipality":{"key":"08126072","name":"Schöntal","type":"Kreisangehörige_Gemeinde"},"district":{"key":"08126","name":"Hohenlohekreis","type":"Landkreis"},"federalState":{"key":"08","name":"Baden-Württemberg"}},{"name":"Alter Brückenweg","postalCode":"74214","locality":"Schöntal","municipality":{"key":"08126072","name":"Schöntal","type":"Kreisangehörige_Gemeinde"},"district":{"key":"08126","name":"Hohenlohekreis","type":"Landkreis"},"federalState":{"key":"08","name":"Baden-Württemberg"}},{"name":"Alter Weg","postalCode":"74214","locality":"Schöntal","municipality":{"key":"08126072","name":"Schöntal","type":"Kreisangehörige_Gemeinde"},"district":{"key":"08126","name":"Hohenlohekreis","type":"Landkreis"},"federalState":{"key":"08","name":"Baden-Württemberg"}},{"name":"Alte Schulgasse","postalCode":"74214","locality":"Schöntal","municipality":{"key":"08126072","name":"Schöntal","type":"Kreisangehörige_Gemeinde"},"district":{"key":"08126","name":"Hohenlohekreis","type":"Landkreis"},"federalState":{"key":"08","name":"Baden-Württemberg"}},{"name":"Alte Steige","postalCode":"74214","locality":"Schöntal","municipality":{"key":"08126072","name":"Schöntal","type":"Kreisangehörige_Gemeinde"},"district":{"key":"08126","name":"Hohenlohekreis","type":"Landkreis"},"federalState":{"key":"08","name":"Baden-Württemberg"}},{"name":"Am Erlenbach","postalCode":"74214","locality":"Schöntal","municipality":{"key":"08126072","name":"Schöntal","type":"Kreisangehörige_Gemeinde"},"district":{"key":"08126","name":"Hohenlohekreis","type":"Landkreis"},"federalState":{"key":"08","name":"Baden-Württemberg"}},{"name":"Am Geißberg","postalCode":"74214","locality":"Schöntal","municipality":{"key":"08126072","name":"Schöntal","type":"Kreisangehörige_Gemeinde"},"district":{"key":"08126","name":"Hohenlohekreis","type":"Landkreis"},"federalState":{"key":"08","name":"Baden-Württemberg"}},{"name":"Am Glockenberg","postalCode":"74214","locality":"Schöntal","municipality":{"key":"08126072","name":"Schöntal","type":"Kreisangehörige_Gemeinde"},"district":{"key":"08126","name":"Hohenlohekreis","type":"Landkreis"},"federalState":{"key":"08","name":"Baden-Württemberg"}},{"name":"Am Kirchplatz","postalCode":"74214","locality":"Schöntal","municipality":{"key":"08126072","name":"Schöntal","type":"Kreisangehörige_Gemeinde"},"district":{"key":"08126","name":"Hohenlohekreis","type":"Landkreis"},"federalState":{"key":"08","name":"Baden-Württemberg"}},{"name":"Am Marktplatz","postalCode":"74214","locality":"Schöntal","municipality":{"key":"08126072","name":"Schöntal","type":"Kreisangehörige_Gemeinde"},"district":{"key":"08126","name":"Hohenlohekreis","type":"Landkreis"},"federalState":{"key":"08","name":"Baden-Württemberg"}},{"name":"Am Ring","postalCode":"74214","locality":"Schöntal","municipality":{"key":"08126072","name":"Schöntal","type":"Kreisangehörige_Gemeinde"},"district":{"key":"08126","name":"Hohenlohekreis","type":"Landkreis"},"federalState":{"key":"08","name":"Baden-Württemberg"}},{"name":"Am Sonnenhang","postalCode":"74214","locality":"Schöntal","municipality":{"key":"08126072","name":"Schöntal","type":"Kreisangehörige_Gemeinde"},"district":{"key":"08126","name":"Hohenlohekreis","type":"Landkreis"},"federalState":{"key":"08","name":"Baden-Württemberg"}},{"name":"Angelweg","postalCode":"74214","locality":"Schöntal","municipality":{"key":"08126072","name":"Schöntal","type":"Kreisangehörige_Gemeinde"},"district":{"key":"08126","name":"Hohenlohekreis","type":"Landkreis"},"federalState":{"key":"08","name":"Baden-Württemberg"}},{"name":"Aschhäuser Str.","postalCode":"74214","locality":"Schöntal","municipality":{"key":"08126072","name":"Schöntal","type":"Kreisangehörige_Gemeinde"},"district":{"key":"08126","name":"Hohenlohekreis","type":"Landkreis"},"federalState":{"key":"08","name":"Baden-Württemberg"}},{"name":"Auf der Insel","postalCode":"74214","locality":"Schöntal","municipality":{"key":"08126072","name":"Schöntal","type":"Kreisangehörige_Gemeinde"},"district":{"key":"08126","name":"Hohenlohekreis","type":"Landkreis"},"federalState":{"key":"08","name":"Baden-Württemberg"}},{"name":"Augärten","postalCode":"74214","locality":"Schöntal","municipality":{"key":"08126072","name":"Schöntal","type":"Kreisangehörige_Gemeinde"},"district":{"key":"08126","name":"Hohenlohekreis","type":"Landkreis"},"federalState":{"key":"08","name":"Baden-Württemberg"}},{"name":"Austr.","postalCode":"74214","locality":"Schöntal","municipality":{"key":"08126072","name":"Schöntal","type":"Kreisangehörige_Gemeinde"},"district":{"key":"08126","name":"Hohenlohekreis","type":"Landkreis"},"federalState":{"key":"08","name":"Baden-Württemberg"}},{"name":"Auweg","postalCode":"74214","locality":"Schöntal","municipality":{"key":"08126072","name":"Schöntal","type":"Kreisangehörige_Gemeinde"},"district":{"key":"08126","name":"Hohenlohekreis","type":"Landkreis"},"federalState":{"key":"08","name":"Baden-Württemberg"}},{"name":"Azlweg","postalCode":"74214","locality":"Schöntal","municipality":{"key":"08126072","name":"Schöntal","type":"Kreisangehörige_Gemeinde"},"district":{"key":"08126","name":"Hohenlohekreis","type":"Landkreis"},"federalState":{"key":"08","name":"Baden-Württemberg"}},{"name":"Bachweg","postalCode":"74214","locality":"Schöntal","municipality":{"key":"08126072","name":"Schöntal","type":"Kreisangehörige_Gemeinde"},"district":{"key":"08126","name":"Hohenlohekreis","type":"Landkreis"},"federalState":{"key":"08","name":"Baden-Württemberg"}},{"name":"Bahnhofstr.","postalCode":"74214","locality":"Schöntal","municipality":{"key":"08126072","name":"Schöntal","type":"Kreisangehörige_Gemeinde"},"district":{"key":"08126","name":"Hohenlohekreis","type":"Landkreis"},"federalState":{"key":"08","name":"Baden-Württemberg"}},{"name":"Bahnweg","postalCode":"74214","locality":"Schöntal","municipality":{"key":"08126072","name":"Schöntal","type":"Kreisangehörige_Gemeinde"},"district":{"key":"08126","name":"Hohenlohekreis","type":"Landkreis"},"federalState":{"key":"08","name":"Baden-Württemberg"}},{"name":"Bärenklinge","postalCode":"74214","locality":"Schöntal","municipality":{"key":"08126072","name":"Schöntal","type":"Kreisangehörige_Gemeinde"},"district":{"key":"08126","name":"Hohenlohekreis","type":"Landkreis"},"federalState":{"key":"08","name":"Baden-Württemberg"}},{"name":"Bei der Kelter","postalCode":"74214","locality":"Schöntal","municipality":{"key":"08126072","name":"Schöntal","type":"Kreisangehörige_Gemeinde"},"district":{"key":"08126","name":"Hohenlohekreis","type":"Landkreis"},"federalState":{"key":"08","name":"Baden-Württemberg"}},{"name":"Bergsteige","postalCode":"74214","locality":"Schöntal","municipality":{"key":"08126072","name":"Schöntal","type":"Kreisangehörige_Gemeinde"},"district":{"key":"08126","name":"Hohenlohekreis","type":"Landkreis"},"federalState":{"key":"08","name":"Baden-Württemberg"}},{"name":"Bergweg","postalCode":"74214","locality":"Schöntal","municipality":{"key":"08126072","name":"Schöntal","type":"Kreisangehörige_Gemeinde"},"district":{"key":"08126","name":"Hohenlohekreis","type":"Landkreis"},"federalState":{"key":"08","name":"Baden-Württemberg"}},{"name":"Bieringer Steige","postalCode":"74214","locality":"Schöntal","municipality":{"key":"08126072","name":"Schöntal","type":"Kreisangehörige_Gemeinde"},"district":{"key":"08126","name":"Hohenlohekreis","type":"Landkreis"},"federalState":{"key":"08","name":"Baden-Württemberg"}},{"name":"Bieringer Str.","postalCode":"74214","locality":"Schöntal","municipality":{"key":"08126072","name":"Schöntal","type":"Kreisangehörige_Gemeinde"},"district":{"key":"08126","name":"Hohenlohekreis","type":"Landkreis"},"federalState":{"key":"08","name":"Baden-Württemberg"}},{"name":"Bildgartenstr.","postalCode":"74214","locality":"Schöntal","municipality":{"key":"08126072","name":"Schöntal","type":"Kreisangehörige_Gemeinde"},"district":{"key":"08126","name":"Hohenlohekreis","type":"Landkreis"},"federalState":{"key":"08","name":"Baden-Württemberg"}},{"name":"Birkenweg","postalCode":"74214","locality":"Schöntal","municipality":{"key":"08126072","name":"Schöntal","type":"Kreisangehörige_Gemeinde"},"district":{"key":"08126","name":"Hohenlohekreis","type":"Landkreis"},"federalState":{"key":"08","name":"Baden-Württemberg"}},{"name":"Bischofsäcker","postalCode":"74214","locality":"Schöntal","municipality":{"key":"08126072","name":"Schöntal","type":"Kreisangehörige_Gemeinde"},"district":{"key":"08126","name":"Hohenlohekreis","type":"Landkreis"},"federalState":{"key":"08","name":"Baden-Württemberg"}},{"name":"Blumenstr.","postalCode":"74214","locality":"Schöntal","municipality":{"key":"08126072","name":"Schöntal","type":"Kreisangehörige_Gemeinde"},"district":{"key":"08126","name":"Hohenlohekreis","type":"Landkreis"},"federalState":{"key":"08","name":"Baden-Württemberg"}},{"name":"Blumenweg","postalCode":"74214","locality":"Schöntal","municipality":{"key":"08126072","name":"Schöntal","type":"Kreisangehörige_Gemeinde"},"district":{"key":"08126","name":"Hohenlohekreis","type":"Landkreis"},"federalState":{"key":"08","name":"Baden-Württemberg"}},{"name":"Bohnholzweg,","postalCode":"74214","locality":"Schöntal","municipality":{"key":"08126072","name":"Schöntal","type":"Kreisangehörige_Gemeinde"},"district":{"key":"08126","name":"Hohenlohekreis","type":"Landkreis"},"federalState":{"key":"08","name":"Baden-Württemberg"}},{"name":"Bronnenweg","postalCode":"74214","locality":"Schöntal","municipality":{"key":"08126072","name":"Schöntal","type":"Kreisangehörige_Gemeinde"},"district":{"key":"08126","name":"Hohenlohekreis","type":"Landkreis"},"federalState":{"key":"08","name":"Baden-Württemberg"}},{"name":"Brückenstr.","postalCode":"74214","locality":"Schöntal","municipality":{"key":"08126072","name":"Schöntal","type":"Kreisangehörige_Gemeinde"},"district":{"key":"08126","name":"Hohenlohekreis","type":"Landkreis"},"federalState":{"key":"08","name":"Baden-Württemberg"}},{"name":"Brückenweg","postalCode":"74214","locality":"Schöntal","municipality":{"key":"08126072","name":"Schöntal","type":"Kreisangehörige_Gemeinde"},"district":{"key":"08126","name":"Hohenlohekreis","type":"Landkreis"},"federalState":{"key":"08","name":"Baden-Württemberg"}},{"name":"Brunnengässle","postalCode":"74214","locality":"Schöntal","municipality":{"key":"08126072","name":"Schöntal","type":"Kreisangehörige_Gemeinde"},"district":{"key":"08126","name":"Hohenlohekreis","type":"Landkreis"},"federalState":{"key":"08","name":"Baden-Württemberg"}},{"name":"Burgrain","postalCode":"74214","locality":"Schöntal","municipality":{"key":"08126072","name":"Schöntal","type":"Kreisangehörige_Gemeinde"},"district":{"key":"08126","name":"Hohenlohekreis","type":"Landkreis"},"federalState":{"key":"08","name":"Baden-Württemberg"}},{"name":"Dammstr.","postalCode":"74214","locality":"Schöntal","municipality":{"key":"08126072","name":"Schöntal","type":"Kreisangehörige_Gemeinde"},"district":{"key":"08126","name":"Hohenlohekreis","type":"Landkreis"},"federalState":{"key":"08","name":"Baden-Württemberg"}},{"name":"Darrenstr.","postalCode":"74214","locality":"Schöntal","municipality":{"key":"08126072","name":"Schöntal","type":"Kreisangehörige_Gemeinde"},"district":{"key":"08126","name":"Hohenlohekreis","type":"Landkreis"},"federalState":{"key":"08","name":"Baden-Württemberg"}},{"name":"Diebacher Str.","postalCode":"74214","locality":"Schöntal","municipality":{"key":"08126072","name":"Schöntal","type":"Kreisangehörige_Gemeinde"},"district":{"key":"08126","name":"Hohenlohekreis","type":"Landkreis"},"federalState":{"key":"08","name":"Baden-Württemberg"}},{"name":"Distelgrabenweg","postalCode":"74214","locality":"Schöntal","municipality":{"key":"08126072","name":"Schöntal","type":"Kreisangehörige_Gemeinde"},"district":{"key":"08126","name":"Hohenlohekreis","type":"Landkreis"},"federalState":{"key":"08","name":"Baden-Württemberg"}},{"name":"Eberstaler Str.","postalCode":"74214","locality":"Schöntal","municipality":{"key":"08126072","name":"Schöntal","type":"Kreisangehörige_Gemeinde"},"district":{"key":"08126","name":"Hohenlohekreis","type":"Landkreis"},"federalState":{"key":"08","name":"Baden-Württemberg"}},{"name":"Edelbachtalweg","postalCode":"74214","locality":"Schöntal","municipality":{"key":"08126072","name":"Schöntal","type":"Kreisangehörige_Gemeinde"},"district":{"key":"08126","name":"Hohenlohekreis","type":"Landkreis"},"federalState":{"key":"08","name":"Baden-Württemberg"}},{"name":"Eichelshof","postalCode":"74214","locality":"Schöntal","municipality":{"key":"08126072","name":"Schöntal","type":"Kreisangehörige_Gemeinde"},"district":{"key":"08126","name":"Hohenlohekreis","type":"Landkreis"},"federalState":{"key":"08","name":"Baden-Württemberg"}},{"name":"Eichelshofer Weg","postalCode":"74214","locality":"Schöntal","municipality":{"key":"08126072","name":"Schöntal","type":"Kreisangehörige_Gemeinde"},"district":{"key":"08126","name":"Hohenlohekreis","type":"Landkreis"},"federalState":{"key":"08","name":"Baden-Württemberg"}},{"name":"Erlenbachstr.","postalCode":"74214","locality":"Schöntal","municipality":{"key":"08126072","name":"Schöntal","type":"Kreisangehörige_Gemeinde"},"district":{"key":"08126","name":"Hohenlohekreis","type":"Landkreis"},"federalState":{"key":"08","name":"Baden-Württemberg"}},{"name":"Erlenweg","postalCode":"74214","locality":"Schöntal","municipality":{"key":"08126072","name":"Schöntal","type":"Kreisangehörige_Gemeinde"},"district":{"key":"08126","name":"Hohenlohekreis","type":"Landkreis"},"federalState":{"key":"08","name":"Baden-Württemberg"}},{"name":"Fasanenstr.","postalCode":"74214","locality":"Schöntal","municipality":{"key":"08126072","name":"Schöntal","type":"Kreisangehörige_Gemeinde"},"district":{"key":"08126","name":"Hohenlohekreis","type":"Landkreis"},"federalState":{"key":"08","name":"Baden-Württemberg"}},{"name":"Felderweg","postalCode":"74214","locality":"Schöntal","municipality":{"key":"08126072","name":"Schöntal","type":"Kreisangehörige_Gemeinde"},"district":{"key":"08126","name":"Hohenlohekreis","type":"Landkreis"},"federalState":{"key":"08","name":"Baden-Württemberg"}},{"name":"Felsengasse","postalCode":"74214","locality":"Schöntal","municipality":{"key":"08126072","name":"Schöntal","type":"Kreisangehörige_Gemeinde"},"district":{"key":"08126","name":"Hohenlohekreis","type":"Landkreis"},"federalState":{"key":"08","name":"Baden-Württemberg"}},{"name":"Finkenstr.","postalCode":"74214","locality":"Schöntal","municipality":{"key":"08126072","name":"Schöntal","type":"Kreisangehörige_Gemeinde"},"district":{"key":"08126","name":"Hohenlohekreis","type":"Landkreis"},"federalState":{"key":"08","name":"Baden-Württemberg"}},{"name":"Finkenweg","postalCode":"74214","locality":"Schöntal","municipality":{"key":"08126072","name":"Schöntal","type":"Kreisangehörige_Gemeinde"},"district":{"key":"08126","name":"Hohenlohekreis","type":"Landkreis"},"federalState":{"key":"08","name":"Baden-Württemberg"}},{"name":"Fischteich","postalCode":"74214","locality":"Schöntal","municipality":{"key":"08126072","name":"Schöntal","type":"Kreisangehörige_Gemeinde"},"district":{"key":"08126","name":"Hohenlohekreis","type":"Landkreis"},"federalState":{"key":"08","name":"Baden-Württemberg"}},{"name":"Friedhofweg","postalCode":"74214","locality":"Schöntal","municipality":{"key":"08126072","name":"Schöntal","type":"Kreisangehörige_Gemeinde"},"district":{"key":"08126","name":"Hohenlohekreis","type":"Landkreis"},"federalState":{"key":"08","name":"Baden-Württemberg"}},{"name":"Gartenstr.","postalCode":"74214","locality":"Schöntal","municipality":{"key":"08126072","name":"Schöntal","type":"Kreisangehörige_Gemeinde"},"district":{"key":"08126","name":"Hohenlohekreis","type":"Landkreis"},"federalState":{"key":"08","name":"Baden-Württemberg"}},{"name":"Gartenweg","postalCode":"74214","locality":"Schöntal","municipality":{"key":"08126072","name":"Schöntal","type":"Kreisangehörige_Gemeinde"},"district":{"key":"08126","name":"Hohenlohekreis","type":"Landkreis"},"federalState":{"key":"08","name":"Baden-Württemberg"}},{"name":"Ginsbacher Weg","postalCode":"74214","locality":"Schöntal","municipality":{"key":"08126072","name":"Schöntal","type":"Kreisangehörige_Gemeinde"},"district":{"key":"08126","name":"Hohenlohekreis","type":"Landkreis"},"federalState":{"key":"08","name":"Baden-Württemberg"}},{"name":"Goethestr.","postalCode":"74214","locality":"Schöntal","municipality":{"key":"08126072","name":"Schöntal","type":"Kreisangehörige_Gemeinde"},"district":{"key":"08126","name":"Hohenlohekreis","type":"Landkreis"},"federalState":{"key":"08","name":"Baden-Württemberg"}},{"name":"Gommersdorfer Str.","postalCode":"74214","locality":"Schöntal","municipality":{"key":"08126072","name":"Schöntal","type":"Kreisangehörige_Gemeinde"},"district":{"key":"08126","name":"Hohenlohekreis","type":"Landkreis"},"federalState":{"key":"08","name":"Baden-Württemberg"}},{"name":"Gottlieb-Daimler-Str.","postalCode":"74214","locality":"Schöntal","municipality":{"key":"08126072","name":"Schöntal","type":"Kreisangehörige_Gemeinde"},"district":{"key":"08126","name":"Hohenlohekreis","type":"Landkreis"},"federalState":{"key":"08","name":"Baden-Württemberg"}},{"name":"Götzweg","postalCode":"74214","locality":"Schöntal","municipality":{"key":"08126072","name":"Schöntal","type":"Kreisangehörige_Gemeinde"},"district":{"key":"08126","name":"Hohenlohekreis","type":"Landkreis"},"federalState":{"key":"08","name":"Baden-Württemberg"}},{"name":"Graf-von-Zeppelin-Str.","postalCode":"74214","locality":"Schöntal","municipality":{"key":"08126072","name":"Schöntal","type":"Kreisangehörige_Gemeinde"},"district":{"key":"08126","name":"Hohenlohekreis","type":"Landkreis"},"federalState":{"key":"08","name":"Baden-Württemberg"}},{"name":"Greutweg","postalCode":"74214","locality":"Schöntal","municipality":{"key":"08126072","name":"Schöntal","type":"Kreisangehörige_Gemeinde"},"district":{"key":"08126","name":"Hohenlohekreis","type":"Landkreis"},"federalState":{"key":"08","name":"Baden-Württemberg"}},{"name":"Großer Garten","postalCode":"74214","locality":"Schöntal","municipality":{"key":"08126072","name":"Schöntal","type":"Kreisangehörige_Gemeinde"},"district":{"key":"08126","name":"Hohenlohekreis","type":"Landkreis"},"federalState":{"key":"08","name":"Baden-Württemberg"}},{"name":"Grottenweg","postalCode":"74214","locality":"Schöntal","municipality":{"key":"08126072","name":"Schöntal","type":"Kreisangehörige_Gemeinde"},"district":{"key":"08126","name":"Hohenlohekreis","type":"Landkreis"},"federalState":{"key":"08","name":"Baden-Württemberg"}},{"name":"Grüner Weg","postalCode":"74214","locality":"Schöntal","municipality":{"key":"08126072","name":"Schöntal","type":"Kreisangehörige_Gemeinde"},"district":{"key":"08126","name":"Hohenlohekreis","type":"Landkreis"},"federalState":{"key":"08","name":"Baden-Württemberg"}},{"name":"Haagstr.","postalCode":"74214","locality":"Schöntal","municipality":{"key":"08126072","name":"Schöntal","type":"Kreisangehörige_Gemeinde"},"district":{"key":"08126","name":"Hohenlohekreis","type":"Landkreis"},"federalState":{"key":"08","name":"Baden-Württemberg"}},{"name":"Hafnergasse","postalCode":"74214","locality":"Schöntal","municipality":{"key":"08126072","name":"Schöntal","type":"Kreisangehörige_Gemeinde"},"district":{"key":"08126","name":"Hohenlohekreis","type":"Landkreis"},"federalState":{"key":"08","name":"Baden-Württemberg"}},{"name":"Hagweg","postalCode":"74214","locality":"Schöntal","municipality":{"key":"08126072","name":"Schöntal","type":"Kreisangehörige_Gemeinde"},"district":{"key":"08126","name":"Hohenlohekreis","type":"Landkreis"},"federalState":{"key":"08","name":"Baden-Württemberg"}},{"name":"Haldenstr.","postalCode":"74214","locality":"Schöntal","municipality":{"key":"08126072","name":"Schöntal","type":"Kreisangehörige_Gemeinde"},"district":{"key":"08126","name":"Hohenlohekreis","type":"Landkreis"},"federalState":{"key":"08","name":"Baden-Württemberg"}},{"name":"Halsberger Str.","postalCode":"74214","locality":"Schöntal","municipality":{"key":"08126072","name":"Schöntal","type":"Kreisangehörige_Gemeinde"},"district":{"key":"08126","name":"Hohenlohekreis","type":"Landkreis"},"federalState":{"key":"08","name":"Baden-Württemberg"}},{"name":"Hauptstr.","postalCode":"74214","locality":"Schöntal","municipality":{"key":"08126072","name":"Schöntal","type":"Kreisangehörige_Gemeinde"},"district":{"key":"08126","name":"Hohenlohekreis","type":"Landkreis"},"federalState":{"key":"08","name":"Baden-Württemberg"}},{"name":"Heidestr.","postalCode":"74214","locality":"Schöntal","municipality":{"key":"08126072","name":"Schöntal","type":"Kreisangehörige_Gemeinde"},"district":{"key":"08126","name":"Hohenlohekreis","type":"Landkreis"},"federalState":{"key":"08","name":"Baden-Württemberg"}},{"name":"Hellerweg","postalCode":"74214","locality":"Schöntal","municipality":{"key":"08126072","name":"Schöntal","type":"Kreisangehörige_Gemeinde"},"district":{"key":"08126","name":"Hohenlohekreis","type":"Landkreis"},"federalState":{"key":"08","name":"Baden-Württemberg"}},{"name":"Herrenberg","postalCode":"74214","locality":"Schöntal","municipality":{"key":"08126072","name":"Schöntal","type":"Kreisangehörige_Gemeinde"},"district":{"key":"08126","name":"Hohenlohekreis","type":"Landkreis"},"federalState":{"key":"08","name":"Baden-Württemberg"}},{"name":"Hessengasse","postalCode":"74214","locality":"Schöntal","municipality":{"key":"08126072","name":"Schöntal","type":"Kreisangehörige_Gemeinde"},"district":{"key":"08126","name":"Hohenlohekreis","type":"Landkreis"},"federalState":{"key":"08","name":"Baden-Württemberg"}},{"name":"Heßlingshof","postalCode":"74214","locality":"Schöntal","municipality":{"key":"08126072","name":"Schöntal","type":"Kreisangehörige_Gemeinde"},"district":{"key":"08126","name":"Hohenlohekreis","type":"Landkreis"},"federalState":{"key":"08","name":"Baden-Württemberg"}},{"name":"Hofacker","postalCode":"74214","locality":"Schöntal","municipality":{"key":"08126072","name":"Schöntal","type":"Kreisangehörige_Gemeinde"},"district":{"key":"08126","name":"Hohenlohekreis","type":"Landkreis"},"federalState":{"key":"08","name":"Baden-Württemberg"}},{"name":"Hofäckerweg","postalCode":"74214","locality":"Schöntal","municipality":{"key":"08126072","name":"Schöntal","type":"Kreisangehörige_Gemeinde"},"district":{"key":"08126","name":"Hohenlohekreis","type":"Landkreis"},"federalState":{"key":"08","name":"Baden-Württemberg"}},{"name":"Höhenring","postalCode":"74214","locality":"Schöntal","municipality":{"key":"08126072","name":"Schöntal","type":"Kreisangehörige_Gemeinde"},"district":{"key":"08126","name":"Hohenlohekreis","type":"Landkreis"},"federalState":{"key":"08","name":"Baden-Württemberg"}},{"name":"Hohe Str.","postalCode":"74214","locality":"Schöntal","municipality":{"key":"08126072","name":"Schöntal","type":"Kreisangehörige_Gemeinde"},"district":{"key":"08126","name":"Hohenlohekreis","type":"Landkreis"},"federalState":{"key":"08","name":"Baden-Württemberg"}},{"name":"Honigsteige","postalCode":"74214","locality":"Schöntal","municipality":{"key":"08126072","name":"Schöntal","type":"Kreisangehörige_Gemeinde"},"district":{"key":"08126","name":"Hohenlohekreis","type":"Landkreis"},"federalState":{"key":"08","name":"Baden-Württemberg"}},{"name":"Hopfengartenstr.","postalCode":"74214","locality":"Schöntal","municipality":{"key":"08126072","name":"Schöntal","type":"Kreisangehörige_Gemeinde"},"district":{"key":"08126","name":"Hohenlohekreis","type":"Landkreis"},"federalState":{"key":"08","name":"Baden-Württemberg"}},{"name":"Hösselessteige","postalCode":"74214","locality":"Schöntal","municipality":{"key":"08126072","name":"Schöntal","type":"Kreisangehörige_Gemeinde"},"district":{"key":"08126","name":"Hohenlohekreis","type":"Landkreis"},"federalState":{"key":"08","name":"Baden-Württemberg"}},{"name":"Hösselesstr.","postalCode":"74214","locality":"Schöntal","municipality":{"key":"08126072","name":"Schöntal","type":"Kreisangehörige_Gemeinde"},"district":{"key":"08126","name":"Hohenlohekreis","type":"Landkreis"},"federalState":{"key":"08","name":"Baden-Württemberg"}},{"name":"Im Äulein","postalCode":"74214","locality":"Schöntal","municipality":{"key":"08126072","name":"Schöntal","type":"Kreisangehörige_Gemeinde"},"district":{"key":"08126","name":"Hohenlohekreis","type":"Landkreis"},"federalState":{"key":"08","name":"Baden-Württemberg"}},{"name":"Im Flur","postalCode":"74214","locality":"Schöntal","municipality":{"key":"08126072","name":"Schöntal","type":"Kreisangehörige_Gemeinde"},"district":{"key":"08126","name":"Hohenlohekreis","type":"Landkreis"},"federalState":{"key":"08","name":"Baden-Württemberg"}},{"name":"Im Flürlein","postalCode":"74214","locality":"Schöntal","municipality":{"key":"08126072","name":"Schöntal","type":"Kreisangehörige_Gemeinde"},"district":{"key":"08126","name":"Hohenlohekreis","type":"Landkreis"},"federalState":{"key":"08","name":"Baden-Württemberg"}},{"name":"Im Heller","postalCode":"74214","locality":"Schöntal","municipality":{"key":"08126072","name":"Schöntal","type":"Kreisangehörige_Gemeinde"},"district":{"key":"08126","name":"Hohenlohekreis","type":"Landkreis"},"federalState":{"key":"08","name":"Baden-Württemberg"}},{"name":"In der Halde","postalCode":"74214","locality":"Schöntal","municipality":{"key":"08126072","name":"Schöntal","type":"Kreisangehörige_Gemeinde"},"district":{"key":"08126","name":"Hohenlohekreis","type":"Landkreis"},"federalState":{"key":"08","name":"Baden-Württemberg"}},{"name":"Industriestr.","postalCode":"74214","locality":"Schöntal","municipality":{"key":"08126072","name":"Schöntal","type":"Kreisangehörige_Gemeinde"},"district":{"key":"08126","name":"Hohenlohekreis","type":"Landkreis"},"federalState":{"key":"08","name":"Baden-Württemberg"}},{"name":"Jagstblick","postalCode":"74214","locality":"Schöntal","municipality":{"key":"08126072","name":"Schöntal","type":"Kreisangehörige_Gemeinde"},"district":{"key":"08126","name":"Hohenlohekreis","type":"Landkreis"},"federalState":{"key":"08","name":"Baden-Württemberg"}},{"name":"Jagsthalde","postalCode":"74214","locality":"Schöntal","municipality":{"key":"08126072","name":"Schöntal","type":"Kreisangehörige_Gemeinde"},"district":{"key":"08126","name":"Hohenlohekreis","type":"Landkreis"},"federalState":{"key":"08","name":"Baden-Württemberg"}},{"name":"Jagsthäuser Str.","postalCode":"74214","locality":"Schöntal","municipality":{"key":"08126072","name":"Schöntal","type":"Kreisangehörige_Gemeinde"},"district":{"key":"08126","name":"Hohenlohekreis","type":"Landkreis"},"federalState":{"key":"08","name":"Baden-Württemberg"}},{"name":"Jagsttalstr.","postalCode":"74214","locality":"Schöntal","municipality":{"key":"08126072","name":"Schöntal","type":"Kreisangehörige_Gemeinde"},"district":{"key":"08126","name":"Hohenlohekreis","type":"Landkreis"},"federalState":{"key":"08","name":"Baden-Württemberg"}},{"name":"Kaiserstr.","postalCode":"74214","locality":"Schöntal","municipality":{"key":"08126072","name":"Schöntal","type":"Kreisangehörige_Gemeinde"},"district":{"key":"08126","name":"Hohenlohekreis","type":"Landkreis"},"federalState":{"key":"08","name":"Baden-Württemberg"}},{"name":"Kanalweg","postalCode":"74214","locality":"Schöntal","municipality":{"key":"08126072","name":"Schöntal","type":"Kreisangehörige_Gemeinde"},"district":{"key":"08126","name":"Hohenlohekreis","type":"Landkreis"},"federalState":{"key":"08","name":"Baden-Württemberg"}},{"name":"Kanzleiweg","postalCode":"74214","locality":"Schöntal","municipality":{"key":"08126072","name":"Schöntal","type":"Kreisangehörige_Gemeinde"},"district":{"key":"08126","name":"Hohenlohekreis","type":"Landkreis"},"federalState":{"key":"08","name":"Baden-Württemberg"}},{"name":"Kapellenweg","postalCode":"74214","locality":"Schöntal","municipality":{"key":"08126072","name":"Schöntal","type":"Kreisangehörige_Gemeinde"},"district":{"key":"08126","name":"Hohenlohekreis","type":"Landkreis"},"federalState":{"key":"08","name":"Baden-Württemberg"}},{"name":"Katzenschlagweg","postalCode":"74214","locality":"Schöntal","municipality":{"key":"08126072","name":"Schöntal","type":"Kreisangehörige_Gemeinde"},"district":{"key":"08126","name":"Hohenlohekreis","type":"Landkreis"},"federalState":{"key":"08","name":"Baden-Württemberg"}},{"name":"Keltenstr.","postalCode":"74214","locality":"Schöntal","municipality":{"key":"08126072","name":"Schöntal","type":"Kreisangehörige_Gemeinde"},"district":{"key":"08126","name":"Hohenlohekreis","type":"Landkreis"},"federalState":{"key":"08","name":"Baden-Württemberg"}},{"name":"Kelterplatz","postalCode":"74214","locality":"Schöntal","municipality":{"key":"08126072","name":"Schöntal","type":"Kreisangehörige_Gemeinde"},"district":{"key":"08126","name":"Hohenlohekreis","type":"Landkreis"},"federalState":{"key":"08","name":"Baden-Württemberg"}},{"name":"Kelterstr.","postalCode":"74214","locality":"Schöntal","municipality":{"key":"08126072","name":"Schöntal","type":"Kreisangehörige_Gemeinde"},"district":{"key":"08126","name":"Hohenlohekreis","type":"Landkreis"},"federalState":{"key":"08","name":"Baden-Württemberg"}},{"name":"Kelterweg","postalCode":"74214","locality":"Schöntal","municipality":{"key":"08126072","name":"Schöntal","type":"Kreisangehörige_Gemeinde"},"district":{"key":"08126","name":"Hohenlohekreis","type":"Landkreis"},"federalState":{"key":"08","name":"Baden-Württemberg"}},{"name":"Kessachpark","postalCode":"74214","locality":"Schöntal","municipality":{"key":"08126072","name":"Schöntal","type":"Kreisangehörige_Gemeinde"},"district":{"key":"08126","name":"Hohenlohekreis","type":"Landkreis"},"federalState":{"key":"08","name":"Baden-Württemberg"}},{"name":"Kessachstr.","postalCode":"74214","locality":"Schöntal","municipality":{"key":"08126072","name":"Schöntal","type":"Kreisangehörige_Gemeinde"},"district":{"key":"08126","name":"Hohenlohekreis","type":"Landkreis"},"federalState":{"key":"08","name":"Baden-Württemberg"}},{"name":"Kilian-Nuß-Str.","postalCode":"74214","locality":"Schöntal","municipality":{"key":"08126072","name":"Schöntal","type":"Kreisangehörige_Gemeinde"},"district":{"key":"08126","name":"Hohenlohekreis","type":"Landkreis"},"federalState":{"key":"08","name":"Baden-Württemberg"}},{"name":"Kirchenstr.","postalCode":"74214","locality":"Schöntal","municipality":{"key":"08126072","name":"Schöntal","type":"Kreisangehörige_Gemeinde"},"district":{"key":"08126","name":"Hohenlohekreis","type":"Landkreis"},"federalState":{"key":"08","name":"Baden-Württemberg"}},{"name":"Kirchgasse","postalCode":"74214","locality":"Schöntal","municipality":{"key":"08126072","name":"Schöntal","type":"Kreisangehörige_Gemeinde"},"district":{"key":"08126","name":"Hohenlohekreis","type":"Landkreis"},"federalState":{"key":"08","name":"Baden-Württemberg"}},{"name":"Kirchstr.","postalCode":"74214","locality":"Schöntal","municipality":{"key":"08126072","name":"Schöntal","type":"Kreisangehörige_Gemeinde"},"district":{"key":"08126","name":"Hohenlohekreis","type":"Landkreis"},"federalState":{"key":"08","name":"Baden-Württemberg"}},{"name":"Kirchweg","postalCode":"74214","locality":"Schöntal","municipality":{"key":"08126072","name":"Schöntal","type":"Kreisangehörige_Gemeinde"},"district":{"key":"08126","name":"Hohenlohekreis","type":"Landkreis"},"federalState":{"key":"08","name":"Baden-Württemberg"}},{"name":"Kleine Gasse","postalCode":"74214","locality":"Schöntal","municipality":{"key":"08126072","name":"Schöntal","type":"Kreisangehörige_Gemeinde"},"district":{"key":"08126","name":"Hohenlohekreis","type":"Landkreis"},"federalState":{"key":"08","name":"Baden-Württemberg"}},{"name":"Klingenweg","postalCode":"74214","locality":"Schöntal","municipality":{"key":"08126072","name":"Schöntal","type":"Kreisangehörige_Gemeinde"},"district":{"key":"08126","name":"Hohenlohekreis","type":"Landkreis"},"federalState":{"key":"08","name":"Baden-Württemberg"}},{"name":"Klostergarten Schöntal","postalCode":"74214","locality":"Schöntal","municipality":{"key":"08126072","name":"Schöntal","type":"Kreisangehörige_Gemeinde"},"district":{"key":"08126","name":"Hohenlohekreis","type":"Landkreis"},"federalState":{"key":"08","name":"Baden-Württemberg"}},{"name":"Klosterhof","postalCode":"74214","locality":"Schöntal","municipality":{"key":"08126072","name":"Schöntal","type":"Kreisangehörige_Gemeinde"},"district":{"key":"08126","name":"Hohenlohekreis","type":"Landkreis"},"federalState":{"key":"08","name":"Baden-Württemberg"}},{"name":"Krautheimer Weg","postalCode":"74214","locality":"Schöntal","municipality":{"key":"08126072","name":"Schöntal","type":"Kreisangehörige_Gemeinde"},"district":{"key":"08126","name":"Hohenlohekreis","type":"Landkreis"},"federalState":{"key":"08","name":"Baden-Württemberg"}},{"name":"Kreuzbergweg","postalCode":"74214","locality":"Schöntal","municipality":{"key":"08126072","name":"Schöntal","type":"Kreisangehörige_Gemeinde"},"district":{"key":"08126","name":"Hohenlohekreis","type":"Landkreis"},"federalState":{"key":"08","name":"Baden-Württemberg"}},{"name":"Kufenweg","postalCode":"74214","locality":"Schöntal","municipality":{"key":"08126072","name":"Schöntal","type":"Kreisangehörige_Gemeinde"},"district":{"key":"08126","name":"Hohenlohekreis","type":"Landkreis"},"federalState":{"key":"08","name":"Baden-Württemberg"}},{"name":"Kurzer Weg","postalCode":"74214","locality":"Schöntal","municipality":{"key":"08126072","name":"Schöntal","type":"Kreisangehörige_Gemeinde"},"district":{"key":"08126","name":"Hohenlohekreis","type":"Landkreis"},"federalState":{"key":"08","name":"Baden-Württemberg"}},{"name":"Lange Steige","postalCode":"74214","locality":"Schöntal","municipality":{"key":"08126072","name":"Schöntal","type":"Kreisangehörige_Gemeinde"},"district":{"key":"08126","name":"Hohenlohekreis","type":"Landkreis"},"federalState":{"key":"08","name":"Baden-Württemberg"}},{"name":"Läusbuschweg","postalCode":"74214","locality":"Schöntal","municipality":{"key":"08126072","name":"Schöntal","type":"Kreisangehörige_Gemeinde"},"district":{"key":"08126","name":"Hohenlohekreis","type":"Landkreis"},"federalState":{"key":"08","name":"Baden-Württemberg"}},{"name":"Lerchenstr.","postalCode":"74214","locality":"Schöntal","municipality":{"key":"08126072","name":"Schöntal","type":"Kreisangehörige_Gemeinde"},"district":{"key":"08126","name":"Hohenlohekreis","type":"Landkreis"},"federalState":{"key":"08","name":"Baden-Württemberg"}},{"name":"Lerchenweg","postalCode":"74214","locality":"Schöntal","municipality":{"key":"08126072","name":"Schöntal","type":"Kreisangehörige_Gemeinde"},"district":{"key":"08126","name":"Hohenlohekreis","type":"Landkreis"},"federalState":{"key":"08","name":"Baden-Württemberg"}},{"name":"Linde","postalCode":"74214","locality":"Schöntal","municipality":{"key":"08126072","name":"Schöntal","type":"Kreisangehörige_Gemeinde"},"district":{"key":"08126","name":"Hohenlohekreis","type":"Landkreis"},"federalState":{"key":"08","name":"Baden-Württemberg"}},{"name":"Lindensteige","postalCode":"74214","locality":"Schöntal","municipality":{"key":"08126072","name":"Schöntal","type":"Kreisangehörige_Gemeinde"},"district":{"key":"08126","name":"Hohenlohekreis","type":"Landkreis"},"federalState":{"key":"08","name":"Baden-Württemberg"}},{"name":"Lindenstr.","postalCode":"74214","locality":"Schöntal","municipality":{"key":"08126072","name":"Schöntal","type":"Kreisangehörige_Gemeinde"},"district":{"key":"08126","name":"Hohenlohekreis","type":"Landkreis"},"federalState":{"key":"08","name":"Baden-Württemberg"}},{"name":"Lourdesweg","postalCode":"74214","locality":"Schöntal","municipality":{"key":"08126072","name":"Schöntal","type":"Kreisangehörige_Gemeinde"},"district":{"key":"08126","name":"Hohenlohekreis","type":"Landkreis"},"federalState":{"key":"08","name":"Baden-Württemberg"}},{"name":"Marienstr.","postalCode":"74214","locality":"Schöntal","municipality":{"key":"08126072","name":"Schöntal","type":"Kreisangehörige_Gemeinde"},"district":{"key":"08126","name":"Hohenlohekreis","type":"Landkreis"},"federalState":{"key":"08","name":"Baden-Württemberg"}},{"name":"Marktplatz","postalCode":"74214","locality":"Schöntal","municipality":{"key":"08126072","name":"Schöntal","type":"Kreisangehörige_Gemeinde"},"district":{"key":"08126","name":"Hohenlohekreis","type":"Landkreis"},"federalState":{"key":"08","name":"Baden-Württemberg"}},{"name":"Marlacher Str.","postalCode":"74214","locality":"Schöntal","municipality":{"key":"08126072","name":"Schöntal","type":"Kreisangehörige_Gemeinde"},"district":{"key":"08126","name":"Hohenlohekreis","type":"Landkreis"},"federalState":{"key":"08","name":"Baden-Württemberg"}},{"name":"Max-Eyth-Str.","postalCode":"74214","locality":"Schöntal","municipality":{"key":"08126072","name":"Schöntal","type":"Kreisangehörige_Gemeinde"},"district":{"key":"08126","name":"Hohenlohekreis","type":"Landkreis"},"federalState":{"key":"08","name":"Baden-Württemberg"}},{"name":"Merchinger Str.","postalCode":"74214","locality":"Schöntal","municipality":{"key":"08126072","name":"Schöntal","type":"Kreisangehörige_Gemeinde"},"district":{"key":"08126","name":"Hohenlohekreis","type":"Landkreis"},"federalState":{"key":"08","name":"Baden-Württemberg"}},{"name":"Mittlerer Auweg","postalCode":"74214","locality":"Schöntal","municipality":{"key":"08126072","name":"Schöntal","type":"Kreisangehörige_Gemeinde"},"district":{"key":"08126","name":"Hohenlohekreis","type":"Landkreis"},"federalState":{"key":"08","name":"Baden-Württemberg"}},{"name":"Mühlgasse","postalCode":"74214","locality":"Schöntal","municipality":{"key":"08126072","name":"Schöntal","type":"Kreisangehörige_Gemeinde"},"district":{"key":"08126","name":"Hohenlohekreis","type":"Landkreis"},"federalState":{"key":"08","name":"Baden-Württemberg"}},{"name":"Mühlwehrstr.","postalCode":"74214","locality":"Schöntal","municipality":{"key":"08126072","name":"Schöntal","type":"Kreisangehörige_Gemeinde"},"district":{"key":"08126","name":"Hohenlohekreis","type":"Landkreis"},"federalState":{"key":"08","name":"Baden-Württemberg"}},{"name":"Mühlwiesenweg","postalCode":"74214","locality":"Schöntal","municipality":{"key":"08126072","name":"Schöntal","type":"Kreisangehörige_Gemeinde"},"district":{"key":"08126","name":"Hohenlohekreis","type":"Landkreis"},"federalState":{"key":"08","name":"Baden-Württemberg"}},{"name":"Neue Wiesen","postalCode":"74214","locality":"Schöntal","municipality":{"key":"08126072","name":"Schöntal","type":"Kreisangehörige_Gemeinde"},"district":{"key":"08126","name":"Hohenlohekreis","type":"Landkreis"},"federalState":{"key":"08","name":"Baden-Württemberg"}},{"name":"Nussweg","postalCode":"74214","locality":"Schöntal","municipality":{"key":"08126072","name":"Schöntal","type":"Kreisangehörige_Gemeinde"},"district":{"key":"08126","name":"Hohenlohekreis","type":"Landkreis"},"federalState":{"key":"08","name":"Baden-Württemberg"}},{"name":"Obere Hauptstr.","postalCode":"74214","locality":"Schöntal","municipality":{"key":"08126072","name":"Schöntal","type":"Kreisangehörige_Gemeinde"},"district":{"key":"08126","name":"Hohenlohekreis","type":"Landkreis"},"federalState":{"key":"08","name":"Baden-Württemberg"}},{"name":"Oberer Auweg","postalCode":"74214","locality":"Schöntal","municipality":{"key":"08126072","name":"Schöntal","type":"Kreisangehörige_Gemeinde"},"district":{"key":"08126","name":"Hohenlohekreis","type":"Landkreis"},"federalState":{"key":"08","name":"Baden-Württemberg"}},{"name":"Obere Sonnenhalde","postalCode":"74214","locality":"Schöntal","municipality":{"key":"08126072","name":"Schöntal","type":"Kreisangehörige_Gemeinde"},"district":{"key":"08126","name":"Hohenlohekreis","type":"Landkreis"},"federalState":{"key":"08","name":"Baden-Württemberg"}},{"name":"Obere Str.","postalCode":"74214","locality":"Schöntal","municipality":{"key":"08126072","name":"Schöntal","type":"Kreisangehörige_Gemeinde"},"district":{"key":"08126","name":"Hohenlohekreis","type":"Landkreis"},"federalState":{"key":"08","name":"Baden-Württemberg"}},{"name":"Oberkessacher Str.","postalCode":"74214","locality":"Schöntal","municipality":{"key":"08126072","name":"Schöntal","type":"Kreisangehörige_Gemeinde"},"district":{"key":"08126","name":"Hohenlohekreis","type":"Landkreis"},"federalState":{"key":"08","name":"Baden-Württemberg"}},{"name":"Ortstr.","postalCode":"74214","locality":"Schöntal","municipality":{"key":"08126072","name":"Schöntal","type":"Kreisangehörige_Gemeinde"},"district":{"key":"08126","name":"Hohenlohekreis","type":"Landkreis"},"federalState":{"key":"08","name":"Baden-Württemberg"}},{"name":"Osterberg","postalCode":"74214","locality":"Schöntal","municipality":{"key":"08126072","name":"Schöntal","type":"Kreisangehörige_Gemeinde"},"district":{"key":"08126","name":"Hohenlohekreis","type":"Landkreis"},"federalState":{"key":"08","name":"Baden-Württemberg"}},{"name":"Osterburkener Str.","postalCode":"74214","locality":"Schöntal","municipality":{"key":"08126072","name":"Schöntal","type":"Kreisangehörige_Gemeinde"},"district":{"key":"08126","name":"Hohenlohekreis","type":"Landkreis"},"federalState":{"key":"08","name":"Baden-Württemberg"}},{"name":"Ostersteige","postalCode":"74214","locality":"Schöntal","municipality":{"key":"08126072","name":"Schöntal","type":"Kreisangehörige_Gemeinde"},"district":{"key":"08126","name":"Hohenlohekreis","type":"Landkreis"},"federalState":{"key":"08","name":"Baden-Württemberg"}},{"name":"Panoramaweg","postalCode":"74214","locality":"Schöntal","municipality":{"key":"08126072","name":"Schöntal","type":"Kreisangehörige_Gemeinde"},"district":{"key":"08126","name":"Hohenlohekreis","type":"Landkreis"},"federalState":{"key":"08","name":"Baden-Württemberg"}},{"name":"Poststr.","postalCode":"74214","locality":"Schöntal","municipality":{"key":"08126072","name":"Schöntal","type":"Kreisangehörige_Gemeinde"},"district":{"key":"08126","name":"Hohenlohekreis","type":"Landkreis"},"federalState":{"key":"08","name":"Baden-Württemberg"}},{"name":"Prälat-Knaupp-Weg","postalCode":"74214","locality":"Schöntal","municipality":{"key":"08126072","name":"Schöntal","type":"Kreisangehörige_Gemeinde"},"district":{"key":"08126","name":"Hohenlohekreis","type":"Landkreis"},"federalState":{"key":"08","name":"Baden-Württemberg"}},{"name":"Rathausstr.","postalCode":"74214","locality":"Schöntal","municipality":{"key":"08126072","name":"Schöntal","type":"Kreisangehörige_Gemeinde"},"district":{"key":"08126","name":"Hohenlohekreis","type":"Landkreis"},"federalState":{"key":"08","name":"Baden-Württemberg"}},{"name":"Rathausweg","postalCode":"74214","locality":"Schöntal","municipality":{"key":"08126072","name":"Schöntal","type":"Kreisangehörige_Gemeinde"},"district":{"key":"08126","name":"Hohenlohekreis","type":"Landkreis"},"federalState":{"key":"08","name":"Baden-Württemberg"}},{"name":"Rauhhalde","postalCode":"74214","locality":"Schöntal","municipality":{"key":"08126072","name":"Schöntal","type":"Kreisangehörige_Gemeinde"},"district":{"key":"08126","name":"Hohenlohekreis","type":"Landkreis"},"federalState":{"key":"08","name":"Baden-Württemberg"}},{"name":"Ravensteiner Str.","postalCode":"74214","locality":"Schöntal","municipality":{"key":"08126072","name":"Schöntal","type":"Kreisangehörige_Gemeinde"},"district":{"key":"08126","name":"Hohenlohekreis","type":"Landkreis"},"federalState":{"key":"08","name":"Baden-Württemberg"}},{"name":"Ringstr.","postalCode":"74214","locality":"Schöntal","municipality":{"key":"08126072","name":"Schöntal","type":"Kreisangehörige_Gemeinde"},"district":{"key":"08126","name":"Hohenlohekreis","type":"Landkreis"},"federalState":{"key":"08","name":"Baden-Württemberg"}},{"name":"Römerstr.","postalCode":"74214","locality":"Schöntal","municipality":{"key":"08126072","name":"Schöntal","type":"Kreisangehörige_Gemeinde"},"district":{"key":"08126","name":"Hohenlohekreis","type":"Landkreis"},"federalState":{"key":"08","name":"Baden-Württemberg"}},{"name":"Rosenstr.","postalCode":"74214","locality":"Schöntal","municipality":{"key":"08126072","name":"Schöntal","type":"Kreisangehörige_Gemeinde"},"district":{"key":"08126","name":"Hohenlohekreis","type":"Landkreis"},"federalState":{"key":"08","name":"Baden-Württemberg"}},{"name":"Rosenweg","postalCode":"74214","locality":"Schöntal","municipality":{"key":"08126072","name":"Schöntal","type":"Kreisangehörige_Gemeinde"},"district":{"key":"08126","name":"Hohenlohekreis","type":"Landkreis"},"federalState":{"key":"08","name":"Baden-Württemberg"}},{"name":"Rossacher Str.","postalCode":"74214","locality":"Schöntal","municipality":{"key":"08126072","name":"Schöntal","type":"Kreisangehörige_Gemeinde"},"district":{"key":"08126","name":"Hohenlohekreis","type":"Landkreis"},"federalState":{"key":"08","name":"Baden-Württemberg"}},{"name":"Roter Weideweg","postalCode":"74214","locality":"Schöntal","municipality":{"key":"08126072","name":"Schöntal","type":"Kreisangehörige_Gemeinde"},"district":{"key":"08126","name":"Hohenlohekreis","type":"Landkreis"},"federalState":{"key":"08","name":"Baden-Württemberg"}},{"name":"Rote-Steige-Weg","postalCode":"74214","locality":"Schöntal","municipality":{"key":"08126072","name":"Schöntal","type":"Kreisangehörige_Gemeinde"},"district":{"key":"08126","name":"Hohenlohekreis","type":"Landkreis"},"federalState":{"key":"08","name":"Baden-Württemberg"}},{"name":"Rote-Weide-Weg","postalCode":"74214","locality":"Schöntal","municipality":{"key":"08126072","name":"Schöntal","type":"Kreisangehörige_Gemeinde"},"district":{"key":"08126","name":"Hohenlohekreis","type":"Landkreis"},"federalState":{"key":"08","name":"Baden-Württemberg"}},{"name":"Ruthardstr.","postalCode":"74214","locality":"Schöntal","municipality":{"key":"08126072","name":"Schöntal","type":"Kreisangehörige_Gemeinde"},"district":{"key":"08126","name":"Hohenlohekreis","type":"Landkreis"},"federalState":{"key":"08","name":"Baden-Württemberg"}},{"name":"Schafschläglewerg","postalCode":"74214","locality":"Schöntal","municipality":{"key":"08126072","name":"Schöntal","type":"Kreisangehörige_Gemeinde"},"district":{"key":"08126","name":"Hohenlohekreis","type":"Landkreis"},"federalState":{"key":"08","name":"Baden-Württemberg"}},{"name":"Schelmenklinge","postalCode":"74214","locality":"Schöntal","municipality":{"key":"08126072","name":"Schöntal","type":"Kreisangehörige_Gemeinde"},"district":{"key":"08126","name":"Hohenlohekreis","type":"Landkreis"},"federalState":{"key":"08","name":"Baden-Württemberg"}},{"name":"Schillerstr.","postalCode":"74214","locality":"Schöntal","municipality":{"key":"08126072","name":"Schöntal","type":"Kreisangehörige_Gemeinde"},"district":{"key":"08126","name":"Hohenlohekreis","type":"Landkreis"},"federalState":{"key":"08","name":"Baden-Württemberg"}},{"name":"Schlossblick","postalCode":"74214","locality":"Schöntal","municipality":{"key":"08126072","name":"Schöntal","type":"Kreisangehörige_Gemeinde"},"district":{"key":"08126","name":"Hohenlohekreis","type":"Landkreis"},"federalState":{"key":"08","name":"Baden-Württemberg"}},{"name":"Schloßgasse","postalCode":"74214","locality":"Schöntal","municipality":{"key":"08126072","name":"Schöntal","type":"Kreisangehörige_Gemeinde"},"district":{"key":"08126","name":"Hohenlohekreis","type":"Landkreis"},"federalState":{"key":"08","name":"Baden-Württemberg"}},{"name":"Schlosspark","postalCode":"74214","locality":"Schöntal","municipality":{"key":"08126072","name":"Schöntal","type":"Kreisangehörige_Gemeinde"},"district":{"key":"08126","name":"Hohenlohekreis","type":"Landkreis"},"federalState":{"key":"08","name":"Baden-Württemberg"}},{"name":"Schloßstr.","postalCode":"74214","locality":"Schöntal","municipality":{"key":"08126072","name":"Schöntal","type":"Kreisangehörige_Gemeinde"},"district":{"key":"08126","name":"Hohenlohekreis","type":"Landkreis"},"federalState":{"key":"08","name":"Baden-Württemberg"}},{"name":"Schloßweg","postalCode":"74214","locality":"Schöntal","municipality":{"key":"08126072","name":"Schöntal","type":"Kreisangehörige_Gemeinde"},"district":{"key":"08126","name":"Hohenlohekreis","type":"Landkreis"},"federalState":{"key":"08","name":"Baden-Württemberg"}},{"name":"Schlüsselbergstr.","postalCode":"74214","locality":"Schöntal","municipality":{"key":"08126072","name":"Schöntal","type":"Kreisangehörige_Gemeinde"},"district":{"key":"08126","name":"Hohenlohekreis","type":"Landkreis"},"federalState":{"key":"08","name":"Baden-Württemberg"}},{"name":"Schneidersgasse","postalCode":"74214","locality":"Schöntal","municipality":{"key":"08126072","name":"Schöntal","type":"Kreisangehörige_Gemeinde"},"district":{"key":"08126","name":"Hohenlohekreis","type":"Landkreis"},"federalState":{"key":"08","name":"Baden-Württemberg"}},{"name":"Schöntaler Str.","postalCode":"74214","locality":"Schöntal","municipality":{"key":"08126072","name":"Schöntal","type":"Kreisangehörige_Gemeinde"},"district":{"key":"08126","name":"Hohenlohekreis","type":"Landkreis"},"federalState":{"key":"08","name":"Baden-Württemberg"}},{"name":"Schöntaler Weg","postalCode":"74214","locality":"Schöntal","municipality":{"key":"08126072","name":"Schöntal","type":"Kreisangehörige_Gemeinde"},"district":{"key":"08126","name":"Hohenlohekreis","type":"Landkreis"},"federalState":{"key":"08","name":"Baden-Württemberg"}},{"name":"Schulweg","postalCode":"74214","locality":"Schöntal","municipality":{"key":"08126072","name":"Schöntal","type":"Kreisangehörige_Gemeinde"},"district":{"key":"08126","name":"Hohenlohekreis","type":"Landkreis"},"federalState":{"key":"08","name":"Baden-Württemberg"}},{"name":"Seestr.","postalCode":"74214","locality":"Schöntal","municipality":{"key":"08126072","name":"Schöntal","type":"Kreisangehörige_Gemeinde"},"district":{"key":"08126","name":"Hohenlohekreis","type":"Landkreis"},"federalState":{"key":"08","name":"Baden-Württemberg"}},{"name":"Sershofer Weg","postalCode":"74214","locality":"Schöntal","municipality":{"key":"08126072","name":"Schöntal","type":"Kreisangehörige_Gemeinde"},"district":{"key":"08126","name":"Hohenlohekreis","type":"Landkreis"},"federalState":{"key":"08","name":"Baden-Württemberg"}},{"name":"Siedlungsstr.","postalCode":"74214","locality":"Schöntal","municipality":{"key":"08126072","name":"Schöntal","type":"Kreisangehörige_Gemeinde"},"district":{"key":"08126","name":"Hohenlohekreis","type":"Landkreis"},"federalState":{"key":"08","name":"Baden-Württemberg"}},{"name":"Silcherweg","postalCode":"74214","locality":"Schöntal","municipality":{"key":"08126072","name":"Schöntal","type":"Kreisangehörige_Gemeinde"},"district":{"key":"08126","name":"Hohenlohekreis","type":"Landkreis"},"federalState":{"key":"08","name":"Baden-Württemberg"}},{"name":"Sindeldorfer Str.","postalCode":"74214","locality":"Schöntal","municipality":{"key":"08126072","name":"Schöntal","type":"Kreisangehörige_Gemeinde"},"district":{"key":"08126","name":"Hohenlohekreis","type":"Landkreis"},"federalState":{"key":"08","name":"Baden-Württemberg"}},{"name":"Söldnergasse","postalCode":"74214","locality":"Schöntal","municipality":{"key":"08126072","name":"Schöntal","type":"Kreisangehörige_Gemeinde"},"district":{"key":"08126","name":"Hohenlohekreis","type":"Landkreis"},"federalState":{"key":"08","name":"Baden-Württemberg"}},{"name":"Sonnenrain","postalCode":"74214","locality":"Schöntal","municipality":{"key":"08126072","name":"Schöntal","type":"Kreisangehörige_Gemeinde"},"district":{"key":"08126","name":"Hohenlohekreis","type":"Landkreis"},"federalState":{"key":"08","name":"Baden-Württemberg"}},{"name":"Sperberstr.","postalCode":"74214","locality":"Schöntal","municipality":{"key":"08126072","name":"Schöntal","type":"Kreisangehörige_Gemeinde"},"district":{"key":"08126","name":"Hohenlohekreis","type":"Landkreis"},"federalState":{"key":"08","name":"Baden-Württemberg"}},{"name":"Spitzenhof","postalCode":"74214","locality":"Schöntal","municipality":{"key":"08126072","name":"Schöntal","type":"Kreisangehörige_Gemeinde"},"district":{"key":"08126","name":"Hohenlohekreis","type":"Landkreis"},"federalState":{"key":"08","name":"Baden-Württemberg"}},{"name":"Steige","postalCode":"74214","locality":"Schöntal","municipality":{"key":"08126072","name":"Schöntal","type":"Kreisangehörige_Gemeinde"},"district":{"key":"08126","name":"Hohenlohekreis","type":"Landkreis"},"federalState":{"key":"08","name":"Baden-Württemberg"}},{"name":"Steinbachsiedlung","postalCode":"74214","locality":"Schöntal","municipality":{"key":"08126072","name":"Schöntal","type":"Kreisangehörige_Gemeinde"},"district":{"key":"08126","name":"Hohenlohekreis","type":"Landkreis"},"federalState":{"key":"08","name":"Baden-Württemberg"}},{"name":"Sternbachweg","postalCode":"74214","locality":"Schöntal","municipality":{"key":"08126072","name":"Schöntal","type":"Kreisangehörige_Gemeinde"},"district":{"key":"08126","name":"Hohenlohekreis","type":"Landkreis"},"federalState":{"key":"08","name":"Baden-Württemberg"}},{"name":"Stichstr.","postalCode":"74214","locality":"Schöntal","municipality":{"key":"08126072","name":"Schöntal","type":"Kreisangehörige_Gemeinde"},"district":{"key":"08126","name":"Hohenlohekreis","type":"Landkreis"},"federalState":{"key":"08","name":"Baden-Württemberg"}},{"name":"Str.nschlagweg","postalCode":"74214","locality":"Schöntal","municipality":{"key":"08126072","name":"Schöntal","type":"Kreisangehörige_Gemeinde"},"district":{"key":"08126","name":"Hohenlohekreis","type":"Landkreis"},"federalState":{"key":"08","name":"Baden-Württemberg"}},{"name":"Talstr.","postalCode":"74214","locality":"Schöntal","municipality":{"key":"08126072","name":"Schöntal","type":"Kreisangehörige_Gemeinde"},"district":{"key":"08126","name":"Hohenlohekreis","type":"Landkreis"},"federalState":{"key":"08","name":"Baden-Württemberg"}},{"name":"Tannenbergweg","postalCode":"74214","locality":"Schöntal","municipality":{"key":"08126072","name":"Schöntal","type":"Kreisangehörige_Gemeinde"},"district":{"key":"08126","name":"Hohenlohekreis","type":"Landkreis"},"federalState":{"key":"08","name":"Baden-Württemberg"}},{"name":"Tannenweg","postalCode":"74214","locality":"Schöntal","municipality":{"key":"08126072","name":"Schöntal","type":"Kreisangehörige_Gemeinde"},"district":{"key":"08126","name":"Hohenlohekreis","type":"Landkreis"},"federalState":{"key":"08","name":"Baden-Württemberg"}},{"name":"Tannstr.","postalCode":"74214","locality":"Schöntal","municipality":{"key":"08126072","name":"Schöntal","type":"Kreisangehörige_Gemeinde"},"district":{"key":"08126","name":"Hohenlohekreis","type":"Landkreis"},"federalState":{"key":"08","name":"Baden-Württemberg"}},{"name":"Tiroler-Seen-Weg","postalCode":"74214","locality":"Schöntal","municipality":{"key":"08126072","name":"Schöntal","type":"Kreisangehörige_Gemeinde"},"district":{"key":"08126","name":"Hohenlohekreis","type":"Landkreis"},"federalState":{"key":"08","name":"Baden-Württemberg"}},{"name":"Tränkweg","postalCode":"74214","locality":"Schöntal","municipality":{"key":"08126072","name":"Schöntal","type":"Kreisangehörige_Gemeinde"},"district":{"key":"08126","name":"Hohenlohekreis","type":"Landkreis"},"federalState":{"key":"08","name":"Baden-Württemberg"}},{"name":"Tulpenweg","postalCode":"74214","locality":"Schöntal","municipality":{"key":"08126072","name":"Schöntal","type":"Kreisangehörige_Gemeinde"},"district":{"key":"08126","name":"Hohenlohekreis","type":"Landkreis"},"federalState":{"key":"08","name":"Baden-Württemberg"}},{"name":"Uferweg","postalCode":"74214","locality":"Schöntal","municipality":{"key":"08126072","name":"Schöntal","type":"Kreisangehörige_Gemeinde"},"district":{"key":"08126","name":"Hohenlohekreis","type":"Landkreis"},"federalState":{"key":"08","name":"Baden-Württemberg"}},{"name":"Untere Sonnenhalde","postalCode":"74214","locality":"Schöntal","municipality":{"key":"08126072","name":"Schöntal","type":"Kreisangehörige_Gemeinde"},"district":{"key":"08126","name":"Hohenlohekreis","type":"Landkreis"},"federalState":{"key":"08","name":"Baden-Württemberg"}},{"name":"Unterkessacher Str.","postalCode":"74214","locality":"Schöntal","municipality":{"key":"08126072","name":"Schöntal","type":"Kreisangehörige_Gemeinde"},"district":{"key":"08126","name":"Hohenlohekreis","type":"Landkreis"},"federalState":{"key":"08","name":"Baden-Württemberg"}},{"name":"Wallbrunnenstr.","postalCode":"74214","locality":"Schöntal","municipality":{"key":"08126072","name":"Schöntal","type":"Kreisangehörige_Gemeinde"},"district":{"key":"08126","name":"Hohenlohekreis","type":"Landkreis"},"federalState":{"key":"08","name":"Baden-Württemberg"}},{"name":"Weberstr.","postalCode":"74214","locality":"Schöntal","municipality":{"key":"08126072","name":"Schöntal","type":"Kreisangehörige_Gemeinde"},"district":{"key":"08126","name":"Hohenlohekreis","type":"Landkreis"},"federalState":{"key":"08","name":"Baden-Württemberg"}},{"name":"Weigental","postalCode":"74214","locality":"Schöntal","municipality":{"key":"08126072","name":"Schöntal","type":"Kreisangehörige_Gemeinde"},"district":{"key":"08126","name":"Hohenlohekreis","type":"Landkreis"},"federalState":{"key":"08","name":"Baden-Württemberg"}},{"name":"Weinbergsteige","postalCode":"74214","locality":"Schöntal","municipality":{"key":"08126072","name":"Schöntal","type":"Kreisangehörige_Gemeinde"},"district":{"key":"08126","name":"Hohenlohekreis","type":"Landkreis"},"federalState":{"key":"08","name":"Baden-Württemberg"}},{"name":"Weinbergstr.","postalCode":"74214","locality":"Schöntal","municipality":{"key":"08126072","name":"Schöntal","type":"Kreisangehörige_Gemeinde"},"district":{"key":"08126","name":"Hohenlohekreis","type":"Landkreis"},"federalState":{"key":"08","name":"Baden-Württemberg"}},{"name":"Weinbergweg","postalCode":"74214","locality":"Schöntal","municipality":{"key":"08126072","name":"Schöntal","type":"Kreisangehörige_Gemeinde"},"district":{"key":"08126","name":"Hohenlohekreis","type":"Landkreis"},"federalState":{"key":"08","name":"Baden-Württemberg"}},{"name":"Weltersberg","postalCode":"74214","locality":"Schöntal","municipality":{"key":"08126072","name":"Schöntal","type":"Kreisangehörige_Gemeinde"},"district":{"key":"08126","name":"Hohenlohekreis","type":"Landkreis"},"federalState":{"key":"08","name":"Baden-Württemberg"}},{"name":"Westernhäuser Str.","postalCode":"74214","locality":"Schöntal","municipality":{"key":"08126072","name":"Schöntal","type":"Kreisangehörige_Gemeinde"},"district":{"key":"08126","name":"Hohenlohekreis","type":"Landkreis"},"federalState":{"key":"08","name":"Baden-Württemberg"}},{"name":"Wiesweg","postalCode":"74214","locality":"Schöntal","municipality":{"key":"08126072","name":"Schöntal","type":"Kreisangehörige_Gemeinde"},"district":{"key":"08126","name":"Hohenlohekreis","type":"Landkreis"},"federalState":{"key":"08","name":"Baden-Württemberg"}},{"name":"Winterhalde","postalCode":"74214","locality":"Schöntal","municipality":{"key":"08126072","name":"Schöntal","type":"Kreisangehörige_Gemeinde"},"district":{"key":"08126","name":"Hohenlohekreis","type":"Landkreis"},"federalState":{"key":"08","name":"Baden-Württemberg"}},{"name":"Zieburgstr.","postalCode":"74214","locality":"Schöntal","municipality":{"key":"08126072","name":"Schöntal","type":"Kreisangehörige_Gemeinde"},"district":{"key":"08126","name":"Hohenlohekreis","type":"Landkreis"},"federalState":{"key":"08","name":"Baden-Württemberg"}},{"name":"Ziegeläcker","postalCode":"74214","locality":"Schöntal","municipality":{"key":"08126072","name":"Schöntal","type":"Kreisangehörige_Gemeinde"},"district":{"key":"08126","name":"Hohenlohekreis","type":"Landkreis"},"federalState":{"key":"08","name":"Baden-Württemberg"}},{"name":"Ziegeleistr.","postalCode":"74214","locality":"Schöntal","municipality":{"key":"08126072","name":"Schöntal","type":"Kreisangehörige_Gemeinde"},"district":{"key":"08126","name":"Hohenlohekreis","type":"Landkreis"},"federalState":{"key":"08","name":"Baden-Württemberg"}},{"name":"Zum Hohenberg","postalCode":"74214","locality":"Schöntal","municipality":{"key":"08126072","name":"Schöntal","type":"Kreisangehörige_Gemeinde"},"district":{"key":"08126","name":"Hohenlohekreis","type":"Landkreis"},"federalState":{"key":"08","name":"Baden-Württemberg"}},{"name":"Zum Läusbusch","postalCode":"74214","locality":"Schöntal","municipality":{"key":"08126072","name":"Schöntal","type":"Kreisangehörige_Gemeinde"},"district":{"key":"08126","name":"Hohenlohekreis","type":"Landkreis"},"federalState":{"key":"08","name":"Baden-Württemberg"}},{"name":"Zur Klinge","postalCode":"74214","locality":"Schöntal","municipality":{"key":"08126072","name":"Schöntal","type":"Kreisangehörige_Gemeinde"},"district":{"key":"08126","name":"Hohenlohekreis","type":"Landkreis"},"federalState":{"key":"08","name":"Baden-Württemberg"}},{"name":"Äckerlein","postalCode":"74214","locality":"Schöntal","municipality":{"key":"08126072","name":"Schöntal","type":"Kreisangehörige_Gemeinde"},"district":{"key":"08126","name":"Hohenlohekreis","type":"Landkreis"},"federalState":{"key":"08","name":"Baden-Württemberg"}},{"name":"Äußere Gasse","postalCode":"74214","locality":"Schöntal","municipality":{"key":"08126072","name":"Schöntal","type":"Kreisangehörige_Gemeinde"},"district":{"key":"08126","name":"Hohenlohekreis","type":"Landkreis"},"federalState":{"key":"08","name":"Baden-Württemberg"}},]