[{"name":"Aalweg","postalCode":"23669","locality":"Timmendorfer Strand","municipality":{"key":"01055042","name":"Timmendorfer Strand","type":"Kreisangehörige_Gemeinde"},"district":{"key":"01055","name":"Ostholstein","type":"Kreis"},"federalState":{"key":"01","name":"Schleswig-Holstein"}},{"name":"Ahornweg","postalCode":"23669","locality":"Timmendorfer Strand","municipality":{"key":"01055042","name":"Timmendorfer Strand","type":"Kreisangehörige_Gemeinde"},"district":{"key":"01055","name":"Ostholstein","type":"Kreis"},"federalState":{"key":"01","name":"Schleswig-Holstein"}},{"name":"Alter Kurpark","postalCode":"23669","locality":"Timmendorfer Strand","municipality":{"key":"01055042","name":"Timmendorfer Strand","type":"Kreisangehörige_Gemeinde"},"district":{"key":"01055","name":"Ostholstein","type":"Kreis"},"federalState":{"key":"01","name":"Schleswig-Holstein"}},{"name":"Alter Schulweg","postalCode":"23669","locality":"Timmendorfer Strand","municipality":{"key":"01055042","name":"Timmendorfer Strand","type":"Kreisangehörige_Gemeinde"},"district":{"key":"01055","name":"Ostholstein","type":"Kreis"},"federalState":{"key":"01","name":"Schleswig-Holstein"}},{"name":"Am Bahnhof","postalCode":"23669","locality":"Timmendorfer Strand","municipality":{"key":"01055042","name":"Timmendorfer Strand","type":"Kreisangehörige_Gemeinde"},"district":{"key":"01055","name":"Ostholstein","type":"Kreis"},"federalState":{"key":"01","name":"Schleswig-Holstein"}},{"name":"Am Elchgrund","postalCode":"23669","locality":"Timmendorfer Strand","municipality":{"key":"01055042","name":"Timmendorfer Strand","type":"Kreisangehörige_Gemeinde"},"district":{"key":"01055","name":"Ostholstein","type":"Kreis"},"federalState":{"key":"01","name":"Schleswig-Holstein"}},{"name":"Am Kardohr","postalCode":"23669","locality":"Timmendorfer Strand","municipality":{"key":"01055042","name":"Timmendorfer Strand","type":"Kreisangehörige_Gemeinde"},"district":{"key":"01055","name":"Ostholstein","type":"Kreis"},"federalState":{"key":"01","name":"Schleswig-Holstein"}},{"name":"Am Kuhlbrook","postalCode":"23669","locality":"Timmendorfer Strand","municipality":{"key":"01055042","name":"Timmendorfer Strand","type":"Kreisangehörige_Gemeinde"},"district":{"key":"01055","name":"Ostholstein","type":"Kreis"},"federalState":{"key":"01","name":"Schleswig-Holstein"}},{"name":"Am Kurpark","postalCode":"23669","locality":"Timmendorfer Strand","municipality":{"key":"01055042","name":"Timmendorfer Strand","type":"Kreisangehörige_Gemeinde"},"district":{"key":"01055","name":"Ostholstein","type":"Kreis"},"federalState":{"key":"01","name":"Schleswig-Holstein"}},{"name":"Am Rethwarder","postalCode":"23669","locality":"Timmendorfer Strand","municipality":{"key":"01055042","name":"Timmendorfer Strand","type":"Kreisangehörige_Gemeinde"},"district":{"key":"01055","name":"Ostholstein","type":"Kreis"},"federalState":{"key":"01","name":"Schleswig-Holstein"}},{"name":"Amselweg","postalCode":"23669","locality":"Timmendorfer Strand","municipality":{"key":"01055042","name":"Timmendorfer Strand","type":"Kreisangehörige_Gemeinde"},"district":{"key":"01055","name":"Ostholstein","type":"Kreis"},"federalState":{"key":"01","name":"Schleswig-Holstein"}},{"name":"Am Wittinghaaf","postalCode":"23669","locality":"Timmendorfer Strand","municipality":{"key":"01055042","name":"Timmendorfer Strand","type":"Kreisangehörige_Gemeinde"},"district":{"key":"01055","name":"Ostholstein","type":"Kreis"},"federalState":{"key":"01","name":"Schleswig-Holstein"}},{"name":"An de Eek","postalCode":"23669","locality":"Timmendorfer Strand","municipality":{"key":"01055042","name":"Timmendorfer Strand","type":"Kreisangehörige_Gemeinde"},"district":{"key":"01055","name":"Ostholstein","type":"Kreis"},"federalState":{"key":"01","name":"Schleswig-Holstein"}},{"name":"An der Aalbeek","postalCode":"23669","locality":"Timmendorfer Strand","municipality":{"key":"01055042","name":"Timmendorfer Strand","type":"Kreisangehörige_Gemeinde"},"district":{"key":"01055","name":"Ostholstein","type":"Kreis"},"federalState":{"key":"01","name":"Schleswig-Holstein"}},{"name":"An der Acht","postalCode":"23669","locality":"Timmendorfer Strand","municipality":{"key":"01055042","name":"Timmendorfer Strand","type":"Kreisangehörige_Gemeinde"},"district":{"key":"01055","name":"Ostholstein","type":"Kreis"},"federalState":{"key":"01","name":"Schleswig-Holstein"}},{"name":"An der Mühlenau","postalCode":"23669","locality":"Timmendorfer Strand","municipality":{"key":"01055042","name":"Timmendorfer Strand","type":"Kreisangehörige_Gemeinde"},"district":{"key":"01055","name":"Ostholstein","type":"Kreis"},"federalState":{"key":"01","name":"Schleswig-Holstein"}},{"name":"An der Waldkapelle","postalCode":"23669","locality":"Timmendorfer Strand","municipality":{"key":"01055042","name":"Timmendorfer Strand","type":"Kreisangehörige_Gemeinde"},"district":{"key":"01055","name":"Ostholstein","type":"Kreis"},"federalState":{"key":"01","name":"Schleswig-Holstein"}},{"name":"Andresenstr.","postalCode":"23669","locality":"Timmendorfer Strand","municipality":{"key":"01055042","name":"Timmendorfer Strand","type":"Kreisangehörige_Gemeinde"},"district":{"key":"01055","name":"Ostholstein","type":"Kreis"},"federalState":{"key":"01","name":"Schleswig-Holstein"}},{"name":"Apothekergasse","postalCode":"23669","locality":"Timmendorfer Strand","municipality":{"key":"01055042","name":"Timmendorfer Strand","type":"Kreisangehörige_Gemeinde"},"district":{"key":"01055","name":"Ostholstein","type":"Kreis"},"federalState":{"key":"01","name":"Schleswig-Holstein"}},{"name":"Bäckergang","postalCode":"23669","locality":"Timmendorfer Strand","municipality":{"key":"01055042","name":"Timmendorfer Strand","type":"Kreisangehörige_Gemeinde"},"district":{"key":"01055","name":"Ostholstein","type":"Kreis"},"federalState":{"key":"01","name":"Schleswig-Holstein"}},{"name":"Bäderrandstr.","postalCode":"23669","locality":"Timmendorfer Strand","municipality":{"key":"01055042","name":"Timmendorfer Strand","type":"Kreisangehörige_Gemeinde"},"district":{"key":"01055","name":"Ostholstein","type":"Kreis"},"federalState":{"key":"01","name":"Schleswig-Holstein"}},{"name":"Bahnhofstr.","postalCode":"23669","locality":"Timmendorfer Strand","municipality":{"key":"01055042","name":"Timmendorfer Strand","type":"Kreisangehörige_Gemeinde"},"district":{"key":"01055","name":"Ostholstein","type":"Kreis"},"federalState":{"key":"01","name":"Schleswig-Holstein"}},{"name":"Barkholtredder","postalCode":"23669","locality":"Timmendorfer Strand","municipality":{"key":"01055042","name":"Timmendorfer Strand","type":"Kreisangehörige_Gemeinde"},"district":{"key":"01055","name":"Ostholstein","type":"Kreis"},"federalState":{"key":"01","name":"Schleswig-Holstein"}},{"name":"Beesenbrook","postalCode":"23669","locality":"Timmendorfer Strand","municipality":{"key":"01055042","name":"Timmendorfer Strand","type":"Kreisangehörige_Gemeinde"},"district":{"key":"01055","name":"Ostholstein","type":"Kreis"},"federalState":{"key":"01","name":"Schleswig-Holstein"}},{"name":"Bergstr.","postalCode":"23669","locality":"Timmendorfer Strand","municipality":{"key":"01055042","name":"Timmendorfer Strand","type":"Kreisangehörige_Gemeinde"},"district":{"key":"01055","name":"Ostholstein","type":"Kreis"},"federalState":{"key":"01","name":"Schleswig-Holstein"}},{"name":"Birkenallee","postalCode":"23669","locality":"Timmendorfer Strand","municipality":{"key":"01055042","name":"Timmendorfer Strand","type":"Kreisangehörige_Gemeinde"},"district":{"key":"01055","name":"Ostholstein","type":"Kreis"},"federalState":{"key":"01","name":"Schleswig-Holstein"}},{"name":"Birkenhain","postalCode":"23669","locality":"Timmendorfer Strand","municipality":{"key":"01055042","name":"Timmendorfer Strand","type":"Kreisangehörige_Gemeinde"},"district":{"key":"01055","name":"Ostholstein","type":"Kreis"},"federalState":{"key":"01","name":"Schleswig-Holstein"}},{"name":"Birkenweg","postalCode":"23669","locality":"Timmendorfer Strand","municipality":{"key":"01055042","name":"Timmendorfer Strand","type":"Kreisangehörige_Gemeinde"},"district":{"key":"01055","name":"Ostholstein","type":"Kreis"},"federalState":{"key":"01","name":"Schleswig-Holstein"}},{"name":"Breslauer Str.","postalCode":"23669","locality":"Timmendorfer Strand","municipality":{"key":"01055042","name":"Timmendorfer Strand","type":"Kreisangehörige_Gemeinde"},"district":{"key":"01055","name":"Ostholstein","type":"Kreis"},"federalState":{"key":"01","name":"Schleswig-Holstein"}},{"name":"Brodtener Str.","postalCode":"23669","locality":"Timmendorfer Strand","municipality":{"key":"01055042","name":"Timmendorfer Strand","type":"Kreisangehörige_Gemeinde"},"district":{"key":"01055","name":"Ostholstein","type":"Kreis"},"federalState":{"key":"01","name":"Schleswig-Holstein"}},{"name":"Brookredder","postalCode":"23669","locality":"Timmendorfer Strand","municipality":{"key":"01055042","name":"Timmendorfer Strand","type":"Kreisangehörige_Gemeinde"},"district":{"key":"01055","name":"Ostholstein","type":"Kreis"},"federalState":{"key":"01","name":"Schleswig-Holstein"}},{"name":"Bundesstr.","postalCode":"23669","locality":"Timmendorfer Strand","municipality":{"key":"01055042","name":"Timmendorfer Strand","type":"Kreisangehörige_Gemeinde"},"district":{"key":"01055","name":"Ostholstein","type":"Kreis"},"federalState":{"key":"01","name":"Schleswig-Holstein"}},{"name":"Bundesstr. 76","postalCode":"23669","locality":"Timmendorfer Strand","municipality":{"key":"01055042","name":"Timmendorfer Strand","type":"Kreisangehörige_Gemeinde"},"district":{"key":"01055","name":"Ostholstein","type":"Kreis"},"federalState":{"key":"01","name":"Schleswig-Holstein"}},{"name":"Dänemarkweg","postalCode":"23669","locality":"Timmendorfer Strand","municipality":{"key":"01055042","name":"Timmendorfer Strand","type":"Kreisangehörige_Gemeinde"},"district":{"key":"01055","name":"Ostholstein","type":"Kreis"},"federalState":{"key":"01","name":"Schleswig-Holstein"}},{"name":"Dänische Str.","postalCode":"23669","locality":"Timmendorfer Strand","municipality":{"key":"01055042","name":"Timmendorfer Strand","type":"Kreisangehörige_Gemeinde"},"district":{"key":"01055","name":"Ostholstein","type":"Kreis"},"federalState":{"key":"01","name":"Schleswig-Holstein"}},{"name":"Danziger Allee","postalCode":"23669","locality":"Timmendorfer Strand","municipality":{"key":"01055042","name":"Timmendorfer Strand","type":"Kreisangehörige_Gemeinde"},"district":{"key":"01055","name":"Ostholstein","type":"Kreis"},"federalState":{"key":"01","name":"Schleswig-Holstein"}},{"name":"Doktor-Karl-Krause-Str.","postalCode":"23669","locality":"Timmendorfer Strand","municipality":{"key":"01055042","name":"Timmendorfer Strand","type":"Kreisangehörige_Gemeinde"},"district":{"key":"01055","name":"Ostholstein","type":"Kreis"},"federalState":{"key":"01","name":"Schleswig-Holstein"}},{"name":"Dorfstr.","postalCode":"23669","locality":"Timmendorfer Strand","municipality":{"key":"01055042","name":"Timmendorfer Strand","type":"Kreisangehörige_Gemeinde"},"district":{"key":"01055","name":"Ostholstein","type":"Kreis"},"federalState":{"key":"01","name":"Schleswig-Holstein"}},{"name":"Dornkampstr.","postalCode":"23669","locality":"Timmendorfer Strand","municipality":{"key":"01055042","name":"Timmendorfer Strand","type":"Kreisangehörige_Gemeinde"},"district":{"key":"01055","name":"Ostholstein","type":"Kreis"},"federalState":{"key":"01","name":"Schleswig-Holstein"}},{"name":"Dr.-Heinrich-Fix-Weg","postalCode":"23669","locality":"Timmendorfer Strand","municipality":{"key":"01055042","name":"Timmendorfer Strand","type":"Kreisangehörige_Gemeinde"},"district":{"key":"01055","name":"Ostholstein","type":"Kreis"},"federalState":{"key":"01","name":"Schleswig-Holstein"}},{"name":"Drosselweg","postalCode":"23669","locality":"Timmendorfer Strand","municipality":{"key":"01055042","name":"Timmendorfer Strand","type":"Kreisangehörige_Gemeinde"},"district":{"key":"01055","name":"Ostholstein","type":"Kreis"},"federalState":{"key":"01","name":"Schleswig-Holstein"}},{"name":"Dr.-Waßmund-Str.","postalCode":"23669","locality":"Timmendorfer Strand","municipality":{"key":"01055042","name":"Timmendorfer Strand","type":"Kreisangehörige_Gemeinde"},"district":{"key":"01055","name":"Ostholstein","type":"Kreis"},"federalState":{"key":"01","name":"Schleswig-Holstein"}},{"name":"Dünensteg","postalCode":"23669","locality":"Timmendorfer Strand","municipality":{"key":"01055042","name":"Timmendorfer Strand","type":"Kreisangehörige_Gemeinde"},"district":{"key":"01055","name":"Ostholstein","type":"Kreis"},"federalState":{"key":"01","name":"Schleswig-Holstein"}},{"name":"Dünenweg","postalCode":"23669","locality":"Timmendorfer Strand","municipality":{"key":"01055042","name":"Timmendorfer Strand","type":"Kreisangehörige_Gemeinde"},"district":{"key":"01055","name":"Ostholstein","type":"Kreis"},"federalState":{"key":"01","name":"Schleswig-Holstein"}},{"name":"Ebeltofter Str.","postalCode":"23669","locality":"Timmendorfer Strand","municipality":{"key":"01055042","name":"Timmendorfer Strand","type":"Kreisangehörige_Gemeinde"},"district":{"key":"01055","name":"Ostholstein","type":"Kreis"},"federalState":{"key":"01","name":"Schleswig-Holstein"}},{"name":"Eichenweg","postalCode":"23669","locality":"Timmendorfer Strand","municipality":{"key":"01055042","name":"Timmendorfer Strand","type":"Kreisangehörige_Gemeinde"},"district":{"key":"01055","name":"Ostholstein","type":"Kreis"},"federalState":{"key":"01","name":"Schleswig-Holstein"}},{"name":"Elsterweg","postalCode":"23669","locality":"Timmendorfer Strand","municipality":{"key":"01055042","name":"Timmendorfer Strand","type":"Kreisangehörige_Gemeinde"},"district":{"key":"01055","name":"Ostholstein","type":"Kreis"},"federalState":{"key":"01","name":"Schleswig-Holstein"}},{"name":"Erlenbruchstr.","postalCode":"23669","locality":"Timmendorfer Strand","municipality":{"key":"01055042","name":"Timmendorfer Strand","type":"Kreisangehörige_Gemeinde"},"district":{"key":"01055","name":"Ostholstein","type":"Kreis"},"federalState":{"key":"01","name":"Schleswig-Holstein"}},{"name":"Erlenweg","postalCode":"23669","locality":"Timmendorfer Strand","municipality":{"key":"01055042","name":"Timmendorfer Strand","type":"Kreisangehörige_Gemeinde"},"district":{"key":"01055","name":"Ostholstein","type":"Kreis"},"federalState":{"key":"01","name":"Schleswig-Holstein"}},{"name":"Finkenstr.","postalCode":"23669","locality":"Timmendorfer Strand","municipality":{"key":"01055042","name":"Timmendorfer Strand","type":"Kreisangehörige_Gemeinde"},"district":{"key":"01055","name":"Ostholstein","type":"Kreis"},"federalState":{"key":"01","name":"Schleswig-Holstein"}},{"name":"Finnlandring","postalCode":"23669","locality":"Timmendorfer Strand","municipality":{"key":"01055042","name":"Timmendorfer Strand","type":"Kreisangehörige_Gemeinde"},"district":{"key":"01055","name":"Ostholstein","type":"Kreis"},"federalState":{"key":"01","name":"Schleswig-Holstein"}},{"name":"Fockenrader Redder","postalCode":"23669","locality":"Timmendorfer Strand","municipality":{"key":"01055042","name":"Timmendorfer Strand","type":"Kreisangehörige_Gemeinde"},"district":{"key":"01055","name":"Ostholstein","type":"Kreis"},"federalState":{"key":"01","name":"Schleswig-Holstein"}},{"name":"Föhrenweg","postalCode":"23669","locality":"Timmendorfer Strand","municipality":{"key":"01055042","name":"Timmendorfer Strand","type":"Kreisangehörige_Gemeinde"},"district":{"key":"01055","name":"Ostholstein","type":"Kreis"},"federalState":{"key":"01","name":"Schleswig-Holstein"}},{"name":"Forstweg","postalCode":"23669","locality":"Timmendorfer Strand","municipality":{"key":"01055042","name":"Timmendorfer Strand","type":"Kreisangehörige_Gemeinde"},"district":{"key":"01055","name":"Ostholstein","type":"Kreis"},"federalState":{"key":"01","name":"Schleswig-Holstein"}},{"name":"Friedrich-August-Str.","postalCode":"23669","locality":"Timmendorfer Strand","municipality":{"key":"01055042","name":"Timmendorfer Strand","type":"Kreisangehörige_Gemeinde"},"district":{"key":"01055","name":"Ostholstein","type":"Kreis"},"federalState":{"key":"01","name":"Schleswig-Holstein"}},{"name":"Friedrich-Bebensee-Str.","postalCode":"23669","locality":"Timmendorfer Strand","municipality":{"key":"01055042","name":"Timmendorfer Strand","type":"Kreisangehörige_Gemeinde"},"district":{"key":"01055","name":"Ostholstein","type":"Kreis"},"federalState":{"key":"01","name":"Schleswig-Holstein"}},{"name":"Gartenstr.","postalCode":"23669","locality":"Timmendorfer Strand","municipality":{"key":"01055042","name":"Timmendorfer Strand","type":"Kreisangehörige_Gemeinde"},"district":{"key":"01055","name":"Ostholstein","type":"Kreis"},"federalState":{"key":"01","name":"Schleswig-Holstein"}},{"name":"Gartenweg","postalCode":"23669","locality":"Timmendorfer Strand","municipality":{"key":"01055042","name":"Timmendorfer Strand","type":"Kreisangehörige_Gemeinde"},"district":{"key":"01055","name":"Ostholstein","type":"Kreis"},"federalState":{"key":"01","name":"Schleswig-Holstein"}},{"name":"Gorch-Fock-Str.","postalCode":"23669","locality":"Timmendorfer Strand","municipality":{"key":"01055042","name":"Timmendorfer Strand","type":"Kreisangehörige_Gemeinde"},"district":{"key":"01055","name":"Ostholstein","type":"Kreis"},"federalState":{"key":"01","name":"Schleswig-Holstein"}},{"name":"Grönlandring","postalCode":"23669","locality":"Timmendorfer Strand","municipality":{"key":"01055042","name":"Timmendorfer Strand","type":"Kreisangehörige_Gemeinde"},"district":{"key":"01055","name":"Ostholstein","type":"Kreis"},"federalState":{"key":"01","name":"Schleswig-Holstein"}},{"name":"Grüner Grund","postalCode":"23669","locality":"Timmendorfer Strand","municipality":{"key":"01055042","name":"Timmendorfer Strand","type":"Kreisangehörige_Gemeinde"},"district":{"key":"01055","name":"Ostholstein","type":"Kreis"},"federalState":{"key":"01","name":"Schleswig-Holstein"}},{"name":"Grüner Weg","postalCode":"23669","locality":"Timmendorfer Strand","municipality":{"key":"01055042","name":"Timmendorfer Strand","type":"Kreisangehörige_Gemeinde"},"district":{"key":"01055","name":"Ostholstein","type":"Kreis"},"federalState":{"key":"01","name":"Schleswig-Holstein"}},{"name":"Hafenstr.","postalCode":"23669","locality":"Timmendorfer Strand","municipality":{"key":"01055042","name":"Timmendorfer Strand","type":"Kreisangehörige_Gemeinde"},"district":{"key":"01055","name":"Ostholstein","type":"Kreis"},"federalState":{"key":"01","name":"Schleswig-Holstein"}},{"name":"Hainbuchenweg","postalCode":"23669","locality":"Timmendorfer Strand","municipality":{"key":"01055042","name":"Timmendorfer Strand","type":"Kreisangehörige_Gemeinde"},"district":{"key":"01055","name":"Ostholstein","type":"Kreis"},"federalState":{"key":"01","name":"Schleswig-Holstein"}},{"name":"Hainholzweg","postalCode":"23669","locality":"Timmendorfer Strand","municipality":{"key":"01055042","name":"Timmendorfer Strand","type":"Kreisangehörige_Gemeinde"},"district":{"key":"01055","name":"Ostholstein","type":"Kreis"},"federalState":{"key":"01","name":"Schleswig-Holstein"}},{"name":"Haselweg","postalCode":"23669","locality":"Timmendorfer Strand","municipality":{"key":"01055042","name":"Timmendorfer Strand","type":"Kreisangehörige_Gemeinde"},"district":{"key":"01055","name":"Ostholstein","type":"Kreis"},"federalState":{"key":"01","name":"Schleswig-Holstein"}},{"name":"Hauptstr.","postalCode":"23669","locality":"Timmendorfer Strand","municipality":{"key":"01055042","name":"Timmendorfer Strand","type":"Kreisangehörige_Gemeinde"},"district":{"key":"01055","name":"Ostholstein","type":"Kreis"},"federalState":{"key":"01","name":"Schleswig-Holstein"}},{"name":"Hävener Allee","postalCode":"23669","locality":"Timmendorfer Strand","municipality":{"key":"01055042","name":"Timmendorfer Strand","type":"Kreisangehörige_Gemeinde"},"district":{"key":"01055","name":"Ostholstein","type":"Kreis"},"federalState":{"key":"01","name":"Schleswig-Holstein"}},{"name":"Havenothstr.","postalCode":"23669","locality":"Timmendorfer Strand","municipality":{"key":"01055042","name":"Timmendorfer Strand","type":"Kreisangehörige_Gemeinde"},"district":{"key":"01055","name":"Ostholstein","type":"Kreis"},"federalState":{"key":"01","name":"Schleswig-Holstein"}},{"name":"Hermann-Kröger-Str.","postalCode":"23669","locality":"Timmendorfer Strand","municipality":{"key":"01055042","name":"Timmendorfer Strand","type":"Kreisangehörige_Gemeinde"},"district":{"key":"01055","name":"Ostholstein","type":"Kreis"},"federalState":{"key":"01","name":"Schleswig-Holstein"}},{"name":"Herrenbruchstr.","postalCode":"23669","locality":"Timmendorfer Strand","municipality":{"key":"01055042","name":"Timmendorfer Strand","type":"Kreisangehörige_Gemeinde"},"district":{"key":"01055","name":"Ostholstein","type":"Kreis"},"federalState":{"key":"01","name":"Schleswig-Holstein"}},{"name":"Im Brook","postalCode":"23669","locality":"Timmendorfer Strand","municipality":{"key":"01055042","name":"Timmendorfer Strand","type":"Kreisangehörige_Gemeinde"},"district":{"key":"01055","name":"Ostholstein","type":"Kreis"},"federalState":{"key":"01","name":"Schleswig-Holstein"}},{"name":"Islandring","postalCode":"23669","locality":"Timmendorfer Strand","municipality":{"key":"01055042","name":"Timmendorfer Strand","type":"Kreisangehörige_Gemeinde"},"district":{"key":"01055","name":"Ostholstein","type":"Kreis"},"federalState":{"key":"01","name":"Schleswig-Holstein"}},{"name":"Jütlandweg","postalCode":"23669","locality":"Timmendorfer Strand","municipality":{"key":"01055042","name":"Timmendorfer Strand","type":"Kreisangehörige_Gemeinde"},"district":{"key":"01055","name":"Ostholstein","type":"Kreis"},"federalState":{"key":"01","name":"Schleswig-Holstein"}},{"name":"Kastanienallee","postalCode":"23669","locality":"Timmendorfer Strand","municipality":{"key":"01055042","name":"Timmendorfer Strand","type":"Kreisangehörige_Gemeinde"},"district":{"key":"01055","name":"Ostholstein","type":"Kreis"},"federalState":{"key":"01","name":"Schleswig-Holstein"}},{"name":"Kleiner Wohldkamp","postalCode":"23669","locality":"Timmendorfer Strand","municipality":{"key":"01055042","name":"Timmendorfer Strand","type":"Kreisangehörige_Gemeinde"},"district":{"key":"01055","name":"Ostholstein","type":"Kreis"},"federalState":{"key":"01","name":"Schleswig-Holstein"}},{"name":"Klodtstr.","postalCode":"23669","locality":"Timmendorfer Strand","municipality":{"key":"01055042","name":"Timmendorfer Strand","type":"Kreisangehörige_Gemeinde"},"district":{"key":"01055","name":"Ostholstein","type":"Kreis"},"federalState":{"key":"01","name":"Schleswig-Holstein"}},{"name":"Königsberger Str.","postalCode":"23669","locality":"Timmendorfer Strand","municipality":{"key":"01055042","name":"Timmendorfer Strand","type":"Kreisangehörige_Gemeinde"},"district":{"key":"01055","name":"Ostholstein","type":"Kreis"},"federalState":{"key":"01","name":"Schleswig-Holstein"}},{"name":"Kornblumenweg","postalCode":"23669","locality":"Timmendorfer Strand","municipality":{"key":"01055042","name":"Timmendorfer Strand","type":"Kreisangehörige_Gemeinde"},"district":{"key":"01055","name":"Ostholstein","type":"Kreis"},"federalState":{"key":"01","name":"Schleswig-Holstein"}},{"name":"Kösliner Str.","postalCode":"23669","locality":"Timmendorfer Strand","municipality":{"key":"01055042","name":"Timmendorfer Strand","type":"Kreisangehörige_Gemeinde"},"district":{"key":"01055","name":"Ostholstein","type":"Kreis"},"federalState":{"key":"01","name":"Schleswig-Holstein"}},{"name":"Krabbenweg","postalCode":"23669","locality":"Timmendorfer Strand","municipality":{"key":"01055042","name":"Timmendorfer Strand","type":"Kreisangehörige_Gemeinde"},"district":{"key":"01055","name":"Ostholstein","type":"Kreis"},"federalState":{"key":"01","name":"Schleswig-Holstein"}},{"name":"Krugsweg","postalCode":"23669","locality":"Timmendorfer Strand","municipality":{"key":"01055042","name":"Timmendorfer Strand","type":"Kreisangehörige_Gemeinde"},"district":{"key":"01055","name":"Ostholstein","type":"Kreis"},"federalState":{"key":"01","name":"Schleswig-Holstein"}},{"name":"Kurparkstr.","postalCode":"23669","locality":"Timmendorfer Strand","municipality":{"key":"01055042","name":"Timmendorfer Strand","type":"Kreisangehörige_Gemeinde"},"district":{"key":"01055","name":"Ostholstein","type":"Kreis"},"federalState":{"key":"01","name":"Schleswig-Holstein"}},{"name":"Lachsweg","postalCode":"23669","locality":"Timmendorfer Strand","municipality":{"key":"01055042","name":"Timmendorfer Strand","type":"Kreisangehörige_Gemeinde"},"district":{"key":"01055","name":"Ostholstein","type":"Kreis"},"federalState":{"key":"01","name":"Schleswig-Holstein"}},{"name":"Lübecker Str.","postalCode":"23669","locality":"Timmendorfer Strand","municipality":{"key":"01055042","name":"Timmendorfer Strand","type":"Kreisangehörige_Gemeinde"},"district":{"key":"01055","name":"Ostholstein","type":"Kreis"},"federalState":{"key":"01","name":"Schleswig-Holstein"}},{"name":"Margeritenweg","postalCode":"23669","locality":"Timmendorfer Strand","municipality":{"key":"01055042","name":"Timmendorfer Strand","type":"Kreisangehörige_Gemeinde"},"district":{"key":"01055","name":"Ostholstein","type":"Kreis"},"federalState":{"key":"01","name":"Schleswig-Holstein"}},{"name":"Marienburger Str.","postalCode":"23669","locality":"Timmendorfer Strand","municipality":{"key":"01055042","name":"Timmendorfer Strand","type":"Kreisangehörige_Gemeinde"},"district":{"key":"01055","name":"Ostholstein","type":"Kreis"},"federalState":{"key":"01","name":"Schleswig-Holstein"}},{"name":"Meinsweg","postalCode":"23669","locality":"Timmendorfer Strand","municipality":{"key":"01055042","name":"Timmendorfer Strand","type":"Kreisangehörige_Gemeinde"},"district":{"key":"01055","name":"Ostholstein","type":"Kreis"},"federalState":{"key":"01","name":"Schleswig-Holstein"}},{"name":"Misdroyer Str.","postalCode":"23669","locality":"Timmendorfer Strand","municipality":{"key":"01055042","name":"Timmendorfer Strand","type":"Kreisangehörige_Gemeinde"},"district":{"key":"01055","name":"Ostholstein","type":"Kreis"},"federalState":{"key":"01","name":"Schleswig-Holstein"}},{"name":"Mittelweg","postalCode":"23669","locality":"Timmendorfer Strand","municipality":{"key":"01055042","name":"Timmendorfer Strand","type":"Kreisangehörige_Gemeinde"},"district":{"key":"01055","name":"Ostholstein","type":"Kreis"},"federalState":{"key":"01","name":"Schleswig-Holstein"}},{"name":"Möhlenbreede","postalCode":"23669","locality":"Timmendorfer Strand","municipality":{"key":"01055042","name":"Timmendorfer Strand","type":"Kreisangehörige_Gemeinde"},"district":{"key":"01055","name":"Ostholstein","type":"Kreis"},"federalState":{"key":"01","name":"Schleswig-Holstein"}},{"name":"Mohnblumenweg","postalCode":"23669","locality":"Timmendorfer Strand","municipality":{"key":"01055042","name":"Timmendorfer Strand","type":"Kreisangehörige_Gemeinde"},"district":{"key":"01055","name":"Ostholstein","type":"Kreis"},"federalState":{"key":"01","name":"Schleswig-Holstein"}},{"name":"Molsweg","postalCode":"23669","locality":"Timmendorfer Strand","municipality":{"key":"01055042","name":"Timmendorfer Strand","type":"Kreisangehörige_Gemeinde"},"district":{"key":"01055","name":"Ostholstein","type":"Kreis"},"federalState":{"key":"01","name":"Schleswig-Holstein"}},{"name":"Mühlenweg","postalCode":"23669","locality":"Timmendorfer Strand","municipality":{"key":"01055042","name":"Timmendorfer Strand","type":"Kreisangehörige_Gemeinde"},"district":{"key":"01055","name":"Ostholstein","type":"Kreis"},"federalState":{"key":"01","name":"Schleswig-Holstein"}},{"name":"Nagelsallee","postalCode":"23669","locality":"Timmendorfer Strand","municipality":{"key":"01055042","name":"Timmendorfer Strand","type":"Kreisangehörige_Gemeinde"},"district":{"key":"01055","name":"Ostholstein","type":"Kreis"},"federalState":{"key":"01","name":"Schleswig-Holstein"}},{"name":"Neukuhrener Weg","postalCode":"23669","locality":"Timmendorfer Strand","municipality":{"key":"01055042","name":"Timmendorfer Strand","type":"Kreisangehörige_Gemeinde"},"district":{"key":"01055","name":"Ostholstein","type":"Kreis"},"federalState":{"key":"01","name":"Schleswig-Holstein"}},{"name":"Niendorfer Balkon","postalCode":"23669","locality":"Timmendorfer Strand","municipality":{"key":"01055042","name":"Timmendorfer Strand","type":"Kreisangehörige_Gemeinde"},"district":{"key":"01055","name":"Ostholstein","type":"Kreis"},"federalState":{"key":"01","name":"Schleswig-Holstein"}},{"name":"Niobeweg","postalCode":"23669","locality":"Timmendorfer Strand","municipality":{"key":"01055042","name":"Timmendorfer Strand","type":"Kreisangehörige_Gemeinde"},"district":{"key":"01055","name":"Ostholstein","type":"Kreis"},"federalState":{"key":"01","name":"Schleswig-Holstein"}},{"name":"Nothweg","postalCode":"23669","locality":"Timmendorfer Strand","municipality":{"key":"01055042","name":"Timmendorfer Strand","type":"Kreisangehörige_Gemeinde"},"district":{"key":"01055","name":"Ostholstein","type":"Kreis"},"federalState":{"key":"01","name":"Schleswig-Holstein"}},{"name":"Oeverdieker Weg","postalCode":"23669","locality":"Timmendorfer Strand","municipality":{"key":"01055042","name":"Timmendorfer Strand","type":"Kreisangehörige_Gemeinde"},"district":{"key":"01055","name":"Ostholstein","type":"Kreis"},"federalState":{"key":"01","name":"Schleswig-Holstein"}},{"name":"Op'n Barg","postalCode":"23669","locality":"Timmendorfer Strand","municipality":{"key":"01055042","name":"Timmendorfer Strand","type":"Kreisangehörige_Gemeinde"},"district":{"key":"01055","name":"Ostholstein","type":"Kreis"},"federalState":{"key":"01","name":"Schleswig-Holstein"}},{"name":"Ostseeallee","postalCode":"23669","locality":"Timmendorfer Strand","municipality":{"key":"01055042","name":"Timmendorfer Strand","type":"Kreisangehörige_Gemeinde"},"district":{"key":"01055","name":"Ostholstein","type":"Kreis"},"federalState":{"key":"01","name":"Schleswig-Holstein"}},{"name":"Otto-Langbehn-Str.","postalCode":"23669","locality":"Timmendorfer Strand","municipality":{"key":"01055042","name":"Timmendorfer Strand","type":"Kreisangehörige_Gemeinde"},"district":{"key":"01055","name":"Ostholstein","type":"Kreis"},"federalState":{"key":"01","name":"Schleswig-Holstein"}},{"name":"Paduaweg","postalCode":"23669","locality":"Timmendorfer Strand","municipality":{"key":"01055042","name":"Timmendorfer Strand","type":"Kreisangehörige_Gemeinde"},"district":{"key":"01055","name":"Ostholstein","type":"Kreis"},"federalState":{"key":"01","name":"Schleswig-Holstein"}},{"name":"Pamirstr.","postalCode":"23669","locality":"Timmendorfer Strand","municipality":{"key":"01055042","name":"Timmendorfer Strand","type":"Kreisangehörige_Gemeinde"},"district":{"key":"01055","name":"Ostholstein","type":"Kreis"},"federalState":{"key":"01","name":"Schleswig-Holstein"}},{"name":"Panganiweg","postalCode":"23669","locality":"Timmendorfer Strand","municipality":{"key":"01055042","name":"Timmendorfer Strand","type":"Kreisangehörige_Gemeinde"},"district":{"key":"01055","name":"Ostholstein","type":"Kreis"},"federalState":{"key":"01","name":"Schleswig-Holstein"}},{"name":"Pappelweg","postalCode":"23669","locality":"Timmendorfer Strand","municipality":{"key":"01055042","name":"Timmendorfer Strand","type":"Kreisangehörige_Gemeinde"},"district":{"key":"01055","name":"Ostholstein","type":"Kreis"},"federalState":{"key":"01","name":"Schleswig-Holstein"}},{"name":"Parkallee","postalCode":"23669","locality":"Timmendorfer Strand","municipality":{"key":"01055042","name":"Timmendorfer Strand","type":"Kreisangehörige_Gemeinde"},"district":{"key":"01055","name":"Ostholstein","type":"Kreis"},"federalState":{"key":"01","name":"Schleswig-Holstein"}},{"name":"Passatweg","postalCode":"23669","locality":"Timmendorfer Strand","municipality":{"key":"01055042","name":"Timmendorfer Strand","type":"Kreisangehörige_Gemeinde"},"district":{"key":"01055","name":"Ostholstein","type":"Kreis"},"federalState":{"key":"01","name":"Schleswig-Holstein"}},{"name":"Pastor-Rode-Weg","postalCode":"23669","locality":"Timmendorfer Strand","municipality":{"key":"01055042","name":"Timmendorfer Strand","type":"Kreisangehörige_Gemeinde"},"district":{"key":"01055","name":"Ostholstein","type":"Kreis"},"federalState":{"key":"01","name":"Schleswig-Holstein"}},{"name":"Peter-Hardt-Str.","postalCode":"23669","locality":"Timmendorfer Strand","municipality":{"key":"01055042","name":"Timmendorfer Strand","type":"Kreisangehörige_Gemeinde"},"district":{"key":"01055","name":"Ostholstein","type":"Kreis"},"federalState":{"key":"01","name":"Schleswig-Holstein"}},{"name":"Pommernweg","postalCode":"23669","locality":"Timmendorfer Strand","municipality":{"key":"01055042","name":"Timmendorfer Strand","type":"Kreisangehörige_Gemeinde"},"district":{"key":"01055","name":"Ostholstein","type":"Kreis"},"federalState":{"key":"01","name":"Schleswig-Holstein"}},{"name":"Posener Str.","postalCode":"23669","locality":"Timmendorfer Strand","municipality":{"key":"01055042","name":"Timmendorfer Strand","type":"Kreisangehörige_Gemeinde"},"district":{"key":"01055","name":"Ostholstein","type":"Kreis"},"federalState":{"key":"01","name":"Schleswig-Holstein"}},{"name":"Poststr.","postalCode":"23669","locality":"Timmendorfer Strand","municipality":{"key":"01055042","name":"Timmendorfer Strand","type":"Kreisangehörige_Gemeinde"},"district":{"key":"01055","name":"Ostholstein","type":"Kreis"},"federalState":{"key":"01","name":"Schleswig-Holstein"}},{"name":"Ratzebuhrer Allee","postalCode":"23669","locality":"Timmendorfer Strand","municipality":{"key":"01055042","name":"Timmendorfer Strand","type":"Kreisangehörige_Gemeinde"},"district":{"key":"01055","name":"Ostholstein","type":"Kreis"},"federalState":{"key":"01","name":"Schleswig-Holstein"}},{"name":"Redderkamp","postalCode":"23669","locality":"Timmendorfer Strand","municipality":{"key":"01055042","name":"Timmendorfer Strand","type":"Kreisangehörige_Gemeinde"},"district":{"key":"01055","name":"Ostholstein","type":"Kreis"},"federalState":{"key":"01","name":"Schleswig-Holstein"}},{"name":"Rodenbergstr.","postalCode":"23669","locality":"Timmendorfer Strand","municipality":{"key":"01055042","name":"Timmendorfer Strand","type":"Kreisangehörige_Gemeinde"},"district":{"key":"01055","name":"Ostholstein","type":"Kreis"},"federalState":{"key":"01","name":"Schleswig-Holstein"}},{"name":"Roggenkamp","postalCode":"23669","locality":"Timmendorfer Strand","municipality":{"key":"01055042","name":"Timmendorfer Strand","type":"Kreisangehörige_Gemeinde"},"district":{"key":"01055","name":"Ostholstein","type":"Kreis"},"federalState":{"key":"01","name":"Schleswig-Holstein"}},{"name":"Rosenhain","postalCode":"23669","locality":"Timmendorfer Strand","municipality":{"key":"01055042","name":"Timmendorfer Strand","type":"Kreisangehörige_Gemeinde"},"district":{"key":"01055","name":"Ostholstein","type":"Kreis"},"federalState":{"key":"01","name":"Schleswig-Holstein"}},{"name":"Rossittener Weg","postalCode":"23669","locality":"Timmendorfer Strand","municipality":{"key":"01055042","name":"Timmendorfer Strand","type":"Kreisangehörige_Gemeinde"},"district":{"key":"01055","name":"Ostholstein","type":"Kreis"},"federalState":{"key":"01","name":"Schleswig-Holstein"}},{"name":"Ruppersdorfer Weg","postalCode":"23669","locality":"Timmendorfer Strand","municipality":{"key":"01055042","name":"Timmendorfer Strand","type":"Kreisangehörige_Gemeinde"},"district":{"key":"01055","name":"Ostholstein","type":"Kreis"},"federalState":{"key":"01","name":"Schleswig-Holstein"}},{"name":"Samlandstr.","postalCode":"23669","locality":"Timmendorfer Strand","municipality":{"key":"01055042","name":"Timmendorfer Strand","type":"Kreisangehörige_Gemeinde"},"district":{"key":"01055","name":"Ostholstein","type":"Kreis"},"federalState":{"key":"01","name":"Schleswig-Holstein"}},{"name":"Saunaring","postalCode":"23669","locality":"Timmendorfer Strand","municipality":{"key":"01055042","name":"Timmendorfer Strand","type":"Kreisangehörige_Gemeinde"},"district":{"key":"01055","name":"Ostholstein","type":"Kreis"},"federalState":{"key":"01","name":"Schleswig-Holstein"}},{"name":"Schmiedestr.","postalCode":"23669","locality":"Timmendorfer Strand","municipality":{"key":"01055042","name":"Timmendorfer Strand","type":"Kreisangehörige_Gemeinde"},"district":{"key":"01055","name":"Ostholstein","type":"Kreis"},"federalState":{"key":"01","name":"Schleswig-Holstein"}},{"name":"Schmilinskystr.","postalCode":"23669","locality":"Timmendorfer Strand","municipality":{"key":"01055042","name":"Timmendorfer Strand","type":"Kreisangehörige_Gemeinde"},"district":{"key":"01055","name":"Ostholstein","type":"Kreis"},"federalState":{"key":"01","name":"Schleswig-Holstein"}},{"name":"Schwedenweg","postalCode":"23669","locality":"Timmendorfer Strand","municipality":{"key":"01055042","name":"Timmendorfer Strand","type":"Kreisangehörige_Gemeinde"},"district":{"key":"01055","name":"Ostholstein","type":"Kreis"},"federalState":{"key":"01","name":"Schleswig-Holstein"}},{"name":"Seekoppel","postalCode":"23669","locality":"Timmendorfer Strand","municipality":{"key":"01055042","name":"Timmendorfer Strand","type":"Kreisangehörige_Gemeinde"},"district":{"key":"01055","name":"Ostholstein","type":"Kreis"},"federalState":{"key":"01","name":"Schleswig-Holstein"}},{"name":"Seestr.","postalCode":"23669","locality":"Timmendorfer Strand","municipality":{"key":"01055042","name":"Timmendorfer Strand","type":"Kreisangehörige_Gemeinde"},"district":{"key":"01055","name":"Ostholstein","type":"Kreis"},"federalState":{"key":"01","name":"Schleswig-Holstein"}},{"name":"Senjor Park","postalCode":"23669","locality":"Timmendorfer Strand","municipality":{"key":"01055042","name":"Timmendorfer Strand","type":"Kreisangehörige_Gemeinde"},"district":{"key":"01055","name":"Ostholstein","type":"Kreis"},"federalState":{"key":"01","name":"Schleswig-Holstein"}},{"name":"Stargarder Weg","postalCode":"23669","locality":"Timmendorfer Strand","municipality":{"key":"01055042","name":"Timmendorfer Strand","type":"Kreisangehörige_Gemeinde"},"district":{"key":"01055","name":"Ostholstein","type":"Kreis"},"federalState":{"key":"01","name":"Schleswig-Holstein"}},{"name":"Steenbeek","postalCode":"23669","locality":"Timmendorfer Strand","municipality":{"key":"01055042","name":"Timmendorfer Strand","type":"Kreisangehörige_Gemeinde"},"district":{"key":"01055","name":"Ostholstein","type":"Kreis"},"federalState":{"key":"01","name":"Schleswig-Holstein"}},{"name":"Steenkamp","postalCode":"23669","locality":"Timmendorfer Strand","municipality":{"key":"01055042","name":"Timmendorfer Strand","type":"Kreisangehörige_Gemeinde"},"district":{"key":"01055","name":"Ostholstein","type":"Kreis"},"federalState":{"key":"01","name":"Schleswig-Holstein"}},{"name":"Steiluferallee","postalCode":"23669","locality":"Timmendorfer Strand","municipality":{"key":"01055042","name":"Timmendorfer Strand","type":"Kreisangehörige_Gemeinde"},"district":{"key":"01055","name":"Ostholstein","type":"Kreis"},"federalState":{"key":"01","name":"Schleswig-Holstein"}},{"name":"Stettiner Str.","postalCode":"23669","locality":"Timmendorfer Strand","municipality":{"key":"01055042","name":"Timmendorfer Strand","type":"Kreisangehörige_Gemeinde"},"district":{"key":"01055","name":"Ostholstein","type":"Kreis"},"federalState":{"key":"01","name":"Schleswig-Holstein"}},{"name":"Störtebekerweg","postalCode":"23669","locality":"Timmendorfer Strand","municipality":{"key":"01055042","name":"Timmendorfer Strand","type":"Kreisangehörige_Gemeinde"},"district":{"key":"01055","name":"Ostholstein","type":"Kreis"},"federalState":{"key":"01","name":"Schleswig-Holstein"}},{"name":"Strandallee","postalCode":"23669","locality":"Timmendorfer Strand","municipality":{"key":"01055042","name":"Timmendorfer Strand","type":"Kreisangehörige_Gemeinde"},"district":{"key":"01055","name":"Ostholstein","type":"Kreis"},"federalState":{"key":"01","name":"Schleswig-Holstein"}},{"name":"Strandpassage","postalCode":"23669","locality":"Timmendorfer Strand","municipality":{"key":"01055042","name":"Timmendorfer Strand","type":"Kreisangehörige_Gemeinde"},"district":{"key":"01055","name":"Ostholstein","type":"Kreis"},"federalState":{"key":"01","name":"Schleswig-Holstein"}},{"name":"Strandpromenade","postalCode":"23669","locality":"Timmendorfer Strand","municipality":{"key":"01055042","name":"Timmendorfer Strand","type":"Kreisangehörige_Gemeinde"},"district":{"key":"01055","name":"Ostholstein","type":"Kreis"},"federalState":{"key":"01","name":"Schleswig-Holstein"}},{"name":"Strandweg","postalCode":"23669","locality":"Timmendorfer Strand","municipality":{"key":"01055042","name":"Timmendorfer Strand","type":"Kreisangehörige_Gemeinde"},"district":{"key":"01055","name":"Ostholstein","type":"Kreis"},"federalState":{"key":"01","name":"Schleswig-Holstein"}},{"name":"Strandzugang","postalCode":"23669","locality":"Timmendorfer Strand","municipality":{"key":"01055042","name":"Timmendorfer Strand","type":"Kreisangehörige_Gemeinde"},"district":{"key":"01055","name":"Ostholstein","type":"Kreis"},"federalState":{"key":"01","name":"Schleswig-Holstein"}},{"name":"Strandzugang 1","postalCode":"23669","locality":"Timmendorfer Strand","municipality":{"key":"01055042","name":"Timmendorfer Strand","type":"Kreisangehörige_Gemeinde"},"district":{"key":"01055","name":"Ostholstein","type":"Kreis"},"federalState":{"key":"01","name":"Schleswig-Holstein"}},{"name":"Strandzugang 10","postalCode":"23669","locality":"Timmendorfer Strand","municipality":{"key":"01055042","name":"Timmendorfer Strand","type":"Kreisangehörige_Gemeinde"},"district":{"key":"01055","name":"Ostholstein","type":"Kreis"},"federalState":{"key":"01","name":"Schleswig-Holstein"}},{"name":"Strandzugang 11","postalCode":"23669","locality":"Timmendorfer Strand","municipality":{"key":"01055042","name":"Timmendorfer Strand","type":"Kreisangehörige_Gemeinde"},"district":{"key":"01055","name":"Ostholstein","type":"Kreis"},"federalState":{"key":"01","name":"Schleswig-Holstein"}},{"name":"Strandzugang 14","postalCode":"23669","locality":"Timmendorfer Strand","municipality":{"key":"01055042","name":"Timmendorfer Strand","type":"Kreisangehörige_Gemeinde"},"district":{"key":"01055","name":"Ostholstein","type":"Kreis"},"federalState":{"key":"01","name":"Schleswig-Holstein"}},{"name":"Strandzugang 15","postalCode":"23669","locality":"Timmendorfer Strand","municipality":{"key":"01055042","name":"Timmendorfer Strand","type":"Kreisangehörige_Gemeinde"},"district":{"key":"01055","name":"Ostholstein","type":"Kreis"},"federalState":{"key":"01","name":"Schleswig-Holstein"}},{"name":"Strandzugang 17","postalCode":"23669","locality":"Timmendorfer Strand","municipality":{"key":"01055042","name":"Timmendorfer Strand","type":"Kreisangehörige_Gemeinde"},"district":{"key":"01055","name":"Ostholstein","type":"Kreis"},"federalState":{"key":"01","name":"Schleswig-Holstein"}},{"name":"Strandzugang 18","postalCode":"23669","locality":"Timmendorfer Strand","municipality":{"key":"01055042","name":"Timmendorfer Strand","type":"Kreisangehörige_Gemeinde"},"district":{"key":"01055","name":"Ostholstein","type":"Kreis"},"federalState":{"key":"01","name":"Schleswig-Holstein"}},{"name":"Strandzugang 2","postalCode":"23669","locality":"Timmendorfer Strand","municipality":{"key":"01055042","name":"Timmendorfer Strand","type":"Kreisangehörige_Gemeinde"},"district":{"key":"01055","name":"Ostholstein","type":"Kreis"},"federalState":{"key":"01","name":"Schleswig-Holstein"}},{"name":"Strandzugang 20","postalCode":"23669","locality":"Timmendorfer Strand","municipality":{"key":"01055042","name":"Timmendorfer Strand","type":"Kreisangehörige_Gemeinde"},"district":{"key":"01055","name":"Ostholstein","type":"Kreis"},"federalState":{"key":"01","name":"Schleswig-Holstein"}},{"name":"Strandzugang 21","postalCode":"23669","locality":"Timmendorfer Strand","municipality":{"key":"01055042","name":"Timmendorfer Strand","type":"Kreisangehörige_Gemeinde"},"district":{"key":"01055","name":"Ostholstein","type":"Kreis"},"federalState":{"key":"01","name":"Schleswig-Holstein"}},{"name":"Strandzugang 22/23","postalCode":"23669","locality":"Timmendorfer Strand","municipality":{"key":"01055042","name":"Timmendorfer Strand","type":"Kreisangehörige_Gemeinde"},"district":{"key":"01055","name":"Ostholstein","type":"Kreis"},"federalState":{"key":"01","name":"Schleswig-Holstein"}},{"name":"Strandzugang 24","postalCode":"23669","locality":"Timmendorfer Strand","municipality":{"key":"01055042","name":"Timmendorfer Strand","type":"Kreisangehörige_Gemeinde"},"district":{"key":"01055","name":"Ostholstein","type":"Kreis"},"federalState":{"key":"01","name":"Schleswig-Holstein"}},{"name":"Strandzugang 25","postalCode":"23669","locality":"Timmendorfer Strand","municipality":{"key":"01055042","name":"Timmendorfer Strand","type":"Kreisangehörige_Gemeinde"},"district":{"key":"01055","name":"Ostholstein","type":"Kreis"},"federalState":{"key":"01","name":"Schleswig-Holstein"}},{"name":"Strandzugang 27","postalCode":"23669","locality":"Timmendorfer Strand","municipality":{"key":"01055042","name":"Timmendorfer Strand","type":"Kreisangehörige_Gemeinde"},"district":{"key":"01055","name":"Ostholstein","type":"Kreis"},"federalState":{"key":"01","name":"Schleswig-Holstein"}},{"name":"Strandzugang 28","postalCode":"23669","locality":"Timmendorfer Strand","municipality":{"key":"01055042","name":"Timmendorfer Strand","type":"Kreisangehörige_Gemeinde"},"district":{"key":"01055","name":"Ostholstein","type":"Kreis"},"federalState":{"key":"01","name":"Schleswig-Holstein"}},{"name":"Strandzugang 29","postalCode":"23669","locality":"Timmendorfer Strand","municipality":{"key":"01055042","name":"Timmendorfer Strand","type":"Kreisangehörige_Gemeinde"},"district":{"key":"01055","name":"Ostholstein","type":"Kreis"},"federalState":{"key":"01","name":"Schleswig-Holstein"}},{"name":"Strandzugang 3","postalCode":"23669","locality":"Timmendorfer Strand","municipality":{"key":"01055042","name":"Timmendorfer Strand","type":"Kreisangehörige_Gemeinde"},"district":{"key":"01055","name":"Ostholstein","type":"Kreis"},"federalState":{"key":"01","name":"Schleswig-Holstein"}},{"name":"Strandzugang 30","postalCode":"23669","locality":"Timmendorfer Strand","municipality":{"key":"01055042","name":"Timmendorfer Strand","type":"Kreisangehörige_Gemeinde"},"district":{"key":"01055","name":"Ostholstein","type":"Kreis"},"federalState":{"key":"01","name":"Schleswig-Holstein"}},{"name":"Strandzugang 31","postalCode":"23669","locality":"Timmendorfer Strand","municipality":{"key":"01055042","name":"Timmendorfer Strand","type":"Kreisangehörige_Gemeinde"},"district":{"key":"01055","name":"Ostholstein","type":"Kreis"},"federalState":{"key":"01","name":"Schleswig-Holstein"}},{"name":"Strandzugang 33","postalCode":"23669","locality":"Timmendorfer Strand","municipality":{"key":"01055042","name":"Timmendorfer Strand","type":"Kreisangehörige_Gemeinde"},"district":{"key":"01055","name":"Ostholstein","type":"Kreis"},"federalState":{"key":"01","name":"Schleswig-Holstein"}},{"name":"Strandzugang 34","postalCode":"23669","locality":"Timmendorfer Strand","municipality":{"key":"01055042","name":"Timmendorfer Strand","type":"Kreisangehörige_Gemeinde"},"district":{"key":"01055","name":"Ostholstein","type":"Kreis"},"federalState":{"key":"01","name":"Schleswig-Holstein"}},{"name":"Strandzugang 35","postalCode":"23669","locality":"Timmendorfer Strand","municipality":{"key":"01055042","name":"Timmendorfer Strand","type":"Kreisangehörige_Gemeinde"},"district":{"key":"01055","name":"Ostholstein","type":"Kreis"},"federalState":{"key":"01","name":"Schleswig-Holstein"}},{"name":"Strandzugang 36","postalCode":"23669","locality":"Timmendorfer Strand","municipality":{"key":"01055042","name":"Timmendorfer Strand","type":"Kreisangehörige_Gemeinde"},"district":{"key":"01055","name":"Ostholstein","type":"Kreis"},"federalState":{"key":"01","name":"Schleswig-Holstein"}},{"name":"Strandzugang 4","postalCode":"23669","locality":"Timmendorfer Strand","municipality":{"key":"01055042","name":"Timmendorfer Strand","type":"Kreisangehörige_Gemeinde"},"district":{"key":"01055","name":"Ostholstein","type":"Kreis"},"federalState":{"key":"01","name":"Schleswig-Holstein"}},{"name":"Strandzugang 5","postalCode":"23669","locality":"Timmendorfer Strand","municipality":{"key":"01055042","name":"Timmendorfer Strand","type":"Kreisangehörige_Gemeinde"},"district":{"key":"01055","name":"Ostholstein","type":"Kreis"},"federalState":{"key":"01","name":"Schleswig-Holstein"}},{"name":"Strandzugang 50","postalCode":"23669","locality":"Timmendorfer Strand","municipality":{"key":"01055042","name":"Timmendorfer Strand","type":"Kreisangehörige_Gemeinde"},"district":{"key":"01055","name":"Ostholstein","type":"Kreis"},"federalState":{"key":"01","name":"Schleswig-Holstein"}},{"name":"Strandzugang 52","postalCode":"23669","locality":"Timmendorfer Strand","municipality":{"key":"01055042","name":"Timmendorfer Strand","type":"Kreisangehörige_Gemeinde"},"district":{"key":"01055","name":"Ostholstein","type":"Kreis"},"federalState":{"key":"01","name":"Schleswig-Holstein"}},{"name":"Strandzugang 53","postalCode":"23669","locality":"Timmendorfer Strand","municipality":{"key":"01055042","name":"Timmendorfer Strand","type":"Kreisangehörige_Gemeinde"},"district":{"key":"01055","name":"Ostholstein","type":"Kreis"},"federalState":{"key":"01","name":"Schleswig-Holstein"}},{"name":"Strandzugang 54","postalCode":"23669","locality":"Timmendorfer Strand","municipality":{"key":"01055042","name":"Timmendorfer Strand","type":"Kreisangehörige_Gemeinde"},"district":{"key":"01055","name":"Ostholstein","type":"Kreis"},"federalState":{"key":"01","name":"Schleswig-Holstein"}},{"name":"Strandzugang 56","postalCode":"23669","locality":"Timmendorfer Strand","municipality":{"key":"01055042","name":"Timmendorfer Strand","type":"Kreisangehörige_Gemeinde"},"district":{"key":"01055","name":"Ostholstein","type":"Kreis"},"federalState":{"key":"01","name":"Schleswig-Holstein"}},{"name":"Strandzugang 6","postalCode":"23669","locality":"Timmendorfer Strand","municipality":{"key":"01055042","name":"Timmendorfer Strand","type":"Kreisangehörige_Gemeinde"},"district":{"key":"01055","name":"Ostholstein","type":"Kreis"},"federalState":{"key":"01","name":"Schleswig-Holstein"}},{"name":"Tannenweg","postalCode":"23669","locality":"Timmendorfer Strand","municipality":{"key":"01055042","name":"Timmendorfer Strand","type":"Kreisangehörige_Gemeinde"},"district":{"key":"01055","name":"Ostholstein","type":"Kreis"},"federalState":{"key":"01","name":"Schleswig-Holstein"}},{"name":"Teichstr.","postalCode":"23669","locality":"Timmendorfer Strand","municipality":{"key":"01055042","name":"Timmendorfer Strand","type":"Kreisangehörige_Gemeinde"},"district":{"key":"01055","name":"Ostholstein","type":"Kreis"},"federalState":{"key":"01","name":"Schleswig-Holstein"}},{"name":"Timmendorfer Platz","postalCode":"23669","locality":"Timmendorfer Strand","municipality":{"key":"01055042","name":"Timmendorfer Strand","type":"Kreisangehörige_Gemeinde"},"district":{"key":"01055","name":"Ostholstein","type":"Kreis"},"federalState":{"key":"01","name":"Schleswig-Holstein"}},{"name":"Trampelpfad","postalCode":"23669","locality":"Timmendorfer Strand","municipality":{"key":"01055042","name":"Timmendorfer Strand","type":"Kreisangehörige_Gemeinde"},"district":{"key":"01055","name":"Ostholstein","type":"Kreis"},"federalState":{"key":"01","name":"Schleswig-Holstein"}},{"name":"Travemünder Landstr.","postalCode":"23669","locality":"Timmendorfer Strand","municipality":{"key":"01055042","name":"Timmendorfer Strand","type":"Kreisangehörige_Gemeinde"},"district":{"key":"01055","name":"Ostholstein","type":"Kreis"},"federalState":{"key":"01","name":"Schleswig-Holstein"}},{"name":"Ufersteg","postalCode":"23669","locality":"Timmendorfer Strand","municipality":{"key":"01055042","name":"Timmendorfer Strand","type":"Kreisangehörige_Gemeinde"},"district":{"key":"01055","name":"Ostholstein","type":"Kreis"},"federalState":{"key":"01","name":"Schleswig-Holstein"}},{"name":"Ulmenweg","postalCode":"23669","locality":"Timmendorfer Strand","municipality":{"key":"01055042","name":"Timmendorfer Strand","type":"Kreisangehörige_Gemeinde"},"district":{"key":"01055","name":"Ostholstein","type":"Kreis"},"federalState":{"key":"01","name":"Schleswig-Holstein"}},{"name":"Vogelsang","postalCode":"23669","locality":"Timmendorfer Strand","municipality":{"key":"01055042","name":"Timmendorfer Strand","type":"Kreisangehörige_Gemeinde"},"district":{"key":"01055","name":"Ostholstein","type":"Kreis"},"federalState":{"key":"01","name":"Schleswig-Holstein"}},{"name":"Vörst Brook","postalCode":"23669","locality":"Timmendorfer Strand","municipality":{"key":"01055042","name":"Timmendorfer Strand","type":"Kreisangehörige_Gemeinde"},"district":{"key":"01055","name":"Ostholstein","type":"Kreis"},"federalState":{"key":"01","name":"Schleswig-Holstein"}},{"name":"Waldblick","postalCode":"23669","locality":"Timmendorfer Strand","municipality":{"key":"01055042","name":"Timmendorfer Strand","type":"Kreisangehörige_Gemeinde"},"district":{"key":"01055","name":"Ostholstein","type":"Kreis"},"federalState":{"key":"01","name":"Schleswig-Holstein"}},{"name":"Waldweg","postalCode":"23669","locality":"Timmendorfer Strand","municipality":{"key":"01055042","name":"Timmendorfer Strand","type":"Kreisangehörige_Gemeinde"},"district":{"key":"01055","name":"Ostholstein","type":"Kreis"},"federalState":{"key":"01","name":"Schleswig-Holstein"}},{"name":"Weedkroog","postalCode":"23669","locality":"Timmendorfer Strand","municipality":{"key":"01055042","name":"Timmendorfer Strand","type":"Kreisangehörige_Gemeinde"},"district":{"key":"01055","name":"Ostholstein","type":"Kreis"},"federalState":{"key":"01","name":"Schleswig-Holstein"}},{"name":"Weidenweg","postalCode":"23669","locality":"Timmendorfer Strand","municipality":{"key":"01055042","name":"Timmendorfer Strand","type":"Kreisangehörige_Gemeinde"},"district":{"key":"01055","name":"Ostholstein","type":"Kreis"},"federalState":{"key":"01","name":"Schleswig-Holstein"}},{"name":"Wiesenweg","postalCode":"23669","locality":"Timmendorfer Strand","municipality":{"key":"01055042","name":"Timmendorfer Strand","type":"Kreisangehörige_Gemeinde"},"district":{"key":"01055","name":"Ostholstein","type":"Kreis"},"federalState":{"key":"01","name":"Schleswig-Holstein"}},{"name":"Wikingerring","postalCode":"23669","locality":"Timmendorfer Strand","municipality":{"key":"01055042","name":"Timmendorfer Strand","type":"Kreisangehörige_Gemeinde"},"district":{"key":"01055","name":"Ostholstein","type":"Kreis"},"federalState":{"key":"01","name":"Schleswig-Holstein"}},{"name":"Wilhelmstr.","postalCode":"23669","locality":"Timmendorfer Strand","municipality":{"key":"01055042","name":"Timmendorfer Strand","type":"Kreisangehörige_Gemeinde"},"district":{"key":"01055","name":"Ostholstein","type":"Kreis"},"federalState":{"key":"01","name":"Schleswig-Holstein"}},{"name":"Wischhoff","postalCode":"23669","locality":"Timmendorfer Strand","municipality":{"key":"01055042","name":"Timmendorfer Strand","type":"Kreisangehörige_Gemeinde"},"district":{"key":"01055","name":"Ostholstein","type":"Kreis"},"federalState":{"key":"01","name":"Schleswig-Holstein"}},{"name":"Wohldkamp","postalCode":"23669","locality":"Timmendorfer Strand","municipality":{"key":"01055042","name":"Timmendorfer Strand","type":"Kreisangehörige_Gemeinde"},"district":{"key":"01055","name":"Ostholstein","type":"Kreis"},"federalState":{"key":"01","name":"Schleswig-Holstein"}},{"name":"Wohrbarg","postalCode":"23669","locality":"Timmendorfer Strand","municipality":{"key":"01055042","name":"Timmendorfer Strand","type":"Kreisangehörige_Gemeinde"},"district":{"key":"01055","name":"Ostholstein","type":"Kreis"},"federalState":{"key":"01","name":"Schleswig-Holstein"}},{"name":"Wolburgstr.","postalCode":"23669","locality":"Timmendorfer Strand","municipality":{"key":"01055042","name":"Timmendorfer Strand","type":"Kreisangehörige_Gemeinde"},"district":{"key":"01055","name":"Ostholstein","type":"Kreis"},"federalState":{"key":"01","name":"Schleswig-Holstein"}},{"name":"Zur Waldkirche","postalCode":"23669","locality":"Timmendorfer Strand","municipality":{"key":"01055042","name":"Timmendorfer Strand","type":"Kreisangehörige_Gemeinde"},"district":{"key":"01055","name":"Ostholstein","type":"Kreis"},"federalState":{"key":"01","name":"Schleswig-Holstein"}},]