[{"name":"Am Gewerbering","postalCode":"18461","locality":"Richtenberg","municipality":{"key":"13073076","name":"Richtenberg, Stadt","type":"Stadt"},"district":{"key":"13073","name":"Vorpommern-Rügen","type":"Landkreis"},"federalState":{"key":"13","name":"Mecklenburg-Vorpommern"}},{"name":"Am Markt","postalCode":"18461","locality":"Richtenberg","municipality":{"key":"13073076","name":"Richtenberg, Stadt","type":"Stadt"},"district":{"key":"13073","name":"Vorpommern-Rügen","type":"Landkreis"},"federalState":{"key":"13","name":"Mecklenburg-Vorpommern"}},{"name":"Am Wiesenweg","postalCode":"18461","locality":"Richtenberg","municipality":{"key":"13073076","name":"Richtenberg, Stadt","type":"Stadt"},"district":{"key":"13073","name":"Vorpommern-Rügen","type":"Landkreis"},"federalState":{"key":"13","name":"Mecklenburg-Vorpommern"}},{"name":"An der Feuerwehr","postalCode":"18461","locality":"Richtenberg","municipality":{"key":"13073076","name":"Richtenberg, Stadt","type":"Stadt"},"district":{"key":"13073","name":"Vorpommern-Rügen","type":"Landkreis"},"federalState":{"key":"13","name":"Mecklenburg-Vorpommern"}},{"name":"Auf dem Hof","postalCode":"18461","locality":"Richtenberg","municipality":{"key":"13073076","name":"Richtenberg, Stadt","type":"Stadt"},"district":{"key":"13073","name":"Vorpommern-Rügen","type":"Landkreis"},"federalState":{"key":"13","name":"Mecklenburg-Vorpommern"}},{"name":"Bahnhofstr.","postalCode":"18461","locality":"Richtenberg","municipality":{"key":"13073076","name":"Richtenberg, Stadt","type":"Stadt"},"district":{"key":"13073","name":"Vorpommern-Rügen","type":"Landkreis"},"federalState":{"key":"13","name":"Mecklenburg-Vorpommern"}},{"name":"Brinkstr.","postalCode":"18461","locality":"Richtenberg","municipality":{"key":"13073076","name":"Richtenberg, Stadt","type":"Stadt"},"district":{"key":"13073","name":"Vorpommern-Rügen","type":"Landkreis"},"federalState":{"key":"13","name":"Mecklenburg-Vorpommern"}},{"name":"Dorfstr.","postalCode":"18461","locality":"Richtenberg","municipality":{"key":"13073076","name":"Richtenberg, Stadt","type":"Stadt"},"district":{"key":"13073","name":"Vorpommern-Rügen","type":"Landkreis"},"federalState":{"key":"13","name":"Mecklenburg-Vorpommern"}},{"name":"Feldstr.","postalCode":"18461","locality":"Richtenberg","municipality":{"key":"13073076","name":"Richtenberg, Stadt","type":"Stadt"},"district":{"key":"13073","name":"Vorpommern-Rügen","type":"Landkreis"},"federalState":{"key":"13","name":"Mecklenburg-Vorpommern"}},{"name":"Gartenstr.","postalCode":"18461","locality":"Richtenberg","municipality":{"key":"13073076","name":"Richtenberg, Stadt","type":"Stadt"},"district":{"key":"13073","name":"Vorpommern-Rügen","type":"Landkreis"},"federalState":{"key":"13","name":"Mecklenburg-Vorpommern"}},{"name":"In der Kurve","postalCode":"18461","locality":"Richtenberg","municipality":{"key":"13073076","name":"Richtenberg, Stadt","type":"Stadt"},"district":{"key":"13073","name":"Vorpommern-Rügen","type":"Landkreis"},"federalState":{"key":"13","name":"Mecklenburg-Vorpommern"}},{"name":"Kirchstr.","postalCode":"18461","locality":"Richtenberg","municipality":{"key":"13073076","name":"Richtenberg, Stadt","type":"Stadt"},"district":{"key":"13073","name":"Vorpommern-Rügen","type":"Landkreis"},"federalState":{"key":"13","name":"Mecklenburg-Vorpommern"}},{"name":"Küsterstr.","postalCode":"18461","locality":"Richtenberg","municipality":{"key":"13073076","name":"Richtenberg, Stadt","type":"Stadt"},"district":{"key":"13073","name":"Vorpommern-Rügen","type":"Landkreis"},"federalState":{"key":"13","name":"Mecklenburg-Vorpommern"}},{"name":"Lange Str.","postalCode":"18461","locality":"Richtenberg","municipality":{"key":"13073076","name":"Richtenberg, Stadt","type":"Stadt"},"district":{"key":"13073","name":"Vorpommern-Rügen","type":"Landkreis"},"federalState":{"key":"13","name":"Mecklenburg-Vorpommern"}},{"name":"Lindenstr.","postalCode":"18461","locality":"Richtenberg","municipality":{"key":"13073076","name":"Richtenberg, Stadt","type":"Stadt"},"district":{"key":"13073","name":"Vorpommern-Rügen","type":"Landkreis"},"federalState":{"key":"13","name":"Mecklenburg-Vorpommern"}},{"name":"Mühlenbergstr.","postalCode":"18461","locality":"Richtenberg","municipality":{"key":"13073076","name":"Richtenberg, Stadt","type":"Stadt"},"district":{"key":"13073","name":"Vorpommern-Rügen","type":"Landkreis"},"federalState":{"key":"13","name":"Mecklenburg-Vorpommern"}},{"name":"Mühlengang","postalCode":"18461","locality":"Richtenberg","municipality":{"key":"13073076","name":"Richtenberg, Stadt","type":"Stadt"},"district":{"key":"13073","name":"Vorpommern-Rügen","type":"Landkreis"},"federalState":{"key":"13","name":"Mecklenburg-Vorpommern"}},{"name":"Papenbergstr.","postalCode":"18461","locality":"Richtenberg","municipality":{"key":"13073076","name":"Richtenberg, Stadt","type":"Stadt"},"district":{"key":"13073","name":"Vorpommern-Rügen","type":"Landkreis"},"federalState":{"key":"13","name":"Mecklenburg-Vorpommern"}},{"name":"Papenhagen","postalCode":"18461","locality":"Richtenberg","municipality":{"key":"13073076","name":"Richtenberg, Stadt","type":"Stadt"},"district":{"key":"13073","name":"Vorpommern-Rügen","type":"Landkreis"},"federalState":{"key":"13","name":"Mecklenburg-Vorpommern"}},{"name":"Sandstr.","postalCode":"18461","locality":"Richtenberg","municipality":{"key":"13073076","name":"Richtenberg, Stadt","type":"Stadt"},"district":{"key":"13073","name":"Vorpommern-Rügen","type":"Landkreis"},"federalState":{"key":"13","name":"Mecklenburg-Vorpommern"}},{"name":"Schulstr.","postalCode":"18461","locality":"Richtenberg","municipality":{"key":"13073076","name":"Richtenberg, Stadt","type":"Stadt"},"district":{"key":"13073","name":"Vorpommern-Rügen","type":"Landkreis"},"federalState":{"key":"13","name":"Mecklenburg-Vorpommern"}},{"name":"Stralsunder Str.","postalCode":"18461","locality":"Richtenberg","municipality":{"key":"13073076","name":"Richtenberg, Stadt","type":"Stadt"},"district":{"key":"13073","name":"Vorpommern-Rügen","type":"Landkreis"},"federalState":{"key":"13","name":"Mecklenburg-Vorpommern"}},{"name":"Wasserstr.","postalCode":"18461","locality":"Richtenberg","municipality":{"key":"13073076","name":"Richtenberg, Stadt","type":"Stadt"},"district":{"key":"13073","name":"Vorpommern-Rügen","type":"Landkreis"},"federalState":{"key":"13","name":"Mecklenburg-Vorpommern"}},{"name":"Wolfshäger Str.","postalCode":"18461","locality":"Richtenberg","municipality":{"key":"13073076","name":"Richtenberg, Stadt","type":"Stadt"},"district":{"key":"13073","name":"Vorpommern-Rügen","type":"Landkreis"},"federalState":{"key":"13","name":"Mecklenburg-Vorpommern"}},{"name":"Zandershäger Weg","postalCode":"18461","locality":"Richtenberg","municipality":{"key":"13073076","name":"Richtenberg, Stadt","type":"Stadt"},"district":{"key":"13073","name":"Vorpommern-Rügen","type":"Landkreis"},"federalState":{"key":"13","name":"Mecklenburg-Vorpommern"}},]