[{"name":"Albert-Schweitzer-Str.","postalCode":"79589","locality":"Binzen","municipality":{"key":"08336008","name":"Binzen","type":"Kreisangehörige_Gemeinde"},"district":{"key":"08336","name":"Lörrach","type":"Landkreis"},"federalState":{"key":"08","name":"Baden-Württemberg"}},{"name":"Am Dreispitz","postalCode":"79589","locality":"Binzen","municipality":{"key":"08336008","name":"Binzen","type":"Kreisangehörige_Gemeinde"},"district":{"key":"08336","name":"Lörrach","type":"Landkreis"},"federalState":{"key":"08","name":"Baden-Württemberg"}},{"name":"Am Rathausplatz","postalCode":"79589","locality":"Binzen","municipality":{"key":"08336008","name":"Binzen","type":"Kreisangehörige_Gemeinde"},"district":{"key":"08336","name":"Lörrach","type":"Landkreis"},"federalState":{"key":"08","name":"Baden-Württemberg"}},{"name":"Am Sonnenrain","postalCode":"79589","locality":"Binzen","municipality":{"key":"08336008","name":"Binzen","type":"Kreisangehörige_Gemeinde"},"district":{"key":"08336","name":"Lörrach","type":"Landkreis"},"federalState":{"key":"08","name":"Baden-Württemberg"}},{"name":"Am Sportplatz","postalCode":"79589","locality":"Binzen","municipality":{"key":"08336008","name":"Binzen","type":"Kreisangehörige_Gemeinde"},"district":{"key":"08336","name":"Lörrach","type":"Landkreis"},"federalState":{"key":"08","name":"Baden-Württemberg"}},{"name":"Auf der Mauer","postalCode":"79589","locality":"Binzen","municipality":{"key":"08336008","name":"Binzen","type":"Kreisangehörige_Gemeinde"},"district":{"key":"08336","name":"Lörrach","type":"Landkreis"},"federalState":{"key":"08","name":"Baden-Württemberg"}},{"name":"Baselstr.","postalCode":"79589","locality":"Binzen","municipality":{"key":"08336008","name":"Binzen","type":"Kreisangehörige_Gemeinde"},"district":{"key":"08336","name":"Lörrach","type":"Landkreis"},"federalState":{"key":"08","name":"Baden-Württemberg"}},{"name":"Binzener Str.","postalCode":"79589","locality":"Binzen","municipality":{"key":"08336008","name":"Binzen","type":"Kreisangehörige_Gemeinde"},"district":{"key":"08336","name":"Lörrach","type":"Landkreis"},"federalState":{"key":"08","name":"Baden-Württemberg"}},{"name":"Birkenweg","postalCode":"79589","locality":"Binzen","municipality":{"key":"08336008","name":"Binzen","type":"Kreisangehörige_Gemeinde"},"district":{"key":"08336","name":"Lörrach","type":"Landkreis"},"federalState":{"key":"08","name":"Baden-Württemberg"}},{"name":"Blauenstr.","postalCode":"79589","locality":"Binzen","municipality":{"key":"08336008","name":"Binzen","type":"Kreisangehörige_Gemeinde"},"district":{"key":"08336","name":"Lörrach","type":"Landkreis"},"federalState":{"key":"08","name":"Baden-Württemberg"}},{"name":"Carl-Keller-Weg","postalCode":"79539","locality":"Lörrach","municipality":{"key":"08336050","name":"Lörrach, Stadt","type":"Große_Kreisstadt"},"district":{"key":"08336","name":"Lörrach","type":"Landkreis"},"federalState":{"key":"08","name":"Baden-Württemberg"}},{"name":"Carl-Maria-von-Weber-Str.","postalCode":"79540","locality":"Lörrach","municipality":{"key":"08336050","name":"Lörrach, Stadt","type":"Große_Kreisstadt"},"district":{"key":"08336","name":"Lörrach","type":"Landkreis"},"federalState":{"key":"08","name":"Baden-Württemberg"}},{"name":"Chesterplatz","postalCode":"79539","locality":"Lörrach","municipality":{"key":"08336050","name":"Lörrach, Stadt","type":"Große_Kreisstadt"},"district":{"key":"08336","name":"Lörrach","type":"Landkreis"},"federalState":{"key":"08","name":"Baden-Württemberg"}},{"name":"Chrischonastr.","postalCode":"79540","locality":"Lörrach","municipality":{"key":"08336050","name":"Lörrach, Stadt","type":"Große_Kreisstadt"},"district":{"key":"08336","name":"Lörrach","type":"Landkreis"},"federalState":{"key":"08","name":"Baden-Württemberg"}},{"name":"Clara-Immerwahr-Str.","postalCode":"79540","locality":"Lörrach","municipality":{"key":"08336050","name":"Lörrach, Stadt","type":"Große_Kreisstadt"},"district":{"key":"08336","name":"Lörrach","type":"Landkreis"},"federalState":{"key":"08","name":"Baden-Württemberg"}},{"name":"Dorfstr.","postalCode":"79589","locality":"Binzen","municipality":{"key":"08336008","name":"Binzen","type":"Kreisangehörige_Gemeinde"},"district":{"key":"08336","name":"Lörrach","type":"Landkreis"},"federalState":{"key":"08","name":"Baden-Württemberg"}},{"name":"Eulerstr.","postalCode":"79589","locality":"Binzen","municipality":{"key":"08336008","name":"Binzen","type":"Kreisangehörige_Gemeinde"},"district":{"key":"08336","name":"Lörrach","type":"Landkreis"},"federalState":{"key":"08","name":"Baden-Württemberg"}},{"name":"Fischinger Str.","postalCode":"79589","locality":"Binzen","municipality":{"key":"08336008","name":"Binzen","type":"Kreisangehörige_Gemeinde"},"district":{"key":"08336","name":"Lörrach","type":"Landkreis"},"federalState":{"key":"08","name":"Baden-Württemberg"}},{"name":"Freiburger Str.","postalCode":"79589","locality":"Binzen","municipality":{"key":"08336008","name":"Binzen","type":"Kreisangehörige_Gemeinde"},"district":{"key":"08336","name":"Lörrach","type":"Landkreis"},"federalState":{"key":"08","name":"Baden-Württemberg"}},{"name":"Fritz-Schülin-Weg","postalCode":"79589","locality":"Binzen","municipality":{"key":"08336008","name":"Binzen","type":"Kreisangehörige_Gemeinde"},"district":{"key":"08336","name":"Lörrach","type":"Landkreis"},"federalState":{"key":"08","name":"Baden-Württemberg"}},{"name":"Gartenstr.","postalCode":"79541","locality":"Lörrach","municipality":{"key":"08336050","name":"Lörrach, Stadt","type":"Große_Kreisstadt"},"district":{"key":"08336","name":"Lörrach","type":"Landkreis"},"federalState":{"key":"08","name":"Baden-Württemberg"}},{"name":"Gartenweg","postalCode":"79539","locality":"Lörrach","municipality":{"key":"08336050","name":"Lörrach, Stadt","type":"Große_Kreisstadt"},"district":{"key":"08336","name":"Lörrach","type":"Landkreis"},"federalState":{"key":"08","name":"Baden-Württemberg"}},{"name":"Gärtnerstr.","postalCode":"79541","locality":"Lörrach","municipality":{"key":"08336050","name":"Lörrach, Stadt","type":"Große_Kreisstadt"},"district":{"key":"08336","name":"Lörrach","type":"Landkreis"},"federalState":{"key":"08","name":"Baden-Württemberg"}},{"name":"Georges-Köhler-Str.","postalCode":"79539","locality":"Lörrach","municipality":{"key":"08336050","name":"Lörrach, Stadt","type":"Große_Kreisstadt"},"district":{"key":"08336","name":"Lörrach","type":"Landkreis"},"federalState":{"key":"08","name":"Baden-Württemberg"}},{"name":"Gerhard-Jung-Str.","postalCode":"79540","locality":"Lörrach","municipality":{"key":"08336050","name":"Lörrach, Stadt","type":"Große_Kreisstadt"},"district":{"key":"08336","name":"Lörrach","type":"Landkreis"},"federalState":{"key":"08","name":"Baden-Württemberg"}},{"name":"Gerhart-Hauptmann-Str.","postalCode":"79539","locality":"Lörrach","municipality":{"key":"08336050","name":"Lörrach, Stadt","type":"Große_Kreisstadt"},"district":{"key":"08336","name":"Lörrach","type":"Landkreis"},"federalState":{"key":"08","name":"Baden-Württemberg"}},{"name":"Gewerbestr.","postalCode":"79539","locality":"Lörrach","municipality":{"key":"08336050","name":"Lörrach, Stadt","type":"Große_Kreisstadt"},"district":{"key":"08336","name":"Lörrach","type":"Landkreis"},"federalState":{"key":"08","name":"Baden-Württemberg"}},{"name":"Goethestr.","postalCode":"79540","locality":"Lörrach","municipality":{"key":"08336050","name":"Lörrach, Stadt","type":"Große_Kreisstadt"},"district":{"key":"08336","name":"Lörrach","type":"Landkreis"},"federalState":{"key":"08","name":"Baden-Württemberg"}},{"name":"Grenzweg","postalCode":"79540","locality":"Lörrach","municipality":{"key":"08336050","name":"Lörrach, Stadt","type":"Große_Kreisstadt"},"district":{"key":"08336","name":"Lörrach","type":"Landkreis"},"federalState":{"key":"08","name":"Baden-Württemberg"}},{"name":"Grenzweg","postalCode":"79541","locality":"Lörrach","municipality":{"key":"08336050","name":"Lörrach, Stadt","type":"Große_Kreisstadt"},"district":{"key":"08336","name":"Lörrach","type":"Landkreis"},"federalState":{"key":"08","name":"Baden-Württemberg"}},{"name":"Gretherstr.","postalCode":"79539","locality":"Lörrach","municipality":{"key":"08336050","name":"Lörrach, Stadt","type":"Große_Kreisstadt"},"district":{"key":"08336","name":"Lörrach","type":"Landkreis"},"federalState":{"key":"08","name":"Baden-Württemberg"}},{"name":"Griengasse","postalCode":"79540","locality":"Lörrach","municipality":{"key":"08336050","name":"Lörrach, Stadt","type":"Große_Kreisstadt"},"district":{"key":"08336","name":"Lörrach","type":"Landkreis"},"federalState":{"key":"08","name":"Baden-Württemberg"}},{"name":"Großmannstr.","postalCode":"79541","locality":"Lörrach","municipality":{"key":"08336050","name":"Lörrach, Stadt","type":"Große_Kreisstadt"},"district":{"key":"08336","name":"Lörrach","type":"Landkreis"},"federalState":{"key":"08","name":"Baden-Württemberg"}},{"name":"Grüttweg","postalCode":"79539","locality":"Lörrach","municipality":{"key":"08336050","name":"Lörrach, Stadt","type":"Große_Kreisstadt"},"district":{"key":"08336","name":"Lörrach","type":"Landkreis"},"federalState":{"key":"08","name":"Baden-Württemberg"}},{"name":"Gugelmeierstr.","postalCode":"79539","locality":"Lörrach","municipality":{"key":"08336050","name":"Lörrach, Stadt","type":"Große_Kreisstadt"},"district":{"key":"08336","name":"Lörrach","type":"Landkreis"},"federalState":{"key":"08","name":"Baden-Württemberg"}},{"name":"Gustav-Hugo-Str.","postalCode":"79540","locality":"Lörrach","municipality":{"key":"08336050","name":"Lörrach, Stadt","type":"Große_Kreisstadt"},"district":{"key":"08336","name":"Lörrach","type":"Landkreis"},"federalState":{"key":"08","name":"Baden-Württemberg"}},{"name":"Gustav-Winkler-Str.","postalCode":"79541","locality":"Lörrach","municipality":{"key":"08336050","name":"Lörrach, Stadt","type":"Große_Kreisstadt"},"district":{"key":"08336","name":"Lörrach","type":"Landkreis"},"federalState":{"key":"08","name":"Baden-Württemberg"}},{"name":"Gutenbergstr.","postalCode":"79540","locality":"Lörrach","municipality":{"key":"08336050","name":"Lörrach, Stadt","type":"Große_Kreisstadt"},"district":{"key":"08336","name":"Lörrach","type":"Landkreis"},"federalState":{"key":"08","name":"Baden-Württemberg"}},{"name":"Hauptstr.","postalCode":"79589","locality":"Binzen","municipality":{"key":"08336008","name":"Binzen","type":"Kreisangehörige_Gemeinde"},"district":{"key":"08336","name":"Lörrach","type":"Landkreis"},"federalState":{"key":"08","name":"Baden-Württemberg"}},{"name":"Hermann-Burte-Weg","postalCode":"79589","locality":"Binzen","municipality":{"key":"08336008","name":"Binzen","type":"Kreisangehörige_Gemeinde"},"district":{"key":"08336","name":"Lörrach","type":"Landkreis"},"federalState":{"key":"08","name":"Baden-Württemberg"}},{"name":"Hermann-Daur-Weg","postalCode":"79589","locality":"Binzen","municipality":{"key":"08336008","name":"Binzen","type":"Kreisangehörige_Gemeinde"},"district":{"key":"08336","name":"Lörrach","type":"Landkreis"},"federalState":{"key":"08","name":"Baden-Württemberg"}},{"name":"Hermann-Sautter-Str.","postalCode":"79589","locality":"Binzen","municipality":{"key":"08336008","name":"Binzen","type":"Kreisangehörige_Gemeinde"},"district":{"key":"08336","name":"Lörrach","type":"Landkreis"},"federalState":{"key":"08","name":"Baden-Württemberg"}},{"name":"Hertzallee","postalCode":"79589","locality":"Binzen","municipality":{"key":"08336008","name":"Binzen","type":"Kreisangehörige_Gemeinde"},"district":{"key":"08336","name":"Lörrach","type":"Landkreis"},"federalState":{"key":"08","name":"Baden-Württemberg"}},{"name":"Im Berg","postalCode":"79589","locality":"Binzen","municipality":{"key":"08336008","name":"Binzen","type":"Kreisangehörige_Gemeinde"},"district":{"key":"08336","name":"Lörrach","type":"Landkreis"},"federalState":{"key":"08","name":"Baden-Württemberg"}},{"name":"Im Frohnberg","postalCode":"79589","locality":"Binzen","municipality":{"key":"08336008","name":"Binzen","type":"Kreisangehörige_Gemeinde"},"district":{"key":"08336","name":"Lörrach","type":"Landkreis"},"federalState":{"key":"08","name":"Baden-Württemberg"}},{"name":"Im Lochacker","postalCode":"79589","locality":"Binzen","municipality":{"key":"08336008","name":"Binzen","type":"Kreisangehörige_Gemeinde"},"district":{"key":"08336","name":"Lörrach","type":"Landkreis"},"federalState":{"key":"08","name":"Baden-Württemberg"}},{"name":"Im Mühlgarten","postalCode":"79589","locality":"Binzen","municipality":{"key":"08336008","name":"Binzen","type":"Kreisangehörige_Gemeinde"},"district":{"key":"08336","name":"Lörrach","type":"Landkreis"},"federalState":{"key":"08","name":"Baden-Württemberg"}},{"name":"Im Schlattgarten","postalCode":"79589","locality":"Binzen","municipality":{"key":"08336008","name":"Binzen","type":"Kreisangehörige_Gemeinde"},"district":{"key":"08336","name":"Lörrach","type":"Landkreis"},"federalState":{"key":"08","name":"Baden-Württemberg"}},{"name":"Im Unterwörth","postalCode":"79589","locality":"Binzen","municipality":{"key":"08336008","name":"Binzen","type":"Kreisangehörige_Gemeinde"},"district":{"key":"08336","name":"Lörrach","type":"Landkreis"},"federalState":{"key":"08","name":"Baden-Württemberg"}},{"name":"Im Winkel","postalCode":"79589","locality":"Binzen","municipality":{"key":"08336008","name":"Binzen","type":"Kreisangehörige_Gemeinde"},"district":{"key":"08336","name":"Lörrach","type":"Landkreis"},"federalState":{"key":"08","name":"Baden-Württemberg"}},{"name":"Johann-Peter-Hebel-Str.","postalCode":"79589","locality":"Binzen","municipality":{"key":"08336008","name":"Binzen","type":"Kreisangehörige_Gemeinde"},"district":{"key":"08336","name":"Lörrach","type":"Landkreis"},"federalState":{"key":"08","name":"Baden-Württemberg"}},{"name":"Juraweg","postalCode":"79589","locality":"Binzen","municipality":{"key":"08336008","name":"Binzen","type":"Kreisangehörige_Gemeinde"},"district":{"key":"08336","name":"Lörrach","type":"Landkreis"},"federalState":{"key":"08","name":"Baden-Württemberg"}},{"name":"Kanderweg","postalCode":"79589","locality":"Binzen","municipality":{"key":"08336008","name":"Binzen","type":"Kreisangehörige_Gemeinde"},"district":{"key":"08336","name":"Lörrach","type":"Landkreis"},"federalState":{"key":"08","name":"Baden-Württemberg"}},{"name":"Kirchstr.","postalCode":"79589","locality":"Binzen","municipality":{"key":"08336008","name":"Binzen","type":"Kreisangehörige_Gemeinde"},"district":{"key":"08336","name":"Lörrach","type":"Landkreis"},"federalState":{"key":"08","name":"Baden-Württemberg"}},{"name":"Konrad-Zuse-Str.","postalCode":"79589","locality":"Binzen","municipality":{"key":"08336008","name":"Binzen","type":"Kreisangehörige_Gemeinde"},"district":{"key":"08336","name":"Lörrach","type":"Landkreis"},"federalState":{"key":"08","name":"Baden-Württemberg"}},{"name":"Koppengasse","postalCode":"79589","locality":"Binzen","municipality":{"key":"08336008","name":"Binzen","type":"Kreisangehörige_Gemeinde"},"district":{"key":"08336","name":"Lörrach","type":"Landkreis"},"federalState":{"key":"08","name":"Baden-Württemberg"}},{"name":"Krumme Länge","postalCode":"79589","locality":"Binzen","municipality":{"key":"08336008","name":"Binzen","type":"Kreisangehörige_Gemeinde"},"district":{"key":"08336","name":"Lörrach","type":"Landkreis"},"federalState":{"key":"08","name":"Baden-Württemberg"}},{"name":"Luckeblick","postalCode":"79589","locality":"Binzen","municipality":{"key":"08336008","name":"Binzen","type":"Kreisangehörige_Gemeinde"},"district":{"key":"08336","name":"Lörrach","type":"Landkreis"},"federalState":{"key":"08","name":"Baden-Württemberg"}},{"name":"Max-Brombacher-Weg","postalCode":"79589","locality":"Binzen","municipality":{"key":"08336008","name":"Binzen","type":"Kreisangehörige_Gemeinde"},"district":{"key":"08336","name":"Lörrach","type":"Landkreis"},"federalState":{"key":"08","name":"Baden-Württemberg"}},{"name":"Meitner Ring","postalCode":"79589","locality":"Binzen","municipality":{"key":"08336008","name":"Binzen","type":"Kreisangehörige_Gemeinde"},"district":{"key":"08336","name":"Lörrach","type":"Landkreis"},"federalState":{"key":"08","name":"Baden-Württemberg"}},{"name":"Mühlenstr.","postalCode":"79589","locality":"Binzen","municipality":{"key":"08336008","name":"Binzen","type":"Kreisangehörige_Gemeinde"},"district":{"key":"08336","name":"Lörrach","type":"Landkreis"},"federalState":{"key":"08","name":"Baden-Württemberg"}},{"name":"Neumattenweg","postalCode":"79589","locality":"Binzen","municipality":{"key":"08336008","name":"Binzen","type":"Kreisangehörige_Gemeinde"},"district":{"key":"08336","name":"Lörrach","type":"Landkreis"},"federalState":{"key":"08","name":"Baden-Württemberg"}},{"name":"Ob der Bruck","postalCode":"79540","locality":"Lörrach","municipality":{"key":"08336050","name":"Lörrach, Stadt","type":"Große_Kreisstadt"},"district":{"key":"08336","name":"Lörrach","type":"Landkreis"},"federalState":{"key":"08","name":"Baden-Württemberg"}},{"name":"Ob der Gass","postalCode":"79540","locality":"Lörrach","municipality":{"key":"08336050","name":"Lörrach, Stadt","type":"Große_Kreisstadt"},"district":{"key":"08336","name":"Lörrach","type":"Landkreis"},"federalState":{"key":"08","name":"Baden-Württemberg"}},{"name":"Obereckstr.","postalCode":"79539","locality":"Lörrach","municipality":{"key":"08336050","name":"Lörrach, Stadt","type":"Große_Kreisstadt"},"district":{"key":"08336","name":"Lörrach","type":"Landkreis"},"federalState":{"key":"08","name":"Baden-Württemberg"}},{"name":"Obere Ortsstr.","postalCode":"79539","locality":"Lörrach","municipality":{"key":"08336050","name":"Lörrach, Stadt","type":"Große_Kreisstadt"},"district":{"key":"08336","name":"Lörrach","type":"Landkreis"},"federalState":{"key":"08","name":"Baden-Württemberg"}},{"name":"Oberer Baselblick","postalCode":"79540","locality":"Lörrach","municipality":{"key":"08336050","name":"Lörrach, Stadt","type":"Große_Kreisstadt"},"district":{"key":"08336","name":"Lörrach","type":"Landkreis"},"federalState":{"key":"08","name":"Baden-Württemberg"}},{"name":"Oberer Birkenweg","postalCode":"79540","locality":"Lörrach","municipality":{"key":"08336050","name":"Lörrach, Stadt","type":"Große_Kreisstadt"},"district":{"key":"08336","name":"Lörrach","type":"Landkreis"},"federalState":{"key":"08","name":"Baden-Württemberg"}},{"name":"Oberer Bollhaldenweg","postalCode":"79541","locality":"Lörrach","municipality":{"key":"08336050","name":"Lörrach, Stadt","type":"Große_Kreisstadt"},"district":{"key":"08336","name":"Lörrach","type":"Landkreis"},"federalState":{"key":"08","name":"Baden-Württemberg"}},{"name":"Oberer Finkenweg","postalCode":"79540","locality":"Lörrach","municipality":{"key":"08336050","name":"Lörrach, Stadt","type":"Große_Kreisstadt"},"district":{"key":"08336","name":"Lörrach","type":"Landkreis"},"federalState":{"key":"08","name":"Baden-Württemberg"}},{"name":"Obere Riehenstr.","postalCode":"79540","locality":"Lörrach","municipality":{"key":"08336050","name":"Lörrach, Stadt","type":"Große_Kreisstadt"},"district":{"key":"08336","name":"Lörrach","type":"Landkreis"},"federalState":{"key":"08","name":"Baden-Württemberg"}},{"name":"Oberer Lindbuckweg","postalCode":"79540","locality":"Lörrach","municipality":{"key":"08336050","name":"Lörrach, Stadt","type":"Große_Kreisstadt"},"district":{"key":"08336","name":"Lörrach","type":"Landkreis"},"federalState":{"key":"08","name":"Baden-Württemberg"}},{"name":"Oberer Maienbühlweg","postalCode":"79540","locality":"Lörrach","municipality":{"key":"08336050","name":"Lörrach, Stadt","type":"Große_Kreisstadt"},"district":{"key":"08336","name":"Lörrach","type":"Landkreis"},"federalState":{"key":"08","name":"Baden-Württemberg"}},{"name":"Oberer Soormattthalweg","postalCode":"79541","locality":"Lörrach","municipality":{"key":"08336050","name":"Lörrach, Stadt","type":"Große_Kreisstadt"},"district":{"key":"08336","name":"Lörrach","type":"Landkreis"},"federalState":{"key":"08","name":"Baden-Württemberg"}},{"name":"Oberer Talweg","postalCode":"79540","locality":"Lörrach","municipality":{"key":"08336050","name":"Lörrach, Stadt","type":"Große_Kreisstadt"},"district":{"key":"08336","name":"Lörrach","type":"Landkreis"},"federalState":{"key":"08","name":"Baden-Württemberg"}},{"name":"Oberer Wannenweg","postalCode":"79541","locality":"Lörrach","municipality":{"key":"08336050","name":"Lörrach, Stadt","type":"Große_Kreisstadt"},"district":{"key":"08336","name":"Lörrach","type":"Landkreis"},"federalState":{"key":"08","name":"Baden-Württemberg"}},{"name":"Obermattweg","postalCode":"79540","locality":"Lörrach","municipality":{"key":"08336050","name":"Lörrach, Stadt","type":"Große_Kreisstadt"},"district":{"key":"08336","name":"Lörrach","type":"Landkreis"},"federalState":{"key":"08","name":"Baden-Württemberg"}},{"name":"Ortmattstr.","postalCode":"79541","locality":"Lörrach","municipality":{"key":"08336050","name":"Lörrach, Stadt","type":"Große_Kreisstadt"},"district":{"key":"08336","name":"Lörrach","type":"Landkreis"},"federalState":{"key":"08","name":"Baden-Württemberg"}},{"name":"Oscar-Grether-Str.","postalCode":"79539","locality":"Lörrach","municipality":{"key":"08336050","name":"Lörrach, Stadt","type":"Große_Kreisstadt"},"district":{"key":"08336","name":"Lörrach","type":"Landkreis"},"federalState":{"key":"08","name":"Baden-Württemberg"}},{"name":"Ottilienweg","postalCode":"79539","locality":"Lörrach","municipality":{"key":"08336050","name":"Lörrach, Stadt","type":"Große_Kreisstadt"},"district":{"key":"08336","name":"Lörrach","type":"Landkreis"},"federalState":{"key":"08","name":"Baden-Württemberg"}},{"name":"Pasteurallee","postalCode":"79589","locality":"Binzen","municipality":{"key":"08336008","name":"Binzen","type":"Kreisangehörige_Gemeinde"},"district":{"key":"08336","name":"Lörrach","type":"Landkreis"},"federalState":{"key":"08","name":"Baden-Württemberg"}},{"name":"Rebweg","postalCode":"79589","locality":"Binzen","municipality":{"key":"08336008","name":"Binzen","type":"Kreisangehörige_Gemeinde"},"district":{"key":"08336","name":"Lörrach","type":"Landkreis"},"federalState":{"key":"08","name":"Baden-Württemberg"}},{"name":"Rümminger Str.","postalCode":"79589","locality":"Binzen","municipality":{"key":"08336008","name":"Binzen","type":"Kreisangehörige_Gemeinde"},"district":{"key":"08336","name":"Lörrach","type":"Landkreis"},"federalState":{"key":"08","name":"Baden-Württemberg"}},{"name":"Schallbacher Weg","postalCode":"79589","locality":"Binzen","municipality":{"key":"08336008","name":"Binzen","type":"Kreisangehörige_Gemeinde"},"district":{"key":"08336","name":"Lörrach","type":"Landkreis"},"federalState":{"key":"08","name":"Baden-Württemberg"}},{"name":"Schleifeweg","postalCode":"79589","locality":"Binzen","municipality":{"key":"08336008","name":"Binzen","type":"Kreisangehörige_Gemeinde"},"district":{"key":"08336","name":"Lörrach","type":"Landkreis"},"federalState":{"key":"08","name":"Baden-Württemberg"}},{"name":"Schloßgasse","postalCode":"79589","locality":"Binzen","municipality":{"key":"08336008","name":"Binzen","type":"Kreisangehörige_Gemeinde"},"district":{"key":"08336","name":"Lörrach","type":"Landkreis"},"federalState":{"key":"08","name":"Baden-Württemberg"}},{"name":"Schulstr.","postalCode":"79589","locality":"Binzen","municipality":{"key":"08336008","name":"Binzen","type":"Kreisangehörige_Gemeinde"},"district":{"key":"08336","name":"Lörrach","type":"Landkreis"},"federalState":{"key":"08","name":"Baden-Württemberg"}},{"name":"Schwarzwaldstr.","postalCode":"79589","locality":"Binzen","municipality":{"key":"08336008","name":"Binzen","type":"Kreisangehörige_Gemeinde"},"district":{"key":"08336","name":"Lörrach","type":"Landkreis"},"federalState":{"key":"08","name":"Baden-Württemberg"}},{"name":"Seilerweg","postalCode":"79589","locality":"Binzen","municipality":{"key":"08336008","name":"Binzen","type":"Kreisangehörige_Gemeinde"},"district":{"key":"08336","name":"Lörrach","type":"Landkreis"},"federalState":{"key":"08","name":"Baden-Württemberg"}},{"name":"Sohlweg","postalCode":"79589","locality":"Binzen","municipality":{"key":"08336008","name":"Binzen","type":"Kreisangehörige_Gemeinde"},"district":{"key":"08336","name":"Lörrach","type":"Landkreis"},"federalState":{"key":"08","name":"Baden-Württemberg"}},{"name":"Sommermattenweg","postalCode":"79589","locality":"Binzen","municipality":{"key":"08336008","name":"Binzen","type":"Kreisangehörige_Gemeinde"},"district":{"key":"08336","name":"Lörrach","type":"Landkreis"},"federalState":{"key":"08","name":"Baden-Württemberg"}},{"name":"Steinbrunnenmatten","postalCode":"79589","locality":"Binzen","municipality":{"key":"08336008","name":"Binzen","type":"Kreisangehörige_Gemeinde"},"district":{"key":"08336","name":"Lörrach","type":"Landkreis"},"federalState":{"key":"08","name":"Baden-Württemberg"}},{"name":"Steinbrunnenweg","postalCode":"79589","locality":"Binzen","municipality":{"key":"08336008","name":"Binzen","type":"Kreisangehörige_Gemeinde"},"district":{"key":"08336","name":"Lörrach","type":"Landkreis"},"federalState":{"key":"08","name":"Baden-Württemberg"}},{"name":"Steinkauzweg","postalCode":"79589","locality":"Binzen","municipality":{"key":"08336008","name":"Binzen","type":"Kreisangehörige_Gemeinde"},"district":{"key":"08336","name":"Lörrach","type":"Landkreis"},"federalState":{"key":"08","name":"Baden-Württemberg"}},{"name":"Talackerweg","postalCode":"79541","locality":"Lörrach","municipality":{"key":"08336050","name":"Lörrach, Stadt","type":"Große_Kreisstadt"},"district":{"key":"08336","name":"Lörrach","type":"Landkreis"},"federalState":{"key":"08","name":"Baden-Württemberg"}},{"name":"Talweg","postalCode":"79540","locality":"Lörrach","municipality":{"key":"08336050","name":"Lörrach, Stadt","type":"Große_Kreisstadt"},"district":{"key":"08336","name":"Lörrach","type":"Landkreis"},"federalState":{"key":"08","name":"Baden-Württemberg"}},{"name":"Tannenweg","postalCode":"79540","locality":"Lörrach","municipality":{"key":"08336050","name":"Lörrach, Stadt","type":"Große_Kreisstadt"},"district":{"key":"08336","name":"Lörrach","type":"Landkreis"},"federalState":{"key":"08","name":"Baden-Württemberg"}},{"name":"Taubenacker","postalCode":"79541","locality":"Lörrach","municipality":{"key":"08336050","name":"Lörrach, Stadt","type":"Große_Kreisstadt"},"district":{"key":"08336","name":"Lörrach","type":"Landkreis"},"federalState":{"key":"08","name":"Baden-Württemberg"}},{"name":"Teichmattenweg","postalCode":"79539","locality":"Lörrach","municipality":{"key":"08336050","name":"Lörrach, Stadt","type":"Große_Kreisstadt"},"district":{"key":"08336","name":"Lörrach","type":"Landkreis"},"federalState":{"key":"08","name":"Baden-Württemberg"}},{"name":"Teichstr.","postalCode":"79539","locality":"Lörrach","municipality":{"key":"08336050","name":"Lörrach, Stadt","type":"Große_Kreisstadt"},"district":{"key":"08336","name":"Lörrach","type":"Landkreis"},"federalState":{"key":"08","name":"Baden-Württemberg"}},{"name":"Theodor-Heuss-Str.","postalCode":"79539","locality":"Lörrach","municipality":{"key":"08336050","name":"Lörrach, Stadt","type":"Große_Kreisstadt"},"district":{"key":"08336","name":"Lörrach","type":"Landkreis"},"federalState":{"key":"08","name":"Baden-Württemberg"}},{"name":"Tullastr.","postalCode":"79540","locality":"Lörrach","municipality":{"key":"08336050","name":"Lörrach, Stadt","type":"Große_Kreisstadt"},"district":{"key":"08336","name":"Lörrach","type":"Landkreis"},"federalState":{"key":"08","name":"Baden-Württemberg"}},{"name":"Tüllinger Str.","postalCode":"79539","locality":"Lörrach","municipality":{"key":"08336050","name":"Lörrach, Stadt","type":"Große_Kreisstadt"},"district":{"key":"08336","name":"Lörrach","type":"Landkreis"},"federalState":{"key":"08","name":"Baden-Württemberg"}},{"name":"Tulpenweg","postalCode":"79540","locality":"Lörrach","municipality":{"key":"08336050","name":"Lörrach, Stadt","type":"Große_Kreisstadt"},"district":{"key":"08336","name":"Lörrach","type":"Landkreis"},"federalState":{"key":"08","name":"Baden-Württemberg"}},{"name":"Tumringer Str.","postalCode":"79539","locality":"Lörrach","municipality":{"key":"08336050","name":"Lörrach, Stadt","type":"Große_Kreisstadt"},"district":{"key":"08336","name":"Lörrach","type":"Landkreis"},"federalState":{"key":"08","name":"Baden-Württemberg"}},{"name":"Ufhabiweg","postalCode":"79539","locality":"Lörrach","municipality":{"key":"08336050","name":"Lörrach, Stadt","type":"Große_Kreisstadt"},"district":{"key":"08336","name":"Lörrach","type":"Landkreis"},"federalState":{"key":"08","name":"Baden-Württemberg"}},{"name":"Unter der Burg","postalCode":"79541","locality":"Lörrach","municipality":{"key":"08336050","name":"Lörrach, Stadt","type":"Große_Kreisstadt"},"district":{"key":"08336","name":"Lörrach","type":"Landkreis"},"federalState":{"key":"08","name":"Baden-Württemberg"}},{"name":"Unterdorfstr.","postalCode":"79541","locality":"Lörrach","municipality":{"key":"08336050","name":"Lörrach, Stadt","type":"Große_Kreisstadt"},"district":{"key":"08336","name":"Lörrach","type":"Landkreis"},"federalState":{"key":"08","name":"Baden-Württemberg"}},{"name":"Untereckstr.","postalCode":"79539","locality":"Lörrach","municipality":{"key":"08336050","name":"Lörrach, Stadt","type":"Große_Kreisstadt"},"district":{"key":"08336","name":"Lörrach","type":"Landkreis"},"federalState":{"key":"08","name":"Baden-Württemberg"}},{"name":"Untere Hartmattenstr.","postalCode":"79539","locality":"Lörrach","municipality":{"key":"08336050","name":"Lörrach, Stadt","type":"Große_Kreisstadt"},"district":{"key":"08336","name":"Lörrach","type":"Landkreis"},"federalState":{"key":"08","name":"Baden-Württemberg"}},{"name":"Untere Herrenstr.","postalCode":"79539","locality":"Lörrach","municipality":{"key":"08336050","name":"Lörrach, Stadt","type":"Große_Kreisstadt"},"district":{"key":"08336","name":"Lörrach","type":"Landkreis"},"federalState":{"key":"08","name":"Baden-Württemberg"}},{"name":"Untere Ortsstr.","postalCode":"79539","locality":"Lörrach","municipality":{"key":"08336050","name":"Lörrach, Stadt","type":"Große_Kreisstadt"},"district":{"key":"08336","name":"Lörrach","type":"Landkreis"},"federalState":{"key":"08","name":"Baden-Württemberg"}},{"name":"Unterer Bollhaldenweg","postalCode":"79541","locality":"Lörrach","municipality":{"key":"08336050","name":"Lörrach, Stadt","type":"Große_Kreisstadt"},"district":{"key":"08336","name":"Lörrach","type":"Landkreis"},"federalState":{"key":"08","name":"Baden-Württemberg"}},{"name":"Unterer Lichsenweg","postalCode":"79541","locality":"Lörrach","municipality":{"key":"08336050","name":"Lörrach, Stadt","type":"Große_Kreisstadt"},"district":{"key":"08336","name":"Lörrach","type":"Landkreis"},"federalState":{"key":"08","name":"Baden-Württemberg"}},{"name":"Unterer Maienbühlweg","postalCode":"79540","locality":"Lörrach","municipality":{"key":"08336050","name":"Lörrach, Stadt","type":"Große_Kreisstadt"},"district":{"key":"08336","name":"Lörrach","type":"Landkreis"},"federalState":{"key":"08","name":"Baden-Württemberg"}},{"name":"Unterer Stockertweg","postalCode":"79541","locality":"Lörrach","municipality":{"key":"08336050","name":"Lörrach, Stadt","type":"Große_Kreisstadt"},"district":{"key":"08336","name":"Lörrach","type":"Landkreis"},"federalState":{"key":"08","name":"Baden-Württemberg"}},{"name":"Unterer Wannenweg","postalCode":"79541","locality":"Lörrach","municipality":{"key":"08336050","name":"Lörrach, Stadt","type":"Große_Kreisstadt"},"district":{"key":"08336","name":"Lörrach","type":"Landkreis"},"federalState":{"key":"08","name":"Baden-Württemberg"}},{"name":"Untere Wallbrunnstr.","postalCode":"79539","locality":"Lörrach","municipality":{"key":"08336050","name":"Lörrach, Stadt","type":"Große_Kreisstadt"},"district":{"key":"08336","name":"Lörrach","type":"Landkreis"},"federalState":{"key":"08","name":"Baden-Württemberg"}},{"name":"Untermattweg","postalCode":"79540","locality":"Lörrach","municipality":{"key":"08336050","name":"Lörrach, Stadt","type":"Große_Kreisstadt"},"district":{"key":"08336","name":"Lörrach","type":"Landkreis"},"federalState":{"key":"08","name":"Baden-Württemberg"}},{"name":"Untertor","postalCode":"79541","locality":"Lörrach","municipality":{"key":"08336050","name":"Lörrach, Stadt","type":"Große_Kreisstadt"},"district":{"key":"08336","name":"Lörrach","type":"Landkreis"},"federalState":{"key":"08","name":"Baden-Württemberg"}},{"name":"Vogesenstr.","postalCode":"79589","locality":"Binzen","municipality":{"key":"08336008","name":"Binzen","type":"Kreisangehörige_Gemeinde"},"district":{"key":"08336","name":"Lörrach","type":"Landkreis"},"federalState":{"key":"08","name":"Baden-Württemberg"}},{"name":"Webergasse","postalCode":"79589","locality":"Binzen","municipality":{"key":"08336008","name":"Binzen","type":"Kreisangehörige_Gemeinde"},"district":{"key":"08336","name":"Lörrach","type":"Landkreis"},"federalState":{"key":"08","name":"Baden-Württemberg"}},{"name":"Wuhrweg","postalCode":"79589","locality":"Binzen","municipality":{"key":"08336008","name":"Binzen","type":"Kreisangehörige_Gemeinde"},"district":{"key":"08336","name":"Lörrach","type":"Landkreis"},"federalState":{"key":"08","name":"Baden-Württemberg"}},{"name":"Zum Schlattberg","postalCode":"79589","locality":"Binzen","municipality":{"key":"08336008","name":"Binzen","type":"Kreisangehörige_Gemeinde"},"district":{"key":"08336","name":"Lörrach","type":"Landkreis"},"federalState":{"key":"08","name":"Baden-Württemberg"}},{"name":"Ötlingerblick","postalCode":"79589","locality":"Binzen","municipality":{"key":"08336008","name":"Binzen","type":"Kreisangehörige_Gemeinde"},"district":{"key":"08336","name":"Lörrach","type":"Landkreis"},"federalState":{"key":"08","name":"Baden-Württemberg"}},{"name":"Über der Wiese","postalCode":"79540","locality":"Lörrach","municipality":{"key":"08336050","name":"Lörrach, Stadt","type":"Große_Kreisstadt"},"district":{"key":"08336","name":"Lörrach","type":"Landkreis"},"federalState":{"key":"08","name":"Baden-Württemberg"}},]