[{"key":"10026032","name":"Allmendweg","postalCode":"4713","locality":"Matzendorf","commune":{"key":"2427","name":"Matzendorf","shortName":"Matzendorf"},"district":{"key":"1102","name":"Bezirk Thal"},"canton":{"key":"11","code":"SO","name":"Solothurn"},"status":"Real"},{"key":"10026033","name":"Bodenacker","postalCode":"4713","locality":"Matzendorf","commune":{"key":"2427","name":"Matzendorf","shortName":"Matzendorf"},"district":{"key":"1102","name":"Bezirk Thal"},"canton":{"key":"11","code":"SO","name":"Solothurn"},"status":"Real"},{"key":"10070168","name":"Breitrütti","postalCode":"4713","locality":"Matzendorf","commune":{"key":"2427","name":"Matzendorf","shortName":"Matzendorf"},"district":{"key":"1102","name":"Bezirk Thal"},"canton":{"key":"11","code":"SO","name":"Solothurn"},"status":"Real"},{"key":"10214144","name":"Breitrüttiweg","postalCode":"4713","locality":"Matzendorf","commune":{"key":"2427","name":"Matzendorf","shortName":"Matzendorf"},"district":{"key":"1102","name":"Bezirk Thal"},"canton":{"key":"11","code":"SO","name":"Solothurn"},"status":"Real"},{"key":"10152990","name":"Bühl","postalCode":"4713","locality":"Matzendorf","commune":{"key":"2427","name":"Matzendorf","shortName":"Matzendorf"},"district":{"key":"1102","name":"Bezirk Thal"},"canton":{"key":"11","code":"SO","name":"Solothurn"},"status":"Real"},{"key":"10091688","name":"Bündtenweg","postalCode":"4713","locality":"Matzendorf","commune":{"key":"2427","name":"Matzendorf","shortName":"Matzendorf"},"district":{"key":"1102","name":"Bezirk Thal"},"canton":{"key":"11","code":"SO","name":"Solothurn"},"status":"Real"},{"key":"10214151","name":"Büntliweg","postalCode":"4713","locality":"Matzendorf","commune":{"key":"2427","name":"Matzendorf","shortName":"Matzendorf"},"district":{"key":"1102","name":"Bezirk Thal"},"canton":{"key":"11","code":"SO","name":"Solothurn"},"status":"Real"},{"key":"10026034","name":"Dorfstrasse","postalCode":"4713","locality":"Matzendorf","commune":{"key":"2427","name":"Matzendorf","shortName":"Matzendorf"},"district":{"key":"1102","name":"Bezirk Thal"},"canton":{"key":"11","code":"SO","name":"Solothurn"},"status":"Real"},{"key":"10184923","name":"Dorfweg","postalCode":"4713","locality":"Matzendorf","commune":{"key":"2427","name":"Matzendorf","shortName":"Matzendorf"},"district":{"key":"1102","name":"Bezirk Thal"},"canton":{"key":"11","code":"SO","name":"Solothurn"},"status":"Real"},{"key":"10026035","name":"Dünnernstrasse","postalCode":"4713","locality":"Matzendorf","commune":{"key":"2427","name":"Matzendorf","shortName":"Matzendorf"},"district":{"key":"1102","name":"Bezirk Thal"},"canton":{"key":"11","code":"SO","name":"Solothurn"},"status":"Real"},{"key":"10070458","name":"Eichmätteli","postalCode":"4713","locality":"Matzendorf","commune":{"key":"2427","name":"Matzendorf","shortName":"Matzendorf"},"district":{"key":"1102","name":"Bezirk Thal"},"canton":{"key":"11","code":"SO","name":"Solothurn"},"status":"Real"},{"key":"10091689","name":"Emetstrasse","postalCode":"4713","locality":"Matzendorf","commune":{"key":"2427","name":"Matzendorf","shortName":"Matzendorf"},"district":{"key":"1102","name":"Bezirk Thal"},"canton":{"key":"11","code":"SO","name":"Solothurn"},"status":"Real"},{"key":"10214156","name":"Flüehliweg","postalCode":"4713","locality":"Matzendorf","commune":{"key":"2427","name":"Matzendorf","shortName":"Matzendorf"},"district":{"key":"1102","name":"Bezirk Thal"},"canton":{"key":"11","code":"SO","name":"Solothurn"},"status":"Real"},{"key":"10026036","name":"Gartenstrasse","postalCode":"4713","locality":"Matzendorf","commune":{"key":"2427","name":"Matzendorf","shortName":"Matzendorf"},"district":{"key":"1102","name":"Bezirk Thal"},"canton":{"key":"11","code":"SO","name":"Solothurn"},"status":"Real"},{"key":"10214160","name":"Glaserweg","postalCode":"4713","locality":"Matzendorf","commune":{"key":"2427","name":"Matzendorf","shortName":"Matzendorf"},"district":{"key":"1102","name":"Bezirk Thal"},"canton":{"key":"11","code":"SO","name":"Solothurn"},"status":"Real"},{"key":"10214164","name":"Grüngiweg","postalCode":"4713","locality":"Matzendorf","commune":{"key":"2427","name":"Matzendorf","shortName":"Matzendorf"},"district":{"key":"1102","name":"Bezirk Thal"},"canton":{"key":"11","code":"SO","name":"Solothurn"},"status":"Real"},{"key":"10121105","name":"Hämmeli","postalCode":"4713","locality":"Matzendorf","commune":{"key":"2427","name":"Matzendorf","shortName":"Matzendorf"},"district":{"key":"1102","name":"Bezirk Thal"},"canton":{"key":"11","code":"SO","name":"Solothurn"},"status":"Real"},{"key":"10026037","name":"Haulenacker","postalCode":"4713","locality":"Matzendorf","commune":{"key":"2427","name":"Matzendorf","shortName":"Matzendorf"},"district":{"key":"1102","name":"Bezirk Thal"},"canton":{"key":"11","code":"SO","name":"Solothurn"},"status":"Real"},{"key":"10214169","name":"Hellchöpfli","postalCode":"4713","locality":"Matzendorf","commune":{"key":"2427","name":"Matzendorf","shortName":"Matzendorf"},"district":{"key":"1102","name":"Bezirk Thal"},"canton":{"key":"11","code":"SO","name":"Solothurn"},"status":"Real"},{"key":"10214173","name":"Hellchöpfliweg","postalCode":"4713","locality":"Matzendorf","commune":{"key":"2427","name":"Matzendorf","shortName":"Matzendorf"},"district":{"key":"1102","name":"Bezirk Thal"},"canton":{"key":"11","code":"SO","name":"Solothurn"},"status":"Real"},{"key":"10070459","name":"Hinterfeld","postalCode":"4713","locality":"Matzendorf","commune":{"key":"2427","name":"Matzendorf","shortName":"Matzendorf"},"district":{"key":"1102","name":"Bezirk Thal"},"canton":{"key":"11","code":"SO","name":"Solothurn"},"status":"Real"},{"key":"10214177","name":"Hintermühleweg","postalCode":"4713","locality":"Matzendorf","commune":{"key":"2427","name":"Matzendorf","shortName":"Matzendorf"},"district":{"key":"1102","name":"Bezirk Thal"},"canton":{"key":"11","code":"SO","name":"Solothurn"},"status":"Real"},{"key":"10070460","name":"Höfli","postalCode":"4713","locality":"Matzendorf","commune":{"key":"2427","name":"Matzendorf","shortName":"Matzendorf"},"district":{"key":"1102","name":"Bezirk Thal"},"canton":{"key":"11","code":"SO","name":"Solothurn"},"status":"Real"},{"key":"10214181","name":"Horngrabenweg","postalCode":"4713","locality":"Matzendorf","commune":{"key":"2427","name":"Matzendorf","shortName":"Matzendorf"},"district":{"key":"1102","name":"Bezirk Thal"},"canton":{"key":"11","code":"SO","name":"Solothurn"},"status":"Real"},{"key":"10055115","name":"Humbeli","postalCode":"4713","locality":"Matzendorf","commune":{"key":"2427","name":"Matzendorf","shortName":"Matzendorf"},"district":{"key":"1102","name":"Bezirk Thal"},"canton":{"key":"11","code":"SO","name":"Solothurn"},"status":"Real"},{"key":"10026038","name":"Industriestrasse","postalCode":"4713","locality":"Matzendorf","commune":{"key":"2427","name":"Matzendorf","shortName":"Matzendorf"},"district":{"key":"1102","name":"Bezirk Thal"},"canton":{"key":"11","code":"SO","name":"Solothurn"},"status":"Real"},{"key":"10091690","name":"Kalkofen","postalCode":"4713","locality":"Matzendorf","commune":{"key":"2427","name":"Matzendorf","shortName":"Matzendorf"},"district":{"key":"1102","name":"Bezirk Thal"},"canton":{"key":"11","code":"SO","name":"Solothurn"},"status":"Real"},{"key":"10171386","name":"Karliacker","postalCode":"4713","locality":"Matzendorf","commune":{"key":"2427","name":"Matzendorf","shortName":"Matzendorf"},"district":{"key":"1102","name":"Bezirk Thal"},"canton":{"key":"11","code":"SO","name":"Solothurn"},"status":"Real"},{"key":"10104384","name":"Kienhölzli","postalCode":"4713","locality":"Matzendorf","commune":{"key":"2427","name":"Matzendorf","shortName":"Matzendorf"},"district":{"key":"1102","name":"Bezirk Thal"},"canton":{"key":"11","code":"SO","name":"Solothurn"},"status":"Real"},{"key":"10184924","name":"Kirchacker","postalCode":"4713","locality":"Matzendorf","commune":{"key":"2427","name":"Matzendorf","shortName":"Matzendorf"},"district":{"key":"1102","name":"Bezirk Thal"},"canton":{"key":"11","code":"SO","name":"Solothurn"},"status":"Real"},{"key":"10070461","name":"Kirchenfeld","postalCode":"4713","locality":"Matzendorf","commune":{"key":"2427","name":"Matzendorf","shortName":"Matzendorf"},"district":{"key":"1102","name":"Bezirk Thal"},"canton":{"key":"11","code":"SO","name":"Solothurn"},"status":"Real"},{"key":"10026039","name":"Kirchstrasse","postalCode":"4713","locality":"Matzendorf","commune":{"key":"2427","name":"Matzendorf","shortName":"Matzendorf"},"district":{"key":"1102","name":"Bezirk Thal"},"canton":{"key":"11","code":"SO","name":"Solothurn"},"status":"Real"},{"key":"10091691","name":"Kleinfeldstrasse","postalCode":"4713","locality":"Matzendorf","commune":{"key":"2427","name":"Matzendorf","shortName":"Matzendorf"},"district":{"key":"1102","name":"Bezirk Thal"},"canton":{"key":"11","code":"SO","name":"Solothurn"},"status":"Real"},{"key":"10026040","name":"Kleinrieden","postalCode":"4713","locality":"Matzendorf","commune":{"key":"2427","name":"Matzendorf","shortName":"Matzendorf"},"district":{"key":"1102","name":"Bezirk Thal"},"canton":{"key":"11","code":"SO","name":"Solothurn"},"status":"Real"},{"key":"10214185","name":"Kreuzackerstrasse","postalCode":"4713","locality":"Matzendorf","commune":{"key":"2427","name":"Matzendorf","shortName":"Matzendorf"},"district":{"key":"1102","name":"Bezirk Thal"},"canton":{"key":"11","code":"SO","name":"Solothurn"},"status":"Real"},{"key":"10122725","name":"Langenmoos","postalCode":"4713","locality":"Matzendorf","commune":{"key":"2427","name":"Matzendorf","shortName":"Matzendorf"},"district":{"key":"1102","name":"Bezirk Thal"},"canton":{"key":"11","code":"SO","name":"Solothurn"},"status":"Real"},{"key":"10214189","name":"Lebernbrünnliweg","postalCode":"4713","locality":"Matzendorf","commune":{"key":"2427","name":"Matzendorf","shortName":"Matzendorf"},"district":{"key":"1102","name":"Bezirk Thal"},"canton":{"key":"11","code":"SO","name":"Solothurn"},"status":"Real"},{"key":"10214193","name":"Mittlerer Lebernweg","postalCode":"4713","locality":"Matzendorf","commune":{"key":"2427","name":"Matzendorf","shortName":"Matzendorf"},"district":{"key":"1102","name":"Bezirk Thal"},"canton":{"key":"11","code":"SO","name":"Solothurn"},"status":"Real"},{"key":"10026041","name":"Mühlacker","postalCode":"4713","locality":"Matzendorf","commune":{"key":"2427","name":"Matzendorf","shortName":"Matzendorf"},"district":{"key":"1102","name":"Bezirk Thal"},"canton":{"key":"11","code":"SO","name":"Solothurn"},"status":"Real"},{"key":"10188257","name":"Mühlestrasse","postalCode":"4713","locality":"Matzendorf","commune":{"key":"2427","name":"Matzendorf","shortName":"Matzendorf"},"district":{"key":"1102","name":"Bezirk Thal"},"canton":{"key":"11","code":"SO","name":"Solothurn"},"status":"Real"},{"key":"10091692","name":"Nägeli","postalCode":"4713","locality":"Matzendorf","commune":{"key":"2427","name":"Matzendorf","shortName":"Matzendorf"},"district":{"key":"1102","name":"Bezirk Thal"},"canton":{"key":"11","code":"SO","name":"Solothurn"},"status":"Real"},{"key":"10115814","name":"Nesesrütti","postalCode":"4713","locality":"Matzendorf","commune":{"key":"2427","name":"Matzendorf","shortName":"Matzendorf"},"district":{"key":"1102","name":"Bezirk Thal"},"canton":{"key":"11","code":"SO","name":"Solothurn"},"status":"Real"},{"key":"10055116","name":"Neumatt","postalCode":"4713","locality":"Matzendorf","commune":{"key":"2427","name":"Matzendorf","shortName":"Matzendorf"},"district":{"key":"1102","name":"Bezirk Thal"},"canton":{"key":"11","code":"SO","name":"Solothurn"},"status":"Real"},{"key":"10214197","name":"Neuwaldweg","postalCode":"4713","locality":"Matzendorf","commune":{"key":"2427","name":"Matzendorf","shortName":"Matzendorf"},"district":{"key":"1102","name":"Bezirk Thal"},"canton":{"key":"11","code":"SO","name":"Solothurn"},"status":"Real"},{"key":"10026042","name":"Neuzelg","postalCode":"4713","locality":"Matzendorf","commune":{"key":"2427","name":"Matzendorf","shortName":"Matzendorf"},"district":{"key":"1102","name":"Bezirk Thal"},"canton":{"key":"11","code":"SO","name":"Solothurn"},"status":"Real"},{"key":"10214201","name":"Ob der Wengi","postalCode":"4713","locality":"Matzendorf","commune":{"key":"2427","name":"Matzendorf","shortName":"Matzendorf"},"district":{"key":"1102","name":"Bezirk Thal"},"canton":{"key":"11","code":"SO","name":"Solothurn"},"status":"Real"},{"key":"10070462","name":"Obere Bleike","postalCode":"4713","locality":"Matzendorf","commune":{"key":"2427","name":"Matzendorf","shortName":"Matzendorf"},"district":{"key":"1102","name":"Bezirk Thal"},"canton":{"key":"11","code":"SO","name":"Solothurn"},"status":"Real"},{"key":"10081915","name":"Obere Bultern","postalCode":"4713","locality":"Matzendorf","commune":{"key":"2427","name":"Matzendorf","shortName":"Matzendorf"},"district":{"key":"1102","name":"Bezirk Thal"},"canton":{"key":"11","code":"SO","name":"Solothurn"},"status":"Real"},{"key":"10081918","name":"Obere Matt","postalCode":"4713","locality":"Matzendorf","commune":{"key":"2427","name":"Matzendorf","shortName":"Matzendorf"},"district":{"key":"1102","name":"Bezirk Thal"},"canton":{"key":"11","code":"SO","name":"Solothurn"},"status":"Real"},{"key":"10214205","name":"Oberer Lebernweg","postalCode":"4713","locality":"Matzendorf","commune":{"key":"2427","name":"Matzendorf","shortName":"Matzendorf"},"district":{"key":"1102","name":"Bezirk Thal"},"canton":{"key":"11","code":"SO","name":"Solothurn"},"status":"Real"},{"key":"10181456","name":"Obere Wengi","postalCode":"4713","locality":"Matzendorf","commune":{"key":"2427","name":"Matzendorf","shortName":"Matzendorf"},"district":{"key":"1102","name":"Bezirk Thal"},"canton":{"key":"11","code":"SO","name":"Solothurn"},"status":"Real"},{"key":"10184925","name":"Rainacker","postalCode":"4713","locality":"Matzendorf","commune":{"key":"2427","name":"Matzendorf","shortName":"Matzendorf"},"district":{"key":"1102","name":"Bezirk Thal"},"canton":{"key":"11","code":"SO","name":"Solothurn"},"status":"Real"},{"key":"10026043","name":"Rainhubel","postalCode":"4713","locality":"Matzendorf","commune":{"key":"2427","name":"Matzendorf","shortName":"Matzendorf"},"district":{"key":"1102","name":"Bezirk Thal"},"canton":{"key":"11","code":"SO","name":"Solothurn"},"status":"Real"},{"key":"10191217","name":"Rainweg","postalCode":"4713","locality":"Matzendorf","commune":{"key":"2427","name":"Matzendorf","shortName":"Matzendorf"},"district":{"key":"1102","name":"Bezirk Thal"},"canton":{"key":"11","code":"SO","name":"Solothurn"},"status":"Real"},{"key":"10024635","name":"Ramisbühl","postalCode":"4713","locality":"Matzendorf","commune":{"key":"2427","name":"Matzendorf","shortName":"Matzendorf"},"district":{"key":"1102","name":"Bezirk Thal"},"canton":{"key":"11","code":"SO","name":"Solothurn"},"status":"Real"},{"key":"10186651","name":"Rebacker","postalCode":"4713","locality":"Matzendorf","commune":{"key":"2427","name":"Matzendorf","shortName":"Matzendorf"},"district":{"key":"1102","name":"Bezirk Thal"},"canton":{"key":"11","code":"SO","name":"Solothurn"},"status":"Real"},{"key":"10114209","name":"Rehgasse","postalCode":"4713","locality":"Matzendorf","commune":{"key":"2427","name":"Matzendorf","shortName":"Matzendorf"},"district":{"key":"1102","name":"Bezirk Thal"},"canton":{"key":"11","code":"SO","name":"Solothurn"},"status":"Real"},{"key":"10214209","name":"Ritternschlung","postalCode":"4713","locality":"Matzendorf","commune":{"key":"2427","name":"Matzendorf","shortName":"Matzendorf"},"district":{"key":"1102","name":"Bezirk Thal"},"canton":{"key":"11","code":"SO","name":"Solothurn"},"status":"Real"},{"key":"10180272","name":"Rohr","postalCode":"4713","locality":"Matzendorf","commune":{"key":"2427","name":"Matzendorf","shortName":"Matzendorf"},"district":{"key":"1102","name":"Bezirk Thal"},"canton":{"key":"11","code":"SO","name":"Solothurn"},"status":"Real"},{"key":"10091693","name":"Rotacker","postalCode":"4713","locality":"Matzendorf","commune":{"key":"2427","name":"Matzendorf","shortName":"Matzendorf"},"district":{"key":"1102","name":"Bezirk Thal"},"canton":{"key":"11","code":"SO","name":"Solothurn"},"status":"Real"},{"key":"10214132","name":"Ruchrütiweg","postalCode":"4713","locality":"Matzendorf","commune":{"key":"2427","name":"Matzendorf","shortName":"Matzendorf"},"district":{"key":"1102","name":"Bezirk Thal"},"canton":{"key":"11","code":"SO","name":"Solothurn"},"status":"Real"},{"key":"10024636","name":"Sandhubel","postalCode":"4713","locality":"Matzendorf","commune":{"key":"2427","name":"Matzendorf","shortName":"Matzendorf"},"district":{"key":"1102","name":"Bezirk Thal"},"canton":{"key":"11","code":"SO","name":"Solothurn"},"status":"Real"},{"key":"10214136","name":"Saumweg","postalCode":"4713","locality":"Matzendorf","commune":{"key":"2427","name":"Matzendorf","shortName":"Matzendorf"},"district":{"key":"1102","name":"Bezirk Thal"},"canton":{"key":"11","code":"SO","name":"Solothurn"},"status":"Real"},{"key":"10214142","name":"Schiltweg","postalCode":"4713","locality":"Matzendorf","commune":{"key":"2427","name":"Matzendorf","shortName":"Matzendorf"},"district":{"key":"1102","name":"Bezirk Thal"},"canton":{"key":"11","code":"SO","name":"Solothurn"},"status":"Real"},{"key":"10024637","name":"Schürmatt","postalCode":"4713","locality":"Matzendorf","commune":{"key":"2427","name":"Matzendorf","shortName":"Matzendorf"},"district":{"key":"1102","name":"Bezirk Thal"},"canton":{"key":"11","code":"SO","name":"Solothurn"},"status":"Real"},{"key":"10214146","name":"Schwängiweg","postalCode":"4713","locality":"Matzendorf","commune":{"key":"2427","name":"Matzendorf","shortName":"Matzendorf"},"district":{"key":"1102","name":"Bezirk Thal"},"canton":{"key":"11","code":"SO","name":"Solothurn"},"status":"Real"},{"key":"10055117","name":"Sebli","postalCode":"4713","locality":"Matzendorf","commune":{"key":"2427","name":"Matzendorf","shortName":"Matzendorf"},"district":{"key":"1102","name":"Bezirk Thal"},"canton":{"key":"11","code":"SO","name":"Solothurn"},"status":"Real"},{"key":"10184926","name":"Steinacker","postalCode":"4713","locality":"Matzendorf","commune":{"key":"2427","name":"Matzendorf","shortName":"Matzendorf"},"district":{"key":"1102","name":"Bezirk Thal"},"canton":{"key":"11","code":"SO","name":"Solothurn"},"status":"Real"},{"key":"10214150","name":"Stelliweg","postalCode":"4713","locality":"Matzendorf","commune":{"key":"2427","name":"Matzendorf","shortName":"Matzendorf"},"district":{"key":"1102","name":"Bezirk Thal"},"canton":{"key":"11","code":"SO","name":"Solothurn"},"status":"Real"},{"key":"10091694","name":"Stockmatt","postalCode":"4713","locality":"Matzendorf","commune":{"key":"2427","name":"Matzendorf","shortName":"Matzendorf"},"district":{"key":"1102","name":"Bezirk Thal"},"canton":{"key":"11","code":"SO","name":"Solothurn"},"status":"Real"},{"key":"10214154","name":"Stoltenweg","postalCode":"4713","locality":"Matzendorf","commune":{"key":"2427","name":"Matzendorf","shortName":"Matzendorf"},"district":{"key":"1102","name":"Bezirk Thal"},"canton":{"key":"11","code":"SO","name":"Solothurn"},"status":"Real"},{"key":"10055118","name":"Thalhof","postalCode":"4713","locality":"Matzendorf","commune":{"key":"2427","name":"Matzendorf","shortName":"Matzendorf"},"district":{"key":"1102","name":"Bezirk Thal"},"canton":{"key":"11","code":"SO","name":"Solothurn"},"status":"Real"},{"key":"10114020","name":"Thalhöfli","postalCode":"4713","locality":"Matzendorf","commune":{"key":"2427","name":"Matzendorf","shortName":"Matzendorf"},"district":{"key":"1102","name":"Bezirk Thal"},"canton":{"key":"11","code":"SO","name":"Solothurn"},"status":"Real"},{"key":"10105045","name":"Thalstrasse","postalCode":"4713","locality":"Matzendorf","commune":{"key":"2427","name":"Matzendorf","shortName":"Matzendorf"},"district":{"key":"1102","name":"Bezirk Thal"},"canton":{"key":"11","code":"SO","name":"Solothurn"},"status":"Real"},{"key":"10024638","name":"Thalweg","postalCode":"4713","locality":"Matzendorf","commune":{"key":"2427","name":"Matzendorf","shortName":"Matzendorf"},"district":{"key":"1102","name":"Bezirk Thal"},"canton":{"key":"11","code":"SO","name":"Solothurn"},"status":"Real"},{"key":"10114019","name":"Untere Bleike","postalCode":"4713","locality":"Matzendorf","commune":{"key":"2427","name":"Matzendorf","shortName":"Matzendorf"},"district":{"key":"1102","name":"Bezirk Thal"},"canton":{"key":"11","code":"SO","name":"Solothurn"},"status":"Real"},{"key":"10024639","name":"Untere Bultern","postalCode":"4713","locality":"Matzendorf","commune":{"key":"2427","name":"Matzendorf","shortName":"Matzendorf"},"district":{"key":"1102","name":"Bezirk Thal"},"canton":{"key":"11","code":"SO","name":"Solothurn"},"status":"Real"},{"key":"10214158","name":"Unterer Beltiweg","postalCode":"4713","locality":"Matzendorf","commune":{"key":"2427","name":"Matzendorf","shortName":"Matzendorf"},"district":{"key":"1102","name":"Bezirk Thal"},"canton":{"key":"11","code":"SO","name":"Solothurn"},"status":"Real"},{"key":"10214162","name":"Unterer Lebernweg","postalCode":"4713","locality":"Matzendorf","commune":{"key":"2427","name":"Matzendorf","shortName":"Matzendorf"},"district":{"key":"1102","name":"Bezirk Thal"},"canton":{"key":"11","code":"SO","name":"Solothurn"},"status":"Real"},{"key":"10091695","name":"Untere Wengi","postalCode":"4713","locality":"Matzendorf","commune":{"key":"2427","name":"Matzendorf","shortName":"Matzendorf"},"district":{"key":"1102","name":"Bezirk Thal"},"canton":{"key":"11","code":"SO","name":"Solothurn"},"status":"Real"},{"key":"10157664","name":"Vorderrieden","postalCode":"4713","locality":"Matzendorf","commune":{"key":"2427","name":"Matzendorf","shortName":"Matzendorf"},"district":{"key":"1102","name":"Bezirk Thal"},"canton":{"key":"11","code":"SO","name":"Solothurn"},"status":"Real"},{"key":"10104385","name":"Wannenmatt","postalCode":"4713","locality":"Matzendorf","commune":{"key":"2427","name":"Matzendorf","shortName":"Matzendorf"},"district":{"key":"1102","name":"Bezirk Thal"},"canton":{"key":"11","code":"SO","name":"Solothurn"},"status":"Real"},{"key":"10214165","name":"Wengigrabenweg","postalCode":"4713","locality":"Matzendorf","commune":{"key":"2427","name":"Matzendorf","shortName":"Matzendorf"},"district":{"key":"1102","name":"Bezirk Thal"},"canton":{"key":"11","code":"SO","name":"Solothurn"},"status":"Real"},{"key":"10024640","name":"Wengistrasse","postalCode":"4713","locality":"Matzendorf","commune":{"key":"2427","name":"Matzendorf","shortName":"Matzendorf"},"district":{"key":"1102","name":"Bezirk Thal"},"canton":{"key":"11","code":"SO","name":"Solothurn"},"status":"Real"},{"key":"10214167","name":"Wissweg","postalCode":"4713","locality":"Matzendorf","commune":{"key":"2427","name":"Matzendorf","shortName":"Matzendorf"},"district":{"key":"1102","name":"Bezirk Thal"},"canton":{"key":"11","code":"SO","name":"Solothurn"},"status":"Real"},{"key":"10214171","name":"Zauggweg","postalCode":"4713","locality":"Matzendorf","commune":{"key":"2427","name":"Matzendorf","shortName":"Matzendorf"},"district":{"key":"1102","name":"Bezirk Thal"},"canton":{"key":"11","code":"SO","name":"Solothurn"},"status":"Real"},{"key":"10214175","name":"Ziegelbrunnenweg","postalCode":"4713","locality":"Matzendorf","commune":{"key":"2427","name":"Matzendorf","shortName":"Matzendorf"},"district":{"key":"1102","name":"Bezirk Thal"},"canton":{"key":"11","code":"SO","name":"Solothurn"},"status":"Real"},]