[{"name":"Am Kirschberg","postalCode":"07778","locality":"Neuengönna","municipality":{"key":"16074063","name":"Neuengönna","type":"Kreisangehörige_Gemeinde"},"district":{"key":"16074","name":"Saale-Holzland-Kreis","type":"Landkreis"},"federalState":{"key":"16","name":"Thüringen"}},{"name":"An der Kirche","postalCode":"07778","locality":"Neuengönna","municipality":{"key":"16074063","name":"Neuengönna","type":"Kreisangehörige_Gemeinde"},"district":{"key":"16074","name":"Saale-Holzland-Kreis","type":"Landkreis"},"federalState":{"key":"16","name":"Thüringen"}},{"name":"An der Lache","postalCode":"07778","locality":"Neuengönna","municipality":{"key":"16074063","name":"Neuengönna","type":"Kreisangehörige_Gemeinde"},"district":{"key":"16074","name":"Saale-Holzland-Kreis","type":"Landkreis"},"federalState":{"key":"16","name":"Thüringen"}},{"name":"An der Leite","postalCode":"07778","locality":"Neuengönna","municipality":{"key":"16074063","name":"Neuengönna","type":"Kreisangehörige_Gemeinde"},"district":{"key":"16074","name":"Saale-Holzland-Kreis","type":"Landkreis"},"federalState":{"key":"16","name":"Thüringen"}},{"name":"Bahnhofstr.","postalCode":"07778","locality":"Neuengönna","municipality":{"key":"16074063","name":"Neuengönna","type":"Kreisangehörige_Gemeinde"},"district":{"key":"16074","name":"Saale-Holzland-Kreis","type":"Landkreis"},"federalState":{"key":"16","name":"Thüringen"}},{"name":"Dornburger Str.","postalCode":"07778","locality":"Neuengönna","municipality":{"key":"16074063","name":"Neuengönna","type":"Kreisangehörige_Gemeinde"},"district":{"key":"16074","name":"Saale-Holzland-Kreis","type":"Landkreis"},"federalState":{"key":"16","name":"Thüringen"}},{"name":"Fabrikstr.","postalCode":"07778","locality":"Neuengönna","municipality":{"key":"16074063","name":"Neuengönna","type":"Kreisangehörige_Gemeinde"},"district":{"key":"16074","name":"Saale-Holzland-Kreis","type":"Landkreis"},"federalState":{"key":"16","name":"Thüringen"}},{"name":"Friedensstr.","postalCode":"07778","locality":"Neuengönna","municipality":{"key":"16074063","name":"Neuengönna","type":"Kreisangehörige_Gemeinde"},"district":{"key":"16074","name":"Saale-Holzland-Kreis","type":"Landkreis"},"federalState":{"key":"16","name":"Thüringen"}},{"name":"Gustav-Kammrath-Siedlung","postalCode":"07778","locality":"Neuengönna","municipality":{"key":"16074063","name":"Neuengönna","type":"Kreisangehörige_Gemeinde"},"district":{"key":"16074","name":"Saale-Holzland-Kreis","type":"Landkreis"},"federalState":{"key":"16","name":"Thüringen"}},{"name":"Nerkewitzer Str.","postalCode":"07778","locality":"Neuengönna","municipality":{"key":"16074063","name":"Neuengönna","type":"Kreisangehörige_Gemeinde"},"district":{"key":"16074","name":"Saale-Holzland-Kreis","type":"Landkreis"},"federalState":{"key":"16","name":"Thüringen"}},{"name":"Schenkleite","postalCode":"07778","locality":"Neuengönna","municipality":{"key":"16074063","name":"Neuengönna","type":"Kreisangehörige_Gemeinde"},"district":{"key":"16074","name":"Saale-Holzland-Kreis","type":"Landkreis"},"federalState":{"key":"16","name":"Thüringen"}},{"name":"Unter den Klingelsteinen","postalCode":"07778","locality":"Neuengönna","municipality":{"key":"16074063","name":"Neuengönna","type":"Kreisangehörige_Gemeinde"},"district":{"key":"16074","name":"Saale-Holzland-Kreis","type":"Landkreis"},"federalState":{"key":"16","name":"Thüringen"}},]