[{"name":"Am alten Sägewerk","postalCode":"76857","locality":"Eußerthal","municipality":{"key":"07337024","name":"Eußerthal","type":"Kreisangehörige_Gemeinde"},"district":{"key":"07337","name":"Südliche Weinstraße","type":"Landkreis"},"federalState":{"key":"07","name":"Rheinland-Pfalz"}},{"name":"Am Hintertor","postalCode":"76857","locality":"Eußerthal","municipality":{"key":"07337024","name":"Eußerthal","type":"Kreisangehörige_Gemeinde"},"district":{"key":"07337","name":"Südliche Weinstraße","type":"Landkreis"},"federalState":{"key":"07","name":"Rheinland-Pfalz"}},{"name":"Am Igelweiher","postalCode":"76857","locality":"Eußerthal","municipality":{"key":"07337024","name":"Eußerthal","type":"Kreisangehörige_Gemeinde"},"district":{"key":"07337","name":"Südliche Weinstraße","type":"Landkreis"},"federalState":{"key":"07","name":"Rheinland-Pfalz"}},{"name":"Am Krauseberg","postalCode":"76857","locality":"Eußerthal","municipality":{"key":"07337024","name":"Eußerthal","type":"Kreisangehörige_Gemeinde"},"district":{"key":"07337","name":"Südliche Weinstraße","type":"Landkreis"},"federalState":{"key":"07","name":"Rheinland-Pfalz"}},{"name":"Am Waltersbach","postalCode":"76857","locality":"Eußerthal","municipality":{"key":"07337024","name":"Eußerthal","type":"Kreisangehörige_Gemeinde"},"district":{"key":"07337","name":"Südliche Weinstraße","type":"Landkreis"},"federalState":{"key":"07","name":"Rheinland-Pfalz"}},{"name":"Badstr.","postalCode":"76857","locality":"Eußerthal","municipality":{"key":"07337024","name":"Eußerthal","type":"Kreisangehörige_Gemeinde"},"district":{"key":"07337","name":"Südliche Weinstraße","type":"Landkreis"},"federalState":{"key":"07","name":"Rheinland-Pfalz"}},{"name":"Birkenthalstr.","postalCode":"76857","locality":"Eußerthal","municipality":{"key":"07337024","name":"Eußerthal","type":"Kreisangehörige_Gemeinde"},"district":{"key":"07337","name":"Südliche Weinstraße","type":"Landkreis"},"federalState":{"key":"07","name":"Rheinland-Pfalz"}},{"name":"Breitbachstr.","postalCode":"76857","locality":"Eußerthal","municipality":{"key":"07337024","name":"Eußerthal","type":"Kreisangehörige_Gemeinde"},"district":{"key":"07337","name":"Südliche Weinstraße","type":"Landkreis"},"federalState":{"key":"07","name":"Rheinland-Pfalz"}},{"name":"Endelstr.","postalCode":"76857","locality":"Eußerthal","municipality":{"key":"07337024","name":"Eußerthal","type":"Kreisangehörige_Gemeinde"},"district":{"key":"07337","name":"Südliche Weinstraße","type":"Landkreis"},"federalState":{"key":"07","name":"Rheinland-Pfalz"}},{"name":"Friedhofstr.","postalCode":"76857","locality":"Eußerthal","municipality":{"key":"07337024","name":"Eußerthal","type":"Kreisangehörige_Gemeinde"},"district":{"key":"07337","name":"Südliche Weinstraße","type":"Landkreis"},"federalState":{"key":"07","name":"Rheinland-Pfalz"}},{"name":"Gartenstr.","postalCode":"76857","locality":"Eußerthal","municipality":{"key":"07337024","name":"Eußerthal","type":"Kreisangehörige_Gemeinde"},"district":{"key":"07337","name":"Südliche Weinstraße","type":"Landkreis"},"federalState":{"key":"07","name":"Rheinland-Pfalz"}},{"name":"Haingeraidestr.","postalCode":"76857","locality":"Eußerthal","municipality":{"key":"07337024","name":"Eußerthal","type":"Kreisangehörige_Gemeinde"},"district":{"key":"07337","name":"Südliche Weinstraße","type":"Landkreis"},"federalState":{"key":"07","name":"Rheinland-Pfalz"}},{"name":"Hauptstr.","postalCode":"76857","locality":"Eußerthal","municipality":{"key":"07337024","name":"Eußerthal","type":"Kreisangehörige_Gemeinde"},"district":{"key":"07337","name":"Südliche Weinstraße","type":"Landkreis"},"federalState":{"key":"07","name":"Rheinland-Pfalz"}},{"name":"Hirtengasse","postalCode":"76857","locality":"Eußerthal","municipality":{"key":"07337024","name":"Eußerthal","type":"Kreisangehörige_Gemeinde"},"district":{"key":"07337","name":"Südliche Weinstraße","type":"Landkreis"},"federalState":{"key":"07","name":"Rheinland-Pfalz"}},{"name":"Im alten Kloster","postalCode":"76857","locality":"Eußerthal","municipality":{"key":"07337024","name":"Eußerthal","type":"Kreisangehörige_Gemeinde"},"district":{"key":"07337","name":"Südliche Weinstraße","type":"Landkreis"},"federalState":{"key":"07","name":"Rheinland-Pfalz"}},{"name":"Im Endel","postalCode":"76857","locality":"Eußerthal","municipality":{"key":"07337024","name":"Eußerthal","type":"Kreisangehörige_Gemeinde"},"district":{"key":"07337","name":"Südliche Weinstraße","type":"Landkreis"},"federalState":{"key":"07","name":"Rheinland-Pfalz"}},{"name":"Kirchstr.","postalCode":"76857","locality":"Eußerthal","municipality":{"key":"07337024","name":"Eußerthal","type":"Kreisangehörige_Gemeinde"},"district":{"key":"07337","name":"Südliche Weinstraße","type":"Landkreis"},"federalState":{"key":"07","name":"Rheinland-Pfalz"}},{"name":"Klostergasse","postalCode":"76857","locality":"Eußerthal","municipality":{"key":"07337024","name":"Eußerthal","type":"Kreisangehörige_Gemeinde"},"district":{"key":"07337","name":"Südliche Weinstraße","type":"Landkreis"},"federalState":{"key":"07","name":"Rheinland-Pfalz"}},{"name":"Ritter-Stephan-von-Mörlheim-Str.","postalCode":"76857","locality":"Eußerthal","municipality":{"key":"07337024","name":"Eußerthal","type":"Kreisangehörige_Gemeinde"},"district":{"key":"07337","name":"Südliche Weinstraße","type":"Landkreis"},"federalState":{"key":"07","name":"Rheinland-Pfalz"}},{"name":"Schulstr.","postalCode":"76857","locality":"Eußerthal","municipality":{"key":"07337024","name":"Eußerthal","type":"Kreisangehörige_Gemeinde"},"district":{"key":"07337","name":"Südliche Weinstraße","type":"Landkreis"},"federalState":{"key":"07","name":"Rheinland-Pfalz"}},{"name":"Sulzbachweg","postalCode":"76857","locality":"Eußerthal","municipality":{"key":"07337024","name":"Eußerthal","type":"Kreisangehörige_Gemeinde"},"district":{"key":"07337","name":"Südliche Weinstraße","type":"Landkreis"},"federalState":{"key":"07","name":"Rheinland-Pfalz"}},{"name":"Wiesenweg","postalCode":"76857","locality":"Eußerthal","municipality":{"key":"07337024","name":"Eußerthal","type":"Kreisangehörige_Gemeinde"},"district":{"key":"07337","name":"Südliche Weinstraße","type":"Landkreis"},"federalState":{"key":"07","name":"Rheinland-Pfalz"}},{"name":"Ziegelbergstr.","postalCode":"76857","locality":"Eußerthal","municipality":{"key":"07337024","name":"Eußerthal","type":"Kreisangehörige_Gemeinde"},"district":{"key":"07337","name":"Südliche Weinstraße","type":"Landkreis"},"federalState":{"key":"07","name":"Rheinland-Pfalz"}},]