[{"key":"10220696","name":"Aérodrome","postalCode":"2608","locality":"Courtelary","commune":{"key":"434","name":"Courtelary","shortName":"Courtelary"},"district":{"key":"241","name":"Arrondissement administratif Jura bernois"},"canton":{"key":"2","code":"BE","name":"Bern / Berne"},"status":"Real"},{"key":"10145292","name":"Allée des Tilleuls","postalCode":"2946","locality":"Miécourt","commune":{"key":"6810","name":"La Baroche","shortName":"La Baroche"},"district":{"key":"2603","name":"District de Porrentruy"},"canton":{"key":"26","code":"JU","name":"Jura"},"status":"Real"},{"key":"10170573","name":"Allée Jean-Thomas-Berthold","postalCode":"2946","locality":"Miécourt","commune":{"key":"6810","name":"La Baroche","shortName":"La Baroche"},"district":{"key":"2603","name":"District de Porrentruy"},"canton":{"key":"26","code":"JU","name":"Jura"},"status":"Real"},{"key":"10252269","name":"Alte Hausmatte","postalCode":"1791","locality":"Courtaman","commune":{"key":"2254","name":"Courtepin","shortName":"Courtepin"},"district":{"key":"1005","name":"Bezirk See / District du Lac"},"canton":{"key":"10","code":"FR","name":"Fribourg / Freiburg"},"status":"Real"},{"key":"10254806","name":"Au Bévan","postalCode":"2852","locality":"Courtételle","commune":{"key":"6710","name":"Courtételle","shortName":"Courtételle"},"district":{"key":"2601","name":"District de Delémont"},"canton":{"key":"26","code":"JU","name":"Jura"},"status":"Real"},{"key":"10063018","name":"Au Chésal","postalCode":"2904","locality":"Bressaucourt","commune":{"key":"6790","name":"Fontenais","shortName":"Fontenais"},"district":{"key":"2603","name":"District de Porrentruy"},"canton":{"key":"26","code":"JU","name":"Jura"},"status":"Real"},{"key":"10072692","name":"Au Crêt","postalCode":"1784","locality":"Courtepin","commune":{"key":"2254","name":"Courtepin","shortName":"Courtepin"},"district":{"key":"1005","name":"Bezirk See / District du Lac"},"canton":{"key":"10","code":"FR","name":"Fribourg / Freiburg"},"status":"Real"},{"key":"10078846","name":"Au Faubourg","postalCode":"2904","locality":"Bressaucourt","commune":{"key":"6790","name":"Fontenais","shortName":"Fontenais"},"district":{"key":"2603","name":"District de Porrentruy"},"canton":{"key":"26","code":"JU","name":"Jura"},"status":"Real"},{"key":"10178056","name":"Au Fernotz","postalCode":"1784","locality":"Courtepin","commune":{"key":"2254","name":"Courtepin","shortName":"Courtepin"},"district":{"key":"1005","name":"Bezirk See / District du Lac"},"canton":{"key":"10","code":"FR","name":"Fribourg / Freiburg"},"status":"Real"},{"key":"10171858","name":"Au Tevet","postalCode":"2856","locality":"Boécourt","commune":{"key":"6702","name":"Boécourt","shortName":"Boécourt"},"district":{"key":"2601","name":"District de Delémont"},"canton":{"key":"26","code":"JU","name":"Jura"},"status":"Real"},{"key":"10241706","name":"Au Village","postalCode":"2889","locality":"Ocourt","commune":{"key":"6808","name":"Clos du Doubs","shortName":"Clos du Doubs"},"district":{"key":"2603","name":"District de Porrentruy"},"canton":{"key":"26","code":"JU","name":"Jura"},"status":"Real"},{"key":"10050280","name":"Au Village","postalCode":"2904","locality":"Bressaucourt","commune":{"key":"6790","name":"Fontenais","shortName":"Fontenais"},"district":{"key":"2603","name":"District de Porrentruy"},"canton":{"key":"26","code":"JU","name":"Jura"},"status":"Real"},{"key":"10158085","name":"Au Vouéson","postalCode":"2946","locality":"Miécourt","commune":{"key":"6810","name":"La Baroche","shortName":"La Baroche"},"district":{"key":"2603","name":"District de Porrentruy"},"canton":{"key":"26","code":"JU","name":"Jura"},"status":"Real"},{"key":"10050281","name":"Aux Closés","postalCode":"2904","locality":"Bressaucourt","commune":{"key":"6790","name":"Fontenais","shortName":"Fontenais"},"district":{"key":"2603","name":"District de Porrentruy"},"canton":{"key":"26","code":"JU","name":"Jura"},"status":"Real"},{"key":"10053608","name":"Aux Crés","postalCode":"2852","locality":"Courtételle","commune":{"key":"6710","name":"Courtételle","shortName":"Courtételle"},"district":{"key":"2601","name":"District de Delémont"},"canton":{"key":"26","code":"JU","name":"Jura"},"status":"Real"},{"key":"10122351","name":"Aux Fossés","postalCode":"2852","locality":"Courtételle","commune":{"key":"6710","name":"Courtételle","shortName":"Courtételle"},"district":{"key":"2601","name":"District de Delémont"},"canton":{"key":"26","code":"JU","name":"Jura"},"status":"Real"},{"key":"10049449","name":"Baideval","postalCode":"2946","locality":"Miécourt","commune":{"key":"6810","name":"La Baroche","shortName":"La Baroche"},"district":{"key":"2603","name":"District de Porrentruy"},"canton":{"key":"26","code":"JU","name":"Jura"},"status":"Real"},{"key":"10235976","name":"Beau-Regard","postalCode":"2608","locality":"Courtelary","commune":{"key":"434","name":"Courtelary","shortName":"Courtelary"},"district":{"key":"241","name":"Arrondissement administratif Jura bernois"},"canton":{"key":"2","code":"BE","name":"Bern / Berne"},"status":"Real"},{"key":"10177668","name":"Bellevue","postalCode":"2608","locality":"Courtelary","commune":{"key":"434","name":"Courtelary","shortName":"Courtelary"},"district":{"key":"241","name":"Arrondissement administratif Jura bernois"},"canton":{"key":"2","code":"BE","name":"Bern / Berne"},"status":"Real"},{"key":"10177668","name":"Bellevue","postalCode":"2608","locality":"Montagne-de-Courtelary","commune":{"key":"434","name":"Courtelary","shortName":"Courtelary"},"district":{"key":"241","name":"Arrondissement administratif Jura bernois"},"canton":{"key":"2","code":"BE","name":"Bern / Berne"},"status":"Real"},{"key":"10182354","name":"Berlincourt","postalCode":"2854","locality":"Bassecourt","commune":{"key":"6729","name":"Haute-Sorne","shortName":"Haute-Sorne"},"district":{"key":"2601","name":"District de Delémont"},"canton":{"key":"26","code":"JU","name":"Jura"},"status":"Real"},{"key":"10022122","name":"Biberenweg / Chemin de la Bibera","postalCode":"1791","locality":"Courtaman","commune":{"key":"2254","name":"Courtepin","shortName":"Courtepin"},"district":{"key":"1005","name":"Bezirk See / District du Lac"},"canton":{"key":"10","code":"FR","name":"Fribourg / Freiburg"},"status":"Real"},{"key":"10072690","name":"Blumenweg / Champ-Fleuri","postalCode":"1791","locality":"Courtaman","commune":{"key":"2254","name":"Courtepin","shortName":"Courtepin"},"district":{"key":"1005","name":"Bezirk See / District du Lac"},"canton":{"key":"10","code":"FR","name":"Fribourg / Freiburg"},"status":"Real"},{"key":"10119126","name":"Bois Juré","postalCode":"2943","locality":"Vendlincourt","commune":{"key":"6806","name":"Vendlincourt","shortName":"Vendlincourt"},"district":{"key":"2603","name":"District de Porrentruy"},"canton":{"key":"26","code":"JU","name":"Jura"},"status":"Real"},{"key":"10065402","name":"Bretin","postalCode":"2608","locality":"Courtelary","commune":{"key":"434","name":"Courtelary","shortName":"Courtelary"},"district":{"key":"241","name":"Arrondissement administratif Jura bernois"},"canton":{"key":"2","code":"BE","name":"Bern / Berne"},"status":"Real"},{"key":"10052136","name":"Brigelsweg / Route de Breilles","postalCode":"1791","locality":"Courtaman","commune":{"key":"2254","name":"Courtepin","shortName":"Courtepin"},"district":{"key":"1005","name":"Bezirk See / District du Lac"},"canton":{"key":"10","code":"FR","name":"Fribourg / Freiburg"},"status":"Real"},{"key":"10110361","name":"Brunnenweg / Champ des Fontaines","postalCode":"1791","locality":"Courtaman","commune":{"key":"2254","name":"Courtepin","shortName":"Courtepin"},"district":{"key":"1005","name":"Bezirk See / District du Lac"},"canton":{"key":"10","code":"FR","name":"Fribourg / Freiburg"},"status":"Real"},{"key":"10009831","name":"Chaluet","postalCode":"2738","locality":"Court","commune":{"key":"690","name":"Court","shortName":"Court"},"district":{"key":"241","name":"Arrondissement administratif Jura bernois"},"canton":{"key":"2","code":"BE","name":"Bern / Berne"},"status":"Real"},{"key":"10223746","name":"Champ au delà la Roie","postalCode":"2889","locality":"Ocourt","commune":{"key":"6808","name":"Clos du Doubs","shortName":"Clos du Doubs"},"district":{"key":"2603","name":"District de Porrentruy"},"canton":{"key":"26","code":"JU","name":"Jura"},"status":"Real"},{"key":"10223510","name":"Champ béquiat","postalCode":"2946","locality":"Miécourt","commune":{"key":"6810","name":"La Baroche","shortName":"La Baroche"},"district":{"key":"2603","name":"District de Porrentruy"},"canton":{"key":"26","code":"JU","name":"Jura"},"status":"Real"},{"key":"10009832","name":"Champ Chalmé","postalCode":"2738","locality":"Court","commune":{"key":"690","name":"Court","shortName":"Court"},"district":{"key":"241","name":"Arrondissement administratif Jura bernois"},"canton":{"key":"2","code":"BE","name":"Bern / Berne"},"status":"Real"},{"key":"10005067","name":"Champ-Cochet","postalCode":"2608","locality":"Courtelary","commune":{"key":"434","name":"Courtelary","shortName":"Courtelary"},"district":{"key":"241","name":"Arrondissement administratif Jura bernois"},"canton":{"key":"2","code":"BE","name":"Bern / Berne"},"status":"Real"},{"key":"10049467","name":"Champ de la Côte","postalCode":"2889","locality":"Ocourt","commune":{"key":"6808","name":"Clos du Doubs","shortName":"Clos du Doubs"},"district":{"key":"2603","name":"District de Porrentruy"},"canton":{"key":"26","code":"JU","name":"Jura"},"status":"Real"},{"key":"10086279","name":"Champ de la Croix","postalCode":"1784","locality":"Courtepin","commune":{"key":"2254","name":"Courtepin","shortName":"Courtepin"},"district":{"key":"1005","name":"Bezirk See / District du Lac"},"canton":{"key":"10","code":"FR","name":"Fribourg / Freiburg"},"status":"Real"},{"key":"10078237","name":"Champ de Lavière","postalCode":"2889","locality":"Ocourt","commune":{"key":"6808","name":"Clos du Doubs","shortName":"Clos du Doubs"},"district":{"key":"2603","name":"District de Porrentruy"},"canton":{"key":"26","code":"JU","name":"Jura"},"status":"Real"},{"key":"10220154","name":"Champ des Battous","postalCode":"2738","locality":"Court","commune":{"key":"690","name":"Court","shortName":"Court"},"district":{"key":"241","name":"Arrondissement administratif Jura bernois"},"canton":{"key":"2","code":"BE","name":"Bern / Berne"},"status":"Real"},{"key":"10220158","name":"Champ du Fol","postalCode":"2738","locality":"Court","commune":{"key":"690","name":"Court","shortName":"Court"},"district":{"key":"241","name":"Arrondissement administratif Jura bernois"},"canton":{"key":"2","code":"BE","name":"Bern / Berne"},"status":"Real"},{"key":"10100474","name":"Champs de la Borne","postalCode":"2950","locality":"Courtemautruy","commune":{"key":"6784","name":"Courgenay","shortName":"Courgenay"},"district":{"key":"2603","name":"District de Porrentruy"},"canton":{"key":"26","code":"JU","name":"Jura"},"status":"Real"},{"key":"10223711","name":"Champs derrière","postalCode":"2889","locality":"Ocourt","commune":{"key":"6808","name":"Clos du Doubs","shortName":"Clos du Doubs"},"district":{"key":"2603","name":"District de Porrentruy"},"canton":{"key":"26","code":"JU","name":"Jura"},"status":"Real"},{"key":"10077124","name":"Champs du Chêne","postalCode":"2950","locality":"Courtemautruy","commune":{"key":"6784","name":"Courgenay","shortName":"Courgenay"},"district":{"key":"2603","name":"District de Porrentruy"},"canton":{"key":"26","code":"JU","name":"Jura"},"status":"Real"},{"key":"10220720","name":"Champs du Sapé","postalCode":"2608","locality":"Montagne-de-Courtelary","commune":{"key":"434","name":"Courtelary","shortName":"Courtelary"},"district":{"key":"241","name":"Arrondissement administratif Jura bernois"},"canton":{"key":"2","code":"BE","name":"Bern / Berne"},"status":"Real"},{"key":"10103641","name":"Champs Juan","postalCode":"2608","locality":"Courtelary","commune":{"key":"434","name":"Courtelary","shortName":"Courtelary"},"district":{"key":"241","name":"Arrondissement administratif Jura bernois"},"canton":{"key":"2","code":"BE","name":"Bern / Berne"},"status":"Real"},{"key":"10223323","name":"Champs Pabez","postalCode":"2856","locality":"Boécourt","commune":{"key":"6702","name":"Boécourt","shortName":"Boécourt"},"district":{"key":"2601","name":"District de Delémont"},"canton":{"key":"26","code":"JU","name":"Jura"},"status":"Real"},{"key":"10077137","name":"Chantemerle","postalCode":"2905","locality":"Courtedoux","commune":{"key":"6785","name":"Courtedoux","shortName":"Courtedoux"},"district":{"key":"2603","name":"District de Porrentruy"},"canton":{"key":"26","code":"JU","name":"Jura"},"status":"Real"},{"key":"10049548","name":"Château Bleu","postalCode":"2943","locality":"Vendlincourt","commune":{"key":"6806","name":"Vendlincourt","shortName":"Vendlincourt"},"district":{"key":"2603","name":"District de Porrentruy"},"canton":{"key":"26","code":"JU","name":"Jura"},"status":"Real"},{"key":"10220164","name":"Chavanné","postalCode":"2738","locality":"Court","commune":{"key":"690","name":"Court","shortName":"Court"},"district":{"key":"241","name":"Arrondissement administratif Jura bernois"},"canton":{"key":"2","code":"BE","name":"Bern / Berne"},"status":"Real"},{"key":"10167965","name":"Chemin de Bellevue","postalCode":"2946","locality":"Miécourt","commune":{"key":"6810","name":"La Baroche","shortName":"La Baroche"},"district":{"key":"2603","name":"District de Porrentruy"},"canton":{"key":"26","code":"JU","name":"Jura"},"status":"Real"},{"key":"10210829","name":"Chemin de Blanche-Terre","postalCode":"2738","locality":"Court","commune":{"key":"690","name":"Court","shortName":"Court"},"district":{"key":"241","name":"Arrondissement administratif Jura bernois"},"canton":{"key":"2","code":"BE","name":"Bern / Berne"},"status":"Real"},{"key":"10053609","name":"Chemin de Chaux","postalCode":"2852","locality":"Courtételle","commune":{"key":"6710","name":"Courtételle","shortName":"Courtételle"},"district":{"key":"2601","name":"District de Delémont"},"canton":{"key":"26","code":"JU","name":"Jura"},"status":"Real"},{"key":"10223521","name":"Chemin de Chésal","postalCode":"2926","locality":"Boncourt","commune":{"key":"6774","name":"Boncourt","shortName":"Boncourt"},"district":{"key":"2603","name":"District de Porrentruy"},"canton":{"key":"26","code":"JU","name":"Jura"},"status":"Real"},{"key":"10223515","name":"Chemin de Cornol","postalCode":"2946","locality":"Miécourt","commune":{"key":"6810","name":"La Baroche","shortName":"La Baroche"},"district":{"key":"2603","name":"District de Porrentruy"},"canton":{"key":"26","code":"JU","name":"Jura"},"status":"Real"},{"key":"10223519","name":"Chemin de Fregiécourt","postalCode":"2946","locality":"Miécourt","commune":{"key":"6810","name":"La Baroche","shortName":"La Baroche"},"district":{"key":"2603","name":"District de Porrentruy"},"canton":{"key":"26","code":"JU","name":"Jura"},"status":"Real"},{"key":"10100742","name":"Chemin de la Brasserie","postalCode":"2926","locality":"Boncourt","commune":{"key":"6774","name":"Boncourt","shortName":"Boncourt"},"district":{"key":"2603","name":"District de Porrentruy"},"canton":{"key":"26","code":"JU","name":"Jura"},"status":"Real"},{"key":"10131628","name":"Chemin de la Combe de la Vigne","postalCode":"2926","locality":"Boncourt","commune":{"key":"6774","name":"Boncourt","shortName":"Boncourt"},"district":{"key":"2603","name":"District de Porrentruy"},"canton":{"key":"26","code":"JU","name":"Jura"},"status":"Real"},{"key":"10053484","name":"Chemin de la Combe-Feuillerée","postalCode":"2926","locality":"Boncourt","commune":{"key":"6774","name":"Boncourt","shortName":"Boncourt"},"district":{"key":"2603","name":"District de Porrentruy"},"canton":{"key":"26","code":"JU","name":"Jura"},"status":"Real"},{"key":"10170294","name":"Chemin de la Connai","postalCode":"2946","locality":"Miécourt","commune":{"key":"6810","name":"La Baroche","shortName":"La Baroche"},"district":{"key":"2603","name":"District de Porrentruy"},"canton":{"key":"26","code":"JU","name":"Jura"},"status":"Real"},{"key":"10254023","name":"Chemin de la Forêt","postalCode":"1784","locality":"Courtepin","commune":{"key":"2254","name":"Courtepin","shortName":"Courtepin"},"district":{"key":"1005","name":"Bezirk See / District du Lac"},"canton":{"key":"10","code":"FR","name":"Fribourg / Freiburg"},"status":"Real"},{"key":"10100913","name":"Chemin de la Gare","postalCode":"2943","locality":"Vendlincourt","commune":{"key":"6806","name":"Vendlincourt","shortName":"Vendlincourt"},"district":{"key":"2603","name":"District de Porrentruy"},"canton":{"key":"26","code":"JU","name":"Jura"},"status":"Real"},{"key":"10252096","name":"Chemin de la Lorge","postalCode":"1721","locality":"Courtion","commune":{"key":"2272","name":"Misery-Courtion","shortName":"Misery-Courtion"},"district":{"key":"1005","name":"Bezirk See / District du Lac"},"canton":{"key":"10","code":"FR","name":"Fribourg / Freiburg"},"status":"Real"},{"key":"10210830","name":"Chemin de la Nancoran","postalCode":"2738","locality":"Court","commune":{"key":"690","name":"Court","shortName":"Court"},"district":{"key":"241","name":"Arrondissement administratif Jura bernois"},"canton":{"key":"2","code":"BE","name":"Bern / Berne"},"status":"Real"},{"key":"10082942","name":"Chemin de la Rosée","postalCode":"2852","locality":"Courtételle","commune":{"key":"6710","name":"Courtételle","shortName":"Courtételle"},"district":{"key":"2601","name":"District de Delémont"},"canton":{"key":"26","code":"JU","name":"Jura"},"status":"Real"},{"key":"10009834","name":"Chemin de la Scierie","postalCode":"2738","locality":"Court","commune":{"key":"690","name":"Court","shortName":"Court"},"district":{"key":"241","name":"Arrondissement administratif Jura bernois"},"canton":{"key":"2","code":"BE","name":"Bern / Berne"},"status":"Real"},{"key":"10023502","name":"Chemin de l'Aurore","postalCode":"1784","locality":"Courtepin","commune":{"key":"2254","name":"Courtepin","shortName":"Courtepin"},"district":{"key":"1005","name":"Bezirk See / District du Lac"},"canton":{"key":"10","code":"FR","name":"Fribourg / Freiburg"},"status":"Real"},{"key":"10111646","name":"Chemin de la Valletaine","postalCode":"2953","locality":"Fregiécourt","commune":{"key":"6810","name":"La Baroche","shortName":"La Baroche"},"district":{"key":"2603","name":"District de Porrentruy"},"canton":{"key":"26","code":"JU","name":"Jura"},"status":"Real"},{"key":"10120166","name":"Chemin de la Versanne","postalCode":"2738","locality":"Court","commune":{"key":"690","name":"Court","shortName":"Court"},"district":{"key":"241","name":"Arrondissement administratif Jura bernois"},"canton":{"key":"2","code":"BE","name":"Bern / Berne"},"status":"Real"},{"key":"10130105","name":"Chemin de l'Eau des Fontaines","postalCode":"2738","locality":"Court","commune":{"key":"690","name":"Court","shortName":"Court"},"district":{"key":"241","name":"Arrondissement administratif Jura bernois"},"canton":{"key":"2","code":"BE","name":"Bern / Berne"},"status":"Real"},{"key":"10158501","name":"Chemin de l'Ecole","postalCode":"2907","locality":"Rocourt","commune":{"key":"6809","name":"Haute-Ajoie","shortName":"Haute-Ajoie"},"district":{"key":"2603","name":"District de Porrentruy"},"canton":{"key":"26","code":"JU","name":"Jura"},"status":"Real"},{"key":"10163195","name":"Chemin de l'Eglise","postalCode":"2907","locality":"Rocourt","commune":{"key":"6809","name":"Haute-Ajoie","shortName":"Haute-Ajoie"},"district":{"key":"2603","name":"District de Porrentruy"},"canton":{"key":"26","code":"JU","name":"Jura"},"status":"Real"},{"key":"10049547","name":"Chemin de l'Etang","postalCode":"2943","locality":"Vendlincourt","commune":{"key":"6806","name":"Vendlincourt","shortName":"Vendlincourt"},"district":{"key":"2603","name":"District de Porrentruy"},"canton":{"key":"26","code":"JU","name":"Jura"},"status":"Real"},{"key":"10077913","name":"Chemin des 4 Bornes","postalCode":"2943","locality":"Vendlincourt","commune":{"key":"6806","name":"Vendlincourt","shortName":"Vendlincourt"},"district":{"key":"2603","name":"District de Porrentruy"},"canton":{"key":"26","code":"JU","name":"Jura"},"status":"Real"},{"key":"10060341","name":"Chemin de Sainte-Fontaine","postalCode":"2852","locality":"Courtételle","commune":{"key":"6710","name":"Courtételle","shortName":"Courtételle"},"district":{"key":"2601","name":"District de Delémont"},"canton":{"key":"26","code":"JU","name":"Jura"},"status":"Real"},{"key":"10223525","name":"Chemin des Angles","postalCode":"2926","locality":"Boncourt","commune":{"key":"6774","name":"Boncourt","shortName":"Boncourt"},"district":{"key":"2603","name":"District de Porrentruy"},"canton":{"key":"26","code":"JU","name":"Jura"},"status":"Real"},{"key":"10080343","name":"Chemin de Sassagne","postalCode":"2738","locality":"Court","commune":{"key":"690","name":"Court","shortName":"Court"},"district":{"key":"241","name":"Arrondissement administratif Jura bernois"},"canton":{"key":"2","code":"BE","name":"Bern / Berne"},"status":"Real"},{"key":"10009833","name":"Chemin de Savaronne","postalCode":"2738","locality":"Court","commune":{"key":"690","name":"Court","shortName":"Court"},"district":{"key":"241","name":"Arrondissement administratif Jura bernois"},"canton":{"key":"2","code":"BE","name":"Bern / Berne"},"status":"Real"},{"key":"10175657","name":"Chemin des Combes","postalCode":"2852","locality":"Courtételle","commune":{"key":"6710","name":"Courtételle","shortName":"Courtételle"},"district":{"key":"2601","name":"District de Delémont"},"canton":{"key":"26","code":"JU","name":"Jura"},"status":"Real"},{"key":"10053615","name":"Chemin des Esserts","postalCode":"2852","locality":"Courtételle","commune":{"key":"6710","name":"Courtételle","shortName":"Courtételle"},"district":{"key":"2601","name":"District de Delémont"},"canton":{"key":"26","code":"JU","name":"Jura"},"status":"Real"},{"key":"10060342","name":"Chemin des Fauvettes","postalCode":"2852","locality":"Courtételle","commune":{"key":"6710","name":"Courtételle","shortName":"Courtételle"},"district":{"key":"2601","name":"District de Delémont"},"canton":{"key":"26","code":"JU","name":"Jura"},"status":"Real"},{"key":"10223560","name":"Della de la Vie","postalCode":"2946","locality":"Miécourt","commune":{"key":"6810","name":"La Baroche","shortName":"La Baroche"},"district":{"key":"2603","name":"District de Porrentruy"},"canton":{"key":"26","code":"JU","name":"Jura"},"status":"Real"},{"key":"10223675","name":"Devant Estai","postalCode":"2905","locality":"Courtedoux","commune":{"key":"6785","name":"Courtedoux","shortName":"Courtedoux"},"district":{"key":"2603","name":"District de Porrentruy"},"canton":{"key":"26","code":"JU","name":"Jura"},"status":"Real"},{"key":"10223330","name":"Devant la Joux","postalCode":"2907","locality":"Rocourt","commune":{"key":"6809","name":"Haute-Ajoie","shortName":"Haute-Ajoie"},"district":{"key":"2603","name":"District de Porrentruy"},"canton":{"key":"26","code":"JU","name":"Jura"},"status":"Real"},{"key":"10198026","name":"Dôs Innecé","postalCode":"2923","locality":"Courtemaîche","commune":{"key":"6807","name":"Basse-Allaine","shortName":"Basse-Allaine"},"district":{"key":"2603","name":"District de Porrentruy"},"canton":{"key":"26","code":"JU","name":"Jura"},"status":"Real"},{"key":"10223350","name":"Dos le Jorat","postalCode":"2907","locality":"Rocourt","commune":{"key":"6809","name":"Haute-Ajoie","shortName":"Haute-Ajoie"},"district":{"key":"2603","name":"District de Porrentruy"},"canton":{"key":"26","code":"JU","name":"Jura"},"status":"Real"},{"key":"10188433","name":"Drie lai Velle","postalCode":"2905","locality":"Courtedoux","commune":{"key":"6785","name":"Courtedoux","shortName":"Courtedoux"},"district":{"key":"2603","name":"District de Porrentruy"},"canton":{"key":"26","code":"JU","name":"Jura"},"status":"Real"},{"key":"10198034","name":"Drie les Hôtâs","postalCode":"2923","locality":"Courtemaîche","commune":{"key":"6807","name":"Basse-Allaine","shortName":"Basse-Allaine"},"district":{"key":"2603","name":"District de Porrentruy"},"canton":{"key":"26","code":"JU","name":"Jura"},"status":"Real"},{"key":"10009836","name":"Droit de Mévilier","postalCode":"2738","locality":"Court","commune":{"key":"690","name":"Court","shortName":"Court"},"district":{"key":"241","name":"Arrondissement administratif Jura bernois"},"canton":{"key":"2","code":"BE","name":"Bern / Berne"},"status":"Real"},{"key":"10049397","name":"En Bois Jouvé","postalCode":"2905","locality":"Courtedoux","commune":{"key":"6785","name":"Courtedoux","shortName":"Courtedoux"},"district":{"key":"2603","name":"District de Porrentruy"},"canton":{"key":"26","code":"JU","name":"Jura"},"status":"Real"},{"key":"10063034","name":"En Chaussin","postalCode":"2943","locality":"Vendlincourt","commune":{"key":"6806","name":"Vendlincourt","shortName":"Vendlincourt"},"district":{"key":"2603","name":"District de Porrentruy"},"canton":{"key":"26","code":"JU","name":"Jura"},"status":"Real"},{"key":"10049549","name":"En Chésal","postalCode":"2943","locality":"Vendlincourt","commune":{"key":"6806","name":"Vendlincourt","shortName":"Vendlincourt"},"district":{"key":"2603","name":"District de Porrentruy"},"canton":{"key":"26","code":"JU","name":"Jura"},"status":"Real"},{"key":"10223535","name":"En Craterez","postalCode":"2926","locality":"Boncourt","commune":{"key":"6774","name":"Boncourt","shortName":"Boncourt"},"district":{"key":"2603","name":"District de Porrentruy"},"canton":{"key":"26","code":"JU","name":"Jura"},"status":"Real"},{"key":"10049398","name":"Enson Novâ","postalCode":"2905","locality":"Courtedoux","commune":{"key":"6785","name":"Courtedoux","shortName":"Courtedoux"},"district":{"key":"2603","name":"District de Porrentruy"},"canton":{"key":"26","code":"JU","name":"Jura"},"status":"Real"},{"key":"10049528","name":"Entre les Buissons","postalCode":"2907","locality":"Rocourt","commune":{"key":"6809","name":"Haute-Ajoie","shortName":"Haute-Ajoie"},"district":{"key":"2603","name":"District de Porrentruy"},"canton":{"key":"26","code":"JU","name":"Jura"},"status":"Real"},{"key":"10223454","name":"En Vadain","postalCode":"2904","locality":"Bressaucourt","commune":{"key":"6790","name":"Fontenais","shortName":"Fontenais"},"district":{"key":"2603","name":"District de Porrentruy"},"canton":{"key":"26","code":"JU","name":"Jura"},"status":"Real"},{"key":"10221291","name":"Envers de Montoz","postalCode":"2738","locality":"Court","commune":{"key":"690","name":"Court","shortName":"Court"},"district":{"key":"241","name":"Arrondissement administratif Jura bernois"},"canton":{"key":"2","code":"BE","name":"Bern / Berne"},"status":"Real"},{"key":"10223650","name":"En Voiré","postalCode":"2950","locality":"Courtemautruy","commune":{"key":"6784","name":"Courgenay","shortName":"Courgenay"},"district":{"key":"2603","name":"District de Porrentruy"},"canton":{"key":"26","code":"JU","name":"Jura"},"status":"Real"},{"key":"10100759","name":"Es Coires","postalCode":"2904","locality":"Bressaucourt","commune":{"key":"6790","name":"Fontenais","shortName":"Fontenais"},"district":{"key":"2603","name":"District de Porrentruy"},"canton":{"key":"26","code":"JU","name":"Jura"},"status":"Real"},{"key":"10145298","name":"Es Coulats","postalCode":"2856","locality":"Boécourt","commune":{"key":"6702","name":"Boécourt","shortName":"Boécourt"},"district":{"key":"2601","name":"District de Delémont"},"canton":{"key":"26","code":"JU","name":"Jura"},"status":"Real"},{"key":"10176065","name":"Es Longennes","postalCode":"2856","locality":"Boécourt","commune":{"key":"6702","name":"Boécourt","shortName":"Boécourt"},"district":{"key":"2601","name":"District de Delémont"},"canton":{"key":"26","code":"JU","name":"Jura"},"status":"Real"},{"key":"10131359","name":"Espace Industriel","postalCode":"2854","locality":"Bassecourt","commune":{"key":"6729","name":"Haute-Sorne","shortName":"Haute-Sorne"},"district":{"key":"2601","name":"District de Delémont"},"canton":{"key":"26","code":"JU","name":"Jura"},"status":"Real"},{"key":"10054184","name":"Essert Jacques","postalCode":"2854","locality":"Bassecourt","commune":{"key":"6729","name":"Haute-Sorne","shortName":"Haute-Sorne"},"district":{"key":"2601","name":"District de Delémont"},"canton":{"key":"26","code":"JU","name":"Jura"},"status":"Real"},{"key":"10223567","name":"Esserts Valtet","postalCode":"2953","locality":"Fregiécourt","commune":{"key":"6810","name":"La Baroche","shortName":"La Baroche"},"district":{"key":"2603","name":"District de Porrentruy"},"canton":{"key":"26","code":"JU","name":"Jura"},"status":"Real"},{"key":"10065403","name":"Fleur de Lys","postalCode":"2608","locality":"Courtelary","commune":{"key":"434","name":"Courtelary","shortName":"Courtelary"},"district":{"key":"241","name":"Arrondissement administratif Jura bernois"},"canton":{"key":"2","code":"BE","name":"Bern / Berne"},"status":"Real"},{"key":"10078238","name":"Fond des Prés","postalCode":"2889","locality":"Ocourt","commune":{"key":"6808","name":"Clos du Doubs","shortName":"Clos du Doubs"},"district":{"key":"2603","name":"District de Porrentruy"},"canton":{"key":"26","code":"JU","name":"Jura"},"status":"Real"},{"key":"10077126","name":"Fontaine à Bâne","postalCode":"2950","locality":"Courtemautruy","commune":{"key":"6784","name":"Courgenay","shortName":"Courgenay"},"district":{"key":"2603","name":"District de Porrentruy"},"canton":{"key":"26","code":"JU","name":"Jura"},"status":"Real"},{"key":"10223328","name":"Forêt des Chênes","postalCode":"2856","locality":"Boécourt","commune":{"key":"6702","name":"Boécourt","shortName":"Boécourt"},"district":{"key":"2601","name":"District de Delémont"},"canton":{"key":"26","code":"JU","name":"Jura"},"status":"Real"},{"key":"10124906","name":"Frémont","postalCode":"2608","locality":"Montagne-de-Courtelary","commune":{"key":"434","name":"Courtelary","shortName":"Courtelary"},"district":{"key":"241","name":"Arrondissement administratif Jura bernois"},"canton":{"key":"2","code":"BE","name":"Bern / Berne"},"status":"Real"},{"key":"10254820","name":"Gô d'Amerez","postalCode":"2856","locality":"Boécourt","commune":{"key":"6702","name":"Boécourt","shortName":"Boécourt"},"district":{"key":"2601","name":"District de Delémont"},"canton":{"key":"26","code":"JU","name":"Jura"},"status":"Real"},{"key":"10057846","name":"Graitery","postalCode":"2738","locality":"Court","commune":{"key":"690","name":"Court","shortName":"Court"},"district":{"key":"241","name":"Arrondissement administratif Jura bernois"},"canton":{"key":"2","code":"BE","name":"Bern / Berne"},"status":"Real"},{"key":"10174444","name":"Grand Clos","postalCode":"2904","locality":"Bressaucourt","commune":{"key":"6790","name":"Fontenais","shortName":"Fontenais"},"district":{"key":"2603","name":"District de Porrentruy"},"canton":{"key":"26","code":"JU","name":"Jura"},"status":"Real"},{"key":"10125339","name":"Grande Combe","postalCode":"2907","locality":"Rocourt","commune":{"key":"6809","name":"Haute-Ajoie","shortName":"Haute-Ajoie"},"district":{"key":"2603","name":"District de Porrentruy"},"canton":{"key":"26","code":"JU","name":"Jura"},"status":"Real"},{"key":"10049455","name":"Grandgourt","postalCode":"2923","locality":"Courtemaîche","commune":{"key":"6807","name":"Basse-Allaine","shortName":"Basse-Allaine"},"district":{"key":"2603","name":"District de Porrentruy"},"canton":{"key":"26","code":"JU","name":"Jura"},"status":"Real"},{"key":"10005070","name":"Grand-Rue","postalCode":"2608","locality":"Courtelary","commune":{"key":"434","name":"Courtelary","shortName":"Courtelary"},"district":{"key":"241","name":"Arrondissement administratif Jura bernois"},"canton":{"key":"2","code":"BE","name":"Bern / Berne"},"status":"Real"},{"key":"10086276","name":"Grausteinweg / Pierre-Grise","postalCode":"1791","locality":"Courtaman","commune":{"key":"2254","name":"Courtepin","shortName":"Courtepin"},"district":{"key":"1005","name":"Bezirk See / District du Lac"},"canton":{"key":"10","code":"FR","name":"Fribourg / Freiburg"},"status":"Real"},{"key":"10047920","name":"Gros Verger","postalCode":"2943","locality":"Vendlincourt","commune":{"key":"6806","name":"Vendlincourt","shortName":"Vendlincourt"},"district":{"key":"2603","name":"District de Porrentruy"},"canton":{"key":"26","code":"JU","name":"Jura"},"status":"Real"},{"key":"10023221","name":"Hauptstrasse / Route Principale","postalCode":"1791","locality":"Courtaman","commune":{"key":"2254","name":"Courtepin","shortName":"Courtepin"},"district":{"key":"1005","name":"Bezirk See / District du Lac"},"canton":{"key":"10","code":"FR","name":"Fribourg / Freiburg"},"status":"Real"},{"key":"10022124","name":"Hausmattweg","postalCode":"1791","locality":"Courtaman","commune":{"key":"2254","name":"Courtepin","shortName":"Courtepin"},"district":{"key":"1005","name":"Bezirk See / District du Lac"},"canton":{"key":"10","code":"FR","name":"Fribourg / Freiburg"},"status":"Real"},{"key":"10109846","name":"Haut de la Fin","postalCode":"2732","locality":"Saicourt","commune":{"key":"706","name":"Saicourt","shortName":"Saicourt"},"district":{"key":"241","name":"Arrondissement administratif Jura bernois"},"canton":{"key":"2","code":"BE","name":"Bern / Berne"},"status":"Real"},{"key":"10191882","name":"Haut de la Fin","postalCode":"2738","locality":"Court","commune":{"key":"690","name":"Court","shortName":"Court"},"district":{"key":"241","name":"Arrondissement administratif Jura bernois"},"canton":{"key":"2","code":"BE","name":"Bern / Berne"},"status":"Real"},{"key":"10188007","name":"Haut du Village","postalCode":"2943","locality":"Vendlincourt","commune":{"key":"6806","name":"Vendlincourt","shortName":"Vendlincourt"},"district":{"key":"2603","name":"District de Porrentruy"},"canton":{"key":"26","code":"JU","name":"Jura"},"status":"Real"},{"key":"10210938","name":"Impasse de la Basilique","postalCode":"2852","locality":"Courtételle","commune":{"key":"6710","name":"Courtételle","shortName":"Courtételle"},"district":{"key":"2601","name":"District de Delémont"},"canton":{"key":"26","code":"JU","name":"Jura"},"status":"Real"},{"key":"10176976","name":"Impasse de la Côte","postalCode":"2926","locality":"Boncourt","commune":{"key":"6774","name":"Boncourt","shortName":"Boncourt"},"district":{"key":"2603","name":"District de Porrentruy"},"canton":{"key":"26","code":"JU","name":"Jura"},"status":"Real"},{"key":"10086280","name":"Impasse de la Gravonna","postalCode":"1784","locality":"Courtepin","commune":{"key":"2254","name":"Courtepin","shortName":"Courtepin"},"district":{"key":"1005","name":"Bezirk See / District du Lac"},"canton":{"key":"10","code":"FR","name":"Fribourg / Freiburg"},"status":"Real"},{"key":"10150550","name":"Impasse de la Lorge","postalCode":"1721","locality":"Courtion","commune":{"key":"2272","name":"Misery-Courtion","shortName":"Misery-Courtion"},"district":{"key":"1005","name":"Bezirk See / District du Lac"},"canton":{"key":"10","code":"FR","name":"Fribourg / Freiburg"},"status":"Real"},{"key":"10100743","name":"Impasse des Blés","postalCode":"2926","locality":"Boncourt","commune":{"key":"6774","name":"Boncourt","shortName":"Boncourt"},"district":{"key":"2603","name":"District de Porrentruy"},"canton":{"key":"26","code":"JU","name":"Jura"},"status":"Real"},{"key":"10023503","name":"Impasse des Chênes","postalCode":"1784","locality":"Courtepin","commune":{"key":"2254","name":"Courtepin","shortName":"Courtepin"},"district":{"key":"1005","name":"Bezirk See / District du Lac"},"canton":{"key":"10","code":"FR","name":"Fribourg / Freiburg"},"status":"Real"},{"key":"10223539","name":"Impasse des Chenevières","postalCode":"2926","locality":"Boncourt","commune":{"key":"6774","name":"Boncourt","shortName":"Boncourt"},"district":{"key":"2603","name":"District de Porrentruy"},"canton":{"key":"26","code":"JU","name":"Jura"},"status":"Real"},{"key":"10151857","name":"Impasse des Courtils","postalCode":"2926","locality":"Boncourt","commune":{"key":"6774","name":"Boncourt","shortName":"Boncourt"},"district":{"key":"2603","name":"District de Porrentruy"},"canton":{"key":"26","code":"JU","name":"Jura"},"status":"Real"},{"key":"10127001","name":"Impasse des Erables","postalCode":"2852","locality":"Courtételle","commune":{"key":"6710","name":"Courtételle","shortName":"Courtételle"},"district":{"key":"2601","name":"District de Delémont"},"canton":{"key":"26","code":"JU","name":"Jura"},"status":"Real"},{"key":"10053490","name":"Impasse des Lilas","postalCode":"2926","locality":"Boncourt","commune":{"key":"6774","name":"Boncourt","shortName":"Boncourt"},"district":{"key":"2603","name":"District de Porrentruy"},"canton":{"key":"26","code":"JU","name":"Jura"},"status":"Real"},{"key":"10023504","name":"Impasse des Mésanges","postalCode":"1784","locality":"Courtepin","commune":{"key":"2254","name":"Courtepin","shortName":"Courtepin"},"district":{"key":"1005","name":"Bezirk See / District du Lac"},"canton":{"key":"10","code":"FR","name":"Fribourg / Freiburg"},"status":"Real"},{"key":"10078553","name":"Impasse des Tilleuls","postalCode":"2926","locality":"Boncourt","commune":{"key":"6774","name":"Boncourt","shortName":"Boncourt"},"district":{"key":"2603","name":"District de Porrentruy"},"canton":{"key":"26","code":"JU","name":"Jura"},"status":"Real"},{"key":"10079507","name":"Impasse du Chavon-Dessous","postalCode":"2926","locality":"Boncourt","commune":{"key":"6774","name":"Boncourt","shortName":"Boncourt"},"district":{"key":"2603","name":"District de Porrentruy"},"canton":{"key":"26","code":"JU","name":"Jura"},"status":"Real"},{"key":"10161077","name":"Impasse du Clos","postalCode":"2852","locality":"Courtételle","commune":{"key":"6710","name":"Courtételle","shortName":"Courtételle"},"district":{"key":"2601","name":"District de Delémont"},"canton":{"key":"26","code":"JU","name":"Jura"},"status":"Real"},{"key":"10086281","name":"Impasse du Cuillerey","postalCode":"1784","locality":"Courtepin","commune":{"key":"2254","name":"Courtepin","shortName":"Courtepin"},"district":{"key":"1005","name":"Bezirk See / District du Lac"},"canton":{"key":"10","code":"FR","name":"Fribourg / Freiburg"},"status":"Real"},{"key":"10181084","name":"Impasse du Verger","postalCode":"1784","locality":"Courtepin","commune":{"key":"2254","name":"Courtepin","shortName":"Courtepin"},"district":{"key":"1005","name":"Bezirk See / District du Lac"},"canton":{"key":"10","code":"FR","name":"Fribourg / Freiburg"},"status":"Real"},{"key":"10208840","name":"Impasse du Ziger","postalCode":"1784","locality":"Courtepin","commune":{"key":"2254","name":"Courtepin","shortName":"Courtepin"},"district":{"key":"1005","name":"Bezirk See / District du Lac"},"canton":{"key":"10","code":"FR","name":"Fribourg / Freiburg"},"status":"Real"},{"key":"10053489","name":"Impasse Saint-Michel","postalCode":"2926","locality":"Boncourt","commune":{"key":"6774","name":"Boncourt","shortName":"Boncourt"},"district":{"key":"2603","name":"District de Porrentruy"},"canton":{"key":"26","code":"JU","name":"Jura"},"status":"Real"},{"key":"10223543","name":"Impasse sous la Ville","postalCode":"2926","locality":"Boncourt","commune":{"key":"6774","name":"Boncourt","shortName":"Boncourt"},"district":{"key":"2603","name":"District de Porrentruy"},"canton":{"key":"26","code":"JU","name":"Jura"},"status":"Real"},{"key":"10086283","name":"Industriestrasse / Route de l'Industrie","postalCode":"1784","locality":"Courtepin","commune":{"key":"2254","name":"Courtepin","shortName":"Courtepin"},"district":{"key":"1005","name":"Bezirk See / District du Lac"},"canton":{"key":"10","code":"FR","name":"Fribourg / Freiburg"},"status":"Real"},{"key":"10086283","name":"Industriestrasse / Route de l'Industrie","postalCode":"1791","locality":"Courtaman","commune":{"key":"2254","name":"Courtepin","shortName":"Courtepin"},"district":{"key":"1005","name":"Bezirk See / District du Lac"},"canton":{"key":"10","code":"FR","name":"Fribourg / Freiburg"},"status":"Real"},{"key":"10072691","name":"Kapellweg / Chemin de la Chapelle","postalCode":"1791","locality":"Courtaman","commune":{"key":"2254","name":"Courtepin","shortName":"Courtepin"},"district":{"key":"1005","name":"Bezirk See / District du Lac"},"canton":{"key":"10","code":"FR","name":"Fribourg / Freiburg"},"status":"Real"},{"key":"10098173","name":"Kreuzstrasse / Route de la Croix","postalCode":"1791","locality":"Courtaman","commune":{"key":"2254","name":"Courtepin","shortName":"Courtepin"},"district":{"key":"1005","name":"Bezirk See / District du Lac"},"canton":{"key":"10","code":"FR","name":"Fribourg / Freiburg"},"status":"Real"},{"key":"10077138","name":"La Banderatte","postalCode":"2905","locality":"Courtedoux","commune":{"key":"6785","name":"Courtedoux","shortName":"Courtedoux"},"district":{"key":"2603","name":"District de Porrentruy"},"canton":{"key":"26","code":"JU","name":"Jura"},"status":"Real"},{"key":"10077143","name":"La Basse-Fin","postalCode":"2923","locality":"Courtemaîche","commune":{"key":"6807","name":"Basse-Allaine","shortName":"Basse-Allaine"},"district":{"key":"2603","name":"District de Porrentruy"},"canton":{"key":"26","code":"JU","name":"Jura"},"status":"Real"},{"key":"10079663","name":"La Béray","postalCode":"2732","locality":"Saicourt","commune":{"key":"706","name":"Saicourt","shortName":"Saicourt"},"district":{"key":"241","name":"Arrondissement administratif Jura bernois"},"canton":{"key":"2","code":"BE","name":"Bern / Berne"},"status":"Real"},{"key":"10210831","name":"La Bergerie","postalCode":"2738","locality":"Court","commune":{"key":"690","name":"Court","shortName":"Court"},"district":{"key":"241","name":"Arrondissement administratif Jura bernois"},"canton":{"key":"2","code":"BE","name":"Bern / Berne"},"status":"Real"},{"key":"10134762","name":"La Bioleire","postalCode":"1721","locality":"Courtion","commune":{"key":"2272","name":"Misery-Courtion","shortName":"Misery-Courtion"},"district":{"key":"1005","name":"Bezirk See / District du Lac"},"canton":{"key":"10","code":"FR","name":"Fribourg / Freiburg"},"status":"Real"},{"key":"10065404","name":"La Blanche","postalCode":"2608","locality":"Montagne-de-Courtelary","commune":{"key":"434","name":"Courtelary","shortName":"Courtelary"},"district":{"key":"241","name":"Arrondissement administratif Jura bernois"},"canton":{"key":"2","code":"BE","name":"Bern / Berne"},"status":"Real"},{"key":"10210832","name":"La Bluai","postalCode":"2738","locality":"Court","commune":{"key":"690","name":"Court","shortName":"Court"},"district":{"key":"241","name":"Arrondissement administratif Jura bernois"},"canton":{"key":"2","code":"BE","name":"Bern / Berne"},"status":"Real"},{"key":"10049399","name":"La Chaive","postalCode":"2905","locality":"Courtedoux","commune":{"key":"6785","name":"Courtedoux","shortName":"Courtedoux"},"district":{"key":"2603","name":"District de Porrentruy"},"canton":{"key":"26","code":"JU","name":"Jura"},"status":"Real"},{"key":"10077914","name":"La Chaive","postalCode":"2943","locality":"Vendlincourt","commune":{"key":"6806","name":"Vendlincourt","shortName":"Vendlincourt"},"district":{"key":"2603","name":"District de Porrentruy"},"canton":{"key":"26","code":"JU","name":"Jura"},"status":"Real"},{"key":"10088363","name":"La Châtelaine","postalCode":"2608","locality":"Courtelary","commune":{"key":"434","name":"Courtelary","shortName":"Courtelary"},"district":{"key":"241","name":"Arrondissement administratif Jura bernois"},"canton":{"key":"2","code":"BE","name":"Bern / Berne"},"status":"Real"},{"key":"10114942","name":"La Ciba","postalCode":"1721","locality":"Courtion","commune":{"key":"2272","name":"Misery-Courtion","shortName":"Misery-Courtion"},"district":{"key":"1005","name":"Bezirk See / District du Lac"},"canton":{"key":"10","code":"FR","name":"Fribourg / Freiburg"},"status":"Real"},{"key":"10100914","name":"La Coie","postalCode":"2943","locality":"Vendlincourt","commune":{"key":"6806","name":"Vendlincourt","shortName":"Vendlincourt"},"district":{"key":"2603","name":"District de Porrentruy"},"canton":{"key":"26","code":"JU","name":"Jura"},"status":"Real"},{"key":"10169128","name":"La Colline","postalCode":"1784","locality":"Courtepin","commune":{"key":"2254","name":"Courtepin","shortName":"Courtepin"},"district":{"key":"1005","name":"Bezirk See / District du Lac"},"canton":{"key":"10","code":"FR","name":"Fribourg / Freiburg"},"status":"Real"},{"key":"10183710","name":"La Combatte","postalCode":"2905","locality":"Courtedoux","commune":{"key":"6785","name":"Courtedoux","shortName":"Courtedoux"},"district":{"key":"2603","name":"District de Porrentruy"},"canton":{"key":"26","code":"JU","name":"Jura"},"status":"Real"},{"key":"10111649","name":"La Combe","postalCode":"2889","locality":"Ocourt","commune":{"key":"6808","name":"Clos du Doubs","shortName":"Clos du Doubs"},"district":{"key":"2603","name":"District de Porrentruy"},"canton":{"key":"26","code":"JU","name":"Jura"},"status":"Real"},{"key":"10223458","name":"La Combe Renard","postalCode":"2904","locality":"Bressaucourt","commune":{"key":"6790","name":"Fontenais","shortName":"Fontenais"},"district":{"key":"2603","name":"District de Porrentruy"},"canton":{"key":"26","code":"JU","name":"Jura"},"status":"Real"},{"key":"10254815","name":"La Connai","postalCode":"2856","locality":"Boécourt","commune":{"key":"6702","name":"Boécourt","shortName":"Boécourt"},"district":{"key":"2601","name":"District de Delémont"},"canton":{"key":"26","code":"JU","name":"Jura"},"status":"Real"},{"key":"10241700","name":"La Côte","postalCode":"1721","locality":"Courtion","commune":{"key":"2272","name":"Misery-Courtion","shortName":"Misery-Courtion"},"district":{"key":"1005","name":"Bezirk See / District du Lac"},"canton":{"key":"10","code":"FR","name":"Fribourg / Freiburg"},"status":"Real"},{"key":"10047921","name":"La Côte","postalCode":"2943","locality":"Vendlincourt","commune":{"key":"6806","name":"Vendlincourt","shortName":"Vendlincourt"},"district":{"key":"2603","name":"District de Porrentruy"},"canton":{"key":"26","code":"JU","name":"Jura"},"status":"Real"},{"key":"10078226","name":"La Côte","postalCode":"2953","locality":"Fregiécourt","commune":{"key":"6810","name":"La Baroche","shortName":"La Baroche"},"district":{"key":"2603","name":"District de Porrentruy"},"canton":{"key":"26","code":"JU","name":"Jura"},"status":"Real"},{"key":"10145334","name":"La Côte aux Moines","postalCode":"2923","locality":"Courtemaîche","commune":{"key":"6807","name":"Basse-Allaine","shortName":"Basse-Allaine"},"district":{"key":"2603","name":"District de Porrentruy"},"canton":{"key":"26","code":"JU","name":"Jura"},"status":"Real"},{"key":"10164369","name":"La Courtequeue","postalCode":"2856","locality":"Boécourt","commune":{"key":"6702","name":"Boécourt","shortName":"Boécourt"},"district":{"key":"2601","name":"District de Delémont"},"canton":{"key":"26","code":"JU","name":"Jura"},"status":"Real"},{"key":"10254821","name":"La Courtine","postalCode":"2856","locality":"Boécourt","commune":{"key":"6702","name":"Boécourt","shortName":"Boécourt"},"district":{"key":"2601","name":"District de Delémont"},"canton":{"key":"26","code":"JU","name":"Jura"},"status":"Real"},{"key":"10063093","name":"La Croisée","postalCode":"2854","locality":"Bassecourt","commune":{"key":"6729","name":"Haute-Sorne","shortName":"Haute-Sorne"},"district":{"key":"2601","name":"District de Delémont"},"canton":{"key":"26","code":"JU","name":"Jura"},"status":"Real"},{"key":"10221295","name":"Lac Vert","postalCode":"2738","locality":"Court","commune":{"key":"690","name":"Court","shortName":"Court"},"district":{"key":"241","name":"Arrondissement administratif Jura bernois"},"canton":{"key":"2","code":"BE","name":"Bern / Berne"},"status":"Real"},{"key":"10217165","name":"La Fenette","postalCode":"2608","locality":"Montagne-de-Courtelary","commune":{"key":"434","name":"Courtelary","shortName":"Courtelary"},"district":{"key":"241","name":"Arrondissement administratif Jura bernois"},"canton":{"key":"2","code":"BE","name":"Bern / Berne"},"status":"Real"},{"key":"10065405","name":"La Fontaine","postalCode":"2608","locality":"Courtelary","commune":{"key":"434","name":"Courtelary","shortName":"Courtelary"},"district":{"key":"241","name":"Arrondissement administratif Jura bernois"},"canton":{"key":"2","code":"BE","name":"Bern / Berne"},"status":"Real"},{"key":"10177669","name":"La Forge","postalCode":"2608","locality":"Courtelary","commune":{"key":"434","name":"Courtelary","shortName":"Courtelary"},"district":{"key":"241","name":"Arrondissement administratif Jura bernois"},"canton":{"key":"2","code":"BE","name":"Bern / Berne"},"status":"Real"},{"key":"10107897","name":"La Grande Fin","postalCode":"1784","locality":"Courtepin","commune":{"key":"2254","name":"Courtepin","shortName":"Courtepin"},"district":{"key":"1005","name":"Bezirk See / District du Lac"},"canton":{"key":"10","code":"FR","name":"Fribourg / Freiburg"},"status":"Real"},{"key":"10252127","name":"La Gravière","postalCode":"1721","locality":"Courtion","commune":{"key":"2272","name":"Misery-Courtion","shortName":"Misery-Courtion"},"district":{"key":"1005","name":"Bezirk See / District du Lac"},"canton":{"key":"10","code":"FR","name":"Fribourg / Freiburg"},"status":"Real"},{"key":"10049469","name":"La Grosse Joux","postalCode":"2889","locality":"Ocourt","commune":{"key":"6808","name":"Clos du Doubs","shortName":"Clos du Doubs"},"district":{"key":"2603","name":"District de Porrentruy"},"canton":{"key":"26","code":"JU","name":"Jura"},"status":"Real"},{"key":"10223380","name":"La Ladatte","postalCode":"2907","locality":"Rocourt","commune":{"key":"6809","name":"Haute-Ajoie","shortName":"Haute-Ajoie"},"district":{"key":"2603","name":"District de Porrentruy"},"canton":{"key":"26","code":"JU","name":"Jura"},"status":"Real"},{"key":"10223547","name":"La Lève","postalCode":"2926","locality":"Boncourt","commune":{"key":"6774","name":"Boncourt","shortName":"Boncourt"},"district":{"key":"2603","name":"District de Porrentruy"},"canton":{"key":"26","code":"JU","name":"Jura"},"status":"Real"},{"key":"10152667","name":"La Louvière","postalCode":"2953","locality":"Fregiécourt","commune":{"key":"6810","name":"La Baroche","shortName":"La Baroche"},"district":{"key":"2603","name":"District de Porrentruy"},"canton":{"key":"26","code":"JU","name":"Jura"},"status":"Real"},{"key":"10223574","name":"La Lovère","postalCode":"2854","locality":"Bassecourt","commune":{"key":"6729","name":"Haute-Sorne","shortName":"Haute-Sorne"},"district":{"key":"2601","name":"District de Delémont"},"canton":{"key":"26","code":"JU","name":"Jura"},"status":"Real"},{"key":"10223384","name":"La Maletière","postalCode":"2907","locality":"Rocourt","commune":{"key":"6809","name":"Haute-Ajoie","shortName":"Haute-Ajoie"},"district":{"key":"2603","name":"District de Porrentruy"},"canton":{"key":"26","code":"JU","name":"Jura"},"status":"Real"},{"key":"10100758","name":"La Maltière","postalCode":"2904","locality":"Bressaucourt","commune":{"key":"6790","name":"Fontenais","shortName":"Fontenais"},"district":{"key":"2603","name":"District de Porrentruy"},"canton":{"key":"26","code":"JU","name":"Jura"},"status":"Real"},{"key":"10089636","name":"La Miège","postalCode":"2608","locality":"Montagne-de-Courtelary","commune":{"key":"434","name":"Courtelary","shortName":"Courtelary"},"district":{"key":"241","name":"Arrondissement administratif Jura bernois"},"canton":{"key":"2","code":"BE","name":"Bern / Berne"},"status":"Real"},{"key":"10183713","name":"La Motte","postalCode":"2889","locality":"Ocourt","commune":{"key":"6808","name":"Clos du Doubs","shortName":"Clos du Doubs"},"district":{"key":"2603","name":"District de Porrentruy"},"canton":{"key":"26","code":"JU","name":"Jura"},"status":"Real"},{"key":"10023505","name":"La Mullera","postalCode":"1784","locality":"Courtepin","commune":{"key":"2254","name":"Courtepin","shortName":"Courtepin"},"district":{"key":"1005","name":"Bezirk See / District du Lac"},"canton":{"key":"10","code":"FR","name":"Fribourg / Freiburg"},"status":"Real"},{"key":"10223722","name":"La Pâture","postalCode":"2889","locality":"Ocourt","commune":{"key":"6808","name":"Clos du Doubs","shortName":"Clos du Doubs"},"district":{"key":"2603","name":"District de Porrentruy"},"canton":{"key":"26","code":"JU","name":"Jura"},"status":"Real"},{"key":"10005071","name":"La Planchette","postalCode":"2608","locality":"Courtelary","commune":{"key":"434","name":"Courtelary","shortName":"Courtelary"},"district":{"key":"241","name":"Arrondissement administratif Jura bernois"},"canton":{"key":"2","code":"BE","name":"Bern / Berne"},"status":"Real"},{"key":"10129438","name":"La Prairie","postalCode":"2608","locality":"Courtelary","commune":{"key":"434","name":"Courtelary","shortName":"Courtelary"},"district":{"key":"241","name":"Arrondissement administratif Jura bernois"},"canton":{"key":"2","code":"BE","name":"Bern / Berne"},"status":"Real"},{"key":"10053613","name":"La Prairie","postalCode":"2852","locality":"Courtételle","commune":{"key":"6710","name":"Courtételle","shortName":"Courtételle"},"district":{"key":"2601","name":"District de Delémont"},"canton":{"key":"26","code":"JU","name":"Jura"},"status":"Real"},{"key":"10103642","name":"La Praye","postalCode":"2608","locality":"Courtelary","commune":{"key":"434","name":"Courtelary","shortName":"Courtelary"},"district":{"key":"241","name":"Arrondissement administratif Jura bernois"},"canton":{"key":"2","code":"BE","name":"Bern / Berne"},"status":"Real"},{"key":"10223551","name":"La Queue au Loup","postalCode":"2926","locality":"Boncourt","commune":{"key":"6774","name":"Boncourt","shortName":"Boncourt"},"district":{"key":"2603","name":"District de Porrentruy"},"canton":{"key":"26","code":"JU","name":"Jura"},"status":"Real"},{"key":"10125372","name":"La Raveratte","postalCode":"2738","locality":"Court","commune":{"key":"690","name":"Court","shortName":"Court"},"district":{"key":"241","name":"Arrondissement administratif Jura bernois"},"canton":{"key":"2","code":"BE","name":"Bern / Berne"},"status":"Real"},{"key":"10057847","name":"La Ruai","postalCode":"2738","locality":"Court","commune":{"key":"690","name":"Court","shortName":"Court"},"district":{"key":"241","name":"Arrondissement administratif Jura bernois"},"canton":{"key":"2","code":"BE","name":"Bern / Berne"},"status":"Real"},{"key":"10174442","name":"La Ruatte","postalCode":"2904","locality":"Bressaucourt","commune":{"key":"6790","name":"Fontenais","shortName":"Fontenais"},"district":{"key":"2603","name":"District de Porrentruy"},"canton":{"key":"26","code":"JU","name":"Jura"},"status":"Real"},{"key":"10053491","name":"La Ruatte","postalCode":"2926","locality":"Boncourt","commune":{"key":"6774","name":"Boncourt","shortName":"Boncourt"},"district":{"key":"2603","name":"District de Porrentruy"},"canton":{"key":"26","code":"JU","name":"Jura"},"status":"Real"},{"key":"10050283","name":"Mavaloz","postalCode":"2904","locality":"Bressaucourt","commune":{"key":"6790","name":"Fontenais","shortName":"Fontenais"},"district":{"key":"2603","name":"District de Porrentruy"},"canton":{"key":"26","code":"JU","name":"Jura"},"status":"Real"},{"key":"10220607","name":"Métairie de Graffenried","postalCode":"2608","locality":"Montagne-de-Courtelary","commune":{"key":"434","name":"Courtelary","shortName":"Courtelary"},"district":{"key":"241","name":"Arrondissement administratif Jura bernois"},"canton":{"key":"2","code":"BE","name":"Bern / Berne"},"status":"Real"},{"key":"10206421","name":"Métairie du Milieu","postalCode":"2608","locality":"Montagne-de-Courtelary","commune":{"key":"434","name":"Courtelary","shortName":"Courtelary"},"district":{"key":"241","name":"Arrondissement administratif Jura bernois"},"canton":{"key":"2","code":"BE","name":"Bern / Berne"},"status":"Real"},{"key":"10223875","name":"Métairie du Mont Dessous","postalCode":"2852","locality":"Courtételle","commune":{"key":"6710","name":"Courtételle","shortName":"Courtételle"},"district":{"key":"2601","name":"District de Delémont"},"canton":{"key":"26","code":"JU","name":"Jura"},"status":"Real"},{"key":"10223879","name":"Métairie du Mont Dessus","postalCode":"2852","locality":"Courtételle","commune":{"key":"6710","name":"Courtételle","shortName":"Courtételle"},"district":{"key":"2601","name":"District de Delémont"},"canton":{"key":"26","code":"JU","name":"Jura"},"status":"Real"},{"key":"10089637","name":"Métairie du Prince","postalCode":"2608","locality":"Montagne-de-Courtelary","commune":{"key":"434","name":"Courtelary","shortName":"Courtelary"},"district":{"key":"241","name":"Arrondissement administratif Jura bernois"},"canton":{"key":"2","code":"BE","name":"Bern / Berne"},"status":"Real"},{"key":"10065409","name":"Mi-Côte","postalCode":"2608","locality":"Montagne-de-Courtelary","commune":{"key":"434","name":"Courtelary","shortName":"Courtelary"},"district":{"key":"241","name":"Arrondissement administratif Jura bernois"},"canton":{"key":"2","code":"BE","name":"Bern / Berne"},"status":"Real"},{"key":"10077144","name":"Milieu du Village","postalCode":"2923","locality":"Courtemaîche","commune":{"key":"6807","name":"Basse-Allaine","shortName":"Basse-Allaine"},"district":{"key":"2603","name":"District de Porrentruy"},"canton":{"key":"26","code":"JU","name":"Jura"},"status":"Real"},{"key":"10178393","name":"Milieu du Village","postalCode":"2943","locality":"Vendlincourt","commune":{"key":"6806","name":"Vendlincourt","shortName":"Vendlincourt"},"district":{"key":"2603","name":"District de Porrentruy"},"canton":{"key":"26","code":"JU","name":"Jura"},"status":"Real"},{"key":"10174565","name":"Miserez-Dessous","postalCode":"2946","locality":"Miécourt","commune":{"key":"6810","name":"La Baroche","shortName":"La Baroche"},"district":{"key":"2603","name":"District de Porrentruy"},"canton":{"key":"26","code":"JU","name":"Jura"},"status":"Real"},{"key":"10252157","name":"Misery","postalCode":"1721","locality":"Courtion","commune":{"key":"2272","name":"Misery-Courtion","shortName":"Misery-Courtion"},"district":{"key":"1005","name":"Bezirk See / District du Lac"},"canton":{"key":"10","code":"FR","name":"Fribourg / Freiburg"},"status":"Real"},{"key":"10195043","name":"Montes des Corvées","postalCode":"2732","locality":"Saicourt","commune":{"key":"706","name":"Saicourt","shortName":"Saicourt"},"district":{"key":"241","name":"Arrondissement administratif Jura bernois"},"canton":{"key":"2","code":"BE","name":"Bern / Berne"},"status":"Real"},{"key":"10153511","name":"Montgeneaux","postalCode":"2926","locality":"Boncourt","commune":{"key":"6774","name":"Boncourt","shortName":"Boncourt"},"district":{"key":"2603","name":"District de Porrentruy"},"canton":{"key":"26","code":"JU","name":"Jura"},"status":"Real"},{"key":"10223709","name":"Montpalais","postalCode":"2889","locality":"Ocourt","commune":{"key":"6808","name":"Clos du Doubs","shortName":"Clos du Doubs"},"district":{"key":"2603","name":"District de Porrentruy"},"canton":{"key":"26","code":"JU","name":"Jura"},"status":"Real"},{"key":"10049472","name":"Monturban","postalCode":"2889","locality":"Ocourt","commune":{"key":"6808","name":"Clos du Doubs","shortName":"Clos du Doubs"},"district":{"key":"2603","name":"District de Porrentruy"},"canton":{"key":"26","code":"JU","name":"Jura"},"status":"Real"},{"key":"10049473","name":"Montvoie","postalCode":"2889","locality":"Ocourt","commune":{"key":"6808","name":"Clos du Doubs","shortName":"Clos du Doubs"},"district":{"key":"2603","name":"District de Porrentruy"},"canton":{"key":"26","code":"JU","name":"Jura"},"status":"Real"},{"key":"10220616","name":"Mörigenberg","postalCode":"2608","locality":"Montagne-de-Courtelary","commune":{"key":"434","name":"Courtelary","shortName":"Courtelary"},"district":{"key":"241","name":"Arrondissement administratif Jura bernois"},"canton":{"key":"2","code":"BE","name":"Bern / Berne"},"status":"Real"},{"key":"10223737","name":"Morte Terre","postalCode":"2953","locality":"Fregiécourt","commune":{"key":"6810","name":"La Baroche","shortName":"La Baroche"},"district":{"key":"2603","name":"District de Porrentruy"},"canton":{"key":"26","code":"JU","name":"Jura"},"status":"Real"},{"key":"10086277","name":"Mottastrasse / Route de la Motta","postalCode":"1791","locality":"Courtaman","commune":{"key":"2254","name":"Courtepin","shortName":"Courtepin"},"district":{"key":"1005","name":"Bezirk See / District du Lac"},"canton":{"key":"10","code":"FR","name":"Fribourg / Freiburg"},"status":"Real"},{"key":"10251860","name":"Moulin du Doubs","postalCode":"2889","locality":"Ocourt","commune":{"key":"6808","name":"Clos du Doubs","shortName":"Clos du Doubs"},"district":{"key":"2603","name":"District de Porrentruy"},"canton":{"key":"26","code":"JU","name":"Jura"},"status":"Real"},{"key":"10188365","name":"Murtenstrasse / Route de Morat","postalCode":"1784","locality":"Courtepin","commune":{"key":"2254","name":"Courtepin","shortName":"Courtepin"},"district":{"key":"1005","name":"Bezirk See / District du Lac"},"canton":{"key":"10","code":"FR","name":"Fribourg / Freiburg"},"status":"Real"},{"key":"10188365","name":"Murtenstrasse / Route de Morat","postalCode":"1791","locality":"Courtaman","commune":{"key":"2254","name":"Courtepin","shortName":"Courtepin"},"district":{"key":"1005","name":"Bezirk See / District du Lac"},"canton":{"key":"10","code":"FR","name":"Fribourg / Freiburg"},"status":"Real"},{"key":"10252084","name":"Nitou","postalCode":"1721","locality":"Courtion","commune":{"key":"2272","name":"Misery-Courtion","shortName":"Misery-Courtion"},"district":{"key":"1005","name":"Bezirk See / District du Lac"},"canton":{"key":"10","code":"FR","name":"Fribourg / Freiburg"},"status":"Real"},{"key":"10023501","name":"Obstgartenstrasse / Route des Vergers","postalCode":"1791","locality":"Courtaman","commune":{"key":"2254","name":"Courtepin","shortName":"Courtepin"},"district":{"key":"1005","name":"Bezirk See / District du Lac"},"canton":{"key":"10","code":"FR","name":"Fribourg / Freiburg"},"status":"Real"},{"key":"10219471","name":"Pâturage de l'Envers","postalCode":"2608","locality":"Montagne-de-Courtelary","commune":{"key":"434","name":"Courtelary","shortName":"Courtelary"},"district":{"key":"241","name":"Arrondissement administratif Jura bernois"},"canton":{"key":"2","code":"BE","name":"Bern / Berne"},"status":"Real"},{"key":"10221310","name":"Pâturage de l'Envers","postalCode":"2738","locality":"Court","commune":{"key":"690","name":"Court","shortName":"Court"},"district":{"key":"241","name":"Arrondissement administratif Jura bernois"},"canton":{"key":"2","code":"BE","name":"Bern / Berne"},"status":"Real"},{"key":"10223619","name":"Pâturage des Melnats","postalCode":"2854","locality":"Bassecourt","commune":{"key":"6729","name":"Haute-Sorne","shortName":"Haute-Sorne"},"district":{"key":"2601","name":"District de Delémont"},"canton":{"key":"26","code":"JU","name":"Jura"},"status":"Real"},{"key":"10223734","name":"Pesses des Vernes","postalCode":"2889","locality":"Ocourt","commune":{"key":"6808","name":"Clos du Doubs","shortName":"Clos du Doubs"},"district":{"key":"2603","name":"District de Porrentruy"},"canton":{"key":"26","code":"JU","name":"Jura"},"status":"Real"},{"key":"10049474","name":"Petit Cotay","postalCode":"2889","locality":"Ocourt","commune":{"key":"6808","name":"Clos du Doubs","shortName":"Clos du Doubs"},"district":{"key":"2603","name":"District de Porrentruy"},"canton":{"key":"26","code":"JU","name":"Jura"},"status":"Real"},{"key":"10209589","name":"Petite Douane","postalCode":"2608","locality":"Montagne-de-Courtelary","commune":{"key":"434","name":"Courtelary","shortName":"Courtelary"},"district":{"key":"241","name":"Arrondissement administratif Jura bernois"},"canton":{"key":"2","code":"BE","name":"Bern / Berne"},"status":"Real"},{"key":"10223742","name":"Peut pré","postalCode":"2953","locality":"Fregiécourt","commune":{"key":"6810","name":"La Baroche","shortName":"La Baroche"},"district":{"key":"2603","name":"District de Porrentruy"},"canton":{"key":"26","code":"JU","name":"Jura"},"status":"Real"},{"key":"10219474","name":"Piémont","postalCode":"2608","locality":"Courtelary","commune":{"key":"434","name":"Courtelary","shortName":"Courtelary"},"district":{"key":"241","name":"Arrondissement administratif Jura bernois"},"canton":{"key":"2","code":"BE","name":"Bern / Berne"},"status":"Real"},{"key":"10114501","name":"Piénibon","postalCode":"2608","locality":"Montagne-de-Courtelary","commune":{"key":"434","name":"Courtelary","shortName":"Courtelary"},"district":{"key":"241","name":"Arrondissement administratif Jura bernois"},"canton":{"key":"2","code":"BE","name":"Bern / Berne"},"status":"Real"},{"key":"10049444","name":"Place de la Baroche","postalCode":"2953","locality":"Fregiécourt","commune":{"key":"6810","name":"La Baroche","shortName":"La Baroche"},"district":{"key":"2603","name":"District de Porrentruy"},"canton":{"key":"26","code":"JU","name":"Jura"},"status":"Real"},{"key":"10089634","name":"Place de la Gare","postalCode":"2608","locality":"Courtelary","commune":{"key":"434","name":"Courtelary","shortName":"Courtelary"},"district":{"key":"241","name":"Arrondissement administratif Jura bernois"},"canton":{"key":"2","code":"BE","name":"Bern / Berne"},"status":"Real"},{"key":"10157689","name":"Place de l'Eglise","postalCode":"2926","locality":"Boncourt","commune":{"key":"6774","name":"Boncourt","shortName":"Boncourt"},"district":{"key":"2603","name":"District de Porrentruy"},"canton":{"key":"26","code":"JU","name":"Jura"},"status":"Real"},{"key":"10223558","name":"Place des Frères Breton","postalCode":"2926","locality":"Boncourt","commune":{"key":"6774","name":"Boncourt","shortName":"Boncourt"},"district":{"key":"2603","name":"District de Porrentruy"},"canton":{"key":"26","code":"JU","name":"Jura"},"status":"Real"},{"key":"10223563","name":"Place du 23-Juin","postalCode":"2926","locality":"Boncourt","commune":{"key":"6774","name":"Boncourt","shortName":"Boncourt"},"district":{"key":"2603","name":"District de Porrentruy"},"canton":{"key":"26","code":"JU","name":"Jura"},"status":"Real"},{"key":"10195046","name":"Plain de Prélay","postalCode":"2732","locality":"Saicourt","commune":{"key":"706","name":"Saicourt","shortName":"Saicourt"},"district":{"key":"241","name":"Arrondissement administratif Jura bernois"},"canton":{"key":"2","code":"BE","name":"Bern / Berne"},"status":"Real"},{"key":"10223754","name":"Plainmont sur la Vie","postalCode":"2946","locality":"Miécourt","commune":{"key":"6810","name":"La Baroche","shortName":"La Baroche"},"district":{"key":"2603","name":"District de Porrentruy"},"canton":{"key":"26","code":"JU","name":"Jura"},"status":"Real"},{"key":"10152649","name":"Plain-Tertre","postalCode":"2904","locality":"Bressaucourt","commune":{"key":"6790","name":"Fontenais","shortName":"Fontenais"},"district":{"key":"2603","name":"District de Porrentruy"},"canton":{"key":"26","code":"JU","name":"Jura"},"status":"Real"},{"key":"10221315","name":"Plan Pré","postalCode":"2738","locality":"Court","commune":{"key":"690","name":"Court","shortName":"Court"},"district":{"key":"241","name":"Arrondissement administratif Jura bernois"},"canton":{"key":"2","code":"BE","name":"Bern / Berne"},"status":"Real"},{"key":"10223568","name":"Plate-forme Douanière","postalCode":"2926","locality":"Boncourt","commune":{"key":"6774","name":"Boncourt","shortName":"Boncourt"},"district":{"key":"2603","name":"District de Porrentruy"},"canton":{"key":"26","code":"JU","name":"Jura"},"status":"Real"},{"key":"10065411","name":"Pont de Pierre","postalCode":"2608","locality":"Courtelary","commune":{"key":"434","name":"Courtelary","shortName":"Courtelary"},"district":{"key":"241","name":"Arrondissement administratif Jura bernois"},"canton":{"key":"2","code":"BE","name":"Bern / Berne"},"status":"Real"},{"key":"10078241","name":"Pontoye","postalCode":"2889","locality":"Ocourt","commune":{"key":"6808","name":"Clos du Doubs","shortName":"Clos du Doubs"},"district":{"key":"2603","name":"District de Porrentruy"},"canton":{"key":"26","code":"JU","name":"Jura"},"status":"Real"},{"key":"10134775","name":"Pra d'Avau","postalCode":"1721","locality":"Courtion","commune":{"key":"2272","name":"Misery-Courtion","shortName":"Misery-Courtion"},"district":{"key":"1005","name":"Bezirk See / District du Lac"},"canton":{"key":"10","code":"FR","name":"Fribourg / Freiburg"},"status":"Real"},{"key":"10182834","name":"Praly","postalCode":"1791","locality":"Courtaman","commune":{"key":"2254","name":"Courtepin","shortName":"Courtepin"},"district":{"key":"1005","name":"Bezirk See / District du Lac"},"canton":{"key":"10","code":"FR","name":"Fribourg / Freiburg"},"status":"Real"},{"key":"10134777","name":"Pra-Novy","postalCode":"1721","locality":"Courtion","commune":{"key":"2272","name":"Misery-Courtion","shortName":"Misery-Courtion"},"district":{"key":"1005","name":"Bezirk See / District du Lac"},"canton":{"key":"10","code":"FR","name":"Fribourg / Freiburg"},"status":"Real"},{"key":"10005078","name":"Pré Gauchat","postalCode":"2608","locality":"Courtelary","commune":{"key":"434","name":"Courtelary","shortName":"Courtelary"},"district":{"key":"241","name":"Arrondissement administratif Jura bernois"},"canton":{"key":"2","code":"BE","name":"Bern / Berne"},"status":"Real"},{"key":"10052961","name":"Pré Jean Bolat","postalCode":"2856","locality":"Boécourt","commune":{"key":"6702","name":"Boécourt","shortName":"Boécourt"},"district":{"key":"2601","name":"District de Delémont"},"canton":{"key":"26","code":"JU","name":"Jura"},"status":"Real"},{"key":"10210835","name":"Pré-Richard","postalCode":"2738","locality":"Court","commune":{"key":"690","name":"Court","shortName":"Court"},"district":{"key":"241","name":"Arrondissement administratif Jura bernois"},"canton":{"key":"2","code":"BE","name":"Bern / Berne"},"status":"Real"},{"key":"10210836","name":"Pré-Richard-Dessous","postalCode":"2738","locality":"Court","commune":{"key":"690","name":"Court","shortName":"Court"},"district":{"key":"241","name":"Arrondissement administratif Jura bernois"},"canton":{"key":"2","code":"BE","name":"Bern / Berne"},"status":"Real"},{"key":"10063095","name":"Prés de Velai","postalCode":"2856","locality":"Boécourt","commune":{"key":"6702","name":"Boécourt","shortName":"Boécourt"},"district":{"key":"2601","name":"District de Delémont"},"canton":{"key":"26","code":"JU","name":"Jura"},"status":"Real"},{"key":"10223453","name":"Prés Fleur","postalCode":"2907","locality":"Rocourt","commune":{"key":"6809","name":"Haute-Ajoie","shortName":"Haute-Ajoie"},"district":{"key":"2603","name":"District de Porrentruy"},"canton":{"key":"26","code":"JU","name":"Jura"},"status":"Real"},{"key":"10049475","name":"Pré sous l'Ecluse","postalCode":"2889","locality":"Ocourt","commune":{"key":"6808","name":"Clos du Doubs","shortName":"Clos du Doubs"},"district":{"key":"2603","name":"District de Porrentruy"},"canton":{"key":"26","code":"JU","name":"Jura"},"status":"Real"},{"key":"10121007","name":"Pré sur le Porc","postalCode":"2889","locality":"Ocourt","commune":{"key":"6808","name":"Clos du Doubs","shortName":"Clos du Doubs"},"district":{"key":"2603","name":"District de Porrentruy"},"canton":{"key":"26","code":"JU","name":"Jura"},"status":"Real"},{"key":"10188364","name":"Pré-Vert","postalCode":"1791","locality":"Courtaman","commune":{"key":"2254","name":"Courtepin","shortName":"Courtepin"},"district":{"key":"1005","name":"Bezirk See / District du Lac"},"canton":{"key":"10","code":"FR","name":"Fribourg / Freiburg"},"status":"Real"},{"key":"10005077","name":"Promenade de la Suze","postalCode":"2608","locality":"Courtelary","commune":{"key":"434","name":"Courtelary","shortName":"Courtelary"},"district":{"key":"241","name":"Arrondissement administratif Jura bernois"},"canton":{"key":"2","code":"BE","name":"Bern / Berne"},"status":"Real"},{"key":"10219478","name":"Rainson","postalCode":"2608","locality":"Courtelary","commune":{"key":"434","name":"Courtelary","shortName":"Courtelary"},"district":{"key":"241","name":"Arrondissement administratif Jura bernois"},"canton":{"key":"2","code":"BE","name":"Bern / Berne"},"status":"Real"},{"key":"10185754","name":"Rappigasse / Chemin des Râpes","postalCode":"1791","locality":"Courtaman","commune":{"key":"2254","name":"Courtepin","shortName":"Courtepin"},"district":{"key":"1005","name":"Bezirk See / District du Lac"},"canton":{"key":"10","code":"FR","name":"Fribourg / Freiburg"},"status":"Real"},{"key":"10170572","name":"Rière l'Eglise","postalCode":"2946","locality":"Miécourt","commune":{"key":"6810","name":"La Baroche","shortName":"La Baroche"},"district":{"key":"2603","name":"District de Porrentruy"},"canton":{"key":"26","code":"JU","name":"Jura"},"status":"Real"},{"key":"10223762","name":"Rière les Etangs","postalCode":"2946","locality":"Miécourt","commune":{"key":"6810","name":"La Baroche","shortName":"La Baroche"},"district":{"key":"2603","name":"District de Porrentruy"},"canton":{"key":"26","code":"JU","name":"Jura"},"status":"Real"},{"key":"10022123","name":"Rosenweg / Chemin des Rosiers","postalCode":"1791","locality":"Courtaman","commune":{"key":"2254","name":"Courtepin","shortName":"Courtepin"},"district":{"key":"1005","name":"Bezirk See / District du Lac"},"canton":{"key":"10","code":"FR","name":"Fribourg / Freiburg"},"status":"Real"},{"key":"10047925","name":"Route d'Alle","postalCode":"2943","locality":"Vendlincourt","commune":{"key":"6806","name":"Vendlincourt","shortName":"Vendlincourt"},"district":{"key":"2603","name":"District de Porrentruy"},"canton":{"key":"26","code":"JU","name":"Jura"},"status":"Real"},{"key":"10153788","name":"Route d'Alle","postalCode":"2946","locality":"Miécourt","commune":{"key":"6810","name":"La Baroche","shortName":"La Baroche"},"district":{"key":"2603","name":"District de Porrentruy"},"canton":{"key":"26","code":"JU","name":"Jura"},"status":"Real"},{"key":"10021901","name":"Route d'Avenches","postalCode":"1721","locality":"Courtion","commune":{"key":"2272","name":"Misery-Courtion","shortName":"Misery-Courtion"},"district":{"key":"1005","name":"Bezirk See / District du Lac"},"canton":{"key":"10","code":"FR","name":"Fribourg / Freiburg"},"status":"Real"},{"key":"10082647","name":"Route de Bassecourt","postalCode":"2856","locality":"Boécourt","commune":{"key":"6702","name":"Boécourt","shortName":"Boécourt"},"district":{"key":"2601","name":"District de Delémont"},"canton":{"key":"26","code":"JU","name":"Jura"},"status":"Real"},{"key":"10198028","name":"Route de Boncourt","postalCode":"2923","locality":"Courtemaîche","commune":{"key":"6807","name":"Basse-Allaine","shortName":"Basse-Allaine"},"district":{"key":"2603","name":"District de Porrentruy"},"canton":{"key":"26","code":"JU","name":"Jura"},"status":"Real"},{"key":"10047926","name":"Route de Bonfol","postalCode":"2943","locality":"Vendlincourt","commune":{"key":"6806","name":"Vendlincourt","shortName":"Vendlincourt"},"district":{"key":"2603","name":"District de Porrentruy"},"canton":{"key":"26","code":"JU","name":"Jura"},"status":"Real"},{"key":"10254034","name":"Route de Breilles","postalCode":"1784","locality":"Courtepin","commune":{"key":"2254","name":"Courtepin","shortName":"Courtepin"},"district":{"key":"1005","name":"Bezirk See / District du Lac"},"canton":{"key":"10","code":"FR","name":"Fribourg / Freiburg"},"status":"Real"},{"key":"10198043","name":"Route de Bure","postalCode":"2923","locality":"Courtemaîche","commune":{"key":"6807","name":"Basse-Allaine","shortName":"Basse-Allaine"},"district":{"key":"2603","name":"District de Porrentruy"},"canton":{"key":"26","code":"JU","name":"Jura"},"status":"Real"},{"key":"10116956","name":"Route de Chaluet","postalCode":"2738","locality":"Court","commune":{"key":"690","name":"Court","shortName":"Court"},"district":{"key":"241","name":"Arrondissement administratif Jura bernois"},"canton":{"key":"2","code":"BE","name":"Bern / Berne"},"status":"Real"},{"key":"10167967","name":"Route de Charmoille","postalCode":"2946","locality":"Miécourt","commune":{"key":"6810","name":"La Baroche","shortName":"La Baroche"},"district":{"key":"2603","name":"District de Porrentruy"},"canton":{"key":"26","code":"JU","name":"Jura"},"status":"Real"},{"key":"10053493","name":"Route de Châtillon","postalCode":"2926","locality":"Boncourt","commune":{"key":"6774","name":"Boncourt","shortName":"Boncourt"},"district":{"key":"2603","name":"District de Porrentruy"},"canton":{"key":"26","code":"JU","name":"Jura"},"status":"Real"},{"key":"10153158","name":"Route de Coeuve","postalCode":"2923","locality":"Courtemaîche","commune":{"key":"6807","name":"Basse-Allaine","shortName":"Basse-Allaine"},"district":{"key":"2603","name":"District de Porrentruy"},"canton":{"key":"26","code":"JU","name":"Jura"},"status":"Real"},{"key":"10119124","name":"Route de Coeuve","postalCode":"2943","locality":"Vendlincourt","commune":{"key":"6806","name":"Vendlincourt","shortName":"Vendlincourt"},"district":{"key":"2603","name":"District de Porrentruy"},"canton":{"key":"26","code":"JU","name":"Jura"},"status":"Real"},{"key":"10099624","name":"Route de Courtavon","postalCode":"2943","locality":"Vendlincourt","commune":{"key":"6806","name":"Vendlincourt","shortName":"Vendlincourt"},"district":{"key":"2603","name":"District de Porrentruy"},"canton":{"key":"26","code":"JU","name":"Jura"},"status":"Real"},{"key":"10174566","name":"Route de Courtavon","postalCode":"2946","locality":"Miécourt","commune":{"key":"6810","name":"La Baroche","shortName":"La Baroche"},"district":{"key":"2603","name":"District de Porrentruy"},"canton":{"key":"26","code":"JU","name":"Jura"},"status":"Real"},{"key":"10078554","name":"Route de Déridez","postalCode":"2926","locality":"Boncourt","commune":{"key":"6774","name":"Boncourt","shortName":"Boncourt"},"district":{"key":"2603","name":"District de Porrentruy"},"canton":{"key":"26","code":"JU","name":"Jura"},"status":"Real"},{"key":"10238638","name":"Route de Fahy","postalCode":"2907","locality":"Rocourt","commune":{"key":"6809","name":"Haute-Ajoie","shortName":"Haute-Ajoie"},"district":{"key":"2603","name":"District de Porrentruy"},"canton":{"key":"26","code":"JU","name":"Jura"},"status":"Real"},{"key":"10100745","name":"Route de France","postalCode":"2926","locality":"Boncourt","commune":{"key":"6774","name":"Boncourt","shortName":"Boncourt"},"district":{"key":"2603","name":"District de Porrentruy"},"canton":{"key":"26","code":"JU","name":"Jura"},"status":"Real"},{"key":"10185748","name":"Route de Fribourg","postalCode":"1784","locality":"Courtepin","commune":{"key":"2254","name":"Courtepin","shortName":"Courtepin"},"district":{"key":"1005","name":"Bezirk See / District du Lac"},"canton":{"key":"10","code":"FR","name":"Fribourg / Freiburg"},"status":"Real"},{"key":"10052962","name":"Route de Glovelier","postalCode":"2856","locality":"Boécourt","commune":{"key":"6702","name":"Boécourt","shortName":"Boécourt"},"district":{"key":"2601","name":"District de Delémont"},"canton":{"key":"26","code":"JU","name":"Jura"},"status":"Real"},{"key":"10178057","name":"Route de la Bergerie","postalCode":"1784","locality":"Courtepin","commune":{"key":"2254","name":"Courtepin","shortName":"Courtepin"},"district":{"key":"1005","name":"Bezirk See / District du Lac"},"canton":{"key":"10","code":"FR","name":"Fribourg / Freiburg"},"status":"Real"},{"key":"10254042","name":"Route de la Gare","postalCode":"1784","locality":"Courtepin","commune":{"key":"2254","name":"Courtepin","shortName":"Courtepin"},"district":{"key":"1005","name":"Bezirk See / District du Lac"},"canton":{"key":"10","code":"FR","name":"Fribourg / Freiburg"},"status":"Real"},{"key":"10099590","name":"Route de la Montoie","postalCode":"2953","locality":"Fregiécourt","commune":{"key":"6810","name":"La Baroche","shortName":"La Baroche"},"district":{"key":"2603","name":"District de Porrentruy"},"canton":{"key":"26","code":"JU","name":"Jura"},"status":"Real"},{"key":"10021904","name":"Route de l'Ancien-Poste","postalCode":"1721","locality":"Courtion","commune":{"key":"2272","name":"Misery-Courtion","shortName":"Misery-Courtion"},"district":{"key":"1005","name":"Bezirk See / District du Lac"},"canton":{"key":"10","code":"FR","name":"Fribourg / Freiburg"},"status":"Real"},{"key":"10108639","name":"Route de la Nods","postalCode":"2926","locality":"Boncourt","commune":{"key":"6774","name":"Boncourt","shortName":"Boncourt"},"district":{"key":"2603","name":"District de Porrentruy"},"canton":{"key":"26","code":"JU","name":"Jura"},"status":"Real"},{"key":"10054588","name":"Route de la Queue-au-Loup","postalCode":"2926","locality":"Boncourt","commune":{"key":"6774","name":"Boncourt","shortName":"Boncourt"},"district":{"key":"2603","name":"District de Porrentruy"},"canton":{"key":"26","code":"JU","name":"Jura"},"status":"Real"},{"key":"10195052","name":"Route de la Scierie","postalCode":"2732","locality":"Saicourt","commune":{"key":"706","name":"Saicourt","shortName":"Saicourt"},"district":{"key":"241","name":"Arrondissement administratif Jura bernois"},"canton":{"key":"2","code":"BE","name":"Bern / Berne"},"status":"Real"},{"key":"10163196","name":"Route de la St-Martin","postalCode":"2907","locality":"Rocourt","commune":{"key":"6809","name":"Haute-Ajoie","shortName":"Haute-Ajoie"},"district":{"key":"2603","name":"District de Porrentruy"},"canton":{"key":"26","code":"JU","name":"Jura"},"status":"Real"},{"key":"10023507","name":"Route de l'Ecole","postalCode":"1784","locality":"Courtepin","commune":{"key":"2254","name":"Courtepin","shortName":"Courtepin"},"district":{"key":"1005","name":"Bezirk See / District du Lac"},"canton":{"key":"10","code":"FR","name":"Fribourg / Freiburg"},"status":"Real"},{"key":"10023507","name":"Route de l'Ecole","postalCode":"1791","locality":"Courtaman","commune":{"key":"2254","name":"Courtepin","shortName":"Courtepin"},"district":{"key":"1005","name":"Bezirk See / District du Lac"},"canton":{"key":"10","code":"FR","name":"Fribourg / Freiburg"},"status":"Real"},{"key":"10119969","name":"Route de l'Eglise","postalCode":"1721","locality":"Courtion","commune":{"key":"2272","name":"Misery-Courtion","shortName":"Misery-Courtion"},"district":{"key":"1005","name":"Bezirk See / District du Lac"},"canton":{"key":"10","code":"FR","name":"Fribourg / Freiburg"},"status":"Real"},{"key":"10119970","name":"Route de l'Essert","postalCode":"1721","locality":"Courtion","commune":{"key":"2272","name":"Misery-Courtion","shortName":"Misery-Courtion"},"district":{"key":"1005","name":"Bezirk See / District du Lac"},"canton":{"key":"10","code":"FR","name":"Fribourg / Freiburg"},"status":"Real"},{"key":"10126824","name":"Route de l'Europe","postalCode":"2926","locality":"Boncourt","commune":{"key":"6774","name":"Boncourt","shortName":"Boncourt"},"district":{"key":"2603","name":"District de Porrentruy"},"canton":{"key":"26","code":"JU","name":"Jura"},"status":"Real"},{"key":"10188416","name":"Route de Milandre","postalCode":"2926","locality":"Boncourt","commune":{"key":"6774","name":"Boncourt","shortName":"Boncourt"},"district":{"key":"2603","name":"District de Porrentruy"},"canton":{"key":"26","code":"JU","name":"Jura"},"status":"Real"},{"key":"10009840","name":"Route de Montoz","postalCode":"2738","locality":"Court","commune":{"key":"690","name":"Court","shortName":"Court"},"district":{"key":"241","name":"Arrondissement administratif Jura bernois"},"canton":{"key":"2","code":"BE","name":"Bern / Berne"},"status":"Real"},{"key":"10198037","name":"Route de Porrentruy","postalCode":"2923","locality":"Courtemaîche","commune":{"key":"6807","name":"Basse-Allaine","shortName":"Basse-Allaine"},"district":{"key":"2603","name":"District de Porrentruy"},"canton":{"key":"26","code":"JU","name":"Jura"},"status":"Real"},{"key":"10158500","name":"Route de Roche-d'Or","postalCode":"2907","locality":"Rocourt","commune":{"key":"6809","name":"Haute-Ajoie","shortName":"Haute-Ajoie"},"district":{"key":"2603","name":"District de Porrentruy"},"canton":{"key":"26","code":"JU","name":"Jura"},"status":"Real"},{"key":"10086284","name":"Route des Chansalles","postalCode":"1784","locality":"Courtepin","commune":{"key":"2254","name":"Courtepin","shortName":"Courtepin"},"district":{"key":"1005","name":"Bezirk See / District du Lac"},"canton":{"key":"10","code":"FR","name":"Fribourg / Freiburg"},"status":"Real"},{"key":"10052963","name":"Route de Séprais","postalCode":"2856","locality":"Boécourt","commune":{"key":"6702","name":"Boécourt","shortName":"Boécourt"},"district":{"key":"2601","name":"District de Delémont"},"canton":{"key":"26","code":"JU","name":"Jura"},"status":"Real"},{"key":"10103563","name":"Route des Fontaines","postalCode":"2953","locality":"Fregiécourt","commune":{"key":"6810","name":"La Baroche","shortName":"La Baroche"},"district":{"key":"2603","name":"District de Porrentruy"},"canton":{"key":"26","code":"JU","name":"Jura"},"status":"Real"},{"key":"10072694","name":"Route des Genevrés","postalCode":"1784","locality":"Courtepin","commune":{"key":"2254","name":"Courtepin","shortName":"Courtepin"},"district":{"key":"1005","name":"Bezirk See / District du Lac"},"canton":{"key":"10","code":"FR","name":"Fribourg / Freiburg"},"status":"Real"},{"key":"10100746","name":"Route des Grottes","postalCode":"2926","locality":"Boncourt","commune":{"key":"6774","name":"Boncourt","shortName":"Boncourt"},"district":{"key":"2603","name":"District de Porrentruy"},"canton":{"key":"26","code":"JU","name":"Jura"},"status":"Real"},{"key":"10166502","name":"Route des Hauts-Genevrés","postalCode":"1784","locality":"Courtepin","commune":{"key":"2254","name":"Courtepin","shortName":"Courtepin"},"district":{"key":"1005","name":"Bezirk See / District du Lac"},"canton":{"key":"10","code":"FR","name":"Fribourg / Freiburg"},"status":"Real"},{"key":"10023509","name":"Route des Marais","postalCode":"1784","locality":"Courtepin","commune":{"key":"2254","name":"Courtepin","shortName":"Courtepin"},"district":{"key":"1005","name":"Bezirk See / District du Lac"},"canton":{"key":"10","code":"FR","name":"Fribourg / Freiburg"},"status":"Real"},{"key":"10052964","name":"Route des Ravières","postalCode":"2856","locality":"Boécourt","commune":{"key":"6702","name":"Boécourt","shortName":"Boécourt"},"district":{"key":"2601","name":"District de Delémont"},"canton":{"key":"26","code":"JU","name":"Jura"},"status":"Real"},{"key":"10216709","name":"Sagne Moré","postalCode":"2732","locality":"Saicourt","commune":{"key":"706","name":"Saicourt","shortName":"Saicourt"},"district":{"key":"241","name":"Arrondissement administratif Jura bernois"},"canton":{"key":"2","code":"BE","name":"Bern / Berne"},"status":"Real"},{"key":"10086275","name":"Schulweg / Chemin des Ecoles","postalCode":"1791","locality":"Courtaman","commune":{"key":"2254","name":"Courtepin","shortName":"Courtepin"},"district":{"key":"1005","name":"Bezirk See / District du Lac"},"canton":{"key":"10","code":"FR","name":"Fribourg / Freiburg"},"status":"Real"},{"key":"10223492","name":"Sous Fréteux","postalCode":"2904","locality":"Bressaucourt","commune":{"key":"6790","name":"Fontenais","shortName":"Fontenais"},"district":{"key":"2603","name":"District de Porrentruy"},"canton":{"key":"26","code":"JU","name":"Jura"},"status":"Real"},{"key":"10109841","name":"Sous-Graitery","postalCode":"2738","locality":"Court","commune":{"key":"690","name":"Court","shortName":"Court"},"district":{"key":"241","name":"Arrondissement administratif Jura bernois"},"canton":{"key":"2","code":"BE","name":"Bern / Berne"},"status":"Real"},{"key":"10082644","name":"Sous la Chapelle","postalCode":"2854","locality":"Bassecourt","commune":{"key":"6729","name":"Haute-Sorne","shortName":"Haute-Sorne"},"district":{"key":"2601","name":"District de Delémont"},"canton":{"key":"26","code":"JU","name":"Jura"},"status":"Real"},{"key":"10100484","name":"Sous la Chapelle","postalCode":"2923","locality":"Courtemaîche","commune":{"key":"6807","name":"Basse-Allaine","shortName":"Basse-Allaine"},"district":{"key":"2603","name":"District de Porrentruy"},"canton":{"key":"26","code":"JU","name":"Jura"},"status":"Real"},{"key":"10100760","name":"Sous le Four","postalCode":"2904","locality":"Bressaucourt","commune":{"key":"6790","name":"Fontenais","shortName":"Fontenais"},"district":{"key":"2603","name":"District de Porrentruy"},"canton":{"key":"26","code":"JU","name":"Jura"},"status":"Real"},{"key":"10113973","name":"Sous le Montillat","postalCode":"2953","locality":"Fregiécourt","commune":{"key":"6810","name":"La Baroche","shortName":"La Baroche"},"district":{"key":"2603","name":"District de Porrentruy"},"canton":{"key":"26","code":"JU","name":"Jura"},"status":"Real"},{"key":"10223496","name":"Sous les Champs Morlat","postalCode":"2904","locality":"Bressaucourt","commune":{"key":"6790","name":"Fontenais","shortName":"Fontenais"},"district":{"key":"2603","name":"District de Porrentruy"},"canton":{"key":"26","code":"JU","name":"Jura"},"status":"Real"},{"key":"10054602","name":"Sous les Chênes","postalCode":"2926","locality":"Boncourt","commune":{"key":"6774","name":"Boncourt","shortName":"Boncourt"},"district":{"key":"2603","name":"District de Porrentruy"},"canton":{"key":"26","code":"JU","name":"Jura"},"status":"Real"},{"key":"10223499","name":"Sous les Roches","postalCode":"2904","locality":"Bressaucourt","commune":{"key":"6790","name":"Fontenais","shortName":"Fontenais"},"district":{"key":"2603","name":"District de Porrentruy"},"canton":{"key":"26","code":"JU","name":"Jura"},"status":"Real"},{"key":"10223502","name":"Sous Pré Guenin","postalCode":"2904","locality":"Bressaucourt","commune":{"key":"6790","name":"Fontenais","shortName":"Fontenais"},"district":{"key":"2603","name":"District de Porrentruy"},"canton":{"key":"26","code":"JU","name":"Jura"},"status":"Real"},{"key":"10223473","name":"Sous tiers Fontaine","postalCode":"2907","locality":"Rocourt","commune":{"key":"6809","name":"Haute-Ajoie","shortName":"Haute-Ajoie"},"district":{"key":"2603","name":"District de Porrentruy"},"canton":{"key":"26","code":"JU","name":"Jura"},"status":"Real"},{"key":"10086278","name":"Studenmattweg","postalCode":"1791","locality":"Courtaman","commune":{"key":"2254","name":"Courtepin","shortName":"Courtepin"},"district":{"key":"1005","name":"Bezirk See / District du Lac"},"canton":{"key":"10","code":"FR","name":"Fribourg / Freiburg"},"status":"Real"},{"key":"10252288","name":"Sur Bottenie","postalCode":"2943","locality":"Vendlincourt","commune":{"key":"6806","name":"Vendlincourt","shortName":"Vendlincourt"},"district":{"key":"2603","name":"District de Porrentruy"},"canton":{"key":"26","code":"JU","name":"Jura"},"status":"Real"},{"key":"10156615","name":"Sur Combe Hie","postalCode":"2943","locality":"Vendlincourt","commune":{"key":"6806","name":"Vendlincourt","shortName":"Vendlincourt"},"district":{"key":"2603","name":"District de Porrentruy"},"canton":{"key":"26","code":"JU","name":"Jura"},"status":"Real"},{"key":"10208944","name":"Sur Frête","postalCode":"2738","locality":"Court","commune":{"key":"690","name":"Court","shortName":"Court"},"district":{"key":"241","name":"Arrondissement administratif Jura bernois"},"canton":{"key":"2","code":"BE","name":"Bern / Berne"},"status":"Real"},{"key":"10050285","name":"Sur la Côte","postalCode":"2904","locality":"Bressaucourt","commune":{"key":"6790","name":"Fontenais","shortName":"Fontenais"},"district":{"key":"2603","name":"District de Porrentruy"},"canton":{"key":"26","code":"JU","name":"Jura"},"status":"Real"},{"key":"10100480","name":"Sur la Côte","postalCode":"2905","locality":"Courtedoux","commune":{"key":"6785","name":"Courtedoux","shortName":"Courtedoux"},"district":{"key":"2603","name":"District de Porrentruy"},"canton":{"key":"26","code":"JU","name":"Jura"},"status":"Real"},{"key":"10049446","name":"Sur la Côte","postalCode":"2953","locality":"Fregiécourt","commune":{"key":"6810","name":"La Baroche","shortName":"La Baroche"},"district":{"key":"2603","name":"District de Porrentruy"},"canton":{"key":"26","code":"JU","name":"Jura"},"status":"Real"},{"key":"10113971","name":"Sur la Grétche","postalCode":"2905","locality":"Courtedoux","commune":{"key":"6785","name":"Courtedoux","shortName":"Courtedoux"},"district":{"key":"2603","name":"District de Porrentruy"},"canton":{"key":"26","code":"JU","name":"Jura"},"status":"Real"},{"key":"10223791","name":"Sur la Montagne","postalCode":"2856","locality":"Boécourt","commune":{"key":"6702","name":"Boécourt","shortName":"Boécourt"},"district":{"key":"2601","name":"District de Delémont"},"canton":{"key":"26","code":"JU","name":"Jura"},"status":"Real"},{"key":"10223708","name":"Sur la Saipelaie","postalCode":"2905","locality":"Courtedoux","commune":{"key":"6785","name":"Courtedoux","shortName":"Courtedoux"},"district":{"key":"2603","name":"District de Porrentruy"},"canton":{"key":"26","code":"JU","name":"Jura"},"status":"Real"},{"key":"10192228","name":"Sur l'Eau des Fontaines","postalCode":"2738","locality":"Court","commune":{"key":"690","name":"Court","shortName":"Court"},"district":{"key":"241","name":"Arrondissement administratif Jura bernois"},"canton":{"key":"2","code":"BE","name":"Bern / Berne"},"status":"Real"},{"key":"10180636","name":"Sur le Benevis","postalCode":"2738","locality":"Court","commune":{"key":"690","name":"Court","shortName":"Court"},"district":{"key":"241","name":"Arrondissement administratif Jura bernois"},"canton":{"key":"2","code":"BE","name":"Bern / Berne"},"status":"Real"},{"key":"10113974","name":"Sur le Chaufour","postalCode":"2889","locality":"Ocourt","commune":{"key":"6808","name":"Clos du Doubs","shortName":"Clos du Doubs"},"district":{"key":"2603","name":"District de Porrentruy"},"canton":{"key":"26","code":"JU","name":"Jura"},"status":"Real"},{"key":"10049529","name":"Sur le Patai","postalCode":"2907","locality":"Rocourt","commune":{"key":"6809","name":"Haute-Ajoie","shortName":"Haute-Ajoie"},"district":{"key":"2603","name":"District de Porrentruy"},"canton":{"key":"26","code":"JU","name":"Jura"},"status":"Real"},{"key":"10049452","name":"Sur l'Ergau","postalCode":"2946","locality":"Miécourt","commune":{"key":"6810","name":"La Baroche","shortName":"La Baroche"},"district":{"key":"2603","name":"District de Porrentruy"},"canton":{"key":"26","code":"JU","name":"Jura"},"status":"Real"},{"key":"10099594","name":"Sur les Clos","postalCode":"2946","locality":"Miécourt","commune":{"key":"6810","name":"La Baroche","shortName":"La Baroche"},"district":{"key":"2603","name":"District de Porrentruy"},"canton":{"key":"26","code":"JU","name":"Jura"},"status":"Real"},{"key":"10103566","name":"Sur les Prés du Vay","postalCode":"2889","locality":"Ocourt","commune":{"key":"6808","name":"Clos du Doubs","shortName":"Clos du Doubs"},"district":{"key":"2603","name":"District de Porrentruy"},"canton":{"key":"26","code":"JU","name":"Jura"},"status":"Real"},{"key":"10198039","name":"Sur les Roches","postalCode":"2923","locality":"Courtemaîche","commune":{"key":"6807","name":"Basse-Allaine","shortName":"Basse-Allaine"},"district":{"key":"2603","name":"District de Porrentruy"},"canton":{"key":"26","code":"JU","name":"Jura"},"status":"Real"},{"key":"10049406","name":"Sylleux","postalCode":"2905","locality":"Courtedoux","commune":{"key":"6785","name":"Courtedoux","shortName":"Courtedoux"},"district":{"key":"2603","name":"District de Porrentruy"},"canton":{"key":"26","code":"JU","name":"Jura"},"status":"Real"},{"key":"10005079","name":"Tabor","postalCode":"2608","locality":"Courtelary","commune":{"key":"434","name":"Courtelary","shortName":"Courtelary"},"district":{"key":"241","name":"Arrondissement administratif Jura bernois"},"canton":{"key":"2","code":"BE","name":"Bern / Berne"},"status":"Real"},{"key":"10063026","name":"Tariche","postalCode":"2889","locality":"Ocourt","commune":{"key":"6808","name":"Clos du Doubs","shortName":"Clos du Doubs"},"district":{"key":"2603","name":"District de Porrentruy"},"canton":{"key":"26","code":"JU","name":"Jura"},"status":"Real"},{"key":"10223809","name":"Tchu lai Grètchatte","postalCode":"2889","locality":"Ocourt","commune":{"key":"6808","name":"Clos du Doubs","shortName":"Clos du Doubs"},"district":{"key":"2603","name":"District de Porrentruy"},"canton":{"key":"26","code":"JU","name":"Jura"},"status":"Real"},{"key":"10223714","name":"Tchu Lâtchiere","postalCode":"2905","locality":"Courtedoux","commune":{"key":"6785","name":"Courtedoux","shortName":"Courtedoux"},"district":{"key":"2603","name":"District de Porrentruy"},"canton":{"key":"26","code":"JU","name":"Jura"},"status":"Real"},{"key":"10223716","name":"Tchu Roudge Tiere","postalCode":"2905","locality":"Courtedoux","commune":{"key":"6785","name":"Courtedoux","shortName":"Courtedoux"},"district":{"key":"2603","name":"District de Porrentruy"},"canton":{"key":"26","code":"JU","name":"Jura"},"status":"Real"},{"key":"10223794","name":"Tramont","postalCode":"2856","locality":"Boécourt","commune":{"key":"6702","name":"Boécourt","shortName":"Boécourt"},"district":{"key":"2601","name":"District de Delémont"},"canton":{"key":"26","code":"JU","name":"Jura"},"status":"Real"},{"key":"10220631","name":"Vacherie de Nods","postalCode":"2608","locality":"Montagne-de-Courtelary","commune":{"key":"434","name":"Courtelary","shortName":"Courtelary"},"district":{"key":"241","name":"Arrondissement administratif Jura bernois"},"canton":{"key":"2","code":"BE","name":"Bern / Berne"},"status":"Real"},{"key":"10220640","name":"Vacherie du Dernier de Bienne","postalCode":"2608","locality":"Montagne-de-Courtelary","commune":{"key":"434","name":"Courtelary","shortName":"Courtelary"},"district":{"key":"241","name":"Arrondissement administratif Jura bernois"},"canton":{"key":"2","code":"BE","name":"Bern / Berne"},"status":"Real"},{"key":"10099603","name":"Valbert","postalCode":"2889","locality":"Ocourt","commune":{"key":"6808","name":"Clos du Doubs","shortName":"Clos du Doubs"},"district":{"key":"2603","name":"District de Porrentruy"},"canton":{"key":"26","code":"JU","name":"Jura"},"status":"Real"},{"key":"10077142","name":"Varandin","postalCode":"2905","locality":"Courtedoux","commune":{"key":"6785","name":"Courtedoux","shortName":"Courtedoux"},"district":{"key":"2603","name":"District de Porrentruy"},"canton":{"key":"26","code":"JU","name":"Jura"},"status":"Real"},{"key":"10125598","name":"Vaux-sur-Chaux","postalCode":"2905","locality":"Courtedoux","commune":{"key":"6785","name":"Courtedoux","shortName":"Courtedoux"},"district":{"key":"2603","name":"District de Porrentruy"},"canton":{"key":"26","code":"JU","name":"Jura"},"status":"Real"},{"key":"10048181","name":"Vernois","postalCode":"2889","locality":"Ocourt","commune":{"key":"6808","name":"Clos du Doubs","shortName":"Clos du Doubs"},"district":{"key":"2603","name":"District de Porrentruy"},"canton":{"key":"26","code":"JU","name":"Jura"},"status":"Real"},{"key":"10198031","name":"Vers l'Eglise","postalCode":"2923","locality":"Courtemaîche","commune":{"key":"6807","name":"Basse-Allaine","shortName":"Basse-Allaine"},"district":{"key":"2603","name":"District de Porrentruy"},"canton":{"key":"26","code":"JU","name":"Jura"},"status":"Real"},{"key":"10047927","name":"Vieux Château","postalCode":"2943","locality":"Vendlincourt","commune":{"key":"6806","name":"Vendlincourt","shortName":"Vendlincourt"},"district":{"key":"2603","name":"District de Porrentruy"},"canton":{"key":"26","code":"JU","name":"Jura"},"status":"Real"},{"key":"10210834","name":"Virelore","postalCode":"2738","locality":"Court","commune":{"key":"690","name":"Court","shortName":"Court"},"district":{"key":"241","name":"Arrondissement administratif Jura bernois"},"canton":{"key":"2","code":"BE","name":"Bern / Berne"},"status":"Real"},{"key":"10052135","name":"Waldweg / Chemin de la Forêt","postalCode":"1791","locality":"Courtaman","commune":{"key":"2254","name":"Courtepin","shortName":"Courtepin"},"district":{"key":"1005","name":"Bezirk See / District du Lac"},"canton":{"key":"10","code":"FR","name":"Fribourg / Freiburg"},"status":"Real"},]