[{"name":"Abtenberg","postalCode":"96250","locality":"Ebensfeld","municipality":{"key":"09478120","name":"Ebensfeld, M","type":"Markt"},"district":{"key":"09478","name":"Lichtenfels","type":"Landkreis"},"federalState":{"key":"09","name":"Bayern"}},{"name":"Ahornweg","postalCode":"96250","locality":"Ebensfeld","municipality":{"key":"09478120","name":"Ebensfeld, M","type":"Markt"},"district":{"key":"09478","name":"Lichtenfels","type":"Landkreis"},"federalState":{"key":"09","name":"Bayern"}},{"name":"Alte Dorfstr.","postalCode":"96250","locality":"Ebensfeld","municipality":{"key":"09478120","name":"Ebensfeld, M","type":"Markt"},"district":{"key":"09478","name":"Lichtenfels","type":"Landkreis"},"federalState":{"key":"09","name":"Bayern"}},{"name":"Altenberg","postalCode":"96250","locality":"Ebensfeld","municipality":{"key":"09478120","name":"Ebensfeld, M","type":"Markt"},"district":{"key":"09478","name":"Lichtenfels","type":"Landkreis"},"federalState":{"key":"09","name":"Bayern"}},{"name":"Am Alten Graben","postalCode":"96250","locality":"Ebensfeld","municipality":{"key":"09478120","name":"Ebensfeld, M","type":"Markt"},"district":{"key":"09478","name":"Lichtenfels","type":"Landkreis"},"federalState":{"key":"09","name":"Bayern"}},{"name":"Am Damm","postalCode":"96250","locality":"Ebensfeld","municipality":{"key":"09478120","name":"Ebensfeld, M","type":"Markt"},"district":{"key":"09478","name":"Lichtenfels","type":"Landkreis"},"federalState":{"key":"09","name":"Bayern"}},{"name":"Am Draisdorfer Weg","postalCode":"96250","locality":"Ebensfeld","municipality":{"key":"09478120","name":"Ebensfeld, M","type":"Markt"},"district":{"key":"09478","name":"Lichtenfels","type":"Landkreis"},"federalState":{"key":"09","name":"Bayern"}},{"name":"Am Flecken","postalCode":"96250","locality":"Ebensfeld","municipality":{"key":"09478120","name":"Ebensfeld, M","type":"Markt"},"district":{"key":"09478","name":"Lichtenfels","type":"Landkreis"},"federalState":{"key":"09","name":"Bayern"}},{"name":"Am Froschbach","postalCode":"96250","locality":"Ebensfeld","municipality":{"key":"09478120","name":"Ebensfeld, M","type":"Markt"},"district":{"key":"09478","name":"Lichtenfels","type":"Landkreis"},"federalState":{"key":"09","name":"Bayern"}},{"name":"Am Kellbach","postalCode":"96250","locality":"Ebensfeld","municipality":{"key":"09478120","name":"Ebensfeld, M","type":"Markt"},"district":{"key":"09478","name":"Lichtenfels","type":"Landkreis"},"federalState":{"key":"09","name":"Bayern"}},{"name":"Am Kümmelbach","postalCode":"96250","locality":"Ebensfeld","municipality":{"key":"09478120","name":"Ebensfeld, M","type":"Markt"},"district":{"key":"09478","name":"Lichtenfels","type":"Landkreis"},"federalState":{"key":"09","name":"Bayern"}},{"name":"Am Mühlbach","postalCode":"96250","locality":"Ebensfeld","municipality":{"key":"09478120","name":"Ebensfeld, M","type":"Markt"},"district":{"key":"09478","name":"Lichtenfels","type":"Landkreis"},"federalState":{"key":"09","name":"Bayern"}},{"name":"Am Peunt","postalCode":"96250","locality":"Ebensfeld","municipality":{"key":"09478120","name":"Ebensfeld, M","type":"Markt"},"district":{"key":"09478","name":"Lichtenfels","type":"Landkreis"},"federalState":{"key":"09","name":"Bayern"}},{"name":"Am Schloßberg","postalCode":"96250","locality":"Ebensfeld","municipality":{"key":"09478120","name":"Ebensfeld, M","type":"Markt"},"district":{"key":"09478","name":"Lichtenfels","type":"Landkreis"},"federalState":{"key":"09","name":"Bayern"}},{"name":"Am Waizenbach","postalCode":"96250","locality":"Ebensfeld","municipality":{"key":"09478120","name":"Ebensfeld, M","type":"Markt"},"district":{"key":"09478","name":"Lichtenfels","type":"Landkreis"},"federalState":{"key":"09","name":"Bayern"}},{"name":"An der Bachwiese","postalCode":"96250","locality":"Ebensfeld","municipality":{"key":"09478120","name":"Ebensfeld, M","type":"Markt"},"district":{"key":"09478","name":"Lichtenfels","type":"Landkreis"},"federalState":{"key":"09","name":"Bayern"}},{"name":"Angerweg","postalCode":"96250","locality":"Ebensfeld","municipality":{"key":"09478120","name":"Ebensfeld, M","type":"Markt"},"district":{"key":"09478","name":"Lichtenfels","type":"Landkreis"},"federalState":{"key":"09","name":"Bayern"}},{"name":"Ansbergstr.","postalCode":"96250","locality":"Ebensfeld","municipality":{"key":"09478120","name":"Ebensfeld, M","type":"Markt"},"district":{"key":"09478","name":"Lichtenfels","type":"Landkreis"},"federalState":{"key":"09","name":"Bayern"}},{"name":"Auweg","postalCode":"96250","locality":"Ebensfeld","municipality":{"key":"09478120","name":"Ebensfeld, M","type":"Markt"},"district":{"key":"09478","name":"Lichtenfels","type":"Landkreis"},"federalState":{"key":"09","name":"Bayern"}},{"name":"Bachgasse","postalCode":"96250","locality":"Ebensfeld","municipality":{"key":"09478120","name":"Ebensfeld, M","type":"Markt"},"district":{"key":"09478","name":"Lichtenfels","type":"Landkreis"},"federalState":{"key":"09","name":"Bayern"}},{"name":"Bahnhofstr.","postalCode":"96250","locality":"Ebensfeld","municipality":{"key":"09478120","name":"Ebensfeld, M","type":"Markt"},"district":{"key":"09478","name":"Lichtenfels","type":"Landkreis"},"federalState":{"key":"09","name":"Bayern"}},{"name":"Balthasar-Neumann-Str.","postalCode":"96250","locality":"Ebensfeld","municipality":{"key":"09478120","name":"Ebensfeld, M","type":"Markt"},"district":{"key":"09478","name":"Lichtenfels","type":"Landkreis"},"federalState":{"key":"09","name":"Bayern"}},{"name":"Bamberger Str.","postalCode":"96250","locality":"Ebensfeld","municipality":{"key":"09478120","name":"Ebensfeld, M","type":"Markt"},"district":{"key":"09478","name":"Lichtenfels","type":"Landkreis"},"federalState":{"key":"09","name":"Bayern"}},{"name":"Bergstr.","postalCode":"96250","locality":"Ebensfeld","municipality":{"key":"09478120","name":"Ebensfeld, M","type":"Markt"},"district":{"key":"09478","name":"Lichtenfels","type":"Landkreis"},"federalState":{"key":"09","name":"Bayern"}},{"name":"Biberstr.","postalCode":"96250","locality":"Ebensfeld","municipality":{"key":"09478120","name":"Ebensfeld, M","type":"Markt"},"district":{"key":"09478","name":"Lichtenfels","type":"Landkreis"},"federalState":{"key":"09","name":"Bayern"}},{"name":"Birkacher Str.","postalCode":"96250","locality":"Ebensfeld","municipality":{"key":"09478120","name":"Ebensfeld, M","type":"Markt"},"district":{"key":"09478","name":"Lichtenfels","type":"Landkreis"},"federalState":{"key":"09","name":"Bayern"}},{"name":"Birkenweg","postalCode":"96250","locality":"Ebensfeld","municipality":{"key":"09478120","name":"Ebensfeld, M","type":"Markt"},"district":{"key":"09478","name":"Lichtenfels","type":"Landkreis"},"federalState":{"key":"09","name":"Bayern"}},{"name":"Bischof-Dietz-Str.","postalCode":"96250","locality":"Ebensfeld","municipality":{"key":"09478120","name":"Ebensfeld, M","type":"Markt"},"district":{"key":"09478","name":"Lichtenfels","type":"Landkreis"},"federalState":{"key":"09","name":"Bayern"}},{"name":"Bischof-Senger-Str.","postalCode":"96250","locality":"Ebensfeld","municipality":{"key":"09478120","name":"Ebensfeld, M","type":"Markt"},"district":{"key":"09478","name":"Lichtenfels","type":"Landkreis"},"federalState":{"key":"09","name":"Bayern"}},{"name":"Blumenstr.","postalCode":"96250","locality":"Ebensfeld","municipality":{"key":"09478120","name":"Ebensfeld, M","type":"Markt"},"district":{"key":"09478","name":"Lichtenfels","type":"Landkreis"},"federalState":{"key":"09","name":"Bayern"}},{"name":"Brauhausweg","postalCode":"96250","locality":"Ebensfeld","municipality":{"key":"09478120","name":"Ebensfeld, M","type":"Markt"},"district":{"key":"09478","name":"Lichtenfels","type":"Landkreis"},"federalState":{"key":"09","name":"Bayern"}},{"name":"Brunnenplatz","postalCode":"96250","locality":"Ebensfeld","municipality":{"key":"09478120","name":"Ebensfeld, M","type":"Markt"},"district":{"key":"09478","name":"Lichtenfels","type":"Landkreis"},"federalState":{"key":"09","name":"Bayern"}},{"name":"Brunnenweg","postalCode":"96250","locality":"Ebensfeld","municipality":{"key":"09478120","name":"Ebensfeld, M","type":"Markt"},"district":{"key":"09478","name":"Lichtenfels","type":"Landkreis"},"federalState":{"key":"09","name":"Bayern"}},{"name":"Brunnleite","postalCode":"96250","locality":"Ebensfeld","municipality":{"key":"09478120","name":"Ebensfeld, M","type":"Markt"},"district":{"key":"09478","name":"Lichtenfels","type":"Landkreis"},"federalState":{"key":"09","name":"Bayern"}},{"name":"Bürgermeister-Herold-Str.","postalCode":"96250","locality":"Ebensfeld","municipality":{"key":"09478120","name":"Ebensfeld, M","type":"Markt"},"district":{"key":"09478","name":"Lichtenfels","type":"Landkreis"},"federalState":{"key":"09","name":"Bayern"}},{"name":"Bürgermeister-Meixner-Str.","postalCode":"96250","locality":"Ebensfeld","municipality":{"key":"09478120","name":"Ebensfeld, M","type":"Markt"},"district":{"key":"09478","name":"Lichtenfels","type":"Landkreis"},"federalState":{"key":"09","name":"Bayern"}},{"name":"Busendorfer Str.","postalCode":"96250","locality":"Ebensfeld","municipality":{"key":"09478120","name":"Ebensfeld, M","type":"Markt"},"district":{"key":"09478","name":"Lichtenfels","type":"Landkreis"},"federalState":{"key":"09","name":"Bayern"}},{"name":"Campfhof","postalCode":"35104","locality":"Lichtenfels","municipality":{"key":"06635016","name":"Lichtenfels, Stadt","type":"Stadt"},"district":{"key":"06635","name":"Waldeck-Frankenberg","type":"Landkreis"},"federalState":{"key":"06","name":"Hessen"}},{"name":"Christ-König-Platz","postalCode":"96215","locality":"Lichtenfels","municipality":{"key":"09478139","name":"Lichtenfels, St","type":"Stadt"},"district":{"key":"09478","name":"Lichtenfels","type":"Landkreis"},"federalState":{"key":"09","name":"Bayern"}},{"name":"Coburger Str.","postalCode":"96215","locality":"Lichtenfels","municipality":{"key":"09478139","name":"Lichtenfels, St","type":"Stadt"},"district":{"key":"09478","name":"Lichtenfels","type":"Landkreis"},"federalState":{"key":"09","name":"Bayern"}},{"name":"Conrad-Wagner-Str.","postalCode":"96215","locality":"Lichtenfels","municipality":{"key":"09478139","name":"Lichtenfels, St","type":"Stadt"},"district":{"key":"09478","name":"Lichtenfels","type":"Landkreis"},"federalState":{"key":"09","name":"Bayern"}},{"name":"Cournonstr.","postalCode":"96215","locality":"Lichtenfels","municipality":{"key":"09478139","name":"Lichtenfels, St","type":"Stadt"},"district":{"key":"09478","name":"Lichtenfels","type":"Landkreis"},"federalState":{"key":"09","name":"Bayern"}},{"name":"Dientzenhoferstr.","postalCode":"96250","locality":"Ebensfeld","municipality":{"key":"09478120","name":"Ebensfeld, M","type":"Markt"},"district":{"key":"09478","name":"Lichtenfels","type":"Landkreis"},"federalState":{"key":"09","name":"Bayern"}},{"name":"Dorfstr.","postalCode":"96250","locality":"Ebensfeld","municipality":{"key":"09478120","name":"Ebensfeld, M","type":"Markt"},"district":{"key":"09478","name":"Lichtenfels","type":"Landkreis"},"federalState":{"key":"09","name":"Bayern"}},{"name":"Drei-Baum-Weg","postalCode":"96250","locality":"Ebensfeld","municipality":{"key":"09478120","name":"Ebensfeld, M","type":"Markt"},"district":{"key":"09478","name":"Lichtenfels","type":"Landkreis"},"federalState":{"key":"09","name":"Bayern"}},{"name":"Ecksteinmühle","postalCode":"96250","locality":"Ebensfeld","municipality":{"key":"09478120","name":"Ebensfeld, M","type":"Markt"},"district":{"key":"09478","name":"Lichtenfels","type":"Landkreis"},"federalState":{"key":"09","name":"Bayern"}},{"name":"Egerländer Str.","postalCode":"96250","locality":"Ebensfeld","municipality":{"key":"09478120","name":"Ebensfeld, M","type":"Markt"},"district":{"key":"09478","name":"Lichtenfels","type":"Landkreis"},"federalState":{"key":"09","name":"Bayern"}},{"name":"Eggenbacher Hauptstr.","postalCode":"96250","locality":"Ebensfeld","municipality":{"key":"09478120","name":"Ebensfeld, M","type":"Markt"},"district":{"key":"09478","name":"Lichtenfels","type":"Landkreis"},"federalState":{"key":"09","name":"Bayern"}},{"name":"Eierbergweg","postalCode":"96250","locality":"Ebensfeld","municipality":{"key":"09478120","name":"Ebensfeld, M","type":"Markt"},"district":{"key":"09478","name":"Lichtenfels","type":"Landkreis"},"federalState":{"key":"09","name":"Bayern"}},{"name":"Erlesanger","postalCode":"96250","locality":"Ebensfeld","municipality":{"key":"09478120","name":"Ebensfeld, M","type":"Markt"},"district":{"key":"09478","name":"Lichtenfels","type":"Landkreis"},"federalState":{"key":"09","name":"Bayern"}},{"name":"Feuerwehrplatz","postalCode":"96250","locality":"Ebensfeld","municipality":{"key":"09478120","name":"Ebensfeld, M","type":"Markt"},"district":{"key":"09478","name":"Lichtenfels","type":"Landkreis"},"federalState":{"key":"09","name":"Bayern"}},{"name":"Fliederstr.","postalCode":"96250","locality":"Ebensfeld","municipality":{"key":"09478120","name":"Ebensfeld, M","type":"Markt"},"district":{"key":"09478","name":"Lichtenfels","type":"Landkreis"},"federalState":{"key":"09","name":"Bayern"}},{"name":"Freiberg","postalCode":"96250","locality":"Ebensfeld","municipality":{"key":"09478120","name":"Ebensfeld, M","type":"Markt"},"district":{"key":"09478","name":"Lichtenfels","type":"Landkreis"},"federalState":{"key":"09","name":"Bayern"}},{"name":"Friedenslinde","postalCode":"96250","locality":"Ebensfeld","municipality":{"key":"09478120","name":"Ebensfeld, M","type":"Markt"},"district":{"key":"09478","name":"Lichtenfels","type":"Landkreis"},"federalState":{"key":"09","name":"Bayern"}},{"name":"Gartenstr.","postalCode":"96250","locality":"Ebensfeld","municipality":{"key":"09478120","name":"Ebensfeld, M","type":"Markt"},"district":{"key":"09478","name":"Lichtenfels","type":"Landkreis"},"federalState":{"key":"09","name":"Bayern"}},{"name":"Geyersberg","postalCode":"96250","locality":"Ebensfeld","municipality":{"key":"09478120","name":"Ebensfeld, M","type":"Markt"},"district":{"key":"09478","name":"Lichtenfels","type":"Landkreis"},"federalState":{"key":"09","name":"Bayern"}},{"name":"Glesengasse","postalCode":"96250","locality":"Ebensfeld","municipality":{"key":"09478120","name":"Ebensfeld, M","type":"Markt"},"district":{"key":"09478","name":"Lichtenfels","type":"Landkreis"},"federalState":{"key":"09","name":"Bayern"}},{"name":"Goldgrube","postalCode":"96250","locality":"Ebensfeld","municipality":{"key":"09478120","name":"Ebensfeld, M","type":"Markt"},"district":{"key":"09478","name":"Lichtenfels","type":"Landkreis"},"federalState":{"key":"09","name":"Bayern"}},{"name":"Götzenhof","postalCode":"96250","locality":"Ebensfeld","municipality":{"key":"09478120","name":"Ebensfeld, M","type":"Markt"},"district":{"key":"09478","name":"Lichtenfels","type":"Landkreis"},"federalState":{"key":"09","name":"Bayern"}},{"name":"Grasiger Weg","postalCode":"96250","locality":"Ebensfeld","municipality":{"key":"09478120","name":"Ebensfeld, M","type":"Markt"},"district":{"key":"09478","name":"Lichtenfels","type":"Landkreis"},"federalState":{"key":"09","name":"Bayern"}},{"name":"Gries","postalCode":"96250","locality":"Ebensfeld","municipality":{"key":"09478120","name":"Ebensfeld, M","type":"Markt"},"district":{"key":"09478","name":"Lichtenfels","type":"Landkreis"},"federalState":{"key":"09","name":"Bayern"}},{"name":"Großer Peunt","postalCode":"96250","locality":"Ebensfeld","municipality":{"key":"09478120","name":"Ebensfeld, M","type":"Markt"},"district":{"key":"09478","name":"Lichtenfels","type":"Landkreis"},"federalState":{"key":"09","name":"Bayern"}},{"name":"Grübelsberg","postalCode":"96250","locality":"Ebensfeld","municipality":{"key":"09478120","name":"Ebensfeld, M","type":"Markt"},"district":{"key":"09478","name":"Lichtenfels","type":"Landkreis"},"federalState":{"key":"09","name":"Bayern"}},{"name":"Hadergasse","postalCode":"96250","locality":"Ebensfeld","municipality":{"key":"09478120","name":"Ebensfeld, M","type":"Markt"},"district":{"key":"09478","name":"Lichtenfels","type":"Landkreis"},"federalState":{"key":"09","name":"Bayern"}},{"name":"Häfnerhof","postalCode":"96250","locality":"Ebensfeld","municipality":{"key":"09478120","name":"Ebensfeld, M","type":"Markt"},"district":{"key":"09478","name":"Lichtenfels","type":"Landkreis"},"federalState":{"key":"09","name":"Bayern"}},{"name":"Hanstr.","postalCode":"96250","locality":"Ebensfeld","municipality":{"key":"09478120","name":"Ebensfeld, M","type":"Markt"},"district":{"key":"09478","name":"Lichtenfels","type":"Landkreis"},"federalState":{"key":"09","name":"Bayern"}},{"name":"Haselbachstr.","postalCode":"96250","locality":"Ebensfeld","municipality":{"key":"09478120","name":"Ebensfeld, M","type":"Markt"},"district":{"key":"09478","name":"Lichtenfels","type":"Landkreis"},"federalState":{"key":"09","name":"Bayern"}},{"name":"Hauptstr.","postalCode":"96250","locality":"Ebensfeld","municipality":{"key":"09478120","name":"Ebensfeld, M","type":"Markt"},"district":{"key":"09478","name":"Lichtenfels","type":"Landkreis"},"federalState":{"key":"09","name":"Bayern"}},{"name":"Himmelreichstr.","postalCode":"96250","locality":"Ebensfeld","municipality":{"key":"09478120","name":"Ebensfeld, M","type":"Markt"},"district":{"key":"09478","name":"Lichtenfels","type":"Landkreis"},"federalState":{"key":"09","name":"Bayern"}},{"name":"Hofacker","postalCode":"96250","locality":"Ebensfeld","municipality":{"key":"09478120","name":"Ebensfeld, M","type":"Markt"},"district":{"key":"09478","name":"Lichtenfels","type":"Landkreis"},"federalState":{"key":"09","name":"Bayern"}},{"name":"Hofberglein","postalCode":"96250","locality":"Ebensfeld","municipality":{"key":"09478120","name":"Ebensfeld, M","type":"Markt"},"district":{"key":"09478","name":"Lichtenfels","type":"Landkreis"},"federalState":{"key":"09","name":"Bayern"}},{"name":"Hofsiedlung","postalCode":"96250","locality":"Ebensfeld","municipality":{"key":"09478120","name":"Ebensfeld, M","type":"Markt"},"district":{"key":"09478","name":"Lichtenfels","type":"Landkreis"},"federalState":{"key":"09","name":"Bayern"}},{"name":"Höhenweg","postalCode":"96250","locality":"Ebensfeld","municipality":{"key":"09478120","name":"Ebensfeld, M","type":"Markt"},"district":{"key":"09478","name":"Lichtenfels","type":"Landkreis"},"federalState":{"key":"09","name":"Bayern"}},{"name":"Hohe Str.","postalCode":"96250","locality":"Ebensfeld","municipality":{"key":"09478120","name":"Ebensfeld, M","type":"Markt"},"district":{"key":"09478","name":"Lichtenfels","type":"Landkreis"},"federalState":{"key":"09","name":"Bayern"}},{"name":"Holunderweg","postalCode":"96250","locality":"Ebensfeld","municipality":{"key":"09478120","name":"Ebensfeld, M","type":"Markt"},"district":{"key":"09478","name":"Lichtenfels","type":"Landkreis"},"federalState":{"key":"09","name":"Bayern"}},{"name":"Holzweg","postalCode":"96250","locality":"Ebensfeld","municipality":{"key":"09478120","name":"Ebensfeld, M","type":"Markt"},"district":{"key":"09478","name":"Lichtenfels","type":"Landkreis"},"federalState":{"key":"09","name":"Bayern"}},{"name":"Hummelsweg","postalCode":"96250","locality":"Ebensfeld","municipality":{"key":"09478120","name":"Ebensfeld, M","type":"Markt"},"district":{"key":"09478","name":"Lichtenfels","type":"Landkreis"},"federalState":{"key":"09","name":"Bayern"}},{"name":"Hutstr.","postalCode":"96250","locality":"Ebensfeld","municipality":{"key":"09478120","name":"Ebensfeld, M","type":"Markt"},"district":{"key":"09478","name":"Lichtenfels","type":"Landkreis"},"federalState":{"key":"09","name":"Bayern"}},{"name":"Im Leimen","postalCode":"96250","locality":"Ebensfeld","municipality":{"key":"09478120","name":"Ebensfeld, M","type":"Markt"},"district":{"key":"09478","name":"Lichtenfels","type":"Landkreis"},"federalState":{"key":"09","name":"Bayern"}},{"name":"Jägerspeunt","postalCode":"96250","locality":"Ebensfeld","municipality":{"key":"09478120","name":"Ebensfeld, M","type":"Markt"},"district":{"key":"09478","name":"Lichtenfels","type":"Landkreis"},"federalState":{"key":"09","name":"Bayern"}},{"name":"Kapellenweg","postalCode":"96250","locality":"Ebensfeld","municipality":{"key":"09478120","name":"Ebensfeld, M","type":"Markt"},"district":{"key":"09478","name":"Lichtenfels","type":"Landkreis"},"federalState":{"key":"09","name":"Bayern"}},{"name":"Kastanienweg","postalCode":"96250","locality":"Ebensfeld","municipality":{"key":"09478120","name":"Ebensfeld, M","type":"Markt"},"district":{"key":"09478","name":"Lichtenfels","type":"Landkreis"},"federalState":{"key":"09","name":"Bayern"}},{"name":"Kellerstr.","postalCode":"96250","locality":"Ebensfeld","municipality":{"key":"09478120","name":"Ebensfeld, M","type":"Markt"},"district":{"key":"09478","name":"Lichtenfels","type":"Landkreis"},"federalState":{"key":"09","name":"Bayern"}},{"name":"Kirchgasse","postalCode":"96250","locality":"Ebensfeld","municipality":{"key":"09478120","name":"Ebensfeld, M","type":"Markt"},"district":{"key":"09478","name":"Lichtenfels","type":"Landkreis"},"federalState":{"key":"09","name":"Bayern"}},{"name":"Kirchleite","postalCode":"96250","locality":"Ebensfeld","municipality":{"key":"09478120","name":"Ebensfeld, M","type":"Markt"},"district":{"key":"09478","name":"Lichtenfels","type":"Landkreis"},"federalState":{"key":"09","name":"Bayern"}},{"name":"Kleukheimer Hauptstr.","postalCode":"96250","locality":"Ebensfeld","municipality":{"key":"09478120","name":"Ebensfeld, M","type":"Markt"},"district":{"key":"09478","name":"Lichtenfels","type":"Landkreis"},"federalState":{"key":"09","name":"Bayern"}},{"name":"Kloster-Banz-Str.","postalCode":"96250","locality":"Ebensfeld","municipality":{"key":"09478120","name":"Ebensfeld, M","type":"Markt"},"district":{"key":"09478","name":"Lichtenfels","type":"Landkreis"},"federalState":{"key":"09","name":"Bayern"}},{"name":"Kreuzbachstr.","postalCode":"96250","locality":"Ebensfeld","municipality":{"key":"09478120","name":"Ebensfeld, M","type":"Markt"},"district":{"key":"09478","name":"Lichtenfels","type":"Landkreis"},"federalState":{"key":"09","name":"Bayern"}},{"name":"Kreuzstr.","postalCode":"96250","locality":"Ebensfeld","municipality":{"key":"09478120","name":"Ebensfeld, M","type":"Markt"},"district":{"key":"09478","name":"Lichtenfels","type":"Landkreis"},"federalState":{"key":"09","name":"Bayern"}},{"name":"Kutzenberger Str.","postalCode":"96250","locality":"Ebensfeld","municipality":{"key":"09478120","name":"Ebensfeld, M","type":"Markt"},"district":{"key":"09478","name":"Lichtenfels","type":"Landkreis"},"federalState":{"key":"09","name":"Bayern"}},{"name":"Laurenzistr.","postalCode":"96250","locality":"Ebensfeld","municipality":{"key":"09478120","name":"Ebensfeld, M","type":"Markt"},"district":{"key":"09478","name":"Lichtenfels","type":"Landkreis"},"federalState":{"key":"09","name":"Bayern"}},{"name":"Lehmgrube","postalCode":"96250","locality":"Ebensfeld","municipality":{"key":"09478120","name":"Ebensfeld, M","type":"Markt"},"district":{"key":"09478","name":"Lichtenfels","type":"Landkreis"},"federalState":{"key":"09","name":"Bayern"}},{"name":"Leitleinsweg","postalCode":"96250","locality":"Ebensfeld","municipality":{"key":"09478120","name":"Ebensfeld, M","type":"Markt"},"district":{"key":"09478","name":"Lichtenfels","type":"Landkreis"},"federalState":{"key":"09","name":"Bayern"}},{"name":"Lilienstr.","postalCode":"96250","locality":"Ebensfeld","municipality":{"key":"09478120","name":"Ebensfeld, M","type":"Markt"},"district":{"key":"09478","name":"Lichtenfels","type":"Landkreis"},"federalState":{"key":"09","name":"Bayern"}},{"name":"Lindenweg","postalCode":"96250","locality":"Ebensfeld","municipality":{"key":"09478120","name":"Ebensfeld, M","type":"Markt"},"district":{"key":"09478","name":"Lichtenfels","type":"Landkreis"},"federalState":{"key":"09","name":"Bayern"}},{"name":"Mainstr.","postalCode":"96250","locality":"Ebensfeld","municipality":{"key":"09478120","name":"Ebensfeld, M","type":"Markt"},"district":{"key":"09478","name":"Lichtenfels","type":"Landkreis"},"federalState":{"key":"09","name":"Bayern"}},{"name":"Marienweg","postalCode":"96250","locality":"Ebensfeld","municipality":{"key":"09478120","name":"Ebensfeld, M","type":"Markt"},"district":{"key":"09478","name":"Lichtenfels","type":"Landkreis"},"federalState":{"key":"09","name":"Bayern"}},{"name":"Medlitzer Str.","postalCode":"96250","locality":"Ebensfeld","municipality":{"key":"09478120","name":"Ebensfeld, M","type":"Markt"},"district":{"key":"09478","name":"Lichtenfels","type":"Landkreis"},"federalState":{"key":"09","name":"Bayern"}},{"name":"Melmstr.","postalCode":"96250","locality":"Ebensfeld","municipality":{"key":"09478120","name":"Ebensfeld, M","type":"Markt"},"district":{"key":"09478","name":"Lichtenfels","type":"Landkreis"},"federalState":{"key":"09","name":"Bayern"}},{"name":"Merkendorfer Str.","postalCode":"96250","locality":"Ebensfeld","municipality":{"key":"09478120","name":"Ebensfeld, M","type":"Markt"},"district":{"key":"09478","name":"Lichtenfels","type":"Landkreis"},"federalState":{"key":"09","name":"Bayern"}},{"name":"Monatswiese","postalCode":"96250","locality":"Ebensfeld","municipality":{"key":"09478120","name":"Ebensfeld, M","type":"Markt"},"district":{"key":"09478","name":"Lichtenfels","type":"Landkreis"},"federalState":{"key":"09","name":"Bayern"}},{"name":"Mühlengrund","postalCode":"96250","locality":"Ebensfeld","municipality":{"key":"09478120","name":"Ebensfeld, M","type":"Markt"},"district":{"key":"09478","name":"Lichtenfels","type":"Landkreis"},"federalState":{"key":"09","name":"Bayern"}},{"name":"Mühlgasse","postalCode":"96250","locality":"Ebensfeld","municipality":{"key":"09478120","name":"Ebensfeld, M","type":"Markt"},"district":{"key":"09478","name":"Lichtenfels","type":"Landkreis"},"federalState":{"key":"09","name":"Bayern"}},{"name":"Neudorfer Weg","postalCode":"96250","locality":"Ebensfeld","municipality":{"key":"09478120","name":"Ebensfeld, M","type":"Markt"},"district":{"key":"09478","name":"Lichtenfels","type":"Landkreis"},"federalState":{"key":"09","name":"Bayern"}},{"name":"Oberbrunner Str.","postalCode":"96250","locality":"Ebensfeld","municipality":{"key":"09478120","name":"Ebensfeld, M","type":"Markt"},"district":{"key":"09478","name":"Lichtenfels","type":"Landkreis"},"federalState":{"key":"09","name":"Bayern"}},{"name":"Obere Gartenstr.","postalCode":"96250","locality":"Ebensfeld","municipality":{"key":"09478120","name":"Ebensfeld, M","type":"Markt"},"district":{"key":"09478","name":"Lichtenfels","type":"Landkreis"},"federalState":{"key":"09","name":"Bayern"}},{"name":"Obere Mühlgasse","postalCode":"96250","locality":"Ebensfeld","municipality":{"key":"09478120","name":"Ebensfeld, M","type":"Markt"},"district":{"key":"09478","name":"Lichtenfels","type":"Landkreis"},"federalState":{"key":"09","name":"Bayern"}},{"name":"Obere Mühlstr.","postalCode":"96250","locality":"Ebensfeld","municipality":{"key":"09478120","name":"Ebensfeld, M","type":"Markt"},"district":{"key":"09478","name":"Lichtenfels","type":"Landkreis"},"federalState":{"key":"09","name":"Bayern"}},{"name":"Oberer Kellbachdamm","postalCode":"96250","locality":"Ebensfeld","municipality":{"key":"09478120","name":"Ebensfeld, M","type":"Markt"},"district":{"key":"09478","name":"Lichtenfels","type":"Landkreis"},"federalState":{"key":"09","name":"Bayern"}},{"name":"Oberküpser Str.","postalCode":"96250","locality":"Ebensfeld","municipality":{"key":"09478120","name":"Ebensfeld, M","type":"Markt"},"district":{"key":"09478","name":"Lichtenfels","type":"Landkreis"},"federalState":{"key":"09","name":"Bayern"}},{"name":"Pater-Lunkenbein-Platz","postalCode":"96250","locality":"Ebensfeld","municipality":{"key":"09478120","name":"Ebensfeld, M","type":"Markt"},"district":{"key":"09478","name":"Lichtenfels","type":"Landkreis"},"federalState":{"key":"09","name":"Bayern"}},{"name":"Peuntstr.","postalCode":"96250","locality":"Ebensfeld","municipality":{"key":"09478120","name":"Ebensfeld, M","type":"Markt"},"district":{"key":"09478","name":"Lichtenfels","type":"Landkreis"},"federalState":{"key":"09","name":"Bayern"}},{"name":"Pommernstr.","postalCode":"96250","locality":"Ebensfeld","municipality":{"key":"09478120","name":"Ebensfeld, M","type":"Markt"},"district":{"key":"09478","name":"Lichtenfels","type":"Landkreis"},"federalState":{"key":"09","name":"Bayern"}},{"name":"Prächtinger Hauptstr.","postalCode":"96250","locality":"Ebensfeld","municipality":{"key":"09478120","name":"Ebensfeld, M","type":"Markt"},"district":{"key":"09478","name":"Lichtenfels","type":"Landkreis"},"federalState":{"key":"09","name":"Bayern"}},{"name":"Prächtinger Str.","postalCode":"96250","locality":"Ebensfeld","municipality":{"key":"09478120","name":"Ebensfeld, M","type":"Markt"},"district":{"key":"09478","name":"Lichtenfels","type":"Landkreis"},"federalState":{"key":"09","name":"Bayern"}},{"name":"Prälat-Meixner-Str.","postalCode":"96250","locality":"Ebensfeld","municipality":{"key":"09478120","name":"Ebensfeld, M","type":"Markt"},"district":{"key":"09478","name":"Lichtenfels","type":"Landkreis"},"federalState":{"key":"09","name":"Bayern"}},{"name":"Ringstr.","postalCode":"96250","locality":"Ebensfeld","municipality":{"key":"09478120","name":"Ebensfeld, M","type":"Markt"},"district":{"key":"09478","name":"Lichtenfels","type":"Landkreis"},"federalState":{"key":"09","name":"Bayern"}},{"name":"Rinnigstr.","postalCode":"96250","locality":"Ebensfeld","municipality":{"key":"09478120","name":"Ebensfeld, M","type":"Markt"},"district":{"key":"09478","name":"Lichtenfels","type":"Landkreis"},"federalState":{"key":"09","name":"Bayern"}},{"name":"Rödelgasse","postalCode":"96250","locality":"Ebensfeld","municipality":{"key":"09478120","name":"Ebensfeld, M","type":"Markt"},"district":{"key":"09478","name":"Lichtenfels","type":"Landkreis"},"federalState":{"key":"09","name":"Bayern"}},{"name":"Rosenstr.","postalCode":"96250","locality":"Ebensfeld","municipality":{"key":"09478120","name":"Ebensfeld, M","type":"Markt"},"district":{"key":"09478","name":"Lichtenfels","type":"Landkreis"},"federalState":{"key":"09","name":"Bayern"}},{"name":"Rote Leite","postalCode":"96250","locality":"Ebensfeld","municipality":{"key":"09478120","name":"Ebensfeld, M","type":"Markt"},"district":{"key":"09478","name":"Lichtenfels","type":"Landkreis"},"federalState":{"key":"09","name":"Bayern"}},{"name":"Rothenbühl","postalCode":"96250","locality":"Ebensfeld","municipality":{"key":"09478120","name":"Ebensfeld, M","type":"Markt"},"district":{"key":"09478","name":"Lichtenfels","type":"Landkreis"},"federalState":{"key":"09","name":"Bayern"}},{"name":"Saalweide","postalCode":"96250","locality":"Ebensfeld","municipality":{"key":"09478120","name":"Ebensfeld, M","type":"Markt"},"district":{"key":"09478","name":"Lichtenfels","type":"Landkreis"},"federalState":{"key":"09","name":"Bayern"}},{"name":"Schlesierstr.","postalCode":"96250","locality":"Ebensfeld","municipality":{"key":"09478120","name":"Ebensfeld, M","type":"Markt"},"district":{"key":"09478","name":"Lichtenfels","type":"Landkreis"},"federalState":{"key":"09","name":"Bayern"}},{"name":"Schneidersgasse","postalCode":"96250","locality":"Ebensfeld","municipality":{"key":"09478120","name":"Ebensfeld, M","type":"Markt"},"district":{"key":"09478","name":"Lichtenfels","type":"Landkreis"},"federalState":{"key":"09","name":"Bayern"}},{"name":"Schulplatz","postalCode":"96250","locality":"Ebensfeld","municipality":{"key":"09478120","name":"Ebensfeld, M","type":"Markt"},"district":{"key":"09478","name":"Lichtenfels","type":"Landkreis"},"federalState":{"key":"09","name":"Bayern"}},{"name":"Sonnenleite","postalCode":"96250","locality":"Ebensfeld","municipality":{"key":"09478120","name":"Ebensfeld, M","type":"Markt"},"district":{"key":"09478","name":"Lichtenfels","type":"Landkreis"},"federalState":{"key":"09","name":"Bayern"}},{"name":"Steinleite","postalCode":"96250","locality":"Ebensfeld","municipality":{"key":"09478120","name":"Ebensfeld, M","type":"Markt"},"district":{"key":"09478","name":"Lichtenfels","type":"Landkreis"},"federalState":{"key":"09","name":"Bayern"}},{"name":"Steinweg","postalCode":"96250","locality":"Ebensfeld","municipality":{"key":"09478120","name":"Ebensfeld, M","type":"Markt"},"district":{"key":"09478","name":"Lichtenfels","type":"Landkreis"},"federalState":{"key":"09","name":"Bayern"}},{"name":"St.-Veit-Str.","postalCode":"96250","locality":"Ebensfeld","municipality":{"key":"09478120","name":"Ebensfeld, M","type":"Markt"},"district":{"key":"09478","name":"Lichtenfels","type":"Landkreis"},"federalState":{"key":"09","name":"Bayern"}},{"name":"Tulpenstr.","postalCode":"96250","locality":"Ebensfeld","municipality":{"key":"09478120","name":"Ebensfeld, M","type":"Markt"},"district":{"key":"09478","name":"Lichtenfels","type":"Landkreis"},"federalState":{"key":"09","name":"Bayern"}},{"name":"Untere Gartenstr.","postalCode":"96250","locality":"Ebensfeld","municipality":{"key":"09478120","name":"Ebensfeld, M","type":"Markt"},"district":{"key":"09478","name":"Lichtenfels","type":"Landkreis"},"federalState":{"key":"09","name":"Bayern"}},{"name":"Untere Mühle","postalCode":"96250","locality":"Ebensfeld","municipality":{"key":"09478120","name":"Ebensfeld, M","type":"Markt"},"district":{"key":"09478","name":"Lichtenfels","type":"Landkreis"},"federalState":{"key":"09","name":"Bayern"}},{"name":"Unterer Kellbachdamm","postalCode":"96250","locality":"Ebensfeld","municipality":{"key":"09478120","name":"Ebensfeld, M","type":"Markt"},"district":{"key":"09478","name":"Lichtenfels","type":"Landkreis"},"federalState":{"key":"09","name":"Bayern"}},{"name":"Untere Str.","postalCode":"96250","locality":"Ebensfeld","municipality":{"key":"09478120","name":"Ebensfeld, M","type":"Markt"},"district":{"key":"09478","name":"Lichtenfels","type":"Landkreis"},"federalState":{"key":"09","name":"Bayern"}},{"name":"Viktor-von-Scheffel-Str.","postalCode":"96250","locality":"Ebensfeld","municipality":{"key":"09478120","name":"Ebensfeld, M","type":"Markt"},"district":{"key":"09478","name":"Lichtenfels","type":"Landkreis"},"federalState":{"key":"09","name":"Bayern"}},{"name":"Vogteistr.","postalCode":"96250","locality":"Ebensfeld","municipality":{"key":"09478120","name":"Ebensfeld, M","type":"Markt"},"district":{"key":"09478","name":"Lichtenfels","type":"Landkreis"},"federalState":{"key":"09","name":"Bayern"}},{"name":"Waldweg","postalCode":"96250","locality":"Ebensfeld","municipality":{"key":"09478120","name":"Ebensfeld, M","type":"Markt"},"district":{"key":"09478","name":"Lichtenfels","type":"Landkreis"},"federalState":{"key":"09","name":"Bayern"}},{"name":"Wiesenweg","postalCode":"96250","locality":"Ebensfeld","municipality":{"key":"09478120","name":"Ebensfeld, M","type":"Markt"},"district":{"key":"09478","name":"Lichtenfels","type":"Landkreis"},"federalState":{"key":"09","name":"Bayern"}},{"name":"Wörth","postalCode":"96250","locality":"Ebensfeld","municipality":{"key":"09478120","name":"Ebensfeld, M","type":"Markt"},"district":{"key":"09478","name":"Lichtenfels","type":"Landkreis"},"federalState":{"key":"09","name":"Bayern"}},{"name":"Zeitelbachweg","postalCode":"96250","locality":"Ebensfeld","municipality":{"key":"09478120","name":"Ebensfeld, M","type":"Markt"},"district":{"key":"09478","name":"Lichtenfels","type":"Landkreis"},"federalState":{"key":"09","name":"Bayern"}},{"name":"Ziegelanger","postalCode":"96250","locality":"Ebensfeld","municipality":{"key":"09478120","name":"Ebensfeld, M","type":"Markt"},"district":{"key":"09478","name":"Lichtenfels","type":"Landkreis"},"federalState":{"key":"09","name":"Bayern"}},{"name":"Ziegelstr.","postalCode":"96250","locality":"Ebensfeld","municipality":{"key":"09478120","name":"Ebensfeld, M","type":"Markt"},"district":{"key":"09478","name":"Lichtenfels","type":"Landkreis"},"federalState":{"key":"09","name":"Bayern"}},{"name":"Zur Brauerei","postalCode":"96250","locality":"Ebensfeld","municipality":{"key":"09478120","name":"Ebensfeld, M","type":"Markt"},"district":{"key":"09478","name":"Lichtenfels","type":"Landkreis"},"federalState":{"key":"09","name":"Bayern"}},{"name":"Zur Leite","postalCode":"96250","locality":"Ebensfeld","municipality":{"key":"09478120","name":"Ebensfeld, M","type":"Markt"},"district":{"key":"09478","name":"Lichtenfels","type":"Landkreis"},"federalState":{"key":"09","name":"Bayern"}},{"name":"Zur Linde","postalCode":"96250","locality":"Ebensfeld","municipality":{"key":"09478120","name":"Ebensfeld, M","type":"Markt"},"district":{"key":"09478","name":"Lichtenfels","type":"Landkreis"},"federalState":{"key":"09","name":"Bayern"}},{"name":"Überscharweg","postalCode":"96215","locality":"Lichtenfels","municipality":{"key":"09478139","name":"Lichtenfels, St","type":"Stadt"},"district":{"key":"09478","name":"Lichtenfels","type":"Landkreis"},"federalState":{"key":"09","name":"Bayern"}},]