[{"name":"Alter Bergweg","postalCode":"97640","locality":"Hendungen","municipality":{"key":"09673130","name":"Hendungen","type":"Kreisangehörige_Gemeinde"},"district":{"key":"09673","name":"Rhön-Grabfeld","type":"Landkreis"},"federalState":{"key":"09","name":"Bayern"}},{"name":"Am Baumfeld","postalCode":"97640","locality":"Hendungen","municipality":{"key":"09673130","name":"Hendungen","type":"Kreisangehörige_Gemeinde"},"district":{"key":"09673","name":"Rhön-Grabfeld","type":"Landkreis"},"federalState":{"key":"09","name":"Bayern"}},{"name":"Am Hirtenberg","postalCode":"97640","locality":"Hendungen","municipality":{"key":"09673130","name":"Hendungen","type":"Kreisangehörige_Gemeinde"},"district":{"key":"09673","name":"Rhön-Grabfeld","type":"Landkreis"},"federalState":{"key":"09","name":"Bayern"}},{"name":"Am Kirchberg","postalCode":"97640","locality":"Hendungen","municipality":{"key":"09673130","name":"Hendungen","type":"Kreisangehörige_Gemeinde"},"district":{"key":"09673","name":"Rhön-Grabfeld","type":"Landkreis"},"federalState":{"key":"09","name":"Bayern"}},{"name":"Am Kirmesgarten","postalCode":"97640","locality":"Hendungen","municipality":{"key":"09673130","name":"Hendungen","type":"Kreisangehörige_Gemeinde"},"district":{"key":"09673","name":"Rhön-Grabfeld","type":"Landkreis"},"federalState":{"key":"09","name":"Bayern"}},{"name":"Am Schuhflicker","postalCode":"97640","locality":"Hendungen","municipality":{"key":"09673130","name":"Hendungen","type":"Kreisangehörige_Gemeinde"},"district":{"key":"09673","name":"Rhön-Grabfeld","type":"Landkreis"},"federalState":{"key":"09","name":"Bayern"}},{"name":"Am Wasserturm","postalCode":"97640","locality":"Hendungen","municipality":{"key":"09673130","name":"Hendungen","type":"Kreisangehörige_Gemeinde"},"district":{"key":"09673","name":"Rhön-Grabfeld","type":"Landkreis"},"federalState":{"key":"09","name":"Bayern"}},{"name":"Am Wingertsbrunnen","postalCode":"97640","locality":"Hendungen","municipality":{"key":"09673130","name":"Hendungen","type":"Kreisangehörige_Gemeinde"},"district":{"key":"09673","name":"Rhön-Grabfeld","type":"Landkreis"},"federalState":{"key":"09","name":"Bayern"}},{"name":"Bachgasse","postalCode":"97640","locality":"Hendungen","municipality":{"key":"09673130","name":"Hendungen","type":"Kreisangehörige_Gemeinde"},"district":{"key":"09673","name":"Rhön-Grabfeld","type":"Landkreis"},"federalState":{"key":"09","name":"Bayern"}},{"name":"Bahrastr.","postalCode":"97640","locality":"Hendungen","municipality":{"key":"09673130","name":"Hendungen","type":"Kreisangehörige_Gemeinde"},"district":{"key":"09673","name":"Rhön-Grabfeld","type":"Landkreis"},"federalState":{"key":"09","name":"Bayern"}},{"name":"Behrunger Str.","postalCode":"97640","locality":"Hendungen","municipality":{"key":"09673130","name":"Hendungen","type":"Kreisangehörige_Gemeinde"},"district":{"key":"09673","name":"Rhön-Grabfeld","type":"Landkreis"},"federalState":{"key":"09","name":"Bayern"}},{"name":"Brauhausweg","postalCode":"97640","locality":"Hendungen","municipality":{"key":"09673130","name":"Hendungen","type":"Kreisangehörige_Gemeinde"},"district":{"key":"09673","name":"Rhön-Grabfeld","type":"Landkreis"},"federalState":{"key":"09","name":"Bayern"}},{"name":"Dippich","postalCode":"97640","locality":"Hendungen","municipality":{"key":"09673130","name":"Hendungen","type":"Kreisangehörige_Gemeinde"},"district":{"key":"09673","name":"Rhön-Grabfeld","type":"Landkreis"},"federalState":{"key":"09","name":"Bayern"}},{"name":"Dorfgrabenweg","postalCode":"97640","locality":"Hendungen","municipality":{"key":"09673130","name":"Hendungen","type":"Kreisangehörige_Gemeinde"},"district":{"key":"09673","name":"Rhön-Grabfeld","type":"Landkreis"},"federalState":{"key":"09","name":"Bayern"}},{"name":"Dorfmauerweg","postalCode":"97640","locality":"Hendungen","municipality":{"key":"09673130","name":"Hendungen","type":"Kreisangehörige_Gemeinde"},"district":{"key":"09673","name":"Rhön-Grabfeld","type":"Landkreis"},"federalState":{"key":"09","name":"Bayern"}},{"name":"Dorfplatz","postalCode":"97640","locality":"Hendungen","municipality":{"key":"09673130","name":"Hendungen","type":"Kreisangehörige_Gemeinde"},"district":{"key":"09673","name":"Rhön-Grabfeld","type":"Landkreis"},"federalState":{"key":"09","name":"Bayern"}},{"name":"Finstere Gasse","postalCode":"97640","locality":"Hendungen","municipality":{"key":"09673130","name":"Hendungen","type":"Kreisangehörige_Gemeinde"},"district":{"key":"09673","name":"Rhön-Grabfeld","type":"Landkreis"},"federalState":{"key":"09","name":"Bayern"}},{"name":"Fliedergasse","postalCode":"97640","locality":"Hendungen","municipality":{"key":"09673130","name":"Hendungen","type":"Kreisangehörige_Gemeinde"},"district":{"key":"09673","name":"Rhön-Grabfeld","type":"Landkreis"},"federalState":{"key":"09","name":"Bayern"}},{"name":"Friedhofstr.","postalCode":"97640","locality":"Hendungen","municipality":{"key":"09673130","name":"Hendungen","type":"Kreisangehörige_Gemeinde"},"district":{"key":"09673","name":"Rhön-Grabfeld","type":"Landkreis"},"federalState":{"key":"09","name":"Bayern"}},{"name":"Fröschgasse","postalCode":"97640","locality":"Hendungen","municipality":{"key":"09673130","name":"Hendungen","type":"Kreisangehörige_Gemeinde"},"district":{"key":"09673","name":"Rhön-Grabfeld","type":"Landkreis"},"federalState":{"key":"09","name":"Bayern"}},{"name":"Gartenweg","postalCode":"97640","locality":"Hendungen","municipality":{"key":"09673130","name":"Hendungen","type":"Kreisangehörige_Gemeinde"},"district":{"key":"09673","name":"Rhön-Grabfeld","type":"Landkreis"},"federalState":{"key":"09","name":"Bayern"}},{"name":"Geuppertgasse","postalCode":"97640","locality":"Hendungen","municipality":{"key":"09673130","name":"Hendungen","type":"Kreisangehörige_Gemeinde"},"district":{"key":"09673","name":"Rhön-Grabfeld","type":"Landkreis"},"federalState":{"key":"09","name":"Bayern"}},{"name":"Grasweg","postalCode":"97640","locality":"Hendungen","municipality":{"key":"09673130","name":"Hendungen","type":"Kreisangehörige_Gemeinde"},"district":{"key":"09673","name":"Rhön-Grabfeld","type":"Landkreis"},"federalState":{"key":"09","name":"Bayern"}},{"name":"Hadelweg","postalCode":"97640","locality":"Hendungen","municipality":{"key":"09673130","name":"Hendungen","type":"Kreisangehörige_Gemeinde"},"district":{"key":"09673","name":"Rhön-Grabfeld","type":"Landkreis"},"federalState":{"key":"09","name":"Bayern"}},{"name":"Hauptstr.","postalCode":"97640","locality":"Hendungen","municipality":{"key":"09673130","name":"Hendungen","type":"Kreisangehörige_Gemeinde"},"district":{"key":"09673","name":"Rhön-Grabfeld","type":"Landkreis"},"federalState":{"key":"09","name":"Bayern"}},{"name":"Hinterlohn","postalCode":"97640","locality":"Hendungen","municipality":{"key":"09673130","name":"Hendungen","type":"Kreisangehörige_Gemeinde"},"district":{"key":"09673","name":"Rhön-Grabfeld","type":"Landkreis"},"federalState":{"key":"09","name":"Bayern"}},{"name":"Hinterm Dorf","postalCode":"97640","locality":"Hendungen","municipality":{"key":"09673130","name":"Hendungen","type":"Kreisangehörige_Gemeinde"},"district":{"key":"09673","name":"Rhön-Grabfeld","type":"Landkreis"},"federalState":{"key":"09","name":"Bayern"}},{"name":"Hirtenbergstr.","postalCode":"97640","locality":"Hendungen","municipality":{"key":"09673130","name":"Hendungen","type":"Kreisangehörige_Gemeinde"},"district":{"key":"09673","name":"Rhön-Grabfeld","type":"Landkreis"},"federalState":{"key":"09","name":"Bayern"}},{"name":"Industriestr.","postalCode":"97640","locality":"Hendungen","municipality":{"key":"09673130","name":"Hendungen","type":"Kreisangehörige_Gemeinde"},"district":{"key":"09673","name":"Rhön-Grabfeld","type":"Landkreis"},"federalState":{"key":"09","name":"Bayern"}},{"name":"Kirchbergstr.","postalCode":"97640","locality":"Hendungen","municipality":{"key":"09673130","name":"Hendungen","type":"Kreisangehörige_Gemeinde"},"district":{"key":"09673","name":"Rhön-Grabfeld","type":"Landkreis"},"federalState":{"key":"09","name":"Bayern"}},{"name":"Kirchgasse","postalCode":"97640","locality":"Hendungen","municipality":{"key":"09673130","name":"Hendungen","type":"Kreisangehörige_Gemeinde"},"district":{"key":"09673","name":"Rhön-Grabfeld","type":"Landkreis"},"federalState":{"key":"09","name":"Bayern"}},{"name":"Königshofer Weg","postalCode":"97640","locality":"Hendungen","municipality":{"key":"09673130","name":"Hendungen","type":"Kreisangehörige_Gemeinde"},"district":{"key":"09673","name":"Rhön-Grabfeld","type":"Landkreis"},"federalState":{"key":"09","name":"Bayern"}},{"name":"Lichtenbrunnstr.","postalCode":"97640","locality":"Hendungen","municipality":{"key":"09673130","name":"Hendungen","type":"Kreisangehörige_Gemeinde"},"district":{"key":"09673","name":"Rhön-Grabfeld","type":"Landkreis"},"federalState":{"key":"09","name":"Bayern"}},{"name":"Mellrichstädter Str.","postalCode":"97640","locality":"Hendungen","municipality":{"key":"09673130","name":"Hendungen","type":"Kreisangehörige_Gemeinde"},"district":{"key":"09673","name":"Rhön-Grabfeld","type":"Landkreis"},"federalState":{"key":"09","name":"Bayern"}},{"name":"Mittelhaugweg","postalCode":"97640","locality":"Hendungen","municipality":{"key":"09673130","name":"Hendungen","type":"Kreisangehörige_Gemeinde"},"district":{"key":"09673","name":"Rhön-Grabfeld","type":"Landkreis"},"federalState":{"key":"09","name":"Bayern"}},{"name":"Mittelweg","postalCode":"97640","locality":"Hendungen","municipality":{"key":"09673130","name":"Hendungen","type":"Kreisangehörige_Gemeinde"},"district":{"key":"09673","name":"Rhön-Grabfeld","type":"Landkreis"},"federalState":{"key":"09","name":"Bayern"}},{"name":"Nassach","postalCode":"97640","locality":"Hendungen","municipality":{"key":"09673130","name":"Hendungen","type":"Kreisangehörige_Gemeinde"},"district":{"key":"09673","name":"Rhön-Grabfeld","type":"Landkreis"},"federalState":{"key":"09","name":"Bayern"}},{"name":"Ottogasse","postalCode":"97640","locality":"Hendungen","municipality":{"key":"09673130","name":"Hendungen","type":"Kreisangehörige_Gemeinde"},"district":{"key":"09673","name":"Rhön-Grabfeld","type":"Landkreis"},"federalState":{"key":"09","name":"Bayern"}},{"name":"Prügelgasse","postalCode":"97640","locality":"Hendungen","municipality":{"key":"09673130","name":"Hendungen","type":"Kreisangehörige_Gemeinde"},"district":{"key":"09673","name":"Rhön-Grabfeld","type":"Landkreis"},"federalState":{"key":"09","name":"Bayern"}},{"name":"Raiffeisenstr.","postalCode":"97640","locality":"Hendungen","municipality":{"key":"09673130","name":"Hendungen","type":"Kreisangehörige_Gemeinde"},"district":{"key":"09673","name":"Rhön-Grabfeld","type":"Landkreis"},"federalState":{"key":"09","name":"Bayern"}},{"name":"Rappershäuser Str.","postalCode":"97640","locality":"Hendungen","municipality":{"key":"09673130","name":"Hendungen","type":"Kreisangehörige_Gemeinde"},"district":{"key":"09673","name":"Rhön-Grabfeld","type":"Landkreis"},"federalState":{"key":"09","name":"Bayern"}},{"name":"Rhönblickweg","postalCode":"97640","locality":"Hendungen","municipality":{"key":"09673130","name":"Hendungen","type":"Kreisangehörige_Gemeinde"},"district":{"key":"09673","name":"Rhön-Grabfeld","type":"Landkreis"},"federalState":{"key":"09","name":"Bayern"}},{"name":"Schmiedegasse","postalCode":"97640","locality":"Hendungen","municipality":{"key":"09673130","name":"Hendungen","type":"Kreisangehörige_Gemeinde"},"district":{"key":"09673","name":"Rhön-Grabfeld","type":"Landkreis"},"federalState":{"key":"09","name":"Bayern"}},{"name":"Schützenstr.","postalCode":"97640","locality":"Hendungen","municipality":{"key":"09673130","name":"Hendungen","type":"Kreisangehörige_Gemeinde"},"district":{"key":"09673","name":"Rhön-Grabfeld","type":"Landkreis"},"federalState":{"key":"09","name":"Bayern"}},{"name":"Sondheimer Str.","postalCode":"97640","locality":"Hendungen","municipality":{"key":"09673130","name":"Hendungen","type":"Kreisangehörige_Gemeinde"},"district":{"key":"09673","name":"Rhön-Grabfeld","type":"Landkreis"},"federalState":{"key":"09","name":"Bayern"}},{"name":"Sportplatzweg","postalCode":"97640","locality":"Hendungen","municipality":{"key":"09673130","name":"Hendungen","type":"Kreisangehörige_Gemeinde"},"district":{"key":"09673","name":"Rhön-Grabfeld","type":"Landkreis"},"federalState":{"key":"09","name":"Bayern"}},{"name":"Stiegelgasse","postalCode":"97640","locality":"Hendungen","municipality":{"key":"09673130","name":"Hendungen","type":"Kreisangehörige_Gemeinde"},"district":{"key":"09673","name":"Rhön-Grabfeld","type":"Landkreis"},"federalState":{"key":"09","name":"Bayern"}},{"name":"Wehnergasse","postalCode":"97640","locality":"Hendungen","municipality":{"key":"09673130","name":"Hendungen","type":"Kreisangehörige_Gemeinde"},"district":{"key":"09673","name":"Rhön-Grabfeld","type":"Landkreis"},"federalState":{"key":"09","name":"Bayern"}},{"name":"Wirtsgasse","postalCode":"97640","locality":"Hendungen","municipality":{"key":"09673130","name":"Hendungen","type":"Kreisangehörige_Gemeinde"},"district":{"key":"09673","name":"Rhön-Grabfeld","type":"Landkreis"},"federalState":{"key":"09","name":"Bayern"}},]