[{"name":"18.-März-Str.","postalCode":"99867","locality":"Gotha","municipality":{"key":"16067029","name":"Gotha, Stadt","type":"Stadt"},"district":{"key":"16067","name":"Gotha","type":"Landkreis"},"federalState":{"key":"16","name":"Thüringen"}},{"name":"Alter Plan","postalCode":"99958","locality":"Tonna","municipality":{"key":"16067067","name":"Tonna","type":"Kreisangehörige_Gemeinde"},"district":{"key":"16067","name":"Gotha","type":"Landkreis"},"federalState":{"key":"16","name":"Thüringen"}},{"name":"Am Wasser","postalCode":"99958","locality":"Tonna","municipality":{"key":"16067067","name":"Tonna","type":"Kreisangehörige_Gemeinde"},"district":{"key":"16067","name":"Gotha","type":"Landkreis"},"federalState":{"key":"16","name":"Thüringen"}},{"name":"Am Weinberg","postalCode":"99958","locality":"Tonna","municipality":{"key":"16067067","name":"Tonna","type":"Kreisangehörige_Gemeinde"},"district":{"key":"16067","name":"Gotha","type":"Landkreis"},"federalState":{"key":"16","name":"Thüringen"}},{"name":"Angerpforte","postalCode":"99958","locality":"Tonna","municipality":{"key":"16067067","name":"Tonna","type":"Kreisangehörige_Gemeinde"},"district":{"key":"16067","name":"Gotha","type":"Landkreis"},"federalState":{"key":"16","name":"Thüringen"}},{"name":"Ascharaer Str.","postalCode":"99958","locality":"Tonna","municipality":{"key":"16067067","name":"Tonna","type":"Kreisangehörige_Gemeinde"},"district":{"key":"16067","name":"Gotha","type":"Landkreis"},"federalState":{"key":"16","name":"Thüringen"}},{"name":"Bachstr.","postalCode":"99958","locality":"Tonna","municipality":{"key":"16067067","name":"Tonna","type":"Kreisangehörige_Gemeinde"},"district":{"key":"16067","name":"Gotha","type":"Landkreis"},"federalState":{"key":"16","name":"Thüringen"}},{"name":"Backhausgasse","postalCode":"99958","locality":"Tonna","municipality":{"key":"16067067","name":"Tonna","type":"Kreisangehörige_Gemeinde"},"district":{"key":"16067","name":"Gotha","type":"Landkreis"},"federalState":{"key":"16","name":"Thüringen"}},{"name":"Bahnhofstr.","postalCode":"99958","locality":"Tonna","municipality":{"key":"16067067","name":"Tonna","type":"Kreisangehörige_Gemeinde"},"district":{"key":"16067","name":"Gotha","type":"Landkreis"},"federalState":{"key":"16","name":"Thüringen"}},{"name":"Bahnstrecke Ballstädt-Straussfurt","postalCode":"99958","locality":"Tonna","municipality":{"key":"16067067","name":"Tonna","type":"Kreisangehörige_Gemeinde"},"district":{"key":"16067","name":"Gotha","type":"Landkreis"},"federalState":{"key":"16","name":"Thüringen"}},{"name":"Ballstädter Hauptstr.","postalCode":"99958","locality":"Tonna","municipality":{"key":"16067067","name":"Tonna","type":"Kreisangehörige_Gemeinde"},"district":{"key":"16067","name":"Gotha","type":"Landkreis"},"federalState":{"key":"16","name":"Thüringen"}},{"name":"Bierweg","postalCode":"99958","locality":"Tonna","municipality":{"key":"16067067","name":"Tonna","type":"Kreisangehörige_Gemeinde"},"district":{"key":"16067","name":"Gotha","type":"Landkreis"},"federalState":{"key":"16","name":"Thüringen"}},{"name":"Bleichstr.","postalCode":"99958","locality":"Tonna","municipality":{"key":"16067067","name":"Tonna","type":"Kreisangehörige_Gemeinde"},"district":{"key":"16067","name":"Gotha","type":"Landkreis"},"federalState":{"key":"16","name":"Thüringen"}},{"name":"Bodenweg","postalCode":"99958","locality":"Tonna","municipality":{"key":"16067067","name":"Tonna","type":"Kreisangehörige_Gemeinde"},"district":{"key":"16067","name":"Gotha","type":"Landkreis"},"federalState":{"key":"16","name":"Thüringen"}},{"name":"Brauhausstr.","postalCode":"99958","locality":"Tonna","municipality":{"key":"16067067","name":"Tonna","type":"Kreisangehörige_Gemeinde"},"district":{"key":"16067","name":"Gotha","type":"Landkreis"},"federalState":{"key":"16","name":"Thüringen"}},{"name":"Brauhof","postalCode":"99958","locality":"Tonna","municipality":{"key":"16067067","name":"Tonna","type":"Kreisangehörige_Gemeinde"},"district":{"key":"16067","name":"Gotha","type":"Landkreis"},"federalState":{"key":"16","name":"Thüringen"}},{"name":"Burggrabenstr.","postalCode":"99958","locality":"Tonna","municipality":{"key":"16067067","name":"Tonna","type":"Kreisangehörige_Gemeinde"},"district":{"key":"16067","name":"Gotha","type":"Landkreis"},"federalState":{"key":"16","name":"Thüringen"}},{"name":"Carl-Vogel-Weg","postalCode":"99867","locality":"Gotha","municipality":{"key":"16067029","name":"Gotha, Stadt","type":"Stadt"},"district":{"key":"16067","name":"Gotha","type":"Landkreis"},"federalState":{"key":"16","name":"Thüringen"}},{"name":"Carl-von-Ossietzky-Str.","postalCode":"99867","locality":"Gotha","municipality":{"key":"16067029","name":"Gotha, Stadt","type":"Stadt"},"district":{"key":"16067","name":"Gotha","type":"Landkreis"},"federalState":{"key":"16","name":"Thüringen"}},{"name":"Clara-Zetkin-Str.","postalCode":"99867","locality":"Gotha","municipality":{"key":"16067029","name":"Gotha, Stadt","type":"Stadt"},"district":{"key":"16067","name":"Gotha","type":"Landkreis"},"federalState":{"key":"16","name":"Thüringen"}},{"name":"Cobstädter Weg","postalCode":"99867","locality":"Gotha","municipality":{"key":"16067029","name":"Gotha, Stadt","type":"Stadt"},"district":{"key":"16067","name":"Gotha","type":"Landkreis"},"federalState":{"key":"16","name":"Thüringen"}},{"name":"Cosmarstr.","postalCode":"99867","locality":"Gotha","municipality":{"key":"16067029","name":"Gotha, Stadt","type":"Stadt"},"district":{"key":"16067","name":"Gotha","type":"Landkreis"},"federalState":{"key":"16","name":"Thüringen"}},{"name":"Dahlienweg","postalCode":"99958","locality":"Tonna","municipality":{"key":"16067067","name":"Tonna","type":"Kreisangehörige_Gemeinde"},"district":{"key":"16067","name":"Gotha","type":"Landkreis"},"federalState":{"key":"16","name":"Thüringen"}},{"name":"Dreilindenhof","postalCode":"99958","locality":"Tonna","municipality":{"key":"16067067","name":"Tonna","type":"Kreisangehörige_Gemeinde"},"district":{"key":"16067","name":"Gotha","type":"Landkreis"},"federalState":{"key":"16","name":"Thüringen"}},{"name":"Erfurter Str.","postalCode":"99958","locality":"Tonna","municipality":{"key":"16067067","name":"Tonna","type":"Kreisangehörige_Gemeinde"},"district":{"key":"16067","name":"Gotha","type":"Landkreis"},"federalState":{"key":"16","name":"Thüringen"}},{"name":"Eschenberger Weg","postalCode":"99958","locality":"Tonna","municipality":{"key":"16067067","name":"Tonna","type":"Kreisangehörige_Gemeinde"},"district":{"key":"16067","name":"Gotha","type":"Landkreis"},"federalState":{"key":"16","name":"Thüringen"}},{"name":"Fahnerscher Weg","postalCode":"99958","locality":"Tonna","municipality":{"key":"16067067","name":"Tonna","type":"Kreisangehörige_Gemeinde"},"district":{"key":"16067","name":"Gotha","type":"Landkreis"},"federalState":{"key":"16","name":"Thüringen"}},{"name":"Fallstr.","postalCode":"99958","locality":"Tonna","municipality":{"key":"16067067","name":"Tonna","type":"Kreisangehörige_Gemeinde"},"district":{"key":"16067","name":"Gotha","type":"Landkreis"},"federalState":{"key":"16","name":"Thüringen"}},{"name":"Fasanerie","postalCode":"99958","locality":"Tonna","municipality":{"key":"16067067","name":"Tonna","type":"Kreisangehörige_Gemeinde"},"district":{"key":"16067","name":"Gotha","type":"Landkreis"},"federalState":{"key":"16","name":"Thüringen"}},{"name":"Fasaneriestr.","postalCode":"99958","locality":"Tonna","municipality":{"key":"16067067","name":"Tonna","type":"Kreisangehörige_Gemeinde"},"district":{"key":"16067","name":"Gotha","type":"Landkreis"},"federalState":{"key":"16","name":"Thüringen"}},{"name":"Fliederweg","postalCode":"99958","locality":"Tonna","municipality":{"key":"16067067","name":"Tonna","type":"Kreisangehörige_Gemeinde"},"district":{"key":"16067","name":"Gotha","type":"Landkreis"},"federalState":{"key":"16","name":"Thüringen"}},{"name":"Gärtnerei","postalCode":"99958","locality":"Tonna","municipality":{"key":"16067067","name":"Tonna","type":"Kreisangehörige_Gemeinde"},"district":{"key":"16067","name":"Gotha","type":"Landkreis"},"federalState":{"key":"16","name":"Thüringen"}},{"name":"Gebeseer Str.","postalCode":"99958","locality":"Tonna","municipality":{"key":"16067067","name":"Tonna","type":"Kreisangehörige_Gemeinde"},"district":{"key":"16067","name":"Gotha","type":"Landkreis"},"federalState":{"key":"16","name":"Thüringen"}},{"name":"Geilingsgasse","postalCode":"99958","locality":"Tonna","municipality":{"key":"16067067","name":"Tonna","type":"Kreisangehörige_Gemeinde"},"district":{"key":"16067","name":"Gotha","type":"Landkreis"},"federalState":{"key":"16","name":"Thüringen"}},{"name":"Gothaer Str.","postalCode":"99958","locality":"Tonna","municipality":{"key":"16067067","name":"Tonna","type":"Kreisangehörige_Gemeinde"},"district":{"key":"16067","name":"Gotha","type":"Landkreis"},"federalState":{"key":"16","name":"Thüringen"}},{"name":"Hauptstr.","postalCode":"99958","locality":"Tonna","municipality":{"key":"16067067","name":"Tonna","type":"Kreisangehörige_Gemeinde"},"district":{"key":"16067","name":"Gotha","type":"Landkreis"},"federalState":{"key":"16","name":"Thüringen"}},{"name":"Herbsleber Str.","postalCode":"99958","locality":"Tonna","municipality":{"key":"16067067","name":"Tonna","type":"Kreisangehörige_Gemeinde"},"district":{"key":"16067","name":"Gotha","type":"Landkreis"},"federalState":{"key":"16","name":"Thüringen"}},{"name":"Hinter der Schenke","postalCode":"99958","locality":"Tonna","municipality":{"key":"16067067","name":"Tonna","type":"Kreisangehörige_Gemeinde"},"district":{"key":"16067","name":"Gotha","type":"Landkreis"},"federalState":{"key":"16","name":"Thüringen"}},{"name":"Hirtenstr.","postalCode":"99958","locality":"Tonna","municipality":{"key":"16067067","name":"Tonna","type":"Kreisangehörige_Gemeinde"},"district":{"key":"16067","name":"Gotha","type":"Landkreis"},"federalState":{"key":"16","name":"Thüringen"}},{"name":"Holzweg","postalCode":"99958","locality":"Tonna","municipality":{"key":"16067067","name":"Tonna","type":"Kreisangehörige_Gemeinde"},"district":{"key":"16067","name":"Gotha","type":"Landkreis"},"federalState":{"key":"16","name":"Thüringen"}},{"name":"Illebener Weg","postalCode":"99958","locality":"Tonna","municipality":{"key":"16067067","name":"Tonna","type":"Kreisangehörige_Gemeinde"},"district":{"key":"16067","name":"Gotha","type":"Landkreis"},"federalState":{"key":"16","name":"Thüringen"}},{"name":"Im Stemker","postalCode":"99958","locality":"Tonna","municipality":{"key":"16067067","name":"Tonna","type":"Kreisangehörige_Gemeinde"},"district":{"key":"16067","name":"Gotha","type":"Landkreis"},"federalState":{"key":"16","name":"Thüringen"}},{"name":"Jägergasse","postalCode":"99867","locality":"Gotha","municipality":{"key":"16067029","name":"Gotha, Stadt","type":"Stadt"},"district":{"key":"16067","name":"Gotha","type":"Landkreis"},"federalState":{"key":"16","name":"Thüringen"}},{"name":"Jägerstr.","postalCode":"99867","locality":"Gotha","municipality":{"key":"16067029","name":"Gotha, Stadt","type":"Stadt"},"district":{"key":"16067","name":"Gotha","type":"Landkreis"},"federalState":{"key":"16","name":"Thüringen"}},{"name":"Jenzschstr.","postalCode":"99867","locality":"Gotha","municipality":{"key":"16067029","name":"Gotha, Stadt","type":"Stadt"},"district":{"key":"16067","name":"Gotha","type":"Landkreis"},"federalState":{"key":"16","name":"Thüringen"}},{"name":"Johannesgasse","postalCode":"99867","locality":"Gotha","municipality":{"key":"16067029","name":"Gotha, Stadt","type":"Stadt"},"district":{"key":"16067","name":"Gotha","type":"Landkreis"},"federalState":{"key":"16","name":"Thüringen"}},{"name":"Johannesstr.","postalCode":"99867","locality":"Gotha","municipality":{"key":"16067029","name":"Gotha, Stadt","type":"Stadt"},"district":{"key":"16067","name":"Gotha","type":"Landkreis"},"federalState":{"key":"16","name":"Thüringen"}},{"name":"Joseph-Meyer-Str.","postalCode":"99867","locality":"Gotha","municipality":{"key":"16067029","name":"Gotha, Stadt","type":"Stadt"},"district":{"key":"16067","name":"Gotha","type":"Landkreis"},"federalState":{"key":"16","name":"Thüringen"}},{"name":"Jüdenstr.","postalCode":"99867","locality":"Gotha","municipality":{"key":"16067029","name":"Gotha, Stadt","type":"Stadt"},"district":{"key":"16067","name":"Gotha","type":"Landkreis"},"federalState":{"key":"16","name":"Thüringen"}},{"name":"Julius-Bertuch-Str.","postalCode":"99867","locality":"Gotha","municipality":{"key":"16067029","name":"Gotha, Stadt","type":"Stadt"},"district":{"key":"16067","name":"Gotha","type":"Landkreis"},"federalState":{"key":"16","name":"Thüringen"}},{"name":"Juri-Gagarin-Str.","postalCode":"99867","locality":"Gotha","municipality":{"key":"16067029","name":"Gotha, Stadt","type":"Stadt"},"district":{"key":"16067","name":"Gotha","type":"Landkreis"},"federalState":{"key":"16","name":"Thüringen"}},{"name":"Justus-Perthes-Str.","postalCode":"99867","locality":"Gotha","municipality":{"key":"16067029","name":"Gotha, Stadt","type":"Stadt"},"district":{"key":"16067","name":"Gotha","type":"Landkreis"},"federalState":{"key":"16","name":"Thüringen"}},{"name":"Kirchstr.","postalCode":"99958","locality":"Tonna","municipality":{"key":"16067067","name":"Tonna","type":"Kreisangehörige_Gemeinde"},"district":{"key":"16067","name":"Gotha","type":"Landkreis"},"federalState":{"key":"16","name":"Thüringen"}},{"name":"Kirschwiese","postalCode":"99958","locality":"Tonna","municipality":{"key":"16067067","name":"Tonna","type":"Kreisangehörige_Gemeinde"},"district":{"key":"16067","name":"Gotha","type":"Landkreis"},"federalState":{"key":"16","name":"Thüringen"}},{"name":"Langensalzaer Str.","postalCode":"99958","locality":"Tonna","municipality":{"key":"16067067","name":"Tonna","type":"Kreisangehörige_Gemeinde"},"district":{"key":"16067","name":"Gotha","type":"Landkreis"},"federalState":{"key":"16","name":"Thüringen"}},{"name":"Lange Str.","postalCode":"99958","locality":"Tonna","municipality":{"key":"16067067","name":"Tonna","type":"Kreisangehörige_Gemeinde"},"district":{"key":"16067","name":"Gotha","type":"Landkreis"},"federalState":{"key":"16","name":"Thüringen"}},{"name":"Lilienweg","postalCode":"99958","locality":"Tonna","municipality":{"key":"16067067","name":"Tonna","type":"Kreisangehörige_Gemeinde"},"district":{"key":"16067","name":"Gotha","type":"Landkreis"},"federalState":{"key":"16","name":"Thüringen"}},{"name":"Löwenberg","postalCode":"99958","locality":"Tonna","municipality":{"key":"16067067","name":"Tonna","type":"Kreisangehörige_Gemeinde"},"district":{"key":"16067","name":"Gotha","type":"Landkreis"},"federalState":{"key":"16","name":"Thüringen"}},{"name":"Markt","postalCode":"99958","locality":"Tonna","municipality":{"key":"16067067","name":"Tonna","type":"Kreisangehörige_Gemeinde"},"district":{"key":"16067","name":"Gotha","type":"Landkreis"},"federalState":{"key":"16","name":"Thüringen"}},{"name":"Mittelstr.","postalCode":"99958","locality":"Tonna","municipality":{"key":"16067067","name":"Tonna","type":"Kreisangehörige_Gemeinde"},"district":{"key":"16067","name":"Gotha","type":"Landkreis"},"federalState":{"key":"16","name":"Thüringen"}},{"name":"Moto-Cross-Strecke","postalCode":"99958","locality":"Tonna","municipality":{"key":"16067067","name":"Tonna","type":"Kreisangehörige_Gemeinde"},"district":{"key":"16067","name":"Gotha","type":"Landkreis"},"federalState":{"key":"16","name":"Thüringen"}},{"name":"Mühlgasse","postalCode":"99958","locality":"Tonna","municipality":{"key":"16067067","name":"Tonna","type":"Kreisangehörige_Gemeinde"},"district":{"key":"16067","name":"Gotha","type":"Landkreis"},"federalState":{"key":"16","name":"Thüringen"}},{"name":"Nägelstedter Weg","postalCode":"99958","locality":"Tonna","municipality":{"key":"16067067","name":"Tonna","type":"Kreisangehörige_Gemeinde"},"district":{"key":"16067","name":"Gotha","type":"Landkreis"},"federalState":{"key":"16","name":"Thüringen"}},{"name":"Neubau","postalCode":"99958","locality":"Tonna","municipality":{"key":"16067067","name":"Tonna","type":"Kreisangehörige_Gemeinde"},"district":{"key":"16067","name":"Gotha","type":"Landkreis"},"federalState":{"key":"16","name":"Thüringen"}},{"name":"Neuenstr.","postalCode":"99958","locality":"Tonna","municipality":{"key":"16067067","name":"Tonna","type":"Kreisangehörige_Gemeinde"},"district":{"key":"16067","name":"Gotha","type":"Landkreis"},"federalState":{"key":"16","name":"Thüringen"}},{"name":"Neuer Plan","postalCode":"99958","locality":"Tonna","municipality":{"key":"16067067","name":"Tonna","type":"Kreisangehörige_Gemeinde"},"district":{"key":"16067","name":"Gotha","type":"Landkreis"},"federalState":{"key":"16","name":"Thüringen"}},{"name":"Neues Tor","postalCode":"99958","locality":"Tonna","municipality":{"key":"16067067","name":"Tonna","type":"Kreisangehörige_Gemeinde"},"district":{"key":"16067","name":"Gotha","type":"Landkreis"},"federalState":{"key":"16","name":"Thüringen"}},{"name":"Neue Str.","postalCode":"99958","locality":"Tonna","municipality":{"key":"16067067","name":"Tonna","type":"Kreisangehörige_Gemeinde"},"district":{"key":"16067","name":"Gotha","type":"Landkreis"},"federalState":{"key":"16","name":"Thüringen"}},{"name":"Neustadt","postalCode":"99958","locality":"Tonna","municipality":{"key":"16067067","name":"Tonna","type":"Kreisangehörige_Gemeinde"},"district":{"key":"16067","name":"Gotha","type":"Landkreis"},"federalState":{"key":"16","name":"Thüringen"}},{"name":"Niedergrabenstr.","postalCode":"99958","locality":"Tonna","municipality":{"key":"16067067","name":"Tonna","type":"Kreisangehörige_Gemeinde"},"district":{"key":"16067","name":"Gotha","type":"Landkreis"},"federalState":{"key":"16","name":"Thüringen"}},{"name":"Niederhöfe","postalCode":"99958","locality":"Tonna","municipality":{"key":"16067067","name":"Tonna","type":"Kreisangehörige_Gemeinde"},"district":{"key":"16067","name":"Gotha","type":"Landkreis"},"federalState":{"key":"16","name":"Thüringen"}},{"name":"Niederstr.","postalCode":"99958","locality":"Tonna","municipality":{"key":"16067067","name":"Tonna","type":"Kreisangehörige_Gemeinde"},"district":{"key":"16067","name":"Gotha","type":"Landkreis"},"federalState":{"key":"16","name":"Thüringen"}},{"name":"Nordstr.","postalCode":"99958","locality":"Tonna","municipality":{"key":"16067067","name":"Tonna","type":"Kreisangehörige_Gemeinde"},"district":{"key":"16067","name":"Gotha","type":"Landkreis"},"federalState":{"key":"16","name":"Thüringen"}},{"name":"Obervorstadtstr.","postalCode":"99958","locality":"Tonna","municipality":{"key":"16067067","name":"Tonna","type":"Kreisangehörige_Gemeinde"},"district":{"key":"16067","name":"Gotha","type":"Landkreis"},"federalState":{"key":"16","name":"Thüringen"}},{"name":"Oststr.","postalCode":"99958","locality":"Tonna","municipality":{"key":"16067067","name":"Tonna","type":"Kreisangehörige_Gemeinde"},"district":{"key":"16067","name":"Gotha","type":"Landkreis"},"federalState":{"key":"16","name":"Thüringen"}},{"name":"Pfarrstr.","postalCode":"99958","locality":"Tonna","municipality":{"key":"16067067","name":"Tonna","type":"Kreisangehörige_Gemeinde"},"district":{"key":"16067","name":"Gotha","type":"Landkreis"},"federalState":{"key":"16","name":"Thüringen"}},{"name":"Platz der Jugend","postalCode":"99958","locality":"Tonna","municipality":{"key":"16067067","name":"Tonna","type":"Kreisangehörige_Gemeinde"},"district":{"key":"16067","name":"Gotha","type":"Landkreis"},"federalState":{"key":"16","name":"Thüringen"}},{"name":"Quergasse","postalCode":"99958","locality":"Tonna","municipality":{"key":"16067067","name":"Tonna","type":"Kreisangehörige_Gemeinde"},"district":{"key":"16067","name":"Gotha","type":"Landkreis"},"federalState":{"key":"16","name":"Thüringen"}},{"name":"Querstr.","postalCode":"99958","locality":"Tonna","municipality":{"key":"16067067","name":"Tonna","type":"Kreisangehörige_Gemeinde"},"district":{"key":"16067","name":"Gotha","type":"Landkreis"},"federalState":{"key":"16","name":"Thüringen"}},{"name":"Riedweg","postalCode":"99958","locality":"Tonna","municipality":{"key":"16067067","name":"Tonna","type":"Kreisangehörige_Gemeinde"},"district":{"key":"16067","name":"Gotha","type":"Landkreis"},"federalState":{"key":"16","name":"Thüringen"}},{"name":"Rosenweg","postalCode":"99958","locality":"Tonna","municipality":{"key":"16067067","name":"Tonna","type":"Kreisangehörige_Gemeinde"},"district":{"key":"16067","name":"Gotha","type":"Landkreis"},"federalState":{"key":"16","name":"Thüringen"}},{"name":"Schäferei","postalCode":"99958","locality":"Tonna","municipality":{"key":"16067067","name":"Tonna","type":"Kreisangehörige_Gemeinde"},"district":{"key":"16067","name":"Gotha","type":"Landkreis"},"federalState":{"key":"16","name":"Thüringen"}},{"name":"Schafgasse","postalCode":"99958","locality":"Tonna","municipality":{"key":"16067067","name":"Tonna","type":"Kreisangehörige_Gemeinde"},"district":{"key":"16067","name":"Gotha","type":"Landkreis"},"federalState":{"key":"16","name":"Thüringen"}},{"name":"Schlufter","postalCode":"99958","locality":"Tonna","municipality":{"key":"16067067","name":"Tonna","type":"Kreisangehörige_Gemeinde"},"district":{"key":"16067","name":"Gotha","type":"Landkreis"},"federalState":{"key":"16","name":"Thüringen"}},{"name":"Schmiedegasse","postalCode":"99958","locality":"Tonna","municipality":{"key":"16067067","name":"Tonna","type":"Kreisangehörige_Gemeinde"},"district":{"key":"16067","name":"Gotha","type":"Landkreis"},"federalState":{"key":"16","name":"Thüringen"}},{"name":"Schulstr.","postalCode":"99958","locality":"Tonna","municipality":{"key":"16067067","name":"Tonna","type":"Kreisangehörige_Gemeinde"},"district":{"key":"16067","name":"Gotha","type":"Landkreis"},"federalState":{"key":"16","name":"Thüringen"}},{"name":"Siedlung","postalCode":"99958","locality":"Tonna","municipality":{"key":"16067067","name":"Tonna","type":"Kreisangehörige_Gemeinde"},"district":{"key":"16067","name":"Gotha","type":"Landkreis"},"federalState":{"key":"16","name":"Thüringen"}},{"name":"Steinstr.","postalCode":"99958","locality":"Tonna","municipality":{"key":"16067067","name":"Tonna","type":"Kreisangehörige_Gemeinde"},"district":{"key":"16067","name":"Gotha","type":"Landkreis"},"federalState":{"key":"16","name":"Thüringen"}},{"name":"Südstr.","postalCode":"99958","locality":"Tonna","municipality":{"key":"16067067","name":"Tonna","type":"Kreisangehörige_Gemeinde"},"district":{"key":"16067","name":"Gotha","type":"Landkreis"},"federalState":{"key":"16","name":"Thüringen"}},{"name":"Teichstr.","postalCode":"99958","locality":"Tonna","municipality":{"key":"16067067","name":"Tonna","type":"Kreisangehörige_Gemeinde"},"district":{"key":"16067","name":"Gotha","type":"Landkreis"},"federalState":{"key":"16","name":"Thüringen"}},{"name":"Trift","postalCode":"99958","locality":"Tonna","municipality":{"key":"16067067","name":"Tonna","type":"Kreisangehörige_Gemeinde"},"district":{"key":"16067","name":"Gotha","type":"Landkreis"},"federalState":{"key":"16","name":"Thüringen"}},{"name":"Tulpenweg","postalCode":"99958","locality":"Tonna","municipality":{"key":"16067067","name":"Tonna","type":"Kreisangehörige_Gemeinde"},"district":{"key":"16067","name":"Gotha","type":"Landkreis"},"federalState":{"key":"16","name":"Thüringen"}},{"name":"Untervorstadtstr.","postalCode":"99958","locality":"Tonna","municipality":{"key":"16067067","name":"Tonna","type":"Kreisangehörige_Gemeinde"},"district":{"key":"16067","name":"Gotha","type":"Landkreis"},"federalState":{"key":"16","name":"Thüringen"}},{"name":"Vargulaer Str.","postalCode":"99958","locality":"Tonna","municipality":{"key":"16067067","name":"Tonna","type":"Kreisangehörige_Gemeinde"},"district":{"key":"16067","name":"Gotha","type":"Landkreis"},"federalState":{"key":"16","name":"Thüringen"}},{"name":"Viehgasse","postalCode":"99958","locality":"Tonna","municipality":{"key":"16067067","name":"Tonna","type":"Kreisangehörige_Gemeinde"},"district":{"key":"16067","name":"Gotha","type":"Landkreis"},"federalState":{"key":"16","name":"Thüringen"}},{"name":"Waldstr.","postalCode":"99958","locality":"Tonna","municipality":{"key":"16067067","name":"Tonna","type":"Kreisangehörige_Gemeinde"},"district":{"key":"16067","name":"Gotha","type":"Landkreis"},"federalState":{"key":"16","name":"Thüringen"}},{"name":"Zacharias-Becker-Str.","postalCode":"99867","locality":"Gotha","municipality":{"key":"16067029","name":"Gotha, Stadt","type":"Stadt"},"district":{"key":"16067","name":"Gotha","type":"Landkreis"},"federalState":{"key":"16","name":"Thüringen"}},{"name":"Zeisigweg","postalCode":"99867","locality":"Gotha","municipality":{"key":"16067029","name":"Gotha, Stadt","type":"Stadt"},"district":{"key":"16067","name":"Gotha","type":"Landkreis"},"federalState":{"key":"16","name":"Thüringen"}},{"name":"Zeppelinstr.","postalCode":"99867","locality":"Gotha","municipality":{"key":"16067029","name":"Gotha, Stadt","type":"Stadt"},"district":{"key":"16067","name":"Gotha","type":"Landkreis"},"federalState":{"key":"16","name":"Thüringen"}},{"name":"Ziegeleigasse","postalCode":"99867","locality":"Gotha","municipality":{"key":"16067029","name":"Gotha, Stadt","type":"Stadt"},"district":{"key":"16067","name":"Gotha","type":"Landkreis"},"federalState":{"key":"16","name":"Thüringen"}},{"name":"Zum Boxberg","postalCode":"99867","locality":"Gotha","municipality":{"key":"16067029","name":"Gotha, Stadt","type":"Stadt"},"district":{"key":"16067","name":"Gotha","type":"Landkreis"},"federalState":{"key":"16","name":"Thüringen"}},{"name":"Östertonnaer Str.","postalCode":"99958","locality":"Tonna","municipality":{"key":"16067067","name":"Tonna","type":"Kreisangehörige_Gemeinde"},"district":{"key":"16067","name":"Gotha","type":"Landkreis"},"federalState":{"key":"16","name":"Thüringen"}},]