[{"name":"Aggensteinstr.","postalCode":"87656","locality":"Germaringen","municipality":{"key":"09777130","name":"Germaringen","type":"Kreisangehörige_Gemeinde"},"district":{"key":"09777","name":"Ostallgäu","type":"Landkreis"},"federalState":{"key":"09","name":"Bayern"}},{"name":"Ahornweg","postalCode":"87656","locality":"Germaringen","municipality":{"key":"09777130","name":"Germaringen","type":"Kreisangehörige_Gemeinde"},"district":{"key":"09777","name":"Ostallgäu","type":"Landkreis"},"federalState":{"key":"09","name":"Bayern"}},{"name":"Akeleiweg","postalCode":"87656","locality":"Germaringen","municipality":{"key":"09777130","name":"Germaringen","type":"Kreisangehörige_Gemeinde"},"district":{"key":"09777","name":"Ostallgäu","type":"Landkreis"},"federalState":{"key":"09","name":"Bayern"}},{"name":"Alleeweg","postalCode":"87656","locality":"Germaringen","municipality":{"key":"09777130","name":"Germaringen","type":"Kreisangehörige_Gemeinde"},"district":{"key":"09777","name":"Ostallgäu","type":"Landkreis"},"federalState":{"key":"09","name":"Bayern"}},{"name":"Alpenrosenweg","postalCode":"87656","locality":"Germaringen","municipality":{"key":"09777130","name":"Germaringen","type":"Kreisangehörige_Gemeinde"},"district":{"key":"09777","name":"Ostallgäu","type":"Landkreis"},"federalState":{"key":"09","name":"Bayern"}},{"name":"Alpenweg","postalCode":"87656","locality":"Germaringen","municipality":{"key":"09777130","name":"Germaringen","type":"Kreisangehörige_Gemeinde"},"district":{"key":"09777","name":"Ostallgäu","type":"Landkreis"},"federalState":{"key":"09","name":"Bayern"}},{"name":"Am Bergfeld","postalCode":"87656","locality":"Germaringen","municipality":{"key":"09777130","name":"Germaringen","type":"Kreisangehörige_Gemeinde"},"district":{"key":"09777","name":"Ostallgäu","type":"Landkreis"},"federalState":{"key":"09","name":"Bayern"}},{"name":"Am Bühlet","postalCode":"87656","locality":"Germaringen","municipality":{"key":"09777130","name":"Germaringen","type":"Kreisangehörige_Gemeinde"},"district":{"key":"09777","name":"Ostallgäu","type":"Landkreis"},"federalState":{"key":"09","name":"Bayern"}},{"name":"Am Hang","postalCode":"87656","locality":"Germaringen","municipality":{"key":"09777130","name":"Germaringen","type":"Kreisangehörige_Gemeinde"},"district":{"key":"09777","name":"Ostallgäu","type":"Landkreis"},"federalState":{"key":"09","name":"Bayern"}},{"name":"Am Hart","postalCode":"87656","locality":"Germaringen","municipality":{"key":"09777130","name":"Germaringen","type":"Kreisangehörige_Gemeinde"},"district":{"key":"09777","name":"Ostallgäu","type":"Landkreis"},"federalState":{"key":"09","name":"Bayern"}},{"name":"Am Hofanger","postalCode":"87656","locality":"Germaringen","municipality":{"key":"09777130","name":"Germaringen","type":"Kreisangehörige_Gemeinde"},"district":{"key":"09777","name":"Ostallgäu","type":"Landkreis"},"federalState":{"key":"09","name":"Bayern"}},{"name":"Am Kollergang","postalCode":"87656","locality":"Germaringen","municipality":{"key":"09777130","name":"Germaringen","type":"Kreisangehörige_Gemeinde"},"district":{"key":"09777","name":"Ostallgäu","type":"Landkreis"},"federalState":{"key":"09","name":"Bayern"}},{"name":"Am Oberen Hart","postalCode":"87656","locality":"Germaringen","municipality":{"key":"09777130","name":"Germaringen","type":"Kreisangehörige_Gemeinde"},"district":{"key":"09777","name":"Ostallgäu","type":"Landkreis"},"federalState":{"key":"09","name":"Bayern"}},{"name":"Am Postberg","postalCode":"87656","locality":"Germaringen","municipality":{"key":"09777130","name":"Germaringen","type":"Kreisangehörige_Gemeinde"},"district":{"key":"09777","name":"Ostallgäu","type":"Landkreis"},"federalState":{"key":"09","name":"Bayern"}},{"name":"Am Riederloh","postalCode":"87600","locality":"Germaringen","municipality":{"key":"09777130","name":"Germaringen","type":"Kreisangehörige_Gemeinde"},"district":{"key":"09777","name":"Ostallgäu","type":"Landkreis"},"federalState":{"key":"09","name":"Bayern"}},{"name":"Am Schulberg","postalCode":"87656","locality":"Germaringen","municipality":{"key":"09777130","name":"Germaringen","type":"Kreisangehörige_Gemeinde"},"district":{"key":"09777","name":"Ostallgäu","type":"Landkreis"},"federalState":{"key":"09","name":"Bayern"}},{"name":"Am Unteren Hang","postalCode":"87656","locality":"Germaringen","municipality":{"key":"09777130","name":"Germaringen","type":"Kreisangehörige_Gemeinde"},"district":{"key":"09777","name":"Ostallgäu","type":"Landkreis"},"federalState":{"key":"09","name":"Bayern"}},{"name":"Am Ziegelstadel","postalCode":"87656","locality":"Germaringen","municipality":{"key":"09777130","name":"Germaringen","type":"Kreisangehörige_Gemeinde"},"district":{"key":"09777","name":"Ostallgäu","type":"Landkreis"},"federalState":{"key":"09","name":"Bayern"}},{"name":"An der Halde","postalCode":"87656","locality":"Germaringen","municipality":{"key":"09777130","name":"Germaringen","type":"Kreisangehörige_Gemeinde"},"district":{"key":"09777","name":"Ostallgäu","type":"Landkreis"},"federalState":{"key":"09","name":"Bayern"}},{"name":"Andreasweg","postalCode":"87656","locality":"Germaringen","municipality":{"key":"09777130","name":"Germaringen","type":"Kreisangehörige_Gemeinde"},"district":{"key":"09777","name":"Ostallgäu","type":"Landkreis"},"federalState":{"key":"09","name":"Bayern"}},{"name":"Anemonenweg","postalCode":"87656","locality":"Germaringen","municipality":{"key":"09777130","name":"Germaringen","type":"Kreisangehörige_Gemeinde"},"district":{"key":"09777","name":"Ostallgäu","type":"Landkreis"},"federalState":{"key":"09","name":"Bayern"}},{"name":"Angerweg","postalCode":"87656","locality":"Germaringen","municipality":{"key":"09777130","name":"Germaringen","type":"Kreisangehörige_Gemeinde"},"district":{"key":"09777","name":"Ostallgäu","type":"Landkreis"},"federalState":{"key":"09","name":"Bayern"}},{"name":"Aufkircher Str.","postalCode":"87656","locality":"Germaringen","municipality":{"key":"09777130","name":"Germaringen","type":"Kreisangehörige_Gemeinde"},"district":{"key":"09777","name":"Ostallgäu","type":"Landkreis"},"federalState":{"key":"09","name":"Bayern"}},{"name":"Bahnhofstr.","postalCode":"87656","locality":"Germaringen","municipality":{"key":"09777130","name":"Germaringen","type":"Kreisangehörige_Gemeinde"},"district":{"key":"09777","name":"Ostallgäu","type":"Landkreis"},"federalState":{"key":"09","name":"Bayern"}},{"name":"Beckstettener Str.","postalCode":"87656","locality":"Germaringen","municipality":{"key":"09777130","name":"Germaringen","type":"Kreisangehörige_Gemeinde"},"district":{"key":"09777","name":"Ostallgäu","type":"Landkreis"},"federalState":{"key":"09","name":"Bayern"}},{"name":"Bergblick","postalCode":"87656","locality":"Germaringen","municipality":{"key":"09777130","name":"Germaringen","type":"Kreisangehörige_Gemeinde"},"district":{"key":"09777","name":"Ostallgäu","type":"Landkreis"},"federalState":{"key":"09","name":"Bayern"}},{"name":"Bergstr.","postalCode":"87656","locality":"Germaringen","municipality":{"key":"09777130","name":"Germaringen","type":"Kreisangehörige_Gemeinde"},"district":{"key":"09777","name":"Ostallgäu","type":"Landkreis"},"federalState":{"key":"09","name":"Bayern"}},{"name":"Birkerweg","postalCode":"87656","locality":"Germaringen","municipality":{"key":"09777130","name":"Germaringen","type":"Kreisangehörige_Gemeinde"},"district":{"key":"09777","name":"Ostallgäu","type":"Landkreis"},"federalState":{"key":"09","name":"Bayern"}},{"name":"Blonhofener Str.","postalCode":"87656","locality":"Germaringen","municipality":{"key":"09777130","name":"Germaringen","type":"Kreisangehörige_Gemeinde"},"district":{"key":"09777","name":"Ostallgäu","type":"Landkreis"},"federalState":{"key":"09","name":"Bayern"}},{"name":"Breitenbergstr.","postalCode":"87656","locality":"Germaringen","municipality":{"key":"09777130","name":"Germaringen","type":"Kreisangehörige_Gemeinde"},"district":{"key":"09777","name":"Ostallgäu","type":"Landkreis"},"federalState":{"key":"09","name":"Bayern"}},{"name":"Brennerweg","postalCode":"87656","locality":"Germaringen","municipality":{"key":"09777130","name":"Germaringen","type":"Kreisangehörige_Gemeinde"},"district":{"key":"09777","name":"Ostallgäu","type":"Landkreis"},"federalState":{"key":"09","name":"Bayern"}},{"name":"Brunnengasse","postalCode":"87656","locality":"Germaringen","municipality":{"key":"09777130","name":"Germaringen","type":"Kreisangehörige_Gemeinde"},"district":{"key":"09777","name":"Ostallgäu","type":"Landkreis"},"federalState":{"key":"09","name":"Bayern"}},{"name":"Buchenweg","postalCode":"87656","locality":"Germaringen","municipality":{"key":"09777130","name":"Germaringen","type":"Kreisangehörige_Gemeinde"},"district":{"key":"09777","name":"Ostallgäu","type":"Landkreis"},"federalState":{"key":"09","name":"Bayern"}},{"name":"Buchloer Str.","postalCode":"87656","locality":"Germaringen","municipality":{"key":"09777130","name":"Germaringen","type":"Kreisangehörige_Gemeinde"},"district":{"key":"09777","name":"Ostallgäu","type":"Landkreis"},"federalState":{"key":"09","name":"Bayern"}},{"name":"Dösinger Str.","postalCode":"87656","locality":"Germaringen","municipality":{"key":"09777130","name":"Germaringen","type":"Kreisangehörige_Gemeinde"},"district":{"key":"09777","name":"Ostallgäu","type":"Landkreis"},"federalState":{"key":"09","name":"Bayern"}},{"name":"Edelweißweg","postalCode":"87656","locality":"Germaringen","municipality":{"key":"09777130","name":"Germaringen","type":"Kreisangehörige_Gemeinde"},"district":{"key":"09777","name":"Ostallgäu","type":"Landkreis"},"federalState":{"key":"09","name":"Bayern"}},{"name":"Egartweg","postalCode":"87656","locality":"Germaringen","municipality":{"key":"09777130","name":"Germaringen","type":"Kreisangehörige_Gemeinde"},"district":{"key":"09777","name":"Ostallgäu","type":"Landkreis"},"federalState":{"key":"09","name":"Bayern"}},{"name":"Egenbergerweg","postalCode":"87656","locality":"Germaringen","municipality":{"key":"09777130","name":"Germaringen","type":"Kreisangehörige_Gemeinde"},"district":{"key":"09777","name":"Ostallgäu","type":"Landkreis"},"federalState":{"key":"09","name":"Bayern"}},{"name":"Eibenweg","postalCode":"87656","locality":"Germaringen","municipality":{"key":"09777130","name":"Germaringen","type":"Kreisangehörige_Gemeinde"},"district":{"key":"09777","name":"Ostallgäu","type":"Landkreis"},"federalState":{"key":"09","name":"Bayern"}},{"name":"Eichenweg","postalCode":"87656","locality":"Germaringen","municipality":{"key":"09777130","name":"Germaringen","type":"Kreisangehörige_Gemeinde"},"district":{"key":"09777","name":"Ostallgäu","type":"Landkreis"},"federalState":{"key":"09","name":"Bayern"}},{"name":"Erlenweg","postalCode":"87656","locality":"Germaringen","municipality":{"key":"09777130","name":"Germaringen","type":"Kreisangehörige_Gemeinde"},"district":{"key":"09777","name":"Ostallgäu","type":"Landkreis"},"federalState":{"key":"09","name":"Bayern"}},{"name":"Ernteweg","postalCode":"87656","locality":"Germaringen","municipality":{"key":"09777130","name":"Germaringen","type":"Kreisangehörige_Gemeinde"},"district":{"key":"09777","name":"Ostallgäu","type":"Landkreis"},"federalState":{"key":"09","name":"Bayern"}},{"name":"Eschenweg","postalCode":"87656","locality":"Germaringen","municipality":{"key":"09777130","name":"Germaringen","type":"Kreisangehörige_Gemeinde"},"district":{"key":"09777","name":"Ostallgäu","type":"Landkreis"},"federalState":{"key":"09","name":"Bayern"}},{"name":"Fichtenweg","postalCode":"87656","locality":"Germaringen","municipality":{"key":"09777130","name":"Germaringen","type":"Kreisangehörige_Gemeinde"},"district":{"key":"09777","name":"Ostallgäu","type":"Landkreis"},"federalState":{"key":"09","name":"Bayern"}},{"name":"Flurweg","postalCode":"87656","locality":"Germaringen","municipality":{"key":"09777130","name":"Germaringen","type":"Kreisangehörige_Gemeinde"},"district":{"key":"09777","name":"Ostallgäu","type":"Landkreis"},"federalState":{"key":"09","name":"Bayern"}},{"name":"Frankenhofener Str.","postalCode":"87656","locality":"Germaringen","municipality":{"key":"09777130","name":"Germaringen","type":"Kreisangehörige_Gemeinde"},"district":{"key":"09777","name":"Ostallgäu","type":"Landkreis"},"federalState":{"key":"09","name":"Bayern"}},{"name":"Gablonzer Str.","postalCode":"87656","locality":"Germaringen","municipality":{"key":"09777130","name":"Germaringen","type":"Kreisangehörige_Gemeinde"},"district":{"key":"09777","name":"Ostallgäu","type":"Landkreis"},"federalState":{"key":"09","name":"Bayern"}},{"name":"Gartenstr.","postalCode":"87656","locality":"Germaringen","municipality":{"key":"09777130","name":"Germaringen","type":"Kreisangehörige_Gemeinde"},"district":{"key":"09777","name":"Ostallgäu","type":"Landkreis"},"federalState":{"key":"09","name":"Bayern"}},{"name":"Georgibergstr.","postalCode":"87656","locality":"Germaringen","municipality":{"key":"09777130","name":"Germaringen","type":"Kreisangehörige_Gemeinde"},"district":{"key":"09777","name":"Ostallgäu","type":"Landkreis"},"federalState":{"key":"09","name":"Bayern"}},{"name":"Germarstr.","postalCode":"87656","locality":"Germaringen","municipality":{"key":"09777130","name":"Germaringen","type":"Kreisangehörige_Gemeinde"},"district":{"key":"09777","name":"Ostallgäu","type":"Landkreis"},"federalState":{"key":"09","name":"Bayern"}},{"name":"Gutenberger Str.","postalCode":"87656","locality":"Germaringen","municipality":{"key":"09777130","name":"Germaringen","type":"Kreisangehörige_Gemeinde"},"district":{"key":"09777","name":"Ostallgäu","type":"Landkreis"},"federalState":{"key":"09","name":"Bayern"}},{"name":"Hartmähderweg","postalCode":"87600","locality":"Germaringen","municipality":{"key":"09777130","name":"Germaringen","type":"Kreisangehörige_Gemeinde"},"district":{"key":"09777","name":"Ostallgäu","type":"Landkreis"},"federalState":{"key":"09","name":"Bayern"}},{"name":"Hauptstr.","postalCode":"87656","locality":"Germaringen","municipality":{"key":"09777130","name":"Germaringen","type":"Kreisangehörige_Gemeinde"},"district":{"key":"09777","name":"Ostallgäu","type":"Landkreis"},"federalState":{"key":"09","name":"Bayern"}},{"name":"Helmishofener Str.","postalCode":"87656","locality":"Germaringen","municipality":{"key":"09777130","name":"Germaringen","type":"Kreisangehörige_Gemeinde"},"district":{"key":"09777","name":"Ostallgäu","type":"Landkreis"},"federalState":{"key":"09","name":"Bayern"}},{"name":"Höhenweg","postalCode":"87656","locality":"Germaringen","municipality":{"key":"09777130","name":"Germaringen","type":"Kreisangehörige_Gemeinde"},"district":{"key":"09777","name":"Ostallgäu","type":"Landkreis"},"federalState":{"key":"09","name":"Bayern"}},{"name":"Höllenweg","postalCode":"87656","locality":"Germaringen","municipality":{"key":"09777130","name":"Germaringen","type":"Kreisangehörige_Gemeinde"},"district":{"key":"09777","name":"Ostallgäu","type":"Landkreis"},"federalState":{"key":"09","name":"Bayern"}},{"name":"Hüttenweg","postalCode":"87656","locality":"Germaringen","municipality":{"key":"09777130","name":"Germaringen","type":"Kreisangehörige_Gemeinde"},"district":{"key":"09777","name":"Ostallgäu","type":"Landkreis"},"federalState":{"key":"09","name":"Bayern"}},{"name":"Jakobusweg","postalCode":"87656","locality":"Germaringen","municipality":{"key":"09777130","name":"Germaringen","type":"Kreisangehörige_Gemeinde"},"district":{"key":"09777","name":"Ostallgäu","type":"Landkreis"},"federalState":{"key":"09","name":"Bayern"}},{"name":"Kaltentaler Str.","postalCode":"87656","locality":"Germaringen","municipality":{"key":"09777130","name":"Germaringen","type":"Kreisangehörige_Gemeinde"},"district":{"key":"09777","name":"Ostallgäu","type":"Landkreis"},"federalState":{"key":"09","name":"Bayern"}},{"name":"Kaminweg","postalCode":"87656","locality":"Germaringen","municipality":{"key":"09777130","name":"Germaringen","type":"Kreisangehörige_Gemeinde"},"district":{"key":"09777","name":"Ostallgäu","type":"Landkreis"},"federalState":{"key":"09","name":"Bayern"}},{"name":"Kaufbeurer Str.","postalCode":"87656","locality":"Germaringen","municipality":{"key":"09777130","name":"Germaringen","type":"Kreisangehörige_Gemeinde"},"district":{"key":"09777","name":"Ostallgäu","type":"Landkreis"},"federalState":{"key":"09","name":"Bayern"}},{"name":"Kirchplatz","postalCode":"87656","locality":"Germaringen","municipality":{"key":"09777130","name":"Germaringen","type":"Kreisangehörige_Gemeinde"},"district":{"key":"09777","name":"Ostallgäu","type":"Landkreis"},"federalState":{"key":"09","name":"Bayern"}},{"name":"Kirchstr.","postalCode":"87656","locality":"Germaringen","municipality":{"key":"09777130","name":"Germaringen","type":"Kreisangehörige_Gemeinde"},"district":{"key":"09777","name":"Ostallgäu","type":"Landkreis"},"federalState":{"key":"09","name":"Bayern"}},{"name":"Krokusweg","postalCode":"87656","locality":"Germaringen","municipality":{"key":"09777130","name":"Germaringen","type":"Kreisangehörige_Gemeinde"},"district":{"key":"09777","name":"Ostallgäu","type":"Landkreis"},"federalState":{"key":"09","name":"Bayern"}},{"name":"Landstr.","postalCode":"87656","locality":"Germaringen","municipality":{"key":"09777130","name":"Germaringen","type":"Kreisangehörige_Gemeinde"},"district":{"key":"09777","name":"Ostallgäu","type":"Landkreis"},"federalState":{"key":"09","name":"Bayern"}},{"name":"Lärchenweg","postalCode":"87656","locality":"Germaringen","municipality":{"key":"09777130","name":"Germaringen","type":"Kreisangehörige_Gemeinde"},"district":{"key":"09777","name":"Ostallgäu","type":"Landkreis"},"federalState":{"key":"09","name":"Bayern"}},{"name":"La-Verrie-Str.","postalCode":"87656","locality":"Germaringen","municipality":{"key":"09777130","name":"Germaringen","type":"Kreisangehörige_Gemeinde"},"district":{"key":"09777","name":"Ostallgäu","type":"Landkreis"},"federalState":{"key":"09","name":"Bayern"}},{"name":"Lehmgrubenweg","postalCode":"87656","locality":"Germaringen","municipality":{"key":"09777130","name":"Germaringen","type":"Kreisangehörige_Gemeinde"},"district":{"key":"09777","name":"Ostallgäu","type":"Landkreis"},"federalState":{"key":"09","name":"Bayern"}},{"name":"Lindenstr.","postalCode":"87656","locality":"Germaringen","municipality":{"key":"09777130","name":"Germaringen","type":"Kreisangehörige_Gemeinde"},"district":{"key":"09777","name":"Ostallgäu","type":"Landkreis"},"federalState":{"key":"09","name":"Bayern"}},{"name":"Lorenweg","postalCode":"87656","locality":"Germaringen","municipality":{"key":"09777130","name":"Germaringen","type":"Kreisangehörige_Gemeinde"},"district":{"key":"09777","name":"Ostallgäu","type":"Landkreis"},"federalState":{"key":"09","name":"Bayern"}},{"name":"Lußweg","postalCode":"87656","locality":"Germaringen","municipality":{"key":"09777130","name":"Germaringen","type":"Kreisangehörige_Gemeinde"},"district":{"key":"09777","name":"Ostallgäu","type":"Landkreis"},"federalState":{"key":"09","name":"Bayern"}},{"name":"Narzissenweg","postalCode":"87656","locality":"Germaringen","municipality":{"key":"09777130","name":"Germaringen","type":"Kreisangehörige_Gemeinde"},"district":{"key":"09777","name":"Ostallgäu","type":"Landkreis"},"federalState":{"key":"09","name":"Bayern"}},{"name":"Ostendorfer Str.","postalCode":"87656","locality":"Germaringen","municipality":{"key":"09777130","name":"Germaringen","type":"Kreisangehörige_Gemeinde"},"district":{"key":"09777","name":"Ostallgäu","type":"Landkreis"},"federalState":{"key":"09","name":"Bayern"}},{"name":"Osterzeller Str.","postalCode":"87656","locality":"Germaringen","municipality":{"key":"09777130","name":"Germaringen","type":"Kreisangehörige_Gemeinde"},"district":{"key":"09777","name":"Ostallgäu","type":"Landkreis"},"federalState":{"key":"09","name":"Bayern"}},{"name":"Peter-Dörfler-Str.","postalCode":"87656","locality":"Germaringen","municipality":{"key":"09777130","name":"Germaringen","type":"Kreisangehörige_Gemeinde"},"district":{"key":"09777","name":"Ostallgäu","type":"Landkreis"},"federalState":{"key":"09","name":"Bayern"}},{"name":"Pfarrgarten","postalCode":"87656","locality":"Germaringen","municipality":{"key":"09777130","name":"Germaringen","type":"Kreisangehörige_Gemeinde"},"district":{"key":"09777","name":"Ostallgäu","type":"Landkreis"},"federalState":{"key":"09","name":"Bayern"}},{"name":"Pfarrgasse","postalCode":"87656","locality":"Germaringen","municipality":{"key":"09777130","name":"Germaringen","type":"Kreisangehörige_Gemeinde"},"district":{"key":"09777","name":"Ostallgäu","type":"Landkreis"},"federalState":{"key":"09","name":"Bayern"}},{"name":"Primelweg","postalCode":"87656","locality":"Germaringen","municipality":{"key":"09777130","name":"Germaringen","type":"Kreisangehörige_Gemeinde"},"district":{"key":"09777","name":"Ostallgäu","type":"Landkreis"},"federalState":{"key":"09","name":"Bayern"}},{"name":"Querstr.","postalCode":"87656","locality":"Germaringen","municipality":{"key":"09777130","name":"Germaringen","type":"Kreisangehörige_Gemeinde"},"district":{"key":"09777","name":"Ostallgäu","type":"Landkreis"},"federalState":{"key":"09","name":"Bayern"}},{"name":"Raiffeisenweg","postalCode":"87656","locality":"Germaringen","municipality":{"key":"09777130","name":"Germaringen","type":"Kreisangehörige_Gemeinde"},"district":{"key":"09777","name":"Ostallgäu","type":"Landkreis"},"federalState":{"key":"09","name":"Bayern"}},{"name":"Reifträgerweg","postalCode":"87600","locality":"Germaringen","municipality":{"key":"09777130","name":"Germaringen","type":"Kreisangehörige_Gemeinde"},"district":{"key":"09777","name":"Ostallgäu","type":"Landkreis"},"federalState":{"key":"09","name":"Bayern"}},{"name":"Riedener Weg","postalCode":"87656","locality":"Germaringen","municipality":{"key":"09777130","name":"Germaringen","type":"Kreisangehörige_Gemeinde"},"district":{"key":"09777","name":"Ostallgäu","type":"Landkreis"},"federalState":{"key":"09","name":"Bayern"}},{"name":"Ringofenweg","postalCode":"87656","locality":"Germaringen","municipality":{"key":"09777130","name":"Germaringen","type":"Kreisangehörige_Gemeinde"},"district":{"key":"09777","name":"Ostallgäu","type":"Landkreis"},"federalState":{"key":"09","name":"Bayern"}},{"name":"Ringweg","postalCode":"87656","locality":"Germaringen","municipality":{"key":"09777130","name":"Germaringen","type":"Kreisangehörige_Gemeinde"},"district":{"key":"09777","name":"Ostallgäu","type":"Landkreis"},"federalState":{"key":"09","name":"Bayern"}},{"name":"Sankt Wendelgasse","postalCode":"87656","locality":"Germaringen","municipality":{"key":"09777130","name":"Germaringen","type":"Kreisangehörige_Gemeinde"},"district":{"key":"09777","name":"Ostallgäu","type":"Landkreis"},"federalState":{"key":"09","name":"Bayern"}},{"name":"Säulingweg","postalCode":"87656","locality":"Germaringen","municipality":{"key":"09777130","name":"Germaringen","type":"Kreisangehörige_Gemeinde"},"district":{"key":"09777","name":"Ostallgäu","type":"Landkreis"},"federalState":{"key":"09","name":"Bayern"}},{"name":"Schulstr.","postalCode":"87656","locality":"Germaringen","municipality":{"key":"09777130","name":"Germaringen","type":"Kreisangehörige_Gemeinde"},"district":{"key":"09777","name":"Ostallgäu","type":"Landkreis"},"federalState":{"key":"09","name":"Bayern"}},{"name":"Schwabenweg","postalCode":"87656","locality":"Germaringen","municipality":{"key":"09777130","name":"Germaringen","type":"Kreisangehörige_Gemeinde"},"district":{"key":"09777","name":"Ostallgäu","type":"Landkreis"},"federalState":{"key":"09","name":"Bayern"}},{"name":"Sennereistr.","postalCode":"87656","locality":"Germaringen","municipality":{"key":"09777130","name":"Germaringen","type":"Kreisangehörige_Gemeinde"},"district":{"key":"09777","name":"Ostallgäu","type":"Landkreis"},"federalState":{"key":"09","name":"Bayern"}},{"name":"Siedlerweg","postalCode":"87656","locality":"Germaringen","municipality":{"key":"09777130","name":"Germaringen","type":"Kreisangehörige_Gemeinde"},"district":{"key":"09777","name":"Ostallgäu","type":"Landkreis"},"federalState":{"key":"09","name":"Bayern"}},{"name":"Sonnenstr.","postalCode":"87656","locality":"Germaringen","municipality":{"key":"09777130","name":"Germaringen","type":"Kreisangehörige_Gemeinde"},"district":{"key":"09777","name":"Ostallgäu","type":"Landkreis"},"federalState":{"key":"09","name":"Bayern"}},{"name":"Sportpark","postalCode":"87656","locality":"Germaringen","municipality":{"key":"09777130","name":"Germaringen","type":"Kreisangehörige_Gemeinde"},"district":{"key":"09777","name":"Ostallgäu","type":"Landkreis"},"federalState":{"key":"09","name":"Bayern"}},{"name":"Steinrißl","postalCode":"87656","locality":"Germaringen","municipality":{"key":"09777130","name":"Germaringen","type":"Kreisangehörige_Gemeinde"},"district":{"key":"09777","name":"Ostallgäu","type":"Landkreis"},"federalState":{"key":"09","name":"Bayern"}},{"name":"Stöttwanger Str.","postalCode":"87656","locality":"Germaringen","municipality":{"key":"09777130","name":"Germaringen","type":"Kreisangehörige_Gemeinde"},"district":{"key":"09777","name":"Ostallgäu","type":"Landkreis"},"federalState":{"key":"09","name":"Bayern"}},{"name":"St. Wendelgasse","postalCode":"87656","locality":"Germaringen","municipality":{"key":"09777130","name":"Germaringen","type":"Kreisangehörige_Gemeinde"},"district":{"key":"09777","name":"Ostallgäu","type":"Landkreis"},"federalState":{"key":"09","name":"Bayern"}},{"name":"Tegelbergstr.","postalCode":"87656","locality":"Germaringen","municipality":{"key":"09777130","name":"Germaringen","type":"Kreisangehörige_Gemeinde"},"district":{"key":"09777","name":"Ostallgäu","type":"Landkreis"},"federalState":{"key":"09","name":"Bayern"}},{"name":"Tiroler Str.","postalCode":"87656","locality":"Germaringen","municipality":{"key":"09777130","name":"Germaringen","type":"Kreisangehörige_Gemeinde"},"district":{"key":"09777","name":"Ostallgäu","type":"Landkreis"},"federalState":{"key":"09","name":"Bayern"}},{"name":"Tulpenweg","postalCode":"87656","locality":"Germaringen","municipality":{"key":"09777130","name":"Germaringen","type":"Kreisangehörige_Gemeinde"},"district":{"key":"09777","name":"Ostallgäu","type":"Landkreis"},"federalState":{"key":"09","name":"Bayern"}},{"name":"Waldstr.","postalCode":"87656","locality":"Germaringen","municipality":{"key":"09777130","name":"Germaringen","type":"Kreisangehörige_Gemeinde"},"district":{"key":"09777","name":"Ostallgäu","type":"Landkreis"},"federalState":{"key":"09","name":"Bayern"}},{"name":"Westendorfer Str.","postalCode":"87656","locality":"Germaringen","municipality":{"key":"09777130","name":"Germaringen","type":"Kreisangehörige_Gemeinde"},"district":{"key":"09777","name":"Ostallgäu","type":"Landkreis"},"federalState":{"key":"09","name":"Bayern"}},{"name":"Wiesenstr.","postalCode":"87656","locality":"Germaringen","municipality":{"key":"09777130","name":"Germaringen","type":"Kreisangehörige_Gemeinde"},"district":{"key":"09777","name":"Ostallgäu","type":"Landkreis"},"federalState":{"key":"09","name":"Bayern"}},{"name":"Ziegelring","postalCode":"87656","locality":"Germaringen","municipality":{"key":"09777130","name":"Germaringen","type":"Kreisangehörige_Gemeinde"},"district":{"key":"09777","name":"Ostallgäu","type":"Landkreis"},"federalState":{"key":"09","name":"Bayern"}},]