[{"name":"Ahauser Str.","postalCode":"88677","locality":"Markdorf","municipality":{"key":"08435034","name":"Markdorf, Stadt","type":"Stadt"},"district":{"key":"08435","name":"Bodenseekreis","type":"Landkreis"},"federalState":{"key":"08","name":"Baden-Württemberg"}},{"name":"Albert-Schweitzer-Str.","postalCode":"88677","locality":"Markdorf","municipality":{"key":"08435034","name":"Markdorf, Stadt","type":"Stadt"},"district":{"key":"08435","name":"Bodenseekreis","type":"Landkreis"},"federalState":{"key":"08","name":"Baden-Württemberg"}},{"name":"Am Anger","postalCode":"88677","locality":"Markdorf","municipality":{"key":"08435034","name":"Markdorf, Stadt","type":"Stadt"},"district":{"key":"08435","name":"Bodenseekreis","type":"Landkreis"},"federalState":{"key":"08","name":"Baden-Württemberg"}},{"name":"Am Azlenberg","postalCode":"88677","locality":"Markdorf","municipality":{"key":"08435034","name":"Markdorf, Stadt","type":"Stadt"},"district":{"key":"08435","name":"Bodenseekreis","type":"Landkreis"},"federalState":{"key":"08","name":"Baden-Württemberg"}},{"name":"Am Bildbach","postalCode":"88677","locality":"Markdorf","municipality":{"key":"08435034","name":"Markdorf, Stadt","type":"Stadt"},"district":{"key":"08435","name":"Bodenseekreis","type":"Landkreis"},"federalState":{"key":"08","name":"Baden-Württemberg"}},{"name":"Am Kreuzgarten","postalCode":"88677","locality":"Markdorf","municipality":{"key":"08435034","name":"Markdorf, Stadt","type":"Stadt"},"district":{"key":"08435","name":"Bodenseekreis","type":"Landkreis"},"federalState":{"key":"08","name":"Baden-Württemberg"}},{"name":"Am Neusatz","postalCode":"88677","locality":"Markdorf","municipality":{"key":"08435034","name":"Markdorf, Stadt","type":"Stadt"},"district":{"key":"08435","name":"Bodenseekreis","type":"Landkreis"},"federalState":{"key":"08","name":"Baden-Württemberg"}},{"name":"Am Ochsenbach","postalCode":"88677","locality":"Markdorf","municipality":{"key":"08435034","name":"Markdorf, Stadt","type":"Stadt"},"district":{"key":"08435","name":"Bodenseekreis","type":"Landkreis"},"federalState":{"key":"08","name":"Baden-Württemberg"}},{"name":"Am Ramsberg","postalCode":"88677","locality":"Markdorf","municipality":{"key":"08435034","name":"Markdorf, Stadt","type":"Stadt"},"district":{"key":"08435","name":"Bodenseekreis","type":"Landkreis"},"federalState":{"key":"08","name":"Baden-Württemberg"}},{"name":"Am Sonnenhang","postalCode":"88677","locality":"Markdorf","municipality":{"key":"08435034","name":"Markdorf, Stadt","type":"Stadt"},"district":{"key":"08435","name":"Bodenseekreis","type":"Landkreis"},"federalState":{"key":"08","name":"Baden-Württemberg"}},{"name":"Am Sportplatz","postalCode":"88677","locality":"Markdorf","municipality":{"key":"08435034","name":"Markdorf, Stadt","type":"Stadt"},"district":{"key":"08435","name":"Bodenseekreis","type":"Landkreis"},"federalState":{"key":"08","name":"Baden-Württemberg"}},{"name":"Am Stadtgraben","postalCode":"88677","locality":"Markdorf","municipality":{"key":"08435034","name":"Markdorf, Stadt","type":"Stadt"},"district":{"key":"08435","name":"Bodenseekreis","type":"Landkreis"},"federalState":{"key":"08","name":"Baden-Württemberg"}},{"name":"Am Wiesengrund","postalCode":"88677","locality":"Markdorf","municipality":{"key":"08435034","name":"Markdorf, Stadt","type":"Stadt"},"district":{"key":"08435","name":"Bodenseekreis","type":"Landkreis"},"federalState":{"key":"08","name":"Baden-Württemberg"}},{"name":"Andreas-Strobel-Str.","postalCode":"88677","locality":"Markdorf","municipality":{"key":"08435034","name":"Markdorf, Stadt","type":"Stadt"},"district":{"key":"08435","name":"Bodenseekreis","type":"Landkreis"},"federalState":{"key":"08","name":"Baden-Württemberg"}},{"name":"Angerplatz","postalCode":"88677","locality":"Markdorf","municipality":{"key":"08435034","name":"Markdorf, Stadt","type":"Stadt"},"district":{"key":"08435","name":"Bodenseekreis","type":"Landkreis"},"federalState":{"key":"08","name":"Baden-Württemberg"}},{"name":"Anton-Reichle-Str.","postalCode":"88677","locality":"Markdorf","municipality":{"key":"08435034","name":"Markdorf, Stadt","type":"Stadt"},"district":{"key":"08435","name":"Bodenseekreis","type":"Landkreis"},"federalState":{"key":"08","name":"Baden-Württemberg"}},{"name":"Apfelweg","postalCode":"88677","locality":"Markdorf","municipality":{"key":"08435034","name":"Markdorf, Stadt","type":"Stadt"},"district":{"key":"08435","name":"Bodenseekreis","type":"Landkreis"},"federalState":{"key":"08","name":"Baden-Württemberg"}},{"name":"Auenstr.","postalCode":"88677","locality":"Markdorf","municipality":{"key":"08435034","name":"Markdorf, Stadt","type":"Stadt"},"district":{"key":"08435","name":"Bodenseekreis","type":"Landkreis"},"federalState":{"key":"08","name":"Baden-Württemberg"}},{"name":"Azenbergstr.","postalCode":"88677","locality":"Markdorf","municipality":{"key":"08435034","name":"Markdorf, Stadt","type":"Stadt"},"district":{"key":"08435","name":"Bodenseekreis","type":"Landkreis"},"federalState":{"key":"08","name":"Baden-Württemberg"}},{"name":"Bachstelzenweg","postalCode":"88677","locality":"Markdorf","municipality":{"key":"08435034","name":"Markdorf, Stadt","type":"Stadt"},"district":{"key":"08435","name":"Bodenseekreis","type":"Landkreis"},"federalState":{"key":"08","name":"Baden-Württemberg"}},{"name":"Bahnhofstr.","postalCode":"88677","locality":"Markdorf","municipality":{"key":"08435034","name":"Markdorf, Stadt","type":"Stadt"},"district":{"key":"08435","name":"Bodenseekreis","type":"Landkreis"},"federalState":{"key":"08","name":"Baden-Württemberg"}},{"name":"Beethovenstr.","postalCode":"88677","locality":"Markdorf","municipality":{"key":"08435034","name":"Markdorf, Stadt","type":"Stadt"},"district":{"key":"08435","name":"Bodenseekreis","type":"Landkreis"},"federalState":{"key":"08","name":"Baden-Württemberg"}},{"name":"Bergheim","postalCode":"88677","locality":"Markdorf","municipality":{"key":"08435034","name":"Markdorf, Stadt","type":"Stadt"},"district":{"key":"08435","name":"Bodenseekreis","type":"Landkreis"},"federalState":{"key":"08","name":"Baden-Württemberg"}},{"name":"Bergheimer Str.","postalCode":"88677","locality":"Markdorf","municipality":{"key":"08435034","name":"Markdorf, Stadt","type":"Stadt"},"district":{"key":"08435","name":"Bodenseekreis","type":"Landkreis"},"federalState":{"key":"08","name":"Baden-Württemberg"}},{"name":"Bergstr.","postalCode":"88677","locality":"Markdorf","municipality":{"key":"08435034","name":"Markdorf, Stadt","type":"Stadt"},"district":{"key":"08435","name":"Bodenseekreis","type":"Landkreis"},"federalState":{"key":"08","name":"Baden-Württemberg"}},{"name":"Bernhardstr.","postalCode":"88677","locality":"Markdorf","municipality":{"key":"08435034","name":"Markdorf, Stadt","type":"Stadt"},"district":{"key":"08435","name":"Bodenseekreis","type":"Landkreis"},"federalState":{"key":"08","name":"Baden-Württemberg"}},{"name":"Biberacherhofstr.","postalCode":"88677","locality":"Markdorf","municipality":{"key":"08435034","name":"Markdorf, Stadt","type":"Stadt"},"district":{"key":"08435","name":"Bodenseekreis","type":"Landkreis"},"federalState":{"key":"08","name":"Baden-Württemberg"}},{"name":"Birnenweg","postalCode":"88677","locality":"Markdorf","municipality":{"key":"08435034","name":"Markdorf, Stadt","type":"Stadt"},"district":{"key":"08435","name":"Bodenseekreis","type":"Landkreis"},"federalState":{"key":"08","name":"Baden-Württemberg"}},{"name":"Blütenweg","postalCode":"88677","locality":"Markdorf","municipality":{"key":"08435034","name":"Markdorf, Stadt","type":"Stadt"},"district":{"key":"08435","name":"Bodenseekreis","type":"Landkreis"},"federalState":{"key":"08","name":"Baden-Württemberg"}},{"name":"Breitwiesenstr.","postalCode":"88677","locality":"Markdorf","municipality":{"key":"08435034","name":"Markdorf, Stadt","type":"Stadt"},"district":{"key":"08435","name":"Bodenseekreis","type":"Landkreis"},"federalState":{"key":"08","name":"Baden-Württemberg"}},{"name":"Breslauer Str.","postalCode":"88677","locality":"Markdorf","municipality":{"key":"08435034","name":"Markdorf, Stadt","type":"Stadt"},"district":{"key":"08435","name":"Bodenseekreis","type":"Landkreis"},"federalState":{"key":"08","name":"Baden-Württemberg"}},{"name":"Bruggergasse","postalCode":"88677","locality":"Markdorf","municipality":{"key":"08435034","name":"Markdorf, Stadt","type":"Stadt"},"district":{"key":"08435","name":"Bodenseekreis","type":"Landkreis"},"federalState":{"key":"08","name":"Baden-Württemberg"}},{"name":"Brühlstr.","postalCode":"88677","locality":"Markdorf","municipality":{"key":"08435034","name":"Markdorf, Stadt","type":"Stadt"},"district":{"key":"08435","name":"Bodenseekreis","type":"Landkreis"},"federalState":{"key":"08","name":"Baden-Württemberg"}},{"name":"Brunnerstr.","postalCode":"88677","locality":"Markdorf","municipality":{"key":"08435034","name":"Markdorf, Stadt","type":"Stadt"},"district":{"key":"08435","name":"Bodenseekreis","type":"Landkreis"},"federalState":{"key":"08","name":"Baden-Württemberg"}},{"name":"Brunnisaachweg","postalCode":"88677","locality":"Markdorf","municipality":{"key":"08435034","name":"Markdorf, Stadt","type":"Stadt"},"district":{"key":"08435","name":"Bodenseekreis","type":"Landkreis"},"federalState":{"key":"08","name":"Baden-Württemberg"}},{"name":"Buchenweg","postalCode":"88677","locality":"Markdorf","municipality":{"key":"08435034","name":"Markdorf, Stadt","type":"Stadt"},"district":{"key":"08435","name":"Bodenseekreis","type":"Landkreis"},"federalState":{"key":"08","name":"Baden-Württemberg"}},{"name":"Burgerholzweg","postalCode":"88677","locality":"Markdorf","municipality":{"key":"08435034","name":"Markdorf, Stadt","type":"Stadt"},"district":{"key":"08435","name":"Bodenseekreis","type":"Landkreis"},"federalState":{"key":"08","name":"Baden-Württemberg"}},{"name":"Burgstallweg","postalCode":"88677","locality":"Markdorf","municipality":{"key":"08435034","name":"Markdorf, Stadt","type":"Stadt"},"district":{"key":"08435","name":"Bodenseekreis","type":"Landkreis"},"federalState":{"key":"08","name":"Baden-Württemberg"}},{"name":"Bussenstr.","postalCode":"88677","locality":"Markdorf","municipality":{"key":"08435034","name":"Markdorf, Stadt","type":"Stadt"},"district":{"key":"08435","name":"Bodenseekreis","type":"Landkreis"},"federalState":{"key":"08","name":"Baden-Württemberg"}},{"name":"Daimlerstr.","postalCode":"88677","locality":"Markdorf","municipality":{"key":"08435034","name":"Markdorf, Stadt","type":"Stadt"},"district":{"key":"08435","name":"Bodenseekreis","type":"Landkreis"},"federalState":{"key":"08","name":"Baden-Württemberg"}},{"name":"Danziger Str.","postalCode":"88677","locality":"Markdorf","municipality":{"key":"08435034","name":"Markdorf, Stadt","type":"Stadt"},"district":{"key":"08435","name":"Bodenseekreis","type":"Landkreis"},"federalState":{"key":"08","name":"Baden-Württemberg"}},{"name":"Döbelering","postalCode":"88677","locality":"Markdorf","municipality":{"key":"08435034","name":"Markdorf, Stadt","type":"Stadt"},"district":{"key":"08435","name":"Bodenseekreis","type":"Landkreis"},"federalState":{"key":"08","name":"Baden-Württemberg"}},{"name":"Döbelestr.","postalCode":"88677","locality":"Markdorf","municipality":{"key":"08435034","name":"Markdorf, Stadt","type":"Stadt"},"district":{"key":"08435","name":"Bodenseekreis","type":"Landkreis"},"federalState":{"key":"08","name":"Baden-Württemberg"}},{"name":"Döllenbachweg","postalCode":"88677","locality":"Markdorf","municipality":{"key":"08435034","name":"Markdorf, Stadt","type":"Stadt"},"district":{"key":"08435","name":"Bodenseekreis","type":"Landkreis"},"federalState":{"key":"08","name":"Baden-Württemberg"}},{"name":"Döllenstr.","postalCode":"88677","locality":"Markdorf","municipality":{"key":"08435034","name":"Markdorf, Stadt","type":"Stadt"},"district":{"key":"08435","name":"Bodenseekreis","type":"Landkreis"},"federalState":{"key":"08","name":"Baden-Württemberg"}},{"name":"Dornierstr.","postalCode":"88677","locality":"Markdorf","municipality":{"key":"08435034","name":"Markdorf, Stadt","type":"Stadt"},"district":{"key":"08435","name":"Bodenseekreis","type":"Landkreis"},"federalState":{"key":"08","name":"Baden-Württemberg"}},{"name":"Drosselweg","postalCode":"88677","locality":"Markdorf","municipality":{"key":"08435034","name":"Markdorf, Stadt","type":"Stadt"},"district":{"key":"08435","name":"Bodenseekreis","type":"Landkreis"},"federalState":{"key":"08","name":"Baden-Württemberg"}},{"name":"Efrizweilerstr.","postalCode":"88677","locality":"Markdorf","municipality":{"key":"08435034","name":"Markdorf, Stadt","type":"Stadt"},"district":{"key":"08435","name":"Bodenseekreis","type":"Landkreis"},"federalState":{"key":"08","name":"Baden-Württemberg"}},{"name":"Eichenweg","postalCode":"88677","locality":"Markdorf","municipality":{"key":"08435034","name":"Markdorf, Stadt","type":"Stadt"},"district":{"key":"08435","name":"Bodenseekreis","type":"Landkreis"},"federalState":{"key":"08","name":"Baden-Württemberg"}},{"name":"Eisenbahnstr.","postalCode":"88677","locality":"Markdorf","municipality":{"key":"08435034","name":"Markdorf, Stadt","type":"Stadt"},"district":{"key":"08435","name":"Bodenseekreis","type":"Landkreis"},"federalState":{"key":"08","name":"Baden-Württemberg"}},{"name":"Elblingweg","postalCode":"88677","locality":"Markdorf","municipality":{"key":"08435034","name":"Markdorf, Stadt","type":"Stadt"},"district":{"key":"08435","name":"Bodenseekreis","type":"Landkreis"},"federalState":{"key":"08","name":"Baden-Württemberg"}},{"name":"Emil-Lanz-Hof","postalCode":"88677","locality":"Markdorf","municipality":{"key":"08435034","name":"Markdorf, Stadt","type":"Stadt"},"district":{"key":"08435","name":"Bodenseekreis","type":"Landkreis"},"federalState":{"key":"08","name":"Baden-Württemberg"}},{"name":"Emil-Lanz-Str.","postalCode":"88677","locality":"Markdorf","municipality":{"key":"08435034","name":"Markdorf, Stadt","type":"Stadt"},"district":{"key":"08435","name":"Bodenseekreis","type":"Landkreis"},"federalState":{"key":"08","name":"Baden-Württemberg"}},{"name":"Ensisheimer Str.","postalCode":"88677","locality":"Markdorf","municipality":{"key":"08435034","name":"Markdorf, Stadt","type":"Stadt"},"district":{"key":"08435","name":"Bodenseekreis","type":"Landkreis"},"federalState":{"key":"08","name":"Baden-Württemberg"}},{"name":"Entenschnabelweg","postalCode":"88677","locality":"Markdorf","municipality":{"key":"08435034","name":"Markdorf, Stadt","type":"Stadt"},"district":{"key":"08435","name":"Bodenseekreis","type":"Landkreis"},"federalState":{"key":"08","name":"Baden-Württemberg"}},{"name":"Erlenweg","postalCode":"88677","locality":"Markdorf","municipality":{"key":"08435034","name":"Markdorf, Stadt","type":"Stadt"},"district":{"key":"08435","name":"Bodenseekreis","type":"Landkreis"},"federalState":{"key":"08","name":"Baden-Württemberg"}},{"name":"Eugenienstr.","postalCode":"88677","locality":"Markdorf","municipality":{"key":"08435034","name":"Markdorf, Stadt","type":"Stadt"},"district":{"key":"08435","name":"Bodenseekreis","type":"Landkreis"},"federalState":{"key":"08","name":"Baden-Württemberg"}},{"name":"Felbenhof","postalCode":"88677","locality":"Markdorf","municipality":{"key":"08435034","name":"Markdorf, Stadt","type":"Stadt"},"district":{"key":"08435","name":"Bodenseekreis","type":"Landkreis"},"federalState":{"key":"08","name":"Baden-Württemberg"}},{"name":"Felbenweiher","postalCode":"88677","locality":"Markdorf","municipality":{"key":"08435034","name":"Markdorf, Stadt","type":"Stadt"},"district":{"key":"08435","name":"Bodenseekreis","type":"Landkreis"},"federalState":{"key":"08","name":"Baden-Württemberg"}},{"name":"Fitzenweiler","postalCode":"88677","locality":"Markdorf","municipality":{"key":"08435034","name":"Markdorf, Stadt","type":"Stadt"},"district":{"key":"08435","name":"Bodenseekreis","type":"Landkreis"},"federalState":{"key":"08","name":"Baden-Württemberg"}},{"name":"Fitzenweilerstr.","postalCode":"88677","locality":"Markdorf","municipality":{"key":"08435034","name":"Markdorf, Stadt","type":"Stadt"},"district":{"key":"08435","name":"Bodenseekreis","type":"Landkreis"},"federalState":{"key":"08","name":"Baden-Württemberg"}},{"name":"Fliederweg","postalCode":"88677","locality":"Markdorf","municipality":{"key":"08435034","name":"Markdorf, Stadt","type":"Stadt"},"district":{"key":"08435","name":"Bodenseekreis","type":"Landkreis"},"federalState":{"key":"08","name":"Baden-Württemberg"}},{"name":"Florianweg","postalCode":"88677","locality":"Markdorf","municipality":{"key":"08435034","name":"Markdorf, Stadt","type":"Stadt"},"district":{"key":"08435","name":"Bodenseekreis","type":"Landkreis"},"federalState":{"key":"08","name":"Baden-Württemberg"}},{"name":"Friedhofstr.","postalCode":"88677","locality":"Markdorf","municipality":{"key":"08435034","name":"Markdorf, Stadt","type":"Stadt"},"district":{"key":"08435","name":"Bodenseekreis","type":"Landkreis"},"federalState":{"key":"08","name":"Baden-Württemberg"}},{"name":"Fürstenbergstr.","postalCode":"88677","locality":"Markdorf","municipality":{"key":"08435034","name":"Markdorf, Stadt","type":"Stadt"},"district":{"key":"08435","name":"Bodenseekreis","type":"Landkreis"},"federalState":{"key":"08","name":"Baden-Württemberg"}},{"name":"Fürstenberg Weg","postalCode":"88677","locality":"Markdorf","municipality":{"key":"08435034","name":"Markdorf, Stadt","type":"Stadt"},"district":{"key":"08435","name":"Bodenseekreis","type":"Landkreis"},"federalState":{"key":"08","name":"Baden-Württemberg"}},{"name":"Gartenstr.","postalCode":"88677","locality":"Markdorf","municipality":{"key":"08435034","name":"Markdorf, Stadt","type":"Stadt"},"district":{"key":"08435","name":"Bodenseekreis","type":"Landkreis"},"federalState":{"key":"08","name":"Baden-Württemberg"}},{"name":"Gartenweg","postalCode":"88677","locality":"Markdorf","municipality":{"key":"08435034","name":"Markdorf, Stadt","type":"Stadt"},"district":{"key":"08435","name":"Bodenseekreis","type":"Landkreis"},"federalState":{"key":"08","name":"Baden-Württemberg"}},{"name":"Garwiedenweg","postalCode":"88677","locality":"Markdorf","municipality":{"key":"08435034","name":"Markdorf, Stadt","type":"Stadt"},"district":{"key":"08435","name":"Bodenseekreis","type":"Landkreis"},"federalState":{"key":"08","name":"Baden-Württemberg"}},{"name":"Gaußstr.","postalCode":"88677","locality":"Markdorf","municipality":{"key":"08435034","name":"Markdorf, Stadt","type":"Stadt"},"district":{"key":"08435","name":"Bodenseekreis","type":"Landkreis"},"federalState":{"key":"08","name":"Baden-Württemberg"}},{"name":"Gehrenberg","postalCode":"88677","locality":"Markdorf","municipality":{"key":"08435034","name":"Markdorf, Stadt","type":"Stadt"},"district":{"key":"08435","name":"Bodenseekreis","type":"Landkreis"},"federalState":{"key":"08","name":"Baden-Württemberg"}},{"name":"Gehrenbergstr.","postalCode":"88677","locality":"Markdorf","municipality":{"key":"08435034","name":"Markdorf, Stadt","type":"Stadt"},"district":{"key":"08435","name":"Bodenseekreis","type":"Landkreis"},"federalState":{"key":"08","name":"Baden-Württemberg"}},{"name":"Georg-Friedrich-Händel-Str.","postalCode":"88677","locality":"Markdorf","municipality":{"key":"08435034","name":"Markdorf, Stadt","type":"Stadt"},"district":{"key":"08435","name":"Bodenseekreis","type":"Landkreis"},"federalState":{"key":"08","name":"Baden-Württemberg"}},{"name":"Gnadenauweg","postalCode":"88677","locality":"Markdorf","municipality":{"key":"08435034","name":"Markdorf, Stadt","type":"Stadt"},"district":{"key":"08435","name":"Bodenseekreis","type":"Landkreis"},"federalState":{"key":"08","name":"Baden-Württemberg"}},{"name":"Goethestr.","postalCode":"88677","locality":"Markdorf","municipality":{"key":"08435034","name":"Markdorf, Stadt","type":"Stadt"},"district":{"key":"08435","name":"Bodenseekreis","type":"Landkreis"},"federalState":{"key":"08","name":"Baden-Württemberg"}},{"name":"Grafen - Schachenweg","postalCode":"88677","locality":"Markdorf","municipality":{"key":"08435034","name":"Markdorf, Stadt","type":"Stadt"},"district":{"key":"08435","name":"Bodenseekreis","type":"Landkreis"},"federalState":{"key":"08","name":"Baden-Württemberg"}},{"name":"Grivitenstr.","postalCode":"88677","locality":"Markdorf","municipality":{"key":"08435034","name":"Markdorf, Stadt","type":"Stadt"},"district":{"key":"08435","name":"Bodenseekreis","type":"Landkreis"},"federalState":{"key":"08","name":"Baden-Württemberg"}},{"name":"Grundweg","postalCode":"88677","locality":"Markdorf","municipality":{"key":"08435034","name":"Markdorf, Stadt","type":"Stadt"},"district":{"key":"08435","name":"Bodenseekreis","type":"Landkreis"},"federalState":{"key":"08","name":"Baden-Württemberg"}},{"name":"Gutenbergstr.","postalCode":"88677","locality":"Markdorf","municipality":{"key":"08435034","name":"Markdorf, Stadt","type":"Stadt"},"district":{"key":"08435","name":"Bodenseekreis","type":"Landkreis"},"federalState":{"key":"08","name":"Baden-Württemberg"}},{"name":"Hahnstr.","postalCode":"88677","locality":"Markdorf","municipality":{"key":"08435034","name":"Markdorf, Stadt","type":"Stadt"},"district":{"key":"08435","name":"Bodenseekreis","type":"Landkreis"},"federalState":{"key":"08","name":"Baden-Württemberg"}},{"name":"Haldenweg","postalCode":"88677","locality":"Markdorf","municipality":{"key":"08435034","name":"Markdorf, Stadt","type":"Stadt"},"district":{"key":"08435","name":"Bodenseekreis","type":"Landkreis"},"federalState":{"key":"08","name":"Baden-Württemberg"}},{"name":"Hans-Wagenitz-Str.","postalCode":"88677","locality":"Markdorf","municipality":{"key":"08435034","name":"Markdorf, Stadt","type":"Stadt"},"district":{"key":"08435","name":"Bodenseekreis","type":"Landkreis"},"federalState":{"key":"08","name":"Baden-Württemberg"}},{"name":"Haslach","postalCode":"88677","locality":"Markdorf","municipality":{"key":"08435034","name":"Markdorf, Stadt","type":"Stadt"},"district":{"key":"08435","name":"Bodenseekreis","type":"Landkreis"},"federalState":{"key":"08","name":"Baden-Württemberg"}},{"name":"Hauptstr.","postalCode":"88677","locality":"Markdorf","municipality":{"key":"08435034","name":"Markdorf, Stadt","type":"Stadt"},"district":{"key":"08435","name":"Bodenseekreis","type":"Landkreis"},"federalState":{"key":"08","name":"Baden-Württemberg"}},{"name":"Heggelinstr.","postalCode":"88677","locality":"Markdorf","municipality":{"key":"08435034","name":"Markdorf, Stadt","type":"Stadt"},"district":{"key":"08435","name":"Bodenseekreis","type":"Landkreis"},"federalState":{"key":"08","name":"Baden-Württemberg"}},{"name":"Heidengasse","postalCode":"88677","locality":"Markdorf","municipality":{"key":"08435034","name":"Markdorf, Stadt","type":"Stadt"},"district":{"key":"08435","name":"Bodenseekreis","type":"Landkreis"},"federalState":{"key":"08","name":"Baden-Württemberg"}},{"name":"Heinrich-Heine-Str.","postalCode":"88677","locality":"Markdorf","municipality":{"key":"08435034","name":"Markdorf, Stadt","type":"Stadt"},"district":{"key":"08435","name":"Bodenseekreis","type":"Landkreis"},"federalState":{"key":"08","name":"Baden-Württemberg"}},{"name":"Henri-Dunant-Str.","postalCode":"88677","locality":"Markdorf","municipality":{"key":"08435034","name":"Markdorf, Stadt","type":"Stadt"},"district":{"key":"08435","name":"Bodenseekreis","type":"Landkreis"},"federalState":{"key":"08","name":"Baden-Württemberg"}},{"name":"Hepbacher Str.","postalCode":"88677","locality":"Markdorf","municipality":{"key":"08435034","name":"Markdorf, Stadt","type":"Stadt"},"district":{"key":"08435","name":"Bodenseekreis","type":"Landkreis"},"federalState":{"key":"08","name":"Baden-Württemberg"}},{"name":"Hinterer Birken","postalCode":"88677","locality":"Markdorf","municipality":{"key":"08435034","name":"Markdorf, Stadt","type":"Stadt"},"district":{"key":"08435","name":"Bodenseekreis","type":"Landkreis"},"federalState":{"key":"08","name":"Baden-Württemberg"}},{"name":"Hinterer Zwerchweg","postalCode":"88677","locality":"Markdorf","municipality":{"key":"08435034","name":"Markdorf, Stadt","type":"Stadt"},"district":{"key":"08435","name":"Bodenseekreis","type":"Landkreis"},"federalState":{"key":"08","name":"Baden-Württemberg"}},{"name":"Hochkreuzweg","postalCode":"88677","locality":"Markdorf","municipality":{"key":"08435034","name":"Markdorf, Stadt","type":"Stadt"},"district":{"key":"08435","name":"Bodenseekreis","type":"Landkreis"},"federalState":{"key":"08","name":"Baden-Württemberg"}},{"name":"Hochwaldstr.","postalCode":"88677","locality":"Markdorf","municipality":{"key":"08435034","name":"Markdorf, Stadt","type":"Stadt"},"district":{"key":"08435","name":"Bodenseekreis","type":"Landkreis"},"federalState":{"key":"08","name":"Baden-Württemberg"}},{"name":"Hofäckerstr.","postalCode":"88677","locality":"Markdorf","municipality":{"key":"08435034","name":"Markdorf, Stadt","type":"Stadt"},"district":{"key":"08435","name":"Bodenseekreis","type":"Landkreis"},"federalState":{"key":"08","name":"Baden-Württemberg"}},{"name":"Ilgenweg","postalCode":"88677","locality":"Markdorf","municipality":{"key":"08435034","name":"Markdorf, Stadt","type":"Stadt"},"district":{"key":"08435","name":"Bodenseekreis","type":"Landkreis"},"federalState":{"key":"08","name":"Baden-Württemberg"}},{"name":"Im Kapuzineröschle","postalCode":"88677","locality":"Markdorf","municipality":{"key":"08435034","name":"Markdorf, Stadt","type":"Stadt"},"district":{"key":"08435","name":"Bodenseekreis","type":"Landkreis"},"federalState":{"key":"08","name":"Baden-Württemberg"}},{"name":"Im Mühlöschle","postalCode":"88677","locality":"Markdorf","municipality":{"key":"08435034","name":"Markdorf, Stadt","type":"Stadt"},"district":{"key":"08435","name":"Bodenseekreis","type":"Landkreis"},"federalState":{"key":"08","name":"Baden-Württemberg"}},{"name":"Im Weiherländle","postalCode":"88677","locality":"Markdorf","municipality":{"key":"08435034","name":"Markdorf, Stadt","type":"Stadt"},"district":{"key":"08435","name":"Bodenseekreis","type":"Landkreis"},"federalState":{"key":"08","name":"Baden-Württemberg"}},{"name":"In den Auwiesen","postalCode":"88677","locality":"Markdorf","municipality":{"key":"08435034","name":"Markdorf, Stadt","type":"Stadt"},"district":{"key":"08435","name":"Bodenseekreis","type":"Landkreis"},"federalState":{"key":"08","name":"Baden-Württemberg"}},{"name":"In der Breite","postalCode":"88677","locality":"Markdorf","municipality":{"key":"08435034","name":"Markdorf, Stadt","type":"Stadt"},"district":{"key":"08435","name":"Bodenseekreis","type":"Landkreis"},"federalState":{"key":"08","name":"Baden-Württemberg"}},{"name":"In der Mühle","postalCode":"88677","locality":"Markdorf","municipality":{"key":"08435034","name":"Markdorf, Stadt","type":"Stadt"},"district":{"key":"08435","name":"Bodenseekreis","type":"Landkreis"},"federalState":{"key":"08","name":"Baden-Württemberg"}},{"name":"Ittendorfer Str.","postalCode":"88677","locality":"Markdorf","municipality":{"key":"08435034","name":"Markdorf, Stadt","type":"Stadt"},"district":{"key":"08435","name":"Bodenseekreis","type":"Landkreis"},"federalState":{"key":"08","name":"Baden-Württemberg"}},{"name":"Jahnstr.","postalCode":"88677","locality":"Markdorf","municipality":{"key":"08435034","name":"Markdorf, Stadt","type":"Stadt"},"district":{"key":"08435","name":"Bodenseekreis","type":"Landkreis"},"federalState":{"key":"08","name":"Baden-Württemberg"}},{"name":"Jakob-Gretser-Str.","postalCode":"88677","locality":"Markdorf","municipality":{"key":"08435034","name":"Markdorf, Stadt","type":"Stadt"},"district":{"key":"08435","name":"Bodenseekreis","type":"Landkreis"},"federalState":{"key":"08","name":"Baden-Württemberg"}},{"name":"Johann-Hillebrand-Weg","postalCode":"88677","locality":"Markdorf","municipality":{"key":"08435034","name":"Markdorf, Stadt","type":"Stadt"},"district":{"key":"08435","name":"Bodenseekreis","type":"Landkreis"},"federalState":{"key":"08","name":"Baden-Württemberg"}},{"name":"Johann-Peter-Hebel-Str.","postalCode":"88677","locality":"Markdorf","municipality":{"key":"08435034","name":"Markdorf, Stadt","type":"Stadt"},"district":{"key":"08435","name":"Bodenseekreis","type":"Landkreis"},"federalState":{"key":"08","name":"Baden-Württemberg"}},{"name":"Josengarten","postalCode":"88677","locality":"Markdorf","municipality":{"key":"08435034","name":"Markdorf, Stadt","type":"Stadt"},"district":{"key":"08435","name":"Bodenseekreis","type":"Landkreis"},"federalState":{"key":"08","name":"Baden-Württemberg"}},{"name":"Joseph-Haydn-Str.","postalCode":"88677","locality":"Markdorf","municipality":{"key":"08435034","name":"Markdorf, Stadt","type":"Stadt"},"district":{"key":"08435","name":"Bodenseekreis","type":"Landkreis"},"federalState":{"key":"08","name":"Baden-Württemberg"}},{"name":"Käferweg","postalCode":"88677","locality":"Markdorf","municipality":{"key":"08435034","name":"Markdorf, Stadt","type":"Stadt"},"district":{"key":"08435","name":"Bodenseekreis","type":"Landkreis"},"federalState":{"key":"08","name":"Baden-Württemberg"}},{"name":"Kanonenbühl","postalCode":"88677","locality":"Markdorf","municipality":{"key":"08435034","name":"Markdorf, Stadt","type":"Stadt"},"district":{"key":"08435","name":"Bodenseekreis","type":"Landkreis"},"federalState":{"key":"08","name":"Baden-Württemberg"}},{"name":"Kapellenweg","postalCode":"88677","locality":"Markdorf","municipality":{"key":"08435034","name":"Markdorf, Stadt","type":"Stadt"},"district":{"key":"08435","name":"Bodenseekreis","type":"Landkreis"},"federalState":{"key":"08","name":"Baden-Württemberg"}},{"name":"Keltenschanze","postalCode":"88677","locality":"Markdorf","municipality":{"key":"08435034","name":"Markdorf, Stadt","type":"Stadt"},"district":{"key":"08435","name":"Bodenseekreis","type":"Landkreis"},"federalState":{"key":"08","name":"Baden-Württemberg"}},{"name":"Kiebitzweg","postalCode":"88677","locality":"Markdorf","municipality":{"key":"08435034","name":"Markdorf, Stadt","type":"Stadt"},"district":{"key":"08435","name":"Bodenseekreis","type":"Landkreis"},"federalState":{"key":"08","name":"Baden-Württemberg"}},{"name":"Kippenhauser Str.","postalCode":"88677","locality":"Markdorf","municipality":{"key":"08435034","name":"Markdorf, Stadt","type":"Stadt"},"district":{"key":"08435","name":"Bodenseekreis","type":"Landkreis"},"federalState":{"key":"08","name":"Baden-Württemberg"}},{"name":"Kirchpark","postalCode":"88677","locality":"Markdorf","municipality":{"key":"08435034","name":"Markdorf, Stadt","type":"Stadt"},"district":{"key":"08435","name":"Bodenseekreis","type":"Landkreis"},"federalState":{"key":"08","name":"Baden-Württemberg"}},{"name":"Kirchstr.","postalCode":"88677","locality":"Markdorf","municipality":{"key":"08435034","name":"Markdorf, Stadt","type":"Stadt"},"district":{"key":"08435","name":"Bodenseekreis","type":"Landkreis"},"federalState":{"key":"08","name":"Baden-Württemberg"}},{"name":"Kirschenweg","postalCode":"88677","locality":"Markdorf","municipality":{"key":"08435034","name":"Markdorf, Stadt","type":"Stadt"},"district":{"key":"08435","name":"Bodenseekreis","type":"Landkreis"},"federalState":{"key":"08","name":"Baden-Württemberg"}},{"name":"Kirschgarten","postalCode":"88677","locality":"Markdorf","municipality":{"key":"08435034","name":"Markdorf, Stadt","type":"Stadt"},"district":{"key":"08435","name":"Bodenseekreis","type":"Landkreis"},"federalState":{"key":"08","name":"Baden-Württemberg"}},{"name":"Kittweg","postalCode":"88677","locality":"Markdorf","municipality":{"key":"08435034","name":"Markdorf, Stadt","type":"Stadt"},"district":{"key":"08435","name":"Bodenseekreis","type":"Landkreis"},"federalState":{"key":"08","name":"Baden-Württemberg"}},{"name":"Kleine Steig","postalCode":"88677","locality":"Markdorf","municipality":{"key":"08435034","name":"Markdorf, Stadt","type":"Stadt"},"district":{"key":"08435","name":"Bodenseekreis","type":"Landkreis"},"federalState":{"key":"08","name":"Baden-Württemberg"}},{"name":"Kohlholzweg","postalCode":"88677","locality":"Markdorf","municipality":{"key":"08435034","name":"Markdorf, Stadt","type":"Stadt"},"district":{"key":"08435","name":"Bodenseekreis","type":"Landkreis"},"federalState":{"key":"08","name":"Baden-Württemberg"}},{"name":"Kolpingstr.","postalCode":"88677","locality":"Markdorf","municipality":{"key":"08435034","name":"Markdorf, Stadt","type":"Stadt"},"district":{"key":"08435","name":"Bodenseekreis","type":"Landkreis"},"federalState":{"key":"08","name":"Baden-Württemberg"}},{"name":"Königsberger Str.","postalCode":"88677","locality":"Markdorf","municipality":{"key":"08435034","name":"Markdorf, Stadt","type":"Stadt"},"district":{"key":"08435","name":"Bodenseekreis","type":"Landkreis"},"federalState":{"key":"08","name":"Baden-Württemberg"}},{"name":"Konrad-Adenauer-Str.","postalCode":"88677","locality":"Markdorf","municipality":{"key":"08435034","name":"Markdorf, Stadt","type":"Stadt"},"district":{"key":"08435","name":"Bodenseekreis","type":"Landkreis"},"federalState":{"key":"08","name":"Baden-Württemberg"}},{"name":"Konradstr.","postalCode":"88677","locality":"Markdorf","municipality":{"key":"08435034","name":"Markdorf, Stadt","type":"Stadt"},"district":{"key":"08435","name":"Bodenseekreis","type":"Landkreis"},"federalState":{"key":"08","name":"Baden-Württemberg"}},{"name":"Kreuzgasse","postalCode":"88677","locality":"Markdorf","municipality":{"key":"08435034","name":"Markdorf, Stadt","type":"Stadt"},"district":{"key":"08435","name":"Bodenseekreis","type":"Landkreis"},"federalState":{"key":"08","name":"Baden-Württemberg"}},{"name":"Küfergasse","postalCode":"88677","locality":"Markdorf","municipality":{"key":"08435034","name":"Markdorf, Stadt","type":"Stadt"},"district":{"key":"08435","name":"Bodenseekreis","type":"Landkreis"},"federalState":{"key":"08","name":"Baden-Württemberg"}},{"name":"Langenbergstr.","postalCode":"88677","locality":"Markdorf","municipality":{"key":"08435034","name":"Markdorf, Stadt","type":"Stadt"},"district":{"key":"08435","name":"Bodenseekreis","type":"Landkreis"},"federalState":{"key":"08","name":"Baden-Württemberg"}},{"name":"Lederlenstr.","postalCode":"88677","locality":"Markdorf","municipality":{"key":"08435034","name":"Markdorf, Stadt","type":"Stadt"},"district":{"key":"08435","name":"Bodenseekreis","type":"Landkreis"},"federalState":{"key":"08","name":"Baden-Württemberg"}},{"name":"Leimbacher Str.","postalCode":"88677","locality":"Markdorf","municipality":{"key":"08435034","name":"Markdorf, Stadt","type":"Stadt"},"district":{"key":"08435","name":"Bodenseekreis","type":"Landkreis"},"federalState":{"key":"08","name":"Baden-Württemberg"}},{"name":"Leiwiesen","postalCode":"88677","locality":"Markdorf","municipality":{"key":"08435034","name":"Markdorf, Stadt","type":"Stadt"},"district":{"key":"08435","name":"Bodenseekreis","type":"Landkreis"},"federalState":{"key":"08","name":"Baden-Württemberg"}},{"name":"Lichtenberg","postalCode":"88677","locality":"Markdorf","municipality":{"key":"08435034","name":"Markdorf, Stadt","type":"Stadt"},"district":{"key":"08435","name":"Bodenseekreis","type":"Landkreis"},"federalState":{"key":"08","name":"Baden-Württemberg"}},{"name":"Lichtenbergstr.","postalCode":"88677","locality":"Markdorf","municipality":{"key":"08435034","name":"Markdorf, Stadt","type":"Stadt"},"district":{"key":"08435","name":"Bodenseekreis","type":"Landkreis"},"federalState":{"key":"08","name":"Baden-Württemberg"}},{"name":"Lichtenbergweg","postalCode":"88677","locality":"Markdorf","municipality":{"key":"08435034","name":"Markdorf, Stadt","type":"Stadt"},"district":{"key":"08435","name":"Bodenseekreis","type":"Landkreis"},"federalState":{"key":"08","name":"Baden-Württemberg"}},{"name":"Mangoldstr.","postalCode":"88677","locality":"Markdorf","municipality":{"key":"08435034","name":"Markdorf, Stadt","type":"Stadt"},"district":{"key":"08435","name":"Bodenseekreis","type":"Landkreis"},"federalState":{"key":"08","name":"Baden-Württemberg"}},{"name":"Maria-Lanz-Str.","postalCode":"88677","locality":"Markdorf","municipality":{"key":"08435034","name":"Markdorf, Stadt","type":"Stadt"},"district":{"key":"08435","name":"Bodenseekreis","type":"Landkreis"},"federalState":{"key":"08","name":"Baden-Württemberg"}},{"name":"Marienstr.","postalCode":"88677","locality":"Markdorf","municipality":{"key":"08435034","name":"Markdorf, Stadt","type":"Stadt"},"district":{"key":"08435","name":"Bodenseekreis","type":"Landkreis"},"federalState":{"key":"08","name":"Baden-Württemberg"}},{"name":"Marktplatz","postalCode":"88677","locality":"Markdorf","municipality":{"key":"08435034","name":"Markdorf, Stadt","type":"Stadt"},"district":{"key":"08435","name":"Bodenseekreis","type":"Landkreis"},"federalState":{"key":"08","name":"Baden-Württemberg"}},{"name":"Max-Wetzel-Str.","postalCode":"88677","locality":"Markdorf","municipality":{"key":"08435034","name":"Markdorf, Stadt","type":"Stadt"},"district":{"key":"08435","name":"Bodenseekreis","type":"Landkreis"},"federalState":{"key":"08","name":"Baden-Württemberg"}},{"name":"Maybachstr.","postalCode":"88677","locality":"Markdorf","municipality":{"key":"08435034","name":"Markdorf, Stadt","type":"Stadt"},"district":{"key":"08435","name":"Bodenseekreis","type":"Landkreis"},"federalState":{"key":"08","name":"Baden-Württemberg"}},{"name":"Meersburger Str.","postalCode":"88677","locality":"Markdorf","municipality":{"key":"08435034","name":"Markdorf, Stadt","type":"Stadt"},"district":{"key":"08435","name":"Bodenseekreis","type":"Landkreis"},"federalState":{"key":"08","name":"Baden-Württemberg"}},{"name":"Meglishalde","postalCode":"88677","locality":"Markdorf","municipality":{"key":"08435034","name":"Markdorf, Stadt","type":"Stadt"},"district":{"key":"08435","name":"Bodenseekreis","type":"Landkreis"},"federalState":{"key":"08","name":"Baden-Württemberg"}},{"name":"Mittlere Auen","postalCode":"88677","locality":"Markdorf","municipality":{"key":"08435034","name":"Markdorf, Stadt","type":"Stadt"},"district":{"key":"08435","name":"Bodenseekreis","type":"Landkreis"},"federalState":{"key":"08","name":"Baden-Württemberg"}},{"name":"Mittlerer Lettenweg","postalCode":"88677","locality":"Markdorf","municipality":{"key":"08435034","name":"Markdorf, Stadt","type":"Stadt"},"district":{"key":"08435","name":"Bodenseekreis","type":"Landkreis"},"federalState":{"key":"08","name":"Baden-Württemberg"}},{"name":"Möggenweilerstr.","postalCode":"88677","locality":"Markdorf","municipality":{"key":"08435034","name":"Markdorf, Stadt","type":"Stadt"},"district":{"key":"08435","name":"Bodenseekreis","type":"Landkreis"},"federalState":{"key":"08","name":"Baden-Württemberg"}},{"name":"Mozartstr.","postalCode":"88677","locality":"Markdorf","municipality":{"key":"08435034","name":"Markdorf, Stadt","type":"Stadt"},"district":{"key":"08435","name":"Bodenseekreis","type":"Landkreis"},"federalState":{"key":"08","name":"Baden-Württemberg"}},{"name":"Mühlenbachweg","postalCode":"88677","locality":"Markdorf","municipality":{"key":"08435034","name":"Markdorf, Stadt","type":"Stadt"},"district":{"key":"08435","name":"Bodenseekreis","type":"Landkreis"},"federalState":{"key":"08","name":"Baden-Württemberg"}},{"name":"Mühlenstr.","postalCode":"88677","locality":"Markdorf","municipality":{"key":"08435034","name":"Markdorf, Stadt","type":"Stadt"},"district":{"key":"08435","name":"Bodenseekreis","type":"Landkreis"},"federalState":{"key":"08","name":"Baden-Württemberg"}},{"name":"Muldenbachstr.","postalCode":"88677","locality":"Markdorf","municipality":{"key":"08435034","name":"Markdorf, Stadt","type":"Stadt"},"district":{"key":"08435","name":"Bodenseekreis","type":"Landkreis"},"federalState":{"key":"08","name":"Baden-Württemberg"}},{"name":"Muldenweg","postalCode":"88677","locality":"Markdorf","municipality":{"key":"08435034","name":"Markdorf, Stadt","type":"Stadt"},"district":{"key":"08435","name":"Bodenseekreis","type":"Landkreis"},"federalState":{"key":"08","name":"Baden-Württemberg"}},{"name":"Nelkenweg","postalCode":"88677","locality":"Markdorf","municipality":{"key":"08435034","name":"Markdorf, Stadt","type":"Stadt"},"district":{"key":"08435","name":"Bodenseekreis","type":"Landkreis"},"federalState":{"key":"08","name":"Baden-Württemberg"}},{"name":"Oberdorfstr.","postalCode":"88677","locality":"Markdorf","municipality":{"key":"08435034","name":"Markdorf, Stadt","type":"Stadt"},"district":{"key":"08435","name":"Bodenseekreis","type":"Landkreis"},"federalState":{"key":"08","name":"Baden-Württemberg"}},{"name":"Obere Auen","postalCode":"88677","locality":"Markdorf","municipality":{"key":"08435034","name":"Markdorf, Stadt","type":"Stadt"},"district":{"key":"08435","name":"Bodenseekreis","type":"Landkreis"},"federalState":{"key":"08","name":"Baden-Württemberg"}},{"name":"Obere Gallusstr.","postalCode":"88677","locality":"Markdorf","municipality":{"key":"08435034","name":"Markdorf, Stadt","type":"Stadt"},"district":{"key":"08435","name":"Bodenseekreis","type":"Landkreis"},"federalState":{"key":"08","name":"Baden-Württemberg"}},{"name":"Oberer Birken","postalCode":"88677","locality":"Markdorf","municipality":{"key":"08435034","name":"Markdorf, Stadt","type":"Stadt"},"district":{"key":"08435","name":"Bodenseekreis","type":"Landkreis"},"federalState":{"key":"08","name":"Baden-Württemberg"}},{"name":"Oberer Garwiedenweg","postalCode":"88677","locality":"Markdorf","municipality":{"key":"08435034","name":"Markdorf, Stadt","type":"Stadt"},"district":{"key":"08435","name":"Bodenseekreis","type":"Landkreis"},"federalState":{"key":"08","name":"Baden-Württemberg"}},{"name":"Oberer Lettenweg","postalCode":"88677","locality":"Markdorf","municipality":{"key":"08435034","name":"Markdorf, Stadt","type":"Stadt"},"district":{"key":"08435","name":"Bodenseekreis","type":"Landkreis"},"federalState":{"key":"08","name":"Baden-Württemberg"}},{"name":"Oberer Seeweg","postalCode":"88677","locality":"Markdorf","municipality":{"key":"08435034","name":"Markdorf, Stadt","type":"Stadt"},"district":{"key":"08435","name":"Bodenseekreis","type":"Landkreis"},"federalState":{"key":"08","name":"Baden-Württemberg"}},{"name":"Oberer Zwerchweg","postalCode":"88677","locality":"Markdorf","municipality":{"key":"08435034","name":"Markdorf, Stadt","type":"Stadt"},"district":{"key":"08435","name":"Bodenseekreis","type":"Landkreis"},"federalState":{"key":"08","name":"Baden-Württemberg"}},{"name":"Obere Wangerhalde","postalCode":"88677","locality":"Markdorf","municipality":{"key":"08435034","name":"Markdorf, Stadt","type":"Stadt"},"district":{"key":"08435","name":"Bodenseekreis","type":"Landkreis"},"federalState":{"key":"08","name":"Baden-Württemberg"}},{"name":"Oberfischbach","postalCode":"88677","locality":"Markdorf","municipality":{"key":"08435034","name":"Markdorf, Stadt","type":"Stadt"},"district":{"key":"08435","name":"Bodenseekreis","type":"Landkreis"},"federalState":{"key":"08","name":"Baden-Württemberg"}},{"name":"Oberfischbacher Str.","postalCode":"88677","locality":"Markdorf","municipality":{"key":"08435034","name":"Markdorf, Stadt","type":"Stadt"},"district":{"key":"08435","name":"Bodenseekreis","type":"Landkreis"},"federalState":{"key":"08","name":"Baden-Württemberg"}},{"name":"Oberleimbach","postalCode":"88677","locality":"Markdorf","municipality":{"key":"08435034","name":"Markdorf, Stadt","type":"Stadt"},"district":{"key":"08435","name":"Bodenseekreis","type":"Landkreis"},"federalState":{"key":"08","name":"Baden-Württemberg"}},{"name":"Obertorstr.","postalCode":"88677","locality":"Markdorf","municipality":{"key":"08435034","name":"Markdorf, Stadt","type":"Stadt"},"district":{"key":"08435","name":"Bodenseekreis","type":"Landkreis"},"federalState":{"key":"08","name":"Baden-Württemberg"}},{"name":"Otto-Lilienthal-Str.","postalCode":"88677","locality":"Markdorf","municipality":{"key":"08435034","name":"Markdorf, Stadt","type":"Stadt"},"district":{"key":"08435","name":"Bodenseekreis","type":"Landkreis"},"federalState":{"key":"08","name":"Baden-Württemberg"}},{"name":"Panoramaweg","postalCode":"88677","locality":"Markdorf","municipality":{"key":"08435034","name":"Markdorf, Stadt","type":"Stadt"},"district":{"key":"08435","name":"Bodenseekreis","type":"Landkreis"},"federalState":{"key":"08","name":"Baden-Württemberg"}},{"name":"Paracelsusstr.","postalCode":"88677","locality":"Markdorf","municipality":{"key":"08435034","name":"Markdorf, Stadt","type":"Stadt"},"district":{"key":"08435","name":"Bodenseekreis","type":"Landkreis"},"federalState":{"key":"08","name":"Baden-Württemberg"}},{"name":"Paradiesweg","postalCode":"88677","locality":"Markdorf","municipality":{"key":"08435034","name":"Markdorf, Stadt","type":"Stadt"},"district":{"key":"08435","name":"Bodenseekreis","type":"Landkreis"},"federalState":{"key":"08","name":"Baden-Württemberg"}},{"name":"Pestalozzistr.","postalCode":"88677","locality":"Markdorf","municipality":{"key":"08435034","name":"Markdorf, Stadt","type":"Stadt"},"district":{"key":"08435","name":"Bodenseekreis","type":"Landkreis"},"federalState":{"key":"08","name":"Baden-Württemberg"}},{"name":"Pfannenstiel","postalCode":"88677","locality":"Markdorf","municipality":{"key":"08435034","name":"Markdorf, Stadt","type":"Stadt"},"district":{"key":"08435","name":"Bodenseekreis","type":"Landkreis"},"federalState":{"key":"08","name":"Baden-Württemberg"}},{"name":"Planckstr.","postalCode":"88677","locality":"Markdorf","municipality":{"key":"08435034","name":"Markdorf, Stadt","type":"Stadt"},"district":{"key":"08435","name":"Bodenseekreis","type":"Landkreis"},"federalState":{"key":"08","name":"Baden-Württemberg"}},{"name":"Posener Str.","postalCode":"88677","locality":"Markdorf","municipality":{"key":"08435034","name":"Markdorf, Stadt","type":"Stadt"},"district":{"key":"08435","name":"Bodenseekreis","type":"Landkreis"},"federalState":{"key":"08","name":"Baden-Württemberg"}},{"name":"Poststr.","postalCode":"88677","locality":"Markdorf","municipality":{"key":"08435034","name":"Markdorf, Stadt","type":"Stadt"},"district":{"key":"08435","name":"Bodenseekreis","type":"Landkreis"},"federalState":{"key":"08","name":"Baden-Württemberg"}},{"name":"Quittenweg","postalCode":"88677","locality":"Markdorf","municipality":{"key":"08435034","name":"Markdorf, Stadt","type":"Stadt"},"district":{"key":"08435","name":"Bodenseekreis","type":"Landkreis"},"federalState":{"key":"08","name":"Baden-Württemberg"}},{"name":"Raderacher Str.","postalCode":"88677","locality":"Markdorf","municipality":{"key":"08435034","name":"Markdorf, Stadt","type":"Stadt"},"district":{"key":"08435","name":"Bodenseekreis","type":"Landkreis"},"federalState":{"key":"08","name":"Baden-Württemberg"}},{"name":"Rathausweg","postalCode":"88677","locality":"Markdorf","municipality":{"key":"08435034","name":"Markdorf, Stadt","type":"Stadt"},"district":{"key":"08435","name":"Bodenseekreis","type":"Landkreis"},"federalState":{"key":"08","name":"Baden-Württemberg"}},{"name":"Ravensburger Str.","postalCode":"88677","locality":"Markdorf","municipality":{"key":"08435034","name":"Markdorf, Stadt","type":"Stadt"},"district":{"key":"08435","name":"Bodenseekreis","type":"Landkreis"},"federalState":{"key":"08","name":"Baden-Württemberg"}},{"name":"Rebhalde","postalCode":"88677","locality":"Markdorf","municipality":{"key":"08435034","name":"Markdorf, Stadt","type":"Stadt"},"district":{"key":"08435","name":"Bodenseekreis","type":"Landkreis"},"federalState":{"key":"08","name":"Baden-Württemberg"}},{"name":"Rebweg","postalCode":"88677","locality":"Markdorf","municipality":{"key":"08435034","name":"Markdorf, Stadt","type":"Stadt"},"district":{"key":"08435","name":"Bodenseekreis","type":"Landkreis"},"federalState":{"key":"08","name":"Baden-Württemberg"}},{"name":"Reußenbachstr.","postalCode":"88677","locality":"Markdorf","municipality":{"key":"08435034","name":"Markdorf, Stadt","type":"Stadt"},"district":{"key":"08435","name":"Bodenseekreis","type":"Landkreis"},"federalState":{"key":"08","name":"Baden-Württemberg"}},{"name":"Reute","postalCode":"88677","locality":"Markdorf","municipality":{"key":"08435034","name":"Markdorf, Stadt","type":"Stadt"},"district":{"key":"08435","name":"Bodenseekreis","type":"Landkreis"},"federalState":{"key":"08","name":"Baden-Württemberg"}},{"name":"Richard-Wagner-Str.","postalCode":"88677","locality":"Markdorf","municipality":{"key":"08435034","name":"Markdorf, Stadt","type":"Stadt"},"district":{"key":"08435","name":"Bodenseekreis","type":"Landkreis"},"federalState":{"key":"08","name":"Baden-Württemberg"}},{"name":"Riedheimer Str.","postalCode":"88677","locality":"Markdorf","municipality":{"key":"08435034","name":"Markdorf, Stadt","type":"Stadt"},"district":{"key":"08435","name":"Bodenseekreis","type":"Landkreis"},"federalState":{"key":"08","name":"Baden-Württemberg"}},{"name":"Riedstr.","postalCode":"88677","locality":"Markdorf","municipality":{"key":"08435034","name":"Markdorf, Stadt","type":"Stadt"},"district":{"key":"08435","name":"Bodenseekreis","type":"Landkreis"},"federalState":{"key":"08","name":"Baden-Württemberg"}},{"name":"Rilkeweg","postalCode":"88677","locality":"Markdorf","municipality":{"key":"08435034","name":"Markdorf, Stadt","type":"Stadt"},"district":{"key":"08435","name":"Bodenseekreis","type":"Landkreis"},"federalState":{"key":"08","name":"Baden-Württemberg"}},{"name":"Ringstr.","postalCode":"88677","locality":"Markdorf","municipality":{"key":"08435034","name":"Markdorf, Stadt","type":"Stadt"},"district":{"key":"08435","name":"Bodenseekreis","type":"Landkreis"},"federalState":{"key":"08","name":"Baden-Württemberg"}},{"name":"Robert-Bosch-Str.","postalCode":"88677","locality":"Markdorf","municipality":{"key":"08435034","name":"Markdorf, Stadt","type":"Stadt"},"district":{"key":"08435","name":"Bodenseekreis","type":"Landkreis"},"federalState":{"key":"08","name":"Baden-Württemberg"}},{"name":"Robert-Koch-Str.","postalCode":"88677","locality":"Markdorf","municipality":{"key":"08435034","name":"Markdorf, Stadt","type":"Stadt"},"district":{"key":"08435","name":"Bodenseekreis","type":"Landkreis"},"federalState":{"key":"08","name":"Baden-Württemberg"}},{"name":"Robert-Schumann-Str.","postalCode":"88677","locality":"Markdorf","municipality":{"key":"08435034","name":"Markdorf, Stadt","type":"Stadt"},"district":{"key":"08435","name":"Bodenseekreis","type":"Landkreis"},"federalState":{"key":"08","name":"Baden-Württemberg"}},{"name":"Römerweg","postalCode":"88677","locality":"Markdorf","municipality":{"key":"08435034","name":"Markdorf, Stadt","type":"Stadt"},"district":{"key":"08435","name":"Bodenseekreis","type":"Landkreis"},"federalState":{"key":"08","name":"Baden-Württemberg"}},{"name":"Röntgenstr.","postalCode":"88677","locality":"Markdorf","municipality":{"key":"08435034","name":"Markdorf, Stadt","type":"Stadt"},"district":{"key":"08435","name":"Bodenseekreis","type":"Landkreis"},"federalState":{"key":"08","name":"Baden-Württemberg"}},{"name":"Rosenweg","postalCode":"88677","locality":"Markdorf","municipality":{"key":"08435034","name":"Markdorf, Stadt","type":"Stadt"},"district":{"key":"08435","name":"Bodenseekreis","type":"Landkreis"},"federalState":{"key":"08","name":"Baden-Württemberg"}},{"name":"Roßweg","postalCode":"88677","locality":"Markdorf","municipality":{"key":"08435034","name":"Markdorf, Stadt","type":"Stadt"},"district":{"key":"08435","name":"Bodenseekreis","type":"Landkreis"},"federalState":{"key":"08","name":"Baden-Württemberg"}},{"name":"Rudolf-Diesel-Str.","postalCode":"88677","locality":"Markdorf","municipality":{"key":"08435034","name":"Markdorf, Stadt","type":"Stadt"},"district":{"key":"08435","name":"Bodenseekreis","type":"Landkreis"},"federalState":{"key":"08","name":"Baden-Württemberg"}},{"name":"Schedlerstr.","postalCode":"88677","locality":"Markdorf","municipality":{"key":"08435034","name":"Markdorf, Stadt","type":"Stadt"},"district":{"key":"08435","name":"Bodenseekreis","type":"Landkreis"},"federalState":{"key":"08","name":"Baden-Württemberg"}},{"name":"Schießstattweg","postalCode":"88677","locality":"Markdorf","municipality":{"key":"08435034","name":"Markdorf, Stadt","type":"Stadt"},"district":{"key":"08435","name":"Bodenseekreis","type":"Landkreis"},"federalState":{"key":"08","name":"Baden-Württemberg"}},{"name":"Schillerstr.","postalCode":"88677","locality":"Markdorf","municipality":{"key":"08435034","name":"Markdorf, Stadt","type":"Stadt"},"district":{"key":"08435","name":"Bodenseekreis","type":"Landkreis"},"federalState":{"key":"08","name":"Baden-Württemberg"}},{"name":"Schliffenenweg","postalCode":"88677","locality":"Markdorf","municipality":{"key":"08435034","name":"Markdorf, Stadt","type":"Stadt"},"district":{"key":"08435","name":"Bodenseekreis","type":"Landkreis"},"federalState":{"key":"08","name":"Baden-Württemberg"}},{"name":"Schulgasse","postalCode":"88677","locality":"Markdorf","municipality":{"key":"08435034","name":"Markdorf, Stadt","type":"Stadt"},"district":{"key":"08435","name":"Bodenseekreis","type":"Landkreis"},"federalState":{"key":"08","name":"Baden-Württemberg"}},{"name":"Schwalbenweg","postalCode":"88677","locality":"Markdorf","municipality":{"key":"08435034","name":"Markdorf, Stadt","type":"Stadt"},"district":{"key":"08435","name":"Bodenseekreis","type":"Landkreis"},"federalState":{"key":"08","name":"Baden-Württemberg"}},{"name":"Schwedenweg","postalCode":"88677","locality":"Markdorf","municipality":{"key":"08435034","name":"Markdorf, Stadt","type":"Stadt"},"district":{"key":"08435","name":"Bodenseekreis","type":"Landkreis"},"federalState":{"key":"08","name":"Baden-Württemberg"}},{"name":"Seeblick","postalCode":"88677","locality":"Markdorf","municipality":{"key":"08435034","name":"Markdorf, Stadt","type":"Stadt"},"district":{"key":"08435","name":"Bodenseekreis","type":"Landkreis"},"federalState":{"key":"08","name":"Baden-Württemberg"}},{"name":"Seeweg","postalCode":"88677","locality":"Markdorf","municipality":{"key":"08435034","name":"Markdorf, Stadt","type":"Stadt"},"district":{"key":"08435","name":"Bodenseekreis","type":"Landkreis"},"federalState":{"key":"08","name":"Baden-Württemberg"}},{"name":"Siemensstr.","postalCode":"88677","locality":"Markdorf","municipality":{"key":"08435034","name":"Markdorf, Stadt","type":"Stadt"},"district":{"key":"08435","name":"Bodenseekreis","type":"Landkreis"},"federalState":{"key":"08","name":"Baden-Württemberg"}},{"name":"Sonnenhalde","postalCode":"88677","locality":"Markdorf","municipality":{"key":"08435034","name":"Markdorf, Stadt","type":"Stadt"},"district":{"key":"08435","name":"Bodenseekreis","type":"Landkreis"},"federalState":{"key":"08","name":"Baden-Württemberg"}},{"name":"Spiegelbergstr.","postalCode":"88677","locality":"Markdorf","municipality":{"key":"08435034","name":"Markdorf, Stadt","type":"Stadt"},"district":{"key":"08435","name":"Bodenseekreis","type":"Landkreis"},"federalState":{"key":"08","name":"Baden-Württemberg"}},{"name":"Spitalstr.","postalCode":"88677","locality":"Markdorf","municipality":{"key":"08435034","name":"Markdorf, Stadt","type":"Stadt"},"district":{"key":"08435","name":"Bodenseekreis","type":"Landkreis"},"federalState":{"key":"08","name":"Baden-Württemberg"}},{"name":"Spitalweg","postalCode":"88677","locality":"Markdorf","municipality":{"key":"08435034","name":"Markdorf, Stadt","type":"Stadt"},"district":{"key":"08435","name":"Bodenseekreis","type":"Landkreis"},"federalState":{"key":"08","name":"Baden-Württemberg"}},{"name":"Steibensteg","postalCode":"88677","locality":"Markdorf","municipality":{"key":"08435034","name":"Markdorf, Stadt","type":"Stadt"},"district":{"key":"08435","name":"Bodenseekreis","type":"Landkreis"},"federalState":{"key":"08","name":"Baden-Württemberg"}},{"name":"Steigstr.","postalCode":"88677","locality":"Markdorf","municipality":{"key":"08435034","name":"Markdorf, Stadt","type":"Stadt"},"district":{"key":"08435","name":"Bodenseekreis","type":"Landkreis"},"federalState":{"key":"08","name":"Baden-Württemberg"}},{"name":"Steinstr.","postalCode":"88677","locality":"Markdorf","municipality":{"key":"08435034","name":"Markdorf, Stadt","type":"Stadt"},"district":{"key":"08435","name":"Bodenseekreis","type":"Landkreis"},"federalState":{"key":"08","name":"Baden-Württemberg"}},{"name":"Stettiner Str.","postalCode":"88677","locality":"Markdorf","municipality":{"key":"08435034","name":"Markdorf, Stadt","type":"Stadt"},"district":{"key":"08435","name":"Bodenseekreis","type":"Landkreis"},"federalState":{"key":"08","name":"Baden-Württemberg"}},{"name":"Stieglitzweg","postalCode":"88677","locality":"Markdorf","municipality":{"key":"08435034","name":"Markdorf, Stadt","type":"Stadt"},"district":{"key":"08435","name":"Bodenseekreis","type":"Landkreis"},"federalState":{"key":"08","name":"Baden-Württemberg"}},{"name":"Stollenholzweg","postalCode":"88677","locality":"Markdorf","municipality":{"key":"08435034","name":"Markdorf, Stadt","type":"Stadt"},"district":{"key":"08435","name":"Bodenseekreis","type":"Landkreis"},"federalState":{"key":"08","name":"Baden-Württemberg"}},{"name":"Sudetenlandstr.","postalCode":"88677","locality":"Markdorf","municipality":{"key":"08435034","name":"Markdorf, Stadt","type":"Stadt"},"district":{"key":"08435","name":"Bodenseekreis","type":"Landkreis"},"federalState":{"key":"08","name":"Baden-Württemberg"}},{"name":"Talstr.","postalCode":"88677","locality":"Markdorf","municipality":{"key":"08435034","name":"Markdorf, Stadt","type":"Stadt"},"district":{"key":"08435","name":"Bodenseekreis","type":"Landkreis"},"federalState":{"key":"08","name":"Baden-Württemberg"}},{"name":"Teuringerstr.","postalCode":"88677","locality":"Markdorf","municipality":{"key":"08435034","name":"Markdorf, Stadt","type":"Stadt"},"district":{"key":"08435","name":"Bodenseekreis","type":"Landkreis"},"federalState":{"key":"08","name":"Baden-Württemberg"}},{"name":"Theodor-Heuss-Str.","postalCode":"88677","locality":"Markdorf","municipality":{"key":"08435034","name":"Markdorf, Stadt","type":"Stadt"},"district":{"key":"08435","name":"Bodenseekreis","type":"Landkreis"},"federalState":{"key":"08","name":"Baden-Württemberg"}},{"name":"Thomas-Mann-Str.","postalCode":"88677","locality":"Markdorf","municipality":{"key":"08435034","name":"Markdorf, Stadt","type":"Stadt"},"district":{"key":"08435","name":"Bodenseekreis","type":"Landkreis"},"federalState":{"key":"08","name":"Baden-Württemberg"}},{"name":"Torkelhalden","postalCode":"88677","locality":"Markdorf","municipality":{"key":"08435034","name":"Markdorf, Stadt","type":"Stadt"},"district":{"key":"08435","name":"Bodenseekreis","type":"Landkreis"},"federalState":{"key":"08","name":"Baden-Württemberg"}},{"name":"Trimm-Dich-Pfad","postalCode":"88677","locality":"Markdorf","municipality":{"key":"08435034","name":"Markdorf, Stadt","type":"Stadt"},"district":{"key":"08435","name":"Bodenseekreis","type":"Landkreis"},"federalState":{"key":"08","name":"Baden-Württemberg"}},{"name":"Tulpenweg","postalCode":"88677","locality":"Markdorf","municipality":{"key":"08435034","name":"Markdorf, Stadt","type":"Stadt"},"district":{"key":"08435","name":"Bodenseekreis","type":"Landkreis"},"federalState":{"key":"08","name":"Baden-Württemberg"}},{"name":"Turmweg","postalCode":"88677","locality":"Markdorf","municipality":{"key":"08435034","name":"Markdorf, Stadt","type":"Stadt"},"district":{"key":"08435","name":"Bodenseekreis","type":"Landkreis"},"federalState":{"key":"08","name":"Baden-Württemberg"}},{"name":"Untere Auen","postalCode":"88677","locality":"Markdorf","municipality":{"key":"08435034","name":"Markdorf, Stadt","type":"Stadt"},"district":{"key":"08435","name":"Bodenseekreis","type":"Landkreis"},"federalState":{"key":"08","name":"Baden-Württemberg"}},{"name":"Untere Breitwiesenstr.","postalCode":"88677","locality":"Markdorf","municipality":{"key":"08435034","name":"Markdorf, Stadt","type":"Stadt"},"district":{"key":"08435","name":"Bodenseekreis","type":"Landkreis"},"federalState":{"key":"08","name":"Baden-Württemberg"}},{"name":"Untere Gallusstr.","postalCode":"88677","locality":"Markdorf","municipality":{"key":"08435034","name":"Markdorf, Stadt","type":"Stadt"},"district":{"key":"08435","name":"Bodenseekreis","type":"Landkreis"},"federalState":{"key":"08","name":"Baden-Württemberg"}},{"name":"Unterer Birken","postalCode":"88677","locality":"Markdorf","municipality":{"key":"08435034","name":"Markdorf, Stadt","type":"Stadt"},"district":{"key":"08435","name":"Bodenseekreis","type":"Landkreis"},"federalState":{"key":"08","name":"Baden-Württemberg"}},{"name":"Unterer Lettenweg","postalCode":"88677","locality":"Markdorf","municipality":{"key":"08435034","name":"Markdorf, Stadt","type":"Stadt"},"district":{"key":"08435","name":"Bodenseekreis","type":"Landkreis"},"federalState":{"key":"08","name":"Baden-Württemberg"}},{"name":"Untere Wangerhalde","postalCode":"88677","locality":"Markdorf","municipality":{"key":"08435034","name":"Markdorf, Stadt","type":"Stadt"},"district":{"key":"08435","name":"Bodenseekreis","type":"Landkreis"},"federalState":{"key":"08","name":"Baden-Württemberg"}},{"name":"Unterleimbach","postalCode":"88677","locality":"Markdorf","municipality":{"key":"08435034","name":"Markdorf, Stadt","type":"Stadt"},"district":{"key":"08435","name":"Bodenseekreis","type":"Landkreis"},"federalState":{"key":"08","name":"Baden-Württemberg"}},{"name":"Viktor-von-Scheffel-Str.","postalCode":"88677","locality":"Markdorf","municipality":{"key":"08435034","name":"Markdorf, Stadt","type":"Stadt"},"district":{"key":"08435","name":"Bodenseekreis","type":"Landkreis"},"federalState":{"key":"08","name":"Baden-Württemberg"}},{"name":"Vogelsangweg","postalCode":"88677","locality":"Markdorf","municipality":{"key":"08435034","name":"Markdorf, Stadt","type":"Stadt"},"district":{"key":"08435","name":"Bodenseekreis","type":"Landkreis"},"federalState":{"key":"08","name":"Baden-Württemberg"}},{"name":"Vorderer Birken","postalCode":"88677","locality":"Markdorf","municipality":{"key":"08435034","name":"Markdorf, Stadt","type":"Stadt"},"district":{"key":"08435","name":"Bodenseekreis","type":"Landkreis"},"federalState":{"key":"08","name":"Baden-Württemberg"}},{"name":"Waldhornstr.","postalCode":"88677","locality":"Markdorf","municipality":{"key":"08435034","name":"Markdorf, Stadt","type":"Stadt"},"district":{"key":"08435","name":"Bodenseekreis","type":"Landkreis"},"federalState":{"key":"08","name":"Baden-Württemberg"}},{"name":"Wangen","postalCode":"88677","locality":"Markdorf","municipality":{"key":"08435034","name":"Markdorf, Stadt","type":"Stadt"},"district":{"key":"08435","name":"Bodenseekreis","type":"Landkreis"},"federalState":{"key":"08","name":"Baden-Württemberg"}},{"name":"Weinsteig","postalCode":"88677","locality":"Markdorf","municipality":{"key":"08435034","name":"Markdorf, Stadt","type":"Stadt"},"district":{"key":"08435","name":"Bodenseekreis","type":"Landkreis"},"federalState":{"key":"08","name":"Baden-Württemberg"}},{"name":"Yorkstr.","postalCode":"88677","locality":"Markdorf","municipality":{"key":"08435034","name":"Markdorf, Stadt","type":"Stadt"},"district":{"key":"08435","name":"Bodenseekreis","type":"Landkreis"},"federalState":{"key":"08","name":"Baden-Württemberg"}},{"name":"Zeppelinstr.","postalCode":"88677","locality":"Markdorf","municipality":{"key":"08435034","name":"Markdorf, Stadt","type":"Stadt"},"district":{"key":"08435","name":"Bodenseekreis","type":"Landkreis"},"federalState":{"key":"08","name":"Baden-Württemberg"}},{"name":"Ziegelweiher","postalCode":"88677","locality":"Markdorf","municipality":{"key":"08435034","name":"Markdorf, Stadt","type":"Stadt"},"district":{"key":"08435","name":"Bodenseekreis","type":"Landkreis"},"federalState":{"key":"08","name":"Baden-Württemberg"}},{"name":"Zinkentobelweg","postalCode":"88677","locality":"Markdorf","municipality":{"key":"08435034","name":"Markdorf, Stadt","type":"Stadt"},"district":{"key":"08435","name":"Bodenseekreis","type":"Landkreis"},"federalState":{"key":"08","name":"Baden-Württemberg"}},{"name":"Zum Alpenblick","postalCode":"88677","locality":"Markdorf","municipality":{"key":"08435034","name":"Markdorf, Stadt","type":"Stadt"},"district":{"key":"08435","name":"Bodenseekreis","type":"Landkreis"},"federalState":{"key":"08","name":"Baden-Württemberg"}},{"name":"Zum Burgstall","postalCode":"88677","locality":"Markdorf","municipality":{"key":"08435034","name":"Markdorf, Stadt","type":"Stadt"},"district":{"key":"08435","name":"Bodenseekreis","type":"Landkreis"},"federalState":{"key":"08","name":"Baden-Württemberg"}},{"name":"Zum Säntisblick","postalCode":"88677","locality":"Markdorf","municipality":{"key":"08435034","name":"Markdorf, Stadt","type":"Stadt"},"district":{"key":"08435","name":"Bodenseekreis","type":"Landkreis"},"federalState":{"key":"08","name":"Baden-Württemberg"}},{"name":"Zum Storchenblick","postalCode":"88677","locality":"Markdorf","municipality":{"key":"08435034","name":"Markdorf, Stadt","type":"Stadt"},"district":{"key":"08435","name":"Bodenseekreis","type":"Landkreis"},"federalState":{"key":"08","name":"Baden-Württemberg"}},{"name":"Zum Tobelhölzle","postalCode":"88677","locality":"Markdorf","municipality":{"key":"08435034","name":"Markdorf, Stadt","type":"Stadt"},"district":{"key":"08435","name":"Bodenseekreis","type":"Landkreis"},"federalState":{"key":"08","name":"Baden-Württemberg"}},{"name":"Zwerchweg","postalCode":"88677","locality":"Markdorf","municipality":{"key":"08435034","name":"Markdorf, Stadt","type":"Stadt"},"district":{"key":"08435","name":"Bodenseekreis","type":"Landkreis"},"federalState":{"key":"08","name":"Baden-Württemberg"}},{"name":"Ölmühlenweg","postalCode":"88677","locality":"Markdorf","municipality":{"key":"08435034","name":"Markdorf, Stadt","type":"Stadt"},"district":{"key":"08435","name":"Bodenseekreis","type":"Landkreis"},"federalState":{"key":"08","name":"Baden-Württemberg"}},]