[{"name":"Am Karlsbach","postalCode":"55576","locality":"Badenheim","municipality":{"key":"07339004","name":"Badenheim","type":"Kreisangehörige_Gemeinde"},"district":{"key":"07339","name":"Mainz-Bingen","type":"Landkreis"},"federalState":{"key":"07","name":"Rheinland-Pfalz"}},{"name":"Am Scheunenkranz","postalCode":"55576","locality":"Badenheim","municipality":{"key":"07339004","name":"Badenheim","type":"Kreisangehörige_Gemeinde"},"district":{"key":"07339","name":"Mainz-Bingen","type":"Landkreis"},"federalState":{"key":"07","name":"Rheinland-Pfalz"}},{"name":"Am weißen Stein","postalCode":"55576","locality":"Badenheim","municipality":{"key":"07339004","name":"Badenheim","type":"Kreisangehörige_Gemeinde"},"district":{"key":"07339","name":"Mainz-Bingen","type":"Landkreis"},"federalState":{"key":"07","name":"Rheinland-Pfalz"}},{"name":"Bahnhofstr.","postalCode":"55576","locality":"Badenheim","municipality":{"key":"07339004","name":"Badenheim","type":"Kreisangehörige_Gemeinde"},"district":{"key":"07339","name":"Mainz-Bingen","type":"Landkreis"},"federalState":{"key":"07","name":"Rheinland-Pfalz"}},{"name":"Bratergasse","postalCode":"55576","locality":"Badenheim","municipality":{"key":"07339004","name":"Badenheim","type":"Kreisangehörige_Gemeinde"},"district":{"key":"07339","name":"Mainz-Bingen","type":"Landkreis"},"federalState":{"key":"07","name":"Rheinland-Pfalz"}},{"name":"Ernst-Ludwig-Str.","postalCode":"55576","locality":"Badenheim","municipality":{"key":"07339004","name":"Badenheim","type":"Kreisangehörige_Gemeinde"},"district":{"key":"07339","name":"Mainz-Bingen","type":"Landkreis"},"federalState":{"key":"07","name":"Rheinland-Pfalz"}},{"name":"Friedhofsweg","postalCode":"55576","locality":"Badenheim","municipality":{"key":"07339004","name":"Badenheim","type":"Kreisangehörige_Gemeinde"},"district":{"key":"07339","name":"Mainz-Bingen","type":"Landkreis"},"federalState":{"key":"07","name":"Rheinland-Pfalz"}},{"name":"Hauptstr.","postalCode":"55576","locality":"Badenheim","municipality":{"key":"07339004","name":"Badenheim","type":"Kreisangehörige_Gemeinde"},"district":{"key":"07339","name":"Mainz-Bingen","type":"Landkreis"},"federalState":{"key":"07","name":"Rheinland-Pfalz"}},{"name":"Hinter der Mühle","postalCode":"55576","locality":"Badenheim","municipality":{"key":"07339004","name":"Badenheim","type":"Kreisangehörige_Gemeinde"},"district":{"key":"07339","name":"Mainz-Bingen","type":"Landkreis"},"federalState":{"key":"07","name":"Rheinland-Pfalz"}},{"name":"Isaak-Maus-Str.","postalCode":"55576","locality":"Badenheim","municipality":{"key":"07339004","name":"Badenheim","type":"Kreisangehörige_Gemeinde"},"district":{"key":"07339","name":"Mainz-Bingen","type":"Landkreis"},"federalState":{"key":"07","name":"Rheinland-Pfalz"}},{"name":"Kellergasse","postalCode":"55576","locality":"Badenheim","municipality":{"key":"07339004","name":"Badenheim","type":"Kreisangehörige_Gemeinde"},"district":{"key":"07339","name":"Mainz-Bingen","type":"Landkreis"},"federalState":{"key":"07","name":"Rheinland-Pfalz"}},{"name":"Mühlgasse","postalCode":"55576","locality":"Badenheim","municipality":{"key":"07339004","name":"Badenheim","type":"Kreisangehörige_Gemeinde"},"district":{"key":"07339","name":"Mainz-Bingen","type":"Landkreis"},"federalState":{"key":"07","name":"Rheinland-Pfalz"}},{"name":"Mühlweg","postalCode":"55576","locality":"Badenheim","municipality":{"key":"07339004","name":"Badenheim","type":"Kreisangehörige_Gemeinde"},"district":{"key":"07339","name":"Mainz-Bingen","type":"Landkreis"},"federalState":{"key":"07","name":"Rheinland-Pfalz"}},{"name":"Obere Sülz","postalCode":"55576","locality":"Badenheim","municipality":{"key":"07339004","name":"Badenheim","type":"Kreisangehörige_Gemeinde"},"district":{"key":"07339","name":"Mainz-Bingen","type":"Landkreis"},"federalState":{"key":"07","name":"Rheinland-Pfalz"}},{"name":"Pleitersheimer Str.","postalCode":"55576","locality":"Badenheim","municipality":{"key":"07339004","name":"Badenheim","type":"Kreisangehörige_Gemeinde"},"district":{"key":"07339","name":"Mainz-Bingen","type":"Landkreis"},"federalState":{"key":"07","name":"Rheinland-Pfalz"}},{"name":"Wöllsteiner Str.","postalCode":"55576","locality":"Badenheim","municipality":{"key":"07339004","name":"Badenheim","type":"Kreisangehörige_Gemeinde"},"district":{"key":"07339","name":"Mainz-Bingen","type":"Landkreis"},"federalState":{"key":"07","name":"Rheinland-Pfalz"}},]