[{"name":"Alte Kolonie","postalCode":"04565","locality":"Regis-Breitingen","municipality":{"key":"14729360","name":"Regis-Breitingen, Stadt","type":"Stadt"},"district":{"key":"14729","name":"Leipzig","type":"Landkreis"},"federalState":{"key":"14","name":"Sachsen"}},{"name":"Am Bergholz","postalCode":"04565","locality":"Regis-Breitingen","municipality":{"key":"14729360","name":"Regis-Breitingen, Stadt","type":"Stadt"},"district":{"key":"14729","name":"Leipzig","type":"Landkreis"},"federalState":{"key":"14","name":"Sachsen"}},{"name":"Am Freibad","postalCode":"04565","locality":"Regis-Breitingen","municipality":{"key":"14729360","name":"Regis-Breitingen, Stadt","type":"Stadt"},"district":{"key":"14729","name":"Leipzig","type":"Landkreis"},"federalState":{"key":"14","name":"Sachsen"}},{"name":"Am Markt","postalCode":"04565","locality":"Regis-Breitingen","municipality":{"key":"14729360","name":"Regis-Breitingen, Stadt","type":"Stadt"},"district":{"key":"14729","name":"Leipzig","type":"Landkreis"},"federalState":{"key":"14","name":"Sachsen"}},{"name":"Am Mühlberg","postalCode":"04565","locality":"Regis-Breitingen","municipality":{"key":"14729360","name":"Regis-Breitingen, Stadt","type":"Stadt"},"district":{"key":"14729","name":"Leipzig","type":"Landkreis"},"federalState":{"key":"14","name":"Sachsen"}},{"name":"Am Park","postalCode":"04565","locality":"Regis-Breitingen","municipality":{"key":"14729360","name":"Regis-Breitingen, Stadt","type":"Stadt"},"district":{"key":"14729","name":"Leipzig","type":"Landkreis"},"federalState":{"key":"14","name":"Sachsen"}},{"name":"Am Schäferbrunnen","postalCode":"04565","locality":"Regis-Breitingen","municipality":{"key":"14729360","name":"Regis-Breitingen, Stadt","type":"Stadt"},"district":{"key":"14729","name":"Leipzig","type":"Landkreis"},"federalState":{"key":"14","name":"Sachsen"}},{"name":"Am Stadion","postalCode":"04565","locality":"Regis-Breitingen","municipality":{"key":"14729360","name":"Regis-Breitingen, Stadt","type":"Stadt"},"district":{"key":"14729","name":"Leipzig","type":"Landkreis"},"federalState":{"key":"14","name":"Sachsen"}},{"name":"Am Wäldchen","postalCode":"04565","locality":"Regis-Breitingen","municipality":{"key":"14729360","name":"Regis-Breitingen, Stadt","type":"Stadt"},"district":{"key":"14729","name":"Leipzig","type":"Landkreis"},"federalState":{"key":"14","name":"Sachsen"}},{"name":"An der Alten Mühle","postalCode":"04565","locality":"Regis-Breitingen","municipality":{"key":"14729360","name":"Regis-Breitingen, Stadt","type":"Stadt"},"district":{"key":"14729","name":"Leipzig","type":"Landkreis"},"federalState":{"key":"14","name":"Sachsen"}},{"name":"An der Kippe","postalCode":"04565","locality":"Regis-Breitingen","municipality":{"key":"14729360","name":"Regis-Breitingen, Stadt","type":"Stadt"},"district":{"key":"14729","name":"Leipzig","type":"Landkreis"},"federalState":{"key":"14","name":"Sachsen"}},{"name":"An der Pleiße","postalCode":"04565","locality":"Regis-Breitingen","municipality":{"key":"14729360","name":"Regis-Breitingen, Stadt","type":"Stadt"},"district":{"key":"14729","name":"Leipzig","type":"Landkreis"},"federalState":{"key":"14","name":"Sachsen"}},{"name":"An der Schäferei","postalCode":"04565","locality":"Regis-Breitingen","municipality":{"key":"14729360","name":"Regis-Breitingen, Stadt","type":"Stadt"},"district":{"key":"14729","name":"Leipzig","type":"Landkreis"},"federalState":{"key":"14","name":"Sachsen"}},{"name":"Auenstr.","postalCode":"04565","locality":"Regis-Breitingen","municipality":{"key":"14729360","name":"Regis-Breitingen, Stadt","type":"Stadt"},"district":{"key":"14729","name":"Leipzig","type":"Landkreis"},"federalState":{"key":"14","name":"Sachsen"}},{"name":"August-Bebel-Str.","postalCode":"04565","locality":"Regis-Breitingen","municipality":{"key":"14729360","name":"Regis-Breitingen, Stadt","type":"Stadt"},"district":{"key":"14729","name":"Leipzig","type":"Landkreis"},"federalState":{"key":"14","name":"Sachsen"}},{"name":"Bachstr.","postalCode":"04565","locality":"Regis-Breitingen","municipality":{"key":"14729360","name":"Regis-Breitingen, Stadt","type":"Stadt"},"district":{"key":"14729","name":"Leipzig","type":"Landkreis"},"federalState":{"key":"14","name":"Sachsen"}},{"name":"Bahnhofstr.","postalCode":"04565","locality":"Regis-Breitingen","municipality":{"key":"14729360","name":"Regis-Breitingen, Stadt","type":"Stadt"},"district":{"key":"14729","name":"Leipzig","type":"Landkreis"},"federalState":{"key":"14","name":"Sachsen"}},{"name":"Baumäckerweg","postalCode":"89183","locality":"Breitingen","municipality":{"key":"08425024","name":"Breitingen","type":"Kreisangehörige_Gemeinde"},"district":{"key":"08425","name":"Alb-Donau-Kreis","type":"Landkreis"},"federalState":{"key":"08","name":"Baden-Württemberg"}},{"name":"Bergmannsring","postalCode":"04565","locality":"Regis-Breitingen","municipality":{"key":"14729360","name":"Regis-Breitingen, Stadt","type":"Stadt"},"district":{"key":"14729","name":"Leipzig","type":"Landkreis"},"federalState":{"key":"14","name":"Sachsen"}},{"name":"Blumrodaer Str.","postalCode":"04565","locality":"Regis-Breitingen","municipality":{"key":"14729360","name":"Regis-Breitingen, Stadt","type":"Stadt"},"district":{"key":"14729","name":"Leipzig","type":"Landkreis"},"federalState":{"key":"14","name":"Sachsen"}},{"name":"Bornaer Str.","postalCode":"04565","locality":"Regis-Breitingen","municipality":{"key":"14729360","name":"Regis-Breitingen, Stadt","type":"Stadt"},"district":{"key":"14729","name":"Leipzig","type":"Landkreis"},"federalState":{"key":"14","name":"Sachsen"}},{"name":"Borngasse","postalCode":"04565","locality":"Regis-Breitingen","municipality":{"key":"14729360","name":"Regis-Breitingen, Stadt","type":"Stadt"},"district":{"key":"14729","name":"Leipzig","type":"Landkreis"},"federalState":{"key":"14","name":"Sachsen"}},{"name":"Deutzener Str.","postalCode":"04565","locality":"Regis-Breitingen","municipality":{"key":"14729360","name":"Regis-Breitingen, Stadt","type":"Stadt"},"district":{"key":"14729","name":"Leipzig","type":"Landkreis"},"federalState":{"key":"14","name":"Sachsen"}},{"name":"Dorfstr.","postalCode":"04565","locality":"Regis-Breitingen","municipality":{"key":"14729360","name":"Regis-Breitingen, Stadt","type":"Stadt"},"district":{"key":"14729","name":"Leipzig","type":"Landkreis"},"federalState":{"key":"14","name":"Sachsen"}},{"name":"Florian-Geyer-Str.","postalCode":"04565","locality":"Regis-Breitingen","municipality":{"key":"14729360","name":"Regis-Breitingen, Stadt","type":"Stadt"},"district":{"key":"14729","name":"Leipzig","type":"Landkreis"},"federalState":{"key":"14","name":"Sachsen"}},{"name":"Forststr.","postalCode":"04565","locality":"Regis-Breitingen","municipality":{"key":"14729360","name":"Regis-Breitingen, Stadt","type":"Stadt"},"district":{"key":"14729","name":"Leipzig","type":"Landkreis"},"federalState":{"key":"14","name":"Sachsen"}},{"name":"Gartenstr.","postalCode":"89183","locality":"Breitingen","municipality":{"key":"08425024","name":"Breitingen","type":"Kreisangehörige_Gemeinde"},"district":{"key":"08425","name":"Alb-Donau-Kreis","type":"Landkreis"},"federalState":{"key":"08","name":"Baden-Württemberg"}},{"name":"Gartenweg","postalCode":"04565","locality":"Regis-Breitingen","municipality":{"key":"14729360","name":"Regis-Breitingen, Stadt","type":"Stadt"},"district":{"key":"14729","name":"Leipzig","type":"Landkreis"},"federalState":{"key":"14","name":"Sachsen"}},{"name":"Gasse","postalCode":"04565","locality":"Regis-Breitingen","municipality":{"key":"14729360","name":"Regis-Breitingen, Stadt","type":"Stadt"},"district":{"key":"14729","name":"Leipzig","type":"Landkreis"},"federalState":{"key":"14","name":"Sachsen"}},{"name":"Goethestr.","postalCode":"04565","locality":"Regis-Breitingen","municipality":{"key":"14729360","name":"Regis-Breitingen, Stadt","type":"Stadt"},"district":{"key":"14729","name":"Leipzig","type":"Landkreis"},"federalState":{"key":"14","name":"Sachsen"}},{"name":"Hagenest","postalCode":"04565","locality":"Regis-Breitingen","municipality":{"key":"14729360","name":"Regis-Breitingen, Stadt","type":"Stadt"},"district":{"key":"14729","name":"Leipzig","type":"Landkreis"},"federalState":{"key":"14","name":"Sachsen"}},{"name":"Hauptstr.","postalCode":"04565","locality":"Regis-Breitingen","municipality":{"key":"14729360","name":"Regis-Breitingen, Stadt","type":"Stadt"},"district":{"key":"14729","name":"Leipzig","type":"Landkreis"},"federalState":{"key":"14","name":"Sachsen"}},{"name":"Heinrich-Pestalozzi-Str.","postalCode":"04565","locality":"Regis-Breitingen","municipality":{"key":"14729360","name":"Regis-Breitingen, Stadt","type":"Stadt"},"district":{"key":"14729","name":"Leipzig","type":"Landkreis"},"federalState":{"key":"14","name":"Sachsen"}},{"name":"Hinter den Gärten","postalCode":"89183","locality":"Breitingen","municipality":{"key":"08425024","name":"Breitingen","type":"Kreisangehörige_Gemeinde"},"district":{"key":"08425","name":"Alb-Donau-Kreis","type":"Landkreis"},"federalState":{"key":"08","name":"Baden-Württemberg"}},{"name":"Karl-Liebknecht-Str.","postalCode":"04565","locality":"Regis-Breitingen","municipality":{"key":"14729360","name":"Regis-Breitingen, Stadt","type":"Stadt"},"district":{"key":"14729","name":"Leipzig","type":"Landkreis"},"federalState":{"key":"14","name":"Sachsen"}},{"name":"Kastanienallee","postalCode":"04565","locality":"Regis-Breitingen","municipality":{"key":"14729360","name":"Regis-Breitingen, Stadt","type":"Stadt"},"district":{"key":"14729","name":"Leipzig","type":"Landkreis"},"federalState":{"key":"14","name":"Sachsen"}},{"name":"Kirchstr.","postalCode":"04565","locality":"Regis-Breitingen","municipality":{"key":"14729360","name":"Regis-Breitingen, Stadt","type":"Stadt"},"district":{"key":"14729","name":"Leipzig","type":"Landkreis"},"federalState":{"key":"14","name":"Sachsen"}},{"name":"Lehde","postalCode":"04565","locality":"Regis-Breitingen","municipality":{"key":"14729360","name":"Regis-Breitingen, Stadt","type":"Stadt"},"district":{"key":"14729","name":"Leipzig","type":"Landkreis"},"federalState":{"key":"14","name":"Sachsen"}},{"name":"Lindenweg","postalCode":"89183","locality":"Breitingen","municipality":{"key":"08425024","name":"Breitingen","type":"Kreisangehörige_Gemeinde"},"district":{"key":"08425","name":"Alb-Donau-Kreis","type":"Landkreis"},"federalState":{"key":"08","name":"Baden-Württemberg"}},{"name":"Lonetalstr.","postalCode":"89183","locality":"Breitingen","municipality":{"key":"08425024","name":"Breitingen","type":"Kreisangehörige_Gemeinde"},"district":{"key":"08425","name":"Alb-Donau-Kreis","type":"Landkreis"},"federalState":{"key":"08","name":"Baden-Württemberg"}},{"name":"Maienberg","postalCode":"89183","locality":"Breitingen","municipality":{"key":"08425024","name":"Breitingen","type":"Kreisangehörige_Gemeinde"},"district":{"key":"08425","name":"Alb-Donau-Kreis","type":"Landkreis"},"federalState":{"key":"08","name":"Baden-Württemberg"}},{"name":"Mühläcker","postalCode":"89183","locality":"Breitingen","municipality":{"key":"08425024","name":"Breitingen","type":"Kreisangehörige_Gemeinde"},"district":{"key":"08425","name":"Alb-Donau-Kreis","type":"Landkreis"},"federalState":{"key":"08","name":"Baden-Württemberg"}},{"name":"Mühlenstr.","postalCode":"04565","locality":"Regis-Breitingen","municipality":{"key":"14729360","name":"Regis-Breitingen, Stadt","type":"Stadt"},"district":{"key":"14729","name":"Leipzig","type":"Landkreis"},"federalState":{"key":"14","name":"Sachsen"}},{"name":"Mühlenweg","postalCode":"89183","locality":"Breitingen","municipality":{"key":"08425024","name":"Breitingen","type":"Kreisangehörige_Gemeinde"},"district":{"key":"08425","name":"Alb-Donau-Kreis","type":"Landkreis"},"federalState":{"key":"08","name":"Baden-Württemberg"}},{"name":"Mühlwies","postalCode":"89183","locality":"Breitingen","municipality":{"key":"08425024","name":"Breitingen","type":"Kreisangehörige_Gemeinde"},"district":{"key":"08425","name":"Alb-Donau-Kreis","type":"Landkreis"},"federalState":{"key":"08","name":"Baden-Württemberg"}},{"name":"Neenstetter Str.","postalCode":"89183","locality":"Breitingen","municipality":{"key":"08425024","name":"Breitingen","type":"Kreisangehörige_Gemeinde"},"district":{"key":"08425","name":"Alb-Donau-Kreis","type":"Landkreis"},"federalState":{"key":"08","name":"Baden-Württemberg"}},{"name":"Neue Kolonie","postalCode":"04565","locality":"Regis-Breitingen","municipality":{"key":"14729360","name":"Regis-Breitingen, Stadt","type":"Stadt"},"district":{"key":"14729","name":"Leipzig","type":"Landkreis"},"federalState":{"key":"14","name":"Sachsen"}},{"name":"Querstr.","postalCode":"04565","locality":"Regis-Breitingen","municipality":{"key":"14729360","name":"Regis-Breitingen, Stadt","type":"Stadt"},"district":{"key":"14729","name":"Leipzig","type":"Landkreis"},"federalState":{"key":"14","name":"Sachsen"}},{"name":"Rathausstr.","postalCode":"04565","locality":"Regis-Breitingen","municipality":{"key":"14729360","name":"Regis-Breitingen, Stadt","type":"Stadt"},"district":{"key":"14729","name":"Leipzig","type":"Landkreis"},"federalState":{"key":"14","name":"Sachsen"}},{"name":"Rudolf-Breitscheid-Str.","postalCode":"04565","locality":"Regis-Breitingen","municipality":{"key":"14729360","name":"Regis-Breitingen, Stadt","type":"Stadt"},"district":{"key":"14729","name":"Leipzig","type":"Landkreis"},"federalState":{"key":"14","name":"Sachsen"}},{"name":"Schenkenwinkel","postalCode":"04565","locality":"Regis-Breitingen","municipality":{"key":"14729360","name":"Regis-Breitingen, Stadt","type":"Stadt"},"district":{"key":"14729","name":"Leipzig","type":"Landkreis"},"federalState":{"key":"14","name":"Sachsen"}},{"name":"Schillerstr.","postalCode":"04565","locality":"Regis-Breitingen","municipality":{"key":"14729360","name":"Regis-Breitingen, Stadt","type":"Stadt"},"district":{"key":"14729","name":"Leipzig","type":"Landkreis"},"federalState":{"key":"14","name":"Sachsen"}},{"name":"Schönrain","postalCode":"89183","locality":"Breitingen","municipality":{"key":"08425024","name":"Breitingen","type":"Kreisangehörige_Gemeinde"},"district":{"key":"08425","name":"Alb-Donau-Kreis","type":"Landkreis"},"federalState":{"key":"08","name":"Baden-Württemberg"}},{"name":"Schulstr.","postalCode":"04565","locality":"Regis-Breitingen","municipality":{"key":"14729360","name":"Regis-Breitingen, Stadt","type":"Stadt"},"district":{"key":"14729","name":"Leipzig","type":"Landkreis"},"federalState":{"key":"14","name":"Sachsen"}},{"name":"Siedlungsweg","postalCode":"04565","locality":"Regis-Breitingen","municipality":{"key":"14729360","name":"Regis-Breitingen, Stadt","type":"Stadt"},"district":{"key":"14729","name":"Leipzig","type":"Landkreis"},"federalState":{"key":"14","name":"Sachsen"}},{"name":"Sonnenhalde","postalCode":"89183","locality":"Breitingen","municipality":{"key":"08425024","name":"Breitingen","type":"Kreisangehörige_Gemeinde"},"district":{"key":"08425","name":"Alb-Donau-Kreis","type":"Landkreis"},"federalState":{"key":"08","name":"Baden-Württemberg"}},{"name":"Sportplatzsiedlung","postalCode":"04565","locality":"Regis-Breitingen","municipality":{"key":"14729360","name":"Regis-Breitingen, Stadt","type":"Stadt"},"district":{"key":"14729","name":"Leipzig","type":"Landkreis"},"federalState":{"key":"14","name":"Sachsen"}},{"name":"Stadtpark","postalCode":"04565","locality":"Regis-Breitingen","municipality":{"key":"14729360","name":"Regis-Breitingen, Stadt","type":"Stadt"},"district":{"key":"14729","name":"Leipzig","type":"Landkreis"},"federalState":{"key":"14","name":"Sachsen"}},{"name":"Str. der Deutschen Einheit","postalCode":"04565","locality":"Regis-Breitingen","municipality":{"key":"14729360","name":"Regis-Breitingen, Stadt","type":"Stadt"},"district":{"key":"14729","name":"Leipzig","type":"Landkreis"},"federalState":{"key":"14","name":"Sachsen"}},{"name":"Str. des Fortschritts","postalCode":"04565","locality":"Regis-Breitingen","municipality":{"key":"14729360","name":"Regis-Breitingen, Stadt","type":"Stadt"},"district":{"key":"14729","name":"Leipzig","type":"Landkreis"},"federalState":{"key":"14","name":"Sachsen"}},{"name":"Str. des Friedens","postalCode":"04565","locality":"Regis-Breitingen","municipality":{"key":"14729360","name":"Regis-Breitingen, Stadt","type":"Stadt"},"district":{"key":"14729","name":"Leipzig","type":"Landkreis"},"federalState":{"key":"14","name":"Sachsen"}},{"name":"Teichstr.","postalCode":"04565","locality":"Regis-Breitingen","municipality":{"key":"14729360","name":"Regis-Breitingen, Stadt","type":"Stadt"},"district":{"key":"14729","name":"Leipzig","type":"Landkreis"},"federalState":{"key":"14","name":"Sachsen"}},{"name":"Thomas-Müntzer-Str.","postalCode":"04565","locality":"Regis-Breitingen","municipality":{"key":"14729360","name":"Regis-Breitingen, Stadt","type":"Stadt"},"district":{"key":"14729","name":"Leipzig","type":"Landkreis"},"federalState":{"key":"14","name":"Sachsen"}},{"name":"Weststr.","postalCode":"04565","locality":"Regis-Breitingen","municipality":{"key":"14729360","name":"Regis-Breitingen, Stadt","type":"Stadt"},"district":{"key":"14729","name":"Leipzig","type":"Landkreis"},"federalState":{"key":"14","name":"Sachsen"}},{"name":"Wildenhain","postalCode":"04565","locality":"Regis-Breitingen","municipality":{"key":"14729360","name":"Regis-Breitingen, Stadt","type":"Stadt"},"district":{"key":"14729","name":"Leipzig","type":"Landkreis"},"federalState":{"key":"14","name":"Sachsen"}},]