[{"name":"1. Dwarsweg","postalCode":"26607","locality":"Aurich","municipality":{"key":"03452001","name":"Aurich, Stadt","type":"Stadt"},"district":{"key":"03452","name":"Aurich","type":"Landkreis"},"federalState":{"key":"03","name":"Niedersachsen"}},{"name":"1. Feldstückenweg","postalCode":"26605","locality":"Aurich","municipality":{"key":"03452001","name":"Aurich, Stadt","type":"Stadt"},"district":{"key":"03452","name":"Aurich","type":"Landkreis"},"federalState":{"key":"03","name":"Niedersachsen"}},{"name":"1. Hammweg","postalCode":"26607","locality":"Aurich","municipality":{"key":"03452001","name":"Aurich, Stadt","type":"Stadt"},"district":{"key":"03452","name":"Aurich","type":"Landkreis"},"federalState":{"key":"03","name":"Niedersachsen"}},{"name":"1. Leegmoorweg","postalCode":"26607","locality":"Aurich","municipality":{"key":"03452001","name":"Aurich, Stadt","type":"Stadt"},"district":{"key":"03452","name":"Aurich","type":"Landkreis"},"federalState":{"key":"03","name":"Niedersachsen"}},{"name":"2. Moorriege","postalCode":"26524","locality":"Lütetsburg","municipality":{"key":"03452016","name":"Lütetsburg","type":"Kreisangehörige_Gemeinde"},"district":{"key":"03452","name":"Aurich","type":"Landkreis"},"federalState":{"key":"03","name":"Niedersachsen"}},{"name":"3. Dwarsweg","postalCode":"26607","locality":"Aurich","municipality":{"key":"03452001","name":"Aurich, Stadt","type":"Stadt"},"district":{"key":"03452","name":"Aurich","type":"Landkreis"},"federalState":{"key":"03","name":"Niedersachsen"}},{"name":"3. Leegmoorweg","postalCode":"26607","locality":"Aurich","municipality":{"key":"03452001","name":"Aurich, Stadt","type":"Stadt"},"district":{"key":"03452","name":"Aurich","type":"Landkreis"},"federalState":{"key":"03","name":"Niedersachsen"}},{"name":"Am Grapenhof","postalCode":"26524","locality":"Lütetsburg","municipality":{"key":"03452016","name":"Lütetsburg","type":"Kreisangehörige_Gemeinde"},"district":{"key":"03452","name":"Aurich","type":"Landkreis"},"federalState":{"key":"03","name":"Niedersachsen"}},{"name":"Am Nordacker","postalCode":"26524","locality":"Lütetsburg","municipality":{"key":"03452016","name":"Lütetsburg","type":"Kreisangehörige_Gemeinde"},"district":{"key":"03452","name":"Aurich","type":"Landkreis"},"federalState":{"key":"03","name":"Niedersachsen"}},{"name":"Am Südacker","postalCode":"26524","locality":"Lütetsburg","municipality":{"key":"03452016","name":"Lütetsburg","type":"Kreisangehörige_Gemeinde"},"district":{"key":"03452","name":"Aurich","type":"Landkreis"},"federalState":{"key":"03","name":"Niedersachsen"}},{"name":"An der Gelben Schule","postalCode":"26524","locality":"Lütetsburg","municipality":{"key":"03452016","name":"Lütetsburg","type":"Kreisangehörige_Gemeinde"},"district":{"key":"03452","name":"Aurich","type":"Landkreis"},"federalState":{"key":"03","name":"Niedersachsen"}},{"name":"An't Ojemanns Plaats","postalCode":"26524","locality":"Lütetsburg","municipality":{"key":"03452016","name":"Lütetsburg","type":"Kreisangehörige_Gemeinde"},"district":{"key":"03452","name":"Aurich","type":"Landkreis"},"federalState":{"key":"03","name":"Niedersachsen"}},{"name":"B72","postalCode":"26524","locality":"Lütetsburg","municipality":{"key":"03452016","name":"Lütetsburg","type":"Kreisangehörige_Gemeinde"},"district":{"key":"03452","name":"Aurich","type":"Landkreis"},"federalState":{"key":"03","name":"Niedersachsen"}},{"name":"Bedhusweg","postalCode":"26524","locality":"Lütetsburg","municipality":{"key":"03452016","name":"Lütetsburg","type":"Kreisangehörige_Gemeinde"},"district":{"key":"03452","name":"Aurich","type":"Landkreis"},"federalState":{"key":"03","name":"Niedersachsen"}},{"name":"Carl-von-Ossietzky-Str.","postalCode":"26603","locality":"Aurich","municipality":{"key":"03452001","name":"Aurich, Stadt","type":"Stadt"},"district":{"key":"03452","name":"Aurich","type":"Landkreis"},"federalState":{"key":"03","name":"Niedersachsen"}},{"name":"Carolinengang","postalCode":"26603","locality":"Aurich","municipality":{"key":"03452001","name":"Aurich, Stadt","type":"Stadt"},"district":{"key":"03452","name":"Aurich","type":"Landkreis"},"federalState":{"key":"03","name":"Niedersachsen"}},{"name":"Cirksenastr.","postalCode":"26603","locality":"Aurich","municipality":{"key":"03452001","name":"Aurich, Stadt","type":"Stadt"},"district":{"key":"03452","name":"Aurich","type":"Landkreis"},"federalState":{"key":"03","name":"Niedersachsen"}},{"name":"Collmannsgang","postalCode":"26603","locality":"Aurich","municipality":{"key":"03452001","name":"Aurich, Stadt","type":"Stadt"},"district":{"key":"03452","name":"Aurich","type":"Landkreis"},"federalState":{"key":"03","name":"Niedersachsen"}},{"name":"Dachsweg","postalCode":"26603","locality":"Aurich","municipality":{"key":"03452001","name":"Aurich, Stadt","type":"Stadt"},"district":{"key":"03452","name":"Aurich","type":"Landkreis"},"federalState":{"key":"03","name":"Niedersachsen"}},{"name":"Dagwarkenweg","postalCode":"26607","locality":"Aurich","municipality":{"key":"03452001","name":"Aurich, Stadt","type":"Stadt"},"district":{"key":"03452","name":"Aurich","type":"Landkreis"},"federalState":{"key":"03","name":"Niedersachsen"}},{"name":"Dahlienstr.","postalCode":"26603","locality":"Aurich","municipality":{"key":"03452001","name":"Aurich, Stadt","type":"Stadt"},"district":{"key":"03452","name":"Aurich","type":"Landkreis"},"federalState":{"key":"03","name":"Niedersachsen"}},{"name":"Daimlerstr.","postalCode":"26607","locality":"Aurich","municipality":{"key":"03452001","name":"Aurich, Stadt","type":"Stadt"},"district":{"key":"03452","name":"Aurich","type":"Landkreis"},"federalState":{"key":"03","name":"Niedersachsen"}},{"name":"Dannenkamp","postalCode":"26607","locality":"Aurich","municipality":{"key":"03452001","name":"Aurich, Stadt","type":"Stadt"},"district":{"key":"03452","name":"Aurich","type":"Landkreis"},"federalState":{"key":"03","name":"Niedersachsen"}},{"name":"Danziger Str.","postalCode":"26603","locality":"Aurich","municipality":{"key":"03452001","name":"Aurich, Stadt","type":"Stadt"},"district":{"key":"03452","name":"Aurich","type":"Landkreis"},"federalState":{"key":"03","name":"Niedersachsen"}},{"name":"David-Fabricius-Str.","postalCode":"26603","locality":"Aurich","municipality":{"key":"03452001","name":"Aurich, Stadt","type":"Stadt"},"district":{"key":"03452","name":"Aurich","type":"Landkreis"},"federalState":{"key":"03","name":"Niedersachsen"}},{"name":"Deepe Delle","postalCode":"26607","locality":"Aurich","municipality":{"key":"03452001","name":"Aurich, Stadt","type":"Stadt"},"district":{"key":"03452","name":"Aurich","type":"Landkreis"},"federalState":{"key":"03","name":"Niedersachsen"}},{"name":"Deichweg II","postalCode":"26605","locality":"Aurich","municipality":{"key":"03452001","name":"Aurich, Stadt","type":"Stadt"},"district":{"key":"03452","name":"Aurich","type":"Landkreis"},"federalState":{"key":"03","name":"Niedersachsen"}},{"name":"Denkmalsweg","postalCode":"26605","locality":"Aurich","municipality":{"key":"03452001","name":"Aurich, Stadt","type":"Stadt"},"district":{"key":"03452","name":"Aurich","type":"Landkreis"},"federalState":{"key":"03","name":"Niedersachsen"}},{"name":"Dickfehler Weg","postalCode":"26605","locality":"Aurich","municipality":{"key":"03452001","name":"Aurich, Stadt","type":"Stadt"},"district":{"key":"03452","name":"Aurich","type":"Landkreis"},"federalState":{"key":"03","name":"Niedersachsen"}},{"name":"Diehlerstr.","postalCode":"26607","locality":"Aurich","municipality":{"key":"03452001","name":"Aurich, Stadt","type":"Stadt"},"district":{"key":"03452","name":"Aurich","type":"Landkreis"},"federalState":{"key":"03","name":"Niedersachsen"}},{"name":"Diekweg","postalCode":"26605","locality":"Aurich","municipality":{"key":"03452001","name":"Aurich, Stadt","type":"Stadt"},"district":{"key":"03452","name":"Aurich","type":"Landkreis"},"federalState":{"key":"03","name":"Niedersachsen"}},{"name":"Dierschlootweg","postalCode":"26605","locality":"Aurich","municipality":{"key":"03452001","name":"Aurich, Stadt","type":"Stadt"},"district":{"key":"03452","name":"Aurich","type":"Landkreis"},"federalState":{"key":"03","name":"Niedersachsen"}},{"name":"Dieselstr.","postalCode":"26607","locality":"Aurich","municipality":{"key":"03452001","name":"Aurich, Stadt","type":"Stadt"},"district":{"key":"03452","name":"Aurich","type":"Landkreis"},"federalState":{"key":"03","name":"Niedersachsen"}},{"name":"Dietrichsfelder Str.","postalCode":"26607","locality":"Aurich","municipality":{"key":"03452001","name":"Aurich, Stadt","type":"Stadt"},"district":{"key":"03452","name":"Aurich","type":"Landkreis"},"federalState":{"key":"03","name":"Niedersachsen"}},{"name":"Dimmtstückweg","postalCode":"26607","locality":"Aurich","municipality":{"key":"03452001","name":"Aurich, Stadt","type":"Stadt"},"district":{"key":"03452","name":"Aurich","type":"Landkreis"},"federalState":{"key":"03","name":"Niedersachsen"}},{"name":"Dimmtweg","postalCode":"26607","locality":"Aurich","municipality":{"key":"03452001","name":"Aurich, Stadt","type":"Stadt"},"district":{"key":"03452","name":"Aurich","type":"Landkreis"},"federalState":{"key":"03","name":"Niedersachsen"}},{"name":"Dodo-Wildvang-Weg","postalCode":"26603","locality":"Aurich","municipality":{"key":"03452001","name":"Aurich, Stadt","type":"Stadt"},"district":{"key":"03452","name":"Aurich","type":"Landkreis"},"federalState":{"key":"03","name":"Niedersachsen"}},{"name":"Dollartstr.","postalCode":"26603","locality":"Aurich","municipality":{"key":"03452001","name":"Aurich, Stadt","type":"Stadt"},"district":{"key":"03452","name":"Aurich","type":"Landkreis"},"federalState":{"key":"03","name":"Niedersachsen"}},{"name":"Doornkaatsweg","postalCode":"26605","locality":"Aurich","municipality":{"key":"03452001","name":"Aurich, Stadt","type":"Stadt"},"district":{"key":"03452","name":"Aurich","type":"Landkreis"},"federalState":{"key":"03","name":"Niedersachsen"}},{"name":"Dornbuschweg","postalCode":"26603","locality":"Aurich","municipality":{"key":"03452001","name":"Aurich, Stadt","type":"Stadt"},"district":{"key":"03452","name":"Aurich","type":"Landkreis"},"federalState":{"key":"03","name":"Niedersachsen"}},{"name":"Dornumer Str.","postalCode":"26607","locality":"Aurich","municipality":{"key":"03452001","name":"Aurich, Stadt","type":"Stadt"},"district":{"key":"03452","name":"Aurich","type":"Landkreis"},"federalState":{"key":"03","name":"Niedersachsen"}},{"name":"Drechslerweg","postalCode":"26605","locality":"Aurich","municipality":{"key":"03452001","name":"Aurich, Stadt","type":"Stadt"},"district":{"key":"03452","name":"Aurich","type":"Landkreis"},"federalState":{"key":"03","name":"Niedersachsen"}},{"name":"Dreekamp","postalCode":"26605","locality":"Aurich","municipality":{"key":"03452001","name":"Aurich, Stadt","type":"Stadt"},"district":{"key":"03452","name":"Aurich","type":"Landkreis"},"federalState":{"key":"03","name":"Niedersachsen"}},{"name":"Dreekamp","postalCode":"26607","locality":"Aurich","municipality":{"key":"03452001","name":"Aurich, Stadt","type":"Stadt"},"district":{"key":"03452","name":"Aurich","type":"Landkreis"},"federalState":{"key":"03","name":"Niedersachsen"}},{"name":"Dreipost","postalCode":"26607","locality":"Aurich","municipality":{"key":"03452001","name":"Aurich, Stadt","type":"Stadt"},"district":{"key":"03452","name":"Aurich","type":"Landkreis"},"federalState":{"key":"03","name":"Niedersachsen"}},{"name":"Dr. Heusler-Edenhuizen-Str.","postalCode":"26605","locality":"Aurich","municipality":{"key":"03452001","name":"Aurich, Stadt","type":"Stadt"},"district":{"key":"03452","name":"Aurich","type":"Landkreis"},"federalState":{"key":"03","name":"Niedersachsen"}},{"name":"Drift","postalCode":"26607","locality":"Aurich","municipality":{"key":"03452001","name":"Aurich, Stadt","type":"Stadt"},"district":{"key":"03452","name":"Aurich","type":"Landkreis"},"federalState":{"key":"03","name":"Niedersachsen"}},{"name":"Drosselweg","postalCode":"26603","locality":"Aurich","municipality":{"key":"03452001","name":"Aurich, Stadt","type":"Stadt"},"district":{"key":"03452","name":"Aurich","type":"Landkreis"},"federalState":{"key":"03","name":"Niedersachsen"}},{"name":"Düfferstr.","postalCode":"26603","locality":"Aurich","municipality":{"key":"03452001","name":"Aurich, Stadt","type":"Stadt"},"district":{"key":"03452","name":"Aurich","type":"Landkreis"},"federalState":{"key":"03","name":"Niedersachsen"}},{"name":"Dünenweg","postalCode":"26605","locality":"Aurich","municipality":{"key":"03452001","name":"Aurich, Stadt","type":"Stadt"},"district":{"key":"03452","name":"Aurich","type":"Landkreis"},"federalState":{"key":"03","name":"Niedersachsen"}},{"name":"Dunkhörnweg","postalCode":"26607","locality":"Aurich","municipality":{"key":"03452001","name":"Aurich, Stadt","type":"Stadt"},"district":{"key":"03452","name":"Aurich","type":"Landkreis"},"federalState":{"key":"03","name":"Niedersachsen"}},{"name":"Dwarsglupe","postalCode":"26603","locality":"Aurich","municipality":{"key":"03452001","name":"Aurich, Stadt","type":"Stadt"},"district":{"key":"03452","name":"Aurich","type":"Landkreis"},"federalState":{"key":"03","name":"Niedersachsen"}},{"name":"Ebereschenweg","postalCode":"26607","locality":"Aurich","municipality":{"key":"03452001","name":"Aurich, Stadt","type":"Stadt"},"district":{"key":"03452","name":"Aurich","type":"Landkreis"},"federalState":{"key":"03","name":"Niedersachsen"}},{"name":"Eckelkamp","postalCode":"26607","locality":"Aurich","municipality":{"key":"03452001","name":"Aurich, Stadt","type":"Stadt"},"district":{"key":"03452","name":"Aurich","type":"Landkreis"},"federalState":{"key":"03","name":"Niedersachsen"}},{"name":"Eckfehler Gaste","postalCode":"26605","locality":"Aurich","municipality":{"key":"03452001","name":"Aurich, Stadt","type":"Stadt"},"district":{"key":"03452","name":"Aurich","type":"Landkreis"},"federalState":{"key":"03","name":"Niedersachsen"}},{"name":"Eckfehler Leegstücken","postalCode":"26605","locality":"Aurich","municipality":{"key":"03452001","name":"Aurich, Stadt","type":"Stadt"},"district":{"key":"03452","name":"Aurich","type":"Landkreis"},"federalState":{"key":"03","name":"Niedersachsen"}},{"name":"Eckfehler Ring","postalCode":"26605","locality":"Aurich","municipality":{"key":"03452001","name":"Aurich, Stadt","type":"Stadt"},"district":{"key":"03452","name":"Aurich","type":"Landkreis"},"federalState":{"key":"03","name":"Niedersachsen"}},{"name":"Eckfehler Weg","postalCode":"26605","locality":"Aurich","municipality":{"key":"03452001","name":"Aurich, Stadt","type":"Stadt"},"district":{"key":"03452","name":"Aurich","type":"Landkreis"},"federalState":{"key":"03","name":"Niedersachsen"}},{"name":"Eckweg","postalCode":"26605","locality":"Aurich","municipality":{"key":"03452001","name":"Aurich, Stadt","type":"Stadt"},"district":{"key":"03452","name":"Aurich","type":"Landkreis"},"federalState":{"key":"03","name":"Niedersachsen"}},{"name":"Edo-Christophers-Pad","postalCode":"26603","locality":"Aurich","municipality":{"key":"03452001","name":"Aurich, Stadt","type":"Stadt"},"district":{"key":"03452","name":"Aurich","type":"Landkreis"},"federalState":{"key":"03","name":"Niedersachsen"}},{"name":"Egelser Gaste","postalCode":"26605","locality":"Aurich","municipality":{"key":"03452001","name":"Aurich, Stadt","type":"Stadt"},"district":{"key":"03452","name":"Aurich","type":"Landkreis"},"federalState":{"key":"03","name":"Niedersachsen"}},{"name":"Egelser Neukamp","postalCode":"26605","locality":"Aurich","municipality":{"key":"03452001","name":"Aurich, Stadt","type":"Stadt"},"district":{"key":"03452","name":"Aurich","type":"Landkreis"},"federalState":{"key":"03","name":"Niedersachsen"}},{"name":"Egelser Str.","postalCode":"26603","locality":"Aurich","municipality":{"key":"03452001","name":"Aurich, Stadt","type":"Stadt"},"district":{"key":"03452","name":"Aurich","type":"Landkreis"},"federalState":{"key":"03","name":"Niedersachsen"}},{"name":"Egelser Str.","postalCode":"26605","locality":"Aurich","municipality":{"key":"03452001","name":"Aurich, Stadt","type":"Stadt"},"district":{"key":"03452","name":"Aurich","type":"Landkreis"},"federalState":{"key":"03","name":"Niedersachsen"}},{"name":"Ehekämpe","postalCode":"26603","locality":"Aurich","municipality":{"key":"03452001","name":"Aurich, Stadt","type":"Stadt"},"district":{"key":"03452","name":"Aurich","type":"Landkreis"},"federalState":{"key":"03","name":"Niedersachsen"}},{"name":"Eheweg","postalCode":"26607","locality":"Aurich","municipality":{"key":"03452001","name":"Aurich, Stadt","type":"Stadt"},"district":{"key":"03452","name":"Aurich","type":"Landkreis"},"federalState":{"key":"03","name":"Niedersachsen"}},{"name":"Eibenweg","postalCode":"26605","locality":"Aurich","municipality":{"key":"03452001","name":"Aurich, Stadt","type":"Stadt"},"district":{"key":"03452","name":"Aurich","type":"Landkreis"},"federalState":{"key":"03","name":"Niedersachsen"}},{"name":"Eichenweg","postalCode":"26603","locality":"Aurich","municipality":{"key":"03452001","name":"Aurich, Stadt","type":"Stadt"},"district":{"key":"03452","name":"Aurich","type":"Landkreis"},"federalState":{"key":"03","name":"Niedersachsen"}},{"name":"Eickebuscher Weg","postalCode":"26603","locality":"Aurich","municipality":{"key":"03452001","name":"Aurich, Stadt","type":"Stadt"},"district":{"key":"03452","name":"Aurich","type":"Landkreis"},"federalState":{"key":"03","name":"Niedersachsen"}},{"name":"Eidechsenweg","postalCode":"26605","locality":"Aurich","municipality":{"key":"03452001","name":"Aurich, Stadt","type":"Stadt"},"district":{"key":"03452","name":"Aurich","type":"Landkreis"},"federalState":{"key":"03","name":"Niedersachsen"}},{"name":"Eilts Pad","postalCode":"26607","locality":"Aurich","municipality":{"key":"03452001","name":"Aurich, Stadt","type":"Stadt"},"district":{"key":"03452","name":"Aurich","type":"Landkreis"},"federalState":{"key":"03","name":"Niedersachsen"}},{"name":"Einsteinstr.","postalCode":"26603","locality":"Aurich","municipality":{"key":"03452001","name":"Aurich, Stadt","type":"Stadt"},"district":{"key":"03452","name":"Aurich","type":"Landkreis"},"federalState":{"key":"03","name":"Niedersachsen"}},{"name":"Eisenacher Str.","postalCode":"26603","locality":"Aurich","municipality":{"key":"03452001","name":"Aurich, Stadt","type":"Stadt"},"district":{"key":"03452","name":"Aurich","type":"Landkreis"},"federalState":{"key":"03","name":"Niedersachsen"}},{"name":"Elbinger Str.","postalCode":"26603","locality":"Aurich","municipality":{"key":"03452001","name":"Aurich, Stadt","type":"Stadt"},"district":{"key":"03452","name":"Aurich","type":"Landkreis"},"federalState":{"key":"03","name":"Niedersachsen"}},{"name":"Elchstr.","postalCode":"26603","locality":"Aurich","municipality":{"key":"03452001","name":"Aurich, Stadt","type":"Stadt"},"district":{"key":"03452","name":"Aurich","type":"Landkreis"},"federalState":{"key":"03","name":"Niedersachsen"}},{"name":"Elisabeth-von-Ungnad-Str.","postalCode":"26605","locality":"Aurich","municipality":{"key":"03452001","name":"Aurich, Stadt","type":"Stadt"},"district":{"key":"03452","name":"Aurich","type":"Landkreis"},"federalState":{"key":"03","name":"Niedersachsen"}},{"name":"Ellerkenstr.","postalCode":"26607","locality":"Aurich","municipality":{"key":"03452001","name":"Aurich, Stadt","type":"Stadt"},"district":{"key":"03452","name":"Aurich","type":"Landkreis"},"federalState":{"key":"03","name":"Niedersachsen"}},{"name":"Elsterweg","postalCode":"26607","locality":"Aurich","municipality":{"key":"03452001","name":"Aurich, Stadt","type":"Stadt"},"district":{"key":"03452","name":"Aurich","type":"Landkreis"},"federalState":{"key":"03","name":"Niedersachsen"}},{"name":"Emder Str.","postalCode":"26603","locality":"Aurich","municipality":{"key":"03452001","name":"Aurich, Stadt","type":"Stadt"},"district":{"key":"03452","name":"Aurich","type":"Landkreis"},"federalState":{"key":"03","name":"Niedersachsen"}},{"name":"Emder Str.","postalCode":"26607","locality":"Aurich","municipality":{"key":"03452001","name":"Aurich, Stadt","type":"Stadt"},"district":{"key":"03452","name":"Aurich","type":"Landkreis"},"federalState":{"key":"03","name":"Niedersachsen"}},{"name":"Enger Weg","postalCode":"26607","locality":"Aurich","municipality":{"key":"03452001","name":"Aurich, Stadt","type":"Stadt"},"district":{"key":"03452","name":"Aurich","type":"Landkreis"},"federalState":{"key":"03","name":"Niedersachsen"}},{"name":"Engeweg","postalCode":"26605","locality":"Aurich","municipality":{"key":"03452001","name":"Aurich, Stadt","type":"Stadt"},"district":{"key":"03452","name":"Aurich","type":"Landkreis"},"federalState":{"key":"03","name":"Niedersachsen"}},{"name":"Enno-Hektor-Str.","postalCode":"26603","locality":"Aurich","municipality":{"key":"03452001","name":"Aurich, Stadt","type":"Stadt"},"district":{"key":"03452","name":"Aurich","type":"Landkreis"},"federalState":{"key":"03","name":"Niedersachsen"}},{"name":"Enzianweg","postalCode":"26605","locality":"Aurich","municipality":{"key":"03452001","name":"Aurich, Stadt","type":"Stadt"},"district":{"key":"03452","name":"Aurich","type":"Landkreis"},"federalState":{"key":"03","name":"Niedersachsen"}},{"name":"Erdbeerweg","postalCode":"26605","locality":"Aurich","municipality":{"key":"03452001","name":"Aurich, Stadt","type":"Stadt"},"district":{"key":"03452","name":"Aurich","type":"Landkreis"},"federalState":{"key":"03","name":"Niedersachsen"}},{"name":"Erfurter Str.","postalCode":"26603","locality":"Aurich","municipality":{"key":"03452001","name":"Aurich, Stadt","type":"Stadt"},"district":{"key":"03452","name":"Aurich","type":"Landkreis"},"federalState":{"key":"03","name":"Niedersachsen"}},{"name":"Erlenweg","postalCode":"26603","locality":"Aurich","municipality":{"key":"03452001","name":"Aurich, Stadt","type":"Stadt"},"district":{"key":"03452","name":"Aurich","type":"Landkreis"},"federalState":{"key":"03","name":"Niedersachsen"}},{"name":"Eschener Allee","postalCode":"26603","locality":"Aurich","municipality":{"key":"03452001","name":"Aurich, Stadt","type":"Stadt"},"district":{"key":"03452","name":"Aurich","type":"Landkreis"},"federalState":{"key":"03","name":"Niedersachsen"}},{"name":"Eschener Gaste","postalCode":"26603","locality":"Aurich","municipality":{"key":"03452001","name":"Aurich, Stadt","type":"Stadt"},"district":{"key":"03452","name":"Aurich","type":"Landkreis"},"federalState":{"key":"03","name":"Niedersachsen"}},{"name":"Eschener Grashausstr.","postalCode":"26607","locality":"Aurich","municipality":{"key":"03452001","name":"Aurich, Stadt","type":"Stadt"},"district":{"key":"03452","name":"Aurich","type":"Landkreis"},"federalState":{"key":"03","name":"Niedersachsen"}},{"name":"Eschenweg","postalCode":"26605","locality":"Aurich","municipality":{"key":"03452001","name":"Aurich, Stadt","type":"Stadt"},"district":{"key":"03452","name":"Aurich","type":"Landkreis"},"federalState":{"key":"03","name":"Niedersachsen"}},{"name":"Esenser Landstr.","postalCode":"26607","locality":"Aurich","municipality":{"key":"03452001","name":"Aurich, Stadt","type":"Stadt"},"district":{"key":"03452","name":"Aurich","type":"Landkreis"},"federalState":{"key":"03","name":"Niedersachsen"}},{"name":"Esenser Postweg","postalCode":"26607","locality":"Aurich","municipality":{"key":"03452001","name":"Aurich, Stadt","type":"Stadt"},"district":{"key":"03452","name":"Aurich","type":"Landkreis"},"federalState":{"key":"03","name":"Niedersachsen"}},{"name":"Esenser Str.","postalCode":"26603","locality":"Aurich","municipality":{"key":"03452001","name":"Aurich, Stadt","type":"Stadt"},"district":{"key":"03452","name":"Aurich","type":"Landkreis"},"federalState":{"key":"03","name":"Niedersachsen"}},{"name":"Esenser Str.","postalCode":"26607","locality":"Aurich","municipality":{"key":"03452001","name":"Aurich, Stadt","type":"Stadt"},"district":{"key":"03452","name":"Aurich","type":"Landkreis"},"federalState":{"key":"03","name":"Niedersachsen"}},{"name":"Exerzierplatzweg","postalCode":"26605","locality":"Aurich","municipality":{"key":"03452001","name":"Aurich, Stadt","type":"Stadt"},"district":{"key":"03452","name":"Aurich","type":"Landkreis"},"federalState":{"key":"03","name":"Niedersachsen"}},{"name":"Extumer Brückenstr.","postalCode":"26605","locality":"Aurich","municipality":{"key":"03452001","name":"Aurich, Stadt","type":"Stadt"},"district":{"key":"03452","name":"Aurich","type":"Landkreis"},"federalState":{"key":"03","name":"Niedersachsen"}},{"name":"Extumer Gaste","postalCode":"26605","locality":"Aurich","municipality":{"key":"03452001","name":"Aurich, Stadt","type":"Stadt"},"district":{"key":"03452","name":"Aurich","type":"Landkreis"},"federalState":{"key":"03","name":"Niedersachsen"}},{"name":"Extumer Kamp","postalCode":"26605","locality":"Aurich","municipality":{"key":"03452001","name":"Aurich, Stadt","type":"Stadt"},"district":{"key":"03452","name":"Aurich","type":"Landkreis"},"federalState":{"key":"03","name":"Niedersachsen"}},{"name":"Extumer Loog","postalCode":"26605","locality":"Aurich","municipality":{"key":"03452001","name":"Aurich, Stadt","type":"Stadt"},"district":{"key":"03452","name":"Aurich","type":"Landkreis"},"federalState":{"key":"03","name":"Niedersachsen"}},{"name":"Extumer Weg","postalCode":"26603","locality":"Aurich","municipality":{"key":"03452001","name":"Aurich, Stadt","type":"Stadt"},"district":{"key":"03452","name":"Aurich","type":"Landkreis"},"federalState":{"key":"03","name":"Niedersachsen"}},{"name":"Extumer Weg","postalCode":"26605","locality":"Aurich","municipality":{"key":"03452001","name":"Aurich, Stadt","type":"Stadt"},"district":{"key":"03452","name":"Aurich","type":"Landkreis"},"federalState":{"key":"03","name":"Niedersachsen"}},{"name":"Fasanenweg","postalCode":"26524","locality":"Lütetsburg","municipality":{"key":"03452016","name":"Lütetsburg","type":"Kreisangehörige_Gemeinde"},"district":{"key":"03452","name":"Aurich","type":"Landkreis"},"federalState":{"key":"03","name":"Niedersachsen"}},{"name":"Gartenstr.","postalCode":"26607","locality":"Aurich","municipality":{"key":"03452001","name":"Aurich, Stadt","type":"Stadt"},"district":{"key":"03452","name":"Aurich","type":"Landkreis"},"federalState":{"key":"03","name":"Niedersachsen"}},{"name":"Gärtnerweg","postalCode":"26607","locality":"Aurich","municipality":{"key":"03452001","name":"Aurich, Stadt","type":"Stadt"},"district":{"key":"03452","name":"Aurich","type":"Landkreis"},"federalState":{"key":"03","name":"Niedersachsen"}},{"name":"Gaster Str.","postalCode":"26605","locality":"Aurich","municipality":{"key":"03452001","name":"Aurich, Stadt","type":"Stadt"},"district":{"key":"03452","name":"Aurich","type":"Landkreis"},"federalState":{"key":"03","name":"Niedersachsen"}},{"name":"Gasthaushelmer","postalCode":"26607","locality":"Aurich","municipality":{"key":"03452001","name":"Aurich, Stadt","type":"Stadt"},"district":{"key":"03452","name":"Aurich","type":"Landkreis"},"federalState":{"key":"03","name":"Niedersachsen"}},{"name":"Gaußstr.","postalCode":"26603","locality":"Aurich","municipality":{"key":"03452001","name":"Aurich, Stadt","type":"Stadt"},"district":{"key":"03452","name":"Aurich","type":"Landkreis"},"federalState":{"key":"03","name":"Niedersachsen"}},{"name":"Georgsfelder Weg","postalCode":"26607","locality":"Aurich","municipality":{"key":"03452001","name":"Aurich, Stadt","type":"Stadt"},"district":{"key":"03452","name":"Aurich","type":"Landkreis"},"federalState":{"key":"03","name":"Niedersachsen"}},{"name":"Georgswall","postalCode":"26603","locality":"Aurich","municipality":{"key":"03452001","name":"Aurich, Stadt","type":"Stadt"},"district":{"key":"03452","name":"Aurich","type":"Landkreis"},"federalState":{"key":"03","name":"Niedersachsen"}},{"name":"Ginsterweg","postalCode":"26605","locality":"Aurich","municipality":{"key":"03452001","name":"Aurich, Stadt","type":"Stadt"},"district":{"key":"03452","name":"Aurich","type":"Landkreis"},"federalState":{"key":"03","name":"Niedersachsen"}},{"name":"Glatzer Str.","postalCode":"26603","locality":"Aurich","municipality":{"key":"03452001","name":"Aurich, Stadt","type":"Stadt"},"district":{"key":"03452","name":"Aurich","type":"Landkreis"},"federalState":{"key":"03","name":"Niedersachsen"}},{"name":"Glogauer Str.","postalCode":"26603","locality":"Aurich","municipality":{"key":"03452001","name":"Aurich, Stadt","type":"Stadt"},"district":{"key":"03452","name":"Aurich","type":"Landkreis"},"federalState":{"key":"03","name":"Niedersachsen"}},{"name":"Glupe","postalCode":"26603","locality":"Aurich","municipality":{"key":"03452001","name":"Aurich, Stadt","type":"Stadt"},"district":{"key":"03452","name":"Aurich","type":"Landkreis"},"federalState":{"key":"03","name":"Niedersachsen"}},{"name":"Goethestr.","postalCode":"26603","locality":"Aurich","municipality":{"key":"03452001","name":"Aurich, Stadt","type":"Stadt"},"district":{"key":"03452","name":"Aurich","type":"Landkreis"},"federalState":{"key":"03","name":"Niedersachsen"}},{"name":"Gornerstr.","postalCode":"26607","locality":"Aurich","municipality":{"key":"03452001","name":"Aurich, Stadt","type":"Stadt"},"district":{"key":"03452","name":"Aurich","type":"Landkreis"},"federalState":{"key":"03","name":"Niedersachsen"}},{"name":"Goschmeersweg","postalCode":"26605","locality":"Aurich","municipality":{"key":"03452001","name":"Aurich, Stadt","type":"Stadt"},"district":{"key":"03452","name":"Aurich","type":"Landkreis"},"federalState":{"key":"03","name":"Niedersachsen"}},{"name":"Gottjes Drenk","postalCode":"26605","locality":"Aurich","municipality":{"key":"03452001","name":"Aurich, Stadt","type":"Stadt"},"district":{"key":"03452","name":"Aurich","type":"Landkreis"},"federalState":{"key":"03","name":"Niedersachsen"}},{"name":"Graf-Edzard-Str.","postalCode":"26603","locality":"Aurich","municipality":{"key":"03452001","name":"Aurich, Stadt","type":"Stadt"},"district":{"key":"03452","name":"Aurich","type":"Landkreis"},"federalState":{"key":"03","name":"Niedersachsen"}},{"name":"Graf-Enno-Str.","postalCode":"26603","locality":"Aurich","municipality":{"key":"03452001","name":"Aurich, Stadt","type":"Stadt"},"district":{"key":"03452","name":"Aurich","type":"Landkreis"},"federalState":{"key":"03","name":"Niedersachsen"}},{"name":"Gräfin-Anna-Str.","postalCode":"26603","locality":"Aurich","municipality":{"key":"03452001","name":"Aurich, Stadt","type":"Stadt"},"district":{"key":"03452","name":"Aurich","type":"Landkreis"},"federalState":{"key":"03","name":"Niedersachsen"}},{"name":"Graf-Spee-Str.","postalCode":"26603","locality":"Aurich","municipality":{"key":"03452001","name":"Aurich, Stadt","type":"Stadt"},"district":{"key":"03452","name":"Aurich","type":"Landkreis"},"federalState":{"key":"03","name":"Niedersachsen"}},{"name":"Graf-Ulrich-Str.","postalCode":"26603","locality":"Aurich","municipality":{"key":"03452001","name":"Aurich, Stadt","type":"Stadt"},"district":{"key":"03452","name":"Aurich","type":"Landkreis"},"federalState":{"key":"03","name":"Niedersachsen"}},{"name":"Grauweidenweg","postalCode":"26607","locality":"Aurich","municipality":{"key":"03452001","name":"Aurich, Stadt","type":"Stadt"},"district":{"key":"03452","name":"Aurich","type":"Landkreis"},"federalState":{"key":"03","name":"Niedersachsen"}},{"name":"Grebenerweg","postalCode":"26607","locality":"Aurich","municipality":{"key":"03452001","name":"Aurich, Stadt","type":"Stadt"},"district":{"key":"03452","name":"Aurich","type":"Landkreis"},"federalState":{"key":"03","name":"Niedersachsen"}},{"name":"Greedenweg","postalCode":"26607","locality":"Aurich","municipality":{"key":"03452001","name":"Aurich, Stadt","type":"Stadt"},"district":{"key":"03452","name":"Aurich","type":"Landkreis"},"federalState":{"key":"03","name":"Niedersachsen"}},{"name":"Greenberger Weg","postalCode":"26607","locality":"Aurich","municipality":{"key":"03452001","name":"Aurich, Stadt","type":"Stadt"},"district":{"key":"03452","name":"Aurich","type":"Landkreis"},"federalState":{"key":"03","name":"Niedersachsen"}},{"name":"Greenkerweg","postalCode":"26605","locality":"Aurich","municipality":{"key":"03452001","name":"Aurich, Stadt","type":"Stadt"},"district":{"key":"03452","name":"Aurich","type":"Landkreis"},"federalState":{"key":"03","name":"Niedersachsen"}},{"name":"Greetkamp","postalCode":"26605","locality":"Aurich","municipality":{"key":"03452001","name":"Aurich, Stadt","type":"Stadt"},"district":{"key":"03452","name":"Aurich","type":"Landkreis"},"federalState":{"key":"03","name":"Niedersachsen"}},{"name":"Grenzstr.","postalCode":"26605","locality":"Aurich","municipality":{"key":"03452001","name":"Aurich, Stadt","type":"Stadt"},"district":{"key":"03452","name":"Aurich","type":"Landkreis"},"federalState":{"key":"03","name":"Niedersachsen"}},{"name":"Grevelskamp","postalCode":"26607","locality":"Aurich","municipality":{"key":"03452001","name":"Aurich, Stadt","type":"Stadt"},"district":{"key":"03452","name":"Aurich","type":"Landkreis"},"federalState":{"key":"03","name":"Niedersachsen"}},{"name":"Groode Kamp","postalCode":"26605","locality":"Aurich","municipality":{"key":"03452001","name":"Aurich, Stadt","type":"Stadt"},"district":{"key":"03452","name":"Aurich","type":"Landkreis"},"federalState":{"key":"03","name":"Niedersachsen"}},{"name":"Groode Leegde","postalCode":"26607","locality":"Aurich","municipality":{"key":"03452001","name":"Aurich, Stadt","type":"Stadt"},"district":{"key":"03452","name":"Aurich","type":"Landkreis"},"federalState":{"key":"03","name":"Niedersachsen"}},{"name":"Große Mühlenwallstr.","postalCode":"26603","locality":"Aurich","municipality":{"key":"03452001","name":"Aurich, Stadt","type":"Stadt"},"district":{"key":"03452","name":"Aurich","type":"Landkreis"},"federalState":{"key":"03","name":"Niedersachsen"}},{"name":"Großer Moorweg","postalCode":"26607","locality":"Aurich","municipality":{"key":"03452001","name":"Aurich, Stadt","type":"Stadt"},"district":{"key":"03452","name":"Aurich","type":"Landkreis"},"federalState":{"key":"03","name":"Niedersachsen"}},{"name":"Große Schlinge","postalCode":"26607","locality":"Aurich","municipality":{"key":"03452001","name":"Aurich, Stadt","type":"Stadt"},"district":{"key":"03452","name":"Aurich","type":"Landkreis"},"federalState":{"key":"03","name":"Niedersachsen"}},{"name":"Grüner Weg","postalCode":"26605","locality":"Aurich","municipality":{"key":"03452001","name":"Aurich, Stadt","type":"Stadt"},"district":{"key":"03452","name":"Aurich","type":"Landkreis"},"federalState":{"key":"03","name":"Niedersachsen"}},{"name":"Hauptallee","postalCode":"26524","locality":"Lütetsburg","municipality":{"key":"03452016","name":"Lütetsburg","type":"Kreisangehörige_Gemeinde"},"district":{"key":"03452","name":"Aurich","type":"Landkreis"},"federalState":{"key":"03","name":"Niedersachsen"}},{"name":"Ihlower Weg","postalCode":"26605","locality":"Aurich","municipality":{"key":"03452001","name":"Aurich, Stadt","type":"Stadt"},"district":{"key":"03452","name":"Aurich","type":"Landkreis"},"federalState":{"key":"03","name":"Niedersachsen"}},{"name":"Ihmermeedenweg","postalCode":"26607","locality":"Aurich","municipality":{"key":"03452001","name":"Aurich, Stadt","type":"Stadt"},"district":{"key":"03452","name":"Aurich","type":"Landkreis"},"federalState":{"key":"03","name":"Niedersachsen"}},{"name":"Iltisweg","postalCode":"26603","locality":"Aurich","municipality":{"key":"03452001","name":"Aurich, Stadt","type":"Stadt"},"district":{"key":"03452","name":"Aurich","type":"Landkreis"},"federalState":{"key":"03","name":"Niedersachsen"}},{"name":"Im Alten Moor","postalCode":"26605","locality":"Aurich","municipality":{"key":"03452001","name":"Aurich, Stadt","type":"Stadt"},"district":{"key":"03452","name":"Aurich","type":"Landkreis"},"federalState":{"key":"03","name":"Niedersachsen"}},{"name":"Im Beeholt","postalCode":"26605","locality":"Aurich","municipality":{"key":"03452001","name":"Aurich, Stadt","type":"Stadt"},"district":{"key":"03452","name":"Aurich","type":"Landkreis"},"federalState":{"key":"03","name":"Niedersachsen"}},{"name":"Im Birkengrund","postalCode":"26605","locality":"Aurich","municipality":{"key":"03452001","name":"Aurich, Stadt","type":"Stadt"},"district":{"key":"03452","name":"Aurich","type":"Landkreis"},"federalState":{"key":"03","name":"Niedersachsen"}},{"name":"Imbuschweg","postalCode":"26605","locality":"Aurich","municipality":{"key":"03452001","name":"Aurich, Stadt","type":"Stadt"},"district":{"key":"03452","name":"Aurich","type":"Landkreis"},"federalState":{"key":"03","name":"Niedersachsen"}},{"name":"Im Dorfe","postalCode":"26607","locality":"Aurich","municipality":{"key":"03452001","name":"Aurich, Stadt","type":"Stadt"},"district":{"key":"03452","name":"Aurich","type":"Landkreis"},"federalState":{"key":"03","name":"Niedersachsen"}},{"name":"Im Eickebusch","postalCode":"26603","locality":"Aurich","municipality":{"key":"03452001","name":"Aurich, Stadt","type":"Stadt"},"district":{"key":"03452","name":"Aurich","type":"Landkreis"},"federalState":{"key":"03","name":"Niedersachsen"}},{"name":"Im Ellerkenbusch","postalCode":"26607","locality":"Aurich","municipality":{"key":"03452001","name":"Aurich, Stadt","type":"Stadt"},"district":{"key":"03452","name":"Aurich","type":"Landkreis"},"federalState":{"key":"03","name":"Niedersachsen"}},{"name":"Im Extumer Hammrich","postalCode":"26605","locality":"Aurich","municipality":{"key":"03452001","name":"Aurich, Stadt","type":"Stadt"},"district":{"key":"03452","name":"Aurich","type":"Landkreis"},"federalState":{"key":"03","name":"Niedersachsen"}},{"name":"Im Flachsmeer","postalCode":"26605","locality":"Aurich","municipality":{"key":"03452001","name":"Aurich, Stadt","type":"Stadt"},"district":{"key":"03452","name":"Aurich","type":"Landkreis"},"federalState":{"key":"03","name":"Niedersachsen"}},{"name":"Im Hagenkamp","postalCode":"26607","locality":"Aurich","municipality":{"key":"03452001","name":"Aurich, Stadt","type":"Stadt"},"district":{"key":"03452","name":"Aurich","type":"Landkreis"},"federalState":{"key":"03","name":"Niedersachsen"}},{"name":"Im Halg","postalCode":"26605","locality":"Aurich","municipality":{"key":"03452001","name":"Aurich, Stadt","type":"Stadt"},"district":{"key":"03452","name":"Aurich","type":"Landkreis"},"federalState":{"key":"03","name":"Niedersachsen"}},{"name":"Im Hammrich","postalCode":"26603","locality":"Aurich","municipality":{"key":"03452001","name":"Aurich, Stadt","type":"Stadt"},"district":{"key":"03452","name":"Aurich","type":"Landkreis"},"federalState":{"key":"03","name":"Niedersachsen"}},{"name":"Im Heidkamp","postalCode":"26605","locality":"Aurich","municipality":{"key":"03452001","name":"Aurich, Stadt","type":"Stadt"},"district":{"key":"03452","name":"Aurich","type":"Landkreis"},"federalState":{"key":"03","name":"Niedersachsen"}},{"name":"Im Hook","postalCode":"26605","locality":"Aurich","municipality":{"key":"03452001","name":"Aurich, Stadt","type":"Stadt"},"district":{"key":"03452","name":"Aurich","type":"Landkreis"},"federalState":{"key":"03","name":"Niedersachsen"}},{"name":"Im Kamp","postalCode":"26605","locality":"Aurich","municipality":{"key":"03452001","name":"Aurich, Stadt","type":"Stadt"},"district":{"key":"03452","name":"Aurich","type":"Landkreis"},"federalState":{"key":"03","name":"Niedersachsen"}},{"name":"Im Kieferngrund","postalCode":"26605","locality":"Aurich","municipality":{"key":"03452001","name":"Aurich, Stadt","type":"Stadt"},"district":{"key":"03452","name":"Aurich","type":"Landkreis"},"federalState":{"key":"03","name":"Niedersachsen"}},{"name":"Im Leegland","postalCode":"26605","locality":"Aurich","municipality":{"key":"03452001","name":"Aurich, Stadt","type":"Stadt"},"district":{"key":"03452","name":"Aurich","type":"Landkreis"},"federalState":{"key":"03","name":"Niedersachsen"}},{"name":"Im Loog","postalCode":"26607","locality":"Aurich","municipality":{"key":"03452001","name":"Aurich, Stadt","type":"Stadt"},"district":{"key":"03452","name":"Aurich","type":"Landkreis"},"federalState":{"key":"03","name":"Niedersachsen"}},{"name":"Im Meerhusener Moor","postalCode":"26607","locality":"Aurich","municipality":{"key":"03452001","name":"Aurich, Stadt","type":"Stadt"},"district":{"key":"03452","name":"Aurich","type":"Landkreis"},"federalState":{"key":"03","name":"Niedersachsen"}},{"name":"Im Neuen Moor","postalCode":"26605","locality":"Aurich","municipality":{"key":"03452001","name":"Aurich, Stadt","type":"Stadt"},"district":{"key":"03452","name":"Aurich","type":"Landkreis"},"federalState":{"key":"03","name":"Niedersachsen"}},{"name":"Im Osterloog","postalCode":"26607","locality":"Aurich","municipality":{"key":"03452001","name":"Aurich, Stadt","type":"Stadt"},"district":{"key":"03452","name":"Aurich","type":"Landkreis"},"federalState":{"key":"03","name":"Niedersachsen"}},{"name":"Im Ostermoor","postalCode":"26605","locality":"Aurich","municipality":{"key":"03452001","name":"Aurich, Stadt","type":"Stadt"},"district":{"key":"03452","name":"Aurich","type":"Landkreis"},"federalState":{"key":"03","name":"Niedersachsen"}},{"name":"Im Pulvermoor","postalCode":"26607","locality":"Aurich","municipality":{"key":"03452001","name":"Aurich, Stadt","type":"Stadt"},"district":{"key":"03452","name":"Aurich","type":"Landkreis"},"federalState":{"key":"03","name":"Niedersachsen"}},{"name":"Im Tannengrund","postalCode":"26605","locality":"Aurich","municipality":{"key":"03452001","name":"Aurich, Stadt","type":"Stadt"},"district":{"key":"03452","name":"Aurich","type":"Landkreis"},"federalState":{"key":"03","name":"Niedersachsen"}},{"name":"Im Timp","postalCode":"26605","locality":"Aurich","municipality":{"key":"03452001","name":"Aurich, Stadt","type":"Stadt"},"district":{"key":"03452","name":"Aurich","type":"Landkreis"},"federalState":{"key":"03","name":"Niedersachsen"}},{"name":"Im Weißen Moor","postalCode":"26607","locality":"Aurich","municipality":{"key":"03452001","name":"Aurich, Stadt","type":"Stadt"},"district":{"key":"03452","name":"Aurich","type":"Landkreis"},"federalState":{"key":"03","name":"Niedersachsen"}},{"name":"Im Westerfeld","postalCode":"26605","locality":"Aurich","municipality":{"key":"03452001","name":"Aurich, Stadt","type":"Stadt"},"district":{"key":"03452","name":"Aurich","type":"Landkreis"},"federalState":{"key":"03","name":"Niedersachsen"}},{"name":"Im Westermoor","postalCode":"26605","locality":"Aurich","municipality":{"key":"03452001","name":"Aurich, Stadt","type":"Stadt"},"district":{"key":"03452","name":"Aurich","type":"Landkreis"},"federalState":{"key":"03","name":"Niedersachsen"}},{"name":"Im Winkel","postalCode":"26603","locality":"Aurich","municipality":{"key":"03452001","name":"Aurich, Stadt","type":"Stadt"},"district":{"key":"03452","name":"Aurich","type":"Landkreis"},"federalState":{"key":"03","name":"Niedersachsen"}},{"name":"In den Wolden","postalCode":"26607","locality":"Aurich","municipality":{"key":"03452001","name":"Aurich, Stadt","type":"Stadt"},"district":{"key":"03452","name":"Aurich","type":"Landkreis"},"federalState":{"key":"03","name":"Niedersachsen"}},{"name":"Ingrid-Buck-Str.","postalCode":"26605","locality":"Aurich","municipality":{"key":"03452001","name":"Aurich, Stadt","type":"Stadt"},"district":{"key":"03452","name":"Aurich","type":"Landkreis"},"federalState":{"key":"03","name":"Niedersachsen"}},{"name":"Insterburger Str.","postalCode":"26603","locality":"Aurich","municipality":{"key":"03452001","name":"Aurich, Stadt","type":"Stadt"},"district":{"key":"03452","name":"Aurich","type":"Landkreis"},"federalState":{"key":"03","name":"Niedersachsen"}},{"name":"Jadestr.","postalCode":"26605","locality":"Aurich","municipality":{"key":"03452001","name":"Aurich, Stadt","type":"Stadt"},"district":{"key":"03452","name":"Aurich","type":"Landkreis"},"federalState":{"key":"03","name":"Niedersachsen"}},{"name":"Jagdweg","postalCode":"26605","locality":"Aurich","municipality":{"key":"03452001","name":"Aurich, Stadt","type":"Stadt"},"district":{"key":"03452","name":"Aurich","type":"Landkreis"},"federalState":{"key":"03","name":"Niedersachsen"}},{"name":"Jägerstr.","postalCode":"26607","locality":"Aurich","municipality":{"key":"03452001","name":"Aurich, Stadt","type":"Stadt"},"district":{"key":"03452","name":"Aurich","type":"Landkreis"},"federalState":{"key":"03","name":"Niedersachsen"}},{"name":"Jahnstr.","postalCode":"26603","locality":"Aurich","municipality":{"key":"03452001","name":"Aurich, Stadt","type":"Stadt"},"district":{"key":"03452","name":"Aurich","type":"Landkreis"},"federalState":{"key":"03","name":"Niedersachsen"}},{"name":"Jann-Berghaus-Str.","postalCode":"26603","locality":"Aurich","municipality":{"key":"03452001","name":"Aurich, Stadt","type":"Stadt"},"district":{"key":"03452","name":"Aurich","type":"Landkreis"},"federalState":{"key":"03","name":"Niedersachsen"}},{"name":"Johannes-Diekhoff-Str.","postalCode":"26605","locality":"Aurich","municipality":{"key":"03452001","name":"Aurich, Stadt","type":"Stadt"},"district":{"key":"03452","name":"Aurich","type":"Landkreis"},"federalState":{"key":"03","name":"Niedersachsen"}},{"name":"Juiststr.","postalCode":"26603","locality":"Aurich","municipality":{"key":"03452001","name":"Aurich, Stadt","type":"Stadt"},"district":{"key":"03452","name":"Aurich","type":"Landkreis"},"federalState":{"key":"03","name":"Niedersachsen"}},{"name":"Julianenburger Str.","postalCode":"26603","locality":"Aurich","municipality":{"key":"03452001","name":"Aurich, Stadt","type":"Stadt"},"district":{"key":"03452","name":"Aurich","type":"Landkreis"},"federalState":{"key":"03","name":"Niedersachsen"}},{"name":"Jümmestr.","postalCode":"26605","locality":"Aurich","municipality":{"key":"03452001","name":"Aurich, Stadt","type":"Stadt"},"district":{"key":"03452","name":"Aurich","type":"Landkreis"},"federalState":{"key":"03","name":"Niedersachsen"}},{"name":"Kaakweg","postalCode":"26524","locality":"Lütetsburg","municipality":{"key":"03452016","name":"Lütetsburg","type":"Kreisangehörige_Gemeinde"},"district":{"key":"03452","name":"Aurich","type":"Landkreis"},"federalState":{"key":"03","name":"Niedersachsen"}},{"name":"Kolkbrücker Weg","postalCode":"26524","locality":"Lütetsburg","municipality":{"key":"03452016","name":"Lütetsburg","type":"Kreisangehörige_Gemeinde"},"district":{"key":"03452","name":"Aurich","type":"Landkreis"},"federalState":{"key":"03","name":"Niedersachsen"}},{"name":"Kolkweg","postalCode":"26524","locality":"Lütetsburg","municipality":{"key":"03452016","name":"Lütetsburg","type":"Kreisangehörige_Gemeinde"},"district":{"key":"03452","name":"Aurich","type":"Landkreis"},"federalState":{"key":"03","name":"Niedersachsen"}},{"name":"Küstenbahnstr.","postalCode":"26524","locality":"Lütetsburg","municipality":{"key":"03452016","name":"Lütetsburg","type":"Kreisangehörige_Gemeinde"},"district":{"key":"03452","name":"Aurich","type":"Landkreis"},"federalState":{"key":"03","name":"Niedersachsen"}},{"name":"Landstr.","postalCode":"26524","locality":"Lütetsburg","municipality":{"key":"03452016","name":"Lütetsburg","type":"Kreisangehörige_Gemeinde"},"district":{"key":"03452","name":"Aurich","type":"Landkreis"},"federalState":{"key":"03","name":"Niedersachsen"}},{"name":"Manningaweg","postalCode":"26524","locality":"Lütetsburg","municipality":{"key":"03452016","name":"Lütetsburg","type":"Kreisangehörige_Gemeinde"},"district":{"key":"03452","name":"Aurich","type":"Landkreis"},"federalState":{"key":"03","name":"Niedersachsen"}},{"name":"Marschweg","postalCode":"26524","locality":"Lütetsburg","municipality":{"key":"03452016","name":"Lütetsburg","type":"Kreisangehörige_Gemeinde"},"district":{"key":"03452","name":"Aurich","type":"Landkreis"},"federalState":{"key":"03","name":"Niedersachsen"}},{"name":"Meisenweg","postalCode":"26524","locality":"Lütetsburg","municipality":{"key":"03452016","name":"Lütetsburg","type":"Kreisangehörige_Gemeinde"},"district":{"key":"03452","name":"Aurich","type":"Landkreis"},"federalState":{"key":"03","name":"Niedersachsen"}},{"name":"Nadelburg","postalCode":"26607","locality":"Aurich","municipality":{"key":"03452001","name":"Aurich, Stadt","type":"Stadt"},"district":{"key":"03452","name":"Aurich","type":"Landkreis"},"federalState":{"key":"03","name":"Niedersachsen"}},{"name":"Neekamp","postalCode":"26605","locality":"Aurich","municipality":{"key":"03452001","name":"Aurich, Stadt","type":"Stadt"},"district":{"key":"03452","name":"Aurich","type":"Landkreis"},"federalState":{"key":"03","name":"Niedersachsen"}},{"name":"Nee Streek","postalCode":"26607","locality":"Aurich","municipality":{"key":"03452001","name":"Aurich, Stadt","type":"Stadt"},"district":{"key":"03452","name":"Aurich","type":"Landkreis"},"federalState":{"key":"03","name":"Niedersachsen"}},{"name":"Neuer Weg","postalCode":"26603","locality":"Aurich","municipality":{"key":"03452001","name":"Aurich, Stadt","type":"Stadt"},"district":{"key":"03452","name":"Aurich","type":"Landkreis"},"federalState":{"key":"03","name":"Niedersachsen"}},{"name":"Neue Vergrößerungen","postalCode":"26607","locality":"Aurich","municipality":{"key":"03452001","name":"Aurich, Stadt","type":"Stadt"},"district":{"key":"03452","name":"Aurich","type":"Landkreis"},"federalState":{"key":"03","name":"Niedersachsen"}},{"name":"Neulandsweg","postalCode":"26607","locality":"Aurich","municipality":{"key":"03452001","name":"Aurich, Stadt","type":"Stadt"},"district":{"key":"03452","name":"Aurich","type":"Landkreis"},"federalState":{"key":"03","name":"Niedersachsen"}},{"name":"Neusiedlerweg","postalCode":"26605","locality":"Aurich","municipality":{"key":"03452001","name":"Aurich, Stadt","type":"Stadt"},"district":{"key":"03452","name":"Aurich","type":"Landkreis"},"federalState":{"key":"03","name":"Niedersachsen"}},{"name":"Neustadtweg","postalCode":"26607","locality":"Aurich","municipality":{"key":"03452001","name":"Aurich, Stadt","type":"Stadt"},"district":{"key":"03452","name":"Aurich","type":"Landkreis"},"federalState":{"key":"03","name":"Niedersachsen"}},{"name":"Neustücksweg","postalCode":"26607","locality":"Aurich","municipality":{"key":"03452001","name":"Aurich, Stadt","type":"Stadt"},"district":{"key":"03452","name":"Aurich","type":"Landkreis"},"federalState":{"key":"03","name":"Niedersachsen"}},{"name":"Nicolaistr.","postalCode":"26603","locality":"Aurich","municipality":{"key":"03452001","name":"Aurich, Stadt","type":"Stadt"},"district":{"key":"03452","name":"Aurich","type":"Landkreis"},"federalState":{"key":"03","name":"Niedersachsen"}},{"name":"Norderfeldweg","postalCode":"26607","locality":"Aurich","municipality":{"key":"03452001","name":"Aurich, Stadt","type":"Stadt"},"district":{"key":"03452","name":"Aurich","type":"Landkreis"},"federalState":{"key":"03","name":"Niedersachsen"}},{"name":"Norderneystr.","postalCode":"26603","locality":"Aurich","municipality":{"key":"03452001","name":"Aurich, Stadt","type":"Stadt"},"district":{"key":"03452","name":"Aurich","type":"Landkreis"},"federalState":{"key":"03","name":"Niedersachsen"}},{"name":"Norderstr.","postalCode":"26603","locality":"Aurich","municipality":{"key":"03452001","name":"Aurich, Stadt","type":"Stadt"},"district":{"key":"03452","name":"Aurich","type":"Landkreis"},"federalState":{"key":"03","name":"Niedersachsen"}},{"name":"Nordmoorweg","postalCode":"26607","locality":"Aurich","municipality":{"key":"03452001","name":"Aurich, Stadt","type":"Stadt"},"district":{"key":"03452","name":"Aurich","type":"Landkreis"},"federalState":{"key":"03","name":"Niedersachsen"}},{"name":"Nordweg","postalCode":"26607","locality":"Aurich","municipality":{"key":"03452001","name":"Aurich, Stadt","type":"Stadt"},"district":{"key":"03452","name":"Aurich","type":"Landkreis"},"federalState":{"key":"03","name":"Niedersachsen"}},{"name":"Nürnburger Str.","postalCode":"26603","locality":"Aurich","municipality":{"key":"03452001","name":"Aurich, Stadt","type":"Stadt"},"district":{"key":"03452","name":"Aurich","type":"Landkreis"},"federalState":{"key":"03","name":"Niedersachsen"}},{"name":"Ogenbarger Dorfweg","postalCode":"26607","locality":"Aurich","municipality":{"key":"03452001","name":"Aurich, Stadt","type":"Stadt"},"district":{"key":"03452","name":"Aurich","type":"Landkreis"},"federalState":{"key":"03","name":"Niedersachsen"}},{"name":"Ogenbarger Kirchstr.","postalCode":"26607","locality":"Aurich","municipality":{"key":"03452001","name":"Aurich, Stadt","type":"Stadt"},"district":{"key":"03452","name":"Aurich","type":"Landkreis"},"federalState":{"key":"03","name":"Niedersachsen"}},{"name":"Oldersumer Str.","postalCode":"26603","locality":"Aurich","municipality":{"key":"03452001","name":"Aurich, Stadt","type":"Stadt"},"district":{"key":"03452","name":"Aurich","type":"Landkreis"},"federalState":{"key":"03","name":"Niedersachsen"}},{"name":"Oldersumer Str.","postalCode":"26605","locality":"Aurich","municipality":{"key":"03452001","name":"Aurich, Stadt","type":"Stadt"},"district":{"key":"03452","name":"Aurich","type":"Landkreis"},"federalState":{"key":"03","name":"Niedersachsen"}},{"name":"Ollbörg","postalCode":"26605","locality":"Aurich","municipality":{"key":"03452001","name":"Aurich, Stadt","type":"Stadt"},"district":{"key":"03452","name":"Aurich","type":"Landkreis"},"federalState":{"key":"03","name":"Niedersachsen"}},{"name":"Olle Kamp","postalCode":"26605","locality":"Aurich","municipality":{"key":"03452001","name":"Aurich, Stadt","type":"Stadt"},"district":{"key":"03452","name":"Aurich","type":"Landkreis"},"federalState":{"key":"03","name":"Niedersachsen"}},{"name":"Ol Streek","postalCode":"26607","locality":"Aurich","municipality":{"key":"03452001","name":"Aurich, Stadt","type":"Stadt"},"district":{"key":"03452","name":"Aurich","type":"Landkreis"},"federalState":{"key":"03","name":"Niedersachsen"}},{"name":"Oppelner Str.","postalCode":"26603","locality":"Aurich","municipality":{"key":"03452001","name":"Aurich, Stadt","type":"Stadt"},"district":{"key":"03452","name":"Aurich","type":"Landkreis"},"federalState":{"key":"03","name":"Niedersachsen"}},{"name":"Osterbusch","postalCode":"26607","locality":"Aurich","municipality":{"key":"03452001","name":"Aurich, Stadt","type":"Stadt"},"district":{"key":"03452","name":"Aurich","type":"Landkreis"},"federalState":{"key":"03","name":"Niedersachsen"}},{"name":"Osterfeldstr.","postalCode":"26605","locality":"Aurich","municipality":{"key":"03452001","name":"Aurich, Stadt","type":"Stadt"},"district":{"key":"03452","name":"Aurich","type":"Landkreis"},"federalState":{"key":"03","name":"Niedersachsen"}},{"name":"Osterkämpe","postalCode":"26607","locality":"Aurich","municipality":{"key":"03452001","name":"Aurich, Stadt","type":"Stadt"},"district":{"key":"03452","name":"Aurich","type":"Landkreis"},"federalState":{"key":"03","name":"Niedersachsen"}},{"name":"Osterlandsweg","postalCode":"26605","locality":"Aurich","municipality":{"key":"03452001","name":"Aurich, Stadt","type":"Stadt"},"district":{"key":"03452","name":"Aurich","type":"Landkreis"},"federalState":{"key":"03","name":"Niedersachsen"}},{"name":"Osterlooger Kleiweg","postalCode":"26607","locality":"Aurich","municipality":{"key":"03452001","name":"Aurich, Stadt","type":"Stadt"},"district":{"key":"03452","name":"Aurich","type":"Landkreis"},"federalState":{"key":"03","name":"Niedersachsen"}},{"name":"Osterlooger Str.","postalCode":"26607","locality":"Aurich","municipality":{"key":"03452001","name":"Aurich, Stadt","type":"Stadt"},"district":{"key":"03452","name":"Aurich","type":"Landkreis"},"federalState":{"key":"03","name":"Niedersachsen"}},{"name":"Ostgaster Weg","postalCode":"26605","locality":"Aurich","municipality":{"key":"03452001","name":"Aurich, Stadt","type":"Stadt"},"district":{"key":"03452","name":"Aurich","type":"Landkreis"},"federalState":{"key":"03","name":"Niedersachsen"}},{"name":"Otto-Leege-Str.","postalCode":"26603","locality":"Aurich","municipality":{"key":"03452001","name":"Aurich, Stadt","type":"Stadt"},"district":{"key":"03452","name":"Aurich","type":"Landkreis"},"federalState":{"key":"03","name":"Niedersachsen"}},{"name":"Padkamp","postalCode":"26605","locality":"Aurich","municipality":{"key":"03452001","name":"Aurich, Stadt","type":"Stadt"},"district":{"key":"03452","name":"Aurich","type":"Landkreis"},"federalState":{"key":"03","name":"Niedersachsen"}},{"name":"Pappelweg","postalCode":"26605","locality":"Aurich","municipality":{"key":"03452001","name":"Aurich, Stadt","type":"Stadt"},"district":{"key":"03452","name":"Aurich","type":"Landkreis"},"federalState":{"key":"03","name":"Niedersachsen"}},{"name":"Park Haxtum","postalCode":"26605","locality":"Aurich","municipality":{"key":"03452001","name":"Aurich, Stadt","type":"Stadt"},"district":{"key":"03452","name":"Aurich","type":"Landkreis"},"federalState":{"key":"03","name":"Niedersachsen"}},{"name":"Parkstr.","postalCode":"26605","locality":"Aurich","municipality":{"key":"03452001","name":"Aurich, Stadt","type":"Stadt"},"district":{"key":"03452","name":"Aurich","type":"Landkreis"},"federalState":{"key":"03","name":"Niedersachsen"}},{"name":"Pechfennenweg","postalCode":"26605","locality":"Aurich","municipality":{"key":"03452001","name":"Aurich, Stadt","type":"Stadt"},"district":{"key":"03452","name":"Aurich","type":"Landkreis"},"federalState":{"key":"03","name":"Niedersachsen"}},{"name":"Peerkuhl","postalCode":"26605","locality":"Aurich","municipality":{"key":"03452001","name":"Aurich, Stadt","type":"Stadt"},"district":{"key":"03452","name":"Aurich","type":"Landkreis"},"federalState":{"key":"03","name":"Niedersachsen"}},{"name":"Pfalzdorfer Str.","postalCode":"26607","locality":"Aurich","municipality":{"key":"03452001","name":"Aurich, Stadt","type":"Stadt"},"district":{"key":"03452","name":"Aurich","type":"Landkreis"},"federalState":{"key":"03","name":"Niedersachsen"}},{"name":"Pfälzerstr.","postalCode":"26607","locality":"Aurich","municipality":{"key":"03452001","name":"Aurich, Stadt","type":"Stadt"},"district":{"key":"03452","name":"Aurich","type":"Landkreis"},"federalState":{"key":"03","name":"Niedersachsen"}},{"name":"Pfauenweg","postalCode":"26603","locality":"Aurich","municipality":{"key":"03452001","name":"Aurich, Stadt","type":"Stadt"},"district":{"key":"03452","name":"Aurich","type":"Landkreis"},"federalState":{"key":"03","name":"Niedersachsen"}},{"name":"Pferdekoppel","postalCode":"26605","locality":"Aurich","municipality":{"key":"03452001","name":"Aurich, Stadt","type":"Stadt"},"district":{"key":"03452","name":"Aurich","type":"Landkreis"},"federalState":{"key":"03","name":"Niedersachsen"}},{"name":"Piepmortenweg","postalCode":"26607","locality":"Aurich","municipality":{"key":"03452001","name":"Aurich, Stadt","type":"Stadt"},"district":{"key":"03452","name":"Aurich","type":"Landkreis"},"federalState":{"key":"03","name":"Niedersachsen"}},{"name":"Pillauer Str.","postalCode":"26603","locality":"Aurich","municipality":{"key":"03452001","name":"Aurich, Stadt","type":"Stadt"},"district":{"key":"03452","name":"Aurich","type":"Landkreis"},"federalState":{"key":"03","name":"Niedersachsen"}},{"name":"Plackweg","postalCode":"26605","locality":"Aurich","municipality":{"key":"03452001","name":"Aurich, Stadt","type":"Stadt"},"district":{"key":"03452","name":"Aurich","type":"Landkreis"},"federalState":{"key":"03","name":"Niedersachsen"}},{"name":"Pollerweg","postalCode":"26607","locality":"Aurich","municipality":{"key":"03452001","name":"Aurich, Stadt","type":"Stadt"},"district":{"key":"03452","name":"Aurich","type":"Landkreis"},"federalState":{"key":"03","name":"Niedersachsen"}},{"name":"Pommernweg","postalCode":"26603","locality":"Aurich","municipality":{"key":"03452001","name":"Aurich, Stadt","type":"Stadt"},"district":{"key":"03452","name":"Aurich","type":"Landkreis"},"federalState":{"key":"03","name":"Niedersachsen"}},{"name":"Popenser Str.","postalCode":"26603","locality":"Aurich","municipality":{"key":"03452001","name":"Aurich, Stadt","type":"Stadt"},"district":{"key":"03452","name":"Aurich","type":"Landkreis"},"federalState":{"key":"03","name":"Niedersachsen"}},{"name":"Popenser Str.","postalCode":"26605","locality":"Aurich","municipality":{"key":"03452001","name":"Aurich, Stadt","type":"Stadt"},"district":{"key":"03452","name":"Aurich","type":"Landkreis"},"federalState":{"key":"03","name":"Niedersachsen"}},{"name":"Pottackerring","postalCode":"26605","locality":"Aurich","municipality":{"key":"03452001","name":"Aurich, Stadt","type":"Stadt"},"district":{"key":"03452","name":"Aurich","type":"Landkreis"},"federalState":{"key":"03","name":"Niedersachsen"}},{"name":"Preiselbeerweg","postalCode":"26605","locality":"Aurich","municipality":{"key":"03452001","name":"Aurich, Stadt","type":"Stadt"},"district":{"key":"03452","name":"Aurich","type":"Landkreis"},"federalState":{"key":"03","name":"Niedersachsen"}},{"name":"Prinz-Ratibor-Str.","postalCode":"26605","locality":"Aurich","municipality":{"key":"03452001","name":"Aurich, Stadt","type":"Stadt"},"district":{"key":"03452","name":"Aurich","type":"Landkreis"},"federalState":{"key":"03","name":"Niedersachsen"}},{"name":"Quembarger Weg","postalCode":"26607","locality":"Aurich","municipality":{"key":"03452001","name":"Aurich, Stadt","type":"Stadt"},"district":{"key":"03452","name":"Aurich","type":"Landkreis"},"federalState":{"key":"03","name":"Niedersachsen"}},{"name":"Querweg","postalCode":"26605","locality":"Aurich","municipality":{"key":"03452001","name":"Aurich, Stadt","type":"Stadt"},"district":{"key":"03452","name":"Aurich","type":"Landkreis"},"federalState":{"key":"03","name":"Niedersachsen"}},{"name":"Radbodstr.","postalCode":"26603","locality":"Aurich","municipality":{"key":"03452001","name":"Aurich, Stadt","type":"Stadt"},"district":{"key":"03452","name":"Aurich","type":"Landkreis"},"federalState":{"key":"03","name":"Niedersachsen"}},{"name":"Raher Str.","postalCode":"26605","locality":"Aurich","municipality":{"key":"03452001","name":"Aurich, Stadt","type":"Stadt"},"district":{"key":"03452","name":"Aurich","type":"Landkreis"},"federalState":{"key":"03","name":"Niedersachsen"}},{"name":"Rahester Moor","postalCode":"26605","locality":"Aurich","municipality":{"key":"03452001","name":"Aurich, Stadt","type":"Stadt"},"district":{"key":"03452","name":"Aurich","type":"Landkreis"},"federalState":{"key":"03","name":"Niedersachsen"}},{"name":"Rahester Postweg","postalCode":"26605","locality":"Aurich","municipality":{"key":"03452001","name":"Aurich, Stadt","type":"Stadt"},"district":{"key":"03452","name":"Aurich","type":"Landkreis"},"federalState":{"key":"03","name":"Niedersachsen"}},{"name":"Rahester Verlaat","postalCode":"26605","locality":"Aurich","municipality":{"key":"03452001","name":"Aurich, Stadt","type":"Stadt"},"district":{"key":"03452","name":"Aurich","type":"Landkreis"},"federalState":{"key":"03","name":"Niedersachsen"}},{"name":"Raiffeisenstr.","postalCode":"26603","locality":"Aurich","municipality":{"key":"03452001","name":"Aurich, Stadt","type":"Stadt"},"district":{"key":"03452","name":"Aurich","type":"Landkreis"},"federalState":{"key":"03","name":"Niedersachsen"}},{"name":"Raperieweg","postalCode":"26607","locality":"Aurich","municipality":{"key":"03452001","name":"Aurich, Stadt","type":"Stadt"},"district":{"key":"03452","name":"Aurich","type":"Landkreis"},"federalState":{"key":"03","name":"Niedersachsen"}},{"name":"Rathausgang","postalCode":"26603","locality":"Aurich","municipality":{"key":"03452001","name":"Aurich, Stadt","type":"Stadt"},"district":{"key":"03452","name":"Aurich","type":"Landkreis"},"federalState":{"key":"03","name":"Niedersachsen"}},{"name":"Recha-Freier-Str.","postalCode":"26605","locality":"Aurich","municipality":{"key":"03452001","name":"Aurich, Stadt","type":"Stadt"},"district":{"key":"03452","name":"Aurich","type":"Landkreis"},"federalState":{"key":"03","name":"Niedersachsen"}},{"name":"Rehweg","postalCode":"26607","locality":"Aurich","municipality":{"key":"03452001","name":"Aurich, Stadt","type":"Stadt"},"district":{"key":"03452","name":"Aurich","type":"Landkreis"},"federalState":{"key":"03","name":"Niedersachsen"}},{"name":"Reiherweg","postalCode":"26603","locality":"Aurich","municipality":{"key":"03452001","name":"Aurich, Stadt","type":"Stadt"},"district":{"key":"03452","name":"Aurich","type":"Landkreis"},"federalState":{"key":"03","name":"Niedersachsen"}},{"name":"Reilstr.","postalCode":"26603","locality":"Aurich","municipality":{"key":"03452001","name":"Aurich, Stadt","type":"Stadt"},"district":{"key":"03452","name":"Aurich","type":"Landkreis"},"federalState":{"key":"03","name":"Niedersachsen"}},{"name":"Reitkampsweg","postalCode":"26607","locality":"Aurich","municipality":{"key":"03452001","name":"Aurich, Stadt","type":"Stadt"},"district":{"key":"03452","name":"Aurich","type":"Landkreis"},"federalState":{"key":"03","name":"Niedersachsen"}},{"name":"Rhododendronstr.","postalCode":"26605","locality":"Aurich","municipality":{"key":"03452001","name":"Aurich, Stadt","type":"Stadt"},"district":{"key":"03452","name":"Aurich","type":"Landkreis"},"federalState":{"key":"03","name":"Niedersachsen"}},{"name":"Ricklefsche Trift","postalCode":"26607","locality":"Aurich","municipality":{"key":"03452001","name":"Aurich, Stadt","type":"Stadt"},"district":{"key":"03452","name":"Aurich","type":"Landkreis"},"federalState":{"key":"03","name":"Niedersachsen"}},{"name":"Ringstr.","postalCode":"26605","locality":"Aurich","municipality":{"key":"03452001","name":"Aurich, Stadt","type":"Stadt"},"district":{"key":"03452","name":"Aurich","type":"Landkreis"},"federalState":{"key":"03","name":"Niedersachsen"}},{"name":"Robert-Koch-Str.","postalCode":"26607","locality":"Aurich","municipality":{"key":"03452001","name":"Aurich, Stadt","type":"Stadt"},"district":{"key":"03452","name":"Aurich","type":"Landkreis"},"federalState":{"key":"03","name":"Niedersachsen"}},{"name":"Rockerstrift","postalCode":"26607","locality":"Aurich","municipality":{"key":"03452001","name":"Aurich, Stadt","type":"Stadt"},"district":{"key":"03452","name":"Aurich","type":"Landkreis"},"federalState":{"key":"03","name":"Niedersachsen"}},{"name":"Rode","postalCode":"26605","locality":"Aurich","municipality":{"key":"03452001","name":"Aurich, Stadt","type":"Stadt"},"district":{"key":"03452","name":"Aurich","type":"Landkreis"},"federalState":{"key":"03","name":"Niedersachsen"}},{"name":"Roggenweg","postalCode":"26605","locality":"Aurich","municipality":{"key":"03452001","name":"Aurich, Stadt","type":"Stadt"},"district":{"key":"03452","name":"Aurich","type":"Landkreis"},"federalState":{"key":"03","name":"Niedersachsen"}},{"name":"Rohmweg","postalCode":"26607","locality":"Aurich","municipality":{"key":"03452001","name":"Aurich, Stadt","type":"Stadt"},"district":{"key":"03452","name":"Aurich","type":"Landkreis"},"federalState":{"key":"03","name":"Niedersachsen"}},{"name":"Röntgenstr.","postalCode":"26607","locality":"Aurich","municipality":{"key":"03452001","name":"Aurich, Stadt","type":"Stadt"},"district":{"key":"03452","name":"Aurich","type":"Landkreis"},"federalState":{"key":"03","name":"Niedersachsen"}},{"name":"Rosbarger Weg","postalCode":"26607","locality":"Aurich","municipality":{"key":"03452001","name":"Aurich, Stadt","type":"Stadt"},"district":{"key":"03452","name":"Aurich","type":"Landkreis"},"federalState":{"key":"03","name":"Niedersachsen"}},{"name":"Rosenstr.","postalCode":"26605","locality":"Aurich","municipality":{"key":"03452001","name":"Aurich, Stadt","type":"Stadt"},"district":{"key":"03452","name":"Aurich","type":"Landkreis"},"federalState":{"key":"03","name":"Niedersachsen"}},{"name":"Roßkamp","postalCode":"26605","locality":"Aurich","municipality":{"key":"03452001","name":"Aurich, Stadt","type":"Stadt"},"district":{"key":"03452","name":"Aurich","type":"Landkreis"},"federalState":{"key":"03","name":"Niedersachsen"}},{"name":"Roßmüllersweg","postalCode":"26605","locality":"Aurich","municipality":{"key":"03452001","name":"Aurich, Stadt","type":"Stadt"},"district":{"key":"03452","name":"Aurich","type":"Landkreis"},"federalState":{"key":"03","name":"Niedersachsen"}},{"name":"Rotdornstr.","postalCode":"26607","locality":"Aurich","municipality":{"key":"03452001","name":"Aurich, Stadt","type":"Stadt"},"district":{"key":"03452","name":"Aurich","type":"Landkreis"},"federalState":{"key":"03","name":"Niedersachsen"}},{"name":"Roter Weg","postalCode":"26605","locality":"Aurich","municipality":{"key":"03452001","name":"Aurich, Stadt","type":"Stadt"},"district":{"key":"03452","name":"Aurich","type":"Landkreis"},"federalState":{"key":"03","name":"Niedersachsen"}},{"name":"Rotsandweg","postalCode":"26605","locality":"Aurich","municipality":{"key":"03452001","name":"Aurich, Stadt","type":"Stadt"},"district":{"key":"03452","name":"Aurich","type":"Landkreis"},"federalState":{"key":"03","name":"Niedersachsen"}},{"name":"Rudolf-Eucken-Allee","postalCode":"26603","locality":"Aurich","municipality":{"key":"03452001","name":"Aurich, Stadt","type":"Stadt"},"district":{"key":"03452","name":"Aurich","type":"Landkreis"},"federalState":{"key":"03","name":"Niedersachsen"}},{"name":"Rundweg","postalCode":"26603","locality":"Aurich","municipality":{"key":"03452001","name":"Aurich, Stadt","type":"Stadt"},"district":{"key":"03452","name":"Aurich","type":"Landkreis"},"federalState":{"key":"03","name":"Niedersachsen"}},{"name":"Rüskenpad","postalCode":"26607","locality":"Aurich","municipality":{"key":"03452001","name":"Aurich, Stadt","type":"Stadt"},"district":{"key":"03452","name":"Aurich","type":"Landkreis"},"federalState":{"key":"03","name":"Niedersachsen"}},{"name":"Rußland","postalCode":"26605","locality":"Aurich","municipality":{"key":"03452001","name":"Aurich, Stadt","type":"Stadt"},"district":{"key":"03452","name":"Aurich","type":"Landkreis"},"federalState":{"key":"03","name":"Niedersachsen"}},{"name":"Sägewerksweg","postalCode":"26524","locality":"Lütetsburg","municipality":{"key":"03452016","name":"Lütetsburg","type":"Kreisangehörige_Gemeinde"},"district":{"key":"03452","name":"Aurich","type":"Landkreis"},"federalState":{"key":"03","name":"Niedersachsen"}},{"name":"Schatteburg Trift","postalCode":"26524","locality":"Lütetsburg","municipality":{"key":"03452016","name":"Lütetsburg","type":"Kreisangehörige_Gemeinde"},"district":{"key":"03452","name":"Aurich","type":"Landkreis"},"federalState":{"key":"03","name":"Niedersachsen"}},{"name":"Schulweg","postalCode":"26524","locality":"Lütetsburg","municipality":{"key":"03452016","name":"Lütetsburg","type":"Kreisangehörige_Gemeinde"},"district":{"key":"03452","name":"Aurich","type":"Landkreis"},"federalState":{"key":"03","name":"Niedersachsen"}},{"name":"Schwalbenweg","postalCode":"26524","locality":"Lütetsburg","municipality":{"key":"03452016","name":"Lütetsburg","type":"Kreisangehörige_Gemeinde"},"district":{"key":"03452","name":"Aurich","type":"Landkreis"},"federalState":{"key":"03","name":"Niedersachsen"}},{"name":"Spittdieksweg","postalCode":"26524","locality":"Lütetsburg","municipality":{"key":"03452016","name":"Lütetsburg","type":"Kreisangehörige_Gemeinde"},"district":{"key":"03452","name":"Aurich","type":"Landkreis"},"federalState":{"key":"03","name":"Niedersachsen"}},{"name":"Taubenweg","postalCode":"26524","locality":"Lütetsburg","municipality":{"key":"03452016","name":"Lütetsburg","type":"Kreisangehörige_Gemeinde"},"district":{"key":"03452","name":"Aurich","type":"Landkreis"},"federalState":{"key":"03","name":"Niedersachsen"}},{"name":"Torfweg","postalCode":"26524","locality":"Lütetsburg","municipality":{"key":"03452016","name":"Lütetsburg","type":"Kreisangehörige_Gemeinde"},"district":{"key":"03452","name":"Aurich","type":"Landkreis"},"federalState":{"key":"03","name":"Niedersachsen"}},{"name":"Ubbo-Emmius-Str.","postalCode":"26603","locality":"Aurich","municipality":{"key":"03452001","name":"Aurich, Stadt","type":"Stadt"},"district":{"key":"03452","name":"Aurich","type":"Landkreis"},"federalState":{"key":"03","name":"Niedersachsen"}},{"name":"Ukenastr.","postalCode":"26603","locality":"Aurich","municipality":{"key":"03452001","name":"Aurich, Stadt","type":"Stadt"},"district":{"key":"03452","name":"Aurich","type":"Landkreis"},"federalState":{"key":"03","name":"Niedersachsen"}},{"name":"Ulenmoorweg","postalCode":"26603","locality":"Aurich","municipality":{"key":"03452001","name":"Aurich, Stadt","type":"Stadt"},"district":{"key":"03452","name":"Aurich","type":"Landkreis"},"federalState":{"key":"03","name":"Niedersachsen"}},{"name":"Unlander Weg","postalCode":"26605","locality":"Aurich","municipality":{"key":"03452001","name":"Aurich, Stadt","type":"Stadt"},"district":{"key":"03452","name":"Aurich","type":"Landkreis"},"federalState":{"key":"03","name":"Niedersachsen"}},{"name":"Unterfanke","postalCode":"26605","locality":"Aurich","municipality":{"key":"03452001","name":"Aurich, Stadt","type":"Stadt"},"district":{"key":"03452","name":"Aurich","type":"Landkreis"},"federalState":{"key":"03","name":"Niedersachsen"}},{"name":"Up Höcht","postalCode":"26605","locality":"Aurich","municipality":{"key":"03452001","name":"Aurich, Stadt","type":"Stadt"},"district":{"key":"03452","name":"Aurich","type":"Landkreis"},"federalState":{"key":"03","name":"Niedersachsen"}},{"name":"Upt Gast","postalCode":"26607","locality":"Aurich","municipality":{"key":"03452001","name":"Aurich, Stadt","type":"Stadt"},"district":{"key":"03452","name":"Aurich","type":"Landkreis"},"federalState":{"key":"03","name":"Niedersachsen"}},{"name":"Upt Gorn","postalCode":"26607","locality":"Aurich","municipality":{"key":"03452001","name":"Aurich, Stadt","type":"Stadt"},"district":{"key":"03452","name":"Aurich","type":"Landkreis"},"federalState":{"key":"03","name":"Niedersachsen"}},{"name":"Utlandshörner Str.","postalCode":"26607","locality":"Aurich","municipality":{"key":"03452001","name":"Aurich, Stadt","type":"Stadt"},"district":{"key":"03452","name":"Aurich","type":"Landkreis"},"federalState":{"key":"03","name":"Niedersachsen"}},{"name":"Van Dell","postalCode":"26605","locality":"Aurich","municipality":{"key":"03452001","name":"Aurich, Stadt","type":"Stadt"},"district":{"key":"03452","name":"Aurich","type":"Landkreis"},"federalState":{"key":"03","name":"Niedersachsen"}},{"name":"Veerkchenweg","postalCode":"26605","locality":"Aurich","municipality":{"key":"03452001","name":"Aurich, Stadt","type":"Stadt"},"district":{"key":"03452","name":"Aurich","type":"Landkreis"},"federalState":{"key":"03","name":"Niedersachsen"}},{"name":"Viebenweg","postalCode":"26607","locality":"Aurich","municipality":{"key":"03452001","name":"Aurich, Stadt","type":"Stadt"},"district":{"key":"03452","name":"Aurich","type":"Landkreis"},"federalState":{"key":"03","name":"Niedersachsen"}},{"name":"Viehtrift","postalCode":"26607","locality":"Aurich","municipality":{"key":"03452001","name":"Aurich, Stadt","type":"Stadt"},"district":{"key":"03452","name":"Aurich","type":"Landkreis"},"federalState":{"key":"03","name":"Niedersachsen"}},{"name":"Virchowstr.","postalCode":"26607","locality":"Aurich","municipality":{"key":"03452001","name":"Aurich, Stadt","type":"Stadt"},"district":{"key":"03452","name":"Aurich","type":"Landkreis"},"federalState":{"key":"03","name":"Niedersachsen"}},{"name":"Voerkampstr.","postalCode":"26607","locality":"Aurich","municipality":{"key":"03452001","name":"Aurich, Stadt","type":"Stadt"},"district":{"key":"03452","name":"Aurich","type":"Landkreis"},"federalState":{"key":"03","name":"Niedersachsen"}},{"name":"Vogelbeerweg","postalCode":"26607","locality":"Aurich","municipality":{"key":"03452001","name":"Aurich, Stadt","type":"Stadt"},"district":{"key":"03452","name":"Aurich","type":"Landkreis"},"federalState":{"key":"03","name":"Niedersachsen"}},{"name":"Vögelwatersweg","postalCode":"26607","locality":"Aurich","municipality":{"key":"03452001","name":"Aurich, Stadt","type":"Stadt"},"district":{"key":"03452","name":"Aurich","type":"Landkreis"},"federalState":{"key":"03","name":"Niedersachsen"}},{"name":"Von-Bodelschwingh-Str.","postalCode":"26603","locality":"Aurich","municipality":{"key":"03452001","name":"Aurich, Stadt","type":"Stadt"},"district":{"key":"03452","name":"Aurich","type":"Landkreis"},"federalState":{"key":"03","name":"Niedersachsen"}},{"name":"Von-Derschau-Str.","postalCode":"26603","locality":"Aurich","municipality":{"key":"03452001","name":"Aurich, Stadt","type":"Stadt"},"district":{"key":"03452","name":"Aurich","type":"Landkreis"},"federalState":{"key":"03","name":"Niedersachsen"}},{"name":"Von-Frerichs-Str.","postalCode":"26603","locality":"Aurich","municipality":{"key":"03452001","name":"Aurich, Stadt","type":"Stadt"},"district":{"key":"03452","name":"Aurich","type":"Landkreis"},"federalState":{"key":"03","name":"Niedersachsen"}},{"name":"Von-Halem-Str.","postalCode":"26603","locality":"Aurich","municipality":{"key":"03452001","name":"Aurich, Stadt","type":"Stadt"},"district":{"key":"03452","name":"Aurich","type":"Landkreis"},"federalState":{"key":"03","name":"Niedersachsen"}},{"name":"Von-Jhering-Str.","postalCode":"26603","locality":"Aurich","municipality":{"key":"03452001","name":"Aurich, Stadt","type":"Stadt"},"district":{"key":"03452","name":"Aurich","type":"Landkreis"},"federalState":{"key":"03","name":"Niedersachsen"}},{"name":"Von-Tirpitz-Str.","postalCode":"26603","locality":"Aurich","municipality":{"key":"03452001","name":"Aurich, Stadt","type":"Stadt"},"district":{"key":"03452","name":"Aurich","type":"Landkreis"},"federalState":{"key":"03","name":"Niedersachsen"}},{"name":"Vor Brewater","postalCode":"26607","locality":"Aurich","municipality":{"key":"03452001","name":"Aurich, Stadt","type":"Stadt"},"district":{"key":"03452","name":"Aurich","type":"Landkreis"},"federalState":{"key":"03","name":"Niedersachsen"}},{"name":"Vordereschen","postalCode":"26603","locality":"Aurich","municipality":{"key":"03452001","name":"Aurich, Stadt","type":"Stadt"},"district":{"key":"03452","name":"Aurich","type":"Landkreis"},"federalState":{"key":"03","name":"Niedersachsen"}},{"name":"Vör de Tummel","postalCode":"26607","locality":"Aurich","municipality":{"key":"03452001","name":"Aurich, Stadt","type":"Stadt"},"district":{"key":"03452","name":"Aurich","type":"Landkreis"},"federalState":{"key":"03","name":"Niedersachsen"}},{"name":"Vörwolderweg","postalCode":"26607","locality":"Aurich","municipality":{"key":"03452001","name":"Aurich, Stadt","type":"Stadt"},"district":{"key":"03452","name":"Aurich","type":"Landkreis"},"federalState":{"key":"03","name":"Niedersachsen"}},{"name":"Voßhöcht","postalCode":"26607","locality":"Aurich","municipality":{"key":"03452001","name":"Aurich, Stadt","type":"Stadt"},"district":{"key":"03452","name":"Aurich","type":"Landkreis"},"federalState":{"key":"03","name":"Niedersachsen"}},{"name":"Voßweg","postalCode":"26607","locality":"Aurich","municipality":{"key":"03452001","name":"Aurich, Stadt","type":"Stadt"},"district":{"key":"03452","name":"Aurich","type":"Landkreis"},"federalState":{"key":"03","name":"Niedersachsen"}},{"name":"Wester Wischer","postalCode":"26524","locality":"Lütetsburg","municipality":{"key":"03452016","name":"Lütetsburg","type":"Kreisangehörige_Gemeinde"},"district":{"key":"03452","name":"Aurich","type":"Landkreis"},"federalState":{"key":"03","name":"Niedersachsen"}},{"name":"Yorckstr.","postalCode":"26603","locality":"Aurich","municipality":{"key":"03452001","name":"Aurich, Stadt","type":"Stadt"},"district":{"key":"03452","name":"Aurich","type":"Landkreis"},"federalState":{"key":"03","name":"Niedersachsen"}},{"name":"Ziegelkamp","postalCode":"26524","locality":"Lütetsburg","municipality":{"key":"03452016","name":"Lütetsburg","type":"Kreisangehörige_Gemeinde"},"district":{"key":"03452","name":"Aurich","type":"Landkreis"},"federalState":{"key":"03","name":"Niedersachsen"}},{"name":"Zweiter Moorrieger Weg","postalCode":"26524","locality":"Lütetsburg","municipality":{"key":"03452016","name":"Lütetsburg","type":"Kreisangehörige_Gemeinde"},"district":{"key":"03452","name":"Aurich","type":"Landkreis"},"federalState":{"key":"03","name":"Niedersachsen"}},]