[{"name":"Ahornweg","postalCode":"56479","locality":"Liebenscheid","municipality":{"key":"07143256","name":"Liebenscheid","type":"Kreisangehörige_Gemeinde"},"district":{"key":"07143","name":"Westerwaldkreis","type":"Landkreis"},"federalState":{"key":"07","name":"Rheinland-Pfalz"}},{"name":"Am Sonnenhang","postalCode":"56479","locality":"Liebenscheid","municipality":{"key":"07143256","name":"Liebenscheid","type":"Kreisangehörige_Gemeinde"},"district":{"key":"07143","name":"Westerwaldkreis","type":"Landkreis"},"federalState":{"key":"07","name":"Rheinland-Pfalz"}},{"name":"Bergstr.","postalCode":"56479","locality":"Liebenscheid","municipality":{"key":"07143256","name":"Liebenscheid","type":"Kreisangehörige_Gemeinde"},"district":{"key":"07143","name":"Westerwaldkreis","type":"Landkreis"},"federalState":{"key":"07","name":"Rheinland-Pfalz"}},{"name":"Birkenweg","postalCode":"56479","locality":"Liebenscheid","municipality":{"key":"07143256","name":"Liebenscheid","type":"Kreisangehörige_Gemeinde"},"district":{"key":"07143","name":"Westerwaldkreis","type":"Landkreis"},"federalState":{"key":"07","name":"Rheinland-Pfalz"}},{"name":"Burbacher Weg","postalCode":"56479","locality":"Liebenscheid","municipality":{"key":"07143256","name":"Liebenscheid","type":"Kreisangehörige_Gemeinde"},"district":{"key":"07143","name":"Westerwaldkreis","type":"Landkreis"},"federalState":{"key":"07","name":"Rheinland-Pfalz"}},{"name":"Erlenberghof","postalCode":"56479","locality":"Liebenscheid","municipality":{"key":"07143256","name":"Liebenscheid","type":"Kreisangehörige_Gemeinde"},"district":{"key":"07143","name":"Westerwaldkreis","type":"Landkreis"},"federalState":{"key":"07","name":"Rheinland-Pfalz"}},{"name":"Erlenweg","postalCode":"56479","locality":"Liebenscheid","municipality":{"key":"07143256","name":"Liebenscheid","type":"Kreisangehörige_Gemeinde"},"district":{"key":"07143","name":"Westerwaldkreis","type":"Landkreis"},"federalState":{"key":"07","name":"Rheinland-Pfalz"}},{"name":"Friedhofsweg","postalCode":"56479","locality":"Liebenscheid","municipality":{"key":"07143256","name":"Liebenscheid","type":"Kreisangehörige_Gemeinde"},"district":{"key":"07143","name":"Westerwaldkreis","type":"Landkreis"},"federalState":{"key":"07","name":"Rheinland-Pfalz"}},{"name":"Gartenstr.","postalCode":"56479","locality":"Liebenscheid","municipality":{"key":"07143256","name":"Liebenscheid","type":"Kreisangehörige_Gemeinde"},"district":{"key":"07143","name":"Westerwaldkreis","type":"Landkreis"},"federalState":{"key":"07","name":"Rheinland-Pfalz"}},{"name":"Hauptstr.","postalCode":"56479","locality":"Liebenscheid","municipality":{"key":"07143256","name":"Liebenscheid","type":"Kreisangehörige_Gemeinde"},"district":{"key":"07143","name":"Westerwaldkreis","type":"Landkreis"},"federalState":{"key":"07","name":"Rheinland-Pfalz"}},{"name":"Herborner Str.","postalCode":"56479","locality":"Liebenscheid","municipality":{"key":"07143256","name":"Liebenscheid","type":"Kreisangehörige_Gemeinde"},"district":{"key":"07143","name":"Westerwaldkreis","type":"Landkreis"},"federalState":{"key":"07","name":"Rheinland-Pfalz"}},{"name":"Herrenwiese","postalCode":"56479","locality":"Liebenscheid","municipality":{"key":"07143256","name":"Liebenscheid","type":"Kreisangehörige_Gemeinde"},"district":{"key":"07143","name":"Westerwaldkreis","type":"Landkreis"},"federalState":{"key":"07","name":"Rheinland-Pfalz"}},{"name":"Höhenweg","postalCode":"56479","locality":"Liebenscheid","municipality":{"key":"07143256","name":"Liebenscheid","type":"Kreisangehörige_Gemeinde"},"district":{"key":"07143","name":"Westerwaldkreis","type":"Landkreis"},"federalState":{"key":"07","name":"Rheinland-Pfalz"}},{"name":"Kirchgasse","postalCode":"56479","locality":"Liebenscheid","municipality":{"key":"07143256","name":"Liebenscheid","type":"Kreisangehörige_Gemeinde"},"district":{"key":"07143","name":"Westerwaldkreis","type":"Landkreis"},"federalState":{"key":"07","name":"Rheinland-Pfalz"}},{"name":"Langasse","postalCode":"56479","locality":"Liebenscheid","municipality":{"key":"07143256","name":"Liebenscheid","type":"Kreisangehörige_Gemeinde"},"district":{"key":"07143","name":"Westerwaldkreis","type":"Landkreis"},"federalState":{"key":"07","name":"Rheinland-Pfalz"}},{"name":"Langgasse","postalCode":"56479","locality":"Liebenscheid","municipality":{"key":"07143256","name":"Liebenscheid","type":"Kreisangehörige_Gemeinde"},"district":{"key":"07143","name":"Westerwaldkreis","type":"Landkreis"},"federalState":{"key":"07","name":"Rheinland-Pfalz"}},{"name":"Liebenscheider Str.","postalCode":"56479","locality":"Liebenscheid","municipality":{"key":"07143256","name":"Liebenscheid","type":"Kreisangehörige_Gemeinde"},"district":{"key":"07143","name":"Westerwaldkreis","type":"Landkreis"},"federalState":{"key":"07","name":"Rheinland-Pfalz"}},{"name":"Liebenscheider Weg","postalCode":"56479","locality":"Liebenscheid","municipality":{"key":"07143256","name":"Liebenscheid","type":"Kreisangehörige_Gemeinde"},"district":{"key":"07143","name":"Westerwaldkreis","type":"Landkreis"},"federalState":{"key":"07","name":"Rheinland-Pfalz"}},{"name":"Lützelner Weg","postalCode":"56479","locality":"Liebenscheid","municipality":{"key":"07143256","name":"Liebenscheid","type":"Kreisangehörige_Gemeinde"},"district":{"key":"07143","name":"Westerwaldkreis","type":"Landkreis"},"federalState":{"key":"07","name":"Rheinland-Pfalz"}},{"name":"Mittelgasse","postalCode":"56479","locality":"Liebenscheid","municipality":{"key":"07143256","name":"Liebenscheid","type":"Kreisangehörige_Gemeinde"},"district":{"key":"07143","name":"Westerwaldkreis","type":"Landkreis"},"federalState":{"key":"07","name":"Rheinland-Pfalz"}},{"name":"Mittelweg","postalCode":"56479","locality":"Liebenscheid","municipality":{"key":"07143256","name":"Liebenscheid","type":"Kreisangehörige_Gemeinde"},"district":{"key":"07143","name":"Westerwaldkreis","type":"Landkreis"},"federalState":{"key":"07","name":"Rheinland-Pfalz"}},{"name":"Mühlstr.","postalCode":"56479","locality":"Liebenscheid","municipality":{"key":"07143256","name":"Liebenscheid","type":"Kreisangehörige_Gemeinde"},"district":{"key":"07143","name":"Westerwaldkreis","type":"Landkreis"},"federalState":{"key":"07","name":"Rheinland-Pfalz"}},{"name":"Obere Dorfstr.","postalCode":"56479","locality":"Liebenscheid","municipality":{"key":"07143256","name":"Liebenscheid","type":"Kreisangehörige_Gemeinde"},"district":{"key":"07143","name":"Westerwaldkreis","type":"Landkreis"},"federalState":{"key":"07","name":"Rheinland-Pfalz"}},{"name":"Postweg","postalCode":"56479","locality":"Liebenscheid","municipality":{"key":"07143256","name":"Liebenscheid","type":"Kreisangehörige_Gemeinde"},"district":{"key":"07143","name":"Westerwaldkreis","type":"Landkreis"},"federalState":{"key":"07","name":"Rheinland-Pfalz"}},{"name":"Schafgasse","postalCode":"56479","locality":"Liebenscheid","municipality":{"key":"07143256","name":"Liebenscheid","type":"Kreisangehörige_Gemeinde"},"district":{"key":"07143","name":"Westerwaldkreis","type":"Landkreis"},"federalState":{"key":"07","name":"Rheinland-Pfalz"}},{"name":"Schmalgasse","postalCode":"56479","locality":"Liebenscheid","municipality":{"key":"07143256","name":"Liebenscheid","type":"Kreisangehörige_Gemeinde"},"district":{"key":"07143","name":"Westerwaldkreis","type":"Landkreis"},"federalState":{"key":"07","name":"Rheinland-Pfalz"}},{"name":"Schulstr.","postalCode":"56479","locality":"Liebenscheid","municipality":{"key":"07143256","name":"Liebenscheid","type":"Kreisangehörige_Gemeinde"},"district":{"key":"07143","name":"Westerwaldkreis","type":"Landkreis"},"federalState":{"key":"07","name":"Rheinland-Pfalz"}},{"name":"Steinbruchsweg","postalCode":"56479","locality":"Liebenscheid","municipality":{"key":"07143256","name":"Liebenscheid","type":"Kreisangehörige_Gemeinde"},"district":{"key":"07143","name":"Westerwaldkreis","type":"Landkreis"},"federalState":{"key":"07","name":"Rheinland-Pfalz"}},{"name":"Triftstr.","postalCode":"56479","locality":"Liebenscheid","municipality":{"key":"07143256","name":"Liebenscheid","type":"Kreisangehörige_Gemeinde"},"district":{"key":"07143","name":"Westerwaldkreis","type":"Landkreis"},"federalState":{"key":"07","name":"Rheinland-Pfalz"}},{"name":"Untere Dorfstr.","postalCode":"56479","locality":"Liebenscheid","municipality":{"key":"07143256","name":"Liebenscheid","type":"Kreisangehörige_Gemeinde"},"district":{"key":"07143","name":"Westerwaldkreis","type":"Landkreis"},"federalState":{"key":"07","name":"Rheinland-Pfalz"}},{"name":"Waldstr.","postalCode":"56479","locality":"Liebenscheid","municipality":{"key":"07143256","name":"Liebenscheid","type":"Kreisangehörige_Gemeinde"},"district":{"key":"07143","name":"Westerwaldkreis","type":"Landkreis"},"federalState":{"key":"07","name":"Rheinland-Pfalz"}},{"name":"Weißenberger Weg","postalCode":"56479","locality":"Liebenscheid","municipality":{"key":"07143256","name":"Liebenscheid","type":"Kreisangehörige_Gemeinde"},"district":{"key":"07143","name":"Westerwaldkreis","type":"Landkreis"},"federalState":{"key":"07","name":"Rheinland-Pfalz"}},{"name":"Wiesenstr.","postalCode":"56479","locality":"Liebenscheid","municipality":{"key":"07143256","name":"Liebenscheid","type":"Kreisangehörige_Gemeinde"},"district":{"key":"07143","name":"Westerwaldkreis","type":"Landkreis"},"federalState":{"key":"07","name":"Rheinland-Pfalz"}},{"name":"Wilhelmstr.","postalCode":"56479","locality":"Liebenscheid","municipality":{"key":"07143256","name":"Liebenscheid","type":"Kreisangehörige_Gemeinde"},"district":{"key":"07143","name":"Westerwaldkreis","type":"Landkreis"},"federalState":{"key":"07","name":"Rheinland-Pfalz"}},{"name":"Willinger Weg","postalCode":"56479","locality":"Liebenscheid","municipality":{"key":"07143256","name":"Liebenscheid","type":"Kreisangehörige_Gemeinde"},"district":{"key":"07143","name":"Westerwaldkreis","type":"Landkreis"},"federalState":{"key":"07","name":"Rheinland-Pfalz"}},{"name":"Zum Ketzerstein","postalCode":"56479","locality":"Liebenscheid","municipality":{"key":"07143256","name":"Liebenscheid","type":"Kreisangehörige_Gemeinde"},"district":{"key":"07143","name":"Westerwaldkreis","type":"Landkreis"},"federalState":{"key":"07","name":"Rheinland-Pfalz"}},{"name":"Zur Hauptstr.","postalCode":"56479","locality":"Liebenscheid","municipality":{"key":"07143256","name":"Liebenscheid","type":"Kreisangehörige_Gemeinde"},"district":{"key":"07143","name":"Westerwaldkreis","type":"Landkreis"},"federalState":{"key":"07","name":"Rheinland-Pfalz"}},]