[{"name":"Achalmstr.","postalCode":"89168","locality":"Niederstotzingen","municipality":{"key":"08135027","name":"Niederstotzingen, Stadt","type":"Stadt"},"district":{"key":"08135","name":"Heidenheim","type":"Landkreis"},"federalState":{"key":"08","name":"Baden-Württemberg"}},{"name":"Achalmweg","postalCode":"73274","locality":"Notzingen","municipality":{"key":"08116048","name":"Notzingen","type":"Kreisangehörige_Gemeinde"},"district":{"key":"08116","name":"Esslingen","type":"Landkreis"},"federalState":{"key":"08","name":"Baden-Württemberg"}},{"name":"Ahornstr.","postalCode":"94563","locality":"Otzing","municipality":{"key":"09271143","name":"Otzing","type":"Kreisangehörige_Gemeinde"},"district":{"key":"09271","name":"Deggendorf","type":"Landkreis"},"federalState":{"key":"09","name":"Bayern"}},{"name":"Albert-Schweitzer-Weg","postalCode":"73274","locality":"Notzingen","municipality":{"key":"08116048","name":"Notzingen","type":"Kreisangehörige_Gemeinde"},"district":{"key":"08116","name":"Esslingen","type":"Landkreis"},"federalState":{"key":"08","name":"Baden-Württemberg"}},{"name":"Albstr.","postalCode":"73274","locality":"Notzingen","municipality":{"key":"08116048","name":"Notzingen","type":"Kreisangehörige_Gemeinde"},"district":{"key":"08116","name":"Esslingen","type":"Landkreis"},"federalState":{"key":"08","name":"Baden-Württemberg"}},{"name":"Albstr.","postalCode":"89168","locality":"Niederstotzingen","municipality":{"key":"08135027","name":"Niederstotzingen, Stadt","type":"Stadt"},"district":{"key":"08135","name":"Heidenheim","type":"Landkreis"},"federalState":{"key":"08","name":"Baden-Württemberg"}},{"name":"Alemannenweg","postalCode":"73274","locality":"Notzingen","municipality":{"key":"08116048","name":"Notzingen","type":"Kreisangehörige_Gemeinde"},"district":{"key":"08116","name":"Esslingen","type":"Landkreis"},"federalState":{"key":"08","name":"Baden-Württemberg"}},{"name":"Alte Ötlinger Str.","postalCode":"73274","locality":"Notzingen","municipality":{"key":"08116048","name":"Notzingen","type":"Kreisangehörige_Gemeinde"},"district":{"key":"08116","name":"Esslingen","type":"Landkreis"},"federalState":{"key":"08","name":"Baden-Württemberg"}},{"name":"Alter Winkel Weg","postalCode":"73274","locality":"Notzingen","municipality":{"key":"08116048","name":"Notzingen","type":"Kreisangehörige_Gemeinde"},"district":{"key":"08116","name":"Esslingen","type":"Landkreis"},"federalState":{"key":"08","name":"Baden-Württemberg"}},{"name":"Am Bach","postalCode":"94563","locality":"Otzing","municipality":{"key":"09271143","name":"Otzing","type":"Kreisangehörige_Gemeinde"},"district":{"key":"09271","name":"Deggendorf","type":"Landkreis"},"federalState":{"key":"09","name":"Bayern"}},{"name":"Am Büschelberg","postalCode":"89168","locality":"Niederstotzingen","municipality":{"key":"08135027","name":"Niederstotzingen, Stadt","type":"Stadt"},"district":{"key":"08135","name":"Heidenheim","type":"Landkreis"},"federalState":{"key":"08","name":"Baden-Württemberg"}},{"name":"Am Kirchensteig","postalCode":"94563","locality":"Otzing","municipality":{"key":"09271143","name":"Otzing","type":"Kreisangehörige_Gemeinde"},"district":{"key":"09271","name":"Deggendorf","type":"Landkreis"},"federalState":{"key":"09","name":"Bayern"}},{"name":"Amselweg","postalCode":"73274","locality":"Notzingen","municipality":{"key":"08116048","name":"Notzingen","type":"Kreisangehörige_Gemeinde"},"district":{"key":"08116","name":"Esslingen","type":"Landkreis"},"federalState":{"key":"08","name":"Baden-Württemberg"}},{"name":"Amselweg","postalCode":"89168","locality":"Niederstotzingen","municipality":{"key":"08135027","name":"Niederstotzingen, Stadt","type":"Stadt"},"district":{"key":"08135","name":"Heidenheim","type":"Landkreis"},"federalState":{"key":"08","name":"Baden-Württemberg"}},{"name":"Am Stettberg","postalCode":"89168","locality":"Niederstotzingen","municipality":{"key":"08135027","name":"Niederstotzingen, Stadt","type":"Stadt"},"district":{"key":"08135","name":"Heidenheim","type":"Landkreis"},"federalState":{"key":"08","name":"Baden-Württemberg"}},{"name":"Am Stettbergacker","postalCode":"89168","locality":"Niederstotzingen","municipality":{"key":"08135027","name":"Niederstotzingen, Stadt","type":"Stadt"},"district":{"key":"08135","name":"Heidenheim","type":"Landkreis"},"federalState":{"key":"08","name":"Baden-Württemberg"}},{"name":"Am Weiher","postalCode":"89168","locality":"Niederstotzingen","municipality":{"key":"08135027","name":"Niederstotzingen, Stadt","type":"Stadt"},"district":{"key":"08135","name":"Heidenheim","type":"Landkreis"},"federalState":{"key":"08","name":"Baden-Württemberg"}},{"name":"Am Ziegelhau","postalCode":"89168","locality":"Niederstotzingen","municipality":{"key":"08135027","name":"Niederstotzingen, Stadt","type":"Stadt"},"district":{"key":"08135","name":"Heidenheim","type":"Landkreis"},"federalState":{"key":"08","name":"Baden-Württemberg"}},{"name":"An den Obstwiesen","postalCode":"73274","locality":"Notzingen","municipality":{"key":"08116048","name":"Notzingen","type":"Kreisangehörige_Gemeinde"},"district":{"key":"08116","name":"Esslingen","type":"Landkreis"},"federalState":{"key":"08","name":"Baden-Württemberg"}},{"name":"An der Schloßmauer","postalCode":"89168","locality":"Niederstotzingen","municipality":{"key":"08135027","name":"Niederstotzingen, Stadt","type":"Stadt"},"district":{"key":"08135","name":"Heidenheim","type":"Landkreis"},"federalState":{"key":"08","name":"Baden-Württemberg"}},{"name":"An der Stadtmauer","postalCode":"89168","locality":"Niederstotzingen","municipality":{"key":"08135027","name":"Niederstotzingen, Stadt","type":"Stadt"},"district":{"key":"08135","name":"Heidenheim","type":"Landkreis"},"federalState":{"key":"08","name":"Baden-Württemberg"}},{"name":"Andreasweg","postalCode":"89168","locality":"Niederstotzingen","municipality":{"key":"08135027","name":"Niederstotzingen, Stadt","type":"Stadt"},"district":{"key":"08135","name":"Heidenheim","type":"Landkreis"},"federalState":{"key":"08","name":"Baden-Württemberg"}},{"name":"Arndorfer Str.","postalCode":"94563","locality":"Otzing","municipality":{"key":"09271143","name":"Otzing","type":"Kreisangehörige_Gemeinde"},"district":{"key":"09271","name":"Deggendorf","type":"Landkreis"},"federalState":{"key":"09","name":"Bayern"}},{"name":"Asselfinger Weg","postalCode":"89168","locality":"Niederstotzingen","municipality":{"key":"08135027","name":"Niederstotzingen, Stadt","type":"Stadt"},"district":{"key":"08135","name":"Heidenheim","type":"Landkreis"},"federalState":{"key":"08","name":"Baden-Württemberg"}},{"name":"Auf der Laube","postalCode":"89168","locality":"Niederstotzingen","municipality":{"key":"08135027","name":"Niederstotzingen, Stadt","type":"Stadt"},"district":{"key":"08135","name":"Heidenheim","type":"Landkreis"},"federalState":{"key":"08","name":"Baden-Württemberg"}},{"name":"Bachstr.","postalCode":"73274","locality":"Notzingen","municipality":{"key":"08116048","name":"Notzingen","type":"Kreisangehörige_Gemeinde"},"district":{"key":"08116","name":"Esslingen","type":"Landkreis"},"federalState":{"key":"08","name":"Baden-Württemberg"}},{"name":"Bachstr.","postalCode":"94563","locality":"Otzing","municipality":{"key":"09271143","name":"Otzing","type":"Kreisangehörige_Gemeinde"},"district":{"key":"09271","name":"Deggendorf","type":"Landkreis"},"federalState":{"key":"09","name":"Bayern"}},{"name":"Bahnhofsallee","postalCode":"94563","locality":"Otzing","municipality":{"key":"09271143","name":"Otzing","type":"Kreisangehörige_Gemeinde"},"district":{"key":"09271","name":"Deggendorf","type":"Landkreis"},"federalState":{"key":"09","name":"Bayern"}},{"name":"Bahnhofstr.","postalCode":"89168","locality":"Niederstotzingen","municipality":{"key":"08135027","name":"Niederstotzingen, Stadt","type":"Stadt"},"district":{"key":"08135","name":"Heidenheim","type":"Landkreis"},"federalState":{"key":"08","name":"Baden-Württemberg"}},{"name":"Bahnhofstr.","postalCode":"94563","locality":"Otzing","municipality":{"key":"09271143","name":"Otzing","type":"Kreisangehörige_Gemeinde"},"district":{"key":"09271","name":"Deggendorf","type":"Landkreis"},"federalState":{"key":"09","name":"Bayern"}},{"name":"Bahnweg","postalCode":"94563","locality":"Otzing","municipality":{"key":"09271143","name":"Otzing","type":"Kreisangehörige_Gemeinde"},"district":{"key":"09271","name":"Deggendorf","type":"Landkreis"},"federalState":{"key":"09","name":"Bayern"}},{"name":"Banater Weg","postalCode":"89168","locality":"Niederstotzingen","municipality":{"key":"08135027","name":"Niederstotzingen, Stadt","type":"Stadt"},"district":{"key":"08135","name":"Heidenheim","type":"Landkreis"},"federalState":{"key":"08","name":"Baden-Württemberg"}},{"name":"Baumgartenweg","postalCode":"89168","locality":"Niederstotzingen","municipality":{"key":"08135027","name":"Niederstotzingen, Stadt","type":"Stadt"},"district":{"key":"08135","name":"Heidenheim","type":"Landkreis"},"federalState":{"key":"08","name":"Baden-Württemberg"}},{"name":"Beethovenstr.","postalCode":"73274","locality":"Notzingen","municipality":{"key":"08116048","name":"Notzingen","type":"Kreisangehörige_Gemeinde"},"district":{"key":"08116","name":"Esslingen","type":"Landkreis"},"federalState":{"key":"08","name":"Baden-Württemberg"}},{"name":"Bei der Guldenwiese","postalCode":"89168","locality":"Niederstotzingen","municipality":{"key":"08135027","name":"Niederstotzingen, Stadt","type":"Stadt"},"district":{"key":"08135","name":"Heidenheim","type":"Landkreis"},"federalState":{"key":"08","name":"Baden-Württemberg"}},{"name":"Bergstr.","postalCode":"73274","locality":"Notzingen","municipality":{"key":"08116048","name":"Notzingen","type":"Kreisangehörige_Gemeinde"},"district":{"key":"08116","name":"Esslingen","type":"Landkreis"},"federalState":{"key":"08","name":"Baden-Württemberg"}},{"name":"Bergstr.","postalCode":"89168","locality":"Niederstotzingen","municipality":{"key":"08135027","name":"Niederstotzingen, Stadt","type":"Stadt"},"district":{"key":"08135","name":"Heidenheim","type":"Landkreis"},"federalState":{"key":"08","name":"Baden-Württemberg"}},{"name":"Bertolt-Brecht-Str.","postalCode":"89168","locality":"Niederstotzingen","municipality":{"key":"08135027","name":"Niederstotzingen, Stadt","type":"Stadt"},"district":{"key":"08135","name":"Heidenheim","type":"Landkreis"},"federalState":{"key":"08","name":"Baden-Württemberg"}},{"name":"Bgm.-Bauer-Ring","postalCode":"94563","locality":"Otzing","municipality":{"key":"09271143","name":"Otzing","type":"Kreisangehörige_Gemeinde"},"district":{"key":"09271","name":"Deggendorf","type":"Landkreis"},"federalState":{"key":"09","name":"Bayern"}},{"name":"Biersträßle","postalCode":"89168","locality":"Niederstotzingen","municipality":{"key":"08135027","name":"Niederstotzingen, Stadt","type":"Stadt"},"district":{"key":"08135","name":"Heidenheim","type":"Landkreis"},"federalState":{"key":"08","name":"Baden-Württemberg"}},{"name":"Birkenstr.","postalCode":"94563","locality":"Otzing","municipality":{"key":"09271143","name":"Otzing","type":"Kreisangehörige_Gemeinde"},"district":{"key":"09271","name":"Deggendorf","type":"Landkreis"},"federalState":{"key":"09","name":"Bayern"}},{"name":"Bismarckstr.","postalCode":"89168","locality":"Niederstotzingen","municipality":{"key":"08135027","name":"Niederstotzingen, Stadt","type":"Stadt"},"district":{"key":"08135","name":"Heidenheim","type":"Landkreis"},"federalState":{"key":"08","name":"Baden-Württemberg"}},{"name":"Bissinger Str.","postalCode":"89168","locality":"Niederstotzingen","municipality":{"key":"08135027","name":"Niederstotzingen, Stadt","type":"Stadt"},"district":{"key":"08135","name":"Heidenheim","type":"Landkreis"},"federalState":{"key":"08","name":"Baden-Württemberg"}},{"name":"Blumenstr.","postalCode":"89168","locality":"Niederstotzingen","municipality":{"key":"08135027","name":"Niederstotzingen, Stadt","type":"Stadt"},"district":{"key":"08135","name":"Heidenheim","type":"Landkreis"},"federalState":{"key":"08","name":"Baden-Württemberg"}},{"name":"Bolweg","postalCode":"73274","locality":"Notzingen","municipality":{"key":"08116048","name":"Notzingen","type":"Kreisangehörige_Gemeinde"},"district":{"key":"08116","name":"Esslingen","type":"Landkreis"},"federalState":{"key":"08","name":"Baden-Württemberg"}},{"name":"Brahmsstr.","postalCode":"73274","locality":"Notzingen","municipality":{"key":"08116048","name":"Notzingen","type":"Kreisangehörige_Gemeinde"},"district":{"key":"08116","name":"Esslingen","type":"Landkreis"},"federalState":{"key":"08","name":"Baden-Württemberg"}},{"name":"Breite Str.","postalCode":"89168","locality":"Niederstotzingen","municipality":{"key":"08135027","name":"Niederstotzingen, Stadt","type":"Stadt"},"district":{"key":"08135","name":"Heidenheim","type":"Landkreis"},"federalState":{"key":"08","name":"Baden-Württemberg"}},{"name":"Brühlstr.","postalCode":"73274","locality":"Notzingen","municipality":{"key":"08116048","name":"Notzingen","type":"Kreisangehörige_Gemeinde"},"district":{"key":"08116","name":"Esslingen","type":"Landkreis"},"federalState":{"key":"08","name":"Baden-Württemberg"}},{"name":"Buchenstr.","postalCode":"94563","locality":"Otzing","municipality":{"key":"09271143","name":"Otzing","type":"Kreisangehörige_Gemeinde"},"district":{"key":"09271","name":"Deggendorf","type":"Landkreis"},"federalState":{"key":"09","name":"Bayern"}},{"name":"Buchenweg","postalCode":"89168","locality":"Niederstotzingen","municipality":{"key":"08135027","name":"Niederstotzingen, Stadt","type":"Stadt"},"district":{"key":"08135","name":"Heidenheim","type":"Landkreis"},"federalState":{"key":"08","name":"Baden-Württemberg"}},{"name":"Buigenweg","postalCode":"89168","locality":"Niederstotzingen","municipality":{"key":"08135027","name":"Niederstotzingen, Stadt","type":"Stadt"},"district":{"key":"08135","name":"Heidenheim","type":"Landkreis"},"federalState":{"key":"08","name":"Baden-Württemberg"}},{"name":"Burgberger Str.","postalCode":"89168","locality":"Niederstotzingen","municipality":{"key":"08135027","name":"Niederstotzingen, Stadt","type":"Stadt"},"district":{"key":"08135","name":"Heidenheim","type":"Landkreis"},"federalState":{"key":"08","name":"Baden-Württemberg"}},{"name":"Bürgermeister-Ehrl-Ring","postalCode":"94563","locality":"Otzing","municipality":{"key":"09271143","name":"Otzing","type":"Kreisangehörige_Gemeinde"},"district":{"key":"09271","name":"Deggendorf","type":"Landkreis"},"federalState":{"key":"09","name":"Bayern"}},{"name":"Bürgermeister-Menacher-Ring","postalCode":"94563","locality":"Otzing","municipality":{"key":"09271143","name":"Otzing","type":"Kreisangehörige_Gemeinde"},"district":{"key":"09271","name":"Deggendorf","type":"Landkreis"},"federalState":{"key":"09","name":"Bayern"}},{"name":"Christian-Winck-Weg","postalCode":"94469","locality":"Deggendorf","municipality":{"key":"09271119","name":"Deggendorf, GKSt","type":"Große_Kreisstadt"},"district":{"key":"09271","name":"Deggendorf","type":"Landkreis"},"federalState":{"key":"09","name":"Bayern"}},{"name":"Cölestin-Maier-Weg","postalCode":"94469","locality":"Deggendorf","municipality":{"key":"09271119","name":"Deggendorf, GKSt","type":"Große_Kreisstadt"},"district":{"key":"09271","name":"Deggendorf","type":"Landkreis"},"federalState":{"key":"09","name":"Bayern"}},{"name":"Crusila Passage","postalCode":"94469","locality":"Deggendorf","municipality":{"key":"09271119","name":"Deggendorf, GKSt","type":"Große_Kreisstadt"},"district":{"key":"09271","name":"Deggendorf","type":"Landkreis"},"federalState":{"key":"09","name":"Bayern"}},{"name":"Daimlerstr.","postalCode":"73274","locality":"Notzingen","municipality":{"key":"08116048","name":"Notzingen","type":"Kreisangehörige_Gemeinde"},"district":{"key":"08116","name":"Esslingen","type":"Landkreis"},"federalState":{"key":"08","name":"Baden-Württemberg"}},{"name":"Danziger Str.","postalCode":"89168","locality":"Niederstotzingen","municipality":{"key":"08135027","name":"Niederstotzingen, Stadt","type":"Stadt"},"district":{"key":"08135","name":"Heidenheim","type":"Landkreis"},"federalState":{"key":"08","name":"Baden-Württemberg"}},{"name":"Diebsteige","postalCode":"89168","locality":"Niederstotzingen","municipality":{"key":"08135027","name":"Niederstotzingen, Stadt","type":"Stadt"},"district":{"key":"08135","name":"Heidenheim","type":"Landkreis"},"federalState":{"key":"08","name":"Baden-Württemberg"}},{"name":"Dogge","postalCode":"89168","locality":"Niederstotzingen","municipality":{"key":"08135027","name":"Niederstotzingen, Stadt","type":"Stadt"},"district":{"key":"08135","name":"Heidenheim","type":"Landkreis"},"federalState":{"key":"08","name":"Baden-Württemberg"}},{"name":"Drosselweg","postalCode":"73274","locality":"Notzingen","municipality":{"key":"08116048","name":"Notzingen","type":"Kreisangehörige_Gemeinde"},"district":{"key":"08116","name":"Esslingen","type":"Landkreis"},"federalState":{"key":"08","name":"Baden-Württemberg"}},{"name":"Drosselweg","postalCode":"89168","locality":"Niederstotzingen","municipality":{"key":"08135027","name":"Niederstotzingen, Stadt","type":"Stadt"},"district":{"key":"08135","name":"Heidenheim","type":"Landkreis"},"federalState":{"key":"08","name":"Baden-Württemberg"}},{"name":"Eichendorffstr.","postalCode":"94563","locality":"Otzing","municipality":{"key":"09271143","name":"Otzing","type":"Kreisangehörige_Gemeinde"},"district":{"key":"09271","name":"Deggendorf","type":"Landkreis"},"federalState":{"key":"09","name":"Bayern"}},{"name":"Eichertweg","postalCode":"73274","locality":"Notzingen","municipality":{"key":"08116048","name":"Notzingen","type":"Kreisangehörige_Gemeinde"},"district":{"key":"08116","name":"Esslingen","type":"Landkreis"},"federalState":{"key":"08","name":"Baden-Württemberg"}},{"name":"Elsterweg","postalCode":"89168","locality":"Niederstotzingen","municipality":{"key":"08135027","name":"Niederstotzingen, Stadt","type":"Stadt"},"district":{"key":"08135","name":"Heidenheim","type":"Landkreis"},"federalState":{"key":"08","name":"Baden-Württemberg"}},{"name":"Eschenstr.","postalCode":"94563","locality":"Otzing","municipality":{"key":"09271143","name":"Otzing","type":"Kreisangehörige_Gemeinde"},"district":{"key":"09271","name":"Deggendorf","type":"Landkreis"},"federalState":{"key":"09","name":"Bayern"}},{"name":"Fahrtalweg","postalCode":"89168","locality":"Niederstotzingen","municipality":{"key":"08135027","name":"Niederstotzingen, Stadt","type":"Stadt"},"district":{"key":"08135","name":"Heidenheim","type":"Landkreis"},"federalState":{"key":"08","name":"Baden-Württemberg"}},{"name":"Falkensteinstr.","postalCode":"89168","locality":"Niederstotzingen","municipality":{"key":"08135027","name":"Niederstotzingen, Stadt","type":"Stadt"},"district":{"key":"08135","name":"Heidenheim","type":"Landkreis"},"federalState":{"key":"08","name":"Baden-Württemberg"}},{"name":"Falkenweg","postalCode":"73274","locality":"Notzingen","municipality":{"key":"08116048","name":"Notzingen","type":"Kreisangehörige_Gemeinde"},"district":{"key":"08116","name":"Esslingen","type":"Landkreis"},"federalState":{"key":"08","name":"Baden-Württemberg"}},{"name":"Fällesweg","postalCode":"89168","locality":"Niederstotzingen","municipality":{"key":"08135027","name":"Niederstotzingen, Stadt","type":"Stadt"},"district":{"key":"08135","name":"Heidenheim","type":"Landkreis"},"federalState":{"key":"08","name":"Baden-Württemberg"}},{"name":"Fasanenweg","postalCode":"73274","locality":"Notzingen","municipality":{"key":"08116048","name":"Notzingen","type":"Kreisangehörige_Gemeinde"},"district":{"key":"08116","name":"Esslingen","type":"Landkreis"},"federalState":{"key":"08","name":"Baden-Württemberg"}},{"name":"Fasanenweg","postalCode":"89168","locality":"Niederstotzingen","municipality":{"key":"08135027","name":"Niederstotzingen, Stadt","type":"Stadt"},"district":{"key":"08135","name":"Heidenheim","type":"Landkreis"},"federalState":{"key":"08","name":"Baden-Württemberg"}},{"name":"Felsengasse","postalCode":"89168","locality":"Niederstotzingen","municipality":{"key":"08135027","name":"Niederstotzingen, Stadt","type":"Stadt"},"district":{"key":"08135","name":"Heidenheim","type":"Landkreis"},"federalState":{"key":"08","name":"Baden-Württemberg"}},{"name":"Finkenweg","postalCode":"73274","locality":"Notzingen","municipality":{"key":"08116048","name":"Notzingen","type":"Kreisangehörige_Gemeinde"},"district":{"key":"08116","name":"Esslingen","type":"Landkreis"},"federalState":{"key":"08","name":"Baden-Württemberg"}},{"name":"Finkenweg","postalCode":"89168","locality":"Niederstotzingen","municipality":{"key":"08135027","name":"Niederstotzingen, Stadt","type":"Stadt"},"district":{"key":"08135","name":"Heidenheim","type":"Landkreis"},"federalState":{"key":"08","name":"Baden-Württemberg"}},{"name":"Fliederweg","postalCode":"89168","locality":"Niederstotzingen","municipality":{"key":"08135027","name":"Niederstotzingen, Stadt","type":"Stadt"},"district":{"key":"08135","name":"Heidenheim","type":"Landkreis"},"federalState":{"key":"08","name":"Baden-Württemberg"}},{"name":"Flurweg","postalCode":"94563","locality":"Otzing","municipality":{"key":"09271143","name":"Otzing","type":"Kreisangehörige_Gemeinde"},"district":{"key":"09271","name":"Deggendorf","type":"Landkreis"},"federalState":{"key":"09","name":"Bayern"}},{"name":"Friedenstr.","postalCode":"89168","locality":"Niederstotzingen","municipality":{"key":"08135027","name":"Niederstotzingen, Stadt","type":"Stadt"},"district":{"key":"08135","name":"Heidenheim","type":"Landkreis"},"federalState":{"key":"08","name":"Baden-Württemberg"}},{"name":"Friedhofgäßle","postalCode":"89168","locality":"Niederstotzingen","municipality":{"key":"08135027","name":"Niederstotzingen, Stadt","type":"Stadt"},"district":{"key":"08135","name":"Heidenheim","type":"Landkreis"},"federalState":{"key":"08","name":"Baden-Württemberg"}},{"name":"Friedrichstr.","postalCode":"89168","locality":"Niederstotzingen","municipality":{"key":"08135027","name":"Niederstotzingen, Stadt","type":"Stadt"},"district":{"key":"08135","name":"Heidenheim","type":"Landkreis"},"federalState":{"key":"08","name":"Baden-Württemberg"}},{"name":"Galgenbergweg","postalCode":"89168","locality":"Niederstotzingen","municipality":{"key":"08135027","name":"Niederstotzingen, Stadt","type":"Stadt"},"district":{"key":"08135","name":"Heidenheim","type":"Landkreis"},"federalState":{"key":"08","name":"Baden-Württemberg"}},{"name":"Gartenstr.","postalCode":"73274","locality":"Notzingen","municipality":{"key":"08116048","name":"Notzingen","type":"Kreisangehörige_Gemeinde"},"district":{"key":"08116","name":"Esslingen","type":"Landkreis"},"federalState":{"key":"08","name":"Baden-Württemberg"}},{"name":"Gartenstr.","postalCode":"89168","locality":"Niederstotzingen","municipality":{"key":"08135027","name":"Niederstotzingen, Stadt","type":"Stadt"},"district":{"key":"08135","name":"Heidenheim","type":"Landkreis"},"federalState":{"key":"08","name":"Baden-Württemberg"}},{"name":"Gartenstr.","postalCode":"94563","locality":"Otzing","municipality":{"key":"09271143","name":"Otzing","type":"Kreisangehörige_Gemeinde"},"district":{"key":"09271","name":"Deggendorf","type":"Landkreis"},"federalState":{"key":"09","name":"Bayern"}},{"name":"Gäßle","postalCode":"89168","locality":"Niederstotzingen","municipality":{"key":"08135027","name":"Niederstotzingen, Stadt","type":"Stadt"},"district":{"key":"08135","name":"Heidenheim","type":"Landkreis"},"federalState":{"key":"08","name":"Baden-Württemberg"}},{"name":"Goethestr.","postalCode":"89168","locality":"Niederstotzingen","municipality":{"key":"08135027","name":"Niederstotzingen, Stadt","type":"Stadt"},"district":{"key":"08135","name":"Heidenheim","type":"Landkreis"},"federalState":{"key":"08","name":"Baden-Württemberg"}},{"name":"Goethestr.","postalCode":"94563","locality":"Otzing","municipality":{"key":"09271143","name":"Otzing","type":"Kreisangehörige_Gemeinde"},"district":{"key":"09271","name":"Deggendorf","type":"Landkreis"},"federalState":{"key":"09","name":"Bayern"}},{"name":"Gottfried-Keller-Str.","postalCode":"89168","locality":"Niederstotzingen","municipality":{"key":"08135027","name":"Niederstotzingen, Stadt","type":"Stadt"},"district":{"key":"08135","name":"Heidenheim","type":"Landkreis"},"federalState":{"key":"08","name":"Baden-Württemberg"}},{"name":"Grabenweg","postalCode":"89168","locality":"Niederstotzingen","municipality":{"key":"08135027","name":"Niederstotzingen, Stadt","type":"Stadt"},"district":{"key":"08135","name":"Heidenheim","type":"Landkreis"},"federalState":{"key":"08","name":"Baden-Württemberg"}},{"name":"Große Gasse","postalCode":"89168","locality":"Niederstotzingen","municipality":{"key":"08135027","name":"Niederstotzingen, Stadt","type":"Stadt"},"district":{"key":"08135","name":"Heidenheim","type":"Landkreis"},"federalState":{"key":"08","name":"Baden-Württemberg"}},{"name":"Günzburger Str.","postalCode":"89168","locality":"Niederstotzingen","municipality":{"key":"08135027","name":"Niederstotzingen, Stadt","type":"Stadt"},"district":{"key":"08135","name":"Heidenheim","type":"Landkreis"},"federalState":{"key":"08","name":"Baden-Württemberg"}},{"name":"Haertsfelderstr.","postalCode":"89168","locality":"Niederstotzingen","municipality":{"key":"08135027","name":"Niederstotzingen, Stadt","type":"Stadt"},"district":{"key":"08135","name":"Heidenheim","type":"Landkreis"},"federalState":{"key":"08","name":"Baden-Württemberg"}},{"name":"Haiderweg","postalCode":"94563","locality":"Otzing","municipality":{"key":"09271143","name":"Otzing","type":"Kreisangehörige_Gemeinde"},"district":{"key":"09271","name":"Deggendorf","type":"Landkreis"},"federalState":{"key":"09","name":"Bayern"}},{"name":"Haldenbergstr.","postalCode":"73274","locality":"Notzingen","municipality":{"key":"08116048","name":"Notzingen","type":"Kreisangehörige_Gemeinde"},"district":{"key":"08116","name":"Esslingen","type":"Landkreis"},"federalState":{"key":"08","name":"Baden-Württemberg"}},{"name":"Hanns-Voith-Weg","postalCode":"89168","locality":"Niederstotzingen","municipality":{"key":"08135027","name":"Niederstotzingen, Stadt","type":"Stadt"},"district":{"key":"08135","name":"Heidenheim","type":"Landkreis"},"federalState":{"key":"08","name":"Baden-Württemberg"}},{"name":"Hauffstr.","postalCode":"89168","locality":"Niederstotzingen","municipality":{"key":"08135027","name":"Niederstotzingen, Stadt","type":"Stadt"},"district":{"key":"08135","name":"Heidenheim","type":"Landkreis"},"federalState":{"key":"08","name":"Baden-Württemberg"}},{"name":"Haunersdorfer Str.","postalCode":"94563","locality":"Otzing","municipality":{"key":"09271143","name":"Otzing","type":"Kreisangehörige_Gemeinde"},"district":{"key":"09271","name":"Deggendorf","type":"Landkreis"},"federalState":{"key":"09","name":"Bayern"}},{"name":"Hauptstr.","postalCode":"94563","locality":"Otzing","municipality":{"key":"09271143","name":"Otzing","type":"Kreisangehörige_Gemeinde"},"district":{"key":"09271","name":"Deggendorf","type":"Landkreis"},"federalState":{"key":"09","name":"Bayern"}},{"name":"Haydnstr.","postalCode":"73274","locality":"Notzingen","municipality":{"key":"08116048","name":"Notzingen","type":"Kreisangehörige_Gemeinde"},"district":{"key":"08116","name":"Esslingen","type":"Landkreis"},"federalState":{"key":"08","name":"Baden-Württemberg"}},{"name":"Heckenweg","postalCode":"89168","locality":"Niederstotzingen","municipality":{"key":"08135027","name":"Niederstotzingen, Stadt","type":"Stadt"},"district":{"key":"08135","name":"Heidenheim","type":"Landkreis"},"federalState":{"key":"08","name":"Baden-Württemberg"}},{"name":"Heergasse","postalCode":"73274","locality":"Notzingen","municipality":{"key":"08116048","name":"Notzingen","type":"Kreisangehörige_Gemeinde"},"district":{"key":"08116","name":"Esslingen","type":"Landkreis"},"federalState":{"key":"08","name":"Baden-Württemberg"}},{"name":"Heinrich-Heine-Str.","postalCode":"89168","locality":"Niederstotzingen","municipality":{"key":"08135027","name":"Niederstotzingen, Stadt","type":"Stadt"},"district":{"key":"08135","name":"Heidenheim","type":"Landkreis"},"federalState":{"key":"08","name":"Baden-Württemberg"}},{"name":"Helfensteinstr.","postalCode":"89168","locality":"Niederstotzingen","municipality":{"key":"08135027","name":"Niederstotzingen, Stadt","type":"Stadt"},"district":{"key":"08135","name":"Heidenheim","type":"Landkreis"},"federalState":{"key":"08","name":"Baden-Württemberg"}},{"name":"Hellensteinstr.","postalCode":"89168","locality":"Niederstotzingen","municipality":{"key":"08135027","name":"Niederstotzingen, Stadt","type":"Stadt"},"district":{"key":"08135","name":"Heidenheim","type":"Landkreis"},"federalState":{"key":"08","name":"Baden-Württemberg"}},{"name":"Helmut-Hartmann-Str.","postalCode":"89168","locality":"Niederstotzingen","municipality":{"key":"08135027","name":"Niederstotzingen, Stadt","type":"Stadt"},"district":{"key":"08135","name":"Heidenheim","type":"Landkreis"},"federalState":{"key":"08","name":"Baden-Württemberg"}},{"name":"Herdfeldstr.","postalCode":"73274","locality":"Notzingen","municipality":{"key":"08116048","name":"Notzingen","type":"Kreisangehörige_Gemeinde"},"district":{"key":"08116","name":"Esslingen","type":"Landkreis"},"federalState":{"key":"08","name":"Baden-Württemberg"}},{"name":"Hermannstr.","postalCode":"73274","locality":"Notzingen","municipality":{"key":"08116048","name":"Notzingen","type":"Kreisangehörige_Gemeinde"},"district":{"key":"08116","name":"Esslingen","type":"Landkreis"},"federalState":{"key":"08","name":"Baden-Württemberg"}},{"name":"Hinter dem Berg","postalCode":"89168","locality":"Niederstotzingen","municipality":{"key":"08135027","name":"Niederstotzingen, Stadt","type":"Stadt"},"district":{"key":"08135","name":"Heidenheim","type":"Landkreis"},"federalState":{"key":"08","name":"Baden-Württemberg"}},{"name":"Hinter den Gärten","postalCode":"89168","locality":"Niederstotzingen","municipality":{"key":"08135027","name":"Niederstotzingen, Stadt","type":"Stadt"},"district":{"key":"08135","name":"Heidenheim","type":"Landkreis"},"federalState":{"key":"08","name":"Baden-Württemberg"}},{"name":"Hintere Gasse","postalCode":"89168","locality":"Niederstotzingen","municipality":{"key":"08135027","name":"Niederstotzingen, Stadt","type":"Stadt"},"district":{"key":"08135","name":"Heidenheim","type":"Landkreis"},"federalState":{"key":"08","name":"Baden-Württemberg"}},{"name":"Hochdorfer Str.","postalCode":"73274","locality":"Notzingen","municipality":{"key":"08116048","name":"Notzingen","type":"Kreisangehörige_Gemeinde"},"district":{"key":"08116","name":"Esslingen","type":"Landkreis"},"federalState":{"key":"08","name":"Baden-Württemberg"}},{"name":"Hofackerweg","postalCode":"73274","locality":"Notzingen","municipality":{"key":"08116048","name":"Notzingen","type":"Kreisangehörige_Gemeinde"},"district":{"key":"08116","name":"Esslingen","type":"Landkreis"},"federalState":{"key":"08","name":"Baden-Württemberg"}},{"name":"Höhe","postalCode":"89168","locality":"Niederstotzingen","municipality":{"key":"08135027","name":"Niederstotzingen, Stadt","type":"Stadt"},"district":{"key":"08135","name":"Heidenheim","type":"Landkreis"},"federalState":{"key":"08","name":"Baden-Württemberg"}},{"name":"Hohenstaufenblick","postalCode":"73274","locality":"Notzingen","municipality":{"key":"08116048","name":"Notzingen","type":"Kreisangehörige_Gemeinde"},"district":{"key":"08116","name":"Esslingen","type":"Landkreis"},"federalState":{"key":"08","name":"Baden-Württemberg"}},{"name":"Hohentwielstr.","postalCode":"89168","locality":"Niederstotzingen","municipality":{"key":"08135027","name":"Niederstotzingen, Stadt","type":"Stadt"},"district":{"key":"08135","name":"Heidenheim","type":"Landkreis"},"federalState":{"key":"08","name":"Baden-Württemberg"}},{"name":"Höhenweg","postalCode":"94563","locality":"Otzing","municipality":{"key":"09271143","name":"Otzing","type":"Kreisangehörige_Gemeinde"},"district":{"key":"09271","name":"Deggendorf","type":"Landkreis"},"federalState":{"key":"09","name":"Bayern"}},{"name":"Hohenzollernstr.","postalCode":"89168","locality":"Niederstotzingen","municipality":{"key":"08135027","name":"Niederstotzingen, Stadt","type":"Stadt"},"district":{"key":"08135","name":"Heidenheim","type":"Landkreis"},"federalState":{"key":"08","name":"Baden-Württemberg"}},{"name":"Hohe Str.","postalCode":"89168","locality":"Niederstotzingen","municipality":{"key":"08135027","name":"Niederstotzingen, Stadt","type":"Stadt"},"district":{"key":"08135","name":"Heidenheim","type":"Landkreis"},"federalState":{"key":"08","name":"Baden-Württemberg"}},{"name":"Hölderlinstr.","postalCode":"73274","locality":"Notzingen","municipality":{"key":"08116048","name":"Notzingen","type":"Kreisangehörige_Gemeinde"},"district":{"key":"08116","name":"Esslingen","type":"Landkreis"},"federalState":{"key":"08","name":"Baden-Württemberg"}},{"name":"Hölderlinstr.","postalCode":"89168","locality":"Niederstotzingen","municipality":{"key":"08135027","name":"Niederstotzingen, Stadt","type":"Stadt"},"district":{"key":"08135","name":"Heidenheim","type":"Landkreis"},"federalState":{"key":"08","name":"Baden-Württemberg"}},{"name":"Hopfengartenweg","postalCode":"89168","locality":"Niederstotzingen","municipality":{"key":"08135027","name":"Niederstotzingen, Stadt","type":"Stadt"},"district":{"key":"08135","name":"Heidenheim","type":"Landkreis"},"federalState":{"key":"08","name":"Baden-Württemberg"}},{"name":"Hornbergstr.","postalCode":"89168","locality":"Niederstotzingen","municipality":{"key":"08135027","name":"Niederstotzingen, Stadt","type":"Stadt"},"district":{"key":"08135","name":"Heidenheim","type":"Landkreis"},"federalState":{"key":"08","name":"Baden-Württemberg"}},{"name":"Im Eichert","postalCode":"73274","locality":"Notzingen","municipality":{"key":"08116048","name":"Notzingen","type":"Kreisangehörige_Gemeinde"},"district":{"key":"08116","name":"Esslingen","type":"Landkreis"},"federalState":{"key":"08","name":"Baden-Württemberg"}},{"name":"Im Gäßle","postalCode":"89168","locality":"Niederstotzingen","municipality":{"key":"08135027","name":"Niederstotzingen, Stadt","type":"Stadt"},"district":{"key":"08135","name":"Heidenheim","type":"Landkreis"},"federalState":{"key":"08","name":"Baden-Württemberg"}},{"name":"Im Hülben","postalCode":"73274","locality":"Notzingen","municipality":{"key":"08116048","name":"Notzingen","type":"Kreisangehörige_Gemeinde"},"district":{"key":"08116","name":"Esslingen","type":"Landkreis"},"federalState":{"key":"08","name":"Baden-Württemberg"}},{"name":"Im Lerchenbühl","postalCode":"89168","locality":"Niederstotzingen","municipality":{"key":"08135027","name":"Niederstotzingen, Stadt","type":"Stadt"},"district":{"key":"08135","name":"Heidenheim","type":"Landkreis"},"federalState":{"key":"08","name":"Baden-Württemberg"}},{"name":"Im Städtle","postalCode":"89168","locality":"Niederstotzingen","municipality":{"key":"08135027","name":"Niederstotzingen, Stadt","type":"Stadt"},"district":{"key":"08135","name":"Heidenheim","type":"Landkreis"},"federalState":{"key":"08","name":"Baden-Württemberg"}},{"name":"Im Winkel","postalCode":"89168","locality":"Niederstotzingen","municipality":{"key":"08135027","name":"Niederstotzingen, Stadt","type":"Stadt"},"district":{"key":"08135","name":"Heidenheim","type":"Landkreis"},"federalState":{"key":"08","name":"Baden-Württemberg"}},{"name":"In den Wellen","postalCode":"89168","locality":"Niederstotzingen","municipality":{"key":"08135027","name":"Niederstotzingen, Stadt","type":"Stadt"},"district":{"key":"08135","name":"Heidenheim","type":"Landkreis"},"federalState":{"key":"08","name":"Baden-Württemberg"}},{"name":"In der Siedlung","postalCode":"89168","locality":"Niederstotzingen","municipality":{"key":"08135027","name":"Niederstotzingen, Stadt","type":"Stadt"},"district":{"key":"08135","name":"Heidenheim","type":"Landkreis"},"federalState":{"key":"08","name":"Baden-Württemberg"}},{"name":"Jägerstr.","postalCode":"94563","locality":"Otzing","municipality":{"key":"09271143","name":"Otzing","type":"Kreisangehörige_Gemeinde"},"district":{"key":"09271","name":"Deggendorf","type":"Landkreis"},"federalState":{"key":"09","name":"Bayern"}},{"name":"Jahnstr.","postalCode":"73274","locality":"Notzingen","municipality":{"key":"08116048","name":"Notzingen","type":"Kreisangehörige_Gemeinde"},"district":{"key":"08116","name":"Esslingen","type":"Landkreis"},"federalState":{"key":"08","name":"Baden-Württemberg"}},{"name":"Jahnstr.","postalCode":"89168","locality":"Niederstotzingen","municipality":{"key":"08135027","name":"Niederstotzingen, Stadt","type":"Stadt"},"district":{"key":"08135","name":"Heidenheim","type":"Landkreis"},"federalState":{"key":"08","name":"Baden-Württemberg"}},{"name":"Jahnstr.","postalCode":"94563","locality":"Otzing","municipality":{"key":"09271143","name":"Otzing","type":"Kreisangehörige_Gemeinde"},"district":{"key":"09271","name":"Deggendorf","type":"Landkreis"},"federalState":{"key":"09","name":"Bayern"}},{"name":"Jakobusweg","postalCode":"89168","locality":"Niederstotzingen","municipality":{"key":"08135027","name":"Niederstotzingen, Stadt","type":"Stadt"},"district":{"key":"08135","name":"Heidenheim","type":"Landkreis"},"federalState":{"key":"08","name":"Baden-Württemberg"}},{"name":"Jurastr.","postalCode":"89168","locality":"Niederstotzingen","municipality":{"key":"08135027","name":"Niederstotzingen, Stadt","type":"Stadt"},"district":{"key":"08135","name":"Heidenheim","type":"Landkreis"},"federalState":{"key":"08","name":"Baden-Württemberg"}},{"name":"Kapellenweg","postalCode":"89168","locality":"Niederstotzingen","municipality":{"key":"08135027","name":"Niederstotzingen, Stadt","type":"Stadt"},"district":{"key":"08135","name":"Heidenheim","type":"Landkreis"},"federalState":{"key":"08","name":"Baden-Württemberg"}},{"name":"Kapellenweg","postalCode":"94563","locality":"Otzing","municipality":{"key":"09271143","name":"Otzing","type":"Kreisangehörige_Gemeinde"},"district":{"key":"09271","name":"Deggendorf","type":"Landkreis"},"federalState":{"key":"09","name":"Bayern"}},{"name":"Karlstr.","postalCode":"89168","locality":"Niederstotzingen","municipality":{"key":"08135027","name":"Niederstotzingen, Stadt","type":"Stadt"},"district":{"key":"08135","name":"Heidenheim","type":"Landkreis"},"federalState":{"key":"08","name":"Baden-Württemberg"}},{"name":"Kastanienstr.","postalCode":"94563","locality":"Otzing","municipality":{"key":"09271143","name":"Otzing","type":"Kreisangehörige_Gemeinde"},"district":{"key":"09271","name":"Deggendorf","type":"Landkreis"},"federalState":{"key":"09","name":"Bayern"}},{"name":"Kelterplatz","postalCode":"73274","locality":"Notzingen","municipality":{"key":"08116048","name":"Notzingen","type":"Kreisangehörige_Gemeinde"},"district":{"key":"08116","name":"Esslingen","type":"Landkreis"},"federalState":{"key":"08","name":"Baden-Württemberg"}},{"name":"Kelterstr.","postalCode":"73274","locality":"Notzingen","municipality":{"key":"08116048","name":"Notzingen","type":"Kreisangehörige_Gemeinde"},"district":{"key":"08116","name":"Esslingen","type":"Landkreis"},"federalState":{"key":"08","name":"Baden-Württemberg"}},{"name":"Keplerstr.","postalCode":"73274","locality":"Notzingen","municipality":{"key":"08116048","name":"Notzingen","type":"Kreisangehörige_Gemeinde"},"district":{"key":"08116","name":"Esslingen","type":"Landkreis"},"federalState":{"key":"08","name":"Baden-Württemberg"}},{"name":"Kirchheimer Str.","postalCode":"73274","locality":"Notzingen","municipality":{"key":"08116048","name":"Notzingen","type":"Kreisangehörige_Gemeinde"},"district":{"key":"08116","name":"Esslingen","type":"Landkreis"},"federalState":{"key":"08","name":"Baden-Württemberg"}},{"name":"Kirchstr.","postalCode":"89168","locality":"Niederstotzingen","municipality":{"key":"08135027","name":"Niederstotzingen, Stadt","type":"Stadt"},"district":{"key":"08135","name":"Heidenheim","type":"Landkreis"},"federalState":{"key":"08","name":"Baden-Württemberg"}},{"name":"Kleine Gasse","postalCode":"89168","locality":"Niederstotzingen","municipality":{"key":"08135027","name":"Niederstotzingen, Stadt","type":"Stadt"},"district":{"key":"08135","name":"Heidenheim","type":"Landkreis"},"federalState":{"key":"08","name":"Baden-Württemberg"}},{"name":"Kleinweichs","postalCode":"94563","locality":"Otzing","municipality":{"key":"09271143","name":"Otzing","type":"Kreisangehörige_Gemeinde"},"district":{"key":"09271","name":"Deggendorf","type":"Landkreis"},"federalState":{"key":"09","name":"Bayern"}},{"name":"Kleinweichser Str.","postalCode":"94563","locality":"Otzing","municipality":{"key":"09271143","name":"Otzing","type":"Kreisangehörige_Gemeinde"},"district":{"key":"09271","name":"Deggendorf","type":"Landkreis"},"federalState":{"key":"09","name":"Bayern"}},{"name":"Kleiststr.","postalCode":"89168","locality":"Niederstotzingen","municipality":{"key":"08135027","name":"Niederstotzingen, Stadt","type":"Stadt"},"district":{"key":"08135","name":"Heidenheim","type":"Landkreis"},"federalState":{"key":"08","name":"Baden-Württemberg"}},{"name":"Köhlerspitzweg","postalCode":"73274","locality":"Notzingen","municipality":{"key":"08116048","name":"Notzingen","type":"Kreisangehörige_Gemeinde"},"district":{"key":"08116","name":"Esslingen","type":"Landkreis"},"federalState":{"key":"08","name":"Baden-Württemberg"}},{"name":"Köhlerweg","postalCode":"73274","locality":"Notzingen","municipality":{"key":"08116048","name":"Notzingen","type":"Kreisangehörige_Gemeinde"},"district":{"key":"08116","name":"Esslingen","type":"Landkreis"},"federalState":{"key":"08","name":"Baden-Württemberg"}},{"name":"Königsberger Str.","postalCode":"89168","locality":"Niederstotzingen","municipality":{"key":"08135027","name":"Niederstotzingen, Stadt","type":"Stadt"},"district":{"key":"08135","name":"Heidenheim","type":"Landkreis"},"federalState":{"key":"08","name":"Baden-Württemberg"}},{"name":"Lailinger Str.","postalCode":"94563","locality":"Otzing","municipality":{"key":"09271143","name":"Otzing","type":"Kreisangehörige_Gemeinde"},"district":{"key":"09271","name":"Deggendorf","type":"Landkreis"},"federalState":{"key":"09","name":"Bayern"}},{"name":"Laubeweg","postalCode":"89168","locality":"Niederstotzingen","municipality":{"key":"08135027","name":"Niederstotzingen, Stadt","type":"Stadt"},"district":{"key":"08135","name":"Heidenheim","type":"Landkreis"},"federalState":{"key":"08","name":"Baden-Württemberg"}},{"name":"Laurentiusstr.","postalCode":"94563","locality":"Otzing","municipality":{"key":"09271143","name":"Otzing","type":"Kreisangehörige_Gemeinde"},"district":{"key":"09271","name":"Deggendorf","type":"Landkreis"},"federalState":{"key":"09","name":"Bayern"}},{"name":"Lerchenstr.","postalCode":"89168","locality":"Niederstotzingen","municipality":{"key":"08135027","name":"Niederstotzingen, Stadt","type":"Stadt"},"district":{"key":"08135","name":"Heidenheim","type":"Landkreis"},"federalState":{"key":"08","name":"Baden-Württemberg"}},{"name":"Lerchenweg","postalCode":"73274","locality":"Notzingen","municipality":{"key":"08116048","name":"Notzingen","type":"Kreisangehörige_Gemeinde"},"district":{"key":"08116","name":"Esslingen","type":"Landkreis"},"federalState":{"key":"08","name":"Baden-Württemberg"}},{"name":"Lessingstr.","postalCode":"89168","locality":"Niederstotzingen","municipality":{"key":"08135027","name":"Niederstotzingen, Stadt","type":"Stadt"},"district":{"key":"08135","name":"Heidenheim","type":"Landkreis"},"federalState":{"key":"08","name":"Baden-Württemberg"}},{"name":"Lichtensteinstr.","postalCode":"89168","locality":"Niederstotzingen","municipality":{"key":"08135027","name":"Niederstotzingen, Stadt","type":"Stadt"},"district":{"key":"08135","name":"Heidenheim","type":"Landkreis"},"federalState":{"key":"08","name":"Baden-Württemberg"}},{"name":"Limburgweg","postalCode":"73274","locality":"Notzingen","municipality":{"key":"08116048","name":"Notzingen","type":"Kreisangehörige_Gemeinde"},"district":{"key":"08116","name":"Esslingen","type":"Landkreis"},"federalState":{"key":"08","name":"Baden-Württemberg"}},{"name":"Lindenstr.","postalCode":"94563","locality":"Otzing","municipality":{"key":"09271143","name":"Otzing","type":"Kreisangehörige_Gemeinde"},"district":{"key":"09271","name":"Deggendorf","type":"Landkreis"},"federalState":{"key":"09","name":"Bayern"}},{"name":"Lisztstr.","postalCode":"73274","locality":"Notzingen","municipality":{"key":"08116048","name":"Notzingen","type":"Kreisangehörige_Gemeinde"},"district":{"key":"08116","name":"Esslingen","type":"Landkreis"},"federalState":{"key":"08","name":"Baden-Württemberg"}},{"name":"Ludwig-Ganghofer-Str.","postalCode":"94563","locality":"Otzing","municipality":{"key":"09271143","name":"Otzing","type":"Kreisangehörige_Gemeinde"},"district":{"key":"09271","name":"Deggendorf","type":"Landkreis"},"federalState":{"key":"09","name":"Bayern"}},{"name":"Ludwig-Thoma-Str.","postalCode":"94563","locality":"Otzing","municipality":{"key":"09271143","name":"Otzing","type":"Kreisangehörige_Gemeinde"},"district":{"key":"09271","name":"Deggendorf","type":"Landkreis"},"federalState":{"key":"09","name":"Bayern"}},{"name":"Meisenweg","postalCode":"73274","locality":"Notzingen","municipality":{"key":"08116048","name":"Notzingen","type":"Kreisangehörige_Gemeinde"},"district":{"key":"08116","name":"Esslingen","type":"Landkreis"},"federalState":{"key":"08","name":"Baden-Württemberg"}},{"name":"Memelweg","postalCode":"89168","locality":"Niederstotzingen","municipality":{"key":"08135027","name":"Niederstotzingen, Stadt","type":"Stadt"},"district":{"key":"08135","name":"Heidenheim","type":"Landkreis"},"federalState":{"key":"08","name":"Baden-Württemberg"}},{"name":"Milanweg","postalCode":"73274","locality":"Notzingen","municipality":{"key":"08116048","name":"Notzingen","type":"Kreisangehörige_Gemeinde"},"district":{"key":"08116","name":"Esslingen","type":"Landkreis"},"federalState":{"key":"08","name":"Baden-Württemberg"}},{"name":"Mitteldorfstr.","postalCode":"89168","locality":"Niederstotzingen","municipality":{"key":"08135027","name":"Niederstotzingen, Stadt","type":"Stadt"},"district":{"key":"08135","name":"Heidenheim","type":"Landkreis"},"federalState":{"key":"08","name":"Baden-Württemberg"}},{"name":"Moosfürther Str.","postalCode":"94563","locality":"Otzing","municipality":{"key":"09271143","name":"Otzing","type":"Kreisangehörige_Gemeinde"},"district":{"key":"09271","name":"Deggendorf","type":"Landkreis"},"federalState":{"key":"09","name":"Bayern"}},{"name":"Mörikestr.","postalCode":"73274","locality":"Notzingen","municipality":{"key":"08116048","name":"Notzingen","type":"Kreisangehörige_Gemeinde"},"district":{"key":"08116","name":"Esslingen","type":"Landkreis"},"federalState":{"key":"08","name":"Baden-Württemberg"}},{"name":"Mörikestr.","postalCode":"89168","locality":"Niederstotzingen","municipality":{"key":"08135027","name":"Niederstotzingen, Stadt","type":"Stadt"},"district":{"key":"08135","name":"Heidenheim","type":"Landkreis"},"federalState":{"key":"08","name":"Baden-Württemberg"}},{"name":"Mozartstr.","postalCode":"73274","locality":"Notzingen","municipality":{"key":"08116048","name":"Notzingen","type":"Kreisangehörige_Gemeinde"},"district":{"key":"08116","name":"Esslingen","type":"Landkreis"},"federalState":{"key":"08","name":"Baden-Württemberg"}},{"name":"Mozartstr.","postalCode":"89168","locality":"Niederstotzingen","municipality":{"key":"08135027","name":"Niederstotzingen, Stadt","type":"Stadt"},"district":{"key":"08135","name":"Heidenheim","type":"Landkreis"},"federalState":{"key":"08","name":"Baden-Württemberg"}},{"name":"Mozartstr.","postalCode":"94563","locality":"Otzing","municipality":{"key":"09271143","name":"Otzing","type":"Kreisangehörige_Gemeinde"},"district":{"key":"09271","name":"Deggendorf","type":"Landkreis"},"federalState":{"key":"09","name":"Bayern"}},{"name":"Müllerweg","postalCode":"73274","locality":"Notzingen","municipality":{"key":"08116048","name":"Notzingen","type":"Kreisangehörige_Gemeinde"},"district":{"key":"08116","name":"Esslingen","type":"Landkreis"},"federalState":{"key":"08","name":"Baden-Württemberg"}},{"name":"Münchner Str.","postalCode":"94563","locality":"Otzing","municipality":{"key":"09271143","name":"Otzing","type":"Kreisangehörige_Gemeinde"},"district":{"key":"09271","name":"Deggendorf","type":"Landkreis"},"federalState":{"key":"09","name":"Bayern"}},{"name":"Neue Siedlung","postalCode":"89168","locality":"Niederstotzingen","municipality":{"key":"08135027","name":"Niederstotzingen, Stadt","type":"Stadt"},"district":{"key":"08135","name":"Heidenheim","type":"Landkreis"},"federalState":{"key":"08","name":"Baden-Württemberg"}},{"name":"Neuffenstr.","postalCode":"73274","locality":"Notzingen","municipality":{"key":"08116048","name":"Notzingen","type":"Kreisangehörige_Gemeinde"},"district":{"key":"08116","name":"Esslingen","type":"Landkreis"},"federalState":{"key":"08","name":"Baden-Württemberg"}},{"name":"Neuffenstr.","postalCode":"89168","locality":"Niederstotzingen","municipality":{"key":"08135027","name":"Niederstotzingen, Stadt","type":"Stadt"},"district":{"key":"08135","name":"Heidenheim","type":"Landkreis"},"federalState":{"key":"08","name":"Baden-Württemberg"}},{"name":"Niederstotzinger Str.","postalCode":"89168","locality":"Niederstotzingen","municipality":{"key":"08135027","name":"Niederstotzingen, Stadt","type":"Stadt"},"district":{"key":"08135","name":"Heidenheim","type":"Landkreis"},"federalState":{"key":"08","name":"Baden-Württemberg"}},{"name":"Nikolausstr.","postalCode":"94563","locality":"Otzing","municipality":{"key":"09271143","name":"Otzing","type":"Kreisangehörige_Gemeinde"},"district":{"key":"09271","name":"Deggendorf","type":"Landkreis"},"federalState":{"key":"09","name":"Bayern"}},{"name":"Notzinger Str.","postalCode":"73274","locality":"Notzingen","municipality":{"key":"08116048","name":"Notzingen","type":"Kreisangehörige_Gemeinde"},"district":{"key":"08116","name":"Esslingen","type":"Landkreis"},"federalState":{"key":"08","name":"Baden-Württemberg"}},{"name":"Oberdorfstr.","postalCode":"89168","locality":"Niederstotzingen","municipality":{"key":"08135027","name":"Niederstotzingen, Stadt","type":"Stadt"},"district":{"key":"08135","name":"Heidenheim","type":"Landkreis"},"federalState":{"key":"08","name":"Baden-Württemberg"}},{"name":"Oberstotzinger Str.","postalCode":"89168","locality":"Niederstotzingen","municipality":{"key":"08135027","name":"Niederstotzingen, Stadt","type":"Stadt"},"district":{"key":"08135","name":"Heidenheim","type":"Landkreis"},"federalState":{"key":"08","name":"Baden-Württemberg"}},{"name":"Ostpreußenstr.","postalCode":"89168","locality":"Niederstotzingen","municipality":{"key":"08135027","name":"Niederstotzingen, Stadt","type":"Stadt"},"district":{"key":"08135","name":"Heidenheim","type":"Landkreis"},"federalState":{"key":"08","name":"Baden-Württemberg"}},{"name":"Ottilienstr.","postalCode":"94563","locality":"Otzing","municipality":{"key":"09271143","name":"Otzing","type":"Kreisangehörige_Gemeinde"},"district":{"key":"09271","name":"Deggendorf","type":"Landkreis"},"federalState":{"key":"09","name":"Bayern"}},{"name":"Otzinger Str.","postalCode":"94563","locality":"Otzing","municipality":{"key":"09271143","name":"Otzing","type":"Kreisangehörige_Gemeinde"},"district":{"key":"09271","name":"Deggendorf","type":"Landkreis"},"federalState":{"key":"09","name":"Bayern"}},{"name":"Peter und Paul Str.","postalCode":"94563","locality":"Otzing","municipality":{"key":"09271143","name":"Otzing","type":"Kreisangehörige_Gemeinde"},"district":{"key":"09271","name":"Deggendorf","type":"Landkreis"},"federalState":{"key":"09","name":"Bayern"}},{"name":"Pfarrer-Scheichert-Ring","postalCode":"94563","locality":"Otzing","municipality":{"key":"09271143","name":"Otzing","type":"Kreisangehörige_Gemeinde"},"district":{"key":"09271","name":"Deggendorf","type":"Landkreis"},"federalState":{"key":"09","name":"Bayern"}},{"name":"Place de Bages","postalCode":"89168","locality":"Niederstotzingen","municipality":{"key":"08135027","name":"Niederstotzingen, Stadt","type":"Stadt"},"district":{"key":"08135","name":"Heidenheim","type":"Landkreis"},"federalState":{"key":"08","name":"Baden-Württemberg"}},{"name":"Pommernweg","postalCode":"89168","locality":"Niederstotzingen","municipality":{"key":"08135027","name":"Niederstotzingen, Stadt","type":"Stadt"},"district":{"key":"08135","name":"Heidenheim","type":"Landkreis"},"federalState":{"key":"08","name":"Baden-Württemberg"}},{"name":"Quellenweg","postalCode":"94469","locality":"Deggendorf","municipality":{"key":"09271119","name":"Deggendorf, GKSt","type":"Große_Kreisstadt"},"district":{"key":"09271","name":"Deggendorf","type":"Landkreis"},"federalState":{"key":"09","name":"Bayern"}},{"name":"Raiffeisenstr.","postalCode":"89168","locality":"Niederstotzingen","municipality":{"key":"08135027","name":"Niederstotzingen, Stadt","type":"Stadt"},"district":{"key":"08135","name":"Heidenheim","type":"Landkreis"},"federalState":{"key":"08","name":"Baden-Württemberg"}},{"name":"Rauberweg","postalCode":"73274","locality":"Notzingen","municipality":{"key":"08116048","name":"Notzingen","type":"Kreisangehörige_Gemeinde"},"district":{"key":"08116","name":"Esslingen","type":"Landkreis"},"federalState":{"key":"08","name":"Baden-Württemberg"}},{"name":"Rechbergstr.","postalCode":"73274","locality":"Notzingen","municipality":{"key":"08116048","name":"Notzingen","type":"Kreisangehörige_Gemeinde"},"district":{"key":"08116","name":"Esslingen","type":"Landkreis"},"federalState":{"key":"08","name":"Baden-Württemberg"}},{"name":"Rechbergstr.","postalCode":"89168","locality":"Niederstotzingen","municipality":{"key":"08135027","name":"Niederstotzingen, Stadt","type":"Stadt"},"district":{"key":"08135","name":"Heidenheim","type":"Landkreis"},"federalState":{"key":"08","name":"Baden-Württemberg"}},{"name":"Rechtensteinstr.","postalCode":"89168","locality":"Niederstotzingen","municipality":{"key":"08135027","name":"Niederstotzingen, Stadt","type":"Stadt"},"district":{"key":"08135","name":"Heidenheim","type":"Landkreis"},"federalState":{"key":"08","name":"Baden-Württemberg"}},{"name":"Reitschulweg","postalCode":"89168","locality":"Niederstotzingen","municipality":{"key":"08135027","name":"Niederstotzingen, Stadt","type":"Stadt"},"district":{"key":"08135","name":"Heidenheim","type":"Landkreis"},"federalState":{"key":"08","name":"Baden-Württemberg"}},{"name":"Reuterhauweg","postalCode":"73274","locality":"Notzingen","municipality":{"key":"08116048","name":"Notzingen","type":"Kreisangehörige_Gemeinde"},"district":{"key":"08116","name":"Esslingen","type":"Landkreis"},"federalState":{"key":"08","name":"Baden-Württemberg"}},{"name":"Römerweg","postalCode":"89168","locality":"Niederstotzingen","municipality":{"key":"08135027","name":"Niederstotzingen, Stadt","type":"Stadt"},"district":{"key":"08135","name":"Heidenheim","type":"Landkreis"},"federalState":{"key":"08","name":"Baden-Württemberg"}},{"name":"Rosensteinstr.","postalCode":"89168","locality":"Niederstotzingen","municipality":{"key":"08135027","name":"Niederstotzingen, Stadt","type":"Stadt"},"district":{"key":"08135","name":"Heidenheim","type":"Landkreis"},"federalState":{"key":"08","name":"Baden-Württemberg"}},{"name":"Rosenstr.","postalCode":"89168","locality":"Niederstotzingen","municipality":{"key":"08135027","name":"Niederstotzingen, Stadt","type":"Stadt"},"district":{"key":"08135","name":"Heidenheim","type":"Landkreis"},"federalState":{"key":"08","name":"Baden-Württemberg"}},{"name":"Roßwälder Str.","postalCode":"73274","locality":"Notzingen","municipality":{"key":"08116048","name":"Notzingen","type":"Kreisangehörige_Gemeinde"},"district":{"key":"08116","name":"Esslingen","type":"Landkreis"},"federalState":{"key":"08","name":"Baden-Württemberg"}},{"name":"Rudolf-Magenau-Str.","postalCode":"89168","locality":"Niederstotzingen","municipality":{"key":"08135027","name":"Niederstotzingen, Stadt","type":"Stadt"},"district":{"key":"08135","name":"Heidenheim","type":"Landkreis"},"federalState":{"key":"08","name":"Baden-Württemberg"}},{"name":"Sandweg","postalCode":"89168","locality":"Niederstotzingen","municipality":{"key":"08135027","name":"Niederstotzingen, Stadt","type":"Stadt"},"district":{"key":"08135","name":"Heidenheim","type":"Landkreis"},"federalState":{"key":"08","name":"Baden-Württemberg"}},{"name":"Sankt-Ulrich-Str.","postalCode":"89168","locality":"Niederstotzingen","municipality":{"key":"08135027","name":"Niederstotzingen, Stadt","type":"Stadt"},"district":{"key":"08135","name":"Heidenheim","type":"Landkreis"},"federalState":{"key":"08","name":"Baden-Württemberg"}},{"name":"Schillerstr.","postalCode":"73274","locality":"Notzingen","municipality":{"key":"08116048","name":"Notzingen","type":"Kreisangehörige_Gemeinde"},"district":{"key":"08116","name":"Esslingen","type":"Landkreis"},"federalState":{"key":"08","name":"Baden-Württemberg"}},{"name":"Schillerstr.","postalCode":"89168","locality":"Niederstotzingen","municipality":{"key":"08135027","name":"Niederstotzingen, Stadt","type":"Stadt"},"district":{"key":"08135","name":"Heidenheim","type":"Landkreis"},"federalState":{"key":"08","name":"Baden-Württemberg"}},{"name":"Schleichinger","postalCode":"73274","locality":"Notzingen","municipality":{"key":"08116048","name":"Notzingen","type":"Kreisangehörige_Gemeinde"},"district":{"key":"08116","name":"Esslingen","type":"Landkreis"},"federalState":{"key":"08","name":"Baden-Württemberg"}},{"name":"Schleichinger Weg","postalCode":"73274","locality":"Notzingen","municipality":{"key":"08116048","name":"Notzingen","type":"Kreisangehörige_Gemeinde"},"district":{"key":"08116","name":"Esslingen","type":"Landkreis"},"federalState":{"key":"08","name":"Baden-Württemberg"}},{"name":"Schlesienstr.","postalCode":"89168","locality":"Niederstotzingen","municipality":{"key":"08135027","name":"Niederstotzingen, Stadt","type":"Stadt"},"district":{"key":"08135","name":"Heidenheim","type":"Landkreis"},"federalState":{"key":"08","name":"Baden-Württemberg"}},{"name":"Schlierbacher Str.","postalCode":"73274","locality":"Notzingen","municipality":{"key":"08116048","name":"Notzingen","type":"Kreisangehörige_Gemeinde"},"district":{"key":"08116","name":"Esslingen","type":"Landkreis"},"federalState":{"key":"08","name":"Baden-Württemberg"}},{"name":"Schönstetter Str.","postalCode":"89168","locality":"Niederstotzingen","municipality":{"key":"08135027","name":"Niederstotzingen, Stadt","type":"Stadt"},"district":{"key":"08135","name":"Heidenheim","type":"Landkreis"},"federalState":{"key":"08","name":"Baden-Württemberg"}},{"name":"Schreiners Brücke","postalCode":"89168","locality":"Niederstotzingen","municipality":{"key":"08135027","name":"Niederstotzingen, Stadt","type":"Stadt"},"district":{"key":"08135","name":"Heidenheim","type":"Landkreis"},"federalState":{"key":"08","name":"Baden-Württemberg"}},{"name":"Schubertstr.","postalCode":"73274","locality":"Notzingen","municipality":{"key":"08116048","name":"Notzingen","type":"Kreisangehörige_Gemeinde"},"district":{"key":"08116","name":"Esslingen","type":"Landkreis"},"federalState":{"key":"08","name":"Baden-Württemberg"}},{"name":"Schulstr.","postalCode":"89168","locality":"Niederstotzingen","municipality":{"key":"08135027","name":"Niederstotzingen, Stadt","type":"Stadt"},"district":{"key":"08135","name":"Heidenheim","type":"Landkreis"},"federalState":{"key":"08","name":"Baden-Württemberg"}},{"name":"Schulweg","postalCode":"94563","locality":"Otzing","municipality":{"key":"09271143","name":"Otzing","type":"Kreisangehörige_Gemeinde"},"district":{"key":"09271","name":"Deggendorf","type":"Landkreis"},"federalState":{"key":"09","name":"Bayern"}},{"name":"Schützenstr.","postalCode":"94563","locality":"Otzing","municipality":{"key":"09271143","name":"Otzing","type":"Kreisangehörige_Gemeinde"},"district":{"key":"09271","name":"Deggendorf","type":"Landkreis"},"federalState":{"key":"09","name":"Bayern"}},{"name":"Sebastianistr.","postalCode":"94563","locality":"Otzing","municipality":{"key":"09271143","name":"Otzing","type":"Kreisangehörige_Gemeinde"},"district":{"key":"09271","name":"Deggendorf","type":"Landkreis"},"federalState":{"key":"09","name":"Bayern"}},{"name":"Sielerstr.","postalCode":"89168","locality":"Niederstotzingen","municipality":{"key":"08135027","name":"Niederstotzingen, Stadt","type":"Stadt"},"district":{"key":"08135","name":"Heidenheim","type":"Landkreis"},"federalState":{"key":"08","name":"Baden-Württemberg"}},{"name":"Silcherstr.","postalCode":"73274","locality":"Notzingen","municipality":{"key":"08116048","name":"Notzingen","type":"Kreisangehörige_Gemeinde"},"district":{"key":"08116","name":"Esslingen","type":"Landkreis"},"federalState":{"key":"08","name":"Baden-Württemberg"}},{"name":"Sonnenweg","postalCode":"73274","locality":"Notzingen","municipality":{"key":"08116048","name":"Notzingen","type":"Kreisangehörige_Gemeinde"},"district":{"key":"08116","name":"Esslingen","type":"Landkreis"},"federalState":{"key":"08","name":"Baden-Württemberg"}},{"name":"Sontheimer Str.","postalCode":"89168","locality":"Niederstotzingen","municipality":{"key":"08135027","name":"Niederstotzingen, Stadt","type":"Stadt"},"district":{"key":"08135","name":"Heidenheim","type":"Landkreis"},"federalState":{"key":"08","name":"Baden-Württemberg"}},{"name":"Starenweg","postalCode":"73274","locality":"Notzingen","municipality":{"key":"08116048","name":"Notzingen","type":"Kreisangehörige_Gemeinde"},"district":{"key":"08116","name":"Esslingen","type":"Landkreis"},"federalState":{"key":"08","name":"Baden-Württemberg"}},{"name":"Starenweg","postalCode":"89168","locality":"Niederstotzingen","municipality":{"key":"08135027","name":"Niederstotzingen, Stadt","type":"Stadt"},"district":{"key":"08135","name":"Heidenheim","type":"Landkreis"},"federalState":{"key":"08","name":"Baden-Württemberg"}},{"name":"Staufenstr.","postalCode":"89168","locality":"Niederstotzingen","municipality":{"key":"08135027","name":"Niederstotzingen, Stadt","type":"Stadt"},"district":{"key":"08135","name":"Heidenheim","type":"Landkreis"},"federalState":{"key":"08","name":"Baden-Württemberg"}},{"name":"Steingrubenweg","postalCode":"89168","locality":"Niederstotzingen","municipality":{"key":"08135027","name":"Niederstotzingen, Stadt","type":"Stadt"},"district":{"key":"08135","name":"Heidenheim","type":"Landkreis"},"federalState":{"key":"08","name":"Baden-Württemberg"}},{"name":"Stettener Str.","postalCode":"89168","locality":"Niederstotzingen","municipality":{"key":"08135027","name":"Niederstotzingen, Stadt","type":"Stadt"},"district":{"key":"08135","name":"Heidenheim","type":"Landkreis"},"federalState":{"key":"08","name":"Baden-Württemberg"}},{"name":"Stettiner Str.","postalCode":"89168","locality":"Niederstotzingen","municipality":{"key":"08135027","name":"Niederstotzingen, Stadt","type":"Stadt"},"district":{"key":"08135","name":"Heidenheim","type":"Landkreis"},"federalState":{"key":"08","name":"Baden-Württemberg"}},{"name":"Stotzinger Str.","postalCode":"89168","locality":"Niederstotzingen","municipality":{"key":"08135027","name":"Niederstotzingen, Stadt","type":"Stadt"},"district":{"key":"08135","name":"Heidenheim","type":"Landkreis"},"federalState":{"key":"08","name":"Baden-Württemberg"}},{"name":"Stuifenstr.","postalCode":"89168","locality":"Niederstotzingen","municipality":{"key":"08135027","name":"Niederstotzingen, Stadt","type":"Stadt"},"district":{"key":"08135","name":"Heidenheim","type":"Landkreis"},"federalState":{"key":"08","name":"Baden-Württemberg"}},{"name":"Sudetenweg","postalCode":"89168","locality":"Niederstotzingen","municipality":{"key":"08135027","name":"Niederstotzingen, Stadt","type":"Stadt"},"district":{"key":"08135","name":"Heidenheim","type":"Landkreis"},"federalState":{"key":"08","name":"Baden-Württemberg"}},{"name":"Talstr.","postalCode":"73274","locality":"Notzingen","municipality":{"key":"08116048","name":"Notzingen","type":"Kreisangehörige_Gemeinde"},"district":{"key":"08116","name":"Esslingen","type":"Landkreis"},"federalState":{"key":"08","name":"Baden-Württemberg"}},{"name":"Teckstr.","postalCode":"73274","locality":"Notzingen","municipality":{"key":"08116048","name":"Notzingen","type":"Kreisangehörige_Gemeinde"},"district":{"key":"08116","name":"Esslingen","type":"Landkreis"},"federalState":{"key":"08","name":"Baden-Württemberg"}},{"name":"Teckstr.","postalCode":"89168","locality":"Niederstotzingen","municipality":{"key":"08135027","name":"Niederstotzingen, Stadt","type":"Stadt"},"district":{"key":"08135","name":"Heidenheim","type":"Landkreis"},"federalState":{"key":"08","name":"Baden-Württemberg"}},{"name":"Theodor-Storm-Str.","postalCode":"89168","locality":"Niederstotzingen","municipality":{"key":"08135027","name":"Niederstotzingen, Stadt","type":"Stadt"},"district":{"key":"08135","name":"Heidenheim","type":"Landkreis"},"federalState":{"key":"08","name":"Baden-Württemberg"}},{"name":"Tobelweg","postalCode":"73274","locality":"Notzingen","municipality":{"key":"08116048","name":"Notzingen","type":"Kreisangehörige_Gemeinde"},"district":{"key":"08116","name":"Esslingen","type":"Landkreis"},"federalState":{"key":"08","name":"Baden-Württemberg"}},{"name":"Traufweg","postalCode":"73274","locality":"Notzingen","municipality":{"key":"08116048","name":"Notzingen","type":"Kreisangehörige_Gemeinde"},"district":{"key":"08116","name":"Esslingen","type":"Landkreis"},"federalState":{"key":"08","name":"Baden-Württemberg"}},{"name":"Uhlandstr.","postalCode":"73274","locality":"Notzingen","municipality":{"key":"08116048","name":"Notzingen","type":"Kreisangehörige_Gemeinde"},"district":{"key":"08116","name":"Esslingen","type":"Landkreis"},"federalState":{"key":"08","name":"Baden-Württemberg"}},{"name":"Uhlandstr.","postalCode":"89168","locality":"Niederstotzingen","municipality":{"key":"08135027","name":"Niederstotzingen, Stadt","type":"Stadt"},"district":{"key":"08135","name":"Heidenheim","type":"Landkreis"},"federalState":{"key":"08","name":"Baden-Württemberg"}},{"name":"Ulmenstr.","postalCode":"94563","locality":"Otzing","municipality":{"key":"09271143","name":"Otzing","type":"Kreisangehörige_Gemeinde"},"district":{"key":"09271","name":"Deggendorf","type":"Landkreis"},"federalState":{"key":"09","name":"Bayern"}},{"name":"Ulmer Str.","postalCode":"89168","locality":"Niederstotzingen","municipality":{"key":"08135027","name":"Niederstotzingen, Stadt","type":"Stadt"},"district":{"key":"08135","name":"Heidenheim","type":"Landkreis"},"federalState":{"key":"08","name":"Baden-Württemberg"}},{"name":"Ulrichstr.","postalCode":"94563","locality":"Otzing","municipality":{"key":"09271143","name":"Otzing","type":"Kreisangehörige_Gemeinde"},"district":{"key":"09271","name":"Deggendorf","type":"Landkreis"},"federalState":{"key":"09","name":"Bayern"}},{"name":"Ungelterstr.","postalCode":"89168","locality":"Niederstotzingen","municipality":{"key":"08135027","name":"Niederstotzingen, Stadt","type":"Stadt"},"district":{"key":"08135","name":"Heidenheim","type":"Landkreis"},"federalState":{"key":"08","name":"Baden-Württemberg"}},{"name":"Untere Steig","postalCode":"89168","locality":"Niederstotzingen","municipality":{"key":"08135027","name":"Niederstotzingen, Stadt","type":"Stadt"},"district":{"key":"08135","name":"Heidenheim","type":"Landkreis"},"federalState":{"key":"08","name":"Baden-Württemberg"}},{"name":"Vordere Reute","postalCode":"89168","locality":"Niederstotzingen","municipality":{"key":"08135027","name":"Niederstotzingen, Stadt","type":"Stadt"},"district":{"key":"08135","name":"Heidenheim","type":"Landkreis"},"federalState":{"key":"08","name":"Baden-Württemberg"}},{"name":"Waltherstr.","postalCode":"89168","locality":"Niederstotzingen","municipality":{"key":"08135027","name":"Niederstotzingen, Stadt","type":"Stadt"},"district":{"key":"08135","name":"Heidenheim","type":"Landkreis"},"federalState":{"key":"08","name":"Baden-Württemberg"}},{"name":"Wasserhauweg","postalCode":"89168","locality":"Niederstotzingen","municipality":{"key":"08135027","name":"Niederstotzingen, Stadt","type":"Stadt"},"district":{"key":"08135","name":"Heidenheim","type":"Landkreis"},"federalState":{"key":"08","name":"Baden-Württemberg"}},{"name":"Weilerstr.","postalCode":"89168","locality":"Niederstotzingen","municipality":{"key":"08135027","name":"Niederstotzingen, Stadt","type":"Stadt"},"district":{"key":"08135","name":"Heidenheim","type":"Landkreis"},"federalState":{"key":"08","name":"Baden-Württemberg"}},{"name":"Wellinger Str.","postalCode":"73274","locality":"Notzingen","municipality":{"key":"08116048","name":"Notzingen","type":"Kreisangehörige_Gemeinde"},"district":{"key":"08116","name":"Esslingen","type":"Landkreis"},"federalState":{"key":"08","name":"Baden-Württemberg"}},{"name":"Wellinger Traufweg","postalCode":"73274","locality":"Notzingen","municipality":{"key":"08116048","name":"Notzingen","type":"Kreisangehörige_Gemeinde"},"district":{"key":"08116","name":"Esslingen","type":"Landkreis"},"federalState":{"key":"08","name":"Baden-Württemberg"}},{"name":"Wiesenstr.","postalCode":"94563","locality":"Otzing","municipality":{"key":"09271143","name":"Otzing","type":"Kreisangehörige_Gemeinde"},"district":{"key":"09271","name":"Deggendorf","type":"Landkreis"},"federalState":{"key":"09","name":"Bayern"}},{"name":"Wilhelmstr.","postalCode":"89168","locality":"Niederstotzingen","municipality":{"key":"08135027","name":"Niederstotzingen, Stadt","type":"Stadt"},"district":{"key":"08135","name":"Heidenheim","type":"Landkreis"},"federalState":{"key":"08","name":"Baden-Württemberg"}},{"name":"Winkel","postalCode":"89168","locality":"Niederstotzingen","municipality":{"key":"08135027","name":"Niederstotzingen, Stadt","type":"Stadt"},"district":{"key":"08135","name":"Heidenheim","type":"Landkreis"},"federalState":{"key":"08","name":"Baden-Württemberg"}},{"name":"Xaver-Friedl-Str.","postalCode":"94469","locality":"Deggendorf","municipality":{"key":"09271119","name":"Deggendorf, GKSt","type":"Große_Kreisstadt"},"district":{"key":"09271","name":"Deggendorf","type":"Landkreis"},"federalState":{"key":"09","name":"Bayern"}},{"name":"Zeppelinstr.","postalCode":"89168","locality":"Niederstotzingen","municipality":{"key":"08135027","name":"Niederstotzingen, Stadt","type":"Stadt"},"district":{"key":"08135","name":"Heidenheim","type":"Landkreis"},"federalState":{"key":"08","name":"Baden-Württemberg"}},{"name":"Ziegelstr.","postalCode":"89168","locality":"Niederstotzingen","municipality":{"key":"08135027","name":"Niederstotzingen, Stadt","type":"Stadt"},"district":{"key":"08135","name":"Heidenheim","type":"Landkreis"},"federalState":{"key":"08","name":"Baden-Württemberg"}},{"name":"Ötlinger Str.","postalCode":"73274","locality":"Notzingen","municipality":{"key":"08116048","name":"Notzingen","type":"Kreisangehörige_Gemeinde"},"district":{"key":"08116","name":"Esslingen","type":"Landkreis"},"federalState":{"key":"08","name":"Baden-Württemberg"}},]