[{"name":"Adalbert-Stifter-Str.","postalCode":"83404","locality":"Ainring","municipality":{"key":"09172111","name":"Ainring","type":"Kreisangehörige_Gemeinde"},"district":{"key":"09172","name":"Berchtesgadener Land","type":"Landkreis"},"federalState":{"key":"09","name":"Bayern"}},{"name":"Am Alten Schulhaus","postalCode":"83404","locality":"Ainring","municipality":{"key":"09172111","name":"Ainring","type":"Kreisangehörige_Gemeinde"},"district":{"key":"09172","name":"Berchtesgadener Land","type":"Landkreis"},"federalState":{"key":"09","name":"Bayern"}},{"name":"Am Anger","postalCode":"83404","locality":"Ainring","municipality":{"key":"09172111","name":"Ainring","type":"Kreisangehörige_Gemeinde"},"district":{"key":"09172","name":"Berchtesgadener Land","type":"Landkreis"},"federalState":{"key":"09","name":"Bayern"}},{"name":"Am Hammerbach","postalCode":"83404","locality":"Ainring","municipality":{"key":"09172111","name":"Ainring","type":"Kreisangehörige_Gemeinde"},"district":{"key":"09172","name":"Berchtesgadener Land","type":"Landkreis"},"federalState":{"key":"09","name":"Bayern"}},{"name":"Am Schmidinger Weiher","postalCode":"83404","locality":"Ainring","municipality":{"key":"09172111","name":"Ainring","type":"Kreisangehörige_Gemeinde"},"district":{"key":"09172","name":"Berchtesgadener Land","type":"Landkreis"},"federalState":{"key":"09","name":"Bayern"}},{"name":"Am Sonnwiesgraben","postalCode":"83404","locality":"Ainring","municipality":{"key":"09172111","name":"Ainring","type":"Kreisangehörige_Gemeinde"},"district":{"key":"09172","name":"Berchtesgadener Land","type":"Landkreis"},"federalState":{"key":"09","name":"Bayern"}},{"name":"Am Weitfeld","postalCode":"83404","locality":"Ainring","municipality":{"key":"09172111","name":"Ainring","type":"Kreisangehörige_Gemeinde"},"district":{"key":"09172","name":"Berchtesgadener Land","type":"Landkreis"},"federalState":{"key":"09","name":"Bayern"}},{"name":"Bahnhofstr.","postalCode":"83404","locality":"Ainring","municipality":{"key":"09172111","name":"Ainring","type":"Kreisangehörige_Gemeinde"},"district":{"key":"09172","name":"Berchtesgadener Land","type":"Landkreis"},"federalState":{"key":"09","name":"Bayern"}},{"name":"Berger-Steig-Weg","postalCode":"83404","locality":"Ainring","municipality":{"key":"09172111","name":"Ainring","type":"Kreisangehörige_Gemeinde"},"district":{"key":"09172","name":"Berchtesgadener Land","type":"Landkreis"},"federalState":{"key":"09","name":"Bayern"}},{"name":"Bergstr.","postalCode":"83404","locality":"Ainring","municipality":{"key":"09172111","name":"Ainring","type":"Kreisangehörige_Gemeinde"},"district":{"key":"09172","name":"Berchtesgadener Land","type":"Landkreis"},"federalState":{"key":"09","name":"Bayern"}},{"name":"Birkenstr.","postalCode":"83404","locality":"Ainring","municipality":{"key":"09172111","name":"Ainring","type":"Kreisangehörige_Gemeinde"},"district":{"key":"09172","name":"Berchtesgadener Land","type":"Landkreis"},"federalState":{"key":"09","name":"Bayern"}},{"name":"Blasius-Hogger-Weg","postalCode":"83404","locality":"Ainring","municipality":{"key":"09172111","name":"Ainring","type":"Kreisangehörige_Gemeinde"},"district":{"key":"09172","name":"Berchtesgadener Land","type":"Landkreis"},"federalState":{"key":"09","name":"Bayern"}},{"name":"Breitwiese","postalCode":"83404","locality":"Ainring","municipality":{"key":"09172111","name":"Ainring","type":"Kreisangehörige_Gemeinde"},"district":{"key":"09172","name":"Berchtesgadener Land","type":"Landkreis"},"federalState":{"key":"09","name":"Bayern"}},{"name":"Bruch","postalCode":"83404","locality":"Ainring","municipality":{"key":"09172111","name":"Ainring","type":"Kreisangehörige_Gemeinde"},"district":{"key":"09172","name":"Berchtesgadener Land","type":"Landkreis"},"federalState":{"key":"09","name":"Bayern"}},{"name":"Brunnfeld","postalCode":"83404","locality":"Ainring","municipality":{"key":"09172111","name":"Ainring","type":"Kreisangehörige_Gemeinde"},"district":{"key":"09172","name":"Berchtesgadener Land","type":"Landkreis"},"federalState":{"key":"09","name":"Bayern"}},{"name":"Dachsteinstr.","postalCode":"83404","locality":"Ainring","municipality":{"key":"09172111","name":"Ainring","type":"Kreisangehörige_Gemeinde"},"district":{"key":"09172","name":"Berchtesgadener Land","type":"Landkreis"},"federalState":{"key":"09","name":"Bayern"}},{"name":"Dorfstr.","postalCode":"83404","locality":"Ainring","municipality":{"key":"09172111","name":"Ainring","type":"Kreisangehörige_Gemeinde"},"district":{"key":"09172","name":"Berchtesgadener Land","type":"Landkreis"},"federalState":{"key":"09","name":"Bayern"}},{"name":"Ederweg","postalCode":"83404","locality":"Ainring","municipality":{"key":"09172111","name":"Ainring","type":"Kreisangehörige_Gemeinde"},"district":{"key":"09172","name":"Berchtesgadener Land","type":"Landkreis"},"federalState":{"key":"09","name":"Bayern"}},{"name":"Feldweg","postalCode":"83404","locality":"Ainring","municipality":{"key":"09172111","name":"Ainring","type":"Kreisangehörige_Gemeinde"},"district":{"key":"09172","name":"Berchtesgadener Land","type":"Landkreis"},"federalState":{"key":"09","name":"Bayern"}},{"name":"Fischerweg","postalCode":"83404","locality":"Ainring","municipality":{"key":"09172111","name":"Ainring","type":"Kreisangehörige_Gemeinde"},"district":{"key":"09172","name":"Berchtesgadener Land","type":"Landkreis"},"federalState":{"key":"09","name":"Bayern"}},{"name":"Franz-Schubert-Str.","postalCode":"83404","locality":"Ainring","municipality":{"key":"09172111","name":"Ainring","type":"Kreisangehörige_Gemeinde"},"district":{"key":"09172","name":"Berchtesgadener Land","type":"Landkreis"},"federalState":{"key":"09","name":"Bayern"}},{"name":"Franz-Wisbacher-Str.","postalCode":"83404","locality":"Ainring","municipality":{"key":"09172111","name":"Ainring","type":"Kreisangehörige_Gemeinde"},"district":{"key":"09172","name":"Berchtesgadener Land","type":"Landkreis"},"federalState":{"key":"09","name":"Bayern"}},{"name":"Friedensbrücke","postalCode":"83404","locality":"Ainring","municipality":{"key":"09172111","name":"Ainring","type":"Kreisangehörige_Gemeinde"},"district":{"key":"09172","name":"Berchtesgadener Land","type":"Landkreis"},"federalState":{"key":"09","name":"Bayern"}},{"name":"Gaisbergstr.","postalCode":"83404","locality":"Ainring","municipality":{"key":"09172111","name":"Ainring","type":"Kreisangehörige_Gemeinde"},"district":{"key":"09172","name":"Berchtesgadener Land","type":"Landkreis"},"federalState":{"key":"09","name":"Bayern"}},{"name":"Geppinger Str.","postalCode":"83404","locality":"Ainring","municipality":{"key":"09172111","name":"Ainring","type":"Kreisangehörige_Gemeinde"},"district":{"key":"09172","name":"Berchtesgadener Land","type":"Landkreis"},"federalState":{"key":"09","name":"Bayern"}},{"name":"Gessenhart","postalCode":"83404","locality":"Ainring","municipality":{"key":"09172111","name":"Ainring","type":"Kreisangehörige_Gemeinde"},"district":{"key":"09172","name":"Berchtesgadener Land","type":"Landkreis"},"federalState":{"key":"09","name":"Bayern"}},{"name":"Gewerbestr.","postalCode":"83404","locality":"Ainring","municipality":{"key":"09172111","name":"Ainring","type":"Kreisangehörige_Gemeinde"},"district":{"key":"09172","name":"Berchtesgadener Land","type":"Landkreis"},"federalState":{"key":"09","name":"Bayern"}},{"name":"Goethestr.","postalCode":"83404","locality":"Ainring","municipality":{"key":"09172111","name":"Ainring","type":"Kreisangehörige_Gemeinde"},"district":{"key":"09172","name":"Berchtesgadener Land","type":"Landkreis"},"federalState":{"key":"09","name":"Bayern"}},{"name":"Göllstr.","postalCode":"83404","locality":"Ainring","municipality":{"key":"09172111","name":"Ainring","type":"Kreisangehörige_Gemeinde"},"district":{"key":"09172","name":"Berchtesgadener Land","type":"Landkreis"},"federalState":{"key":"09","name":"Bayern"}},{"name":"Gumpinger Str.","postalCode":"83404","locality":"Ainring","municipality":{"key":"09172111","name":"Ainring","type":"Kreisangehörige_Gemeinde"},"district":{"key":"09172","name":"Berchtesgadener Land","type":"Landkreis"},"federalState":{"key":"09","name":"Bayern"}},{"name":"Haller Str.","postalCode":"83404","locality":"Ainring","municipality":{"key":"09172111","name":"Ainring","type":"Kreisangehörige_Gemeinde"},"district":{"key":"09172","name":"Berchtesgadener Land","type":"Landkreis"},"federalState":{"key":"09","name":"Bayern"}},{"name":"Hammerauer Berg","postalCode":"83404","locality":"Ainring","municipality":{"key":"09172111","name":"Ainring","type":"Kreisangehörige_Gemeinde"},"district":{"key":"09172","name":"Berchtesgadener Land","type":"Landkreis"},"federalState":{"key":"09","name":"Bayern"}},{"name":"Hammerauer Weg","postalCode":"83404","locality":"Ainring","municipality":{"key":"09172111","name":"Ainring","type":"Kreisangehörige_Gemeinde"},"district":{"key":"09172","name":"Berchtesgadener Land","type":"Landkreis"},"federalState":{"key":"09","name":"Bayern"}},{"name":"Haunsbergstr.","postalCode":"83404","locality":"Ainring","municipality":{"key":"09172111","name":"Ainring","type":"Kreisangehörige_Gemeinde"},"district":{"key":"09172","name":"Berchtesgadener Land","type":"Landkreis"},"federalState":{"key":"09","name":"Bayern"}},{"name":"Hausmoning","postalCode":"83404","locality":"Ainring","municipality":{"key":"09172111","name":"Ainring","type":"Kreisangehörige_Gemeinde"},"district":{"key":"09172","name":"Berchtesgadener Land","type":"Landkreis"},"federalState":{"key":"09","name":"Bayern"}},{"name":"Heubergstr.","postalCode":"83404","locality":"Ainring","municipality":{"key":"09172111","name":"Ainring","type":"Kreisangehörige_Gemeinde"},"district":{"key":"09172","name":"Berchtesgadener Land","type":"Landkreis"},"federalState":{"key":"09","name":"Bayern"}},{"name":"Hinterau","postalCode":"83404","locality":"Ainring","municipality":{"key":"09172111","name":"Ainring","type":"Kreisangehörige_Gemeinde"},"district":{"key":"09172","name":"Berchtesgadener Land","type":"Landkreis"},"federalState":{"key":"09","name":"Bayern"}},{"name":"Höglstr.","postalCode":"83404","locality":"Ainring","municipality":{"key":"09172111","name":"Ainring","type":"Kreisangehörige_Gemeinde"},"district":{"key":"09172","name":"Berchtesgadener Land","type":"Landkreis"},"federalState":{"key":"09","name":"Bayern"}},{"name":"Hüttenweg","postalCode":"83404","locality":"Ainring","municipality":{"key":"09172111","name":"Ainring","type":"Kreisangehörige_Gemeinde"},"district":{"key":"09172","name":"Berchtesgadener Land","type":"Landkreis"},"federalState":{"key":"09","name":"Bayern"}},{"name":"Industriestr.","postalCode":"83404","locality":"Ainring","municipality":{"key":"09172111","name":"Ainring","type":"Kreisangehörige_Gemeinde"},"district":{"key":"09172","name":"Berchtesgadener Land","type":"Landkreis"},"federalState":{"key":"09","name":"Bayern"}},{"name":"Jennerstr.","postalCode":"83404","locality":"Ainring","municipality":{"key":"09172111","name":"Ainring","type":"Kreisangehörige_Gemeinde"},"district":{"key":"09172","name":"Berchtesgadener Land","type":"Landkreis"},"federalState":{"key":"09","name":"Bayern"}},{"name":"Kirchenwegstr.","postalCode":"83404","locality":"Ainring","municipality":{"key":"09172111","name":"Ainring","type":"Kreisangehörige_Gemeinde"},"district":{"key":"09172","name":"Berchtesgadener Land","type":"Landkreis"},"federalState":{"key":"09","name":"Bayern"}},{"name":"Kogelstr.","postalCode":"83404","locality":"Ainring","municipality":{"key":"09172111","name":"Ainring","type":"Kreisangehörige_Gemeinde"},"district":{"key":"09172","name":"Berchtesgadener Land","type":"Landkreis"},"federalState":{"key":"09","name":"Bayern"}},{"name":"Kugelmühlstr.","postalCode":"83404","locality":"Ainring","municipality":{"key":"09172111","name":"Ainring","type":"Kreisangehörige_Gemeinde"},"district":{"key":"09172","name":"Berchtesgadener Land","type":"Landkreis"},"federalState":{"key":"09","name":"Bayern"}},{"name":"Lattenbergstr.","postalCode":"83404","locality":"Ainring","municipality":{"key":"09172111","name":"Ainring","type":"Kreisangehörige_Gemeinde"},"district":{"key":"09172","name":"Berchtesgadener Land","type":"Landkreis"},"federalState":{"key":"09","name":"Bayern"}},{"name":"Lindenweg","postalCode":"83404","locality":"Ainring","municipality":{"key":"09172111","name":"Ainring","type":"Kreisangehörige_Gemeinde"},"district":{"key":"09172","name":"Berchtesgadener Land","type":"Landkreis"},"federalState":{"key":"09","name":"Bayern"}},{"name":"Ludwig-Thoma-Str.","postalCode":"83404","locality":"Ainring","municipality":{"key":"09172111","name":"Ainring","type":"Kreisangehörige_Gemeinde"},"district":{"key":"09172","name":"Berchtesgadener Land","type":"Landkreis"},"federalState":{"key":"09","name":"Bayern"}},{"name":"Max-Aicher-Allee","postalCode":"83404","locality":"Ainring","municipality":{"key":"09172111","name":"Ainring","type":"Kreisangehörige_Gemeinde"},"district":{"key":"09172","name":"Berchtesgadener Land","type":"Landkreis"},"federalState":{"key":"09","name":"Bayern"}},{"name":"Mitterweg","postalCode":"83404","locality":"Ainring","municipality":{"key":"09172111","name":"Ainring","type":"Kreisangehörige_Gemeinde"},"district":{"key":"09172","name":"Berchtesgadener Land","type":"Landkreis"},"federalState":{"key":"09","name":"Bayern"}},{"name":"Moosstr.","postalCode":"83404","locality":"Ainring","municipality":{"key":"09172111","name":"Ainring","type":"Kreisangehörige_Gemeinde"},"district":{"key":"09172","name":"Berchtesgadener Land","type":"Landkreis"},"federalState":{"key":"09","name":"Bayern"}},{"name":"Mozartstr.","postalCode":"83404","locality":"Ainring","municipality":{"key":"09172111","name":"Ainring","type":"Kreisangehörige_Gemeinde"},"district":{"key":"09172","name":"Berchtesgadener Land","type":"Landkreis"},"federalState":{"key":"09","name":"Bayern"}},{"name":"Mühlbachstr.","postalCode":"83404","locality":"Ainring","municipality":{"key":"09172111","name":"Ainring","type":"Kreisangehörige_Gemeinde"},"district":{"key":"09172","name":"Berchtesgadener Land","type":"Landkreis"},"federalState":{"key":"09","name":"Bayern"}},{"name":"Mühlenstr.","postalCode":"83404","locality":"Ainring","municipality":{"key":"09172111","name":"Ainring","type":"Kreisangehörige_Gemeinde"},"district":{"key":"09172","name":"Berchtesgadener Land","type":"Landkreis"},"federalState":{"key":"09","name":"Bayern"}},{"name":"Mühlreit","postalCode":"83404","locality":"Ainring","municipality":{"key":"09172111","name":"Ainring","type":"Kreisangehörige_Gemeinde"},"district":{"key":"09172","name":"Berchtesgadener Land","type":"Landkreis"},"federalState":{"key":"09","name":"Bayern"}},{"name":"Niederstraß","postalCode":"83404","locality":"Ainring","municipality":{"key":"09172111","name":"Ainring","type":"Kreisangehörige_Gemeinde"},"district":{"key":"09172","name":"Berchtesgadener Land","type":"Landkreis"},"federalState":{"key":"09","name":"Bayern"}},{"name":"Nocksteinstr.","postalCode":"83404","locality":"Ainring","municipality":{"key":"09172111","name":"Ainring","type":"Kreisangehörige_Gemeinde"},"district":{"key":"09172","name":"Berchtesgadener Land","type":"Landkreis"},"federalState":{"key":"09","name":"Bayern"}},{"name":"Oberholzen","postalCode":"83404","locality":"Ainring","municipality":{"key":"09172111","name":"Ainring","type":"Kreisangehörige_Gemeinde"},"district":{"key":"09172","name":"Berchtesgadener Land","type":"Landkreis"},"federalState":{"key":"09","name":"Bayern"}},{"name":"Pfarrer-Reiter-Weg","postalCode":"83404","locality":"Ainring","municipality":{"key":"09172111","name":"Ainring","type":"Kreisangehörige_Gemeinde"},"district":{"key":"09172","name":"Berchtesgadener Land","type":"Landkreis"},"federalState":{"key":"09","name":"Bayern"}},{"name":"Prof.-Erler-Weg","postalCode":"83404","locality":"Ainring","municipality":{"key":"09172111","name":"Ainring","type":"Kreisangehörige_Gemeinde"},"district":{"key":"09172","name":"Berchtesgadener Land","type":"Landkreis"},"federalState":{"key":"09","name":"Bayern"}},{"name":"Raiffeisenplatz","postalCode":"83404","locality":"Ainring","municipality":{"key":"09172111","name":"Ainring","type":"Kreisangehörige_Gemeinde"},"district":{"key":"09172","name":"Berchtesgadener Land","type":"Landkreis"},"federalState":{"key":"09","name":"Bayern"}},{"name":"Reichenhaller Str.","postalCode":"83404","locality":"Ainring","municipality":{"key":"09172111","name":"Ainring","type":"Kreisangehörige_Gemeinde"},"district":{"key":"09172","name":"Berchtesgadener Land","type":"Landkreis"},"federalState":{"key":"09","name":"Bayern"}},{"name":"Römerstr.","postalCode":"83404","locality":"Ainring","municipality":{"key":"09172111","name":"Ainring","type":"Kreisangehörige_Gemeinde"},"district":{"key":"09172","name":"Berchtesgadener Land","type":"Landkreis"},"federalState":{"key":"09","name":"Bayern"}},{"name":"Rosenweg","postalCode":"83404","locality":"Ainring","municipality":{"key":"09172111","name":"Ainring","type":"Kreisangehörige_Gemeinde"},"district":{"key":"09172","name":"Berchtesgadener Land","type":"Landkreis"},"federalState":{"key":"09","name":"Bayern"}},{"name":"Rupertiweg","postalCode":"83404","locality":"Ainring","municipality":{"key":"09172111","name":"Ainring","type":"Kreisangehörige_Gemeinde"},"district":{"key":"09172","name":"Berchtesgadener Land","type":"Landkreis"},"federalState":{"key":"09","name":"Bayern"}},{"name":"Saalachau","postalCode":"83404","locality":"Ainring","municipality":{"key":"09172111","name":"Ainring","type":"Kreisangehörige_Gemeinde"},"district":{"key":"09172","name":"Berchtesgadener Land","type":"Landkreis"},"federalState":{"key":"09","name":"Bayern"}},{"name":"Saalfeld","postalCode":"83404","locality":"Ainring","municipality":{"key":"09172111","name":"Ainring","type":"Kreisangehörige_Gemeinde"},"district":{"key":"09172","name":"Berchtesgadener Land","type":"Landkreis"},"federalState":{"key":"09","name":"Bayern"}},{"name":"Sägewerkstr","postalCode":"83404","locality":"Ainring","municipality":{"key":"09172111","name":"Ainring","type":"Kreisangehörige_Gemeinde"},"district":{"key":"09172","name":"Berchtesgadener Land","type":"Landkreis"},"federalState":{"key":"09","name":"Bayern"}},{"name":"Sägewerkstr.","postalCode":"83404","locality":"Ainring","municipality":{"key":"09172111","name":"Ainring","type":"Kreisangehörige_Gemeinde"},"district":{"key":"09172","name":"Berchtesgadener Land","type":"Landkreis"},"federalState":{"key":"09","name":"Bayern"}},{"name":"Salzburger Str.","postalCode":"83404","locality":"Ainring","municipality":{"key":"09172111","name":"Ainring","type":"Kreisangehörige_Gemeinde"},"district":{"key":"09172","name":"Berchtesgadener Land","type":"Landkreis"},"federalState":{"key":"09","name":"Bayern"}},{"name":"Salzstr.","postalCode":"83404","locality":"Ainring","municipality":{"key":"09172111","name":"Ainring","type":"Kreisangehörige_Gemeinde"},"district":{"key":"09172","name":"Berchtesgadener Land","type":"Landkreis"},"federalState":{"key":"09","name":"Bayern"}},{"name":"Sandgrubenweg","postalCode":"83404","locality":"Ainring","municipality":{"key":"09172111","name":"Ainring","type":"Kreisangehörige_Gemeinde"},"district":{"key":"09172","name":"Berchtesgadener Land","type":"Landkreis"},"federalState":{"key":"09","name":"Bayern"}},{"name":"Schneebergstr.","postalCode":"83404","locality":"Ainring","municipality":{"key":"09172111","name":"Ainring","type":"Kreisangehörige_Gemeinde"},"district":{"key":"09172","name":"Berchtesgadener Land","type":"Landkreis"},"federalState":{"key":"09","name":"Bayern"}},{"name":"Schwimmbadstr.","postalCode":"83404","locality":"Ainring","municipality":{"key":"09172111","name":"Ainring","type":"Kreisangehörige_Gemeinde"},"district":{"key":"09172","name":"Berchtesgadener Land","type":"Landkreis"},"federalState":{"key":"09","name":"Bayern"}},{"name":"Siezenheimer Weg","postalCode":"83404","locality":"Ainring","municipality":{"key":"09172111","name":"Ainring","type":"Kreisangehörige_Gemeinde"},"district":{"key":"09172","name":"Berchtesgadener Land","type":"Landkreis"},"federalState":{"key":"09","name":"Bayern"}},{"name":"Stadtweg","postalCode":"83404","locality":"Ainring","municipality":{"key":"09172111","name":"Ainring","type":"Kreisangehörige_Gemeinde"},"district":{"key":"09172","name":"Berchtesgadener Land","type":"Landkreis"},"federalState":{"key":"09","name":"Bayern"}},{"name":"Staufenstr.","postalCode":"83404","locality":"Ainring","municipality":{"key":"09172111","name":"Ainring","type":"Kreisangehörige_Gemeinde"},"district":{"key":"09172","name":"Berchtesgadener Land","type":"Landkreis"},"federalState":{"key":"09","name":"Bayern"}},{"name":"Thomas-Dachser-Str.","postalCode":"83404","locality":"Ainring","municipality":{"key":"09172111","name":"Ainring","type":"Kreisangehörige_Gemeinde"},"district":{"key":"09172","name":"Berchtesgadener Land","type":"Landkreis"},"federalState":{"key":"09","name":"Bayern"}},{"name":"Thundorf","postalCode":"83404","locality":"Ainring","municipality":{"key":"09172111","name":"Ainring","type":"Kreisangehörige_Gemeinde"},"district":{"key":"09172","name":"Berchtesgadener Land","type":"Landkreis"},"federalState":{"key":"09","name":"Bayern"}},{"name":"Thundorfer Mühle","postalCode":"83404","locality":"Ainring","municipality":{"key":"09172111","name":"Ainring","type":"Kreisangehörige_Gemeinde"},"district":{"key":"09172","name":"Berchtesgadener Land","type":"Landkreis"},"federalState":{"key":"09","name":"Bayern"}},{"name":"Traunsteiner Str.","postalCode":"83404","locality":"Ainring","municipality":{"key":"09172111","name":"Ainring","type":"Kreisangehörige_Gemeinde"},"district":{"key":"09172","name":"Berchtesgadener Land","type":"Landkreis"},"federalState":{"key":"09","name":"Bayern"}},{"name":"Ulrichshögler Str.","postalCode":"83404","locality":"Ainring","municipality":{"key":"09172111","name":"Ainring","type":"Kreisangehörige_Gemeinde"},"district":{"key":"09172","name":"Berchtesgadener Land","type":"Landkreis"},"federalState":{"key":"09","name":"Bayern"}},{"name":"Untersbergstr.","postalCode":"83404","locality":"Ainring","municipality":{"key":"09172111","name":"Ainring","type":"Kreisangehörige_Gemeinde"},"district":{"key":"09172","name":"Berchtesgadener Land","type":"Landkreis"},"federalState":{"key":"09","name":"Bayern"}},{"name":"Walser Weg","postalCode":"83404","locality":"Ainring","municipality":{"key":"09172111","name":"Ainring","type":"Kreisangehörige_Gemeinde"},"district":{"key":"09172","name":"Berchtesgadener Land","type":"Landkreis"},"federalState":{"key":"09","name":"Bayern"}},{"name":"Watzmannstr.","postalCode":"83404","locality":"Ainring","municipality":{"key":"09172111","name":"Ainring","type":"Kreisangehörige_Gemeinde"},"district":{"key":"09172","name":"Berchtesgadener Land","type":"Landkreis"},"federalState":{"key":"09","name":"Bayern"}},{"name":"Wiesbach","postalCode":"83404","locality":"Ainring","municipality":{"key":"09172111","name":"Ainring","type":"Kreisangehörige_Gemeinde"},"district":{"key":"09172","name":"Berchtesgadener Land","type":"Landkreis"},"federalState":{"key":"09","name":"Bayern"}},{"name":"Winkeln","postalCode":"83404","locality":"Ainring","municipality":{"key":"09172111","name":"Ainring","type":"Kreisangehörige_Gemeinde"},"district":{"key":"09172","name":"Berchtesgadener Land","type":"Landkreis"},"federalState":{"key":"09","name":"Bayern"}},{"name":"Wolfgang-Griesstätter-Str.","postalCode":"83404","locality":"Ainring","municipality":{"key":"09172111","name":"Ainring","type":"Kreisangehörige_Gemeinde"},"district":{"key":"09172","name":"Berchtesgadener Land","type":"Landkreis"},"federalState":{"key":"09","name":"Bayern"}},{"name":"Zellerhof","postalCode":"83404","locality":"Ainring","municipality":{"key":"09172111","name":"Ainring","type":"Kreisangehörige_Gemeinde"},"district":{"key":"09172","name":"Berchtesgadener Land","type":"Landkreis"},"federalState":{"key":"09","name":"Bayern"}},{"name":"Ziegelweg","postalCode":"83404","locality":"Ainring","municipality":{"key":"09172111","name":"Ainring","type":"Kreisangehörige_Gemeinde"},"district":{"key":"09172","name":"Berchtesgadener Land","type":"Landkreis"},"federalState":{"key":"09","name":"Bayern"}},{"name":"Zwieselstr.","postalCode":"83404","locality":"Ainring","municipality":{"key":"09172111","name":"Ainring","type":"Kreisangehörige_Gemeinde"},"district":{"key":"09172","name":"Berchtesgadener Land","type":"Landkreis"},"federalState":{"key":"09","name":"Bayern"}},]