[{"name":"Alte Mayener Str.","postalCode":"56759","locality":"Kaisersesch","municipality":{"key":"07135045","name":"Kaisersesch, Stadt","type":"Stadt"},"district":{"key":"07135","name":"Cochem-Zell","type":"Landkreis"},"federalState":{"key":"07","name":"Rheinland-Pfalz"}},{"name":"Am Bieselbach","postalCode":"56759","locality":"Kaisersesch","municipality":{"key":"07135045","name":"Kaisersesch, Stadt","type":"Stadt"},"district":{"key":"07135","name":"Cochem-Zell","type":"Landkreis"},"federalState":{"key":"07","name":"Rheinland-Pfalz"}},{"name":"Am Markt","postalCode":"56759","locality":"Kaisersesch","municipality":{"key":"07135045","name":"Kaisersesch, Stadt","type":"Stadt"},"district":{"key":"07135","name":"Cochem-Zell","type":"Landkreis"},"federalState":{"key":"07","name":"Rheinland-Pfalz"}},{"name":"Am Römerturm","postalCode":"56759","locality":"Kaisersesch","municipality":{"key":"07135045","name":"Kaisersesch, Stadt","type":"Stadt"},"district":{"key":"07135","name":"Cochem-Zell","type":"Landkreis"},"federalState":{"key":"07","name":"Rheinland-Pfalz"}},{"name":"Amselweg","postalCode":"56759","locality":"Kaisersesch","municipality":{"key":"07135045","name":"Kaisersesch, Stadt","type":"Stadt"},"district":{"key":"07135","name":"Cochem-Zell","type":"Landkreis"},"federalState":{"key":"07","name":"Rheinland-Pfalz"}},{"name":"Auf der Wacht","postalCode":"56759","locality":"Kaisersesch","municipality":{"key":"07135045","name":"Kaisersesch, Stadt","type":"Stadt"},"district":{"key":"07135","name":"Cochem-Zell","type":"Landkreis"},"federalState":{"key":"07","name":"Rheinland-Pfalz"}},{"name":"August-Horch-Str.","postalCode":"56759","locality":"Kaisersesch","municipality":{"key":"07135045","name":"Kaisersesch, Stadt","type":"Stadt"},"district":{"key":"07135","name":"Cochem-Zell","type":"Landkreis"},"federalState":{"key":"07","name":"Rheinland-Pfalz"}},{"name":"Bahnhofstr.","postalCode":"56759","locality":"Kaisersesch","municipality":{"key":"07135045","name":"Kaisersesch, Stadt","type":"Stadt"},"district":{"key":"07135","name":"Cochem-Zell","type":"Landkreis"},"federalState":{"key":"07","name":"Rheinland-Pfalz"}},{"name":"Balduinstr.","postalCode":"56759","locality":"Kaisersesch","municipality":{"key":"07135045","name":"Kaisersesch, Stadt","type":"Stadt"},"district":{"key":"07135","name":"Cochem-Zell","type":"Landkreis"},"federalState":{"key":"07","name":"Rheinland-Pfalz"}},{"name":"Brunnenstr.","postalCode":"56759","locality":"Kaisersesch","municipality":{"key":"07135045","name":"Kaisersesch, Stadt","type":"Stadt"},"district":{"key":"07135","name":"Cochem-Zell","type":"Landkreis"},"federalState":{"key":"07","name":"Rheinland-Pfalz"}},{"name":"Buchbinderstr.","postalCode":"56759","locality":"Kaisersesch","municipality":{"key":"07135045","name":"Kaisersesch, Stadt","type":"Stadt"},"district":{"key":"07135","name":"Cochem-Zell","type":"Landkreis"},"federalState":{"key":"07","name":"Rheinland-Pfalz"}},{"name":"Buchenweg","postalCode":"56759","locality":"Kaisersesch","municipality":{"key":"07135045","name":"Kaisersesch, Stadt","type":"Stadt"},"district":{"key":"07135","name":"Cochem-Zell","type":"Landkreis"},"federalState":{"key":"07","name":"Rheinland-Pfalz"}},{"name":"Burgstr.","postalCode":"56759","locality":"Kaisersesch","municipality":{"key":"07135045","name":"Kaisersesch, Stadt","type":"Stadt"},"district":{"key":"07135","name":"Cochem-Zell","type":"Landkreis"},"federalState":{"key":"07","name":"Rheinland-Pfalz"}},{"name":"Carl-Friedrich-Benz-Str.","postalCode":"56759","locality":"Kaisersesch","municipality":{"key":"07135045","name":"Kaisersesch, Stadt","type":"Stadt"},"district":{"key":"07135","name":"Cochem-Zell","type":"Landkreis"},"federalState":{"key":"07","name":"Rheinland-Pfalz"}},{"name":"Cochemer Str.","postalCode":"56759","locality":"Kaisersesch","municipality":{"key":"07135045","name":"Kaisersesch, Stadt","type":"Stadt"},"district":{"key":"07135","name":"Cochem-Zell","type":"Landkreis"},"federalState":{"key":"07","name":"Rheinland-Pfalz"}},{"name":"Dortebachstr.","postalCode":"56759","locality":"Kaisersesch","municipality":{"key":"07135045","name":"Kaisersesch, Stadt","type":"Stadt"},"district":{"key":"07135","name":"Cochem-Zell","type":"Landkreis"},"federalState":{"key":"07","name":"Rheinland-Pfalz"}},{"name":"Eichenstr.","postalCode":"56759","locality":"Kaisersesch","municipality":{"key":"07135045","name":"Kaisersesch, Stadt","type":"Stadt"},"district":{"key":"07135","name":"Cochem-Zell","type":"Landkreis"},"federalState":{"key":"07","name":"Rheinland-Pfalz"}},{"name":"Eifelstr.","postalCode":"56759","locality":"Kaisersesch","municipality":{"key":"07135045","name":"Kaisersesch, Stadt","type":"Stadt"},"district":{"key":"07135","name":"Cochem-Zell","type":"Landkreis"},"federalState":{"key":"07","name":"Rheinland-Pfalz"}},{"name":"Elzstr.","postalCode":"56759","locality":"Kaisersesch","municipality":{"key":"07135045","name":"Kaisersesch, Stadt","type":"Stadt"},"district":{"key":"07135","name":"Cochem-Zell","type":"Landkreis"},"federalState":{"key":"07","name":"Rheinland-Pfalz"}},{"name":"Endertstr.","postalCode":"56759","locality":"Kaisersesch","municipality":{"key":"07135045","name":"Kaisersesch, Stadt","type":"Stadt"},"district":{"key":"07135","name":"Cochem-Zell","type":"Landkreis"},"federalState":{"key":"07","name":"Rheinland-Pfalz"}},{"name":"Engelsbachstr.","postalCode":"56759","locality":"Kaisersesch","municipality":{"key":"07135045","name":"Kaisersesch, Stadt","type":"Stadt"},"district":{"key":"07135","name":"Cochem-Zell","type":"Landkreis"},"federalState":{"key":"07","name":"Rheinland-Pfalz"}},{"name":"Erlenweg","postalCode":"56759","locality":"Kaisersesch","municipality":{"key":"07135045","name":"Kaisersesch, Stadt","type":"Stadt"},"district":{"key":"07135","name":"Cochem-Zell","type":"Landkreis"},"federalState":{"key":"07","name":"Rheinland-Pfalz"}},{"name":"Ferdinand-Porsche-Str.","postalCode":"56759","locality":"Kaisersesch","municipality":{"key":"07135045","name":"Kaisersesch, Stadt","type":"Stadt"},"district":{"key":"07135","name":"Cochem-Zell","type":"Landkreis"},"federalState":{"key":"07","name":"Rheinland-Pfalz"}},{"name":"Finkenweg","postalCode":"56759","locality":"Kaisersesch","municipality":{"key":"07135045","name":"Kaisersesch, Stadt","type":"Stadt"},"district":{"key":"07135","name":"Cochem-Zell","type":"Landkreis"},"federalState":{"key":"07","name":"Rheinland-Pfalz"}},{"name":"Gartenstr.","postalCode":"56759","locality":"Kaisersesch","municipality":{"key":"07135045","name":"Kaisersesch, Stadt","type":"Stadt"},"district":{"key":"07135","name":"Cochem-Zell","type":"Landkreis"},"federalState":{"key":"07","name":"Rheinland-Pfalz"}},{"name":"Ginsterweg","postalCode":"56759","locality":"Kaisersesch","municipality":{"key":"07135045","name":"Kaisersesch, Stadt","type":"Stadt"},"district":{"key":"07135","name":"Cochem-Zell","type":"Landkreis"},"federalState":{"key":"07","name":"Rheinland-Pfalz"}},{"name":"Hambucher Str.","postalCode":"56759","locality":"Kaisersesch","municipality":{"key":"07135045","name":"Kaisersesch, Stadt","type":"Stadt"},"district":{"key":"07135","name":"Cochem-Zell","type":"Landkreis"},"federalState":{"key":"07","name":"Rheinland-Pfalz"}},{"name":"Heideberg","postalCode":"56759","locality":"Kaisersesch","municipality":{"key":"07135045","name":"Kaisersesch, Stadt","type":"Stadt"},"district":{"key":"07135","name":"Cochem-Zell","type":"Landkreis"},"federalState":{"key":"07","name":"Rheinland-Pfalz"}},{"name":"Hinter der Mauer","postalCode":"56759","locality":"Kaisersesch","municipality":{"key":"07135045","name":"Kaisersesch, Stadt","type":"Stadt"},"district":{"key":"07135","name":"Cochem-Zell","type":"Landkreis"},"federalState":{"key":"07","name":"Rheinland-Pfalz"}},{"name":"Höfchen","postalCode":"56759","locality":"Kaisersesch","municipality":{"key":"07135045","name":"Kaisersesch, Stadt","type":"Stadt"},"district":{"key":"07135","name":"Cochem-Zell","type":"Landkreis"},"federalState":{"key":"07","name":"Rheinland-Pfalz"}},{"name":"Humboldtstr.","postalCode":"56759","locality":"Kaisersesch","municipality":{"key":"07135045","name":"Kaisersesch, Stadt","type":"Stadt"},"district":{"key":"07135","name":"Cochem-Zell","type":"Landkreis"},"federalState":{"key":"07","name":"Rheinland-Pfalz"}},{"name":"Hungerbachstr.","postalCode":"56759","locality":"Kaisersesch","municipality":{"key":"07135045","name":"Kaisersesch, Stadt","type":"Stadt"},"district":{"key":"07135","name":"Cochem-Zell","type":"Landkreis"},"federalState":{"key":"07","name":"Rheinland-Pfalz"}},{"name":"Im Allen","postalCode":"56759","locality":"Kaisersesch","municipality":{"key":"07135045","name":"Kaisersesch, Stadt","type":"Stadt"},"district":{"key":"07135","name":"Cochem-Zell","type":"Landkreis"},"federalState":{"key":"07","name":"Rheinland-Pfalz"}},{"name":"Im Bliesblink","postalCode":"56759","locality":"Kaisersesch","municipality":{"key":"07135045","name":"Kaisersesch, Stadt","type":"Stadt"},"district":{"key":"07135","name":"Cochem-Zell","type":"Landkreis"},"federalState":{"key":"07","name":"Rheinland-Pfalz"}},{"name":"Im Haag","postalCode":"56759","locality":"Kaisersesch","municipality":{"key":"07135045","name":"Kaisersesch, Stadt","type":"Stadt"},"district":{"key":"07135","name":"Cochem-Zell","type":"Landkreis"},"federalState":{"key":"07","name":"Rheinland-Pfalz"}},{"name":"Im Hasenwieschen","postalCode":"56759","locality":"Kaisersesch","municipality":{"key":"07135045","name":"Kaisersesch, Stadt","type":"Stadt"},"district":{"key":"07135","name":"Cochem-Zell","type":"Landkreis"},"federalState":{"key":"07","name":"Rheinland-Pfalz"}},{"name":"Im Joch","postalCode":"56759","locality":"Kaisersesch","municipality":{"key":"07135045","name":"Kaisersesch, Stadt","type":"Stadt"},"district":{"key":"07135","name":"Cochem-Zell","type":"Landkreis"},"federalState":{"key":"07","name":"Rheinland-Pfalz"}},{"name":"Im Mehrpatt","postalCode":"56759","locality":"Kaisersesch","municipality":{"key":"07135045","name":"Kaisersesch, Stadt","type":"Stadt"},"district":{"key":"07135","name":"Cochem-Zell","type":"Landkreis"},"federalState":{"key":"07","name":"Rheinland-Pfalz"}},{"name":"Im Weierchen","postalCode":"56759","locality":"Kaisersesch","municipality":{"key":"07135045","name":"Kaisersesch, Stadt","type":"Stadt"},"district":{"key":"07135","name":"Cochem-Zell","type":"Landkreis"},"federalState":{"key":"07","name":"Rheinland-Pfalz"}},{"name":"In der Langheck","postalCode":"56759","locality":"Kaisersesch","municipality":{"key":"07135045","name":"Kaisersesch, Stadt","type":"Stadt"},"district":{"key":"07135","name":"Cochem-Zell","type":"Landkreis"},"federalState":{"key":"07","name":"Rheinland-Pfalz"}},{"name":"In der Trift","postalCode":"56759","locality":"Kaisersesch","municipality":{"key":"07135045","name":"Kaisersesch, Stadt","type":"Stadt"},"district":{"key":"07135","name":"Cochem-Zell","type":"Landkreis"},"federalState":{"key":"07","name":"Rheinland-Pfalz"}},{"name":"Jahnstr.","postalCode":"56759","locality":"Kaisersesch","municipality":{"key":"07135045","name":"Kaisersesch, Stadt","type":"Stadt"},"district":{"key":"07135","name":"Cochem-Zell","type":"Landkreis"},"federalState":{"key":"07","name":"Rheinland-Pfalz"}},{"name":"Kaulenbachstr.","postalCode":"56759","locality":"Kaisersesch","municipality":{"key":"07135045","name":"Kaisersesch, Stadt","type":"Stadt"},"district":{"key":"07135","name":"Cochem-Zell","type":"Landkreis"},"federalState":{"key":"07","name":"Rheinland-Pfalz"}},{"name":"Klostergasse","postalCode":"56759","locality":"Kaisersesch","municipality":{"key":"07135045","name":"Kaisersesch, Stadt","type":"Stadt"},"district":{"key":"07135","name":"Cochem-Zell","type":"Landkreis"},"federalState":{"key":"07","name":"Rheinland-Pfalz"}},{"name":"Koblenzer Str.","postalCode":"56759","locality":"Kaisersesch","municipality":{"key":"07135045","name":"Kaisersesch, Stadt","type":"Stadt"},"district":{"key":"07135","name":"Cochem-Zell","type":"Landkreis"},"federalState":{"key":"07","name":"Rheinland-Pfalz"}},{"name":"Marienau","postalCode":"56759","locality":"Kaisersesch","municipality":{"key":"07135045","name":"Kaisersesch, Stadt","type":"Stadt"},"district":{"key":"07135","name":"Cochem-Zell","type":"Landkreis"},"federalState":{"key":"07","name":"Rheinland-Pfalz"}},{"name":"Masburger Str.","postalCode":"56759","locality":"Kaisersesch","municipality":{"key":"07135045","name":"Kaisersesch, Stadt","type":"Stadt"},"district":{"key":"07135","name":"Cochem-Zell","type":"Landkreis"},"federalState":{"key":"07","name":"Rheinland-Pfalz"}},{"name":"Mausbachstr.","postalCode":"56759","locality":"Kaisersesch","municipality":{"key":"07135045","name":"Kaisersesch, Stadt","type":"Stadt"},"district":{"key":"07135","name":"Cochem-Zell","type":"Landkreis"},"federalState":{"key":"07","name":"Rheinland-Pfalz"}},{"name":"Meisenweg","postalCode":"56759","locality":"Kaisersesch","municipality":{"key":"07135045","name":"Kaisersesch, Stadt","type":"Stadt"},"district":{"key":"07135","name":"Cochem-Zell","type":"Landkreis"},"federalState":{"key":"07","name":"Rheinland-Pfalz"}},{"name":"Mittelstr.","postalCode":"56759","locality":"Kaisersesch","municipality":{"key":"07135045","name":"Kaisersesch, Stadt","type":"Stadt"},"district":{"key":"07135","name":"Cochem-Zell","type":"Landkreis"},"federalState":{"key":"07","name":"Rheinland-Pfalz"}},{"name":"Naturbelassener Garten der Achtsamkeit","postalCode":"56759","locality":"Kaisersesch","municipality":{"key":"07135045","name":"Kaisersesch, Stadt","type":"Stadt"},"district":{"key":"07135","name":"Cochem-Zell","type":"Landkreis"},"federalState":{"key":"07","name":"Rheinland-Pfalz"}},{"name":"Pankratiusstr.","postalCode":"56759","locality":"Kaisersesch","municipality":{"key":"07135045","name":"Kaisersesch, Stadt","type":"Stadt"},"district":{"key":"07135","name":"Cochem-Zell","type":"Landkreis"},"federalState":{"key":"07","name":"Rheinland-Pfalz"}},{"name":"Pommerbachstr.","postalCode":"56759","locality":"Kaisersesch","municipality":{"key":"07135045","name":"Kaisersesch, Stadt","type":"Stadt"},"district":{"key":"07135","name":"Cochem-Zell","type":"Landkreis"},"federalState":{"key":"07","name":"Rheinland-Pfalz"}},{"name":"Postbrunnenplatz","postalCode":"56759","locality":"Kaisersesch","municipality":{"key":"07135045","name":"Kaisersesch, Stadt","type":"Stadt"},"district":{"key":"07135","name":"Cochem-Zell","type":"Landkreis"},"federalState":{"key":"07","name":"Rheinland-Pfalz"}},{"name":"Poststr.","postalCode":"56759","locality":"Kaisersesch","municipality":{"key":"07135045","name":"Kaisersesch, Stadt","type":"Stadt"},"district":{"key":"07135","name":"Cochem-Zell","type":"Landkreis"},"federalState":{"key":"07","name":"Rheinland-Pfalz"}},{"name":"Römerstr.","postalCode":"56759","locality":"Kaisersesch","municipality":{"key":"07135045","name":"Kaisersesch, Stadt","type":"Stadt"},"district":{"key":"07135","name":"Cochem-Zell","type":"Landkreis"},"federalState":{"key":"07","name":"Rheinland-Pfalz"}},{"name":"Rudolf-Diesel-Str.","postalCode":"56759","locality":"Kaisersesch","municipality":{"key":"07135045","name":"Kaisersesch, Stadt","type":"Stadt"},"district":{"key":"07135","name":"Cochem-Zell","type":"Landkreis"},"federalState":{"key":"07","name":"Rheinland-Pfalz"}},{"name":"Ruheplatz am Hungerbach","postalCode":"56759","locality":"Kaisersesch","municipality":{"key":"07135045","name":"Kaisersesch, Stadt","type":"Stadt"},"district":{"key":"07135","name":"Cochem-Zell","type":"Landkreis"},"federalState":{"key":"07","name":"Rheinland-Pfalz"}},{"name":"Schöne Aussicht","postalCode":"56759","locality":"Kaisersesch","municipality":{"key":"07135045","name":"Kaisersesch, Stadt","type":"Stadt"},"district":{"key":"07135","name":"Cochem-Zell","type":"Landkreis"},"federalState":{"key":"07","name":"Rheinland-Pfalz"}},{"name":"Schulstr.","postalCode":"56759","locality":"Kaisersesch","municipality":{"key":"07135045","name":"Kaisersesch, Stadt","type":"Stadt"},"district":{"key":"07135","name":"Cochem-Zell","type":"Landkreis"},"federalState":{"key":"07","name":"Rheinland-Pfalz"}},{"name":"Schwalbenweg","postalCode":"56759","locality":"Kaisersesch","municipality":{"key":"07135045","name":"Kaisersesch, Stadt","type":"Stadt"},"district":{"key":"07135","name":"Cochem-Zell","type":"Landkreis"},"federalState":{"key":"07","name":"Rheinland-Pfalz"}},{"name":"Steilbachstr.","postalCode":"56759","locality":"Kaisersesch","municipality":{"key":"07135045","name":"Kaisersesch, Stadt","type":"Stadt"},"district":{"key":"07135","name":"Cochem-Zell","type":"Landkreis"},"federalState":{"key":"07","name":"Rheinland-Pfalz"}},{"name":"Stierstr.","postalCode":"56759","locality":"Kaisersesch","municipality":{"key":"07135045","name":"Kaisersesch, Stadt","type":"Stadt"},"district":{"key":"07135","name":"Cochem-Zell","type":"Landkreis"},"federalState":{"key":"07","name":"Rheinland-Pfalz"}},{"name":"Tannenweg","postalCode":"56759","locality":"Kaisersesch","municipality":{"key":"07135045","name":"Kaisersesch, Stadt","type":"Stadt"},"district":{"key":"07135","name":"Cochem-Zell","type":"Landkreis"},"federalState":{"key":"07","name":"Rheinland-Pfalz"}},{"name":"Trierer Str.","postalCode":"56759","locality":"Kaisersesch","municipality":{"key":"07135045","name":"Kaisersesch, Stadt","type":"Stadt"},"district":{"key":"07135","name":"Cochem-Zell","type":"Landkreis"},"federalState":{"key":"07","name":"Rheinland-Pfalz"}},{"name":"Turnstr.","postalCode":"56759","locality":"Kaisersesch","municipality":{"key":"07135045","name":"Kaisersesch, Stadt","type":"Stadt"},"district":{"key":"07135","name":"Cochem-Zell","type":"Landkreis"},"federalState":{"key":"07","name":"Rheinland-Pfalz"}},{"name":"Von-der-Leyen-Str.","postalCode":"56759","locality":"Kaisersesch","municipality":{"key":"07135045","name":"Kaisersesch, Stadt","type":"Stadt"},"district":{"key":"07135","name":"Cochem-Zell","type":"Landkreis"},"federalState":{"key":"07","name":"Rheinland-Pfalz"}},{"name":"Werner-von-Siemens-Str.","postalCode":"56759","locality":"Kaisersesch","municipality":{"key":"07135045","name":"Kaisersesch, Stadt","type":"Stadt"},"district":{"key":"07135","name":"Cochem-Zell","type":"Landkreis"},"federalState":{"key":"07","name":"Rheinland-Pfalz"}},{"name":"Wilhelm-Conrad-Röntgen-Str.","postalCode":"56759","locality":"Kaisersesch","municipality":{"key":"07135045","name":"Kaisersesch, Stadt","type":"Stadt"},"district":{"key":"07135","name":"Cochem-Zell","type":"Landkreis"},"federalState":{"key":"07","name":"Rheinland-Pfalz"}},{"name":"Zanterbachstr.","postalCode":"56759","locality":"Kaisersesch","municipality":{"key":"07135045","name":"Kaisersesch, Stadt","type":"Stadt"},"district":{"key":"07135","name":"Cochem-Zell","type":"Landkreis"},"federalState":{"key":"07","name":"Rheinland-Pfalz"}},{"name":"Zentralplatz","postalCode":"56759","locality":"Kaisersesch","municipality":{"key":"07135045","name":"Kaisersesch, Stadt","type":"Stadt"},"district":{"key":"07135","name":"Cochem-Zell","type":"Landkreis"},"federalState":{"key":"07","name":"Rheinland-Pfalz"}},]