[{"name":"Ackerstr.","postalCode":"49545","locality":"Tecklenburg","municipality":{"key":"05566088","name":"Tecklenburg, Stadt","type":"Stadt"},"district":{"key":"05566","name":"Steinfurt","type":"Kreis"},"federalState":{"key":"05","name":"Nordrhein-Westfalen"}},{"name":"Ahornstr.","postalCode":"49545","locality":"Tecklenburg","municipality":{"key":"05566088","name":"Tecklenburg, Stadt","type":"Stadt"},"district":{"key":"05566","name":"Steinfurt","type":"Kreis"},"federalState":{"key":"05","name":"Nordrhein-Westfalen"}},{"name":"Alte Obstwiese","postalCode":"49545","locality":"Tecklenburg","municipality":{"key":"05566088","name":"Tecklenburg, Stadt","type":"Stadt"},"district":{"key":"05566","name":"Steinfurt","type":"Kreis"},"federalState":{"key":"05","name":"Nordrhein-Westfalen"}},{"name":"Altmanns Knapp","postalCode":"49545","locality":"Tecklenburg","municipality":{"key":"05566088","name":"Tecklenburg, Stadt","type":"Stadt"},"district":{"key":"05566","name":"Steinfurt","type":"Kreis"},"federalState":{"key":"05","name":"Nordrhein-Westfalen"}},{"name":"Altstadtparkplatz","postalCode":"49545","locality":"Tecklenburg","municipality":{"key":"05566088","name":"Tecklenburg, Stadt","type":"Stadt"},"district":{"key":"05566","name":"Steinfurt","type":"Kreis"},"federalState":{"key":"05","name":"Nordrhein-Westfalen"}},{"name":"Am Fangberg","postalCode":"49545","locality":"Tecklenburg","municipality":{"key":"05566088","name":"Tecklenburg, Stadt","type":"Stadt"},"district":{"key":"05566","name":"Steinfurt","type":"Kreis"},"federalState":{"key":"05","name":"Nordrhein-Westfalen"}},{"name":"Am Habichtswald","postalCode":"49545","locality":"Tecklenburg","municipality":{"key":"05566088","name":"Tecklenburg, Stadt","type":"Stadt"},"district":{"key":"05566","name":"Steinfurt","type":"Kreis"},"federalState":{"key":"05","name":"Nordrhein-Westfalen"}},{"name":"Am Hagen","postalCode":"49545","locality":"Tecklenburg","municipality":{"key":"05566088","name":"Tecklenburg, Stadt","type":"Stadt"},"district":{"key":"05566","name":"Steinfurt","type":"Kreis"},"federalState":{"key":"05","name":"Nordrhein-Westfalen"}},{"name":"Am Heesberg","postalCode":"49545","locality":"Tecklenburg","municipality":{"key":"05566088","name":"Tecklenburg, Stadt","type":"Stadt"},"district":{"key":"05566","name":"Steinfurt","type":"Kreis"},"federalState":{"key":"05","name":"Nordrhein-Westfalen"}},{"name":"Am Himmelreich","postalCode":"49545","locality":"Tecklenburg","municipality":{"key":"05566088","name":"Tecklenburg, Stadt","type":"Stadt"},"district":{"key":"05566","name":"Steinfurt","type":"Kreis"},"federalState":{"key":"05","name":"Nordrhein-Westfalen"}},{"name":"Am Hülshof","postalCode":"49545","locality":"Tecklenburg","municipality":{"key":"05566088","name":"Tecklenburg, Stadt","type":"Stadt"},"district":{"key":"05566","name":"Steinfurt","type":"Kreis"},"federalState":{"key":"05","name":"Nordrhein-Westfalen"}},{"name":"Am Knoblauchsberg","postalCode":"49545","locality":"Tecklenburg","municipality":{"key":"05566088","name":"Tecklenburg, Stadt","type":"Stadt"},"district":{"key":"05566","name":"Steinfurt","type":"Kreis"},"federalState":{"key":"05","name":"Nordrhein-Westfalen"}},{"name":"Am Mühlenbach","postalCode":"49545","locality":"Tecklenburg","municipality":{"key":"05566088","name":"Tecklenburg, Stadt","type":"Stadt"},"district":{"key":"05566","name":"Steinfurt","type":"Kreis"},"federalState":{"key":"05","name":"Nordrhein-Westfalen"}},{"name":"Am Mühlenteich","postalCode":"49545","locality":"Tecklenburg","municipality":{"key":"05566088","name":"Tecklenburg, Stadt","type":"Stadt"},"district":{"key":"05566","name":"Steinfurt","type":"Kreis"},"federalState":{"key":"05","name":"Nordrhein-Westfalen"}},{"name":"Am Ring","postalCode":"49545","locality":"Tecklenburg","municipality":{"key":"05566088","name":"Tecklenburg, Stadt","type":"Stadt"},"district":{"key":"05566","name":"Steinfurt","type":"Kreis"},"federalState":{"key":"05","name":"Nordrhein-Westfalen"}},{"name":"Amselweg","postalCode":"49545","locality":"Tecklenburg","municipality":{"key":"05566088","name":"Tecklenburg, Stadt","type":"Stadt"},"district":{"key":"05566","name":"Steinfurt","type":"Kreis"},"federalState":{"key":"05","name":"Nordrhein-Westfalen"}},{"name":"Am Sportplatz","postalCode":"49545","locality":"Tecklenburg","municipality":{"key":"05566088","name":"Tecklenburg, Stadt","type":"Stadt"},"district":{"key":"05566","name":"Steinfurt","type":"Kreis"},"federalState":{"key":"05","name":"Nordrhein-Westfalen"}},{"name":"Am Steinkamp","postalCode":"49545","locality":"Tecklenburg","municipality":{"key":"05566088","name":"Tecklenburg, Stadt","type":"Stadt"},"district":{"key":"05566","name":"Steinfurt","type":"Kreis"},"federalState":{"key":"05","name":"Nordrhein-Westfalen"}},{"name":"Am Stollen","postalCode":"49545","locality":"Tecklenburg","municipality":{"key":"05566088","name":"Tecklenburg, Stadt","type":"Stadt"},"district":{"key":"05566","name":"Steinfurt","type":"Kreis"},"federalState":{"key":"05","name":"Nordrhein-Westfalen"}},{"name":"Am Südhang","postalCode":"49545","locality":"Tecklenburg","municipality":{"key":"05566088","name":"Tecklenburg, Stadt","type":"Stadt"},"district":{"key":"05566","name":"Steinfurt","type":"Kreis"},"federalState":{"key":"05","name":"Nordrhein-Westfalen"}},{"name":"Am Weingarten","postalCode":"49545","locality":"Tecklenburg","municipality":{"key":"05566088","name":"Tecklenburg, Stadt","type":"Stadt"},"district":{"key":"05566","name":"Steinfurt","type":"Kreis"},"federalState":{"key":"05","name":"Nordrhein-Westfalen"}},{"name":"An der Lieth","postalCode":"49545","locality":"Tecklenburg","municipality":{"key":"05566088","name":"Tecklenburg, Stadt","type":"Stadt"},"district":{"key":"05566","name":"Steinfurt","type":"Kreis"},"federalState":{"key":"05","name":"Nordrhein-Westfalen"}},{"name":"An Gummerts Kamp","postalCode":"49545","locality":"Tecklenburg","municipality":{"key":"05566088","name":"Tecklenburg, Stadt","type":"Stadt"},"district":{"key":"05566","name":"Steinfurt","type":"Kreis"},"federalState":{"key":"05","name":"Nordrhein-Westfalen"}},{"name":"Apfelallee","postalCode":"49545","locality":"Tecklenburg","municipality":{"key":"05566088","name":"Tecklenburg, Stadt","type":"Stadt"},"district":{"key":"05566","name":"Steinfurt","type":"Kreis"},"federalState":{"key":"05","name":"Nordrhein-Westfalen"}},{"name":"Auf dem Broekland","postalCode":"49545","locality":"Tecklenburg","municipality":{"key":"05566088","name":"Tecklenburg, Stadt","type":"Stadt"},"district":{"key":"05566","name":"Steinfurt","type":"Kreis"},"federalState":{"key":"05","name":"Nordrhein-Westfalen"}},{"name":"Auf dem Lohesch","postalCode":"49545","locality":"Tecklenburg","municipality":{"key":"05566088","name":"Tecklenburg, Stadt","type":"Stadt"},"district":{"key":"05566","name":"Steinfurt","type":"Kreis"},"federalState":{"key":"05","name":"Nordrhein-Westfalen"}},{"name":"Auf dem Saatkamp","postalCode":"49545","locality":"Tecklenburg","municipality":{"key":"05566088","name":"Tecklenburg, Stadt","type":"Stadt"},"district":{"key":"05566","name":"Steinfurt","type":"Kreis"},"federalState":{"key":"05","name":"Nordrhein-Westfalen"}},{"name":"Auf dem Tellkamp","postalCode":"49545","locality":"Tecklenburg","municipality":{"key":"05566088","name":"Tecklenburg, Stadt","type":"Stadt"},"district":{"key":"05566","name":"Steinfurt","type":"Kreis"},"federalState":{"key":"05","name":"Nordrhein-Westfalen"}},{"name":"Auf der Breede","postalCode":"49545","locality":"Tecklenburg","municipality":{"key":"05566088","name":"Tecklenburg, Stadt","type":"Stadt"},"district":{"key":"05566","name":"Steinfurt","type":"Kreis"},"federalState":{"key":"05","name":"Nordrhein-Westfalen"}},{"name":"Bachstr.","postalCode":"49545","locality":"Tecklenburg","municipality":{"key":"05566088","name":"Tecklenburg, Stadt","type":"Stadt"},"district":{"key":"05566","name":"Steinfurt","type":"Kreis"},"federalState":{"key":"05","name":"Nordrhein-Westfalen"}},{"name":"Bahnhofstr.","postalCode":"49545","locality":"Tecklenburg","municipality":{"key":"05566088","name":"Tecklenburg, Stadt","type":"Stadt"},"district":{"key":"05566","name":"Steinfurt","type":"Kreis"},"federalState":{"key":"05","name":"Nordrhein-Westfalen"}},{"name":"Berggarten","postalCode":"49545","locality":"Tecklenburg","municipality":{"key":"05566088","name":"Tecklenburg, Stadt","type":"Stadt"},"district":{"key":"05566","name":"Steinfurt","type":"Kreis"},"federalState":{"key":"05","name":"Nordrhein-Westfalen"}},{"name":"Bergstr.","postalCode":"49545","locality":"Tecklenburg","municipality":{"key":"05566088","name":"Tecklenburg, Stadt","type":"Stadt"},"district":{"key":"05566","name":"Steinfurt","type":"Kreis"},"federalState":{"key":"05","name":"Nordrhein-Westfalen"}},{"name":"Berkemeierweg","postalCode":"49545","locality":"Tecklenburg","municipality":{"key":"05566088","name":"Tecklenburg, Stadt","type":"Stadt"},"district":{"key":"05566","name":"Steinfurt","type":"Kreis"},"federalState":{"key":"05","name":"Nordrhein-Westfalen"}},{"name":"Bertolt-Brecht-Str.","postalCode":"49545","locality":"Tecklenburg","municipality":{"key":"05566088","name":"Tecklenburg, Stadt","type":"Stadt"},"district":{"key":"05566","name":"Steinfurt","type":"Kreis"},"federalState":{"key":"05","name":"Nordrhein-Westfalen"}},{"name":"Birkenweg","postalCode":"49545","locality":"Tecklenburg","municipality":{"key":"05566088","name":"Tecklenburg, Stadt","type":"Stadt"},"district":{"key":"05566","name":"Steinfurt","type":"Kreis"},"federalState":{"key":"05","name":"Nordrhein-Westfalen"}},{"name":"Bismarckhöhe","postalCode":"49545","locality":"Tecklenburg","municipality":{"key":"05566088","name":"Tecklenburg, Stadt","type":"Stadt"},"district":{"key":"05566","name":"Steinfurt","type":"Kreis"},"federalState":{"key":"05","name":"Nordrhein-Westfalen"}},{"name":"Blombergweg","postalCode":"49545","locality":"Tecklenburg","municipality":{"key":"05566088","name":"Tecklenburg, Stadt","type":"Stadt"},"district":{"key":"05566","name":"Steinfurt","type":"Kreis"},"federalState":{"key":"05","name":"Nordrhein-Westfalen"}},{"name":"Blumenweg","postalCode":"49545","locality":"Tecklenburg","municipality":{"key":"05566088","name":"Tecklenburg, Stadt","type":"Stadt"},"district":{"key":"05566","name":"Steinfurt","type":"Kreis"},"federalState":{"key":"05","name":"Nordrhein-Westfalen"}},{"name":"Bodelschwinghweg","postalCode":"49545","locality":"Tecklenburg","municipality":{"key":"05566088","name":"Tecklenburg, Stadt","type":"Stadt"},"district":{"key":"05566","name":"Steinfurt","type":"Kreis"},"federalState":{"key":"05","name":"Nordrhein-Westfalen"}},{"name":"Bogenstr.","postalCode":"49545","locality":"Tecklenburg","municipality":{"key":"05566088","name":"Tecklenburg, Stadt","type":"Stadt"},"district":{"key":"05566","name":"Steinfurt","type":"Kreis"},"federalState":{"key":"05","name":"Nordrhein-Westfalen"}},{"name":"Brauerstr.","postalCode":"49545","locality":"Tecklenburg","municipality":{"key":"05566088","name":"Tecklenburg, Stadt","type":"Stadt"},"district":{"key":"05566","name":"Steinfurt","type":"Kreis"},"federalState":{"key":"05","name":"Nordrhein-Westfalen"}},{"name":"Breede","postalCode":"49545","locality":"Tecklenburg","municipality":{"key":"05566088","name":"Tecklenburg, Stadt","type":"Stadt"},"district":{"key":"05566","name":"Steinfurt","type":"Kreis"},"federalState":{"key":"05","name":"Nordrhein-Westfalen"}},{"name":"Breslauer Str.","postalCode":"49545","locality":"Tecklenburg","municipality":{"key":"05566088","name":"Tecklenburg, Stadt","type":"Stadt"},"district":{"key":"05566","name":"Steinfurt","type":"Kreis"},"federalState":{"key":"05","name":"Nordrhein-Westfalen"}},{"name":"Brochterbecker Str.","postalCode":"49545","locality":"Tecklenburg","municipality":{"key":"05566088","name":"Tecklenburg, Stadt","type":"Stadt"},"district":{"key":"05566","name":"Steinfurt","type":"Kreis"},"federalState":{"key":"05","name":"Nordrhein-Westfalen"}},{"name":"Brombeerweg","postalCode":"49545","locality":"Tecklenburg","municipality":{"key":"05566088","name":"Tecklenburg, Stadt","type":"Stadt"},"district":{"key":"05566","name":"Steinfurt","type":"Kreis"},"federalState":{"key":"05","name":"Nordrhein-Westfalen"}},{"name":"Brunnengasse","postalCode":"49545","locality":"Tecklenburg","municipality":{"key":"05566088","name":"Tecklenburg, Stadt","type":"Stadt"},"district":{"key":"05566","name":"Steinfurt","type":"Kreis"},"federalState":{"key":"05","name":"Nordrhein-Westfalen"}},{"name":"Buchenweg","postalCode":"49545","locality":"Tecklenburg","municipality":{"key":"05566088","name":"Tecklenburg, Stadt","type":"Stadt"},"district":{"key":"05566","name":"Steinfurt","type":"Kreis"},"federalState":{"key":"05","name":"Nordrhein-Westfalen"}},{"name":"Bullerskamp","postalCode":"49545","locality":"Tecklenburg","municipality":{"key":"05566088","name":"Tecklenburg, Stadt","type":"Stadt"},"district":{"key":"05566","name":"Steinfurt","type":"Kreis"},"federalState":{"key":"05","name":"Nordrhein-Westfalen"}},{"name":"Bürgergarten","postalCode":"49545","locality":"Tecklenburg","municipality":{"key":"05566088","name":"Tecklenburg, Stadt","type":"Stadt"},"district":{"key":"05566","name":"Steinfurt","type":"Kreis"},"federalState":{"key":"05","name":"Nordrhein-Westfalen"}},{"name":"Carl-Benz-Str.","postalCode":"48565","locality":"Steinfurt","municipality":{"key":"05566084","name":"Steinfurt, Stadt","type":"Stadt"},"district":{"key":"05566","name":"Steinfurt","type":"Kreis"},"federalState":{"key":"05","name":"Nordrhein-Westfalen"}},{"name":"Carl-Friedrich-Goerdeler-Str.","postalCode":"48565","locality":"Steinfurt","municipality":{"key":"05566084","name":"Steinfurt, Stadt","type":"Stadt"},"district":{"key":"05566","name":"Steinfurt","type":"Kreis"},"federalState":{"key":"05","name":"Nordrhein-Westfalen"}},{"name":"Citadelle","postalCode":"48565","locality":"Steinfurt","municipality":{"key":"05566084","name":"Steinfurt, Stadt","type":"Stadt"},"district":{"key":"05566","name":"Steinfurt","type":"Kreis"},"federalState":{"key":"05","name":"Nordrhein-Westfalen"}},{"name":"Clara-Schumann-Str.","postalCode":"48317","locality":"Drensteinfurt","municipality":{"key":"05570016","name":"Drensteinfurt, Stadt","type":"Stadt"},"district":{"key":"05570","name":"Warendorf","type":"Kreis"},"federalState":{"key":"05","name":"Nordrhein-Westfalen"}},{"name":"Clemensstr.","postalCode":"48565","locality":"Steinfurt","municipality":{"key":"05566084","name":"Steinfurt, Stadt","type":"Stadt"},"district":{"key":"05566","name":"Steinfurt","type":"Kreis"},"federalState":{"key":"05","name":"Nordrhein-Westfalen"}},{"name":"Coermannstr.","postalCode":"48565","locality":"Steinfurt","municipality":{"key":"05566084","name":"Steinfurt, Stadt","type":"Stadt"},"district":{"key":"05566","name":"Steinfurt","type":"Kreis"},"federalState":{"key":"05","name":"Nordrhein-Westfalen"}},{"name":"Dachsweg","postalCode":"49545","locality":"Tecklenburg","municipality":{"key":"05566088","name":"Tecklenburg, Stadt","type":"Stadt"},"district":{"key":"05566","name":"Steinfurt","type":"Kreis"},"federalState":{"key":"05","name":"Nordrhein-Westfalen"}},{"name":"Dammweg","postalCode":"49545","locality":"Tecklenburg","municipality":{"key":"05566088","name":"Tecklenburg, Stadt","type":"Stadt"},"district":{"key":"05566","name":"Steinfurt","type":"Kreis"},"federalState":{"key":"05","name":"Nordrhein-Westfalen"}},{"name":"Danebrock","postalCode":"49545","locality":"Tecklenburg","municipality":{"key":"05566088","name":"Tecklenburg, Stadt","type":"Stadt"},"district":{"key":"05566","name":"Steinfurt","type":"Kreis"},"federalState":{"key":"05","name":"Nordrhein-Westfalen"}},{"name":"Danebrocker Esch","postalCode":"49545","locality":"Tecklenburg","municipality":{"key":"05566088","name":"Tecklenburg, Stadt","type":"Stadt"},"district":{"key":"05566","name":"Steinfurt","type":"Kreis"},"federalState":{"key":"05","name":"Nordrhein-Westfalen"}},{"name":"Danziger Str.","postalCode":"49545","locality":"Tecklenburg","municipality":{"key":"05566088","name":"Tecklenburg, Stadt","type":"Stadt"},"district":{"key":"05566","name":"Steinfurt","type":"Kreis"},"federalState":{"key":"05","name":"Nordrhein-Westfalen"}},{"name":"Diepenbroikweg","postalCode":"49545","locality":"Tecklenburg","municipality":{"key":"05566088","name":"Tecklenburg, Stadt","type":"Stadt"},"district":{"key":"05566","name":"Steinfurt","type":"Kreis"},"federalState":{"key":"05","name":"Nordrhein-Westfalen"}},{"name":"Dinkelkamp","postalCode":"49545","locality":"Tecklenburg","municipality":{"key":"05566088","name":"Tecklenburg, Stadt","type":"Stadt"},"district":{"key":"05566","name":"Steinfurt","type":"Kreis"},"federalState":{"key":"05","name":"Nordrhein-Westfalen"}},{"name":"Dörenther Str.","postalCode":"49545","locality":"Tecklenburg","municipality":{"key":"05566088","name":"Tecklenburg, Stadt","type":"Stadt"},"district":{"key":"05566","name":"Steinfurt","type":"Kreis"},"federalState":{"key":"05","name":"Nordrhein-Westfalen"}},{"name":"Dorfstr.","postalCode":"49545","locality":"Tecklenburg","municipality":{"key":"05566088","name":"Tecklenburg, Stadt","type":"Stadt"},"district":{"key":"05566","name":"Steinfurt","type":"Kreis"},"federalState":{"key":"05","name":"Nordrhein-Westfalen"}},{"name":"Duwensteene","postalCode":"49545","locality":"Tecklenburg","municipality":{"key":"05566088","name":"Tecklenburg, Stadt","type":"Stadt"},"district":{"key":"05566","name":"Steinfurt","type":"Kreis"},"federalState":{"key":"05","name":"Nordrhein-Westfalen"}},{"name":"Eichenreihe","postalCode":"49545","locality":"Tecklenburg","municipality":{"key":"05566088","name":"Tecklenburg, Stadt","type":"Stadt"},"district":{"key":"05566","name":"Steinfurt","type":"Kreis"},"federalState":{"key":"05","name":"Nordrhein-Westfalen"}},{"name":"Einhornweg","postalCode":"49545","locality":"Tecklenburg","municipality":{"key":"05566088","name":"Tecklenburg, Stadt","type":"Stadt"},"district":{"key":"05566","name":"Steinfurt","type":"Kreis"},"federalState":{"key":"05","name":"Nordrhein-Westfalen"}},{"name":"Ekenhoff","postalCode":"49545","locality":"Tecklenburg","municipality":{"key":"05566088","name":"Tecklenburg, Stadt","type":"Stadt"},"district":{"key":"05566","name":"Steinfurt","type":"Kreis"},"federalState":{"key":"05","name":"Nordrhein-Westfalen"}},{"name":"Elbinger Str.","postalCode":"49545","locality":"Tecklenburg","municipality":{"key":"05566088","name":"Tecklenburg, Stadt","type":"Stadt"},"district":{"key":"05566","name":"Steinfurt","type":"Kreis"},"federalState":{"key":"05","name":"Nordrhein-Westfalen"}},{"name":"Erich-Kästner-Str.","postalCode":"49545","locality":"Tecklenburg","municipality":{"key":"05566088","name":"Tecklenburg, Stadt","type":"Stadt"},"district":{"key":"05566","name":"Steinfurt","type":"Kreis"},"federalState":{"key":"05","name":"Nordrhein-Westfalen"}},{"name":"Erlengrund","postalCode":"49545","locality":"Tecklenburg","municipality":{"key":"05566088","name":"Tecklenburg, Stadt","type":"Stadt"},"district":{"key":"05566","name":"Steinfurt","type":"Kreis"},"federalState":{"key":"05","name":"Nordrhein-Westfalen"}},{"name":"Felsenstiege","postalCode":"49545","locality":"Tecklenburg","municipality":{"key":"05566088","name":"Tecklenburg, Stadt","type":"Stadt"},"district":{"key":"05566","name":"Steinfurt","type":"Kreis"},"federalState":{"key":"05","name":"Nordrhein-Westfalen"}},{"name":"Fliederweg","postalCode":"49545","locality":"Tecklenburg","municipality":{"key":"05566088","name":"Tecklenburg, Stadt","type":"Stadt"},"district":{"key":"05566","name":"Steinfurt","type":"Kreis"},"federalState":{"key":"05","name":"Nordrhein-Westfalen"}},{"name":"Florenz Peters Platz","postalCode":"49545","locality":"Tecklenburg","municipality":{"key":"05566088","name":"Tecklenburg, Stadt","type":"Stadt"},"district":{"key":"05566","name":"Steinfurt","type":"Kreis"},"federalState":{"key":"05","name":"Nordrhein-Westfalen"}},{"name":"Flottwellstr.","postalCode":"49545","locality":"Tecklenburg","municipality":{"key":"05566088","name":"Tecklenburg, Stadt","type":"Stadt"},"district":{"key":"05566","name":"Steinfurt","type":"Kreis"},"federalState":{"key":"05","name":"Nordrhein-Westfalen"}},{"name":"Fröbelstr.","postalCode":"49545","locality":"Tecklenburg","municipality":{"key":"05566088","name":"Tecklenburg, Stadt","type":"Stadt"},"district":{"key":"05566","name":"Steinfurt","type":"Kreis"},"federalState":{"key":"05","name":"Nordrhein-Westfalen"}},{"name":"Fürstenstr.","postalCode":"49545","locality":"Tecklenburg","municipality":{"key":"05566088","name":"Tecklenburg, Stadt","type":"Stadt"},"district":{"key":"05566","name":"Steinfurt","type":"Kreis"},"federalState":{"key":"05","name":"Nordrhein-Westfalen"}},{"name":"Gartenstr.","postalCode":"49545","locality":"Tecklenburg","municipality":{"key":"05566088","name":"Tecklenburg, Stadt","type":"Stadt"},"district":{"key":"05566","name":"Steinfurt","type":"Kreis"},"federalState":{"key":"05","name":"Nordrhein-Westfalen"}},{"name":"Gerstenstr.","postalCode":"49545","locality":"Tecklenburg","municipality":{"key":"05566088","name":"Tecklenburg, Stadt","type":"Stadt"},"district":{"key":"05566","name":"Steinfurt","type":"Kreis"},"federalState":{"key":"05","name":"Nordrhein-Westfalen"}},{"name":"Gildestr.","postalCode":"49545","locality":"Tecklenburg","municipality":{"key":"05566088","name":"Tecklenburg, Stadt","type":"Stadt"},"district":{"key":"05566","name":"Steinfurt","type":"Kreis"},"federalState":{"key":"05","name":"Nordrhein-Westfalen"}},{"name":"Grafenstr.","postalCode":"49545","locality":"Tecklenburg","municipality":{"key":"05566088","name":"Tecklenburg, Stadt","type":"Stadt"},"district":{"key":"05566","name":"Steinfurt","type":"Kreis"},"federalState":{"key":"05","name":"Nordrhein-Westfalen"}},{"name":"Gräfin-Anna-Str.","postalCode":"49545","locality":"Tecklenburg","municipality":{"key":"05566088","name":"Tecklenburg, Stadt","type":"Stadt"},"district":{"key":"05566","name":"Steinfurt","type":"Kreis"},"federalState":{"key":"05","name":"Nordrhein-Westfalen"}},{"name":"Grüner Weg","postalCode":"49545","locality":"Tecklenburg","municipality":{"key":"05566088","name":"Tecklenburg, Stadt","type":"Stadt"},"district":{"key":"05566","name":"Steinfurt","type":"Kreis"},"federalState":{"key":"05","name":"Nordrhein-Westfalen"}},{"name":"Haeselerweg","postalCode":"49545","locality":"Tecklenburg","municipality":{"key":"05566088","name":"Tecklenburg, Stadt","type":"Stadt"},"district":{"key":"05566","name":"Steinfurt","type":"Kreis"},"federalState":{"key":"05","name":"Nordrhein-Westfalen"}},{"name":"Haferweg","postalCode":"49545","locality":"Tecklenburg","municipality":{"key":"05566088","name":"Tecklenburg, Stadt","type":"Stadt"},"district":{"key":"05566","name":"Steinfurt","type":"Kreis"},"federalState":{"key":"05","name":"Nordrhein-Westfalen"}},{"name":"Hagelstr.","postalCode":"49545","locality":"Tecklenburg","municipality":{"key":"05566088","name":"Tecklenburg, Stadt","type":"Stadt"},"district":{"key":"05566","name":"Steinfurt","type":"Kreis"},"federalState":{"key":"05","name":"Nordrhein-Westfalen"}},{"name":"Hagenbergweg","postalCode":"49545","locality":"Tecklenburg","municipality":{"key":"05566088","name":"Tecklenburg, Stadt","type":"Stadt"},"district":{"key":"05566","name":"Steinfurt","type":"Kreis"},"federalState":{"key":"05","name":"Nordrhein-Westfalen"}},{"name":"Halspatt","postalCode":"49545","locality":"Tecklenburg","municipality":{"key":"05566088","name":"Tecklenburg, Stadt","type":"Stadt"},"district":{"key":"05566","name":"Steinfurt","type":"Kreis"},"federalState":{"key":"05","name":"Nordrhein-Westfalen"}},{"name":"Handal","postalCode":"49545","locality":"Tecklenburg","municipality":{"key":"05566088","name":"Tecklenburg, Stadt","type":"Stadt"},"district":{"key":"05566","name":"Steinfurt","type":"Kreis"},"federalState":{"key":"05","name":"Nordrhein-Westfalen"}},{"name":"Harkenstr.","postalCode":"49545","locality":"Tecklenburg","municipality":{"key":"05566088","name":"Tecklenburg, Stadt","type":"Stadt"},"district":{"key":"05566","name":"Steinfurt","type":"Kreis"},"federalState":{"key":"05","name":"Nordrhein-Westfalen"}},{"name":"Hasbergener Str.","postalCode":"49545","locality":"Tecklenburg","municipality":{"key":"05566088","name":"Tecklenburg, Stadt","type":"Stadt"},"district":{"key":"05566","name":"Steinfurt","type":"Kreis"},"federalState":{"key":"05","name":"Nordrhein-Westfalen"}},{"name":"Haus Hülshoff","postalCode":"49545","locality":"Tecklenburg","municipality":{"key":"05566088","name":"Tecklenburg, Stadt","type":"Stadt"},"district":{"key":"05566","name":"Steinfurt","type":"Kreis"},"federalState":{"key":"05","name":"Nordrhein-Westfalen"}},{"name":"Heckenweg","postalCode":"49545","locality":"Tecklenburg","municipality":{"key":"05566088","name":"Tecklenburg, Stadt","type":"Stadt"},"district":{"key":"05566","name":"Steinfurt","type":"Kreis"},"federalState":{"key":"05","name":"Nordrhein-Westfalen"}},{"name":"Heideweg","postalCode":"49545","locality":"Tecklenburg","municipality":{"key":"05566088","name":"Tecklenburg, Stadt","type":"Stadt"},"district":{"key":"05566","name":"Steinfurt","type":"Kreis"},"federalState":{"key":"05","name":"Nordrhein-Westfalen"}},{"name":"Helmeskamp","postalCode":"49545","locality":"Tecklenburg","municipality":{"key":"05566088","name":"Tecklenburg, Stadt","type":"Stadt"},"district":{"key":"05566","name":"Steinfurt","type":"Kreis"},"federalState":{"key":"05","name":"Nordrhein-Westfalen"}},{"name":"Herkenstr.","postalCode":"49545","locality":"Tecklenburg","municipality":{"key":"05566088","name":"Tecklenburg, Stadt","type":"Stadt"},"district":{"key":"05566","name":"Steinfurt","type":"Kreis"},"federalState":{"key":"05","name":"Nordrhein-Westfalen"}},{"name":"Hermannsweg","postalCode":"49545","locality":"Tecklenburg","municipality":{"key":"05566088","name":"Tecklenburg, Stadt","type":"Stadt"},"district":{"key":"05566","name":"Steinfurt","type":"Kreis"},"federalState":{"key":"05","name":"Nordrhein-Westfalen"}},{"name":"Herrengarten","postalCode":"49545","locality":"Tecklenburg","municipality":{"key":"05566088","name":"Tecklenburg, Stadt","type":"Stadt"},"district":{"key":"05566","name":"Steinfurt","type":"Kreis"},"federalState":{"key":"05","name":"Nordrhein-Westfalen"}},{"name":"Heuweg","postalCode":"49545","locality":"Tecklenburg","municipality":{"key":"05566088","name":"Tecklenburg, Stadt","type":"Stadt"},"district":{"key":"05566","name":"Steinfurt","type":"Kreis"},"federalState":{"key":"05","name":"Nordrhein-Westfalen"}},{"name":"Hofbauers Kamp","postalCode":"49545","locality":"Tecklenburg","municipality":{"key":"05566088","name":"Tecklenburg, Stadt","type":"Stadt"},"district":{"key":"05566","name":"Steinfurt","type":"Kreis"},"federalState":{"key":"05","name":"Nordrhein-Westfalen"}},{"name":"Höhenweg","postalCode":"49545","locality":"Tecklenburg","municipality":{"key":"05566088","name":"Tecklenburg, Stadt","type":"Stadt"},"district":{"key":"05566","name":"Steinfurt","type":"Kreis"},"federalState":{"key":"05","name":"Nordrhein-Westfalen"}},{"name":"Holthausen","postalCode":"49545","locality":"Tecklenburg","municipality":{"key":"05566088","name":"Tecklenburg, Stadt","type":"Stadt"},"district":{"key":"05566","name":"Steinfurt","type":"Kreis"},"federalState":{"key":"05","name":"Nordrhein-Westfalen"}},{"name":"Holthauser Weg","postalCode":"49545","locality":"Tecklenburg","municipality":{"key":"05566088","name":"Tecklenburg, Stadt","type":"Stadt"},"district":{"key":"05566","name":"Steinfurt","type":"Kreis"},"federalState":{"key":"05","name":"Nordrhein-Westfalen"}},{"name":"Horstmersch","postalCode":"49545","locality":"Tecklenburg","municipality":{"key":"05566088","name":"Tecklenburg, Stadt","type":"Stadt"},"district":{"key":"05566","name":"Steinfurt","type":"Kreis"},"federalState":{"key":"05","name":"Nordrhein-Westfalen"}},{"name":"Howesträßchen","postalCode":"49545","locality":"Tecklenburg","municipality":{"key":"05566088","name":"Tecklenburg, Stadt","type":"Stadt"},"district":{"key":"05566","name":"Steinfurt","type":"Kreis"},"federalState":{"key":"05","name":"Nordrhein-Westfalen"}},{"name":"Ibbenbürener Str.","postalCode":"49545","locality":"Tecklenburg","municipality":{"key":"05566088","name":"Tecklenburg, Stadt","type":"Stadt"},"district":{"key":"05566","name":"Steinfurt","type":"Kreis"},"federalState":{"key":"05","name":"Nordrhein-Westfalen"}},{"name":"Im Bocketal","postalCode":"49545","locality":"Tecklenburg","municipality":{"key":"05566088","name":"Tecklenburg, Stadt","type":"Stadt"},"district":{"key":"05566","name":"Steinfurt","type":"Kreis"},"federalState":{"key":"05","name":"Nordrhein-Westfalen"}},{"name":"Im Brook","postalCode":"49545","locality":"Tecklenburg","municipality":{"key":"05566088","name":"Tecklenburg, Stadt","type":"Stadt"},"district":{"key":"05566","name":"Steinfurt","type":"Kreis"},"federalState":{"key":"05","name":"Nordrhein-Westfalen"}},{"name":"Im Esch","postalCode":"49545","locality":"Tecklenburg","municipality":{"key":"05566088","name":"Tecklenburg, Stadt","type":"Stadt"},"district":{"key":"05566","name":"Steinfurt","type":"Kreis"},"federalState":{"key":"05","name":"Nordrhein-Westfalen"}},{"name":"Im Grund","postalCode":"49545","locality":"Tecklenburg","municipality":{"key":"05566088","name":"Tecklenburg, Stadt","type":"Stadt"},"district":{"key":"05566","name":"Steinfurt","type":"Kreis"},"federalState":{"key":"05","name":"Nordrhein-Westfalen"}},{"name":"Im Kohlgarten","postalCode":"49545","locality":"Tecklenburg","municipality":{"key":"05566088","name":"Tecklenburg, Stadt","type":"Stadt"},"district":{"key":"05566","name":"Steinfurt","type":"Kreis"},"federalState":{"key":"05","name":"Nordrhein-Westfalen"}},{"name":"Immensträßchen","postalCode":"49545","locality":"Tecklenburg","municipality":{"key":"05566088","name":"Tecklenburg, Stadt","type":"Stadt"},"district":{"key":"05566","name":"Steinfurt","type":"Kreis"},"federalState":{"key":"05","name":"Nordrhein-Westfalen"}},{"name":"Im Winkel","postalCode":"49545","locality":"Tecklenburg","municipality":{"key":"05566088","name":"Tecklenburg, Stadt","type":"Stadt"},"district":{"key":"05566","name":"Steinfurt","type":"Kreis"},"federalState":{"key":"05","name":"Nordrhein-Westfalen"}},{"name":"In der Sandkuhle","postalCode":"49545","locality":"Tecklenburg","municipality":{"key":"05566088","name":"Tecklenburg, Stadt","type":"Stadt"},"district":{"key":"05566","name":"Steinfurt","type":"Kreis"},"federalState":{"key":"05","name":"Nordrhein-Westfalen"}},{"name":"Jahnstr.","postalCode":"49545","locality":"Tecklenburg","municipality":{"key":"05566088","name":"Tecklenburg, Stadt","type":"Stadt"},"district":{"key":"05566","name":"Steinfurt","type":"Kreis"},"federalState":{"key":"05","name":"Nordrhein-Westfalen"}},{"name":"Kampstr.","postalCode":"49545","locality":"Tecklenburg","municipality":{"key":"05566088","name":"Tecklenburg, Stadt","type":"Stadt"},"district":{"key":"05566","name":"Steinfurt","type":"Kreis"},"federalState":{"key":"05","name":"Nordrhein-Westfalen"}},{"name":"Kastanienweg","postalCode":"49545","locality":"Tecklenburg","municipality":{"key":"05566088","name":"Tecklenburg, Stadt","type":"Stadt"},"district":{"key":"05566","name":"Steinfurt","type":"Kreis"},"federalState":{"key":"05","name":"Nordrhein-Westfalen"}},{"name":"Kernerstr.","postalCode":"49545","locality":"Tecklenburg","municipality":{"key":"05566088","name":"Tecklenburg, Stadt","type":"Stadt"},"district":{"key":"05566","name":"Steinfurt","type":"Kreis"},"federalState":{"key":"05","name":"Nordrhein-Westfalen"}},{"name":"Kieselings Kamp","postalCode":"49545","locality":"Tecklenburg","municipality":{"key":"05566088","name":"Tecklenburg, Stadt","type":"Stadt"},"district":{"key":"05566","name":"Steinfurt","type":"Kreis"},"federalState":{"key":"05","name":"Nordrhein-Westfalen"}},{"name":"Kirchpatt","postalCode":"49545","locality":"Tecklenburg","municipality":{"key":"05566088","name":"Tecklenburg, Stadt","type":"Stadt"},"district":{"key":"05566","name":"Steinfurt","type":"Kreis"},"federalState":{"key":"05","name":"Nordrhein-Westfalen"}},{"name":"Kirchpfad","postalCode":"49545","locality":"Tecklenburg","municipality":{"key":"05566088","name":"Tecklenburg, Stadt","type":"Stadt"},"district":{"key":"05566","name":"Steinfurt","type":"Kreis"},"federalState":{"key":"05","name":"Nordrhein-Westfalen"}},{"name":"Kirchplatz","postalCode":"49545","locality":"Tecklenburg","municipality":{"key":"05566088","name":"Tecklenburg, Stadt","type":"Stadt"},"district":{"key":"05566","name":"Steinfurt","type":"Kreis"},"federalState":{"key":"05","name":"Nordrhein-Westfalen"}},{"name":"Kleeberg","postalCode":"49545","locality":"Tecklenburg","municipality":{"key":"05566088","name":"Tecklenburg, Stadt","type":"Stadt"},"district":{"key":"05566","name":"Steinfurt","type":"Kreis"},"federalState":{"key":"05","name":"Nordrhein-Westfalen"}},{"name":"Kleebusch","postalCode":"49545","locality":"Tecklenburg","municipality":{"key":"05566088","name":"Tecklenburg, Stadt","type":"Stadt"},"district":{"key":"05566","name":"Steinfurt","type":"Kreis"},"federalState":{"key":"05","name":"Nordrhein-Westfalen"}},{"name":"Kleeweg","postalCode":"49545","locality":"Tecklenburg","municipality":{"key":"05566088","name":"Tecklenburg, Stadt","type":"Stadt"},"district":{"key":"05566","name":"Steinfurt","type":"Kreis"},"federalState":{"key":"05","name":"Nordrhein-Westfalen"}},{"name":"Knoblauchsberg","postalCode":"49545","locality":"Tecklenburg","municipality":{"key":"05566088","name":"Tecklenburg, Stadt","type":"Stadt"},"district":{"key":"05566","name":"Steinfurt","type":"Kreis"},"federalState":{"key":"05","name":"Nordrhein-Westfalen"}},{"name":"Kolpingstr.","postalCode":"49545","locality":"Tecklenburg","municipality":{"key":"05566088","name":"Tecklenburg, Stadt","type":"Stadt"},"district":{"key":"05566","name":"Steinfurt","type":"Kreis"},"federalState":{"key":"05","name":"Nordrhein-Westfalen"}},{"name":"Königsberger Str.","postalCode":"49545","locality":"Tecklenburg","municipality":{"key":"05566088","name":"Tecklenburg, Stadt","type":"Stadt"},"district":{"key":"05566","name":"Steinfurt","type":"Kreis"},"federalState":{"key":"05","name":"Nordrhein-Westfalen"}},{"name":"Königstr.","postalCode":"49545","locality":"Tecklenburg","municipality":{"key":"05566088","name":"Tecklenburg, Stadt","type":"Stadt"},"district":{"key":"05566","name":"Steinfurt","type":"Kreis"},"federalState":{"key":"05","name":"Nordrhein-Westfalen"}},{"name":"Konradstr.","postalCode":"49545","locality":"Tecklenburg","municipality":{"key":"05566088","name":"Tecklenburg, Stadt","type":"Stadt"},"district":{"key":"05566","name":"Steinfurt","type":"Kreis"},"federalState":{"key":"05","name":"Nordrhein-Westfalen"}},{"name":"Kornstr.","postalCode":"49545","locality":"Tecklenburg","municipality":{"key":"05566088","name":"Tecklenburg, Stadt","type":"Stadt"},"district":{"key":"05566","name":"Steinfurt","type":"Kreis"},"federalState":{"key":"05","name":"Nordrhein-Westfalen"}},{"name":"Kräutergarten","postalCode":"49545","locality":"Tecklenburg","municipality":{"key":"05566088","name":"Tecklenburg, Stadt","type":"Stadt"},"district":{"key":"05566","name":"Steinfurt","type":"Kreis"},"federalState":{"key":"05","name":"Nordrhein-Westfalen"}},{"name":"Kurpark, Landschaftspark","postalCode":"49545","locality":"Tecklenburg","municipality":{"key":"05566088","name":"Tecklenburg, Stadt","type":"Stadt"},"district":{"key":"05566","name":"Steinfurt","type":"Kreis"},"federalState":{"key":"05","name":"Nordrhein-Westfalen"}},{"name":"Landrat-Schultz-Str.","postalCode":"49545","locality":"Tecklenburg","municipality":{"key":"05566088","name":"Tecklenburg, Stadt","type":"Stadt"},"district":{"key":"05566","name":"Steinfurt","type":"Kreis"},"federalState":{"key":"05","name":"Nordrhein-Westfalen"}},{"name":"Laufkamp","postalCode":"49545","locality":"Tecklenburg","municipality":{"key":"05566088","name":"Tecklenburg, Stadt","type":"Stadt"},"district":{"key":"05566","name":"Steinfurt","type":"Kreis"},"federalState":{"key":"05","name":"Nordrhein-Westfalen"}},{"name":"Ledder Dorfstr.","postalCode":"49545","locality":"Tecklenburg","municipality":{"key":"05566088","name":"Tecklenburg, Stadt","type":"Stadt"},"district":{"key":"05566","name":"Steinfurt","type":"Kreis"},"federalState":{"key":"05","name":"Nordrhein-Westfalen"}},{"name":"Ledder Mühlenweg","postalCode":"49545","locality":"Tecklenburg","municipality":{"key":"05566088","name":"Tecklenburg, Stadt","type":"Stadt"},"district":{"key":"05566","name":"Steinfurt","type":"Kreis"},"federalState":{"key":"05","name":"Nordrhein-Westfalen"}},{"name":"Leedener Str.","postalCode":"49545","locality":"Tecklenburg","municipality":{"key":"05566088","name":"Tecklenburg, Stadt","type":"Stadt"},"district":{"key":"05566","name":"Steinfurt","type":"Kreis"},"federalState":{"key":"05","name":"Nordrhein-Westfalen"}},{"name":"Lengericher Damm","postalCode":"49545","locality":"Tecklenburg","municipality":{"key":"05566088","name":"Tecklenburg, Stadt","type":"Stadt"},"district":{"key":"05566","name":"Steinfurt","type":"Kreis"},"federalState":{"key":"05","name":"Nordrhein-Westfalen"}},{"name":"Lengericher Str.","postalCode":"49545","locality":"Tecklenburg","municipality":{"key":"05566088","name":"Tecklenburg, Stadt","type":"Stadt"},"district":{"key":"05566","name":"Steinfurt","type":"Kreis"},"federalState":{"key":"05","name":"Nordrhein-Westfalen"}},{"name":"Lindenstr.","postalCode":"49545","locality":"Tecklenburg","municipality":{"key":"05566088","name":"Tecklenburg, Stadt","type":"Stadt"},"district":{"key":"05566","name":"Steinfurt","type":"Kreis"},"federalState":{"key":"05","name":"Nordrhein-Westfalen"}},{"name":"Lohgarten","postalCode":"49545","locality":"Tecklenburg","municipality":{"key":"05566088","name":"Tecklenburg, Stadt","type":"Stadt"},"district":{"key":"05566","name":"Steinfurt","type":"Kreis"},"federalState":{"key":"05","name":"Nordrhein-Westfalen"}},{"name":"Lotter Str.","postalCode":"49545","locality":"Tecklenburg","municipality":{"key":"05566088","name":"Tecklenburg, Stadt","type":"Stadt"},"district":{"key":"05566","name":"Steinfurt","type":"Kreis"},"federalState":{"key":"05","name":"Nordrhein-Westfalen"}},{"name":"Marcker Esch","postalCode":"49545","locality":"Tecklenburg","municipality":{"key":"05566088","name":"Tecklenburg, Stadt","type":"Stadt"},"district":{"key":"05566","name":"Steinfurt","type":"Kreis"},"federalState":{"key":"05","name":"Nordrhein-Westfalen"}},{"name":"Masurenweg","postalCode":"49545","locality":"Tecklenburg","municipality":{"key":"05566088","name":"Tecklenburg, Stadt","type":"Stadt"},"district":{"key":"05566","name":"Steinfurt","type":"Kreis"},"federalState":{"key":"05","name":"Nordrhein-Westfalen"}},{"name":"Meesenburg","postalCode":"49545","locality":"Tecklenburg","municipality":{"key":"05566088","name":"Tecklenburg, Stadt","type":"Stadt"},"district":{"key":"05566","name":"Steinfurt","type":"Kreis"},"federalState":{"key":"05","name":"Nordrhein-Westfalen"}},{"name":"Meesenhof","postalCode":"49545","locality":"Tecklenburg","municipality":{"key":"05566088","name":"Tecklenburg, Stadt","type":"Stadt"},"district":{"key":"05566","name":"Steinfurt","type":"Kreis"},"federalState":{"key":"05","name":"Nordrhein-Westfalen"}},{"name":"Meisenweg","postalCode":"49545","locality":"Tecklenburg","municipality":{"key":"05566088","name":"Tecklenburg, Stadt","type":"Stadt"},"district":{"key":"05566","name":"Steinfurt","type":"Kreis"},"federalState":{"key":"05","name":"Nordrhein-Westfalen"}},{"name":"Memeler Str.","postalCode":"49545","locality":"Tecklenburg","municipality":{"key":"05566088","name":"Tecklenburg, Stadt","type":"Stadt"},"district":{"key":"05566","name":"Steinfurt","type":"Kreis"},"federalState":{"key":"05","name":"Nordrhein-Westfalen"}},{"name":"Merschweg","postalCode":"49545","locality":"Tecklenburg","municipality":{"key":"05566088","name":"Tecklenburg, Stadt","type":"Stadt"},"district":{"key":"05566","name":"Steinfurt","type":"Kreis"},"federalState":{"key":"05","name":"Nordrhein-Westfalen"}},{"name":"Moorstr.","postalCode":"49545","locality":"Tecklenburg","municipality":{"key":"05566088","name":"Tecklenburg, Stadt","type":"Stadt"},"district":{"key":"05566","name":"Steinfurt","type":"Kreis"},"federalState":{"key":"05","name":"Nordrhein-Westfalen"}},{"name":"Natrup-Hagener-Str.","postalCode":"49545","locality":"Tecklenburg","municipality":{"key":"05566088","name":"Tecklenburg, Stadt","type":"Stadt"},"district":{"key":"05566","name":"Steinfurt","type":"Kreis"},"federalState":{"key":"05","name":"Nordrhein-Westfalen"}},{"name":"Niederdorf","postalCode":"49545","locality":"Tecklenburg","municipality":{"key":"05566088","name":"Tecklenburg, Stadt","type":"Stadt"},"district":{"key":"05566","name":"Steinfurt","type":"Kreis"},"federalState":{"key":"05","name":"Nordrhein-Westfalen"}},{"name":"Niederdorfer Str.","postalCode":"49545","locality":"Tecklenburg","municipality":{"key":"05566088","name":"Tecklenburg, Stadt","type":"Stadt"},"district":{"key":"05566","name":"Steinfurt","type":"Kreis"},"federalState":{"key":"05","name":"Nordrhein-Westfalen"}},{"name":"Oberbauer","postalCode":"49545","locality":"Tecklenburg","municipality":{"key":"05566088","name":"Tecklenburg, Stadt","type":"Stadt"},"district":{"key":"05566","name":"Steinfurt","type":"Kreis"},"federalState":{"key":"05","name":"Nordrhein-Westfalen"}},{"name":"Osnabrücker Str.","postalCode":"49545","locality":"Tecklenburg","municipality":{"key":"05566088","name":"Tecklenburg, Stadt","type":"Stadt"},"district":{"key":"05566","name":"Steinfurt","type":"Kreis"},"federalState":{"key":"05","name":"Nordrhein-Westfalen"}},{"name":"Osterledder Str.","postalCode":"49545","locality":"Tecklenburg","municipality":{"key":"05566088","name":"Tecklenburg, Stadt","type":"Stadt"},"district":{"key":"05566","name":"Steinfurt","type":"Kreis"},"federalState":{"key":"05","name":"Nordrhein-Westfalen"}},{"name":"Ostlandweg","postalCode":"49545","locality":"Tecklenburg","municipality":{"key":"05566088","name":"Tecklenburg, Stadt","type":"Stadt"},"district":{"key":"05566","name":"Steinfurt","type":"Kreis"},"federalState":{"key":"05","name":"Nordrhein-Westfalen"}},{"name":"Pagenstr.","postalCode":"49545","locality":"Tecklenburg","municipality":{"key":"05566088","name":"Tecklenburg, Stadt","type":"Stadt"},"district":{"key":"05566","name":"Steinfurt","type":"Kreis"},"federalState":{"key":"05","name":"Nordrhein-Westfalen"}},{"name":"Pappelweg","postalCode":"49545","locality":"Tecklenburg","municipality":{"key":"05566088","name":"Tecklenburg, Stadt","type":"Stadt"},"district":{"key":"05566","name":"Steinfurt","type":"Kreis"},"federalState":{"key":"05","name":"Nordrhein-Westfalen"}},{"name":"Pattbreede","postalCode":"49545","locality":"Tecklenburg","municipality":{"key":"05566088","name":"Tecklenburg, Stadt","type":"Stadt"},"district":{"key":"05566","name":"Steinfurt","type":"Kreis"},"federalState":{"key":"05","name":"Nordrhein-Westfalen"}},{"name":"Petersberg","postalCode":"49545","locality":"Tecklenburg","municipality":{"key":"05566088","name":"Tecklenburg, Stadt","type":"Stadt"},"district":{"key":"05566","name":"Steinfurt","type":"Kreis"},"federalState":{"key":"05","name":"Nordrhein-Westfalen"}},{"name":"Pfarrer-Höhn-Str.","postalCode":"49545","locality":"Tecklenburg","municipality":{"key":"05566088","name":"Tecklenburg, Stadt","type":"Stadt"},"district":{"key":"05566","name":"Steinfurt","type":"Kreis"},"federalState":{"key":"05","name":"Nordrhein-Westfalen"}},{"name":"Pferdekamp","postalCode":"49545","locality":"Tecklenburg","municipality":{"key":"05566088","name":"Tecklenburg, Stadt","type":"Stadt"},"district":{"key":"05566","name":"Steinfurt","type":"Kreis"},"federalState":{"key":"05","name":"Nordrhein-Westfalen"}},{"name":"Pottlehmplatz","postalCode":"49545","locality":"Tecklenburg","municipality":{"key":"05566088","name":"Tecklenburg, Stadt","type":"Stadt"},"district":{"key":"05566","name":"Steinfurt","type":"Kreis"},"federalState":{"key":"05","name":"Nordrhein-Westfalen"}},{"name":"Roggenkamp","postalCode":"49545","locality":"Tecklenburg","municipality":{"key":"05566088","name":"Tecklenburg, Stadt","type":"Stadt"},"district":{"key":"05566","name":"Steinfurt","type":"Kreis"},"federalState":{"key":"05","name":"Nordrhein-Westfalen"}},{"name":"Rosengarten","postalCode":"49545","locality":"Tecklenburg","municipality":{"key":"05566088","name":"Tecklenburg, Stadt","type":"Stadt"},"district":{"key":"05566","name":"Steinfurt","type":"Kreis"},"federalState":{"key":"05","name":"Nordrhein-Westfalen"}},{"name":"Rosenstr.","postalCode":"49545","locality":"Tecklenburg","municipality":{"key":"05566088","name":"Tecklenburg, Stadt","type":"Stadt"},"district":{"key":"05566","name":"Steinfurt","type":"Kreis"},"federalState":{"key":"05","name":"Nordrhein-Westfalen"}},{"name":"Röwekamp","postalCode":"49545","locality":"Tecklenburg","municipality":{"key":"05566088","name":"Tecklenburg, Stadt","type":"Stadt"},"district":{"key":"05566","name":"Steinfurt","type":"Kreis"},"federalState":{"key":"05","name":"Nordrhein-Westfalen"}},{"name":"Saatkamps Knapp","postalCode":"49545","locality":"Tecklenburg","municipality":{"key":"05566088","name":"Tecklenburg, Stadt","type":"Stadt"},"district":{"key":"05566","name":"Steinfurt","type":"Kreis"},"federalState":{"key":"05","name":"Nordrhein-Westfalen"}},{"name":"Saerbecker Damm","postalCode":"49545","locality":"Tecklenburg","municipality":{"key":"05566088","name":"Tecklenburg, Stadt","type":"Stadt"},"district":{"key":"05566","name":"Steinfurt","type":"Kreis"},"federalState":{"key":"05","name":"Nordrhein-Westfalen"}},{"name":"Salm-Horstmar-Str.","postalCode":"49545","locality":"Tecklenburg","municipality":{"key":"05566088","name":"Tecklenburg, Stadt","type":"Stadt"},"district":{"key":"05566","name":"Steinfurt","type":"Kreis"},"federalState":{"key":"05","name":"Nordrhein-Westfalen"}},{"name":"Samlandstr.","postalCode":"49545","locality":"Tecklenburg","municipality":{"key":"05566088","name":"Tecklenburg, Stadt","type":"Stadt"},"district":{"key":"05566","name":"Steinfurt","type":"Kreis"},"federalState":{"key":"05","name":"Nordrhein-Westfalen"}},{"name":"Sandstr.","postalCode":"49545","locality":"Tecklenburg","municipality":{"key":"05566088","name":"Tecklenburg, Stadt","type":"Stadt"},"district":{"key":"05566","name":"Steinfurt","type":"Kreis"},"federalState":{"key":"05","name":"Nordrhein-Westfalen"}},{"name":"Schlesier Weg","postalCode":"49545","locality":"Tecklenburg","municipality":{"key":"05566088","name":"Tecklenburg, Stadt","type":"Stadt"},"district":{"key":"05566","name":"Steinfurt","type":"Kreis"},"federalState":{"key":"05","name":"Nordrhein-Westfalen"}},{"name":"Schloßstr.","postalCode":"49545","locality":"Tecklenburg","municipality":{"key":"05566088","name":"Tecklenburg, Stadt","type":"Stadt"},"district":{"key":"05566","name":"Steinfurt","type":"Kreis"},"federalState":{"key":"05","name":"Nordrhein-Westfalen"}},{"name":"Sieklandstr.","postalCode":"49545","locality":"Tecklenburg","municipality":{"key":"05566088","name":"Tecklenburg, Stadt","type":"Stadt"},"district":{"key":"05566","name":"Steinfurt","type":"Kreis"},"federalState":{"key":"05","name":"Nordrhein-Westfalen"}},{"name":"Smendweg","postalCode":"49545","locality":"Tecklenburg","municipality":{"key":"05566088","name":"Tecklenburg, Stadt","type":"Stadt"},"district":{"key":"05566","name":"Steinfurt","type":"Kreis"},"federalState":{"key":"05","name":"Nordrhein-Westfalen"}},{"name":"Sonnenweg","postalCode":"49545","locality":"Tecklenburg","municipality":{"key":"05566088","name":"Tecklenburg, Stadt","type":"Stadt"},"district":{"key":"05566","name":"Steinfurt","type":"Kreis"},"federalState":{"key":"05","name":"Nordrhein-Westfalen"}},{"name":"Sonnenwinkel","postalCode":"49545","locality":"Tecklenburg","municipality":{"key":"05566088","name":"Tecklenburg, Stadt","type":"Stadt"},"district":{"key":"05566","name":"Steinfurt","type":"Kreis"},"federalState":{"key":"05","name":"Nordrhein-Westfalen"}},{"name":"Steinstr.","postalCode":"49545","locality":"Tecklenburg","municipality":{"key":"05566088","name":"Tecklenburg, Stadt","type":"Stadt"},"district":{"key":"05566","name":"Steinfurt","type":"Kreis"},"federalState":{"key":"05","name":"Nordrhein-Westfalen"}},{"name":"Stettiner Str.","postalCode":"49545","locality":"Tecklenburg","municipality":{"key":"05566088","name":"Tecklenburg, Stadt","type":"Stadt"},"district":{"key":"05566","name":"Steinfurt","type":"Kreis"},"federalState":{"key":"05","name":"Nordrhein-Westfalen"}},{"name":"Stift","postalCode":"49545","locality":"Tecklenburg","municipality":{"key":"05566088","name":"Tecklenburg, Stadt","type":"Stadt"},"district":{"key":"05566","name":"Steinfurt","type":"Kreis"},"federalState":{"key":"05","name":"Nordrhein-Westfalen"}},{"name":"Tannenweg","postalCode":"49545","locality":"Tecklenburg","municipality":{"key":"05566088","name":"Tecklenburg, Stadt","type":"Stadt"},"district":{"key":"05566","name":"Steinfurt","type":"Kreis"},"federalState":{"key":"05","name":"Nordrhein-Westfalen"}},{"name":"Tecklenburger Weg","postalCode":"49545","locality":"Tecklenburg","municipality":{"key":"05566088","name":"Tecklenburg, Stadt","type":"Stadt"},"district":{"key":"05566","name":"Steinfurt","type":"Kreis"},"federalState":{"key":"05","name":"Nordrhein-Westfalen"}},{"name":"Teutohang","postalCode":"49545","locality":"Tecklenburg","municipality":{"key":"05566088","name":"Tecklenburg, Stadt","type":"Stadt"},"district":{"key":"05566","name":"Steinfurt","type":"Kreis"},"federalState":{"key":"05","name":"Nordrhein-Westfalen"}},{"name":"Theelenkamp","postalCode":"49545","locality":"Tecklenburg","municipality":{"key":"05566088","name":"Tecklenburg, Stadt","type":"Stadt"},"district":{"key":"05566","name":"Steinfurt","type":"Kreis"},"federalState":{"key":"05","name":"Nordrhein-Westfalen"}},{"name":"Tilsiter Str.","postalCode":"49545","locality":"Tecklenburg","municipality":{"key":"05566088","name":"Tecklenburg, Stadt","type":"Stadt"},"district":{"key":"05566","name":"Steinfurt","type":"Kreis"},"federalState":{"key":"05","name":"Nordrhein-Westfalen"}},{"name":"Tulpenweg","postalCode":"49545","locality":"Tecklenburg","municipality":{"key":"05566088","name":"Tecklenburg, Stadt","type":"Stadt"},"district":{"key":"05566","name":"Steinfurt","type":"Kreis"},"federalState":{"key":"05","name":"Nordrhein-Westfalen"}},{"name":"Up de Ruer","postalCode":"49545","locality":"Tecklenburg","municipality":{"key":"05566088","name":"Tecklenburg, Stadt","type":"Stadt"},"district":{"key":"05566","name":"Steinfurt","type":"Kreis"},"federalState":{"key":"05","name":"Nordrhein-Westfalen"}},{"name":"Up de Woote","postalCode":"49545","locality":"Tecklenburg","municipality":{"key":"05566088","name":"Tecklenburg, Stadt","type":"Stadt"},"district":{"key":"05566","name":"Steinfurt","type":"Kreis"},"federalState":{"key":"05","name":"Nordrhein-Westfalen"}},{"name":"Velper Str.","postalCode":"49545","locality":"Tecklenburg","municipality":{"key":"05566088","name":"Tecklenburg, Stadt","type":"Stadt"},"district":{"key":"05566","name":"Steinfurt","type":"Kreis"},"federalState":{"key":"05","name":"Nordrhein-Westfalen"}},{"name":"Von-Varendorff-Str.","postalCode":"49545","locality":"Tecklenburg","municipality":{"key":"05566088","name":"Tecklenburg, Stadt","type":"Stadt"},"district":{"key":"05566","name":"Steinfurt","type":"Kreis"},"federalState":{"key":"05","name":"Nordrhein-Westfalen"}},{"name":"Waldlehrpfad","postalCode":"49545","locality":"Tecklenburg","municipality":{"key":"05566088","name":"Tecklenburg, Stadt","type":"Stadt"},"district":{"key":"05566","name":"Steinfurt","type":"Kreis"},"federalState":{"key":"05","name":"Nordrhein-Westfalen"}},{"name":"Wallen-Lienen","postalCode":"49545","locality":"Tecklenburg","municipality":{"key":"05566088","name":"Tecklenburg, Stadt","type":"Stadt"},"district":{"key":"05566","name":"Steinfurt","type":"Kreis"},"federalState":{"key":"05","name":"Nordrhein-Westfalen"}},{"name":"Wallenweg","postalCode":"49545","locality":"Tecklenburg","municipality":{"key":"05566088","name":"Tecklenburg, Stadt","type":"Stadt"},"district":{"key":"05566","name":"Steinfurt","type":"Kreis"},"federalState":{"key":"05","name":"Nordrhein-Westfalen"}},{"name":"Walther-Borgstette-Str.","postalCode":"49545","locality":"Tecklenburg","municipality":{"key":"05566088","name":"Tecklenburg, Stadt","type":"Stadt"},"district":{"key":"05566","name":"Steinfurt","type":"Kreis"},"federalState":{"key":"05","name":"Nordrhein-Westfalen"}},{"name":"Wechter Str.","postalCode":"49545","locality":"Tecklenburg","municipality":{"key":"05566088","name":"Tecklenburg, Stadt","type":"Stadt"},"district":{"key":"05566","name":"Steinfurt","type":"Kreis"},"federalState":{"key":"05","name":"Nordrhein-Westfalen"}},{"name":"Weizenstr.","postalCode":"49545","locality":"Tecklenburg","municipality":{"key":"05566088","name":"Tecklenburg, Stadt","type":"Stadt"},"district":{"key":"05566","name":"Steinfurt","type":"Kreis"},"federalState":{"key":"05","name":"Nordrhein-Westfalen"}},{"name":"Wellenberg","postalCode":"49545","locality":"Tecklenburg","municipality":{"key":"05566088","name":"Tecklenburg, Stadt","type":"Stadt"},"district":{"key":"05566","name":"Steinfurt","type":"Kreis"},"federalState":{"key":"05","name":"Nordrhein-Westfalen"}},{"name":"Weststr.","postalCode":"49545","locality":"Tecklenburg","municipality":{"key":"05566088","name":"Tecklenburg, Stadt","type":"Stadt"},"district":{"key":"05566","name":"Steinfurt","type":"Kreis"},"federalState":{"key":"05","name":"Nordrhein-Westfalen"}},{"name":"Wichernstr.","postalCode":"49545","locality":"Tecklenburg","municipality":{"key":"05566088","name":"Tecklenburg, Stadt","type":"Stadt"},"district":{"key":"05566","name":"Steinfurt","type":"Kreis"},"federalState":{"key":"05","name":"Nordrhein-Westfalen"}},{"name":"Windmühlenstr.","postalCode":"49545","locality":"Tecklenburg","municipality":{"key":"05566088","name":"Tecklenburg, Stadt","type":"Stadt"},"district":{"key":"05566","name":"Steinfurt","type":"Kreis"},"federalState":{"key":"05","name":"Nordrhein-Westfalen"}},{"name":"Wolfsmühlenweg","postalCode":"49545","locality":"Tecklenburg","municipality":{"key":"05566088","name":"Tecklenburg, Stadt","type":"Stadt"},"district":{"key":"05566","name":"Steinfurt","type":"Kreis"},"federalState":{"key":"05","name":"Nordrhein-Westfalen"}},{"name":"Zu den Klippen","postalCode":"49545","locality":"Tecklenburg","municipality":{"key":"05566088","name":"Tecklenburg, Stadt","type":"Stadt"},"district":{"key":"05566","name":"Steinfurt","type":"Kreis"},"federalState":{"key":"05","name":"Nordrhein-Westfalen"}},{"name":"Zum Kahlen Berg","postalCode":"49545","locality":"Tecklenburg","municipality":{"key":"05566088","name":"Tecklenburg, Stadt","type":"Stadt"},"district":{"key":"05566","name":"Steinfurt","type":"Kreis"},"federalState":{"key":"05","name":"Nordrhein-Westfalen"}},{"name":"Ährenweg","postalCode":"49545","locality":"Tecklenburg","municipality":{"key":"05566088","name":"Tecklenburg, Stadt","type":"Stadt"},"district":{"key":"05566","name":"Steinfurt","type":"Kreis"},"federalState":{"key":"05","name":"Nordrhein-Westfalen"}},]