[{"name":"Adenauerstr.","postalCode":"78736","locality":"Epfendorf","municipality":{"key":"08325015","name":"Epfendorf","type":"Kreisangehörige_Gemeinde"},"district":{"key":"08325","name":"Rottweil","type":"Landkreis"},"federalState":{"key":"08","name":"Baden-Württemberg"}},{"name":"Albstr.","postalCode":"78736","locality":"Epfendorf","municipality":{"key":"08325015","name":"Epfendorf","type":"Kreisangehörige_Gemeinde"},"district":{"key":"08325","name":"Rottweil","type":"Landkreis"},"federalState":{"key":"08","name":"Baden-Württemberg"}},{"name":"Alemannenweg","postalCode":"78736","locality":"Epfendorf","municipality":{"key":"08325015","name":"Epfendorf","type":"Kreisangehörige_Gemeinde"},"district":{"key":"08325","name":"Rottweil","type":"Landkreis"},"federalState":{"key":"08","name":"Baden-Württemberg"}},{"name":"Am Fackelberg","postalCode":"78736","locality":"Epfendorf","municipality":{"key":"08325015","name":"Epfendorf","type":"Kreisangehörige_Gemeinde"},"district":{"key":"08325","name":"Rottweil","type":"Landkreis"},"federalState":{"key":"08","name":"Baden-Württemberg"}},{"name":"Am Forchenwäldle","postalCode":"78736","locality":"Epfendorf","municipality":{"key":"08325015","name":"Epfendorf","type":"Kreisangehörige_Gemeinde"},"district":{"key":"08325","name":"Rottweil","type":"Landkreis"},"federalState":{"key":"08","name":"Baden-Württemberg"}},{"name":"Am Höhinger Felsen","postalCode":"78736","locality":"Epfendorf","municipality":{"key":"08325015","name":"Epfendorf","type":"Kreisangehörige_Gemeinde"},"district":{"key":"08325","name":"Rottweil","type":"Landkreis"},"federalState":{"key":"08","name":"Baden-Württemberg"}},{"name":"Am Märchenwald","postalCode":"78736","locality":"Epfendorf","municipality":{"key":"08325015","name":"Epfendorf","type":"Kreisangehörige_Gemeinde"},"district":{"key":"08325","name":"Rottweil","type":"Landkreis"},"federalState":{"key":"08","name":"Baden-Württemberg"}},{"name":"Am Tischfelsen","postalCode":"78736","locality":"Epfendorf","municipality":{"key":"08325015","name":"Epfendorf","type":"Kreisangehörige_Gemeinde"},"district":{"key":"08325","name":"Rottweil","type":"Landkreis"},"federalState":{"key":"08","name":"Baden-Württemberg"}},{"name":"Am Weihergraben","postalCode":"78736","locality":"Epfendorf","municipality":{"key":"08325015","name":"Epfendorf","type":"Kreisangehörige_Gemeinde"},"district":{"key":"08325","name":"Rottweil","type":"Landkreis"},"federalState":{"key":"08","name":"Baden-Württemberg"}},{"name":"Böhringer Str.","postalCode":"78736","locality":"Epfendorf","municipality":{"key":"08325015","name":"Epfendorf","type":"Kreisangehörige_Gemeinde"},"district":{"key":"08325","name":"Rottweil","type":"Landkreis"},"federalState":{"key":"08","name":"Baden-Württemberg"}},{"name":"Bolzplatz","postalCode":"78736","locality":"Epfendorf","municipality":{"key":"08325015","name":"Epfendorf","type":"Kreisangehörige_Gemeinde"},"district":{"key":"08325","name":"Rottweil","type":"Landkreis"},"federalState":{"key":"08","name":"Baden-Württemberg"}},{"name":"Bösinger Str.","postalCode":"78736","locality":"Epfendorf","municipality":{"key":"08325015","name":"Epfendorf","type":"Kreisangehörige_Gemeinde"},"district":{"key":"08325","name":"Rottweil","type":"Landkreis"},"federalState":{"key":"08","name":"Baden-Württemberg"}},{"name":"Brändiweg","postalCode":"78736","locality":"Epfendorf","municipality":{"key":"08325015","name":"Epfendorf","type":"Kreisangehörige_Gemeinde"},"district":{"key":"08325","name":"Rottweil","type":"Landkreis"},"federalState":{"key":"08","name":"Baden-Württemberg"}},{"name":"Brandweg","postalCode":"78736","locality":"Epfendorf","municipality":{"key":"08325015","name":"Epfendorf","type":"Kreisangehörige_Gemeinde"},"district":{"key":"08325","name":"Rottweil","type":"Landkreis"},"federalState":{"key":"08","name":"Baden-Württemberg"}},{"name":"Brücklesweg","postalCode":"78736","locality":"Epfendorf","municipality":{"key":"08325015","name":"Epfendorf","type":"Kreisangehörige_Gemeinde"},"district":{"key":"08325","name":"Rottweil","type":"Landkreis"},"federalState":{"key":"08","name":"Baden-Württemberg"}},{"name":"Brühlweg","postalCode":"78736","locality":"Epfendorf","municipality":{"key":"08325015","name":"Epfendorf","type":"Kreisangehörige_Gemeinde"},"district":{"key":"08325","name":"Rottweil","type":"Landkreis"},"federalState":{"key":"08","name":"Baden-Württemberg"}},{"name":"Buchenallee","postalCode":"78736","locality":"Epfendorf","municipality":{"key":"08325015","name":"Epfendorf","type":"Kreisangehörige_Gemeinde"},"district":{"key":"08325","name":"Rottweil","type":"Landkreis"},"federalState":{"key":"08","name":"Baden-Württemberg"}},{"name":"Buchenweg","postalCode":"78736","locality":"Epfendorf","municipality":{"key":"08325015","name":"Epfendorf","type":"Kreisangehörige_Gemeinde"},"district":{"key":"08325","name":"Rottweil","type":"Landkreis"},"federalState":{"key":"08","name":"Baden-Württemberg"}},{"name":"Burgstallweg","postalCode":"78736","locality":"Epfendorf","municipality":{"key":"08325015","name":"Epfendorf","type":"Kreisangehörige_Gemeinde"},"district":{"key":"08325","name":"Rottweil","type":"Landkreis"},"federalState":{"key":"08","name":"Baden-Württemberg"}},{"name":"Charlottenwäldle","postalCode":"78628","locality":"Rottweil","municipality":{"key":"08325049","name":"Rottweil, Stadt","type":"Große_Kreisstadt"},"district":{"key":"08325","name":"Rottweil","type":"Landkreis"},"federalState":{"key":"08","name":"Baden-Württemberg"}},{"name":"Chemnitzer Str.","postalCode":"78658","locality":"Zimmern ob Rottweil","municipality":{"key":"08325069","name":"Zimmern ob Rottweil","type":"Kreisangehörige_Gemeinde"},"district":{"key":"08325","name":"Rottweil","type":"Landkreis"},"federalState":{"key":"08","name":"Baden-Württemberg"}},{"name":"Christian-Fader-Weg","postalCode":"78628","locality":"Rottweil","municipality":{"key":"08325049","name":"Rottweil, Stadt","type":"Große_Kreisstadt"},"district":{"key":"08325","name":"Rottweil","type":"Landkreis"},"federalState":{"key":"08","name":"Baden-Württemberg"}},{"name":"Döbeleacker","postalCode":"78736","locality":"Epfendorf","municipality":{"key":"08325015","name":"Epfendorf","type":"Kreisangehörige_Gemeinde"},"district":{"key":"08325","name":"Rottweil","type":"Landkreis"},"federalState":{"key":"08","name":"Baden-Württemberg"}},{"name":"Dorfplatz","postalCode":"78736","locality":"Epfendorf","municipality":{"key":"08325015","name":"Epfendorf","type":"Kreisangehörige_Gemeinde"},"district":{"key":"08325","name":"Rottweil","type":"Landkreis"},"federalState":{"key":"08","name":"Baden-Württemberg"}},{"name":"Eblestr.","postalCode":"78628","locality":"Rottweil","municipality":{"key":"08325049","name":"Rottweil, Stadt","type":"Große_Kreisstadt"},"district":{"key":"08325","name":"Rottweil","type":"Landkreis"},"federalState":{"key":"08","name":"Baden-Württemberg"}},{"name":"Ebnetstr.","postalCode":"78658","locality":"Zimmern ob Rottweil","municipality":{"key":"08325069","name":"Zimmern ob Rottweil","type":"Kreisangehörige_Gemeinde"},"district":{"key":"08325","name":"Rottweil","type":"Landkreis"},"federalState":{"key":"08","name":"Baden-Württemberg"}},{"name":"Eckhofstr.","postalCode":"78628","locality":"Rottweil","municipality":{"key":"08325049","name":"Rottweil, Stadt","type":"Große_Kreisstadt"},"district":{"key":"08325","name":"Rottweil","type":"Landkreis"},"federalState":{"key":"08","name":"Baden-Württemberg"}},{"name":"Eckhofweg","postalCode":"78628","locality":"Rottweil","municipality":{"key":"08325049","name":"Rottweil, Stadt","type":"Große_Kreisstadt"},"district":{"key":"08325","name":"Rottweil","type":"Landkreis"},"federalState":{"key":"08","name":"Baden-Württemberg"}},{"name":"Edelburgastr.","postalCode":"78658","locality":"Zimmern ob Rottweil","municipality":{"key":"08325069","name":"Zimmern ob Rottweil","type":"Kreisangehörige_Gemeinde"},"district":{"key":"08325","name":"Rottweil","type":"Landkreis"},"federalState":{"key":"08","name":"Baden-Württemberg"}},{"name":"Eferenstr.","postalCode":"78628","locality":"Rottweil","municipality":{"key":"08325049","name":"Rottweil, Stadt","type":"Große_Kreisstadt"},"district":{"key":"08325","name":"Rottweil","type":"Landkreis"},"federalState":{"key":"08","name":"Baden-Württemberg"}},{"name":"Eichenstr.","postalCode":"78628","locality":"Rottweil","municipality":{"key":"08325049","name":"Rottweil, Stadt","type":"Große_Kreisstadt"},"district":{"key":"08325","name":"Rottweil","type":"Landkreis"},"federalState":{"key":"08","name":"Baden-Württemberg"}},{"name":"Eisenbahnstr.","postalCode":"78628","locality":"Rottweil","municipality":{"key":"08325049","name":"Rottweil, Stadt","type":"Große_Kreisstadt"},"district":{"key":"08325","name":"Rottweil","type":"Landkreis"},"federalState":{"key":"08","name":"Baden-Württemberg"}},{"name":"Elzacher Str.","postalCode":"78628","locality":"Rottweil","municipality":{"key":"08325049","name":"Rottweil, Stadt","type":"Große_Kreisstadt"},"district":{"key":"08325","name":"Rottweil","type":"Landkreis"},"federalState":{"key":"08","name":"Baden-Württemberg"}},{"name":"Engelgasse","postalCode":"78628","locality":"Rottweil","municipality":{"key":"08325049","name":"Rottweil, Stadt","type":"Große_Kreisstadt"},"district":{"key":"08325","name":"Rottweil","type":"Landkreis"},"federalState":{"key":"08","name":"Baden-Württemberg"}},{"name":"Engelsburgweg","postalCode":"78628","locality":"Rottweil","municipality":{"key":"08325049","name":"Rottweil, Stadt","type":"Große_Kreisstadt"},"district":{"key":"08325","name":"Rottweil","type":"Landkreis"},"federalState":{"key":"08","name":"Baden-Württemberg"}},{"name":"Erfurter Str.","postalCode":"78658","locality":"Zimmern ob Rottweil","municipality":{"key":"08325069","name":"Zimmern ob Rottweil","type":"Kreisangehörige_Gemeinde"},"district":{"key":"08325","name":"Rottweil","type":"Landkreis"},"federalState":{"key":"08","name":"Baden-Württemberg"}},{"name":"Erich-Hauser-Str.","postalCode":"78628","locality":"Rottweil","municipality":{"key":"08325049","name":"Rottweil, Stadt","type":"Große_Kreisstadt"},"district":{"key":"08325","name":"Rottweil","type":"Landkreis"},"federalState":{"key":"08","name":"Baden-Württemberg"}},{"name":"Erlenweg","postalCode":"78628","locality":"Rottweil","municipality":{"key":"08325049","name":"Rottweil, Stadt","type":"Große_Kreisstadt"},"district":{"key":"08325","name":"Rottweil","type":"Landkreis"},"federalState":{"key":"08","name":"Baden-Württemberg"}},{"name":"Erlenweg","postalCode":"78658","locality":"Zimmern ob Rottweil","municipality":{"key":"08325069","name":"Zimmern ob Rottweil","type":"Kreisangehörige_Gemeinde"},"district":{"key":"08325","name":"Rottweil","type":"Landkreis"},"federalState":{"key":"08","name":"Baden-Württemberg"}},{"name":"Erwin-Teufel-Str.","postalCode":"78658","locality":"Zimmern ob Rottweil","municipality":{"key":"08325069","name":"Zimmern ob Rottweil","type":"Kreisangehörige_Gemeinde"},"district":{"key":"08325","name":"Rottweil","type":"Landkreis"},"federalState":{"key":"08","name":"Baden-Württemberg"}},{"name":"Eschachstr.","postalCode":"78658","locality":"Zimmern ob Rottweil","municipality":{"key":"08325069","name":"Zimmern ob Rottweil","type":"Kreisangehörige_Gemeinde"},"district":{"key":"08325","name":"Rottweil","type":"Landkreis"},"federalState":{"key":"08","name":"Baden-Württemberg"}},{"name":"Eschachtalstr.","postalCode":"78658","locality":"Zimmern ob Rottweil","municipality":{"key":"08325069","name":"Zimmern ob Rottweil","type":"Kreisangehörige_Gemeinde"},"district":{"key":"08325","name":"Rottweil","type":"Landkreis"},"federalState":{"key":"08","name":"Baden-Württemberg"}},{"name":"Eschenstr.","postalCode":"78628","locality":"Rottweil","municipality":{"key":"08325049","name":"Rottweil, Stadt","type":"Große_Kreisstadt"},"district":{"key":"08325","name":"Rottweil","type":"Landkreis"},"federalState":{"key":"08","name":"Baden-Württemberg"}},{"name":"Eschlestr.","postalCode":"78628","locality":"Rottweil","municipality":{"key":"08325049","name":"Rottweil, Stadt","type":"Große_Kreisstadt"},"district":{"key":"08325","name":"Rottweil","type":"Landkreis"},"federalState":{"key":"08","name":"Baden-Württemberg"}},{"name":"Eschweg","postalCode":"78658","locality":"Zimmern ob Rottweil","municipality":{"key":"08325069","name":"Zimmern ob Rottweil","type":"Kreisangehörige_Gemeinde"},"district":{"key":"08325","name":"Rottweil","type":"Landkreis"},"federalState":{"key":"08","name":"Baden-Württemberg"}},{"name":"Eseläcker","postalCode":"78658","locality":"Zimmern ob Rottweil","municipality":{"key":"08325069","name":"Zimmern ob Rottweil","type":"Kreisangehörige_Gemeinde"},"district":{"key":"08325","name":"Rottweil","type":"Landkreis"},"federalState":{"key":"08","name":"Baden-Württemberg"}},{"name":"Fichtenweg","postalCode":"78736","locality":"Epfendorf","municipality":{"key":"08325015","name":"Epfendorf","type":"Kreisangehörige_Gemeinde"},"district":{"key":"08325","name":"Rottweil","type":"Landkreis"},"federalState":{"key":"08","name":"Baden-Württemberg"}},{"name":"Frida-Schönborn-Weg","postalCode":"78736","locality":"Epfendorf","municipality":{"key":"08325015","name":"Epfendorf","type":"Kreisangehörige_Gemeinde"},"district":{"key":"08325","name":"Rottweil","type":"Landkreis"},"federalState":{"key":"08","name":"Baden-Württemberg"}},{"name":"Gartenstr.","postalCode":"78736","locality":"Epfendorf","municipality":{"key":"08325015","name":"Epfendorf","type":"Kreisangehörige_Gemeinde"},"district":{"key":"08325","name":"Rottweil","type":"Landkreis"},"federalState":{"key":"08","name":"Baden-Württemberg"}},{"name":"Gässle","postalCode":"78736","locality":"Epfendorf","municipality":{"key":"08325015","name":"Epfendorf","type":"Kreisangehörige_Gemeinde"},"district":{"key":"08325","name":"Rottweil","type":"Landkreis"},"federalState":{"key":"08","name":"Baden-Württemberg"}},{"name":"Giess","postalCode":"78736","locality":"Epfendorf","municipality":{"key":"08325015","name":"Epfendorf","type":"Kreisangehörige_Gemeinde"},"district":{"key":"08325","name":"Rottweil","type":"Landkreis"},"federalState":{"key":"08","name":"Baden-Württemberg"}},{"name":"Gigeläcker","postalCode":"78736","locality":"Epfendorf","municipality":{"key":"08325015","name":"Epfendorf","type":"Kreisangehörige_Gemeinde"},"district":{"key":"08325","name":"Rottweil","type":"Landkreis"},"federalState":{"key":"08","name":"Baden-Württemberg"}},{"name":"Greut-Sträßle","postalCode":"78736","locality":"Epfendorf","municipality":{"key":"08325015","name":"Epfendorf","type":"Kreisangehörige_Gemeinde"},"district":{"key":"08325","name":"Rottweil","type":"Landkreis"},"federalState":{"key":"08","name":"Baden-Württemberg"}},{"name":"Grünlinger Steige","postalCode":"78736","locality":"Epfendorf","municipality":{"key":"08325015","name":"Epfendorf","type":"Kreisangehörige_Gemeinde"},"district":{"key":"08325","name":"Rottweil","type":"Landkreis"},"federalState":{"key":"08","name":"Baden-Württemberg"}},{"name":"Hadwigstr.","postalCode":"78736","locality":"Epfendorf","municipality":{"key":"08325015","name":"Epfendorf","type":"Kreisangehörige_Gemeinde"},"district":{"key":"08325","name":"Rottweil","type":"Landkreis"},"federalState":{"key":"08","name":"Baden-Württemberg"}},{"name":"Halde","postalCode":"78736","locality":"Epfendorf","municipality":{"key":"08325015","name":"Epfendorf","type":"Kreisangehörige_Gemeinde"},"district":{"key":"08325","name":"Rottweil","type":"Landkreis"},"federalState":{"key":"08","name":"Baden-Württemberg"}},{"name":"Haldenäcker","postalCode":"78736","locality":"Epfendorf","municipality":{"key":"08325015","name":"Epfendorf","type":"Kreisangehörige_Gemeinde"},"district":{"key":"08325","name":"Rottweil","type":"Landkreis"},"federalState":{"key":"08","name":"Baden-Württemberg"}},{"name":"Haldengärten","postalCode":"78736","locality":"Epfendorf","municipality":{"key":"08325015","name":"Epfendorf","type":"Kreisangehörige_Gemeinde"},"district":{"key":"08325","name":"Rottweil","type":"Landkreis"},"federalState":{"key":"08","name":"Baden-Württemberg"}},{"name":"Hardtsteig-Klammper-Weg","postalCode":"78736","locality":"Epfendorf","municipality":{"key":"08325015","name":"Epfendorf","type":"Kreisangehörige_Gemeinde"},"district":{"key":"08325","name":"Rottweil","type":"Landkreis"},"federalState":{"key":"08","name":"Baden-Württemberg"}},{"name":"Harthausener Str.","postalCode":"78736","locality":"Epfendorf","municipality":{"key":"08325015","name":"Epfendorf","type":"Kreisangehörige_Gemeinde"},"district":{"key":"08325","name":"Rottweil","type":"Landkreis"},"federalState":{"key":"08","name":"Baden-Württemberg"}},{"name":"Harzwaldhäuser","postalCode":"78736","locality":"Epfendorf","municipality":{"key":"08325015","name":"Epfendorf","type":"Kreisangehörige_Gemeinde"},"district":{"key":"08325","name":"Rottweil","type":"Landkreis"},"federalState":{"key":"08","name":"Baden-Württemberg"}},{"name":"Hauptstr.","postalCode":"78736","locality":"Epfendorf","municipality":{"key":"08325015","name":"Epfendorf","type":"Kreisangehörige_Gemeinde"},"district":{"key":"08325","name":"Rottweil","type":"Landkreis"},"federalState":{"key":"08","name":"Baden-Württemberg"}},{"name":"Hinter der Kirche","postalCode":"78736","locality":"Epfendorf","municipality":{"key":"08325015","name":"Epfendorf","type":"Kreisangehörige_Gemeinde"},"district":{"key":"08325","name":"Rottweil","type":"Landkreis"},"federalState":{"key":"08","name":"Baden-Württemberg"}},{"name":"Hintere Gasse","postalCode":"78736","locality":"Epfendorf","municipality":{"key":"08325015","name":"Epfendorf","type":"Kreisangehörige_Gemeinde"},"district":{"key":"08325","name":"Rottweil","type":"Landkreis"},"federalState":{"key":"08","name":"Baden-Württemberg"}},{"name":"Hochsträss","postalCode":"78736","locality":"Epfendorf","municipality":{"key":"08325015","name":"Epfendorf","type":"Kreisangehörige_Gemeinde"},"district":{"key":"08325","name":"Rottweil","type":"Landkreis"},"federalState":{"key":"08","name":"Baden-Württemberg"}},{"name":"Hofäcker","postalCode":"78736","locality":"Epfendorf","municipality":{"key":"08325015","name":"Epfendorf","type":"Kreisangehörige_Gemeinde"},"district":{"key":"08325","name":"Rottweil","type":"Landkreis"},"federalState":{"key":"08","name":"Baden-Württemberg"}},{"name":"Im Angel","postalCode":"78736","locality":"Epfendorf","municipality":{"key":"08325015","name":"Epfendorf","type":"Kreisangehörige_Gemeinde"},"district":{"key":"08325","name":"Rottweil","type":"Landkreis"},"federalState":{"key":"08","name":"Baden-Württemberg"}},{"name":"Im Baumgarten","postalCode":"78736","locality":"Epfendorf","municipality":{"key":"08325015","name":"Epfendorf","type":"Kreisangehörige_Gemeinde"},"district":{"key":"08325","name":"Rottweil","type":"Landkreis"},"federalState":{"key":"08","name":"Baden-Württemberg"}},{"name":"Im Brühl","postalCode":"78736","locality":"Epfendorf","municipality":{"key":"08325015","name":"Epfendorf","type":"Kreisangehörige_Gemeinde"},"district":{"key":"08325","name":"Rottweil","type":"Landkreis"},"federalState":{"key":"08","name":"Baden-Württemberg"}},{"name":"Im Dorf","postalCode":"78736","locality":"Epfendorf","municipality":{"key":"08325015","name":"Epfendorf","type":"Kreisangehörige_Gemeinde"},"district":{"key":"08325","name":"Rottweil","type":"Landkreis"},"federalState":{"key":"08","name":"Baden-Württemberg"}},{"name":"Im Eigental","postalCode":"78736","locality":"Epfendorf","municipality":{"key":"08325015","name":"Epfendorf","type":"Kreisangehörige_Gemeinde"},"district":{"key":"08325","name":"Rottweil","type":"Landkreis"},"federalState":{"key":"08","name":"Baden-Württemberg"}},{"name":"Im Kronengarten","postalCode":"78736","locality":"Epfendorf","municipality":{"key":"08325015","name":"Epfendorf","type":"Kreisangehörige_Gemeinde"},"district":{"key":"08325","name":"Rottweil","type":"Landkreis"},"federalState":{"key":"08","name":"Baden-Württemberg"}},{"name":"Immenstallweg","postalCode":"78736","locality":"Epfendorf","municipality":{"key":"08325015","name":"Epfendorf","type":"Kreisangehörige_Gemeinde"},"district":{"key":"08325","name":"Rottweil","type":"Landkreis"},"federalState":{"key":"08","name":"Baden-Württemberg"}},{"name":"Im Öschle","postalCode":"78736","locality":"Epfendorf","municipality":{"key":"08325015","name":"Epfendorf","type":"Kreisangehörige_Gemeinde"},"district":{"key":"08325","name":"Rottweil","type":"Landkreis"},"federalState":{"key":"08","name":"Baden-Württemberg"}},{"name":"Im Pfannenstiel","postalCode":"78736","locality":"Epfendorf","municipality":{"key":"08325015","name":"Epfendorf","type":"Kreisangehörige_Gemeinde"},"district":{"key":"08325","name":"Rottweil","type":"Landkreis"},"federalState":{"key":"08","name":"Baden-Württemberg"}},{"name":"Im Täle","postalCode":"78736","locality":"Epfendorf","municipality":{"key":"08325015","name":"Epfendorf","type":"Kreisangehörige_Gemeinde"},"district":{"key":"08325","name":"Rottweil","type":"Landkreis"},"federalState":{"key":"08","name":"Baden-Württemberg"}},{"name":"Im Winkel","postalCode":"78736","locality":"Epfendorf","municipality":{"key":"08325015","name":"Epfendorf","type":"Kreisangehörige_Gemeinde"},"district":{"key":"08325","name":"Rottweil","type":"Landkreis"},"federalState":{"key":"08","name":"Baden-Württemberg"}},{"name":"Jahnstr.","postalCode":"78628","locality":"Rottweil","municipality":{"key":"08325049","name":"Rottweil, Stadt","type":"Große_Kreisstadt"},"district":{"key":"08325","name":"Rottweil","type":"Landkreis"},"federalState":{"key":"08","name":"Baden-Württemberg"}},{"name":"Jenaer Str.","postalCode":"78658","locality":"Zimmern ob Rottweil","municipality":{"key":"08325069","name":"Zimmern ob Rottweil","type":"Kreisangehörige_Gemeinde"},"district":{"key":"08325","name":"Rottweil","type":"Landkreis"},"federalState":{"key":"08","name":"Baden-Württemberg"}},{"name":"Johanniterstr.","postalCode":"78628","locality":"Rottweil","municipality":{"key":"08325049","name":"Rottweil, Stadt","type":"Große_Kreisstadt"},"district":{"key":"08325","name":"Rottweil","type":"Landkreis"},"federalState":{"key":"08","name":"Baden-Württemberg"}},{"name":"Johannsergasse","postalCode":"78628","locality":"Rottweil","municipality":{"key":"08325049","name":"Rottweil, Stadt","type":"Große_Kreisstadt"},"district":{"key":"08325","name":"Rottweil","type":"Landkreis"},"federalState":{"key":"08","name":"Baden-Württemberg"}},{"name":"Joseph-Haydn-Str.","postalCode":"78658","locality":"Zimmern ob Rottweil","municipality":{"key":"08325069","name":"Zimmern ob Rottweil","type":"Kreisangehörige_Gemeinde"},"district":{"key":"08325","name":"Rottweil","type":"Landkreis"},"federalState":{"key":"08","name":"Baden-Württemberg"}},{"name":"Jungbrunnenstr.","postalCode":"78628","locality":"Rottweil","municipality":{"key":"08325049","name":"Rottweil, Stadt","type":"Große_Kreisstadt"},"district":{"key":"08325","name":"Rottweil","type":"Landkreis"},"federalState":{"key":"08","name":"Baden-Württemberg"}},{"name":"Jurastr.","postalCode":"78628","locality":"Rottweil","municipality":{"key":"08325049","name":"Rottweil, Stadt","type":"Große_Kreisstadt"},"district":{"key":"08325","name":"Rottweil","type":"Landkreis"},"federalState":{"key":"08","name":"Baden-Württemberg"}},{"name":"Kapellenweg","postalCode":"78736","locality":"Epfendorf","municipality":{"key":"08325015","name":"Epfendorf","type":"Kreisangehörige_Gemeinde"},"district":{"key":"08325","name":"Rottweil","type":"Landkreis"},"federalState":{"key":"08","name":"Baden-Württemberg"}},{"name":"Kapfstr.","postalCode":"78736","locality":"Epfendorf","municipality":{"key":"08325015","name":"Epfendorf","type":"Kreisangehörige_Gemeinde"},"district":{"key":"08325","name":"Rottweil","type":"Landkreis"},"federalState":{"key":"08","name":"Baden-Württemberg"}},{"name":"Kiefernweg","postalCode":"78736","locality":"Epfendorf","municipality":{"key":"08325015","name":"Epfendorf","type":"Kreisangehörige_Gemeinde"},"district":{"key":"08325","name":"Rottweil","type":"Landkreis"},"federalState":{"key":"08","name":"Baden-Württemberg"}},{"name":"Kilbigswasen","postalCode":"78736","locality":"Epfendorf","municipality":{"key":"08325015","name":"Epfendorf","type":"Kreisangehörige_Gemeinde"},"district":{"key":"08325","name":"Rottweil","type":"Landkreis"},"federalState":{"key":"08","name":"Baden-Württemberg"}},{"name":"Kirchbühl","postalCode":"78736","locality":"Epfendorf","municipality":{"key":"08325015","name":"Epfendorf","type":"Kreisangehörige_Gemeinde"},"district":{"key":"08325","name":"Rottweil","type":"Landkreis"},"federalState":{"key":"08","name":"Baden-Württemberg"}},{"name":"Kirchbühlweg","postalCode":"78736","locality":"Epfendorf","municipality":{"key":"08325015","name":"Epfendorf","type":"Kreisangehörige_Gemeinde"},"district":{"key":"08325","name":"Rottweil","type":"Landkreis"},"federalState":{"key":"08","name":"Baden-Württemberg"}},{"name":"Kirchstr.","postalCode":"78736","locality":"Epfendorf","municipality":{"key":"08325015","name":"Epfendorf","type":"Kreisangehörige_Gemeinde"},"district":{"key":"08325","name":"Rottweil","type":"Landkreis"},"federalState":{"key":"08","name":"Baden-Württemberg"}},{"name":"Kleinweiherle","postalCode":"78736","locality":"Epfendorf","municipality":{"key":"08325015","name":"Epfendorf","type":"Kreisangehörige_Gemeinde"},"district":{"key":"08325","name":"Rottweil","type":"Landkreis"},"federalState":{"key":"08","name":"Baden-Württemberg"}},{"name":"Kolbersbach","postalCode":"78736","locality":"Epfendorf","municipality":{"key":"08325015","name":"Epfendorf","type":"Kreisangehörige_Gemeinde"},"district":{"key":"08325","name":"Rottweil","type":"Landkreis"},"federalState":{"key":"08","name":"Baden-Württemberg"}},{"name":"Krumme Steige","postalCode":"78736","locality":"Epfendorf","municipality":{"key":"08325015","name":"Epfendorf","type":"Kreisangehörige_Gemeinde"},"district":{"key":"08325","name":"Rottweil","type":"Landkreis"},"federalState":{"key":"08","name":"Baden-Württemberg"}},{"name":"Langental","postalCode":"78736","locality":"Epfendorf","municipality":{"key":"08325015","name":"Epfendorf","type":"Kreisangehörige_Gemeinde"},"district":{"key":"08325","name":"Rottweil","type":"Landkreis"},"federalState":{"key":"08","name":"Baden-Württemberg"}},{"name":"Lange Steige","postalCode":"78736","locality":"Epfendorf","municipality":{"key":"08325015","name":"Epfendorf","type":"Kreisangehörige_Gemeinde"},"district":{"key":"08325","name":"Rottweil","type":"Landkreis"},"federalState":{"key":"08","name":"Baden-Württemberg"}},{"name":"Leidringer Str.","postalCode":"78736","locality":"Epfendorf","municipality":{"key":"08325015","name":"Epfendorf","type":"Kreisangehörige_Gemeinde"},"district":{"key":"08325","name":"Rottweil","type":"Landkreis"},"federalState":{"key":"08","name":"Baden-Württemberg"}},{"name":"Marbachweg","postalCode":"78736","locality":"Epfendorf","municipality":{"key":"08325015","name":"Epfendorf","type":"Kreisangehörige_Gemeinde"},"district":{"key":"08325","name":"Rottweil","type":"Landkreis"},"federalState":{"key":"08","name":"Baden-Württemberg"}},{"name":"Mittlerer Esch","postalCode":"78736","locality":"Epfendorf","municipality":{"key":"08325015","name":"Epfendorf","type":"Kreisangehörige_Gemeinde"},"district":{"key":"08325","name":"Rottweil","type":"Landkreis"},"federalState":{"key":"08","name":"Baden-Württemberg"}},{"name":"Mühlweg","postalCode":"78736","locality":"Epfendorf","municipality":{"key":"08325015","name":"Epfendorf","type":"Kreisangehörige_Gemeinde"},"district":{"key":"08325","name":"Rottweil","type":"Landkreis"},"federalState":{"key":"08","name":"Baden-Württemberg"}},{"name":"Neckarstr.","postalCode":"78736","locality":"Epfendorf","municipality":{"key":"08325015","name":"Epfendorf","type":"Kreisangehörige_Gemeinde"},"district":{"key":"08325","name":"Rottweil","type":"Landkreis"},"federalState":{"key":"08","name":"Baden-Württemberg"}},{"name":"Neue Steige","postalCode":"78736","locality":"Epfendorf","municipality":{"key":"08325015","name":"Epfendorf","type":"Kreisangehörige_Gemeinde"},"district":{"key":"08325","name":"Rottweil","type":"Landkreis"},"federalState":{"key":"08","name":"Baden-Württemberg"}},{"name":"Nordweg","postalCode":"78736","locality":"Epfendorf","municipality":{"key":"08325015","name":"Epfendorf","type":"Kreisangehörige_Gemeinde"},"district":{"key":"08325","name":"Rottweil","type":"Landkreis"},"federalState":{"key":"08","name":"Baden-Württemberg"}},{"name":"Oberndorfer Str.","postalCode":"78736","locality":"Epfendorf","municipality":{"key":"08325015","name":"Epfendorf","type":"Kreisangehörige_Gemeinde"},"district":{"key":"08325","name":"Rottweil","type":"Landkreis"},"federalState":{"key":"08","name":"Baden-Württemberg"}},{"name":"Ostweg","postalCode":"78736","locality":"Epfendorf","municipality":{"key":"08325015","name":"Epfendorf","type":"Kreisangehörige_Gemeinde"},"district":{"key":"08325","name":"Rottweil","type":"Landkreis"},"federalState":{"key":"08","name":"Baden-Württemberg"}},{"name":"Panoramaweg","postalCode":"78736","locality":"Epfendorf","municipality":{"key":"08325015","name":"Epfendorf","type":"Kreisangehörige_Gemeinde"},"district":{"key":"08325","name":"Rottweil","type":"Landkreis"},"federalState":{"key":"08","name":"Baden-Württemberg"}},{"name":"Pfaffenholzweg","postalCode":"78736","locality":"Epfendorf","municipality":{"key":"08325015","name":"Epfendorf","type":"Kreisangehörige_Gemeinde"},"district":{"key":"08325","name":"Rottweil","type":"Landkreis"},"federalState":{"key":"08","name":"Baden-Württemberg"}},{"name":"Raingärtlestr.","postalCode":"78736","locality":"Epfendorf","municipality":{"key":"08325015","name":"Epfendorf","type":"Kreisangehörige_Gemeinde"},"district":{"key":"08325","name":"Rottweil","type":"Landkreis"},"federalState":{"key":"08","name":"Baden-Württemberg"}},{"name":"Ramsteiner Mühle","postalCode":"78736","locality":"Epfendorf","municipality":{"key":"08325015","name":"Epfendorf","type":"Kreisangehörige_Gemeinde"},"district":{"key":"08325","name":"Rottweil","type":"Landkreis"},"federalState":{"key":"08","name":"Baden-Württemberg"}},{"name":"Rathausstr.","postalCode":"78736","locality":"Epfendorf","municipality":{"key":"08325015","name":"Epfendorf","type":"Kreisangehörige_Gemeinde"},"district":{"key":"08325","name":"Rottweil","type":"Landkreis"},"federalState":{"key":"08","name":"Baden-Württemberg"}},{"name":"Remigiusweg","postalCode":"78736","locality":"Epfendorf","municipality":{"key":"08325015","name":"Epfendorf","type":"Kreisangehörige_Gemeinde"},"district":{"key":"08325","name":"Rottweil","type":"Landkreis"},"federalState":{"key":"08","name":"Baden-Württemberg"}},{"name":"Rindenberg","postalCode":"78736","locality":"Epfendorf","municipality":{"key":"08325015","name":"Epfendorf","type":"Kreisangehörige_Gemeinde"},"district":{"key":"08325","name":"Rottweil","type":"Landkreis"},"federalState":{"key":"08","name":"Baden-Württemberg"}},{"name":"Römersteige","postalCode":"78736","locality":"Epfendorf","municipality":{"key":"08325015","name":"Epfendorf","type":"Kreisangehörige_Gemeinde"},"district":{"key":"08325","name":"Rottweil","type":"Landkreis"},"federalState":{"key":"08","name":"Baden-Württemberg"}},{"name":"Rottweiler Str.","postalCode":"78736","locality":"Epfendorf","municipality":{"key":"08325015","name":"Epfendorf","type":"Kreisangehörige_Gemeinde"},"district":{"key":"08325","name":"Rottweil","type":"Landkreis"},"federalState":{"key":"08","name":"Baden-Württemberg"}},{"name":"Rundweg","postalCode":"78736","locality":"Epfendorf","municipality":{"key":"08325015","name":"Epfendorf","type":"Kreisangehörige_Gemeinde"},"district":{"key":"08325","name":"Rottweil","type":"Landkreis"},"federalState":{"key":"08","name":"Baden-Württemberg"}},{"name":"Sägegasse","postalCode":"78736","locality":"Epfendorf","municipality":{"key":"08325015","name":"Epfendorf","type":"Kreisangehörige_Gemeinde"},"district":{"key":"08325","name":"Rottweil","type":"Landkreis"},"federalState":{"key":"08","name":"Baden-Württemberg"}},{"name":"Sandbühl","postalCode":"78736","locality":"Epfendorf","municipality":{"key":"08325015","name":"Epfendorf","type":"Kreisangehörige_Gemeinde"},"district":{"key":"08325","name":"Rottweil","type":"Landkreis"},"federalState":{"key":"08","name":"Baden-Württemberg"}},{"name":"Sandgrubenweg","postalCode":"78736","locality":"Epfendorf","municipality":{"key":"08325015","name":"Epfendorf","type":"Kreisangehörige_Gemeinde"},"district":{"key":"08325","name":"Rottweil","type":"Landkreis"},"federalState":{"key":"08","name":"Baden-Württemberg"}},{"name":"Schenkenbergstr.","postalCode":"78736","locality":"Epfendorf","municipality":{"key":"08325015","name":"Epfendorf","type":"Kreisangehörige_Gemeinde"},"district":{"key":"08325","name":"Rottweil","type":"Landkreis"},"federalState":{"key":"08","name":"Baden-Württemberg"}},{"name":"Schlichemklamm","postalCode":"78736","locality":"Epfendorf","municipality":{"key":"08325015","name":"Epfendorf","type":"Kreisangehörige_Gemeinde"},"district":{"key":"08325","name":"Rottweil","type":"Landkreis"},"federalState":{"key":"08","name":"Baden-Württemberg"}},{"name":"Schloßstr.","postalCode":"78736","locality":"Epfendorf","municipality":{"key":"08325015","name":"Epfendorf","type":"Kreisangehörige_Gemeinde"},"district":{"key":"08325","name":"Rottweil","type":"Landkreis"},"federalState":{"key":"08","name":"Baden-Württemberg"}},{"name":"Schmiedegasse","postalCode":"78736","locality":"Epfendorf","municipality":{"key":"08325015","name":"Epfendorf","type":"Kreisangehörige_Gemeinde"},"district":{"key":"08325","name":"Rottweil","type":"Landkreis"},"federalState":{"key":"08","name":"Baden-Württemberg"}},{"name":"Schrofen","postalCode":"78736","locality":"Epfendorf","municipality":{"key":"08325015","name":"Epfendorf","type":"Kreisangehörige_Gemeinde"},"district":{"key":"08325","name":"Rottweil","type":"Landkreis"},"federalState":{"key":"08","name":"Baden-Württemberg"}},{"name":"Schroten","postalCode":"78736","locality":"Epfendorf","municipality":{"key":"08325015","name":"Epfendorf","type":"Kreisangehörige_Gemeinde"},"district":{"key":"08325","name":"Rottweil","type":"Landkreis"},"federalState":{"key":"08","name":"Baden-Württemberg"}},{"name":"Schulstr.","postalCode":"78736","locality":"Epfendorf","municipality":{"key":"08325015","name":"Epfendorf","type":"Kreisangehörige_Gemeinde"},"district":{"key":"08325","name":"Rottweil","type":"Landkreis"},"federalState":{"key":"08","name":"Baden-Württemberg"}},{"name":"Schwarzwaldstr.","postalCode":"78736","locality":"Epfendorf","municipality":{"key":"08325015","name":"Epfendorf","type":"Kreisangehörige_Gemeinde"},"district":{"key":"08325","name":"Rottweil","type":"Landkreis"},"federalState":{"key":"08","name":"Baden-Württemberg"}},{"name":"Schwester-Reinburga-Str.","postalCode":"78736","locality":"Epfendorf","municipality":{"key":"08325015","name":"Epfendorf","type":"Kreisangehörige_Gemeinde"},"district":{"key":"08325","name":"Rottweil","type":"Landkreis"},"federalState":{"key":"08","name":"Baden-Württemberg"}},{"name":"Siedlerstr.","postalCode":"78736","locality":"Epfendorf","municipality":{"key":"08325015","name":"Epfendorf","type":"Kreisangehörige_Gemeinde"},"district":{"key":"08325","name":"Rottweil","type":"Landkreis"},"federalState":{"key":"08","name":"Baden-Württemberg"}},{"name":"Sommerweg","postalCode":"78736","locality":"Epfendorf","municipality":{"key":"08325015","name":"Epfendorf","type":"Kreisangehörige_Gemeinde"},"district":{"key":"08325","name":"Rottweil","type":"Landkreis"},"federalState":{"key":"08","name":"Baden-Württemberg"}},{"name":"Sophie-Scholl-Str.","postalCode":"78736","locality":"Epfendorf","municipality":{"key":"08325015","name":"Epfendorf","type":"Kreisangehörige_Gemeinde"},"district":{"key":"08325","name":"Rottweil","type":"Landkreis"},"federalState":{"key":"08","name":"Baden-Württemberg"}},{"name":"Steinet","postalCode":"78736","locality":"Epfendorf","municipality":{"key":"08325015","name":"Epfendorf","type":"Kreisangehörige_Gemeinde"},"district":{"key":"08325","name":"Rottweil","type":"Landkreis"},"federalState":{"key":"08","name":"Baden-Württemberg"}},{"name":"Steininger Krümme","postalCode":"78736","locality":"Epfendorf","municipality":{"key":"08325015","name":"Epfendorf","type":"Kreisangehörige_Gemeinde"},"district":{"key":"08325","name":"Rottweil","type":"Landkreis"},"federalState":{"key":"08","name":"Baden-Württemberg"}},{"name":"Suppensteige","postalCode":"78736","locality":"Epfendorf","municipality":{"key":"08325015","name":"Epfendorf","type":"Kreisangehörige_Gemeinde"},"district":{"key":"08325","name":"Rottweil","type":"Landkreis"},"federalState":{"key":"08","name":"Baden-Württemberg"}},{"name":"Tannenweg","postalCode":"78736","locality":"Epfendorf","municipality":{"key":"08325015","name":"Epfendorf","type":"Kreisangehörige_Gemeinde"},"district":{"key":"08325","name":"Rottweil","type":"Landkreis"},"federalState":{"key":"08","name":"Baden-Württemberg"}},{"name":"Tischwäldle","postalCode":"78736","locality":"Epfendorf","municipality":{"key":"08325015","name":"Epfendorf","type":"Kreisangehörige_Gemeinde"},"district":{"key":"08325","name":"Rottweil","type":"Landkreis"},"federalState":{"key":"08","name":"Baden-Württemberg"}},{"name":"Trichtinger Str.","postalCode":"78736","locality":"Epfendorf","municipality":{"key":"08325015","name":"Epfendorf","type":"Kreisangehörige_Gemeinde"},"district":{"key":"08325","name":"Rottweil","type":"Landkreis"},"federalState":{"key":"08","name":"Baden-Württemberg"}},{"name":"Turmweg","postalCode":"78736","locality":"Epfendorf","municipality":{"key":"08325015","name":"Epfendorf","type":"Kreisangehörige_Gemeinde"},"district":{"key":"08325","name":"Rottweil","type":"Landkreis"},"federalState":{"key":"08","name":"Baden-Württemberg"}},{"name":"Unterrieden","postalCode":"78736","locality":"Epfendorf","municipality":{"key":"08325015","name":"Epfendorf","type":"Kreisangehörige_Gemeinde"},"district":{"key":"08325","name":"Rottweil","type":"Landkreis"},"federalState":{"key":"08","name":"Baden-Württemberg"}},{"name":"Vaihingerhof","postalCode":"78628","locality":"Rottweil","municipality":{"key":"08325049","name":"Rottweil, Stadt","type":"Große_Kreisstadt"},"district":{"key":"08325","name":"Rottweil","type":"Landkreis"},"federalState":{"key":"08","name":"Baden-Württemberg"}},{"name":"Viadukt","postalCode":"78628","locality":"Rottweil","municipality":{"key":"08325049","name":"Rottweil, Stadt","type":"Große_Kreisstadt"},"district":{"key":"08325","name":"Rottweil","type":"Landkreis"},"federalState":{"key":"08","name":"Baden-Württemberg"}},{"name":"Via L'Aquila","postalCode":"78628","locality":"Rottweil","municipality":{"key":"08325049","name":"Rottweil, Stadt","type":"Große_Kreisstadt"},"district":{"key":"08325","name":"Rottweil","type":"Landkreis"},"federalState":{"key":"08","name":"Baden-Württemberg"}},{"name":"Vogelsangstr.","postalCode":"78628","locality":"Rottweil","municipality":{"key":"08325049","name":"Rottweil, Stadt","type":"Große_Kreisstadt"},"district":{"key":"08325","name":"Rottweil","type":"Landkreis"},"federalState":{"key":"08","name":"Baden-Württemberg"}},{"name":"Vogtstr.","postalCode":"78628","locality":"Rottweil","municipality":{"key":"08325049","name":"Rottweil, Stadt","type":"Große_Kreisstadt"},"district":{"key":"08325","name":"Rottweil","type":"Landkreis"},"federalState":{"key":"08","name":"Baden-Württemberg"}},{"name":"Vollochweg","postalCode":"78628","locality":"Rottweil","municipality":{"key":"08325049","name":"Rottweil, Stadt","type":"Große_Kreisstadt"},"district":{"key":"08325","name":"Rottweil","type":"Landkreis"},"federalState":{"key":"08","name":"Baden-Württemberg"}},{"name":"Vorderes Teich","postalCode":"78658","locality":"Zimmern ob Rottweil","municipality":{"key":"08325069","name":"Zimmern ob Rottweil","type":"Kreisangehörige_Gemeinde"},"district":{"key":"08325","name":"Rottweil","type":"Landkreis"},"federalState":{"key":"08","name":"Baden-Württemberg"}},{"name":"Vorstadt","postalCode":"78658","locality":"Zimmern ob Rottweil","municipality":{"key":"08325069","name":"Zimmern ob Rottweil","type":"Kreisangehörige_Gemeinde"},"district":{"key":"08325","name":"Rottweil","type":"Landkreis"},"federalState":{"key":"08","name":"Baden-Württemberg"}},{"name":"Waldstr.","postalCode":"78736","locality":"Epfendorf","municipality":{"key":"08325015","name":"Epfendorf","type":"Kreisangehörige_Gemeinde"},"district":{"key":"08325","name":"Rottweil","type":"Landkreis"},"federalState":{"key":"08","name":"Baden-Württemberg"}},{"name":"Wasental","postalCode":"78736","locality":"Epfendorf","municipality":{"key":"08325015","name":"Epfendorf","type":"Kreisangehörige_Gemeinde"},"district":{"key":"08325","name":"Rottweil","type":"Landkreis"},"federalState":{"key":"08","name":"Baden-Württemberg"}},{"name":"Wert","postalCode":"78736","locality":"Epfendorf","municipality":{"key":"08325015","name":"Epfendorf","type":"Kreisangehörige_Gemeinde"},"district":{"key":"08325","name":"Rottweil","type":"Landkreis"},"federalState":{"key":"08","name":"Baden-Württemberg"}},{"name":"Werthalde","postalCode":"78736","locality":"Epfendorf","municipality":{"key":"08325015","name":"Epfendorf","type":"Kreisangehörige_Gemeinde"},"district":{"key":"08325","name":"Rottweil","type":"Landkreis"},"federalState":{"key":"08","name":"Baden-Württemberg"}},{"name":"Wiesenweg","postalCode":"78736","locality":"Epfendorf","municipality":{"key":"08325015","name":"Epfendorf","type":"Kreisangehörige_Gemeinde"},"district":{"key":"08325","name":"Rottweil","type":"Landkreis"},"federalState":{"key":"08","name":"Baden-Württemberg"}},{"name":"Wittumshof","postalCode":"78736","locality":"Epfendorf","municipality":{"key":"08325015","name":"Epfendorf","type":"Kreisangehörige_Gemeinde"},"district":{"key":"08325","name":"Rottweil","type":"Landkreis"},"federalState":{"key":"08","name":"Baden-Württemberg"}},{"name":"Wolfsgasse","postalCode":"78736","locality":"Epfendorf","municipality":{"key":"08325015","name":"Epfendorf","type":"Kreisangehörige_Gemeinde"},"district":{"key":"08325","name":"Rottweil","type":"Landkreis"},"federalState":{"key":"08","name":"Baden-Württemberg"}},{"name":"Zeisigweg","postalCode":"78628","locality":"Rottweil","municipality":{"key":"08325049","name":"Rottweil, Stadt","type":"Große_Kreisstadt"},"district":{"key":"08325","name":"Rottweil","type":"Landkreis"},"federalState":{"key":"08","name":"Baden-Württemberg"}},{"name":"Zepfenhaner Str.","postalCode":"78628","locality":"Rottweil","municipality":{"key":"08325049","name":"Rottweil, Stadt","type":"Große_Kreisstadt"},"district":{"key":"08325","name":"Rottweil","type":"Landkreis"},"federalState":{"key":"08","name":"Baden-Württemberg"}},{"name":"Zeppelinstr.","postalCode":"78628","locality":"Rottweil","municipality":{"key":"08325049","name":"Rottweil, Stadt","type":"Große_Kreisstadt"},"district":{"key":"08325","name":"Rottweil","type":"Landkreis"},"federalState":{"key":"08","name":"Baden-Württemberg"}},{"name":"Zierenberg","postalCode":"78658","locality":"Zimmern ob Rottweil","municipality":{"key":"08325069","name":"Zimmern ob Rottweil","type":"Kreisangehörige_Gemeinde"},"district":{"key":"08325","name":"Rottweil","type":"Landkreis"},"federalState":{"key":"08","name":"Baden-Württemberg"}},{"name":"Zimmerergasse","postalCode":"78628","locality":"Rottweil","municipality":{"key":"08325049","name":"Rottweil, Stadt","type":"Große_Kreisstadt"},"district":{"key":"08325","name":"Rottweil","type":"Landkreis"},"federalState":{"key":"08","name":"Baden-Württemberg"}},{"name":"Zimmerner Str.","postalCode":"78628","locality":"Rottweil","municipality":{"key":"08325049","name":"Rottweil, Stadt","type":"Große_Kreisstadt"},"district":{"key":"08325","name":"Rottweil","type":"Landkreis"},"federalState":{"key":"08","name":"Baden-Württemberg"}},{"name":"Zimmerner Str.","postalCode":"78658","locality":"Zimmern ob Rottweil","municipality":{"key":"08325069","name":"Zimmern ob Rottweil","type":"Kreisangehörige_Gemeinde"},"district":{"key":"08325","name":"Rottweil","type":"Landkreis"},"federalState":{"key":"08","name":"Baden-Württemberg"}},{"name":"Zinkenstr.","postalCode":"78658","locality":"Zimmern ob Rottweil","municipality":{"key":"08325069","name":"Zimmern ob Rottweil","type":"Kreisangehörige_Gemeinde"},"district":{"key":"08325","name":"Rottweil","type":"Landkreis"},"federalState":{"key":"08","name":"Baden-Württemberg"}},{"name":"Zinkenweg","postalCode":"78628","locality":"Rottweil","municipality":{"key":"08325049","name":"Rottweil, Stadt","type":"Große_Kreisstadt"},"district":{"key":"08325","name":"Rottweil","type":"Landkreis"},"federalState":{"key":"08","name":"Baden-Württemberg"}},{"name":"Zollernstr.","postalCode":"78628","locality":"Rottweil","municipality":{"key":"08325049","name":"Rottweil, Stadt","type":"Große_Kreisstadt"},"district":{"key":"08325","name":"Rottweil","type":"Landkreis"},"federalState":{"key":"08","name":"Baden-Württemberg"}},{"name":"Zollernweg","postalCode":"78628","locality":"Rottweil","municipality":{"key":"08325049","name":"Rottweil, Stadt","type":"Große_Kreisstadt"},"district":{"key":"08325","name":"Rottweil","type":"Landkreis"},"federalState":{"key":"08","name":"Baden-Württemberg"}},{"name":"Zuger Str.","postalCode":"78628","locality":"Rottweil","municipality":{"key":"08325049","name":"Rottweil, Stadt","type":"Große_Kreisstadt"},"district":{"key":"08325","name":"Rottweil","type":"Landkreis"},"federalState":{"key":"08","name":"Baden-Württemberg"}},{"name":"Zundelbergstr.","postalCode":"78628","locality":"Rottweil","municipality":{"key":"08325049","name":"Rottweil, Stadt","type":"Große_Kreisstadt"},"district":{"key":"08325","name":"Rottweil","type":"Landkreis"},"federalState":{"key":"08","name":"Baden-Württemberg"}},{"name":"Züricher Str.","postalCode":"78628","locality":"Rottweil","municipality":{"key":"08325049","name":"Rottweil, Stadt","type":"Große_Kreisstadt"},"district":{"key":"08325","name":"Rottweil","type":"Landkreis"},"federalState":{"key":"08","name":"Baden-Württemberg"}},{"name":"Zwielwäldle","postalCode":"78628","locality":"Rottweil","municipality":{"key":"08325049","name":"Rottweil, Stadt","type":"Große_Kreisstadt"},"district":{"key":"08325","name":"Rottweil","type":"Landkreis"},"federalState":{"key":"08","name":"Baden-Württemberg"}},{"name":"Äußere Alleenstr.","postalCode":"78628","locality":"Rottweil","municipality":{"key":"08325049","name":"Rottweil, Stadt","type":"Große_Kreisstadt"},"district":{"key":"08325","name":"Rottweil","type":"Landkreis"},"federalState":{"key":"08","name":"Baden-Württemberg"}},{"name":"Öschlestr.","postalCode":"78628","locality":"Rottweil","municipality":{"key":"08325049","name":"Rottweil, Stadt","type":"Große_Kreisstadt"},"district":{"key":"08325","name":"Rottweil","type":"Landkreis"},"federalState":{"key":"08","name":"Baden-Württemberg"}},{"name":"Überlinger Str.","postalCode":"78628","locality":"Rottweil","municipality":{"key":"08325049","name":"Rottweil, Stadt","type":"Große_Kreisstadt"},"district":{"key":"08325","name":"Rottweil","type":"Landkreis"},"federalState":{"key":"08","name":"Baden-Württemberg"}},]