[{"name":"Alte Bahnhofstr.","postalCode":"01877","locality":"Bischofswerda","municipality":{"key":"14625040","name":"Bischofswerda, Stadt","type":"Stadt"},"district":{"key":"14625","name":"Bautzen","type":"Landkreis"},"federalState":{"key":"14","name":"Sachsen"}},{"name":"Alte Belmsdorfer Str.","postalCode":"01877","locality":"Bischofswerda","municipality":{"key":"14625040","name":"Bischofswerda, Stadt","type":"Stadt"},"district":{"key":"14625","name":"Bautzen","type":"Landkreis"},"federalState":{"key":"14","name":"Sachsen"}},{"name":"Altmarkt","postalCode":"01877","locality":"Bischofswerda","municipality":{"key":"14625040","name":"Bischofswerda, Stadt","type":"Stadt"},"district":{"key":"14625","name":"Bautzen","type":"Landkreis"},"federalState":{"key":"14","name":"Sachsen"}},{"name":"Am Belmsdorfer Berg","postalCode":"01877","locality":"Bischofswerda","municipality":{"key":"14625040","name":"Bischofswerda, Stadt","type":"Stadt"},"district":{"key":"14625","name":"Bautzen","type":"Landkreis"},"federalState":{"key":"14","name":"Sachsen"}},{"name":"Am Butterberg","postalCode":"01877","locality":"Bischofswerda","municipality":{"key":"14625040","name":"Bischofswerda, Stadt","type":"Stadt"},"district":{"key":"14625","name":"Bautzen","type":"Landkreis"},"federalState":{"key":"14","name":"Sachsen"}},{"name":"Am Friedhof","postalCode":"01877","locality":"Bischofswerda","municipality":{"key":"14625040","name":"Bischofswerda, Stadt","type":"Stadt"},"district":{"key":"14625","name":"Bautzen","type":"Landkreis"},"federalState":{"key":"14","name":"Sachsen"}},{"name":"Am Goldbacher Berg","postalCode":"01877","locality":"Bischofswerda","municipality":{"key":"14625040","name":"Bischofswerda, Stadt","type":"Stadt"},"district":{"key":"14625","name":"Bautzen","type":"Landkreis"},"federalState":{"key":"14","name":"Sachsen"}},{"name":"Am Hof","postalCode":"01877","locality":"Bischofswerda","municipality":{"key":"14625040","name":"Bischofswerda, Stadt","type":"Stadt"},"district":{"key":"14625","name":"Bautzen","type":"Landkreis"},"federalState":{"key":"14","name":"Sachsen"}},{"name":"Am Kirchsteig","postalCode":"01877","locality":"Bischofswerda","municipality":{"key":"14625040","name":"Bischofswerda, Stadt","type":"Stadt"},"district":{"key":"14625","name":"Bautzen","type":"Landkreis"},"federalState":{"key":"14","name":"Sachsen"}},{"name":"Am Lutherpark","postalCode":"01877","locality":"Bischofswerda","municipality":{"key":"14625040","name":"Bischofswerda, Stadt","type":"Stadt"},"district":{"key":"14625","name":"Bautzen","type":"Landkreis"},"federalState":{"key":"14","name":"Sachsen"}},{"name":"Am Mühlteich","postalCode":"01877","locality":"Bischofswerda","municipality":{"key":"14625040","name":"Bischofswerda, Stadt","type":"Stadt"},"district":{"key":"14625","name":"Bautzen","type":"Landkreis"},"federalState":{"key":"14","name":"Sachsen"}},{"name":"Am Neubau","postalCode":"01877","locality":"Bischofswerda","municipality":{"key":"14625040","name":"Bischofswerda, Stadt","type":"Stadt"},"district":{"key":"14625","name":"Bautzen","type":"Landkreis"},"federalState":{"key":"14","name":"Sachsen"}},{"name":"Am Schillerplatz","postalCode":"01877","locality":"Bischofswerda","municipality":{"key":"14625040","name":"Bischofswerda, Stadt","type":"Stadt"},"district":{"key":"14625","name":"Bautzen","type":"Landkreis"},"federalState":{"key":"14","name":"Sachsen"}},{"name":"Amselweg","postalCode":"01877","locality":"Bischofswerda","municipality":{"key":"14625040","name":"Bischofswerda, Stadt","type":"Stadt"},"district":{"key":"14625","name":"Bautzen","type":"Landkreis"},"federalState":{"key":"14","name":"Sachsen"}},{"name":"Am Stadtgut","postalCode":"01877","locality":"Bischofswerda","municipality":{"key":"14625040","name":"Bischofswerda, Stadt","type":"Stadt"},"district":{"key":"14625","name":"Bautzen","type":"Landkreis"},"federalState":{"key":"14","name":"Sachsen"}},{"name":"An der Eiche","postalCode":"01877","locality":"Bischofswerda","municipality":{"key":"14625040","name":"Bischofswerda, Stadt","type":"Stadt"},"district":{"key":"14625","name":"Bautzen","type":"Landkreis"},"federalState":{"key":"14","name":"Sachsen"}},{"name":"An der Kampfbahn","postalCode":"01877","locality":"Bischofswerda","municipality":{"key":"14625040","name":"Bischofswerda, Stadt","type":"Stadt"},"district":{"key":"14625","name":"Bautzen","type":"Landkreis"},"federalState":{"key":"14","name":"Sachsen"}},{"name":"An der Siedlung","postalCode":"01877","locality":"Bischofswerda","municipality":{"key":"14625040","name":"Bischofswerda, Stadt","type":"Stadt"},"district":{"key":"14625","name":"Bautzen","type":"Landkreis"},"federalState":{"key":"14","name":"Sachsen"}},{"name":"August-König-Str.","postalCode":"01877","locality":"Bischofswerda","municipality":{"key":"14625040","name":"Bischofswerda, Stadt","type":"Stadt"},"district":{"key":"14625","name":"Bautzen","type":"Landkreis"},"federalState":{"key":"14","name":"Sachsen"}},{"name":"Bahnhofstr.","postalCode":"01877","locality":"Bischofswerda","municipality":{"key":"14625040","name":"Bischofswerda, Stadt","type":"Stadt"},"district":{"key":"14625","name":"Bautzen","type":"Landkreis"},"federalState":{"key":"14","name":"Sachsen"}},{"name":"Bautzener Str.","postalCode":"01877","locality":"Bischofswerda","municipality":{"key":"14625040","name":"Bischofswerda, Stadt","type":"Stadt"},"district":{"key":"14625","name":"Bautzen","type":"Landkreis"},"federalState":{"key":"14","name":"Sachsen"}},{"name":"Beethovenstr.","postalCode":"01877","locality":"Bischofswerda","municipality":{"key":"14625040","name":"Bischofswerda, Stadt","type":"Stadt"},"district":{"key":"14625","name":"Bautzen","type":"Landkreis"},"federalState":{"key":"14","name":"Sachsen"}},{"name":"Beigutstr.","postalCode":"01877","locality":"Bischofswerda","municipality":{"key":"14625040","name":"Bischofswerda, Stadt","type":"Stadt"},"district":{"key":"14625","name":"Bautzen","type":"Landkreis"},"federalState":{"key":"14","name":"Sachsen"}},{"name":"Belmsdorfer Str.","postalCode":"01877","locality":"Bischofswerda","municipality":{"key":"14625040","name":"Bischofswerda, Stadt","type":"Stadt"},"district":{"key":"14625","name":"Bautzen","type":"Landkreis"},"federalState":{"key":"14","name":"Sachsen"}},{"name":"Bergstr.","postalCode":"01877","locality":"Bischofswerda","municipality":{"key":"14625040","name":"Bischofswerda, Stadt","type":"Stadt"},"district":{"key":"14625","name":"Bautzen","type":"Landkreis"},"federalState":{"key":"14","name":"Sachsen"}},{"name":"Bergweg","postalCode":"01877","locality":"Bischofswerda","municipality":{"key":"14625040","name":"Bischofswerda, Stadt","type":"Stadt"},"district":{"key":"14625","name":"Bautzen","type":"Landkreis"},"federalState":{"key":"14","name":"Sachsen"}},{"name":"Birkengasse","postalCode":"01877","locality":"Bischofswerda","municipality":{"key":"14625040","name":"Bischofswerda, Stadt","type":"Stadt"},"district":{"key":"14625","name":"Bautzen","type":"Landkreis"},"federalState":{"key":"14","name":"Sachsen"}},{"name":"Bischoflinie","postalCode":"01877","locality":"Bischofswerda","municipality":{"key":"14625040","name":"Bischofswerda, Stadt","type":"Stadt"},"district":{"key":"14625","name":"Bautzen","type":"Landkreis"},"federalState":{"key":"14","name":"Sachsen"}},{"name":"Bischofstr.","postalCode":"01877","locality":"Bischofswerda","municipality":{"key":"14625040","name":"Bischofswerda, Stadt","type":"Stadt"},"district":{"key":"14625","name":"Bautzen","type":"Landkreis"},"federalState":{"key":"14","name":"Sachsen"}},{"name":"Bischofswerdaer Str.","postalCode":"01877","locality":"Bischofswerda","municipality":{"key":"14625040","name":"Bischofswerda, Stadt","type":"Stadt"},"district":{"key":"14625","name":"Bautzen","type":"Landkreis"},"federalState":{"key":"14","name":"Sachsen"}},{"name":"Börnelweg","postalCode":"01877","locality":"Bischofswerda","municipality":{"key":"14625040","name":"Bischofswerda, Stadt","type":"Stadt"},"district":{"key":"14625","name":"Bautzen","type":"Landkreis"},"federalState":{"key":"14","name":"Sachsen"}},{"name":"Borngasse","postalCode":"01877","locality":"Bischofswerda","municipality":{"key":"14625040","name":"Bischofswerda, Stadt","type":"Stadt"},"district":{"key":"14625","name":"Bautzen","type":"Landkreis"},"federalState":{"key":"14","name":"Sachsen"}},{"name":"Brauhausgasse","postalCode":"01877","locality":"Bischofswerda","municipality":{"key":"14625040","name":"Bischofswerda, Stadt","type":"Stadt"},"district":{"key":"14625","name":"Bautzen","type":"Landkreis"},"federalState":{"key":"14","name":"Sachsen"}},{"name":"Buchenweg","postalCode":"01877","locality":"Bischofswerda","municipality":{"key":"14625040","name":"Bischofswerda, Stadt","type":"Stadt"},"district":{"key":"14625","name":"Bautzen","type":"Landkreis"},"federalState":{"key":"14","name":"Sachsen"}},{"name":"Burkauer Str.","postalCode":"01877","locality":"Bischofswerda","municipality":{"key":"14625040","name":"Bischofswerda, Stadt","type":"Stadt"},"district":{"key":"14625","name":"Bautzen","type":"Landkreis"},"federalState":{"key":"14","name":"Sachsen"}},{"name":"Burkauer Weg","postalCode":"01877","locality":"Bischofswerda","municipality":{"key":"14625040","name":"Bischofswerda, Stadt","type":"Stadt"},"district":{"key":"14625","name":"Bautzen","type":"Landkreis"},"federalState":{"key":"14","name":"Sachsen"}},{"name":"Carl-Lohse-Str.","postalCode":"01877","locality":"Bischofswerda","municipality":{"key":"14625040","name":"Bischofswerda, Stadt","type":"Stadt"},"district":{"key":"14625","name":"Bautzen","type":"Landkreis"},"federalState":{"key":"14","name":"Sachsen"}},{"name":"Carl-Maria-von-Weber-Str.","postalCode":"01877","locality":"Bischofswerda","municipality":{"key":"14625040","name":"Bischofswerda, Stadt","type":"Stadt"},"district":{"key":"14625","name":"Bautzen","type":"Landkreis"},"federalState":{"key":"14","name":"Sachsen"}},{"name":"Clara-Zetkin-Str.","postalCode":"01877","locality":"Bischofswerda","municipality":{"key":"14625040","name":"Bischofswerda, Stadt","type":"Stadt"},"district":{"key":"14625","name":"Bautzen","type":"Landkreis"},"federalState":{"key":"14","name":"Sachsen"}},{"name":"Dammweg","postalCode":"01877","locality":"Bischofswerda","municipality":{"key":"14625040","name":"Bischofswerda, Stadt","type":"Stadt"},"district":{"key":"14625","name":"Bautzen","type":"Landkreis"},"federalState":{"key":"14","name":"Sachsen"}},{"name":"Demitzer Weg","postalCode":"01877","locality":"Bischofswerda","municipality":{"key":"14625040","name":"Bischofswerda, Stadt","type":"Stadt"},"district":{"key":"14625","name":"Bautzen","type":"Landkreis"},"federalState":{"key":"14","name":"Sachsen"}},{"name":"Dietrich-Bonhoeffer-Str.","postalCode":"01877","locality":"Bischofswerda","municipality":{"key":"14625040","name":"Bischofswerda, Stadt","type":"Stadt"},"district":{"key":"14625","name":"Bautzen","type":"Landkreis"},"federalState":{"key":"14","name":"Sachsen"}},{"name":"Drebnitzer Weg","postalCode":"01877","locality":"Bischofswerda","municipality":{"key":"14625040","name":"Bischofswerda, Stadt","type":"Stadt"},"district":{"key":"14625","name":"Bautzen","type":"Landkreis"},"federalState":{"key":"14","name":"Sachsen"}},{"name":"Dresdener Landstr.","postalCode":"01877","locality":"Bischofswerda","municipality":{"key":"14625040","name":"Bischofswerda, Stadt","type":"Stadt"},"district":{"key":"14625","name":"Bautzen","type":"Landkreis"},"federalState":{"key":"14","name":"Sachsen"}},{"name":"Dresdener Str.","postalCode":"01877","locality":"Bischofswerda","municipality":{"key":"14625040","name":"Bischofswerda, Stadt","type":"Stadt"},"district":{"key":"14625","name":"Bautzen","type":"Landkreis"},"federalState":{"key":"14","name":"Sachsen"}},{"name":"Dr.-Lange-Str.","postalCode":"01877","locality":"Bischofswerda","municipality":{"key":"14625040","name":"Bischofswerda, Stadt","type":"Stadt"},"district":{"key":"14625","name":"Bautzen","type":"Landkreis"},"federalState":{"key":"14","name":"Sachsen"}},{"name":"Engelhardtstr.","postalCode":"01877","locality":"Bischofswerda","municipality":{"key":"14625040","name":"Bischofswerda, Stadt","type":"Stadt"},"district":{"key":"14625","name":"Bautzen","type":"Landkreis"},"federalState":{"key":"14","name":"Sachsen"}},{"name":"Ernst-Thälmann-Str.","postalCode":"01877","locality":"Bischofswerda","municipality":{"key":"14625040","name":"Bischofswerda, Stadt","type":"Stadt"},"district":{"key":"14625","name":"Bautzen","type":"Landkreis"},"federalState":{"key":"14","name":"Sachsen"}},{"name":"Fabrikgasse","postalCode":"01877","locality":"Bischofswerda","municipality":{"key":"14625040","name":"Bischofswerda, Stadt","type":"Stadt"},"district":{"key":"14625","name":"Bautzen","type":"Landkreis"},"federalState":{"key":"14","name":"Sachsen"}},{"name":"Färbergasse","postalCode":"01877","locality":"Bischofswerda","municipality":{"key":"14625040","name":"Bischofswerda, Stadt","type":"Stadt"},"district":{"key":"14625","name":"Bautzen","type":"Landkreis"},"federalState":{"key":"14","name":"Sachsen"}},{"name":"Fichtestr.","postalCode":"01877","locality":"Bischofswerda","municipality":{"key":"14625040","name":"Bischofswerda, Stadt","type":"Stadt"},"district":{"key":"14625","name":"Bautzen","type":"Landkreis"},"federalState":{"key":"14","name":"Sachsen"}},{"name":"Fleischergasse","postalCode":"01877","locality":"Bischofswerda","municipality":{"key":"14625040","name":"Bischofswerda, Stadt","type":"Stadt"},"district":{"key":"14625","name":"Bautzen","type":"Landkreis"},"federalState":{"key":"14","name":"Sachsen"}},{"name":"Forsthausstr.","postalCode":"01877","locality":"Bischofswerda","municipality":{"key":"14625040","name":"Bischofswerda, Stadt","type":"Stadt"},"district":{"key":"14625","name":"Bautzen","type":"Landkreis"},"federalState":{"key":"14","name":"Sachsen"}},{"name":"Forstweg","postalCode":"01877","locality":"Bischofswerda","municipality":{"key":"14625040","name":"Bischofswerda, Stadt","type":"Stadt"},"district":{"key":"14625","name":"Bautzen","type":"Landkreis"},"federalState":{"key":"14","name":"Sachsen"}},{"name":"Frankenthaler Str.","postalCode":"01877","locality":"Bischofswerda","municipality":{"key":"14625040","name":"Bischofswerda, Stadt","type":"Stadt"},"district":{"key":"14625","name":"Bautzen","type":"Landkreis"},"federalState":{"key":"14","name":"Sachsen"}},{"name":"Friedrich-List-Str.","postalCode":"01877","locality":"Bischofswerda","municipality":{"key":"14625040","name":"Bischofswerda, Stadt","type":"Stadt"},"district":{"key":"14625","name":"Bautzen","type":"Landkreis"},"federalState":{"key":"14","name":"Sachsen"}},{"name":"Gartenstr.","postalCode":"01877","locality":"Bischofswerda","municipality":{"key":"14625040","name":"Bischofswerda, Stadt","type":"Stadt"},"district":{"key":"14625","name":"Bautzen","type":"Landkreis"},"federalState":{"key":"14","name":"Sachsen"}},{"name":"Gartenweg","postalCode":"01877","locality":"Bischofswerda","municipality":{"key":"14625040","name":"Bischofswerda, Stadt","type":"Stadt"},"district":{"key":"14625","name":"Bautzen","type":"Landkreis"},"federalState":{"key":"14","name":"Sachsen"}},{"name":"Geislinger Str.","postalCode":"01877","locality":"Bischofswerda","municipality":{"key":"14625040","name":"Bischofswerda, Stadt","type":"Stadt"},"district":{"key":"14625","name":"Bautzen","type":"Landkreis"},"federalState":{"key":"14","name":"Sachsen"}},{"name":"Geißmannsdorfer Str.","postalCode":"01877","locality":"Bischofswerda","municipality":{"key":"14625040","name":"Bischofswerda, Stadt","type":"Stadt"},"district":{"key":"14625","name":"Bautzen","type":"Landkreis"},"federalState":{"key":"14","name":"Sachsen"}},{"name":"Geschwister-Scholl-Str.","postalCode":"01877","locality":"Bischofswerda","municipality":{"key":"14625040","name":"Bischofswerda, Stadt","type":"Stadt"},"district":{"key":"14625","name":"Bautzen","type":"Landkreis"},"federalState":{"key":"14","name":"Sachsen"}},{"name":"Goethestr.","postalCode":"01877","locality":"Bischofswerda","municipality":{"key":"14625040","name":"Bischofswerda, Stadt","type":"Stadt"},"district":{"key":"14625","name":"Bautzen","type":"Landkreis"},"federalState":{"key":"14","name":"Sachsen"}},{"name":"Goldbacher Str.","postalCode":"01877","locality":"Bischofswerda","municipality":{"key":"14625040","name":"Bischofswerda, Stadt","type":"Stadt"},"district":{"key":"14625","name":"Bautzen","type":"Landkreis"},"federalState":{"key":"14","name":"Sachsen"}},{"name":"Goldbacher Weg","postalCode":"01877","locality":"Bischofswerda","municipality":{"key":"14625040","name":"Bischofswerda, Stadt","type":"Stadt"},"district":{"key":"14625","name":"Bautzen","type":"Landkreis"},"federalState":{"key":"14","name":"Sachsen"}},{"name":"Großdrebnitzer Str.","postalCode":"01877","locality":"Bischofswerda","municipality":{"key":"14625040","name":"Bischofswerda, Stadt","type":"Stadt"},"district":{"key":"14625","name":"Bautzen","type":"Landkreis"},"federalState":{"key":"14","name":"Sachsen"}},{"name":"Große Töpfergasse","postalCode":"01877","locality":"Bischofswerda","municipality":{"key":"14625040","name":"Bischofswerda, Stadt","type":"Stadt"},"district":{"key":"14625","name":"Bautzen","type":"Landkreis"},"federalState":{"key":"14","name":"Sachsen"}},{"name":"Grunagasse","postalCode":"01877","locality":"Bischofswerda","municipality":{"key":"14625040","name":"Bischofswerda, Stadt","type":"Stadt"},"district":{"key":"14625","name":"Bautzen","type":"Landkreis"},"federalState":{"key":"14","name":"Sachsen"}},{"name":"Hans-Volkmann-Str.","postalCode":"01877","locality":"Bischofswerda","municipality":{"key":"14625040","name":"Bischofswerda, Stadt","type":"Stadt"},"district":{"key":"14625","name":"Bautzen","type":"Landkreis"},"federalState":{"key":"14","name":"Sachsen"}},{"name":"Hauptstr.","postalCode":"01877","locality":"Bischofswerda","municipality":{"key":"14625040","name":"Bischofswerda, Stadt","type":"Stadt"},"district":{"key":"14625","name":"Bautzen","type":"Landkreis"},"federalState":{"key":"14","name":"Sachsen"}},{"name":"Heinrich-Heine-Str.","postalCode":"01877","locality":"Bischofswerda","municipality":{"key":"14625040","name":"Bischofswerda, Stadt","type":"Stadt"},"district":{"key":"14625","name":"Bautzen","type":"Landkreis"},"federalState":{"key":"14","name":"Sachsen"}},{"name":"Heinrich-Mann-Str.","postalCode":"01877","locality":"Bischofswerda","municipality":{"key":"14625040","name":"Bischofswerda, Stadt","type":"Stadt"},"district":{"key":"14625","name":"Bautzen","type":"Landkreis"},"federalState":{"key":"14","name":"Sachsen"}},{"name":"Heinrich-Zille-Str.","postalCode":"01877","locality":"Bischofswerda","municipality":{"key":"14625040","name":"Bischofswerda, Stadt","type":"Stadt"},"district":{"key":"14625","name":"Bautzen","type":"Landkreis"},"federalState":{"key":"14","name":"Sachsen"}},{"name":"Hellmuth-Muntschick-Str.","postalCode":"01877","locality":"Bischofswerda","municipality":{"key":"14625040","name":"Bischofswerda, Stadt","type":"Stadt"},"district":{"key":"14625","name":"Bautzen","type":"Landkreis"},"federalState":{"key":"14","name":"Sachsen"}},{"name":"Hellmuth-Tischer-Str.","postalCode":"01877","locality":"Bischofswerda","municipality":{"key":"14625040","name":"Bischofswerda, Stadt","type":"Stadt"},"district":{"key":"14625","name":"Bautzen","type":"Landkreis"},"federalState":{"key":"14","name":"Sachsen"}},{"name":"Herrmannstr.","postalCode":"01877","locality":"Bischofswerda","municipality":{"key":"14625040","name":"Bischofswerda, Stadt","type":"Stadt"},"district":{"key":"14625","name":"Bautzen","type":"Landkreis"},"federalState":{"key":"14","name":"Sachsen"}},{"name":"Hofeteichweg","postalCode":"01877","locality":"Bischofswerda","municipality":{"key":"14625040","name":"Bischofswerda, Stadt","type":"Stadt"},"district":{"key":"14625","name":"Bautzen","type":"Landkreis"},"federalState":{"key":"14","name":"Sachsen"}},{"name":"Hohe Str.","postalCode":"01877","locality":"Bischofswerda","municipality":{"key":"14625040","name":"Bischofswerda, Stadt","type":"Stadt"},"district":{"key":"14625","name":"Bautzen","type":"Landkreis"},"federalState":{"key":"14","name":"Sachsen"}},{"name":"Horkaer Weg","postalCode":"01877","locality":"Bischofswerda","municipality":{"key":"14625040","name":"Bischofswerda, Stadt","type":"Stadt"},"district":{"key":"14625","name":"Bautzen","type":"Landkreis"},"federalState":{"key":"14","name":"Sachsen"}},{"name":"Innere Lauenstr.","postalCode":"02625","locality":"Bautzen","municipality":{"key":"14625020","name":"Bautzen / Budyšin, Stadt","type":"Stadt"},"district":{"key":"14625","name":"Bautzen","type":"Landkreis"},"federalState":{"key":"14","name":"Sachsen"}},{"name":"Jahnstr.","postalCode":"01877","locality":"Bischofswerda","municipality":{"key":"14625040","name":"Bischofswerda, Stadt","type":"Stadt"},"district":{"key":"14625","name":"Bautzen","type":"Landkreis"},"federalState":{"key":"14","name":"Sachsen"}},{"name":"Johann-Sebastian-Bach-Str.","postalCode":"01877","locality":"Bischofswerda","municipality":{"key":"14625040","name":"Bischofswerda, Stadt","type":"Stadt"},"district":{"key":"14625","name":"Bautzen","type":"Landkreis"},"federalState":{"key":"14","name":"Sachsen"}},{"name":"Kamenzer Str.","postalCode":"01877","locality":"Bischofswerda","municipality":{"key":"14625040","name":"Bischofswerda, Stadt","type":"Stadt"},"district":{"key":"14625","name":"Bautzen","type":"Landkreis"},"federalState":{"key":"14","name":"Sachsen"}},{"name":"Kammweg","postalCode":"01877","locality":"Bischofswerda","municipality":{"key":"14625040","name":"Bischofswerda, Stadt","type":"Stadt"},"district":{"key":"14625","name":"Bautzen","type":"Landkreis"},"federalState":{"key":"14","name":"Sachsen"}},{"name":"Kändlerstr.","postalCode":"01877","locality":"Bischofswerda","municipality":{"key":"14625040","name":"Bischofswerda, Stadt","type":"Stadt"},"district":{"key":"14625","name":"Bautzen","type":"Landkreis"},"federalState":{"key":"14","name":"Sachsen"}},{"name":"Karl-Liebknecht-Str.","postalCode":"01877","locality":"Bischofswerda","municipality":{"key":"14625040","name":"Bischofswerda, Stadt","type":"Stadt"},"district":{"key":"14625","name":"Bautzen","type":"Landkreis"},"federalState":{"key":"14","name":"Sachsen"}},{"name":"Käthe-Kollwitz-Park","postalCode":"01877","locality":"Bischofswerda","municipality":{"key":"14625040","name":"Bischofswerda, Stadt","type":"Stadt"},"district":{"key":"14625","name":"Bautzen","type":"Landkreis"},"federalState":{"key":"14","name":"Sachsen"}},{"name":"Kirchgasse","postalCode":"01877","locality":"Bischofswerda","municipality":{"key":"14625040","name":"Bischofswerda, Stadt","type":"Stadt"},"district":{"key":"14625","name":"Bautzen","type":"Landkreis"},"federalState":{"key":"14","name":"Sachsen"}},{"name":"Kirchplatz","postalCode":"01877","locality":"Bischofswerda","municipality":{"key":"14625040","name":"Bischofswerda, Stadt","type":"Stadt"},"district":{"key":"14625","name":"Bautzen","type":"Landkreis"},"federalState":{"key":"14","name":"Sachsen"}},{"name":"Kirchstr.","postalCode":"01877","locality":"Bischofswerda","municipality":{"key":"14625040","name":"Bischofswerda, Stadt","type":"Stadt"},"district":{"key":"14625","name":"Bautzen","type":"Landkreis"},"federalState":{"key":"14","name":"Sachsen"}},{"name":"Kleindrebnitzer Str.","postalCode":"01877","locality":"Bischofswerda","municipality":{"key":"14625040","name":"Bischofswerda, Stadt","type":"Stadt"},"district":{"key":"14625","name":"Bautzen","type":"Landkreis"},"federalState":{"key":"14","name":"Sachsen"}},{"name":"Kleine Gartenstr.","postalCode":"01877","locality":"Bischofswerda","municipality":{"key":"14625040","name":"Bischofswerda, Stadt","type":"Stadt"},"district":{"key":"14625","name":"Bautzen","type":"Landkreis"},"federalState":{"key":"14","name":"Sachsen"}},{"name":"Kleine Töpfergasse","postalCode":"01877","locality":"Bischofswerda","municipality":{"key":"14625040","name":"Bischofswerda, Stadt","type":"Stadt"},"district":{"key":"14625","name":"Bautzen","type":"Landkreis"},"federalState":{"key":"14","name":"Sachsen"}},{"name":"Klengelweg","postalCode":"01877","locality":"Bischofswerda","municipality":{"key":"14625040","name":"Bischofswerda, Stadt","type":"Stadt"},"district":{"key":"14625","name":"Bautzen","type":"Landkreis"},"federalState":{"key":"14","name":"Sachsen"}},{"name":"Klostergasse","postalCode":"01877","locality":"Bischofswerda","municipality":{"key":"14625040","name":"Bischofswerda, Stadt","type":"Stadt"},"district":{"key":"14625","name":"Bautzen","type":"Landkreis"},"federalState":{"key":"14","name":"Sachsen"}},{"name":"Kurzer Weg","postalCode":"01877","locality":"Bischofswerda","municipality":{"key":"14625040","name":"Bischofswerda, Stadt","type":"Stadt"},"district":{"key":"14625","name":"Bautzen","type":"Landkreis"},"federalState":{"key":"14","name":"Sachsen"}},{"name":"Lärchenweg","postalCode":"01877","locality":"Bischofswerda","municipality":{"key":"14625040","name":"Bischofswerda, Stadt","type":"Stadt"},"district":{"key":"14625","name":"Bautzen","type":"Landkreis"},"federalState":{"key":"14","name":"Sachsen"}},{"name":"Lauterbacher Sträßel","postalCode":"01877","locality":"Bischofswerda","municipality":{"key":"14625040","name":"Bischofswerda, Stadt","type":"Stadt"},"district":{"key":"14625","name":"Bautzen","type":"Landkreis"},"federalState":{"key":"14","name":"Sachsen"}},{"name":"Leite","postalCode":"01877","locality":"Bischofswerda","municipality":{"key":"14625040","name":"Bischofswerda, Stadt","type":"Stadt"},"district":{"key":"14625","name":"Bautzen","type":"Landkreis"},"federalState":{"key":"14","name":"Sachsen"}},{"name":"Lessingstr.","postalCode":"01877","locality":"Bischofswerda","municipality":{"key":"14625040","name":"Bischofswerda, Stadt","type":"Stadt"},"district":{"key":"14625","name":"Bautzen","type":"Landkreis"},"federalState":{"key":"14","name":"Sachsen"}},{"name":"Lindenstr.","postalCode":"01877","locality":"Bischofswerda","municipality":{"key":"14625040","name":"Bischofswerda, Stadt","type":"Stadt"},"district":{"key":"14625","name":"Bautzen","type":"Landkreis"},"federalState":{"key":"14","name":"Sachsen"}},{"name":"Ludwig-Richter-Str.","postalCode":"01877","locality":"Bischofswerda","municipality":{"key":"14625040","name":"Bischofswerda, Stadt","type":"Stadt"},"district":{"key":"14625","name":"Bautzen","type":"Landkreis"},"federalState":{"key":"14","name":"Sachsen"}},{"name":"Lupinenweg","postalCode":"01877","locality":"Bischofswerda","municipality":{"key":"14625040","name":"Bischofswerda, Stadt","type":"Stadt"},"district":{"key":"14625","name":"Bautzen","type":"Landkreis"},"federalState":{"key":"14","name":"Sachsen"}},{"name":"Lutherpark","postalCode":"01877","locality":"Bischofswerda","municipality":{"key":"14625040","name":"Bischofswerda, Stadt","type":"Stadt"},"district":{"key":"14625","name":"Bautzen","type":"Landkreis"},"federalState":{"key":"14","name":"Sachsen"}},{"name":"Lutherstr.","postalCode":"01877","locality":"Bischofswerda","municipality":{"key":"14625040","name":"Bischofswerda, Stadt","type":"Stadt"},"district":{"key":"14625","name":"Bautzen","type":"Landkreis"},"federalState":{"key":"14","name":"Sachsen"}},{"name":"Lynchgerichtsweg","postalCode":"01877","locality":"Bischofswerda","municipality":{"key":"14625040","name":"Bischofswerda, Stadt","type":"Stadt"},"district":{"key":"14625","name":"Bautzen","type":"Landkreis"},"federalState":{"key":"14","name":"Sachsen"}},{"name":"Margarethenweg","postalCode":"01877","locality":"Bischofswerda","municipality":{"key":"14625040","name":"Bischofswerda, Stadt","type":"Stadt"},"district":{"key":"14625","name":"Bautzen","type":"Landkreis"},"federalState":{"key":"14","name":"Sachsen"}},{"name":"Marktbornweg","postalCode":"01877","locality":"Bischofswerda","municipality":{"key":"14625040","name":"Bischofswerda, Stadt","type":"Stadt"},"district":{"key":"14625","name":"Bautzen","type":"Landkreis"},"federalState":{"key":"14","name":"Sachsen"}},{"name":"Maximilian-Kolbe-Str.","postalCode":"01877","locality":"Bischofswerda","municipality":{"key":"14625040","name":"Bischofswerda, Stadt","type":"Stadt"},"district":{"key":"14625","name":"Bautzen","type":"Landkreis"},"federalState":{"key":"14","name":"Sachsen"}},{"name":"Mittelweg","postalCode":"01877","locality":"Bischofswerda","municipality":{"key":"14625040","name":"Bischofswerda, Stadt","type":"Stadt"},"district":{"key":"14625","name":"Bautzen","type":"Landkreis"},"federalState":{"key":"14","name":"Sachsen"}},{"name":"Neudrebnitz","postalCode":"01877","locality":"Bischofswerda","municipality":{"key":"14625040","name":"Bischofswerda, Stadt","type":"Stadt"},"district":{"key":"14625","name":"Bautzen","type":"Landkreis"},"federalState":{"key":"14","name":"Sachsen"}},{"name":"Neumarkt","postalCode":"01877","locality":"Bischofswerda","municipality":{"key":"14625040","name":"Bischofswerda, Stadt","type":"Stadt"},"district":{"key":"14625","name":"Bautzen","type":"Landkreis"},"federalState":{"key":"14","name":"Sachsen"}},{"name":"Neustädter Str.","postalCode":"01877","locality":"Bischofswerda","municipality":{"key":"14625040","name":"Bischofswerda, Stadt","type":"Stadt"},"district":{"key":"14625","name":"Bautzen","type":"Landkreis"},"federalState":{"key":"14","name":"Sachsen"}},{"name":"Nordstr.","postalCode":"01877","locality":"Bischofswerda","municipality":{"key":"14625040","name":"Bischofswerda, Stadt","type":"Stadt"},"district":{"key":"14625","name":"Bautzen","type":"Landkreis"},"federalState":{"key":"14","name":"Sachsen"}},{"name":"Obere Siedlung","postalCode":"01877","locality":"Bischofswerda","municipality":{"key":"14625040","name":"Bischofswerda, Stadt","type":"Stadt"},"district":{"key":"14625","name":"Bautzen","type":"Landkreis"},"federalState":{"key":"14","name":"Sachsen"}},{"name":"Osmar-Schindler-Str.","postalCode":"01877","locality":"Bischofswerda","municipality":{"key":"14625040","name":"Bischofswerda, Stadt","type":"Stadt"},"district":{"key":"14625","name":"Bautzen","type":"Landkreis"},"federalState":{"key":"14","name":"Sachsen"}},{"name":"Park am Mühlteich","postalCode":"01877","locality":"Bischofswerda","municipality":{"key":"14625040","name":"Bischofswerda, Stadt","type":"Stadt"},"district":{"key":"14625","name":"Bautzen","type":"Landkreis"},"federalState":{"key":"14","name":"Sachsen"}},{"name":"Paul-Kegel-Weg","postalCode":"01877","locality":"Bischofswerda","municipality":{"key":"14625040","name":"Bischofswerda, Stadt","type":"Stadt"},"district":{"key":"14625","name":"Bautzen","type":"Landkreis"},"federalState":{"key":"14","name":"Sachsen"}},{"name":"Pfarrgasse","postalCode":"01877","locality":"Bischofswerda","municipality":{"key":"14625040","name":"Bischofswerda, Stadt","type":"Stadt"},"district":{"key":"14625","name":"Bautzen","type":"Landkreis"},"federalState":{"key":"14","name":"Sachsen"}},{"name":"Pickauer Dorfweg","postalCode":"01877","locality":"Bischofswerda","municipality":{"key":"14625040","name":"Bischofswerda, Stadt","type":"Stadt"},"district":{"key":"14625","name":"Bautzen","type":"Landkreis"},"federalState":{"key":"14","name":"Sachsen"}},{"name":"Platz des Volkes","postalCode":"01877","locality":"Bischofswerda","municipality":{"key":"14625040","name":"Bischofswerda, Stadt","type":"Stadt"},"district":{"key":"14625","name":"Bautzen","type":"Landkreis"},"federalState":{"key":"14","name":"Sachsen"}},{"name":"Putzkauer Str.","postalCode":"01877","locality":"Bischofswerda","municipality":{"key":"14625040","name":"Bischofswerda, Stadt","type":"Stadt"},"district":{"key":"14625","name":"Bautzen","type":"Landkreis"},"federalState":{"key":"14","name":"Sachsen"}},{"name":"Rammenauer Steg","postalCode":"01877","locality":"Bischofswerda","municipality":{"key":"14625040","name":"Bischofswerda, Stadt","type":"Stadt"},"district":{"key":"14625","name":"Bautzen","type":"Landkreis"},"federalState":{"key":"14","name":"Sachsen"}},{"name":"Rammenauer Weg","postalCode":"01877","locality":"Bischofswerda","municipality":{"key":"14625040","name":"Bischofswerda, Stadt","type":"Stadt"},"district":{"key":"14625","name":"Bautzen","type":"Landkreis"},"federalState":{"key":"14","name":"Sachsen"}},{"name":"Ringstr.","postalCode":"01877","locality":"Bischofswerda","municipality":{"key":"14625040","name":"Bischofswerda, Stadt","type":"Stadt"},"district":{"key":"14625","name":"Bautzen","type":"Landkreis"},"federalState":{"key":"14","name":"Sachsen"}},{"name":"Rodelbahn","postalCode":"01877","locality":"Bischofswerda","municipality":{"key":"14625040","name":"Bischofswerda, Stadt","type":"Stadt"},"district":{"key":"14625","name":"Bautzen","type":"Landkreis"},"federalState":{"key":"14","name":"Sachsen"}},{"name":"Rudolf-Breitscheid-Str.","postalCode":"01877","locality":"Bischofswerda","municipality":{"key":"14625040","name":"Bischofswerda, Stadt","type":"Stadt"},"district":{"key":"14625","name":"Bautzen","type":"Landkreis"},"federalState":{"key":"14","name":"Sachsen"}},{"name":"Rudolf-Renner-Str.","postalCode":"01877","locality":"Bischofswerda","municipality":{"key":"14625040","name":"Bischofswerda, Stadt","type":"Stadt"},"district":{"key":"14625","name":"Bautzen","type":"Landkreis"},"federalState":{"key":"14","name":"Sachsen"}},{"name":"Rumpeltgäßchen","postalCode":"01877","locality":"Bischofswerda","municipality":{"key":"14625040","name":"Bischofswerda, Stadt","type":"Stadt"},"district":{"key":"14625","name":"Bautzen","type":"Landkreis"},"federalState":{"key":"14","name":"Sachsen"}},{"name":"Rundwanderweg Bruno Barthel","postalCode":"01877","locality":"Bischofswerda","municipality":{"key":"14625040","name":"Bischofswerda, Stadt","type":"Stadt"},"district":{"key":"14625","name":"Bautzen","type":"Landkreis"},"federalState":{"key":"14","name":"Sachsen"}},{"name":"Sandweg","postalCode":"01877","locality":"Bischofswerda","municipality":{"key":"14625040","name":"Bischofswerda, Stadt","type":"Stadt"},"district":{"key":"14625","name":"Bautzen","type":"Landkreis"},"federalState":{"key":"14","name":"Sachsen"}},{"name":"Sauberglinie","postalCode":"01877","locality":"Bischofswerda","municipality":{"key":"14625040","name":"Bischofswerda, Stadt","type":"Stadt"},"district":{"key":"14625","name":"Bautzen","type":"Landkreis"},"federalState":{"key":"14","name":"Sachsen"}},{"name":"Schadegasse","postalCode":"01877","locality":"Bischofswerda","municipality":{"key":"14625040","name":"Bischofswerda, Stadt","type":"Stadt"},"district":{"key":"14625","name":"Bautzen","type":"Landkreis"},"federalState":{"key":"14","name":"Sachsen"}},{"name":"Schillerpark","postalCode":"01877","locality":"Bischofswerda","municipality":{"key":"14625040","name":"Bischofswerda, Stadt","type":"Stadt"},"district":{"key":"14625","name":"Bautzen","type":"Landkreis"},"federalState":{"key":"14","name":"Sachsen"}},{"name":"Schmöllner Weg","postalCode":"01877","locality":"Bischofswerda","municipality":{"key":"14625040","name":"Bischofswerda, Stadt","type":"Stadt"},"district":{"key":"14625","name":"Bautzen","type":"Landkreis"},"federalState":{"key":"14","name":"Sachsen"}},{"name":"Schönbrunner Weg","postalCode":"01877","locality":"Bischofswerda","municipality":{"key":"14625040","name":"Bischofswerda, Stadt","type":"Stadt"},"district":{"key":"14625","name":"Bautzen","type":"Landkreis"},"federalState":{"key":"14","name":"Sachsen"}},{"name":"Schulstr.","postalCode":"01877","locality":"Bischofswerda","municipality":{"key":"14625040","name":"Bischofswerda, Stadt","type":"Stadt"},"district":{"key":"14625","name":"Bautzen","type":"Landkreis"},"federalState":{"key":"14","name":"Sachsen"}},{"name":"Seitenweg","postalCode":"01877","locality":"Bischofswerda","municipality":{"key":"14625040","name":"Bischofswerda, Stadt","type":"Stadt"},"district":{"key":"14625","name":"Bautzen","type":"Landkreis"},"federalState":{"key":"14","name":"Sachsen"}},{"name":"Siedlerstr.","postalCode":"01877","locality":"Bischofswerda","municipality":{"key":"14625040","name":"Bischofswerda, Stadt","type":"Stadt"},"district":{"key":"14625","name":"Bautzen","type":"Landkreis"},"federalState":{"key":"14","name":"Sachsen"}},{"name":"Siegfried-Hedusch-Str.","postalCode":"01877","locality":"Bischofswerda","municipality":{"key":"14625040","name":"Bischofswerda, Stadt","type":"Stadt"},"district":{"key":"14625","name":"Bautzen","type":"Landkreis"},"federalState":{"key":"14","name":"Sachsen"}},{"name":"Siegfried-Rädel-Str.","postalCode":"01877","locality":"Bischofswerda","municipality":{"key":"14625040","name":"Bischofswerda, Stadt","type":"Stadt"},"district":{"key":"14625","name":"Bautzen","type":"Landkreis"},"federalState":{"key":"14","name":"Sachsen"}},{"name":"Sinzstr.","postalCode":"01877","locality":"Bischofswerda","municipality":{"key":"14625040","name":"Bischofswerda, Stadt","type":"Stadt"},"district":{"key":"14625","name":"Bautzen","type":"Landkreis"},"federalState":{"key":"14","name":"Sachsen"}},{"name":"Sommersteg","postalCode":"01877","locality":"Bischofswerda","municipality":{"key":"14625040","name":"Bischofswerda, Stadt","type":"Stadt"},"district":{"key":"14625","name":"Bautzen","type":"Landkreis"},"federalState":{"key":"14","name":"Sachsen"}},{"name":"Stadtrandsiedlung","postalCode":"01877","locality":"Bischofswerda","municipality":{"key":"14625040","name":"Bischofswerda, Stadt","type":"Stadt"},"district":{"key":"14625","name":"Bautzen","type":"Landkreis"},"federalState":{"key":"14","name":"Sachsen"}},{"name":"Steinweg","postalCode":"01877","locality":"Bischofswerda","municipality":{"key":"14625040","name":"Bischofswerda, Stadt","type":"Stadt"},"district":{"key":"14625","name":"Bautzen","type":"Landkreis"},"federalState":{"key":"14","name":"Sachsen"}},{"name":"Stiftstr.","postalCode":"01877","locality":"Bischofswerda","municipality":{"key":"14625040","name":"Bischofswerda, Stadt","type":"Stadt"},"district":{"key":"14625","name":"Bautzen","type":"Landkreis"},"federalState":{"key":"14","name":"Sachsen"}},{"name":"Stolpener Str.","postalCode":"01877","locality":"Bischofswerda","municipality":{"key":"14625040","name":"Bischofswerda, Stadt","type":"Stadt"},"district":{"key":"14625","name":"Bautzen","type":"Landkreis"},"federalState":{"key":"14","name":"Sachsen"}},{"name":"Südstr.","postalCode":"01877","locality":"Bischofswerda","municipality":{"key":"14625040","name":"Bischofswerda, Stadt","type":"Stadt"},"district":{"key":"14625","name":"Bautzen","type":"Landkreis"},"federalState":{"key":"14","name":"Sachsen"}},{"name":"Süßmilchring","postalCode":"01877","locality":"Bischofswerda","municipality":{"key":"14625040","name":"Bischofswerda, Stadt","type":"Stadt"},"district":{"key":"14625","name":"Bautzen","type":"Landkreis"},"federalState":{"key":"14","name":"Sachsen"}},{"name":"Süßmilchstr.","postalCode":"01877","locality":"Bischofswerda","municipality":{"key":"14625040","name":"Bischofswerda, Stadt","type":"Stadt"},"district":{"key":"14625","name":"Bautzen","type":"Landkreis"},"federalState":{"key":"14","name":"Sachsen"}},{"name":"Thomas-Mann-Str.","postalCode":"01877","locality":"Bischofswerda","municipality":{"key":"14625040","name":"Bischofswerda, Stadt","type":"Stadt"},"district":{"key":"14625","name":"Bautzen","type":"Landkreis"},"federalState":{"key":"14","name":"Sachsen"}},{"name":"Thormeyerstr.","postalCode":"01877","locality":"Bischofswerda","municipality":{"key":"14625040","name":"Bischofswerda, Stadt","type":"Stadt"},"district":{"key":"14625","name":"Bautzen","type":"Landkreis"},"federalState":{"key":"14","name":"Sachsen"}},{"name":"Tier-und Kulturpark Bischofswerda","postalCode":"01877","locality":"Bischofswerda","municipality":{"key":"14625040","name":"Bischofswerda, Stadt","type":"Stadt"},"district":{"key":"14625","name":"Bautzen","type":"Landkreis"},"federalState":{"key":"14","name":"Sachsen"}},{"name":"Töpferberg","postalCode":"01877","locality":"Bischofswerda","municipality":{"key":"14625040","name":"Bischofswerda, Stadt","type":"Stadt"},"district":{"key":"14625","name":"Bautzen","type":"Landkreis"},"federalState":{"key":"14","name":"Sachsen"}},{"name":"Untere Siedlung","postalCode":"01877","locality":"Bischofswerda","municipality":{"key":"14625040","name":"Bischofswerda, Stadt","type":"Stadt"},"district":{"key":"14625","name":"Bautzen","type":"Landkreis"},"federalState":{"key":"14","name":"Sachsen"}},{"name":"Viehledenweg","postalCode":"01877","locality":"Bischofswerda","municipality":{"key":"14625040","name":"Bischofswerda, Stadt","type":"Stadt"},"district":{"key":"14625","name":"Bautzen","type":"Landkreis"},"federalState":{"key":"14","name":"Sachsen"}},{"name":"Wagnergasse","postalCode":"01877","locality":"Bischofswerda","municipality":{"key":"14625040","name":"Bischofswerda, Stadt","type":"Stadt"},"district":{"key":"14625","name":"Bautzen","type":"Landkreis"},"federalState":{"key":"14","name":"Sachsen"}},{"name":"Waldweg","postalCode":"01877","locality":"Bischofswerda","municipality":{"key":"14625040","name":"Bischofswerda, Stadt","type":"Stadt"},"district":{"key":"14625","name":"Bautzen","type":"Landkreis"},"federalState":{"key":"14","name":"Sachsen"}},{"name":"Wallgasse","postalCode":"01877","locality":"Bischofswerda","municipality":{"key":"14625040","name":"Bischofswerda, Stadt","type":"Stadt"},"district":{"key":"14625","name":"Bautzen","type":"Landkreis"},"federalState":{"key":"14","name":"Sachsen"}},{"name":"Weickersdorfer Str.","postalCode":"01877","locality":"Bischofswerda","municipality":{"key":"14625040","name":"Bischofswerda, Stadt","type":"Stadt"},"district":{"key":"14625","name":"Bautzen","type":"Landkreis"},"federalState":{"key":"14","name":"Sachsen"}},{"name":"Wiesenstr.","postalCode":"01877","locality":"Bischofswerda","municipality":{"key":"14625040","name":"Bischofswerda, Stadt","type":"Stadt"},"district":{"key":"14625","name":"Bautzen","type":"Landkreis"},"federalState":{"key":"14","name":"Sachsen"}},{"name":"Yorckstr.","postalCode":"02625","locality":"Bautzen","municipality":{"key":"14625020","name":"Bautzen / Budyšin, Stadt","type":"Stadt"},"district":{"key":"14625","name":"Bautzen","type":"Landkreis"},"federalState":{"key":"14","name":"Sachsen"}},{"name":"Zum Heidehübel","postalCode":"01877","locality":"Bischofswerda","municipality":{"key":"14625040","name":"Bischofswerda, Stadt","type":"Stadt"},"district":{"key":"14625","name":"Bautzen","type":"Landkreis"},"federalState":{"key":"14","name":"Sachsen"}},{"name":"Zum Horkaer Teich","postalCode":"01877","locality":"Bischofswerda","municipality":{"key":"14625040","name":"Bischofswerda, Stadt","type":"Stadt"},"district":{"key":"14625","name":"Bautzen","type":"Landkreis"},"federalState":{"key":"14","name":"Sachsen"}},{"name":"Zum Stadtwald","postalCode":"01877","locality":"Bischofswerda","municipality":{"key":"14625040","name":"Bischofswerda, Stadt","type":"Stadt"},"district":{"key":"14625","name":"Bautzen","type":"Landkreis"},"federalState":{"key":"14","name":"Sachsen"}},{"name":"Zum Wiesengrund","postalCode":"01877","locality":"Bischofswerda","municipality":{"key":"14625040","name":"Bischofswerda, Stadt","type":"Stadt"},"district":{"key":"14625","name":"Bautzen","type":"Landkreis"},"federalState":{"key":"14","name":"Sachsen"}},{"name":"Zur Grünen Linde","postalCode":"01877","locality":"Bischofswerda","municipality":{"key":"14625040","name":"Bischofswerda, Stadt","type":"Stadt"},"district":{"key":"14625","name":"Bautzen","type":"Landkreis"},"federalState":{"key":"14","name":"Sachsen"}},{"name":"Zur Höhe","postalCode":"01877","locality":"Bischofswerda","municipality":{"key":"14625040","name":"Bischofswerda, Stadt","type":"Stadt"},"district":{"key":"14625","name":"Bautzen","type":"Landkreis"},"federalState":{"key":"14","name":"Sachsen"}},{"name":"Äußere Lauenstr.","postalCode":"02625","locality":"Bautzen","municipality":{"key":"14625020","name":"Bautzen / Budyšin, Stadt","type":"Stadt"},"district":{"key":"14625","name":"Bautzen","type":"Landkreis"},"federalState":{"key":"14","name":"Sachsen"}},]