[{"key":"10067424","name":"Altberg","postalCode":"9063","locality":"Stein AR","commune":{"key":"3005","name":"Stein (AR)","shortName":"Stein (AR)"},"district":{"key":"1501","name":"Bezirk Hinterland"},"canton":{"key":"15","code":"AR","name":"Appenzell Ausserrhoden"},"status":"Real"},{"key":"10187893","name":"Au","postalCode":"9063","locality":"Stein AR","commune":{"key":"3005","name":"Stein (AR)","shortName":"Stein (AR)"},"district":{"key":"1501","name":"Bezirk Hinterland"},"canton":{"key":"15","code":"AR","name":"Appenzell Ausserrhoden"},"status":"Real"},{"key":"10031795","name":"Auf Stein","postalCode":"9063","locality":"Stein AR","commune":{"key":"3005","name":"Stein (AR)","shortName":"Stein (AR)"},"district":{"key":"1501","name":"Bezirk Hinterland"},"canton":{"key":"15","code":"AR","name":"Appenzell Ausserrhoden"},"status":"Real"},{"key":"10067425","name":"Berg","postalCode":"9063","locality":"Stein AR","commune":{"key":"3005","name":"Stein (AR)","shortName":"Stein (AR)"},"district":{"key":"1501","name":"Bezirk Hinterland"},"canton":{"key":"15","code":"AR","name":"Appenzell Ausserrhoden"},"status":"Real"},{"key":"10090127","name":"Bisersweid","postalCode":"9063","locality":"Stein AR","commune":{"key":"3005","name":"Stein (AR)","shortName":"Stein (AR)"},"district":{"key":"1501","name":"Bezirk Hinterland"},"canton":{"key":"15","code":"AR","name":"Appenzell Ausserrhoden"},"status":"Real"},{"key":"10180908","name":"Blatten","postalCode":"9063","locality":"Stein AR","commune":{"key":"3005","name":"Stein (AR)","shortName":"Stein (AR)"},"district":{"key":"1501","name":"Bezirk Hinterland"},"canton":{"key":"15","code":"AR","name":"Appenzell Ausserrhoden"},"status":"Real"},{"key":"10182721","name":"Blindenau","postalCode":"9063","locality":"Stein AR","commune":{"key":"3005","name":"Stein (AR)","shortName":"Stein (AR)"},"district":{"key":"1501","name":"Bezirk Hinterland"},"canton":{"key":"15","code":"AR","name":"Appenzell Ausserrhoden"},"status":"Real"},{"key":"10031796","name":"Boden","postalCode":"9063","locality":"Stein AR","commune":{"key":"3005","name":"Stein (AR)","shortName":"Stein (AR)"},"district":{"key":"1501","name":"Bezirk Hinterland"},"canton":{"key":"15","code":"AR","name":"Appenzell Ausserrhoden"},"status":"Real"},{"key":"10211941","name":"Bodenweid","postalCode":"9063","locality":"Stein AR","commune":{"key":"3005","name":"Stein (AR)","shortName":"Stein (AR)"},"district":{"key":"1501","name":"Bezirk Hinterland"},"canton":{"key":"15","code":"AR","name":"Appenzell Ausserrhoden"},"status":"Real"},{"key":"10122555","name":"Böhl","postalCode":"9063","locality":"Stein AR","commune":{"key":"3005","name":"Stein (AR)","shortName":"Stein (AR)"},"district":{"key":"1501","name":"Bezirk Hinterland"},"canton":{"key":"15","code":"AR","name":"Appenzell Ausserrhoden"},"status":"Real"},{"key":"10031797","name":"Bommen","postalCode":"9063","locality":"Stein AR","commune":{"key":"3005","name":"Stein (AR)","shortName":"Stein (AR)"},"district":{"key":"1501","name":"Bezirk Hinterland"},"canton":{"key":"15","code":"AR","name":"Appenzell Ausserrhoden"},"status":"Real"},{"key":"10067426","name":"Brand","postalCode":"9063","locality":"Stein AR","commune":{"key":"3005","name":"Stein (AR)","shortName":"Stein (AR)"},"district":{"key":"1501","name":"Bezirk Hinterland"},"canton":{"key":"15","code":"AR","name":"Appenzell Ausserrhoden"},"status":"Real"},{"key":"10031798","name":"Brauerei","postalCode":"9063","locality":"Stein AR","commune":{"key":"3005","name":"Stein (AR)","shortName":"Stein (AR)"},"district":{"key":"1501","name":"Bezirk Hinterland"},"canton":{"key":"15","code":"AR","name":"Appenzell Ausserrhoden"},"status":"Real"},{"key":"10090128","name":"Bruggfeld","postalCode":"9063","locality":"Stein AR","commune":{"key":"3005","name":"Stein (AR)","shortName":"Stein (AR)"},"district":{"key":"1501","name":"Bezirk Hinterland"},"canton":{"key":"15","code":"AR","name":"Appenzell Ausserrhoden"},"status":"Real"},{"key":"10103243","name":"Bruggli","postalCode":"9063","locality":"Stein AR","commune":{"key":"3005","name":"Stein (AR)","shortName":"Stein (AR)"},"district":{"key":"1501","name":"Bezirk Hinterland"},"canton":{"key":"15","code":"AR","name":"Appenzell Ausserrhoden"},"status":"Real"},{"key":"10121191","name":"Buch","postalCode":"9063","locality":"Stein AR","commune":{"key":"3005","name":"Stein (AR)","shortName":"Stein (AR)"},"district":{"key":"1501","name":"Bezirk Hinterland"},"canton":{"key":"15","code":"AR","name":"Appenzell Ausserrhoden"},"status":"Real"},{"key":"10067427","name":"Büel","postalCode":"9063","locality":"Stein AR","commune":{"key":"3005","name":"Stein (AR)","shortName":"Stein (AR)"},"district":{"key":"1501","name":"Bezirk Hinterland"},"canton":{"key":"15","code":"AR","name":"Appenzell Ausserrhoden"},"status":"Real"},{"key":"10031799","name":"Dole","postalCode":"9063","locality":"Stein AR","commune":{"key":"3005","name":"Stein (AR)","shortName":"Stein (AR)"},"district":{"key":"1501","name":"Bezirk Hinterland"},"canton":{"key":"15","code":"AR","name":"Appenzell Ausserrhoden"},"status":"Real"},{"key":"10182722","name":"Dorf","postalCode":"9063","locality":"Stein AR","commune":{"key":"3005","name":"Stein (AR)","shortName":"Stein (AR)"},"district":{"key":"1501","name":"Bezirk Hinterland"},"canton":{"key":"15","code":"AR","name":"Appenzell Ausserrhoden"},"status":"Real"},{"key":"10187894","name":"Egg","postalCode":"9063","locality":"Stein AR","commune":{"key":"3005","name":"Stein (AR)","shortName":"Stein (AR)"},"district":{"key":"1501","name":"Bezirk Hinterland"},"canton":{"key":"15","code":"AR","name":"Appenzell Ausserrhoden"},"status":"Real"},{"key":"10067428","name":"Farnbühl","postalCode":"9063","locality":"Stein AR","commune":{"key":"3005","name":"Stein (AR)","shortName":"Stein (AR)"},"district":{"key":"1501","name":"Bezirk Hinterland"},"canton":{"key":"15","code":"AR","name":"Appenzell Ausserrhoden"},"status":"Real"},{"key":"10031800","name":"Flecken","postalCode":"9063","locality":"Stein AR","commune":{"key":"3005","name":"Stein (AR)","shortName":"Stein (AR)"},"district":{"key":"1501","name":"Bezirk Hinterland"},"canton":{"key":"15","code":"AR","name":"Appenzell Ausserrhoden"},"status":"Real"},{"key":"10118769","name":"Fuchsloch","postalCode":"9063","locality":"Stein AR","commune":{"key":"3005","name":"Stein (AR)","shortName":"Stein (AR)"},"district":{"key":"1501","name":"Bezirk Hinterland"},"canton":{"key":"15","code":"AR","name":"Appenzell Ausserrhoden"},"status":"Real"},{"key":"10031801","name":"Gmeind","postalCode":"9063","locality":"Stein AR","commune":{"key":"3005","name":"Stein (AR)","shortName":"Stein (AR)"},"district":{"key":"1501","name":"Bezirk Hinterland"},"canton":{"key":"15","code":"AR","name":"Appenzell Ausserrhoden"},"status":"Real"},{"key":"10067429","name":"Gmeinwerk","postalCode":"9063","locality":"Stein AR","commune":{"key":"3005","name":"Stein (AR)","shortName":"Stein (AR)"},"district":{"key":"1501","name":"Bezirk Hinterland"},"canton":{"key":"15","code":"AR","name":"Appenzell Ausserrhoden"},"status":"Real"},{"key":"10090129","name":"Gmeinwies","postalCode":"9063","locality":"Stein AR","commune":{"key":"3005","name":"Stein (AR)","shortName":"Stein (AR)"},"district":{"key":"1501","name":"Bezirk Hinterland"},"canton":{"key":"15","code":"AR","name":"Appenzell Ausserrhoden"},"status":"Real"},{"key":"10031803","name":"Grub","postalCode":"9063","locality":"Stein AR","commune":{"key":"3005","name":"Stein (AR)","shortName":"Stein (AR)"},"district":{"key":"1501","name":"Bezirk Hinterland"},"canton":{"key":"15","code":"AR","name":"Appenzell Ausserrhoden"},"status":"Real"},{"key":"10182723","name":"Grunholz","postalCode":"9063","locality":"Stein AR","commune":{"key":"3005","name":"Stein (AR)","shortName":"Stein (AR)"},"district":{"key":"1501","name":"Bezirk Hinterland"},"canton":{"key":"15","code":"AR","name":"Appenzell Ausserrhoden"},"status":"Real"},{"key":"10031300","name":"Gschwend","postalCode":"9063","locality":"Stein AR","commune":{"key":"3005","name":"Stein (AR)","shortName":"Stein (AR)"},"district":{"key":"1501","name":"Bezirk Hinterland"},"canton":{"key":"15","code":"AR","name":"Appenzell Ausserrhoden"},"status":"Real"},{"key":"10090130","name":"Gschwend","postalCode":"9063","locality":"Stein AR","commune":{"key":"3005","name":"Stein (AR)","shortName":"Stein (AR)"},"district":{"key":"1501","name":"Bezirk Hinterland"},"canton":{"key":"15","code":"AR","name":"Appenzell Ausserrhoden"},"status":"Real"},{"key":"10031802","name":"Gupf","postalCode":"9063","locality":"Stein AR","commune":{"key":"3005","name":"Stein (AR)","shortName":"Stein (AR)"},"district":{"key":"1501","name":"Bezirk Hinterland"},"canton":{"key":"15","code":"AR","name":"Appenzell Ausserrhoden"},"status":"Real"},{"key":"10031804","name":"Gut","postalCode":"9063","locality":"Stein AR","commune":{"key":"3005","name":"Stein (AR)","shortName":"Stein (AR)"},"district":{"key":"1501","name":"Bezirk Hinterland"},"canton":{"key":"15","code":"AR","name":"Appenzell Ausserrhoden"},"status":"Real"},{"key":"10067431","name":"Hägen","postalCode":"9063","locality":"Stein AR","commune":{"key":"3005","name":"Stein (AR)","shortName":"Stein (AR)"},"district":{"key":"1501","name":"Bezirk Hinterland"},"canton":{"key":"15","code":"AR","name":"Appenzell Ausserrhoden"},"status":"Real"},{"key":"10103244","name":"Hagtobel","postalCode":"9063","locality":"Stein AR","commune":{"key":"3005","name":"Stein (AR)","shortName":"Stein (AR)"},"district":{"key":"1501","name":"Bezirk Hinterland"},"canton":{"key":"15","code":"AR","name":"Appenzell Ausserrhoden"},"status":"Real"},{"key":"10113243","name":"Halden","postalCode":"9063","locality":"Stein AR","commune":{"key":"3005","name":"Stein (AR)","shortName":"Stein (AR)"},"district":{"key":"1501","name":"Bezirk Hinterland"},"canton":{"key":"15","code":"AR","name":"Appenzell Ausserrhoden"},"status":"Real"},{"key":"10067430","name":"Halten","postalCode":"9063","locality":"Stein AR","commune":{"key":"3005","name":"Stein (AR)","shortName":"Stein (AR)"},"district":{"key":"1501","name":"Bezirk Hinterland"},"canton":{"key":"15","code":"AR","name":"Appenzell Ausserrhoden"},"status":"Real"},{"key":"10118158","name":"Haltenweid","postalCode":"9063","locality":"Stein AR","commune":{"key":"3005","name":"Stein (AR)","shortName":"Stein (AR)"},"district":{"key":"1501","name":"Bezirk Hinterland"},"canton":{"key":"15","code":"AR","name":"Appenzell Ausserrhoden"},"status":"Real"},{"key":"10031805","name":"Hargarten","postalCode":"9063","locality":"Stein AR","commune":{"key":"3005","name":"Stein (AR)","shortName":"Stein (AR)"},"district":{"key":"1501","name":"Bezirk Hinterland"},"canton":{"key":"15","code":"AR","name":"Appenzell Ausserrhoden"},"status":"Real"},{"key":"10110830","name":"Hasen","postalCode":"9063","locality":"Stein AR","commune":{"key":"3005","name":"Stein (AR)","shortName":"Stein (AR)"},"district":{"key":"1501","name":"Bezirk Hinterland"},"canton":{"key":"15","code":"AR","name":"Appenzell Ausserrhoden"},"status":"Real"},{"key":"10182724","name":"Heimat","postalCode":"9063","locality":"Stein AR","commune":{"key":"3005","name":"Stein (AR)","shortName":"Stein (AR)"},"district":{"key":"1501","name":"Bezirk Hinterland"},"canton":{"key":"15","code":"AR","name":"Appenzell Ausserrhoden"},"status":"Real"},{"key":"10031807","name":"Högg","postalCode":"9063","locality":"Stein AR","commune":{"key":"3005","name":"Stein (AR)","shortName":"Stein (AR)"},"district":{"key":"1501","name":"Bezirk Hinterland"},"canton":{"key":"15","code":"AR","name":"Appenzell Ausserrhoden"},"status":"Real"},{"key":"10031806","name":"Horgenbühl","postalCode":"9063","locality":"Stein AR","commune":{"key":"3005","name":"Stein (AR)","shortName":"Stein (AR)"},"district":{"key":"1501","name":"Bezirk Hinterland"},"canton":{"key":"15","code":"AR","name":"Appenzell Ausserrhoden"},"status":"Real"},{"key":"10211949","name":"Kau","postalCode":"9063","locality":"Stein AR","commune":{"key":"3005","name":"Stein (AR)","shortName":"Stein (AR)"},"district":{"key":"1501","name":"Bezirk Hinterland"},"canton":{"key":"15","code":"AR","name":"Appenzell Ausserrhoden"},"status":"Real"},{"key":"10180909","name":"Kochegg","postalCode":"9063","locality":"Stein AR","commune":{"key":"3005","name":"Stein (AR)","shortName":"Stein (AR)"},"district":{"key":"1501","name":"Bezirk Hinterland"},"canton":{"key":"15","code":"AR","name":"Appenzell Ausserrhoden"},"status":"Real"},{"key":"10031808","name":"Kubel","postalCode":"9063","locality":"Stein AR","commune":{"key":"3005","name":"Stein (AR)","shortName":"Stein (AR)"},"district":{"key":"1501","name":"Bezirk Hinterland"},"canton":{"key":"15","code":"AR","name":"Appenzell Ausserrhoden"},"status":"Real"},{"key":"10121192","name":"Kurzen","postalCode":"9063","locality":"Stein AR","commune":{"key":"3005","name":"Stein (AR)","shortName":"Stein (AR)"},"district":{"key":"1501","name":"Bezirk Hinterland"},"canton":{"key":"15","code":"AR","name":"Appenzell Ausserrhoden"},"status":"Real"},{"key":"10090132","name":"Langenegg","postalCode":"9063","locality":"Stein AR","commune":{"key":"3005","name":"Stein (AR)","shortName":"Stein (AR)"},"district":{"key":"1501","name":"Bezirk Hinterland"},"canton":{"key":"15","code":"AR","name":"Appenzell Ausserrhoden"},"status":"Real"},{"key":"10067432","name":"Lehmen","postalCode":"9063","locality":"Stein AR","commune":{"key":"3005","name":"Stein (AR)","shortName":"Stein (AR)"},"district":{"key":"1501","name":"Bezirk Hinterland"},"canton":{"key":"15","code":"AR","name":"Appenzell Ausserrhoden"},"status":"Real"},{"key":"10126634","name":"Lenggern","postalCode":"9063","locality":"Stein AR","commune":{"key":"3005","name":"Stein (AR)","shortName":"Stein (AR)"},"district":{"key":"1501","name":"Bezirk Hinterland"},"canton":{"key":"15","code":"AR","name":"Appenzell Ausserrhoden"},"status":"Real"},{"key":"10107794","name":"Lindenstrasse","postalCode":"9063","locality":"Stein AR","commune":{"key":"3005","name":"Stein (AR)","shortName":"Stein (AR)"},"district":{"key":"1501","name":"Bezirk Hinterland"},"canton":{"key":"15","code":"AR","name":"Appenzell Ausserrhoden"},"status":"Real"},{"key":"10211960","name":"List","postalCode":"9063","locality":"Stein AR","commune":{"key":"3005","name":"Stein (AR)","shortName":"Stein (AR)"},"district":{"key":"1501","name":"Bezirk Hinterland"},"canton":{"key":"15","code":"AR","name":"Appenzell Ausserrhoden"},"status":"Real"},{"key":"10182725","name":"Löder","postalCode":"9063","locality":"Stein AR","commune":{"key":"3005","name":"Stein (AR)","shortName":"Stein (AR)"},"district":{"key":"1501","name":"Bezirk Hinterland"},"canton":{"key":"15","code":"AR","name":"Appenzell Ausserrhoden"},"status":"Real"},{"key":"10031809","name":"Mettlen","postalCode":"9063","locality":"Stein AR","commune":{"key":"3005","name":"Stein (AR)","shortName":"Stein (AR)"},"district":{"key":"1501","name":"Bezirk Hinterland"},"canton":{"key":"15","code":"AR","name":"Appenzell Ausserrhoden"},"status":"Real"},{"key":"10211963","name":"Moos","postalCode":"9063","locality":"Stein AR","commune":{"key":"3005","name":"Stein (AR)","shortName":"Stein (AR)"},"district":{"key":"1501","name":"Bezirk Hinterland"},"canton":{"key":"15","code":"AR","name":"Appenzell Ausserrhoden"},"status":"Real"},{"key":"10031810","name":"Mühlbach","postalCode":"9063","locality":"Stein AR","commune":{"key":"3005","name":"Stein (AR)","shortName":"Stein (AR)"},"district":{"key":"1501","name":"Bezirk Hinterland"},"canton":{"key":"15","code":"AR","name":"Appenzell Ausserrhoden"},"status":"Real"},{"key":"10090133","name":"Niederstein","postalCode":"9063","locality":"Stein AR","commune":{"key":"3005","name":"Stein (AR)","shortName":"Stein (AR)"},"district":{"key":"1501","name":"Bezirk Hinterland"},"canton":{"key":"15","code":"AR","name":"Appenzell Ausserrhoden"},"status":"Real"},{"key":"10031811","name":"Nord","postalCode":"9063","locality":"Stein AR","commune":{"key":"3005","name":"Stein (AR)","shortName":"Stein (AR)"},"district":{"key":"1501","name":"Bezirk Hinterland"},"canton":{"key":"15","code":"AR","name":"Appenzell Ausserrhoden"},"status":"Real"},{"key":"10103245","name":"Nordhölzli","postalCode":"9063","locality":"Stein AR","commune":{"key":"3005","name":"Stein (AR)","shortName":"Stein (AR)"},"district":{"key":"1501","name":"Bezirk Hinterland"},"canton":{"key":"15","code":"AR","name":"Appenzell Ausserrhoden"},"status":"Real"},{"key":"10031812","name":"Nördli","postalCode":"9063","locality":"Stein AR","commune":{"key":"3005","name":"Stein (AR)","shortName":"Stein (AR)"},"district":{"key":"1501","name":"Bezirk Hinterland"},"canton":{"key":"15","code":"AR","name":"Appenzell Ausserrhoden"},"status":"Real"},{"key":"10126635","name":"Oberhaus","postalCode":"9063","locality":"Stein AR","commune":{"key":"3005","name":"Stein (AR)","shortName":"Stein (AR)"},"district":{"key":"1501","name":"Bezirk Hinterland"},"canton":{"key":"15","code":"AR","name":"Appenzell Ausserrhoden"},"status":"Real"},{"key":"10211967","name":"Rachentobel","postalCode":"9063","locality":"Stein AR","commune":{"key":"3005","name":"Stein (AR)","shortName":"Stein (AR)"},"district":{"key":"1501","name":"Bezirk Hinterland"},"canton":{"key":"15","code":"AR","name":"Appenzell Ausserrhoden"},"status":"Real"},{"key":"10031813","name":"Rain","postalCode":"9063","locality":"Stein AR","commune":{"key":"3005","name":"Stein (AR)","shortName":"Stein (AR)"},"district":{"key":"1501","name":"Bezirk Hinterland"},"canton":{"key":"15","code":"AR","name":"Appenzell Ausserrhoden"},"status":"Real"},{"key":"10067433","name":"Rämsen","postalCode":"9063","locality":"Stein AR","commune":{"key":"3005","name":"Stein (AR)","shortName":"Stein (AR)"},"district":{"key":"1501","name":"Bezirk Hinterland"},"canton":{"key":"15","code":"AR","name":"Appenzell Ausserrhoden"},"status":"Real"},{"key":"10053572","name":"Reute","postalCode":"9063","locality":"Stein AR","commune":{"key":"3005","name":"Stein (AR)","shortName":"Stein (AR)"},"district":{"key":"1501","name":"Bezirk Hinterland"},"canton":{"key":"15","code":"AR","name":"Appenzell Ausserrhoden"},"status":"Real"},{"key":"10187895","name":"Rigel","postalCode":"9063","locality":"Stein AR","commune":{"key":"3005","name":"Stein (AR)","shortName":"Stein (AR)"},"district":{"key":"1501","name":"Bezirk Hinterland"},"canton":{"key":"15","code":"AR","name":"Appenzell Ausserrhoden"},"status":"Real"},{"key":"10104519","name":"Rosenhalde","postalCode":"9063","locality":"Stein AR","commune":{"key":"3005","name":"Stein (AR)","shortName":"Stein (AR)"},"district":{"key":"1501","name":"Bezirk Hinterland"},"canton":{"key":"15","code":"AR","name":"Appenzell Ausserrhoden"},"status":"Real"},{"key":"10032108","name":"Rüti","postalCode":"9063","locality":"Stein AR","commune":{"key":"3005","name":"Stein (AR)","shortName":"Stein (AR)"},"district":{"key":"1501","name":"Bezirk Hinterland"},"canton":{"key":"15","code":"AR","name":"Appenzell Ausserrhoden"},"status":"Real"},{"key":"10211970","name":"Säge","postalCode":"9063","locality":"Stein AR","commune":{"key":"3005","name":"Stein (AR)","shortName":"Stein (AR)"},"district":{"key":"1501","name":"Bezirk Hinterland"},"canton":{"key":"15","code":"AR","name":"Appenzell Ausserrhoden"},"status":"Real"},{"key":"10053575","name":"Sägehüsli","postalCode":"9063","locality":"Stein AR","commune":{"key":"3005","name":"Stein (AR)","shortName":"Stein (AR)"},"district":{"key":"1501","name":"Bezirk Hinterland"},"canton":{"key":"15","code":"AR","name":"Appenzell Ausserrhoden"},"status":"Real"},{"key":"10067434","name":"Schachen","postalCode":"9063","locality":"Stein AR","commune":{"key":"3005","name":"Stein (AR)","shortName":"Stein (AR)"},"district":{"key":"1501","name":"Bezirk Hinterland"},"canton":{"key":"15","code":"AR","name":"Appenzell Ausserrhoden"},"status":"Real"},{"key":"10090134","name":"Schachenwald","postalCode":"9063","locality":"Stein AR","commune":{"key":"3005","name":"Stein (AR)","shortName":"Stein (AR)"},"district":{"key":"1501","name":"Bezirk Hinterland"},"canton":{"key":"15","code":"AR","name":"Appenzell Ausserrhoden"},"status":"Real"},{"key":"10113244","name":"Schachenweid","postalCode":"9063","locality":"Stein AR","commune":{"key":"3005","name":"Stein (AR)","shortName":"Stein (AR)"},"district":{"key":"1501","name":"Bezirk Hinterland"},"canton":{"key":"15","code":"AR","name":"Appenzell Ausserrhoden"},"status":"Real"},{"key":"10067435","name":"Schedlern","postalCode":"9063","locality":"Stein AR","commune":{"key":"3005","name":"Stein (AR)","shortName":"Stein (AR)"},"district":{"key":"1501","name":"Bezirk Hinterland"},"canton":{"key":"15","code":"AR","name":"Appenzell Ausserrhoden"},"status":"Real"},{"key":"10032109","name":"Schluchwald","postalCode":"9063","locality":"Stein AR","commune":{"key":"3005","name":"Stein (AR)","shortName":"Stein (AR)"},"district":{"key":"1501","name":"Bezirk Hinterland"},"canton":{"key":"15","code":"AR","name":"Appenzell Ausserrhoden"},"status":"Real"},{"key":"10192069","name":"Schmitten","postalCode":"9063","locality":"Stein AR","commune":{"key":"3005","name":"Stein (AR)","shortName":"Stein (AR)"},"district":{"key":"1501","name":"Bezirk Hinterland"},"canton":{"key":"15","code":"AR","name":"Appenzell Ausserrhoden"},"status":"Real"},{"key":"10090135","name":"Schnädt","postalCode":"9063","locality":"Stein AR","commune":{"key":"3005","name":"Stein (AR)","shortName":"Stein (AR)"},"district":{"key":"1501","name":"Bezirk Hinterland"},"canton":{"key":"15","code":"AR","name":"Appenzell Ausserrhoden"},"status":"Real"},{"key":"10032110","name":"Schooss","postalCode":"9063","locality":"Stein AR","commune":{"key":"3005","name":"Stein (AR)","shortName":"Stein (AR)"},"district":{"key":"1501","name":"Bezirk Hinterland"},"canton":{"key":"15","code":"AR","name":"Appenzell Ausserrhoden"},"status":"Real"},{"key":"10067436","name":"Schwendi","postalCode":"9063","locality":"Stein AR","commune":{"key":"3005","name":"Stein (AR)","shortName":"Stein (AR)"},"district":{"key":"1501","name":"Bezirk Hinterland"},"canton":{"key":"15","code":"AR","name":"Appenzell Ausserrhoden"},"status":"Real"},{"key":"10182726","name":"Sonder","postalCode":"9063","locality":"Stein AR","commune":{"key":"3005","name":"Stein (AR)","shortName":"Stein (AR)"},"district":{"key":"1501","name":"Bezirk Hinterland"},"canton":{"key":"15","code":"AR","name":"Appenzell Ausserrhoden"},"status":"Real"},{"key":"10031320","name":"Sonder","postalCode":"9063","locality":"Stein AR","commune":{"key":"3005","name":"Stein (AR)","shortName":"Stein (AR)"},"district":{"key":"1501","name":"Bezirk Hinterland"},"canton":{"key":"15","code":"AR","name":"Appenzell Ausserrhoden"},"status":"Real"},{"key":"10032114","name":"Sönderli","postalCode":"9063","locality":"Stein AR","commune":{"key":"3005","name":"Stein (AR)","shortName":"Stein (AR)"},"district":{"key":"1501","name":"Bezirk Hinterland"},"canton":{"key":"15","code":"AR","name":"Appenzell Ausserrhoden"},"status":"Real"},{"key":"10210820","name":"Sondertal","postalCode":"9063","locality":"Stein AR","commune":{"key":"3005","name":"Stein (AR)","shortName":"Stein (AR)"},"district":{"key":"1501","name":"Bezirk Hinterland"},"canton":{"key":"15","code":"AR","name":"Appenzell Ausserrhoden"},"status":"Real"},{"key":"10053573","name":"Sondertal","postalCode":"9063","locality":"Stein AR","commune":{"key":"3005","name":"Stein (AR)","shortName":"Stein (AR)"},"district":{"key":"1501","name":"Bezirk Hinterland"},"canton":{"key":"15","code":"AR","name":"Appenzell Ausserrhoden"},"status":"Real"},{"key":"10032111","name":"Sonnenfeld","postalCode":"9063","locality":"Stein AR","commune":{"key":"3005","name":"Stein (AR)","shortName":"Stein (AR)"},"district":{"key":"1501","name":"Bezirk Hinterland"},"canton":{"key":"15","code":"AR","name":"Appenzell Ausserrhoden"},"status":"Real"},{"key":"10090136","name":"Steinbruggen","postalCode":"9063","locality":"Stein AR","commune":{"key":"3005","name":"Stein (AR)","shortName":"Stein (AR)"},"district":{"key":"1501","name":"Bezirk Hinterland"},"canton":{"key":"15","code":"AR","name":"Appenzell Ausserrhoden"},"status":"Real"},{"key":"10053574","name":"Steingass","postalCode":"9063","locality":"Stein AR","commune":{"key":"3005","name":"Stein (AR)","shortName":"Stein (AR)"},"district":{"key":"1501","name":"Bezirk Hinterland"},"canton":{"key":"15","code":"AR","name":"Appenzell Ausserrhoden"},"status":"Real"},{"key":"10032112","name":"Stöcken","postalCode":"9063","locality":"Stein AR","commune":{"key":"3005","name":"Stein (AR)","shortName":"Stein (AR)"},"district":{"key":"1501","name":"Bezirk Hinterland"},"canton":{"key":"15","code":"AR","name":"Appenzell Ausserrhoden"},"status":"Real"},{"key":"10032113","name":"Störgel","postalCode":"9063","locality":"Stein AR","commune":{"key":"3005","name":"Stein (AR)","shortName":"Stein (AR)"},"district":{"key":"1501","name":"Bezirk Hinterland"},"canton":{"key":"15","code":"AR","name":"Appenzell Ausserrhoden"},"status":"Real"},{"key":"10103246","name":"Tellhüsli","postalCode":"9063","locality":"Stein AR","commune":{"key":"3005","name":"Stein (AR)","shortName":"Stein (AR)"},"district":{"key":"1501","name":"Bezirk Hinterland"},"canton":{"key":"15","code":"AR","name":"Appenzell Ausserrhoden"},"status":"Real"},{"key":"10091186","name":"Unter der Grub","postalCode":"9063","locality":"Stein AR","commune":{"key":"3005","name":"Stein (AR)","shortName":"Stein (AR)"},"district":{"key":"1501","name":"Bezirk Hinterland"},"canton":{"key":"15","code":"AR","name":"Appenzell Ausserrhoden"},"status":"Real"},{"key":"10133806","name":"Unterer Hargarten","postalCode":"9063","locality":"Stein AR","commune":{"key":"3005","name":"Stein (AR)","shortName":"Stein (AR)"},"district":{"key":"1501","name":"Bezirk Hinterland"},"canton":{"key":"15","code":"AR","name":"Appenzell Ausserrhoden"},"status":"Real"},{"key":"10182727","name":"Vogelegg","postalCode":"9063","locality":"Stein AR","commune":{"key":"3005","name":"Stein (AR)","shortName":"Stein (AR)"},"district":{"key":"1501","name":"Bezirk Hinterland"},"canton":{"key":"15","code":"AR","name":"Appenzell Ausserrhoden"},"status":"Real"},{"key":"10032116","name":"Wädlen","postalCode":"9063","locality":"Stein AR","commune":{"key":"3005","name":"Stein (AR)","shortName":"Stein (AR)"},"district":{"key":"1501","name":"Bezirk Hinterland"},"canton":{"key":"15","code":"AR","name":"Appenzell Ausserrhoden"},"status":"Real"},{"key":"10032115","name":"Weitenau","postalCode":"9063","locality":"Stein AR","commune":{"key":"3005","name":"Stein (AR)","shortName":"Stein (AR)"},"district":{"key":"1501","name":"Bezirk Hinterland"},"canton":{"key":"15","code":"AR","name":"Appenzell Ausserrhoden"},"status":"Real"},{"key":"10053576","name":"Wies","postalCode":"9063","locality":"Stein AR","commune":{"key":"3005","name":"Stein (AR)","shortName":"Stein (AR)"},"district":{"key":"1501","name":"Bezirk Hinterland"},"canton":{"key":"15","code":"AR","name":"Appenzell Ausserrhoden"},"status":"Real"},{"key":"10067437","name":"Wilen","postalCode":"9063","locality":"Stein AR","commune":{"key":"3005","name":"Stein (AR)","shortName":"Stein (AR)"},"district":{"key":"1501","name":"Bezirk Hinterland"},"canton":{"key":"15","code":"AR","name":"Appenzell Ausserrhoden"},"status":"Real"},{"key":"10211976","name":"Wuhr","postalCode":"9063","locality":"Stein AR","commune":{"key":"3005","name":"Stein (AR)","shortName":"Stein (AR)"},"district":{"key":"1501","name":"Bezirk Hinterland"},"canton":{"key":"15","code":"AR","name":"Appenzell Ausserrhoden"},"status":"Real"},{"key":"10032117","name":"Würzen","postalCode":"9063","locality":"Stein AR","commune":{"key":"3005","name":"Stein (AR)","shortName":"Stein (AR)"},"district":{"key":"1501","name":"Bezirk Hinterland"},"canton":{"key":"15","code":"AR","name":"Appenzell Ausserrhoden"},"status":"Real"},{"key":"10054667","name":"Ziel","postalCode":"9063","locality":"Stein AR","commune":{"key":"3005","name":"Stein (AR)","shortName":"Stein (AR)"},"district":{"key":"1501","name":"Bezirk Hinterland"},"canton":{"key":"15","code":"AR","name":"Appenzell Ausserrhoden"},"status":"Real"},{"key":"10090131","name":"Zumm","postalCode":"9063","locality":"Stein AR","commune":{"key":"3005","name":"Stein (AR)","shortName":"Stein (AR)"},"district":{"key":"1501","name":"Bezirk Hinterland"},"canton":{"key":"15","code":"AR","name":"Appenzell Ausserrhoden"},"status":"Real"},]