[{"name":"Ahornweg","postalCode":"21509","locality":"Glinde","municipality":{"key":"01062018","name":"Glinde, Stadt","type":"Stadt"},"district":{"key":"01062","name":"Stormarn","type":"Kreis"},"federalState":{"key":"01","name":"Schleswig-Holstein"}},{"name":"Alte Wache Park","postalCode":"21509","locality":"Glinde","municipality":{"key":"01062018","name":"Glinde, Stadt","type":"Stadt"},"district":{"key":"01062","name":"Stormarn","type":"Kreis"},"federalState":{"key":"01","name":"Schleswig-Holstein"}},{"name":"Am alten Gleis","postalCode":"21509","locality":"Glinde","municipality":{"key":"01062018","name":"Glinde, Stadt","type":"Stadt"},"district":{"key":"01062","name":"Stormarn","type":"Kreis"},"federalState":{"key":"01","name":"Schleswig-Holstein"}},{"name":"Am Alten Kirchweg","postalCode":"21509","locality":"Glinde","municipality":{"key":"01062018","name":"Glinde, Stadt","type":"Stadt"},"district":{"key":"01062","name":"Stormarn","type":"Kreis"},"federalState":{"key":"01","name":"Schleswig-Holstein"}},{"name":"Am alten Lokschuppen","postalCode":"21509","locality":"Glinde","municipality":{"key":"01062018","name":"Glinde, Stadt","type":"Stadt"},"district":{"key":"01062","name":"Stormarn","type":"Kreis"},"federalState":{"key":"01","name":"Schleswig-Holstein"}},{"name":"Am Anger","postalCode":"21509","locality":"Glinde","municipality":{"key":"01062018","name":"Glinde, Stadt","type":"Stadt"},"district":{"key":"01062","name":"Stormarn","type":"Kreis"},"federalState":{"key":"01","name":"Schleswig-Holstein"}},{"name":"Am Berge","postalCode":"21509","locality":"Glinde","municipality":{"key":"01062018","name":"Glinde, Stadt","type":"Stadt"},"district":{"key":"01062","name":"Stormarn","type":"Kreis"},"federalState":{"key":"01","name":"Schleswig-Holstein"}},{"name":"Am Bogen","postalCode":"21509","locality":"Glinde","municipality":{"key":"01062018","name":"Glinde, Stadt","type":"Stadt"},"district":{"key":"01062","name":"Stormarn","type":"Kreis"},"federalState":{"key":"01","name":"Schleswig-Holstein"}},{"name":"Am Hünengrab","postalCode":"21509","locality":"Glinde","municipality":{"key":"01062018","name":"Glinde, Stadt","type":"Stadt"},"district":{"key":"01062","name":"Stormarn","type":"Kreis"},"federalState":{"key":"01","name":"Schleswig-Holstein"}},{"name":"Amselweg","postalCode":"21509","locality":"Glinde","municipality":{"key":"01062018","name":"Glinde, Stadt","type":"Stadt"},"district":{"key":"01062","name":"Stormarn","type":"Kreis"},"federalState":{"key":"01","name":"Schleswig-Holstein"}},{"name":"Am Spitzwald","postalCode":"21509","locality":"Glinde","municipality":{"key":"01062018","name":"Glinde, Stadt","type":"Stadt"},"district":{"key":"01062","name":"Stormarn","type":"Kreis"},"federalState":{"key":"01","name":"Schleswig-Holstein"}},{"name":"Am Sportplatz","postalCode":"21509","locality":"Glinde","municipality":{"key":"01062018","name":"Glinde, Stadt","type":"Stadt"},"district":{"key":"01062","name":"Stormarn","type":"Kreis"},"federalState":{"key":"01","name":"Schleswig-Holstein"}},{"name":"Am Südhang","postalCode":"21509","locality":"Glinde","municipality":{"key":"01062018","name":"Glinde, Stadt","type":"Stadt"},"district":{"key":"01062","name":"Stormarn","type":"Kreis"},"federalState":{"key":"01","name":"Schleswig-Holstein"}},{"name":"Am Walde","postalCode":"21509","locality":"Glinde","municipality":{"key":"01062018","name":"Glinde, Stadt","type":"Stadt"},"district":{"key":"01062","name":"Stormarn","type":"Kreis"},"federalState":{"key":"01","name":"Schleswig-Holstein"}},{"name":"An der Alten Wache","postalCode":"21509","locality":"Glinde","municipality":{"key":"01062018","name":"Glinde, Stadt","type":"Stadt"},"district":{"key":"01062","name":"Stormarn","type":"Kreis"},"federalState":{"key":"01","name":"Schleswig-Holstein"}},{"name":"An der Au","postalCode":"21509","locality":"Glinde","municipality":{"key":"01062018","name":"Glinde, Stadt","type":"Stadt"},"district":{"key":"01062","name":"Stormarn","type":"Kreis"},"federalState":{"key":"01","name":"Schleswig-Holstein"}},{"name":"Arthur-Christiansen-Str.","postalCode":"21509","locality":"Glinde","municipality":{"key":"01062018","name":"Glinde, Stadt","type":"Stadt"},"district":{"key":"01062","name":"Stormarn","type":"Kreis"},"federalState":{"key":"01","name":"Schleswig-Holstein"}},{"name":"Asbrook","postalCode":"21509","locality":"Glinde","municipality":{"key":"01062018","name":"Glinde, Stadt","type":"Stadt"},"district":{"key":"01062","name":"Stormarn","type":"Kreis"},"federalState":{"key":"01","name":"Schleswig-Holstein"}},{"name":"Auf dem Brink","postalCode":"21509","locality":"Glinde","municipality":{"key":"01062018","name":"Glinde, Stadt","type":"Stadt"},"district":{"key":"01062","name":"Stormarn","type":"Kreis"},"federalState":{"key":"01","name":"Schleswig-Holstein"}},{"name":"Auf dem Knüll","postalCode":"21509","locality":"Glinde","municipality":{"key":"01062018","name":"Glinde, Stadt","type":"Stadt"},"district":{"key":"01062","name":"Stormarn","type":"Kreis"},"federalState":{"key":"01","name":"Schleswig-Holstein"}},{"name":"Auf der Mühle","postalCode":"21509","locality":"Glinde","municipality":{"key":"01062018","name":"Glinde, Stadt","type":"Stadt"},"district":{"key":"01062","name":"Stormarn","type":"Kreis"},"federalState":{"key":"01","name":"Schleswig-Holstein"}},{"name":"Avenue Saint Sebastien","postalCode":"21509","locality":"Glinde","municipality":{"key":"01062018","name":"Glinde, Stadt","type":"Stadt"},"district":{"key":"01062","name":"Stormarn","type":"Kreis"},"federalState":{"key":"01","name":"Schleswig-Holstein"}},{"name":"Avenue St. Sebastien","postalCode":"21509","locality":"Glinde","municipality":{"key":"01062018","name":"Glinde, Stadt","type":"Stadt"},"district":{"key":"01062","name":"Stormarn","type":"Kreis"},"federalState":{"key":"01","name":"Schleswig-Holstein"}},{"name":"Bahnstr.","postalCode":"21509","locality":"Glinde","municipality":{"key":"01062018","name":"Glinde, Stadt","type":"Stadt"},"district":{"key":"01062","name":"Stormarn","type":"Kreis"},"federalState":{"key":"01","name":"Schleswig-Holstein"}},{"name":"Beim Hügel","postalCode":"21509","locality":"Glinde","municipality":{"key":"01062018","name":"Glinde, Stadt","type":"Stadt"},"district":{"key":"01062","name":"Stormarn","type":"Kreis"},"federalState":{"key":"01","name":"Schleswig-Holstein"}},{"name":"Beim Zeugamt","postalCode":"21509","locality":"Glinde","municipality":{"key":"01062018","name":"Glinde, Stadt","type":"Stadt"},"district":{"key":"01062","name":"Stormarn","type":"Kreis"},"federalState":{"key":"01","name":"Schleswig-Holstein"}},{"name":"Birkenweg","postalCode":"21509","locality":"Glinde","municipality":{"key":"01062018","name":"Glinde, Stadt","type":"Stadt"},"district":{"key":"01062","name":"Stormarn","type":"Kreis"},"federalState":{"key":"01","name":"Schleswig-Holstein"}},{"name":"Blockhorner Allee","postalCode":"21509","locality":"Glinde","municipality":{"key":"01062018","name":"Glinde, Stadt","type":"Stadt"},"district":{"key":"01062","name":"Stormarn","type":"Kreis"},"federalState":{"key":"01","name":"Schleswig-Holstein"}},{"name":"Bornweg","postalCode":"21509","locality":"Glinde","municipality":{"key":"01062018","name":"Glinde, Stadt","type":"Stadt"},"district":{"key":"01062","name":"Stormarn","type":"Kreis"},"federalState":{"key":"01","name":"Schleswig-Holstein"}},{"name":"Breiter Kamp","postalCode":"21509","locality":"Glinde","municipality":{"key":"01062018","name":"Glinde, Stadt","type":"Stadt"},"district":{"key":"01062","name":"Stormarn","type":"Kreis"},"federalState":{"key":"01","name":"Schleswig-Holstein"}},{"name":"Buchenweg","postalCode":"21509","locality":"Glinde","municipality":{"key":"01062018","name":"Glinde, Stadt","type":"Stadt"},"district":{"key":"01062","name":"Stormarn","type":"Kreis"},"federalState":{"key":"01","name":"Schleswig-Holstein"}},{"name":"Buernstraat","postalCode":"21509","locality":"Glinde","municipality":{"key":"01062018","name":"Glinde, Stadt","type":"Stadt"},"district":{"key":"01062","name":"Stormarn","type":"Kreis"},"federalState":{"key":"01","name":"Schleswig-Holstein"}},{"name":"Bünebüttler Weg","postalCode":"21509","locality":"Glinde","municipality":{"key":"01062018","name":"Glinde, Stadt","type":"Stadt"},"district":{"key":"01062","name":"Stormarn","type":"Kreis"},"federalState":{"key":"01","name":"Schleswig-Holstein"}},{"name":"Danziger Str.","postalCode":"21509","locality":"Glinde","municipality":{"key":"01062018","name":"Glinde, Stadt","type":"Stadt"},"district":{"key":"01062","name":"Stormarn","type":"Kreis"},"federalState":{"key":"01","name":"Schleswig-Holstein"}},{"name":"Diekkoppelweg","postalCode":"21509","locality":"Glinde","municipality":{"key":"01062018","name":"Glinde, Stadt","type":"Stadt"},"district":{"key":"01062","name":"Stormarn","type":"Kreis"},"federalState":{"key":"01","name":"Schleswig-Holstein"}},{"name":"Dorfstr.","postalCode":"21509","locality":"Glinde","municipality":{"key":"01062018","name":"Glinde, Stadt","type":"Stadt"},"district":{"key":"01062","name":"Stormarn","type":"Kreis"},"federalState":{"key":"01","name":"Schleswig-Holstein"}},{"name":"Drosselstieg","postalCode":"21509","locality":"Glinde","municipality":{"key":"01062018","name":"Glinde, Stadt","type":"Stadt"},"district":{"key":"01062","name":"Stormarn","type":"Kreis"},"federalState":{"key":"01","name":"Schleswig-Holstein"}},{"name":"Eggerskoppel","postalCode":"21509","locality":"Glinde","municipality":{"key":"01062018","name":"Glinde, Stadt","type":"Stadt"},"district":{"key":"01062","name":"Stormarn","type":"Kreis"},"federalState":{"key":"01","name":"Schleswig-Holstein"}},{"name":"Eichenknick","postalCode":"21509","locality":"Glinde","municipality":{"key":"01062018","name":"Glinde, Stadt","type":"Stadt"},"district":{"key":"01062","name":"Stormarn","type":"Kreis"},"federalState":{"key":"01","name":"Schleswig-Holstein"}},{"name":"Eichloh","postalCode":"21509","locality":"Glinde","municipality":{"key":"01062018","name":"Glinde, Stadt","type":"Stadt"},"district":{"key":"01062","name":"Stormarn","type":"Kreis"},"federalState":{"key":"01","name":"Schleswig-Holstein"}},{"name":"Ellerholz","postalCode":"21509","locality":"Glinde","municipality":{"key":"01062018","name":"Glinde, Stadt","type":"Stadt"},"district":{"key":"01062","name":"Stormarn","type":"Kreis"},"federalState":{"key":"01","name":"Schleswig-Holstein"}},{"name":"Gartenweg","postalCode":"21509","locality":"Glinde","municipality":{"key":"01062018","name":"Glinde, Stadt","type":"Stadt"},"district":{"key":"01062","name":"Stormarn","type":"Kreis"},"federalState":{"key":"01","name":"Schleswig-Holstein"}},{"name":"Gerda-Maßmann-Weg","postalCode":"21509","locality":"Glinde","municipality":{"key":"01062018","name":"Glinde, Stadt","type":"Stadt"},"district":{"key":"01062","name":"Stormarn","type":"Kreis"},"federalState":{"key":"01","name":"Schleswig-Holstein"}},{"name":"Gerhart-Hauptmann-Weg","postalCode":"21509","locality":"Glinde","municipality":{"key":"01062018","name":"Glinde, Stadt","type":"Stadt"},"district":{"key":"01062","name":"Stormarn","type":"Kreis"},"federalState":{"key":"01","name":"Schleswig-Holstein"}},{"name":"Glinder Weg","postalCode":"21509","locality":"Glinde","municipality":{"key":"01062018","name":"Glinde, Stadt","type":"Stadt"},"district":{"key":"01062","name":"Stormarn","type":"Kreis"},"federalState":{"key":"01","name":"Schleswig-Holstein"}},{"name":"Goldammerweg","postalCode":"21509","locality":"Glinde","municipality":{"key":"01062018","name":"Glinde, Stadt","type":"Stadt"},"district":{"key":"01062","name":"Stormarn","type":"Kreis"},"federalState":{"key":"01","name":"Schleswig-Holstein"}},{"name":"Groothegen","postalCode":"21509","locality":"Glinde","municipality":{"key":"01062018","name":"Glinde, Stadt","type":"Stadt"},"district":{"key":"01062","name":"Stormarn","type":"Kreis"},"federalState":{"key":"01","name":"Schleswig-Holstein"}},{"name":"Großer Glinder Berg","postalCode":"21509","locality":"Glinde","municipality":{"key":"01062018","name":"Glinde, Stadt","type":"Stadt"},"district":{"key":"01062","name":"Stormarn","type":"Kreis"},"federalState":{"key":"01","name":"Schleswig-Holstein"}},{"name":"Gutenbergstr.","postalCode":"21509","locality":"Glinde","municipality":{"key":"01062018","name":"Glinde, Stadt","type":"Stadt"},"district":{"key":"01062","name":"Stormarn","type":"Kreis"},"federalState":{"key":"01","name":"Schleswig-Holstein"}},{"name":"Haferberg","postalCode":"21509","locality":"Glinde","municipality":{"key":"01062018","name":"Glinde, Stadt","type":"Stadt"},"district":{"key":"01062","name":"Stormarn","type":"Kreis"},"federalState":{"key":"01","name":"Schleswig-Holstein"}},{"name":"Haidberg","postalCode":"21509","locality":"Glinde","municipality":{"key":"01062018","name":"Glinde, Stadt","type":"Stadt"},"district":{"key":"01062","name":"Stormarn","type":"Kreis"},"federalState":{"key":"01","name":"Schleswig-Holstein"}},{"name":"Havighorster Weg","postalCode":"21509","locality":"Glinde","municipality":{"key":"01062018","name":"Glinde, Stadt","type":"Stadt"},"district":{"key":"01062","name":"Stormarn","type":"Kreis"},"federalState":{"key":"01","name":"Schleswig-Holstein"}},{"name":"Helenenweg","postalCode":"21509","locality":"Glinde","municipality":{"key":"01062018","name":"Glinde, Stadt","type":"Stadt"},"district":{"key":"01062","name":"Stormarn","type":"Kreis"},"federalState":{"key":"01","name":"Schleswig-Holstein"}},{"name":"Herbert-Rübner-Str.","postalCode":"21509","locality":"Glinde","municipality":{"key":"01062018","name":"Glinde, Stadt","type":"Stadt"},"district":{"key":"01062","name":"Stormarn","type":"Kreis"},"federalState":{"key":"01","name":"Schleswig-Holstein"}},{"name":"Hinter den Tannen","postalCode":"21509","locality":"Glinde","municipality":{"key":"01062018","name":"Glinde, Stadt","type":"Stadt"},"district":{"key":"01062","name":"Stormarn","type":"Kreis"},"federalState":{"key":"01","name":"Schleswig-Holstein"}},{"name":"Hirtenweg","postalCode":"21509","locality":"Glinde","municipality":{"key":"01062018","name":"Glinde, Stadt","type":"Stadt"},"district":{"key":"01062","name":"Stormarn","type":"Kreis"},"federalState":{"key":"01","name":"Schleswig-Holstein"}},{"name":"Holstenkamp","postalCode":"21509","locality":"Glinde","municipality":{"key":"01062018","name":"Glinde, Stadt","type":"Stadt"},"district":{"key":"01062","name":"Stormarn","type":"Kreis"},"federalState":{"key":"01","name":"Schleswig-Holstein"}},{"name":"Holunderstieg","postalCode":"21509","locality":"Glinde","municipality":{"key":"01062018","name":"Glinde, Stadt","type":"Stadt"},"district":{"key":"01062","name":"Stormarn","type":"Kreis"},"federalState":{"key":"01","name":"Schleswig-Holstein"}},{"name":"Humboldtstr.","postalCode":"21509","locality":"Glinde","municipality":{"key":"01062018","name":"Glinde, Stadt","type":"Stadt"},"district":{"key":"01062","name":"Stormarn","type":"Kreis"},"federalState":{"key":"01","name":"Schleswig-Holstein"}},{"name":"Im Grund","postalCode":"21509","locality":"Glinde","municipality":{"key":"01062018","name":"Glinde, Stadt","type":"Stadt"},"district":{"key":"01062","name":"Stormarn","type":"Kreis"},"federalState":{"key":"01","name":"Schleswig-Holstein"}},{"name":"In der Trift","postalCode":"21509","locality":"Glinde","municipality":{"key":"01062018","name":"Glinde, Stadt","type":"Stadt"},"district":{"key":"01062","name":"Stormarn","type":"Kreis"},"federalState":{"key":"01","name":"Schleswig-Holstein"}},{"name":"Ingenieur-Honnef-Str.","postalCode":"21509","locality":"Glinde","municipality":{"key":"01062018","name":"Glinde, Stadt","type":"Stadt"},"district":{"key":"01062","name":"Stormarn","type":"Kreis"},"federalState":{"key":"01","name":"Schleswig-Holstein"}},{"name":"Kaposvár-Spange","postalCode":"21509","locality":"Glinde","municipality":{"key":"01062018","name":"Glinde, Stadt","type":"Stadt"},"district":{"key":"01062","name":"Stormarn","type":"Kreis"},"federalState":{"key":"01","name":"Schleswig-Holstein"}},{"name":"Kiebitzweg","postalCode":"21509","locality":"Glinde","municipality":{"key":"01062018","name":"Glinde, Stadt","type":"Stadt"},"district":{"key":"01062","name":"Stormarn","type":"Kreis"},"federalState":{"key":"01","name":"Schleswig-Holstein"}},{"name":"Kiefernbogen","postalCode":"21509","locality":"Glinde","municipality":{"key":"01062018","name":"Glinde, Stadt","type":"Stadt"},"district":{"key":"01062","name":"Stormarn","type":"Kreis"},"federalState":{"key":"01","name":"Schleswig-Holstein"}},{"name":"Kleiner Glinder Berg","postalCode":"21509","locality":"Glinde","municipality":{"key":"01062018","name":"Glinde, Stadt","type":"Stadt"},"district":{"key":"01062","name":"Stormarn","type":"Kreis"},"federalState":{"key":"01","name":"Schleswig-Holstein"}},{"name":"Knickrehm","postalCode":"21509","locality":"Glinde","municipality":{"key":"01062018","name":"Glinde, Stadt","type":"Stadt"},"district":{"key":"01062","name":"Stormarn","type":"Kreis"},"federalState":{"key":"01","name":"Schleswig-Holstein"}},{"name":"Königsberger Str.","postalCode":"21509","locality":"Glinde","municipality":{"key":"01062018","name":"Glinde, Stadt","type":"Stadt"},"district":{"key":"01062","name":"Stormarn","type":"Kreis"},"federalState":{"key":"01","name":"Schleswig-Holstein"}},{"name":"Kornblumenweg","postalCode":"21509","locality":"Glinde","municipality":{"key":"01062018","name":"Glinde, Stadt","type":"Stadt"},"district":{"key":"01062","name":"Stormarn","type":"Kreis"},"federalState":{"key":"01","name":"Schleswig-Holstein"}},{"name":"Kreuzkamp","postalCode":"21509","locality":"Glinde","municipality":{"key":"01062018","name":"Glinde, Stadt","type":"Stadt"},"district":{"key":"01062","name":"Stormarn","type":"Kreis"},"federalState":{"key":"01","name":"Schleswig-Holstein"}},{"name":"Kuno-Hanke-Weg","postalCode":"21509","locality":"Glinde","municipality":{"key":"01062018","name":"Glinde, Stadt","type":"Stadt"},"district":{"key":"01062","name":"Stormarn","type":"Kreis"},"federalState":{"key":"01","name":"Schleswig-Holstein"}},{"name":"Kupfermühlenweg","postalCode":"21509","locality":"Glinde","municipality":{"key":"01062018","name":"Glinde, Stadt","type":"Stadt"},"district":{"key":"01062","name":"Stormarn","type":"Kreis"},"federalState":{"key":"01","name":"Schleswig-Holstein"}},{"name":"Lerchenweg","postalCode":"21509","locality":"Glinde","municipality":{"key":"01062018","name":"Glinde, Stadt","type":"Stadt"},"district":{"key":"01062","name":"Stormarn","type":"Kreis"},"federalState":{"key":"01","name":"Schleswig-Holstein"}},{"name":"Markt Glinde","postalCode":"21509","locality":"Glinde","municipality":{"key":"01062018","name":"Glinde, Stadt","type":"Stadt"},"district":{"key":"01062","name":"Stormarn","type":"Kreis"},"federalState":{"key":"01","name":"Schleswig-Holstein"}},{"name":"Melkersgang","postalCode":"21509","locality":"Glinde","municipality":{"key":"01062018","name":"Glinde, Stadt","type":"Stadt"},"district":{"key":"01062","name":"Stormarn","type":"Kreis"},"federalState":{"key":"01","name":"Schleswig-Holstein"}},{"name":"Mittelstr.","postalCode":"21509","locality":"Glinde","municipality":{"key":"01062018","name":"Glinde, Stadt","type":"Stadt"},"district":{"key":"01062","name":"Stormarn","type":"Kreis"},"federalState":{"key":"01","name":"Schleswig-Holstein"}},{"name":"Möllersstieg","postalCode":"21509","locality":"Glinde","municipality":{"key":"01062018","name":"Glinde, Stadt","type":"Stadt"},"district":{"key":"01062","name":"Stormarn","type":"Kreis"},"federalState":{"key":"01","name":"Schleswig-Holstein"}},{"name":"Möllner Landstr.","postalCode":"21509","locality":"Glinde","municipality":{"key":"01062018","name":"Glinde, Stadt","type":"Stadt"},"district":{"key":"01062","name":"Stormarn","type":"Kreis"},"federalState":{"key":"01","name":"Schleswig-Holstein"}},{"name":"Mühlenstr.","postalCode":"21509","locality":"Glinde","municipality":{"key":"01062018","name":"Glinde, Stadt","type":"Stadt"},"district":{"key":"01062","name":"Stormarn","type":"Kreis"},"federalState":{"key":"01","name":"Schleswig-Holstein"}},{"name":"Mühlenweg","postalCode":"21509","locality":"Glinde","municipality":{"key":"01062018","name":"Glinde, Stadt","type":"Stadt"},"district":{"key":"01062","name":"Stormarn","type":"Kreis"},"federalState":{"key":"01","name":"Schleswig-Holstein"}},{"name":"Oher Weg","postalCode":"21509","locality":"Glinde","municipality":{"key":"01062018","name":"Glinde, Stadt","type":"Stadt"},"district":{"key":"01062","name":"Stormarn","type":"Kreis"},"federalState":{"key":"01","name":"Schleswig-Holstein"}},{"name":"Olande","postalCode":"21509","locality":"Glinde","municipality":{"key":"01062018","name":"Glinde, Stadt","type":"Stadt"},"district":{"key":"01062","name":"Stormarn","type":"Kreis"},"federalState":{"key":"01","name":"Schleswig-Holstein"}},{"name":"Osterfeld","postalCode":"21509","locality":"Glinde","municipality":{"key":"01062018","name":"Glinde, Stadt","type":"Stadt"},"district":{"key":"01062","name":"Stormarn","type":"Kreis"},"federalState":{"key":"01","name":"Schleswig-Holstein"}},{"name":"Otto-Hahn-Str.","postalCode":"21509","locality":"Glinde","municipality":{"key":"01062018","name":"Glinde, Stadt","type":"Stadt"},"district":{"key":"01062","name":"Stormarn","type":"Kreis"},"federalState":{"key":"01","name":"Schleswig-Holstein"}},{"name":"Papendieker Redder","postalCode":"21509","locality":"Glinde","municipality":{"key":"01062018","name":"Glinde, Stadt","type":"Stadt"},"district":{"key":"01062","name":"Stormarn","type":"Kreis"},"federalState":{"key":"01","name":"Schleswig-Holstein"}},{"name":"Park am alten Stützpunkt","postalCode":"21509","locality":"Glinde","municipality":{"key":"01062018","name":"Glinde, Stadt","type":"Stadt"},"district":{"key":"01062","name":"Stormarn","type":"Kreis"},"federalState":{"key":"01","name":"Schleswig-Holstein"}},{"name":"Pestalozzistr.","postalCode":"21509","locality":"Glinde","municipality":{"key":"01062018","name":"Glinde, Stadt","type":"Stadt"},"district":{"key":"01062","name":"Stormarn","type":"Kreis"},"federalState":{"key":"01","name":"Schleswig-Holstein"}},{"name":"Pickerade","postalCode":"21509","locality":"Glinde","municipality":{"key":"01062018","name":"Glinde, Stadt","type":"Stadt"},"district":{"key":"01062","name":"Stormarn","type":"Kreis"},"federalState":{"key":"01","name":"Schleswig-Holstein"}},{"name":"Poststr.","postalCode":"21509","locality":"Glinde","municipality":{"key":"01062018","name":"Glinde, Stadt","type":"Stadt"},"district":{"key":"01062","name":"Stormarn","type":"Kreis"},"federalState":{"key":"01","name":"Schleswig-Holstein"}},{"name":"Prof.-Bachofer-Str.","postalCode":"21509","locality":"Glinde","municipality":{"key":"01062018","name":"Glinde, Stadt","type":"Stadt"},"district":{"key":"01062","name":"Stormarn","type":"Kreis"},"federalState":{"key":"01","name":"Schleswig-Holstein"}},{"name":"Quellental","postalCode":"21509","locality":"Glinde","municipality":{"key":"01062018","name":"Glinde, Stadt","type":"Stadt"},"district":{"key":"01062","name":"Stormarn","type":"Kreis"},"federalState":{"key":"01","name":"Schleswig-Holstein"}},{"name":"Querweg","postalCode":"21509","locality":"Glinde","municipality":{"key":"01062018","name":"Glinde, Stadt","type":"Stadt"},"district":{"key":"01062","name":"Stormarn","type":"Kreis"},"federalState":{"key":"01","name":"Schleswig-Holstein"}},{"name":"Rehwisch","postalCode":"21509","locality":"Glinde","municipality":{"key":"01062018","name":"Glinde, Stadt","type":"Stadt"},"district":{"key":"01062","name":"Stormarn","type":"Kreis"},"federalState":{"key":"01","name":"Schleswig-Holstein"}},{"name":"Reinbeker Weg","postalCode":"21509","locality":"Glinde","municipality":{"key":"01062018","name":"Glinde, Stadt","type":"Stadt"},"district":{"key":"01062","name":"Stormarn","type":"Kreis"},"federalState":{"key":"01","name":"Schleswig-Holstein"}},{"name":"Robert-Bosch-Str.","postalCode":"21509","locality":"Glinde","municipality":{"key":"01062018","name":"Glinde, Stadt","type":"Stadt"},"district":{"key":"01062","name":"Stormarn","type":"Kreis"},"federalState":{"key":"01","name":"Schleswig-Holstein"}},{"name":"Robert-Schuman-Weg","postalCode":"21509","locality":"Glinde","municipality":{"key":"01062018","name":"Glinde, Stadt","type":"Stadt"},"district":{"key":"01062","name":"Stormarn","type":"Kreis"},"federalState":{"key":"01","name":"Schleswig-Holstein"}},{"name":"Rödenbrooksweg","postalCode":"21509","locality":"Glinde","municipality":{"key":"01062018","name":"Glinde, Stadt","type":"Stadt"},"district":{"key":"01062","name":"Stormarn","type":"Kreis"},"federalState":{"key":"01","name":"Schleswig-Holstein"}},{"name":"Rotdornweg","postalCode":"21509","locality":"Glinde","municipality":{"key":"01062018","name":"Glinde, Stadt","type":"Stadt"},"district":{"key":"01062","name":"Stormarn","type":"Kreis"},"federalState":{"key":"01","name":"Schleswig-Holstein"}},{"name":"Saalbergstr.","postalCode":"21509","locality":"Glinde","municipality":{"key":"01062018","name":"Glinde, Stadt","type":"Stadt"},"district":{"key":"01062","name":"Stormarn","type":"Kreis"},"federalState":{"key":"01","name":"Schleswig-Holstein"}},{"name":"Sandkamp","postalCode":"21509","locality":"Glinde","municipality":{"key":"01062018","name":"Glinde, Stadt","type":"Stadt"},"district":{"key":"01062","name":"Stormarn","type":"Kreis"},"federalState":{"key":"01","name":"Schleswig-Holstein"}},{"name":"Sandweg","postalCode":"21509","locality":"Glinde","municipality":{"key":"01062018","name":"Glinde, Stadt","type":"Stadt"},"district":{"key":"01062","name":"Stormarn","type":"Kreis"},"federalState":{"key":"01","name":"Schleswig-Holstein"}},{"name":"Schachbrett","postalCode":"21509","locality":"Glinde","municipality":{"key":"01062018","name":"Glinde, Stadt","type":"Stadt"},"district":{"key":"01062","name":"Stormarn","type":"Kreis"},"federalState":{"key":"01","name":"Schleswig-Holstein"}},{"name":"Schlehenweg","postalCode":"21509","locality":"Glinde","municipality":{"key":"01062018","name":"Glinde, Stadt","type":"Stadt"},"district":{"key":"01062","name":"Stormarn","type":"Kreis"},"federalState":{"key":"01","name":"Schleswig-Holstein"}},{"name":"Schönhorst","postalCode":"21509","locality":"Glinde","municipality":{"key":"01062018","name":"Glinde, Stadt","type":"Stadt"},"district":{"key":"01062","name":"Stormarn","type":"Kreis"},"federalState":{"key":"01","name":"Schleswig-Holstein"}},{"name":"Schoolmestersbagen","postalCode":"21509","locality":"Glinde","municipality":{"key":"01062018","name":"Glinde, Stadt","type":"Stadt"},"district":{"key":"01062","name":"Stormarn","type":"Kreis"},"federalState":{"key":"01","name":"Schleswig-Holstein"}},{"name":"Schoosterspadd","postalCode":"21509","locality":"Glinde","municipality":{"key":"01062018","name":"Glinde, Stadt","type":"Stadt"},"district":{"key":"01062","name":"Stormarn","type":"Kreis"},"federalState":{"key":"01","name":"Schleswig-Holstein"}},{"name":"Schrödersweg","postalCode":"21509","locality":"Glinde","municipality":{"key":"01062018","name":"Glinde, Stadt","type":"Stadt"},"district":{"key":"01062","name":"Stormarn","type":"Kreis"},"federalState":{"key":"01","name":"Schleswig-Holstein"}},{"name":"Schulstr.","postalCode":"21509","locality":"Glinde","municipality":{"key":"01062018","name":"Glinde, Stadt","type":"Stadt"},"district":{"key":"01062","name":"Stormarn","type":"Kreis"},"federalState":{"key":"01","name":"Schleswig-Holstein"}},{"name":"Sebaldkoppel","postalCode":"21509","locality":"Glinde","municipality":{"key":"01062018","name":"Glinde, Stadt","type":"Stadt"},"district":{"key":"01062","name":"Stormarn","type":"Kreis"},"federalState":{"key":"01","name":"Schleswig-Holstein"}},{"name":"Siemensstr.","postalCode":"21509","locality":"Glinde","municipality":{"key":"01062018","name":"Glinde, Stadt","type":"Stadt"},"district":{"key":"01062","name":"Stormarn","type":"Kreis"},"federalState":{"key":"01","name":"Schleswig-Holstein"}},{"name":"Sniedersloop","postalCode":"21509","locality":"Glinde","municipality":{"key":"01062018","name":"Glinde, Stadt","type":"Stadt"},"district":{"key":"01062","name":"Stormarn","type":"Kreis"},"federalState":{"key":"01","name":"Schleswig-Holstein"}},{"name":"Sönke-Nissen-Allee","postalCode":"21509","locality":"Glinde","municipality":{"key":"01062018","name":"Glinde, Stadt","type":"Stadt"},"district":{"key":"01062","name":"Stormarn","type":"Kreis"},"federalState":{"key":"01","name":"Schleswig-Holstein"}},{"name":"Steenrehm","postalCode":"21509","locality":"Glinde","municipality":{"key":"01062018","name":"Glinde, Stadt","type":"Stadt"},"district":{"key":"01062","name":"Stormarn","type":"Kreis"},"federalState":{"key":"01","name":"Schleswig-Holstein"}},{"name":"Stettiner Weg","postalCode":"21509","locality":"Glinde","municipality":{"key":"01062018","name":"Glinde, Stadt","type":"Stadt"},"district":{"key":"01062","name":"Stormarn","type":"Kreis"},"federalState":{"key":"01","name":"Schleswig-Holstein"}},{"name":"Stormarnring","postalCode":"21509","locality":"Glinde","municipality":{"key":"01062018","name":"Glinde, Stadt","type":"Stadt"},"district":{"key":"01062","name":"Stormarn","type":"Kreis"},"federalState":{"key":"01","name":"Schleswig-Holstein"}},{"name":"Stübenkoppel","postalCode":"21509","locality":"Glinde","municipality":{"key":"01062018","name":"Glinde, Stadt","type":"Stadt"},"district":{"key":"01062","name":"Stormarn","type":"Kreis"},"federalState":{"key":"01","name":"Schleswig-Holstein"}},{"name":"Suckkoppel","postalCode":"21509","locality":"Glinde","municipality":{"key":"01062018","name":"Glinde, Stadt","type":"Stadt"},"district":{"key":"01062","name":"Stormarn","type":"Kreis"},"federalState":{"key":"01","name":"Schleswig-Holstein"}},{"name":"Tannenweg","postalCode":"21509","locality":"Glinde","municipality":{"key":"01062018","name":"Glinde, Stadt","type":"Stadt"},"district":{"key":"01062","name":"Stormarn","type":"Kreis"},"federalState":{"key":"01","name":"Schleswig-Holstein"}},{"name":"Theodor-Storm-Weg","postalCode":"21509","locality":"Glinde","municipality":{"key":"01062018","name":"Glinde, Stadt","type":"Stadt"},"district":{"key":"01062","name":"Stormarn","type":"Kreis"},"federalState":{"key":"01","name":"Schleswig-Holstein"}},{"name":"Verbindungsweg","postalCode":"21509","locality":"Glinde","municipality":{"key":"01062018","name":"Glinde, Stadt","type":"Stadt"},"district":{"key":"01062","name":"Stormarn","type":"Kreis"},"federalState":{"key":"01","name":"Schleswig-Holstein"}},{"name":"Waldweg","postalCode":"21509","locality":"Glinde","municipality":{"key":"01062018","name":"Glinde, Stadt","type":"Stadt"},"district":{"key":"01062","name":"Stormarn","type":"Kreis"},"federalState":{"key":"01","name":"Schleswig-Holstein"}},{"name":"Weg an der Gutsmauer","postalCode":"21509","locality":"Glinde","municipality":{"key":"01062018","name":"Glinde, Stadt","type":"Stadt"},"district":{"key":"01062","name":"Stormarn","type":"Kreis"},"federalState":{"key":"01","name":"Schleswig-Holstein"}},{"name":"Weidenweg","postalCode":"21509","locality":"Glinde","municipality":{"key":"01062018","name":"Glinde, Stadt","type":"Stadt"},"district":{"key":"01062","name":"Stormarn","type":"Kreis"},"federalState":{"key":"01","name":"Schleswig-Holstein"}},{"name":"Weißdornweg","postalCode":"21509","locality":"Glinde","municipality":{"key":"01062018","name":"Glinde, Stadt","type":"Stadt"},"district":{"key":"01062","name":"Stormarn","type":"Kreis"},"federalState":{"key":"01","name":"Schleswig-Holstein"}},{"name":"Wiesenstieg","postalCode":"21509","locality":"Glinde","municipality":{"key":"01062018","name":"Glinde, Stadt","type":"Stadt"},"district":{"key":"01062","name":"Stormarn","type":"Kreis"},"federalState":{"key":"01","name":"Schleswig-Holstein"}},{"name":"Wilhelm-Bergner-Str.","postalCode":"21509","locality":"Glinde","municipality":{"key":"01062018","name":"Glinde, Stadt","type":"Stadt"},"district":{"key":"01062","name":"Stormarn","type":"Kreis"},"federalState":{"key":"01","name":"Schleswig-Holstein"}},{"name":"Willinghusener Weg","postalCode":"21509","locality":"Glinde","municipality":{"key":"01062018","name":"Glinde, Stadt","type":"Stadt"},"district":{"key":"01062","name":"Stormarn","type":"Kreis"},"federalState":{"key":"01","name":"Schleswig-Holstein"}},{"name":"Zur Bek","postalCode":"21509","locality":"Glinde","municipality":{"key":"01062018","name":"Glinde, Stadt","type":"Stadt"},"district":{"key":"01062","name":"Stormarn","type":"Kreis"},"federalState":{"key":"01","name":"Schleswig-Holstein"}},{"name":"Zur Feldmark","postalCode":"21509","locality":"Glinde","municipality":{"key":"01062018","name":"Glinde, Stadt","type":"Stadt"},"district":{"key":"01062","name":"Stormarn","type":"Kreis"},"federalState":{"key":"01","name":"Schleswig-Holstein"}},]