[{"name":"Adeborsweg","postalCode":"18184","locality":"Broderstorf","municipality":{"key":"13072019","name":"Broderstorf","type":"Kreisangehörige_Gemeinde"},"district":{"key":"13072","name":"Landkreis Rostock","type":"Landkreis"},"federalState":{"key":"13","name":"Mecklenburg-Vorpommern"}},{"name":"Albertsdorfer Weg","postalCode":"18184","locality":"Broderstorf","municipality":{"key":"13072019","name":"Broderstorf","type":"Kreisangehörige_Gemeinde"},"district":{"key":"13072","name":"Landkreis Rostock","type":"Landkreis"},"federalState":{"key":"13","name":"Mecklenburg-Vorpommern"}},{"name":"Alte Rostocker Str.","postalCode":"18184","locality":"Broderstorf","municipality":{"key":"13072019","name":"Broderstorf","type":"Kreisangehörige_Gemeinde"},"district":{"key":"13072","name":"Landkreis Rostock","type":"Landkreis"},"federalState":{"key":"13","name":"Mecklenburg-Vorpommern"}},{"name":"Am Beistensoll","postalCode":"18184","locality":"Broderstorf","municipality":{"key":"13072019","name":"Broderstorf","type":"Kreisangehörige_Gemeinde"},"district":{"key":"13072","name":"Landkreis Rostock","type":"Landkreis"},"federalState":{"key":"13","name":"Mecklenburg-Vorpommern"}},{"name":"Am Bogen","postalCode":"18184","locality":"Broderstorf","municipality":{"key":"13072019","name":"Broderstorf","type":"Kreisangehörige_Gemeinde"},"district":{"key":"13072","name":"Landkreis Rostock","type":"Landkreis"},"federalState":{"key":"13","name":"Mecklenburg-Vorpommern"}},{"name":"Am Dorfteich","postalCode":"18184","locality":"Broderstorf","municipality":{"key":"13072019","name":"Broderstorf","type":"Kreisangehörige_Gemeinde"},"district":{"key":"13072","name":"Landkreis Rostock","type":"Landkreis"},"federalState":{"key":"13","name":"Mecklenburg-Vorpommern"}},{"name":"Am Feldrain","postalCode":"18184","locality":"Broderstorf","municipality":{"key":"13072019","name":"Broderstorf","type":"Kreisangehörige_Gemeinde"},"district":{"key":"13072","name":"Landkreis Rostock","type":"Landkreis"},"federalState":{"key":"13","name":"Mecklenburg-Vorpommern"}},{"name":"Am Graben","postalCode":"18184","locality":"Broderstorf","municipality":{"key":"13072019","name":"Broderstorf","type":"Kreisangehörige_Gemeinde"},"district":{"key":"13072","name":"Landkreis Rostock","type":"Landkreis"},"federalState":{"key":"13","name":"Mecklenburg-Vorpommern"}},{"name":"Am Handelspark","postalCode":"18184","locality":"Broderstorf","municipality":{"key":"13072019","name":"Broderstorf","type":"Kreisangehörige_Gemeinde"},"district":{"key":"13072","name":"Landkreis Rostock","type":"Landkreis"},"federalState":{"key":"13","name":"Mecklenburg-Vorpommern"}},{"name":"Am Karpfenteich","postalCode":"18184","locality":"Broderstorf","municipality":{"key":"13072019","name":"Broderstorf","type":"Kreisangehörige_Gemeinde"},"district":{"key":"13072","name":"Landkreis Rostock","type":"Landkreis"},"federalState":{"key":"13","name":"Mecklenburg-Vorpommern"}},{"name":"Am Pferdeteich","postalCode":"18184","locality":"Broderstorf","municipality":{"key":"13072019","name":"Broderstorf","type":"Kreisangehörige_Gemeinde"},"district":{"key":"13072","name":"Landkreis Rostock","type":"Landkreis"},"federalState":{"key":"13","name":"Mecklenburg-Vorpommern"}},{"name":"Am Storchennest","postalCode":"18184","locality":"Broderstorf","municipality":{"key":"13072019","name":"Broderstorf","type":"Kreisangehörige_Gemeinde"},"district":{"key":"13072","name":"Landkreis Rostock","type":"Landkreis"},"federalState":{"key":"13","name":"Mecklenburg-Vorpommern"}},{"name":"Am Wiesengrund","postalCode":"18184","locality":"Broderstorf","municipality":{"key":"13072019","name":"Broderstorf","type":"Kreisangehörige_Gemeinde"},"district":{"key":"13072","name":"Landkreis Rostock","type":"Landkreis"},"federalState":{"key":"13","name":"Mecklenburg-Vorpommern"}},{"name":"An der Autobahn","postalCode":"18184","locality":"Broderstorf","municipality":{"key":"13072019","name":"Broderstorf","type":"Kreisangehörige_Gemeinde"},"district":{"key":"13072","name":"Landkreis Rostock","type":"Landkreis"},"federalState":{"key":"13","name":"Mecklenburg-Vorpommern"}},{"name":"An der Schule","postalCode":"18184","locality":"Broderstorf","municipality":{"key":"13072019","name":"Broderstorf","type":"Kreisangehörige_Gemeinde"},"district":{"key":"13072","name":"Landkreis Rostock","type":"Landkreis"},"federalState":{"key":"13","name":"Mecklenburg-Vorpommern"}},{"name":"Beistensoll","postalCode":"18184","locality":"Broderstorf","municipality":{"key":"13072019","name":"Broderstorf","type":"Kreisangehörige_Gemeinde"},"district":{"key":"13072","name":"Landkreis Rostock","type":"Landkreis"},"federalState":{"key":"13","name":"Mecklenburg-Vorpommern"}},{"name":"Birkenweg","postalCode":"18184","locality":"Broderstorf","municipality":{"key":"13072019","name":"Broderstorf","type":"Kreisangehörige_Gemeinde"},"district":{"key":"13072","name":"Landkreis Rostock","type":"Landkreis"},"federalState":{"key":"13","name":"Mecklenburg-Vorpommern"}},{"name":"Buchenweg","postalCode":"18184","locality":"Broderstorf","municipality":{"key":"13072019","name":"Broderstorf","type":"Kreisangehörige_Gemeinde"},"district":{"key":"13072","name":"Landkreis Rostock","type":"Landkreis"},"federalState":{"key":"13","name":"Mecklenburg-Vorpommern"}},{"name":"Dorfstr.","postalCode":"18184","locality":"Broderstorf","municipality":{"key":"13072019","name":"Broderstorf","type":"Kreisangehörige_Gemeinde"},"district":{"key":"13072","name":"Landkreis Rostock","type":"Landkreis"},"federalState":{"key":"13","name":"Mecklenburg-Vorpommern"}},{"name":"Ebereschenweg","postalCode":"18184","locality":"Broderstorf","municipality":{"key":"13072019","name":"Broderstorf","type":"Kreisangehörige_Gemeinde"},"district":{"key":"13072","name":"Landkreis Rostock","type":"Landkreis"},"federalState":{"key":"13","name":"Mecklenburg-Vorpommern"}},{"name":"Eichenweg","postalCode":"18184","locality":"Broderstorf","municipality":{"key":"13072019","name":"Broderstorf","type":"Kreisangehörige_Gemeinde"},"district":{"key":"13072","name":"Landkreis Rostock","type":"Landkreis"},"federalState":{"key":"13","name":"Mecklenburg-Vorpommern"}},{"name":"Erlengang","postalCode":"18184","locality":"Broderstorf","municipality":{"key":"13072019","name":"Broderstorf","type":"Kreisangehörige_Gemeinde"},"district":{"key":"13072","name":"Landkreis Rostock","type":"Landkreis"},"federalState":{"key":"13","name":"Mecklenburg-Vorpommern"}},{"name":"Eschenweg","postalCode":"18184","locality":"Broderstorf","municipality":{"key":"13072019","name":"Broderstorf","type":"Kreisangehörige_Gemeinde"},"district":{"key":"13072","name":"Landkreis Rostock","type":"Landkreis"},"federalState":{"key":"13","name":"Mecklenburg-Vorpommern"}},{"name":"Feldweg","postalCode":"18184","locality":"Broderstorf","municipality":{"key":"13072019","name":"Broderstorf","type":"Kreisangehörige_Gemeinde"},"district":{"key":"13072","name":"Landkreis Rostock","type":"Landkreis"},"federalState":{"key":"13","name":"Mecklenburg-Vorpommern"}},{"name":"Forsythienweg","postalCode":"18184","locality":"Broderstorf","municipality":{"key":"13072019","name":"Broderstorf","type":"Kreisangehörige_Gemeinde"},"district":{"key":"13072","name":"Landkreis Rostock","type":"Landkreis"},"federalState":{"key":"13","name":"Mecklenburg-Vorpommern"}},{"name":"Gutshausweg","postalCode":"18184","locality":"Broderstorf","municipality":{"key":"13072019","name":"Broderstorf","type":"Kreisangehörige_Gemeinde"},"district":{"key":"13072","name":"Landkreis Rostock","type":"Landkreis"},"federalState":{"key":"13","name":"Mecklenburg-Vorpommern"}},{"name":"Hahnenkamp","postalCode":"18184","locality":"Broderstorf","municipality":{"key":"13072019","name":"Broderstorf","type":"Kreisangehörige_Gemeinde"},"district":{"key":"13072","name":"Landkreis Rostock","type":"Landkreis"},"federalState":{"key":"13","name":"Mecklenburg-Vorpommern"}},{"name":"Haubenweg","postalCode":"18184","locality":"Broderstorf","municipality":{"key":"13072019","name":"Broderstorf","type":"Kreisangehörige_Gemeinde"},"district":{"key":"13072","name":"Landkreis Rostock","type":"Landkreis"},"federalState":{"key":"13","name":"Mecklenburg-Vorpommern"}},{"name":"Hof Baller","postalCode":"18184","locality":"Broderstorf","municipality":{"key":"13072019","name":"Broderstorf","type":"Kreisangehörige_Gemeinde"},"district":{"key":"13072","name":"Landkreis Rostock","type":"Landkreis"},"federalState":{"key":"13","name":"Mecklenburg-Vorpommern"}},{"name":"Hundsbarg","postalCode":"18184","locality":"Broderstorf","municipality":{"key":"13072019","name":"Broderstorf","type":"Kreisangehörige_Gemeinde"},"district":{"key":"13072","name":"Landkreis Rostock","type":"Landkreis"},"federalState":{"key":"13","name":"Mecklenburg-Vorpommern"}},{"name":"Immenbarg","postalCode":"18184","locality":"Broderstorf","municipality":{"key":"13072019","name":"Broderstorf","type":"Kreisangehörige_Gemeinde"},"district":{"key":"13072","name":"Landkreis Rostock","type":"Landkreis"},"federalState":{"key":"13","name":"Mecklenburg-Vorpommern"}},{"name":"Katersteig","postalCode":"18184","locality":"Broderstorf","municipality":{"key":"13072019","name":"Broderstorf","type":"Kreisangehörige_Gemeinde"},"district":{"key":"13072","name":"Landkreis Rostock","type":"Landkreis"},"federalState":{"key":"13","name":"Mecklenburg-Vorpommern"}},{"name":"Kirchweg","postalCode":"18184","locality":"Broderstorf","municipality":{"key":"13072019","name":"Broderstorf","type":"Kreisangehörige_Gemeinde"},"district":{"key":"13072","name":"Landkreis Rostock","type":"Landkreis"},"federalState":{"key":"13","name":"Mecklenburg-Vorpommern"}},{"name":"Kösterbecker Str.","postalCode":"18184","locality":"Broderstorf","municipality":{"key":"13072019","name":"Broderstorf","type":"Kreisangehörige_Gemeinde"},"district":{"key":"13072","name":"Landkreis Rostock","type":"Landkreis"},"federalState":{"key":"13","name":"Mecklenburg-Vorpommern"}},{"name":"Kottwiesenring","postalCode":"18184","locality":"Broderstorf","municipality":{"key":"13072019","name":"Broderstorf","type":"Kreisangehörige_Gemeinde"},"district":{"key":"13072","name":"Landkreis Rostock","type":"Landkreis"},"federalState":{"key":"13","name":"Mecklenburg-Vorpommern"}},{"name":"Kreihgenweg","postalCode":"18184","locality":"Broderstorf","municipality":{"key":"13072019","name":"Broderstorf","type":"Kreisangehörige_Gemeinde"},"district":{"key":"13072","name":"Landkreis Rostock","type":"Landkreis"},"federalState":{"key":"13","name":"Mecklenburg-Vorpommern"}},{"name":"Lerchenfeld","postalCode":"18184","locality":"Broderstorf","municipality":{"key":"13072019","name":"Broderstorf","type":"Kreisangehörige_Gemeinde"},"district":{"key":"13072","name":"Landkreis Rostock","type":"Landkreis"},"federalState":{"key":"13","name":"Mecklenburg-Vorpommern"}},{"name":"Lindenweg","postalCode":"18184","locality":"Broderstorf","municipality":{"key":"13072019","name":"Broderstorf","type":"Kreisangehörige_Gemeinde"},"district":{"key":"13072","name":"Landkreis Rostock","type":"Landkreis"},"federalState":{"key":"13","name":"Mecklenburg-Vorpommern"}},{"name":"Lütt Horn","postalCode":"18184","locality":"Broderstorf","municipality":{"key":"13072019","name":"Broderstorf","type":"Kreisangehörige_Gemeinde"},"district":{"key":"13072","name":"Landkreis Rostock","type":"Landkreis"},"federalState":{"key":"13","name":"Mecklenburg-Vorpommern"}},{"name":"Mecklenburger Str.","postalCode":"18184","locality":"Broderstorf","municipality":{"key":"13072019","name":"Broderstorf","type":"Kreisangehörige_Gemeinde"},"district":{"key":"13072","name":"Landkreis Rostock","type":"Landkreis"},"federalState":{"key":"13","name":"Mecklenburg-Vorpommern"}},{"name":"Moorweg","postalCode":"18184","locality":"Broderstorf","municipality":{"key":"13072019","name":"Broderstorf","type":"Kreisangehörige_Gemeinde"},"district":{"key":"13072","name":"Landkreis Rostock","type":"Landkreis"},"federalState":{"key":"13","name":"Mecklenburg-Vorpommern"}},{"name":"Mühlenteich","postalCode":"18184","locality":"Broderstorf","municipality":{"key":"13072019","name":"Broderstorf","type":"Kreisangehörige_Gemeinde"},"district":{"key":"13072","name":"Landkreis Rostock","type":"Landkreis"},"federalState":{"key":"13","name":"Mecklenburg-Vorpommern"}},{"name":"Neu Harmstorf","postalCode":"18184","locality":"Broderstorf","municipality":{"key":"13072019","name":"Broderstorf","type":"Kreisangehörige_Gemeinde"},"district":{"key":"13072","name":"Landkreis Rostock","type":"Landkreis"},"federalState":{"key":"13","name":"Mecklenburg-Vorpommern"}},{"name":"Poststr.","postalCode":"18184","locality":"Broderstorf","municipality":{"key":"13072019","name":"Broderstorf","type":"Kreisangehörige_Gemeinde"},"district":{"key":"13072","name":"Landkreis Rostock","type":"Landkreis"},"federalState":{"key":"13","name":"Mecklenburg-Vorpommern"}},{"name":"Roßkastanienstr.","postalCode":"18184","locality":"Broderstorf","municipality":{"key":"13072019","name":"Broderstorf","type":"Kreisangehörige_Gemeinde"},"district":{"key":"13072","name":"Landkreis Rostock","type":"Landkreis"},"federalState":{"key":"13","name":"Mecklenburg-Vorpommern"}},{"name":"Rostocker Chaussee","postalCode":"18184","locality":"Broderstorf","municipality":{"key":"13072019","name":"Broderstorf","type":"Kreisangehörige_Gemeinde"},"district":{"key":"13072","name":"Landkreis Rostock","type":"Landkreis"},"federalState":{"key":"13","name":"Mecklenburg-Vorpommern"}},{"name":"Rostocker Landstr.","postalCode":"18184","locality":"Broderstorf","municipality":{"key":"13072019","name":"Broderstorf","type":"Kreisangehörige_Gemeinde"},"district":{"key":"13072","name":"Landkreis Rostock","type":"Landkreis"},"federalState":{"key":"13","name":"Mecklenburg-Vorpommern"}},{"name":"Rostocker Str.","postalCode":"18184","locality":"Broderstorf","municipality":{"key":"13072019","name":"Broderstorf","type":"Kreisangehörige_Gemeinde"},"district":{"key":"13072","name":"Landkreis Rostock","type":"Landkreis"},"federalState":{"key":"13","name":"Mecklenburg-Vorpommern"}},{"name":"Rothbeck","postalCode":"18184","locality":"Broderstorf","municipality":{"key":"13072019","name":"Broderstorf","type":"Kreisangehörige_Gemeinde"},"district":{"key":"13072","name":"Landkreis Rostock","type":"Landkreis"},"federalState":{"key":"13","name":"Mecklenburg-Vorpommern"}},{"name":"Scheunenweg","postalCode":"18184","locality":"Broderstorf","municipality":{"key":"13072019","name":"Broderstorf","type":"Kreisangehörige_Gemeinde"},"district":{"key":"13072","name":"Landkreis Rostock","type":"Landkreis"},"federalState":{"key":"13","name":"Mecklenburg-Vorpommern"}},{"name":"Schwarzer Weg","postalCode":"18184","locality":"Broderstorf","municipality":{"key":"13072019","name":"Broderstorf","type":"Kreisangehörige_Gemeinde"},"district":{"key":"13072","name":"Landkreis Rostock","type":"Landkreis"},"federalState":{"key":"13","name":"Mecklenburg-Vorpommern"}},{"name":"Seitenweg","postalCode":"18184","locality":"Broderstorf","municipality":{"key":"13072019","name":"Broderstorf","type":"Kreisangehörige_Gemeinde"},"district":{"key":"13072","name":"Landkreis Rostock","type":"Landkreis"},"federalState":{"key":"13","name":"Mecklenburg-Vorpommern"}},{"name":"Steinfelder Weg","postalCode":"18184","locality":"Broderstorf","municipality":{"key":"13072019","name":"Broderstorf","type":"Kreisangehörige_Gemeinde"},"district":{"key":"13072","name":"Landkreis Rostock","type":"Landkreis"},"federalState":{"key":"13","name":"Mecklenburg-Vorpommern"}},{"name":"Stichstr.","postalCode":"18184","locality":"Broderstorf","municipality":{"key":"13072019","name":"Broderstorf","type":"Kreisangehörige_Gemeinde"},"district":{"key":"13072","name":"Landkreis Rostock","type":"Landkreis"},"federalState":{"key":"13","name":"Mecklenburg-Vorpommern"}},{"name":"Tessiner Str.","postalCode":"18184","locality":"Broderstorf","municipality":{"key":"13072019","name":"Broderstorf","type":"Kreisangehörige_Gemeinde"},"district":{"key":"13072","name":"Landkreis Rostock","type":"Landkreis"},"federalState":{"key":"13","name":"Mecklenburg-Vorpommern"}},{"name":"Vogelhüttenschneise","postalCode":"18184","locality":"Broderstorf","municipality":{"key":"13072019","name":"Broderstorf","type":"Kreisangehörige_Gemeinde"},"district":{"key":"13072","name":"Landkreis Rostock","type":"Landkreis"},"federalState":{"key":"13","name":"Mecklenburg-Vorpommern"}},{"name":"Waldweg","postalCode":"18184","locality":"Broderstorf","municipality":{"key":"13072019","name":"Broderstorf","type":"Kreisangehörige_Gemeinde"},"district":{"key":"13072","name":"Landkreis Rostock","type":"Landkreis"},"federalState":{"key":"13","name":"Mecklenburg-Vorpommern"}},{"name":"Weidenweg","postalCode":"18184","locality":"Broderstorf","municipality":{"key":"13072019","name":"Broderstorf","type":"Kreisangehörige_Gemeinde"},"district":{"key":"13072","name":"Landkreis Rostock","type":"Landkreis"},"federalState":{"key":"13","name":"Mecklenburg-Vorpommern"}},{"name":"Wendenstr.","postalCode":"18184","locality":"Broderstorf","municipality":{"key":"13072019","name":"Broderstorf","type":"Kreisangehörige_Gemeinde"},"district":{"key":"13072","name":"Landkreis Rostock","type":"Landkreis"},"federalState":{"key":"13","name":"Mecklenburg-Vorpommern"}},{"name":"Wiesenweg","postalCode":"18184","locality":"Broderstorf","municipality":{"key":"13072019","name":"Broderstorf","type":"Kreisangehörige_Gemeinde"},"district":{"key":"13072","name":"Landkreis Rostock","type":"Landkreis"},"federalState":{"key":"13","name":"Mecklenburg-Vorpommern"}},{"name":"Zum Bahnhof","postalCode":"18184","locality":"Broderstorf","municipality":{"key":"13072019","name":"Broderstorf","type":"Kreisangehörige_Gemeinde"},"district":{"key":"13072","name":"Landkreis Rostock","type":"Landkreis"},"federalState":{"key":"13","name":"Mecklenburg-Vorpommern"}},{"name":"Zum Jägerdiek","postalCode":"18184","locality":"Broderstorf","municipality":{"key":"13072019","name":"Broderstorf","type":"Kreisangehörige_Gemeinde"},"district":{"key":"13072","name":"Landkreis Rostock","type":"Landkreis"},"federalState":{"key":"13","name":"Mecklenburg-Vorpommern"}},{"name":"Zum Teufelsmoor","postalCode":"18184","locality":"Broderstorf","municipality":{"key":"13072019","name":"Broderstorf","type":"Kreisangehörige_Gemeinde"},"district":{"key":"13072","name":"Landkreis Rostock","type":"Landkreis"},"federalState":{"key":"13","name":"Mecklenburg-Vorpommern"}},{"name":"Zur Buschkoppel","postalCode":"18184","locality":"Broderstorf","municipality":{"key":"13072019","name":"Broderstorf","type":"Kreisangehörige_Gemeinde"},"district":{"key":"13072","name":"Landkreis Rostock","type":"Landkreis"},"federalState":{"key":"13","name":"Mecklenburg-Vorpommern"}},{"name":"Öftenhäven","postalCode":"18184","locality":"Broderstorf","municipality":{"key":"13072019","name":"Broderstorf","type":"Kreisangehörige_Gemeinde"},"district":{"key":"13072","name":"Landkreis Rostock","type":"Landkreis"},"federalState":{"key":"13","name":"Mecklenburg-Vorpommern"}},{"name":"Öftenhävener Weg","postalCode":"18184","locality":"Broderstorf","municipality":{"key":"13072019","name":"Broderstorf","type":"Kreisangehörige_Gemeinde"},"district":{"key":"13072","name":"Landkreis Rostock","type":"Landkreis"},"federalState":{"key":"13","name":"Mecklenburg-Vorpommern"}},]