[{"name":"Ahornweg","postalCode":"55457","locality":"Gensingen","municipality":{"key":"07339021","name":"Gensingen","type":"Kreisangehörige_Gemeinde"},"district":{"key":"07339","name":"Mainz-Bingen","type":"Landkreis"},"federalState":{"key":"07","name":"Rheinland-Pfalz"}},{"name":"Alexander-Bretz-Str.","postalCode":"55457","locality":"Gensingen","municipality":{"key":"07339021","name":"Gensingen","type":"Kreisangehörige_Gemeinde"},"district":{"key":"07339","name":"Mainz-Bingen","type":"Landkreis"},"federalState":{"key":"07","name":"Rheinland-Pfalz"}},{"name":"Alzeyer Str.","postalCode":"55457","locality":"Gensingen","municipality":{"key":"07339021","name":"Gensingen","type":"Kreisangehörige_Gemeinde"},"district":{"key":"07339","name":"Mainz-Bingen","type":"Landkreis"},"federalState":{"key":"07","name":"Rheinland-Pfalz"}},{"name":"Am Eichborn","postalCode":"55457","locality":"Gensingen","municipality":{"key":"07339021","name":"Gensingen","type":"Kreisangehörige_Gemeinde"},"district":{"key":"07339","name":"Mainz-Bingen","type":"Landkreis"},"federalState":{"key":"07","name":"Rheinland-Pfalz"}},{"name":"Am Hallenbad","postalCode":"55457","locality":"Gensingen","municipality":{"key":"07339021","name":"Gensingen","type":"Kreisangehörige_Gemeinde"},"district":{"key":"07339","name":"Mainz-Bingen","type":"Landkreis"},"federalState":{"key":"07","name":"Rheinland-Pfalz"}},{"name":"Am Lettkopf","postalCode":"55457","locality":"Gensingen","municipality":{"key":"07339021","name":"Gensingen","type":"Kreisangehörige_Gemeinde"},"district":{"key":"07339","name":"Mainz-Bingen","type":"Landkreis"},"federalState":{"key":"07","name":"Rheinland-Pfalz"}},{"name":"Am Stein","postalCode":"55457","locality":"Gensingen","municipality":{"key":"07339021","name":"Gensingen","type":"Kreisangehörige_Gemeinde"},"district":{"key":"07339","name":"Mainz-Bingen","type":"Landkreis"},"federalState":{"key":"07","name":"Rheinland-Pfalz"}},{"name":"Am Wiesbach","postalCode":"55457","locality":"Gensingen","municipality":{"key":"07339021","name":"Gensingen","type":"Kreisangehörige_Gemeinde"},"district":{"key":"07339","name":"Mainz-Bingen","type":"Landkreis"},"federalState":{"key":"07","name":"Rheinland-Pfalz"}},{"name":"An der Eichmühle","postalCode":"55457","locality":"Gensingen","municipality":{"key":"07339021","name":"Gensingen","type":"Kreisangehörige_Gemeinde"},"district":{"key":"07339","name":"Mainz-Bingen","type":"Landkreis"},"federalState":{"key":"07","name":"Rheinland-Pfalz"}},{"name":"Bahnhofstr.","postalCode":"55457","locality":"Gensingen","municipality":{"key":"07339021","name":"Gensingen","type":"Kreisangehörige_Gemeinde"},"district":{"key":"07339","name":"Mainz-Bingen","type":"Landkreis"},"federalState":{"key":"07","name":"Rheinland-Pfalz"}},{"name":"Berliner Str.","postalCode":"55457","locality":"Gensingen","municipality":{"key":"07339021","name":"Gensingen","type":"Kreisangehörige_Gemeinde"},"district":{"key":"07339","name":"Mainz-Bingen","type":"Landkreis"},"federalState":{"key":"07","name":"Rheinland-Pfalz"}},{"name":"Binger Str.","postalCode":"55457","locality":"Gensingen","municipality":{"key":"07339021","name":"Gensingen","type":"Kreisangehörige_Gemeinde"},"district":{"key":"07339","name":"Mainz-Bingen","type":"Landkreis"},"federalState":{"key":"07","name":"Rheinland-Pfalz"}},{"name":"Birkenstr.","postalCode":"55457","locality":"Gensingen","municipality":{"key":"07339021","name":"Gensingen","type":"Kreisangehörige_Gemeinde"},"district":{"key":"07339","name":"Mainz-Bingen","type":"Landkreis"},"federalState":{"key":"07","name":"Rheinland-Pfalz"}},{"name":"Buchenweg","postalCode":"55457","locality":"Gensingen","municipality":{"key":"07339021","name":"Gensingen","type":"Kreisangehörige_Gemeinde"},"district":{"key":"07339","name":"Mainz-Bingen","type":"Landkreis"},"federalState":{"key":"07","name":"Rheinland-Pfalz"}},{"name":"Der kurze Winkel","postalCode":"55457","locality":"Gensingen","municipality":{"key":"07339021","name":"Gensingen","type":"Kreisangehörige_Gemeinde"},"district":{"key":"07339","name":"Mainz-Bingen","type":"Landkreis"},"federalState":{"key":"07","name":"Rheinland-Pfalz"}},{"name":"Dresdner Str.","postalCode":"55457","locality":"Gensingen","municipality":{"key":"07339021","name":"Gensingen","type":"Kreisangehörige_Gemeinde"},"district":{"key":"07339","name":"Mainz-Bingen","type":"Landkreis"},"federalState":{"key":"07","name":"Rheinland-Pfalz"}},{"name":"Ernst-Ludwig-Str.","postalCode":"55457","locality":"Gensingen","municipality":{"key":"07339021","name":"Gensingen","type":"Kreisangehörige_Gemeinde"},"district":{"key":"07339","name":"Mainz-Bingen","type":"Landkreis"},"federalState":{"key":"07","name":"Rheinland-Pfalz"}},{"name":"Faginolfstr.","postalCode":"55457","locality":"Gensingen","municipality":{"key":"07339021","name":"Gensingen","type":"Kreisangehörige_Gemeinde"},"district":{"key":"07339","name":"Mainz-Bingen","type":"Landkreis"},"federalState":{"key":"07","name":"Rheinland-Pfalz"}},{"name":"Feldbrücker Weg","postalCode":"55457","locality":"Gensingen","municipality":{"key":"07339021","name":"Gensingen","type":"Kreisangehörige_Gemeinde"},"district":{"key":"07339","name":"Mainz-Bingen","type":"Landkreis"},"federalState":{"key":"07","name":"Rheinland-Pfalz"}},{"name":"Fichtenweg","postalCode":"55457","locality":"Gensingen","municipality":{"key":"07339021","name":"Gensingen","type":"Kreisangehörige_Gemeinde"},"district":{"key":"07339","name":"Mainz-Bingen","type":"Landkreis"},"federalState":{"key":"07","name":"Rheinland-Pfalz"}},{"name":"Gartenstr.","postalCode":"55457","locality":"Gensingen","municipality":{"key":"07339021","name":"Gensingen","type":"Kreisangehörige_Gemeinde"},"district":{"key":"07339","name":"Mainz-Bingen","type":"Landkreis"},"federalState":{"key":"07","name":"Rheinland-Pfalz"}},{"name":"Goldbergstr.","postalCode":"55457","locality":"Gensingen","municipality":{"key":"07339021","name":"Gensingen","type":"Kreisangehörige_Gemeinde"},"district":{"key":"07339","name":"Mainz-Bingen","type":"Landkreis"},"federalState":{"key":"07","name":"Rheinland-Pfalz"}},{"name":"Grabenstr.","postalCode":"55457","locality":"Gensingen","municipality":{"key":"07339021","name":"Gensingen","type":"Kreisangehörige_Gemeinde"},"district":{"key":"07339","name":"Mainz-Bingen","type":"Landkreis"},"federalState":{"key":"07","name":"Rheinland-Pfalz"}},{"name":"Hahngasse","postalCode":"55457","locality":"Gensingen","municipality":{"key":"07339021","name":"Gensingen","type":"Kreisangehörige_Gemeinde"},"district":{"key":"07339","name":"Mainz-Bingen","type":"Landkreis"},"federalState":{"key":"07","name":"Rheinland-Pfalz"}},{"name":"Haselweg","postalCode":"55457","locality":"Gensingen","municipality":{"key":"07339021","name":"Gensingen","type":"Kreisangehörige_Gemeinde"},"district":{"key":"07339","name":"Mainz-Bingen","type":"Landkreis"},"federalState":{"key":"07","name":"Rheinland-Pfalz"}},{"name":"Hohe Str.","postalCode":"55457","locality":"Gensingen","municipality":{"key":"07339021","name":"Gensingen","type":"Kreisangehörige_Gemeinde"},"district":{"key":"07339","name":"Mainz-Bingen","type":"Landkreis"},"federalState":{"key":"07","name":"Rheinland-Pfalz"}},{"name":"Im Gartenfeld","postalCode":"55457","locality":"Gensingen","municipality":{"key":"07339021","name":"Gensingen","type":"Kreisangehörige_Gemeinde"},"district":{"key":"07339","name":"Mainz-Bingen","type":"Landkreis"},"federalState":{"key":"07","name":"Rheinland-Pfalz"}},{"name":"Kaiserstr.","postalCode":"55457","locality":"Gensingen","municipality":{"key":"07339021","name":"Gensingen","type":"Kreisangehörige_Gemeinde"},"district":{"key":"07339","name":"Mainz-Bingen","type":"Landkreis"},"federalState":{"key":"07","name":"Rheinland-Pfalz"}},{"name":"Kiefernweg","postalCode":"55457","locality":"Gensingen","municipality":{"key":"07339021","name":"Gensingen","type":"Kreisangehörige_Gemeinde"},"district":{"key":"07339","name":"Mainz-Bingen","type":"Landkreis"},"federalState":{"key":"07","name":"Rheinland-Pfalz"}},{"name":"Kirchgasse","postalCode":"55457","locality":"Gensingen","municipality":{"key":"07339021","name":"Gensingen","type":"Kreisangehörige_Gemeinde"},"district":{"key":"07339","name":"Mainz-Bingen","type":"Landkreis"},"federalState":{"key":"07","name":"Rheinland-Pfalz"}},{"name":"Klettenberg","postalCode":"55457","locality":"Gensingen","municipality":{"key":"07339021","name":"Gensingen","type":"Kreisangehörige_Gemeinde"},"district":{"key":"07339","name":"Mainz-Bingen","type":"Landkreis"},"federalState":{"key":"07","name":"Rheinland-Pfalz"}},{"name":"Königsberger Str.","postalCode":"55457","locality":"Gensingen","municipality":{"key":"07339021","name":"Gensingen","type":"Kreisangehörige_Gemeinde"},"district":{"key":"07339","name":"Mainz-Bingen","type":"Landkreis"},"federalState":{"key":"07","name":"Rheinland-Pfalz"}},{"name":"Kreuznacher Str.","postalCode":"55457","locality":"Gensingen","municipality":{"key":"07339021","name":"Gensingen","type":"Kreisangehörige_Gemeinde"},"district":{"key":"07339","name":"Mainz-Bingen","type":"Landkreis"},"federalState":{"key":"07","name":"Rheinland-Pfalz"}},{"name":"Kreuzstr.","postalCode":"55457","locality":"Gensingen","municipality":{"key":"07339021","name":"Gensingen","type":"Kreisangehörige_Gemeinde"},"district":{"key":"07339","name":"Mainz-Bingen","type":"Landkreis"},"federalState":{"key":"07","name":"Rheinland-Pfalz"}},{"name":"Langgasse","postalCode":"55457","locality":"Gensingen","municipality":{"key":"07339021","name":"Gensingen","type":"Kreisangehörige_Gemeinde"},"district":{"key":"07339","name":"Mainz-Bingen","type":"Landkreis"},"federalState":{"key":"07","name":"Rheinland-Pfalz"}},{"name":"Leipziger Str.","postalCode":"55457","locality":"Gensingen","municipality":{"key":"07339021","name":"Gensingen","type":"Kreisangehörige_Gemeinde"},"district":{"key":"07339","name":"Mainz-Bingen","type":"Landkreis"},"federalState":{"key":"07","name":"Rheinland-Pfalz"}},{"name":"Lindenstr.","postalCode":"55457","locality":"Gensingen","municipality":{"key":"07339021","name":"Gensingen","type":"Kreisangehörige_Gemeinde"},"district":{"key":"07339","name":"Mainz-Bingen","type":"Landkreis"},"federalState":{"key":"07","name":"Rheinland-Pfalz"}},{"name":"Magdeburger Str.","postalCode":"55457","locality":"Gensingen","municipality":{"key":"07339021","name":"Gensingen","type":"Kreisangehörige_Gemeinde"},"district":{"key":"07339","name":"Mainz-Bingen","type":"Landkreis"},"federalState":{"key":"07","name":"Rheinland-Pfalz"}},{"name":"Mainzer Str.","postalCode":"55457","locality":"Gensingen","municipality":{"key":"07339021","name":"Gensingen","type":"Kreisangehörige_Gemeinde"},"district":{"key":"07339","name":"Mainz-Bingen","type":"Landkreis"},"federalState":{"key":"07","name":"Rheinland-Pfalz"}},{"name":"Nahestr.","postalCode":"55457","locality":"Gensingen","municipality":{"key":"07339021","name":"Gensingen","type":"Kreisangehörige_Gemeinde"},"district":{"key":"07339","name":"Mainz-Bingen","type":"Landkreis"},"federalState":{"key":"07","name":"Rheinland-Pfalz"}},{"name":"Neubach","postalCode":"55457","locality":"Gensingen","municipality":{"key":"07339021","name":"Gensingen","type":"Kreisangehörige_Gemeinde"},"district":{"key":"07339","name":"Mainz-Bingen","type":"Landkreis"},"federalState":{"key":"07","name":"Rheinland-Pfalz"}},{"name":"Neudecker Str.","postalCode":"55457","locality":"Gensingen","municipality":{"key":"07339021","name":"Gensingen","type":"Kreisangehörige_Gemeinde"},"district":{"key":"07339","name":"Mainz-Bingen","type":"Landkreis"},"federalState":{"key":"07","name":"Rheinland-Pfalz"}},{"name":"Römerstr.","postalCode":"55457","locality":"Gensingen","municipality":{"key":"07339021","name":"Gensingen","type":"Kreisangehörige_Gemeinde"},"district":{"key":"07339","name":"Mainz-Bingen","type":"Landkreis"},"federalState":{"key":"07","name":"Rheinland-Pfalz"}},{"name":"Sackgasse","postalCode":"55457","locality":"Gensingen","municipality":{"key":"07339021","name":"Gensingen","type":"Kreisangehörige_Gemeinde"},"district":{"key":"07339","name":"Mainz-Bingen","type":"Landkreis"},"federalState":{"key":"07","name":"Rheinland-Pfalz"}},{"name":"Schemel","postalCode":"55457","locality":"Gensingen","municipality":{"key":"07339021","name":"Gensingen","type":"Kreisangehörige_Gemeinde"},"district":{"key":"07339","name":"Mainz-Bingen","type":"Landkreis"},"federalState":{"key":"07","name":"Rheinland-Pfalz"}},{"name":"Schloßstr.","postalCode":"55457","locality":"Gensingen","municipality":{"key":"07339021","name":"Gensingen","type":"Kreisangehörige_Gemeinde"},"district":{"key":"07339","name":"Mainz-Bingen","type":"Landkreis"},"federalState":{"key":"07","name":"Rheinland-Pfalz"}},{"name":"Schulstr.","postalCode":"55457","locality":"Gensingen","municipality":{"key":"07339021","name":"Gensingen","type":"Kreisangehörige_Gemeinde"},"district":{"key":"07339","name":"Mainz-Bingen","type":"Landkreis"},"federalState":{"key":"07","name":"Rheinland-Pfalz"}},{"name":"Unter dem Kirschberg","postalCode":"55457","locality":"Gensingen","municipality":{"key":"07339021","name":"Gensingen","type":"Kreisangehörige_Gemeinde"},"district":{"key":"07339","name":"Mainz-Bingen","type":"Landkreis"},"federalState":{"key":"07","name":"Rheinland-Pfalz"}},{"name":"Winzerstr.","postalCode":"55457","locality":"Gensingen","municipality":{"key":"07339021","name":"Gensingen","type":"Kreisangehörige_Gemeinde"},"district":{"key":"07339","name":"Mainz-Bingen","type":"Landkreis"},"federalState":{"key":"07","name":"Rheinland-Pfalz"}},{"name":"Zwischen Bergen","postalCode":"55457","locality":"Gensingen","municipality":{"key":"07339021","name":"Gensingen","type":"Kreisangehörige_Gemeinde"},"district":{"key":"07339","name":"Mainz-Bingen","type":"Landkreis"},"federalState":{"key":"07","name":"Rheinland-Pfalz"}},{"name":"Zwischen den Brücken","postalCode":"55457","locality":"Gensingen","municipality":{"key":"07339021","name":"Gensingen","type":"Kreisangehörige_Gemeinde"},"district":{"key":"07339","name":"Mainz-Bingen","type":"Landkreis"},"federalState":{"key":"07","name":"Rheinland-Pfalz"}},]