[{"name":"Ahornweg","postalCode":"67122","locality":"Altrip","municipality":{"key":"07338001","name":"Altrip","type":"Kreisangehörige_Gemeinde"},"district":{"key":"07338","name":"Rhein-Pfalz-Kreis","type":"Landkreis"},"federalState":{"key":"07","name":"Rheinland-Pfalz"}},{"name":"Akazienweg","postalCode":"67122","locality":"Altrip","municipality":{"key":"07338001","name":"Altrip","type":"Kreisangehörige_Gemeinde"},"district":{"key":"07338","name":"Rhein-Pfalz-Kreis","type":"Landkreis"},"federalState":{"key":"07","name":"Rheinland-Pfalz"}},{"name":"Albert-Schweitzer-Str.","postalCode":"67122","locality":"Altrip","municipality":{"key":"07338001","name":"Altrip","type":"Kreisangehörige_Gemeinde"},"district":{"key":"07338","name":"Rhein-Pfalz-Kreis","type":"Landkreis"},"federalState":{"key":"07","name":"Rheinland-Pfalz"}},{"name":"Altrheinweg","postalCode":"67122","locality":"Altrip","municipality":{"key":"07338001","name":"Altrip","type":"Kreisangehörige_Gemeinde"},"district":{"key":"07338","name":"Rhein-Pfalz-Kreis","type":"Landkreis"},"federalState":{"key":"07","name":"Rheinland-Pfalz"}},{"name":"Am Altriper Schleim","postalCode":"67122","locality":"Altrip","municipality":{"key":"07338001","name":"Altrip","type":"Kreisangehörige_Gemeinde"},"district":{"key":"07338","name":"Rhein-Pfalz-Kreis","type":"Landkreis"},"federalState":{"key":"07","name":"Rheinland-Pfalz"}},{"name":"Am Damm","postalCode":"67122","locality":"Altrip","municipality":{"key":"07338001","name":"Altrip","type":"Kreisangehörige_Gemeinde"},"district":{"key":"07338","name":"Rhein-Pfalz-Kreis","type":"Landkreis"},"federalState":{"key":"07","name":"Rheinland-Pfalz"}},{"name":"Am Horren","postalCode":"67122","locality":"Altrip","municipality":{"key":"07338001","name":"Altrip","type":"Kreisangehörige_Gemeinde"},"district":{"key":"07338","name":"Rhein-Pfalz-Kreis","type":"Landkreis"},"federalState":{"key":"07","name":"Rheinland-Pfalz"}},{"name":"Am Sandzug","postalCode":"67122","locality":"Altrip","municipality":{"key":"07338001","name":"Altrip","type":"Kreisangehörige_Gemeinde"},"district":{"key":"07338","name":"Rhein-Pfalz-Kreis","type":"Landkreis"},"federalState":{"key":"07","name":"Rheinland-Pfalz"}},{"name":"Am Schwanenweiher","postalCode":"67122","locality":"Altrip","municipality":{"key":"07338001","name":"Altrip","type":"Kreisangehörige_Gemeinde"},"district":{"key":"07338","name":"Rhein-Pfalz-Kreis","type":"Landkreis"},"federalState":{"key":"07","name":"Rheinland-Pfalz"}},{"name":"Am Waldpark","postalCode":"67122","locality":"Altrip","municipality":{"key":"07338001","name":"Altrip","type":"Kreisangehörige_Gemeinde"},"district":{"key":"07338","name":"Rhein-Pfalz-Kreis","type":"Landkreis"},"federalState":{"key":"07","name":"Rheinland-Pfalz"}},{"name":"An der Fähre","postalCode":"67122","locality":"Altrip","municipality":{"key":"07338001","name":"Altrip","type":"Kreisangehörige_Gemeinde"},"district":{"key":"07338","name":"Rhein-Pfalz-Kreis","type":"Landkreis"},"federalState":{"key":"07","name":"Rheinland-Pfalz"}},{"name":"Anglergasse","postalCode":"67122","locality":"Altrip","municipality":{"key":"07338001","name":"Altrip","type":"Kreisangehörige_Gemeinde"},"district":{"key":"07338","name":"Rhein-Pfalz-Kreis","type":"Landkreis"},"federalState":{"key":"07","name":"Rheinland-Pfalz"}},{"name":"Auf der Oberplatte","postalCode":"67122","locality":"Altrip","municipality":{"key":"07338001","name":"Altrip","type":"Kreisangehörige_Gemeinde"},"district":{"key":"07338","name":"Rhein-Pfalz-Kreis","type":"Landkreis"},"federalState":{"key":"07","name":"Rheinland-Pfalz"}},{"name":"August-Croissant-Str.","postalCode":"67122","locality":"Altrip","municipality":{"key":"07338001","name":"Altrip","type":"Kreisangehörige_Gemeinde"},"district":{"key":"07338","name":"Rhein-Pfalz-Kreis","type":"Landkreis"},"federalState":{"key":"07","name":"Rheinland-Pfalz"}},{"name":"Beethovenstr.","postalCode":"67122","locality":"Altrip","municipality":{"key":"07338001","name":"Altrip","type":"Kreisangehörige_Gemeinde"},"district":{"key":"07338","name":"Rhein-Pfalz-Kreis","type":"Landkreis"},"federalState":{"key":"07","name":"Rheinland-Pfalz"}},{"name":"Bellenweg","postalCode":"67122","locality":"Altrip","municipality":{"key":"07338001","name":"Altrip","type":"Kreisangehörige_Gemeinde"},"district":{"key":"07338","name":"Rhein-Pfalz-Kreis","type":"Landkreis"},"federalState":{"key":"07","name":"Rheinland-Pfalz"}},{"name":"Berliner Str.","postalCode":"67122","locality":"Altrip","municipality":{"key":"07338001","name":"Altrip","type":"Kreisangehörige_Gemeinde"},"district":{"key":"07338","name":"Rhein-Pfalz-Kreis","type":"Landkreis"},"federalState":{"key":"07","name":"Rheinland-Pfalz"}},{"name":"Berwartsteinstr.","postalCode":"67122","locality":"Altrip","municipality":{"key":"07338001","name":"Altrip","type":"Kreisangehörige_Gemeinde"},"district":{"key":"07338","name":"Rhein-Pfalz-Kreis","type":"Landkreis"},"federalState":{"key":"07","name":"Rheinland-Pfalz"}},{"name":"Betonweg","postalCode":"67122","locality":"Altrip","municipality":{"key":"07338001","name":"Altrip","type":"Kreisangehörige_Gemeinde"},"district":{"key":"07338","name":"Rhein-Pfalz-Kreis","type":"Landkreis"},"federalState":{"key":"07","name":"Rheinland-Pfalz"}},{"name":"Bezirkstr.","postalCode":"67122","locality":"Altrip","municipality":{"key":"07338001","name":"Altrip","type":"Kreisangehörige_Gemeinde"},"district":{"key":"07338","name":"Rhein-Pfalz-Kreis","type":"Landkreis"},"federalState":{"key":"07","name":"Rheinland-Pfalz"}},{"name":"Birkenweg","postalCode":"67122","locality":"Altrip","municipality":{"key":"07338001","name":"Altrip","type":"Kreisangehörige_Gemeinde"},"district":{"key":"07338","name":"Rhein-Pfalz-Kreis","type":"Landkreis"},"federalState":{"key":"07","name":"Rheinland-Pfalz"}},{"name":"Bismarckstr.","postalCode":"67122","locality":"Altrip","municipality":{"key":"07338001","name":"Altrip","type":"Kreisangehörige_Gemeinde"},"district":{"key":"07338","name":"Rhein-Pfalz-Kreis","type":"Landkreis"},"federalState":{"key":"07","name":"Rheinland-Pfalz"}},{"name":"Blechlachstr.","postalCode":"67122","locality":"Altrip","municipality":{"key":"07338001","name":"Altrip","type":"Kreisangehörige_Gemeinde"},"district":{"key":"07338","name":"Rhein-Pfalz-Kreis","type":"Landkreis"},"federalState":{"key":"07","name":"Rheinland-Pfalz"}},{"name":"Böcklinstr.","postalCode":"67122","locality":"Altrip","municipality":{"key":"07338001","name":"Altrip","type":"Kreisangehörige_Gemeinde"},"district":{"key":"07338","name":"Rhein-Pfalz-Kreis","type":"Landkreis"},"federalState":{"key":"07","name":"Rheinland-Pfalz"}},{"name":"Dalbergstr.","postalCode":"67122","locality":"Altrip","municipality":{"key":"07338001","name":"Altrip","type":"Kreisangehörige_Gemeinde"},"district":{"key":"07338","name":"Rhein-Pfalz-Kreis","type":"Landkreis"},"federalState":{"key":"07","name":"Rheinland-Pfalz"}},{"name":"Distelweg","postalCode":"67122","locality":"Altrip","municipality":{"key":"07338001","name":"Altrip","type":"Kreisangehörige_Gemeinde"},"district":{"key":"07338","name":"Rhein-Pfalz-Kreis","type":"Landkreis"},"federalState":{"key":"07","name":"Rheinland-Pfalz"}},{"name":"Drachenfelsstr.","postalCode":"67122","locality":"Altrip","municipality":{"key":"07338001","name":"Altrip","type":"Kreisangehörige_Gemeinde"},"district":{"key":"07338","name":"Rhein-Pfalz-Kreis","type":"Landkreis"},"federalState":{"key":"07","name":"Rheinland-Pfalz"}},{"name":"Drosselweg","postalCode":"67122","locality":"Altrip","municipality":{"key":"07338001","name":"Altrip","type":"Kreisangehörige_Gemeinde"},"district":{"key":"07338","name":"Rhein-Pfalz-Kreis","type":"Landkreis"},"federalState":{"key":"07","name":"Rheinland-Pfalz"}},{"name":"Dürerstr.","postalCode":"67122","locality":"Altrip","municipality":{"key":"07338001","name":"Altrip","type":"Kreisangehörige_Gemeinde"},"district":{"key":"07338","name":"Rhein-Pfalz-Kreis","type":"Landkreis"},"federalState":{"key":"07","name":"Rheinland-Pfalz"}},{"name":"Emil-Nolde-Weg","postalCode":"67122","locality":"Altrip","municipality":{"key":"07338001","name":"Altrip","type":"Kreisangehörige_Gemeinde"},"district":{"key":"07338","name":"Rhein-Pfalz-Kreis","type":"Landkreis"},"federalState":{"key":"07","name":"Rheinland-Pfalz"}},{"name":"Emil-von-Behring-Str.","postalCode":"67122","locality":"Altrip","municipality":{"key":"07338001","name":"Altrip","type":"Kreisangehörige_Gemeinde"},"district":{"key":"07338","name":"Rhein-Pfalz-Kreis","type":"Landkreis"},"federalState":{"key":"07","name":"Rheinland-Pfalz"}},{"name":"Engelsstr.","postalCode":"67122","locality":"Altrip","municipality":{"key":"07338001","name":"Altrip","type":"Kreisangehörige_Gemeinde"},"district":{"key":"07338","name":"Rhein-Pfalz-Kreis","type":"Landkreis"},"federalState":{"key":"07","name":"Rheinland-Pfalz"}},{"name":"Ernst-Reuter-Str.","postalCode":"67122","locality":"Altrip","municipality":{"key":"07338001","name":"Altrip","type":"Kreisangehörige_Gemeinde"},"district":{"key":"07338","name":"Rhein-Pfalz-Kreis","type":"Landkreis"},"federalState":{"key":"07","name":"Rheinland-Pfalz"}},{"name":"Eulenweg","postalCode":"67122","locality":"Altrip","municipality":{"key":"07338001","name":"Altrip","type":"Kreisangehörige_Gemeinde"},"district":{"key":"07338","name":"Rhein-Pfalz-Kreis","type":"Landkreis"},"federalState":{"key":"07","name":"Rheinland-Pfalz"}},{"name":"Falkenburgstr.","postalCode":"67122","locality":"Altrip","municipality":{"key":"07338001","name":"Altrip","type":"Kreisangehörige_Gemeinde"},"district":{"key":"07338","name":"Rhein-Pfalz-Kreis","type":"Landkreis"},"federalState":{"key":"07","name":"Rheinland-Pfalz"}},{"name":"Ferdinand-Sauerbruch-Str.","postalCode":"67122","locality":"Altrip","municipality":{"key":"07338001","name":"Altrip","type":"Kreisangehörige_Gemeinde"},"district":{"key":"07338","name":"Rhein-Pfalz-Kreis","type":"Landkreis"},"federalState":{"key":"07","name":"Rheinland-Pfalz"}},{"name":"Feuerbachstr.","postalCode":"67122","locality":"Altrip","municipality":{"key":"07338001","name":"Altrip","type":"Kreisangehörige_Gemeinde"},"district":{"key":"07338","name":"Rhein-Pfalz-Kreis","type":"Landkreis"},"federalState":{"key":"07","name":"Rheinland-Pfalz"}},{"name":"Fischerfestplatz","postalCode":"67122","locality":"Altrip","municipality":{"key":"07338001","name":"Altrip","type":"Kreisangehörige_Gemeinde"},"district":{"key":"07338","name":"Rhein-Pfalz-Kreis","type":"Landkreis"},"federalState":{"key":"07","name":"Rheinland-Pfalz"}},{"name":"Fliederweg","postalCode":"67122","locality":"Altrip","municipality":{"key":"07338001","name":"Altrip","type":"Kreisangehörige_Gemeinde"},"district":{"key":"07338","name":"Rhein-Pfalz-Kreis","type":"Landkreis"},"federalState":{"key":"07","name":"Rheinland-Pfalz"}},{"name":"Forellenweg","postalCode":"67122","locality":"Altrip","municipality":{"key":"07338001","name":"Altrip","type":"Kreisangehörige_Gemeinde"},"district":{"key":"07338","name":"Rhein-Pfalz-Kreis","type":"Landkreis"},"federalState":{"key":"07","name":"Rheinland-Pfalz"}},{"name":"Fressgasse","postalCode":"67122","locality":"Altrip","municipality":{"key":"07338001","name":"Altrip","type":"Kreisangehörige_Gemeinde"},"district":{"key":"07338","name":"Rhein-Pfalz-Kreis","type":"Landkreis"},"federalState":{"key":"07","name":"Rheinland-Pfalz"}},{"name":"Friedensstr.","postalCode":"67122","locality":"Altrip","municipality":{"key":"07338001","name":"Altrip","type":"Kreisangehörige_Gemeinde"},"district":{"key":"07338","name":"Rhein-Pfalz-Kreis","type":"Landkreis"},"federalState":{"key":"07","name":"Rheinland-Pfalz"}},{"name":"Friedrich-Ebert-Str.","postalCode":"67122","locality":"Altrip","municipality":{"key":"07338001","name":"Altrip","type":"Kreisangehörige_Gemeinde"},"district":{"key":"07338","name":"Rhein-Pfalz-Kreis","type":"Landkreis"},"federalState":{"key":"07","name":"Rheinland-Pfalz"}},{"name":"Friedrichstr.","postalCode":"67122","locality":"Altrip","municipality":{"key":"07338001","name":"Altrip","type":"Kreisangehörige_Gemeinde"},"district":{"key":"07338","name":"Rhein-Pfalz-Kreis","type":"Landkreis"},"federalState":{"key":"07","name":"Rheinland-Pfalz"}},{"name":"Gänsdreckweg","postalCode":"67122","locality":"Altrip","municipality":{"key":"07338001","name":"Altrip","type":"Kreisangehörige_Gemeinde"},"district":{"key":"07338","name":"Rhein-Pfalz-Kreis","type":"Landkreis"},"federalState":{"key":"07","name":"Rheinland-Pfalz"}},{"name":"Goethestr.","postalCode":"67122","locality":"Altrip","municipality":{"key":"07338001","name":"Altrip","type":"Kreisangehörige_Gemeinde"},"district":{"key":"07338","name":"Rhein-Pfalz-Kreis","type":"Landkreis"},"federalState":{"key":"07","name":"Rheinland-Pfalz"}},{"name":"Grenzweg","postalCode":"67122","locality":"Altrip","municipality":{"key":"07338001","name":"Altrip","type":"Kreisangehörige_Gemeinde"},"district":{"key":"07338","name":"Rhein-Pfalz-Kreis","type":"Landkreis"},"federalState":{"key":"07","name":"Rheinland-Pfalz"}},{"name":"Große Horststr.","postalCode":"67122","locality":"Altrip","municipality":{"key":"07338001","name":"Altrip","type":"Kreisangehörige_Gemeinde"},"district":{"key":"07338","name":"Rhein-Pfalz-Kreis","type":"Landkreis"},"federalState":{"key":"07","name":"Rheinland-Pfalz"}},{"name":"Gründerweg","postalCode":"67122","locality":"Altrip","municipality":{"key":"07338001","name":"Altrip","type":"Kreisangehörige_Gemeinde"},"district":{"key":"07338","name":"Rhein-Pfalz-Kreis","type":"Landkreis"},"federalState":{"key":"07","name":"Rheinland-Pfalz"}},{"name":"Grünewaldstr.","postalCode":"67122","locality":"Altrip","municipality":{"key":"07338001","name":"Altrip","type":"Kreisangehörige_Gemeinde"},"district":{"key":"07338","name":"Rhein-Pfalz-Kreis","type":"Landkreis"},"federalState":{"key":"07","name":"Rheinland-Pfalz"}},{"name":"Gutenbergstr.","postalCode":"67122","locality":"Altrip","municipality":{"key":"07338001","name":"Altrip","type":"Kreisangehörige_Gemeinde"},"district":{"key":"07338","name":"Rhein-Pfalz-Kreis","type":"Landkreis"},"federalState":{"key":"07","name":"Rheinland-Pfalz"}},{"name":"Hardenburgstr.","postalCode":"67122","locality":"Altrip","municipality":{"key":"07338001","name":"Altrip","type":"Kreisangehörige_Gemeinde"},"district":{"key":"07338","name":"Rhein-Pfalz-Kreis","type":"Landkreis"},"federalState":{"key":"07","name":"Rheinland-Pfalz"}},{"name":"Hechteck","postalCode":"67122","locality":"Altrip","municipality":{"key":"07338001","name":"Altrip","type":"Kreisangehörige_Gemeinde"},"district":{"key":"07338","name":"Rhein-Pfalz-Kreis","type":"Landkreis"},"federalState":{"key":"07","name":"Rheinland-Pfalz"}},{"name":"Hechtweg","postalCode":"67122","locality":"Altrip","municipality":{"key":"07338001","name":"Altrip","type":"Kreisangehörige_Gemeinde"},"district":{"key":"07338","name":"Rhein-Pfalz-Kreis","type":"Landkreis"},"federalState":{"key":"07","name":"Rheinland-Pfalz"}},{"name":"Heinrich-Heine-Str.","postalCode":"67122","locality":"Altrip","municipality":{"key":"07338001","name":"Altrip","type":"Kreisangehörige_Gemeinde"},"district":{"key":"07338","name":"Rhein-Pfalz-Kreis","type":"Landkreis"},"federalState":{"key":"07","name":"Rheinland-Pfalz"}},{"name":"Ignaz-Semmelweis-Str.","postalCode":"67122","locality":"Altrip","municipality":{"key":"07338001","name":"Altrip","type":"Kreisangehörige_Gemeinde"},"district":{"key":"07338","name":"Rhein-Pfalz-Kreis","type":"Landkreis"},"federalState":{"key":"07","name":"Rheinland-Pfalz"}},{"name":"Im Altrheingrund","postalCode":"67122","locality":"Altrip","municipality":{"key":"07338001","name":"Altrip","type":"Kreisangehörige_Gemeinde"},"district":{"key":"07338","name":"Rhein-Pfalz-Kreis","type":"Landkreis"},"federalState":{"key":"07","name":"Rheinland-Pfalz"}},{"name":"Im Blashorst","postalCode":"67122","locality":"Altrip","municipality":{"key":"07338001","name":"Altrip","type":"Kreisangehörige_Gemeinde"},"district":{"key":"07338","name":"Rhein-Pfalz-Kreis","type":"Landkreis"},"federalState":{"key":"07","name":"Rheinland-Pfalz"}},{"name":"Im Karpfenzug","postalCode":"67122","locality":"Altrip","municipality":{"key":"07338001","name":"Altrip","type":"Kreisangehörige_Gemeinde"},"district":{"key":"07338","name":"Rhein-Pfalz-Kreis","type":"Landkreis"},"federalState":{"key":"07","name":"Rheinland-Pfalz"}},{"name":"ImKrappen","postalCode":"67122","locality":"Altrip","municipality":{"key":"07338001","name":"Altrip","type":"Kreisangehörige_Gemeinde"},"district":{"key":"07338","name":"Rhein-Pfalz-Kreis","type":"Landkreis"},"federalState":{"key":"07","name":"Rheinland-Pfalz"}},{"name":"Im Marx'schen Winkel","postalCode":"67122","locality":"Altrip","municipality":{"key":"07338001","name":"Altrip","type":"Kreisangehörige_Gemeinde"},"district":{"key":"07338","name":"Rhein-Pfalz-Kreis","type":"Landkreis"},"federalState":{"key":"07","name":"Rheinland-Pfalz"}},{"name":"Im Schützengarten","postalCode":"67122","locality":"Altrip","municipality":{"key":"07338001","name":"Altrip","type":"Kreisangehörige_Gemeinde"},"district":{"key":"07338","name":"Rhein-Pfalz-Kreis","type":"Landkreis"},"federalState":{"key":"07","name":"Rheinland-Pfalz"}},{"name":"Im Zweitel","postalCode":"67122","locality":"Altrip","municipality":{"key":"07338001","name":"Altrip","type":"Kreisangehörige_Gemeinde"},"district":{"key":"07338","name":"Rhein-Pfalz-Kreis","type":"Landkreis"},"federalState":{"key":"07","name":"Rheinland-Pfalz"}},{"name":"In den Anlagen","postalCode":"67122","locality":"Altrip","municipality":{"key":"07338001","name":"Altrip","type":"Kreisangehörige_Gemeinde"},"district":{"key":"07338","name":"Rhein-Pfalz-Kreis","type":"Landkreis"},"federalState":{"key":"07","name":"Rheinland-Pfalz"}},{"name":"In der Teilung","postalCode":"67122","locality":"Altrip","municipality":{"key":"07338001","name":"Altrip","type":"Kreisangehörige_Gemeinde"},"district":{"key":"07338","name":"Rhein-Pfalz-Kreis","type":"Landkreis"},"federalState":{"key":"07","name":"Rheinland-Pfalz"}},{"name":"Johann-Sebastian-Bach-Str.","postalCode":"67122","locality":"Altrip","municipality":{"key":"07338001","name":"Altrip","type":"Kreisangehörige_Gemeinde"},"district":{"key":"07338","name":"Rhein-Pfalz-Kreis","type":"Landkreis"},"federalState":{"key":"07","name":"Rheinland-Pfalz"}},{"name":"Karl-Marx-Platz","postalCode":"67122","locality":"Altrip","municipality":{"key":"07338001","name":"Altrip","type":"Kreisangehörige_Gemeinde"},"district":{"key":"07338","name":"Rhein-Pfalz-Kreis","type":"Landkreis"},"federalState":{"key":"07","name":"Rheinland-Pfalz"}},{"name":"Karpfenweg","postalCode":"67122","locality":"Altrip","municipality":{"key":"07338001","name":"Altrip","type":"Kreisangehörige_Gemeinde"},"district":{"key":"07338","name":"Rhein-Pfalz-Kreis","type":"Landkreis"},"federalState":{"key":"07","name":"Rheinland-Pfalz"}},{"name":"Käthe-Kollwitz-Weg","postalCode":"67122","locality":"Altrip","municipality":{"key":"07338001","name":"Altrip","type":"Kreisangehörige_Gemeinde"},"district":{"key":"07338","name":"Rhein-Pfalz-Kreis","type":"Landkreis"},"federalState":{"key":"07","name":"Rheinland-Pfalz"}},{"name":"Kiesweg","postalCode":"67122","locality":"Altrip","municipality":{"key":"07338001","name":"Altrip","type":"Kreisangehörige_Gemeinde"},"district":{"key":"07338","name":"Rhein-Pfalz-Kreis","type":"Landkreis"},"federalState":{"key":"07","name":"Rheinland-Pfalz"}},{"name":"Kornblumenweg","postalCode":"67122","locality":"Altrip","municipality":{"key":"07338001","name":"Altrip","type":"Kreisangehörige_Gemeinde"},"district":{"key":"07338","name":"Rhein-Pfalz-Kreis","type":"Landkreis"},"federalState":{"key":"07","name":"Rheinland-Pfalz"}},{"name":"Krappenweg","postalCode":"67122","locality":"Altrip","municipality":{"key":"07338001","name":"Altrip","type":"Kreisangehörige_Gemeinde"},"district":{"key":"07338","name":"Rhein-Pfalz-Kreis","type":"Landkreis"},"federalState":{"key":"07","name":"Rheinland-Pfalz"}},{"name":"Krebsweg","postalCode":"67122","locality":"Altrip","municipality":{"key":"07338001","name":"Altrip","type":"Kreisangehörige_Gemeinde"},"district":{"key":"07338","name":"Rhein-Pfalz-Kreis","type":"Landkreis"},"federalState":{"key":"07","name":"Rheinland-Pfalz"}},{"name":"Kropsburgstr.","postalCode":"67122","locality":"Altrip","municipality":{"key":"07338001","name":"Altrip","type":"Kreisangehörige_Gemeinde"},"district":{"key":"07338","name":"Rhein-Pfalz-Kreis","type":"Landkreis"},"federalState":{"key":"07","name":"Rheinland-Pfalz"}},{"name":"Krummer Riedweg","postalCode":"67122","locality":"Altrip","municipality":{"key":"07338001","name":"Altrip","type":"Kreisangehörige_Gemeinde"},"district":{"key":"07338","name":"Rhein-Pfalz-Kreis","type":"Landkreis"},"federalState":{"key":"07","name":"Rheinland-Pfalz"}},{"name":"Krummlachackerweg","postalCode":"67122","locality":"Altrip","municipality":{"key":"07338001","name":"Altrip","type":"Kreisangehörige_Gemeinde"},"district":{"key":"07338","name":"Rhein-Pfalz-Kreis","type":"Landkreis"},"federalState":{"key":"07","name":"Rheinland-Pfalz"}},{"name":"Langer Weg","postalCode":"67122","locality":"Altrip","municipality":{"key":"07338001","name":"Altrip","type":"Kreisangehörige_Gemeinde"},"district":{"key":"07338","name":"Rhein-Pfalz-Kreis","type":"Landkreis"},"federalState":{"key":"07","name":"Rheinland-Pfalz"}},{"name":"Lessingstr.","postalCode":"67122","locality":"Altrip","municipality":{"key":"07338001","name":"Altrip","type":"Kreisangehörige_Gemeinde"},"district":{"key":"07338","name":"Rhein-Pfalz-Kreis","type":"Landkreis"},"federalState":{"key":"07","name":"Rheinland-Pfalz"}},{"name":"Limburgstr.","postalCode":"67122","locality":"Altrip","municipality":{"key":"07338001","name":"Altrip","type":"Kreisangehörige_Gemeinde"},"district":{"key":"07338","name":"Rhein-Pfalz-Kreis","type":"Landkreis"},"federalState":{"key":"07","name":"Rheinland-Pfalz"}},{"name":"Lindenweg","postalCode":"67122","locality":"Altrip","municipality":{"key":"07338001","name":"Altrip","type":"Kreisangehörige_Gemeinde"},"district":{"key":"07338","name":"Rhein-Pfalz-Kreis","type":"Landkreis"},"federalState":{"key":"07","name":"Rheinland-Pfalz"}},{"name":"Linguster Weg","postalCode":"67122","locality":"Altrip","municipality":{"key":"07338001","name":"Altrip","type":"Kreisangehörige_Gemeinde"},"district":{"key":"07338","name":"Rhein-Pfalz-Kreis","type":"Landkreis"},"federalState":{"key":"07","name":"Rheinland-Pfalz"}},{"name":"Lochwiesenstr.","postalCode":"67122","locality":"Altrip","municipality":{"key":"07338001","name":"Altrip","type":"Kreisangehörige_Gemeinde"},"district":{"key":"07338","name":"Rhein-Pfalz-Kreis","type":"Landkreis"},"federalState":{"key":"07","name":"Rheinland-Pfalz"}},{"name":"Ludwigsplatz","postalCode":"67122","locality":"Altrip","municipality":{"key":"07338001","name":"Altrip","type":"Kreisangehörige_Gemeinde"},"district":{"key":"07338","name":"Rhein-Pfalz-Kreis","type":"Landkreis"},"federalState":{"key":"07","name":"Rheinland-Pfalz"}},{"name":"Ludwigstr.","postalCode":"67122","locality":"Altrip","municipality":{"key":"07338001","name":"Altrip","type":"Kreisangehörige_Gemeinde"},"district":{"key":"07338","name":"Rhein-Pfalz-Kreis","type":"Landkreis"},"federalState":{"key":"07","name":"Rheinland-Pfalz"}},{"name":"Luisenstr.","postalCode":"67122","locality":"Altrip","municipality":{"key":"07338001","name":"Altrip","type":"Kreisangehörige_Gemeinde"},"district":{"key":"07338","name":"Rhein-Pfalz-Kreis","type":"Landkreis"},"federalState":{"key":"07","name":"Rheinland-Pfalz"}},{"name":"Luitpoldstr.","postalCode":"67122","locality":"Altrip","municipality":{"key":"07338001","name":"Altrip","type":"Kreisangehörige_Gemeinde"},"district":{"key":"07338","name":"Rhein-Pfalz-Kreis","type":"Landkreis"},"federalState":{"key":"07","name":"Rheinland-Pfalz"}},{"name":"Madenburgstr.","postalCode":"67122","locality":"Altrip","municipality":{"key":"07338001","name":"Altrip","type":"Kreisangehörige_Gemeinde"},"district":{"key":"07338","name":"Rhein-Pfalz-Kreis","type":"Landkreis"},"federalState":{"key":"07","name":"Rheinland-Pfalz"}},{"name":"Mauerblümchenweg","postalCode":"67122","locality":"Altrip","municipality":{"key":"07338001","name":"Altrip","type":"Kreisangehörige_Gemeinde"},"district":{"key":"07338","name":"Rhein-Pfalz-Kreis","type":"Landkreis"},"federalState":{"key":"07","name":"Rheinland-Pfalz"}},{"name":"Maxburgstr.","postalCode":"67122","locality":"Altrip","municipality":{"key":"07338001","name":"Altrip","type":"Kreisangehörige_Gemeinde"},"district":{"key":"07338","name":"Rhein-Pfalz-Kreis","type":"Landkreis"},"federalState":{"key":"07","name":"Rheinland-Pfalz"}},{"name":"Maxstr.","postalCode":"67122","locality":"Altrip","municipality":{"key":"07338001","name":"Altrip","type":"Kreisangehörige_Gemeinde"},"district":{"key":"07338","name":"Rhein-Pfalz-Kreis","type":"Landkreis"},"federalState":{"key":"07","name":"Rheinland-Pfalz"}},{"name":"Meistergasse","postalCode":"67122","locality":"Altrip","municipality":{"key":"07338001","name":"Altrip","type":"Kreisangehörige_Gemeinde"},"district":{"key":"07338","name":"Rhein-Pfalz-Kreis","type":"Landkreis"},"federalState":{"key":"07","name":"Rheinland-Pfalz"}},{"name":"Mittelweg","postalCode":"67122","locality":"Altrip","municipality":{"key":"07338001","name":"Altrip","type":"Kreisangehörige_Gemeinde"},"district":{"key":"07338","name":"Rhein-Pfalz-Kreis","type":"Landkreis"},"federalState":{"key":"07","name":"Rheinland-Pfalz"}},{"name":"Moltkestr.","postalCode":"67122","locality":"Altrip","municipality":{"key":"07338001","name":"Altrip","type":"Kreisangehörige_Gemeinde"},"district":{"key":"07338","name":"Rhein-Pfalz-Kreis","type":"Landkreis"},"federalState":{"key":"07","name":"Rheinland-Pfalz"}},{"name":"Mozartstr.","postalCode":"67122","locality":"Altrip","municipality":{"key":"07338001","name":"Altrip","type":"Kreisangehörige_Gemeinde"},"district":{"key":"07338","name":"Rhein-Pfalz-Kreis","type":"Landkreis"},"federalState":{"key":"07","name":"Rheinland-Pfalz"}},{"name":"Naturistenbund Kurpfalz","postalCode":"67122","locality":"Altrip","municipality":{"key":"07338001","name":"Altrip","type":"Kreisangehörige_Gemeinde"},"district":{"key":"07338","name":"Rhein-Pfalz-Kreis","type":"Landkreis"},"federalState":{"key":"07","name":"Rheinland-Pfalz"}},{"name":"Nelkenweg","postalCode":"67122","locality":"Altrip","municipality":{"key":"07338001","name":"Altrip","type":"Kreisangehörige_Gemeinde"},"district":{"key":"07338","name":"Rhein-Pfalz-Kreis","type":"Landkreis"},"federalState":{"key":"07","name":"Rheinland-Pfalz"}},{"name":"Pappelweg","postalCode":"67122","locality":"Altrip","municipality":{"key":"07338001","name":"Altrip","type":"Kreisangehörige_Gemeinde"},"district":{"key":"07338","name":"Rhein-Pfalz-Kreis","type":"Landkreis"},"federalState":{"key":"07","name":"Rheinland-Pfalz"}},{"name":"Paracelsusstr.","postalCode":"67122","locality":"Altrip","municipality":{"key":"07338001","name":"Altrip","type":"Kreisangehörige_Gemeinde"},"district":{"key":"07338","name":"Rhein-Pfalz-Kreis","type":"Landkreis"},"federalState":{"key":"07","name":"Rheinland-Pfalz"}},{"name":"Parkstr.","postalCode":"67122","locality":"Altrip","municipality":{"key":"07338001","name":"Altrip","type":"Kreisangehörige_Gemeinde"},"district":{"key":"07338","name":"Rhein-Pfalz-Kreis","type":"Landkreis"},"federalState":{"key":"07","name":"Rheinland-Pfalz"}},{"name":"Paul-Ehrlich-Str.","postalCode":"67122","locality":"Altrip","municipality":{"key":"07338001","name":"Altrip","type":"Kreisangehörige_Gemeinde"},"district":{"key":"07338","name":"Rhein-Pfalz-Kreis","type":"Landkreis"},"federalState":{"key":"07","name":"Rheinland-Pfalz"}},{"name":"Paul-Klee-Weg","postalCode":"67122","locality":"Altrip","municipality":{"key":"07338001","name":"Altrip","type":"Kreisangehörige_Gemeinde"},"district":{"key":"07338","name":"Rhein-Pfalz-Kreis","type":"Landkreis"},"federalState":{"key":"07","name":"Rheinland-Pfalz"}},{"name":"Purrmannstr.","postalCode":"67122","locality":"Altrip","municipality":{"key":"07338001","name":"Altrip","type":"Kreisangehörige_Gemeinde"},"district":{"key":"07338","name":"Rhein-Pfalz-Kreis","type":"Landkreis"},"federalState":{"key":"07","name":"Rheinland-Pfalz"}},{"name":"Reginostr.","postalCode":"67122","locality":"Altrip","municipality":{"key":"07338001","name":"Altrip","type":"Kreisangehörige_Gemeinde"},"district":{"key":"07338","name":"Rhein-Pfalz-Kreis","type":"Landkreis"},"federalState":{"key":"07","name":"Rheinland-Pfalz"}},{"name":"Rheingönheimer Str.","postalCode":"67122","locality":"Altrip","municipality":{"key":"07338001","name":"Altrip","type":"Kreisangehörige_Gemeinde"},"district":{"key":"07338","name":"Rhein-Pfalz-Kreis","type":"Landkreis"},"federalState":{"key":"07","name":"Rheinland-Pfalz"}},{"name":"Rheinhauptdeich","postalCode":"67122","locality":"Altrip","municipality":{"key":"07338001","name":"Altrip","type":"Kreisangehörige_Gemeinde"},"district":{"key":"07338","name":"Rhein-Pfalz-Kreis","type":"Landkreis"},"federalState":{"key":"07","name":"Rheinland-Pfalz"}},{"name":"Rheinstr.","postalCode":"67122","locality":"Altrip","municipality":{"key":"07338001","name":"Altrip","type":"Kreisangehörige_Gemeinde"},"district":{"key":"07338","name":"Rhein-Pfalz-Kreis","type":"Landkreis"},"federalState":{"key":"07","name":"Rheinland-Pfalz"}},{"name":"Richard-Wagner-Str.","postalCode":"67122","locality":"Altrip","municipality":{"key":"07338001","name":"Altrip","type":"Kreisangehörige_Gemeinde"},"district":{"key":"07338","name":"Rhein-Pfalz-Kreis","type":"Landkreis"},"federalState":{"key":"07","name":"Rheinland-Pfalz"}},{"name":"Riedweg","postalCode":"67122","locality":"Altrip","municipality":{"key":"07338001","name":"Altrip","type":"Kreisangehörige_Gemeinde"},"district":{"key":"07338","name":"Rhein-Pfalz-Kreis","type":"Landkreis"},"federalState":{"key":"07","name":"Rheinland-Pfalz"}},{"name":"Rietburgstr.","postalCode":"67122","locality":"Altrip","municipality":{"key":"07338001","name":"Altrip","type":"Kreisangehörige_Gemeinde"},"district":{"key":"07338","name":"Rhein-Pfalz-Kreis","type":"Landkreis"},"federalState":{"key":"07","name":"Rheinland-Pfalz"}},{"name":"Robert-Koch-Str.","postalCode":"67122","locality":"Altrip","municipality":{"key":"07338001","name":"Altrip","type":"Kreisangehörige_Gemeinde"},"district":{"key":"07338","name":"Rhein-Pfalz-Kreis","type":"Landkreis"},"federalState":{"key":"07","name":"Rheinland-Pfalz"}},{"name":"Römerstr.","postalCode":"67122","locality":"Altrip","municipality":{"key":"07338001","name":"Altrip","type":"Kreisangehörige_Gemeinde"},"district":{"key":"07338","name":"Rhein-Pfalz-Kreis","type":"Landkreis"},"federalState":{"key":"07","name":"Rheinland-Pfalz"}},{"name":"Rosenweg","postalCode":"67122","locality":"Altrip","municipality":{"key":"07338001","name":"Altrip","type":"Kreisangehörige_Gemeinde"},"district":{"key":"07338","name":"Rhein-Pfalz-Kreis","type":"Landkreis"},"federalState":{"key":"07","name":"Rheinland-Pfalz"}},{"name":"Rösselsprung","postalCode":"67122","locality":"Altrip","municipality":{"key":"07338001","name":"Altrip","type":"Kreisangehörige_Gemeinde"},"district":{"key":"07338","name":"Rhein-Pfalz-Kreis","type":"Landkreis"},"federalState":{"key":"07","name":"Rheinland-Pfalz"}},{"name":"Rudolf-Virchow-Str.","postalCode":"67122","locality":"Altrip","municipality":{"key":"07338001","name":"Altrip","type":"Kreisangehörige_Gemeinde"},"district":{"key":"07338","name":"Rhein-Pfalz-Kreis","type":"Landkreis"},"federalState":{"key":"07","name":"Rheinland-Pfalz"}},{"name":"Rupprechtstr.","postalCode":"67122","locality":"Altrip","municipality":{"key":"07338001","name":"Altrip","type":"Kreisangehörige_Gemeinde"},"district":{"key":"07338","name":"Rhein-Pfalz-Kreis","type":"Landkreis"},"federalState":{"key":"07","name":"Rheinland-Pfalz"}},{"name":"Schillerstr.","postalCode":"67122","locality":"Altrip","municipality":{"key":"07338001","name":"Altrip","type":"Kreisangehörige_Gemeinde"},"district":{"key":"07338","name":"Rhein-Pfalz-Kreis","type":"Landkreis"},"federalState":{"key":"07","name":"Rheinland-Pfalz"}},{"name":"Schleienweg","postalCode":"67122","locality":"Altrip","municipality":{"key":"07338001","name":"Altrip","type":"Kreisangehörige_Gemeinde"},"district":{"key":"07338","name":"Rhein-Pfalz-Kreis","type":"Landkreis"},"federalState":{"key":"07","name":"Rheinland-Pfalz"}},{"name":"Schlossgasse","postalCode":"67122","locality":"Altrip","municipality":{"key":"07338001","name":"Altrip","type":"Kreisangehörige_Gemeinde"},"district":{"key":"07338","name":"Rhein-Pfalz-Kreis","type":"Landkreis"},"federalState":{"key":"07","name":"Rheinland-Pfalz"}},{"name":"Schubertstr.","postalCode":"67122","locality":"Altrip","municipality":{"key":"07338001","name":"Altrip","type":"Kreisangehörige_Gemeinde"},"district":{"key":"07338","name":"Rhein-Pfalz-Kreis","type":"Landkreis"},"federalState":{"key":"07","name":"Rheinland-Pfalz"}},{"name":"Slevogtweg","postalCode":"67122","locality":"Altrip","municipality":{"key":"07338001","name":"Altrip","type":"Kreisangehörige_Gemeinde"},"district":{"key":"07338","name":"Rhein-Pfalz-Kreis","type":"Landkreis"},"federalState":{"key":"07","name":"Rheinland-Pfalz"}},{"name":"Sommerweg","postalCode":"67122","locality":"Altrip","municipality":{"key":"07338001","name":"Altrip","type":"Kreisangehörige_Gemeinde"},"district":{"key":"07338","name":"Rhein-Pfalz-Kreis","type":"Landkreis"},"federalState":{"key":"07","name":"Rheinland-Pfalz"}},{"name":"Sonnenweg","postalCode":"67122","locality":"Altrip","municipality":{"key":"07338001","name":"Altrip","type":"Kreisangehörige_Gemeinde"},"district":{"key":"07338","name":"Rhein-Pfalz-Kreis","type":"Landkreis"},"federalState":{"key":"07","name":"Rheinland-Pfalz"}},{"name":"Speyerer Str.","postalCode":"67122","locality":"Altrip","municipality":{"key":"07338001","name":"Altrip","type":"Kreisangehörige_Gemeinde"},"district":{"key":"07338","name":"Rhein-Pfalz-Kreis","type":"Landkreis"},"federalState":{"key":"07","name":"Rheinland-Pfalz"}},{"name":"Tannenweg","postalCode":"67122","locality":"Altrip","municipality":{"key":"07338001","name":"Altrip","type":"Kreisangehörige_Gemeinde"},"district":{"key":"07338","name":"Rhein-Pfalz-Kreis","type":"Landkreis"},"federalState":{"key":"07","name":"Rheinland-Pfalz"}},{"name":"Trifelsstr.","postalCode":"67122","locality":"Altrip","municipality":{"key":"07338001","name":"Altrip","type":"Kreisangehörige_Gemeinde"},"district":{"key":"07338","name":"Rhein-Pfalz-Kreis","type":"Landkreis"},"federalState":{"key":"07","name":"Rheinland-Pfalz"}},{"name":"Tulpenweg","postalCode":"67122","locality":"Altrip","municipality":{"key":"07338001","name":"Altrip","type":"Kreisangehörige_Gemeinde"},"district":{"key":"07338","name":"Rhein-Pfalz-Kreis","type":"Landkreis"},"federalState":{"key":"07","name":"Rheinland-Pfalz"}},{"name":"Uhlandstr.","postalCode":"67122","locality":"Altrip","municipality":{"key":"07338001","name":"Altrip","type":"Kreisangehörige_Gemeinde"},"district":{"key":"07338","name":"Rhein-Pfalz-Kreis","type":"Landkreis"},"federalState":{"key":"07","name":"Rheinland-Pfalz"}},{"name":"Ulmenweg","postalCode":"67122","locality":"Altrip","municipality":{"key":"07338001","name":"Altrip","type":"Kreisangehörige_Gemeinde"},"district":{"key":"07338","name":"Rhein-Pfalz-Kreis","type":"Landkreis"},"federalState":{"key":"07","name":"Rheinland-Pfalz"}},{"name":"Valentinianstr.","postalCode":"67122","locality":"Altrip","municipality":{"key":"07338001","name":"Altrip","type":"Kreisangehörige_Gemeinde"},"district":{"key":"07338","name":"Rhein-Pfalz-Kreis","type":"Landkreis"},"federalState":{"key":"07","name":"Rheinland-Pfalz"}},{"name":"Wachtenburgstr.","postalCode":"67122","locality":"Altrip","municipality":{"key":"07338001","name":"Altrip","type":"Kreisangehörige_Gemeinde"},"district":{"key":"07338","name":"Rhein-Pfalz-Kreis","type":"Landkreis"},"federalState":{"key":"07","name":"Rheinland-Pfalz"}},{"name":"Waschhorstweg","postalCode":"67122","locality":"Altrip","municipality":{"key":"07338001","name":"Altrip","type":"Kreisangehörige_Gemeinde"},"district":{"key":"07338","name":"Rhein-Pfalz-Kreis","type":"Landkreis"},"federalState":{"key":"07","name":"Rheinland-Pfalz"}},{"name":"Weg 29 Frohe Arbeit","postalCode":"67122","locality":"Altrip","municipality":{"key":"07338001","name":"Altrip","type":"Kreisangehörige_Gemeinde"},"district":{"key":"07338","name":"Rhein-Pfalz-Kreis","type":"Landkreis"},"federalState":{"key":"07","name":"Rheinland-Pfalz"}},{"name":"Wegelnburgstr.","postalCode":"67122","locality":"Altrip","municipality":{"key":"07338001","name":"Altrip","type":"Kreisangehörige_Gemeinde"},"district":{"key":"07338","name":"Rhein-Pfalz-Kreis","type":"Landkreis"},"federalState":{"key":"07","name":"Rheinland-Pfalz"}},{"name":"Wilhelmstr.","postalCode":"67122","locality":"Altrip","municipality":{"key":"07338001","name":"Altrip","type":"Kreisangehörige_Gemeinde"},"district":{"key":"07338","name":"Rhein-Pfalz-Kreis","type":"Landkreis"},"federalState":{"key":"07","name":"Rheinland-Pfalz"}},{"name":"Ziegeleistr.","postalCode":"67122","locality":"Altrip","municipality":{"key":"07338001","name":"Altrip","type":"Kreisangehörige_Gemeinde"},"district":{"key":"07338","name":"Rhein-Pfalz-Kreis","type":"Landkreis"},"federalState":{"key":"07","name":"Rheinland-Pfalz"}},{"name":"Zum Hügel","postalCode":"67122","locality":"Altrip","municipality":{"key":"07338001","name":"Altrip","type":"Kreisangehörige_Gemeinde"},"district":{"key":"07338","name":"Rhein-Pfalz-Kreis","type":"Landkreis"},"federalState":{"key":"07","name":"Rheinland-Pfalz"}},{"name":"Zum Seeblick","postalCode":"67122","locality":"Altrip","municipality":{"key":"07338001","name":"Altrip","type":"Kreisangehörige_Gemeinde"},"district":{"key":"07338","name":"Rhein-Pfalz-Kreis","type":"Landkreis"},"federalState":{"key":"07","name":"Rheinland-Pfalz"}},{"name":"Zum Tegernsee","postalCode":"67122","locality":"Altrip","municipality":{"key":"07338001","name":"Altrip","type":"Kreisangehörige_Gemeinde"},"district":{"key":"07338","name":"Rhein-Pfalz-Kreis","type":"Landkreis"},"federalState":{"key":"07","name":"Rheinland-Pfalz"}},{"name":"Zum Wäldchen","postalCode":"67122","locality":"Altrip","municipality":{"key":"07338001","name":"Altrip","type":"Kreisangehörige_Gemeinde"},"district":{"key":"07338","name":"Rhein-Pfalz-Kreis","type":"Landkreis"},"federalState":{"key":"07","name":"Rheinland-Pfalz"}},{"name":"Zur Friedhofshalle","postalCode":"67122","locality":"Altrip","municipality":{"key":"07338001","name":"Altrip","type":"Kreisangehörige_Gemeinde"},"district":{"key":"07338","name":"Rhein-Pfalz-Kreis","type":"Landkreis"},"federalState":{"key":"07","name":"Rheinland-Pfalz"}},]