[{"name":"Auf dem Ring","postalCode":"38467","locality":"Bergfeld","municipality":{"key":"03151003","name":"Bergfeld","type":"Kreisangehörige_Gemeinde"},"district":{"key":"03151","name":"Gifhorn","type":"Landkreis"},"federalState":{"key":"03","name":"Niedersachsen"}},{"name":"Babelsberger Weg","postalCode":"38518","locality":"Gifhorn","municipality":{"key":"03151009","name":"Gifhorn, Stadt","type":"Stadt"},"district":{"key":"03151","name":"Gifhorn","type":"Landkreis"},"federalState":{"key":"03","name":"Niedersachsen"}},{"name":"Bachweg","postalCode":"38518","locality":"Gifhorn","municipality":{"key":"03151009","name":"Gifhorn, Stadt","type":"Stadt"},"district":{"key":"03151","name":"Gifhorn","type":"Landkreis"},"federalState":{"key":"03","name":"Niedersachsen"}},{"name":"Bäckerstr.","postalCode":"38518","locality":"Gifhorn","municipality":{"key":"03151009","name":"Gifhorn, Stadt","type":"Stadt"},"district":{"key":"03151","name":"Gifhorn","type":"Landkreis"},"federalState":{"key":"03","name":"Niedersachsen"}},{"name":"Backhausstr.","postalCode":"38518","locality":"Gifhorn","municipality":{"key":"03151009","name":"Gifhorn, Stadt","type":"Stadt"},"district":{"key":"03151","name":"Gifhorn","type":"Landkreis"},"federalState":{"key":"03","name":"Niedersachsen"}},{"name":"Bahnhofsgasse","postalCode":"38518","locality":"Gifhorn","municipality":{"key":"03151009","name":"Gifhorn, Stadt","type":"Stadt"},"district":{"key":"03151","name":"Gifhorn","type":"Landkreis"},"federalState":{"key":"03","name":"Niedersachsen"}},{"name":"Bahnhofstr.","postalCode":"38518","locality":"Gifhorn","municipality":{"key":"03151009","name":"Gifhorn, Stadt","type":"Stadt"},"district":{"key":"03151","name":"Gifhorn","type":"Landkreis"},"federalState":{"key":"03","name":"Niedersachsen"}},{"name":"Baltrumer Platz","postalCode":"38518","locality":"Gifhorn","municipality":{"key":"03151009","name":"Gifhorn, Stadt","type":"Stadt"},"district":{"key":"03151","name":"Gifhorn","type":"Landkreis"},"federalState":{"key":"03","name":"Niedersachsen"}},{"name":"Bärlappweg","postalCode":"38518","locality":"Gifhorn","municipality":{"key":"03151009","name":"Gifhorn, Stadt","type":"Stadt"},"district":{"key":"03151","name":"Gifhorn","type":"Landkreis"},"federalState":{"key":"03","name":"Niedersachsen"}},{"name":"Bauernkamp","postalCode":"38518","locality":"Gifhorn","municipality":{"key":"03151009","name":"Gifhorn, Stadt","type":"Stadt"},"district":{"key":"03151","name":"Gifhorn","type":"Landkreis"},"federalState":{"key":"03","name":"Niedersachsen"}},{"name":"Beerenweg","postalCode":"38518","locality":"Gifhorn","municipality":{"key":"03151009","name":"Gifhorn, Stadt","type":"Stadt"},"district":{"key":"03151","name":"Gifhorn","type":"Landkreis"},"federalState":{"key":"03","name":"Niedersachsen"}},{"name":"Beethovenstr.","postalCode":"38518","locality":"Gifhorn","municipality":{"key":"03151009","name":"Gifhorn, Stadt","type":"Stadt"},"district":{"key":"03151","name":"Gifhorn","type":"Landkreis"},"federalState":{"key":"03","name":"Niedersachsen"}},{"name":"Begonienweg","postalCode":"38518","locality":"Gifhorn","municipality":{"key":"03151009","name":"Gifhorn, Stadt","type":"Stadt"},"district":{"key":"03151","name":"Gifhorn","type":"Landkreis"},"federalState":{"key":"03","name":"Niedersachsen"}},{"name":"Benzstr.","postalCode":"38518","locality":"Gifhorn","municipality":{"key":"03151009","name":"Gifhorn, Stadt","type":"Stadt"},"district":{"key":"03151","name":"Gifhorn","type":"Landkreis"},"federalState":{"key":"03","name":"Niedersachsen"}},{"name":"Berghoop","postalCode":"38518","locality":"Gifhorn","municipality":{"key":"03151009","name":"Gifhorn, Stadt","type":"Stadt"},"district":{"key":"03151","name":"Gifhorn","type":"Landkreis"},"federalState":{"key":"03","name":"Niedersachsen"}},{"name":"Bergstr.","postalCode":"38518","locality":"Gifhorn","municipality":{"key":"03151009","name":"Gifhorn, Stadt","type":"Stadt"},"district":{"key":"03151","name":"Gifhorn","type":"Landkreis"},"federalState":{"key":"03","name":"Niedersachsen"}},{"name":"Bergweg","postalCode":"38518","locality":"Gifhorn","municipality":{"key":"03151009","name":"Gifhorn, Stadt","type":"Stadt"},"district":{"key":"03151","name":"Gifhorn","type":"Landkreis"},"federalState":{"key":"03","name":"Niedersachsen"}},{"name":"Berliner Ring","postalCode":"38518","locality":"Gifhorn","municipality":{"key":"03151009","name":"Gifhorn, Stadt","type":"Stadt"},"district":{"key":"03151","name":"Gifhorn","type":"Landkreis"},"federalState":{"key":"03","name":"Niedersachsen"}},{"name":"Bernsteinweg","postalCode":"38518","locality":"Gifhorn","municipality":{"key":"03151009","name":"Gifhorn, Stadt","type":"Stadt"},"district":{"key":"03151","name":"Gifhorn","type":"Landkreis"},"federalState":{"key":"03","name":"Niedersachsen"}},{"name":"Bertha-von-Suttner-Str.","postalCode":"38518","locality":"Gifhorn","municipality":{"key":"03151009","name":"Gifhorn, Stadt","type":"Stadt"},"district":{"key":"03151","name":"Gifhorn","type":"Landkreis"},"federalState":{"key":"03","name":"Niedersachsen"}},{"name":"Bickbeerweg","postalCode":"38518","locality":"Gifhorn","municipality":{"key":"03151009","name":"Gifhorn, Stadt","type":"Stadt"},"district":{"key":"03151","name":"Gifhorn","type":"Landkreis"},"federalState":{"key":"03","name":"Niedersachsen"}},{"name":"Birkengrund","postalCode":"38518","locality":"Gifhorn","municipality":{"key":"03151009","name":"Gifhorn, Stadt","type":"Stadt"},"district":{"key":"03151","name":"Gifhorn","type":"Landkreis"},"federalState":{"key":"03","name":"Niedersachsen"}},{"name":"Birkenheide","postalCode":"38518","locality":"Gifhorn","municipality":{"key":"03151009","name":"Gifhorn, Stadt","type":"Stadt"},"district":{"key":"03151","name":"Gifhorn","type":"Landkreis"},"federalState":{"key":"03","name":"Niedersachsen"}},{"name":"Birkenkamp","postalCode":"38518","locality":"Gifhorn","municipality":{"key":"03151009","name":"Gifhorn, Stadt","type":"Stadt"},"district":{"key":"03151","name":"Gifhorn","type":"Landkreis"},"federalState":{"key":"03","name":"Niedersachsen"}},{"name":"Birkenweg","postalCode":"38518","locality":"Gifhorn","municipality":{"key":"03151009","name":"Gifhorn, Stadt","type":"Stadt"},"district":{"key":"03151","name":"Gifhorn","type":"Landkreis"},"federalState":{"key":"03","name":"Niedersachsen"}},{"name":"Birkhahnweg","postalCode":"38518","locality":"Gifhorn","municipality":{"key":"03151009","name":"Gifhorn, Stadt","type":"Stadt"},"district":{"key":"03151","name":"Gifhorn","type":"Landkreis"},"federalState":{"key":"03","name":"Niedersachsen"}},{"name":"Bismarckstr.","postalCode":"38518","locality":"Gifhorn","municipality":{"key":"03151009","name":"Gifhorn, Stadt","type":"Stadt"},"district":{"key":"03151","name":"Gifhorn","type":"Landkreis"},"federalState":{"key":"03","name":"Niedersachsen"}},{"name":"Blumenstr.","postalCode":"38518","locality":"Gifhorn","municipality":{"key":"03151009","name":"Gifhorn, Stadt","type":"Stadt"},"district":{"key":"03151","name":"Gifhorn","type":"Landkreis"},"federalState":{"key":"03","name":"Niedersachsen"}},{"name":"Bodemannstr.","postalCode":"38518","locality":"Gifhorn","municipality":{"key":"03151009","name":"Gifhorn, Stadt","type":"Stadt"},"district":{"key":"03151","name":"Gifhorn","type":"Landkreis"},"federalState":{"key":"03","name":"Niedersachsen"}},{"name":"Böhmener Str.","postalCode":"38518","locality":"Gifhorn","municipality":{"key":"03151009","name":"Gifhorn, Stadt","type":"Stadt"},"district":{"key":"03151","name":"Gifhorn","type":"Landkreis"},"federalState":{"key":"03","name":"Niedersachsen"}},{"name":"Borkumer Str.","postalCode":"38518","locality":"Gifhorn","municipality":{"key":"03151009","name":"Gifhorn, Stadt","type":"Stadt"},"district":{"key":"03151","name":"Gifhorn","type":"Landkreis"},"federalState":{"key":"03","name":"Niedersachsen"}},{"name":"Borsigstr.","postalCode":"38518","locality":"Gifhorn","municipality":{"key":"03151009","name":"Gifhorn, Stadt","type":"Stadt"},"district":{"key":"03151","name":"Gifhorn","type":"Landkreis"},"federalState":{"key":"03","name":"Niedersachsen"}},{"name":"Bosteleck","postalCode":"38518","locality":"Gifhorn","municipality":{"key":"03151009","name":"Gifhorn, Stadt","type":"Stadt"},"district":{"key":"03151","name":"Gifhorn","type":"Landkreis"},"federalState":{"key":"03","name":"Niedersachsen"}},{"name":"Böttcherstr.","postalCode":"38518","locality":"Gifhorn","municipality":{"key":"03151009","name":"Gifhorn, Stadt","type":"Stadt"},"district":{"key":"03151","name":"Gifhorn","type":"Landkreis"},"federalState":{"key":"03","name":"Niedersachsen"}},{"name":"Brahmsstr.","postalCode":"38518","locality":"Gifhorn","municipality":{"key":"03151009","name":"Gifhorn, Stadt","type":"Stadt"},"district":{"key":"03151","name":"Gifhorn","type":"Landkreis"},"federalState":{"key":"03","name":"Niedersachsen"}},{"name":"Brandweg","postalCode":"38518","locality":"Gifhorn","municipality":{"key":"03151009","name":"Gifhorn, Stadt","type":"Stadt"},"district":{"key":"03151","name":"Gifhorn","type":"Landkreis"},"federalState":{"key":"03","name":"Niedersachsen"}},{"name":"Braunschweiger Str.","postalCode":"38518","locality":"Gifhorn","municipality":{"key":"03151009","name":"Gifhorn, Stadt","type":"Stadt"},"district":{"key":"03151","name":"Gifhorn","type":"Landkreis"},"federalState":{"key":"03","name":"Niedersachsen"}},{"name":"Breiter Weg","postalCode":"38518","locality":"Gifhorn","municipality":{"key":"03151009","name":"Gifhorn, Stadt","type":"Stadt"},"district":{"key":"03151","name":"Gifhorn","type":"Landkreis"},"federalState":{"key":"03","name":"Niedersachsen"}},{"name":"Brenneckes Berg","postalCode":"38518","locality":"Gifhorn","municipality":{"key":"03151009","name":"Gifhorn, Stadt","type":"Stadt"},"district":{"key":"03151","name":"Gifhorn","type":"Landkreis"},"federalState":{"key":"03","name":"Niedersachsen"}},{"name":"Breslauer Str.","postalCode":"38518","locality":"Gifhorn","municipality":{"key":"03151009","name":"Gifhorn, Stadt","type":"Stadt"},"district":{"key":"03151","name":"Gifhorn","type":"Landkreis"},"federalState":{"key":"03","name":"Niedersachsen"}},{"name":"Bromer Str.","postalCode":"38518","locality":"Gifhorn","municipality":{"key":"03151009","name":"Gifhorn, Stadt","type":"Stadt"},"district":{"key":"03151","name":"Gifhorn","type":"Landkreis"},"federalState":{"key":"03","name":"Niedersachsen"}},{"name":"Brückenkamp","postalCode":"38518","locality":"Gifhorn","municipality":{"key":"03151009","name":"Gifhorn, Stadt","type":"Stadt"},"district":{"key":"03151","name":"Gifhorn","type":"Landkreis"},"federalState":{"key":"03","name":"Niedersachsen"}},{"name":"Brucknerweg","postalCode":"38518","locality":"Gifhorn","municipality":{"key":"03151009","name":"Gifhorn, Stadt","type":"Stadt"},"district":{"key":"03151","name":"Gifhorn","type":"Landkreis"},"federalState":{"key":"03","name":"Niedersachsen"}},{"name":"Bruno-Kuhn-Str.","postalCode":"38518","locality":"Gifhorn","municipality":{"key":"03151009","name":"Gifhorn, Stadt","type":"Stadt"},"district":{"key":"03151","name":"Gifhorn","type":"Landkreis"},"federalState":{"key":"03","name":"Niedersachsen"}},{"name":"Buchenhain","postalCode":"38518","locality":"Gifhorn","municipality":{"key":"03151009","name":"Gifhorn, Stadt","type":"Stadt"},"district":{"key":"03151","name":"Gifhorn","type":"Landkreis"},"federalState":{"key":"03","name":"Niedersachsen"}},{"name":"Büchenkamp","postalCode":"38518","locality":"Gifhorn","municipality":{"key":"03151009","name":"Gifhorn, Stadt","type":"Stadt"},"district":{"key":"03151","name":"Gifhorn","type":"Landkreis"},"federalState":{"key":"03","name":"Niedersachsen"}},{"name":"Bullenkamp","postalCode":"38518","locality":"Gifhorn","municipality":{"key":"03151009","name":"Gifhorn, Stadt","type":"Stadt"},"district":{"key":"03151","name":"Gifhorn","type":"Landkreis"},"federalState":{"key":"03","name":"Niedersachsen"}},{"name":"Bullenriede","postalCode":"38518","locality":"Gifhorn","municipality":{"key":"03151009","name":"Gifhorn, Stadt","type":"Stadt"},"district":{"key":"03151","name":"Gifhorn","type":"Landkreis"},"federalState":{"key":"03","name":"Niedersachsen"}},{"name":"Bussardweg","postalCode":"38518","locality":"Gifhorn","municipality":{"key":"03151009","name":"Gifhorn, Stadt","type":"Stadt"},"district":{"key":"03151","name":"Gifhorn","type":"Landkreis"},"federalState":{"key":"03","name":"Niedersachsen"}},{"name":"Bussenlande","postalCode":"38518","locality":"Gifhorn","municipality":{"key":"03151009","name":"Gifhorn, Stadt","type":"Stadt"},"district":{"key":"03151","name":"Gifhorn","type":"Landkreis"},"federalState":{"key":"03","name":"Niedersachsen"}},{"name":"Bütower Str.","postalCode":"38518","locality":"Gifhorn","municipality":{"key":"03151009","name":"Gifhorn, Stadt","type":"Stadt"},"district":{"key":"03151","name":"Gifhorn","type":"Landkreis"},"federalState":{"key":"03","name":"Niedersachsen"}},{"name":"Calberlaher Damm","postalCode":"38518","locality":"Gifhorn","municipality":{"key":"03151009","name":"Gifhorn, Stadt","type":"Stadt"},"district":{"key":"03151","name":"Gifhorn","type":"Landkreis"},"federalState":{"key":"03","name":"Niedersachsen"}},{"name":"Camminer Str.","postalCode":"38518","locality":"Gifhorn","municipality":{"key":"03151009","name":"Gifhorn, Stadt","type":"Stadt"},"district":{"key":"03151","name":"Gifhorn","type":"Landkreis"},"federalState":{"key":"03","name":"Niedersachsen"}},{"name":"Campus","postalCode":"38518","locality":"Gifhorn","municipality":{"key":"03151009","name":"Gifhorn, Stadt","type":"Stadt"},"district":{"key":"03151","name":"Gifhorn","type":"Landkreis"},"federalState":{"key":"03","name":"Niedersachsen"}},{"name":"Cardenap","postalCode":"38518","locality":"Gifhorn","municipality":{"key":"03151009","name":"Gifhorn, Stadt","type":"Stadt"},"district":{"key":"03151","name":"Gifhorn","type":"Landkreis"},"federalState":{"key":"03","name":"Niedersachsen"}},{"name":"Carl-Diem-Str.","postalCode":"38518","locality":"Gifhorn","municipality":{"key":"03151009","name":"Gifhorn, Stadt","type":"Stadt"},"district":{"key":"03151","name":"Gifhorn","type":"Landkreis"},"federalState":{"key":"03","name":"Niedersachsen"}},{"name":"Carl-Goerdeler-Ring","postalCode":"38518","locality":"Gifhorn","municipality":{"key":"03151009","name":"Gifhorn, Stadt","type":"Stadt"},"district":{"key":"03151","name":"Gifhorn","type":"Landkreis"},"federalState":{"key":"03","name":"Niedersachsen"}},{"name":"Carl-Miele-Str.","postalCode":"38518","locality":"Gifhorn","municipality":{"key":"03151009","name":"Gifhorn, Stadt","type":"Stadt"},"district":{"key":"03151","name":"Gifhorn","type":"Landkreis"},"federalState":{"key":"03","name":"Niedersachsen"}},{"name":"Carl-Zeiss-Str.","postalCode":"38518","locality":"Gifhorn","municipality":{"key":"03151009","name":"Gifhorn, Stadt","type":"Stadt"},"district":{"key":"03151","name":"Gifhorn","type":"Landkreis"},"federalState":{"key":"03","name":"Niedersachsen"}},{"name":"Celler Str.","postalCode":"38518","locality":"Gifhorn","municipality":{"key":"03151009","name":"Gifhorn, Stadt","type":"Stadt"},"district":{"key":"03151","name":"Gifhorn","type":"Landkreis"},"federalState":{"key":"03","name":"Niedersachsen"}},{"name":"Celler Weg","postalCode":"38518","locality":"Gifhorn","municipality":{"key":"03151009","name":"Gifhorn, Stadt","type":"Stadt"},"district":{"key":"03151","name":"Gifhorn","type":"Landkreis"},"federalState":{"key":"03","name":"Niedersachsen"}},{"name":"Charlottenburger Str.","postalCode":"38518","locality":"Gifhorn","municipality":{"key":"03151009","name":"Gifhorn, Stadt","type":"Stadt"},"district":{"key":"03151","name":"Gifhorn","type":"Landkreis"},"federalState":{"key":"03","name":"Niedersachsen"}},{"name":"Christian-Olfermann-Str.","postalCode":"38518","locality":"Gifhorn","municipality":{"key":"03151009","name":"Gifhorn, Stadt","type":"Stadt"},"district":{"key":"03151","name":"Gifhorn","type":"Landkreis"},"federalState":{"key":"03","name":"Niedersachsen"}},{"name":"Claus-von-Stauffenberg-Str.","postalCode":"38518","locality":"Gifhorn","municipality":{"key":"03151009","name":"Gifhorn, Stadt","type":"Stadt"},"district":{"key":"03151","name":"Gifhorn","type":"Landkreis"},"federalState":{"key":"03","name":"Niedersachsen"}},{"name":"Dachsbau","postalCode":"38518","locality":"Gifhorn","municipality":{"key":"03151009","name":"Gifhorn, Stadt","type":"Stadt"},"district":{"key":"03151","name":"Gifhorn","type":"Landkreis"},"federalState":{"key":"03","name":"Niedersachsen"}},{"name":"Dahlienweg","postalCode":"38518","locality":"Gifhorn","municipality":{"key":"03151009","name":"Gifhorn, Stadt","type":"Stadt"},"district":{"key":"03151","name":"Gifhorn","type":"Landkreis"},"federalState":{"key":"03","name":"Niedersachsen"}},{"name":"Daimlerstr.","postalCode":"38518","locality":"Gifhorn","municipality":{"key":"03151009","name":"Gifhorn, Stadt","type":"Stadt"},"district":{"key":"03151","name":"Gifhorn","type":"Landkreis"},"federalState":{"key":"03","name":"Niedersachsen"}},{"name":"Danne","postalCode":"38518","locality":"Gifhorn","municipality":{"key":"03151009","name":"Gifhorn, Stadt","type":"Stadt"},"district":{"key":"03151","name":"Gifhorn","type":"Landkreis"},"federalState":{"key":"03","name":"Niedersachsen"}},{"name":"Dannenbütteler Weg","postalCode":"38518","locality":"Gifhorn","municipality":{"key":"03151009","name":"Gifhorn, Stadt","type":"Stadt"},"district":{"key":"03151","name":"Gifhorn","type":"Landkreis"},"federalState":{"key":"03","name":"Niedersachsen"}},{"name":"Danziger Str.","postalCode":"38518","locality":"Gifhorn","municipality":{"key":"03151009","name":"Gifhorn, Stadt","type":"Stadt"},"district":{"key":"03151","name":"Gifhorn","type":"Landkreis"},"federalState":{"key":"03","name":"Niedersachsen"}},{"name":"Demminer Str.","postalCode":"38518","locality":"Gifhorn","municipality":{"key":"03151009","name":"Gifhorn, Stadt","type":"Stadt"},"district":{"key":"03151","name":"Gifhorn","type":"Landkreis"},"federalState":{"key":"03","name":"Niedersachsen"}},{"name":"Denkmalstr.","postalCode":"38518","locality":"Gifhorn","municipality":{"key":"03151009","name":"Gifhorn, Stadt","type":"Stadt"},"district":{"key":"03151","name":"Gifhorn","type":"Landkreis"},"federalState":{"key":"03","name":"Niedersachsen"}},{"name":"Dieckhorster Weg","postalCode":"38518","locality":"Gifhorn","municipality":{"key":"03151009","name":"Gifhorn, Stadt","type":"Stadt"},"district":{"key":"03151","name":"Gifhorn","type":"Landkreis"},"federalState":{"key":"03","name":"Niedersachsen"}},{"name":"Dieselstr.","postalCode":"38518","locality":"Gifhorn","municipality":{"key":"03151009","name":"Gifhorn, Stadt","type":"Stadt"},"district":{"key":"03151","name":"Gifhorn","type":"Landkreis"},"federalState":{"key":"03","name":"Niedersachsen"}},{"name":"Distelweg","postalCode":"38518","locality":"Gifhorn","municipality":{"key":"03151009","name":"Gifhorn, Stadt","type":"Stadt"},"district":{"key":"03151","name":"Gifhorn","type":"Landkreis"},"federalState":{"key":"03","name":"Niedersachsen"}},{"name":"Dorfstr.","postalCode":"38518","locality":"Gifhorn","municipality":{"key":"03151009","name":"Gifhorn, Stadt","type":"Stadt"},"district":{"key":"03151","name":"Gifhorn","type":"Landkreis"},"federalState":{"key":"03","name":"Niedersachsen"}},{"name":"Döringskamp","postalCode":"38518","locality":"Gifhorn","municipality":{"key":"03151009","name":"Gifhorn, Stadt","type":"Stadt"},"district":{"key":"03151","name":"Gifhorn","type":"Landkreis"},"federalState":{"key":"03","name":"Niedersachsen"}},{"name":"Drosselgasse","postalCode":"38518","locality":"Gifhorn","municipality":{"key":"03151009","name":"Gifhorn, Stadt","type":"Stadt"},"district":{"key":"03151","name":"Gifhorn","type":"Landkreis"},"federalState":{"key":"03","name":"Niedersachsen"}},{"name":"Drosselgasse","postalCode":"38559","locality":"Gifhorn","municipality":{"key":"03151009","name":"Gifhorn, Stadt","type":"Stadt"},"district":{"key":"03151","name":"Gifhorn","type":"Landkreis"},"federalState":{"key":"03","name":"Niedersachsen"}},{"name":"Drosselstieg","postalCode":"38518","locality":"Gifhorn","municipality":{"key":"03151009","name":"Gifhorn, Stadt","type":"Stadt"},"district":{"key":"03151","name":"Gifhorn","type":"Landkreis"},"federalState":{"key":"03","name":"Niedersachsen"}},{"name":"Drosselweg","postalCode":"38518","locality":"Gifhorn","municipality":{"key":"03151009","name":"Gifhorn, Stadt","type":"Stadt"},"district":{"key":"03151","name":"Gifhorn","type":"Landkreis"},"federalState":{"key":"03","name":"Niedersachsen"}},{"name":"Dr.-Otto-Armbrecht-Str.","postalCode":"38518","locality":"Gifhorn","municipality":{"key":"03151009","name":"Gifhorn, Stadt","type":"Stadt"},"district":{"key":"03151","name":"Gifhorn","type":"Landkreis"},"federalState":{"key":"03","name":"Niedersachsen"}},{"name":"Dr.-Ulrich-Roshop-Str.","postalCode":"38518","locality":"Gifhorn","municipality":{"key":"03151009","name":"Gifhorn, Stadt","type":"Stadt"},"district":{"key":"03151","name":"Gifhorn","type":"Landkreis"},"federalState":{"key":"03","name":"Niedersachsen"}},{"name":"Dumfrieser Ring","postalCode":"38518","locality":"Gifhorn","municipality":{"key":"03151009","name":"Gifhorn, Stadt","type":"Stadt"},"district":{"key":"03151","name":"Gifhorn","type":"Landkreis"},"federalState":{"key":"03","name":"Niedersachsen"}},{"name":"Dünenweg","postalCode":"38518","locality":"Gifhorn","municipality":{"key":"03151009","name":"Gifhorn, Stadt","type":"Stadt"},"district":{"key":"03151","name":"Gifhorn","type":"Landkreis"},"federalState":{"key":"03","name":"Niedersachsen"}},{"name":"Efeuweg","postalCode":"38518","locality":"Gifhorn","municipality":{"key":"03151009","name":"Gifhorn, Stadt","type":"Stadt"},"district":{"key":"03151","name":"Gifhorn","type":"Landkreis"},"federalState":{"key":"03","name":"Niedersachsen"}},{"name":"Egerländer Weg","postalCode":"38518","locality":"Gifhorn","municipality":{"key":"03151009","name":"Gifhorn, Stadt","type":"Stadt"},"district":{"key":"03151","name":"Gifhorn","type":"Landkreis"},"federalState":{"key":"03","name":"Niedersachsen"}},{"name":"Eichenkamp","postalCode":"38518","locality":"Gifhorn","municipality":{"key":"03151009","name":"Gifhorn, Stadt","type":"Stadt"},"district":{"key":"03151","name":"Gifhorn","type":"Landkreis"},"federalState":{"key":"03","name":"Niedersachsen"}},{"name":"Eichkamp","postalCode":"38518","locality":"Gifhorn","municipality":{"key":"03151009","name":"Gifhorn, Stadt","type":"Stadt"},"district":{"key":"03151","name":"Gifhorn","type":"Landkreis"},"federalState":{"key":"03","name":"Niedersachsen"}},{"name":"Elbinger Str.","postalCode":"38518","locality":"Gifhorn","municipality":{"key":"03151009","name":"Gifhorn, Stadt","type":"Stadt"},"district":{"key":"03151","name":"Gifhorn","type":"Landkreis"},"federalState":{"key":"03","name":"Niedersachsen"}},{"name":"Elbinger Weg","postalCode":"38518","locality":"Gifhorn","municipality":{"key":"03151009","name":"Gifhorn, Stadt","type":"Stadt"},"district":{"key":"03151","name":"Gifhorn","type":"Landkreis"},"federalState":{"key":"03","name":"Niedersachsen"}},{"name":"Elisabeth-Liedy-Str.","postalCode":"38518","locality":"Gifhorn","municipality":{"key":"03151009","name":"Gifhorn, Stadt","type":"Stadt"},"district":{"key":"03151","name":"Gifhorn","type":"Landkreis"},"federalState":{"key":"03","name":"Niedersachsen"}},{"name":"Elisabeth-Schwarzhaupt-Str.","postalCode":"38518","locality":"Gifhorn","municipality":{"key":"03151009","name":"Gifhorn, Stadt","type":"Stadt"},"district":{"key":"03151","name":"Gifhorn","type":"Landkreis"},"federalState":{"key":"03","name":"Niedersachsen"}},{"name":"Elisabeth-Selbert-Anger","postalCode":"38518","locality":"Gifhorn","municipality":{"key":"03151009","name":"Gifhorn, Stadt","type":"Stadt"},"district":{"key":"03151","name":"Gifhorn","type":"Landkreis"},"federalState":{"key":"03","name":"Niedersachsen"}},{"name":"Elsternweg","postalCode":"38518","locality":"Gifhorn","municipality":{"key":"03151009","name":"Gifhorn, Stadt","type":"Stadt"},"district":{"key":"03151","name":"Gifhorn","type":"Landkreis"},"federalState":{"key":"03","name":"Niedersachsen"}},{"name":"Emma-Wrede-Ring","postalCode":"38518","locality":"Gifhorn","municipality":{"key":"03151009","name":"Gifhorn, Stadt","type":"Stadt"},"district":{"key":"03151","name":"Gifhorn","type":"Landkreis"},"federalState":{"key":"03","name":"Niedersachsen"}},{"name":"Erich-Schaper-Str.","postalCode":"38518","locality":"Gifhorn","municipality":{"key":"03151009","name":"Gifhorn, Stadt","type":"Stadt"},"district":{"key":"03151","name":"Gifhorn","type":"Landkreis"},"federalState":{"key":"03","name":"Niedersachsen"}},{"name":"Erikaweg","postalCode":"38518","locality":"Gifhorn","municipality":{"key":"03151009","name":"Gifhorn, Stadt","type":"Stadt"},"district":{"key":"03151","name":"Gifhorn","type":"Landkreis"},"federalState":{"key":"03","name":"Niedersachsen"}},{"name":"Erlenkamp","postalCode":"38518","locality":"Gifhorn","municipality":{"key":"03151009","name":"Gifhorn, Stadt","type":"Stadt"},"district":{"key":"03151","name":"Gifhorn","type":"Landkreis"},"federalState":{"key":"03","name":"Niedersachsen"}},{"name":"Ermlandweg","postalCode":"38518","locality":"Gifhorn","municipality":{"key":"03151009","name":"Gifhorn, Stadt","type":"Stadt"},"district":{"key":"03151","name":"Gifhorn","type":"Landkreis"},"federalState":{"key":"03","name":"Niedersachsen"}},{"name":"Ernst-Höfermann-Weg","postalCode":"38518","locality":"Gifhorn","municipality":{"key":"03151009","name":"Gifhorn, Stadt","type":"Stadt"},"district":{"key":"03151","name":"Gifhorn","type":"Landkreis"},"federalState":{"key":"03","name":"Niedersachsen"}},{"name":"Ernst-Reuter-Str.","postalCode":"38518","locality":"Gifhorn","municipality":{"key":"03151009","name":"Gifhorn, Stadt","type":"Stadt"},"district":{"key":"03151","name":"Gifhorn","type":"Landkreis"},"federalState":{"key":"03","name":"Niedersachsen"}},{"name":"ES-Pulschmoor","postalCode":"38518","locality":"Gifhorn","municipality":{"key":"03151009","name":"Gifhorn, Stadt","type":"Stadt"},"district":{"key":"03151","name":"Gifhorn","type":"Landkreis"},"federalState":{"key":"03","name":"Niedersachsen"}},{"name":"Eyßelheideweg","postalCode":"38518","locality":"Gifhorn","municipality":{"key":"03151009","name":"Gifhorn, Stadt","type":"Stadt"},"district":{"key":"03151","name":"Gifhorn","type":"Landkreis"},"federalState":{"key":"03","name":"Niedersachsen"}},{"name":"Eyßelkamp","postalCode":"38518","locality":"Gifhorn","municipality":{"key":"03151009","name":"Gifhorn, Stadt","type":"Stadt"},"district":{"key":"03151","name":"Gifhorn","type":"Landkreis"},"federalState":{"key":"03","name":"Niedersachsen"}},{"name":"Flachsrotten","postalCode":"38467","locality":"Bergfeld","municipality":{"key":"03151003","name":"Bergfeld","type":"Kreisangehörige_Gemeinde"},"district":{"key":"03151","name":"Gifhorn","type":"Landkreis"},"federalState":{"key":"03","name":"Niedersachsen"}},{"name":"Fritz-Winter-Str.","postalCode":"38467","locality":"Bergfeld","municipality":{"key":"03151003","name":"Bergfeld","type":"Kreisangehörige_Gemeinde"},"district":{"key":"03151","name":"Gifhorn","type":"Landkreis"},"federalState":{"key":"03","name":"Niedersachsen"}},{"name":"Gablonzer Weg","postalCode":"38518","locality":"Gifhorn","municipality":{"key":"03151009","name":"Gifhorn, Stadt","type":"Stadt"},"district":{"key":"03151","name":"Gifhorn","type":"Landkreis"},"federalState":{"key":"03","name":"Niedersachsen"}},{"name":"Gamsener Str.","postalCode":"38518","locality":"Gifhorn","municipality":{"key":"03151009","name":"Gifhorn, Stadt","type":"Stadt"},"district":{"key":"03151","name":"Gifhorn","type":"Landkreis"},"federalState":{"key":"03","name":"Niedersachsen"}},{"name":"Gänsetor","postalCode":"38518","locality":"Gifhorn","municipality":{"key":"03151009","name":"Gifhorn, Stadt","type":"Stadt"},"district":{"key":"03151","name":"Gifhorn","type":"Landkreis"},"federalState":{"key":"03","name":"Niedersachsen"}},{"name":"Gardelegener Str.","postalCode":"38518","locality":"Gifhorn","municipality":{"key":"03151009","name":"Gifhorn, Stadt","type":"Stadt"},"district":{"key":"03151","name":"Gifhorn","type":"Landkreis"},"federalState":{"key":"03","name":"Niedersachsen"}},{"name":"Gartenweg","postalCode":"38518","locality":"Gifhorn","municipality":{"key":"03151009","name":"Gifhorn, Stadt","type":"Stadt"},"district":{"key":"03151","name":"Gifhorn","type":"Landkreis"},"federalState":{"key":"03","name":"Niedersachsen"}},{"name":"Gärtnerstr.","postalCode":"38518","locality":"Gifhorn","municipality":{"key":"03151009","name":"Gifhorn, Stadt","type":"Stadt"},"district":{"key":"03151","name":"Gifhorn","type":"Landkreis"},"federalState":{"key":"03","name":"Niedersachsen"}},{"name":"General-Beck-Str.","postalCode":"38518","locality":"Gifhorn","municipality":{"key":"03151009","name":"Gifhorn, Stadt","type":"Stadt"},"district":{"key":"03151","name":"Gifhorn","type":"Landkreis"},"federalState":{"key":"03","name":"Niedersachsen"}},{"name":"Geranienweg","postalCode":"38518","locality":"Gifhorn","municipality":{"key":"03151009","name":"Gifhorn, Stadt","type":"Stadt"},"district":{"key":"03151","name":"Gifhorn","type":"Landkreis"},"federalState":{"key":"03","name":"Niedersachsen"}},{"name":"Gerberweg","postalCode":"38518","locality":"Gifhorn","municipality":{"key":"03151009","name":"Gifhorn, Stadt","type":"Stadt"},"district":{"key":"03151","name":"Gifhorn","type":"Landkreis"},"federalState":{"key":"03","name":"Niedersachsen"}},{"name":"Gerda-Rabe-Str.","postalCode":"38518","locality":"Gifhorn","municipality":{"key":"03151009","name":"Gifhorn, Stadt","type":"Stadt"},"district":{"key":"03151","name":"Gifhorn","type":"Landkreis"},"federalState":{"key":"03","name":"Niedersachsen"}},{"name":"Gerhard-Fieseler-Str.","postalCode":"38518","locality":"Gifhorn","municipality":{"key":"03151009","name":"Gifhorn, Stadt","type":"Stadt"},"district":{"key":"03151","name":"Gifhorn","type":"Landkreis"},"federalState":{"key":"03","name":"Niedersachsen"}},{"name":"Gerstenweg","postalCode":"38518","locality":"Gifhorn","municipality":{"key":"03151009","name":"Gifhorn, Stadt","type":"Stadt"},"district":{"key":"03151","name":"Gifhorn","type":"Landkreis"},"federalState":{"key":"03","name":"Niedersachsen"}},{"name":"Geschwister-Scholl-Str.","postalCode":"38518","locality":"Gifhorn","municipality":{"key":"03151009","name":"Gifhorn, Stadt","type":"Stadt"},"district":{"key":"03151","name":"Gifhorn","type":"Landkreis"},"federalState":{"key":"03","name":"Niedersachsen"}},{"name":"Gifhorner Weg","postalCode":"38518","locality":"Gifhorn","municipality":{"key":"03151009","name":"Gifhorn, Stadt","type":"Stadt"},"district":{"key":"03151","name":"Gifhorn","type":"Landkreis"},"federalState":{"key":"03","name":"Niedersachsen"}},{"name":"Ginsterweg","postalCode":"38518","locality":"Gifhorn","municipality":{"key":"03151009","name":"Gifhorn, Stadt","type":"Stadt"},"district":{"key":"03151","name":"Gifhorn","type":"Landkreis"},"federalState":{"key":"03","name":"Niedersachsen"}},{"name":"Gladiolenweg","postalCode":"38518","locality":"Gifhorn","municipality":{"key":"03151009","name":"Gifhorn, Stadt","type":"Stadt"},"district":{"key":"03151","name":"Gifhorn","type":"Landkreis"},"federalState":{"key":"03","name":"Niedersachsen"}},{"name":"Glaserstr.","postalCode":"38518","locality":"Gifhorn","municipality":{"key":"03151009","name":"Gifhorn, Stadt","type":"Stadt"},"district":{"key":"03151","name":"Gifhorn","type":"Landkreis"},"federalState":{"key":"03","name":"Niedersachsen"}},{"name":"Goethestr.","postalCode":"38518","locality":"Gifhorn","municipality":{"key":"03151009","name":"Gifhorn, Stadt","type":"Stadt"},"district":{"key":"03151","name":"Gifhorn","type":"Landkreis"},"federalState":{"key":"03","name":"Niedersachsen"}},{"name":"Goldregenweg","postalCode":"38518","locality":"Gifhorn","municipality":{"key":"03151009","name":"Gifhorn, Stadt","type":"Stadt"},"district":{"key":"03151","name":"Gifhorn","type":"Landkreis"},"federalState":{"key":"03","name":"Niedersachsen"}},{"name":"Görlitzer Str.","postalCode":"38518","locality":"Gifhorn","municipality":{"key":"03151009","name":"Gifhorn, Stadt","type":"Stadt"},"district":{"key":"03151","name":"Gifhorn","type":"Landkreis"},"federalState":{"key":"03","name":"Niedersachsen"}},{"name":"Graf-von-Galen-Str.","postalCode":"38518","locality":"Gifhorn","municipality":{"key":"03151009","name":"Gifhorn, Stadt","type":"Stadt"},"district":{"key":"03151","name":"Gifhorn","type":"Landkreis"},"federalState":{"key":"03","name":"Niedersachsen"}},{"name":"Grasweg","postalCode":"38518","locality":"Gifhorn","municipality":{"key":"03151009","name":"Gifhorn, Stadt","type":"Stadt"},"district":{"key":"03151","name":"Gifhorn","type":"Landkreis"},"federalState":{"key":"03","name":"Niedersachsen"}},{"name":"Greifswalder Str.","postalCode":"38518","locality":"Gifhorn","municipality":{"key":"03151009","name":"Gifhorn, Stadt","type":"Stadt"},"district":{"key":"03151","name":"Gifhorn","type":"Landkreis"},"federalState":{"key":"03","name":"Niedersachsen"}},{"name":"Großer Kamp","postalCode":"38518","locality":"Gifhorn","municipality":{"key":"03151009","name":"Gifhorn, Stadt","type":"Stadt"},"district":{"key":"03151","name":"Gifhorn","type":"Landkreis"},"federalState":{"key":"03","name":"Niedersachsen"}},{"name":"Große Weide","postalCode":"38518","locality":"Gifhorn","municipality":{"key":"03151009","name":"Gifhorn, Stadt","type":"Stadt"},"district":{"key":"03151","name":"Gifhorn","type":"Landkreis"},"federalState":{"key":"03","name":"Niedersachsen"}},{"name":"Grünberger Weg","postalCode":"38518","locality":"Gifhorn","municipality":{"key":"03151009","name":"Gifhorn, Stadt","type":"Stadt"},"district":{"key":"03151","name":"Gifhorn","type":"Landkreis"},"federalState":{"key":"03","name":"Niedersachsen"}},{"name":"Grüne Grenze","postalCode":"38518","locality":"Gifhorn","municipality":{"key":"03151009","name":"Gifhorn, Stadt","type":"Stadt"},"district":{"key":"03151","name":"Gifhorn","type":"Landkreis"},"federalState":{"key":"03","name":"Niedersachsen"}},{"name":"Grüntaler Str.","postalCode":"38518","locality":"Gifhorn","municipality":{"key":"03151009","name":"Gifhorn, Stadt","type":"Stadt"},"district":{"key":"03151","name":"Gifhorn","type":"Landkreis"},"federalState":{"key":"03","name":"Niedersachsen"}},{"name":"Gustav-Schwannecke-Str.","postalCode":"38518","locality":"Gifhorn","municipality":{"key":"03151009","name":"Gifhorn, Stadt","type":"Stadt"},"district":{"key":"03151","name":"Gifhorn","type":"Landkreis"},"federalState":{"key":"03","name":"Niedersachsen"}},{"name":"Hauptstr.","postalCode":"38467","locality":"Bergfeld","municipality":{"key":"03151003","name":"Bergfeld","type":"Kreisangehörige_Gemeinde"},"district":{"key":"03151","name":"Gifhorn","type":"Landkreis"},"federalState":{"key":"03","name":"Niedersachsen"}},{"name":"Hinter dem Dorfe","postalCode":"38467","locality":"Bergfeld","municipality":{"key":"03151003","name":"Bergfeld","type":"Kreisangehörige_Gemeinde"},"district":{"key":"03151","name":"Gifhorn","type":"Landkreis"},"federalState":{"key":"03","name":"Niedersachsen"}},{"name":"Im Priasfeld","postalCode":"38467","locality":"Bergfeld","municipality":{"key":"03151003","name":"Bergfeld","type":"Kreisangehörige_Gemeinde"},"district":{"key":"03151","name":"Gifhorn","type":"Landkreis"},"federalState":{"key":"03","name":"Niedersachsen"}},{"name":"In den Wiesen","postalCode":"38467","locality":"Bergfeld","municipality":{"key":"03151003","name":"Bergfeld","type":"Kreisangehörige_Gemeinde"},"district":{"key":"03151","name":"Gifhorn","type":"Landkreis"},"federalState":{"key":"03","name":"Niedersachsen"}},{"name":"Jägerstr.","postalCode":"38518","locality":"Gifhorn","municipality":{"key":"03151009","name":"Gifhorn, Stadt","type":"Stadt"},"district":{"key":"03151","name":"Gifhorn","type":"Landkreis"},"federalState":{"key":"03","name":"Niedersachsen"}},{"name":"Jahnweg","postalCode":"38518","locality":"Gifhorn","municipality":{"key":"03151009","name":"Gifhorn, Stadt","type":"Stadt"},"district":{"key":"03151","name":"Gifhorn","type":"Landkreis"},"federalState":{"key":"03","name":"Niedersachsen"}},{"name":"Jakob-Büchel-Str.","postalCode":"38518","locality":"Gifhorn","municipality":{"key":"03151009","name":"Gifhorn, Stadt","type":"Stadt"},"district":{"key":"03151","name":"Gifhorn","type":"Landkreis"},"federalState":{"key":"03","name":"Niedersachsen"}},{"name":"Jakob-Kaiser-Weg","postalCode":"38518","locality":"Gifhorn","municipality":{"key":"03151009","name":"Gifhorn, Stadt","type":"Stadt"},"district":{"key":"03151","name":"Gifhorn","type":"Landkreis"},"federalState":{"key":"03","name":"Niedersachsen"}},{"name":"Johann-Trollmann-Weg","postalCode":"38518","locality":"Gifhorn","municipality":{"key":"03151009","name":"Gifhorn, Stadt","type":"Stadt"},"district":{"key":"03151","name":"Gifhorn","type":"Landkreis"},"federalState":{"key":"03","name":"Niedersachsen"}},{"name":"Juister Weg","postalCode":"38518","locality":"Gifhorn","municipality":{"key":"03151009","name":"Gifhorn, Stadt","type":"Stadt"},"district":{"key":"03151","name":"Gifhorn","type":"Landkreis"},"federalState":{"key":"03","name":"Niedersachsen"}},{"name":"Julius-Leber-Str.","postalCode":"38518","locality":"Gifhorn","municipality":{"key":"03151009","name":"Gifhorn, Stadt","type":"Stadt"},"district":{"key":"03151","name":"Gifhorn","type":"Landkreis"},"federalState":{"key":"03","name":"Niedersachsen"}},{"name":"Kaiserholz","postalCode":"38518","locality":"Gifhorn","municipality":{"key":"03151009","name":"Gifhorn, Stadt","type":"Stadt"},"district":{"key":"03151","name":"Gifhorn","type":"Landkreis"},"federalState":{"key":"03","name":"Niedersachsen"}},{"name":"Kamillenweg","postalCode":"38518","locality":"Gifhorn","municipality":{"key":"03151009","name":"Gifhorn, Stadt","type":"Stadt"},"district":{"key":"03151","name":"Gifhorn","type":"Landkreis"},"federalState":{"key":"03","name":"Niedersachsen"}},{"name":"Kästorfer Weg","postalCode":"38518","locality":"Gifhorn","municipality":{"key":"03151009","name":"Gifhorn, Stadt","type":"Stadt"},"district":{"key":"03151","name":"Gifhorn","type":"Landkreis"},"federalState":{"key":"03","name":"Niedersachsen"}},{"name":"Käthe-Kollwitz-Ring","postalCode":"38518","locality":"Gifhorn","municipality":{"key":"03151009","name":"Gifhorn, Stadt","type":"Stadt"},"district":{"key":"03151","name":"Gifhorn","type":"Landkreis"},"federalState":{"key":"03","name":"Niedersachsen"}},{"name":"Käthe-Kruse-Str.","postalCode":"38518","locality":"Gifhorn","municipality":{"key":"03151009","name":"Gifhorn, Stadt","type":"Stadt"},"district":{"key":"03151","name":"Gifhorn","type":"Landkreis"},"federalState":{"key":"03","name":"Niedersachsen"}},{"name":"Katzenhagen","postalCode":"38518","locality":"Gifhorn","municipality":{"key":"03151009","name":"Gifhorn, Stadt","type":"Stadt"},"district":{"key":"03151","name":"Gifhorn","type":"Landkreis"},"federalState":{"key":"03","name":"Niedersachsen"}},{"name":"Kavalierstweete","postalCode":"38518","locality":"Gifhorn","municipality":{"key":"03151009","name":"Gifhorn, Stadt","type":"Stadt"},"district":{"key":"03151","name":"Gifhorn","type":"Landkreis"},"federalState":{"key":"03","name":"Niedersachsen"}},{"name":"Kellerberg","postalCode":"38518","locality":"Gifhorn","municipality":{"key":"03151009","name":"Gifhorn, Stadt","type":"Stadt"},"district":{"key":"03151","name":"Gifhorn","type":"Landkreis"},"federalState":{"key":"03","name":"Niedersachsen"}},{"name":"Keplerstr.","postalCode":"38518","locality":"Gifhorn","municipality":{"key":"03151009","name":"Gifhorn, Stadt","type":"Stadt"},"district":{"key":"03151","name":"Gifhorn","type":"Landkreis"},"federalState":{"key":"03","name":"Niedersachsen"}},{"name":"Keramikweg","postalCode":"38518","locality":"Gifhorn","municipality":{"key":"03151009","name":"Gifhorn, Stadt","type":"Stadt"},"district":{"key":"03151","name":"Gifhorn","type":"Landkreis"},"federalState":{"key":"03","name":"Niedersachsen"}},{"name":"Kettelbusch","postalCode":"38518","locality":"Gifhorn","municipality":{"key":"03151009","name":"Gifhorn, Stadt","type":"Stadt"},"district":{"key":"03151","name":"Gifhorn","type":"Landkreis"},"federalState":{"key":"03","name":"Niedersachsen"}},{"name":"Kettelfeld","postalCode":"38518","locality":"Gifhorn","municipality":{"key":"03151009","name":"Gifhorn, Stadt","type":"Stadt"},"district":{"key":"03151","name":"Gifhorn","type":"Landkreis"},"federalState":{"key":"03","name":"Niedersachsen"}},{"name":"Kettelfeldring","postalCode":"38518","locality":"Gifhorn","municipality":{"key":"03151009","name":"Gifhorn, Stadt","type":"Stadt"},"district":{"key":"03151","name":"Gifhorn","type":"Landkreis"},"federalState":{"key":"03","name":"Niedersachsen"}},{"name":"Kettelweg","postalCode":"38518","locality":"Gifhorn","municipality":{"key":"03151009","name":"Gifhorn, Stadt","type":"Stadt"},"district":{"key":"03151","name":"Gifhorn","type":"Landkreis"},"federalState":{"key":"03","name":"Niedersachsen"}},{"name":"Kiebitzweg","postalCode":"38518","locality":"Gifhorn","municipality":{"key":"03151009","name":"Gifhorn, Stadt","type":"Stadt"},"district":{"key":"03151","name":"Gifhorn","type":"Landkreis"},"federalState":{"key":"03","name":"Niedersachsen"}},{"name":"Kiefernhain","postalCode":"38518","locality":"Gifhorn","municipality":{"key":"03151009","name":"Gifhorn, Stadt","type":"Stadt"},"district":{"key":"03151","name":"Gifhorn","type":"Landkreis"},"federalState":{"key":"03","name":"Niedersachsen"}},{"name":"Kirchweg","postalCode":"38518","locality":"Gifhorn","municipality":{"key":"03151009","name":"Gifhorn, Stadt","type":"Stadt"},"district":{"key":"03151","name":"Gifhorn","type":"Landkreis"},"federalState":{"key":"03","name":"Niedersachsen"}},{"name":"Klausenburger Str.","postalCode":"38518","locality":"Gifhorn","municipality":{"key":"03151009","name":"Gifhorn, Stadt","type":"Stadt"},"district":{"key":"03151","name":"Gifhorn","type":"Landkreis"},"federalState":{"key":"03","name":"Niedersachsen"}},{"name":"Kleimannsruh","postalCode":"38518","locality":"Gifhorn","municipality":{"key":"03151009","name":"Gifhorn, Stadt","type":"Stadt"},"district":{"key":"03151","name":"Gifhorn","type":"Landkreis"},"federalState":{"key":"03","name":"Niedersachsen"}},{"name":"Kleine Flage","postalCode":"38518","locality":"Gifhorn","municipality":{"key":"03151009","name":"Gifhorn, Stadt","type":"Stadt"},"district":{"key":"03151","name":"Gifhorn","type":"Landkreis"},"federalState":{"key":"03","name":"Niedersachsen"}},{"name":"Klosterstr.","postalCode":"38518","locality":"Gifhorn","municipality":{"key":"03151009","name":"Gifhorn, Stadt","type":"Stadt"},"district":{"key":"03151","name":"Gifhorn","type":"Landkreis"},"federalState":{"key":"03","name":"Niedersachsen"}},{"name":"Klosterwiesenweg","postalCode":"38518","locality":"Gifhorn","municipality":{"key":"03151009","name":"Gifhorn, Stadt","type":"Stadt"},"district":{"key":"03151","name":"Gifhorn","type":"Landkreis"},"federalState":{"key":"03","name":"Niedersachsen"}},{"name":"Knickwall","postalCode":"38518","locality":"Gifhorn","municipality":{"key":"03151009","name":"Gifhorn, Stadt","type":"Stadt"},"district":{"key":"03151","name":"Gifhorn","type":"Landkreis"},"federalState":{"key":"03","name":"Niedersachsen"}},{"name":"Kolberger Str.","postalCode":"38518","locality":"Gifhorn","municipality":{"key":"03151009","name":"Gifhorn, Stadt","type":"Stadt"},"district":{"key":"03151","name":"Gifhorn","type":"Landkreis"},"federalState":{"key":"03","name":"Niedersachsen"}},{"name":"Königsberger Str.","postalCode":"38518","locality":"Gifhorn","municipality":{"key":"03151009","name":"Gifhorn, Stadt","type":"Stadt"},"district":{"key":"03151","name":"Gifhorn","type":"Landkreis"},"federalState":{"key":"03","name":"Niedersachsen"}},{"name":"Konrad-Adenauer-Str.","postalCode":"38518","locality":"Gifhorn","municipality":{"key":"03151009","name":"Gifhorn, Stadt","type":"Stadt"},"district":{"key":"03151","name":"Gifhorn","type":"Landkreis"},"federalState":{"key":"03","name":"Niedersachsen"}},{"name":"Konrad-Beste-Str.","postalCode":"38518","locality":"Gifhorn","municipality":{"key":"03151009","name":"Gifhorn, Stadt","type":"Stadt"},"district":{"key":"03151","name":"Gifhorn","type":"Landkreis"},"federalState":{"key":"03","name":"Niedersachsen"}},{"name":"Köpenicker Str.","postalCode":"38518","locality":"Gifhorn","municipality":{"key":"03151009","name":"Gifhorn, Stadt","type":"Stadt"},"district":{"key":"03151","name":"Gifhorn","type":"Landkreis"},"federalState":{"key":"03","name":"Niedersachsen"}},{"name":"Kopernikusstr.","postalCode":"38518","locality":"Gifhorn","municipality":{"key":"03151009","name":"Gifhorn, Stadt","type":"Stadt"},"district":{"key":"03151","name":"Gifhorn","type":"Landkreis"},"federalState":{"key":"03","name":"Niedersachsen"}},{"name":"Kornblumenweg","postalCode":"38518","locality":"Gifhorn","municipality":{"key":"03151009","name":"Gifhorn, Stadt","type":"Stadt"},"district":{"key":"03151","name":"Gifhorn","type":"Landkreis"},"federalState":{"key":"03","name":"Niedersachsen"}},{"name":"Kornweg","postalCode":"38518","locality":"Gifhorn","municipality":{"key":"03151009","name":"Gifhorn, Stadt","type":"Stadt"},"district":{"key":"03151","name":"Gifhorn","type":"Landkreis"},"federalState":{"key":"03","name":"Niedersachsen"}},{"name":"Korssuner Ring","postalCode":"38518","locality":"Gifhorn","municipality":{"key":"03151009","name":"Gifhorn, Stadt","type":"Stadt"},"district":{"key":"03151","name":"Gifhorn","type":"Landkreis"},"federalState":{"key":"03","name":"Niedersachsen"}},{"name":"Kösliner Str.","postalCode":"38518","locality":"Gifhorn","municipality":{"key":"03151009","name":"Gifhorn, Stadt","type":"Stadt"},"district":{"key":"03151","name":"Gifhorn","type":"Landkreis"},"federalState":{"key":"03","name":"Niedersachsen"}},{"name":"Köthnerstr.","postalCode":"38518","locality":"Gifhorn","municipality":{"key":"03151009","name":"Gifhorn, Stadt","type":"Stadt"},"district":{"key":"03151","name":"Gifhorn","type":"Landkreis"},"federalState":{"key":"03","name":"Niedersachsen"}},{"name":"Krähenwinkel","postalCode":"38518","locality":"Gifhorn","municipality":{"key":"03151009","name":"Gifhorn, Stadt","type":"Stadt"},"district":{"key":"03151","name":"Gifhorn","type":"Landkreis"},"federalState":{"key":"03","name":"Niedersachsen"}},{"name":"Kreuzberger Ring","postalCode":"38518","locality":"Gifhorn","municipality":{"key":"03151009","name":"Gifhorn, Stadt","type":"Stadt"},"district":{"key":"03151","name":"Gifhorn","type":"Landkreis"},"federalState":{"key":"03","name":"Niedersachsen"}},{"name":"Kreuzkamp","postalCode":"38518","locality":"Gifhorn","municipality":{"key":"03151009","name":"Gifhorn, Stadt","type":"Stadt"},"district":{"key":"03151","name":"Gifhorn","type":"Landkreis"},"federalState":{"key":"03","name":"Niedersachsen"}},{"name":"Krokusweg","postalCode":"38518","locality":"Gifhorn","municipality":{"key":"03151009","name":"Gifhorn, Stadt","type":"Stadt"},"district":{"key":"03151","name":"Gifhorn","type":"Landkreis"},"federalState":{"key":"03","name":"Niedersachsen"}},{"name":"Krümmeweg","postalCode":"38518","locality":"Gifhorn","municipality":{"key":"03151009","name":"Gifhorn, Stadt","type":"Stadt"},"district":{"key":"03151","name":"Gifhorn","type":"Landkreis"},"federalState":{"key":"03","name":"Niedersachsen"}},{"name":"Kuhbrücke","postalCode":"38518","locality":"Gifhorn","municipality":{"key":"03151009","name":"Gifhorn, Stadt","type":"Stadt"},"district":{"key":"03151","name":"Gifhorn","type":"Landkreis"},"federalState":{"key":"03","name":"Niedersachsen"}},{"name":"Kurlandweg","postalCode":"38518","locality":"Gifhorn","municipality":{"key":"03151009","name":"Gifhorn, Stadt","type":"Stadt"},"district":{"key":"03151","name":"Gifhorn","type":"Landkreis"},"federalState":{"key":"03","name":"Niedersachsen"}},{"name":"Kurt-Schumacher-Str.","postalCode":"38518","locality":"Gifhorn","municipality":{"key":"03151009","name":"Gifhorn, Stadt","type":"Stadt"},"district":{"key":"03151","name":"Gifhorn","type":"Landkreis"},"federalState":{"key":"03","name":"Niedersachsen"}},{"name":"Kurze Str.","postalCode":"38518","locality":"Gifhorn","municipality":{"key":"03151009","name":"Gifhorn, Stadt","type":"Stadt"},"district":{"key":"03151","name":"Gifhorn","type":"Landkreis"},"federalState":{"key":"03","name":"Niedersachsen"}},{"name":"Luisenstr.","postalCode":"38467","locality":"Bergfeld","municipality":{"key":"03151003","name":"Bergfeld","type":"Kreisangehörige_Gemeinde"},"district":{"key":"03151","name":"Gifhorn","type":"Landkreis"},"federalState":{"key":"03","name":"Niedersachsen"}},{"name":"Mittelweg","postalCode":"38467","locality":"Bergfeld","municipality":{"key":"03151003","name":"Bergfeld","type":"Kreisangehörige_Gemeinde"},"district":{"key":"03151","name":"Gifhorn","type":"Landkreis"},"federalState":{"key":"03","name":"Niedersachsen"}},{"name":"Narzissenweg","postalCode":"38518","locality":"Gifhorn","municipality":{"key":"03151009","name":"Gifhorn, Stadt","type":"Stadt"},"district":{"key":"03151","name":"Gifhorn","type":"Landkreis"},"federalState":{"key":"03","name":"Niedersachsen"}},{"name":"Neidenburger Str.","postalCode":"38518","locality":"Gifhorn","municipality":{"key":"03151009","name":"Gifhorn, Stadt","type":"Stadt"},"district":{"key":"03151","name":"Gifhorn","type":"Landkreis"},"federalState":{"key":"03","name":"Niedersachsen"}},{"name":"Nelkenweg","postalCode":"38518","locality":"Gifhorn","municipality":{"key":"03151009","name":"Gifhorn, Stadt","type":"Stadt"},"district":{"key":"03151","name":"Gifhorn","type":"Landkreis"},"federalState":{"key":"03","name":"Niedersachsen"}},{"name":"Neubokeler Str.","postalCode":"38518","locality":"Gifhorn","municipality":{"key":"03151009","name":"Gifhorn, Stadt","type":"Stadt"},"district":{"key":"03151","name":"Gifhorn","type":"Landkreis"},"federalState":{"key":"03","name":"Niedersachsen"}},{"name":"Neue Str.","postalCode":"38518","locality":"Gifhorn","municipality":{"key":"03151009","name":"Gifhorn, Stadt","type":"Stadt"},"district":{"key":"03151","name":"Gifhorn","type":"Landkreis"},"federalState":{"key":"03","name":"Niedersachsen"}},{"name":"Neu Waldhof","postalCode":"38518","locality":"Gifhorn","municipality":{"key":"03151009","name":"Gifhorn, Stadt","type":"Stadt"},"district":{"key":"03151","name":"Gifhorn","type":"Landkreis"},"federalState":{"key":"03","name":"Niedersachsen"}},{"name":"Nordhoffstr.","postalCode":"38518","locality":"Gifhorn","municipality":{"key":"03151009","name":"Gifhorn, Stadt","type":"Stadt"},"district":{"key":"03151","name":"Gifhorn","type":"Landkreis"},"federalState":{"key":"03","name":"Niedersachsen"}},{"name":"Oldaustr.","postalCode":"38518","locality":"Gifhorn","municipality":{"key":"03151009","name":"Gifhorn, Stadt","type":"Stadt"},"district":{"key":"03151","name":"Gifhorn","type":"Landkreis"},"federalState":{"key":"03","name":"Niedersachsen"}},{"name":"Orchideenweg","postalCode":"38518","locality":"Gifhorn","municipality":{"key":"03151009","name":"Gifhorn, Stadt","type":"Stadt"},"district":{"key":"03151","name":"Gifhorn","type":"Landkreis"},"federalState":{"key":"03","name":"Niedersachsen"}},{"name":"Ortfeld","postalCode":"38518","locality":"Gifhorn","municipality":{"key":"03151009","name":"Gifhorn, Stadt","type":"Stadt"},"district":{"key":"03151","name":"Gifhorn","type":"Landkreis"},"federalState":{"key":"03","name":"Niedersachsen"}},{"name":"Osterberg","postalCode":"38518","locality":"Gifhorn","municipality":{"key":"03151009","name":"Gifhorn, Stadt","type":"Stadt"},"district":{"key":"03151","name":"Gifhorn","type":"Landkreis"},"federalState":{"key":"03","name":"Niedersachsen"}},{"name":"Osttangente","postalCode":"38518","locality":"Gifhorn","municipality":{"key":"03151009","name":"Gifhorn, Stadt","type":"Stadt"},"district":{"key":"03151","name":"Gifhorn","type":"Landkreis"},"federalState":{"key":"03","name":"Niedersachsen"}},{"name":"Otto-Heuer-Str.","postalCode":"38518","locality":"Gifhorn","municipality":{"key":"03151009","name":"Gifhorn, Stadt","type":"Stadt"},"district":{"key":"03151","name":"Gifhorn","type":"Landkreis"},"federalState":{"key":"03","name":"Niedersachsen"}},{"name":"Ottostr.","postalCode":"38518","locality":"Gifhorn","municipality":{"key":"03151009","name":"Gifhorn, Stadt","type":"Stadt"},"district":{"key":"03151","name":"Gifhorn","type":"Landkreis"},"federalState":{"key":"03","name":"Niedersachsen"}},{"name":"Pappelweg","postalCode":"38518","locality":"Gifhorn","municipality":{"key":"03151009","name":"Gifhorn, Stadt","type":"Stadt"},"district":{"key":"03151","name":"Gifhorn","type":"Landkreis"},"federalState":{"key":"03","name":"Niedersachsen"}},{"name":"Paula-Modersohn-Ring","postalCode":"38518","locality":"Gifhorn","municipality":{"key":"03151009","name":"Gifhorn, Stadt","type":"Stadt"},"district":{"key":"03151","name":"Gifhorn","type":"Landkreis"},"federalState":{"key":"03","name":"Niedersachsen"}},{"name":"Petkuser Weg","postalCode":"38518","locality":"Gifhorn","municipality":{"key":"03151009","name":"Gifhorn, Stadt","type":"Stadt"},"district":{"key":"03151","name":"Gifhorn","type":"Landkreis"},"federalState":{"key":"03","name":"Niedersachsen"}},{"name":"Petunienweg","postalCode":"38518","locality":"Gifhorn","municipality":{"key":"03151009","name":"Gifhorn, Stadt","type":"Stadt"},"district":{"key":"03151","name":"Gifhorn","type":"Landkreis"},"federalState":{"key":"03","name":"Niedersachsen"}},{"name":"Pfarrgarten","postalCode":"38518","locality":"Gifhorn","municipality":{"key":"03151009","name":"Gifhorn, Stadt","type":"Stadt"},"district":{"key":"03151","name":"Gifhorn","type":"Landkreis"},"federalState":{"key":"03","name":"Niedersachsen"}},{"name":"Pilzweg","postalCode":"38518","locality":"Gifhorn","municipality":{"key":"03151009","name":"Gifhorn, Stadt","type":"Stadt"},"district":{"key":"03151","name":"Gifhorn","type":"Landkreis"},"federalState":{"key":"03","name":"Niedersachsen"}},{"name":"Platendorfer Str.","postalCode":"38518","locality":"Gifhorn","municipality":{"key":"03151009","name":"Gifhorn, Stadt","type":"Stadt"},"district":{"key":"03151","name":"Gifhorn","type":"Landkreis"},"federalState":{"key":"03","name":"Niedersachsen"}},{"name":"Polziner Str.","postalCode":"38518","locality":"Gifhorn","municipality":{"key":"03151009","name":"Gifhorn, Stadt","type":"Stadt"},"district":{"key":"03151","name":"Gifhorn","type":"Landkreis"},"federalState":{"key":"03","name":"Niedersachsen"}},{"name":"Pommernring","postalCode":"38518","locality":"Gifhorn","municipality":{"key":"03151009","name":"Gifhorn, Stadt","type":"Stadt"},"district":{"key":"03151","name":"Gifhorn","type":"Landkreis"},"federalState":{"key":"03","name":"Niedersachsen"}},{"name":"Porschestr.","postalCode":"38518","locality":"Gifhorn","municipality":{"key":"03151009","name":"Gifhorn, Stadt","type":"Stadt"},"district":{"key":"03151","name":"Gifhorn","type":"Landkreis"},"federalState":{"key":"03","name":"Niedersachsen"}},{"name":"Posener Str.","postalCode":"38518","locality":"Gifhorn","municipality":{"key":"03151009","name":"Gifhorn, Stadt","type":"Stadt"},"district":{"key":"03151","name":"Gifhorn","type":"Landkreis"},"federalState":{"key":"03","name":"Niedersachsen"}},{"name":"Poststr.","postalCode":"38518","locality":"Gifhorn","municipality":{"key":"03151009","name":"Gifhorn, Stadt","type":"Stadt"},"district":{"key":"03151","name":"Gifhorn","type":"Landkreis"},"federalState":{"key":"03","name":"Niedersachsen"}},{"name":"Potsdamer Str.","postalCode":"38518","locality":"Gifhorn","municipality":{"key":"03151009","name":"Gifhorn, Stadt","type":"Stadt"},"district":{"key":"03151","name":"Gifhorn","type":"Landkreis"},"federalState":{"key":"03","name":"Niedersachsen"}},{"name":"Professor-Kalmbacher-Str.","postalCode":"38518","locality":"Gifhorn","municipality":{"key":"03151009","name":"Gifhorn, Stadt","type":"Stadt"},"district":{"key":"03151","name":"Gifhorn","type":"Landkreis"},"federalState":{"key":"03","name":"Niedersachsen"}},{"name":"Pyritzer Str.","postalCode":"38518","locality":"Gifhorn","municipality":{"key":"03151009","name":"Gifhorn, Stadt","type":"Stadt"},"district":{"key":"03151","name":"Gifhorn","type":"Landkreis"},"federalState":{"key":"03","name":"Niedersachsen"}},{"name":"Querkamp","postalCode":"38518","locality":"Gifhorn","municipality":{"key":"03151009","name":"Gifhorn, Stadt","type":"Stadt"},"district":{"key":"03151","name":"Gifhorn","type":"Landkreis"},"federalState":{"key":"03","name":"Niedersachsen"}},{"name":"Querweg","postalCode":"38518","locality":"Gifhorn","municipality":{"key":"03151009","name":"Gifhorn, Stadt","type":"Stadt"},"district":{"key":"03151","name":"Gifhorn","type":"Landkreis"},"federalState":{"key":"03","name":"Niedersachsen"}},{"name":"Ratje","postalCode":"38467","locality":"Bergfeld","municipality":{"key":"03151003","name":"Bergfeld","type":"Kreisangehörige_Gemeinde"},"district":{"key":"03151","name":"Gifhorn","type":"Landkreis"},"federalState":{"key":"03","name":"Niedersachsen"}},{"name":"Schulstr.","postalCode":"38467","locality":"Bergfeld","municipality":{"key":"03151003","name":"Bergfeld","type":"Kreisangehörige_Gemeinde"},"district":{"key":"03151","name":"Gifhorn","type":"Landkreis"},"federalState":{"key":"03","name":"Niedersachsen"}},{"name":"Südstr.","postalCode":"38467","locality":"Bergfeld","municipality":{"key":"03151003","name":"Bergfeld","type":"Kreisangehörige_Gemeinde"},"district":{"key":"03151","name":"Gifhorn","type":"Landkreis"},"federalState":{"key":"03","name":"Niedersachsen"}},{"name":"Tülauer Weg","postalCode":"38467","locality":"Bergfeld","municipality":{"key":"03151003","name":"Bergfeld","type":"Kreisangehörige_Gemeinde"},"district":{"key":"03151","name":"Gifhorn","type":"Landkreis"},"federalState":{"key":"03","name":"Niedersachsen"}},{"name":"Uhlandweg","postalCode":"38518","locality":"Gifhorn","municipality":{"key":"03151009","name":"Gifhorn, Stadt","type":"Stadt"},"district":{"key":"03151","name":"Gifhorn","type":"Landkreis"},"federalState":{"key":"03","name":"Niedersachsen"}},{"name":"Uhlenhorst","postalCode":"38518","locality":"Gifhorn","municipality":{"key":"03151009","name":"Gifhorn, Stadt","type":"Stadt"},"district":{"key":"03151","name":"Gifhorn","type":"Landkreis"},"federalState":{"key":"03","name":"Niedersachsen"}},{"name":"Ummersche Heerstr.","postalCode":"38518","locality":"Gifhorn","municipality":{"key":"03151009","name":"Gifhorn, Stadt","type":"Stadt"},"district":{"key":"03151","name":"Gifhorn","type":"Landkreis"},"federalState":{"key":"03","name":"Niedersachsen"}},{"name":"Veilchenweg","postalCode":"38518","locality":"Gifhorn","municipality":{"key":"03151009","name":"Gifhorn, Stadt","type":"Stadt"},"district":{"key":"03151","name":"Gifhorn","type":"Landkreis"},"federalState":{"key":"03","name":"Niedersachsen"}},{"name":"Verbindungsweg 25028","postalCode":"38518","locality":"Gifhorn","municipality":{"key":"03151009","name":"Gifhorn, Stadt","type":"Stadt"},"district":{"key":"03151","name":"Gifhorn","type":"Landkreis"},"federalState":{"key":"03","name":"Niedersachsen"}},{"name":"Verbindungsweg 25033","postalCode":"38518","locality":"Gifhorn","municipality":{"key":"03151009","name":"Gifhorn, Stadt","type":"Stadt"},"district":{"key":"03151","name":"Gifhorn","type":"Landkreis"},"federalState":{"key":"03","name":"Niedersachsen"}},{"name":"Verbindungsweg 39005","postalCode":"38518","locality":"Gifhorn","municipality":{"key":"03151009","name":"Gifhorn, Stadt","type":"Stadt"},"district":{"key":"03151","name":"Gifhorn","type":"Landkreis"},"federalState":{"key":"03","name":"Niedersachsen"}},{"name":"Verbindungsweg 39010","postalCode":"38518","locality":"Gifhorn","municipality":{"key":"03151009","name":"Gifhorn, Stadt","type":"Stadt"},"district":{"key":"03151","name":"Gifhorn","type":"Landkreis"},"federalState":{"key":"03","name":"Niedersachsen"}},{"name":"Virchowstr.","postalCode":"38518","locality":"Gifhorn","municipality":{"key":"03151009","name":"Gifhorn, Stadt","type":"Stadt"},"district":{"key":"03151","name":"Gifhorn","type":"Landkreis"},"federalState":{"key":"03","name":"Niedersachsen"}},{"name":"Vogelbeerweg","postalCode":"38518","locality":"Gifhorn","municipality":{"key":"03151009","name":"Gifhorn, Stadt","type":"Stadt"},"district":{"key":"03151","name":"Gifhorn","type":"Landkreis"},"federalState":{"key":"03","name":"Niedersachsen"}},{"name":"Von-Basedow-Str.","postalCode":"38518","locality":"Gifhorn","municipality":{"key":"03151009","name":"Gifhorn, Stadt","type":"Stadt"},"district":{"key":"03151","name":"Gifhorn","type":"Landkreis"},"federalState":{"key":"03","name":"Niedersachsen"}},{"name":"Von-Behring-Str.","postalCode":"38518","locality":"Gifhorn","municipality":{"key":"03151009","name":"Gifhorn, Stadt","type":"Stadt"},"district":{"key":"03151","name":"Gifhorn","type":"Landkreis"},"federalState":{"key":"03","name":"Niedersachsen"}},{"name":"Von-Hammerstein-Weg","postalCode":"38518","locality":"Gifhorn","municipality":{"key":"03151009","name":"Gifhorn, Stadt","type":"Stadt"},"district":{"key":"03151","name":"Gifhorn","type":"Landkreis"},"federalState":{"key":"03","name":"Niedersachsen"}},{"name":"Von-Helmholtz-Str.","postalCode":"38518","locality":"Gifhorn","municipality":{"key":"03151009","name":"Gifhorn, Stadt","type":"Stadt"},"district":{"key":"03151","name":"Gifhorn","type":"Landkreis"},"federalState":{"key":"03","name":"Niedersachsen"}},{"name":"Von-Humboldt-Str.","postalCode":"38518","locality":"Gifhorn","municipality":{"key":"03151009","name":"Gifhorn, Stadt","type":"Stadt"},"district":{"key":"03151","name":"Gifhorn","type":"Landkreis"},"federalState":{"key":"03","name":"Niedersachsen"}},{"name":"Von-Zeppelin-Str.","postalCode":"38518","locality":"Gifhorn","municipality":{"key":"03151009","name":"Gifhorn, Stadt","type":"Stadt"},"district":{"key":"03151","name":"Gifhorn","type":"Landkreis"},"federalState":{"key":"03","name":"Niedersachsen"}},{"name":"Welsumer Str.","postalCode":"38467","locality":"Bergfeld","municipality":{"key":"03151003","name":"Bergfeld","type":"Kreisangehörige_Gemeinde"},"district":{"key":"03151","name":"Gifhorn","type":"Landkreis"},"federalState":{"key":"03","name":"Niedersachsen"}},{"name":"Wolfsburger Str.","postalCode":"38467","locality":"Bergfeld","municipality":{"key":"03151003","name":"Bergfeld","type":"Kreisangehörige_Gemeinde"},"district":{"key":"03151","name":"Gifhorn","type":"Landkreis"},"federalState":{"key":"03","name":"Niedersachsen"}},{"name":"Xanthistr.","postalCode":"38518","locality":"Gifhorn","municipality":{"key":"03151009","name":"Gifhorn, Stadt","type":"Stadt"},"district":{"key":"03151","name":"Gifhorn","type":"Landkreis"},"federalState":{"key":"03","name":"Niedersachsen"}},{"name":"Zum Immelag","postalCode":"38467","locality":"Bergfeld","municipality":{"key":"03151003","name":"Bergfeld","type":"Kreisangehörige_Gemeinde"},"district":{"key":"03151","name":"Gifhorn","type":"Landkreis"},"federalState":{"key":"03","name":"Niedersachsen"}},{"name":"Ährenweg","postalCode":"38518","locality":"Gifhorn","municipality":{"key":"03151009","name":"Gifhorn, Stadt","type":"Stadt"},"district":{"key":"03151","name":"Gifhorn","type":"Landkreis"},"federalState":{"key":"03","name":"Niedersachsen"}},]