[{"name":"Akazienweg","postalCode":"36208","locality":"Wildeck","municipality":{"key":"06632020","name":"Wildeck","type":"Kreisangehörige_Gemeinde"},"district":{"key":"06632","name":"Hersfeld-Rotenburg","type":"Landkreis"},"federalState":{"key":"06","name":"Hessen"}},{"name":"Almushof","postalCode":"36208","locality":"Wildeck","municipality":{"key":"06632020","name":"Wildeck","type":"Kreisangehörige_Gemeinde"},"district":{"key":"06632","name":"Hersfeld-Rotenburg","type":"Landkreis"},"federalState":{"key":"06","name":"Hessen"}},{"name":"Alte Str.","postalCode":"36208","locality":"Wildeck","municipality":{"key":"06632020","name":"Wildeck","type":"Kreisangehörige_Gemeinde"},"district":{"key":"06632","name":"Hersfeld-Rotenburg","type":"Landkreis"},"federalState":{"key":"06","name":"Hessen"}},{"name":"Am Alten Berg","postalCode":"36208","locality":"Wildeck","municipality":{"key":"06632020","name":"Wildeck","type":"Kreisangehörige_Gemeinde"},"district":{"key":"06632","name":"Hersfeld-Rotenburg","type":"Landkreis"},"federalState":{"key":"06","name":"Hessen"}},{"name":"Am Alten Garten","postalCode":"36208","locality":"Wildeck","municipality":{"key":"06632020","name":"Wildeck","type":"Kreisangehörige_Gemeinde"},"district":{"key":"06632","name":"Hersfeld-Rotenburg","type":"Landkreis"},"federalState":{"key":"06","name":"Hessen"}},{"name":"Am Borngraben","postalCode":"36208","locality":"Wildeck","municipality":{"key":"06632020","name":"Wildeck","type":"Kreisangehörige_Gemeinde"},"district":{"key":"06632","name":"Hersfeld-Rotenburg","type":"Landkreis"},"federalState":{"key":"06","name":"Hessen"}},{"name":"Am Brausteg","postalCode":"36208","locality":"Wildeck","municipality":{"key":"06632020","name":"Wildeck","type":"Kreisangehörige_Gemeinde"},"district":{"key":"06632","name":"Hersfeld-Rotenburg","type":"Landkreis"},"federalState":{"key":"06","name":"Hessen"}},{"name":"Am Dorfgraben","postalCode":"36208","locality":"Wildeck","municipality":{"key":"06632020","name":"Wildeck","type":"Kreisangehörige_Gemeinde"},"district":{"key":"06632","name":"Hersfeld-Rotenburg","type":"Landkreis"},"federalState":{"key":"06","name":"Hessen"}},{"name":"Am Dornröschen","postalCode":"36208","locality":"Wildeck","municipality":{"key":"06632020","name":"Wildeck","type":"Kreisangehörige_Gemeinde"},"district":{"key":"06632","name":"Hersfeld-Rotenburg","type":"Landkreis"},"federalState":{"key":"06","name":"Hessen"}},{"name":"Am Graben","postalCode":"36208","locality":"Wildeck","municipality":{"key":"06632020","name":"Wildeck","type":"Kreisangehörige_Gemeinde"},"district":{"key":"06632","name":"Hersfeld-Rotenburg","type":"Landkreis"},"federalState":{"key":"06","name":"Hessen"}},{"name":"Am Güterbahnhof","postalCode":"36208","locality":"Wildeck","municipality":{"key":"06632020","name":"Wildeck","type":"Kreisangehörige_Gemeinde"},"district":{"key":"06632","name":"Hersfeld-Rotenburg","type":"Landkreis"},"federalState":{"key":"06","name":"Hessen"}},{"name":"Am Kropfberg","postalCode":"36208","locality":"Wildeck","municipality":{"key":"06632020","name":"Wildeck","type":"Kreisangehörige_Gemeinde"},"district":{"key":"06632","name":"Hersfeld-Rotenburg","type":"Landkreis"},"federalState":{"key":"06","name":"Hessen"}},{"name":"Am Lehmkopf","postalCode":"36208","locality":"Wildeck","municipality":{"key":"06632020","name":"Wildeck","type":"Kreisangehörige_Gemeinde"},"district":{"key":"06632","name":"Hersfeld-Rotenburg","type":"Landkreis"},"federalState":{"key":"06","name":"Hessen"}},{"name":"Am Rasen","postalCode":"36208","locality":"Wildeck","municipality":{"key":"06632020","name":"Wildeck","type":"Kreisangehörige_Gemeinde"},"district":{"key":"06632","name":"Hersfeld-Rotenburg","type":"Landkreis"},"federalState":{"key":"06","name":"Hessen"}},{"name":"Amselstr.","postalCode":"36208","locality":"Wildeck","municipality":{"key":"06632020","name":"Wildeck","type":"Kreisangehörige_Gemeinde"},"district":{"key":"06632","name":"Hersfeld-Rotenburg","type":"Landkreis"},"federalState":{"key":"06","name":"Hessen"}},{"name":"Am Unteren Graben","postalCode":"36208","locality":"Wildeck","municipality":{"key":"06632020","name":"Wildeck","type":"Kreisangehörige_Gemeinde"},"district":{"key":"06632","name":"Hersfeld-Rotenburg","type":"Landkreis"},"federalState":{"key":"06","name":"Hessen"}},{"name":"Am Weißberg","postalCode":"36208","locality":"Wildeck","municipality":{"key":"06632020","name":"Wildeck","type":"Kreisangehörige_Gemeinde"},"district":{"key":"06632","name":"Hersfeld-Rotenburg","type":"Landkreis"},"federalState":{"key":"06","name":"Hessen"}},{"name":"An der Bahn","postalCode":"36208","locality":"Wildeck","municipality":{"key":"06632020","name":"Wildeck","type":"Kreisangehörige_Gemeinde"},"district":{"key":"06632","name":"Hersfeld-Rotenburg","type":"Landkreis"},"federalState":{"key":"06","name":"Hessen"}},{"name":"Arndtstr.","postalCode":"36208","locality":"Wildeck","municipality":{"key":"06632020","name":"Wildeck","type":"Kreisangehörige_Gemeinde"},"district":{"key":"06632","name":"Hersfeld-Rotenburg","type":"Landkreis"},"federalState":{"key":"06","name":"Hessen"}},{"name":"Auf der Höhe","postalCode":"36208","locality":"Wildeck","municipality":{"key":"06632020","name":"Wildeck","type":"Kreisangehörige_Gemeinde"},"district":{"key":"06632","name":"Hersfeld-Rotenburg","type":"Landkreis"},"federalState":{"key":"06","name":"Hessen"}},{"name":"Auf der Wache","postalCode":"36208","locality":"Wildeck","municipality":{"key":"06632020","name":"Wildeck","type":"Kreisangehörige_Gemeinde"},"district":{"key":"06632","name":"Hersfeld-Rotenburg","type":"Landkreis"},"federalState":{"key":"06","name":"Hessen"}},{"name":"Auweg","postalCode":"36208","locality":"Wildeck","municipality":{"key":"06632020","name":"Wildeck","type":"Kreisangehörige_Gemeinde"},"district":{"key":"06632","name":"Hersfeld-Rotenburg","type":"Landkreis"},"federalState":{"key":"06","name":"Hessen"}},{"name":"Bahnhofstr.","postalCode":"36208","locality":"Wildeck","municipality":{"key":"06632020","name":"Wildeck","type":"Kreisangehörige_Gemeinde"},"district":{"key":"06632","name":"Hersfeld-Rotenburg","type":"Landkreis"},"federalState":{"key":"06","name":"Hessen"}},{"name":"Bei der Bruchmühle","postalCode":"36208","locality":"Wildeck","municipality":{"key":"06632020","name":"Wildeck","type":"Kreisangehörige_Gemeinde"},"district":{"key":"06632","name":"Hersfeld-Rotenburg","type":"Landkreis"},"federalState":{"key":"06","name":"Hessen"}},{"name":"Bengendorfer Str.","postalCode":"36208","locality":"Wildeck","municipality":{"key":"06632020","name":"Wildeck","type":"Kreisangehörige_Gemeinde"},"district":{"key":"06632","name":"Hersfeld-Rotenburg","type":"Landkreis"},"federalState":{"key":"06","name":"Hessen"}},{"name":"Bergstr.","postalCode":"36208","locality":"Wildeck","municipality":{"key":"06632020","name":"Wildeck","type":"Kreisangehörige_Gemeinde"},"district":{"key":"06632","name":"Hersfeld-Rotenburg","type":"Landkreis"},"federalState":{"key":"06","name":"Hessen"}},{"name":"Bergweg","postalCode":"36208","locality":"Wildeck","municipality":{"key":"06632020","name":"Wildeck","type":"Kreisangehörige_Gemeinde"},"district":{"key":"06632","name":"Hersfeld-Rotenburg","type":"Landkreis"},"federalState":{"key":"06","name":"Hessen"}},{"name":"Berkaer Str.","postalCode":"36208","locality":"Wildeck","municipality":{"key":"06632020","name":"Wildeck","type":"Kreisangehörige_Gemeinde"},"district":{"key":"06632","name":"Hersfeld-Rotenburg","type":"Landkreis"},"federalState":{"key":"06","name":"Hessen"}},{"name":"Bettina-von-Arnim-Str.","postalCode":"36208","locality":"Wildeck","municipality":{"key":"06632020","name":"Wildeck","type":"Kreisangehörige_Gemeinde"},"district":{"key":"06632","name":"Hersfeld-Rotenburg","type":"Landkreis"},"federalState":{"key":"06","name":"Hessen"}},{"name":"Birkenweg","postalCode":"36208","locality":"Wildeck","municipality":{"key":"06632020","name":"Wildeck","type":"Kreisangehörige_Gemeinde"},"district":{"key":"06632","name":"Hersfeld-Rotenburg","type":"Landkreis"},"federalState":{"key":"06","name":"Hessen"}},{"name":"Bosseröder Weg","postalCode":"36208","locality":"Wildeck","municipality":{"key":"06632020","name":"Wildeck","type":"Kreisangehörige_Gemeinde"},"district":{"key":"06632","name":"Hersfeld-Rotenburg","type":"Landkreis"},"federalState":{"key":"06","name":"Hessen"}},{"name":"Bothenweg","postalCode":"36208","locality":"Wildeck","municipality":{"key":"06632020","name":"Wildeck","type":"Kreisangehörige_Gemeinde"},"district":{"key":"06632","name":"Hersfeld-Rotenburg","type":"Landkreis"},"federalState":{"key":"06","name":"Hessen"}},{"name":"Brentanostr.","postalCode":"36208","locality":"Wildeck","municipality":{"key":"06632020","name":"Wildeck","type":"Kreisangehörige_Gemeinde"},"district":{"key":"06632","name":"Hersfeld-Rotenburg","type":"Landkreis"},"federalState":{"key":"06","name":"Hessen"}},{"name":"Bruchmühle","postalCode":"36208","locality":"Wildeck","municipality":{"key":"06632020","name":"Wildeck","type":"Kreisangehörige_Gemeinde"},"district":{"key":"06632","name":"Hersfeld-Rotenburg","type":"Landkreis"},"federalState":{"key":"06","name":"Hessen"}},{"name":"Brückenstr.","postalCode":"36208","locality":"Wildeck","municipality":{"key":"06632020","name":"Wildeck","type":"Kreisangehörige_Gemeinde"},"district":{"key":"06632","name":"Hersfeld-Rotenburg","type":"Landkreis"},"federalState":{"key":"06","name":"Hessen"}},{"name":"Buchenweg","postalCode":"36208","locality":"Wildeck","municipality":{"key":"06632020","name":"Wildeck","type":"Kreisangehörige_Gemeinde"},"district":{"key":"06632","name":"Hersfeld-Rotenburg","type":"Landkreis"},"federalState":{"key":"06","name":"Hessen"}},{"name":"Dankmarshäuser Str.","postalCode":"36208","locality":"Wildeck","municipality":{"key":"06632020","name":"Wildeck","type":"Kreisangehörige_Gemeinde"},"district":{"key":"06632","name":"Hersfeld-Rotenburg","type":"Landkreis"},"federalState":{"key":"06","name":"Hessen"}},{"name":"Drosselstr.","postalCode":"36208","locality":"Wildeck","municipality":{"key":"06632020","name":"Wildeck","type":"Kreisangehörige_Gemeinde"},"district":{"key":"06632","name":"Hersfeld-Rotenburg","type":"Landkreis"},"federalState":{"key":"06","name":"Hessen"}},{"name":"Dürerstr.","postalCode":"36208","locality":"Wildeck","municipality":{"key":"06632020","name":"Wildeck","type":"Kreisangehörige_Gemeinde"},"district":{"key":"06632","name":"Hersfeld-Rotenburg","type":"Landkreis"},"federalState":{"key":"06","name":"Hessen"}},{"name":"Eichenweg","postalCode":"36208","locality":"Wildeck","municipality":{"key":"06632020","name":"Wildeck","type":"Kreisangehörige_Gemeinde"},"district":{"key":"06632","name":"Hersfeld-Rotenburg","type":"Landkreis"},"federalState":{"key":"06","name":"Hessen"}},{"name":"Eichhorststr.","postalCode":"36208","locality":"Wildeck","municipality":{"key":"06632020","name":"Wildeck","type":"Kreisangehörige_Gemeinde"},"district":{"key":"06632","name":"Hersfeld-Rotenburg","type":"Landkreis"},"federalState":{"key":"06","name":"Hessen"}},{"name":"Eisenacher Str.","postalCode":"36208","locality":"Wildeck","municipality":{"key":"06632020","name":"Wildeck","type":"Kreisangehörige_Gemeinde"},"district":{"key":"06632","name":"Hersfeld-Rotenburg","type":"Landkreis"},"federalState":{"key":"06","name":"Hessen"}},{"name":"Eisfeld","postalCode":"36208","locality":"Wildeck","municipality":{"key":"06632020","name":"Wildeck","type":"Kreisangehörige_Gemeinde"},"district":{"key":"06632","name":"Hersfeld-Rotenburg","type":"Landkreis"},"federalState":{"key":"06","name":"Hessen"}},{"name":"Feldstr.","postalCode":"36208","locality":"Wildeck","municipality":{"key":"06632020","name":"Wildeck","type":"Kreisangehörige_Gemeinde"},"district":{"key":"06632","name":"Hersfeld-Rotenburg","type":"Landkreis"},"federalState":{"key":"06","name":"Hessen"}},{"name":"Fichtestr.","postalCode":"36208","locality":"Wildeck","municipality":{"key":"06632020","name":"Wildeck","type":"Kreisangehörige_Gemeinde"},"district":{"key":"06632","name":"Hersfeld-Rotenburg","type":"Landkreis"},"federalState":{"key":"06","name":"Hessen"}},{"name":"Finkenweg","postalCode":"36208","locality":"Wildeck","municipality":{"key":"06632020","name":"Wildeck","type":"Kreisangehörige_Gemeinde"},"district":{"key":"06632","name":"Hersfeld-Rotenburg","type":"Landkreis"},"federalState":{"key":"06","name":"Hessen"}},{"name":"Forsthaus","postalCode":"36208","locality":"Wildeck","municipality":{"key":"06632020","name":"Wildeck","type":"Kreisangehörige_Gemeinde"},"district":{"key":"06632","name":"Hersfeld-Rotenburg","type":"Landkreis"},"federalState":{"key":"06","name":"Hessen"}},{"name":"Freiheitstr.","postalCode":"36208","locality":"Wildeck","municipality":{"key":"06632020","name":"Wildeck","type":"Kreisangehörige_Gemeinde"},"district":{"key":"06632","name":"Hersfeld-Rotenburg","type":"Landkreis"},"federalState":{"key":"06","name":"Hessen"}},{"name":"Freizeitanlage","postalCode":"36208","locality":"Wildeck","municipality":{"key":"06632020","name":"Wildeck","type":"Kreisangehörige_Gemeinde"},"district":{"key":"06632","name":"Hersfeld-Rotenburg","type":"Landkreis"},"federalState":{"key":"06","name":"Hessen"}},{"name":"Friedhofstr.","postalCode":"36208","locality":"Wildeck","municipality":{"key":"06632020","name":"Wildeck","type":"Kreisangehörige_Gemeinde"},"district":{"key":"06632","name":"Hersfeld-Rotenburg","type":"Landkreis"},"federalState":{"key":"06","name":"Hessen"}},{"name":"Gartenstr.","postalCode":"36208","locality":"Wildeck","municipality":{"key":"06632020","name":"Wildeck","type":"Kreisangehörige_Gemeinde"},"district":{"key":"06632","name":"Hersfeld-Rotenburg","type":"Landkreis"},"federalState":{"key":"06","name":"Hessen"}},{"name":"Gartenweg","postalCode":"36208","locality":"Wildeck","municipality":{"key":"06632020","name":"Wildeck","type":"Kreisangehörige_Gemeinde"},"district":{"key":"06632","name":"Hersfeld-Rotenburg","type":"Landkreis"},"federalState":{"key":"06","name":"Hessen"}},{"name":"Gebrüder-Grimm-Str.","postalCode":"36208","locality":"Wildeck","municipality":{"key":"06632020","name":"Wildeck","type":"Kreisangehörige_Gemeinde"},"district":{"key":"06632","name":"Hersfeld-Rotenburg","type":"Landkreis"},"federalState":{"key":"06","name":"Hessen"}},{"name":"Goethestr.","postalCode":"36208","locality":"Wildeck","municipality":{"key":"06632020","name":"Wildeck","type":"Kreisangehörige_Gemeinde"},"district":{"key":"06632","name":"Hersfeld-Rotenburg","type":"Landkreis"},"federalState":{"key":"06","name":"Hessen"}},{"name":"Grenzweg","postalCode":"36208","locality":"Wildeck","municipality":{"key":"06632020","name":"Wildeck","type":"Kreisangehörige_Gemeinde"},"district":{"key":"06632","name":"Hersfeld-Rotenburg","type":"Landkreis"},"federalState":{"key":"06","name":"Hessen"}},{"name":"Grüner Weg","postalCode":"36208","locality":"Wildeck","municipality":{"key":"06632020","name":"Wildeck","type":"Kreisangehörige_Gemeinde"},"district":{"key":"06632","name":"Hersfeld-Rotenburg","type":"Landkreis"},"federalState":{"key":"06","name":"Hessen"}},{"name":"Hainstr.","postalCode":"36208","locality":"Wildeck","municipality":{"key":"06632020","name":"Wildeck","type":"Kreisangehörige_Gemeinde"},"district":{"key":"06632","name":"Hersfeld-Rotenburg","type":"Landkreis"},"federalState":{"key":"06","name":"Hessen"}},{"name":"Herderstr.","postalCode":"36208","locality":"Wildeck","municipality":{"key":"06632020","name":"Wildeck","type":"Kreisangehörige_Gemeinde"},"district":{"key":"06632","name":"Hersfeld-Rotenburg","type":"Landkreis"},"federalState":{"key":"06","name":"Hessen"}},{"name":"Hermann-Hesse-Str.","postalCode":"36208","locality":"Wildeck","municipality":{"key":"06632020","name":"Wildeck","type":"Kreisangehörige_Gemeinde"},"district":{"key":"06632","name":"Hersfeld-Rotenburg","type":"Landkreis"},"federalState":{"key":"06","name":"Hessen"}},{"name":"Hessenweg","postalCode":"36208","locality":"Wildeck","municipality":{"key":"06632020","name":"Wildeck","type":"Kreisangehörige_Gemeinde"},"district":{"key":"06632","name":"Hersfeld-Rotenburg","type":"Landkreis"},"federalState":{"key":"06","name":"Hessen"}},{"name":"Hinter dem Kirchhofe","postalCode":"36208","locality":"Wildeck","municipality":{"key":"06632020","name":"Wildeck","type":"Kreisangehörige_Gemeinde"},"district":{"key":"06632","name":"Hersfeld-Rotenburg","type":"Landkreis"},"federalState":{"key":"06","name":"Hessen"}},{"name":"Hinterm Garten","postalCode":"36208","locality":"Wildeck","municipality":{"key":"06632020","name":"Wildeck","type":"Kreisangehörige_Gemeinde"},"district":{"key":"06632","name":"Hersfeld-Rotenburg","type":"Landkreis"},"federalState":{"key":"06","name":"Hessen"}},{"name":"Hochstr.","postalCode":"36208","locality":"Wildeck","municipality":{"key":"06632020","name":"Wildeck","type":"Kreisangehörige_Gemeinde"},"district":{"key":"06632","name":"Hersfeld-Rotenburg","type":"Landkreis"},"federalState":{"key":"06","name":"Hessen"}},{"name":"Hopfengarten","postalCode":"36208","locality":"Wildeck","municipality":{"key":"06632020","name":"Wildeck","type":"Kreisangehörige_Gemeinde"},"district":{"key":"06632","name":"Hersfeld-Rotenburg","type":"Landkreis"},"federalState":{"key":"06","name":"Hessen"}},{"name":"Im Ameisental","postalCode":"36208","locality":"Wildeck","municipality":{"key":"06632020","name":"Wildeck","type":"Kreisangehörige_Gemeinde"},"district":{"key":"06632","name":"Hersfeld-Rotenburg","type":"Landkreis"},"federalState":{"key":"06","name":"Hessen"}},{"name":"Im Bruch","postalCode":"36208","locality":"Wildeck","municipality":{"key":"06632020","name":"Wildeck","type":"Kreisangehörige_Gemeinde"},"district":{"key":"06632","name":"Hersfeld-Rotenburg","type":"Landkreis"},"federalState":{"key":"06","name":"Hessen"}},{"name":"Im Feldgarten","postalCode":"36208","locality":"Wildeck","municipality":{"key":"06632020","name":"Wildeck","type":"Kreisangehörige_Gemeinde"},"district":{"key":"06632","name":"Hersfeld-Rotenburg","type":"Landkreis"},"federalState":{"key":"06","name":"Hessen"}},{"name":"Im Grund","postalCode":"36208","locality":"Wildeck","municipality":{"key":"06632020","name":"Wildeck","type":"Kreisangehörige_Gemeinde"},"district":{"key":"06632","name":"Hersfeld-Rotenburg","type":"Landkreis"},"federalState":{"key":"06","name":"Hessen"}},{"name":"Im Kessel","postalCode":"36208","locality":"Wildeck","municipality":{"key":"06632020","name":"Wildeck","type":"Kreisangehörige_Gemeinde"},"district":{"key":"06632","name":"Hersfeld-Rotenburg","type":"Landkreis"},"federalState":{"key":"06","name":"Hessen"}},{"name":"Im Rüschen","postalCode":"36208","locality":"Wildeck","municipality":{"key":"06632020","name":"Wildeck","type":"Kreisangehörige_Gemeinde"},"district":{"key":"06632","name":"Hersfeld-Rotenburg","type":"Landkreis"},"federalState":{"key":"06","name":"Hessen"}},{"name":"Industriestr.","postalCode":"36208","locality":"Wildeck","municipality":{"key":"06632020","name":"Wildeck","type":"Kreisangehörige_Gemeinde"},"district":{"key":"06632","name":"Hersfeld-Rotenburg","type":"Landkreis"},"federalState":{"key":"06","name":"Hessen"}},{"name":"Inselsbergstr.","postalCode":"36208","locality":"Wildeck","municipality":{"key":"06632020","name":"Wildeck","type":"Kreisangehörige_Gemeinde"},"district":{"key":"06632","name":"Hersfeld-Rotenburg","type":"Landkreis"},"federalState":{"key":"06","name":"Hessen"}},{"name":"Jägerstr.","postalCode":"36208","locality":"Wildeck","municipality":{"key":"06632020","name":"Wildeck","type":"Kreisangehörige_Gemeinde"},"district":{"key":"06632","name":"Hersfeld-Rotenburg","type":"Landkreis"},"federalState":{"key":"06","name":"Hessen"}},{"name":"Jahnstr.","postalCode":"36208","locality":"Wildeck","municipality":{"key":"06632020","name":"Wildeck","type":"Kreisangehörige_Gemeinde"},"district":{"key":"06632","name":"Hersfeld-Rotenburg","type":"Landkreis"},"federalState":{"key":"06","name":"Hessen"}},{"name":"Kantorenweg","postalCode":"36208","locality":"Wildeck","municipality":{"key":"06632020","name":"Wildeck","type":"Kreisangehörige_Gemeinde"},"district":{"key":"06632","name":"Hersfeld-Rotenburg","type":"Landkreis"},"federalState":{"key":"06","name":"Hessen"}},{"name":"Kantor-Meyner-Str.","postalCode":"36208","locality":"Wildeck","municipality":{"key":"06632020","name":"Wildeck","type":"Kreisangehörige_Gemeinde"},"district":{"key":"06632","name":"Hersfeld-Rotenburg","type":"Landkreis"},"federalState":{"key":"06","name":"Hessen"}},{"name":"Kantstr.","postalCode":"36208","locality":"Wildeck","municipality":{"key":"06632020","name":"Wildeck","type":"Kreisangehörige_Gemeinde"},"district":{"key":"06632","name":"Hersfeld-Rotenburg","type":"Landkreis"},"federalState":{"key":"06","name":"Hessen"}},{"name":"Kastanienweg","postalCode":"36208","locality":"Wildeck","municipality":{"key":"06632020","name":"Wildeck","type":"Kreisangehörige_Gemeinde"},"district":{"key":"06632","name":"Hersfeld-Rotenburg","type":"Landkreis"},"federalState":{"key":"06","name":"Hessen"}},{"name":"Käthe-Kollwitz-Str.","postalCode":"36208","locality":"Wildeck","municipality":{"key":"06632020","name":"Wildeck","type":"Kreisangehörige_Gemeinde"},"district":{"key":"06632","name":"Hersfeld-Rotenburg","type":"Landkreis"},"federalState":{"key":"06","name":"Hessen"}},{"name":"Kirchrain","postalCode":"36208","locality":"Wildeck","municipality":{"key":"06632020","name":"Wildeck","type":"Kreisangehörige_Gemeinde"},"district":{"key":"06632","name":"Hersfeld-Rotenburg","type":"Landkreis"},"federalState":{"key":"06","name":"Hessen"}},{"name":"Kirchweg","postalCode":"36208","locality":"Wildeck","municipality":{"key":"06632020","name":"Wildeck","type":"Kreisangehörige_Gemeinde"},"district":{"key":"06632","name":"Hersfeld-Rotenburg","type":"Landkreis"},"federalState":{"key":"06","name":"Hessen"}},{"name":"Kirschenweg","postalCode":"36208","locality":"Wildeck","municipality":{"key":"06632020","name":"Wildeck","type":"Kreisangehörige_Gemeinde"},"district":{"key":"06632","name":"Hersfeld-Rotenburg","type":"Landkreis"},"federalState":{"key":"06","name":"Hessen"}},{"name":"Kleiststr.","postalCode":"36208","locality":"Wildeck","municipality":{"key":"06632020","name":"Wildeck","type":"Kreisangehörige_Gemeinde"},"district":{"key":"06632","name":"Hersfeld-Rotenburg","type":"Landkreis"},"federalState":{"key":"06","name":"Hessen"}},{"name":"Kupferstr.","postalCode":"36208","locality":"Wildeck","municipality":{"key":"06632020","name":"Wildeck","type":"Kreisangehörige_Gemeinde"},"district":{"key":"06632","name":"Hersfeld-Rotenburg","type":"Landkreis"},"federalState":{"key":"06","name":"Hessen"}},{"name":"Kurzer Weg","postalCode":"36208","locality":"Wildeck","municipality":{"key":"06632020","name":"Wildeck","type":"Kreisangehörige_Gemeinde"},"district":{"key":"06632","name":"Hersfeld-Rotenburg","type":"Landkreis"},"federalState":{"key":"06","name":"Hessen"}},{"name":"Lerchenweg","postalCode":"36208","locality":"Wildeck","municipality":{"key":"06632020","name":"Wildeck","type":"Kreisangehörige_Gemeinde"},"district":{"key":"06632","name":"Hersfeld-Rotenburg","type":"Landkreis"},"federalState":{"key":"06","name":"Hessen"}},{"name":"Lessingstr.","postalCode":"36208","locality":"Wildeck","municipality":{"key":"06632020","name":"Wildeck","type":"Kreisangehörige_Gemeinde"},"district":{"key":"06632","name":"Hersfeld-Rotenburg","type":"Landkreis"},"federalState":{"key":"06","name":"Hessen"}},{"name":"Lieges","postalCode":"36208","locality":"Wildeck","municipality":{"key":"06632020","name":"Wildeck","type":"Kreisangehörige_Gemeinde"},"district":{"key":"06632","name":"Hersfeld-Rotenburg","type":"Landkreis"},"federalState":{"key":"06","name":"Hessen"}},{"name":"Lindenstr.","postalCode":"36208","locality":"Wildeck","municipality":{"key":"06632020","name":"Wildeck","type":"Kreisangehörige_Gemeinde"},"district":{"key":"06632","name":"Hersfeld-Rotenburg","type":"Landkreis"},"federalState":{"key":"06","name":"Hessen"}},{"name":"Lindigstr.","postalCode":"36208","locality":"Wildeck","municipality":{"key":"06632020","name":"Wildeck","type":"Kreisangehörige_Gemeinde"},"district":{"key":"06632","name":"Hersfeld-Rotenburg","type":"Landkreis"},"federalState":{"key":"06","name":"Hessen"}},{"name":"Lönsstr.","postalCode":"36208","locality":"Wildeck","municipality":{"key":"06632020","name":"Wildeck","type":"Kreisangehörige_Gemeinde"},"district":{"key":"06632","name":"Hersfeld-Rotenburg","type":"Landkreis"},"federalState":{"key":"06","name":"Hessen"}},{"name":"Matthiasstr.","postalCode":"36208","locality":"Wildeck","municipality":{"key":"06632020","name":"Wildeck","type":"Kreisangehörige_Gemeinde"},"district":{"key":"06632","name":"Hersfeld-Rotenburg","type":"Landkreis"},"federalState":{"key":"06","name":"Hessen"}},{"name":"Mittelstr.","postalCode":"36208","locality":"Wildeck","municipality":{"key":"06632020","name":"Wildeck","type":"Kreisangehörige_Gemeinde"},"district":{"key":"06632","name":"Hersfeld-Rotenburg","type":"Landkreis"},"federalState":{"key":"06","name":"Hessen"}},{"name":"Mühlenstr.","postalCode":"36208","locality":"Wildeck","municipality":{"key":"06632020","name":"Wildeck","type":"Kreisangehörige_Gemeinde"},"district":{"key":"06632","name":"Hersfeld-Rotenburg","type":"Landkreis"},"federalState":{"key":"06","name":"Hessen"}},{"name":"Neue Str.","postalCode":"36208","locality":"Wildeck","municipality":{"key":"06632020","name":"Wildeck","type":"Kreisangehörige_Gemeinde"},"district":{"key":"06632","name":"Hersfeld-Rotenburg","type":"Landkreis"},"federalState":{"key":"06","name":"Hessen"}},{"name":"Nordstr.","postalCode":"36208","locality":"Wildeck","municipality":{"key":"06632020","name":"Wildeck","type":"Kreisangehörige_Gemeinde"},"district":{"key":"06632","name":"Hersfeld-Rotenburg","type":"Landkreis"},"federalState":{"key":"06","name":"Hessen"}},{"name":"Obersuhler Str.","postalCode":"36208","locality":"Wildeck","municipality":{"key":"06632020","name":"Wildeck","type":"Kreisangehörige_Gemeinde"},"district":{"key":"06632","name":"Hersfeld-Rotenburg","type":"Landkreis"},"federalState":{"key":"06","name":"Hessen"}},{"name":"Querstr.","postalCode":"36208","locality":"Wildeck","municipality":{"key":"06632020","name":"Wildeck","type":"Kreisangehörige_Gemeinde"},"district":{"key":"06632","name":"Hersfeld-Rotenburg","type":"Landkreis"},"federalState":{"key":"06","name":"Hessen"}},{"name":"Raiffeisenstr.","postalCode":"36208","locality":"Wildeck","municipality":{"key":"06632020","name":"Wildeck","type":"Kreisangehörige_Gemeinde"},"district":{"key":"06632","name":"Hersfeld-Rotenburg","type":"Landkreis"},"federalState":{"key":"06","name":"Hessen"}},{"name":"Raßdorfer Str.","postalCode":"36208","locality":"Wildeck","municipality":{"key":"06632020","name":"Wildeck","type":"Kreisangehörige_Gemeinde"},"district":{"key":"06632","name":"Hersfeld-Rotenburg","type":"Landkreis"},"federalState":{"key":"06","name":"Hessen"}},{"name":"Rhäden-Rundweg","postalCode":"36208","locality":"Wildeck","municipality":{"key":"06632020","name":"Wildeck","type":"Kreisangehörige_Gemeinde"},"district":{"key":"06632","name":"Hersfeld-Rotenburg","type":"Landkreis"},"federalState":{"key":"06","name":"Hessen"}},{"name":"Rhädenweg","postalCode":"36208","locality":"Wildeck","municipality":{"key":"06632020","name":"Wildeck","type":"Kreisangehörige_Gemeinde"},"district":{"key":"06632","name":"Hersfeld-Rotenburg","type":"Landkreis"},"federalState":{"key":"06","name":"Hessen"}},{"name":"Richelsdorfer Str.","postalCode":"36208","locality":"Wildeck","municipality":{"key":"06632020","name":"Wildeck","type":"Kreisangehörige_Gemeinde"},"district":{"key":"06632","name":"Hersfeld-Rotenburg","type":"Landkreis"},"federalState":{"key":"06","name":"Hessen"}},{"name":"Rohbergstr.","postalCode":"36208","locality":"Wildeck","municipality":{"key":"06632020","name":"Wildeck","type":"Kreisangehörige_Gemeinde"},"district":{"key":"06632","name":"Hersfeld-Rotenburg","type":"Landkreis"},"federalState":{"key":"06","name":"Hessen"}},{"name":"Rosenstr.","postalCode":"36208","locality":"Wildeck","municipality":{"key":"06632020","name":"Wildeck","type":"Kreisangehörige_Gemeinde"},"district":{"key":"06632","name":"Hersfeld-Rotenburg","type":"Landkreis"},"federalState":{"key":"06","name":"Hessen"}},{"name":"Rotdornweg","postalCode":"36208","locality":"Wildeck","municipality":{"key":"06632020","name":"Wildeck","type":"Kreisangehörige_Gemeinde"},"district":{"key":"06632","name":"Hersfeld-Rotenburg","type":"Landkreis"},"federalState":{"key":"06","name":"Hessen"}},{"name":"Roterainsmühle","postalCode":"36208","locality":"Wildeck","municipality":{"key":"06632020","name":"Wildeck","type":"Kreisangehörige_Gemeinde"},"district":{"key":"06632","name":"Hersfeld-Rotenburg","type":"Landkreis"},"federalState":{"key":"06","name":"Hessen"}},{"name":"Sandweg","postalCode":"36208","locality":"Wildeck","municipality":{"key":"06632020","name":"Wildeck","type":"Kreisangehörige_Gemeinde"},"district":{"key":"06632","name":"Hersfeld-Rotenburg","type":"Landkreis"},"federalState":{"key":"06","name":"Hessen"}},{"name":"Schenkrain","postalCode":"36208","locality":"Wildeck","municipality":{"key":"06632020","name":"Wildeck","type":"Kreisangehörige_Gemeinde"},"district":{"key":"06632","name":"Hersfeld-Rotenburg","type":"Landkreis"},"federalState":{"key":"06","name":"Hessen"}},{"name":"Schildhof","postalCode":"36208","locality":"Wildeck","municipality":{"key":"06632020","name":"Wildeck","type":"Kreisangehörige_Gemeinde"},"district":{"key":"06632","name":"Hersfeld-Rotenburg","type":"Landkreis"},"federalState":{"key":"06","name":"Hessen"}},{"name":"Schildhofstr.","postalCode":"36208","locality":"Wildeck","municipality":{"key":"06632020","name":"Wildeck","type":"Kreisangehörige_Gemeinde"},"district":{"key":"06632","name":"Hersfeld-Rotenburg","type":"Landkreis"},"federalState":{"key":"06","name":"Hessen"}},{"name":"Schillerstr.","postalCode":"36208","locality":"Wildeck","municipality":{"key":"06632020","name":"Wildeck","type":"Kreisangehörige_Gemeinde"},"district":{"key":"06632","name":"Hersfeld-Rotenburg","type":"Landkreis"},"federalState":{"key":"06","name":"Hessen"}},{"name":"Schöne Aussicht","postalCode":"36208","locality":"Wildeck","municipality":{"key":"06632020","name":"Wildeck","type":"Kreisangehörige_Gemeinde"},"district":{"key":"06632","name":"Hersfeld-Rotenburg","type":"Landkreis"},"federalState":{"key":"06","name":"Hessen"}},{"name":"Schulstr.","postalCode":"36208","locality":"Wildeck","municipality":{"key":"06632020","name":"Wildeck","type":"Kreisangehörige_Gemeinde"},"district":{"key":"06632","name":"Hersfeld-Rotenburg","type":"Landkreis"},"federalState":{"key":"06","name":"Hessen"}},{"name":"Schulweg","postalCode":"36208","locality":"Wildeck","municipality":{"key":"06632020","name":"Wildeck","type":"Kreisangehörige_Gemeinde"},"district":{"key":"06632","name":"Hersfeld-Rotenburg","type":"Landkreis"},"federalState":{"key":"06","name":"Hessen"}},{"name":"Schützenstr.","postalCode":"36208","locality":"Wildeck","municipality":{"key":"06632020","name":"Wildeck","type":"Kreisangehörige_Gemeinde"},"district":{"key":"06632","name":"Hersfeld-Rotenburg","type":"Landkreis"},"federalState":{"key":"06","name":"Hessen"}},{"name":"Schützenweg","postalCode":"36208","locality":"Wildeck","municipality":{"key":"06632020","name":"Wildeck","type":"Kreisangehörige_Gemeinde"},"district":{"key":"06632","name":"Hersfeld-Rotenburg","type":"Landkreis"},"federalState":{"key":"06","name":"Hessen"}},{"name":"Schwarzer Weg","postalCode":"36208","locality":"Wildeck","municipality":{"key":"06632020","name":"Wildeck","type":"Kreisangehörige_Gemeinde"},"district":{"key":"06632","name":"Hersfeld-Rotenburg","type":"Landkreis"},"federalState":{"key":"06","name":"Hessen"}},{"name":"Sportplatzstr.","postalCode":"36208","locality":"Wildeck","municipality":{"key":"06632020","name":"Wildeck","type":"Kreisangehörige_Gemeinde"},"district":{"key":"06632","name":"Hersfeld-Rotenburg","type":"Landkreis"},"federalState":{"key":"06","name":"Hessen"}},{"name":"Steinkaute","postalCode":"36208","locality":"Wildeck","municipality":{"key":"06632020","name":"Wildeck","type":"Kreisangehörige_Gemeinde"},"district":{"key":"06632","name":"Hersfeld-Rotenburg","type":"Landkreis"},"federalState":{"key":"06","name":"Hessen"}},{"name":"Südstr.","postalCode":"36208","locality":"Wildeck","municipality":{"key":"06632020","name":"Wildeck","type":"Kreisangehörige_Gemeinde"},"district":{"key":"06632","name":"Hersfeld-Rotenburg","type":"Landkreis"},"federalState":{"key":"06","name":"Hessen"}},{"name":"Thongrabenweg","postalCode":"36208","locality":"Wildeck","municipality":{"key":"06632020","name":"Wildeck","type":"Kreisangehörige_Gemeinde"},"district":{"key":"06632","name":"Hersfeld-Rotenburg","type":"Landkreis"},"federalState":{"key":"06","name":"Hessen"}},{"name":"Thüringer Str.","postalCode":"36208","locality":"Wildeck","municipality":{"key":"06632020","name":"Wildeck","type":"Kreisangehörige_Gemeinde"},"district":{"key":"06632","name":"Hersfeld-Rotenburg","type":"Landkreis"},"federalState":{"key":"06","name":"Hessen"}},{"name":"Uhlandstr.","postalCode":"36208","locality":"Wildeck","municipality":{"key":"06632020","name":"Wildeck","type":"Kreisangehörige_Gemeinde"},"district":{"key":"06632","name":"Hersfeld-Rotenburg","type":"Landkreis"},"federalState":{"key":"06","name":"Hessen"}},{"name":"Untersuhler Str.","postalCode":"36208","locality":"Wildeck","municipality":{"key":"06632020","name":"Wildeck","type":"Kreisangehörige_Gemeinde"},"district":{"key":"06632","name":"Hersfeld-Rotenburg","type":"Landkreis"},"federalState":{"key":"06","name":"Hessen"}},{"name":"Vohlstr.","postalCode":"36208","locality":"Wildeck","municipality":{"key":"06632020","name":"Wildeck","type":"Kreisangehörige_Gemeinde"},"district":{"key":"06632","name":"Hersfeld-Rotenburg","type":"Landkreis"},"federalState":{"key":"06","name":"Hessen"}},{"name":"Vor der Gasse","postalCode":"36208","locality":"Wildeck","municipality":{"key":"06632020","name":"Wildeck","type":"Kreisangehörige_Gemeinde"},"district":{"key":"06632","name":"Hersfeld-Rotenburg","type":"Landkreis"},"federalState":{"key":"06","name":"Hessen"}},{"name":"Wachhöhlenweg","postalCode":"36208","locality":"Wildeck","municipality":{"key":"06632020","name":"Wildeck","type":"Kreisangehörige_Gemeinde"},"district":{"key":"06632","name":"Hersfeld-Rotenburg","type":"Landkreis"},"federalState":{"key":"06","name":"Hessen"}},{"name":"Wagnersberg","postalCode":"36208","locality":"Wildeck","municipality":{"key":"06632020","name":"Wildeck","type":"Kreisangehörige_Gemeinde"},"district":{"key":"06632","name":"Hersfeld-Rotenburg","type":"Landkreis"},"federalState":{"key":"06","name":"Hessen"}},{"name":"Wiesenstr.","postalCode":"36208","locality":"Wildeck","municipality":{"key":"06632020","name":"Wildeck","type":"Kreisangehörige_Gemeinde"},"district":{"key":"06632","name":"Hersfeld-Rotenburg","type":"Landkreis"},"federalState":{"key":"06","name":"Hessen"}},{"name":"Wiesenweg","postalCode":"36208","locality":"Wildeck","municipality":{"key":"06632020","name":"Wildeck","type":"Kreisangehörige_Gemeinde"},"district":{"key":"06632","name":"Hersfeld-Rotenburg","type":"Landkreis"},"federalState":{"key":"06","name":"Hessen"}},{"name":"Wildecker Str.","postalCode":"36208","locality":"Wildeck","municipality":{"key":"06632020","name":"Wildeck","type":"Kreisangehörige_Gemeinde"},"district":{"key":"06632","name":"Hersfeld-Rotenburg","type":"Landkreis"},"federalState":{"key":"06","name":"Hessen"}},{"name":"Ziegeleiweg","postalCode":"36208","locality":"Wildeck","municipality":{"key":"06632020","name":"Wildeck","type":"Kreisangehörige_Gemeinde"},"district":{"key":"06632","name":"Hersfeld-Rotenburg","type":"Landkreis"},"federalState":{"key":"06","name":"Hessen"}},{"name":"Zum Dönges","postalCode":"36208","locality":"Wildeck","municipality":{"key":"06632020","name":"Wildeck","type":"Kreisangehörige_Gemeinde"},"district":{"key":"06632","name":"Hersfeld-Rotenburg","type":"Landkreis"},"federalState":{"key":"06","name":"Hessen"}},{"name":"Zum Eichhorst","postalCode":"36208","locality":"Wildeck","municipality":{"key":"06632020","name":"Wildeck","type":"Kreisangehörige_Gemeinde"},"district":{"key":"06632","name":"Hersfeld-Rotenburg","type":"Landkreis"},"federalState":{"key":"06","name":"Hessen"}},{"name":"Zum Friedhof","postalCode":"36208","locality":"Wildeck","municipality":{"key":"06632020","name":"Wildeck","type":"Kreisangehörige_Gemeinde"},"district":{"key":"06632","name":"Hersfeld-Rotenburg","type":"Landkreis"},"federalState":{"key":"06","name":"Hessen"}},{"name":"Zum Mackenroth","postalCode":"36208","locality":"Wildeck","municipality":{"key":"06632020","name":"Wildeck","type":"Kreisangehörige_Gemeinde"},"district":{"key":"06632","name":"Hersfeld-Rotenburg","type":"Landkreis"},"federalState":{"key":"06","name":"Hessen"}},{"name":"Zum Sportplatz","postalCode":"36208","locality":"Wildeck","municipality":{"key":"06632020","name":"Wildeck","type":"Kreisangehörige_Gemeinde"},"district":{"key":"06632","name":"Hersfeld-Rotenburg","type":"Landkreis"},"federalState":{"key":"06","name":"Hessen"}},{"name":"Zum Werth","postalCode":"36208","locality":"Wildeck","municipality":{"key":"06632020","name":"Wildeck","type":"Kreisangehörige_Gemeinde"},"district":{"key":"06632","name":"Hersfeld-Rotenburg","type":"Landkreis"},"federalState":{"key":"06","name":"Hessen"}},{"name":"Zum Wolfsgang","postalCode":"36208","locality":"Wildeck","municipality":{"key":"06632020","name":"Wildeck","type":"Kreisangehörige_Gemeinde"},"district":{"key":"06632","name":"Hersfeld-Rotenburg","type":"Landkreis"},"federalState":{"key":"06","name":"Hessen"}},{"name":"Zur Wache","postalCode":"36208","locality":"Wildeck","municipality":{"key":"06632020","name":"Wildeck","type":"Kreisangehörige_Gemeinde"},"district":{"key":"06632","name":"Hersfeld-Rotenburg","type":"Landkreis"},"federalState":{"key":"06","name":"Hessen"}},]