[{"name":"Achterstr.","postalCode":"25355","locality":"Bullenkuhlen","municipality":{"key":"01056011","name":"Bullenkuhlen","type":"Kreisangehörige_Gemeinde"},"district":{"key":"01056","name":"Pinneberg","type":"Kreis"},"federalState":{"key":"01","name":"Schleswig-Holstein"}},{"name":"Allee","postalCode":"25355","locality":"Bullenkuhlen","municipality":{"key":"01056011","name":"Bullenkuhlen","type":"Kreisangehörige_Gemeinde"},"district":{"key":"01056","name":"Pinneberg","type":"Kreis"},"federalState":{"key":"01","name":"Schleswig-Holstein"}},{"name":"Am Kamp","postalCode":"25355","locality":"Bullenkuhlen","municipality":{"key":"01056011","name":"Bullenkuhlen","type":"Kreisangehörige_Gemeinde"},"district":{"key":"01056","name":"Pinneberg","type":"Kreis"},"federalState":{"key":"01","name":"Schleswig-Holstein"}},{"name":"Am Kreuzrebenbach","postalCode":"25355","locality":"Bullenkuhlen","municipality":{"key":"01056011","name":"Bullenkuhlen","type":"Kreisangehörige_Gemeinde"},"district":{"key":"01056","name":"Pinneberg","type":"Kreis"},"federalState":{"key":"01","name":"Schleswig-Holstein"}},{"name":"Barmstedter Wohld","postalCode":"25355","locality":"Bullenkuhlen","municipality":{"key":"01056011","name":"Bullenkuhlen","type":"Kreisangehörige_Gemeinde"},"district":{"key":"01056","name":"Pinneberg","type":"Kreis"},"federalState":{"key":"01","name":"Schleswig-Holstein"}},{"name":"Beverner Chaussee","postalCode":"25355","locality":"Bullenkuhlen","municipality":{"key":"01056011","name":"Bullenkuhlen","type":"Kreisangehörige_Gemeinde"},"district":{"key":"01056","name":"Pinneberg","type":"Kreis"},"federalState":{"key":"01","name":"Schleswig-Holstein"}},{"name":"Christiansenweg","postalCode":"25421","locality":"Pinneberg","municipality":{"key":"01056039","name":"Pinneberg, Stadt","type":"Stadt"},"district":{"key":"01056","name":"Pinneberg","type":"Kreis"},"federalState":{"key":"01","name":"Schleswig-Holstein"}},{"name":"Clara-Bartram-Weg","postalCode":"25421","locality":"Pinneberg","municipality":{"key":"01056039","name":"Pinneberg, Stadt","type":"Stadt"},"district":{"key":"01056","name":"Pinneberg","type":"Kreis"},"federalState":{"key":"01","name":"Schleswig-Holstein"}},{"name":"Dorfstr.","postalCode":"25355","locality":"Bullenkuhlen","municipality":{"key":"01056011","name":"Bullenkuhlen","type":"Kreisangehörige_Gemeinde"},"district":{"key":"01056","name":"Pinneberg","type":"Kreis"},"federalState":{"key":"01","name":"Schleswig-Holstein"}},{"name":"Elmshorner Str.","postalCode":"25355","locality":"Bullenkuhlen","municipality":{"key":"01056011","name":"Bullenkuhlen","type":"Kreisangehörige_Gemeinde"},"district":{"key":"01056","name":"Pinneberg","type":"Kreis"},"federalState":{"key":"01","name":"Schleswig-Holstein"}},{"name":"Fahltskamp","postalCode":"25421","locality":"Pinneberg","municipality":{"key":"01056039","name":"Pinneberg, Stadt","type":"Stadt"},"district":{"key":"01056","name":"Pinneberg","type":"Kreis"},"federalState":{"key":"01","name":"Schleswig-Holstein"}},{"name":"Fahltsweide","postalCode":"25421","locality":"Pinneberg","municipality":{"key":"01056039","name":"Pinneberg, Stadt","type":"Stadt"},"district":{"key":"01056","name":"Pinneberg","type":"Kreis"},"federalState":{"key":"01","name":"Schleswig-Holstein"}},{"name":"Fasanenweg","postalCode":"25421","locality":"Pinneberg","municipality":{"key":"01056039","name":"Pinneberg, Stadt","type":"Stadt"},"district":{"key":"01056","name":"Pinneberg","type":"Kreis"},"federalState":{"key":"01","name":"Schleswig-Holstein"}},{"name":"Fehrsstr.","postalCode":"25421","locality":"Pinneberg","municipality":{"key":"01056039","name":"Pinneberg, Stadt","type":"Stadt"},"district":{"key":"01056","name":"Pinneberg","type":"Kreis"},"federalState":{"key":"01","name":"Schleswig-Holstein"}},{"name":"Feldstr.","postalCode":"25421","locality":"Pinneberg","municipality":{"key":"01056039","name":"Pinneberg, Stadt","type":"Stadt"},"district":{"key":"01056","name":"Pinneberg","type":"Kreis"},"federalState":{"key":"01","name":"Schleswig-Holstein"}},{"name":"Finkeneck","postalCode":"25421","locality":"Pinneberg","municipality":{"key":"01056039","name":"Pinneberg, Stadt","type":"Stadt"},"district":{"key":"01056","name":"Pinneberg","type":"Kreis"},"federalState":{"key":"01","name":"Schleswig-Holstein"}},{"name":"Fischhausener Str.","postalCode":"25421","locality":"Pinneberg","municipality":{"key":"01056039","name":"Pinneberg, Stadt","type":"Stadt"},"district":{"key":"01056","name":"Pinneberg","type":"Kreis"},"federalState":{"key":"01","name":"Schleswig-Holstein"}},{"name":"Flagentwiete","postalCode":"25421","locality":"Pinneberg","municipality":{"key":"01056039","name":"Pinneberg, Stadt","type":"Stadt"},"district":{"key":"01056","name":"Pinneberg","type":"Kreis"},"federalState":{"key":"01","name":"Schleswig-Holstein"}},{"name":"Flensburger Str.","postalCode":"25421","locality":"Pinneberg","municipality":{"key":"01056039","name":"Pinneberg, Stadt","type":"Stadt"},"district":{"key":"01056","name":"Pinneberg","type":"Kreis"},"federalState":{"key":"01","name":"Schleswig-Holstein"}},{"name":"Forststr.","postalCode":"25421","locality":"Pinneberg","municipality":{"key":"01056039","name":"Pinneberg, Stadt","type":"Stadt"},"district":{"key":"01056","name":"Pinneberg","type":"Kreis"},"federalState":{"key":"01","name":"Schleswig-Holstein"}},{"name":"Friedenstr.","postalCode":"25421","locality":"Pinneberg","municipality":{"key":"01056039","name":"Pinneberg, Stadt","type":"Stadt"},"district":{"key":"01056","name":"Pinneberg","type":"Kreis"},"federalState":{"key":"01","name":"Schleswig-Holstein"}},{"name":"Friedrich-Ebert-Str.","postalCode":"25421","locality":"Pinneberg","municipality":{"key":"01056039","name":"Pinneberg, Stadt","type":"Stadt"},"district":{"key":"01056","name":"Pinneberg","type":"Kreis"},"federalState":{"key":"01","name":"Schleswig-Holstein"}},{"name":"Fritz-Reuter-Str.","postalCode":"25421","locality":"Pinneberg","municipality":{"key":"01056039","name":"Pinneberg, Stadt","type":"Stadt"},"district":{"key":"01056","name":"Pinneberg","type":"Kreis"},"federalState":{"key":"01","name":"Schleswig-Holstein"}},{"name":"Fröbelstr.","postalCode":"25421","locality":"Pinneberg","municipality":{"key":"01056039","name":"Pinneberg, Stadt","type":"Stadt"},"district":{"key":"01056","name":"Pinneberg","type":"Kreis"},"federalState":{"key":"01","name":"Schleswig-Holstein"}},{"name":"Fuchsbau","postalCode":"25421","locality":"Pinneberg","municipality":{"key":"01056039","name":"Pinneberg, Stadt","type":"Stadt"},"district":{"key":"01056","name":"Pinneberg","type":"Kreis"},"federalState":{"key":"01","name":"Schleswig-Holstein"}},{"name":"Gärtnerstr.","postalCode":"25421","locality":"Pinneberg","municipality":{"key":"01056039","name":"Pinneberg, Stadt","type":"Stadt"},"district":{"key":"01056","name":"Pinneberg","type":"Kreis"},"federalState":{"key":"01","name":"Schleswig-Holstein"}},{"name":"Gehrstücken","postalCode":"25421","locality":"Pinneberg","municipality":{"key":"01056039","name":"Pinneberg, Stadt","type":"Stadt"},"district":{"key":"01056","name":"Pinneberg","type":"Kreis"},"federalState":{"key":"01","name":"Schleswig-Holstein"}},{"name":"Generaloberst-Beck-Str.","postalCode":"25421","locality":"Pinneberg","municipality":{"key":"01056039","name":"Pinneberg, Stadt","type":"Stadt"},"district":{"key":"01056","name":"Pinneberg","type":"Kreis"},"federalState":{"key":"01","name":"Schleswig-Holstein"}},{"name":"Gerhart-Hauptmann-Str.","postalCode":"25421","locality":"Pinneberg","municipality":{"key":"01056039","name":"Pinneberg, Stadt","type":"Stadt"},"district":{"key":"01056","name":"Pinneberg","type":"Kreis"},"federalState":{"key":"01","name":"Schleswig-Holstein"}},{"name":"Ginsterweg","postalCode":"25421","locality":"Pinneberg","municipality":{"key":"01056039","name":"Pinneberg, Stadt","type":"Stadt"},"district":{"key":"01056","name":"Pinneberg","type":"Kreis"},"federalState":{"key":"01","name":"Schleswig-Holstein"}},{"name":"Goethestr.","postalCode":"25421","locality":"Pinneberg","municipality":{"key":"01056039","name":"Pinneberg, Stadt","type":"Stadt"},"district":{"key":"01056","name":"Pinneberg","type":"Kreis"},"federalState":{"key":"01","name":"Schleswig-Holstein"}},{"name":"Grenzdamm","postalCode":"25421","locality":"Pinneberg","municipality":{"key":"01056039","name":"Pinneberg, Stadt","type":"Stadt"},"district":{"key":"01056","name":"Pinneberg","type":"Kreis"},"federalState":{"key":"01","name":"Schleswig-Holstein"}},{"name":"Großer Reitweg","postalCode":"25421","locality":"Pinneberg","municipality":{"key":"01056039","name":"Pinneberg, Stadt","type":"Stadt"},"district":{"key":"01056","name":"Pinneberg","type":"Kreis"},"federalState":{"key":"01","name":"Schleswig-Holstein"}},{"name":"Großes Feld","postalCode":"25421","locality":"Pinneberg","municipality":{"key":"01056039","name":"Pinneberg, Stadt","type":"Stadt"},"district":{"key":"01056","name":"Pinneberg","type":"Kreis"},"federalState":{"key":"01","name":"Schleswig-Holstein"}},{"name":"Grotenkamp","postalCode":"25421","locality":"Pinneberg","municipality":{"key":"01056039","name":"Pinneberg, Stadt","type":"Stadt"},"district":{"key":"01056","name":"Pinneberg","type":"Kreis"},"federalState":{"key":"01","name":"Schleswig-Holstein"}},{"name":"Grüner Kamp","postalCode":"25421","locality":"Pinneberg","municipality":{"key":"01056039","name":"Pinneberg, Stadt","type":"Stadt"},"district":{"key":"01056","name":"Pinneberg","type":"Kreis"},"federalState":{"key":"01","name":"Schleswig-Holstein"}},{"name":"Gustav-Strobel-Ring","postalCode":"25421","locality":"Pinneberg","municipality":{"key":"01056039","name":"Pinneberg, Stadt","type":"Stadt"},"district":{"key":"01056","name":"Pinneberg","type":"Kreis"},"federalState":{"key":"01","name":"Schleswig-Holstein"}},{"name":"Haderslebener Str.","postalCode":"25421","locality":"Pinneberg","municipality":{"key":"01056039","name":"Pinneberg, Stadt","type":"Stadt"},"district":{"key":"01056","name":"Pinneberg","type":"Kreis"},"federalState":{"key":"01","name":"Schleswig-Holstein"}},{"name":"Haidberg","postalCode":"25421","locality":"Pinneberg","municipality":{"key":"01056039","name":"Pinneberg, Stadt","type":"Stadt"},"district":{"key":"01056","name":"Pinneberg","type":"Kreis"},"federalState":{"key":"01","name":"Schleswig-Holstein"}},{"name":"Haidkamp","postalCode":"25421","locality":"Pinneberg","municipality":{"key":"01056039","name":"Pinneberg, Stadt","type":"Stadt"},"district":{"key":"01056","name":"Pinneberg","type":"Kreis"},"federalState":{"key":"01","name":"Schleswig-Holstein"}},{"name":"Haidloh","postalCode":"25421","locality":"Pinneberg","municipality":{"key":"01056039","name":"Pinneberg, Stadt","type":"Stadt"},"district":{"key":"01056","name":"Pinneberg","type":"Kreis"},"federalState":{"key":"01","name":"Schleswig-Holstein"}},{"name":"Hainbuchenkamp","postalCode":"25421","locality":"Pinneberg","municipality":{"key":"01056039","name":"Pinneberg, Stadt","type":"Stadt"},"district":{"key":"01056","name":"Pinneberg","type":"Kreis"},"federalState":{"key":"01","name":"Schleswig-Holstein"}},{"name":"Halstenbeker Str.","postalCode":"25421","locality":"Pinneberg","municipality":{"key":"01056039","name":"Pinneberg, Stadt","type":"Stadt"},"district":{"key":"01056","name":"Pinneberg","type":"Kreis"},"federalState":{"key":"01","name":"Schleswig-Holstein"}},{"name":"Hans-Böckler-Hof","postalCode":"25421","locality":"Pinneberg","municipality":{"key":"01056039","name":"Pinneberg, Stadt","type":"Stadt"},"district":{"key":"01056","name":"Pinneberg","type":"Kreis"},"federalState":{"key":"01","name":"Schleswig-Holstein"}},{"name":"Hans-Hermann-Kath-Brücke","postalCode":"25421","locality":"Pinneberg","municipality":{"key":"01056039","name":"Pinneberg, Stadt","type":"Stadt"},"district":{"key":"01056","name":"Pinneberg","type":"Kreis"},"federalState":{"key":"01","name":"Schleswig-Holstein"}},{"name":"Hasenkehre","postalCode":"25421","locality":"Pinneberg","municipality":{"key":"01056039","name":"Pinneberg, Stadt","type":"Stadt"},"district":{"key":"01056","name":"Pinneberg","type":"Kreis"},"federalState":{"key":"01","name":"Schleswig-Holstein"}},{"name":"Hätschenfeld","postalCode":"25421","locality":"Pinneberg","municipality":{"key":"01056039","name":"Pinneberg, Stadt","type":"Stadt"},"district":{"key":"01056","name":"Pinneberg","type":"Kreis"},"federalState":{"key":"01","name":"Schleswig-Holstein"}},{"name":"Hätschenkamp","postalCode":"25421","locality":"Pinneberg","municipality":{"key":"01056039","name":"Pinneberg, Stadt","type":"Stadt"},"district":{"key":"01056","name":"Pinneberg","type":"Kreis"},"federalState":{"key":"01","name":"Schleswig-Holstein"}},{"name":"Hebbelstr.","postalCode":"25421","locality":"Pinneberg","municipality":{"key":"01056039","name":"Pinneberg, Stadt","type":"Stadt"},"district":{"key":"01056","name":"Pinneberg","type":"Kreis"},"federalState":{"key":"01","name":"Schleswig-Holstein"}},{"name":"Heckenkirschenweg","postalCode":"25421","locality":"Pinneberg","municipality":{"key":"01056039","name":"Pinneberg, Stadt","type":"Stadt"},"district":{"key":"01056","name":"Pinneberg","type":"Kreis"},"federalState":{"key":"01","name":"Schleswig-Holstein"}},{"name":"Heckenrosenstieg","postalCode":"25421","locality":"Pinneberg","municipality":{"key":"01056039","name":"Pinneberg, Stadt","type":"Stadt"},"district":{"key":"01056","name":"Pinneberg","type":"Kreis"},"federalState":{"key":"01","name":"Schleswig-Holstein"}},{"name":"Heideweg","postalCode":"25421","locality":"Pinneberg","municipality":{"key":"01056039","name":"Pinneberg, Stadt","type":"Stadt"},"district":{"key":"01056","name":"Pinneberg","type":"Kreis"},"federalState":{"key":"01","name":"Schleswig-Holstein"}},{"name":"Heimkehrerstr.","postalCode":"25421","locality":"Pinneberg","municipality":{"key":"01056039","name":"Pinneberg, Stadt","type":"Stadt"},"district":{"key":"01056","name":"Pinneberg","type":"Kreis"},"federalState":{"key":"01","name":"Schleswig-Holstein"}},{"name":"Heinrich-Boschen-Str.","postalCode":"25421","locality":"Pinneberg","municipality":{"key":"01056039","name":"Pinneberg, Stadt","type":"Stadt"},"district":{"key":"01056","name":"Pinneberg","type":"Kreis"},"federalState":{"key":"01","name":"Schleswig-Holstein"}},{"name":"Heinrich-Christiansen-Str.","postalCode":"25421","locality":"Pinneberg","municipality":{"key":"01056039","name":"Pinneberg, Stadt","type":"Stadt"},"district":{"key":"01056","name":"Pinneberg","type":"Kreis"},"federalState":{"key":"01","name":"Schleswig-Holstein"}},{"name":"Heinrich-Geick-Str.","postalCode":"25421","locality":"Pinneberg","municipality":{"key":"01056039","name":"Pinneberg, Stadt","type":"Stadt"},"district":{"key":"01056","name":"Pinneberg","type":"Kreis"},"federalState":{"key":"01","name":"Schleswig-Holstein"}},{"name":"Heinrich-Specht-Weg","postalCode":"25421","locality":"Pinneberg","municipality":{"key":"01056039","name":"Pinneberg, Stadt","type":"Stadt"},"district":{"key":"01056","name":"Pinneberg","type":"Kreis"},"federalState":{"key":"01","name":"Schleswig-Holstein"}},{"name":"Helgolandstr.","postalCode":"25421","locality":"Pinneberg","municipality":{"key":"01056039","name":"Pinneberg, Stadt","type":"Stadt"},"district":{"key":"01056","name":"Pinneberg","type":"Kreis"},"federalState":{"key":"01","name":"Schleswig-Holstein"}},{"name":"Hellenkamp","postalCode":"25421","locality":"Pinneberg","municipality":{"key":"01056039","name":"Pinneberg, Stadt","type":"Stadt"},"district":{"key":"01056","name":"Pinneberg","type":"Kreis"},"federalState":{"key":"01","name":"Schleswig-Holstein"}},{"name":"Herderstr.","postalCode":"25421","locality":"Pinneberg","municipality":{"key":"01056039","name":"Pinneberg, Stadt","type":"Stadt"},"district":{"key":"01056","name":"Pinneberg","type":"Kreis"},"federalState":{"key":"01","name":"Schleswig-Holstein"}},{"name":"Hermanstr.","postalCode":"25421","locality":"Pinneberg","municipality":{"key":"01056039","name":"Pinneberg, Stadt","type":"Stadt"},"district":{"key":"01056","name":"Pinneberg","type":"Kreis"},"federalState":{"key":"01","name":"Schleswig-Holstein"}},{"name":"Hindenburgdamm","postalCode":"25421","locality":"Pinneberg","municipality":{"key":"01056039","name":"Pinneberg, Stadt","type":"Stadt"},"district":{"key":"01056","name":"Pinneberg","type":"Kreis"},"federalState":{"key":"01","name":"Schleswig-Holstein"}},{"name":"Hirtenweg","postalCode":"25421","locality":"Pinneberg","municipality":{"key":"01056039","name":"Pinneberg, Stadt","type":"Stadt"},"district":{"key":"01056","name":"Pinneberg","type":"Kreis"},"federalState":{"key":"01","name":"Schleswig-Holstein"}},{"name":"Hochstr.","postalCode":"25421","locality":"Pinneberg","municipality":{"key":"01056039","name":"Pinneberg, Stadt","type":"Stadt"},"district":{"key":"01056","name":"Pinneberg","type":"Kreis"},"federalState":{"key":"01","name":"Schleswig-Holstein"}},{"name":"Hogenkamp","postalCode":"25421","locality":"Pinneberg","municipality":{"key":"01056039","name":"Pinneberg, Stadt","type":"Stadt"},"district":{"key":"01056","name":"Pinneberg","type":"Kreis"},"federalState":{"key":"01","name":"Schleswig-Holstein"}},{"name":"Hogenmoor","postalCode":"25421","locality":"Pinneberg","municipality":{"key":"01056039","name":"Pinneberg, Stadt","type":"Stadt"},"district":{"key":"01056","name":"Pinneberg","type":"Kreis"},"federalState":{"key":"01","name":"Schleswig-Holstein"}},{"name":"Hohenbalk","postalCode":"25421","locality":"Pinneberg","municipality":{"key":"01056039","name":"Pinneberg, Stadt","type":"Stadt"},"district":{"key":"01056","name":"Pinneberg","type":"Kreis"},"federalState":{"key":"01","name":"Schleswig-Holstein"}},{"name":"Hollandweg","postalCode":"25421","locality":"Pinneberg","municipality":{"key":"01056039","name":"Pinneberg, Stadt","type":"Stadt"},"district":{"key":"01056","name":"Pinneberg","type":"Kreis"},"federalState":{"key":"01","name":"Schleswig-Holstein"}},{"name":"Holstenstr.","postalCode":"25421","locality":"Pinneberg","municipality":{"key":"01056039","name":"Pinneberg, Stadt","type":"Stadt"},"district":{"key":"01056","name":"Pinneberg","type":"Kreis"},"federalState":{"key":"01","name":"Schleswig-Holstein"}},{"name":"Holunderweg","postalCode":"25421","locality":"Pinneberg","municipality":{"key":"01056039","name":"Pinneberg, Stadt","type":"Stadt"},"district":{"key":"01056","name":"Pinneberg","type":"Kreis"},"federalState":{"key":"01","name":"Schleswig-Holstein"}},{"name":"Horn","postalCode":"25421","locality":"Pinneberg","municipality":{"key":"01056039","name":"Pinneberg, Stadt","type":"Stadt"},"district":{"key":"01056","name":"Pinneberg","type":"Kreis"},"federalState":{"key":"01","name":"Schleswig-Holstein"}},{"name":"Hörnkamp","postalCode":"25421","locality":"Pinneberg","municipality":{"key":"01056039","name":"Pinneberg, Stadt","type":"Stadt"},"district":{"key":"01056","name":"Pinneberg","type":"Kreis"},"federalState":{"key":"01","name":"Schleswig-Holstein"}},{"name":"Hortensienweg","postalCode":"25421","locality":"Pinneberg","municipality":{"key":"01056039","name":"Pinneberg, Stadt","type":"Stadt"},"district":{"key":"01056","name":"Pinneberg","type":"Kreis"},"federalState":{"key":"01","name":"Schleswig-Holstein"}},{"name":"Humboldtstr.","postalCode":"25421","locality":"Pinneberg","municipality":{"key":"01056039","name":"Pinneberg, Stadt","type":"Stadt"},"district":{"key":"01056","name":"Pinneberg","type":"Kreis"},"federalState":{"key":"01","name":"Schleswig-Holstein"}},{"name":"Hunnenbarg","postalCode":"25421","locality":"Pinneberg","municipality":{"key":"01056039","name":"Pinneberg, Stadt","type":"Stadt"},"district":{"key":"01056","name":"Pinneberg","type":"Kreis"},"federalState":{"key":"01","name":"Schleswig-Holstein"}},{"name":"Igelweg","postalCode":"25421","locality":"Pinneberg","municipality":{"key":"01056039","name":"Pinneberg, Stadt","type":"Stadt"},"district":{"key":"01056","name":"Pinneberg","type":"Kreis"},"federalState":{"key":"01","name":"Schleswig-Holstein"}},{"name":"Im Bans","postalCode":"25421","locality":"Pinneberg","municipality":{"key":"01056039","name":"Pinneberg, Stadt","type":"Stadt"},"district":{"key":"01056","name":"Pinneberg","type":"Kreis"},"federalState":{"key":"01","name":"Schleswig-Holstein"}},{"name":"Im Hauen","postalCode":"25421","locality":"Pinneberg","municipality":{"key":"01056039","name":"Pinneberg, Stadt","type":"Stadt"},"district":{"key":"01056","name":"Pinneberg","type":"Kreis"},"federalState":{"key":"01","name":"Schleswig-Holstein"}},{"name":"Immanuel-Kant-Str.","postalCode":"25421","locality":"Pinneberg","municipality":{"key":"01056039","name":"Pinneberg, Stadt","type":"Stadt"},"district":{"key":"01056","name":"Pinneberg","type":"Kreis"},"federalState":{"key":"01","name":"Schleswig-Holstein"}},{"name":"Im Rosenfeld","postalCode":"25421","locality":"Pinneberg","municipality":{"key":"01056039","name":"Pinneberg, Stadt","type":"Stadt"},"district":{"key":"01056","name":"Pinneberg","type":"Kreis"},"federalState":{"key":"01","name":"Schleswig-Holstein"}},{"name":"Im Stook","postalCode":"25421","locality":"Pinneberg","municipality":{"key":"01056039","name":"Pinneberg, Stadt","type":"Stadt"},"district":{"key":"01056","name":"Pinneberg","type":"Kreis"},"federalState":{"key":"01","name":"Schleswig-Holstein"}},{"name":"In der Heide","postalCode":"25421","locality":"Pinneberg","municipality":{"key":"01056039","name":"Pinneberg, Stadt","type":"Stadt"},"district":{"key":"01056","name":"Pinneberg","type":"Kreis"},"federalState":{"key":"01","name":"Schleswig-Holstein"}},{"name":"In de Simp","postalCode":"25421","locality":"Pinneberg","municipality":{"key":"01056039","name":"Pinneberg, Stadt","type":"Stadt"},"district":{"key":"01056","name":"Pinneberg","type":"Kreis"},"federalState":{"key":"01","name":"Schleswig-Holstein"}},{"name":"Jägerkamp","postalCode":"25421","locality":"Pinneberg","municipality":{"key":"01056039","name":"Pinneberg, Stadt","type":"Stadt"},"district":{"key":"01056","name":"Pinneberg","type":"Kreis"},"federalState":{"key":"01","name":"Schleswig-Holstein"}},{"name":"Jansenallee","postalCode":"25421","locality":"Pinneberg","municipality":{"key":"01056039","name":"Pinneberg, Stadt","type":"Stadt"},"district":{"key":"01056","name":"Pinneberg","type":"Kreis"},"federalState":{"key":"01","name":"Schleswig-Holstein"}},{"name":"Jappopkamp","postalCode":"25421","locality":"Pinneberg","municipality":{"key":"01056039","name":"Pinneberg, Stadt","type":"Stadt"},"district":{"key":"01056","name":"Pinneberg","type":"Kreis"},"federalState":{"key":"01","name":"Schleswig-Holstein"}},{"name":"Jappopweg","postalCode":"25421","locality":"Pinneberg","municipality":{"key":"01056039","name":"Pinneberg, Stadt","type":"Stadt"},"district":{"key":"01056","name":"Pinneberg","type":"Kreis"},"federalState":{"key":"01","name":"Schleswig-Holstein"}},{"name":"Jappopweide","postalCode":"25421","locality":"Pinneberg","municipality":{"key":"01056039","name":"Pinneberg, Stadt","type":"Stadt"},"district":{"key":"01056","name":"Pinneberg","type":"Kreis"},"federalState":{"key":"01","name":"Schleswig-Holstein"}},{"name":"Jasminweg","postalCode":"25421","locality":"Pinneberg","municipality":{"key":"01056039","name":"Pinneberg, Stadt","type":"Stadt"},"district":{"key":"01056","name":"Pinneberg","type":"Kreis"},"federalState":{"key":"01","name":"Schleswig-Holstein"}},{"name":"Köllner Weg","postalCode":"25355","locality":"Bullenkuhlen","municipality":{"key":"01056011","name":"Bullenkuhlen","type":"Kreisangehörige_Gemeinde"},"district":{"key":"01056","name":"Pinneberg","type":"Kreis"},"federalState":{"key":"01","name":"Schleswig-Holstein"}},{"name":"Luswinkel","postalCode":"25355","locality":"Bullenkuhlen","municipality":{"key":"01056011","name":"Bullenkuhlen","type":"Kreisangehörige_Gemeinde"},"district":{"key":"01056","name":"Pinneberg","type":"Kreis"},"federalState":{"key":"01","name":"Schleswig-Holstein"}},{"name":"Mühlenweg","postalCode":"25355","locality":"Bullenkuhlen","municipality":{"key":"01056011","name":"Bullenkuhlen","type":"Kreisangehörige_Gemeinde"},"district":{"key":"01056","name":"Pinneberg","type":"Kreis"},"federalState":{"key":"01","name":"Schleswig-Holstein"}},{"name":"Nedderfeld","postalCode":"25421","locality":"Pinneberg","municipality":{"key":"01056039","name":"Pinneberg, Stadt","type":"Stadt"},"district":{"key":"01056","name":"Pinneberg","type":"Kreis"},"federalState":{"key":"01","name":"Schleswig-Holstein"}},{"name":"Neue Str.","postalCode":"25421","locality":"Pinneberg","municipality":{"key":"01056039","name":"Pinneberg, Stadt","type":"Stadt"},"district":{"key":"01056","name":"Pinneberg","type":"Kreis"},"federalState":{"key":"01","name":"Schleswig-Holstein"}},{"name":"Nieland","postalCode":"25421","locality":"Pinneberg","municipality":{"key":"01056039","name":"Pinneberg, Stadt","type":"Stadt"},"district":{"key":"01056","name":"Pinneberg","type":"Kreis"},"federalState":{"key":"01","name":"Schleswig-Holstein"}},{"name":"Nienhöfener Str.","postalCode":"25421","locality":"Pinneberg","municipality":{"key":"01056039","name":"Pinneberg, Stadt","type":"Stadt"},"district":{"key":"01056","name":"Pinneberg","type":"Kreis"},"federalState":{"key":"01","name":"Schleswig-Holstein"}},{"name":"Nienkamp","postalCode":"25421","locality":"Pinneberg","municipality":{"key":"01056039","name":"Pinneberg, Stadt","type":"Stadt"},"district":{"key":"01056","name":"Pinneberg","type":"Kreis"},"federalState":{"key":"01","name":"Schleswig-Holstein"}},{"name":"Oberer Ehmschen","postalCode":"25421","locality":"Pinneberg","municipality":{"key":"01056039","name":"Pinneberg, Stadt","type":"Stadt"},"district":{"key":"01056","name":"Pinneberg","type":"Kreis"},"federalState":{"key":"01","name":"Schleswig-Holstein"}},{"name":"Oberst-von-Stauffenberg-Str.","postalCode":"25421","locality":"Pinneberg","municipality":{"key":"01056039","name":"Pinneberg, Stadt","type":"Stadt"},"district":{"key":"01056","name":"Pinneberg","type":"Kreis"},"federalState":{"key":"01","name":"Schleswig-Holstein"}},{"name":"Obstgarten","postalCode":"25421","locality":"Pinneberg","municipality":{"key":"01056039","name":"Pinneberg, Stadt","type":"Stadt"},"district":{"key":"01056","name":"Pinneberg","type":"Kreis"},"federalState":{"key":"01","name":"Schleswig-Holstein"}},{"name":"Oeltingsallee","postalCode":"25421","locality":"Pinneberg","municipality":{"key":"01056039","name":"Pinneberg, Stadt","type":"Stadt"},"district":{"key":"01056","name":"Pinneberg","type":"Kreis"},"federalState":{"key":"01","name":"Schleswig-Holstein"}},{"name":"Ohlenkamp","postalCode":"25421","locality":"Pinneberg","municipality":{"key":"01056039","name":"Pinneberg, Stadt","type":"Stadt"},"district":{"key":"01056","name":"Pinneberg","type":"Kreis"},"federalState":{"key":"01","name":"Schleswig-Holstein"}},{"name":"Ohlkoppel","postalCode":"25421","locality":"Pinneberg","municipality":{"key":"01056039","name":"Pinneberg, Stadt","type":"Stadt"},"district":{"key":"01056","name":"Pinneberg","type":"Kreis"},"federalState":{"key":"01","name":"Schleswig-Holstein"}},{"name":"Op de Wisch","postalCode":"25421","locality":"Pinneberg","municipality":{"key":"01056039","name":"Pinneberg, Stadt","type":"Stadt"},"district":{"key":"01056","name":"Pinneberg","type":"Kreis"},"federalState":{"key":"01","name":"Schleswig-Holstein"}},{"name":"Ossenpadd","postalCode":"25421","locality":"Pinneberg","municipality":{"key":"01056039","name":"Pinneberg, Stadt","type":"Stadt"},"district":{"key":"01056","name":"Pinneberg","type":"Kreis"},"federalState":{"key":"01","name":"Schleswig-Holstein"}},{"name":"Ossenpadd-Nebenweg","postalCode":"25421","locality":"Pinneberg","municipality":{"key":"01056039","name":"Pinneberg, Stadt","type":"Stadt"},"district":{"key":"01056","name":"Pinneberg","type":"Kreis"},"federalState":{"key":"01","name":"Schleswig-Holstein"}},{"name":"Osterholder Allee","postalCode":"25421","locality":"Pinneberg","municipality":{"key":"01056039","name":"Pinneberg, Stadt","type":"Stadt"},"district":{"key":"01056","name":"Pinneberg","type":"Kreis"},"federalState":{"key":"01","name":"Schleswig-Holstein"}},{"name":"Osterloher Weg","postalCode":"25421","locality":"Pinneberg","municipality":{"key":"01056039","name":"Pinneberg, Stadt","type":"Stadt"},"district":{"key":"01056","name":"Pinneberg","type":"Kreis"},"federalState":{"key":"01","name":"Schleswig-Holstein"}},{"name":"Ostermannweg","postalCode":"25421","locality":"Pinneberg","municipality":{"key":"01056039","name":"Pinneberg, Stadt","type":"Stadt"},"district":{"key":"01056","name":"Pinneberg","type":"Kreis"},"federalState":{"key":"01","name":"Schleswig-Holstein"}},{"name":"Ottostr.","postalCode":"25421","locality":"Pinneberg","municipality":{"key":"01056039","name":"Pinneberg, Stadt","type":"Stadt"},"district":{"key":"01056","name":"Pinneberg","type":"Kreis"},"federalState":{"key":"01","name":"Schleswig-Holstein"}},{"name":"Pappelweg","postalCode":"25421","locality":"Pinneberg","municipality":{"key":"01056039","name":"Pinneberg, Stadt","type":"Stadt"},"district":{"key":"01056","name":"Pinneberg","type":"Kreis"},"federalState":{"key":"01","name":"Schleswig-Holstein"}},{"name":"Parkstr.","postalCode":"25421","locality":"Pinneberg","municipality":{"key":"01056039","name":"Pinneberg, Stadt","type":"Stadt"},"district":{"key":"01056","name":"Pinneberg","type":"Kreis"},"federalState":{"key":"01","name":"Schleswig-Holstein"}},{"name":"Paulstr.","postalCode":"25421","locality":"Pinneberg","municipality":{"key":"01056039","name":"Pinneberg, Stadt","type":"Stadt"},"district":{"key":"01056","name":"Pinneberg","type":"Kreis"},"federalState":{"key":"01","name":"Schleswig-Holstein"}},{"name":"Peinerweg","postalCode":"25421","locality":"Pinneberg","municipality":{"key":"01056039","name":"Pinneberg, Stadt","type":"Stadt"},"district":{"key":"01056","name":"Pinneberg","type":"Kreis"},"federalState":{"key":"01","name":"Schleswig-Holstein"}},{"name":"Perleberger Str.","postalCode":"25421","locality":"Pinneberg","municipality":{"key":"01056039","name":"Pinneberg, Stadt","type":"Stadt"},"district":{"key":"01056","name":"Pinneberg","type":"Kreis"},"federalState":{"key":"01","name":"Schleswig-Holstein"}},{"name":"Pestalozzistr.","postalCode":"25421","locality":"Pinneberg","municipality":{"key":"01056039","name":"Pinneberg, Stadt","type":"Stadt"},"district":{"key":"01056","name":"Pinneberg","type":"Kreis"},"federalState":{"key":"01","name":"Schleswig-Holstein"}},{"name":"Pinnaudamm","postalCode":"25421","locality":"Pinneberg","municipality":{"key":"01056039","name":"Pinneberg, Stadt","type":"Stadt"},"district":{"key":"01056","name":"Pinneberg","type":"Kreis"},"federalState":{"key":"01","name":"Schleswig-Holstein"}},{"name":"Platanenweg","postalCode":"25421","locality":"Pinneberg","municipality":{"key":"01056039","name":"Pinneberg, Stadt","type":"Stadt"},"district":{"key":"01056","name":"Pinneberg","type":"Kreis"},"federalState":{"key":"01","name":"Schleswig-Holstein"}},{"name":"Prisdorfer Str.","postalCode":"25421","locality":"Pinneberg","municipality":{"key":"01056039","name":"Pinneberg, Stadt","type":"Stadt"},"district":{"key":"01056","name":"Pinneberg","type":"Kreis"},"federalState":{"key":"01","name":"Schleswig-Holstein"}},{"name":"Quellenweg","postalCode":"25421","locality":"Pinneberg","municipality":{"key":"01056039","name":"Pinneberg, Stadt","type":"Stadt"},"district":{"key":"01056","name":"Pinneberg","type":"Kreis"},"federalState":{"key":"01","name":"Schleswig-Holstein"}},{"name":"Quickborner Str.","postalCode":"25421","locality":"Pinneberg","municipality":{"key":"01056039","name":"Pinneberg, Stadt","type":"Stadt"},"district":{"key":"01056","name":"Pinneberg","type":"Kreis"},"federalState":{"key":"01","name":"Schleswig-Holstein"}},{"name":"Rabenstr.","postalCode":"25421","locality":"Pinneberg","municipality":{"key":"01056039","name":"Pinneberg, Stadt","type":"Stadt"},"district":{"key":"01056","name":"Pinneberg","type":"Kreis"},"federalState":{"key":"01","name":"Schleswig-Holstein"}},{"name":"Radweg Westumgehung","postalCode":"25421","locality":"Pinneberg","municipality":{"key":"01056039","name":"Pinneberg, Stadt","type":"Stadt"},"district":{"key":"01056","name":"Pinneberg","type":"Kreis"},"federalState":{"key":"01","name":"Schleswig-Holstein"}},{"name":"Rahbargkamp","postalCode":"25421","locality":"Pinneberg","municipality":{"key":"01056039","name":"Pinneberg, Stadt","type":"Stadt"},"district":{"key":"01056","name":"Pinneberg","type":"Kreis"},"federalState":{"key":"01","name":"Schleswig-Holstein"}},{"name":"Rathaus Passage","postalCode":"25421","locality":"Pinneberg","municipality":{"key":"01056039","name":"Pinneberg, Stadt","type":"Stadt"},"district":{"key":"01056","name":"Pinneberg","type":"Kreis"},"federalState":{"key":"01","name":"Schleswig-Holstein"}},{"name":"Redder","postalCode":"25421","locality":"Pinneberg","municipality":{"key":"01056039","name":"Pinneberg, Stadt","type":"Stadt"},"district":{"key":"01056","name":"Pinneberg","type":"Kreis"},"federalState":{"key":"01","name":"Schleswig-Holstein"}},{"name":"Rehhagen","postalCode":"25421","locality":"Pinneberg","municipality":{"key":"01056039","name":"Pinneberg, Stadt","type":"Stadt"},"district":{"key":"01056","name":"Pinneberg","type":"Kreis"},"federalState":{"key":"01","name":"Schleswig-Holstein"}},{"name":"Rehmen","postalCode":"25421","locality":"Pinneberg","municipality":{"key":"01056039","name":"Pinneberg, Stadt","type":"Stadt"},"district":{"key":"01056","name":"Pinneberg","type":"Kreis"},"federalState":{"key":"01","name":"Schleswig-Holstein"}},{"name":"Reichenberger Str.","postalCode":"25421","locality":"Pinneberg","municipality":{"key":"01056039","name":"Pinneberg, Stadt","type":"Stadt"},"district":{"key":"01056","name":"Pinneberg","type":"Kreis"},"federalState":{"key":"01","name":"Schleswig-Holstein"}},{"name":"Rellinger Str.","postalCode":"25421","locality":"Pinneberg","municipality":{"key":"01056039","name":"Pinneberg, Stadt","type":"Stadt"},"district":{"key":"01056","name":"Pinneberg","type":"Kreis"},"federalState":{"key":"01","name":"Schleswig-Holstein"}},{"name":"Rethwiese","postalCode":"25421","locality":"Pinneberg","municipality":{"key":"01056039","name":"Pinneberg, Stadt","type":"Stadt"},"district":{"key":"01056","name":"Pinneberg","type":"Kreis"},"federalState":{"key":"01","name":"Schleswig-Holstein"}},{"name":"Richard-Köhn-Str.","postalCode":"25421","locality":"Pinneberg","municipality":{"key":"01056039","name":"Pinneberg, Stadt","type":"Stadt"},"district":{"key":"01056","name":"Pinneberg","type":"Kreis"},"federalState":{"key":"01","name":"Schleswig-Holstein"}},{"name":"Rixstr.","postalCode":"25421","locality":"Pinneberg","municipality":{"key":"01056039","name":"Pinneberg, Stadt","type":"Stadt"},"district":{"key":"01056","name":"Pinneberg","type":"Kreis"},"federalState":{"key":"01","name":"Schleswig-Holstein"}},{"name":"Rockvillestr.","postalCode":"25421","locality":"Pinneberg","municipality":{"key":"01056039","name":"Pinneberg, Stadt","type":"Stadt"},"district":{"key":"01056","name":"Pinneberg","type":"Kreis"},"federalState":{"key":"01","name":"Schleswig-Holstein"}},{"name":"Rosenhof","postalCode":"25421","locality":"Pinneberg","municipality":{"key":"01056039","name":"Pinneberg, Stadt","type":"Stadt"},"district":{"key":"01056","name":"Pinneberg","type":"Kreis"},"federalState":{"key":"01","name":"Schleswig-Holstein"}},{"name":"Rotbuchenkamp","postalCode":"25421","locality":"Pinneberg","municipality":{"key":"01056039","name":"Pinneberg, Stadt","type":"Stadt"},"district":{"key":"01056","name":"Pinneberg","type":"Kreis"},"federalState":{"key":"01","name":"Schleswig-Holstein"}},{"name":"Rotdorntwiete","postalCode":"25421","locality":"Pinneberg","municipality":{"key":"01056039","name":"Pinneberg, Stadt","type":"Stadt"},"district":{"key":"01056","name":"Pinneberg","type":"Kreis"},"federalState":{"key":"01","name":"Schleswig-Holstein"}},{"name":"Rotkehlchenweg","postalCode":"25421","locality":"Pinneberg","municipality":{"key":"01056039","name":"Pinneberg, Stadt","type":"Stadt"},"district":{"key":"01056","name":"Pinneberg","type":"Kreis"},"federalState":{"key":"01","name":"Schleswig-Holstein"}},{"name":"Rübekamp","postalCode":"25421","locality":"Pinneberg","municipality":{"key":"01056039","name":"Pinneberg, Stadt","type":"Stadt"},"district":{"key":"01056","name":"Pinneberg","type":"Kreis"},"federalState":{"key":"01","name":"Schleswig-Holstein"}},{"name":"Rübekamptunnel","postalCode":"25421","locality":"Pinneberg","municipality":{"key":"01056039","name":"Pinneberg, Stadt","type":"Stadt"},"district":{"key":"01056","name":"Pinneberg","type":"Kreis"},"federalState":{"key":"01","name":"Schleswig-Holstein"}},{"name":"Rudolf-Kinau-Str.","postalCode":"25421","locality":"Pinneberg","municipality":{"key":"01056039","name":"Pinneberg, Stadt","type":"Stadt"},"district":{"key":"01056","name":"Pinneberg","type":"Kreis"},"federalState":{"key":"01","name":"Schleswig-Holstein"}},{"name":"Schulweg","postalCode":"25355","locality":"Bullenkuhlen","municipality":{"key":"01056011","name":"Bullenkuhlen","type":"Kreisangehörige_Gemeinde"},"district":{"key":"01056","name":"Pinneberg","type":"Kreis"},"federalState":{"key":"01","name":"Schleswig-Holstein"}},{"name":"Seether Weg","postalCode":"25355","locality":"Bullenkuhlen","municipality":{"key":"01056011","name":"Bullenkuhlen","type":"Kreisangehörige_Gemeinde"},"district":{"key":"01056","name":"Pinneberg","type":"Kreis"},"federalState":{"key":"01","name":"Schleswig-Holstein"}},{"name":"Tannenweg","postalCode":"25421","locality":"Pinneberg","municipality":{"key":"01056039","name":"Pinneberg, Stadt","type":"Stadt"},"district":{"key":"01056","name":"Pinneberg","type":"Kreis"},"federalState":{"key":"01","name":"Schleswig-Holstein"}},{"name":"Taubenstr.","postalCode":"25421","locality":"Pinneberg","municipality":{"key":"01056039","name":"Pinneberg, Stadt","type":"Stadt"},"district":{"key":"01056","name":"Pinneberg","type":"Kreis"},"federalState":{"key":"01","name":"Schleswig-Holstein"}},{"name":"Theodor-Storm-Str.","postalCode":"25421","locality":"Pinneberg","municipality":{"key":"01056039","name":"Pinneberg, Stadt","type":"Stadt"},"district":{"key":"01056","name":"Pinneberg","type":"Kreis"},"federalState":{"key":"01","name":"Schleswig-Holstein"}},{"name":"Thesdorfer Weg","postalCode":"25421","locality":"Pinneberg","municipality":{"key":"01056039","name":"Pinneberg, Stadt","type":"Stadt"},"district":{"key":"01056","name":"Pinneberg","type":"Kreis"},"federalState":{"key":"01","name":"Schleswig-Holstein"}},{"name":"Tilsiter Str.","postalCode":"25421","locality":"Pinneberg","municipality":{"key":"01056039","name":"Pinneberg, Stadt","type":"Stadt"},"district":{"key":"01056","name":"Pinneberg","type":"Kreis"},"federalState":{"key":"01","name":"Schleswig-Holstein"}},{"name":"Tondernstr.","postalCode":"25421","locality":"Pinneberg","municipality":{"key":"01056039","name":"Pinneberg, Stadt","type":"Stadt"},"district":{"key":"01056","name":"Pinneberg","type":"Kreis"},"federalState":{"key":"01","name":"Schleswig-Holstein"}},{"name":"Ulmenallee","postalCode":"25421","locality":"Pinneberg","municipality":{"key":"01056039","name":"Pinneberg, Stadt","type":"Stadt"},"district":{"key":"01056","name":"Pinneberg","type":"Kreis"},"federalState":{"key":"01","name":"Schleswig-Holstein"}},{"name":"Vogt-Ramcke-Str.","postalCode":"25421","locality":"Pinneberg","municipality":{"key":"01056039","name":"Pinneberg, Stadt","type":"Stadt"},"district":{"key":"01056","name":"Pinneberg","type":"Kreis"},"federalState":{"key":"01","name":"Schleswig-Holstein"}},{"name":"Von-Ahlefeldt-Stieg","postalCode":"25421","locality":"Pinneberg","municipality":{"key":"01056039","name":"Pinneberg, Stadt","type":"Stadt"},"district":{"key":"01056","name":"Pinneberg","type":"Kreis"},"federalState":{"key":"01","name":"Schleswig-Holstein"}},{"name":"Voßbarg","postalCode":"25421","locality":"Pinneberg","municipality":{"key":"01056039","name":"Pinneberg, Stadt","type":"Stadt"},"district":{"key":"01056","name":"Pinneberg","type":"Kreis"},"federalState":{"key":"01","name":"Schleswig-Holstein"}},{"name":"Wiesengrund","postalCode":"25355","locality":"Bullenkuhlen","municipality":{"key":"01056011","name":"Bullenkuhlen","type":"Kreisangehörige_Gemeinde"},"district":{"key":"01056","name":"Pinneberg","type":"Kreis"},"federalState":{"key":"01","name":"Schleswig-Holstein"}},{"name":"Zum Forstamt","postalCode":"25355","locality":"Bullenkuhlen","municipality":{"key":"01056011","name":"Bullenkuhlen","type":"Kreisangehörige_Gemeinde"},"district":{"key":"01056","name":"Pinneberg","type":"Kreis"},"federalState":{"key":"01","name":"Schleswig-Holstein"}},]