[{"key":"10091359","name":"Aastock","postalCode":"9230","locality":"Flawil","commune":{"key":"3402","name":"Flawil","shortName":"Flawil"},"district":{"key":"1728","name":"Wahlkreis Wil"},"canton":{"key":"17","code":"SG","name":"St. Gallen"},"status":"Real"},{"key":"10229960","name":"Aastockstrasse","postalCode":"9230","locality":"Flawil","commune":{"key":"3402","name":"Flawil","shortName":"Flawil"},"district":{"key":"1728","name":"Wahlkreis Wil"},"canton":{"key":"17","code":"SG","name":"St. Gallen"},"status":"Real"},{"key":"10229964","name":"Aastockweg","postalCode":"9230","locality":"Flawil","commune":{"key":"3402","name":"Flawil","shortName":"Flawil"},"district":{"key":"1728","name":"Wahlkreis Wil"},"canton":{"key":"17","code":"SG","name":"St. Gallen"},"status":"Real"},{"key":"10181167","name":"Aesch","postalCode":"9230","locality":"Flawil","commune":{"key":"3402","name":"Flawil","shortName":"Flawil"},"district":{"key":"1728","name":"Wahlkreis Wil"},"canton":{"key":"17","code":"SG","name":"St. Gallen"},"status":"Real"},{"key":"10226861","name":"Aesch-Engi","postalCode":"9230","locality":"Flawil","commune":{"key":"3402","name":"Flawil","shortName":"Flawil"},"district":{"key":"1728","name":"Wahlkreis Wil"},"canton":{"key":"17","code":"SG","name":"St. Gallen"},"status":"Real"},{"key":"10229968","name":"Aeussere Egg","postalCode":"9231","locality":"Egg (Flawil)","commune":{"key":"3402","name":"Flawil","shortName":"Flawil"},"district":{"key":"1728","name":"Wahlkreis Wil"},"canton":{"key":"17","code":"SG","name":"St. Gallen"},"status":"Real"},{"key":"10233608","name":"Aeusserer Eggweg","postalCode":"9231","locality":"Egg (Flawil)","commune":{"key":"3402","name":"Flawil","shortName":"Flawil"},"district":{"key":"1728","name":"Wahlkreis Wil"},"canton":{"key":"17","code":"SG","name":"St. Gallen"},"status":"Real"},{"key":"10025160","name":"Alpsteinstrasse","postalCode":"9230","locality":"Flawil","commune":{"key":"3402","name":"Flawil","shortName":"Flawil"},"district":{"key":"1728","name":"Wahlkreis Wil"},"canton":{"key":"17","code":"SG","name":"St. Gallen"},"status":"Real"},{"key":"10224741","name":"Alter Kirchenweg","postalCode":"9230","locality":"Flawil","commune":{"key":"3402","name":"Flawil","shortName":"Flawil"},"district":{"key":"1728","name":"Wahlkreis Wil"},"canton":{"key":"17","code":"SG","name":"St. Gallen"},"status":"Real"},{"key":"10069260","name":"Alterschwil","postalCode":"9230","locality":"Flawil","commune":{"key":"3402","name":"Flawil","shortName":"Flawil"},"district":{"key":"1728","name":"Wahlkreis Wil"},"canton":{"key":"17","code":"SG","name":"St. Gallen"},"status":"Real"},{"key":"10224745","name":"Alterschwiler Schulstrasse","postalCode":"9230","locality":"Flawil","commune":{"key":"3402","name":"Flawil","shortName":"Flawil"},"district":{"key":"1728","name":"Wahlkreis Wil"},"canton":{"key":"17","code":"SG","name":"St. Gallen"},"status":"Real"},{"key":"10224749","name":"Alterschwiler Schulweg","postalCode":"9230","locality":"Flawil","commune":{"key":"3402","name":"Flawil","shortName":"Flawil"},"district":{"key":"1728","name":"Wahlkreis Wil"},"canton":{"key":"17","code":"SG","name":"St. Gallen"},"status":"Real"},{"key":"10224753","name":"Alterschwilerstrasse","postalCode":"9230","locality":"Flawil","commune":{"key":"3402","name":"Flawil","shortName":"Flawil"},"district":{"key":"1728","name":"Wahlkreis Wil"},"canton":{"key":"17","code":"SG","name":"St. Gallen"},"status":"Real"},{"key":"10224753","name":"Alterschwilerstrasse","postalCode":"9231","locality":"Egg (Flawil)","commune":{"key":"3402","name":"Flawil","shortName":"Flawil"},"district":{"key":"1728","name":"Wahlkreis Wil"},"canton":{"key":"17","code":"SG","name":"St. Gallen"},"status":"Real"},{"key":"10025161","name":"Amselstrasse","postalCode":"9230","locality":"Flawil","commune":{"key":"3402","name":"Flawil","shortName":"Flawil"},"district":{"key":"1728","name":"Wahlkreis Wil"},"canton":{"key":"17","code":"SG","name":"St. Gallen"},"status":"Real"},{"key":"10091360","name":"Austrasse","postalCode":"9230","locality":"Flawil","commune":{"key":"3402","name":"Flawil","shortName":"Flawil"},"district":{"key":"1728","name":"Wahlkreis Wil"},"canton":{"key":"17","code":"SG","name":"St. Gallen"},"status":"Real"},{"key":"10025162","name":"Bachhüsli","postalCode":"9230","locality":"Flawil","commune":{"key":"3402","name":"Flawil","shortName":"Flawil"},"district":{"key":"1728","name":"Wahlkreis Wil"},"canton":{"key":"17","code":"SG","name":"St. Gallen"},"status":"Real"},{"key":"10224757","name":"Bachhüsliweg","postalCode":"9230","locality":"Flawil","commune":{"key":"3402","name":"Flawil","shortName":"Flawil"},"district":{"key":"1728","name":"Wahlkreis Wil"},"canton":{"key":"17","code":"SG","name":"St. Gallen"},"status":"Real"},{"key":"10106801","name":"Bachstrasse","postalCode":"9230","locality":"Flawil","commune":{"key":"3402","name":"Flawil","shortName":"Flawil"},"district":{"key":"1728","name":"Wahlkreis Wil"},"canton":{"key":"17","code":"SG","name":"St. Gallen"},"status":"Real"},{"key":"10224760","name":"Bachweg","postalCode":"9230","locality":"Flawil","commune":{"key":"3402","name":"Flawil","shortName":"Flawil"},"district":{"key":"1728","name":"Wahlkreis Wil"},"canton":{"key":"17","code":"SG","name":"St. Gallen"},"status":"Real"},{"key":"10224764","name":"Badiweg","postalCode":"9230","locality":"Flawil","commune":{"key":"3402","name":"Flawil","shortName":"Flawil"},"district":{"key":"1728","name":"Wahlkreis Wil"},"canton":{"key":"17","code":"SG","name":"St. Gallen"},"status":"Real"},{"key":"10025447","name":"Badstrasse","postalCode":"9230","locality":"Flawil","commune":{"key":"3402","name":"Flawil","shortName":"Flawil"},"district":{"key":"1728","name":"Wahlkreis Wil"},"canton":{"key":"17","code":"SG","name":"St. Gallen"},"status":"Real"},{"key":"10155783","name":"Bahnhofplatz","postalCode":"9230","locality":"Flawil","commune":{"key":"3402","name":"Flawil","shortName":"Flawil"},"district":{"key":"1728","name":"Wahlkreis Wil"},"canton":{"key":"17","code":"SG","name":"St. Gallen"},"status":"Real"},{"key":"10091361","name":"Bahnhofstrasse","postalCode":"9230","locality":"Flawil","commune":{"key":"3402","name":"Flawil","shortName":"Flawil"},"district":{"key":"1728","name":"Wahlkreis Wil"},"canton":{"key":"17","code":"SG","name":"St. Gallen"},"status":"Real"},{"key":"10257910","name":"Bahnhofunterführung","postalCode":"9230","locality":"Flawil","commune":{"key":"3402","name":"Flawil","shortName":"Flawil"},"district":{"key":"1728","name":"Wahlkreis Wil"},"canton":{"key":"17","code":"SG","name":"St. Gallen"},"status":"Real"},{"key":"10025448","name":"Bauernweid","postalCode":"9230","locality":"Flawil","commune":{"key":"3402","name":"Flawil","shortName":"Flawil"},"district":{"key":"1728","name":"Wahlkreis Wil"},"canton":{"key":"17","code":"SG","name":"St. Gallen"},"status":"Real"},{"key":"10224768","name":"Bauernweidweg","postalCode":"9230","locality":"Flawil","commune":{"key":"3402","name":"Flawil","shortName":"Flawil"},"district":{"key":"1728","name":"Wahlkreis Wil"},"canton":{"key":"17","code":"SG","name":"St. Gallen"},"status":"Real"},{"key":"10224772","name":"Baumschulweg","postalCode":"9230","locality":"Flawil","commune":{"key":"3402","name":"Flawil","shortName":"Flawil"},"district":{"key":"1728","name":"Wahlkreis Wil"},"canton":{"key":"17","code":"SG","name":"St. Gallen"},"status":"Real"},{"key":"10181946","name":"Bergstrasse","postalCode":"9230","locality":"Flawil","commune":{"key":"3402","name":"Flawil","shortName":"Flawil"},"district":{"key":"1728","name":"Wahlkreis Wil"},"canton":{"key":"17","code":"SG","name":"St. Gallen"},"status":"Real"},{"key":"10069261","name":"Bienenstrasse","postalCode":"9230","locality":"Flawil","commune":{"key":"3402","name":"Flawil","shortName":"Flawil"},"district":{"key":"1728","name":"Wahlkreis Wil"},"canton":{"key":"17","code":"SG","name":"St. Gallen"},"status":"Real"},{"key":"10025449","name":"Birkenstrasse","postalCode":"9230","locality":"Flawil","commune":{"key":"3402","name":"Flawil","shortName":"Flawil"},"district":{"key":"1728","name":"Wahlkreis Wil"},"canton":{"key":"17","code":"SG","name":"St. Gallen"},"status":"Real"},{"key":"10224776","name":"Birkenweg","postalCode":"9230","locality":"Flawil","commune":{"key":"3402","name":"Flawil","shortName":"Flawil"},"district":{"key":"1728","name":"Wahlkreis Wil"},"canton":{"key":"17","code":"SG","name":"St. Gallen"},"status":"Real"},{"key":"10123604","name":"Blumenaustrasse","postalCode":"9230","locality":"Flawil","commune":{"key":"3402","name":"Flawil","shortName":"Flawil"},"district":{"key":"1728","name":"Wahlkreis Wil"},"canton":{"key":"17","code":"SG","name":"St. Gallen"},"status":"Real"},{"key":"10091363","name":"Böden","postalCode":"9230","locality":"Flawil","commune":{"key":"3402","name":"Flawil","shortName":"Flawil"},"district":{"key":"1728","name":"Wahlkreis Wil"},"canton":{"key":"17","code":"SG","name":"St. Gallen"},"status":"Real"},{"key":"10091362","name":"Bogenstrasse","postalCode":"9230","locality":"Flawil","commune":{"key":"3402","name":"Flawil","shortName":"Flawil"},"district":{"key":"1728","name":"Wahlkreis Wil"},"canton":{"key":"17","code":"SG","name":"St. Gallen"},"status":"Real"},{"key":"10191345","name":"Böhl","postalCode":"9231","locality":"Egg (Flawil)","commune":{"key":"3402","name":"Flawil","shortName":"Flawil"},"district":{"key":"1728","name":"Wahlkreis Wil"},"canton":{"key":"17","code":"SG","name":"St. Gallen"},"status":"Real"},{"key":"10224780","name":"Böhlstrasse","postalCode":"9231","locality":"Egg (Flawil)","commune":{"key":"3402","name":"Flawil","shortName":"Flawil"},"district":{"key":"1728","name":"Wahlkreis Wil"},"canton":{"key":"17","code":"SG","name":"St. Gallen"},"status":"Real"},{"key":"10134038","name":"Böschenweg","postalCode":"9230","locality":"Flawil","commune":{"key":"3402","name":"Flawil","shortName":"Flawil"},"district":{"key":"1728","name":"Wahlkreis Wil"},"canton":{"key":"17","code":"SG","name":"St. Gallen"},"status":"Real"},{"key":"10163537","name":"Botsberg","postalCode":"9230","locality":"Flawil","commune":{"key":"3402","name":"Flawil","shortName":"Flawil"},"district":{"key":"1728","name":"Wahlkreis Wil"},"canton":{"key":"17","code":"SG","name":"St. Gallen"},"status":"Real"},{"key":"10105458","name":"Botsbergerriet","postalCode":"9230","locality":"Flawil","commune":{"key":"3402","name":"Flawil","shortName":"Flawil"},"district":{"key":"1728","name":"Wahlkreis Wil"},"canton":{"key":"17","code":"SG","name":"St. Gallen"},"status":"Real"},{"key":"10224784","name":"Botsbergerrietstrasse","postalCode":"9230","locality":"Flawil","commune":{"key":"3402","name":"Flawil","shortName":"Flawil"},"district":{"key":"1728","name":"Wahlkreis Wil"},"canton":{"key":"17","code":"SG","name":"St. Gallen"},"status":"Real"},{"key":"10250656","name":"Botsbergerrietweg","postalCode":"9230","locality":"Flawil","commune":{"key":"3402","name":"Flawil","shortName":"Flawil"},"district":{"key":"1728","name":"Wahlkreis Wil"},"canton":{"key":"17","code":"SG","name":"St. Gallen"},"status":"Real"},{"key":"10232079","name":"Botsberg-Rüti-Obertobel","postalCode":"9230","locality":"Flawil","commune":{"key":"3402","name":"Flawil","shortName":"Flawil"},"district":{"key":"1728","name":"Wahlkreis Wil"},"canton":{"key":"17","code":"SG","name":"St. Gallen"},"status":"Real"},{"key":"10025450","name":"Brunnmattstrasse","postalCode":"9230","locality":"Flawil","commune":{"key":"3402","name":"Flawil","shortName":"Flawil"},"district":{"key":"1728","name":"Wahlkreis Wil"},"canton":{"key":"17","code":"SG","name":"St. Gallen"},"status":"Real"},{"key":"10181981","name":"Bubental","postalCode":"9230","locality":"Flawil","commune":{"key":"3402","name":"Flawil","shortName":"Flawil"},"district":{"key":"1728","name":"Wahlkreis Wil"},"canton":{"key":"17","code":"SG","name":"St. Gallen"},"status":"Real"},{"key":"10224788","name":"Bubentalweg","postalCode":"9230","locality":"Flawil","commune":{"key":"3402","name":"Flawil","shortName":"Flawil"},"district":{"key":"1728","name":"Wahlkreis Wil"},"canton":{"key":"17","code":"SG","name":"St. Gallen"},"status":"Real"},{"key":"10025159","name":"Buebental","postalCode":"9230","locality":"Flawil","commune":{"key":"3402","name":"Flawil","shortName":"Flawil"},"district":{"key":"1728","name":"Wahlkreis Wil"},"canton":{"key":"17","code":"SG","name":"St. Gallen"},"status":"Real"},{"key":"10228428","name":"Buebental-Botsberg","postalCode":"9230","locality":"Flawil","commune":{"key":"3402","name":"Flawil","shortName":"Flawil"},"district":{"key":"1728","name":"Wahlkreis Wil"},"canton":{"key":"17","code":"SG","name":"St. Gallen"},"status":"Real"},{"key":"10228432","name":"Buebental-Chatzensteig","postalCode":"9230","locality":"Flawil","commune":{"key":"3402","name":"Flawil","shortName":"Flawil"},"district":{"key":"1728","name":"Wahlkreis Wil"},"canton":{"key":"17","code":"SG","name":"St. Gallen"},"status":"Real"},{"key":"10228436","name":"Buebentalstrasse","postalCode":"9230","locality":"Flawil","commune":{"key":"3402","name":"Flawil","shortName":"Flawil"},"district":{"key":"1728","name":"Wahlkreis Wil"},"canton":{"key":"17","code":"SG","name":"St. Gallen"},"status":"Real"},{"key":"10224792","name":"Buechenwaldweg","postalCode":"9230","locality":"Flawil","commune":{"key":"3402","name":"Flawil","shortName":"Flawil"},"district":{"key":"1728","name":"Wahlkreis Wil"},"canton":{"key":"17","code":"SG","name":"St. Gallen"},"status":"Real"},{"key":"10224796","name":"Buechholzgasse","postalCode":"9231","locality":"Egg (Flawil)","commune":{"key":"3402","name":"Flawil","shortName":"Flawil"},"district":{"key":"1728","name":"Wahlkreis Wil"},"canton":{"key":"17","code":"SG","name":"St. Gallen"},"status":"Real"},{"key":"10102909","name":"Büelwis","postalCode":"9230","locality":"Flawil","commune":{"key":"3402","name":"Flawil","shortName":"Flawil"},"district":{"key":"1728","name":"Wahlkreis Wil"},"canton":{"key":"17","code":"SG","name":"St. Gallen"},"status":"Real"},{"key":"10224800","name":"Büelwisweg","postalCode":"9230","locality":"Flawil","commune":{"key":"3402","name":"Flawil","shortName":"Flawil"},"district":{"key":"1728","name":"Wahlkreis Wil"},"canton":{"key":"17","code":"SG","name":"St. Gallen"},"status":"Real"},{"key":"10025497","name":"Burg","postalCode":"9231","locality":"Egg (Flawil)","commune":{"key":"3402","name":"Flawil","shortName":"Flawil"},"district":{"key":"1728","name":"Wahlkreis Wil"},"canton":{"key":"17","code":"SG","name":"St. Gallen"},"status":"Real"},{"key":"10025451","name":"Burgau","postalCode":"9230","locality":"Flawil","commune":{"key":"3402","name":"Flawil","shortName":"Flawil"},"district":{"key":"1728","name":"Wahlkreis Wil"},"canton":{"key":"17","code":"SG","name":"St. Gallen"},"status":"Real"},{"key":"10069262","name":"Burgauerfeld","postalCode":"9230","locality":"Flawil","commune":{"key":"3402","name":"Flawil","shortName":"Flawil"},"district":{"key":"1728","name":"Wahlkreis Wil"},"canton":{"key":"17","code":"SG","name":"St. Gallen"},"status":"Real"},{"key":"10109164","name":"Burgauerstrasse","postalCode":"9230","locality":"Flawil","commune":{"key":"3402","name":"Flawil","shortName":"Flawil"},"district":{"key":"1728","name":"Wahlkreis Wil"},"canton":{"key":"17","code":"SG","name":"St. Gallen"},"status":"Real"},{"key":"10224804","name":"Burgweg","postalCode":"9231","locality":"Egg (Flawil)","commune":{"key":"3402","name":"Flawil","shortName":"Flawil"},"district":{"key":"1728","name":"Wahlkreis Wil"},"canton":{"key":"17","code":"SG","name":"St. Gallen"},"status":"Real"},{"key":"10057196","name":"Burgwis","postalCode":"9231","locality":"Egg (Flawil)","commune":{"key":"3402","name":"Flawil","shortName":"Flawil"},"district":{"key":"1728","name":"Wahlkreis Wil"},"canton":{"key":"17","code":"SG","name":"St. Gallen"},"status":"Real"},{"key":"10224808","name":"Buure-Weg","postalCode":"9230","locality":"Flawil","commune":{"key":"3402","name":"Flawil","shortName":"Flawil"},"district":{"key":"1728","name":"Wahlkreis Wil"},"canton":{"key":"17","code":"SG","name":"St. Gallen"},"status":"Real"},{"key":"10224812","name":"Chatzenlochweg","postalCode":"9230","locality":"Flawil","commune":{"key":"3402","name":"Flawil","shortName":"Flawil"},"district":{"key":"1728","name":"Wahlkreis Wil"},"canton":{"key":"17","code":"SG","name":"St. Gallen"},"status":"Real"},{"key":"10224816","name":"Chleeweg","postalCode":"9230","locality":"Flawil","commune":{"key":"3402","name":"Flawil","shortName":"Flawil"},"district":{"key":"1728","name":"Wahlkreis Wil"},"canton":{"key":"17","code":"SG","name":"St. Gallen"},"status":"Real"},{"key":"10025452","name":"Chräzeren","postalCode":"9230","locality":"Flawil","commune":{"key":"3402","name":"Flawil","shortName":"Flawil"},"district":{"key":"1728","name":"Wahlkreis Wil"},"canton":{"key":"17","code":"SG","name":"St. Gallen"},"status":"Real"},{"key":"10230539","name":"Columbanstrasse","postalCode":"9230","locality":"Flawil","commune":{"key":"3402","name":"Flawil","shortName":"Flawil"},"district":{"key":"1728","name":"Wahlkreis Wil"},"canton":{"key":"17","code":"SG","name":"St. Gallen"},"status":"Real"},{"key":"10230543","name":"Columbanweg","postalCode":"9230","locality":"Flawil","commune":{"key":"3402","name":"Flawil","shortName":"Flawil"},"district":{"key":"1728","name":"Wahlkreis Wil"},"canton":{"key":"17","code":"SG","name":"St. Gallen"},"status":"Real"},{"key":"10025453","name":"Dammstrasse","postalCode":"9230","locality":"Flawil","commune":{"key":"3402","name":"Flawil","shortName":"Flawil"},"district":{"key":"1728","name":"Wahlkreis Wil"},"canton":{"key":"17","code":"SG","name":"St. Gallen"},"status":"Real"},{"key":"10106802","name":"Degersheimerstrasse","postalCode":"9230","locality":"Flawil","commune":{"key":"3402","name":"Flawil","shortName":"Flawil"},"district":{"key":"1728","name":"Wahlkreis Wil"},"canton":{"key":"17","code":"SG","name":"St. Gallen"},"status":"Real"},{"key":"10250953","name":"Divisionsweg","postalCode":"9230","locality":"Flawil","commune":{"key":"3402","name":"Flawil","shortName":"Flawil"},"district":{"key":"1728","name":"Wahlkreis Wil"},"canton":{"key":"17","code":"SG","name":"St. Gallen"},"status":"Real"},{"key":"10091364","name":"Ebni","postalCode":"9230","locality":"Flawil","commune":{"key":"3402","name":"Flawil","shortName":"Flawil"},"district":{"key":"1728","name":"Wahlkreis Wil"},"canton":{"key":"17","code":"SG","name":"St. Gallen"},"status":"Real"},{"key":"10230550","name":"Edelhirschweg","postalCode":"9230","locality":"Flawil","commune":{"key":"3402","name":"Flawil","shortName":"Flawil"},"district":{"key":"1728","name":"Wahlkreis Wil"},"canton":{"key":"17","code":"SG","name":"St. Gallen"},"status":"Real"},{"key":"10024211","name":"Edelmatt","postalCode":"9230","locality":"Flawil","commune":{"key":"3402","name":"Flawil","shortName":"Flawil"},"district":{"key":"1728","name":"Wahlkreis Wil"},"canton":{"key":"17","code":"SG","name":"St. Gallen"},"status":"Real"},{"key":"10058733","name":"Egg","postalCode":"9231","locality":"Egg (Flawil)","commune":{"key":"3402","name":"Flawil","shortName":"Flawil"},"district":{"key":"1728","name":"Wahlkreis Wil"},"canton":{"key":"17","code":"SG","name":"St. Gallen"},"status":"Real"},{"key":"10255657","name":"Eggberg","postalCode":"9231","locality":"Egg (Flawil)","commune":{"key":"3402","name":"Flawil","shortName":"Flawil"},"district":{"key":"1728","name":"Wahlkreis Wil"},"canton":{"key":"17","code":"SG","name":"St. Gallen"},"status":"Real"},{"key":"10249892","name":"Eggbergstrasse","postalCode":"9231","locality":"Egg (Flawil)","commune":{"key":"3402","name":"Flawil","shortName":"Flawil"},"district":{"key":"1728","name":"Wahlkreis Wil"},"canton":{"key":"17","code":"SG","name":"St. Gallen"},"status":"Real"},{"key":"10091382","name":"Egghalde","postalCode":"9231","locality":"Egg (Flawil)","commune":{"key":"3402","name":"Flawil","shortName":"Flawil"},"district":{"key":"1728","name":"Wahlkreis Wil"},"canton":{"key":"17","code":"SG","name":"St. Gallen"},"status":"Real"},{"key":"10025498","name":"Eggstatt","postalCode":"9231","locality":"Egg (Flawil)","commune":{"key":"3402","name":"Flawil","shortName":"Flawil"},"district":{"key":"1728","name":"Wahlkreis Wil"},"canton":{"key":"17","code":"SG","name":"St. Gallen"},"status":"Real"},{"key":"10249901","name":"Eggstattstrasse","postalCode":"9231","locality":"Egg (Flawil)","commune":{"key":"3402","name":"Flawil","shortName":"Flawil"},"district":{"key":"1728","name":"Wahlkreis Wil"},"canton":{"key":"17","code":"SG","name":"St. Gallen"},"status":"Real"},{"key":"10224838","name":"Eggstrasse","postalCode":"9230","locality":"Flawil","commune":{"key":"3402","name":"Flawil","shortName":"Flawil"},"district":{"key":"1728","name":"Wahlkreis Wil"},"canton":{"key":"17","code":"SG","name":"St. Gallen"},"status":"Real"},{"key":"10224838","name":"Eggstrasse","postalCode":"9231","locality":"Egg (Flawil)","commune":{"key":"3402","name":"Flawil","shortName":"Flawil"},"district":{"key":"1728","name":"Wahlkreis Wil"},"canton":{"key":"17","code":"SG","name":"St. Gallen"},"status":"Real"},{"key":"10233704","name":"Eggweg","postalCode":"9231","locality":"Egg (Flawil)","commune":{"key":"3402","name":"Flawil","shortName":"Flawil"},"district":{"key":"1728","name":"Wahlkreis Wil"},"canton":{"key":"17","code":"SG","name":"St. Gallen"},"status":"Real"},{"key":"10125601","name":"Eigenburg","postalCode":"9230","locality":"Flawil","commune":{"key":"3402","name":"Flawil","shortName":"Flawil"},"district":{"key":"1728","name":"Wahlkreis Wil"},"canton":{"key":"17","code":"SG","name":"St. Gallen"},"status":"Real"},{"key":"10233708","name":"Eigenburgweg","postalCode":"9230","locality":"Flawil","commune":{"key":"3402","name":"Flawil","shortName":"Flawil"},"district":{"key":"1728","name":"Wahlkreis Wil"},"canton":{"key":"17","code":"SG","name":"St. Gallen"},"status":"Real"},{"key":"10233708","name":"Eigenburgweg","postalCode":"9231","locality":"Egg (Flawil)","commune":{"key":"3402","name":"Flawil","shortName":"Flawil"},"district":{"key":"1728","name":"Wahlkreis Wil"},"canton":{"key":"17","code":"SG","name":"St. Gallen"},"status":"Real"},{"key":"10191055","name":"Eisbahnweg","postalCode":"9230","locality":"Flawil","commune":{"key":"3402","name":"Flawil","shortName":"Flawil"},"district":{"key":"1728","name":"Wahlkreis Wil"},"canton":{"key":"17","code":"SG","name":"St. Gallen"},"status":"Real"},{"key":"10181947","name":"Enzenbühlstrasse","postalCode":"9230","locality":"Flawil","commune":{"key":"3402","name":"Flawil","shortName":"Flawil"},"district":{"key":"1728","name":"Wahlkreis Wil"},"canton":{"key":"17","code":"SG","name":"St. Gallen"},"status":"Real"},{"key":"10091365","name":"Erlenstrasse","postalCode":"9230","locality":"Flawil","commune":{"key":"3402","name":"Flawil","shortName":"Flawil"},"district":{"key":"1728","name":"Wahlkreis Wil"},"canton":{"key":"17","code":"SG","name":"St. Gallen"},"status":"Real"},{"key":"10025454","name":"Feldhofstrasse","postalCode":"9230","locality":"Flawil","commune":{"key":"3402","name":"Flawil","shortName":"Flawil"},"district":{"key":"1728","name":"Wahlkreis Wil"},"canton":{"key":"17","code":"SG","name":"St. Gallen"},"status":"Real"},{"key":"10257911","name":"Feldhofunterführung","postalCode":"9230","locality":"Flawil","commune":{"key":"3402","name":"Flawil","shortName":"Flawil"},"district":{"key":"1728","name":"Wahlkreis Wil"},"canton":{"key":"17","code":"SG","name":"St. Gallen"},"status":"Real"},{"key":"10158713","name":"Fichtenstrasse","postalCode":"9230","locality":"Flawil","commune":{"key":"3402","name":"Flawil","shortName":"Flawil"},"district":{"key":"1728","name":"Wahlkreis Wil"},"canton":{"key":"17","code":"SG","name":"St. Gallen"},"status":"Real"},{"key":"10024231","name":"Flawilerstrasse","postalCode":"9230","locality":"Flawil","commune":{"key":"3402","name":"Flawil","shortName":"Flawil"},"district":{"key":"1728","name":"Wahlkreis Wil"},"canton":{"key":"17","code":"SG","name":"St. Gallen"},"status":"Real"},{"key":"10250927","name":"Flawilerstrasse","postalCode":"9230","locality":"Flawil","commune":{"key":"3402","name":"Flawil","shortName":"Flawil"},"district":{"key":"1728","name":"Wahlkreis Wil"},"canton":{"key":"17","code":"SG","name":"St. Gallen"},"status":"Real"},{"key":"10114413","name":"Florastrasse","postalCode":"9230","locality":"Flawil","commune":{"key":"3402","name":"Flawil","shortName":"Flawil"},"district":{"key":"1728","name":"Wahlkreis Wil"},"canton":{"key":"17","code":"SG","name":"St. Gallen"},"status":"Real"},{"key":"10025455","name":"Fohlenweg","postalCode":"9230","locality":"Flawil","commune":{"key":"3402","name":"Flawil","shortName":"Flawil"},"district":{"key":"1728","name":"Wahlkreis Wil"},"canton":{"key":"17","code":"SG","name":"St. Gallen"},"status":"Real"},{"key":"10184851","name":"Freudenberg","postalCode":"9230","locality":"Flawil","commune":{"key":"3402","name":"Flawil","shortName":"Flawil"},"district":{"key":"1728","name":"Wahlkreis Wil"},"canton":{"key":"17","code":"SG","name":"St. Gallen"},"status":"Real"},{"key":"10233712","name":"Freudenbergweg","postalCode":"9230","locality":"Flawil","commune":{"key":"3402","name":"Flawil","shortName":"Flawil"},"district":{"key":"1728","name":"Wahlkreis Wil"},"canton":{"key":"17","code":"SG","name":"St. Gallen"},"status":"Real"},{"key":"10128810","name":"Friedbergstrasse","postalCode":"9230","locality":"Flawil","commune":{"key":"3402","name":"Flawil","shortName":"Flawil"},"district":{"key":"1728","name":"Wahlkreis Wil"},"canton":{"key":"17","code":"SG","name":"St. Gallen"},"status":"Real"},{"key":"10233716","name":"Friedbergweg","postalCode":"9230","locality":"Flawil","commune":{"key":"3402","name":"Flawil","shortName":"Flawil"},"district":{"key":"1728","name":"Wahlkreis Wil"},"canton":{"key":"17","code":"SG","name":"St. Gallen"},"status":"Real"},{"key":"10233720","name":"Fuhrhalterweg","postalCode":"9230","locality":"Flawil","commune":{"key":"3402","name":"Flawil","shortName":"Flawil"},"district":{"key":"1728","name":"Wahlkreis Wil"},"canton":{"key":"17","code":"SG","name":"St. Gallen"},"status":"Real"},{"key":"10025456","name":"Gartenweg","postalCode":"9230","locality":"Flawil","commune":{"key":"3402","name":"Flawil","shortName":"Flawil"},"district":{"key":"1728","name":"Wahlkreis Wil"},"canton":{"key":"17","code":"SG","name":"St. Gallen"},"status":"Real"},{"key":"10114467","name":"Gehrenstrasse","postalCode":"9230","locality":"Flawil","commune":{"key":"3402","name":"Flawil","shortName":"Flawil"},"district":{"key":"1728","name":"Wahlkreis Wil"},"canton":{"key":"17","code":"SG","name":"St. Gallen"},"status":"Real"},{"key":"10106110","name":"Geren","postalCode":"9230","locality":"Flawil","commune":{"key":"3402","name":"Flawil","shortName":"Flawil"},"district":{"key":"1728","name":"Wahlkreis Wil"},"canton":{"key":"17","code":"SG","name":"St. Gallen"},"status":"Real"},{"key":"10233724","name":"Gielenstrasse","postalCode":"9230","locality":"Flawil","commune":{"key":"3402","name":"Flawil","shortName":"Flawil"},"district":{"key":"1728","name":"Wahlkreis Wil"},"canton":{"key":"17","code":"SG","name":"St. Gallen"},"status":"Real"},{"key":"10025457","name":"Giren","postalCode":"9230","locality":"Flawil","commune":{"key":"3402","name":"Flawil","shortName":"Flawil"},"district":{"key":"1728","name":"Wahlkreis Wil"},"canton":{"key":"17","code":"SG","name":"St. Gallen"},"status":"Real"},{"key":"10106119","name":"Girenmoos","postalCode":"9230","locality":"Flawil","commune":{"key":"3402","name":"Flawil","shortName":"Flawil"},"district":{"key":"1728","name":"Wahlkreis Wil"},"canton":{"key":"17","code":"SG","name":"St. Gallen"},"status":"Real"},{"key":"10233728","name":"Girenmoosstrasse","postalCode":"9230","locality":"Flawil","commune":{"key":"3402","name":"Flawil","shortName":"Flawil"},"district":{"key":"1728","name":"Wahlkreis Wil"},"canton":{"key":"17","code":"SG","name":"St. Gallen"},"status":"Real"},{"key":"10233732","name":"Girenmoosweg","postalCode":"9230","locality":"Flawil","commune":{"key":"3402","name":"Flawil","shortName":"Flawil"},"district":{"key":"1728","name":"Wahlkreis Wil"},"canton":{"key":"17","code":"SG","name":"St. Gallen"},"status":"Real"},{"key":"10233736","name":"Girenweg","postalCode":"9230","locality":"Flawil","commune":{"key":"3402","name":"Flawil","shortName":"Flawil"},"district":{"key":"1728","name":"Wahlkreis Wil"},"canton":{"key":"17","code":"SG","name":"St. Gallen"},"status":"Real"},{"key":"10250660","name":"Glattalstrasse","postalCode":"9230","locality":"Flawil","commune":{"key":"3402","name":"Flawil","shortName":"Flawil"},"district":{"key":"1728","name":"Wahlkreis Wil"},"canton":{"key":"17","code":"SG","name":"St. Gallen"},"status":"Real"},{"key":"10227291","name":"Glattalweg","postalCode":"9230","locality":"Flawil","commune":{"key":"3402","name":"Flawil","shortName":"Flawil"},"district":{"key":"1728","name":"Wahlkreis Wil"},"canton":{"key":"17","code":"SG","name":"St. Gallen"},"status":"Real"},{"key":"10233740","name":"Glattalweg","postalCode":"9230","locality":"Flawil","commune":{"key":"3402","name":"Flawil","shortName":"Flawil"},"district":{"key":"1728","name":"Wahlkreis Wil"},"canton":{"key":"17","code":"SG","name":"St. Gallen"},"status":"Real"},{"key":"10233744","name":"Glattburgweg","postalCode":"9230","locality":"Flawil","commune":{"key":"3402","name":"Flawil","shortName":"Flawil"},"district":{"key":"1728","name":"Wahlkreis Wil"},"canton":{"key":"17","code":"SG","name":"St. Gallen"},"status":"Real"},{"key":"10069263","name":"Glatthaldestrasse","postalCode":"9230","locality":"Flawil","commune":{"key":"3402","name":"Flawil","shortName":"Flawil"},"district":{"key":"1728","name":"Wahlkreis Wil"},"canton":{"key":"17","code":"SG","name":"St. Gallen"},"status":"Real"},{"key":"10070510","name":"Glatttal","postalCode":"9230","locality":"Flawil","commune":{"key":"3402","name":"Flawil","shortName":"Flawil"},"district":{"key":"1728","name":"Wahlkreis Wil"},"canton":{"key":"17","code":"SG","name":"St. Gallen"},"status":"Real"},{"key":"10233748","name":"Glattweiherweg","postalCode":"9230","locality":"Flawil","commune":{"key":"3402","name":"Flawil","shortName":"Flawil"},"district":{"key":"1728","name":"Wahlkreis Wil"},"canton":{"key":"17","code":"SG","name":"St. Gallen"},"status":"Real"},{"key":"10233748","name":"Glattweiherweg","postalCode":"9231","locality":"Egg (Flawil)","commune":{"key":"3402","name":"Flawil","shortName":"Flawil"},"district":{"key":"1728","name":"Wahlkreis Wil"},"canton":{"key":"17","code":"SG","name":"St. Gallen"},"status":"Real"},{"key":"10025458","name":"Goldbachweg","postalCode":"9230","locality":"Flawil","commune":{"key":"3402","name":"Flawil","shortName":"Flawil"},"district":{"key":"1728","name":"Wahlkreis Wil"},"canton":{"key":"17","code":"SG","name":"St. Gallen"},"status":"Real"},{"key":"10025459","name":"Grobenentschwil","postalCode":"9230","locality":"Flawil","commune":{"key":"3402","name":"Flawil","shortName":"Flawil"},"district":{"key":"1728","name":"Wahlkreis Wil"},"canton":{"key":"17","code":"SG","name":"St. Gallen"},"status":"Real"},{"key":"10233752","name":"Grobenentschwilerstrasse","postalCode":"9230","locality":"Flawil","commune":{"key":"3402","name":"Flawil","shortName":"Flawil"},"district":{"key":"1728","name":"Wahlkreis Wil"},"canton":{"key":"17","code":"SG","name":"St. Gallen"},"status":"Real"},{"key":"10190481","name":"Grubenstrasse","postalCode":"9230","locality":"Flawil","commune":{"key":"3402","name":"Flawil","shortName":"Flawil"},"district":{"key":"1728","name":"Wahlkreis Wil"},"canton":{"key":"17","code":"SG","name":"St. Gallen"},"status":"Real"},{"key":"10169080","name":"Grueben","postalCode":"9230","locality":"Flawil","commune":{"key":"3402","name":"Flawil","shortName":"Flawil"},"district":{"key":"1728","name":"Wahlkreis Wil"},"canton":{"key":"17","code":"SG","name":"St. Gallen"},"status":"Real"},{"key":"10181948","name":"Grüenau","postalCode":"9230","locality":"Flawil","commune":{"key":"3402","name":"Flawil","shortName":"Flawil"},"district":{"key":"1728","name":"Wahlkreis Wil"},"canton":{"key":"17","code":"SG","name":"St. Gallen"},"status":"Real"},{"key":"10233756","name":"Grünauweg","postalCode":"9230","locality":"Flawil","commune":{"key":"3402","name":"Flawil","shortName":"Flawil"},"district":{"key":"1728","name":"Wahlkreis Wil"},"canton":{"key":"17","code":"SG","name":"St. Gallen"},"status":"Real"},{"key":"10132567","name":"Grundstrasse","postalCode":"9230","locality":"Flawil","commune":{"key":"3402","name":"Flawil","shortName":"Flawil"},"district":{"key":"1728","name":"Wahlkreis Wil"},"canton":{"key":"17","code":"SG","name":"St. Gallen"},"status":"Real"},{"key":"10191355","name":"Güllwies","postalCode":"9230","locality":"Flawil","commune":{"key":"3402","name":"Flawil","shortName":"Flawil"},"district":{"key":"1728","name":"Wahlkreis Wil"},"canton":{"key":"17","code":"SG","name":"St. Gallen"},"status":"Real"},{"key":"10232170","name":"Güllwies-Aesch-Rudlen","postalCode":"9230","locality":"Flawil","commune":{"key":"3402","name":"Flawil","shortName":"Flawil"},"district":{"key":"1728","name":"Wahlkreis Wil"},"canton":{"key":"17","code":"SG","name":"St. Gallen"},"status":"Real"},{"key":"10110896","name":"Gupfengasse","postalCode":"9230","locality":"Flawil","commune":{"key":"3402","name":"Flawil","shortName":"Flawil"},"district":{"key":"1728","name":"Wahlkreis Wil"},"canton":{"key":"17","code":"SG","name":"St. Gallen"},"status":"Real"},{"key":"10233764","name":"Gupfenweg","postalCode":"9230","locality":"Flawil","commune":{"key":"3402","name":"Flawil","shortName":"Flawil"},"district":{"key":"1728","name":"Wahlkreis Wil"},"canton":{"key":"17","code":"SG","name":"St. Gallen"},"status":"Real"},{"key":"10025460","name":"Haldenstrasse","postalCode":"9230","locality":"Flawil","commune":{"key":"3402","name":"Flawil","shortName":"Flawil"},"district":{"key":"1728","name":"Wahlkreis Wil"},"canton":{"key":"17","code":"SG","name":"St. Gallen"},"status":"Real"},{"key":"10069264","name":"Hammer","postalCode":"9231","locality":"Egg (Flawil)","commune":{"key":"3402","name":"Flawil","shortName":"Flawil"},"district":{"key":"1728","name":"Wahlkreis Wil"},"canton":{"key":"17","code":"SG","name":"St. Gallen"},"status":"Real"},{"key":"10233768","name":"Hammerstrasse","postalCode":"9231","locality":"Egg (Flawil)","commune":{"key":"3402","name":"Flawil","shortName":"Flawil"},"district":{"key":"1728","name":"Wahlkreis Wil"},"canton":{"key":"17","code":"SG","name":"St. Gallen"},"status":"Real"},{"key":"10232182","name":"Häuslen-Scheidweg","postalCode":"9230","locality":"Flawil","commune":{"key":"3402","name":"Flawil","shortName":"Flawil"},"district":{"key":"1728","name":"Wahlkreis Wil"},"canton":{"key":"17","code":"SG","name":"St. Gallen"},"status":"Real"},{"key":"10232185","name":"Heiligenschwil-Obertobel","postalCode":"9230","locality":"Flawil","commune":{"key":"3402","name":"Flawil","shortName":"Flawil"},"district":{"key":"1728","name":"Wahlkreis Wil"},"canton":{"key":"17","code":"SG","name":"St. Gallen"},"status":"Real"},{"key":"10233772","name":"Hennebächliweg","postalCode":"9231","locality":"Egg (Flawil)","commune":{"key":"3402","name":"Flawil","shortName":"Flawil"},"district":{"key":"1728","name":"Wahlkreis Wil"},"canton":{"key":"17","code":"SG","name":"St. Gallen"},"status":"Real"},{"key":"10106122","name":"Herrensberg","postalCode":"9230","locality":"Flawil","commune":{"key":"3402","name":"Flawil","shortName":"Flawil"},"district":{"key":"1728","name":"Wahlkreis Wil"},"canton":{"key":"17","code":"SG","name":"St. Gallen"},"status":"Real"},{"key":"10091366","name":"Herrensbergstrasse","postalCode":"9230","locality":"Flawil","commune":{"key":"3402","name":"Flawil","shortName":"Flawil"},"district":{"key":"1728","name":"Wahlkreis Wil"},"canton":{"key":"17","code":"SG","name":"St. Gallen"},"status":"Real"},{"key":"10233776","name":"Herrensbergweg","postalCode":"9230","locality":"Flawil","commune":{"key":"3402","name":"Flawil","shortName":"Flawil"},"district":{"key":"1728","name":"Wahlkreis Wil"},"canton":{"key":"17","code":"SG","name":"St. Gallen"},"status":"Real"},{"key":"10233780","name":"Hinterer Aastockweg","postalCode":"9230","locality":"Flawil","commune":{"key":"3402","name":"Flawil","shortName":"Flawil"},"district":{"key":"1728","name":"Wahlkreis Wil"},"canton":{"key":"17","code":"SG","name":"St. Gallen"},"status":"Real"},{"key":"10233784","name":"Hirschenweg","postalCode":"9231","locality":"Egg (Flawil)","commune":{"key":"3402","name":"Flawil","shortName":"Flawil"},"district":{"key":"1728","name":"Wahlkreis Wil"},"canton":{"key":"17","code":"SG","name":"St. Gallen"},"status":"Real"},{"key":"10025462","name":"Höhenstrasse","postalCode":"9230","locality":"Flawil","commune":{"key":"3402","name":"Flawil","shortName":"Flawil"},"district":{"key":"1728","name":"Wahlkreis Wil"},"canton":{"key":"17","code":"SG","name":"St. Gallen"},"status":"Real"},{"key":"10025461","name":"Hohlgasse","postalCode":"9230","locality":"Flawil","commune":{"key":"3402","name":"Flawil","shortName":"Flawil"},"district":{"key":"1728","name":"Wahlkreis Wil"},"canton":{"key":"17","code":"SG","name":"St. Gallen"},"status":"Real"},{"key":"10233788","name":"Hügelstrasse","postalCode":"9230","locality":"Flawil","commune":{"key":"3402","name":"Flawil","shortName":"Flawil"},"district":{"key":"1728","name":"Wahlkreis Wil"},"canton":{"key":"17","code":"SG","name":"St. Gallen"},"status":"Real"},{"key":"10191056","name":"Hügelweg","postalCode":"9230","locality":"Flawil","commune":{"key":"3402","name":"Flawil","shortName":"Flawil"},"district":{"key":"1728","name":"Wahlkreis Wil"},"canton":{"key":"17","code":"SG","name":"St. Gallen"},"status":"Real"},{"key":"10170107","name":"Im Annagarten","postalCode":"9230","locality":"Flawil","commune":{"key":"3402","name":"Flawil","shortName":"Flawil"},"district":{"key":"1728","name":"Wahlkreis Wil"},"canton":{"key":"17","code":"SG","name":"St. Gallen"},"status":"Real"},{"key":"10069265","name":"Isenhammer","postalCode":"9230","locality":"Flawil","commune":{"key":"3402","name":"Flawil","shortName":"Flawil"},"district":{"key":"1728","name":"Wahlkreis Wil"},"canton":{"key":"17","code":"SG","name":"St. Gallen"},"status":"Real"},{"key":"10057192","name":"Jägertal","postalCode":"9230","locality":"Flawil","commune":{"key":"3402","name":"Flawil","shortName":"Flawil"},"district":{"key":"1728","name":"Wahlkreis Wil"},"canton":{"key":"17","code":"SG","name":"St. Gallen"},"status":"Real"},{"key":"10233792","name":"Jägertalstrasse","postalCode":"9230","locality":"Flawil","commune":{"key":"3402","name":"Flawil","shortName":"Flawil"},"district":{"key":"1728","name":"Wahlkreis Wil"},"canton":{"key":"17","code":"SG","name":"St. Gallen"},"status":"Real"},{"key":"10233811","name":"Josefstrasse","postalCode":"9230","locality":"Flawil","commune":{"key":"3402","name":"Flawil","shortName":"Flawil"},"district":{"key":"1728","name":"Wahlkreis Wil"},"canton":{"key":"17","code":"SG","name":"St. Gallen"},"status":"Real"},{"key":"10091367","name":"Kanzleistrasse","postalCode":"9230","locality":"Flawil","commune":{"key":"3402","name":"Flawil","shortName":"Flawil"},"district":{"key":"1728","name":"Wahlkreis Wil"},"canton":{"key":"17","code":"SG","name":"St. Gallen"},"status":"Real"},{"key":"10233797","name":"Kanzleiweg","postalCode":"9230","locality":"Flawil","commune":{"key":"3402","name":"Flawil","shortName":"Flawil"},"district":{"key":"1728","name":"Wahlkreis Wil"},"canton":{"key":"17","code":"SG","name":"St. Gallen"},"status":"Real"},{"key":"10123591","name":"Kapellenweg","postalCode":"9230","locality":"Flawil","commune":{"key":"3402","name":"Flawil","shortName":"Flawil"},"district":{"key":"1728","name":"Wahlkreis Wil"},"canton":{"key":"17","code":"SG","name":"St. Gallen"},"status":"Real"},{"key":"10025463","name":"Kerbelring","postalCode":"9230","locality":"Flawil","commune":{"key":"3402","name":"Flawil","shortName":"Flawil"},"district":{"key":"1728","name":"Wahlkreis Wil"},"canton":{"key":"17","code":"SG","name":"St. Gallen"},"status":"Real"},{"key":"10233801","name":"Kirchgasse","postalCode":"9230","locality":"Flawil","commune":{"key":"3402","name":"Flawil","shortName":"Flawil"},"district":{"key":"1728","name":"Wahlkreis Wil"},"canton":{"key":"17","code":"SG","name":"St. Gallen"},"status":"Real"},{"key":"10233805","name":"Kirchhofgasse","postalCode":"9230","locality":"Flawil","commune":{"key":"3402","name":"Flawil","shortName":"Flawil"},"district":{"key":"1728","name":"Wahlkreis Wil"},"canton":{"key":"17","code":"SG","name":"St. Gallen"},"status":"Real"},{"key":"10233809","name":"Kirchhofweg","postalCode":"9230","locality":"Flawil","commune":{"key":"3402","name":"Flawil","shortName":"Flawil"},"district":{"key":"1728","name":"Wahlkreis Wil"},"canton":{"key":"17","code":"SG","name":"St. Gallen"},"status":"Real"},{"key":"10233813","name":"Kirchweg","postalCode":"9230","locality":"Flawil","commune":{"key":"3402","name":"Flawil","shortName":"Flawil"},"district":{"key":"1728","name":"Wahlkreis Wil"},"canton":{"key":"17","code":"SG","name":"St. Gallen"},"status":"Real"},{"key":"10106803","name":"Krankenhausstrasse","postalCode":"9230","locality":"Flawil","commune":{"key":"3402","name":"Flawil","shortName":"Flawil"},"district":{"key":"1728","name":"Wahlkreis Wil"},"canton":{"key":"17","code":"SG","name":"St. Gallen"},"status":"Real"},{"key":"10181949","name":"Kronbergstrasse","postalCode":"9230","locality":"Flawil","commune":{"key":"3402","name":"Flawil","shortName":"Flawil"},"district":{"key":"1728","name":"Wahlkreis Wil"},"canton":{"key":"17","code":"SG","name":"St. Gallen"},"status":"Real"},{"key":"10091368","name":"Kronenstrasse","postalCode":"9230","locality":"Flawil","commune":{"key":"3402","name":"Flawil","shortName":"Flawil"},"district":{"key":"1728","name":"Wahlkreis Wil"},"canton":{"key":"17","code":"SG","name":"St. Gallen"},"status":"Real"},{"key":"10025464","name":"Landberg","postalCode":"9230","locality":"Flawil","commune":{"key":"3402","name":"Flawil","shortName":"Flawil"},"district":{"key":"1728","name":"Wahlkreis Wil"},"canton":{"key":"17","code":"SG","name":"St. Gallen"},"status":"Real"},{"key":"10025465","name":"Landbergstrasse","postalCode":"9230","locality":"Flawil","commune":{"key":"3402","name":"Flawil","shortName":"Flawil"},"district":{"key":"1728","name":"Wahlkreis Wil"},"canton":{"key":"17","code":"SG","name":"St. Gallen"},"status":"Real"},{"key":"10233817","name":"Landbergweg","postalCode":"9230","locality":"Flawil","commune":{"key":"3402","name":"Flawil","shortName":"Flawil"},"district":{"key":"1728","name":"Wahlkreis Wil"},"canton":{"key":"17","code":"SG","name":"St. Gallen"},"status":"Real"},{"key":"10086179","name":"Langacker","postalCode":"9230","locality":"Flawil","commune":{"key":"3402","name":"Flawil","shortName":"Flawil"},"district":{"key":"1728","name":"Wahlkreis Wil"},"canton":{"key":"17","code":"SG","name":"St. Gallen"},"status":"Real"},{"key":"10025466","name":"Langenentschwil","postalCode":"9230","locality":"Flawil","commune":{"key":"3402","name":"Flawil","shortName":"Flawil"},"district":{"key":"1728","name":"Wahlkreis Wil"},"canton":{"key":"17","code":"SG","name":"St. Gallen"},"status":"Real"},{"key":"10069266","name":"Langmoos","postalCode":"9230","locality":"Flawil","commune":{"key":"3402","name":"Flawil","shortName":"Flawil"},"district":{"key":"1728","name":"Wahlkreis Wil"},"canton":{"key":"17","code":"SG","name":"St. Gallen"},"status":"Real"},{"key":"10233825","name":"Langmoosstrasse","postalCode":"9230","locality":"Flawil","commune":{"key":"3402","name":"Flawil","shortName":"Flawil"},"district":{"key":"1728","name":"Wahlkreis Wil"},"canton":{"key":"17","code":"SG","name":"St. Gallen"},"status":"Real"},{"key":"10025468","name":"Lärchenstrasse","postalCode":"9230","locality":"Flawil","commune":{"key":"3402","name":"Flawil","shortName":"Flawil"},"district":{"key":"1728","name":"Wahlkreis Wil"},"canton":{"key":"17","code":"SG","name":"St. Gallen"},"status":"Real"},{"key":"10117173","name":"Leehalde","postalCode":"9230","locality":"Flawil","commune":{"key":"3402","name":"Flawil","shortName":"Flawil"},"district":{"key":"1728","name":"Wahlkreis Wil"},"canton":{"key":"17","code":"SG","name":"St. Gallen"},"status":"Real"},{"key":"10233829","name":"Leehaldenstrasse","postalCode":"9230","locality":"Flawil","commune":{"key":"3402","name":"Flawil","shortName":"Flawil"},"district":{"key":"1728","name":"Wahlkreis Wil"},"canton":{"key":"17","code":"SG","name":"St. Gallen"},"status":"Real"},{"key":"10057193","name":"Lindenberg","postalCode":"9230","locality":"Flawil","commune":{"key":"3402","name":"Flawil","shortName":"Flawil"},"district":{"key":"1728","name":"Wahlkreis Wil"},"canton":{"key":"17","code":"SG","name":"St. Gallen"},"status":"Real"},{"key":"10249908","name":"Lindenbergweg","postalCode":"9230","locality":"Flawil","commune":{"key":"3402","name":"Flawil","shortName":"Flawil"},"district":{"key":"1728","name":"Wahlkreis Wil"},"canton":{"key":"17","code":"SG","name":"St. Gallen"},"status":"Real"},{"key":"10233837","name":"Lindeneggweg","postalCode":"9231","locality":"Egg (Flawil)","commune":{"key":"3402","name":"Flawil","shortName":"Flawil"},"district":{"key":"1728","name":"Wahlkreis Wil"},"canton":{"key":"17","code":"SG","name":"St. Gallen"},"status":"Real"},{"key":"10233841","name":"Lindenhofweg","postalCode":"9230","locality":"Flawil","commune":{"key":"3402","name":"Flawil","shortName":"Flawil"},"district":{"key":"1728","name":"Wahlkreis Wil"},"canton":{"key":"17","code":"SG","name":"St. Gallen"},"status":"Real"},{"key":"10025467","name":"Lindenstrasse","postalCode":"9230","locality":"Flawil","commune":{"key":"3402","name":"Flawil","shortName":"Flawil"},"district":{"key":"1728","name":"Wahlkreis Wil"},"canton":{"key":"17","code":"SG","name":"St. Gallen"},"status":"Real"},{"key":"10233845","name":"Lindenweg","postalCode":"9230","locality":"Flawil","commune":{"key":"3402","name":"Flawil","shortName":"Flawil"},"district":{"key":"1728","name":"Wahlkreis Wil"},"canton":{"key":"17","code":"SG","name":"St. Gallen"},"status":"Real"},{"key":"10165115","name":"Loch","postalCode":"9231","locality":"Egg (Flawil)","commune":{"key":"3402","name":"Flawil","shortName":"Flawil"},"district":{"key":"1728","name":"Wahlkreis Wil"},"canton":{"key":"17","code":"SG","name":"St. Gallen"},"status":"Real"},{"key":"10224982","name":"Lochweg","postalCode":"9231","locality":"Egg (Flawil)","commune":{"key":"3402","name":"Flawil","shortName":"Flawil"},"district":{"key":"1728","name":"Wahlkreis Wil"},"canton":{"key":"17","code":"SG","name":"St. Gallen"},"status":"Real"},{"key":"10091369","name":"Lörenstrasse","postalCode":"9230","locality":"Flawil","commune":{"key":"3402","name":"Flawil","shortName":"Flawil"},"district":{"key":"1728","name":"Wahlkreis Wil"},"canton":{"key":"17","code":"SG","name":"St. Gallen"},"status":"Real"},{"key":"10069267","name":"Lörenweg","postalCode":"9230","locality":"Flawil","commune":{"key":"3402","name":"Flawil","shortName":"Flawil"},"district":{"key":"1728","name":"Wahlkreis Wil"},"canton":{"key":"17","code":"SG","name":"St. Gallen"},"status":"Real"},{"key":"10025469","name":"Löwenstrasse","postalCode":"9230","locality":"Flawil","commune":{"key":"3402","name":"Flawil","shortName":"Flawil"},"district":{"key":"1728","name":"Wahlkreis Wil"},"canton":{"key":"17","code":"SG","name":"St. Gallen"},"status":"Real"},{"key":"10224986","name":"Löwenweg","postalCode":"9230","locality":"Flawil","commune":{"key":"3402","name":"Flawil","shortName":"Flawil"},"district":{"key":"1728","name":"Wahlkreis Wil"},"canton":{"key":"17","code":"SG","name":"St. Gallen"},"status":"Real"},{"key":"10224990","name":"Luegislandweg","postalCode":"9230","locality":"Flawil","commune":{"key":"3402","name":"Flawil","shortName":"Flawil"},"district":{"key":"1728","name":"Wahlkreis Wil"},"canton":{"key":"17","code":"SG","name":"St. Gallen"},"status":"Real"},{"key":"10166148","name":"Lutenberg","postalCode":"9230","locality":"Flawil","commune":{"key":"3402","name":"Flawil","shortName":"Flawil"},"district":{"key":"1728","name":"Wahlkreis Wil"},"canton":{"key":"17","code":"SG","name":"St. Gallen"},"status":"Real"},{"key":"10224993","name":"Lutenbergweg","postalCode":"9230","locality":"Flawil","commune":{"key":"3402","name":"Flawil","shortName":"Flawil"},"district":{"key":"1728","name":"Wahlkreis Wil"},"canton":{"key":"17","code":"SG","name":"St. Gallen"},"status":"Real"},{"key":"10046495","name":"Magdenauerstrasse","postalCode":"9230","locality":"Flawil","commune":{"key":"3402","name":"Flawil","shortName":"Flawil"},"district":{"key":"1728","name":"Wahlkreis Wil"},"canton":{"key":"17","code":"SG","name":"St. Gallen"},"status":"Real"},{"key":"10082101","name":"Marktplatz","postalCode":"9230","locality":"Flawil","commune":{"key":"3402","name":"Flawil","shortName":"Flawil"},"district":{"key":"1728","name":"Wahlkreis Wil"},"canton":{"key":"17","code":"SG","name":"St. Gallen"},"status":"Real"},{"key":"10225001","name":"Mathias Steigerstrasse","postalCode":"9230","locality":"Flawil","commune":{"key":"3402","name":"Flawil","shortName":"Flawil"},"district":{"key":"1728","name":"Wahlkreis Wil"},"canton":{"key":"17","code":"SG","name":"St. Gallen"},"status":"Real"},{"key":"10025470","name":"Mattenweg","postalCode":"9230","locality":"Flawil","commune":{"key":"3402","name":"Flawil","shortName":"Flawil"},"district":{"key":"1728","name":"Wahlkreis Wil"},"canton":{"key":"17","code":"SG","name":"St. Gallen"},"status":"Real"},{"key":"10091370","name":"Meierseggstrasse","postalCode":"9230","locality":"Flawil","commune":{"key":"3402","name":"Flawil","shortName":"Flawil"},"district":{"key":"1728","name":"Wahlkreis Wil"},"canton":{"key":"17","code":"SG","name":"St. Gallen"},"status":"Real"},{"key":"10191346","name":"Mettlenstrasse","postalCode":"9230","locality":"Flawil","commune":{"key":"3402","name":"Flawil","shortName":"Flawil"},"district":{"key":"1728","name":"Wahlkreis Wil"},"canton":{"key":"17","code":"SG","name":"St. Gallen"},"status":"Real"},{"key":"10186968","name":"Mittelgasse","postalCode":"9230","locality":"Flawil","commune":{"key":"3402","name":"Flawil","shortName":"Flawil"},"district":{"key":"1728","name":"Wahlkreis Wil"},"canton":{"key":"17","code":"SG","name":"St. Gallen"},"status":"Real"},{"key":"10250664","name":"Mittelgassweg","postalCode":"9230","locality":"Flawil","commune":{"key":"3402","name":"Flawil","shortName":"Flawil"},"district":{"key":"1728","name":"Wahlkreis Wil"},"canton":{"key":"17","code":"SG","name":"St. Gallen"},"status":"Real"},{"key":"10249920","name":"Mittlerbotsbergstrasse","postalCode":"9230","locality":"Flawil","commune":{"key":"3402","name":"Flawil","shortName":"Flawil"},"district":{"key":"1728","name":"Wahlkreis Wil"},"canton":{"key":"17","code":"SG","name":"St. Gallen"},"status":"Real"},{"key":"10181950","name":"Mittlerer Botsberg","postalCode":"9230","locality":"Flawil","commune":{"key":"3402","name":"Flawil","shortName":"Flawil"},"district":{"key":"1728","name":"Wahlkreis Wil"},"canton":{"key":"17","code":"SG","name":"St. Gallen"},"status":"Real"},{"key":"10025471","name":"Mühlebachstrasse","postalCode":"9230","locality":"Flawil","commune":{"key":"3402","name":"Flawil","shortName":"Flawil"},"district":{"key":"1728","name":"Wahlkreis Wil"},"canton":{"key":"17","code":"SG","name":"St. Gallen"},"status":"Real"},{"key":"10191057","name":"Mühlegasse","postalCode":"9230","locality":"Flawil","commune":{"key":"3402","name":"Flawil","shortName":"Flawil"},"district":{"key":"1728","name":"Wahlkreis Wil"},"canton":{"key":"17","code":"SG","name":"St. Gallen"},"status":"Real"},{"key":"10225005","name":"Müliweiherweg","postalCode":"9230","locality":"Flawil","commune":{"key":"3402","name":"Flawil","shortName":"Flawil"},"district":{"key":"1728","name":"Wahlkreis Wil"},"canton":{"key":"17","code":"SG","name":"St. Gallen"},"status":"Real"},{"key":"10091371","name":"Neuburg","postalCode":"9230","locality":"Flawil","commune":{"key":"3402","name":"Flawil","shortName":"Flawil"},"district":{"key":"1728","name":"Wahlkreis Wil"},"canton":{"key":"17","code":"SG","name":"St. Gallen"},"status":"Real"},{"key":"10225009","name":"Neuburgweg","postalCode":"9230","locality":"Flawil","commune":{"key":"3402","name":"Flawil","shortName":"Flawil"},"district":{"key":"1728","name":"Wahlkreis Wil"},"canton":{"key":"17","code":"SG","name":"St. Gallen"},"status":"Real"},{"key":"10096403","name":"Neugasse","postalCode":"9230","locality":"Flawil","commune":{"key":"3402","name":"Flawil","shortName":"Flawil"},"district":{"key":"1728","name":"Wahlkreis Wil"},"canton":{"key":"17","code":"SG","name":"St. Gallen"},"status":"Real"},{"key":"10025472","name":"Niederbergstrasse","postalCode":"9230","locality":"Flawil","commune":{"key":"3402","name":"Flawil","shortName":"Flawil"},"district":{"key":"1728","name":"Wahlkreis Wil"},"canton":{"key":"17","code":"SG","name":"St. Gallen"},"status":"Real"},{"key":"10046359","name":"Niederbergweg","postalCode":"9230","locality":"Flawil","commune":{"key":"3402","name":"Flawil","shortName":"Flawil"},"district":{"key":"1728","name":"Wahlkreis Wil"},"canton":{"key":"17","code":"SG","name":"St. Gallen"},"status":"Real"},{"key":"10225013","name":"Niederglattstrasse","postalCode":"9230","locality":"Flawil","commune":{"key":"3402","name":"Flawil","shortName":"Flawil"},"district":{"key":"1728","name":"Wahlkreis Wil"},"canton":{"key":"17","code":"SG","name":"St. Gallen"},"status":"Real"},{"key":"10046496","name":"Niederuzwilerstrasse","postalCode":"9230","locality":"Flawil","commune":{"key":"3402","name":"Flawil","shortName":"Flawil"},"district":{"key":"1728","name":"Wahlkreis Wil"},"canton":{"key":"17","code":"SG","name":"St. Gallen"},"status":"Real"},{"key":"10069268","name":"Oberbotsbergstrasse","postalCode":"9230","locality":"Flawil","commune":{"key":"3402","name":"Flawil","shortName":"Flawil"},"district":{"key":"1728","name":"Wahlkreis Wil"},"canton":{"key":"17","code":"SG","name":"St. Gallen"},"status":"Real"},{"key":"10230736","name":"Oberbotsbergweg","postalCode":"9230","locality":"Flawil","commune":{"key":"3402","name":"Flawil","shortName":"Flawil"},"district":{"key":"1728","name":"Wahlkreis Wil"},"canton":{"key":"17","code":"SG","name":"St. Gallen"},"status":"Real"},{"key":"10249929","name":"Oberburgweg","postalCode":"9230","locality":"Flawil","commune":{"key":"3402","name":"Flawil","shortName":"Flawil"},"district":{"key":"1728","name":"Wahlkreis Wil"},"canton":{"key":"17","code":"SG","name":"St. Gallen"},"status":"Real"},{"key":"10109165","name":"Oberdorfstrasse","postalCode":"9230","locality":"Flawil","commune":{"key":"3402","name":"Flawil","shortName":"Flawil"},"district":{"key":"1728","name":"Wahlkreis Wil"},"canton":{"key":"17","code":"SG","name":"St. Gallen"},"status":"Real"},{"key":"10230744","name":"Oberdorfweg","postalCode":"9230","locality":"Flawil","commune":{"key":"3402","name":"Flawil","shortName":"Flawil"},"district":{"key":"1728","name":"Wahlkreis Wil"},"canton":{"key":"17","code":"SG","name":"St. Gallen"},"status":"Real"},{"key":"10230748","name":"Obere Buechholzstrasse","postalCode":"9230","locality":"Flawil","commune":{"key":"3402","name":"Flawil","shortName":"Flawil"},"district":{"key":"1728","name":"Wahlkreis Wil"},"canton":{"key":"17","code":"SG","name":"St. Gallen"},"status":"Real"},{"key":"10230748","name":"Obere Buechholzstrasse","postalCode":"9231","locality":"Egg (Flawil)","commune":{"key":"3402","name":"Flawil","shortName":"Flawil"},"district":{"key":"1728","name":"Wahlkreis Wil"},"canton":{"key":"17","code":"SG","name":"St. Gallen"},"status":"Real"},{"key":"10181956","name":"Obere Burg","postalCode":"9231","locality":"Egg (Flawil)","commune":{"key":"3402","name":"Flawil","shortName":"Flawil"},"district":{"key":"1728","name":"Wahlkreis Wil"},"canton":{"key":"17","code":"SG","name":"St. Gallen"},"status":"Real"},{"key":"10230752","name":"Obere Burgstrasse","postalCode":"9231","locality":"Egg (Flawil)","commune":{"key":"3402","name":"Flawil","shortName":"Flawil"},"district":{"key":"1728","name":"Wahlkreis Wil"},"canton":{"key":"17","code":"SG","name":"St. Gallen"},"status":"Real"},{"key":"10069269","name":"Obere Egg","postalCode":"9231","locality":"Egg (Flawil)","commune":{"key":"3402","name":"Flawil","shortName":"Flawil"},"district":{"key":"1728","name":"Wahlkreis Wil"},"canton":{"key":"17","code":"SG","name":"St. Gallen"},"status":"Real"},{"key":"10226554","name":"Obere Egg Strasse","postalCode":"9231","locality":"Egg (Flawil)","commune":{"key":"3402","name":"Flawil","shortName":"Flawil"},"district":{"key":"1728","name":"Wahlkreis Wil"},"canton":{"key":"17","code":"SG","name":"St. Gallen"},"status":"Real"},{"key":"10025473","name":"Oberer Botsberg","postalCode":"9230","locality":"Flawil","commune":{"key":"3402","name":"Flawil","shortName":"Flawil"},"district":{"key":"1728","name":"Wahlkreis Wil"},"canton":{"key":"17","code":"SG","name":"St. Gallen"},"status":"Real"},{"key":"10250668","name":"Oberer Botsbergweg","postalCode":"9230","locality":"Flawil","commune":{"key":"3402","name":"Flawil","shortName":"Flawil"},"district":{"key":"1728","name":"Wahlkreis Wil"},"canton":{"key":"17","code":"SG","name":"St. Gallen"},"status":"Real"},{"key":"10169302","name":"Oberer Goldbachweg","postalCode":"9230","locality":"Flawil","commune":{"key":"3402","name":"Flawil","shortName":"Flawil"},"district":{"key":"1728","name":"Wahlkreis Wil"},"canton":{"key":"17","code":"SG","name":"St. Gallen"},"status":"Real"},{"key":"10226558","name":"Oberer Weideggweg","postalCode":"9230","locality":"Flawil","commune":{"key":"3402","name":"Flawil","shortName":"Flawil"},"district":{"key":"1728","name":"Wahlkreis Wil"},"canton":{"key":"17","code":"SG","name":"St. Gallen"},"status":"Real"},{"key":"10190482","name":"Oberes Welschhüsli","postalCode":"9230","locality":"Flawil","commune":{"key":"3402","name":"Flawil","shortName":"Flawil"},"district":{"key":"1728","name":"Wahlkreis Wil"},"canton":{"key":"17","code":"SG","name":"St. Gallen"},"status":"Real"},{"key":"10091372","name":"Obere Weidegg","postalCode":"9230","locality":"Flawil","commune":{"key":"3402","name":"Flawil","shortName":"Flawil"},"district":{"key":"1728","name":"Wahlkreis Wil"},"canton":{"key":"17","code":"SG","name":"St. Gallen"},"status":"Real"},{"key":"10058732","name":"Oberglatt","postalCode":"9230","locality":"Flawil","commune":{"key":"3402","name":"Flawil","shortName":"Flawil"},"district":{"key":"1728","name":"Wahlkreis Wil"},"canton":{"key":"17","code":"SG","name":"St. Gallen"},"status":"Real"},{"key":"10025475","name":"Oberstrasse","postalCode":"9230","locality":"Flawil","commune":{"key":"3402","name":"Flawil","shortName":"Flawil"},"district":{"key":"1728","name":"Wahlkreis Wil"},"canton":{"key":"17","code":"SG","name":"St. Gallen"},"status":"Real"},{"key":"10226562","name":"Oberstufenweg","postalCode":"9230","locality":"Flawil","commune":{"key":"3402","name":"Flawil","shortName":"Flawil"},"district":{"key":"1728","name":"Wahlkreis Wil"},"canton":{"key":"17","code":"SG","name":"St. Gallen"},"status":"Real"},{"key":"10024212","name":"Obertobel","postalCode":"9230","locality":"Flawil","commune":{"key":"3402","name":"Flawil","shortName":"Flawil"},"district":{"key":"1728","name":"Wahlkreis Wil"},"canton":{"key":"17","code":"SG","name":"St. Gallen"},"status":"Real"},{"key":"10228632","name":"Obertobel-Untertobel","postalCode":"9230","locality":"Flawil","commune":{"key":"3402","name":"Flawil","shortName":"Flawil"},"district":{"key":"1728","name":"Wahlkreis Wil"},"canton":{"key":"17","code":"SG","name":"St. Gallen"},"status":"Real"},{"key":"10226566","name":"Parkstrasse","postalCode":"9230","locality":"Flawil","commune":{"key":"3402","name":"Flawil","shortName":"Flawil"},"district":{"key":"1728","name":"Wahlkreis Wil"},"canton":{"key":"17","code":"SG","name":"St. Gallen"},"status":"Real"},{"key":"10226570","name":"Pfadiweg","postalCode":"9230","locality":"Flawil","commune":{"key":"3402","name":"Flawil","shortName":"Flawil"},"district":{"key":"1728","name":"Wahlkreis Wil"},"canton":{"key":"17","code":"SG","name":"St. Gallen"},"status":"Real"},{"key":"10106804","name":"Primelweg","postalCode":"9230","locality":"Flawil","commune":{"key":"3402","name":"Flawil","shortName":"Flawil"},"district":{"key":"1728","name":"Wahlkreis Wil"},"canton":{"key":"17","code":"SG","name":"St. Gallen"},"status":"Real"},{"key":"10046497","name":"Quellenstrasse","postalCode":"9230","locality":"Flawil","commune":{"key":"3402","name":"Flawil","shortName":"Flawil"},"district":{"key":"1728","name":"Wahlkreis Wil"},"canton":{"key":"17","code":"SG","name":"St. Gallen"},"status":"Real"},{"key":"10025476","name":"Raaschberg","postalCode":"9230","locality":"Flawil","commune":{"key":"3402","name":"Flawil","shortName":"Flawil"},"district":{"key":"1728","name":"Wahlkreis Wil"},"canton":{"key":"17","code":"SG","name":"St. Gallen"},"status":"Real"},{"key":"10168887","name":"Raaschbergerfeld","postalCode":"9230","locality":"Flawil","commune":{"key":"3402","name":"Flawil","shortName":"Flawil"},"district":{"key":"1728","name":"Wahlkreis Wil"},"canton":{"key":"17","code":"SG","name":"St. Gallen"},"status":"Real"},{"key":"10250672","name":"Raaschbergerfeldweg","postalCode":"9230","locality":"Flawil","commune":{"key":"3402","name":"Flawil","shortName":"Flawil"},"district":{"key":"1728","name":"Wahlkreis Wil"},"canton":{"key":"17","code":"SG","name":"St. Gallen"},"status":"Real"},{"key":"10226575","name":"Raaschbergweg","postalCode":"9230","locality":"Flawil","commune":{"key":"3402","name":"Flawil","shortName":"Flawil"},"district":{"key":"1728","name":"Wahlkreis Wil"},"canton":{"key":"17","code":"SG","name":"St. Gallen"},"status":"Real"},{"key":"10224547","name":"Rathausstrasse","postalCode":"9230","locality":"Flawil","commune":{"key":"3402","name":"Flawil","shortName":"Flawil"},"district":{"key":"1728","name":"Wahlkreis Wil"},"canton":{"key":"17","code":"SG","name":"St. Gallen"},"status":"Real"},{"key":"10224552","name":"Rehwaldstrasse","postalCode":"9230","locality":"Flawil","commune":{"key":"3402","name":"Flawil","shortName":"Flawil"},"district":{"key":"1728","name":"Wahlkreis Wil"},"canton":{"key":"17","code":"SG","name":"St. Gallen"},"status":"Real"},{"key":"10224555","name":"Rehwaldweg","postalCode":"9230","locality":"Flawil","commune":{"key":"3402","name":"Flawil","shortName":"Flawil"},"district":{"key":"1728","name":"Wahlkreis Wil"},"canton":{"key":"17","code":"SG","name":"St. Gallen"},"status":"Real"},{"key":"10057194","name":"Riederen","postalCode":"9230","locality":"Flawil","commune":{"key":"3402","name":"Flawil","shortName":"Flawil"},"district":{"key":"1728","name":"Wahlkreis Wil"},"canton":{"key":"17","code":"SG","name":"St. Gallen"},"status":"Real"},{"key":"10025477","name":"Riedernstrasse","postalCode":"9230","locality":"Flawil","commune":{"key":"3402","name":"Flawil","shortName":"Flawil"},"district":{"key":"1728","name":"Wahlkreis Wil"},"canton":{"key":"17","code":"SG","name":"St. Gallen"},"status":"Real"},{"key":"10025478","name":"Rietacker","postalCode":"9230","locality":"Flawil","commune":{"key":"3402","name":"Flawil","shortName":"Flawil"},"district":{"key":"1728","name":"Wahlkreis Wil"},"canton":{"key":"17","code":"SG","name":"St. Gallen"},"status":"Real"},{"key":"10224559","name":"Rietackerstrasse","postalCode":"9230","locality":"Flawil","commune":{"key":"3402","name":"Flawil","shortName":"Flawil"},"district":{"key":"1728","name":"Wahlkreis Wil"},"canton":{"key":"17","code":"SG","name":"St. Gallen"},"status":"Real"},{"key":"10057195","name":"Riethof","postalCode":"9230","locality":"Flawil","commune":{"key":"3402","name":"Flawil","shortName":"Flawil"},"district":{"key":"1728","name":"Wahlkreis Wil"},"canton":{"key":"17","code":"SG","name":"St. Gallen"},"status":"Real"},{"key":"10232863","name":"Riggenschwil-Aesch","postalCode":"9230","locality":"Flawil","commune":{"key":"3402","name":"Flawil","shortName":"Flawil"},"district":{"key":"1728","name":"Wahlkreis Wil"},"canton":{"key":"17","code":"SG","name":"St. Gallen"},"status":"Real"},{"key":"10249951","name":"Risiwald","postalCode":"9230","locality":"Flawil","commune":{"key":"3402","name":"Flawil","shortName":"Flawil"},"district":{"key":"1728","name":"Wahlkreis Wil"},"canton":{"key":"17","code":"SG","name":"St. Gallen"},"status":"Real"},{"key":"10224563","name":"Risiwaldweg","postalCode":"9230","locality":"Flawil","commune":{"key":"3402","name":"Flawil","shortName":"Flawil"},"district":{"key":"1728","name":"Wahlkreis Wil"},"canton":{"key":"17","code":"SG","name":"St. Gallen"},"status":"Real"},{"key":"10224563","name":"Risiwaldweg","postalCode":"9231","locality":"Egg (Flawil)","commune":{"key":"3402","name":"Flawil","shortName":"Flawil"},"district":{"key":"1728","name":"Wahlkreis Wil"},"canton":{"key":"17","code":"SG","name":"St. Gallen"},"status":"Real"},{"key":"10069270","name":"Rosenberg","postalCode":"9230","locality":"Flawil","commune":{"key":"3402","name":"Flawil","shortName":"Flawil"},"district":{"key":"1728","name":"Wahlkreis Wil"},"canton":{"key":"17","code":"SG","name":"St. Gallen"},"status":"Real"},{"key":"10224567","name":"Rosenbergweg","postalCode":"9230","locality":"Flawil","commune":{"key":"3402","name":"Flawil","shortName":"Flawil"},"district":{"key":"1728","name":"Wahlkreis Wil"},"canton":{"key":"17","code":"SG","name":"St. Gallen"},"status":"Real"},{"key":"10091373","name":"Rosenhügelstrasse","postalCode":"9230","locality":"Flawil","commune":{"key":"3402","name":"Flawil","shortName":"Flawil"},"district":{"key":"1728","name":"Wahlkreis Wil"},"canton":{"key":"17","code":"SG","name":"St. Gallen"},"status":"Real"},{"key":"10224571","name":"Rosenhügelweg","postalCode":"9230","locality":"Flawil","commune":{"key":"3402","name":"Flawil","shortName":"Flawil"},"district":{"key":"1728","name":"Wahlkreis Wil"},"canton":{"key":"17","code":"SG","name":"St. Gallen"},"status":"Real"},{"key":"10181951","name":"Rösslistrasse","postalCode":"9230","locality":"Flawil","commune":{"key":"3402","name":"Flawil","shortName":"Flawil"},"district":{"key":"1728","name":"Wahlkreis Wil"},"canton":{"key":"17","code":"SG","name":"St. Gallen"},"status":"Real"},{"key":"10224575","name":"Rössliweg","postalCode":"9230","locality":"Flawil","commune":{"key":"3402","name":"Flawil","shortName":"Flawil"},"district":{"key":"1728","name":"Wahlkreis Wil"},"canton":{"key":"17","code":"SG","name":"St. Gallen"},"status":"Real"},{"key":"10024213","name":"Rudlen","postalCode":"9230","locality":"Flawil","commune":{"key":"3402","name":"Flawil","shortName":"Flawil"},"district":{"key":"1728","name":"Wahlkreis Wil"},"canton":{"key":"17","code":"SG","name":"St. Gallen"},"status":"Real"},{"key":"10170283","name":"Rudlen","postalCode":"9230","locality":"Flawil","commune":{"key":"3402","name":"Flawil","shortName":"Flawil"},"district":{"key":"1728","name":"Wahlkreis Wil"},"canton":{"key":"17","code":"SG","name":"St. Gallen"},"status":"Real"},{"key":"10224579","name":"Rudlenstrasse","postalCode":"9230","locality":"Flawil","commune":{"key":"3402","name":"Flawil","shortName":"Flawil"},"district":{"key":"1728","name":"Wahlkreis Wil"},"canton":{"key":"17","code":"SG","name":"St. Gallen"},"status":"Real"},{"key":"10096404","name":"Ruhbergstrasse","postalCode":"9230","locality":"Flawil","commune":{"key":"3402","name":"Flawil","shortName":"Flawil"},"district":{"key":"1728","name":"Wahlkreis Wil"},"canton":{"key":"17","code":"SG","name":"St. Gallen"},"status":"Real"},{"key":"10069064","name":"Rüti","postalCode":"9230","locality":"Flawil","commune":{"key":"3402","name":"Flawil","shortName":"Flawil"},"district":{"key":"1728","name":"Wahlkreis Wil"},"canton":{"key":"17","code":"SG","name":"St. Gallen"},"status":"Real"},{"key":"10232872","name":"Rüti-Flawil","postalCode":"9230","locality":"Flawil","commune":{"key":"3402","name":"Flawil","shortName":"Flawil"},"district":{"key":"1728","name":"Wahlkreis Wil"},"canton":{"key":"17","code":"SG","name":"St. Gallen"},"status":"Real"},{"key":"10020380","name":"Rütistrasse","postalCode":"9230","locality":"Flawil","commune":{"key":"3402","name":"Flawil","shortName":"Flawil"},"district":{"key":"1728","name":"Wahlkreis Wil"},"canton":{"key":"17","code":"SG","name":"St. Gallen"},"status":"Real"},{"key":"10025479","name":"Rütiweg","postalCode":"9230","locality":"Flawil","commune":{"key":"3402","name":"Flawil","shortName":"Flawil"},"district":{"key":"1728","name":"Wahlkreis Wil"},"canton":{"key":"17","code":"SG","name":"St. Gallen"},"status":"Real"},{"key":"10025487","name":"Sägen","postalCode":"9230","locality":"Flawil","commune":{"key":"3402","name":"Flawil","shortName":"Flawil"},"district":{"key":"1728","name":"Wahlkreis Wil"},"canton":{"key":"17","code":"SG","name":"St. Gallen"},"status":"Real"},{"key":"10224583","name":"Sägenweiherweg","postalCode":"9230","locality":"Flawil","commune":{"key":"3402","name":"Flawil","shortName":"Flawil"},"district":{"key":"1728","name":"Wahlkreis Wil"},"canton":{"key":"17","code":"SG","name":"St. Gallen"},"status":"Real"},{"key":"10091377","name":"Sägestrasse","postalCode":"9230","locality":"Flawil","commune":{"key":"3402","name":"Flawil","shortName":"Flawil"},"district":{"key":"1728","name":"Wahlkreis Wil"},"canton":{"key":"17","code":"SG","name":"St. Gallen"},"status":"Real"},{"key":"10168886","name":"Saletwald","postalCode":"9230","locality":"Flawil","commune":{"key":"3402","name":"Flawil","shortName":"Flawil"},"district":{"key":"1728","name":"Wahlkreis Wil"},"canton":{"key":"17","code":"SG","name":"St. Gallen"},"status":"Real"},{"key":"10224587","name":"Saletwaldweg","postalCode":"9230","locality":"Flawil","commune":{"key":"3402","name":"Flawil","shortName":"Flawil"},"district":{"key":"1728","name":"Wahlkreis Wil"},"canton":{"key":"17","code":"SG","name":"St. Gallen"},"status":"Real"},{"key":"10069273","name":"Säntisstrasse","postalCode":"9230","locality":"Flawil","commune":{"key":"3402","name":"Flawil","shortName":"Flawil"},"district":{"key":"1728","name":"Wahlkreis Wil"},"canton":{"key":"17","code":"SG","name":"St. Gallen"},"status":"Real"},{"key":"10091375","name":"Schändrichstrasse","postalCode":"9230","locality":"Flawil","commune":{"key":"3402","name":"Flawil","shortName":"Flawil"},"district":{"key":"1728","name":"Wahlkreis Wil"},"canton":{"key":"17","code":"SG","name":"St. Gallen"},"status":"Real"},{"key":"10165887","name":"Scheidweg","postalCode":"9230","locality":"Flawil","commune":{"key":"3402","name":"Flawil","shortName":"Flawil"},"district":{"key":"1728","name":"Wahlkreis Wil"},"canton":{"key":"17","code":"SG","name":"St. Gallen"},"status":"Real"},{"key":"10025480","name":"Schmiedgasse","postalCode":"9230","locality":"Flawil","commune":{"key":"3402","name":"Flawil","shortName":"Flawil"},"district":{"key":"1728","name":"Wahlkreis Wil"},"canton":{"key":"17","code":"SG","name":"St. Gallen"},"status":"Real"},{"key":"10025481","name":"Schulstrasse","postalCode":"9230","locality":"Flawil","commune":{"key":"3402","name":"Flawil","shortName":"Flawil"},"district":{"key":"1728","name":"Wahlkreis Wil"},"canton":{"key":"17","code":"SG","name":"St. Gallen"},"status":"Real"},{"key":"10230829","name":"Schulstrasse Burgau","postalCode":"9230","locality":"Flawil","commune":{"key":"3402","name":"Flawil","shortName":"Flawil"},"district":{"key":"1728","name":"Wahlkreis Wil"},"canton":{"key":"17","code":"SG","name":"St. Gallen"},"status":"Real"},{"key":"10230833","name":"Schützenhausweg","postalCode":"9230","locality":"Flawil","commune":{"key":"3402","name":"Flawil","shortName":"Flawil"},"district":{"key":"1728","name":"Wahlkreis Wil"},"canton":{"key":"17","code":"SG","name":"St. Gallen"},"status":"Real"},{"key":"10145399","name":"Schützenwiese","postalCode":"9230","locality":"Flawil","commune":{"key":"3402","name":"Flawil","shortName":"Flawil"},"district":{"key":"1728","name":"Wahlkreis Wil"},"canton":{"key":"17","code":"SG","name":"St. Gallen"},"status":"Real"},{"key":"10230837","name":"Schützenwiesstrasse","postalCode":"9230","locality":"Flawil","commune":{"key":"3402","name":"Flawil","shortName":"Flawil"},"district":{"key":"1728","name":"Wahlkreis Wil"},"canton":{"key":"17","code":"SG","name":"St. Gallen"},"status":"Real"},{"key":"10250677","name":"Schützenwiesweg","postalCode":"9230","locality":"Flawil","commune":{"key":"3402","name":"Flawil","shortName":"Flawil"},"district":{"key":"1728","name":"Wahlkreis Wil"},"canton":{"key":"17","code":"SG","name":"St. Gallen"},"status":"Real"},{"key":"10069271","name":"Schwalbenstrasse","postalCode":"9230","locality":"Flawil","commune":{"key":"3402","name":"Flawil","shortName":"Flawil"},"district":{"key":"1728","name":"Wahlkreis Wil"},"canton":{"key":"17","code":"SG","name":"St. Gallen"},"status":"Real"},{"key":"10230841","name":"Schwalbenweg","postalCode":"9230","locality":"Flawil","commune":{"key":"3402","name":"Flawil","shortName":"Flawil"},"district":{"key":"1728","name":"Wahlkreis Wil"},"canton":{"key":"17","code":"SG","name":"St. Gallen"},"status":"Real"},{"key":"10230845","name":"Schwänbergstrasse","postalCode":"9231","locality":"Egg (Flawil)","commune":{"key":"3402","name":"Flawil","shortName":"Flawil"},"district":{"key":"1728","name":"Wahlkreis Wil"},"canton":{"key":"17","code":"SG","name":"St. Gallen"},"status":"Real"},{"key":"10230849","name":"Schwänbergweg","postalCode":"9231","locality":"Egg (Flawil)","commune":{"key":"3402","name":"Flawil","shortName":"Flawil"},"district":{"key":"1728","name":"Wahlkreis Wil"},"canton":{"key":"17","code":"SG","name":"St. Gallen"},"status":"Real"},{"key":"10230853","name":"Schwanzerweg","postalCode":"9230","locality":"Flawil","commune":{"key":"3402","name":"Flawil","shortName":"Flawil"},"district":{"key":"1728","name":"Wahlkreis Wil"},"canton":{"key":"17","code":"SG","name":"St. Gallen"},"status":"Real"},{"key":"10025482","name":"Schweissbrunnstrasse","postalCode":"9230","locality":"Flawil","commune":{"key":"3402","name":"Flawil","shortName":"Flawil"},"district":{"key":"1728","name":"Wahlkreis Wil"},"canton":{"key":"17","code":"SG","name":"St. Gallen"},"status":"Real"},{"key":"10230857","name":"Schweissbrunnweg","postalCode":"9230","locality":"Flawil","commune":{"key":"3402","name":"Flawil","shortName":"Flawil"},"district":{"key":"1728","name":"Wahlkreis Wil"},"canton":{"key":"17","code":"SG","name":"St. Gallen"},"status":"Real"},{"key":"10181952","name":"Sonnegg","postalCode":"9230","locality":"Flawil","commune":{"key":"3402","name":"Flawil","shortName":"Flawil"},"district":{"key":"1728","name":"Wahlkreis Wil"},"canton":{"key":"17","code":"SG","name":"St. Gallen"},"status":"Real"},{"key":"10106823","name":"Sonnenhalde","postalCode":"9230","locality":"Flawil","commune":{"key":"3402","name":"Flawil","shortName":"Flawil"},"district":{"key":"1728","name":"Wahlkreis Wil"},"canton":{"key":"17","code":"SG","name":"St. Gallen"},"status":"Real"},{"key":"10171133","name":"Sonnenhügelstrasse","postalCode":"9230","locality":"Flawil","commune":{"key":"3402","name":"Flawil","shortName":"Flawil"},"district":{"key":"1728","name":"Wahlkreis Wil"},"canton":{"key":"17","code":"SG","name":"St. Gallen"},"status":"Real"},{"key":"10025483","name":"Sonnenrainweg","postalCode":"9230","locality":"Flawil","commune":{"key":"3402","name":"Flawil","shortName":"Flawil"},"district":{"key":"1728","name":"Wahlkreis Wil"},"canton":{"key":"17","code":"SG","name":"St. Gallen"},"status":"Real"},{"key":"10025484","name":"Sonnmattstrasse","postalCode":"9230","locality":"Flawil","commune":{"key":"3402","name":"Flawil","shortName":"Flawil"},"district":{"key":"1728","name":"Wahlkreis Wil"},"canton":{"key":"17","code":"SG","name":"St. Gallen"},"status":"Real"},{"key":"10230861","name":"Sonnmattweg","postalCode":"9230","locality":"Flawil","commune":{"key":"3402","name":"Flawil","shortName":"Flawil"},"district":{"key":"1728","name":"Wahlkreis Wil"},"canton":{"key":"17","code":"SG","name":"St. Gallen"},"status":"Real"},{"key":"10230864","name":"Spitalweg","postalCode":"9230","locality":"Flawil","commune":{"key":"3402","name":"Flawil","shortName":"Flawil"},"district":{"key":"1728","name":"Wahlkreis Wil"},"canton":{"key":"17","code":"SG","name":"St. Gallen"},"status":"Real"},{"key":"10106805","name":"Städeli","postalCode":"9230","locality":"Flawil","commune":{"key":"3402","name":"Flawil","shortName":"Flawil"},"district":{"key":"1728","name":"Wahlkreis Wil"},"canton":{"key":"17","code":"SG","name":"St. Gallen"},"status":"Real"},{"key":"10193777","name":"Städeliweg","postalCode":"9230","locality":"Flawil","commune":{"key":"3402","name":"Flawil","shortName":"Flawil"},"district":{"key":"1728","name":"Wahlkreis Wil"},"canton":{"key":"17","code":"SG","name":"St. Gallen"},"status":"Real"},{"key":"10069272","name":"Steigstrasse","postalCode":"9230","locality":"Flawil","commune":{"key":"3402","name":"Flawil","shortName":"Flawil"},"district":{"key":"1728","name":"Wahlkreis Wil"},"canton":{"key":"17","code":"SG","name":"St. Gallen"},"status":"Real"},{"key":"10230868","name":"Steigweg","postalCode":"9230","locality":"Flawil","commune":{"key":"3402","name":"Flawil","shortName":"Flawil"},"district":{"key":"1728","name":"Wahlkreis Wil"},"canton":{"key":"17","code":"SG","name":"St. Gallen"},"status":"Real"},{"key":"10091376","name":"Sternenstrasse","postalCode":"9230","locality":"Flawil","commune":{"key":"3402","name":"Flawil","shortName":"Flawil"},"district":{"key":"1728","name":"Wahlkreis Wil"},"canton":{"key":"17","code":"SG","name":"St. Gallen"},"status":"Real"},{"key":"10091374","name":"St. Gallerstrasse","postalCode":"9230","locality":"Flawil","commune":{"key":"3402","name":"Flawil","shortName":"Flawil"},"district":{"key":"1728","name":"Wahlkreis Wil"},"canton":{"key":"17","code":"SG","name":"St. Gallen"},"status":"Real"},{"key":"10025485","name":"Stocken","postalCode":"9230","locality":"Flawil","commune":{"key":"3402","name":"Flawil","shortName":"Flawil"},"district":{"key":"1728","name":"Wahlkreis Wil"},"canton":{"key":"17","code":"SG","name":"St. Gallen"},"status":"Real"},{"key":"10025486","name":"Stockenhaldenweg","postalCode":"9230","locality":"Flawil","commune":{"key":"3402","name":"Flawil","shortName":"Flawil"},"district":{"key":"1728","name":"Wahlkreis Wil"},"canton":{"key":"17","code":"SG","name":"St. Gallen"},"status":"Real"},{"key":"10109166","name":"Stockenstrasse","postalCode":"9230","locality":"Flawil","commune":{"key":"3402","name":"Flawil","shortName":"Flawil"},"district":{"key":"1728","name":"Wahlkreis Wil"},"canton":{"key":"17","code":"SG","name":"St. Gallen"},"status":"Real"},{"key":"10230872","name":"Stockenweg","postalCode":"9230","locality":"Flawil","commune":{"key":"3402","name":"Flawil","shortName":"Flawil"},"district":{"key":"1728","name":"Wahlkreis Wil"},"canton":{"key":"17","code":"SG","name":"St. Gallen"},"status":"Real"},{"key":"10181953","name":"Taa","postalCode":"9230","locality":"Flawil","commune":{"key":"3402","name":"Flawil","shortName":"Flawil"},"district":{"key":"1728","name":"Wahlkreis Wil"},"canton":{"key":"17","code":"SG","name":"St. Gallen"},"status":"Real"},{"key":"10091383","name":"Talhüsli","postalCode":"9231","locality":"Egg (Flawil)","commune":{"key":"3402","name":"Flawil","shortName":"Flawil"},"district":{"key":"1728","name":"Wahlkreis Wil"},"canton":{"key":"17","code":"SG","name":"St. Gallen"},"status":"Real"},{"key":"10230880","name":"Talmüliweg","postalCode":"9231","locality":"Egg (Flawil)","commune":{"key":"3402","name":"Flawil","shortName":"Flawil"},"district":{"key":"1728","name":"Wahlkreis Wil"},"canton":{"key":"17","code":"SG","name":"St. Gallen"},"status":"Real"},{"key":"10025488","name":"Tannenbüel","postalCode":"9230","locality":"Flawil","commune":{"key":"3402","name":"Flawil","shortName":"Flawil"},"district":{"key":"1728","name":"Wahlkreis Wil"},"canton":{"key":"17","code":"SG","name":"St. Gallen"},"status":"Real"},{"key":"10069274","name":"Tannenstrasse","postalCode":"9230","locality":"Flawil","commune":{"key":"3402","name":"Flawil","shortName":"Flawil"},"district":{"key":"1728","name":"Wahlkreis Wil"},"canton":{"key":"17","code":"SG","name":"St. Gallen"},"status":"Real"},{"key":"10147436","name":"Techenwisweg","postalCode":"9230","locality":"Flawil","commune":{"key":"3402","name":"Flawil","shortName":"Flawil"},"district":{"key":"1728","name":"Wahlkreis Wil"},"canton":{"key":"17","code":"SG","name":"St. Gallen"},"status":"Real"},{"key":"10025489","name":"Tellstrasse","postalCode":"9230","locality":"Flawil","commune":{"key":"3402","name":"Flawil","shortName":"Flawil"},"district":{"key":"1728","name":"Wahlkreis Wil"},"canton":{"key":"17","code":"SG","name":"St. Gallen"},"status":"Real"},{"key":"10230377","name":"Tellweg","postalCode":"9230","locality":"Flawil","commune":{"key":"3402","name":"Flawil","shortName":"Flawil"},"district":{"key":"1728","name":"Wahlkreis Wil"},"canton":{"key":"17","code":"SG","name":"St. Gallen"},"status":"Real"},{"key":"10091378","name":"Tiefentalstrasse","postalCode":"9230","locality":"Flawil","commune":{"key":"3402","name":"Flawil","shortName":"Flawil"},"district":{"key":"1728","name":"Wahlkreis Wil"},"canton":{"key":"17","code":"SG","name":"St. Gallen"},"status":"Real"},{"key":"10051806","name":"Tobel","postalCode":"9231","locality":"Egg (Flawil)","commune":{"key":"3402","name":"Flawil","shortName":"Flawil"},"district":{"key":"1728","name":"Wahlkreis Wil"},"canton":{"key":"17","code":"SG","name":"St. Gallen"},"status":"Real"},{"key":"10181954","name":"Töbeliweg","postalCode":"9230","locality":"Flawil","commune":{"key":"3402","name":"Flawil","shortName":"Flawil"},"district":{"key":"1728","name":"Wahlkreis Wil"},"canton":{"key":"17","code":"SG","name":"St. Gallen"},"status":"Real"},{"key":"10230892","name":"Tobelmüli","postalCode":"9231","locality":"Egg (Flawil)","commune":{"key":"3402","name":"Flawil","shortName":"Flawil"},"district":{"key":"1728","name":"Wahlkreis Wil"},"canton":{"key":"17","code":"SG","name":"St. Gallen"},"status":"Real"},{"key":"10230896","name":"Tobelmülistrasse","postalCode":"9231","locality":"Egg (Flawil)","commune":{"key":"3402","name":"Flawil","shortName":"Flawil"},"district":{"key":"1728","name":"Wahlkreis Wil"},"canton":{"key":"17","code":"SG","name":"St. Gallen"},"status":"Real"},{"key":"10230900","name":"Tobelmüliweg","postalCode":"9231","locality":"Egg (Flawil)","commune":{"key":"3402","name":"Flawil","shortName":"Flawil"},"district":{"key":"1728","name":"Wahlkreis Wil"},"canton":{"key":"17","code":"SG","name":"St. Gallen"},"status":"Real"},{"key":"10230904","name":"Tobelwaldweg","postalCode":"9231","locality":"Egg (Flawil)","commune":{"key":"3402","name":"Flawil","shortName":"Flawil"},"district":{"key":"1728","name":"Wahlkreis Wil"},"canton":{"key":"17","code":"SG","name":"St. Gallen"},"status":"Real"},{"key":"10224659","name":"Toggenburgerstrasse","postalCode":"9230","locality":"Flawil","commune":{"key":"3402","name":"Flawil","shortName":"Flawil"},"district":{"key":"1728","name":"Wahlkreis Wil"},"canton":{"key":"17","code":"SG","name":"St. Gallen"},"status":"Real"},{"key":"10025490","name":"Toggenburgerstrasse","postalCode":"9230","locality":"Flawil","commune":{"key":"3402","name":"Flawil","shortName":"Flawil"},"district":{"key":"1728","name":"Wahlkreis Wil"},"canton":{"key":"17","code":"SG","name":"St. Gallen"},"status":"Real"},{"key":"10230908","name":"Torpenrietstrasse","postalCode":"9230","locality":"Flawil","commune":{"key":"3402","name":"Flawil","shortName":"Flawil"},"district":{"key":"1728","name":"Wahlkreis Wil"},"canton":{"key":"17","code":"SG","name":"St. Gallen"},"status":"Real"},{"key":"10025491","name":"Tüfental","postalCode":"9230","locality":"Flawil","commune":{"key":"3402","name":"Flawil","shortName":"Flawil"},"district":{"key":"1728","name":"Wahlkreis Wil"},"canton":{"key":"17","code":"SG","name":"St. Gallen"},"status":"Real"},{"key":"10126147","name":"Tüfi","postalCode":"9230","locality":"Flawil","commune":{"key":"3402","name":"Flawil","shortName":"Flawil"},"district":{"key":"1728","name":"Wahlkreis Wil"},"canton":{"key":"17","code":"SG","name":"St. Gallen"},"status":"Real"},{"key":"10230912","name":"Tüfiweg","postalCode":"9230","locality":"Flawil","commune":{"key":"3402","name":"Flawil","shortName":"Flawil"},"district":{"key":"1728","name":"Wahlkreis Wil"},"canton":{"key":"17","code":"SG","name":"St. Gallen"},"status":"Real"},{"key":"10230916","name":"Unterbotsbergweg","postalCode":"9230","locality":"Flawil","commune":{"key":"3402","name":"Flawil","shortName":"Flawil"},"district":{"key":"1728","name":"Wahlkreis Wil"},"canton":{"key":"17","code":"SG","name":"St. Gallen"},"status":"Real"},{"key":"10091379","name":"Unterdorfstrasse","postalCode":"9230","locality":"Flawil","commune":{"key":"3402","name":"Flawil","shortName":"Flawil"},"district":{"key":"1728","name":"Wahlkreis Wil"},"canton":{"key":"17","code":"SG","name":"St. Gallen"},"status":"Real"},{"key":"10230920","name":"Untere Buechholzstrasse","postalCode":"9231","locality":"Egg (Flawil)","commune":{"key":"3402","name":"Flawil","shortName":"Flawil"},"district":{"key":"1728","name":"Wahlkreis Wil"},"canton":{"key":"17","code":"SG","name":"St. Gallen"},"status":"Real"},{"key":"10161128","name":"Untere Burg","postalCode":"9230","locality":"Flawil","commune":{"key":"3402","name":"Flawil","shortName":"Flawil"},"district":{"key":"1728","name":"Wahlkreis Wil"},"canton":{"key":"17","code":"SG","name":"St. Gallen"},"status":"Real"},{"key":"10102910","name":"Unterer Landberg","postalCode":"9230","locality":"Flawil","commune":{"key":"3402","name":"Flawil","shortName":"Flawil"},"district":{"key":"1728","name":"Wahlkreis Wil"},"canton":{"key":"17","code":"SG","name":"St. Gallen"},"status":"Real"},{"key":"10106806","name":"Unterstrasse","postalCode":"9230","locality":"Flawil","commune":{"key":"3402","name":"Flawil","shortName":"Flawil"},"district":{"key":"1728","name":"Wahlkreis Wil"},"canton":{"key":"17","code":"SG","name":"St. Gallen"},"status":"Real"},{"key":"10230924","name":"Vordere Buechholzstrasse","postalCode":"9230","locality":"Flawil","commune":{"key":"3402","name":"Flawil","shortName":"Flawil"},"district":{"key":"1728","name":"Wahlkreis Wil"},"canton":{"key":"17","code":"SG","name":"St. Gallen"},"status":"Real"},{"key":"10230924","name":"Vordere Buechholzstrasse","postalCode":"9231","locality":"Egg (Flawil)","commune":{"key":"3402","name":"Flawil","shortName":"Flawil"},"district":{"key":"1728","name":"Wahlkreis Wil"},"canton":{"key":"17","code":"SG","name":"St. Gallen"},"status":"Real"},{"key":"10025492","name":"Waisenhausstrasse","postalCode":"9230","locality":"Flawil","commune":{"key":"3402","name":"Flawil","shortName":"Flawil"},"district":{"key":"1728","name":"Wahlkreis Wil"},"canton":{"key":"17","code":"SG","name":"St. Gallen"},"status":"Real"},{"key":"10191058","name":"Waldau","postalCode":"9230","locality":"Flawil","commune":{"key":"3402","name":"Flawil","shortName":"Flawil"},"district":{"key":"1728","name":"Wahlkreis Wil"},"canton":{"key":"17","code":"SG","name":"St. Gallen"},"status":"Real"},{"key":"10025493","name":"Waldhof","postalCode":"9230","locality":"Flawil","commune":{"key":"3402","name":"Flawil","shortName":"Flawil"},"district":{"key":"1728","name":"Wahlkreis Wil"},"canton":{"key":"17","code":"SG","name":"St. Gallen"},"status":"Real"},{"key":"10226732","name":"Waldrainweg","postalCode":"9230","locality":"Flawil","commune":{"key":"3402","name":"Flawil","shortName":"Flawil"},"district":{"key":"1728","name":"Wahlkreis Wil"},"canton":{"key":"17","code":"SG","name":"St. Gallen"},"status":"Real"},{"key":"10132568","name":"Waldrainweg","postalCode":"9230","locality":"Flawil","commune":{"key":"3402","name":"Flawil","shortName":"Flawil"},"district":{"key":"1728","name":"Wahlkreis Wil"},"canton":{"key":"17","code":"SG","name":"St. Gallen"},"status":"Real"},{"key":"10091380","name":"Weibelsteigweg","postalCode":"9230","locality":"Flawil","commune":{"key":"3402","name":"Flawil","shortName":"Flawil"},"district":{"key":"1728","name":"Wahlkreis Wil"},"canton":{"key":"17","code":"SG","name":"St. Gallen"},"status":"Real"},{"key":"10230928","name":"Weidegghalde","postalCode":"9230","locality":"Flawil","commune":{"key":"3402","name":"Flawil","shortName":"Flawil"},"district":{"key":"1728","name":"Wahlkreis Wil"},"canton":{"key":"17","code":"SG","name":"St. Gallen"},"status":"Real"},{"key":"10191347","name":"Weidegghaldenstrasse","postalCode":"9230","locality":"Flawil","commune":{"key":"3402","name":"Flawil","shortName":"Flawil"},"district":{"key":"1728","name":"Wahlkreis Wil"},"canton":{"key":"17","code":"SG","name":"St. Gallen"},"status":"Real"},{"key":"10025494","name":"Weideggstrasse","postalCode":"9230","locality":"Flawil","commune":{"key":"3402","name":"Flawil","shortName":"Flawil"},"district":{"key":"1728","name":"Wahlkreis Wil"},"canton":{"key":"17","code":"SG","name":"St. Gallen"},"status":"Real"},{"key":"10230932","name":"Weideggweg","postalCode":"9230","locality":"Flawil","commune":{"key":"3402","name":"Flawil","shortName":"Flawil"},"district":{"key":"1728","name":"Wahlkreis Wil"},"canton":{"key":"17","code":"SG","name":"St. Gallen"},"status":"Real"},{"key":"10181955","name":"Weidstrasse","postalCode":"9230","locality":"Flawil","commune":{"key":"3402","name":"Flawil","shortName":"Flawil"},"district":{"key":"1728","name":"Wahlkreis Wil"},"canton":{"key":"17","code":"SG","name":"St. Gallen"},"status":"Real"},{"key":"10025495","name":"Welschhüsli","postalCode":"9230","locality":"Flawil","commune":{"key":"3402","name":"Flawil","shortName":"Flawil"},"district":{"key":"1728","name":"Wahlkreis Wil"},"canton":{"key":"17","code":"SG","name":"St. Gallen"},"status":"Real"},{"key":"10230936","name":"Welschhüslistrasse","postalCode":"9230","locality":"Flawil","commune":{"key":"3402","name":"Flawil","shortName":"Flawil"},"district":{"key":"1728","name":"Wahlkreis Wil"},"canton":{"key":"17","code":"SG","name":"St. Gallen"},"status":"Real"},{"key":"10173590","name":"Westausfahrt","postalCode":"9230","locality":"Flawil","commune":{"key":"3402","name":"Flawil","shortName":"Flawil"},"district":{"key":"1728","name":"Wahlkreis Wil"},"canton":{"key":"17","code":"SG","name":"St. Gallen"},"status":"Real"},{"key":"10169568","name":"Widenweg","postalCode":"9230","locality":"Flawil","commune":{"key":"3402","name":"Flawil","shortName":"Flawil"},"district":{"key":"1728","name":"Wahlkreis Wil"},"canton":{"key":"17","code":"SG","name":"St. Gallen"},"status":"Real"},{"key":"10091381","name":"Wiesenstrasse","postalCode":"9230","locality":"Flawil","commune":{"key":"3402","name":"Flawil","shortName":"Flawil"},"district":{"key":"1728","name":"Wahlkreis Wil"},"canton":{"key":"17","code":"SG","name":"St. Gallen"},"status":"Real"},{"key":"10025496","name":"Wilerstrasse","postalCode":"9230","locality":"Flawil","commune":{"key":"3402","name":"Flawil","shortName":"Flawil"},"district":{"key":"1728","name":"Wahlkreis Wil"},"canton":{"key":"17","code":"SG","name":"St. Gallen"},"status":"Real"},{"key":"10250742","name":"Wilerstrasse","postalCode":"9230","locality":"Flawil","commune":{"key":"3402","name":"Flawil","shortName":"Flawil"},"district":{"key":"1728","name":"Wahlkreis Wil"},"canton":{"key":"17","code":"SG","name":"St. Gallen"},"status":"Real"},{"key":"10114414","name":"Wisentalweg","postalCode":"9230","locality":"Flawil","commune":{"key":"3402","name":"Flawil","shortName":"Flawil"},"district":{"key":"1728","name":"Wahlkreis Wil"},"canton":{"key":"17","code":"SG","name":"St. Gallen"},"status":"Real"},{"key":"10230940","name":"Wissbachschluchtweg","postalCode":"9231","locality":"Egg (Flawil)","commune":{"key":"3402","name":"Flawil","shortName":"Flawil"},"district":{"key":"1728","name":"Wahlkreis Wil"},"canton":{"key":"17","code":"SG","name":"St. Gallen"},"status":"Real"},{"key":"10161127","name":"Wissbachtobel","postalCode":"9231","locality":"Egg (Flawil)","commune":{"key":"3402","name":"Flawil","shortName":"Flawil"},"district":{"key":"1728","name":"Wahlkreis Wil"},"canton":{"key":"17","code":"SG","name":"St. Gallen"},"status":"Real"},{"key":"10230944","name":"Wissholzweg","postalCode":"9231","locality":"Egg (Flawil)","commune":{"key":"3402","name":"Flawil","shortName":"Flawil"},"district":{"key":"1728","name":"Wahlkreis Wil"},"canton":{"key":"17","code":"SG","name":"St. Gallen"},"status":"Real"},{"key":"10226750","name":"Wolfertswilerstrasse","postalCode":"9230","locality":"Flawil","commune":{"key":"3402","name":"Flawil","shortName":"Flawil"},"district":{"key":"1728","name":"Wahlkreis Wil"},"canton":{"key":"17","code":"SG","name":"St. Gallen"},"status":"Real"},{"key":"10226754","name":"Wolfertswilerweg","postalCode":"9230","locality":"Flawil","commune":{"key":"3402","name":"Flawil","shortName":"Flawil"},"district":{"key":"1728","name":"Wahlkreis Wil"},"canton":{"key":"17","code":"SG","name":"St. Gallen"},"status":"Real"},{"key":"10109167","name":"Zielweg","postalCode":"9230","locality":"Flawil","commune":{"key":"3402","name":"Flawil","shortName":"Flawil"},"district":{"key":"1728","name":"Wahlkreis Wil"},"canton":{"key":"17","code":"SG","name":"St. Gallen"},"status":"Real"},]