[{"name":"Am Herrenberg","postalCode":"54518","locality":"Kesten","municipality":{"key":"07231066","name":"Kesten","type":"Kreisangehörige_Gemeinde"},"district":{"key":"07231","name":"Bernkastel-Wittlich","type":"Landkreis"},"federalState":{"key":"07","name":"Rheinland-Pfalz"}},{"name":"Burgstr.","postalCode":"54518","locality":"Kesten","municipality":{"key":"07231066","name":"Kesten","type":"Kreisangehörige_Gemeinde"},"district":{"key":"07231","name":"Bernkastel-Wittlich","type":"Landkreis"},"federalState":{"key":"07","name":"Rheinland-Pfalz"}},{"name":"Eiermarkt","postalCode":"54518","locality":"Kesten","municipality":{"key":"07231066","name":"Kesten","type":"Kreisangehörige_Gemeinde"},"district":{"key":"07231","name":"Bernkastel-Wittlich","type":"Landkreis"},"federalState":{"key":"07","name":"Rheinland-Pfalz"}},{"name":"Im Büst","postalCode":"54518","locality":"Kesten","municipality":{"key":"07231066","name":"Kesten","type":"Kreisangehörige_Gemeinde"},"district":{"key":"07231","name":"Bernkastel-Wittlich","type":"Landkreis"},"federalState":{"key":"07","name":"Rheinland-Pfalz"}},{"name":"Im Weingarten","postalCode":"54518","locality":"Kesten","municipality":{"key":"07231066","name":"Kesten","type":"Kreisangehörige_Gemeinde"},"district":{"key":"07231","name":"Bernkastel-Wittlich","type":"Landkreis"},"federalState":{"key":"07","name":"Rheinland-Pfalz"}},{"name":"Moselstr.","postalCode":"54518","locality":"Kesten","municipality":{"key":"07231066","name":"Kesten","type":"Kreisangehörige_Gemeinde"},"district":{"key":"07231","name":"Bernkastel-Wittlich","type":"Landkreis"},"federalState":{"key":"07","name":"Rheinland-Pfalz"}},{"name":"Paulinstr.","postalCode":"54518","locality":"Kesten","municipality":{"key":"07231066","name":"Kesten","type":"Kreisangehörige_Gemeinde"},"district":{"key":"07231","name":"Bernkastel-Wittlich","type":"Landkreis"},"federalState":{"key":"07","name":"Rheinland-Pfalz"}},{"name":"Urmetzgasse","postalCode":"54518","locality":"Kesten","municipality":{"key":"07231066","name":"Kesten","type":"Kreisangehörige_Gemeinde"},"district":{"key":"07231","name":"Bernkastel-Wittlich","type":"Landkreis"},"federalState":{"key":"07","name":"Rheinland-Pfalz"}},]