[{"key":"15086005","name":"Biederitz","type":"Kreisangehörige_Gemeinde","postalCode":"39175","multiplePostalCodes":false,"association":{"key":"15086","name":"Biederitz","type":"Verbandsfreie_Gemeinde"},"district":{"key":"15086","name":"Jerichower Land","type":"Landkreis"},"federalState":{"key":"15","name":"Sachsen-Anhalt"}},{"key":"15086015","name":"Burg, Stadt","type":"Stadt","postalCode":"39288","multiplePostalCodes":false,"association":{"key":"15086","name":"Burg, Stadt","type":"Verbandsfreie_Gemeinde"},"district":{"key":"15086","name":"Jerichower Land","type":"Landkreis"},"federalState":{"key":"15","name":"Sachsen-Anhalt"}},{"key":"15086035","name":"Elbe-Parey","type":"Kreisangehörige_Gemeinde","postalCode":"39317","multiplePostalCodes":true,"association":{"key":"15086","name":"Elbe-Parey","type":"Verbandsfreie_Gemeinde"},"district":{"key":"15086","name":"Jerichower Land","type":"Landkreis"},"federalState":{"key":"15","name":"Sachsen-Anhalt"}},{"key":"15086040","name":"Genthin, Stadt","type":"Stadt","postalCode":"39307","multiplePostalCodes":true,"association":{"key":"15086","name":"Genthin, Stadt","type":"Verbandsfreie_Gemeinde"},"district":{"key":"15086","name":"Jerichower Land","type":"Landkreis"},"federalState":{"key":"15","name":"Sachsen-Anhalt"}},{"key":"15086055","name":"Gommern, Stadt","type":"Stadt","postalCode":"39245","multiplePostalCodes":true,"association":{"key":"15086","name":"Gommern, Stadt","type":"Verbandsfreie_Gemeinde"},"district":{"key":"15086","name":"Jerichower Land","type":"Landkreis"},"federalState":{"key":"15","name":"Sachsen-Anhalt"}},{"key":"15086080","name":"Jerichow, Stadt","type":"Stadt","postalCode":"39319","multiplePostalCodes":true,"association":{"key":"15086","name":"Jerichow, Stadt","type":"Verbandsfreie_Gemeinde"},"district":{"key":"15086","name":"Jerichower Land","type":"Landkreis"},"federalState":{"key":"15","name":"Sachsen-Anhalt"}},{"key":"15086140","name":"Möckern, Stadt","type":"Stadt","postalCode":"39291","multiplePostalCodes":true,"association":{"key":"15086","name":"Möckern, Stadt","type":"Verbandsfreie_Gemeinde"},"district":{"key":"15086","name":"Jerichower Land","type":"Landkreis"},"federalState":{"key":"15","name":"Sachsen-Anhalt"}},{"key":"15086145","name":"Möser","type":"Kreisangehörige_Gemeinde","postalCode":"39291","multiplePostalCodes":true,"association":{"key":"15086","name":"Möser","type":"Verbandsfreie_Gemeinde"},"district":{"key":"15086","name":"Jerichower Land","type":"Landkreis"},"federalState":{"key":"15","name":"Sachsen-Anhalt"}}]