[{"name":"Am Falter","postalCode":"97320","locality":"Buchbrunn","municipality":{"key":"09675114","name":"Buchbrunn","type":"Kreisangehörige_Gemeinde"},"district":{"key":"09675","name":"Kitzingen","type":"Landkreis"},"federalState":{"key":"09","name":"Bayern"}},{"name":"Am Gänsewasen","postalCode":"97320","locality":"Buchbrunn","municipality":{"key":"09675114","name":"Buchbrunn","type":"Kreisangehörige_Gemeinde"},"district":{"key":"09675","name":"Kitzingen","type":"Landkreis"},"federalState":{"key":"09","name":"Bayern"}},{"name":"Am Hühnerberg","postalCode":"97320","locality":"Buchbrunn","municipality":{"key":"09675114","name":"Buchbrunn","type":"Kreisangehörige_Gemeinde"},"district":{"key":"09675","name":"Kitzingen","type":"Landkreis"},"federalState":{"key":"09","name":"Bayern"}},{"name":"Am Schelm","postalCode":"97320","locality":"Buchbrunn","municipality":{"key":"09675114","name":"Buchbrunn","type":"Kreisangehörige_Gemeinde"},"district":{"key":"09675","name":"Kitzingen","type":"Landkreis"},"federalState":{"key":"09","name":"Bayern"}},{"name":"Bahnhofstr.","postalCode":"97320","locality":"Buchbrunn","municipality":{"key":"09675114","name":"Buchbrunn","type":"Kreisangehörige_Gemeinde"},"district":{"key":"09675","name":"Kitzingen","type":"Landkreis"},"federalState":{"key":"09","name":"Bayern"}},{"name":"Bibergauer Weg","postalCode":"97320","locality":"Buchbrunn","municipality":{"key":"09675114","name":"Buchbrunn","type":"Kreisangehörige_Gemeinde"},"district":{"key":"09675","name":"Kitzingen","type":"Landkreis"},"federalState":{"key":"09","name":"Bayern"}},{"name":"conneKT","postalCode":"97318","locality":"Kitzingen","municipality":{"key":"09675141","name":"Kitzingen, GKSt","type":"Große_Kreisstadt"},"district":{"key":"09675","name":"Kitzingen","type":"Landkreis"},"federalState":{"key":"09","name":"Bayern"}},{"name":"Dagmar-Voßkühler-Str.","postalCode":"97318","locality":"Kitzingen","municipality":{"key":"09675141","name":"Kitzingen, GKSt","type":"Große_Kreisstadt"},"district":{"key":"09675","name":"Kitzingen","type":"Landkreis"},"federalState":{"key":"09","name":"Bayern"}},{"name":"Dietwarstr.","postalCode":"97318","locality":"Kitzingen","municipality":{"key":"09675141","name":"Kitzingen, GKSt","type":"Große_Kreisstadt"},"district":{"key":"09675","name":"Kitzingen","type":"Landkreis"},"federalState":{"key":"09","name":"Bayern"}},{"name":"Distelweg","postalCode":"97318","locality":"Kitzingen","municipality":{"key":"09675141","name":"Kitzingen, GKSt","type":"Große_Kreisstadt"},"district":{"key":"09675","name":"Kitzingen","type":"Landkreis"},"federalState":{"key":"09","name":"Bayern"}},{"name":"Drosselweg","postalCode":"97318","locality":"Kitzingen","municipality":{"key":"09675141","name":"Kitzingen, GKSt","type":"Große_Kreisstadt"},"district":{"key":"09675","name":"Kitzingen","type":"Landkreis"},"federalState":{"key":"09","name":"Bayern"}},{"name":"Egerländer Str.","postalCode":"97318","locality":"Kitzingen","municipality":{"key":"09675141","name":"Kitzingen, GKSt","type":"Große_Kreisstadt"},"district":{"key":"09675","name":"Kitzingen","type":"Landkreis"},"federalState":{"key":"09","name":"Bayern"}},{"name":"Engelbert-Bach-Str.","postalCode":"97318","locality":"Kitzingen","municipality":{"key":"09675141","name":"Kitzingen, GKSt","type":"Große_Kreisstadt"},"district":{"key":"09675","name":"Kitzingen","type":"Landkreis"},"federalState":{"key":"09","name":"Bayern"}},{"name":"Ernst-Reuter-Str.","postalCode":"97318","locality":"Kitzingen","municipality":{"key":"09675141","name":"Kitzingen, GKSt","type":"Große_Kreisstadt"},"district":{"key":"09675","name":"Kitzingen","type":"Landkreis"},"federalState":{"key":"09","name":"Bayern"}},{"name":"Eselsberg","postalCode":"97318","locality":"Kitzingen","municipality":{"key":"09675141","name":"Kitzingen, GKSt","type":"Große_Kreisstadt"},"district":{"key":"09675","name":"Kitzingen","type":"Landkreis"},"federalState":{"key":"09","name":"Bayern"}},{"name":"Friedhofsweg","postalCode":"97320","locality":"Buchbrunn","municipality":{"key":"09675114","name":"Buchbrunn","type":"Kreisangehörige_Gemeinde"},"district":{"key":"09675","name":"Kitzingen","type":"Landkreis"},"federalState":{"key":"09","name":"Bayern"}},{"name":"Gartenstr.","postalCode":"97320","locality":"Buchbrunn","municipality":{"key":"09675114","name":"Buchbrunn","type":"Kreisangehörige_Gemeinde"},"district":{"key":"09675","name":"Kitzingen","type":"Landkreis"},"federalState":{"key":"09","name":"Bayern"}},{"name":"Hans-Gernet-Str.","postalCode":"97320","locality":"Buchbrunn","municipality":{"key":"09675114","name":"Buchbrunn","type":"Kreisangehörige_Gemeinde"},"district":{"key":"09675","name":"Kitzingen","type":"Landkreis"},"federalState":{"key":"09","name":"Bayern"}},{"name":"Hauptstr.","postalCode":"97320","locality":"Buchbrunn","municipality":{"key":"09675114","name":"Buchbrunn","type":"Kreisangehörige_Gemeinde"},"district":{"key":"09675","name":"Kitzingen","type":"Landkreis"},"federalState":{"key":"09","name":"Bayern"}},{"name":"Hauptstrasße","postalCode":"97320","locality":"Buchbrunn","municipality":{"key":"09675114","name":"Buchbrunn","type":"Kreisangehörige_Gemeinde"},"district":{"key":"09675","name":"Kitzingen","type":"Landkreis"},"federalState":{"key":"09","name":"Bayern"}},{"name":"Hofstr.","postalCode":"97320","locality":"Buchbrunn","municipality":{"key":"09675114","name":"Buchbrunn","type":"Kreisangehörige_Gemeinde"},"district":{"key":"09675","name":"Kitzingen","type":"Landkreis"},"federalState":{"key":"09","name":"Bayern"}},{"name":"Im Eigen","postalCode":"97318","locality":"Kitzingen","municipality":{"key":"09675141","name":"Kitzingen, GKSt","type":"Große_Kreisstadt"},"district":{"key":"09675","name":"Kitzingen","type":"Landkreis"},"federalState":{"key":"09","name":"Bayern"}},{"name":"Im Gartenland","postalCode":"97318","locality":"Kitzingen","municipality":{"key":"09675141","name":"Kitzingen, GKSt","type":"Große_Kreisstadt"},"district":{"key":"09675","name":"Kitzingen","type":"Landkreis"},"federalState":{"key":"09","name":"Bayern"}},{"name":"Im Hasenlauf","postalCode":"97318","locality":"Kitzingen","municipality":{"key":"09675141","name":"Kitzingen, GKSt","type":"Große_Kreisstadt"},"district":{"key":"09675","name":"Kitzingen","type":"Landkreis"},"federalState":{"key":"09","name":"Bayern"}},{"name":"Innere Sulzfelder Str.","postalCode":"97318","locality":"Kitzingen","municipality":{"key":"09675141","name":"Kitzingen, GKSt","type":"Große_Kreisstadt"},"district":{"key":"09675","name":"Kitzingen","type":"Landkreis"},"federalState":{"key":"09","name":"Bayern"}},{"name":"Jahnstr.","postalCode":"97318","locality":"Kitzingen","municipality":{"key":"09675141","name":"Kitzingen, GKSt","type":"Große_Kreisstadt"},"district":{"key":"09675","name":"Kitzingen","type":"Landkreis"},"federalState":{"key":"09","name":"Bayern"}},{"name":"Johann-Adam-Kleinschroth-Str.","postalCode":"97318","locality":"Kitzingen","municipality":{"key":"09675141","name":"Kitzingen, GKSt","type":"Große_Kreisstadt"},"district":{"key":"09675","name":"Kitzingen","type":"Landkreis"},"federalState":{"key":"09","name":"Bayern"}},{"name":"Kirchgasse","postalCode":"97320","locality":"Buchbrunn","municipality":{"key":"09675114","name":"Buchbrunn","type":"Kreisangehörige_Gemeinde"},"district":{"key":"09675","name":"Kitzingen","type":"Landkreis"},"federalState":{"key":"09","name":"Bayern"}},{"name":"Kitzinger Str.","postalCode":"97320","locality":"Buchbrunn","municipality":{"key":"09675114","name":"Buchbrunn","type":"Kreisangehörige_Gemeinde"},"district":{"key":"09675","name":"Kitzingen","type":"Landkreis"},"federalState":{"key":"09","name":"Bayern"}},{"name":"Klettenbergstr.","postalCode":"97320","locality":"Buchbrunn","municipality":{"key":"09675114","name":"Buchbrunn","type":"Kreisangehörige_Gemeinde"},"district":{"key":"09675","name":"Kitzingen","type":"Landkreis"},"federalState":{"key":"09","name":"Bayern"}},{"name":"Landwehrstr.","postalCode":"97318","locality":"Kitzingen","municipality":{"key":"09675141","name":"Kitzingen, GKSt","type":"Große_Kreisstadt"},"district":{"key":"09675","name":"Kitzingen","type":"Landkreis"},"federalState":{"key":"09","name":"Bayern"}},{"name":"Langemarckstr.","postalCode":"97318","locality":"Kitzingen","municipality":{"key":"09675141","name":"Kitzingen, GKSt","type":"Große_Kreisstadt"},"district":{"key":"09675","name":"Kitzingen","type":"Landkreis"},"federalState":{"key":"09","name":"Bayern"}},{"name":"Lerchenbühl","postalCode":"97318","locality":"Kitzingen","municipality":{"key":"09675141","name":"Kitzingen, GKSt","type":"Große_Kreisstadt"},"district":{"key":"09675","name":"Kitzingen","type":"Landkreis"},"federalState":{"key":"09","name":"Bayern"}},{"name":"Levi-Strauss-Str.","postalCode":"97318","locality":"Kitzingen","municipality":{"key":"09675141","name":"Kitzingen, GKSt","type":"Große_Kreisstadt"},"district":{"key":"09675","name":"Kitzingen","type":"Landkreis"},"federalState":{"key":"09","name":"Bayern"}},{"name":"Liegnitzer Str.","postalCode":"97318","locality":"Kitzingen","municipality":{"key":"09675141","name":"Kitzingen, GKSt","type":"Große_Kreisstadt"},"district":{"key":"09675","name":"Kitzingen","type":"Landkreis"},"federalState":{"key":"09","name":"Bayern"}},{"name":"Lindenstr.","postalCode":"97318","locality":"Kitzingen","municipality":{"key":"09675141","name":"Kitzingen, GKSt","type":"Große_Kreisstadt"},"district":{"key":"09675","name":"Kitzingen","type":"Landkreis"},"federalState":{"key":"09","name":"Bayern"}},{"name":"Lochweg","postalCode":"97318","locality":"Kitzingen","municipality":{"key":"09675141","name":"Kitzingen, GKSt","type":"Große_Kreisstadt"},"district":{"key":"09675","name":"Kitzingen","type":"Landkreis"},"federalState":{"key":"09","name":"Bayern"}},{"name":"Luitpoldstr.","postalCode":"97318","locality":"Kitzingen","municipality":{"key":"09675141","name":"Kitzingen, GKSt","type":"Große_Kreisstadt"},"district":{"key":"09675","name":"Kitzingen","type":"Landkreis"},"federalState":{"key":"09","name":"Bayern"}},{"name":"Margarete-Schloßnagel-Weg","postalCode":"97320","locality":"Buchbrunn","municipality":{"key":"09675114","name":"Buchbrunn","type":"Kreisangehörige_Gemeinde"},"district":{"key":"09675","name":"Kitzingen","type":"Landkreis"},"federalState":{"key":"09","name":"Bayern"}},{"name":"Neubaustr.","postalCode":"97320","locality":"Buchbrunn","municipality":{"key":"09675114","name":"Buchbrunn","type":"Kreisangehörige_Gemeinde"},"district":{"key":"09675","name":"Kitzingen","type":"Landkreis"},"federalState":{"key":"09","name":"Bayern"}},{"name":"Neuer Weg","postalCode":"97320","locality":"Buchbrunn","municipality":{"key":"09675114","name":"Buchbrunn","type":"Kreisangehörige_Gemeinde"},"district":{"key":"09675","name":"Kitzingen","type":"Landkreis"},"federalState":{"key":"09","name":"Bayern"}},{"name":"Obere Bachgasse","postalCode":"97318","locality":"Kitzingen","municipality":{"key":"09675141","name":"Kitzingen, GKSt","type":"Große_Kreisstadt"},"district":{"key":"09675","name":"Kitzingen","type":"Landkreis"},"federalState":{"key":"09","name":"Bayern"}},{"name":"Obere Neue Gasse","postalCode":"97318","locality":"Kitzingen","municipality":{"key":"09675141","name":"Kitzingen, GKSt","type":"Große_Kreisstadt"},"district":{"key":"09675","name":"Kitzingen","type":"Landkreis"},"federalState":{"key":"09","name":"Bayern"}},{"name":"Oberer Fuchsgraben","postalCode":"97318","locality":"Kitzingen","municipality":{"key":"09675141","name":"Kitzingen, GKSt","type":"Große_Kreisstadt"},"district":{"key":"09675","name":"Kitzingen","type":"Landkreis"},"federalState":{"key":"09","name":"Bayern"}},{"name":"Oberer Mainkai","postalCode":"97318","locality":"Kitzingen","municipality":{"key":"09675141","name":"Kitzingen, GKSt","type":"Große_Kreisstadt"},"district":{"key":"09675","name":"Kitzingen","type":"Landkreis"},"federalState":{"key":"09","name":"Bayern"}},{"name":"Olga-Pöhlmann-Str.","postalCode":"97318","locality":"Kitzingen","municipality":{"key":"09675141","name":"Kitzingen, GKSt","type":"Große_Kreisstadt"},"district":{"key":"09675","name":"Kitzingen","type":"Landkreis"},"federalState":{"key":"09","name":"Bayern"}},{"name":"Panoramaweg","postalCode":"97318","locality":"Kitzingen","municipality":{"key":"09675141","name":"Kitzingen, GKSt","type":"Große_Kreisstadt"},"district":{"key":"09675","name":"Kitzingen","type":"Landkreis"},"federalState":{"key":"09","name":"Bayern"}},{"name":"Panzerstr.","postalCode":"97318","locality":"Kitzingen","municipality":{"key":"09675141","name":"Kitzingen, GKSt","type":"Große_Kreisstadt"},"district":{"key":"09675","name":"Kitzingen","type":"Landkreis"},"federalState":{"key":"09","name":"Bayern"}},{"name":"Paul-Eber-Str.","postalCode":"97318","locality":"Kitzingen","municipality":{"key":"09675141","name":"Kitzingen, GKSt","type":"Große_Kreisstadt"},"district":{"key":"09675","name":"Kitzingen","type":"Landkreis"},"federalState":{"key":"09","name":"Bayern"}},{"name":"Paul-Rücklein-Str.","postalCode":"97318","locality":"Kitzingen","municipality":{"key":"09675141","name":"Kitzingen, GKSt","type":"Große_Kreisstadt"},"district":{"key":"09675","name":"Kitzingen","type":"Landkreis"},"federalState":{"key":"09","name":"Bayern"}},{"name":"Pfaffensteige","postalCode":"97318","locality":"Kitzingen","municipality":{"key":"09675141","name":"Kitzingen, GKSt","type":"Große_Kreisstadt"},"district":{"key":"09675","name":"Kitzingen","type":"Landkreis"},"federalState":{"key":"09","name":"Bayern"}},{"name":"Pflaumengasse","postalCode":"97318","locality":"Kitzingen","municipality":{"key":"09675141","name":"Kitzingen, GKSt","type":"Große_Kreisstadt"},"district":{"key":"09675","name":"Kitzingen","type":"Landkreis"},"federalState":{"key":"09","name":"Bayern"}},{"name":"Posener Str.","postalCode":"97318","locality":"Kitzingen","municipality":{"key":"09675141","name":"Kitzingen, GKSt","type":"Große_Kreisstadt"},"district":{"key":"09675","name":"Kitzingen","type":"Landkreis"},"federalState":{"key":"09","name":"Bayern"}},{"name":"Poststr.","postalCode":"97318","locality":"Kitzingen","municipality":{"key":"09675141","name":"Kitzingen, GKSt","type":"Große_Kreisstadt"},"district":{"key":"09675","name":"Kitzingen","type":"Landkreis"},"federalState":{"key":"09","name":"Bayern"}},{"name":"Ringstr.","postalCode":"97320","locality":"Buchbrunn","municipality":{"key":"09675114","name":"Buchbrunn","type":"Kreisangehörige_Gemeinde"},"district":{"key":"09675","name":"Kitzingen","type":"Landkreis"},"federalState":{"key":"09","name":"Bayern"}},{"name":"Schulstr.","postalCode":"97320","locality":"Buchbrunn","municipality":{"key":"09675114","name":"Buchbrunn","type":"Kreisangehörige_Gemeinde"},"district":{"key":"09675","name":"Kitzingen","type":"Landkreis"},"federalState":{"key":"09","name":"Bayern"}},{"name":"Talstr.","postalCode":"97318","locality":"Kitzingen","municipality":{"key":"09675141","name":"Kitzingen, GKSt","type":"Große_Kreisstadt"},"district":{"key":"09675","name":"Kitzingen","type":"Landkreis"},"federalState":{"key":"09","name":"Bayern"}},{"name":"Tannenbergstr.","postalCode":"97318","locality":"Kitzingen","municipality":{"key":"09675141","name":"Kitzingen, GKSt","type":"Große_Kreisstadt"},"district":{"key":"09675","name":"Kitzingen","type":"Landkreis"},"federalState":{"key":"09","name":"Bayern"}},{"name":"Tännigstr.","postalCode":"97318","locality":"Kitzingen","municipality":{"key":"09675141","name":"Kitzingen, GKSt","type":"Große_Kreisstadt"},"district":{"key":"09675","name":"Kitzingen","type":"Landkreis"},"federalState":{"key":"09","name":"Bayern"}},{"name":"Texasweg","postalCode":"97318","locality":"Kitzingen","municipality":{"key":"09675141","name":"Kitzingen, GKSt","type":"Große_Kreisstadt"},"district":{"key":"09675","name":"Kitzingen","type":"Landkreis"},"federalState":{"key":"09","name":"Bayern"}},{"name":"Thomas-Ehemann-Str.","postalCode":"97318","locality":"Kitzingen","municipality":{"key":"09675141","name":"Kitzingen, GKSt","type":"Große_Kreisstadt"},"district":{"key":"09675","name":"Kitzingen","type":"Landkreis"},"federalState":{"key":"09","name":"Bayern"}},{"name":"Thüringer Str.","postalCode":"97318","locality":"Kitzingen","municipality":{"key":"09675141","name":"Kitzingen, GKSt","type":"Große_Kreisstadt"},"district":{"key":"09675","name":"Kitzingen","type":"Landkreis"},"federalState":{"key":"09","name":"Bayern"}},{"name":"Tilsiter Str.","postalCode":"97318","locality":"Kitzingen","municipality":{"key":"09675141","name":"Kitzingen, GKSt","type":"Große_Kreisstadt"},"district":{"key":"09675","name":"Kitzingen","type":"Landkreis"},"federalState":{"key":"09","name":"Bayern"}},{"name":"Uhlandstr.","postalCode":"97318","locality":"Kitzingen","municipality":{"key":"09675141","name":"Kitzingen, GKSt","type":"Große_Kreisstadt"},"district":{"key":"09675","name":"Kitzingen","type":"Landkreis"},"federalState":{"key":"09","name":"Bayern"}},{"name":"Umgehungsstr.","postalCode":"97318","locality":"Kitzingen","municipality":{"key":"09675141","name":"Kitzingen, GKSt","type":"Große_Kreisstadt"},"district":{"key":"09675","name":"Kitzingen","type":"Landkreis"},"federalState":{"key":"09","name":"Bayern"}},{"name":"Untere Bachgasse","postalCode":"97318","locality":"Kitzingen","municipality":{"key":"09675141","name":"Kitzingen, GKSt","type":"Große_Kreisstadt"},"district":{"key":"09675","name":"Kitzingen","type":"Landkreis"},"federalState":{"key":"09","name":"Bayern"}},{"name":"Untere Neue Gasse","postalCode":"97318","locality":"Kitzingen","municipality":{"key":"09675141","name":"Kitzingen, GKSt","type":"Große_Kreisstadt"},"district":{"key":"09675","name":"Kitzingen","type":"Landkreis"},"federalState":{"key":"09","name":"Bayern"}},{"name":"Unterer Fuchsgraben","postalCode":"97318","locality":"Kitzingen","municipality":{"key":"09675141","name":"Kitzingen, GKSt","type":"Große_Kreisstadt"},"district":{"key":"09675","name":"Kitzingen","type":"Landkreis"},"federalState":{"key":"09","name":"Bayern"}},{"name":"Unterer Mainkai","postalCode":"97318","locality":"Kitzingen","municipality":{"key":"09675141","name":"Kitzingen, GKSt","type":"Große_Kreisstadt"},"district":{"key":"09675","name":"Kitzingen","type":"Landkreis"},"federalState":{"key":"09","name":"Bayern"}},{"name":"Völkersgasse","postalCode":"97318","locality":"Kitzingen","municipality":{"key":"09675141","name":"Kitzingen, GKSt","type":"Große_Kreisstadt"},"district":{"key":"09675","name":"Kitzingen","type":"Landkreis"},"federalState":{"key":"09","name":"Bayern"}},{"name":"Von-Deuster-Str.","postalCode":"97318","locality":"Kitzingen","municipality":{"key":"09675141","name":"Kitzingen, GKSt","type":"Große_Kreisstadt"},"district":{"key":"09675","name":"Kitzingen","type":"Landkreis"},"federalState":{"key":"09","name":"Bayern"}},{"name":"Wiesenweg","postalCode":"97320","locality":"Buchbrunn","municipality":{"key":"09675114","name":"Buchbrunn","type":"Kreisangehörige_Gemeinde"},"district":{"key":"09675","name":"Kitzingen","type":"Landkreis"},"federalState":{"key":"09","name":"Bayern"}},{"name":"Zehnthofgasse","postalCode":"97318","locality":"Kitzingen","municipality":{"key":"09675141","name":"Kitzingen, GKSt","type":"Große_Kreisstadt"},"district":{"key":"09675","name":"Kitzingen","type":"Landkreis"},"federalState":{"key":"09","name":"Bayern"}},{"name":"Zeppelinstr.","postalCode":"97318","locality":"Kitzingen","municipality":{"key":"09675141","name":"Kitzingen, GKSt","type":"Große_Kreisstadt"},"district":{"key":"09675","name":"Kitzingen","type":"Landkreis"},"federalState":{"key":"09","name":"Bayern"}},{"name":"Ziegelbergstr.","postalCode":"97318","locality":"Kitzingen","municipality":{"key":"09675141","name":"Kitzingen, GKSt","type":"Große_Kreisstadt"},"district":{"key":"09675","name":"Kitzingen","type":"Landkreis"},"federalState":{"key":"09","name":"Bayern"}},{"name":"Zitterackerweg","postalCode":"97318","locality":"Kitzingen","municipality":{"key":"09675141","name":"Kitzingen, GKSt","type":"Große_Kreisstadt"},"district":{"key":"09675","name":"Kitzingen","type":"Landkreis"},"federalState":{"key":"09","name":"Bayern"}},{"name":"Zum Oberbäumle","postalCode":"97318","locality":"Kitzingen","municipality":{"key":"09675141","name":"Kitzingen, GKSt","type":"Große_Kreisstadt"},"district":{"key":"09675","name":"Kitzingen","type":"Landkreis"},"federalState":{"key":"09","name":"Bayern"}},{"name":"Äußere Sulzfelder Str.","postalCode":"97318","locality":"Kitzingen","municipality":{"key":"09675141","name":"Kitzingen, GKSt","type":"Große_Kreisstadt"},"district":{"key":"09675","name":"Kitzingen","type":"Landkreis"},"federalState":{"key":"09","name":"Bayern"}},{"name":"Ödersgasse","postalCode":"97318","locality":"Kitzingen","municipality":{"key":"09675141","name":"Kitzingen, GKSt","type":"Große_Kreisstadt"},"district":{"key":"09675","name":"Kitzingen","type":"Landkreis"},"federalState":{"key":"09","name":"Bayern"}},]