[{"name":"Ahornstr.","postalCode":"92367","locality":"Pilsach","municipality":{"key":"09373153","name":"Pilsach","type":"Kreisangehörige_Gemeinde"},"district":{"key":"09373","name":"Neumarkt i.d.OPf.","type":"Landkreis"},"federalState":{"key":"09","name":"Bayern"}},{"name":"Alfalter","postalCode":"92367","locality":"Pilsach","municipality":{"key":"09373153","name":"Pilsach","type":"Kreisangehörige_Gemeinde"},"district":{"key":"09373","name":"Neumarkt i.d.OPf.","type":"Landkreis"},"federalState":{"key":"09","name":"Bayern"}},{"name":"Amberger Str.","postalCode":"92367","locality":"Pilsach","municipality":{"key":"09373153","name":"Pilsach","type":"Kreisangehörige_Gemeinde"},"district":{"key":"09373","name":"Neumarkt i.d.OPf.","type":"Landkreis"},"federalState":{"key":"09","name":"Bayern"}},{"name":"Am Hofacker","postalCode":"92367","locality":"Pilsach","municipality":{"key":"09373153","name":"Pilsach","type":"Kreisangehörige_Gemeinde"},"district":{"key":"09373","name":"Neumarkt i.d.OPf.","type":"Landkreis"},"federalState":{"key":"09","name":"Bayern"}},{"name":"Am Kirchplatz","postalCode":"92367","locality":"Pilsach","municipality":{"key":"09373153","name":"Pilsach","type":"Kreisangehörige_Gemeinde"},"district":{"key":"09373","name":"Neumarkt i.d.OPf.","type":"Landkreis"},"federalState":{"key":"09","name":"Bayern"}},{"name":"Am Königsweg","postalCode":"92367","locality":"Pilsach","municipality":{"key":"09373153","name":"Pilsach","type":"Kreisangehörige_Gemeinde"},"district":{"key":"09373","name":"Neumarkt i.d.OPf.","type":"Landkreis"},"federalState":{"key":"09","name":"Bayern"}},{"name":"Ammelhofen","postalCode":"92367","locality":"Pilsach","municipality":{"key":"09373153","name":"Pilsach","type":"Kreisangehörige_Gemeinde"},"district":{"key":"09373","name":"Neumarkt i.d.OPf.","type":"Landkreis"},"federalState":{"key":"09","name":"Bayern"}},{"name":"Am Ottenberg","postalCode":"92367","locality":"Pilsach","municipality":{"key":"09373153","name":"Pilsach","type":"Kreisangehörige_Gemeinde"},"district":{"key":"09373","name":"Neumarkt i.d.OPf.","type":"Landkreis"},"federalState":{"key":"09","name":"Bayern"}},{"name":"Am Schneckenbach","postalCode":"92367","locality":"Pilsach","municipality":{"key":"09373153","name":"Pilsach","type":"Kreisangehörige_Gemeinde"},"district":{"key":"09373","name":"Neumarkt i.d.OPf.","type":"Landkreis"},"federalState":{"key":"09","name":"Bayern"}},{"name":"An der Laaberquelle","postalCode":"92367","locality":"Pilsach","municipality":{"key":"09373153","name":"Pilsach","type":"Kreisangehörige_Gemeinde"},"district":{"key":"09373","name":"Neumarkt i.d.OPf.","type":"Landkreis"},"federalState":{"key":"09","name":"Bayern"}},{"name":"Angerweg","postalCode":"92367","locality":"Pilsach","municipality":{"key":"09373153","name":"Pilsach","type":"Kreisangehörige_Gemeinde"},"district":{"key":"09373","name":"Neumarkt i.d.OPf.","type":"Landkreis"},"federalState":{"key":"09","name":"Bayern"}},{"name":"Anzenhofen","postalCode":"92367","locality":"Pilsach","municipality":{"key":"09373153","name":"Pilsach","type":"Kreisangehörige_Gemeinde"},"district":{"key":"09373","name":"Neumarkt i.d.OPf.","type":"Landkreis"},"federalState":{"key":"09","name":"Bayern"}},{"name":"Bergstr.","postalCode":"92367","locality":"Pilsach","municipality":{"key":"09373153","name":"Pilsach","type":"Kreisangehörige_Gemeinde"},"district":{"key":"09373","name":"Neumarkt i.d.OPf.","type":"Landkreis"},"federalState":{"key":"09","name":"Bayern"}},{"name":"Bernthaler Str.","postalCode":"92367","locality":"Pilsach","municipality":{"key":"09373153","name":"Pilsach","type":"Kreisangehörige_Gemeinde"},"district":{"key":"09373","name":"Neumarkt i.d.OPf.","type":"Landkreis"},"federalState":{"key":"09","name":"Bayern"}},{"name":"Birkenstr.","postalCode":"92367","locality":"Pilsach","municipality":{"key":"09373153","name":"Pilsach","type":"Kreisangehörige_Gemeinde"},"district":{"key":"09373","name":"Neumarkt i.d.OPf.","type":"Landkreis"},"federalState":{"key":"09","name":"Bayern"}},{"name":"Bislohweg","postalCode":"92367","locality":"Pilsach","municipality":{"key":"09373153","name":"Pilsach","type":"Kreisangehörige_Gemeinde"},"district":{"key":"09373","name":"Neumarkt i.d.OPf.","type":"Landkreis"},"federalState":{"key":"09","name":"Bayern"}},{"name":"Bohleitenweg","postalCode":"92367","locality":"Pilsach","municipality":{"key":"09373153","name":"Pilsach","type":"Kreisangehörige_Gemeinde"},"district":{"key":"09373","name":"Neumarkt i.d.OPf.","type":"Landkreis"},"federalState":{"key":"09","name":"Bayern"}},{"name":"Brunnenweg","postalCode":"92367","locality":"Pilsach","municipality":{"key":"09373153","name":"Pilsach","type":"Kreisangehörige_Gemeinde"},"district":{"key":"09373","name":"Neumarkt i.d.OPf.","type":"Landkreis"},"federalState":{"key":"09","name":"Bayern"}},{"name":"Buchsteinstr.","postalCode":"92367","locality":"Pilsach","municipality":{"key":"09373153","name":"Pilsach","type":"Kreisangehörige_Gemeinde"},"district":{"key":"09373","name":"Neumarkt i.d.OPf.","type":"Landkreis"},"federalState":{"key":"09","name":"Bayern"}},{"name":"Burgweg","postalCode":"92367","locality":"Pilsach","municipality":{"key":"09373153","name":"Pilsach","type":"Kreisangehörige_Gemeinde"},"district":{"key":"09373","name":"Neumarkt i.d.OPf.","type":"Landkreis"},"federalState":{"key":"09","name":"Bayern"}},{"name":"Christoph-Probst-Str.","postalCode":"92348","locality":"Berg b.Neumarkt i.d.OPf.","municipality":{"key":"09373113","name":"Berg b.Neumarkt i.d.OPf.","type":"Kreisangehörige_Gemeinde"},"district":{"key":"09373","name":"Neumarkt i.d.OPf.","type":"Landkreis"},"federalState":{"key":"09","name":"Bayern"}},{"name":"Danlohe","postalCode":"92367","locality":"Pilsach","municipality":{"key":"09373153","name":"Pilsach","type":"Kreisangehörige_Gemeinde"},"district":{"key":"09373","name":"Neumarkt i.d.OPf.","type":"Landkreis"},"federalState":{"key":"09","name":"Bayern"}},{"name":"Dorfstr.","postalCode":"92367","locality":"Pilsach","municipality":{"key":"09373153","name":"Pilsach","type":"Kreisangehörige_Gemeinde"},"district":{"key":"09373","name":"Neumarkt i.d.OPf.","type":"Landkreis"},"federalState":{"key":"09","name":"Bayern"}},{"name":"Eichenstr.","postalCode":"92367","locality":"Pilsach","municipality":{"key":"09373153","name":"Pilsach","type":"Kreisangehörige_Gemeinde"},"district":{"key":"09373","name":"Neumarkt i.d.OPf.","type":"Landkreis"},"federalState":{"key":"09","name":"Bayern"}},{"name":"Eispertshofen","postalCode":"92367","locality":"Pilsach","municipality":{"key":"09373153","name":"Pilsach","type":"Kreisangehörige_Gemeinde"},"district":{"key":"09373","name":"Neumarkt i.d.OPf.","type":"Landkreis"},"federalState":{"key":"09","name":"Bayern"}},{"name":"Emmeramsplatz","postalCode":"92367","locality":"Pilsach","municipality":{"key":"09373153","name":"Pilsach","type":"Kreisangehörige_Gemeinde"},"district":{"key":"09373","name":"Neumarkt i.d.OPf.","type":"Landkreis"},"federalState":{"key":"09","name":"Bayern"}},{"name":"Erlenweg","postalCode":"92367","locality":"Pilsach","municipality":{"key":"09373153","name":"Pilsach","type":"Kreisangehörige_Gemeinde"},"district":{"key":"09373","name":"Neumarkt i.d.OPf.","type":"Landkreis"},"federalState":{"key":"09","name":"Bayern"}},{"name":"Eschertshofen","postalCode":"92367","locality":"Pilsach","municipality":{"key":"09373153","name":"Pilsach","type":"Kreisangehörige_Gemeinde"},"district":{"key":"09373","name":"Neumarkt i.d.OPf.","type":"Landkreis"},"federalState":{"key":"09","name":"Bayern"}},{"name":"Florianstr.","postalCode":"92367","locality":"Pilsach","municipality":{"key":"09373153","name":"Pilsach","type":"Kreisangehörige_Gemeinde"},"district":{"key":"09373","name":"Neumarkt i.d.OPf.","type":"Landkreis"},"federalState":{"key":"09","name":"Bayern"}},{"name":"Flurstr.","postalCode":"92367","locality":"Pilsach","municipality":{"key":"09373153","name":"Pilsach","type":"Kreisangehörige_Gemeinde"},"district":{"key":"09373","name":"Neumarkt i.d.OPf.","type":"Landkreis"},"federalState":{"key":"09","name":"Bayern"}},{"name":"Giggling","postalCode":"92367","locality":"Pilsach","municipality":{"key":"09373153","name":"Pilsach","type":"Kreisangehörige_Gemeinde"},"district":{"key":"09373","name":"Neumarkt i.d.OPf.","type":"Landkreis"},"federalState":{"key":"09","name":"Bayern"}},{"name":"Gigglinger Weg","postalCode":"92367","locality":"Pilsach","municipality":{"key":"09373153","name":"Pilsach","type":"Kreisangehörige_Gemeinde"},"district":{"key":"09373","name":"Neumarkt i.d.OPf.","type":"Landkreis"},"federalState":{"key":"09","name":"Bayern"}},{"name":"Grasweg","postalCode":"92367","locality":"Pilsach","municipality":{"key":"09373153","name":"Pilsach","type":"Kreisangehörige_Gemeinde"},"district":{"key":"09373","name":"Neumarkt i.d.OPf.","type":"Landkreis"},"federalState":{"key":"09","name":"Bayern"}},{"name":"Grund","postalCode":"92367","locality":"Pilsach","municipality":{"key":"09373153","name":"Pilsach","type":"Kreisangehörige_Gemeinde"},"district":{"key":"09373","name":"Neumarkt i.d.OPf.","type":"Landkreis"},"federalState":{"key":"09","name":"Bayern"}},{"name":"Hauptstr.","postalCode":"92367","locality":"Pilsach","municipality":{"key":"09373153","name":"Pilsach","type":"Kreisangehörige_Gemeinde"},"district":{"key":"09373","name":"Neumarkt i.d.OPf.","type":"Landkreis"},"federalState":{"key":"09","name":"Bayern"}},{"name":"Hiltzhofener Steig","postalCode":"92367","locality":"Pilsach","municipality":{"key":"09373153","name":"Pilsach","type":"Kreisangehörige_Gemeinde"},"district":{"key":"09373","name":"Neumarkt i.d.OPf.","type":"Landkreis"},"federalState":{"key":"09","name":"Bayern"}},{"name":"Hilzhofen","postalCode":"92367","locality":"Pilsach","municipality":{"key":"09373153","name":"Pilsach","type":"Kreisangehörige_Gemeinde"},"district":{"key":"09373","name":"Neumarkt i.d.OPf.","type":"Landkreis"},"federalState":{"key":"09","name":"Bayern"}},{"name":"Hilzhofener Steig","postalCode":"92367","locality":"Pilsach","municipality":{"key":"09373153","name":"Pilsach","type":"Kreisangehörige_Gemeinde"},"district":{"key":"09373","name":"Neumarkt i.d.OPf.","type":"Landkreis"},"federalState":{"key":"09","name":"Bayern"}},{"name":"Hirtenweg","postalCode":"92367","locality":"Pilsach","municipality":{"key":"09373153","name":"Pilsach","type":"Kreisangehörige_Gemeinde"},"district":{"key":"09373","name":"Neumarkt i.d.OPf.","type":"Landkreis"},"federalState":{"key":"09","name":"Bayern"}},{"name":"Hofmühlstr.","postalCode":"92367","locality":"Pilsach","municipality":{"key":"09373153","name":"Pilsach","type":"Kreisangehörige_Gemeinde"},"district":{"key":"09373","name":"Neumarkt i.d.OPf.","type":"Landkreis"},"federalState":{"key":"09","name":"Bayern"}},{"name":"Höhenweg","postalCode":"92367","locality":"Pilsach","municipality":{"key":"09373153","name":"Pilsach","type":"Kreisangehörige_Gemeinde"},"district":{"key":"09373","name":"Neumarkt i.d.OPf.","type":"Landkreis"},"federalState":{"key":"09","name":"Bayern"}},{"name":"Hoher Rain","postalCode":"92367","locality":"Pilsach","municipality":{"key":"09373153","name":"Pilsach","type":"Kreisangehörige_Gemeinde"},"district":{"key":"09373","name":"Neumarkt i.d.OPf.","type":"Landkreis"},"federalState":{"key":"09","name":"Bayern"}},{"name":"Holzweg","postalCode":"92367","locality":"Pilsach","municipality":{"key":"09373153","name":"Pilsach","type":"Kreisangehörige_Gemeinde"},"district":{"key":"09373","name":"Neumarkt i.d.OPf.","type":"Landkreis"},"federalState":{"key":"09","name":"Bayern"}},{"name":"Hundsmaul","postalCode":"92367","locality":"Pilsach","municipality":{"key":"09373153","name":"Pilsach","type":"Kreisangehörige_Gemeinde"},"district":{"key":"09373","name":"Neumarkt i.d.OPf.","type":"Landkreis"},"federalState":{"key":"09","name":"Bayern"}},{"name":"Im Grund","postalCode":"92348","locality":"Berg b.Neumarkt i.d.OPf.","municipality":{"key":"09373113","name":"Berg b.Neumarkt i.d.OPf.","type":"Kreisangehörige_Gemeinde"},"district":{"key":"09373","name":"Neumarkt i.d.OPf.","type":"Landkreis"},"federalState":{"key":"09","name":"Bayern"}},{"name":"Im See","postalCode":"92348","locality":"Berg b.Neumarkt i.d.OPf.","municipality":{"key":"09373113","name":"Berg b.Neumarkt i.d.OPf.","type":"Kreisangehörige_Gemeinde"},"district":{"key":"09373","name":"Neumarkt i.d.OPf.","type":"Landkreis"},"federalState":{"key":"09","name":"Bayern"}},{"name":"Im Spital","postalCode":"92348","locality":"Berg b.Neumarkt i.d.OPf.","municipality":{"key":"09373113","name":"Berg b.Neumarkt i.d.OPf.","type":"Kreisangehörige_Gemeinde"},"district":{"key":"09373","name":"Neumarkt i.d.OPf.","type":"Landkreis"},"federalState":{"key":"09","name":"Bayern"}},{"name":"Im Weidegrund","postalCode":"92348","locality":"Berg b.Neumarkt i.d.OPf.","municipality":{"key":"09373113","name":"Berg b.Neumarkt i.d.OPf.","type":"Kreisangehörige_Gemeinde"},"district":{"key":"09373","name":"Neumarkt i.d.OPf.","type":"Landkreis"},"federalState":{"key":"09","name":"Bayern"}},{"name":"Irleshof","postalCode":"92348","locality":"Berg b.Neumarkt i.d.OPf.","municipality":{"key":"09373113","name":"Berg b.Neumarkt i.d.OPf.","type":"Kreisangehörige_Gemeinde"},"district":{"key":"09373","name":"Neumarkt i.d.OPf.","type":"Landkreis"},"federalState":{"key":"09","name":"Bayern"}},{"name":"Jakobistr.","postalCode":"92348","locality":"Berg b.Neumarkt i.d.OPf.","municipality":{"key":"09373113","name":"Berg b.Neumarkt i.d.OPf.","type":"Kreisangehörige_Gemeinde"},"district":{"key":"09373","name":"Neumarkt i.d.OPf.","type":"Landkreis"},"federalState":{"key":"09","name":"Bayern"}},{"name":"Johannesstr.","postalCode":"92348","locality":"Berg b.Neumarkt i.d.OPf.","municipality":{"key":"09373113","name":"Berg b.Neumarkt i.d.OPf.","type":"Kreisangehörige_Gemeinde"},"district":{"key":"09373","name":"Neumarkt i.d.OPf.","type":"Landkreis"},"federalState":{"key":"09","name":"Bayern"}},{"name":"Josef-v.-Lehmeier-Str.","postalCode":"92348","locality":"Berg b.Neumarkt i.d.OPf.","municipality":{"key":"09373113","name":"Berg b.Neumarkt i.d.OPf.","type":"Kreisangehörige_Gemeinde"},"district":{"key":"09373","name":"Neumarkt i.d.OPf.","type":"Landkreis"},"federalState":{"key":"09","name":"Bayern"}},{"name":"Jurastr.","postalCode":"92348","locality":"Berg b.Neumarkt i.d.OPf.","municipality":{"key":"09373113","name":"Berg b.Neumarkt i.d.OPf.","type":"Kreisangehörige_Gemeinde"},"district":{"key":"09373","name":"Neumarkt i.d.OPf.","type":"Landkreis"},"federalState":{"key":"09","name":"Bayern"}},{"name":"Kapellenstr.","postalCode":"92367","locality":"Pilsach","municipality":{"key":"09373153","name":"Pilsach","type":"Kreisangehörige_Gemeinde"},"district":{"key":"09373","name":"Neumarkt i.d.OPf.","type":"Landkreis"},"federalState":{"key":"09","name":"Bayern"}},{"name":"Keilhofring","postalCode":"92367","locality":"Pilsach","municipality":{"key":"09373153","name":"Pilsach","type":"Kreisangehörige_Gemeinde"},"district":{"key":"09373","name":"Neumarkt i.d.OPf.","type":"Landkreis"},"federalState":{"key":"09","name":"Bayern"}},{"name":"Kirchweg","postalCode":"92367","locality":"Pilsach","municipality":{"key":"09373153","name":"Pilsach","type":"Kreisangehörige_Gemeinde"},"district":{"key":"09373","name":"Neumarkt i.d.OPf.","type":"Landkreis"},"federalState":{"key":"09","name":"Bayern"}},{"name":"Laaberweg","postalCode":"92367","locality":"Pilsach","municipality":{"key":"09373153","name":"Pilsach","type":"Kreisangehörige_Gemeinde"},"district":{"key":"09373","name":"Neumarkt i.d.OPf.","type":"Landkreis"},"federalState":{"key":"09","name":"Bayern"}},{"name":"Labertalstr.","postalCode":"92367","locality":"Pilsach","municipality":{"key":"09373153","name":"Pilsach","type":"Kreisangehörige_Gemeinde"},"district":{"key":"09373","name":"Neumarkt i.d.OPf.","type":"Landkreis"},"federalState":{"key":"09","name":"Bayern"}},{"name":"Leitenweg","postalCode":"92367","locality":"Pilsach","municipality":{"key":"09373153","name":"Pilsach","type":"Kreisangehörige_Gemeinde"},"district":{"key":"09373","name":"Neumarkt i.d.OPf.","type":"Landkreis"},"federalState":{"key":"09","name":"Bayern"}},{"name":"Lindenstr.","postalCode":"92367","locality":"Pilsach","municipality":{"key":"09373153","name":"Pilsach","type":"Kreisangehörige_Gemeinde"},"district":{"key":"09373","name":"Neumarkt i.d.OPf.","type":"Landkreis"},"federalState":{"key":"09","name":"Bayern"}},{"name":"Litzloher Str.","postalCode":"92367","locality":"Pilsach","municipality":{"key":"09373153","name":"Pilsach","type":"Kreisangehörige_Gemeinde"},"district":{"key":"09373","name":"Neumarkt i.d.OPf.","type":"Landkreis"},"federalState":{"key":"09","name":"Bayern"}},{"name":"Lohweg","postalCode":"92367","locality":"Pilsach","municipality":{"key":"09373153","name":"Pilsach","type":"Kreisangehörige_Gemeinde"},"district":{"key":"09373","name":"Neumarkt i.d.OPf.","type":"Landkreis"},"federalState":{"key":"09","name":"Bayern"}},{"name":"Lupinenweg","postalCode":"92367","locality":"Pilsach","municipality":{"key":"09373153","name":"Pilsach","type":"Kreisangehörige_Gemeinde"},"district":{"key":"09373","name":"Neumarkt i.d.OPf.","type":"Landkreis"},"federalState":{"key":"09","name":"Bayern"}},{"name":"Muscherstr.","postalCode":"92367","locality":"Pilsach","municipality":{"key":"09373153","name":"Pilsach","type":"Kreisangehörige_Gemeinde"},"district":{"key":"09373","name":"Neumarkt i.d.OPf.","type":"Landkreis"},"federalState":{"key":"09","name":"Bayern"}},{"name":"Nelkenstr.","postalCode":"92367","locality":"Pilsach","municipality":{"key":"09373153","name":"Pilsach","type":"Kreisangehörige_Gemeinde"},"district":{"key":"09373","name":"Neumarkt i.d.OPf.","type":"Landkreis"},"federalState":{"key":"09","name":"Bayern"}},{"name":"Neumarkter Str.","postalCode":"92367","locality":"Pilsach","municipality":{"key":"09373153","name":"Pilsach","type":"Kreisangehörige_Gemeinde"},"district":{"key":"09373","name":"Neumarkt i.d.OPf.","type":"Landkreis"},"federalState":{"key":"09","name":"Bayern"}},{"name":"Obere Dorfstr.","postalCode":"92367","locality":"Pilsach","municipality":{"key":"09373153","name":"Pilsach","type":"Kreisangehörige_Gemeinde"},"district":{"key":"09373","name":"Neumarkt i.d.OPf.","type":"Landkreis"},"federalState":{"key":"09","name":"Bayern"}},{"name":"Pettenhofener Weg","postalCode":"92367","locality":"Pilsach","municipality":{"key":"09373153","name":"Pilsach","type":"Kreisangehörige_Gemeinde"},"district":{"key":"09373","name":"Neumarkt i.d.OPf.","type":"Landkreis"},"federalState":{"key":"09","name":"Bayern"}},{"name":"Pfeffertshofener Str.","postalCode":"92367","locality":"Pilsach","municipality":{"key":"09373153","name":"Pilsach","type":"Kreisangehörige_Gemeinde"},"district":{"key":"09373","name":"Neumarkt i.d.OPf.","type":"Landkreis"},"federalState":{"key":"09","name":"Bayern"}},{"name":"Pfeffertshofener Weg","postalCode":"92367","locality":"Pilsach","municipality":{"key":"09373153","name":"Pilsach","type":"Kreisangehörige_Gemeinde"},"district":{"key":"09373","name":"Neumarkt i.d.OPf.","type":"Landkreis"},"federalState":{"key":"09","name":"Bayern"}},{"name":"Pfeiffertal","postalCode":"92367","locality":"Pilsach","municipality":{"key":"09373153","name":"Pilsach","type":"Kreisangehörige_Gemeinde"},"district":{"key":"09373","name":"Neumarkt i.d.OPf.","type":"Landkreis"},"federalState":{"key":"09","name":"Bayern"}},{"name":"Raiffeisenstr.","postalCode":"92367","locality":"Pilsach","municipality":{"key":"09373153","name":"Pilsach","type":"Kreisangehörige_Gemeinde"},"district":{"key":"09373","name":"Neumarkt i.d.OPf.","type":"Landkreis"},"federalState":{"key":"09","name":"Bayern"}},{"name":"Rainbergstr.","postalCode":"92367","locality":"Pilsach","municipality":{"key":"09373153","name":"Pilsach","type":"Kreisangehörige_Gemeinde"},"district":{"key":"09373","name":"Neumarkt i.d.OPf.","type":"Landkreis"},"federalState":{"key":"09","name":"Bayern"}},{"name":"Ringstr.","postalCode":"92367","locality":"Pilsach","municipality":{"key":"09373153","name":"Pilsach","type":"Kreisangehörige_Gemeinde"},"district":{"key":"09373","name":"Neumarkt i.d.OPf.","type":"Landkreis"},"federalState":{"key":"09","name":"Bayern"}},{"name":"Rödelberger Str.","postalCode":"92367","locality":"Pilsach","municipality":{"key":"09373153","name":"Pilsach","type":"Kreisangehörige_Gemeinde"},"district":{"key":"09373","name":"Neumarkt i.d.OPf.","type":"Landkreis"},"federalState":{"key":"09","name":"Bayern"}},{"name":"Rosenstr.","postalCode":"92367","locality":"Pilsach","municipality":{"key":"09373153","name":"Pilsach","type":"Kreisangehörige_Gemeinde"},"district":{"key":"09373","name":"Neumarkt i.d.OPf.","type":"Landkreis"},"federalState":{"key":"09","name":"Bayern"}},{"name":"Schlenkental","postalCode":"92367","locality":"Pilsach","municipality":{"key":"09373153","name":"Pilsach","type":"Kreisangehörige_Gemeinde"},"district":{"key":"09373","name":"Neumarkt i.d.OPf.","type":"Landkreis"},"federalState":{"key":"09","name":"Bayern"}},{"name":"Schlossweg","postalCode":"92367","locality":"Pilsach","municipality":{"key":"09373153","name":"Pilsach","type":"Kreisangehörige_Gemeinde"},"district":{"key":"09373","name":"Neumarkt i.d.OPf.","type":"Landkreis"},"federalState":{"key":"09","name":"Bayern"}},{"name":"Schulstr.","postalCode":"92367","locality":"Pilsach","municipality":{"key":"09373153","name":"Pilsach","type":"Kreisangehörige_Gemeinde"},"district":{"key":"09373","name":"Neumarkt i.d.OPf.","type":"Landkreis"},"federalState":{"key":"09","name":"Bayern"}},{"name":"Schulweg","postalCode":"92367","locality":"Pilsach","municipality":{"key":"09373153","name":"Pilsach","type":"Kreisangehörige_Gemeinde"},"district":{"key":"09373","name":"Neumarkt i.d.OPf.","type":"Landkreis"},"federalState":{"key":"09","name":"Bayern"}},{"name":"Siedlerstr.","postalCode":"92367","locality":"Pilsach","municipality":{"key":"09373153","name":"Pilsach","type":"Kreisangehörige_Gemeinde"},"district":{"key":"09373","name":"Neumarkt i.d.OPf.","type":"Landkreis"},"federalState":{"key":"09","name":"Bayern"}},{"name":"Sindlbacher Str.","postalCode":"92367","locality":"Pilsach","municipality":{"key":"09373153","name":"Pilsach","type":"Kreisangehörige_Gemeinde"},"district":{"key":"09373","name":"Neumarkt i.d.OPf.","type":"Landkreis"},"federalState":{"key":"09","name":"Bayern"}},{"name":"Tartsberg","postalCode":"92367","locality":"Pilsach","municipality":{"key":"09373153","name":"Pilsach","type":"Kreisangehörige_Gemeinde"},"district":{"key":"09373","name":"Neumarkt i.d.OPf.","type":"Landkreis"},"federalState":{"key":"09","name":"Bayern"}},{"name":"Trautmannshofener Str.","postalCode":"92367","locality":"Pilsach","municipality":{"key":"09373153","name":"Pilsach","type":"Kreisangehörige_Gemeinde"},"district":{"key":"09373","name":"Neumarkt i.d.OPf.","type":"Landkreis"},"federalState":{"key":"09","name":"Bayern"}},{"name":"Tulpenstr.","postalCode":"92367","locality":"Pilsach","municipality":{"key":"09373153","name":"Pilsach","type":"Kreisangehörige_Gemeinde"},"district":{"key":"09373","name":"Neumarkt i.d.OPf.","type":"Landkreis"},"federalState":{"key":"09","name":"Bayern"}},{"name":"Unterried","postalCode":"92367","locality":"Pilsach","municipality":{"key":"09373153","name":"Pilsach","type":"Kreisangehörige_Gemeinde"},"district":{"key":"09373","name":"Neumarkt i.d.OPf.","type":"Landkreis"},"federalState":{"key":"09","name":"Bayern"}},{"name":"Voggenhofstr.","postalCode":"92348","locality":"Berg b.Neumarkt i.d.OPf.","municipality":{"key":"09373113","name":"Berg b.Neumarkt i.d.OPf.","type":"Kreisangehörige_Gemeinde"},"district":{"key":"09373","name":"Neumarkt i.d.OPf.","type":"Landkreis"},"federalState":{"key":"09","name":"Bayern"}},{"name":"Von-Tanne-Str.","postalCode":"92348","locality":"Berg b.Neumarkt i.d.OPf.","municipality":{"key":"09373113","name":"Berg b.Neumarkt i.d.OPf.","type":"Kreisangehörige_Gemeinde"},"district":{"key":"09373","name":"Neumarkt i.d.OPf.","type":"Landkreis"},"federalState":{"key":"09","name":"Bayern"}},{"name":"Waller Weg","postalCode":"92367","locality":"Pilsach","municipality":{"key":"09373153","name":"Pilsach","type":"Kreisangehörige_Gemeinde"},"district":{"key":"09373","name":"Neumarkt i.d.OPf.","type":"Landkreis"},"federalState":{"key":"09","name":"Bayern"}},{"name":"Wanderweg Nr. 3 grün","postalCode":"92367","locality":"Pilsach","municipality":{"key":"09373153","name":"Pilsach","type":"Kreisangehörige_Gemeinde"},"district":{"key":"09373","name":"Neumarkt i.d.OPf.","type":"Landkreis"},"federalState":{"key":"09","name":"Bayern"}},{"name":"Wünner Str.","postalCode":"92367","locality":"Pilsach","municipality":{"key":"09373153","name":"Pilsach","type":"Kreisangehörige_Gemeinde"},"district":{"key":"09373","name":"Neumarkt i.d.OPf.","type":"Landkreis"},"federalState":{"key":"09","name":"Bayern"}},{"name":"Ziegelhüttenweg","postalCode":"92367","locality":"Pilsach","municipality":{"key":"09373153","name":"Pilsach","type":"Kreisangehörige_Gemeinde"},"district":{"key":"09373","name":"Neumarkt i.d.OPf.","type":"Landkreis"},"federalState":{"key":"09","name":"Bayern"}},{"name":"Zur Wünnau","postalCode":"92367","locality":"Pilsach","municipality":{"key":"09373153","name":"Pilsach","type":"Kreisangehörige_Gemeinde"},"district":{"key":"09373","name":"Neumarkt i.d.OPf.","type":"Landkreis"},"federalState":{"key":"09","name":"Bayern"}},]