[{"name":"Ahornstr.","postalCode":"19294","locality":"Eldena","municipality":{"key":"13076037","name":"Eldena","type":"Kreisangehörige_Gemeinde"},"district":{"key":"13076","name":"Ludwigslust-Parchim","type":"Landkreis"},"federalState":{"key":"13","name":"Mecklenburg-Vorpommern"}},{"name":"Altona","postalCode":"19294","locality":"Eldena","municipality":{"key":"13076037","name":"Eldena","type":"Kreisangehörige_Gemeinde"},"district":{"key":"13076","name":"Ludwigslust-Parchim","type":"Landkreis"},"federalState":{"key":"13","name":"Mecklenburg-Vorpommern"}},{"name":"Altonaer Str.","postalCode":"19294","locality":"Eldena","municipality":{"key":"13076037","name":"Eldena","type":"Kreisangehörige_Gemeinde"},"district":{"key":"13076","name":"Ludwigslust-Parchim","type":"Landkreis"},"federalState":{"key":"13","name":"Mecklenburg-Vorpommern"}},{"name":"Am Bootshafen","postalCode":"19294","locality":"Eldena","municipality":{"key":"13076037","name":"Eldena","type":"Kreisangehörige_Gemeinde"},"district":{"key":"13076","name":"Ludwigslust-Parchim","type":"Landkreis"},"federalState":{"key":"13","name":"Mecklenburg-Vorpommern"}},{"name":"Am Fuchsberg","postalCode":"19294","locality":"Eldena","municipality":{"key":"13076037","name":"Eldena","type":"Kreisangehörige_Gemeinde"},"district":{"key":"13076","name":"Ludwigslust-Parchim","type":"Landkreis"},"federalState":{"key":"13","name":"Mecklenburg-Vorpommern"}},{"name":"Am Kirchweg","postalCode":"19294","locality":"Bresegard bei Eldena","municipality":{"key":"13076018","name":"Bresegard bei Eldena","type":"Kreisangehörige_Gemeinde"},"district":{"key":"13076","name":"Ludwigslust-Parchim","type":"Landkreis"},"federalState":{"key":"13","name":"Mecklenburg-Vorpommern"}},{"name":"An der Bahn","postalCode":"19294","locality":"Eldena","municipality":{"key":"13076037","name":"Eldena","type":"Kreisangehörige_Gemeinde"},"district":{"key":"13076","name":"Ludwigslust-Parchim","type":"Landkreis"},"federalState":{"key":"13","name":"Mecklenburg-Vorpommern"}},{"name":"Ausbau","postalCode":"19294","locality":"Eldena","municipality":{"key":"13076037","name":"Eldena","type":"Kreisangehörige_Gemeinde"},"district":{"key":"13076","name":"Ludwigslust-Parchim","type":"Landkreis"},"federalState":{"key":"13","name":"Mecklenburg-Vorpommern"}},{"name":"Bahnhofstr.","postalCode":"19294","locality":"Eldena","municipality":{"key":"13076037","name":"Eldena","type":"Kreisangehörige_Gemeinde"},"district":{"key":"13076","name":"Ludwigslust-Parchim","type":"Landkreis"},"federalState":{"key":"13","name":"Mecklenburg-Vorpommern"}},{"name":"Bauerneck","postalCode":"19294","locality":"Eldena","municipality":{"key":"13076037","name":"Eldena","type":"Kreisangehörige_Gemeinde"},"district":{"key":"13076","name":"Ludwigslust-Parchim","type":"Landkreis"},"federalState":{"key":"13","name":"Mecklenburg-Vorpommern"}},{"name":"Bresegarder Str.","postalCode":"19294","locality":"Eldena","municipality":{"key":"13076037","name":"Eldena","type":"Kreisangehörige_Gemeinde"},"district":{"key":"13076","name":"Ludwigslust-Parchim","type":"Landkreis"},"federalState":{"key":"13","name":"Mecklenburg-Vorpommern"}},{"name":"Dömitzer Str.","postalCode":"19294","locality":"Eldena","municipality":{"key":"13076037","name":"Eldena","type":"Kreisangehörige_Gemeinde"},"district":{"key":"13076","name":"Ludwigslust-Parchim","type":"Landkreis"},"federalState":{"key":"13","name":"Mecklenburg-Vorpommern"}},{"name":"Dorfstr.","postalCode":"19294","locality":"Bresegard bei Eldena","municipality":{"key":"13076018","name":"Bresegard bei Eldena","type":"Kreisangehörige_Gemeinde"},"district":{"key":"13076","name":"Ludwigslust-Parchim","type":"Landkreis"},"federalState":{"key":"13","name":"Mecklenburg-Vorpommern"}},{"name":"Dorfstr.","postalCode":"19294","locality":"Eldena","municipality":{"key":"13076037","name":"Eldena","type":"Kreisangehörige_Gemeinde"},"district":{"key":"13076","name":"Ludwigslust-Parchim","type":"Landkreis"},"federalState":{"key":"13","name":"Mecklenburg-Vorpommern"}},{"name":"Eldenaer Str.","postalCode":"19294","locality":"Eldena","municipality":{"key":"13076037","name":"Eldena","type":"Kreisangehörige_Gemeinde"},"district":{"key":"13076","name":"Ludwigslust-Parchim","type":"Landkreis"},"federalState":{"key":"13","name":"Mecklenburg-Vorpommern"}},{"name":"Eldeweg","postalCode":"19294","locality":"Eldena","municipality":{"key":"13076037","name":"Eldena","type":"Kreisangehörige_Gemeinde"},"district":{"key":"13076","name":"Ludwigslust-Parchim","type":"Landkreis"},"federalState":{"key":"13","name":"Mecklenburg-Vorpommern"}},{"name":"Friedensstr.","postalCode":"19294","locality":"Bresegard bei Eldena","municipality":{"key":"13076018","name":"Bresegard bei Eldena","type":"Kreisangehörige_Gemeinde"},"district":{"key":"13076","name":"Ludwigslust-Parchim","type":"Landkreis"},"federalState":{"key":"13","name":"Mecklenburg-Vorpommern"}},{"name":"Friedensstr.","postalCode":"19294","locality":"Eldena","municipality":{"key":"13076037","name":"Eldena","type":"Kreisangehörige_Gemeinde"},"district":{"key":"13076","name":"Ludwigslust-Parchim","type":"Landkreis"},"federalState":{"key":"13","name":"Mecklenburg-Vorpommern"}},{"name":"Friedhofsweg","postalCode":"19294","locality":"Eldena","municipality":{"key":"13076037","name":"Eldena","type":"Kreisangehörige_Gemeinde"},"district":{"key":"13076","name":"Ludwigslust-Parchim","type":"Landkreis"},"federalState":{"key":"13","name":"Mecklenburg-Vorpommern"}},{"name":"Gartenstr.","postalCode":"19294","locality":"Eldena","municipality":{"key":"13076037","name":"Eldena","type":"Kreisangehörige_Gemeinde"},"district":{"key":"13076","name":"Ludwigslust-Parchim","type":"Landkreis"},"federalState":{"key":"13","name":"Mecklenburg-Vorpommern"}},{"name":"Jägerweg","postalCode":"19294","locality":"Eldena","municipality":{"key":"13076037","name":"Eldena","type":"Kreisangehörige_Gemeinde"},"district":{"key":"13076","name":"Ludwigslust-Parchim","type":"Landkreis"},"federalState":{"key":"13","name":"Mecklenburg-Vorpommern"}},{"name":"Karenzer Str.","postalCode":"19294","locality":"Bresegard bei Eldena","municipality":{"key":"13076018","name":"Bresegard bei Eldena","type":"Kreisangehörige_Gemeinde"},"district":{"key":"13076","name":"Ludwigslust-Parchim","type":"Landkreis"},"federalState":{"key":"13","name":"Mecklenburg-Vorpommern"}},{"name":"Karl-Marx-Platz","postalCode":"19294","locality":"Eldena","municipality":{"key":"13076037","name":"Eldena","type":"Kreisangehörige_Gemeinde"},"district":{"key":"13076","name":"Ludwigslust-Parchim","type":"Landkreis"},"federalState":{"key":"13","name":"Mecklenburg-Vorpommern"}},{"name":"Karl-Marx-Str.","postalCode":"19294","locality":"Eldena","municipality":{"key":"13076037","name":"Eldena","type":"Kreisangehörige_Gemeinde"},"district":{"key":"13076","name":"Ludwigslust-Parchim","type":"Landkreis"},"federalState":{"key":"13","name":"Mecklenburg-Vorpommern"}},{"name":"Karl-Wilführ-Str.","postalCode":"19294","locality":"Eldena","municipality":{"key":"13076037","name":"Eldena","type":"Kreisangehörige_Gemeinde"},"district":{"key":"13076","name":"Ludwigslust-Parchim","type":"Landkreis"},"federalState":{"key":"13","name":"Mecklenburg-Vorpommern"}},{"name":"Koppelsche Tannen","postalCode":"19294","locality":"Bresegard bei Eldena","municipality":{"key":"13076018","name":"Bresegard bei Eldena","type":"Kreisangehörige_Gemeinde"},"district":{"key":"13076","name":"Ludwigslust-Parchim","type":"Landkreis"},"federalState":{"key":"13","name":"Mecklenburg-Vorpommern"}},{"name":"Krummer Weg","postalCode":"19294","locality":"Eldena","municipality":{"key":"13076037","name":"Eldena","type":"Kreisangehörige_Gemeinde"},"district":{"key":"13076","name":"Ludwigslust-Parchim","type":"Landkreis"},"federalState":{"key":"13","name":"Mecklenburg-Vorpommern"}},{"name":"Lenzener Str.","postalCode":"19294","locality":"Eldena","municipality":{"key":"13076037","name":"Eldena","type":"Kreisangehörige_Gemeinde"},"district":{"key":"13076","name":"Ludwigslust-Parchim","type":"Landkreis"},"federalState":{"key":"13","name":"Mecklenburg-Vorpommern"}},{"name":"Ludwigsluster Str.","postalCode":"19294","locality":"Eldena","municipality":{"key":"13076037","name":"Eldena","type":"Kreisangehörige_Gemeinde"},"district":{"key":"13076","name":"Ludwigslust-Parchim","type":"Landkreis"},"federalState":{"key":"13","name":"Mecklenburg-Vorpommern"}},{"name":"Margaretenhof","postalCode":"19294","locality":"Eldena","municipality":{"key":"13076037","name":"Eldena","type":"Kreisangehörige_Gemeinde"},"district":{"key":"13076","name":"Ludwigslust-Parchim","type":"Landkreis"},"federalState":{"key":"13","name":"Mecklenburg-Vorpommern"}},{"name":"Marktplatz","postalCode":"19294","locality":"Eldena","municipality":{"key":"13076037","name":"Eldena","type":"Kreisangehörige_Gemeinde"},"district":{"key":"13076","name":"Ludwigslust-Parchim","type":"Landkreis"},"federalState":{"key":"13","name":"Mecklenburg-Vorpommern"}},{"name":"Menkendorfer Str.","postalCode":"19294","locality":"Bresegard bei Eldena","municipality":{"key":"13076018","name":"Bresegard bei Eldena","type":"Kreisangehörige_Gemeinde"},"district":{"key":"13076","name":"Ludwigslust-Parchim","type":"Landkreis"},"federalState":{"key":"13","name":"Mecklenburg-Vorpommern"}},{"name":"Neue Str.","postalCode":"19294","locality":"Eldena","municipality":{"key":"13076037","name":"Eldena","type":"Kreisangehörige_Gemeinde"},"district":{"key":"13076","name":"Ludwigslust-Parchim","type":"Landkreis"},"federalState":{"key":"13","name":"Mecklenburg-Vorpommern"}},{"name":"Postweg","postalCode":"19294","locality":"Eldena","municipality":{"key":"13076037","name":"Eldena","type":"Kreisangehörige_Gemeinde"},"district":{"key":"13076","name":"Ludwigslust-Parchim","type":"Landkreis"},"federalState":{"key":"13","name":"Mecklenburg-Vorpommern"}},{"name":"Schleuse","postalCode":"19294","locality":"Eldena","municipality":{"key":"13076037","name":"Eldena","type":"Kreisangehörige_Gemeinde"},"district":{"key":"13076","name":"Ludwigslust-Parchim","type":"Landkreis"},"federalState":{"key":"13","name":"Mecklenburg-Vorpommern"}},{"name":"Schulsteig","postalCode":"19294","locality":"Bresegard bei Eldena","municipality":{"key":"13076018","name":"Bresegard bei Eldena","type":"Kreisangehörige_Gemeinde"},"district":{"key":"13076","name":"Ludwigslust-Parchim","type":"Landkreis"},"federalState":{"key":"13","name":"Mecklenburg-Vorpommern"}},{"name":"Schulstr.","postalCode":"19294","locality":"Eldena","municipality":{"key":"13076037","name":"Eldena","type":"Kreisangehörige_Gemeinde"},"district":{"key":"13076","name":"Ludwigslust-Parchim","type":"Landkreis"},"federalState":{"key":"13","name":"Mecklenburg-Vorpommern"}},{"name":"Schützenplatz","postalCode":"19294","locality":"Eldena","municipality":{"key":"13076037","name":"Eldena","type":"Kreisangehörige_Gemeinde"},"district":{"key":"13076","name":"Ludwigslust-Parchim","type":"Landkreis"},"federalState":{"key":"13","name":"Mecklenburg-Vorpommern"}},{"name":"Str. der Jugend","postalCode":"19294","locality":"Eldena","municipality":{"key":"13076037","name":"Eldena","type":"Kreisangehörige_Gemeinde"},"district":{"key":"13076","name":"Ludwigslust-Parchim","type":"Landkreis"},"federalState":{"key":"13","name":"Mecklenburg-Vorpommern"}},{"name":"Tannenweg","postalCode":"19294","locality":"Eldena","municipality":{"key":"13076037","name":"Eldena","type":"Kreisangehörige_Gemeinde"},"district":{"key":"13076","name":"Ludwigslust-Parchim","type":"Landkreis"},"federalState":{"key":"13","name":"Mecklenburg-Vorpommern"}},{"name":"Töpfergang","postalCode":"19294","locality":"Eldena","municipality":{"key":"13076037","name":"Eldena","type":"Kreisangehörige_Gemeinde"},"district":{"key":"13076","name":"Ludwigslust-Parchim","type":"Landkreis"},"federalState":{"key":"13","name":"Mecklenburg-Vorpommern"}},{"name":"Vornhorst","postalCode":"19294","locality":"Bresegard bei Eldena","municipality":{"key":"13076018","name":"Bresegard bei Eldena","type":"Kreisangehörige_Gemeinde"},"district":{"key":"13076","name":"Ludwigslust-Parchim","type":"Landkreis"},"federalState":{"key":"13","name":"Mecklenburg-Vorpommern"}},{"name":"Waldstr.","postalCode":"19294","locality":"Eldena","municipality":{"key":"13076037","name":"Eldena","type":"Kreisangehörige_Gemeinde"},"district":{"key":"13076","name":"Ludwigslust-Parchim","type":"Landkreis"},"federalState":{"key":"13","name":"Mecklenburg-Vorpommern"}},{"name":"Waldweg","postalCode":"19294","locality":"Eldena","municipality":{"key":"13076037","name":"Eldena","type":"Kreisangehörige_Gemeinde"},"district":{"key":"13076","name":"Ludwigslust-Parchim","type":"Landkreis"},"federalState":{"key":"13","name":"Mecklenburg-Vorpommern"}},]