[{"name":"Abt-Andreas-Lang-Str.","postalCode":"96231","locality":"Bad Staffelstein","municipality":{"key":"09478165","name":"Bad Staffelstein, St","type":"Stadt"},"district":{"key":"09478","name":"Lichtenfels","type":"Landkreis"},"federalState":{"key":"09","name":"Bayern"}},{"name":"Abt-Düring-Str.","postalCode":"96231","locality":"Bad Staffelstein","municipality":{"key":"09478165","name":"Bad Staffelstein, St","type":"Stadt"},"district":{"key":"09478","name":"Lichtenfels","type":"Landkreis"},"federalState":{"key":"09","name":"Bayern"}},{"name":"Adam-Riese-Str.","postalCode":"96231","locality":"Bad Staffelstein","municipality":{"key":"09478165","name":"Bad Staffelstein, St","type":"Stadt"},"district":{"key":"09478","name":"Lichtenfels","type":"Landkreis"},"federalState":{"key":"09","name":"Bayern"}},{"name":"Adolf-Kolping-Str.","postalCode":"96231","locality":"Bad Staffelstein","municipality":{"key":"09478165","name":"Bad Staffelstein, St","type":"Stadt"},"district":{"key":"09478","name":"Lichtenfels","type":"Landkreis"},"federalState":{"key":"09","name":"Bayern"}},{"name":"Ahornstr.","postalCode":"96231","locality":"Bad Staffelstein","municipality":{"key":"09478165","name":"Bad Staffelstein, St","type":"Stadt"},"district":{"key":"09478","name":"Lichtenfels","type":"Landkreis"},"federalState":{"key":"09","name":"Bayern"}},{"name":"Alberadastr.","postalCode":"96231","locality":"Bad Staffelstein","municipality":{"key":"09478165","name":"Bad Staffelstein, St","type":"Stadt"},"district":{"key":"09478","name":"Lichtenfels","type":"Landkreis"},"federalState":{"key":"09","name":"Bayern"}},{"name":"Albert-Neupert-Str.","postalCode":"96231","locality":"Bad Staffelstein","municipality":{"key":"09478165","name":"Bad Staffelstein, St","type":"Stadt"},"district":{"key":"09478","name":"Lichtenfels","type":"Landkreis"},"federalState":{"key":"09","name":"Bayern"}},{"name":"Alexander-Von-Rotenhan-Str.","postalCode":"96231","locality":"Bad Staffelstein","municipality":{"key":"09478165","name":"Bad Staffelstein, St","type":"Stadt"},"district":{"key":"09478","name":"Lichtenfels","type":"Landkreis"},"federalState":{"key":"09","name":"Bayern"}},{"name":"Alte Bundesstr.","postalCode":"96231","locality":"Bad Staffelstein","municipality":{"key":"09478165","name":"Bad Staffelstein, St","type":"Stadt"},"district":{"key":"09478","name":"Lichtenfels","type":"Landkreis"},"federalState":{"key":"09","name":"Bayern"}},{"name":"Alte Schiessstätte","postalCode":"96231","locality":"Bad Staffelstein","municipality":{"key":"09478165","name":"Bad Staffelstein, St","type":"Stadt"},"district":{"key":"09478","name":"Lichtenfels","type":"Landkreis"},"federalState":{"key":"09","name":"Bayern"}},{"name":"Altmainstr.","postalCode":"96231","locality":"Bad Staffelstein","municipality":{"key":"09478165","name":"Bad Staffelstein, St","type":"Stadt"},"district":{"key":"09478","name":"Lichtenfels","type":"Landkreis"},"federalState":{"key":"09","name":"Bayern"}},{"name":"Am Baumfeld","postalCode":"96231","locality":"Bad Staffelstein","municipality":{"key":"09478165","name":"Bad Staffelstein, St","type":"Stadt"},"district":{"key":"09478","name":"Lichtenfels","type":"Landkreis"},"federalState":{"key":"09","name":"Bayern"}},{"name":"Am Berg","postalCode":"96231","locality":"Bad Staffelstein","municipality":{"key":"09478165","name":"Bad Staffelstein, St","type":"Stadt"},"district":{"key":"09478","name":"Lichtenfels","type":"Landkreis"},"federalState":{"key":"09","name":"Bayern"}},{"name":"Am Birkenweg","postalCode":"96231","locality":"Bad Staffelstein","municipality":{"key":"09478165","name":"Bad Staffelstein, St","type":"Stadt"},"district":{"key":"09478","name":"Lichtenfels","type":"Landkreis"},"federalState":{"key":"09","name":"Bayern"}},{"name":"Am Brunnsteig","postalCode":"96231","locality":"Bad Staffelstein","municipality":{"key":"09478165","name":"Bad Staffelstein, St","type":"Stadt"},"district":{"key":"09478","name":"Lichtenfels","type":"Landkreis"},"federalState":{"key":"09","name":"Bayern"}},{"name":"Am Döbertenbach","postalCode":"96231","locality":"Bad Staffelstein","municipality":{"key":"09478165","name":"Bad Staffelstein, St","type":"Stadt"},"district":{"key":"09478","name":"Lichtenfels","type":"Landkreis"},"federalState":{"key":"09","name":"Bayern"}},{"name":"Am Dorfanger","postalCode":"96231","locality":"Bad Staffelstein","municipality":{"key":"09478165","name":"Bad Staffelstein, St","type":"Stadt"},"district":{"key":"09478","name":"Lichtenfels","type":"Landkreis"},"federalState":{"key":"09","name":"Bayern"}},{"name":"Am Dorfbrunnen","postalCode":"96231","locality":"Bad Staffelstein","municipality":{"key":"09478165","name":"Bad Staffelstein, St","type":"Stadt"},"district":{"key":"09478","name":"Lichtenfels","type":"Landkreis"},"federalState":{"key":"09","name":"Bayern"}},{"name":"Am Döritzbach","postalCode":"96231","locality":"Bad Staffelstein","municipality":{"key":"09478165","name":"Bad Staffelstein, St","type":"Stadt"},"district":{"key":"09478","name":"Lichtenfels","type":"Landkreis"},"federalState":{"key":"09","name":"Bayern"}},{"name":"Am Feldlein","postalCode":"96231","locality":"Bad Staffelstein","municipality":{"key":"09478165","name":"Bad Staffelstein, St","type":"Stadt"},"district":{"key":"09478","name":"Lichtenfels","type":"Landkreis"},"federalState":{"key":"09","name":"Bayern"}},{"name":"Am Fronhof","postalCode":"96231","locality":"Bad Staffelstein","municipality":{"key":"09478165","name":"Bad Staffelstein, St","type":"Stadt"},"district":{"key":"09478","name":"Lichtenfels","type":"Landkreis"},"federalState":{"key":"09","name":"Bayern"}},{"name":"Am Gries","postalCode":"96231","locality":"Bad Staffelstein","municipality":{"key":"09478165","name":"Bad Staffelstein, St","type":"Stadt"},"district":{"key":"09478","name":"Lichtenfels","type":"Landkreis"},"federalState":{"key":"09","name":"Bayern"}},{"name":"Am Hochgericht","postalCode":"96231","locality":"Bad Staffelstein","municipality":{"key":"09478165","name":"Bad Staffelstein, St","type":"Stadt"},"district":{"key":"09478","name":"Lichtenfels","type":"Landkreis"},"federalState":{"key":"09","name":"Bayern"}},{"name":"Am Hofgarten","postalCode":"96231","locality":"Bad Staffelstein","municipality":{"key":"09478165","name":"Bad Staffelstein, St","type":"Stadt"},"district":{"key":"09478","name":"Lichtenfels","type":"Landkreis"},"federalState":{"key":"09","name":"Bayern"}},{"name":"Am Hollersgarten","postalCode":"96231","locality":"Bad Staffelstein","municipality":{"key":"09478165","name":"Bad Staffelstein, St","type":"Stadt"},"district":{"key":"09478","name":"Lichtenfels","type":"Landkreis"},"federalState":{"key":"09","name":"Bayern"}},{"name":"Am Hügel","postalCode":"96231","locality":"Bad Staffelstein","municipality":{"key":"09478165","name":"Bad Staffelstein, St","type":"Stadt"},"district":{"key":"09478","name":"Lichtenfels","type":"Landkreis"},"federalState":{"key":"09","name":"Bayern"}},{"name":"Am Jägerfeld","postalCode":"96231","locality":"Bad Staffelstein","municipality":{"key":"09478165","name":"Bad Staffelstein, St","type":"Stadt"},"district":{"key":"09478","name":"Lichtenfels","type":"Landkreis"},"federalState":{"key":"09","name":"Bayern"}},{"name":"Am Kaiderbach","postalCode":"96231","locality":"Bad Staffelstein","municipality":{"key":"09478165","name":"Bad Staffelstein, St","type":"Stadt"},"district":{"key":"09478","name":"Lichtenfels","type":"Landkreis"},"federalState":{"key":"09","name":"Bayern"}},{"name":"Am Kapellenberg","postalCode":"96231","locality":"Bad Staffelstein","municipality":{"key":"09478165","name":"Bad Staffelstein, St","type":"Stadt"},"district":{"key":"09478","name":"Lichtenfels","type":"Landkreis"},"federalState":{"key":"09","name":"Bayern"}},{"name":"Am Knock","postalCode":"96231","locality":"Bad Staffelstein","municipality":{"key":"09478165","name":"Bad Staffelstein, St","type":"Stadt"},"district":{"key":"09478","name":"Lichtenfels","type":"Landkreis"},"federalState":{"key":"09","name":"Bayern"}},{"name":"Am Kommbühl","postalCode":"96231","locality":"Bad Staffelstein","municipality":{"key":"09478165","name":"Bad Staffelstein, St","type":"Stadt"},"district":{"key":"09478","name":"Lichtenfels","type":"Landkreis"},"federalState":{"key":"09","name":"Bayern"}},{"name":"Am Kreuzberg","postalCode":"96231","locality":"Bad Staffelstein","municipality":{"key":"09478165","name":"Bad Staffelstein, St","type":"Stadt"},"district":{"key":"09478","name":"Lichtenfels","type":"Landkreis"},"federalState":{"key":"09","name":"Bayern"}},{"name":"Am Kreuzeck","postalCode":"96231","locality":"Bad Staffelstein","municipality":{"key":"09478165","name":"Bad Staffelstein, St","type":"Stadt"},"district":{"key":"09478","name":"Lichtenfels","type":"Landkreis"},"federalState":{"key":"09","name":"Bayern"}},{"name":"Am Kulmerts","postalCode":"96231","locality":"Bad Staffelstein","municipality":{"key":"09478165","name":"Bad Staffelstein, St","type":"Stadt"},"district":{"key":"09478","name":"Lichtenfels","type":"Landkreis"},"federalState":{"key":"09","name":"Bayern"}},{"name":"Am Kurpark","postalCode":"96231","locality":"Bad Staffelstein","municipality":{"key":"09478165","name":"Bad Staffelstein, St","type":"Stadt"},"district":{"key":"09478","name":"Lichtenfels","type":"Landkreis"},"federalState":{"key":"09","name":"Bayern"}},{"name":"Am Linsenbühl","postalCode":"96231","locality":"Bad Staffelstein","municipality":{"key":"09478165","name":"Bad Staffelstein, St","type":"Stadt"},"district":{"key":"09478","name":"Lichtenfels","type":"Landkreis"},"federalState":{"key":"09","name":"Bayern"}},{"name":"Am Mahlberg","postalCode":"96231","locality":"Bad Staffelstein","municipality":{"key":"09478165","name":"Bad Staffelstein, St","type":"Stadt"},"district":{"key":"09478","name":"Lichtenfels","type":"Landkreis"},"federalState":{"key":"09","name":"Bayern"}},{"name":"Am Main","postalCode":"96231","locality":"Bad Staffelstein","municipality":{"key":"09478165","name":"Bad Staffelstein, St","type":"Stadt"},"district":{"key":"09478","name":"Lichtenfels","type":"Landkreis"},"federalState":{"key":"09","name":"Bayern"}},{"name":"Am Melm","postalCode":"96231","locality":"Bad Staffelstein","municipality":{"key":"09478165","name":"Bad Staffelstein, St","type":"Stadt"},"district":{"key":"09478","name":"Lichtenfels","type":"Landkreis"},"federalState":{"key":"09","name":"Bayern"}},{"name":"Am Mühlweg","postalCode":"96231","locality":"Bad Staffelstein","municipality":{"key":"09478165","name":"Bad Staffelstein, St","type":"Stadt"},"district":{"key":"09478","name":"Lichtenfels","type":"Landkreis"},"federalState":{"key":"09","name":"Bayern"}},{"name":"Am Oberen Lauterdamm","postalCode":"96231","locality":"Bad Staffelstein","municipality":{"key":"09478165","name":"Bad Staffelstein, St","type":"Stadt"},"district":{"key":"09478","name":"Lichtenfels","type":"Landkreis"},"federalState":{"key":"09","name":"Bayern"}},{"name":"Am Plan","postalCode":"96231","locality":"Bad Staffelstein","municipality":{"key":"09478165","name":"Bad Staffelstein, St","type":"Stadt"},"district":{"key":"09478","name":"Lichtenfels","type":"Landkreis"},"federalState":{"key":"09","name":"Bayern"}},{"name":"Am Sandhof","postalCode":"96231","locality":"Bad Staffelstein","municipality":{"key":"09478165","name":"Bad Staffelstein, St","type":"Stadt"},"district":{"key":"09478","name":"Lichtenfels","type":"Landkreis"},"federalState":{"key":"09","name":"Bayern"}},{"name":"Am Schrank","postalCode":"96231","locality":"Bad Staffelstein","municipality":{"key":"09478165","name":"Bad Staffelstein, St","type":"Stadt"},"district":{"key":"09478","name":"Lichtenfels","type":"Landkreis"},"federalState":{"key":"09","name":"Bayern"}},{"name":"Am Schulberg","postalCode":"96231","locality":"Bad Staffelstein","municipality":{"key":"09478165","name":"Bad Staffelstein, St","type":"Stadt"},"district":{"key":"09478","name":"Lichtenfels","type":"Landkreis"},"federalState":{"key":"09","name":"Bayern"}},{"name":"Am Schulhaus","postalCode":"96231","locality":"Bad Staffelstein","municipality":{"key":"09478165","name":"Bad Staffelstein, St","type":"Stadt"},"district":{"key":"09478","name":"Lichtenfels","type":"Landkreis"},"federalState":{"key":"09","name":"Bayern"}},{"name":"Am Stadtgraben","postalCode":"96231","locality":"Bad Staffelstein","municipality":{"key":"09478165","name":"Bad Staffelstein, St","type":"Stadt"},"district":{"key":"09478","name":"Lichtenfels","type":"Landkreis"},"federalState":{"key":"09","name":"Bayern"}},{"name":"Am Stadtturm","postalCode":"96231","locality":"Bad Staffelstein","municipality":{"key":"09478165","name":"Bad Staffelstein, St","type":"Stadt"},"district":{"key":"09478","name":"Lichtenfels","type":"Landkreis"},"federalState":{"key":"09","name":"Bayern"}},{"name":"Am Steinig","postalCode":"96231","locality":"Bad Staffelstein","municipality":{"key":"09478165","name":"Bad Staffelstein, St","type":"Stadt"},"district":{"key":"09478","name":"Lichtenfels","type":"Landkreis"},"federalState":{"key":"09","name":"Bayern"}},{"name":"Am Unteren Lauterdamm","postalCode":"96231","locality":"Bad Staffelstein","municipality":{"key":"09478165","name":"Bad Staffelstein, St","type":"Stadt"},"district":{"key":"09478","name":"Lichtenfels","type":"Landkreis"},"federalState":{"key":"09","name":"Bayern"}},{"name":"Bachstr.","postalCode":"96231","locality":"Bad Staffelstein","municipality":{"key":"09478165","name":"Bad Staffelstein, St","type":"Stadt"},"district":{"key":"09478","name":"Lichtenfels","type":"Landkreis"},"federalState":{"key":"09","name":"Bayern"}},{"name":"Badumstr.","postalCode":"96231","locality":"Bad Staffelstein","municipality":{"key":"09478165","name":"Bad Staffelstein, St","type":"Stadt"},"district":{"key":"09478","name":"Lichtenfels","type":"Landkreis"},"federalState":{"key":"09","name":"Bayern"}},{"name":"Bahnhofstr.","postalCode":"96231","locality":"Bad Staffelstein","municipality":{"key":"09478165","name":"Bad Staffelstein, St","type":"Stadt"},"district":{"key":"09478","name":"Lichtenfels","type":"Landkreis"},"federalState":{"key":"09","name":"Bayern"}},{"name":"Bahnstr.","postalCode":"96231","locality":"Bad Staffelstein","municipality":{"key":"09478165","name":"Bad Staffelstein, St","type":"Stadt"},"district":{"key":"09478","name":"Lichtenfels","type":"Landkreis"},"federalState":{"key":"09","name":"Bayern"}},{"name":"Balthasar-Neumann-Str.","postalCode":"96231","locality":"Bad Staffelstein","municipality":{"key":"09478165","name":"Bad Staffelstein, St","type":"Stadt"},"district":{"key":"09478","name":"Lichtenfels","type":"Landkreis"},"federalState":{"key":"09","name":"Bayern"}},{"name":"Balzenteich","postalCode":"96231","locality":"Bad Staffelstein","municipality":{"key":"09478165","name":"Bad Staffelstein, St","type":"Stadt"},"district":{"key":"09478","name":"Lichtenfels","type":"Landkreis"},"federalState":{"key":"09","name":"Bayern"}},{"name":"Bamberger Str.","postalCode":"96231","locality":"Bad Staffelstein","municipality":{"key":"09478165","name":"Bad Staffelstein, St","type":"Stadt"},"district":{"key":"09478","name":"Lichtenfels","type":"Landkreis"},"federalState":{"key":"09","name":"Bayern"}},{"name":"Barbaraweg","postalCode":"96231","locality":"Bad Staffelstein","municipality":{"key":"09478165","name":"Bad Staffelstein, St","type":"Stadt"},"district":{"key":"09478","name":"Lichtenfels","type":"Landkreis"},"federalState":{"key":"09","name":"Bayern"}},{"name":"Bärengasse","postalCode":"96231","locality":"Bad Staffelstein","municipality":{"key":"09478165","name":"Bad Staffelstein, St","type":"Stadt"},"district":{"key":"09478","name":"Lichtenfels","type":"Landkreis"},"federalState":{"key":"09","name":"Bayern"}},{"name":"Bauersgasse","postalCode":"96231","locality":"Bad Staffelstein","municipality":{"key":"09478165","name":"Bad Staffelstein, St","type":"Stadt"},"district":{"key":"09478","name":"Lichtenfels","type":"Landkreis"},"federalState":{"key":"09","name":"Bayern"}},{"name":"Bayernstr.","postalCode":"96231","locality":"Bad Staffelstein","municipality":{"key":"09478165","name":"Bad Staffelstein, St","type":"Stadt"},"district":{"key":"09478","name":"Lichtenfels","type":"Landkreis"},"federalState":{"key":"09","name":"Bayern"}},{"name":"Benediktinerweg","postalCode":"96231","locality":"Bad Staffelstein","municipality":{"key":"09478165","name":"Bad Staffelstein, St","type":"Stadt"},"district":{"key":"09478","name":"Lichtenfels","type":"Landkreis"},"federalState":{"key":"09","name":"Bayern"}},{"name":"Bgm.-Bechmann-Str.","postalCode":"96231","locality":"Bad Staffelstein","municipality":{"key":"09478165","name":"Bad Staffelstein, St","type":"Stadt"},"district":{"key":"09478","name":"Lichtenfels","type":"Landkreis"},"federalState":{"key":"09","name":"Bayern"}},{"name":"Birkenallee","postalCode":"96231","locality":"Bad Staffelstein","municipality":{"key":"09478165","name":"Bad Staffelstein, St","type":"Stadt"},"district":{"key":"09478","name":"Lichtenfels","type":"Landkreis"},"federalState":{"key":"09","name":"Bayern"}},{"name":"Birkenplatz","postalCode":"96231","locality":"Bad Staffelstein","municipality":{"key":"09478165","name":"Bad Staffelstein, St","type":"Stadt"},"district":{"key":"09478","name":"Lichtenfels","type":"Landkreis"},"federalState":{"key":"09","name":"Bayern"}},{"name":"Bischof-Von-Dinkel-Str.","postalCode":"96231","locality":"Bad Staffelstein","municipality":{"key":"09478165","name":"Bad Staffelstein, St","type":"Stadt"},"district":{"key":"09478","name":"Lichtenfels","type":"Landkreis"},"federalState":{"key":"09","name":"Bayern"}},{"name":"Brennhöhe","postalCode":"96231","locality":"Bad Staffelstein","municipality":{"key":"09478165","name":"Bad Staffelstein, St","type":"Stadt"},"district":{"key":"09478","name":"Lichtenfels","type":"Landkreis"},"federalState":{"key":"09","name":"Bayern"}},{"name":"Brunnenstr.","postalCode":"96231","locality":"Bad Staffelstein","municipality":{"key":"09478165","name":"Bad Staffelstein, St","type":"Stadt"},"district":{"key":"09478","name":"Lichtenfels","type":"Landkreis"},"federalState":{"key":"09","name":"Bayern"}},{"name":"Brunnenweg","postalCode":"96231","locality":"Bad Staffelstein","municipality":{"key":"09478165","name":"Bad Staffelstein, St","type":"Stadt"},"district":{"key":"09478","name":"Lichtenfels","type":"Landkreis"},"federalState":{"key":"09","name":"Bayern"}},{"name":"Buchenweg","postalCode":"96231","locality":"Bad Staffelstein","municipality":{"key":"09478165","name":"Bad Staffelstein, St","type":"Stadt"},"district":{"key":"09478","name":"Lichtenfels","type":"Landkreis"},"federalState":{"key":"09","name":"Bayern"}},{"name":"Bühlstr.","postalCode":"96231","locality":"Bad Staffelstein","municipality":{"key":"09478165","name":"Bad Staffelstein, St","type":"Stadt"},"district":{"key":"09478","name":"Lichtenfels","type":"Landkreis"},"federalState":{"key":"09","name":"Bayern"}},{"name":"Bürgermeister-Meißner-Str.","postalCode":"96231","locality":"Bad Staffelstein","municipality":{"key":"09478165","name":"Bad Staffelstein, St","type":"Stadt"},"district":{"key":"09478","name":"Lichtenfels","type":"Landkreis"},"federalState":{"key":"09","name":"Bayern"}},{"name":"Burgstr.","postalCode":"96231","locality":"Bad Staffelstein","municipality":{"key":"09478165","name":"Bad Staffelstein, St","type":"Stadt"},"district":{"key":"09478","name":"Lichtenfels","type":"Landkreis"},"federalState":{"key":"09","name":"Bayern"}},{"name":"Campfhof","postalCode":"35104","locality":"Lichtenfels","municipality":{"key":"06635016","name":"Lichtenfels, Stadt","type":"Stadt"},"district":{"key":"06635","name":"Waldeck-Frankenberg","type":"Landkreis"},"federalState":{"key":"06","name":"Hessen"}},{"name":"Christ-König-Platz","postalCode":"96215","locality":"Lichtenfels","municipality":{"key":"09478139","name":"Lichtenfels, St","type":"Stadt"},"district":{"key":"09478","name":"Lichtenfels","type":"Landkreis"},"federalState":{"key":"09","name":"Bayern"}},{"name":"Coburger Str.","postalCode":"96215","locality":"Lichtenfels","municipality":{"key":"09478139","name":"Lichtenfels, St","type":"Stadt"},"district":{"key":"09478","name":"Lichtenfels","type":"Landkreis"},"federalState":{"key":"09","name":"Bayern"}},{"name":"Conrad-Wagner-Str.","postalCode":"96215","locality":"Lichtenfels","municipality":{"key":"09478139","name":"Lichtenfels, St","type":"Stadt"},"district":{"key":"09478","name":"Lichtenfels","type":"Landkreis"},"federalState":{"key":"09","name":"Bayern"}},{"name":"Cournonstr.","postalCode":"96215","locality":"Lichtenfels","municipality":{"key":"09478139","name":"Lichtenfels, St","type":"Stadt"},"district":{"key":"09478","name":"Lichtenfels","type":"Landkreis"},"federalState":{"key":"09","name":"Bayern"}},{"name":"Dientzenhofer Str.","postalCode":"96231","locality":"Bad Staffelstein","municipality":{"key":"09478165","name":"Bad Staffelstein, St","type":"Stadt"},"district":{"key":"09478","name":"Lichtenfels","type":"Landkreis"},"federalState":{"key":"09","name":"Bayern"}},{"name":"Dominikus-Schramm-Str.","postalCode":"96231","locality":"Bad Staffelstein","municipality":{"key":"09478165","name":"Bad Staffelstein, St","type":"Stadt"},"district":{"key":"09478","name":"Lichtenfels","type":"Landkreis"},"federalState":{"key":"09","name":"Bayern"}},{"name":"Dorfplatz","postalCode":"96231","locality":"Bad Staffelstein","municipality":{"key":"09478165","name":"Bad Staffelstein, St","type":"Stadt"},"district":{"key":"09478","name":"Lichtenfels","type":"Landkreis"},"federalState":{"key":"09","name":"Bayern"}},{"name":"Dorfstr.","postalCode":"96231","locality":"Bad Staffelstein","municipality":{"key":"09478165","name":"Bad Staffelstein, St","type":"Stadt"},"district":{"key":"09478","name":"Lichtenfels","type":"Landkreis"},"federalState":{"key":"09","name":"Bayern"}},{"name":"Döringstädter Str.","postalCode":"96231","locality":"Bad Staffelstein","municipality":{"key":"09478165","name":"Bad Staffelstein, St","type":"Stadt"},"district":{"key":"09478","name":"Lichtenfels","type":"Landkreis"},"federalState":{"key":"09","name":"Bayern"}},{"name":"Draisdorfer Weg","postalCode":"96231","locality":"Bad Staffelstein","municipality":{"key":"09478165","name":"Bad Staffelstein, St","type":"Stadt"},"district":{"key":"09478","name":"Lichtenfels","type":"Landkreis"},"federalState":{"key":"09","name":"Bayern"}},{"name":"Dr.-Hümmer-Str.","postalCode":"96231","locality":"Bad Staffelstein","municipality":{"key":"09478165","name":"Bad Staffelstein, St","type":"Stadt"},"district":{"key":"09478","name":"Lichtenfels","type":"Landkreis"},"federalState":{"key":"09","name":"Bayern"}},{"name":"Eichelseeweg","postalCode":"96231","locality":"Bad Staffelstein","municipality":{"key":"09478165","name":"Bad Staffelstein, St","type":"Stadt"},"district":{"key":"09478","name":"Lichtenfels","type":"Landkreis"},"federalState":{"key":"09","name":"Bayern"}},{"name":"Eichelsgasse","postalCode":"96231","locality":"Bad Staffelstein","municipality":{"key":"09478165","name":"Bad Staffelstein, St","type":"Stadt"},"district":{"key":"09478","name":"Lichtenfels","type":"Landkreis"},"federalState":{"key":"09","name":"Bayern"}},{"name":"Eichenweg","postalCode":"96231","locality":"Bad Staffelstein","municipality":{"key":"09478165","name":"Bad Staffelstein, St","type":"Stadt"},"district":{"key":"09478","name":"Lichtenfels","type":"Landkreis"},"federalState":{"key":"09","name":"Bayern"}},{"name":"Eierbergblick","postalCode":"96231","locality":"Bad Staffelstein","municipality":{"key":"09478165","name":"Bad Staffelstein, St","type":"Stadt"},"district":{"key":"09478","name":"Lichtenfels","type":"Landkreis"},"federalState":{"key":"09","name":"Bayern"}},{"name":"Eierbergweg","postalCode":"96231","locality":"Bad Staffelstein","municipality":{"key":"09478165","name":"Bad Staffelstein, St","type":"Stadt"},"district":{"key":"09478","name":"Lichtenfels","type":"Landkreis"},"federalState":{"key":"09","name":"Bayern"}},{"name":"Ellenweg","postalCode":"96231","locality":"Bad Staffelstein","municipality":{"key":"09478165","name":"Bad Staffelstein, St","type":"Stadt"},"district":{"key":"09478","name":"Lichtenfels","type":"Landkreis"},"federalState":{"key":"09","name":"Bayern"}},{"name":"Eremitenstr.","postalCode":"96231","locality":"Bad Staffelstein","municipality":{"key":"09478165","name":"Bad Staffelstein, St","type":"Stadt"},"district":{"key":"09478","name":"Lichtenfels","type":"Landkreis"},"federalState":{"key":"09","name":"Bayern"}},{"name":"Erlenweg","postalCode":"96231","locality":"Bad Staffelstein","municipality":{"key":"09478165","name":"Bad Staffelstein, St","type":"Stadt"},"district":{"key":"09478","name":"Lichtenfels","type":"Landkreis"},"federalState":{"key":"09","name":"Bayern"}},{"name":"Fliederstr.","postalCode":"96231","locality":"Bad Staffelstein","municipality":{"key":"09478165","name":"Bad Staffelstein, St","type":"Stadt"},"district":{"key":"09478","name":"Lichtenfels","type":"Landkreis"},"federalState":{"key":"09","name":"Bayern"}},{"name":"Frankenring","postalCode":"96231","locality":"Bad Staffelstein","municipality":{"key":"09478165","name":"Bad Staffelstein, St","type":"Stadt"},"district":{"key":"09478","name":"Lichtenfels","type":"Landkreis"},"federalState":{"key":"09","name":"Bayern"}},{"name":"Gartenstr.","postalCode":"96231","locality":"Bad Staffelstein","municipality":{"key":"09478165","name":"Bad Staffelstein, St","type":"Stadt"},"district":{"key":"09478","name":"Lichtenfels","type":"Landkreis"},"federalState":{"key":"09","name":"Bayern"}},{"name":"Georgenring","postalCode":"96231","locality":"Bad Staffelstein","municipality":{"key":"09478165","name":"Bad Staffelstein, St","type":"Stadt"},"district":{"key":"09478","name":"Lichtenfels","type":"Landkreis"},"federalState":{"key":"09","name":"Bayern"}},{"name":"Georg-Herpich-Platz","postalCode":"96231","locality":"Bad Staffelstein","municipality":{"key":"09478165","name":"Bad Staffelstein, St","type":"Stadt"},"district":{"key":"09478","name":"Lichtenfels","type":"Landkreis"},"federalState":{"key":"09","name":"Bayern"}},{"name":"Goethestr.","postalCode":"96231","locality":"Bad Staffelstein","municipality":{"key":"09478165","name":"Bad Staffelstein, St","type":"Stadt"},"district":{"key":"09478","name":"Lichtenfels","type":"Landkreis"},"federalState":{"key":"09","name":"Bayern"}},{"name":"Hain","postalCode":"96231","locality":"Bad Staffelstein","municipality":{"key":"09478165","name":"Bad Staffelstein, St","type":"Stadt"},"district":{"key":"09478","name":"Lichtenfels","type":"Landkreis"},"federalState":{"key":"09","name":"Bayern"}},{"name":"Hauptstr.","postalCode":"96231","locality":"Bad Staffelstein","municipality":{"key":"09478165","name":"Bad Staffelstein, St","type":"Stadt"},"district":{"key":"09478","name":"Lichtenfels","type":"Landkreis"},"federalState":{"key":"09","name":"Bayern"}},{"name":"Hausen","postalCode":"96231","locality":"Bad Staffelstein","municipality":{"key":"09478165","name":"Bad Staffelstein, St","type":"Stadt"},"district":{"key":"09478","name":"Lichtenfels","type":"Landkreis"},"federalState":{"key":"09","name":"Bayern"}},{"name":"Hausener Str.","postalCode":"96231","locality":"Bad Staffelstein","municipality":{"key":"09478165","name":"Bad Staffelstein, St","type":"Stadt"},"district":{"key":"09478","name":"Lichtenfels","type":"Landkreis"},"federalState":{"key":"09","name":"Bayern"}},{"name":"Heimkehrersiedlung","postalCode":"96231","locality":"Bad Staffelstein","municipality":{"key":"09478165","name":"Bad Staffelstein, St","type":"Stadt"},"district":{"key":"09478","name":"Lichtenfels","type":"Landkreis"},"federalState":{"key":"09","name":"Bayern"}},{"name":"Heimstättensiedlung","postalCode":"96231","locality":"Bad Staffelstein","municipality":{"key":"09478165","name":"Bad Staffelstein, St","type":"Stadt"},"district":{"key":"09478","name":"Lichtenfels","type":"Landkreis"},"federalState":{"key":"09","name":"Bayern"}},{"name":"Heinrich-Hofmann-Str.","postalCode":"96231","locality":"Bad Staffelstein","municipality":{"key":"09478165","name":"Bad Staffelstein, St","type":"Stadt"},"district":{"key":"09478","name":"Lichtenfels","type":"Landkreis"},"federalState":{"key":"09","name":"Bayern"}},{"name":"Heiterstr.","postalCode":"96231","locality":"Bad Staffelstein","municipality":{"key":"09478165","name":"Bad Staffelstein, St","type":"Stadt"},"district":{"key":"09478","name":"Lichtenfels","type":"Landkreis"},"federalState":{"key":"09","name":"Bayern"}},{"name":"Herrether Weg","postalCode":"96231","locality":"Bad Staffelstein","municipality":{"key":"09478165","name":"Bad Staffelstein, St","type":"Stadt"},"district":{"key":"09478","name":"Lichtenfels","type":"Landkreis"},"federalState":{"key":"09","name":"Bayern"}},{"name":"Herzog-Max-Str.","postalCode":"96231","locality":"Bad Staffelstein","municipality":{"key":"09478165","name":"Bad Staffelstein, St","type":"Stadt"},"district":{"key":"09478","name":"Lichtenfels","type":"Landkreis"},"federalState":{"key":"09","name":"Bayern"}},{"name":"Heugasse","postalCode":"96231","locality":"Bad Staffelstein","municipality":{"key":"09478165","name":"Bad Staffelstein, St","type":"Stadt"},"district":{"key":"09478","name":"Lichtenfels","type":"Landkreis"},"federalState":{"key":"09","name":"Bayern"}},{"name":"Hirtenberg","postalCode":"96231","locality":"Bad Staffelstein","municipality":{"key":"09478165","name":"Bad Staffelstein, St","type":"Stadt"},"district":{"key":"09478","name":"Lichtenfels","type":"Landkreis"},"federalState":{"key":"09","name":"Bayern"}},{"name":"Hirtengasse","postalCode":"96231","locality":"Bad Staffelstein","municipality":{"key":"09478165","name":"Bad Staffelstein, St","type":"Stadt"},"district":{"key":"09478","name":"Lichtenfels","type":"Landkreis"},"federalState":{"key":"09","name":"Bayern"}},{"name":"Hirtenstr.","postalCode":"96231","locality":"Bad Staffelstein","municipality":{"key":"09478165","name":"Bad Staffelstein, St","type":"Stadt"},"district":{"key":"09478","name":"Lichtenfels","type":"Landkreis"},"federalState":{"key":"09","name":"Bayern"}},{"name":"Hirtenweg","postalCode":"96231","locality":"Bad Staffelstein","municipality":{"key":"09478165","name":"Bad Staffelstein, St","type":"Stadt"},"district":{"key":"09478","name":"Lichtenfels","type":"Landkreis"},"federalState":{"key":"09","name":"Bayern"}},{"name":"Holunderweg","postalCode":"96231","locality":"Bad Staffelstein","municipality":{"key":"09478165","name":"Bad Staffelstein, St","type":"Stadt"},"district":{"key":"09478","name":"Lichtenfels","type":"Landkreis"},"federalState":{"key":"09","name":"Bayern"}},{"name":"Horlachenstr.","postalCode":"96231","locality":"Bad Staffelstein","municipality":{"key":"09478165","name":"Bad Staffelstein, St","type":"Stadt"},"district":{"key":"09478","name":"Lichtenfels","type":"Landkreis"},"federalState":{"key":"09","name":"Bayern"}},{"name":"Horsdorf","postalCode":"96231","locality":"Bad Staffelstein","municipality":{"key":"09478165","name":"Bad Staffelstein, St","type":"Stadt"},"district":{"key":"09478","name":"Lichtenfels","type":"Landkreis"},"federalState":{"key":"09","name":"Bayern"}},{"name":"Hubertusweg","postalCode":"96231","locality":"Bad Staffelstein","municipality":{"key":"09478165","name":"Bad Staffelstein, St","type":"Stadt"},"district":{"key":"09478","name":"Lichtenfels","type":"Landkreis"},"federalState":{"key":"09","name":"Bayern"}},{"name":"Hutweg","postalCode":"96231","locality":"Bad Staffelstein","municipality":{"key":"09478165","name":"Bad Staffelstein, St","type":"Stadt"},"district":{"key":"09478","name":"Lichtenfels","type":"Landkreis"},"federalState":{"key":"09","name":"Bayern"}},{"name":"In der Au","postalCode":"96231","locality":"Bad Staffelstein","municipality":{"key":"09478165","name":"Bad Staffelstein, St","type":"Stadt"},"district":{"key":"09478","name":"Lichtenfels","type":"Landkreis"},"federalState":{"key":"09","name":"Bayern"}},{"name":"Ivo-Hennemann-Str.","postalCode":"96231","locality":"Bad Staffelstein","municipality":{"key":"09478165","name":"Bad Staffelstein, St","type":"Stadt"},"district":{"key":"09478","name":"Lichtenfels","type":"Landkreis"},"federalState":{"key":"09","name":"Bayern"}},{"name":"Jahnstr.","postalCode":"96231","locality":"Bad Staffelstein","municipality":{"key":"09478165","name":"Bad Staffelstein, St","type":"Stadt"},"district":{"key":"09478","name":"Lichtenfels","type":"Landkreis"},"federalState":{"key":"09","name":"Bayern"}},{"name":"Jakob-Hess-Str.","postalCode":"96231","locality":"Bad Staffelstein","municipality":{"key":"09478165","name":"Bad Staffelstein, St","type":"Stadt"},"district":{"key":"09478","name":"Lichtenfels","type":"Landkreis"},"federalState":{"key":"09","name":"Bayern"}},{"name":"Johann-Burkard-Str.","postalCode":"96231","locality":"Bad Staffelstein","municipality":{"key":"09478165","name":"Bad Staffelstein, St","type":"Stadt"},"district":{"key":"09478","name":"Lichtenfels","type":"Landkreis"},"federalState":{"key":"09","name":"Bayern"}},{"name":"Johann-Dientzenhofer-Str.","postalCode":"96231","locality":"Bad Staffelstein","municipality":{"key":"09478165","name":"Bad Staffelstein, St","type":"Stadt"},"district":{"key":"09478","name":"Lichtenfels","type":"Landkreis"},"federalState":{"key":"09","name":"Bayern"}},{"name":"Josefsplatz","postalCode":"96231","locality":"Bad Staffelstein","municipality":{"key":"09478165","name":"Bad Staffelstein, St","type":"Stadt"},"district":{"key":"09478","name":"Lichtenfels","type":"Landkreis"},"federalState":{"key":"09","name":"Bayern"}},{"name":"Kaider","postalCode":"96231","locality":"Bad Staffelstein","municipality":{"key":"09478165","name":"Bad Staffelstein, St","type":"Stadt"},"district":{"key":"09478","name":"Lichtenfels","type":"Landkreis"},"federalState":{"key":"09","name":"Bayern"}},{"name":"Kaiser-Heinrich-Str.","postalCode":"96231","locality":"Bad Staffelstein","municipality":{"key":"09478165","name":"Bad Staffelstein, St","type":"Stadt"},"district":{"key":"09478","name":"Lichtenfels","type":"Landkreis"},"federalState":{"key":"09","name":"Bayern"}},{"name":"Kaiser-Lothar-Str.","postalCode":"96231","locality":"Bad Staffelstein","municipality":{"key":"09478165","name":"Bad Staffelstein, St","type":"Stadt"},"district":{"key":"09478","name":"Lichtenfels","type":"Landkreis"},"federalState":{"key":"09","name":"Bayern"}},{"name":"Kapellenweg","postalCode":"96231","locality":"Bad Staffelstein","municipality":{"key":"09478165","name":"Bad Staffelstein, St","type":"Stadt"},"district":{"key":"09478","name":"Lichtenfels","type":"Landkreis"},"federalState":{"key":"09","name":"Bayern"}},{"name":"Kastanienplatz","postalCode":"96231","locality":"Bad Staffelstein","municipality":{"key":"09478165","name":"Bad Staffelstein, St","type":"Stadt"},"district":{"key":"09478","name":"Lichtenfels","type":"Landkreis"},"federalState":{"key":"09","name":"Bayern"}},{"name":"Kastenhof","postalCode":"96231","locality":"Bad Staffelstein","municipality":{"key":"09478165","name":"Bad Staffelstein, St","type":"Stadt"},"district":{"key":"09478","name":"Lichtenfels","type":"Landkreis"},"federalState":{"key":"09","name":"Bayern"}},{"name":"Kellergasse","postalCode":"96231","locality":"Bad Staffelstein","municipality":{"key":"09478165","name":"Bad Staffelstein, St","type":"Stadt"},"district":{"key":"09478","name":"Lichtenfels","type":"Landkreis"},"federalState":{"key":"09","name":"Bayern"}},{"name":"Kellerstr.","postalCode":"96231","locality":"Bad Staffelstein","municipality":{"key":"09478165","name":"Bad Staffelstein, St","type":"Stadt"},"district":{"key":"09478","name":"Lichtenfels","type":"Landkreis"},"federalState":{"key":"09","name":"Bayern"}},{"name":"Kellerweg","postalCode":"96231","locality":"Bad Staffelstein","municipality":{"key":"09478165","name":"Bad Staffelstein, St","type":"Stadt"},"district":{"key":"09478","name":"Lichtenfels","type":"Landkreis"},"federalState":{"key":"09","name":"Bayern"}},{"name":"Kemitzenweg","postalCode":"96231","locality":"Bad Staffelstein","municipality":{"key":"09478165","name":"Bad Staffelstein, St","type":"Stadt"},"district":{"key":"09478","name":"Lichtenfels","type":"Landkreis"},"federalState":{"key":"09","name":"Bayern"}},{"name":"Kiefernweg","postalCode":"96231","locality":"Bad Staffelstein","municipality":{"key":"09478165","name":"Bad Staffelstein, St","type":"Stadt"},"district":{"key":"09478","name":"Lichtenfels","type":"Landkreis"},"federalState":{"key":"09","name":"Bayern"}},{"name":"Kilianstr.","postalCode":"96231","locality":"Bad Staffelstein","municipality":{"key":"09478165","name":"Bad Staffelstein, St","type":"Stadt"},"district":{"key":"09478","name":"Lichtenfels","type":"Landkreis"},"federalState":{"key":"09","name":"Bayern"}},{"name":"Kirchgasse","postalCode":"96231","locality":"Bad Staffelstein","municipality":{"key":"09478165","name":"Bad Staffelstein, St","type":"Stadt"},"district":{"key":"09478","name":"Lichtenfels","type":"Landkreis"},"federalState":{"key":"09","name":"Bayern"}},{"name":"Kirchstr.","postalCode":"96231","locality":"Bad Staffelstein","municipality":{"key":"09478165","name":"Bad Staffelstein, St","type":"Stadt"},"district":{"key":"09478","name":"Lichtenfels","type":"Landkreis"},"federalState":{"key":"09","name":"Bayern"}},{"name":"Kirchweg","postalCode":"96231","locality":"Bad Staffelstein","municipality":{"key":"09478165","name":"Bad Staffelstein, St","type":"Stadt"},"district":{"key":"09478","name":"Lichtenfels","type":"Landkreis"},"federalState":{"key":"09","name":"Bayern"}},{"name":"Kloster-Banz-Str.","postalCode":"96231","locality":"Bad Staffelstein","municipality":{"key":"09478165","name":"Bad Staffelstein, St","type":"Stadt"},"district":{"key":"09478","name":"Lichtenfels","type":"Landkreis"},"federalState":{"key":"09","name":"Bayern"}},{"name":"Klosterweg","postalCode":"96231","locality":"Bad Staffelstein","municipality":{"key":"09478165","name":"Bad Staffelstein, St","type":"Stadt"},"district":{"key":"09478","name":"Lichtenfels","type":"Landkreis"},"federalState":{"key":"09","name":"Bayern"}},{"name":"Krausenbachstr.","postalCode":"96231","locality":"Bad Staffelstein","municipality":{"key":"09478165","name":"Bad Staffelstein, St","type":"Stadt"},"district":{"key":"09478","name":"Lichtenfels","type":"Landkreis"},"federalState":{"key":"09","name":"Bayern"}},{"name":"Krögelhof","postalCode":"96231","locality":"Bad Staffelstein","municipality":{"key":"09478165","name":"Bad Staffelstein, St","type":"Stadt"},"district":{"key":"09478","name":"Lichtenfels","type":"Landkreis"},"federalState":{"key":"09","name":"Bayern"}},{"name":"Krögelhofer Weg","postalCode":"96231","locality":"Bad Staffelstein","municipality":{"key":"09478165","name":"Bad Staffelstein, St","type":"Stadt"},"district":{"key":"09478","name":"Lichtenfels","type":"Landkreis"},"federalState":{"key":"09","name":"Bayern"}},{"name":"Kunigundenweg","postalCode":"96231","locality":"Bad Staffelstein","municipality":{"key":"09478165","name":"Bad Staffelstein, St","type":"Stadt"},"district":{"key":"09478","name":"Lichtenfels","type":"Landkreis"},"federalState":{"key":"09","name":"Bayern"}},{"name":"Lahmer Str.","postalCode":"96231","locality":"Bad Staffelstein","municipality":{"key":"09478165","name":"Bad Staffelstein, St","type":"Stadt"},"district":{"key":"09478","name":"Lichtenfels","type":"Landkreis"},"federalState":{"key":"09","name":"Bayern"}},{"name":"Lärchenstr.","postalCode":"96231","locality":"Bad Staffelstein","municipality":{"key":"09478165","name":"Bad Staffelstein, St","type":"Stadt"},"district":{"key":"09478","name":"Lichtenfels","type":"Landkreis"},"federalState":{"key":"09","name":"Bayern"}},{"name":"Laurentiusstr.","postalCode":"96231","locality":"Bad Staffelstein","municipality":{"key":"09478165","name":"Bad Staffelstein, St","type":"Stadt"},"district":{"key":"09478","name":"Lichtenfels","type":"Landkreis"},"federalState":{"key":"09","name":"Bayern"}},{"name":"Lessingstr.","postalCode":"96231","locality":"Bad Staffelstein","municipality":{"key":"09478165","name":"Bad Staffelstein, St","type":"Stadt"},"district":{"key":"09478","name":"Lichtenfels","type":"Landkreis"},"federalState":{"key":"09","name":"Bayern"}},{"name":"Lichtenfelser Str.","postalCode":"96231","locality":"Bad Staffelstein","municipality":{"key":"09478165","name":"Bad Staffelstein, St","type":"Stadt"},"district":{"key":"09478","name":"Lichtenfels","type":"Landkreis"},"federalState":{"key":"09","name":"Bayern"}},{"name":"Lilienstr.","postalCode":"96231","locality":"Bad Staffelstein","municipality":{"key":"09478165","name":"Bad Staffelstein, St","type":"Stadt"},"district":{"key":"09478","name":"Lichtenfels","type":"Landkreis"},"federalState":{"key":"09","name":"Bayern"}},{"name":"Lindenweg","postalCode":"96231","locality":"Bad Staffelstein","municipality":{"key":"09478165","name":"Bad Staffelstein, St","type":"Stadt"},"district":{"key":"09478","name":"Lichtenfels","type":"Landkreis"},"federalState":{"key":"09","name":"Bayern"}},{"name":"Mainblick","postalCode":"96231","locality":"Bad Staffelstein","municipality":{"key":"09478165","name":"Bad Staffelstein, St","type":"Stadt"},"district":{"key":"09478","name":"Lichtenfels","type":"Landkreis"},"federalState":{"key":"09","name":"Bayern"}},{"name":"Margarethengasse","postalCode":"96231","locality":"Bad Staffelstein","municipality":{"key":"09478165","name":"Bad Staffelstein, St","type":"Stadt"},"district":{"key":"09478","name":"Lichtenfels","type":"Landkreis"},"federalState":{"key":"09","name":"Bayern"}},{"name":"Marktplatz","postalCode":"96231","locality":"Bad Staffelstein","municipality":{"key":"09478165","name":"Bad Staffelstein, St","type":"Stadt"},"district":{"key":"09478","name":"Lichtenfels","type":"Landkreis"},"federalState":{"key":"09","name":"Bayern"}},{"name":"Mittelau","postalCode":"96231","locality":"Bad Staffelstein","municipality":{"key":"09478165","name":"Bad Staffelstein, St","type":"Stadt"},"district":{"key":"09478","name":"Lichtenfels","type":"Landkreis"},"federalState":{"key":"09","name":"Bayern"}},{"name":"Moorweg","postalCode":"96231","locality":"Bad Staffelstein","municipality":{"key":"09478165","name":"Bad Staffelstein, St","type":"Stadt"},"district":{"key":"09478","name":"Lichtenfels","type":"Landkreis"},"federalState":{"key":"09","name":"Bayern"}},{"name":"Mühlanger","postalCode":"96231","locality":"Bad Staffelstein","municipality":{"key":"09478165","name":"Bad Staffelstein, St","type":"Stadt"},"district":{"key":"09478","name":"Lichtenfels","type":"Landkreis"},"federalState":{"key":"09","name":"Bayern"}},{"name":"Mühlengrund","postalCode":"96231","locality":"Bad Staffelstein","municipality":{"key":"09478165","name":"Bad Staffelstein, St","type":"Stadt"},"district":{"key":"09478","name":"Lichtenfels","type":"Landkreis"},"federalState":{"key":"09","name":"Bayern"}},{"name":"Mühlteich","postalCode":"96231","locality":"Bad Staffelstein","municipality":{"key":"09478165","name":"Bad Staffelstein, St","type":"Stadt"},"district":{"key":"09478","name":"Lichtenfels","type":"Landkreis"},"federalState":{"key":"09","name":"Bayern"}},{"name":"Nedensdorf","postalCode":"96231","locality":"Bad Staffelstein","municipality":{"key":"09478165","name":"Bad Staffelstein, St","type":"Stadt"},"district":{"key":"09478","name":"Lichtenfels","type":"Landkreis"},"federalState":{"key":"09","name":"Bayern"}},{"name":"Nedensdorfer Str.","postalCode":"96231","locality":"Bad Staffelstein","municipality":{"key":"09478165","name":"Bad Staffelstein, St","type":"Stadt"},"district":{"key":"09478","name":"Lichtenfels","type":"Landkreis"},"federalState":{"key":"09","name":"Bayern"}},{"name":"Nelkenweg","postalCode":"96231","locality":"Bad Staffelstein","municipality":{"key":"09478165","name":"Bad Staffelstein, St","type":"Stadt"},"district":{"key":"09478","name":"Lichtenfels","type":"Landkreis"},"federalState":{"key":"09","name":"Bayern"}},{"name":"Neubanz","postalCode":"96231","locality":"Bad Staffelstein","municipality":{"key":"09478165","name":"Bad Staffelstein, St","type":"Stadt"},"district":{"key":"09478","name":"Lichtenfels","type":"Landkreis"},"federalState":{"key":"09","name":"Bayern"}},{"name":"Neubergweg","postalCode":"96231","locality":"Bad Staffelstein","municipality":{"key":"09478165","name":"Bad Staffelstein, St","type":"Stadt"},"district":{"key":"09478","name":"Lichtenfels","type":"Landkreis"},"federalState":{"key":"09","name":"Bayern"}},{"name":"Neumannstr.","postalCode":"96231","locality":"Bad Staffelstein","municipality":{"key":"09478165","name":"Bad Staffelstein, St","type":"Stadt"},"district":{"key":"09478","name":"Lichtenfels","type":"Landkreis"},"federalState":{"key":"09","name":"Bayern"}},{"name":"Oberauer Str.","postalCode":"96231","locality":"Bad Staffelstein","municipality":{"key":"09478165","name":"Bad Staffelstein, St","type":"Stadt"},"district":{"key":"09478","name":"Lichtenfels","type":"Landkreis"},"federalState":{"key":"09","name":"Bayern"}},{"name":"Obere Badegasse","postalCode":"96231","locality":"Bad Staffelstein","municipality":{"key":"09478165","name":"Bad Staffelstein, St","type":"Stadt"},"district":{"key":"09478","name":"Lichtenfels","type":"Landkreis"},"federalState":{"key":"09","name":"Bayern"}},{"name":"Obere Gartenstr.","postalCode":"96231","locality":"Bad Staffelstein","municipality":{"key":"09478165","name":"Bad Staffelstein, St","type":"Stadt"},"district":{"key":"09478","name":"Lichtenfels","type":"Landkreis"},"federalState":{"key":"09","name":"Bayern"}},{"name":"Oberer Mühlbach","postalCode":"96231","locality":"Bad Staffelstein","municipality":{"key":"09478165","name":"Bad Staffelstein, St","type":"Stadt"},"district":{"key":"09478","name":"Lichtenfels","type":"Landkreis"},"federalState":{"key":"09","name":"Bayern"}},{"name":"Oberer Weg","postalCode":"96231","locality":"Bad Staffelstein","municipality":{"key":"09478165","name":"Bad Staffelstein, St","type":"Stadt"},"district":{"key":"09478","name":"Lichtenfels","type":"Landkreis"},"federalState":{"key":"09","name":"Bayern"}},{"name":"Oskar-Schramm-Str.","postalCode":"96231","locality":"Bad Staffelstein","municipality":{"key":"09478165","name":"Bad Staffelstein, St","type":"Stadt"},"district":{"key":"09478","name":"Lichtenfels","type":"Landkreis"},"federalState":{"key":"09","name":"Bayern"}},{"name":"Pappelweg","postalCode":"96231","locality":"Bad Staffelstein","municipality":{"key":"09478165","name":"Bad Staffelstein, St","type":"Stadt"},"district":{"key":"09478","name":"Lichtenfels","type":"Landkreis"},"federalState":{"key":"09","name":"Bayern"}},{"name":"Pater-Valentin-Rathgeber-Str.","postalCode":"96231","locality":"Bad Staffelstein","municipality":{"key":"09478165","name":"Bad Staffelstein, St","type":"Stadt"},"district":{"key":"09478","name":"Lichtenfels","type":"Landkreis"},"federalState":{"key":"09","name":"Bayern"}},{"name":"Peuntstr.","postalCode":"96231","locality":"Bad Staffelstein","municipality":{"key":"09478165","name":"Bad Staffelstein, St","type":"Stadt"},"district":{"key":"09478","name":"Lichtenfels","type":"Landkreis"},"federalState":{"key":"09","name":"Bayern"}},{"name":"Peuntweg","postalCode":"96231","locality":"Bad Staffelstein","municipality":{"key":"09478165","name":"Bad Staffelstein, St","type":"Stadt"},"district":{"key":"09478","name":"Lichtenfels","type":"Landkreis"},"federalState":{"key":"09","name":"Bayern"}},{"name":"Pfarrer-Birger-Platz","postalCode":"96231","locality":"Bad Staffelstein","municipality":{"key":"09478165","name":"Bad Staffelstein, St","type":"Stadt"},"district":{"key":"09478","name":"Lichtenfels","type":"Landkreis"},"federalState":{"key":"09","name":"Bayern"}},{"name":"Pfarrer-Krapf-Str.","postalCode":"96231","locality":"Bad Staffelstein","municipality":{"key":"09478165","name":"Bad Staffelstein, St","type":"Stadt"},"district":{"key":"09478","name":"Lichtenfels","type":"Landkreis"},"federalState":{"key":"09","name":"Bayern"}},{"name":"Pferdsfelder Weg","postalCode":"96231","locality":"Bad Staffelstein","municipality":{"key":"09478165","name":"Bad Staffelstein, St","type":"Stadt"},"district":{"key":"09478","name":"Lichtenfels","type":"Landkreis"},"federalState":{"key":"09","name":"Bayern"}},{"name":"Pilgerweg","postalCode":"96231","locality":"Bad Staffelstein","municipality":{"key":"09478165","name":"Bad Staffelstein, St","type":"Stadt"},"district":{"key":"09478","name":"Lichtenfels","type":"Landkreis"},"federalState":{"key":"09","name":"Bayern"}},{"name":"Porzellinerweg","postalCode":"96231","locality":"Bad Staffelstein","municipality":{"key":"09478165","name":"Bad Staffelstein, St","type":"Stadt"},"district":{"key":"09478","name":"Lichtenfels","type":"Landkreis"},"federalState":{"key":"09","name":"Bayern"}},{"name":"Postelberger Str.","postalCode":"96231","locality":"Bad Staffelstein","municipality":{"key":"09478165","name":"Bad Staffelstein, St","type":"Stadt"},"district":{"key":"09478","name":"Lichtenfels","type":"Landkreis"},"federalState":{"key":"09","name":"Bayern"}},{"name":"Püchitz","postalCode":"96231","locality":"Bad Staffelstein","municipality":{"key":"09478165","name":"Bad Staffelstein, St","type":"Stadt"},"district":{"key":"09478","name":"Lichtenfels","type":"Landkreis"},"federalState":{"key":"09","name":"Bayern"}},{"name":"Reuthweg","postalCode":"96231","locality":"Bad Staffelstein","municipality":{"key":"09478165","name":"Bad Staffelstein, St","type":"Stadt"},"district":{"key":"09478","name":"Lichtenfels","type":"Landkreis"},"federalState":{"key":"09","name":"Bayern"}},{"name":"Ringstr.","postalCode":"96231","locality":"Bad Staffelstein","municipality":{"key":"09478165","name":"Bad Staffelstein, St","type":"Stadt"},"district":{"key":"09478","name":"Lichtenfels","type":"Landkreis"},"federalState":{"key":"09","name":"Bayern"}},{"name":"Romansthal","postalCode":"96231","locality":"Bad Staffelstein","municipality":{"key":"09478165","name":"Bad Staffelstein, St","type":"Stadt"},"district":{"key":"09478","name":"Lichtenfels","type":"Landkreis"},"federalState":{"key":"09","name":"Bayern"}},{"name":"Romansthaler Str.","postalCode":"96231","locality":"Bad Staffelstein","municipality":{"key":"09478165","name":"Bad Staffelstein, St","type":"Stadt"},"district":{"key":"09478","name":"Lichtenfels","type":"Landkreis"},"federalState":{"key":"09","name":"Bayern"}},{"name":"Rosenleite","postalCode":"96231","locality":"Bad Staffelstein","municipality":{"key":"09478165","name":"Bad Staffelstein, St","type":"Stadt"},"district":{"key":"09478","name":"Lichtenfels","type":"Landkreis"},"federalState":{"key":"09","name":"Bayern"}},{"name":"Rosenstr.","postalCode":"96231","locality":"Bad Staffelstein","municipality":{"key":"09478165","name":"Bad Staffelstein, St","type":"Stadt"},"district":{"key":"09478","name":"Lichtenfels","type":"Landkreis"},"federalState":{"key":"09","name":"Bayern"}},{"name":"Rossacher Weg","postalCode":"96231","locality":"Bad Staffelstein","municipality":{"key":"09478165","name":"Bad Staffelstein, St","type":"Stadt"},"district":{"key":"09478","name":"Lichtenfels","type":"Landkreis"},"federalState":{"key":"09","name":"Bayern"}},{"name":"Rotkreuzweg","postalCode":"96231","locality":"Bad Staffelstein","municipality":{"key":"09478165","name":"Bad Staffelstein, St","type":"Stadt"},"district":{"key":"09478","name":"Lichtenfels","type":"Landkreis"},"federalState":{"key":"09","name":"Bayern"}},{"name":"Saazer Str.","postalCode":"96231","locality":"Bad Staffelstein","municipality":{"key":"09478165","name":"Bad Staffelstein, St","type":"Stadt"},"district":{"key":"09478","name":"Lichtenfels","type":"Landkreis"},"federalState":{"key":"09","name":"Bayern"}},{"name":"Sandstr.","postalCode":"96231","locality":"Bad Staffelstein","municipality":{"key":"09478165","name":"Bad Staffelstein, St","type":"Stadt"},"district":{"key":"09478","name":"Lichtenfels","type":"Landkreis"},"federalState":{"key":"09","name":"Bayern"}},{"name":"Sankt-Aegidius-Str.","postalCode":"96231","locality":"Bad Staffelstein","municipality":{"key":"09478165","name":"Bad Staffelstein, St","type":"Stadt"},"district":{"key":"09478","name":"Lichtenfels","type":"Landkreis"},"federalState":{"key":"09","name":"Bayern"}},{"name":"Sankt-Georg-Str.","postalCode":"96231","locality":"Bad Staffelstein","municipality":{"key":"09478165","name":"Bad Staffelstein, St","type":"Stadt"},"district":{"key":"09478","name":"Lichtenfels","type":"Landkreis"},"federalState":{"key":"09","name":"Bayern"}},{"name":"Sankt-Johannes-Ring","postalCode":"96231","locality":"Bad Staffelstein","municipality":{"key":"09478165","name":"Bad Staffelstein, St","type":"Stadt"},"district":{"key":"09478","name":"Lichtenfels","type":"Landkreis"},"federalState":{"key":"09","name":"Bayern"}},{"name":"Scheffel-Platz","postalCode":"96231","locality":"Bad Staffelstein","municipality":{"key":"09478165","name":"Bad Staffelstein, St","type":"Stadt"},"district":{"key":"09478","name":"Lichtenfels","type":"Landkreis"},"federalState":{"key":"09","name":"Bayern"}},{"name":"Schillerstr.","postalCode":"96231","locality":"Bad Staffelstein","municipality":{"key":"09478165","name":"Bad Staffelstein, St","type":"Stadt"},"district":{"key":"09478","name":"Lichtenfels","type":"Landkreis"},"federalState":{"key":"09","name":"Bayern"}},{"name":"Schlesierstr.","postalCode":"96231","locality":"Bad Staffelstein","municipality":{"key":"09478165","name":"Bad Staffelstein, St","type":"Stadt"},"district":{"key":"09478","name":"Lichtenfels","type":"Landkreis"},"federalState":{"key":"09","name":"Bayern"}},{"name":"Schloßbergstr.","postalCode":"96231","locality":"Bad Staffelstein","municipality":{"key":"09478165","name":"Bad Staffelstein, St","type":"Stadt"},"district":{"key":"09478","name":"Lichtenfels","type":"Landkreis"},"federalState":{"key":"09","name":"Bayern"}},{"name":"Schloßstr.","postalCode":"96231","locality":"Bad Staffelstein","municipality":{"key":"09478165","name":"Bad Staffelstein, St","type":"Stadt"},"district":{"key":"09478","name":"Lichtenfels","type":"Landkreis"},"federalState":{"key":"09","name":"Bayern"}},{"name":"Schollergasse","postalCode":"96231","locality":"Bad Staffelstein","municipality":{"key":"09478165","name":"Bad Staffelstein, St","type":"Stadt"},"district":{"key":"09478","name":"Lichtenfels","type":"Landkreis"},"federalState":{"key":"09","name":"Bayern"}},{"name":"Schönbrunner Weg","postalCode":"96231","locality":"Bad Staffelstein","municipality":{"key":"09478165","name":"Bad Staffelstein, St","type":"Stadt"},"district":{"key":"09478","name":"Lichtenfels","type":"Landkreis"},"federalState":{"key":"09","name":"Bayern"}},{"name":"Schönthalstr.","postalCode":"96231","locality":"Bad Staffelstein","municipality":{"key":"09478165","name":"Bad Staffelstein, St","type":"Stadt"},"district":{"key":"09478","name":"Lichtenfels","type":"Landkreis"},"federalState":{"key":"09","name":"Bayern"}},{"name":"Schubertstr.","postalCode":"96231","locality":"Bad Staffelstein","municipality":{"key":"09478165","name":"Bad Staffelstein, St","type":"Stadt"},"district":{"key":"09478","name":"Lichtenfels","type":"Landkreis"},"federalState":{"key":"09","name":"Bayern"}},{"name":"Schulstr.","postalCode":"96231","locality":"Bad Staffelstein","municipality":{"key":"09478165","name":"Bad Staffelstein, St","type":"Stadt"},"district":{"key":"09478","name":"Lichtenfels","type":"Landkreis"},"federalState":{"key":"09","name":"Bayern"}},{"name":"Schützenweg","postalCode":"96231","locality":"Bad Staffelstein","municipality":{"key":"09478165","name":"Bad Staffelstein, St","type":"Stadt"},"district":{"key":"09478","name":"Lichtenfels","type":"Landkreis"},"federalState":{"key":"09","name":"Bayern"}},{"name":"Schwerdtmacherstr.","postalCode":"96231","locality":"Bad Staffelstein","municipality":{"key":"09478165","name":"Bad Staffelstein, St","type":"Stadt"},"district":{"key":"09478","name":"Lichtenfels","type":"Landkreis"},"federalState":{"key":"09","name":"Bayern"}},{"name":"Serkendorfer Str.","postalCode":"96231","locality":"Bad Staffelstein","municipality":{"key":"09478165","name":"Bad Staffelstein, St","type":"Stadt"},"district":{"key":"09478","name":"Lichtenfels","type":"Landkreis"},"federalState":{"key":"09","name":"Bayern"}},{"name":"Siechenstr.","postalCode":"96231","locality":"Bad Staffelstein","municipality":{"key":"09478165","name":"Bad Staffelstein, St","type":"Stadt"},"district":{"key":"09478","name":"Lichtenfels","type":"Landkreis"},"federalState":{"key":"09","name":"Bayern"}},{"name":"Sonnenleite","postalCode":"96231","locality":"Bad Staffelstein","municipality":{"key":"09478165","name":"Bad Staffelstein, St","type":"Stadt"},"district":{"key":"09478","name":"Lichtenfels","type":"Landkreis"},"federalState":{"key":"09","name":"Bayern"}},{"name":"Stadel","postalCode":"96231","locality":"Bad Staffelstein","municipality":{"key":"09478165","name":"Bad Staffelstein, St","type":"Stadt"},"district":{"key":"09478","name":"Lichtenfels","type":"Landkreis"},"federalState":{"key":"09","name":"Bayern"}},{"name":"Stadtgraben","postalCode":"96231","locality":"Bad Staffelstein","municipality":{"key":"09478165","name":"Bad Staffelstein, St","type":"Stadt"},"district":{"key":"09478","name":"Lichtenfels","type":"Landkreis"},"federalState":{"key":"09","name":"Bayern"}},{"name":"Staffelbergblick","postalCode":"96231","locality":"Bad Staffelstein","municipality":{"key":"09478165","name":"Bad Staffelstein, St","type":"Stadt"},"district":{"key":"09478","name":"Lichtenfels","type":"Landkreis"},"federalState":{"key":"09","name":"Bayern"}},{"name":"Staffelberger Weg","postalCode":"96231","locality":"Bad Staffelstein","municipality":{"key":"09478165","name":"Bad Staffelstein, St","type":"Stadt"},"district":{"key":"09478","name":"Lichtenfels","type":"Landkreis"},"federalState":{"key":"09","name":"Bayern"}},{"name":"Staffelsteiner Str.","postalCode":"96231","locality":"Bad Staffelstein","municipality":{"key":"09478165","name":"Bad Staffelstein, St","type":"Stadt"},"district":{"key":"09478","name":"Lichtenfels","type":"Landkreis"},"federalState":{"key":"09","name":"Bayern"}},{"name":"St.-Anna-Str.","postalCode":"96231","locality":"Bad Staffelstein","municipality":{"key":"09478165","name":"Bad Staffelstein, St","type":"Stadt"},"district":{"key":"09478","name":"Lichtenfels","type":"Landkreis"},"federalState":{"key":"09","name":"Bayern"}},{"name":"Steinstr.","postalCode":"96231","locality":"Bad Staffelstein","municipality":{"key":"09478165","name":"Bad Staffelstein, St","type":"Stadt"},"district":{"key":"09478","name":"Lichtenfels","type":"Landkreis"},"federalState":{"key":"09","name":"Bayern"}},{"name":"Stublanger Str.","postalCode":"96231","locality":"Bad Staffelstein","municipality":{"key":"09478165","name":"Bad Staffelstein, St","type":"Stadt"},"district":{"key":"09478","name":"Lichtenfels","type":"Landkreis"},"federalState":{"key":"09","name":"Bayern"}},{"name":"St.-Veit-Str.","postalCode":"96231","locality":"Bad Staffelstein","municipality":{"key":"09478165","name":"Bad Staffelstein, St","type":"Stadt"},"district":{"key":"09478","name":"Lichtenfels","type":"Landkreis"},"federalState":{"key":"09","name":"Bayern"}},{"name":"Sudetenstr.","postalCode":"96231","locality":"Bad Staffelstein","municipality":{"key":"09478165","name":"Bad Staffelstein, St","type":"Stadt"},"district":{"key":"09478","name":"Lichtenfels","type":"Landkreis"},"federalState":{"key":"09","name":"Bayern"}},{"name":"Sulliggasse","postalCode":"96231","locality":"Bad Staffelstein","municipality":{"key":"09478165","name":"Bad Staffelstein, St","type":"Stadt"},"district":{"key":"09478","name":"Lichtenfels","type":"Landkreis"},"federalState":{"key":"09","name":"Bayern"}},{"name":"Talgasse","postalCode":"96231","locality":"Bad Staffelstein","municipality":{"key":"09478165","name":"Bad Staffelstein, St","type":"Stadt"},"district":{"key":"09478","name":"Lichtenfels","type":"Landkreis"},"federalState":{"key":"09","name":"Bayern"}},{"name":"Theisenort","postalCode":"96231","locality":"Bad Staffelstein","municipality":{"key":"09478165","name":"Bad Staffelstein, St","type":"Stadt"},"district":{"key":"09478","name":"Lichtenfels","type":"Landkreis"},"federalState":{"key":"09","name":"Bayern"}},{"name":"Thomas-Nißler-Str.","postalCode":"96231","locality":"Bad Staffelstein","municipality":{"key":"09478165","name":"Bad Staffelstein, St","type":"Stadt"},"district":{"key":"09478","name":"Lichtenfels","type":"Landkreis"},"federalState":{"key":"09","name":"Bayern"}},{"name":"Tiefenthalschlucht","postalCode":"96231","locality":"Bad Staffelstein","municipality":{"key":"09478165","name":"Bad Staffelstein, St","type":"Stadt"},"district":{"key":"09478","name":"Lichtenfels","type":"Landkreis"},"federalState":{"key":"09","name":"Bayern"}},{"name":"Tulpenweg","postalCode":"96231","locality":"Bad Staffelstein","municipality":{"key":"09478165","name":"Bad Staffelstein, St","type":"Stadt"},"district":{"key":"09478","name":"Lichtenfels","type":"Landkreis"},"federalState":{"key":"09","name":"Bayern"}},{"name":"Uetzinger Str.","postalCode":"96231","locality":"Bad Staffelstein","municipality":{"key":"09478165","name":"Bad Staffelstein, St","type":"Stadt"},"district":{"key":"09478","name":"Lichtenfels","type":"Landkreis"},"federalState":{"key":"09","name":"Bayern"}},{"name":"Ulmenstr.","postalCode":"96231","locality":"Bad Staffelstein","municipality":{"key":"09478165","name":"Bad Staffelstein, St","type":"Stadt"},"district":{"key":"09478","name":"Lichtenfels","type":"Landkreis"},"federalState":{"key":"09","name":"Bayern"}},{"name":"Untere Badegasse","postalCode":"96231","locality":"Bad Staffelstein","municipality":{"key":"09478165","name":"Bad Staffelstein, St","type":"Stadt"},"district":{"key":"09478","name":"Lichtenfels","type":"Landkreis"},"federalState":{"key":"09","name":"Bayern"}},{"name":"Untere Gartenstr.","postalCode":"96231","locality":"Bad Staffelstein","municipality":{"key":"09478165","name":"Bad Staffelstein, St","type":"Stadt"},"district":{"key":"09478","name":"Lichtenfels","type":"Landkreis"},"federalState":{"key":"09","name":"Bayern"}},{"name":"Unterer Brunnsteig","postalCode":"96231","locality":"Bad Staffelstein","municipality":{"key":"09478165","name":"Bad Staffelstein, St","type":"Stadt"},"district":{"key":"09478","name":"Lichtenfels","type":"Landkreis"},"federalState":{"key":"09","name":"Bayern"}},{"name":"Unterer Mühlbach","postalCode":"96231","locality":"Bad Staffelstein","municipality":{"key":"09478165","name":"Bad Staffelstein, St","type":"Stadt"},"district":{"key":"09478","name":"Lichtenfels","type":"Landkreis"},"federalState":{"key":"09","name":"Bayern"}},{"name":"Unterer Peunt","postalCode":"96231","locality":"Bad Staffelstein","municipality":{"key":"09478165","name":"Bad Staffelstein, St","type":"Stadt"},"district":{"key":"09478","name":"Lichtenfels","type":"Landkreis"},"federalState":{"key":"09","name":"Bayern"}},{"name":"Unterzettlitzer Str.","postalCode":"96231","locality":"Bad Staffelstein","municipality":{"key":"09478165","name":"Bad Staffelstein, St","type":"Stadt"},"district":{"key":"09478","name":"Lichtenfels","type":"Landkreis"},"federalState":{"key":"09","name":"Bayern"}},{"name":"Uselhof","postalCode":"96231","locality":"Bad Staffelstein","municipality":{"key":"09478165","name":"Bad Staffelstein, St","type":"Stadt"},"district":{"key":"09478","name":"Lichtenfels","type":"Landkreis"},"federalState":{"key":"09","name":"Bayern"}},{"name":"Veilchenweg","postalCode":"96231","locality":"Bad Staffelstein","municipality":{"key":"09478165","name":"Bad Staffelstein, St","type":"Stadt"},"district":{"key":"09478","name":"Lichtenfels","type":"Landkreis"},"federalState":{"key":"09","name":"Bayern"}},{"name":"Vierzehnheiligener Str.","postalCode":"96231","locality":"Bad Staffelstein","municipality":{"key":"09478165","name":"Bad Staffelstein, St","type":"Stadt"},"district":{"key":"09478","name":"Lichtenfels","type":"Landkreis"},"federalState":{"key":"09","name":"Bayern"}},{"name":"Vierzehnheiligenweg","postalCode":"96231","locality":"Bad Staffelstein","municipality":{"key":"09478165","name":"Bad Staffelstein, St","type":"Stadt"},"district":{"key":"09478","name":"Lichtenfels","type":"Landkreis"},"federalState":{"key":"09","name":"Bayern"}},{"name":"Viktor-von-Scheffel-Str.","postalCode":"96231","locality":"Bad Staffelstein","municipality":{"key":"09478165","name":"Bad Staffelstein, St","type":"Stadt"},"district":{"key":"09478","name":"Lichtenfels","type":"Landkreis"},"federalState":{"key":"09","name":"Bayern"}},{"name":"Von-Eichendorff-Str.","postalCode":"96231","locality":"Bad Staffelstein","municipality":{"key":"09478165","name":"Bad Staffelstein, St","type":"Stadt"},"district":{"key":"09478","name":"Lichtenfels","type":"Landkreis"},"federalState":{"key":"09","name":"Bayern"}},{"name":"Waldblick","postalCode":"96231","locality":"Bad Staffelstein","municipality":{"key":"09478165","name":"Bad Staffelstein, St","type":"Stadt"},"district":{"key":"09478","name":"Lichtenfels","type":"Landkreis"},"federalState":{"key":"09","name":"Bayern"}},{"name":"Waldweg","postalCode":"96231","locality":"Bad Staffelstein","municipality":{"key":"09478165","name":"Bad Staffelstein, St","type":"Stadt"},"district":{"key":"09478","name":"Lichtenfels","type":"Landkreis"},"federalState":{"key":"09","name":"Bayern"}},{"name":"Weidenweg","postalCode":"96231","locality":"Bad Staffelstein","municipality":{"key":"09478165","name":"Bad Staffelstein, St","type":"Stadt"},"district":{"key":"09478","name":"Lichtenfels","type":"Landkreis"},"federalState":{"key":"09","name":"Bayern"}},{"name":"Weinbergstr.","postalCode":"96231","locality":"Bad Staffelstein","municipality":{"key":"09478165","name":"Bad Staffelstein, St","type":"Stadt"},"district":{"key":"09478","name":"Lichtenfels","type":"Landkreis"},"federalState":{"key":"09","name":"Bayern"}},{"name":"Wiesen","postalCode":"96231","locality":"Bad Staffelstein","municipality":{"key":"09478165","name":"Bad Staffelstein, St","type":"Stadt"},"district":{"key":"09478","name":"Lichtenfels","type":"Landkreis"},"federalState":{"key":"09","name":"Bayern"}},{"name":"Wiesenstr.","postalCode":"96231","locality":"Bad Staffelstein","municipality":{"key":"09478165","name":"Bad Staffelstein, St","type":"Stadt"},"district":{"key":"09478","name":"Lichtenfels","type":"Landkreis"},"federalState":{"key":"09","name":"Bayern"}},{"name":"Wiesnergasse","postalCode":"96231","locality":"Bad Staffelstein","municipality":{"key":"09478165","name":"Bad Staffelstein, St","type":"Stadt"},"district":{"key":"09478","name":"Lichtenfels","type":"Landkreis"},"federalState":{"key":"09","name":"Bayern"}},{"name":"Wolfsdorfer Str.","postalCode":"96231","locality":"Bad Staffelstein","municipality":{"key":"09478165","name":"Bad Staffelstein, St","type":"Stadt"},"district":{"key":"09478","name":"Lichtenfels","type":"Landkreis"},"federalState":{"key":"09","name":"Bayern"}},{"name":"Wolfsgasse","postalCode":"96231","locality":"Bad Staffelstein","municipality":{"key":"09478165","name":"Bad Staffelstein, St","type":"Stadt"},"district":{"key":"09478","name":"Lichtenfels","type":"Landkreis"},"federalState":{"key":"09","name":"Bayern"}},{"name":"Zum Wörth","postalCode":"96231","locality":"Bad Staffelstein","municipality":{"key":"09478165","name":"Bad Staffelstein, St","type":"Stadt"},"district":{"key":"09478","name":"Lichtenfels","type":"Landkreis"},"federalState":{"key":"09","name":"Bayern"}},{"name":"Zur Hergottsmühle","postalCode":"96231","locality":"Bad Staffelstein","municipality":{"key":"09478165","name":"Bad Staffelstein, St","type":"Stadt"},"district":{"key":"09478","name":"Lichtenfels","type":"Landkreis"},"federalState":{"key":"09","name":"Bayern"}},{"name":"Zur Torgasse","postalCode":"96231","locality":"Bad Staffelstein","municipality":{"key":"09478165","name":"Bad Staffelstein, St","type":"Stadt"},"district":{"key":"09478","name":"Lichtenfels","type":"Landkreis"},"federalState":{"key":"09","name":"Bayern"}},{"name":"Äußerer Frankenring","postalCode":"96231","locality":"Bad Staffelstein","municipality":{"key":"09478165","name":"Bad Staffelstein, St","type":"Stadt"},"district":{"key":"09478","name":"Lichtenfels","type":"Landkreis"},"federalState":{"key":"09","name":"Bayern"}},{"name":"Öhrlinggasse","postalCode":"96231","locality":"Bad Staffelstein","municipality":{"key":"09478165","name":"Bad Staffelstein, St","type":"Stadt"},"district":{"key":"09478","name":"Lichtenfels","type":"Landkreis"},"federalState":{"key":"09","name":"Bayern"}},{"name":"Überscharweg","postalCode":"96215","locality":"Lichtenfels","municipality":{"key":"09478139","name":"Lichtenfels, St","type":"Stadt"},"district":{"key":"09478","name":"Lichtenfels","type":"Landkreis"},"federalState":{"key":"09","name":"Bayern"}},]