[{"name":"Alemannenstr.","postalCode":"86507","locality":"Kleinaitingen","municipality":{"key":"09772160","name":"Kleinaitingen","type":"Kreisangehörige_Gemeinde"},"district":{"key":"09772","name":"Augsburg","type":"Landkreis"},"federalState":{"key":"09","name":"Bayern"}},{"name":"Alpenstr.","postalCode":"86507","locality":"Kleinaitingen","municipality":{"key":"09772160","name":"Kleinaitingen","type":"Kreisangehörige_Gemeinde"},"district":{"key":"09772","name":"Augsburg","type":"Landkreis"},"federalState":{"key":"09","name":"Bayern"}},{"name":"Am Kirchberg","postalCode":"86507","locality":"Kleinaitingen","municipality":{"key":"09772160","name":"Kleinaitingen","type":"Kreisangehörige_Gemeinde"},"district":{"key":"09772","name":"Augsburg","type":"Landkreis"},"federalState":{"key":"09","name":"Bayern"}},{"name":"Am Lagerplatz","postalCode":"86507","locality":"Kleinaitingen","municipality":{"key":"09772160","name":"Kleinaitingen","type":"Kreisangehörige_Gemeinde"},"district":{"key":"09772","name":"Augsburg","type":"Landkreis"},"federalState":{"key":"09","name":"Bayern"}},{"name":"Babenhauser Weg","postalCode":"86156","locality":"Augsburg","municipality":{"key":"09761000","name":"Augsburg","type":"Kreisfreie_Stadt"},"district":{"key":"09761","name":"Augsburg","type":"Kreisfreie_Stadt"},"federalState":{"key":"09","name":"Bayern"}},{"name":"Bachstelzenweg","postalCode":"86169","locality":"Augsburg","municipality":{"key":"09761000","name":"Augsburg","type":"Kreisfreie_Stadt"},"district":{"key":"09761","name":"Augsburg","type":"Kreisfreie_Stadt"},"federalState":{"key":"09","name":"Bayern"}},{"name":"Bäckergasse","postalCode":"86150","locality":"Augsburg","municipality":{"key":"09761000","name":"Augsburg","type":"Kreisfreie_Stadt"},"district":{"key":"09761","name":"Augsburg","type":"Kreisfreie_Stadt"},"federalState":{"key":"09","name":"Bayern"}},{"name":"Badanger","postalCode":"86157","locality":"Augsburg","municipality":{"key":"09761000","name":"Augsburg","type":"Kreisfreie_Stadt"},"district":{"key":"09761","name":"Augsburg","type":"Kreisfreie_Stadt"},"federalState":{"key":"09","name":"Bayern"}},{"name":"Badstr.","postalCode":"86152","locality":"Augsburg","municipality":{"key":"09761000","name":"Augsburg","type":"Kreisfreie_Stadt"},"district":{"key":"09761","name":"Augsburg","type":"Kreisfreie_Stadt"},"federalState":{"key":"09","name":"Bayern"}},{"name":"Badstr.","postalCode":"86153","locality":"Augsburg","municipality":{"key":"09761000","name":"Augsburg","type":"Kreisfreie_Stadt"},"district":{"key":"09761","name":"Augsburg","type":"Kreisfreie_Stadt"},"federalState":{"key":"09","name":"Bayern"}},{"name":"Bahnhofstr.","postalCode":"86150","locality":"Augsburg","municipality":{"key":"09761000","name":"Augsburg","type":"Kreisfreie_Stadt"},"district":{"key":"09761","name":"Augsburg","type":"Kreisfreie_Stadt"},"federalState":{"key":"09","name":"Bayern"}},{"name":"Bahnstr.","postalCode":"86199","locality":"Augsburg","municipality":{"key":"09761000","name":"Augsburg","type":"Kreisfreie_Stadt"},"district":{"key":"09761","name":"Augsburg","type":"Kreisfreie_Stadt"},"federalState":{"key":"09","name":"Bayern"}},{"name":"Balanstr.","postalCode":"86157","locality":"Augsburg","municipality":{"key":"09761000","name":"Augsburg","type":"Kreisfreie_Stadt"},"district":{"key":"09761","name":"Augsburg","type":"Kreisfreie_Stadt"},"federalState":{"key":"09","name":"Bayern"}},{"name":"Banater Str.","postalCode":"86179","locality":"Augsburg","municipality":{"key":"09761000","name":"Augsburg","type":"Kreisfreie_Stadt"},"district":{"key":"09761","name":"Augsburg","type":"Kreisfreie_Stadt"},"federalState":{"key":"09","name":"Bayern"}},{"name":"Bannacker","postalCode":"86199","locality":"Augsburg","municipality":{"key":"09761000","name":"Augsburg","type":"Kreisfreie_Stadt"},"district":{"key":"09761","name":"Augsburg","type":"Kreisfreie_Stadt"},"federalState":{"key":"09","name":"Bayern"}},{"name":"Bannackerstr.","postalCode":"86199","locality":"Augsburg","municipality":{"key":"09761000","name":"Augsburg","type":"Kreisfreie_Stadt"},"district":{"key":"09761","name":"Augsburg","type":"Kreisfreie_Stadt"},"federalState":{"key":"09","name":"Bayern"}},{"name":"Bannwaldseestr.","postalCode":"86163","locality":"Augsburg","municipality":{"key":"09761000","name":"Augsburg","type":"Kreisfreie_Stadt"},"district":{"key":"09761","name":"Augsburg","type":"Kreisfreie_Stadt"},"federalState":{"key":"09","name":"Bayern"}},{"name":"Barbara-Gignoux-Weg","postalCode":"86153","locality":"Augsburg","municipality":{"key":"09761000","name":"Augsburg","type":"Kreisfreie_Stadt"},"district":{"key":"09761","name":"Augsburg","type":"Kreisfreie_Stadt"},"federalState":{"key":"09","name":"Bayern"}},{"name":"Bärenhorststr.","postalCode":"86167","locality":"Augsburg","municipality":{"key":"09761000","name":"Augsburg","type":"Kreisfreie_Stadt"},"district":{"key":"09761","name":"Augsburg","type":"Kreisfreie_Stadt"},"federalState":{"key":"09","name":"Bayern"}},{"name":"Bärenstr.","postalCode":"86156","locality":"Augsburg","municipality":{"key":"09761000","name":"Augsburg","type":"Kreisfreie_Stadt"},"district":{"key":"09761","name":"Augsburg","type":"Kreisfreie_Stadt"},"federalState":{"key":"09","name":"Bayern"}},{"name":"Barfüßerbrücke","postalCode":"86152","locality":"Augsburg","municipality":{"key":"09761000","name":"Augsburg","type":"Kreisfreie_Stadt"},"district":{"key":"09761","name":"Augsburg","type":"Kreisfreie_Stadt"},"federalState":{"key":"09","name":"Bayern"}},{"name":"Barfüßerstr.","postalCode":"86150","locality":"Augsburg","municipality":{"key":"09761000","name":"Augsburg","type":"Kreisfreie_Stadt"},"district":{"key":"09761","name":"Augsburg","type":"Kreisfreie_Stadt"},"federalState":{"key":"09","name":"Bayern"}},{"name":"Barthshof","postalCode":"86150","locality":"Augsburg","municipality":{"key":"09761000","name":"Augsburg","type":"Kreisfreie_Stadt"},"district":{"key":"09761","name":"Augsburg","type":"Kreisfreie_Stadt"},"federalState":{"key":"09","name":"Bayern"}},{"name":"Bauernfeindstr.","postalCode":"86159","locality":"Augsburg","municipality":{"key":"09761000","name":"Augsburg","type":"Kreisfreie_Stadt"},"district":{"key":"09761","name":"Augsburg","type":"Kreisfreie_Stadt"},"federalState":{"key":"09","name":"Bayern"}},{"name":"Bauernfeld","postalCode":"86165","locality":"Augsburg","municipality":{"key":"09761000","name":"Augsburg","type":"Kreisfreie_Stadt"},"district":{"key":"09761","name":"Augsburg","type":"Kreisfreie_Stadt"},"federalState":{"key":"09","name":"Bayern"}},{"name":"Bauerntanzgäßchen","postalCode":"86150","locality":"Augsburg","municipality":{"key":"09761000","name":"Augsburg","type":"Kreisfreie_Stadt"},"district":{"key":"09761","name":"Augsburg","type":"Kreisfreie_Stadt"},"federalState":{"key":"09","name":"Bayern"}},{"name":"Baumgärtleingäßchen","postalCode":"86150","locality":"Augsburg","municipality":{"key":"09761000","name":"Augsburg","type":"Kreisfreie_Stadt"},"district":{"key":"09761","name":"Augsburg","type":"Kreisfreie_Stadt"},"federalState":{"key":"09","name":"Bayern"}},{"name":"Baumgartnerstr.","postalCode":"86161","locality":"Augsburg","municipality":{"key":"09761000","name":"Augsburg","type":"Kreisfreie_Stadt"},"district":{"key":"09761","name":"Augsburg","type":"Kreisfreie_Stadt"},"federalState":{"key":"09","name":"Bayern"}},{"name":"Bautzener Str.","postalCode":"86167","locality":"Augsburg","municipality":{"key":"09761000","name":"Augsburg","type":"Kreisfreie_Stadt"},"district":{"key":"09761","name":"Augsburg","type":"Kreisfreie_Stadt"},"federalState":{"key":"09","name":"Bayern"}},{"name":"Bavousstr.","postalCode":"86153","locality":"Augsburg","municipality":{"key":"09761000","name":"Augsburg","type":"Kreisfreie_Stadt"},"district":{"key":"09761","name":"Augsburg","type":"Kreisfreie_Stadt"},"federalState":{"key":"09","name":"Bayern"}},{"name":"Bayerstr.","postalCode":"86199","locality":"Augsburg","municipality":{"key":"09761000","name":"Augsburg","type":"Kreisfreie_Stadt"},"district":{"key":"09761","name":"Augsburg","type":"Kreisfreie_Stadt"},"federalState":{"key":"09","name":"Bayern"}},{"name":"Bebo-Wager-Str.","postalCode":"86157","locality":"Augsburg","municipality":{"key":"09761000","name":"Augsburg","type":"Kreisfreie_Stadt"},"district":{"key":"09761","name":"Augsburg","type":"Kreisfreie_Stadt"},"federalState":{"key":"09","name":"Bayern"}},{"name":"Beethovenstr.","postalCode":"86150","locality":"Augsburg","municipality":{"key":"09761000","name":"Augsburg","type":"Kreisfreie_Stadt"},"district":{"key":"09761","name":"Augsburg","type":"Kreisfreie_Stadt"},"federalState":{"key":"09","name":"Bayern"}},{"name":"Behringerstr.","postalCode":"86165","locality":"Augsburg","municipality":{"key":"09761000","name":"Augsburg","type":"Kreisfreie_Stadt"},"district":{"key":"09761","name":"Augsburg","type":"Kreisfreie_Stadt"},"federalState":{"key":"09","name":"Bayern"}},{"name":"Bei den Sieben Kindeln","postalCode":"86152","locality":"Augsburg","municipality":{"key":"09761000","name":"Augsburg","type":"Kreisfreie_Stadt"},"district":{"key":"09761","name":"Augsburg","type":"Kreisfreie_Stadt"},"federalState":{"key":"09","name":"Bayern"}},{"name":"Bei der Jakobskirche","postalCode":"86152","locality":"Augsburg","municipality":{"key":"09761000","name":"Augsburg","type":"Kreisfreie_Stadt"},"district":{"key":"09761","name":"Augsburg","type":"Kreisfreie_Stadt"},"federalState":{"key":"09","name":"Bayern"}},{"name":"Bei der Wettersäule","postalCode":"86179","locality":"Augsburg","municipality":{"key":"09761000","name":"Augsburg","type":"Kreisfreie_Stadt"},"district":{"key":"09761","name":"Augsburg","type":"Kreisfreie_Stadt"},"federalState":{"key":"09","name":"Bayern"}},{"name":"Beim Dürren Ast","postalCode":"86161","locality":"Augsburg","municipality":{"key":"09761000","name":"Augsburg","type":"Kreisfreie_Stadt"},"district":{"key":"09761","name":"Augsburg","type":"Kreisfreie_Stadt"},"federalState":{"key":"09","name":"Bayern"}},{"name":"Beim Glaspalast","postalCode":"86153","locality":"Augsburg","municipality":{"key":"09761000","name":"Augsburg","type":"Kreisfreie_Stadt"},"district":{"key":"09761","name":"Augsburg","type":"Kreisfreie_Stadt"},"federalState":{"key":"09","name":"Bayern"}},{"name":"Beim Grenzgraben","postalCode":"86167","locality":"Augsburg","municipality":{"key":"09761000","name":"Augsburg","type":"Kreisfreie_Stadt"},"district":{"key":"09761","name":"Augsburg","type":"Kreisfreie_Stadt"},"federalState":{"key":"09","name":"Bayern"}},{"name":"Beim Hafnerberg","postalCode":"86152","locality":"Augsburg","municipality":{"key":"09761000","name":"Augsburg","type":"Kreisfreie_Stadt"},"district":{"key":"09761","name":"Augsburg","type":"Kreisfreie_Stadt"},"federalState":{"key":"09","name":"Bayern"}},{"name":"Beimlerstr.","postalCode":"86157","locality":"Augsburg","municipality":{"key":"09761000","name":"Augsburg","type":"Kreisfreie_Stadt"},"district":{"key":"09761","name":"Augsburg","type":"Kreisfreie_Stadt"},"federalState":{"key":"09","name":"Bayern"}},{"name":"Beim Märzenbad","postalCode":"86150","locality":"Augsburg","municipality":{"key":"09761000","name":"Augsburg","type":"Kreisfreie_Stadt"},"district":{"key":"09761","name":"Augsburg","type":"Kreisfreie_Stadt"},"federalState":{"key":"09","name":"Bayern"}},{"name":"Beim Pfaffenkeller","postalCode":"86152","locality":"Augsburg","municipality":{"key":"09761000","name":"Augsburg","type":"Kreisfreie_Stadt"},"district":{"key":"09761","name":"Augsburg","type":"Kreisfreie_Stadt"},"federalState":{"key":"09","name":"Bayern"}},{"name":"Beim Rabenbad","postalCode":"86150","locality":"Augsburg","municipality":{"key":"09761000","name":"Augsburg","type":"Kreisfreie_Stadt"},"district":{"key":"09761","name":"Augsburg","type":"Kreisfreie_Stadt"},"federalState":{"key":"09","name":"Bayern"}},{"name":"Beim Schnarrbrunnen","postalCode":"86150","locality":"Augsburg","municipality":{"key":"09761000","name":"Augsburg","type":"Kreisfreie_Stadt"},"district":{"key":"09761","name":"Augsburg","type":"Kreisfreie_Stadt"},"federalState":{"key":"09","name":"Bayern"}},{"name":"Beim Winkelacker","postalCode":"86199","locality":"Augsburg","municipality":{"key":"09761000","name":"Augsburg","type":"Kreisfreie_Stadt"},"district":{"key":"09761","name":"Augsburg","type":"Kreisfreie_Stadt"},"federalState":{"key":"09","name":"Bayern"}},{"name":"Bei Sankt Barbara","postalCode":"86152","locality":"Augsburg","municipality":{"key":"09761000","name":"Augsburg","type":"Kreisfreie_Stadt"},"district":{"key":"09761","name":"Augsburg","type":"Kreisfreie_Stadt"},"federalState":{"key":"09","name":"Bayern"}},{"name":"Bei Sankt Max","postalCode":"86152","locality":"Augsburg","municipality":{"key":"09761000","name":"Augsburg","type":"Kreisfreie_Stadt"},"district":{"key":"09761","name":"Augsburg","type":"Kreisfreie_Stadt"},"federalState":{"key":"09","name":"Bayern"}},{"name":"Bei Sankt Ursula","postalCode":"86150","locality":"Augsburg","municipality":{"key":"09761000","name":"Augsburg","type":"Kreisfreie_Stadt"},"district":{"key":"09761","name":"Augsburg","type":"Kreisfreie_Stadt"},"federalState":{"key":"09","name":"Bayern"}},{"name":"Belzmühlgäßchen","postalCode":"86150","locality":"Augsburg","municipality":{"key":"09761000","name":"Augsburg","type":"Kreisfreie_Stadt"},"district":{"key":"09761","name":"Augsburg","type":"Kreisfreie_Stadt"},"federalState":{"key":"09","name":"Bayern"}},{"name":"Belzmühlgäßchen","postalCode":"86152","locality":"Augsburg","municipality":{"key":"09761000","name":"Augsburg","type":"Kreisfreie_Stadt"},"district":{"key":"09761","name":"Augsburg","type":"Kreisfreie_Stadt"},"federalState":{"key":"09","name":"Bayern"}},{"name":"Benatzkystr.","postalCode":"86199","locality":"Augsburg","municipality":{"key":"09761000","name":"Augsburg","type":"Kreisfreie_Stadt"},"district":{"key":"09761","name":"Augsburg","type":"Kreisfreie_Stadt"},"federalState":{"key":"09","name":"Bayern"}},{"name":"Benediktbeurer Str.","postalCode":"86199","locality":"Augsburg","municipality":{"key":"09761000","name":"Augsburg","type":"Kreisfreie_Stadt"},"district":{"key":"09761","name":"Augsburg","type":"Kreisfreie_Stadt"},"federalState":{"key":"09","name":"Bayern"}},{"name":"Calmbergstr.","postalCode":"86159","locality":"Augsburg","municipality":{"key":"09761000","name":"Augsburg","type":"Kreisfreie_Stadt"},"district":{"key":"09761","name":"Augsburg","type":"Kreisfreie_Stadt"},"federalState":{"key":"09","name":"Bayern"}},{"name":"Canisiusstr.","postalCode":"86159","locality":"Augsburg","municipality":{"key":"09761000","name":"Augsburg","type":"Kreisfreie_Stadt"},"district":{"key":"09761","name":"Augsburg","type":"Kreisfreie_Stadt"},"federalState":{"key":"09","name":"Bayern"}},{"name":"Caritasweg","postalCode":"86153","locality":"Augsburg","municipality":{"key":"09761000","name":"Augsburg","type":"Kreisfreie_Stadt"},"district":{"key":"09761","name":"Augsburg","type":"Kreisfreie_Stadt"},"federalState":{"key":"09","name":"Bayern"}},{"name":"Carl-Hüber-Str.","postalCode":"86179","locality":"Augsburg","municipality":{"key":"09761000","name":"Augsburg","type":"Kreisfreie_Stadt"},"district":{"key":"09761","name":"Augsburg","type":"Kreisfreie_Stadt"},"federalState":{"key":"09","name":"Bayern"}},{"name":"Carl-Loewe-Str.","postalCode":"86157","locality":"Augsburg","municipality":{"key":"09761000","name":"Augsburg","type":"Kreisfreie_Stadt"},"district":{"key":"09761","name":"Augsburg","type":"Kreisfreie_Stadt"},"federalState":{"key":"09","name":"Bayern"}},{"name":"Carl-Maria-von-Weber-Str.","postalCode":"86157","locality":"Augsburg","municipality":{"key":"09761000","name":"Augsburg","type":"Kreisfreie_Stadt"},"district":{"key":"09761","name":"Augsburg","type":"Kreisfreie_Stadt"},"federalState":{"key":"09","name":"Bayern"}},{"name":"Carl-Natterer-Str.","postalCode":"86169","locality":"Augsburg","municipality":{"key":"09761000","name":"Augsburg","type":"Kreisfreie_Stadt"},"district":{"key":"09761","name":"Augsburg","type":"Kreisfreie_Stadt"},"federalState":{"key":"09","name":"Bayern"}},{"name":"Carl-Schurz-Str.","postalCode":"86156","locality":"Augsburg","municipality":{"key":"09761000","name":"Augsburg","type":"Kreisfreie_Stadt"},"district":{"key":"09761","name":"Augsburg","type":"Kreisfreie_Stadt"},"federalState":{"key":"09","name":"Bayern"}},{"name":"Carl-Zeiss-Str.","postalCode":"86199","locality":"Augsburg","municipality":{"key":"09761000","name":"Augsburg","type":"Kreisfreie_Stadt"},"district":{"key":"09761","name":"Augsburg","type":"Kreisfreie_Stadt"},"federalState":{"key":"09","name":"Bayern"}},{"name":"Carron-du-Val-Str.","postalCode":"86161","locality":"Augsburg","municipality":{"key":"09761000","name":"Augsburg","type":"Kreisfreie_Stadt"},"district":{"key":"09761","name":"Augsburg","type":"Kreisfreie_Stadt"},"federalState":{"key":"09","name":"Bayern"}},{"name":"Chemnitzer Str.","postalCode":"86157","locality":"Augsburg","municipality":{"key":"09761000","name":"Augsburg","type":"Kreisfreie_Stadt"},"district":{"key":"09761","name":"Augsburg","type":"Kreisfreie_Stadt"},"federalState":{"key":"09","name":"Bayern"}},{"name":"Chippenham-Ring","postalCode":"86316","locality":"Augsburg","municipality":{"key":"09761000","name":"Augsburg","type":"Kreisfreie_Stadt"},"district":{"key":"09761","name":"Augsburg","type":"Kreisfreie_Stadt"},"federalState":{"key":"09","name":"Bayern"}},{"name":"Christian Dierig Park","postalCode":"86157","locality":"Augsburg","municipality":{"key":"09761000","name":"Augsburg","type":"Kreisfreie_Stadt"},"district":{"key":"09761","name":"Augsburg","type":"Kreisfreie_Stadt"},"federalState":{"key":"09","name":"Bayern"}},{"name":"Christian-Dierig-Str.","postalCode":"86157","locality":"Augsburg","municipality":{"key":"09761000","name":"Augsburg","type":"Kreisfreie_Stadt"},"district":{"key":"09761","name":"Augsburg","type":"Kreisfreie_Stadt"},"federalState":{"key":"09","name":"Bayern"}},{"name":"Christleseeweg","postalCode":"86163","locality":"Augsburg","municipality":{"key":"09761000","name":"Augsburg","type":"Kreisfreie_Stadt"},"district":{"key":"09761","name":"Augsburg","type":"Kreisfreie_Stadt"},"federalState":{"key":"09","name":"Bayern"}},{"name":"Christoph-von-Schmid-Str.","postalCode":"86159","locality":"Augsburg","municipality":{"key":"09761000","name":"Augsburg","type":"Kreisfreie_Stadt"},"district":{"key":"09761","name":"Augsburg","type":"Kreisfreie_Stadt"},"federalState":{"key":"09","name":"Bayern"}},{"name":"Clara-Hätzler-Str.","postalCode":"86161","locality":"Augsburg","municipality":{"key":"09761000","name":"Augsburg","type":"Kreisfreie_Stadt"},"district":{"key":"09761","name":"Augsburg","type":"Kreisfreie_Stadt"},"federalState":{"key":"09","name":"Bayern"}},{"name":"Clara-Tott-Str.","postalCode":"86156","locality":"Augsburg","municipality":{"key":"09761000","name":"Augsburg","type":"Kreisfreie_Stadt"},"district":{"key":"09761","name":"Augsburg","type":"Kreisfreie_Stadt"},"federalState":{"key":"09","name":"Bayern"}},{"name":"Clematisweg","postalCode":"86169","locality":"Augsburg","municipality":{"key":"09761000","name":"Augsburg","type":"Kreisfreie_Stadt"},"district":{"key":"09761","name":"Augsburg","type":"Kreisfreie_Stadt"},"federalState":{"key":"09","name":"Bayern"}},{"name":"Clementine-Heymann-Str.","postalCode":"86169","locality":"Augsburg","municipality":{"key":"09761000","name":"Augsburg","type":"Kreisfreie_Stadt"},"district":{"key":"09761","name":"Augsburg","type":"Kreisfreie_Stadt"},"federalState":{"key":"09","name":"Bayern"}},{"name":"Columbusstr.","postalCode":"86156","locality":"Augsburg","municipality":{"key":"09761000","name":"Augsburg","type":"Kreisfreie_Stadt"},"district":{"key":"09761","name":"Augsburg","type":"Kreisfreie_Stadt"},"federalState":{"key":"09","name":"Bayern"}},{"name":"Cranachstr.","postalCode":"86169","locality":"Augsburg","municipality":{"key":"09761000","name":"Augsburg","type":"Kreisfreie_Stadt"},"district":{"key":"09761","name":"Augsburg","type":"Kreisfreie_Stadt"},"federalState":{"key":"09","name":"Bayern"}},{"name":"Curt-Frenzel-Str.","postalCode":"86167","locality":"Augsburg","municipality":{"key":"09761000","name":"Augsburg","type":"Kreisfreie_Stadt"},"district":{"key":"09761","name":"Augsburg","type":"Kreisfreie_Stadt"},"federalState":{"key":"09","name":"Bayern"}},{"name":"Curtiusstr.","postalCode":"86165","locality":"Augsburg","municipality":{"key":"09761000","name":"Augsburg","type":"Kreisfreie_Stadt"},"district":{"key":"09761","name":"Augsburg","type":"Kreisfreie_Stadt"},"federalState":{"key":"09","name":"Bayern"}},{"name":"Dachsweg","postalCode":"86169","locality":"Augsburg","municipality":{"key":"09761000","name":"Augsburg","type":"Kreisfreie_Stadt"},"district":{"key":"09761","name":"Augsburg","type":"Kreisfreie_Stadt"},"federalState":{"key":"09","name":"Bayern"}},{"name":"Dahlienweg","postalCode":"86199","locality":"Augsburg","municipality":{"key":"09761000","name":"Augsburg","type":"Kreisfreie_Stadt"},"district":{"key":"09761","name":"Augsburg","type":"Kreisfreie_Stadt"},"federalState":{"key":"09","name":"Bayern"}},{"name":"Damaschkeplatz","postalCode":"86161","locality":"Augsburg","municipality":{"key":"09761000","name":"Augsburg","type":"Kreisfreie_Stadt"},"district":{"key":"09761","name":"Augsburg","type":"Kreisfreie_Stadt"},"federalState":{"key":"09","name":"Bayern"}},{"name":"Damaschkestr.","postalCode":"86161","locality":"Augsburg","municipality":{"key":"09761000","name":"Augsburg","type":"Kreisfreie_Stadt"},"district":{"key":"09761","name":"Augsburg","type":"Kreisfreie_Stadt"},"federalState":{"key":"09","name":"Bayern"}},{"name":"Dambörstr.","postalCode":"86157","locality":"Augsburg","municipality":{"key":"09761000","name":"Augsburg","type":"Kreisfreie_Stadt"},"district":{"key":"09761","name":"Augsburg","type":"Kreisfreie_Stadt"},"federalState":{"key":"09","name":"Bayern"}},{"name":"Dammstr.","postalCode":"86152","locality":"Augsburg","municipality":{"key":"09761000","name":"Augsburg","type":"Kreisfreie_Stadt"},"district":{"key":"09761","name":"Augsburg","type":"Kreisfreie_Stadt"},"federalState":{"key":"09","name":"Bayern"}},{"name":"Danziger Str.","postalCode":"86167","locality":"Augsburg","municipality":{"key":"09761000","name":"Augsburg","type":"Kreisfreie_Stadt"},"district":{"key":"09761","name":"Augsburg","type":"Kreisfreie_Stadt"},"federalState":{"key":"09","name":"Bayern"}},{"name":"Dasinger Str.","postalCode":"86165","locality":"Augsburg","municipality":{"key":"09761000","name":"Augsburg","type":"Kreisfreie_Stadt"},"district":{"key":"09761","name":"Augsburg","type":"Kreisfreie_Stadt"},"federalState":{"key":"09","name":"Bayern"}},{"name":"Daucherstr.","postalCode":"86156","locality":"Augsburg","municipality":{"key":"09761000","name":"Augsburg","type":"Kreisfreie_Stadt"},"district":{"key":"09761","name":"Augsburg","type":"Kreisfreie_Stadt"},"federalState":{"key":"09","name":"Bayern"}},{"name":"Dekan-Mayer-Str.","postalCode":"86199","locality":"Augsburg","municipality":{"key":"09761000","name":"Augsburg","type":"Kreisfreie_Stadt"},"district":{"key":"09761","name":"Augsburg","type":"Kreisfreie_Stadt"},"federalState":{"key":"09","name":"Bayern"}},{"name":"Delbrückstr.","postalCode":"86156","locality":"Augsburg","municipality":{"key":"09761000","name":"Augsburg","type":"Kreisfreie_Stadt"},"district":{"key":"09761","name":"Augsburg","type":"Kreisfreie_Stadt"},"federalState":{"key":"09","name":"Bayern"}},{"name":"Dennewitzstr.","postalCode":"86167","locality":"Augsburg","municipality":{"key":"09761000","name":"Augsburg","type":"Kreisfreie_Stadt"},"district":{"key":"09761","name":"Augsburg","type":"Kreisfreie_Stadt"},"federalState":{"key":"09","name":"Bayern"}},{"name":"Depotstr.","postalCode":"86199","locality":"Augsburg","municipality":{"key":"09761000","name":"Augsburg","type":"Kreisfreie_Stadt"},"district":{"key":"09761","name":"Augsburg","type":"Kreisfreie_Stadt"},"federalState":{"key":"09","name":"Bayern"}},{"name":"Derchinger Str.","postalCode":"86165","locality":"Augsburg","municipality":{"key":"09761000","name":"Augsburg","type":"Kreisfreie_Stadt"},"district":{"key":"09761","name":"Augsburg","type":"Kreisfreie_Stadt"},"federalState":{"key":"09","name":"Bayern"}},{"name":"Dessauer Str.","postalCode":"86179","locality":"Augsburg","municipality":{"key":"09761000","name":"Augsburg","type":"Kreisfreie_Stadt"},"district":{"key":"09761","name":"Augsburg","type":"Kreisfreie_Stadt"},"federalState":{"key":"09","name":"Bayern"}},{"name":"Deutschenbaurstr.","postalCode":"86156","locality":"Augsburg","municipality":{"key":"09761000","name":"Augsburg","type":"Kreisfreie_Stadt"},"district":{"key":"09761","name":"Augsburg","type":"Kreisfreie_Stadt"},"federalState":{"key":"09","name":"Bayern"}},{"name":"Deutschenbaurstr.","postalCode":"86157","locality":"Augsburg","municipality":{"key":"09761000","name":"Augsburg","type":"Kreisfreie_Stadt"},"district":{"key":"09761","name":"Augsburg","type":"Kreisfreie_Stadt"},"federalState":{"key":"09","name":"Bayern"}},{"name":"Diebelbachstr.","postalCode":"86199","locality":"Augsburg","municipality":{"key":"09761000","name":"Augsburg","type":"Kreisfreie_Stadt"},"district":{"key":"09761","name":"Augsburg","type":"Kreisfreie_Stadt"},"federalState":{"key":"09","name":"Bayern"}},{"name":"Dieboldgäßchen","postalCode":"86152","locality":"Augsburg","municipality":{"key":"09761000","name":"Augsburg","type":"Kreisfreie_Stadt"},"district":{"key":"09761","name":"Augsburg","type":"Kreisfreie_Stadt"},"federalState":{"key":"09","name":"Bayern"}},{"name":"Diedorfer Str.","postalCode":"86154","locality":"Augsburg","municipality":{"key":"09761000","name":"Augsburg","type":"Kreisfreie_Stadt"},"district":{"key":"09761","name":"Augsburg","type":"Kreisfreie_Stadt"},"federalState":{"key":"09","name":"Bayern"}},{"name":"Dieselstr.","postalCode":"86154","locality":"Augsburg","municipality":{"key":"09761000","name":"Augsburg","type":"Kreisfreie_Stadt"},"district":{"key":"09761","name":"Augsburg","type":"Kreisfreie_Stadt"},"federalState":{"key":"09","name":"Bayern"}},{"name":"Dietrichstr.","postalCode":"86154","locality":"Augsburg","municipality":{"key":"09761000","name":"Augsburg","type":"Kreisfreie_Stadt"},"district":{"key":"09761","name":"Augsburg","type":"Kreisfreie_Stadt"},"federalState":{"key":"09","name":"Bayern"}},{"name":"Dillinger Weg","postalCode":"86156","locality":"Augsburg","municipality":{"key":"09761000","name":"Augsburg","type":"Kreisfreie_Stadt"},"district":{"key":"09761","name":"Augsburg","type":"Kreisfreie_Stadt"},"federalState":{"key":"09","name":"Bayern"}},{"name":"Dinglerstr.","postalCode":"86154","locality":"Augsburg","municipality":{"key":"09761000","name":"Augsburg","type":"Kreisfreie_Stadt"},"district":{"key":"09761","name":"Augsburg","type":"Kreisfreie_Stadt"},"federalState":{"key":"09","name":"Bayern"}},{"name":"Dinkelsbühler Weg","postalCode":"86154","locality":"Augsburg","municipality":{"key":"09761000","name":"Augsburg","type":"Kreisfreie_Stadt"},"district":{"key":"09761","name":"Augsburg","type":"Kreisfreie_Stadt"},"federalState":{"key":"09","name":"Bayern"}},{"name":"Dinkelscherbener Str.","postalCode":"86199","locality":"Augsburg","municipality":{"key":"09761000","name":"Augsburg","type":"Kreisfreie_Stadt"},"district":{"key":"09761","name":"Augsburg","type":"Kreisfreie_Stadt"},"federalState":{"key":"09","name":"Bayern"}},{"name":"Dohlenweg","postalCode":"86156","locality":"Augsburg","municipality":{"key":"09761000","name":"Augsburg","type":"Kreisfreie_Stadt"},"district":{"key":"09761","name":"Augsburg","type":"Kreisfreie_Stadt"},"federalState":{"key":"09","name":"Bayern"}},{"name":"Doktorgäßchen","postalCode":"86152","locality":"Augsburg","municipality":{"key":"09761000","name":"Augsburg","type":"Kreisfreie_Stadt"},"district":{"key":"09761","name":"Augsburg","type":"Kreisfreie_Stadt"},"federalState":{"key":"09","name":"Bayern"}},{"name":"Döllgaststr.","postalCode":"86199","locality":"Augsburg","municipality":{"key":"09761000","name":"Augsburg","type":"Kreisfreie_Stadt"},"district":{"key":"09761","name":"Augsburg","type":"Kreisfreie_Stadt"},"federalState":{"key":"09","name":"Bayern"}},{"name":"Dominikanergasse","postalCode":"86150","locality":"Augsburg","municipality":{"key":"09761000","name":"Augsburg","type":"Kreisfreie_Stadt"},"district":{"key":"09761","name":"Augsburg","type":"Kreisfreie_Stadt"},"federalState":{"key":"09","name":"Bayern"}},{"name":"Dompfaffweg","postalCode":"86156","locality":"Augsburg","municipality":{"key":"09761000","name":"Augsburg","type":"Kreisfreie_Stadt"},"district":{"key":"09761","name":"Augsburg","type":"Kreisfreie_Stadt"},"federalState":{"key":"09","name":"Bayern"}},{"name":"Donaustr.","postalCode":"86165","locality":"Augsburg","municipality":{"key":"09761000","name":"Augsburg","type":"Kreisfreie_Stadt"},"district":{"key":"09761","name":"Augsburg","type":"Kreisfreie_Stadt"},"federalState":{"key":"09","name":"Bayern"}},{"name":"Donauwörther Str.","postalCode":"86153","locality":"Augsburg","municipality":{"key":"09761000","name":"Augsburg","type":"Kreisfreie_Stadt"},"district":{"key":"09761","name":"Augsburg","type":"Kreisfreie_Stadt"},"federalState":{"key":"09","name":"Bayern"}},{"name":"Donauwörther Str.","postalCode":"86154","locality":"Augsburg","municipality":{"key":"09761000","name":"Augsburg","type":"Kreisfreie_Stadt"},"district":{"key":"09761","name":"Augsburg","type":"Kreisfreie_Stadt"},"federalState":{"key":"09","name":"Bayern"}},{"name":"Don-Bosco-Platz","postalCode":"86161","locality":"Augsburg","municipality":{"key":"09761000","name":"Augsburg","type":"Kreisfreie_Stadt"},"district":{"key":"09761","name":"Augsburg","type":"Kreisfreie_Stadt"},"federalState":{"key":"09","name":"Bayern"}},{"name":"Dornierstr.","postalCode":"86159","locality":"Augsburg","municipality":{"key":"09761000","name":"Augsburg","type":"Kreisfreie_Stadt"},"district":{"key":"09761","name":"Augsburg","type":"Kreisfreie_Stadt"},"federalState":{"key":"09","name":"Bayern"}},{"name":"Dornröschenweg","postalCode":"86199","locality":"Augsburg","municipality":{"key":"09761000","name":"Augsburg","type":"Kreisfreie_Stadt"},"district":{"key":"09761","name":"Augsburg","type":"Kreisfreie_Stadt"},"federalState":{"key":"09","name":"Bayern"}},{"name":"Dr.-Dürrwanger-Str.","postalCode":"86156","locality":"Augsburg","municipality":{"key":"09761000","name":"Augsburg","type":"Kreisfreie_Stadt"},"district":{"key":"09761","name":"Augsburg","type":"Kreisfreie_Stadt"},"federalState":{"key":"09","name":"Bayern"}},{"name":"Drentwettsteg","postalCode":"86154","locality":"Augsburg","municipality":{"key":"09761000","name":"Augsburg","type":"Kreisfreie_Stadt"},"district":{"key":"09761","name":"Augsburg","type":"Kreisfreie_Stadt"},"federalState":{"key":"09","name":"Bayern"}},{"name":"Drentwettstr.","postalCode":"86154","locality":"Augsburg","municipality":{"key":"09761000","name":"Augsburg","type":"Kreisfreie_Stadt"},"district":{"key":"09761","name":"Augsburg","type":"Kreisfreie_Stadt"},"federalState":{"key":"09","name":"Bayern"}},{"name":"Drescherstr.","postalCode":"86179","locality":"Augsburg","municipality":{"key":"09761000","name":"Augsburg","type":"Kreisfreie_Stadt"},"district":{"key":"09761","name":"Augsburg","type":"Kreisfreie_Stadt"},"federalState":{"key":"09","name":"Bayern"}},{"name":"Dresdener Str.","postalCode":"86157","locality":"Augsburg","municipality":{"key":"09761000","name":"Augsburg","type":"Kreisfreie_Stadt"},"district":{"key":"09761","name":"Augsburg","type":"Kreisfreie_Stadt"},"federalState":{"key":"09","name":"Bayern"}},{"name":"Dr.-Grandel-Str.","postalCode":"86161","locality":"Augsburg","municipality":{"key":"09761000","name":"Augsburg","type":"Kreisfreie_Stadt"},"district":{"key":"09761","name":"Augsburg","type":"Kreisfreie_Stadt"},"federalState":{"key":"09","name":"Bayern"}},{"name":"Dr.-Hörmann-Str.","postalCode":"86179","locality":"Augsburg","municipality":{"key":"09761000","name":"Augsburg","type":"Kreisfreie_Stadt"},"district":{"key":"09761","name":"Augsburg","type":"Kreisfreie_Stadt"},"federalState":{"key":"09","name":"Bayern"}},{"name":"Drittes Quergäßchen","postalCode":"86152","locality":"Augsburg","municipality":{"key":"09761000","name":"Augsburg","type":"Kreisfreie_Stadt"},"district":{"key":"09761","name":"Augsburg","type":"Kreisfreie_Stadt"},"federalState":{"key":"09","name":"Bayern"}},{"name":"Dr.-Lagai-Str.","postalCode":"86159","locality":"Augsburg","municipality":{"key":"09761000","name":"Augsburg","type":"Kreisfreie_Stadt"},"district":{"key":"09761","name":"Augsburg","type":"Kreisfreie_Stadt"},"federalState":{"key":"09","name":"Bayern"}},{"name":"Dr.-Nebel-Str.","postalCode":"86169","locality":"Augsburg","municipality":{"key":"09761000","name":"Augsburg","type":"Kreisfreie_Stadt"},"district":{"key":"09761","name":"Augsburg","type":"Kreisfreie_Stadt"},"federalState":{"key":"09","name":"Bayern"}},{"name":"Dr.-Nick-Str.","postalCode":"86165","locality":"Augsburg","municipality":{"key":"09761000","name":"Augsburg","type":"Kreisfreie_Stadt"},"district":{"key":"09761","name":"Augsburg","type":"Kreisfreie_Stadt"},"federalState":{"key":"09","name":"Bayern"}},{"name":"Drosselweg","postalCode":"86156","locality":"Augsburg","municipality":{"key":"09761000","name":"Augsburg","type":"Kreisfreie_Stadt"},"district":{"key":"09761","name":"Augsburg","type":"Kreisfreie_Stadt"},"federalState":{"key":"09","name":"Bayern"}},{"name":"Droste-Hülshoff-Str.","postalCode":"86157","locality":"Augsburg","municipality":{"key":"09761000","name":"Augsburg","type":"Kreisfreie_Stadt"},"district":{"key":"09761","name":"Augsburg","type":"Kreisfreie_Stadt"},"federalState":{"key":"09","name":"Bayern"}},{"name":"Eichenstr.","postalCode":"86507","locality":"Kleinaitingen","municipality":{"key":"09772160","name":"Kleinaitingen","type":"Kreisangehörige_Gemeinde"},"district":{"key":"09772","name":"Augsburg","type":"Landkreis"},"federalState":{"key":"09","name":"Bayern"}},{"name":"Feldstr.","postalCode":"86507","locality":"Kleinaitingen","municipality":{"key":"09772160","name":"Kleinaitingen","type":"Kreisangehörige_Gemeinde"},"district":{"key":"09772","name":"Augsburg","type":"Landkreis"},"federalState":{"key":"09","name":"Bayern"}},{"name":"Friedenstr.","postalCode":"86507","locality":"Kleinaitingen","municipality":{"key":"09772160","name":"Kleinaitingen","type":"Kreisangehörige_Gemeinde"},"district":{"key":"09772","name":"Augsburg","type":"Landkreis"},"federalState":{"key":"09","name":"Bayern"}},{"name":"Friedhofstr.","postalCode":"86507","locality":"Kleinaitingen","municipality":{"key":"09772160","name":"Kleinaitingen","type":"Kreisangehörige_Gemeinde"},"district":{"key":"09772","name":"Augsburg","type":"Landkreis"},"federalState":{"key":"09","name":"Bayern"}},{"name":"Frühlingstr.","postalCode":"86507","locality":"Kleinaitingen","municipality":{"key":"09772160","name":"Kleinaitingen","type":"Kreisangehörige_Gemeinde"},"district":{"key":"09772","name":"Augsburg","type":"Landkreis"},"federalState":{"key":"09","name":"Bayern"}},{"name":"Gartenstr.","postalCode":"86507","locality":"Kleinaitingen","municipality":{"key":"09772160","name":"Kleinaitingen","type":"Kreisangehörige_Gemeinde"},"district":{"key":"09772","name":"Augsburg","type":"Landkreis"},"federalState":{"key":"09","name":"Bayern"}},{"name":"Germanenstr.","postalCode":"86507","locality":"Kleinaitingen","municipality":{"key":"09772160","name":"Kleinaitingen","type":"Kreisangehörige_Gemeinde"},"district":{"key":"09772","name":"Augsburg","type":"Landkreis"},"federalState":{"key":"09","name":"Bayern"}},{"name":"Gotenstr.","postalCode":"86507","locality":"Kleinaitingen","municipality":{"key":"09772160","name":"Kleinaitingen","type":"Kreisangehörige_Gemeinde"},"district":{"key":"09772","name":"Augsburg","type":"Landkreis"},"federalState":{"key":"09","name":"Bayern"}},{"name":"Großaitinger Str.","postalCode":"86507","locality":"Kleinaitingen","municipality":{"key":"09772160","name":"Kleinaitingen","type":"Kreisangehörige_Gemeinde"},"district":{"key":"09772","name":"Augsburg","type":"Landkreis"},"federalState":{"key":"09","name":"Bayern"}},{"name":"Grüntenstr.","postalCode":"86507","locality":"Kleinaitingen","municipality":{"key":"09772160","name":"Kleinaitingen","type":"Kreisangehörige_Gemeinde"},"district":{"key":"09772","name":"Augsburg","type":"Landkreis"},"federalState":{"key":"09","name":"Bayern"}},{"name":"Hauptstr.","postalCode":"86507","locality":"Kleinaitingen","municipality":{"key":"09772160","name":"Kleinaitingen","type":"Kreisangehörige_Gemeinde"},"district":{"key":"09772","name":"Augsburg","type":"Landkreis"},"federalState":{"key":"09","name":"Bayern"}},{"name":"Herbststr.","postalCode":"86507","locality":"Kleinaitingen","municipality":{"key":"09772160","name":"Kleinaitingen","type":"Kreisangehörige_Gemeinde"},"district":{"key":"09772","name":"Augsburg","type":"Landkreis"},"federalState":{"key":"09","name":"Bayern"}},{"name":"Im Handtuchwald","postalCode":"86507","locality":"Kleinaitingen","municipality":{"key":"09772160","name":"Kleinaitingen","type":"Kreisangehörige_Gemeinde"},"district":{"key":"09772","name":"Augsburg","type":"Landkreis"},"federalState":{"key":"09","name":"Bayern"}},{"name":"Jagdweg","postalCode":"86169","locality":"Augsburg","municipality":{"key":"09761000","name":"Augsburg","type":"Kreisfreie_Stadt"},"district":{"key":"09761","name":"Augsburg","type":"Kreisfreie_Stadt"},"federalState":{"key":"09","name":"Bayern"}},{"name":"Jägerbachstr.","postalCode":"86179","locality":"Augsburg","municipality":{"key":"09761000","name":"Augsburg","type":"Kreisfreie_Stadt"},"district":{"key":"09761","name":"Augsburg","type":"Kreisfreie_Stadt"},"federalState":{"key":"09","name":"Bayern"}},{"name":"Jägergäßchen","postalCode":"86152","locality":"Augsburg","municipality":{"key":"09761000","name":"Augsburg","type":"Kreisfreie_Stadt"},"district":{"key":"09761","name":"Augsburg","type":"Kreisfreie_Stadt"},"federalState":{"key":"09","name":"Bayern"}},{"name":"Jahnstr.","postalCode":"86179","locality":"Augsburg","municipality":{"key":"09761000","name":"Augsburg","type":"Kreisfreie_Stadt"},"district":{"key":"09761","name":"Augsburg","type":"Kreisfreie_Stadt"},"federalState":{"key":"09","name":"Bayern"}},{"name":"Jakobermauer","postalCode":"86152","locality":"Augsburg","municipality":{"key":"09761000","name":"Augsburg","type":"Kreisfreie_Stadt"},"district":{"key":"09761","name":"Augsburg","type":"Kreisfreie_Stadt"},"federalState":{"key":"09","name":"Bayern"}},{"name":"Jakoberstr.","postalCode":"86152","locality":"Augsburg","municipality":{"key":"09761000","name":"Augsburg","type":"Kreisfreie_Stadt"},"district":{"key":"09761","name":"Augsburg","type":"Kreisfreie_Stadt"},"federalState":{"key":"09","name":"Bayern"}},{"name":"Jakoberstr.","postalCode":"86153","locality":"Augsburg","municipality":{"key":"09761000","name":"Augsburg","type":"Kreisfreie_Stadt"},"district":{"key":"09761","name":"Augsburg","type":"Kreisfreie_Stadt"},"federalState":{"key":"09","name":"Bayern"}},{"name":"Jakobertorplatz","postalCode":"86153","locality":"Augsburg","municipality":{"key":"09761000","name":"Augsburg","type":"Kreisfreie_Stadt"},"district":{"key":"09761","name":"Augsburg","type":"Kreisfreie_Stadt"},"federalState":{"key":"09","name":"Bayern"}},{"name":"Jakoberwallstr.","postalCode":"86152","locality":"Augsburg","municipality":{"key":"09761000","name":"Augsburg","type":"Kreisfreie_Stadt"},"district":{"key":"09761","name":"Augsburg","type":"Kreisfreie_Stadt"},"federalState":{"key":"09","name":"Bayern"}},{"name":"Jakoberwallstr.","postalCode":"86153","locality":"Augsburg","municipality":{"key":"09761000","name":"Augsburg","type":"Kreisfreie_Stadt"},"district":{"key":"09761","name":"Augsburg","type":"Kreisfreie_Stadt"},"federalState":{"key":"09","name":"Bayern"}},{"name":"Jakobine-Lauber-Str.","postalCode":"86157","locality":"Augsburg","municipality":{"key":"09761000","name":"Augsburg","type":"Kreisfreie_Stadt"},"district":{"key":"09761","name":"Augsburg","type":"Kreisfreie_Stadt"},"federalState":{"key":"09","name":"Bayern"}},{"name":"Jakob-Krause-Str.","postalCode":"86199","locality":"Augsburg","municipality":{"key":"09761000","name":"Augsburg","type":"Kreisfreie_Stadt"},"district":{"key":"09761","name":"Augsburg","type":"Kreisfreie_Stadt"},"federalState":{"key":"09","name":"Bayern"}},{"name":"Jakobsplatz","postalCode":"86152","locality":"Augsburg","municipality":{"key":"09761000","name":"Augsburg","type":"Kreisfreie_Stadt"},"district":{"key":"09761","name":"Augsburg","type":"Kreisfreie_Stadt"},"federalState":{"key":"09","name":"Bayern"}},{"name":"James-Cook-Str.","postalCode":"86156","locality":"Augsburg","municipality":{"key":"09761000","name":"Augsburg","type":"Kreisfreie_Stadt"},"district":{"key":"09761","name":"Augsburg","type":"Kreisfreie_Stadt"},"federalState":{"key":"09","name":"Bayern"}},{"name":"Jane-Addams-Str.","postalCode":"86156","locality":"Augsburg","municipality":{"key":"09761000","name":"Augsburg","type":"Kreisfreie_Stadt"},"district":{"key":"09761","name":"Augsburg","type":"Kreisfreie_Stadt"},"federalState":{"key":"09","name":"Bayern"}},{"name":"Jasminweg","postalCode":"86156","locality":"Augsburg","municipality":{"key":"09761000","name":"Augsburg","type":"Kreisfreie_Stadt"},"district":{"key":"09761","name":"Augsburg","type":"Kreisfreie_Stadt"},"federalState":{"key":"09","name":"Bayern"}},{"name":"Jean-Paul-Str.","postalCode":"86161","locality":"Augsburg","municipality":{"key":"09761000","name":"Augsburg","type":"Kreisfreie_Stadt"},"district":{"key":"09761","name":"Augsburg","type":"Kreisfreie_Stadt"},"federalState":{"key":"09","name":"Bayern"}},{"name":"Jedelhauserstr.","postalCode":"86156","locality":"Augsburg","municipality":{"key":"09761000","name":"Augsburg","type":"Kreisfreie_Stadt"},"district":{"key":"09761","name":"Augsburg","type":"Kreisfreie_Stadt"},"federalState":{"key":"09","name":"Bayern"}},{"name":"Jenaer Str.","postalCode":"86169","locality":"Augsburg","municipality":{"key":"09761000","name":"Augsburg","type":"Kreisfreie_Stadt"},"district":{"key":"09761","name":"Augsburg","type":"Kreisfreie_Stadt"},"federalState":{"key":"09","name":"Bayern"}},{"name":"Jesse-Owens-Str.","postalCode":"86157","locality":"Augsburg","municipality":{"key":"09761000","name":"Augsburg","type":"Kreisfreie_Stadt"},"district":{"key":"09761","name":"Augsburg","type":"Kreisfreie_Stadt"},"federalState":{"key":"09","name":"Bayern"}},{"name":"Jesuitengasse","postalCode":"86152","locality":"Augsburg","municipality":{"key":"09761000","name":"Augsburg","type":"Kreisfreie_Stadt"},"district":{"key":"09761","name":"Augsburg","type":"Kreisfreie_Stadt"},"federalState":{"key":"09","name":"Bayern"}},{"name":"Jochbergstr.","postalCode":"86163","locality":"Augsburg","municipality":{"key":"09761000","name":"Augsburg","type":"Kreisfreie_Stadt"},"district":{"key":"09761","name":"Augsburg","type":"Kreisfreie_Stadt"},"federalState":{"key":"09","name":"Bayern"}},{"name":"Johannes-Haag-Str.","postalCode":"86153","locality":"Augsburg","municipality":{"key":"09761000","name":"Augsburg","type":"Kreisfreie_Stadt"},"district":{"key":"09761","name":"Augsburg","type":"Kreisfreie_Stadt"},"federalState":{"key":"09","name":"Bayern"}},{"name":"Johannes-Holzer-Str.","postalCode":"86157","locality":"Augsburg","municipality":{"key":"09761000","name":"Augsburg","type":"Kreisfreie_Stadt"},"district":{"key":"09761","name":"Augsburg","type":"Kreisfreie_Stadt"},"federalState":{"key":"09","name":"Bayern"}},{"name":"Johannes-Rösle-Str.","postalCode":"86150","locality":"Augsburg","municipality":{"key":"09761000","name":"Augsburg","type":"Kreisfreie_Stadt"},"district":{"key":"09761","name":"Augsburg","type":"Kreisfreie_Stadt"},"federalState":{"key":"09","name":"Bayern"}},{"name":"Johannes-Rösle-Str.","postalCode":"86152","locality":"Augsburg","municipality":{"key":"09761000","name":"Augsburg","type":"Kreisfreie_Stadt"},"district":{"key":"09761","name":"Augsburg","type":"Kreisfreie_Stadt"},"federalState":{"key":"09","name":"Bayern"}},{"name":"Johann-Georg-Halske-Str.","postalCode":"86159","locality":"Augsburg","municipality":{"key":"09761000","name":"Augsburg","type":"Kreisfreie_Stadt"},"district":{"key":"09761","name":"Augsburg","type":"Kreisfreie_Stadt"},"federalState":{"key":"09","name":"Bayern"}},{"name":"Johann-Georg-Halske-Str.","postalCode":"86161","locality":"Augsburg","municipality":{"key":"09761000","name":"Augsburg","type":"Kreisfreie_Stadt"},"district":{"key":"09761","name":"Augsburg","type":"Kreisfreie_Stadt"},"federalState":{"key":"09","name":"Bayern"}},{"name":"Johannisgasse","postalCode":"86152","locality":"Augsburg","municipality":{"key":"09761000","name":"Augsburg","type":"Kreisfreie_Stadt"},"district":{"key":"09761","name":"Augsburg","type":"Kreisfreie_Stadt"},"federalState":{"key":"09","name":"Bayern"}},{"name":"Johann-Marxreiter-Weg","postalCode":"86199","locality":"Augsburg","municipality":{"key":"09761000","name":"Augsburg","type":"Kreisfreie_Stadt"},"district":{"key":"09761","name":"Augsburg","type":"Kreisfreie_Stadt"},"federalState":{"key":"09","name":"Bayern"}},{"name":"Johann-Sebastian-Bach-Str.","postalCode":"86199","locality":"Augsburg","municipality":{"key":"09761000","name":"Augsburg","type":"Kreisfreie_Stadt"},"district":{"key":"09761","name":"Augsburg","type":"Kreisfreie_Stadt"},"federalState":{"key":"09","name":"Bayern"}},{"name":"Johann-Strauß-Str.","postalCode":"86179","locality":"Augsburg","municipality":{"key":"09761000","name":"Augsburg","type":"Kreisfreie_Stadt"},"district":{"key":"09761","name":"Augsburg","type":"Kreisfreie_Stadt"},"federalState":{"key":"09","name":"Bayern"}},{"name":"Jörg-Breu-Str.","postalCode":"86154","locality":"Augsburg","municipality":{"key":"09761000","name":"Augsburg","type":"Kreisfreie_Stadt"},"district":{"key":"09761","name":"Augsburg","type":"Kreisfreie_Stadt"},"federalState":{"key":"09","name":"Bayern"}},{"name":"Jörg-Seld-Str.","postalCode":"86153","locality":"Augsburg","municipality":{"key":"09761000","name":"Augsburg","type":"Kreisfreie_Stadt"},"district":{"key":"09761","name":"Augsburg","type":"Kreisfreie_Stadt"},"federalState":{"key":"09","name":"Bayern"}},{"name":"Josef-Felder-Str.","postalCode":"86199","locality":"Augsburg","municipality":{"key":"09761000","name":"Augsburg","type":"Kreisfreie_Stadt"},"district":{"key":"09761","name":"Augsburg","type":"Kreisfreie_Stadt"},"federalState":{"key":"09","name":"Bayern"}},{"name":"Josef-Fischer-Platz","postalCode":"86157","locality":"Augsburg","municipality":{"key":"09761000","name":"Augsburg","type":"Kreisfreie_Stadt"},"district":{"key":"09761","name":"Augsburg","type":"Kreisfreie_Stadt"},"federalState":{"key":"09","name":"Bayern"}},{"name":"Josef-Kronthaler-Str.","postalCode":"86157","locality":"Augsburg","municipality":{"key":"09761000","name":"Augsburg","type":"Kreisfreie_Stadt"},"district":{"key":"09761","name":"Augsburg","type":"Kreisfreie_Stadt"},"federalState":{"key":"09","name":"Bayern"}},{"name":"Josef-Priller-Str.","postalCode":"86159","locality":"Augsburg","municipality":{"key":"09761000","name":"Augsburg","type":"Kreisfreie_Stadt"},"district":{"key":"09761","name":"Augsburg","type":"Kreisfreie_Stadt"},"federalState":{"key":"09","name":"Bayern"}},{"name":"Josef-Schorer-Str.","postalCode":"86179","locality":"Augsburg","municipality":{"key":"09761000","name":"Augsburg","type":"Kreisfreie_Stadt"},"district":{"key":"09761","name":"Augsburg","type":"Kreisfreie_Stadt"},"federalState":{"key":"09","name":"Bayern"}},{"name":"Joseph-Haas-Str.","postalCode":"86161","locality":"Augsburg","municipality":{"key":"09761000","name":"Augsburg","type":"Kreisfreie_Stadt"},"district":{"key":"09761","name":"Augsburg","type":"Kreisfreie_Stadt"},"federalState":{"key":"09","name":"Bayern"}},{"name":"Judenberg","postalCode":"86150","locality":"Augsburg","municipality":{"key":"09761000","name":"Augsburg","type":"Kreisfreie_Stadt"},"district":{"key":"09761","name":"Augsburg","type":"Kreisfreie_Stadt"},"federalState":{"key":"09","name":"Bayern"}},{"name":"Julius-Spokojny-Weg","postalCode":"86153","locality":"Augsburg","municipality":{"key":"09761000","name":"Augsburg","type":"Kreisfreie_Stadt"},"district":{"key":"09761","name":"Augsburg","type":"Kreisfreie_Stadt"},"federalState":{"key":"09","name":"Bayern"}},{"name":"Jupiterstr.","postalCode":"86179","locality":"Augsburg","municipality":{"key":"09761000","name":"Augsburg","type":"Kreisfreie_Stadt"},"district":{"key":"09761","name":"Augsburg","type":"Kreisfreie_Stadt"},"federalState":{"key":"09","name":"Bayern"}},{"name":"Karwendelstr.","postalCode":"86507","locality":"Kleinaitingen","municipality":{"key":"09772160","name":"Kleinaitingen","type":"Kreisangehörige_Gemeinde"},"district":{"key":"09772","name":"Augsburg","type":"Landkreis"},"federalState":{"key":"09","name":"Bayern"}},{"name":"Keltenstr.","postalCode":"86507","locality":"Kleinaitingen","municipality":{"key":"09772160","name":"Kleinaitingen","type":"Kreisangehörige_Gemeinde"},"district":{"key":"09772","name":"Augsburg","type":"Landkreis"},"federalState":{"key":"09","name":"Bayern"}},{"name":"Landsberger Str.","postalCode":"86507","locality":"Kleinaitingen","municipality":{"key":"09772160","name":"Kleinaitingen","type":"Kreisangehörige_Gemeinde"},"district":{"key":"09772","name":"Augsburg","type":"Landkreis"},"federalState":{"key":"09","name":"Bayern"}},{"name":"Lechfeld Nord","postalCode":"86507","locality":"Kleinaitingen","municipality":{"key":"09772160","name":"Kleinaitingen","type":"Kreisangehörige_Gemeinde"},"district":{"key":"09772","name":"Augsburg","type":"Landkreis"},"federalState":{"key":"09","name":"Bayern"}},{"name":"Lechfeldstr.","postalCode":"86507","locality":"Kleinaitingen","municipality":{"key":"09772160","name":"Kleinaitingen","type":"Kreisangehörige_Gemeinde"},"district":{"key":"09772","name":"Augsburg","type":"Landkreis"},"federalState":{"key":"09","name":"Bayern"}},{"name":"Mädelegabelweg","postalCode":"86199","locality":"Augsburg","municipality":{"key":"09761000","name":"Augsburg","type":"Kreisfreie_Stadt"},"district":{"key":"09761","name":"Augsburg","type":"Kreisfreie_Stadt"},"federalState":{"key":"09","name":"Bayern"}},{"name":"Madisonstr.","postalCode":"86156","locality":"Augsburg","municipality":{"key":"09761000","name":"Augsburg","type":"Kreisfreie_Stadt"},"district":{"key":"09761","name":"Augsburg","type":"Kreisfreie_Stadt"},"federalState":{"key":"09","name":"Bayern"}},{"name":"Magdeburger Str.","postalCode":"86169","locality":"Augsburg","municipality":{"key":"09761000","name":"Augsburg","type":"Kreisfreie_Stadt"},"district":{"key":"09761","name":"Augsburg","type":"Kreisfreie_Stadt"},"federalState":{"key":"09","name":"Bayern"}},{"name":"Magellanstr.","postalCode":"86156","locality":"Augsburg","municipality":{"key":"09761000","name":"Augsburg","type":"Kreisfreie_Stadt"},"district":{"key":"09761","name":"Augsburg","type":"Kreisfreie_Stadt"},"federalState":{"key":"09","name":"Bayern"}},{"name":"Maienstr.","postalCode":"86156","locality":"Augsburg","municipality":{"key":"09761000","name":"Augsburg","type":"Kreisfreie_Stadt"},"district":{"key":"09761","name":"Augsburg","type":"Kreisfreie_Stadt"},"federalState":{"key":"09","name":"Bayern"}},{"name":"Maisstr.","postalCode":"86179","locality":"Augsburg","municipality":{"key":"09761000","name":"Augsburg","type":"Kreisfreie_Stadt"},"district":{"key":"09761","name":"Augsburg","type":"Kreisfreie_Stadt"},"federalState":{"key":"09","name":"Bayern"}},{"name":"Majolikastr.","postalCode":"86199","locality":"Augsburg","municipality":{"key":"09761000","name":"Augsburg","type":"Kreisfreie_Stadt"},"district":{"key":"09761","name":"Augsburg","type":"Kreisfreie_Stadt"},"federalState":{"key":"09","name":"Bayern"}},{"name":"Malmedystr.","postalCode":"86161","locality":"Augsburg","municipality":{"key":"09761000","name":"Augsburg","type":"Kreisfreie_Stadt"},"district":{"key":"09761","name":"Augsburg","type":"Kreisfreie_Stadt"},"federalState":{"key":"09","name":"Bayern"}},{"name":"Malvenweg","postalCode":"86156","locality":"Augsburg","municipality":{"key":"09761000","name":"Augsburg","type":"Kreisfreie_Stadt"},"district":{"key":"09761","name":"Augsburg","type":"Kreisfreie_Stadt"},"federalState":{"key":"09","name":"Bayern"}},{"name":"Malzstr.","postalCode":"86179","locality":"Augsburg","municipality":{"key":"09761000","name":"Augsburg","type":"Kreisfreie_Stadt"},"district":{"key":"09761","name":"Augsburg","type":"Kreisfreie_Stadt"},"federalState":{"key":"09","name":"Bayern"}},{"name":"Manlichstr.","postalCode":"86154","locality":"Augsburg","municipality":{"key":"09761000","name":"Augsburg","type":"Kreisfreie_Stadt"},"district":{"key":"09761","name":"Augsburg","type":"Kreisfreie_Stadt"},"federalState":{"key":"09","name":"Bayern"}},{"name":"Marathontor","postalCode":"86159","locality":"Augsburg","municipality":{"key":"09761000","name":"Augsburg","type":"Kreisfreie_Stadt"},"district":{"key":"09761","name":"Augsburg","type":"Kreisfreie_Stadt"},"federalState":{"key":"09","name":"Bayern"}},{"name":"Marconistr.","postalCode":"86179","locality":"Augsburg","municipality":{"key":"09761000","name":"Augsburg","type":"Kreisfreie_Stadt"},"district":{"key":"09761","name":"Augsburg","type":"Kreisfreie_Stadt"},"federalState":{"key":"09","name":"Bayern"}},{"name":"Marco-Polo-Str.","postalCode":"86156","locality":"Augsburg","municipality":{"key":"09761000","name":"Augsburg","type":"Kreisfreie_Stadt"},"district":{"key":"09761","name":"Augsburg","type":"Kreisfreie_Stadt"},"federalState":{"key":"09","name":"Bayern"}},{"name":"Marderweg","postalCode":"86169","locality":"Augsburg","municipality":{"key":"09761000","name":"Augsburg","type":"Kreisfreie_Stadt"},"district":{"key":"09761","name":"Augsburg","type":"Kreisfreie_Stadt"},"federalState":{"key":"09","name":"Bayern"}},{"name":"Margeritenweg","postalCode":"86156","locality":"Augsburg","municipality":{"key":"09761000","name":"Augsburg","type":"Kreisfreie_Stadt"},"district":{"key":"09761","name":"Augsburg","type":"Kreisfreie_Stadt"},"federalState":{"key":"09","name":"Bayern"}},{"name":"Maria-Ward-Platz","postalCode":"86152","locality":"Augsburg","municipality":{"key":"09761000","name":"Augsburg","type":"Kreisfreie_Stadt"},"district":{"key":"09761","name":"Augsburg","type":"Kreisfreie_Stadt"},"federalState":{"key":"09","name":"Bayern"}},{"name":"Marie-Curie-Str.","postalCode":"86156","locality":"Augsburg","municipality":{"key":"09761000","name":"Augsburg","type":"Kreisfreie_Stadt"},"district":{"key":"09761","name":"Augsburg","type":"Kreisfreie_Stadt"},"federalState":{"key":"09","name":"Bayern"}},{"name":"Marie-Jahoda-Weg","postalCode":"86159","locality":"Augsburg","municipality":{"key":"09761000","name":"Augsburg","type":"Kreisfreie_Stadt"},"district":{"key":"09761","name":"Augsburg","type":"Kreisfreie_Stadt"},"federalState":{"key":"09","name":"Bayern"}},{"name":"Marie-Juchacz-Str.","postalCode":"86154","locality":"Augsburg","municipality":{"key":"09761000","name":"Augsburg","type":"Kreisfreie_Stadt"},"district":{"key":"09761","name":"Augsburg","type":"Kreisfreie_Stadt"},"federalState":{"key":"09","name":"Bayern"}},{"name":"Marienbader Str.","postalCode":"86169","locality":"Augsburg","municipality":{"key":"09761000","name":"Augsburg","type":"Kreisfreie_Stadt"},"district":{"key":"09761","name":"Augsburg","type":"Kreisfreie_Stadt"},"federalState":{"key":"09","name":"Bayern"}},{"name":"Marienburger Str.","postalCode":"86179","locality":"Augsburg","municipality":{"key":"09761000","name":"Augsburg","type":"Kreisfreie_Stadt"},"district":{"key":"09761","name":"Augsburg","type":"Kreisfreie_Stadt"},"federalState":{"key":"09","name":"Bayern"}},{"name":"Marienplatz","postalCode":"86165","locality":"Augsburg","municipality":{"key":"09761000","name":"Augsburg","type":"Kreisfreie_Stadt"},"district":{"key":"09761","name":"Augsburg","type":"Kreisfreie_Stadt"},"federalState":{"key":"09","name":"Bayern"}},{"name":"Mariusstr.","postalCode":"86199","locality":"Augsburg","municipality":{"key":"09761000","name":"Augsburg","type":"Kreisfreie_Stadt"},"district":{"key":"09761","name":"Augsburg","type":"Kreisfreie_Stadt"},"federalState":{"key":"09","name":"Bayern"}},{"name":"Marktoberdorfer Str.","postalCode":"86199","locality":"Augsburg","municipality":{"key":"09761000","name":"Augsburg","type":"Kreisfreie_Stadt"},"district":{"key":"09761","name":"Augsburg","type":"Kreisfreie_Stadt"},"federalState":{"key":"09","name":"Bayern"}},{"name":"Mark-Twain-Str.","postalCode":"86156","locality":"Augsburg","municipality":{"key":"09761000","name":"Augsburg","type":"Kreisfreie_Stadt"},"district":{"key":"09761","name":"Augsburg","type":"Kreisfreie_Stadt"},"federalState":{"key":"09","name":"Bayern"}},{"name":"Markusplätzle","postalCode":"86152","locality":"Augsburg","municipality":{"key":"09761000","name":"Augsburg","type":"Kreisfreie_Stadt"},"district":{"key":"09761","name":"Augsburg","type":"Kreisfreie_Stadt"},"federalState":{"key":"09","name":"Bayern"}},{"name":"Marthesiastr.","postalCode":"86179","locality":"Augsburg","municipality":{"key":"09761000","name":"Augsburg","type":"Kreisfreie_Stadt"},"district":{"key":"09761","name":"Augsburg","type":"Kreisfreie_Stadt"},"federalState":{"key":"09","name":"Bayern"}},{"name":"Martin-Gomm-Weg","postalCode":"86169","locality":"Augsburg","municipality":{"key":"09761000","name":"Augsburg","type":"Kreisfreie_Stadt"},"district":{"key":"09761","name":"Augsburg","type":"Kreisfreie_Stadt"},"federalState":{"key":"09","name":"Bayern"}},{"name":"Martinistr.","postalCode":"86179","locality":"Augsburg","municipality":{"key":"09761000","name":"Augsburg","type":"Kreisfreie_Stadt"},"district":{"key":"09761","name":"Augsburg","type":"Kreisfreie_Stadt"},"federalState":{"key":"09","name":"Bayern"}},{"name":"Märzenhöfle","postalCode":"86150","locality":"Augsburg","municipality":{"key":"09761000","name":"Augsburg","type":"Kreisfreie_Stadt"},"district":{"key":"09761","name":"Augsburg","type":"Kreisfreie_Stadt"},"federalState":{"key":"09","name":"Bayern"}},{"name":"Maschenbauerstr.","postalCode":"86154","locality":"Augsburg","municipality":{"key":"09761000","name":"Augsburg","type":"Kreisfreie_Stadt"},"district":{"key":"09761","name":"Augsburg","type":"Kreisfreie_Stadt"},"federalState":{"key":"09","name":"Bayern"}},{"name":"Masurenstr.","postalCode":"86167","locality":"Augsburg","municipality":{"key":"09761000","name":"Augsburg","type":"Kreisfreie_Stadt"},"district":{"key":"09761","name":"Augsburg","type":"Kreisfreie_Stadt"},"federalState":{"key":"09","name":"Bayern"}},{"name":"Mathildenstr.","postalCode":"86152","locality":"Augsburg","municipality":{"key":"09761000","name":"Augsburg","type":"Kreisfreie_Stadt"},"district":{"key":"09761","name":"Augsburg","type":"Kreisfreie_Stadt"},"federalState":{"key":"09","name":"Bayern"}},{"name":"Matthäus-Lang-Str.","postalCode":"86154","locality":"Augsburg","municipality":{"key":"09761000","name":"Augsburg","type":"Kreisfreie_Stadt"},"district":{"key":"09761","name":"Augsburg","type":"Kreisfreie_Stadt"},"federalState":{"key":"09","name":"Bayern"}},{"name":"Matthäus-Reichart-Platz","postalCode":"86156","locality":"Augsburg","municipality":{"key":"09761000","name":"Augsburg","type":"Kreisfreie_Stadt"},"district":{"key":"09761","name":"Augsburg","type":"Kreisfreie_Stadt"},"federalState":{"key":"09","name":"Bayern"}},{"name":"Matthias-Claudius-Str.","postalCode":"86161","locality":"Augsburg","municipality":{"key":"09761000","name":"Augsburg","type":"Kreisfreie_Stadt"},"district":{"key":"09761","name":"Augsburg","type":"Kreisfreie_Stadt"},"federalState":{"key":"09","name":"Bayern"}},{"name":"Matthias-Erzberger-Str.","postalCode":"86199","locality":"Augsburg","municipality":{"key":"09761000","name":"Augsburg","type":"Kreisfreie_Stadt"},"district":{"key":"09761","name":"Augsburg","type":"Kreisfreie_Stadt"},"federalState":{"key":"09","name":"Bayern"}},{"name":"Mauerberg","postalCode":"86152","locality":"Augsburg","municipality":{"key":"09761000","name":"Augsburg","type":"Kreisfreie_Stadt"},"district":{"key":"09761","name":"Augsburg","type":"Kreisfreie_Stadt"},"federalState":{"key":"09","name":"Bayern"}},{"name":"Max-Beckmann-Str.","postalCode":"86157","locality":"Augsburg","municipality":{"key":"09761000","name":"Augsburg","type":"Kreisfreie_Stadt"},"district":{"key":"09761","name":"Augsburg","type":"Kreisfreie_Stadt"},"federalState":{"key":"09","name":"Bayern"}},{"name":"Max-Born-Weg","postalCode":"86156","locality":"Augsburg","municipality":{"key":"09761000","name":"Augsburg","type":"Kreisfreie_Stadt"},"district":{"key":"09761","name":"Augsburg","type":"Kreisfreie_Stadt"},"federalState":{"key":"09","name":"Bayern"}},{"name":"Max-Gutmann-Str.","postalCode":"86159","locality":"Augsburg","municipality":{"key":"09761000","name":"Augsburg","type":"Kreisfreie_Stadt"},"district":{"key":"09761","name":"Augsburg","type":"Kreisfreie_Stadt"},"federalState":{"key":"09","name":"Bayern"}},{"name":"Max-Hempel-Str.","postalCode":"86153","locality":"Augsburg","municipality":{"key":"09761000","name":"Augsburg","type":"Kreisfreie_Stadt"},"district":{"key":"09761","name":"Augsburg","type":"Kreisfreie_Stadt"},"federalState":{"key":"09","name":"Bayern"}},{"name":"Max-Josef-Metzger-Str.","postalCode":"86157","locality":"Augsburg","municipality":{"key":"09761000","name":"Augsburg","type":"Kreisfreie_Stadt"},"district":{"key":"09761","name":"Augsburg","type":"Kreisfreie_Stadt"},"federalState":{"key":"09","name":"Bayern"}},{"name":"Maxpassage","postalCode":"86150","locality":"Augsburg","municipality":{"key":"09761000","name":"Augsburg","type":"Kreisfreie_Stadt"},"district":{"key":"09761","name":"Augsburg","type":"Kreisfreie_Stadt"},"federalState":{"key":"09","name":"Bayern"}},{"name":"Max-Pechstein-Str.","postalCode":"86157","locality":"Augsburg","municipality":{"key":"09761000","name":"Augsburg","type":"Kreisfreie_Stadt"},"district":{"key":"09761","name":"Augsburg","type":"Kreisfreie_Stadt"},"federalState":{"key":"09","name":"Bayern"}},{"name":"Max-Planck-Str.","postalCode":"86179","locality":"Augsburg","municipality":{"key":"09761000","name":"Augsburg","type":"Kreisfreie_Stadt"},"district":{"key":"09761","name":"Augsburg","type":"Kreisfreie_Stadt"},"federalState":{"key":"09","name":"Bayern"}},{"name":"Max-Reger-Str.","postalCode":"86199","locality":"Augsburg","municipality":{"key":"09761000","name":"Augsburg","type":"Kreisfreie_Stadt"},"district":{"key":"09761","name":"Augsburg","type":"Kreisfreie_Stadt"},"federalState":{"key":"09","name":"Bayern"}},{"name":"Max-von-Laue-Str.","postalCode":"86156","locality":"Augsburg","municipality":{"key":"09761000","name":"Augsburg","type":"Kreisfreie_Stadt"},"district":{"key":"09761","name":"Augsburg","type":"Kreisfreie_Stadt"},"federalState":{"key":"09","name":"Bayern"}},{"name":"Maystr.","postalCode":"86167","locality":"Augsburg","municipality":{"key":"09761000","name":"Augsburg","type":"Kreisfreie_Stadt"},"district":{"key":"09761","name":"Augsburg","type":"Kreisfreie_Stadt"},"federalState":{"key":"09","name":"Bayern"}},{"name":"Nebelhornstr.","postalCode":"86507","locality":"Kleinaitingen","municipality":{"key":"09772160","name":"Kleinaitingen","type":"Kreisangehörige_Gemeinde"},"district":{"key":"09772","name":"Augsburg","type":"Landkreis"},"federalState":{"key":"09","name":"Bayern"}},{"name":"Nordendstr.","postalCode":"86507","locality":"Kleinaitingen","municipality":{"key":"09772160","name":"Kleinaitingen","type":"Kreisangehörige_Gemeinde"},"district":{"key":"09772","name":"Augsburg","type":"Landkreis"},"federalState":{"key":"09","name":"Bayern"}},{"name":"Ostendstr.","postalCode":"86507","locality":"Kleinaitingen","municipality":{"key":"09772160","name":"Kleinaitingen","type":"Kreisangehörige_Gemeinde"},"district":{"key":"09772","name":"Augsburg","type":"Landkreis"},"federalState":{"key":"09","name":"Bayern"}},{"name":"Palmstr.","postalCode":"86167","locality":"Augsburg","municipality":{"key":"09761000","name":"Augsburg","type":"Kreisfreie_Stadt"},"district":{"key":"09761","name":"Augsburg","type":"Kreisfreie_Stadt"},"federalState":{"key":"09","name":"Bayern"}},{"name":"Pankratiusstr.","postalCode":"86165","locality":"Augsburg","municipality":{"key":"09761000","name":"Augsburg","type":"Kreisfreie_Stadt"},"district":{"key":"09761","name":"Augsburg","type":"Kreisfreie_Stadt"},"federalState":{"key":"09","name":"Bayern"}},{"name":"Panoramastr.","postalCode":"86199","locality":"Augsburg","municipality":{"key":"09761000","name":"Augsburg","type":"Kreisfreie_Stadt"},"district":{"key":"09761","name":"Augsburg","type":"Kreisfreie_Stadt"},"federalState":{"key":"09","name":"Bayern"}},{"name":"Pappelweg","postalCode":"86169","locality":"Augsburg","municipality":{"key":"09761000","name":"Augsburg","type":"Kreisfreie_Stadt"},"district":{"key":"09761","name":"Augsburg","type":"Kreisfreie_Stadt"},"federalState":{"key":"09","name":"Bayern"}},{"name":"Pappenheimstr.","postalCode":"86179","locality":"Augsburg","municipality":{"key":"09761000","name":"Augsburg","type":"Kreisfreie_Stadt"},"district":{"key":"09761","name":"Augsburg","type":"Kreisfreie_Stadt"},"federalState":{"key":"09","name":"Bayern"}},{"name":"Paracelsusstr.","postalCode":"86152","locality":"Augsburg","municipality":{"key":"09761000","name":"Augsburg","type":"Kreisfreie_Stadt"},"district":{"key":"09761","name":"Augsburg","type":"Kreisfreie_Stadt"},"federalState":{"key":"09","name":"Bayern"}},{"name":"Paradiesgäßchen","postalCode":"86152","locality":"Augsburg","municipality":{"key":"09761000","name":"Augsburg","type":"Kreisfreie_Stadt"},"district":{"key":"09761","name":"Augsburg","type":"Kreisfreie_Stadt"},"federalState":{"key":"09","name":"Bayern"}},{"name":"Parkanlage Göggingen","postalCode":"86199","locality":"Augsburg","municipality":{"key":"09761000","name":"Augsburg","type":"Kreisfreie_Stadt"},"district":{"key":"09761","name":"Augsburg","type":"Kreisfreie_Stadt"},"federalState":{"key":"09","name":"Bayern"}},{"name":"Parkanlage Königsplatz","postalCode":"86150","locality":"Augsburg","municipality":{"key":"09761000","name":"Augsburg","type":"Kreisfreie_Stadt"},"district":{"key":"09761","name":"Augsburg","type":"Kreisfreie_Stadt"},"federalState":{"key":"09","name":"Bayern"}},{"name":"Park Wohnanlage \"Klein Venedig\"","postalCode":"86153","locality":"Augsburg","municipality":{"key":"09761000","name":"Augsburg","type":"Kreisfreie_Stadt"},"district":{"key":"09761","name":"Augsburg","type":"Kreisfreie_Stadt"},"federalState":{"key":"09","name":"Bayern"}},{"name":"Pater-Roth-Str.","postalCode":"86157","locality":"Augsburg","municipality":{"key":"09761000","name":"Augsburg","type":"Kreisfreie_Stadt"},"district":{"key":"09761","name":"Augsburg","type":"Kreisfreie_Stadt"},"federalState":{"key":"09","name":"Bayern"}},{"name":"Paul-Gerhardt-Str.","postalCode":"86199","locality":"Augsburg","municipality":{"key":"09761000","name":"Augsburg","type":"Kreisfreie_Stadt"},"district":{"key":"09761","name":"Augsburg","type":"Kreisfreie_Stadt"},"federalState":{"key":"09","name":"Bayern"}},{"name":"Paul-Heyse-Str.","postalCode":"86157","locality":"Augsburg","municipality":{"key":"09761000","name":"Augsburg","type":"Kreisfreie_Stadt"},"district":{"key":"09761","name":"Augsburg","type":"Kreisfreie_Stadt"},"federalState":{"key":"09","name":"Bayern"}},{"name":"Paul-Klee-Str.","postalCode":"86157","locality":"Augsburg","municipality":{"key":"09761000","name":"Augsburg","type":"Kreisfreie_Stadt"},"district":{"key":"09761","name":"Augsburg","type":"Kreisfreie_Stadt"},"federalState":{"key":"09","name":"Bayern"}},{"name":"Paul-Lincke-Str.","postalCode":"86199","locality":"Augsburg","municipality":{"key":"09761000","name":"Augsburg","type":"Kreisfreie_Stadt"},"district":{"key":"09761","name":"Augsburg","type":"Kreisfreie_Stadt"},"federalState":{"key":"09","name":"Bayern"}},{"name":"Paul-Reusch-Str.","postalCode":"86167","locality":"Augsburg","municipality":{"key":"09761000","name":"Augsburg","type":"Kreisfreie_Stadt"},"district":{"key":"09761","name":"Augsburg","type":"Kreisfreie_Stadt"},"federalState":{"key":"09","name":"Bayern"}},{"name":"Pearl-S.-Buck-Str.","postalCode":"86156","locality":"Augsburg","municipality":{"key":"09761000","name":"Augsburg","type":"Kreisfreie_Stadt"},"district":{"key":"09761","name":"Augsburg","type":"Kreisfreie_Stadt"},"federalState":{"key":"09","name":"Bayern"}},{"name":"Peißenbergstr.","postalCode":"86163","locality":"Augsburg","municipality":{"key":"09761000","name":"Augsburg","type":"Kreisfreie_Stadt"},"district":{"key":"09761","name":"Augsburg","type":"Kreisfreie_Stadt"},"federalState":{"key":"09","name":"Bayern"}},{"name":"Penzbergweg","postalCode":"86163","locality":"Augsburg","municipality":{"key":"09761000","name":"Augsburg","type":"Kreisfreie_Stadt"},"district":{"key":"09761","name":"Augsburg","type":"Kreisfreie_Stadt"},"federalState":{"key":"09","name":"Bayern"}},{"name":"Perzheimstr.","postalCode":"86150","locality":"Augsburg","municipality":{"key":"09761000","name":"Augsburg","type":"Kreisfreie_Stadt"},"district":{"key":"09761","name":"Augsburg","type":"Kreisfreie_Stadt"},"federalState":{"key":"09","name":"Bayern"}},{"name":"Pestalozzistr.","postalCode":"86154","locality":"Augsburg","municipality":{"key":"09761000","name":"Augsburg","type":"Kreisfreie_Stadt"},"district":{"key":"09761","name":"Augsburg","type":"Kreisfreie_Stadt"},"federalState":{"key":"09","name":"Bayern"}},{"name":"Petelstr.","postalCode":"86154","locality":"Augsburg","municipality":{"key":"09761000","name":"Augsburg","type":"Kreisfreie_Stadt"},"district":{"key":"09761","name":"Augsburg","type":"Kreisfreie_Stadt"},"federalState":{"key":"09","name":"Bayern"}},{"name":"Peter-Cornelius-Str.","postalCode":"86157","locality":"Augsburg","municipality":{"key":"09761000","name":"Augsburg","type":"Kreisfreie_Stadt"},"district":{"key":"09761","name":"Augsburg","type":"Kreisfreie_Stadt"},"federalState":{"key":"09","name":"Bayern"}},{"name":"Peter-Dörfler-Str.","postalCode":"86199","locality":"Augsburg","municipality":{"key":"09761000","name":"Augsburg","type":"Kreisfreie_Stadt"},"district":{"key":"09761","name":"Augsburg","type":"Kreisfreie_Stadt"},"federalState":{"key":"09","name":"Bayern"}},{"name":"Peter-Henlein-Str.","postalCode":"86199","locality":"Augsburg","municipality":{"key":"09761000","name":"Augsburg","type":"Kreisfreie_Stadt"},"district":{"key":"09761","name":"Augsburg","type":"Kreisfreie_Stadt"},"federalState":{"key":"09","name":"Bayern"}},{"name":"Peterhof-Passage","postalCode":"86163","locality":"Augsburg","municipality":{"key":"09761000","name":"Augsburg","type":"Kreisfreie_Stadt"},"district":{"key":"09761","name":"Augsburg","type":"Kreisfreie_Stadt"},"federalState":{"key":"09","name":"Bayern"}},{"name":"Peterhofstr.","postalCode":"86163","locality":"Augsburg","municipality":{"key":"09761000","name":"Augsburg","type":"Kreisfreie_Stadt"},"district":{"key":"09761","name":"Augsburg","type":"Kreisfreie_Stadt"},"federalState":{"key":"09","name":"Bayern"}},{"name":"Peter-Kötzer-Gasse","postalCode":"86150","locality":"Augsburg","municipality":{"key":"09761000","name":"Augsburg","type":"Kreisfreie_Stadt"},"district":{"key":"09761","name":"Augsburg","type":"Kreisfreie_Stadt"},"federalState":{"key":"09","name":"Bayern"}},{"name":"Petrus-Claver-Weg","postalCode":"86154","locality":"Augsburg","municipality":{"key":"09761000","name":"Augsburg","type":"Kreisfreie_Stadt"},"district":{"key":"09761","name":"Augsburg","type":"Kreisfreie_Stadt"},"federalState":{"key":"09","name":"Bayern"}},{"name":"Pettenkoferstr.","postalCode":"86152","locality":"Augsburg","municipality":{"key":"09761000","name":"Augsburg","type":"Kreisfreie_Stadt"},"district":{"key":"09761","name":"Augsburg","type":"Kreisfreie_Stadt"},"federalState":{"key":"09","name":"Bayern"}},{"name":"Peutingerstr.","postalCode":"86152","locality":"Augsburg","municipality":{"key":"09761000","name":"Augsburg","type":"Kreisfreie_Stadt"},"district":{"key":"09761","name":"Augsburg","type":"Kreisfreie_Stadt"},"federalState":{"key":"09","name":"Bayern"}},{"name":"Pfarrer-Bogner-Str.","postalCode":"86199","locality":"Augsburg","municipality":{"key":"09761000","name":"Augsburg","type":"Kreisfreie_Stadt"},"district":{"key":"09761","name":"Augsburg","type":"Kreisfreie_Stadt"},"federalState":{"key":"09","name":"Bayern"}},{"name":"Pfarrer-Herz-Str.","postalCode":"86199","locality":"Augsburg","municipality":{"key":"09761000","name":"Augsburg","type":"Kreisfreie_Stadt"},"district":{"key":"09761","name":"Augsburg","type":"Kreisfreie_Stadt"},"federalState":{"key":"09","name":"Bayern"}},{"name":"Pfarrer-Mayr-Weg","postalCode":"86169","locality":"Augsburg","municipality":{"key":"09761000","name":"Augsburg","type":"Kreisfreie_Stadt"},"district":{"key":"09761","name":"Augsburg","type":"Kreisfreie_Stadt"},"federalState":{"key":"09","name":"Bayern"}},{"name":"Pfarrer-Neumeir-Str.","postalCode":"86199","locality":"Augsburg","municipality":{"key":"09761000","name":"Augsburg","type":"Kreisfreie_Stadt"},"district":{"key":"09761","name":"Augsburg","type":"Kreisfreie_Stadt"},"federalState":{"key":"09","name":"Bayern"}},{"name":"Pfarrhausstr.","postalCode":"86154","locality":"Augsburg","municipality":{"key":"09761000","name":"Augsburg","type":"Kreisfreie_Stadt"},"district":{"key":"09761","name":"Augsburg","type":"Kreisfreie_Stadt"},"federalState":{"key":"09","name":"Bayern"}},{"name":"Pfärrle","postalCode":"86152","locality":"Augsburg","municipality":{"key":"09761000","name":"Augsburg","type":"Kreisfreie_Stadt"},"district":{"key":"09761","name":"Augsburg","type":"Kreisfreie_Stadt"},"federalState":{"key":"09","name":"Bayern"}},{"name":"Pfaustr.","postalCode":"86179","locality":"Augsburg","municipality":{"key":"09761000","name":"Augsburg","type":"Kreisfreie_Stadt"},"district":{"key":"09761","name":"Augsburg","type":"Kreisfreie_Stadt"},"federalState":{"key":"09","name":"Bayern"}},{"name":"Pferseer Str.","postalCode":"86150","locality":"Augsburg","municipality":{"key":"09761000","name":"Augsburg","type":"Kreisfreie_Stadt"},"district":{"key":"09761","name":"Augsburg","type":"Kreisfreie_Stadt"},"federalState":{"key":"09","name":"Bayern"}},{"name":"Pferseer Str.","postalCode":"86152","locality":"Augsburg","municipality":{"key":"09761000","name":"Augsburg","type":"Kreisfreie_Stadt"},"district":{"key":"09761","name":"Augsburg","type":"Kreisfreie_Stadt"},"federalState":{"key":"09","name":"Bayern"}},{"name":"Pferseer Str.","postalCode":"86157","locality":"Augsburg","municipality":{"key":"09761000","name":"Augsburg","type":"Kreisfreie_Stadt"},"district":{"key":"09761","name":"Augsburg","type":"Kreisfreie_Stadt"},"federalState":{"key":"09","name":"Bayern"}},{"name":"Pfirsichweg","postalCode":"86169","locality":"Augsburg","municipality":{"key":"09761000","name":"Augsburg","type":"Kreisfreie_Stadt"},"district":{"key":"09761","name":"Augsburg","type":"Kreisfreie_Stadt"},"federalState":{"key":"09","name":"Bayern"}},{"name":"Pfladergasse","postalCode":"86150","locality":"Augsburg","municipality":{"key":"09761000","name":"Augsburg","type":"Kreisfreie_Stadt"},"district":{"key":"09761","name":"Augsburg","type":"Kreisfreie_Stadt"},"federalState":{"key":"09","name":"Bayern"}},{"name":"Pflugstr.","postalCode":"86179","locality":"Augsburg","municipality":{"key":"09761000","name":"Augsburg","type":"Kreisfreie_Stadt"},"district":{"key":"09761","name":"Augsburg","type":"Kreisfreie_Stadt"},"federalState":{"key":"09","name":"Bayern"}},{"name":"Pfrontener Str.","postalCode":"86163","locality":"Augsburg","municipality":{"key":"09761000","name":"Augsburg","type":"Kreisfreie_Stadt"},"district":{"key":"09761","name":"Augsburg","type":"Kreisfreie_Stadt"},"federalState":{"key":"09","name":"Bayern"}},{"name":"Philipp-Häring-Str.","postalCode":"86157","locality":"Augsburg","municipality":{"key":"09761000","name":"Augsburg","type":"Kreisfreie_Stadt"},"district":{"key":"09761","name":"Augsburg","type":"Kreisfreie_Stadt"},"federalState":{"key":"09","name":"Bayern"}},{"name":"Philipp-Scheidemann-Str.","postalCode":"86199","locality":"Augsburg","municipality":{"key":"09761000","name":"Augsburg","type":"Kreisfreie_Stadt"},"district":{"key":"09761","name":"Augsburg","type":"Kreisfreie_Stadt"},"federalState":{"key":"09","name":"Bayern"}},{"name":"Philipp-Ulhart-Str.","postalCode":"86199","locality":"Augsburg","municipality":{"key":"09761000","name":"Augsburg","type":"Kreisfreie_Stadt"},"district":{"key":"09761","name":"Augsburg","type":"Kreisfreie_Stadt"},"federalState":{"key":"09","name":"Bayern"}},{"name":"Pilgerhausstr.","postalCode":"86152","locality":"Augsburg","municipality":{"key":"09761000","name":"Augsburg","type":"Kreisfreie_Stadt"},"district":{"key":"09761","name":"Augsburg","type":"Kreisfreie_Stadt"},"federalState":{"key":"09","name":"Bayern"}},{"name":"Pilsener Str.","postalCode":"86199","locality":"Augsburg","municipality":{"key":"09761000","name":"Augsburg","type":"Kreisfreie_Stadt"},"district":{"key":"09761","name":"Augsburg","type":"Kreisfreie_Stadt"},"federalState":{"key":"09","name":"Bayern"}},{"name":"Quellenstr.","postalCode":"86165","locality":"Augsburg","municipality":{"key":"09761000","name":"Augsburg","type":"Kreisfreie_Stadt"},"district":{"key":"09761","name":"Augsburg","type":"Kreisfreie_Stadt"},"federalState":{"key":"09","name":"Bayern"}},{"name":"Quittenweg","postalCode":"86169","locality":"Augsburg","municipality":{"key":"09761000","name":"Augsburg","type":"Kreisfreie_Stadt"},"district":{"key":"09761","name":"Augsburg","type":"Kreisfreie_Stadt"},"federalState":{"key":"09","name":"Bayern"}},{"name":"Raiffeisenstr.","postalCode":"86507","locality":"Kleinaitingen","municipality":{"key":"09772160","name":"Kleinaitingen","type":"Kreisangehörige_Gemeinde"},"district":{"key":"09772","name":"Augsburg","type":"Landkreis"},"federalState":{"key":"09","name":"Bayern"}},{"name":"Rathausplatz","postalCode":"86507","locality":"Kleinaitingen","municipality":{"key":"09772160","name":"Kleinaitingen","type":"Kreisangehörige_Gemeinde"},"district":{"key":"09772","name":"Augsburg","type":"Landkreis"},"federalState":{"key":"09","name":"Bayern"}},{"name":"Rathausstr.","postalCode":"86507","locality":"Kleinaitingen","municipality":{"key":"09772160","name":"Kleinaitingen","type":"Kreisangehörige_Gemeinde"},"district":{"key":"09772","name":"Augsburg","type":"Landkreis"},"federalState":{"key":"09","name":"Bayern"}},{"name":"Rudolf-Diesel-Str.","postalCode":"86507","locality":"Kleinaitingen","municipality":{"key":"09772160","name":"Kleinaitingen","type":"Kreisangehörige_Gemeinde"},"district":{"key":"09772","name":"Augsburg","type":"Landkreis"},"federalState":{"key":"09","name":"Bayern"}},{"name":"Sommerstr.","postalCode":"86507","locality":"Kleinaitingen","municipality":{"key":"09772160","name":"Kleinaitingen","type":"Kreisangehörige_Gemeinde"},"district":{"key":"09772","name":"Augsburg","type":"Landkreis"},"federalState":{"key":"09","name":"Bayern"}},{"name":"Täfertinger Weg","postalCode":"86156","locality":"Augsburg","municipality":{"key":"09761000","name":"Augsburg","type":"Kreisfreie_Stadt"},"district":{"key":"09761","name":"Augsburg","type":"Kreisfreie_Stadt"},"federalState":{"key":"09","name":"Bayern"}},{"name":"Talweg","postalCode":"86154","locality":"Augsburg","municipality":{"key":"09761000","name":"Augsburg","type":"Kreisfreie_Stadt"},"district":{"key":"09761","name":"Augsburg","type":"Kreisfreie_Stadt"},"federalState":{"key":"09","name":"Bayern"}},{"name":"Tannenstr.","postalCode":"86179","locality":"Augsburg","municipality":{"key":"09761000","name":"Augsburg","type":"Kreisfreie_Stadt"},"district":{"key":"09761","name":"Augsburg","type":"Kreisfreie_Stadt"},"federalState":{"key":"09","name":"Bayern"}},{"name":"Tannheimer Str.","postalCode":"86163","locality":"Augsburg","municipality":{"key":"09761000","name":"Augsburg","type":"Kreisfreie_Stadt"},"district":{"key":"09761","name":"Augsburg","type":"Kreisfreie_Stadt"},"federalState":{"key":"09","name":"Bayern"}},{"name":"Tatrastr.","postalCode":"86165","locality":"Augsburg","municipality":{"key":"09761000","name":"Augsburg","type":"Kreisfreie_Stadt"},"district":{"key":"09761","name":"Augsburg","type":"Kreisfreie_Stadt"},"federalState":{"key":"09","name":"Bayern"}},{"name":"Taubenstr.","postalCode":"86179","locality":"Augsburg","municipality":{"key":"09761000","name":"Augsburg","type":"Kreisfreie_Stadt"},"district":{"key":"09761","name":"Augsburg","type":"Kreisfreie_Stadt"},"federalState":{"key":"09","name":"Bayern"}},{"name":"Tauentzienstr.","postalCode":"86167","locality":"Augsburg","municipality":{"key":"09761000","name":"Augsburg","type":"Kreisfreie_Stadt"},"district":{"key":"09761","name":"Augsburg","type":"Kreisfreie_Stadt"},"federalState":{"key":"09","name":"Bayern"}},{"name":"Tauroggener Str.","postalCode":"86167","locality":"Augsburg","municipality":{"key":"09761000","name":"Augsburg","type":"Kreisfreie_Stadt"},"district":{"key":"09761","name":"Augsburg","type":"Kreisfreie_Stadt"},"federalState":{"key":"09","name":"Bayern"}},{"name":"Tauscherstr.","postalCode":"86154","locality":"Augsburg","municipality":{"key":"09761000","name":"Augsburg","type":"Kreisfreie_Stadt"},"district":{"key":"09761","name":"Augsburg","type":"Kreisfreie_Stadt"},"federalState":{"key":"09","name":"Bayern"}},{"name":"Taxisstr.","postalCode":"86153","locality":"Augsburg","municipality":{"key":"09761000","name":"Augsburg","type":"Kreisfreie_Stadt"},"district":{"key":"09761","name":"Augsburg","type":"Kreisfreie_Stadt"},"federalState":{"key":"09","name":"Bayern"}},{"name":"Tegelbergstr.","postalCode":"86163","locality":"Augsburg","municipality":{"key":"09761000","name":"Augsburg","type":"Kreisfreie_Stadt"},"district":{"key":"09761","name":"Augsburg","type":"Kreisfreie_Stadt"},"federalState":{"key":"09","name":"Bayern"}},{"name":"Tegernseestr.","postalCode":"86179","locality":"Augsburg","municipality":{"key":"09761000","name":"Augsburg","type":"Kreisfreie_Stadt"},"district":{"key":"09761","name":"Augsburg","type":"Kreisfreie_Stadt"},"federalState":{"key":"09","name":"Bayern"}},{"name":"Teplitzer Str.","postalCode":"86165","locality":"Augsburg","municipality":{"key":"09761000","name":"Augsburg","type":"Kreisfreie_Stadt"},"district":{"key":"09761","name":"Augsburg","type":"Kreisfreie_Stadt"},"federalState":{"key":"09","name":"Bayern"}},{"name":"Terlaner Str.","postalCode":"86165","locality":"Augsburg","municipality":{"key":"09761000","name":"Augsburg","type":"Kreisfreie_Stadt"},"district":{"key":"09761","name":"Augsburg","type":"Kreisfreie_Stadt"},"federalState":{"key":"09","name":"Bayern"}},{"name":"Textilstr.","postalCode":"86179","locality":"Augsburg","municipality":{"key":"09761000","name":"Augsburg","type":"Kreisfreie_Stadt"},"district":{"key":"09761","name":"Augsburg","type":"Kreisfreie_Stadt"},"federalState":{"key":"09","name":"Bayern"}},{"name":"Thaddäus-Schmid-Str.","postalCode":"86199","locality":"Augsburg","municipality":{"key":"09761000","name":"Augsburg","type":"Kreisfreie_Stadt"},"district":{"key":"09761","name":"Augsburg","type":"Kreisfreie_Stadt"},"federalState":{"key":"09","name":"Bayern"}},{"name":"Thalesstr.","postalCode":"86199","locality":"Augsburg","municipality":{"key":"09761000","name":"Augsburg","type":"Kreisfreie_Stadt"},"district":{"key":"09761","name":"Augsburg","type":"Kreisfreie_Stadt"},"federalState":{"key":"09","name":"Bayern"}},{"name":"Thalkirchdorfer Weg","postalCode":"86199","locality":"Augsburg","municipality":{"key":"09761000","name":"Augsburg","type":"Kreisfreie_Stadt"},"district":{"key":"09761","name":"Augsburg","type":"Kreisfreie_Stadt"},"federalState":{"key":"09","name":"Bayern"}},{"name":"Thanellerstr.","postalCode":"86163","locality":"Augsburg","municipality":{"key":"09761000","name":"Augsburg","type":"Kreisfreie_Stadt"},"district":{"key":"09761","name":"Augsburg","type":"Kreisfreie_Stadt"},"federalState":{"key":"09","name":"Bayern"}},{"name":"Theaterstr.","postalCode":"86152","locality":"Augsburg","municipality":{"key":"09761000","name":"Augsburg","type":"Kreisfreie_Stadt"},"district":{"key":"09761","name":"Augsburg","type":"Kreisfreie_Stadt"},"federalState":{"key":"09","name":"Bayern"}},{"name":"Thelottstr.","postalCode":"86150","locality":"Augsburg","municipality":{"key":"09761000","name":"Augsburg","type":"Kreisfreie_Stadt"},"district":{"key":"09761","name":"Augsburg","type":"Kreisfreie_Stadt"},"federalState":{"key":"09","name":"Bayern"}},{"name":"Theodor-Heuss-Platz","postalCode":"86150","locality":"Augsburg","municipality":{"key":"09761000","name":"Augsburg","type":"Kreisfreie_Stadt"},"district":{"key":"09761","name":"Augsburg","type":"Kreisfreie_Stadt"},"federalState":{"key":"09","name":"Bayern"}},{"name":"Theodor-Sachs-Str.","postalCode":"86179","locality":"Augsburg","municipality":{"key":"09761000","name":"Augsburg","type":"Kreisfreie_Stadt"},"district":{"key":"09761","name":"Augsburg","type":"Kreisfreie_Stadt"},"federalState":{"key":"09","name":"Bayern"}},{"name":"Theodor-Sachs-Str.","postalCode":"86199","locality":"Augsburg","municipality":{"key":"09761000","name":"Augsburg","type":"Kreisfreie_Stadt"},"district":{"key":"09761","name":"Augsburg","type":"Kreisfreie_Stadt"},"federalState":{"key":"09","name":"Bayern"}},{"name":"Theodor-Wiedemann-Str.","postalCode":"86161","locality":"Augsburg","municipality":{"key":"09761000","name":"Augsburg","type":"Kreisfreie_Stadt"},"district":{"key":"09761","name":"Augsburg","type":"Kreisfreie_Stadt"},"federalState":{"key":"09","name":"Bayern"}},{"name":"Theresienstr.","postalCode":"86153","locality":"Augsburg","municipality":{"key":"09761000","name":"Augsburg","type":"Kreisfreie_Stadt"},"district":{"key":"09761","name":"Augsburg","type":"Kreisfreie_Stadt"},"federalState":{"key":"09","name":"Bayern"}},{"name":"Thierhaupter Weg","postalCode":"86154","locality":"Augsburg","municipality":{"key":"09761000","name":"Augsburg","type":"Kreisfreie_Stadt"},"district":{"key":"09761","name":"Augsburg","type":"Kreisfreie_Stadt"},"federalState":{"key":"09","name":"Bayern"}},{"name":"Thomas-Breit-Str.","postalCode":"86154","locality":"Augsburg","municipality":{"key":"09761000","name":"Augsburg","type":"Kreisfreie_Stadt"},"district":{"key":"09761","name":"Augsburg","type":"Kreisfreie_Stadt"},"federalState":{"key":"09","name":"Bayern"}},{"name":"Thomas-Mann-Str.","postalCode":"86161","locality":"Augsburg","municipality":{"key":"09761000","name":"Augsburg","type":"Kreisfreie_Stadt"},"district":{"key":"09761","name":"Augsburg","type":"Kreisfreie_Stadt"},"federalState":{"key":"09","name":"Bayern"}},{"name":"Thomastr.","postalCode":"86179","locality":"Augsburg","municipality":{"key":"09761000","name":"Augsburg","type":"Kreisfreie_Stadt"},"district":{"key":"09761","name":"Augsburg","type":"Kreisfreie_Stadt"},"federalState":{"key":"09","name":"Bayern"}},{"name":"Thommstr.","postalCode":"86152","locality":"Augsburg","municipality":{"key":"09761000","name":"Augsburg","type":"Kreisfreie_Stadt"},"district":{"key":"09761","name":"Augsburg","type":"Kreisfreie_Stadt"},"federalState":{"key":"09","name":"Bayern"}},{"name":"Thommstr.","postalCode":"86153","locality":"Augsburg","municipality":{"key":"09761000","name":"Augsburg","type":"Kreisfreie_Stadt"},"district":{"key":"09761","name":"Augsburg","type":"Kreisfreie_Stadt"},"federalState":{"key":"09","name":"Bayern"}},{"name":"Thurgauerstr.","postalCode":"86179","locality":"Augsburg","municipality":{"key":"09761000","name":"Augsburg","type":"Kreisfreie_Stadt"},"district":{"key":"09761","name":"Augsburg","type":"Kreisfreie_Stadt"},"federalState":{"key":"09","name":"Bayern"}},{"name":"Tiberiusstr.","postalCode":"86199","locality":"Augsburg","municipality":{"key":"09761000","name":"Augsburg","type":"Kreisfreie_Stadt"},"district":{"key":"09761","name":"Augsburg","type":"Kreisfreie_Stadt"},"federalState":{"key":"09","name":"Bayern"}},{"name":"Tieckstr.","postalCode":"86157","locality":"Augsburg","municipality":{"key":"09761000","name":"Augsburg","type":"Kreisfreie_Stadt"},"district":{"key":"09761","name":"Augsburg","type":"Kreisfreie_Stadt"},"federalState":{"key":"09","name":"Bayern"}},{"name":"Tiergartenweg","postalCode":"86161","locality":"Augsburg","municipality":{"key":"09761000","name":"Augsburg","type":"Kreisfreie_Stadt"},"district":{"key":"09761","name":"Augsburg","type":"Kreisfreie_Stadt"},"federalState":{"key":"09","name":"Bayern"}},{"name":"Tillystr.","postalCode":"86179","locality":"Augsburg","municipality":{"key":"09761000","name":"Augsburg","type":"Kreisfreie_Stadt"},"district":{"key":"09761","name":"Augsburg","type":"Kreisfreie_Stadt"},"federalState":{"key":"09","name":"Bayern"}},{"name":"Tilsiter Str.","postalCode":"86167","locality":"Augsburg","municipality":{"key":"09761000","name":"Augsburg","type":"Kreisfreie_Stadt"},"district":{"key":"09761","name":"Augsburg","type":"Kreisfreie_Stadt"},"federalState":{"key":"09","name":"Bayern"}},{"name":"Tiroler Str.","postalCode":"86179","locality":"Augsburg","municipality":{"key":"09761000","name":"Augsburg","type":"Kreisfreie_Stadt"},"district":{"key":"09761","name":"Augsburg","type":"Kreisfreie_Stadt"},"federalState":{"key":"09","name":"Bayern"}},{"name":"Tobias-Maurer-Str.","postalCode":"86154","locality":"Augsburg","municipality":{"key":"09761000","name":"Augsburg","type":"Kreisfreie_Stadt"},"district":{"key":"09761","name":"Augsburg","type":"Kreisfreie_Stadt"},"federalState":{"key":"09","name":"Bayern"}},{"name":"Toblacher Str.","postalCode":"86165","locality":"Augsburg","municipality":{"key":"09761000","name":"Augsburg","type":"Kreisfreie_Stadt"},"district":{"key":"09761","name":"Augsburg","type":"Kreisfreie_Stadt"},"federalState":{"key":"09","name":"Bayern"}},{"name":"Traminerweg","postalCode":"86179","locality":"Augsburg","municipality":{"key":"09761000","name":"Augsburg","type":"Kreisfreie_Stadt"},"district":{"key":"09761","name":"Augsburg","type":"Kreisfreie_Stadt"},"federalState":{"key":"09","name":"Bayern"}},{"name":"Trauchgaustr.","postalCode":"86163","locality":"Augsburg","municipality":{"key":"09761000","name":"Augsburg","type":"Kreisfreie_Stadt"},"district":{"key":"09761","name":"Augsburg","type":"Kreisfreie_Stadt"},"federalState":{"key":"09","name":"Bayern"}},{"name":"Trendelstr.","postalCode":"86156","locality":"Augsburg","municipality":{"key":"09761000","name":"Augsburg","type":"Kreisfreie_Stadt"},"district":{"key":"09761","name":"Augsburg","type":"Kreisfreie_Stadt"},"federalState":{"key":"09","name":"Bayern"}},{"name":"Trettachstr.","postalCode":"86163","locality":"Augsburg","municipality":{"key":"09761000","name":"Augsburg","type":"Kreisfreie_Stadt"},"district":{"key":"09761","name":"Augsburg","type":"Kreisfreie_Stadt"},"federalState":{"key":"09","name":"Bayern"}},{"name":"Treustr.","postalCode":"86157","locality":"Augsburg","municipality":{"key":"09761000","name":"Augsburg","type":"Kreisfreie_Stadt"},"district":{"key":"09761","name":"Augsburg","type":"Kreisfreie_Stadt"},"federalState":{"key":"09","name":"Bayern"}},{"name":"Troppauer Weg","postalCode":"86167","locality":"Augsburg","municipality":{"key":"09761000","name":"Augsburg","type":"Kreisfreie_Stadt"},"district":{"key":"09761","name":"Augsburg","type":"Kreisfreie_Stadt"},"federalState":{"key":"09","name":"Bayern"}},{"name":"Tuchbleichstr.","postalCode":"86179","locality":"Augsburg","municipality":{"key":"09761000","name":"Augsburg","type":"Kreisfreie_Stadt"},"district":{"key":"09761","name":"Augsburg","type":"Kreisfreie_Stadt"},"federalState":{"key":"09","name":"Bayern"}},{"name":"Tulpenstr.","postalCode":"86179","locality":"Augsburg","municipality":{"key":"09761000","name":"Augsburg","type":"Kreisfreie_Stadt"},"district":{"key":"09761","name":"Augsburg","type":"Kreisfreie_Stadt"},"federalState":{"key":"09","name":"Bayern"}},{"name":"Tunnelstr.","postalCode":"86156","locality":"Augsburg","municipality":{"key":"09761000","name":"Augsburg","type":"Kreisfreie_Stadt"},"district":{"key":"09761","name":"Augsburg","type":"Kreisfreie_Stadt"},"federalState":{"key":"09","name":"Bayern"}},{"name":"Ulrichstr.","postalCode":"86507","locality":"Kleinaitingen","municipality":{"key":"09772160","name":"Kleinaitingen","type":"Kreisangehörige_Gemeinde"},"district":{"key":"09772","name":"Augsburg","type":"Landkreis"},"federalState":{"key":"09","name":"Bayern"}},{"name":"Unterer Griesweg","postalCode":"86507","locality":"Kleinaitingen","municipality":{"key":"09772160","name":"Kleinaitingen","type":"Kreisangehörige_Gemeinde"},"district":{"key":"09772","name":"Augsburg","type":"Landkreis"},"federalState":{"key":"09","name":"Bayern"}},{"name":"Via-Claudia-Weg","postalCode":"86507","locality":"Kleinaitingen","municipality":{"key":"09772160","name":"Kleinaitingen","type":"Kreisangehörige_Gemeinde"},"district":{"key":"09772","name":"Augsburg","type":"Landkreis"},"federalState":{"key":"09","name":"Bayern"}},{"name":"Wiesenweg","postalCode":"86507","locality":"Kleinaitingen","municipality":{"key":"09772160","name":"Kleinaitingen","type":"Kreisangehörige_Gemeinde"},"district":{"key":"09772","name":"Augsburg","type":"Landkreis"},"federalState":{"key":"09","name":"Bayern"}},{"name":"Winterstr.","postalCode":"86507","locality":"Kleinaitingen","municipality":{"key":"09772160","name":"Kleinaitingen","type":"Kreisangehörige_Gemeinde"},"district":{"key":"09772","name":"Augsburg","type":"Landkreis"},"federalState":{"key":"09","name":"Bayern"}},{"name":"Yorckstr.","postalCode":"86165","locality":"Augsburg","municipality":{"key":"09761000","name":"Augsburg","type":"Kreisfreie_Stadt"},"district":{"key":"09761","name":"Augsburg","type":"Kreisfreie_Stadt"},"federalState":{"key":"09","name":"Bayern"}},{"name":"Zugspitzstr.","postalCode":"86507","locality":"Kleinaitingen","municipality":{"key":"09772160","name":"Kleinaitingen","type":"Kreisangehörige_Gemeinde"},"district":{"key":"09772","name":"Augsburg","type":"Landkreis"},"federalState":{"key":"09","name":"Bayern"}},{"name":"Ährenstr.","postalCode":"86179","locality":"Augsburg","municipality":{"key":"09761000","name":"Augsburg","type":"Kreisfreie_Stadt"},"district":{"key":"09761","name":"Augsburg","type":"Kreisfreie_Stadt"},"federalState":{"key":"09","name":"Bayern"}},{"name":"Äußerer Gang","postalCode":"86150","locality":"Augsburg","municipality":{"key":"09761000","name":"Augsburg","type":"Kreisfreie_Stadt"},"district":{"key":"09761","name":"Augsburg","type":"Kreisfreie_Stadt"},"federalState":{"key":"09","name":"Bayern"}},{"name":"Äußeres Pfaffengäßchen","postalCode":"86152","locality":"Augsburg","municipality":{"key":"09761000","name":"Augsburg","type":"Kreisfreie_Stadt"},"district":{"key":"09761","name":"Augsburg","type":"Kreisfreie_Stadt"},"federalState":{"key":"09","name":"Bayern"}},{"name":"Äußere Uferstr.","postalCode":"86154","locality":"Augsburg","municipality":{"key":"09761000","name":"Augsburg","type":"Kreisfreie_Stadt"},"district":{"key":"09761","name":"Augsburg","type":"Kreisfreie_Stadt"},"federalState":{"key":"09","name":"Bayern"}},{"name":"Öglinstr.","postalCode":"86153","locality":"Augsburg","municipality":{"key":"09761000","name":"Augsburg","type":"Kreisfreie_Stadt"},"district":{"key":"09761","name":"Augsburg","type":"Kreisfreie_Stadt"},"federalState":{"key":"09","name":"Bayern"}},{"name":"Ölbachstr.","postalCode":"86179","locality":"Augsburg","municipality":{"key":"09761000","name":"Augsburg","type":"Kreisfreie_Stadt"},"district":{"key":"09761","name":"Augsburg","type":"Kreisfreie_Stadt"},"federalState":{"key":"09","name":"Bayern"}},]