[{"key":"10025500","name":"Aewil","postalCode":"9608","locality":"Ganterschwil","commune":{"key":"3395","name":"Bütschwil-Ganterschwil","shortName":"Bütschwil-Ganterschwil"},"district":{"key":"1727","name":"Wahlkreis Toggenburg"},"canton":{"key":"17","code":"SG","name":"St. Gallen"},"status":"Real"},{"key":"10224116","name":"Aewil-Bruedertöbeliweg","postalCode":"9608","locality":"Ganterschwil","commune":{"key":"3395","name":"Bütschwil-Ganterschwil","shortName":"Bütschwil-Ganterschwil"},"district":{"key":"1727","name":"Wahlkreis Toggenburg"},"canton":{"key":"17","code":"SG","name":"St. Gallen"},"status":"Real"},{"key":"10091384","name":"Aewilerstrasse","postalCode":"9608","locality":"Ganterschwil","commune":{"key":"3395","name":"Bütschwil-Ganterschwil","shortName":"Bütschwil-Ganterschwil"},"district":{"key":"1727","name":"Wahlkreis Toggenburg"},"canton":{"key":"17","code":"SG","name":"St. Gallen"},"status":"Real"},{"key":"10224121","name":"Aewil-Grundweg","postalCode":"9608","locality":"Ganterschwil","commune":{"key":"3395","name":"Bütschwil-Ganterschwil","shortName":"Bütschwil-Ganterschwil"},"district":{"key":"1727","name":"Wahlkreis Toggenburg"},"canton":{"key":"17","code":"SG","name":"St. Gallen"},"status":"Real"},{"key":"10250639","name":"Aewilstrasse","postalCode":"9608","locality":"Ganterschwil","commune":{"key":"3395","name":"Bütschwil-Ganterschwil","shortName":"Bütschwil-Ganterschwil"},"district":{"key":"1727","name":"Wahlkreis Toggenburg"},"canton":{"key":"17","code":"SG","name":"St. Gallen"},"status":"Real"},{"key":"10226689","name":"Aewilweg","postalCode":"9608","locality":"Ganterschwil","commune":{"key":"3395","name":"Bütschwil-Ganterschwil","shortName":"Bütschwil-Ganterschwil"},"district":{"key":"1727","name":"Wahlkreis Toggenburg"},"canton":{"key":"17","code":"SG","name":"St. Gallen"},"status":"Real"},{"key":"10226693","name":"Aewil-Williswisstrasse","postalCode":"9608","locality":"Ganterschwil","commune":{"key":"3395","name":"Bütschwil-Ganterschwil","shortName":"Bütschwil-Ganterschwil"},"district":{"key":"1727","name":"Wahlkreis Toggenburg"},"canton":{"key":"17","code":"SG","name":"St. Gallen"},"status":"Real"},{"key":"10213415","name":"Altbergliweg","postalCode":"4228","locality":"Erschwil","commune":{"key":"2615","name":"Erschwil","shortName":"Erschwil"},"district":{"key":"1110","name":"Bezirk Thierstein"},"canton":{"key":"11","code":"SO","name":"Solothurn"},"status":"Real"},{"key":"10213420","name":"Alte Chäselweg","postalCode":"4228","locality":"Erschwil","commune":{"key":"2615","name":"Erschwil","shortName":"Erschwil"},"district":{"key":"1110","name":"Bezirk Thierstein"},"canton":{"key":"11","code":"SO","name":"Solothurn"},"status":"Real"},{"key":"10231490","name":"Alte Hinteranzenwilstrasse","postalCode":"9608","locality":"Ganterschwil","commune":{"key":"3395","name":"Bütschwil-Ganterschwil","shortName":"Bütschwil-Ganterschwil"},"district":{"key":"1727","name":"Wahlkreis Toggenburg"},"canton":{"key":"17","code":"SG","name":"St. Gallen"},"status":"Real"},{"key":"10226701","name":"Alte Letzistrasse","postalCode":"9608","locality":"Ganterschwil","commune":{"key":"3395","name":"Bütschwil-Ganterschwil","shortName":"Bütschwil-Ganterschwil"},"district":{"key":"1727","name":"Wahlkreis Toggenburg"},"canton":{"key":"17","code":"SG","name":"St. Gallen"},"status":"Real"},{"key":"10213423","name":"Alte Passwangstrasse","postalCode":"4228","locality":"Erschwil","commune":{"key":"2615","name":"Erschwil","shortName":"Erschwil"},"district":{"key":"1110","name":"Bezirk Thierstein"},"canton":{"key":"11","code":"SO","name":"Solothurn"},"status":"Real"},{"key":"10213427","name":"Alter Forstweg","postalCode":"4228","locality":"Erschwil","commune":{"key":"2615","name":"Erschwil","shortName":"Erschwil"},"district":{"key":"1110","name":"Bezirk Thierstein"},"canton":{"key":"11","code":"SO","name":"Solothurn"},"status":"Real"},{"key":"10213431","name":"Alter Hollenweg","postalCode":"4228","locality":"Erschwil","commune":{"key":"2615","name":"Erschwil","shortName":"Erschwil"},"district":{"key":"1110","name":"Bezirk Thierstein"},"canton":{"key":"11","code":"SO","name":"Solothurn"},"status":"Real"},{"key":"10213436","name":"Alter Riedbergweg","postalCode":"4228","locality":"Erschwil","commune":{"key":"2615","name":"Erschwil","shortName":"Erschwil"},"district":{"key":"1110","name":"Bezirk Thierstein"},"canton":{"key":"11","code":"SO","name":"Solothurn"},"status":"Real"},{"key":"10069275","name":"Anzenwil","postalCode":"9608","locality":"Ganterschwil","commune":{"key":"3395","name":"Bütschwil-Ganterschwil","shortName":"Bütschwil-Ganterschwil"},"district":{"key":"1727","name":"Wahlkreis Toggenburg"},"canton":{"key":"17","code":"SG","name":"St. Gallen"},"status":"Real"},{"key":"10226717","name":"Anzenwilstrasse","postalCode":"9608","locality":"Ganterschwil","commune":{"key":"3395","name":"Bütschwil-Ganterschwil","shortName":"Bütschwil-Ganterschwil"},"district":{"key":"1727","name":"Wahlkreis Toggenburg"},"canton":{"key":"17","code":"SG","name":"St. Gallen"},"status":"Real"},{"key":"10025501","name":"Auhalden","postalCode":"9608","locality":"Ganterschwil","commune":{"key":"3395","name":"Bütschwil-Ganterschwil","shortName":"Bütschwil-Ganterschwil"},"district":{"key":"1727","name":"Wahlkreis Toggenburg"},"canton":{"key":"17","code":"SG","name":"St. Gallen"},"status":"Real"},{"key":"10089868","name":"Ausserfeldstrasse","postalCode":"4228","locality":"Erschwil","commune":{"key":"2615","name":"Erschwil","shortName":"Erschwil"},"district":{"key":"1110","name":"Bezirk Thierstein"},"canton":{"key":"11","code":"SO","name":"Solothurn"},"status":"Real"},{"key":"10230830","name":"Benderichstrasse","postalCode":"9608","locality":"Ganterschwil","commune":{"key":"3395","name":"Bütschwil-Ganterschwil","shortName":"Bütschwil-Ganterschwil"},"district":{"key":"1727","name":"Wahlkreis Toggenburg"},"canton":{"key":"17","code":"SG","name":"St. Gallen"},"status":"Real"},{"key":"10025502","name":"Berg","postalCode":"9608","locality":"Ganterschwil","commune":{"key":"3395","name":"Bütschwil-Ganterschwil","shortName":"Bütschwil-Ganterschwil"},"district":{"key":"1727","name":"Wahlkreis Toggenburg"},"canton":{"key":"17","code":"SG","name":"St. Gallen"},"status":"Real"},{"key":"10213439","name":"Bergliweg","postalCode":"4228","locality":"Erschwil","commune":{"key":"2615","name":"Erschwil","shortName":"Erschwil"},"district":{"key":"1110","name":"Bezirk Thierstein"},"canton":{"key":"11","code":"SO","name":"Solothurn"},"status":"Real"},{"key":"10251136","name":"Bergstrasse","postalCode":"9608","locality":"Ganterschwil","commune":{"key":"3395","name":"Bütschwil-Ganterschwil","shortName":"Bütschwil-Ganterschwil"},"district":{"key":"1727","name":"Wahlkreis Toggenburg"},"canton":{"key":"17","code":"SG","name":"St. Gallen"},"status":"Real"},{"key":"10130016","name":"Bild","postalCode":"9608","locality":"Ganterschwil","commune":{"key":"3395","name":"Bütschwil-Ganterschwil","shortName":"Bütschwil-Ganterschwil"},"district":{"key":"1727","name":"Wahlkreis Toggenburg"},"canton":{"key":"17","code":"SG","name":"St. Gallen"},"status":"Real"},{"key":"10109168","name":"Bleiken","postalCode":"9608","locality":"Ganterschwil","commune":{"key":"3395","name":"Bütschwil-Ganterschwil","shortName":"Bütschwil-Ganterschwil"},"district":{"key":"1727","name":"Wahlkreis Toggenburg"},"canton":{"key":"17","code":"SG","name":"St. Gallen"},"status":"Real"},{"key":"10226749","name":"Bleiken-Bleikenwaldstrasse","postalCode":"9608","locality":"Ganterschwil","commune":{"key":"3395","name":"Bütschwil-Ganterschwil","shortName":"Bütschwil-Ganterschwil"},"district":{"key":"1727","name":"Wahlkreis Toggenburg"},"canton":{"key":"17","code":"SG","name":"St. Gallen"},"status":"Real"},{"key":"10226752","name":"Bleiken-Fübergstrasse","postalCode":"9608","locality":"Ganterschwil","commune":{"key":"3395","name":"Bütschwil-Ganterschwil","shortName":"Bütschwil-Ganterschwil"},"district":{"key":"1727","name":"Wahlkreis Toggenburg"},"canton":{"key":"17","code":"SG","name":"St. Gallen"},"status":"Real"},{"key":"10226756","name":"Bleikenstrasse","postalCode":"9608","locality":"Ganterschwil","commune":{"key":"3395","name":"Bütschwil-Ganterschwil","shortName":"Bütschwil-Ganterschwil"},"district":{"key":"1727","name":"Wahlkreis Toggenburg"},"canton":{"key":"17","code":"SG","name":"St. Gallen"},"status":"Real"},{"key":"10106807","name":"Blumenrainstrasse","postalCode":"9608","locality":"Ganterschwil","commune":{"key":"3395","name":"Bütschwil-Ganterschwil","shortName":"Bütschwil-Ganterschwil"},"district":{"key":"1727","name":"Wahlkreis Toggenburg"},"canton":{"key":"17","code":"SG","name":"St. Gallen"},"status":"Real"},{"key":"10226768","name":"Böppelweg","postalCode":"9608","locality":"Ganterschwil","commune":{"key":"3395","name":"Bütschwil-Ganterschwil","shortName":"Bütschwil-Ganterschwil"},"district":{"key":"1727","name":"Wahlkreis Toggenburg"},"canton":{"key":"17","code":"SG","name":"St. Gallen"},"status":"Real"},{"key":"10226772","name":"Bötschberg","postalCode":"9608","locality":"Ganterschwil","commune":{"key":"3395","name":"Bütschwil-Ganterschwil","shortName":"Bütschwil-Ganterschwil"},"district":{"key":"1727","name":"Wahlkreis Toggenburg"},"canton":{"key":"17","code":"SG","name":"St. Gallen"},"status":"Real"},{"key":"10226776","name":"Bötschbergstrasse","postalCode":"9608","locality":"Ganterschwil","commune":{"key":"3395","name":"Bütschwil-Ganterschwil","shortName":"Bütschwil-Ganterschwil"},"district":{"key":"1727","name":"Wahlkreis Toggenburg"},"canton":{"key":"17","code":"SG","name":"St. Gallen"},"status":"Real"},{"key":"10025503","name":"Bräker-Strasse","postalCode":"9608","locality":"Ganterschwil","commune":{"key":"3395","name":"Bütschwil-Ganterschwil","shortName":"Bütschwil-Ganterschwil"},"district":{"key":"1727","name":"Wahlkreis Toggenburg"},"canton":{"key":"17","code":"SG","name":"St. Gallen"},"status":"Real"},{"key":"10057198","name":"Breiti","postalCode":"9608","locality":"Ganterschwil","commune":{"key":"3395","name":"Bütschwil-Ganterschwil","shortName":"Bütschwil-Ganterschwil"},"district":{"key":"1727","name":"Wahlkreis Toggenburg"},"canton":{"key":"17","code":"SG","name":"St. Gallen"},"status":"Real"},{"key":"10226788","name":"Bruedertöbeli-Höhlenweg","postalCode":"9608","locality":"Ganterschwil","commune":{"key":"3395","name":"Bütschwil-Ganterschwil","shortName":"Bütschwil-Ganterschwil"},"district":{"key":"1727","name":"Wahlkreis Toggenburg"},"canton":{"key":"17","code":"SG","name":"St. Gallen"},"status":"Real"},{"key":"10226792","name":"Bruedertöbelistrasse","postalCode":"9608","locality":"Ganterschwil","commune":{"key":"3395","name":"Bütschwil-Ganterschwil","shortName":"Bütschwil-Ganterschwil"},"district":{"key":"1727","name":"Wahlkreis Toggenburg"},"canton":{"key":"17","code":"SG","name":"St. Gallen"},"status":"Real"},{"key":"10055435","name":"Brühlweg","postalCode":"4228","locality":"Erschwil","commune":{"key":"2615","name":"Erschwil","shortName":"Erschwil"},"district":{"key":"1110","name":"Bezirk Thierstein"},"canton":{"key":"11","code":"SO","name":"Solothurn"},"status":"Real"},{"key":"10025504","name":"Buech","postalCode":"9608","locality":"Ganterschwil","commune":{"key":"3395","name":"Bütschwil-Ganterschwil","shortName":"Bütschwil-Ganterschwil"},"district":{"key":"1727","name":"Wahlkreis Toggenburg"},"canton":{"key":"17","code":"SG","name":"St. Gallen"},"status":"Real"},{"key":"10117174","name":"Buechstrasse","postalCode":"9608","locality":"Ganterschwil","commune":{"key":"3395","name":"Bütschwil-Ganterschwil","shortName":"Bütschwil-Ganterschwil"},"district":{"key":"1727","name":"Wahlkreis Toggenburg"},"canton":{"key":"17","code":"SG","name":"St. Gallen"},"status":"Real"},{"key":"10226796","name":"Buechweg","postalCode":"9608","locality":"Ganterschwil","commune":{"key":"3395","name":"Bütschwil-Ganterschwil","shortName":"Bütschwil-Ganterschwil"},"district":{"key":"1727","name":"Wahlkreis Toggenburg"},"canton":{"key":"17","code":"SG","name":"St. Gallen"},"status":"Real"},{"key":"10226808","name":"Buntweg","postalCode":"9608","locality":"Ganterschwil","commune":{"key":"3395","name":"Bütschwil-Ganterschwil","shortName":"Bütschwil-Ganterschwil"},"district":{"key":"1727","name":"Wahlkreis Toggenburg"},"canton":{"key":"17","code":"SG","name":"St. Gallen"},"status":"Real"},{"key":"10156143","name":"Büsserachstrasse","postalCode":"4228","locality":"Erschwil","commune":{"key":"2615","name":"Erschwil","shortName":"Erschwil"},"district":{"key":"1110","name":"Bezirk Thierstein"},"canton":{"key":"11","code":"SO","name":"Solothurn"},"status":"Real"},{"key":"10213444","name":"Chäselweg","postalCode":"4228","locality":"Erschwil","commune":{"key":"2615","name":"Erschwil","shortName":"Erschwil"},"district":{"key":"1110","name":"Bezirk Thierstein"},"canton":{"key":"11","code":"SO","name":"Solothurn"},"status":"Real"},{"key":"10230955","name":"Drahtsteg nach Bütschwil","postalCode":"9608","locality":"Ganterschwil","commune":{"key":"3395","name":"Bütschwil-Ganterschwil","shortName":"Bütschwil-Ganterschwil"},"district":{"key":"1727","name":"Wahlkreis Toggenburg"},"canton":{"key":"17","code":"SG","name":"St. Gallen"},"status":"Real"},{"key":"10230959","name":"Drahtstegweg","postalCode":"9608","locality":"Ganterschwil","commune":{"key":"3395","name":"Bütschwil-Ganterschwil","shortName":"Bütschwil-Ganterschwil"},"district":{"key":"1727","name":"Wahlkreis Toggenburg"},"canton":{"key":"17","code":"SG","name":"St. Gallen"},"status":"Real"},{"key":"10230963","name":"Drahtstegweg-Ost","postalCode":"9608","locality":"Ganterschwil","commune":{"key":"3395","name":"Bütschwil-Ganterschwil","shortName":"Bütschwil-Ganterschwil"},"district":{"key":"1727","name":"Wahlkreis Toggenburg"},"canton":{"key":"17","code":"SG","name":"St. Gallen"},"status":"Real"},{"key":"10063764","name":"Ebnetweg","postalCode":"4228","locality":"Erschwil","commune":{"key":"2615","name":"Erschwil","shortName":"Erschwil"},"district":{"key":"1110","name":"Bezirk Thierstein"},"canton":{"key":"11","code":"SO","name":"Solothurn"},"status":"Real"},{"key":"10055436","name":"Erzstrasse","postalCode":"4228","locality":"Erschwil","commune":{"key":"2615","name":"Erschwil","shortName":"Erschwil"},"district":{"key":"1110","name":"Bezirk Thierstein"},"canton":{"key":"11","code":"SO","name":"Solothurn"},"status":"Real"},{"key":"10241815","name":"Fasnachtshübeli","postalCode":"4228","locality":"Erschwil","commune":{"key":"2615","name":"Erschwil","shortName":"Erschwil"},"district":{"key":"1110","name":"Bezirk Thierstein"},"canton":{"key":"11","code":"SO","name":"Solothurn"},"status":"Real"},{"key":"10181957","name":"Feld","postalCode":"9608","locality":"Ganterschwil","commune":{"key":"3395","name":"Bütschwil-Ganterschwil","shortName":"Bütschwil-Ganterschwil"},"district":{"key":"1727","name":"Wahlkreis Toggenburg"},"canton":{"key":"17","code":"SG","name":"St. Gallen"},"status":"Real"},{"key":"10145029","name":"Feldeggstrasse","postalCode":"9608","locality":"Ganterschwil","commune":{"key":"3395","name":"Bütschwil-Ganterschwil","shortName":"Bütschwil-Ganterschwil"},"district":{"key":"1727","name":"Wahlkreis Toggenburg"},"canton":{"key":"17","code":"SG","name":"St. Gallen"},"status":"Real"},{"key":"10025505","name":"Feldstrasse","postalCode":"9608","locality":"Ganterschwil","commune":{"key":"3395","name":"Bütschwil-Ganterschwil","shortName":"Bütschwil-Ganterschwil"},"district":{"key":"1727","name":"Wahlkreis Toggenburg"},"canton":{"key":"17","code":"SG","name":"St. Gallen"},"status":"Real"},{"key":"10025506","name":"Florastrasse","postalCode":"9608","locality":"Ganterschwil","commune":{"key":"3395","name":"Bütschwil-Ganterschwil","shortName":"Bütschwil-Ganterschwil"},"district":{"key":"1727","name":"Wahlkreis Toggenburg"},"canton":{"key":"17","code":"SG","name":"St. Gallen"},"status":"Real"},{"key":"10213448","name":"Forstweg","postalCode":"4228","locality":"Erschwil","commune":{"key":"2615","name":"Erschwil","shortName":"Erschwil"},"district":{"key":"1110","name":"Bezirk Thierstein"},"canton":{"key":"11","code":"SO","name":"Solothurn"},"status":"Real"},{"key":"10213450","name":"Frauenholzweg","postalCode":"4228","locality":"Erschwil","commune":{"key":"2615","name":"Erschwil","shortName":"Erschwil"},"district":{"key":"1110","name":"Bezirk Thierstein"},"canton":{"key":"11","code":"SO","name":"Solothurn"},"status":"Real"},{"key":"10057199","name":"Freudenau","postalCode":"9608","locality":"Ganterschwil","commune":{"key":"3395","name":"Bütschwil-Ganterschwil","shortName":"Bütschwil-Ganterschwil"},"district":{"key":"1727","name":"Wahlkreis Toggenburg"},"canton":{"key":"17","code":"SG","name":"St. Gallen"},"status":"Real"},{"key":"10230999","name":"Freudenaustrasse","postalCode":"9608","locality":"Ganterschwil","commune":{"key":"3395","name":"Bütschwil-Ganterschwil","shortName":"Bütschwil-Ganterschwil"},"district":{"key":"1727","name":"Wahlkreis Toggenburg"},"canton":{"key":"17","code":"SG","name":"St. Gallen"},"status":"Real"},{"key":"10069276","name":"Friedaustrasse","postalCode":"9608","locality":"Ganterschwil","commune":{"key":"3395","name":"Bütschwil-Ganterschwil","shortName":"Bütschwil-Ganterschwil"},"district":{"key":"1727","name":"Wahlkreis Toggenburg"},"canton":{"key":"17","code":"SG","name":"St. Gallen"},"status":"Real"},{"key":"10091385","name":"Frohsinnstrasse","postalCode":"9608","locality":"Ganterschwil","commune":{"key":"3395","name":"Bütschwil-Ganterschwil","shortName":"Bütschwil-Ganterschwil"},"district":{"key":"1727","name":"Wahlkreis Toggenburg"},"canton":{"key":"17","code":"SG","name":"St. Gallen"},"status":"Real"},{"key":"10231004","name":"Fübergstrasse","postalCode":"9608","locality":"Ganterschwil","commune":{"key":"3395","name":"Bütschwil-Ganterschwil","shortName":"Bütschwil-Ganterschwil"},"district":{"key":"1727","name":"Wahlkreis Toggenburg"},"canton":{"key":"17","code":"SG","name":"St. Gallen"},"status":"Real"},{"key":"10025507","name":"Gartenweg","postalCode":"9608","locality":"Ganterschwil","commune":{"key":"3395","name":"Bütschwil-Ganterschwil","shortName":"Bütschwil-Ganterschwil"},"district":{"key":"1727","name":"Wahlkreis Toggenburg"},"canton":{"key":"17","code":"SG","name":"St. Gallen"},"status":"Real"},{"key":"10191059","name":"Gartikon","postalCode":"9608","locality":"Ganterschwil","commune":{"key":"3395","name":"Bütschwil-Ganterschwil","shortName":"Bütschwil-Ganterschwil"},"district":{"key":"1727","name":"Wahlkreis Toggenburg"},"canton":{"key":"17","code":"SG","name":"St. Gallen"},"status":"Real"},{"key":"10231008","name":"Gartikonweg","postalCode":"9608","locality":"Ganterschwil","commune":{"key":"3395","name":"Bütschwil-Ganterschwil","shortName":"Bütschwil-Ganterschwil"},"district":{"key":"1727","name":"Wahlkreis Toggenburg"},"canton":{"key":"17","code":"SG","name":"St. Gallen"},"status":"Real"},{"key":"10181958","name":"Geissberg","postalCode":"9608","locality":"Ganterschwil","commune":{"key":"3395","name":"Bütschwil-Ganterschwil","shortName":"Bütschwil-Ganterschwil"},"district":{"key":"1727","name":"Wahlkreis Toggenburg"},"canton":{"key":"17","code":"SG","name":"St. Gallen"},"status":"Real"},{"key":"10250879","name":"Geissbergstrasse","postalCode":"9608","locality":"Ganterschwil","commune":{"key":"3395","name":"Bütschwil-Ganterschwil","shortName":"Bütschwil-Ganterschwil"},"district":{"key":"1727","name":"Wahlkreis Toggenburg"},"canton":{"key":"17","code":"SG","name":"St. Gallen"},"status":"Real"},{"key":"10229442","name":"Geissberg-Tobelackerweg","postalCode":"9608","locality":"Ganterschwil","commune":{"key":"3395","name":"Bütschwil-Ganterschwil","shortName":"Bütschwil-Ganterschwil"},"district":{"key":"1727","name":"Wahlkreis Toggenburg"},"canton":{"key":"17","code":"SG","name":"St. Gallen"},"status":"Real"},{"key":"10229458","name":"Geissberg-Zielackerstrasse","postalCode":"9608","locality":"Ganterschwil","commune":{"key":"3395","name":"Bütschwil-Ganterschwil","shortName":"Bütschwil-Ganterschwil"},"district":{"key":"1727","name":"Wahlkreis Toggenburg"},"canton":{"key":"17","code":"SG","name":"St. Gallen"},"status":"Real"},{"key":"10070389","name":"Geren","postalCode":"9608","locality":"Ganterschwil","commune":{"key":"3395","name":"Bütschwil-Ganterschwil","shortName":"Bütschwil-Ganterschwil"},"district":{"key":"1727","name":"Wahlkreis Toggenburg"},"canton":{"key":"17","code":"SG","name":"St. Gallen"},"status":"Real"},{"key":"10213455","name":"Gerstelweg","postalCode":"4228","locality":"Erschwil","commune":{"key":"2615","name":"Erschwil","shortName":"Erschwil"},"district":{"key":"1110","name":"Bezirk Thierstein"},"canton":{"key":"11","code":"SO","name":"Solothurn"},"status":"Real"},{"key":"10091386","name":"Grünaustrasse","postalCode":"9608","locality":"Ganterschwil","commune":{"key":"3395","name":"Bütschwil-Ganterschwil","shortName":"Bütschwil-Ganterschwil"},"district":{"key":"1727","name":"Wahlkreis Toggenburg"},"canton":{"key":"17","code":"SG","name":"St. Gallen"},"status":"Real"},{"key":"10023715","name":"Grundstrasse","postalCode":"9608","locality":"Ganterschwil","commune":{"key":"3395","name":"Bütschwil-Ganterschwil","shortName":"Bütschwil-Ganterschwil"},"district":{"key":"1727","name":"Wahlkreis Toggenburg"},"canton":{"key":"17","code":"SG","name":"St. Gallen"},"status":"Real"},{"key":"10229498","name":"Grundweg","postalCode":"9608","locality":"Ganterschwil","commune":{"key":"3395","name":"Bütschwil-Ganterschwil","shortName":"Bütschwil-Ganterschwil"},"district":{"key":"1727","name":"Wahlkreis Toggenburg"},"canton":{"key":"17","code":"SG","name":"St. Gallen"},"status":"Real"},{"key":"10184852","name":"Hagenau","postalCode":"9608","locality":"Ganterschwil","commune":{"key":"3395","name":"Bütschwil-Ganterschwil","shortName":"Bütschwil-Ganterschwil"},"district":{"key":"1727","name":"Wahlkreis Toggenburg"},"canton":{"key":"17","code":"SG","name":"St. Gallen"},"status":"Real"},{"key":"10229522","name":"Hagenaustrasse","postalCode":"9608","locality":"Ganterschwil","commune":{"key":"3395","name":"Bütschwil-Ganterschwil","shortName":"Bütschwil-Ganterschwil"},"district":{"key":"1727","name":"Wahlkreis Toggenburg"},"canton":{"key":"17","code":"SG","name":"St. Gallen"},"status":"Real"},{"key":"10251208","name":"Halden","postalCode":"9608","locality":"Ganterschwil","commune":{"key":"3395","name":"Bütschwil-Ganterschwil","shortName":"Bütschwil-Ganterschwil"},"district":{"key":"1727","name":"Wahlkreis Toggenburg"},"canton":{"key":"17","code":"SG","name":"St. Gallen"},"status":"Real"},{"key":"10070390","name":"Halden","postalCode":"9608","locality":"Ganterschwil","commune":{"key":"3395","name":"Bütschwil-Ganterschwil","shortName":"Bütschwil-Ganterschwil"},"district":{"key":"1727","name":"Wahlkreis Toggenburg"},"canton":{"key":"17","code":"SG","name":"St. Gallen"},"status":"Real"},{"key":"10224107","name":"Haldenbergweg","postalCode":"9608","locality":"Ganterschwil","commune":{"key":"3395","name":"Bütschwil-Ganterschwil","shortName":"Bütschwil-Ganterschwil"},"district":{"key":"1727","name":"Wahlkreis Toggenburg"},"canton":{"key":"17","code":"SG","name":"St. Gallen"},"status":"Real"},{"key":"10225539","name":"Haldenstrasse","postalCode":"9608","locality":"Ganterschwil","commune":{"key":"3395","name":"Bütschwil-Ganterschwil","shortName":"Bütschwil-Ganterschwil"},"district":{"key":"1727","name":"Wahlkreis Toggenburg"},"canton":{"key":"17","code":"SG","name":"St. Gallen"},"status":"Real"},{"key":"10225543","name":"Haldenweg","postalCode":"9608","locality":"Ganterschwil","commune":{"key":"3395","name":"Bütschwil-Ganterschwil","shortName":"Bütschwil-Ganterschwil"},"district":{"key":"1727","name":"Wahlkreis Toggenburg"},"canton":{"key":"17","code":"SG","name":"St. Gallen"},"status":"Real"},{"key":"10229530","name":"Haldenweg","postalCode":"9608","locality":"Ganterschwil","commune":{"key":"3395","name":"Bütschwil-Ganterschwil","shortName":"Bütschwil-Ganterschwil"},"district":{"key":"1727","name":"Wahlkreis Toggenburg"},"canton":{"key":"17","code":"SG","name":"St. Gallen"},"status":"Real"},{"key":"10229538","name":"Harz-Berg-Weg","postalCode":"9608","locality":"Ganterschwil","commune":{"key":"3395","name":"Bütschwil-Ganterschwil","shortName":"Bütschwil-Ganterschwil"},"district":{"key":"1727","name":"Wahlkreis Toggenburg"},"canton":{"key":"17","code":"SG","name":"St. Gallen"},"status":"Real"},{"key":"10023716","name":"Harzstrasse","postalCode":"9608","locality":"Ganterschwil","commune":{"key":"3395","name":"Bütschwil-Ganterschwil","shortName":"Bütschwil-Ganterschwil"},"district":{"key":"1727","name":"Wahlkreis Toggenburg"},"canton":{"key":"17","code":"SG","name":"St. Gallen"},"status":"Real"},{"key":"10229547","name":"Harz-Weg","postalCode":"9608","locality":"Ganterschwil","commune":{"key":"3395","name":"Bütschwil-Ganterschwil","shortName":"Bütschwil-Ganterschwil"},"district":{"key":"1727","name":"Wahlkreis Toggenburg"},"canton":{"key":"17","code":"SG","name":"St. Gallen"},"status":"Real"},{"key":"10109169","name":"Hengarten","postalCode":"9608","locality":"Ganterschwil","commune":{"key":"3395","name":"Bütschwil-Ganterschwil","shortName":"Bütschwil-Ganterschwil"},"district":{"key":"1727","name":"Wahlkreis Toggenburg"},"canton":{"key":"17","code":"SG","name":"St. Gallen"},"status":"Real"},{"key":"10023717","name":"Hengartensteig","postalCode":"9608","locality":"Ganterschwil","commune":{"key":"3395","name":"Bütschwil-Ganterschwil","shortName":"Bütschwil-Ganterschwil"},"district":{"key":"1727","name":"Wahlkreis Toggenburg"},"canton":{"key":"17","code":"SG","name":"St. Gallen"},"status":"Real"},{"key":"10229599","name":"Hengartenstrasse","postalCode":"9608","locality":"Ganterschwil","commune":{"key":"3395","name":"Bütschwil-Ganterschwil","shortName":"Bütschwil-Ganterschwil"},"district":{"key":"1727","name":"Wahlkreis Toggenburg"},"canton":{"key":"17","code":"SG","name":"St. Gallen"},"status":"Real"},{"key":"10025370","name":"Hinteranzenwil","postalCode":"9608","locality":"Ganterschwil","commune":{"key":"3395","name":"Bütschwil-Ganterschwil","shortName":"Bütschwil-Ganterschwil"},"district":{"key":"1727","name":"Wahlkreis Toggenburg"},"canton":{"key":"17","code":"SG","name":"St. Gallen"},"status":"Real"},{"key":"10229635","name":"Hinteranzenwilerstrasse","postalCode":"9608","locality":"Ganterschwil","commune":{"key":"3395","name":"Bütschwil-Ganterschwil","shortName":"Bütschwil-Ganterschwil"},"district":{"key":"1727","name":"Wahlkreis Toggenburg"},"canton":{"key":"17","code":"SG","name":"St. Gallen"},"status":"Real"},{"key":"10225326","name":"Hinteranzenwilstrasse","postalCode":"9608","locality":"Ganterschwil","commune":{"key":"3395","name":"Bütschwil-Ganterschwil","shortName":"Bütschwil-Ganterschwil"},"district":{"key":"1727","name":"Wahlkreis Toggenburg"},"canton":{"key":"17","code":"SG","name":"St. Gallen"},"status":"Real"},{"key":"10102911","name":"Hochfeld","postalCode":"9608","locality":"Ganterschwil","commune":{"key":"3395","name":"Bütschwil-Ganterschwil","shortName":"Bütschwil-Ganterschwil"},"district":{"key":"1727","name":"Wahlkreis Toggenburg"},"canton":{"key":"17","code":"SG","name":"St. Gallen"},"status":"Real"},{"key":"10229647","name":"Hochfeld-Hagenaustrasse","postalCode":"9608","locality":"Ganterschwil","commune":{"key":"3395","name":"Bütschwil-Ganterschwil","shortName":"Bütschwil-Ganterschwil"},"district":{"key":"1727","name":"Wahlkreis Toggenburg"},"canton":{"key":"17","code":"SG","name":"St. Gallen"},"status":"Real"},{"key":"10161642","name":"Hof Holbach","postalCode":"4228","locality":"Erschwil","commune":{"key":"2615","name":"Erschwil","shortName":"Erschwil"},"district":{"key":"1110","name":"Bezirk Thierstein"},"canton":{"key":"11","code":"SO","name":"Solothurn"},"status":"Real"},{"key":"10156142","name":"Hof Ilbach","postalCode":"4228","locality":"Erschwil","commune":{"key":"2615","name":"Erschwil","shortName":"Erschwil"},"district":{"key":"1110","name":"Bezirk Thierstein"},"canton":{"key":"11","code":"SO","name":"Solothurn"},"status":"Real"},{"key":"10063765","name":"Hofmattweg","postalCode":"4228","locality":"Erschwil","commune":{"key":"2615","name":"Erschwil","shortName":"Erschwil"},"district":{"key":"1110","name":"Bezirk Thierstein"},"canton":{"key":"11","code":"SO","name":"Solothurn"},"status":"Real"},{"key":"10025907","name":"Hof Morbach","postalCode":"4228","locality":"Erschwil","commune":{"key":"2615","name":"Erschwil","shortName":"Erschwil"},"district":{"key":"1110","name":"Bezirk Thierstein"},"canton":{"key":"11","code":"SO","name":"Solothurn"},"status":"Real"},{"key":"10156144","name":"Hof Niederbergli","postalCode":"4228","locality":"Erschwil","commune":{"key":"2615","name":"Erschwil","shortName":"Erschwil"},"district":{"key":"1110","name":"Bezirk Thierstein"},"canton":{"key":"11","code":"SO","name":"Solothurn"},"status":"Real"},{"key":"10156145","name":"Hof Oberbergli","postalCode":"4228","locality":"Erschwil","commune":{"key":"2615","name":"Erschwil","shortName":"Erschwil"},"district":{"key":"1110","name":"Bezirk Thierstein"},"canton":{"key":"11","code":"SO","name":"Solothurn"},"status":"Real"},{"key":"10025908","name":"Hof Ried","postalCode":"4228","locality":"Erschwil","commune":{"key":"2615","name":"Erschwil","shortName":"Erschwil"},"district":{"key":"1110","name":"Bezirk Thierstein"},"canton":{"key":"11","code":"SO","name":"Solothurn"},"status":"Real"},{"key":"10103415","name":"Hof Schmalen","postalCode":"4228","locality":"Erschwil","commune":{"key":"2615","name":"Erschwil","shortName":"Erschwil"},"district":{"key":"1110","name":"Bezirk Thierstein"},"canton":{"key":"11","code":"SO","name":"Solothurn"},"status":"Real"},{"key":"10213459","name":"Hoggenweg","postalCode":"4228","locality":"Erschwil","commune":{"key":"2615","name":"Erschwil","shortName":"Erschwil"},"district":{"key":"1110","name":"Bezirk Thierstein"},"canton":{"key":"11","code":"SO","name":"Solothurn"},"status":"Real"},{"key":"10231447","name":"Höhgwaldstrasse","postalCode":"9608","locality":"Ganterschwil","commune":{"key":"3395","name":"Bütschwil-Ganterschwil","shortName":"Bütschwil-Ganterschwil"},"district":{"key":"1727","name":"Wahlkreis Toggenburg"},"canton":{"key":"17","code":"SG","name":"St. Gallen"},"status":"Real"},{"key":"10175133","name":"Holackerweg","postalCode":"4228","locality":"Erschwil","commune":{"key":"2615","name":"Erschwil","shortName":"Erschwil"},"district":{"key":"1110","name":"Bezirk Thierstein"},"canton":{"key":"11","code":"SO","name":"Solothurn"},"status":"Real"},{"key":"10154990","name":"Holbachgrabenweg","postalCode":"4228","locality":"Erschwil","commune":{"key":"2615","name":"Erschwil","shortName":"Erschwil"},"district":{"key":"1110","name":"Bezirk Thierstein"},"canton":{"key":"11","code":"SO","name":"Solothurn"},"status":"Real"},{"key":"10108249","name":"Holbachstrasse","postalCode":"4228","locality":"Erschwil","commune":{"key":"2615","name":"Erschwil","shortName":"Erschwil"},"district":{"key":"1110","name":"Bezirk Thierstein"},"canton":{"key":"11","code":"SO","name":"Solothurn"},"status":"Real"},{"key":"10089869","name":"Hollenweg","postalCode":"4228","locality":"Erschwil","commune":{"key":"2615","name":"Erschwil","shortName":"Erschwil"},"district":{"key":"1110","name":"Bezirk Thierstein"},"canton":{"key":"11","code":"SO","name":"Solothurn"},"status":"Real"},{"key":"10229680","name":"Hööggwaldstrasse-Nord","postalCode":"9608","locality":"Ganterschwil","commune":{"key":"3395","name":"Bütschwil-Ganterschwil","shortName":"Bütschwil-Ganterschwil"},"district":{"key":"1727","name":"Wahlkreis Toggenburg"},"canton":{"key":"17","code":"SG","name":"St. Gallen"},"status":"Real"},{"key":"10229688","name":"Hööggwaldstrasse-Süd","postalCode":"9608","locality":"Ganterschwil","commune":{"key":"3395","name":"Bütschwil-Ganterschwil","shortName":"Bütschwil-Ganterschwil"},"district":{"key":"1727","name":"Wahlkreis Toggenburg"},"canton":{"key":"17","code":"SG","name":"St. Gallen"},"status":"Real"},{"key":"10229700","name":"Hööggweg","postalCode":"9608","locality":"Ganterschwil","commune":{"key":"3395","name":"Bütschwil-Ganterschwil","shortName":"Bütschwil-Ganterschwil"},"district":{"key":"1727","name":"Wahlkreis Toggenburg"},"canton":{"key":"17","code":"SG","name":"St. Gallen"},"status":"Real"},{"key":"10122890","name":"Hörnlistrasse","postalCode":"9608","locality":"Ganterschwil","commune":{"key":"3395","name":"Bütschwil-Ganterschwil","shortName":"Bütschwil-Ganterschwil"},"district":{"key":"1727","name":"Wahlkreis Toggenburg"},"canton":{"key":"17","code":"SG","name":"St. Gallen"},"status":"Real"},{"key":"10051807","name":"Ibach","postalCode":"9608","locality":"Ganterschwil","commune":{"key":"3395","name":"Bütschwil-Ganterschwil","shortName":"Bütschwil-Ganterschwil"},"district":{"key":"1727","name":"Wahlkreis Toggenburg"},"canton":{"key":"17","code":"SG","name":"St. Gallen"},"status":"Real"},{"key":"10229717","name":"Ibach-Bleikenweg","postalCode":"9608","locality":"Ganterschwil","commune":{"key":"3395","name":"Bütschwil-Ganterschwil","shortName":"Bütschwil-Ganterschwil"},"district":{"key":"1727","name":"Wahlkreis Toggenburg"},"canton":{"key":"17","code":"SG","name":"St. Gallen"},"status":"Real"},{"key":"10025909","name":"Ilbachstrasse","postalCode":"4228","locality":"Erschwil","commune":{"key":"2615","name":"Erschwil","shortName":"Erschwil"},"district":{"key":"1110","name":"Bezirk Thierstein"},"canton":{"key":"11","code":"SO","name":"Solothurn"},"status":"Real"},{"key":"10063766","name":"Im Gässli","postalCode":"4228","locality":"Erschwil","commune":{"key":"2615","name":"Erschwil","shortName":"Erschwil"},"district":{"key":"1110","name":"Bezirk Thierstein"},"canton":{"key":"11","code":"SO","name":"Solothurn"},"status":"Real"},{"key":"10168077","name":"Im Harz","postalCode":"9608","locality":"Ganterschwil","commune":{"key":"3395","name":"Bütschwil-Ganterschwil","shortName":"Bütschwil-Ganterschwil"},"district":{"key":"1727","name":"Wahlkreis Toggenburg"},"canton":{"key":"17","code":"SG","name":"St. Gallen"},"status":"Real"},{"key":"10026187","name":"Im Hof","postalCode":"4228","locality":"Erschwil","commune":{"key":"2615","name":"Erschwil","shortName":"Erschwil"},"district":{"key":"1110","name":"Bezirk Thierstein"},"canton":{"key":"11","code":"SO","name":"Solothurn"},"status":"Real"},{"key":"10026190","name":"Im Kleinfeld","postalCode":"4228","locality":"Erschwil","commune":{"key":"2615","name":"Erschwil","shortName":"Erschwil"},"district":{"key":"1110","name":"Bezirk Thierstein"},"canton":{"key":"11","code":"SO","name":"Solothurn"},"status":"Real"},{"key":"10117902","name":"Im Moos","postalCode":"4228","locality":"Erschwil","commune":{"key":"2615","name":"Erschwil","shortName":"Erschwil"},"district":{"key":"1110","name":"Bezirk Thierstein"},"canton":{"key":"11","code":"SO","name":"Solothurn"},"status":"Real"},{"key":"10026188","name":"In den alten Bündten","postalCode":"4228","locality":"Erschwil","commune":{"key":"2615","name":"Erschwil","shortName":"Erschwil"},"district":{"key":"1110","name":"Bezirk Thierstein"},"canton":{"key":"11","code":"SO","name":"Solothurn"},"status":"Real"},{"key":"10070391","name":"In der Farb","postalCode":"9608","locality":"Ganterschwil","commune":{"key":"3395","name":"Bütschwil-Ganterschwil","shortName":"Bütschwil-Ganterschwil"},"district":{"key":"1727","name":"Wahlkreis Toggenburg"},"canton":{"key":"17","code":"SG","name":"St. Gallen"},"status":"Real"},{"key":"10213461","name":"Kalchofenweg","postalCode":"4228","locality":"Erschwil","commune":{"key":"2615","name":"Erschwil","shortName":"Erschwil"},"district":{"key":"1110","name":"Bezirk Thierstein"},"canton":{"key":"11","code":"SO","name":"Solothurn"},"status":"Real"},{"key":"10259031","name":"Käppeliweg","postalCode":"4228","locality":"Erschwil","commune":{"key":"2615","name":"Erschwil","shortName":"Erschwil"},"district":{"key":"1110","name":"Bezirk Thierstein"},"canton":{"key":"11","code":"SO","name":"Solothurn"},"status":"Real"},{"key":"10175134","name":"Käselstrasse","postalCode":"4228","locality":"Erschwil","commune":{"key":"2615","name":"Erschwil","shortName":"Erschwil"},"district":{"key":"1110","name":"Bezirk Thierstein"},"canton":{"key":"11","code":"SO","name":"Solothurn"},"status":"Real"},{"key":"10055437","name":"Kirchbodenweg","postalCode":"4228","locality":"Erschwil","commune":{"key":"2615","name":"Erschwil","shortName":"Erschwil"},"district":{"key":"1110","name":"Bezirk Thierstein"},"canton":{"key":"11","code":"SO","name":"Solothurn"},"status":"Real"},{"key":"10026189","name":"Kirchgasse","postalCode":"4228","locality":"Erschwil","commune":{"key":"2615","name":"Erschwil","shortName":"Erschwil"},"district":{"key":"1110","name":"Bezirk Thierstein"},"canton":{"key":"11","code":"SO","name":"Solothurn"},"status":"Real"},{"key":"10063767","name":"Kirchhölleliweg","postalCode":"4228","locality":"Erschwil","commune":{"key":"2615","name":"Erschwil","shortName":"Erschwil"},"district":{"key":"1110","name":"Bezirk Thierstein"},"canton":{"key":"11","code":"SO","name":"Solothurn"},"status":"Real"},{"key":"10091387","name":"Kirchstrasse","postalCode":"9608","locality":"Ganterschwil","commune":{"key":"3395","name":"Bütschwil-Ganterschwil","shortName":"Bütschwil-Ganterschwil"},"district":{"key":"1727","name":"Wahlkreis Toggenburg"},"canton":{"key":"17","code":"SG","name":"St. Gallen"},"status":"Real"},{"key":"10229771","name":"Kirchstrasse-West","postalCode":"9608","locality":"Ganterschwil","commune":{"key":"3395","name":"Bütschwil-Ganterschwil","shortName":"Bütschwil-Ganterschwil"},"district":{"key":"1727","name":"Wahlkreis Toggenburg"},"canton":{"key":"17","code":"SG","name":"St. Gallen"},"status":"Real"},{"key":"10055438","name":"Kleinfeldweg","postalCode":"4228","locality":"Erschwil","commune":{"key":"2615","name":"Erschwil","shortName":"Erschwil"},"district":{"key":"1110","name":"Bezirk Thierstein"},"canton":{"key":"11","code":"SO","name":"Solothurn"},"status":"Real"},{"key":"10023718","name":"Landsau","postalCode":"9608","locality":"Ganterschwil","commune":{"key":"3395","name":"Bütschwil-Ganterschwil","shortName":"Bütschwil-Ganterschwil"},"district":{"key":"1727","name":"Wahlkreis Toggenburg"},"canton":{"key":"17","code":"SG","name":"St. Gallen"},"status":"Real"},{"key":"10229815","name":"Landsaustrasse","postalCode":"9608","locality":"Ganterschwil","commune":{"key":"3395","name":"Bütschwil-Ganterschwil","shortName":"Bütschwil-Ganterschwil"},"district":{"key":"1727","name":"Wahlkreis Toggenburg"},"canton":{"key":"17","code":"SG","name":"St. Gallen"},"status":"Real"},{"key":"10229827","name":"Landsau-Tobelweg","postalCode":"9608","locality":"Ganterschwil","commune":{"key":"3395","name":"Bütschwil-Ganterschwil","shortName":"Bütschwil-Ganterschwil"},"district":{"key":"1727","name":"Wahlkreis Toggenburg"},"canton":{"key":"17","code":"SG","name":"St. Gallen"},"status":"Real"},{"key":"10213465","name":"Langegrundweg","postalCode":"4228","locality":"Erschwil","commune":{"key":"2615","name":"Erschwil","shortName":"Erschwil"},"district":{"key":"1110","name":"Bezirk Thierstein"},"canton":{"key":"11","code":"SO","name":"Solothurn"},"status":"Real"},{"key":"10023719","name":"Laubberg","postalCode":"9608","locality":"Ganterschwil","commune":{"key":"3395","name":"Bütschwil-Ganterschwil","shortName":"Bütschwil-Ganterschwil"},"district":{"key":"1727","name":"Wahlkreis Toggenburg"},"canton":{"key":"17","code":"SG","name":"St. Gallen"},"status":"Real"},{"key":"10229855","name":"Laubbergstrasse","postalCode":"9608","locality":"Ganterschwil","commune":{"key":"3395","name":"Bütschwil-Ganterschwil","shortName":"Bütschwil-Ganterschwil"},"district":{"key":"1727","name":"Wahlkreis Toggenburg"},"canton":{"key":"17","code":"SG","name":"St. Gallen"},"status":"Real"},{"key":"10229863","name":"Laufen-Thur-Weg","postalCode":"9608","locality":"Ganterschwil","commune":{"key":"3395","name":"Bütschwil-Ganterschwil","shortName":"Bütschwil-Ganterschwil"},"district":{"key":"1727","name":"Wahlkreis Toggenburg"},"canton":{"key":"17","code":"SG","name":"St. Gallen"},"status":"Real"},{"key":"10070392","name":"Lehwies","postalCode":"9608","locality":"Ganterschwil","commune":{"key":"3395","name":"Bütschwil-Ganterschwil","shortName":"Bütschwil-Ganterschwil"},"district":{"key":"1727","name":"Wahlkreis Toggenburg"},"canton":{"key":"17","code":"SG","name":"St. Gallen"},"status":"Real"},{"key":"10170437","name":"Lehwies-Weg","postalCode":"9608","locality":"Ganterschwil","commune":{"key":"3395","name":"Bütschwil-Ganterschwil","shortName":"Bütschwil-Ganterschwil"},"district":{"key":"1727","name":"Wahlkreis Toggenburg"},"canton":{"key":"17","code":"SG","name":"St. Gallen"},"status":"Real"},{"key":"10213471","name":"Leimweg","postalCode":"4228","locality":"Erschwil","commune":{"key":"2615","name":"Erschwil","shortName":"Erschwil"},"district":{"key":"1110","name":"Bezirk Thierstein"},"canton":{"key":"11","code":"SO","name":"Solothurn"},"status":"Real"},{"key":"10181959","name":"Letzi","postalCode":"9608","locality":"Ganterschwil","commune":{"key":"3395","name":"Bütschwil-Ganterschwil","shortName":"Bütschwil-Ganterschwil"},"district":{"key":"1727","name":"Wahlkreis Toggenburg"},"canton":{"key":"17","code":"SG","name":"St. Gallen"},"status":"Real"},{"key":"10070393","name":"Letzistrasse","postalCode":"9608","locality":"Ganterschwil","commune":{"key":"3395","name":"Bütschwil-Ganterschwil","shortName":"Bütschwil-Ganterschwil"},"district":{"key":"1727","name":"Wahlkreis Toggenburg"},"canton":{"key":"17","code":"SG","name":"St. Gallen"},"status":"Real"},{"key":"10091388","name":"Loch","postalCode":"9608","locality":"Ganterschwil","commune":{"key":"3395","name":"Bütschwil-Ganterschwil","shortName":"Bütschwil-Ganterschwil"},"district":{"key":"1727","name":"Wahlkreis Toggenburg"},"canton":{"key":"17","code":"SG","name":"St. Gallen"},"status":"Real"},{"key":"10023720","name":"Lochermoos","postalCode":"9608","locality":"Ganterschwil","commune":{"key":"3395","name":"Bütschwil-Ganterschwil","shortName":"Bütschwil-Ganterschwil"},"district":{"key":"1727","name":"Wahlkreis Toggenburg"},"canton":{"key":"17","code":"SG","name":"St. Gallen"},"status":"Real"},{"key":"10229895","name":"Lochermoosstrasse","postalCode":"9608","locality":"Ganterschwil","commune":{"key":"3395","name":"Bütschwil-Ganterschwil","shortName":"Bütschwil-Ganterschwil"},"district":{"key":"1727","name":"Wahlkreis Toggenburg"},"canton":{"key":"17","code":"SG","name":"St. Gallen"},"status":"Real"},{"key":"10057200","name":"Löchli","postalCode":"9608","locality":"Ganterschwil","commune":{"key":"3395","name":"Bütschwil-Ganterschwil","shortName":"Bütschwil-Ganterschwil"},"district":{"key":"1727","name":"Wahlkreis Toggenburg"},"canton":{"key":"17","code":"SG","name":"St. Gallen"},"status":"Real"},{"key":"10091389","name":"Mitteldorfstrasse","postalCode":"9608","locality":"Ganterschwil","commune":{"key":"3395","name":"Bütschwil-Ganterschwil","shortName":"Bütschwil-Ganterschwil"},"district":{"key":"1727","name":"Wahlkreis Toggenburg"},"canton":{"key":"17","code":"SG","name":"St. Gallen"},"status":"Real"},{"key":"10229924","name":"Mitteldorfweg","postalCode":"9608","locality":"Ganterschwil","commune":{"key":"3395","name":"Bütschwil-Ganterschwil","shortName":"Bütschwil-Ganterschwil"},"district":{"key":"1727","name":"Wahlkreis Toggenburg"},"canton":{"key":"17","code":"SG","name":"St. Gallen"},"status":"Real"},{"key":"10070394","name":"Moos","postalCode":"9608","locality":"Ganterschwil","commune":{"key":"3395","name":"Bütschwil-Ganterschwil","shortName":"Bütschwil-Ganterschwil"},"district":{"key":"1727","name":"Wahlkreis Toggenburg"},"canton":{"key":"17","code":"SG","name":"St. Gallen"},"status":"Real"},{"key":"10225151","name":"Moos-Strasse","postalCode":"9608","locality":"Ganterschwil","commune":{"key":"3395","name":"Bütschwil-Ganterschwil","shortName":"Bütschwil-Ganterschwil"},"district":{"key":"1727","name":"Wahlkreis Toggenburg"},"canton":{"key":"17","code":"SG","name":"St. Gallen"},"status":"Real"},{"key":"10225155","name":"Moosweg","postalCode":"9608","locality":"Ganterschwil","commune":{"key":"3395","name":"Bütschwil-Ganterschwil","shortName":"Bütschwil-Ganterschwil"},"district":{"key":"1727","name":"Wahlkreis Toggenburg"},"canton":{"key":"17","code":"SG","name":"St. Gallen"},"status":"Real"},{"key":"10055439","name":"Mühleweg","postalCode":"4228","locality":"Erschwil","commune":{"key":"2615","name":"Erschwil","shortName":"Erschwil"},"district":{"key":"1110","name":"Bezirk Thierstein"},"canton":{"key":"11","code":"SO","name":"Solothurn"},"status":"Real"},{"key":"10023721","name":"Neckerau","postalCode":"9608","locality":"Ganterschwil","commune":{"key":"3395","name":"Bütschwil-Ganterschwil","shortName":"Bütschwil-Ganterschwil"},"district":{"key":"1727","name":"Wahlkreis Toggenburg"},"canton":{"key":"17","code":"SG","name":"St. Gallen"},"status":"Real"},{"key":"10023722","name":"Neckertalstrasse","postalCode":"9608","locality":"Ganterschwil","commune":{"key":"3395","name":"Bütschwil-Ganterschwil","shortName":"Bütschwil-Ganterschwil"},"district":{"key":"1727","name":"Wahlkreis Toggenburg"},"canton":{"key":"17","code":"SG","name":"St. Gallen"},"status":"Real"},{"key":"10063768","name":"Niederebnetstrasse","postalCode":"4228","locality":"Erschwil","commune":{"key":"2615","name":"Erschwil","shortName":"Erschwil"},"district":{"key":"1110","name":"Bezirk Thierstein"},"canton":{"key":"11","code":"SO","name":"Solothurn"},"status":"Real"},{"key":"10057201","name":"Niederfeld","postalCode":"9608","locality":"Ganterschwil","commune":{"key":"3395","name":"Bütschwil-Ganterschwil","shortName":"Bütschwil-Ganterschwil"},"district":{"key":"1727","name":"Wahlkreis Toggenburg"},"canton":{"key":"17","code":"SG","name":"St. Gallen"},"status":"Real"},{"key":"10225175","name":"Niederfeld-Hengarten-Weg","postalCode":"9608","locality":"Ganterschwil","commune":{"key":"3395","name":"Bütschwil-Ganterschwil","shortName":"Bütschwil-Ganterschwil"},"district":{"key":"1727","name":"Wahlkreis Toggenburg"},"canton":{"key":"17","code":"SG","name":"St. Gallen"},"status":"Real"},{"key":"10231509","name":"Niederfeldweg","postalCode":"9608","locality":"Ganterschwil","commune":{"key":"3395","name":"Bütschwil-Ganterschwil","shortName":"Bütschwil-Ganterschwil"},"district":{"key":"1727","name":"Wahlkreis Toggenburg"},"canton":{"key":"17","code":"SG","name":"St. Gallen"},"status":"Real"},{"key":"10110154","name":"Nonnenbrühlstrasse","postalCode":"4228","locality":"Erschwil","commune":{"key":"2615","name":"Erschwil","shortName":"Erschwil"},"district":{"key":"1110","name":"Bezirk Thierstein"},"canton":{"key":"11","code":"SO","name":"Solothurn"},"status":"Real"},{"key":"10250883","name":"Oberdorfstrasse","postalCode":"9608","locality":"Ganterschwil","commune":{"key":"3395","name":"Bütschwil-Ganterschwil","shortName":"Bütschwil-Ganterschwil"},"district":{"key":"1727","name":"Wahlkreis Toggenburg"},"canton":{"key":"17","code":"SG","name":"St. Gallen"},"status":"Real"},{"key":"10070395","name":"Oetschwil","postalCode":"9608","locality":"Ganterschwil","commune":{"key":"3395","name":"Bütschwil-Ganterschwil","shortName":"Bütschwil-Ganterschwil"},"district":{"key":"1727","name":"Wahlkreis Toggenburg"},"canton":{"key":"17","code":"SG","name":"St. Gallen"},"status":"Real"},{"key":"10226198","name":"Oetschwil-Aewil-Weg","postalCode":"9608","locality":"Ganterschwil","commune":{"key":"3395","name":"Bütschwil-Ganterschwil","shortName":"Bütschwil-Ganterschwil"},"district":{"key":"1727","name":"Wahlkreis Toggenburg"},"canton":{"key":"17","code":"SG","name":"St. Gallen"},"status":"Real"},{"key":"10226202","name":"Oetschwiler-Querstrasse","postalCode":"9608","locality":"Ganterschwil","commune":{"key":"3395","name":"Bütschwil-Ganterschwil","shortName":"Bütschwil-Ganterschwil"},"district":{"key":"1727","name":"Wahlkreis Toggenburg"},"canton":{"key":"17","code":"SG","name":"St. Gallen"},"status":"Real"},{"key":"10226206","name":"Oetschwilerstrasse","postalCode":"9608","locality":"Ganterschwil","commune":{"key":"3395","name":"Bütschwil-Ganterschwil","shortName":"Bütschwil-Ganterschwil"},"district":{"key":"1727","name":"Wahlkreis Toggenburg"},"canton":{"key":"17","code":"SG","name":"St. Gallen"},"status":"Real"},{"key":"10231607","name":"Oetschwilerstrasse-Ost","postalCode":"9608","locality":"Ganterschwil","commune":{"key":"3395","name":"Bütschwil-Ganterschwil","shortName":"Bütschwil-Ganterschwil"},"district":{"key":"1727","name":"Wahlkreis Toggenburg"},"canton":{"key":"17","code":"SG","name":"St. Gallen"},"status":"Real"},{"key":"10055440","name":"Passwangstrasse","postalCode":"4228","locality":"Erschwil","commune":{"key":"2615","name":"Erschwil","shortName":"Erschwil"},"district":{"key":"1110","name":"Bezirk Thierstein"},"canton":{"key":"11","code":"SO","name":"Solothurn"},"status":"Real"},{"key":"10231615","name":"Pfaffenholzstrasse","postalCode":"9608","locality":"Ganterschwil","commune":{"key":"3395","name":"Bütschwil-Ganterschwil","shortName":"Bütschwil-Ganterschwil"},"district":{"key":"1727","name":"Wahlkreis Toggenburg"},"canton":{"key":"17","code":"SG","name":"St. Gallen"},"status":"Real"},{"key":"10213474","name":"Riedbergweg","postalCode":"4228","locality":"Erschwil","commune":{"key":"2615","name":"Erschwil","shortName":"Erschwil"},"district":{"key":"1110","name":"Bezirk Thierstein"},"canton":{"key":"11","code":"SO","name":"Solothurn"},"status":"Real"},{"key":"10213479","name":"Riedholleweg","postalCode":"4228","locality":"Erschwil","commune":{"key":"2615","name":"Erschwil","shortName":"Erschwil"},"district":{"key":"1110","name":"Bezirk Thierstein"},"canton":{"key":"11","code":"SO","name":"Solothurn"},"status":"Real"},{"key":"10213483","name":"Riedweg","postalCode":"4228","locality":"Erschwil","commune":{"key":"2615","name":"Erschwil","shortName":"Erschwil"},"district":{"key":"1110","name":"Bezirk Thierstein"},"canton":{"key":"11","code":"SO","name":"Solothurn"},"status":"Real"},{"key":"10026191","name":"Rieselstrasse","postalCode":"4228","locality":"Erschwil","commune":{"key":"2615","name":"Erschwil","shortName":"Erschwil"},"district":{"key":"1110","name":"Bezirk Thierstein"},"canton":{"key":"11","code":"SO","name":"Solothurn"},"status":"Real"},{"key":"10086137","name":"Rossfallen","postalCode":"9608","locality":"Ganterschwil","commune":{"key":"3395","name":"Bütschwil-Ganterschwil","shortName":"Bütschwil-Ganterschwil"},"district":{"key":"1727","name":"Wahlkreis Toggenburg"},"canton":{"key":"17","code":"SG","name":"St. Gallen"},"status":"Real"},{"key":"10231675","name":"Rötschbach-Harz-Weg","postalCode":"9608","locality":"Ganterschwil","commune":{"key":"3395","name":"Bütschwil-Ganterschwil","shortName":"Bütschwil-Ganterschwil"},"district":{"key":"1727","name":"Wahlkreis Toggenburg"},"canton":{"key":"17","code":"SG","name":"St. Gallen"},"status":"Real"},{"key":"10231679","name":"Rötschbachwald","postalCode":"9608","locality":"Ganterschwil","commune":{"key":"3395","name":"Bütschwil-Ganterschwil","shortName":"Bütschwil-Ganterschwil"},"district":{"key":"1727","name":"Wahlkreis Toggenburg"},"canton":{"key":"17","code":"SG","name":"St. Gallen"},"status":"Real"},{"key":"10231687","name":"Rötschbachwaldstrasse","postalCode":"9608","locality":"Ganterschwil","commune":{"key":"3395","name":"Bütschwil-Ganterschwil","shortName":"Bütschwil-Ganterschwil"},"district":{"key":"1727","name":"Wahlkreis Toggenburg"},"canton":{"key":"17","code":"SG","name":"St. Gallen"},"status":"Real"},{"key":"10231695","name":"Rötschbachweg","postalCode":"9608","locality":"Ganterschwil","commune":{"key":"3395","name":"Bütschwil-Ganterschwil","shortName":"Bütschwil-Ganterschwil"},"district":{"key":"1727","name":"Wahlkreis Toggenburg"},"canton":{"key":"17","code":"SG","name":"St. Gallen"},"status":"Real"},{"key":"10128628","name":"Rübackerweg","postalCode":"4228","locality":"Erschwil","commune":{"key":"2615","name":"Erschwil","shortName":"Erschwil"},"district":{"key":"1110","name":"Bezirk Thierstein"},"canton":{"key":"11","code":"SO","name":"Solothurn"},"status":"Real"},{"key":"10156138","name":"Rüttigässli","postalCode":"4228","locality":"Erschwil","commune":{"key":"2615","name":"Erschwil","shortName":"Erschwil"},"district":{"key":"1110","name":"Bezirk Thierstein"},"canton":{"key":"11","code":"SO","name":"Solothurn"},"status":"Real"},{"key":"10226972","name":"Salenwaldweg","postalCode":"9608","locality":"Ganterschwil","commune":{"key":"3395","name":"Bütschwil-Ganterschwil","shortName":"Bütschwil-Ganterschwil"},"district":{"key":"1727","name":"Wahlkreis Toggenburg"},"canton":{"key":"17","code":"SG","name":"St. Gallen"},"status":"Real"},{"key":"10213487","name":"Sandhübelweg","postalCode":"4228","locality":"Erschwil","commune":{"key":"2615","name":"Erschwil","shortName":"Erschwil"},"district":{"key":"1110","name":"Bezirk Thierstein"},"canton":{"key":"11","code":"SO","name":"Solothurn"},"status":"Real"},{"key":"10213492","name":"Schemelweg","postalCode":"4228","locality":"Erschwil","commune":{"key":"2615","name":"Erschwil","shortName":"Erschwil"},"district":{"key":"1110","name":"Bezirk Thierstein"},"canton":{"key":"11","code":"SO","name":"Solothurn"},"status":"Real"},{"key":"10213496","name":"Schlifbergweg","postalCode":"4228","locality":"Erschwil","commune":{"key":"2615","name":"Erschwil","shortName":"Erschwil"},"district":{"key":"1110","name":"Bezirk Thierstein"},"canton":{"key":"11","code":"SO","name":"Solothurn"},"status":"Real"},{"key":"10213500","name":"Schliffengrabenweg","postalCode":"4228","locality":"Erschwil","commune":{"key":"2615","name":"Erschwil","shortName":"Erschwil"},"district":{"key":"1110","name":"Bezirk Thierstein"},"canton":{"key":"11","code":"SO","name":"Solothurn"},"status":"Real"},{"key":"10213505","name":"Schlifweg","postalCode":"4228","locality":"Erschwil","commune":{"key":"2615","name":"Erschwil","shortName":"Erschwil"},"district":{"key":"1110","name":"Bezirk Thierstein"},"canton":{"key":"11","code":"SO","name":"Solothurn"},"status":"Real"},{"key":"10181960","name":"Schlipf","postalCode":"9608","locality":"Ganterschwil","commune":{"key":"3395","name":"Bütschwil-Ganterschwil","shortName":"Bütschwil-Ganterschwil"},"district":{"key":"1727","name":"Wahlkreis Toggenburg"},"canton":{"key":"17","code":"SG","name":"St. Gallen"},"status":"Real"},{"key":"10026192","name":"Schmalenweg","postalCode":"4228","locality":"Erschwil","commune":{"key":"2615","name":"Erschwil","shortName":"Erschwil"},"district":{"key":"1110","name":"Bezirk Thierstein"},"canton":{"key":"11","code":"SO","name":"Solothurn"},"status":"Real"},{"key":"10026193","name":"Schmelzistrasse","postalCode":"4228","locality":"Erschwil","commune":{"key":"2615","name":"Erschwil","shortName":"Erschwil"},"district":{"key":"1110","name":"Bezirk Thierstein"},"canton":{"key":"11","code":"SO","name":"Solothurn"},"status":"Real"},{"key":"10251161","name":"Schulhausweg","postalCode":"9608","locality":"Ganterschwil","commune":{"key":"3395","name":"Bütschwil-Ganterschwil","shortName":"Bütschwil-Ganterschwil"},"district":{"key":"1727","name":"Wahlkreis Toggenburg"},"canton":{"key":"17","code":"SG","name":"St. Gallen"},"status":"Real"},{"key":"10055441","name":"Schulstrasse","postalCode":"4228","locality":"Erschwil","commune":{"key":"2615","name":"Erschwil","shortName":"Erschwil"},"district":{"key":"1110","name":"Bezirk Thierstein"},"canton":{"key":"11","code":"SO","name":"Solothurn"},"status":"Real"},{"key":"10213509","name":"Söllackerweg","postalCode":"4228","locality":"Erschwil","commune":{"key":"2615","name":"Erschwil","shortName":"Erschwil"},"district":{"key":"1110","name":"Bezirk Thierstein"},"canton":{"key":"11","code":"SO","name":"Solothurn"},"status":"Real"},{"key":"10135350","name":"Sonnengrundstrasse","postalCode":"9608","locality":"Ganterschwil","commune":{"key":"3395","name":"Bütschwil-Ganterschwil","shortName":"Bütschwil-Ganterschwil"},"district":{"key":"1727","name":"Wahlkreis Toggenburg"},"canton":{"key":"17","code":"SG","name":"St. Gallen"},"status":"Real"},{"key":"10057202","name":"Sonnenhalden","postalCode":"9608","locality":"Ganterschwil","commune":{"key":"3395","name":"Bütschwil-Ganterschwil","shortName":"Bütschwil-Ganterschwil"},"district":{"key":"1727","name":"Wahlkreis Toggenburg"},"canton":{"key":"17","code":"SG","name":"St. Gallen"},"status":"Real"},{"key":"10070396","name":"Sonnenhofstrasse","postalCode":"9608","locality":"Ganterschwil","commune":{"key":"3395","name":"Bütschwil-Ganterschwil","shortName":"Bütschwil-Ganterschwil"},"district":{"key":"1727","name":"Wahlkreis Toggenburg"},"canton":{"key":"17","code":"SG","name":"St. Gallen"},"status":"Real"},{"key":"10109170","name":"Sonnentalstrasse","postalCode":"9608","locality":"Ganterschwil","commune":{"key":"3395","name":"Bütschwil-Ganterschwil","shortName":"Bütschwil-Ganterschwil"},"district":{"key":"1727","name":"Wahlkreis Toggenburg"},"canton":{"key":"17","code":"SG","name":"St. Gallen"},"status":"Real"},{"key":"10089870","name":"St. Benediktweg","postalCode":"4228","locality":"Erschwil","commune":{"key":"2615","name":"Erschwil","shortName":"Erschwil"},"district":{"key":"1110","name":"Bezirk Thierstein"},"canton":{"key":"11","code":"SO","name":"Solothurn"},"status":"Real"},{"key":"10259032","name":"Steinenweg","postalCode":"4228","locality":"Erschwil","commune":{"key":"2615","name":"Erschwil","shortName":"Erschwil"},"district":{"key":"1110","name":"Bezirk Thierstein"},"canton":{"key":"11","code":"SO","name":"Solothurn"},"status":"Real"},{"key":"10086138","name":"Stocken","postalCode":"9608","locality":"Ganterschwil","commune":{"key":"3395","name":"Bütschwil-Ganterschwil","shortName":"Bütschwil-Ganterschwil"},"district":{"key":"1727","name":"Wahlkreis Toggenburg"},"canton":{"key":"17","code":"SG","name":"St. Gallen"},"status":"Real"},{"key":"10231826","name":"Stockenhöchistrasse","postalCode":"9608","locality":"Ganterschwil","commune":{"key":"3395","name":"Bütschwil-Ganterschwil","shortName":"Bütschwil-Ganterschwil"},"district":{"key":"1727","name":"Wahlkreis Toggenburg"},"canton":{"key":"17","code":"SG","name":"St. Gallen"},"status":"Real"},{"key":"10231836","name":"Stockenstrasse","postalCode":"9608","locality":"Ganterschwil","commune":{"key":"3395","name":"Bütschwil-Ganterschwil","shortName":"Bütschwil-Ganterschwil"},"district":{"key":"1727","name":"Wahlkreis Toggenburg"},"canton":{"key":"17","code":"SG","name":"St. Gallen"},"status":"Real"},{"key":"10251169","name":"Taa","postalCode":"9608","locality":"Ganterschwil","commune":{"key":"3395","name":"Bütschwil-Ganterschwil","shortName":"Bütschwil-Ganterschwil"},"district":{"key":"1727","name":"Wahlkreis Toggenburg"},"canton":{"key":"17","code":"SG","name":"St. Gallen"},"status":"Real"},{"key":"10231873","name":"Taa-Ibach-Strasse","postalCode":"9608","locality":"Ganterschwil","commune":{"key":"3395","name":"Bütschwil-Ganterschwil","shortName":"Bütschwil-Ganterschwil"},"district":{"key":"1727","name":"Wahlkreis Toggenburg"},"canton":{"key":"17","code":"SG","name":"St. Gallen"},"status":"Real"},{"key":"10231881","name":"Taawald-Stockenweg","postalCode":"9608","locality":"Ganterschwil","commune":{"key":"3395","name":"Bütschwil-Ganterschwil","shortName":"Bütschwil-Ganterschwil"},"district":{"key":"1727","name":"Wahlkreis Toggenburg"},"canton":{"key":"17","code":"SG","name":"St. Gallen"},"status":"Real"},{"key":"10023725","name":"Thuraustrasse","postalCode":"9608","locality":"Ganterschwil","commune":{"key":"3395","name":"Bütschwil-Ganterschwil","shortName":"Bütschwil-Ganterschwil"},"district":{"key":"1727","name":"Wahlkreis Toggenburg"},"canton":{"key":"17","code":"SG","name":"St. Gallen"},"status":"Real"},{"key":"10213513","name":"Tittertenweg","postalCode":"4228","locality":"Erschwil","commune":{"key":"2615","name":"Erschwil","shortName":"Erschwil"},"district":{"key":"1110","name":"Bezirk Thierstein"},"canton":{"key":"11","code":"SO","name":"Solothurn"},"status":"Real"},{"key":"10126148","name":"Tobel","postalCode":"9608","locality":"Ganterschwil","commune":{"key":"3395","name":"Bütschwil-Ganterschwil","shortName":"Bütschwil-Ganterschwil"},"district":{"key":"1727","name":"Wahlkreis Toggenburg"},"canton":{"key":"17","code":"SG","name":"St. Gallen"},"status":"Real"},{"key":"10250918","name":"Tobelstrasse","postalCode":"9608","locality":"Ganterschwil","commune":{"key":"3395","name":"Bütschwil-Ganterschwil","shortName":"Bütschwil-Ganterschwil"},"district":{"key":"1727","name":"Wahlkreis Toggenburg"},"canton":{"key":"17","code":"SG","name":"St. Gallen"},"status":"Real"},{"key":"10046498","name":"Toggenburgerstrasse","postalCode":"9608","locality":"Ganterschwil","commune":{"key":"3395","name":"Bütschwil-Ganterschwil","shortName":"Bütschwil-Ganterschwil"},"district":{"key":"1727","name":"Wahlkreis Toggenburg"},"canton":{"key":"17","code":"SG","name":"St. Gallen"},"status":"Real"},{"key":"10225375","name":"Tolenweg","postalCode":"9608","locality":"Ganterschwil","commune":{"key":"3395","name":"Bütschwil-Ganterschwil","shortName":"Bütschwil-Ganterschwil"},"district":{"key":"1727","name":"Wahlkreis Toggenburg"},"canton":{"key":"17","code":"SG","name":"St. Gallen"},"status":"Real"},{"key":"10086139","name":"Ulrichenwiese","postalCode":"9608","locality":"Ganterschwil","commune":{"key":"3395","name":"Bütschwil-Ganterschwil","shortName":"Bütschwil-Ganterschwil"},"district":{"key":"1727","name":"Wahlkreis Toggenburg"},"canton":{"key":"17","code":"SG","name":"St. Gallen"},"status":"Real"},{"key":"10225379","name":"Ulrichenwiese-Süd","postalCode":"9608","locality":"Ganterschwil","commune":{"key":"3395","name":"Bütschwil-Ganterschwil","shortName":"Bütschwil-Ganterschwil"},"district":{"key":"1727","name":"Wahlkreis Toggenburg"},"canton":{"key":"17","code":"SG","name":"St. Gallen"},"status":"Real"},{"key":"10233525","name":"Unterer Fübergweg","postalCode":"9608","locality":"Ganterschwil","commune":{"key":"3395","name":"Bütschwil-Ganterschwil","shortName":"Bütschwil-Ganterschwil"},"district":{"key":"1727","name":"Wahlkreis Toggenburg"},"canton":{"key":"17","code":"SG","name":"St. Gallen"},"status":"Real"},{"key":"10233573","name":"Weidliweg","postalCode":"9608","locality":"Ganterschwil","commune":{"key":"3395","name":"Bütschwil-Ganterschwil","shortName":"Bütschwil-Ganterschwil"},"district":{"key":"1727","name":"Wahlkreis Toggenburg"},"canton":{"key":"17","code":"SG","name":"St. Gallen"},"status":"Real"},{"key":"10023726","name":"Wenzelstrasse","postalCode":"9608","locality":"Ganterschwil","commune":{"key":"3395","name":"Bütschwil-Ganterschwil","shortName":"Bütschwil-Ganterschwil"},"district":{"key":"1727","name":"Wahlkreis Toggenburg"},"canton":{"key":"17","code":"SG","name":"St. Gallen"},"status":"Real"},{"key":"10070397","name":"Wiesenstrasse","postalCode":"9608","locality":"Ganterschwil","commune":{"key":"3395","name":"Bütschwil-Ganterschwil","shortName":"Bütschwil-Ganterschwil"},"district":{"key":"1727","name":"Wahlkreis Toggenburg"},"canton":{"key":"17","code":"SG","name":"St. Gallen"},"status":"Real"},{"key":"10224427","name":"Wiesenstrasse-Nord","postalCode":"9608","locality":"Ganterschwil","commune":{"key":"3395","name":"Bütschwil-Ganterschwil","shortName":"Bütschwil-Ganterschwil"},"district":{"key":"1727","name":"Wahlkreis Toggenburg"},"canton":{"key":"17","code":"SG","name":"St. Gallen"},"status":"Real"},{"key":"10181961","name":"Wilen","postalCode":"9608","locality":"Ganterschwil","commune":{"key":"3395","name":"Bütschwil-Ganterschwil","shortName":"Bütschwil-Ganterschwil"},"district":{"key":"1727","name":"Wahlkreis Toggenburg"},"canton":{"key":"17","code":"SG","name":"St. Gallen"},"status":"Real"},{"key":"10227460","name":"Wilenstrasse","postalCode":"9608","locality":"Ganterschwil","commune":{"key":"3395","name":"Bütschwil-Ganterschwil","shortName":"Bütschwil-Ganterschwil"},"district":{"key":"1727","name":"Wahlkreis Toggenburg"},"canton":{"key":"17","code":"SG","name":"St. Gallen"},"status":"Real"},{"key":"10224439","name":"Wilenweg","postalCode":"9608","locality":"Ganterschwil","commune":{"key":"3395","name":"Bütschwil-Ganterschwil","shortName":"Bütschwil-Ganterschwil"},"district":{"key":"1727","name":"Wahlkreis Toggenburg"},"canton":{"key":"17","code":"SG","name":"St. Gallen"},"status":"Real"},{"key":"10114534","name":"Williswis","postalCode":"9608","locality":"Ganterschwil","commune":{"key":"3395","name":"Bütschwil-Ganterschwil","shortName":"Bütschwil-Ganterschwil"},"district":{"key":"1727","name":"Wahlkreis Toggenburg"},"canton":{"key":"17","code":"SG","name":"St. Gallen"},"status":"Real"},{"key":"10175253","name":"Winden","postalCode":"9608","locality":"Ganterschwil","commune":{"key":"3395","name":"Bütschwil-Ganterschwil","shortName":"Bütschwil-Ganterschwil"},"district":{"key":"1727","name":"Wahlkreis Toggenburg"},"canton":{"key":"17","code":"SG","name":"St. Gallen"},"status":"Real"},{"key":"10224443","name":"Winden-Taa-Weg","postalCode":"9608","locality":"Ganterschwil","commune":{"key":"3395","name":"Bütschwil-Ganterschwil","shortName":"Bütschwil-Ganterschwil"},"district":{"key":"1727","name":"Wahlkreis Toggenburg"},"canton":{"key":"17","code":"SG","name":"St. Gallen"},"status":"Real"},{"key":"10213517","name":"Winkelweg","postalCode":"4228","locality":"Erschwil","commune":{"key":"2615","name":"Erschwil","shortName":"Erschwil"},"district":{"key":"1110","name":"Bezirk Thierstein"},"canton":{"key":"11","code":"SO","name":"Solothurn"},"status":"Real"},{"key":"10225876","name":"Winzlisauweg","postalCode":"9608","locality":"Ganterschwil","commune":{"key":"3395","name":"Bütschwil-Ganterschwil","shortName":"Bütschwil-Ganterschwil"},"district":{"key":"1727","name":"Wahlkreis Toggenburg"},"canton":{"key":"17","code":"SG","name":"St. Gallen"},"status":"Real"},{"key":"10023727","name":"Wisenau","postalCode":"9608","locality":"Ganterschwil","commune":{"key":"3395","name":"Bütschwil-Ganterschwil","shortName":"Bütschwil-Ganterschwil"},"district":{"key":"1727","name":"Wahlkreis Toggenburg"},"canton":{"key":"17","code":"SG","name":"St. Gallen"},"status":"Real"},{"key":"10213520","name":"Wollstelhollenweg","postalCode":"4228","locality":"Erschwil","commune":{"key":"2615","name":"Erschwil","shortName":"Erschwil"},"district":{"key":"1110","name":"Bezirk Thierstein"},"canton":{"key":"11","code":"SO","name":"Solothurn"},"status":"Real"},{"key":"10104845","name":"Wydenmattstrasse","postalCode":"4228","locality":"Erschwil","commune":{"key":"2615","name":"Erschwil","shortName":"Erschwil"},"district":{"key":"1110","name":"Bezirk Thierstein"},"canton":{"key":"11","code":"SO","name":"Solothurn"},"status":"Real"},{"key":"10055180","name":"Zelmweg","postalCode":"4228","locality":"Erschwil","commune":{"key":"2615","name":"Erschwil","shortName":"Erschwil"},"district":{"key":"1110","name":"Bezirk Thierstein"},"canton":{"key":"11","code":"SO","name":"Solothurn"},"status":"Real"},]