[{"code":"70601","district":{"code":"706","name":"Landeck","key":"706"},"federalProvince":{"name":"Tirol","key":"7"},"postalCode":"6525","name":"Faggen","multiplePostalCodes":false,"key":"70601","status":"None"},{"code":"70602","district":{"code":"706","name":"Landeck","key":"706"},"federalProvince":{"name":"Tirol","key":"7"},"postalCode":"6528","name":"Fendels","multiplePostalCodes":false,"key":"70602","status":"None"},{"code":"70603","district":{"code":"706","name":"Landeck","key":"706"},"federalProvince":{"name":"Tirol","key":"7"},"postalCode":"6533","name":"Fiss","multiplePostalCodes":false,"key":"70603","status":"None"},{"code":"70604","district":{"code":"706","name":"Landeck","key":"706"},"federalProvince":{"name":"Tirol","key":"7"},"postalCode":"6521","name":"Fließ","multiplePostalCodes":true,"key":"70604","status":"None"},{"code":"70605","district":{"code":"706","name":"Landeck","key":"706"},"federalProvince":{"name":"Tirol","key":"7"},"postalCode":"6572","name":"Flirsch","multiplePostalCodes":false,"key":"70605","status":"None"},{"code":"70606","district":{"code":"706","name":"Landeck","key":"706"},"federalProvince":{"name":"Tirol","key":"7"},"postalCode":"6563","name":"Galtür","multiplePostalCodes":false,"key":"70606","status":"None"},{"code":"70607","district":{"code":"706","name":"Landeck","key":"706"},"federalProvince":{"name":"Tirol","key":"7"},"postalCode":"6591","name":"Grins","multiplePostalCodes":true,"key":"70607","status":"None"},{"code":"70608","district":{"code":"706","name":"Landeck","key":"706"},"federalProvince":{"name":"Tirol","key":"7"},"postalCode":"6561","name":"Ischgl","multiplePostalCodes":true,"key":"70608","status":"None"},{"code":"70609","district":{"code":"706","name":"Landeck","key":"706"},"federalProvince":{"name":"Tirol","key":"7"},"postalCode":"6555","name":"Kappl","multiplePostalCodes":true,"key":"70609","status":"None"},{"code":"70610","district":{"code":"706","name":"Landeck","key":"706"},"federalProvince":{"name":"Tirol","key":"7"},"postalCode":"6527","name":"Kaunerberg","multiplePostalCodes":false,"key":"70610","status":"None"},{"code":"70611","district":{"code":"706","name":"Landeck","key":"706"},"federalProvince":{"name":"Tirol","key":"7"},"postalCode":"6524","name":"Kaunertal","multiplePostalCodes":false,"key":"70611","status":"None"},{"code":"70612","district":{"code":"706","name":"Landeck","key":"706"},"federalProvince":{"name":"Tirol","key":"7"},"postalCode":"6526","name":"Kauns","multiplePostalCodes":false,"key":"70612","status":"None"},{"code":"70613","district":{"code":"706","name":"Landeck","key":"706"},"federalProvince":{"name":"Tirol","key":"7"},"postalCode":"6532","name":"Ladis","multiplePostalCodes":false,"key":"70613","status":"None"},{"code":"70614","district":{"code":"706","name":"Landeck","key":"706"},"federalProvince":{"name":"Tirol","key":"7"},"postalCode":"6500","name":"Landeck","multiplePostalCodes":false,"key":"70614","status":"UrbanMunicipality"},{"code":"70615","district":{"code":"706","name":"Landeck","key":"706"},"federalProvince":{"name":"Tirol","key":"7"},"postalCode":"6543","name":"Nauders","multiplePostalCodes":true,"key":"70615","status":"None"},{"code":"70616","district":{"code":"706","name":"Landeck","key":"706"},"federalProvince":{"name":"Tirol","key":"7"},"postalCode":"6574","name":"Pettneu am Arlberg","multiplePostalCodes":false,"key":"70616","status":"None"},{"code":"70617","district":{"code":"706","name":"Landeck","key":"706"},"federalProvince":{"name":"Tirol","key":"7"},"postalCode":"6542","name":"Pfunds","multiplePostalCodes":false,"key":"70617","status":"None"},{"code":"70618","district":{"code":"706","name":"Landeck","key":"706"},"federalProvince":{"name":"Tirol","key":"7"},"postalCode":"6551","name":"Pians","multiplePostalCodes":false,"key":"70618","status":"None"},{"code":"70619","district":{"code":"706","name":"Landeck","key":"706"},"federalProvince":{"name":"Tirol","key":"7"},"postalCode":"6522","name":"Prutz","multiplePostalCodes":false,"key":"70619","status":"None"},{"code":"70620","district":{"code":"706","name":"Landeck","key":"706"},"federalProvince":{"name":"Tirol","key":"7"},"postalCode":"6531","name":"Ried im Oberinntal","multiplePostalCodes":false,"key":"70620","status":"None"},{"code":"70621","district":{"code":"706","name":"Landeck","key":"706"},"federalProvince":{"name":"Tirol","key":"7"},"postalCode":"6580","name":"St. Anton am Arlberg","multiplePostalCodes":false,"key":"70621","status":"None"},{"code":"70622","district":{"code":"706","name":"Landeck","key":"706"},"federalProvince":{"name":"Tirol","key":"7"},"postalCode":"6491","name":"Schönwies","multiplePostalCodes":false,"key":"70622","status":"None"},{"code":"70623","district":{"code":"706","name":"Landeck","key":"706"},"federalProvince":{"name":"Tirol","key":"7"},"postalCode":"6553","name":"See","multiplePostalCodes":true,"key":"70623","status":"None"},{"code":"70624","district":{"code":"706","name":"Landeck","key":"706"},"federalProvince":{"name":"Tirol","key":"7"},"postalCode":"6534","name":"Serfaus","multiplePostalCodes":true,"key":"70624","status":"None"},{"code":"70625","district":{"code":"706","name":"Landeck","key":"706"},"federalProvince":{"name":"Tirol","key":"7"},"postalCode":"6544","name":"Spiss","multiplePostalCodes":false,"key":"70625","status":"None"},{"code":"70626","district":{"code":"706","name":"Landeck","key":"706"},"federalProvince":{"name":"Tirol","key":"7"},"postalCode":"6500","name":"Stanz bei Landeck","multiplePostalCodes":false,"key":"70626","status":"None"},{"code":"70627","district":{"code":"706","name":"Landeck","key":"706"},"federalProvince":{"name":"Tirol","key":"7"},"postalCode":"6571","name":"Strengen","multiplePostalCodes":false,"key":"70627","status":"None"},{"code":"70628","district":{"code":"706","name":"Landeck","key":"706"},"federalProvince":{"name":"Tirol","key":"7"},"postalCode":"6552","name":"Tobadill","multiplePostalCodes":true,"key":"70628","status":"None"},{"code":"70629","district":{"code":"706","name":"Landeck","key":"706"},"federalProvince":{"name":"Tirol","key":"7"},"postalCode":"6541","name":"Tösens","multiplePostalCodes":false,"key":"70629","status":"None"},{"code":"70630","district":{"code":"706","name":"Landeck","key":"706"},"federalProvince":{"name":"Tirol","key":"7"},"postalCode":"6511","name":"Zams","multiplePostalCodes":true,"key":"70630","status":"None"}]