[{"name":"Ahornweg","postalCode":"30916","locality":"Isernhagen","municipality":{"key":"03241008","name":"Isernhagen","type":"Kreisangehörige_Gemeinde"},"district":{"key":"03241","name":"Region Hannover","type":"Landkreis"},"federalState":{"key":"03","name":"Niedersachsen"}},{"name":"Allensteiner Str.","postalCode":"30916","locality":"Isernhagen","municipality":{"key":"03241008","name":"Isernhagen","type":"Kreisangehörige_Gemeinde"},"district":{"key":"03241","name":"Region Hannover","type":"Landkreis"},"federalState":{"key":"03","name":"Niedersachsen"}},{"name":"Alte Brennerei","postalCode":"30916","locality":"Isernhagen","municipality":{"key":"03241008","name":"Isernhagen","type":"Kreisangehörige_Gemeinde"},"district":{"key":"03241","name":"Region Hannover","type":"Landkreis"},"federalState":{"key":"03","name":"Niedersachsen"}},{"name":"Alter Postweg","postalCode":"30916","locality":"Isernhagen","municipality":{"key":"03241008","name":"Isernhagen","type":"Kreisangehörige_Gemeinde"},"district":{"key":"03241","name":"Region Hannover","type":"Landkreis"},"federalState":{"key":"03","name":"Niedersachsen"}},{"name":"Alter Reithof","postalCode":"30916","locality":"Isernhagen","municipality":{"key":"03241008","name":"Isernhagen","type":"Kreisangehörige_Gemeinde"},"district":{"key":"03241","name":"Region Hannover","type":"Landkreis"},"federalState":{"key":"03","name":"Niedersachsen"}},{"name":"Alte Schanze","postalCode":"30916","locality":"Isernhagen","municipality":{"key":"03241008","name":"Isernhagen","type":"Kreisangehörige_Gemeinde"},"district":{"key":"03241","name":"Region Hannover","type":"Landkreis"},"federalState":{"key":"03","name":"Niedersachsen"}},{"name":"Am Berge","postalCode":"30916","locality":"Isernhagen","municipality":{"key":"03241008","name":"Isernhagen","type":"Kreisangehörige_Gemeinde"},"district":{"key":"03241","name":"Region Hannover","type":"Landkreis"},"federalState":{"key":"03","name":"Niedersachsen"}},{"name":"Am Dornbusch","postalCode":"30916","locality":"Isernhagen","municipality":{"key":"03241008","name":"Isernhagen","type":"Kreisangehörige_Gemeinde"},"district":{"key":"03241","name":"Region Hannover","type":"Landkreis"},"federalState":{"key":"03","name":"Niedersachsen"}},{"name":"Am Forsthaus","postalCode":"30916","locality":"Isernhagen","municipality":{"key":"03241008","name":"Isernhagen","type":"Kreisangehörige_Gemeinde"},"district":{"key":"03241","name":"Region Hannover","type":"Landkreis"},"federalState":{"key":"03","name":"Niedersachsen"}},{"name":"Am Fuchsberg","postalCode":"30916","locality":"Isernhagen","municipality":{"key":"03241008","name":"Isernhagen","type":"Kreisangehörige_Gemeinde"},"district":{"key":"03241","name":"Region Hannover","type":"Landkreis"},"federalState":{"key":"03","name":"Niedersachsen"}},{"name":"Am Heisterholz","postalCode":"30916","locality":"Isernhagen","municipality":{"key":"03241008","name":"Isernhagen","type":"Kreisangehörige_Gemeinde"},"district":{"key":"03241","name":"Region Hannover","type":"Landkreis"},"federalState":{"key":"03","name":"Niedersachsen"}},{"name":"Am Kesselbrink","postalCode":"30916","locality":"Isernhagen","municipality":{"key":"03241008","name":"Isernhagen","type":"Kreisangehörige_Gemeinde"},"district":{"key":"03241","name":"Region Hannover","type":"Landkreis"},"federalState":{"key":"03","name":"Niedersachsen"}},{"name":"Am Kirchhorster See","postalCode":"30916","locality":"Isernhagen","municipality":{"key":"03241008","name":"Isernhagen","type":"Kreisangehörige_Gemeinde"},"district":{"key":"03241","name":"Region Hannover","type":"Landkreis"},"federalState":{"key":"03","name":"Niedersachsen"}},{"name":"Am Knick","postalCode":"30916","locality":"Isernhagen","municipality":{"key":"03241008","name":"Isernhagen","type":"Kreisangehörige_Gemeinde"},"district":{"key":"03241","name":"Region Hannover","type":"Landkreis"},"federalState":{"key":"03","name":"Niedersachsen"}},{"name":"Am Langen Feld","postalCode":"30916","locality":"Isernhagen","municipality":{"key":"03241008","name":"Isernhagen","type":"Kreisangehörige_Gemeinde"},"district":{"key":"03241","name":"Region Hannover","type":"Landkreis"},"federalState":{"key":"03","name":"Niedersachsen"}},{"name":"Am Lohner Hof","postalCode":"30916","locality":"Isernhagen","municipality":{"key":"03241008","name":"Isernhagen","type":"Kreisangehörige_Gemeinde"},"district":{"key":"03241","name":"Region Hannover","type":"Landkreis"},"federalState":{"key":"03","name":"Niedersachsen"}},{"name":"Am Mühlenberg","postalCode":"30916","locality":"Isernhagen","municipality":{"key":"03241008","name":"Isernhagen","type":"Kreisangehörige_Gemeinde"},"district":{"key":"03241","name":"Region Hannover","type":"Landkreis"},"federalState":{"key":"03","name":"Niedersachsen"}},{"name":"Am Ortfelde","postalCode":"30916","locality":"Isernhagen","municipality":{"key":"03241008","name":"Isernhagen","type":"Kreisangehörige_Gemeinde"},"district":{"key":"03241","name":"Region Hannover","type":"Landkreis"},"federalState":{"key":"03","name":"Niedersachsen"}},{"name":"Am Rathfeld","postalCode":"30916","locality":"Isernhagen","municipality":{"key":"03241008","name":"Isernhagen","type":"Kreisangehörige_Gemeinde"},"district":{"key":"03241","name":"Region Hannover","type":"Landkreis"},"federalState":{"key":"03","name":"Niedersachsen"}},{"name":"Am Rischteich","postalCode":"30916","locality":"Isernhagen","municipality":{"key":"03241008","name":"Isernhagen","type":"Kreisangehörige_Gemeinde"},"district":{"key":"03241","name":"Region Hannover","type":"Landkreis"},"federalState":{"key":"03","name":"Niedersachsen"}},{"name":"Am Rotkamp","postalCode":"30916","locality":"Isernhagen","municipality":{"key":"03241008","name":"Isernhagen","type":"Kreisangehörige_Gemeinde"},"district":{"key":"03241","name":"Region Hannover","type":"Landkreis"},"federalState":{"key":"03","name":"Niedersachsen"}},{"name":"Am Sahlgarten","postalCode":"30916","locality":"Isernhagen","municipality":{"key":"03241008","name":"Isernhagen","type":"Kreisangehörige_Gemeinde"},"district":{"key":"03241","name":"Region Hannover","type":"Landkreis"},"federalState":{"key":"03","name":"Niedersachsen"}},{"name":"Am Spielplatz","postalCode":"30916","locality":"Isernhagen","municipality":{"key":"03241008","name":"Isernhagen","type":"Kreisangehörige_Gemeinde"},"district":{"key":"03241","name":"Region Hannover","type":"Landkreis"},"federalState":{"key":"03","name":"Niedersachsen"}},{"name":"Am Sportplatz","postalCode":"30916","locality":"Isernhagen","municipality":{"key":"03241008","name":"Isernhagen","type":"Kreisangehörige_Gemeinde"},"district":{"key":"03241","name":"Region Hannover","type":"Landkreis"},"federalState":{"key":"03","name":"Niedersachsen"}},{"name":"Am Wachholder","postalCode":"30916","locality":"Isernhagen","municipality":{"key":"03241008","name":"Isernhagen","type":"Kreisangehörige_Gemeinde"},"district":{"key":"03241","name":"Region Hannover","type":"Landkreis"},"federalState":{"key":"03","name":"Niedersachsen"}},{"name":"Am Wesenbeek","postalCode":"30916","locality":"Isernhagen","municipality":{"key":"03241008","name":"Isernhagen","type":"Kreisangehörige_Gemeinde"},"district":{"key":"03241","name":"Region Hannover","type":"Landkreis"},"federalState":{"key":"03","name":"Niedersachsen"}},{"name":"Am Wienkamp","postalCode":"30916","locality":"Isernhagen","municipality":{"key":"03241008","name":"Isernhagen","type":"Kreisangehörige_Gemeinde"},"district":{"key":"03241","name":"Region Hannover","type":"Landkreis"},"federalState":{"key":"03","name":"Niedersachsen"}},{"name":"An der alten Ziegelei","postalCode":"30916","locality":"Isernhagen","municipality":{"key":"03241008","name":"Isernhagen","type":"Kreisangehörige_Gemeinde"},"district":{"key":"03241","name":"Region Hannover","type":"Landkreis"},"federalState":{"key":"03","name":"Niedersachsen"}},{"name":"An der Beeke","postalCode":"30916","locality":"Isernhagen","municipality":{"key":"03241008","name":"Isernhagen","type":"Kreisangehörige_Gemeinde"},"district":{"key":"03241","name":"Region Hannover","type":"Landkreis"},"federalState":{"key":"03","name":"Niedersachsen"}},{"name":"An der Bues","postalCode":"30916","locality":"Isernhagen","municipality":{"key":"03241008","name":"Isernhagen","type":"Kreisangehörige_Gemeinde"},"district":{"key":"03241","name":"Region Hannover","type":"Landkreis"},"federalState":{"key":"03","name":"Niedersachsen"}},{"name":"An der Dingstelle","postalCode":"30916","locality":"Isernhagen","municipality":{"key":"03241008","name":"Isernhagen","type":"Kreisangehörige_Gemeinde"},"district":{"key":"03241","name":"Region Hannover","type":"Landkreis"},"federalState":{"key":"03","name":"Niedersachsen"}},{"name":"An der Edder","postalCode":"30916","locality":"Isernhagen","municipality":{"key":"03241008","name":"Isernhagen","type":"Kreisangehörige_Gemeinde"},"district":{"key":"03241","name":"Region Hannover","type":"Landkreis"},"federalState":{"key":"03","name":"Niedersachsen"}},{"name":"An der Mehlbeeke","postalCode":"30916","locality":"Isernhagen","municipality":{"key":"03241008","name":"Isernhagen","type":"Kreisangehörige_Gemeinde"},"district":{"key":"03241","name":"Region Hannover","type":"Landkreis"},"federalState":{"key":"03","name":"Niedersachsen"}},{"name":"An der Post","postalCode":"30916","locality":"Isernhagen","municipality":{"key":"03241008","name":"Isernhagen","type":"Kreisangehörige_Gemeinde"},"district":{"key":"03241","name":"Region Hannover","type":"Landkreis"},"federalState":{"key":"03","name":"Niedersachsen"}},{"name":"An der Riehe","postalCode":"30916","locality":"Isernhagen","municipality":{"key":"03241008","name":"Isernhagen","type":"Kreisangehörige_Gemeinde"},"district":{"key":"03241","name":"Region Hannover","type":"Landkreis"},"federalState":{"key":"03","name":"Niedersachsen"}},{"name":"An der Tränke","postalCode":"30916","locality":"Isernhagen","municipality":{"key":"03241008","name":"Isernhagen","type":"Kreisangehörige_Gemeinde"},"district":{"key":"03241","name":"Region Hannover","type":"Landkreis"},"federalState":{"key":"03","name":"Niedersachsen"}},{"name":"An der Wietze","postalCode":"30916","locality":"Isernhagen","municipality":{"key":"03241008","name":"Isernhagen","type":"Kreisangehörige_Gemeinde"},"district":{"key":"03241","name":"Region Hannover","type":"Landkreis"},"federalState":{"key":"03","name":"Niedersachsen"}},{"name":"An der Worth","postalCode":"30916","locality":"Isernhagen","municipality":{"key":"03241008","name":"Isernhagen","type":"Kreisangehörige_Gemeinde"},"district":{"key":"03241","name":"Region Hannover","type":"Landkreis"},"federalState":{"key":"03","name":"Niedersachsen"}},{"name":"Arnikaweg","postalCode":"30916","locality":"Isernhagen","municipality":{"key":"03241008","name":"Isernhagen","type":"Kreisangehörige_Gemeinde"},"district":{"key":"03241","name":"Region Hannover","type":"Landkreis"},"federalState":{"key":"03","name":"Niedersachsen"}},{"name":"Asphalweg","postalCode":"30916","locality":"Isernhagen","municipality":{"key":"03241008","name":"Isernhagen","type":"Kreisangehörige_Gemeinde"},"district":{"key":"03241","name":"Region Hannover","type":"Landkreis"},"federalState":{"key":"03","name":"Niedersachsen"}},{"name":"Asternweg","postalCode":"30916","locality":"Isernhagen","municipality":{"key":"03241008","name":"Isernhagen","type":"Kreisangehörige_Gemeinde"},"district":{"key":"03241","name":"Region Hannover","type":"Landkreis"},"federalState":{"key":"03","name":"Niedersachsen"}},{"name":"Auf dem Kley","postalCode":"30916","locality":"Isernhagen","municipality":{"key":"03241008","name":"Isernhagen","type":"Kreisangehörige_Gemeinde"},"district":{"key":"03241","name":"Region Hannover","type":"Landkreis"},"federalState":{"key":"03","name":"Niedersachsen"}},{"name":"Auf dem Rathe","postalCode":"30916","locality":"Isernhagen","municipality":{"key":"03241008","name":"Isernhagen","type":"Kreisangehörige_Gemeinde"},"district":{"key":"03241","name":"Region Hannover","type":"Landkreis"},"federalState":{"key":"03","name":"Niedersachsen"}},{"name":"Auf dem Windmühlenberge","postalCode":"30916","locality":"Isernhagen","municipality":{"key":"03241008","name":"Isernhagen","type":"Kreisangehörige_Gemeinde"},"district":{"key":"03241","name":"Region Hannover","type":"Landkreis"},"federalState":{"key":"03","name":"Niedersachsen"}},{"name":"Auf der Heide","postalCode":"30916","locality":"Isernhagen","municipality":{"key":"03241008","name":"Isernhagen","type":"Kreisangehörige_Gemeinde"},"district":{"key":"03241","name":"Region Hannover","type":"Landkreis"},"federalState":{"key":"03","name":"Niedersachsen"}},{"name":"Bachstelzenring","postalCode":"30916","locality":"Isernhagen","municipality":{"key":"03241008","name":"Isernhagen","type":"Kreisangehörige_Gemeinde"},"district":{"key":"03241","name":"Region Hannover","type":"Landkreis"},"federalState":{"key":"03","name":"Niedersachsen"}},{"name":"Bachstelzenweg","postalCode":"30916","locality":"Isernhagen","municipality":{"key":"03241008","name":"Isernhagen","type":"Kreisangehörige_Gemeinde"},"district":{"key":"03241","name":"Region Hannover","type":"Landkreis"},"federalState":{"key":"03","name":"Niedersachsen"}},{"name":"Bahnhofstr.","postalCode":"30916","locality":"Isernhagen","municipality":{"key":"03241008","name":"Isernhagen","type":"Kreisangehörige_Gemeinde"},"district":{"key":"03241","name":"Region Hannover","type":"Landkreis"},"federalState":{"key":"03","name":"Niedersachsen"}},{"name":"Bärenhast","postalCode":"30916","locality":"Isernhagen","municipality":{"key":"03241008","name":"Isernhagen","type":"Kreisangehörige_Gemeinde"},"district":{"key":"03241","name":"Region Hannover","type":"Landkreis"},"federalState":{"key":"03","name":"Niedersachsen"}},{"name":"Benneckenwiesen","postalCode":"30916","locality":"Isernhagen","municipality":{"key":"03241008","name":"Isernhagen","type":"Kreisangehörige_Gemeinde"},"district":{"key":"03241","name":"Region Hannover","type":"Landkreis"},"federalState":{"key":"03","name":"Niedersachsen"}},{"name":"Berghornfeld","postalCode":"30916","locality":"Isernhagen","municipality":{"key":"03241008","name":"Isernhagen","type":"Kreisangehörige_Gemeinde"},"district":{"key":"03241","name":"Region Hannover","type":"Landkreis"},"federalState":{"key":"03","name":"Niedersachsen"}},{"name":"Bergstr.","postalCode":"30916","locality":"Isernhagen","municipality":{"key":"03241008","name":"Isernhagen","type":"Kreisangehörige_Gemeinde"},"district":{"key":"03241","name":"Region Hannover","type":"Landkreis"},"federalState":{"key":"03","name":"Niedersachsen"}},{"name":"Berliner Str.","postalCode":"30916","locality":"Isernhagen","municipality":{"key":"03241008","name":"Isernhagen","type":"Kreisangehörige_Gemeinde"},"district":{"key":"03241","name":"Region Hannover","type":"Landkreis"},"federalState":{"key":"03","name":"Niedersachsen"}},{"name":"Bernhard-Rehkopf-Str.","postalCode":"30916","locality":"Isernhagen","municipality":{"key":"03241008","name":"Isernhagen","type":"Kreisangehörige_Gemeinde"},"district":{"key":"03241","name":"Region Hannover","type":"Landkreis"},"federalState":{"key":"03","name":"Niedersachsen"}},{"name":"Bernsteinstr.","postalCode":"30916","locality":"Isernhagen","municipality":{"key":"03241008","name":"Isernhagen","type":"Kreisangehörige_Gemeinde"},"district":{"key":"03241","name":"Region Hannover","type":"Landkreis"},"federalState":{"key":"03","name":"Niedersachsen"}},{"name":"Beuthener Weg","postalCode":"30916","locality":"Isernhagen","municipality":{"key":"03241008","name":"Isernhagen","type":"Kreisangehörige_Gemeinde"},"district":{"key":"03241","name":"Region Hannover","type":"Landkreis"},"federalState":{"key":"03","name":"Niedersachsen"}},{"name":"Biergarten Dehne","postalCode":"30916","locality":"Isernhagen","municipality":{"key":"03241008","name":"Isernhagen","type":"Kreisangehörige_Gemeinde"},"district":{"key":"03241","name":"Region Hannover","type":"Landkreis"},"federalState":{"key":"03","name":"Niedersachsen"}},{"name":"Biergarten Heinrich´s","postalCode":"30916","locality":"Isernhagen","municipality":{"key":"03241008","name":"Isernhagen","type":"Kreisangehörige_Gemeinde"},"district":{"key":"03241","name":"Region Hannover","type":"Landkreis"},"federalState":{"key":"03","name":"Niedersachsen"}},{"name":"Binsenweg","postalCode":"30916","locality":"Isernhagen","municipality":{"key":"03241008","name":"Isernhagen","type":"Kreisangehörige_Gemeinde"},"district":{"key":"03241","name":"Region Hannover","type":"Landkreis"},"federalState":{"key":"03","name":"Niedersachsen"}},{"name":"Birkenweg","postalCode":"30916","locality":"Isernhagen","municipality":{"key":"03241008","name":"Isernhagen","type":"Kreisangehörige_Gemeinde"},"district":{"key":"03241","name":"Region Hannover","type":"Landkreis"},"federalState":{"key":"03","name":"Niedersachsen"}},{"name":"Bleßhuhnweg","postalCode":"30916","locality":"Isernhagen","municipality":{"key":"03241008","name":"Isernhagen","type":"Kreisangehörige_Gemeinde"},"district":{"key":"03241","name":"Region Hannover","type":"Landkreis"},"federalState":{"key":"03","name":"Niedersachsen"}},{"name":"Blocksberg","postalCode":"30916","locality":"Isernhagen","municipality":{"key":"03241008","name":"Isernhagen","type":"Kreisangehörige_Gemeinde"},"district":{"key":"03241","name":"Region Hannover","type":"Landkreis"},"federalState":{"key":"03","name":"Niedersachsen"}},{"name":"Borsigstr.","postalCode":"30916","locality":"Isernhagen","municipality":{"key":"03241008","name":"Isernhagen","type":"Kreisangehörige_Gemeinde"},"district":{"key":"03241","name":"Region Hannover","type":"Landkreis"},"federalState":{"key":"03","name":"Niedersachsen"}},{"name":"Bothfelder Damm","postalCode":"30916","locality":"Isernhagen","municipality":{"key":"03241008","name":"Isernhagen","type":"Kreisangehörige_Gemeinde"},"district":{"key":"03241","name":"Region Hannover","type":"Landkreis"},"federalState":{"key":"03","name":"Niedersachsen"}},{"name":"Bothfelder Str.","postalCode":"30916","locality":"Isernhagen","municipality":{"key":"03241008","name":"Isernhagen","type":"Kreisangehörige_Gemeinde"},"district":{"key":"03241","name":"Region Hannover","type":"Landkreis"},"federalState":{"key":"03","name":"Niedersachsen"}},{"name":"Brachvogelweg","postalCode":"30916","locality":"Isernhagen","municipality":{"key":"03241008","name":"Isernhagen","type":"Kreisangehörige_Gemeinde"},"district":{"key":"03241","name":"Region Hannover","type":"Landkreis"},"federalState":{"key":"03","name":"Niedersachsen"}},{"name":"Branderiede","postalCode":"30916","locality":"Isernhagen","municipality":{"key":"03241008","name":"Isernhagen","type":"Kreisangehörige_Gemeinde"},"district":{"key":"03241","name":"Region Hannover","type":"Landkreis"},"federalState":{"key":"03","name":"Niedersachsen"}},{"name":"Brentanostr.","postalCode":"30916","locality":"Isernhagen","municipality":{"key":"03241008","name":"Isernhagen","type":"Kreisangehörige_Gemeinde"},"district":{"key":"03241","name":"Region Hannover","type":"Landkreis"},"federalState":{"key":"03","name":"Niedersachsen"}},{"name":"Breslauer Str.","postalCode":"30916","locality":"Isernhagen","municipality":{"key":"03241008","name":"Isernhagen","type":"Kreisangehörige_Gemeinde"},"district":{"key":"03241","name":"Region Hannover","type":"Landkreis"},"federalState":{"key":"03","name":"Niedersachsen"}},{"name":"Brombeerknick","postalCode":"30916","locality":"Isernhagen","municipality":{"key":"03241008","name":"Isernhagen","type":"Kreisangehörige_Gemeinde"},"district":{"key":"03241","name":"Region Hannover","type":"Landkreis"},"federalState":{"key":"03","name":"Niedersachsen"}},{"name":"Brunoweg","postalCode":"30916","locality":"Isernhagen","municipality":{"key":"03241008","name":"Isernhagen","type":"Kreisangehörige_Gemeinde"},"district":{"key":"03241","name":"Region Hannover","type":"Landkreis"},"federalState":{"key":"03","name":"Niedersachsen"}},{"name":"Buchensahl","postalCode":"30916","locality":"Isernhagen","municipality":{"key":"03241008","name":"Isernhagen","type":"Kreisangehörige_Gemeinde"},"district":{"key":"03241","name":"Region Hannover","type":"Landkreis"},"federalState":{"key":"03","name":"Niedersachsen"}},{"name":"Buchenweg","postalCode":"30916","locality":"Isernhagen","municipality":{"key":"03241008","name":"Isernhagen","type":"Kreisangehörige_Gemeinde"},"district":{"key":"03241","name":"Region Hannover","type":"Landkreis"},"federalState":{"key":"03","name":"Niedersachsen"}},{"name":"Burgwedeler Str.","postalCode":"30916","locality":"Isernhagen","municipality":{"key":"03241008","name":"Isernhagen","type":"Kreisangehörige_Gemeinde"},"district":{"key":"03241","name":"Region Hannover","type":"Landkreis"},"federalState":{"key":"03","name":"Niedersachsen"}},{"name":"Buschweg","postalCode":"30916","locality":"Isernhagen","municipality":{"key":"03241008","name":"Isernhagen","type":"Kreisangehörige_Gemeinde"},"district":{"key":"03241","name":"Region Hannover","type":"Landkreis"},"federalState":{"key":"03","name":"Niedersachsen"}},{"name":"Bussardring","postalCode":"30916","locality":"Isernhagen","municipality":{"key":"03241008","name":"Isernhagen","type":"Kreisangehörige_Gemeinde"},"district":{"key":"03241","name":"Region Hannover","type":"Landkreis"},"federalState":{"key":"03","name":"Niedersachsen"}},{"name":"Bußmanns Hof","postalCode":"30916","locality":"Isernhagen","municipality":{"key":"03241008","name":"Isernhagen","type":"Kreisangehörige_Gemeinde"},"district":{"key":"03241","name":"Region Hannover","type":"Landkreis"},"federalState":{"key":"03","name":"Niedersachsen"}},{"name":"Cranachstr.","postalCode":"30916","locality":"Isernhagen","municipality":{"key":"03241008","name":"Isernhagen","type":"Kreisangehörige_Gemeinde"},"district":{"key":"03241","name":"Region Hannover","type":"Landkreis"},"federalState":{"key":"03","name":"Niedersachsen"}},{"name":"Dahlienweg","postalCode":"30916","locality":"Isernhagen","municipality":{"key":"03241008","name":"Isernhagen","type":"Kreisangehörige_Gemeinde"},"district":{"key":"03241","name":"Region Hannover","type":"Landkreis"},"federalState":{"key":"03","name":"Niedersachsen"}},{"name":"Dannhornweg","postalCode":"30916","locality":"Isernhagen","municipality":{"key":"03241008","name":"Isernhagen","type":"Kreisangehörige_Gemeinde"},"district":{"key":"03241","name":"Region Hannover","type":"Landkreis"},"federalState":{"key":"03","name":"Niedersachsen"}},{"name":"Demminer Str.","postalCode":"30916","locality":"Isernhagen","municipality":{"key":"03241008","name":"Isernhagen","type":"Kreisangehörige_Gemeinde"},"district":{"key":"03241","name":"Region Hannover","type":"Landkreis"},"federalState":{"key":"03","name":"Niedersachsen"}},{"name":"Dieselstr.","postalCode":"30916","locality":"Isernhagen","municipality":{"key":"03241008","name":"Isernhagen","type":"Kreisangehörige_Gemeinde"},"district":{"key":"03241","name":"Region Hannover","type":"Landkreis"},"federalState":{"key":"03","name":"Niedersachsen"}},{"name":"Dorfstr.","postalCode":"30916","locality":"Isernhagen","municipality":{"key":"03241008","name":"Isernhagen","type":"Kreisangehörige_Gemeinde"},"district":{"key":"03241","name":"Region Hannover","type":"Landkreis"},"federalState":{"key":"03","name":"Niedersachsen"}},{"name":"Dornhorn","postalCode":"30916","locality":"Isernhagen","municipality":{"key":"03241008","name":"Isernhagen","type":"Kreisangehörige_Gemeinde"},"district":{"key":"03241","name":"Region Hannover","type":"Landkreis"},"federalState":{"key":"03","name":"Niedersachsen"}},{"name":"Drosselweg","postalCode":"30916","locality":"Isernhagen","municipality":{"key":"03241008","name":"Isernhagen","type":"Kreisangehörige_Gemeinde"},"district":{"key":"03241","name":"Region Hannover","type":"Landkreis"},"federalState":{"key":"03","name":"Niedersachsen"}},{"name":"Dürerstr.","postalCode":"30916","locality":"Isernhagen","municipality":{"key":"03241008","name":"Isernhagen","type":"Kreisangehörige_Gemeinde"},"district":{"key":"03241","name":"Region Hannover","type":"Landkreis"},"federalState":{"key":"03","name":"Niedersachsen"}},{"name":"Edderwiesen","postalCode":"30916","locality":"Isernhagen","municipality":{"key":"03241008","name":"Isernhagen","type":"Kreisangehörige_Gemeinde"},"district":{"key":"03241","name":"Region Hannover","type":"Landkreis"},"federalState":{"key":"03","name":"Niedersachsen"}},{"name":"Eibenweg","postalCode":"30916","locality":"Isernhagen","municipality":{"key":"03241008","name":"Isernhagen","type":"Kreisangehörige_Gemeinde"},"district":{"key":"03241","name":"Region Hannover","type":"Landkreis"},"federalState":{"key":"03","name":"Niedersachsen"}},{"name":"Eichendorffstr.","postalCode":"30916","locality":"Isernhagen","municipality":{"key":"03241008","name":"Isernhagen","type":"Kreisangehörige_Gemeinde"},"district":{"key":"03241","name":"Region Hannover","type":"Landkreis"},"federalState":{"key":"03","name":"Niedersachsen"}},{"name":"Eichenkamp","postalCode":"30916","locality":"Isernhagen","municipality":{"key":"03241008","name":"Isernhagen","type":"Kreisangehörige_Gemeinde"},"district":{"key":"03241","name":"Region Hannover","type":"Landkreis"},"federalState":{"key":"03","name":"Niedersachsen"}},{"name":"Eichenweg","postalCode":"30916","locality":"Isernhagen","municipality":{"key":"03241008","name":"Isernhagen","type":"Kreisangehörige_Gemeinde"},"district":{"key":"03241","name":"Region Hannover","type":"Landkreis"},"federalState":{"key":"03","name":"Niedersachsen"}},{"name":"Eisvogelring","postalCode":"30916","locality":"Isernhagen","municipality":{"key":"03241008","name":"Isernhagen","type":"Kreisangehörige_Gemeinde"},"district":{"key":"03241","name":"Region Hannover","type":"Landkreis"},"federalState":{"key":"03","name":"Niedersachsen"}},{"name":"Emmerkamp","postalCode":"30916","locality":"Isernhagen","municipality":{"key":"03241008","name":"Isernhagen","type":"Kreisangehörige_Gemeinde"},"district":{"key":"03241","name":"Region Hannover","type":"Landkreis"},"federalState":{"key":"03","name":"Niedersachsen"}},{"name":"Entenpfuhl","postalCode":"30916","locality":"Isernhagen","municipality":{"key":"03241008","name":"Isernhagen","type":"Kreisangehörige_Gemeinde"},"district":{"key":"03241","name":"Region Hannover","type":"Landkreis"},"federalState":{"key":"03","name":"Niedersachsen"}},{"name":"Erlenweg","postalCode":"30916","locality":"Isernhagen","municipality":{"key":"03241008","name":"Isernhagen","type":"Kreisangehörige_Gemeinde"},"district":{"key":"03241","name":"Region Hannover","type":"Landkreis"},"federalState":{"key":"03","name":"Niedersachsen"}},{"name":"Ermlandstr.","postalCode":"30916","locality":"Isernhagen","municipality":{"key":"03241008","name":"Isernhagen","type":"Kreisangehörige_Gemeinde"},"district":{"key":"03241","name":"Region Hannover","type":"Landkreis"},"federalState":{"key":"03","name":"Niedersachsen"}},{"name":"Erna-Schütte-Str.","postalCode":"30916","locality":"Isernhagen","municipality":{"key":"03241008","name":"Isernhagen","type":"Kreisangehörige_Gemeinde"},"district":{"key":"03241","name":"Region Hannover","type":"Landkreis"},"federalState":{"key":"03","name":"Niedersachsen"}},{"name":"Ernst-Grote-Str.","postalCode":"30916","locality":"Isernhagen","municipality":{"key":"03241008","name":"Isernhagen","type":"Kreisangehörige_Gemeinde"},"district":{"key":"03241","name":"Region Hannover","type":"Landkreis"},"federalState":{"key":"03","name":"Niedersachsen"}},{"name":"Eschenkamp","postalCode":"30916","locality":"Isernhagen","municipality":{"key":"03241008","name":"Isernhagen","type":"Kreisangehörige_Gemeinde"},"district":{"key":"03241","name":"Region Hannover","type":"Landkreis"},"federalState":{"key":"03","name":"Niedersachsen"}},{"name":"Etternkamp","postalCode":"30916","locality":"Isernhagen","municipality":{"key":"03241008","name":"Isernhagen","type":"Kreisangehörige_Gemeinde"},"district":{"key":"03241","name":"Region Hannover","type":"Landkreis"},"federalState":{"key":"03","name":"Niedersachsen"}},{"name":"Eulen Sackgasse","postalCode":"30916","locality":"Isernhagen","municipality":{"key":"03241008","name":"Isernhagen","type":"Kreisangehörige_Gemeinde"},"district":{"key":"03241","name":"Region Hannover","type":"Landkreis"},"federalState":{"key":"03","name":"Niedersachsen"}},{"name":"Falkenweg","postalCode":"30916","locality":"Isernhagen","municipality":{"key":"03241008","name":"Isernhagen","type":"Kreisangehörige_Gemeinde"},"district":{"key":"03241","name":"Region Hannover","type":"Landkreis"},"federalState":{"key":"03","name":"Niedersachsen"}},{"name":"Farrelweg","postalCode":"30916","locality":"Isernhagen","municipality":{"key":"03241008","name":"Isernhagen","type":"Kreisangehörige_Gemeinde"},"district":{"key":"03241","name":"Region Hannover","type":"Landkreis"},"federalState":{"key":"03","name":"Niedersachsen"}},{"name":"Farster Str.","postalCode":"30916","locality":"Isernhagen","municipality":{"key":"03241008","name":"Isernhagen","type":"Kreisangehörige_Gemeinde"},"district":{"key":"03241","name":"Region Hannover","type":"Landkreis"},"federalState":{"key":"03","name":"Niedersachsen"}},{"name":"Fasanenkamp","postalCode":"30916","locality":"Isernhagen","municipality":{"key":"03241008","name":"Isernhagen","type":"Kreisangehörige_Gemeinde"},"district":{"key":"03241","name":"Region Hannover","type":"Landkreis"},"federalState":{"key":"03","name":"Niedersachsen"}},{"name":"Fasanenweg","postalCode":"30916","locality":"Isernhagen","municipality":{"key":"03241008","name":"Isernhagen","type":"Kreisangehörige_Gemeinde"},"district":{"key":"03241","name":"Region Hannover","type":"Landkreis"},"federalState":{"key":"03","name":"Niedersachsen"}},{"name":"Feldheimer Weitblick","postalCode":"30916","locality":"Isernhagen","municipality":{"key":"03241008","name":"Isernhagen","type":"Kreisangehörige_Gemeinde"},"district":{"key":"03241","name":"Region Hannover","type":"Landkreis"},"federalState":{"key":"03","name":"Niedersachsen"}},{"name":"Finkenweg","postalCode":"30916","locality":"Isernhagen","municipality":{"key":"03241008","name":"Isernhagen","type":"Kreisangehörige_Gemeinde"},"district":{"key":"03241","name":"Region Hannover","type":"Landkreis"},"federalState":{"key":"03","name":"Niedersachsen"}},{"name":"Fliederweg","postalCode":"30916","locality":"Isernhagen","municipality":{"key":"03241008","name":"Isernhagen","type":"Kreisangehörige_Gemeinde"},"district":{"key":"03241","name":"Region Hannover","type":"Landkreis"},"federalState":{"key":"03","name":"Niedersachsen"}},{"name":"Försterstieg","postalCode":"30916","locality":"Isernhagen","municipality":{"key":"03241008","name":"Isernhagen","type":"Kreisangehörige_Gemeinde"},"district":{"key":"03241","name":"Region Hannover","type":"Landkreis"},"federalState":{"key":"03","name":"Niedersachsen"}},{"name":"Franz-Steineke-Weg","postalCode":"30916","locality":"Isernhagen","municipality":{"key":"03241008","name":"Isernhagen","type":"Kreisangehörige_Gemeinde"},"district":{"key":"03241","name":"Region Hannover","type":"Landkreis"},"federalState":{"key":"03","name":"Niedersachsen"}},{"name":"Friedenshain","postalCode":"30916","locality":"Isernhagen","municipality":{"key":"03241008","name":"Isernhagen","type":"Kreisangehörige_Gemeinde"},"district":{"key":"03241","name":"Region Hannover","type":"Landkreis"},"federalState":{"key":"03","name":"Niedersachsen"}},{"name":"Friederich-Thies-Weg","postalCode":"30916","locality":"Isernhagen","municipality":{"key":"03241008","name":"Isernhagen","type":"Kreisangehörige_Gemeinde"},"district":{"key":"03241","name":"Region Hannover","type":"Landkreis"},"federalState":{"key":"03","name":"Niedersachsen"}},{"name":"Friedrich-Thies-Weg","postalCode":"30916","locality":"Isernhagen","municipality":{"key":"03241008","name":"Isernhagen","type":"Kreisangehörige_Gemeinde"},"district":{"key":"03241","name":"Region Hannover","type":"Landkreis"},"federalState":{"key":"03","name":"Niedersachsen"}},{"name":"Fritz-Reuter-Str.","postalCode":"30916","locality":"Isernhagen","municipality":{"key":"03241008","name":"Isernhagen","type":"Kreisangehörige_Gemeinde"},"district":{"key":"03241","name":"Region Hannover","type":"Landkreis"},"federalState":{"key":"03","name":"Niedersachsen"}},{"name":"Fuchsklint","postalCode":"30916","locality":"Isernhagen","municipality":{"key":"03241008","name":"Isernhagen","type":"Kreisangehörige_Gemeinde"},"district":{"key":"03241","name":"Region Hannover","type":"Landkreis"},"federalState":{"key":"03","name":"Niedersachsen"}},{"name":"Fuhrbleek","postalCode":"30916","locality":"Isernhagen","municipality":{"key":"03241008","name":"Isernhagen","type":"Kreisangehörige_Gemeinde"},"district":{"key":"03241","name":"Region Hannover","type":"Landkreis"},"federalState":{"key":"03","name":"Niedersachsen"}},{"name":"Fuhrenkamp","postalCode":"30916","locality":"Isernhagen","municipality":{"key":"03241008","name":"Isernhagen","type":"Kreisangehörige_Gemeinde"},"district":{"key":"03241","name":"Region Hannover","type":"Landkreis"},"federalState":{"key":"03","name":"Niedersachsen"}},{"name":"Füllenfeldstr.","postalCode":"30916","locality":"Isernhagen","municipality":{"key":"03241008","name":"Isernhagen","type":"Kreisangehörige_Gemeinde"},"district":{"key":"03241","name":"Region Hannover","type":"Landkreis"},"federalState":{"key":"03","name":"Niedersachsen"}},{"name":"Gartenweg","postalCode":"30916","locality":"Isernhagen","municipality":{"key":"03241008","name":"Isernhagen","type":"Kreisangehörige_Gemeinde"},"district":{"key":"03241","name":"Region Hannover","type":"Landkreis"},"federalState":{"key":"03","name":"Niedersachsen"}},{"name":"Geisterweg","postalCode":"30916","locality":"Isernhagen","municipality":{"key":"03241008","name":"Isernhagen","type":"Kreisangehörige_Gemeinde"},"district":{"key":"03241","name":"Region Hannover","type":"Landkreis"},"federalState":{"key":"03","name":"Niedersachsen"}},{"name":"Gelber Damm","postalCode":"30916","locality":"Isernhagen","municipality":{"key":"03241008","name":"Isernhagen","type":"Kreisangehörige_Gemeinde"},"district":{"key":"03241","name":"Region Hannover","type":"Landkreis"},"federalState":{"key":"03","name":"Niedersachsen"}},{"name":"Gerberstr.","postalCode":"30916","locality":"Isernhagen","municipality":{"key":"03241008","name":"Isernhagen","type":"Kreisangehörige_Gemeinde"},"district":{"key":"03241","name":"Region Hannover","type":"Landkreis"},"federalState":{"key":"03","name":"Niedersachsen"}},{"name":"Gerskamp","postalCode":"30916","locality":"Isernhagen","municipality":{"key":"03241008","name":"Isernhagen","type":"Kreisangehörige_Gemeinde"},"district":{"key":"03241","name":"Region Hannover","type":"Landkreis"},"federalState":{"key":"03","name":"Niedersachsen"}},{"name":"Gewerbewohnpark Isernhagen","postalCode":"30916","locality":"Isernhagen","municipality":{"key":"03241008","name":"Isernhagen","type":"Kreisangehörige_Gemeinde"},"district":{"key":"03241","name":"Region Hannover","type":"Landkreis"},"federalState":{"key":"03","name":"Niedersachsen"}},{"name":"Ginsterweg","postalCode":"30916","locality":"Isernhagen","municipality":{"key":"03241008","name":"Isernhagen","type":"Kreisangehörige_Gemeinde"},"district":{"key":"03241","name":"Region Hannover","type":"Landkreis"},"federalState":{"key":"03","name":"Niedersachsen"}},{"name":"Glatzer Weg","postalCode":"30916","locality":"Isernhagen","municipality":{"key":"03241008","name":"Isernhagen","type":"Kreisangehörige_Gemeinde"},"district":{"key":"03241","name":"Region Hannover","type":"Landkreis"},"federalState":{"key":"03","name":"Niedersachsen"}},{"name":"Gleiwitzer Str.","postalCode":"30916","locality":"Isernhagen","municipality":{"key":"03241008","name":"Isernhagen","type":"Kreisangehörige_Gemeinde"},"district":{"key":"03241","name":"Region Hannover","type":"Landkreis"},"federalState":{"key":"03","name":"Niedersachsen"}},{"name":"Glockenheide","postalCode":"30916","locality":"Isernhagen","municipality":{"key":"03241008","name":"Isernhagen","type":"Kreisangehörige_Gemeinde"},"district":{"key":"03241","name":"Region Hannover","type":"Landkreis"},"federalState":{"key":"03","name":"Niedersachsen"}},{"name":"Glogauer Steg","postalCode":"30916","locality":"Isernhagen","municipality":{"key":"03241008","name":"Isernhagen","type":"Kreisangehörige_Gemeinde"},"district":{"key":"03241","name":"Region Hannover","type":"Landkreis"},"federalState":{"key":"03","name":"Niedersachsen"}},{"name":"Goldkamp","postalCode":"30916","locality":"Isernhagen","municipality":{"key":"03241008","name":"Isernhagen","type":"Kreisangehörige_Gemeinde"},"district":{"key":"03241","name":"Region Hannover","type":"Landkreis"},"federalState":{"key":"03","name":"Niedersachsen"}},{"name":"Golfplatzwanderweg","postalCode":"30916","locality":"Isernhagen","municipality":{"key":"03241008","name":"Isernhagen","type":"Kreisangehörige_Gemeinde"},"district":{"key":"03241","name":"Region Hannover","type":"Landkreis"},"federalState":{"key":"03","name":"Niedersachsen"}},{"name":"Görlitzer Steg","postalCode":"30916","locality":"Isernhagen","municipality":{"key":"03241008","name":"Isernhagen","type":"Kreisangehörige_Gemeinde"},"district":{"key":"03241","name":"Region Hannover","type":"Landkreis"},"federalState":{"key":"03","name":"Niedersachsen"}},{"name":"Gottfried-Buhr-Weg","postalCode":"30916","locality":"Isernhagen","municipality":{"key":"03241008","name":"Isernhagen","type":"Kreisangehörige_Gemeinde"},"district":{"key":"03241","name":"Region Hannover","type":"Landkreis"},"federalState":{"key":"03","name":"Niedersachsen"}},{"name":"Grashöfe","postalCode":"30916","locality":"Isernhagen","municipality":{"key":"03241008","name":"Isernhagen","type":"Kreisangehörige_Gemeinde"},"district":{"key":"03241","name":"Region Hannover","type":"Landkreis"},"federalState":{"key":"03","name":"Niedersachsen"}},{"name":"Graugansweg","postalCode":"30916","locality":"Isernhagen","municipality":{"key":"03241008","name":"Isernhagen","type":"Kreisangehörige_Gemeinde"},"district":{"key":"03241","name":"Region Hannover","type":"Landkreis"},"federalState":{"key":"03","name":"Niedersachsen"}},{"name":"Greta-Jünger-Weg","postalCode":"30916","locality":"Isernhagen","municipality":{"key":"03241008","name":"Isernhagen","type":"Kreisangehörige_Gemeinde"},"district":{"key":"03241","name":"Region Hannover","type":"Landkreis"},"federalState":{"key":"03","name":"Niedersachsen"}},{"name":"Großhorst","postalCode":"30916","locality":"Isernhagen","municipality":{"key":"03241008","name":"Isernhagen","type":"Kreisangehörige_Gemeinde"},"district":{"key":"03241","name":"Region Hannover","type":"Landkreis"},"federalState":{"key":"03","name":"Niedersachsen"}},{"name":"Grüngerger Steg","postalCode":"30916","locality":"Isernhagen","municipality":{"key":"03241008","name":"Isernhagen","type":"Kreisangehörige_Gemeinde"},"district":{"key":"03241","name":"Region Hannover","type":"Landkreis"},"federalState":{"key":"03","name":"Niedersachsen"}},{"name":"Gutenbergstr.","postalCode":"30916","locality":"Isernhagen","municipality":{"key":"03241008","name":"Isernhagen","type":"Kreisangehörige_Gemeinde"},"district":{"key":"03241","name":"Region Hannover","type":"Landkreis"},"federalState":{"key":"03","name":"Niedersachsen"}},{"name":"Habichtsweg","postalCode":"30916","locality":"Isernhagen","municipality":{"key":"03241008","name":"Isernhagen","type":"Kreisangehörige_Gemeinde"},"district":{"key":"03241","name":"Region Hannover","type":"Landkreis"},"federalState":{"key":"03","name":"Niedersachsen"}},{"name":"Hachtingweg","postalCode":"30916","locality":"Isernhagen","municipality":{"key":"03241008","name":"Isernhagen","type":"Kreisangehörige_Gemeinde"},"district":{"key":"03241","name":"Region Hannover","type":"Landkreis"},"federalState":{"key":"03","name":"Niedersachsen"}},{"name":"Haferkamp","postalCode":"30916","locality":"Isernhagen","municipality":{"key":"03241008","name":"Isernhagen","type":"Kreisangehörige_Gemeinde"},"district":{"key":"03241","name":"Region Hannover","type":"Landkreis"},"federalState":{"key":"03","name":"Niedersachsen"}},{"name":"Haffweg","postalCode":"30916","locality":"Isernhagen","municipality":{"key":"03241008","name":"Isernhagen","type":"Kreisangehörige_Gemeinde"},"district":{"key":"03241","name":"Region Hannover","type":"Landkreis"},"federalState":{"key":"03","name":"Niedersachsen"}},{"name":"Hagenstr.","postalCode":"30916","locality":"Isernhagen","municipality":{"key":"03241008","name":"Isernhagen","type":"Kreisangehörige_Gemeinde"},"district":{"key":"03241","name":"Region Hannover","type":"Landkreis"},"federalState":{"key":"03","name":"Niedersachsen"}},{"name":"Hägewiesen","postalCode":"30916","locality":"Isernhagen","municipality":{"key":"03241008","name":"Isernhagen","type":"Kreisangehörige_Gemeinde"},"district":{"key":"03241","name":"Region Hannover","type":"Landkreis"},"federalState":{"key":"03","name":"Niedersachsen"}},{"name":"Haghof","postalCode":"30916","locality":"Isernhagen","municipality":{"key":"03241008","name":"Isernhagen","type":"Kreisangehörige_Gemeinde"},"district":{"key":"03241","name":"Region Hannover","type":"Landkreis"},"federalState":{"key":"03","name":"Niedersachsen"}},{"name":"Hainhäuser Weg","postalCode":"30916","locality":"Isernhagen","municipality":{"key":"03241008","name":"Isernhagen","type":"Kreisangehörige_Gemeinde"},"district":{"key":"03241","name":"Region Hannover","type":"Landkreis"},"federalState":{"key":"03","name":"Niedersachsen"}},{"name":"Hangstr.","postalCode":"30916","locality":"Isernhagen","municipality":{"key":"03241008","name":"Isernhagen","type":"Kreisangehörige_Gemeinde"},"district":{"key":"03241","name":"Region Hannover","type":"Landkreis"},"federalState":{"key":"03","name":"Niedersachsen"}},{"name":"Hannoversche Str.","postalCode":"30916","locality":"Isernhagen","municipality":{"key":"03241008","name":"Isernhagen","type":"Kreisangehörige_Gemeinde"},"district":{"key":"03241","name":"Region Hannover","type":"Landkreis"},"federalState":{"key":"03","name":"Niedersachsen"}},{"name":"Haselhof","postalCode":"30916","locality":"Isernhagen","municipality":{"key":"03241008","name":"Isernhagen","type":"Kreisangehörige_Gemeinde"},"district":{"key":"03241","name":"Region Hannover","type":"Landkreis"},"federalState":{"key":"03","name":"Niedersachsen"}},{"name":"Haselhöfer Ring","postalCode":"30916","locality":"Isernhagen","municipality":{"key":"03241008","name":"Isernhagen","type":"Kreisangehörige_Gemeinde"},"district":{"key":"03241","name":"Region Hannover","type":"Landkreis"},"federalState":{"key":"03","name":"Niedersachsen"}},{"name":"Hasenkamp","postalCode":"30916","locality":"Isernhagen","municipality":{"key":"03241008","name":"Isernhagen","type":"Kreisangehörige_Gemeinde"},"district":{"key":"03241","name":"Region Hannover","type":"Landkreis"},"federalState":{"key":"03","name":"Niedersachsen"}},{"name":"Hauptstr.","postalCode":"30916","locality":"Isernhagen","municipality":{"key":"03241008","name":"Isernhagen","type":"Kreisangehörige_Gemeinde"},"district":{"key":"03241","name":"Region Hannover","type":"Landkreis"},"federalState":{"key":"03","name":"Niedersachsen"}},{"name":"Heideweg","postalCode":"30916","locality":"Isernhagen","municipality":{"key":"03241008","name":"Isernhagen","type":"Kreisangehörige_Gemeinde"},"district":{"key":"03241","name":"Region Hannover","type":"Landkreis"},"federalState":{"key":"03","name":"Niedersachsen"}},{"name":"Heinrich-Grethe-Str.","postalCode":"30916","locality":"Isernhagen","municipality":{"key":"03241008","name":"Isernhagen","type":"Kreisangehörige_Gemeinde"},"district":{"key":"03241","name":"Region Hannover","type":"Landkreis"},"federalState":{"key":"03","name":"Niedersachsen"}},{"name":"Heinrich-Könecke-Str.","postalCode":"30916","locality":"Isernhagen","municipality":{"key":"03241008","name":"Isernhagen","type":"Kreisangehörige_Gemeinde"},"district":{"key":"03241","name":"Region Hannover","type":"Landkreis"},"federalState":{"key":"03","name":"Niedersachsen"}},{"name":"Heistergarten","postalCode":"30916","locality":"Isernhagen","municipality":{"key":"03241008","name":"Isernhagen","type":"Kreisangehörige_Gemeinde"},"district":{"key":"03241","name":"Region Hannover","type":"Landkreis"},"federalState":{"key":"03","name":"Niedersachsen"}},{"name":"Heisterkamp","postalCode":"30916","locality":"Isernhagen","municipality":{"key":"03241008","name":"Isernhagen","type":"Kreisangehörige_Gemeinde"},"district":{"key":"03241","name":"Region Hannover","type":"Landkreis"},"federalState":{"key":"03","name":"Niedersachsen"}},{"name":"Herderstr.","postalCode":"30916","locality":"Isernhagen","municipality":{"key":"03241008","name":"Isernhagen","type":"Kreisangehörige_Gemeinde"},"district":{"key":"03241","name":"Region Hannover","type":"Landkreis"},"federalState":{"key":"03","name":"Niedersachsen"}},{"name":"Hermann-Löns-Weg","postalCode":"30916","locality":"Isernhagen","municipality":{"key":"03241008","name":"Isernhagen","type":"Kreisangehörige_Gemeinde"},"district":{"key":"03241","name":"Region Hannover","type":"Landkreis"},"federalState":{"key":"03","name":"Niedersachsen"}},{"name":"Herrenwiesen","postalCode":"30916","locality":"Isernhagen","municipality":{"key":"03241008","name":"Isernhagen","type":"Kreisangehörige_Gemeinde"},"district":{"key":"03241","name":"Region Hannover","type":"Landkreis"},"federalState":{"key":"03","name":"Niedersachsen"}},{"name":"Hinter den Höfen","postalCode":"30916","locality":"Isernhagen","municipality":{"key":"03241008","name":"Isernhagen","type":"Kreisangehörige_Gemeinde"},"district":{"key":"03241","name":"Region Hannover","type":"Landkreis"},"federalState":{"key":"03","name":"Niedersachsen"}},{"name":"Hinter Pastors Hofe","postalCode":"30916","locality":"Isernhagen","municipality":{"key":"03241008","name":"Isernhagen","type":"Kreisangehörige_Gemeinde"},"district":{"key":"03241","name":"Region Hannover","type":"Landkreis"},"federalState":{"key":"03","name":"Niedersachsen"}},{"name":"Hirschberger Steg","postalCode":"30916","locality":"Isernhagen","municipality":{"key":"03241008","name":"Isernhagen","type":"Kreisangehörige_Gemeinde"},"district":{"key":"03241","name":"Region Hannover","type":"Landkreis"},"federalState":{"key":"03","name":"Niedersachsen"}},{"name":"Hirschkamp","postalCode":"30916","locality":"Isernhagen","municipality":{"key":"03241008","name":"Isernhagen","type":"Kreisangehörige_Gemeinde"},"district":{"key":"03241","name":"Region Hannover","type":"Landkreis"},"federalState":{"key":"03","name":"Niedersachsen"}},{"name":"Hirtenwiese","postalCode":"30916","locality":"Isernhagen","municipality":{"key":"03241008","name":"Isernhagen","type":"Kreisangehörige_Gemeinde"},"district":{"key":"03241","name":"Region Hannover","type":"Landkreis"},"federalState":{"key":"03","name":"Niedersachsen"}},{"name":"Höfestr.","postalCode":"30916","locality":"Isernhagen","municipality":{"key":"03241008","name":"Isernhagen","type":"Kreisangehörige_Gemeinde"},"district":{"key":"03241","name":"Region Hannover","type":"Landkreis"},"federalState":{"key":"03","name":"Niedersachsen"}},{"name":"Hohenhorster Kirchweg","postalCode":"30916","locality":"Isernhagen","municipality":{"key":"03241008","name":"Isernhagen","type":"Kreisangehörige_Gemeinde"},"district":{"key":"03241","name":"Region Hannover","type":"Landkreis"},"federalState":{"key":"03","name":"Niedersachsen"}},{"name":"Holbeinstr.","postalCode":"30916","locality":"Isernhagen","municipality":{"key":"03241008","name":"Isernhagen","type":"Kreisangehörige_Gemeinde"},"district":{"key":"03241","name":"Region Hannover","type":"Landkreis"},"federalState":{"key":"03","name":"Niedersachsen"}},{"name":"Holunderkamp","postalCode":"30916","locality":"Isernhagen","municipality":{"key":"03241008","name":"Isernhagen","type":"Kreisangehörige_Gemeinde"},"district":{"key":"03241","name":"Region Hannover","type":"Landkreis"},"federalState":{"key":"03","name":"Niedersachsen"}},{"name":"Hopfenstieg","postalCode":"30916","locality":"Isernhagen","municipality":{"key":"03241008","name":"Isernhagen","type":"Kreisangehörige_Gemeinde"},"district":{"key":"03241","name":"Region Hannover","type":"Landkreis"},"federalState":{"key":"03","name":"Niedersachsen"}},{"name":"Im Barm","postalCode":"30916","locality":"Isernhagen","municipality":{"key":"03241008","name":"Isernhagen","type":"Kreisangehörige_Gemeinde"},"district":{"key":"03241","name":"Region Hannover","type":"Landkreis"},"federalState":{"key":"03","name":"Niedersachsen"}},{"name":"Im Ellernbruch","postalCode":"30916","locality":"Isernhagen","municipality":{"key":"03241008","name":"Isernhagen","type":"Kreisangehörige_Gemeinde"},"district":{"key":"03241","name":"Region Hannover","type":"Landkreis"},"federalState":{"key":"03","name":"Niedersachsen"}},{"name":"Im Gehäge","postalCode":"30916","locality":"Isernhagen","municipality":{"key":"03241008","name":"Isernhagen","type":"Kreisangehörige_Gemeinde"},"district":{"key":"03241","name":"Region Hannover","type":"Landkreis"},"federalState":{"key":"03","name":"Niedersachsen"}},{"name":"Im Grund","postalCode":"30916","locality":"Isernhagen","municipality":{"key":"03241008","name":"Isernhagen","type":"Kreisangehörige_Gemeinde"},"district":{"key":"03241","name":"Region Hannover","type":"Landkreis"},"federalState":{"key":"03","name":"Niedersachsen"}},{"name":"Im Hainholz","postalCode":"30916","locality":"Isernhagen","municipality":{"key":"03241008","name":"Isernhagen","type":"Kreisangehörige_Gemeinde"},"district":{"key":"03241","name":"Region Hannover","type":"Landkreis"},"federalState":{"key":"03","name":"Niedersachsen"}},{"name":"Imkerstr.","postalCode":"30916","locality":"Isernhagen","municipality":{"key":"03241008","name":"Isernhagen","type":"Kreisangehörige_Gemeinde"},"district":{"key":"03241","name":"Region Hannover","type":"Landkreis"},"federalState":{"key":"03","name":"Niedersachsen"}},{"name":"Im Kolk","postalCode":"30916","locality":"Isernhagen","municipality":{"key":"03241008","name":"Isernhagen","type":"Kreisangehörige_Gemeinde"},"district":{"key":"03241","name":"Region Hannover","type":"Landkreis"},"federalState":{"key":"03","name":"Niedersachsen"}},{"name":"Im kurzen Felde","postalCode":"30916","locality":"Isernhagen","municipality":{"key":"03241008","name":"Isernhagen","type":"Kreisangehörige_Gemeinde"},"district":{"key":"03241","name":"Region Hannover","type":"Landkreis"},"federalState":{"key":"03","name":"Niedersachsen"}},{"name":"Im Lüdeckenrat","postalCode":"30916","locality":"Isernhagen","municipality":{"key":"03241008","name":"Isernhagen","type":"Kreisangehörige_Gemeinde"},"district":{"key":"03241","name":"Region Hannover","type":"Landkreis"},"federalState":{"key":"03","name":"Niedersachsen"}},{"name":"Im Maisfeld","postalCode":"30916","locality":"Isernhagen","municipality":{"key":"03241008","name":"Isernhagen","type":"Kreisangehörige_Gemeinde"},"district":{"key":"03241","name":"Region Hannover","type":"Landkreis"},"federalState":{"key":"03","name":"Niedersachsen"}},{"name":"Immenzaun","postalCode":"30916","locality":"Isernhagen","municipality":{"key":"03241008","name":"Isernhagen","type":"Kreisangehörige_Gemeinde"},"district":{"key":"03241","name":"Region Hannover","type":"Landkreis"},"federalState":{"key":"03","name":"Niedersachsen"}},{"name":"Im Mühlengarten","postalCode":"30916","locality":"Isernhagen","municipality":{"key":"03241008","name":"Isernhagen","type":"Kreisangehörige_Gemeinde"},"district":{"key":"03241","name":"Region Hannover","type":"Landkreis"},"federalState":{"key":"03","name":"Niedersachsen"}},{"name":"Im Rosenhag","postalCode":"30916","locality":"Isernhagen","municipality":{"key":"03241008","name":"Isernhagen","type":"Kreisangehörige_Gemeinde"},"district":{"key":"03241","name":"Region Hannover","type":"Landkreis"},"federalState":{"key":"03","name":"Niedersachsen"}},{"name":"Im Rothen","postalCode":"30916","locality":"Isernhagen","municipality":{"key":"03241008","name":"Isernhagen","type":"Kreisangehörige_Gemeinde"},"district":{"key":"03241","name":"Region Hannover","type":"Landkreis"},"federalState":{"key":"03","name":"Niedersachsen"}},{"name":"Im Vorfelde","postalCode":"30916","locality":"Isernhagen","municipality":{"key":"03241008","name":"Isernhagen","type":"Kreisangehörige_Gemeinde"},"district":{"key":"03241","name":"Region Hannover","type":"Landkreis"},"federalState":{"key":"03","name":"Niedersachsen"}},{"name":"Im Winkel","postalCode":"30916","locality":"Isernhagen","municipality":{"key":"03241008","name":"Isernhagen","type":"Kreisangehörige_Gemeinde"},"district":{"key":"03241","name":"Region Hannover","type":"Landkreis"},"federalState":{"key":"03","name":"Niedersachsen"}},{"name":"In den Bülten","postalCode":"30916","locality":"Isernhagen","municipality":{"key":"03241008","name":"Isernhagen","type":"Kreisangehörige_Gemeinde"},"district":{"key":"03241","name":"Region Hannover","type":"Landkreis"},"federalState":{"key":"03","name":"Niedersachsen"}},{"name":"In den Gärten","postalCode":"30916","locality":"Isernhagen","municipality":{"key":"03241008","name":"Isernhagen","type":"Kreisangehörige_Gemeinde"},"district":{"key":"03241","name":"Region Hannover","type":"Landkreis"},"federalState":{"key":"03","name":"Niedersachsen"}},{"name":"Industriestr.","postalCode":"30916","locality":"Isernhagen","municipality":{"key":"03241008","name":"Isernhagen","type":"Kreisangehörige_Gemeinde"},"district":{"key":"03241","name":"Region Hannover","type":"Landkreis"},"federalState":{"key":"03","name":"Niedersachsen"}},{"name":"Irisweg","postalCode":"30916","locality":"Isernhagen","municipality":{"key":"03241008","name":"Isernhagen","type":"Kreisangehörige_Gemeinde"},"district":{"key":"03241","name":"Region Hannover","type":"Landkreis"},"federalState":{"key":"03","name":"Niedersachsen"}},{"name":"Isenkamp","postalCode":"30916","locality":"Isernhagen","municipality":{"key":"03241008","name":"Isernhagen","type":"Kreisangehörige_Gemeinde"},"district":{"key":"03241","name":"Region Hannover","type":"Landkreis"},"federalState":{"key":"03","name":"Niedersachsen"}},{"name":"Isernhagener Str.","postalCode":"30916","locality":"Isernhagen","municipality":{"key":"03241008","name":"Isernhagen","type":"Kreisangehörige_Gemeinde"},"district":{"key":"03241","name":"Region Hannover","type":"Landkreis"},"federalState":{"key":"03","name":"Niedersachsen"}},{"name":"Jacobistr.","postalCode":"30916","locality":"Isernhagen","municipality":{"key":"03241008","name":"Isernhagen","type":"Kreisangehörige_Gemeinde"},"district":{"key":"03241","name":"Region Hannover","type":"Landkreis"},"federalState":{"key":"03","name":"Niedersachsen"}},{"name":"Jadeweg","postalCode":"30916","locality":"Isernhagen","municipality":{"key":"03241008","name":"Isernhagen","type":"Kreisangehörige_Gemeinde"},"district":{"key":"03241","name":"Region Hannover","type":"Landkreis"},"federalState":{"key":"03","name":"Niedersachsen"}},{"name":"Jasminweg","postalCode":"30916","locality":"Isernhagen","municipality":{"key":"03241008","name":"Isernhagen","type":"Kreisangehörige_Gemeinde"},"district":{"key":"03241","name":"Region Hannover","type":"Landkreis"},"federalState":{"key":"03","name":"Niedersachsen"}},{"name":"Kahlenberg","postalCode":"30916","locality":"Isernhagen","municipality":{"key":"03241008","name":"Isernhagen","type":"Kreisangehörige_Gemeinde"},"district":{"key":"03241","name":"Region Hannover","type":"Landkreis"},"federalState":{"key":"03","name":"Niedersachsen"}},{"name":"Kalmiaweg","postalCode":"30916","locality":"Isernhagen","municipality":{"key":"03241008","name":"Isernhagen","type":"Kreisangehörige_Gemeinde"},"district":{"key":"03241","name":"Region Hannover","type":"Landkreis"},"federalState":{"key":"03","name":"Niedersachsen"}},{"name":"Kapellenstr.","postalCode":"30916","locality":"Isernhagen","municipality":{"key":"03241008","name":"Isernhagen","type":"Kreisangehörige_Gemeinde"},"district":{"key":"03241","name":"Region Hannover","type":"Landkreis"},"federalState":{"key":"03","name":"Niedersachsen"}},{"name":"Karlsbader Weg","postalCode":"30916","locality":"Isernhagen","municipality":{"key":"03241008","name":"Isernhagen","type":"Kreisangehörige_Gemeinde"},"district":{"key":"03241","name":"Region Hannover","type":"Landkreis"},"federalState":{"key":"03","name":"Niedersachsen"}},{"name":"Kastanienweg","postalCode":"30916","locality":"Isernhagen","municipality":{"key":"03241008","name":"Isernhagen","type":"Kreisangehörige_Gemeinde"},"district":{"key":"03241","name":"Region Hannover","type":"Landkreis"},"federalState":{"key":"03","name":"Niedersachsen"}},{"name":"Kiefernweg","postalCode":"30916","locality":"Isernhagen","municipality":{"key":"03241008","name":"Isernhagen","type":"Kreisangehörige_Gemeinde"},"district":{"key":"03241","name":"Region Hannover","type":"Landkreis"},"federalState":{"key":"03","name":"Niedersachsen"}},{"name":"Kirchbusch","postalCode":"30916","locality":"Isernhagen","municipality":{"key":"03241008","name":"Isernhagen","type":"Kreisangehörige_Gemeinde"},"district":{"key":"03241","name":"Region Hannover","type":"Landkreis"},"federalState":{"key":"03","name":"Niedersachsen"}},{"name":"Kircher Kämpen","postalCode":"30916","locality":"Isernhagen","municipality":{"key":"03241008","name":"Isernhagen","type":"Kreisangehörige_Gemeinde"},"district":{"key":"03241","name":"Region Hannover","type":"Landkreis"},"federalState":{"key":"03","name":"Niedersachsen"}},{"name":"Kircher Stich","postalCode":"30916","locality":"Isernhagen","municipality":{"key":"03241008","name":"Isernhagen","type":"Kreisangehörige_Gemeinde"},"district":{"key":"03241","name":"Region Hannover","type":"Landkreis"},"federalState":{"key":"03","name":"Niedersachsen"}},{"name":"Kircher Str.","postalCode":"30916","locality":"Isernhagen","municipality":{"key":"03241008","name":"Isernhagen","type":"Kreisangehörige_Gemeinde"},"district":{"key":"03241","name":"Region Hannover","type":"Landkreis"},"federalState":{"key":"03","name":"Niedersachsen"}},{"name":"Kircher Vorfeld","postalCode":"30916","locality":"Isernhagen","municipality":{"key":"03241008","name":"Isernhagen","type":"Kreisangehörige_Gemeinde"},"district":{"key":"03241","name":"Region Hannover","type":"Landkreis"},"federalState":{"key":"03","name":"Niedersachsen"}},{"name":"Kirchweg","postalCode":"30916","locality":"Isernhagen","municipality":{"key":"03241008","name":"Isernhagen","type":"Kreisangehörige_Gemeinde"},"district":{"key":"03241","name":"Region Hannover","type":"Landkreis"},"federalState":{"key":"03","name":"Niedersachsen"}},{"name":"Kleiststr.","postalCode":"30916","locality":"Isernhagen","municipality":{"key":"03241008","name":"Isernhagen","type":"Kreisangehörige_Gemeinde"},"district":{"key":"03241","name":"Region Hannover","type":"Landkreis"},"federalState":{"key":"03","name":"Niedersachsen"}},{"name":"Kollberg","postalCode":"30916","locality":"Isernhagen","municipality":{"key":"03241008","name":"Isernhagen","type":"Kreisangehörige_Gemeinde"},"district":{"key":"03241","name":"Region Hannover","type":"Landkreis"},"federalState":{"key":"03","name":"Niedersachsen"}},{"name":"Königsberger Str.","postalCode":"30916","locality":"Isernhagen","municipality":{"key":"03241008","name":"Isernhagen","type":"Kreisangehörige_Gemeinde"},"district":{"key":"03241","name":"Region Hannover","type":"Landkreis"},"federalState":{"key":"03","name":"Niedersachsen"}},{"name":"Kranichring","postalCode":"30916","locality":"Isernhagen","municipality":{"key":"03241008","name":"Isernhagen","type":"Kreisangehörige_Gemeinde"},"district":{"key":"03241","name":"Region Hannover","type":"Landkreis"},"federalState":{"key":"03","name":"Niedersachsen"}},{"name":"Kraunskamp","postalCode":"30916","locality":"Isernhagen","municipality":{"key":"03241008","name":"Isernhagen","type":"Kreisangehörige_Gemeinde"},"district":{"key":"03241","name":"Region Hannover","type":"Landkreis"},"federalState":{"key":"03","name":"Niedersachsen"}},{"name":"Krendelstr.","postalCode":"30916","locality":"Isernhagen","municipality":{"key":"03241008","name":"Isernhagen","type":"Kreisangehörige_Gemeinde"},"district":{"key":"03241","name":"Region Hannover","type":"Landkreis"},"federalState":{"key":"03","name":"Niedersachsen"}},{"name":"Kreugers Weg","postalCode":"30916","locality":"Isernhagen","municipality":{"key":"03241008","name":"Isernhagen","type":"Kreisangehörige_Gemeinde"},"district":{"key":"03241","name":"Region Hannover","type":"Landkreis"},"federalState":{"key":"03","name":"Niedersachsen"}},{"name":"Kurze Str.","postalCode":"30916","locality":"Isernhagen","municipality":{"key":"03241008","name":"Isernhagen","type":"Kreisangehörige_Gemeinde"},"district":{"key":"03241","name":"Region Hannover","type":"Landkreis"},"federalState":{"key":"03","name":"Niedersachsen"}},{"name":"Lahriede","postalCode":"30916","locality":"Isernhagen","municipality":{"key":"03241008","name":"Isernhagen","type":"Kreisangehörige_Gemeinde"},"district":{"key":"03241","name":"Region Hannover","type":"Landkreis"},"federalState":{"key":"03","name":"Niedersachsen"}},{"name":"Langer Kamp","postalCode":"30916","locality":"Isernhagen","municipality":{"key":"03241008","name":"Isernhagen","type":"Kreisangehörige_Gemeinde"},"district":{"key":"03241","name":"Region Hannover","type":"Landkreis"},"federalState":{"key":"03","name":"Niedersachsen"}},{"name":"Lausitzer Str.","postalCode":"30916","locality":"Isernhagen","municipality":{"key":"03241008","name":"Isernhagen","type":"Kreisangehörige_Gemeinde"},"district":{"key":"03241","name":"Region Hannover","type":"Landkreis"},"federalState":{"key":"03","name":"Niedersachsen"}},{"name":"Leddinring","postalCode":"30916","locality":"Isernhagen","municipality":{"key":"03241008","name":"Isernhagen","type":"Kreisangehörige_Gemeinde"},"district":{"key":"03241","name":"Region Hannover","type":"Landkreis"},"federalState":{"key":"03","name":"Niedersachsen"}},{"name":"Leineweg","postalCode":"30916","locality":"Isernhagen","municipality":{"key":"03241008","name":"Isernhagen","type":"Kreisangehörige_Gemeinde"},"district":{"key":"03241","name":"Region Hannover","type":"Landkreis"},"federalState":{"key":"03","name":"Niedersachsen"}},{"name":"Lerchenweg","postalCode":"30916","locality":"Isernhagen","municipality":{"key":"03241008","name":"Isernhagen","type":"Kreisangehörige_Gemeinde"},"district":{"key":"03241","name":"Region Hannover","type":"Landkreis"},"federalState":{"key":"03","name":"Niedersachsen"}},{"name":"Lessingstr.","postalCode":"30916","locality":"Isernhagen","municipality":{"key":"03241008","name":"Isernhagen","type":"Kreisangehörige_Gemeinde"},"district":{"key":"03241","name":"Region Hannover","type":"Landkreis"},"federalState":{"key":"03","name":"Niedersachsen"}},{"name":"Liegnitzer Str.","postalCode":"30916","locality":"Isernhagen","municipality":{"key":"03241008","name":"Isernhagen","type":"Kreisangehörige_Gemeinde"},"district":{"key":"03241","name":"Region Hannover","type":"Landkreis"},"federalState":{"key":"03","name":"Niedersachsen"}},{"name":"Lilienthalstr.","postalCode":"30916","locality":"Isernhagen","municipality":{"key":"03241008","name":"Isernhagen","type":"Kreisangehörige_Gemeinde"},"district":{"key":"03241","name":"Region Hannover","type":"Landkreis"},"federalState":{"key":"03","name":"Niedersachsen"}},{"name":"Lilienweg","postalCode":"30916","locality":"Isernhagen","municipality":{"key":"03241008","name":"Isernhagen","type":"Kreisangehörige_Gemeinde"},"district":{"key":"03241","name":"Region Hannover","type":"Landkreis"},"federalState":{"key":"03","name":"Niedersachsen"}},{"name":"Lindenweg","postalCode":"30916","locality":"Isernhagen","municipality":{"key":"03241008","name":"Isernhagen","type":"Kreisangehörige_Gemeinde"},"district":{"key":"03241","name":"Region Hannover","type":"Landkreis"},"federalState":{"key":"03","name":"Niedersachsen"}},{"name":"Listerbusch","postalCode":"30916","locality":"Isernhagen","municipality":{"key":"03241008","name":"Isernhagen","type":"Kreisangehörige_Gemeinde"},"district":{"key":"03241","name":"Region Hannover","type":"Landkreis"},"federalState":{"key":"03","name":"Niedersachsen"}},{"name":"Lohner Weg","postalCode":"30916","locality":"Isernhagen","municipality":{"key":"03241008","name":"Isernhagen","type":"Kreisangehörige_Gemeinde"},"district":{"key":"03241","name":"Region Hannover","type":"Landkreis"},"federalState":{"key":"03","name":"Niedersachsen"}},{"name":"Lorbeerrosenweg","postalCode":"30916","locality":"Isernhagen","municipality":{"key":"03241008","name":"Isernhagen","type":"Kreisangehörige_Gemeinde"},"district":{"key":"03241","name":"Region Hannover","type":"Landkreis"},"federalState":{"key":"03","name":"Niedersachsen"}},{"name":"Ludwig-Thoma-Str.","postalCode":"30916","locality":"Isernhagen","municipality":{"key":"03241008","name":"Isernhagen","type":"Kreisangehörige_Gemeinde"},"district":{"key":"03241","name":"Region Hannover","type":"Landkreis"},"federalState":{"key":"03","name":"Niedersachsen"}},{"name":"Luise-Stünkel-Str.","postalCode":"30916","locality":"Isernhagen","municipality":{"key":"03241008","name":"Isernhagen","type":"Kreisangehörige_Gemeinde"},"district":{"key":"03241","name":"Region Hannover","type":"Landkreis"},"federalState":{"key":"03","name":"Niedersachsen"}},{"name":"Luiseweg","postalCode":"30916","locality":"Isernhagen","municipality":{"key":"03241008","name":"Isernhagen","type":"Kreisangehörige_Gemeinde"},"district":{"key":"03241","name":"Region Hannover","type":"Landkreis"},"federalState":{"key":"03","name":"Niedersachsen"}},{"name":"Lüneburger Damm","postalCode":"30916","locality":"Isernhagen","municipality":{"key":"03241008","name":"Isernhagen","type":"Kreisangehörige_Gemeinde"},"district":{"key":"03241","name":"Region Hannover","type":"Landkreis"},"federalState":{"key":"03","name":"Niedersachsen"}},{"name":"Malerwinkel","postalCode":"30916","locality":"Isernhagen","municipality":{"key":"03241008","name":"Isernhagen","type":"Kreisangehörige_Gemeinde"},"district":{"key":"03241","name":"Region Hannover","type":"Landkreis"},"federalState":{"key":"03","name":"Niedersachsen"}},{"name":"Marienberger Weg","postalCode":"30916","locality":"Isernhagen","municipality":{"key":"03241008","name":"Isernhagen","type":"Kreisangehörige_Gemeinde"},"district":{"key":"03241","name":"Region Hannover","type":"Landkreis"},"federalState":{"key":"03","name":"Niedersachsen"}},{"name":"Martin-Luther-Weg","postalCode":"30916","locality":"Isernhagen","municipality":{"key":"03241008","name":"Isernhagen","type":"Kreisangehörige_Gemeinde"},"district":{"key":"03241","name":"Region Hannover","type":"Landkreis"},"federalState":{"key":"03","name":"Niedersachsen"}},{"name":"Maurerstr.","postalCode":"30916","locality":"Isernhagen","municipality":{"key":"03241008","name":"Isernhagen","type":"Kreisangehörige_Gemeinde"},"district":{"key":"03241","name":"Region Hannover","type":"Landkreis"},"federalState":{"key":"03","name":"Niedersachsen"}},{"name":"Milanweg","postalCode":"30916","locality":"Isernhagen","municipality":{"key":"03241008","name":"Isernhagen","type":"Kreisangehörige_Gemeinde"},"district":{"key":"03241","name":"Region Hannover","type":"Landkreis"},"federalState":{"key":"03","name":"Niedersachsen"}},{"name":"Milchstr.","postalCode":"30916","locality":"Isernhagen","municipality":{"key":"03241008","name":"Isernhagen","type":"Kreisangehörige_Gemeinde"},"district":{"key":"03241","name":"Region Hannover","type":"Landkreis"},"federalState":{"key":"03","name":"Niedersachsen"}},{"name":"Moorstr.","postalCode":"30916","locality":"Isernhagen","municipality":{"key":"03241008","name":"Isernhagen","type":"Kreisangehörige_Gemeinde"},"district":{"key":"03241","name":"Region Hannover","type":"Landkreis"},"federalState":{"key":"03","name":"Niedersachsen"}},{"name":"Moosgrund","postalCode":"30916","locality":"Isernhagen","municipality":{"key":"03241008","name":"Isernhagen","type":"Kreisangehörige_Gemeinde"},"district":{"key":"03241","name":"Region Hannover","type":"Landkreis"},"federalState":{"key":"03","name":"Niedersachsen"}},{"name":"Möwenkamp","postalCode":"30916","locality":"Isernhagen","municipality":{"key":"03241008","name":"Isernhagen","type":"Kreisangehörige_Gemeinde"},"district":{"key":"03241","name":"Region Hannover","type":"Landkreis"},"federalState":{"key":"03","name":"Niedersachsen"}},{"name":"Mozartstr.","postalCode":"30916","locality":"Isernhagen","municipality":{"key":"03241008","name":"Isernhagen","type":"Kreisangehörige_Gemeinde"},"district":{"key":"03241","name":"Region Hannover","type":"Landkreis"},"federalState":{"key":"03","name":"Niedersachsen"}},{"name":"Mühlenweg","postalCode":"30916","locality":"Isernhagen","municipality":{"key":"03241008","name":"Isernhagen","type":"Kreisangehörige_Gemeinde"},"district":{"key":"03241","name":"Region Hannover","type":"Landkreis"},"federalState":{"key":"03","name":"Niedersachsen"}},{"name":"Neißer Weg","postalCode":"30916","locality":"Isernhagen","municipality":{"key":"03241008","name":"Isernhagen","type":"Kreisangehörige_Gemeinde"},"district":{"key":"03241","name":"Region Hannover","type":"Landkreis"},"federalState":{"key":"03","name":"Niedersachsen"}},{"name":"Nelkenweg","postalCode":"30916","locality":"Isernhagen","municipality":{"key":"03241008","name":"Isernhagen","type":"Kreisangehörige_Gemeinde"},"district":{"key":"03241","name":"Region Hannover","type":"Landkreis"},"federalState":{"key":"03","name":"Niedersachsen"}},{"name":"Neuwarmbüchener Str.","postalCode":"30916","locality":"Isernhagen","municipality":{"key":"03241008","name":"Isernhagen","type":"Kreisangehörige_Gemeinde"},"district":{"key":"03241","name":"Region Hannover","type":"Landkreis"},"federalState":{"key":"03","name":"Niedersachsen"}},{"name":"Nogatweg","postalCode":"30916","locality":"Isernhagen","municipality":{"key":"03241008","name":"Isernhagen","type":"Kreisangehörige_Gemeinde"},"district":{"key":"03241","name":"Region Hannover","type":"Landkreis"},"federalState":{"key":"03","name":"Niedersachsen"}},{"name":"Nolteweg","postalCode":"30916","locality":"Isernhagen","municipality":{"key":"03241008","name":"Isernhagen","type":"Kreisangehörige_Gemeinde"},"district":{"key":"03241","name":"Region Hannover","type":"Landkreis"},"federalState":{"key":"03","name":"Niedersachsen"}},{"name":"Okerweg","postalCode":"30916","locality":"Isernhagen","municipality":{"key":"03241008","name":"Isernhagen","type":"Kreisangehörige_Gemeinde"},"district":{"key":"03241","name":"Region Hannover","type":"Landkreis"},"federalState":{"key":"03","name":"Niedersachsen"}},{"name":"Okwerweg","postalCode":"30916","locality":"Isernhagen","municipality":{"key":"03241008","name":"Isernhagen","type":"Kreisangehörige_Gemeinde"},"district":{"key":"03241","name":"Region Hannover","type":"Landkreis"},"federalState":{"key":"03","name":"Niedersachsen"}},{"name":"Opelstr.","postalCode":"30916","locality":"Isernhagen","municipality":{"key":"03241008","name":"Isernhagen","type":"Kreisangehörige_Gemeinde"},"district":{"key":"03241","name":"Region Hannover","type":"Landkreis"},"federalState":{"key":"03","name":"Niedersachsen"}},{"name":"Oppersheide","postalCode":"30916","locality":"Isernhagen","municipality":{"key":"03241008","name":"Isernhagen","type":"Kreisangehörige_Gemeinde"},"district":{"key":"03241","name":"Region Hannover","type":"Landkreis"},"federalState":{"key":"03","name":"Niedersachsen"}},{"name":"Osterfeuerplatz Isernhagen H.B.","postalCode":"30916","locality":"Isernhagen","municipality":{"key":"03241008","name":"Isernhagen","type":"Kreisangehörige_Gemeinde"},"district":{"key":"03241","name":"Region Hannover","type":"Landkreis"},"federalState":{"key":"03","name":"Niedersachsen"}},{"name":"Ostpreußenweg","postalCode":"30916","locality":"Isernhagen","municipality":{"key":"03241008","name":"Isernhagen","type":"Kreisangehörige_Gemeinde"},"district":{"key":"03241","name":"Region Hannover","type":"Landkreis"},"federalState":{"key":"03","name":"Niedersachsen"}},{"name":"Otto-Bätke-Weg","postalCode":"30916","locality":"Isernhagen","municipality":{"key":"03241008","name":"Isernhagen","type":"Kreisangehörige_Gemeinde"},"district":{"key":"03241","name":"Region Hannover","type":"Landkreis"},"federalState":{"key":"03","name":"Niedersachsen"}},{"name":"Pappelweg","postalCode":"30916","locality":"Isernhagen","municipality":{"key":"03241008","name":"Isernhagen","type":"Kreisangehörige_Gemeinde"},"district":{"key":"03241","name":"Region Hannover","type":"Landkreis"},"federalState":{"key":"03","name":"Niedersachsen"}},{"name":"Pastorentrift","postalCode":"30916","locality":"Isernhagen","municipality":{"key":"03241008","name":"Isernhagen","type":"Kreisangehörige_Gemeinde"},"district":{"key":"03241","name":"Region Hannover","type":"Landkreis"},"federalState":{"key":"03","name":"Niedersachsen"}},{"name":"Pestalozziweg","postalCode":"30916","locality":"Isernhagen","municipality":{"key":"03241008","name":"Isernhagen","type":"Kreisangehörige_Gemeinde"},"district":{"key":"03241","name":"Region Hannover","type":"Landkreis"},"federalState":{"key":"03","name":"Niedersachsen"}},{"name":"Peter-Rosegger-Str.","postalCode":"30916","locality":"Isernhagen","municipality":{"key":"03241008","name":"Isernhagen","type":"Kreisangehörige_Gemeinde"},"district":{"key":"03241","name":"Region Hannover","type":"Landkreis"},"federalState":{"key":"03","name":"Niedersachsen"}},{"name":"Pommenweg","postalCode":"30916","locality":"Isernhagen","municipality":{"key":"03241008","name":"Isernhagen","type":"Kreisangehörige_Gemeinde"},"district":{"key":"03241","name":"Region Hannover","type":"Landkreis"},"federalState":{"key":"03","name":"Niedersachsen"}},{"name":"Porstweg","postalCode":"30916","locality":"Isernhagen","municipality":{"key":"03241008","name":"Isernhagen","type":"Kreisangehörige_Gemeinde"},"district":{"key":"03241","name":"Region Hannover","type":"Landkreis"},"federalState":{"key":"03","name":"Niedersachsen"}},{"name":"Potsdamer Str.","postalCode":"30916","locality":"Isernhagen","municipality":{"key":"03241008","name":"Isernhagen","type":"Kreisangehörige_Gemeinde"},"district":{"key":"03241","name":"Region Hannover","type":"Landkreis"},"federalState":{"key":"03","name":"Niedersachsen"}},{"name":"Pregelweg","postalCode":"30916","locality":"Isernhagen","municipality":{"key":"03241008","name":"Isernhagen","type":"Kreisangehörige_Gemeinde"},"district":{"key":"03241","name":"Region Hannover","type":"Landkreis"},"federalState":{"key":"03","name":"Niedersachsen"}},{"name":"Prüßentrift","postalCode":"30916","locality":"Isernhagen","municipality":{"key":"03241008","name":"Isernhagen","type":"Kreisangehörige_Gemeinde"},"district":{"key":"03241","name":"Region Hannover","type":"Landkreis"},"federalState":{"key":"03","name":"Niedersachsen"}},{"name":"Questwiesen","postalCode":"30916","locality":"Isernhagen","municipality":{"key":"03241008","name":"Isernhagen","type":"Kreisangehörige_Gemeinde"},"district":{"key":"03241","name":"Region Hannover","type":"Landkreis"},"federalState":{"key":"03","name":"Niedersachsen"}},{"name":"Raulsweg","postalCode":"30916","locality":"Isernhagen","municipality":{"key":"03241008","name":"Isernhagen","type":"Kreisangehörige_Gemeinde"},"district":{"key":"03241","name":"Region Hannover","type":"Landkreis"},"federalState":{"key":"03","name":"Niedersachsen"}},{"name":"Rehbocksweg","postalCode":"30916","locality":"Isernhagen","municipality":{"key":"03241008","name":"Isernhagen","type":"Kreisangehörige_Gemeinde"},"district":{"key":"03241","name":"Region Hannover","type":"Landkreis"},"federalState":{"key":"03","name":"Niedersachsen"}},{"name":"Rehkamp","postalCode":"30916","locality":"Isernhagen","municipality":{"key":"03241008","name":"Isernhagen","type":"Kreisangehörige_Gemeinde"},"district":{"key":"03241","name":"Region Hannover","type":"Landkreis"},"federalState":{"key":"03","name":"Niedersachsen"}},{"name":"Reiherweg","postalCode":"30916","locality":"Isernhagen","municipality":{"key":"03241008","name":"Isernhagen","type":"Kreisangehörige_Gemeinde"},"district":{"key":"03241","name":"Region Hannover","type":"Landkreis"},"federalState":{"key":"03","name":"Niedersachsen"}},{"name":"Rembrandtstr.","postalCode":"30916","locality":"Isernhagen","municipality":{"key":"03241008","name":"Isernhagen","type":"Kreisangehörige_Gemeinde"},"district":{"key":"03241","name":"Region Hannover","type":"Landkreis"},"federalState":{"key":"03","name":"Niedersachsen"}},{"name":"Reuterdamm","postalCode":"30916","locality":"Isernhagen","municipality":{"key":"03241008","name":"Isernhagen","type":"Kreisangehörige_Gemeinde"},"district":{"key":"03241","name":"Region Hannover","type":"Landkreis"},"federalState":{"key":"03","name":"Niedersachsen"}},{"name":"Riedkamp","postalCode":"30916","locality":"Isernhagen","municipality":{"key":"03241008","name":"Isernhagen","type":"Kreisangehörige_Gemeinde"},"district":{"key":"03241","name":"Region Hannover","type":"Landkreis"},"federalState":{"key":"03","name":"Niedersachsen"}},{"name":"Riethe","postalCode":"30916","locality":"Isernhagen","municipality":{"key":"03241008","name":"Isernhagen","type":"Kreisangehörige_Gemeinde"},"district":{"key":"03241","name":"Region Hannover","type":"Landkreis"},"federalState":{"key":"03","name":"Niedersachsen"}},{"name":"Riethof","postalCode":"30916","locality":"Isernhagen","municipality":{"key":"03241008","name":"Isernhagen","type":"Kreisangehörige_Gemeinde"},"district":{"key":"03241","name":"Region Hannover","type":"Landkreis"},"federalState":{"key":"03","name":"Niedersachsen"}},{"name":"Rodelweg","postalCode":"30916","locality":"Isernhagen","municipality":{"key":"03241008","name":"Isernhagen","type":"Kreisangehörige_Gemeinde"},"district":{"key":"03241","name":"Region Hannover","type":"Landkreis"},"federalState":{"key":"03","name":"Niedersachsen"}},{"name":"Roggenhof","postalCode":"30916","locality":"Isernhagen","municipality":{"key":"03241008","name":"Isernhagen","type":"Kreisangehörige_Gemeinde"},"district":{"key":"03241","name":"Region Hannover","type":"Landkreis"},"federalState":{"key":"03","name":"Niedersachsen"}},{"name":"Roggenkamp","postalCode":"30916","locality":"Isernhagen","municipality":{"key":"03241008","name":"Isernhagen","type":"Kreisangehörige_Gemeinde"},"district":{"key":"03241","name":"Region Hannover","type":"Landkreis"},"federalState":{"key":"03","name":"Niedersachsen"}},{"name":"Rohrammerweg","postalCode":"30916","locality":"Isernhagen","municipality":{"key":"03241008","name":"Isernhagen","type":"Kreisangehörige_Gemeinde"},"district":{"key":"03241","name":"Region Hannover","type":"Landkreis"},"federalState":{"key":"03","name":"Niedersachsen"}},{"name":"Romintenweg","postalCode":"30916","locality":"Isernhagen","municipality":{"key":"03241008","name":"Isernhagen","type":"Kreisangehörige_Gemeinde"},"district":{"key":"03241","name":"Region Hannover","type":"Landkreis"},"federalState":{"key":"03","name":"Niedersachsen"}},{"name":"Rosenstr.","postalCode":"30916","locality":"Isernhagen","municipality":{"key":"03241008","name":"Isernhagen","type":"Kreisangehörige_Gemeinde"},"district":{"key":"03241","name":"Region Hannover","type":"Landkreis"},"federalState":{"key":"03","name":"Niedersachsen"}},{"name":"Rosenweg","postalCode":"30916","locality":"Isernhagen","municipality":{"key":"03241008","name":"Isernhagen","type":"Kreisangehörige_Gemeinde"},"district":{"key":"03241","name":"Region Hannover","type":"Landkreis"},"federalState":{"key":"03","name":"Niedersachsen"}},{"name":"Rosmarinweg","postalCode":"30916","locality":"Isernhagen","municipality":{"key":"03241008","name":"Isernhagen","type":"Kreisangehörige_Gemeinde"},"district":{"key":"03241","name":"Region Hannover","type":"Landkreis"},"federalState":{"key":"03","name":"Niedersachsen"}},{"name":"Rotdornweg","postalCode":"30916","locality":"Isernhagen","municipality":{"key":"03241008","name":"Isernhagen","type":"Kreisangehörige_Gemeinde"},"district":{"key":"03241","name":"Region Hannover","type":"Landkreis"},"federalState":{"key":"03","name":"Niedersachsen"}},{"name":"Rubensstr.","postalCode":"30916","locality":"Isernhagen","municipality":{"key":"03241008","name":"Isernhagen","type":"Kreisangehörige_Gemeinde"},"district":{"key":"03241","name":"Region Hannover","type":"Landkreis"},"federalState":{"key":"03","name":"Niedersachsen"}},{"name":"Rubinkamp","postalCode":"30916","locality":"Isernhagen","municipality":{"key":"03241008","name":"Isernhagen","type":"Kreisangehörige_Gemeinde"},"district":{"key":"03241","name":"Region Hannover","type":"Landkreis"},"federalState":{"key":"03","name":"Niedersachsen"}},{"name":"Samlandstr.","postalCode":"30916","locality":"Isernhagen","municipality":{"key":"03241008","name":"Isernhagen","type":"Kreisangehörige_Gemeinde"},"district":{"key":"03241","name":"Region Hannover","type":"Landkreis"},"federalState":{"key":"03","name":"Niedersachsen"}},{"name":"Sattlerstr.","postalCode":"30916","locality":"Isernhagen","municipality":{"key":"03241008","name":"Isernhagen","type":"Kreisangehörige_Gemeinde"},"district":{"key":"03241","name":"Region Hannover","type":"Landkreis"},"federalState":{"key":"03","name":"Niedersachsen"}},{"name":"Schellhornfeld","postalCode":"30916","locality":"Isernhagen","municipality":{"key":"03241008","name":"Isernhagen","type":"Kreisangehörige_Gemeinde"},"district":{"key":"03241","name":"Region Hannover","type":"Landkreis"},"federalState":{"key":"03","name":"Niedersachsen"}},{"name":"Schellhornweg","postalCode":"30916","locality":"Isernhagen","municipality":{"key":"03241008","name":"Isernhagen","type":"Kreisangehörige_Gemeinde"},"district":{"key":"03241","name":"Region Hannover","type":"Landkreis"},"federalState":{"key":"03","name":"Niedersachsen"}},{"name":"Schilfgrund","postalCode":"30916","locality":"Isernhagen","municipality":{"key":"03241008","name":"Isernhagen","type":"Kreisangehörige_Gemeinde"},"district":{"key":"03241","name":"Region Hannover","type":"Landkreis"},"federalState":{"key":"03","name":"Niedersachsen"}},{"name":"Schlehenweg","postalCode":"30916","locality":"Isernhagen","municipality":{"key":"03241008","name":"Isernhagen","type":"Kreisangehörige_Gemeinde"},"district":{"key":"03241","name":"Region Hannover","type":"Landkreis"},"federalState":{"key":"03","name":"Niedersachsen"}},{"name":"Schlesierdamm","postalCode":"30916","locality":"Isernhagen","municipality":{"key":"03241008","name":"Isernhagen","type":"Kreisangehörige_Gemeinde"},"district":{"key":"03241","name":"Region Hannover","type":"Landkreis"},"federalState":{"key":"03","name":"Niedersachsen"}},{"name":"Schlosserstr.","postalCode":"30916","locality":"Isernhagen","municipality":{"key":"03241008","name":"Isernhagen","type":"Kreisangehörige_Gemeinde"},"district":{"key":"03241","name":"Region Hannover","type":"Landkreis"},"federalState":{"key":"03","name":"Niedersachsen"}},{"name":"Schmiededamm","postalCode":"30916","locality":"Isernhagen","municipality":{"key":"03241008","name":"Isernhagen","type":"Kreisangehörige_Gemeinde"},"district":{"key":"03241","name":"Region Hannover","type":"Landkreis"},"federalState":{"key":"03","name":"Niedersachsen"}},{"name":"Schneekoppenweg","postalCode":"30916","locality":"Isernhagen","municipality":{"key":"03241008","name":"Isernhagen","type":"Kreisangehörige_Gemeinde"},"district":{"key":"03241","name":"Region Hannover","type":"Landkreis"},"federalState":{"key":"03","name":"Niedersachsen"}},{"name":"Schulweg","postalCode":"30916","locality":"Isernhagen","municipality":{"key":"03241008","name":"Isernhagen","type":"Kreisangehörige_Gemeinde"},"district":{"key":"03241","name":"Region Hannover","type":"Landkreis"},"federalState":{"key":"03","name":"Niedersachsen"}},{"name":"Schwanenkamp","postalCode":"30916","locality":"Isernhagen","municipality":{"key":"03241008","name":"Isernhagen","type":"Kreisangehörige_Gemeinde"},"district":{"key":"03241","name":"Region Hannover","type":"Landkreis"},"federalState":{"key":"03","name":"Niedersachsen"}},{"name":"Seckbruch","postalCode":"30916","locality":"Isernhagen","municipality":{"key":"03241008","name":"Isernhagen","type":"Kreisangehörige_Gemeinde"},"district":{"key":"03241","name":"Region Hannover","type":"Landkreis"},"federalState":{"key":"03","name":"Niedersachsen"}},{"name":"Seeadlerring","postalCode":"30916","locality":"Isernhagen","municipality":{"key":"03241008","name":"Isernhagen","type":"Kreisangehörige_Gemeinde"},"district":{"key":"03241","name":"Region Hannover","type":"Landkreis"},"federalState":{"key":"03","name":"Niedersachsen"}},{"name":"Seerosenstr.","postalCode":"30916","locality":"Isernhagen","municipality":{"key":"03241008","name":"Isernhagen","type":"Kreisangehörige_Gemeinde"},"district":{"key":"03241","name":"Region Hannover","type":"Landkreis"},"federalState":{"key":"03","name":"Niedersachsen"}},{"name":"Seeschwalbenweg","postalCode":"30916","locality":"Isernhagen","municipality":{"key":"03241008","name":"Isernhagen","type":"Kreisangehörige_Gemeinde"},"district":{"key":"03241","name":"Region Hannover","type":"Landkreis"},"federalState":{"key":"03","name":"Niedersachsen"}},{"name":"Seestr.","postalCode":"30916","locality":"Isernhagen","municipality":{"key":"03241008","name":"Isernhagen","type":"Kreisangehörige_Gemeinde"},"district":{"key":"03241","name":"Region Hannover","type":"Landkreis"},"federalState":{"key":"03","name":"Niedersachsen"}},{"name":"Seufzerallee","postalCode":"30916","locality":"Isernhagen","municipality":{"key":"03241008","name":"Isernhagen","type":"Kreisangehörige_Gemeinde"},"district":{"key":"03241","name":"Region Hannover","type":"Landkreis"},"federalState":{"key":"03","name":"Niedersachsen"}},{"name":"Sieversdamm","postalCode":"30916","locality":"Isernhagen","municipality":{"key":"03241008","name":"Isernhagen","type":"Kreisangehörige_Gemeinde"},"district":{"key":"03241","name":"Region Hannover","type":"Landkreis"},"federalState":{"key":"03","name":"Niedersachsen"}},{"name":"Silberkamp","postalCode":"30916","locality":"Isernhagen","municipality":{"key":"03241008","name":"Isernhagen","type":"Kreisangehörige_Gemeinde"},"district":{"key":"03241","name":"Region Hannover","type":"Landkreis"},"federalState":{"key":"03","name":"Niedersachsen"}},{"name":"Simon-Windmeier-Weg","postalCode":"30916","locality":"Isernhagen","municipality":{"key":"03241008","name":"Isernhagen","type":"Kreisangehörige_Gemeinde"},"district":{"key":"03241","name":"Region Hannover","type":"Landkreis"},"federalState":{"key":"03","name":"Niedersachsen"}},{"name":"Sommerda","postalCode":"30916","locality":"Isernhagen","municipality":{"key":"03241008","name":"Isernhagen","type":"Kreisangehörige_Gemeinde"},"district":{"key":"03241","name":"Region Hannover","type":"Landkreis"},"federalState":{"key":"03","name":"Niedersachsen"}},{"name":"Sonnenallee","postalCode":"30916","locality":"Isernhagen","municipality":{"key":"03241008","name":"Isernhagen","type":"Kreisangehörige_Gemeinde"},"district":{"key":"03241","name":"Region Hannover","type":"Landkreis"},"federalState":{"key":"03","name":"Niedersachsen"}},{"name":"Sonnenkamp","postalCode":"30916","locality":"Isernhagen","municipality":{"key":"03241008","name":"Isernhagen","type":"Kreisangehörige_Gemeinde"},"district":{"key":"03241","name":"Region Hannover","type":"Landkreis"},"federalState":{"key":"03","name":"Niedersachsen"}},{"name":"Sonnentauweg","postalCode":"30916","locality":"Isernhagen","municipality":{"key":"03241008","name":"Isernhagen","type":"Kreisangehörige_Gemeinde"},"district":{"key":"03241","name":"Region Hannover","type":"Landkreis"},"federalState":{"key":"03","name":"Niedersachsen"}},{"name":"Sonnenweg","postalCode":"30916","locality":"Isernhagen","municipality":{"key":"03241008","name":"Isernhagen","type":"Kreisangehörige_Gemeinde"},"district":{"key":"03241","name":"Region Hannover","type":"Landkreis"},"federalState":{"key":"03","name":"Niedersachsen"}},{"name":"Soorenweg","postalCode":"30916","locality":"Isernhagen","municipality":{"key":"03241008","name":"Isernhagen","type":"Kreisangehörige_Gemeinde"},"district":{"key":"03241","name":"Region Hannover","type":"Landkreis"},"federalState":{"key":"03","name":"Niedersachsen"}},{"name":"Sophienkamp","postalCode":"30916","locality":"Isernhagen","municipality":{"key":"03241008","name":"Isernhagen","type":"Kreisangehörige_Gemeinde"},"district":{"key":"03241","name":"Region Hannover","type":"Landkreis"},"federalState":{"key":"03","name":"Niedersachsen"}},{"name":"Sperberweg","postalCode":"30916","locality":"Isernhagen","municipality":{"key":"03241008","name":"Isernhagen","type":"Kreisangehörige_Gemeinde"},"district":{"key":"03241","name":"Region Hannover","type":"Landkreis"},"federalState":{"key":"03","name":"Niedersachsen"}},{"name":"Spitzwegstr.","postalCode":"30916","locality":"Isernhagen","municipality":{"key":"03241008","name":"Isernhagen","type":"Kreisangehörige_Gemeinde"},"district":{"key":"03241","name":"Region Hannover","type":"Landkreis"},"federalState":{"key":"03","name":"Niedersachsen"}},{"name":"Steinriede","postalCode":"30916","locality":"Isernhagen","municipality":{"key":"03241008","name":"Isernhagen","type":"Kreisangehörige_Gemeinde"},"district":{"key":"03241","name":"Region Hannover","type":"Landkreis"},"federalState":{"key":"03","name":"Niedersachsen"}},{"name":"Steller Str.","postalCode":"30916","locality":"Isernhagen","municipality":{"key":"03241008","name":"Isernhagen","type":"Kreisangehörige_Gemeinde"},"district":{"key":"03241","name":"Region Hannover","type":"Landkreis"},"federalState":{"key":"03","name":"Niedersachsen"}},{"name":"Stellmacherstr.","postalCode":"30916","locality":"Isernhagen","municipality":{"key":"03241008","name":"Isernhagen","type":"Kreisangehörige_Gemeinde"},"district":{"key":"03241","name":"Region Hannover","type":"Landkreis"},"federalState":{"key":"03","name":"Niedersachsen"}},{"name":"Stettiner Str.","postalCode":"30916","locality":"Isernhagen","municipality":{"key":"03241008","name":"Isernhagen","type":"Kreisangehörige_Gemeinde"},"district":{"key":"03241","name":"Region Hannover","type":"Landkreis"},"federalState":{"key":"03","name":"Niedersachsen"}},{"name":"Stichbruch","postalCode":"30916","locality":"Isernhagen","municipality":{"key":"03241008","name":"Isernhagen","type":"Kreisangehörige_Gemeinde"},"district":{"key":"03241","name":"Region Hannover","type":"Landkreis"},"federalState":{"key":"03","name":"Niedersachsen"}},{"name":"Storchenweg","postalCode":"30916","locality":"Isernhagen","municipality":{"key":"03241008","name":"Isernhagen","type":"Kreisangehörige_Gemeinde"},"district":{"key":"03241","name":"Region Hannover","type":"Landkreis"},"federalState":{"key":"03","name":"Niedersachsen"}},{"name":"Teichhuhnring","postalCode":"30916","locality":"Isernhagen","municipality":{"key":"03241008","name":"Isernhagen","type":"Kreisangehörige_Gemeinde"},"district":{"key":"03241","name":"Region Hannover","type":"Landkreis"},"federalState":{"key":"03","name":"Niedersachsen"}},{"name":"Tilkentrift","postalCode":"30916","locality":"Isernhagen","municipality":{"key":"03241008","name":"Isernhagen","type":"Kreisangehörige_Gemeinde"},"district":{"key":"03241","name":"Region Hannover","type":"Landkreis"},"federalState":{"key":"03","name":"Niedersachsen"}},{"name":"Tischbeinstr.","postalCode":"30916","locality":"Isernhagen","municipality":{"key":"03241008","name":"Isernhagen","type":"Kreisangehörige_Gemeinde"},"district":{"key":"03241","name":"Region Hannover","type":"Landkreis"},"federalState":{"key":"03","name":"Niedersachsen"}},{"name":"Tischlerstr.","postalCode":"30916","locality":"Isernhagen","municipality":{"key":"03241008","name":"Isernhagen","type":"Kreisangehörige_Gemeinde"},"district":{"key":"03241","name":"Region Hannover","type":"Landkreis"},"federalState":{"key":"03","name":"Niedersachsen"}},{"name":"Tonkuhlenweg","postalCode":"30916","locality":"Isernhagen","municipality":{"key":"03241008","name":"Isernhagen","type":"Kreisangehörige_Gemeinde"},"district":{"key":"03241","name":"Region Hannover","type":"Landkreis"},"federalState":{"key":"03","name":"Niedersachsen"}},{"name":"Trakehnerstr.","postalCode":"30916","locality":"Isernhagen","municipality":{"key":"03241008","name":"Isernhagen","type":"Kreisangehörige_Gemeinde"},"district":{"key":"03241","name":"Region Hannover","type":"Landkreis"},"federalState":{"key":"03","name":"Niedersachsen"}},{"name":"Transformatorweg","postalCode":"30916","locality":"Isernhagen","municipality":{"key":"03241008","name":"Isernhagen","type":"Kreisangehörige_Gemeinde"},"district":{"key":"03241","name":"Region Hannover","type":"Landkreis"},"federalState":{"key":"03","name":"Niedersachsen"}},{"name":"Trennemoor","postalCode":"30916","locality":"Isernhagen","municipality":{"key":"03241008","name":"Isernhagen","type":"Kreisangehörige_Gemeinde"},"district":{"key":"03241","name":"Region Hannover","type":"Landkreis"},"federalState":{"key":"03","name":"Niedersachsen"}},{"name":"Trülldamm","postalCode":"30916","locality":"Isernhagen","municipality":{"key":"03241008","name":"Isernhagen","type":"Kreisangehörige_Gemeinde"},"district":{"key":"03241","name":"Region Hannover","type":"Landkreis"},"federalState":{"key":"03","name":"Niedersachsen"}},{"name":"Tulpenweg","postalCode":"30916","locality":"Isernhagen","municipality":{"key":"03241008","name":"Isernhagen","type":"Kreisangehörige_Gemeinde"},"district":{"key":"03241","name":"Region Hannover","type":"Landkreis"},"federalState":{"key":"03","name":"Niedersachsen"}},{"name":"Türkiskamp","postalCode":"30916","locality":"Isernhagen","municipality":{"key":"03241008","name":"Isernhagen","type":"Kreisangehörige_Gemeinde"},"district":{"key":"03241","name":"Region Hannover","type":"Landkreis"},"federalState":{"key":"03","name":"Niedersachsen"}},{"name":"Turnierweg","postalCode":"30916","locality":"Isernhagen","municipality":{"key":"03241008","name":"Isernhagen","type":"Kreisangehörige_Gemeinde"},"district":{"key":"03241","name":"Region Hannover","type":"Landkreis"},"federalState":{"key":"03","name":"Niedersachsen"}},{"name":"Uferweg","postalCode":"30916","locality":"Isernhagen","municipality":{"key":"03241008","name":"Isernhagen","type":"Kreisangehörige_Gemeinde"},"district":{"key":"03241","name":"Region Hannover","type":"Landkreis"},"federalState":{"key":"03","name":"Niedersachsen"}},{"name":"Uhlenkamp","postalCode":"30916","locality":"Isernhagen","municipality":{"key":"03241008","name":"Isernhagen","type":"Kreisangehörige_Gemeinde"},"district":{"key":"03241","name":"Region Hannover","type":"Landkreis"},"federalState":{"key":"03","name":"Niedersachsen"}},{"name":"Ulmenkamp","postalCode":"30916","locality":"Isernhagen","municipality":{"key":"03241008","name":"Isernhagen","type":"Kreisangehörige_Gemeinde"},"district":{"key":"03241","name":"Region Hannover","type":"Landkreis"},"federalState":{"key":"03","name":"Niedersachsen"}},{"name":"Von-Cramm-Weg","postalCode":"30916","locality":"Isernhagen","municipality":{"key":"03241008","name":"Isernhagen","type":"Kreisangehörige_Gemeinde"},"district":{"key":"03241","name":"Region Hannover","type":"Landkreis"},"federalState":{"key":"03","name":"Niedersachsen"}},{"name":"Vor dem Graben","postalCode":"30916","locality":"Isernhagen","municipality":{"key":"03241008","name":"Isernhagen","type":"Kreisangehörige_Gemeinde"},"district":{"key":"03241","name":"Region Hannover","type":"Landkreis"},"federalState":{"key":"03","name":"Niedersachsen"}},{"name":"Vor den Höfen","postalCode":"30916","locality":"Isernhagen","municipality":{"key":"03241008","name":"Isernhagen","type":"Kreisangehörige_Gemeinde"},"district":{"key":"03241","name":"Region Hannover","type":"Landkreis"},"federalState":{"key":"03","name":"Niedersachsen"}},{"name":"Vor der Hahle","postalCode":"30916","locality":"Isernhagen","municipality":{"key":"03241008","name":"Isernhagen","type":"Kreisangehörige_Gemeinde"},"district":{"key":"03241","name":"Region Hannover","type":"Landkreis"},"federalState":{"key":"03","name":"Niedersachsen"}},{"name":"Wachtelstieg","postalCode":"30916","locality":"Isernhagen","municipality":{"key":"03241008","name":"Isernhagen","type":"Kreisangehörige_Gemeinde"},"district":{"key":"03241","name":"Region Hannover","type":"Landkreis"},"federalState":{"key":"03","name":"Niedersachsen"}},{"name":"Waldkauzweg","postalCode":"30916","locality":"Isernhagen","municipality":{"key":"03241008","name":"Isernhagen","type":"Kreisangehörige_Gemeinde"},"district":{"key":"03241","name":"Region Hannover","type":"Landkreis"},"federalState":{"key":"03","name":"Niedersachsen"}},{"name":"Waldpfad","postalCode":"30916","locality":"Isernhagen","municipality":{"key":"03241008","name":"Isernhagen","type":"Kreisangehörige_Gemeinde"},"district":{"key":"03241","name":"Region Hannover","type":"Landkreis"},"federalState":{"key":"03","name":"Niedersachsen"}},{"name":"Waldstr.","postalCode":"30916","locality":"Isernhagen","municipality":{"key":"03241008","name":"Isernhagen","type":"Kreisangehörige_Gemeinde"},"district":{"key":"03241","name":"Region Hannover","type":"Landkreis"},"federalState":{"key":"03","name":"Niedersachsen"}},{"name":"Waltersweg","postalCode":"30916","locality":"Isernhagen","municipality":{"key":"03241008","name":"Isernhagen","type":"Kreisangehörige_Gemeinde"},"district":{"key":"03241","name":"Region Hannover","type":"Landkreis"},"federalState":{"key":"03","name":"Niedersachsen"}},{"name":"Weberstr.","postalCode":"30916","locality":"Isernhagen","municipality":{"key":"03241008","name":"Isernhagen","type":"Kreisangehörige_Gemeinde"},"district":{"key":"03241","name":"Region Hannover","type":"Landkreis"},"federalState":{"key":"03","name":"Niedersachsen"}},{"name":"Weichselweg","postalCode":"30916","locality":"Isernhagen","municipality":{"key":"03241008","name":"Isernhagen","type":"Kreisangehörige_Gemeinde"},"district":{"key":"03241","name":"Region Hannover","type":"Landkreis"},"federalState":{"key":"03","name":"Niedersachsen"}},{"name":"Weidenstr.","postalCode":"30916","locality":"Isernhagen","municipality":{"key":"03241008","name":"Isernhagen","type":"Kreisangehörige_Gemeinde"},"district":{"key":"03241","name":"Region Hannover","type":"Landkreis"},"federalState":{"key":"03","name":"Niedersachsen"}},{"name":"Weizenkamp","postalCode":"30916","locality":"Isernhagen","municipality":{"key":"03241008","name":"Isernhagen","type":"Kreisangehörige_Gemeinde"},"district":{"key":"03241","name":"Region Hannover","type":"Landkreis"},"federalState":{"key":"03","name":"Niedersachsen"}},{"name":"Werlohweg","postalCode":"30916","locality":"Isernhagen","municipality":{"key":"03241008","name":"Isernhagen","type":"Kreisangehörige_Gemeinde"},"district":{"key":"03241","name":"Region Hannover","type":"Landkreis"},"federalState":{"key":"03","name":"Niedersachsen"}},{"name":"Wiesenweg","postalCode":"30916","locality":"Isernhagen","municipality":{"key":"03241008","name":"Isernhagen","type":"Kreisangehörige_Gemeinde"},"district":{"key":"03241","name":"Region Hannover","type":"Landkreis"},"federalState":{"key":"03","name":"Niedersachsen"}},{"name":"Wietzeaue","postalCode":"30916","locality":"Isernhagen","municipality":{"key":"03241008","name":"Isernhagen","type":"Kreisangehörige_Gemeinde"},"district":{"key":"03241","name":"Region Hannover","type":"Landkreis"},"federalState":{"key":"03","name":"Niedersachsen"}},{"name":"Wildhagenweg","postalCode":"30916","locality":"Isernhagen","municipality":{"key":"03241008","name":"Isernhagen","type":"Kreisangehörige_Gemeinde"},"district":{"key":"03241","name":"Region Hannover","type":"Landkreis"},"federalState":{"key":"03","name":"Niedersachsen"}},{"name":"Wildkamp","postalCode":"30916","locality":"Isernhagen","municipality":{"key":"03241008","name":"Isernhagen","type":"Kreisangehörige_Gemeinde"},"district":{"key":"03241","name":"Region Hannover","type":"Landkreis"},"federalState":{"key":"03","name":"Niedersachsen"}},{"name":"Wilhelm-Dusche-Weg","postalCode":"30916","locality":"Isernhagen","municipality":{"key":"03241008","name":"Isernhagen","type":"Kreisangehörige_Gemeinde"},"district":{"key":"03241","name":"Region Hannover","type":"Landkreis"},"federalState":{"key":"03","name":"Niedersachsen"}},{"name":"Wilhelm-Rabe-Str.","postalCode":"30916","locality":"Isernhagen","municipality":{"key":"03241008","name":"Isernhagen","type":"Kreisangehörige_Gemeinde"},"district":{"key":"03241","name":"Region Hannover","type":"Landkreis"},"federalState":{"key":"03","name":"Niedersachsen"}},{"name":"Wittelshof","postalCode":"30916","locality":"Isernhagen","municipality":{"key":"03241008","name":"Isernhagen","type":"Kreisangehörige_Gemeinde"},"district":{"key":"03241","name":"Region Hannover","type":"Landkreis"},"federalState":{"key":"03","name":"Niedersachsen"}},{"name":"Wollgrasweg","postalCode":"30916","locality":"Isernhagen","municipality":{"key":"03241008","name":"Isernhagen","type":"Kreisangehörige_Gemeinde"},"district":{"key":"03241","name":"Region Hannover","type":"Landkreis"},"federalState":{"key":"03","name":"Niedersachsen"}},{"name":"Zeißstr.","postalCode":"30916","locality":"Isernhagen","municipality":{"key":"03241008","name":"Isernhagen","type":"Kreisangehörige_Gemeinde"},"district":{"key":"03241","name":"Region Hannover","type":"Landkreis"},"federalState":{"key":"03","name":"Niedersachsen"}},{"name":"Ziegeleiweg","postalCode":"30916","locality":"Isernhagen","municipality":{"key":"03241008","name":"Isernhagen","type":"Kreisangehörige_Gemeinde"},"district":{"key":"03241","name":"Region Hannover","type":"Landkreis"},"federalState":{"key":"03","name":"Niedersachsen"}},{"name":"Ziegeleiwiese","postalCode":"30916","locality":"Isernhagen","municipality":{"key":"03241008","name":"Isernhagen","type":"Kreisangehörige_Gemeinde"},"district":{"key":"03241","name":"Region Hannover","type":"Landkreis"},"federalState":{"key":"03","name":"Niedersachsen"}},{"name":"Zum Steinkreis","postalCode":"30916","locality":"Isernhagen","municipality":{"key":"03241008","name":"Isernhagen","type":"Kreisangehörige_Gemeinde"},"district":{"key":"03241","name":"Region Hannover","type":"Landkreis"},"federalState":{"key":"03","name":"Niedersachsen"}},{"name":"Zur Mühle","postalCode":"30916","locality":"Isernhagen","municipality":{"key":"03241008","name":"Isernhagen","type":"Kreisangehörige_Gemeinde"},"district":{"key":"03241","name":"Region Hannover","type":"Landkreis"},"federalState":{"key":"03","name":"Niedersachsen"}},]