[{"name":"Achterdiek","postalCode":"21271","locality":"Hanstedt","municipality":{"key":"03353016","name":"Hanstedt","type":"Kreisangehörige_Gemeinde"},"district":{"key":"03353","name":"Harburg","type":"Landkreis"},"federalState":{"key":"03","name":"Niedersachsen"}},{"name":"Allenbostel","postalCode":"29582","locality":"Hanstedt","municipality":{"key":"03360010","name":"Hanstedt","type":"Kreisangehörige_Gemeinde"},"district":{"key":"03360","name":"Uelzen","type":"Landkreis"},"federalState":{"key":"03","name":"Niedersachsen"}},{"name":"Allenbosteler Weg","postalCode":"29582","locality":"Hanstedt","municipality":{"key":"03360010","name":"Hanstedt","type":"Kreisangehörige_Gemeinde"},"district":{"key":"03360","name":"Uelzen","type":"Landkreis"},"federalState":{"key":"03","name":"Niedersachsen"}},{"name":"Allerbusch","postalCode":"21271","locality":"Hanstedt","municipality":{"key":"03353016","name":"Hanstedt","type":"Kreisangehörige_Gemeinde"},"district":{"key":"03353","name":"Harburg","type":"Landkreis"},"federalState":{"key":"03","name":"Niedersachsen"}},{"name":"Alter Schulhof","postalCode":"21271","locality":"Hanstedt","municipality":{"key":"03353016","name":"Hanstedt","type":"Kreisangehörige_Gemeinde"},"district":{"key":"03353","name":"Harburg","type":"Landkreis"},"federalState":{"key":"03","name":"Niedersachsen"}},{"name":"Alte Schulstr.","postalCode":"21271","locality":"Hanstedt","municipality":{"key":"03353016","name":"Hanstedt","type":"Kreisangehörige_Gemeinde"},"district":{"key":"03353","name":"Harburg","type":"Landkreis"},"federalState":{"key":"03","name":"Niedersachsen"}},{"name":"Altes Sägewerk","postalCode":"21271","locality":"Hanstedt","municipality":{"key":"03353016","name":"Hanstedt","type":"Kreisangehörige_Gemeinde"},"district":{"key":"03353","name":"Harburg","type":"Landkreis"},"federalState":{"key":"03","name":"Niedersachsen"}},{"name":"Am Berge","postalCode":"29582","locality":"Hanstedt","municipality":{"key":"03360010","name":"Hanstedt","type":"Kreisangehörige_Gemeinde"},"district":{"key":"03360","name":"Uelzen","type":"Landkreis"},"federalState":{"key":"03","name":"Niedersachsen"}},{"name":"Am Bruchfelde","postalCode":"21271","locality":"Hanstedt","municipality":{"key":"03353016","name":"Hanstedt","type":"Kreisangehörige_Gemeinde"},"district":{"key":"03353","name":"Harburg","type":"Landkreis"},"federalState":{"key":"03","name":"Niedersachsen"}},{"name":"Am Ehrenmal","postalCode":"21271","locality":"Hanstedt","municipality":{"key":"03353016","name":"Hanstedt","type":"Kreisangehörige_Gemeinde"},"district":{"key":"03353","name":"Harburg","type":"Landkreis"},"federalState":{"key":"03","name":"Niedersachsen"}},{"name":"Am Eichhof","postalCode":"21271","locality":"Hanstedt","municipality":{"key":"03353016","name":"Hanstedt","type":"Kreisangehörige_Gemeinde"},"district":{"key":"03353","name":"Harburg","type":"Landkreis"},"federalState":{"key":"03","name":"Niedersachsen"}},{"name":"Am Fischerbeek","postalCode":"21271","locality":"Hanstedt","municipality":{"key":"03353016","name":"Hanstedt","type":"Kreisangehörige_Gemeinde"},"district":{"key":"03353","name":"Harburg","type":"Landkreis"},"federalState":{"key":"03","name":"Niedersachsen"}},{"name":"Am Hamberg","postalCode":"21271","locality":"Hanstedt","municipality":{"key":"03353016","name":"Hanstedt","type":"Kreisangehörige_Gemeinde"},"district":{"key":"03353","name":"Harburg","type":"Landkreis"},"federalState":{"key":"03","name":"Niedersachsen"}},{"name":"Am Höllenberg","postalCode":"21271","locality":"Hanstedt","municipality":{"key":"03353016","name":"Hanstedt","type":"Kreisangehörige_Gemeinde"},"district":{"key":"03353","name":"Harburg","type":"Landkreis"},"federalState":{"key":"03","name":"Niedersachsen"}},{"name":"Am Naturschutzpark","postalCode":"21271","locality":"Hanstedt","municipality":{"key":"03353016","name":"Hanstedt","type":"Kreisangehörige_Gemeinde"},"district":{"key":"03353","name":"Harburg","type":"Landkreis"},"federalState":{"key":"03","name":"Niedersachsen"}},{"name":"Am Pellerbruch","postalCode":"21271","locality":"Hanstedt","municipality":{"key":"03353016","name":"Hanstedt","type":"Kreisangehörige_Gemeinde"},"district":{"key":"03353","name":"Harburg","type":"Landkreis"},"federalState":{"key":"03","name":"Niedersachsen"}},{"name":"Am Sportplatz","postalCode":"21271","locality":"Hanstedt","municipality":{"key":"03353016","name":"Hanstedt","type":"Kreisangehörige_Gemeinde"},"district":{"key":"03353","name":"Harburg","type":"Landkreis"},"federalState":{"key":"03","name":"Niedersachsen"}},{"name":"Am Steinberg","postalCode":"21271","locality":"Hanstedt","municipality":{"key":"03353016","name":"Hanstedt","type":"Kreisangehörige_Gemeinde"},"district":{"key":"03353","name":"Harburg","type":"Landkreis"},"federalState":{"key":"03","name":"Niedersachsen"}},{"name":"Am Wasserwerk","postalCode":"29582","locality":"Hanstedt","municipality":{"key":"03360010","name":"Hanstedt","type":"Kreisangehörige_Gemeinde"},"district":{"key":"03360","name":"Uelzen","type":"Landkreis"},"federalState":{"key":"03","name":"Niedersachsen"}},{"name":"Am Wiebach","postalCode":"21271","locality":"Hanstedt","municipality":{"key":"03353016","name":"Hanstedt","type":"Kreisangehörige_Gemeinde"},"district":{"key":"03353","name":"Harburg","type":"Landkreis"},"federalState":{"key":"03","name":"Niedersachsen"}},{"name":"An de Diekwisch","postalCode":"21271","locality":"Hanstedt","municipality":{"key":"03353016","name":"Hanstedt","type":"Kreisangehörige_Gemeinde"},"district":{"key":"03353","name":"Harburg","type":"Landkreis"},"federalState":{"key":"03","name":"Niedersachsen"}},{"name":"An den Wiesen","postalCode":"21271","locality":"Hanstedt","municipality":{"key":"03353016","name":"Hanstedt","type":"Kreisangehörige_Gemeinde"},"district":{"key":"03353","name":"Harburg","type":"Landkreis"},"federalState":{"key":"03","name":"Niedersachsen"}},{"name":"An der Hirschtränke","postalCode":"21271","locality":"Hanstedt","municipality":{"key":"03353016","name":"Hanstedt","type":"Kreisangehörige_Gemeinde"},"district":{"key":"03353","name":"Harburg","type":"Landkreis"},"federalState":{"key":"03","name":"Niedersachsen"}},{"name":"An der Kirche","postalCode":"29582","locality":"Hanstedt","municipality":{"key":"03360010","name":"Hanstedt","type":"Kreisangehörige_Gemeinde"},"district":{"key":"03360","name":"Uelzen","type":"Landkreis"},"federalState":{"key":"03","name":"Niedersachsen"}},{"name":"An der Rodelbahn","postalCode":"21271","locality":"Hanstedt","municipality":{"key":"03353016","name":"Hanstedt","type":"Kreisangehörige_Gemeinde"},"district":{"key":"03353","name":"Harburg","type":"Landkreis"},"federalState":{"key":"03","name":"Niedersachsen"}},{"name":"An der Schule","postalCode":"21271","locality":"Hanstedt","municipality":{"key":"03353016","name":"Hanstedt","type":"Kreisangehörige_Gemeinde"},"district":{"key":"03353","name":"Harburg","type":"Landkreis"},"federalState":{"key":"03","name":"Niedersachsen"}},{"name":"Apfelhof","postalCode":"21271","locality":"Hanstedt","municipality":{"key":"03353016","name":"Hanstedt","type":"Kreisangehörige_Gemeinde"},"district":{"key":"03353","name":"Harburg","type":"Landkreis"},"federalState":{"key":"03","name":"Niedersachsen"}},{"name":"Auepark","postalCode":"21271","locality":"Hanstedt","municipality":{"key":"03353016","name":"Hanstedt","type":"Kreisangehörige_Gemeinde"},"district":{"key":"03353","name":"Harburg","type":"Landkreis"},"federalState":{"key":"03","name":"Niedersachsen"}},{"name":"Auetalweg","postalCode":"21271","locality":"Hanstedt","municipality":{"key":"03353016","name":"Hanstedt","type":"Kreisangehörige_Gemeinde"},"district":{"key":"03353","name":"Harburg","type":"Landkreis"},"federalState":{"key":"03","name":"Niedersachsen"}},{"name":"Auf dem Goldberge","postalCode":"29582","locality":"Hanstedt","municipality":{"key":"03360010","name":"Hanstedt","type":"Kreisangehörige_Gemeinde"},"district":{"key":"03360","name":"Uelzen","type":"Landkreis"},"federalState":{"key":"03","name":"Niedersachsen"}},{"name":"Auf dem Sand","postalCode":"21271","locality":"Hanstedt","municipality":{"key":"03353016","name":"Hanstedt","type":"Kreisangehörige_Gemeinde"},"district":{"key":"03353","name":"Harburg","type":"Landkreis"},"federalState":{"key":"03","name":"Niedersachsen"}},{"name":"Auf dem Schusterberg","postalCode":"21271","locality":"Hanstedt","municipality":{"key":"03353016","name":"Hanstedt","type":"Kreisangehörige_Gemeinde"},"district":{"key":"03353","name":"Harburg","type":"Landkreis"},"federalState":{"key":"03","name":"Niedersachsen"}},{"name":"Babendoerp","postalCode":"21271","locality":"Hanstedt","municipality":{"key":"03353016","name":"Hanstedt","type":"Kreisangehörige_Gemeinde"},"district":{"key":"03353","name":"Harburg","type":"Landkreis"},"federalState":{"key":"03","name":"Niedersachsen"}},{"name":"Bei dem Moor","postalCode":"21271","locality":"Hanstedt","municipality":{"key":"03353016","name":"Hanstedt","type":"Kreisangehörige_Gemeinde"},"district":{"key":"03353","name":"Harburg","type":"Landkreis"},"federalState":{"key":"03","name":"Niedersachsen"}},{"name":"Bei der Kirche","postalCode":"21271","locality":"Hanstedt","municipality":{"key":"03353016","name":"Hanstedt","type":"Kreisangehörige_Gemeinde"},"district":{"key":"03353","name":"Harburg","type":"Landkreis"},"federalState":{"key":"03","name":"Niedersachsen"}},{"name":"Bergstr.","postalCode":"21271","locality":"Hanstedt","municipality":{"key":"03353016","name":"Hanstedt","type":"Kreisangehörige_Gemeinde"},"district":{"key":"03353","name":"Harburg","type":"Landkreis"},"federalState":{"key":"03","name":"Niedersachsen"}},{"name":"Birkenweg","postalCode":"21271","locality":"Hanstedt","municipality":{"key":"03353016","name":"Hanstedt","type":"Kreisangehörige_Gemeinde"},"district":{"key":"03353","name":"Harburg","type":"Landkreis"},"federalState":{"key":"03","name":"Niedersachsen"}},{"name":"Brauel","postalCode":"29582","locality":"Hanstedt","municipality":{"key":"03360010","name":"Hanstedt","type":"Kreisangehörige_Gemeinde"},"district":{"key":"03360","name":"Uelzen","type":"Landkreis"},"federalState":{"key":"03","name":"Niedersachsen"}},{"name":"Buchholzer Str.","postalCode":"21271","locality":"Hanstedt","municipality":{"key":"03353016","name":"Hanstedt","type":"Kreisangehörige_Gemeinde"},"district":{"key":"03353","name":"Harburg","type":"Landkreis"},"federalState":{"key":"03","name":"Niedersachsen"}},{"name":"Buursod","postalCode":"21271","locality":"Hanstedt","municipality":{"key":"03353016","name":"Hanstedt","type":"Kreisangehörige_Gemeinde"},"district":{"key":"03353","name":"Harburg","type":"Landkreis"},"federalState":{"key":"03","name":"Niedersachsen"}},{"name":"Caspar-Lehman-Str.","postalCode":"29525","locality":"Uelzen","municipality":{"key":"03360025","name":"Uelzen, Hansestadt","type":"Stadt"},"district":{"key":"03360","name":"Uelzen","type":"Landkreis"},"federalState":{"key":"03","name":"Niedersachsen"}},{"name":"Celler Str.","postalCode":"29525","locality":"Uelzen","municipality":{"key":"03360025","name":"Uelzen, Hansestadt","type":"Stadt"},"district":{"key":"03360","name":"Uelzen","type":"Landkreis"},"federalState":{"key":"03","name":"Niedersachsen"}},{"name":"Dorfplatz","postalCode":"29582","locality":"Hanstedt","municipality":{"key":"03360010","name":"Hanstedt","type":"Kreisangehörige_Gemeinde"},"district":{"key":"03360","name":"Uelzen","type":"Landkreis"},"federalState":{"key":"03","name":"Niedersachsen"}},{"name":"Dorfstr.","postalCode":"21271","locality":"Hanstedt","municipality":{"key":"03353016","name":"Hanstedt","type":"Kreisangehörige_Gemeinde"},"district":{"key":"03353","name":"Harburg","type":"Landkreis"},"federalState":{"key":"03","name":"Niedersachsen"}},{"name":"Dorfstr.","postalCode":"29582","locality":"Hanstedt","municipality":{"key":"03360010","name":"Hanstedt","type":"Kreisangehörige_Gemeinde"},"district":{"key":"03360","name":"Uelzen","type":"Landkreis"},"federalState":{"key":"03","name":"Niedersachsen"}},{"name":"Drumbergen-Radweg","postalCode":"21271","locality":"Hanstedt","municipality":{"key":"03353016","name":"Hanstedt","type":"Kreisangehörige_Gemeinde"},"district":{"key":"03353","name":"Harburg","type":"Landkreis"},"federalState":{"key":"03","name":"Niedersachsen"}},{"name":"Eichenring","postalCode":"29582","locality":"Hanstedt","municipality":{"key":"03360010","name":"Hanstedt","type":"Kreisangehörige_Gemeinde"},"district":{"key":"03360","name":"Uelzen","type":"Landkreis"},"federalState":{"key":"03","name":"Niedersachsen"}},{"name":"Eitzer Str.","postalCode":"29582","locality":"Hanstedt","municipality":{"key":"03360010","name":"Hanstedt","type":"Kreisangehörige_Gemeinde"},"district":{"key":"03360","name":"Uelzen","type":"Landkreis"},"federalState":{"key":"03","name":"Niedersachsen"}},{"name":"Erika-Artmann-Weg","postalCode":"21271","locality":"Hanstedt","municipality":{"key":"03353016","name":"Hanstedt","type":"Kreisangehörige_Gemeinde"},"district":{"key":"03353","name":"Harburg","type":"Landkreis"},"federalState":{"key":"03","name":"Niedersachsen"}},{"name":"Fastweg","postalCode":"21271","locality":"Hanstedt","municipality":{"key":"03353016","name":"Hanstedt","type":"Kreisangehörige_Gemeinde"},"district":{"key":"03353","name":"Harburg","type":"Landkreis"},"federalState":{"key":"03","name":"Niedersachsen"}},{"name":"Fliederweg","postalCode":"21271","locality":"Hanstedt","municipality":{"key":"03353016","name":"Hanstedt","type":"Kreisangehörige_Gemeinde"},"district":{"key":"03353","name":"Harburg","type":"Landkreis"},"federalState":{"key":"03","name":"Niedersachsen"}},{"name":"Flütenkamp","postalCode":"21271","locality":"Hanstedt","municipality":{"key":"03353016","name":"Hanstedt","type":"Kreisangehörige_Gemeinde"},"district":{"key":"03353","name":"Harburg","type":"Landkreis"},"federalState":{"key":"03","name":"Niedersachsen"}},{"name":"Fontaneweg","postalCode":"21271","locality":"Hanstedt","municipality":{"key":"03353016","name":"Hanstedt","type":"Kreisangehörige_Gemeinde"},"district":{"key":"03353","name":"Harburg","type":"Landkreis"},"federalState":{"key":"03","name":"Niedersachsen"}},{"name":"Forstweg","postalCode":"21271","locality":"Hanstedt","municipality":{"key":"03353016","name":"Hanstedt","type":"Kreisangehörige_Gemeinde"},"district":{"key":"03353","name":"Harburg","type":"Landkreis"},"federalState":{"key":"03","name":"Niedersachsen"}},{"name":"Franz-Barca-Weg","postalCode":"21271","locality":"Hanstedt","municipality":{"key":"03353016","name":"Hanstedt","type":"Kreisangehörige_Gemeinde"},"district":{"key":"03353","name":"Harburg","type":"Landkreis"},"federalState":{"key":"03","name":"Niedersachsen"}},{"name":"Freudenthalweg","postalCode":"21271","locality":"Hanstedt","municipality":{"key":"03353016","name":"Hanstedt","type":"Kreisangehörige_Gemeinde"},"district":{"key":"03353","name":"Harburg","type":"Landkreis"},"federalState":{"key":"03","name":"Niedersachsen"}},{"name":"Friedhofsweg","postalCode":"21271","locality":"Hanstedt","municipality":{"key":"03353016","name":"Hanstedt","type":"Kreisangehörige_Gemeinde"},"district":{"key":"03353","name":"Harburg","type":"Landkreis"},"federalState":{"key":"03","name":"Niedersachsen"}},{"name":"Fritz-Reuter-Str.","postalCode":"21271","locality":"Hanstedt","municipality":{"key":"03353016","name":"Hanstedt","type":"Kreisangehörige_Gemeinde"},"district":{"key":"03353","name":"Harburg","type":"Landkreis"},"federalState":{"key":"03","name":"Niedersachsen"}},{"name":"Fuhrenweg","postalCode":"21271","locality":"Hanstedt","municipality":{"key":"03353016","name":"Hanstedt","type":"Kreisangehörige_Gemeinde"},"district":{"key":"03353","name":"Harburg","type":"Landkreis"},"federalState":{"key":"03","name":"Niedersachsen"}},{"name":"Gannerwinkel","postalCode":"29525","locality":"Uelzen","municipality":{"key":"03360025","name":"Uelzen, Hansestadt","type":"Stadt"},"district":{"key":"03360","name":"Uelzen","type":"Landkreis"},"federalState":{"key":"03","name":"Niedersachsen"}},{"name":"Gansauer Str.","postalCode":"29525","locality":"Uelzen","municipality":{"key":"03360025","name":"Uelzen, Hansestadt","type":"Stadt"},"district":{"key":"03360","name":"Uelzen","type":"Landkreis"},"federalState":{"key":"03","name":"Niedersachsen"}},{"name":"Gartenstr.","postalCode":"29525","locality":"Uelzen","municipality":{"key":"03360025","name":"Uelzen, Hansestadt","type":"Stadt"},"district":{"key":"03360","name":"Uelzen","type":"Landkreis"},"federalState":{"key":"03","name":"Niedersachsen"}},{"name":"Gartenweg","postalCode":"29525","locality":"Uelzen","municipality":{"key":"03360025","name":"Uelzen, Hansestadt","type":"Stadt"},"district":{"key":"03360","name":"Uelzen","type":"Landkreis"},"federalState":{"key":"03","name":"Niedersachsen"}},{"name":"Gärtnerweg","postalCode":"29525","locality":"Uelzen","municipality":{"key":"03360025","name":"Uelzen, Hansestadt","type":"Stadt"},"district":{"key":"03360","name":"Uelzen","type":"Landkreis"},"federalState":{"key":"03","name":"Niedersachsen"}},{"name":"Georg-von-Engelbrechten-Str.","postalCode":"29525","locality":"Uelzen","municipality":{"key":"03360025","name":"Uelzen, Hansestadt","type":"Stadt"},"district":{"key":"03360","name":"Uelzen","type":"Landkreis"},"federalState":{"key":"03","name":"Niedersachsen"}},{"name":"Gerdauer Str.","postalCode":"29525","locality":"Uelzen","municipality":{"key":"03360025","name":"Uelzen, Hansestadt","type":"Stadt"},"district":{"key":"03360","name":"Uelzen","type":"Landkreis"},"federalState":{"key":"03","name":"Niedersachsen"}},{"name":"Gerdaufurt","postalCode":"29525","locality":"Uelzen","municipality":{"key":"03360025","name":"Uelzen, Hansestadt","type":"Stadt"},"district":{"key":"03360","name":"Uelzen","type":"Landkreis"},"federalState":{"key":"03","name":"Niedersachsen"}},{"name":"Gertrud-Noch-Str.","postalCode":"29525","locality":"Uelzen","municipality":{"key":"03360025","name":"Uelzen, Hansestadt","type":"Stadt"},"district":{"key":"03360","name":"Uelzen","type":"Landkreis"},"federalState":{"key":"03","name":"Niedersachsen"}},{"name":"Ginsterweg","postalCode":"29525","locality":"Uelzen","municipality":{"key":"03360025","name":"Uelzen, Hansestadt","type":"Stadt"},"district":{"key":"03360","name":"Uelzen","type":"Landkreis"},"federalState":{"key":"03","name":"Niedersachsen"}},{"name":"Goethestr.","postalCode":"29525","locality":"Uelzen","municipality":{"key":"03360025","name":"Uelzen, Hansestadt","type":"Stadt"},"district":{"key":"03360","name":"Uelzen","type":"Landkreis"},"federalState":{"key":"03","name":"Niedersachsen"}},{"name":"Grabenstr.","postalCode":"29525","locality":"Uelzen","municipality":{"key":"03360025","name":"Uelzen, Hansestadt","type":"Stadt"},"district":{"key":"03360","name":"Uelzen","type":"Landkreis"},"federalState":{"key":"03","name":"Niedersachsen"}},{"name":"Graureiherweg","postalCode":"29525","locality":"Uelzen","municipality":{"key":"03360025","name":"Uelzen, Hansestadt","type":"Stadt"},"district":{"key":"03360","name":"Uelzen","type":"Landkreis"},"federalState":{"key":"03","name":"Niedersachsen"}},{"name":"Grauwiesen","postalCode":"29525","locality":"Uelzen","municipality":{"key":"03360025","name":"Uelzen, Hansestadt","type":"Stadt"},"district":{"key":"03360","name":"Uelzen","type":"Landkreis"},"federalState":{"key":"03","name":"Niedersachsen"}},{"name":"Greyerstr.","postalCode":"29525","locality":"Uelzen","municipality":{"key":"03360025","name":"Uelzen, Hansestadt","type":"Stadt"},"district":{"key":"03360","name":"Uelzen","type":"Landkreis"},"federalState":{"key":"03","name":"Niedersachsen"}},{"name":"Groß Liedener Marsch","postalCode":"29525","locality":"Uelzen","municipality":{"key":"03360025","name":"Uelzen, Hansestadt","type":"Stadt"},"district":{"key":"03360","name":"Uelzen","type":"Landkreis"},"federalState":{"key":"03","name":"Niedersachsen"}},{"name":"Groß Liederner Str.","postalCode":"29525","locality":"Uelzen","municipality":{"key":"03360025","name":"Uelzen, Hansestadt","type":"Stadt"},"district":{"key":"03360","name":"Uelzen","type":"Landkreis"},"federalState":{"key":"03","name":"Niedersachsen"}},{"name":"Grüner Weg","postalCode":"29525","locality":"Uelzen","municipality":{"key":"03360025","name":"Uelzen, Hansestadt","type":"Stadt"},"district":{"key":"03360","name":"Uelzen","type":"Landkreis"},"federalState":{"key":"03","name":"Niedersachsen"}},{"name":"Grüner Winkel","postalCode":"29525","locality":"Uelzen","municipality":{"key":"03360025","name":"Uelzen, Hansestadt","type":"Stadt"},"district":{"key":"03360","name":"Uelzen","type":"Landkreis"},"federalState":{"key":"03","name":"Niedersachsen"}},{"name":"Gudesstr.","postalCode":"29525","locality":"Uelzen","municipality":{"key":"03360025","name":"Uelzen, Hansestadt","type":"Stadt"},"district":{"key":"03360","name":"Uelzen","type":"Landkreis"},"federalState":{"key":"03","name":"Niedersachsen"}},{"name":"Gustav-Bandmann-Weg","postalCode":"29525","locality":"Uelzen","municipality":{"key":"03360025","name":"Uelzen, Hansestadt","type":"Stadt"},"district":{"key":"03360","name":"Uelzen","type":"Landkreis"},"federalState":{"key":"03","name":"Niedersachsen"}},{"name":"Gustav-Matthias-Weg","postalCode":"29525","locality":"Uelzen","municipality":{"key":"03360025","name":"Uelzen, Hansestadt","type":"Stadt"},"district":{"key":"03360","name":"Uelzen","type":"Landkreis"},"federalState":{"key":"03","name":"Niedersachsen"}},{"name":"Haferkamp","postalCode":"21271","locality":"Hanstedt","municipality":{"key":"03353016","name":"Hanstedt","type":"Kreisangehörige_Gemeinde"},"district":{"key":"03353","name":"Harburg","type":"Landkreis"},"federalState":{"key":"03","name":"Niedersachsen"}},{"name":"Hainbuschenberg","postalCode":"21271","locality":"Hanstedt","municipality":{"key":"03353016","name":"Hanstedt","type":"Kreisangehörige_Gemeinde"},"district":{"key":"03353","name":"Harburg","type":"Landkreis"},"federalState":{"key":"03","name":"Niedersachsen"}},{"name":"Hambergweg","postalCode":"21271","locality":"Hanstedt","municipality":{"key":"03353016","name":"Hanstedt","type":"Kreisangehörige_Gemeinde"},"district":{"key":"03353","name":"Harburg","type":"Landkreis"},"federalState":{"key":"03","name":"Niedersachsen"}},{"name":"Hanseatenweg","postalCode":"21271","locality":"Hanstedt","municipality":{"key":"03353016","name":"Hanstedt","type":"Kreisangehörige_Gemeinde"},"district":{"key":"03353","name":"Harburg","type":"Landkreis"},"federalState":{"key":"03","name":"Niedersachsen"}},{"name":"Hanstedter Landstr.","postalCode":"21271","locality":"Hanstedt","municipality":{"key":"03353016","name":"Hanstedt","type":"Kreisangehörige_Gemeinde"},"district":{"key":"03353","name":"Harburg","type":"Landkreis"},"federalState":{"key":"03","name":"Niedersachsen"}},{"name":"Harburger Str.","postalCode":"21271","locality":"Hanstedt","municipality":{"key":"03353016","name":"Hanstedt","type":"Kreisangehörige_Gemeinde"},"district":{"key":"03353","name":"Harburg","type":"Landkreis"},"federalState":{"key":"03","name":"Niedersachsen"}},{"name":"Hasenfeld","postalCode":"21271","locality":"Hanstedt","municipality":{"key":"03353016","name":"Hanstedt","type":"Kreisangehörige_Gemeinde"},"district":{"key":"03353","name":"Harburg","type":"Landkreis"},"federalState":{"key":"03","name":"Niedersachsen"}},{"name":"Hasenkamp","postalCode":"21271","locality":"Hanstedt","municipality":{"key":"03353016","name":"Hanstedt","type":"Kreisangehörige_Gemeinde"},"district":{"key":"03353","name":"Harburg","type":"Landkreis"},"federalState":{"key":"03","name":"Niedersachsen"}},{"name":"Heisterberg","postalCode":"21271","locality":"Hanstedt","municipality":{"key":"03353016","name":"Hanstedt","type":"Kreisangehörige_Gemeinde"},"district":{"key":"03353","name":"Harburg","type":"Landkreis"},"federalState":{"key":"03","name":"Niedersachsen"}},{"name":"Herbert Str.","postalCode":"21271","locality":"Hanstedt","municipality":{"key":"03353016","name":"Hanstedt","type":"Kreisangehörige_Gemeinde"},"district":{"key":"03353","name":"Harburg","type":"Landkreis"},"federalState":{"key":"03","name":"Niedersachsen"}},{"name":"Hermann-Löns-Ring","postalCode":"21271","locality":"Hanstedt","municipality":{"key":"03353016","name":"Hanstedt","type":"Kreisangehörige_Gemeinde"},"district":{"key":"03353","name":"Harburg","type":"Landkreis"},"federalState":{"key":"03","name":"Niedersachsen"}},{"name":"Hermann-Löns-Stieg","postalCode":"21271","locality":"Hanstedt","municipality":{"key":"03353016","name":"Hanstedt","type":"Kreisangehörige_Gemeinde"},"district":{"key":"03353","name":"Harburg","type":"Landkreis"},"federalState":{"key":"03","name":"Niedersachsen"}},{"name":"Hingstkamp","postalCode":"21271","locality":"Hanstedt","municipality":{"key":"03353016","name":"Hanstedt","type":"Kreisangehörige_Gemeinde"},"district":{"key":"03353","name":"Harburg","type":"Landkreis"},"federalState":{"key":"03","name":"Niedersachsen"}},{"name":"Hofkoppeln","postalCode":"21271","locality":"Hanstedt","municipality":{"key":"03353016","name":"Hanstedt","type":"Kreisangehörige_Gemeinde"},"district":{"key":"03353","name":"Harburg","type":"Landkreis"},"federalState":{"key":"03","name":"Niedersachsen"}},{"name":"Hohenheide","postalCode":"21271","locality":"Hanstedt","municipality":{"key":"03353016","name":"Hanstedt","type":"Kreisangehörige_Gemeinde"},"district":{"key":"03353","name":"Harburg","type":"Landkreis"},"federalState":{"key":"03","name":"Niedersachsen"}},{"name":"Höllenweg","postalCode":"21271","locality":"Hanstedt","municipality":{"key":"03353016","name":"Hanstedt","type":"Kreisangehörige_Gemeinde"},"district":{"key":"03353","name":"Harburg","type":"Landkreis"},"federalState":{"key":"03","name":"Niedersachsen"}},{"name":"Holmer Feld","postalCode":"21271","locality":"Hanstedt","municipality":{"key":"03353016","name":"Hanstedt","type":"Kreisangehörige_Gemeinde"},"district":{"key":"03353","name":"Harburg","type":"Landkreis"},"federalState":{"key":"03","name":"Niedersachsen"}},{"name":"Homanns Busch","postalCode":"21271","locality":"Hanstedt","municipality":{"key":"03353016","name":"Hanstedt","type":"Kreisangehörige_Gemeinde"},"district":{"key":"03353","name":"Harburg","type":"Landkreis"},"federalState":{"key":"03","name":"Niedersachsen"}},{"name":"Horster Weg","postalCode":"21271","locality":"Hanstedt","municipality":{"key":"03353016","name":"Hanstedt","type":"Kreisangehörige_Gemeinde"},"district":{"key":"03353","name":"Harburg","type":"Landkreis"},"federalState":{"key":"03","name":"Niedersachsen"}},{"name":"Im Auetal","postalCode":"21271","locality":"Hanstedt","municipality":{"key":"03353016","name":"Hanstedt","type":"Kreisangehörige_Gemeinde"},"district":{"key":"03353","name":"Harburg","type":"Landkreis"},"federalState":{"key":"03","name":"Niedersachsen"}},{"name":"Im Bultmoor","postalCode":"21271","locality":"Hanstedt","municipality":{"key":"03353016","name":"Hanstedt","type":"Kreisangehörige_Gemeinde"},"district":{"key":"03353","name":"Harburg","type":"Landkreis"},"federalState":{"key":"03","name":"Niedersachsen"}},{"name":"Im Grund","postalCode":"29582","locality":"Hanstedt","municipality":{"key":"03360010","name":"Hanstedt","type":"Kreisangehörige_Gemeinde"},"district":{"key":"03360","name":"Uelzen","type":"Landkreis"},"federalState":{"key":"03","name":"Niedersachsen"}},{"name":"Im Heidekamp","postalCode":"29582","locality":"Hanstedt","municipality":{"key":"03360010","name":"Hanstedt","type":"Kreisangehörige_Gemeinde"},"district":{"key":"03360","name":"Uelzen","type":"Landkreis"},"federalState":{"key":"03","name":"Niedersachsen"}},{"name":"Im Höpen","postalCode":"21271","locality":"Hanstedt","municipality":{"key":"03353016","name":"Hanstedt","type":"Kreisangehörige_Gemeinde"},"district":{"key":"03353","name":"Harburg","type":"Landkreis"},"federalState":{"key":"03","name":"Niedersachsen"}},{"name":"Im Redder","postalCode":"29582","locality":"Hanstedt","municipality":{"key":"03360010","name":"Hanstedt","type":"Kreisangehörige_Gemeinde"},"district":{"key":"03360","name":"Uelzen","type":"Landkreis"},"federalState":{"key":"03","name":"Niedersachsen"}},{"name":"Im Vakursen","postalCode":"21271","locality":"Hanstedt","municipality":{"key":"03353016","name":"Hanstedt","type":"Kreisangehörige_Gemeinde"},"district":{"key":"03353","name":"Harburg","type":"Landkreis"},"federalState":{"key":"03","name":"Niedersachsen"}},{"name":"Im Winkel","postalCode":"21271","locality":"Hanstedt","municipality":{"key":"03353016","name":"Hanstedt","type":"Kreisangehörige_Gemeinde"},"district":{"key":"03353","name":"Harburg","type":"Landkreis"},"federalState":{"key":"03","name":"Niedersachsen"}},{"name":"Im Winkel","postalCode":"29582","locality":"Hanstedt","municipality":{"key":"03360010","name":"Hanstedt","type":"Kreisangehörige_Gemeinde"},"district":{"key":"03360","name":"Uelzen","type":"Landkreis"},"federalState":{"key":"03","name":"Niedersachsen"}},{"name":"In den Beeten","postalCode":"21271","locality":"Hanstedt","municipality":{"key":"03353016","name":"Hanstedt","type":"Kreisangehörige_Gemeinde"},"district":{"key":"03353","name":"Harburg","type":"Landkreis"},"federalState":{"key":"03","name":"Niedersachsen"}},{"name":"In'n Deep Moor","postalCode":"21271","locality":"Hanstedt","municipality":{"key":"03353016","name":"Hanstedt","type":"Kreisangehörige_Gemeinde"},"district":{"key":"03353","name":"Harburg","type":"Landkreis"},"federalState":{"key":"03","name":"Niedersachsen"}},{"name":"Johannesberg","postalCode":"29582","locality":"Hanstedt","municipality":{"key":"03360010","name":"Hanstedt","type":"Kreisangehörige_Gemeinde"},"district":{"key":"03360","name":"Uelzen","type":"Landkreis"},"federalState":{"key":"03","name":"Niedersachsen"}},{"name":"Kiefernweg","postalCode":"21271","locality":"Hanstedt","municipality":{"key":"03353016","name":"Hanstedt","type":"Kreisangehörige_Gemeinde"},"district":{"key":"03353","name":"Harburg","type":"Landkreis"},"federalState":{"key":"03","name":"Niedersachsen"}},{"name":"Kiewitt","postalCode":"21271","locality":"Hanstedt","municipality":{"key":"03353016","name":"Hanstedt","type":"Kreisangehörige_Gemeinde"},"district":{"key":"03353","name":"Harburg","type":"Landkreis"},"federalState":{"key":"03","name":"Niedersachsen"}},{"name":"Kirschenallee","postalCode":"21271","locality":"Hanstedt","municipality":{"key":"03353016","name":"Hanstedt","type":"Kreisangehörige_Gemeinde"},"district":{"key":"03353","name":"Harburg","type":"Landkreis"},"federalState":{"key":"03","name":"Niedersachsen"}},{"name":"Kornstieg","postalCode":"21271","locality":"Hanstedt","municipality":{"key":"03353016","name":"Hanstedt","type":"Kreisangehörige_Gemeinde"},"district":{"key":"03353","name":"Harburg","type":"Landkreis"},"federalState":{"key":"03","name":"Niedersachsen"}},{"name":"Kreienberg","postalCode":"21271","locality":"Hanstedt","municipality":{"key":"03353016","name":"Hanstedt","type":"Kreisangehörige_Gemeinde"},"district":{"key":"03353","name":"Harburg","type":"Landkreis"},"federalState":{"key":"03","name":"Niedersachsen"}},{"name":"Kreienstieg","postalCode":"21271","locality":"Hanstedt","municipality":{"key":"03353016","name":"Hanstedt","type":"Kreisangehörige_Gemeinde"},"district":{"key":"03353","name":"Harburg","type":"Landkreis"},"federalState":{"key":"03","name":"Niedersachsen"}},{"name":"Kronenschleuse","postalCode":"21271","locality":"Hanstedt","municipality":{"key":"03353016","name":"Hanstedt","type":"Kreisangehörige_Gemeinde"},"district":{"key":"03353","name":"Harburg","type":"Landkreis"},"federalState":{"key":"03","name":"Niedersachsen"}},{"name":"Küsterweg","postalCode":"29582","locality":"Hanstedt","municipality":{"key":"03360010","name":"Hanstedt","type":"Kreisangehörige_Gemeinde"},"district":{"key":"03360","name":"Uelzen","type":"Landkreis"},"federalState":{"key":"03","name":"Niedersachsen"}},{"name":"Langenstücken","postalCode":"21271","locality":"Hanstedt","municipality":{"key":"03353016","name":"Hanstedt","type":"Kreisangehörige_Gemeinde"},"district":{"key":"03353","name":"Harburg","type":"Landkreis"},"federalState":{"key":"03","name":"Niedersachsen"}},{"name":"Lärchenweg","postalCode":"21271","locality":"Hanstedt","municipality":{"key":"03353016","name":"Hanstedt","type":"Kreisangehörige_Gemeinde"},"district":{"key":"03353","name":"Harburg","type":"Landkreis"},"federalState":{"key":"03","name":"Niedersachsen"}},{"name":"Lindenallee","postalCode":"21271","locality":"Hanstedt","municipality":{"key":"03353016","name":"Hanstedt","type":"Kreisangehörige_Gemeinde"},"district":{"key":"03353","name":"Harburg","type":"Landkreis"},"federalState":{"key":"03","name":"Niedersachsen"}},{"name":"Louis-Gellersen-Weg","postalCode":"21271","locality":"Hanstedt","municipality":{"key":"03353016","name":"Hanstedt","type":"Kreisangehörige_Gemeinde"},"district":{"key":"03353","name":"Harburg","type":"Landkreis"},"federalState":{"key":"03","name":"Niedersachsen"}},{"name":"Manskuhlenberg","postalCode":"21271","locality":"Hanstedt","municipality":{"key":"03353016","name":"Hanstedt","type":"Kreisangehörige_Gemeinde"},"district":{"key":"03353","name":"Harburg","type":"Landkreis"},"federalState":{"key":"03","name":"Niedersachsen"}},{"name":"Marquards Feld","postalCode":"21271","locality":"Hanstedt","municipality":{"key":"03353016","name":"Hanstedt","type":"Kreisangehörige_Gemeinde"},"district":{"key":"03353","name":"Harburg","type":"Landkreis"},"federalState":{"key":"03","name":"Niedersachsen"}},{"name":"Meistergang","postalCode":"21271","locality":"Hanstedt","municipality":{"key":"03353016","name":"Hanstedt","type":"Kreisangehörige_Gemeinde"},"district":{"key":"03353","name":"Harburg","type":"Landkreis"},"federalState":{"key":"03","name":"Niedersachsen"}},{"name":"Mühlenweg","postalCode":"21271","locality":"Hanstedt","municipality":{"key":"03353016","name":"Hanstedt","type":"Kreisangehörige_Gemeinde"},"district":{"key":"03353","name":"Harburg","type":"Landkreis"},"federalState":{"key":"03","name":"Niedersachsen"}},{"name":"Niedersachsenstr.","postalCode":"21271","locality":"Hanstedt","municipality":{"key":"03353016","name":"Hanstedt","type":"Kreisangehörige_Gemeinde"},"district":{"key":"03353","name":"Harburg","type":"Landkreis"},"federalState":{"key":"03","name":"Niedersachsen"}},{"name":"Nordholz","postalCode":"21271","locality":"Hanstedt","municipality":{"key":"03353016","name":"Hanstedt","type":"Kreisangehörige_Gemeinde"},"district":{"key":"03353","name":"Harburg","type":"Landkreis"},"federalState":{"key":"03","name":"Niedersachsen"}},{"name":"Oderstr.","postalCode":"21271","locality":"Hanstedt","municipality":{"key":"03353016","name":"Hanstedt","type":"Kreisangehörige_Gemeinde"},"district":{"key":"03353","name":"Harburg","type":"Landkreis"},"federalState":{"key":"03","name":"Niedersachsen"}},{"name":"Oetzfelder Str.","postalCode":"29582","locality":"Hanstedt","municipality":{"key":"03360010","name":"Hanstedt","type":"Kreisangehörige_Gemeinde"},"district":{"key":"03360","name":"Uelzen","type":"Landkreis"},"federalState":{"key":"03","name":"Niedersachsen"}},{"name":"Ollsener Heide","postalCode":"21271","locality":"Hanstedt","municipality":{"key":"03353016","name":"Hanstedt","type":"Kreisangehörige_Gemeinde"},"district":{"key":"03353","name":"Harburg","type":"Landkreis"},"federalState":{"key":"03","name":"Niedersachsen"}},{"name":"Ollsener Str.","postalCode":"21271","locality":"Hanstedt","municipality":{"key":"03353016","name":"Hanstedt","type":"Kreisangehörige_Gemeinde"},"district":{"key":"03353","name":"Harburg","type":"Landkreis"},"federalState":{"key":"03","name":"Niedersachsen"}},{"name":"Osterfeld","postalCode":"21271","locality":"Hanstedt","municipality":{"key":"03353016","name":"Hanstedt","type":"Kreisangehörige_Gemeinde"},"district":{"key":"03353","name":"Harburg","type":"Landkreis"},"federalState":{"key":"03","name":"Niedersachsen"}},{"name":"Ostpreußenring","postalCode":"21271","locality":"Hanstedt","municipality":{"key":"03353016","name":"Hanstedt","type":"Kreisangehörige_Gemeinde"},"district":{"key":"03353","name":"Harburg","type":"Landkreis"},"federalState":{"key":"03","name":"Niedersachsen"}},{"name":"Pastorenweg","postalCode":"21271","locality":"Hanstedt","municipality":{"key":"03353016","name":"Hanstedt","type":"Kreisangehörige_Gemeinde"},"district":{"key":"03353","name":"Harburg","type":"Landkreis"},"federalState":{"key":"03","name":"Niedersachsen"}},{"name":"Peerhop","postalCode":"21271","locality":"Hanstedt","municipality":{"key":"03353016","name":"Hanstedt","type":"Kreisangehörige_Gemeinde"},"district":{"key":"03353","name":"Harburg","type":"Landkreis"},"federalState":{"key":"03","name":"Niedersachsen"}},{"name":"Ponyhof","postalCode":"21271","locality":"Hanstedt","municipality":{"key":"03353016","name":"Hanstedt","type":"Kreisangehörige_Gemeinde"},"district":{"key":"03353","name":"Harburg","type":"Landkreis"},"federalState":{"key":"03","name":"Niedersachsen"}},{"name":"Postillionseck","postalCode":"21271","locality":"Hanstedt","municipality":{"key":"03353016","name":"Hanstedt","type":"Kreisangehörige_Gemeinde"},"district":{"key":"03353","name":"Harburg","type":"Landkreis"},"federalState":{"key":"03","name":"Niedersachsen"}},{"name":"Quarrendorfer Weg","postalCode":"21271","locality":"Hanstedt","municipality":{"key":"03353016","name":"Hanstedt","type":"Kreisangehörige_Gemeinde"},"district":{"key":"03353","name":"Harburg","type":"Landkreis"},"federalState":{"key":"03","name":"Niedersachsen"}},{"name":"Rathausstr.","postalCode":"21271","locality":"Hanstedt","municipality":{"key":"03353016","name":"Hanstedt","type":"Kreisangehörige_Gemeinde"},"district":{"key":"03353","name":"Harburg","type":"Landkreis"},"federalState":{"key":"03","name":"Niedersachsen"}},{"name":"Rotdornstr.","postalCode":"21271","locality":"Hanstedt","municipality":{"key":"03353016","name":"Hanstedt","type":"Kreisangehörige_Gemeinde"},"district":{"key":"03353","name":"Harburg","type":"Landkreis"},"federalState":{"key":"03","name":"Niedersachsen"}},{"name":"Roter Kamp","postalCode":"21271","locality":"Hanstedt","municipality":{"key":"03353016","name":"Hanstedt","type":"Kreisangehörige_Gemeinde"},"district":{"key":"03353","name":"Harburg","type":"Landkreis"},"federalState":{"key":"03","name":"Niedersachsen"}},{"name":"Royberg","postalCode":"21271","locality":"Hanstedt","municipality":{"key":"03353016","name":"Hanstedt","type":"Kreisangehörige_Gemeinde"},"district":{"key":"03353","name":"Harburg","type":"Landkreis"},"federalState":{"key":"03","name":"Niedersachsen"}},{"name":"Rübenkamp","postalCode":"21271","locality":"Hanstedt","municipality":{"key":"03353016","name":"Hanstedt","type":"Kreisangehörige_Gemeinde"},"district":{"key":"03353","name":"Harburg","type":"Landkreis"},"federalState":{"key":"03","name":"Niedersachsen"}},{"name":"Rüstweg","postalCode":"21271","locality":"Hanstedt","municipality":{"key":"03353016","name":"Hanstedt","type":"Kreisangehörige_Gemeinde"},"district":{"key":"03353","name":"Harburg","type":"Landkreis"},"federalState":{"key":"03","name":"Niedersachsen"}},{"name":"Rüthersweg","postalCode":"21271","locality":"Hanstedt","municipality":{"key":"03353016","name":"Hanstedt","type":"Kreisangehörige_Gemeinde"},"district":{"key":"03353","name":"Harburg","type":"Landkreis"},"federalState":{"key":"03","name":"Niedersachsen"}},{"name":"Sahrendorfer Weg","postalCode":"21271","locality":"Hanstedt","municipality":{"key":"03353016","name":"Hanstedt","type":"Kreisangehörige_Gemeinde"},"district":{"key":"03353","name":"Harburg","type":"Landkreis"},"federalState":{"key":"03","name":"Niedersachsen"}},{"name":"Sandkamp","postalCode":"21271","locality":"Hanstedt","municipality":{"key":"03353016","name":"Hanstedt","type":"Kreisangehörige_Gemeinde"},"district":{"key":"03353","name":"Harburg","type":"Landkreis"},"federalState":{"key":"03","name":"Niedersachsen"}},{"name":"Schafstrift","postalCode":"21271","locality":"Hanstedt","municipality":{"key":"03353016","name":"Hanstedt","type":"Kreisangehörige_Gemeinde"},"district":{"key":"03353","name":"Harburg","type":"Landkreis"},"federalState":{"key":"03","name":"Niedersachsen"}},{"name":"Schierhorner Allee","postalCode":"21271","locality":"Hanstedt","municipality":{"key":"03353016","name":"Hanstedt","type":"Kreisangehörige_Gemeinde"},"district":{"key":"03353","name":"Harburg","type":"Landkreis"},"federalState":{"key":"03","name":"Niedersachsen"}},{"name":"Schloßstr.","postalCode":"21271","locality":"Hanstedt","municipality":{"key":"03353016","name":"Hanstedt","type":"Kreisangehörige_Gemeinde"},"district":{"key":"03353","name":"Harburg","type":"Landkreis"},"federalState":{"key":"03","name":"Niedersachsen"}},{"name":"Schusterberg","postalCode":"21271","locality":"Hanstedt","municipality":{"key":"03353016","name":"Hanstedt","type":"Kreisangehörige_Gemeinde"},"district":{"key":"03353","name":"Harburg","type":"Landkreis"},"federalState":{"key":"03","name":"Niedersachsen"}},{"name":"Seevestr.","postalCode":"21271","locality":"Hanstedt","municipality":{"key":"03353016","name":"Hanstedt","type":"Kreisangehörige_Gemeinde"},"district":{"key":"03353","name":"Harburg","type":"Landkreis"},"federalState":{"key":"03","name":"Niedersachsen"}},{"name":"Soltauer Str.","postalCode":"21271","locality":"Hanstedt","municipality":{"key":"03353016","name":"Hanstedt","type":"Kreisangehörige_Gemeinde"},"district":{"key":"03353","name":"Harburg","type":"Landkreis"},"federalState":{"key":"03","name":"Niedersachsen"}},{"name":"Stemmbarg","postalCode":"21271","locality":"Hanstedt","municipality":{"key":"03353016","name":"Hanstedt","type":"Kreisangehörige_Gemeinde"},"district":{"key":"03353","name":"Harburg","type":"Landkreis"},"federalState":{"key":"03","name":"Niedersachsen"}},{"name":"Stinkbüttelsgang","postalCode":"21271","locality":"Hanstedt","municipality":{"key":"03353016","name":"Hanstedt","type":"Kreisangehörige_Gemeinde"},"district":{"key":"03353","name":"Harburg","type":"Landkreis"},"federalState":{"key":"03","name":"Niedersachsen"}},{"name":"Sülzbusch","postalCode":"21271","locality":"Hanstedt","municipality":{"key":"03353016","name":"Hanstedt","type":"Kreisangehörige_Gemeinde"},"district":{"key":"03353","name":"Harburg","type":"Landkreis"},"federalState":{"key":"03","name":"Niedersachsen"}},{"name":"Sülzenheide","postalCode":"21271","locality":"Hanstedt","municipality":{"key":"03353016","name":"Hanstedt","type":"Kreisangehörige_Gemeinde"},"district":{"key":"03353","name":"Harburg","type":"Landkreis"},"federalState":{"key":"03","name":"Niedersachsen"}},{"name":"Teendorf","postalCode":"29582","locality":"Hanstedt","municipality":{"key":"03360010","name":"Hanstedt","type":"Kreisangehörige_Gemeinde"},"district":{"key":"03360","name":"Uelzen","type":"Landkreis"},"federalState":{"key":"03","name":"Niedersachsen"}},{"name":"Theodor-Storm-Str.","postalCode":"21271","locality":"Hanstedt","municipality":{"key":"03353016","name":"Hanstedt","type":"Kreisangehörige_Gemeinde"},"district":{"key":"03353","name":"Harburg","type":"Landkreis"},"federalState":{"key":"03","name":"Niedersachsen"}},{"name":"Toppenstedter Weg","postalCode":"21271","locality":"Hanstedt","municipality":{"key":"03353016","name":"Hanstedt","type":"Kreisangehörige_Gemeinde"},"district":{"key":"03353","name":"Harburg","type":"Landkreis"},"federalState":{"key":"03","name":"Niedersachsen"}},{"name":"Trimm-Dich-Pfad","postalCode":"21271","locality":"Hanstedt","municipality":{"key":"03353016","name":"Hanstedt","type":"Kreisangehörige_Gemeinde"},"district":{"key":"03353","name":"Harburg","type":"Landkreis"},"federalState":{"key":"03","name":"Niedersachsen"}},{"name":"Tünnersfeld","postalCode":"21271","locality":"Hanstedt","municipality":{"key":"03353016","name":"Hanstedt","type":"Kreisangehörige_Gemeinde"},"district":{"key":"03353","name":"Harburg","type":"Landkreis"},"federalState":{"key":"03","name":"Niedersachsen"}},{"name":"Upe Huslün","postalCode":"21271","locality":"Hanstedt","municipality":{"key":"03353016","name":"Hanstedt","type":"Kreisangehörige_Gemeinde"},"district":{"key":"03353","name":"Harburg","type":"Landkreis"},"federalState":{"key":"03","name":"Niedersachsen"}},{"name":"Velgen","postalCode":"29582","locality":"Hanstedt","municipality":{"key":"03360010","name":"Hanstedt","type":"Kreisangehörige_Gemeinde"},"district":{"key":"03360","name":"Uelzen","type":"Landkreis"},"federalState":{"key":"03","name":"Niedersachsen"}},{"name":"Velger Str.","postalCode":"29582","locality":"Hanstedt","municipality":{"key":"03360010","name":"Hanstedt","type":"Kreisangehörige_Gemeinde"},"district":{"key":"03360","name":"Uelzen","type":"Landkreis"},"federalState":{"key":"03","name":"Niedersachsen"}},{"name":"Vor dem Bruch","postalCode":"21271","locality":"Hanstedt","municipality":{"key":"03353016","name":"Hanstedt","type":"Kreisangehörige_Gemeinde"},"district":{"key":"03353","name":"Harburg","type":"Landkreis"},"federalState":{"key":"03","name":"Niedersachsen"}},{"name":"Vor dem Ishoop","postalCode":"29582","locality":"Hanstedt","municipality":{"key":"03360010","name":"Hanstedt","type":"Kreisangehörige_Gemeinde"},"district":{"key":"03360","name":"Uelzen","type":"Landkreis"},"federalState":{"key":"03","name":"Niedersachsen"}},{"name":"Weg hinter dem Friedhof","postalCode":"21271","locality":"Hanstedt","municipality":{"key":"03353016","name":"Hanstedt","type":"Kreisangehörige_Gemeinde"},"district":{"key":"03353","name":"Harburg","type":"Landkreis"},"federalState":{"key":"03","name":"Niedersachsen"}},{"name":"Weseler Heide","postalCode":"21271","locality":"Hanstedt","municipality":{"key":"03353016","name":"Hanstedt","type":"Kreisangehörige_Gemeinde"},"district":{"key":"03353","name":"Harburg","type":"Landkreis"},"federalState":{"key":"03","name":"Niedersachsen"}},{"name":"Weseler Weg","postalCode":"21271","locality":"Hanstedt","municipality":{"key":"03353016","name":"Hanstedt","type":"Kreisangehörige_Gemeinde"},"district":{"key":"03353","name":"Harburg","type":"Landkreis"},"federalState":{"key":"03","name":"Niedersachsen"}},{"name":"Westerhof","postalCode":"21271","locality":"Hanstedt","municipality":{"key":"03353016","name":"Hanstedt","type":"Kreisangehörige_Gemeinde"},"district":{"key":"03353","name":"Harburg","type":"Landkreis"},"federalState":{"key":"03","name":"Niedersachsen"}},{"name":"Westfeld","postalCode":"21271","locality":"Hanstedt","municipality":{"key":"03353016","name":"Hanstedt","type":"Kreisangehörige_Gemeinde"},"district":{"key":"03353","name":"Harburg","type":"Landkreis"},"federalState":{"key":"03","name":"Niedersachsen"}},{"name":"Wiesengrund","postalCode":"21271","locality":"Hanstedt","municipality":{"key":"03353016","name":"Hanstedt","type":"Kreisangehörige_Gemeinde"},"district":{"key":"03353","name":"Harburg","type":"Landkreis"},"federalState":{"key":"03","name":"Niedersachsen"}},{"name":"Wildpark","postalCode":"21271","locality":"Hanstedt","municipality":{"key":"03353016","name":"Hanstedt","type":"Kreisangehörige_Gemeinde"},"district":{"key":"03353","name":"Harburg","type":"Landkreis"},"federalState":{"key":"03","name":"Niedersachsen"}},{"name":"Winsener Str.","postalCode":"21271","locality":"Hanstedt","municipality":{"key":"03353016","name":"Hanstedt","type":"Kreisangehörige_Gemeinde"},"district":{"key":"03353","name":"Harburg","type":"Landkreis"},"federalState":{"key":"03","name":"Niedersachsen"}},{"name":"Wriedeler Str.","postalCode":"29582","locality":"Hanstedt","municipality":{"key":"03360010","name":"Hanstedt","type":"Kreisangehörige_Gemeinde"},"district":{"key":"03360","name":"Uelzen","type":"Landkreis"},"federalState":{"key":"03","name":"Niedersachsen"}},{"name":"Zum Hassel","postalCode":"21271","locality":"Hanstedt","municipality":{"key":"03353016","name":"Hanstedt","type":"Kreisangehörige_Gemeinde"},"district":{"key":"03353","name":"Harburg","type":"Landkreis"},"federalState":{"key":"03","name":"Niedersachsen"}},{"name":"Zum Hornsberg","postalCode":"21271","locality":"Hanstedt","municipality":{"key":"03353016","name":"Hanstedt","type":"Kreisangehörige_Gemeinde"},"district":{"key":"03353","name":"Harburg","type":"Landkreis"},"federalState":{"key":"03","name":"Niedersachsen"}},{"name":"Zur Aue","postalCode":"21271","locality":"Hanstedt","municipality":{"key":"03353016","name":"Hanstedt","type":"Kreisangehörige_Gemeinde"},"district":{"key":"03353","name":"Harburg","type":"Landkreis"},"federalState":{"key":"03","name":"Niedersachsen"}},{"name":"Zur Waterfuhr","postalCode":"21271","locality":"Hanstedt","municipality":{"key":"03353016","name":"Hanstedt","type":"Kreisangehörige_Gemeinde"},"district":{"key":"03353","name":"Harburg","type":"Landkreis"},"federalState":{"key":"03","name":"Niedersachsen"}},]