[{"name":"77er Str.","postalCode":"29221","locality":"Celle","municipality":{"key":"03351006","name":"Celle, Stadt","type":"Stadt"},"district":{"key":"03351","name":"Celle","type":"Landkreis"},"federalState":{"key":"03","name":"Niedersachsen"}},{"name":"Ahornweg","postalCode":"29328","locality":"Faßberg","municipality":{"key":"03351010","name":"Faßberg","type":"Kreisangehörige_Gemeinde"},"district":{"key":"03351","name":"Celle","type":"Landkreis"},"federalState":{"key":"03","name":"Niedersachsen"}},{"name":"Akazienweg","postalCode":"29328","locality":"Faßberg","municipality":{"key":"03351010","name":"Faßberg","type":"Kreisangehörige_Gemeinde"},"district":{"key":"03351","name":"Celle","type":"Landkreis"},"federalState":{"key":"03","name":"Niedersachsen"}},{"name":"Alte Dorfstr.","postalCode":"29328","locality":"Faßberg","municipality":{"key":"03351010","name":"Faßberg","type":"Kreisangehörige_Gemeinde"},"district":{"key":"03351","name":"Celle","type":"Landkreis"},"federalState":{"key":"03","name":"Niedersachsen"}},{"name":"Am Anger","postalCode":"29328","locality":"Faßberg","municipality":{"key":"03351010","name":"Faßberg","type":"Kreisangehörige_Gemeinde"},"district":{"key":"03351","name":"Celle","type":"Landkreis"},"federalState":{"key":"03","name":"Niedersachsen"}},{"name":"Am Bruch","postalCode":"29328","locality":"Faßberg","municipality":{"key":"03351010","name":"Faßberg","type":"Kreisangehörige_Gemeinde"},"district":{"key":"03351","name":"Celle","type":"Landkreis"},"federalState":{"key":"03","name":"Niedersachsen"}},{"name":"Am Gehäge","postalCode":"29328","locality":"Faßberg","municipality":{"key":"03351010","name":"Faßberg","type":"Kreisangehörige_Gemeinde"},"district":{"key":"03351","name":"Celle","type":"Landkreis"},"federalState":{"key":"03","name":"Niedersachsen"}},{"name":"Am Ginsterbusch","postalCode":"29328","locality":"Faßberg","municipality":{"key":"03351010","name":"Faßberg","type":"Kreisangehörige_Gemeinde"},"district":{"key":"03351","name":"Celle","type":"Landkreis"},"federalState":{"key":"03","name":"Niedersachsen"}},{"name":"Am Hagen","postalCode":"29328","locality":"Faßberg","municipality":{"key":"03351010","name":"Faßberg","type":"Kreisangehörige_Gemeinde"},"district":{"key":"03351","name":"Celle","type":"Landkreis"},"federalState":{"key":"03","name":"Niedersachsen"}},{"name":"Am Jetthorn","postalCode":"29328","locality":"Faßberg","municipality":{"key":"03351010","name":"Faßberg","type":"Kreisangehörige_Gemeinde"},"district":{"key":"03351","name":"Celle","type":"Landkreis"},"federalState":{"key":"03","name":"Niedersachsen"}},{"name":"Am Kastenberg","postalCode":"29328","locality":"Faßberg","municipality":{"key":"03351010","name":"Faßberg","type":"Kreisangehörige_Gemeinde"},"district":{"key":"03351","name":"Celle","type":"Landkreis"},"federalState":{"key":"03","name":"Niedersachsen"}},{"name":"Am Krähenberg","postalCode":"29328","locality":"Faßberg","municipality":{"key":"03351010","name":"Faßberg","type":"Kreisangehörige_Gemeinde"},"district":{"key":"03351","name":"Celle","type":"Landkreis"},"federalState":{"key":"03","name":"Niedersachsen"}},{"name":"Am Mühlenbusch","postalCode":"29328","locality":"Faßberg","municipality":{"key":"03351010","name":"Faßberg","type":"Kreisangehörige_Gemeinde"},"district":{"key":"03351","name":"Celle","type":"Landkreis"},"federalState":{"key":"03","name":"Niedersachsen"}},{"name":"Am Sägewerk","postalCode":"29328","locality":"Faßberg","municipality":{"key":"03351010","name":"Faßberg","type":"Kreisangehörige_Gemeinde"},"district":{"key":"03351","name":"Celle","type":"Landkreis"},"federalState":{"key":"03","name":"Niedersachsen"}},{"name":"Amselweg","postalCode":"29328","locality":"Faßberg","municipality":{"key":"03351010","name":"Faßberg","type":"Kreisangehörige_Gemeinde"},"district":{"key":"03351","name":"Celle","type":"Landkreis"},"federalState":{"key":"03","name":"Niedersachsen"}},{"name":"Am Semmbach","postalCode":"29328","locality":"Faßberg","municipality":{"key":"03351010","name":"Faßberg","type":"Kreisangehörige_Gemeinde"},"district":{"key":"03351","name":"Celle","type":"Landkreis"},"federalState":{"key":"03","name":"Niedersachsen"}},{"name":"Am Südhorn","postalCode":"29328","locality":"Faßberg","municipality":{"key":"03351010","name":"Faßberg","type":"Kreisangehörige_Gemeinde"},"district":{"key":"03351","name":"Celle","type":"Landkreis"},"federalState":{"key":"03","name":"Niedersachsen"}},{"name":"Am Talkampe","postalCode":"29328","locality":"Faßberg","municipality":{"key":"03351010","name":"Faßberg","type":"Kreisangehörige_Gemeinde"},"district":{"key":"03351","name":"Celle","type":"Landkreis"},"federalState":{"key":"03","name":"Niedersachsen"}},{"name":"Am Widderstreben","postalCode":"29328","locality":"Faßberg","municipality":{"key":"03351010","name":"Faßberg","type":"Kreisangehörige_Gemeinde"},"district":{"key":"03351","name":"Celle","type":"Landkreis"},"federalState":{"key":"03","name":"Niedersachsen"}},{"name":"Am Wörthen","postalCode":"29328","locality":"Faßberg","municipality":{"key":"03351010","name":"Faßberg","type":"Kreisangehörige_Gemeinde"},"district":{"key":"03351","name":"Celle","type":"Landkreis"},"federalState":{"key":"03","name":"Niedersachsen"}},{"name":"An der alten Schmiede","postalCode":"29328","locality":"Faßberg","municipality":{"key":"03351010","name":"Faßberg","type":"Kreisangehörige_Gemeinde"},"district":{"key":"03351","name":"Celle","type":"Landkreis"},"federalState":{"key":"03","name":"Niedersachsen"}},{"name":"An der Bahn","postalCode":"29328","locality":"Faßberg","municipality":{"key":"03351010","name":"Faßberg","type":"Kreisangehörige_Gemeinde"},"district":{"key":"03351","name":"Celle","type":"Landkreis"},"federalState":{"key":"03","name":"Niedersachsen"}},{"name":"An der Koppel","postalCode":"29328","locality":"Faßberg","municipality":{"key":"03351010","name":"Faßberg","type":"Kreisangehörige_Gemeinde"},"district":{"key":"03351","name":"Celle","type":"Landkreis"},"federalState":{"key":"03","name":"Niedersachsen"}},{"name":"Bahnhofsweg","postalCode":"29328","locality":"Faßberg","municipality":{"key":"03351010","name":"Faßberg","type":"Kreisangehörige_Gemeinde"},"district":{"key":"03351","name":"Celle","type":"Landkreis"},"federalState":{"key":"03","name":"Niedersachsen"}},{"name":"Beekenfeld","postalCode":"29328","locality":"Faßberg","municipality":{"key":"03351010","name":"Faßberg","type":"Kreisangehörige_Gemeinde"},"district":{"key":"03351","name":"Celle","type":"Landkreis"},"federalState":{"key":"03","name":"Niedersachsen"}},{"name":"Berliner Weg","postalCode":"29328","locality":"Faßberg","municipality":{"key":"03351010","name":"Faßberg","type":"Kreisangehörige_Gemeinde"},"district":{"key":"03351","name":"Celle","type":"Landkreis"},"federalState":{"key":"03","name":"Niedersachsen"}},{"name":"Birkenpfad","postalCode":"29328","locality":"Faßberg","municipality":{"key":"03351010","name":"Faßberg","type":"Kreisangehörige_Gemeinde"},"district":{"key":"03351","name":"Celle","type":"Landkreis"},"federalState":{"key":"03","name":"Niedersachsen"}},{"name":"Birkenweg","postalCode":"29328","locality":"Faßberg","municipality":{"key":"03351010","name":"Faßberg","type":"Kreisangehörige_Gemeinde"},"district":{"key":"03351","name":"Celle","type":"Landkreis"},"federalState":{"key":"03","name":"Niedersachsen"}},{"name":"Bisambau","postalCode":"29328","locality":"Faßberg","municipality":{"key":"03351010","name":"Faßberg","type":"Kreisangehörige_Gemeinde"},"district":{"key":"03351","name":"Celle","type":"Landkreis"},"federalState":{"key":"03","name":"Niedersachsen"}},{"name":"Boelckeweg","postalCode":"29328","locality":"Faßberg","municipality":{"key":"03351010","name":"Faßberg","type":"Kreisangehörige_Gemeinde"},"district":{"key":"03351","name":"Celle","type":"Landkreis"},"federalState":{"key":"03","name":"Niedersachsen"}},{"name":"Breslauer Weg","postalCode":"29328","locality":"Faßberg","municipality":{"key":"03351010","name":"Faßberg","type":"Kreisangehörige_Gemeinde"},"district":{"key":"03351","name":"Celle","type":"Landkreis"},"federalState":{"key":"03","name":"Niedersachsen"}},{"name":"Bromberger Weg","postalCode":"29328","locality":"Faßberg","municipality":{"key":"03351010","name":"Faßberg","type":"Kreisangehörige_Gemeinde"},"district":{"key":"03351","name":"Celle","type":"Landkreis"},"federalState":{"key":"03","name":"Niedersachsen"}},{"name":"Brunnenplatz","postalCode":"29328","locality":"Faßberg","municipality":{"key":"03351010","name":"Faßberg","type":"Kreisangehörige_Gemeinde"},"district":{"key":"03351","name":"Celle","type":"Landkreis"},"federalState":{"key":"03","name":"Niedersachsen"}},{"name":"Buchenweg","postalCode":"29328","locality":"Faßberg","municipality":{"key":"03351010","name":"Faßberg","type":"Kreisangehörige_Gemeinde"},"district":{"key":"03351","name":"Celle","type":"Landkreis"},"federalState":{"key":"03","name":"Niedersachsen"}},{"name":"Calvinstr.","postalCode":"29223","locality":"Celle","municipality":{"key":"03351006","name":"Celle, Stadt","type":"Stadt"},"district":{"key":"03351","name":"Celle","type":"Landkreis"},"federalState":{"key":"03","name":"Niedersachsen"}},{"name":"Carla-Meyer-Rasch-Str.","postalCode":"29221","locality":"Celle","municipality":{"key":"03351006","name":"Celle, Stadt","type":"Stadt"},"district":{"key":"03351","name":"Celle","type":"Landkreis"},"federalState":{"key":"03","name":"Niedersachsen"}},{"name":"Caroline-Mathilde-Str.","postalCode":"29225","locality":"Celle","municipality":{"key":"03351006","name":"Celle, Stadt","type":"Stadt"},"district":{"key":"03351","name":"Celle","type":"Landkreis"},"federalState":{"key":"03","name":"Niedersachsen"}},{"name":"Carstensstr.","postalCode":"29225","locality":"Celle","municipality":{"key":"03351006","name":"Celle, Stadt","type":"Stadt"},"district":{"key":"03351","name":"Celle","type":"Landkreis"},"federalState":{"key":"03","name":"Niedersachsen"}},{"name":"Celle-Ligure-Str.","postalCode":"29225","locality":"Celle","municipality":{"key":"03351006","name":"Celle, Stadt","type":"Stadt"},"district":{"key":"03351","name":"Celle","type":"Landkreis"},"federalState":{"key":"03","name":"Niedersachsen"}},{"name":"Celler Heerstr.","postalCode":"29229","locality":"Celle","municipality":{"key":"03351006","name":"Celle, Stadt","type":"Stadt"},"district":{"key":"03351","name":"Celle","type":"Landkreis"},"federalState":{"key":"03","name":"Niedersachsen"}},{"name":"Celler Heide","postalCode":"29227","locality":"Celle","municipality":{"key":"03351006","name":"Celle, Stadt","type":"Stadt"},"district":{"key":"03351","name":"Celle","type":"Landkreis"},"federalState":{"key":"03","name":"Niedersachsen"}},{"name":"Celler Str.","postalCode":"29229","locality":"Celle","municipality":{"key":"03351006","name":"Celle, Stadt","type":"Stadt"},"district":{"key":"03351","name":"Celle","type":"Landkreis"},"federalState":{"key":"03","name":"Niedersachsen"}},{"name":"Celler Weg","postalCode":"29227","locality":"Celle","municipality":{"key":"03351006","name":"Celle, Stadt","type":"Stadt"},"district":{"key":"03351","name":"Celle","type":"Landkreis"},"federalState":{"key":"03","name":"Niedersachsen"}},{"name":"Clemens-Cassel-Str.","postalCode":"29223","locality":"Celle","municipality":{"key":"03351006","name":"Celle, Stadt","type":"Stadt"},"district":{"key":"03351","name":"Celle","type":"Landkreis"},"federalState":{"key":"03","name":"Niedersachsen"}},{"name":"Danziger Str.","postalCode":"29328","locality":"Faßberg","municipality":{"key":"03351010","name":"Faßberg","type":"Kreisangehörige_Gemeinde"},"district":{"key":"03351","name":"Celle","type":"Landkreis"},"federalState":{"key":"03","name":"Niedersachsen"}},{"name":"Der Grund","postalCode":"29328","locality":"Faßberg","municipality":{"key":"03351010","name":"Faßberg","type":"Kreisangehörige_Gemeinde"},"district":{"key":"03351","name":"Celle","type":"Landkreis"},"federalState":{"key":"03","name":"Niedersachsen"}},{"name":"Diedrich-Speckmann-Weg","postalCode":"29328","locality":"Faßberg","municipality":{"key":"03351010","name":"Faßberg","type":"Kreisangehörige_Gemeinde"},"district":{"key":"03351","name":"Celle","type":"Landkreis"},"federalState":{"key":"03","name":"Niedersachsen"}},{"name":"Drosselweg","postalCode":"29328","locality":"Faßberg","municipality":{"key":"03351010","name":"Faßberg","type":"Kreisangehörige_Gemeinde"},"district":{"key":"03351","name":"Celle","type":"Landkreis"},"federalState":{"key":"03","name":"Niedersachsen"}},{"name":"Eckernkamp","postalCode":"29328","locality":"Faßberg","municipality":{"key":"03351010","name":"Faßberg","type":"Kreisangehörige_Gemeinde"},"district":{"key":"03351","name":"Celle","type":"Landkreis"},"federalState":{"key":"03","name":"Niedersachsen"}},{"name":"Eichhornkobel","postalCode":"29328","locality":"Faßberg","municipality":{"key":"03351010","name":"Faßberg","type":"Kreisangehörige_Gemeinde"},"district":{"key":"03351","name":"Celle","type":"Landkreis"},"federalState":{"key":"03","name":"Niedersachsen"}},{"name":"Elsternstieg","postalCode":"29328","locality":"Faßberg","municipality":{"key":"03351010","name":"Faßberg","type":"Kreisangehörige_Gemeinde"},"district":{"key":"03351","name":"Celle","type":"Landkreis"},"federalState":{"key":"03","name":"Niedersachsen"}},{"name":"Erikaweg","postalCode":"29328","locality":"Faßberg","municipality":{"key":"03351010","name":"Faßberg","type":"Kreisangehörige_Gemeinde"},"district":{"key":"03351","name":"Celle","type":"Landkreis"},"federalState":{"key":"03","name":"Niedersachsen"}},{"name":"Eschenweg","postalCode":"29328","locality":"Faßberg","municipality":{"key":"03351010","name":"Faßberg","type":"Kreisangehörige_Gemeinde"},"district":{"key":"03351","name":"Celle","type":"Landkreis"},"federalState":{"key":"03","name":"Niedersachsen"}},{"name":"Falkenweg","postalCode":"29328","locality":"Faßberg","municipality":{"key":"03351010","name":"Faßberg","type":"Kreisangehörige_Gemeinde"},"district":{"key":"03351","name":"Celle","type":"Landkreis"},"federalState":{"key":"03","name":"Niedersachsen"}},{"name":"Felicitas-Rose-Weg","postalCode":"29328","locality":"Faßberg","municipality":{"key":"03351010","name":"Faßberg","type":"Kreisangehörige_Gemeinde"},"district":{"key":"03351","name":"Celle","type":"Landkreis"},"federalState":{"key":"03","name":"Niedersachsen"}},{"name":"Fichtenweg","postalCode":"29328","locality":"Faßberg","municipality":{"key":"03351010","name":"Faßberg","type":"Kreisangehörige_Gemeinde"},"district":{"key":"03351","name":"Celle","type":"Landkreis"},"federalState":{"key":"03","name":"Niedersachsen"}},{"name":"Finkenweg","postalCode":"29328","locality":"Faßberg","municipality":{"key":"03351010","name":"Faßberg","type":"Kreisangehörige_Gemeinde"},"district":{"key":"03351","name":"Celle","type":"Landkreis"},"federalState":{"key":"03","name":"Niedersachsen"}},{"name":"Fliederweg","postalCode":"29328","locality":"Faßberg","municipality":{"key":"03351010","name":"Faßberg","type":"Kreisangehörige_Gemeinde"},"district":{"key":"03351","name":"Celle","type":"Landkreis"},"federalState":{"key":"03","name":"Niedersachsen"}},{"name":"Forstweg","postalCode":"29328","locality":"Faßberg","municipality":{"key":"03351010","name":"Faßberg","type":"Kreisangehörige_Gemeinde"},"district":{"key":"03351","name":"Celle","type":"Landkreis"},"federalState":{"key":"03","name":"Niedersachsen"}},{"name":"Freeswinkel","postalCode":"29328","locality":"Faßberg","municipality":{"key":"03351010","name":"Faßberg","type":"Kreisangehörige_Gemeinde"},"district":{"key":"03351","name":"Celle","type":"Landkreis"},"federalState":{"key":"03","name":"Niedersachsen"}},{"name":"Fuchsbau","postalCode":"29328","locality":"Faßberg","municipality":{"key":"03351010","name":"Faßberg","type":"Kreisangehörige_Gemeinde"},"district":{"key":"03351","name":"Celle","type":"Landkreis"},"federalState":{"key":"03","name":"Niedersachsen"}},{"name":"Gartenstr.","postalCode":"29328","locality":"Faßberg","municipality":{"key":"03351010","name":"Faßberg","type":"Kreisangehörige_Gemeinde"},"district":{"key":"03351","name":"Celle","type":"Landkreis"},"federalState":{"key":"03","name":"Niedersachsen"}},{"name":"Gerdehaus","postalCode":"29328","locality":"Faßberg","municipality":{"key":"03351010","name":"Faßberg","type":"Kreisangehörige_Gemeinde"},"district":{"key":"03351","name":"Celle","type":"Landkreis"},"federalState":{"key":"03","name":"Niedersachsen"}},{"name":"Ginsterweg","postalCode":"29328","locality":"Faßberg","municipality":{"key":"03351010","name":"Faßberg","type":"Kreisangehörige_Gemeinde"},"district":{"key":"03351","name":"Celle","type":"Landkreis"},"federalState":{"key":"03","name":"Niedersachsen"}},{"name":"Glockenheide","postalCode":"29328","locality":"Faßberg","municipality":{"key":"03351010","name":"Faßberg","type":"Kreisangehörige_Gemeinde"},"district":{"key":"03351","name":"Celle","type":"Landkreis"},"federalState":{"key":"03","name":"Niedersachsen"}},{"name":"Große Horststr.","postalCode":"29328","locality":"Faßberg","municipality":{"key":"03351010","name":"Faßberg","type":"Kreisangehörige_Gemeinde"},"district":{"key":"03351","name":"Celle","type":"Landkreis"},"federalState":{"key":"03","name":"Niedersachsen"}},{"name":"Hankenbosteler Str.","postalCode":"29328","locality":"Faßberg","municipality":{"key":"03351010","name":"Faßberg","type":"Kreisangehörige_Gemeinde"},"district":{"key":"03351","name":"Celle","type":"Landkreis"},"federalState":{"key":"03","name":"Niedersachsen"}},{"name":"Haselweg","postalCode":"29328","locality":"Faßberg","municipality":{"key":"03351010","name":"Faßberg","type":"Kreisangehörige_Gemeinde"},"district":{"key":"03351","name":"Celle","type":"Landkreis"},"federalState":{"key":"03","name":"Niedersachsen"}},{"name":"Hasenheide","postalCode":"29328","locality":"Faßberg","municipality":{"key":"03351010","name":"Faßberg","type":"Kreisangehörige_Gemeinde"},"district":{"key":"03351","name":"Celle","type":"Landkreis"},"federalState":{"key":"03","name":"Niedersachsen"}},{"name":"Hasenwinkel","postalCode":"29328","locality":"Faßberg","municipality":{"key":"03351010","name":"Faßberg","type":"Kreisangehörige_Gemeinde"},"district":{"key":"03351","name":"Celle","type":"Landkreis"},"federalState":{"key":"03","name":"Niedersachsen"}},{"name":"Hauptstr.","postalCode":"29328","locality":"Faßberg","municipality":{"key":"03351010","name":"Faßberg","type":"Kreisangehörige_Gemeinde"},"district":{"key":"03351","name":"Celle","type":"Landkreis"},"federalState":{"key":"03","name":"Niedersachsen"}},{"name":"Hausselbergweg","postalCode":"29328","locality":"Faßberg","municipality":{"key":"03351010","name":"Faßberg","type":"Kreisangehörige_Gemeinde"},"district":{"key":"03351","name":"Celle","type":"Landkreis"},"federalState":{"key":"03","name":"Niedersachsen"}},{"name":"Heideweg","postalCode":"29328","locality":"Faßberg","municipality":{"key":"03351010","name":"Faßberg","type":"Kreisangehörige_Gemeinde"},"district":{"key":"03351","name":"Celle","type":"Landkreis"},"federalState":{"key":"03","name":"Niedersachsen"}},{"name":"Hermann-Löns-Weg","postalCode":"29328","locality":"Faßberg","municipality":{"key":"03351010","name":"Faßberg","type":"Kreisangehörige_Gemeinde"},"district":{"key":"03351","name":"Celle","type":"Landkreis"},"federalState":{"key":"03","name":"Niedersachsen"}},{"name":"Hermannsburger Str.","postalCode":"29328","locality":"Faßberg","municipality":{"key":"03351010","name":"Faßberg","type":"Kreisangehörige_Gemeinde"},"district":{"key":"03351","name":"Celle","type":"Landkreis"},"federalState":{"key":"03","name":"Niedersachsen"}},{"name":"Heuweg","postalCode":"29328","locality":"Faßberg","municipality":{"key":"03351010","name":"Faßberg","type":"Kreisangehörige_Gemeinde"},"district":{"key":"03351","name":"Celle","type":"Landkreis"},"federalState":{"key":"03","name":"Niedersachsen"}},{"name":"Hof Backeberg","postalCode":"29328","locality":"Faßberg","municipality":{"key":"03351010","name":"Faßberg","type":"Kreisangehörige_Gemeinde"},"district":{"key":"03351","name":"Celle","type":"Landkreis"},"federalState":{"key":"03","name":"Niedersachsen"}},{"name":"Holunderweg","postalCode":"29328","locality":"Faßberg","municipality":{"key":"03351010","name":"Faßberg","type":"Kreisangehörige_Gemeinde"},"district":{"key":"03351","name":"Celle","type":"Landkreis"},"federalState":{"key":"03","name":"Niedersachsen"}},{"name":"Iltisgang","postalCode":"29328","locality":"Faßberg","municipality":{"key":"03351010","name":"Faßberg","type":"Kreisangehörige_Gemeinde"},"district":{"key":"03351","name":"Celle","type":"Landkreis"},"federalState":{"key":"03","name":"Niedersachsen"}},{"name":"Im Brambusch","postalCode":"29328","locality":"Faßberg","municipality":{"key":"03351010","name":"Faßberg","type":"Kreisangehörige_Gemeinde"},"district":{"key":"03351","name":"Celle","type":"Landkreis"},"federalState":{"key":"03","name":"Niedersachsen"}},{"name":"Im Kreise","postalCode":"29328","locality":"Faßberg","municipality":{"key":"03351010","name":"Faßberg","type":"Kreisangehörige_Gemeinde"},"district":{"key":"03351","name":"Celle","type":"Landkreis"},"federalState":{"key":"03","name":"Niedersachsen"}},{"name":"Immenweg","postalCode":"29328","locality":"Faßberg","municipality":{"key":"03351010","name":"Faßberg","type":"Kreisangehörige_Gemeinde"},"district":{"key":"03351","name":"Celle","type":"Landkreis"},"federalState":{"key":"03","name":"Niedersachsen"}},{"name":"Im Mittelstendorf","postalCode":"29328","locality":"Faßberg","municipality":{"key":"03351010","name":"Faßberg","type":"Kreisangehörige_Gemeinde"},"district":{"key":"03351","name":"Celle","type":"Landkreis"},"federalState":{"key":"03","name":"Niedersachsen"}},{"name":"Im Sande","postalCode":"29328","locality":"Faßberg","municipality":{"key":"03351010","name":"Faßberg","type":"Kreisangehörige_Gemeinde"},"district":{"key":"03351","name":"Celle","type":"Landkreis"},"federalState":{"key":"03","name":"Niedersachsen"}},{"name":"Im Speerfeld","postalCode":"29328","locality":"Faßberg","municipality":{"key":"03351010","name":"Faßberg","type":"Kreisangehörige_Gemeinde"},"district":{"key":"03351","name":"Celle","type":"Landkreis"},"federalState":{"key":"03","name":"Niedersachsen"}},{"name":"Im Suerfeld","postalCode":"29328","locality":"Faßberg","municipality":{"key":"03351010","name":"Faßberg","type":"Kreisangehörige_Gemeinde"},"district":{"key":"03351","name":"Celle","type":"Landkreis"},"federalState":{"key":"03","name":"Niedersachsen"}},{"name":"Im Wildgarten","postalCode":"29328","locality":"Faßberg","municipality":{"key":"03351010","name":"Faßberg","type":"Kreisangehörige_Gemeinde"},"district":{"key":"03351","name":"Celle","type":"Landkreis"},"federalState":{"key":"03","name":"Niedersachsen"}},{"name":"Im Winkel","postalCode":"29328","locality":"Faßberg","municipality":{"key":"03351010","name":"Faßberg","type":"Kreisangehörige_Gemeinde"},"district":{"key":"03351","name":"Celle","type":"Landkreis"},"federalState":{"key":"03","name":"Niedersachsen"}},{"name":"In den Sohlen","postalCode":"29328","locality":"Faßberg","municipality":{"key":"03351010","name":"Faßberg","type":"Kreisangehörige_Gemeinde"},"district":{"key":"03351","name":"Celle","type":"Landkreis"},"federalState":{"key":"03","name":"Niedersachsen"}},{"name":"Jägerweg","postalCode":"29328","locality":"Faßberg","municipality":{"key":"03351010","name":"Faßberg","type":"Kreisangehörige_Gemeinde"},"district":{"key":"03351","name":"Celle","type":"Landkreis"},"federalState":{"key":"03","name":"Niedersachsen"}},{"name":"Jugendherberge Müden/Örtze","postalCode":"29328","locality":"Faßberg","municipality":{"key":"03351010","name":"Faßberg","type":"Kreisangehörige_Gemeinde"},"district":{"key":"03351","name":"Celle","type":"Landkreis"},"federalState":{"key":"03","name":"Niedersachsen"}},{"name":"Kastanienweg","postalCode":"29328","locality":"Faßberg","municipality":{"key":"03351010","name":"Faßberg","type":"Kreisangehörige_Gemeinde"},"district":{"key":"03351","name":"Celle","type":"Landkreis"},"federalState":{"key":"03","name":"Niedersachsen"}},{"name":"Kiefernweg","postalCode":"29328","locality":"Faßberg","municipality":{"key":"03351010","name":"Faßberg","type":"Kreisangehörige_Gemeinde"},"district":{"key":"03351","name":"Celle","type":"Landkreis"},"federalState":{"key":"03","name":"Niedersachsen"}},{"name":"Kieselgur-Rundwanderweg","postalCode":"29328","locality":"Faßberg","municipality":{"key":"03351010","name":"Faßberg","type":"Kreisangehörige_Gemeinde"},"district":{"key":"03351","name":"Celle","type":"Landkreis"},"federalState":{"key":"03","name":"Niedersachsen"}},{"name":"Köstertwiete","postalCode":"29328","locality":"Faßberg","municipality":{"key":"03351010","name":"Faßberg","type":"Kreisangehörige_Gemeinde"},"district":{"key":"03351","name":"Celle","type":"Landkreis"},"federalState":{"key":"03","name":"Niedersachsen"}},{"name":"Kuckucksweg","postalCode":"29328","locality":"Faßberg","municipality":{"key":"03351010","name":"Faßberg","type":"Kreisangehörige_Gemeinde"},"district":{"key":"03351","name":"Celle","type":"Landkreis"},"federalState":{"key":"03","name":"Niedersachsen"}},{"name":"Lange Reihe","postalCode":"29328","locality":"Faßberg","municipality":{"key":"03351010","name":"Faßberg","type":"Kreisangehörige_Gemeinde"},"district":{"key":"03351","name":"Celle","type":"Landkreis"},"federalState":{"key":"03","name":"Niedersachsen"}},{"name":"Laufstrecke","postalCode":"29328","locality":"Faßberg","municipality":{"key":"03351010","name":"Faßberg","type":"Kreisangehörige_Gemeinde"},"district":{"key":"03351","name":"Celle","type":"Landkreis"},"federalState":{"key":"03","name":"Niedersachsen"}},{"name":"Lerchenweg","postalCode":"29328","locality":"Faßberg","municipality":{"key":"03351010","name":"Faßberg","type":"Kreisangehörige_Gemeinde"},"district":{"key":"03351","name":"Celle","type":"Landkreis"},"federalState":{"key":"03","name":"Niedersachsen"}},{"name":"Lindenstr.","postalCode":"29328","locality":"Faßberg","municipality":{"key":"03351010","name":"Faßberg","type":"Kreisangehörige_Gemeinde"},"district":{"key":"03351","name":"Celle","type":"Landkreis"},"federalState":{"key":"03","name":"Niedersachsen"}},{"name":"Lüneburger Weg","postalCode":"29328","locality":"Faßberg","municipality":{"key":"03351010","name":"Faßberg","type":"Kreisangehörige_Gemeinde"},"district":{"key":"03351","name":"Celle","type":"Landkreis"},"federalState":{"key":"03","name":"Niedersachsen"}},{"name":"Marderfang","postalCode":"29328","locality":"Faßberg","municipality":{"key":"03351010","name":"Faßberg","type":"Kreisangehörige_Gemeinde"},"district":{"key":"03351","name":"Celle","type":"Landkreis"},"federalState":{"key":"03","name":"Niedersachsen"}},{"name":"Marktweg","postalCode":"29328","locality":"Faßberg","municipality":{"key":"03351010","name":"Faßberg","type":"Kreisangehörige_Gemeinde"},"district":{"key":"03351","name":"Celle","type":"Landkreis"},"federalState":{"key":"03","name":"Niedersachsen"}},{"name":"Meisenweg","postalCode":"29328","locality":"Faßberg","municipality":{"key":"03351010","name":"Faßberg","type":"Kreisangehörige_Gemeinde"},"district":{"key":"03351","name":"Celle","type":"Landkreis"},"federalState":{"key":"03","name":"Niedersachsen"}},{"name":"Möldersweg","postalCode":"29328","locality":"Faßberg","municipality":{"key":"03351010","name":"Faßberg","type":"Kreisangehörige_Gemeinde"},"district":{"key":"03351","name":"Celle","type":"Landkreis"},"federalState":{"key":"03","name":"Niedersachsen"}},{"name":"Moorweg","postalCode":"29328","locality":"Faßberg","municipality":{"key":"03351010","name":"Faßberg","type":"Kreisangehörige_Gemeinde"},"district":{"key":"03351","name":"Celle","type":"Landkreis"},"federalState":{"key":"03","name":"Niedersachsen"}},{"name":"Müdener Weg","postalCode":"29328","locality":"Faßberg","municipality":{"key":"03351010","name":"Faßberg","type":"Kreisangehörige_Gemeinde"},"district":{"key":"03351","name":"Celle","type":"Landkreis"},"federalState":{"key":"03","name":"Niedersachsen"}},{"name":"Neubauerweg","postalCode":"29328","locality":"Faßberg","municipality":{"key":"03351010","name":"Faßberg","type":"Kreisangehörige_Gemeinde"},"district":{"key":"03351","name":"Celle","type":"Landkreis"},"federalState":{"key":"03","name":"Niedersachsen"}},{"name":"Neuer Damm","postalCode":"29328","locality":"Faßberg","municipality":{"key":"03351010","name":"Faßberg","type":"Kreisangehörige_Gemeinde"},"district":{"key":"03351","name":"Celle","type":"Landkreis"},"federalState":{"key":"03","name":"Niedersachsen"}},{"name":"Niederohe","postalCode":"29328","locality":"Faßberg","municipality":{"key":"03351010","name":"Faßberg","type":"Kreisangehörige_Gemeinde"},"district":{"key":"03351","name":"Celle","type":"Landkreis"},"federalState":{"key":"03","name":"Niedersachsen"}},{"name":"Oberohe","postalCode":"29328","locality":"Faßberg","municipality":{"key":"03351010","name":"Faßberg","type":"Kreisangehörige_Gemeinde"},"district":{"key":"03351","name":"Celle","type":"Landkreis"},"federalState":{"key":"03","name":"Niedersachsen"}},{"name":"Pappelallee","postalCode":"29328","locality":"Faßberg","municipality":{"key":"03351010","name":"Faßberg","type":"Kreisangehörige_Gemeinde"},"district":{"key":"03351","name":"Celle","type":"Landkreis"},"federalState":{"key":"03","name":"Niedersachsen"}},{"name":"Poitzen","postalCode":"29328","locality":"Faßberg","municipality":{"key":"03351010","name":"Faßberg","type":"Kreisangehörige_Gemeinde"},"district":{"key":"03351","name":"Celle","type":"Landkreis"},"federalState":{"key":"03","name":"Niedersachsen"}},{"name":"Poitzener Str.","postalCode":"29328","locality":"Faßberg","municipality":{"key":"03351010","name":"Faßberg","type":"Kreisangehörige_Gemeinde"},"district":{"key":"03351","name":"Celle","type":"Landkreis"},"federalState":{"key":"03","name":"Niedersachsen"}},{"name":"Posener Weg","postalCode":"29328","locality":"Faßberg","municipality":{"key":"03351010","name":"Faßberg","type":"Kreisangehörige_Gemeinde"},"district":{"key":"03351","name":"Celle","type":"Landkreis"},"federalState":{"key":"03","name":"Niedersachsen"}},{"name":"Promenade","postalCode":"29328","locality":"Faßberg","municipality":{"key":"03351010","name":"Faßberg","type":"Kreisangehörige_Gemeinde"},"district":{"key":"03351","name":"Celle","type":"Landkreis"},"federalState":{"key":"03","name":"Niedersachsen"}},{"name":"Quedlinburgstr.","postalCode":"29225","locality":"Celle","municipality":{"key":"03351006","name":"Celle, Stadt","type":"Stadt"},"district":{"key":"03351","name":"Celle","type":"Landkreis"},"federalState":{"key":"03","name":"Niedersachsen"}},{"name":"Quellweg","postalCode":"29229","locality":"Celle","municipality":{"key":"03351006","name":"Celle, Stadt","type":"Stadt"},"district":{"key":"03351","name":"Celle","type":"Landkreis"},"federalState":{"key":"03","name":"Niedersachsen"}},{"name":"Quittenweg","postalCode":"29223","locality":"Celle","municipality":{"key":"03351006","name":"Celle, Stadt","type":"Stadt"},"district":{"key":"03351","name":"Celle","type":"Landkreis"},"federalState":{"key":"03","name":"Niedersachsen"}},{"name":"Rabenbusch","postalCode":"29328","locality":"Faßberg","municipality":{"key":"03351010","name":"Faßberg","type":"Kreisangehörige_Gemeinde"},"district":{"key":"03351","name":"Celle","type":"Landkreis"},"federalState":{"key":"03","name":"Niedersachsen"}},{"name":"Richard-Linde-Weg","postalCode":"29328","locality":"Faßberg","municipality":{"key":"03351010","name":"Faßberg","type":"Kreisangehörige_Gemeinde"},"district":{"key":"03351","name":"Celle","type":"Landkreis"},"federalState":{"key":"03","name":"Niedersachsen"}},{"name":"Rodelberg","postalCode":"29328","locality":"Faßberg","municipality":{"key":"03351010","name":"Faßberg","type":"Kreisangehörige_Gemeinde"},"district":{"key":"03351","name":"Celle","type":"Landkreis"},"federalState":{"key":"03","name":"Niedersachsen"}},{"name":"Salzmoor","postalCode":"29328","locality":"Faßberg","municipality":{"key":"03351010","name":"Faßberg","type":"Kreisangehörige_Gemeinde"},"district":{"key":"03351","name":"Celle","type":"Landkreis"},"federalState":{"key":"03","name":"Niedersachsen"}},{"name":"Sandstr.","postalCode":"29328","locality":"Faßberg","municipality":{"key":"03351010","name":"Faßberg","type":"Kreisangehörige_Gemeinde"},"district":{"key":"03351","name":"Celle","type":"Landkreis"},"federalState":{"key":"03","name":"Niedersachsen"}},{"name":"Schilfbogen","postalCode":"29328","locality":"Faßberg","municipality":{"key":"03351010","name":"Faßberg","type":"Kreisangehörige_Gemeinde"},"district":{"key":"03351","name":"Celle","type":"Landkreis"},"federalState":{"key":"03","name":"Niedersachsen"}},{"name":"Schlichternheide","postalCode":"29328","locality":"Faßberg","municipality":{"key":"03351010","name":"Faßberg","type":"Kreisangehörige_Gemeinde"},"district":{"key":"03351","name":"Celle","type":"Landkreis"},"federalState":{"key":"03","name":"Niedersachsen"}},{"name":"Schmales Moor","postalCode":"29328","locality":"Faßberg","municipality":{"key":"03351010","name":"Faßberg","type":"Kreisangehörige_Gemeinde"},"district":{"key":"03351","name":"Celle","type":"Landkreis"},"federalState":{"key":"03","name":"Niedersachsen"}},{"name":"Schmarbeck","postalCode":"29328","locality":"Faßberg","municipality":{"key":"03351010","name":"Faßberg","type":"Kreisangehörige_Gemeinde"},"district":{"key":"03351","name":"Celle","type":"Landkreis"},"federalState":{"key":"03","name":"Niedersachsen"}},{"name":"Schmarbeck Grube","postalCode":"29328","locality":"Faßberg","municipality":{"key":"03351010","name":"Faßberg","type":"Kreisangehörige_Gemeinde"},"district":{"key":"03351","name":"Celle","type":"Landkreis"},"federalState":{"key":"03","name":"Niedersachsen"}},{"name":"Schnuckentrift","postalCode":"29328","locality":"Faßberg","municipality":{"key":"03351010","name":"Faßberg","type":"Kreisangehörige_Gemeinde"},"district":{"key":"03351","name":"Celle","type":"Landkreis"},"federalState":{"key":"03","name":"Niedersachsen"}},{"name":"Schulstr.","postalCode":"29328","locality":"Faßberg","municipality":{"key":"03351010","name":"Faßberg","type":"Kreisangehörige_Gemeinde"},"district":{"key":"03351","name":"Celle","type":"Landkreis"},"federalState":{"key":"03","name":"Niedersachsen"}},{"name":"Schulz-Kamp","postalCode":"29328","locality":"Faßberg","municipality":{"key":"03351010","name":"Faßberg","type":"Kreisangehörige_Gemeinde"},"district":{"key":"03351","name":"Celle","type":"Landkreis"},"federalState":{"key":"03","name":"Niedersachsen"}},{"name":"Schwarzer Weg","postalCode":"29328","locality":"Faßberg","municipality":{"key":"03351010","name":"Faßberg","type":"Kreisangehörige_Gemeinde"},"district":{"key":"03351","name":"Celle","type":"Landkreis"},"federalState":{"key":"03","name":"Niedersachsen"}},{"name":"Sonnentau","postalCode":"29328","locality":"Faßberg","municipality":{"key":"03351010","name":"Faßberg","type":"Kreisangehörige_Gemeinde"},"district":{"key":"03351","name":"Celle","type":"Landkreis"},"federalState":{"key":"03","name":"Niedersachsen"}},{"name":"Sperlingsweg","postalCode":"29328","locality":"Faßberg","municipality":{"key":"03351010","name":"Faßberg","type":"Kreisangehörige_Gemeinde"},"district":{"key":"03351","name":"Celle","type":"Landkreis"},"federalState":{"key":"03","name":"Niedersachsen"}},{"name":"Steg","postalCode":"29328","locality":"Faßberg","municipality":{"key":"03351010","name":"Faßberg","type":"Kreisangehörige_Gemeinde"},"district":{"key":"03351","name":"Celle","type":"Landkreis"},"federalState":{"key":"03","name":"Niedersachsen"}},{"name":"Steinhoffweg","postalCode":"29328","locality":"Faßberg","municipality":{"key":"03351010","name":"Faßberg","type":"Kreisangehörige_Gemeinde"},"district":{"key":"03351","name":"Celle","type":"Landkreis"},"federalState":{"key":"03","name":"Niedersachsen"}},{"name":"Steinweg","postalCode":"29328","locality":"Faßberg","municipality":{"key":"03351010","name":"Faßberg","type":"Kreisangehörige_Gemeinde"},"district":{"key":"03351","name":"Celle","type":"Landkreis"},"federalState":{"key":"03","name":"Niedersachsen"}},{"name":"Suerbruch","postalCode":"29328","locality":"Faßberg","municipality":{"key":"03351010","name":"Faßberg","type":"Kreisangehörige_Gemeinde"},"district":{"key":"03351","name":"Celle","type":"Landkreis"},"federalState":{"key":"03","name":"Niedersachsen"}},{"name":"Tannenweg","postalCode":"29328","locality":"Faßberg","municipality":{"key":"03351010","name":"Faßberg","type":"Kreisangehörige_Gemeinde"},"district":{"key":"03351","name":"Celle","type":"Landkreis"},"federalState":{"key":"03","name":"Niedersachsen"}},{"name":"Timmerplatz","postalCode":"29328","locality":"Faßberg","municipality":{"key":"03351010","name":"Faßberg","type":"Kreisangehörige_Gemeinde"},"district":{"key":"03351","name":"Celle","type":"Landkreis"},"federalState":{"key":"03","name":"Niedersachsen"}},{"name":"Trauener Str.","postalCode":"29328","locality":"Faßberg","municipality":{"key":"03351010","name":"Faßberg","type":"Kreisangehörige_Gemeinde"},"district":{"key":"03351","name":"Celle","type":"Landkreis"},"federalState":{"key":"03","name":"Niedersachsen"}},{"name":"Uhlenflucht","postalCode":"29328","locality":"Faßberg","municipality":{"key":"03351010","name":"Faßberg","type":"Kreisangehörige_Gemeinde"},"district":{"key":"03351","name":"Celle","type":"Landkreis"},"federalState":{"key":"03","name":"Niedersachsen"}},{"name":"Unter den Linden","postalCode":"29328","locality":"Faßberg","municipality":{"key":"03351010","name":"Faßberg","type":"Kreisangehörige_Gemeinde"},"district":{"key":"03351","name":"Celle","type":"Landkreis"},"federalState":{"key":"03","name":"Niedersachsen"}},{"name":"Unterlüsser Str.","postalCode":"29328","locality":"Faßberg","municipality":{"key":"03351010","name":"Faßberg","type":"Kreisangehörige_Gemeinde"},"district":{"key":"03351","name":"Celle","type":"Landkreis"},"federalState":{"key":"03","name":"Niedersachsen"}},{"name":"Velligser Weg","postalCode":"29328","locality":"Faßberg","municipality":{"key":"03351010","name":"Faßberg","type":"Kreisangehörige_Gemeinde"},"district":{"key":"03351","name":"Celle","type":"Landkreis"},"federalState":{"key":"03","name":"Niedersachsen"}},{"name":"Vor dem Speer","postalCode":"29328","locality":"Faßberg","municipality":{"key":"03351010","name":"Faßberg","type":"Kreisangehörige_Gemeinde"},"district":{"key":"03351","name":"Celle","type":"Landkreis"},"federalState":{"key":"03","name":"Niedersachsen"}},{"name":"Vor dem Wietzenfelde","postalCode":"29328","locality":"Faßberg","municipality":{"key":"03351010","name":"Faßberg","type":"Kreisangehörige_Gemeinde"},"district":{"key":"03351","name":"Celle","type":"Landkreis"},"federalState":{"key":"03","name":"Niedersachsen"}},{"name":"Wacholderweg","postalCode":"29328","locality":"Faßberg","municipality":{"key":"03351010","name":"Faßberg","type":"Kreisangehörige_Gemeinde"},"district":{"key":"03351","name":"Celle","type":"Landkreis"},"federalState":{"key":"03","name":"Niedersachsen"}},{"name":"Waldenburger Weg","postalCode":"29328","locality":"Faßberg","municipality":{"key":"03351010","name":"Faßberg","type":"Kreisangehörige_Gemeinde"},"district":{"key":"03351","name":"Celle","type":"Landkreis"},"federalState":{"key":"03","name":"Niedersachsen"}},{"name":"Waldweg","postalCode":"29328","locality":"Faßberg","municipality":{"key":"03351010","name":"Faßberg","type":"Kreisangehörige_Gemeinde"},"district":{"key":"03351","name":"Celle","type":"Landkreis"},"federalState":{"key":"03","name":"Niedersachsen"}},{"name":"Wieselsteg","postalCode":"29328","locality":"Faßberg","municipality":{"key":"03351010","name":"Faßberg","type":"Kreisangehörige_Gemeinde"},"district":{"key":"03351","name":"Celle","type":"Landkreis"},"federalState":{"key":"03","name":"Niedersachsen"}},{"name":"Wiesenweg","postalCode":"29328","locality":"Faßberg","municipality":{"key":"03351010","name":"Faßberg","type":"Kreisangehörige_Gemeinde"},"district":{"key":"03351","name":"Celle","type":"Landkreis"},"federalState":{"key":"03","name":"Niedersachsen"}},{"name":"Wietzendorfer Weg","postalCode":"29328","locality":"Faßberg","municipality":{"key":"03351010","name":"Faßberg","type":"Kreisangehörige_Gemeinde"},"district":{"key":"03351","name":"Celle","type":"Landkreis"},"federalState":{"key":"03","name":"Niedersachsen"}},{"name":"Wietzer Feld","postalCode":"29328","locality":"Faßberg","municipality":{"key":"03351010","name":"Faßberg","type":"Kreisangehörige_Gemeinde"},"district":{"key":"03351","name":"Celle","type":"Landkreis"},"federalState":{"key":"03","name":"Niedersachsen"}},{"name":"Willinghausen","postalCode":"29328","locality":"Faßberg","municipality":{"key":"03351010","name":"Faßberg","type":"Kreisangehörige_Gemeinde"},"district":{"key":"03351","name":"Celle","type":"Landkreis"},"federalState":{"key":"03","name":"Niedersachsen"}},{"name":"Willinghäuser Damm","postalCode":"29328","locality":"Faßberg","municipality":{"key":"03351010","name":"Faßberg","type":"Kreisangehörige_Gemeinde"},"district":{"key":"03351","name":"Celle","type":"Landkreis"},"federalState":{"key":"03","name":"Niedersachsen"}},{"name":"Yerville-Park","postalCode":"29328","locality":"Faßberg","municipality":{"key":"03351010","name":"Faßberg","type":"Kreisangehörige_Gemeinde"},"district":{"key":"03351","name":"Celle","type":"Landkreis"},"federalState":{"key":"03","name":"Niedersachsen"}},{"name":"Zeisigweg","postalCode":"29229","locality":"Celle","municipality":{"key":"03351006","name":"Celle, Stadt","type":"Stadt"},"district":{"key":"03351","name":"Celle","type":"Landkreis"},"federalState":{"key":"03","name":"Niedersachsen"}},{"name":"Ziegelkamp","postalCode":"29229","locality":"Celle","municipality":{"key":"03351006","name":"Celle, Stadt","type":"Stadt"},"district":{"key":"03351","name":"Celle","type":"Landkreis"},"federalState":{"key":"03","name":"Niedersachsen"}},{"name":"Zimmereistr.","postalCode":"29227","locality":"Celle","municipality":{"key":"03351006","name":"Celle, Stadt","type":"Stadt"},"district":{"key":"03351","name":"Celle","type":"Landkreis"},"federalState":{"key":"03","name":"Niedersachsen"}},{"name":"Zu den Fuhren","postalCode":"29227","locality":"Celle","municipality":{"key":"03351006","name":"Celle, Stadt","type":"Stadt"},"district":{"key":"03351","name":"Celle","type":"Landkreis"},"federalState":{"key":"03","name":"Niedersachsen"}},{"name":"Zugbrückenstr.","postalCode":"29223","locality":"Celle","municipality":{"key":"03351006","name":"Celle, Stadt","type":"Stadt"},"district":{"key":"03351","name":"Celle","type":"Landkreis"},"federalState":{"key":"03","name":"Niedersachsen"}},{"name":"Zum Alten Bad","postalCode":"29227","locality":"Celle","municipality":{"key":"03351006","name":"Celle, Stadt","type":"Stadt"},"district":{"key":"03351","name":"Celle","type":"Landkreis"},"federalState":{"key":"03","name":"Niedersachsen"}},{"name":"Zum Alten Kanal","postalCode":"29225","locality":"Celle","municipality":{"key":"03351006","name":"Celle, Stadt","type":"Stadt"},"district":{"key":"03351","name":"Celle","type":"Landkreis"},"federalState":{"key":"03","name":"Niedersachsen"}},{"name":"Zum Burgwall","postalCode":"29227","locality":"Celle","municipality":{"key":"03351006","name":"Celle, Stadt","type":"Stadt"},"district":{"key":"03351","name":"Celle","type":"Landkreis"},"federalState":{"key":"03","name":"Niedersachsen"}},{"name":"Zum Hartsteinwerk","postalCode":"29229","locality":"Celle","municipality":{"key":"03351006","name":"Celle, Stadt","type":"Stadt"},"district":{"key":"03351","name":"Celle","type":"Landkreis"},"federalState":{"key":"03","name":"Niedersachsen"}},{"name":"Zum Heuweg","postalCode":"29225","locality":"Celle","municipality":{"key":"03351006","name":"Celle, Stadt","type":"Stadt"},"district":{"key":"03351","name":"Celle","type":"Landkreis"},"federalState":{"key":"03","name":"Niedersachsen"}},{"name":"Zum Kiebitzsee","postalCode":"29225","locality":"Celle","municipality":{"key":"03351006","name":"Celle, Stadt","type":"Stadt"},"district":{"key":"03351","name":"Celle","type":"Landkreis"},"federalState":{"key":"03","name":"Niedersachsen"}},{"name":"Zum Schleusenkolk","postalCode":"29223","locality":"Celle","municipality":{"key":"03351006","name":"Celle, Stadt","type":"Stadt"},"district":{"key":"03351","name":"Celle","type":"Landkreis"},"federalState":{"key":"03","name":"Niedersachsen"}},{"name":"Zum Silbersee","postalCode":"29229","locality":"Celle","municipality":{"key":"03351006","name":"Celle, Stadt","type":"Stadt"},"district":{"key":"03351","name":"Celle","type":"Landkreis"},"federalState":{"key":"03","name":"Niedersachsen"}},{"name":"Zum Sportheim","postalCode":"29227","locality":"Celle","municipality":{"key":"03351006","name":"Celle, Stadt","type":"Stadt"},"district":{"key":"03351","name":"Celle","type":"Landkreis"},"federalState":{"key":"03","name":"Niedersachsen"}},{"name":"Zum Thingplatz","postalCode":"29229","locality":"Celle","municipality":{"key":"03351006","name":"Celle, Stadt","type":"Stadt"},"district":{"key":"03351","name":"Celle","type":"Landkreis"},"federalState":{"key":"03","name":"Niedersachsen"}},{"name":"Zum Weißen Moor","postalCode":"29225","locality":"Celle","municipality":{"key":"03351006","name":"Celle, Stadt","type":"Stadt"},"district":{"key":"03351","name":"Celle","type":"Landkreis"},"federalState":{"key":"03","name":"Niedersachsen"}},{"name":"Zur Alten Heerstr.","postalCode":"29227","locality":"Celle","municipality":{"key":"03351006","name":"Celle, Stadt","type":"Stadt"},"district":{"key":"03351","name":"Celle","type":"Landkreis"},"federalState":{"key":"03","name":"Niedersachsen"}},{"name":"Zur Alten Schmiede","postalCode":"29229","locality":"Celle","municipality":{"key":"03351006","name":"Celle, Stadt","type":"Stadt"},"district":{"key":"03351","name":"Celle","type":"Landkreis"},"federalState":{"key":"03","name":"Niedersachsen"}},{"name":"Zur Bünte","postalCode":"29227","locality":"Celle","municipality":{"key":"03351006","name":"Celle, Stadt","type":"Stadt"},"district":{"key":"03351","name":"Celle","type":"Landkreis"},"federalState":{"key":"03","name":"Niedersachsen"}},{"name":"Zur Fuchsfarm","postalCode":"29227","locality":"Celle","municipality":{"key":"03351006","name":"Celle, Stadt","type":"Stadt"},"district":{"key":"03351","name":"Celle","type":"Landkreis"},"federalState":{"key":"03","name":"Niedersachsen"}},{"name":"Zur Hasselklink","postalCode":"29229","locality":"Celle","municipality":{"key":"03351006","name":"Celle, Stadt","type":"Stadt"},"district":{"key":"03351","name":"Celle","type":"Landkreis"},"federalState":{"key":"03","name":"Niedersachsen"}},{"name":"Zur Jägerei","postalCode":"29229","locality":"Celle","municipality":{"key":"03351006","name":"Celle, Stadt","type":"Stadt"},"district":{"key":"03351","name":"Celle","type":"Landkreis"},"federalState":{"key":"03","name":"Niedersachsen"}},{"name":"Örtzenberg","postalCode":"29328","locality":"Faßberg","municipality":{"key":"03351010","name":"Faßberg","type":"Kreisangehörige_Gemeinde"},"district":{"key":"03351","name":"Celle","type":"Landkreis"},"federalState":{"key":"03","name":"Niedersachsen"}},]