[{"key":"10247087","name":"Alpweg","postalCode":"3929","locality":"Täsch","commune":{"key":"6295","name":"Täsch","shortName":"Täsch"},"district":{"key":"2313","name":"Bezirk Visp"},"canton":{"key":"23","code":"VS","name":"Valais / Wallis"},"status":"Real"},{"key":"10247089","name":"Arvenweg","postalCode":"3929","locality":"Täsch","commune":{"key":"6295","name":"Täsch","shortName":"Täsch"},"district":{"key":"2313","name":"Bezirk Visp"},"canton":{"key":"23","code":"VS","name":"Valais / Wallis"},"status":"Real"},{"key":"10247093","name":"Bahnhofplatz","postalCode":"3929","locality":"Täsch","commune":{"key":"6295","name":"Täsch","shortName":"Täsch"},"district":{"key":"2313","name":"Bezirk Visp"},"canton":{"key":"23","code":"VS","name":"Valais / Wallis"},"status":"Real"},{"key":"10247097","name":"Bahnhofstrasse","postalCode":"3929","locality":"Täsch","commune":{"key":"6295","name":"Täsch","shortName":"Täsch"},"district":{"key":"2313","name":"Bezirk Visp"},"canton":{"key":"23","code":"VS","name":"Valais / Wallis"},"status":"Real"},{"key":"10247101","name":"Bielmattweg","postalCode":"3929","locality":"Täsch","commune":{"key":"6295","name":"Täsch","shortName":"Täsch"},"district":{"key":"2313","name":"Bezirk Visp"},"canton":{"key":"23","code":"VS","name":"Valais / Wallis"},"status":"Real"},{"key":"10247105","name":"Bingasse","postalCode":"3929","locality":"Täsch","commune":{"key":"6295","name":"Täsch","shortName":"Täsch"},"district":{"key":"2313","name":"Bezirk Visp"},"canton":{"key":"23","code":"VS","name":"Valais / Wallis"},"status":"Real"},{"key":"10247086","name":"Blasiweg","postalCode":"3929","locality":"Täsch","commune":{"key":"6295","name":"Täsch","shortName":"Täsch"},"district":{"key":"2313","name":"Bezirk Visp"},"canton":{"key":"23","code":"VS","name":"Valais / Wallis"},"status":"Real"},{"key":"10247109","name":"Dorfstrasse","postalCode":"3929","locality":"Täsch","commune":{"key":"6295","name":"Täsch","shortName":"Täsch"},"district":{"key":"2313","name":"Bezirk Visp"},"canton":{"key":"23","code":"VS","name":"Valais / Wallis"},"status":"Real"},{"key":"10247113","name":"Forststrasse","postalCode":"3929","locality":"Täsch","commune":{"key":"6295","name":"Täsch","shortName":"Täsch"},"district":{"key":"2313","name":"Bezirk Visp"},"canton":{"key":"23","code":"VS","name":"Valais / Wallis"},"status":"Real"},{"key":"10247088","name":"Galeriestrasse","postalCode":"3929","locality":"Täsch","commune":{"key":"6295","name":"Täsch","shortName":"Täsch"},"district":{"key":"2313","name":"Bezirk Visp"},"canton":{"key":"23","code":"VS","name":"Valais / Wallis"},"status":"Real"},{"key":"10247092","name":"Herweg","postalCode":"3929","locality":"Täsch","commune":{"key":"6295","name":"Täsch","shortName":"Täsch"},"district":{"key":"2313","name":"Bezirk Visp"},"canton":{"key":"23","code":"VS","name":"Valais / Wallis"},"status":"Real"},{"key":"10247095","name":"Hofstrasse","postalCode":"3929","locality":"Täsch","commune":{"key":"6295","name":"Täsch","shortName":"Täsch"},"district":{"key":"2313","name":"Bezirk Visp"},"canton":{"key":"23","code":"VS","name":"Valais / Wallis"},"status":"Real"},{"key":"10247099","name":"Junkerweg","postalCode":"3929","locality":"Täsch","commune":{"key":"6295","name":"Täsch","shortName":"Täsch"},"district":{"key":"2313","name":"Bezirk Visp"},"canton":{"key":"23","code":"VS","name":"Valais / Wallis"},"status":"Real"},{"key":"10046589","name":"Kantonsstrasse","postalCode":"3929","locality":"Täsch","commune":{"key":"6295","name":"Täsch","shortName":"Täsch"},"district":{"key":"2313","name":"Bezirk Visp"},"canton":{"key":"23","code":"VS","name":"Valais / Wallis"},"status":"Real"},{"key":"10247085","name":"Kapellenweg","postalCode":"3929","locality":"Täsch","commune":{"key":"6295","name":"Täsch","shortName":"Täsch"},"district":{"key":"2313","name":"Bezirk Visp"},"canton":{"key":"23","code":"VS","name":"Valais / Wallis"},"status":"Real"},{"key":"10247091","name":"Kirchplatz","postalCode":"3929","locality":"Täsch","commune":{"key":"6295","name":"Täsch","shortName":"Täsch"},"district":{"key":"2313","name":"Bezirk Visp"},"canton":{"key":"23","code":"VS","name":"Valais / Wallis"},"status":"Real"},{"key":"10247103","name":"Kummenweg","postalCode":"3929","locality":"Täsch","commune":{"key":"6295","name":"Täsch","shortName":"Täsch"},"district":{"key":"2313","name":"Bezirk Visp"},"canton":{"key":"23","code":"VS","name":"Valais / Wallis"},"status":"Real"},{"key":"10247096","name":"Lammerwangweg","postalCode":"3929","locality":"Täsch","commune":{"key":"6295","name":"Täsch","shortName":"Täsch"},"district":{"key":"2313","name":"Bezirk Visp"},"canton":{"key":"23","code":"VS","name":"Valais / Wallis"},"status":"Real"},{"key":"10247107","name":"Martinsweg","postalCode":"3929","locality":"Täsch","commune":{"key":"6295","name":"Täsch","shortName":"Täsch"},"district":{"key":"2313","name":"Bezirk Visp"},"canton":{"key":"23","code":"VS","name":"Valais / Wallis"},"status":"Real"},{"key":"10247111","name":"Mattenweg","postalCode":"3929","locality":"Täsch","commune":{"key":"6295","name":"Täsch","shortName":"Täsch"},"district":{"key":"2313","name":"Bezirk Visp"},"canton":{"key":"23","code":"VS","name":"Valais / Wallis"},"status":"Real"},{"key":"10258493","name":"Militärweg","postalCode":"3929","locality":"Täsch","commune":{"key":"6295","name":"Täsch","shortName":"Täsch"},"district":{"key":"2313","name":"Bezirk Visp"},"canton":{"key":"23","code":"VS","name":"Valais / Wallis"},"status":"Real"},{"key":"10247115","name":"Oberdorfstrasse","postalCode":"3929","locality":"Täsch","commune":{"key":"6295","name":"Täsch","shortName":"Täsch"},"district":{"key":"2313","name":"Bezirk Visp"},"canton":{"key":"23","code":"VS","name":"Valais / Wallis"},"status":"Real"},{"key":"10247100","name":"Panoramaweg","postalCode":"3929","locality":"Täsch","commune":{"key":"6295","name":"Täsch","shortName":"Täsch"},"district":{"key":"2313","name":"Bezirk Visp"},"canton":{"key":"23","code":"VS","name":"Valais / Wallis"},"status":"Real"},{"key":"10247104","name":"Quellenweg","postalCode":"3929","locality":"Täsch","commune":{"key":"6295","name":"Täsch","shortName":"Täsch"},"district":{"key":"2313","name":"Bezirk Visp"},"canton":{"key":"23","code":"VS","name":"Valais / Wallis"},"status":"Real"},{"key":"10247108","name":"Ranftweg","postalCode":"3929","locality":"Täsch","commune":{"key":"6295","name":"Täsch","shortName":"Täsch"},"district":{"key":"2313","name":"Bezirk Visp"},"canton":{"key":"23","code":"VS","name":"Valais / Wallis"},"status":"Real"},{"key":"10247090","name":"Rosenweg","postalCode":"3929","locality":"Täsch","commune":{"key":"6295","name":"Täsch","shortName":"Täsch"},"district":{"key":"2313","name":"Bezirk Visp"},"canton":{"key":"23","code":"VS","name":"Valais / Wallis"},"status":"Real"},{"key":"10247112","name":"Rundweg","postalCode":"3929","locality":"Täsch","commune":{"key":"6295","name":"Täsch","shortName":"Täsch"},"district":{"key":"2313","name":"Bezirk Visp"},"canton":{"key":"23","code":"VS","name":"Valais / Wallis"},"status":"Real"},{"key":"10247116","name":"Schalistrasse","postalCode":"3929","locality":"Täsch","commune":{"key":"6295","name":"Täsch","shortName":"Täsch"},"district":{"key":"2313","name":"Bezirk Visp"},"canton":{"key":"23","code":"VS","name":"Valais / Wallis"},"status":"Real"},{"key":"10247094","name":"Schulweg","postalCode":"3929","locality":"Täsch","commune":{"key":"6295","name":"Täsch","shortName":"Täsch"},"district":{"key":"2313","name":"Bezirk Visp"},"canton":{"key":"23","code":"VS","name":"Valais / Wallis"},"status":"Real"},{"key":"10247098","name":"Sonnenweg","postalCode":"3929","locality":"Täsch","commune":{"key":"6295","name":"Täsch","shortName":"Täsch"},"district":{"key":"2313","name":"Bezirk Visp"},"canton":{"key":"23","code":"VS","name":"Valais / Wallis"},"status":"Real"},{"key":"10247102","name":"Stadelweg","postalCode":"3929","locality":"Täsch","commune":{"key":"6295","name":"Täsch","shortName":"Täsch"},"district":{"key":"2313","name":"Bezirk Visp"},"canton":{"key":"23","code":"VS","name":"Valais / Wallis"},"status":"Real"},{"key":"10247117","name":"Stafelweg","postalCode":"3929","locality":"Täsch","commune":{"key":"6295","name":"Täsch","shortName":"Täsch"},"district":{"key":"2313","name":"Bezirk Visp"},"canton":{"key":"23","code":"VS","name":"Valais / Wallis"},"status":"Real"},{"key":"10247106","name":"Täschalpstrasse","postalCode":"3929","locality":"Täsch","commune":{"key":"6295","name":"Täsch","shortName":"Täsch"},"district":{"key":"2313","name":"Bezirk Visp"},"canton":{"key":"23","code":"VS","name":"Valais / Wallis"},"status":"Real"},{"key":"10247084","name":"Uferweg","postalCode":"3929","locality":"Täsch","commune":{"key":"6295","name":"Täsch","shortName":"Täsch"},"district":{"key":"2313","name":"Bezirk Visp"},"canton":{"key":"23","code":"VS","name":"Valais / Wallis"},"status":"Real"},{"key":"10247110","name":"Weriweg","postalCode":"3929","locality":"Täsch","commune":{"key":"6295","name":"Täsch","shortName":"Täsch"},"district":{"key":"2313","name":"Bezirk Visp"},"canton":{"key":"23","code":"VS","name":"Valais / Wallis"},"status":"Real"},{"key":"10247114","name":"Zermatterstrasse","postalCode":"3929","locality":"Täsch","commune":{"key":"6295","name":"Täsch","shortName":"Täsch"},"district":{"key":"2313","name":"Bezirk Visp"},"canton":{"key":"23","code":"VS","name":"Valais / Wallis"},"status":"Real"},]