[{"name":"Adalbert-Stifter-Str.","postalCode":"84076","locality":"Pfeffenhausen","municipality":{"key":"09274172","name":"Pfeffenhausen, M","type":"Markt"},"district":{"key":"09274","name":"Landshut","type":"Landkreis"},"federalState":{"key":"09","name":"Bayern"}},{"name":"Aggstaller Berg","postalCode":"84076","locality":"Pfeffenhausen","municipality":{"key":"09274172","name":"Pfeffenhausen, M","type":"Markt"},"district":{"key":"09274","name":"Landshut","type":"Landkreis"},"federalState":{"key":"09","name":"Bayern"}},{"name":"Am Birkenholz","postalCode":"84076","locality":"Pfeffenhausen","municipality":{"key":"09274172","name":"Pfeffenhausen, M","type":"Markt"},"district":{"key":"09274","name":"Landshut","type":"Landkreis"},"federalState":{"key":"09","name":"Bayern"}},{"name":"Am Engelsberg","postalCode":"84076","locality":"Pfeffenhausen","municipality":{"key":"09274172","name":"Pfeffenhausen, M","type":"Markt"},"district":{"key":"09274","name":"Landshut","type":"Landkreis"},"federalState":{"key":"09","name":"Bayern"}},{"name":"Am Lauterbach","postalCode":"84076","locality":"Pfeffenhausen","municipality":{"key":"09274172","name":"Pfeffenhausen, M","type":"Markt"},"district":{"key":"09274","name":"Landshut","type":"Landkreis"},"federalState":{"key":"09","name":"Bayern"}},{"name":"Am Sportplatz","postalCode":"84076","locality":"Pfeffenhausen","municipality":{"key":"09274172","name":"Pfeffenhausen, M","type":"Markt"},"district":{"key":"09274","name":"Landshut","type":"Landkreis"},"federalState":{"key":"09","name":"Bayern"}},{"name":"Am Südhang","postalCode":"84076","locality":"Pfeffenhausen","municipality":{"key":"09274172","name":"Pfeffenhausen, M","type":"Markt"},"district":{"key":"09274","name":"Landshut","type":"Landkreis"},"federalState":{"key":"09","name":"Bayern"}},{"name":"Am Weinberg","postalCode":"84076","locality":"Pfeffenhausen","municipality":{"key":"09274172","name":"Pfeffenhausen, M","type":"Markt"},"district":{"key":"09274","name":"Landshut","type":"Landkreis"},"federalState":{"key":"09","name":"Bayern"}},{"name":"An der Wiesenkapelle","postalCode":"84076","locality":"Pfeffenhausen","municipality":{"key":"09274172","name":"Pfeffenhausen, M","type":"Markt"},"district":{"key":"09274","name":"Landshut","type":"Landkreis"},"federalState":{"key":"09","name":"Bayern"}},{"name":"Arcostr.","postalCode":"84076","locality":"Pfeffenhausen","municipality":{"key":"09274172","name":"Pfeffenhausen, M","type":"Markt"},"district":{"key":"09274","name":"Landshut","type":"Landkreis"},"federalState":{"key":"09","name":"Bayern"}},{"name":"Asamstr.","postalCode":"84076","locality":"Pfeffenhausen","municipality":{"key":"09274172","name":"Pfeffenhausen, M","type":"Markt"},"district":{"key":"09274","name":"Landshut","type":"Landkreis"},"federalState":{"key":"09","name":"Bayern"}},{"name":"Bachstr.","postalCode":"84076","locality":"Pfeffenhausen","municipality":{"key":"09274172","name":"Pfeffenhausen, M","type":"Markt"},"district":{"key":"09274","name":"Landshut","type":"Landkreis"},"federalState":{"key":"09","name":"Bayern"}},{"name":"Baldershausen","postalCode":"84076","locality":"Pfeffenhausen","municipality":{"key":"09274172","name":"Pfeffenhausen, M","type":"Markt"},"district":{"key":"09274","name":"Landshut","type":"Landkreis"},"federalState":{"key":"09","name":"Bayern"}},{"name":"Bannzaunstr.","postalCode":"84076","locality":"Pfeffenhausen","municipality":{"key":"09274172","name":"Pfeffenhausen, M","type":"Markt"},"district":{"key":"09274","name":"Landshut","type":"Landkreis"},"federalState":{"key":"09","name":"Bayern"}},{"name":"Berchtholdstr.","postalCode":"84076","locality":"Pfeffenhausen","municipality":{"key":"09274172","name":"Pfeffenhausen, M","type":"Markt"},"district":{"key":"09274","name":"Landshut","type":"Landkreis"},"federalState":{"key":"09","name":"Bayern"}},{"name":"Bergstr.","postalCode":"84076","locality":"Pfeffenhausen","municipality":{"key":"09274172","name":"Pfeffenhausen, M","type":"Markt"},"district":{"key":"09274","name":"Landshut","type":"Landkreis"},"federalState":{"key":"09","name":"Bayern"}},{"name":"Bischof-Konrad-Str.","postalCode":"84076","locality":"Pfeffenhausen","municipality":{"key":"09274172","name":"Pfeffenhausen, M","type":"Markt"},"district":{"key":"09274","name":"Landshut","type":"Landkreis"},"federalState":{"key":"09","name":"Bayern"}},{"name":"Blumenstr.","postalCode":"84076","locality":"Pfeffenhausen","municipality":{"key":"09274172","name":"Pfeffenhausen, M","type":"Markt"},"district":{"key":"09274","name":"Landshut","type":"Landkreis"},"federalState":{"key":"09","name":"Bayern"}},{"name":"Breslauer Str.","postalCode":"84076","locality":"Pfeffenhausen","municipality":{"key":"09274172","name":"Pfeffenhausen, M","type":"Markt"},"district":{"key":"09274","name":"Landshut","type":"Landkreis"},"federalState":{"key":"09","name":"Bayern"}},{"name":"Brunnenstr.","postalCode":"84076","locality":"Pfeffenhausen","municipality":{"key":"09274172","name":"Pfeffenhausen, M","type":"Markt"},"district":{"key":"09274","name":"Landshut","type":"Landkreis"},"federalState":{"key":"09","name":"Bayern"}},{"name":"Carl-Orff-Str.","postalCode":"84076","locality":"Pfeffenhausen","municipality":{"key":"09274172","name":"Pfeffenhausen, M","type":"Markt"},"district":{"key":"09274","name":"Landshut","type":"Landkreis"},"federalState":{"key":"09","name":"Bayern"}},{"name":"Dammweg","postalCode":"84076","locality":"Pfeffenhausen","municipality":{"key":"09274172","name":"Pfeffenhausen, M","type":"Markt"},"district":{"key":"09274","name":"Landshut","type":"Landkreis"},"federalState":{"key":"09","name":"Bayern"}},{"name":"Danziger Str.","postalCode":"84076","locality":"Pfeffenhausen","municipality":{"key":"09274172","name":"Pfeffenhausen, M","type":"Markt"},"district":{"key":"09274","name":"Landshut","type":"Landkreis"},"federalState":{"key":"09","name":"Bayern"}},{"name":"Dobelweg","postalCode":"84076","locality":"Pfeffenhausen","municipality":{"key":"09274172","name":"Pfeffenhausen, M","type":"Markt"},"district":{"key":"09274","name":"Landshut","type":"Landkreis"},"federalState":{"key":"09","name":"Bayern"}},{"name":"Dürnwind","postalCode":"84076","locality":"Pfeffenhausen","municipality":{"key":"09274172","name":"Pfeffenhausen, M","type":"Markt"},"district":{"key":"09274","name":"Landshut","type":"Landkreis"},"federalState":{"key":"09","name":"Bayern"}},{"name":"Ebenhausen","postalCode":"84076","locality":"Pfeffenhausen","municipality":{"key":"09274172","name":"Pfeffenhausen, M","type":"Markt"},"district":{"key":"09274","name":"Landshut","type":"Landkreis"},"federalState":{"key":"09","name":"Bayern"}},{"name":"Ebersberger Str.","postalCode":"84076","locality":"Pfeffenhausen","municipality":{"key":"09274172","name":"Pfeffenhausen, M","type":"Markt"},"district":{"key":"09274","name":"Landshut","type":"Landkreis"},"federalState":{"key":"09","name":"Bayern"}},{"name":"Eggersdorf","postalCode":"84076","locality":"Pfeffenhausen","municipality":{"key":"09274172","name":"Pfeffenhausen, M","type":"Markt"},"district":{"key":"09274","name":"Landshut","type":"Landkreis"},"federalState":{"key":"09","name":"Bayern"}},{"name":"Eggersdorfer Str.","postalCode":"84076","locality":"Pfeffenhausen","municipality":{"key":"09274172","name":"Pfeffenhausen, M","type":"Markt"},"district":{"key":"09274","name":"Landshut","type":"Landkreis"},"federalState":{"key":"09","name":"Bayern"}},{"name":"Egglhausen","postalCode":"84076","locality":"Pfeffenhausen","municipality":{"key":"09274172","name":"Pfeffenhausen, M","type":"Markt"},"district":{"key":"09274","name":"Landshut","type":"Landkreis"},"federalState":{"key":"09","name":"Bayern"}},{"name":"Egglhauser Str.","postalCode":"84076","locality":"Pfeffenhausen","municipality":{"key":"09274172","name":"Pfeffenhausen, M","type":"Markt"},"district":{"key":"09274","name":"Landshut","type":"Landkreis"},"federalState":{"key":"09","name":"Bayern"}},{"name":"Eisenlohstr.","postalCode":"84076","locality":"Pfeffenhausen","municipality":{"key":"09274172","name":"Pfeffenhausen, M","type":"Markt"},"district":{"key":"09274","name":"Landshut","type":"Landkreis"},"federalState":{"key":"09","name":"Bayern"}},{"name":"Elsbethenring","postalCode":"84076","locality":"Pfeffenhausen","municipality":{"key":"09274172","name":"Pfeffenhausen, M","type":"Markt"},"district":{"key":"09274","name":"Landshut","type":"Landkreis"},"federalState":{"key":"09","name":"Bayern"}},{"name":"Engilperoweg","postalCode":"84076","locality":"Pfeffenhausen","municipality":{"key":"09274172","name":"Pfeffenhausen, M","type":"Markt"},"district":{"key":"09274","name":"Landshut","type":"Landkreis"},"federalState":{"key":"09","name":"Bayern"}},{"name":"Englmühler Str.","postalCode":"84076","locality":"Pfeffenhausen","municipality":{"key":"09274172","name":"Pfeffenhausen, M","type":"Markt"},"district":{"key":"09274","name":"Landshut","type":"Landkreis"},"federalState":{"key":"09","name":"Bayern"}},{"name":"Erhardiweg","postalCode":"84076","locality":"Pfeffenhausen","municipality":{"key":"09274172","name":"Pfeffenhausen, M","type":"Markt"},"district":{"key":"09274","name":"Landshut","type":"Landkreis"},"federalState":{"key":"09","name":"Bayern"}},{"name":"Erich-Stieglmeier-Str.","postalCode":"84076","locality":"Pfeffenhausen","municipality":{"key":"09274172","name":"Pfeffenhausen, M","type":"Markt"},"district":{"key":"09274","name":"Landshut","type":"Landkreis"},"federalState":{"key":"09","name":"Bayern"}},{"name":"Flurstr.","postalCode":"84076","locality":"Pfeffenhausen","municipality":{"key":"09274172","name":"Pfeffenhausen, M","type":"Markt"},"district":{"key":"09274","name":"Landshut","type":"Landkreis"},"federalState":{"key":"09","name":"Bayern"}},{"name":"Gabelsbergerstr.","postalCode":"84076","locality":"Pfeffenhausen","municipality":{"key":"09274172","name":"Pfeffenhausen, M","type":"Markt"},"district":{"key":"09274","name":"Landshut","type":"Landkreis"},"federalState":{"key":"09","name":"Bayern"}},{"name":"Gaisberg","postalCode":"84076","locality":"Pfeffenhausen","municipality":{"key":"09274172","name":"Pfeffenhausen, M","type":"Markt"},"district":{"key":"09274","name":"Landshut","type":"Landkreis"},"federalState":{"key":"09","name":"Bayern"}},{"name":"Galgenacker","postalCode":"84076","locality":"Pfeffenhausen","municipality":{"key":"09274172","name":"Pfeffenhausen, M","type":"Markt"},"district":{"key":"09274","name":"Landshut","type":"Landkreis"},"federalState":{"key":"09","name":"Bayern"}},{"name":"Gartenstr.","postalCode":"84076","locality":"Pfeffenhausen","municipality":{"key":"09274172","name":"Pfeffenhausen, M","type":"Markt"},"district":{"key":"09274","name":"Landshut","type":"Landkreis"},"federalState":{"key":"09","name":"Bayern"}},{"name":"Gartenweg","postalCode":"84076","locality":"Pfeffenhausen","municipality":{"key":"09274172","name":"Pfeffenhausen, M","type":"Markt"},"district":{"key":"09274","name":"Landshut","type":"Landkreis"},"federalState":{"key":"09","name":"Bayern"}},{"name":"Geiseckstr.","postalCode":"84076","locality":"Pfeffenhausen","municipality":{"key":"09274172","name":"Pfeffenhausen, M","type":"Markt"},"district":{"key":"09274","name":"Landshut","type":"Landkreis"},"federalState":{"key":"09","name":"Bayern"}},{"name":"Gerhart-Hauptmann-Str.","postalCode":"84076","locality":"Pfeffenhausen","municipality":{"key":"09274172","name":"Pfeffenhausen, M","type":"Markt"},"district":{"key":"09274","name":"Landshut","type":"Landkreis"},"federalState":{"key":"09","name":"Bayern"}},{"name":"Graf-Albero-Str.","postalCode":"84076","locality":"Pfeffenhausen","municipality":{"key":"09274172","name":"Pfeffenhausen, M","type":"Markt"},"district":{"key":"09274","name":"Landshut","type":"Landkreis"},"federalState":{"key":"09","name":"Bayern"}},{"name":"Greppenweg","postalCode":"84076","locality":"Pfeffenhausen","municipality":{"key":"09274172","name":"Pfeffenhausen, M","type":"Markt"},"district":{"key":"09274","name":"Landshut","type":"Landkreis"},"federalState":{"key":"09","name":"Bayern"}},{"name":"Hambergerstr.","postalCode":"84076","locality":"Pfeffenhausen","municipality":{"key":"09274172","name":"Pfeffenhausen, M","type":"Markt"},"district":{"key":"09274","name":"Landshut","type":"Landkreis"},"federalState":{"key":"09","name":"Bayern"}},{"name":"Hans-Widtmann-Str.","postalCode":"84076","locality":"Pfeffenhausen","municipality":{"key":"09274172","name":"Pfeffenhausen, M","type":"Markt"},"district":{"key":"09274","name":"Landshut","type":"Landkreis"},"federalState":{"key":"09","name":"Bayern"}},{"name":"Hauptstatt","postalCode":"84076","locality":"Pfeffenhausen","municipality":{"key":"09274172","name":"Pfeffenhausen, M","type":"Markt"},"district":{"key":"09274","name":"Landshut","type":"Landkreis"},"federalState":{"key":"09","name":"Bayern"}},{"name":"Hauptstr.","postalCode":"84076","locality":"Pfeffenhausen","municipality":{"key":"09274172","name":"Pfeffenhausen, M","type":"Markt"},"district":{"key":"09274","name":"Landshut","type":"Landkreis"},"federalState":{"key":"09","name":"Bayern"}},{"name":"Herrngasse","postalCode":"84076","locality":"Pfeffenhausen","municipality":{"key":"09274172","name":"Pfeffenhausen, M","type":"Markt"},"district":{"key":"09274","name":"Landshut","type":"Landkreis"},"federalState":{"key":"09","name":"Bayern"}},{"name":"Herzog-Heinrich-Str.","postalCode":"84076","locality":"Pfeffenhausen","municipality":{"key":"09274172","name":"Pfeffenhausen, M","type":"Markt"},"district":{"key":"09274","name":"Landshut","type":"Landkreis"},"federalState":{"key":"09","name":"Bayern"}},{"name":"Hirtberg","postalCode":"84076","locality":"Pfeffenhausen","municipality":{"key":"09274172","name":"Pfeffenhausen, M","type":"Markt"},"district":{"key":"09274","name":"Landshut","type":"Landkreis"},"federalState":{"key":"09","name":"Bayern"}},{"name":"Hochgartenstr.","postalCode":"84076","locality":"Pfeffenhausen","municipality":{"key":"09274172","name":"Pfeffenhausen, M","type":"Markt"},"district":{"key":"09274","name":"Landshut","type":"Landkreis"},"federalState":{"key":"09","name":"Bayern"}},{"name":"Hochweg","postalCode":"84076","locality":"Pfeffenhausen","municipality":{"key":"09274172","name":"Pfeffenhausen, M","type":"Markt"},"district":{"key":"09274","name":"Landshut","type":"Landkreis"},"federalState":{"key":"09","name":"Bayern"}},{"name":"Hofmarkstr.","postalCode":"84076","locality":"Pfeffenhausen","municipality":{"key":"09274172","name":"Pfeffenhausen, M","type":"Markt"},"district":{"key":"09274","name":"Landshut","type":"Landkreis"},"federalState":{"key":"09","name":"Bayern"}},{"name":"Hohenesterstr.","postalCode":"84076","locality":"Pfeffenhausen","municipality":{"key":"09274172","name":"Pfeffenhausen, M","type":"Markt"},"district":{"key":"09274","name":"Landshut","type":"Landkreis"},"federalState":{"key":"09","name":"Bayern"}},{"name":"Holzen","postalCode":"84076","locality":"Pfeffenhausen","municipality":{"key":"09274172","name":"Pfeffenhausen, M","type":"Markt"},"district":{"key":"09274","name":"Landshut","type":"Landkreis"},"federalState":{"key":"09","name":"Bayern"}},{"name":"Hopfenstr.","postalCode":"84076","locality":"Pfeffenhausen","municipality":{"key":"09274172","name":"Pfeffenhausen, M","type":"Markt"},"district":{"key":"09274","name":"Landshut","type":"Landkreis"},"federalState":{"key":"09","name":"Bayern"}},{"name":"Ida-Hilgärtner-Weg","postalCode":"84034","locality":"Landshut","municipality":{"key":"09261000","name":"Landshut","type":"Kreisfreie_Stadt"},"district":{"key":"09261","name":"Landshut","type":"Kreisfreie_Stadt"},"federalState":{"key":"09","name":"Bayern"}},{"name":"Iglauer Weg","postalCode":"84028","locality":"Landshut","municipality":{"key":"09261000","name":"Landshut","type":"Kreisfreie_Stadt"},"district":{"key":"09261","name":"Landshut","type":"Kreisfreie_Stadt"},"federalState":{"key":"09","name":"Bayern"}},{"name":"Illerweg","postalCode":"84036","locality":"Landshut","municipality":{"key":"09261000","name":"Landshut","type":"Kreisfreie_Stadt"},"district":{"key":"09261","name":"Landshut","type":"Kreisfreie_Stadt"},"federalState":{"key":"09","name":"Bayern"}},{"name":"Illoher Weg","postalCode":"84036","locality":"Landshut","municipality":{"key":"09261000","name":"Landshut","type":"Kreisfreie_Stadt"},"district":{"key":"09261","name":"Landshut","type":"Kreisfreie_Stadt"},"federalState":{"key":"09","name":"Bayern"}},{"name":"Ilzstr.","postalCode":"84036","locality":"Landshut","municipality":{"key":"09261000","name":"Landshut","type":"Kreisfreie_Stadt"},"district":{"key":"09261","name":"Landshut","type":"Kreisfreie_Stadt"},"federalState":{"key":"09","name":"Bayern"}},{"name":"Im Moos","postalCode":"84034","locality":"Landshut","municipality":{"key":"09261000","name":"Landshut","type":"Kreisfreie_Stadt"},"district":{"key":"09261","name":"Landshut","type":"Kreisfreie_Stadt"},"federalState":{"key":"09","name":"Bayern"}},{"name":"Ina-Seidel-Str.","postalCode":"84032","locality":"Landshut","municipality":{"key":"09261000","name":"Landshut","type":"Kreisfreie_Stadt"},"district":{"key":"09261","name":"Landshut","type":"Kreisfreie_Stadt"},"federalState":{"key":"09","name":"Bayern"}},{"name":"In den Schwaigen","postalCode":"84034","locality":"Landshut","municipality":{"key":"09261000","name":"Landshut","type":"Kreisfreie_Stadt"},"district":{"key":"09261","name":"Landshut","type":"Kreisfreie_Stadt"},"federalState":{"key":"09","name":"Bayern"}},{"name":"Industriestr.","postalCode":"84030","locality":"Landshut","municipality":{"key":"09261000","name":"Landshut","type":"Kreisfreie_Stadt"},"district":{"key":"09261","name":"Landshut","type":"Kreisfreie_Stadt"},"federalState":{"key":"09","name":"Bayern"}},{"name":"Ingbert-Naab-Str.","postalCode":"84032","locality":"Landshut","municipality":{"key":"09261000","name":"Landshut","type":"Kreisfreie_Stadt"},"district":{"key":"09261","name":"Landshut","type":"Kreisfreie_Stadt"},"federalState":{"key":"09","name":"Bayern"}},{"name":"Inge-Sedlmaier-Str.","postalCode":"84036","locality":"Landshut","municipality":{"key":"09261000","name":"Landshut","type":"Kreisfreie_Stadt"},"district":{"key":"09261","name":"Landshut","type":"Kreisfreie_Stadt"},"federalState":{"key":"09","name":"Bayern"}},{"name":"Innere Münchener Str.","postalCode":"84028","locality":"Landshut","municipality":{"key":"09261000","name":"Landshut","type":"Kreisfreie_Stadt"},"district":{"key":"09261","name":"Landshut","type":"Kreisfreie_Stadt"},"federalState":{"key":"09","name":"Bayern"}},{"name":"Innere Münchener Str.","postalCode":"84036","locality":"Landshut","municipality":{"key":"09261000","name":"Landshut","type":"Kreisfreie_Stadt"},"district":{"key":"09261","name":"Landshut","type":"Kreisfreie_Stadt"},"federalState":{"key":"09","name":"Bayern"}},{"name":"Innere Münchner Str.","postalCode":"84036","locality":"Landshut","municipality":{"key":"09261000","name":"Landshut","type":"Kreisfreie_Stadt"},"district":{"key":"09261","name":"Landshut","type":"Kreisfreie_Stadt"},"federalState":{"key":"09","name":"Bayern"}},{"name":"Innere Regensburger Str.","postalCode":"84034","locality":"Landshut","municipality":{"key":"09261000","name":"Landshut","type":"Kreisfreie_Stadt"},"district":{"key":"09261","name":"Landshut","type":"Kreisfreie_Stadt"},"federalState":{"key":"09","name":"Bayern"}},{"name":"Innstr.","postalCode":"84036","locality":"Landshut","municipality":{"key":"09261000","name":"Landshut","type":"Kreisfreie_Stadt"},"district":{"key":"09261","name":"Landshut","type":"Kreisfreie_Stadt"},"federalState":{"key":"09","name":"Bayern"}},{"name":"Isarradweg","postalCode":"84036","locality":"Landshut","municipality":{"key":"09261000","name":"Landshut","type":"Kreisfreie_Stadt"},"district":{"key":"09261","name":"Landshut","type":"Kreisfreie_Stadt"},"federalState":{"key":"09","name":"Bayern"}},{"name":"Isarweg","postalCode":"84028","locality":"Landshut","municipality":{"key":"09261000","name":"Landshut","type":"Kreisfreie_Stadt"},"district":{"key":"09261","name":"Landshut","type":"Kreisfreie_Stadt"},"federalState":{"key":"09","name":"Bayern"}},{"name":"Isenstr.","postalCode":"84036","locality":"Landshut","municipality":{"key":"09261000","name":"Landshut","type":"Kreisfreie_Stadt"},"district":{"key":"09261","name":"Landshut","type":"Kreisfreie_Stadt"},"federalState":{"key":"09","name":"Bayern"}},{"name":"Isolde-Kurz-Str.","postalCode":"84032","locality":"Landshut","municipality":{"key":"09261000","name":"Landshut","type":"Kreisfreie_Stadt"},"district":{"key":"09261","name":"Landshut","type":"Kreisfreie_Stadt"},"federalState":{"key":"09","name":"Bayern"}},{"name":"Jahnstr.","postalCode":"84076","locality":"Pfeffenhausen","municipality":{"key":"09274172","name":"Pfeffenhausen, M","type":"Markt"},"district":{"key":"09274","name":"Landshut","type":"Landkreis"},"federalState":{"key":"09","name":"Bayern"}},{"name":"Kapellenweg","postalCode":"84076","locality":"Pfeffenhausen","municipality":{"key":"09274172","name":"Pfeffenhausen, M","type":"Markt"},"district":{"key":"09274","name":"Landshut","type":"Landkreis"},"federalState":{"key":"09","name":"Bayern"}},{"name":"Kellerweg","postalCode":"84076","locality":"Pfeffenhausen","municipality":{"key":"09274172","name":"Pfeffenhausen, M","type":"Markt"},"district":{"key":"09274","name":"Landshut","type":"Landkreis"},"federalState":{"key":"09","name":"Bayern"}},{"name":"Keltenstr.","postalCode":"84076","locality":"Pfeffenhausen","municipality":{"key":"09274172","name":"Pfeffenhausen, M","type":"Markt"},"district":{"key":"09274","name":"Landshut","type":"Landkreis"},"federalState":{"key":"09","name":"Bayern"}},{"name":"Kirchplatz","postalCode":"84076","locality":"Pfeffenhausen","municipality":{"key":"09274172","name":"Pfeffenhausen, M","type":"Markt"},"district":{"key":"09274","name":"Landshut","type":"Landkreis"},"federalState":{"key":"09","name":"Bayern"}},{"name":"Kirchstr.","postalCode":"84076","locality":"Pfeffenhausen","municipality":{"key":"09274172","name":"Pfeffenhausen, M","type":"Markt"},"district":{"key":"09274","name":"Landshut","type":"Landkreis"},"federalState":{"key":"09","name":"Bayern"}},{"name":"Kohlstattweg","postalCode":"84076","locality":"Pfeffenhausen","municipality":{"key":"09274172","name":"Pfeffenhausen, M","type":"Markt"},"district":{"key":"09274","name":"Landshut","type":"Landkreis"},"federalState":{"key":"09","name":"Bayern"}},{"name":"Kolpingstr.","postalCode":"84076","locality":"Pfeffenhausen","municipality":{"key":"09274172","name":"Pfeffenhausen, M","type":"Markt"},"district":{"key":"09274","name":"Landshut","type":"Landkreis"},"federalState":{"key":"09","name":"Bayern"}},{"name":"Königsberger Str.","postalCode":"84076","locality":"Pfeffenhausen","municipality":{"key":"09274172","name":"Pfeffenhausen, M","type":"Markt"},"district":{"key":"09274","name":"Landshut","type":"Landkreis"},"federalState":{"key":"09","name":"Bayern"}},{"name":"Konrad-Fahmüller-Str.","postalCode":"84076","locality":"Pfeffenhausen","municipality":{"key":"09274172","name":"Pfeffenhausen, M","type":"Markt"},"district":{"key":"09274","name":"Landshut","type":"Landkreis"},"federalState":{"key":"09","name":"Bayern"}},{"name":"Koppenwall","postalCode":"84076","locality":"Pfeffenhausen","municipality":{"key":"09274172","name":"Pfeffenhausen, M","type":"Markt"},"district":{"key":"09274","name":"Landshut","type":"Landkreis"},"federalState":{"key":"09","name":"Bayern"}},{"name":"Koppenwaller Weg","postalCode":"84076","locality":"Pfeffenhausen","municipality":{"key":"09274172","name":"Pfeffenhausen, M","type":"Markt"},"district":{"key":"09274","name":"Landshut","type":"Landkreis"},"federalState":{"key":"09","name":"Bayern"}},{"name":"Krausgarten","postalCode":"84076","locality":"Pfeffenhausen","municipality":{"key":"09274172","name":"Pfeffenhausen, M","type":"Markt"},"district":{"key":"09274","name":"Landshut","type":"Landkreis"},"federalState":{"key":"09","name":"Bayern"}},{"name":"Kreuzbergstr.","postalCode":"84076","locality":"Pfeffenhausen","municipality":{"key":"09274172","name":"Pfeffenhausen, M","type":"Markt"},"district":{"key":"09274","name":"Landshut","type":"Landkreis"},"federalState":{"key":"09","name":"Bayern"}},{"name":"Laaberstr.","postalCode":"84076","locality":"Pfeffenhausen","municipality":{"key":"09274172","name":"Pfeffenhausen, M","type":"Markt"},"district":{"key":"09274","name":"Landshut","type":"Landkreis"},"federalState":{"key":"09","name":"Bayern"}},{"name":"Laaberweg","postalCode":"84076","locality":"Pfeffenhausen","municipality":{"key":"09274172","name":"Pfeffenhausen, M","type":"Markt"},"district":{"key":"09274","name":"Landshut","type":"Landkreis"},"federalState":{"key":"09","name":"Bayern"}},{"name":"Leinbergerstr.","postalCode":"84076","locality":"Pfeffenhausen","municipality":{"key":"09274172","name":"Pfeffenhausen, M","type":"Markt"},"district":{"key":"09274","name":"Landshut","type":"Landkreis"},"federalState":{"key":"09","name":"Bayern"}},{"name":"Leitendorf","postalCode":"84076","locality":"Pfeffenhausen","municipality":{"key":"09274172","name":"Pfeffenhausen, M","type":"Markt"},"district":{"key":"09274","name":"Landshut","type":"Landkreis"},"federalState":{"key":"09","name":"Bayern"}},{"name":"Lohbachstr.","postalCode":"84076","locality":"Pfeffenhausen","municipality":{"key":"09274172","name":"Pfeffenhausen, M","type":"Markt"},"district":{"key":"09274","name":"Landshut","type":"Landkreis"},"federalState":{"key":"09","name":"Bayern"}},{"name":"Lohstr.","postalCode":"84076","locality":"Pfeffenhausen","municipality":{"key":"09274172","name":"Pfeffenhausen, M","type":"Markt"},"district":{"key":"09274","name":"Landshut","type":"Landkreis"},"federalState":{"key":"09","name":"Bayern"}},{"name":"Ludwig-Freiberger-Anlage","postalCode":"84076","locality":"Pfeffenhausen","municipality":{"key":"09274172","name":"Pfeffenhausen, M","type":"Markt"},"district":{"key":"09274","name":"Landshut","type":"Landkreis"},"federalState":{"key":"09","name":"Bayern"}},{"name":"Ludwigshöhe","postalCode":"84076","locality":"Pfeffenhausen","municipality":{"key":"09274172","name":"Pfeffenhausen, M","type":"Markt"},"district":{"key":"09274","name":"Landshut","type":"Landkreis"},"federalState":{"key":"09","name":"Bayern"}},{"name":"Ludwig-Thoma-Str.","postalCode":"84076","locality":"Pfeffenhausen","municipality":{"key":"09274172","name":"Pfeffenhausen, M","type":"Markt"},"district":{"key":"09274","name":"Landshut","type":"Landkreis"},"federalState":{"key":"09","name":"Bayern"}},{"name":"Malzstr.","postalCode":"84076","locality":"Pfeffenhausen","municipality":{"key":"09274172","name":"Pfeffenhausen, M","type":"Markt"},"district":{"key":"09274","name":"Landshut","type":"Landkreis"},"federalState":{"key":"09","name":"Bayern"}},{"name":"Mantlach","postalCode":"84076","locality":"Pfeffenhausen","municipality":{"key":"09274172","name":"Pfeffenhausen, M","type":"Markt"},"district":{"key":"09274","name":"Landshut","type":"Landkreis"},"federalState":{"key":"09","name":"Bayern"}},{"name":"Marktplatz","postalCode":"84076","locality":"Pfeffenhausen","municipality":{"key":"09274172","name":"Pfeffenhausen, M","type":"Markt"},"district":{"key":"09274","name":"Landshut","type":"Landkreis"},"federalState":{"key":"09","name":"Bayern"}},{"name":"Max-Reger-Str.","postalCode":"84076","locality":"Pfeffenhausen","municipality":{"key":"09274172","name":"Pfeffenhausen, M","type":"Markt"},"district":{"key":"09274","name":"Landshut","type":"Landkreis"},"federalState":{"key":"09","name":"Bayern"}},{"name":"Moosburger Str.","postalCode":"84076","locality":"Pfeffenhausen","municipality":{"key":"09274172","name":"Pfeffenhausen, M","type":"Markt"},"district":{"key":"09274","name":"Landshut","type":"Landkreis"},"federalState":{"key":"09","name":"Bayern"}},{"name":"Mühlbachstr.","postalCode":"84076","locality":"Pfeffenhausen","municipality":{"key":"09274172","name":"Pfeffenhausen, M","type":"Markt"},"district":{"key":"09274","name":"Landshut","type":"Landkreis"},"federalState":{"key":"09","name":"Bayern"}},{"name":"Nardinistr.","postalCode":"84076","locality":"Pfeffenhausen","municipality":{"key":"09274172","name":"Pfeffenhausen, M","type":"Markt"},"district":{"key":"09274","name":"Landshut","type":"Landkreis"},"federalState":{"key":"09","name":"Bayern"}},{"name":"Oberbreitenauer Str.","postalCode":"84030","locality":"Landshut","municipality":{"key":"09261000","name":"Landshut","type":"Kreisfreie_Stadt"},"district":{"key":"09261","name":"Landshut","type":"Kreisfreie_Stadt"},"federalState":{"key":"09","name":"Bayern"}},{"name":"Obere Freyung","postalCode":"84028","locality":"Landshut","municipality":{"key":"09261000","name":"Landshut","type":"Kreisfreie_Stadt"},"district":{"key":"09261","name":"Landshut","type":"Kreisfreie_Stadt"},"federalState":{"key":"09","name":"Bayern"}},{"name":"Obere Liebenau","postalCode":"84034","locality":"Landshut","municipality":{"key":"09261000","name":"Landshut","type":"Kreisfreie_Stadt"},"district":{"key":"09261","name":"Landshut","type":"Kreisfreie_Stadt"},"federalState":{"key":"09","name":"Bayern"}},{"name":"Obere Wöhrstr.","postalCode":"84034","locality":"Landshut","municipality":{"key":"09261000","name":"Landshut","type":"Kreisfreie_Stadt"},"district":{"key":"09261","name":"Landshut","type":"Kreisfreie_Stadt"},"federalState":{"key":"09","name":"Bayern"}},{"name":"Oberhoferweg","postalCode":"84028","locality":"Landshut","municipality":{"key":"09261000","name":"Landshut","type":"Kreisfreie_Stadt"},"district":{"key":"09261","name":"Landshut","type":"Kreisfreie_Stadt"},"federalState":{"key":"09","name":"Bayern"}},{"name":"Oberjochweg","postalCode":"84034","locality":"Landshut","municipality":{"key":"09261000","name":"Landshut","type":"Kreisfreie_Stadt"},"district":{"key":"09261","name":"Landshut","type":"Kreisfreie_Stadt"},"federalState":{"key":"09","name":"Bayern"}},{"name":"Oberndorferstr.","postalCode":"84032","locality":"Landshut","municipality":{"key":"09261000","name":"Landshut","type":"Kreisfreie_Stadt"},"district":{"key":"09261","name":"Landshut","type":"Kreisfreie_Stadt"},"federalState":{"key":"09","name":"Bayern"}},{"name":"Oberpaurpassage","postalCode":"84028","locality":"Landshut","municipality":{"key":"09261000","name":"Landshut","type":"Kreisfreie_Stadt"},"district":{"key":"09261","name":"Landshut","type":"Kreisfreie_Stadt"},"federalState":{"key":"09","name":"Bayern"}},{"name":"Oberpaurpassage","postalCode":"84036","locality":"Landshut","municipality":{"key":"09261000","name":"Landshut","type":"Kreisfreie_Stadt"},"district":{"key":"09261","name":"Landshut","type":"Kreisfreie_Stadt"},"federalState":{"key":"09","name":"Bayern"}},{"name":"Oberthweg","postalCode":"84034","locality":"Landshut","municipality":{"key":"09261000","name":"Landshut","type":"Kreisfreie_Stadt"},"district":{"key":"09261","name":"Landshut","type":"Kreisfreie_Stadt"},"federalState":{"key":"09","name":"Bayern"}},{"name":"Oderstr.","postalCode":"84036","locality":"Landshut","municipality":{"key":"09261000","name":"Landshut","type":"Kreisfreie_Stadt"},"district":{"key":"09261","name":"Landshut","type":"Kreisfreie_Stadt"},"federalState":{"key":"09","name":"Bayern"}},{"name":"Offenbachstr.","postalCode":"84032","locality":"Landshut","municipality":{"key":"09261000","name":"Landshut","type":"Kreisfreie_Stadt"},"district":{"key":"09261","name":"Landshut","type":"Kreisfreie_Stadt"},"federalState":{"key":"09","name":"Bayern"}},{"name":"Orgelmachergasse","postalCode":"84036","locality":"Landshut","municipality":{"key":"09261000","name":"Landshut","type":"Kreisfreie_Stadt"},"district":{"key":"09261","name":"Landshut","type":"Kreisfreie_Stadt"},"federalState":{"key":"09","name":"Bayern"}},{"name":"Orlando-Di-Lasso-Str.","postalCode":"84034","locality":"Landshut","municipality":{"key":"09261000","name":"Landshut","type":"Kreisfreie_Stadt"},"district":{"key":"09261","name":"Landshut","type":"Kreisfreie_Stadt"},"federalState":{"key":"09","name":"Bayern"}},{"name":"Osserstr.","postalCode":"84030","locality":"Landshut","municipality":{"key":"09261000","name":"Landshut","type":"Kreisfreie_Stadt"},"district":{"key":"09261","name":"Landshut","type":"Kreisfreie_Stadt"},"federalState":{"key":"09","name":"Bayern"}},{"name":"Ottostr.","postalCode":"84030","locality":"Landshut","municipality":{"key":"09261000","name":"Landshut","type":"Kreisfreie_Stadt"},"district":{"key":"09261","name":"Landshut","type":"Kreisfreie_Stadt"},"federalState":{"key":"09","name":"Bayern"}},{"name":"Parkweg","postalCode":"84076","locality":"Pfeffenhausen","municipality":{"key":"09274172","name":"Pfeffenhausen, M","type":"Markt"},"district":{"key":"09274","name":"Landshut","type":"Landkreis"},"federalState":{"key":"09","name":"Bayern"}},{"name":"Perkhoferstr.","postalCode":"84076","locality":"Pfeffenhausen","municipality":{"key":"09274172","name":"Pfeffenhausen, M","type":"Markt"},"district":{"key":"09274","name":"Landshut","type":"Landkreis"},"federalState":{"key":"09","name":"Bayern"}},{"name":"Pfaffendorf","postalCode":"84076","locality":"Pfeffenhausen","municipality":{"key":"09274172","name":"Pfeffenhausen, M","type":"Markt"},"district":{"key":"09274","name":"Landshut","type":"Landkreis"},"federalState":{"key":"09","name":"Bayern"}},{"name":"Pfarrer-Alois-Huber-Str.","postalCode":"84076","locality":"Pfeffenhausen","municipality":{"key":"09274172","name":"Pfeffenhausen, M","type":"Markt"},"district":{"key":"09274","name":"Landshut","type":"Landkreis"},"federalState":{"key":"09","name":"Bayern"}},{"name":"Pfarrer-Pflüger-Str.","postalCode":"84076","locality":"Pfeffenhausen","municipality":{"key":"09274172","name":"Pfeffenhausen, M","type":"Markt"},"district":{"key":"09274","name":"Landshut","type":"Landkreis"},"federalState":{"key":"09","name":"Bayern"}},{"name":"Pfarrhofstr.","postalCode":"84076","locality":"Pfeffenhausen","municipality":{"key":"09274172","name":"Pfeffenhausen, M","type":"Markt"},"district":{"key":"09274","name":"Landshut","type":"Landkreis"},"federalState":{"key":"09","name":"Bayern"}},{"name":"Pfeffenhausener Str.","postalCode":"84076","locality":"Pfeffenhausen","municipality":{"key":"09274172","name":"Pfeffenhausen, M","type":"Markt"},"district":{"key":"09274","name":"Landshut","type":"Landkreis"},"federalState":{"key":"09","name":"Bayern"}},{"name":"Pointring","postalCode":"84076","locality":"Pfeffenhausen","municipality":{"key":"09274172","name":"Pfeffenhausen, M","type":"Markt"},"district":{"key":"09274","name":"Landshut","type":"Landkreis"},"federalState":{"key":"09","name":"Bayern"}},{"name":"Postgasse","postalCode":"84076","locality":"Pfeffenhausen","municipality":{"key":"09274172","name":"Pfeffenhausen, M","type":"Markt"},"district":{"key":"09274","name":"Landshut","type":"Landkreis"},"federalState":{"key":"09","name":"Bayern"}},{"name":"Querstr.","postalCode":"84034","locality":"Landshut","municipality":{"key":"09261000","name":"Landshut","type":"Kreisfreie_Stadt"},"district":{"key":"09261","name":"Landshut","type":"Kreisfreie_Stadt"},"federalState":{"key":"09","name":"Bayern"}},{"name":"Querweg","postalCode":"84028","locality":"Landshut","municipality":{"key":"09261000","name":"Landshut","type":"Kreisfreie_Stadt"},"district":{"key":"09261","name":"Landshut","type":"Kreisfreie_Stadt"},"federalState":{"key":"09","name":"Bayern"}},{"name":"Reichenberger Str.","postalCode":"84076","locality":"Pfeffenhausen","municipality":{"key":"09274172","name":"Pfeffenhausen, M","type":"Markt"},"district":{"key":"09274","name":"Landshut","type":"Landkreis"},"federalState":{"key":"09","name":"Bayern"}},{"name":"Ringstr.","postalCode":"84076","locality":"Pfeffenhausen","municipality":{"key":"09274172","name":"Pfeffenhausen, M","type":"Markt"},"district":{"key":"09274","name":"Landshut","type":"Landkreis"},"federalState":{"key":"09","name":"Bayern"}},{"name":"Ringweg","postalCode":"84076","locality":"Pfeffenhausen","municipality":{"key":"09274172","name":"Pfeffenhausen, M","type":"Markt"},"district":{"key":"09274","name":"Landshut","type":"Landkreis"},"federalState":{"key":"09","name":"Bayern"}},{"name":"Rottenburger Str.","postalCode":"84076","locality":"Pfeffenhausen","municipality":{"key":"09274172","name":"Pfeffenhausen, M","type":"Markt"},"district":{"key":"09274","name":"Landshut","type":"Landkreis"},"federalState":{"key":"09","name":"Bayern"}},{"name":"Schlöglstr.","postalCode":"84076","locality":"Pfeffenhausen","municipality":{"key":"09274172","name":"Pfeffenhausen, M","type":"Markt"},"district":{"key":"09274","name":"Landshut","type":"Landkreis"},"federalState":{"key":"09","name":"Bayern"}},{"name":"Schlossallee","postalCode":"84076","locality":"Pfeffenhausen","municipality":{"key":"09274172","name":"Pfeffenhausen, M","type":"Markt"},"district":{"key":"09274","name":"Landshut","type":"Landkreis"},"federalState":{"key":"09","name":"Bayern"}},{"name":"Schmatzhausener Str.","postalCode":"84076","locality":"Pfeffenhausen","municipality":{"key":"09274172","name":"Pfeffenhausen, M","type":"Markt"},"district":{"key":"09274","name":"Landshut","type":"Landkreis"},"federalState":{"key":"09","name":"Bayern"}},{"name":"Schulgasse","postalCode":"84076","locality":"Pfeffenhausen","municipality":{"key":"09274172","name":"Pfeffenhausen, M","type":"Markt"},"district":{"key":"09274","name":"Landshut","type":"Landkreis"},"federalState":{"key":"09","name":"Bayern"}},{"name":"Schulweg","postalCode":"84076","locality":"Pfeffenhausen","municipality":{"key":"09274172","name":"Pfeffenhausen, M","type":"Markt"},"district":{"key":"09274","name":"Landshut","type":"Landkreis"},"federalState":{"key":"09","name":"Bayern"}},{"name":"Seyfriedstr.","postalCode":"84076","locality":"Pfeffenhausen","municipality":{"key":"09274172","name":"Pfeffenhausen, M","type":"Markt"},"district":{"key":"09274","name":"Landshut","type":"Landkreis"},"federalState":{"key":"09","name":"Bayern"}},{"name":"Siegenburger Str.","postalCode":"84076","locality":"Pfeffenhausen","municipality":{"key":"09274172","name":"Pfeffenhausen, M","type":"Markt"},"district":{"key":"09274","name":"Landshut","type":"Landkreis"},"federalState":{"key":"09","name":"Bayern"}},{"name":"Simon-Breu-Str.","postalCode":"84076","locality":"Pfeffenhausen","municipality":{"key":"09274172","name":"Pfeffenhausen, M","type":"Markt"},"district":{"key":"09274","name":"Landshut","type":"Landkreis"},"federalState":{"key":"09","name":"Bayern"}},{"name":"Stettiner Str.","postalCode":"84076","locality":"Pfeffenhausen","municipality":{"key":"09274172","name":"Pfeffenhausen, M","type":"Markt"},"district":{"key":"09274","name":"Landshut","type":"Landkreis"},"federalState":{"key":"09","name":"Bayern"}},{"name":"Talstr.","postalCode":"84076","locality":"Pfeffenhausen","municipality":{"key":"09274172","name":"Pfeffenhausen, M","type":"Markt"},"district":{"key":"09274","name":"Landshut","type":"Landkreis"},"federalState":{"key":"09","name":"Bayern"}},{"name":"Tassiloring","postalCode":"84076","locality":"Pfeffenhausen","municipality":{"key":"09274172","name":"Pfeffenhausen, M","type":"Markt"},"district":{"key":"09274","name":"Landshut","type":"Landkreis"},"federalState":{"key":"09","name":"Bayern"}},{"name":"Thonhausen","postalCode":"84076","locality":"Pfeffenhausen","municipality":{"key":"09274172","name":"Pfeffenhausen, M","type":"Markt"},"district":{"key":"09274","name":"Landshut","type":"Landkreis"},"federalState":{"key":"09","name":"Bayern"}},{"name":"Unterer Dobelweg","postalCode":"84076","locality":"Pfeffenhausen","municipality":{"key":"09274172","name":"Pfeffenhausen, M","type":"Markt"},"district":{"key":"09274","name":"Landshut","type":"Landkreis"},"federalState":{"key":"09","name":"Bayern"}},{"name":"Unterlauterbacher Str.","postalCode":"84076","locality":"Pfeffenhausen","municipality":{"key":"09274172","name":"Pfeffenhausen, M","type":"Markt"},"district":{"key":"09274","name":"Landshut","type":"Landkreis"},"federalState":{"key":"09","name":"Bayern"}},{"name":"Veichtederpointweg","postalCode":"84036","locality":"Landshut","municipality":{"key":"09261000","name":"Landshut","type":"Kreisfreie_Stadt"},"district":{"key":"09261","name":"Landshut","type":"Kreisfreie_Stadt"},"federalState":{"key":"09","name":"Bayern"}},{"name":"Veldener Str.","postalCode":"84036","locality":"Landshut","municipality":{"key":"09261000","name":"Landshut","type":"Kreisfreie_Stadt"},"district":{"key":"09261","name":"Landshut","type":"Kreisfreie_Stadt"},"federalState":{"key":"09","name":"Bayern"}},{"name":"Volksstr.","postalCode":"84028","locality":"Landshut","municipality":{"key":"09261000","name":"Landshut","type":"Kreisfreie_Stadt"},"district":{"key":"09261","name":"Landshut","type":"Kreisfreie_Stadt"},"federalState":{"key":"09","name":"Bayern"}},{"name":"Von-Arco-Weg","postalCode":"84036","locality":"Landshut","municipality":{"key":"09261000","name":"Landshut","type":"Kreisfreie_Stadt"},"district":{"key":"09261","name":"Landshut","type":"Kreisfreie_Stadt"},"federalState":{"key":"09","name":"Bayern"}},{"name":"Von-Behring-Weg","postalCode":"84034","locality":"Landshut","municipality":{"key":"09261000","name":"Landshut","type":"Kreisfreie_Stadt"},"district":{"key":"09261","name":"Landshut","type":"Kreisfreie_Stadt"},"federalState":{"key":"09","name":"Bayern"}},{"name":"Von-Doderer-Str.","postalCode":"84036","locality":"Landshut","municipality":{"key":"09261000","name":"Landshut","type":"Kreisfreie_Stadt"},"district":{"key":"09261","name":"Landshut","type":"Kreisfreie_Stadt"},"federalState":{"key":"09","name":"Bayern"}},{"name":"Von-Hohenhausen-Str.","postalCode":"84036","locality":"Landshut","municipality":{"key":"09261000","name":"Landshut","type":"Kreisfreie_Stadt"},"district":{"key":"09261","name":"Landshut","type":"Kreisfreie_Stadt"},"federalState":{"key":"09","name":"Bayern"}},{"name":"Von-Walther-Str.","postalCode":"84034","locality":"Landshut","municipality":{"key":"09261000","name":"Landshut","type":"Kreisfreie_Stadt"},"district":{"key":"09261","name":"Landshut","type":"Kreisfreie_Stadt"},"federalState":{"key":"09","name":"Bayern"}},{"name":"Von-Zabuesnig-Str.","postalCode":"84034","locality":"Landshut","municipality":{"key":"09261000","name":"Landshut","type":"Kreisfreie_Stadt"},"district":{"key":"09261","name":"Landshut","type":"Kreisfreie_Stadt"},"federalState":{"key":"09","name":"Bayern"}},{"name":"Waldstr.","postalCode":"84076","locality":"Pfeffenhausen","municipality":{"key":"09274172","name":"Pfeffenhausen, M","type":"Markt"},"district":{"key":"09274","name":"Landshut","type":"Landkreis"},"federalState":{"key":"09","name":"Bayern"}},{"name":"Weikersdorf","postalCode":"84076","locality":"Pfeffenhausen","municipality":{"key":"09274172","name":"Pfeffenhausen, M","type":"Markt"},"district":{"key":"09274","name":"Landshut","type":"Landkreis"},"federalState":{"key":"09","name":"Bayern"}},{"name":"Weinberg","postalCode":"84076","locality":"Pfeffenhausen","municipality":{"key":"09274172","name":"Pfeffenhausen, M","type":"Markt"},"district":{"key":"09274","name":"Landshut","type":"Landkreis"},"federalState":{"key":"09","name":"Bayern"}},{"name":"Weinbergstr.","postalCode":"84076","locality":"Pfeffenhausen","municipality":{"key":"09274172","name":"Pfeffenhausen, M","type":"Markt"},"district":{"key":"09274","name":"Landshut","type":"Landkreis"},"federalState":{"key":"09","name":"Bayern"}},{"name":"Wiesenweg","postalCode":"84076","locality":"Pfeffenhausen","municipality":{"key":"09274172","name":"Pfeffenhausen, M","type":"Markt"},"district":{"key":"09274","name":"Landshut","type":"Landkreis"},"federalState":{"key":"09","name":"Bayern"}},{"name":"Wittelsbacherstr.","postalCode":"84076","locality":"Pfeffenhausen","municipality":{"key":"09274172","name":"Pfeffenhausen, M","type":"Markt"},"district":{"key":"09274","name":"Landshut","type":"Landkreis"},"federalState":{"key":"09","name":"Bayern"}},{"name":"Ziegeleistr.","postalCode":"84076","locality":"Pfeffenhausen","municipality":{"key":"09274172","name":"Pfeffenhausen, M","type":"Markt"},"district":{"key":"09274","name":"Landshut","type":"Landkreis"},"federalState":{"key":"09","name":"Bayern"}},{"name":"Zur Platte","postalCode":"84076","locality":"Pfeffenhausen","municipality":{"key":"09274172","name":"Pfeffenhausen, M","type":"Markt"},"district":{"key":"09274","name":"Landshut","type":"Landkreis"},"federalState":{"key":"09","name":"Bayern"}},{"name":"Äußere Münchener Str.","postalCode":"84036","locality":"Landshut","municipality":{"key":"09261000","name":"Landshut","type":"Kreisfreie_Stadt"},"district":{"key":"09261","name":"Landshut","type":"Kreisfreie_Stadt"},"federalState":{"key":"09","name":"Bayern"}},{"name":"Äußere Regensburger Str.","postalCode":"84030","locality":"Landshut","municipality":{"key":"09261000","name":"Landshut","type":"Kreisfreie_Stadt"},"district":{"key":"09261","name":"Landshut","type":"Kreisfreie_Stadt"},"federalState":{"key":"09","name":"Bayern"}},{"name":"Äußere Regensburger Str.","postalCode":"84034","locality":"Landshut","municipality":{"key":"09261000","name":"Landshut","type":"Kreisfreie_Stadt"},"district":{"key":"09261","name":"Landshut","type":"Kreisfreie_Stadt"},"federalState":{"key":"09","name":"Bayern"}},{"name":"Überreiterweg","postalCode":"84036","locality":"Landshut","municipality":{"key":"09261000","name":"Landshut","type":"Kreisfreie_Stadt"},"district":{"key":"09261","name":"Landshut","type":"Kreisfreie_Stadt"},"federalState":{"key":"09","name":"Bayern"}},]