[{"name":"Adersbacher Str.","postalCode":"74915","locality":"Waibstadt","municipality":{"key":"08226091","name":"Waibstadt, Stadt","type":"Stadt"},"district":{"key":"08226","name":"Rhein-Neckar-Kreis","type":"Landkreis"},"federalState":{"key":"08","name":"Baden-Württemberg"}},{"name":"Adersbacher Weg","postalCode":"74915","locality":"Waibstadt","municipality":{"key":"08226091","name":"Waibstadt, Stadt","type":"Stadt"},"district":{"key":"08226","name":"Rhein-Neckar-Kreis","type":"Landkreis"},"federalState":{"key":"08","name":"Baden-Württemberg"}},{"name":"Ahornweg","postalCode":"74915","locality":"Waibstadt","municipality":{"key":"08226091","name":"Waibstadt, Stadt","type":"Stadt"},"district":{"key":"08226","name":"Rhein-Neckar-Kreis","type":"Landkreis"},"federalState":{"key":"08","name":"Baden-Württemberg"}},{"name":"Akazienweg","postalCode":"74915","locality":"Waibstadt","municipality":{"key":"08226091","name":"Waibstadt, Stadt","type":"Stadt"},"district":{"key":"08226","name":"Rhein-Neckar-Kreis","type":"Landkreis"},"federalState":{"key":"08","name":"Baden-Württemberg"}},{"name":"Alexander-Wacker-Str.","postalCode":"74915","locality":"Waibstadt","municipality":{"key":"08226091","name":"Waibstadt, Stadt","type":"Stadt"},"district":{"key":"08226","name":"Rhein-Neckar-Kreis","type":"Landkreis"},"federalState":{"key":"08","name":"Baden-Württemberg"}},{"name":"Alte Sinsheimer Str.","postalCode":"74915","locality":"Waibstadt","municipality":{"key":"08226091","name":"Waibstadt, Stadt","type":"Stadt"},"district":{"key":"08226","name":"Rhein-Neckar-Kreis","type":"Landkreis"},"federalState":{"key":"08","name":"Baden-Württemberg"}},{"name":"Amalienstr.","postalCode":"74915","locality":"Waibstadt","municipality":{"key":"08226091","name":"Waibstadt, Stadt","type":"Stadt"},"district":{"key":"08226","name":"Rhein-Neckar-Kreis","type":"Landkreis"},"federalState":{"key":"08","name":"Baden-Württemberg"}},{"name":"Am Altenberg","postalCode":"74915","locality":"Waibstadt","municipality":{"key":"08226091","name":"Waibstadt, Stadt","type":"Stadt"},"district":{"key":"08226","name":"Rhein-Neckar-Kreis","type":"Landkreis"},"federalState":{"key":"08","name":"Baden-Württemberg"}},{"name":"Am Schneidersberg","postalCode":"74915","locality":"Waibstadt","municipality":{"key":"08226091","name":"Waibstadt, Stadt","type":"Stadt"},"district":{"key":"08226","name":"Rhein-Neckar-Kreis","type":"Landkreis"},"federalState":{"key":"08","name":"Baden-Württemberg"}},{"name":"Annastr.","postalCode":"74915","locality":"Waibstadt","municipality":{"key":"08226091","name":"Waibstadt, Stadt","type":"Stadt"},"district":{"key":"08226","name":"Rhein-Neckar-Kreis","type":"Landkreis"},"federalState":{"key":"08","name":"Baden-Württemberg"}},{"name":"Antoniusstr.","postalCode":"74915","locality":"Waibstadt","municipality":{"key":"08226091","name":"Waibstadt, Stadt","type":"Stadt"},"district":{"key":"08226","name":"Rhein-Neckar-Kreis","type":"Landkreis"},"federalState":{"key":"08","name":"Baden-Württemberg"}},{"name":"Autengrundstr.","postalCode":"74915","locality":"Waibstadt","municipality":{"key":"08226091","name":"Waibstadt, Stadt","type":"Stadt"},"district":{"key":"08226","name":"Rhein-Neckar-Kreis","type":"Landkreis"},"federalState":{"key":"08","name":"Baden-Württemberg"}},{"name":"Bahnstr.","postalCode":"74915","locality":"Waibstadt","municipality":{"key":"08226091","name":"Waibstadt, Stadt","type":"Stadt"},"district":{"key":"08226","name":"Rhein-Neckar-Kreis","type":"Landkreis"},"federalState":{"key":"08","name":"Baden-Württemberg"}},{"name":"Beethovenstr.","postalCode":"74915","locality":"Waibstadt","municipality":{"key":"08226091","name":"Waibstadt, Stadt","type":"Stadt"},"district":{"key":"08226","name":"Rhein-Neckar-Kreis","type":"Landkreis"},"federalState":{"key":"08","name":"Baden-Württemberg"}},{"name":"Bergstr.","postalCode":"74915","locality":"Waibstadt","municipality":{"key":"08226091","name":"Waibstadt, Stadt","type":"Stadt"},"district":{"key":"08226","name":"Rhein-Neckar-Kreis","type":"Landkreis"},"federalState":{"key":"08","name":"Baden-Württemberg"}},{"name":"Bernaustr.","postalCode":"74915","locality":"Waibstadt","municipality":{"key":"08226091","name":"Waibstadt, Stadt","type":"Stadt"},"district":{"key":"08226","name":"Rhein-Neckar-Kreis","type":"Landkreis"},"federalState":{"key":"08","name":"Baden-Württemberg"}},{"name":"Birkenstr.","postalCode":"74915","locality":"Waibstadt","municipality":{"key":"08226091","name":"Waibstadt, Stadt","type":"Stadt"},"district":{"key":"08226","name":"Rhein-Neckar-Kreis","type":"Landkreis"},"federalState":{"key":"08","name":"Baden-Württemberg"}},{"name":"Birkigweg","postalCode":"74915","locality":"Waibstadt","municipality":{"key":"08226091","name":"Waibstadt, Stadt","type":"Stadt"},"district":{"key":"08226","name":"Rhein-Neckar-Kreis","type":"Landkreis"},"federalState":{"key":"08","name":"Baden-Württemberg"}},{"name":"Bitzwiesen","postalCode":"74915","locality":"Waibstadt","municipality":{"key":"08226091","name":"Waibstadt, Stadt","type":"Stadt"},"district":{"key":"08226","name":"Rhein-Neckar-Kreis","type":"Landkreis"},"federalState":{"key":"08","name":"Baden-Württemberg"}},{"name":"Bleichwiesen","postalCode":"74915","locality":"Waibstadt","municipality":{"key":"08226091","name":"Waibstadt, Stadt","type":"Stadt"},"district":{"key":"08226","name":"Rhein-Neckar-Kreis","type":"Landkreis"},"federalState":{"key":"08","name":"Baden-Württemberg"}},{"name":"Bleihöfer Weg","postalCode":"74915","locality":"Waibstadt","municipality":{"key":"08226091","name":"Waibstadt, Stadt","type":"Stadt"},"district":{"key":"08226","name":"Rhein-Neckar-Kreis","type":"Landkreis"},"federalState":{"key":"08","name":"Baden-Württemberg"}},{"name":"Bleihofstr.","postalCode":"74915","locality":"Waibstadt","municipality":{"key":"08226091","name":"Waibstadt, Stadt","type":"Stadt"},"district":{"key":"08226","name":"Rhein-Neckar-Kreis","type":"Landkreis"},"federalState":{"key":"08","name":"Baden-Württemberg"}},{"name":"Breslauer Str.","postalCode":"74915","locality":"Waibstadt","municipality":{"key":"08226091","name":"Waibstadt, Stadt","type":"Stadt"},"district":{"key":"08226","name":"Rhein-Neckar-Kreis","type":"Landkreis"},"federalState":{"key":"08","name":"Baden-Württemberg"}},{"name":"Bruchstr.","postalCode":"74915","locality":"Waibstadt","municipality":{"key":"08226091","name":"Waibstadt, Stadt","type":"Stadt"},"district":{"key":"08226","name":"Rhein-Neckar-Kreis","type":"Landkreis"},"federalState":{"key":"08","name":"Baden-Württemberg"}},{"name":"Brucknerstr.","postalCode":"74915","locality":"Waibstadt","municipality":{"key":"08226091","name":"Waibstadt, Stadt","type":"Stadt"},"district":{"key":"08226","name":"Rhein-Neckar-Kreis","type":"Landkreis"},"federalState":{"key":"08","name":"Baden-Württemberg"}},{"name":"Buchbergstr.","postalCode":"74915","locality":"Waibstadt","municipality":{"key":"08226091","name":"Waibstadt, Stadt","type":"Stadt"},"district":{"key":"08226","name":"Rhein-Neckar-Kreis","type":"Landkreis"},"federalState":{"key":"08","name":"Baden-Württemberg"}},{"name":"Buchenweg","postalCode":"74915","locality":"Waibstadt","municipality":{"key":"08226091","name":"Waibstadt, Stadt","type":"Stadt"},"district":{"key":"08226","name":"Rhein-Neckar-Kreis","type":"Landkreis"},"federalState":{"key":"08","name":"Baden-Württemberg"}},{"name":"Bunsenstr.","postalCode":"74915","locality":"Waibstadt","municipality":{"key":"08226091","name":"Waibstadt, Stadt","type":"Stadt"},"district":{"key":"08226","name":"Rhein-Neckar-Kreis","type":"Landkreis"},"federalState":{"key":"08","name":"Baden-Württemberg"}},{"name":"Bürgermeister-Freymüller-Str.","postalCode":"74915","locality":"Waibstadt","municipality":{"key":"08226091","name":"Waibstadt, Stadt","type":"Stadt"},"district":{"key":"08226","name":"Rhein-Neckar-Kreis","type":"Landkreis"},"federalState":{"key":"08","name":"Baden-Württemberg"}},{"name":"Dagobertstr.","postalCode":"74915","locality":"Waibstadt","municipality":{"key":"08226091","name":"Waibstadt, Stadt","type":"Stadt"},"district":{"key":"08226","name":"Rhein-Neckar-Kreis","type":"Landkreis"},"federalState":{"key":"08","name":"Baden-Württemberg"}},{"name":"Daimler-Benz-Str.","postalCode":"74915","locality":"Waibstadt","municipality":{"key":"08226091","name":"Waibstadt, Stadt","type":"Stadt"},"district":{"key":"08226","name":"Rhein-Neckar-Kreis","type":"Landkreis"},"federalState":{"key":"08","name":"Baden-Württemberg"}},{"name":"Daisbacher Berg","postalCode":"74915","locality":"Waibstadt","municipality":{"key":"08226091","name":"Waibstadt, Stadt","type":"Stadt"},"district":{"key":"08226","name":"Rhein-Neckar-Kreis","type":"Landkreis"},"federalState":{"key":"08","name":"Baden-Württemberg"}},{"name":"Daisbacher Sträßle","postalCode":"74915","locality":"Waibstadt","municipality":{"key":"08226091","name":"Waibstadt, Stadt","type":"Stadt"},"district":{"key":"08226","name":"Rhein-Neckar-Kreis","type":"Landkreis"},"federalState":{"key":"08","name":"Baden-Württemberg"}},{"name":"Daisbachtalstr.","postalCode":"74915","locality":"Waibstadt","municipality":{"key":"08226091","name":"Waibstadt, Stadt","type":"Stadt"},"district":{"key":"08226","name":"Rhein-Neckar-Kreis","type":"Landkreis"},"federalState":{"key":"08","name":"Baden-Württemberg"}},{"name":"Dammstr.","postalCode":"74915","locality":"Waibstadt","municipality":{"key":"08226091","name":"Waibstadt, Stadt","type":"Stadt"},"district":{"key":"08226","name":"Rhein-Neckar-Kreis","type":"Landkreis"},"federalState":{"key":"08","name":"Baden-Württemberg"}},{"name":"Danziger Str.","postalCode":"74915","locality":"Waibstadt","municipality":{"key":"08226091","name":"Waibstadt, Stadt","type":"Stadt"},"district":{"key":"08226","name":"Rhein-Neckar-Kreis","type":"Landkreis"},"federalState":{"key":"08","name":"Baden-Württemberg"}},{"name":"Diedersgründelweg","postalCode":"74915","locality":"Waibstadt","municipality":{"key":"08226091","name":"Waibstadt, Stadt","type":"Stadt"},"district":{"key":"08226","name":"Rhein-Neckar-Kreis","type":"Landkreis"},"federalState":{"key":"08","name":"Baden-Württemberg"}},{"name":"Dr.-Weil-Weg","postalCode":"74915","locality":"Waibstadt","municipality":{"key":"08226091","name":"Waibstadt, Stadt","type":"Stadt"},"district":{"key":"08226","name":"Rhein-Neckar-Kreis","type":"Landkreis"},"federalState":{"key":"08","name":"Baden-Württemberg"}},{"name":"Eichelbergstr.","postalCode":"74915","locality":"Waibstadt","municipality":{"key":"08226091","name":"Waibstadt, Stadt","type":"Stadt"},"district":{"key":"08226","name":"Rhein-Neckar-Kreis","type":"Landkreis"},"federalState":{"key":"08","name":"Baden-Württemberg"}},{"name":"Eichhölzelstr.","postalCode":"74915","locality":"Waibstadt","municipality":{"key":"08226091","name":"Waibstadt, Stadt","type":"Stadt"},"district":{"key":"08226","name":"Rhein-Neckar-Kreis","type":"Landkreis"},"federalState":{"key":"08","name":"Baden-Württemberg"}},{"name":"Epfenbacher Str.","postalCode":"74915","locality":"Waibstadt","municipality":{"key":"08226091","name":"Waibstadt, Stadt","type":"Stadt"},"district":{"key":"08226","name":"Rhein-Neckar-Kreis","type":"Landkreis"},"federalState":{"key":"08","name":"Baden-Württemberg"}},{"name":"Fasanenweg","postalCode":"74915","locality":"Waibstadt","municipality":{"key":"08226091","name":"Waibstadt, Stadt","type":"Stadt"},"district":{"key":"08226","name":"Rhein-Neckar-Kreis","type":"Landkreis"},"federalState":{"key":"08","name":"Baden-Württemberg"}},{"name":"Felix-Wankel-Str.","postalCode":"74915","locality":"Waibstadt","municipality":{"key":"08226091","name":"Waibstadt, Stadt","type":"Stadt"},"district":{"key":"08226","name":"Rhein-Neckar-Kreis","type":"Landkreis"},"federalState":{"key":"08","name":"Baden-Württemberg"}},{"name":"Finkenweg","postalCode":"74915","locality":"Waibstadt","municipality":{"key":"08226091","name":"Waibstadt, Stadt","type":"Stadt"},"district":{"key":"08226","name":"Rhein-Neckar-Kreis","type":"Landkreis"},"federalState":{"key":"08","name":"Baden-Württemberg"}},{"name":"Fliederstr.","postalCode":"74915","locality":"Waibstadt","municipality":{"key":"08226091","name":"Waibstadt, Stadt","type":"Stadt"},"district":{"key":"08226","name":"Rhein-Neckar-Kreis","type":"Landkreis"},"federalState":{"key":"08","name":"Baden-Württemberg"}},{"name":"Fliehbergstr.","postalCode":"74915","locality":"Waibstadt","municipality":{"key":"08226091","name":"Waibstadt, Stadt","type":"Stadt"},"district":{"key":"08226","name":"Rhein-Neckar-Kreis","type":"Landkreis"},"federalState":{"key":"08","name":"Baden-Württemberg"}},{"name":"Friedrich-Ebert-Str.","postalCode":"74915","locality":"Waibstadt","municipality":{"key":"08226091","name":"Waibstadt, Stadt","type":"Stadt"},"district":{"key":"08226","name":"Rhein-Neckar-Kreis","type":"Landkreis"},"federalState":{"key":"08","name":"Baden-Württemberg"}},{"name":"Friedrichstr.","postalCode":"74915","locality":"Waibstadt","municipality":{"key":"08226091","name":"Waibstadt, Stadt","type":"Stadt"},"district":{"key":"08226","name":"Rhein-Neckar-Kreis","type":"Landkreis"},"federalState":{"key":"08","name":"Baden-Württemberg"}},{"name":"Fröbelstr.","postalCode":"74915","locality":"Waibstadt","municipality":{"key":"08226091","name":"Waibstadt, Stadt","type":"Stadt"},"district":{"key":"08226","name":"Rhein-Neckar-Kreis","type":"Landkreis"},"federalState":{"key":"08","name":"Baden-Württemberg"}},{"name":"Fw.-Heller-Weg","postalCode":"74915","locality":"Waibstadt","municipality":{"key":"08226091","name":"Waibstadt, Stadt","type":"Stadt"},"district":{"key":"08226","name":"Rhein-Neckar-Kreis","type":"Landkreis"},"federalState":{"key":"08","name":"Baden-Württemberg"}},{"name":"Fw. Keim-Weg","postalCode":"74915","locality":"Waibstadt","municipality":{"key":"08226091","name":"Waibstadt, Stadt","type":"Stadt"},"district":{"key":"08226","name":"Rhein-Neckar-Kreis","type":"Landkreis"},"federalState":{"key":"08","name":"Baden-Württemberg"}},{"name":"Gartenstr.","postalCode":"74915","locality":"Waibstadt","municipality":{"key":"08226091","name":"Waibstadt, Stadt","type":"Stadt"},"district":{"key":"08226","name":"Rhein-Neckar-Kreis","type":"Landkreis"},"federalState":{"key":"08","name":"Baden-Württemberg"}},{"name":"Gäulhimmelweg","postalCode":"74915","locality":"Waibstadt","municipality":{"key":"08226091","name":"Waibstadt, Stadt","type":"Stadt"},"district":{"key":"08226","name":"Rhein-Neckar-Kreis","type":"Landkreis"},"federalState":{"key":"08","name":"Baden-Württemberg"}},{"name":"Goethestr.","postalCode":"74915","locality":"Waibstadt","municipality":{"key":"08226091","name":"Waibstadt, Stadt","type":"Stadt"},"district":{"key":"08226","name":"Rhein-Neckar-Kreis","type":"Landkreis"},"federalState":{"key":"08","name":"Baden-Württemberg"}},{"name":"Gölsenbrunnenstr.","postalCode":"74915","locality":"Waibstadt","municipality":{"key":"08226091","name":"Waibstadt, Stadt","type":"Stadt"},"district":{"key":"08226","name":"Rhein-Neckar-Kreis","type":"Landkreis"},"federalState":{"key":"08","name":"Baden-Württemberg"}},{"name":"Gränzelweg","postalCode":"74915","locality":"Waibstadt","municipality":{"key":"08226091","name":"Waibstadt, Stadt","type":"Stadt"},"district":{"key":"08226","name":"Rhein-Neckar-Kreis","type":"Landkreis"},"federalState":{"key":"08","name":"Baden-Württemberg"}},{"name":"Hauptstr.","postalCode":"74915","locality":"Waibstadt","municipality":{"key":"08226091","name":"Waibstadt, Stadt","type":"Stadt"},"district":{"key":"08226","name":"Rhein-Neckar-Kreis","type":"Landkreis"},"federalState":{"key":"08","name":"Baden-Württemberg"}},{"name":"Hebelstr.","postalCode":"74915","locality":"Waibstadt","municipality":{"key":"08226091","name":"Waibstadt, Stadt","type":"Stadt"},"district":{"key":"08226","name":"Rhein-Neckar-Kreis","type":"Landkreis"},"federalState":{"key":"08","name":"Baden-Württemberg"}},{"name":"Helmstadter Str.","postalCode":"74915","locality":"Waibstadt","municipality":{"key":"08226091","name":"Waibstadt, Stadt","type":"Stadt"},"district":{"key":"08226","name":"Rhein-Neckar-Kreis","type":"Landkreis"},"federalState":{"key":"08","name":"Baden-Württemberg"}},{"name":"Hetzengrundweg","postalCode":"74915","locality":"Waibstadt","municipality":{"key":"08226091","name":"Waibstadt, Stadt","type":"Stadt"},"district":{"key":"08226","name":"Rhein-Neckar-Kreis","type":"Landkreis"},"federalState":{"key":"08","name":"Baden-Württemberg"}},{"name":"Hoffenheimer Str.","postalCode":"74915","locality":"Waibstadt","municipality":{"key":"08226091","name":"Waibstadt, Stadt","type":"Stadt"},"district":{"key":"08226","name":"Rhein-Neckar-Kreis","type":"Landkreis"},"federalState":{"key":"08","name":"Baden-Württemberg"}},{"name":"Hoffenheimer Weg","postalCode":"74915","locality":"Waibstadt","municipality":{"key":"08226091","name":"Waibstadt, Stadt","type":"Stadt"},"district":{"key":"08226","name":"Rhein-Neckar-Kreis","type":"Landkreis"},"federalState":{"key":"08","name":"Baden-Württemberg"}},{"name":"Höhenstr.","postalCode":"74915","locality":"Waibstadt","municipality":{"key":"08226091","name":"Waibstadt, Stadt","type":"Stadt"},"district":{"key":"08226","name":"Rhein-Neckar-Kreis","type":"Landkreis"},"federalState":{"key":"08","name":"Baden-Württemberg"}},{"name":"Hohlstr.","postalCode":"74915","locality":"Waibstadt","municipality":{"key":"08226091","name":"Waibstadt, Stadt","type":"Stadt"},"district":{"key":"08226","name":"Rhein-Neckar-Kreis","type":"Landkreis"},"federalState":{"key":"08","name":"Baden-Württemberg"}},{"name":"Hörlweg","postalCode":"74915","locality":"Waibstadt","municipality":{"key":"08226091","name":"Waibstadt, Stadt","type":"Stadt"},"district":{"key":"08226","name":"Rhein-Neckar-Kreis","type":"Landkreis"},"federalState":{"key":"08","name":"Baden-Württemberg"}},{"name":"Hügelgräberweg","postalCode":"74915","locality":"Waibstadt","municipality":{"key":"08226091","name":"Waibstadt, Stadt","type":"Stadt"},"district":{"key":"08226","name":"Rhein-Neckar-Kreis","type":"Landkreis"},"federalState":{"key":"08","name":"Baden-Württemberg"}},{"name":"Humboldtstr.","postalCode":"74915","locality":"Waibstadt","municipality":{"key":"08226091","name":"Waibstadt, Stadt","type":"Stadt"},"district":{"key":"08226","name":"Rhein-Neckar-Kreis","type":"Landkreis"},"federalState":{"key":"08","name":"Baden-Württemberg"}},{"name":"Im Traubenstock","postalCode":"74915","locality":"Waibstadt","municipality":{"key":"08226091","name":"Waibstadt, Stadt","type":"Stadt"},"district":{"key":"08226","name":"Rhein-Neckar-Kreis","type":"Landkreis"},"federalState":{"key":"08","name":"Baden-Württemberg"}},{"name":"Jahnstr.","postalCode":"74915","locality":"Waibstadt","municipality":{"key":"08226091","name":"Waibstadt, Stadt","type":"Stadt"},"district":{"key":"08226","name":"Rhein-Neckar-Kreis","type":"Landkreis"},"federalState":{"key":"08","name":"Baden-Württemberg"}},{"name":"Johann-Strauß-Str.","postalCode":"74915","locality":"Waibstadt","municipality":{"key":"08226091","name":"Waibstadt, Stadt","type":"Stadt"},"district":{"key":"08226","name":"Rhein-Neckar-Kreis","type":"Landkreis"},"federalState":{"key":"08","name":"Baden-Württemberg"}},{"name":"Kappisweg","postalCode":"74915","locality":"Waibstadt","municipality":{"key":"08226091","name":"Waibstadt, Stadt","type":"Stadt"},"district":{"key":"08226","name":"Rhein-Neckar-Kreis","type":"Landkreis"},"federalState":{"key":"08","name":"Baden-Württemberg"}},{"name":"Karlstr.","postalCode":"74915","locality":"Waibstadt","municipality":{"key":"08226091","name":"Waibstadt, Stadt","type":"Stadt"},"district":{"key":"08226","name":"Rhein-Neckar-Kreis","type":"Landkreis"},"federalState":{"key":"08","name":"Baden-Württemberg"}},{"name":"Kemmertsbuschweg","postalCode":"74915","locality":"Waibstadt","municipality":{"key":"08226091","name":"Waibstadt, Stadt","type":"Stadt"},"district":{"key":"08226","name":"Rhein-Neckar-Kreis","type":"Landkreis"},"federalState":{"key":"08","name":"Baden-Württemberg"}},{"name":"Keplerstr.","postalCode":"74915","locality":"Waibstadt","municipality":{"key":"08226091","name":"Waibstadt, Stadt","type":"Stadt"},"district":{"key":"08226","name":"Rhein-Neckar-Kreis","type":"Landkreis"},"federalState":{"key":"08","name":"Baden-Württemberg"}},{"name":"Kirchstr.","postalCode":"74915","locality":"Waibstadt","municipality":{"key":"08226091","name":"Waibstadt, Stadt","type":"Stadt"},"district":{"key":"08226","name":"Rhein-Neckar-Kreis","type":"Landkreis"},"federalState":{"key":"08","name":"Baden-Württemberg"}},{"name":"Kleiststr.","postalCode":"74915","locality":"Waibstadt","municipality":{"key":"08226091","name":"Waibstadt, Stadt","type":"Stadt"},"district":{"key":"08226","name":"Rhein-Neckar-Kreis","type":"Landkreis"},"federalState":{"key":"08","name":"Baden-Württemberg"}},{"name":"Königsberger Str.","postalCode":"74915","locality":"Waibstadt","municipality":{"key":"08226091","name":"Waibstadt, Stadt","type":"Stadt"},"district":{"key":"08226","name":"Rhein-Neckar-Kreis","type":"Landkreis"},"federalState":{"key":"08","name":"Baden-Württemberg"}},{"name":"Kregweg","postalCode":"74915","locality":"Waibstadt","municipality":{"key":"08226091","name":"Waibstadt, Stadt","type":"Stadt"},"district":{"key":"08226","name":"Rhein-Neckar-Kreis","type":"Landkreis"},"federalState":{"key":"08","name":"Baden-Württemberg"}},{"name":"Kühnbergweg","postalCode":"74915","locality":"Waibstadt","municipality":{"key":"08226091","name":"Waibstadt, Stadt","type":"Stadt"},"district":{"key":"08226","name":"Rhein-Neckar-Kreis","type":"Landkreis"},"federalState":{"key":"08","name":"Baden-Württemberg"}},{"name":"Kühställe-Weg","postalCode":"74915","locality":"Waibstadt","municipality":{"key":"08226091","name":"Waibstadt, Stadt","type":"Stadt"},"district":{"key":"08226","name":"Rhein-Neckar-Kreis","type":"Landkreis"},"federalState":{"key":"08","name":"Baden-Württemberg"}},{"name":"Lammstr.","postalCode":"74915","locality":"Waibstadt","municipality":{"key":"08226091","name":"Waibstadt, Stadt","type":"Stadt"},"district":{"key":"08226","name":"Rhein-Neckar-Kreis","type":"Landkreis"},"federalState":{"key":"08","name":"Baden-Württemberg"}},{"name":"Lange Str.","postalCode":"74915","locality":"Waibstadt","municipality":{"key":"08226091","name":"Waibstadt, Stadt","type":"Stadt"},"district":{"key":"08226","name":"Rhein-Neckar-Kreis","type":"Landkreis"},"federalState":{"key":"08","name":"Baden-Württemberg"}},{"name":"Langlochweg","postalCode":"74915","locality":"Waibstadt","municipality":{"key":"08226091","name":"Waibstadt, Stadt","type":"Stadt"},"district":{"key":"08226","name":"Rhein-Neckar-Kreis","type":"Landkreis"},"federalState":{"key":"08","name":"Baden-Württemberg"}},{"name":"Leibnizstr.","postalCode":"74915","locality":"Waibstadt","municipality":{"key":"08226091","name":"Waibstadt, Stadt","type":"Stadt"},"district":{"key":"08226","name":"Rhein-Neckar-Kreis","type":"Landkreis"},"federalState":{"key":"08","name":"Baden-Württemberg"}},{"name":"Leopoldstr.","postalCode":"74915","locality":"Waibstadt","municipality":{"key":"08226091","name":"Waibstadt, Stadt","type":"Stadt"},"district":{"key":"08226","name":"Rhein-Neckar-Kreis","type":"Landkreis"},"federalState":{"key":"08","name":"Baden-Württemberg"}},{"name":"Lerchenstr.","postalCode":"74915","locality":"Waibstadt","municipality":{"key":"08226091","name":"Waibstadt, Stadt","type":"Stadt"},"district":{"key":"08226","name":"Rhein-Neckar-Kreis","type":"Landkreis"},"federalState":{"key":"08","name":"Baden-Württemberg"}},{"name":"Lessingstr.","postalCode":"74915","locality":"Waibstadt","municipality":{"key":"08226091","name":"Waibstadt, Stadt","type":"Stadt"},"district":{"key":"08226","name":"Rhein-Neckar-Kreis","type":"Landkreis"},"federalState":{"key":"08","name":"Baden-Württemberg"}},{"name":"Lilienstr.","postalCode":"74915","locality":"Waibstadt","municipality":{"key":"08226091","name":"Waibstadt, Stadt","type":"Stadt"},"district":{"key":"08226","name":"Rhein-Neckar-Kreis","type":"Landkreis"},"federalState":{"key":"08","name":"Baden-Württemberg"}},{"name":"Lindenweg","postalCode":"74915","locality":"Waibstadt","municipality":{"key":"08226091","name":"Waibstadt, Stadt","type":"Stadt"},"district":{"key":"08226","name":"Rhein-Neckar-Kreis","type":"Landkreis"},"federalState":{"key":"08","name":"Baden-Württemberg"}},{"name":"Loßstr.","postalCode":"74915","locality":"Waibstadt","municipality":{"key":"08226091","name":"Waibstadt, Stadt","type":"Stadt"},"district":{"key":"08226","name":"Rhein-Neckar-Kreis","type":"Landkreis"},"federalState":{"key":"08","name":"Baden-Württemberg"}},{"name":"Meisenbaum-Weg","postalCode":"74915","locality":"Waibstadt","municipality":{"key":"08226091","name":"Waibstadt, Stadt","type":"Stadt"},"district":{"key":"08226","name":"Rhein-Neckar-Kreis","type":"Landkreis"},"federalState":{"key":"08","name":"Baden-Württemberg"}},{"name":"Meisenweg","postalCode":"74915","locality":"Waibstadt","municipality":{"key":"08226091","name":"Waibstadt, Stadt","type":"Stadt"},"district":{"key":"08226","name":"Rhein-Neckar-Kreis","type":"Landkreis"},"federalState":{"key":"08","name":"Baden-Württemberg"}},{"name":"Mozartstr.","postalCode":"74915","locality":"Waibstadt","municipality":{"key":"08226091","name":"Waibstadt, Stadt","type":"Stadt"},"district":{"key":"08226","name":"Rhein-Neckar-Kreis","type":"Landkreis"},"federalState":{"key":"08","name":"Baden-Württemberg"}},{"name":"Mühlbergweg","postalCode":"74915","locality":"Waibstadt","municipality":{"key":"08226091","name":"Waibstadt, Stadt","type":"Stadt"},"district":{"key":"08226","name":"Rhein-Neckar-Kreis","type":"Landkreis"},"federalState":{"key":"08","name":"Baden-Württemberg"}},{"name":"Neidensteiner Str.","postalCode":"74915","locality":"Waibstadt","municipality":{"key":"08226091","name":"Waibstadt, Stadt","type":"Stadt"},"district":{"key":"08226","name":"Rhein-Neckar-Kreis","type":"Landkreis"},"federalState":{"key":"08","name":"Baden-Württemberg"}},{"name":"Nelkenstr.","postalCode":"74915","locality":"Waibstadt","municipality":{"key":"08226091","name":"Waibstadt, Stadt","type":"Stadt"},"district":{"key":"08226","name":"Rhein-Neckar-Kreis","type":"Landkreis"},"federalState":{"key":"08","name":"Baden-Württemberg"}},{"name":"Neue Str.","postalCode":"74915","locality":"Waibstadt","municipality":{"key":"08226091","name":"Waibstadt, Stadt","type":"Stadt"},"district":{"key":"08226","name":"Rhein-Neckar-Kreis","type":"Landkreis"},"federalState":{"key":"08","name":"Baden-Württemberg"}},{"name":"Neurottweg","postalCode":"74915","locality":"Waibstadt","municipality":{"key":"08226091","name":"Waibstadt, Stadt","type":"Stadt"},"district":{"key":"08226","name":"Rhein-Neckar-Kreis","type":"Landkreis"},"federalState":{"key":"08","name":"Baden-Württemberg"}},{"name":"Oberes Lohhaus","postalCode":"74915","locality":"Waibstadt","municipality":{"key":"08226091","name":"Waibstadt, Stadt","type":"Stadt"},"district":{"key":"08226","name":"Rhein-Neckar-Kreis","type":"Landkreis"},"federalState":{"key":"08","name":"Baden-Württemberg"}},{"name":"Ochsenstr.","postalCode":"74915","locality":"Waibstadt","municipality":{"key":"08226091","name":"Waibstadt, Stadt","type":"Stadt"},"district":{"key":"08226","name":"Rhein-Neckar-Kreis","type":"Landkreis"},"federalState":{"key":"08","name":"Baden-Württemberg"}},{"name":"Panoramaweg","postalCode":"74915","locality":"Waibstadt","municipality":{"key":"08226091","name":"Waibstadt, Stadt","type":"Stadt"},"district":{"key":"08226","name":"Rhein-Neckar-Kreis","type":"Landkreis"},"federalState":{"key":"08","name":"Baden-Württemberg"}},{"name":"Pestalozzistr.","postalCode":"74915","locality":"Waibstadt","municipality":{"key":"08226091","name":"Waibstadt, Stadt","type":"Stadt"},"district":{"key":"08226","name":"Rhein-Neckar-Kreis","type":"Landkreis"},"federalState":{"key":"08","name":"Baden-Württemberg"}},{"name":"Pfarrbergstr.","postalCode":"74915","locality":"Waibstadt","municipality":{"key":"08226091","name":"Waibstadt, Stadt","type":"Stadt"},"district":{"key":"08226","name":"Rhein-Neckar-Kreis","type":"Landkreis"},"federalState":{"key":"08","name":"Baden-Württemberg"}},{"name":"Pfarrstr.","postalCode":"74915","locality":"Waibstadt","municipality":{"key":"08226091","name":"Waibstadt, Stadt","type":"Stadt"},"district":{"key":"08226","name":"Rhein-Neckar-Kreis","type":"Landkreis"},"federalState":{"key":"08","name":"Baden-Württemberg"}},{"name":"Richard-Wagner-Str.","postalCode":"74915","locality":"Waibstadt","municipality":{"key":"08226091","name":"Waibstadt, Stadt","type":"Stadt"},"district":{"key":"08226","name":"Rhein-Neckar-Kreis","type":"Landkreis"},"federalState":{"key":"08","name":"Baden-Württemberg"}},{"name":"Ringstr.","postalCode":"74915","locality":"Waibstadt","municipality":{"key":"08226091","name":"Waibstadt, Stadt","type":"Stadt"},"district":{"key":"08226","name":"Rhein-Neckar-Kreis","type":"Landkreis"},"federalState":{"key":"08","name":"Baden-Württemberg"}},{"name":"Ritterstr.","postalCode":"74915","locality":"Waibstadt","municipality":{"key":"08226091","name":"Waibstadt, Stadt","type":"Stadt"},"district":{"key":"08226","name":"Rhein-Neckar-Kreis","type":"Landkreis"},"federalState":{"key":"08","name":"Baden-Württemberg"}},{"name":"Rohrbacher Weg","postalCode":"74915","locality":"Waibstadt","municipality":{"key":"08226091","name":"Waibstadt, Stadt","type":"Stadt"},"district":{"key":"08226","name":"Rhein-Neckar-Kreis","type":"Landkreis"},"federalState":{"key":"08","name":"Baden-Württemberg"}},{"name":"Römerweg","postalCode":"74915","locality":"Waibstadt","municipality":{"key":"08226091","name":"Waibstadt, Stadt","type":"Stadt"},"district":{"key":"08226","name":"Rhein-Neckar-Kreis","type":"Landkreis"},"federalState":{"key":"08","name":"Baden-Württemberg"}},{"name":"Rosenstr.","postalCode":"74915","locality":"Waibstadt","municipality":{"key":"08226091","name":"Waibstadt, Stadt","type":"Stadt"},"district":{"key":"08226","name":"Rhein-Neckar-Kreis","type":"Landkreis"},"federalState":{"key":"08","name":"Baden-Württemberg"}},{"name":"Saugrundweg","postalCode":"74915","locality":"Waibstadt","municipality":{"key":"08226091","name":"Waibstadt, Stadt","type":"Stadt"},"district":{"key":"08226","name":"Rhein-Neckar-Kreis","type":"Landkreis"},"federalState":{"key":"08","name":"Baden-Württemberg"}},{"name":"Schillerstr.","postalCode":"74915","locality":"Waibstadt","municipality":{"key":"08226091","name":"Waibstadt, Stadt","type":"Stadt"},"district":{"key":"08226","name":"Rhein-Neckar-Kreis","type":"Landkreis"},"federalState":{"key":"08","name":"Baden-Württemberg"}},{"name":"Schloßstr.","postalCode":"74915","locality":"Waibstadt","municipality":{"key":"08226091","name":"Waibstadt, Stadt","type":"Stadt"},"district":{"key":"08226","name":"Rhein-Neckar-Kreis","type":"Landkreis"},"federalState":{"key":"08","name":"Baden-Württemberg"}},{"name":"Schlüsselstr.","postalCode":"74915","locality":"Waibstadt","municipality":{"key":"08226091","name":"Waibstadt, Stadt","type":"Stadt"},"district":{"key":"08226","name":"Rhein-Neckar-Kreis","type":"Landkreis"},"federalState":{"key":"08","name":"Baden-Württemberg"}},{"name":"Schnurrbartweg","postalCode":"74915","locality":"Waibstadt","municipality":{"key":"08226091","name":"Waibstadt, Stadt","type":"Stadt"},"district":{"key":"08226","name":"Rhein-Neckar-Kreis","type":"Landkreis"},"federalState":{"key":"08","name":"Baden-Württemberg"}},{"name":"Schubertstr.","postalCode":"74915","locality":"Waibstadt","municipality":{"key":"08226091","name":"Waibstadt, Stadt","type":"Stadt"},"district":{"key":"08226","name":"Rhein-Neckar-Kreis","type":"Landkreis"},"federalState":{"key":"08","name":"Baden-Württemberg"}},{"name":"Schulstr.","postalCode":"74915","locality":"Waibstadt","municipality":{"key":"08226091","name":"Waibstadt, Stadt","type":"Stadt"},"district":{"key":"08226","name":"Rhein-Neckar-Kreis","type":"Landkreis"},"federalState":{"key":"08","name":"Baden-Württemberg"}},{"name":"Schwalbenweg","postalCode":"74915","locality":"Waibstadt","municipality":{"key":"08226091","name":"Waibstadt, Stadt","type":"Stadt"},"district":{"key":"08226","name":"Rhein-Neckar-Kreis","type":"Landkreis"},"federalState":{"key":"08","name":"Baden-Württemberg"}},{"name":"Siemensstr.","postalCode":"74915","locality":"Waibstadt","municipality":{"key":"08226091","name":"Waibstadt, Stadt","type":"Stadt"},"district":{"key":"08226","name":"Rhein-Neckar-Kreis","type":"Landkreis"},"federalState":{"key":"08","name":"Baden-Württemberg"}},{"name":"Silcherweg","postalCode":"74915","locality":"Waibstadt","municipality":{"key":"08226091","name":"Waibstadt, Stadt","type":"Stadt"},"district":{"key":"08226","name":"Rhein-Neckar-Kreis","type":"Landkreis"},"federalState":{"key":"08","name":"Baden-Württemberg"}},{"name":"Sinsheimer Weg","postalCode":"74915","locality":"Waibstadt","municipality":{"key":"08226091","name":"Waibstadt, Stadt","type":"Stadt"},"district":{"key":"08226","name":"Rhein-Neckar-Kreis","type":"Landkreis"},"federalState":{"key":"08","name":"Baden-Württemberg"}},{"name":"Speckerweg","postalCode":"74915","locality":"Waibstadt","municipality":{"key":"08226091","name":"Waibstadt, Stadt","type":"Stadt"},"district":{"key":"08226","name":"Rhein-Neckar-Kreis","type":"Landkreis"},"federalState":{"key":"08","name":"Baden-Württemberg"}},{"name":"Spitalstr.","postalCode":"74915","locality":"Waibstadt","municipality":{"key":"08226091","name":"Waibstadt, Stadt","type":"Stadt"},"district":{"key":"08226","name":"Rhein-Neckar-Kreis","type":"Landkreis"},"federalState":{"key":"08","name":"Baden-Württemberg"}},{"name":"Sportplatzweg","postalCode":"74915","locality":"Waibstadt","municipality":{"key":"08226091","name":"Waibstadt, Stadt","type":"Stadt"},"district":{"key":"08226","name":"Rhein-Neckar-Kreis","type":"Landkreis"},"federalState":{"key":"08","name":"Baden-Württemberg"}},{"name":"Steidigstr.","postalCode":"74915","locality":"Waibstadt","municipality":{"key":"08226091","name":"Waibstadt, Stadt","type":"Stadt"},"district":{"key":"08226","name":"Rhein-Neckar-Kreis","type":"Landkreis"},"federalState":{"key":"08","name":"Baden-Württemberg"}},{"name":"Stettiner Str.","postalCode":"74915","locality":"Waibstadt","municipality":{"key":"08226091","name":"Waibstadt, Stadt","type":"Stadt"},"district":{"key":"08226","name":"Rhein-Neckar-Kreis","type":"Landkreis"},"federalState":{"key":"08","name":"Baden-Württemberg"}},{"name":"Suhlweg","postalCode":"74915","locality":"Waibstadt","municipality":{"key":"08226091","name":"Waibstadt, Stadt","type":"Stadt"},"district":{"key":"08226","name":"Rhein-Neckar-Kreis","type":"Landkreis"},"federalState":{"key":"08","name":"Baden-Württemberg"}},{"name":"Suttenweg","postalCode":"74915","locality":"Waibstadt","municipality":{"key":"08226091","name":"Waibstadt, Stadt","type":"Stadt"},"district":{"key":"08226","name":"Rhein-Neckar-Kreis","type":"Landkreis"},"federalState":{"key":"08","name":"Baden-Württemberg"}},{"name":"Tulpenstr.","postalCode":"74915","locality":"Waibstadt","municipality":{"key":"08226091","name":"Waibstadt, Stadt","type":"Stadt"},"district":{"key":"08226","name":"Rhein-Neckar-Kreis","type":"Landkreis"},"federalState":{"key":"08","name":"Baden-Württemberg"}},{"name":"Uhlandstr.","postalCode":"74915","locality":"Waibstadt","municipality":{"key":"08226091","name":"Waibstadt, Stadt","type":"Stadt"},"district":{"key":"08226","name":"Rhein-Neckar-Kreis","type":"Landkreis"},"federalState":{"key":"08","name":"Baden-Württemberg"}},{"name":"Unteres Lohhaus","postalCode":"74915","locality":"Waibstadt","municipality":{"key":"08226091","name":"Waibstadt, Stadt","type":"Stadt"},"district":{"key":"08226","name":"Rhein-Neckar-Kreis","type":"Landkreis"},"federalState":{"key":"08","name":"Baden-Württemberg"}},{"name":"Veilchenweg","postalCode":"74915","locality":"Waibstadt","municipality":{"key":"08226091","name":"Waibstadt, Stadt","type":"Stadt"},"district":{"key":"08226","name":"Rhein-Neckar-Kreis","type":"Landkreis"},"federalState":{"key":"08","name":"Baden-Württemberg"}},{"name":"Vierlingstr.","postalCode":"74915","locality":"Waibstadt","municipality":{"key":"08226091","name":"Waibstadt, Stadt","type":"Stadt"},"district":{"key":"08226","name":"Rhein-Neckar-Kreis","type":"Landkreis"},"federalState":{"key":"08","name":"Baden-Württemberg"}},{"name":"Von-Eichendorff-Str.","postalCode":"74915","locality":"Waibstadt","municipality":{"key":"08226091","name":"Waibstadt, Stadt","type":"Stadt"},"district":{"key":"08226","name":"Rhein-Neckar-Kreis","type":"Landkreis"},"federalState":{"key":"08","name":"Baden-Württemberg"}},{"name":"Waibachstr.","postalCode":"74915","locality":"Waibstadt","municipality":{"key":"08226091","name":"Waibstadt, Stadt","type":"Stadt"},"district":{"key":"08226","name":"Rhein-Neckar-Kreis","type":"Landkreis"},"federalState":{"key":"08","name":"Baden-Württemberg"}},{"name":"Waibstadter Weg","postalCode":"74915","locality":"Waibstadt","municipality":{"key":"08226091","name":"Waibstadt, Stadt","type":"Stadt"},"district":{"key":"08226","name":"Rhein-Neckar-Kreis","type":"Landkreis"},"federalState":{"key":"08","name":"Baden-Württemberg"}},{"name":"Waldstr.","postalCode":"74915","locality":"Waibstadt","municipality":{"key":"08226091","name":"Waibstadt, Stadt","type":"Stadt"},"district":{"key":"08226","name":"Rhein-Neckar-Kreis","type":"Landkreis"},"federalState":{"key":"08","name":"Baden-Württemberg"}},{"name":"Waßenbuckelweg","postalCode":"74915","locality":"Waibstadt","municipality":{"key":"08226091","name":"Waibstadt, Stadt","type":"Stadt"},"district":{"key":"08226","name":"Rhein-Neckar-Kreis","type":"Landkreis"},"federalState":{"key":"08","name":"Baden-Württemberg"}},{"name":"Weinbergstr.","postalCode":"74915","locality":"Waibstadt","municipality":{"key":"08226091","name":"Waibstadt, Stadt","type":"Stadt"},"district":{"key":"08226","name":"Rhein-Neckar-Kreis","type":"Landkreis"},"federalState":{"key":"08","name":"Baden-Württemberg"}},{"name":"Weyerwiesenweg","postalCode":"74915","locality":"Waibstadt","municipality":{"key":"08226091","name":"Waibstadt, Stadt","type":"Stadt"},"district":{"key":"08226","name":"Rhein-Neckar-Kreis","type":"Landkreis"},"federalState":{"key":"08","name":"Baden-Württemberg"}},{"name":"Wiesenwaldstr.","postalCode":"74915","locality":"Waibstadt","municipality":{"key":"08226091","name":"Waibstadt, Stadt","type":"Stadt"},"district":{"key":"08226","name":"Rhein-Neckar-Kreis","type":"Landkreis"},"federalState":{"key":"08","name":"Baden-Württemberg"}},{"name":"Wiesenweg","postalCode":"74915","locality":"Waibstadt","municipality":{"key":"08226091","name":"Waibstadt, Stadt","type":"Stadt"},"district":{"key":"08226","name":"Rhein-Neckar-Kreis","type":"Landkreis"},"federalState":{"key":"08","name":"Baden-Württemberg"}},{"name":"Wolfstr.","postalCode":"74915","locality":"Waibstadt","municipality":{"key":"08226091","name":"Waibstadt, Stadt","type":"Stadt"},"district":{"key":"08226","name":"Rhein-Neckar-Kreis","type":"Landkreis"},"federalState":{"key":"08","name":"Baden-Württemberg"}},{"name":"Zeisigweg","postalCode":"74915","locality":"Waibstadt","municipality":{"key":"08226091","name":"Waibstadt, Stadt","type":"Stadt"},"district":{"key":"08226","name":"Rhein-Neckar-Kreis","type":"Landkreis"},"federalState":{"key":"08","name":"Baden-Württemberg"}},{"name":"Ziegelstr.","postalCode":"74915","locality":"Waibstadt","municipality":{"key":"08226091","name":"Waibstadt, Stadt","type":"Stadt"},"district":{"key":"08226","name":"Rhein-Neckar-Kreis","type":"Landkreis"},"federalState":{"key":"08","name":"Baden-Württemberg"}},]