[{"name":"Alemannenweg","postalCode":"76479","locality":"Steinmauern","municipality":{"key":"08216052","name":"Steinmauern","type":"Kreisangehörige_Gemeinde"},"district":{"key":"08216","name":"Rastatt","type":"Landkreis"},"federalState":{"key":"08","name":"Baden-Württemberg"}},{"name":"Am Murgdamm","postalCode":"76479","locality":"Steinmauern","municipality":{"key":"08216052","name":"Steinmauern","type":"Kreisangehörige_Gemeinde"},"district":{"key":"08216","name":"Rastatt","type":"Landkreis"},"federalState":{"key":"08","name":"Baden-Württemberg"}},{"name":"Am Rendelweg","postalCode":"76479","locality":"Steinmauern","municipality":{"key":"08216052","name":"Steinmauern","type":"Kreisangehörige_Gemeinde"},"district":{"key":"08216","name":"Rastatt","type":"Landkreis"},"federalState":{"key":"08","name":"Baden-Württemberg"}},{"name":"Am Sägewerk","postalCode":"76479","locality":"Steinmauern","municipality":{"key":"08216052","name":"Steinmauern","type":"Kreisangehörige_Gemeinde"},"district":{"key":"08216","name":"Rastatt","type":"Landkreis"},"federalState":{"key":"08","name":"Baden-Württemberg"}},{"name":"Am Sportplatz","postalCode":"76479","locality":"Steinmauern","municipality":{"key":"08216052","name":"Steinmauern","type":"Kreisangehörige_Gemeinde"},"district":{"key":"08216","name":"Rastatt","type":"Landkreis"},"federalState":{"key":"08","name":"Baden-Württemberg"}},{"name":"An der Bastil","postalCode":"76479","locality":"Steinmauern","municipality":{"key":"08216052","name":"Steinmauern","type":"Kreisangehörige_Gemeinde"},"district":{"key":"08216","name":"Rastatt","type":"Landkreis"},"federalState":{"key":"08","name":"Baden-Württemberg"}},{"name":"Apfelweg","postalCode":"76479","locality":"Steinmauern","municipality":{"key":"08216052","name":"Steinmauern","type":"Kreisangehörige_Gemeinde"},"district":{"key":"08216","name":"Rastatt","type":"Landkreis"},"federalState":{"key":"08","name":"Baden-Württemberg"}},{"name":"Binsenstr.","postalCode":"76479","locality":"Steinmauern","municipality":{"key":"08216052","name":"Steinmauern","type":"Kreisangehörige_Gemeinde"},"district":{"key":"08216","name":"Rastatt","type":"Landkreis"},"federalState":{"key":"08","name":"Baden-Württemberg"}},{"name":"Blumenstr.","postalCode":"76479","locality":"Steinmauern","municipality":{"key":"08216052","name":"Steinmauern","type":"Kreisangehörige_Gemeinde"},"district":{"key":"08216","name":"Rastatt","type":"Landkreis"},"federalState":{"key":"08","name":"Baden-Württemberg"}},{"name":"Breithölzerstr.","postalCode":"76479","locality":"Steinmauern","municipality":{"key":"08216052","name":"Steinmauern","type":"Kreisangehörige_Gemeinde"},"district":{"key":"08216","name":"Rastatt","type":"Landkreis"},"federalState":{"key":"08","name":"Baden-Württemberg"}},{"name":"Bruchweg","postalCode":"76479","locality":"Steinmauern","municipality":{"key":"08216052","name":"Steinmauern","type":"Kreisangehörige_Gemeinde"},"district":{"key":"08216","name":"Rastatt","type":"Landkreis"},"federalState":{"key":"08","name":"Baden-Württemberg"}},{"name":"Buchenallee","postalCode":"76479","locality":"Steinmauern","municipality":{"key":"08216052","name":"Steinmauern","type":"Kreisangehörige_Gemeinde"},"district":{"key":"08216","name":"Rastatt","type":"Landkreis"},"federalState":{"key":"08","name":"Baden-Württemberg"}},{"name":"Churchillweg","postalCode":"76479","locality":"Steinmauern","municipality":{"key":"08216052","name":"Steinmauern","type":"Kreisangehörige_Gemeinde"},"district":{"key":"08216","name":"Rastatt","type":"Landkreis"},"federalState":{"key":"08","name":"Baden-Württemberg"}},{"name":"Domänenweg","postalCode":"76479","locality":"Steinmauern","municipality":{"key":"08216052","name":"Steinmauern","type":"Kreisangehörige_Gemeinde"},"district":{"key":"08216","name":"Rastatt","type":"Landkreis"},"federalState":{"key":"08","name":"Baden-Württemberg"}},{"name":"Eichfeldstr.","postalCode":"76479","locality":"Steinmauern","municipality":{"key":"08216052","name":"Steinmauern","type":"Kreisangehörige_Gemeinde"},"district":{"key":"08216","name":"Rastatt","type":"Landkreis"},"federalState":{"key":"08","name":"Baden-Württemberg"}},{"name":"Elchesheimer Str.","postalCode":"76479","locality":"Steinmauern","municipality":{"key":"08216052","name":"Steinmauern","type":"Kreisangehörige_Gemeinde"},"district":{"key":"08216","name":"Rastatt","type":"Landkreis"},"federalState":{"key":"08","name":"Baden-Württemberg"}},{"name":"Fischerweg","postalCode":"76479","locality":"Steinmauern","municipality":{"key":"08216052","name":"Steinmauern","type":"Kreisangehörige_Gemeinde"},"district":{"key":"08216","name":"Rastatt","type":"Landkreis"},"federalState":{"key":"08","name":"Baden-Württemberg"}},{"name":"Flößerstr.","postalCode":"76479","locality":"Steinmauern","municipality":{"key":"08216052","name":"Steinmauern","type":"Kreisangehörige_Gemeinde"},"district":{"key":"08216","name":"Rastatt","type":"Landkreis"},"federalState":{"key":"08","name":"Baden-Württemberg"}},{"name":"Frankenweg","postalCode":"76479","locality":"Steinmauern","municipality":{"key":"08216052","name":"Steinmauern","type":"Kreisangehörige_Gemeinde"},"district":{"key":"08216","name":"Rastatt","type":"Landkreis"},"federalState":{"key":"08","name":"Baden-Württemberg"}},{"name":"Friedhofstr.","postalCode":"76479","locality":"Steinmauern","municipality":{"key":"08216052","name":"Steinmauern","type":"Kreisangehörige_Gemeinde"},"district":{"key":"08216","name":"Rastatt","type":"Landkreis"},"federalState":{"key":"08","name":"Baden-Württemberg"}},{"name":"Fuhrmanngasse","postalCode":"76479","locality":"Steinmauern","municipality":{"key":"08216052","name":"Steinmauern","type":"Kreisangehörige_Gemeinde"},"district":{"key":"08216","name":"Rastatt","type":"Landkreis"},"federalState":{"key":"08","name":"Baden-Württemberg"}},{"name":"Gartenstr.","postalCode":"76479","locality":"Steinmauern","municipality":{"key":"08216052","name":"Steinmauern","type":"Kreisangehörige_Gemeinde"},"district":{"key":"08216","name":"Rastatt","type":"Landkreis"},"federalState":{"key":"08","name":"Baden-Württemberg"}},{"name":"Goldwäscherweg","postalCode":"76479","locality":"Steinmauern","municipality":{"key":"08216052","name":"Steinmauern","type":"Kreisangehörige_Gemeinde"},"district":{"key":"08216","name":"Rastatt","type":"Landkreis"},"federalState":{"key":"08","name":"Baden-Württemberg"}},{"name":"Hauptstr.","postalCode":"76479","locality":"Steinmauern","municipality":{"key":"08216052","name":"Steinmauern","type":"Kreisangehörige_Gemeinde"},"district":{"key":"08216","name":"Rastatt","type":"Landkreis"},"federalState":{"key":"08","name":"Baden-Württemberg"}},{"name":"Hirtenweg","postalCode":"76479","locality":"Steinmauern","municipality":{"key":"08216052","name":"Steinmauern","type":"Kreisangehörige_Gemeinde"},"district":{"key":"08216","name":"Rastatt","type":"Landkreis"},"federalState":{"key":"08","name":"Baden-Württemberg"}},{"name":"Hoffelder Brücke","postalCode":"76479","locality":"Steinmauern","municipality":{"key":"08216052","name":"Steinmauern","type":"Kreisangehörige_Gemeinde"},"district":{"key":"08216","name":"Rastatt","type":"Landkreis"},"federalState":{"key":"08","name":"Baden-Württemberg"}},{"name":"Industriestr.","postalCode":"76479","locality":"Steinmauern","municipality":{"key":"08216052","name":"Steinmauern","type":"Kreisangehörige_Gemeinde"},"district":{"key":"08216","name":"Rastatt","type":"Landkreis"},"federalState":{"key":"08","name":"Baden-Württemberg"}},{"name":"Jahnallee","postalCode":"76437","locality":"Rastatt","municipality":{"key":"08216043","name":"Rastatt, Stadt","type":"Große_Kreisstadt"},"district":{"key":"08216","name":"Rastatt","type":"Landkreis"},"federalState":{"key":"08","name":"Baden-Württemberg"}},{"name":"Johann-Paul-Schlageter-Str.","postalCode":"76437","locality":"Rastatt","municipality":{"key":"08216043","name":"Rastatt, Stadt","type":"Große_Kreisstadt"},"district":{"key":"08216","name":"Rastatt","type":"Landkreis"},"federalState":{"key":"08","name":"Baden-Württemberg"}},{"name":"Johann Peter Frank-Str.","postalCode":"76437","locality":"Rastatt","municipality":{"key":"08216043","name":"Rastatt, Stadt","type":"Große_Kreisstadt"},"district":{"key":"08216","name":"Rastatt","type":"Landkreis"},"federalState":{"key":"08","name":"Baden-Württemberg"}},{"name":"Johann-Sebastian-Bach-Str.","postalCode":"76437","locality":"Rastatt","municipality":{"key":"08216043","name":"Rastatt, Stadt","type":"Große_Kreisstadt"},"district":{"key":"08216","name":"Rastatt","type":"Landkreis"},"federalState":{"key":"08","name":"Baden-Württemberg"}},{"name":"Josef-Bechtold-Str.","postalCode":"76437","locality":"Rastatt","municipality":{"key":"08216043","name":"Rastatt, Stadt","type":"Große_Kreisstadt"},"district":{"key":"08216","name":"Rastatt","type":"Landkreis"},"federalState":{"key":"08","name":"Baden-Württemberg"}},{"name":"Josef-Julius-Mayer-Str.","postalCode":"76437","locality":"Rastatt","municipality":{"key":"08216043","name":"Rastatt, Stadt","type":"Große_Kreisstadt"},"district":{"key":"08216","name":"Rastatt","type":"Landkreis"},"federalState":{"key":"08","name":"Baden-Württemberg"}},{"name":"Josef-Kilmarx-Str.","postalCode":"76437","locality":"Rastatt","municipality":{"key":"08216043","name":"Rastatt, Stadt","type":"Große_Kreisstadt"},"district":{"key":"08216","name":"Rastatt","type":"Landkreis"},"federalState":{"key":"08","name":"Baden-Württemberg"}},{"name":"Josefstr.","postalCode":"76437","locality":"Rastatt","municipality":{"key":"08216043","name":"Rastatt, Stadt","type":"Große_Kreisstadt"},"district":{"key":"08216","name":"Rastatt","type":"Landkreis"},"federalState":{"key":"08","name":"Baden-Württemberg"}},{"name":"Joseph-Loreye-Str.","postalCode":"76437","locality":"Rastatt","municipality":{"key":"08216043","name":"Rastatt, Stadt","type":"Große_Kreisstadt"},"district":{"key":"08216","name":"Rastatt","type":"Landkreis"},"federalState":{"key":"08","name":"Baden-Württemberg"}},{"name":"Joseph-von-Eichendorff-Weg","postalCode":"76437","locality":"Rastatt","municipality":{"key":"08216043","name":"Rastatt, Stadt","type":"Große_Kreisstadt"},"district":{"key":"08216","name":"Rastatt","type":"Landkreis"},"federalState":{"key":"08","name":"Baden-Württemberg"}},{"name":"Julius-Wertheimer-Str.","postalCode":"76437","locality":"Rastatt","municipality":{"key":"08216043","name":"Rastatt, Stadt","type":"Große_Kreisstadt"},"district":{"key":"08216","name":"Rastatt","type":"Landkreis"},"federalState":{"key":"08","name":"Baden-Württemberg"}},{"name":"Jupiterstr.","postalCode":"76437","locality":"Rastatt","municipality":{"key":"08216043","name":"Rastatt, Stadt","type":"Große_Kreisstadt"},"district":{"key":"08216","name":"Rastatt","type":"Landkreis"},"federalState":{"key":"08","name":"Baden-Württemberg"}},{"name":"Karl-Späth-Str.","postalCode":"76479","locality":"Steinmauern","municipality":{"key":"08216052","name":"Steinmauern","type":"Kreisangehörige_Gemeinde"},"district":{"key":"08216","name":"Rastatt","type":"Landkreis"},"federalState":{"key":"08","name":"Baden-Württemberg"}},{"name":"Kirchweg","postalCode":"76479","locality":"Steinmauern","municipality":{"key":"08216052","name":"Steinmauern","type":"Kreisangehörige_Gemeinde"},"district":{"key":"08216","name":"Rastatt","type":"Landkreis"},"federalState":{"key":"08","name":"Baden-Württemberg"}},{"name":"Kirschenweg","postalCode":"76479","locality":"Steinmauern","municipality":{"key":"08216052","name":"Steinmauern","type":"Kreisangehörige_Gemeinde"},"district":{"key":"08216","name":"Rastatt","type":"Landkreis"},"federalState":{"key":"08","name":"Baden-Württemberg"}},{"name":"Klauselsäcker","postalCode":"76479","locality":"Steinmauern","municipality":{"key":"08216052","name":"Steinmauern","type":"Kreisangehörige_Gemeinde"},"district":{"key":"08216","name":"Rastatt","type":"Landkreis"},"federalState":{"key":"08","name":"Baden-Württemberg"}},{"name":"Korbmacherweg","postalCode":"76479","locality":"Steinmauern","municipality":{"key":"08216052","name":"Steinmauern","type":"Kreisangehörige_Gemeinde"},"district":{"key":"08216","name":"Rastatt","type":"Landkreis"},"federalState":{"key":"08","name":"Baden-Württemberg"}},{"name":"Laurötterstr.","postalCode":"76479","locality":"Steinmauern","municipality":{"key":"08216052","name":"Steinmauern","type":"Kreisangehörige_Gemeinde"},"district":{"key":"08216","name":"Rastatt","type":"Landkreis"},"federalState":{"key":"08","name":"Baden-Württemberg"}},{"name":"Lindenstr.","postalCode":"76479","locality":"Steinmauern","municipality":{"key":"08216052","name":"Steinmauern","type":"Kreisangehörige_Gemeinde"},"district":{"key":"08216","name":"Rastatt","type":"Landkreis"},"federalState":{"key":"08","name":"Baden-Württemberg"}},{"name":"Murgdamm","postalCode":"76479","locality":"Steinmauern","municipality":{"key":"08216052","name":"Steinmauern","type":"Kreisangehörige_Gemeinde"},"district":{"key":"08216","name":"Rastatt","type":"Landkreis"},"federalState":{"key":"08","name":"Baden-Württemberg"}},{"name":"Murgstr.","postalCode":"76479","locality":"Steinmauern","municipality":{"key":"08216052","name":"Steinmauern","type":"Kreisangehörige_Gemeinde"},"district":{"key":"08216","name":"Rastatt","type":"Landkreis"},"federalState":{"key":"08","name":"Baden-Württemberg"}},{"name":"Niederzaistr.","postalCode":"76479","locality":"Steinmauern","municipality":{"key":"08216052","name":"Steinmauern","type":"Kreisangehörige_Gemeinde"},"district":{"key":"08216","name":"Rastatt","type":"Landkreis"},"federalState":{"key":"08","name":"Baden-Württemberg"}},{"name":"Oberwaldstr.","postalCode":"76437","locality":"Rastatt","municipality":{"key":"08216043","name":"Rastatt, Stadt","type":"Große_Kreisstadt"},"district":{"key":"08216","name":"Rastatt","type":"Landkreis"},"federalState":{"key":"08","name":"Baden-Württemberg"}},{"name":"Odenwaldstr.","postalCode":"76437","locality":"Rastatt","municipality":{"key":"08216043","name":"Rastatt, Stadt","type":"Große_Kreisstadt"},"district":{"key":"08216","name":"Rastatt","type":"Landkreis"},"federalState":{"key":"08","name":"Baden-Württemberg"}},{"name":"Oosbachweg","postalCode":"76437","locality":"Rastatt","municipality":{"key":"08216043","name":"Rastatt, Stadt","type":"Große_Kreisstadt"},"district":{"key":"08216","name":"Rastatt","type":"Landkreis"},"federalState":{"key":"08","name":"Baden-Württemberg"}},{"name":"Oppelner Str.","postalCode":"76437","locality":"Rastatt","municipality":{"key":"08216043","name":"Rastatt, Stadt","type":"Große_Kreisstadt"},"district":{"key":"08216","name":"Rastatt","type":"Landkreis"},"federalState":{"key":"08","name":"Baden-Württemberg"}},{"name":"Orchideenstr.","postalCode":"76437","locality":"Rastatt","municipality":{"key":"08216043","name":"Rastatt, Stadt","type":"Große_Kreisstadt"},"district":{"key":"08216","name":"Rastatt","type":"Landkreis"},"federalState":{"key":"08","name":"Baden-Württemberg"}},{"name":"Ostmarkstr.","postalCode":"76437","locality":"Rastatt","municipality":{"key":"08216043","name":"Rastatt, Stadt","type":"Große_Kreisstadt"},"district":{"key":"08216","name":"Rastatt","type":"Landkreis"},"federalState":{"key":"08","name":"Baden-Württemberg"}},{"name":"Ostring","postalCode":"76437","locality":"Rastatt","municipality":{"key":"08216043","name":"Rastatt, Stadt","type":"Große_Kreisstadt"},"district":{"key":"08216","name":"Rastatt","type":"Landkreis"},"federalState":{"key":"08","name":"Baden-Württemberg"}},{"name":"Oststr.","postalCode":"76437","locality":"Rastatt","municipality":{"key":"08216043","name":"Rastatt, Stadt","type":"Große_Kreisstadt"},"district":{"key":"08216","name":"Rastatt","type":"Landkreis"},"federalState":{"key":"08","name":"Baden-Württemberg"}},{"name":"Ottersdorfer Str.","postalCode":"76437","locality":"Rastatt","municipality":{"key":"08216043","name":"Rastatt, Stadt","type":"Große_Kreisstadt"},"district":{"key":"08216","name":"Rastatt","type":"Landkreis"},"federalState":{"key":"08","name":"Baden-Württemberg"}},{"name":"Otto-Dix-Str.","postalCode":"76437","locality":"Rastatt","municipality":{"key":"08216043","name":"Rastatt, Stadt","type":"Große_Kreisstadt"},"district":{"key":"08216","name":"Rastatt","type":"Landkreis"},"federalState":{"key":"08","name":"Baden-Württemberg"}},{"name":"Otto-Stegmüller-Weg","postalCode":"76437","locality":"Rastatt","municipality":{"key":"08216043","name":"Rastatt, Stadt","type":"Große_Kreisstadt"},"district":{"key":"08216","name":"Rastatt","type":"Landkreis"},"federalState":{"key":"08","name":"Baden-Württemberg"}},{"name":"Otto-von-Corvin-Str.","postalCode":"76437","locality":"Rastatt","municipality":{"key":"08216043","name":"Rastatt, Stadt","type":"Große_Kreisstadt"},"district":{"key":"08216","name":"Rastatt","type":"Landkreis"},"federalState":{"key":"08","name":"Baden-Württemberg"}},{"name":"Plittersdorfer Str.","postalCode":"76479","locality":"Steinmauern","municipality":{"key":"08216052","name":"Steinmauern","type":"Kreisangehörige_Gemeinde"},"district":{"key":"08216","name":"Rastatt","type":"Landkreis"},"federalState":{"key":"08","name":"Baden-Württemberg"}},{"name":"Rheinstr.","postalCode":"76479","locality":"Steinmauern","municipality":{"key":"08216052","name":"Steinmauern","type":"Kreisangehörige_Gemeinde"},"district":{"key":"08216","name":"Rastatt","type":"Landkreis"},"federalState":{"key":"08","name":"Baden-Württemberg"}},{"name":"Rosenstr.","postalCode":"76479","locality":"Steinmauern","municipality":{"key":"08216052","name":"Steinmauern","type":"Kreisangehörige_Gemeinde"},"district":{"key":"08216","name":"Rastatt","type":"Landkreis"},"federalState":{"key":"08","name":"Baden-Württemberg"}},{"name":"Schilfweg","postalCode":"76479","locality":"Steinmauern","municipality":{"key":"08216052","name":"Steinmauern","type":"Kreisangehörige_Gemeinde"},"district":{"key":"08216","name":"Rastatt","type":"Landkreis"},"federalState":{"key":"08","name":"Baden-Württemberg"}},{"name":"Schmiedgasse","postalCode":"76479","locality":"Steinmauern","municipality":{"key":"08216052","name":"Steinmauern","type":"Kreisangehörige_Gemeinde"},"district":{"key":"08216","name":"Rastatt","type":"Landkreis"},"federalState":{"key":"08","name":"Baden-Württemberg"}},{"name":"Schustergasse","postalCode":"76479","locality":"Steinmauern","municipality":{"key":"08216052","name":"Steinmauern","type":"Kreisangehörige_Gemeinde"},"district":{"key":"08216","name":"Rastatt","type":"Landkreis"},"federalState":{"key":"08","name":"Baden-Württemberg"}},{"name":"Silberaustr.","postalCode":"76479","locality":"Steinmauern","municipality":{"key":"08216052","name":"Steinmauern","type":"Kreisangehörige_Gemeinde"},"district":{"key":"08216","name":"Rastatt","type":"Landkreis"},"federalState":{"key":"08","name":"Baden-Württemberg"}},{"name":"Spichstr.","postalCode":"76479","locality":"Steinmauern","municipality":{"key":"08216052","name":"Steinmauern","type":"Kreisangehörige_Gemeinde"},"district":{"key":"08216","name":"Rastatt","type":"Landkreis"},"federalState":{"key":"08","name":"Baden-Württemberg"}},{"name":"Steinäcker","postalCode":"76479","locality":"Steinmauern","municipality":{"key":"08216052","name":"Steinmauern","type":"Kreisangehörige_Gemeinde"},"district":{"key":"08216","name":"Rastatt","type":"Landkreis"},"federalState":{"key":"08","name":"Baden-Württemberg"}},{"name":"Tullastr.","postalCode":"76479","locality":"Steinmauern","municipality":{"key":"08216052","name":"Steinmauern","type":"Kreisangehörige_Gemeinde"},"district":{"key":"08216","name":"Rastatt","type":"Landkreis"},"federalState":{"key":"08","name":"Baden-Württemberg"}},{"name":"Uchtweg","postalCode":"76437","locality":"Rastatt","municipality":{"key":"08216043","name":"Rastatt, Stadt","type":"Große_Kreisstadt"},"district":{"key":"08216","name":"Rastatt","type":"Landkreis"},"federalState":{"key":"08","name":"Baden-Württemberg"}},{"name":"Uhlandstr.","postalCode":"76437","locality":"Rastatt","municipality":{"key":"08216043","name":"Rastatt, Stadt","type":"Große_Kreisstadt"},"district":{"key":"08216","name":"Rastatt","type":"Landkreis"},"federalState":{"key":"08","name":"Baden-Württemberg"}},{"name":"Ulmenstr.","postalCode":"76437","locality":"Rastatt","municipality":{"key":"08216043","name":"Rastatt, Stadt","type":"Große_Kreisstadt"},"district":{"key":"08216","name":"Rastatt","type":"Landkreis"},"federalState":{"key":"08","name":"Baden-Württemberg"}},{"name":"Unnenheimer Weg","postalCode":"76437","locality":"Rastatt","municipality":{"key":"08216043","name":"Rastatt, Stadt","type":"Große_Kreisstadt"},"district":{"key":"08216","name":"Rastatt","type":"Landkreis"},"federalState":{"key":"08","name":"Baden-Württemberg"}},{"name":"Untere Stauschleusenbrücke","postalCode":"76437","locality":"Rastatt","municipality":{"key":"08216043","name":"Rastatt, Stadt","type":"Große_Kreisstadt"},"district":{"key":"08216","name":"Rastatt","type":"Landkreis"},"federalState":{"key":"08","name":"Baden-Württemberg"}},{"name":"Untere Wiesen","postalCode":"76437","locality":"Rastatt","municipality":{"key":"08216043","name":"Rastatt, Stadt","type":"Große_Kreisstadt"},"district":{"key":"08216","name":"Rastatt","type":"Landkreis"},"federalState":{"key":"08","name":"Baden-Württemberg"}},{"name":"Ursula-Comlossi-Weg","postalCode":"76437","locality":"Rastatt","municipality":{"key":"08216043","name":"Rastatt, Stadt","type":"Große_Kreisstadt"},"district":{"key":"08216","name":"Rastatt","type":"Landkreis"},"federalState":{"key":"08","name":"Baden-Württemberg"}},{"name":"Viehtriebweg","postalCode":"76479","locality":"Steinmauern","municipality":{"key":"08216052","name":"Steinmauern","type":"Kreisangehörige_Gemeinde"},"district":{"key":"08216","name":"Rastatt","type":"Landkreis"},"federalState":{"key":"08","name":"Baden-Württemberg"}},{"name":"Webergasse","postalCode":"76479","locality":"Steinmauern","municipality":{"key":"08216052","name":"Steinmauern","type":"Kreisangehörige_Gemeinde"},"district":{"key":"08216","name":"Rastatt","type":"Landkreis"},"federalState":{"key":"08","name":"Baden-Württemberg"}},{"name":"Wiesenstr.","postalCode":"76479","locality":"Steinmauern","municipality":{"key":"08216052","name":"Steinmauern","type":"Kreisangehörige_Gemeinde"},"district":{"key":"08216","name":"Rastatt","type":"Landkreis"},"federalState":{"key":"08","name":"Baden-Württemberg"}},{"name":"Wörtwiese","postalCode":"76479","locality":"Steinmauern","municipality":{"key":"08216052","name":"Steinmauern","type":"Kreisangehörige_Gemeinde"},"district":{"key":"08216","name":"Rastatt","type":"Landkreis"},"federalState":{"key":"08","name":"Baden-Württemberg"}},{"name":"Zu den Waldäckern","postalCode":"76479","locality":"Steinmauern","municipality":{"key":"08216052","name":"Steinmauern","type":"Kreisangehörige_Gemeinde"},"district":{"key":"08216","name":"Rastatt","type":"Landkreis"},"federalState":{"key":"08","name":"Baden-Württemberg"}},{"name":"Ötigheimer Str.","postalCode":"76479","locality":"Steinmauern","municipality":{"key":"08216052","name":"Steinmauern","type":"Kreisangehörige_Gemeinde"},"district":{"key":"08216","name":"Rastatt","type":"Landkreis"},"federalState":{"key":"08","name":"Baden-Württemberg"}},]