[{"name":"Ahornstr.","postalCode":"83679","locality":"Sachsenkam","municipality":{"key":"09173141","name":"Sachsenkam","type":"Kreisangehörige_Gemeinde"},"district":{"key":"09173","name":"Bad Tölz-Wolfratshausen","type":"Landkreis"},"federalState":{"key":"09","name":"Bayern"}},{"name":"Alpenblickstr.","postalCode":"83679","locality":"Sachsenkam","municipality":{"key":"09173141","name":"Sachsenkam","type":"Kreisangehörige_Gemeinde"},"district":{"key":"09173","name":"Bad Tölz-Wolfratshausen","type":"Landkreis"},"federalState":{"key":"09","name":"Bayern"}},{"name":"Am Eisenberg","postalCode":"83679","locality":"Sachsenkam","municipality":{"key":"09173141","name":"Sachsenkam","type":"Kreisangehörige_Gemeinde"},"district":{"key":"09173","name":"Bad Tölz-Wolfratshausen","type":"Landkreis"},"federalState":{"key":"09","name":"Bayern"}},{"name":"Am Feiglbichl","postalCode":"83679","locality":"Sachsenkam","municipality":{"key":"09173141","name":"Sachsenkam","type":"Kreisangehörige_Gemeinde"},"district":{"key":"09173","name":"Bad Tölz-Wolfratshausen","type":"Landkreis"},"federalState":{"key":"09","name":"Bayern"}},{"name":"Am Mühlweiher","postalCode":"83679","locality":"Sachsenkam","municipality":{"key":"09173141","name":"Sachsenkam","type":"Kreisangehörige_Gemeinde"},"district":{"key":"09173","name":"Bad Tölz-Wolfratshausen","type":"Landkreis"},"federalState":{"key":"09","name":"Bayern"}},{"name":"Andreas-Lettner-Str.","postalCode":"83679","locality":"Sachsenkam","municipality":{"key":"09173141","name":"Sachsenkam","type":"Kreisangehörige_Gemeinde"},"district":{"key":"09173","name":"Bad Tölz-Wolfratshausen","type":"Landkreis"},"federalState":{"key":"09","name":"Bayern"}},{"name":"Angerweg","postalCode":"83679","locality":"Sachsenkam","municipality":{"key":"09173141","name":"Sachsenkam","type":"Kreisangehörige_Gemeinde"},"district":{"key":"09173","name":"Bad Tölz-Wolfratshausen","type":"Landkreis"},"federalState":{"key":"09","name":"Bayern"}},{"name":"Bergstr.","postalCode":"83679","locality":"Sachsenkam","municipality":{"key":"09173141","name":"Sachsenkam","type":"Kreisangehörige_Gemeinde"},"district":{"key":"09173","name":"Bad Tölz-Wolfratshausen","type":"Landkreis"},"federalState":{"key":"09","name":"Bayern"}},{"name":"Birkenstr.","postalCode":"83679","locality":"Sachsenkam","municipality":{"key":"09173141","name":"Sachsenkam","type":"Kreisangehörige_Gemeinde"},"district":{"key":"09173","name":"Bad Tölz-Wolfratshausen","type":"Landkreis"},"federalState":{"key":"09","name":"Bayern"}},{"name":"Erlenstr.","postalCode":"83679","locality":"Sachsenkam","municipality":{"key":"09173141","name":"Sachsenkam","type":"Kreisangehörige_Gemeinde"},"district":{"key":"09173","name":"Bad Tölz-Wolfratshausen","type":"Landkreis"},"federalState":{"key":"09","name":"Bayern"}},{"name":"Florianstr.","postalCode":"83679","locality":"Sachsenkam","municipality":{"key":"09173141","name":"Sachsenkam","type":"Kreisangehörige_Gemeinde"},"district":{"key":"09173","name":"Bad Tölz-Wolfratshausen","type":"Landkreis"},"federalState":{"key":"09","name":"Bayern"}},{"name":"Grünbichlstr.","postalCode":"83679","locality":"Sachsenkam","municipality":{"key":"09173141","name":"Sachsenkam","type":"Kreisangehörige_Gemeinde"},"district":{"key":"09173","name":"Bad Tölz-Wolfratshausen","type":"Landkreis"},"federalState":{"key":"09","name":"Bayern"}},{"name":"Holzkirchner Str.","postalCode":"83679","locality":"Sachsenkam","municipality":{"key":"09173141","name":"Sachsenkam","type":"Kreisangehörige_Gemeinde"},"district":{"key":"09173","name":"Bad Tölz-Wolfratshausen","type":"Landkreis"},"federalState":{"key":"09","name":"Bayern"}},{"name":"Kirchbichler Str.","postalCode":"83679","locality":"Sachsenkam","municipality":{"key":"09173141","name":"Sachsenkam","type":"Kreisangehörige_Gemeinde"},"district":{"key":"09173","name":"Bad Tölz-Wolfratshausen","type":"Landkreis"},"federalState":{"key":"09","name":"Bayern"}},{"name":"Kirchseestr.","postalCode":"83679","locality":"Sachsenkam","municipality":{"key":"09173141","name":"Sachsenkam","type":"Kreisangehörige_Gemeinde"},"district":{"key":"09173","name":"Bad Tölz-Wolfratshausen","type":"Landkreis"},"federalState":{"key":"09","name":"Bayern"}},{"name":"Kirchstr.","postalCode":"83679","locality":"Sachsenkam","municipality":{"key":"09173141","name":"Sachsenkam","type":"Kreisangehörige_Gemeinde"},"district":{"key":"09173","name":"Bad Tölz-Wolfratshausen","type":"Landkreis"},"federalState":{"key":"09","name":"Bayern"}},{"name":"Lindenstr.","postalCode":"83679","locality":"Sachsenkam","municipality":{"key":"09173141","name":"Sachsenkam","type":"Kreisangehörige_Gemeinde"},"district":{"key":"09173","name":"Bad Tölz-Wolfratshausen","type":"Landkreis"},"federalState":{"key":"09","name":"Bayern"}},{"name":"Mönchstr.","postalCode":"83679","locality":"Sachsenkam","municipality":{"key":"09173141","name":"Sachsenkam","type":"Kreisangehörige_Gemeinde"},"district":{"key":"09173","name":"Bad Tölz-Wolfratshausen","type":"Landkreis"},"federalState":{"key":"09","name":"Bayern"}},{"name":"Piesenkamer Str.","postalCode":"83679","locality":"Sachsenkam","municipality":{"key":"09173141","name":"Sachsenkam","type":"Kreisangehörige_Gemeinde"},"district":{"key":"09173","name":"Bad Tölz-Wolfratshausen","type":"Landkreis"},"federalState":{"key":"09","name":"Bayern"}},{"name":"Raiffeisenstr.","postalCode":"83679","locality":"Sachsenkam","municipality":{"key":"09173141","name":"Sachsenkam","type":"Kreisangehörige_Gemeinde"},"district":{"key":"09173","name":"Bad Tölz-Wolfratshausen","type":"Landkreis"},"federalState":{"key":"09","name":"Bayern"}},{"name":"Rauchenbergstr.","postalCode":"83679","locality":"Sachsenkam","municipality":{"key":"09173141","name":"Sachsenkam","type":"Kreisangehörige_Gemeinde"},"district":{"key":"09173","name":"Bad Tölz-Wolfratshausen","type":"Landkreis"},"federalState":{"key":"09","name":"Bayern"}},{"name":"Rechelkopfstr.","postalCode":"83679","locality":"Sachsenkam","municipality":{"key":"09173141","name":"Sachsenkam","type":"Kreisangehörige_Gemeinde"},"district":{"key":"09173","name":"Bad Tölz-Wolfratshausen","type":"Landkreis"},"federalState":{"key":"09","name":"Bayern"}},{"name":"Reutbergstr.","postalCode":"83679","locality":"Sachsenkam","municipality":{"key":"09173141","name":"Sachsenkam","type":"Kreisangehörige_Gemeinde"},"district":{"key":"09173","name":"Bad Tölz-Wolfratshausen","type":"Landkreis"},"federalState":{"key":"09","name":"Bayern"}},{"name":"Schaftlacher Str.","postalCode":"83679","locality":"Sachsenkam","municipality":{"key":"09173141","name":"Sachsenkam","type":"Kreisangehörige_Gemeinde"},"district":{"key":"09173","name":"Bad Tölz-Wolfratshausen","type":"Landkreis"},"federalState":{"key":"09","name":"Bayern"}},{"name":"Schönbichlstr.","postalCode":"83679","locality":"Sachsenkam","municipality":{"key":"09173141","name":"Sachsenkam","type":"Kreisangehörige_Gemeinde"},"district":{"key":"09173","name":"Bad Tölz-Wolfratshausen","type":"Landkreis"},"federalState":{"key":"09","name":"Bayern"}},{"name":"Schulweg","postalCode":"83679","locality":"Sachsenkam","municipality":{"key":"09173141","name":"Sachsenkam","type":"Kreisangehörige_Gemeinde"},"district":{"key":"09173","name":"Bad Tölz-Wolfratshausen","type":"Landkreis"},"federalState":{"key":"09","name":"Bayern"}},{"name":"Setzbergstr.","postalCode":"83679","locality":"Sachsenkam","municipality":{"key":"09173141","name":"Sachsenkam","type":"Kreisangehörige_Gemeinde"},"district":{"key":"09173","name":"Bad Tölz-Wolfratshausen","type":"Landkreis"},"federalState":{"key":"09","name":"Bayern"}},{"name":"Stubenbachstr.","postalCode":"83679","locality":"Sachsenkam","municipality":{"key":"09173141","name":"Sachsenkam","type":"Kreisangehörige_Gemeinde"},"district":{"key":"09173","name":"Bad Tölz-Wolfratshausen","type":"Landkreis"},"federalState":{"key":"09","name":"Bayern"}},{"name":"Tegernseer Weg","postalCode":"83679","locality":"Sachsenkam","municipality":{"key":"09173141","name":"Sachsenkam","type":"Kreisangehörige_Gemeinde"},"district":{"key":"09173","name":"Bad Tölz-Wolfratshausen","type":"Landkreis"},"federalState":{"key":"09","name":"Bayern"}},{"name":"Tölzer Str.","postalCode":"83679","locality":"Sachsenkam","municipality":{"key":"09173141","name":"Sachsenkam","type":"Kreisangehörige_Gemeinde"},"district":{"key":"09173","name":"Bad Tölz-Wolfratshausen","type":"Landkreis"},"federalState":{"key":"09","name":"Bayern"}},{"name":"Waakirchener Str.","postalCode":"83679","locality":"Sachsenkam","municipality":{"key":"09173141","name":"Sachsenkam","type":"Kreisangehörige_Gemeinde"},"district":{"key":"09173","name":"Bad Tölz-Wolfratshausen","type":"Landkreis"},"federalState":{"key":"09","name":"Bayern"}},{"name":"Wagleitenstr.","postalCode":"83679","locality":"Sachsenkam","municipality":{"key":"09173141","name":"Sachsenkam","type":"Kreisangehörige_Gemeinde"},"district":{"key":"09173","name":"Bad Tölz-Wolfratshausen","type":"Landkreis"},"federalState":{"key":"09","name":"Bayern"}},{"name":"Wallbergstr.","postalCode":"83679","locality":"Sachsenkam","municipality":{"key":"09173141","name":"Sachsenkam","type":"Kreisangehörige_Gemeinde"},"district":{"key":"09173","name":"Bad Tölz-Wolfratshausen","type":"Landkreis"},"federalState":{"key":"09","name":"Bayern"}},{"name":"Winzererstr.","postalCode":"83679","locality":"Sachsenkam","municipality":{"key":"09173141","name":"Sachsenkam","type":"Kreisangehörige_Gemeinde"},"district":{"key":"09173","name":"Bad Tölz-Wolfratshausen","type":"Landkreis"},"federalState":{"key":"09","name":"Bayern"}},]