[{"name":"Am Barsberg","postalCode":"53539","locality":"Bongard","municipality":{"key":"07233206","name":"Bongard","type":"Kreisangehörige_Gemeinde"},"district":{"key":"07233","name":"Vulkaneifel","type":"Landkreis"},"federalState":{"key":"07","name":"Rheinland-Pfalz"}},{"name":"Auf der Held","postalCode":"53539","locality":"Bongard","municipality":{"key":"07233206","name":"Bongard","type":"Kreisangehörige_Gemeinde"},"district":{"key":"07233","name":"Vulkaneifel","type":"Landkreis"},"federalState":{"key":"07","name":"Rheinland-Pfalz"}},{"name":"Auf der Koppelwiese","postalCode":"53539","locality":"Bongard","municipality":{"key":"07233206","name":"Bongard","type":"Kreisangehörige_Gemeinde"},"district":{"key":"07233","name":"Vulkaneifel","type":"Landkreis"},"federalState":{"key":"07","name":"Rheinland-Pfalz"}},{"name":"Blankenheimer Str.","postalCode":"53539","locality":"Bongard","municipality":{"key":"07233206","name":"Bongard","type":"Kreisangehörige_Gemeinde"},"district":{"key":"07233","name":"Vulkaneifel","type":"Landkreis"},"federalState":{"key":"07","name":"Rheinland-Pfalz"}},{"name":"Bodenbacher Str.","postalCode":"53539","locality":"Bongard","municipality":{"key":"07233206","name":"Bongard","type":"Kreisangehörige_Gemeinde"},"district":{"key":"07233","name":"Vulkaneifel","type":"Landkreis"},"federalState":{"key":"07","name":"Rheinland-Pfalz"}},{"name":"Brücker Str.","postalCode":"53539","locality":"Bongard","municipality":{"key":"07233206","name":"Bongard","type":"Kreisangehörige_Gemeinde"},"district":{"key":"07233","name":"Vulkaneifel","type":"Landkreis"},"federalState":{"key":"07","name":"Rheinland-Pfalz"}},{"name":"Gartenstr.","postalCode":"53539","locality":"Bongard","municipality":{"key":"07233206","name":"Bongard","type":"Kreisangehörige_Gemeinde"},"district":{"key":"07233","name":"Vulkaneifel","type":"Landkreis"},"federalState":{"key":"07","name":"Rheinland-Pfalz"}},{"name":"Im Fallgarten","postalCode":"53539","locality":"Bongard","municipality":{"key":"07233206","name":"Bongard","type":"Kreisangehörige_Gemeinde"},"district":{"key":"07233","name":"Vulkaneifel","type":"Landkreis"},"federalState":{"key":"07","name":"Rheinland-Pfalz"}},{"name":"Im Roter Garten","postalCode":"53539","locality":"Bongard","municipality":{"key":"07233206","name":"Bongard","type":"Kreisangehörige_Gemeinde"},"district":{"key":"07233","name":"Vulkaneifel","type":"Landkreis"},"federalState":{"key":"07","name":"Rheinland-Pfalz"}},{"name":"Im Strötchen","postalCode":"53539","locality":"Bongard","municipality":{"key":"07233206","name":"Bongard","type":"Kreisangehörige_Gemeinde"},"district":{"key":"07233","name":"Vulkaneifel","type":"Landkreis"},"federalState":{"key":"07","name":"Rheinland-Pfalz"}},{"name":"Im Wolfswieschen","postalCode":"53539","locality":"Bongard","municipality":{"key":"07233206","name":"Bongard","type":"Kreisangehörige_Gemeinde"},"district":{"key":"07233","name":"Vulkaneifel","type":"Landkreis"},"federalState":{"key":"07","name":"Rheinland-Pfalz"}},{"name":"In der Hohl","postalCode":"53539","locality":"Bongard","municipality":{"key":"07233206","name":"Bongard","type":"Kreisangehörige_Gemeinde"},"district":{"key":"07233","name":"Vulkaneifel","type":"Landkreis"},"federalState":{"key":"07","name":"Rheinland-Pfalz"}},{"name":"Schulweg","postalCode":"53539","locality":"Bongard","municipality":{"key":"07233206","name":"Bongard","type":"Kreisangehörige_Gemeinde"},"district":{"key":"07233","name":"Vulkaneifel","type":"Landkreis"},"federalState":{"key":"07","name":"Rheinland-Pfalz"}},]