[{"name":"Am Farnröder Wege","postalCode":"99848","locality":"Wutha-Farnroda","municipality":{"key":"16063092","name":"Wutha-Farnroda","type":"Kreisangehörige_Gemeinde"},"district":{"key":"16063","name":"Wartburgkreis","type":"Landkreis"},"federalState":{"key":"16","name":"Thüringen"}},{"name":"Am Grasrain","postalCode":"99848","locality":"Wutha-Farnroda","municipality":{"key":"16063092","name":"Wutha-Farnroda","type":"Kreisangehörige_Gemeinde"},"district":{"key":"16063","name":"Wartburgkreis","type":"Landkreis"},"federalState":{"key":"16","name":"Thüringen"}},{"name":"Am Herrenstück","postalCode":"99848","locality":"Wutha-Farnroda","municipality":{"key":"16063092","name":"Wutha-Farnroda","type":"Kreisangehörige_Gemeinde"},"district":{"key":"16063","name":"Wartburgkreis","type":"Landkreis"},"federalState":{"key":"16","name":"Thüringen"}},{"name":"Am Rotberg","postalCode":"99848","locality":"Wutha-Farnroda","municipality":{"key":"16063092","name":"Wutha-Farnroda","type":"Kreisangehörige_Gemeinde"},"district":{"key":"16063","name":"Wartburgkreis","type":"Landkreis"},"federalState":{"key":"16","name":"Thüringen"}},{"name":"Am Ruhlaer Berg","postalCode":"99848","locality":"Wutha-Farnroda","municipality":{"key":"16063092","name":"Wutha-Farnroda","type":"Kreisangehörige_Gemeinde"},"district":{"key":"16063","name":"Wartburgkreis","type":"Landkreis"},"federalState":{"key":"16","name":"Thüringen"}},{"name":"Am Schunkenhofe","postalCode":"99848","locality":"Wutha-Farnroda","municipality":{"key":"16063092","name":"Wutha-Farnroda","type":"Kreisangehörige_Gemeinde"},"district":{"key":"16063","name":"Wartburgkreis","type":"Landkreis"},"federalState":{"key":"16","name":"Thüringen"}},{"name":"Am Sieden","postalCode":"99848","locality":"Wutha-Farnroda","municipality":{"key":"16063092","name":"Wutha-Farnroda","type":"Kreisangehörige_Gemeinde"},"district":{"key":"16063","name":"Wartburgkreis","type":"Landkreis"},"federalState":{"key":"16","name":"Thüringen"}},{"name":"Am Steinacker","postalCode":"99848","locality":"Wutha-Farnroda","municipality":{"key":"16063092","name":"Wutha-Farnroda","type":"Kreisangehörige_Gemeinde"},"district":{"key":"16063","name":"Wartburgkreis","type":"Landkreis"},"federalState":{"key":"16","name":"Thüringen"}},{"name":"Am Taubenacker","postalCode":"99848","locality":"Wutha-Farnroda","municipality":{"key":"16063092","name":"Wutha-Farnroda","type":"Kreisangehörige_Gemeinde"},"district":{"key":"16063","name":"Wartburgkreis","type":"Landkreis"},"federalState":{"key":"16","name":"Thüringen"}},{"name":"Auf dem Mölmen","postalCode":"99848","locality":"Wutha-Farnroda","municipality":{"key":"16063092","name":"Wutha-Farnroda","type":"Kreisangehörige_Gemeinde"},"district":{"key":"16063","name":"Wartburgkreis","type":"Landkreis"},"federalState":{"key":"16","name":"Thüringen"}},{"name":"Auf der Hutweide","postalCode":"99848","locality":"Wutha-Farnroda","municipality":{"key":"16063092","name":"Wutha-Farnroda","type":"Kreisangehörige_Gemeinde"},"district":{"key":"16063","name":"Wartburgkreis","type":"Landkreis"},"federalState":{"key":"16","name":"Thüringen"}},{"name":"Bahnhofsplatz","postalCode":"99848","locality":"Wutha-Farnroda","municipality":{"key":"16063092","name":"Wutha-Farnroda","type":"Kreisangehörige_Gemeinde"},"district":{"key":"16063","name":"Wartburgkreis","type":"Landkreis"},"federalState":{"key":"16","name":"Thüringen"}},{"name":"Bahnhofstr.","postalCode":"99848","locality":"Wutha-Farnroda","municipality":{"key":"16063092","name":"Wutha-Farnroda","type":"Kreisangehörige_Gemeinde"},"district":{"key":"16063","name":"Wartburgkreis","type":"Landkreis"},"federalState":{"key":"16","name":"Thüringen"}},{"name":"Bergstr.","postalCode":"99848","locality":"Wutha-Farnroda","municipality":{"key":"16063092","name":"Wutha-Farnroda","type":"Kreisangehörige_Gemeinde"},"district":{"key":"16063","name":"Wartburgkreis","type":"Landkreis"},"federalState":{"key":"16","name":"Thüringen"}},{"name":"Berlinchen","postalCode":"99848","locality":"Wutha-Farnroda","municipality":{"key":"16063092","name":"Wutha-Farnroda","type":"Kreisangehörige_Gemeinde"},"district":{"key":"16063","name":"Wartburgkreis","type":"Landkreis"},"federalState":{"key":"16","name":"Thüringen"}},{"name":"Bermuda Dreieck","postalCode":"99848","locality":"Wutha-Farnroda","municipality":{"key":"16063092","name":"Wutha-Farnroda","type":"Kreisangehörige_Gemeinde"},"district":{"key":"16063","name":"Wartburgkreis","type":"Landkreis"},"federalState":{"key":"16","name":"Thüringen"}},{"name":"Brunnenstr.","postalCode":"99848","locality":"Wutha-Farnroda","municipality":{"key":"16063092","name":"Wutha-Farnroda","type":"Kreisangehörige_Gemeinde"},"district":{"key":"16063","name":"Wartburgkreis","type":"Landkreis"},"federalState":{"key":"16","name":"Thüringen"}},{"name":"Burbach","postalCode":"99848","locality":"Wutha-Farnroda","municipality":{"key":"16063092","name":"Wutha-Farnroda","type":"Kreisangehörige_Gemeinde"},"district":{"key":"16063","name":"Wartburgkreis","type":"Landkreis"},"federalState":{"key":"16","name":"Thüringen"}},{"name":"Deubach","postalCode":"99848","locality":"Wutha-Farnroda","municipality":{"key":"16063092","name":"Wutha-Farnroda","type":"Kreisangehörige_Gemeinde"},"district":{"key":"16063","name":"Wartburgkreis","type":"Landkreis"},"federalState":{"key":"16","name":"Thüringen"}},{"name":"Deubacher Str.","postalCode":"99848","locality":"Wutha-Farnroda","municipality":{"key":"16063092","name":"Wutha-Farnroda","type":"Kreisangehörige_Gemeinde"},"district":{"key":"16063","name":"Wartburgkreis","type":"Landkreis"},"federalState":{"key":"16","name":"Thüringen"}},{"name":"Dorfstr.","postalCode":"99848","locality":"Wutha-Farnroda","municipality":{"key":"16063092","name":"Wutha-Farnroda","type":"Kreisangehörige_Gemeinde"},"district":{"key":"16063","name":"Wartburgkreis","type":"Landkreis"},"federalState":{"key":"16","name":"Thüringen"}},{"name":"Eichrodter Weg","postalCode":"99848","locality":"Wutha-Farnroda","municipality":{"key":"16063092","name":"Wutha-Farnroda","type":"Kreisangehörige_Gemeinde"},"district":{"key":"16063","name":"Wartburgkreis","type":"Landkreis"},"federalState":{"key":"16","name":"Thüringen"}},{"name":"Eisenacher Str.","postalCode":"99848","locality":"Wutha-Farnroda","municipality":{"key":"16063092","name":"Wutha-Farnroda","type":"Kreisangehörige_Gemeinde"},"district":{"key":"16063","name":"Wartburgkreis","type":"Landkreis"},"federalState":{"key":"16","name":"Thüringen"}},{"name":"Elisabethenhöher Weg","postalCode":"99848","locality":"Wutha-Farnroda","municipality":{"key":"16063092","name":"Wutha-Farnroda","type":"Kreisangehörige_Gemeinde"},"district":{"key":"16063","name":"Wartburgkreis","type":"Landkreis"},"federalState":{"key":"16","name":"Thüringen"}},{"name":"Farnrodaer Weg","postalCode":"99848","locality":"Wutha-Farnroda","municipality":{"key":"16063092","name":"Wutha-Farnroda","type":"Kreisangehörige_Gemeinde"},"district":{"key":"16063","name":"Wartburgkreis","type":"Landkreis"},"federalState":{"key":"16","name":"Thüringen"}},{"name":"Fliederweg","postalCode":"99848","locality":"Wutha-Farnroda","municipality":{"key":"16063092","name":"Wutha-Farnroda","type":"Kreisangehörige_Gemeinde"},"district":{"key":"16063","name":"Wartburgkreis","type":"Landkreis"},"federalState":{"key":"16","name":"Thüringen"}},{"name":"Gothaer Str.","postalCode":"99848","locality":"Wutha-Farnroda","municipality":{"key":"16063092","name":"Wutha-Farnroda","type":"Kreisangehörige_Gemeinde"},"district":{"key":"16063","name":"Wartburgkreis","type":"Landkreis"},"federalState":{"key":"16","name":"Thüringen"}},{"name":"Grünanlage","postalCode":"99848","locality":"Wutha-Farnroda","municipality":{"key":"16063092","name":"Wutha-Farnroda","type":"Kreisangehörige_Gemeinde"},"district":{"key":"16063","name":"Wartburgkreis","type":"Landkreis"},"federalState":{"key":"16","name":"Thüringen"}},{"name":"Hauptstr.","postalCode":"99848","locality":"Wutha-Farnroda","municipality":{"key":"16063092","name":"Wutha-Farnroda","type":"Kreisangehörige_Gemeinde"},"district":{"key":"16063","name":"Wartburgkreis","type":"Landkreis"},"federalState":{"key":"16","name":"Thüringen"}},{"name":"Heideweg","postalCode":"99848","locality":"Wutha-Farnroda","municipality":{"key":"16063092","name":"Wutha-Farnroda","type":"Kreisangehörige_Gemeinde"},"district":{"key":"16063","name":"Wartburgkreis","type":"Landkreis"},"federalState":{"key":"16","name":"Thüringen"}},{"name":"Hellwigstr.","postalCode":"99848","locality":"Wutha-Farnroda","municipality":{"key":"16063092","name":"Wutha-Farnroda","type":"Kreisangehörige_Gemeinde"},"district":{"key":"16063","name":"Wartburgkreis","type":"Landkreis"},"federalState":{"key":"16","name":"Thüringen"}},{"name":"Holunderweg","postalCode":"99848","locality":"Wutha-Farnroda","municipality":{"key":"16063092","name":"Wutha-Farnroda","type":"Kreisangehörige_Gemeinde"},"district":{"key":"16063","name":"Wartburgkreis","type":"Landkreis"},"federalState":{"key":"16","name":"Thüringen"}},{"name":"Hörselbergblick","postalCode":"99848","locality":"Wutha-Farnroda","municipality":{"key":"16063092","name":"Wutha-Farnroda","type":"Kreisangehörige_Gemeinde"},"district":{"key":"16063","name":"Wartburgkreis","type":"Landkreis"},"federalState":{"key":"16","name":"Thüringen"}},{"name":"Hörseltalstr.","postalCode":"99848","locality":"Wutha-Farnroda","municipality":{"key":"16063092","name":"Wutha-Farnroda","type":"Kreisangehörige_Gemeinde"},"district":{"key":"16063","name":"Wartburgkreis","type":"Landkreis"},"federalState":{"key":"16","name":"Thüringen"}},{"name":"Im Unterland","postalCode":"99848","locality":"Wutha-Farnroda","municipality":{"key":"16063092","name":"Wutha-Farnroda","type":"Kreisangehörige_Gemeinde"},"district":{"key":"16063","name":"Wartburgkreis","type":"Landkreis"},"federalState":{"key":"16","name":"Thüringen"}},{"name":"Karl-Hermann-Str.","postalCode":"99848","locality":"Wutha-Farnroda","municipality":{"key":"16063092","name":"Wutha-Farnroda","type":"Kreisangehörige_Gemeinde"},"district":{"key":"16063","name":"Wartburgkreis","type":"Landkreis"},"federalState":{"key":"16","name":"Thüringen"}},{"name":"Kirchstr.","postalCode":"99848","locality":"Wutha-Farnroda","municipality":{"key":"16063092","name":"Wutha-Farnroda","type":"Kreisangehörige_Gemeinde"},"district":{"key":"16063","name":"Wartburgkreis","type":"Landkreis"},"federalState":{"key":"16","name":"Thüringen"}},{"name":"Kirchtal","postalCode":"99848","locality":"Wutha-Farnroda","municipality":{"key":"16063092","name":"Wutha-Farnroda","type":"Kreisangehörige_Gemeinde"},"district":{"key":"16063","name":"Wartburgkreis","type":"Landkreis"},"federalState":{"key":"16","name":"Thüringen"}},{"name":"Kreuzweg","postalCode":"99848","locality":"Wutha-Farnroda","municipality":{"key":"16063092","name":"Wutha-Farnroda","type":"Kreisangehörige_Gemeinde"},"district":{"key":"16063","name":"Wartburgkreis","type":"Landkreis"},"federalState":{"key":"16","name":"Thüringen"}},{"name":"Mosbacher Marktweg","postalCode":"99848","locality":"Wutha-Farnroda","municipality":{"key":"16063092","name":"Wutha-Farnroda","type":"Kreisangehörige_Gemeinde"},"district":{"key":"16063","name":"Wartburgkreis","type":"Landkreis"},"federalState":{"key":"16","name":"Thüringen"}},{"name":"Mosbacher Str.","postalCode":"99848","locality":"Wutha-Farnroda","municipality":{"key":"16063092","name":"Wutha-Farnroda","type":"Kreisangehörige_Gemeinde"},"district":{"key":"16063","name":"Wartburgkreis","type":"Landkreis"},"federalState":{"key":"16","name":"Thüringen"}},{"name":"Mühlgasse","postalCode":"99848","locality":"Wutha-Farnroda","municipality":{"key":"16063092","name":"Wutha-Farnroda","type":"Kreisangehörige_Gemeinde"},"district":{"key":"16063","name":"Wartburgkreis","type":"Landkreis"},"federalState":{"key":"16","name":"Thüringen"}},{"name":"Neue Str.","postalCode":"99848","locality":"Wutha-Farnroda","municipality":{"key":"16063092","name":"Wutha-Farnroda","type":"Kreisangehörige_Gemeinde"},"district":{"key":"16063","name":"Wartburgkreis","type":"Landkreis"},"federalState":{"key":"16","name":"Thüringen"}},{"name":"Ortsstr.","postalCode":"99848","locality":"Wutha-Farnroda","municipality":{"key":"16063092","name":"Wutha-Farnroda","type":"Kreisangehörige_Gemeinde"},"district":{"key":"16063","name":"Wartburgkreis","type":"Landkreis"},"federalState":{"key":"16","name":"Thüringen"}},{"name":"Rehberg","postalCode":"99848","locality":"Wutha-Farnroda","municipality":{"key":"16063092","name":"Wutha-Farnroda","type":"Kreisangehörige_Gemeinde"},"district":{"key":"16063","name":"Wartburgkreis","type":"Landkreis"},"federalState":{"key":"16","name":"Thüringen"}},{"name":"Rehberg-Siedlung","postalCode":"99848","locality":"Wutha-Farnroda","municipality":{"key":"16063092","name":"Wutha-Farnroda","type":"Kreisangehörige_Gemeinde"},"district":{"key":"16063","name":"Wartburgkreis","type":"Landkreis"},"federalState":{"key":"16","name":"Thüringen"}},{"name":"Rehhofer Weg","postalCode":"99848","locality":"Wutha-Farnroda","municipality":{"key":"16063092","name":"Wutha-Farnroda","type":"Kreisangehörige_Gemeinde"},"district":{"key":"16063","name":"Wartburgkreis","type":"Landkreis"},"federalState":{"key":"16","name":"Thüringen"}},{"name":"Ringstr.","postalCode":"99848","locality":"Wutha-Farnroda","municipality":{"key":"16063092","name":"Wutha-Farnroda","type":"Kreisangehörige_Gemeinde"},"district":{"key":"16063","name":"Wartburgkreis","type":"Landkreis"},"federalState":{"key":"16","name":"Thüringen"}},{"name":"Röberstr.","postalCode":"99848","locality":"Wutha-Farnroda","municipality":{"key":"16063092","name":"Wutha-Farnroda","type":"Kreisangehörige_Gemeinde"},"district":{"key":"16063","name":"Wartburgkreis","type":"Landkreis"},"federalState":{"key":"16","name":"Thüringen"}},{"name":"Rosenpfad","postalCode":"99848","locality":"Wutha-Farnroda","municipality":{"key":"16063092","name":"Wutha-Farnroda","type":"Kreisangehörige_Gemeinde"},"district":{"key":"16063","name":"Wartburgkreis","type":"Landkreis"},"federalState":{"key":"16","name":"Thüringen"}},{"name":"Ruhlaer Str.","postalCode":"99848","locality":"Wutha-Farnroda","municipality":{"key":"16063092","name":"Wutha-Farnroda","type":"Kreisangehörige_Gemeinde"},"district":{"key":"16063","name":"Wartburgkreis","type":"Landkreis"},"federalState":{"key":"16","name":"Thüringen"}},{"name":"Sandberghöhe","postalCode":"99848","locality":"Wutha-Farnroda","municipality":{"key":"16063092","name":"Wutha-Farnroda","type":"Kreisangehörige_Gemeinde"},"district":{"key":"16063","name":"Wartburgkreis","type":"Landkreis"},"federalState":{"key":"16","name":"Thüringen"}},{"name":"Schlehenweg","postalCode":"99848","locality":"Wutha-Farnroda","municipality":{"key":"16063092","name":"Wutha-Farnroda","type":"Kreisangehörige_Gemeinde"},"district":{"key":"16063","name":"Wartburgkreis","type":"Landkreis"},"federalState":{"key":"16","name":"Thüringen"}},{"name":"Schlosspark","postalCode":"99848","locality":"Wutha-Farnroda","municipality":{"key":"16063092","name":"Wutha-Farnroda","type":"Kreisangehörige_Gemeinde"},"district":{"key":"16063","name":"Wartburgkreis","type":"Landkreis"},"federalState":{"key":"16","name":"Thüringen"}},{"name":"Schönauer Str.","postalCode":"99848","locality":"Wutha-Farnroda","municipality":{"key":"16063092","name":"Wutha-Farnroda","type":"Kreisangehörige_Gemeinde"},"district":{"key":"16063","name":"Wartburgkreis","type":"Landkreis"},"federalState":{"key":"16","name":"Thüringen"}},{"name":"Schulstr.","postalCode":"99848","locality":"Wutha-Farnroda","municipality":{"key":"16063092","name":"Wutha-Farnroda","type":"Kreisangehörige_Gemeinde"},"district":{"key":"16063","name":"Wartburgkreis","type":"Landkreis"},"federalState":{"key":"16","name":"Thüringen"}},{"name":"Seebacher Str.","postalCode":"99848","locality":"Wutha-Farnroda","municipality":{"key":"16063092","name":"Wutha-Farnroda","type":"Kreisangehörige_Gemeinde"},"district":{"key":"16063","name":"Wartburgkreis","type":"Landkreis"},"federalState":{"key":"16","name":"Thüringen"}},{"name":"Tannhäuser Weg","postalCode":"99848","locality":"Wutha-Farnroda","municipality":{"key":"16063092","name":"Wutha-Farnroda","type":"Kreisangehörige_Gemeinde"},"district":{"key":"16063","name":"Wartburgkreis","type":"Landkreis"},"federalState":{"key":"16","name":"Thüringen"}},{"name":"Theodor-Neubauer-Str.","postalCode":"99848","locality":"Wutha-Farnroda","municipality":{"key":"16063092","name":"Wutha-Farnroda","type":"Kreisangehörige_Gemeinde"},"district":{"key":"16063","name":"Wartburgkreis","type":"Landkreis"},"federalState":{"key":"16","name":"Thüringen"}},{"name":"Theo-Neubauer-Str.","postalCode":"99848","locality":"Wutha-Farnroda","municipality":{"key":"16063092","name":"Wutha-Farnroda","type":"Kreisangehörige_Gemeinde"},"district":{"key":"16063","name":"Wartburgkreis","type":"Landkreis"},"federalState":{"key":"16","name":"Thüringen"}},{"name":"Uferstr.","postalCode":"99848","locality":"Wutha-Farnroda","municipality":{"key":"16063092","name":"Wutha-Farnroda","type":"Kreisangehörige_Gemeinde"},"district":{"key":"16063","name":"Wartburgkreis","type":"Landkreis"},"federalState":{"key":"16","name":"Thüringen"}},{"name":"Wacholderstr.","postalCode":"99848","locality":"Wutha-Farnroda","municipality":{"key":"16063092","name":"Wutha-Farnroda","type":"Kreisangehörige_Gemeinde"},"district":{"key":"16063","name":"Wartburgkreis","type":"Landkreis"},"federalState":{"key":"16","name":"Thüringen"}},{"name":"Waldbadstr.","postalCode":"99848","locality":"Wutha-Farnroda","municipality":{"key":"16063092","name":"Wutha-Farnroda","type":"Kreisangehörige_Gemeinde"},"district":{"key":"16063","name":"Wartburgkreis","type":"Landkreis"},"federalState":{"key":"16","name":"Thüringen"}},{"name":"Wegende","postalCode":"99848","locality":"Wutha-Farnroda","municipality":{"key":"16063092","name":"Wutha-Farnroda","type":"Kreisangehörige_Gemeinde"},"district":{"key":"16063","name":"Wartburgkreis","type":"Landkreis"},"federalState":{"key":"16","name":"Thüringen"}},{"name":"Weinbergstr.","postalCode":"99848","locality":"Wutha-Farnroda","municipality":{"key":"16063092","name":"Wutha-Farnroda","type":"Kreisangehörige_Gemeinde"},"district":{"key":"16063","name":"Wartburgkreis","type":"Landkreis"},"federalState":{"key":"16","name":"Thüringen"}},{"name":"Weinstr.","postalCode":"99848","locality":"Wutha-Farnroda","municipality":{"key":"16063092","name":"Wutha-Farnroda","type":"Kreisangehörige_Gemeinde"},"district":{"key":"16063","name":"Wartburgkreis","type":"Landkreis"},"federalState":{"key":"16","name":"Thüringen"}},{"name":"Wiesenstr.","postalCode":"99848","locality":"Wutha-Farnroda","municipality":{"key":"16063092","name":"Wutha-Farnroda","type":"Kreisangehörige_Gemeinde"},"district":{"key":"16063","name":"Wartburgkreis","type":"Landkreis"},"federalState":{"key":"16","name":"Thüringen"}},{"name":"Wuthaer Weg","postalCode":"99848","locality":"Wutha-Farnroda","municipality":{"key":"16063092","name":"Wutha-Farnroda","type":"Kreisangehörige_Gemeinde"},"district":{"key":"16063","name":"Wartburgkreis","type":"Landkreis"},"federalState":{"key":"16","name":"Thüringen"}},{"name":"Zum Himmelreich","postalCode":"99848","locality":"Wutha-Farnroda","municipality":{"key":"16063092","name":"Wutha-Farnroda","type":"Kreisangehörige_Gemeinde"},"district":{"key":"16063","name":"Wartburgkreis","type":"Landkreis"},"federalState":{"key":"16","name":"Thüringen"}},{"name":"Zum Langetal","postalCode":"99848","locality":"Wutha-Farnroda","municipality":{"key":"16063092","name":"Wutha-Farnroda","type":"Kreisangehörige_Gemeinde"},"district":{"key":"16063","name":"Wartburgkreis","type":"Landkreis"},"federalState":{"key":"16","name":"Thüringen"}},{"name":"Zur Skihütte","postalCode":"99848","locality":"Wutha-Farnroda","municipality":{"key":"16063092","name":"Wutha-Farnroda","type":"Kreisangehörige_Gemeinde"},"district":{"key":"16063","name":"Wartburgkreis","type":"Landkreis"},"federalState":{"key":"16","name":"Thüringen"}},]