[{"name":"Ahornweg","postalCode":"85254","locality":"Sulzemoos","municipality":{"key":"09174146","name":"Sulzemoos","type":"Kreisangehörige_Gemeinde"},"district":{"key":"09174","name":"Dachau","type":"Landkreis"},"federalState":{"key":"09","name":"Bayern"}},{"name":"Aichacher Str.","postalCode":"85254","locality":"Sulzemoos","municipality":{"key":"09174146","name":"Sulzemoos","type":"Kreisangehörige_Gemeinde"},"district":{"key":"09174","name":"Dachau","type":"Landkreis"},"federalState":{"key":"09","name":"Bayern"}},{"name":"Am Bachfeld","postalCode":"85254","locality":"Sulzemoos","municipality":{"key":"09174146","name":"Sulzemoos","type":"Kreisangehörige_Gemeinde"},"district":{"key":"09174","name":"Dachau","type":"Landkreis"},"federalState":{"key":"09","name":"Bayern"}},{"name":"Am Berg","postalCode":"85254","locality":"Sulzemoos","municipality":{"key":"09174146","name":"Sulzemoos","type":"Kreisangehörige_Gemeinde"},"district":{"key":"09174","name":"Dachau","type":"Landkreis"},"federalState":{"key":"09","name":"Bayern"}},{"name":"Am Buchwald","postalCode":"85259","locality":"Sulzemoos","municipality":{"key":"09174146","name":"Sulzemoos","type":"Kreisangehörige_Gemeinde"},"district":{"key":"09174","name":"Dachau","type":"Landkreis"},"federalState":{"key":"09","name":"Bayern"}},{"name":"Am Krautgarten","postalCode":"85259","locality":"Sulzemoos","municipality":{"key":"09174146","name":"Sulzemoos","type":"Kreisangehörige_Gemeinde"},"district":{"key":"09174","name":"Dachau","type":"Landkreis"},"federalState":{"key":"09","name":"Bayern"}},{"name":"Am Kreuzberg","postalCode":"85259","locality":"Sulzemoos","municipality":{"key":"09174146","name":"Sulzemoos","type":"Kreisangehörige_Gemeinde"},"district":{"key":"09174","name":"Dachau","type":"Landkreis"},"federalState":{"key":"09","name":"Bayern"}},{"name":"Am Mühlberg","postalCode":"85254","locality":"Sulzemoos","municipality":{"key":"09174146","name":"Sulzemoos","type":"Kreisangehörige_Gemeinde"},"district":{"key":"09174","name":"Dachau","type":"Landkreis"},"federalState":{"key":"09","name":"Bayern"}},{"name":"Am Murfeld","postalCode":"85259","locality":"Sulzemoos","municipality":{"key":"09174146","name":"Sulzemoos","type":"Kreisangehörige_Gemeinde"},"district":{"key":"09174","name":"Dachau","type":"Landkreis"},"federalState":{"key":"09","name":"Bayern"}},{"name":"Am Säganger","postalCode":"85259","locality":"Sulzemoos","municipality":{"key":"09174146","name":"Sulzemoos","type":"Kreisangehörige_Gemeinde"},"district":{"key":"09174","name":"Dachau","type":"Landkreis"},"federalState":{"key":"09","name":"Bayern"}},{"name":"Am Sammerfeld","postalCode":"85254","locality":"Sulzemoos","municipality":{"key":"09174146","name":"Sulzemoos","type":"Kreisangehörige_Gemeinde"},"district":{"key":"09174","name":"Dachau","type":"Landkreis"},"federalState":{"key":"09","name":"Bayern"}},{"name":"Am Ziegelberg","postalCode":"85259","locality":"Sulzemoos","municipality":{"key":"09174146","name":"Sulzemoos","type":"Kreisangehörige_Gemeinde"},"district":{"key":"09174","name":"Dachau","type":"Landkreis"},"federalState":{"key":"09","name":"Bayern"}},{"name":"An der Pfenniglohe","postalCode":"85254","locality":"Sulzemoos","municipality":{"key":"09174146","name":"Sulzemoos","type":"Kreisangehörige_Gemeinde"},"district":{"key":"09174","name":"Dachau","type":"Landkreis"},"federalState":{"key":"09","name":"Bayern"}},{"name":"Angerweg","postalCode":"85259","locality":"Sulzemoos","municipality":{"key":"09174146","name":"Sulzemoos","type":"Kreisangehörige_Gemeinde"},"district":{"key":"09174","name":"Dachau","type":"Landkreis"},"federalState":{"key":"09","name":"Bayern"}},{"name":"Austr.","postalCode":"85254","locality":"Sulzemoos","municipality":{"key":"09174146","name":"Sulzemoos","type":"Kreisangehörige_Gemeinde"},"district":{"key":"09174","name":"Dachau","type":"Landkreis"},"federalState":{"key":"09","name":"Bayern"}},{"name":"Bergstr.","postalCode":"85254","locality":"Sulzemoos","municipality":{"key":"09174146","name":"Sulzemoos","type":"Kreisangehörige_Gemeinde"},"district":{"key":"09174","name":"Dachau","type":"Landkreis"},"federalState":{"key":"09","name":"Bayern"}},{"name":"Bergstr.","postalCode":"85259","locality":"Sulzemoos","municipality":{"key":"09174146","name":"Sulzemoos","type":"Kreisangehörige_Gemeinde"},"district":{"key":"09174","name":"Dachau","type":"Landkreis"},"federalState":{"key":"09","name":"Bayern"}},{"name":"Blumenstr.","postalCode":"85254","locality":"Sulzemoos","municipality":{"key":"09174146","name":"Sulzemoos","type":"Kreisangehörige_Gemeinde"},"district":{"key":"09174","name":"Dachau","type":"Landkreis"},"federalState":{"key":"09","name":"Bayern"}},{"name":"Bogenrieder Str.","postalCode":"85254","locality":"Sulzemoos","municipality":{"key":"09174146","name":"Sulzemoos","type":"Kreisangehörige_Gemeinde"},"district":{"key":"09174","name":"Dachau","type":"Landkreis"},"federalState":{"key":"09","name":"Bayern"}},{"name":"Brucker Str.","postalCode":"85254","locality":"Sulzemoos","municipality":{"key":"09174146","name":"Sulzemoos","type":"Kreisangehörige_Gemeinde"},"district":{"key":"09174","name":"Dachau","type":"Landkreis"},"federalState":{"key":"09","name":"Bayern"}},{"name":"Brunnenweg","postalCode":"85254","locality":"Sulzemoos","municipality":{"key":"09174146","name":"Sulzemoos","type":"Kreisangehörige_Gemeinde"},"district":{"key":"09174","name":"Dachau","type":"Landkreis"},"federalState":{"key":"09","name":"Bayern"}},{"name":"Buchenweg","postalCode":"85254","locality":"Sulzemoos","municipality":{"key":"09174146","name":"Sulzemoos","type":"Kreisangehörige_Gemeinde"},"district":{"key":"09174","name":"Dachau","type":"Landkreis"},"federalState":{"key":"09","name":"Bayern"}},{"name":"Carl-Felber-Weg","postalCode":"85221","locality":"Dachau","municipality":{"key":"09174115","name":"Dachau, GKSt","type":"Große_Kreisstadt"},"district":{"key":"09174","name":"Dachau","type":"Landkreis"},"federalState":{"key":"09","name":"Bayern"}},{"name":"Carl-Olof-Petersen-Str.","postalCode":"85221","locality":"Dachau","municipality":{"key":"09174115","name":"Dachau, GKSt","type":"Große_Kreisstadt"},"district":{"key":"09174","name":"Dachau","type":"Landkreis"},"federalState":{"key":"09","name":"Bayern"}},{"name":"Carl-Orff-Weg","postalCode":"85221","locality":"Dachau","municipality":{"key":"09174115","name":"Dachau, GKSt","type":"Große_Kreisstadt"},"district":{"key":"09174","name":"Dachau","type":"Landkreis"},"federalState":{"key":"09","name":"Bayern"}},{"name":"Carl-Thiemann-Anlage","postalCode":"85221","locality":"Dachau","municipality":{"key":"09174115","name":"Dachau, GKSt","type":"Große_Kreisstadt"},"district":{"key":"09174","name":"Dachau","type":"Landkreis"},"federalState":{"key":"09","name":"Bayern"}},{"name":"Christian-Hergl-Str.","postalCode":"85221","locality":"Dachau","municipality":{"key":"09174115","name":"Dachau, GKSt","type":"Große_Kreisstadt"},"district":{"key":"09174","name":"Dachau","type":"Landkreis"},"federalState":{"key":"09","name":"Bayern"}},{"name":"Coseler Str.","postalCode":"85221","locality":"Dachau","municipality":{"key":"09174115","name":"Dachau, GKSt","type":"Große_Kreisstadt"},"district":{"key":"09174","name":"Dachau","type":"Landkreis"},"federalState":{"key":"09","name":"Bayern"}},{"name":"Dachauer Str.","postalCode":"85254","locality":"Sulzemoos","municipality":{"key":"09174146","name":"Sulzemoos","type":"Kreisangehörige_Gemeinde"},"district":{"key":"09174","name":"Dachau","type":"Landkreis"},"federalState":{"key":"09","name":"Bayern"}},{"name":"Doktor-Baumgartner-Str.","postalCode":"85254","locality":"Sulzemoos","municipality":{"key":"09174146","name":"Sulzemoos","type":"Kreisangehörige_Gemeinde"},"district":{"key":"09174","name":"Dachau","type":"Landkreis"},"federalState":{"key":"09","name":"Bayern"}},{"name":"Dornbergerstr.","postalCode":"85254","locality":"Sulzemoos","municipality":{"key":"09174146","name":"Sulzemoos","type":"Kreisangehörige_Gemeinde"},"district":{"key":"09174","name":"Dachau","type":"Landkreis"},"federalState":{"key":"09","name":"Bayern"}},{"name":"Eichenstr.","postalCode":"85254","locality":"Sulzemoos","municipality":{"key":"09174146","name":"Sulzemoos","type":"Kreisangehörige_Gemeinde"},"district":{"key":"09174","name":"Dachau","type":"Landkreis"},"federalState":{"key":"09","name":"Bayern"}},{"name":"Erlenstr.","postalCode":"85254","locality":"Sulzemoos","municipality":{"key":"09174146","name":"Sulzemoos","type":"Kreisangehörige_Gemeinde"},"district":{"key":"09174","name":"Dachau","type":"Landkreis"},"federalState":{"key":"09","name":"Bayern"}},{"name":"Eschenweg","postalCode":"85254","locality":"Sulzemoos","municipality":{"key":"09174146","name":"Sulzemoos","type":"Kreisangehörige_Gemeinde"},"district":{"key":"09174","name":"Dachau","type":"Landkreis"},"federalState":{"key":"09","name":"Bayern"}},{"name":"Feldstr.","postalCode":"85259","locality":"Sulzemoos","municipality":{"key":"09174146","name":"Sulzemoos","type":"Kreisangehörige_Gemeinde"},"district":{"key":"09174","name":"Dachau","type":"Landkreis"},"federalState":{"key":"09","name":"Bayern"}},{"name":"Frühlingstr.","postalCode":"85259","locality":"Sulzemoos","municipality":{"key":"09174146","name":"Sulzemoos","type":"Kreisangehörige_Gemeinde"},"district":{"key":"09174","name":"Dachau","type":"Landkreis"},"federalState":{"key":"09","name":"Bayern"}},{"name":"Gartenstr.","postalCode":"85254","locality":"Sulzemoos","municipality":{"key":"09174146","name":"Sulzemoos","type":"Kreisangehörige_Gemeinde"},"district":{"key":"09174","name":"Dachau","type":"Landkreis"},"federalState":{"key":"09","name":"Bayern"}},{"name":"Hartstr.","postalCode":"85259","locality":"Sulzemoos","municipality":{"key":"09174146","name":"Sulzemoos","type":"Kreisangehörige_Gemeinde"},"district":{"key":"09174","name":"Dachau","type":"Landkreis"},"federalState":{"key":"09","name":"Bayern"}},{"name":"Hauptstr.","postalCode":"85254","locality":"Sulzemoos","municipality":{"key":"09174146","name":"Sulzemoos","type":"Kreisangehörige_Gemeinde"},"district":{"key":"09174","name":"Dachau","type":"Landkreis"},"federalState":{"key":"09","name":"Bayern"}},{"name":"Hauptstr.","postalCode":"85259","locality":"Sulzemoos","municipality":{"key":"09174146","name":"Sulzemoos","type":"Kreisangehörige_Gemeinde"},"district":{"key":"09174","name":"Dachau","type":"Landkreis"},"federalState":{"key":"09","name":"Bayern"}},{"name":"Hirschbergstr.","postalCode":"85254","locality":"Sulzemoos","municipality":{"key":"09174146","name":"Sulzemoos","type":"Kreisangehörige_Gemeinde"},"district":{"key":"09174","name":"Dachau","type":"Landkreis"},"federalState":{"key":"09","name":"Bayern"}},{"name":"Hochstr.","postalCode":"85259","locality":"Sulzemoos","municipality":{"key":"09174146","name":"Sulzemoos","type":"Kreisangehörige_Gemeinde"},"district":{"key":"09174","name":"Dachau","type":"Landkreis"},"federalState":{"key":"09","name":"Bayern"}},{"name":"Hopfenstr.","postalCode":"85254","locality":"Sulzemoos","municipality":{"key":"09174146","name":"Sulzemoos","type":"Kreisangehörige_Gemeinde"},"district":{"key":"09174","name":"Dachau","type":"Landkreis"},"federalState":{"key":"09","name":"Bayern"}},{"name":"Ida-Kerkovius-Weg","postalCode":"85221","locality":"Dachau","municipality":{"key":"09174115","name":"Dachau, GKSt","type":"Große_Kreisstadt"},"district":{"key":"09174","name":"Dachau","type":"Landkreis"},"federalState":{"key":"09","name":"Bayern"}},{"name":"Im Anger","postalCode":"85221","locality":"Dachau","municipality":{"key":"09174115","name":"Dachau, GKSt","type":"Große_Kreisstadt"},"district":{"key":"09174","name":"Dachau","type":"Landkreis"},"federalState":{"key":"09","name":"Bayern"}},{"name":"Im Lehmfeld","postalCode":"85221","locality":"Dachau","municipality":{"key":"09174115","name":"Dachau, GKSt","type":"Große_Kreisstadt"},"district":{"key":"09174","name":"Dachau","type":"Landkreis"},"federalState":{"key":"09","name":"Bayern"}},{"name":"Im Lus","postalCode":"85221","locality":"Dachau","municipality":{"key":"09174115","name":"Dachau, GKSt","type":"Große_Kreisstadt"},"district":{"key":"09174","name":"Dachau","type":"Landkreis"},"federalState":{"key":"09","name":"Bayern"}},{"name":"Indersdorfer Str.","postalCode":"85221","locality":"Dachau","municipality":{"key":"09174115","name":"Dachau, GKSt","type":"Große_Kreisstadt"},"district":{"key":"09174","name":"Dachau","type":"Landkreis"},"federalState":{"key":"09","name":"Bayern"}},{"name":"Isar-Amperwerke-Str.","postalCode":"85221","locality":"Dachau","municipality":{"key":"09174115","name":"Dachau, GKSt","type":"Große_Kreisstadt"},"district":{"key":"09174","name":"Dachau","type":"Landkreis"},"federalState":{"key":"09","name":"Bayern"}},{"name":"Justus-von-Liebig-Str.","postalCode":"85254","locality":"Sulzemoos","municipality":{"key":"09174146","name":"Sulzemoos","type":"Kreisangehörige_Gemeinde"},"district":{"key":"09174","name":"Dachau","type":"Landkreis"},"federalState":{"key":"09","name":"Bayern"}},{"name":"Kapellenstr.","postalCode":"85254","locality":"Sulzemoos","municipality":{"key":"09174146","name":"Sulzemoos","type":"Kreisangehörige_Gemeinde"},"district":{"key":"09174","name":"Dachau","type":"Landkreis"},"federalState":{"key":"09","name":"Bayern"}},{"name":"Keltenstr.","postalCode":"85254","locality":"Sulzemoos","municipality":{"key":"09174146","name":"Sulzemoos","type":"Kreisangehörige_Gemeinde"},"district":{"key":"09174","name":"Dachau","type":"Landkreis"},"federalState":{"key":"09","name":"Bayern"}},{"name":"Kiesweg","postalCode":"85254","locality":"Sulzemoos","municipality":{"key":"09174146","name":"Sulzemoos","type":"Kreisangehörige_Gemeinde"},"district":{"key":"09174","name":"Dachau","type":"Landkreis"},"federalState":{"key":"09","name":"Bayern"}},{"name":"Kirchweg","postalCode":"85259","locality":"Sulzemoos","municipality":{"key":"09174146","name":"Sulzemoos","type":"Kreisangehörige_Gemeinde"},"district":{"key":"09174","name":"Dachau","type":"Landkreis"},"federalState":{"key":"09","name":"Bayern"}},{"name":"Kohlstattstr.","postalCode":"85254","locality":"Sulzemoos","municipality":{"key":"09174146","name":"Sulzemoos","type":"Kreisangehörige_Gemeinde"},"district":{"key":"09174","name":"Dachau","type":"Landkreis"},"federalState":{"key":"09","name":"Bayern"}},{"name":"Lerchenstr.","postalCode":"85259","locality":"Sulzemoos","municipality":{"key":"09174146","name":"Sulzemoos","type":"Kreisangehörige_Gemeinde"},"district":{"key":"09174","name":"Dachau","type":"Landkreis"},"federalState":{"key":"09","name":"Bayern"}},{"name":"Lindenstr.","postalCode":"85254","locality":"Sulzemoos","municipality":{"key":"09174146","name":"Sulzemoos","type":"Kreisangehörige_Gemeinde"},"district":{"key":"09174","name":"Dachau","type":"Landkreis"},"federalState":{"key":"09","name":"Bayern"}},{"name":"Moosweg","postalCode":"85254","locality":"Sulzemoos","municipality":{"key":"09174146","name":"Sulzemoos","type":"Kreisangehörige_Gemeinde"},"district":{"key":"09174","name":"Dachau","type":"Landkreis"},"federalState":{"key":"09","name":"Bayern"}},{"name":"Mörtlstr.","postalCode":"85254","locality":"Sulzemoos","municipality":{"key":"09174146","name":"Sulzemoos","type":"Kreisangehörige_Gemeinde"},"district":{"key":"09174","name":"Dachau","type":"Landkreis"},"federalState":{"key":"09","name":"Bayern"}},{"name":"Neißer Str.","postalCode":"85221","locality":"Dachau","municipality":{"key":"09174115","name":"Dachau, GKSt","type":"Große_Kreisstadt"},"district":{"key":"09174","name":"Dachau","type":"Landkreis"},"federalState":{"key":"09","name":"Bayern"}},{"name":"Neuängerstr.","postalCode":"85221","locality":"Dachau","municipality":{"key":"09174115","name":"Dachau, GKSt","type":"Große_Kreisstadt"},"district":{"key":"09174","name":"Dachau","type":"Landkreis"},"federalState":{"key":"09","name":"Bayern"}},{"name":"Neufeldstr.","postalCode":"85221","locality":"Dachau","municipality":{"key":"09174115","name":"Dachau, GKSt","type":"Große_Kreisstadt"},"district":{"key":"09174","name":"Dachau","type":"Landkreis"},"federalState":{"key":"09","name":"Bayern"}},{"name":"Neumeyerweg","postalCode":"85221","locality":"Dachau","municipality":{"key":"09174115","name":"Dachau, GKSt","type":"Große_Kreisstadt"},"district":{"key":"09174","name":"Dachau","type":"Landkreis"},"federalState":{"key":"09","name":"Bayern"}},{"name":"Neustädter Str.","postalCode":"85221","locality":"Dachau","municipality":{"key":"09174115","name":"Dachau, GKSt","type":"Große_Kreisstadt"},"district":{"key":"09174","name":"Dachau","type":"Landkreis"},"federalState":{"key":"09","name":"Bayern"}},{"name":"Newtonstr.","postalCode":"85221","locality":"Dachau","municipality":{"key":"09174115","name":"Dachau, GKSt","type":"Große_Kreisstadt"},"district":{"key":"09174","name":"Dachau","type":"Landkreis"},"federalState":{"key":"09","name":"Bayern"}},{"name":"Nibelungenstr.","postalCode":"85221","locality":"Dachau","municipality":{"key":"09174115","name":"Dachau, GKSt","type":"Große_Kreisstadt"},"district":{"key":"09174","name":"Dachau","type":"Landkreis"},"federalState":{"key":"09","name":"Bayern"}},{"name":"Nikolaus-Deichl-Str.","postalCode":"85221","locality":"Dachau","municipality":{"key":"09174115","name":"Dachau, GKSt","type":"Große_Kreisstadt"},"district":{"key":"09174","name":"Dachau","type":"Landkreis"},"federalState":{"key":"09","name":"Bayern"}},{"name":"Nikolaus-Otto-Str.","postalCode":"85221","locality":"Dachau","municipality":{"key":"09174115","name":"Dachau, GKSt","type":"Große_Kreisstadt"},"district":{"key":"09174","name":"Dachau","type":"Landkreis"},"federalState":{"key":"09","name":"Bayern"}},{"name":"Nordenstr.","postalCode":"85221","locality":"Dachau","municipality":{"key":"09174115","name":"Dachau, GKSt","type":"Große_Kreisstadt"},"district":{"key":"09174","name":"Dachau","type":"Landkreis"},"federalState":{"key":"09","name":"Bayern"}},{"name":"Nürnberger Str.","postalCode":"85221","locality":"Dachau","municipality":{"key":"09174115","name":"Dachau, GKSt","type":"Große_Kreisstadt"},"district":{"key":"09174","name":"Dachau","type":"Landkreis"},"federalState":{"key":"09","name":"Bayern"}},{"name":"Orthofener Str.","postalCode":"85259","locality":"Sulzemoos","municipality":{"key":"09174146","name":"Sulzemoos","type":"Kreisangehörige_Gemeinde"},"district":{"key":"09174","name":"Dachau","type":"Landkreis"},"federalState":{"key":"09","name":"Bayern"}},{"name":"Pacellistr.","postalCode":"85221","locality":"Dachau","municipality":{"key":"09174115","name":"Dachau, GKSt","type":"Große_Kreisstadt"},"district":{"key":"09174","name":"Dachau","type":"Landkreis"},"federalState":{"key":"09","name":"Bayern"}},{"name":"Pappelweg","postalCode":"85221","locality":"Dachau","municipality":{"key":"09174115","name":"Dachau, GKSt","type":"Große_Kreisstadt"},"district":{"key":"09174","name":"Dachau","type":"Landkreis"},"federalState":{"key":"09","name":"Bayern"}},{"name":"Pastor-Niemöller-Weg","postalCode":"85221","locality":"Dachau","municipality":{"key":"09174115","name":"Dachau, GKSt","type":"Große_Kreisstadt"},"district":{"key":"09174","name":"Dachau","type":"Landkreis"},"federalState":{"key":"09","name":"Bayern"}},{"name":"Pater-Delp-Str.","postalCode":"85221","locality":"Dachau","municipality":{"key":"09174115","name":"Dachau, GKSt","type":"Große_Kreisstadt"},"district":{"key":"09174","name":"Dachau","type":"Landkreis"},"federalState":{"key":"09","name":"Bayern"}},{"name":"Pater-Roth-Str.","postalCode":"85221","locality":"Dachau","municipality":{"key":"09174115","name":"Dachau, GKSt","type":"Große_Kreisstadt"},"district":{"key":"09174","name":"Dachau","type":"Landkreis"},"federalState":{"key":"09","name":"Bayern"}},{"name":"Paula-Wimmer-Str.","postalCode":"85221","locality":"Dachau","municipality":{"key":"09174115","name":"Dachau, GKSt","type":"Große_Kreisstadt"},"district":{"key":"09174","name":"Dachau","type":"Landkreis"},"federalState":{"key":"09","name":"Bayern"}},{"name":"Pfarrer-Eicher-Str.","postalCode":"85221","locality":"Dachau","municipality":{"key":"09174115","name":"Dachau, GKSt","type":"Große_Kreisstadt"},"district":{"key":"09174","name":"Dachau","type":"Landkreis"},"federalState":{"key":"09","name":"Bayern"}},{"name":"Pfarrer-Kölbl-Str.","postalCode":"85221","locality":"Dachau","municipality":{"key":"09174115","name":"Dachau, GKSt","type":"Große_Kreisstadt"},"district":{"key":"09174","name":"Dachau","type":"Landkreis"},"federalState":{"key":"09","name":"Bayern"}},{"name":"Pfarrer-Lechner-Weg","postalCode":"85221","locality":"Dachau","municipality":{"key":"09174115","name":"Dachau, GKSt","type":"Große_Kreisstadt"},"district":{"key":"09174","name":"Dachau","type":"Landkreis"},"federalState":{"key":"09","name":"Bayern"}},{"name":"Pfarrstr.","postalCode":"85221","locality":"Dachau","municipality":{"key":"09174115","name":"Dachau, GKSt","type":"Große_Kreisstadt"},"district":{"key":"09174","name":"Dachau","type":"Landkreis"},"federalState":{"key":"09","name":"Bayern"}},{"name":"Plankenwiese","postalCode":"85221","locality":"Dachau","municipality":{"key":"09174115","name":"Dachau, GKSt","type":"Große_Kreisstadt"},"district":{"key":"09174","name":"Dachau","type":"Landkreis"},"federalState":{"key":"09","name":"Bayern"}},{"name":"Pollnstr.","postalCode":"85221","locality":"Dachau","municipality":{"key":"09174115","name":"Dachau, GKSt","type":"Große_Kreisstadt"},"district":{"key":"09174","name":"Dachau","type":"Landkreis"},"federalState":{"key":"09","name":"Bayern"}},{"name":"Prälat-Pfanzelt-Str.","postalCode":"85221","locality":"Dachau","municipality":{"key":"09174115","name":"Dachau, GKSt","type":"Große_Kreisstadt"},"district":{"key":"09174","name":"Dachau","type":"Landkreis"},"federalState":{"key":"09","name":"Bayern"}},{"name":"Prälat-Wolker-Str.","postalCode":"85221","locality":"Dachau","municipality":{"key":"09174115","name":"Dachau, GKSt","type":"Große_Kreisstadt"},"district":{"key":"09174","name":"Dachau","type":"Landkreis"},"federalState":{"key":"09","name":"Bayern"}},{"name":"Prinz-Adalbert-Str.","postalCode":"85221","locality":"Dachau","municipality":{"key":"09174115","name":"Dachau, GKSt","type":"Große_Kreisstadt"},"district":{"key":"09174","name":"Dachau","type":"Landkreis"},"federalState":{"key":"09","name":"Bayern"}},{"name":"Puchheimer Str.","postalCode":"85221","locality":"Dachau","municipality":{"key":"09174115","name":"Dachau, GKSt","type":"Große_Kreisstadt"},"district":{"key":"09174","name":"Dachau","type":"Landkreis"},"federalState":{"key":"09","name":"Bayern"}},{"name":"Ringstr.","postalCode":"85254","locality":"Sulzemoos","municipality":{"key":"09174146","name":"Sulzemoos","type":"Kreisangehörige_Gemeinde"},"district":{"key":"09174","name":"Dachau","type":"Landkreis"},"federalState":{"key":"09","name":"Bayern"}},{"name":"Rohrbachstr.","postalCode":"85259","locality":"Sulzemoos","municipality":{"key":"09174146","name":"Sulzemoos","type":"Kreisangehörige_Gemeinde"},"district":{"key":"09174","name":"Dachau","type":"Landkreis"},"federalState":{"key":"09","name":"Bayern"}},{"name":"Römerstr.","postalCode":"85254","locality":"Sulzemoos","municipality":{"key":"09174146","name":"Sulzemoos","type":"Kreisangehörige_Gemeinde"},"district":{"key":"09174","name":"Dachau","type":"Landkreis"},"federalState":{"key":"09","name":"Bayern"}},{"name":"Rosenstr.","postalCode":"85259","locality":"Sulzemoos","municipality":{"key":"09174146","name":"Sulzemoos","type":"Kreisangehörige_Gemeinde"},"district":{"key":"09174","name":"Dachau","type":"Landkreis"},"federalState":{"key":"09","name":"Bayern"}},{"name":"Sankt-Florians-Weg","postalCode":"85254","locality":"Sulzemoos","municipality":{"key":"09174146","name":"Sulzemoos","type":"Kreisangehörige_Gemeinde"},"district":{"key":"09174","name":"Dachau","type":"Landkreis"},"federalState":{"key":"09","name":"Bayern"}},{"name":"Schloßallee","postalCode":"85254","locality":"Sulzemoos","municipality":{"key":"09174146","name":"Sulzemoos","type":"Kreisangehörige_Gemeinde"},"district":{"key":"09174","name":"Dachau","type":"Landkreis"},"federalState":{"key":"09","name":"Bayern"}},{"name":"Schulstr.","postalCode":"85254","locality":"Sulzemoos","municipality":{"key":"09174146","name":"Sulzemoos","type":"Kreisangehörige_Gemeinde"},"district":{"key":"09174","name":"Dachau","type":"Landkreis"},"federalState":{"key":"09","name":"Bayern"}},{"name":"Schulweg","postalCode":"85254","locality":"Sulzemoos","municipality":{"key":"09174146","name":"Sulzemoos","type":"Kreisangehörige_Gemeinde"},"district":{"key":"09174","name":"Dachau","type":"Landkreis"},"federalState":{"key":"09","name":"Bayern"}},{"name":"Selacher Weg","postalCode":"85254","locality":"Sulzemoos","municipality":{"key":"09174146","name":"Sulzemoos","type":"Kreisangehörige_Gemeinde"},"district":{"key":"09174","name":"Dachau","type":"Landkreis"},"federalState":{"key":"09","name":"Bayern"}},{"name":"Steindlbachstr.","postalCode":"85254","locality":"Sulzemoos","municipality":{"key":"09174146","name":"Sulzemoos","type":"Kreisangehörige_Gemeinde"},"district":{"key":"09174","name":"Dachau","type":"Landkreis"},"federalState":{"key":"09","name":"Bayern"}},{"name":"Steinmetzstr.","postalCode":"85254","locality":"Sulzemoos","municipality":{"key":"09174146","name":"Sulzemoos","type":"Kreisangehörige_Gemeinde"},"district":{"key":"09174","name":"Dachau","type":"Landkreis"},"federalState":{"key":"09","name":"Bayern"}},{"name":"Sulzemooser Str.","postalCode":"85259","locality":"Sulzemoos","municipality":{"key":"09174146","name":"Sulzemoos","type":"Kreisangehörige_Gemeinde"},"district":{"key":"09174","name":"Dachau","type":"Landkreis"},"federalState":{"key":"09","name":"Bayern"}},{"name":"Tannenweg","postalCode":"85221","locality":"Dachau","municipality":{"key":"09174115","name":"Dachau, GKSt","type":"Große_Kreisstadt"},"district":{"key":"09174","name":"Dachau","type":"Landkreis"},"federalState":{"key":"09","name":"Bayern"}},{"name":"Taubenbergerstr.","postalCode":"85221","locality":"Dachau","municipality":{"key":"09174115","name":"Dachau, GKSt","type":"Große_Kreisstadt"},"district":{"key":"09174","name":"Dachau","type":"Landkreis"},"federalState":{"key":"09","name":"Bayern"}},{"name":"Teplitzer Ring","postalCode":"85221","locality":"Dachau","municipality":{"key":"09174115","name":"Dachau, GKSt","type":"Große_Kreisstadt"},"district":{"key":"09174","name":"Dachau","type":"Landkreis"},"federalState":{"key":"09","name":"Bayern"}},{"name":"Theodor-Heuss-Str.","postalCode":"85221","locality":"Dachau","municipality":{"key":"09174115","name":"Dachau, GKSt","type":"Große_Kreisstadt"},"district":{"key":"09174","name":"Dachau","type":"Landkreis"},"federalState":{"key":"09","name":"Bayern"}},{"name":"Thomas-Schwarz-Str.","postalCode":"85221","locality":"Dachau","municipality":{"key":"09174115","name":"Dachau, GKSt","type":"Große_Kreisstadt"},"district":{"key":"09174","name":"Dachau","type":"Landkreis"},"federalState":{"key":"09","name":"Bayern"}},{"name":"Thonauer Str.","postalCode":"85221","locality":"Dachau","municipality":{"key":"09174115","name":"Dachau, GKSt","type":"Große_Kreisstadt"},"district":{"key":"09174","name":"Dachau","type":"Landkreis"},"federalState":{"key":"09","name":"Bayern"}},{"name":"Tina-Blau-Str.","postalCode":"85221","locality":"Dachau","municipality":{"key":"09174115","name":"Dachau, GKSt","type":"Große_Kreisstadt"},"district":{"key":"09174","name":"Dachau","type":"Landkreis"},"federalState":{"key":"09","name":"Bayern"}},{"name":"Tiroler Str.","postalCode":"85221","locality":"Dachau","municipality":{"key":"09174115","name":"Dachau, GKSt","type":"Große_Kreisstadt"},"district":{"key":"09174","name":"Dachau","type":"Landkreis"},"federalState":{"key":"09","name":"Bayern"}},{"name":"Titus-Brandsma-Weg","postalCode":"85221","locality":"Dachau","municipality":{"key":"09174115","name":"Dachau, GKSt","type":"Große_Kreisstadt"},"district":{"key":"09174","name":"Dachau","type":"Landkreis"},"federalState":{"key":"09","name":"Bayern"}},{"name":"Tony-Binder-Str.","postalCode":"85221","locality":"Dachau","municipality":{"key":"09174115","name":"Dachau, GKSt","type":"Große_Kreisstadt"},"district":{"key":"09174","name":"Dachau","type":"Landkreis"},"federalState":{"key":"09","name":"Bayern"}},{"name":"Trautenauer Str.","postalCode":"85221","locality":"Dachau","municipality":{"key":"09174115","name":"Dachau, GKSt","type":"Große_Kreisstadt"},"district":{"key":"09174","name":"Dachau","type":"Landkreis"},"federalState":{"key":"09","name":"Bayern"}},{"name":"Troppauer Str.","postalCode":"85221","locality":"Dachau","municipality":{"key":"09174115","name":"Dachau, GKSt","type":"Große_Kreisstadt"},"district":{"key":"09174","name":"Dachau","type":"Landkreis"},"federalState":{"key":"09","name":"Bayern"}},{"name":"Tulpenweg","postalCode":"85221","locality":"Dachau","municipality":{"key":"09174115","name":"Dachau, GKSt","type":"Große_Kreisstadt"},"district":{"key":"09174","name":"Dachau","type":"Landkreis"},"federalState":{"key":"09","name":"Bayern"}},{"name":"Udldinger Str.","postalCode":"85221","locality":"Dachau","municipality":{"key":"09174115","name":"Dachau, GKSt","type":"Große_Kreisstadt"},"district":{"key":"09174","name":"Dachau","type":"Landkreis"},"federalState":{"key":"09","name":"Bayern"}},{"name":"Uhdestr.","postalCode":"85221","locality":"Dachau","municipality":{"key":"09174115","name":"Dachau, GKSt","type":"Große_Kreisstadt"},"district":{"key":"09174","name":"Dachau","type":"Landkreis"},"federalState":{"key":"09","name":"Bayern"}},{"name":"Ulmenweg","postalCode":"85221","locality":"Dachau","municipality":{"key":"09174115","name":"Dachau, GKSt","type":"Große_Kreisstadt"},"district":{"key":"09174","name":"Dachau","type":"Landkreis"},"federalState":{"key":"09","name":"Bayern"}},{"name":"Unterer Markt","postalCode":"85221","locality":"Dachau","municipality":{"key":"09174115","name":"Dachau, GKSt","type":"Große_Kreisstadt"},"district":{"key":"09174","name":"Dachau","type":"Landkreis"},"federalState":{"key":"09","name":"Bayern"}},{"name":"Victor-Weishaupt-Str.","postalCode":"85221","locality":"Dachau","municipality":{"key":"09174115","name":"Dachau, GKSt","type":"Große_Kreisstadt"},"district":{"key":"09174","name":"Dachau","type":"Landkreis"},"federalState":{"key":"09","name":"Bayern"}},{"name":"Von-Eichendorff-Str.","postalCode":"85221","locality":"Dachau","municipality":{"key":"09174115","name":"Dachau, GKSt","type":"Große_Kreisstadt"},"district":{"key":"09174","name":"Dachau","type":"Landkreis"},"federalState":{"key":"09","name":"Bayern"}},{"name":"Von-Herterich-Str.","postalCode":"85221","locality":"Dachau","municipality":{"key":"09174115","name":"Dachau, GKSt","type":"Große_Kreisstadt"},"district":{"key":"09174","name":"Dachau","type":"Landkreis"},"federalState":{"key":"09","name":"Bayern"}},{"name":"Von-Hohenhausen-Str.","postalCode":"85221","locality":"Dachau","municipality":{"key":"09174115","name":"Dachau, GKSt","type":"Große_Kreisstadt"},"district":{"key":"09174","name":"Dachau","type":"Landkreis"},"federalState":{"key":"09","name":"Bayern"}},{"name":"Von-Ruckteschell-Weg","postalCode":"85221","locality":"Dachau","municipality":{"key":"09174115","name":"Dachau, GKSt","type":"Große_Kreisstadt"},"district":{"key":"09174","name":"Dachau","type":"Landkreis"},"federalState":{"key":"09","name":"Bayern"}},{"name":"Waldstr.","postalCode":"85254","locality":"Sulzemoos","municipality":{"key":"09174146","name":"Sulzemoos","type":"Kreisangehörige_Gemeinde"},"district":{"key":"09174","name":"Dachau","type":"Landkreis"},"federalState":{"key":"09","name":"Bayern"}},{"name":"Waldweg","postalCode":"85259","locality":"Sulzemoos","municipality":{"key":"09174146","name":"Sulzemoos","type":"Kreisangehörige_Gemeinde"},"district":{"key":"09174","name":"Dachau","type":"Landkreis"},"federalState":{"key":"09","name":"Bayern"}},{"name":"Weiherweg","postalCode":"85254","locality":"Sulzemoos","municipality":{"key":"09174146","name":"Sulzemoos","type":"Kreisangehörige_Gemeinde"},"district":{"key":"09174","name":"Dachau","type":"Landkreis"},"federalState":{"key":"09","name":"Bayern"}},{"name":"Werner-Heisenberg-Str.","postalCode":"85254","locality":"Sulzemoos","municipality":{"key":"09174146","name":"Sulzemoos","type":"Kreisangehörige_Gemeinde"},"district":{"key":"09174","name":"Dachau","type":"Landkreis"},"federalState":{"key":"09","name":"Bayern"}},{"name":"Westring","postalCode":"85254","locality":"Sulzemoos","municipality":{"key":"09174146","name":"Sulzemoos","type":"Kreisangehörige_Gemeinde"},"district":{"key":"09174","name":"Dachau","type":"Landkreis"},"federalState":{"key":"09","name":"Bayern"}},{"name":"Wiesenweg","postalCode":"85254","locality":"Sulzemoos","municipality":{"key":"09174146","name":"Sulzemoos","type":"Kreisangehörige_Gemeinde"},"district":{"key":"09174","name":"Dachau","type":"Landkreis"},"federalState":{"key":"09","name":"Bayern"}},{"name":"Zweigstr.","postalCode":"85259","locality":"Sulzemoos","municipality":{"key":"09174146","name":"Sulzemoos","type":"Kreisangehörige_Gemeinde"},"district":{"key":"09174","name":"Dachau","type":"Landkreis"},"federalState":{"key":"09","name":"Bayern"}},]