[{"key":"10053577","name":"Bellerive","postalCode":"2805","locality":"Soyhières","commune":{"key":"6724","name":"Soyhières","shortName":"Soyhières"},"district":{"key":"2601","name":"District de Delémont"},"canton":{"key":"26","code":"JU","name":"Jura"},"status":"Real"},{"key":"10082934","name":"Bois du Treuil","postalCode":"2805","locality":"Soyhières","commune":{"key":"6724","name":"Soyhières","shortName":"Soyhières"},"district":{"key":"2601","name":"District de Delémont"},"canton":{"key":"26","code":"JU","name":"Jura"},"status":"Real"},{"key":"10223468","name":"Champs de la Pâle","postalCode":"2805","locality":"Soyhières","commune":{"key":"6724","name":"Soyhières","shortName":"Soyhières"},"district":{"key":"2601","name":"District de Delémont"},"canton":{"key":"26","code":"JU","name":"Jura"},"status":"Real"},{"key":"10109286","name":"Château de Soyhières","postalCode":"2805","locality":"Soyhières","commune":{"key":"6724","name":"Soyhières","shortName":"Soyhières"},"district":{"key":"2601","name":"District de Delémont"},"canton":{"key":"26","code":"JU","name":"Jura"},"status":"Real"},{"key":"10053315","name":"Chemin de la Réselle","postalCode":"2805","locality":"Soyhières","commune":{"key":"6724","name":"Soyhières","shortName":"Soyhières"},"district":{"key":"2601","name":"District de Delémont"},"canton":{"key":"26","code":"JU","name":"Jura"},"status":"Real"},{"key":"10105230","name":"Chemin de la Sapinière","postalCode":"2805","locality":"Soyhières","commune":{"key":"6724","name":"Soyhières","shortName":"Soyhières"},"district":{"key":"2601","name":"District de Delémont"},"canton":{"key":"26","code":"JU","name":"Jura"},"status":"Real"},{"key":"10099350","name":"Chemin des Sorbiers","postalCode":"2805","locality":"Soyhières","commune":{"key":"6724","name":"Soyhières","shortName":"Soyhières"},"district":{"key":"2601","name":"District de Delémont"},"canton":{"key":"26","code":"JU","name":"Jura"},"status":"Real"},{"key":"10053316","name":"Chemin des Tilleuls","postalCode":"2805","locality":"Soyhières","commune":{"key":"6724","name":"Soyhières","shortName":"Soyhières"},"district":{"key":"2601","name":"District de Delémont"},"canton":{"key":"26","code":"JU","name":"Jura"},"status":"Real"},{"key":"10053317","name":"Chemin du Brunchenal","postalCode":"2805","locality":"Soyhières","commune":{"key":"6724","name":"Soyhières","shortName":"Soyhières"},"district":{"key":"2601","name":"District de Delémont"},"canton":{"key":"26","code":"JU","name":"Jura"},"status":"Real"},{"key":"10099351","name":"Chemin du Château","postalCode":"2805","locality":"Soyhières","commune":{"key":"6724","name":"Soyhières","shortName":"Soyhières"},"district":{"key":"2601","name":"District de Delémont"},"canton":{"key":"26","code":"JU","name":"Jura"},"status":"Real"},{"key":"10223472","name":"Chemin du Père Blanchard","postalCode":"2805","locality":"Soyhières","commune":{"key":"6724","name":"Soyhières","shortName":"Soyhières"},"district":{"key":"2601","name":"District de Delémont"},"canton":{"key":"26","code":"JU","name":"Jura"},"status":"Real"},{"key":"10223476","name":"Chemin du Stand","postalCode":"2805","locality":"Soyhières","commune":{"key":"6724","name":"Soyhières","shortName":"Soyhières"},"district":{"key":"2601","name":"District de Delémont"},"canton":{"key":"26","code":"JU","name":"Jura"},"status":"Real"},{"key":"10053318","name":"Chemin du Vorbourg","postalCode":"2805","locality":"Soyhières","commune":{"key":"6724","name":"Soyhières","shortName":"Soyhières"},"district":{"key":"2601","name":"District de Delémont"},"canton":{"key":"26","code":"JU","name":"Jura"},"status":"Real"},{"key":"10223480","name":"Clos du Moulin","postalCode":"2805","locality":"Soyhières","commune":{"key":"6724","name":"Soyhières","shortName":"Soyhières"},"district":{"key":"2601","name":"District de Delémont"},"canton":{"key":"26","code":"JU","name":"Jura"},"status":"Real"},{"key":"10130708","name":"Essert aux Fraises","postalCode":"2805","locality":"Soyhières","commune":{"key":"6724","name":"Soyhières","shortName":"Soyhières"},"district":{"key":"2601","name":"District de Delémont"},"canton":{"key":"26","code":"JU","name":"Jura"},"status":"Real"},{"key":"10242674","name":"L'Abschell","postalCode":"2805","locality":"Soyhières","commune":{"key":"6724","name":"Soyhières","shortName":"Soyhières"},"district":{"key":"2601","name":"District de Delémont"},"canton":{"key":"26","code":"JU","name":"Jura"},"status":"Real"},{"key":"10183489","name":"La Cantine","postalCode":"2805","locality":"Soyhières","commune":{"key":"6724","name":"Soyhières","shortName":"Soyhières"},"district":{"key":"2601","name":"District de Delémont"},"canton":{"key":"26","code":"JU","name":"Jura"},"status":"Real"},{"key":"10116751","name":"La Combe","postalCode":"2805","locality":"Soyhières","commune":{"key":"6724","name":"Soyhières","shortName":"Soyhières"},"district":{"key":"2601","name":"District de Delémont"},"canton":{"key":"26","code":"JU","name":"Jura"},"status":"Real"},{"key":"10241683","name":"La Grosse Fin","postalCode":"2805","locality":"Soyhières","commune":{"key":"6724","name":"Soyhières","shortName":"Soyhières"},"district":{"key":"2601","name":"District de Delémont"},"canton":{"key":"26","code":"JU","name":"Jura"},"status":"Real"},{"key":"10053319","name":"La Réselle","postalCode":"2805","locality":"Soyhières","commune":{"key":"6724","name":"Soyhières","shortName":"Soyhières"},"district":{"key":"2601","name":"District de Delémont"},"canton":{"key":"26","code":"JU","name":"Jura"},"status":"Real"},{"key":"10223491","name":"La Todtwog","postalCode":"2805","locality":"Soyhières","commune":{"key":"6724","name":"Soyhières","shortName":"Soyhières"},"district":{"key":"2601","name":"District de Delémont"},"canton":{"key":"26","code":"JU","name":"Jura"},"status":"Real"},{"key":"10223494","name":"La Vieille Eglise","postalCode":"2805","locality":"Soyhières","commune":{"key":"6724","name":"Soyhières","shortName":"Soyhières"},"district":{"key":"2601","name":"District de Delémont"},"canton":{"key":"26","code":"JU","name":"Jura"},"status":"Real"},{"key":"10130709","name":"Le Bambois","postalCode":"2805","locality":"Soyhières","commune":{"key":"6724","name":"Soyhières","shortName":"Soyhières"},"district":{"key":"2601","name":"District de Delémont"},"canton":{"key":"26","code":"JU","name":"Jura"},"status":"Real"},{"key":"10223500","name":"Le Cerneux","postalCode":"2805","locality":"Soyhières","commune":{"key":"6724","name":"Soyhières","shortName":"Soyhières"},"district":{"key":"2601","name":"District de Delémont"},"canton":{"key":"26","code":"JU","name":"Jura"},"status":"Real"},{"key":"10182370","name":"Le Rohrberg","postalCode":"2805","locality":"Soyhières","commune":{"key":"6724","name":"Soyhières","shortName":"Soyhières"},"district":{"key":"2601","name":"District de Delémont"},"canton":{"key":"26","code":"JU","name":"Jura"},"status":"Real"},{"key":"10063125","name":"Les Grands Prés","postalCode":"2805","locality":"Soyhières","commune":{"key":"6724","name":"Soyhières","shortName":"Soyhières"},"district":{"key":"2601","name":"District de Delémont"},"canton":{"key":"26","code":"JU","name":"Jura"},"status":"Real"},{"key":"10053581","name":"Les Orties","postalCode":"2805","locality":"Soyhières","commune":{"key":"6724","name":"Soyhières","shortName":"Soyhières"},"district":{"key":"2601","name":"District de Delémont"},"canton":{"key":"26","code":"JU","name":"Jura"},"status":"Real"},{"key":"10082725","name":"Les Riedes-Dessus","postalCode":"2805","locality":"Soyhières","commune":{"key":"6724","name":"Soyhières","shortName":"Soyhières"},"district":{"key":"2601","name":"District de Delémont"},"canton":{"key":"26","code":"JU","name":"Jura"},"status":"Real"},{"key":"10197938","name":"Nesselhof","postalCode":"2805","locality":"Soyhières","commune":{"key":"6724","name":"Soyhières","shortName":"Soyhières"},"district":{"key":"2601","name":"District de Delémont"},"canton":{"key":"26","code":"JU","name":"Jura"},"status":"Real"},{"key":"10099352","name":"Pâturage sur Bouecq","postalCode":"2805","locality":"Soyhières","commune":{"key":"6724","name":"Soyhières","shortName":"Soyhières"},"district":{"key":"2601","name":"District de Delémont"},"canton":{"key":"26","code":"JU","name":"Jura"},"status":"Real"},{"key":"10053320","name":"Place de la Liberté","postalCode":"2805","locality":"Soyhières","commune":{"key":"6724","name":"Soyhières","shortName":"Soyhières"},"district":{"key":"2601","name":"District de Delémont"},"canton":{"key":"26","code":"JU","name":"Jura"},"status":"Real"},{"key":"10223508","name":"Prés de la Chenal","postalCode":"2805","locality":"Soyhières","commune":{"key":"6724","name":"Soyhières","shortName":"Soyhières"},"district":{"key":"2601","name":"District de Delémont"},"canton":{"key":"26","code":"JU","name":"Jura"},"status":"Real"},{"key":"10223512","name":"Prés Outre l'Eau","postalCode":"2805","locality":"Soyhières","commune":{"key":"6724","name":"Soyhières","shortName":"Soyhières"},"district":{"key":"2601","name":"District de Delémont"},"canton":{"key":"26","code":"JU","name":"Jura"},"status":"Real"},{"key":"10223516","name":"Rière la Vieille Eglise","postalCode":"2805","locality":"Soyhières","commune":{"key":"6724","name":"Soyhières","shortName":"Soyhières"},"district":{"key":"2601","name":"District de Delémont"},"canton":{"key":"26","code":"JU","name":"Jura"},"status":"Real"},{"key":"10053321","name":"Rière le Plainat","postalCode":"2805","locality":"Soyhières","commune":{"key":"6724","name":"Soyhières","shortName":"Soyhières"},"district":{"key":"2601","name":"District de Delémont"},"canton":{"key":"26","code":"JU","name":"Jura"},"status":"Real"},{"key":"10053322","name":"Route de Bâle","postalCode":"2805","locality":"Soyhières","commune":{"key":"6724","name":"Soyhières","shortName":"Soyhières"},"district":{"key":"2601","name":"District de Delémont"},"canton":{"key":"26","code":"JU","name":"Jura"},"status":"Real"},{"key":"10184293","name":"Route de France","postalCode":"2805","locality":"Soyhières","commune":{"key":"6724","name":"Soyhières","shortName":"Soyhières"},"district":{"key":"2601","name":"District de Delémont"},"canton":{"key":"26","code":"JU","name":"Jura"},"status":"Real"},{"key":"10053323","name":"Rue du 23-Juin","postalCode":"2805","locality":"Soyhières","commune":{"key":"6724","name":"Soyhières","shortName":"Soyhières"},"district":{"key":"2601","name":"District de Delémont"},"canton":{"key":"26","code":"JU","name":"Jura"},"status":"Real"},{"key":"10223520","name":"Sous la Réselle","postalCode":"2805","locality":"Soyhières","commune":{"key":"6724","name":"Soyhières","shortName":"Soyhières"},"district":{"key":"2601","name":"District de Delémont"},"canton":{"key":"26","code":"JU","name":"Jura"},"status":"Real"},{"key":"10223523","name":"Sur la Halle","postalCode":"2805","locality":"Soyhières","commune":{"key":"6724","name":"Soyhières","shortName":"Soyhières"},"district":{"key":"2601","name":"District de Delémont"},"canton":{"key":"26","code":"JU","name":"Jura"},"status":"Real"},]