[{"name":"Alter Schulsteig","postalCode":"24620","locality":"Bönebüttel","municipality":{"key":"01057008","name":"Bönebüttel","type":"Kreisangehörige_Gemeinde"},"district":{"key":"01057","name":"Plön","type":"Kreis"},"federalState":{"key":"01","name":"Schleswig-Holstein"}},{"name":"Aufeld","postalCode":"24620","locality":"Bönebüttel","municipality":{"key":"01057008","name":"Bönebüttel","type":"Kreisangehörige_Gemeinde"},"district":{"key":"01057","name":"Plön","type":"Kreis"},"federalState":{"key":"01","name":"Schleswig-Holstein"}},{"name":"Bogenweg","postalCode":"24620","locality":"Bönebüttel","municipality":{"key":"01057008","name":"Bönebüttel","type":"Kreisangehörige_Gemeinde"},"district":{"key":"01057","name":"Plön","type":"Kreis"},"federalState":{"key":"01","name":"Schleswig-Holstein"}},{"name":"Bönebütteler Damm","postalCode":"24620","locality":"Bönebüttel","municipality":{"key":"01057008","name":"Bönebüttel","type":"Kreisangehörige_Gemeinde"},"district":{"key":"01057","name":"Plön","type":"Kreis"},"federalState":{"key":"01","name":"Schleswig-Holstein"}},{"name":"Bönebütteler Ring","postalCode":"24620","locality":"Bönebüttel","municipality":{"key":"01057008","name":"Bönebüttel","type":"Kreisangehörige_Gemeinde"},"district":{"key":"01057","name":"Plön","type":"Kreis"},"federalState":{"key":"01","name":"Schleswig-Holstein"}},{"name":"Börringbaumer Weg","postalCode":"24620","locality":"Bönebüttel","municipality":{"key":"01057008","name":"Bönebüttel","type":"Kreisangehörige_Gemeinde"},"district":{"key":"01057","name":"Plön","type":"Kreis"},"federalState":{"key":"01","name":"Schleswig-Holstein"}},{"name":"Brammerhof","postalCode":"24620","locality":"Bönebüttel","municipality":{"key":"01057008","name":"Bönebüttel","type":"Kreisangehörige_Gemeinde"},"district":{"key":"01057","name":"Plön","type":"Kreis"},"federalState":{"key":"01","name":"Schleswig-Holstein"}},{"name":"Brammerweg","postalCode":"24620","locality":"Bönebüttel","municipality":{"key":"01057008","name":"Bönebüttel","type":"Kreisangehörige_Gemeinde"},"district":{"key":"01057","name":"Plön","type":"Kreis"},"federalState":{"key":"01","name":"Schleswig-Holstein"}},{"name":"Brammer Weg","postalCode":"24620","locality":"Bönebüttel","municipality":{"key":"01057008","name":"Bönebüttel","type":"Kreisangehörige_Gemeinde"},"district":{"key":"01057","name":"Plön","type":"Kreis"},"federalState":{"key":"01","name":"Schleswig-Holstein"}},{"name":"Campingplatz Spitzenort","postalCode":"24306","locality":"Plön","municipality":{"key":"01057057","name":"Plön, Stadt","type":"Stadt"},"district":{"key":"01057","name":"Plön","type":"Kreis"},"federalState":{"key":"01","name":"Schleswig-Holstein"}},{"name":"Charlotte-Niese-Weg","postalCode":"24306","locality":"Plön","municipality":{"key":"01057057","name":"Plön, Stadt","type":"Stadt"},"district":{"key":"01057","name":"Plön","type":"Kreis"},"federalState":{"key":"01","name":"Schleswig-Holstein"}},{"name":"Dachsweg","postalCode":"24620","locality":"Bönebüttel","municipality":{"key":"01057008","name":"Bönebüttel","type":"Kreisangehörige_Gemeinde"},"district":{"key":"01057","name":"Plön","type":"Kreis"},"federalState":{"key":"01","name":"Schleswig-Holstein"}},{"name":"Dorfstr.","postalCode":"24620","locality":"Bönebüttel","municipality":{"key":"01057008","name":"Bönebüttel","type":"Kreisangehörige_Gemeinde"},"district":{"key":"01057","name":"Plön","type":"Kreis"},"federalState":{"key":"01","name":"Schleswig-Holstein"}},{"name":"Elisabeth-Jaspersen-Weg","postalCode":"24306","locality":"Plön","municipality":{"key":"01057057","name":"Plön, Stadt","type":"Stadt"},"district":{"key":"01057","name":"Plön","type":"Kreis"},"federalState":{"key":"01","name":"Schleswig-Holstein"}},{"name":"Emmi-Kurzke-Str.","postalCode":"24306","locality":"Plön","municipality":{"key":"01057057","name":"Plön, Stadt","type":"Stadt"},"district":{"key":"01057","name":"Plön","type":"Kreis"},"federalState":{"key":"01","name":"Schleswig-Holstein"}},{"name":"Eutiner Str.","postalCode":"24306","locality":"Plön","municipality":{"key":"01057057","name":"Plön, Stadt","type":"Stadt"},"district":{"key":"01057","name":"Plön","type":"Kreis"},"federalState":{"key":"01","name":"Schleswig-Holstein"}},{"name":"Fasanenweg","postalCode":"24620","locality":"Bönebüttel","municipality":{"key":"01057008","name":"Bönebüttel","type":"Kreisangehörige_Gemeinde"},"district":{"key":"01057","name":"Plön","type":"Kreis"},"federalState":{"key":"01","name":"Schleswig-Holstein"}},{"name":"Fuchsweg","postalCode":"24620","locality":"Bönebüttel","municipality":{"key":"01057008","name":"Bönebüttel","type":"Kreisangehörige_Gemeinde"},"district":{"key":"01057","name":"Plön","type":"Kreis"},"federalState":{"key":"01","name":"Schleswig-Holstein"}},{"name":"Gartengrund","postalCode":"24620","locality":"Bönebüttel","municipality":{"key":"01057008","name":"Bönebüttel","type":"Kreisangehörige_Gemeinde"},"district":{"key":"01057","name":"Plön","type":"Kreis"},"federalState":{"key":"01","name":"Schleswig-Holstein"}},{"name":"Hans-Siem-Weg","postalCode":"24620","locality":"Bönebüttel","municipality":{"key":"01057008","name":"Bönebüttel","type":"Kreisangehörige_Gemeinde"},"district":{"key":"01057","name":"Plön","type":"Kreis"},"federalState":{"key":"01","name":"Schleswig-Holstein"}},{"name":"Harderkamp","postalCode":"24620","locality":"Bönebüttel","municipality":{"key":"01057008","name":"Bönebüttel","type":"Kreisangehörige_Gemeinde"},"district":{"key":"01057","name":"Plön","type":"Kreis"},"federalState":{"key":"01","name":"Schleswig-Holstein"}},{"name":"Hasenredder","postalCode":"24620","locality":"Bönebüttel","municipality":{"key":"01057008","name":"Bönebüttel","type":"Kreisangehörige_Gemeinde"},"district":{"key":"01057","name":"Plön","type":"Kreis"},"federalState":{"key":"01","name":"Schleswig-Holstein"}},{"name":"Hohenbergskamp","postalCode":"24620","locality":"Bönebüttel","municipality":{"key":"01057008","name":"Bönebüttel","type":"Kreisangehörige_Gemeinde"},"district":{"key":"01057","name":"Plön","type":"Kreis"},"federalState":{"key":"01","name":"Schleswig-Holstein"}},{"name":"Hohenbergsredder","postalCode":"24620","locality":"Bönebüttel","municipality":{"key":"01057008","name":"Bönebüttel","type":"Kreisangehörige_Gemeinde"},"district":{"key":"01057","name":"Plön","type":"Kreis"},"federalState":{"key":"01","name":"Schleswig-Holstein"}},{"name":"Hollenbeker Weg","postalCode":"24620","locality":"Bönebüttel","municipality":{"key":"01057008","name":"Bönebüttel","type":"Kreisangehörige_Gemeinde"},"district":{"key":"01057","name":"Plön","type":"Kreis"},"federalState":{"key":"01","name":"Schleswig-Holstein"}},{"name":"Höllnweg","postalCode":"24620","locality":"Bönebüttel","municipality":{"key":"01057008","name":"Bönebüttel","type":"Kreisangehörige_Gemeinde"},"district":{"key":"01057","name":"Plön","type":"Kreis"},"federalState":{"key":"01","name":"Schleswig-Holstein"}},{"name":"Holzweg","postalCode":"24620","locality":"Bönebüttel","municipality":{"key":"01057008","name":"Bönebüttel","type":"Kreisangehörige_Gemeinde"},"district":{"key":"01057","name":"Plön","type":"Kreis"},"federalState":{"key":"01","name":"Schleswig-Holstein"}},{"name":"Hornsredder","postalCode":"24620","locality":"Bönebüttel","municipality":{"key":"01057008","name":"Bönebüttel","type":"Kreisangehörige_Gemeinde"},"district":{"key":"01057","name":"Plön","type":"Kreis"},"federalState":{"key":"01","name":"Schleswig-Holstein"}},{"name":"Husbergermoor","postalCode":"24620","locality":"Bönebüttel","municipality":{"key":"01057008","name":"Bönebüttel","type":"Kreisangehörige_Gemeinde"},"district":{"key":"01057","name":"Plön","type":"Kreis"},"federalState":{"key":"01","name":"Schleswig-Holstein"}},{"name":"Iltisweg","postalCode":"24620","locality":"Bönebüttel","municipality":{"key":"01057008","name":"Bönebüttel","type":"Kreisangehörige_Gemeinde"},"district":{"key":"01057","name":"Plön","type":"Kreis"},"federalState":{"key":"01","name":"Schleswig-Holstein"}},{"name":"Johannisstr.","postalCode":"24306","locality":"Plön","municipality":{"key":"01057057","name":"Plön, Stadt","type":"Stadt"},"district":{"key":"01057","name":"Plön","type":"Kreis"},"federalState":{"key":"01","name":"Schleswig-Holstein"}},{"name":"Jörg-Steinbach-Ring","postalCode":"24306","locality":"Plön","municipality":{"key":"01057057","name":"Plön, Stadt","type":"Stadt"},"district":{"key":"01057","name":"Plön","type":"Kreis"},"federalState":{"key":"01","name":"Schleswig-Holstein"}},{"name":"Kirchenholzweg","postalCode":"24620","locality":"Bönebüttel","municipality":{"key":"01057008","name":"Bönebüttel","type":"Kreisangehörige_Gemeinde"},"district":{"key":"01057","name":"Plön","type":"Kreis"},"federalState":{"key":"01","name":"Schleswig-Holstein"}},{"name":"Kirchkamp","postalCode":"24620","locality":"Bönebüttel","municipality":{"key":"01057008","name":"Bönebüttel","type":"Kreisangehörige_Gemeinde"},"district":{"key":"01057","name":"Plön","type":"Kreis"},"federalState":{"key":"01","name":"Schleswig-Holstein"}},{"name":"Lohweg","postalCode":"24620","locality":"Bönebüttel","municipality":{"key":"01057008","name":"Bönebüttel","type":"Kreisangehörige_Gemeinde"},"district":{"key":"01057","name":"Plön","type":"Kreis"},"federalState":{"key":"01","name":"Schleswig-Holstein"}},{"name":"Marderweg","postalCode":"24620","locality":"Bönebüttel","municipality":{"key":"01057008","name":"Bönebüttel","type":"Kreisangehörige_Gemeinde"},"district":{"key":"01057","name":"Plön","type":"Kreis"},"federalState":{"key":"01","name":"Schleswig-Holstein"}},{"name":"Mövenwischredder","postalCode":"24620","locality":"Bönebüttel","municipality":{"key":"01057008","name":"Bönebüttel","type":"Kreisangehörige_Gemeinde"},"district":{"key":"01057","name":"Plön","type":"Kreis"},"federalState":{"key":"01","name":"Schleswig-Holstein"}},{"name":"Mühlenblöcken","postalCode":"24620","locality":"Bönebüttel","municipality":{"key":"01057008","name":"Bönebüttel","type":"Kreisangehörige_Gemeinde"},"district":{"key":"01057","name":"Plön","type":"Kreis"},"federalState":{"key":"01","name":"Schleswig-Holstein"}},{"name":"Oberer Rathsteichweg","postalCode":"24306","locality":"Plön","municipality":{"key":"01057057","name":"Plön, Stadt","type":"Stadt"},"district":{"key":"01057","name":"Plön","type":"Kreis"},"federalState":{"key":"01","name":"Schleswig-Holstein"}},{"name":"Osterterp","postalCode":"24306","locality":"Plön","municipality":{"key":"01057057","name":"Plön, Stadt","type":"Stadt"},"district":{"key":"01057","name":"Plön","type":"Kreis"},"federalState":{"key":"01","name":"Schleswig-Holstein"}},{"name":"Plöner Chaussee","postalCode":"24620","locality":"Bönebüttel","municipality":{"key":"01057008","name":"Bönebüttel","type":"Kreisangehörige_Gemeinde"},"district":{"key":"01057","name":"Plön","type":"Kreis"},"federalState":{"key":"01","name":"Schleswig-Holstein"}},{"name":"Rathaustwiete","postalCode":"24306","locality":"Plön","municipality":{"key":"01057057","name":"Plön, Stadt","type":"Stadt"},"district":{"key":"01057","name":"Plön","type":"Kreis"},"federalState":{"key":"01","name":"Schleswig-Holstein"}},{"name":"Rathjensdorfer Weg","postalCode":"24306","locality":"Plön","municipality":{"key":"01057057","name":"Plön, Stadt","type":"Stadt"},"district":{"key":"01057","name":"Plön","type":"Kreis"},"federalState":{"key":"01","name":"Schleswig-Holstein"}},{"name":"Rathsberg","postalCode":"24306","locality":"Plön","municipality":{"key":"01057057","name":"Plön, Stadt","type":"Stadt"},"district":{"key":"01057","name":"Plön","type":"Kreis"},"federalState":{"key":"01","name":"Schleswig-Holstein"}},{"name":"Rautenbergstr.","postalCode":"24306","locality":"Plön","municipality":{"key":"01057057","name":"Plön, Stadt","type":"Stadt"},"district":{"key":"01057","name":"Plön","type":"Kreis"},"federalState":{"key":"01","name":"Schleswig-Holstein"}},{"name":"Rodomstorstr.","postalCode":"24306","locality":"Plön","municipality":{"key":"01057057","name":"Plön, Stadt","type":"Stadt"},"district":{"key":"01057","name":"Plön","type":"Kreis"},"federalState":{"key":"01","name":"Schleswig-Holstein"}},{"name":"Rosenstr.","postalCode":"24306","locality":"Plön","municipality":{"key":"01057057","name":"Plön, Stadt","type":"Stadt"},"district":{"key":"01057","name":"Plön","type":"Kreis"},"federalState":{"key":"01","name":"Schleswig-Holstein"}},{"name":"Sainredder","postalCode":"24620","locality":"Bönebüttel","municipality":{"key":"01057008","name":"Bönebüttel","type":"Kreisangehörige_Gemeinde"},"district":{"key":"01057","name":"Plön","type":"Kreis"},"federalState":{"key":"01","name":"Schleswig-Holstein"}},{"name":"Sandweg","postalCode":"24620","locality":"Bönebüttel","municipality":{"key":"01057008","name":"Bönebüttel","type":"Kreisangehörige_Gemeinde"},"district":{"key":"01057","name":"Plön","type":"Kreis"},"federalState":{"key":"01","name":"Schleswig-Holstein"}},{"name":"Sickkamp","postalCode":"24620","locality":"Bönebüttel","municipality":{"key":"01057008","name":"Bönebüttel","type":"Kreisangehörige_Gemeinde"},"district":{"key":"01057","name":"Plön","type":"Kreis"},"federalState":{"key":"01","name":"Schleswig-Holstein"}},{"name":"Sickkampredder","postalCode":"24620","locality":"Bönebüttel","municipality":{"key":"01057008","name":"Bönebüttel","type":"Kreisangehörige_Gemeinde"},"district":{"key":"01057","name":"Plön","type":"Kreis"},"federalState":{"key":"01","name":"Schleswig-Holstein"}},{"name":"Teichredder","postalCode":"24620","locality":"Bönebüttel","municipality":{"key":"01057008","name":"Bönebüttel","type":"Kreisangehörige_Gemeinde"},"district":{"key":"01057","name":"Plön","type":"Kreis"},"federalState":{"key":"01","name":"Schleswig-Holstein"}},{"name":"Ulmenstr.","postalCode":"24306","locality":"Plön","municipality":{"key":"01057057","name":"Plön, Stadt","type":"Stadt"},"district":{"key":"01057","name":"Plön","type":"Kreis"},"federalState":{"key":"01","name":"Schleswig-Holstein"}},{"name":"Unterer Rathsteichweg","postalCode":"24306","locality":"Plön","municipality":{"key":"01057057","name":"Plön, Stadt","type":"Stadt"},"district":{"key":"01057","name":"Plön","type":"Kreis"},"federalState":{"key":"01","name":"Schleswig-Holstein"}},{"name":"Vierschillingsberg","postalCode":"24306","locality":"Plön","municipality":{"key":"01057057","name":"Plön, Stadt","type":"Stadt"},"district":{"key":"01057","name":"Plön","type":"Kreis"},"federalState":{"key":"01","name":"Schleswig-Holstein"}},{"name":"Vogelberg","postalCode":"24306","locality":"Plön","municipality":{"key":"01057057","name":"Plön, Stadt","type":"Stadt"},"district":{"key":"01057","name":"Plön","type":"Kreis"},"federalState":{"key":"01","name":"Schleswig-Holstein"}},{"name":"Wedelweg","postalCode":"24620","locality":"Bönebüttel","municipality":{"key":"01057008","name":"Bönebüttel","type":"Kreisangehörige_Gemeinde"},"district":{"key":"01057","name":"Plön","type":"Kreis"},"federalState":{"key":"01","name":"Schleswig-Holstein"}},{"name":"Wieselweg","postalCode":"24620","locality":"Bönebüttel","municipality":{"key":"01057008","name":"Bönebüttel","type":"Kreisangehörige_Gemeinde"},"district":{"key":"01057","name":"Plön","type":"Kreis"},"federalState":{"key":"01","name":"Schleswig-Holstein"}},{"name":"Wiesenredder","postalCode":"24620","locality":"Bönebüttel","municipality":{"key":"01057008","name":"Bönebüttel","type":"Kreisangehörige_Gemeinde"},"district":{"key":"01057","name":"Plön","type":"Kreis"},"federalState":{"key":"01","name":"Schleswig-Holstein"}},{"name":"Wittenfördener Weg","postalCode":"24620","locality":"Bönebüttel","municipality":{"key":"01057008","name":"Bönebüttel","type":"Kreisangehörige_Gemeinde"},"district":{"key":"01057","name":"Plön","type":"Kreis"},"federalState":{"key":"01","name":"Schleswig-Holstein"}},{"name":"Zum Bruch","postalCode":"24620","locality":"Bönebüttel","municipality":{"key":"01057008","name":"Bönebüttel","type":"Kreisangehörige_Gemeinde"},"district":{"key":"01057","name":"Plön","type":"Kreis"},"federalState":{"key":"01","name":"Schleswig-Holstein"}},{"name":"Zur Schwale","postalCode":"24620","locality":"Bönebüttel","municipality":{"key":"01057008","name":"Bönebüttel","type":"Kreisangehörige_Gemeinde"},"district":{"key":"01057","name":"Plön","type":"Kreis"},"federalState":{"key":"01","name":"Schleswig-Holstein"}},{"name":"Ölmühlenallee","postalCode":"24306","locality":"Plön","municipality":{"key":"01057057","name":"Plön, Stadt","type":"Stadt"},"district":{"key":"01057","name":"Plön","type":"Kreis"},"federalState":{"key":"01","name":"Schleswig-Holstein"}},{"name":"Övelgönne","postalCode":"24306","locality":"Plön","municipality":{"key":"01057057","name":"Plön, Stadt","type":"Stadt"},"district":{"key":"01057","name":"Plön","type":"Kreis"},"federalState":{"key":"01","name":"Schleswig-Holstein"}},]