[{"name":"Ahornstr.","postalCode":"85290","locality":"Geisenfeld","municipality":{"key":"09186122","name":"Geisenfeld, St","type":"Stadt"},"district":{"key":"09186","name":"Pfaffenhofen a.d.Ilm","type":"Landkreis"},"federalState":{"key":"09","name":"Bayern"}},{"name":"Aiglsbacher Str.","postalCode":"85290","locality":"Geisenfeld","municipality":{"key":"09186122","name":"Geisenfeld, St","type":"Stadt"},"district":{"key":"09186","name":"Pfaffenhofen a.d.Ilm","type":"Landkreis"},"federalState":{"key":"09","name":"Bayern"}},{"name":"Alemannenstr.","postalCode":"85290","locality":"Geisenfeld","municipality":{"key":"09186122","name":"Geisenfeld, St","type":"Stadt"},"district":{"key":"09186","name":"Pfaffenhofen a.d.Ilm","type":"Landkreis"},"federalState":{"key":"09","name":"Bayern"}},{"name":"Alois-Pollinger-Str.","postalCode":"85290","locality":"Geisenfeld","municipality":{"key":"09186122","name":"Geisenfeld, St","type":"Stadt"},"district":{"key":"09186","name":"Pfaffenhofen a.d.Ilm","type":"Landkreis"},"federalState":{"key":"09","name":"Bayern"}},{"name":"Altilmstr.","postalCode":"85290","locality":"Geisenfeld","municipality":{"key":"09186122","name":"Geisenfeld, St","type":"Stadt"},"district":{"key":"09186","name":"Pfaffenhofen a.d.Ilm","type":"Landkreis"},"federalState":{"key":"09","name":"Bayern"}},{"name":"Altmühlstr.","postalCode":"85290","locality":"Geisenfeld","municipality":{"key":"09186122","name":"Geisenfeld, St","type":"Stadt"},"district":{"key":"09186","name":"Pfaffenhofen a.d.Ilm","type":"Landkreis"},"federalState":{"key":"09","name":"Bayern"}},{"name":"Am Anger","postalCode":"85290","locality":"Geisenfeld","municipality":{"key":"09186122","name":"Geisenfeld, St","type":"Stadt"},"district":{"key":"09186","name":"Pfaffenhofen a.d.Ilm","type":"Landkreis"},"federalState":{"key":"09","name":"Bayern"}},{"name":"Am Bad","postalCode":"85290","locality":"Geisenfeld","municipality":{"key":"09186122","name":"Geisenfeld, St","type":"Stadt"},"district":{"key":"09186","name":"Pfaffenhofen a.d.Ilm","type":"Landkreis"},"federalState":{"key":"09","name":"Bayern"}},{"name":"Am Birketfeld","postalCode":"85290","locality":"Geisenfeld","municipality":{"key":"09186122","name":"Geisenfeld, St","type":"Stadt"},"district":{"key":"09186","name":"Pfaffenhofen a.d.Ilm","type":"Landkreis"},"federalState":{"key":"09","name":"Bayern"}},{"name":"Am Brechfeld","postalCode":"85290","locality":"Geisenfeld","municipality":{"key":"09186122","name":"Geisenfeld, St","type":"Stadt"},"district":{"key":"09186","name":"Pfaffenhofen a.d.Ilm","type":"Landkreis"},"federalState":{"key":"09","name":"Bayern"}},{"name":"Am Fall","postalCode":"85290","locality":"Geisenfeld","municipality":{"key":"09186122","name":"Geisenfeld, St","type":"Stadt"},"district":{"key":"09186","name":"Pfaffenhofen a.d.Ilm","type":"Landkreis"},"federalState":{"key":"09","name":"Bayern"}},{"name":"Am Feldl","postalCode":"85290","locality":"Geisenfeld","municipality":{"key":"09186122","name":"Geisenfeld, St","type":"Stadt"},"district":{"key":"09186","name":"Pfaffenhofen a.d.Ilm","type":"Landkreis"},"federalState":{"key":"09","name":"Bayern"}},{"name":"Am Flutkanal","postalCode":"85290","locality":"Geisenfeld","municipality":{"key":"09186122","name":"Geisenfeld, St","type":"Stadt"},"district":{"key":"09186","name":"Pfaffenhofen a.d.Ilm","type":"Landkreis"},"federalState":{"key":"09","name":"Bayern"}},{"name":"Am Fohlenhof","postalCode":"85290","locality":"Geisenfeld","municipality":{"key":"09186122","name":"Geisenfeld, St","type":"Stadt"},"district":{"key":"09186","name":"Pfaffenhofen a.d.Ilm","type":"Landkreis"},"federalState":{"key":"09","name":"Bayern"}},{"name":"Am Friedenskreuz","postalCode":"85290","locality":"Geisenfeld","municipality":{"key":"09186122","name":"Geisenfeld, St","type":"Stadt"},"district":{"key":"09186","name":"Pfaffenhofen a.d.Ilm","type":"Landkreis"},"federalState":{"key":"09","name":"Bayern"}},{"name":"Am Gellert","postalCode":"85290","locality":"Geisenfeld","municipality":{"key":"09186122","name":"Geisenfeld, St","type":"Stadt"},"district":{"key":"09186","name":"Pfaffenhofen a.d.Ilm","type":"Landkreis"},"federalState":{"key":"09","name":"Bayern"}},{"name":"Am Grobet","postalCode":"85290","locality":"Geisenfeld","municipality":{"key":"09186122","name":"Geisenfeld, St","type":"Stadt"},"district":{"key":"09186","name":"Pfaffenhofen a.d.Ilm","type":"Landkreis"},"federalState":{"key":"09","name":"Bayern"}},{"name":"Am Hochacker","postalCode":"85290","locality":"Geisenfeld","municipality":{"key":"09186122","name":"Geisenfeld, St","type":"Stadt"},"district":{"key":"09186","name":"Pfaffenhofen a.d.Ilm","type":"Landkreis"},"federalState":{"key":"09","name":"Bayern"}},{"name":"Am Hochstadel","postalCode":"85290","locality":"Geisenfeld","municipality":{"key":"09186122","name":"Geisenfeld, St","type":"Stadt"},"district":{"key":"09186","name":"Pfaffenhofen a.d.Ilm","type":"Landkreis"},"federalState":{"key":"09","name":"Bayern"}},{"name":"Am Hüllgarten","postalCode":"85290","locality":"Geisenfeld","municipality":{"key":"09186122","name":"Geisenfeld, St","type":"Stadt"},"district":{"key":"09186","name":"Pfaffenhofen a.d.Ilm","type":"Landkreis"},"federalState":{"key":"09","name":"Bayern"}},{"name":"Am Klärwerk","postalCode":"85290","locality":"Geisenfeld","municipality":{"key":"09186122","name":"Geisenfeld, St","type":"Stadt"},"district":{"key":"09186","name":"Pfaffenhofen a.d.Ilm","type":"Landkreis"},"federalState":{"key":"09","name":"Bayern"}},{"name":"Am Lustfeld","postalCode":"85290","locality":"Geisenfeld","municipality":{"key":"09186122","name":"Geisenfeld, St","type":"Stadt"},"district":{"key":"09186","name":"Pfaffenhofen a.d.Ilm","type":"Landkreis"},"federalState":{"key":"09","name":"Bayern"}},{"name":"Am Vogelanger","postalCode":"85290","locality":"Geisenfeld","municipality":{"key":"09186122","name":"Geisenfeld, St","type":"Stadt"},"district":{"key":"09186","name":"Pfaffenhofen a.d.Ilm","type":"Landkreis"},"federalState":{"key":"09","name":"Bayern"}},{"name":"Am Wasserturm","postalCode":"85290","locality":"Geisenfeld","municipality":{"key":"09186122","name":"Geisenfeld, St","type":"Stadt"},"district":{"key":"09186","name":"Pfaffenhofen a.d.Ilm","type":"Landkreis"},"federalState":{"key":"09","name":"Bayern"}},{"name":"Am Weinberg","postalCode":"85290","locality":"Geisenfeld","municipality":{"key":"09186122","name":"Geisenfeld, St","type":"Stadt"},"district":{"key":"09186","name":"Pfaffenhofen a.d.Ilm","type":"Landkreis"},"federalState":{"key":"09","name":"Bayern"}},{"name":"Am Werkskanal","postalCode":"85290","locality":"Geisenfeld","municipality":{"key":"09186122","name":"Geisenfeld, St","type":"Stadt"},"district":{"key":"09186","name":"Pfaffenhofen a.d.Ilm","type":"Landkreis"},"federalState":{"key":"09","name":"Bayern"}},{"name":"An der Ilm","postalCode":"85290","locality":"Geisenfeld","municipality":{"key":"09186122","name":"Geisenfeld, St","type":"Stadt"},"district":{"key":"09186","name":"Pfaffenhofen a.d.Ilm","type":"Landkreis"},"federalState":{"key":"09","name":"Bayern"}},{"name":"Anton-Staudacher-Str.","postalCode":"85290","locality":"Geisenfeld","municipality":{"key":"09186122","name":"Geisenfeld, St","type":"Stadt"},"district":{"key":"09186","name":"Pfaffenhofen a.d.Ilm","type":"Landkreis"},"federalState":{"key":"09","name":"Bayern"}},{"name":"Apianstr.","postalCode":"85290","locality":"Geisenfeld","municipality":{"key":"09186122","name":"Geisenfeld, St","type":"Stadt"},"district":{"key":"09186","name":"Pfaffenhofen a.d.Ilm","type":"Landkreis"},"federalState":{"key":"09","name":"Bayern"}},{"name":"Auenstr.","postalCode":"85290","locality":"Geisenfeld","municipality":{"key":"09186122","name":"Geisenfeld, St","type":"Stadt"},"district":{"key":"09186","name":"Pfaffenhofen a.d.Ilm","type":"Landkreis"},"federalState":{"key":"09","name":"Bayern"}},{"name":"Augsburger Str.","postalCode":"85290","locality":"Geisenfeld","municipality":{"key":"09186122","name":"Geisenfeld, St","type":"Stadt"},"district":{"key":"09186","name":"Pfaffenhofen a.d.Ilm","type":"Landkreis"},"federalState":{"key":"09","name":"Bayern"}},{"name":"August-Prechter-Str.","postalCode":"85290","locality":"Geisenfeld","municipality":{"key":"09186122","name":"Geisenfeld, St","type":"Stadt"},"district":{"key":"09186","name":"Pfaffenhofen a.d.Ilm","type":"Landkreis"},"federalState":{"key":"09","name":"Bayern"}},{"name":"Baarer Str.","postalCode":"85290","locality":"Geisenfeld","municipality":{"key":"09186122","name":"Geisenfeld, St","type":"Stadt"},"district":{"key":"09186","name":"Pfaffenhofen a.d.Ilm","type":"Landkreis"},"federalState":{"key":"09","name":"Bayern"}},{"name":"Bachstr.","postalCode":"85290","locality":"Geisenfeld","municipality":{"key":"09186122","name":"Geisenfeld, St","type":"Stadt"},"district":{"key":"09186","name":"Pfaffenhofen a.d.Ilm","type":"Landkreis"},"federalState":{"key":"09","name":"Bayern"}},{"name":"Badstr.","postalCode":"85290","locality":"Geisenfeld","municipality":{"key":"09186122","name":"Geisenfeld, St","type":"Stadt"},"district":{"key":"09186","name":"Pfaffenhofen a.d.Ilm","type":"Landkreis"},"federalState":{"key":"09","name":"Bayern"}},{"name":"Bahnhofplatz","postalCode":"85290","locality":"Geisenfeld","municipality":{"key":"09186122","name":"Geisenfeld, St","type":"Stadt"},"district":{"key":"09186","name":"Pfaffenhofen a.d.Ilm","type":"Landkreis"},"federalState":{"key":"09","name":"Bayern"}},{"name":"Bahnhofstr.","postalCode":"85290","locality":"Geisenfeld","municipality":{"key":"09186122","name":"Geisenfeld, St","type":"Stadt"},"district":{"key":"09186","name":"Pfaffenhofen a.d.Ilm","type":"Landkreis"},"federalState":{"key":"09","name":"Bayern"}},{"name":"Bajuwarenstr.","postalCode":"85290","locality":"Geisenfeld","municipality":{"key":"09186122","name":"Geisenfeld, St","type":"Stadt"},"district":{"key":"09186","name":"Pfaffenhofen a.d.Ilm","type":"Landkreis"},"federalState":{"key":"09","name":"Bayern"}},{"name":"Bassettistr.","postalCode":"85290","locality":"Geisenfeld","municipality":{"key":"09186122","name":"Geisenfeld, St","type":"Stadt"},"district":{"key":"09186","name":"Pfaffenhofen a.d.Ilm","type":"Landkreis"},"federalState":{"key":"09","name":"Bayern"}},{"name":"Beim Buckelweber","postalCode":"85290","locality":"Geisenfeld","municipality":{"key":"09186122","name":"Geisenfeld, St","type":"Stadt"},"district":{"key":"09186","name":"Pfaffenhofen a.d.Ilm","type":"Landkreis"},"federalState":{"key":"09","name":"Bayern"}},{"name":"Bergstr.","postalCode":"85290","locality":"Geisenfeld","municipality":{"key":"09186122","name":"Geisenfeld, St","type":"Stadt"},"district":{"key":"09186","name":"Pfaffenhofen a.d.Ilm","type":"Landkreis"},"federalState":{"key":"09","name":"Bayern"}},{"name":"Birkenstr.","postalCode":"85290","locality":"Geisenfeld","municipality":{"key":"09186122","name":"Geisenfeld, St","type":"Stadt"},"district":{"key":"09186","name":"Pfaffenhofen a.d.Ilm","type":"Landkreis"},"federalState":{"key":"09","name":"Bayern"}},{"name":"Birketweg","postalCode":"85290","locality":"Geisenfeld","municipality":{"key":"09186122","name":"Geisenfeld, St","type":"Stadt"},"district":{"key":"09186","name":"Pfaffenhofen a.d.Ilm","type":"Landkreis"},"federalState":{"key":"09","name":"Bayern"}},{"name":"Bischof-Heinrich-Str.","postalCode":"85290","locality":"Geisenfeld","municipality":{"key":"09186122","name":"Geisenfeld, St","type":"Stadt"},"district":{"key":"09186","name":"Pfaffenhofen a.d.Ilm","type":"Landkreis"},"federalState":{"key":"09","name":"Bayern"}},{"name":"Blumenstr.","postalCode":"85290","locality":"Geisenfeld","municipality":{"key":"09186122","name":"Geisenfeld, St","type":"Stadt"},"district":{"key":"09186","name":"Pfaffenhofen a.d.Ilm","type":"Landkreis"},"federalState":{"key":"09","name":"Bayern"}},{"name":"Bründlstr.","postalCode":"85290","locality":"Geisenfeld","municipality":{"key":"09186122","name":"Geisenfeld, St","type":"Stadt"},"district":{"key":"09186","name":"Pfaffenhofen a.d.Ilm","type":"Landkreis"},"federalState":{"key":"09","name":"Bayern"}},{"name":"Bucherstr.","postalCode":"85290","locality":"Geisenfeld","municipality":{"key":"09186122","name":"Geisenfeld, St","type":"Stadt"},"district":{"key":"09186","name":"Pfaffenhofen a.d.Ilm","type":"Landkreis"},"federalState":{"key":"09","name":"Bayern"}},{"name":"Bürgermeister-Birnthaler-Str.","postalCode":"85290","locality":"Geisenfeld","municipality":{"key":"09186122","name":"Geisenfeld, St","type":"Stadt"},"district":{"key":"09186","name":"Pfaffenhofen a.d.Ilm","type":"Landkreis"},"federalState":{"key":"09","name":"Bayern"}},{"name":"Bürgermeister-Hagl-Str.","postalCode":"85290","locality":"Geisenfeld","municipality":{"key":"09186122","name":"Geisenfeld, St","type":"Stadt"},"district":{"key":"09186","name":"Pfaffenhofen a.d.Ilm","type":"Landkreis"},"federalState":{"key":"09","name":"Bayern"}},{"name":"Defreggerstr.","postalCode":"85290","locality":"Geisenfeld","municipality":{"key":"09186122","name":"Geisenfeld, St","type":"Stadt"},"district":{"key":"09186","name":"Pfaffenhofen a.d.Ilm","type":"Landkreis"},"federalState":{"key":"09","name":"Bayern"}},{"name":"Dekan-Trost-Str.","postalCode":"85290","locality":"Geisenfeld","municipality":{"key":"09186122","name":"Geisenfeld, St","type":"Stadt"},"district":{"key":"09186","name":"Pfaffenhofen a.d.Ilm","type":"Landkreis"},"federalState":{"key":"09","name":"Bayern"}},{"name":"Dorfstr.","postalCode":"85290","locality":"Geisenfeld","municipality":{"key":"09186122","name":"Geisenfeld, St","type":"Stadt"},"district":{"key":"09186","name":"Pfaffenhofen a.d.Ilm","type":"Landkreis"},"federalState":{"key":"09","name":"Bayern"}},{"name":"Dormayrstr.","postalCode":"85290","locality":"Geisenfeld","municipality":{"key":"09186122","name":"Geisenfeld, St","type":"Stadt"},"district":{"key":"09186","name":"Pfaffenhofen a.d.Ilm","type":"Landkreis"},"federalState":{"key":"09","name":"Bayern"}},{"name":"Dr.-Bayberger-Str.","postalCode":"85290","locality":"Geisenfeld","municipality":{"key":"09186122","name":"Geisenfeld, St","type":"Stadt"},"district":{"key":"09186","name":"Pfaffenhofen a.d.Ilm","type":"Landkreis"},"federalState":{"key":"09","name":"Bayern"}},{"name":"Dr-Schmid-Str.","postalCode":"85290","locality":"Geisenfeld","municipality":{"key":"09186122","name":"Geisenfeld, St","type":"Stadt"},"district":{"key":"09186","name":"Pfaffenhofen a.d.Ilm","type":"Landkreis"},"federalState":{"key":"09","name":"Bayern"}},{"name":"Dr.-Sigl-Str.","postalCode":"85290","locality":"Geisenfeld","municipality":{"key":"09186122","name":"Geisenfeld, St","type":"Stadt"},"district":{"key":"09186","name":"Pfaffenhofen a.d.Ilm","type":"Landkreis"},"federalState":{"key":"09","name":"Bayern"}},{"name":"Egerlandstr.","postalCode":"85290","locality":"Geisenfeld","municipality":{"key":"09186122","name":"Geisenfeld, St","type":"Stadt"},"district":{"key":"09186","name":"Pfaffenhofen a.d.Ilm","type":"Landkreis"},"federalState":{"key":"09","name":"Bayern"}},{"name":"Eglseegasse","postalCode":"85290","locality":"Geisenfeld","municipality":{"key":"09186122","name":"Geisenfeld, St","type":"Stadt"},"district":{"key":"09186","name":"Pfaffenhofen a.d.Ilm","type":"Landkreis"},"federalState":{"key":"09","name":"Bayern"}},{"name":"Eibenweg","postalCode":"85290","locality":"Geisenfeld","municipality":{"key":"09186122","name":"Geisenfeld, St","type":"Stadt"},"district":{"key":"09186","name":"Pfaffenhofen a.d.Ilm","type":"Landkreis"},"federalState":{"key":"09","name":"Bayern"}},{"name":"Eichbergweg","postalCode":"85290","locality":"Geisenfeld","municipality":{"key":"09186122","name":"Geisenfeld, St","type":"Stadt"},"district":{"key":"09186","name":"Pfaffenhofen a.d.Ilm","type":"Landkreis"},"federalState":{"key":"09","name":"Bayern"}},{"name":"Eichelberg","postalCode":"85290","locality":"Geisenfeld","municipality":{"key":"09186122","name":"Geisenfeld, St","type":"Stadt"},"district":{"key":"09186","name":"Pfaffenhofen a.d.Ilm","type":"Landkreis"},"federalState":{"key":"09","name":"Bayern"}},{"name":"Eichenstr.","postalCode":"85290","locality":"Geisenfeld","municipality":{"key":"09186122","name":"Geisenfeld, St","type":"Stadt"},"district":{"key":"09186","name":"Pfaffenhofen a.d.Ilm","type":"Landkreis"},"federalState":{"key":"09","name":"Bayern"}},{"name":"Einberger Str.","postalCode":"85290","locality":"Geisenfeld","municipality":{"key":"09186122","name":"Geisenfeld, St","type":"Stadt"},"district":{"key":"09186","name":"Pfaffenhofen a.d.Ilm","type":"Landkreis"},"federalState":{"key":"09","name":"Bayern"}},{"name":"Erlenweg","postalCode":"85290","locality":"Geisenfeld","municipality":{"key":"09186122","name":"Geisenfeld, St","type":"Stadt"},"district":{"key":"09186","name":"Pfaffenhofen a.d.Ilm","type":"Landkreis"},"federalState":{"key":"09","name":"Bayern"}},{"name":"Eschenweg","postalCode":"85290","locality":"Geisenfeld","municipality":{"key":"09186122","name":"Geisenfeld, St","type":"Stadt"},"district":{"key":"09186","name":"Pfaffenhofen a.d.Ilm","type":"Landkreis"},"federalState":{"key":"09","name":"Bayern"}},{"name":"Fahlenbacher Str.","postalCode":"85290","locality":"Geisenfeld","municipality":{"key":"09186122","name":"Geisenfeld, St","type":"Stadt"},"district":{"key":"09186","name":"Pfaffenhofen a.d.Ilm","type":"Landkreis"},"federalState":{"key":"09","name":"Bayern"}},{"name":"Feldanger","postalCode":"85290","locality":"Geisenfeld","municipality":{"key":"09186122","name":"Geisenfeld, St","type":"Stadt"},"district":{"key":"09186","name":"Pfaffenhofen a.d.Ilm","type":"Landkreis"},"federalState":{"key":"09","name":"Bayern"}},{"name":"Feldgraben","postalCode":"85290","locality":"Geisenfeld","municipality":{"key":"09186122","name":"Geisenfeld, St","type":"Stadt"},"district":{"key":"09186","name":"Pfaffenhofen a.d.Ilm","type":"Landkreis"},"federalState":{"key":"09","name":"Bayern"}},{"name":"Fichtenstr.","postalCode":"85290","locality":"Geisenfeld","municipality":{"key":"09186122","name":"Geisenfeld, St","type":"Stadt"},"district":{"key":"09186","name":"Pfaffenhofen a.d.Ilm","type":"Landkreis"},"federalState":{"key":"09","name":"Bayern"}},{"name":"Fliederweg","postalCode":"85290","locality":"Geisenfeld","municipality":{"key":"09186122","name":"Geisenfeld, St","type":"Stadt"},"district":{"key":"09186","name":"Pfaffenhofen a.d.Ilm","type":"Landkreis"},"federalState":{"key":"09","name":"Bayern"}},{"name":"Flurweg","postalCode":"85290","locality":"Geisenfeld","municipality":{"key":"09186122","name":"Geisenfeld, St","type":"Stadt"},"district":{"key":"09186","name":"Pfaffenhofen a.d.Ilm","type":"Landkreis"},"federalState":{"key":"09","name":"Bayern"}},{"name":"Forstamtstr.","postalCode":"85290","locality":"Geisenfeld","municipality":{"key":"09186122","name":"Geisenfeld, St","type":"Stadt"},"district":{"key":"09186","name":"Pfaffenhofen a.d.Ilm","type":"Landkreis"},"federalState":{"key":"09","name":"Bayern"}},{"name":"Franz-Heldmann-Str.","postalCode":"85290","locality":"Geisenfeld","municipality":{"key":"09186122","name":"Geisenfeld, St","type":"Stadt"},"district":{"key":"09186","name":"Pfaffenhofen a.d.Ilm","type":"Landkreis"},"federalState":{"key":"09","name":"Bayern"}},{"name":"Friedhofgasse","postalCode":"85290","locality":"Geisenfeld","municipality":{"key":"09186122","name":"Geisenfeld, St","type":"Stadt"},"district":{"key":"09186","name":"Pfaffenhofen a.d.Ilm","type":"Landkreis"},"federalState":{"key":"09","name":"Bayern"}},{"name":"Fuchsbüchlerkellerstr.","postalCode":"85290","locality":"Geisenfeld","municipality":{"key":"09186122","name":"Geisenfeld, St","type":"Stadt"},"district":{"key":"09186","name":"Pfaffenhofen a.d.Ilm","type":"Landkreis"},"federalState":{"key":"09","name":"Bayern"}},{"name":"Gabisweg","postalCode":"85290","locality":"Geisenfeld","municipality":{"key":"09186122","name":"Geisenfeld, St","type":"Stadt"},"district":{"key":"09186","name":"Pfaffenhofen a.d.Ilm","type":"Landkreis"},"federalState":{"key":"09","name":"Bayern"}},{"name":"Ganghoferstr.","postalCode":"85290","locality":"Geisenfeld","municipality":{"key":"09186122","name":"Geisenfeld, St","type":"Stadt"},"district":{"key":"09186","name":"Pfaffenhofen a.d.Ilm","type":"Landkreis"},"federalState":{"key":"09","name":"Bayern"}},{"name":"Gartenweg","postalCode":"85290","locality":"Geisenfeld","municipality":{"key":"09186122","name":"Geisenfeld, St","type":"Stadt"},"district":{"key":"09186","name":"Pfaffenhofen a.d.Ilm","type":"Landkreis"},"federalState":{"key":"09","name":"Bayern"}},{"name":"Geisenfelder Stadt Oasen","postalCode":"85290","locality":"Geisenfeld","municipality":{"key":"09186122","name":"Geisenfeld, St","type":"Stadt"},"district":{"key":"09186","name":"Pfaffenhofen a.d.Ilm","type":"Landkreis"},"federalState":{"key":"09","name":"Bayern"}},{"name":"Geisenfelder Str.","postalCode":"85290","locality":"Geisenfeld","municipality":{"key":"09186122","name":"Geisenfeld, St","type":"Stadt"},"district":{"key":"09186","name":"Pfaffenhofen a.d.Ilm","type":"Landkreis"},"federalState":{"key":"09","name":"Bayern"}},{"name":"Geistbeckstr.","postalCode":"85290","locality":"Geisenfeld","municipality":{"key":"09186122","name":"Geisenfeld, St","type":"Stadt"},"district":{"key":"09186","name":"Pfaffenhofen a.d.Ilm","type":"Landkreis"},"federalState":{"key":"09","name":"Bayern"}},{"name":"Georg-Krammel-Str.","postalCode":"85290","locality":"Geisenfeld","municipality":{"key":"09186122","name":"Geisenfeld, St","type":"Stadt"},"district":{"key":"09186","name":"Pfaffenhofen a.d.Ilm","type":"Landkreis"},"federalState":{"key":"09","name":"Bayern"}},{"name":"Georg-Kürzinger-Str.","postalCode":"85290","locality":"Geisenfeld","municipality":{"key":"09186122","name":"Geisenfeld, St","type":"Stadt"},"district":{"key":"09186","name":"Pfaffenhofen a.d.Ilm","type":"Landkreis"},"federalState":{"key":"09","name":"Bayern"}},{"name":"Gerbirgisstr.","postalCode":"85290","locality":"Geisenfeld","municipality":{"key":"09186122","name":"Geisenfeld, St","type":"Stadt"},"district":{"key":"09186","name":"Pfaffenhofen a.d.Ilm","type":"Landkreis"},"federalState":{"key":"09","name":"Bayern"}},{"name":"Germanenstr.","postalCode":"85290","locality":"Geisenfeld","municipality":{"key":"09186122","name":"Geisenfeld, St","type":"Stadt"},"district":{"key":"09186","name":"Pfaffenhofen a.d.Ilm","type":"Landkreis"},"federalState":{"key":"09","name":"Bayern"}},{"name":"Gerstenstr.","postalCode":"85290","locality":"Geisenfeld","municipality":{"key":"09186122","name":"Geisenfeld, St","type":"Stadt"},"district":{"key":"09186","name":"Pfaffenhofen a.d.Ilm","type":"Landkreis"},"federalState":{"key":"09","name":"Bayern"}},{"name":"Ginsterweg","postalCode":"85290","locality":"Geisenfeld","municipality":{"key":"09186122","name":"Geisenfeld, St","type":"Stadt"},"district":{"key":"09186","name":"Pfaffenhofen a.d.Ilm","type":"Landkreis"},"federalState":{"key":"09","name":"Bayern"}},{"name":"Gisostr.","postalCode":"85290","locality":"Geisenfeld","municipality":{"key":"09186122","name":"Geisenfeld, St","type":"Stadt"},"district":{"key":"09186","name":"Pfaffenhofen a.d.Ilm","type":"Landkreis"},"federalState":{"key":"09","name":"Bayern"}},{"name":"Godefridusstr.","postalCode":"85290","locality":"Geisenfeld","municipality":{"key":"09186122","name":"Geisenfeld, St","type":"Stadt"},"district":{"key":"09186","name":"Pfaffenhofen a.d.Ilm","type":"Landkreis"},"federalState":{"key":"09","name":"Bayern"}},{"name":"Grabengasse","postalCode":"85290","locality":"Geisenfeld","municipality":{"key":"09186122","name":"Geisenfeld, St","type":"Stadt"},"district":{"key":"09186","name":"Pfaffenhofen a.d.Ilm","type":"Landkreis"},"federalState":{"key":"09","name":"Bayern"}},{"name":"Graf-Eberhard-Str.","postalCode":"85290","locality":"Geisenfeld","municipality":{"key":"09186122","name":"Geisenfeld, St","type":"Stadt"},"district":{"key":"09186","name":"Pfaffenhofen a.d.Ilm","type":"Landkreis"},"federalState":{"key":"09","name":"Bayern"}},{"name":"Hafnerbergl","postalCode":"85290","locality":"Geisenfeld","municipality":{"key":"09186122","name":"Geisenfeld, St","type":"Stadt"},"district":{"key":"09186","name":"Pfaffenhofen a.d.Ilm","type":"Landkreis"},"federalState":{"key":"09","name":"Bayern"}},{"name":"Hallertauer Str.","postalCode":"85290","locality":"Geisenfeld","municipality":{"key":"09186122","name":"Geisenfeld, St","type":"Stadt"},"district":{"key":"09186","name":"Pfaffenhofen a.d.Ilm","type":"Landkreis"},"federalState":{"key":"09","name":"Bayern"}},{"name":"Hallstattstr.","postalCode":"85290","locality":"Geisenfeld","municipality":{"key":"09186122","name":"Geisenfeld, St","type":"Stadt"},"district":{"key":"09186","name":"Pfaffenhofen a.d.Ilm","type":"Landkreis"},"federalState":{"key":"09","name":"Bayern"}},{"name":"Hans-Sachs-Str.","postalCode":"85290","locality":"Geisenfeld","municipality":{"key":"09186122","name":"Geisenfeld, St","type":"Stadt"},"district":{"key":"09186","name":"Pfaffenhofen a.d.Ilm","type":"Landkreis"},"federalState":{"key":"09","name":"Bayern"}},{"name":"Hartackerstr.","postalCode":"85290","locality":"Geisenfeld","municipality":{"key":"09186122","name":"Geisenfeld, St","type":"Stadt"},"district":{"key":"09186","name":"Pfaffenhofen a.d.Ilm","type":"Landkreis"},"federalState":{"key":"09","name":"Bayern"}},{"name":"Hatzlmühlstr.","postalCode":"85290","locality":"Geisenfeld","municipality":{"key":"09186122","name":"Geisenfeld, St","type":"Stadt"},"district":{"key":"09186","name":"Pfaffenhofen a.d.Ilm","type":"Landkreis"},"federalState":{"key":"09","name":"Bayern"}},{"name":"Hauptstr.","postalCode":"85290","locality":"Geisenfeld","municipality":{"key":"09186122","name":"Geisenfeld, St","type":"Stadt"},"district":{"key":"09186","name":"Pfaffenhofen a.d.Ilm","type":"Landkreis"},"federalState":{"key":"09","name":"Bayern"}},{"name":"Hausener Str.","postalCode":"85290","locality":"Geisenfeld","municipality":{"key":"09186122","name":"Geisenfeld, St","type":"Stadt"},"district":{"key":"09186","name":"Pfaffenhofen a.d.Ilm","type":"Landkreis"},"federalState":{"key":"09","name":"Bayern"}},{"name":"Heideweg","postalCode":"85290","locality":"Geisenfeld","municipality":{"key":"09186122","name":"Geisenfeld, St","type":"Stadt"},"district":{"key":"09186","name":"Pfaffenhofen a.d.Ilm","type":"Landkreis"},"federalState":{"key":"09","name":"Bayern"}},{"name":"Helmut-Weinmayer-Str.","postalCode":"85290","locality":"Geisenfeld","municipality":{"key":"09186122","name":"Geisenfeld, St","type":"Stadt"},"district":{"key":"09186","name":"Pfaffenhofen a.d.Ilm","type":"Landkreis"},"federalState":{"key":"09","name":"Bayern"}},{"name":"Herkulesweg","postalCode":"85290","locality":"Geisenfeld","municipality":{"key":"09186122","name":"Geisenfeld, St","type":"Stadt"},"district":{"key":"09186","name":"Pfaffenhofen a.d.Ilm","type":"Landkreis"},"federalState":{"key":"09","name":"Bayern"}},{"name":"Hersbrucker Weg","postalCode":"85290","locality":"Geisenfeld","municipality":{"key":"09186122","name":"Geisenfeld, St","type":"Stadt"},"district":{"key":"09186","name":"Pfaffenhofen a.d.Ilm","type":"Landkreis"},"federalState":{"key":"09","name":"Bayern"}},{"name":"Herzog-Ernst-Str.","postalCode":"85290","locality":"Geisenfeld","municipality":{"key":"09186122","name":"Geisenfeld, St","type":"Stadt"},"district":{"key":"09186","name":"Pfaffenhofen a.d.Ilm","type":"Landkreis"},"federalState":{"key":"09","name":"Bayern"}},{"name":"Hochstattweg","postalCode":"85290","locality":"Geisenfeld","municipality":{"key":"09186122","name":"Geisenfeld, St","type":"Stadt"},"district":{"key":"09186","name":"Pfaffenhofen a.d.Ilm","type":"Landkreis"},"federalState":{"key":"09","name":"Bayern"}},{"name":"Hochstr.","postalCode":"85290","locality":"Geisenfeld","municipality":{"key":"09186122","name":"Geisenfeld, St","type":"Stadt"},"district":{"key":"09186","name":"Pfaffenhofen a.d.Ilm","type":"Landkreis"},"federalState":{"key":"09","name":"Bayern"}},{"name":"Hoegnerstr.","postalCode":"85290","locality":"Geisenfeld","municipality":{"key":"09186122","name":"Geisenfeld, St","type":"Stadt"},"district":{"key":"09186","name":"Pfaffenhofen a.d.Ilm","type":"Landkreis"},"federalState":{"key":"09","name":"Bayern"}},{"name":"Hofmarkstr.","postalCode":"85290","locality":"Geisenfeld","municipality":{"key":"09186122","name":"Geisenfeld, St","type":"Stadt"},"district":{"key":"09186","name":"Pfaffenhofen a.d.Ilm","type":"Landkreis"},"federalState":{"key":"09","name":"Bayern"}},{"name":"Höllgrund","postalCode":"85290","locality":"Geisenfeld","municipality":{"key":"09186122","name":"Geisenfeld, St","type":"Stadt"},"district":{"key":"09186","name":"Pfaffenhofen a.d.Ilm","type":"Landkreis"},"federalState":{"key":"09","name":"Bayern"}},{"name":"Holunderweg","postalCode":"85290","locality":"Geisenfeld","municipality":{"key":"09186122","name":"Geisenfeld, St","type":"Stadt"},"district":{"key":"09186","name":"Pfaffenhofen a.d.Ilm","type":"Landkreis"},"federalState":{"key":"09","name":"Bayern"}},{"name":"Hopfenstr.","postalCode":"85290","locality":"Geisenfeld","municipality":{"key":"09186122","name":"Geisenfeld, St","type":"Stadt"},"district":{"key":"09186","name":"Pfaffenhofen a.d.Ilm","type":"Landkreis"},"federalState":{"key":"09","name":"Bayern"}},{"name":"Ilmendorfer Str.","postalCode":"85290","locality":"Geisenfeld","municipality":{"key":"09186122","name":"Geisenfeld, St","type":"Stadt"},"district":{"key":"09186","name":"Pfaffenhofen a.d.Ilm","type":"Landkreis"},"federalState":{"key":"09","name":"Bayern"}},{"name":"Ilmgrund","postalCode":"85290","locality":"Geisenfeld","municipality":{"key":"09186122","name":"Geisenfeld, St","type":"Stadt"},"district":{"key":"09186","name":"Pfaffenhofen a.d.Ilm","type":"Landkreis"},"federalState":{"key":"09","name":"Bayern"}},{"name":"Ilmweg","postalCode":"85290","locality":"Geisenfeld","municipality":{"key":"09186122","name":"Geisenfeld, St","type":"Stadt"},"district":{"key":"09186","name":"Pfaffenhofen a.d.Ilm","type":"Landkreis"},"federalState":{"key":"09","name":"Bayern"}},{"name":"Im Aufeld","postalCode":"85290","locality":"Geisenfeld","municipality":{"key":"09186122","name":"Geisenfeld, St","type":"Stadt"},"district":{"key":"09186","name":"Pfaffenhofen a.d.Ilm","type":"Landkreis"},"federalState":{"key":"09","name":"Bayern"}},{"name":"Im Brühl","postalCode":"85290","locality":"Geisenfeld","municipality":{"key":"09186122","name":"Geisenfeld, St","type":"Stadt"},"district":{"key":"09186","name":"Pfaffenhofen a.d.Ilm","type":"Landkreis"},"federalState":{"key":"09","name":"Bayern"}},{"name":"Im Erlet","postalCode":"85290","locality":"Geisenfeld","municipality":{"key":"09186122","name":"Geisenfeld, St","type":"Stadt"},"district":{"key":"09186","name":"Pfaffenhofen a.d.Ilm","type":"Landkreis"},"federalState":{"key":"09","name":"Bayern"}},{"name":"Im Gewerbegebiet","postalCode":"85290","locality":"Geisenfeld","municipality":{"key":"09186122","name":"Geisenfeld, St","type":"Stadt"},"district":{"key":"09186","name":"Pfaffenhofen a.d.Ilm","type":"Landkreis"},"federalState":{"key":"09","name":"Bayern"}},{"name":"Im Seefeld","postalCode":"85290","locality":"Geisenfeld","municipality":{"key":"09186122","name":"Geisenfeld, St","type":"Stadt"},"district":{"key":"09186","name":"Pfaffenhofen a.d.Ilm","type":"Landkreis"},"federalState":{"key":"09","name":"Bayern"}},{"name":"In der Au","postalCode":"85290","locality":"Geisenfeld","municipality":{"key":"09186122","name":"Geisenfeld, St","type":"Stadt"},"district":{"key":"09186","name":"Pfaffenhofen a.d.Ilm","type":"Landkreis"},"federalState":{"key":"09","name":"Bayern"}},{"name":"Ingolstädter Str.","postalCode":"85290","locality":"Geisenfeld","municipality":{"key":"09186122","name":"Geisenfeld, St","type":"Stadt"},"district":{"key":"09186","name":"Pfaffenhofen a.d.Ilm","type":"Landkreis"},"federalState":{"key":"09","name":"Bayern"}},{"name":"Jägerstr.","postalCode":"85290","locality":"Geisenfeld","municipality":{"key":"09186122","name":"Geisenfeld, St","type":"Stadt"},"district":{"key":"09186","name":"Pfaffenhofen a.d.Ilm","type":"Landkreis"},"federalState":{"key":"09","name":"Bayern"}},{"name":"Jahnstr.","postalCode":"85290","locality":"Geisenfeld","municipality":{"key":"09186122","name":"Geisenfeld, St","type":"Stadt"},"district":{"key":"09186","name":"Pfaffenhofen a.d.Ilm","type":"Landkreis"},"federalState":{"key":"09","name":"Bayern"}},{"name":"Jakob-Staudt-Str.","postalCode":"85290","locality":"Geisenfeld","municipality":{"key":"09186122","name":"Geisenfeld, St","type":"Stadt"},"district":{"key":"09186","name":"Pfaffenhofen a.d.Ilm","type":"Landkreis"},"federalState":{"key":"09","name":"Bayern"}},{"name":"Josef-Lachermeier-Str.","postalCode":"85290","locality":"Geisenfeld","municipality":{"key":"09186122","name":"Geisenfeld, St","type":"Stadt"},"district":{"key":"09186","name":"Pfaffenhofen a.d.Ilm","type":"Landkreis"},"federalState":{"key":"09","name":"Bayern"}},{"name":"Kahngarten","postalCode":"85290","locality":"Geisenfeld","municipality":{"key":"09186122","name":"Geisenfeld, St","type":"Stadt"},"district":{"key":"09186","name":"Pfaffenhofen a.d.Ilm","type":"Landkreis"},"federalState":{"key":"09","name":"Bayern"}},{"name":"Kapellenweg","postalCode":"85290","locality":"Geisenfeld","municipality":{"key":"09186122","name":"Geisenfeld, St","type":"Stadt"},"district":{"key":"09186","name":"Pfaffenhofen a.d.Ilm","type":"Landkreis"},"federalState":{"key":"09","name":"Bayern"}},{"name":"Keltenstr.","postalCode":"85290","locality":"Geisenfeld","municipality":{"key":"09186122","name":"Geisenfeld, St","type":"Stadt"},"district":{"key":"09186","name":"Pfaffenhofen a.d.Ilm","type":"Landkreis"},"federalState":{"key":"09","name":"Bayern"}},{"name":"Kiefernweg","postalCode":"85290","locality":"Geisenfeld","municipality":{"key":"09186122","name":"Geisenfeld, St","type":"Stadt"},"district":{"key":"09186","name":"Pfaffenhofen a.d.Ilm","type":"Landkreis"},"federalState":{"key":"09","name":"Bayern"}},{"name":"Kirchenweg","postalCode":"85290","locality":"Geisenfeld","municipality":{"key":"09186122","name":"Geisenfeld, St","type":"Stadt"},"district":{"key":"09186","name":"Pfaffenhofen a.d.Ilm","type":"Landkreis"},"federalState":{"key":"09","name":"Bayern"}},{"name":"Kirchplatz","postalCode":"85290","locality":"Geisenfeld","municipality":{"key":"09186122","name":"Geisenfeld, St","type":"Stadt"},"district":{"key":"09186","name":"Pfaffenhofen a.d.Ilm","type":"Landkreis"},"federalState":{"key":"09","name":"Bayern"}},{"name":"Kleine Rosenstr.","postalCode":"85290","locality":"Geisenfeld","municipality":{"key":"09186122","name":"Geisenfeld, St","type":"Stadt"},"district":{"key":"09186","name":"Pfaffenhofen a.d.Ilm","type":"Landkreis"},"federalState":{"key":"09","name":"Bayern"}},{"name":"Klosterfeld","postalCode":"85290","locality":"Geisenfeld","municipality":{"key":"09186122","name":"Geisenfeld, St","type":"Stadt"},"district":{"key":"09186","name":"Pfaffenhofen a.d.Ilm","type":"Landkreis"},"federalState":{"key":"09","name":"Bayern"}},{"name":"Klostergarten","postalCode":"85290","locality":"Geisenfeld","municipality":{"key":"09186122","name":"Geisenfeld, St","type":"Stadt"},"district":{"key":"09186","name":"Pfaffenhofen a.d.Ilm","type":"Landkreis"},"federalState":{"key":"09","name":"Bayern"}},{"name":"Klostergasse","postalCode":"85290","locality":"Geisenfeld","municipality":{"key":"09186122","name":"Geisenfeld, St","type":"Stadt"},"district":{"key":"09186","name":"Pfaffenhofen a.d.Ilm","type":"Landkreis"},"federalState":{"key":"09","name":"Bayern"}},{"name":"Klosterhof","postalCode":"85290","locality":"Geisenfeld","municipality":{"key":"09186122","name":"Geisenfeld, St","type":"Stadt"},"district":{"key":"09186","name":"Pfaffenhofen a.d.Ilm","type":"Landkreis"},"federalState":{"key":"09","name":"Bayern"}},{"name":"Kolpingstr.","postalCode":"85290","locality":"Geisenfeld","municipality":{"key":"09186122","name":"Geisenfeld, St","type":"Stadt"},"district":{"key":"09186","name":"Pfaffenhofen a.d.Ilm","type":"Landkreis"},"federalState":{"key":"09","name":"Bayern"}},{"name":"Königstr.","postalCode":"85290","locality":"Geisenfeld","municipality":{"key":"09186122","name":"Geisenfeld, St","type":"Stadt"},"district":{"key":"09186","name":"Pfaffenhofen a.d.Ilm","type":"Landkreis"},"federalState":{"key":"09","name":"Bayern"}},{"name":"Krankenhausstr.","postalCode":"85290","locality":"Geisenfeld","municipality":{"key":"09186122","name":"Geisenfeld, St","type":"Stadt"},"district":{"key":"09186","name":"Pfaffenhofen a.d.Ilm","type":"Landkreis"},"federalState":{"key":"09","name":"Bayern"}},{"name":"Kumpfmüllerstr.","postalCode":"85290","locality":"Geisenfeld","municipality":{"key":"09186122","name":"Geisenfeld, St","type":"Stadt"},"district":{"key":"09186","name":"Pfaffenhofen a.d.Ilm","type":"Landkreis"},"federalState":{"key":"09","name":"Bayern"}},{"name":"Kupferfeldweg","postalCode":"85290","locality":"Geisenfeld","municipality":{"key":"09186122","name":"Geisenfeld, St","type":"Stadt"},"district":{"key":"09186","name":"Pfaffenhofen a.d.Ilm","type":"Landkreis"},"federalState":{"key":"09","name":"Bayern"}},{"name":"Lärchenweg","postalCode":"85290","locality":"Geisenfeld","municipality":{"key":"09186122","name":"Geisenfeld, St","type":"Stadt"},"district":{"key":"09186","name":"Pfaffenhofen a.d.Ilm","type":"Landkreis"},"federalState":{"key":"09","name":"Bayern"}},{"name":"Lindenstr.","postalCode":"85290","locality":"Geisenfeld","municipality":{"key":"09186122","name":"Geisenfeld, St","type":"Stadt"},"district":{"key":"09186","name":"Pfaffenhofen a.d.Ilm","type":"Landkreis"},"federalState":{"key":"09","name":"Bayern"}},{"name":"Ludwig-Thoma-Str.","postalCode":"85290","locality":"Geisenfeld","municipality":{"key":"09186122","name":"Geisenfeld, St","type":"Stadt"},"district":{"key":"09186","name":"Pfaffenhofen a.d.Ilm","type":"Landkreis"},"federalState":{"key":"09","name":"Bayern"}},{"name":"Mainburger Str.","postalCode":"85290","locality":"Geisenfeld","municipality":{"key":"09186122","name":"Geisenfeld, St","type":"Stadt"},"district":{"key":"09186","name":"Pfaffenhofen a.d.Ilm","type":"Landkreis"},"federalState":{"key":"09","name":"Bayern"}},{"name":"Marienplatz","postalCode":"85290","locality":"Geisenfeld","municipality":{"key":"09186122","name":"Geisenfeld, St","type":"Stadt"},"district":{"key":"09186","name":"Pfaffenhofen a.d.Ilm","type":"Landkreis"},"federalState":{"key":"09","name":"Bayern"}},{"name":"Martinistr.","postalCode":"85290","locality":"Geisenfeld","municipality":{"key":"09186122","name":"Geisenfeld, St","type":"Stadt"},"district":{"key":"09186","name":"Pfaffenhofen a.d.Ilm","type":"Landkreis"},"federalState":{"key":"09","name":"Bayern"}},{"name":"Maximilianstr.","postalCode":"85290","locality":"Geisenfeld","municipality":{"key":"09186122","name":"Geisenfeld, St","type":"Stadt"},"district":{"key":"09186","name":"Pfaffenhofen a.d.Ilm","type":"Landkreis"},"federalState":{"key":"09","name":"Bayern"}},{"name":"Max-Koppenstätter-Str.","postalCode":"85290","locality":"Geisenfeld","municipality":{"key":"09186122","name":"Geisenfeld, St","type":"Stadt"},"district":{"key":"09186","name":"Pfaffenhofen a.d.Ilm","type":"Landkreis"},"federalState":{"key":"09","name":"Bayern"}},{"name":"Mettenbacher Str.","postalCode":"85290","locality":"Geisenfeld","municipality":{"key":"09186122","name":"Geisenfeld, St","type":"Stadt"},"district":{"key":"09186","name":"Pfaffenhofen a.d.Ilm","type":"Landkreis"},"federalState":{"key":"09","name":"Bayern"}},{"name":"Mitterfeldweg","postalCode":"85290","locality":"Geisenfeld","municipality":{"key":"09186122","name":"Geisenfeld, St","type":"Stadt"},"district":{"key":"09186","name":"Pfaffenhofen a.d.Ilm","type":"Landkreis"},"federalState":{"key":"09","name":"Bayern"}},{"name":"Mitterweg","postalCode":"85290","locality":"Geisenfeld","municipality":{"key":"09186122","name":"Geisenfeld, St","type":"Stadt"},"district":{"key":"09186","name":"Pfaffenhofen a.d.Ilm","type":"Landkreis"},"federalState":{"key":"09","name":"Bayern"}},{"name":"Monsignore-Klinger-Ring","postalCode":"85290","locality":"Geisenfeld","municipality":{"key":"09186122","name":"Geisenfeld, St","type":"Stadt"},"district":{"key":"09186","name":"Pfaffenhofen a.d.Ilm","type":"Landkreis"},"federalState":{"key":"09","name":"Bayern"}},{"name":"Moosweg","postalCode":"85290","locality":"Geisenfeld","municipality":{"key":"09186122","name":"Geisenfeld, St","type":"Stadt"},"district":{"key":"09186","name":"Pfaffenhofen a.d.Ilm","type":"Landkreis"},"federalState":{"key":"09","name":"Bayern"}},{"name":"Mühlstr.","postalCode":"85290","locality":"Geisenfeld","municipality":{"key":"09186122","name":"Geisenfeld, St","type":"Stadt"},"district":{"key":"09186","name":"Pfaffenhofen a.d.Ilm","type":"Landkreis"},"federalState":{"key":"09","name":"Bayern"}},{"name":"Münchener Str.","postalCode":"85290","locality":"Geisenfeld","municipality":{"key":"09186122","name":"Geisenfeld, St","type":"Stadt"},"district":{"key":"09186","name":"Pfaffenhofen a.d.Ilm","type":"Landkreis"},"federalState":{"key":"09","name":"Bayern"}},{"name":"Nelkenstr.","postalCode":"85290","locality":"Geisenfeld","municipality":{"key":"09186122","name":"Geisenfeld, St","type":"Stadt"},"district":{"key":"09186","name":"Pfaffenhofen a.d.Ilm","type":"Landkreis"},"federalState":{"key":"09","name":"Bayern"}},{"name":"Nißlpointweg","postalCode":"85290","locality":"Geisenfeld","municipality":{"key":"09186122","name":"Geisenfeld, St","type":"Stadt"},"district":{"key":"09186","name":"Pfaffenhofen a.d.Ilm","type":"Landkreis"},"federalState":{"key":"09","name":"Bayern"}},{"name":"Nordbrauerweg","postalCode":"85290","locality":"Geisenfeld","municipality":{"key":"09186122","name":"Geisenfeld, St","type":"Stadt"},"district":{"key":"09186","name":"Pfaffenhofen a.d.Ilm","type":"Landkreis"},"federalState":{"key":"09","name":"Bayern"}},{"name":"Nordendstr.","postalCode":"85290","locality":"Geisenfeld","municipality":{"key":"09186122","name":"Geisenfeld, St","type":"Stadt"},"district":{"key":"09186","name":"Pfaffenhofen a.d.Ilm","type":"Landkreis"},"federalState":{"key":"09","name":"Bayern"}},{"name":"Nöttinger Str.","postalCode":"85290","locality":"Geisenfeld","municipality":{"key":"09186122","name":"Geisenfeld, St","type":"Stadt"},"district":{"key":"09186","name":"Pfaffenhofen a.d.Ilm","type":"Landkreis"},"federalState":{"key":"09","name":"Bayern"}},{"name":"Oberfeldstr.","postalCode":"85290","locality":"Geisenfeld","municipality":{"key":"09186122","name":"Geisenfeld, St","type":"Stadt"},"district":{"key":"09186","name":"Pfaffenhofen a.d.Ilm","type":"Landkreis"},"federalState":{"key":"09","name":"Bayern"}},{"name":"Oberzeller Str.","postalCode":"85290","locality":"Geisenfeld","municipality":{"key":"09186122","name":"Geisenfeld, St","type":"Stadt"},"district":{"key":"09186","name":"Pfaffenhofen a.d.Ilm","type":"Landkreis"},"federalState":{"key":"09","name":"Bayern"}},{"name":"Otto-Reinwald-Str.","postalCode":"85290","locality":"Geisenfeld","municipality":{"key":"09186122","name":"Geisenfeld, St","type":"Stadt"},"district":{"key":"09186","name":"Pfaffenhofen a.d.Ilm","type":"Landkreis"},"federalState":{"key":"09","name":"Bayern"}},{"name":"Parleitener Str.","postalCode":"85290","locality":"Geisenfeld","municipality":{"key":"09186122","name":"Geisenfeld, St","type":"Stadt"},"district":{"key":"09186","name":"Pfaffenhofen a.d.Ilm","type":"Landkreis"},"federalState":{"key":"09","name":"Bayern"}},{"name":"Paulusstr.","postalCode":"85290","locality":"Geisenfeld","municipality":{"key":"09186122","name":"Geisenfeld, St","type":"Stadt"},"district":{"key":"09186","name":"Pfaffenhofen a.d.Ilm","type":"Landkreis"},"federalState":{"key":"09","name":"Bayern"}},{"name":"Perusastr.","postalCode":"85290","locality":"Geisenfeld","municipality":{"key":"09186122","name":"Geisenfeld, St","type":"Stadt"},"district":{"key":"09186","name":"Pfaffenhofen a.d.Ilm","type":"Landkreis"},"federalState":{"key":"09","name":"Bayern"}},{"name":"Pfaffenbergweg","postalCode":"85290","locality":"Geisenfeld","municipality":{"key":"09186122","name":"Geisenfeld, St","type":"Stadt"},"district":{"key":"09186","name":"Pfaffenhofen a.d.Ilm","type":"Landkreis"},"federalState":{"key":"09","name":"Bayern"}},{"name":"Pindharter Str.","postalCode":"85290","locality":"Geisenfeld","municipality":{"key":"09186122","name":"Geisenfeld, St","type":"Stadt"},"district":{"key":"09186","name":"Pfaffenhofen a.d.Ilm","type":"Landkreis"},"federalState":{"key":"09","name":"Bayern"}},{"name":"Pongrazstr.","postalCode":"85290","locality":"Geisenfeld","municipality":{"key":"09186122","name":"Geisenfeld, St","type":"Stadt"},"district":{"key":"09186","name":"Pfaffenhofen a.d.Ilm","type":"Landkreis"},"federalState":{"key":"09","name":"Bayern"}},{"name":"Rathausstr.","postalCode":"85290","locality":"Geisenfeld","municipality":{"key":"09186122","name":"Geisenfeld, St","type":"Stadt"},"district":{"key":"09186","name":"Pfaffenhofen a.d.Ilm","type":"Landkreis"},"federalState":{"key":"09","name":"Bayern"}},{"name":"Regensburger Str.","postalCode":"85290","locality":"Geisenfeld","municipality":{"key":"09186122","name":"Geisenfeld, St","type":"Stadt"},"district":{"key":"09186","name":"Pfaffenhofen a.d.Ilm","type":"Landkreis"},"federalState":{"key":"09","name":"Bayern"}},{"name":"Ringstr.","postalCode":"85290","locality":"Geisenfeld","municipality":{"key":"09186122","name":"Geisenfeld, St","type":"Stadt"},"district":{"key":"09186","name":"Pfaffenhofen a.d.Ilm","type":"Landkreis"},"federalState":{"key":"09","name":"Bayern"}},{"name":"Ritterswörther Allee","postalCode":"85290","locality":"Geisenfeld","municipality":{"key":"09186122","name":"Geisenfeld, St","type":"Stadt"},"district":{"key":"09186","name":"Pfaffenhofen a.d.Ilm","type":"Landkreis"},"federalState":{"key":"09","name":"Bayern"}},{"name":"Rockoldinger Weg","postalCode":"85290","locality":"Geisenfeld","municipality":{"key":"09186122","name":"Geisenfeld, St","type":"Stadt"},"district":{"key":"09186","name":"Pfaffenhofen a.d.Ilm","type":"Landkreis"},"federalState":{"key":"09","name":"Bayern"}},{"name":"Römerstr.","postalCode":"85290","locality":"Geisenfeld","municipality":{"key":"09186122","name":"Geisenfeld, St","type":"Stadt"},"district":{"key":"09186","name":"Pfaffenhofen a.d.Ilm","type":"Landkreis"},"federalState":{"key":"09","name":"Bayern"}},{"name":"Rosenstr.","postalCode":"85290","locality":"Geisenfeld","municipality":{"key":"09186122","name":"Geisenfeld, St","type":"Stadt"},"district":{"key":"09186","name":"Pfaffenhofen a.d.Ilm","type":"Landkreis"},"federalState":{"key":"09","name":"Bayern"}},{"name":"Rosenweg","postalCode":"85290","locality":"Geisenfeld","municipality":{"key":"09186122","name":"Geisenfeld, St","type":"Stadt"},"district":{"key":"09186","name":"Pfaffenhofen a.d.Ilm","type":"Landkreis"},"federalState":{"key":"09","name":"Bayern"}},{"name":"Rössweg","postalCode":"85290","locality":"Geisenfeld","municipality":{"key":"09186122","name":"Geisenfeld, St","type":"Stadt"},"district":{"key":"09186","name":"Pfaffenhofen a.d.Ilm","type":"Landkreis"},"federalState":{"key":"09","name":"Bayern"}},{"name":"Rottenegger Str.","postalCode":"85290","locality":"Geisenfeld","municipality":{"key":"09186122","name":"Geisenfeld, St","type":"Stadt"},"district":{"key":"09186","name":"Pfaffenhofen a.d.Ilm","type":"Landkreis"},"federalState":{"key":"09","name":"Bayern"}},{"name":"Salvatorstr.","postalCode":"85290","locality":"Geisenfeld","municipality":{"key":"09186122","name":"Geisenfeld, St","type":"Stadt"},"district":{"key":"09186","name":"Pfaffenhofen a.d.Ilm","type":"Landkreis"},"federalState":{"key":"09","name":"Bayern"}},{"name":"Sandweg","postalCode":"85290","locality":"Geisenfeld","municipality":{"key":"09186122","name":"Geisenfeld, St","type":"Stadt"},"district":{"key":"09186","name":"Pfaffenhofen a.d.Ilm","type":"Landkreis"},"federalState":{"key":"09","name":"Bayern"}},{"name":"Scheuerer Siedlung","postalCode":"85290","locality":"Geisenfeld","municipality":{"key":"09186122","name":"Geisenfeld, St","type":"Stadt"},"district":{"key":"09186","name":"Pfaffenhofen a.d.Ilm","type":"Landkreis"},"federalState":{"key":"09","name":"Bayern"}},{"name":"Schießstättweg","postalCode":"85290","locality":"Geisenfeld","municipality":{"key":"09186122","name":"Geisenfeld, St","type":"Stadt"},"district":{"key":"09186","name":"Pfaffenhofen a.d.Ilm","type":"Landkreis"},"federalState":{"key":"09","name":"Bayern"}},{"name":"Schillwitzhausen","postalCode":"85290","locality":"Geisenfeld","municipality":{"key":"09186122","name":"Geisenfeld, St","type":"Stadt"},"district":{"key":"09186","name":"Pfaffenhofen a.d.Ilm","type":"Landkreis"},"federalState":{"key":"09","name":"Bayern"}},{"name":"Schlagtörlgasse","postalCode":"85290","locality":"Geisenfeld","municipality":{"key":"09186122","name":"Geisenfeld, St","type":"Stadt"},"district":{"key":"09186","name":"Pfaffenhofen a.d.Ilm","type":"Landkreis"},"federalState":{"key":"09","name":"Bayern"}},{"name":"Schlehenweg","postalCode":"85290","locality":"Geisenfeld","municipality":{"key":"09186122","name":"Geisenfeld, St","type":"Stadt"},"district":{"key":"09186","name":"Pfaffenhofen a.d.Ilm","type":"Landkreis"},"federalState":{"key":"09","name":"Bayern"}},{"name":"Schloßäckerstr.","postalCode":"85290","locality":"Geisenfeld","municipality":{"key":"09186122","name":"Geisenfeld, St","type":"Stadt"},"district":{"key":"09186","name":"Pfaffenhofen a.d.Ilm","type":"Landkreis"},"federalState":{"key":"09","name":"Bayern"}},{"name":"Schloßring","postalCode":"85290","locality":"Geisenfeld","municipality":{"key":"09186122","name":"Geisenfeld, St","type":"Stadt"},"district":{"key":"09186","name":"Pfaffenhofen a.d.Ilm","type":"Landkreis"},"federalState":{"key":"09","name":"Bayern"}},{"name":"Schloßstr.","postalCode":"85290","locality":"Geisenfeld","municipality":{"key":"09186122","name":"Geisenfeld, St","type":"Stadt"},"district":{"key":"09186","name":"Pfaffenhofen a.d.Ilm","type":"Landkreis"},"federalState":{"key":"09","name":"Bayern"}},{"name":"Schloßwiese","postalCode":"85290","locality":"Geisenfeld","municipality":{"key":"09186122","name":"Geisenfeld, St","type":"Stadt"},"district":{"key":"09186","name":"Pfaffenhofen a.d.Ilm","type":"Landkreis"},"federalState":{"key":"09","name":"Bayern"}},{"name":"Schmellerstr.","postalCode":"85290","locality":"Geisenfeld","municipality":{"key":"09186122","name":"Geisenfeld, St","type":"Stadt"},"district":{"key":"09186","name":"Pfaffenhofen a.d.Ilm","type":"Landkreis"},"federalState":{"key":"09","name":"Bayern"}},{"name":"Schulstr.","postalCode":"85290","locality":"Geisenfeld","municipality":{"key":"09186122","name":"Geisenfeld, St","type":"Stadt"},"district":{"key":"09186","name":"Pfaffenhofen a.d.Ilm","type":"Landkreis"},"federalState":{"key":"09","name":"Bayern"}},{"name":"Schützenstr.","postalCode":"85290","locality":"Geisenfeld","municipality":{"key":"09186122","name":"Geisenfeld, St","type":"Stadt"},"district":{"key":"09186","name":"Pfaffenhofen a.d.Ilm","type":"Landkreis"},"federalState":{"key":"09","name":"Bayern"}},{"name":"Sedelbreite","postalCode":"85290","locality":"Geisenfeld","municipality":{"key":"09186122","name":"Geisenfeld, St","type":"Stadt"},"district":{"key":"09186","name":"Pfaffenhofen a.d.Ilm","type":"Landkreis"},"federalState":{"key":"09","name":"Bayern"}},{"name":"Steinbergstr.","postalCode":"85290","locality":"Geisenfeld","municipality":{"key":"09186122","name":"Geisenfeld, St","type":"Stadt"},"district":{"key":"09186","name":"Pfaffenhofen a.d.Ilm","type":"Landkreis"},"federalState":{"key":"09","name":"Bayern"}},{"name":"St.-Georg-Str.","postalCode":"85290","locality":"Geisenfeld","municipality":{"key":"09186122","name":"Geisenfeld, St","type":"Stadt"},"district":{"key":"09186","name":"Pfaffenhofen a.d.Ilm","type":"Landkreis"},"federalState":{"key":"09","name":"Bayern"}},{"name":"Stollstr.","postalCode":"85290","locality":"Geisenfeld","municipality":{"key":"09186122","name":"Geisenfeld, St","type":"Stadt"},"district":{"key":"09186","name":"Pfaffenhofen a.d.Ilm","type":"Landkreis"},"federalState":{"key":"09","name":"Bayern"}},{"name":"Storchenweg","postalCode":"85290","locality":"Geisenfeld","municipality":{"key":"09186122","name":"Geisenfeld, St","type":"Stadt"},"district":{"key":"09186","name":"Pfaffenhofen a.d.Ilm","type":"Landkreis"},"federalState":{"key":"09","name":"Bayern"}},{"name":"St.-Vitus-Str.","postalCode":"85290","locality":"Geisenfeld","municipality":{"key":"09186122","name":"Geisenfeld, St","type":"Stadt"},"district":{"key":"09186","name":"Pfaffenhofen a.d.Ilm","type":"Landkreis"},"federalState":{"key":"09","name":"Bayern"}},{"name":"Sudetenlandstr.","postalCode":"85290","locality":"Geisenfeld","municipality":{"key":"09186122","name":"Geisenfeld, St","type":"Stadt"},"district":{"key":"09186","name":"Pfaffenhofen a.d.Ilm","type":"Landkreis"},"federalState":{"key":"09","name":"Bayern"}},{"name":"Talgasse","postalCode":"85290","locality":"Geisenfeld","municipality":{"key":"09186122","name":"Geisenfeld, St","type":"Stadt"},"district":{"key":"09186","name":"Pfaffenhofen a.d.Ilm","type":"Landkreis"},"federalState":{"key":"09","name":"Bayern"}},{"name":"Tannenweg","postalCode":"85290","locality":"Geisenfeld","municipality":{"key":"09186122","name":"Geisenfeld, St","type":"Stadt"},"district":{"key":"09186","name":"Pfaffenhofen a.d.Ilm","type":"Landkreis"},"federalState":{"key":"09","name":"Bayern"}},{"name":"Taurusweg","postalCode":"85290","locality":"Geisenfeld","municipality":{"key":"09186122","name":"Geisenfeld, St","type":"Stadt"},"district":{"key":"09186","name":"Pfaffenhofen a.d.Ilm","type":"Landkreis"},"federalState":{"key":"09","name":"Bayern"}},{"name":"Tiefer Weg","postalCode":"85290","locality":"Geisenfeld","municipality":{"key":"09186122","name":"Geisenfeld, St","type":"Stadt"},"district":{"key":"09186","name":"Pfaffenhofen a.d.Ilm","type":"Landkreis"},"federalState":{"key":"09","name":"Bayern"}},{"name":"Tulpenweg","postalCode":"85290","locality":"Geisenfeld","municipality":{"key":"09186122","name":"Geisenfeld, St","type":"Stadt"},"district":{"key":"09186","name":"Pfaffenhofen a.d.Ilm","type":"Landkreis"},"federalState":{"key":"09","name":"Bayern"}},{"name":"Ulmenstr.","postalCode":"85290","locality":"Geisenfeld","municipality":{"key":"09186122","name":"Geisenfeld, St","type":"Stadt"},"district":{"key":"09186","name":"Pfaffenhofen a.d.Ilm","type":"Landkreis"},"federalState":{"key":"09","name":"Bayern"}},{"name":"Unterfeldstr.","postalCode":"85290","locality":"Geisenfeld","municipality":{"key":"09186122","name":"Geisenfeld, St","type":"Stadt"},"district":{"key":"09186","name":"Pfaffenhofen a.d.Ilm","type":"Landkreis"},"federalState":{"key":"09","name":"Bayern"}},{"name":"Vohburger Str.","postalCode":"85290","locality":"Geisenfeld","municipality":{"key":"09186122","name":"Geisenfeld, St","type":"Stadt"},"district":{"key":"09186","name":"Pfaffenhofen a.d.Ilm","type":"Landkreis"},"federalState":{"key":"09","name":"Bayern"}},{"name":"Waldstr.","postalCode":"85290","locality":"Geisenfeld","municipality":{"key":"09186122","name":"Geisenfeld, St","type":"Stadt"},"district":{"key":"09186","name":"Pfaffenhofen a.d.Ilm","type":"Landkreis"},"federalState":{"key":"09","name":"Bayern"}},{"name":"Waldweg","postalCode":"85290","locality":"Geisenfeld","municipality":{"key":"09186122","name":"Geisenfeld, St","type":"Stadt"},"district":{"key":"09186","name":"Pfaffenhofen a.d.Ilm","type":"Landkreis"},"federalState":{"key":"09","name":"Bayern"}},{"name":"Weidenstr.","postalCode":"85290","locality":"Geisenfeld","municipality":{"key":"09186122","name":"Geisenfeld, St","type":"Stadt"},"district":{"key":"09186","name":"Pfaffenhofen a.d.Ilm","type":"Landkreis"},"federalState":{"key":"09","name":"Bayern"}},{"name":"Weiherweg","postalCode":"85290","locality":"Geisenfeld","municipality":{"key":"09186122","name":"Geisenfeld, St","type":"Stadt"},"district":{"key":"09186","name":"Pfaffenhofen a.d.Ilm","type":"Landkreis"},"federalState":{"key":"09","name":"Bayern"}},{"name":"Weinbergstr.","postalCode":"85290","locality":"Geisenfeld","municipality":{"key":"09186122","name":"Geisenfeld, St","type":"Stadt"},"district":{"key":"09186","name":"Pfaffenhofen a.d.Ilm","type":"Landkreis"},"federalState":{"key":"09","name":"Bayern"}},{"name":"Weinsteig","postalCode":"85290","locality":"Geisenfeld","municipality":{"key":"09186122","name":"Geisenfeld, St","type":"Stadt"},"district":{"key":"09186","name":"Pfaffenhofen a.d.Ilm","type":"Landkreis"},"federalState":{"key":"09","name":"Bayern"}},{"name":"Wendenstr.","postalCode":"85290","locality":"Geisenfeld","municipality":{"key":"09186122","name":"Geisenfeld, St","type":"Stadt"},"district":{"key":"09186","name":"Pfaffenhofen a.d.Ilm","type":"Landkreis"},"federalState":{"key":"09","name":"Bayern"}},{"name":"Weningstr.","postalCode":"85290","locality":"Geisenfeld","municipality":{"key":"09186122","name":"Geisenfeld, St","type":"Stadt"},"district":{"key":"09186","name":"Pfaffenhofen a.d.Ilm","type":"Landkreis"},"federalState":{"key":"09","name":"Bayern"}},{"name":"Westendstr.","postalCode":"85290","locality":"Geisenfeld","municipality":{"key":"09186122","name":"Geisenfeld, St","type":"Stadt"},"district":{"key":"09186","name":"Pfaffenhofen a.d.Ilm","type":"Landkreis"},"federalState":{"key":"09","name":"Bayern"}},{"name":"Westerfeldstr.","postalCode":"85290","locality":"Geisenfeld","municipality":{"key":"09186122","name":"Geisenfeld, St","type":"Stadt"},"district":{"key":"09186","name":"Pfaffenhofen a.d.Ilm","type":"Landkreis"},"federalState":{"key":"09","name":"Bayern"}},{"name":"Wettermühlweg","postalCode":"85290","locality":"Geisenfeld","municipality":{"key":"09186122","name":"Geisenfeld, St","type":"Stadt"},"district":{"key":"09186","name":"Pfaffenhofen a.d.Ilm","type":"Landkreis"},"federalState":{"key":"09","name":"Bayern"}},{"name":"Wiesenweg","postalCode":"85290","locality":"Geisenfeld","municipality":{"key":"09186122","name":"Geisenfeld, St","type":"Stadt"},"district":{"key":"09186","name":"Pfaffenhofen a.d.Ilm","type":"Landkreis"},"federalState":{"key":"09","name":"Bayern"}},{"name":"Wolnzacher Str.","postalCode":"85290","locality":"Geisenfeld","municipality":{"key":"09186122","name":"Geisenfeld, St","type":"Stadt"},"district":{"key":"09186","name":"Pfaffenhofen a.d.Ilm","type":"Landkreis"},"federalState":{"key":"09","name":"Bayern"}},{"name":"Wurinstr.","postalCode":"85290","locality":"Geisenfeld","municipality":{"key":"09186122","name":"Geisenfeld, St","type":"Stadt"},"district":{"key":"09186","name":"Pfaffenhofen a.d.Ilm","type":"Landkreis"},"federalState":{"key":"09","name":"Bayern"}},{"name":"Ziegeleistr.","postalCode":"85290","locality":"Geisenfeld","municipality":{"key":"09186122","name":"Geisenfeld, St","type":"Stadt"},"district":{"key":"09186","name":"Pfaffenhofen a.d.Ilm","type":"Landkreis"},"federalState":{"key":"09","name":"Bayern"}},{"name":"Zieglergasse","postalCode":"85290","locality":"Geisenfeld","municipality":{"key":"09186122","name":"Geisenfeld, St","type":"Stadt"},"district":{"key":"09186","name":"Pfaffenhofen a.d.Ilm","type":"Landkreis"},"federalState":{"key":"09","name":"Bayern"}},]