[{"name":"Auf Breitheck","postalCode":"54636","locality":"Nattenheim","municipality":{"key":"07232086","name":"Nattenheim","type":"Kreisangehörige_Gemeinde"},"district":{"key":"07232","name":"Eifelkreis Bitburg-Prüm","type":"Landkreis"},"federalState":{"key":"07","name":"Rheinland-Pfalz"}},{"name":"Auf dem Sauerfeld","postalCode":"54636","locality":"Nattenheim","municipality":{"key":"07232086","name":"Nattenheim","type":"Kreisangehörige_Gemeinde"},"district":{"key":"07232","name":"Eifelkreis Bitburg-Prüm","type":"Landkreis"},"federalState":{"key":"07","name":"Rheinland-Pfalz"}},{"name":"Bickendorfer Str.","postalCode":"54636","locality":"Nattenheim","municipality":{"key":"07232086","name":"Nattenheim","type":"Kreisangehörige_Gemeinde"},"district":{"key":"07232","name":"Eifelkreis Bitburg-Prüm","type":"Landkreis"},"federalState":{"key":"07","name":"Rheinland-Pfalz"}},{"name":"Bitburger Str.","postalCode":"54636","locality":"Nattenheim","municipality":{"key":"07232086","name":"Nattenheim","type":"Kreisangehörige_Gemeinde"},"district":{"key":"07232","name":"Eifelkreis Bitburg-Prüm","type":"Landkreis"},"federalState":{"key":"07","name":"Rheinland-Pfalz"}},{"name":"Hauptstr.","postalCode":"54636","locality":"Nattenheim","municipality":{"key":"07232086","name":"Nattenheim","type":"Kreisangehörige_Gemeinde"},"district":{"key":"07232","name":"Eifelkreis Bitburg-Prüm","type":"Landkreis"},"federalState":{"key":"07","name":"Rheinland-Pfalz"}},{"name":"In der Dell","postalCode":"54636","locality":"Nattenheim","municipality":{"key":"07232086","name":"Nattenheim","type":"Kreisangehörige_Gemeinde"},"district":{"key":"07232","name":"Eifelkreis Bitburg-Prüm","type":"Landkreis"},"federalState":{"key":"07","name":"Rheinland-Pfalz"}},{"name":"Rittersdorfer Str.","postalCode":"54636","locality":"Nattenheim","municipality":{"key":"07232086","name":"Nattenheim","type":"Kreisangehörige_Gemeinde"},"district":{"key":"07232","name":"Eifelkreis Bitburg-Prüm","type":"Landkreis"},"federalState":{"key":"07","name":"Rheinland-Pfalz"}},{"name":"Schalzenweg","postalCode":"54636","locality":"Nattenheim","municipality":{"key":"07232086","name":"Nattenheim","type":"Kreisangehörige_Gemeinde"},"district":{"key":"07232","name":"Eifelkreis Bitburg-Prüm","type":"Landkreis"},"federalState":{"key":"07","name":"Rheinland-Pfalz"}},{"name":"Schulstr.","postalCode":"54636","locality":"Nattenheim","municipality":{"key":"07232086","name":"Nattenheim","type":"Kreisangehörige_Gemeinde"},"district":{"key":"07232","name":"Eifelkreis Bitburg-Prüm","type":"Landkreis"},"federalState":{"key":"07","name":"Rheinland-Pfalz"}},{"name":"Sportplatzstr.","postalCode":"54636","locality":"Nattenheim","municipality":{"key":"07232086","name":"Nattenheim","type":"Kreisangehörige_Gemeinde"},"district":{"key":"07232","name":"Eifelkreis Bitburg-Prüm","type":"Landkreis"},"federalState":{"key":"07","name":"Rheinland-Pfalz"}},{"name":"Urbethstr.","postalCode":"54636","locality":"Nattenheim","municipality":{"key":"07232086","name":"Nattenheim","type":"Kreisangehörige_Gemeinde"},"district":{"key":"07232","name":"Eifelkreis Bitburg-Prüm","type":"Landkreis"},"federalState":{"key":"07","name":"Rheinland-Pfalz"}},{"name":"Vor der Lieh","postalCode":"54636","locality":"Nattenheim","municipality":{"key":"07232086","name":"Nattenheim","type":"Kreisangehörige_Gemeinde"},"district":{"key":"07232","name":"Eifelkreis Bitburg-Prüm","type":"Landkreis"},"federalState":{"key":"07","name":"Rheinland-Pfalz"}},{"name":"Wiesenweg","postalCode":"54636","locality":"Nattenheim","municipality":{"key":"07232086","name":"Nattenheim","type":"Kreisangehörige_Gemeinde"},"district":{"key":"07232","name":"Eifelkreis Bitburg-Prüm","type":"Landkreis"},"federalState":{"key":"07","name":"Rheinland-Pfalz"}},{"name":"Zum Sonnenhof","postalCode":"54636","locality":"Nattenheim","municipality":{"key":"07232086","name":"Nattenheim","type":"Kreisangehörige_Gemeinde"},"district":{"key":"07232","name":"Eifelkreis Bitburg-Prüm","type":"Landkreis"},"federalState":{"key":"07","name":"Rheinland-Pfalz"}},]