[{"name":"Alexisstr.","postalCode":"14558","locality":"Nuthetal","municipality":{"key":"12069454","name":"Nuthetal","type":"Kreisangehörige_Gemeinde"},"district":{"key":"12069","name":"Potsdam-Mittelmark","type":"Landkreis"},"federalState":{"key":"12","name":"Brandenburg"}},{"name":"Alice-Bloch-Str.","postalCode":"14558","locality":"Nuthetal","municipality":{"key":"12069454","name":"Nuthetal","type":"Kreisangehörige_Gemeinde"},"district":{"key":"12069","name":"Potsdam-Mittelmark","type":"Landkreis"},"federalState":{"key":"12","name":"Brandenburg"}},{"name":"Alleestr.","postalCode":"14558","locality":"Nuthetal","municipality":{"key":"12069454","name":"Nuthetal","type":"Kreisangehörige_Gemeinde"},"district":{"key":"12069","name":"Potsdam-Mittelmark","type":"Landkreis"},"federalState":{"key":"12","name":"Brandenburg"}},{"name":"Am Ausblick","postalCode":"14558","locality":"Nuthetal","municipality":{"key":"12069454","name":"Nuthetal","type":"Kreisangehörige_Gemeinde"},"district":{"key":"12069","name":"Potsdam-Mittelmark","type":"Landkreis"},"federalState":{"key":"12","name":"Brandenburg"}},{"name":"Am Buchhorst","postalCode":"14558","locality":"Nuthetal","municipality":{"key":"12069454","name":"Nuthetal","type":"Kreisangehörige_Gemeinde"},"district":{"key":"12069","name":"Potsdam-Mittelmark","type":"Landkreis"},"federalState":{"key":"12","name":"Brandenburg"}},{"name":"Am Buschberg","postalCode":"14558","locality":"Nuthetal","municipality":{"key":"12069454","name":"Nuthetal","type":"Kreisangehörige_Gemeinde"},"district":{"key":"12069","name":"Potsdam-Mittelmark","type":"Landkreis"},"federalState":{"key":"12","name":"Brandenburg"}},{"name":"Am Gersthof","postalCode":"14558","locality":"Nuthetal","municipality":{"key":"12069454","name":"Nuthetal","type":"Kreisangehörige_Gemeinde"},"district":{"key":"12069","name":"Potsdam-Mittelmark","type":"Landkreis"},"federalState":{"key":"12","name":"Brandenburg"}},{"name":"Am Kiefernwald","postalCode":"14558","locality":"Nuthetal","municipality":{"key":"12069454","name":"Nuthetal","type":"Kreisangehörige_Gemeinde"},"district":{"key":"12069","name":"Potsdam-Mittelmark","type":"Landkreis"},"federalState":{"key":"12","name":"Brandenburg"}},{"name":"Am Kurzen End","postalCode":"14558","locality":"Nuthetal","municipality":{"key":"12069454","name":"Nuthetal","type":"Kreisangehörige_Gemeinde"},"district":{"key":"12069","name":"Potsdam-Mittelmark","type":"Landkreis"},"federalState":{"key":"12","name":"Brandenburg"}},{"name":"Am Lagerplatz","postalCode":"14558","locality":"Nuthetal","municipality":{"key":"12069454","name":"Nuthetal","type":"Kreisangehörige_Gemeinde"},"district":{"key":"12069","name":"Potsdam-Mittelmark","type":"Landkreis"},"federalState":{"key":"12","name":"Brandenburg"}},{"name":"Am Luchgraben","postalCode":"14558","locality":"Nuthetal","municipality":{"key":"12069454","name":"Nuthetal","type":"Kreisangehörige_Gemeinde"},"district":{"key":"12069","name":"Potsdam-Mittelmark","type":"Landkreis"},"federalState":{"key":"12","name":"Brandenburg"}},{"name":"Am Markt","postalCode":"14558","locality":"Nuthetal","municipality":{"key":"12069454","name":"Nuthetal","type":"Kreisangehörige_Gemeinde"},"district":{"key":"12069","name":"Potsdam-Mittelmark","type":"Landkreis"},"federalState":{"key":"12","name":"Brandenburg"}},{"name":"Am Nuthetal","postalCode":"14558","locality":"Nuthetal","municipality":{"key":"12069454","name":"Nuthetal","type":"Kreisangehörige_Gemeinde"},"district":{"key":"12069","name":"Potsdam-Mittelmark","type":"Landkreis"},"federalState":{"key":"12","name":"Brandenburg"}},{"name":"Am Rehgraben","postalCode":"14558","locality":"Nuthetal","municipality":{"key":"12069454","name":"Nuthetal","type":"Kreisangehörige_Gemeinde"},"district":{"key":"12069","name":"Potsdam-Mittelmark","type":"Landkreis"},"federalState":{"key":"12","name":"Brandenburg"}},{"name":"Am Sportplatz","postalCode":"14558","locality":"Nuthetal","municipality":{"key":"12069454","name":"Nuthetal","type":"Kreisangehörige_Gemeinde"},"district":{"key":"12069","name":"Potsdam-Mittelmark","type":"Landkreis"},"federalState":{"key":"12","name":"Brandenburg"}},{"name":"Am Stichgraben","postalCode":"14558","locality":"Nuthetal","municipality":{"key":"12069454","name":"Nuthetal","type":"Kreisangehörige_Gemeinde"},"district":{"key":"12069","name":"Potsdam-Mittelmark","type":"Landkreis"},"federalState":{"key":"12","name":"Brandenburg"}},{"name":"Am Torfgraben","postalCode":"14558","locality":"Nuthetal","municipality":{"key":"12069454","name":"Nuthetal","type":"Kreisangehörige_Gemeinde"},"district":{"key":"12069","name":"Potsdam-Mittelmark","type":"Landkreis"},"federalState":{"key":"12","name":"Brandenburg"}},{"name":"Am Wiesengrund","postalCode":"14558","locality":"Nuthetal","municipality":{"key":"12069454","name":"Nuthetal","type":"Kreisangehörige_Gemeinde"},"district":{"key":"12069","name":"Potsdam-Mittelmark","type":"Landkreis"},"federalState":{"key":"12","name":"Brandenburg"}},{"name":"Andersenweg","postalCode":"14558","locality":"Nuthetal","municipality":{"key":"12069454","name":"Nuthetal","type":"Kreisangehörige_Gemeinde"},"district":{"key":"12069","name":"Potsdam-Mittelmark","type":"Landkreis"},"federalState":{"key":"12","name":"Brandenburg"}},{"name":"An der Sternwarte","postalCode":"14558","locality":"Nuthetal","municipality":{"key":"12069454","name":"Nuthetal","type":"Kreisangehörige_Gemeinde"},"district":{"key":"12069","name":"Potsdam-Mittelmark","type":"Landkreis"},"federalState":{"key":"12","name":"Brandenburg"}},{"name":"An der Waldkolonie","postalCode":"14558","locality":"Nuthetal","municipality":{"key":"12069454","name":"Nuthetal","type":"Kreisangehörige_Gemeinde"},"district":{"key":"12069","name":"Potsdam-Mittelmark","type":"Landkreis"},"federalState":{"key":"12","name":"Brandenburg"}},{"name":"An der Wiese","postalCode":"14558","locality":"Nuthetal","municipality":{"key":"12069454","name":"Nuthetal","type":"Kreisangehörige_Gemeinde"},"district":{"key":"12069","name":"Potsdam-Mittelmark","type":"Landkreis"},"federalState":{"key":"12","name":"Brandenburg"}},{"name":"Anna-Seghers-Str.","postalCode":"14558","locality":"Nuthetal","municipality":{"key":"12069454","name":"Nuthetal","type":"Kreisangehörige_Gemeinde"},"district":{"key":"12069","name":"Potsdam-Mittelmark","type":"Landkreis"},"federalState":{"key":"12","name":"Brandenburg"}},{"name":"Arthur-Scheunert-Allee","postalCode":"14558","locality":"Nuthetal","municipality":{"key":"12069454","name":"Nuthetal","type":"Kreisangehörige_Gemeinde"},"district":{"key":"12069","name":"Potsdam-Mittelmark","type":"Landkreis"},"federalState":{"key":"12","name":"Brandenburg"}},{"name":"Auf der Reihe","postalCode":"14558","locality":"Nuthetal","municipality":{"key":"12069454","name":"Nuthetal","type":"Kreisangehörige_Gemeinde"},"district":{"key":"12069","name":"Potsdam-Mittelmark","type":"Landkreis"},"federalState":{"key":"12","name":"Brandenburg"}},{"name":"Ausbau","postalCode":"14558","locality":"Nuthetal","municipality":{"key":"12069454","name":"Nuthetal","type":"Kreisangehörige_Gemeinde"},"district":{"key":"12069","name":"Potsdam-Mittelmark","type":"Landkreis"},"federalState":{"key":"12","name":"Brandenburg"}},{"name":"Bachstr.","postalCode":"14558","locality":"Nuthetal","municipality":{"key":"12069454","name":"Nuthetal","type":"Kreisangehörige_Gemeinde"},"district":{"key":"12069","name":"Potsdam-Mittelmark","type":"Landkreis"},"federalState":{"key":"12","name":"Brandenburg"}},{"name":"Beelitzer Str.","postalCode":"14558","locality":"Nuthetal","municipality":{"key":"12069454","name":"Nuthetal","type":"Kreisangehörige_Gemeinde"},"district":{"key":"12069","name":"Potsdam-Mittelmark","type":"Landkreis"},"federalState":{"key":"12","name":"Brandenburg"}},{"name":"Beethovenstr.","postalCode":"14558","locality":"Nuthetal","municipality":{"key":"12069454","name":"Nuthetal","type":"Kreisangehörige_Gemeinde"},"district":{"key":"12069","name":"Potsdam-Mittelmark","type":"Landkreis"},"federalState":{"key":"12","name":"Brandenburg"}},{"name":"Begasstr.","postalCode":"14558","locality":"Nuthetal","municipality":{"key":"12069454","name":"Nuthetal","type":"Kreisangehörige_Gemeinde"},"district":{"key":"12069","name":"Potsdam-Mittelmark","type":"Landkreis"},"federalState":{"key":"12","name":"Brandenburg"}},{"name":"Bergblick","postalCode":"14558","locality":"Nuthetal","municipality":{"key":"12069454","name":"Nuthetal","type":"Kreisangehörige_Gemeinde"},"district":{"key":"12069","name":"Potsdam-Mittelmark","type":"Landkreis"},"federalState":{"key":"12","name":"Brandenburg"}},{"name":"Bergstr.","postalCode":"14558","locality":"Nuthetal","municipality":{"key":"12069454","name":"Nuthetal","type":"Kreisangehörige_Gemeinde"},"district":{"key":"12069","name":"Potsdam-Mittelmark","type":"Landkreis"},"federalState":{"key":"12","name":"Brandenburg"}},{"name":"Biberweg","postalCode":"14558","locality":"Nuthetal","municipality":{"key":"12069454","name":"Nuthetal","type":"Kreisangehörige_Gemeinde"},"district":{"key":"12069","name":"Potsdam-Mittelmark","type":"Landkreis"},"federalState":{"key":"12","name":"Brandenburg"}},{"name":"Birkenhügel","postalCode":"14558","locality":"Nuthetal","municipality":{"key":"12069454","name":"Nuthetal","type":"Kreisangehörige_Gemeinde"},"district":{"key":"12069","name":"Potsdam-Mittelmark","type":"Landkreis"},"federalState":{"key":"12","name":"Brandenburg"}},{"name":"Brombeerweg","postalCode":"14558","locality":"Nuthetal","municipality":{"key":"12069454","name":"Nuthetal","type":"Kreisangehörige_Gemeinde"},"district":{"key":"12069","name":"Potsdam-Mittelmark","type":"Landkreis"},"federalState":{"key":"12","name":"Brandenburg"}},{"name":"Burgfischerei","postalCode":"14558","locality":"Nuthetal","municipality":{"key":"12069454","name":"Nuthetal","type":"Kreisangehörige_Gemeinde"},"district":{"key":"12069","name":"Potsdam-Mittelmark","type":"Landkreis"},"federalState":{"key":"12","name":"Brandenburg"}},{"name":"Buschweg","postalCode":"14558","locality":"Nuthetal","municipality":{"key":"12069454","name":"Nuthetal","type":"Kreisangehörige_Gemeinde"},"district":{"key":"12069","name":"Potsdam-Mittelmark","type":"Landkreis"},"federalState":{"key":"12","name":"Brandenburg"}},{"name":"Bussardsteig","postalCode":"14558","locality":"Nuthetal","municipality":{"key":"12069454","name":"Nuthetal","type":"Kreisangehörige_Gemeinde"},"district":{"key":"12069","name":"Potsdam-Mittelmark","type":"Landkreis"},"federalState":{"key":"12","name":"Brandenburg"}},{"name":"Caputher Heuweg","postalCode":"14558","locality":"Nuthetal","municipality":{"key":"12069454","name":"Nuthetal","type":"Kreisangehörige_Gemeinde"},"district":{"key":"12069","name":"Potsdam-Mittelmark","type":"Landkreis"},"federalState":{"key":"12","name":"Brandenburg"}},{"name":"Dahlienweg","postalCode":"14558","locality":"Nuthetal","municipality":{"key":"12069454","name":"Nuthetal","type":"Kreisangehörige_Gemeinde"},"district":{"key":"12069","name":"Potsdam-Mittelmark","type":"Landkreis"},"federalState":{"key":"12","name":"Brandenburg"}},{"name":"Dorfstr.","postalCode":"14558","locality":"Nuthetal","municipality":{"key":"12069454","name":"Nuthetal","type":"Kreisangehörige_Gemeinde"},"district":{"key":"12069","name":"Potsdam-Mittelmark","type":"Landkreis"},"federalState":{"key":"12","name":"Brandenburg"}},{"name":"Drewitzer Str.","postalCode":"14558","locality":"Nuthetal","municipality":{"key":"12069454","name":"Nuthetal","type":"Kreisangehörige_Gemeinde"},"district":{"key":"12069","name":"Potsdam-Mittelmark","type":"Landkreis"},"federalState":{"key":"12","name":"Brandenburg"}},{"name":"Ebereschenweg","postalCode":"14558","locality":"Nuthetal","municipality":{"key":"12069454","name":"Nuthetal","type":"Kreisangehörige_Gemeinde"},"district":{"key":"12069","name":"Potsdam-Mittelmark","type":"Landkreis"},"federalState":{"key":"12","name":"Brandenburg"}},{"name":"Eichenweg","postalCode":"14558","locality":"Nuthetal","municipality":{"key":"12069454","name":"Nuthetal","type":"Kreisangehörige_Gemeinde"},"district":{"key":"12069","name":"Potsdam-Mittelmark","type":"Landkreis"},"federalState":{"key":"12","name":"Brandenburg"}},{"name":"Eichhörnchenweg","postalCode":"14558","locality":"Nuthetal","municipality":{"key":"12069454","name":"Nuthetal","type":"Kreisangehörige_Gemeinde"},"district":{"key":"12069","name":"Potsdam-Mittelmark","type":"Landkreis"},"federalState":{"key":"12","name":"Brandenburg"}},{"name":"Eosanderstr.","postalCode":"14558","locality":"Nuthetal","municipality":{"key":"12069454","name":"Nuthetal","type":"Kreisangehörige_Gemeinde"},"district":{"key":"12069","name":"Potsdam-Mittelmark","type":"Landkreis"},"federalState":{"key":"12","name":"Brandenburg"}},{"name":"Erlenweg","postalCode":"14558","locality":"Nuthetal","municipality":{"key":"12069454","name":"Nuthetal","type":"Kreisangehörige_Gemeinde"},"district":{"key":"12069","name":"Potsdam-Mittelmark","type":"Landkreis"},"federalState":{"key":"12","name":"Brandenburg"}},{"name":"Eschenweg","postalCode":"14558","locality":"Nuthetal","municipality":{"key":"12069454","name":"Nuthetal","type":"Kreisangehörige_Gemeinde"},"district":{"key":"12069","name":"Potsdam-Mittelmark","type":"Landkreis"},"federalState":{"key":"12","name":"Brandenburg"}},{"name":"Fahlhorster Dorfstr.","postalCode":"14558","locality":"Nuthetal","municipality":{"key":"12069454","name":"Nuthetal","type":"Kreisangehörige_Gemeinde"},"district":{"key":"12069","name":"Potsdam-Mittelmark","type":"Landkreis"},"federalState":{"key":"12","name":"Brandenburg"}},{"name":"Fahlhorster Weg","postalCode":"14558","locality":"Nuthetal","municipality":{"key":"12069454","name":"Nuthetal","type":"Kreisangehörige_Gemeinde"},"district":{"key":"12069","name":"Potsdam-Mittelmark","type":"Landkreis"},"federalState":{"key":"12","name":"Brandenburg"}},{"name":"Falkensteig","postalCode":"14558","locality":"Nuthetal","municipality":{"key":"12069454","name":"Nuthetal","type":"Kreisangehörige_Gemeinde"},"district":{"key":"12069","name":"Potsdam-Mittelmark","type":"Landkreis"},"federalState":{"key":"12","name":"Brandenburg"}},{"name":"Feldstr.","postalCode":"14558","locality":"Nuthetal","municipality":{"key":"12069454","name":"Nuthetal","type":"Kreisangehörige_Gemeinde"},"district":{"key":"12069","name":"Potsdam-Mittelmark","type":"Landkreis"},"federalState":{"key":"12","name":"Brandenburg"}},{"name":"Feldweg","postalCode":"14558","locality":"Nuthetal","municipality":{"key":"12069454","name":"Nuthetal","type":"Kreisangehörige_Gemeinde"},"district":{"key":"12069","name":"Potsdam-Mittelmark","type":"Landkreis"},"federalState":{"key":"12","name":"Brandenburg"}},{"name":"Finkenweg","postalCode":"14558","locality":"Nuthetal","municipality":{"key":"12069454","name":"Nuthetal","type":"Kreisangehörige_Gemeinde"},"district":{"key":"12069","name":"Potsdam-Mittelmark","type":"Landkreis"},"federalState":{"key":"12","name":"Brandenburg"}},{"name":"Fliederweg","postalCode":"14558","locality":"Nuthetal","municipality":{"key":"12069454","name":"Nuthetal","type":"Kreisangehörige_Gemeinde"},"district":{"key":"12069","name":"Potsdam-Mittelmark","type":"Landkreis"},"federalState":{"key":"12","name":"Brandenburg"}},{"name":"Forsthausweg","postalCode":"14558","locality":"Nuthetal","municipality":{"key":"12069454","name":"Nuthetal","type":"Kreisangehörige_Gemeinde"},"district":{"key":"12069","name":"Potsdam-Mittelmark","type":"Landkreis"},"federalState":{"key":"12","name":"Brandenburg"}},{"name":"Forstweg","postalCode":"14558","locality":"Nuthetal","municipality":{"key":"12069454","name":"Nuthetal","type":"Kreisangehörige_Gemeinde"},"district":{"key":"12069","name":"Potsdam-Mittelmark","type":"Landkreis"},"federalState":{"key":"12","name":"Brandenburg"}},{"name":"Friedenstr.","postalCode":"14558","locality":"Nuthetal","municipality":{"key":"12069454","name":"Nuthetal","type":"Kreisangehörige_Gemeinde"},"district":{"key":"12069","name":"Potsdam-Mittelmark","type":"Landkreis"},"federalState":{"key":"12","name":"Brandenburg"}},{"name":"Fuchsweg","postalCode":"14558","locality":"Nuthetal","municipality":{"key":"12069454","name":"Nuthetal","type":"Kreisangehörige_Gemeinde"},"district":{"key":"12069","name":"Potsdam-Mittelmark","type":"Landkreis"},"federalState":{"key":"12","name":"Brandenburg"}},{"name":"Gartenweg","postalCode":"14558","locality":"Nuthetal","municipality":{"key":"12069454","name":"Nuthetal","type":"Kreisangehörige_Gemeinde"},"district":{"key":"12069","name":"Potsdam-Mittelmark","type":"Landkreis"},"federalState":{"key":"12","name":"Brandenburg"}},{"name":"Gedenkplatz für die Opfer des 1. Weltkriegs","postalCode":"14558","locality":"Nuthetal","municipality":{"key":"12069454","name":"Nuthetal","type":"Kreisangehörige_Gemeinde"},"district":{"key":"12069","name":"Potsdam-Mittelmark","type":"Landkreis"},"federalState":{"key":"12","name":"Brandenburg"}},{"name":"Gerhart-Hauptmann-Str.","postalCode":"14558","locality":"Nuthetal","municipality":{"key":"12069454","name":"Nuthetal","type":"Kreisangehörige_Gemeinde"},"district":{"key":"12069","name":"Potsdam-Mittelmark","type":"Landkreis"},"federalState":{"key":"12","name":"Brandenburg"}},{"name":"Gleimstr.","postalCode":"14558","locality":"Nuthetal","municipality":{"key":"12069454","name":"Nuthetal","type":"Kreisangehörige_Gemeinde"},"district":{"key":"12069","name":"Potsdam-Mittelmark","type":"Landkreis"},"federalState":{"key":"12","name":"Brandenburg"}},{"name":"Gutshauspark","postalCode":"14558","locality":"Nuthetal","municipality":{"key":"12069454","name":"Nuthetal","type":"Kreisangehörige_Gemeinde"},"district":{"key":"12069","name":"Potsdam-Mittelmark","type":"Landkreis"},"federalState":{"key":"12","name":"Brandenburg"}},{"name":"Haydnweg","postalCode":"14558","locality":"Nuthetal","municipality":{"key":"12069454","name":"Nuthetal","type":"Kreisangehörige_Gemeinde"},"district":{"key":"12069","name":"Potsdam-Mittelmark","type":"Landkreis"},"federalState":{"key":"12","name":"Brandenburg"}},{"name":"Heideweg","postalCode":"14558","locality":"Nuthetal","municipality":{"key":"12069454","name":"Nuthetal","type":"Kreisangehörige_Gemeinde"},"district":{"key":"12069","name":"Potsdam-Mittelmark","type":"Landkreis"},"federalState":{"key":"12","name":"Brandenburg"}},{"name":"Heinrich-Zille-Str.","postalCode":"14558","locality":"Nuthetal","municipality":{"key":"12069454","name":"Nuthetal","type":"Kreisangehörige_Gemeinde"},"district":{"key":"12069","name":"Potsdam-Mittelmark","type":"Landkreis"},"federalState":{"key":"12","name":"Brandenburg"}},{"name":"Hermann-Löns-Str.","postalCode":"14558","locality":"Nuthetal","municipality":{"key":"12069454","name":"Nuthetal","type":"Kreisangehörige_Gemeinde"},"district":{"key":"12069","name":"Potsdam-Mittelmark","type":"Landkreis"},"federalState":{"key":"12","name":"Brandenburg"}},{"name":"Im Bärwinkel","postalCode":"14558","locality":"Nuthetal","municipality":{"key":"12069454","name":"Nuthetal","type":"Kreisangehörige_Gemeinde"},"district":{"key":"12069","name":"Potsdam-Mittelmark","type":"Landkreis"},"federalState":{"key":"12","name":"Brandenburg"}},{"name":"Im Bergfeld","postalCode":"14558","locality":"Nuthetal","municipality":{"key":"12069454","name":"Nuthetal","type":"Kreisangehörige_Gemeinde"},"district":{"key":"12069","name":"Potsdam-Mittelmark","type":"Landkreis"},"federalState":{"key":"12","name":"Brandenburg"}},{"name":"Im Wiesengrund","postalCode":"14558","locality":"Nuthetal","municipality":{"key":"12069454","name":"Nuthetal","type":"Kreisangehörige_Gemeinde"},"district":{"key":"12069","name":"Potsdam-Mittelmark","type":"Landkreis"},"federalState":{"key":"12","name":"Brandenburg"}},{"name":"In den Gehren","postalCode":"14558","locality":"Nuthetal","municipality":{"key":"12069454","name":"Nuthetal","type":"Kreisangehörige_Gemeinde"},"district":{"key":"12069","name":"Potsdam-Mittelmark","type":"Landkreis"},"federalState":{"key":"12","name":"Brandenburg"}},{"name":"Jean-Paul-Str.","postalCode":"14558","locality":"Nuthetal","municipality":{"key":"12069454","name":"Nuthetal","type":"Kreisangehörige_Gemeinde"},"district":{"key":"12069","name":"Potsdam-Mittelmark","type":"Landkreis"},"federalState":{"key":"12","name":"Brandenburg"}},{"name":"Jon-Leifs-Platz","postalCode":"14558","locality":"Nuthetal","municipality":{"key":"12069454","name":"Nuthetal","type":"Kreisangehörige_Gemeinde"},"district":{"key":"12069","name":"Potsdam-Mittelmark","type":"Landkreis"},"federalState":{"key":"12","name":"Brandenburg"}},{"name":"Jörg-Lange-Platz","postalCode":"14558","locality":"Nuthetal","municipality":{"key":"12069454","name":"Nuthetal","type":"Kreisangehörige_Gemeinde"},"district":{"key":"12069","name":"Potsdam-Mittelmark","type":"Landkreis"},"federalState":{"key":"12","name":"Brandenburg"}},{"name":"Käthe-Kollwitz-Str.","postalCode":"14558","locality":"Nuthetal","municipality":{"key":"12069454","name":"Nuthetal","type":"Kreisangehörige_Gemeinde"},"district":{"key":"12069","name":"Potsdam-Mittelmark","type":"Landkreis"},"federalState":{"key":"12","name":"Brandenburg"}},{"name":"Kohlmeisenweg","postalCode":"14558","locality":"Nuthetal","municipality":{"key":"12069454","name":"Nuthetal","type":"Kreisangehörige_Gemeinde"},"district":{"key":"12069","name":"Potsdam-Mittelmark","type":"Landkreis"},"federalState":{"key":"12","name":"Brandenburg"}},{"name":"Kolonie","postalCode":"14558","locality":"Nuthetal","municipality":{"key":"12069454","name":"Nuthetal","type":"Kreisangehörige_Gemeinde"},"district":{"key":"12069","name":"Potsdam-Mittelmark","type":"Landkreis"},"federalState":{"key":"12","name":"Brandenburg"}},{"name":"Kreuzstr.","postalCode":"14558","locality":"Nuthetal","municipality":{"key":"12069454","name":"Nuthetal","type":"Kreisangehörige_Gemeinde"},"district":{"key":"12069","name":"Potsdam-Mittelmark","type":"Landkreis"},"federalState":{"key":"12","name":"Brandenburg"}},{"name":"Langerwischer Weg","postalCode":"14558","locality":"Nuthetal","municipality":{"key":"12069454","name":"Nuthetal","type":"Kreisangehörige_Gemeinde"},"district":{"key":"12069","name":"Potsdam-Mittelmark","type":"Landkreis"},"federalState":{"key":"12","name":"Brandenburg"}},{"name":"Lange Tränke","postalCode":"14558","locality":"Nuthetal","municipality":{"key":"12069454","name":"Nuthetal","type":"Kreisangehörige_Gemeinde"},"district":{"key":"12069","name":"Potsdam-Mittelmark","type":"Landkreis"},"federalState":{"key":"12","name":"Brandenburg"}},{"name":"Lärchenring","postalCode":"14558","locality":"Nuthetal","municipality":{"key":"12069454","name":"Nuthetal","type":"Kreisangehörige_Gemeinde"},"district":{"key":"12069","name":"Potsdam-Mittelmark","type":"Landkreis"},"federalState":{"key":"12","name":"Brandenburg"}},{"name":"Leibnizstr.","postalCode":"14558","locality":"Nuthetal","municipality":{"key":"12069454","name":"Nuthetal","type":"Kreisangehörige_Gemeinde"},"district":{"key":"12069","name":"Potsdam-Mittelmark","type":"Landkreis"},"federalState":{"key":"12","name":"Brandenburg"}},{"name":"Lenbachstr.","postalCode":"14558","locality":"Nuthetal","municipality":{"key":"12069454","name":"Nuthetal","type":"Kreisangehörige_Gemeinde"},"district":{"key":"12069","name":"Potsdam-Mittelmark","type":"Landkreis"},"federalState":{"key":"12","name":"Brandenburg"}},{"name":"Lindengestell","postalCode":"14558","locality":"Nuthetal","municipality":{"key":"12069454","name":"Nuthetal","type":"Kreisangehörige_Gemeinde"},"district":{"key":"12069","name":"Potsdam-Mittelmark","type":"Landkreis"},"federalState":{"key":"12","name":"Brandenburg"}},{"name":"Lindhorst","postalCode":"14558","locality":"Nuthetal","municipality":{"key":"12069454","name":"Nuthetal","type":"Kreisangehörige_Gemeinde"},"district":{"key":"12069","name":"Potsdam-Mittelmark","type":"Landkreis"},"federalState":{"key":"12","name":"Brandenburg"}},{"name":"Liselotte-Herrmann-Str.","postalCode":"14558","locality":"Nuthetal","municipality":{"key":"12069454","name":"Nuthetal","type":"Kreisangehörige_Gemeinde"},"district":{"key":"12069","name":"Potsdam-Mittelmark","type":"Landkreis"},"federalState":{"key":"12","name":"Brandenburg"}},{"name":"Matthias-Claudius-Str.","postalCode":"14558","locality":"Nuthetal","municipality":{"key":"12069454","name":"Nuthetal","type":"Kreisangehörige_Gemeinde"},"district":{"key":"12069","name":"Potsdam-Mittelmark","type":"Landkreis"},"federalState":{"key":"12","name":"Brandenburg"}},{"name":"Milanring","postalCode":"14558","locality":"Nuthetal","municipality":{"key":"12069454","name":"Nuthetal","type":"Kreisangehörige_Gemeinde"},"district":{"key":"12069","name":"Potsdam-Mittelmark","type":"Landkreis"},"federalState":{"key":"12","name":"Brandenburg"}},{"name":"Mittelgasse","postalCode":"14558","locality":"Nuthetal","municipality":{"key":"12069454","name":"Nuthetal","type":"Kreisangehörige_Gemeinde"},"district":{"key":"12069","name":"Potsdam-Mittelmark","type":"Landkreis"},"federalState":{"key":"12","name":"Brandenburg"}},{"name":"Mörikestr.","postalCode":"14558","locality":"Nuthetal","municipality":{"key":"12069454","name":"Nuthetal","type":"Kreisangehörige_Gemeinde"},"district":{"key":"12069","name":"Potsdam-Mittelmark","type":"Landkreis"},"federalState":{"key":"12","name":"Brandenburg"}},{"name":"Mozartweg","postalCode":"14558","locality":"Nuthetal","municipality":{"key":"12069454","name":"Nuthetal","type":"Kreisangehörige_Gemeinde"},"district":{"key":"12069","name":"Potsdam-Mittelmark","type":"Landkreis"},"federalState":{"key":"12","name":"Brandenburg"}},{"name":"Mühlenstr.","postalCode":"14558","locality":"Nuthetal","municipality":{"key":"12069454","name":"Nuthetal","type":"Kreisangehörige_Gemeinde"},"district":{"key":"12069","name":"Potsdam-Mittelmark","type":"Landkreis"},"federalState":{"key":"12","name":"Brandenburg"}},{"name":"Nelkenweg","postalCode":"14558","locality":"Nuthetal","municipality":{"key":"12069454","name":"Nuthetal","type":"Kreisangehörige_Gemeinde"},"district":{"key":"12069","name":"Potsdam-Mittelmark","type":"Landkreis"},"federalState":{"key":"12","name":"Brandenburg"}},{"name":"Nudower Dorfstr.","postalCode":"14558","locality":"Nuthetal","municipality":{"key":"12069454","name":"Nuthetal","type":"Kreisangehörige_Gemeinde"},"district":{"key":"12069","name":"Potsdam-Mittelmark","type":"Landkreis"},"federalState":{"key":"12","name":"Brandenburg"}},{"name":"Nudower Grund","postalCode":"14558","locality":"Nuthetal","municipality":{"key":"12069454","name":"Nuthetal","type":"Kreisangehörige_Gemeinde"},"district":{"key":"12069","name":"Potsdam-Mittelmark","type":"Landkreis"},"federalState":{"key":"12","name":"Brandenburg"}},{"name":"Nuthestr.","postalCode":"14558","locality":"Nuthetal","municipality":{"key":"12069454","name":"Nuthetal","type":"Kreisangehörige_Gemeinde"},"district":{"key":"12069","name":"Potsdam-Mittelmark","type":"Landkreis"},"federalState":{"key":"12","name":"Brandenburg"}},{"name":"Nutheweg","postalCode":"14558","locality":"Nuthetal","municipality":{"key":"12069454","name":"Nuthetal","type":"Kreisangehörige_Gemeinde"},"district":{"key":"12069","name":"Potsdam-Mittelmark","type":"Landkreis"},"federalState":{"key":"12","name":"Brandenburg"}},{"name":"Papenwiese","postalCode":"14558","locality":"Nuthetal","municipality":{"key":"12069454","name":"Nuthetal","type":"Kreisangehörige_Gemeinde"},"district":{"key":"12069","name":"Potsdam-Mittelmark","type":"Landkreis"},"federalState":{"key":"12","name":"Brandenburg"}},{"name":"Pappelweg","postalCode":"14558","locality":"Nuthetal","municipality":{"key":"12069454","name":"Nuthetal","type":"Kreisangehörige_Gemeinde"},"district":{"key":"12069","name":"Potsdam-Mittelmark","type":"Landkreis"},"federalState":{"key":"12","name":"Brandenburg"}},{"name":"Pferdesteig","postalCode":"14558","locality":"Nuthetal","municipality":{"key":"12069454","name":"Nuthetal","type":"Kreisangehörige_Gemeinde"},"district":{"key":"12069","name":"Potsdam-Mittelmark","type":"Landkreis"},"federalState":{"key":"12","name":"Brandenburg"}},{"name":"Philippsthaler Dorfstr.","postalCode":"14558","locality":"Nuthetal","municipality":{"key":"12069454","name":"Nuthetal","type":"Kreisangehörige_Gemeinde"},"district":{"key":"12069","name":"Potsdam-Mittelmark","type":"Landkreis"},"federalState":{"key":"12","name":"Brandenburg"}},{"name":"Philippsthaler Weg","postalCode":"14558","locality":"Nuthetal","municipality":{"key":"12069454","name":"Nuthetal","type":"Kreisangehörige_Gemeinde"},"district":{"key":"12069","name":"Potsdam-Mittelmark","type":"Landkreis"},"federalState":{"key":"12","name":"Brandenburg"}},{"name":"Potsdamer Str.","postalCode":"14558","locality":"Nuthetal","municipality":{"key":"12069454","name":"Nuthetal","type":"Kreisangehörige_Gemeinde"},"district":{"key":"12069","name":"Potsdam-Mittelmark","type":"Landkreis"},"federalState":{"key":"12","name":"Brandenburg"}},{"name":"Ravensberggestell","postalCode":"14478","locality":"Nuthetal","municipality":{"key":"12069454","name":"Nuthetal","type":"Kreisangehörige_Gemeinde"},"district":{"key":"12069","name":"Potsdam-Mittelmark","type":"Landkreis"},"federalState":{"key":"12","name":"Brandenburg"}},{"name":"Ravensbergstr.","postalCode":"14558","locality":"Nuthetal","municipality":{"key":"12069454","name":"Nuthetal","type":"Kreisangehörige_Gemeinde"},"district":{"key":"12069","name":"Potsdam-Mittelmark","type":"Landkreis"},"federalState":{"key":"12","name":"Brandenburg"}},{"name":"Rehsprung","postalCode":"14558","locality":"Nuthetal","municipality":{"key":"12069454","name":"Nuthetal","type":"Kreisangehörige_Gemeinde"},"district":{"key":"12069","name":"Potsdam-Mittelmark","type":"Landkreis"},"federalState":{"key":"12","name":"Brandenburg"}},{"name":"Reiherweg","postalCode":"14558","locality":"Nuthetal","municipality":{"key":"12069454","name":"Nuthetal","type":"Kreisangehörige_Gemeinde"},"district":{"key":"12069","name":"Potsdam-Mittelmark","type":"Landkreis"},"federalState":{"key":"12","name":"Brandenburg"}},{"name":"Richard-Kuckuck-Str.","postalCode":"14558","locality":"Nuthetal","municipality":{"key":"12069454","name":"Nuthetal","type":"Kreisangehörige_Gemeinde"},"district":{"key":"12069","name":"Potsdam-Mittelmark","type":"Landkreis"},"federalState":{"key":"12","name":"Brandenburg"}},{"name":"Rosenweg","postalCode":"14558","locality":"Nuthetal","municipality":{"key":"12069454","name":"Nuthetal","type":"Kreisangehörige_Gemeinde"},"district":{"key":"12069","name":"Potsdam-Mittelmark","type":"Landkreis"},"federalState":{"key":"12","name":"Brandenburg"}},{"name":"Rotdornweg","postalCode":"14558","locality":"Nuthetal","municipality":{"key":"12069454","name":"Nuthetal","type":"Kreisangehörige_Gemeinde"},"district":{"key":"12069","name":"Potsdam-Mittelmark","type":"Landkreis"},"federalState":{"key":"12","name":"Brandenburg"}},{"name":"Saarmunder Weg","postalCode":"14558","locality":"Nuthetal","municipality":{"key":"12069454","name":"Nuthetal","type":"Kreisangehörige_Gemeinde"},"district":{"key":"12069","name":"Potsdam-Mittelmark","type":"Landkreis"},"federalState":{"key":"12","name":"Brandenburg"}},{"name":"Schanzenweg","postalCode":"14558","locality":"Nuthetal","municipality":{"key":"12069454","name":"Nuthetal","type":"Kreisangehörige_Gemeinde"},"district":{"key":"12069","name":"Potsdam-Mittelmark","type":"Landkreis"},"federalState":{"key":"12","name":"Brandenburg"}},{"name":"Schilfweg","postalCode":"14558","locality":"Nuthetal","municipality":{"key":"12069454","name":"Nuthetal","type":"Kreisangehörige_Gemeinde"},"district":{"key":"12069","name":"Potsdam-Mittelmark","type":"Landkreis"},"federalState":{"key":"12","name":"Brandenburg"}},{"name":"Schinkelstr.","postalCode":"14558","locality":"Nuthetal","municipality":{"key":"12069454","name":"Nuthetal","type":"Kreisangehörige_Gemeinde"},"district":{"key":"12069","name":"Potsdam-Mittelmark","type":"Landkreis"},"federalState":{"key":"12","name":"Brandenburg"}},{"name":"Schlüterstr.","postalCode":"14558","locality":"Nuthetal","municipality":{"key":"12069454","name":"Nuthetal","type":"Kreisangehörige_Gemeinde"},"district":{"key":"12069","name":"Potsdam-Mittelmark","type":"Landkreis"},"federalState":{"key":"12","name":"Brandenburg"}},{"name":"Schubertstr.","postalCode":"14558","locality":"Nuthetal","municipality":{"key":"12069454","name":"Nuthetal","type":"Kreisangehörige_Gemeinde"},"district":{"key":"12069","name":"Potsdam-Mittelmark","type":"Landkreis"},"federalState":{"key":"12","name":"Brandenburg"}},{"name":"Schumannstr.","postalCode":"14558","locality":"Nuthetal","municipality":{"key":"12069454","name":"Nuthetal","type":"Kreisangehörige_Gemeinde"},"district":{"key":"12069","name":"Potsdam-Mittelmark","type":"Landkreis"},"federalState":{"key":"12","name":"Brandenburg"}},{"name":"Siedlerstr.","postalCode":"14558","locality":"Nuthetal","municipality":{"key":"12069454","name":"Nuthetal","type":"Kreisangehörige_Gemeinde"},"district":{"key":"12069","name":"Potsdam-Mittelmark","type":"Landkreis"},"federalState":{"key":"12","name":"Brandenburg"}},{"name":"Sonnenweg","postalCode":"14558","locality":"Nuthetal","municipality":{"key":"12069454","name":"Nuthetal","type":"Kreisangehörige_Gemeinde"},"district":{"key":"12069","name":"Potsdam-Mittelmark","type":"Landkreis"},"federalState":{"key":"12","name":"Brandenburg"}},{"name":"Sperberweg","postalCode":"14558","locality":"Nuthetal","municipality":{"key":"12069454","name":"Nuthetal","type":"Kreisangehörige_Gemeinde"},"district":{"key":"12069","name":"Potsdam-Mittelmark","type":"Landkreis"},"federalState":{"key":"12","name":"Brandenburg"}},{"name":"Sportplatz","postalCode":"14558","locality":"Nuthetal","municipality":{"key":"12069454","name":"Nuthetal","type":"Kreisangehörige_Gemeinde"},"district":{"key":"12069","name":"Potsdam-Mittelmark","type":"Landkreis"},"federalState":{"key":"12","name":"Brandenburg"}},{"name":"Stückener Weg","postalCode":"14558","locality":"Nuthetal","municipality":{"key":"12069454","name":"Nuthetal","type":"Kreisangehörige_Gemeinde"},"district":{"key":"12069","name":"Potsdam-Mittelmark","type":"Landkreis"},"federalState":{"key":"12","name":"Brandenburg"}},{"name":"Teufelsklause","postalCode":"14558","locality":"Nuthetal","municipality":{"key":"12069454","name":"Nuthetal","type":"Kreisangehörige_Gemeinde"},"district":{"key":"12069","name":"Potsdam-Mittelmark","type":"Landkreis"},"federalState":{"key":"12","name":"Brandenburg"}},{"name":"Teufelsseeweg","postalCode":"14478","locality":"Nuthetal","municipality":{"key":"12069454","name":"Nuthetal","type":"Kreisangehörige_Gemeinde"},"district":{"key":"12069","name":"Potsdam-Mittelmark","type":"Landkreis"},"federalState":{"key":"12","name":"Brandenburg"}},{"name":"Teufelsseeweg","postalCode":"14558","locality":"Nuthetal","municipality":{"key":"12069454","name":"Nuthetal","type":"Kreisangehörige_Gemeinde"},"district":{"key":"12069","name":"Potsdam-Mittelmark","type":"Landkreis"},"federalState":{"key":"12","name":"Brandenburg"}},{"name":"Thomas-Mann-Str.","postalCode":"14558","locality":"Nuthetal","municipality":{"key":"12069454","name":"Nuthetal","type":"Kreisangehörige_Gemeinde"},"district":{"key":"12069","name":"Potsdam-Mittelmark","type":"Landkreis"},"federalState":{"key":"12","name":"Brandenburg"}},{"name":"Tremsdorfer Dorfstr.","postalCode":"14558","locality":"Nuthetal","municipality":{"key":"12069454","name":"Nuthetal","type":"Kreisangehörige_Gemeinde"},"district":{"key":"12069","name":"Potsdam-Mittelmark","type":"Landkreis"},"federalState":{"key":"12","name":"Brandenburg"}},{"name":"Tremsdorfer Weg","postalCode":"14558","locality":"Nuthetal","municipality":{"key":"12069454","name":"Nuthetal","type":"Kreisangehörige_Gemeinde"},"district":{"key":"12069","name":"Potsdam-Mittelmark","type":"Landkreis"},"federalState":{"key":"12","name":"Brandenburg"}},{"name":"Tulpenweg","postalCode":"14558","locality":"Nuthetal","municipality":{"key":"12069454","name":"Nuthetal","type":"Kreisangehörige_Gemeinde"},"district":{"key":"12069","name":"Potsdam-Mittelmark","type":"Landkreis"},"federalState":{"key":"12","name":"Brandenburg"}},{"name":"Ulmensteig","postalCode":"14558","locality":"Nuthetal","municipality":{"key":"12069454","name":"Nuthetal","type":"Kreisangehörige_Gemeinde"},"district":{"key":"12069","name":"Potsdam-Mittelmark","type":"Landkreis"},"federalState":{"key":"12","name":"Brandenburg"}},{"name":"Unter den Linden","postalCode":"14558","locality":"Nuthetal","municipality":{"key":"12069454","name":"Nuthetal","type":"Kreisangehörige_Gemeinde"},"district":{"key":"12069","name":"Potsdam-Mittelmark","type":"Landkreis"},"federalState":{"key":"12","name":"Brandenburg"}},{"name":"Verdistr.","postalCode":"14558","locality":"Nuthetal","municipality":{"key":"12069454","name":"Nuthetal","type":"Kreisangehörige_Gemeinde"},"district":{"key":"12069","name":"Potsdam-Mittelmark","type":"Landkreis"},"federalState":{"key":"12","name":"Brandenburg"}},{"name":"Waldkolonie","postalCode":"14558","locality":"Nuthetal","municipality":{"key":"12069454","name":"Nuthetal","type":"Kreisangehörige_Gemeinde"},"district":{"key":"12069","name":"Potsdam-Mittelmark","type":"Landkreis"},"federalState":{"key":"12","name":"Brandenburg"}},{"name":"Walther-Rathenau-Str.","postalCode":"14558","locality":"Nuthetal","municipality":{"key":"12069454","name":"Nuthetal","type":"Kreisangehörige_Gemeinde"},"district":{"key":"12069","name":"Potsdam-Mittelmark","type":"Landkreis"},"federalState":{"key":"12","name":"Brandenburg"}},{"name":"Weerthstr.","postalCode":"14558","locality":"Nuthetal","municipality":{"key":"12069454","name":"Nuthetal","type":"Kreisangehörige_Gemeinde"},"district":{"key":"12069","name":"Potsdam-Mittelmark","type":"Landkreis"},"federalState":{"key":"12","name":"Brandenburg"}},{"name":"Weidengrund","postalCode":"14558","locality":"Nuthetal","municipality":{"key":"12069454","name":"Nuthetal","type":"Kreisangehörige_Gemeinde"},"district":{"key":"12069","name":"Potsdam-Mittelmark","type":"Landkreis"},"federalState":{"key":"12","name":"Brandenburg"}},{"name":"Weinbergstr.","postalCode":"14558","locality":"Nuthetal","municipality":{"key":"12069454","name":"Nuthetal","type":"Kreisangehörige_Gemeinde"},"district":{"key":"12069","name":"Potsdam-Mittelmark","type":"Landkreis"},"federalState":{"key":"12","name":"Brandenburg"}},{"name":"Wieselsteig","postalCode":"14558","locality":"Nuthetal","municipality":{"key":"12069454","name":"Nuthetal","type":"Kreisangehörige_Gemeinde"},"district":{"key":"12069","name":"Potsdam-Mittelmark","type":"Landkreis"},"federalState":{"key":"12","name":"Brandenburg"}},{"name":"Wilhelm-Busch-Str.","postalCode":"14558","locality":"Nuthetal","municipality":{"key":"12069454","name":"Nuthetal","type":"Kreisangehörige_Gemeinde"},"district":{"key":"12069","name":"Potsdam-Mittelmark","type":"Landkreis"},"federalState":{"key":"12","name":"Brandenburg"}},{"name":"Zum Elsbruch","postalCode":"14558","locality":"Nuthetal","municipality":{"key":"12069454","name":"Nuthetal","type":"Kreisangehörige_Gemeinde"},"district":{"key":"12069","name":"Potsdam-Mittelmark","type":"Landkreis"},"federalState":{"key":"12","name":"Brandenburg"}},{"name":"Zum Mittelbusch","postalCode":"14558","locality":"Nuthetal","municipality":{"key":"12069454","name":"Nuthetal","type":"Kreisangehörige_Gemeinde"},"district":{"key":"12069","name":"Potsdam-Mittelmark","type":"Landkreis"},"federalState":{"key":"12","name":"Brandenburg"}},{"name":"Zum Priesterberg","postalCode":"14558","locality":"Nuthetal","municipality":{"key":"12069454","name":"Nuthetal","type":"Kreisangehörige_Gemeinde"},"district":{"key":"12069","name":"Potsdam-Mittelmark","type":"Landkreis"},"federalState":{"key":"12","name":"Brandenburg"}},{"name":"Zum Sportplatz","postalCode":"14558","locality":"Nuthetal","municipality":{"key":"12069454","name":"Nuthetal","type":"Kreisangehörige_Gemeinde"},"district":{"key":"12069","name":"Potsdam-Mittelmark","type":"Landkreis"},"federalState":{"key":"12","name":"Brandenburg"}},{"name":"Zum Springbruch","postalCode":"14558","locality":"Nuthetal","municipality":{"key":"12069454","name":"Nuthetal","type":"Kreisangehörige_Gemeinde"},"district":{"key":"12069","name":"Potsdam-Mittelmark","type":"Landkreis"},"federalState":{"key":"12","name":"Brandenburg"}},{"name":"Zur Agro","postalCode":"14558","locality":"Nuthetal","municipality":{"key":"12069454","name":"Nuthetal","type":"Kreisangehörige_Gemeinde"},"district":{"key":"12069","name":"Potsdam-Mittelmark","type":"Landkreis"},"federalState":{"key":"12","name":"Brandenburg"}},]