[{"name":"Am Bühl","postalCode":"78598","locality":"Königsheim","municipality":{"key":"08327029","name":"Königsheim","type":"Kreisangehörige_Gemeinde"},"district":{"key":"08327","name":"Tuttlingen","type":"Landkreis"},"federalState":{"key":"08","name":"Baden-Württemberg"}},{"name":"Am Scheibenbühl","postalCode":"78598","locality":"Königsheim","municipality":{"key":"08327029","name":"Königsheim","type":"Kreisangehörige_Gemeinde"},"district":{"key":"08327","name":"Tuttlingen","type":"Landkreis"},"federalState":{"key":"08","name":"Baden-Württemberg"}},{"name":"Blumenstr.","postalCode":"78598","locality":"Königsheim","municipality":{"key":"08327029","name":"Königsheim","type":"Kreisangehörige_Gemeinde"},"district":{"key":"08327","name":"Tuttlingen","type":"Landkreis"},"federalState":{"key":"08","name":"Baden-Württemberg"}},{"name":"Böttinger Str.","postalCode":"78598","locality":"Königsheim","municipality":{"key":"08327029","name":"Königsheim","type":"Kreisangehörige_Gemeinde"},"district":{"key":"08327","name":"Tuttlingen","type":"Landkreis"},"federalState":{"key":"08","name":"Baden-Württemberg"}},{"name":"Breite","postalCode":"78598","locality":"Königsheim","municipality":{"key":"08327029","name":"Königsheim","type":"Kreisangehörige_Gemeinde"},"district":{"key":"08327","name":"Tuttlingen","type":"Landkreis"},"federalState":{"key":"08","name":"Baden-Württemberg"}},{"name":"Breitestr.","postalCode":"78598","locality":"Königsheim","municipality":{"key":"08327029","name":"Königsheim","type":"Kreisangehörige_Gemeinde"},"district":{"key":"08327","name":"Tuttlingen","type":"Landkreis"},"federalState":{"key":"08","name":"Baden-Württemberg"}},{"name":"Brunnengasse","postalCode":"78598","locality":"Königsheim","municipality":{"key":"08327029","name":"Königsheim","type":"Kreisangehörige_Gemeinde"},"district":{"key":"08327","name":"Tuttlingen","type":"Landkreis"},"federalState":{"key":"08","name":"Baden-Württemberg"}},{"name":"Brunnhaldenweg","postalCode":"78598","locality":"Königsheim","municipality":{"key":"08327029","name":"Königsheim","type":"Kreisangehörige_Gemeinde"},"district":{"key":"08327","name":"Tuttlingen","type":"Landkreis"},"federalState":{"key":"08","name":"Baden-Württemberg"}},{"name":"Bubsheimer Str.","postalCode":"78598","locality":"Königsheim","municipality":{"key":"08327029","name":"Königsheim","type":"Kreisangehörige_Gemeinde"},"district":{"key":"08327","name":"Tuttlingen","type":"Landkreis"},"federalState":{"key":"08","name":"Baden-Württemberg"}},{"name":"Carl-Benz-Str.","postalCode":"78532","locality":"Tuttlingen","municipality":{"key":"08327050","name":"Tuttlingen, Stadt","type":"Große_Kreisstadt"},"district":{"key":"08327","name":"Tuttlingen","type":"Landkreis"},"federalState":{"key":"08","name":"Baden-Württemberg"}},{"name":"Carl-Zeiss-Str.","postalCode":"78532","locality":"Tuttlingen","municipality":{"key":"08327050","name":"Tuttlingen, Stadt","type":"Große_Kreisstadt"},"district":{"key":"08327","name":"Tuttlingen","type":"Landkreis"},"federalState":{"key":"08","name":"Baden-Württemberg"}},{"name":"Charlottenstr.","postalCode":"78532","locality":"Tuttlingen","municipality":{"key":"08327050","name":"Tuttlingen, Stadt","type":"Große_Kreisstadt"},"district":{"key":"08327","name":"Tuttlingen","type":"Landkreis"},"federalState":{"key":"08","name":"Baden-Württemberg"}},{"name":"Christian-Scheerer-Str.","postalCode":"78532","locality":"Tuttlingen","municipality":{"key":"08327050","name":"Tuttlingen, Stadt","type":"Große_Kreisstadt"},"district":{"key":"08327","name":"Tuttlingen","type":"Landkreis"},"federalState":{"key":"08","name":"Baden-Württemberg"}},{"name":"Christophstr.","postalCode":"78532","locality":"Tuttlingen","municipality":{"key":"08327050","name":"Tuttlingen, Stadt","type":"Große_Kreisstadt"},"district":{"key":"08327","name":"Tuttlingen","type":"Landkreis"},"federalState":{"key":"08","name":"Baden-Württemberg"}},{"name":"Dachsweg","postalCode":"78532","locality":"Tuttlingen","municipality":{"key":"08327050","name":"Tuttlingen, Stadt","type":"Große_Kreisstadt"},"district":{"key":"08327","name":"Tuttlingen","type":"Landkreis"},"federalState":{"key":"08","name":"Baden-Württemberg"}},{"name":"Daimlerstr.","postalCode":"78532","locality":"Tuttlingen","municipality":{"key":"08327050","name":"Tuttlingen, Stadt","type":"Große_Kreisstadt"},"district":{"key":"08327","name":"Tuttlingen","type":"Landkreis"},"federalState":{"key":"08","name":"Baden-Württemberg"}},{"name":"Dammstr.","postalCode":"78532","locality":"Tuttlingen","municipality":{"key":"08327050","name":"Tuttlingen, Stadt","type":"Große_Kreisstadt"},"district":{"key":"08327","name":"Tuttlingen","type":"Landkreis"},"federalState":{"key":"08","name":"Baden-Württemberg"}},{"name":"Danziger Str.","postalCode":"78532","locality":"Tuttlingen","municipality":{"key":"08327050","name":"Tuttlingen, Stadt","type":"Große_Kreisstadt"},"district":{"key":"08327","name":"Tuttlingen","type":"Landkreis"},"federalState":{"key":"08","name":"Baden-Württemberg"}},{"name":"D'Groß Bruck","postalCode":"78532","locality":"Tuttlingen","municipality":{"key":"08327050","name":"Tuttlingen, Stadt","type":"Große_Kreisstadt"},"district":{"key":"08327","name":"Tuttlingen","type":"Landkreis"},"federalState":{"key":"08","name":"Baden-Württemberg"}},{"name":"Dietrich-Bonhoeffer-Str.","postalCode":"78532","locality":"Tuttlingen","municipality":{"key":"08327050","name":"Tuttlingen, Stadt","type":"Große_Kreisstadt"},"district":{"key":"08327","name":"Tuttlingen","type":"Landkreis"},"federalState":{"key":"08","name":"Baden-Württemberg"}},{"name":"Dietweg","postalCode":"78532","locality":"Tuttlingen","municipality":{"key":"08327050","name":"Tuttlingen, Stadt","type":"Große_Kreisstadt"},"district":{"key":"08327","name":"Tuttlingen","type":"Landkreis"},"federalState":{"key":"08","name":"Baden-Württemberg"}},{"name":"Donaubrücke","postalCode":"78532","locality":"Tuttlingen","municipality":{"key":"08327050","name":"Tuttlingen, Stadt","type":"Große_Kreisstadt"},"district":{"key":"08327","name":"Tuttlingen","type":"Landkreis"},"federalState":{"key":"08","name":"Baden-Württemberg"}},{"name":"Donaueschinger Str.","postalCode":"78532","locality":"Tuttlingen","municipality":{"key":"08327050","name":"Tuttlingen, Stadt","type":"Große_Kreisstadt"},"district":{"key":"08327","name":"Tuttlingen","type":"Landkreis"},"federalState":{"key":"08","name":"Baden-Württemberg"}},{"name":"Donaukiesweg","postalCode":"78532","locality":"Tuttlingen","municipality":{"key":"08327050","name":"Tuttlingen, Stadt","type":"Große_Kreisstadt"},"district":{"key":"08327","name":"Tuttlingen","type":"Landkreis"},"federalState":{"key":"08","name":"Baden-Württemberg"}},{"name":"Donaustr.","postalCode":"78532","locality":"Tuttlingen","municipality":{"key":"08327050","name":"Tuttlingen, Stadt","type":"Große_Kreisstadt"},"district":{"key":"08327","name":"Tuttlingen","type":"Landkreis"},"federalState":{"key":"08","name":"Baden-Württemberg"}},{"name":"Donautalstr.","postalCode":"78532","locality":"Tuttlingen","municipality":{"key":"08327050","name":"Tuttlingen, Stadt","type":"Große_Kreisstadt"},"district":{"key":"08327","name":"Tuttlingen","type":"Landkreis"},"federalState":{"key":"08","name":"Baden-Württemberg"}},{"name":"Dorchentöbeleweg","postalCode":"78532","locality":"Tuttlingen","municipality":{"key":"08327050","name":"Tuttlingen, Stadt","type":"Große_Kreisstadt"},"district":{"key":"08327","name":"Tuttlingen","type":"Landkreis"},"federalState":{"key":"08","name":"Baden-Württemberg"}},{"name":"Dornerweg","postalCode":"78532","locality":"Tuttlingen","municipality":{"key":"08327050","name":"Tuttlingen, Stadt","type":"Große_Kreisstadt"},"district":{"key":"08327","name":"Tuttlingen","type":"Landkreis"},"federalState":{"key":"08","name":"Baden-Württemberg"}},{"name":"Dornierstr.","postalCode":"78532","locality":"Tuttlingen","municipality":{"key":"08327050","name":"Tuttlingen, Stadt","type":"Große_Kreisstadt"},"district":{"key":"08327","name":"Tuttlingen","type":"Landkreis"},"federalState":{"key":"08","name":"Baden-Württemberg"}},{"name":"Dornröschenweg","postalCode":"78532","locality":"Tuttlingen","municipality":{"key":"08327050","name":"Tuttlingen, Stadt","type":"Große_Kreisstadt"},"district":{"key":"08327","name":"Tuttlingen","type":"Landkreis"},"federalState":{"key":"08","name":"Baden-Württemberg"}},{"name":"Dresdner Str.","postalCode":"78532","locality":"Tuttlingen","municipality":{"key":"08327050","name":"Tuttlingen, Stadt","type":"Große_Kreisstadt"},"district":{"key":"08327","name":"Tuttlingen","type":"Landkreis"},"federalState":{"key":"08","name":"Baden-Württemberg"}},{"name":"Dr. Karl-Storz-Platz","postalCode":"78532","locality":"Tuttlingen","municipality":{"key":"08327050","name":"Tuttlingen, Stadt","type":"Große_Kreisstadt"},"district":{"key":"08327","name":"Tuttlingen","type":"Landkreis"},"federalState":{"key":"08","name":"Baden-Württemberg"}},{"name":"Dr. Karl-Storz-Str.","postalCode":"78532","locality":"Tuttlingen","municipality":{"key":"08327050","name":"Tuttlingen, Stadt","type":"Große_Kreisstadt"},"district":{"key":"08327","name":"Tuttlingen","type":"Landkreis"},"federalState":{"key":"08","name":"Baden-Württemberg"}},{"name":"Duttentalstr.","postalCode":"78532","locality":"Tuttlingen","municipality":{"key":"08327050","name":"Tuttlingen, Stadt","type":"Große_Kreisstadt"},"district":{"key":"08327","name":"Tuttlingen","type":"Landkreis"},"federalState":{"key":"08","name":"Baden-Württemberg"}},{"name":"Duttentalweg","postalCode":"78532","locality":"Tuttlingen","municipality":{"key":"08327050","name":"Tuttlingen, Stadt","type":"Große_Kreisstadt"},"district":{"key":"08327","name":"Tuttlingen","type":"Landkreis"},"federalState":{"key":"08","name":"Baden-Württemberg"}},{"name":"Egesheimer Str.","postalCode":"78598","locality":"Königsheim","municipality":{"key":"08327029","name":"Königsheim","type":"Kreisangehörige_Gemeinde"},"district":{"key":"08327","name":"Tuttlingen","type":"Landkreis"},"federalState":{"key":"08","name":"Baden-Württemberg"}},{"name":"Eichenstr.","postalCode":"78598","locality":"Königsheim","municipality":{"key":"08327029","name":"Königsheim","type":"Kreisangehörige_Gemeinde"},"district":{"key":"08327","name":"Tuttlingen","type":"Landkreis"},"federalState":{"key":"08","name":"Baden-Württemberg"}},{"name":"Falkenstr.","postalCode":"78532","locality":"Tuttlingen","municipality":{"key":"08327050","name":"Tuttlingen, Stadt","type":"Große_Kreisstadt"},"district":{"key":"08327","name":"Tuttlingen","type":"Landkreis"},"federalState":{"key":"08","name":"Baden-Württemberg"}},{"name":"Faulenbachstr.","postalCode":"78532","locality":"Tuttlingen","municipality":{"key":"08327050","name":"Tuttlingen, Stadt","type":"Große_Kreisstadt"},"district":{"key":"08327","name":"Tuttlingen","type":"Landkreis"},"federalState":{"key":"08","name":"Baden-Württemberg"}},{"name":"Feldbergstr.","postalCode":"78532","locality":"Tuttlingen","municipality":{"key":"08327050","name":"Tuttlingen, Stadt","type":"Große_Kreisstadt"},"district":{"key":"08327","name":"Tuttlingen","type":"Landkreis"},"federalState":{"key":"08","name":"Baden-Württemberg"}},{"name":"Feuerbachweg","postalCode":"78532","locality":"Tuttlingen","municipality":{"key":"08327050","name":"Tuttlingen, Stadt","type":"Große_Kreisstadt"},"district":{"key":"08327","name":"Tuttlingen","type":"Landkreis"},"federalState":{"key":"08","name":"Baden-Württemberg"}},{"name":"Fichtenweg","postalCode":"78532","locality":"Tuttlingen","municipality":{"key":"08327050","name":"Tuttlingen, Stadt","type":"Große_Kreisstadt"},"district":{"key":"08327","name":"Tuttlingen","type":"Landkreis"},"federalState":{"key":"08","name":"Baden-Württemberg"}},{"name":"Finkenstr.","postalCode":"78532","locality":"Tuttlingen","municipality":{"key":"08327050","name":"Tuttlingen, Stadt","type":"Große_Kreisstadt"},"district":{"key":"08327","name":"Tuttlingen","type":"Landkreis"},"federalState":{"key":"08","name":"Baden-Württemberg"}},{"name":"Flachsweg","postalCode":"78532","locality":"Tuttlingen","municipality":{"key":"08327050","name":"Tuttlingen, Stadt","type":"Große_Kreisstadt"},"district":{"key":"08327","name":"Tuttlingen","type":"Landkreis"},"federalState":{"key":"08","name":"Baden-Württemberg"}},{"name":"Fliederweg","postalCode":"78532","locality":"Tuttlingen","municipality":{"key":"08327050","name":"Tuttlingen, Stadt","type":"Große_Kreisstadt"},"district":{"key":"08327","name":"Tuttlingen","type":"Landkreis"},"federalState":{"key":"08","name":"Baden-Württemberg"}},{"name":"Flurstr.","postalCode":"78532","locality":"Tuttlingen","municipality":{"key":"08327050","name":"Tuttlingen, Stadt","type":"Große_Kreisstadt"},"district":{"key":"08327","name":"Tuttlingen","type":"Landkreis"},"federalState":{"key":"08","name":"Baden-Württemberg"}},{"name":"Föhrenstr.","postalCode":"78532","locality":"Tuttlingen","municipality":{"key":"08327050","name":"Tuttlingen, Stadt","type":"Große_Kreisstadt"},"district":{"key":"08327","name":"Tuttlingen","type":"Landkreis"},"federalState":{"key":"08","name":"Baden-Württemberg"}},{"name":"Forststr.","postalCode":"78532","locality":"Tuttlingen","municipality":{"key":"08327050","name":"Tuttlingen, Stadt","type":"Große_Kreisstadt"},"district":{"key":"08327","name":"Tuttlingen","type":"Landkreis"},"federalState":{"key":"08","name":"Baden-Württemberg"}},{"name":"Freiburgstr.","postalCode":"78532","locality":"Tuttlingen","municipality":{"key":"08327050","name":"Tuttlingen, Stadt","type":"Große_Kreisstadt"},"district":{"key":"08327","name":"Tuttlingen","type":"Landkreis"},"federalState":{"key":"08","name":"Baden-Württemberg"}},{"name":"Friedrichstr.","postalCode":"78532","locality":"Tuttlingen","municipality":{"key":"08327050","name":"Tuttlingen, Stadt","type":"Große_Kreisstadt"},"district":{"key":"08327","name":"Tuttlingen","type":"Landkreis"},"federalState":{"key":"08","name":"Baden-Württemberg"}},{"name":"Fronhofstr.","postalCode":"78532","locality":"Tuttlingen","municipality":{"key":"08327050","name":"Tuttlingen, Stadt","type":"Große_Kreisstadt"},"district":{"key":"08327","name":"Tuttlingen","type":"Landkreis"},"federalState":{"key":"08","name":"Baden-Württemberg"}},{"name":"Froschkönigweg","postalCode":"78532","locality":"Tuttlingen","municipality":{"key":"08327050","name":"Tuttlingen, Stadt","type":"Große_Kreisstadt"},"district":{"key":"08327","name":"Tuttlingen","type":"Landkreis"},"federalState":{"key":"08","name":"Baden-Württemberg"}},{"name":"Fuchslochstr.","postalCode":"78532","locality":"Tuttlingen","municipality":{"key":"08327050","name":"Tuttlingen, Stadt","type":"Große_Kreisstadt"},"district":{"key":"08327","name":"Tuttlingen","type":"Landkreis"},"federalState":{"key":"08","name":"Baden-Württemberg"}},{"name":"Fuchsweg","postalCode":"78532","locality":"Tuttlingen","municipality":{"key":"08327050","name":"Tuttlingen, Stadt","type":"Große_Kreisstadt"},"district":{"key":"08327","name":"Tuttlingen","type":"Landkreis"},"federalState":{"key":"08","name":"Baden-Württemberg"}},{"name":"Fünftälerweg","postalCode":"78532","locality":"Tuttlingen","municipality":{"key":"08327050","name":"Tuttlingen, Stadt","type":"Große_Kreisstadt"},"district":{"key":"08327","name":"Tuttlingen","type":"Landkreis"},"federalState":{"key":"08","name":"Baden-Württemberg"}},{"name":"Fürstensteinweg","postalCode":"78532","locality":"Tuttlingen","municipality":{"key":"08327050","name":"Tuttlingen, Stadt","type":"Große_Kreisstadt"},"district":{"key":"08327","name":"Tuttlingen","type":"Landkreis"},"federalState":{"key":"08","name":"Baden-Württemberg"}},{"name":"Gartenstr.","postalCode":"78598","locality":"Königsheim","municipality":{"key":"08327029","name":"Königsheim","type":"Kreisangehörige_Gemeinde"},"district":{"key":"08327","name":"Tuttlingen","type":"Landkreis"},"federalState":{"key":"08","name":"Baden-Württemberg"}},{"name":"Greuthweg","postalCode":"78598","locality":"Königsheim","municipality":{"key":"08327029","name":"Königsheim","type":"Kreisangehörige_Gemeinde"},"district":{"key":"08327","name":"Tuttlingen","type":"Landkreis"},"federalState":{"key":"08","name":"Baden-Württemberg"}},{"name":"Hauptstr.","postalCode":"78598","locality":"Königsheim","municipality":{"key":"08327029","name":"Königsheim","type":"Kreisangehörige_Gemeinde"},"district":{"key":"08327","name":"Tuttlingen","type":"Landkreis"},"federalState":{"key":"08","name":"Baden-Württemberg"}},{"name":"Im Gässle","postalCode":"78598","locality":"Königsheim","municipality":{"key":"08327029","name":"Königsheim","type":"Kreisangehörige_Gemeinde"},"district":{"key":"08327","name":"Tuttlingen","type":"Landkreis"},"federalState":{"key":"08","name":"Baden-Württemberg"}},{"name":"Jägerbuchenweg","postalCode":"78532","locality":"Tuttlingen","municipality":{"key":"08327050","name":"Tuttlingen, Stadt","type":"Große_Kreisstadt"},"district":{"key":"08327","name":"Tuttlingen","type":"Landkreis"},"federalState":{"key":"08","name":"Baden-Württemberg"}},{"name":"Jägerhofstr.","postalCode":"78532","locality":"Tuttlingen","municipality":{"key":"08327050","name":"Tuttlingen, Stadt","type":"Große_Kreisstadt"},"district":{"key":"08327","name":"Tuttlingen","type":"Landkreis"},"federalState":{"key":"08","name":"Baden-Württemberg"}},{"name":"Jägerstr.","postalCode":"78532","locality":"Tuttlingen","municipality":{"key":"08327050","name":"Tuttlingen, Stadt","type":"Große_Kreisstadt"},"district":{"key":"08327","name":"Tuttlingen","type":"Landkreis"},"federalState":{"key":"08","name":"Baden-Württemberg"}},{"name":"Jahnstr.","postalCode":"78532","locality":"Tuttlingen","municipality":{"key":"08327050","name":"Tuttlingen, Stadt","type":"Große_Kreisstadt"},"district":{"key":"08327","name":"Tuttlingen","type":"Landkreis"},"federalState":{"key":"08","name":"Baden-Württemberg"}},{"name":"Jakobstr.","postalCode":"78532","locality":"Tuttlingen","municipality":{"key":"08327050","name":"Tuttlingen, Stadt","type":"Große_Kreisstadt"},"district":{"key":"08327","name":"Tuttlingen","type":"Landkreis"},"federalState":{"key":"08","name":"Baden-Württemberg"}},{"name":"Jetterstr.","postalCode":"78532","locality":"Tuttlingen","municipality":{"key":"08327050","name":"Tuttlingen, Stadt","type":"Große_Kreisstadt"},"district":{"key":"08327","name":"Tuttlingen","type":"Landkreis"},"federalState":{"key":"08","name":"Baden-Württemberg"}},{"name":"Johann-Sebastian-Bach-Str.","postalCode":"78532","locality":"Tuttlingen","municipality":{"key":"08327050","name":"Tuttlingen, Stadt","type":"Große_Kreisstadt"},"district":{"key":"08327","name":"Tuttlingen","type":"Landkreis"},"federalState":{"key":"08","name":"Baden-Württemberg"}},{"name":"Joseph-Haas-Weg","postalCode":"78532","locality":"Tuttlingen","municipality":{"key":"08327050","name":"Tuttlingen, Stadt","type":"Große_Kreisstadt"},"district":{"key":"08327","name":"Tuttlingen","type":"Landkreis"},"federalState":{"key":"08","name":"Baden-Württemberg"}},{"name":"Joseph-Haydn-Weg","postalCode":"78532","locality":"Tuttlingen","municipality":{"key":"08327050","name":"Tuttlingen, Stadt","type":"Große_Kreisstadt"},"district":{"key":"08327","name":"Tuttlingen","type":"Landkreis"},"federalState":{"key":"08","name":"Baden-Württemberg"}},{"name":"Julius-Fröhlich-Platz","postalCode":"78532","locality":"Tuttlingen","municipality":{"key":"08327050","name":"Tuttlingen, Stadt","type":"Große_Kreisstadt"},"district":{"key":"08327","name":"Tuttlingen","type":"Landkreis"},"federalState":{"key":"08","name":"Baden-Württemberg"}},{"name":"Junkersstr.","postalCode":"78532","locality":"Tuttlingen","municipality":{"key":"08327050","name":"Tuttlingen, Stadt","type":"Große_Kreisstadt"},"district":{"key":"08327","name":"Tuttlingen","type":"Landkreis"},"federalState":{"key":"08","name":"Baden-Württemberg"}},{"name":"Kapellenstr.","postalCode":"78598","locality":"Königsheim","municipality":{"key":"08327029","name":"Königsheim","type":"Kreisangehörige_Gemeinde"},"district":{"key":"08327","name":"Tuttlingen","type":"Landkreis"},"federalState":{"key":"08","name":"Baden-Württemberg"}},{"name":"Kirchgasse","postalCode":"78598","locality":"Königsheim","municipality":{"key":"08327029","name":"Königsheim","type":"Kreisangehörige_Gemeinde"},"district":{"key":"08327","name":"Tuttlingen","type":"Landkreis"},"federalState":{"key":"08","name":"Baden-Württemberg"}},{"name":"Kirschbaumäcker","postalCode":"78598","locality":"Königsheim","municipality":{"key":"08327029","name":"Königsheim","type":"Kreisangehörige_Gemeinde"},"district":{"key":"08327","name":"Tuttlingen","type":"Landkreis"},"federalState":{"key":"08","name":"Baden-Württemberg"}},{"name":"Lindenstr.","postalCode":"78598","locality":"Königsheim","municipality":{"key":"08327029","name":"Königsheim","type":"Kreisangehörige_Gemeinde"},"district":{"key":"08327","name":"Tuttlingen","type":"Landkreis"},"federalState":{"key":"08","name":"Baden-Württemberg"}},{"name":"Lindenwiesen","postalCode":"78598","locality":"Königsheim","municipality":{"key":"08327029","name":"Königsheim","type":"Kreisangehörige_Gemeinde"},"district":{"key":"08327","name":"Tuttlingen","type":"Landkreis"},"federalState":{"key":"08","name":"Baden-Württemberg"}},{"name":"Maienweg","postalCode":"78532","locality":"Tuttlingen","municipality":{"key":"08327050","name":"Tuttlingen, Stadt","type":"Große_Kreisstadt"},"district":{"key":"08327","name":"Tuttlingen","type":"Landkreis"},"federalState":{"key":"08","name":"Baden-Württemberg"}},{"name":"Malatzäcker","postalCode":"78532","locality":"Tuttlingen","municipality":{"key":"08327050","name":"Tuttlingen, Stadt","type":"Große_Kreisstadt"},"district":{"key":"08327","name":"Tuttlingen","type":"Landkreis"},"federalState":{"key":"08","name":"Baden-Württemberg"}},{"name":"Marderweg","postalCode":"78532","locality":"Tuttlingen","municipality":{"key":"08327050","name":"Tuttlingen, Stadt","type":"Große_Kreisstadt"},"district":{"key":"08327","name":"Tuttlingen","type":"Landkreis"},"federalState":{"key":"08","name":"Baden-Württemberg"}},{"name":"Marienburgstr.","postalCode":"78532","locality":"Tuttlingen","municipality":{"key":"08327050","name":"Tuttlingen, Stadt","type":"Große_Kreisstadt"},"district":{"key":"08327","name":"Tuttlingen","type":"Landkreis"},"federalState":{"key":"08","name":"Baden-Württemberg"}},{"name":"Marienweg","postalCode":"78532","locality":"Tuttlingen","municipality":{"key":"08327050","name":"Tuttlingen, Stadt","type":"Große_Kreisstadt"},"district":{"key":"08327","name":"Tuttlingen","type":"Landkreis"},"federalState":{"key":"08","name":"Baden-Württemberg"}},{"name":"Marktgasse","postalCode":"78532","locality":"Tuttlingen","municipality":{"key":"08327050","name":"Tuttlingen, Stadt","type":"Große_Kreisstadt"},"district":{"key":"08327","name":"Tuttlingen","type":"Landkreis"},"federalState":{"key":"08","name":"Baden-Württemberg"}},{"name":"Markusweg","postalCode":"78532","locality":"Tuttlingen","municipality":{"key":"08327050","name":"Tuttlingen, Stadt","type":"Große_Kreisstadt"},"district":{"key":"08327","name":"Tuttlingen","type":"Landkreis"},"federalState":{"key":"08","name":"Baden-Württemberg"}},{"name":"Martin-Luther-Weg","postalCode":"78532","locality":"Tuttlingen","municipality":{"key":"08327050","name":"Tuttlingen, Stadt","type":"Große_Kreisstadt"},"district":{"key":"08327","name":"Tuttlingen","type":"Landkreis"},"federalState":{"key":"08","name":"Baden-Württemberg"}},{"name":"Mattsteigstr.","postalCode":"78532","locality":"Tuttlingen","municipality":{"key":"08327050","name":"Tuttlingen, Stadt","type":"Große_Kreisstadt"},"district":{"key":"08327","name":"Tuttlingen","type":"Landkreis"},"federalState":{"key":"08","name":"Baden-Württemberg"}},{"name":"Max-Beckmann-Weg","postalCode":"78532","locality":"Tuttlingen","municipality":{"key":"08327050","name":"Tuttlingen, Stadt","type":"Große_Kreisstadt"},"district":{"key":"08327","name":"Tuttlingen","type":"Landkreis"},"federalState":{"key":"08","name":"Baden-Württemberg"}},{"name":"Max-Eyth-Str.","postalCode":"78532","locality":"Tuttlingen","municipality":{"key":"08327050","name":"Tuttlingen, Stadt","type":"Große_Kreisstadt"},"district":{"key":"08327","name":"Tuttlingen","type":"Landkreis"},"federalState":{"key":"08","name":"Baden-Württemberg"}},{"name":"Max-Planck-Str.","postalCode":"78532","locality":"Tuttlingen","municipality":{"key":"08327050","name":"Tuttlingen, Stadt","type":"Große_Kreisstadt"},"district":{"key":"08327","name":"Tuttlingen","type":"Landkreis"},"federalState":{"key":"08","name":"Baden-Württemberg"}},{"name":"Maybachstr.","postalCode":"78532","locality":"Tuttlingen","municipality":{"key":"08327050","name":"Tuttlingen, Stadt","type":"Große_Kreisstadt"},"district":{"key":"08327","name":"Tuttlingen","type":"Landkreis"},"federalState":{"key":"08","name":"Baden-Württemberg"}},{"name":"Melbishaldenweg","postalCode":"78532","locality":"Tuttlingen","municipality":{"key":"08327050","name":"Tuttlingen, Stadt","type":"Große_Kreisstadt"},"district":{"key":"08327","name":"Tuttlingen","type":"Landkreis"},"federalState":{"key":"08","name":"Baden-Württemberg"}},{"name":"Menzelweg","postalCode":"78532","locality":"Tuttlingen","municipality":{"key":"08327050","name":"Tuttlingen, Stadt","type":"Große_Kreisstadt"},"district":{"key":"08327","name":"Tuttlingen","type":"Landkreis"},"federalState":{"key":"08","name":"Baden-Württemberg"}},{"name":"Messerschmittstr.","postalCode":"78532","locality":"Tuttlingen","municipality":{"key":"08327050","name":"Tuttlingen, Stadt","type":"Große_Kreisstadt"},"district":{"key":"08327","name":"Tuttlingen","type":"Landkreis"},"federalState":{"key":"08","name":"Baden-Württemberg"}},{"name":"Meßkircher Str.","postalCode":"78532","locality":"Tuttlingen","municipality":{"key":"08327050","name":"Tuttlingen, Stadt","type":"Große_Kreisstadt"},"district":{"key":"08327","name":"Tuttlingen","type":"Landkreis"},"federalState":{"key":"08","name":"Baden-Württemberg"}},{"name":"Mettenbergstr.","postalCode":"78532","locality":"Tuttlingen","municipality":{"key":"08327050","name":"Tuttlingen, Stadt","type":"Große_Kreisstadt"},"district":{"key":"08327","name":"Tuttlingen","type":"Landkreis"},"federalState":{"key":"08","name":"Baden-Württemberg"}},{"name":"Mittelstr.","postalCode":"78532","locality":"Tuttlingen","municipality":{"key":"08327050","name":"Tuttlingen, Stadt","type":"Große_Kreisstadt"},"district":{"key":"08327","name":"Tuttlingen","type":"Landkreis"},"federalState":{"key":"08","name":"Baden-Württemberg"}},{"name":"Mittlere Gasse","postalCode":"78532","locality":"Tuttlingen","municipality":{"key":"08327050","name":"Tuttlingen, Stadt","type":"Große_Kreisstadt"},"district":{"key":"08327","name":"Tuttlingen","type":"Landkreis"},"federalState":{"key":"08","name":"Baden-Württemberg"}},{"name":"Mohlstr.","postalCode":"78532","locality":"Tuttlingen","municipality":{"key":"08327050","name":"Tuttlingen, Stadt","type":"Große_Kreisstadt"},"district":{"key":"08327","name":"Tuttlingen","type":"Landkreis"},"federalState":{"key":"08","name":"Baden-Württemberg"}},{"name":"Mohrendobeltraufweg","postalCode":"78532","locality":"Tuttlingen","municipality":{"key":"08327050","name":"Tuttlingen, Stadt","type":"Große_Kreisstadt"},"district":{"key":"08327","name":"Tuttlingen","type":"Landkreis"},"federalState":{"key":"08","name":"Baden-Württemberg"}},{"name":"Möhringer Str.","postalCode":"78532","locality":"Tuttlingen","municipality":{"key":"08327050","name":"Tuttlingen, Stadt","type":"Große_Kreisstadt"},"district":{"key":"08327","name":"Tuttlingen","type":"Landkreis"},"federalState":{"key":"08","name":"Baden-Württemberg"}},{"name":"Moltkestr.","postalCode":"78532","locality":"Tuttlingen","municipality":{"key":"08327050","name":"Tuttlingen, Stadt","type":"Große_Kreisstadt"},"district":{"key":"08327","name":"Tuttlingen","type":"Landkreis"},"federalState":{"key":"08","name":"Baden-Württemberg"}},{"name":"Mörikeweg","postalCode":"78532","locality":"Tuttlingen","municipality":{"key":"08327050","name":"Tuttlingen, Stadt","type":"Große_Kreisstadt"},"district":{"key":"08327","name":"Tuttlingen","type":"Landkreis"},"federalState":{"key":"08","name":"Baden-Württemberg"}},{"name":"Mozartstr.","postalCode":"78532","locality":"Tuttlingen","municipality":{"key":"08327050","name":"Tuttlingen, Stadt","type":"Große_Kreisstadt"},"district":{"key":"08327","name":"Tuttlingen","type":"Landkreis"},"federalState":{"key":"08","name":"Baden-Württemberg"}},{"name":"Mühlenweg","postalCode":"78532","locality":"Tuttlingen","municipality":{"key":"08327050","name":"Tuttlingen, Stadt","type":"Große_Kreisstadt"},"district":{"key":"08327","name":"Tuttlingen","type":"Landkreis"},"federalState":{"key":"08","name":"Baden-Württemberg"}},{"name":"Mühlheimer Str.","postalCode":"78532","locality":"Tuttlingen","municipality":{"key":"08327050","name":"Tuttlingen, Stadt","type":"Große_Kreisstadt"},"district":{"key":"08327","name":"Tuttlingen","type":"Landkreis"},"federalState":{"key":"08","name":"Baden-Württemberg"}},{"name":"Mühlsteigstr.","postalCode":"78532","locality":"Tuttlingen","municipality":{"key":"08327050","name":"Tuttlingen, Stadt","type":"Große_Kreisstadt"},"district":{"key":"08327","name":"Tuttlingen","type":"Landkreis"},"federalState":{"key":"08","name":"Baden-Württemberg"}},{"name":"Mühlsteinweg","postalCode":"78532","locality":"Tuttlingen","municipality":{"key":"08327050","name":"Tuttlingen, Stadt","type":"Große_Kreisstadt"},"district":{"key":"08327","name":"Tuttlingen","type":"Landkreis"},"federalState":{"key":"08","name":"Baden-Württemberg"}},{"name":"Nelkenstr.","postalCode":"78532","locality":"Tuttlingen","municipality":{"key":"08327050","name":"Tuttlingen, Stadt","type":"Große_Kreisstadt"},"district":{"key":"08327","name":"Tuttlingen","type":"Landkreis"},"federalState":{"key":"08","name":"Baden-Württemberg"}},{"name":"Nendinger Allee","postalCode":"78532","locality":"Tuttlingen","municipality":{"key":"08327050","name":"Tuttlingen, Stadt","type":"Große_Kreisstadt"},"district":{"key":"08327","name":"Tuttlingen","type":"Landkreis"},"federalState":{"key":"08","name":"Baden-Württemberg"}},{"name":"Neuer Wurzenweg","postalCode":"78532","locality":"Tuttlingen","municipality":{"key":"08327050","name":"Tuttlingen, Stadt","type":"Große_Kreisstadt"},"district":{"key":"08327","name":"Tuttlingen","type":"Landkreis"},"federalState":{"key":"08","name":"Baden-Württemberg"}},{"name":"Neuhauser Str.","postalCode":"78532","locality":"Tuttlingen","municipality":{"key":"08327050","name":"Tuttlingen, Stadt","type":"Große_Kreisstadt"},"district":{"key":"08327","name":"Tuttlingen","type":"Landkreis"},"federalState":{"key":"08","name":"Baden-Württemberg"}},{"name":"Nonnenburgstr.","postalCode":"78532","locality":"Tuttlingen","municipality":{"key":"08327050","name":"Tuttlingen, Stadt","type":"Große_Kreisstadt"},"district":{"key":"08327","name":"Tuttlingen","type":"Landkreis"},"federalState":{"key":"08","name":"Baden-Württemberg"}},{"name":"Obere Str.","postalCode":"78598","locality":"Königsheim","municipality":{"key":"08327029","name":"Königsheim","type":"Kreisangehörige_Gemeinde"},"district":{"key":"08327","name":"Tuttlingen","type":"Landkreis"},"federalState":{"key":"08","name":"Baden-Württemberg"}},{"name":"Palisadenhauweg","postalCode":"78532","locality":"Tuttlingen","municipality":{"key":"08327050","name":"Tuttlingen, Stadt","type":"Große_Kreisstadt"},"district":{"key":"08327","name":"Tuttlingen","type":"Landkreis"},"federalState":{"key":"08","name":"Baden-Württemberg"}},{"name":"Panoramastr.","postalCode":"78532","locality":"Tuttlingen","municipality":{"key":"08327050","name":"Tuttlingen, Stadt","type":"Große_Kreisstadt"},"district":{"key":"08327","name":"Tuttlingen","type":"Landkreis"},"federalState":{"key":"08","name":"Baden-Württemberg"}},{"name":"Paracelsusweg","postalCode":"78532","locality":"Tuttlingen","municipality":{"key":"08327050","name":"Tuttlingen, Stadt","type":"Große_Kreisstadt"},"district":{"key":"08327","name":"Tuttlingen","type":"Landkreis"},"federalState":{"key":"08","name":"Baden-Württemberg"}},{"name":"Paradiestäle","postalCode":"78532","locality":"Tuttlingen","municipality":{"key":"08327050","name":"Tuttlingen, Stadt","type":"Große_Kreisstadt"},"district":{"key":"08327","name":"Tuttlingen","type":"Landkreis"},"federalState":{"key":"08","name":"Baden-Württemberg"}},{"name":"Paul-Ehrlich-Weg","postalCode":"78532","locality":"Tuttlingen","municipality":{"key":"08327050","name":"Tuttlingen, Stadt","type":"Große_Kreisstadt"},"district":{"key":"08327","name":"Tuttlingen","type":"Landkreis"},"federalState":{"key":"08","name":"Baden-Württemberg"}},{"name":"Pestalozzistr.","postalCode":"78532","locality":"Tuttlingen","municipality":{"key":"08327050","name":"Tuttlingen, Stadt","type":"Große_Kreisstadt"},"district":{"key":"08327","name":"Tuttlingen","type":"Landkreis"},"federalState":{"key":"08","name":"Baden-Württemberg"}},{"name":"Peterstr.","postalCode":"78532","locality":"Tuttlingen","municipality":{"key":"08327050","name":"Tuttlingen, Stadt","type":"Große_Kreisstadt"},"district":{"key":"08327","name":"Tuttlingen","type":"Landkreis"},"federalState":{"key":"08","name":"Baden-Württemberg"}},{"name":"Pettenkoferweg","postalCode":"78532","locality":"Tuttlingen","municipality":{"key":"08327050","name":"Tuttlingen, Stadt","type":"Große_Kreisstadt"},"district":{"key":"08327","name":"Tuttlingen","type":"Landkreis"},"federalState":{"key":"08","name":"Baden-Württemberg"}},{"name":"Pfaffennutzenhölzleweg","postalCode":"78532","locality":"Tuttlingen","municipality":{"key":"08327050","name":"Tuttlingen, Stadt","type":"Große_Kreisstadt"},"district":{"key":"08327","name":"Tuttlingen","type":"Landkreis"},"federalState":{"key":"08","name":"Baden-Württemberg"}},{"name":"Pfarrstr.","postalCode":"78532","locality":"Tuttlingen","municipality":{"key":"08327050","name":"Tuttlingen, Stadt","type":"Große_Kreisstadt"},"district":{"key":"08327","name":"Tuttlingen","type":"Landkreis"},"federalState":{"key":"08","name":"Baden-Württemberg"}},{"name":"Pflanzschulweg","postalCode":"78532","locality":"Tuttlingen","municipality":{"key":"08327050","name":"Tuttlingen, Stadt","type":"Große_Kreisstadt"},"district":{"key":"08327","name":"Tuttlingen","type":"Landkreis"},"federalState":{"key":"08","name":"Baden-Württemberg"}},{"name":"Philosophenweg","postalCode":"78532","locality":"Tuttlingen","municipality":{"key":"08327050","name":"Tuttlingen, Stadt","type":"Große_Kreisstadt"},"district":{"key":"08327","name":"Tuttlingen","type":"Landkreis"},"federalState":{"key":"08","name":"Baden-Württemberg"}},{"name":"Plettenbergstr.","postalCode":"78532","locality":"Tuttlingen","municipality":{"key":"08327050","name":"Tuttlingen, Stadt","type":"Große_Kreisstadt"},"district":{"key":"08327","name":"Tuttlingen","type":"Landkreis"},"federalState":{"key":"08","name":"Baden-Württemberg"}},{"name":"Querstr.","postalCode":"78532","locality":"Tuttlingen","municipality":{"key":"08327050","name":"Tuttlingen, Stadt","type":"Große_Kreisstadt"},"district":{"key":"08327","name":"Tuttlingen","type":"Landkreis"},"federalState":{"key":"08","name":"Baden-Württemberg"}},{"name":"Rosenstr.","postalCode":"78598","locality":"Königsheim","municipality":{"key":"08327029","name":"Königsheim","type":"Kreisangehörige_Gemeinde"},"district":{"key":"08327","name":"Tuttlingen","type":"Landkreis"},"federalState":{"key":"08","name":"Baden-Württemberg"}},{"name":"Seitenäcker","postalCode":"78598","locality":"Königsheim","municipality":{"key":"08327029","name":"Königsheim","type":"Kreisangehörige_Gemeinde"},"district":{"key":"08327","name":"Tuttlingen","type":"Landkreis"},"federalState":{"key":"08","name":"Baden-Württemberg"}},{"name":"Staigle","postalCode":"78598","locality":"Königsheim","municipality":{"key":"08327029","name":"Königsheim","type":"Kreisangehörige_Gemeinde"},"district":{"key":"08327","name":"Tuttlingen","type":"Landkreis"},"federalState":{"key":"08","name":"Baden-Württemberg"}},{"name":"Tannstr.","postalCode":"78598","locality":"Königsheim","municipality":{"key":"08327029","name":"Königsheim","type":"Kreisangehörige_Gemeinde"},"district":{"key":"08327","name":"Tuttlingen","type":"Landkreis"},"federalState":{"key":"08","name":"Baden-Württemberg"}},{"name":"Uchtstr.","postalCode":"78598","locality":"Königsheim","municipality":{"key":"08327029","name":"Königsheim","type":"Kreisangehörige_Gemeinde"},"district":{"key":"08327","name":"Tuttlingen","type":"Landkreis"},"federalState":{"key":"08","name":"Baden-Württemberg"}},{"name":"Unterm Rain","postalCode":"78598","locality":"Königsheim","municipality":{"key":"08327029","name":"Königsheim","type":"Kreisangehörige_Gemeinde"},"district":{"key":"08327","name":"Tuttlingen","type":"Landkreis"},"federalState":{"key":"08","name":"Baden-Württemberg"}},{"name":"Vor der Höhe","postalCode":"78598","locality":"Königsheim","municipality":{"key":"08327029","name":"Königsheim","type":"Kreisangehörige_Gemeinde"},"district":{"key":"08327","name":"Tuttlingen","type":"Landkreis"},"federalState":{"key":"08","name":"Baden-Württemberg"}},{"name":"Wachtbühlweg","postalCode":"78598","locality":"Königsheim","municipality":{"key":"08327029","name":"Königsheim","type":"Kreisangehörige_Gemeinde"},"district":{"key":"08327","name":"Tuttlingen","type":"Landkreis"},"federalState":{"key":"08","name":"Baden-Württemberg"}},{"name":"Zelterweg","postalCode":"78532","locality":"Tuttlingen","municipality":{"key":"08327050","name":"Tuttlingen, Stadt","type":"Große_Kreisstadt"},"district":{"key":"08327","name":"Tuttlingen","type":"Landkreis"},"federalState":{"key":"08","name":"Baden-Württemberg"}},{"name":"Zeppelinstr.","postalCode":"78532","locality":"Tuttlingen","municipality":{"key":"08327050","name":"Tuttlingen, Stadt","type":"Große_Kreisstadt"},"district":{"key":"08327","name":"Tuttlingen","type":"Landkreis"},"federalState":{"key":"08","name":"Baden-Württemberg"}},{"name":"Zeughausstr.","postalCode":"78532","locality":"Tuttlingen","municipality":{"key":"08327050","name":"Tuttlingen, Stadt","type":"Große_Kreisstadt"},"district":{"key":"08327","name":"Tuttlingen","type":"Landkreis"},"federalState":{"key":"08","name":"Baden-Württemberg"}},{"name":"Ziegeleiweg","postalCode":"78532","locality":"Tuttlingen","municipality":{"key":"08327050","name":"Tuttlingen, Stadt","type":"Große_Kreisstadt"},"district":{"key":"08327","name":"Tuttlingen","type":"Landkreis"},"federalState":{"key":"08","name":"Baden-Württemberg"}},{"name":"Ziegelweg","postalCode":"78532","locality":"Tuttlingen","municipality":{"key":"08327050","name":"Tuttlingen, Stadt","type":"Große_Kreisstadt"},"district":{"key":"08327","name":"Tuttlingen","type":"Landkreis"},"federalState":{"key":"08","name":"Baden-Württemberg"}},{"name":"Zirkelweg","postalCode":"78532","locality":"Tuttlingen","municipality":{"key":"08327050","name":"Tuttlingen, Stadt","type":"Große_Kreisstadt"},"district":{"key":"08327","name":"Tuttlingen","type":"Landkreis"},"federalState":{"key":"08","name":"Baden-Württemberg"}},{"name":"Zollernstr.","postalCode":"78532","locality":"Tuttlingen","municipality":{"key":"08327050","name":"Tuttlingen, Stadt","type":"Große_Kreisstadt"},"district":{"key":"08327","name":"Tuttlingen","type":"Landkreis"},"federalState":{"key":"08","name":"Baden-Württemberg"}},{"name":"Zur Widum","postalCode":"78532","locality":"Tuttlingen","municipality":{"key":"08327050","name":"Tuttlingen, Stadt","type":"Große_Kreisstadt"},"district":{"key":"08327","name":"Tuttlingen","type":"Landkreis"},"federalState":{"key":"08","name":"Baden-Württemberg"}},]