[{"name":"Auf Debert","postalCode":"54595","locality":"Orlenbach","municipality":{"key":"07232290","name":"Orlenbach","type":"Kreisangehörige_Gemeinde"},"district":{"key":"07232","name":"Eifelkreis Bitburg-Prüm","type":"Landkreis"},"federalState":{"key":"07","name":"Rheinland-Pfalz"}},{"name":"Auf der Steinkaul","postalCode":"54595","locality":"Orlenbach","municipality":{"key":"07232290","name":"Orlenbach","type":"Kreisangehörige_Gemeinde"},"district":{"key":"07232","name":"Eifelkreis Bitburg-Prüm","type":"Landkreis"},"federalState":{"key":"07","name":"Rheinland-Pfalz"}},{"name":"Kautzenberg","postalCode":"54595","locality":"Orlenbach","municipality":{"key":"07232290","name":"Orlenbach","type":"Kreisangehörige_Gemeinde"},"district":{"key":"07232","name":"Eifelkreis Bitburg-Prüm","type":"Landkreis"},"federalState":{"key":"07","name":"Rheinland-Pfalz"}},{"name":"Odenkopf","postalCode":"54595","locality":"Orlenbach","municipality":{"key":"07232290","name":"Orlenbach","type":"Kreisangehörige_Gemeinde"},"district":{"key":"07232","name":"Eifelkreis Bitburg-Prüm","type":"Landkreis"},"federalState":{"key":"07","name":"Rheinland-Pfalz"}},{"name":"Orlenbacher Str.","postalCode":"54595","locality":"Orlenbach","municipality":{"key":"07232290","name":"Orlenbach","type":"Kreisangehörige_Gemeinde"},"district":{"key":"07232","name":"Eifelkreis Bitburg-Prüm","type":"Landkreis"},"federalState":{"key":"07","name":"Rheinland-Pfalz"}},{"name":"Ortsstr.","postalCode":"54595","locality":"Orlenbach","municipality":{"key":"07232290","name":"Orlenbach","type":"Kreisangehörige_Gemeinde"},"district":{"key":"07232","name":"Eifelkreis Bitburg-Prüm","type":"Landkreis"},"federalState":{"key":"07","name":"Rheinland-Pfalz"}},{"name":"Pronsfelder Str.","postalCode":"54595","locality":"Orlenbach","municipality":{"key":"07232290","name":"Orlenbach","type":"Kreisangehörige_Gemeinde"},"district":{"key":"07232","name":"Eifelkreis Bitburg-Prüm","type":"Landkreis"},"federalState":{"key":"07","name":"Rheinland-Pfalz"}},{"name":"Prümer Str.","postalCode":"54595","locality":"Orlenbach","municipality":{"key":"07232290","name":"Orlenbach","type":"Kreisangehörige_Gemeinde"},"district":{"key":"07232","name":"Eifelkreis Bitburg-Prüm","type":"Landkreis"},"federalState":{"key":"07","name":"Rheinland-Pfalz"}},{"name":"Sankt-Vither-Str.","postalCode":"54595","locality":"Orlenbach","municipality":{"key":"07232290","name":"Orlenbach","type":"Kreisangehörige_Gemeinde"},"district":{"key":"07232","name":"Eifelkreis Bitburg-Prüm","type":"Landkreis"},"federalState":{"key":"07","name":"Rheinland-Pfalz"}},{"name":"Schloßhecker Str.","postalCode":"54595","locality":"Orlenbach","municipality":{"key":"07232290","name":"Orlenbach","type":"Kreisangehörige_Gemeinde"},"district":{"key":"07232","name":"Eifelkreis Bitburg-Prüm","type":"Landkreis"},"federalState":{"key":"07","name":"Rheinland-Pfalz"}},{"name":"Schönecker Str.","postalCode":"54595","locality":"Orlenbach","municipality":{"key":"07232290","name":"Orlenbach","type":"Kreisangehörige_Gemeinde"},"district":{"key":"07232","name":"Eifelkreis Bitburg-Prüm","type":"Landkreis"},"federalState":{"key":"07","name":"Rheinland-Pfalz"}},]