[{"key":"10211892","name":"Aescherstrasse","postalCode":"6246","locality":"Altishofen","commune":{"key":"1123","name":"Altishofen","shortName":"Altishofen"},"district":{"key":"315","name":"Wahlkreis Willisau"},"canton":{"key":"3","code":"LU","name":"Luzern"},"status":"Real"},{"key":"10097533","name":"Aggisguet","postalCode":"6246","locality":"Altishofen","commune":{"key":"1123","name":"Altishofen","shortName":"Altishofen"},"district":{"key":"315","name":"Wahlkreis Willisau"},"canton":{"key":"3","code":"LU","name":"Luzern"},"status":"Real"},{"key":"10211895","name":"Alter Buchwaldweg","postalCode":"6246","locality":"Altishofen","commune":{"key":"1123","name":"Altishofen","shortName":"Altishofen"},"district":{"key":"315","name":"Wahlkreis Willisau"},"canton":{"key":"3","code":"LU","name":"Luzern"},"status":"Real"},{"key":"10211899","name":"Breitefeldweg","postalCode":"6246","locality":"Altishofen","commune":{"key":"1123","name":"Altishofen","shortName":"Altishofen"},"district":{"key":"315","name":"Wahlkreis Willisau"},"canton":{"key":"3","code":"LU","name":"Luzern"},"status":"Real"},{"key":"10211903","name":"Brünnlistrasse","postalCode":"6246","locality":"Altishofen","commune":{"key":"1123","name":"Altishofen","shortName":"Altishofen"},"district":{"key":"315","name":"Wahlkreis Willisau"},"canton":{"key":"3","code":"LU","name":"Luzern"},"status":"Real"},{"key":"10211877","name":"Buchwaldstrasse","postalCode":"6246","locality":"Altishofen","commune":{"key":"1123","name":"Altishofen","shortName":"Altishofen"},"district":{"key":"315","name":"Wahlkreis Willisau"},"canton":{"key":"3","code":"LU","name":"Luzern"},"status":"Real"},{"key":"10103694","name":"Chilchstrasse","postalCode":"6246","locality":"Altishofen","commune":{"key":"1123","name":"Altishofen","shortName":"Altishofen"},"district":{"key":"315","name":"Wahlkreis Willisau"},"canton":{"key":"3","code":"LU","name":"Luzern"},"status":"Real"},{"key":"10017382","name":"Dorf","postalCode":"6246","locality":"Altishofen","commune":{"key":"1123","name":"Altishofen","shortName":"Altishofen"},"district":{"key":"315","name":"Wahlkreis Willisau"},"canton":{"key":"3","code":"LU","name":"Luzern"},"status":"Real"},{"key":"10083470","name":"Eichbühl","postalCode":"6246","locality":"Altishofen","commune":{"key":"1123","name":"Altishofen","shortName":"Altishofen"},"district":{"key":"315","name":"Wahlkreis Willisau"},"canton":{"key":"3","code":"LU","name":"Luzern"},"status":"Real"},{"key":"10166248","name":"Eichbühlmatte","postalCode":"6246","locality":"Altishofen","commune":{"key":"1123","name":"Altishofen","shortName":"Altishofen"},"district":{"key":"315","name":"Wahlkreis Willisau"},"canton":{"key":"3","code":"LU","name":"Luzern"},"status":"Real"},{"key":"10063420","name":"Eichbühlstrasse","postalCode":"6246","locality":"Altishofen","commune":{"key":"1123","name":"Altishofen","shortName":"Altishofen"},"district":{"key":"315","name":"Wahlkreis Willisau"},"canton":{"key":"3","code":"LU","name":"Luzern"},"status":"Real"},{"key":"10247304","name":"Farbmatte","postalCode":"6246","locality":"Altishofen","commune":{"key":"1123","name":"Altishofen","shortName":"Altishofen"},"district":{"key":"315","name":"Wahlkreis Willisau"},"canton":{"key":"3","code":"LU","name":"Luzern"},"status":"Planned"},{"key":"10017384","name":"Feld","postalCode":"6246","locality":"Altishofen","commune":{"key":"1123","name":"Altishofen","shortName":"Altishofen"},"district":{"key":"315","name":"Wahlkreis Willisau"},"canton":{"key":"3","code":"LU","name":"Luzern"},"status":"Real"},{"key":"10107469","name":"Feldmatt","postalCode":"6246","locality":"Altishofen","commune":{"key":"1123","name":"Altishofen","shortName":"Altishofen"},"district":{"key":"315","name":"Wahlkreis Willisau"},"canton":{"key":"3","code":"LU","name":"Luzern"},"status":"Real"},{"key":"10139737","name":"Feldmattring","postalCode":"6246","locality":"Altishofen","commune":{"key":"1123","name":"Altishofen","shortName":"Altishofen"},"district":{"key":"315","name":"Wahlkreis Willisau"},"canton":{"key":"3","code":"LU","name":"Luzern"},"status":"Real"},{"key":"10017385","name":"Flüeggen","postalCode":"6246","locality":"Altishofen","commune":{"key":"1123","name":"Altishofen","shortName":"Altishofen"},"district":{"key":"315","name":"Wahlkreis Willisau"},"canton":{"key":"3","code":"LU","name":"Luzern"},"status":"Real"},{"key":"10211881","name":"Flüeggenwaldstrasse","postalCode":"6246","locality":"Altishofen","commune":{"key":"1123","name":"Altishofen","shortName":"Altishofen"},"district":{"key":"315","name":"Wahlkreis Willisau"},"canton":{"key":"3","code":"LU","name":"Luzern"},"status":"Real"},{"key":"10063421","name":"Fuchshalde","postalCode":"6246","locality":"Altishofen","commune":{"key":"1123","name":"Altishofen","shortName":"Altishofen"},"district":{"key":"315","name":"Wahlkreis Willisau"},"canton":{"key":"3","code":"LU","name":"Luzern"},"status":"Real"},{"key":"10211883","name":"Fuchshaldeweg","postalCode":"6246","locality":"Altishofen","commune":{"key":"1123","name":"Altishofen","shortName":"Altishofen"},"district":{"key":"315","name":"Wahlkreis Willisau"},"canton":{"key":"3","code":"LU","name":"Luzern"},"status":"Real"},{"key":"10017386","name":"Gartenweg","postalCode":"6246","locality":"Altishofen","commune":{"key":"1123","name":"Altishofen","shortName":"Altishofen"},"district":{"key":"315","name":"Wahlkreis Willisau"},"canton":{"key":"3","code":"LU","name":"Luzern"},"status":"Real"},{"key":"10063423","name":"Gäuerhof","postalCode":"6246","locality":"Altishofen","commune":{"key":"1123","name":"Altishofen","shortName":"Altishofen"},"district":{"key":"315","name":"Wahlkreis Willisau"},"canton":{"key":"3","code":"LU","name":"Luzern"},"status":"Real"},{"key":"10053823","name":"Gerbe","postalCode":"6246","locality":"Altishofen","commune":{"key":"1123","name":"Altishofen","shortName":"Altishofen"},"district":{"key":"315","name":"Wahlkreis Willisau"},"canton":{"key":"3","code":"LU","name":"Luzern"},"status":"Real"},{"key":"10017387","name":"Gerbefeld","postalCode":"6246","locality":"Altishofen","commune":{"key":"1123","name":"Altishofen","shortName":"Altishofen"},"district":{"key":"315","name":"Wahlkreis Willisau"},"canton":{"key":"3","code":"LU","name":"Luzern"},"status":"Real"},{"key":"10211886","name":"Gibelwaldstrasse","postalCode":"6246","locality":"Altishofen","commune":{"key":"1123","name":"Altishofen","shortName":"Altishofen"},"district":{"key":"315","name":"Wahlkreis Willisau"},"canton":{"key":"3","code":"LU","name":"Luzern"},"status":"Real"},{"key":"10083471","name":"Grünau","postalCode":"6246","locality":"Altishofen","commune":{"key":"1123","name":"Altishofen","shortName":"Altishofen"},"district":{"key":"315","name":"Wahlkreis Willisau"},"canton":{"key":"3","code":"LU","name":"Luzern"},"status":"Real"},{"key":"10017388","name":"Grünauring","postalCode":"6246","locality":"Altishofen","commune":{"key":"1123","name":"Altishofen","shortName":"Altishofen"},"district":{"key":"315","name":"Wahlkreis Willisau"},"canton":{"key":"3","code":"LU","name":"Luzern"},"status":"Real"},{"key":"10211887","name":"Grünauweg","postalCode":"6246","locality":"Altishofen","commune":{"key":"1123","name":"Altishofen","shortName":"Altishofen"},"district":{"key":"315","name":"Wahlkreis Willisau"},"canton":{"key":"3","code":"LU","name":"Luzern"},"status":"Real"},{"key":"10211890","name":"Güllewaldweg","postalCode":"6246","locality":"Altishofen","commune":{"key":"1123","name":"Altishofen","shortName":"Altishofen"},"district":{"key":"315","name":"Wahlkreis Willisau"},"canton":{"key":"3","code":"LU","name":"Luzern"},"status":"Real"},{"key":"10211894","name":"Herrenmatteweg","postalCode":"6246","locality":"Altishofen","commune":{"key":"1123","name":"Altishofen","shortName":"Altishofen"},"district":{"key":"315","name":"Wahlkreis Willisau"},"canton":{"key":"3","code":"LU","name":"Luzern"},"status":"Real"},{"key":"10211897","name":"Hofacher","postalCode":"6246","locality":"Altishofen","commune":{"key":"1123","name":"Altishofen","shortName":"Altishofen"},"district":{"key":"315","name":"Wahlkreis Willisau"},"canton":{"key":"3","code":"LU","name":"Luzern"},"status":"Real"},{"key":"10181222","name":"Hübeli","postalCode":"6246","locality":"Altishofen","commune":{"key":"1123","name":"Altishofen","shortName":"Altishofen"},"district":{"key":"315","name":"Wahlkreis Willisau"},"canton":{"key":"3","code":"LU","name":"Luzern"},"status":"Real"},{"key":"10017390","name":"Hübelirain","postalCode":"6246","locality":"Altishofen","commune":{"key":"1123","name":"Altishofen","shortName":"Altishofen"},"district":{"key":"315","name":"Wahlkreis Willisau"},"canton":{"key":"3","code":"LU","name":"Luzern"},"status":"Real"},{"key":"10211901","name":"Hübeliwaldstrasse","postalCode":"6246","locality":"Altishofen","commune":{"key":"1123","name":"Altishofen","shortName":"Altishofen"},"district":{"key":"315","name":"Wahlkreis Willisau"},"canton":{"key":"3","code":"LU","name":"Luzern"},"status":"Real"},{"key":"10211878","name":"Huebäbnistrasse","postalCode":"6246","locality":"Altishofen","commune":{"key":"1123","name":"Altishofen","shortName":"Altishofen"},"district":{"key":"315","name":"Wahlkreis Willisau"},"canton":{"key":"3","code":"LU","name":"Luzern"},"status":"Real"},{"key":"10131206","name":"Im Schilf","postalCode":"6246","locality":"Altishofen","commune":{"key":"1123","name":"Altishofen","shortName":"Altishofen"},"district":{"key":"315","name":"Wahlkreis Willisau"},"canton":{"key":"3","code":"LU","name":"Luzern"},"status":"Real"},{"key":"10255054","name":"Jagdhütte","postalCode":"6246","locality":"Altishofen","commune":{"key":"1123","name":"Altishofen","shortName":"Altishofen"},"district":{"key":"315","name":"Wahlkreis Willisau"},"canton":{"key":"3","code":"LU","name":"Luzern"},"status":"Real"},{"key":"10211891","name":"Jägerhüttenstrasse","postalCode":"6246","locality":"Altishofen","commune":{"key":"1123","name":"Altishofen","shortName":"Altishofen"},"district":{"key":"315","name":"Wahlkreis Willisau"},"canton":{"key":"3","code":"LU","name":"Luzern"},"status":"Real"},{"key":"10211898","name":"Judeströssli","postalCode":"6246","locality":"Altishofen","commune":{"key":"1123","name":"Altishofen","shortName":"Altishofen"},"district":{"key":"315","name":"Wahlkreis Willisau"},"canton":{"key":"3","code":"LU","name":"Luzern"},"status":"Real"},{"key":"10103695","name":"Kantonsstrasse","postalCode":"6246","locality":"Altishofen","commune":{"key":"1123","name":"Altishofen","shortName":"Altishofen"},"district":{"key":"315","name":"Wahlkreis Willisau"},"canton":{"key":"3","code":"LU","name":"Luzern"},"status":"Real"},{"key":"10197654","name":"Klösterli","postalCode":"6246","locality":"Altishofen","commune":{"key":"1123","name":"Altishofen","shortName":"Altishofen"},"district":{"key":"315","name":"Wahlkreis Willisau"},"canton":{"key":"3","code":"LU","name":"Luzern"},"status":"Real"},{"key":"10106156","name":"Kohlgrube","postalCode":"6246","locality":"Altishofen","commune":{"key":"1123","name":"Altishofen","shortName":"Altishofen"},"district":{"key":"315","name":"Wahlkreis Willisau"},"canton":{"key":"3","code":"LU","name":"Luzern"},"status":"Real"},{"key":"10115883","name":"Kornschütte","postalCode":"6246","locality":"Altishofen","commune":{"key":"1123","name":"Altishofen","shortName":"Altishofen"},"district":{"key":"315","name":"Wahlkreis Willisau"},"canton":{"key":"3","code":"LU","name":"Luzern"},"status":"Real"},{"key":"10186680","name":"Kuonihof","postalCode":"6246","locality":"Altishofen","commune":{"key":"1123","name":"Altishofen","shortName":"Altishofen"},"district":{"key":"315","name":"Wahlkreis Willisau"},"canton":{"key":"3","code":"LU","name":"Luzern"},"status":"Real"},{"key":"10190766","name":"Müli","postalCode":"6246","locality":"Altishofen","commune":{"key":"1123","name":"Altishofen","shortName":"Altishofen"},"district":{"key":"315","name":"Wahlkreis Willisau"},"canton":{"key":"3","code":"LU","name":"Luzern"},"status":"Real"},{"key":"10211902","name":"Mülistrasse","postalCode":"6246","locality":"Altishofen","commune":{"key":"1123","name":"Altishofen","shortName":"Altishofen"},"district":{"key":"315","name":"Wahlkreis Willisau"},"canton":{"key":"3","code":"LU","name":"Luzern"},"status":"Real"},{"key":"10017391","name":"Oberdorf","postalCode":"6246","locality":"Altishofen","commune":{"key":"1123","name":"Altishofen","shortName":"Altishofen"},"district":{"key":"315","name":"Wahlkreis Willisau"},"canton":{"key":"3","code":"LU","name":"Luzern"},"status":"Real"},{"key":"10083472","name":"Oberfeld","postalCode":"6246","locality":"Altishofen","commune":{"key":"1123","name":"Altishofen","shortName":"Altishofen"},"district":{"key":"315","name":"Wahlkreis Willisau"},"canton":{"key":"3","code":"LU","name":"Luzern"},"status":"Real"},{"key":"10211905","name":"Oberfeldweg","postalCode":"6246","locality":"Altishofen","commune":{"key":"1123","name":"Altishofen","shortName":"Altishofen"},"district":{"key":"315","name":"Wahlkreis Willisau"},"canton":{"key":"3","code":"LU","name":"Luzern"},"status":"Real"},{"key":"10017392","name":"Pfarrhubel","postalCode":"6246","locality":"Altishofen","commune":{"key":"1123","name":"Altishofen","shortName":"Altishofen"},"district":{"key":"315","name":"Wahlkreis Willisau"},"canton":{"key":"3","code":"LU","name":"Luzern"},"status":"Real"},{"key":"10211907","name":"Ränziwilmatteweg","postalCode":"6246","locality":"Altishofen","commune":{"key":"1123","name":"Altishofen","shortName":"Altishofen"},"district":{"key":"315","name":"Wahlkreis Willisau"},"canton":{"key":"3","code":"LU","name":"Luzern"},"status":"Real"},{"key":"10063437","name":"Rumi","postalCode":"6246","locality":"Altishofen","commune":{"key":"1123","name":"Altishofen","shortName":"Altishofen"},"district":{"key":"315","name":"Wahlkreis Willisau"},"canton":{"key":"3","code":"LU","name":"Luzern"},"status":"Real"},{"key":"10211909","name":"Schibenrainweg","postalCode":"6246","locality":"Altishofen","commune":{"key":"1123","name":"Altishofen","shortName":"Altishofen"},"district":{"key":"315","name":"Wahlkreis Willisau"},"canton":{"key":"3","code":"LU","name":"Luzern"},"status":"Real"},{"key":"10134239","name":"Schiberainhof","postalCode":"6246","locality":"Altishofen","commune":{"key":"1123","name":"Altishofen","shortName":"Altishofen"},"district":{"key":"315","name":"Wahlkreis Willisau"},"canton":{"key":"3","code":"LU","name":"Luzern"},"status":"Real"},{"key":"10017393","name":"Schloss","postalCode":"6246","locality":"Altishofen","commune":{"key":"1123","name":"Altishofen","shortName":"Altishofen"},"district":{"key":"315","name":"Wahlkreis Willisau"},"canton":{"key":"3","code":"LU","name":"Luzern"},"status":"Real"},{"key":"10211911","name":"Schlosshubelstrasse","postalCode":"6246","locality":"Altishofen","commune":{"key":"1123","name":"Altishofen","shortName":"Altishofen"},"district":{"key":"315","name":"Wahlkreis Willisau"},"canton":{"key":"3","code":"LU","name":"Luzern"},"status":"Real"},{"key":"10211913","name":"Schlosswaldstrasse","postalCode":"6246","locality":"Altishofen","commune":{"key":"1123","name":"Altishofen","shortName":"Altishofen"},"district":{"key":"315","name":"Wahlkreis Willisau"},"canton":{"key":"3","code":"LU","name":"Luzern"},"status":"Real"},{"key":"10211879","name":"Schützenacherweg","postalCode":"6246","locality":"Altishofen","commune":{"key":"1123","name":"Altishofen","shortName":"Altishofen"},"district":{"key":"315","name":"Wahlkreis Willisau"},"canton":{"key":"3","code":"LU","name":"Luzern"},"status":"Real"},{"key":"10211884","name":"Schützenhausweg","postalCode":"6246","locality":"Altishofen","commune":{"key":"1123","name":"Altishofen","shortName":"Altishofen"},"district":{"key":"315","name":"Wahlkreis Willisau"},"canton":{"key":"3","code":"LU","name":"Luzern"},"status":"Real"},{"key":"10017394","name":"Silbermatte","postalCode":"6246","locality":"Altishofen","commune":{"key":"1123","name":"Altishofen","shortName":"Altishofen"},"district":{"key":"315","name":"Wahlkreis Willisau"},"canton":{"key":"3","code":"LU","name":"Luzern"},"status":"Real"},{"key":"10211889","name":"Stämpfelweg","postalCode":"6246","locality":"Altishofen","commune":{"key":"1123","name":"Altishofen","shortName":"Altishofen"},"district":{"key":"315","name":"Wahlkreis Willisau"},"canton":{"key":"3","code":"LU","name":"Luzern"},"status":"Real"},{"key":"10103696","name":"Stutz","postalCode":"6246","locality":"Altishofen","commune":{"key":"1123","name":"Altishofen","shortName":"Altishofen"},"district":{"key":"315","name":"Wahlkreis Willisau"},"canton":{"key":"3","code":"LU","name":"Luzern"},"status":"Real"},{"key":"10197653","name":"Stutzstrasse","postalCode":"6246","locality":"Altishofen","commune":{"key":"1123","name":"Altishofen","shortName":"Altishofen"},"district":{"key":"315","name":"Wahlkreis Willisau"},"canton":{"key":"3","code":"LU","name":"Luzern"},"status":"Real"},{"key":"10063424","name":"Unterdorf","postalCode":"6246","locality":"Altishofen","commune":{"key":"1123","name":"Altishofen","shortName":"Altishofen"},"district":{"key":"315","name":"Wahlkreis Willisau"},"canton":{"key":"3","code":"LU","name":"Luzern"},"status":"Real"},{"key":"10211893","name":"Unterer Gibelwaldweg","postalCode":"6246","locality":"Altishofen","commune":{"key":"1123","name":"Altishofen","shortName":"Altishofen"},"district":{"key":"315","name":"Wahlkreis Willisau"},"canton":{"key":"3","code":"LU","name":"Luzern"},"status":"Real"},{"key":"10053824","name":"Unterfeld","postalCode":"6246","locality":"Altishofen","commune":{"key":"1123","name":"Altishofen","shortName":"Altishofen"},"district":{"key":"315","name":"Wahlkreis Willisau"},"canton":{"key":"3","code":"LU","name":"Luzern"},"status":"Real"},{"key":"10211896","name":"Unterfeldstrasse","postalCode":"6246","locality":"Altishofen","commune":{"key":"1123","name":"Altishofen","shortName":"Altishofen"},"district":{"key":"315","name":"Wahlkreis Willisau"},"canton":{"key":"3","code":"LU","name":"Luzern"},"status":"Real"},{"key":"10255053","name":"Vogelhütte","postalCode":"6246","locality":"Altishofen","commune":{"key":"1123","name":"Altishofen","shortName":"Altishofen"},"district":{"key":"315","name":"Wahlkreis Willisau"},"canton":{"key":"3","code":"LU","name":"Luzern"},"status":"Real"},{"key":"10211900","name":"Vogelhüttenweg","postalCode":"6246","locality":"Altishofen","commune":{"key":"1123","name":"Altishofen","shortName":"Altishofen"},"district":{"key":"315","name":"Wahlkreis Willisau"},"canton":{"key":"3","code":"LU","name":"Luzern"},"status":"Real"},{"key":"10211904","name":"Vorder Hubebeneweg","postalCode":"6246","locality":"Altishofen","commune":{"key":"1123","name":"Altishofen","shortName":"Altishofen"},"district":{"key":"315","name":"Wahlkreis Willisau"},"canton":{"key":"3","code":"LU","name":"Luzern"},"status":"Real"},{"key":"10083473","name":"Waldheim","postalCode":"6246","locality":"Altishofen","commune":{"key":"1123","name":"Altishofen","shortName":"Altishofen"},"district":{"key":"315","name":"Wahlkreis Willisau"},"canton":{"key":"3","code":"LU","name":"Luzern"},"status":"Real"},{"key":"10089803","name":"Wegere","postalCode":"6246","locality":"Altishofen","commune":{"key":"1123","name":"Altishofen","shortName":"Altishofen"},"district":{"key":"315","name":"Wahlkreis Willisau"},"canton":{"key":"3","code":"LU","name":"Luzern"},"status":"Real"},{"key":"10141640","name":"Weid","postalCode":"6246","locality":"Altishofen","commune":{"key":"1123","name":"Altishofen","shortName":"Altishofen"},"district":{"key":"315","name":"Wahlkreis Willisau"},"canton":{"key":"3","code":"LU","name":"Luzern"},"status":"Real"},{"key":"10106157","name":"Widenbach","postalCode":"6246","locality":"Altishofen","commune":{"key":"1123","name":"Altishofen","shortName":"Altishofen"},"district":{"key":"315","name":"Wahlkreis Willisau"},"canton":{"key":"3","code":"LU","name":"Luzern"},"status":"Real"},{"key":"10017395","name":"Wigerebrugg","postalCode":"6246","locality":"Altishofen","commune":{"key":"1123","name":"Altishofen","shortName":"Altishofen"},"district":{"key":"315","name":"Wahlkreis Willisau"},"canton":{"key":"3","code":"LU","name":"Luzern"},"status":"Real"},{"key":"10211906","name":"Wiggerehof","postalCode":"6246","locality":"Altishofen","commune":{"key":"1123","name":"Altishofen","shortName":"Altishofen"},"district":{"key":"315","name":"Wahlkreis Willisau"},"canton":{"key":"3","code":"LU","name":"Luzern"},"status":"Real"},{"key":"10211908","name":"Wiggerehofstrasse","postalCode":"6246","locality":"Altishofen","commune":{"key":"1123","name":"Altishofen","shortName":"Altishofen"},"district":{"key":"315","name":"Wahlkreis Willisau"},"canton":{"key":"3","code":"LU","name":"Luzern"},"status":"Real"},{"key":"10211910","name":"Wiggereweg","postalCode":"6246","locality":"Altishofen","commune":{"key":"1123","name":"Altishofen","shortName":"Altishofen"},"district":{"key":"315","name":"Wahlkreis Willisau"},"canton":{"key":"3","code":"LU","name":"Luzern"},"status":"Real"},{"key":"10053825","name":"Wiggerhof","postalCode":"6246","locality":"Altishofen","commune":{"key":"1123","name":"Altishofen","shortName":"Altishofen"},"district":{"key":"315","name":"Wahlkreis Willisau"},"canton":{"key":"3","code":"LU","name":"Luzern"},"status":"Real"},{"key":"10211912","name":"Windfallstrasse","postalCode":"6246","locality":"Altishofen","commune":{"key":"1123","name":"Altishofen","shortName":"Altishofen"},"district":{"key":"315","name":"Wahlkreis Willisau"},"canton":{"key":"3","code":"LU","name":"Luzern"},"status":"Real"},]