[{"name":"Bröckel Wiesen","postalCode":"49779","locality":"Oberlangen","municipality":{"key":"03454040","name":"Oberlangen","type":"Kreisangehörige_Gemeinde"},"district":{"key":"03454","name":"Emsland","type":"Landkreis"},"federalState":{"key":"03","name":"Niedersachsen"}},{"name":"Brörmannstr.","postalCode":"49779","locality":"Oberlangen","municipality":{"key":"03454040","name":"Oberlangen","type":"Kreisangehörige_Gemeinde"},"district":{"key":"03454","name":"Emsland","type":"Landkreis"},"federalState":{"key":"03","name":"Niedersachsen"}},{"name":"Draperstr.","postalCode":"49779","locality":"Oberlangen","municipality":{"key":"03454040","name":"Oberlangen","type":"Kreisangehörige_Gemeinde"},"district":{"key":"03454","name":"Emsland","type":"Landkreis"},"federalState":{"key":"03","name":"Niedersachsen"}},{"name":"Fehnkenweg","postalCode":"49779","locality":"Oberlangen","municipality":{"key":"03454040","name":"Oberlangen","type":"Kreisangehörige_Gemeinde"},"district":{"key":"03454","name":"Emsland","type":"Landkreis"},"federalState":{"key":"03","name":"Niedersachsen"}},{"name":"Heerweg","postalCode":"49779","locality":"Oberlangen","municipality":{"key":"03454040","name":"Oberlangen","type":"Kreisangehörige_Gemeinde"},"district":{"key":"03454","name":"Emsland","type":"Landkreis"},"federalState":{"key":"03","name":"Niedersachsen"}},{"name":"Heidenhauk","postalCode":"49779","locality":"Oberlangen","municipality":{"key":"03454040","name":"Oberlangen","type":"Kreisangehörige_Gemeinde"},"district":{"key":"03454","name":"Emsland","type":"Landkreis"},"federalState":{"key":"03","name":"Niedersachsen"}},{"name":"Hermann-Wöste-Str.","postalCode":"49779","locality":"Oberlangen","municipality":{"key":"03454040","name":"Oberlangen","type":"Kreisangehörige_Gemeinde"},"district":{"key":"03454","name":"Emsland","type":"Landkreis"},"federalState":{"key":"03","name":"Niedersachsen"}},{"name":"Hof Beel","postalCode":"49779","locality":"Oberlangen","municipality":{"key":"03454040","name":"Oberlangen","type":"Kreisangehörige_Gemeinde"},"district":{"key":"03454","name":"Emsland","type":"Landkreis"},"federalState":{"key":"03","name":"Niedersachsen"}},{"name":"Hoher Esch","postalCode":"49779","locality":"Oberlangen","municipality":{"key":"03454040","name":"Oberlangen","type":"Kreisangehörige_Gemeinde"},"district":{"key":"03454","name":"Emsland","type":"Landkreis"},"federalState":{"key":"03","name":"Niedersachsen"}},{"name":"Hoher Eschweg","postalCode":"49779","locality":"Oberlangen","municipality":{"key":"03454040","name":"Oberlangen","type":"Kreisangehörige_Gemeinde"},"district":{"key":"03454","name":"Emsland","type":"Landkreis"},"federalState":{"key":"03","name":"Niedersachsen"}},{"name":"Im Dreieck","postalCode":"49779","locality":"Oberlangen","municipality":{"key":"03454040","name":"Oberlangen","type":"Kreisangehörige_Gemeinde"},"district":{"key":"03454","name":"Emsland","type":"Landkreis"},"federalState":{"key":"03","name":"Niedersachsen"}},{"name":"Im Fehnken","postalCode":"49779","locality":"Oberlangen","municipality":{"key":"03454040","name":"Oberlangen","type":"Kreisangehörige_Gemeinde"},"district":{"key":"03454","name":"Emsland","type":"Landkreis"},"federalState":{"key":"03","name":"Niedersachsen"}},{"name":"Josef-Beimel-Weg","postalCode":"49779","locality":"Oberlangen","municipality":{"key":"03454040","name":"Oberlangen","type":"Kreisangehörige_Gemeinde"},"district":{"key":"03454","name":"Emsland","type":"Landkreis"},"federalState":{"key":"03","name":"Niedersachsen"}},{"name":"Kirchstr.","postalCode":"49779","locality":"Oberlangen","municipality":{"key":"03454040","name":"Oberlangen","type":"Kreisangehörige_Gemeinde"},"district":{"key":"03454","name":"Emsland","type":"Landkreis"},"federalState":{"key":"03","name":"Niedersachsen"}},{"name":"Koppelweg","postalCode":"49779","locality":"Oberlangen","municipality":{"key":"03454040","name":"Oberlangen","type":"Kreisangehörige_Gemeinde"},"district":{"key":"03454","name":"Emsland","type":"Landkreis"},"federalState":{"key":"03","name":"Niedersachsen"}},{"name":"Lagerstr.","postalCode":"49779","locality":"Oberlangen","municipality":{"key":"03454040","name":"Oberlangen","type":"Kreisangehörige_Gemeinde"},"district":{"key":"03454","name":"Emsland","type":"Landkreis"},"federalState":{"key":"03","name":"Niedersachsen"}},{"name":"Lambert-Hackmann-Str.","postalCode":"49779","locality":"Oberlangen","municipality":{"key":"03454040","name":"Oberlangen","type":"Kreisangehörige_Gemeinde"},"district":{"key":"03454","name":"Emsland","type":"Landkreis"},"federalState":{"key":"03","name":"Niedersachsen"}},{"name":"Laurentiusstr.","postalCode":"49779","locality":"Oberlangen","municipality":{"key":"03454040","name":"Oberlangen","type":"Kreisangehörige_Gemeinde"},"district":{"key":"03454","name":"Emsland","type":"Landkreis"},"federalState":{"key":"03","name":"Niedersachsen"}},{"name":"Marienstr.","postalCode":"49779","locality":"Oberlangen","municipality":{"key":"03454040","name":"Oberlangen","type":"Kreisangehörige_Gemeinde"},"district":{"key":"03454","name":"Emsland","type":"Landkreis"},"federalState":{"key":"03","name":"Niedersachsen"}},{"name":"Nord-Süd-Str.","postalCode":"49779","locality":"Oberlangen","municipality":{"key":"03454040","name":"Oberlangen","type":"Kreisangehörige_Gemeinde"},"district":{"key":"03454","name":"Emsland","type":"Landkreis"},"federalState":{"key":"03","name":"Niedersachsen"}},{"name":"Nyenhuisring","postalCode":"49779","locality":"Oberlangen","municipality":{"key":"03454040","name":"Oberlangen","type":"Kreisangehörige_Gemeinde"},"district":{"key":"03454","name":"Emsland","type":"Landkreis"},"federalState":{"key":"03","name":"Niedersachsen"}},{"name":"Sandstr.","postalCode":"49779","locality":"Oberlangen","municipality":{"key":"03454040","name":"Oberlangen","type":"Kreisangehörige_Gemeinde"},"district":{"key":"03454","name":"Emsland","type":"Landkreis"},"federalState":{"key":"03","name":"Niedersachsen"}},{"name":"Schaftrift","postalCode":"49779","locality":"Oberlangen","municipality":{"key":"03454040","name":"Oberlangen","type":"Kreisangehörige_Gemeinde"},"district":{"key":"03454","name":"Emsland","type":"Landkreis"},"federalState":{"key":"03","name":"Niedersachsen"}},{"name":"Stevens Weg","postalCode":"49779","locality":"Oberlangen","municipality":{"key":"03454040","name":"Oberlangen","type":"Kreisangehörige_Gemeinde"},"district":{"key":"03454","name":"Emsland","type":"Landkreis"},"federalState":{"key":"03","name":"Niedersachsen"}},{"name":"Waldstr.","postalCode":"49779","locality":"Oberlangen","municipality":{"key":"03454040","name":"Oberlangen","type":"Kreisangehörige_Gemeinde"},"district":{"key":"03454","name":"Emsland","type":"Landkreis"},"federalState":{"key":"03","name":"Niedersachsen"}},{"name":"Wilholter Str.","postalCode":"49779","locality":"Oberlangen","municipality":{"key":"03454040","name":"Oberlangen","type":"Kreisangehörige_Gemeinde"},"district":{"key":"03454","name":"Emsland","type":"Landkreis"},"federalState":{"key":"03","name":"Niedersachsen"}},{"name":"Zur Marsch","postalCode":"49779","locality":"Oberlangen","municipality":{"key":"03454040","name":"Oberlangen","type":"Kreisangehörige_Gemeinde"},"district":{"key":"03454","name":"Emsland","type":"Landkreis"},"federalState":{"key":"03","name":"Niedersachsen"}},]