[{"name":"17er Str.","postalCode":"76726","locality":"Germersheim","municipality":{"key":"07334007","name":"Germersheim, Stadt","type":"Stadt"},"district":{"key":"07334","name":"Germersheim","type":"Landkreis"},"federalState":{"key":"07","name":"Rheinland-Pfalz"}},{"name":"Adelheidstr.","postalCode":"76870","locality":"Kandel","municipality":{"key":"07334013","name":"Kandel, Stadt","type":"Stadt"},"district":{"key":"07334","name":"Germersheim","type":"Landkreis"},"federalState":{"key":"07","name":"Rheinland-Pfalz"}},{"name":"Albert-Schweitzer-Str.","postalCode":"76870","locality":"Kandel","municipality":{"key":"07334013","name":"Kandel, Stadt","type":"Stadt"},"district":{"key":"07334","name":"Germersheim","type":"Landkreis"},"federalState":{"key":"07","name":"Rheinland-Pfalz"}},{"name":"Am Dörniggraben","postalCode":"76870","locality":"Kandel","municipality":{"key":"07334013","name":"Kandel, Stadt","type":"Stadt"},"district":{"key":"07334","name":"Germersheim","type":"Landkreis"},"federalState":{"key":"07","name":"Rheinland-Pfalz"}},{"name":"Am Eselspfad","postalCode":"76872","locality":"Erlenbach bei Kandel","municipality":{"key":"07334004","name":"Erlenbach bei Kandel","type":"Kreisangehörige_Gemeinde"},"district":{"key":"07334","name":"Germersheim","type":"Landkreis"},"federalState":{"key":"07","name":"Rheinland-Pfalz"}},{"name":"Am Höhenweg","postalCode":"76870","locality":"Kandel","municipality":{"key":"07334013","name":"Kandel, Stadt","type":"Stadt"},"district":{"key":"07334","name":"Germersheim","type":"Landkreis"},"federalState":{"key":"07","name":"Rheinland-Pfalz"}},{"name":"Am Holderbühl","postalCode":"76870","locality":"Kandel","municipality":{"key":"07334013","name":"Kandel, Stadt","type":"Stadt"},"district":{"key":"07334","name":"Germersheim","type":"Landkreis"},"federalState":{"key":"07","name":"Rheinland-Pfalz"}},{"name":"Am Kornfeld","postalCode":"76870","locality":"Kandel","municipality":{"key":"07334013","name":"Kandel, Stadt","type":"Stadt"},"district":{"key":"07334","name":"Germersheim","type":"Landkreis"},"federalState":{"key":"07","name":"Rheinland-Pfalz"}},{"name":"Am Maisfeld","postalCode":"76870","locality":"Kandel","municipality":{"key":"07334013","name":"Kandel, Stadt","type":"Stadt"},"district":{"key":"07334","name":"Germersheim","type":"Landkreis"},"federalState":{"key":"07","name":"Rheinland-Pfalz"}},{"name":"Am Rapsfeld","postalCode":"76870","locality":"Kandel","municipality":{"key":"07334013","name":"Kandel, Stadt","type":"Stadt"},"district":{"key":"07334","name":"Germersheim","type":"Landkreis"},"federalState":{"key":"07","name":"Rheinland-Pfalz"}},{"name":"Am Schwanenweiher","postalCode":"76870","locality":"Kandel","municipality":{"key":"07334013","name":"Kandel, Stadt","type":"Stadt"},"district":{"key":"07334","name":"Germersheim","type":"Landkreis"},"federalState":{"key":"07","name":"Rheinland-Pfalz"}},{"name":"Am Tabakfeld","postalCode":"76870","locality":"Kandel","municipality":{"key":"07334013","name":"Kandel, Stadt","type":"Stadt"},"district":{"key":"07334","name":"Germersheim","type":"Landkreis"},"federalState":{"key":"07","name":"Rheinland-Pfalz"}},{"name":"Am Wasserturm","postalCode":"76870","locality":"Kandel","municipality":{"key":"07334013","name":"Kandel, Stadt","type":"Stadt"},"district":{"key":"07334","name":"Germersheim","type":"Landkreis"},"federalState":{"key":"07","name":"Rheinland-Pfalz"}},{"name":"Badallee","postalCode":"76870","locality":"Kandel","municipality":{"key":"07334013","name":"Kandel, Stadt","type":"Stadt"},"district":{"key":"07334","name":"Germersheim","type":"Landkreis"},"federalState":{"key":"07","name":"Rheinland-Pfalz"}},{"name":"Bahnhofstr.","postalCode":"76870","locality":"Kandel","municipality":{"key":"07334013","name":"Kandel, Stadt","type":"Stadt"},"district":{"key":"07334","name":"Germersheim","type":"Landkreis"},"federalState":{"key":"07","name":"Rheinland-Pfalz"}},{"name":"Bärenhofpassage","postalCode":"76870","locality":"Kandel","municipality":{"key":"07334013","name":"Kandel, Stadt","type":"Stadt"},"district":{"key":"07334","name":"Germersheim","type":"Landkreis"},"federalState":{"key":"07","name":"Rheinland-Pfalz"}},{"name":"Barthelsmühlring","postalCode":"76870","locality":"Kandel","municipality":{"key":"07334013","name":"Kandel, Stadt","type":"Stadt"},"district":{"key":"07334","name":"Germersheim","type":"Landkreis"},"federalState":{"key":"07","name":"Rheinland-Pfalz"}},{"name":"Beethovenstr.","postalCode":"76870","locality":"Kandel","municipality":{"key":"07334013","name":"Kandel, Stadt","type":"Stadt"},"district":{"key":"07334","name":"Germersheim","type":"Landkreis"},"federalState":{"key":"07","name":"Rheinland-Pfalz"}},{"name":"Behringstr.","postalCode":"76870","locality":"Kandel","municipality":{"key":"07334013","name":"Kandel, Stadt","type":"Stadt"},"district":{"key":"07334","name":"Germersheim","type":"Landkreis"},"federalState":{"key":"07","name":"Rheinland-Pfalz"}},{"name":"Berwartsteinstr.","postalCode":"76870","locality":"Kandel","municipality":{"key":"07334013","name":"Kandel, Stadt","type":"Stadt"},"district":{"key":"07334","name":"Germersheim","type":"Landkreis"},"federalState":{"key":"07","name":"Rheinland-Pfalz"}},{"name":"Birkenstr.","postalCode":"76870","locality":"Kandel","municipality":{"key":"07334013","name":"Kandel, Stadt","type":"Stadt"},"district":{"key":"07334","name":"Germersheim","type":"Landkreis"},"federalState":{"key":"07","name":"Rheinland-Pfalz"}},{"name":"Bismarckstr.","postalCode":"76870","locality":"Kandel","municipality":{"key":"07334013","name":"Kandel, Stadt","type":"Stadt"},"district":{"key":"07334","name":"Germersheim","type":"Landkreis"},"federalState":{"key":"07","name":"Rheinland-Pfalz"}},{"name":"Brehmstr.","postalCode":"76870","locality":"Kandel","municipality":{"key":"07334013","name":"Kandel, Stadt","type":"Stadt"},"district":{"key":"07334","name":"Germersheim","type":"Landkreis"},"federalState":{"key":"07","name":"Rheinland-Pfalz"}},{"name":"Briandstr.","postalCode":"76870","locality":"Kandel","municipality":{"key":"07334013","name":"Kandel, Stadt","type":"Stadt"},"district":{"key":"07334","name":"Germersheim","type":"Landkreis"},"federalState":{"key":"07","name":"Rheinland-Pfalz"}},{"name":"Burgenring","postalCode":"76870","locality":"Kandel","municipality":{"key":"07334013","name":"Kandel, Stadt","type":"Stadt"},"district":{"key":"07334","name":"Germersheim","type":"Landkreis"},"federalState":{"key":"07","name":"Rheinland-Pfalz"}},{"name":"Buschurweg","postalCode":"76870","locality":"Kandel","municipality":{"key":"07334013","name":"Kandel, Stadt","type":"Stadt"},"district":{"key":"07334","name":"Germersheim","type":"Landkreis"},"federalState":{"key":"07","name":"Rheinland-Pfalz"}},{"name":"Dierbachweg","postalCode":"76870","locality":"Kandel","municipality":{"key":"07334013","name":"Kandel, Stadt","type":"Stadt"},"district":{"key":"07334","name":"Germersheim","type":"Landkreis"},"federalState":{"key":"07","name":"Rheinland-Pfalz"}},{"name":"Eichendorffstr.","postalCode":"76870","locality":"Kandel","municipality":{"key":"07334013","name":"Kandel, Stadt","type":"Stadt"},"district":{"key":"07334","name":"Germersheim","type":"Landkreis"},"federalState":{"key":"07","name":"Rheinland-Pfalz"}},{"name":"Elsässer Str.","postalCode":"76870","locality":"Kandel","municipality":{"key":"07334013","name":"Kandel, Stadt","type":"Stadt"},"district":{"key":"07334","name":"Germersheim","type":"Landkreis"},"federalState":{"key":"07","name":"Rheinland-Pfalz"}},{"name":"Erlenbachweg","postalCode":"76870","locality":"Kandel","municipality":{"key":"07334013","name":"Kandel, Stadt","type":"Stadt"},"district":{"key":"07334","name":"Germersheim","type":"Landkreis"},"federalState":{"key":"07","name":"Rheinland-Pfalz"}},{"name":"Feierabendweg","postalCode":"76870","locality":"Kandel","municipality":{"key":"07334013","name":"Kandel, Stadt","type":"Stadt"},"district":{"key":"07334","name":"Germersheim","type":"Landkreis"},"federalState":{"key":"07","name":"Rheinland-Pfalz"}},{"name":"Feuerbachstr.","postalCode":"76870","locality":"Kandel","municipality":{"key":"07334013","name":"Kandel, Stadt","type":"Stadt"},"district":{"key":"07334","name":"Germersheim","type":"Landkreis"},"federalState":{"key":"07","name":"Rheinland-Pfalz"}},{"name":"Fliederweg","postalCode":"76870","locality":"Kandel","municipality":{"key":"07334013","name":"Kandel, Stadt","type":"Stadt"},"district":{"key":"07334","name":"Germersheim","type":"Landkreis"},"federalState":{"key":"07","name":"Rheinland-Pfalz"}},{"name":"Friedhofsweg","postalCode":"76872","locality":"Erlenbach bei Kandel","municipality":{"key":"07334004","name":"Erlenbach bei Kandel","type":"Kreisangehörige_Gemeinde"},"district":{"key":"07334","name":"Germersheim","type":"Landkreis"},"federalState":{"key":"07","name":"Rheinland-Pfalz"}},{"name":"Fuchsweg","postalCode":"76870","locality":"Kandel","municipality":{"key":"07334013","name":"Kandel, Stadt","type":"Stadt"},"district":{"key":"07334","name":"Germersheim","type":"Landkreis"},"federalState":{"key":"07","name":"Rheinland-Pfalz"}},{"name":"Gartenstr.","postalCode":"76870","locality":"Kandel","municipality":{"key":"07334013","name":"Kandel, Stadt","type":"Stadt"},"district":{"key":"07334","name":"Germersheim","type":"Landkreis"},"federalState":{"key":"07","name":"Rheinland-Pfalz"}},{"name":"Gartenweg","postalCode":"76872","locality":"Erlenbach bei Kandel","municipality":{"key":"07334004","name":"Erlenbach bei Kandel","type":"Kreisangehörige_Gemeinde"},"district":{"key":"07334","name":"Germersheim","type":"Landkreis"},"federalState":{"key":"07","name":"Rheinland-Pfalz"}},{"name":"Georg-Todt-Str.","postalCode":"76870","locality":"Kandel","municipality":{"key":"07334013","name":"Kandel, Stadt","type":"Stadt"},"district":{"key":"07334","name":"Germersheim","type":"Landkreis"},"federalState":{"key":"07","name":"Rheinland-Pfalz"}},{"name":"Goethestr.","postalCode":"76870","locality":"Kandel","municipality":{"key":"07334013","name":"Kandel, Stadt","type":"Stadt"},"district":{"key":"07334","name":"Germersheim","type":"Landkreis"},"federalState":{"key":"07","name":"Rheinland-Pfalz"}},{"name":"Grünewaldstr.","postalCode":"76870","locality":"Kandel","municipality":{"key":"07334013","name":"Kandel, Stadt","type":"Stadt"},"district":{"key":"07334","name":"Germersheim","type":"Landkreis"},"federalState":{"key":"07","name":"Rheinland-Pfalz"}},{"name":"Guttenbergstr.","postalCode":"76870","locality":"Kandel","municipality":{"key":"07334013","name":"Kandel, Stadt","type":"Stadt"},"district":{"key":"07334","name":"Germersheim","type":"Landkreis"},"federalState":{"key":"07","name":"Rheinland-Pfalz"}},{"name":"Haardtstr.","postalCode":"76870","locality":"Kandel","municipality":{"key":"07334013","name":"Kandel, Stadt","type":"Stadt"},"district":{"key":"07334","name":"Germersheim","type":"Landkreis"},"federalState":{"key":"07","name":"Rheinland-Pfalz"}},{"name":"Hagstr.","postalCode":"76872","locality":"Erlenbach bei Kandel","municipality":{"key":"07334004","name":"Erlenbach bei Kandel","type":"Kreisangehörige_Gemeinde"},"district":{"key":"07334","name":"Germersheim","type":"Landkreis"},"federalState":{"key":"07","name":"Rheinland-Pfalz"}},{"name":"Hainlachestr.","postalCode":"76872","locality":"Erlenbach bei Kandel","municipality":{"key":"07334004","name":"Erlenbach bei Kandel","type":"Kreisangehörige_Gemeinde"},"district":{"key":"07334","name":"Germersheim","type":"Landkreis"},"federalState":{"key":"07","name":"Rheinland-Pfalz"}},{"name":"Händelstr.","postalCode":"76870","locality":"Kandel","municipality":{"key":"07334013","name":"Kandel, Stadt","type":"Stadt"},"district":{"key":"07334","name":"Germersheim","type":"Landkreis"},"federalState":{"key":"07","name":"Rheinland-Pfalz"}},{"name":"Hans-Thoma-Str.","postalCode":"76870","locality":"Kandel","municipality":{"key":"07334013","name":"Kandel, Stadt","type":"Stadt"},"district":{"key":"07334","name":"Germersheim","type":"Landkreis"},"federalState":{"key":"07","name":"Rheinland-Pfalz"}},{"name":"Haueisenstr.","postalCode":"76870","locality":"Kandel","municipality":{"key":"07334013","name":"Kandel, Stadt","type":"Stadt"},"district":{"key":"07334","name":"Germersheim","type":"Landkreis"},"federalState":{"key":"07","name":"Rheinland-Pfalz"}},{"name":"Hauptstr.","postalCode":"76870","locality":"Kandel","municipality":{"key":"07334013","name":"Kandel, Stadt","type":"Stadt"},"district":{"key":"07334","name":"Germersheim","type":"Landkreis"},"federalState":{"key":"07","name":"Rheinland-Pfalz"}},{"name":"Hauptstr.","postalCode":"76872","locality":"Erlenbach bei Kandel","municipality":{"key":"07334004","name":"Erlenbach bei Kandel","type":"Kreisangehörige_Gemeinde"},"district":{"key":"07334","name":"Germersheim","type":"Landkreis"},"federalState":{"key":"07","name":"Rheinland-Pfalz"}},{"name":"Haynaerstr.","postalCode":"76872","locality":"Erlenbach bei Kandel","municipality":{"key":"07334004","name":"Erlenbach bei Kandel","type":"Kreisangehörige_Gemeinde"},"district":{"key":"07334","name":"Germersheim","type":"Landkreis"},"federalState":{"key":"07","name":"Rheinland-Pfalz"}},{"name":"Heidenäckerstr.","postalCode":"76872","locality":"Erlenbach bei Kandel","municipality":{"key":"07334004","name":"Erlenbach bei Kandel","type":"Kreisangehörige_Gemeinde"},"district":{"key":"07334","name":"Germersheim","type":"Landkreis"},"federalState":{"key":"07","name":"Rheinland-Pfalz"}},{"name":"Herrenmühlweg","postalCode":"76872","locality":"Erlenbach bei Kandel","municipality":{"key":"07334004","name":"Erlenbach bei Kandel","type":"Kreisangehörige_Gemeinde"},"district":{"key":"07334","name":"Germersheim","type":"Landkreis"},"federalState":{"key":"07","name":"Rheinland-Pfalz"}},{"name":"Höfener Ring","postalCode":"76870","locality":"Kandel","municipality":{"key":"07334013","name":"Kandel, Stadt","type":"Stadt"},"district":{"key":"07334","name":"Germersheim","type":"Landkreis"},"federalState":{"key":"07","name":"Rheinland-Pfalz"}},{"name":"Höhenweg","postalCode":"76870","locality":"Kandel","municipality":{"key":"07334013","name":"Kandel, Stadt","type":"Stadt"},"district":{"key":"07334","name":"Germersheim","type":"Landkreis"},"federalState":{"key":"07","name":"Rheinland-Pfalz"}},{"name":"Holbeinstr.","postalCode":"76870","locality":"Kandel","municipality":{"key":"07334013","name":"Kandel, Stadt","type":"Stadt"},"district":{"key":"07334","name":"Germersheim","type":"Landkreis"},"federalState":{"key":"07","name":"Rheinland-Pfalz"}},{"name":"Holunderweg","postalCode":"76870","locality":"Kandel","municipality":{"key":"07334013","name":"Kandel, Stadt","type":"Stadt"},"district":{"key":"07334","name":"Germersheim","type":"Landkreis"},"federalState":{"key":"07","name":"Rheinland-Pfalz"}},{"name":"Honiggässel","postalCode":"76870","locality":"Kandel","municipality":{"key":"07334013","name":"Kandel, Stadt","type":"Stadt"},"district":{"key":"07334","name":"Germersheim","type":"Landkreis"},"federalState":{"key":"07","name":"Rheinland-Pfalz"}},{"name":"Horstring","postalCode":"76870","locality":"Kandel","municipality":{"key":"07334013","name":"Kandel, Stadt","type":"Stadt"},"district":{"key":"07334","name":"Germersheim","type":"Landkreis"},"federalState":{"key":"07","name":"Rheinland-Pfalz"}},{"name":"Hubstr.","postalCode":"76870","locality":"Kandel","municipality":{"key":"07334013","name":"Kandel, Stadt","type":"Stadt"},"district":{"key":"07334","name":"Germersheim","type":"Landkreis"},"federalState":{"key":"07","name":"Rheinland-Pfalz"}},{"name":"Humboldtstr.","postalCode":"76870","locality":"Kandel","municipality":{"key":"07334013","name":"Kandel, Stadt","type":"Stadt"},"district":{"key":"07334","name":"Germersheim","type":"Landkreis"},"federalState":{"key":"07","name":"Rheinland-Pfalz"}},{"name":"Im Apfelgarten","postalCode":"76870","locality":"Kandel","municipality":{"key":"07334013","name":"Kandel, Stadt","type":"Stadt"},"district":{"key":"07334","name":"Germersheim","type":"Landkreis"},"federalState":{"key":"07","name":"Rheinland-Pfalz"}},{"name":"Im Kirschgarten","postalCode":"76870","locality":"Kandel","municipality":{"key":"07334013","name":"Kandel, Stadt","type":"Stadt"},"district":{"key":"07334","name":"Germersheim","type":"Landkreis"},"federalState":{"key":"07","name":"Rheinland-Pfalz"}},{"name":"Im Krautgarten","postalCode":"76870","locality":"Kandel","municipality":{"key":"07334013","name":"Kandel, Stadt","type":"Stadt"},"district":{"key":"07334","name":"Germersheim","type":"Landkreis"},"federalState":{"key":"07","name":"Rheinland-Pfalz"}},{"name":"Im Mirabellengarten","postalCode":"76870","locality":"Kandel","municipality":{"key":"07334013","name":"Kandel, Stadt","type":"Stadt"},"district":{"key":"07334","name":"Germersheim","type":"Landkreis"},"federalState":{"key":"07","name":"Rheinland-Pfalz"}},{"name":"Im Niederfeld","postalCode":"76872","locality":"Erlenbach bei Kandel","municipality":{"key":"07334004","name":"Erlenbach bei Kandel","type":"Kreisangehörige_Gemeinde"},"district":{"key":"07334","name":"Germersheim","type":"Landkreis"},"federalState":{"key":"07","name":"Rheinland-Pfalz"}},{"name":"Im Pfirsichgarten","postalCode":"76870","locality":"Kandel","municipality":{"key":"07334013","name":"Kandel, Stadt","type":"Stadt"},"district":{"key":"07334","name":"Germersheim","type":"Landkreis"},"federalState":{"key":"07","name":"Rheinland-Pfalz"}},{"name":"Im Stadtkern","postalCode":"76870","locality":"Kandel","municipality":{"key":"07334013","name":"Kandel, Stadt","type":"Stadt"},"district":{"key":"07334","name":"Germersheim","type":"Landkreis"},"federalState":{"key":"07","name":"Rheinland-Pfalz"}},{"name":"Im Storchennest","postalCode":"76872","locality":"Erlenbach bei Kandel","municipality":{"key":"07334004","name":"Erlenbach bei Kandel","type":"Kreisangehörige_Gemeinde"},"district":{"key":"07334","name":"Germersheim","type":"Landkreis"},"federalState":{"key":"07","name":"Rheinland-Pfalz"}},{"name":"In den Rötzwiesen","postalCode":"76870","locality":"Kandel","municipality":{"key":"07334013","name":"Kandel, Stadt","type":"Stadt"},"district":{"key":"07334","name":"Germersheim","type":"Landkreis"},"federalState":{"key":"07","name":"Rheinland-Pfalz"}},{"name":"In der Gärtnerei","postalCode":"76872","locality":"Erlenbach bei Kandel","municipality":{"key":"07334004","name":"Erlenbach bei Kandel","type":"Kreisangehörige_Gemeinde"},"district":{"key":"07334","name":"Germersheim","type":"Landkreis"},"federalState":{"key":"07","name":"Rheinland-Pfalz"}},{"name":"In der Zelch","postalCode":"76870","locality":"Kandel","municipality":{"key":"07334013","name":"Kandel, Stadt","type":"Stadt"},"district":{"key":"07334","name":"Germersheim","type":"Landkreis"},"federalState":{"key":"07","name":"Rheinland-Pfalz"}},{"name":"Industriestr.","postalCode":"76870","locality":"Kandel","municipality":{"key":"07334013","name":"Kandel, Stadt","type":"Stadt"},"district":{"key":"07334","name":"Germersheim","type":"Landkreis"},"federalState":{"key":"07","name":"Rheinland-Pfalz"}},{"name":"Jahnstr.","postalCode":"76870","locality":"Kandel","municipality":{"key":"07334013","name":"Kandel, Stadt","type":"Stadt"},"district":{"key":"07334","name":"Germersheim","type":"Landkreis"},"federalState":{"key":"07","name":"Rheinland-Pfalz"}},{"name":"Josef-David-Str.","postalCode":"76870","locality":"Kandel","municipality":{"key":"07334013","name":"Kandel, Stadt","type":"Stadt"},"district":{"key":"07334","name":"Germersheim","type":"Landkreis"},"federalState":{"key":"07","name":"Rheinland-Pfalz"}},{"name":"Juststr.","postalCode":"76870","locality":"Kandel","municipality":{"key":"07334013","name":"Kandel, Stadt","type":"Stadt"},"district":{"key":"07334","name":"Germersheim","type":"Landkreis"},"federalState":{"key":"07","name":"Rheinland-Pfalz"}},{"name":"Kandeler Str.","postalCode":"76872","locality":"Erlenbach bei Kandel","municipality":{"key":"07334004","name":"Erlenbach bei Kandel","type":"Kreisangehörige_Gemeinde"},"district":{"key":"07334","name":"Germersheim","type":"Landkreis"},"federalState":{"key":"07","name":"Rheinland-Pfalz"}},{"name":"Kastanienweg","postalCode":"76870","locality":"Kandel","municipality":{"key":"07334013","name":"Kandel, Stadt","type":"Stadt"},"district":{"key":"07334","name":"Germersheim","type":"Landkreis"},"federalState":{"key":"07","name":"Rheinland-Pfalz"}},{"name":"Kirchenweg","postalCode":"76870","locality":"Kandel","municipality":{"key":"07334013","name":"Kandel, Stadt","type":"Stadt"},"district":{"key":"07334","name":"Germersheim","type":"Landkreis"},"federalState":{"key":"07","name":"Rheinland-Pfalz"}},{"name":"Kirchgasse","postalCode":"76870","locality":"Kandel","municipality":{"key":"07334013","name":"Kandel, Stadt","type":"Stadt"},"district":{"key":"07334","name":"Germersheim","type":"Landkreis"},"federalState":{"key":"07","name":"Rheinland-Pfalz"}},{"name":"Klärstr.","postalCode":"76870","locality":"Kandel","municipality":{"key":"07334013","name":"Kandel, Stadt","type":"Stadt"},"district":{"key":"07334","name":"Germersheim","type":"Landkreis"},"federalState":{"key":"07","name":"Rheinland-Pfalz"}},{"name":"Kneipstr.","postalCode":"76870","locality":"Kandel","municipality":{"key":"07334013","name":"Kandel, Stadt","type":"Stadt"},"district":{"key":"07334","name":"Germersheim","type":"Landkreis"},"federalState":{"key":"07","name":"Rheinland-Pfalz"}},{"name":"Kollwitzstr.","postalCode":"76870","locality":"Kandel","municipality":{"key":"07334013","name":"Kandel, Stadt","type":"Stadt"},"district":{"key":"07334","name":"Germersheim","type":"Landkreis"},"federalState":{"key":"07","name":"Rheinland-Pfalz"}},{"name":"Kolpingstr.","postalCode":"76870","locality":"Kandel","municipality":{"key":"07334013","name":"Kandel, Stadt","type":"Stadt"},"district":{"key":"07334","name":"Germersheim","type":"Landkreis"},"federalState":{"key":"07","name":"Rheinland-Pfalz"}},{"name":"Kropsburgstr.","postalCode":"76870","locality":"Kandel","municipality":{"key":"07334013","name":"Kandel, Stadt","type":"Stadt"},"district":{"key":"07334","name":"Germersheim","type":"Landkreis"},"federalState":{"key":"07","name":"Rheinland-Pfalz"}},{"name":"Landauer Str.","postalCode":"76870","locality":"Kandel","municipality":{"key":"07334013","name":"Kandel, Stadt","type":"Stadt"},"district":{"key":"07334","name":"Germersheim","type":"Landkreis"},"federalState":{"key":"07","name":"Rheinland-Pfalz"}},{"name":"Lauterburger Str.","postalCode":"76870","locality":"Kandel","municipality":{"key":"07334013","name":"Kandel, Stadt","type":"Stadt"},"district":{"key":"07334","name":"Germersheim","type":"Landkreis"},"federalState":{"key":"07","name":"Rheinland-Pfalz"}},{"name":"Lavendelweg","postalCode":"76870","locality":"Kandel","municipality":{"key":"07334013","name":"Kandel, Stadt","type":"Stadt"},"district":{"key":"07334","name":"Germersheim","type":"Landkreis"},"federalState":{"key":"07","name":"Rheinland-Pfalz"}},{"name":"Leistenmühle","postalCode":"76870","locality":"Kandel","municipality":{"key":"07334013","name":"Kandel, Stadt","type":"Stadt"},"district":{"key":"07334","name":"Germersheim","type":"Landkreis"},"federalState":{"key":"07","name":"Rheinland-Pfalz"}},{"name":"Lessingstr.","postalCode":"76870","locality":"Kandel","municipality":{"key":"07334013","name":"Kandel, Stadt","type":"Stadt"},"district":{"key":"07334","name":"Germersheim","type":"Landkreis"},"federalState":{"key":"07","name":"Rheinland-Pfalz"}},{"name":"Lindenstr.","postalCode":"76870","locality":"Kandel","municipality":{"key":"07334013","name":"Kandel, Stadt","type":"Stadt"},"district":{"key":"07334","name":"Germersheim","type":"Landkreis"},"federalState":{"key":"07","name":"Rheinland-Pfalz"}},{"name":"Louis-Pasteur-Str.","postalCode":"76870","locality":"Kandel","municipality":{"key":"07334013","name":"Kandel, Stadt","type":"Stadt"},"district":{"key":"07334","name":"Germersheim","type":"Landkreis"},"federalState":{"key":"07","name":"Rheinland-Pfalz"}},{"name":"Luitpoldstr.","postalCode":"76870","locality":"Kandel","municipality":{"key":"07334013","name":"Kandel, Stadt","type":"Stadt"},"district":{"key":"07334","name":"Germersheim","type":"Landkreis"},"federalState":{"key":"07","name":"Rheinland-Pfalz"}},{"name":"Madenburgstr.","postalCode":"76870","locality":"Kandel","municipality":{"key":"07334013","name":"Kandel, Stadt","type":"Stadt"},"district":{"key":"07334","name":"Germersheim","type":"Landkreis"},"federalState":{"key":"07","name":"Rheinland-Pfalz"}},{"name":"Mandelweg","postalCode":"76870","locality":"Kandel","municipality":{"key":"07334013","name":"Kandel, Stadt","type":"Stadt"},"district":{"key":"07334","name":"Germersheim","type":"Landkreis"},"federalState":{"key":"07","name":"Rheinland-Pfalz"}},{"name":"Marktstr.","postalCode":"76870","locality":"Kandel","municipality":{"key":"07334013","name":"Kandel, Stadt","type":"Stadt"},"district":{"key":"07334","name":"Germersheim","type":"Landkreis"},"federalState":{"key":"07","name":"Rheinland-Pfalz"}},{"name":"Mozartstr.","postalCode":"76870","locality":"Kandel","municipality":{"key":"07334013","name":"Kandel, Stadt","type":"Stadt"},"district":{"key":"07334","name":"Germersheim","type":"Landkreis"},"federalState":{"key":"07","name":"Rheinland-Pfalz"}},{"name":"Mundostr.","postalCode":"76870","locality":"Kandel","municipality":{"key":"07334013","name":"Kandel, Stadt","type":"Stadt"},"district":{"key":"07334","name":"Germersheim","type":"Landkreis"},"federalState":{"key":"07","name":"Rheinland-Pfalz"}},{"name":"Nansenstr.","postalCode":"76870","locality":"Kandel","municipality":{"key":"07334013","name":"Kandel, Stadt","type":"Stadt"},"district":{"key":"07334","name":"Germersheim","type":"Landkreis"},"federalState":{"key":"07","name":"Rheinland-Pfalz"}},{"name":"Narzissenweg","postalCode":"76870","locality":"Kandel","municipality":{"key":"07334013","name":"Kandel, Stadt","type":"Stadt"},"district":{"key":"07334","name":"Germersheim","type":"Landkreis"},"federalState":{"key":"07","name":"Rheinland-Pfalz"}},{"name":"Nußbaumallee","postalCode":"76870","locality":"Kandel","municipality":{"key":"07334013","name":"Kandel, Stadt","type":"Stadt"},"district":{"key":"07334","name":"Germersheim","type":"Landkreis"},"federalState":{"key":"07","name":"Rheinland-Pfalz"}},{"name":"Oberamtsstr.","postalCode":"76726","locality":"Germersheim","municipality":{"key":"07334007","name":"Germersheim, Stadt","type":"Stadt"},"district":{"key":"07334","name":"Germersheim","type":"Landkreis"},"federalState":{"key":"07","name":"Rheinland-Pfalz"}},{"name":"Orffstr.","postalCode":"76726","locality":"Germersheim","municipality":{"key":"07334007","name":"Germersheim, Stadt","type":"Stadt"},"district":{"key":"07334","name":"Germersheim","type":"Landkreis"},"federalState":{"key":"07","name":"Rheinland-Pfalz"}},{"name":"Otto-Hahn-Str.","postalCode":"76726","locality":"Germersheim","municipality":{"key":"07334007","name":"Germersheim, Stadt","type":"Stadt"},"district":{"key":"07334","name":"Germersheim","type":"Landkreis"},"federalState":{"key":"07","name":"Rheinland-Pfalz"}},{"name":"Pestalozzistr.","postalCode":"76870","locality":"Kandel","municipality":{"key":"07334013","name":"Kandel, Stadt","type":"Stadt"},"district":{"key":"07334","name":"Germersheim","type":"Landkreis"},"federalState":{"key":"07","name":"Rheinland-Pfalz"}},{"name":"Purrmannstr.","postalCode":"76870","locality":"Kandel","municipality":{"key":"07334013","name":"Kandel, Stadt","type":"Stadt"},"district":{"key":"07334","name":"Germersheim","type":"Landkreis"},"federalState":{"key":"07","name":"Rheinland-Pfalz"}},{"name":"Queichstr.","postalCode":"76726","locality":"Germersheim","municipality":{"key":"07334007","name":"Germersheim, Stadt","type":"Stadt"},"district":{"key":"07334","name":"Germersheim","type":"Landkreis"},"federalState":{"key":"07","name":"Rheinland-Pfalz"}},{"name":"Raiffeisenstr.","postalCode":"76870","locality":"Kandel","municipality":{"key":"07334013","name":"Kandel, Stadt","type":"Stadt"},"district":{"key":"07334","name":"Germersheim","type":"Landkreis"},"federalState":{"key":"07","name":"Rheinland-Pfalz"}},{"name":"Rathausgasse","postalCode":"76870","locality":"Kandel","municipality":{"key":"07334013","name":"Kandel, Stadt","type":"Stadt"},"district":{"key":"07334","name":"Germersheim","type":"Landkreis"},"federalState":{"key":"07","name":"Rheinland-Pfalz"}},{"name":"Rebenweg","postalCode":"76870","locality":"Kandel","municipality":{"key":"07334013","name":"Kandel, Stadt","type":"Stadt"},"district":{"key":"07334","name":"Germersheim","type":"Landkreis"},"federalState":{"key":"07","name":"Rheinland-Pfalz"}},{"name":"Rheinstr.","postalCode":"76870","locality":"Kandel","municipality":{"key":"07334013","name":"Kandel, Stadt","type":"Stadt"},"district":{"key":"07334","name":"Germersheim","type":"Landkreis"},"federalState":{"key":"07","name":"Rheinland-Pfalz"}},{"name":"Rheinzaberner Str.","postalCode":"76870","locality":"Kandel","municipality":{"key":"07334013","name":"Kandel, Stadt","type":"Stadt"},"district":{"key":"07334","name":"Germersheim","type":"Landkreis"},"federalState":{"key":"07","name":"Rheinland-Pfalz"}},{"name":"Rietburgstr.","postalCode":"76870","locality":"Kandel","municipality":{"key":"07334013","name":"Kandel, Stadt","type":"Stadt"},"district":{"key":"07334","name":"Germersheim","type":"Landkreis"},"federalState":{"key":"07","name":"Rheinland-Pfalz"}},{"name":"Robert-Koch-Str.","postalCode":"76870","locality":"Kandel","municipality":{"key":"07334013","name":"Kandel, Stadt","type":"Stadt"},"district":{"key":"07334","name":"Germersheim","type":"Landkreis"},"federalState":{"key":"07","name":"Rheinland-Pfalz"}},{"name":"Römerstr.","postalCode":"76870","locality":"Kandel","municipality":{"key":"07334013","name":"Kandel, Stadt","type":"Stadt"},"district":{"key":"07334","name":"Germersheim","type":"Landkreis"},"federalState":{"key":"07","name":"Rheinland-Pfalz"}},{"name":"Röntgenstr.","postalCode":"76870","locality":"Kandel","municipality":{"key":"07334013","name":"Kandel, Stadt","type":"Stadt"},"district":{"key":"07334","name":"Germersheim","type":"Landkreis"},"federalState":{"key":"07","name":"Rheinland-Pfalz"}},{"name":"Rosenweg","postalCode":"76870","locality":"Kandel","municipality":{"key":"07334013","name":"Kandel, Stadt","type":"Stadt"},"district":{"key":"07334","name":"Germersheim","type":"Landkreis"},"federalState":{"key":"07","name":"Rheinland-Pfalz"}},{"name":"Rotkreuzstr.","postalCode":"76870","locality":"Kandel","municipality":{"key":"07334013","name":"Kandel, Stadt","type":"Stadt"},"district":{"key":"07334","name":"Germersheim","type":"Landkreis"},"federalState":{"key":"07","name":"Rheinland-Pfalz"}},{"name":"Saarstr.","postalCode":"76870","locality":"Kandel","municipality":{"key":"07334013","name":"Kandel, Stadt","type":"Stadt"},"district":{"key":"07334","name":"Germersheim","type":"Landkreis"},"federalState":{"key":"07","name":"Rheinland-Pfalz"}},{"name":"Sauerbruchstr.","postalCode":"76870","locality":"Kandel","municipality":{"key":"07334013","name":"Kandel, Stadt","type":"Stadt"},"district":{"key":"07334","name":"Germersheim","type":"Landkreis"},"federalState":{"key":"07","name":"Rheinland-Pfalz"}},{"name":"Scheffelstr.","postalCode":"76870","locality":"Kandel","municipality":{"key":"07334013","name":"Kandel, Stadt","type":"Stadt"},"district":{"key":"07334","name":"Germersheim","type":"Landkreis"},"federalState":{"key":"07","name":"Rheinland-Pfalz"}},{"name":"Schillerstr.","postalCode":"76870","locality":"Kandel","municipality":{"key":"07334013","name":"Kandel, Stadt","type":"Stadt"},"district":{"key":"07334","name":"Germersheim","type":"Landkreis"},"federalState":{"key":"07","name":"Rheinland-Pfalz"}},{"name":"Schubertstr.","postalCode":"76870","locality":"Kandel","municipality":{"key":"07334013","name":"Kandel, Stadt","type":"Stadt"},"district":{"key":"07334","name":"Germersheim","type":"Landkreis"},"federalState":{"key":"07","name":"Rheinland-Pfalz"}},{"name":"Schumanstr.","postalCode":"76870","locality":"Kandel","municipality":{"key":"07334013","name":"Kandel, Stadt","type":"Stadt"},"district":{"key":"07334","name":"Germersheim","type":"Landkreis"},"federalState":{"key":"07","name":"Rheinland-Pfalz"}},{"name":"Slevogtstr.","postalCode":"76870","locality":"Kandel","municipality":{"key":"07334013","name":"Kandel, Stadt","type":"Stadt"},"district":{"key":"07334","name":"Germersheim","type":"Landkreis"},"federalState":{"key":"07","name":"Rheinland-Pfalz"}},{"name":"Sommerstr.","postalCode":"76870","locality":"Kandel","municipality":{"key":"07334013","name":"Kandel, Stadt","type":"Stadt"},"district":{"key":"07334","name":"Germersheim","type":"Landkreis"},"federalState":{"key":"07","name":"Rheinland-Pfalz"}},{"name":"Sonnenblumenweg","postalCode":"76870","locality":"Kandel","municipality":{"key":"07334013","name":"Kandel, Stadt","type":"Stadt"},"district":{"key":"07334","name":"Germersheim","type":"Landkreis"},"federalState":{"key":"07","name":"Rheinland-Pfalz"}},{"name":"Sonnenweg","postalCode":"76870","locality":"Kandel","municipality":{"key":"07334013","name":"Kandel, Stadt","type":"Stadt"},"district":{"key":"07334","name":"Germersheim","type":"Landkreis"},"federalState":{"key":"07","name":"Rheinland-Pfalz"}},{"name":"Steinweilerer Str.","postalCode":"76870","locality":"Kandel","municipality":{"key":"07334013","name":"Kandel, Stadt","type":"Stadt"},"district":{"key":"07334","name":"Germersheim","type":"Landkreis"},"federalState":{"key":"07","name":"Rheinland-Pfalz"}},{"name":"Stresemannstr.","postalCode":"76870","locality":"Kandel","municipality":{"key":"07334013","name":"Kandel, Stadt","type":"Stadt"},"district":{"key":"07334","name":"Germersheim","type":"Landkreis"},"federalState":{"key":"07","name":"Rheinland-Pfalz"}},{"name":"Südendstr.","postalCode":"76870","locality":"Kandel","municipality":{"key":"07334013","name":"Kandel, Stadt","type":"Stadt"},"district":{"key":"07334","name":"Germersheim","type":"Landkreis"},"federalState":{"key":"07","name":"Rheinland-Pfalz"}},{"name":"Trifelsstr.","postalCode":"76870","locality":"Kandel","municipality":{"key":"07334013","name":"Kandel, Stadt","type":"Stadt"},"district":{"key":"07334","name":"Germersheim","type":"Landkreis"},"federalState":{"key":"07","name":"Rheinland-Pfalz"}},{"name":"Tulpenweg","postalCode":"76870","locality":"Kandel","municipality":{"key":"07334013","name":"Kandel, Stadt","type":"Stadt"},"district":{"key":"07334","name":"Germersheim","type":"Landkreis"},"federalState":{"key":"07","name":"Rheinland-Pfalz"}},{"name":"Turmgasse","postalCode":"76870","locality":"Kandel","municipality":{"key":"07334013","name":"Kandel, Stadt","type":"Stadt"},"district":{"key":"07334","name":"Germersheim","type":"Landkreis"},"federalState":{"key":"07","name":"Rheinland-Pfalz"}},{"name":"Uhlandstr.","postalCode":"76870","locality":"Kandel","municipality":{"key":"07334013","name":"Kandel, Stadt","type":"Stadt"},"district":{"key":"07334","name":"Germersheim","type":"Landkreis"},"federalState":{"key":"07","name":"Rheinland-Pfalz"}},{"name":"Veilchenweg","postalCode":"76870","locality":"Kandel","municipality":{"key":"07334013","name":"Kandel, Stadt","type":"Stadt"},"district":{"key":"07334","name":"Germersheim","type":"Landkreis"},"federalState":{"key":"07","name":"Rheinland-Pfalz"}},{"name":"Virchowstr.","postalCode":"76870","locality":"Kandel","municipality":{"key":"07334013","name":"Kandel, Stadt","type":"Stadt"},"district":{"key":"07334","name":"Germersheim","type":"Landkreis"},"federalState":{"key":"07","name":"Rheinland-Pfalz"}},{"name":"Von-Leiningen-Str.","postalCode":"76870","locality":"Kandel","municipality":{"key":"07334013","name":"Kandel, Stadt","type":"Stadt"},"district":{"key":"07334","name":"Germersheim","type":"Landkreis"},"federalState":{"key":"07","name":"Rheinland-Pfalz"}},{"name":"Waldstr.","postalCode":"76870","locality":"Kandel","municipality":{"key":"07334013","name":"Kandel, Stadt","type":"Stadt"},"district":{"key":"07334","name":"Germersheim","type":"Landkreis"},"federalState":{"key":"07","name":"Rheinland-Pfalz"}},{"name":"Waldstr.","postalCode":"76872","locality":"Erlenbach bei Kandel","municipality":{"key":"07334004","name":"Erlenbach bei Kandel","type":"Kreisangehörige_Gemeinde"},"district":{"key":"07334","name":"Germersheim","type":"Landkreis"},"federalState":{"key":"07","name":"Rheinland-Pfalz"}},{"name":"Wasgaustr.","postalCode":"76870","locality":"Kandel","municipality":{"key":"07334013","name":"Kandel, Stadt","type":"Stadt"},"district":{"key":"07334","name":"Germersheim","type":"Landkreis"},"federalState":{"key":"07","name":"Rheinland-Pfalz"}},{"name":"Wegelnburgstr.","postalCode":"76870","locality":"Kandel","municipality":{"key":"07334013","name":"Kandel, Stadt","type":"Stadt"},"district":{"key":"07334","name":"Germersheim","type":"Landkreis"},"federalState":{"key":"07","name":"Rheinland-Pfalz"}},{"name":"Weitlachestr.","postalCode":"76872","locality":"Erlenbach bei Kandel","municipality":{"key":"07334004","name":"Erlenbach bei Kandel","type":"Kreisangehörige_Gemeinde"},"district":{"key":"07334","name":"Germersheim","type":"Landkreis"},"federalState":{"key":"07","name":"Rheinland-Pfalz"}},{"name":"Ysenburgstr.","postalCode":"76726","locality":"Germersheim","municipality":{"key":"07334007","name":"Germersheim, Stadt","type":"Stadt"},"district":{"key":"07334","name":"Germersheim","type":"Landkreis"},"federalState":{"key":"07","name":"Rheinland-Pfalz"}},{"name":"Zeppelinstr.","postalCode":"76870","locality":"Kandel","municipality":{"key":"07334013","name":"Kandel, Stadt","type":"Stadt"},"district":{"key":"07334","name":"Germersheim","type":"Landkreis"},"federalState":{"key":"07","name":"Rheinland-Pfalz"}},]