[{"name":"Altenburgstr.","postalCode":"63526","locality":"Erlensee","municipality":{"key":"06435007","name":"Erlensee, Stadt","type":"Stadt"},"district":{"key":"06435","name":"Main-Kinzig-Kreis","type":"Landkreis"},"federalState":{"key":"06","name":"Hessen"}},{"name":"Alter Dorfweg","postalCode":"63526","locality":"Erlensee","municipality":{"key":"06435007","name":"Erlensee, Stadt","type":"Stadt"},"district":{"key":"06435","name":"Main-Kinzig-Kreis","type":"Landkreis"},"federalState":{"key":"06","name":"Hessen"}},{"name":"Alter Friedhof","postalCode":"63526","locality":"Erlensee","municipality":{"key":"06435007","name":"Erlensee, Stadt","type":"Stadt"},"district":{"key":"06435","name":"Main-Kinzig-Kreis","type":"Landkreis"},"federalState":{"key":"06","name":"Hessen"}},{"name":"Am Bruchacker","postalCode":"63526","locality":"Erlensee","municipality":{"key":"06435007","name":"Erlensee, Stadt","type":"Stadt"},"district":{"key":"06435","name":"Main-Kinzig-Kreis","type":"Landkreis"},"federalState":{"key":"06","name":"Hessen"}},{"name":"Am Burggraben","postalCode":"63526","locality":"Erlensee","municipality":{"key":"06435007","name":"Erlensee, Stadt","type":"Stadt"},"district":{"key":"06435","name":"Main-Kinzig-Kreis","type":"Landkreis"},"federalState":{"key":"06","name":"Hessen"}},{"name":"Am Erlenpark","postalCode":"63526","locality":"Erlensee","municipality":{"key":"06435007","name":"Erlensee, Stadt","type":"Stadt"},"district":{"key":"06435","name":"Main-Kinzig-Kreis","type":"Landkreis"},"federalState":{"key":"06","name":"Hessen"}},{"name":"Am Faulgraben","postalCode":"63526","locality":"Erlensee","municipality":{"key":"06435007","name":"Erlensee, Stadt","type":"Stadt"},"district":{"key":"06435","name":"Main-Kinzig-Kreis","type":"Landkreis"},"federalState":{"key":"06","name":"Hessen"}},{"name":"Am Gänseweiher","postalCode":"63526","locality":"Erlensee","municipality":{"key":"06435007","name":"Erlensee, Stadt","type":"Stadt"},"district":{"key":"06435","name":"Main-Kinzig-Kreis","type":"Landkreis"},"federalState":{"key":"06","name":"Hessen"}},{"name":"Am Haspel","postalCode":"63526","locality":"Erlensee","municipality":{"key":"06435007","name":"Erlensee, Stadt","type":"Stadt"},"district":{"key":"06435","name":"Main-Kinzig-Kreis","type":"Landkreis"},"federalState":{"key":"06","name":"Hessen"}},{"name":"Am Heidegraben","postalCode":"63526","locality":"Erlensee","municipality":{"key":"06435007","name":"Erlensee, Stadt","type":"Stadt"},"district":{"key":"06435","name":"Main-Kinzig-Kreis","type":"Landkreis"},"federalState":{"key":"06","name":"Hessen"}},{"name":"Am Hochwasserdamm","postalCode":"63526","locality":"Erlensee","municipality":{"key":"06435007","name":"Erlensee, Stadt","type":"Stadt"},"district":{"key":"06435","name":"Main-Kinzig-Kreis","type":"Landkreis"},"federalState":{"key":"06","name":"Hessen"}},{"name":"Am Kreuzweg","postalCode":"63526","locality":"Erlensee","municipality":{"key":"06435007","name":"Erlensee, Stadt","type":"Stadt"},"district":{"key":"06435","name":"Main-Kinzig-Kreis","type":"Landkreis"},"federalState":{"key":"06","name":"Hessen"}},{"name":"Am Kreuzweiher","postalCode":"63526","locality":"Erlensee","municipality":{"key":"06435007","name":"Erlensee, Stadt","type":"Stadt"},"district":{"key":"06435","name":"Main-Kinzig-Kreis","type":"Landkreis"},"federalState":{"key":"06","name":"Hessen"}},{"name":"Am Langwasser","postalCode":"63526","locality":"Erlensee","municipality":{"key":"06435007","name":"Erlensee, Stadt","type":"Stadt"},"district":{"key":"06435","name":"Main-Kinzig-Kreis","type":"Landkreis"},"federalState":{"key":"06","name":"Hessen"}},{"name":"Am Rathaus","postalCode":"63526","locality":"Erlensee","municipality":{"key":"06435007","name":"Erlensee, Stadt","type":"Stadt"},"district":{"key":"06435","name":"Main-Kinzig-Kreis","type":"Landkreis"},"federalState":{"key":"06","name":"Hessen"}},{"name":"Am Rebstock","postalCode":"63526","locality":"Erlensee","municipality":{"key":"06435007","name":"Erlensee, Stadt","type":"Stadt"},"district":{"key":"06435","name":"Main-Kinzig-Kreis","type":"Landkreis"},"federalState":{"key":"06","name":"Hessen"}},{"name":"Am Römerbad","postalCode":"63526","locality":"Erlensee","municipality":{"key":"06435007","name":"Erlensee, Stadt","type":"Stadt"},"district":{"key":"06435","name":"Main-Kinzig-Kreis","type":"Landkreis"},"federalState":{"key":"06","name":"Hessen"}},{"name":"Am Seegarten","postalCode":"63526","locality":"Erlensee","municipality":{"key":"06435007","name":"Erlensee, Stadt","type":"Stadt"},"district":{"key":"06435","name":"Main-Kinzig-Kreis","type":"Landkreis"},"federalState":{"key":"06","name":"Hessen"}},{"name":"An der Dornhecke","postalCode":"63526","locality":"Erlensee","municipality":{"key":"06435007","name":"Erlensee, Stadt","type":"Stadt"},"district":{"key":"06435","name":"Main-Kinzig-Kreis","type":"Landkreis"},"federalState":{"key":"06","name":"Hessen"}},{"name":"An der Gende","postalCode":"63526","locality":"Erlensee","municipality":{"key":"06435007","name":"Erlensee, Stadt","type":"Stadt"},"district":{"key":"06435","name":"Main-Kinzig-Kreis","type":"Landkreis"},"federalState":{"key":"06","name":"Hessen"}},{"name":"An der Kläranlage","postalCode":"63526","locality":"Erlensee","municipality":{"key":"06435007","name":"Erlensee, Stadt","type":"Stadt"},"district":{"key":"06435","name":"Main-Kinzig-Kreis","type":"Landkreis"},"federalState":{"key":"06","name":"Hessen"}},{"name":"An der Sandwiese","postalCode":"63526","locality":"Erlensee","municipality":{"key":"06435007","name":"Erlensee, Stadt","type":"Stadt"},"district":{"key":"06435","name":"Main-Kinzig-Kreis","type":"Landkreis"},"federalState":{"key":"06","name":"Hessen"}},{"name":"An der Wasserburg","postalCode":"63526","locality":"Erlensee","municipality":{"key":"06435007","name":"Erlensee, Stadt","type":"Stadt"},"district":{"key":"06435","name":"Main-Kinzig-Kreis","type":"Landkreis"},"federalState":{"key":"06","name":"Hessen"}},{"name":"An der Wüstung","postalCode":"63526","locality":"Erlensee","municipality":{"key":"06435007","name":"Erlensee, Stadt","type":"Stadt"},"district":{"key":"06435","name":"Main-Kinzig-Kreis","type":"Landkreis"},"federalState":{"key":"06","name":"Hessen"}},{"name":"Anne-Frank-Str.","postalCode":"63526","locality":"Erlensee","municipality":{"key":"06435007","name":"Erlensee, Stadt","type":"Stadt"},"district":{"key":"06435","name":"Main-Kinzig-Kreis","type":"Landkreis"},"federalState":{"key":"06","name":"Hessen"}},{"name":"Annemarie-Renger-Weg","postalCode":"63526","locality":"Erlensee","municipality":{"key":"06435007","name":"Erlensee, Stadt","type":"Stadt"},"district":{"key":"06435","name":"Main-Kinzig-Kreis","type":"Landkreis"},"federalState":{"key":"06","name":"Hessen"}},{"name":"Auf dem Hessel","postalCode":"63526","locality":"Erlensee","municipality":{"key":"06435007","name":"Erlensee, Stadt","type":"Stadt"},"district":{"key":"06435","name":"Main-Kinzig-Kreis","type":"Landkreis"},"federalState":{"key":"06","name":"Hessen"}},{"name":"Auf dem Linnes","postalCode":"63526","locality":"Erlensee","municipality":{"key":"06435007","name":"Erlensee, Stadt","type":"Stadt"},"district":{"key":"06435","name":"Main-Kinzig-Kreis","type":"Landkreis"},"federalState":{"key":"06","name":"Hessen"}},{"name":"Auf der Beune","postalCode":"63526","locality":"Erlensee","municipality":{"key":"06435007","name":"Erlensee, Stadt","type":"Stadt"},"district":{"key":"06435","name":"Main-Kinzig-Kreis","type":"Landkreis"},"federalState":{"key":"06","name":"Hessen"}},{"name":"August-Bebel-Str.","postalCode":"63526","locality":"Erlensee","municipality":{"key":"06435007","name":"Erlensee, Stadt","type":"Stadt"},"district":{"key":"06435","name":"Main-Kinzig-Kreis","type":"Landkreis"},"federalState":{"key":"06","name":"Hessen"}},{"name":"Bachstr.","postalCode":"63526","locality":"Erlensee","municipality":{"key":"06435007","name":"Erlensee, Stadt","type":"Stadt"},"district":{"key":"06435","name":"Main-Kinzig-Kreis","type":"Landkreis"},"federalState":{"key":"06","name":"Hessen"}},{"name":"Bahnhofstr.","postalCode":"63526","locality":"Erlensee","municipality":{"key":"06435007","name":"Erlensee, Stadt","type":"Stadt"},"district":{"key":"06435","name":"Main-Kinzig-Kreis","type":"Landkreis"},"federalState":{"key":"06","name":"Hessen"}},{"name":"Beethovenstr.","postalCode":"63526","locality":"Erlensee","municipality":{"key":"06435007","name":"Erlensee, Stadt","type":"Stadt"},"district":{"key":"06435","name":"Main-Kinzig-Kreis","type":"Landkreis"},"federalState":{"key":"06","name":"Hessen"}},{"name":"Bergstr.","postalCode":"63526","locality":"Erlensee","municipality":{"key":"06435007","name":"Erlensee, Stadt","type":"Stadt"},"district":{"key":"06435","name":"Main-Kinzig-Kreis","type":"Landkreis"},"federalState":{"key":"06","name":"Hessen"}},{"name":"Biggleswadestr.","postalCode":"63526","locality":"Erlensee","municipality":{"key":"06435007","name":"Erlensee, Stadt","type":"Stadt"},"district":{"key":"06435","name":"Main-Kinzig-Kreis","type":"Landkreis"},"federalState":{"key":"06","name":"Hessen"}},{"name":"Birkenweg","postalCode":"63526","locality":"Erlensee","municipality":{"key":"06435007","name":"Erlensee, Stadt","type":"Stadt"},"district":{"key":"06435","name":"Main-Kinzig-Kreis","type":"Landkreis"},"federalState":{"key":"06","name":"Hessen"}},{"name":"Bleichstr.","postalCode":"63526","locality":"Erlensee","municipality":{"key":"06435007","name":"Erlensee, Stadt","type":"Stadt"},"district":{"key":"06435","name":"Main-Kinzig-Kreis","type":"Landkreis"},"federalState":{"key":"06","name":"Hessen"}},{"name":"Bogenstr.","postalCode":"63526","locality":"Erlensee","municipality":{"key":"06435007","name":"Erlensee, Stadt","type":"Stadt"},"district":{"key":"06435","name":"Main-Kinzig-Kreis","type":"Landkreis"},"federalState":{"key":"06","name":"Hessen"}},{"name":"Brahmsstr.","postalCode":"63526","locality":"Erlensee","municipality":{"key":"06435007","name":"Erlensee, Stadt","type":"Stadt"},"district":{"key":"06435","name":"Main-Kinzig-Kreis","type":"Landkreis"},"federalState":{"key":"06","name":"Hessen"}},{"name":"Brehmstr.","postalCode":"63526","locality":"Erlensee","municipality":{"key":"06435007","name":"Erlensee, Stadt","type":"Stadt"},"district":{"key":"06435","name":"Main-Kinzig-Kreis","type":"Landkreis"},"federalState":{"key":"06","name":"Hessen"}},{"name":"Breulstr.","postalCode":"63526","locality":"Erlensee","municipality":{"key":"06435007","name":"Erlensee, Stadt","type":"Stadt"},"district":{"key":"06435","name":"Main-Kinzig-Kreis","type":"Landkreis"},"federalState":{"key":"06","name":"Hessen"}},{"name":"Bruchköbeler Str.","postalCode":"63526","locality":"Erlensee","municipality":{"key":"06435007","name":"Erlensee, Stadt","type":"Stadt"},"district":{"key":"06435","name":"Main-Kinzig-Kreis","type":"Landkreis"},"federalState":{"key":"06","name":"Hessen"}},{"name":"Brückenstr.","postalCode":"63526","locality":"Erlensee","municipality":{"key":"06435007","name":"Erlensee, Stadt","type":"Stadt"},"district":{"key":"06435","name":"Main-Kinzig-Kreis","type":"Landkreis"},"federalState":{"key":"06","name":"Hessen"}},{"name":"Brucknerstr.","postalCode":"63526","locality":"Erlensee","municipality":{"key":"06435007","name":"Erlensee, Stadt","type":"Stadt"},"district":{"key":"06435","name":"Main-Kinzig-Kreis","type":"Landkreis"},"federalState":{"key":"06","name":"Hessen"}},{"name":"Brüder-Grimm-Str.","postalCode":"63526","locality":"Erlensee","municipality":{"key":"06435007","name":"Erlensee, Stadt","type":"Stadt"},"district":{"key":"06435","name":"Main-Kinzig-Kreis","type":"Landkreis"},"federalState":{"key":"06","name":"Hessen"}},{"name":"Brunnenstr.","postalCode":"63526","locality":"Erlensee","municipality":{"key":"06435007","name":"Erlensee, Stadt","type":"Stadt"},"district":{"key":"06435","name":"Main-Kinzig-Kreis","type":"Landkreis"},"federalState":{"key":"06","name":"Hessen"}},{"name":"Buchenstr.","postalCode":"63526","locality":"Erlensee","municipality":{"key":"06435007","name":"Erlensee, Stadt","type":"Stadt"},"district":{"key":"06435","name":"Main-Kinzig-Kreis","type":"Landkreis"},"federalState":{"key":"06","name":"Hessen"}},{"name":"Bürgerstr.","postalCode":"63526","locality":"Erlensee","municipality":{"key":"06435007","name":"Erlensee, Stadt","type":"Stadt"},"district":{"key":"06435","name":"Main-Kinzig-Kreis","type":"Landkreis"},"federalState":{"key":"06","name":"Hessen"}},{"name":"Calaminus-Park","postalCode":"63526","locality":"Erlensee","municipality":{"key":"06435007","name":"Erlensee, Stadt","type":"Stadt"},"district":{"key":"06435","name":"Main-Kinzig-Kreis","type":"Landkreis"},"federalState":{"key":"06","name":"Hessen"}},{"name":"Carl-Benz-Str.","postalCode":"63526","locality":"Erlensee","municipality":{"key":"06435007","name":"Erlensee, Stadt","type":"Stadt"},"district":{"key":"06435","name":"Main-Kinzig-Kreis","type":"Landkreis"},"federalState":{"key":"06","name":"Hessen"}},{"name":"Dammstr.","postalCode":"63526","locality":"Erlensee","municipality":{"key":"06435007","name":"Erlensee, Stadt","type":"Stadt"},"district":{"key":"06435","name":"Main-Kinzig-Kreis","type":"Landkreis"},"federalState":{"key":"06","name":"Hessen"}},{"name":"Dieselstr.","postalCode":"63526","locality":"Erlensee","municipality":{"key":"06435007","name":"Erlensee, Stadt","type":"Stadt"},"district":{"key":"06435","name":"Main-Kinzig-Kreis","type":"Landkreis"},"federalState":{"key":"06","name":"Hessen"}},{"name":"Eichenstr.","postalCode":"63526","locality":"Erlensee","municipality":{"key":"06435007","name":"Erlensee, Stadt","type":"Stadt"},"district":{"key":"06435","name":"Main-Kinzig-Kreis","type":"Landkreis"},"federalState":{"key":"06","name":"Hessen"}},{"name":"Enge Gasse","postalCode":"63526","locality":"Erlensee","municipality":{"key":"06435007","name":"Erlensee, Stadt","type":"Stadt"},"district":{"key":"06435","name":"Main-Kinzig-Kreis","type":"Landkreis"},"federalState":{"key":"06","name":"Hessen"}},{"name":"Erich-Kästner-Weg","postalCode":"63526","locality":"Erlensee","municipality":{"key":"06435007","name":"Erlensee, Stadt","type":"Stadt"},"district":{"key":"06435","name":"Main-Kinzig-Kreis","type":"Landkreis"},"federalState":{"key":"06","name":"Hessen"}},{"name":"Erlenpark","postalCode":"63526","locality":"Erlensee","municipality":{"key":"06435007","name":"Erlensee, Stadt","type":"Stadt"},"district":{"key":"06435","name":"Main-Kinzig-Kreis","type":"Landkreis"},"federalState":{"key":"06","name":"Hessen"}},{"name":"Erlenstr.","postalCode":"63526","locality":"Erlensee","municipality":{"key":"06435007","name":"Erlensee, Stadt","type":"Stadt"},"district":{"key":"06435","name":"Main-Kinzig-Kreis","type":"Landkreis"},"federalState":{"key":"06","name":"Hessen"}},{"name":"Eugen-Kaiser-Str.","postalCode":"63526","locality":"Erlensee","municipality":{"key":"06435007","name":"Erlensee, Stadt","type":"Stadt"},"district":{"key":"06435","name":"Main-Kinzig-Kreis","type":"Landkreis"},"federalState":{"key":"06","name":"Hessen"}},{"name":"Fallbachstr.","postalCode":"63526","locality":"Erlensee","municipality":{"key":"06435007","name":"Erlensee, Stadt","type":"Stadt"},"district":{"key":"06435","name":"Main-Kinzig-Kreis","type":"Landkreis"},"federalState":{"key":"06","name":"Hessen"}},{"name":"Feldstr.","postalCode":"63526","locality":"Erlensee","municipality":{"key":"06435007","name":"Erlensee, Stadt","type":"Stadt"},"district":{"key":"06435","name":"Main-Kinzig-Kreis","type":"Landkreis"},"federalState":{"key":"06","name":"Hessen"}},{"name":"Fichtenstr.","postalCode":"63526","locality":"Erlensee","municipality":{"key":"06435007","name":"Erlensee, Stadt","type":"Stadt"},"district":{"key":"06435","name":"Main-Kinzig-Kreis","type":"Landkreis"},"federalState":{"key":"06","name":"Hessen"}},{"name":"Freiherr-vom-Stein-Str.","postalCode":"63526","locality":"Erlensee","municipality":{"key":"06435007","name":"Erlensee, Stadt","type":"Stadt"},"district":{"key":"06435","name":"Main-Kinzig-Kreis","type":"Landkreis"},"federalState":{"key":"06","name":"Hessen"}},{"name":"Freiligrathstr.","postalCode":"63526","locality":"Erlensee","municipality":{"key":"06435007","name":"Erlensee, Stadt","type":"Stadt"},"district":{"key":"06435","name":"Main-Kinzig-Kreis","type":"Landkreis"},"federalState":{"key":"06","name":"Hessen"}},{"name":"Friedensstr.","postalCode":"63526","locality":"Erlensee","municipality":{"key":"06435007","name":"Erlensee, Stadt","type":"Stadt"},"district":{"key":"06435","name":"Main-Kinzig-Kreis","type":"Landkreis"},"federalState":{"key":"06","name":"Hessen"}},{"name":"Friedrich-Ebert-Str.","postalCode":"63526","locality":"Erlensee","municipality":{"key":"06435007","name":"Erlensee, Stadt","type":"Stadt"},"district":{"key":"06435","name":"Main-Kinzig-Kreis","type":"Landkreis"},"federalState":{"key":"06","name":"Hessen"}},{"name":"Friedrichstr.","postalCode":"63526","locality":"Erlensee","municipality":{"key":"06435007","name":"Erlensee, Stadt","type":"Stadt"},"district":{"key":"06435","name":"Main-Kinzig-Kreis","type":"Landkreis"},"federalState":{"key":"06","name":"Hessen"}},{"name":"Fröbelstr.","postalCode":"63526","locality":"Erlensee","municipality":{"key":"06435007","name":"Erlensee, Stadt","type":"Stadt"},"district":{"key":"06435","name":"Main-Kinzig-Kreis","type":"Landkreis"},"federalState":{"key":"06","name":"Hessen"}},{"name":"Gartenstr.","postalCode":"63526","locality":"Erlensee","municipality":{"key":"06435007","name":"Erlensee, Stadt","type":"Stadt"},"district":{"key":"06435","name":"Main-Kinzig-Kreis","type":"Landkreis"},"federalState":{"key":"06","name":"Hessen"}},{"name":"Geibelstr.","postalCode":"63526","locality":"Erlensee","municipality":{"key":"06435007","name":"Erlensee, Stadt","type":"Stadt"},"district":{"key":"06435","name":"Main-Kinzig-Kreis","type":"Landkreis"},"federalState":{"key":"06","name":"Hessen"}},{"name":"Gelbe Loh","postalCode":"63526","locality":"Erlensee","municipality":{"key":"06435007","name":"Erlensee, Stadt","type":"Stadt"},"district":{"key":"06435","name":"Main-Kinzig-Kreis","type":"Landkreis"},"federalState":{"key":"06","name":"Hessen"}},{"name":"Georg-Büchner-Str.","postalCode":"63526","locality":"Erlensee","municipality":{"key":"06435007","name":"Erlensee, Stadt","type":"Stadt"},"district":{"key":"06435","name":"Main-Kinzig-Kreis","type":"Landkreis"},"federalState":{"key":"06","name":"Hessen"}},{"name":"Geschwister-Scholl-Str.","postalCode":"63526","locality":"Erlensee","municipality":{"key":"06435007","name":"Erlensee, Stadt","type":"Stadt"},"district":{"key":"06435","name":"Main-Kinzig-Kreis","type":"Landkreis"},"federalState":{"key":"06","name":"Hessen"}},{"name":"Goethestr.","postalCode":"63526","locality":"Erlensee","municipality":{"key":"06435007","name":"Erlensee, Stadt","type":"Stadt"},"district":{"key":"06435","name":"Main-Kinzig-Kreis","type":"Landkreis"},"federalState":{"key":"06","name":"Hessen"}},{"name":"Grimmelshausenstr.","postalCode":"63526","locality":"Erlensee","municipality":{"key":"06435007","name":"Erlensee, Stadt","type":"Stadt"},"district":{"key":"06435","name":"Main-Kinzig-Kreis","type":"Landkreis"},"federalState":{"key":"06","name":"Hessen"}},{"name":"Grüner Weg","postalCode":"63526","locality":"Erlensee","municipality":{"key":"06435007","name":"Erlensee, Stadt","type":"Stadt"},"district":{"key":"06435","name":"Main-Kinzig-Kreis","type":"Landkreis"},"federalState":{"key":"06","name":"Hessen"}},{"name":"Gustav-Hoch-Str.","postalCode":"63526","locality":"Erlensee","municipality":{"key":"06435007","name":"Erlensee, Stadt","type":"Stadt"},"district":{"key":"06435","name":"Main-Kinzig-Kreis","type":"Landkreis"},"federalState":{"key":"06","name":"Hessen"}},{"name":"Hainstr.","postalCode":"63526","locality":"Erlensee","municipality":{"key":"06435007","name":"Erlensee, Stadt","type":"Stadt"},"district":{"key":"06435","name":"Main-Kinzig-Kreis","type":"Landkreis"},"federalState":{"key":"06","name":"Hessen"}},{"name":"Hanauer Str.","postalCode":"63526","locality":"Erlensee","municipality":{"key":"06435007","name":"Erlensee, Stadt","type":"Stadt"},"district":{"key":"06435","name":"Main-Kinzig-Kreis","type":"Landkreis"},"federalState":{"key":"06","name":"Hessen"}},{"name":"Händelstr.","postalCode":"63526","locality":"Erlensee","municipality":{"key":"06435007","name":"Erlensee, Stadt","type":"Stadt"},"district":{"key":"06435","name":"Main-Kinzig-Kreis","type":"Landkreis"},"federalState":{"key":"06","name":"Hessen"}},{"name":"Hattergasse","postalCode":"63526","locality":"Erlensee","municipality":{"key":"06435007","name":"Erlensee, Stadt","type":"Stadt"},"district":{"key":"06435","name":"Main-Kinzig-Kreis","type":"Landkreis"},"federalState":{"key":"06","name":"Hessen"}},{"name":"Hauptstr.","postalCode":"63526","locality":"Erlensee","municipality":{"key":"06435007","name":"Erlensee, Stadt","type":"Stadt"},"district":{"key":"06435","name":"Main-Kinzig-Kreis","type":"Landkreis"},"federalState":{"key":"06","name":"Hessen"}},{"name":"Heinrich-Böll-Weg","postalCode":"63526","locality":"Erlensee","municipality":{"key":"06435007","name":"Erlensee, Stadt","type":"Stadt"},"district":{"key":"06435","name":"Main-Kinzig-Kreis","type":"Landkreis"},"federalState":{"key":"06","name":"Hessen"}},{"name":"Heinrich-Heine-Str.","postalCode":"63526","locality":"Erlensee","municipality":{"key":"06435007","name":"Erlensee, Stadt","type":"Stadt"},"district":{"key":"06435","name":"Main-Kinzig-Kreis","type":"Landkreis"},"federalState":{"key":"06","name":"Hessen"}},{"name":"Hermann-Hesse-Weg","postalCode":"63526","locality":"Erlensee","municipality":{"key":"06435007","name":"Erlensee, Stadt","type":"Stadt"},"district":{"key":"06435","name":"Main-Kinzig-Kreis","type":"Landkreis"},"federalState":{"key":"06","name":"Hessen"}},{"name":"Herrngartenstr.","postalCode":"63526","locality":"Erlensee","municipality":{"key":"06435007","name":"Erlensee, Stadt","type":"Stadt"},"district":{"key":"06435","name":"Main-Kinzig-Kreis","type":"Landkreis"},"federalState":{"key":"06","name":"Hessen"}},{"name":"Herrnhofstr.","postalCode":"63526","locality":"Erlensee","municipality":{"key":"06435007","name":"Erlensee, Stadt","type":"Stadt"},"district":{"key":"06435","name":"Main-Kinzig-Kreis","type":"Landkreis"},"federalState":{"key":"06","name":"Hessen"}},{"name":"Hopfenstr.","postalCode":"63526","locality":"Erlensee","municipality":{"key":"06435007","name":"Erlensee, Stadt","type":"Stadt"},"district":{"key":"06435","name":"Main-Kinzig-Kreis","type":"Landkreis"},"federalState":{"key":"06","name":"Hessen"}},{"name":"Im Auenring","postalCode":"63526","locality":"Erlensee","municipality":{"key":"06435007","name":"Erlensee, Stadt","type":"Stadt"},"district":{"key":"06435","name":"Main-Kinzig-Kreis","type":"Landkreis"},"federalState":{"key":"06","name":"Hessen"}},{"name":"Im Büchensaal","postalCode":"63526","locality":"Erlensee","municipality":{"key":"06435007","name":"Erlensee, Stadt","type":"Stadt"},"district":{"key":"06435","name":"Main-Kinzig-Kreis","type":"Landkreis"},"federalState":{"key":"06","name":"Hessen"}},{"name":"Im Gereit","postalCode":"63526","locality":"Erlensee","municipality":{"key":"06435007","name":"Erlensee, Stadt","type":"Stadt"},"district":{"key":"06435","name":"Main-Kinzig-Kreis","type":"Landkreis"},"federalState":{"key":"06","name":"Hessen"}},{"name":"Im Unterfeld","postalCode":"63526","locality":"Erlensee","municipality":{"key":"06435007","name":"Erlensee, Stadt","type":"Stadt"},"district":{"key":"06435","name":"Main-Kinzig-Kreis","type":"Landkreis"},"federalState":{"key":"06","name":"Hessen"}},{"name":"In den Gärten","postalCode":"63526","locality":"Erlensee","municipality":{"key":"06435007","name":"Erlensee, Stadt","type":"Stadt"},"district":{"key":"06435","name":"Main-Kinzig-Kreis","type":"Landkreis"},"federalState":{"key":"06","name":"Hessen"}},{"name":"In den Reußergärten","postalCode":"63526","locality":"Erlensee","municipality":{"key":"06435007","name":"Erlensee, Stadt","type":"Stadt"},"district":{"key":"06435","name":"Main-Kinzig-Kreis","type":"Landkreis"},"federalState":{"key":"06","name":"Hessen"}},{"name":"In der Gelbwiese","postalCode":"63526","locality":"Erlensee","municipality":{"key":"06435007","name":"Erlensee, Stadt","type":"Stadt"},"district":{"key":"06435","name":"Main-Kinzig-Kreis","type":"Landkreis"},"federalState":{"key":"06","name":"Hessen"}},{"name":"Industriestr.","postalCode":"63526","locality":"Erlensee","municipality":{"key":"06435007","name":"Erlensee, Stadt","type":"Stadt"},"district":{"key":"06435","name":"Main-Kinzig-Kreis","type":"Landkreis"},"federalState":{"key":"06","name":"Hessen"}},{"name":"Jahnstr.","postalCode":"63526","locality":"Erlensee","municipality":{"key":"06435007","name":"Erlensee, Stadt","type":"Stadt"},"district":{"key":"06435","name":"Main-Kinzig-Kreis","type":"Landkreis"},"federalState":{"key":"06","name":"Hessen"}},{"name":"Jakobstr.","postalCode":"63526","locality":"Erlensee","municipality":{"key":"06435007","name":"Erlensee, Stadt","type":"Stadt"},"district":{"key":"06435","name":"Main-Kinzig-Kreis","type":"Landkreis"},"federalState":{"key":"06","name":"Hessen"}},{"name":"John-F.-Kennedy-Str.","postalCode":"63526","locality":"Erlensee","municipality":{"key":"06435007","name":"Erlensee, Stadt","type":"Stadt"},"district":{"key":"06435","name":"Main-Kinzig-Kreis","type":"Landkreis"},"federalState":{"key":"06","name":"Hessen"}},{"name":"Kantstr.","postalCode":"63526","locality":"Erlensee","municipality":{"key":"06435007","name":"Erlensee, Stadt","type":"Stadt"},"district":{"key":"06435","name":"Main-Kinzig-Kreis","type":"Landkreis"},"federalState":{"key":"06","name":"Hessen"}},{"name":"Karl-Marx-Str.","postalCode":"63526","locality":"Erlensee","municipality":{"key":"06435007","name":"Erlensee, Stadt","type":"Stadt"},"district":{"key":"06435","name":"Main-Kinzig-Kreis","type":"Landkreis"},"federalState":{"key":"06","name":"Hessen"}},{"name":"Kastellstr.","postalCode":"63526","locality":"Erlensee","municipality":{"key":"06435007","name":"Erlensee, Stadt","type":"Stadt"},"district":{"key":"06435","name":"Main-Kinzig-Kreis","type":"Landkreis"},"federalState":{"key":"06","name":"Hessen"}},{"name":"Käthe-Kollwitz-Weg","postalCode":"63526","locality":"Erlensee","municipality":{"key":"06435007","name":"Erlensee, Stadt","type":"Stadt"},"district":{"key":"06435","name":"Main-Kinzig-Kreis","type":"Landkreis"},"federalState":{"key":"06","name":"Hessen"}},{"name":"Keltenweg","postalCode":"63526","locality":"Erlensee","municipality":{"key":"06435007","name":"Erlensee, Stadt","type":"Stadt"},"district":{"key":"06435","name":"Main-Kinzig-Kreis","type":"Landkreis"},"federalState":{"key":"06","name":"Hessen"}},{"name":"Kinzigstr.","postalCode":"63526","locality":"Erlensee","municipality":{"key":"06435007","name":"Erlensee, Stadt","type":"Stadt"},"district":{"key":"06435","name":"Main-Kinzig-Kreis","type":"Landkreis"},"federalState":{"key":"06","name":"Hessen"}},{"name":"Kirchplatz","postalCode":"63526","locality":"Erlensee","municipality":{"key":"06435007","name":"Erlensee, Stadt","type":"Stadt"},"district":{"key":"06435","name":"Main-Kinzig-Kreis","type":"Landkreis"},"federalState":{"key":"06","name":"Hessen"}},{"name":"Kirchstr.","postalCode":"63526","locality":"Erlensee","municipality":{"key":"06435007","name":"Erlensee, Stadt","type":"Stadt"},"district":{"key":"06435","name":"Main-Kinzig-Kreis","type":"Landkreis"},"federalState":{"key":"06","name":"Hessen"}},{"name":"Kleiststr.","postalCode":"63526","locality":"Erlensee","municipality":{"key":"06435007","name":"Erlensee, Stadt","type":"Stadt"},"district":{"key":"06435","name":"Main-Kinzig-Kreis","type":"Landkreis"},"federalState":{"key":"06","name":"Hessen"}},{"name":"Konrad-Adenauer-Str.","postalCode":"63526","locality":"Erlensee","municipality":{"key":"06435007","name":"Erlensee, Stadt","type":"Stadt"},"district":{"key":"06435","name":"Main-Kinzig-Kreis","type":"Landkreis"},"federalState":{"key":"06","name":"Hessen"}},{"name":"Kurt-Schumacher-Str.","postalCode":"63526","locality":"Erlensee","municipality":{"key":"06435007","name":"Erlensee, Stadt","type":"Stadt"},"district":{"key":"06435","name":"Main-Kinzig-Kreis","type":"Landkreis"},"federalState":{"key":"06","name":"Hessen"}},{"name":"Landwehrstr.","postalCode":"63526","locality":"Erlensee","municipality":{"key":"06435007","name":"Erlensee, Stadt","type":"Stadt"},"district":{"key":"06435","name":"Main-Kinzig-Kreis","type":"Landkreis"},"federalState":{"key":"06","name":"Hessen"}},{"name":"Langendiebacher Str.","postalCode":"63526","locality":"Erlensee","municipality":{"key":"06435007","name":"Erlensee, Stadt","type":"Stadt"},"district":{"key":"06435","name":"Main-Kinzig-Kreis","type":"Landkreis"},"federalState":{"key":"06","name":"Hessen"}},{"name":"Langenselbolder Weg","postalCode":"63526","locality":"Erlensee","municipality":{"key":"06435007","name":"Erlensee, Stadt","type":"Stadt"},"district":{"key":"06435","name":"Main-Kinzig-Kreis","type":"Landkreis"},"federalState":{"key":"06","name":"Hessen"}},{"name":"Langstr.","postalCode":"63526","locality":"Erlensee","municipality":{"key":"06435007","name":"Erlensee, Stadt","type":"Stadt"},"district":{"key":"06435","name":"Main-Kinzig-Kreis","type":"Landkreis"},"federalState":{"key":"06","name":"Hessen"}},{"name":"Leipziger Str.","postalCode":"63526","locality":"Erlensee","municipality":{"key":"06435007","name":"Erlensee, Stadt","type":"Stadt"},"district":{"key":"06435","name":"Main-Kinzig-Kreis","type":"Landkreis"},"federalState":{"key":"06","name":"Hessen"}},{"name":"Lessingstr.","postalCode":"63526","locality":"Erlensee","municipality":{"key":"06435007","name":"Erlensee, Stadt","type":"Stadt"},"district":{"key":"06435","name":"Main-Kinzig-Kreis","type":"Landkreis"},"federalState":{"key":"06","name":"Hessen"}},{"name":"Limespark","postalCode":"63526","locality":"Erlensee","municipality":{"key":"06435007","name":"Erlensee, Stadt","type":"Stadt"},"district":{"key":"06435","name":"Main-Kinzig-Kreis","type":"Landkreis"},"federalState":{"key":"06","name":"Hessen"}},{"name":"Limesweg","postalCode":"63526","locality":"Erlensee","municipality":{"key":"06435007","name":"Erlensee, Stadt","type":"Stadt"},"district":{"key":"06435","name":"Main-Kinzig-Kreis","type":"Landkreis"},"federalState":{"key":"06","name":"Hessen"}},{"name":"Lindenstr.","postalCode":"63526","locality":"Erlensee","municipality":{"key":"06435007","name":"Erlensee, Stadt","type":"Stadt"},"district":{"key":"06435","name":"Main-Kinzig-Kreis","type":"Landkreis"},"federalState":{"key":"06","name":"Hessen"}},{"name":"Ludwig-Erhard-Str.","postalCode":"63526","locality":"Erlensee","municipality":{"key":"06435007","name":"Erlensee, Stadt","type":"Stadt"},"district":{"key":"06435","name":"Main-Kinzig-Kreis","type":"Landkreis"},"federalState":{"key":"06","name":"Hessen"}},{"name":"Ludwigstr.","postalCode":"63526","locality":"Erlensee","municipality":{"key":"06435007","name":"Erlensee, Stadt","type":"Stadt"},"district":{"key":"06435","name":"Main-Kinzig-Kreis","type":"Landkreis"},"federalState":{"key":"06","name":"Hessen"}},{"name":"Marienstr.","postalCode":"63526","locality":"Erlensee","municipality":{"key":"06435007","name":"Erlensee, Stadt","type":"Stadt"},"district":{"key":"06435","name":"Main-Kinzig-Kreis","type":"Landkreis"},"federalState":{"key":"06","name":"Hessen"}},{"name":"Marköbeler Str.","postalCode":"63526","locality":"Erlensee","municipality":{"key":"06435007","name":"Erlensee, Stadt","type":"Stadt"},"district":{"key":"06435","name":"Main-Kinzig-Kreis","type":"Landkreis"},"federalState":{"key":"06","name":"Hessen"}},{"name":"Markwaldsiedlung","postalCode":"63526","locality":"Erlensee","municipality":{"key":"06435007","name":"Erlensee, Stadt","type":"Stadt"},"district":{"key":"06435","name":"Main-Kinzig-Kreis","type":"Landkreis"},"federalState":{"key":"06","name":"Hessen"}},{"name":"Mittelgasse","postalCode":"63526","locality":"Erlensee","municipality":{"key":"06435007","name":"Erlensee, Stadt","type":"Stadt"},"district":{"key":"06435","name":"Main-Kinzig-Kreis","type":"Landkreis"},"federalState":{"key":"06","name":"Hessen"}},{"name":"Mörikestr.","postalCode":"63526","locality":"Erlensee","municipality":{"key":"06435007","name":"Erlensee, Stadt","type":"Stadt"},"district":{"key":"06435","name":"Main-Kinzig-Kreis","type":"Landkreis"},"federalState":{"key":"06","name":"Hessen"}},{"name":"Mozartstr.","postalCode":"63526","locality":"Erlensee","municipality":{"key":"06435007","name":"Erlensee, Stadt","type":"Stadt"},"district":{"key":"06435","name":"Main-Kinzig-Kreis","type":"Landkreis"},"federalState":{"key":"06","name":"Hessen"}},{"name":"Mühlstr.","postalCode":"63526","locality":"Erlensee","municipality":{"key":"06435007","name":"Erlensee, Stadt","type":"Stadt"},"district":{"key":"06435","name":"Main-Kinzig-Kreis","type":"Landkreis"},"federalState":{"key":"06","name":"Hessen"}},{"name":"Nelly-Sachs-Str.","postalCode":"63526","locality":"Erlensee","municipality":{"key":"06435007","name":"Erlensee, Stadt","type":"Stadt"},"district":{"key":"06435","name":"Main-Kinzig-Kreis","type":"Landkreis"},"federalState":{"key":"06","name":"Hessen"}},{"name":"Neue Anlage","postalCode":"63526","locality":"Erlensee","municipality":{"key":"06435007","name":"Erlensee, Stadt","type":"Stadt"},"district":{"key":"06435","name":"Main-Kinzig-Kreis","type":"Landkreis"},"federalState":{"key":"06","name":"Hessen"}},{"name":"Odenwaldstr.","postalCode":"63526","locality":"Erlensee","municipality":{"key":"06435007","name":"Erlensee, Stadt","type":"Stadt"},"district":{"key":"06435","name":"Main-Kinzig-Kreis","type":"Landkreis"},"federalState":{"key":"06","name":"Hessen"}},{"name":"Pfingstweidweg","postalCode":"63526","locality":"Erlensee","municipality":{"key":"06435007","name":"Erlensee, Stadt","type":"Stadt"},"district":{"key":"06435","name":"Main-Kinzig-Kreis","type":"Landkreis"},"federalState":{"key":"06","name":"Hessen"}},{"name":"Pfortenweingarten","postalCode":"63526","locality":"Erlensee","municipality":{"key":"06435007","name":"Erlensee, Stadt","type":"Stadt"},"district":{"key":"06435","name":"Main-Kinzig-Kreis","type":"Landkreis"},"federalState":{"key":"06","name":"Hessen"}},{"name":"Raiffeisenstr.","postalCode":"63526","locality":"Erlensee","municipality":{"key":"06435007","name":"Erlensee, Stadt","type":"Stadt"},"district":{"key":"06435","name":"Main-Kinzig-Kreis","type":"Landkreis"},"federalState":{"key":"06","name":"Hessen"}},{"name":"Ravolzhäuser Str.","postalCode":"63526","locality":"Erlensee","municipality":{"key":"06435007","name":"Erlensee, Stadt","type":"Stadt"},"district":{"key":"06435","name":"Main-Kinzig-Kreis","type":"Landkreis"},"federalState":{"key":"06","name":"Hessen"}},{"name":"Reußerhofstr.","postalCode":"63526","locality":"Erlensee","municipality":{"key":"06435007","name":"Erlensee, Stadt","type":"Stadt"},"district":{"key":"06435","name":"Main-Kinzig-Kreis","type":"Landkreis"},"federalState":{"key":"06","name":"Hessen"}},{"name":"Ricarda-Huch-Weg","postalCode":"63526","locality":"Erlensee","municipality":{"key":"06435007","name":"Erlensee, Stadt","type":"Stadt"},"district":{"key":"06435","name":"Main-Kinzig-Kreis","type":"Landkreis"},"federalState":{"key":"06","name":"Hessen"}},{"name":"Ringgrabenstr.","postalCode":"63526","locality":"Erlensee","municipality":{"key":"06435007","name":"Erlensee, Stadt","type":"Stadt"},"district":{"key":"06435","name":"Main-Kinzig-Kreis","type":"Landkreis"},"federalState":{"key":"06","name":"Hessen"}},{"name":"Ringstr.","postalCode":"63526","locality":"Erlensee","municipality":{"key":"06435007","name":"Erlensee, Stadt","type":"Stadt"},"district":{"key":"06435","name":"Main-Kinzig-Kreis","type":"Landkreis"},"federalState":{"key":"06","name":"Hessen"}},{"name":"Rodenbacher Str.","postalCode":"63526","locality":"Erlensee","municipality":{"key":"06435007","name":"Erlensee, Stadt","type":"Stadt"},"district":{"key":"06435","name":"Main-Kinzig-Kreis","type":"Landkreis"},"federalState":{"key":"06","name":"Hessen"}},{"name":"Römerstr.","postalCode":"63526","locality":"Erlensee","municipality":{"key":"06435007","name":"Erlensee, Stadt","type":"Stadt"},"district":{"key":"06435","name":"Main-Kinzig-Kreis","type":"Landkreis"},"federalState":{"key":"06","name":"Hessen"}},{"name":"Ronneburgstr.","postalCode":"63526","locality":"Erlensee","municipality":{"key":"06435007","name":"Erlensee, Stadt","type":"Stadt"},"district":{"key":"06435","name":"Main-Kinzig-Kreis","type":"Landkreis"},"federalState":{"key":"06","name":"Hessen"}},{"name":"Rosenstr.","postalCode":"63526","locality":"Erlensee","municipality":{"key":"06435007","name":"Erlensee, Stadt","type":"Stadt"},"district":{"key":"06435","name":"Main-Kinzig-Kreis","type":"Landkreis"},"federalState":{"key":"06","name":"Hessen"}},{"name":"Rückinger Str.","postalCode":"63526","locality":"Erlensee","municipality":{"key":"06435007","name":"Erlensee, Stadt","type":"Stadt"},"district":{"key":"06435","name":"Main-Kinzig-Kreis","type":"Landkreis"},"federalState":{"key":"06","name":"Hessen"}},{"name":"Rüdigheimer Weg","postalCode":"63526","locality":"Erlensee","municipality":{"key":"06435007","name":"Erlensee, Stadt","type":"Stadt"},"district":{"key":"06435","name":"Main-Kinzig-Kreis","type":"Landkreis"},"federalState":{"key":"06","name":"Hessen"}},{"name":"Sandweg","postalCode":"63526","locality":"Erlensee","municipality":{"key":"06435007","name":"Erlensee, Stadt","type":"Stadt"},"district":{"key":"06435","name":"Main-Kinzig-Kreis","type":"Landkreis"},"federalState":{"key":"06","name":"Hessen"}},{"name":"Schillerstr.","postalCode":"63526","locality":"Erlensee","municipality":{"key":"06435007","name":"Erlensee, Stadt","type":"Stadt"},"district":{"key":"06435","name":"Main-Kinzig-Kreis","type":"Landkreis"},"federalState":{"key":"06","name":"Hessen"}},{"name":"Schubertstr.","postalCode":"63526","locality":"Erlensee","municipality":{"key":"06435007","name":"Erlensee, Stadt","type":"Stadt"},"district":{"key":"06435","name":"Main-Kinzig-Kreis","type":"Landkreis"},"federalState":{"key":"06","name":"Hessen"}},{"name":"Siegfried-Lenz-Weg","postalCode":"63526","locality":"Erlensee","municipality":{"key":"06435007","name":"Erlensee, Stadt","type":"Stadt"},"district":{"key":"06435","name":"Main-Kinzig-Kreis","type":"Landkreis"},"federalState":{"key":"06","name":"Hessen"}},{"name":"Siemensstr.","postalCode":"63526","locality":"Erlensee","municipality":{"key":"06435007","name":"Erlensee, Stadt","type":"Stadt"},"district":{"key":"06435","name":"Main-Kinzig-Kreis","type":"Landkreis"},"federalState":{"key":"06","name":"Hessen"}},{"name":"Spessartstr.","postalCode":"63526","locality":"Erlensee","municipality":{"key":"06435007","name":"Erlensee, Stadt","type":"Stadt"},"district":{"key":"06435","name":"Main-Kinzig-Kreis","type":"Landkreis"},"federalState":{"key":"06","name":"Hessen"}},{"name":"Stichelsweg","postalCode":"63526","locality":"Erlensee","municipality":{"key":"06435007","name":"Erlensee, Stadt","type":"Stadt"},"district":{"key":"06435","name":"Main-Kinzig-Kreis","type":"Landkreis"},"federalState":{"key":"06","name":"Hessen"}},{"name":"Südstr.","postalCode":"63526","locality":"Erlensee","municipality":{"key":"06435007","name":"Erlensee, Stadt","type":"Stadt"},"district":{"key":"06435","name":"Main-Kinzig-Kreis","type":"Landkreis"},"federalState":{"key":"06","name":"Hessen"}},{"name":"Taunusstr.","postalCode":"63526","locality":"Erlensee","municipality":{"key":"06435007","name":"Erlensee, Stadt","type":"Stadt"},"district":{"key":"06435","name":"Main-Kinzig-Kreis","type":"Landkreis"},"federalState":{"key":"06","name":"Hessen"}},{"name":"Theodor-Heuss-Str.","postalCode":"63526","locality":"Erlensee","municipality":{"key":"06435007","name":"Erlensee, Stadt","type":"Stadt"},"district":{"key":"06435","name":"Main-Kinzig-Kreis","type":"Landkreis"},"federalState":{"key":"06","name":"Hessen"}},{"name":"Thomas-Mann-Str.","postalCode":"63526","locality":"Erlensee","municipality":{"key":"06435007","name":"Erlensee, Stadt","type":"Stadt"},"district":{"key":"06435","name":"Main-Kinzig-Kreis","type":"Landkreis"},"federalState":{"key":"06","name":"Hessen"}},{"name":"Tummelgasse","postalCode":"63526","locality":"Erlensee","municipality":{"key":"06435007","name":"Erlensee, Stadt","type":"Stadt"},"district":{"key":"06435","name":"Main-Kinzig-Kreis","type":"Landkreis"},"federalState":{"key":"06","name":"Hessen"}},{"name":"Turmstr.","postalCode":"63526","locality":"Erlensee","municipality":{"key":"06435007","name":"Erlensee, Stadt","type":"Stadt"},"district":{"key":"06435","name":"Main-Kinzig-Kreis","type":"Landkreis"},"federalState":{"key":"06","name":"Hessen"}},{"name":"Uferstr.","postalCode":"63526","locality":"Erlensee","municipality":{"key":"06435007","name":"Erlensee, Stadt","type":"Stadt"},"district":{"key":"06435","name":"Main-Kinzig-Kreis","type":"Landkreis"},"federalState":{"key":"06","name":"Hessen"}},{"name":"Uhlandstr.","postalCode":"63526","locality":"Erlensee","municipality":{"key":"06435007","name":"Erlensee, Stadt","type":"Stadt"},"district":{"key":"06435","name":"Main-Kinzig-Kreis","type":"Landkreis"},"federalState":{"key":"06","name":"Hessen"}},{"name":"Vogelsbergstr.","postalCode":"63526","locality":"Erlensee","municipality":{"key":"06435007","name":"Erlensee, Stadt","type":"Stadt"},"district":{"key":"06435","name":"Main-Kinzig-Kreis","type":"Landkreis"},"federalState":{"key":"06","name":"Hessen"}},{"name":"Waldstr.","postalCode":"63526","locality":"Erlensee","municipality":{"key":"06435007","name":"Erlensee, Stadt","type":"Stadt"},"district":{"key":"06435","name":"Main-Kinzig-Kreis","type":"Landkreis"},"federalState":{"key":"06","name":"Hessen"}},{"name":"Weidenweg","postalCode":"63526","locality":"Erlensee","municipality":{"key":"06435007","name":"Erlensee, Stadt","type":"Stadt"},"district":{"key":"06435","name":"Main-Kinzig-Kreis","type":"Landkreis"},"federalState":{"key":"06","name":"Hessen"}},{"name":"Weinbergstr.","postalCode":"63526","locality":"Erlensee","municipality":{"key":"06435007","name":"Erlensee, Stadt","type":"Stadt"},"district":{"key":"06435","name":"Main-Kinzig-Kreis","type":"Landkreis"},"federalState":{"key":"06","name":"Hessen"}},{"name":"Weingartenstr.","postalCode":"63526","locality":"Erlensee","municipality":{"key":"06435007","name":"Erlensee, Stadt","type":"Stadt"},"district":{"key":"06435","name":"Main-Kinzig-Kreis","type":"Landkreis"},"federalState":{"key":"06","name":"Hessen"}},{"name":"Westerwaldstr.","postalCode":"63526","locality":"Erlensee","municipality":{"key":"06435007","name":"Erlensee, Stadt","type":"Stadt"},"district":{"key":"06435","name":"Main-Kinzig-Kreis","type":"Landkreis"},"federalState":{"key":"06","name":"Hessen"}},{"name":"Wiesenstr.","postalCode":"63526","locality":"Erlensee","municipality":{"key":"06435007","name":"Erlensee, Stadt","type":"Stadt"},"district":{"key":"06435","name":"Main-Kinzig-Kreis","type":"Landkreis"},"federalState":{"key":"06","name":"Hessen"}},{"name":"Wilhelm-Busch-Str.","postalCode":"63526","locality":"Erlensee","municipality":{"key":"06435007","name":"Erlensee, Stadt","type":"Stadt"},"district":{"key":"06435","name":"Main-Kinzig-Kreis","type":"Landkreis"},"federalState":{"key":"06","name":"Hessen"}},{"name":"Wilhelm-Schmidt-Siedlung","postalCode":"63526","locality":"Erlensee","municipality":{"key":"06435007","name":"Erlensee, Stadt","type":"Stadt"},"district":{"key":"06435","name":"Main-Kinzig-Kreis","type":"Landkreis"},"federalState":{"key":"06","name":"Hessen"}},{"name":"Wilhelmstr.","postalCode":"63526","locality":"Erlensee","municipality":{"key":"06435007","name":"Erlensee, Stadt","type":"Stadt"},"district":{"key":"06435","name":"Main-Kinzig-Kreis","type":"Landkreis"},"federalState":{"key":"06","name":"Hessen"}},{"name":"Willy-Brandt-Ring","postalCode":"63526","locality":"Erlensee","municipality":{"key":"06435007","name":"Erlensee, Stadt","type":"Stadt"},"district":{"key":"06435","name":"Main-Kinzig-Kreis","type":"Landkreis"},"federalState":{"key":"06","name":"Hessen"}},{"name":"Wusterwitzer Str.","postalCode":"63526","locality":"Erlensee","municipality":{"key":"06435007","name":"Erlensee, Stadt","type":"Stadt"},"district":{"key":"06435","name":"Main-Kinzig-Kreis","type":"Landkreis"},"federalState":{"key":"06","name":"Hessen"}},{"name":"Zum Fliegerhorst","postalCode":"63526","locality":"Erlensee","municipality":{"key":"06435007","name":"Erlensee, Stadt","type":"Stadt"},"district":{"key":"06435","name":"Main-Kinzig-Kreis","type":"Landkreis"},"federalState":{"key":"06","name":"Hessen"}},]