[{"name":"Albrecht-Dürer-Str.","postalCode":"96166","locality":"Kirchlauter","municipality":{"key":"09674160","name":"Kirchlauter","type":"Kreisangehörige_Gemeinde"},"district":{"key":"09674","name":"Haßberge","type":"Landkreis"},"federalState":{"key":"09","name":"Bayern"}},{"name":"Alte-Lauter-Str.","postalCode":"96166","locality":"Kirchlauter","municipality":{"key":"09674160","name":"Kirchlauter","type":"Kreisangehörige_Gemeinde"},"district":{"key":"09674","name":"Haßberge","type":"Landkreis"},"federalState":{"key":"09","name":"Bayern"}},{"name":"Am Kindergarten","postalCode":"96166","locality":"Kirchlauter","municipality":{"key":"09674160","name":"Kirchlauter","type":"Kreisangehörige_Gemeinde"},"district":{"key":"09674","name":"Haßberge","type":"Landkreis"},"federalState":{"key":"09","name":"Bayern"}},{"name":"Am Melm","postalCode":"96166","locality":"Kirchlauter","municipality":{"key":"09674160","name":"Kirchlauter","type":"Kreisangehörige_Gemeinde"},"district":{"key":"09674","name":"Haßberge","type":"Landkreis"},"federalState":{"key":"09","name":"Bayern"}},{"name":"Am Schneckenhügel","postalCode":"96166","locality":"Kirchlauter","municipality":{"key":"09674160","name":"Kirchlauter","type":"Kreisangehörige_Gemeinde"},"district":{"key":"09674","name":"Haßberge","type":"Landkreis"},"federalState":{"key":"09","name":"Bayern"}},{"name":"An der Leite","postalCode":"96166","locality":"Kirchlauter","municipality":{"key":"09674160","name":"Kirchlauter","type":"Kreisangehörige_Gemeinde"},"district":{"key":"09674","name":"Haßberge","type":"Landkreis"},"federalState":{"key":"09","name":"Bayern"}},{"name":"An der Maas","postalCode":"96166","locality":"Kirchlauter","municipality":{"key":"09674160","name":"Kirchlauter","type":"Kreisangehörige_Gemeinde"},"district":{"key":"09674","name":"Haßberge","type":"Landkreis"},"federalState":{"key":"09","name":"Bayern"}},{"name":"Armin-Knab-Str.","postalCode":"96166","locality":"Kirchlauter","municipality":{"key":"09674160","name":"Kirchlauter","type":"Kreisangehörige_Gemeinde"},"district":{"key":"09674","name":"Haßberge","type":"Landkreis"},"federalState":{"key":"09","name":"Bayern"}},{"name":"Brunnenstr.","postalCode":"96166","locality":"Kirchlauter","municipality":{"key":"09674160","name":"Kirchlauter","type":"Kreisangehörige_Gemeinde"},"district":{"key":"09674","name":"Haßberge","type":"Landkreis"},"federalState":{"key":"09","name":"Bayern"}},{"name":"Dörfliser Weg","postalCode":"96166","locality":"Kirchlauter","municipality":{"key":"09674160","name":"Kirchlauter","type":"Kreisangehörige_Gemeinde"},"district":{"key":"09674","name":"Haßberge","type":"Landkreis"},"federalState":{"key":"09","name":"Bayern"}},{"name":"Friedrich-Rückert-Str.","postalCode":"96166","locality":"Kirchlauter","municipality":{"key":"09674160","name":"Kirchlauter","type":"Kreisangehörige_Gemeinde"},"district":{"key":"09674","name":"Haßberge","type":"Landkreis"},"federalState":{"key":"09","name":"Bayern"}},{"name":"Guttenbergstr.","postalCode":"96166","locality":"Kirchlauter","municipality":{"key":"09674160","name":"Kirchlauter","type":"Kreisangehörige_Gemeinde"},"district":{"key":"09674","name":"Haßberge","type":"Landkreis"},"federalState":{"key":"09","name":"Bayern"}},{"name":"Haßbergstr.","postalCode":"96166","locality":"Kirchlauter","municipality":{"key":"09674160","name":"Kirchlauter","type":"Kreisangehörige_Gemeinde"},"district":{"key":"09674","name":"Haßberge","type":"Landkreis"},"federalState":{"key":"09","name":"Bayern"}},{"name":"Hauptstr.","postalCode":"96166","locality":"Kirchlauter","municipality":{"key":"09674160","name":"Kirchlauter","type":"Kreisangehörige_Gemeinde"},"district":{"key":"09674","name":"Haßberge","type":"Landkreis"},"federalState":{"key":"09","name":"Bayern"}},{"name":"Im Spargelfeld","postalCode":"31626","locality":"Haßbergen","municipality":{"key":"03256011","name":"Haßbergen","type":"Kreisangehörige_Gemeinde"},"district":{"key":"03256","name":"Nienburg (Weser)","type":"Landkreis"},"federalState":{"key":"03","name":"Niedersachsen"}},{"name":"Im stillen Winkel","postalCode":"31626","locality":"Haßbergen","municipality":{"key":"03256011","name":"Haßbergen","type":"Kreisangehörige_Gemeinde"},"district":{"key":"03256","name":"Nienburg (Weser)","type":"Landkreis"},"federalState":{"key":"03","name":"Niedersachsen"}},{"name":"In der Weide","postalCode":"31626","locality":"Haßbergen","municipality":{"key":"03256011","name":"Haßbergen","type":"Kreisangehörige_Gemeinde"},"district":{"key":"03256","name":"Nienburg (Weser)","type":"Landkreis"},"federalState":{"key":"03","name":"Niedersachsen"}},{"name":"Karl-Glockner-Str.","postalCode":"96166","locality":"Kirchlauter","municipality":{"key":"09674160","name":"Kirchlauter","type":"Kreisangehörige_Gemeinde"},"district":{"key":"09674","name":"Haßberge","type":"Landkreis"},"federalState":{"key":"09","name":"Bayern"}},{"name":"Kirchenring","postalCode":"96166","locality":"Kirchlauter","municipality":{"key":"09674160","name":"Kirchlauter","type":"Kreisangehörige_Gemeinde"},"district":{"key":"09674","name":"Haßberge","type":"Landkreis"},"federalState":{"key":"09","name":"Bayern"}},{"name":"Kirchenstr.","postalCode":"96166","locality":"Kirchlauter","municipality":{"key":"09674160","name":"Kirchlauter","type":"Kreisangehörige_Gemeinde"},"district":{"key":"09674","name":"Haßberge","type":"Landkreis"},"federalState":{"key":"09","name":"Bayern"}},{"name":"Lange Str.","postalCode":"31626","locality":"Haßbergen","municipality":{"key":"03256011","name":"Haßbergen","type":"Kreisangehörige_Gemeinde"},"district":{"key":"03256","name":"Nienburg (Weser)","type":"Landkreis"},"federalState":{"key":"03","name":"Niedersachsen"}},{"name":"Lindenstr.","postalCode":"31626","locality":"Haßbergen","municipality":{"key":"03256011","name":"Haßbergen","type":"Kreisangehörige_Gemeinde"},"district":{"key":"03256","name":"Nienburg (Weser)","type":"Landkreis"},"federalState":{"key":"03","name":"Niedersachsen"}},{"name":"Mühlstr.","postalCode":"96166","locality":"Kirchlauter","municipality":{"key":"09674160","name":"Kirchlauter","type":"Kreisangehörige_Gemeinde"},"district":{"key":"09674","name":"Haßberge","type":"Landkreis"},"federalState":{"key":"09","name":"Bayern"}},{"name":"Neubrunner Dorfstr.","postalCode":"96166","locality":"Kirchlauter","municipality":{"key":"09674160","name":"Kirchlauter","type":"Kreisangehörige_Gemeinde"},"district":{"key":"09674","name":"Haßberge","type":"Landkreis"},"federalState":{"key":"09","name":"Bayern"}},{"name":"Pettstadter Grund","postalCode":"96166","locality":"Kirchlauter","municipality":{"key":"09674160","name":"Kirchlauter","type":"Kreisangehörige_Gemeinde"},"district":{"key":"09674","name":"Haßberge","type":"Landkreis"},"federalState":{"key":"09","name":"Bayern"}},{"name":"Ringstr.","postalCode":"96166","locality":"Kirchlauter","municipality":{"key":"09674160","name":"Kirchlauter","type":"Kreisangehörige_Gemeinde"},"district":{"key":"09674","name":"Haßberge","type":"Landkreis"},"federalState":{"key":"09","name":"Bayern"}},{"name":"Schafhausgasse","postalCode":"96166","locality":"Kirchlauter","municipality":{"key":"09674160","name":"Kirchlauter","type":"Kreisangehörige_Gemeinde"},"district":{"key":"09674","name":"Haßberge","type":"Landkreis"},"federalState":{"key":"09","name":"Bayern"}},{"name":"Siedlung Mitte","postalCode":"96166","locality":"Kirchlauter","municipality":{"key":"09674160","name":"Kirchlauter","type":"Kreisangehörige_Gemeinde"},"district":{"key":"09674","name":"Haßberge","type":"Landkreis"},"federalState":{"key":"09","name":"Bayern"}},{"name":"Sportplatzstr.","postalCode":"96166","locality":"Kirchlauter","municipality":{"key":"09674160","name":"Kirchlauter","type":"Kreisangehörige_Gemeinde"},"district":{"key":"09674","name":"Haßberge","type":"Landkreis"},"federalState":{"key":"09","name":"Bayern"}},{"name":"Stauffenbergstr.","postalCode":"96166","locality":"Kirchlauter","municipality":{"key":"09674160","name":"Kirchlauter","type":"Kreisangehörige_Gemeinde"},"district":{"key":"09674","name":"Haßberge","type":"Landkreis"},"federalState":{"key":"09","name":"Bayern"}},{"name":"Steinhauer Weg","postalCode":"96166","locality":"Kirchlauter","municipality":{"key":"09674160","name":"Kirchlauter","type":"Kreisangehörige_Gemeinde"},"district":{"key":"09674","name":"Haßberge","type":"Landkreis"},"federalState":{"key":"09","name":"Bayern"}},{"name":"Tonbergstr.","postalCode":"96166","locality":"Kirchlauter","municipality":{"key":"09674160","name":"Kirchlauter","type":"Kreisangehörige_Gemeinde"},"district":{"key":"09674","name":"Haßberge","type":"Landkreis"},"federalState":{"key":"09","name":"Bayern"}},{"name":"Untere Leitenstr.","postalCode":"96166","locality":"Kirchlauter","municipality":{"key":"09674160","name":"Kirchlauter","type":"Kreisangehörige_Gemeinde"},"district":{"key":"09674","name":"Haßberge","type":"Landkreis"},"federalState":{"key":"09","name":"Bayern"}},{"name":"Weserstr.","postalCode":"31626","locality":"Haßbergen","municipality":{"key":"03256011","name":"Haßbergen","type":"Kreisangehörige_Gemeinde"},"district":{"key":"03256","name":"Nienburg (Weser)","type":"Landkreis"},"federalState":{"key":"03","name":"Niedersachsen"}},{"name":"Wiesenweg","postalCode":"31626","locality":"Haßbergen","municipality":{"key":"03256011","name":"Haßbergen","type":"Kreisangehörige_Gemeinde"},"district":{"key":"03256","name":"Nienburg (Weser)","type":"Landkreis"},"federalState":{"key":"03","name":"Niedersachsen"}},{"name":"Zeiler Weg","postalCode":"96166","locality":"Kirchlauter","municipality":{"key":"09674160","name":"Kirchlauter","type":"Kreisangehörige_Gemeinde"},"district":{"key":"09674","name":"Haßberge","type":"Landkreis"},"federalState":{"key":"09","name":"Bayern"}},]