[{"name":"Altes Gut","postalCode":"39365","locality":"Sommersdorf","municipality":{"key":"15083485","name":"Sommersdorf","type":"Kreisangehörige_Gemeinde"},"district":{"key":"15083","name":"Börde","type":"Landkreis"},"federalState":{"key":"15","name":"Sachsen-Anhalt"}},{"name":"Am alten Friedhof","postalCode":"39365","locality":"Sommersdorf","municipality":{"key":"15083485","name":"Sommersdorf","type":"Kreisangehörige_Gemeinde"},"district":{"key":"15083","name":"Börde","type":"Landkreis"},"federalState":{"key":"15","name":"Sachsen-Anhalt"}},{"name":"Badelebener Str.","postalCode":"39365","locality":"Sommersdorf","municipality":{"key":"15083485","name":"Sommersdorf","type":"Kreisangehörige_Gemeinde"},"district":{"key":"15083","name":"Börde","type":"Landkreis"},"federalState":{"key":"15","name":"Sachsen-Anhalt"}},{"name":"Bahnhofsiedlung","postalCode":"39365","locality":"Sommersdorf","municipality":{"key":"15083485","name":"Sommersdorf","type":"Kreisangehörige_Gemeinde"},"district":{"key":"15083","name":"Börde","type":"Landkreis"},"federalState":{"key":"15","name":"Sachsen-Anhalt"}},{"name":"Bergstr.","postalCode":"39365","locality":"Sommersdorf","municipality":{"key":"15083485","name":"Sommersdorf","type":"Kreisangehörige_Gemeinde"},"district":{"key":"15083","name":"Börde","type":"Landkreis"},"federalState":{"key":"15","name":"Sachsen-Anhalt"}},{"name":"Bier-Weg","postalCode":"39365","locality":"Sommersdorf","municipality":{"key":"15083485","name":"Sommersdorf","type":"Kreisangehörige_Gemeinde"},"district":{"key":"15083","name":"Börde","type":"Landkreis"},"federalState":{"key":"15","name":"Sachsen-Anhalt"}},{"name":"Birkenallee","postalCode":"17111","locality":"Sommersdorf","municipality":{"key":"13071139","name":"Sommersdorf","type":"Kreisangehörige_Gemeinde"},"district":{"key":"13071","name":"Mecklenburgische Seenplatte","type":"Landkreis"},"federalState":{"key":"13","name":"Mecklenburg-Vorpommern"}},{"name":"Birkenweg","postalCode":"39365","locality":"Sommersdorf","municipality":{"key":"15083485","name":"Sommersdorf","type":"Kreisangehörige_Gemeinde"},"district":{"key":"15083","name":"Börde","type":"Landkreis"},"federalState":{"key":"15","name":"Sachsen-Anhalt"}},{"name":"Birnenallee","postalCode":"39365","locality":"Sommersdorf","municipality":{"key":"15083485","name":"Sommersdorf","type":"Kreisangehörige_Gemeinde"},"district":{"key":"15083","name":"Börde","type":"Landkreis"},"federalState":{"key":"15","name":"Sachsen-Anhalt"}},{"name":"Bungalowsiedlung I","postalCode":"17111","locality":"Sommersdorf","municipality":{"key":"13071139","name":"Sommersdorf","type":"Kreisangehörige_Gemeinde"},"district":{"key":"13071","name":"Mecklenburgische Seenplatte","type":"Landkreis"},"federalState":{"key":"13","name":"Mecklenburg-Vorpommern"}},{"name":"Bungalowsiedlung II","postalCode":"17111","locality":"Sommersdorf","municipality":{"key":"13071139","name":"Sommersdorf","type":"Kreisangehörige_Gemeinde"},"district":{"key":"13071","name":"Mecklenburgische Seenplatte","type":"Landkreis"},"federalState":{"key":"13","name":"Mecklenburg-Vorpommern"}},{"name":"Clara-Zetkin-Str.","postalCode":"39365","locality":"Sommersdorf","municipality":{"key":"15083485","name":"Sommersdorf","type":"Kreisangehörige_Gemeinde"},"district":{"key":"15083","name":"Börde","type":"Landkreis"},"federalState":{"key":"15","name":"Sachsen-Anhalt"}},{"name":"Dorfstr.","postalCode":"17111","locality":"Sommersdorf","municipality":{"key":"13071139","name":"Sommersdorf","type":"Kreisangehörige_Gemeinde"},"district":{"key":"13071","name":"Mecklenburgische Seenplatte","type":"Landkreis"},"federalState":{"key":"13","name":"Mecklenburg-Vorpommern"}},{"name":"Ernst-Thälmann-Str.","postalCode":"39365","locality":"Sommersdorf","municipality":{"key":"15083485","name":"Sommersdorf","type":"Kreisangehörige_Gemeinde"},"district":{"key":"15083","name":"Börde","type":"Landkreis"},"federalState":{"key":"15","name":"Sachsen-Anhalt"}},{"name":"Fleischerberg","postalCode":"39365","locality":"Sommersdorf","municipality":{"key":"15083485","name":"Sommersdorf","type":"Kreisangehörige_Gemeinde"},"district":{"key":"15083","name":"Börde","type":"Landkreis"},"federalState":{"key":"15","name":"Sachsen-Anhalt"}},{"name":"Friedensstr.","postalCode":"39365","locality":"Sommersdorf","municipality":{"key":"15083485","name":"Sommersdorf","type":"Kreisangehörige_Gemeinde"},"district":{"key":"15083","name":"Börde","type":"Landkreis"},"federalState":{"key":"15","name":"Sachsen-Anhalt"}},{"name":"Friedenswinkel","postalCode":"39365","locality":"Sommersdorf","municipality":{"key":"15083485","name":"Sommersdorf","type":"Kreisangehörige_Gemeinde"},"district":{"key":"15083","name":"Börde","type":"Landkreis"},"federalState":{"key":"15","name":"Sachsen-Anhalt"}},{"name":"Gänseberg","postalCode":"39365","locality":"Sommersdorf","municipality":{"key":"15083485","name":"Sommersdorf","type":"Kreisangehörige_Gemeinde"},"district":{"key":"15083","name":"Börde","type":"Landkreis"},"federalState":{"key":"15","name":"Sachsen-Anhalt"}},{"name":"Gemeindeplatz","postalCode":"39365","locality":"Sommersdorf","municipality":{"key":"15083485","name":"Sommersdorf","type":"Kreisangehörige_Gemeinde"},"district":{"key":"15083","name":"Börde","type":"Landkreis"},"federalState":{"key":"15","name":"Sachsen-Anhalt"}},{"name":"Gneisenaustr.","postalCode":"39365","locality":"Sommersdorf","municipality":{"key":"15083485","name":"Sommersdorf","type":"Kreisangehörige_Gemeinde"},"district":{"key":"15083","name":"Börde","type":"Landkreis"},"federalState":{"key":"15","name":"Sachsen-Anhalt"}},{"name":"Grabenweg","postalCode":"39365","locality":"Sommersdorf","municipality":{"key":"15083485","name":"Sommersdorf","type":"Kreisangehörige_Gemeinde"},"district":{"key":"15083","name":"Börde","type":"Landkreis"},"federalState":{"key":"15","name":"Sachsen-Anhalt"}},{"name":"Harbker Str.","postalCode":"39365","locality":"Sommersdorf","municipality":{"key":"15083485","name":"Sommersdorf","type":"Kreisangehörige_Gemeinde"},"district":{"key":"15083","name":"Börde","type":"Landkreis"},"federalState":{"key":"15","name":"Sachsen-Anhalt"}},{"name":"Harbker Weg","postalCode":"39365","locality":"Sommersdorf","municipality":{"key":"15083485","name":"Sommersdorf","type":"Kreisangehörige_Gemeinde"},"district":{"key":"15083","name":"Börde","type":"Landkreis"},"federalState":{"key":"15","name":"Sachsen-Anhalt"}},{"name":"Hauptstr.","postalCode":"39365","locality":"Sommersdorf","municipality":{"key":"15083485","name":"Sommersdorf","type":"Kreisangehörige_Gemeinde"},"district":{"key":"15083","name":"Börde","type":"Landkreis"},"federalState":{"key":"15","name":"Sachsen-Anhalt"}},{"name":"Heinrich-Heine-Str.","postalCode":"39365","locality":"Sommersdorf","municipality":{"key":"15083485","name":"Sommersdorf","type":"Kreisangehörige_Gemeinde"},"district":{"key":"15083","name":"Börde","type":"Landkreis"},"federalState":{"key":"15","name":"Sachsen-Anhalt"}},{"name":"Hohnslebener Str.","postalCode":"39365","locality":"Sommersdorf","municipality":{"key":"15083485","name":"Sommersdorf","type":"Kreisangehörige_Gemeinde"},"district":{"key":"15083","name":"Börde","type":"Landkreis"},"federalState":{"key":"15","name":"Sachsen-Anhalt"}},{"name":"Kleiberg","postalCode":"39365","locality":"Sommersdorf","municipality":{"key":"15083485","name":"Sommersdorf","type":"Kreisangehörige_Gemeinde"},"district":{"key":"15083","name":"Börde","type":"Landkreis"},"federalState":{"key":"15","name":"Sachsen-Anhalt"}},{"name":"Kleine Gasse","postalCode":"39365","locality":"Sommersdorf","municipality":{"key":"15083485","name":"Sommersdorf","type":"Kreisangehörige_Gemeinde"},"district":{"key":"15083","name":"Börde","type":"Landkreis"},"federalState":{"key":"15","name":"Sachsen-Anhalt"}},{"name":"Kolonnenweg","postalCode":"39365","locality":"Sommersdorf","municipality":{"key":"15083485","name":"Sommersdorf","type":"Kreisangehörige_Gemeinde"},"district":{"key":"15083","name":"Börde","type":"Landkreis"},"federalState":{"key":"15","name":"Sachsen-Anhalt"}},{"name":"Lindenstr.","postalCode":"39365","locality":"Sommersdorf","municipality":{"key":"15083485","name":"Sommersdorf","type":"Kreisangehörige_Gemeinde"},"district":{"key":"15083","name":"Börde","type":"Landkreis"},"federalState":{"key":"15","name":"Sachsen-Anhalt"}},{"name":"Magdeburger Siedlung","postalCode":"39365","locality":"Sommersdorf","municipality":{"key":"15083485","name":"Sommersdorf","type":"Kreisangehörige_Gemeinde"},"district":{"key":"15083","name":"Börde","type":"Landkreis"},"federalState":{"key":"15","name":"Sachsen-Anhalt"}},{"name":"Maxim-Gorki-Str.","postalCode":"39365","locality":"Sommersdorf","municipality":{"key":"15083485","name":"Sommersdorf","type":"Kreisangehörige_Gemeinde"},"district":{"key":"15083","name":"Börde","type":"Landkreis"},"federalState":{"key":"15","name":"Sachsen-Anhalt"}},{"name":"Meesiger Damm","postalCode":"17111","locality":"Sommersdorf","municipality":{"key":"13071139","name":"Sommersdorf","type":"Kreisangehörige_Gemeinde"},"district":{"key":"13071","name":"Mecklenburgische Seenplatte","type":"Landkreis"},"federalState":{"key":"13","name":"Mecklenburg-Vorpommern"}},{"name":"Neu Sommersdorf","postalCode":"17111","locality":"Sommersdorf","municipality":{"key":"13071139","name":"Sommersdorf","type":"Kreisangehörige_Gemeinde"},"district":{"key":"13071","name":"Mecklenburgische Seenplatte","type":"Landkreis"},"federalState":{"key":"13","name":"Mecklenburg-Vorpommern"}},{"name":"Phillipp-Müller-Str.","postalCode":"39365","locality":"Sommersdorf","municipality":{"key":"15083485","name":"Sommersdorf","type":"Kreisangehörige_Gemeinde"},"district":{"key":"15083","name":"Börde","type":"Landkreis"},"federalState":{"key":"15","name":"Sachsen-Anhalt"}},{"name":"Rosa-Luxemburg-Str.","postalCode":"39365","locality":"Sommersdorf","municipality":{"key":"15083485","name":"Sommersdorf","type":"Kreisangehörige_Gemeinde"},"district":{"key":"15083","name":"Börde","type":"Landkreis"},"federalState":{"key":"15","name":"Sachsen-Anhalt"}},{"name":"Rudolf-Breitscheid-Str.","postalCode":"39365","locality":"Sommersdorf","municipality":{"key":"15083485","name":"Sommersdorf","type":"Kreisangehörige_Gemeinde"},"district":{"key":"15083","name":"Börde","type":"Landkreis"},"federalState":{"key":"15","name":"Sachsen-Anhalt"}},{"name":"Schmiedebreite","postalCode":"39365","locality":"Sommersdorf","municipality":{"key":"15083485","name":"Sommersdorf","type":"Kreisangehörige_Gemeinde"},"district":{"key":"15083","name":"Börde","type":"Landkreis"},"federalState":{"key":"15","name":"Sachsen-Anhalt"}},{"name":"Schulberg","postalCode":"39365","locality":"Sommersdorf","municipality":{"key":"15083485","name":"Sommersdorf","type":"Kreisangehörige_Gemeinde"},"district":{"key":"15083","name":"Börde","type":"Landkreis"},"federalState":{"key":"15","name":"Sachsen-Anhalt"}},{"name":"Seeperle","postalCode":"17111","locality":"Sommersdorf","municipality":{"key":"13071139","name":"Sommersdorf","type":"Kreisangehörige_Gemeinde"},"district":{"key":"13071","name":"Mecklenburgische Seenplatte","type":"Landkreis"},"federalState":{"key":"13","name":"Mecklenburg-Vorpommern"}},{"name":"Steinweg","postalCode":"39365","locality":"Sommersdorf","municipality":{"key":"15083485","name":"Sommersdorf","type":"Kreisangehörige_Gemeinde"},"district":{"key":"15083","name":"Börde","type":"Landkreis"},"federalState":{"key":"15","name":"Sachsen-Anhalt"}},{"name":"Unterburg","postalCode":"39365","locality":"Sommersdorf","municipality":{"key":"15083485","name":"Sommersdorf","type":"Kreisangehörige_Gemeinde"},"district":{"key":"15083","name":"Börde","type":"Landkreis"},"federalState":{"key":"15","name":"Sachsen-Anhalt"}},{"name":"Völpker Str.","postalCode":"39365","locality":"Sommersdorf","municipality":{"key":"15083485","name":"Sommersdorf","type":"Kreisangehörige_Gemeinde"},"district":{"key":"15083","name":"Börde","type":"Landkreis"},"federalState":{"key":"15","name":"Sachsen-Anhalt"}},{"name":"Wiedebuschbreite","postalCode":"39365","locality":"Sommersdorf","municipality":{"key":"15083485","name":"Sommersdorf","type":"Kreisangehörige_Gemeinde"},"district":{"key":"15083","name":"Börde","type":"Landkreis"},"federalState":{"key":"15","name":"Sachsen-Anhalt"}},{"name":"Wiesenweg","postalCode":"39365","locality":"Sommersdorf","municipality":{"key":"15083485","name":"Sommersdorf","type":"Kreisangehörige_Gemeinde"},"district":{"key":"15083","name":"Börde","type":"Landkreis"},"federalState":{"key":"15","name":"Sachsen-Anhalt"}},{"name":"Ziegenberg","postalCode":"39365","locality":"Sommersdorf","municipality":{"key":"15083485","name":"Sommersdorf","type":"Kreisangehörige_Gemeinde"},"district":{"key":"15083","name":"Börde","type":"Landkreis"},"federalState":{"key":"15","name":"Sachsen-Anhalt"}},{"name":"Zum See","postalCode":"17111","locality":"Sommersdorf","municipality":{"key":"13071139","name":"Sommersdorf","type":"Kreisangehörige_Gemeinde"},"district":{"key":"13071","name":"Mecklenburgische Seenplatte","type":"Landkreis"},"federalState":{"key":"13","name":"Mecklenburg-Vorpommern"}},]