[{"name":"Ackerweg","postalCode":"56589","locality":"Niederbreitbach","municipality":{"key":"07138047","name":"Niederbreitbach","type":"Kreisangehörige_Gemeinde"},"district":{"key":"07138","name":"Neuwied","type":"Landkreis"},"federalState":{"key":"07","name":"Rheinland-Pfalz"}},{"name":"Am Rosenberg","postalCode":"56589","locality":"Niederbreitbach","municipality":{"key":"07138047","name":"Niederbreitbach","type":"Kreisangehörige_Gemeinde"},"district":{"key":"07138","name":"Neuwied","type":"Landkreis"},"federalState":{"key":"07","name":"Rheinland-Pfalz"}},{"name":"Am Weinberg","postalCode":"56589","locality":"Niederbreitbach","municipality":{"key":"07138047","name":"Niederbreitbach","type":"Kreisangehörige_Gemeinde"},"district":{"key":"07138","name":"Neuwied","type":"Landkreis"},"federalState":{"key":"07","name":"Rheinland-Pfalz"}},{"name":"An der Krölls Mühle","postalCode":"56589","locality":"Niederbreitbach","municipality":{"key":"07138047","name":"Niederbreitbach","type":"Kreisangehörige_Gemeinde"},"district":{"key":"07138","name":"Neuwied","type":"Landkreis"},"federalState":{"key":"07","name":"Rheinland-Pfalz"}},{"name":"Auf den drei Viertel","postalCode":"56589","locality":"Niederbreitbach","municipality":{"key":"07138047","name":"Niederbreitbach","type":"Kreisangehörige_Gemeinde"},"district":{"key":"07138","name":"Neuwied","type":"Landkreis"},"federalState":{"key":"07","name":"Rheinland-Pfalz"}},{"name":"Birkenweg","postalCode":"56589","locality":"Niederbreitbach","municipality":{"key":"07138047","name":"Niederbreitbach","type":"Kreisangehörige_Gemeinde"},"district":{"key":"07138","name":"Neuwied","type":"Landkreis"},"federalState":{"key":"07","name":"Rheinland-Pfalz"}},{"name":"Boorweg","postalCode":"56589","locality":"Niederbreitbach","municipality":{"key":"07138047","name":"Niederbreitbach","type":"Kreisangehörige_Gemeinde"},"district":{"key":"07138","name":"Neuwied","type":"Landkreis"},"federalState":{"key":"07","name":"Rheinland-Pfalz"}},{"name":"Brunnenweg","postalCode":"56589","locality":"Niederbreitbach","municipality":{"key":"07138047","name":"Niederbreitbach","type":"Kreisangehörige_Gemeinde"},"district":{"key":"07138","name":"Neuwied","type":"Landkreis"},"federalState":{"key":"07","name":"Rheinland-Pfalz"}},{"name":"Calvinstr.","postalCode":"56567","locality":"Neuwied","municipality":{"key":"07138045","name":"Neuwied, Stadt","type":"Stadt"},"district":{"key":"07138","name":"Neuwied","type":"Landkreis"},"federalState":{"key":"07","name":"Rheinland-Pfalz"}},{"name":"Capybaras","postalCode":"56566","locality":"Neuwied","municipality":{"key":"07138045","name":"Neuwied, Stadt","type":"Stadt"},"district":{"key":"07138","name":"Neuwied","type":"Landkreis"},"federalState":{"key":"07","name":"Rheinland-Pfalz"}},{"name":"Carmen-Sylva-Garten","postalCode":"56564","locality":"Neuwied","municipality":{"key":"07138045","name":"Neuwied, Stadt","type":"Stadt"},"district":{"key":"07138","name":"Neuwied","type":"Landkreis"},"federalState":{"key":"07","name":"Rheinland-Pfalz"}},{"name":"Cheruskerstr.","postalCode":"56567","locality":"Neuwied","municipality":{"key":"07138045","name":"Neuwied, Stadt","type":"Stadt"},"district":{"key":"07138","name":"Neuwied","type":"Landkreis"},"federalState":{"key":"07","name":"Rheinland-Pfalz"}},{"name":"Clemensstr.","postalCode":"56566","locality":"Neuwied","municipality":{"key":"07138045","name":"Neuwied, Stadt","type":"Stadt"},"district":{"key":"07138","name":"Neuwied","type":"Landkreis"},"federalState":{"key":"07","name":"Rheinland-Pfalz"}},{"name":"Cranachstr.","postalCode":"56566","locality":"Neuwied","municipality":{"key":"07138045","name":"Neuwied, Stadt","type":"Stadt"},"district":{"key":"07138","name":"Neuwied","type":"Landkreis"},"federalState":{"key":"07","name":"Rheinland-Pfalz"}},{"name":"Dachspfad","postalCode":"56566","locality":"Neuwied","municipality":{"key":"07138045","name":"Neuwied, Stadt","type":"Stadt"},"district":{"key":"07138","name":"Neuwied","type":"Landkreis"},"federalState":{"key":"07","name":"Rheinland-Pfalz"}},{"name":"Dahlbachs Weg","postalCode":"56566","locality":"Neuwied","municipality":{"key":"07138045","name":"Neuwied, Stadt","type":"Stadt"},"district":{"key":"07138","name":"Neuwied","type":"Landkreis"},"federalState":{"key":"07","name":"Rheinland-Pfalz"}},{"name":"Dahlienweg","postalCode":"56566","locality":"Neuwied","municipality":{"key":"07138045","name":"Neuwied, Stadt","type":"Stadt"},"district":{"key":"07138","name":"Neuwied","type":"Landkreis"},"federalState":{"key":"07","name":"Rheinland-Pfalz"}},{"name":"Dammstr.","postalCode":"56564","locality":"Neuwied","municipality":{"key":"07138045","name":"Neuwied, Stadt","type":"Stadt"},"district":{"key":"07138","name":"Neuwied","type":"Landkreis"},"federalState":{"key":"07","name":"Rheinland-Pfalz"}},{"name":"Damwild","postalCode":"56566","locality":"Neuwied","municipality":{"key":"07138045","name":"Neuwied, Stadt","type":"Stadt"},"district":{"key":"07138","name":"Neuwied","type":"Landkreis"},"federalState":{"key":"07","name":"Rheinland-Pfalz"}},{"name":"Danziger Str.","postalCode":"56564","locality":"Neuwied","municipality":{"key":"07138045","name":"Neuwied, Stadt","type":"Stadt"},"district":{"key":"07138","name":"Neuwied","type":"Landkreis"},"federalState":{"key":"07","name":"Rheinland-Pfalz"}},{"name":"Deichanlage Neuwied","postalCode":"56564","locality":"Neuwied","municipality":{"key":"07138045","name":"Neuwied, Stadt","type":"Stadt"},"district":{"key":"07138","name":"Neuwied","type":"Landkreis"},"federalState":{"key":"07","name":"Rheinland-Pfalz"}},{"name":"Deichstr.","postalCode":"56564","locality":"Neuwied","municipality":{"key":"07138045","name":"Neuwied, Stadt","type":"Stadt"},"district":{"key":"07138","name":"Neuwied","type":"Landkreis"},"federalState":{"key":"07","name":"Rheinland-Pfalz"}},{"name":"Diamantstr.","postalCode":"56566","locality":"Neuwied","municipality":{"key":"07138045","name":"Neuwied, Stadt","type":"Stadt"},"district":{"key":"07138","name":"Neuwied","type":"Landkreis"},"federalState":{"key":"07","name":"Rheinland-Pfalz"}},{"name":"Dierdorfer Str.","postalCode":"56564","locality":"Neuwied","municipality":{"key":"07138045","name":"Neuwied, Stadt","type":"Stadt"},"district":{"key":"07138","name":"Neuwied","type":"Landkreis"},"federalState":{"key":"07","name":"Rheinland-Pfalz"}},{"name":"Dierdorfer Str.","postalCode":"56566","locality":"Neuwied","municipality":{"key":"07138045","name":"Neuwied, Stadt","type":"Stadt"},"district":{"key":"07138","name":"Neuwied","type":"Landkreis"},"federalState":{"key":"07","name":"Rheinland-Pfalz"}},{"name":"Dierdorfer Str.","postalCode":"56567","locality":"Neuwied","municipality":{"key":"07138045","name":"Neuwied, Stadt","type":"Stadt"},"district":{"key":"07138","name":"Neuwied","type":"Landkreis"},"federalState":{"key":"07","name":"Rheinland-Pfalz"}},{"name":"Dietrich-Bonhoeffer-Str.","postalCode":"56566","locality":"Neuwied","municipality":{"key":"07138045","name":"Neuwied, Stadt","type":"Stadt"},"district":{"key":"07138","name":"Neuwied","type":"Landkreis"},"federalState":{"key":"07","name":"Rheinland-Pfalz"}},{"name":"Donaustr.","postalCode":"56567","locality":"Neuwied","municipality":{"key":"07138045","name":"Neuwied, Stadt","type":"Stadt"},"district":{"key":"07138","name":"Neuwied","type":"Landkreis"},"federalState":{"key":"07","name":"Rheinland-Pfalz"}},{"name":"Dorfstr.","postalCode":"56567","locality":"Neuwied","municipality":{"key":"07138045","name":"Neuwied, Stadt","type":"Stadt"},"district":{"key":"07138","name":"Neuwied","type":"Landkreis"},"federalState":{"key":"07","name":"Rheinland-Pfalz"}},{"name":"Dr.-Gustav-Heinemann-Str.","postalCode":"56564","locality":"Neuwied","municipality":{"key":"07138045","name":"Neuwied, Stadt","type":"Stadt"},"district":{"key":"07138","name":"Neuwied","type":"Landkreis"},"federalState":{"key":"07","name":"Rheinland-Pfalz"}},{"name":"Dr.-Karl-Carstens-Str.","postalCode":"56564","locality":"Neuwied","municipality":{"key":"07138045","name":"Neuwied, Stadt","type":"Stadt"},"district":{"key":"07138","name":"Neuwied","type":"Landkreis"},"federalState":{"key":"07","name":"Rheinland-Pfalz"}},{"name":"Dr.-Lüssem-Str.","postalCode":"56566","locality":"Neuwied","municipality":{"key":"07138045","name":"Neuwied, Stadt","type":"Stadt"},"district":{"key":"07138","name":"Neuwied","type":"Landkreis"},"federalState":{"key":"07","name":"Rheinland-Pfalz"}},{"name":"Drosselpfad","postalCode":"56564","locality":"Neuwied","municipality":{"key":"07138045","name":"Neuwied, Stadt","type":"Stadt"},"district":{"key":"07138","name":"Neuwied","type":"Landkreis"},"federalState":{"key":"07","name":"Rheinland-Pfalz"}},{"name":"Durchgang Tor Parkplätze Aldi und Edeka","postalCode":"56566","locality":"Neuwied","municipality":{"key":"07138045","name":"Neuwied, Stadt","type":"Stadt"},"district":{"key":"07138","name":"Neuwied","type":"Landkreis"},"federalState":{"key":"07","name":"Rheinland-Pfalz"}},{"name":"Dürerstr.","postalCode":"56566","locality":"Neuwied","municipality":{"key":"07138045","name":"Neuwied, Stadt","type":"Stadt"},"district":{"key":"07138","name":"Neuwied","type":"Landkreis"},"federalState":{"key":"07","name":"Rheinland-Pfalz"}},{"name":"Edelweißstr.","postalCode":"56566","locality":"Neuwied","municipality":{"key":"07138045","name":"Neuwied, Stadt","type":"Stadt"},"district":{"key":"07138","name":"Neuwied","type":"Landkreis"},"federalState":{"key":"07","name":"Rheinland-Pfalz"}},{"name":"Eduard-Mörike-Str.","postalCode":"56567","locality":"Neuwied","municipality":{"key":"07138045","name":"Neuwied, Stadt","type":"Stadt"},"district":{"key":"07138","name":"Neuwied","type":"Landkreis"},"federalState":{"key":"07","name":"Rheinland-Pfalz"}},{"name":"Eduard-Verhülsdonk-Str.","postalCode":"56564","locality":"Neuwied","municipality":{"key":"07138045","name":"Neuwied, Stadt","type":"Stadt"},"district":{"key":"07138","name":"Neuwied","type":"Landkreis"},"federalState":{"key":"07","name":"Rheinland-Pfalz"}},{"name":"Eichenweg","postalCode":"56564","locality":"Neuwied","municipality":{"key":"07138045","name":"Neuwied, Stadt","type":"Stadt"},"district":{"key":"07138","name":"Neuwied","type":"Landkreis"},"federalState":{"key":"07","name":"Rheinland-Pfalz"}},{"name":"Eifelblick","postalCode":"56566","locality":"Neuwied","municipality":{"key":"07138045","name":"Neuwied, Stadt","type":"Stadt"},"district":{"key":"07138","name":"Neuwied","type":"Landkreis"},"federalState":{"key":"07","name":"Rheinland-Pfalz"}},{"name":"Einsteinstr.","postalCode":"56566","locality":"Neuwied","municipality":{"key":"07138045","name":"Neuwied, Stadt","type":"Stadt"},"district":{"key":"07138","name":"Neuwied","type":"Landkreis"},"federalState":{"key":"07","name":"Rheinland-Pfalz"}},{"name":"Eisenbachsweg","postalCode":"56566","locality":"Neuwied","municipality":{"key":"07138045","name":"Neuwied, Stadt","type":"Stadt"},"district":{"key":"07138","name":"Neuwied","type":"Landkreis"},"federalState":{"key":"07","name":"Rheinland-Pfalz"}},{"name":"Eisenbahnstr.","postalCode":"56566","locality":"Neuwied","municipality":{"key":"07138045","name":"Neuwied, Stadt","type":"Stadt"},"district":{"key":"07138","name":"Neuwied","type":"Landkreis"},"federalState":{"key":"07","name":"Rheinland-Pfalz"}},{"name":"Elbinger Str.","postalCode":"56566","locality":"Neuwied","municipality":{"key":"07138045","name":"Neuwied, Stadt","type":"Stadt"},"district":{"key":"07138","name":"Neuwied","type":"Landkreis"},"federalState":{"key":"07","name":"Rheinland-Pfalz"}},{"name":"Elfriede-Seppi-Str.","postalCode":"56564","locality":"Neuwied","municipality":{"key":"07138045","name":"Neuwied, Stadt","type":"Stadt"},"district":{"key":"07138","name":"Neuwied","type":"Landkreis"},"federalState":{"key":"07","name":"Rheinland-Pfalz"}},{"name":"Elisabethstr.","postalCode":"56564","locality":"Neuwied","municipality":{"key":"07138045","name":"Neuwied, Stadt","type":"Stadt"},"district":{"key":"07138","name":"Neuwied","type":"Landkreis"},"federalState":{"key":"07","name":"Rheinland-Pfalz"}},{"name":"Elmsweg","postalCode":"56566","locality":"Neuwied","municipality":{"key":"07138045","name":"Neuwied, Stadt","type":"Stadt"},"district":{"key":"07138","name":"Neuwied","type":"Landkreis"},"federalState":{"key":"07","name":"Rheinland-Pfalz"}},{"name":"Elsternweg","postalCode":"56564","locality":"Neuwied","municipality":{"key":"07138045","name":"Neuwied, Stadt","type":"Stadt"},"district":{"key":"07138","name":"Neuwied","type":"Landkreis"},"federalState":{"key":"07","name":"Rheinland-Pfalz"}},{"name":"Emmy-von-Rhoden-Str.","postalCode":"56564","locality":"Neuwied","municipality":{"key":"07138045","name":"Neuwied, Stadt","type":"Stadt"},"district":{"key":"07138","name":"Neuwied","type":"Landkreis"},"federalState":{"key":"07","name":"Rheinland-Pfalz"}},{"name":"Engersbach","postalCode":"56566","locality":"Neuwied","municipality":{"key":"07138045","name":"Neuwied, Stadt","type":"Stadt"},"district":{"key":"07138","name":"Neuwied","type":"Landkreis"},"federalState":{"key":"07","name":"Rheinland-Pfalz"}},{"name":"Engerser Landstr.","postalCode":"56564","locality":"Neuwied","municipality":{"key":"07138045","name":"Neuwied, Stadt","type":"Stadt"},"district":{"key":"07138","name":"Neuwied","type":"Landkreis"},"federalState":{"key":"07","name":"Rheinland-Pfalz"}},{"name":"Engerser Landstr.","postalCode":"56566","locality":"Neuwied","municipality":{"key":"07138045","name":"Neuwied, Stadt","type":"Stadt"},"district":{"key":"07138","name":"Neuwied","type":"Landkreis"},"federalState":{"key":"07","name":"Rheinland-Pfalz"}},{"name":"Engerser Str.","postalCode":"56564","locality":"Neuwied","municipality":{"key":"07138045","name":"Neuwied, Stadt","type":"Stadt"},"district":{"key":"07138","name":"Neuwied","type":"Landkreis"},"federalState":{"key":"07","name":"Rheinland-Pfalz"}},{"name":"Engersgaustr.","postalCode":"56566","locality":"Neuwied","municipality":{"key":"07138045","name":"Neuwied, Stadt","type":"Stadt"},"district":{"key":"07138","name":"Neuwied","type":"Landkreis"},"federalState":{"key":"07","name":"Rheinland-Pfalz"}},{"name":"Enzianstr.","postalCode":"56566","locality":"Neuwied","municipality":{"key":"07138045","name":"Neuwied, Stadt","type":"Stadt"},"district":{"key":"07138","name":"Neuwied","type":"Landkreis"},"federalState":{"key":"07","name":"Rheinland-Pfalz"}},{"name":"Erdmännchen","postalCode":"56566","locality":"Neuwied","municipality":{"key":"07138045","name":"Neuwied, Stadt","type":"Stadt"},"district":{"key":"07138","name":"Neuwied","type":"Landkreis"},"federalState":{"key":"07","name":"Rheinland-Pfalz"}},{"name":"Erich-Kästner-Str.","postalCode":"56564","locality":"Neuwied","municipality":{"key":"07138045","name":"Neuwied, Stadt","type":"Stadt"},"district":{"key":"07138","name":"Neuwied","type":"Landkreis"},"federalState":{"key":"07","name":"Rheinland-Pfalz"}},{"name":"Erlenweg","postalCode":"56564","locality":"Neuwied","municipality":{"key":"07138045","name":"Neuwied, Stadt","type":"Stadt"},"district":{"key":"07138","name":"Neuwied","type":"Landkreis"},"federalState":{"key":"07","name":"Rheinland-Pfalz"}},{"name":"Ernst-Barlach-Str.","postalCode":"56567","locality":"Neuwied","municipality":{"key":"07138045","name":"Neuwied, Stadt","type":"Stadt"},"district":{"key":"07138","name":"Neuwied","type":"Landkreis"},"federalState":{"key":"07","name":"Rheinland-Pfalz"}},{"name":"Eulen, Fasane","postalCode":"56566","locality":"Neuwied","municipality":{"key":"07138045","name":"Neuwied, Stadt","type":"Stadt"},"district":{"key":"07138","name":"Neuwied","type":"Landkreis"},"federalState":{"key":"07","name":"Rheinland-Pfalz"}},{"name":"Eulenweg","postalCode":"56564","locality":"Neuwied","municipality":{"key":"07138045","name":"Neuwied, Stadt","type":"Stadt"},"district":{"key":"07138","name":"Neuwied","type":"Landkreis"},"federalState":{"key":"07","name":"Rheinland-Pfalz"}},{"name":"Finkenweg","postalCode":"56589","locality":"Niederbreitbach","municipality":{"key":"07138047","name":"Niederbreitbach","type":"Kreisangehörige_Gemeinde"},"district":{"key":"07138","name":"Neuwied","type":"Landkreis"},"federalState":{"key":"07","name":"Rheinland-Pfalz"}},{"name":"Fockenbachstr.","postalCode":"56589","locality":"Niederbreitbach","municipality":{"key":"07138047","name":"Niederbreitbach","type":"Kreisangehörige_Gemeinde"},"district":{"key":"07138","name":"Neuwied","type":"Landkreis"},"federalState":{"key":"07","name":"Rheinland-Pfalz"}},{"name":"Friesentalstr.","postalCode":"56589","locality":"Niederbreitbach","municipality":{"key":"07138047","name":"Niederbreitbach","type":"Kreisangehörige_Gemeinde"},"district":{"key":"07138","name":"Neuwied","type":"Landkreis"},"federalState":{"key":"07","name":"Rheinland-Pfalz"}},{"name":"Gartenstr.","postalCode":"56589","locality":"Niederbreitbach","municipality":{"key":"07138047","name":"Niederbreitbach","type":"Kreisangehörige_Gemeinde"},"district":{"key":"07138","name":"Neuwied","type":"Landkreis"},"federalState":{"key":"07","name":"Rheinland-Pfalz"}},{"name":"Hegerweg","postalCode":"56589","locality":"Niederbreitbach","municipality":{"key":"07138047","name":"Niederbreitbach","type":"Kreisangehörige_Gemeinde"},"district":{"key":"07138","name":"Neuwied","type":"Landkreis"},"federalState":{"key":"07","name":"Rheinland-Pfalz"}},{"name":"Herrenhofstr.","postalCode":"56589","locality":"Niederbreitbach","municipality":{"key":"07138047","name":"Niederbreitbach","type":"Kreisangehörige_Gemeinde"},"district":{"key":"07138","name":"Neuwied","type":"Landkreis"},"federalState":{"key":"07","name":"Rheinland-Pfalz"}},{"name":"Im Auengarten","postalCode":"56589","locality":"Niederbreitbach","municipality":{"key":"07138047","name":"Niederbreitbach","type":"Kreisangehörige_Gemeinde"},"district":{"key":"07138","name":"Neuwied","type":"Landkreis"},"federalState":{"key":"07","name":"Rheinland-Pfalz"}},{"name":"Im Besenacker","postalCode":"56589","locality":"Niederbreitbach","municipality":{"key":"07138047","name":"Niederbreitbach","type":"Kreisangehörige_Gemeinde"},"district":{"key":"07138","name":"Neuwied","type":"Landkreis"},"federalState":{"key":"07","name":"Rheinland-Pfalz"}},{"name":"Im Großen Boden","postalCode":"56589","locality":"Niederbreitbach","municipality":{"key":"07138047","name":"Niederbreitbach","type":"Kreisangehörige_Gemeinde"},"district":{"key":"07138","name":"Neuwied","type":"Landkreis"},"federalState":{"key":"07","name":"Rheinland-Pfalz"}},{"name":"Im Sonnenhang","postalCode":"56589","locality":"Niederbreitbach","municipality":{"key":"07138047","name":"Niederbreitbach","type":"Kreisangehörige_Gemeinde"},"district":{"key":"07138","name":"Neuwied","type":"Landkreis"},"federalState":{"key":"07","name":"Rheinland-Pfalz"}},{"name":"In der Au","postalCode":"56589","locality":"Niederbreitbach","municipality":{"key":"07138047","name":"Niederbreitbach","type":"Kreisangehörige_Gemeinde"},"district":{"key":"07138","name":"Neuwied","type":"Landkreis"},"federalState":{"key":"07","name":"Rheinland-Pfalz"}},{"name":"Industriestr.","postalCode":"56589","locality":"Niederbreitbach","municipality":{"key":"07138047","name":"Niederbreitbach","type":"Kreisangehörige_Gemeinde"},"district":{"key":"07138","name":"Neuwied","type":"Landkreis"},"federalState":{"key":"07","name":"Rheinland-Pfalz"}},{"name":"Jakobus-Wirth-Str.","postalCode":"56589","locality":"Niederbreitbach","municipality":{"key":"07138047","name":"Niederbreitbach","type":"Kreisangehörige_Gemeinde"},"district":{"key":"07138","name":"Neuwied","type":"Landkreis"},"federalState":{"key":"07","name":"Rheinland-Pfalz"}},{"name":"Kapellenweg","postalCode":"56589","locality":"Niederbreitbach","municipality":{"key":"07138047","name":"Niederbreitbach","type":"Kreisangehörige_Gemeinde"},"district":{"key":"07138","name":"Neuwied","type":"Landkreis"},"federalState":{"key":"07","name":"Rheinland-Pfalz"}},{"name":"Kurtenacker","postalCode":"56589","locality":"Niederbreitbach","municipality":{"key":"07138047","name":"Niederbreitbach","type":"Kreisangehörige_Gemeinde"},"district":{"key":"07138","name":"Neuwied","type":"Landkreis"},"federalState":{"key":"07","name":"Rheinland-Pfalz"}},{"name":"Kurtscheider Str.","postalCode":"56589","locality":"Niederbreitbach","municipality":{"key":"07138047","name":"Niederbreitbach","type":"Kreisangehörige_Gemeinde"},"district":{"key":"07138","name":"Neuwied","type":"Landkreis"},"federalState":{"key":"07","name":"Rheinland-Pfalz"}},{"name":"Lahnstr.","postalCode":"56567","locality":"Neuwied","municipality":{"key":"07138045","name":"Neuwied, Stadt","type":"Stadt"},"district":{"key":"07138","name":"Neuwied","type":"Landkreis"},"federalState":{"key":"07","name":"Rheinland-Pfalz"}},{"name":"Landratsgarten","postalCode":"56564","locality":"Neuwied","municipality":{"key":"07138045","name":"Neuwied, Stadt","type":"Stadt"},"district":{"key":"07138","name":"Neuwied","type":"Landkreis"},"federalState":{"key":"07","name":"Rheinland-Pfalz"}},{"name":"Landschildkröten, Kaninchen","postalCode":"56566","locality":"Neuwied","municipality":{"key":"07138045","name":"Neuwied, Stadt","type":"Stadt"},"district":{"key":"07138","name":"Neuwied","type":"Landkreis"},"federalState":{"key":"07","name":"Rheinland-Pfalz"}},{"name":"Langendorfer Str.","postalCode":"56564","locality":"Neuwied","municipality":{"key":"07138045","name":"Neuwied, Stadt","type":"Stadt"},"district":{"key":"07138","name":"Neuwied","type":"Landkreis"},"federalState":{"key":"07","name":"Rheinland-Pfalz"}},{"name":"Langenlensen","postalCode":"56567","locality":"Neuwied","municipality":{"key":"07138045","name":"Neuwied, Stadt","type":"Stadt"},"district":{"key":"07138","name":"Neuwied","type":"Landkreis"},"federalState":{"key":"07","name":"Rheinland-Pfalz"}},{"name":"Langenstück","postalCode":"56566","locality":"Neuwied","municipality":{"key":"07138045","name":"Neuwied, Stadt","type":"Stadt"},"district":{"key":"07138","name":"Neuwied","type":"Landkreis"},"federalState":{"key":"07","name":"Rheinland-Pfalz"}},{"name":"Langobardenstr.","postalCode":"56567","locality":"Neuwied","municipality":{"key":"07138045","name":"Neuwied, Stadt","type":"Stadt"},"district":{"key":"07138","name":"Neuwied","type":"Landkreis"},"federalState":{"key":"07","name":"Rheinland-Pfalz"}},{"name":"Laubachsmühle","postalCode":"56567","locality":"Neuwied","municipality":{"key":"07138045","name":"Neuwied, Stadt","type":"Stadt"},"district":{"key":"07138","name":"Neuwied","type":"Landkreis"},"federalState":{"key":"07","name":"Rheinland-Pfalz"}},{"name":"Lavendelweg","postalCode":"56566","locality":"Neuwied","municipality":{"key":"07138045","name":"Neuwied, Stadt","type":"Stadt"},"district":{"key":"07138","name":"Neuwied","type":"Landkreis"},"federalState":{"key":"07","name":"Rheinland-Pfalz"}},{"name":"Laygasse","postalCode":"56567","locality":"Neuwied","municipality":{"key":"07138045","name":"Neuwied, Stadt","type":"Stadt"},"district":{"key":"07138","name":"Neuwied","type":"Landkreis"},"federalState":{"key":"07","name":"Rheinland-Pfalz"}},{"name":"Leharstr.","postalCode":"56566","locality":"Neuwied","municipality":{"key":"07138045","name":"Neuwied, Stadt","type":"Stadt"},"district":{"key":"07138","name":"Neuwied","type":"Landkreis"},"federalState":{"key":"07","name":"Rheinland-Pfalz"}},{"name":"Leierswiese","postalCode":"56566","locality":"Neuwied","municipality":{"key":"07138045","name":"Neuwied, Stadt","type":"Stadt"},"district":{"key":"07138","name":"Neuwied","type":"Landkreis"},"federalState":{"key":"07","name":"Rheinland-Pfalz"}},{"name":"Lerchenweg","postalCode":"56564","locality":"Neuwied","municipality":{"key":"07138045","name":"Neuwied, Stadt","type":"Stadt"},"district":{"key":"07138","name":"Neuwied","type":"Landkreis"},"federalState":{"key":"07","name":"Rheinland-Pfalz"}},{"name":"Lessingweg","postalCode":"56564","locality":"Neuwied","municipality":{"key":"07138045","name":"Neuwied, Stadt","type":"Stadt"},"district":{"key":"07138","name":"Neuwied","type":"Landkreis"},"federalState":{"key":"07","name":"Rheinland-Pfalz"}},{"name":"Leutesdorfer Str.","postalCode":"56567","locality":"Neuwied","municipality":{"key":"07138045","name":"Neuwied, Stadt","type":"Stadt"},"district":{"key":"07138","name":"Neuwied","type":"Landkreis"},"federalState":{"key":"07","name":"Rheinland-Pfalz"}},{"name":"Liliengarten","postalCode":"56564","locality":"Neuwied","municipality":{"key":"07138045","name":"Neuwied, Stadt","type":"Stadt"},"district":{"key":"07138","name":"Neuwied","type":"Landkreis"},"federalState":{"key":"07","name":"Rheinland-Pfalz"}},{"name":"Lindenstr.","postalCode":"56566","locality":"Neuwied","municipality":{"key":"07138045","name":"Neuwied, Stadt","type":"Stadt"},"district":{"key":"07138","name":"Neuwied","type":"Landkreis"},"federalState":{"key":"07","name":"Rheinland-Pfalz"}},{"name":"Lindenweg","postalCode":"56564","locality":"Neuwied","municipality":{"key":"07138045","name":"Neuwied, Stadt","type":"Stadt"},"district":{"key":"07138","name":"Neuwied","type":"Landkreis"},"federalState":{"key":"07","name":"Rheinland-Pfalz"}},{"name":"Linzer Str.","postalCode":"56567","locality":"Neuwied","municipality":{"key":"07138045","name":"Neuwied, Stadt","type":"Stadt"},"district":{"key":"07138","name":"Neuwied","type":"Landkreis"},"federalState":{"key":"07","name":"Rheinland-Pfalz"}},{"name":"Lohmannstr.","postalCode":"56567","locality":"Neuwied","municipality":{"key":"07138045","name":"Neuwied, Stadt","type":"Stadt"},"district":{"key":"07138","name":"Neuwied","type":"Landkreis"},"federalState":{"key":"07","name":"Rheinland-Pfalz"}},{"name":"Löhpfad","postalCode":"56566","locality":"Neuwied","municipality":{"key":"07138045","name":"Neuwied, Stadt","type":"Stadt"},"district":{"key":"07138","name":"Neuwied","type":"Landkreis"},"federalState":{"key":"07","name":"Rheinland-Pfalz"}},{"name":"Löhstr.","postalCode":"56566","locality":"Neuwied","municipality":{"key":"07138045","name":"Neuwied, Stadt","type":"Stadt"},"district":{"key":"07138","name":"Neuwied","type":"Landkreis"},"federalState":{"key":"07","name":"Rheinland-Pfalz"}},{"name":"Lortzingstr.","postalCode":"56566","locality":"Neuwied","municipality":{"key":"07138045","name":"Neuwied, Stadt","type":"Stadt"},"district":{"key":"07138","name":"Neuwied","type":"Landkreis"},"federalState":{"key":"07","name":"Rheinland-Pfalz"}},{"name":"Löwe","postalCode":"56566","locality":"Neuwied","municipality":{"key":"07138045","name":"Neuwied, Stadt","type":"Stadt"},"district":{"key":"07138","name":"Neuwied","type":"Landkreis"},"federalState":{"key":"07","name":"Rheinland-Pfalz"}},{"name":"Lucas-Ecker-Str.","postalCode":"56566","locality":"Neuwied","municipality":{"key":"07138045","name":"Neuwied, Stadt","type":"Stadt"},"district":{"key":"07138","name":"Neuwied","type":"Landkreis"},"federalState":{"key":"07","name":"Rheinland-Pfalz"}},{"name":"Ludwig-Erhard-Str.","postalCode":"56564","locality":"Neuwied","municipality":{"key":"07138045","name":"Neuwied, Stadt","type":"Stadt"},"district":{"key":"07138","name":"Neuwied","type":"Landkreis"},"federalState":{"key":"07","name":"Rheinland-Pfalz"}},{"name":"Ludwigshof","postalCode":"56567","locality":"Neuwied","municipality":{"key":"07138045","name":"Neuwied, Stadt","type":"Stadt"},"district":{"key":"07138","name":"Neuwied","type":"Landkreis"},"federalState":{"key":"07","name":"Rheinland-Pfalz"}},{"name":"Ludwig-Uhland-Str.","postalCode":"56567","locality":"Neuwied","municipality":{"key":"07138045","name":"Neuwied, Stadt","type":"Stadt"},"district":{"key":"07138","name":"Neuwied","type":"Landkreis"},"federalState":{"key":"07","name":"Rheinland-Pfalz"}},{"name":"Luisenstr.","postalCode":"56564","locality":"Neuwied","municipality":{"key":"07138045","name":"Neuwied, Stadt","type":"Stadt"},"district":{"key":"07138","name":"Neuwied","type":"Landkreis"},"federalState":{"key":"07","name":"Rheinland-Pfalz"}},{"name":"Margaretha-Flesch-Str.","postalCode":"56589","locality":"Niederbreitbach","municipality":{"key":"07138047","name":"Niederbreitbach","type":"Kreisangehörige_Gemeinde"},"district":{"key":"07138","name":"Neuwied","type":"Landkreis"},"federalState":{"key":"07","name":"Rheinland-Pfalz"}},{"name":"Meisenweg","postalCode":"56589","locality":"Niederbreitbach","municipality":{"key":"07138047","name":"Niederbreitbach","type":"Kreisangehörige_Gemeinde"},"district":{"key":"07138","name":"Neuwied","type":"Landkreis"},"federalState":{"key":"07","name":"Rheinland-Pfalz"}},{"name":"Mühlenweiherstr.","postalCode":"56589","locality":"Niederbreitbach","municipality":{"key":"07138047","name":"Niederbreitbach","type":"Kreisangehörige_Gemeinde"},"district":{"key":"07138","name":"Neuwied","type":"Landkreis"},"federalState":{"key":"07","name":"Rheinland-Pfalz"}},{"name":"Neuerburgstr.","postalCode":"56589","locality":"Niederbreitbach","municipality":{"key":"07138047","name":"Niederbreitbach","type":"Kreisangehörige_Gemeinde"},"district":{"key":"07138","name":"Neuwied","type":"Landkreis"},"federalState":{"key":"07","name":"Rheinland-Pfalz"}},{"name":"Oberer Kühpfad","postalCode":"56589","locality":"Niederbreitbach","municipality":{"key":"07138047","name":"Niederbreitbach","type":"Kreisangehörige_Gemeinde"},"district":{"key":"07138","name":"Neuwied","type":"Landkreis"},"federalState":{"key":"07","name":"Rheinland-Pfalz"}},{"name":"Panoramaweg","postalCode":"56589","locality":"Niederbreitbach","municipality":{"key":"07138047","name":"Niederbreitbach","type":"Kreisangehörige_Gemeinde"},"district":{"key":"07138","name":"Neuwied","type":"Landkreis"},"federalState":{"key":"07","name":"Rheinland-Pfalz"}},{"name":"Plankenwiese","postalCode":"56589","locality":"Niederbreitbach","municipality":{"key":"07138047","name":"Niederbreitbach","type":"Kreisangehörige_Gemeinde"},"district":{"key":"07138","name":"Neuwied","type":"Landkreis"},"federalState":{"key":"07","name":"Rheinland-Pfalz"}},{"name":"Raffaelweg","postalCode":"56566","locality":"Neuwied","municipality":{"key":"07138045","name":"Neuwied, Stadt","type":"Stadt"},"district":{"key":"07138","name":"Neuwied","type":"Landkreis"},"federalState":{"key":"07","name":"Rheinland-Pfalz"}},{"name":"Raiffeisenplatz","postalCode":"56564","locality":"Neuwied","municipality":{"key":"07138045","name":"Neuwied, Stadt","type":"Stadt"},"district":{"key":"07138","name":"Neuwied","type":"Landkreis"},"federalState":{"key":"07","name":"Rheinland-Pfalz"}},{"name":"Raiffeisenring","postalCode":"56564","locality":"Neuwied","municipality":{"key":"07138045","name":"Neuwied, Stadt","type":"Stadt"},"district":{"key":"07138","name":"Neuwied","type":"Landkreis"},"federalState":{"key":"07","name":"Rheinland-Pfalz"}},{"name":"Rasselsteiner Str.","postalCode":"56564","locality":"Neuwied","municipality":{"key":"07138045","name":"Neuwied, Stadt","type":"Stadt"},"district":{"key":"07138","name":"Neuwied","type":"Landkreis"},"federalState":{"key":"07","name":"Rheinland-Pfalz"}},{"name":"Rasselsteiner Str.","postalCode":"56567","locality":"Neuwied","municipality":{"key":"07138045","name":"Neuwied, Stadt","type":"Stadt"},"district":{"key":"07138","name":"Neuwied","type":"Landkreis"},"federalState":{"key":"07","name":"Rheinland-Pfalz"}},{"name":"Rastenburger Str.","postalCode":"56566","locality":"Neuwied","municipality":{"key":"07138045","name":"Neuwied, Stadt","type":"Stadt"},"district":{"key":"07138","name":"Neuwied","type":"Landkreis"},"federalState":{"key":"07","name":"Rheinland-Pfalz"}},{"name":"Rebenweg","postalCode":"56566","locality":"Neuwied","municipality":{"key":"07138045","name":"Neuwied, Stadt","type":"Stadt"},"district":{"key":"07138","name":"Neuwied","type":"Landkreis"},"federalState":{"key":"07","name":"Rheinland-Pfalz"}},{"name":"Reckstr.","postalCode":"56564","locality":"Neuwied","municipality":{"key":"07138045","name":"Neuwied, Stadt","type":"Stadt"},"district":{"key":"07138","name":"Neuwied","type":"Landkreis"},"federalState":{"key":"07","name":"Rheinland-Pfalz"}},{"name":"Reiterpfad","postalCode":"56566","locality":"Neuwied","municipality":{"key":"07138045","name":"Neuwied, Stadt","type":"Stadt"},"district":{"key":"07138","name":"Neuwied","type":"Landkreis"},"federalState":{"key":"07","name":"Rheinland-Pfalz"}},{"name":"Rektor-Eul-Str.","postalCode":"56567","locality":"Neuwied","municipality":{"key":"07138045","name":"Neuwied, Stadt","type":"Stadt"},"district":{"key":"07138","name":"Neuwied","type":"Landkreis"},"federalState":{"key":"07","name":"Rheinland-Pfalz"}},{"name":"Rembrandtstr.","postalCode":"56566","locality":"Neuwied","municipality":{"key":"07138045","name":"Neuwied, Stadt","type":"Stadt"},"district":{"key":"07138","name":"Neuwied","type":"Landkreis"},"federalState":{"key":"07","name":"Rheinland-Pfalz"}},{"name":"Renoirstr.","postalCode":"56566","locality":"Neuwied","municipality":{"key":"07138045","name":"Neuwied, Stadt","type":"Stadt"},"district":{"key":"07138","name":"Neuwied","type":"Landkreis"},"federalState":{"key":"07","name":"Rheinland-Pfalz"}},{"name":"Renzentalweg","postalCode":"56567","locality":"Neuwied","municipality":{"key":"07138045","name":"Neuwied, Stadt","type":"Stadt"},"district":{"key":"07138","name":"Neuwied","type":"Landkreis"},"federalState":{"key":"07","name":"Rheinland-Pfalz"}},{"name":"Resedastr.","postalCode":"56566","locality":"Neuwied","municipality":{"key":"07138045","name":"Neuwied, Stadt","type":"Stadt"},"district":{"key":"07138","name":"Neuwied","type":"Landkreis"},"federalState":{"key":"07","name":"Rheinland-Pfalz"}},{"name":"Reuterspfad","postalCode":"56566","locality":"Neuwied","municipality":{"key":"07138045","name":"Neuwied, Stadt","type":"Stadt"},"district":{"key":"07138","name":"Neuwied","type":"Landkreis"},"federalState":{"key":"07","name":"Rheinland-Pfalz"}},{"name":"Reylstr.","postalCode":"56566","locality":"Neuwied","municipality":{"key":"07138045","name":"Neuwied, Stadt","type":"Stadt"},"district":{"key":"07138","name":"Neuwied","type":"Landkreis"},"federalState":{"key":"07","name":"Rheinland-Pfalz"}},{"name":"Reylsweg","postalCode":"56566","locality":"Neuwied","municipality":{"key":"07138045","name":"Neuwied, Stadt","type":"Stadt"},"district":{"key":"07138","name":"Neuwied","type":"Landkreis"},"federalState":{"key":"07","name":"Rheinland-Pfalz"}},{"name":"Rheinblick","postalCode":"56567","locality":"Neuwied","municipality":{"key":"07138045","name":"Neuwied, Stadt","type":"Stadt"},"district":{"key":"07138","name":"Neuwied","type":"Landkreis"},"federalState":{"key":"07","name":"Rheinland-Pfalz"}},{"name":"Rheinheldestr.","postalCode":"56567","locality":"Neuwied","municipality":{"key":"07138045","name":"Neuwied, Stadt","type":"Stadt"},"district":{"key":"07138","name":"Neuwied","type":"Landkreis"},"federalState":{"key":"07","name":"Rheinland-Pfalz"}},{"name":"Rheinhöhenstr.","postalCode":"56567","locality":"Neuwied","municipality":{"key":"07138045","name":"Neuwied, Stadt","type":"Stadt"},"district":{"key":"07138","name":"Neuwied","type":"Landkreis"},"federalState":{"key":"07","name":"Rheinland-Pfalz"}},{"name":"Rheinhöhenweg","postalCode":"56566","locality":"Neuwied","municipality":{"key":"07138045","name":"Neuwied, Stadt","type":"Stadt"},"district":{"key":"07138","name":"Neuwied","type":"Landkreis"},"federalState":{"key":"07","name":"Rheinland-Pfalz"}},{"name":"Rheinhöhenweg","postalCode":"56567","locality":"Neuwied","municipality":{"key":"07138045","name":"Neuwied, Stadt","type":"Stadt"},"district":{"key":"07138","name":"Neuwied","type":"Landkreis"},"federalState":{"key":"07","name":"Rheinland-Pfalz"}},{"name":"Rheinstr.","postalCode":"56564","locality":"Neuwied","municipality":{"key":"07138045","name":"Neuwied, Stadt","type":"Stadt"},"district":{"key":"07138","name":"Neuwied","type":"Landkreis"},"federalState":{"key":"07","name":"Rheinland-Pfalz"}},{"name":"Rheintalweg","postalCode":"56564","locality":"Neuwied","municipality":{"key":"07138045","name":"Neuwied, Stadt","type":"Stadt"},"district":{"key":"07138","name":"Neuwied","type":"Landkreis"},"federalState":{"key":"07","name":"Rheinland-Pfalz"}},{"name":"Rhein-Wied-Eck","postalCode":"56567","locality":"Neuwied","municipality":{"key":"07138045","name":"Neuwied, Stadt","type":"Stadt"},"district":{"key":"07138","name":"Neuwied","type":"Landkreis"},"federalState":{"key":"07","name":"Rheinland-Pfalz"}},{"name":"Rhein-Wied-Stadion","postalCode":"56564","locality":"Neuwied","municipality":{"key":"07138045","name":"Neuwied, Stadt","type":"Stadt"},"district":{"key":"07138","name":"Neuwied","type":"Landkreis"},"federalState":{"key":"07","name":"Rheinland-Pfalz"}},{"name":"Ricarda-Huch-Str.","postalCode":"56567","locality":"Neuwied","municipality":{"key":"07138045","name":"Neuwied, Stadt","type":"Stadt"},"district":{"key":"07138","name":"Neuwied","type":"Landkreis"},"federalState":{"key":"07","name":"Rheinland-Pfalz"}},{"name":"Richard-Wagner-Str.","postalCode":"56566","locality":"Neuwied","municipality":{"key":"07138045","name":"Neuwied, Stadt","type":"Stadt"},"district":{"key":"07138","name":"Neuwied","type":"Landkreis"},"federalState":{"key":"07","name":"Rheinland-Pfalz"}},{"name":"Richterswiler Str.","postalCode":"56564","locality":"Neuwied","municipality":{"key":"07138045","name":"Neuwied, Stadt","type":"Stadt"},"district":{"key":"07138","name":"Neuwied","type":"Landkreis"},"federalState":{"key":"07","name":"Rheinland-Pfalz"}},{"name":"Riemenschneiderstr.","postalCode":"56566","locality":"Neuwied","municipality":{"key":"07138045","name":"Neuwied, Stadt","type":"Stadt"},"district":{"key":"07138","name":"Neuwied","type":"Landkreis"},"federalState":{"key":"07","name":"Rheinland-Pfalz"}},{"name":"Ringmauer","postalCode":"56567","locality":"Neuwied","municipality":{"key":"07138045","name":"Neuwied, Stadt","type":"Stadt"},"district":{"key":"07138","name":"Neuwied","type":"Landkreis"},"federalState":{"key":"07","name":"Rheinland-Pfalz"}},{"name":"Ringstr.","postalCode":"56564","locality":"Neuwied","municipality":{"key":"07138045","name":"Neuwied, Stadt","type":"Stadt"},"district":{"key":"07138","name":"Neuwied","type":"Landkreis"},"federalState":{"key":"07","name":"Rheinland-Pfalz"}},{"name":"Robert-Bosch-Str.","postalCode":"56566","locality":"Neuwied","municipality":{"key":"07138045","name":"Neuwied, Stadt","type":"Stadt"},"district":{"key":"07138","name":"Neuwied","type":"Landkreis"},"federalState":{"key":"07","name":"Rheinland-Pfalz"}},{"name":"Robert-Koch-Str.","postalCode":"56566","locality":"Neuwied","municipality":{"key":"07138045","name":"Neuwied, Stadt","type":"Stadt"},"district":{"key":"07138","name":"Neuwied","type":"Landkreis"},"federalState":{"key":"07","name":"Rheinland-Pfalz"}},{"name":"Robert-Krups-Str.","postalCode":"56564","locality":"Neuwied","municipality":{"key":"07138045","name":"Neuwied, Stadt","type":"Stadt"},"district":{"key":"07138","name":"Neuwied","type":"Landkreis"},"federalState":{"key":"07","name":"Rheinland-Pfalz"}},{"name":"Robert-Stolz-Str.","postalCode":"56566","locality":"Neuwied","municipality":{"key":"07138045","name":"Neuwied, Stadt","type":"Stadt"},"district":{"key":"07138","name":"Neuwied","type":"Landkreis"},"federalState":{"key":"07","name":"Rheinland-Pfalz"}},{"name":"Rockenfeld","postalCode":"56567","locality":"Neuwied","municipality":{"key":"07138045","name":"Neuwied, Stadt","type":"Stadt"},"district":{"key":"07138","name":"Neuwied","type":"Landkreis"},"federalState":{"key":"07","name":"Rheinland-Pfalz"}},{"name":"Rockenfelder Str.","postalCode":"56567","locality":"Neuwied","municipality":{"key":"07138045","name":"Neuwied, Stadt","type":"Stadt"},"district":{"key":"07138","name":"Neuwied","type":"Landkreis"},"federalState":{"key":"07","name":"Rheinland-Pfalz"}},{"name":"Rodenacker","postalCode":"56566","locality":"Neuwied","municipality":{"key":"07138045","name":"Neuwied, Stadt","type":"Stadt"},"district":{"key":"07138","name":"Neuwied","type":"Landkreis"},"federalState":{"key":"07","name":"Rheinland-Pfalz"}},{"name":"Rodenbacher Str.","postalCode":"56567","locality":"Neuwied","municipality":{"key":"07138045","name":"Neuwied, Stadt","type":"Stadt"},"district":{"key":"07138","name":"Neuwied","type":"Landkreis"},"federalState":{"key":"07","name":"Rheinland-Pfalz"}},{"name":"Roderweg","postalCode":"56566","locality":"Neuwied","municipality":{"key":"07138045","name":"Neuwied, Stadt","type":"Stadt"},"district":{"key":"07138","name":"Neuwied","type":"Landkreis"},"federalState":{"key":"07","name":"Rheinland-Pfalz"}},{"name":"Roentgenstr.","postalCode":"56564","locality":"Neuwied","municipality":{"key":"07138045","name":"Neuwied, Stadt","type":"Stadt"},"district":{"key":"07138","name":"Neuwied","type":"Landkreis"},"federalState":{"key":"07","name":"Rheinland-Pfalz"}},{"name":"Römerstr.","postalCode":"56567","locality":"Neuwied","municipality":{"key":"07138045","name":"Neuwied, Stadt","type":"Stadt"},"district":{"key":"07138","name":"Neuwied","type":"Landkreis"},"federalState":{"key":"07","name":"Rheinland-Pfalz"}},{"name":"Römerwall","postalCode":"56567","locality":"Neuwied","municipality":{"key":"07138045","name":"Neuwied, Stadt","type":"Stadt"},"district":{"key":"07138","name":"Neuwied","type":"Landkreis"},"federalState":{"key":"07","name":"Rheinland-Pfalz"}},{"name":"Rommersdorfer Str.","postalCode":"56566","locality":"Neuwied","municipality":{"key":"07138045","name":"Neuwied, Stadt","type":"Stadt"},"district":{"key":"07138","name":"Neuwied","type":"Landkreis"},"federalState":{"key":"07","name":"Rheinland-Pfalz"}},{"name":"Rosengarten","postalCode":"56564","locality":"Neuwied","municipality":{"key":"07138045","name":"Neuwied, Stadt","type":"Stadt"},"district":{"key":"07138","name":"Neuwied","type":"Landkreis"},"federalState":{"key":"07","name":"Rheinland-Pfalz"}},{"name":"Rosenstr.","postalCode":"56566","locality":"Neuwied","municipality":{"key":"07138045","name":"Neuwied, Stadt","type":"Stadt"},"district":{"key":"07138","name":"Neuwied","type":"Landkreis"},"federalState":{"key":"07","name":"Rheinland-Pfalz"}},{"name":"Rosmarinweg","postalCode":"56566","locality":"Neuwied","municipality":{"key":"07138045","name":"Neuwied, Stadt","type":"Stadt"},"district":{"key":"07138","name":"Neuwied","type":"Landkreis"},"federalState":{"key":"07","name":"Rheinland-Pfalz"}},{"name":"Rostocker Str.","postalCode":"56566","locality":"Neuwied","municipality":{"key":"07138045","name":"Neuwied, Stadt","type":"Stadt"},"district":{"key":"07138","name":"Neuwied","type":"Landkreis"},"federalState":{"key":"07","name":"Rheinland-Pfalz"}},{"name":"Rubensstr.","postalCode":"56566","locality":"Neuwied","municipality":{"key":"07138045","name":"Neuwied, Stadt","type":"Stadt"},"district":{"key":"07138","name":"Neuwied","type":"Landkreis"},"federalState":{"key":"07","name":"Rheinland-Pfalz"}},{"name":"Sonnenstr.","postalCode":"56589","locality":"Niederbreitbach","municipality":{"key":"07138047","name":"Niederbreitbach","type":"Kreisangehörige_Gemeinde"},"district":{"key":"07138","name":"Neuwied","type":"Landkreis"},"federalState":{"key":"07","name":"Rheinland-Pfalz"}},{"name":"Talweg","postalCode":"56567","locality":"Neuwied","municipality":{"key":"07138045","name":"Neuwied, Stadt","type":"Stadt"},"district":{"key":"07138","name":"Neuwied","type":"Landkreis"},"federalState":{"key":"07","name":"Rheinland-Pfalz"}},{"name":"Tampire, Ameisenbären","postalCode":"56566","locality":"Neuwied","municipality":{"key":"07138045","name":"Neuwied, Stadt","type":"Stadt"},"district":{"key":"07138","name":"Neuwied","type":"Landkreis"},"federalState":{"key":"07","name":"Rheinland-Pfalz"}},{"name":"Tannenbergstr.","postalCode":"56564","locality":"Neuwied","municipality":{"key":"07138045","name":"Neuwied, Stadt","type":"Stadt"},"district":{"key":"07138","name":"Neuwied","type":"Landkreis"},"federalState":{"key":"07","name":"Rheinland-Pfalz"}},{"name":"Tannenweg","postalCode":"56567","locality":"Neuwied","municipality":{"key":"07138045","name":"Neuwied, Stadt","type":"Stadt"},"district":{"key":"07138","name":"Neuwied","type":"Landkreis"},"federalState":{"key":"07","name":"Rheinland-Pfalz"}},{"name":"Taubenweg","postalCode":"56564","locality":"Neuwied","municipality":{"key":"07138045","name":"Neuwied, Stadt","type":"Stadt"},"district":{"key":"07138","name":"Neuwied","type":"Landkreis"},"federalState":{"key":"07","name":"Rheinland-Pfalz"}},{"name":"Teichweg","postalCode":"56564","locality":"Neuwied","municipality":{"key":"07138045","name":"Neuwied, Stadt","type":"Stadt"},"district":{"key":"07138","name":"Neuwied","type":"Landkreis"},"federalState":{"key":"07","name":"Rheinland-Pfalz"}},{"name":"Teutonenstr.","postalCode":"56567","locality":"Neuwied","municipality":{"key":"07138045","name":"Neuwied, Stadt","type":"Stadt"},"district":{"key":"07138","name":"Neuwied","type":"Landkreis"},"federalState":{"key":"07","name":"Rheinland-Pfalz"}},{"name":"Theaterplatz","postalCode":"56564","locality":"Neuwied","municipality":{"key":"07138045","name":"Neuwied, Stadt","type":"Stadt"},"district":{"key":"07138","name":"Neuwied","type":"Landkreis"},"federalState":{"key":"07","name":"Rheinland-Pfalz"}},{"name":"Theodor-Heuss-Str.","postalCode":"56564","locality":"Neuwied","municipality":{"key":"07138045","name":"Neuwied, Stadt","type":"Stadt"},"district":{"key":"07138","name":"Neuwied","type":"Landkreis"},"federalState":{"key":"07","name":"Rheinland-Pfalz"}},{"name":"Theodor-Körner-Str.","postalCode":"56567","locality":"Neuwied","municipality":{"key":"07138045","name":"Neuwied, Stadt","type":"Stadt"},"district":{"key":"07138","name":"Neuwied","type":"Landkreis"},"federalState":{"key":"07","name":"Rheinland-Pfalz"}},{"name":"Theodor-Storm-Str.","postalCode":"56567","locality":"Neuwied","municipality":{"key":"07138045","name":"Neuwied, Stadt","type":"Stadt"},"district":{"key":"07138","name":"Neuwied","type":"Landkreis"},"federalState":{"key":"07","name":"Rheinland-Pfalz"}},{"name":"Thomas-Mann-Str.","postalCode":"56567","locality":"Neuwied","municipality":{"key":"07138045","name":"Neuwied, Stadt","type":"Stadt"},"district":{"key":"07138","name":"Neuwied","type":"Landkreis"},"federalState":{"key":"07","name":"Rheinland-Pfalz"}},{"name":"Thüringenstr.","postalCode":"56567","locality":"Neuwied","municipality":{"key":"07138045","name":"Neuwied, Stadt","type":"Stadt"},"district":{"key":"07138","name":"Neuwied","type":"Landkreis"},"federalState":{"key":"07","name":"Rheinland-Pfalz"}},{"name":"Tiger","postalCode":"56566","locality":"Neuwied","municipality":{"key":"07138045","name":"Neuwied, Stadt","type":"Stadt"},"district":{"key":"07138","name":"Neuwied","type":"Landkreis"},"federalState":{"key":"07","name":"Rheinland-Pfalz"}},{"name":"Tilsiter Str.","postalCode":"56564","locality":"Neuwied","municipality":{"key":"07138045","name":"Neuwied, Stadt","type":"Stadt"},"district":{"key":"07138","name":"Neuwied","type":"Landkreis"},"federalState":{"key":"07","name":"Rheinland-Pfalz"}},{"name":"Tonnenbergstr.","postalCode":"56567","locality":"Neuwied","municipality":{"key":"07138045","name":"Neuwied, Stadt","type":"Stadt"},"district":{"key":"07138","name":"Neuwied","type":"Landkreis"},"federalState":{"key":"07","name":"Rheinland-Pfalz"}},{"name":"Tonnenwiese","postalCode":"56567","locality":"Neuwied","municipality":{"key":"07138045","name":"Neuwied, Stadt","type":"Stadt"},"district":{"key":"07138","name":"Neuwied","type":"Landkreis"},"federalState":{"key":"07","name":"Rheinland-Pfalz"}},{"name":"Topasstr.","postalCode":"56566","locality":"Neuwied","municipality":{"key":"07138045","name":"Neuwied, Stadt","type":"Stadt"},"district":{"key":"07138","name":"Neuwied","type":"Landkreis"},"federalState":{"key":"07","name":"Rheinland-Pfalz"}},{"name":"Töpferstr.","postalCode":"56566","locality":"Neuwied","municipality":{"key":"07138045","name":"Neuwied, Stadt","type":"Stadt"},"district":{"key":"07138","name":"Neuwied","type":"Landkreis"},"federalState":{"key":"07","name":"Rheinland-Pfalz"}},{"name":"Torneystr.","postalCode":"56567","locality":"Neuwied","municipality":{"key":"07138045","name":"Neuwied, Stadt","type":"Stadt"},"district":{"key":"07138","name":"Neuwied","type":"Landkreis"},"federalState":{"key":"07","name":"Rheinland-Pfalz"}},{"name":"Trampeltiere","postalCode":"56566","locality":"Neuwied","municipality":{"key":"07138045","name":"Neuwied, Stadt","type":"Stadt"},"district":{"key":"07138","name":"Neuwied","type":"Landkreis"},"federalState":{"key":"07","name":"Rheinland-Pfalz"}},{"name":"Traubenweg","postalCode":"56566","locality":"Neuwied","municipality":{"key":"07138045","name":"Neuwied, Stadt","type":"Stadt"},"district":{"key":"07138","name":"Neuwied","type":"Landkreis"},"federalState":{"key":"07","name":"Rheinland-Pfalz"}},{"name":"Trierer Str.","postalCode":"56566","locality":"Neuwied","municipality":{"key":"07138045","name":"Neuwied, Stadt","type":"Stadt"},"district":{"key":"07138","name":"Neuwied","type":"Landkreis"},"federalState":{"key":"07","name":"Rheinland-Pfalz"}},{"name":"Tulpengarten","postalCode":"56564","locality":"Neuwied","municipality":{"key":"07138045","name":"Neuwied, Stadt","type":"Stadt"},"district":{"key":"07138","name":"Neuwied","type":"Landkreis"},"federalState":{"key":"07","name":"Rheinland-Pfalz"}},{"name":"Tulpenweg","postalCode":"56566","locality":"Neuwied","municipality":{"key":"07138045","name":"Neuwied, Stadt","type":"Stadt"},"district":{"key":"07138","name":"Neuwied","type":"Landkreis"},"federalState":{"key":"07","name":"Rheinland-Pfalz"}},{"name":"Türkisstr.","postalCode":"56566","locality":"Neuwied","municipality":{"key":"07138045","name":"Neuwied, Stadt","type":"Stadt"},"district":{"key":"07138","name":"Neuwied","type":"Landkreis"},"federalState":{"key":"07","name":"Rheinland-Pfalz"}},{"name":"Turmgraben","postalCode":"56566","locality":"Neuwied","municipality":{"key":"07138045","name":"Neuwied, Stadt","type":"Stadt"},"district":{"key":"07138","name":"Neuwied","type":"Landkreis"},"federalState":{"key":"07","name":"Rheinland-Pfalz"}},{"name":"Turmstr.","postalCode":"56566","locality":"Neuwied","municipality":{"key":"07138045","name":"Neuwied, Stadt","type":"Stadt"},"district":{"key":"07138","name":"Neuwied","type":"Landkreis"},"federalState":{"key":"07","name":"Rheinland-Pfalz"}},{"name":"Unterer Kühpfad","postalCode":"56589","locality":"Niederbreitbach","municipality":{"key":"07138047","name":"Niederbreitbach","type":"Kreisangehörige_Gemeinde"},"district":{"key":"07138","name":"Neuwied","type":"Landkreis"},"federalState":{"key":"07","name":"Rheinland-Pfalz"}},{"name":"Veilchenstr.","postalCode":"56566","locality":"Neuwied","municipality":{"key":"07138045","name":"Neuwied, Stadt","type":"Stadt"},"district":{"key":"07138","name":"Neuwied","type":"Landkreis"},"federalState":{"key":"07","name":"Rheinland-Pfalz"}},{"name":"Venusstr.","postalCode":"56566","locality":"Neuwied","municipality":{"key":"07138045","name":"Neuwied, Stadt","type":"Stadt"},"district":{"key":"07138","name":"Neuwied","type":"Landkreis"},"federalState":{"key":"07","name":"Rheinland-Pfalz"}},{"name":"Vikunjas","postalCode":"56566","locality":"Neuwied","municipality":{"key":"07138045","name":"Neuwied, Stadt","type":"Stadt"},"district":{"key":"07138","name":"Neuwied","type":"Landkreis"},"federalState":{"key":"07","name":"Rheinland-Pfalz"}},{"name":"Virchowweg","postalCode":"56566","locality":"Neuwied","municipality":{"key":"07138045","name":"Neuwied, Stadt","type":"Stadt"},"district":{"key":"07138","name":"Neuwied","type":"Landkreis"},"federalState":{"key":"07","name":"Rheinland-Pfalz"}},{"name":"Vogteistr.","postalCode":"56567","locality":"Neuwied","municipality":{"key":"07138045","name":"Neuwied, Stadt","type":"Stadt"},"district":{"key":"07138","name":"Neuwied","type":"Landkreis"},"federalState":{"key":"07","name":"Rheinland-Pfalz"}},{"name":"Volberskroog","postalCode":"56566","locality":"Neuwied","municipality":{"key":"07138045","name":"Neuwied, Stadt","type":"Stadt"},"district":{"key":"07138","name":"Neuwied","type":"Landkreis"},"federalState":{"key":"07","name":"Rheinland-Pfalz"}},{"name":"Von-der-Leyen-Str.","postalCode":"56567","locality":"Neuwied","municipality":{"key":"07138045","name":"Neuwied, Stadt","type":"Stadt"},"district":{"key":"07138","name":"Neuwied","type":"Landkreis"},"federalState":{"key":"07","name":"Rheinland-Pfalz"}},{"name":"Von-Ebner-Eschenbach-Str.","postalCode":"56567","locality":"Neuwied","municipality":{"key":"07138045","name":"Neuwied, Stadt","type":"Stadt"},"district":{"key":"07138","name":"Neuwied","type":"Landkreis"},"federalState":{"key":"07","name":"Rheinland-Pfalz"}},{"name":"Von-Eichendorff-Str.","postalCode":"56567","locality":"Neuwied","municipality":{"key":"07138045","name":"Neuwied, Stadt","type":"Stadt"},"district":{"key":"07138","name":"Neuwied","type":"Landkreis"},"federalState":{"key":"07","name":"Rheinland-Pfalz"}},{"name":"Von-Runkel-Platz","postalCode":"56564","locality":"Neuwied","municipality":{"key":"07138045","name":"Neuwied, Stadt","type":"Stadt"},"district":{"key":"07138","name":"Neuwied","type":"Landkreis"},"federalState":{"key":"07","name":"Rheinland-Pfalz"}},{"name":"Von-Stauffenberg-Str.","postalCode":"56567","locality":"Neuwied","municipality":{"key":"07138045","name":"Neuwied, Stadt","type":"Stadt"},"district":{"key":"07138","name":"Neuwied","type":"Landkreis"},"federalState":{"key":"07","name":"Rheinland-Pfalz"}},{"name":"Vor dem Damm","postalCode":"56564","locality":"Neuwied","municipality":{"key":"07138045","name":"Neuwied, Stadt","type":"Stadt"},"district":{"key":"07138","name":"Neuwied","type":"Landkreis"},"federalState":{"key":"07","name":"Rheinland-Pfalz"}},{"name":"Waldstr.","postalCode":"56589","locality":"Niederbreitbach","municipality":{"key":"07138047","name":"Niederbreitbach","type":"Kreisangehörige_Gemeinde"},"district":{"key":"07138","name":"Neuwied","type":"Landkreis"},"federalState":{"key":"07","name":"Rheinland-Pfalz"}},{"name":"Weihergasse","postalCode":"56589","locality":"Niederbreitbach","municipality":{"key":"07138047","name":"Niederbreitbach","type":"Kreisangehörige_Gemeinde"},"district":{"key":"07138","name":"Neuwied","type":"Landkreis"},"federalState":{"key":"07","name":"Rheinland-Pfalz"}},{"name":"Wiedblickstr.","postalCode":"56589","locality":"Niederbreitbach","municipality":{"key":"07138047","name":"Niederbreitbach","type":"Kreisangehörige_Gemeinde"},"district":{"key":"07138","name":"Neuwied","type":"Landkreis"},"federalState":{"key":"07","name":"Rheinland-Pfalz"}},{"name":"Zeilbäumerweg","postalCode":"56567","locality":"Neuwied","municipality":{"key":"07138045","name":"Neuwied, Stadt","type":"Stadt"},"district":{"key":"07138","name":"Neuwied","type":"Landkreis"},"federalState":{"key":"07","name":"Rheinland-Pfalz"}},{"name":"Zeisigpfad","postalCode":"56564","locality":"Neuwied","municipality":{"key":"07138045","name":"Neuwied, Stadt","type":"Stadt"},"district":{"key":"07138","name":"Neuwied","type":"Landkreis"},"federalState":{"key":"07","name":"Rheinland-Pfalz"}},{"name":"Zeppelinhof","postalCode":"56564","locality":"Neuwied","municipality":{"key":"07138045","name":"Neuwied, Stadt","type":"Stadt"},"district":{"key":"07138","name":"Neuwied","type":"Landkreis"},"federalState":{"key":"07","name":"Rheinland-Pfalz"}},{"name":"Zinzendorfstr.","postalCode":"56564","locality":"Neuwied","municipality":{"key":"07138045","name":"Neuwied, Stadt","type":"Stadt"},"district":{"key":"07138","name":"Neuwied","type":"Landkreis"},"federalState":{"key":"07","name":"Rheinland-Pfalz"}},{"name":"Zoppoter Str.","postalCode":"56566","locality":"Neuwied","municipality":{"key":"07138045","name":"Neuwied, Stadt","type":"Stadt"},"district":{"key":"07138","name":"Neuwied","type":"Landkreis"},"federalState":{"key":"07","name":"Rheinland-Pfalz"}},{"name":"Zu den Eichen","postalCode":"56567","locality":"Neuwied","municipality":{"key":"07138045","name":"Neuwied, Stadt","type":"Stadt"},"district":{"key":"07138","name":"Neuwied","type":"Landkreis"},"federalState":{"key":"07","name":"Rheinland-Pfalz"}},{"name":"Zum Aubachtal","postalCode":"56566","locality":"Neuwied","municipality":{"key":"07138045","name":"Neuwied, Stadt","type":"Stadt"},"district":{"key":"07138","name":"Neuwied","type":"Landkreis"},"federalState":{"key":"07","name":"Rheinland-Pfalz"}},{"name":"Zum Kuckucksberg","postalCode":"56567","locality":"Neuwied","municipality":{"key":"07138045","name":"Neuwied, Stadt","type":"Stadt"},"district":{"key":"07138","name":"Neuwied","type":"Landkreis"},"federalState":{"key":"07","name":"Rheinland-Pfalz"}},{"name":"Zum Stausee","postalCode":"56566","locality":"Neuwied","municipality":{"key":"07138045","name":"Neuwied, Stadt","type":"Stadt"},"district":{"key":"07138","name":"Neuwied","type":"Landkreis"},"federalState":{"key":"07","name":"Rheinland-Pfalz"}},{"name":"Über dem Aubach","postalCode":"56566","locality":"Neuwied","municipality":{"key":"07138045","name":"Neuwied, Stadt","type":"Stadt"},"district":{"key":"07138","name":"Neuwied","type":"Landkreis"},"federalState":{"key":"07","name":"Rheinland-Pfalz"}},]