[{"name":"Ackerweg","postalCode":"01454","locality":"Radeberg","municipality":{"key":"14625480","name":"Radeberg, Stadt","type":"Stadt"},"district":{"key":"14625","name":"Bautzen","type":"Landkreis"},"federalState":{"key":"14","name":"Sachsen"}},{"name":"Adolph-Kolping-Str.","postalCode":"01454","locality":"Radeberg","municipality":{"key":"14625480","name":"Radeberg, Stadt","type":"Stadt"},"district":{"key":"14625","name":"Bautzen","type":"Landkreis"},"federalState":{"key":"14","name":"Sachsen"}},{"name":"Agathe-Zeis-Str.","postalCode":"01454","locality":"Radeberg","municipality":{"key":"14625480","name":"Radeberg, Stadt","type":"Stadt"},"district":{"key":"14625","name":"Bautzen","type":"Landkreis"},"federalState":{"key":"14","name":"Sachsen"}},{"name":"Alte 4","postalCode":"01454","locality":"Radeberg","municipality":{"key":"14625480","name":"Radeberg, Stadt","type":"Stadt"},"district":{"key":"14625","name":"Bautzen","type":"Landkreis"},"federalState":{"key":"14","name":"Sachsen"}},{"name":"Alte Hauptstr.","postalCode":"01454","locality":"Radeberg","municipality":{"key":"14625480","name":"Radeberg, Stadt","type":"Stadt"},"district":{"key":"14625","name":"Bautzen","type":"Landkreis"},"federalState":{"key":"14","name":"Sachsen"}},{"name":"Alter Dorfrand","postalCode":"01454","locality":"Radeberg","municipality":{"key":"14625480","name":"Radeberg, Stadt","type":"Stadt"},"district":{"key":"14625","name":"Bautzen","type":"Landkreis"},"federalState":{"key":"14","name":"Sachsen"}},{"name":"Am Anglerteich","postalCode":"01454","locality":"Radeberg","municipality":{"key":"14625480","name":"Radeberg, Stadt","type":"Stadt"},"district":{"key":"14625","name":"Bautzen","type":"Landkreis"},"federalState":{"key":"14","name":"Sachsen"}},{"name":"Am Bahnhof","postalCode":"01454","locality":"Radeberg","municipality":{"key":"14625480","name":"Radeberg, Stadt","type":"Stadt"},"district":{"key":"14625","name":"Bautzen","type":"Landkreis"},"federalState":{"key":"14","name":"Sachsen"}},{"name":"Am Bauernbusch","postalCode":"01454","locality":"Radeberg","municipality":{"key":"14625480","name":"Radeberg, Stadt","type":"Stadt"},"district":{"key":"14625","name":"Bautzen","type":"Landkreis"},"federalState":{"key":"14","name":"Sachsen"}},{"name":"Am Baumhaus","postalCode":"01454","locality":"Radeberg","municipality":{"key":"14625480","name":"Radeberg, Stadt","type":"Stadt"},"district":{"key":"14625","name":"Bautzen","type":"Landkreis"},"federalState":{"key":"14","name":"Sachsen"}},{"name":"Am Dorfwasser","postalCode":"01454","locality":"Radeberg","municipality":{"key":"14625480","name":"Radeberg, Stadt","type":"Stadt"},"district":{"key":"14625","name":"Bautzen","type":"Landkreis"},"federalState":{"key":"14","name":"Sachsen"}},{"name":"Am Feldhaus","postalCode":"01454","locality":"Radeberg","municipality":{"key":"14625480","name":"Radeberg, Stadt","type":"Stadt"},"district":{"key":"14625","name":"Bautzen","type":"Landkreis"},"federalState":{"key":"14","name":"Sachsen"}},{"name":"Am Försterhain","postalCode":"01454","locality":"Radeberg","municipality":{"key":"14625480","name":"Radeberg, Stadt","type":"Stadt"},"district":{"key":"14625","name":"Bautzen","type":"Landkreis"},"federalState":{"key":"14","name":"Sachsen"}},{"name":"Am Glaswerk","postalCode":"01454","locality":"Radeberg","municipality":{"key":"14625480","name":"Radeberg, Stadt","type":"Stadt"},"district":{"key":"14625","name":"Bautzen","type":"Landkreis"},"federalState":{"key":"14","name":"Sachsen"}},{"name":"Am Goldbach","postalCode":"01454","locality":"Radeberg","municipality":{"key":"14625480","name":"Radeberg, Stadt","type":"Stadt"},"district":{"key":"14625","name":"Bautzen","type":"Landkreis"},"federalState":{"key":"14","name":"Sachsen"}},{"name":"Am Goldbachgrund","postalCode":"01454","locality":"Radeberg","municipality":{"key":"14625480","name":"Radeberg, Stadt","type":"Stadt"},"district":{"key":"14625","name":"Bautzen","type":"Landkreis"},"federalState":{"key":"14","name":"Sachsen"}},{"name":"Am Golfplatz","postalCode":"01454","locality":"Radeberg","municipality":{"key":"14625480","name":"Radeberg, Stadt","type":"Stadt"},"district":{"key":"14625","name":"Bautzen","type":"Landkreis"},"federalState":{"key":"14","name":"Sachsen"}},{"name":"Am Heiderand","postalCode":"01454","locality":"Radeberg","municipality":{"key":"14625480","name":"Radeberg, Stadt","type":"Stadt"},"district":{"key":"14625","name":"Bautzen","type":"Landkreis"},"federalState":{"key":"14","name":"Sachsen"}},{"name":"Am Heidewinkel","postalCode":"01454","locality":"Radeberg","municipality":{"key":"14625480","name":"Radeberg, Stadt","type":"Stadt"},"district":{"key":"14625","name":"Bautzen","type":"Landkreis"},"federalState":{"key":"14","name":"Sachsen"}},{"name":"Am Hofeberg","postalCode":"01454","locality":"Radeberg","municipality":{"key":"14625480","name":"Radeberg, Stadt","type":"Stadt"},"district":{"key":"14625","name":"Bautzen","type":"Landkreis"},"federalState":{"key":"14","name":"Sachsen"}},{"name":"Am Hofegrund","postalCode":"01454","locality":"Radeberg","municipality":{"key":"14625480","name":"Radeberg, Stadt","type":"Stadt"},"district":{"key":"14625","name":"Bautzen","type":"Landkreis"},"federalState":{"key":"14","name":"Sachsen"}},{"name":"Am Sandberg","postalCode":"01454","locality":"Radeberg","municipality":{"key":"14625480","name":"Radeberg, Stadt","type":"Stadt"},"district":{"key":"14625","name":"Bautzen","type":"Landkreis"},"federalState":{"key":"14","name":"Sachsen"}},{"name":"Am Sandweg","postalCode":"01454","locality":"Radeberg","municipality":{"key":"14625480","name":"Radeberg, Stadt","type":"Stadt"},"district":{"key":"14625","name":"Bautzen","type":"Landkreis"},"federalState":{"key":"14","name":"Sachsen"}},{"name":"Am Silberberg","postalCode":"01454","locality":"Radeberg","municipality":{"key":"14625480","name":"Radeberg, Stadt","type":"Stadt"},"district":{"key":"14625","name":"Bautzen","type":"Landkreis"},"federalState":{"key":"14","name":"Sachsen"}},{"name":"Am Steinberg","postalCode":"01454","locality":"Radeberg","municipality":{"key":"14625480","name":"Radeberg, Stadt","type":"Stadt"},"district":{"key":"14625","name":"Bautzen","type":"Landkreis"},"federalState":{"key":"14","name":"Sachsen"}},{"name":"Am Steinhübel","postalCode":"01454","locality":"Radeberg","municipality":{"key":"14625480","name":"Radeberg, Stadt","type":"Stadt"},"district":{"key":"14625","name":"Bautzen","type":"Landkreis"},"federalState":{"key":"14","name":"Sachsen"}},{"name":"Am Taubenberg","postalCode":"01454","locality":"Radeberg","municipality":{"key":"14625480","name":"Radeberg, Stadt","type":"Stadt"},"district":{"key":"14625","name":"Bautzen","type":"Landkreis"},"federalState":{"key":"14","name":"Sachsen"}},{"name":"Am Teich","postalCode":"01454","locality":"Radeberg","municipality":{"key":"14625480","name":"Radeberg, Stadt","type":"Stadt"},"district":{"key":"14625","name":"Bautzen","type":"Landkreis"},"federalState":{"key":"14","name":"Sachsen"}},{"name":"Am Wald","postalCode":"01454","locality":"Radeberg","municipality":{"key":"14625480","name":"Radeberg, Stadt","type":"Stadt"},"district":{"key":"14625","name":"Bautzen","type":"Landkreis"},"federalState":{"key":"14","name":"Sachsen"}},{"name":"Am Waldeck","postalCode":"01454","locality":"Radeberg","municipality":{"key":"14625480","name":"Radeberg, Stadt","type":"Stadt"},"district":{"key":"14625","name":"Bautzen","type":"Landkreis"},"federalState":{"key":"14","name":"Sachsen"}},{"name":"Am Waldrand","postalCode":"01454","locality":"Radeberg","municipality":{"key":"14625480","name":"Radeberg, Stadt","type":"Stadt"},"district":{"key":"14625","name":"Bautzen","type":"Landkreis"},"federalState":{"key":"14","name":"Sachsen"}},{"name":"Am Wall","postalCode":"01454","locality":"Radeberg","municipality":{"key":"14625480","name":"Radeberg, Stadt","type":"Stadt"},"district":{"key":"14625","name":"Bautzen","type":"Landkreis"},"federalState":{"key":"14","name":"Sachsen"}},{"name":"Am Wiesenweg","postalCode":"01454","locality":"Radeberg","municipality":{"key":"14625480","name":"Radeberg, Stadt","type":"Stadt"},"district":{"key":"14625","name":"Bautzen","type":"Landkreis"},"federalState":{"key":"14","name":"Sachsen"}},{"name":"An den Folgen","postalCode":"01454","locality":"Radeberg","municipality":{"key":"14625480","name":"Radeberg, Stadt","type":"Stadt"},"district":{"key":"14625","name":"Bautzen","type":"Landkreis"},"federalState":{"key":"14","name":"Sachsen"}},{"name":"An den Leithen","postalCode":"01454","locality":"Radeberg","municipality":{"key":"14625480","name":"Radeberg, Stadt","type":"Stadt"},"district":{"key":"14625","name":"Bautzen","type":"Landkreis"},"federalState":{"key":"14","name":"Sachsen"}},{"name":"An der Aue","postalCode":"01454","locality":"Radeberg","municipality":{"key":"14625480","name":"Radeberg, Stadt","type":"Stadt"},"district":{"key":"14625","name":"Bautzen","type":"Landkreis"},"federalState":{"key":"14","name":"Sachsen"}},{"name":"An der Bahn nach Arnsdorf","postalCode":"01454","locality":"Radeberg","municipality":{"key":"14625480","name":"Radeberg, Stadt","type":"Stadt"},"district":{"key":"14625","name":"Bautzen","type":"Landkreis"},"federalState":{"key":"14","name":"Sachsen"}},{"name":"An der Bahn nach Langebrück","postalCode":"01454","locality":"Radeberg","municipality":{"key":"14625480","name":"Radeberg, Stadt","type":"Stadt"},"district":{"key":"14625","name":"Bautzen","type":"Landkreis"},"federalState":{"key":"14","name":"Sachsen"}},{"name":"An der Heide","postalCode":"01454","locality":"Radeberg","municipality":{"key":"14625480","name":"Radeberg, Stadt","type":"Stadt"},"district":{"key":"14625","name":"Bautzen","type":"Landkreis"},"federalState":{"key":"14","name":"Sachsen"}},{"name":"An der Kirche","postalCode":"01454","locality":"Radeberg","municipality":{"key":"14625480","name":"Radeberg, Stadt","type":"Stadt"},"district":{"key":"14625","name":"Bautzen","type":"Landkreis"},"federalState":{"key":"14","name":"Sachsen"}},{"name":"An der Kühnheide","postalCode":"01454","locality":"Radeberg","municipality":{"key":"14625480","name":"Radeberg, Stadt","type":"Stadt"},"district":{"key":"14625","name":"Bautzen","type":"Landkreis"},"federalState":{"key":"14","name":"Sachsen"}},{"name":"An der Prießnitzaue","postalCode":"01454","locality":"Radeberg","municipality":{"key":"14625480","name":"Radeberg, Stadt","type":"Stadt"},"district":{"key":"14625","name":"Bautzen","type":"Landkreis"},"federalState":{"key":"14","name":"Sachsen"}},{"name":"An der Röderaue","postalCode":"01454","locality":"Radeberg","municipality":{"key":"14625480","name":"Radeberg, Stadt","type":"Stadt"},"district":{"key":"14625","name":"Bautzen","type":"Landkreis"},"federalState":{"key":"14","name":"Sachsen"}},{"name":"An der Ziegelei","postalCode":"01454","locality":"Radeberg","municipality":{"key":"14625480","name":"Radeberg, Stadt","type":"Stadt"},"district":{"key":"14625","name":"Bautzen","type":"Landkreis"},"federalState":{"key":"14","name":"Sachsen"}},{"name":"Arnsdorfer Str.","postalCode":"01454","locality":"Radeberg","municipality":{"key":"14625480","name":"Radeberg, Stadt","type":"Stadt"},"district":{"key":"14625","name":"Bautzen","type":"Landkreis"},"federalState":{"key":"14","name":"Sachsen"}},{"name":"Aschheimer Str.","postalCode":"01454","locality":"Radeberg","municipality":{"key":"14625480","name":"Radeberg, Stadt","type":"Stadt"},"district":{"key":"14625","name":"Bautzen","type":"Landkreis"},"federalState":{"key":"14","name":"Sachsen"}},{"name":"August-Bebel-Str.","postalCode":"01454","locality":"Radeberg","municipality":{"key":"14625480","name":"Radeberg, Stadt","type":"Stadt"},"district":{"key":"14625","name":"Bautzen","type":"Landkreis"},"federalState":{"key":"14","name":"Sachsen"}},{"name":"Badstr.","postalCode":"01454","locality":"Radeberg","municipality":{"key":"14625480","name":"Radeberg, Stadt","type":"Stadt"},"district":{"key":"14625","name":"Bautzen","type":"Landkreis"},"federalState":{"key":"14","name":"Sachsen"}},{"name":"Bahnhofstr.","postalCode":"01454","locality":"Radeberg","municipality":{"key":"14625480","name":"Radeberg, Stadt","type":"Stadt"},"district":{"key":"14625","name":"Bautzen","type":"Landkreis"},"federalState":{"key":"14","name":"Sachsen"}},{"name":"Balthasar-Thieme-Str.","postalCode":"01454","locality":"Radeberg","municipality":{"key":"14625480","name":"Radeberg, Stadt","type":"Stadt"},"district":{"key":"14625","name":"Bautzen","type":"Landkreis"},"federalState":{"key":"14","name":"Sachsen"}},{"name":"Bauernweg","postalCode":"01454","locality":"Radeberg","municipality":{"key":"14625480","name":"Radeberg, Stadt","type":"Stadt"},"district":{"key":"14625","name":"Bautzen","type":"Landkreis"},"federalState":{"key":"14","name":"Sachsen"}},{"name":"Bautzner Landstr.","postalCode":"01454","locality":"Radeberg","municipality":{"key":"14625480","name":"Radeberg, Stadt","type":"Stadt"},"district":{"key":"14625","name":"Bautzen","type":"Landkreis"},"federalState":{"key":"14","name":"Sachsen"}},{"name":"Beethovenweg","postalCode":"01454","locality":"Radeberg","municipality":{"key":"14625480","name":"Radeberg, Stadt","type":"Stadt"},"district":{"key":"14625","name":"Bautzen","type":"Landkreis"},"federalState":{"key":"14","name":"Sachsen"}},{"name":"Berggasse","postalCode":"01454","locality":"Radeberg","municipality":{"key":"14625480","name":"Radeberg, Stadt","type":"Stadt"},"district":{"key":"14625","name":"Bautzen","type":"Landkreis"},"federalState":{"key":"14","name":"Sachsen"}},{"name":"Bergmühlenweg","postalCode":"01454","locality":"Radeberg","municipality":{"key":"14625480","name":"Radeberg, Stadt","type":"Stadt"},"district":{"key":"14625","name":"Bautzen","type":"Landkreis"},"federalState":{"key":"14","name":"Sachsen"}},{"name":"Bergstr.","postalCode":"01454","locality":"Radeberg","municipality":{"key":"14625480","name":"Radeberg, Stadt","type":"Stadt"},"district":{"key":"14625","name":"Bautzen","type":"Landkreis"},"federalState":{"key":"14","name":"Sachsen"}},{"name":"Bischofsweg","postalCode":"01454","locality":"Radeberg","municipality":{"key":"14625480","name":"Radeberg, Stadt","type":"Stadt"},"district":{"key":"14625","name":"Bautzen","type":"Landkreis"},"federalState":{"key":"14","name":"Sachsen"}},{"name":"Blumenweg","postalCode":"01454","locality":"Radeberg","municipality":{"key":"14625480","name":"Radeberg, Stadt","type":"Stadt"},"district":{"key":"14625","name":"Bautzen","type":"Landkreis"},"federalState":{"key":"14","name":"Sachsen"}},{"name":"Bruno-Thum-Weg","postalCode":"01454","locality":"Radeberg","municipality":{"key":"14625480","name":"Radeberg, Stadt","type":"Stadt"},"district":{"key":"14625","name":"Bautzen","type":"Landkreis"},"federalState":{"key":"14","name":"Sachsen"}},{"name":"Carl-Eschebach-Str.","postalCode":"01454","locality":"Radeberg","municipality":{"key":"14625480","name":"Radeberg, Stadt","type":"Stadt"},"district":{"key":"14625","name":"Bautzen","type":"Landkreis"},"federalState":{"key":"14","name":"Sachsen"}},{"name":"Christoph-Seydel-Str.","postalCode":"01454","locality":"Radeberg","municipality":{"key":"14625480","name":"Radeberg, Stadt","type":"Stadt"},"district":{"key":"14625","name":"Bautzen","type":"Landkreis"},"federalState":{"key":"14","name":"Sachsen"}},{"name":"Dammweg","postalCode":"01454","locality":"Radeberg","municipality":{"key":"14625480","name":"Radeberg, Stadt","type":"Stadt"},"district":{"key":"14625","name":"Bautzen","type":"Landkreis"},"federalState":{"key":"14","name":"Sachsen"}},{"name":"Der Lamperweg","postalCode":"01454","locality":"Radeberg","municipality":{"key":"14625480","name":"Radeberg, Stadt","type":"Stadt"},"district":{"key":"14625","name":"Bautzen","type":"Landkreis"},"federalState":{"key":"14","name":"Sachsen"}},{"name":"Der Lange Weg","postalCode":"01454","locality":"Radeberg","municipality":{"key":"14625480","name":"Radeberg, Stadt","type":"Stadt"},"district":{"key":"14625","name":"Bautzen","type":"Landkreis"},"federalState":{"key":"14","name":"Sachsen"}},{"name":"Dorfstr.","postalCode":"01454","locality":"Radeberg","municipality":{"key":"14625480","name":"Radeberg, Stadt","type":"Stadt"},"district":{"key":"14625","name":"Bautzen","type":"Landkreis"},"federalState":{"key":"14","name":"Sachsen"}},{"name":"Dörnichtweg","postalCode":"01454","locality":"Radeberg","municipality":{"key":"14625480","name":"Radeberg, Stadt","type":"Stadt"},"district":{"key":"14625","name":"Bautzen","type":"Landkreis"},"federalState":{"key":"14","name":"Sachsen"}},{"name":"Dr.-Albert-Dietze-Str.","postalCode":"01454","locality":"Radeberg","municipality":{"key":"14625480","name":"Radeberg, Stadt","type":"Stadt"},"district":{"key":"14625","name":"Bautzen","type":"Landkreis"},"federalState":{"key":"14","name":"Sachsen"}},{"name":"Dresdener Str.","postalCode":"01454","locality":"Radeberg","municipality":{"key":"14625480","name":"Radeberg, Stadt","type":"Stadt"},"district":{"key":"14625","name":"Bautzen","type":"Landkreis"},"federalState":{"key":"14","name":"Sachsen"}},{"name":"Dr.-Friedrich-Wolf-Str.","postalCode":"01454","locality":"Radeberg","municipality":{"key":"14625480","name":"Radeberg, Stadt","type":"Stadt"},"district":{"key":"14625","name":"Bautzen","type":"Landkreis"},"federalState":{"key":"14","name":"Sachsen"}},{"name":"Dr.-Rudolf-Friedrichs-Str.","postalCode":"01454","locality":"Radeberg","municipality":{"key":"14625480","name":"Radeberg, Stadt","type":"Stadt"},"district":{"key":"14625","name":"Bautzen","type":"Landkreis"},"federalState":{"key":"14","name":"Sachsen"}},{"name":"Dr.-Wilhelm-Külz-Str.","postalCode":"01454","locality":"Radeberg","municipality":{"key":"14625480","name":"Radeberg, Stadt","type":"Stadt"},"district":{"key":"14625","name":"Bautzen","type":"Landkreis"},"federalState":{"key":"14","name":"Sachsen"}},{"name":"Elsa-Fenske-Str.","postalCode":"01454","locality":"Radeberg","municipality":{"key":"14625480","name":"Radeberg, Stadt","type":"Stadt"},"district":{"key":"14625","name":"Bautzen","type":"Landkreis"},"federalState":{"key":"14","name":"Sachsen"}},{"name":"Ernst-Braune-Str.","postalCode":"01454","locality":"Radeberg","municipality":{"key":"14625480","name":"Radeberg, Stadt","type":"Stadt"},"district":{"key":"14625","name":"Bautzen","type":"Landkreis"},"federalState":{"key":"14","name":"Sachsen"}},{"name":"Ernst-Thälmann-Str.","postalCode":"01454","locality":"Radeberg","municipality":{"key":"14625480","name":"Radeberg, Stadt","type":"Stadt"},"district":{"key":"14625","name":"Bautzen","type":"Landkreis"},"federalState":{"key":"14","name":"Sachsen"}},{"name":"Eschenweg","postalCode":"01454","locality":"Radeberg","municipality":{"key":"14625480","name":"Radeberg, Stadt","type":"Stadt"},"district":{"key":"14625","name":"Bautzen","type":"Landkreis"},"federalState":{"key":"14","name":"Sachsen"}},{"name":"Fasanenweg","postalCode":"01454","locality":"Radeberg","municipality":{"key":"14625480","name":"Radeberg, Stadt","type":"Stadt"},"district":{"key":"14625","name":"Bautzen","type":"Landkreis"},"federalState":{"key":"14","name":"Sachsen"}},{"name":"Feldhausweg","postalCode":"01454","locality":"Radeberg","municipality":{"key":"14625480","name":"Radeberg, Stadt","type":"Stadt"},"district":{"key":"14625","name":"Bautzen","type":"Landkreis"},"federalState":{"key":"14","name":"Sachsen"}},{"name":"Feldweg","postalCode":"01454","locality":"Radeberg","municipality":{"key":"14625480","name":"Radeberg, Stadt","type":"Stadt"},"district":{"key":"14625","name":"Bautzen","type":"Landkreis"},"federalState":{"key":"14","name":"Sachsen"}},{"name":"Ferdinand-Freiligrath-Str.","postalCode":"01454","locality":"Radeberg","municipality":{"key":"14625480","name":"Radeberg, Stadt","type":"Stadt"},"district":{"key":"14625","name":"Bautzen","type":"Landkreis"},"federalState":{"key":"14","name":"Sachsen"}},{"name":"Finkenweg","postalCode":"01454","locality":"Radeberg","municipality":{"key":"14625480","name":"Radeberg, Stadt","type":"Stadt"},"district":{"key":"14625","name":"Bautzen","type":"Landkreis"},"federalState":{"key":"14","name":"Sachsen"}},{"name":"Fliederweg","postalCode":"01454","locality":"Radeberg","municipality":{"key":"14625480","name":"Radeberg, Stadt","type":"Stadt"},"district":{"key":"14625","name":"Bautzen","type":"Landkreis"},"federalState":{"key":"14","name":"Sachsen"}},{"name":"Flügelweg","postalCode":"01454","locality":"Radeberg","municipality":{"key":"14625480","name":"Radeberg, Stadt","type":"Stadt"},"district":{"key":"14625","name":"Bautzen","type":"Landkreis"},"federalState":{"key":"14","name":"Sachsen"}},{"name":"Forellenweg","postalCode":"01454","locality":"Radeberg","municipality":{"key":"14625480","name":"Radeberg, Stadt","type":"Stadt"},"district":{"key":"14625","name":"Bautzen","type":"Landkreis"},"federalState":{"key":"14","name":"Sachsen"}},{"name":"Förstersteig","postalCode":"01454","locality":"Radeberg","municipality":{"key":"14625480","name":"Radeberg, Stadt","type":"Stadt"},"district":{"key":"14625","name":"Bautzen","type":"Landkreis"},"federalState":{"key":"14","name":"Sachsen"}},{"name":"Forststr.","postalCode":"01454","locality":"Radeberg","municipality":{"key":"14625480","name":"Radeberg, Stadt","type":"Stadt"},"district":{"key":"14625","name":"Bautzen","type":"Landkreis"},"federalState":{"key":"14","name":"Sachsen"}},{"name":"Forstweg","postalCode":"01454","locality":"Radeberg","municipality":{"key":"14625480","name":"Radeberg, Stadt","type":"Stadt"},"district":{"key":"14625","name":"Bautzen","type":"Landkreis"},"federalState":{"key":"14","name":"Sachsen"}},{"name":"Franz-Schubert-Weg","postalCode":"01454","locality":"Radeberg","municipality":{"key":"14625480","name":"Radeberg, Stadt","type":"Stadt"},"district":{"key":"14625","name":"Bautzen","type":"Landkreis"},"federalState":{"key":"14","name":"Sachsen"}},{"name":"Freudenberg","postalCode":"01454","locality":"Radeberg","municipality":{"key":"14625480","name":"Radeberg, Stadt","type":"Stadt"},"district":{"key":"14625","name":"Bautzen","type":"Landkreis"},"federalState":{"key":"14","name":"Sachsen"}},{"name":"Friedensstr.","postalCode":"01454","locality":"Radeberg","municipality":{"key":"14625480","name":"Radeberg, Stadt","type":"Stadt"},"district":{"key":"14625","name":"Bautzen","type":"Landkreis"},"federalState":{"key":"14","name":"Sachsen"}},{"name":"Friedhofstr.","postalCode":"01454","locality":"Radeberg","municipality":{"key":"14625480","name":"Radeberg, Stadt","type":"Stadt"},"district":{"key":"14625","name":"Bautzen","type":"Landkreis"},"federalState":{"key":"14","name":"Sachsen"}},{"name":"Friedrich-Engels-Str.","postalCode":"01454","locality":"Radeberg","municipality":{"key":"14625480","name":"Radeberg, Stadt","type":"Stadt"},"district":{"key":"14625","name":"Bautzen","type":"Landkreis"},"federalState":{"key":"14","name":"Sachsen"}},{"name":"Friedrichstal","postalCode":"01454","locality":"Radeberg","municipality":{"key":"14625480","name":"Radeberg, Stadt","type":"Stadt"},"district":{"key":"14625","name":"Bautzen","type":"Landkreis"},"federalState":{"key":"14","name":"Sachsen"}},{"name":"Fritz-Seifert-Str.","postalCode":"01454","locality":"Radeberg","municipality":{"key":"14625480","name":"Radeberg, Stadt","type":"Stadt"},"district":{"key":"14625","name":"Bautzen","type":"Landkreis"},"federalState":{"key":"14","name":"Sachsen"}},{"name":"Fröbelweg","postalCode":"01454","locality":"Radeberg","municipality":{"key":"14625480","name":"Radeberg, Stadt","type":"Stadt"},"district":{"key":"14625","name":"Bautzen","type":"Landkreis"},"federalState":{"key":"14","name":"Sachsen"}},{"name":"Galileiweg","postalCode":"01454","locality":"Radeberg","municipality":{"key":"14625480","name":"Radeberg, Stadt","type":"Stadt"},"district":{"key":"14625","name":"Bautzen","type":"Landkreis"},"federalState":{"key":"14","name":"Sachsen"}},{"name":"Garchinger Str.","postalCode":"01454","locality":"Radeberg","municipality":{"key":"14625480","name":"Radeberg, Stadt","type":"Stadt"},"district":{"key":"14625","name":"Bautzen","type":"Landkreis"},"federalState":{"key":"14","name":"Sachsen"}},{"name":"Gartenblick","postalCode":"01454","locality":"Radeberg","municipality":{"key":"14625480","name":"Radeberg, Stadt","type":"Stadt"},"district":{"key":"14625","name":"Bautzen","type":"Landkreis"},"federalState":{"key":"14","name":"Sachsen"}},{"name":"Garten Schloß Klippenstein","postalCode":"01454","locality":"Radeberg","municipality":{"key":"14625480","name":"Radeberg, Stadt","type":"Stadt"},"district":{"key":"14625","name":"Bautzen","type":"Landkreis"},"federalState":{"key":"14","name":"Sachsen"}},{"name":"Gartenstr.","postalCode":"01454","locality":"Radeberg","municipality":{"key":"14625480","name":"Radeberg, Stadt","type":"Stadt"},"district":{"key":"14625","name":"Bautzen","type":"Landkreis"},"federalState":{"key":"14","name":"Sachsen"}},{"name":"Gartenweg","postalCode":"01454","locality":"Radeberg","municipality":{"key":"14625480","name":"Radeberg, Stadt","type":"Stadt"},"district":{"key":"14625","name":"Bautzen","type":"Landkreis"},"federalState":{"key":"14","name":"Sachsen"}},{"name":"Gelbke-Hain","postalCode":"01454","locality":"Radeberg","municipality":{"key":"14625480","name":"Radeberg, Stadt","type":"Stadt"},"district":{"key":"14625","name":"Bautzen","type":"Landkreis"},"federalState":{"key":"14","name":"Sachsen"}},{"name":"Georg-Büchner-Str.","postalCode":"01454","locality":"Radeberg","municipality":{"key":"14625480","name":"Radeberg, Stadt","type":"Stadt"},"district":{"key":"14625","name":"Bautzen","type":"Landkreis"},"federalState":{"key":"14","name":"Sachsen"}},{"name":"Glashüttenweg","postalCode":"01454","locality":"Radeberg","municipality":{"key":"14625480","name":"Radeberg, Stadt","type":"Stadt"},"district":{"key":"14625","name":"Bautzen","type":"Landkreis"},"federalState":{"key":"14","name":"Sachsen"}},{"name":"Goethestr.","postalCode":"01454","locality":"Radeberg","municipality":{"key":"14625480","name":"Radeberg, Stadt","type":"Stadt"},"district":{"key":"14625","name":"Bautzen","type":"Landkreis"},"federalState":{"key":"14","name":"Sachsen"}},{"name":"Goetheweg","postalCode":"01454","locality":"Radeberg","municipality":{"key":"14625480","name":"Radeberg, Stadt","type":"Stadt"},"district":{"key":"14625","name":"Bautzen","type":"Landkreis"},"federalState":{"key":"14","name":"Sachsen"}},{"name":"Goldbachaue","postalCode":"01454","locality":"Radeberg","municipality":{"key":"14625480","name":"Radeberg, Stadt","type":"Stadt"},"district":{"key":"14625","name":"Bautzen","type":"Landkreis"},"federalState":{"key":"14","name":"Sachsen"}},{"name":"Grenzweg","postalCode":"01454","locality":"Radeberg","municipality":{"key":"14625480","name":"Radeberg, Stadt","type":"Stadt"},"district":{"key":"14625","name":"Bautzen","type":"Landkreis"},"federalState":{"key":"14","name":"Sachsen"}},{"name":"Großröhrsdorfer Str.","postalCode":"01454","locality":"Radeberg","municipality":{"key":"14625480","name":"Radeberg, Stadt","type":"Stadt"},"district":{"key":"14625","name":"Bautzen","type":"Landkreis"},"federalState":{"key":"14","name":"Sachsen"}},{"name":"Grundmühlenweg","postalCode":"01454","locality":"Radeberg","municipality":{"key":"14625480","name":"Radeberg, Stadt","type":"Stadt"},"district":{"key":"14625","name":"Bautzen","type":"Landkreis"},"federalState":{"key":"14","name":"Sachsen"}},{"name":"Grundstr.","postalCode":"01454","locality":"Radeberg","municipality":{"key":"14625480","name":"Radeberg, Stadt","type":"Stadt"},"district":{"key":"14625","name":"Bautzen","type":"Landkreis"},"federalState":{"key":"14","name":"Sachsen"}},{"name":"Güterbahnhofstr.","postalCode":"01454","locality":"Radeberg","municipality":{"key":"14625480","name":"Radeberg, Stadt","type":"Stadt"},"district":{"key":"14625","name":"Bautzen","type":"Landkreis"},"federalState":{"key":"14","name":"Sachsen"}},{"name":"Hauptstr.","postalCode":"01454","locality":"Radeberg","municipality":{"key":"14625480","name":"Radeberg, Stadt","type":"Stadt"},"district":{"key":"14625","name":"Bautzen","type":"Landkreis"},"federalState":{"key":"14","name":"Sachsen"}},{"name":"Heidestr.","postalCode":"01454","locality":"Radeberg","municipality":{"key":"14625480","name":"Radeberg, Stadt","type":"Stadt"},"district":{"key":"14625","name":"Bautzen","type":"Landkreis"},"federalState":{"key":"14","name":"Sachsen"}},{"name":"Heideweg","postalCode":"01454","locality":"Radeberg","municipality":{"key":"14625480","name":"Radeberg, Stadt","type":"Stadt"},"district":{"key":"14625","name":"Bautzen","type":"Landkreis"},"federalState":{"key":"14","name":"Sachsen"}},{"name":"Heinrich-Gläser-Str.","postalCode":"01454","locality":"Radeberg","municipality":{"key":"14625480","name":"Radeberg, Stadt","type":"Stadt"},"district":{"key":"14625","name":"Bautzen","type":"Landkreis"},"federalState":{"key":"14","name":"Sachsen"}},{"name":"Heinrich-Heine-Weg","postalCode":"01454","locality":"Radeberg","municipality":{"key":"14625480","name":"Radeberg, Stadt","type":"Stadt"},"district":{"key":"14625","name":"Bautzen","type":"Landkreis"},"federalState":{"key":"14","name":"Sachsen"}},{"name":"Hofegrund","postalCode":"01454","locality":"Radeberg","municipality":{"key":"14625480","name":"Radeberg, Stadt","type":"Stadt"},"district":{"key":"14625","name":"Bautzen","type":"Landkreis"},"federalState":{"key":"14","name":"Sachsen"}},{"name":"Hornweg","postalCode":"01454","locality":"Radeberg","municipality":{"key":"14625480","name":"Radeberg, Stadt","type":"Stadt"},"district":{"key":"14625","name":"Bautzen","type":"Landkreis"},"federalState":{"key":"14","name":"Sachsen"}},{"name":"Hügelweg","postalCode":"01454","locality":"Radeberg","municipality":{"key":"14625480","name":"Radeberg, Stadt","type":"Stadt"},"district":{"key":"14625","name":"Bautzen","type":"Landkreis"},"federalState":{"key":"14","name":"Sachsen"}},{"name":"Hutbergstr.","postalCode":"01454","locality":"Radeberg","municipality":{"key":"14625480","name":"Radeberg, Stadt","type":"Stadt"},"district":{"key":"14625","name":"Bautzen","type":"Landkreis"},"federalState":{"key":"14","name":"Sachsen"}},{"name":"Im Zipfel","postalCode":"01454","locality":"Radeberg","municipality":{"key":"14625480","name":"Radeberg, Stadt","type":"Stadt"},"district":{"key":"14625","name":"Bautzen","type":"Landkreis"},"federalState":{"key":"14","name":"Sachsen"}},{"name":"Jagdweg","postalCode":"01454","locality":"Radeberg","municipality":{"key":"14625480","name":"Radeberg, Stadt","type":"Stadt"},"district":{"key":"14625","name":"Bautzen","type":"Landkreis"},"federalState":{"key":"14","name":"Sachsen"}},{"name":"Juri-Gagarin-Str.","postalCode":"01454","locality":"Radeberg","municipality":{"key":"14625480","name":"Radeberg, Stadt","type":"Stadt"},"district":{"key":"14625","name":"Bautzen","type":"Landkreis"},"federalState":{"key":"14","name":"Sachsen"}},{"name":"Kajo-Schommer-Platz","postalCode":"01454","locality":"Radeberg","municipality":{"key":"14625480","name":"Radeberg, Stadt","type":"Stadt"},"district":{"key":"14625","name":"Bautzen","type":"Landkreis"},"federalState":{"key":"14","name":"Sachsen"}},{"name":"Kamenzer Str.","postalCode":"01454","locality":"Radeberg","municipality":{"key":"14625480","name":"Radeberg, Stadt","type":"Stadt"},"district":{"key":"14625","name":"Bautzen","type":"Landkreis"},"federalState":{"key":"14","name":"Sachsen"}},{"name":"Karlstr.","postalCode":"01454","locality":"Radeberg","municipality":{"key":"14625480","name":"Radeberg, Stadt","type":"Stadt"},"district":{"key":"14625","name":"Bautzen","type":"Landkreis"},"federalState":{"key":"14","name":"Sachsen"}},{"name":"Kastanienstr.","postalCode":"01454","locality":"Radeberg","municipality":{"key":"14625480","name":"Radeberg, Stadt","type":"Stadt"},"district":{"key":"14625","name":"Bautzen","type":"Landkreis"},"federalState":{"key":"14","name":"Sachsen"}},{"name":"Käthe-Kollwitz-Str.","postalCode":"01454","locality":"Radeberg","municipality":{"key":"14625480","name":"Radeberg, Stadt","type":"Stadt"},"district":{"key":"14625","name":"Bautzen","type":"Landkreis"},"federalState":{"key":"14","name":"Sachsen"}},{"name":"Keplerweg","postalCode":"01454","locality":"Radeberg","municipality":{"key":"14625480","name":"Radeberg, Stadt","type":"Stadt"},"district":{"key":"14625","name":"Bautzen","type":"Landkreis"},"federalState":{"key":"14","name":"Sachsen"}},{"name":"Kirchstr.","postalCode":"01454","locality":"Radeberg","municipality":{"key":"14625480","name":"Radeberg, Stadt","type":"Stadt"},"district":{"key":"14625","name":"Bautzen","type":"Landkreis"},"federalState":{"key":"14","name":"Sachsen"}},{"name":"Kirchweg","postalCode":"01454","locality":"Radeberg","municipality":{"key":"14625480","name":"Radeberg, Stadt","type":"Stadt"},"district":{"key":"14625","name":"Bautzen","type":"Landkreis"},"federalState":{"key":"14","name":"Sachsen"}},{"name":"Kleinerkmannsdorf","postalCode":"01454","locality":"Radeberg","municipality":{"key":"14625480","name":"Radeberg, Stadt","type":"Stadt"},"district":{"key":"14625","name":"Bautzen","type":"Landkreis"},"federalState":{"key":"14","name":"Sachsen"}},{"name":"Kleinröhrsdorfer Str.","postalCode":"01454","locality":"Radeberg","municipality":{"key":"14625480","name":"Radeberg, Stadt","type":"Stadt"},"district":{"key":"14625","name":"Bautzen","type":"Landkreis"},"federalState":{"key":"14","name":"Sachsen"}},{"name":"Kopernikusstr.","postalCode":"01454","locality":"Radeberg","municipality":{"key":"14625480","name":"Radeberg, Stadt","type":"Stadt"},"district":{"key":"14625","name":"Bautzen","type":"Landkreis"},"federalState":{"key":"14","name":"Sachsen"}},{"name":"Kurhausstr.","postalCode":"01454","locality":"Radeberg","municipality":{"key":"14625480","name":"Radeberg, Stadt","type":"Stadt"},"district":{"key":"14625","name":"Bautzen","type":"Landkreis"},"federalState":{"key":"14","name":"Sachsen"}},{"name":"Kurze Gasse","postalCode":"01454","locality":"Radeberg","municipality":{"key":"14625480","name":"Radeberg, Stadt","type":"Stadt"},"district":{"key":"14625","name":"Bautzen","type":"Landkreis"},"federalState":{"key":"14","name":"Sachsen"}},{"name":"Kurzer Weg","postalCode":"01454","locality":"Radeberg","municipality":{"key":"14625480","name":"Radeberg, Stadt","type":"Stadt"},"district":{"key":"14625","name":"Bautzen","type":"Landkreis"},"federalState":{"key":"14","name":"Sachsen"}},{"name":"Landwehrweg","postalCode":"01454","locality":"Radeberg","municipality":{"key":"14625480","name":"Radeberg, Stadt","type":"Stadt"},"district":{"key":"14625","name":"Bautzen","type":"Landkreis"},"federalState":{"key":"14","name":"Sachsen"}},{"name":"Langbeinstr.","postalCode":"01454","locality":"Radeberg","municipality":{"key":"14625480","name":"Radeberg, Stadt","type":"Stadt"},"district":{"key":"14625","name":"Bautzen","type":"Landkreis"},"federalState":{"key":"14","name":"Sachsen"}},{"name":"Langebrücker Str.","postalCode":"01454","locality":"Radeberg","municipality":{"key":"14625480","name":"Radeberg, Stadt","type":"Stadt"},"district":{"key":"14625","name":"Bautzen","type":"Landkreis"},"federalState":{"key":"14","name":"Sachsen"}},{"name":"Leichenweg","postalCode":"01454","locality":"Radeberg","municipality":{"key":"14625480","name":"Radeberg, Stadt","type":"Stadt"},"district":{"key":"14625","name":"Bautzen","type":"Landkreis"},"federalState":{"key":"14","name":"Sachsen"}},{"name":"Lerchenweg","postalCode":"01454","locality":"Radeberg","municipality":{"key":"14625480","name":"Radeberg, Stadt","type":"Stadt"},"district":{"key":"14625","name":"Bautzen","type":"Landkreis"},"federalState":{"key":"14","name":"Sachsen"}},{"name":"Lessingstr.","postalCode":"01454","locality":"Radeberg","municipality":{"key":"14625480","name":"Radeberg, Stadt","type":"Stadt"},"district":{"key":"14625","name":"Bautzen","type":"Landkreis"},"federalState":{"key":"14","name":"Sachsen"}},{"name":"Lönsweg","postalCode":"01454","locality":"Radeberg","municipality":{"key":"14625480","name":"Radeberg, Stadt","type":"Stadt"},"district":{"key":"14625","name":"Bautzen","type":"Landkreis"},"federalState":{"key":"14","name":"Sachsen"}},{"name":"Lotzdorfer Str.","postalCode":"01454","locality":"Radeberg","municipality":{"key":"14625480","name":"Radeberg, Stadt","type":"Stadt"},"district":{"key":"14625","name":"Bautzen","type":"Landkreis"},"federalState":{"key":"14","name":"Sachsen"}},{"name":"Ludwig-Jahn-Str.","postalCode":"01454","locality":"Radeberg","municipality":{"key":"14625480","name":"Radeberg, Stadt","type":"Stadt"},"district":{"key":"14625","name":"Bautzen","type":"Landkreis"},"federalState":{"key":"14","name":"Sachsen"}},{"name":"Markt","postalCode":"01454","locality":"Radeberg","municipality":{"key":"14625480","name":"Radeberg, Stadt","type":"Stadt"},"district":{"key":"14625","name":"Bautzen","type":"Landkreis"},"federalState":{"key":"14","name":"Sachsen"}},{"name":"Marktgäßchen","postalCode":"01454","locality":"Radeberg","municipality":{"key":"14625480","name":"Radeberg, Stadt","type":"Stadt"},"district":{"key":"14625","name":"Bautzen","type":"Landkreis"},"federalState":{"key":"14","name":"Sachsen"}},{"name":"Mittelstr.","postalCode":"01454","locality":"Radeberg","municipality":{"key":"14625480","name":"Radeberg, Stadt","type":"Stadt"},"district":{"key":"14625","name":"Bautzen","type":"Landkreis"},"federalState":{"key":"14","name":"Sachsen"}},{"name":"Mozartstr.","postalCode":"01454","locality":"Radeberg","municipality":{"key":"14625480","name":"Radeberg, Stadt","type":"Stadt"},"district":{"key":"14625","name":"Bautzen","type":"Landkreis"},"federalState":{"key":"14","name":"Sachsen"}},{"name":"Mühlstr.","postalCode":"01454","locality":"Radeberg","municipality":{"key":"14625480","name":"Radeberg, Stadt","type":"Stadt"},"district":{"key":"14625","name":"Bautzen","type":"Landkreis"},"federalState":{"key":"14","name":"Sachsen"}},{"name":"Mühlweg","postalCode":"01454","locality":"Radeberg","municipality":{"key":"14625480","name":"Radeberg, Stadt","type":"Stadt"},"district":{"key":"14625","name":"Bautzen","type":"Landkreis"},"federalState":{"key":"14","name":"Sachsen"}},{"name":"Neckargemünder Str.","postalCode":"01454","locality":"Radeberg","municipality":{"key":"14625480","name":"Radeberg, Stadt","type":"Stadt"},"district":{"key":"14625","name":"Bautzen","type":"Landkreis"},"federalState":{"key":"14","name":"Sachsen"}},{"name":"Neil-Armstrong-Str.","postalCode":"01454","locality":"Radeberg","municipality":{"key":"14625480","name":"Radeberg, Stadt","type":"Stadt"},"district":{"key":"14625","name":"Bautzen","type":"Landkreis"},"federalState":{"key":"14","name":"Sachsen"}},{"name":"Neratovicer Str.","postalCode":"01454","locality":"Radeberg","municipality":{"key":"14625480","name":"Radeberg, Stadt","type":"Stadt"},"district":{"key":"14625","name":"Bautzen","type":"Landkreis"},"federalState":{"key":"14","name":"Sachsen"}},{"name":"Niedergraben","postalCode":"01454","locality":"Radeberg","municipality":{"key":"14625480","name":"Radeberg, Stadt","type":"Stadt"},"district":{"key":"14625","name":"Bautzen","type":"Landkreis"},"federalState":{"key":"14","name":"Sachsen"}},{"name":"Niederstr.","postalCode":"01454","locality":"Radeberg","municipality":{"key":"14625480","name":"Radeberg, Stadt","type":"Stadt"},"district":{"key":"14625","name":"Bautzen","type":"Landkreis"},"federalState":{"key":"14","name":"Sachsen"}},{"name":"Obergraben","postalCode":"01454","locality":"Radeberg","municipality":{"key":"14625480","name":"Radeberg, Stadt","type":"Stadt"},"district":{"key":"14625","name":"Bautzen","type":"Landkreis"},"federalState":{"key":"14","name":"Sachsen"}},{"name":"Oberkircher Ring","postalCode":"01454","locality":"Radeberg","municipality":{"key":"14625480","name":"Radeberg, Stadt","type":"Stadt"},"district":{"key":"14625","name":"Bautzen","type":"Landkreis"},"federalState":{"key":"14","name":"Sachsen"}},{"name":"Oberringel","postalCode":"01454","locality":"Radeberg","municipality":{"key":"14625480","name":"Radeberg, Stadt","type":"Stadt"},"district":{"key":"14625","name":"Bautzen","type":"Landkreis"},"federalState":{"key":"14","name":"Sachsen"}},{"name":"Oberstr.","postalCode":"01454","locality":"Radeberg","municipality":{"key":"14625480","name":"Radeberg, Stadt","type":"Stadt"},"district":{"key":"14625","name":"Bautzen","type":"Landkreis"},"federalState":{"key":"14","name":"Sachsen"}},{"name":"Oststr.","postalCode":"01454","locality":"Radeberg","municipality":{"key":"14625480","name":"Radeberg, Stadt","type":"Stadt"},"district":{"key":"14625","name":"Bautzen","type":"Landkreis"},"federalState":{"key":"14","name":"Sachsen"}},{"name":"Otto-Bauer-Str.","postalCode":"01454","locality":"Radeberg","municipality":{"key":"14625480","name":"Radeberg, Stadt","type":"Stadt"},"district":{"key":"14625","name":"Bautzen","type":"Landkreis"},"federalState":{"key":"14","name":"Sachsen"}},{"name":"Otto-Uhlig-Str.","postalCode":"01454","locality":"Radeberg","municipality":{"key":"14625480","name":"Radeberg, Stadt","type":"Stadt"},"district":{"key":"14625","name":"Bautzen","type":"Landkreis"},"federalState":{"key":"14","name":"Sachsen"}},{"name":"Parkplatz","postalCode":"01454","locality":"Radeberg","municipality":{"key":"14625480","name":"Radeberg, Stadt","type":"Stadt"},"district":{"key":"14625","name":"Bautzen","type":"Landkreis"},"federalState":{"key":"14","name":"Sachsen"}},{"name":"Parkstr.","postalCode":"01454","locality":"Radeberg","municipality":{"key":"14625480","name":"Radeberg, Stadt","type":"Stadt"},"district":{"key":"14625","name":"Bautzen","type":"Landkreis"},"federalState":{"key":"14","name":"Sachsen"}},{"name":"Pestalozzistr.","postalCode":"01454","locality":"Radeberg","municipality":{"key":"14625480","name":"Radeberg, Stadt","type":"Stadt"},"district":{"key":"14625","name":"Bautzen","type":"Landkreis"},"federalState":{"key":"14","name":"Sachsen"}},{"name":"Peter-Adler-Park","postalCode":"01454","locality":"Radeberg","municipality":{"key":"14625480","name":"Radeberg, Stadt","type":"Stadt"},"district":{"key":"14625","name":"Bautzen","type":"Landkreis"},"federalState":{"key":"14","name":"Sachsen"}},{"name":"Pfarrer-Weineck-Platz","postalCode":"01454","locality":"Radeberg","municipality":{"key":"14625480","name":"Radeberg, Stadt","type":"Stadt"},"district":{"key":"14625","name":"Bautzen","type":"Landkreis"},"federalState":{"key":"14","name":"Sachsen"}},{"name":"Pillnitzer Str.","postalCode":"01454","locality":"Radeberg","municipality":{"key":"14625480","name":"Radeberg, Stadt","type":"Stadt"},"district":{"key":"14625","name":"Bautzen","type":"Landkreis"},"federalState":{"key":"14","name":"Sachsen"}},{"name":"Pirnaer Landstr.","postalCode":"01454","locality":"Radeberg","municipality":{"key":"14625480","name":"Radeberg, Stadt","type":"Stadt"},"district":{"key":"14625","name":"Bautzen","type":"Landkreis"},"federalState":{"key":"14","name":"Sachsen"}},{"name":"Pirnaer Str.","postalCode":"01454","locality":"Radeberg","municipality":{"key":"14625480","name":"Radeberg, Stadt","type":"Stadt"},"district":{"key":"14625","name":"Bautzen","type":"Landkreis"},"federalState":{"key":"14","name":"Sachsen"}},{"name":"Prießnitzblick","postalCode":"01454","locality":"Radeberg","municipality":{"key":"14625480","name":"Radeberg, Stadt","type":"Stadt"},"district":{"key":"14625","name":"Bautzen","type":"Landkreis"},"federalState":{"key":"14","name":"Sachsen"}},{"name":"Pulsnitzer Str.","postalCode":"01454","locality":"Radeberg","municipality":{"key":"14625480","name":"Radeberg, Stadt","type":"Stadt"},"district":{"key":"14625","name":"Bautzen","type":"Landkreis"},"federalState":{"key":"14","name":"Sachsen"}},{"name":"Quantzweg","postalCode":"01454","locality":"Radeberg","municipality":{"key":"14625480","name":"Radeberg, Stadt","type":"Stadt"},"district":{"key":"14625","name":"Bautzen","type":"Landkreis"},"federalState":{"key":"14","name":"Sachsen"}},{"name":"Quellsteig","postalCode":"01454","locality":"Radeberg","municipality":{"key":"14625480","name":"Radeberg, Stadt","type":"Stadt"},"district":{"key":"14625","name":"Bautzen","type":"Landkreis"},"federalState":{"key":"14","name":"Sachsen"}},{"name":"Querweg","postalCode":"01454","locality":"Radeberg","municipality":{"key":"14625480","name":"Radeberg, Stadt","type":"Stadt"},"district":{"key":"14625","name":"Bautzen","type":"Landkreis"},"federalState":{"key":"14","name":"Sachsen"}},{"name":"Radeberger Landstr.","postalCode":"01454","locality":"Radeberg","municipality":{"key":"14625480","name":"Radeberg, Stadt","type":"Stadt"},"district":{"key":"14625","name":"Bautzen","type":"Landkreis"},"federalState":{"key":"14","name":"Sachsen"}},{"name":"Radeberger Str.","postalCode":"01454","locality":"Radeberg","municipality":{"key":"14625480","name":"Radeberg, Stadt","type":"Stadt"},"district":{"key":"14625","name":"Bautzen","type":"Landkreis"},"federalState":{"key":"14","name":"Sachsen"}},{"name":"Rathenaustr.","postalCode":"01454","locality":"Radeberg","municipality":{"key":"14625480","name":"Radeberg, Stadt","type":"Stadt"},"district":{"key":"14625","name":"Bautzen","type":"Landkreis"},"federalState":{"key":"14","name":"Sachsen"}},{"name":"Reitweg","postalCode":"01454","locality":"Radeberg","municipality":{"key":"14625480","name":"Radeberg, Stadt","type":"Stadt"},"district":{"key":"14625","name":"Bautzen","type":"Landkreis"},"federalState":{"key":"14","name":"Sachsen"}},{"name":"Richard-Wagner-Str.","postalCode":"01454","locality":"Radeberg","municipality":{"key":"14625480","name":"Radeberg, Stadt","type":"Stadt"},"district":{"key":"14625","name":"Bautzen","type":"Landkreis"},"federalState":{"key":"14","name":"Sachsen"}},{"name":"Ringweg","postalCode":"01454","locality":"Radeberg","municipality":{"key":"14625480","name":"Radeberg, Stadt","type":"Stadt"},"district":{"key":"14625","name":"Bautzen","type":"Landkreis"},"federalState":{"key":"14","name":"Sachsen"}},{"name":"Robert-Blum-Weg","postalCode":"01454","locality":"Radeberg","municipality":{"key":"14625480","name":"Radeberg, Stadt","type":"Stadt"},"district":{"key":"14625","name":"Bautzen","type":"Landkreis"},"federalState":{"key":"14","name":"Sachsen"}},{"name":"Robert-Bosch-Str.","postalCode":"01454","locality":"Radeberg","municipality":{"key":"14625480","name":"Radeberg, Stadt","type":"Stadt"},"district":{"key":"14625","name":"Bautzen","type":"Landkreis"},"federalState":{"key":"14","name":"Sachsen"}},{"name":"Röderstr.","postalCode":"01454","locality":"Radeberg","municipality":{"key":"14625480","name":"Radeberg, Stadt","type":"Stadt"},"district":{"key":"14625","name":"Bautzen","type":"Landkreis"},"federalState":{"key":"14","name":"Sachsen"}},{"name":"Rosenweg","postalCode":"01454","locality":"Radeberg","municipality":{"key":"14625480","name":"Radeberg, Stadt","type":"Stadt"},"district":{"key":"14625","name":"Bautzen","type":"Landkreis"},"federalState":{"key":"14","name":"Sachsen"}},{"name":"Rumpeltstr.","postalCode":"01454","locality":"Radeberg","municipality":{"key":"14625480","name":"Radeberg, Stadt","type":"Stadt"},"district":{"key":"14625","name":"Bautzen","type":"Landkreis"},"federalState":{"key":"14","name":"Sachsen"}},{"name":"Sanddornweg","postalCode":"01454","locality":"Radeberg","municipality":{"key":"14625480","name":"Radeberg, Stadt","type":"Stadt"},"district":{"key":"14625","name":"Bautzen","type":"Landkreis"},"federalState":{"key":"14","name":"Sachsen"}},{"name":"Schäferwinkel","postalCode":"01454","locality":"Radeberg","municipality":{"key":"14625480","name":"Radeberg, Stadt","type":"Stadt"},"district":{"key":"14625","name":"Bautzen","type":"Landkreis"},"federalState":{"key":"14","name":"Sachsen"}},{"name":"Schillerstr.","postalCode":"01454","locality":"Radeberg","municipality":{"key":"14625480","name":"Radeberg, Stadt","type":"Stadt"},"district":{"key":"14625","name":"Bautzen","type":"Landkreis"},"federalState":{"key":"14","name":"Sachsen"}},{"name":"Schleichweg","postalCode":"01454","locality":"Radeberg","municipality":{"key":"14625480","name":"Radeberg, Stadt","type":"Stadt"},"district":{"key":"14625","name":"Bautzen","type":"Landkreis"},"federalState":{"key":"14","name":"Sachsen"}},{"name":"Schloßstr.","postalCode":"01454","locality":"Radeberg","municipality":{"key":"14625480","name":"Radeberg, Stadt","type":"Stadt"},"district":{"key":"14625","name":"Bautzen","type":"Landkreis"},"federalState":{"key":"14","name":"Sachsen"}},{"name":"Schönborner Str.","postalCode":"01454","locality":"Radeberg","municipality":{"key":"14625480","name":"Radeberg, Stadt","type":"Stadt"},"district":{"key":"14625","name":"Bautzen","type":"Landkreis"},"federalState":{"key":"14","name":"Sachsen"}},{"name":"Schöne Höhe","postalCode":"01454","locality":"Radeberg","municipality":{"key":"14625480","name":"Radeberg, Stadt","type":"Stadt"},"district":{"key":"14625","name":"Bautzen","type":"Landkreis"},"federalState":{"key":"14","name":"Sachsen"}},{"name":"Schönfelder Str.","postalCode":"01454","locality":"Radeberg","municipality":{"key":"14625480","name":"Radeberg, Stadt","type":"Stadt"},"district":{"key":"14625","name":"Bautzen","type":"Landkreis"},"federalState":{"key":"14","name":"Sachsen"}},{"name":"Schulgasse","postalCode":"01454","locality":"Radeberg","municipality":{"key":"14625480","name":"Radeberg, Stadt","type":"Stadt"},"district":{"key":"14625","name":"Bautzen","type":"Landkreis"},"federalState":{"key":"14","name":"Sachsen"}},{"name":"Schulstr.","postalCode":"01454","locality":"Radeberg","municipality":{"key":"14625480","name":"Radeberg, Stadt","type":"Stadt"},"district":{"key":"14625","name":"Bautzen","type":"Landkreis"},"federalState":{"key":"14","name":"Sachsen"}},{"name":"Schwabacher Allee","postalCode":"01454","locality":"Radeberg","municipality":{"key":"14625480","name":"Radeberg, Stadt","type":"Stadt"},"district":{"key":"14625","name":"Bautzen","type":"Landkreis"},"federalState":{"key":"14","name":"Sachsen"}},{"name":"Schwalbacher Str.","postalCode":"01454","locality":"Radeberg","municipality":{"key":"14625480","name":"Radeberg, Stadt","type":"Stadt"},"district":{"key":"14625","name":"Bautzen","type":"Landkreis"},"federalState":{"key":"14","name":"Sachsen"}},{"name":"Schwarzer Weg","postalCode":"01454","locality":"Radeberg","municipality":{"key":"14625480","name":"Radeberg, Stadt","type":"Stadt"},"district":{"key":"14625","name":"Bautzen","type":"Landkreis"},"federalState":{"key":"14","name":"Sachsen"}},{"name":"Seifersdorfer Tal-Wanderweg","postalCode":"01454","locality":"Radeberg","municipality":{"key":"14625480","name":"Radeberg, Stadt","type":"Stadt"},"district":{"key":"14625","name":"Bautzen","type":"Landkreis"},"federalState":{"key":"14","name":"Sachsen"}},{"name":"Seitenweg","postalCode":"01454","locality":"Radeberg","municipality":{"key":"14625480","name":"Radeberg, Stadt","type":"Stadt"},"district":{"key":"14625","name":"Bautzen","type":"Landkreis"},"federalState":{"key":"14","name":"Sachsen"}},{"name":"Siedlerplatz","postalCode":"01454","locality":"Radeberg","municipality":{"key":"14625480","name":"Radeberg, Stadt","type":"Stadt"},"district":{"key":"14625","name":"Bautzen","type":"Landkreis"},"federalState":{"key":"14","name":"Sachsen"}},{"name":"Sommerweg","postalCode":"01454","locality":"Radeberg","municipality":{"key":"14625480","name":"Radeberg, Stadt","type":"Stadt"},"district":{"key":"14625","name":"Bautzen","type":"Landkreis"},"federalState":{"key":"14","name":"Sachsen"}},{"name":"Sonnenblick","postalCode":"01454","locality":"Radeberg","municipality":{"key":"14625480","name":"Radeberg, Stadt","type":"Stadt"},"district":{"key":"14625","name":"Bautzen","type":"Landkreis"},"federalState":{"key":"14","name":"Sachsen"}},{"name":"Sonnenweg","postalCode":"01454","locality":"Radeberg","municipality":{"key":"14625480","name":"Radeberg, Stadt","type":"Stadt"},"district":{"key":"14625","name":"Bautzen","type":"Landkreis"},"federalState":{"key":"14","name":"Sachsen"}},{"name":"Steinstr.","postalCode":"01454","locality":"Radeberg","municipality":{"key":"14625480","name":"Radeberg, Stadt","type":"Stadt"},"district":{"key":"14625","name":"Bautzen","type":"Landkreis"},"federalState":{"key":"14","name":"Sachsen"}},{"name":"Stolpener Str.","postalCode":"01454","locality":"Radeberg","municipality":{"key":"14625480","name":"Radeberg, Stadt","type":"Stadt"},"district":{"key":"14625","name":"Bautzen","type":"Landkreis"},"federalState":{"key":"14","name":"Sachsen"}},{"name":"Str. des Friedens","postalCode":"01454","locality":"Radeberg","municipality":{"key":"14625480","name":"Radeberg, Stadt","type":"Stadt"},"district":{"key":"14625","name":"Bautzen","type":"Landkreis"},"federalState":{"key":"14","name":"Sachsen"}},{"name":"Talblick","postalCode":"01454","locality":"Radeberg","municipality":{"key":"14625480","name":"Radeberg, Stadt","type":"Stadt"},"district":{"key":"14625","name":"Bautzen","type":"Landkreis"},"federalState":{"key":"14","name":"Sachsen"}},{"name":"Talstr.","postalCode":"01454","locality":"Radeberg","municipality":{"key":"14625480","name":"Radeberg, Stadt","type":"Stadt"},"district":{"key":"14625","name":"Bautzen","type":"Landkreis"},"federalState":{"key":"14","name":"Sachsen"}},{"name":"Talweg","postalCode":"01454","locality":"Radeberg","municipality":{"key":"14625480","name":"Radeberg, Stadt","type":"Stadt"},"district":{"key":"14625","name":"Bautzen","type":"Landkreis"},"federalState":{"key":"14","name":"Sachsen"}},{"name":"Tanzzipfelweg","postalCode":"01454","locality":"Radeberg","municipality":{"key":"14625480","name":"Radeberg, Stadt","type":"Stadt"},"district":{"key":"14625","name":"Bautzen","type":"Landkreis"},"federalState":{"key":"14","name":"Sachsen"}},{"name":"Theodor-Körner-Str.","postalCode":"01454","locality":"Radeberg","municipality":{"key":"14625480","name":"Radeberg, Stadt","type":"Stadt"},"district":{"key":"14625","name":"Bautzen","type":"Landkreis"},"federalState":{"key":"14","name":"Sachsen"}},{"name":"Tittelsweg","postalCode":"01454","locality":"Radeberg","municipality":{"key":"14625480","name":"Radeberg, Stadt","type":"Stadt"},"district":{"key":"14625","name":"Bautzen","type":"Landkreis"},"federalState":{"key":"14","name":"Sachsen"}},{"name":"Töpfergasse","postalCode":"01454","locality":"Radeberg","municipality":{"key":"14625480","name":"Radeberg, Stadt","type":"Stadt"},"district":{"key":"14625","name":"Bautzen","type":"Landkreis"},"federalState":{"key":"14","name":"Sachsen"}},{"name":"Torweg","postalCode":"01454","locality":"Radeberg","municipality":{"key":"14625480","name":"Radeberg, Stadt","type":"Stadt"},"district":{"key":"14625","name":"Bautzen","type":"Landkreis"},"federalState":{"key":"14","name":"Sachsen"}},{"name":"Ullersdorfer Hauptstr.","postalCode":"01454","locality":"Radeberg","municipality":{"key":"14625480","name":"Radeberg, Stadt","type":"Stadt"},"district":{"key":"14625","name":"Bautzen","type":"Landkreis"},"federalState":{"key":"14","name":"Sachsen"}},{"name":"Ullersdorfer Mühle","postalCode":"01454","locality":"Radeberg","municipality":{"key":"14625480","name":"Radeberg, Stadt","type":"Stadt"},"district":{"key":"14625","name":"Bautzen","type":"Landkreis"},"federalState":{"key":"14","name":"Sachsen"}},{"name":"Ullersdorfer Str.","postalCode":"01454","locality":"Radeberg","municipality":{"key":"14625480","name":"Radeberg, Stadt","type":"Stadt"},"district":{"key":"14625","name":"Bautzen","type":"Landkreis"},"federalState":{"key":"14","name":"Sachsen"}},{"name":"Ulmenweg","postalCode":"01454","locality":"Radeberg","municipality":{"key":"14625480","name":"Radeberg, Stadt","type":"Stadt"},"district":{"key":"14625","name":"Bautzen","type":"Landkreis"},"federalState":{"key":"14","name":"Sachsen"}},{"name":"Vater-Zille-Weg","postalCode":"01454","locality":"Radeberg","municipality":{"key":"14625480","name":"Radeberg, Stadt","type":"Stadt"},"district":{"key":"14625","name":"Bautzen","type":"Landkreis"},"federalState":{"key":"14","name":"Sachsen"}},{"name":"Wachauer Str.","postalCode":"01454","locality":"Radeberg","municipality":{"key":"14625480","name":"Radeberg, Stadt","type":"Stadt"},"district":{"key":"14625","name":"Bautzen","type":"Landkreis"},"federalState":{"key":"14","name":"Sachsen"}},{"name":"Waldstr.","postalCode":"01454","locality":"Radeberg","municipality":{"key":"14625480","name":"Radeberg, Stadt","type":"Stadt"},"district":{"key":"14625","name":"Bautzen","type":"Landkreis"},"federalState":{"key":"14","name":"Sachsen"}},{"name":"Wallrodaer Weg","postalCode":"01454","locality":"Radeberg","municipality":{"key":"14625480","name":"Radeberg, Stadt","type":"Stadt"},"district":{"key":"14625","name":"Bautzen","type":"Landkreis"},"federalState":{"key":"14","name":"Sachsen"}},{"name":"Wasserstr.","postalCode":"01454","locality":"Radeberg","municipality":{"key":"14625480","name":"Radeberg, Stadt","type":"Stadt"},"district":{"key":"14625","name":"Bautzen","type":"Landkreis"},"federalState":{"key":"14","name":"Sachsen"}},{"name":"Weststr.","postalCode":"01454","locality":"Radeberg","municipality":{"key":"14625480","name":"Radeberg, Stadt","type":"Stadt"},"district":{"key":"14625","name":"Bautzen","type":"Landkreis"},"federalState":{"key":"14","name":"Sachsen"}},{"name":"Wiesenweg","postalCode":"01454","locality":"Radeberg","municipality":{"key":"14625480","name":"Radeberg, Stadt","type":"Stadt"},"district":{"key":"14625","name":"Bautzen","type":"Landkreis"},"federalState":{"key":"14","name":"Sachsen"}},{"name":"Wilhelm-Rönsch-Str.","postalCode":"01454","locality":"Radeberg","municipality":{"key":"14625480","name":"Radeberg, Stadt","type":"Stadt"},"district":{"key":"14625","name":"Bautzen","type":"Landkreis"},"federalState":{"key":"14","name":"Sachsen"}},{"name":"Winkelsteg","postalCode":"01454","locality":"Radeberg","municipality":{"key":"14625480","name":"Radeberg, Stadt","type":"Stadt"},"district":{"key":"14625","name":"Bautzen","type":"Landkreis"},"federalState":{"key":"14","name":"Sachsen"}},{"name":"Winkelweg","postalCode":"01454","locality":"Radeberg","municipality":{"key":"14625480","name":"Radeberg, Stadt","type":"Stadt"},"district":{"key":"14625","name":"Bautzen","type":"Landkreis"},"federalState":{"key":"14","name":"Sachsen"}},{"name":"Winkelwiese","postalCode":"01454","locality":"Radeberg","municipality":{"key":"14625480","name":"Radeberg, Stadt","type":"Stadt"},"district":{"key":"14625","name":"Bautzen","type":"Landkreis"},"federalState":{"key":"14","name":"Sachsen"}},{"name":"Yorckstr.","postalCode":"02625","locality":"Bautzen","municipality":{"key":"14625020","name":"Bautzen / Budyšin, Stadt","type":"Stadt"},"district":{"key":"14625","name":"Bautzen","type":"Landkreis"},"federalState":{"key":"14","name":"Sachsen"}},{"name":"Zeppelinstr.","postalCode":"01454","locality":"Radeberg","municipality":{"key":"14625480","name":"Radeberg, Stadt","type":"Stadt"},"district":{"key":"14625","name":"Bautzen","type":"Landkreis"},"federalState":{"key":"14","name":"Sachsen"}},{"name":"Zinngießerstr.","postalCode":"01454","locality":"Radeberg","municipality":{"key":"14625480","name":"Radeberg, Stadt","type":"Stadt"},"district":{"key":"14625","name":"Bautzen","type":"Landkreis"},"federalState":{"key":"14","name":"Sachsen"}},{"name":"Zu den Wiesen","postalCode":"01454","locality":"Radeberg","municipality":{"key":"14625480","name":"Radeberg, Stadt","type":"Stadt"},"district":{"key":"14625","name":"Bautzen","type":"Landkreis"},"federalState":{"key":"14","name":"Sachsen"}},{"name":"Zum Forsthaus","postalCode":"01454","locality":"Radeberg","municipality":{"key":"14625480","name":"Radeberg, Stadt","type":"Stadt"},"district":{"key":"14625","name":"Bautzen","type":"Landkreis"},"federalState":{"key":"14","name":"Sachsen"}},{"name":"Zum Hahn","postalCode":"01454","locality":"Radeberg","municipality":{"key":"14625480","name":"Radeberg, Stadt","type":"Stadt"},"district":{"key":"14625","name":"Bautzen","type":"Landkreis"},"federalState":{"key":"14","name":"Sachsen"}},{"name":"Zum Hempelsberg","postalCode":"01454","locality":"Radeberg","municipality":{"key":"14625480","name":"Radeberg, Stadt","type":"Stadt"},"district":{"key":"14625","name":"Bautzen","type":"Landkreis"},"federalState":{"key":"14","name":"Sachsen"}},{"name":"Zum Sportplatz","postalCode":"01454","locality":"Radeberg","municipality":{"key":"14625480","name":"Radeberg, Stadt","type":"Stadt"},"district":{"key":"14625","name":"Bautzen","type":"Landkreis"},"federalState":{"key":"14","name":"Sachsen"}},{"name":"Zum Waldblick","postalCode":"01454","locality":"Radeberg","municipality":{"key":"14625480","name":"Radeberg, Stadt","type":"Stadt"},"district":{"key":"14625","name":"Bautzen","type":"Landkreis"},"federalState":{"key":"14","name":"Sachsen"}},{"name":"Zum Weißiger Kirchsteig","postalCode":"01454","locality":"Radeberg","municipality":{"key":"14625480","name":"Radeberg, Stadt","type":"Stadt"},"district":{"key":"14625","name":"Bautzen","type":"Landkreis"},"federalState":{"key":"14","name":"Sachsen"}},{"name":"Zur Sternwarte","postalCode":"01454","locality":"Radeberg","municipality":{"key":"14625480","name":"Radeberg, Stadt","type":"Stadt"},"district":{"key":"14625","name":"Bautzen","type":"Landkreis"},"federalState":{"key":"14","name":"Sachsen"}},{"name":"Äußere Lauenstr.","postalCode":"02625","locality":"Bautzen","municipality":{"key":"14625020","name":"Bautzen / Budyšin, Stadt","type":"Stadt"},"district":{"key":"14625","name":"Bautzen","type":"Landkreis"},"federalState":{"key":"14","name":"Sachsen"}},]