[{"name":"Am Konsum","postalCode":"14913","locality":"Niederer Fläming","municipality":{"key":"12072298","name":"Niederer Fläming","type":"Kreisangehörige_Gemeinde"},"district":{"key":"12072","name":"Teltow-Fläming","type":"Landkreis"},"federalState":{"key":"12","name":"Brandenburg"}},{"name":"Am Wäldchen","postalCode":"14913","locality":"Niederer Fläming","municipality":{"key":"12072298","name":"Niederer Fläming","type":"Kreisangehörige_Gemeinde"},"district":{"key":"12072","name":"Teltow-Fläming","type":"Landkreis"},"federalState":{"key":"12","name":"Brandenburg"}},{"name":"Am Wasserwerk","postalCode":"14913","locality":"Niederer Fläming","municipality":{"key":"12072298","name":"Niederer Fläming","type":"Kreisangehörige_Gemeinde"},"district":{"key":"12072","name":"Teltow-Fläming","type":"Landkreis"},"federalState":{"key":"12","name":"Brandenburg"}},{"name":"An der Ziegelei","postalCode":"14913","locality":"Niederer Fläming","municipality":{"key":"12072298","name":"Niederer Fläming","type":"Kreisangehörige_Gemeinde"},"district":{"key":"12072","name":"Teltow-Fläming","type":"Landkreis"},"federalState":{"key":"12","name":"Brandenburg"}},{"name":"Bettina-von-Arnim-Str.","postalCode":"14913","locality":"Niederer Fläming","municipality":{"key":"12072298","name":"Niederer Fläming","type":"Kreisangehörige_Gemeinde"},"district":{"key":"12072","name":"Teltow-Fläming","type":"Landkreis"},"federalState":{"key":"12","name":"Brandenburg"}},{"name":"Borgisdorfer Str.","postalCode":"14913","locality":"Niederer Fläming","municipality":{"key":"12072298","name":"Niederer Fläming","type":"Kreisangehörige_Gemeinde"},"district":{"key":"12072","name":"Teltow-Fläming","type":"Landkreis"},"federalState":{"key":"12","name":"Brandenburg"}},{"name":"Chausseestr.","postalCode":"14913","locality":"Niederer Fläming","municipality":{"key":"12072298","name":"Niederer Fläming","type":"Kreisangehörige_Gemeinde"},"district":{"key":"12072","name":"Teltow-Fläming","type":"Landkreis"},"federalState":{"key":"12","name":"Brandenburg"}},{"name":"Dorfstr.","postalCode":"14913","locality":"Niederer Fläming","municipality":{"key":"12072298","name":"Niederer Fläming","type":"Kreisangehörige_Gemeinde"},"district":{"key":"12072","name":"Teltow-Fläming","type":"Landkreis"},"federalState":{"key":"12","name":"Brandenburg"}},{"name":"Fröhdener Weg","postalCode":"14913","locality":"Niederer Fläming","municipality":{"key":"12072298","name":"Niederer Fläming","type":"Kreisangehörige_Gemeinde"},"district":{"key":"12072","name":"Teltow-Fläming","type":"Landkreis"},"federalState":{"key":"12","name":"Brandenburg"}},{"name":"Gärtnereiweg","postalCode":"14913","locality":"Niederer Fläming","municipality":{"key":"12072298","name":"Niederer Fläming","type":"Kreisangehörige_Gemeinde"},"district":{"key":"12072","name":"Teltow-Fläming","type":"Landkreis"},"federalState":{"key":"12","name":"Brandenburg"}},{"name":"Gräfendorfer Str.","postalCode":"14913","locality":"Niederer Fläming","municipality":{"key":"12072298","name":"Niederer Fläming","type":"Kreisangehörige_Gemeinde"},"district":{"key":"12072","name":"Teltow-Fläming","type":"Landkreis"},"federalState":{"key":"12","name":"Brandenburg"}},{"name":"Grünstr.","postalCode":"14913","locality":"Niederer Fläming","municipality":{"key":"12072298","name":"Niederer Fläming","type":"Kreisangehörige_Gemeinde"},"district":{"key":"12072","name":"Teltow-Fläming","type":"Landkreis"},"federalState":{"key":"12","name":"Brandenburg"}},{"name":"Gutspark","postalCode":"14913","locality":"Niederer Fläming","municipality":{"key":"12072298","name":"Niederer Fläming","type":"Kreisangehörige_Gemeinde"},"district":{"key":"12072","name":"Teltow-Fläming","type":"Landkreis"},"federalState":{"key":"12","name":"Brandenburg"}},{"name":"Hauptstr.","postalCode":"14913","locality":"Niederer Fläming","municipality":{"key":"12072298","name":"Niederer Fläming","type":"Kreisangehörige_Gemeinde"},"district":{"key":"12072","name":"Teltow-Fläming","type":"Landkreis"},"federalState":{"key":"12","name":"Brandenburg"}},{"name":"Heinsdorfer Weg","postalCode":"14913","locality":"Niederer Fläming","municipality":{"key":"12072298","name":"Niederer Fläming","type":"Kreisangehörige_Gemeinde"},"district":{"key":"12072","name":"Teltow-Fläming","type":"Landkreis"},"federalState":{"key":"12","name":"Brandenburg"}},{"name":"Höfgener Weg","postalCode":"14913","locality":"Niederer Fläming","municipality":{"key":"12072298","name":"Niederer Fläming","type":"Kreisangehörige_Gemeinde"},"district":{"key":"12072","name":"Teltow-Fläming","type":"Landkreis"},"federalState":{"key":"12","name":"Brandenburg"}},{"name":"Hohenkuhnsdorfer Weg","postalCode":"14913","locality":"Niederer Fläming","municipality":{"key":"12072298","name":"Niederer Fläming","type":"Kreisangehörige_Gemeinde"},"district":{"key":"12072","name":"Teltow-Fläming","type":"Landkreis"},"federalState":{"key":"12","name":"Brandenburg"}},{"name":"Jüterboger Str.","postalCode":"14913","locality":"Niederer Fläming","municipality":{"key":"12072298","name":"Niederer Fläming","type":"Kreisangehörige_Gemeinde"},"district":{"key":"12072","name":"Teltow-Fläming","type":"Landkreis"},"federalState":{"key":"12","name":"Brandenburg"}},{"name":"Luckenwalder Str.","postalCode":"14913","locality":"Niederer Fläming","municipality":{"key":"12072298","name":"Niederer Fläming","type":"Kreisangehörige_Gemeinde"},"district":{"key":"12072","name":"Teltow-Fläming","type":"Landkreis"},"federalState":{"key":"12","name":"Brandenburg"}},{"name":"Meinsdorfer Weg","postalCode":"14913","locality":"Niederer Fläming","municipality":{"key":"12072298","name":"Niederer Fläming","type":"Kreisangehörige_Gemeinde"},"district":{"key":"12072","name":"Teltow-Fläming","type":"Landkreis"},"federalState":{"key":"12","name":"Brandenburg"}},{"name":"Mittelweg","postalCode":"14913","locality":"Niederer Fläming","municipality":{"key":"12072298","name":"Niederer Fläming","type":"Kreisangehörige_Gemeinde"},"district":{"key":"12072","name":"Teltow-Fläming","type":"Landkreis"},"federalState":{"key":"12","name":"Brandenburg"}},{"name":"Niebendorfer Weg","postalCode":"14913","locality":"Niederer Fläming","municipality":{"key":"12072298","name":"Niederer Fläming","type":"Kreisangehörige_Gemeinde"},"district":{"key":"12072","name":"Teltow-Fläming","type":"Landkreis"},"federalState":{"key":"12","name":"Brandenburg"}},{"name":"Niederseefelder Str.","postalCode":"14913","locality":"Niederer Fläming","municipality":{"key":"12072298","name":"Niederer Fläming","type":"Kreisangehörige_Gemeinde"},"district":{"key":"12072","name":"Teltow-Fläming","type":"Landkreis"},"federalState":{"key":"12","name":"Brandenburg"}},{"name":"Nonnendorfer Weg","postalCode":"14913","locality":"Niederer Fläming","municipality":{"key":"12072298","name":"Niederer Fläming","type":"Kreisangehörige_Gemeinde"},"district":{"key":"12072","name":"Teltow-Fläming","type":"Landkreis"},"federalState":{"key":"12","name":"Brandenburg"}},{"name":"Pappelallee","postalCode":"14913","locality":"Niederer Fläming","municipality":{"key":"12072298","name":"Niederer Fläming","type":"Kreisangehörige_Gemeinde"},"district":{"key":"12072","name":"Teltow-Fläming","type":"Landkreis"},"federalState":{"key":"12","name":"Brandenburg"}},{"name":"Park Hohenalsdorf","postalCode":"14913","locality":"Niederer Fläming","municipality":{"key":"12072298","name":"Niederer Fläming","type":"Kreisangehörige_Gemeinde"},"district":{"key":"12072","name":"Teltow-Fläming","type":"Landkreis"},"federalState":{"key":"12","name":"Brandenburg"}},{"name":"Reinsdorfer Weg","postalCode":"14913","locality":"Niederer Fläming","municipality":{"key":"12072298","name":"Niederer Fläming","type":"Kreisangehörige_Gemeinde"},"district":{"key":"12072","name":"Teltow-Fläming","type":"Landkreis"},"federalState":{"key":"12","name":"Brandenburg"}},{"name":"Schlenzer Weg","postalCode":"14913","locality":"Niederer Fläming","municipality":{"key":"12072298","name":"Niederer Fläming","type":"Kreisangehörige_Gemeinde"},"district":{"key":"12072","name":"Teltow-Fläming","type":"Landkreis"},"federalState":{"key":"12","name":"Brandenburg"}},{"name":"Siedlung","postalCode":"14913","locality":"Niederer Fläming","municipality":{"key":"12072298","name":"Niederer Fläming","type":"Kreisangehörige_Gemeinde"},"district":{"key":"12072","name":"Teltow-Fläming","type":"Landkreis"},"federalState":{"key":"12","name":"Brandenburg"}},{"name":"Werbiger Landstr.","postalCode":"14913","locality":"Niederer Fläming","municipality":{"key":"12072298","name":"Niederer Fläming","type":"Kreisangehörige_Gemeinde"},"district":{"key":"12072","name":"Teltow-Fläming","type":"Landkreis"},"federalState":{"key":"12","name":"Brandenburg"}},{"name":"Werbiger Weg","postalCode":"14913","locality":"Niederer Fläming","municipality":{"key":"12072298","name":"Niederer Fläming","type":"Kreisangehörige_Gemeinde"},"district":{"key":"12072","name":"Teltow-Fläming","type":"Landkreis"},"federalState":{"key":"12","name":"Brandenburg"}},{"name":"Wiepersdorfer Str.","postalCode":"14913","locality":"Niederer Fläming","municipality":{"key":"12072298","name":"Niederer Fläming","type":"Kreisangehörige_Gemeinde"},"district":{"key":"12072","name":"Teltow-Fläming","type":"Landkreis"},"federalState":{"key":"12","name":"Brandenburg"}},{"name":"Wiepersdorfer Weg","postalCode":"14913","locality":"Niederer Fläming","municipality":{"key":"12072298","name":"Niederer Fläming","type":"Kreisangehörige_Gemeinde"},"district":{"key":"12072","name":"Teltow-Fläming","type":"Landkreis"},"federalState":{"key":"12","name":"Brandenburg"}},{"name":"Wittenberger Heeresstr.","postalCode":"14913","locality":"Niederer Fläming","municipality":{"key":"12072298","name":"Niederer Fläming","type":"Kreisangehörige_Gemeinde"},"district":{"key":"12072","name":"Teltow-Fläming","type":"Landkreis"},"federalState":{"key":"12","name":"Brandenburg"}},]