[{"name":"Am Bahnhof","postalCode":"35117","locality":"Münchhausen","municipality":{"key":"06534015","name":"Münchhausen","type":"Kreisangehörige_Gemeinde"},"district":{"key":"06534","name":"Marburg-Biedenkopf","type":"Landkreis"},"federalState":{"key":"06","name":"Hessen"}},{"name":"Am Berge","postalCode":"35117","locality":"Münchhausen","municipality":{"key":"06534015","name":"Münchhausen","type":"Kreisangehörige_Gemeinde"},"district":{"key":"06534","name":"Marburg-Biedenkopf","type":"Landkreis"},"federalState":{"key":"06","name":"Hessen"}},{"name":"Am Bornrain","postalCode":"35117","locality":"Münchhausen","municipality":{"key":"06534015","name":"Münchhausen","type":"Kreisangehörige_Gemeinde"},"district":{"key":"06534","name":"Marburg-Biedenkopf","type":"Landkreis"},"federalState":{"key":"06","name":"Hessen"}},{"name":"Am Bruch","postalCode":"35117","locality":"Münchhausen","municipality":{"key":"06534015","name":"Münchhausen","type":"Kreisangehörige_Gemeinde"},"district":{"key":"06534","name":"Marburg-Biedenkopf","type":"Landkreis"},"federalState":{"key":"06","name":"Hessen"}},{"name":"Am Bürgerhaus","postalCode":"35117","locality":"Münchhausen","municipality":{"key":"06534015","name":"Münchhausen","type":"Kreisangehörige_Gemeinde"},"district":{"key":"06534","name":"Marburg-Biedenkopf","type":"Landkreis"},"federalState":{"key":"06","name":"Hessen"}},{"name":"Am Burgwald","postalCode":"35117","locality":"Münchhausen","municipality":{"key":"06534015","name":"Münchhausen","type":"Kreisangehörige_Gemeinde"},"district":{"key":"06534","name":"Marburg-Biedenkopf","type":"Landkreis"},"federalState":{"key":"06","name":"Hessen"}},{"name":"Am Großen Scheid","postalCode":"35117","locality":"Münchhausen","municipality":{"key":"06534015","name":"Münchhausen","type":"Kreisangehörige_Gemeinde"},"district":{"key":"06534","name":"Marburg-Biedenkopf","type":"Landkreis"},"federalState":{"key":"06","name":"Hessen"}},{"name":"Am Haidstrauch","postalCode":"35117","locality":"Münchhausen","municipality":{"key":"06534015","name":"Münchhausen","type":"Kreisangehörige_Gemeinde"},"district":{"key":"06534","name":"Marburg-Biedenkopf","type":"Landkreis"},"federalState":{"key":"06","name":"Hessen"}},{"name":"Am Heiligenhaus","postalCode":"35117","locality":"Münchhausen","municipality":{"key":"06534015","name":"Münchhausen","type":"Kreisangehörige_Gemeinde"},"district":{"key":"06534","name":"Marburg-Biedenkopf","type":"Landkreis"},"federalState":{"key":"06","name":"Hessen"}},{"name":"Am Höfchen","postalCode":"35117","locality":"Münchhausen","municipality":{"key":"06534015","name":"Münchhausen","type":"Kreisangehörige_Gemeinde"},"district":{"key":"06534","name":"Marburg-Biedenkopf","type":"Landkreis"},"federalState":{"key":"06","name":"Hessen"}},{"name":"Am Hohen Rain","postalCode":"35117","locality":"Münchhausen","municipality":{"key":"06534015","name":"Münchhausen","type":"Kreisangehörige_Gemeinde"},"district":{"key":"06534","name":"Marburg-Biedenkopf","type":"Landkreis"},"federalState":{"key":"06","name":"Hessen"}},{"name":"Am Holzweg","postalCode":"35117","locality":"Münchhausen","municipality":{"key":"06534015","name":"Münchhausen","type":"Kreisangehörige_Gemeinde"},"district":{"key":"06534","name":"Marburg-Biedenkopf","type":"Landkreis"},"federalState":{"key":"06","name":"Hessen"}},{"name":"Am Möhrengarten","postalCode":"35117","locality":"Münchhausen","municipality":{"key":"06534015","name":"Münchhausen","type":"Kreisangehörige_Gemeinde"},"district":{"key":"06534","name":"Marburg-Biedenkopf","type":"Landkreis"},"federalState":{"key":"06","name":"Hessen"}},{"name":"Am Mühlenbach","postalCode":"35117","locality":"Münchhausen","municipality":{"key":"06534015","name":"Münchhausen","type":"Kreisangehörige_Gemeinde"},"district":{"key":"06534","name":"Marburg-Biedenkopf","type":"Landkreis"},"federalState":{"key":"06","name":"Hessen"}},{"name":"Amönauer Weg","postalCode":"35117","locality":"Münchhausen","municipality":{"key":"06534015","name":"Münchhausen","type":"Kreisangehörige_Gemeinde"},"district":{"key":"06534","name":"Marburg-Biedenkopf","type":"Landkreis"},"federalState":{"key":"06","name":"Hessen"}},{"name":"Am Rödchen","postalCode":"35117","locality":"Münchhausen","municipality":{"key":"06534015","name":"Münchhausen","type":"Kreisangehörige_Gemeinde"},"district":{"key":"06534","name":"Marburg-Biedenkopf","type":"Landkreis"},"federalState":{"key":"06","name":"Hessen"}},{"name":"Am Scheid","postalCode":"35117","locality":"Münchhausen","municipality":{"key":"06534015","name":"Münchhausen","type":"Kreisangehörige_Gemeinde"},"district":{"key":"06534","name":"Marburg-Biedenkopf","type":"Landkreis"},"federalState":{"key":"06","name":"Hessen"}},{"name":"Amselweg","postalCode":"35117","locality":"Münchhausen","municipality":{"key":"06534015","name":"Münchhausen","type":"Kreisangehörige_Gemeinde"},"district":{"key":"06534","name":"Marburg-Biedenkopf","type":"Landkreis"},"federalState":{"key":"06","name":"Hessen"}},{"name":"Am Sonneneck","postalCode":"35117","locality":"Münchhausen","municipality":{"key":"06534015","name":"Münchhausen","type":"Kreisangehörige_Gemeinde"},"district":{"key":"06534","name":"Marburg-Biedenkopf","type":"Landkreis"},"federalState":{"key":"06","name":"Hessen"}},{"name":"Am Sportplatz","postalCode":"35117","locality":"Münchhausen","municipality":{"key":"06534015","name":"Münchhausen","type":"Kreisangehörige_Gemeinde"},"district":{"key":"06534","name":"Marburg-Biedenkopf","type":"Landkreis"},"federalState":{"key":"06","name":"Hessen"}},{"name":"Am Wollmarberg","postalCode":"35117","locality":"Münchhausen","municipality":{"key":"06534015","name":"Münchhausen","type":"Kreisangehörige_Gemeinde"},"district":{"key":"06534","name":"Marburg-Biedenkopf","type":"Landkreis"},"federalState":{"key":"06","name":"Hessen"}},{"name":"Am Zaunacker","postalCode":"35117","locality":"Münchhausen","municipality":{"key":"06534015","name":"Münchhausen","type":"Kreisangehörige_Gemeinde"},"district":{"key":"06534","name":"Marburg-Biedenkopf","type":"Landkreis"},"federalState":{"key":"06","name":"Hessen"}},{"name":"An der Marburger Str.","postalCode":"35117","locality":"Münchhausen","municipality":{"key":"06534015","name":"Münchhausen","type":"Kreisangehörige_Gemeinde"},"district":{"key":"06534","name":"Marburg-Biedenkopf","type":"Landkreis"},"federalState":{"key":"06","name":"Hessen"}},{"name":"An der Turnhalle","postalCode":"35117","locality":"Münchhausen","municipality":{"key":"06534015","name":"Münchhausen","type":"Kreisangehörige_Gemeinde"},"district":{"key":"06534","name":"Marburg-Biedenkopf","type":"Landkreis"},"federalState":{"key":"06","name":"Hessen"}},{"name":"Andresgasse","postalCode":"35117","locality":"Münchhausen","municipality":{"key":"06534015","name":"Münchhausen","type":"Kreisangehörige_Gemeinde"},"district":{"key":"06534","name":"Marburg-Biedenkopf","type":"Landkreis"},"federalState":{"key":"06","name":"Hessen"}},{"name":"Asphenmühle","postalCode":"35117","locality":"Münchhausen","municipality":{"key":"06534015","name":"Münchhausen","type":"Kreisangehörige_Gemeinde"},"district":{"key":"06534","name":"Marburg-Biedenkopf","type":"Landkreis"},"federalState":{"key":"06","name":"Hessen"}},{"name":"Aspher Str.","postalCode":"35117","locality":"Münchhausen","municipality":{"key":"06534015","name":"Münchhausen","type":"Kreisangehörige_Gemeinde"},"district":{"key":"06534","name":"Marburg-Biedenkopf","type":"Landkreis"},"federalState":{"key":"06","name":"Hessen"}},{"name":"Auenecke","postalCode":"35117","locality":"Münchhausen","municipality":{"key":"06534015","name":"Münchhausen","type":"Kreisangehörige_Gemeinde"},"district":{"key":"06534","name":"Marburg-Biedenkopf","type":"Landkreis"},"federalState":{"key":"06","name":"Hessen"}},{"name":"Auf dem Triesch","postalCode":"35117","locality":"Münchhausen","municipality":{"key":"06534015","name":"Münchhausen","type":"Kreisangehörige_Gemeinde"},"district":{"key":"06534","name":"Marburg-Biedenkopf","type":"Landkreis"},"federalState":{"key":"06","name":"Hessen"}},{"name":"Auf der Herberge","postalCode":"35117","locality":"Münchhausen","municipality":{"key":"06534015","name":"Münchhausen","type":"Kreisangehörige_Gemeinde"},"district":{"key":"06534","name":"Marburg-Biedenkopf","type":"Landkreis"},"federalState":{"key":"06","name":"Hessen"}},{"name":"Auf der Höhe","postalCode":"35117","locality":"Münchhausen","municipality":{"key":"06534015","name":"Münchhausen","type":"Kreisangehörige_Gemeinde"},"district":{"key":"06534","name":"Marburg-Biedenkopf","type":"Landkreis"},"federalState":{"key":"06","name":"Hessen"}},{"name":"Bachstr.","postalCode":"35117","locality":"Münchhausen","municipality":{"key":"06534015","name":"Münchhausen","type":"Kreisangehörige_Gemeinde"},"district":{"key":"06534","name":"Marburg-Biedenkopf","type":"Landkreis"},"federalState":{"key":"06","name":"Hessen"}},{"name":"Backhausweg","postalCode":"35117","locality":"Münchhausen","municipality":{"key":"06534015","name":"Münchhausen","type":"Kreisangehörige_Gemeinde"},"district":{"key":"06534","name":"Marburg-Biedenkopf","type":"Landkreis"},"federalState":{"key":"06","name":"Hessen"}},{"name":"Barrierefreier Zugang Rathaus","postalCode":"35117","locality":"Münchhausen","municipality":{"key":"06534015","name":"Münchhausen","type":"Kreisangehörige_Gemeinde"},"district":{"key":"06534","name":"Marburg-Biedenkopf","type":"Landkreis"},"federalState":{"key":"06","name":"Hessen"}},{"name":"Battenberger Str.","postalCode":"35117","locality":"Münchhausen","municipality":{"key":"06534015","name":"Münchhausen","type":"Kreisangehörige_Gemeinde"},"district":{"key":"06534","name":"Marburg-Biedenkopf","type":"Landkreis"},"federalState":{"key":"06","name":"Hessen"}},{"name":"Bergstr.","postalCode":"35117","locality":"Münchhausen","municipality":{"key":"06534015","name":"Münchhausen","type":"Kreisangehörige_Gemeinde"},"district":{"key":"06534","name":"Marburg-Biedenkopf","type":"Landkreis"},"federalState":{"key":"06","name":"Hessen"}},{"name":"Bienenwiese","postalCode":"35117","locality":"Münchhausen","municipality":{"key":"06534015","name":"Münchhausen","type":"Kreisangehörige_Gemeinde"},"district":{"key":"06534","name":"Marburg-Biedenkopf","type":"Landkreis"},"federalState":{"key":"06","name":"Hessen"}},{"name":"Bierweg","postalCode":"35117","locality":"Münchhausen","municipality":{"key":"06534015","name":"Münchhausen","type":"Kreisangehörige_Gemeinde"},"district":{"key":"06534","name":"Marburg-Biedenkopf","type":"Landkreis"},"federalState":{"key":"06","name":"Hessen"}},{"name":"Birkenweg","postalCode":"35117","locality":"Münchhausen","municipality":{"key":"06534015","name":"Münchhausen","type":"Kreisangehörige_Gemeinde"},"district":{"key":"06534","name":"Marburg-Biedenkopf","type":"Landkreis"},"federalState":{"key":"06","name":"Hessen"}},{"name":"Blockstr.","postalCode":"35117","locality":"Münchhausen","municipality":{"key":"06534015","name":"Münchhausen","type":"Kreisangehörige_Gemeinde"},"district":{"key":"06534","name":"Marburg-Biedenkopf","type":"Landkreis"},"federalState":{"key":"06","name":"Hessen"}},{"name":"Breitenweg","postalCode":"35117","locality":"Münchhausen","municipality":{"key":"06534015","name":"Münchhausen","type":"Kreisangehörige_Gemeinde"},"district":{"key":"06534","name":"Marburg-Biedenkopf","type":"Landkreis"},"federalState":{"key":"06","name":"Hessen"}},{"name":"Bruchweg","postalCode":"35117","locality":"Münchhausen","municipality":{"key":"06534015","name":"Münchhausen","type":"Kreisangehörige_Gemeinde"},"district":{"key":"06534","name":"Marburg-Biedenkopf","type":"Landkreis"},"federalState":{"key":"06","name":"Hessen"}},{"name":"Brunnenrain","postalCode":"35117","locality":"Münchhausen","municipality":{"key":"06534015","name":"Münchhausen","type":"Kreisangehörige_Gemeinde"},"district":{"key":"06534","name":"Marburg-Biedenkopf","type":"Landkreis"},"federalState":{"key":"06","name":"Hessen"}},{"name":"Brunnenstr.","postalCode":"35117","locality":"Münchhausen","municipality":{"key":"06534015","name":"Münchhausen","type":"Kreisangehörige_Gemeinde"},"district":{"key":"06534","name":"Marburg-Biedenkopf","type":"Landkreis"},"federalState":{"key":"06","name":"Hessen"}},{"name":"Burgheister Weg","postalCode":"35117","locality":"Münchhausen","municipality":{"key":"06534015","name":"Münchhausen","type":"Kreisangehörige_Gemeinde"},"district":{"key":"06534","name":"Marburg-Biedenkopf","type":"Landkreis"},"federalState":{"key":"06","name":"Hessen"}},{"name":"Christenberger Str.","postalCode":"35117","locality":"Münchhausen","municipality":{"key":"06534015","name":"Münchhausen","type":"Kreisangehörige_Gemeinde"},"district":{"key":"06534","name":"Marburg-Biedenkopf","type":"Landkreis"},"federalState":{"key":"06","name":"Hessen"}},{"name":"Dexbacher Str.","postalCode":"35117","locality":"Münchhausen","municipality":{"key":"06534015","name":"Münchhausen","type":"Kreisangehörige_Gemeinde"},"district":{"key":"06534","name":"Marburg-Biedenkopf","type":"Landkreis"},"federalState":{"key":"06","name":"Hessen"}},{"name":"Donauweg","postalCode":"35117","locality":"Münchhausen","municipality":{"key":"06534015","name":"Münchhausen","type":"Kreisangehörige_Gemeinde"},"district":{"key":"06534","name":"Marburg-Biedenkopf","type":"Landkreis"},"federalState":{"key":"06","name":"Hessen"}},{"name":"Dorfstr.","postalCode":"35117","locality":"Münchhausen","municipality":{"key":"06534015","name":"Münchhausen","type":"Kreisangehörige_Gemeinde"},"district":{"key":"06534","name":"Marburg-Biedenkopf","type":"Landkreis"},"federalState":{"key":"06","name":"Hessen"}},{"name":"Eimerstattgasse","postalCode":"35117","locality":"Münchhausen","municipality":{"key":"06534015","name":"Münchhausen","type":"Kreisangehörige_Gemeinde"},"district":{"key":"06534","name":"Marburg-Biedenkopf","type":"Landkreis"},"federalState":{"key":"06","name":"Hessen"}},{"name":"Feldstr.","postalCode":"35117","locality":"Münchhausen","municipality":{"key":"06534015","name":"Münchhausen","type":"Kreisangehörige_Gemeinde"},"district":{"key":"06534","name":"Marburg-Biedenkopf","type":"Landkreis"},"federalState":{"key":"06","name":"Hessen"}},{"name":"Fliederweg","postalCode":"35117","locality":"Münchhausen","municipality":{"key":"06534015","name":"Münchhausen","type":"Kreisangehörige_Gemeinde"},"district":{"key":"06534","name":"Marburg-Biedenkopf","type":"Landkreis"},"federalState":{"key":"06","name":"Hessen"}},{"name":"Frankfurter Weg","postalCode":"35117","locality":"Münchhausen","municipality":{"key":"06534015","name":"Münchhausen","type":"Kreisangehörige_Gemeinde"},"district":{"key":"06534","name":"Marburg-Biedenkopf","type":"Landkreis"},"federalState":{"key":"06","name":"Hessen"}},{"name":"Friedhofstr.","postalCode":"35117","locality":"Münchhausen","municipality":{"key":"06534015","name":"Münchhausen","type":"Kreisangehörige_Gemeinde"},"district":{"key":"06534","name":"Marburg-Biedenkopf","type":"Landkreis"},"federalState":{"key":"06","name":"Hessen"}},{"name":"Gartenstr.","postalCode":"35117","locality":"Münchhausen","municipality":{"key":"06534015","name":"Münchhausen","type":"Kreisangehörige_Gemeinde"},"district":{"key":"06534","name":"Marburg-Biedenkopf","type":"Landkreis"},"federalState":{"key":"06","name":"Hessen"}},{"name":"Gerstenecke","postalCode":"35117","locality":"Münchhausen","municipality":{"key":"06534015","name":"Münchhausen","type":"Kreisangehörige_Gemeinde"},"district":{"key":"06534","name":"Marburg-Biedenkopf","type":"Landkreis"},"federalState":{"key":"06","name":"Hessen"}},{"name":"Goosgasse","postalCode":"35117","locality":"Münchhausen","municipality":{"key":"06534015","name":"Münchhausen","type":"Kreisangehörige_Gemeinde"},"district":{"key":"06534","name":"Marburg-Biedenkopf","type":"Landkreis"},"federalState":{"key":"06","name":"Hessen"}},{"name":"Grabenstr.","postalCode":"35117","locality":"Münchhausen","municipality":{"key":"06534015","name":"Münchhausen","type":"Kreisangehörige_Gemeinde"},"district":{"key":"06534","name":"Marburg-Biedenkopf","type":"Landkreis"},"federalState":{"key":"06","name":"Hessen"}},{"name":"Großer Graben","postalCode":"35117","locality":"Münchhausen","municipality":{"key":"06534015","name":"Münchhausen","type":"Kreisangehörige_Gemeinde"},"district":{"key":"06534","name":"Marburg-Biedenkopf","type":"Landkreis"},"federalState":{"key":"06","name":"Hessen"}},{"name":"Grundweg","postalCode":"35117","locality":"Münchhausen","municipality":{"key":"06534015","name":"Münchhausen","type":"Kreisangehörige_Gemeinde"},"district":{"key":"06534","name":"Marburg-Biedenkopf","type":"Landkreis"},"federalState":{"key":"06","name":"Hessen"}},{"name":"Hainbirkenweg","postalCode":"35117","locality":"Münchhausen","municipality":{"key":"06534015","name":"Münchhausen","type":"Kreisangehörige_Gemeinde"},"district":{"key":"06534","name":"Marburg-Biedenkopf","type":"Landkreis"},"federalState":{"key":"06","name":"Hessen"}},{"name":"Hangstr.","postalCode":"35117","locality":"Münchhausen","municipality":{"key":"06534015","name":"Münchhausen","type":"Kreisangehörige_Gemeinde"},"district":{"key":"06534","name":"Marburg-Biedenkopf","type":"Landkreis"},"federalState":{"key":"06","name":"Hessen"}},{"name":"Hauptstr.","postalCode":"35117","locality":"Münchhausen","municipality":{"key":"06534015","name":"Münchhausen","type":"Kreisangehörige_Gemeinde"},"district":{"key":"06534","name":"Marburg-Biedenkopf","type":"Landkreis"},"federalState":{"key":"06","name":"Hessen"}},{"name":"Heckenweg","postalCode":"35117","locality":"Münchhausen","municipality":{"key":"06534015","name":"Münchhausen","type":"Kreisangehörige_Gemeinde"},"district":{"key":"06534","name":"Marburg-Biedenkopf","type":"Landkreis"},"federalState":{"key":"06","name":"Hessen"}},{"name":"Heideküppel","postalCode":"35117","locality":"Münchhausen","municipality":{"key":"06534015","name":"Münchhausen","type":"Kreisangehörige_Gemeinde"},"district":{"key":"06534","name":"Marburg-Biedenkopf","type":"Landkreis"},"federalState":{"key":"06","name":"Hessen"}},{"name":"Heiligenmühle","postalCode":"35117","locality":"Münchhausen","municipality":{"key":"06534015","name":"Münchhausen","type":"Kreisangehörige_Gemeinde"},"district":{"key":"06534","name":"Marburg-Biedenkopf","type":"Landkreis"},"federalState":{"key":"06","name":"Hessen"}},{"name":"Hof Rittal","postalCode":"35117","locality":"Münchhausen","municipality":{"key":"06534015","name":"Münchhausen","type":"Kreisangehörige_Gemeinde"},"district":{"key":"06534","name":"Marburg-Biedenkopf","type":"Landkreis"},"federalState":{"key":"06","name":"Hessen"}},{"name":"Höhenstr.","postalCode":"35117","locality":"Münchhausen","municipality":{"key":"06534015","name":"Münchhausen","type":"Kreisangehörige_Gemeinde"},"district":{"key":"06534","name":"Marburg-Biedenkopf","type":"Landkreis"},"federalState":{"key":"06","name":"Hessen"}},{"name":"Hohlweg","postalCode":"35117","locality":"Münchhausen","municipality":{"key":"06534015","name":"Münchhausen","type":"Kreisangehörige_Gemeinde"},"district":{"key":"06534","name":"Marburg-Biedenkopf","type":"Landkreis"},"federalState":{"key":"06","name":"Hessen"}},{"name":"Hühnerhard","postalCode":"35117","locality":"Münchhausen","municipality":{"key":"06534015","name":"Münchhausen","type":"Kreisangehörige_Gemeinde"},"district":{"key":"06534","name":"Marburg-Biedenkopf","type":"Landkreis"},"federalState":{"key":"06","name":"Hessen"}},{"name":"Hutestr.","postalCode":"35117","locality":"Münchhausen","municipality":{"key":"06534015","name":"Münchhausen","type":"Kreisangehörige_Gemeinde"},"district":{"key":"06534","name":"Marburg-Biedenkopf","type":"Landkreis"},"federalState":{"key":"06","name":"Hessen"}},{"name":"Im Damm","postalCode":"35117","locality":"Münchhausen","municipality":{"key":"06534015","name":"Münchhausen","type":"Kreisangehörige_Gemeinde"},"district":{"key":"06534","name":"Marburg-Biedenkopf","type":"Landkreis"},"federalState":{"key":"06","name":"Hessen"}},{"name":"Im Gesenne","postalCode":"35117","locality":"Münchhausen","municipality":{"key":"06534015","name":"Münchhausen","type":"Kreisangehörige_Gemeinde"},"district":{"key":"06534","name":"Marburg-Biedenkopf","type":"Landkreis"},"federalState":{"key":"06","name":"Hessen"}},{"name":"Im Gründchen","postalCode":"35117","locality":"Münchhausen","municipality":{"key":"06534015","name":"Münchhausen","type":"Kreisangehörige_Gemeinde"},"district":{"key":"06534","name":"Marburg-Biedenkopf","type":"Landkreis"},"federalState":{"key":"06","name":"Hessen"}},{"name":"Im Hinterfeld","postalCode":"35117","locality":"Münchhausen","municipality":{"key":"06534015","name":"Münchhausen","type":"Kreisangehörige_Gemeinde"},"district":{"key":"06534","name":"Marburg-Biedenkopf","type":"Landkreis"},"federalState":{"key":"06","name":"Hessen"}},{"name":"Im Korbach","postalCode":"35117","locality":"Münchhausen","municipality":{"key":"06534015","name":"Münchhausen","type":"Kreisangehörige_Gemeinde"},"district":{"key":"06534","name":"Marburg-Biedenkopf","type":"Landkreis"},"federalState":{"key":"06","name":"Hessen"}},{"name":"Im Pfaffengrund","postalCode":"35117","locality":"Münchhausen","municipality":{"key":"06534015","name":"Münchhausen","type":"Kreisangehörige_Gemeinde"},"district":{"key":"06534","name":"Marburg-Biedenkopf","type":"Landkreis"},"federalState":{"key":"06","name":"Hessen"}},{"name":"Im Staffelbach","postalCode":"35117","locality":"Münchhausen","municipality":{"key":"06534015","name":"Münchhausen","type":"Kreisangehörige_Gemeinde"},"district":{"key":"06534","name":"Marburg-Biedenkopf","type":"Landkreis"},"federalState":{"key":"06","name":"Hessen"}},{"name":"Im Winkel","postalCode":"35117","locality":"Münchhausen","municipality":{"key":"06534015","name":"Münchhausen","type":"Kreisangehörige_Gemeinde"},"district":{"key":"06534","name":"Marburg-Biedenkopf","type":"Landkreis"},"federalState":{"key":"06","name":"Hessen"}},{"name":"In den Rotgärten","postalCode":"35117","locality":"Münchhausen","municipality":{"key":"06534015","name":"Münchhausen","type":"Kreisangehörige_Gemeinde"},"district":{"key":"06534","name":"Marburg-Biedenkopf","type":"Landkreis"},"federalState":{"key":"06","name":"Hessen"}},{"name":"In der Aue","postalCode":"35117","locality":"Münchhausen","municipality":{"key":"06534015","name":"Münchhausen","type":"Kreisangehörige_Gemeinde"},"district":{"key":"06534","name":"Marburg-Biedenkopf","type":"Landkreis"},"federalState":{"key":"06","name":"Hessen"}},{"name":"In der Lücke","postalCode":"35117","locality":"Münchhausen","municipality":{"key":"06534015","name":"Münchhausen","type":"Kreisangehörige_Gemeinde"},"district":{"key":"06534","name":"Marburg-Biedenkopf","type":"Landkreis"},"federalState":{"key":"06","name":"Hessen"}},{"name":"Johannes-Linne-Weg","postalCode":"35117","locality":"Münchhausen","municipality":{"key":"06534015","name":"Münchhausen","type":"Kreisangehörige_Gemeinde"},"district":{"key":"06534","name":"Marburg-Biedenkopf","type":"Landkreis"},"federalState":{"key":"06","name":"Hessen"}},{"name":"Johannes-Müller-Weg","postalCode":"35117","locality":"Münchhausen","municipality":{"key":"06534015","name":"Münchhausen","type":"Kreisangehörige_Gemeinde"},"district":{"key":"06534","name":"Marburg-Biedenkopf","type":"Landkreis"},"federalState":{"key":"06","name":"Hessen"}},{"name":"Jostgasse","postalCode":"35117","locality":"Münchhausen","municipality":{"key":"06534015","name":"Münchhausen","type":"Kreisangehörige_Gemeinde"},"district":{"key":"06534","name":"Marburg-Biedenkopf","type":"Landkreis"},"federalState":{"key":"06","name":"Hessen"}},{"name":"Kainsbergweg","postalCode":"35117","locality":"Münchhausen","municipality":{"key":"06534015","name":"Münchhausen","type":"Kreisangehörige_Gemeinde"},"district":{"key":"06534","name":"Marburg-Biedenkopf","type":"Landkreis"},"federalState":{"key":"06","name":"Hessen"}},{"name":"Kattenbachweg","postalCode":"35117","locality":"Münchhausen","municipality":{"key":"06534015","name":"Münchhausen","type":"Kreisangehörige_Gemeinde"},"district":{"key":"06534","name":"Marburg-Biedenkopf","type":"Landkreis"},"federalState":{"key":"06","name":"Hessen"}},{"name":"Kautsgraben","postalCode":"35117","locality":"Münchhausen","municipality":{"key":"06534015","name":"Münchhausen","type":"Kreisangehörige_Gemeinde"},"district":{"key":"06534","name":"Marburg-Biedenkopf","type":"Landkreis"},"federalState":{"key":"06","name":"Hessen"}},{"name":"Kieferweg","postalCode":"35117","locality":"Münchhausen","municipality":{"key":"06534015","name":"Münchhausen","type":"Kreisangehörige_Gemeinde"},"district":{"key":"06534","name":"Marburg-Biedenkopf","type":"Landkreis"},"federalState":{"key":"06","name":"Hessen"}},{"name":"Kirchmauer","postalCode":"35117","locality":"Münchhausen","municipality":{"key":"06534015","name":"Münchhausen","type":"Kreisangehörige_Gemeinde"},"district":{"key":"06534","name":"Marburg-Biedenkopf","type":"Landkreis"},"federalState":{"key":"06","name":"Hessen"}},{"name":"Kirchweg","postalCode":"35117","locality":"Münchhausen","municipality":{"key":"06534015","name":"Münchhausen","type":"Kreisangehörige_Gemeinde"},"district":{"key":"06534","name":"Marburg-Biedenkopf","type":"Landkreis"},"federalState":{"key":"06","name":"Hessen"}},{"name":"Kneippweg","postalCode":"35117","locality":"Münchhausen","municipality":{"key":"06534015","name":"Münchhausen","type":"Kreisangehörige_Gemeinde"},"district":{"key":"06534","name":"Marburg-Biedenkopf","type":"Landkreis"},"federalState":{"key":"06","name":"Hessen"}},{"name":"Koppeweg","postalCode":"35117","locality":"Münchhausen","municipality":{"key":"06534015","name":"Münchhausen","type":"Kreisangehörige_Gemeinde"},"district":{"key":"06534","name":"Marburg-Biedenkopf","type":"Landkreis"},"federalState":{"key":"06","name":"Hessen"}},{"name":"Kreuzgarten","postalCode":"35117","locality":"Münchhausen","municipality":{"key":"06534015","name":"Münchhausen","type":"Kreisangehörige_Gemeinde"},"district":{"key":"06534","name":"Marburg-Biedenkopf","type":"Landkreis"},"federalState":{"key":"06","name":"Hessen"}},{"name":"Kreuzstr.","postalCode":"35117","locality":"Münchhausen","municipality":{"key":"06534015","name":"Münchhausen","type":"Kreisangehörige_Gemeinde"},"district":{"key":"06534","name":"Marburg-Biedenkopf","type":"Landkreis"},"federalState":{"key":"06","name":"Hessen"}},{"name":"Laisaer Weg","postalCode":"35117","locality":"Münchhausen","municipality":{"key":"06534015","name":"Münchhausen","type":"Kreisangehörige_Gemeinde"},"district":{"key":"06534","name":"Marburg-Biedenkopf","type":"Landkreis"},"federalState":{"key":"06","name":"Hessen"}},{"name":"Lehmkautenweg","postalCode":"35117","locality":"Münchhausen","municipality":{"key":"06534015","name":"Münchhausen","type":"Kreisangehörige_Gemeinde"},"district":{"key":"06534","name":"Marburg-Biedenkopf","type":"Landkreis"},"federalState":{"key":"06","name":"Hessen"}},{"name":"Lindenberg","postalCode":"35117","locality":"Münchhausen","municipality":{"key":"06534015","name":"Münchhausen","type":"Kreisangehörige_Gemeinde"},"district":{"key":"06534","name":"Marburg-Biedenkopf","type":"Landkreis"},"federalState":{"key":"06","name":"Hessen"}},{"name":"Lindengraben","postalCode":"35117","locality":"Münchhausen","municipality":{"key":"06534015","name":"Münchhausen","type":"Kreisangehörige_Gemeinde"},"district":{"key":"06534","name":"Marburg-Biedenkopf","type":"Landkreis"},"federalState":{"key":"06","name":"Hessen"}},{"name":"Lindenrain","postalCode":"35117","locality":"Münchhausen","municipality":{"key":"06534015","name":"Münchhausen","type":"Kreisangehörige_Gemeinde"},"district":{"key":"06534","name":"Marburg-Biedenkopf","type":"Landkreis"},"federalState":{"key":"06","name":"Hessen"}},{"name":"Lippersfeld","postalCode":"35117","locality":"Münchhausen","municipality":{"key":"06534015","name":"Münchhausen","type":"Kreisangehörige_Gemeinde"},"district":{"key":"06534","name":"Marburg-Biedenkopf","type":"Landkreis"},"federalState":{"key":"06","name":"Hessen"}},{"name":"Lohweg","postalCode":"35117","locality":"Münchhausen","municipality":{"key":"06534015","name":"Münchhausen","type":"Kreisangehörige_Gemeinde"},"district":{"key":"06534","name":"Marburg-Biedenkopf","type":"Landkreis"},"federalState":{"key":"06","name":"Hessen"}},{"name":"Lupinenweg","postalCode":"35117","locality":"Münchhausen","municipality":{"key":"06534015","name":"Münchhausen","type":"Kreisangehörige_Gemeinde"},"district":{"key":"06534","name":"Marburg-Biedenkopf","type":"Landkreis"},"federalState":{"key":"06","name":"Hessen"}},{"name":"Marburger Str.","postalCode":"35117","locality":"Münchhausen","municipality":{"key":"06534015","name":"Münchhausen","type":"Kreisangehörige_Gemeinde"},"district":{"key":"06534","name":"Marburg-Biedenkopf","type":"Landkreis"},"federalState":{"key":"06","name":"Hessen"}},{"name":"Mauerstr.","postalCode":"35117","locality":"Münchhausen","municipality":{"key":"06534015","name":"Münchhausen","type":"Kreisangehörige_Gemeinde"},"district":{"key":"06534","name":"Marburg-Biedenkopf","type":"Landkreis"},"federalState":{"key":"06","name":"Hessen"}},{"name":"Mellnauer Str.","postalCode":"35117","locality":"Münchhausen","municipality":{"key":"06534015","name":"Münchhausen","type":"Kreisangehörige_Gemeinde"},"district":{"key":"06534","name":"Marburg-Biedenkopf","type":"Landkreis"},"federalState":{"key":"06","name":"Hessen"}},{"name":"Mitteldorfstr.","postalCode":"35117","locality":"Münchhausen","municipality":{"key":"06534015","name":"Münchhausen","type":"Kreisangehörige_Gemeinde"},"district":{"key":"06534","name":"Marburg-Biedenkopf","type":"Landkreis"},"federalState":{"key":"06","name":"Hessen"}},{"name":"Mittelweg","postalCode":"35117","locality":"Münchhausen","municipality":{"key":"06534015","name":"Münchhausen","type":"Kreisangehörige_Gemeinde"},"district":{"key":"06534","name":"Marburg-Biedenkopf","type":"Landkreis"},"federalState":{"key":"06","name":"Hessen"}},{"name":"Mittlere Pforte","postalCode":"35117","locality":"Münchhausen","municipality":{"key":"06534015","name":"Münchhausen","type":"Kreisangehörige_Gemeinde"},"district":{"key":"06534","name":"Marburg-Biedenkopf","type":"Landkreis"},"federalState":{"key":"06","name":"Hessen"}},{"name":"Mühlenweg","postalCode":"35117","locality":"Münchhausen","municipality":{"key":"06534015","name":"Münchhausen","type":"Kreisangehörige_Gemeinde"},"district":{"key":"06534","name":"Marburg-Biedenkopf","type":"Landkreis"},"federalState":{"key":"06","name":"Hessen"}},{"name":"Niederaspher Str.","postalCode":"35117","locality":"Münchhausen","municipality":{"key":"06534015","name":"Münchhausen","type":"Kreisangehörige_Gemeinde"},"district":{"key":"06534","name":"Marburg-Biedenkopf","type":"Landkreis"},"federalState":{"key":"06","name":"Hessen"}},{"name":"Niederbach","postalCode":"35117","locality":"Münchhausen","municipality":{"key":"06534015","name":"Münchhausen","type":"Kreisangehörige_Gemeinde"},"district":{"key":"06534","name":"Marburg-Biedenkopf","type":"Landkreis"},"federalState":{"key":"06","name":"Hessen"}},{"name":"Oberaspher Str.","postalCode":"35117","locality":"Münchhausen","municipality":{"key":"06534015","name":"Münchhausen","type":"Kreisangehörige_Gemeinde"},"district":{"key":"06534","name":"Marburg-Biedenkopf","type":"Landkreis"},"federalState":{"key":"06","name":"Hessen"}},{"name":"Oberdorfstr.","postalCode":"35117","locality":"Münchhausen","municipality":{"key":"06534015","name":"Münchhausen","type":"Kreisangehörige_Gemeinde"},"district":{"key":"06534","name":"Marburg-Biedenkopf","type":"Landkreis"},"federalState":{"key":"06","name":"Hessen"}},{"name":"Perbaler Str.","postalCode":"35117","locality":"Münchhausen","municipality":{"key":"06534015","name":"Münchhausen","type":"Kreisangehörige_Gemeinde"},"district":{"key":"06534","name":"Marburg-Biedenkopf","type":"Landkreis"},"federalState":{"key":"06","name":"Hessen"}},{"name":"Pfarrgasse","postalCode":"35117","locality":"Münchhausen","municipality":{"key":"06534015","name":"Münchhausen","type":"Kreisangehörige_Gemeinde"},"district":{"key":"06534","name":"Marburg-Biedenkopf","type":"Landkreis"},"federalState":{"key":"06","name":"Hessen"}},{"name":"Pfeiferweg","postalCode":"35117","locality":"Münchhausen","municipality":{"key":"06534015","name":"Münchhausen","type":"Kreisangehörige_Gemeinde"},"district":{"key":"06534","name":"Marburg-Biedenkopf","type":"Landkreis"},"federalState":{"key":"06","name":"Hessen"}},{"name":"Pfingstweide","postalCode":"35117","locality":"Münchhausen","municipality":{"key":"06534015","name":"Münchhausen","type":"Kreisangehörige_Gemeinde"},"district":{"key":"06534","name":"Marburg-Biedenkopf","type":"Landkreis"},"federalState":{"key":"06","name":"Hessen"}},{"name":"Raiffeisenstr.","postalCode":"35117","locality":"Münchhausen","municipality":{"key":"06534015","name":"Münchhausen","type":"Kreisangehörige_Gemeinde"},"district":{"key":"06534","name":"Marburg-Biedenkopf","type":"Landkreis"},"federalState":{"key":"06","name":"Hessen"}},{"name":"Ringstr.","postalCode":"35117","locality":"Münchhausen","municipality":{"key":"06534015","name":"Münchhausen","type":"Kreisangehörige_Gemeinde"},"district":{"key":"06534","name":"Marburg-Biedenkopf","type":"Landkreis"},"federalState":{"key":"06","name":"Hessen"}},{"name":"Rodenbachweg","postalCode":"35117","locality":"Münchhausen","municipality":{"key":"06534015","name":"Münchhausen","type":"Kreisangehörige_Gemeinde"},"district":{"key":"06534","name":"Marburg-Biedenkopf","type":"Landkreis"},"federalState":{"key":"06","name":"Hessen"}},{"name":"Rosenstr.","postalCode":"35117","locality":"Münchhausen","municipality":{"key":"06534015","name":"Münchhausen","type":"Kreisangehörige_Gemeinde"},"district":{"key":"06534","name":"Marburg-Biedenkopf","type":"Landkreis"},"federalState":{"key":"06","name":"Hessen"}},{"name":"Rotlaufstr.","postalCode":"35117","locality":"Münchhausen","municipality":{"key":"06534015","name":"Münchhausen","type":"Kreisangehörige_Gemeinde"},"district":{"key":"06534","name":"Marburg-Biedenkopf","type":"Landkreis"},"federalState":{"key":"06","name":"Hessen"}},{"name":"Rupertshäuser Weg","postalCode":"35117","locality":"Münchhausen","municipality":{"key":"06534015","name":"Münchhausen","type":"Kreisangehörige_Gemeinde"},"district":{"key":"06534","name":"Marburg-Biedenkopf","type":"Landkreis"},"federalState":{"key":"06","name":"Hessen"}},{"name":"Saalweidenstrauch","postalCode":"35117","locality":"Münchhausen","municipality":{"key":"06534015","name":"Münchhausen","type":"Kreisangehörige_Gemeinde"},"district":{"key":"06534","name":"Marburg-Biedenkopf","type":"Landkreis"},"federalState":{"key":"06","name":"Hessen"}},{"name":"Sandweg","postalCode":"35117","locality":"Münchhausen","municipality":{"key":"06534015","name":"Münchhausen","type":"Kreisangehörige_Gemeinde"},"district":{"key":"06534","name":"Marburg-Biedenkopf","type":"Landkreis"},"federalState":{"key":"06","name":"Hessen"}},{"name":"Scharrstr.","postalCode":"35117","locality":"Münchhausen","municipality":{"key":"06534015","name":"Münchhausen","type":"Kreisangehörige_Gemeinde"},"district":{"key":"06534","name":"Marburg-Biedenkopf","type":"Landkreis"},"federalState":{"key":"06","name":"Hessen"}},{"name":"Schillerhöfe","postalCode":"35117","locality":"Münchhausen","municipality":{"key":"06534015","name":"Münchhausen","type":"Kreisangehörige_Gemeinde"},"district":{"key":"06534","name":"Marburg-Biedenkopf","type":"Landkreis"},"federalState":{"key":"06","name":"Hessen"}},{"name":"Schimmelseite","postalCode":"35117","locality":"Münchhausen","municipality":{"key":"06534015","name":"Münchhausen","type":"Kreisangehörige_Gemeinde"},"district":{"key":"06534","name":"Marburg-Biedenkopf","type":"Landkreis"},"federalState":{"key":"06","name":"Hessen"}},{"name":"Schlagpfützenweg","postalCode":"35117","locality":"Münchhausen","municipality":{"key":"06534015","name":"Münchhausen","type":"Kreisangehörige_Gemeinde"},"district":{"key":"06534","name":"Marburg-Biedenkopf","type":"Landkreis"},"federalState":{"key":"06","name":"Hessen"}},{"name":"Schmiederain","postalCode":"35117","locality":"Münchhausen","municipality":{"key":"06534015","name":"Münchhausen","type":"Kreisangehörige_Gemeinde"},"district":{"key":"06534","name":"Marburg-Biedenkopf","type":"Landkreis"},"federalState":{"key":"06","name":"Hessen"}},{"name":"Schmiedeweg","postalCode":"35117","locality":"Münchhausen","municipality":{"key":"06534015","name":"Münchhausen","type":"Kreisangehörige_Gemeinde"},"district":{"key":"06534","name":"Marburg-Biedenkopf","type":"Landkreis"},"federalState":{"key":"06","name":"Hessen"}},{"name":"Schulstr.","postalCode":"35117","locality":"Münchhausen","municipality":{"key":"06534015","name":"Münchhausen","type":"Kreisangehörige_Gemeinde"},"district":{"key":"06534","name":"Marburg-Biedenkopf","type":"Landkreis"},"federalState":{"key":"06","name":"Hessen"}},{"name":"Schulweg","postalCode":"35117","locality":"Münchhausen","municipality":{"key":"06534015","name":"Münchhausen","type":"Kreisangehörige_Gemeinde"},"district":{"key":"06534","name":"Marburg-Biedenkopf","type":"Landkreis"},"federalState":{"key":"06","name":"Hessen"}},{"name":"Simtshäuser Str.","postalCode":"35117","locality":"Münchhausen","municipality":{"key":"06534015","name":"Münchhausen","type":"Kreisangehörige_Gemeinde"},"district":{"key":"06534","name":"Marburg-Biedenkopf","type":"Landkreis"},"federalState":{"key":"06","name":"Hessen"}},{"name":"Stegacker","postalCode":"35117","locality":"Münchhausen","municipality":{"key":"06534015","name":"Münchhausen","type":"Kreisangehörige_Gemeinde"},"district":{"key":"06534","name":"Marburg-Biedenkopf","type":"Landkreis"},"federalState":{"key":"06","name":"Hessen"}},{"name":"Stegebinne","postalCode":"35117","locality":"Münchhausen","municipality":{"key":"06534015","name":"Münchhausen","type":"Kreisangehörige_Gemeinde"},"district":{"key":"06534","name":"Marburg-Biedenkopf","type":"Landkreis"},"federalState":{"key":"06","name":"Hessen"}},{"name":"Steingasse","postalCode":"35117","locality":"Münchhausen","municipality":{"key":"06534015","name":"Münchhausen","type":"Kreisangehörige_Gemeinde"},"district":{"key":"06534","name":"Marburg-Biedenkopf","type":"Landkreis"},"federalState":{"key":"06","name":"Hessen"}},{"name":"Steinweg","postalCode":"35117","locality":"Münchhausen","municipality":{"key":"06534015","name":"Münchhausen","type":"Kreisangehörige_Gemeinde"},"district":{"key":"06534","name":"Marburg-Biedenkopf","type":"Landkreis"},"federalState":{"key":"06","name":"Hessen"}},{"name":"Talhäuser Str.","postalCode":"35117","locality":"Münchhausen","municipality":{"key":"06534015","name":"Münchhausen","type":"Kreisangehörige_Gemeinde"},"district":{"key":"06534","name":"Marburg-Biedenkopf","type":"Landkreis"},"federalState":{"key":"06","name":"Hessen"}},{"name":"Tannenweg","postalCode":"35117","locality":"Münchhausen","municipality":{"key":"06534015","name":"Münchhausen","type":"Kreisangehörige_Gemeinde"},"district":{"key":"06534","name":"Marburg-Biedenkopf","type":"Landkreis"},"federalState":{"key":"06","name":"Hessen"}},{"name":"Taubenweg","postalCode":"35117","locality":"Münchhausen","municipality":{"key":"06534015","name":"Münchhausen","type":"Kreisangehörige_Gemeinde"},"district":{"key":"06534","name":"Marburg-Biedenkopf","type":"Landkreis"},"federalState":{"key":"06","name":"Hessen"}},{"name":"Torweg","postalCode":"35117","locality":"Münchhausen","municipality":{"key":"06534015","name":"Münchhausen","type":"Kreisangehörige_Gemeinde"},"district":{"key":"06534","name":"Marburg-Biedenkopf","type":"Landkreis"},"federalState":{"key":"06","name":"Hessen"}},{"name":"Treisbacher Weg","postalCode":"35117","locality":"Münchhausen","municipality":{"key":"06534015","name":"Münchhausen","type":"Kreisangehörige_Gemeinde"},"district":{"key":"06534","name":"Marburg-Biedenkopf","type":"Landkreis"},"federalState":{"key":"06","name":"Hessen"}},{"name":"Triftstr.","postalCode":"35117","locality":"Münchhausen","municipality":{"key":"06534015","name":"Münchhausen","type":"Kreisangehörige_Gemeinde"},"district":{"key":"06534","name":"Marburg-Biedenkopf","type":"Landkreis"},"federalState":{"key":"06","name":"Hessen"}},{"name":"Unterer Sonnenhang","postalCode":"35117","locality":"Münchhausen","municipality":{"key":"06534015","name":"Münchhausen","type":"Kreisangehörige_Gemeinde"},"district":{"key":"06534","name":"Marburg-Biedenkopf","type":"Landkreis"},"federalState":{"key":"06","name":"Hessen"}},{"name":"Unterm Berg","postalCode":"35117","locality":"Münchhausen","municipality":{"key":"06534015","name":"Münchhausen","type":"Kreisangehörige_Gemeinde"},"district":{"key":"06534","name":"Marburg-Biedenkopf","type":"Landkreis"},"federalState":{"key":"06","name":"Hessen"}},{"name":"Violinstr.","postalCode":"35117","locality":"Münchhausen","municipality":{"key":"06534015","name":"Münchhausen","type":"Kreisangehörige_Gemeinde"},"district":{"key":"06534","name":"Marburg-Biedenkopf","type":"Landkreis"},"federalState":{"key":"06","name":"Hessen"}},{"name":"Waldstr.","postalCode":"35117","locality":"Münchhausen","municipality":{"key":"06534015","name":"Münchhausen","type":"Kreisangehörige_Gemeinde"},"district":{"key":"06534","name":"Marburg-Biedenkopf","type":"Landkreis"},"federalState":{"key":"06","name":"Hessen"}},{"name":"Weidenhausen","postalCode":"35117","locality":"Münchhausen","municipality":{"key":"06534015","name":"Münchhausen","type":"Kreisangehörige_Gemeinde"},"district":{"key":"06534","name":"Marburg-Biedenkopf","type":"Landkreis"},"federalState":{"key":"06","name":"Hessen"}},{"name":"Weinsbergweg","postalCode":"35117","locality":"Münchhausen","municipality":{"key":"06534015","name":"Münchhausen","type":"Kreisangehörige_Gemeinde"},"district":{"key":"06534","name":"Marburg-Biedenkopf","type":"Landkreis"},"federalState":{"key":"06","name":"Hessen"}},{"name":"Weite Höhe","postalCode":"35117","locality":"Münchhausen","municipality":{"key":"06534015","name":"Münchhausen","type":"Kreisangehörige_Gemeinde"},"district":{"key":"06534","name":"Marburg-Biedenkopf","type":"Landkreis"},"federalState":{"key":"06","name":"Hessen"}},{"name":"Welzebachsweg","postalCode":"35117","locality":"Münchhausen","municipality":{"key":"06534015","name":"Münchhausen","type":"Kreisangehörige_Gemeinde"},"district":{"key":"06534","name":"Marburg-Biedenkopf","type":"Landkreis"},"federalState":{"key":"06","name":"Hessen"}},{"name":"Wiesenstr.","postalCode":"35117","locality":"Münchhausen","municipality":{"key":"06534015","name":"Münchhausen","type":"Kreisangehörige_Gemeinde"},"district":{"key":"06534","name":"Marburg-Biedenkopf","type":"Landkreis"},"federalState":{"key":"06","name":"Hessen"}},{"name":"Winkelstr.","postalCode":"35117","locality":"Münchhausen","municipality":{"key":"06534015","name":"Münchhausen","type":"Kreisangehörige_Gemeinde"},"district":{"key":"06534","name":"Marburg-Biedenkopf","type":"Landkreis"},"federalState":{"key":"06","name":"Hessen"}},{"name":"Wollmarer Weg","postalCode":"35117","locality":"Münchhausen","municipality":{"key":"06534015","name":"Münchhausen","type":"Kreisangehörige_Gemeinde"},"district":{"key":"06534","name":"Marburg-Biedenkopf","type":"Landkreis"},"federalState":{"key":"06","name":"Hessen"}},{"name":"Zum Breitenacker","postalCode":"35117","locality":"Münchhausen","municipality":{"key":"06534015","name":"Münchhausen","type":"Kreisangehörige_Gemeinde"},"district":{"key":"06534","name":"Marburg-Biedenkopf","type":"Landkreis"},"federalState":{"key":"06","name":"Hessen"}},{"name":"Zum Höfchen","postalCode":"35117","locality":"Münchhausen","municipality":{"key":"06534015","name":"Münchhausen","type":"Kreisangehörige_Gemeinde"},"district":{"key":"06534","name":"Marburg-Biedenkopf","type":"Landkreis"},"federalState":{"key":"06","name":"Hessen"}},{"name":"Zum Jutenstrauch","postalCode":"35117","locality":"Münchhausen","municipality":{"key":"06534015","name":"Münchhausen","type":"Kreisangehörige_Gemeinde"},"district":{"key":"06534","name":"Marburg-Biedenkopf","type":"Landkreis"},"federalState":{"key":"06","name":"Hessen"}},{"name":"Zum Lippersbach","postalCode":"35117","locality":"Münchhausen","municipality":{"key":"06534015","name":"Münchhausen","type":"Kreisangehörige_Gemeinde"},"district":{"key":"06534","name":"Marburg-Biedenkopf","type":"Landkreis"},"federalState":{"key":"06","name":"Hessen"}},{"name":"Zum Petersacker","postalCode":"35117","locality":"Münchhausen","municipality":{"key":"06534015","name":"Münchhausen","type":"Kreisangehörige_Gemeinde"},"district":{"key":"06534","name":"Marburg-Biedenkopf","type":"Landkreis"},"federalState":{"key":"06","name":"Hessen"}},{"name":"Zum Steinacker","postalCode":"35117","locality":"Münchhausen","municipality":{"key":"06534015","name":"Münchhausen","type":"Kreisangehörige_Gemeinde"},"district":{"key":"06534","name":"Marburg-Biedenkopf","type":"Landkreis"},"federalState":{"key":"06","name":"Hessen"}},{"name":"Zur Hutschmühle","postalCode":"35117","locality":"Münchhausen","municipality":{"key":"06534015","name":"Münchhausen","type":"Kreisangehörige_Gemeinde"},"district":{"key":"06534","name":"Marburg-Biedenkopf","type":"Landkreis"},"federalState":{"key":"06","name":"Hessen"}},{"name":"Zur Lamper","postalCode":"35117","locality":"Münchhausen","municipality":{"key":"06534015","name":"Münchhausen","type":"Kreisangehörige_Gemeinde"},"district":{"key":"06534","name":"Marburg-Biedenkopf","type":"Landkreis"},"federalState":{"key":"06","name":"Hessen"}},{"name":"Zur Winterseite","postalCode":"35117","locality":"Münchhausen","municipality":{"key":"06534015","name":"Münchhausen","type":"Kreisangehörige_Gemeinde"},"district":{"key":"06534","name":"Marburg-Biedenkopf","type":"Landkreis"},"federalState":{"key":"06","name":"Hessen"}},]