[{"key":"10085334","name":"Aareschluchtstrasse","postalCode":"3860","locality":"Schattenhalb","commune":{"key":"786","name":"Schattenhalb","shortName":"Schattenhalb"},"district":{"key":"250","name":"Verwaltungskreis Interlaken-Oberhasli"},"canton":{"key":"2","code":"BE","name":"Bern / Berne"},"status":"Real"},{"key":"10006406","name":"Alte Scheideggstrasse","postalCode":"3860","locality":"Schattenhalb","commune":{"key":"786","name":"Schattenhalb","shortName":"Schattenhalb"},"district":{"key":"250","name":"Verwaltungskreis Interlaken-Oberhasli"},"canton":{"key":"2","code":"BE","name":"Bern / Berne"},"status":"Real"},{"key":"10151699","name":"Badgässli","postalCode":"3860","locality":"Schattenhalb","commune":{"key":"786","name":"Schattenhalb","shortName":"Schattenhalb"},"district":{"key":"250","name":"Verwaltungskreis Interlaken-Oberhasli"},"canton":{"key":"2","code":"BE","name":"Bern / Berne"},"status":"Real"},{"key":"10107781","name":"Badstrasse","postalCode":"3860","locality":"Schattenhalb","commune":{"key":"786","name":"Schattenhalb","shortName":"Schattenhalb"},"district":{"key":"250","name":"Verwaltungskreis Interlaken-Oberhasli"},"canton":{"key":"2","code":"BE","name":"Bern / Berne"},"status":"Real"},{"key":"10220464","name":"Bännenbärg","postalCode":"3860","locality":"Schattenhalb","commune":{"key":"786","name":"Schattenhalb","shortName":"Schattenhalb"},"district":{"key":"250","name":"Verwaltungskreis Interlaken-Oberhasli"},"canton":{"key":"2","code":"BE","name":"Bern / Berne"},"status":"Real"},{"key":"10010087","name":"Bärgli","postalCode":"3860","locality":"Schattenhalb","commune":{"key":"786","name":"Schattenhalb","shortName":"Schattenhalb"},"district":{"key":"250","name":"Verwaltungskreis Interlaken-Oberhasli"},"canton":{"key":"2","code":"BE","name":"Bern / Berne"},"status":"Real"},{"key":"10220468","name":"Blatti","postalCode":"3860","locality":"Schattenhalb","commune":{"key":"786","name":"Schattenhalb","shortName":"Schattenhalb"},"district":{"key":"250","name":"Verwaltungskreis Interlaken-Oberhasli"},"canton":{"key":"2","code":"BE","name":"Bern / Berne"},"status":"Real"},{"key":"10107791","name":"Boden","postalCode":"3860","locality":"Schattenhalb","commune":{"key":"786","name":"Schattenhalb","shortName":"Schattenhalb"},"district":{"key":"250","name":"Verwaltungskreis Interlaken-Oberhasli"},"canton":{"key":"2","code":"BE","name":"Bern / Berne"},"status":"Real"},{"key":"10220472","name":"Brigglesiiten","postalCode":"3860","locality":"Schattenhalb","commune":{"key":"786","name":"Schattenhalb","shortName":"Schattenhalb"},"district":{"key":"250","name":"Verwaltungskreis Interlaken-Oberhasli"},"canton":{"key":"2","code":"BE","name":"Bern / Berne"},"status":"Real"},{"key":"10220475","name":"Bühl","postalCode":"3860","locality":"Schattenhalb","commune":{"key":"786","name":"Schattenhalb","shortName":"Schattenhalb"},"district":{"key":"250","name":"Verwaltungskreis Interlaken-Oberhasli"},"canton":{"key":"2","code":"BE","name":"Bern / Berne"},"status":"Real"},{"key":"10218996","name":"Burgalp","postalCode":"3860","locality":"Schattenhalb","commune":{"key":"786","name":"Schattenhalb","shortName":"Schattenhalb"},"district":{"key":"250","name":"Verwaltungskreis Interlaken-Oberhasli"},"canton":{"key":"2","code":"BE","name":"Bern / Berne"},"status":"Real"},{"key":"10198983","name":"Chaltenbrunnen obre Stafel","postalCode":"3860","locality":"Schattenhalb","commune":{"key":"786","name":"Schattenhalb","shortName":"Schattenhalb"},"district":{"key":"250","name":"Verwaltungskreis Interlaken-Oberhasli"},"canton":{"key":"2","code":"BE","name":"Bern / Berne"},"status":"Real"},{"key":"10201279","name":"Chaltenbrunnen undre Stafel","postalCode":"3860","locality":"Schattenhalb","commune":{"key":"786","name":"Schattenhalb","shortName":"Schattenhalb"},"district":{"key":"250","name":"Verwaltungskreis Interlaken-Oberhasli"},"canton":{"key":"2","code":"BE","name":"Bern / Berne"},"status":"Real"},{"key":"10193092","name":"Chrüteren","postalCode":"3860","locality":"Schattenhalb","commune":{"key":"786","name":"Schattenhalb","shortName":"Schattenhalb"},"district":{"key":"250","name":"Verwaltungskreis Interlaken-Oberhasli"},"canton":{"key":"2","code":"BE","name":"Bern / Berne"},"status":"Real"},{"key":"10219000","name":"Dossenbiwak","postalCode":"3860","locality":"Schattenhalb","commune":{"key":"786","name":"Schattenhalb","shortName":"Schattenhalb"},"district":{"key":"250","name":"Verwaltungskreis Interlaken-Oberhasli"},"canton":{"key":"2","code":"BE","name":"Bern / Berne"},"status":"Real"},{"key":"10219003","name":"Engelhornhütte","postalCode":"3860","locality":"Schattenhalb","commune":{"key":"786","name":"Schattenhalb","shortName":"Schattenhalb"},"district":{"key":"250","name":"Verwaltungskreis Interlaken-Oberhasli"},"canton":{"key":"2","code":"BE","name":"Bern / Berne"},"status":"Real"},{"key":"10010088","name":"Falcheren","postalCode":"3860","locality":"Schattenhalb","commune":{"key":"786","name":"Schattenhalb","shortName":"Schattenhalb"},"district":{"key":"250","name":"Verwaltungskreis Interlaken-Oberhasli"},"canton":{"key":"2","code":"BE","name":"Bern / Berne"},"status":"Real"},{"key":"10219008","name":"Fruttli","postalCode":"3860","locality":"Schattenhalb","commune":{"key":"786","name":"Schattenhalb","shortName":"Schattenhalb"},"district":{"key":"250","name":"Verwaltungskreis Interlaken-Oberhasli"},"canton":{"key":"2","code":"BE","name":"Bern / Berne"},"status":"Real"},{"key":"10126625","name":"Gärbergasse","postalCode":"3860","locality":"Schattenhalb","commune":{"key":"786","name":"Schattenhalb","shortName":"Schattenhalb"},"district":{"key":"250","name":"Verwaltungskreis Interlaken-Oberhasli"},"canton":{"key":"2","code":"BE","name":"Bern / Berne"},"status":"Real"},{"key":"10085335","name":"Gässli","postalCode":"3860","locality":"Schattenhalb","commune":{"key":"786","name":"Schattenhalb","shortName":"Schattenhalb"},"district":{"key":"250","name":"Verwaltungskreis Interlaken-Oberhasli"},"canton":{"key":"2","code":"BE","name":"Bern / Berne"},"status":"Real"},{"key":"10181731","name":"Geissholz","postalCode":"3860","locality":"Schattenhalb","commune":{"key":"786","name":"Schattenhalb","shortName":"Schattenhalb"},"district":{"key":"250","name":"Verwaltungskreis Interlaken-Oberhasli"},"canton":{"key":"2","code":"BE","name":"Bern / Berne"},"status":"Real"},{"key":"10174285","name":"Geissholzli","postalCode":"3860","locality":"Schattenhalb","commune":{"key":"786","name":"Schattenhalb","shortName":"Schattenhalb"},"district":{"key":"250","name":"Verwaltungskreis Interlaken-Oberhasli"},"canton":{"key":"2","code":"BE","name":"Bern / Berne"},"status":"Real"},{"key":"10007144","name":"Gengli","postalCode":"3860","locality":"Schattenhalb","commune":{"key":"786","name":"Schattenhalb","shortName":"Schattenhalb"},"district":{"key":"250","name":"Verwaltungskreis Interlaken-Oberhasli"},"canton":{"key":"2","code":"BE","name":"Bern / Berne"},"status":"Real"},{"key":"10107787","name":"Grimselstrasse","postalCode":"3860","locality":"Schattenhalb","commune":{"key":"786","name":"Schattenhalb","shortName":"Schattenhalb"},"district":{"key":"250","name":"Verwaltungskreis Interlaken-Oberhasli"},"canton":{"key":"2","code":"BE","name":"Bern / Berne"},"status":"Real"},{"key":"10198984","name":"Grindelfäld","postalCode":"3860","locality":"Schattenhalb","commune":{"key":"786","name":"Schattenhalb","shortName":"Schattenhalb"},"district":{"key":"250","name":"Verwaltungskreis Interlaken-Oberhasli"},"canton":{"key":"2","code":"BE","name":"Bern / Berne"},"status":"Real"},{"key":"10040660","name":"Grosses Mur","postalCode":"3860","locality":"Schattenhalb","commune":{"key":"786","name":"Schattenhalb","shortName":"Schattenhalb"},"district":{"key":"250","name":"Verwaltungskreis Interlaken-Oberhasli"},"canton":{"key":"2","code":"BE","name":"Bern / Berne"},"status":"Real"},{"key":"10064141","name":"Gryd","postalCode":"3860","locality":"Schattenhalb","commune":{"key":"786","name":"Schattenhalb","shortName":"Schattenhalb"},"district":{"key":"250","name":"Verwaltungskreis Interlaken-Oberhasli"},"canton":{"key":"2","code":"BE","name":"Bern / Berne"},"status":"Real"},{"key":"10201511","name":"Gschwantenmad","postalCode":"3860","locality":"Schattenhalb","commune":{"key":"786","name":"Schattenhalb","shortName":"Schattenhalb"},"district":{"key":"250","name":"Verwaltungskreis Interlaken-Oberhasli"},"canton":{"key":"2","code":"BE","name":"Bern / Berne"},"status":"Real"},{"key":"10141300","name":"Helsenbärg","postalCode":"3860","locality":"Schattenhalb","commune":{"key":"786","name":"Schattenhalb","shortName":"Schattenhalb"},"district":{"key":"250","name":"Verwaltungskreis Interlaken-Oberhasli"},"canton":{"key":"2","code":"BE","name":"Bern / Berne"},"status":"Real"},{"key":"10107793","name":"Hobalm","postalCode":"3860","locality":"Schattenhalb","commune":{"key":"786","name":"Schattenhalb","shortName":"Schattenhalb"},"district":{"key":"250","name":"Verwaltungskreis Interlaken-Oberhasli"},"canton":{"key":"2","code":"BE","name":"Bern / Berne"},"status":"Real"},{"key":"10010090","name":"Hof","postalCode":"3860","locality":"Schattenhalb","commune":{"key":"786","name":"Schattenhalb","shortName":"Schattenhalb"},"district":{"key":"250","name":"Verwaltungskreis Interlaken-Oberhasli"},"canton":{"key":"2","code":"BE","name":"Bern / Berne"},"status":"Real"},{"key":"10126257","name":"Hofstatt","postalCode":"3860","locality":"Schattenhalb","commune":{"key":"786","name":"Schattenhalb","shortName":"Schattenhalb"},"district":{"key":"250","name":"Verwaltungskreis Interlaken-Oberhasli"},"canton":{"key":"2","code":"BE","name":"Bern / Berne"},"status":"Real"},{"key":"10090695","name":"Hori","postalCode":"3860","locality":"Schattenhalb","commune":{"key":"786","name":"Schattenhalb","shortName":"Schattenhalb"},"district":{"key":"250","name":"Verwaltungskreis Interlaken-Oberhasli"},"canton":{"key":"2","code":"BE","name":"Bern / Berne"},"status":"Real"},{"key":"10126630","name":"Hostetweg","postalCode":"3860","locality":"Schattenhalb","commune":{"key":"786","name":"Schattenhalb","shortName":"Schattenhalb"},"district":{"key":"250","name":"Verwaltungskreis Interlaken-Oberhasli"},"canton":{"key":"2","code":"BE","name":"Bern / Berne"},"status":"Real"},{"key":"10126633","name":"Im Wald","postalCode":"3860","locality":"Schattenhalb","commune":{"key":"786","name":"Schattenhalb","shortName":"Schattenhalb"},"district":{"key":"250","name":"Verwaltungskreis Interlaken-Oberhasli"},"canton":{"key":"2","code":"BE","name":"Bern / Berne"},"status":"Real"},{"key":"10118771","name":"Kaltenbrunnensäge","postalCode":"3860","locality":"Schattenhalb","commune":{"key":"786","name":"Schattenhalb","shortName":"Schattenhalb"},"district":{"key":"250","name":"Verwaltungskreis Interlaken-Oberhasli"},"canton":{"key":"2","code":"BE","name":"Bern / Berne"},"status":"Real"},{"key":"10064144","name":"Kartafel","postalCode":"3860","locality":"Schattenhalb","commune":{"key":"786","name":"Schattenhalb","shortName":"Schattenhalb"},"district":{"key":"250","name":"Verwaltungskreis Interlaken-Oberhasli"},"canton":{"key":"2","code":"BE","name":"Bern / Berne"},"status":"Real"},{"key":"10010091","name":"Lammi","postalCode":"3860","locality":"Schattenhalb","commune":{"key":"786","name":"Schattenhalb","shortName":"Schattenhalb"},"district":{"key":"250","name":"Verwaltungskreis Interlaken-Oberhasli"},"canton":{"key":"2","code":"BE","name":"Bern / Berne"},"status":"Real"},{"key":"10219011","name":"Ledi","postalCode":"3860","locality":"Schattenhalb","commune":{"key":"786","name":"Schattenhalb","shortName":"Schattenhalb"},"district":{"key":"250","name":"Verwaltungskreis Interlaken-Oberhasli"},"canton":{"key":"2","code":"BE","name":"Bern / Berne"},"status":"Real"},{"key":"10219015","name":"Leimerli","postalCode":"3860","locality":"Schattenhalb","commune":{"key":"786","name":"Schattenhalb","shortName":"Schattenhalb"},"district":{"key":"250","name":"Verwaltungskreis Interlaken-Oberhasli"},"canton":{"key":"2","code":"BE","name":"Bern / Berne"},"status":"Real"},{"key":"10151646","name":"Louenen","postalCode":"3860","locality":"Schattenhalb","commune":{"key":"786","name":"Schattenhalb","shortName":"Schattenhalb"},"district":{"key":"250","name":"Verwaltungskreis Interlaken-Oberhasli"},"canton":{"key":"2","code":"BE","name":"Bern / Berne"},"status":"Real"},{"key":"10123919","name":"Lugen","postalCode":"3860","locality":"Schattenhalb","commune":{"key":"786","name":"Schattenhalb","shortName":"Schattenhalb"},"district":{"key":"250","name":"Verwaltungskreis Interlaken-Oberhasli"},"canton":{"key":"2","code":"BE","name":"Bern / Berne"},"status":"Real"},{"key":"10219019","name":"Mad","postalCode":"3860","locality":"Schattenhalb","commune":{"key":"786","name":"Schattenhalb","shortName":"Schattenhalb"},"district":{"key":"250","name":"Verwaltungskreis Interlaken-Oberhasli"},"canton":{"key":"2","code":"BE","name":"Bern / Berne"},"status":"Real"},{"key":"10197649","name":"Mettlen","postalCode":"3860","locality":"Schattenhalb","commune":{"key":"786","name":"Schattenhalb","shortName":"Schattenhalb"},"district":{"key":"250","name":"Verwaltungskreis Interlaken-Oberhasli"},"canton":{"key":"2","code":"BE","name":"Bern / Berne"},"status":"Real"},{"key":"10010092","name":"Mettli","postalCode":"3860","locality":"Schattenhalb","commune":{"key":"786","name":"Schattenhalb","shortName":"Schattenhalb"},"district":{"key":"250","name":"Verwaltungskreis Interlaken-Oberhasli"},"canton":{"key":"2","code":"BE","name":"Bern / Berne"},"status":"Real"},{"key":"10040654","name":"Mur","postalCode":"3860","locality":"Schattenhalb","commune":{"key":"786","name":"Schattenhalb","shortName":"Schattenhalb"},"district":{"key":"250","name":"Verwaltungskreis Interlaken-Oberhasli"},"canton":{"key":"2","code":"BE","name":"Bern / Berne"},"status":"Real"},{"key":"10118770","name":"Obers Zwirgi","postalCode":"3860","locality":"Schattenhalb","commune":{"key":"786","name":"Schattenhalb","shortName":"Schattenhalb"},"district":{"key":"250","name":"Verwaltungskreis Interlaken-Oberhasli"},"canton":{"key":"2","code":"BE","name":"Bern / Berne"},"status":"Real"},{"key":"10111275","name":"Reichenbach","postalCode":"3860","locality":"Schattenhalb","commune":{"key":"786","name":"Schattenhalb","shortName":"Schattenhalb"},"district":{"key":"250","name":"Verwaltungskreis Interlaken-Oberhasli"},"canton":{"key":"2","code":"BE","name":"Bern / Berne"},"status":"Real"},{"key":"10219022","name":"Reichenbachfall","postalCode":"3860","locality":"Schattenhalb","commune":{"key":"786","name":"Schattenhalb","shortName":"Schattenhalb"},"district":{"key":"250","name":"Verwaltungskreis Interlaken-Oberhasli"},"canton":{"key":"2","code":"BE","name":"Bern / Berne"},"status":"Real"},{"key":"10152462","name":"Reuteli","postalCode":"3860","locality":"Schattenhalb","commune":{"key":"786","name":"Schattenhalb","shortName":"Schattenhalb"},"district":{"key":"250","name":"Verwaltungskreis Interlaken-Oberhasli"},"canton":{"key":"2","code":"BE","name":"Bern / Berne"},"status":"Real"},{"key":"10064146","name":"Reutsperri","postalCode":"3860","locality":"Schattenhalb","commune":{"key":"786","name":"Schattenhalb","shortName":"Schattenhalb"},"district":{"key":"250","name":"Verwaltungskreis Interlaken-Oberhasli"},"canton":{"key":"2","code":"BE","name":"Bern / Berne"},"status":"Real"},{"key":"10203117","name":"Röift","postalCode":"3860","locality":"Schattenhalb","commune":{"key":"786","name":"Schattenhalb","shortName":"Schattenhalb"},"district":{"key":"250","name":"Verwaltungskreis Interlaken-Oberhasli"},"canton":{"key":"2","code":"BE","name":"Bern / Berne"},"status":"Real"},{"key":"10198980","name":"Rychenbachalp","postalCode":"3860","locality":"Schattenhalb","commune":{"key":"786","name":"Schattenhalb","shortName":"Schattenhalb"},"district":{"key":"250","name":"Verwaltungskreis Interlaken-Oberhasli"},"canton":{"key":"2","code":"BE","name":"Bern / Berne"},"status":"Real"},{"key":"10219027","name":"Ryti","postalCode":"3860","locality":"Schattenhalb","commune":{"key":"786","name":"Schattenhalb","shortName":"Schattenhalb"},"district":{"key":"250","name":"Verwaltungskreis Interlaken-Oberhasli"},"canton":{"key":"2","code":"BE","name":"Bern / Berne"},"status":"Real"},{"key":"10126632","name":"Sandey","postalCode":"3860","locality":"Schattenhalb","commune":{"key":"786","name":"Schattenhalb","shortName":"Schattenhalb"},"district":{"key":"250","name":"Verwaltungskreis Interlaken-Oberhasli"},"canton":{"key":"2","code":"BE","name":"Bern / Berne"},"status":"Real"},{"key":"10024019","name":"Schlittbrächen","postalCode":"3860","locality":"Schattenhalb","commune":{"key":"786","name":"Schattenhalb","shortName":"Schattenhalb"},"district":{"key":"250","name":"Verwaltungskreis Interlaken-Oberhasli"},"canton":{"key":"2","code":"BE","name":"Bern / Berne"},"status":"Real"},{"key":"10199978","name":"Schwand","postalCode":"3860","locality":"Schattenhalb","commune":{"key":"786","name":"Schattenhalb","shortName":"Schattenhalb"},"district":{"key":"250","name":"Verwaltungskreis Interlaken-Oberhasli"},"canton":{"key":"2","code":"BE","name":"Bern / Berne"},"status":"Real"},{"key":"10219030","name":"Schwendeli","postalCode":"3860","locality":"Schattenhalb","commune":{"key":"786","name":"Schattenhalb","shortName":"Schattenhalb"},"district":{"key":"250","name":"Verwaltungskreis Interlaken-Oberhasli"},"canton":{"key":"2","code":"BE","name":"Bern / Berne"},"status":"Real"},{"key":"10188865","name":"Schwendi","postalCode":"3860","locality":"Schattenhalb","commune":{"key":"786","name":"Schattenhalb","shortName":"Schattenhalb"},"district":{"key":"250","name":"Verwaltungskreis Interlaken-Oberhasli"},"canton":{"key":"2","code":"BE","name":"Bern / Berne"},"status":"Real"},{"key":"10197711","name":"Schwendistrasse","postalCode":"3860","locality":"Schattenhalb","commune":{"key":"786","name":"Schattenhalb","shortName":"Schattenhalb"},"district":{"key":"250","name":"Verwaltungskreis Interlaken-Oberhasli"},"canton":{"key":"2","code":"BE","name":"Bern / Berne"},"status":"Real"},{"key":"10010376","name":"Seewli","postalCode":"3860","locality":"Schattenhalb","commune":{"key":"786","name":"Schattenhalb","shortName":"Schattenhalb"},"district":{"key":"250","name":"Verwaltungskreis Interlaken-Oberhasli"},"canton":{"key":"2","code":"BE","name":"Bern / Berne"},"status":"Real"},{"key":"10201278","name":"Seilialp","postalCode":"3860","locality":"Schattenhalb","commune":{"key":"786","name":"Schattenhalb","shortName":"Schattenhalb"},"district":{"key":"250","name":"Verwaltungskreis Interlaken-Oberhasli"},"canton":{"key":"2","code":"BE","name":"Bern / Berne"},"status":"Real"},{"key":"10219033","name":"Stalden","postalCode":"3860","locality":"Schattenhalb","commune":{"key":"786","name":"Schattenhalb","shortName":"Schattenhalb"},"district":{"key":"250","name":"Verwaltungskreis Interlaken-Oberhasli"},"canton":{"key":"2","code":"BE","name":"Bern / Berne"},"status":"Real"},{"key":"10219037","name":"Steckli","postalCode":"3860","locality":"Schattenhalb","commune":{"key":"786","name":"Schattenhalb","shortName":"Schattenhalb"},"district":{"key":"250","name":"Verwaltungskreis Interlaken-Oberhasli"},"canton":{"key":"2","code":"BE","name":"Bern / Berne"},"status":"Real"},{"key":"10006403","name":"Stickliweg","postalCode":"3860","locality":"Schattenhalb","commune":{"key":"786","name":"Schattenhalb","shortName":"Schattenhalb"},"district":{"key":"250","name":"Verwaltungskreis Interlaken-Oberhasli"},"canton":{"key":"2","code":"BE","name":"Bern / Berne"},"status":"Real"},{"key":"10219041","name":"Torblätz","postalCode":"3860","locality":"Schattenhalb","commune":{"key":"786","name":"Schattenhalb","shortName":"Schattenhalb"},"district":{"key":"250","name":"Verwaltungskreis Interlaken-Oberhasli"},"canton":{"key":"2","code":"BE","name":"Bern / Berne"},"status":"Real"},{"key":"10040656","name":"Underdorf","postalCode":"3860","locality":"Schattenhalb","commune":{"key":"786","name":"Schattenhalb","shortName":"Schattenhalb"},"district":{"key":"250","name":"Verwaltungskreis Interlaken-Oberhasli"},"canton":{"key":"2","code":"BE","name":"Bern / Berne"},"status":"Real"},{"key":"10219045","name":"Underflie","postalCode":"3860","locality":"Schattenhalb","commune":{"key":"786","name":"Schattenhalb","shortName":"Schattenhalb"},"district":{"key":"250","name":"Verwaltungskreis Interlaken-Oberhasli"},"canton":{"key":"2","code":"BE","name":"Bern / Berne"},"status":"Real"},{"key":"10007146","name":"Vollecher","postalCode":"3860","locality":"Schattenhalb","commune":{"key":"786","name":"Schattenhalb","shortName":"Schattenhalb"},"district":{"key":"250","name":"Verwaltungskreis Interlaken-Oberhasli"},"canton":{"key":"2","code":"BE","name":"Bern / Berne"},"status":"Real"},{"key":"10064147","name":"Wannerli","postalCode":"3860","locality":"Schattenhalb","commune":{"key":"786","name":"Schattenhalb","shortName":"Schattenhalb"},"district":{"key":"250","name":"Verwaltungskreis Interlaken-Oberhasli"},"canton":{"key":"2","code":"BE","name":"Bern / Berne"},"status":"Real"},{"key":"10123409","name":"Zwirgi","postalCode":"3860","locality":"Schattenhalb","commune":{"key":"786","name":"Schattenhalb","shortName":"Schattenhalb"},"district":{"key":"250","name":"Verwaltungskreis Interlaken-Oberhasli"},"canton":{"key":"2","code":"BE","name":"Bern / Berne"},"status":"Real"},{"key":"10040658","name":"Äbnetweg","postalCode":"3860","locality":"Schattenhalb","commune":{"key":"786","name":"Schattenhalb","shortName":"Schattenhalb"},"district":{"key":"250","name":"Verwaltungskreis Interlaken-Oberhasli"},"canton":{"key":"2","code":"BE","name":"Bern / Berne"},"status":"Real"},]