[{"key":"10072715","name":"Aegertenhof","postalCode":"3210","locality":"Kerzers","commune":{"key":"2265","name":"Kerzers","shortName":"Kerzers"},"district":{"key":"1005","name":"Bezirk See / District du Lac"},"canton":{"key":"10","code":"FR","name":"Fribourg / Freiburg"},"status":"Real"},{"key":"10110365","name":"Aegertenstrasse","postalCode":"3210","locality":"Kerzers","commune":{"key":"2265","name":"Kerzers","shortName":"Kerzers"},"district":{"key":"1005","name":"Bezirk See / District du Lac"},"canton":{"key":"10","code":"FR","name":"Fribourg / Freiburg"},"status":"Real"},{"key":"10052149","name":"Agriswilstrasse","postalCode":"3216","locality":"Ried b. Kerzers","commune":{"key":"2276","name":"Ried bei Kerzers","shortName":"Ried bei Kerzers"},"district":{"key":"1005","name":"Bezirk See / District du Lac"},"canton":{"key":"10","code":"FR","name":"Fribourg / Freiburg"},"status":"Real"},{"key":"10021865","name":"Allmend","postalCode":"3210","locality":"Kerzers","commune":{"key":"2265","name":"Kerzers","shortName":"Kerzers"},"district":{"key":"1005","name":"Bezirk See / District du Lac"},"canton":{"key":"10","code":"FR","name":"Fribourg / Freiburg"},"status":"Real"},{"key":"10090469","name":"Allmendstrasse","postalCode":"3210","locality":"Kerzers","commune":{"key":"2265","name":"Kerzers","shortName":"Kerzers"},"district":{"key":"1005","name":"Bezirk See / District du Lac"},"canton":{"key":"10","code":"FR","name":"Fribourg / Freiburg"},"status":"Real"},{"key":"10114688","name":"Altes Widalmi","postalCode":"3216","locality":"Ried b. Kerzers","commune":{"key":"2276","name":"Ried bei Kerzers","shortName":"Ried bei Kerzers"},"district":{"key":"1005","name":"Bezirk See / District du Lac"},"canton":{"key":"10","code":"FR","name":"Fribourg / Freiburg"},"status":"Real"},{"key":"10185127","name":"Am Stutz","postalCode":"3210","locality":"Kerzers","commune":{"key":"2265","name":"Kerzers","shortName":"Kerzers"},"district":{"key":"1005","name":"Bezirk See / District du Lac"},"canton":{"key":"10","code":"FR","name":"Fribourg / Freiburg"},"status":"Real"},{"key":"10252223","name":"Arnen","postalCode":"3210","locality":"Kerzers","commune":{"key":"2265","name":"Kerzers","shortName":"Kerzers"},"district":{"key":"1005","name":"Bezirk See / District du Lac"},"canton":{"key":"10","code":"FR","name":"Fribourg / Freiburg"},"status":"Real"},{"key":"10021866","name":"Arnenhof","postalCode":"3210","locality":"Kerzers","commune":{"key":"2265","name":"Kerzers","shortName":"Kerzers"},"district":{"key":"1005","name":"Bezirk See / District du Lac"},"canton":{"key":"10","code":"FR","name":"Fribourg / Freiburg"},"status":"Real"},{"key":"10122719","name":"Aspi","postalCode":"3210","locality":"Kerzers","commune":{"key":"2265","name":"Kerzers","shortName":"Kerzers"},"district":{"key":"1005","name":"Bezirk See / District du Lac"},"canton":{"key":"10","code":"FR","name":"Fribourg / Freiburg"},"status":"Real"},{"key":"10181093","name":"Auf dem Platz","postalCode":"3210","locality":"Kerzers","commune":{"key":"2265","name":"Kerzers","shortName":"Kerzers"},"district":{"key":"1005","name":"Bezirk See / District du Lac"},"canton":{"key":"10","code":"FR","name":"Fribourg / Freiburg"},"status":"Real"},{"key":"10252227","name":"Auf der Griengruebe","postalCode":"3210","locality":"Kerzers","commune":{"key":"2265","name":"Kerzers","shortName":"Kerzers"},"district":{"key":"1005","name":"Bezirk See / District du Lac"},"canton":{"key":"10","code":"FR","name":"Fribourg / Freiburg"},"status":"Real"},{"key":"10252116","name":"Babutze","postalCode":"3216","locality":"Ried b. Kerzers","commune":{"key":"2276","name":"Ried bei Kerzers","shortName":"Ried bei Kerzers"},"district":{"key":"1005","name":"Bezirk See / District du Lac"},"canton":{"key":"10","code":"FR","name":"Fribourg / Freiburg"},"status":"Real"},{"key":"10058618","name":"Bahnhofplatz","postalCode":"3210","locality":"Kerzers","commune":{"key":"2265","name":"Kerzers","shortName":"Kerzers"},"district":{"key":"1005","name":"Bezirk See / District du Lac"},"canton":{"key":"10","code":"FR","name":"Fribourg / Freiburg"},"status":"Real"},{"key":"10021867","name":"Bahnhofstrasse","postalCode":"3210","locality":"Kerzers","commune":{"key":"2265","name":"Kerzers","shortName":"Kerzers"},"district":{"key":"1005","name":"Bezirk See / District du Lac"},"canton":{"key":"10","code":"FR","name":"Fribourg / Freiburg"},"status":"Real"},{"key":"10021869","name":"Bänzershusstrasse","postalCode":"3210","locality":"Kerzers","commune":{"key":"2265","name":"Kerzers","shortName":"Kerzers"},"district":{"key":"1005","name":"Bezirk See / District du Lac"},"canton":{"key":"10","code":"FR","name":"Fribourg / Freiburg"},"status":"Real"},{"key":"10022182","name":"Bäumliacherstrasse","postalCode":"3216","locality":"Ried b. Kerzers","commune":{"key":"2276","name":"Ried bei Kerzers","shortName":"Ried bei Kerzers"},"district":{"key":"1005","name":"Bezirk See / District du Lac"},"canton":{"key":"10","code":"FR","name":"Fribourg / Freiburg"},"status":"Real"},{"key":"10090470","name":"Bernstrasse","postalCode":"3210","locality":"Kerzers","commune":{"key":"2265","name":"Kerzers","shortName":"Kerzers"},"district":{"key":"1005","name":"Bezirk See / District du Lac"},"canton":{"key":"10","code":"FR","name":"Fribourg / Freiburg"},"status":"Real"},{"key":"10252126","name":"Biberenbach","postalCode":"3210","locality":"Kerzers","commune":{"key":"2265","name":"Kerzers","shortName":"Kerzers"},"district":{"key":"1005","name":"Bezirk See / District du Lac"},"canton":{"key":"10","code":"FR","name":"Fribourg / Freiburg"},"status":"Real"},{"key":"10153462","name":"Biberenweg","postalCode":"3216","locality":"Ried b. Kerzers","commune":{"key":"2276","name":"Ried bei Kerzers","shortName":"Ried bei Kerzers"},"district":{"key":"1005","name":"Bezirk See / District du Lac"},"canton":{"key":"10","code":"FR","name":"Fribourg / Freiburg"},"status":"Real"},{"key":"10021868","name":"Biberenzelgli","postalCode":"3210","locality":"Kerzers","commune":{"key":"2265","name":"Kerzers","shortName":"Kerzers"},"district":{"key":"1005","name":"Bezirk See / District du Lac"},"canton":{"key":"10","code":"FR","name":"Fribourg / Freiburg"},"status":"Real"},{"key":"10056114","name":"Bifang","postalCode":"3210","locality":"Kerzers","commune":{"key":"2265","name":"Kerzers","shortName":"Kerzers"},"district":{"key":"1005","name":"Bezirk See / District du Lac"},"canton":{"key":"10","code":"FR","name":"Fribourg / Freiburg"},"status":"Real"},{"key":"10244358","name":"Bleihalleweg","postalCode":"3216","locality":"Ried b. Kerzers","commune":{"key":"2276","name":"Ried bei Kerzers","shortName":"Ried bei Kerzers"},"district":{"key":"1005","name":"Bezirk See / District du Lac"},"canton":{"key":"10","code":"FR","name":"Fribourg / Freiburg"},"status":"Real"},{"key":"10212155","name":"Breiti","postalCode":"3216","locality":"Ried b. Kerzers","commune":{"key":"2276","name":"Ried bei Kerzers","shortName":"Ried bei Kerzers"},"district":{"key":"1005","name":"Bezirk See / District du Lac"},"canton":{"key":"10","code":"FR","name":"Fribourg / Freiburg"},"status":"Real"},{"key":"10244356","name":"Büchslenweg","postalCode":"3216","locality":"Ried b. Kerzers","commune":{"key":"2276","name":"Ried bei Kerzers","shortName":"Ried bei Kerzers"},"district":{"key":"1005","name":"Bezirk See / District du Lac"},"canton":{"key":"10","code":"FR","name":"Fribourg / Freiburg"},"status":"Real"},{"key":"10180250","name":"Burgstatt","postalCode":"3210","locality":"Kerzers","commune":{"key":"2265","name":"Kerzers","shortName":"Kerzers"},"district":{"key":"1005","name":"Bezirk See / District du Lac"},"canton":{"key":"10","code":"FR","name":"Fribourg / Freiburg"},"status":"Real"},{"key":"10252150","name":"Chronematte","postalCode":"3216","locality":"Ried b. Kerzers","commune":{"key":"2276","name":"Ried bei Kerzers","shortName":"Ried bei Kerzers"},"district":{"key":"1005","name":"Bezirk See / District du Lac"},"canton":{"key":"10","code":"FR","name":"Fribourg / Freiburg"},"status":"Real"},{"key":"10252231","name":"Chrummgraben","postalCode":"3210","locality":"Kerzers","commune":{"key":"2265","name":"Kerzers","shortName":"Kerzers"},"district":{"key":"1005","name":"Bezirk See / District du Lac"},"canton":{"key":"10","code":"FR","name":"Fribourg / Freiburg"},"status":"Real"},{"key":"10252164","name":"Coute","postalCode":"3216","locality":"Ried b. Kerzers","commune":{"key":"2276","name":"Ried bei Kerzers","shortName":"Ried bei Kerzers"},"district":{"key":"1005","name":"Bezirk See / District du Lac"},"canton":{"key":"10","code":"FR","name":"Fribourg / Freiburg"},"status":"Real"},{"key":"10021870","name":"Doktorweg","postalCode":"3210","locality":"Kerzers","commune":{"key":"2265","name":"Kerzers","shortName":"Kerzers"},"district":{"key":"1005","name":"Bezirk See / District du Lac"},"canton":{"key":"10","code":"FR","name":"Fribourg / Freiburg"},"status":"Real"},{"key":"10254020","name":"Dorfstrasse","postalCode":"3216","locality":"Ried b. Kerzers","commune":{"key":"2276","name":"Ried bei Kerzers","shortName":"Ried bei Kerzers"},"district":{"key":"1005","name":"Bezirk See / District du Lac"},"canton":{"key":"10","code":"FR","name":"Fribourg / Freiburg"},"status":"Real"},{"key":"10166669","name":"Eggimattweg","postalCode":"3216","locality":"Ried b. Kerzers","commune":{"key":"2276","name":"Ried bei Kerzers","shortName":"Ried bei Kerzers"},"district":{"key":"1005","name":"Bezirk See / District du Lac"},"canton":{"key":"10","code":"FR","name":"Fribourg / Freiburg"},"status":"Real"},{"key":"10252215","name":"Eichte","postalCode":"3210","locality":"Kerzers","commune":{"key":"2265","name":"Kerzers","shortName":"Kerzers"},"district":{"key":"1005","name":"Bezirk See / District du Lac"},"canton":{"key":"10","code":"FR","name":"Fribourg / Freiburg"},"status":"Real"},{"key":"10252222","name":"Erli","postalCode":"3210","locality":"Kerzers","commune":{"key":"2265","name":"Kerzers","shortName":"Kerzers"},"district":{"key":"1005","name":"Bezirk See / District du Lac"},"canton":{"key":"10","code":"FR","name":"Fribourg / Freiburg"},"status":"Real"},{"key":"10158589","name":"Erlimatten","postalCode":"3216","locality":"Ried b. Kerzers","commune":{"key":"2276","name":"Ried bei Kerzers","shortName":"Ried bei Kerzers"},"district":{"key":"1005","name":"Bezirk See / District du Lac"},"canton":{"key":"10","code":"FR","name":"Fribourg / Freiburg"},"status":"Real"},{"key":"10196424","name":"Falbenmatte","postalCode":"3210","locality":"Kerzers","commune":{"key":"2265","name":"Kerzers","shortName":"Kerzers"},"district":{"key":"1005","name":"Bezirk See / District du Lac"},"canton":{"key":"10","code":"FR","name":"Fribourg / Freiburg"},"status":"Real"},{"key":"10252230","name":"Farenacher","postalCode":"3210","locality":"Kerzers","commune":{"key":"2265","name":"Kerzers","shortName":"Kerzers"},"district":{"key":"1005","name":"Bezirk See / District du Lac"},"canton":{"key":"10","code":"FR","name":"Fribourg / Freiburg"},"status":"Real"},{"key":"10052140","name":"Fräschelsgasse","postalCode":"3210","locality":"Kerzers","commune":{"key":"2265","name":"Kerzers","shortName":"Kerzers"},"district":{"key":"1005","name":"Bezirk See / District du Lac"},"canton":{"key":"10","code":"FR","name":"Fribourg / Freiburg"},"status":"Real"},{"key":"10244360","name":"Friedhofweg","postalCode":"3216","locality":"Ried b. Kerzers","commune":{"key":"2276","name":"Ried bei Kerzers","shortName":"Ried bei Kerzers"},"district":{"key":"1005","name":"Bezirk See / District du Lac"},"canton":{"key":"10","code":"FR","name":"Fribourg / Freiburg"},"status":"Real"},{"key":"10086321","name":"Galmizstrasse","postalCode":"3216","locality":"Ried b. Kerzers","commune":{"key":"2276","name":"Ried bei Kerzers","shortName":"Ried bei Kerzers"},"district":{"key":"1005","name":"Bezirk See / District du Lac"},"canton":{"key":"10","code":"FR","name":"Fribourg / Freiburg"},"status":"Real"},{"key":"10021873","name":"Gärteli","postalCode":"3210","locality":"Kerzers","commune":{"key":"2265","name":"Kerzers","shortName":"Kerzers"},"district":{"key":"1005","name":"Bezirk See / District du Lac"},"canton":{"key":"10","code":"FR","name":"Fribourg / Freiburg"},"status":"Real"},{"key":"10110374","name":"Gässli","postalCode":"3216","locality":"Ried b. Kerzers","commune":{"key":"2276","name":"Ried bei Kerzers","shortName":"Ried bei Kerzers"},"district":{"key":"1005","name":"Bezirk See / District du Lac"},"canton":{"key":"10","code":"FR","name":"Fribourg / Freiburg"},"status":"Real"},{"key":"10090471","name":"Gerbeackerstrasse","postalCode":"3210","locality":"Kerzers","commune":{"key":"2265","name":"Kerzers","shortName":"Kerzers"},"district":{"key":"1005","name":"Bezirk See / District du Lac"},"canton":{"key":"10","code":"FR","name":"Fribourg / Freiburg"},"status":"Real"},{"key":"10188368","name":"Gerbegasse","postalCode":"3210","locality":"Kerzers","commune":{"key":"2265","name":"Kerzers","shortName":"Kerzers"},"district":{"key":"1005","name":"Bezirk See / District du Lac"},"canton":{"key":"10","code":"FR","name":"Fribourg / Freiburg"},"status":"Real"},{"key":"10186103","name":"Gewerbezone Brüggfeld","postalCode":"3216","locality":"Ried b. Kerzers","commune":{"key":"2276","name":"Ried bei Kerzers","shortName":"Ried bei Kerzers"},"district":{"key":"1005","name":"Bezirk See / District du Lac"},"canton":{"key":"10","code":"FR","name":"Fribourg / Freiburg"},"status":"Real"},{"key":"10022183","name":"Gewerbezone Widalmi","postalCode":"3216","locality":"Ried b. Kerzers","commune":{"key":"2276","name":"Ried bei Kerzers","shortName":"Ried bei Kerzers"},"district":{"key":"1005","name":"Bezirk See / District du Lac"},"canton":{"key":"10","code":"FR","name":"Fribourg / Freiburg"},"status":"Real"},{"key":"10021871","name":"Gummenweg","postalCode":"3210","locality":"Kerzers","commune":{"key":"2265","name":"Kerzers","shortName":"Kerzers"},"district":{"key":"1005","name":"Bezirk See / District du Lac"},"canton":{"key":"10","code":"FR","name":"Fribourg / Freiburg"},"status":"Real"},{"key":"10052141","name":"Gümmi","postalCode":"3210","locality":"Kerzers","commune":{"key":"2265","name":"Kerzers","shortName":"Kerzers"},"district":{"key":"1005","name":"Bezirk See / District du Lac"},"canton":{"key":"10","code":"FR","name":"Fribourg / Freiburg"},"status":"Real"},{"key":"10197421","name":"Gümmistrasse","postalCode":"3210","locality":"Kerzers","commune":{"key":"2265","name":"Kerzers","shortName":"Kerzers"},"district":{"key":"1005","name":"Bezirk See / District du Lac"},"canton":{"key":"10","code":"FR","name":"Fribourg / Freiburg"},"status":"Real"},{"key":"10072716","name":"Günschetenweg","postalCode":"3210","locality":"Kerzers","commune":{"key":"2265","name":"Kerzers","shortName":"Kerzers"},"district":{"key":"1005","name":"Bezirk See / District du Lac"},"canton":{"key":"10","code":"FR","name":"Fribourg / Freiburg"},"status":"Real"},{"key":"10181109","name":"Gurzelenstrasse","postalCode":"3216","locality":"Ried b. Kerzers","commune":{"key":"2276","name":"Ried bei Kerzers","shortName":"Ried bei Kerzers"},"district":{"key":"1005","name":"Bezirk See / District du Lac"},"canton":{"key":"10","code":"FR","name":"Fribourg / Freiburg"},"status":"Real"},{"key":"10021872","name":"Guttersen","postalCode":"3210","locality":"Kerzers","commune":{"key":"2265","name":"Kerzers","shortName":"Kerzers"},"district":{"key":"1005","name":"Bezirk See / District du Lac"},"canton":{"key":"10","code":"FR","name":"Fribourg / Freiburg"},"status":"Real"},{"key":"10090472","name":"Hahlentreppe","postalCode":"3210","locality":"Kerzers","commune":{"key":"2265","name":"Kerzers","shortName":"Kerzers"},"district":{"key":"1005","name":"Bezirk See / District du Lac"},"canton":{"key":"10","code":"FR","name":"Fribourg / Freiburg"},"status":"Real"},{"key":"10181094","name":"Hasenberg","postalCode":"3210","locality":"Kerzers","commune":{"key":"2265","name":"Kerzers","shortName":"Kerzers"},"district":{"key":"1005","name":"Bezirk See / District du Lac"},"canton":{"key":"10","code":"FR","name":"Fribourg / Freiburg"},"status":"Real"},{"key":"10114940","name":"Hausmattenstrasse","postalCode":"3210","locality":"Kerzers","commune":{"key":"2265","name":"Kerzers","shortName":"Kerzers"},"district":{"key":"1005","name":"Bezirk See / District du Lac"},"canton":{"key":"10","code":"FR","name":"Fribourg / Freiburg"},"status":"Real"},{"key":"10090473","name":"Herresrain","postalCode":"3210","locality":"Kerzers","commune":{"key":"2265","name":"Kerzers","shortName":"Kerzers"},"district":{"key":"1005","name":"Bezirk See / District du Lac"},"canton":{"key":"10","code":"FR","name":"Fribourg / Freiburg"},"status":"Real"},{"key":"10098174","name":"Hintere Gasse","postalCode":"3210","locality":"Kerzers","commune":{"key":"2265","name":"Kerzers","shortName":"Kerzers"},"district":{"key":"1005","name":"Bezirk See / District du Lac"},"canton":{"key":"10","code":"FR","name":"Fribourg / Freiburg"},"status":"Real"},{"key":"10252178","name":"Hinterem Horn","postalCode":"3216","locality":"Ried b. Kerzers","commune":{"key":"2276","name":"Ried bei Kerzers","shortName":"Ried bei Kerzers"},"district":{"key":"1005","name":"Bezirk See / District du Lac"},"canton":{"key":"10","code":"FR","name":"Fribourg / Freiburg"},"status":"Real"},{"key":"10072717","name":"Hohlegasse","postalCode":"3210","locality":"Kerzers","commune":{"key":"2265","name":"Kerzers","shortName":"Kerzers"},"district":{"key":"1005","name":"Bezirk See / District du Lac"},"canton":{"key":"10","code":"FR","name":"Fribourg / Freiburg"},"status":"Real"},{"key":"10252261","name":"Holzenacher","postalCode":"3216","locality":"Ried b. Kerzers","commune":{"key":"2276","name":"Ried bei Kerzers","shortName":"Ried bei Kerzers"},"district":{"key":"1005","name":"Bezirk See / District du Lac"},"canton":{"key":"10","code":"FR","name":"Fribourg / Freiburg"},"status":"Real"},{"key":"10021874","name":"Holzgasse","postalCode":"3210","locality":"Kerzers","commune":{"key":"2265","name":"Kerzers","shortName":"Kerzers"},"district":{"key":"1005","name":"Bezirk See / District du Lac"},"canton":{"key":"10","code":"FR","name":"Fribourg / Freiburg"},"status":"Real"},{"key":"10251866","name":"Hölzli","postalCode":"3210","locality":"Kerzers","commune":{"key":"2265","name":"Kerzers","shortName":"Kerzers"},"district":{"key":"1005","name":"Bezirk See / District du Lac"},"canton":{"key":"10","code":"FR","name":"Fribourg / Freiburg"},"status":"Real"},{"key":"10251869","name":"Hüslimatte","postalCode":"3210","locality":"Kerzers","commune":{"key":"2265","name":"Kerzers","shortName":"Kerzers"},"district":{"key":"1005","name":"Bezirk See / District du Lac"},"canton":{"key":"10","code":"FR","name":"Fribourg / Freiburg"},"status":"Real"},{"key":"10052142","name":"Industriestrasse","postalCode":"3210","locality":"Kerzers","commune":{"key":"2265","name":"Kerzers","shortName":"Kerzers"},"district":{"key":"1005","name":"Bezirk See / District du Lac"},"canton":{"key":"10","code":"FR","name":"Fribourg / Freiburg"},"status":"Real"},{"key":"10190521","name":"Juraweg","postalCode":"3216","locality":"Ried b. Kerzers","commune":{"key":"2276","name":"Ried bei Kerzers","shortName":"Ried bei Kerzers"},"district":{"key":"1005","name":"Bezirk See / District du Lac"},"canton":{"key":"10","code":"FR","name":"Fribourg / Freiburg"},"status":"Real"},{"key":"10021875","name":"Kardenhof","postalCode":"3210","locality":"Kerzers","commune":{"key":"2265","name":"Kerzers","shortName":"Kerzers"},"district":{"key":"1005","name":"Bezirk See / District du Lac"},"canton":{"key":"10","code":"FR","name":"Fribourg / Freiburg"},"status":"Real"},{"key":"10021876","name":"Kerzersmoos","postalCode":"3210","locality":"Kerzers","commune":{"key":"2265","name":"Kerzers","shortName":"Kerzers"},"district":{"key":"1005","name":"Bezirk See / District du Lac"},"canton":{"key":"10","code":"FR","name":"Fribourg / Freiburg"},"status":"Real"},{"key":"10252196","name":"Kerzersmoos","postalCode":"3216","locality":"Ried b. Kerzers","commune":{"key":"2276","name":"Ried bei Kerzers","shortName":"Ried bei Kerzers"},"district":{"key":"1005","name":"Bezirk See / District du Lac"},"canton":{"key":"10","code":"FR","name":"Fribourg / Freiburg"},"status":"Real"},{"key":"10090474","name":"Kirchgässli","postalCode":"3210","locality":"Kerzers","commune":{"key":"2265","name":"Kerzers","shortName":"Kerzers"},"district":{"key":"1005","name":"Bezirk See / District du Lac"},"canton":{"key":"10","code":"FR","name":"Fribourg / Freiburg"},"status":"Real"},{"key":"10072718","name":"Kreuzberg","postalCode":"3210","locality":"Kerzers","commune":{"key":"2265","name":"Kerzers","shortName":"Kerzers"},"district":{"key":"1005","name":"Bezirk See / District du Lac"},"canton":{"key":"10","code":"FR","name":"Fribourg / Freiburg"},"status":"Real"},{"key":"10110366","name":"Kreuzbergstrasse","postalCode":"3210","locality":"Kerzers","commune":{"key":"2265","name":"Kerzers","shortName":"Kerzers"},"district":{"key":"1005","name":"Bezirk See / District du Lac"},"canton":{"key":"10","code":"FR","name":"Fribourg / Freiburg"},"status":"Real"},{"key":"10021877","name":"Kreuzgasse","postalCode":"3210","locality":"Kerzers","commune":{"key":"2265","name":"Kerzers","shortName":"Kerzers"},"district":{"key":"1005","name":"Bezirk See / District du Lac"},"canton":{"key":"10","code":"FR","name":"Fribourg / Freiburg"},"status":"Real"},{"key":"10086322","name":"Kreuzweg","postalCode":"3216","locality":"Ried b. Kerzers","commune":{"key":"2276","name":"Ried bei Kerzers","shortName":"Ried bei Kerzers"},"district":{"key":"1005","name":"Bezirk See / District du Lac"},"canton":{"key":"10","code":"FR","name":"Fribourg / Freiburg"},"status":"Real"},{"key":"10098220","name":"Krommenmatte","postalCode":"3210","locality":"Kerzers","commune":{"key":"2265","name":"Kerzers","shortName":"Kerzers"},"district":{"key":"1005","name":"Bezirk See / District du Lac"},"canton":{"key":"10","code":"FR","name":"Fribourg / Freiburg"},"status":"Real"},{"key":"10252205","name":"Krümmi","postalCode":"3216","locality":"Ried b. Kerzers","commune":{"key":"2276","name":"Ried bei Kerzers","shortName":"Ried bei Kerzers"},"district":{"key":"1005","name":"Bezirk See / District du Lac"},"canton":{"key":"10","code":"FR","name":"Fribourg / Freiburg"},"status":"Real"},{"key":"10157442","name":"Leimeren","postalCode":"3210","locality":"Kerzers","commune":{"key":"2265","name":"Kerzers","shortName":"Kerzers"},"district":{"key":"1005","name":"Bezirk See / District du Lac"},"canton":{"key":"10","code":"FR","name":"Fribourg / Freiburg"},"status":"Real"},{"key":"10021878","name":"Lindenhof","postalCode":"3210","locality":"Kerzers","commune":{"key":"2265","name":"Kerzers","shortName":"Kerzers"},"district":{"key":"1005","name":"Bezirk See / District du Lac"},"canton":{"key":"10","code":"FR","name":"Fribourg / Freiburg"},"status":"Real"},{"key":"10090475","name":"Lindenhubel","postalCode":"3210","locality":"Kerzers","commune":{"key":"2265","name":"Kerzers","shortName":"Kerzers"},"district":{"key":"1005","name":"Bezirk See / District du Lac"},"canton":{"key":"10","code":"FR","name":"Fribourg / Freiburg"},"status":"Real"},{"key":"10072719","name":"Lindenmätteli","postalCode":"3210","locality":"Kerzers","commune":{"key":"2265","name":"Kerzers","shortName":"Kerzers"},"district":{"key":"1005","name":"Bezirk See / District du Lac"},"canton":{"key":"10","code":"FR","name":"Fribourg / Freiburg"},"status":"Real"},{"key":"10178065","name":"Lindenweg","postalCode":"3216","locality":"Ried b. Kerzers","commune":{"key":"2276","name":"Ried bei Kerzers","shortName":"Ried bei Kerzers"},"district":{"key":"1005","name":"Bezirk See / District du Lac"},"canton":{"key":"10","code":"FR","name":"Fribourg / Freiburg"},"status":"Real"},{"key":"10252237","name":"Lochwald","postalCode":"3216","locality":"Ried b. Kerzers","commune":{"key":"2276","name":"Ried bei Kerzers","shortName":"Ried bei Kerzers"},"district":{"key":"1005","name":"Bezirk See / District du Lac"},"canton":{"key":"10","code":"FR","name":"Fribourg / Freiburg"},"status":"Real"},{"key":"10251878","name":"Moosacher","postalCode":"3210","locality":"Kerzers","commune":{"key":"2265","name":"Kerzers","shortName":"Kerzers"},"district":{"key":"1005","name":"Bezirk See / District du Lac"},"canton":{"key":"10","code":"FR","name":"Fribourg / Freiburg"},"status":"Real"},{"key":"10244630","name":"Moosgartenrain","postalCode":"3210","locality":"Kerzers","commune":{"key":"2265","name":"Kerzers","shortName":"Kerzers"},"district":{"key":"1005","name":"Bezirk See / District du Lac"},"canton":{"key":"10","code":"FR","name":"Fribourg / Freiburg"},"status":"Real"},{"key":"10190037","name":"Moosgasse","postalCode":"3210","locality":"Kerzers","commune":{"key":"2265","name":"Kerzers","shortName":"Kerzers"},"district":{"key":"1005","name":"Bezirk See / District du Lac"},"canton":{"key":"10","code":"FR","name":"Fribourg / Freiburg"},"status":"Real"},{"key":"10022184","name":"Moosgasse","postalCode":"3216","locality":"Ried b. Kerzers","commune":{"key":"2276","name":"Ried bei Kerzers","shortName":"Ried bei Kerzers"},"district":{"key":"1005","name":"Bezirk See / District du Lac"},"canton":{"key":"10","code":"FR","name":"Fribourg / Freiburg"},"status":"Real"},{"key":"10163701","name":"Moosmatte","postalCode":"3210","locality":"Kerzers","commune":{"key":"2265","name":"Kerzers","shortName":"Kerzers"},"district":{"key":"1005","name":"Bezirk See / District du Lac"},"canton":{"key":"10","code":"FR","name":"Fribourg / Freiburg"},"status":"Real"},{"key":"10251881","name":"Morthöwenmatte","postalCode":"3210","locality":"Kerzers","commune":{"key":"2265","name":"Kerzers","shortName":"Kerzers"},"district":{"key":"1005","name":"Bezirk See / District du Lac"},"canton":{"key":"10","code":"FR","name":"Fribourg / Freiburg"},"status":"Real"},{"key":"10072730","name":"Mühlegasse","postalCode":"3210","locality":"Kerzers","commune":{"key":"2265","name":"Kerzers","shortName":"Kerzers"},"district":{"key":"1005","name":"Bezirk See / District du Lac"},"canton":{"key":"10","code":"FR","name":"Fribourg / Freiburg"},"status":"Real"},{"key":"10021879","name":"Mühlegasse","postalCode":"3210","locality":"Kerzers","commune":{"key":"2265","name":"Kerzers","shortName":"Kerzers"},"district":{"key":"1005","name":"Bezirk See / District du Lac"},"canton":{"key":"10","code":"FR","name":"Fribourg / Freiburg"},"status":"Real"},{"key":"10090476","name":"Mühlerain","postalCode":"3210","locality":"Kerzers","commune":{"key":"2265","name":"Kerzers","shortName":"Kerzers"},"district":{"key":"1005","name":"Bezirk See / District du Lac"},"canton":{"key":"10","code":"FR","name":"Fribourg / Freiburg"},"status":"Real"},{"key":"10181095","name":"Murtenstrasse","postalCode":"3210","locality":"Kerzers","commune":{"key":"2265","name":"Kerzers","shortName":"Kerzers"},"district":{"key":"1005","name":"Bezirk See / District du Lac"},"canton":{"key":"10","code":"FR","name":"Fribourg / Freiburg"},"status":"Real"},{"key":"10244351","name":"Murtenstrasse","postalCode":"3216","locality":"Ried b. Kerzers","commune":{"key":"2276","name":"Ried bei Kerzers","shortName":"Ried bei Kerzers"},"district":{"key":"1005","name":"Bezirk See / District du Lac"},"canton":{"key":"10","code":"FR","name":"Fribourg / Freiburg"},"status":"Real"},{"key":"10072720","name":"Neumatte","postalCode":"3210","locality":"Kerzers","commune":{"key":"2265","name":"Kerzers","shortName":"Kerzers"},"district":{"key":"1005","name":"Bezirk See / District du Lac"},"canton":{"key":"10","code":"FR","name":"Fribourg / Freiburg"},"status":"Real"},{"key":"10022185","name":"Neumühle","postalCode":"3210","locality":"Kerzers","commune":{"key":"2265","name":"Kerzers","shortName":"Kerzers"},"district":{"key":"1005","name":"Bezirk See / District du Lac"},"canton":{"key":"10","code":"FR","name":"Fribourg / Freiburg"},"status":"Real"},{"key":"10052143","name":"Niederriedstrasse","postalCode":"3210","locality":"Kerzers","commune":{"key":"2265","name":"Kerzers","shortName":"Kerzers"},"district":{"key":"1005","name":"Bezirk See / District du Lac"},"canton":{"key":"10","code":"FR","name":"Fribourg / Freiburg"},"status":"Real"},{"key":"10122447","name":"Oelegasse","postalCode":"3210","locality":"Kerzers","commune":{"key":"2265","name":"Kerzers","shortName":"Kerzers"},"district":{"key":"1005","name":"Bezirk See / District du Lac"},"canton":{"key":"10","code":"FR","name":"Fribourg / Freiburg"},"status":"Real"},{"key":"10144806","name":"Perrettenweg","postalCode":"3216","locality":"Ried b. Kerzers","commune":{"key":"2276","name":"Ried bei Kerzers","shortName":"Ried bei Kerzers"},"district":{"key":"1005","name":"Bezirk See / District du Lac"},"canton":{"key":"10","code":"FR","name":"Fribourg / Freiburg"},"status":"Real"},{"key":"10056115","name":"Pfisters Reben","postalCode":"3210","locality":"Kerzers","commune":{"key":"2265","name":"Kerzers","shortName":"Kerzers"},"district":{"key":"1005","name":"Bezirk See / District du Lac"},"canton":{"key":"10","code":"FR","name":"Fribourg / Freiburg"},"status":"Real"},{"key":"10086323","name":"Rebacher","postalCode":"3216","locality":"Ried b. Kerzers","commune":{"key":"2276","name":"Ried bei Kerzers","shortName":"Ried bei Kerzers"},"district":{"key":"1005","name":"Bezirk See / District du Lac"},"canton":{"key":"10","code":"FR","name":"Fribourg / Freiburg"},"status":"Real"},{"key":"10021880","name":"Rebackerstrasse","postalCode":"3210","locality":"Kerzers","commune":{"key":"2265","name":"Kerzers","shortName":"Kerzers"},"district":{"key":"1005","name":"Bezirk See / District du Lac"},"canton":{"key":"10","code":"FR","name":"Fribourg / Freiburg"},"status":"Real"},{"key":"10252244","name":"Reben","postalCode":"3216","locality":"Ried b. Kerzers","commune":{"key":"2276","name":"Ried bei Kerzers","shortName":"Ried bei Kerzers"},"district":{"key":"1005","name":"Bezirk See / District du Lac"},"canton":{"key":"10","code":"FR","name":"Fribourg / Freiburg"},"status":"Real"},{"key":"10090477","name":"Rebenstrasse","postalCode":"3210","locality":"Kerzers","commune":{"key":"2265","name":"Kerzers","shortName":"Kerzers"},"district":{"key":"1005","name":"Bezirk See / District du Lac"},"canton":{"key":"10","code":"FR","name":"Fribourg / Freiburg"},"status":"Real"},{"key":"10252248","name":"Riederen","postalCode":"3216","locality":"Ried b. Kerzers","commune":{"key":"2276","name":"Ried bei Kerzers","shortName":"Ried bei Kerzers"},"district":{"key":"1005","name":"Bezirk See / District du Lac"},"canton":{"key":"10","code":"FR","name":"Fribourg / Freiburg"},"status":"Real"},{"key":"10052144","name":"Rosenweg","postalCode":"3210","locality":"Kerzers","commune":{"key":"2265","name":"Kerzers","shortName":"Kerzers"},"district":{"key":"1005","name":"Bezirk See / District du Lac"},"canton":{"key":"10","code":"FR","name":"Fribourg / Freiburg"},"status":"Real"},{"key":"10022186","name":"Rue de Marseille","postalCode":"3216","locality":"Ried b. Kerzers","commune":{"key":"2276","name":"Ried bei Kerzers","shortName":"Ried bei Kerzers"},"district":{"key":"1005","name":"Bezirk See / District du Lac"},"canton":{"key":"10","code":"FR","name":"Fribourg / Freiburg"},"status":"Real"},{"key":"10072990","name":"Ruhrgasse","postalCode":"3210","locality":"Kerzers","commune":{"key":"2265","name":"Kerzers","shortName":"Kerzers"},"district":{"key":"1005","name":"Bezirk See / District du Lac"},"canton":{"key":"10","code":"FR","name":"Fribourg / Freiburg"},"status":"Real"},{"key":"10021881","name":"Rüschell","postalCode":"3210","locality":"Kerzers","commune":{"key":"2265","name":"Kerzers","shortName":"Kerzers"},"district":{"key":"1005","name":"Bezirk See / District du Lac"},"canton":{"key":"10","code":"FR","name":"Fribourg / Freiburg"},"status":"Real"},{"key":"10022187","name":"Sägismattstrasse","postalCode":"3216","locality":"Ried b. Kerzers","commune":{"key":"2276","name":"Ried bei Kerzers","shortName":"Ried bei Kerzers"},"district":{"key":"1005","name":"Bezirk See / District du Lac"},"canton":{"key":"10","code":"FR","name":"Fribourg / Freiburg"},"status":"Real"},{"key":"10098175","name":"Scheuerackerweg","postalCode":"3210","locality":"Kerzers","commune":{"key":"2265","name":"Kerzers","shortName":"Kerzers"},"district":{"key":"1005","name":"Bezirk See / District du Lac"},"canton":{"key":"10","code":"FR","name":"Fribourg / Freiburg"},"status":"Real"},{"key":"10252251","name":"Schnäggehus","postalCode":"3216","locality":"Ried b. Kerzers","commune":{"key":"2276","name":"Ried bei Kerzers","shortName":"Ried bei Kerzers"},"district":{"key":"1005","name":"Bezirk See / District du Lac"},"canton":{"key":"10","code":"FR","name":"Fribourg / Freiburg"},"status":"Real"},{"key":"10086324","name":"Schulhausgässli","postalCode":"3216","locality":"Ried b. Kerzers","commune":{"key":"2276","name":"Ried bei Kerzers","shortName":"Ried bei Kerzers"},"district":{"key":"1005","name":"Bezirk See / District du Lac"},"canton":{"key":"10","code":"FR","name":"Fribourg / Freiburg"},"status":"Real"},{"key":"10021882","name":"Schulhausstrasse","postalCode":"3210","locality":"Kerzers","commune":{"key":"2265","name":"Kerzers","shortName":"Kerzers"},"district":{"key":"1005","name":"Bezirk See / District du Lac"},"canton":{"key":"10","code":"FR","name":"Fribourg / Freiburg"},"status":"Real"},{"key":"10188372","name":"Schützenhausweg","postalCode":"3216","locality":"Ried b. Kerzers","commune":{"key":"2276","name":"Ried bei Kerzers","shortName":"Ried bei Kerzers"},"district":{"key":"1005","name":"Bezirk See / District du Lac"},"canton":{"key":"10","code":"FR","name":"Fribourg / Freiburg"},"status":"Real"},{"key":"10251886","name":"Schwimmbadweg","postalCode":"3210","locality":"Kerzers","commune":{"key":"2265","name":"Kerzers","shortName":"Kerzers"},"district":{"key":"1005","name":"Bezirk See / District du Lac"},"canton":{"key":"10","code":"FR","name":"Fribourg / Freiburg"},"status":"Real"},{"key":"10090478","name":"Schwirrbogenweg","postalCode":"3210","locality":"Kerzers","commune":{"key":"2265","name":"Kerzers","shortName":"Kerzers"},"district":{"key":"1005","name":"Bezirk See / District du Lac"},"canton":{"key":"10","code":"FR","name":"Fribourg / Freiburg"},"status":"Real"},{"key":"10196389","name":"Seelandweg","postalCode":"3210","locality":"Kerzers","commune":{"key":"2265","name":"Kerzers","shortName":"Kerzers"},"district":{"key":"1005","name":"Bezirk See / District du Lac"},"canton":{"key":"10","code":"FR","name":"Fribourg / Freiburg"},"status":"Real"},{"key":"10021883","name":"Silberbrünnen","postalCode":"3210","locality":"Kerzers","commune":{"key":"2265","name":"Kerzers","shortName":"Kerzers"},"district":{"key":"1005","name":"Bezirk See / District du Lac"},"canton":{"key":"10","code":"FR","name":"Fribourg / Freiburg"},"status":"Real"},{"key":"10021884","name":"Sonnhaldenstrasse","postalCode":"3210","locality":"Kerzers","commune":{"key":"2265","name":"Kerzers","shortName":"Kerzers"},"district":{"key":"1005","name":"Bezirk See / District du Lac"},"canton":{"key":"10","code":"FR","name":"Fribourg / Freiburg"},"status":"Real"},{"key":"10059234","name":"Stämpflishäusern","postalCode":"3210","locality":"Kerzers","commune":{"key":"2265","name":"Kerzers","shortName":"Kerzers"},"district":{"key":"1005","name":"Bezirk See / District du Lac"},"canton":{"key":"10","code":"FR","name":"Fribourg / Freiburg"},"status":"Real"},{"key":"10098221","name":"Steindleren","postalCode":"3210","locality":"Kerzers","commune":{"key":"2265","name":"Kerzers","shortName":"Kerzers"},"district":{"key":"1005","name":"Bezirk See / District du Lac"},"canton":{"key":"10","code":"FR","name":"Fribourg / Freiburg"},"status":"Real"},{"key":"10251893","name":"Steindlerenweg","postalCode":"3210","locality":"Kerzers","commune":{"key":"2265","name":"Kerzers","shortName":"Kerzers"},"district":{"key":"1005","name":"Bezirk See / District du Lac"},"canton":{"key":"10","code":"FR","name":"Fribourg / Freiburg"},"status":"Real"},{"key":"10244623","name":"Stöckenteilen","postalCode":"3210","locality":"Kerzers","commune":{"key":"2265","name":"Kerzers","shortName":"Kerzers"},"district":{"key":"1005","name":"Bezirk See / District du Lac"},"canton":{"key":"10","code":"FR","name":"Fribourg / Freiburg"},"status":"Real"},{"key":"10169899","name":"Sunnenberg","postalCode":"3210","locality":"Kerzers","commune":{"key":"2265","name":"Kerzers","shortName":"Kerzers"},"district":{"key":"1005","name":"Bezirk See / District du Lac"},"canton":{"key":"10","code":"FR","name":"Fribourg / Freiburg"},"status":"Real"},{"key":"10252255","name":"Sutermoos","postalCode":"3216","locality":"Ried b. Kerzers","commune":{"key":"2276","name":"Ried bei Kerzers","shortName":"Ried bei Kerzers"},"district":{"key":"1005","name":"Bezirk See / District du Lac"},"canton":{"key":"10","code":"FR","name":"Fribourg / Freiburg"},"status":"Real"},{"key":"10021885","name":"Teilen","postalCode":"3210","locality":"Kerzers","commune":{"key":"2265","name":"Kerzers","shortName":"Kerzers"},"district":{"key":"1005","name":"Bezirk See / District du Lac"},"canton":{"key":"10","code":"FR","name":"Fribourg / Freiburg"},"status":"Real"},{"key":"10090479","name":"Treitenstrasse","postalCode":"3210","locality":"Kerzers","commune":{"key":"2265","name":"Kerzers","shortName":"Kerzers"},"district":{"key":"1005","name":"Bezirk See / District du Lac"},"canton":{"key":"10","code":"FR","name":"Fribourg / Freiburg"},"status":"Real"},{"key":"10252258","name":"Unteri Röschere","postalCode":"3216","locality":"Ried b. Kerzers","commune":{"key":"2276","name":"Ried bei Kerzers","shortName":"Ried bei Kerzers"},"district":{"key":"1005","name":"Bezirk See / District du Lac"},"canton":{"key":"10","code":"FR","name":"Fribourg / Freiburg"},"status":"Real"},{"key":"10181096","name":"Unterwerk","postalCode":"3210","locality":"Kerzers","commune":{"key":"2265","name":"Kerzers","shortName":"Kerzers"},"district":{"key":"1005","name":"Bezirk See / District du Lac"},"canton":{"key":"10","code":"FR","name":"Fribourg / Freiburg"},"status":"Real"},{"key":"10072991","name":"Vennerstrasse","postalCode":"3210","locality":"Kerzers","commune":{"key":"2265","name":"Kerzers","shortName":"Kerzers"},"district":{"key":"1005","name":"Bezirk See / District du Lac"},"canton":{"key":"10","code":"FR","name":"Fribourg / Freiburg"},"status":"Real"},{"key":"10021886","name":"Vordere Gasse","postalCode":"3210","locality":"Kerzers","commune":{"key":"2265","name":"Kerzers","shortName":"Kerzers"},"district":{"key":"1005","name":"Bezirk See / District du Lac"},"canton":{"key":"10","code":"FR","name":"Fribourg / Freiburg"},"status":"Real"},{"key":"10171710","name":"Vordere Gümmi","postalCode":"3210","locality":"Kerzers","commune":{"key":"2265","name":"Kerzers","shortName":"Kerzers"},"district":{"key":"1005","name":"Bezirk See / District du Lac"},"canton":{"key":"10","code":"FR","name":"Fribourg / Freiburg"},"status":"Real"},{"key":"10251897","name":"Wasserschwäbi","postalCode":"3210","locality":"Kerzers","commune":{"key":"2265","name":"Kerzers","shortName":"Kerzers"},"district":{"key":"1005","name":"Bezirk See / District du Lac"},"canton":{"key":"10","code":"FR","name":"Fribourg / Freiburg"},"status":"Real"},{"key":"10110367","name":"Widacker","postalCode":"3210","locality":"Kerzers","commune":{"key":"2265","name":"Kerzers","shortName":"Kerzers"},"district":{"key":"1005","name":"Bezirk See / District du Lac"},"canton":{"key":"10","code":"FR","name":"Fribourg / Freiburg"},"status":"Real"},{"key":"10022188","name":"Widalmi","postalCode":"3216","locality":"Ried b. Kerzers","commune":{"key":"2276","name":"Ried bei Kerzers","shortName":"Ried bei Kerzers"},"district":{"key":"1005","name":"Bezirk See / District du Lac"},"canton":{"key":"10","code":"FR","name":"Fribourg / Freiburg"},"status":"Real"},{"key":"10021887","name":"Wilergasse","postalCode":"3210","locality":"Kerzers","commune":{"key":"2265","name":"Kerzers","shortName":"Kerzers"},"district":{"key":"1005","name":"Bezirk See / District du Lac"},"canton":{"key":"10","code":"FR","name":"Fribourg / Freiburg"},"status":"Real"},{"key":"10090480","name":"Wolfackerstrasse","postalCode":"3210","locality":"Kerzers","commune":{"key":"2265","name":"Kerzers","shortName":"Kerzers"},"district":{"key":"1005","name":"Bezirk See / District du Lac"},"canton":{"key":"10","code":"FR","name":"Fribourg / Freiburg"},"status":"Real"},{"key":"10188369","name":"Wolfberg","postalCode":"3210","locality":"Kerzers","commune":{"key":"2265","name":"Kerzers","shortName":"Kerzers"},"district":{"key":"1005","name":"Bezirk See / District du Lac"},"canton":{"key":"10","code":"FR","name":"Fribourg / Freiburg"},"status":"Real"},]