[{"name":"Aichacher Str.","postalCode":"85302","locality":"Gerolsbach","municipality":{"key":"09186125","name":"Gerolsbach","type":"Kreisangehörige_Gemeinde"},"district":{"key":"09186","name":"Pfaffenhofen a.d.Ilm","type":"Landkreis"},"federalState":{"key":"09","name":"Bayern"}},{"name":"Aichmühle","postalCode":"85302","locality":"Gerolsbach","municipality":{"key":"09186125","name":"Gerolsbach","type":"Kreisangehörige_Gemeinde"},"district":{"key":"09186","name":"Pfaffenhofen a.d.Ilm","type":"Landkreis"},"federalState":{"key":"09","name":"Bayern"}},{"name":"Alberzeller Str.","postalCode":"85302","locality":"Gerolsbach","municipality":{"key":"09186125","name":"Gerolsbach","type":"Kreisangehörige_Gemeinde"},"district":{"key":"09186","name":"Pfaffenhofen a.d.Ilm","type":"Landkreis"},"federalState":{"key":"09","name":"Bayern"}},{"name":"Am alten Sportplatz","postalCode":"85302","locality":"Gerolsbach","municipality":{"key":"09186125","name":"Gerolsbach","type":"Kreisangehörige_Gemeinde"},"district":{"key":"09186","name":"Pfaffenhofen a.d.Ilm","type":"Landkreis"},"federalState":{"key":"09","name":"Bayern"}},{"name":"Am Eichet","postalCode":"85302","locality":"Gerolsbach","municipality":{"key":"09186125","name":"Gerolsbach","type":"Kreisangehörige_Gemeinde"},"district":{"key":"09186","name":"Pfaffenhofen a.d.Ilm","type":"Landkreis"},"federalState":{"key":"09","name":"Bayern"}},{"name":"Am Hang","postalCode":"85302","locality":"Gerolsbach","municipality":{"key":"09186125","name":"Gerolsbach","type":"Kreisangehörige_Gemeinde"},"district":{"key":"09186","name":"Pfaffenhofen a.d.Ilm","type":"Landkreis"},"federalState":{"key":"09","name":"Bayern"}},{"name":"Am Hochweg","postalCode":"85302","locality":"Gerolsbach","municipality":{"key":"09186125","name":"Gerolsbach","type":"Kreisangehörige_Gemeinde"},"district":{"key":"09186","name":"Pfaffenhofen a.d.Ilm","type":"Landkreis"},"federalState":{"key":"09","name":"Bayern"}},{"name":"Am Rösfeld","postalCode":"85302","locality":"Gerolsbach","municipality":{"key":"09186125","name":"Gerolsbach","type":"Kreisangehörige_Gemeinde"},"district":{"key":"09186","name":"Pfaffenhofen a.d.Ilm","type":"Landkreis"},"federalState":{"key":"09","name":"Bayern"}},{"name":"Am Wirtsanger","postalCode":"85302","locality":"Gerolsbach","municipality":{"key":"09186125","name":"Gerolsbach","type":"Kreisangehörige_Gemeinde"},"district":{"key":"09186","name":"Pfaffenhofen a.d.Ilm","type":"Landkreis"},"federalState":{"key":"09","name":"Bayern"}},{"name":"Asternstr.","postalCode":"85302","locality":"Gerolsbach","municipality":{"key":"09186125","name":"Gerolsbach","type":"Kreisangehörige_Gemeinde"},"district":{"key":"09186","name":"Pfaffenhofen a.d.Ilm","type":"Landkreis"},"federalState":{"key":"09","name":"Bayern"}},{"name":"Auf der Höh","postalCode":"85302","locality":"Gerolsbach","municipality":{"key":"09186125","name":"Gerolsbach","type":"Kreisangehörige_Gemeinde"},"district":{"key":"09186","name":"Pfaffenhofen a.d.Ilm","type":"Landkreis"},"federalState":{"key":"09","name":"Bayern"}},{"name":"Bachwiesen","postalCode":"85302","locality":"Gerolsbach","municipality":{"key":"09186125","name":"Gerolsbach","type":"Kreisangehörige_Gemeinde"},"district":{"key":"09186","name":"Pfaffenhofen a.d.Ilm","type":"Landkreis"},"federalState":{"key":"09","name":"Bayern"}},{"name":"Bauhofstr.","postalCode":"85302","locality":"Gerolsbach","municipality":{"key":"09186125","name":"Gerolsbach","type":"Kreisangehörige_Gemeinde"},"district":{"key":"09186","name":"Pfaffenhofen a.d.Ilm","type":"Landkreis"},"federalState":{"key":"09","name":"Bayern"}},{"name":"Bergstr.","postalCode":"85302","locality":"Gerolsbach","municipality":{"key":"09186125","name":"Gerolsbach","type":"Kreisangehörige_Gemeinde"},"district":{"key":"09186","name":"Pfaffenhofen a.d.Ilm","type":"Landkreis"},"federalState":{"key":"09","name":"Bayern"}},{"name":"Birkenweg","postalCode":"85302","locality":"Gerolsbach","municipality":{"key":"09186125","name":"Gerolsbach","type":"Kreisangehörige_Gemeinde"},"district":{"key":"09186","name":"Pfaffenhofen a.d.Ilm","type":"Landkreis"},"federalState":{"key":"09","name":"Bayern"}},{"name":"Brünnlfeldstr.","postalCode":"85302","locality":"Gerolsbach","municipality":{"key":"09186125","name":"Gerolsbach","type":"Kreisangehörige_Gemeinde"},"district":{"key":"09186","name":"Pfaffenhofen a.d.Ilm","type":"Landkreis"},"federalState":{"key":"09","name":"Bayern"}},{"name":"Dorfstr.","postalCode":"85302","locality":"Gerolsbach","municipality":{"key":"09186125","name":"Gerolsbach","type":"Kreisangehörige_Gemeinde"},"district":{"key":"09186","name":"Pfaffenhofen a.d.Ilm","type":"Landkreis"},"federalState":{"key":"09","name":"Bayern"}},{"name":"Drei-Linden-Str.","postalCode":"85302","locality":"Gerolsbach","municipality":{"key":"09186125","name":"Gerolsbach","type":"Kreisangehörige_Gemeinde"},"district":{"key":"09186","name":"Pfaffenhofen a.d.Ilm","type":"Landkreis"},"federalState":{"key":"09","name":"Bayern"}},{"name":"Durchschlacht","postalCode":"85302","locality":"Gerolsbach","municipality":{"key":"09186125","name":"Gerolsbach","type":"Kreisangehörige_Gemeinde"},"district":{"key":"09186","name":"Pfaffenhofen a.d.Ilm","type":"Landkreis"},"federalState":{"key":"09","name":"Bayern"}},{"name":"Eggerner-Feld","postalCode":"85302","locality":"Gerolsbach","municipality":{"key":"09186125","name":"Gerolsbach","type":"Kreisangehörige_Gemeinde"},"district":{"key":"09186","name":"Pfaffenhofen a.d.Ilm","type":"Landkreis"},"federalState":{"key":"09","name":"Bayern"}},{"name":"Eichenrieder Str.","postalCode":"85302","locality":"Gerolsbach","municipality":{"key":"09186125","name":"Gerolsbach","type":"Kreisangehörige_Gemeinde"},"district":{"key":"09186","name":"Pfaffenhofen a.d.Ilm","type":"Landkreis"},"federalState":{"key":"09","name":"Bayern"}},{"name":"Fasanenweg","postalCode":"85302","locality":"Gerolsbach","municipality":{"key":"09186125","name":"Gerolsbach","type":"Kreisangehörige_Gemeinde"},"district":{"key":"09186","name":"Pfaffenhofen a.d.Ilm","type":"Landkreis"},"federalState":{"key":"09","name":"Bayern"}},{"name":"Fichtenweg","postalCode":"85302","locality":"Gerolsbach","municipality":{"key":"09186125","name":"Gerolsbach","type":"Kreisangehörige_Gemeinde"},"district":{"key":"09186","name":"Pfaffenhofen a.d.Ilm","type":"Landkreis"},"federalState":{"key":"09","name":"Bayern"}},{"name":"Flachsweg","postalCode":"85302","locality":"Gerolsbach","municipality":{"key":"09186125","name":"Gerolsbach","type":"Kreisangehörige_Gemeinde"},"district":{"key":"09186","name":"Pfaffenhofen a.d.Ilm","type":"Landkreis"},"federalState":{"key":"09","name":"Bayern"}},{"name":"Fliederstr.","postalCode":"85302","locality":"Gerolsbach","municipality":{"key":"09186125","name":"Gerolsbach","type":"Kreisangehörige_Gemeinde"},"district":{"key":"09186","name":"Pfaffenhofen a.d.Ilm","type":"Landkreis"},"federalState":{"key":"09","name":"Bayern"}},{"name":"Flurweg","postalCode":"85302","locality":"Gerolsbach","municipality":{"key":"09186125","name":"Gerolsbach","type":"Kreisangehörige_Gemeinde"},"district":{"key":"09186","name":"Pfaffenhofen a.d.Ilm","type":"Landkreis"},"federalState":{"key":"09","name":"Bayern"}},{"name":"Forstweg","postalCode":"85302","locality":"Gerolsbach","municipality":{"key":"09186125","name":"Gerolsbach","type":"Kreisangehörige_Gemeinde"},"district":{"key":"09186","name":"Pfaffenhofen a.d.Ilm","type":"Landkreis"},"federalState":{"key":"09","name":"Bayern"}},{"name":"Frühlingstr.","postalCode":"85302","locality":"Gerolsbach","municipality":{"key":"09186125","name":"Gerolsbach","type":"Kreisangehörige_Gemeinde"},"district":{"key":"09186","name":"Pfaffenhofen a.d.Ilm","type":"Landkreis"},"federalState":{"key":"09","name":"Bayern"}},{"name":"Gernfeldstr.","postalCode":"85302","locality":"Gerolsbach","municipality":{"key":"09186125","name":"Gerolsbach","type":"Kreisangehörige_Gemeinde"},"district":{"key":"09186","name":"Pfaffenhofen a.d.Ilm","type":"Landkreis"},"federalState":{"key":"09","name":"Bayern"}},{"name":"Hanfweg","postalCode":"85302","locality":"Gerolsbach","municipality":{"key":"09186125","name":"Gerolsbach","type":"Kreisangehörige_Gemeinde"},"district":{"key":"09186","name":"Pfaffenhofen a.d.Ilm","type":"Landkreis"},"federalState":{"key":"09","name":"Bayern"}},{"name":"Hauptstr.","postalCode":"85302","locality":"Gerolsbach","municipality":{"key":"09186125","name":"Gerolsbach","type":"Kreisangehörige_Gemeinde"},"district":{"key":"09186","name":"Pfaffenhofen a.d.Ilm","type":"Landkreis"},"federalState":{"key":"09","name":"Bayern"}},{"name":"Herzogstr.","postalCode":"85302","locality":"Gerolsbach","municipality":{"key":"09186125","name":"Gerolsbach","type":"Kreisangehörige_Gemeinde"},"district":{"key":"09186","name":"Pfaffenhofen a.d.Ilm","type":"Landkreis"},"federalState":{"key":"09","name":"Bayern"}},{"name":"Hochstr.","postalCode":"85302","locality":"Gerolsbach","municipality":{"key":"09186125","name":"Gerolsbach","type":"Kreisangehörige_Gemeinde"},"district":{"key":"09186","name":"Pfaffenhofen a.d.Ilm","type":"Landkreis"},"federalState":{"key":"09","name":"Bayern"}},{"name":"Hofmark","postalCode":"85302","locality":"Gerolsbach","municipality":{"key":"09186125","name":"Gerolsbach","type":"Kreisangehörige_Gemeinde"},"district":{"key":"09186","name":"Pfaffenhofen a.d.Ilm","type":"Landkreis"},"federalState":{"key":"09","name":"Bayern"}},{"name":"Hofmarkstr.","postalCode":"85302","locality":"Gerolsbach","municipality":{"key":"09186125","name":"Gerolsbach","type":"Kreisangehörige_Gemeinde"},"district":{"key":"09186","name":"Pfaffenhofen a.d.Ilm","type":"Landkreis"},"federalState":{"key":"09","name":"Bayern"}},{"name":"Jahnstr.","postalCode":"85302","locality":"Gerolsbach","municipality":{"key":"09186125","name":"Gerolsbach","type":"Kreisangehörige_Gemeinde"},"district":{"key":"09186","name":"Pfaffenhofen a.d.Ilm","type":"Landkreis"},"federalState":{"key":"09","name":"Bayern"}},{"name":"Kapellenweg","postalCode":"85302","locality":"Gerolsbach","municipality":{"key":"09186125","name":"Gerolsbach","type":"Kreisangehörige_Gemeinde"},"district":{"key":"09186","name":"Pfaffenhofen a.d.Ilm","type":"Landkreis"},"federalState":{"key":"09","name":"Bayern"}},{"name":"Karlstr.","postalCode":"85302","locality":"Gerolsbach","municipality":{"key":"09186125","name":"Gerolsbach","type":"Kreisangehörige_Gemeinde"},"district":{"key":"09186","name":"Pfaffenhofen a.d.Ilm","type":"Landkreis"},"federalState":{"key":"09","name":"Bayern"}},{"name":"Kastanienweg","postalCode":"85302","locality":"Gerolsbach","municipality":{"key":"09186125","name":"Gerolsbach","type":"Kreisangehörige_Gemeinde"},"district":{"key":"09186","name":"Pfaffenhofen a.d.Ilm","type":"Landkreis"},"federalState":{"key":"09","name":"Bayern"}},{"name":"Kirchweg","postalCode":"85302","locality":"Gerolsbach","municipality":{"key":"09186125","name":"Gerolsbach","type":"Kreisangehörige_Gemeinde"},"district":{"key":"09186","name":"Pfaffenhofen a.d.Ilm","type":"Landkreis"},"federalState":{"key":"09","name":"Bayern"}},{"name":"Kleinfeldstr.","postalCode":"85302","locality":"Gerolsbach","municipality":{"key":"09186125","name":"Gerolsbach","type":"Kreisangehörige_Gemeinde"},"district":{"key":"09186","name":"Pfaffenhofen a.d.Ilm","type":"Landkreis"},"federalState":{"key":"09","name":"Bayern"}},{"name":"Klenauer Str.","postalCode":"85302","locality":"Gerolsbach","municipality":{"key":"09186125","name":"Gerolsbach","type":"Kreisangehörige_Gemeinde"},"district":{"key":"09186","name":"Pfaffenhofen a.d.Ilm","type":"Landkreis"},"federalState":{"key":"09","name":"Bayern"}},{"name":"Lindenstr.","postalCode":"85302","locality":"Gerolsbach","municipality":{"key":"09186125","name":"Gerolsbach","type":"Kreisangehörige_Gemeinde"},"district":{"key":"09186","name":"Pfaffenhofen a.d.Ilm","type":"Landkreis"},"federalState":{"key":"09","name":"Bayern"}},{"name":"Ludwigstr.","postalCode":"85302","locality":"Gerolsbach","municipality":{"key":"09186125","name":"Gerolsbach","type":"Kreisangehörige_Gemeinde"},"district":{"key":"09186","name":"Pfaffenhofen a.d.Ilm","type":"Landkreis"},"federalState":{"key":"09","name":"Bayern"}},{"name":"Marienstr.","postalCode":"85302","locality":"Gerolsbach","municipality":{"key":"09186125","name":"Gerolsbach","type":"Kreisangehörige_Gemeinde"},"district":{"key":"09186","name":"Pfaffenhofen a.d.Ilm","type":"Landkreis"},"federalState":{"key":"09","name":"Bayern"}},{"name":"Marsstr.","postalCode":"85302","locality":"Gerolsbach","municipality":{"key":"09186125","name":"Gerolsbach","type":"Kreisangehörige_Gemeinde"},"district":{"key":"09186","name":"Pfaffenhofen a.d.Ilm","type":"Landkreis"},"federalState":{"key":"09","name":"Bayern"}},{"name":"Mitterfeldweg","postalCode":"85302","locality":"Gerolsbach","municipality":{"key":"09186125","name":"Gerolsbach","type":"Kreisangehörige_Gemeinde"},"district":{"key":"09186","name":"Pfaffenhofen a.d.Ilm","type":"Landkreis"},"federalState":{"key":"09","name":"Bayern"}},{"name":"Münchener Str.","postalCode":"85302","locality":"Gerolsbach","municipality":{"key":"09186125","name":"Gerolsbach","type":"Kreisangehörige_Gemeinde"},"district":{"key":"09186","name":"Pfaffenhofen a.d.Ilm","type":"Landkreis"},"federalState":{"key":"09","name":"Bayern"}},{"name":"Narzissenstr.","postalCode":"85302","locality":"Gerolsbach","municipality":{"key":"09186125","name":"Gerolsbach","type":"Kreisangehörige_Gemeinde"},"district":{"key":"09186","name":"Pfaffenhofen a.d.Ilm","type":"Landkreis"},"federalState":{"key":"09","name":"Bayern"}},{"name":"Nelkenstr.","postalCode":"85302","locality":"Gerolsbach","municipality":{"key":"09186125","name":"Gerolsbach","type":"Kreisangehörige_Gemeinde"},"district":{"key":"09186","name":"Pfaffenhofen a.d.Ilm","type":"Landkreis"},"federalState":{"key":"09","name":"Bayern"}},{"name":"Orionstr.","postalCode":"85302","locality":"Gerolsbach","municipality":{"key":"09186125","name":"Gerolsbach","type":"Kreisangehörige_Gemeinde"},"district":{"key":"09186","name":"Pfaffenhofen a.d.Ilm","type":"Landkreis"},"federalState":{"key":"09","name":"Bayern"}},{"name":"Ortsstr.","postalCode":"85302","locality":"Gerolsbach","municipality":{"key":"09186125","name":"Gerolsbach","type":"Kreisangehörige_Gemeinde"},"district":{"key":"09186","name":"Pfaffenhofen a.d.Ilm","type":"Landkreis"},"federalState":{"key":"09","name":"Bayern"}},{"name":"Panoramablick","postalCode":"85302","locality":"Gerolsbach","municipality":{"key":"09186125","name":"Gerolsbach","type":"Kreisangehörige_Gemeinde"},"district":{"key":"09186","name":"Pfaffenhofen a.d.Ilm","type":"Landkreis"},"federalState":{"key":"09","name":"Bayern"}},{"name":"Petershausener Str.","postalCode":"85302","locality":"Gerolsbach","municipality":{"key":"09186125","name":"Gerolsbach","type":"Kreisangehörige_Gemeinde"},"district":{"key":"09186","name":"Pfaffenhofen a.d.Ilm","type":"Landkreis"},"federalState":{"key":"09","name":"Bayern"}},{"name":"Pfaffenhofener Str.","postalCode":"85302","locality":"Gerolsbach","municipality":{"key":"09186125","name":"Gerolsbach","type":"Kreisangehörige_Gemeinde"},"district":{"key":"09186","name":"Pfaffenhofen a.d.Ilm","type":"Landkreis"},"federalState":{"key":"09","name":"Bayern"}},{"name":"Propsteistr.","postalCode":"85302","locality":"Gerolsbach","municipality":{"key":"09186125","name":"Gerolsbach","type":"Kreisangehörige_Gemeinde"},"district":{"key":"09186","name":"Pfaffenhofen a.d.Ilm","type":"Landkreis"},"federalState":{"key":"09","name":"Bayern"}},{"name":"Raiffeisenstr.","postalCode":"85302","locality":"Gerolsbach","municipality":{"key":"09186125","name":"Gerolsbach","type":"Kreisangehörige_Gemeinde"},"district":{"key":"09186","name":"Pfaffenhofen a.d.Ilm","type":"Landkreis"},"federalState":{"key":"09","name":"Bayern"}},{"name":"Riederner Äcker","postalCode":"85302","locality":"Gerolsbach","municipality":{"key":"09186125","name":"Gerolsbach","type":"Kreisangehörige_Gemeinde"},"district":{"key":"09186","name":"Pfaffenhofen a.d.Ilm","type":"Landkreis"},"federalState":{"key":"09","name":"Bayern"}},{"name":"Ringstr.","postalCode":"85302","locality":"Gerolsbach","municipality":{"key":"09186125","name":"Gerolsbach","type":"Kreisangehörige_Gemeinde"},"district":{"key":"09186","name":"Pfaffenhofen a.d.Ilm","type":"Landkreis"},"federalState":{"key":"09","name":"Bayern"}},{"name":"Rosenstr.","postalCode":"85302","locality":"Gerolsbach","municipality":{"key":"09186125","name":"Gerolsbach","type":"Kreisangehörige_Gemeinde"},"district":{"key":"09186","name":"Pfaffenhofen a.d.Ilm","type":"Landkreis"},"federalState":{"key":"09","name":"Bayern"}},{"name":"Roßweg","postalCode":"85302","locality":"Gerolsbach","municipality":{"key":"09186125","name":"Gerolsbach","type":"Kreisangehörige_Gemeinde"},"district":{"key":"09186","name":"Pfaffenhofen a.d.Ilm","type":"Landkreis"},"federalState":{"key":"09","name":"Bayern"}},{"name":"Sankt-Andreas-Str.","postalCode":"85302","locality":"Gerolsbach","municipality":{"key":"09186125","name":"Gerolsbach","type":"Kreisangehörige_Gemeinde"},"district":{"key":"09186","name":"Pfaffenhofen a.d.Ilm","type":"Landkreis"},"federalState":{"key":"09","name":"Bayern"}},{"name":"Sankt-Leonhard-Str.","postalCode":"85302","locality":"Gerolsbach","municipality":{"key":"09186125","name":"Gerolsbach","type":"Kreisangehörige_Gemeinde"},"district":{"key":"09186","name":"Pfaffenhofen a.d.Ilm","type":"Landkreis"},"federalState":{"key":"09","name":"Bayern"}},{"name":"Schrobenhausener Str.","postalCode":"85302","locality":"Gerolsbach","municipality":{"key":"09186125","name":"Gerolsbach","type":"Kreisangehörige_Gemeinde"},"district":{"key":"09186","name":"Pfaffenhofen a.d.Ilm","type":"Landkreis"},"federalState":{"key":"09","name":"Bayern"}},{"name":"Schulstr.","postalCode":"85302","locality":"Gerolsbach","municipality":{"key":"09186125","name":"Gerolsbach","type":"Kreisangehörige_Gemeinde"},"district":{"key":"09186","name":"Pfaffenhofen a.d.Ilm","type":"Landkreis"},"federalState":{"key":"09","name":"Bayern"}},{"name":"Schulweg","postalCode":"85302","locality":"Gerolsbach","municipality":{"key":"09186125","name":"Gerolsbach","type":"Kreisangehörige_Gemeinde"},"district":{"key":"09186","name":"Pfaffenhofen a.d.Ilm","type":"Landkreis"},"federalState":{"key":"09","name":"Bayern"}},{"name":"Sonnenstr.","postalCode":"85302","locality":"Gerolsbach","municipality":{"key":"09186125","name":"Gerolsbach","type":"Kreisangehörige_Gemeinde"},"district":{"key":"09186","name":"Pfaffenhofen a.d.Ilm","type":"Landkreis"},"federalState":{"key":"09","name":"Bayern"}},{"name":"Sonnleitenring","postalCode":"85302","locality":"Gerolsbach","municipality":{"key":"09186125","name":"Gerolsbach","type":"Kreisangehörige_Gemeinde"},"district":{"key":"09186","name":"Pfaffenhofen a.d.Ilm","type":"Landkreis"},"federalState":{"key":"09","name":"Bayern"}},{"name":"Steinleiten","postalCode":"85302","locality":"Gerolsbach","municipality":{"key":"09186125","name":"Gerolsbach","type":"Kreisangehörige_Gemeinde"},"district":{"key":"09186","name":"Pfaffenhofen a.d.Ilm","type":"Landkreis"},"federalState":{"key":"09","name":"Bayern"}},{"name":"St. Leonhard Str.","postalCode":"85302","locality":"Gerolsbach","municipality":{"key":"09186125","name":"Gerolsbach","type":"Kreisangehörige_Gemeinde"},"district":{"key":"09186","name":"Pfaffenhofen a.d.Ilm","type":"Landkreis"},"federalState":{"key":"09","name":"Bayern"}},{"name":"Straßäcker","postalCode":"85302","locality":"Gerolsbach","municipality":{"key":"09186125","name":"Gerolsbach","type":"Kreisangehörige_Gemeinde"},"district":{"key":"09186","name":"Pfaffenhofen a.d.Ilm","type":"Landkreis"},"federalState":{"key":"09","name":"Bayern"}},{"name":"Tulpenstr.","postalCode":"85302","locality":"Gerolsbach","municipality":{"key":"09186125","name":"Gerolsbach","type":"Kreisangehörige_Gemeinde"},"district":{"key":"09186","name":"Pfaffenhofen a.d.Ilm","type":"Landkreis"},"federalState":{"key":"09","name":"Bayern"}},{"name":"Waizenrieder Str.","postalCode":"85302","locality":"Gerolsbach","municipality":{"key":"09186125","name":"Gerolsbach","type":"Kreisangehörige_Gemeinde"},"district":{"key":"09186","name":"Pfaffenhofen a.d.Ilm","type":"Landkreis"},"federalState":{"key":"09","name":"Bayern"}},{"name":"Waldweg","postalCode":"85302","locality":"Gerolsbach","municipality":{"key":"09186125","name":"Gerolsbach","type":"Kreisangehörige_Gemeinde"},"district":{"key":"09186","name":"Pfaffenhofen a.d.Ilm","type":"Landkreis"},"federalState":{"key":"09","name":"Bayern"}},{"name":"Wilhelmstr.","postalCode":"85302","locality":"Gerolsbach","municipality":{"key":"09186125","name":"Gerolsbach","type":"Kreisangehörige_Gemeinde"},"district":{"key":"09186","name":"Pfaffenhofen a.d.Ilm","type":"Landkreis"},"federalState":{"key":"09","name":"Bayern"}},{"name":"Zaderfeldstr.","postalCode":"85302","locality":"Gerolsbach","municipality":{"key":"09186125","name":"Gerolsbach","type":"Kreisangehörige_Gemeinde"},"district":{"key":"09186","name":"Pfaffenhofen a.d.Ilm","type":"Landkreis"},"federalState":{"key":"09","name":"Bayern"}},]