[{"name":"Albert-Schweitzer-Str.","postalCode":"61206","locality":"Wöllstadt","municipality":{"key":"06440025","name":"Wöllstadt","type":"Kreisangehörige_Gemeinde"},"district":{"key":"06440","name":"Wetteraukreis","type":"Landkreis"},"federalState":{"key":"06","name":"Hessen"}},{"name":"Am Atzelberg","postalCode":"61206","locality":"Wöllstadt","municipality":{"key":"06440025","name":"Wöllstadt","type":"Kreisangehörige_Gemeinde"},"district":{"key":"06440","name":"Wetteraukreis","type":"Landkreis"},"federalState":{"key":"06","name":"Hessen"}},{"name":"Am Bildstock","postalCode":"61206","locality":"Wöllstadt","municipality":{"key":"06440025","name":"Wöllstadt","type":"Kreisangehörige_Gemeinde"},"district":{"key":"06440","name":"Wetteraukreis","type":"Landkreis"},"federalState":{"key":"06","name":"Hessen"}},{"name":"Am Friedhof","postalCode":"61206","locality":"Wöllstadt","municipality":{"key":"06440025","name":"Wöllstadt","type":"Kreisangehörige_Gemeinde"},"district":{"key":"06440","name":"Wetteraukreis","type":"Landkreis"},"federalState":{"key":"06","name":"Hessen"}},{"name":"Am Kalkofen","postalCode":"61206","locality":"Wöllstadt","municipality":{"key":"06440025","name":"Wöllstadt","type":"Kreisangehörige_Gemeinde"},"district":{"key":"06440","name":"Wetteraukreis","type":"Landkreis"},"federalState":{"key":"06","name":"Hessen"}},{"name":"Am Lutherweg","postalCode":"61206","locality":"Wöllstadt","municipality":{"key":"06440025","name":"Wöllstadt","type":"Kreisangehörige_Gemeinde"},"district":{"key":"06440","name":"Wetteraukreis","type":"Landkreis"},"federalState":{"key":"06","name":"Hessen"}},{"name":"Am Römerhof","postalCode":"61206","locality":"Wöllstadt","municipality":{"key":"06440025","name":"Wöllstadt","type":"Kreisangehörige_Gemeinde"},"district":{"key":"06440","name":"Wetteraukreis","type":"Landkreis"},"federalState":{"key":"06","name":"Hessen"}},{"name":"Am Rosbach","postalCode":"61206","locality":"Wöllstadt","municipality":{"key":"06440025","name":"Wöllstadt","type":"Kreisangehörige_Gemeinde"},"district":{"key":"06440","name":"Wetteraukreis","type":"Landkreis"},"federalState":{"key":"06","name":"Hessen"}},{"name":"Am Schützenrain","postalCode":"61206","locality":"Wöllstadt","municipality":{"key":"06440025","name":"Wöllstadt","type":"Kreisangehörige_Gemeinde"},"district":{"key":"06440","name":"Wetteraukreis","type":"Landkreis"},"federalState":{"key":"06","name":"Hessen"}},{"name":"Am Weinbach","postalCode":"61206","locality":"Wöllstadt","municipality":{"key":"06440025","name":"Wöllstadt","type":"Kreisangehörige_Gemeinde"},"district":{"key":"06440","name":"Wetteraukreis","type":"Landkreis"},"federalState":{"key":"06","name":"Hessen"}},{"name":"Auf der Kaut","postalCode":"61206","locality":"Wöllstadt","municipality":{"key":"06440025","name":"Wöllstadt","type":"Kreisangehörige_Gemeinde"},"district":{"key":"06440","name":"Wetteraukreis","type":"Landkreis"},"federalState":{"key":"06","name":"Hessen"}},{"name":"Auweg","postalCode":"61206","locality":"Wöllstadt","municipality":{"key":"06440025","name":"Wöllstadt","type":"Kreisangehörige_Gemeinde"},"district":{"key":"06440","name":"Wetteraukreis","type":"Landkreis"},"federalState":{"key":"06","name":"Hessen"}},{"name":"Bahnhaus","postalCode":"61206","locality":"Wöllstadt","municipality":{"key":"06440025","name":"Wöllstadt","type":"Kreisangehörige_Gemeinde"},"district":{"key":"06440","name":"Wetteraukreis","type":"Landkreis"},"federalState":{"key":"06","name":"Hessen"}},{"name":"Bahnhofstr.","postalCode":"61206","locality":"Wöllstadt","municipality":{"key":"06440025","name":"Wöllstadt","type":"Kreisangehörige_Gemeinde"},"district":{"key":"06440","name":"Wetteraukreis","type":"Landkreis"},"federalState":{"key":"06","name":"Hessen"}},{"name":"Birkenweg","postalCode":"61206","locality":"Wöllstadt","municipality":{"key":"06440025","name":"Wöllstadt","type":"Kreisangehörige_Gemeinde"},"district":{"key":"06440","name":"Wetteraukreis","type":"Landkreis"},"federalState":{"key":"06","name":"Hessen"}},{"name":"Bruchenbrücker Weg","postalCode":"61206","locality":"Wöllstadt","municipality":{"key":"06440025","name":"Wöllstadt","type":"Kreisangehörige_Gemeinde"},"district":{"key":"06440","name":"Wetteraukreis","type":"Landkreis"},"federalState":{"key":"06","name":"Hessen"}},{"name":"Brunnengräberstr.","postalCode":"61206","locality":"Wöllstadt","municipality":{"key":"06440025","name":"Wöllstadt","type":"Kreisangehörige_Gemeinde"},"district":{"key":"06440","name":"Wetteraukreis","type":"Landkreis"},"federalState":{"key":"06","name":"Hessen"}},{"name":"Burggraben","postalCode":"61206","locality":"Wöllstadt","municipality":{"key":"06440025","name":"Wöllstadt","type":"Kreisangehörige_Gemeinde"},"district":{"key":"06440","name":"Wetteraukreis","type":"Landkreis"},"federalState":{"key":"06","name":"Hessen"}},{"name":"Burgunderweg","postalCode":"61206","locality":"Wöllstadt","municipality":{"key":"06440025","name":"Wöllstadt","type":"Kreisangehörige_Gemeinde"},"district":{"key":"06440","name":"Wetteraukreis","type":"Landkreis"},"federalState":{"key":"06","name":"Hessen"}},{"name":"Burgweg","postalCode":"61206","locality":"Wöllstadt","municipality":{"key":"06440025","name":"Wöllstadt","type":"Kreisangehörige_Gemeinde"},"district":{"key":"06440","name":"Wetteraukreis","type":"Landkreis"},"federalState":{"key":"06","name":"Hessen"}},{"name":"Der Ockstädter Weg","postalCode":"61206","locality":"Wöllstadt","municipality":{"key":"06440025","name":"Wöllstadt","type":"Kreisangehörige_Gemeinde"},"district":{"key":"06440","name":"Wetteraukreis","type":"Landkreis"},"federalState":{"key":"06","name":"Hessen"}},{"name":"Donaustr.","postalCode":"61206","locality":"Wöllstadt","municipality":{"key":"06440025","name":"Wöllstadt","type":"Kreisangehörige_Gemeinde"},"district":{"key":"06440","name":"Wetteraukreis","type":"Landkreis"},"federalState":{"key":"06","name":"Hessen"}},{"name":"Dornfelderweg","postalCode":"61206","locality":"Wöllstadt","municipality":{"key":"06440025","name":"Wöllstadt","type":"Kreisangehörige_Gemeinde"},"district":{"key":"06440","name":"Wetteraukreis","type":"Landkreis"},"federalState":{"key":"06","name":"Hessen"}},{"name":"Eisenbahnstr.","postalCode":"61206","locality":"Wöllstadt","municipality":{"key":"06440025","name":"Wöllstadt","type":"Kreisangehörige_Gemeinde"},"district":{"key":"06440","name":"Wetteraukreis","type":"Landkreis"},"federalState":{"key":"06","name":"Hessen"}},{"name":"Elbestr.","postalCode":"61206","locality":"Wöllstadt","municipality":{"key":"06440025","name":"Wöllstadt","type":"Kreisangehörige_Gemeinde"},"district":{"key":"06440","name":"Wetteraukreis","type":"Landkreis"},"federalState":{"key":"06","name":"Hessen"}},{"name":"Emsstr.","postalCode":"61206","locality":"Wöllstadt","municipality":{"key":"06440025","name":"Wöllstadt","type":"Kreisangehörige_Gemeinde"},"district":{"key":"06440","name":"Wetteraukreis","type":"Landkreis"},"federalState":{"key":"06","name":"Hessen"}},{"name":"Erlenweg","postalCode":"61206","locality":"Wöllstadt","municipality":{"key":"06440025","name":"Wöllstadt","type":"Kreisangehörige_Gemeinde"},"district":{"key":"06440","name":"Wetteraukreis","type":"Landkreis"},"federalState":{"key":"06","name":"Hessen"}},{"name":"Falkensteiner Str.","postalCode":"61206","locality":"Wöllstadt","municipality":{"key":"06440025","name":"Wöllstadt","type":"Kreisangehörige_Gemeinde"},"district":{"key":"06440","name":"Wetteraukreis","type":"Landkreis"},"federalState":{"key":"06","name":"Hessen"}},{"name":"Feldbergstr.","postalCode":"61206","locality":"Wöllstadt","municipality":{"key":"06440025","name":"Wöllstadt","type":"Kreisangehörige_Gemeinde"},"district":{"key":"06440","name":"Wetteraukreis","type":"Landkreis"},"federalState":{"key":"06","name":"Hessen"}},{"name":"Frankfurter Str.","postalCode":"61206","locality":"Wöllstadt","municipality":{"key":"06440025","name":"Wöllstadt","type":"Kreisangehörige_Gemeinde"},"district":{"key":"06440","name":"Wetteraukreis","type":"Landkreis"},"federalState":{"key":"06","name":"Hessen"}},{"name":"Friedberger Str.","postalCode":"61206","locality":"Wöllstadt","municipality":{"key":"06440025","name":"Wöllstadt","type":"Kreisangehörige_Gemeinde"},"district":{"key":"06440","name":"Wetteraukreis","type":"Landkreis"},"federalState":{"key":"06","name":"Hessen"}},{"name":"Friedhofsweg","postalCode":"61206","locality":"Wöllstadt","municipality":{"key":"06440025","name":"Wöllstadt","type":"Kreisangehörige_Gemeinde"},"district":{"key":"06440","name":"Wetteraukreis","type":"Landkreis"},"federalState":{"key":"06","name":"Hessen"}},{"name":"Friedrich-Ebert-Str.","postalCode":"61206","locality":"Wöllstadt","municipality":{"key":"06440025","name":"Wöllstadt","type":"Kreisangehörige_Gemeinde"},"district":{"key":"06440","name":"Wetteraukreis","type":"Landkreis"},"federalState":{"key":"06","name":"Hessen"}},{"name":"Fülmsweg","postalCode":"61206","locality":"Wöllstadt","municipality":{"key":"06440025","name":"Wöllstadt","type":"Kreisangehörige_Gemeinde"},"district":{"key":"06440","name":"Wetteraukreis","type":"Landkreis"},"federalState":{"key":"06","name":"Hessen"}},{"name":"Gartenstr.","postalCode":"61206","locality":"Wöllstadt","municipality":{"key":"06440025","name":"Wöllstadt","type":"Kreisangehörige_Gemeinde"},"district":{"key":"06440","name":"Wetteraukreis","type":"Landkreis"},"federalState":{"key":"06","name":"Hessen"}},{"name":"Gartenweg","postalCode":"61206","locality":"Wöllstadt","municipality":{"key":"06440025","name":"Wöllstadt","type":"Kreisangehörige_Gemeinde"},"district":{"key":"06440","name":"Wetteraukreis","type":"Landkreis"},"federalState":{"key":"06","name":"Hessen"}},{"name":"Gäßchen","postalCode":"61206","locality":"Wöllstadt","municipality":{"key":"06440025","name":"Wöllstadt","type":"Kreisangehörige_Gemeinde"},"district":{"key":"06440","name":"Wetteraukreis","type":"Landkreis"},"federalState":{"key":"06","name":"Hessen"}},{"name":"Gießener Str.","postalCode":"61206","locality":"Wöllstadt","municipality":{"key":"06440025","name":"Wöllstadt","type":"Kreisangehörige_Gemeinde"},"district":{"key":"06440","name":"Wetteraukreis","type":"Landkreis"},"federalState":{"key":"06","name":"Hessen"}},{"name":"Goethestr.","postalCode":"61206","locality":"Wöllstadt","municipality":{"key":"06440025","name":"Wöllstadt","type":"Kreisangehörige_Gemeinde"},"district":{"key":"06440","name":"Wetteraukreis","type":"Landkreis"},"federalState":{"key":"06","name":"Hessen"}},{"name":"Gondolfstr.","postalCode":"61206","locality":"Wöllstadt","municipality":{"key":"06440025","name":"Wöllstadt","type":"Kreisangehörige_Gemeinde"},"district":{"key":"06440","name":"Wetteraukreis","type":"Landkreis"},"federalState":{"key":"06","name":"Hessen"}},{"name":"Große Braugasse","postalCode":"61206","locality":"Wöllstadt","municipality":{"key":"06440025","name":"Wöllstadt","type":"Kreisangehörige_Gemeinde"},"district":{"key":"06440","name":"Wetteraukreis","type":"Landkreis"},"federalState":{"key":"06","name":"Hessen"}},{"name":"Große Burggasse","postalCode":"61206","locality":"Wöllstadt","municipality":{"key":"06440025","name":"Wöllstadt","type":"Kreisangehörige_Gemeinde"},"district":{"key":"06440","name":"Wetteraukreis","type":"Landkreis"},"federalState":{"key":"06","name":"Hessen"}},{"name":"Haingasse","postalCode":"61206","locality":"Wöllstadt","municipality":{"key":"06440025","name":"Wöllstadt","type":"Kreisangehörige_Gemeinde"},"district":{"key":"06440","name":"Wetteraukreis","type":"Landkreis"},"federalState":{"key":"06","name":"Hessen"}},{"name":"Haingraben","postalCode":"61206","locality":"Wöllstadt","municipality":{"key":"06440025","name":"Wöllstadt","type":"Kreisangehörige_Gemeinde"},"district":{"key":"06440","name":"Wetteraukreis","type":"Landkreis"},"federalState":{"key":"06","name":"Hessen"}},{"name":"Hainweg","postalCode":"61206","locality":"Wöllstadt","municipality":{"key":"06440025","name":"Wöllstadt","type":"Kreisangehörige_Gemeinde"},"district":{"key":"06440","name":"Wetteraukreis","type":"Landkreis"},"federalState":{"key":"06","name":"Hessen"}},{"name":"Hanauer Str.","postalCode":"61206","locality":"Wöllstadt","municipality":{"key":"06440025","name":"Wöllstadt","type":"Kreisangehörige_Gemeinde"},"district":{"key":"06440","name":"Wetteraukreis","type":"Landkreis"},"federalState":{"key":"06","name":"Hessen"}},{"name":"Hinter der Au","postalCode":"61206","locality":"Wöllstadt","municipality":{"key":"06440025","name":"Wöllstadt","type":"Kreisangehörige_Gemeinde"},"district":{"key":"06440","name":"Wetteraukreis","type":"Landkreis"},"federalState":{"key":"06","name":"Hessen"}},{"name":"Homburger Str.","postalCode":"61206","locality":"Wöllstadt","municipality":{"key":"06440025","name":"Wöllstadt","type":"Kreisangehörige_Gemeinde"},"district":{"key":"06440","name":"Wetteraukreis","type":"Landkreis"},"federalState":{"key":"06","name":"Hessen"}},{"name":"Ilbenstädter Str.","postalCode":"61206","locality":"Wöllstadt","municipality":{"key":"06440025","name":"Wöllstadt","type":"Kreisangehörige_Gemeinde"},"district":{"key":"06440","name":"Wetteraukreis","type":"Landkreis"},"federalState":{"key":"06","name":"Hessen"}},{"name":"Illingweg","postalCode":"61206","locality":"Wöllstadt","municipality":{"key":"06440025","name":"Wöllstadt","type":"Kreisangehörige_Gemeinde"},"district":{"key":"06440","name":"Wetteraukreis","type":"Landkreis"},"federalState":{"key":"06","name":"Hessen"}},{"name":"Im Blumengarten","postalCode":"61206","locality":"Wöllstadt","municipality":{"key":"06440025","name":"Wöllstadt","type":"Kreisangehörige_Gemeinde"},"district":{"key":"06440","name":"Wetteraukreis","type":"Landkreis"},"federalState":{"key":"06","name":"Hessen"}},{"name":"Im Bürgel","postalCode":"61206","locality":"Wöllstadt","municipality":{"key":"06440025","name":"Wöllstadt","type":"Kreisangehörige_Gemeinde"},"district":{"key":"06440","name":"Wetteraukreis","type":"Landkreis"},"federalState":{"key":"06","name":"Hessen"}},{"name":"Im Holzhain","postalCode":"61206","locality":"Wöllstadt","municipality":{"key":"06440025","name":"Wöllstadt","type":"Kreisangehörige_Gemeinde"},"district":{"key":"06440","name":"Wetteraukreis","type":"Landkreis"},"federalState":{"key":"06","name":"Hessen"}},{"name":"Im Lindenfeld","postalCode":"61206","locality":"Wöllstadt","municipality":{"key":"06440025","name":"Wöllstadt","type":"Kreisangehörige_Gemeinde"},"district":{"key":"06440","name":"Wetteraukreis","type":"Landkreis"},"federalState":{"key":"06","name":"Hessen"}},{"name":"In den Weingärten","postalCode":"61206","locality":"Wöllstadt","municipality":{"key":"06440025","name":"Wöllstadt","type":"Kreisangehörige_Gemeinde"},"district":{"key":"06440","name":"Wetteraukreis","type":"Landkreis"},"federalState":{"key":"06","name":"Hessen"}},{"name":"Kapellenweg","postalCode":"61206","locality":"Wöllstadt","municipality":{"key":"06440025","name":"Wöllstadt","type":"Kreisangehörige_Gemeinde"},"district":{"key":"06440","name":"Wetteraukreis","type":"Landkreis"},"federalState":{"key":"06","name":"Hessen"}},{"name":"Karl-Götz-Str.","postalCode":"61206","locality":"Wöllstadt","municipality":{"key":"06440025","name":"Wöllstadt","type":"Kreisangehörige_Gemeinde"},"district":{"key":"06440","name":"Wetteraukreis","type":"Landkreis"},"federalState":{"key":"06","name":"Hessen"}},{"name":"Kernerweg","postalCode":"61206","locality":"Wöllstadt","municipality":{"key":"06440025","name":"Wöllstadt","type":"Kreisangehörige_Gemeinde"},"district":{"key":"06440","name":"Wetteraukreis","type":"Landkreis"},"federalState":{"key":"06","name":"Hessen"}},{"name":"Kirchgasse","postalCode":"61206","locality":"Wöllstadt","municipality":{"key":"06440025","name":"Wöllstadt","type":"Kreisangehörige_Gemeinde"},"district":{"key":"06440","name":"Wetteraukreis","type":"Landkreis"},"federalState":{"key":"06","name":"Hessen"}},{"name":"Klappergasse","postalCode":"61206","locality":"Wöllstadt","municipality":{"key":"06440025","name":"Wöllstadt","type":"Kreisangehörige_Gemeinde"},"district":{"key":"06440","name":"Wetteraukreis","type":"Landkreis"},"federalState":{"key":"06","name":"Hessen"}},{"name":"Kleine Braugasse","postalCode":"61206","locality":"Wöllstadt","municipality":{"key":"06440025","name":"Wöllstadt","type":"Kreisangehörige_Gemeinde"},"district":{"key":"06440","name":"Wetteraukreis","type":"Landkreis"},"federalState":{"key":"06","name":"Hessen"}},{"name":"Kleine Burggasse","postalCode":"61206","locality":"Wöllstadt","municipality":{"key":"06440025","name":"Wöllstadt","type":"Kreisangehörige_Gemeinde"},"district":{"key":"06440","name":"Wetteraukreis","type":"Landkreis"},"federalState":{"key":"06","name":"Hessen"}},{"name":"Kudlich Siedlung","postalCode":"61206","locality":"Wöllstadt","municipality":{"key":"06440025","name":"Wöllstadt","type":"Kreisangehörige_Gemeinde"},"district":{"key":"06440","name":"Wetteraukreis","type":"Landkreis"},"federalState":{"key":"06","name":"Hessen"}},{"name":"Lahnstr.","postalCode":"61206","locality":"Wöllstadt","municipality":{"key":"06440025","name":"Wöllstadt","type":"Kreisangehörige_Gemeinde"},"district":{"key":"06440","name":"Wetteraukreis","type":"Landkreis"},"federalState":{"key":"06","name":"Hessen"}},{"name":"Lerchenweg","postalCode":"61206","locality":"Wöllstadt","municipality":{"key":"06440025","name":"Wöllstadt","type":"Kreisangehörige_Gemeinde"},"district":{"key":"06440","name":"Wetteraukreis","type":"Landkreis"},"federalState":{"key":"06","name":"Hessen"}},{"name":"Limesweg","postalCode":"61206","locality":"Wöllstadt","municipality":{"key":"06440025","name":"Wöllstadt","type":"Kreisangehörige_Gemeinde"},"district":{"key":"06440","name":"Wetteraukreis","type":"Landkreis"},"federalState":{"key":"06","name":"Hessen"}},{"name":"Lindenstr.","postalCode":"61206","locality":"Wöllstadt","municipality":{"key":"06440025","name":"Wöllstadt","type":"Kreisangehörige_Gemeinde"},"district":{"key":"06440","name":"Wetteraukreis","type":"Landkreis"},"federalState":{"key":"06","name":"Hessen"}},{"name":"Lindenweg","postalCode":"61206","locality":"Wöllstadt","municipality":{"key":"06440025","name":"Wöllstadt","type":"Kreisangehörige_Gemeinde"},"district":{"key":"06440","name":"Wetteraukreis","type":"Landkreis"},"federalState":{"key":"06","name":"Hessen"}},{"name":"Mainstr.","postalCode":"61206","locality":"Wöllstadt","municipality":{"key":"06440025","name":"Wöllstadt","type":"Kreisangehörige_Gemeinde"},"district":{"key":"06440","name":"Wetteraukreis","type":"Landkreis"},"federalState":{"key":"06","name":"Hessen"}},{"name":"Marienstr.","postalCode":"61206","locality":"Wöllstadt","municipality":{"key":"06440025","name":"Wöllstadt","type":"Kreisangehörige_Gemeinde"},"district":{"key":"06440","name":"Wetteraukreis","type":"Landkreis"},"federalState":{"key":"06","name":"Hessen"}},{"name":"Martin-Luther-Str.","postalCode":"61206","locality":"Wöllstadt","municipality":{"key":"06440025","name":"Wöllstadt","type":"Kreisangehörige_Gemeinde"},"district":{"key":"06440","name":"Wetteraukreis","type":"Landkreis"},"federalState":{"key":"06","name":"Hessen"}},{"name":"Mauergartenweg","postalCode":"61206","locality":"Wöllstadt","municipality":{"key":"06440025","name":"Wöllstadt","type":"Kreisangehörige_Gemeinde"},"district":{"key":"06440","name":"Wetteraukreis","type":"Landkreis"},"federalState":{"key":"06","name":"Hessen"}},{"name":"Mittelgasse","postalCode":"61206","locality":"Wöllstadt","municipality":{"key":"06440025","name":"Wöllstadt","type":"Kreisangehörige_Gemeinde"},"district":{"key":"06440","name":"Wetteraukreis","type":"Landkreis"},"federalState":{"key":"06","name":"Hessen"}},{"name":"Moselstr.","postalCode":"61206","locality":"Wöllstadt","municipality":{"key":"06440025","name":"Wöllstadt","type":"Kreisangehörige_Gemeinde"},"district":{"key":"06440","name":"Wetteraukreis","type":"Landkreis"},"federalState":{"key":"06","name":"Hessen"}},{"name":"Mühlweg","postalCode":"61206","locality":"Wöllstadt","municipality":{"key":"06440025","name":"Wöllstadt","type":"Kreisangehörige_Gemeinde"},"district":{"key":"06440","name":"Wetteraukreis","type":"Landkreis"},"federalState":{"key":"06","name":"Hessen"}},{"name":"Nach dem Sahn","postalCode":"61206","locality":"Wöllstadt","municipality":{"key":"06440025","name":"Wöllstadt","type":"Kreisangehörige_Gemeinde"},"district":{"key":"06440","name":"Wetteraukreis","type":"Landkreis"},"federalState":{"key":"06","name":"Hessen"}},{"name":"Neckarstr.","postalCode":"61206","locality":"Wöllstadt","municipality":{"key":"06440025","name":"Wöllstadt","type":"Kreisangehörige_Gemeinde"},"district":{"key":"06440","name":"Wetteraukreis","type":"Landkreis"},"federalState":{"key":"06","name":"Hessen"}},{"name":"Neuer Trieb","postalCode":"61206","locality":"Wöllstadt","municipality":{"key":"06440025","name":"Wöllstadt","type":"Kreisangehörige_Gemeinde"},"district":{"key":"06440","name":"Wetteraukreis","type":"Landkreis"},"federalState":{"key":"06","name":"Hessen"}},{"name":"Neuer Weg","postalCode":"61206","locality":"Wöllstadt","municipality":{"key":"06440025","name":"Wöllstadt","type":"Kreisangehörige_Gemeinde"},"district":{"key":"06440","name":"Wetteraukreis","type":"Landkreis"},"federalState":{"key":"06","name":"Hessen"}},{"name":"Niddastr.","postalCode":"61206","locality":"Wöllstadt","municipality":{"key":"06440025","name":"Wöllstadt","type":"Kreisangehörige_Gemeinde"},"district":{"key":"06440","name":"Wetteraukreis","type":"Landkreis"},"federalState":{"key":"06","name":"Hessen"}},{"name":"Obergasse","postalCode":"61206","locality":"Wöllstadt","municipality":{"key":"06440025","name":"Wöllstadt","type":"Kreisangehörige_Gemeinde"},"district":{"key":"06440","name":"Wetteraukreis","type":"Landkreis"},"federalState":{"key":"06","name":"Hessen"}},{"name":"Oderstr.","postalCode":"61206","locality":"Wöllstadt","municipality":{"key":"06440025","name":"Wöllstadt","type":"Kreisangehörige_Gemeinde"},"district":{"key":"06440","name":"Wetteraukreis","type":"Landkreis"},"federalState":{"key":"06","name":"Hessen"}},{"name":"Paul-Hallmann-Str.","postalCode":"61206","locality":"Wöllstadt","municipality":{"key":"06440025","name":"Wöllstadt","type":"Kreisangehörige_Gemeinde"},"district":{"key":"06440","name":"Wetteraukreis","type":"Landkreis"},"federalState":{"key":"06","name":"Hessen"}},{"name":"Querpfad","postalCode":"61206","locality":"Wöllstadt","municipality":{"key":"06440025","name":"Wöllstadt","type":"Kreisangehörige_Gemeinde"},"district":{"key":"06440","name":"Wetteraukreis","type":"Landkreis"},"federalState":{"key":"06","name":"Hessen"}},{"name":"Querstr.","postalCode":"61206","locality":"Wöllstadt","municipality":{"key":"06440025","name":"Wöllstadt","type":"Kreisangehörige_Gemeinde"},"district":{"key":"06440","name":"Wetteraukreis","type":"Landkreis"},"federalState":{"key":"06","name":"Hessen"}},{"name":"R4","postalCode":"61206","locality":"Wöllstadt","municipality":{"key":"06440025","name":"Wöllstadt","type":"Kreisangehörige_Gemeinde"},"district":{"key":"06440","name":"Wetteraukreis","type":"Landkreis"},"federalState":{"key":"06","name":"Hessen"}},{"name":"Raiffeisenstr.","postalCode":"61206","locality":"Wöllstadt","municipality":{"key":"06440025","name":"Wöllstadt","type":"Kreisangehörige_Gemeinde"},"district":{"key":"06440","name":"Wetteraukreis","type":"Landkreis"},"federalState":{"key":"06","name":"Hessen"}},{"name":"Rheinstr.","postalCode":"61206","locality":"Wöllstadt","municipality":{"key":"06440025","name":"Wöllstadt","type":"Kreisangehörige_Gemeinde"},"district":{"key":"06440","name":"Wetteraukreis","type":"Landkreis"},"federalState":{"key":"06","name":"Hessen"}},{"name":"Riedholweg","postalCode":"61206","locality":"Wöllstadt","municipality":{"key":"06440025","name":"Wöllstadt","type":"Kreisangehörige_Gemeinde"},"district":{"key":"06440","name":"Wetteraukreis","type":"Landkreis"},"federalState":{"key":"06","name":"Hessen"}},{"name":"Rieslingweg","postalCode":"61206","locality":"Wöllstadt","municipality":{"key":"06440025","name":"Wöllstadt","type":"Kreisangehörige_Gemeinde"},"district":{"key":"06440","name":"Wetteraukreis","type":"Landkreis"},"federalState":{"key":"06","name":"Hessen"}},{"name":"Ringstr.","postalCode":"61206","locality":"Wöllstadt","municipality":{"key":"06440025","name":"Wöllstadt","type":"Kreisangehörige_Gemeinde"},"district":{"key":"06440","name":"Wetteraukreis","type":"Landkreis"},"federalState":{"key":"06","name":"Hessen"}},{"name":"Rodheimer Str.","postalCode":"61206","locality":"Wöllstadt","municipality":{"key":"06440025","name":"Wöllstadt","type":"Kreisangehörige_Gemeinde"},"district":{"key":"06440","name":"Wetteraukreis","type":"Landkreis"},"federalState":{"key":"06","name":"Hessen"}},{"name":"Rosbacher Str.","postalCode":"61206","locality":"Wöllstadt","municipality":{"key":"06440025","name":"Wöllstadt","type":"Kreisangehörige_Gemeinde"},"district":{"key":"06440","name":"Wetteraukreis","type":"Landkreis"},"federalState":{"key":"06","name":"Hessen"}},{"name":"Rosbacher Weg","postalCode":"61206","locality":"Wöllstadt","municipality":{"key":"06440025","name":"Wöllstadt","type":"Kreisangehörige_Gemeinde"},"district":{"key":"06440","name":"Wetteraukreis","type":"Landkreis"},"federalState":{"key":"06","name":"Hessen"}},{"name":"Rosenstr.","postalCode":"61206","locality":"Wöllstadt","municipality":{"key":"06440025","name":"Wöllstadt","type":"Kreisangehörige_Gemeinde"},"district":{"key":"06440","name":"Wetteraukreis","type":"Landkreis"},"federalState":{"key":"06","name":"Hessen"}},{"name":"Saarstr.","postalCode":"61206","locality":"Wöllstadt","municipality":{"key":"06440025","name":"Wöllstadt","type":"Kreisangehörige_Gemeinde"},"district":{"key":"06440","name":"Wetteraukreis","type":"Landkreis"},"federalState":{"key":"06","name":"Hessen"}},{"name":"Sauernweg","postalCode":"61206","locality":"Wöllstadt","municipality":{"key":"06440025","name":"Wöllstadt","type":"Kreisangehörige_Gemeinde"},"district":{"key":"06440","name":"Wetteraukreis","type":"Landkreis"},"federalState":{"key":"06","name":"Hessen"}},{"name":"Schillerstr.","postalCode":"61206","locality":"Wöllstadt","municipality":{"key":"06440025","name":"Wöllstadt","type":"Kreisangehörige_Gemeinde"},"district":{"key":"06440","name":"Wetteraukreis","type":"Landkreis"},"federalState":{"key":"06","name":"Hessen"}},{"name":"Schleusenweg","postalCode":"61206","locality":"Wöllstadt","municipality":{"key":"06440025","name":"Wöllstadt","type":"Kreisangehörige_Gemeinde"},"district":{"key":"06440","name":"Wetteraukreis","type":"Landkreis"},"federalState":{"key":"06","name":"Hessen"}},{"name":"Schmalwiesenweg","postalCode":"61206","locality":"Wöllstadt","municipality":{"key":"06440025","name":"Wöllstadt","type":"Kreisangehörige_Gemeinde"},"district":{"key":"06440","name":"Wetteraukreis","type":"Landkreis"},"federalState":{"key":"06","name":"Hessen"}},{"name":"Schöne Aussicht","postalCode":"61206","locality":"Wöllstadt","municipality":{"key":"06440025","name":"Wöllstadt","type":"Kreisangehörige_Gemeinde"},"district":{"key":"06440","name":"Wetteraukreis","type":"Landkreis"},"federalState":{"key":"06","name":"Hessen"}},{"name":"Schulstr.","postalCode":"61206","locality":"Wöllstadt","municipality":{"key":"06440025","name":"Wöllstadt","type":"Kreisangehörige_Gemeinde"},"district":{"key":"06440","name":"Wetteraukreis","type":"Landkreis"},"federalState":{"key":"06","name":"Hessen"}},{"name":"Silvanerweg","postalCode":"61206","locality":"Wöllstadt","municipality":{"key":"06440025","name":"Wöllstadt","type":"Kreisangehörige_Gemeinde"},"district":{"key":"06440","name":"Wetteraukreis","type":"Landkreis"},"federalState":{"key":"06","name":"Hessen"}},{"name":"Steingartenweg","postalCode":"61206","locality":"Wöllstadt","municipality":{"key":"06440025","name":"Wöllstadt","type":"Kreisangehörige_Gemeinde"},"district":{"key":"06440","name":"Wetteraukreis","type":"Landkreis"},"federalState":{"key":"06","name":"Hessen"}},{"name":"Stolberger Str.","postalCode":"61206","locality":"Wöllstadt","municipality":{"key":"06440025","name":"Wöllstadt","type":"Kreisangehörige_Gemeinde"},"district":{"key":"06440","name":"Wetteraukreis","type":"Landkreis"},"federalState":{"key":"06","name":"Hessen"}},{"name":"Sudetenstr.","postalCode":"61206","locality":"Wöllstadt","municipality":{"key":"06440025","name":"Wöllstadt","type":"Kreisangehörige_Gemeinde"},"district":{"key":"06440","name":"Wetteraukreis","type":"Landkreis"},"federalState":{"key":"06","name":"Hessen"}},{"name":"Tannenweg","postalCode":"61206","locality":"Wöllstadt","municipality":{"key":"06440025","name":"Wöllstadt","type":"Kreisangehörige_Gemeinde"},"district":{"key":"06440","name":"Wetteraukreis","type":"Landkreis"},"federalState":{"key":"06","name":"Hessen"}},{"name":"Taunusring","postalCode":"61206","locality":"Wöllstadt","municipality":{"key":"06440025","name":"Wöllstadt","type":"Kreisangehörige_Gemeinde"},"district":{"key":"06440","name":"Wetteraukreis","type":"Landkreis"},"federalState":{"key":"06","name":"Hessen"}},{"name":"Taunusstr.","postalCode":"61206","locality":"Wöllstadt","municipality":{"key":"06440025","name":"Wöllstadt","type":"Kreisangehörige_Gemeinde"},"district":{"key":"06440","name":"Wetteraukreis","type":"Landkreis"},"federalState":{"key":"06","name":"Hessen"}},{"name":"Triftweg","postalCode":"61206","locality":"Wöllstadt","municipality":{"key":"06440025","name":"Wöllstadt","type":"Kreisangehörige_Gemeinde"},"district":{"key":"06440","name":"Wetteraukreis","type":"Landkreis"},"federalState":{"key":"06","name":"Hessen"}},{"name":"Untergasse","postalCode":"61206","locality":"Wöllstadt","municipality":{"key":"06440025","name":"Wöllstadt","type":"Kreisangehörige_Gemeinde"},"district":{"key":"06440","name":"Wetteraukreis","type":"Landkreis"},"federalState":{"key":"06","name":"Hessen"}},{"name":"Usastr.","postalCode":"61206","locality":"Wöllstadt","municipality":{"key":"06440025","name":"Wöllstadt","type":"Kreisangehörige_Gemeinde"},"district":{"key":"06440","name":"Wetteraukreis","type":"Landkreis"},"federalState":{"key":"06","name":"Hessen"}},{"name":"Waldhof","postalCode":"61206","locality":"Wöllstadt","municipality":{"key":"06440025","name":"Wöllstadt","type":"Kreisangehörige_Gemeinde"},"district":{"key":"06440","name":"Wetteraukreis","type":"Landkreis"},"federalState":{"key":"06","name":"Hessen"}},{"name":"Waldweg","postalCode":"61206","locality":"Wöllstadt","municipality":{"key":"06440025","name":"Wöllstadt","type":"Kreisangehörige_Gemeinde"},"district":{"key":"06440","name":"Wetteraukreis","type":"Landkreis"},"federalState":{"key":"06","name":"Hessen"}},{"name":"Wartweg","postalCode":"61206","locality":"Wöllstadt","municipality":{"key":"06440025","name":"Wöllstadt","type":"Kreisangehörige_Gemeinde"},"district":{"key":"06440","name":"Wetteraukreis","type":"Landkreis"},"federalState":{"key":"06","name":"Hessen"}},{"name":"Wechselweg","postalCode":"61206","locality":"Wöllstadt","municipality":{"key":"06440025","name":"Wöllstadt","type":"Kreisangehörige_Gemeinde"},"district":{"key":"06440","name":"Wetteraukreis","type":"Landkreis"},"federalState":{"key":"06","name":"Hessen"}},{"name":"Weserstr.","postalCode":"61206","locality":"Wöllstadt","municipality":{"key":"06440025","name":"Wöllstadt","type":"Kreisangehörige_Gemeinde"},"district":{"key":"06440","name":"Wetteraukreis","type":"Landkreis"},"federalState":{"key":"06","name":"Hessen"}},{"name":"Wetterstr.","postalCode":"61206","locality":"Wöllstadt","municipality":{"key":"06440025","name":"Wöllstadt","type":"Kreisangehörige_Gemeinde"},"district":{"key":"06440","name":"Wetteraukreis","type":"Landkreis"},"federalState":{"key":"06","name":"Hessen"}},{"name":"Wiesengasse","postalCode":"61206","locality":"Wöllstadt","municipality":{"key":"06440025","name":"Wöllstadt","type":"Kreisangehörige_Gemeinde"},"district":{"key":"06440","name":"Wetteraukreis","type":"Landkreis"},"federalState":{"key":"06","name":"Hessen"}},{"name":"Wiesenweg","postalCode":"61206","locality":"Wöllstadt","municipality":{"key":"06440025","name":"Wöllstadt","type":"Kreisangehörige_Gemeinde"},"district":{"key":"06440","name":"Wetteraukreis","type":"Landkreis"},"federalState":{"key":"06","name":"Hessen"}},{"name":"Wilhelm-Bechtold-Str.","postalCode":"61206","locality":"Wöllstadt","municipality":{"key":"06440025","name":"Wöllstadt","type":"Kreisangehörige_Gemeinde"},"district":{"key":"06440","name":"Wetteraukreis","type":"Landkreis"},"federalState":{"key":"06","name":"Hessen"}},{"name":"Wingertstr.","postalCode":"61206","locality":"Wöllstadt","municipality":{"key":"06440025","name":"Wöllstadt","type":"Kreisangehörige_Gemeinde"},"district":{"key":"06440","name":"Wetteraukreis","type":"Landkreis"},"federalState":{"key":"06","name":"Hessen"}},{"name":"Wolfspfad","postalCode":"61206","locality":"Wöllstadt","municipality":{"key":"06440025","name":"Wöllstadt","type":"Kreisangehörige_Gemeinde"},"district":{"key":"06440","name":"Wetteraukreis","type":"Landkreis"},"federalState":{"key":"06","name":"Hessen"}},{"name":"Zum Nöringer Feld","postalCode":"61206","locality":"Wöllstadt","municipality":{"key":"06440025","name":"Wöllstadt","type":"Kreisangehörige_Gemeinde"},"district":{"key":"06440","name":"Wetteraukreis","type":"Landkreis"},"federalState":{"key":"06","name":"Hessen"}},]