[{"key":"10153650","name":"Chemin de la Chapelle","postalCode":"1525","locality":"Henniez","commune":{"key":"5819","name":"Henniez","shortName":"Henniez"},"district":{"key":"2222","name":"District de la Broye-Vully"},"canton":{"key":"22","code":"VD","name":"Vaud"},"status":"Real"},{"key":"10256245","name":"Chemin Edgar Rouge","postalCode":"1525","locality":"Henniez","commune":{"key":"5819","name":"Henniez","shortName":"Henniez"},"district":{"key":"2222","name":"District de la Broye-Vully"},"canton":{"key":"22","code":"VD","name":"Vaud"},"status":"Real"},{"key":"10209908","name":"Impasse de la Cigogne","postalCode":"1525","locality":"Henniez","commune":{"key":"5819","name":"Henniez","shortName":"Henniez"},"district":{"key":"2222","name":"District de la Broye-Vully"},"canton":{"key":"22","code":"VD","name":"Vaud"},"status":"Real"},{"key":"10077625","name":"Impasse de la Condémine","postalCode":"1525","locality":"Henniez","commune":{"key":"5819","name":"Henniez","shortName":"Henniez"},"district":{"key":"2222","name":"District de la Broye-Vully"},"canton":{"key":"22","code":"VD","name":"Vaud"},"status":"Real"},{"key":"10173145","name":"Impasse de la Poste","postalCode":"1525","locality":"Henniez","commune":{"key":"5819","name":"Henniez","shortName":"Henniez"},"district":{"key":"2222","name":"District de la Broye-Vully"},"canton":{"key":"22","code":"VD","name":"Vaud"},"status":"Real"},{"key":"10209830","name":"Impasse de la Sucrerie","postalCode":"1525","locality":"Henniez","commune":{"key":"5819","name":"Henniez","shortName":"Henniez"},"district":{"key":"2222","name":"District de la Broye-Vully"},"canton":{"key":"22","code":"VD","name":"Vaud"},"status":"Real"},{"key":"10098479","name":"Impasse des Champs de Marnand","postalCode":"1525","locality":"Henniez","commune":{"key":"5819","name":"Henniez","shortName":"Henniez"},"district":{"key":"2222","name":"District de la Broye-Vully"},"canton":{"key":"22","code":"VD","name":"Vaud"},"status":"Real"},{"key":"10195420","name":"Impasse du Chanot","postalCode":"1525","locality":"Henniez","commune":{"key":"5819","name":"Henniez","shortName":"Henniez"},"district":{"key":"2222","name":"District de la Broye-Vully"},"canton":{"key":"22","code":"VD","name":"Vaud"},"status":"Real"},{"key":"10102953","name":"Impasse du Vernaud","postalCode":"1525","locality":"Henniez","commune":{"key":"5819","name":"Henniez","shortName":"Henniez"},"district":{"key":"2222","name":"District de la Broye-Vully"},"canton":{"key":"22","code":"VD","name":"Vaud"},"status":"Real"},{"key":"10173146","name":"La Trémaulaz","postalCode":"1525","locality":"Henniez","commune":{"key":"5819","name":"Henniez","shortName":"Henniez"},"district":{"key":"2222","name":"District de la Broye-Vully"},"canton":{"key":"22","code":"VD","name":"Vaud"},"status":"Real"},{"key":"10173812","name":"Le Clos à Georges","postalCode":"1525","locality":"Henniez","commune":{"key":"5819","name":"Henniez","shortName":"Henniez"},"district":{"key":"2222","name":"District de la Broye-Vully"},"canton":{"key":"22","code":"VD","name":"Vaud"},"status":"Real"},{"key":"10047069","name":"Le Replan","postalCode":"1525","locality":"Henniez","commune":{"key":"5819","name":"Henniez","shortName":"Henniez"},"district":{"key":"2222","name":"District de la Broye-Vully"},"canton":{"key":"22","code":"VD","name":"Vaud"},"status":"Real"},{"key":"10154291","name":"L'Ile à Cuanet","postalCode":"1525","locality":"Henniez","commune":{"key":"5819","name":"Henniez","shortName":"Henniez"},"district":{"key":"2222","name":"District de la Broye-Vully"},"canton":{"key":"22","code":"VD","name":"Vaud"},"status":"Real"},{"key":"10173813","name":"Route de la Gare","postalCode":"1525","locality":"Henniez","commune":{"key":"5819","name":"Henniez","shortName":"Henniez"},"district":{"key":"2222","name":"District de la Broye-Vully"},"canton":{"key":"22","code":"VD","name":"Vaud"},"status":"Real"},{"key":"10153648","name":"Route des Bains","postalCode":"1525","locality":"Henniez","commune":{"key":"5819","name":"Henniez","shortName":"Henniez"},"district":{"key":"2222","name":"District de la Broye-Vully"},"canton":{"key":"22","code":"VD","name":"Vaud"},"status":"Real"},{"key":"10047073","name":"Route de Seigneux","postalCode":"1525","locality":"Henniez","commune":{"key":"5819","name":"Henniez","shortName":"Henniez"},"district":{"key":"2222","name":"District de la Broye-Vully"},"canton":{"key":"22","code":"VD","name":"Vaud"},"status":"Real"},{"key":"10047074","name":"Route de Villarzel","postalCode":"1525","locality":"Henniez","commune":{"key":"5819","name":"Henniez","shortName":"Henniez"},"district":{"key":"2222","name":"District de la Broye-Vully"},"canton":{"key":"22","code":"VD","name":"Vaud"},"status":"Real"},{"key":"10184960","name":"Rue du Village","postalCode":"1525","locality":"Henniez","commune":{"key":"5819","name":"Henniez","shortName":"Henniez"},"district":{"key":"2222","name":"District de la Broye-Vully"},"canton":{"key":"22","code":"VD","name":"Vaud"},"status":"Real"},{"key":"10119352","name":"Ruelle du Moulin","postalCode":"1525","locality":"Henniez","commune":{"key":"5819","name":"Henniez","shortName":"Henniez"},"district":{"key":"2222","name":"District de la Broye-Vully"},"canton":{"key":"22","code":"VD","name":"Vaud"},"status":"Real"},]