[{"key":"10235537","name":"Ahornweg","postalCode":"5724","locality":"Dürrenäsch","commune":{"key":"4134","name":"Dürrenäsch","shortName":"Dürrenäsch"},"district":{"key":"1905","name":"Bezirk Kulm"},"canton":{"key":"19","code":"AG","name":"Aargau"},"status":"Real"},{"key":"10090983","name":"Alte Hallwilerstrasse","postalCode":"5724","locality":"Dürrenäsch","commune":{"key":"4134","name":"Dürrenäsch","shortName":"Dürrenäsch"},"district":{"key":"1905","name":"Bezirk Kulm"},"canton":{"key":"19","code":"AG","name":"Aargau"},"status":"Real"},{"key":"10069403","name":"Alte Teufenthalerstrasse","postalCode":"5724","locality":"Dürrenäsch","commune":{"key":"4134","name":"Dürrenäsch","shortName":"Dürrenäsch"},"district":{"key":"1905","name":"Bezirk Kulm"},"canton":{"key":"19","code":"AG","name":"Aargau"},"status":"Real"},{"key":"10167206","name":"Ausserdorfstrasse","postalCode":"5724","locality":"Dürrenäsch","commune":{"key":"4134","name":"Dürrenäsch","shortName":"Dürrenäsch"},"district":{"key":"1905","name":"Bezirk Kulm"},"canton":{"key":"19","code":"AG","name":"Aargau"},"status":"Real"},{"key":"10036375","name":"Bampfhof","postalCode":"5724","locality":"Dürrenäsch","commune":{"key":"4134","name":"Dürrenäsch","shortName":"Dürrenäsch"},"district":{"key":"1905","name":"Bezirk Kulm"},"canton":{"key":"19","code":"AG","name":"Aargau"},"status":"Real"},{"key":"10178959","name":"Bäniweg","postalCode":"5724","locality":"Dürrenäsch","commune":{"key":"4134","name":"Dürrenäsch","shortName":"Dürrenäsch"},"district":{"key":"1905","name":"Bezirk Kulm"},"canton":{"key":"19","code":"AG","name":"Aargau"},"status":"Real"},{"key":"10124715","name":"Baumgartenweg","postalCode":"5724","locality":"Dürrenäsch","commune":{"key":"4134","name":"Dürrenäsch","shortName":"Dürrenäsch"},"district":{"key":"1905","name":"Bezirk Kulm"},"canton":{"key":"19","code":"AG","name":"Aargau"},"status":"Real"},{"key":"10034322","name":"Breitacherstrasse","postalCode":"5724","locality":"Dürrenäsch","commune":{"key":"4134","name":"Dürrenäsch","shortName":"Dürrenäsch"},"district":{"key":"1905","name":"Bezirk Kulm"},"canton":{"key":"19","code":"AG","name":"Aargau"},"status":"Real"},{"key":"10086539","name":"Brühlmattstrasse","postalCode":"5724","locality":"Dürrenäsch","commune":{"key":"4134","name":"Dürrenäsch","shortName":"Dürrenäsch"},"district":{"key":"1905","name":"Bezirk Kulm"},"canton":{"key":"19","code":"AG","name":"Aargau"},"status":"Real"},{"key":"10034323","name":"Brühlstrasse","postalCode":"5724","locality":"Dürrenäsch","commune":{"key":"4134","name":"Dürrenäsch","shortName":"Dürrenäsch"},"district":{"key":"1905","name":"Bezirk Kulm"},"canton":{"key":"19","code":"AG","name":"Aargau"},"status":"Real"},{"key":"10190032","name":"Brünneliweg","postalCode":"5724","locality":"Dürrenäsch","commune":{"key":"4134","name":"Dürrenäsch","shortName":"Dürrenäsch"},"district":{"key":"1905","name":"Bezirk Kulm"},"canton":{"key":"19","code":"AG","name":"Aargau"},"status":"Real"},{"key":"10167208","name":"Chnübelstrasse","postalCode":"5724","locality":"Dürrenäsch","commune":{"key":"4134","name":"Dürrenäsch","shortName":"Dürrenäsch"},"district":{"key":"1905","name":"Bezirk Kulm"},"canton":{"key":"19","code":"AG","name":"Aargau"},"status":"Real"},{"key":"10050619","name":"Dornhügel","postalCode":"5724","locality":"Dürrenäsch","commune":{"key":"4134","name":"Dürrenäsch","shortName":"Dürrenäsch"},"district":{"key":"1905","name":"Bezirk Kulm"},"canton":{"key":"19","code":"AG","name":"Aargau"},"status":"Real"},{"key":"10034324","name":"Dornhügelstrasse","postalCode":"5724","locality":"Dürrenäsch","commune":{"key":"4134","name":"Dürrenäsch","shortName":"Dürrenäsch"},"district":{"key":"1905","name":"Bezirk Kulm"},"canton":{"key":"19","code":"AG","name":"Aargau"},"status":"Real"},{"key":"10034325","name":"Ebnistrasse","postalCode":"5724","locality":"Dürrenäsch","commune":{"key":"4134","name":"Dürrenäsch","shortName":"Dürrenäsch"},"district":{"key":"1905","name":"Bezirk Kulm"},"canton":{"key":"19","code":"AG","name":"Aargau"},"status":"Real"},{"key":"10069404","name":"Friedhofstrasse","postalCode":"5724","locality":"Dürrenäsch","commune":{"key":"4134","name":"Dürrenäsch","shortName":"Dürrenäsch"},"district":{"key":"1905","name":"Bezirk Kulm"},"canton":{"key":"19","code":"AG","name":"Aargau"},"status":"Real"},{"key":"10034328","name":"Häberistrasse","postalCode":"5724","locality":"Dürrenäsch","commune":{"key":"4134","name":"Dürrenäsch","shortName":"Dürrenäsch"},"district":{"key":"1905","name":"Bezirk Kulm"},"canton":{"key":"19","code":"AG","name":"Aargau"},"status":"Real"},{"key":"10123550","name":"Hagelgasse","postalCode":"5724","locality":"Dürrenäsch","commune":{"key":"4134","name":"Dürrenäsch","shortName":"Dürrenäsch"},"district":{"key":"1905","name":"Bezirk Kulm"},"canton":{"key":"19","code":"AG","name":"Aargau"},"status":"Real"},{"key":"10034326","name":"Hallwilerstrasse","postalCode":"5724","locality":"Dürrenäsch","commune":{"key":"4134","name":"Dürrenäsch","shortName":"Dürrenäsch"},"district":{"key":"1905","name":"Bezirk Kulm"},"canton":{"key":"19","code":"AG","name":"Aargau"},"status":"Real"},{"key":"10146648","name":"Hellmattring","postalCode":"5724","locality":"Dürrenäsch","commune":{"key":"4134","name":"Dürrenäsch","shortName":"Dürrenäsch"},"district":{"key":"1905","name":"Bezirk Kulm"},"canton":{"key":"19","code":"AG","name":"Aargau"},"status":"Real"},{"key":"10086540","name":"Hintersedelstrasse","postalCode":"5724","locality":"Dürrenäsch","commune":{"key":"4134","name":"Dürrenäsch","shortName":"Dürrenäsch"},"district":{"key":"1905","name":"Bezirk Kulm"},"canton":{"key":"19","code":"AG","name":"Aargau"},"status":"Real"},{"key":"10180738","name":"Hobacherstrasse","postalCode":"5724","locality":"Dürrenäsch","commune":{"key":"4134","name":"Dürrenäsch","shortName":"Dürrenäsch"},"district":{"key":"1905","name":"Bezirk Kulm"},"canton":{"key":"19","code":"AG","name":"Aargau"},"status":"Real"},{"key":"10034329","name":"Höchweidstrasse","postalCode":"5724","locality":"Dürrenäsch","commune":{"key":"4134","name":"Dürrenäsch","shortName":"Dürrenäsch"},"district":{"key":"1905","name":"Bezirk Kulm"},"canton":{"key":"19","code":"AG","name":"Aargau"},"status":"Real"},{"key":"10034327","name":"Hofmatt","postalCode":"5724","locality":"Dürrenäsch","commune":{"key":"4134","name":"Dürrenäsch","shortName":"Dürrenäsch"},"district":{"key":"1905","name":"Bezirk Kulm"},"canton":{"key":"19","code":"AG","name":"Aargau"},"status":"Real"},{"key":"10086541","name":"Höhestrasse","postalCode":"5724","locality":"Dürrenäsch","commune":{"key":"4134","name":"Dürrenäsch","shortName":"Dürrenäsch"},"district":{"key":"1905","name":"Bezirk Kulm"},"canton":{"key":"19","code":"AG","name":"Aargau"},"status":"Real"},{"key":"10069405","name":"Hutmattstrasse","postalCode":"5724","locality":"Dürrenäsch","commune":{"key":"4134","name":"Dürrenäsch","shortName":"Dürrenäsch"},"district":{"key":"1905","name":"Bezirk Kulm"},"canton":{"key":"19","code":"AG","name":"Aargau"},"status":"Real"},{"key":"10167209","name":"Jurastrasse","postalCode":"5724","locality":"Dürrenäsch","commune":{"key":"4134","name":"Dürrenäsch","shortName":"Dürrenäsch"},"district":{"key":"1905","name":"Bezirk Kulm"},"canton":{"key":"19","code":"AG","name":"Aargau"},"status":"Real"},{"key":"10101732","name":"Leutwilerstrasse","postalCode":"5724","locality":"Dürrenäsch","commune":{"key":"4134","name":"Dürrenäsch","shortName":"Dürrenäsch"},"district":{"key":"1905","name":"Bezirk Kulm"},"canton":{"key":"19","code":"AG","name":"Aargau"},"status":"Real"},{"key":"10034330","name":"Lindhübelstrasse","postalCode":"5724","locality":"Dürrenäsch","commune":{"key":"4134","name":"Dürrenäsch","shortName":"Dürrenäsch"},"district":{"key":"1905","name":"Bezirk Kulm"},"canton":{"key":"19","code":"AG","name":"Aargau"},"status":"Real"},{"key":"10108901","name":"Mittelsedelstrasse","postalCode":"5724","locality":"Dürrenäsch","commune":{"key":"4134","name":"Dürrenäsch","shortName":"Dürrenäsch"},"district":{"key":"1905","name":"Bezirk Kulm"},"canton":{"key":"19","code":"AG","name":"Aargau"},"status":"Real"},{"key":"10034331","name":"Moosacherstrasse","postalCode":"5724","locality":"Dürrenäsch","commune":{"key":"4134","name":"Dürrenäsch","shortName":"Dürrenäsch"},"district":{"key":"1905","name":"Bezirk Kulm"},"canton":{"key":"19","code":"AG","name":"Aargau"},"status":"Real"},{"key":"10116973","name":"Obere Höhe","postalCode":"5724","locality":"Dürrenäsch","commune":{"key":"4134","name":"Dürrenäsch","shortName":"Dürrenäsch"},"district":{"key":"1905","name":"Bezirk Kulm"},"canton":{"key":"19","code":"AG","name":"Aargau"},"status":"Real"},{"key":"10167210","name":"Pintenstrasse","postalCode":"5724","locality":"Dürrenäsch","commune":{"key":"4134","name":"Dürrenäsch","shortName":"Dürrenäsch"},"district":{"key":"1905","name":"Bezirk Kulm"},"canton":{"key":"19","code":"AG","name":"Aargau"},"status":"Real"},{"key":"10239153","name":"Rainacker","postalCode":"5724","locality":"Dürrenäsch","commune":{"key":"4134","name":"Dürrenäsch","shortName":"Dürrenäsch"},"district":{"key":"1905","name":"Bezirk Kulm"},"canton":{"key":"19","code":"AG","name":"Aargau"},"status":"Real"},{"key":"10051521","name":"Sandrainstrasse","postalCode":"5724","locality":"Dürrenäsch","commune":{"key":"4134","name":"Dürrenäsch","shortName":"Dürrenäsch"},"district":{"key":"1905","name":"Bezirk Kulm"},"canton":{"key":"19","code":"AG","name":"Aargau"},"status":"Real"},{"key":"10034332","name":"Schanz","postalCode":"5724","locality":"Dürrenäsch","commune":{"key":"4134","name":"Dürrenäsch","shortName":"Dürrenäsch"},"district":{"key":"1905","name":"Bezirk Kulm"},"canton":{"key":"19","code":"AG","name":"Aargau"},"status":"Real"},{"key":"10034333","name":"Schanzweg","postalCode":"5724","locality":"Dürrenäsch","commune":{"key":"4134","name":"Dürrenäsch","shortName":"Dürrenäsch"},"district":{"key":"1905","name":"Bezirk Kulm"},"canton":{"key":"19","code":"AG","name":"Aargau"},"status":"Real"},{"key":"10086542","name":"Sedelstrasse","postalCode":"5724","locality":"Dürrenäsch","commune":{"key":"4134","name":"Dürrenäsch","shortName":"Dürrenäsch"},"district":{"key":"1905","name":"Bezirk Kulm"},"canton":{"key":"19","code":"AG","name":"Aargau"},"status":"Real"},{"key":"10163693","name":"Sonnenweg","postalCode":"5724","locality":"Dürrenäsch","commune":{"key":"4134","name":"Dürrenäsch","shortName":"Dürrenäsch"},"district":{"key":"1905","name":"Bezirk Kulm"},"canton":{"key":"19","code":"AG","name":"Aargau"},"status":"Real"},{"key":"10051522","name":"Staldenstrasse","postalCode":"5724","locality":"Dürrenäsch","commune":{"key":"4134","name":"Dürrenäsch","shortName":"Dürrenäsch"},"district":{"key":"1905","name":"Bezirk Kulm"},"canton":{"key":"19","code":"AG","name":"Aargau"},"status":"Real"},{"key":"10124767","name":"Ställistrasse","postalCode":"5724","locality":"Dürrenäsch","commune":{"key":"4134","name":"Dürrenäsch","shortName":"Dürrenäsch"},"district":{"key":"1905","name":"Bezirk Kulm"},"canton":{"key":"19","code":"AG","name":"Aargau"},"status":"Real"},{"key":"10069406","name":"Steinmüristrasse","postalCode":"5724","locality":"Dürrenäsch","commune":{"key":"4134","name":"Dürrenäsch","shortName":"Dürrenäsch"},"district":{"key":"1905","name":"Bezirk Kulm"},"canton":{"key":"19","code":"AG","name":"Aargau"},"status":"Real"},{"key":"10112885","name":"Teufenthalerstrasse","postalCode":"5724","locality":"Dürrenäsch","commune":{"key":"4134","name":"Dürrenäsch","shortName":"Dürrenäsch"},"district":{"key":"1905","name":"Bezirk Kulm"},"canton":{"key":"19","code":"AG","name":"Aargau"},"status":"Real"},{"key":"10051523","name":"Wolfacherstrasse","postalCode":"5724","locality":"Dürrenäsch","commune":{"key":"4134","name":"Dürrenäsch","shortName":"Dürrenäsch"},"district":{"key":"1905","name":"Bezirk Kulm"},"canton":{"key":"19","code":"AG","name":"Aargau"},"status":"Real"},{"key":"10122310","name":"Wolfacherweg","postalCode":"5724","locality":"Dürrenäsch","commune":{"key":"4134","name":"Dürrenäsch","shortName":"Dürrenäsch"},"district":{"key":"1905","name":"Bezirk Kulm"},"canton":{"key":"19","code":"AG","name":"Aargau"},"status":"Real"},{"key":"10188747","name":"Wührestrasse","postalCode":"5724","locality":"Dürrenäsch","commune":{"key":"4134","name":"Dürrenäsch","shortName":"Dürrenäsch"},"district":{"key":"1905","name":"Bezirk Kulm"},"canton":{"key":"19","code":"AG","name":"Aargau"},"status":"Real"},{"key":"10139431","name":"Zehntengasse","postalCode":"5724","locality":"Dürrenäsch","commune":{"key":"4134","name":"Dürrenäsch","shortName":"Dürrenäsch"},"district":{"key":"1905","name":"Bezirk Kulm"},"canton":{"key":"19","code":"AG","name":"Aargau"},"status":"Real"},{"key":"10167211","name":"Zelglistrasse","postalCode":"5724","locality":"Dürrenäsch","commune":{"key":"4134","name":"Dürrenäsch","shortName":"Dürrenäsch"},"district":{"key":"1905","name":"Bezirk Kulm"},"canton":{"key":"19","code":"AG","name":"Aargau"},"status":"Real"},{"key":"10190033","name":"Zilacherstrasse","postalCode":"5724","locality":"Dürrenäsch","commune":{"key":"4134","name":"Dürrenäsch","shortName":"Dürrenäsch"},"district":{"key":"1905","name":"Bezirk Kulm"},"canton":{"key":"19","code":"AG","name":"Aargau"},"status":"Real"},]