[{"name":"Aalfang","postalCode":"22955","locality":"Hoisdorf","municipality":{"key":"01062035","name":"Hoisdorf","type":"Kreisangehörige_Gemeinde"},"district":{"key":"01062","name":"Stormarn","type":"Kreis"},"federalState":{"key":"01","name":"Schleswig-Holstein"}},{"name":"Achtern Diek","postalCode":"22955","locality":"Hoisdorf","municipality":{"key":"01062035","name":"Hoisdorf","type":"Kreisangehörige_Gemeinde"},"district":{"key":"01062","name":"Stormarn","type":"Kreis"},"federalState":{"key":"01","name":"Schleswig-Holstein"}},{"name":"Am Dorfmuseum","postalCode":"22955","locality":"Hoisdorf","municipality":{"key":"01062035","name":"Hoisdorf","type":"Kreisangehörige_Gemeinde"},"district":{"key":"01062","name":"Stormarn","type":"Kreis"},"federalState":{"key":"01","name":"Schleswig-Holstein"}},{"name":"Am Eichenhain","postalCode":"22955","locality":"Hoisdorf","municipality":{"key":"01062035","name":"Hoisdorf","type":"Kreisangehörige_Gemeinde"},"district":{"key":"01062","name":"Stormarn","type":"Kreis"},"federalState":{"key":"01","name":"Schleswig-Holstein"}},{"name":"Am Rühmen","postalCode":"22955","locality":"Hoisdorf","municipality":{"key":"01062035","name":"Hoisdorf","type":"Kreisangehörige_Gemeinde"},"district":{"key":"01062","name":"Stormarn","type":"Kreis"},"federalState":{"key":"01","name":"Schleswig-Holstein"}},{"name":"Am Schwarzen Berg","postalCode":"22955","locality":"Hoisdorf","municipality":{"key":"01062035","name":"Hoisdorf","type":"Kreisangehörige_Gemeinde"},"district":{"key":"01062","name":"Stormarn","type":"Kreis"},"federalState":{"key":"01","name":"Schleswig-Holstein"}},{"name":"An der Buschkoppel","postalCode":"22955","locality":"Hoisdorf","municipality":{"key":"01062035","name":"Hoisdorf","type":"Kreisangehörige_Gemeinde"},"district":{"key":"01062","name":"Stormarn","type":"Kreis"},"federalState":{"key":"01","name":"Schleswig-Holstein"}},{"name":"Auf der Horst","postalCode":"22961","locality":"Hoisdorf","municipality":{"key":"01062035","name":"Hoisdorf","type":"Kreisangehörige_Gemeinde"},"district":{"key":"01062","name":"Stormarn","type":"Kreis"},"federalState":{"key":"01","name":"Schleswig-Holstein"}},{"name":"Baggerkuhle","postalCode":"22955","locality":"Hoisdorf","municipality":{"key":"01062035","name":"Hoisdorf","type":"Kreisangehörige_Gemeinde"},"district":{"key":"01062","name":"Stormarn","type":"Kreis"},"federalState":{"key":"01","name":"Schleswig-Holstein"}},{"name":"Bahnhofstr.","postalCode":"22955","locality":"Hoisdorf","municipality":{"key":"01062035","name":"Hoisdorf","type":"Kreisangehörige_Gemeinde"},"district":{"key":"01062","name":"Stormarn","type":"Kreis"},"federalState":{"key":"01","name":"Schleswig-Holstein"}},{"name":"Baumhofredder","postalCode":"22955","locality":"Hoisdorf","municipality":{"key":"01062035","name":"Hoisdorf","type":"Kreisangehörige_Gemeinde"},"district":{"key":"01062","name":"Stormarn","type":"Kreis"},"federalState":{"key":"01","name":"Schleswig-Holstein"}},{"name":"Baumkaten","postalCode":"22955","locality":"Hoisdorf","municipality":{"key":"01062035","name":"Hoisdorf","type":"Kreisangehörige_Gemeinde"},"district":{"key":"01062","name":"Stormarn","type":"Kreis"},"federalState":{"key":"01","name":"Schleswig-Holstein"}},{"name":"Birkenweg","postalCode":"22955","locality":"Hoisdorf","municipality":{"key":"01062035","name":"Hoisdorf","type":"Kreisangehörige_Gemeinde"},"district":{"key":"01062","name":"Stormarn","type":"Kreis"},"federalState":{"key":"01","name":"Schleswig-Holstein"}},{"name":"Bradenhoff","postalCode":"22955","locality":"Hoisdorf","municipality":{"key":"01062035","name":"Hoisdorf","type":"Kreisangehörige_Gemeinde"},"district":{"key":"01062","name":"Stormarn","type":"Kreis"},"federalState":{"key":"01","name":"Schleswig-Holstein"}},{"name":"Buchenweg","postalCode":"22955","locality":"Hoisdorf","municipality":{"key":"01062035","name":"Hoisdorf","type":"Kreisangehörige_Gemeinde"},"district":{"key":"01062","name":"Stormarn","type":"Kreis"},"federalState":{"key":"01","name":"Schleswig-Holstein"}},{"name":"Dorfstr.","postalCode":"22955","locality":"Hoisdorf","municipality":{"key":"01062035","name":"Hoisdorf","type":"Kreisangehörige_Gemeinde"},"district":{"key":"01062","name":"Stormarn","type":"Kreis"},"federalState":{"key":"01","name":"Schleswig-Holstein"}},{"name":"Eichenweg","postalCode":"22961","locality":"Hoisdorf","municipality":{"key":"01062035","name":"Hoisdorf","type":"Kreisangehörige_Gemeinde"},"district":{"key":"01062","name":"Stormarn","type":"Kreis"},"federalState":{"key":"01","name":"Schleswig-Holstein"}},{"name":"Fuhrwegen","postalCode":"22955","locality":"Hoisdorf","municipality":{"key":"01062035","name":"Hoisdorf","type":"Kreisangehörige_Gemeinde"},"district":{"key":"01062","name":"Stormarn","type":"Kreis"},"federalState":{"key":"01","name":"Schleswig-Holstein"}},{"name":"Fürstenkaten","postalCode":"22961","locality":"Hoisdorf","municipality":{"key":"01062035","name":"Hoisdorf","type":"Kreisangehörige_Gemeinde"},"district":{"key":"01062","name":"Stormarn","type":"Kreis"},"federalState":{"key":"01","name":"Schleswig-Holstein"}},{"name":"Gölmer Weg","postalCode":"22961","locality":"Hoisdorf","municipality":{"key":"01062035","name":"Hoisdorf","type":"Kreisangehörige_Gemeinde"},"district":{"key":"01062","name":"Stormarn","type":"Kreis"},"federalState":{"key":"01","name":"Schleswig-Holstein"}},{"name":"Gottesgabe","postalCode":"22955","locality":"Hoisdorf","municipality":{"key":"01062035","name":"Hoisdorf","type":"Kreisangehörige_Gemeinde"},"district":{"key":"01062","name":"Stormarn","type":"Kreis"},"federalState":{"key":"01","name":"Schleswig-Holstein"}},{"name":"Heidkoppel","postalCode":"22955","locality":"Hoisdorf","municipality":{"key":"01062035","name":"Hoisdorf","type":"Kreisangehörige_Gemeinde"},"district":{"key":"01062","name":"Stormarn","type":"Kreis"},"federalState":{"key":"01","name":"Schleswig-Holstein"}},{"name":"Immenhagen","postalCode":"22955","locality":"Hoisdorf","municipality":{"key":"01062035","name":"Hoisdorf","type":"Kreisangehörige_Gemeinde"},"district":{"key":"01062","name":"Stormarn","type":"Kreis"},"federalState":{"key":"01","name":"Schleswig-Holstein"}},{"name":"Kahlenredder","postalCode":"22961","locality":"Hoisdorf","municipality":{"key":"01062035","name":"Hoisdorf","type":"Kreisangehörige_Gemeinde"},"district":{"key":"01062","name":"Stormarn","type":"Kreis"},"federalState":{"key":"01","name":"Schleswig-Holstein"}},{"name":"Kahlenweg","postalCode":"22955","locality":"Hoisdorf","municipality":{"key":"01062035","name":"Hoisdorf","type":"Kreisangehörige_Gemeinde"},"district":{"key":"01062","name":"Stormarn","type":"Kreis"},"federalState":{"key":"01","name":"Schleswig-Holstein"}},{"name":"Kastanienallee","postalCode":"22955","locality":"Hoisdorf","municipality":{"key":"01062035","name":"Hoisdorf","type":"Kreisangehörige_Gemeinde"},"district":{"key":"01062","name":"Stormarn","type":"Kreis"},"federalState":{"key":"01","name":"Schleswig-Holstein"}},{"name":"Kort Twiet","postalCode":"22955","locality":"Hoisdorf","municipality":{"key":"01062035","name":"Hoisdorf","type":"Kreisangehörige_Gemeinde"},"district":{"key":"01062","name":"Stormarn","type":"Kreis"},"federalState":{"key":"01","name":"Schleswig-Holstein"}},{"name":"Kruetz","postalCode":"22955","locality":"Hoisdorf","municipality":{"key":"01062035","name":"Hoisdorf","type":"Kreisangehörige_Gemeinde"},"district":{"key":"01062","name":"Stormarn","type":"Kreis"},"federalState":{"key":"01","name":"Schleswig-Holstein"}},{"name":"Lütjenseer Str.","postalCode":"22961","locality":"Hoisdorf","municipality":{"key":"01062035","name":"Hoisdorf","type":"Kreisangehörige_Gemeinde"},"district":{"key":"01062","name":"Stormarn","type":"Kreis"},"federalState":{"key":"01","name":"Schleswig-Holstein"}},{"name":"Meisenweg","postalCode":"22955","locality":"Hoisdorf","municipality":{"key":"01062035","name":"Hoisdorf","type":"Kreisangehörige_Gemeinde"},"district":{"key":"01062","name":"Stormarn","type":"Kreis"},"federalState":{"key":"01","name":"Schleswig-Holstein"}},{"name":"Moorweg","postalCode":"22955","locality":"Hoisdorf","municipality":{"key":"01062035","name":"Hoisdorf","type":"Kreisangehörige_Gemeinde"},"district":{"key":"01062","name":"Stormarn","type":"Kreis"},"federalState":{"key":"01","name":"Schleswig-Holstein"}},{"name":"Mühlendiekerredder","postalCode":"22961","locality":"Hoisdorf","municipality":{"key":"01062035","name":"Hoisdorf","type":"Kreisangehörige_Gemeinde"},"district":{"key":"01062","name":"Stormarn","type":"Kreis"},"federalState":{"key":"01","name":"Schleswig-Holstein"}},{"name":"Oetjendorfer Kirchenweg","postalCode":"22955","locality":"Hoisdorf","municipality":{"key":"01062035","name":"Hoisdorf","type":"Kreisangehörige_Gemeinde"},"district":{"key":"01062","name":"Stormarn","type":"Kreis"},"federalState":{"key":"01","name":"Schleswig-Holstein"}},{"name":"Oetjendorfer Landstr.","postalCode":"22955","locality":"Hoisdorf","municipality":{"key":"01062035","name":"Hoisdorf","type":"Kreisangehörige_Gemeinde"},"district":{"key":"01062","name":"Stormarn","type":"Kreis"},"federalState":{"key":"01","name":"Schleswig-Holstein"}},{"name":"Oetjendorfer Landstr.","postalCode":"22961","locality":"Hoisdorf","municipality":{"key":"01062035","name":"Hoisdorf","type":"Kreisangehörige_Gemeinde"},"district":{"key":"01062","name":"Stormarn","type":"Kreis"},"federalState":{"key":"01","name":"Schleswig-Holstein"}},{"name":"Rodelberg","postalCode":"22955","locality":"Hoisdorf","municipality":{"key":"01062035","name":"Hoisdorf","type":"Kreisangehörige_Gemeinde"},"district":{"key":"01062","name":"Stormarn","type":"Kreis"},"federalState":{"key":"01","name":"Schleswig-Holstein"}},{"name":"Schewenhorst","postalCode":"22955","locality":"Hoisdorf","municipality":{"key":"01062035","name":"Hoisdorf","type":"Kreisangehörige_Gemeinde"},"district":{"key":"01062","name":"Stormarn","type":"Kreis"},"federalState":{"key":"01","name":"Schleswig-Holstein"}},{"name":"Schierenplack","postalCode":"22955","locality":"Hoisdorf","municipality":{"key":"01062035","name":"Hoisdorf","type":"Kreisangehörige_Gemeinde"},"district":{"key":"01062","name":"Stormarn","type":"Kreis"},"federalState":{"key":"01","name":"Schleswig-Holstein"}},{"name":"Schultwiete","postalCode":"22955","locality":"Hoisdorf","municipality":{"key":"01062035","name":"Hoisdorf","type":"Kreisangehörige_Gemeinde"},"district":{"key":"01062","name":"Stormarn","type":"Kreis"},"federalState":{"key":"01","name":"Schleswig-Holstein"}},{"name":"Schwarzenbrooker Weg","postalCode":"22955","locality":"Hoisdorf","municipality":{"key":"01062035","name":"Hoisdorf","type":"Kreisangehörige_Gemeinde"},"district":{"key":"01062","name":"Stormarn","type":"Kreis"},"federalState":{"key":"01","name":"Schleswig-Holstein"}},{"name":"Schwarzer Weg","postalCode":"22955","locality":"Hoisdorf","municipality":{"key":"01062035","name":"Hoisdorf","type":"Kreisangehörige_Gemeinde"},"district":{"key":"01062","name":"Stormarn","type":"Kreis"},"federalState":{"key":"01","name":"Schleswig-Holstein"}},{"name":"Schwarzrieh","postalCode":"22955","locality":"Hoisdorf","municipality":{"key":"01062035","name":"Hoisdorf","type":"Kreisangehörige_Gemeinde"},"district":{"key":"01062","name":"Stormarn","type":"Kreis"},"federalState":{"key":"01","name":"Schleswig-Holstein"}},{"name":"Sieker Berg","postalCode":"22962","locality":"Hoisdorf","municipality":{"key":"01062035","name":"Hoisdorf","type":"Kreisangehörige_Gemeinde"},"district":{"key":"01062","name":"Stormarn","type":"Kreis"},"federalState":{"key":"01","name":"Schleswig-Holstein"}},{"name":"Sprenger Weg","postalCode":"22955","locality":"Hoisdorf","municipality":{"key":"01062035","name":"Hoisdorf","type":"Kreisangehörige_Gemeinde"},"district":{"key":"01062","name":"Stormarn","type":"Kreis"},"federalState":{"key":"01","name":"Schleswig-Holstein"}},{"name":"Sprenger Weg","postalCode":"22961","locality":"Hoisdorf","municipality":{"key":"01062035","name":"Hoisdorf","type":"Kreisangehörige_Gemeinde"},"district":{"key":"01062","name":"Stormarn","type":"Kreis"},"federalState":{"key":"01","name":"Schleswig-Holstein"}},{"name":"Tannenweg","postalCode":"22955","locality":"Hoisdorf","municipality":{"key":"01062035","name":"Hoisdorf","type":"Kreisangehörige_Gemeinde"},"district":{"key":"01062","name":"Stormarn","type":"Kreis"},"federalState":{"key":"01","name":"Schleswig-Holstein"}},{"name":"Thie","postalCode":"22955","locality":"Hoisdorf","municipality":{"key":"01062035","name":"Hoisdorf","type":"Kreisangehörige_Gemeinde"},"district":{"key":"01062","name":"Stormarn","type":"Kreis"},"federalState":{"key":"01","name":"Schleswig-Holstein"}},{"name":"Uferweg","postalCode":"22955","locality":"Hoisdorf","municipality":{"key":"01062035","name":"Hoisdorf","type":"Kreisangehörige_Gemeinde"},"district":{"key":"01062","name":"Stormarn","type":"Kreis"},"federalState":{"key":"01","name":"Schleswig-Holstein"}},{"name":"Viehkaten","postalCode":"22955","locality":"Hoisdorf","municipality":{"key":"01062035","name":"Hoisdorf","type":"Kreisangehörige_Gemeinde"},"district":{"key":"01062","name":"Stormarn","type":"Kreis"},"federalState":{"key":"01","name":"Schleswig-Holstein"}},{"name":"Waldstr.","postalCode":"22955","locality":"Hoisdorf","municipality":{"key":"01062035","name":"Hoisdorf","type":"Kreisangehörige_Gemeinde"},"district":{"key":"01062","name":"Stormarn","type":"Kreis"},"federalState":{"key":"01","name":"Schleswig-Holstein"}},{"name":"Waldweg","postalCode":"22955","locality":"Hoisdorf","municipality":{"key":"01062035","name":"Hoisdorf","type":"Kreisangehörige_Gemeinde"},"district":{"key":"01062","name":"Stormarn","type":"Kreis"},"federalState":{"key":"01","name":"Schleswig-Holstein"}},{"name":"Wastenfelder Redder","postalCode":"22955","locality":"Hoisdorf","municipality":{"key":"01062035","name":"Hoisdorf","type":"Kreisangehörige_Gemeinde"},"district":{"key":"01062","name":"Stormarn","type":"Kreis"},"federalState":{"key":"01","name":"Schleswig-Holstein"}},{"name":"Wulfsmoor","postalCode":"22955","locality":"Hoisdorf","municipality":{"key":"01062035","name":"Hoisdorf","type":"Kreisangehörige_Gemeinde"},"district":{"key":"01062","name":"Stormarn","type":"Kreis"},"federalState":{"key":"01","name":"Schleswig-Holstein"}},]