[{"name":"Am Acker","postalCode":"56253","locality":"Treis-Karden","municipality":{"key":"07135082","name":"Treis-Karden","type":"Kreisangehörige_Gemeinde"},"district":{"key":"07135","name":"Cochem-Zell","type":"Landkreis"},"federalState":{"key":"07","name":"Rheinland-Pfalz"}},{"name":"Am Buttermarkt","postalCode":"56253","locality":"Treis-Karden","municipality":{"key":"07135082","name":"Treis-Karden","type":"Kreisangehörige_Gemeinde"},"district":{"key":"07135","name":"Cochem-Zell","type":"Landkreis"},"federalState":{"key":"07","name":"Rheinland-Pfalz"}},{"name":"Am Kalkofen","postalCode":"56253","locality":"Treis-Karden","municipality":{"key":"07135082","name":"Treis-Karden","type":"Kreisangehörige_Gemeinde"},"district":{"key":"07135","name":"Cochem-Zell","type":"Landkreis"},"federalState":{"key":"07","name":"Rheinland-Pfalz"}},{"name":"Am Laach","postalCode":"56253","locality":"Treis-Karden","municipality":{"key":"07135082","name":"Treis-Karden","type":"Kreisangehörige_Gemeinde"},"district":{"key":"07135","name":"Cochem-Zell","type":"Landkreis"},"federalState":{"key":"07","name":"Rheinland-Pfalz"}},{"name":"Am Markt","postalCode":"56253","locality":"Treis-Karden","municipality":{"key":"07135082","name":"Treis-Karden","type":"Kreisangehörige_Gemeinde"},"district":{"key":"07135","name":"Cochem-Zell","type":"Landkreis"},"federalState":{"key":"07","name":"Rheinland-Pfalz"}},{"name":"Am Mönchelskopf","postalCode":"56253","locality":"Treis-Karden","municipality":{"key":"07135082","name":"Treis-Karden","type":"Kreisangehörige_Gemeinde"},"district":{"key":"07135","name":"Cochem-Zell","type":"Landkreis"},"federalState":{"key":"07","name":"Rheinland-Pfalz"}},{"name":"Am Plenzer","postalCode":"56253","locality":"Treis-Karden","municipality":{"key":"07135082","name":"Treis-Karden","type":"Kreisangehörige_Gemeinde"},"district":{"key":"07135","name":"Cochem-Zell","type":"Landkreis"},"federalState":{"key":"07","name":"Rheinland-Pfalz"}},{"name":"Am Rathaus","postalCode":"56253","locality":"Treis-Karden","municipality":{"key":"07135082","name":"Treis-Karden","type":"Kreisangehörige_Gemeinde"},"district":{"key":"07135","name":"Cochem-Zell","type":"Landkreis"},"federalState":{"key":"07","name":"Rheinland-Pfalz"}},{"name":"Am Tennisplatz","postalCode":"56253","locality":"Treis-Karden","municipality":{"key":"07135082","name":"Treis-Karden","type":"Kreisangehörige_Gemeinde"},"district":{"key":"07135","name":"Cochem-Zell","type":"Landkreis"},"federalState":{"key":"07","name":"Rheinland-Pfalz"}},{"name":"An der Hauptschule","postalCode":"56253","locality":"Treis-Karden","municipality":{"key":"07135082","name":"Treis-Karden","type":"Kreisangehörige_Gemeinde"},"district":{"key":"07135","name":"Cochem-Zell","type":"Landkreis"},"federalState":{"key":"07","name":"Rheinland-Pfalz"}},{"name":"Auf Allmesch","postalCode":"56253","locality":"Treis-Karden","municipality":{"key":"07135082","name":"Treis-Karden","type":"Kreisangehörige_Gemeinde"},"district":{"key":"07135","name":"Cochem-Zell","type":"Landkreis"},"federalState":{"key":"07","name":"Rheinland-Pfalz"}},{"name":"Auf Daubhaus","postalCode":"56253","locality":"Treis-Karden","municipality":{"key":"07135082","name":"Treis-Karden","type":"Kreisangehörige_Gemeinde"},"district":{"key":"07135","name":"Cochem-Zell","type":"Landkreis"},"federalState":{"key":"07","name":"Rheinland-Pfalz"}},{"name":"Auf der Hohl","postalCode":"56253","locality":"Treis-Karden","municipality":{"key":"07135082","name":"Treis-Karden","type":"Kreisangehörige_Gemeinde"},"district":{"key":"07135","name":"Cochem-Zell","type":"Landkreis"},"federalState":{"key":"07","name":"Rheinland-Pfalz"}},{"name":"Auf der Kipp","postalCode":"56253","locality":"Treis-Karden","municipality":{"key":"07135082","name":"Treis-Karden","type":"Kreisangehörige_Gemeinde"},"district":{"key":"07135","name":"Cochem-Zell","type":"Landkreis"},"federalState":{"key":"07","name":"Rheinland-Pfalz"}},{"name":"Auf Kerbel","postalCode":"56253","locality":"Treis-Karden","municipality":{"key":"07135082","name":"Treis-Karden","type":"Kreisangehörige_Gemeinde"},"district":{"key":"07135","name":"Cochem-Zell","type":"Landkreis"},"federalState":{"key":"07","name":"Rheinland-Pfalz"}},{"name":"Auf Pesch","postalCode":"56253","locality":"Treis-Karden","municipality":{"key":"07135082","name":"Treis-Karden","type":"Kreisangehörige_Gemeinde"},"district":{"key":"07135","name":"Cochem-Zell","type":"Landkreis"},"federalState":{"key":"07","name":"Rheinland-Pfalz"}},{"name":"Bergstr.","postalCode":"56253","locality":"Treis-Karden","municipality":{"key":"07135082","name":"Treis-Karden","type":"Kreisangehörige_Gemeinde"},"district":{"key":"07135","name":"Cochem-Zell","type":"Landkreis"},"federalState":{"key":"07","name":"Rheinland-Pfalz"}},{"name":"Beurenkern","postalCode":"56253","locality":"Treis-Karden","municipality":{"key":"07135082","name":"Treis-Karden","type":"Kreisangehörige_Gemeinde"},"district":{"key":"07135","name":"Cochem-Zell","type":"Landkreis"},"federalState":{"key":"07","name":"Rheinland-Pfalz"}},{"name":"Bogenstr.","postalCode":"56253","locality":"Treis-Karden","municipality":{"key":"07135082","name":"Treis-Karden","type":"Kreisangehörige_Gemeinde"},"district":{"key":"07135","name":"Cochem-Zell","type":"Landkreis"},"federalState":{"key":"07","name":"Rheinland-Pfalz"}},{"name":"Brückenstr.","postalCode":"56253","locality":"Treis-Karden","municipality":{"key":"07135082","name":"Treis-Karden","type":"Kreisangehörige_Gemeinde"},"district":{"key":"07135","name":"Cochem-Zell","type":"Landkreis"},"federalState":{"key":"07","name":"Rheinland-Pfalz"}},{"name":"Bruttiger Str.","postalCode":"56253","locality":"Treis-Karden","municipality":{"key":"07135082","name":"Treis-Karden","type":"Kreisangehörige_Gemeinde"},"district":{"key":"07135","name":"Cochem-Zell","type":"Landkreis"},"federalState":{"key":"07","name":"Rheinland-Pfalz"}},{"name":"Buchsbaumpfad","postalCode":"56253","locality":"Treis-Karden","municipality":{"key":"07135082","name":"Treis-Karden","type":"Kreisangehörige_Gemeinde"},"district":{"key":"07135","name":"Cochem-Zell","type":"Landkreis"},"federalState":{"key":"07","name":"Rheinland-Pfalz"}},{"name":"Burg-Eltz-Weg","postalCode":"56253","locality":"Treis-Karden","municipality":{"key":"07135082","name":"Treis-Karden","type":"Kreisangehörige_Gemeinde"},"district":{"key":"07135","name":"Cochem-Zell","type":"Landkreis"},"federalState":{"key":"07","name":"Rheinland-Pfalz"}},{"name":"Dünnbachtal","postalCode":"56253","locality":"Treis-Karden","municipality":{"key":"07135082","name":"Treis-Karden","type":"Kreisangehörige_Gemeinde"},"district":{"key":"07135","name":"Cochem-Zell","type":"Landkreis"},"federalState":{"key":"07","name":"Rheinland-Pfalz"}},{"name":"Eigenheimstr.","postalCode":"56253","locality":"Treis-Karden","municipality":{"key":"07135082","name":"Treis-Karden","type":"Kreisangehörige_Gemeinde"},"district":{"key":"07135","name":"Cochem-Zell","type":"Landkreis"},"federalState":{"key":"07","name":"Rheinland-Pfalz"}},{"name":"Flaumbachtal","postalCode":"56253","locality":"Treis-Karden","municipality":{"key":"07135082","name":"Treis-Karden","type":"Kreisangehörige_Gemeinde"},"district":{"key":"07135","name":"Cochem-Zell","type":"Landkreis"},"federalState":{"key":"07","name":"Rheinland-Pfalz"}},{"name":"Forststr.","postalCode":"56253","locality":"Treis-Karden","municipality":{"key":"07135082","name":"Treis-Karden","type":"Kreisangehörige_Gemeinde"},"district":{"key":"07135","name":"Cochem-Zell","type":"Landkreis"},"federalState":{"key":"07","name":"Rheinland-Pfalz"}},{"name":"Grabenstr.","postalCode":"56253","locality":"Treis-Karden","municipality":{"key":"07135082","name":"Treis-Karden","type":"Kreisangehörige_Gemeinde"},"district":{"key":"07135","name":"Cochem-Zell","type":"Landkreis"},"federalState":{"key":"07","name":"Rheinland-Pfalz"}},{"name":"Hauptstr.","postalCode":"56253","locality":"Treis-Karden","municipality":{"key":"07135082","name":"Treis-Karden","type":"Kreisangehörige_Gemeinde"},"district":{"key":"07135","name":"Cochem-Zell","type":"Landkreis"},"federalState":{"key":"07","name":"Rheinland-Pfalz"}},{"name":"Herrenstr.","postalCode":"56253","locality":"Treis-Karden","municipality":{"key":"07135082","name":"Treis-Karden","type":"Kreisangehörige_Gemeinde"},"district":{"key":"07135","name":"Cochem-Zell","type":"Landkreis"},"federalState":{"key":"07","name":"Rheinland-Pfalz"}},{"name":"Hinter Abend","postalCode":"56253","locality":"Treis-Karden","municipality":{"key":"07135082","name":"Treis-Karden","type":"Kreisangehörige_Gemeinde"},"district":{"key":"07135","name":"Cochem-Zell","type":"Landkreis"},"federalState":{"key":"07","name":"Rheinland-Pfalz"}},{"name":"Hinter Mont","postalCode":"56253","locality":"Treis-Karden","municipality":{"key":"07135082","name":"Treis-Karden","type":"Kreisangehörige_Gemeinde"},"district":{"key":"07135","name":"Cochem-Zell","type":"Landkreis"},"federalState":{"key":"07","name":"Rheinland-Pfalz"}},{"name":"Hohlweg","postalCode":"56253","locality":"Treis-Karden","municipality":{"key":"07135082","name":"Treis-Karden","type":"Kreisangehörige_Gemeinde"},"district":{"key":"07135","name":"Cochem-Zell","type":"Landkreis"},"federalState":{"key":"07","name":"Rheinland-Pfalz"}},{"name":"Im Fronhof","postalCode":"56253","locality":"Treis-Karden","municipality":{"key":"07135082","name":"Treis-Karden","type":"Kreisangehörige_Gemeinde"},"district":{"key":"07135","name":"Cochem-Zell","type":"Landkreis"},"federalState":{"key":"07","name":"Rheinland-Pfalz"}},{"name":"Im Palert","postalCode":"56253","locality":"Treis-Karden","municipality":{"key":"07135082","name":"Treis-Karden","type":"Kreisangehörige_Gemeinde"},"district":{"key":"07135","name":"Cochem-Zell","type":"Landkreis"},"federalState":{"key":"07","name":"Rheinland-Pfalz"}},{"name":"Im Schafsberg","postalCode":"56253","locality":"Treis-Karden","municipality":{"key":"07135082","name":"Treis-Karden","type":"Kreisangehörige_Gemeinde"},"district":{"key":"07135","name":"Cochem-Zell","type":"Landkreis"},"federalState":{"key":"07","name":"Rheinland-Pfalz"}},{"name":"In der Gräth","postalCode":"56253","locality":"Treis-Karden","municipality":{"key":"07135082","name":"Treis-Karden","type":"Kreisangehörige_Gemeinde"},"district":{"key":"07135","name":"Cochem-Zell","type":"Landkreis"},"federalState":{"key":"07","name":"Rheinland-Pfalz"}},{"name":"Jahnstr.","postalCode":"56253","locality":"Treis-Karden","municipality":{"key":"07135082","name":"Treis-Karden","type":"Kreisangehörige_Gemeinde"},"district":{"key":"07135","name":"Cochem-Zell","type":"Landkreis"},"federalState":{"key":"07","name":"Rheinland-Pfalz"}},{"name":"Johannesstr.","postalCode":"56253","locality":"Treis-Karden","municipality":{"key":"07135082","name":"Treis-Karden","type":"Kreisangehörige_Gemeinde"},"district":{"key":"07135","name":"Cochem-Zell","type":"Landkreis"},"federalState":{"key":"07","name":"Rheinland-Pfalz"}},{"name":"Kastellauner Str.","postalCode":"56253","locality":"Treis-Karden","municipality":{"key":"07135082","name":"Treis-Karden","type":"Kreisangehörige_Gemeinde"},"district":{"key":"07135","name":"Cochem-Zell","type":"Landkreis"},"federalState":{"key":"07","name":"Rheinland-Pfalz"}},{"name":"Katharinenstr.","postalCode":"56253","locality":"Treis-Karden","municipality":{"key":"07135082","name":"Treis-Karden","type":"Kreisangehörige_Gemeinde"},"district":{"key":"07135","name":"Cochem-Zell","type":"Landkreis"},"federalState":{"key":"07","name":"Rheinland-Pfalz"}},{"name":"Keltenweg","postalCode":"56253","locality":"Treis-Karden","municipality":{"key":"07135082","name":"Treis-Karden","type":"Kreisangehörige_Gemeinde"},"district":{"key":"07135","name":"Cochem-Zell","type":"Landkreis"},"federalState":{"key":"07","name":"Rheinland-Pfalz"}},{"name":"Kernstr.","postalCode":"56253","locality":"Treis-Karden","municipality":{"key":"07135082","name":"Treis-Karden","type":"Kreisangehörige_Gemeinde"},"district":{"key":"07135","name":"Cochem-Zell","type":"Landkreis"},"federalState":{"key":"07","name":"Rheinland-Pfalz"}},{"name":"Kirchberger Str.","postalCode":"56253","locality":"Treis-Karden","municipality":{"key":"07135082","name":"Treis-Karden","type":"Kreisangehörige_Gemeinde"},"district":{"key":"07135","name":"Cochem-Zell","type":"Landkreis"},"federalState":{"key":"07","name":"Rheinland-Pfalz"}},{"name":"Kirchstr.","postalCode":"56253","locality":"Treis-Karden","municipality":{"key":"07135082","name":"Treis-Karden","type":"Kreisangehörige_Gemeinde"},"district":{"key":"07135","name":"Cochem-Zell","type":"Landkreis"},"federalState":{"key":"07","name":"Rheinland-Pfalz"}},{"name":"Laygasse","postalCode":"56253","locality":"Treis-Karden","municipality":{"key":"07135082","name":"Treis-Karden","type":"Kreisangehörige_Gemeinde"},"district":{"key":"07135","name":"Cochem-Zell","type":"Landkreis"},"federalState":{"key":"07","name":"Rheinland-Pfalz"}},{"name":"Lindenplatz","postalCode":"56253","locality":"Treis-Karden","municipality":{"key":"07135082","name":"Treis-Karden","type":"Kreisangehörige_Gemeinde"},"district":{"key":"07135","name":"Cochem-Zell","type":"Landkreis"},"federalState":{"key":"07","name":"Rheinland-Pfalz"}},{"name":"Lisbergstr.","postalCode":"56253","locality":"Treis-Karden","municipality":{"key":"07135082","name":"Treis-Karden","type":"Kreisangehörige_Gemeinde"},"district":{"key":"07135","name":"Cochem-Zell","type":"Landkreis"},"federalState":{"key":"07","name":"Rheinland-Pfalz"}},{"name":"Maximinstr.","postalCode":"56253","locality":"Treis-Karden","municipality":{"key":"07135082","name":"Treis-Karden","type":"Kreisangehörige_Gemeinde"},"district":{"key":"07135","name":"Cochem-Zell","type":"Landkreis"},"federalState":{"key":"07","name":"Rheinland-Pfalz"}},{"name":"Mittelstr.","postalCode":"56253","locality":"Treis-Karden","municipality":{"key":"07135082","name":"Treis-Karden","type":"Kreisangehörige_Gemeinde"},"district":{"key":"07135","name":"Cochem-Zell","type":"Landkreis"},"federalState":{"key":"07","name":"Rheinland-Pfalz"}},{"name":"Moselallee","postalCode":"56253","locality":"Treis-Karden","municipality":{"key":"07135082","name":"Treis-Karden","type":"Kreisangehörige_Gemeinde"},"district":{"key":"07135","name":"Cochem-Zell","type":"Landkreis"},"federalState":{"key":"07","name":"Rheinland-Pfalz"}},{"name":"Moselstr.","postalCode":"56253","locality":"Treis-Karden","municipality":{"key":"07135082","name":"Treis-Karden","type":"Kreisangehörige_Gemeinde"},"district":{"key":"07135","name":"Cochem-Zell","type":"Landkreis"},"federalState":{"key":"07","name":"Rheinland-Pfalz"}},{"name":"Neuer Weg","postalCode":"56253","locality":"Treis-Karden","municipality":{"key":"07135082","name":"Treis-Karden","type":"Kreisangehörige_Gemeinde"},"district":{"key":"07135","name":"Cochem-Zell","type":"Landkreis"},"federalState":{"key":"07","name":"Rheinland-Pfalz"}},{"name":"Rainstr.","postalCode":"56253","locality":"Treis-Karden","municipality":{"key":"07135082","name":"Treis-Karden","type":"Kreisangehörige_Gemeinde"},"district":{"key":"07135","name":"Cochem-Zell","type":"Landkreis"},"federalState":{"key":"07","name":"Rheinland-Pfalz"}},{"name":"Römerstr.","postalCode":"56253","locality":"Treis-Karden","municipality":{"key":"07135082","name":"Treis-Karden","type":"Kreisangehörige_Gemeinde"},"district":{"key":"07135","name":"Cochem-Zell","type":"Landkreis"},"federalState":{"key":"07","name":"Rheinland-Pfalz"}},{"name":"Rutsstr.","postalCode":"56253","locality":"Treis-Karden","municipality":{"key":"07135082","name":"Treis-Karden","type":"Kreisangehörige_Gemeinde"},"district":{"key":"07135","name":"Cochem-Zell","type":"Landkreis"},"federalState":{"key":"07","name":"Rheinland-Pfalz"}},{"name":"Schulstr.","postalCode":"56253","locality":"Treis-Karden","municipality":{"key":"07135082","name":"Treis-Karden","type":"Kreisangehörige_Gemeinde"},"district":{"key":"07135","name":"Cochem-Zell","type":"Landkreis"},"federalState":{"key":"07","name":"Rheinland-Pfalz"}},{"name":"St.-Castor-Str.","postalCode":"56253","locality":"Treis-Karden","municipality":{"key":"07135082","name":"Treis-Karden","type":"Kreisangehörige_Gemeinde"},"district":{"key":"07135","name":"Cochem-Zell","type":"Landkreis"},"federalState":{"key":"07","name":"Rheinland-Pfalz"}},{"name":"St.-Georgs-Str.","postalCode":"56253","locality":"Treis-Karden","municipality":{"key":"07135082","name":"Treis-Karden","type":"Kreisangehörige_Gemeinde"},"district":{"key":"07135","name":"Cochem-Zell","type":"Landkreis"},"federalState":{"key":"07","name":"Rheinland-Pfalz"}},{"name":"Unter den Weinbergen","postalCode":"56253","locality":"Treis-Karden","municipality":{"key":"07135082","name":"Treis-Karden","type":"Kreisangehörige_Gemeinde"},"district":{"key":"07135","name":"Cochem-Zell","type":"Landkreis"},"federalState":{"key":"07","name":"Rheinland-Pfalz"}},{"name":"Untere Klause","postalCode":"56253","locality":"Treis-Karden","municipality":{"key":"07135082","name":"Treis-Karden","type":"Kreisangehörige_Gemeinde"},"district":{"key":"07135","name":"Cochem-Zell","type":"Landkreis"},"federalState":{"key":"07","name":"Rheinland-Pfalz"}},{"name":"Vordere Rainstr.","postalCode":"56253","locality":"Treis-Karden","municipality":{"key":"07135082","name":"Treis-Karden","type":"Kreisangehörige_Gemeinde"},"district":{"key":"07135","name":"Cochem-Zell","type":"Landkreis"},"federalState":{"key":"07","name":"Rheinland-Pfalz"}},{"name":"Welsbachstr.","postalCode":"56253","locality":"Treis-Karden","municipality":{"key":"07135082","name":"Treis-Karden","type":"Kreisangehörige_Gemeinde"},"district":{"key":"07135","name":"Cochem-Zell","type":"Landkreis"},"federalState":{"key":"07","name":"Rheinland-Pfalz"}},{"name":"Wildburgmühle","postalCode":"56253","locality":"Treis-Karden","municipality":{"key":"07135082","name":"Treis-Karden","type":"Kreisangehörige_Gemeinde"},"district":{"key":"07135","name":"Cochem-Zell","type":"Landkreis"},"federalState":{"key":"07","name":"Rheinland-Pfalz"}},{"name":"Wolfskaul","postalCode":"56253","locality":"Treis-Karden","municipality":{"key":"07135082","name":"Treis-Karden","type":"Kreisangehörige_Gemeinde"},"district":{"key":"07135","name":"Cochem-Zell","type":"Landkreis"},"federalState":{"key":"07","name":"Rheinland-Pfalz"}},]