[{"name":"Am Buchwald","postalCode":"54456","locality":"Tawern","municipality":{"key":"07235132","name":"Tawern","type":"Kreisangehörige_Gemeinde"},"district":{"key":"07235","name":"Trier-Saarburg","type":"Landkreis"},"federalState":{"key":"07","name":"Rheinland-Pfalz"}},{"name":"Am Hang","postalCode":"54456","locality":"Tawern","municipality":{"key":"07235132","name":"Tawern","type":"Kreisangehörige_Gemeinde"},"district":{"key":"07235","name":"Trier-Saarburg","type":"Landkreis"},"federalState":{"key":"07","name":"Rheinland-Pfalz"}},{"name":"Am Markt","postalCode":"54456","locality":"Tawern","municipality":{"key":"07235132","name":"Tawern","type":"Kreisangehörige_Gemeinde"},"district":{"key":"07235","name":"Trier-Saarburg","type":"Landkreis"},"federalState":{"key":"07","name":"Rheinland-Pfalz"}},{"name":"Am Pflauberg","postalCode":"54456","locality":"Tawern","municipality":{"key":"07235132","name":"Tawern","type":"Kreisangehörige_Gemeinde"},"district":{"key":"07235","name":"Trier-Saarburg","type":"Landkreis"},"federalState":{"key":"07","name":"Rheinland-Pfalz"}},{"name":"Am Sportplatz","postalCode":"54456","locality":"Tawern","municipality":{"key":"07235132","name":"Tawern","type":"Kreisangehörige_Gemeinde"},"district":{"key":"07235","name":"Trier-Saarburg","type":"Landkreis"},"federalState":{"key":"07","name":"Rheinland-Pfalz"}},{"name":"Am Wittum","postalCode":"54456","locality":"Tawern","municipality":{"key":"07235132","name":"Tawern","type":"Kreisangehörige_Gemeinde"},"district":{"key":"07235","name":"Trier-Saarburg","type":"Landkreis"},"federalState":{"key":"07","name":"Rheinland-Pfalz"}},{"name":"Auf der Dört","postalCode":"54456","locality":"Tawern","municipality":{"key":"07235132","name":"Tawern","type":"Kreisangehörige_Gemeinde"},"district":{"key":"07235","name":"Trier-Saarburg","type":"Landkreis"},"federalState":{"key":"07","name":"Rheinland-Pfalz"}},{"name":"Auf der Hard","postalCode":"54456","locality":"Tawern","municipality":{"key":"07235132","name":"Tawern","type":"Kreisangehörige_Gemeinde"},"district":{"key":"07235","name":"Trier-Saarburg","type":"Landkreis"},"federalState":{"key":"07","name":"Rheinland-Pfalz"}},{"name":"Bachstr.","postalCode":"54456","locality":"Tawern","municipality":{"key":"07235132","name":"Tawern","type":"Kreisangehörige_Gemeinde"},"district":{"key":"07235","name":"Trier-Saarburg","type":"Landkreis"},"federalState":{"key":"07","name":"Rheinland-Pfalz"}},{"name":"Bergstr.","postalCode":"54456","locality":"Tawern","municipality":{"key":"07235132","name":"Tawern","type":"Kreisangehörige_Gemeinde"},"district":{"key":"07235","name":"Trier-Saarburg","type":"Landkreis"},"federalState":{"key":"07","name":"Rheinland-Pfalz"}},{"name":"Brunnenstr.","postalCode":"54456","locality":"Tawern","municipality":{"key":"07235132","name":"Tawern","type":"Kreisangehörige_Gemeinde"},"district":{"key":"07235","name":"Trier-Saarburg","type":"Landkreis"},"federalState":{"key":"07","name":"Rheinland-Pfalz"}},{"name":"Fellericher Mühle","postalCode":"54456","locality":"Tawern","municipality":{"key":"07235132","name":"Tawern","type":"Kreisangehörige_Gemeinde"},"district":{"key":"07235","name":"Trier-Saarburg","type":"Landkreis"},"federalState":{"key":"07","name":"Rheinland-Pfalz"}},{"name":"Fellericher Str.","postalCode":"54456","locality":"Tawern","municipality":{"key":"07235132","name":"Tawern","type":"Kreisangehörige_Gemeinde"},"district":{"key":"07235","name":"Trier-Saarburg","type":"Landkreis"},"federalState":{"key":"07","name":"Rheinland-Pfalz"}},{"name":"Gartenstr.","postalCode":"54456","locality":"Tawern","municipality":{"key":"07235132","name":"Tawern","type":"Kreisangehörige_Gemeinde"},"district":{"key":"07235","name":"Trier-Saarburg","type":"Landkreis"},"federalState":{"key":"07","name":"Rheinland-Pfalz"}},{"name":"Im Brühl","postalCode":"54456","locality":"Tawern","municipality":{"key":"07235132","name":"Tawern","type":"Kreisangehörige_Gemeinde"},"district":{"key":"07235","name":"Trier-Saarburg","type":"Landkreis"},"federalState":{"key":"07","name":"Rheinland-Pfalz"}},{"name":"Im Micheltal","postalCode":"54456","locality":"Tawern","municipality":{"key":"07235132","name":"Tawern","type":"Kreisangehörige_Gemeinde"},"district":{"key":"07235","name":"Trier-Saarburg","type":"Landkreis"},"federalState":{"key":"07","name":"Rheinland-Pfalz"}},{"name":"Im Seif","postalCode":"54456","locality":"Tawern","municipality":{"key":"07235132","name":"Tawern","type":"Kreisangehörige_Gemeinde"},"district":{"key":"07235","name":"Trier-Saarburg","type":"Landkreis"},"federalState":{"key":"07","name":"Rheinland-Pfalz"}},{"name":"Im Wiesental","postalCode":"54456","locality":"Tawern","municipality":{"key":"07235132","name":"Tawern","type":"Kreisangehörige_Gemeinde"},"district":{"key":"07235","name":"Trier-Saarburg","type":"Landkreis"},"federalState":{"key":"07","name":"Rheinland-Pfalz"}},{"name":"In den Brühlmorgen","postalCode":"54456","locality":"Tawern","municipality":{"key":"07235132","name":"Tawern","type":"Kreisangehörige_Gemeinde"},"district":{"key":"07235","name":"Trier-Saarburg","type":"Landkreis"},"federalState":{"key":"07","name":"Rheinland-Pfalz"}},{"name":"In der Acht","postalCode":"54456","locality":"Tawern","municipality":{"key":"07235132","name":"Tawern","type":"Kreisangehörige_Gemeinde"},"district":{"key":"07235","name":"Trier-Saarburg","type":"Landkreis"},"federalState":{"key":"07","name":"Rheinland-Pfalz"}},{"name":"In der Heinert","postalCode":"54456","locality":"Tawern","municipality":{"key":"07235132","name":"Tawern","type":"Kreisangehörige_Gemeinde"},"district":{"key":"07235","name":"Trier-Saarburg","type":"Landkreis"},"federalState":{"key":"07","name":"Rheinland-Pfalz"}},{"name":"Kapellenstr.","postalCode":"54456","locality":"Tawern","municipality":{"key":"07235132","name":"Tawern","type":"Kreisangehörige_Gemeinde"},"district":{"key":"07235","name":"Trier-Saarburg","type":"Landkreis"},"federalState":{"key":"07","name":"Rheinland-Pfalz"}},{"name":"Kirchweg","postalCode":"54456","locality":"Tawern","municipality":{"key":"07235132","name":"Tawern","type":"Kreisangehörige_Gemeinde"},"district":{"key":"07235","name":"Trier-Saarburg","type":"Landkreis"},"federalState":{"key":"07","name":"Rheinland-Pfalz"}},{"name":"Luxemburger Ring","postalCode":"54456","locality":"Tawern","municipality":{"key":"07235132","name":"Tawern","type":"Kreisangehörige_Gemeinde"},"district":{"key":"07235","name":"Trier-Saarburg","type":"Landkreis"},"federalState":{"key":"07","name":"Rheinland-Pfalz"}},{"name":"Mannebacher Str.","postalCode":"54456","locality":"Tawern","municipality":{"key":"07235132","name":"Tawern","type":"Kreisangehörige_Gemeinde"},"district":{"key":"07235","name":"Trier-Saarburg","type":"Landkreis"},"federalState":{"key":"07","name":"Rheinland-Pfalz"}},{"name":"Margaretenstr.","postalCode":"54456","locality":"Tawern","municipality":{"key":"07235132","name":"Tawern","type":"Kreisangehörige_Gemeinde"},"district":{"key":"07235","name":"Trier-Saarburg","type":"Landkreis"},"federalState":{"key":"07","name":"Rheinland-Pfalz"}},{"name":"Merkurstr.","postalCode":"54456","locality":"Tawern","municipality":{"key":"07235132","name":"Tawern","type":"Kreisangehörige_Gemeinde"},"district":{"key":"07235","name":"Trier-Saarburg","type":"Landkreis"},"federalState":{"key":"07","name":"Rheinland-Pfalz"}},{"name":"Mittelstr.","postalCode":"54456","locality":"Tawern","municipality":{"key":"07235132","name":"Tawern","type":"Kreisangehörige_Gemeinde"},"district":{"key":"07235","name":"Trier-Saarburg","type":"Landkreis"},"federalState":{"key":"07","name":"Rheinland-Pfalz"}},{"name":"Moselstr.","postalCode":"54456","locality":"Tawern","municipality":{"key":"07235132","name":"Tawern","type":"Kreisangehörige_Gemeinde"},"district":{"key":"07235","name":"Trier-Saarburg","type":"Landkreis"},"federalState":{"key":"07","name":"Rheinland-Pfalz"}},{"name":"Mühlenstr.","postalCode":"54456","locality":"Tawern","municipality":{"key":"07235132","name":"Tawern","type":"Kreisangehörige_Gemeinde"},"district":{"key":"07235","name":"Trier-Saarburg","type":"Landkreis"},"federalState":{"key":"07","name":"Rheinland-Pfalz"}},{"name":"Onsdorfer Str.","postalCode":"54456","locality":"Tawern","municipality":{"key":"07235132","name":"Tawern","type":"Kreisangehörige_Gemeinde"},"district":{"key":"07235","name":"Trier-Saarburg","type":"Landkreis"},"federalState":{"key":"07","name":"Rheinland-Pfalz"}},{"name":"Römerstr.","postalCode":"54456","locality":"Tawern","municipality":{"key":"07235132","name":"Tawern","type":"Kreisangehörige_Gemeinde"},"district":{"key":"07235","name":"Trier-Saarburg","type":"Landkreis"},"federalState":{"key":"07","name":"Rheinland-Pfalz"}},{"name":"Saarburger Str.","postalCode":"54456","locality":"Tawern","municipality":{"key":"07235132","name":"Tawern","type":"Kreisangehörige_Gemeinde"},"district":{"key":"07235","name":"Trier-Saarburg","type":"Landkreis"},"federalState":{"key":"07","name":"Rheinland-Pfalz"}},{"name":"Schulstr.","postalCode":"54456","locality":"Tawern","municipality":{"key":"07235132","name":"Tawern","type":"Kreisangehörige_Gemeinde"},"district":{"key":"07235","name":"Trier-Saarburg","type":"Landkreis"},"federalState":{"key":"07","name":"Rheinland-Pfalz"}},{"name":"Spanische Ecke","postalCode":"54456","locality":"Tawern","municipality":{"key":"07235132","name":"Tawern","type":"Kreisangehörige_Gemeinde"},"district":{"key":"07235","name":"Trier-Saarburg","type":"Landkreis"},"federalState":{"key":"07","name":"Rheinland-Pfalz"}},{"name":"Talbachring","postalCode":"54456","locality":"Tawern","municipality":{"key":"07235132","name":"Tawern","type":"Kreisangehörige_Gemeinde"},"district":{"key":"07235","name":"Trier-Saarburg","type":"Landkreis"},"federalState":{"key":"07","name":"Rheinland-Pfalz"}},{"name":"Trierer Str.","postalCode":"54456","locality":"Tawern","municipality":{"key":"07235132","name":"Tawern","type":"Kreisangehörige_Gemeinde"},"district":{"key":"07235","name":"Trier-Saarburg","type":"Landkreis"},"federalState":{"key":"07","name":"Rheinland-Pfalz"}},{"name":"Waldstr.","postalCode":"54456","locality":"Tawern","municipality":{"key":"07235132","name":"Tawern","type":"Kreisangehörige_Gemeinde"},"district":{"key":"07235","name":"Trier-Saarburg","type":"Landkreis"},"federalState":{"key":"07","name":"Rheinland-Pfalz"}},{"name":"Wawerner Str.","postalCode":"54456","locality":"Tawern","municipality":{"key":"07235132","name":"Tawern","type":"Kreisangehörige_Gemeinde"},"district":{"key":"07235","name":"Trier-Saarburg","type":"Landkreis"},"federalState":{"key":"07","name":"Rheinland-Pfalz"}},{"name":"Weinbergstr.","postalCode":"54456","locality":"Tawern","municipality":{"key":"07235132","name":"Tawern","type":"Kreisangehörige_Gemeinde"},"district":{"key":"07235","name":"Trier-Saarburg","type":"Landkreis"},"federalState":{"key":"07","name":"Rheinland-Pfalz"}},{"name":"Wenigwies","postalCode":"54456","locality":"Tawern","municipality":{"key":"07235132","name":"Tawern","type":"Kreisangehörige_Gemeinde"},"district":{"key":"07235","name":"Trier-Saarburg","type":"Landkreis"},"federalState":{"key":"07","name":"Rheinland-Pfalz"}},{"name":"Zum Albach","postalCode":"54456","locality":"Tawern","municipality":{"key":"07235132","name":"Tawern","type":"Kreisangehörige_Gemeinde"},"district":{"key":"07235","name":"Trier-Saarburg","type":"Landkreis"},"federalState":{"key":"07","name":"Rheinland-Pfalz"}},]