[{"name":"Adalbert-Stifter-Str.","postalCode":"83301","locality":"Traunreut","municipality":{"key":"09189154","name":"Traunreut, St","type":"Stadt"},"district":{"key":"09189","name":"Traunstein","type":"Landkreis"},"federalState":{"key":"09","name":"Bayern"}},{"name":"Agnes-Miegel-Str.","postalCode":"83301","locality":"Traunreut","municipality":{"key":"09189154","name":"Traunreut, St","type":"Stadt"},"district":{"key":"09189","name":"Traunstein","type":"Landkreis"},"federalState":{"key":"09","name":"Bayern"}},{"name":"Altenmarkter Str.","postalCode":"83301","locality":"Traunreut","municipality":{"key":"09189154","name":"Traunreut, St","type":"Stadt"},"district":{"key":"09189","name":"Traunstein","type":"Landkreis"},"federalState":{"key":"09","name":"Bayern"}},{"name":"Altvaterweg","postalCode":"83301","locality":"Traunreut","municipality":{"key":"09189154","name":"Traunreut, St","type":"Stadt"},"district":{"key":"09189","name":"Traunstein","type":"Landkreis"},"federalState":{"key":"09","name":"Bayern"}},{"name":"Am Frauenbrunn","postalCode":"83374","locality":"Traunreut","municipality":{"key":"09189154","name":"Traunreut, St","type":"Stadt"},"district":{"key":"09189","name":"Traunstein","type":"Landkreis"},"federalState":{"key":"09","name":"Bayern"}},{"name":"Am Hang","postalCode":"83374","locality":"Traunreut","municipality":{"key":"09189154","name":"Traunreut, St","type":"Stadt"},"district":{"key":"09189","name":"Traunstein","type":"Landkreis"},"federalState":{"key":"09","name":"Bayern"}},{"name":"Am Mühlbach","postalCode":"83368","locality":"Traunreut","municipality":{"key":"09189154","name":"Traunreut, St","type":"Stadt"},"district":{"key":"09189","name":"Traunstein","type":"Landkreis"},"federalState":{"key":"09","name":"Bayern"}},{"name":"Am Schneckenberg","postalCode":"83301","locality":"Traunreut","municipality":{"key":"09189154","name":"Traunreut, St","type":"Stadt"},"district":{"key":"09189","name":"Traunstein","type":"Landkreis"},"federalState":{"key":"09","name":"Bayern"}},{"name":"Am Steinanger","postalCode":"83371","locality":"Traunreut","municipality":{"key":"09189154","name":"Traunreut, St","type":"Stadt"},"district":{"key":"09189","name":"Traunstein","type":"Landkreis"},"federalState":{"key":"09","name":"Bayern"}},{"name":"Am Weiher","postalCode":"83301","locality":"Traunreut","municipality":{"key":"09189154","name":"Traunreut, St","type":"Stadt"},"district":{"key":"09189","name":"Traunstein","type":"Landkreis"},"federalState":{"key":"09","name":"Bayern"}},{"name":"Anning","postalCode":"83368","locality":"Traunreut","municipality":{"key":"09189154","name":"Traunreut, St","type":"Stadt"},"district":{"key":"09189","name":"Traunstein","type":"Landkreis"},"federalState":{"key":"09","name":"Bayern"}},{"name":"Anton-Bruckner-Weg","postalCode":"83301","locality":"Traunreut","municipality":{"key":"09189154","name":"Traunreut, St","type":"Stadt"},"district":{"key":"09189","name":"Traunstein","type":"Landkreis"},"federalState":{"key":"09","name":"Bayern"}},{"name":"Arberweg","postalCode":"83301","locality":"Traunreut","municipality":{"key":"09189154","name":"Traunreut, St","type":"Stadt"},"district":{"key":"09189","name":"Traunstein","type":"Landkreis"},"federalState":{"key":"09","name":"Bayern"}},{"name":"Arleting","postalCode":"83374","locality":"Traunreut","municipality":{"key":"09189154","name":"Traunreut, St","type":"Stadt"},"district":{"key":"09189","name":"Traunstein","type":"Landkreis"},"federalState":{"key":"09","name":"Bayern"}},{"name":"Attenmoos","postalCode":"83301","locality":"Traunreut","municipality":{"key":"09189154","name":"Traunreut, St","type":"Stadt"},"district":{"key":"09189","name":"Traunstein","type":"Landkreis"},"federalState":{"key":"09","name":"Bayern"}},{"name":"Austr.","postalCode":"83368","locality":"Traunreut","municipality":{"key":"09189154","name":"Traunreut, St","type":"Stadt"},"district":{"key":"09189","name":"Traunstein","type":"Landkreis"},"federalState":{"key":"09","name":"Bayern"}},{"name":"Bachmaierstr.","postalCode":"83374","locality":"Traunreut","municipality":{"key":"09189154","name":"Traunreut, St","type":"Stadt"},"district":{"key":"09189","name":"Traunstein","type":"Landkreis"},"federalState":{"key":"09","name":"Bayern"}},{"name":"Bahnhofstr.","postalCode":"83301","locality":"Traunreut","municipality":{"key":"09189154","name":"Traunreut, St","type":"Stadt"},"district":{"key":"09189","name":"Traunstein","type":"Landkreis"},"federalState":{"key":"09","name":"Bayern"}},{"name":"Bahnhofstr.","postalCode":"83371","locality":"Traunreut","municipality":{"key":"09189154","name":"Traunreut, St","type":"Stadt"},"district":{"key":"09189","name":"Traunstein","type":"Landkreis"},"federalState":{"key":"09","name":"Bayern"}},{"name":"Banater Str.","postalCode":"83301","locality":"Traunreut","municipality":{"key":"09189154","name":"Traunreut, St","type":"Stadt"},"district":{"key":"09189","name":"Traunstein","type":"Landkreis"},"federalState":{"key":"09","name":"Bayern"}},{"name":"Bayernstr.","postalCode":"83301","locality":"Traunreut","municipality":{"key":"09189154","name":"Traunreut, St","type":"Stadt"},"district":{"key":"09189","name":"Traunstein","type":"Landkreis"},"federalState":{"key":"09","name":"Bayern"}},{"name":"Berliner Str.","postalCode":"83301","locality":"Traunreut","municipality":{"key":"09189154","name":"Traunreut, St","type":"Stadt"},"district":{"key":"09189","name":"Traunstein","type":"Landkreis"},"federalState":{"key":"09","name":"Bayern"}},{"name":"Biebing","postalCode":"83301","locality":"Traunreut","municipality":{"key":"09189154","name":"Traunreut, St","type":"Stadt"},"district":{"key":"09189","name":"Traunstein","type":"Landkreis"},"federalState":{"key":"09","name":"Bayern"}},{"name":"Birkenweg","postalCode":"83371","locality":"Traunreut","municipality":{"key":"09189154","name":"Traunreut, St","type":"Stadt"},"district":{"key":"09189","name":"Traunstein","type":"Landkreis"},"federalState":{"key":"09","name":"Bayern"}},{"name":"Blumenweg","postalCode":"83374","locality":"Traunreut","municipality":{"key":"09189154","name":"Traunreut, St","type":"Stadt"},"district":{"key":"09189","name":"Traunstein","type":"Landkreis"},"federalState":{"key":"09","name":"Bayern"}},{"name":"Bodelschwinghstr.","postalCode":"83301","locality":"Traunreut","municipality":{"key":"09189154","name":"Traunreut, St","type":"Stadt"},"district":{"key":"09189","name":"Traunstein","type":"Landkreis"},"federalState":{"key":"09","name":"Bayern"}},{"name":"Bonner Weg","postalCode":"83301","locality":"Traunreut","municipality":{"key":"09189154","name":"Traunreut, St","type":"Stadt"},"district":{"key":"09189","name":"Traunstein","type":"Landkreis"},"federalState":{"key":"09","name":"Bayern"}},{"name":"Brandenburger Str.","postalCode":"83301","locality":"Traunreut","municipality":{"key":"09189154","name":"Traunreut, St","type":"Stadt"},"district":{"key":"09189","name":"Traunstein","type":"Landkreis"},"federalState":{"key":"09","name":"Bayern"}},{"name":"Bräubergstr.","postalCode":"83368","locality":"Traunreut","municipality":{"key":"09189154","name":"Traunreut, St","type":"Stadt"},"district":{"key":"09189","name":"Traunstein","type":"Landkreis"},"federalState":{"key":"09","name":"Bayern"}},{"name":"Breslauer Str.","postalCode":"83301","locality":"Traunreut","municipality":{"key":"09189154","name":"Traunreut, St","type":"Stadt"},"district":{"key":"09189","name":"Traunstein","type":"Landkreis"},"federalState":{"key":"09","name":"Bayern"}},{"name":"Bruckauerstr.","postalCode":"83374","locality":"Traunreut","municipality":{"key":"09189154","name":"Traunreut, St","type":"Stadt"},"district":{"key":"09189","name":"Traunstein","type":"Landkreis"},"federalState":{"key":"09","name":"Bayern"}},{"name":"Buchenweg","postalCode":"83374","locality":"Traunreut","municipality":{"key":"09189154","name":"Traunreut, St","type":"Stadt"},"district":{"key":"09189","name":"Traunstein","type":"Landkreis"},"federalState":{"key":"09","name":"Bayern"}},{"name":"Burgberg","postalCode":"83371","locality":"Traunreut","municipality":{"key":"09189154","name":"Traunreut, St","type":"Stadt"},"district":{"key":"09189","name":"Traunstein","type":"Landkreis"},"federalState":{"key":"09","name":"Bayern"}},{"name":"Burghausener Str.","postalCode":"83301","locality":"Traunreut","municipality":{"key":"09189154","name":"Traunreut, St","type":"Stadt"},"district":{"key":"09189","name":"Traunstein","type":"Landkreis"},"federalState":{"key":"09","name":"Bayern"}},{"name":"Carl-Köttgen-Str.","postalCode":"83301","locality":"Traunreut","municipality":{"key":"09189154","name":"Traunreut, St","type":"Stadt"},"district":{"key":"09189","name":"Traunstein","type":"Landkreis"},"federalState":{"key":"09","name":"Bayern"}},{"name":"Carl-Orff Str.","postalCode":"83374","locality":"Traunreut","municipality":{"key":"09189154","name":"Traunreut, St","type":"Stadt"},"district":{"key":"09189","name":"Traunstein","type":"Landkreis"},"federalState":{"key":"09","name":"Bayern"}},{"name":"Danziger Weg","postalCode":"83301","locality":"Traunreut","municipality":{"key":"09189154","name":"Traunreut, St","type":"Stadt"},"district":{"key":"09189","name":"Traunstein","type":"Landkreis"},"federalState":{"key":"09","name":"Bayern"}},{"name":"Dieselstr.","postalCode":"83301","locality":"Traunreut","municipality":{"key":"09189154","name":"Traunreut, St","type":"Stadt"},"district":{"key":"09189","name":"Traunstein","type":"Landkreis"},"federalState":{"key":"09","name":"Bayern"}},{"name":"Dietrich-Bonhoeffer-Str.","postalCode":"83301","locality":"Traunreut","municipality":{"key":"09189154","name":"Traunreut, St","type":"Stadt"},"district":{"key":"09189","name":"Traunstein","type":"Landkreis"},"federalState":{"key":"09","name":"Bayern"}},{"name":"Dresdener Str.","postalCode":"83301","locality":"Traunreut","municipality":{"key":"09189154","name":"Traunreut, St","type":"Stadt"},"district":{"key":"09189","name":"Traunstein","type":"Landkreis"},"federalState":{"key":"09","name":"Bayern"}},{"name":"Dr.-Johannes-Heidenhain-Str.","postalCode":"83301","locality":"Traunreut","municipality":{"key":"09189154","name":"Traunreut, St","type":"Stadt"},"district":{"key":"09189","name":"Traunstein","type":"Landkreis"},"federalState":{"key":"09","name":"Bayern"}},{"name":"Egerweg","postalCode":"83301","locality":"Traunreut","municipality":{"key":"09189154","name":"Traunreut, St","type":"Stadt"},"district":{"key":"09189","name":"Traunstein","type":"Landkreis"},"federalState":{"key":"09","name":"Bayern"}},{"name":"Eichendorffstr.","postalCode":"83301","locality":"Traunreut","municipality":{"key":"09189154","name":"Traunreut, St","type":"Stadt"},"district":{"key":"09189","name":"Traunstein","type":"Landkreis"},"federalState":{"key":"09","name":"Bayern"}},{"name":"Eichenweg","postalCode":"83301","locality":"Traunreut","municipality":{"key":"09189154","name":"Traunreut, St","type":"Stadt"},"district":{"key":"09189","name":"Traunstein","type":"Landkreis"},"federalState":{"key":"09","name":"Bayern"}},{"name":"Einsteinstr.","postalCode":"83301","locality":"Traunreut","municipality":{"key":"09189154","name":"Traunreut, St","type":"Stadt"},"district":{"key":"09189","name":"Traunstein","type":"Landkreis"},"federalState":{"key":"09","name":"Bayern"}},{"name":"Elbestr.","postalCode":"83301","locality":"Traunreut","municipality":{"key":"09189154","name":"Traunreut, St","type":"Stadt"},"district":{"key":"09189","name":"Traunstein","type":"Landkreis"},"federalState":{"key":"09","name":"Bayern"}},{"name":"Enzianweg","postalCode":"83301","locality":"Traunreut","municipality":{"key":"09189154","name":"Traunreut, St","type":"Stadt"},"district":{"key":"09189","name":"Traunstein","type":"Landkreis"},"federalState":{"key":"09","name":"Bayern"}},{"name":"Erletweg","postalCode":"83374","locality":"Traunreut","municipality":{"key":"09189154","name":"Traunreut, St","type":"Stadt"},"district":{"key":"09189","name":"Traunstein","type":"Landkreis"},"federalState":{"key":"09","name":"Bayern"}},{"name":"Eschenauerstr.","postalCode":"83374","locality":"Traunreut","municipality":{"key":"09189154","name":"Traunreut, St","type":"Stadt"},"district":{"key":"09189","name":"Traunstein","type":"Landkreis"},"federalState":{"key":"09","name":"Bayern"}},{"name":"Eschenweg","postalCode":"83368","locality":"Traunreut","municipality":{"key":"09189154","name":"Traunreut, St","type":"Stadt"},"district":{"key":"09189","name":"Traunstein","type":"Landkreis"},"federalState":{"key":"09","name":"Bayern"}},{"name":"Eschenweg","postalCode":"83374","locality":"Traunreut","municipality":{"key":"09189154","name":"Traunreut, St","type":"Stadt"},"district":{"key":"09189","name":"Traunstein","type":"Landkreis"},"federalState":{"key":"09","name":"Bayern"}},{"name":"Fabrikstr.","postalCode":"83371","locality":"Traunreut","municipality":{"key":"09189154","name":"Traunreut, St","type":"Stadt"},"district":{"key":"09189","name":"Traunstein","type":"Landkreis"},"federalState":{"key":"09","name":"Bayern"}},{"name":"Fanderl-Wastl-Weg","postalCode":"83368","locality":"Traunreut","municipality":{"key":"09189154","name":"Traunreut, St","type":"Stadt"},"district":{"key":"09189","name":"Traunstein","type":"Landkreis"},"federalState":{"key":"09","name":"Bayern"}},{"name":"Fichtenwaldstr.","postalCode":"83301","locality":"Traunreut","municipality":{"key":"09189154","name":"Traunreut, St","type":"Stadt"},"district":{"key":"09189","name":"Traunstein","type":"Landkreis"},"federalState":{"key":"09","name":"Bayern"}},{"name":"Finkensteiner Str.","postalCode":"83301","locality":"Traunreut","municipality":{"key":"09189154","name":"Traunreut, St","type":"Stadt"},"district":{"key":"09189","name":"Traunstein","type":"Landkreis"},"federalState":{"key":"09","name":"Bayern"}},{"name":"Fischergasse","postalCode":"83371","locality":"Traunreut","municipality":{"key":"09189154","name":"Traunreut, St","type":"Stadt"},"district":{"key":"09189","name":"Traunstein","type":"Landkreis"},"federalState":{"key":"09","name":"Bayern"}},{"name":"Fliederstr.","postalCode":"83374","locality":"Traunreut","municipality":{"key":"09189154","name":"Traunreut, St","type":"Stadt"},"district":{"key":"09189","name":"Traunstein","type":"Landkreis"},"federalState":{"key":"09","name":"Bayern"}},{"name":"Föhrenweg","postalCode":"83301","locality":"Traunreut","municipality":{"key":"09189154","name":"Traunreut, St","type":"Stadt"},"district":{"key":"09189","name":"Traunstein","type":"Landkreis"},"federalState":{"key":"09","name":"Bayern"}},{"name":"Franz-Schubert-Str.","postalCode":"83301","locality":"Traunreut","municipality":{"key":"09189154","name":"Traunreut, St","type":"Stadt"},"district":{"key":"09189","name":"Traunstein","type":"Landkreis"},"federalState":{"key":"09","name":"Bayern"}},{"name":"Frauenbrunnstr.","postalCode":"83374","locality":"Traunreut","municipality":{"key":"09189154","name":"Traunreut, St","type":"Stadt"},"district":{"key":"09189","name":"Traunstein","type":"Landkreis"},"federalState":{"key":"09","name":"Bayern"}},{"name":"Fraunhoferstr.","postalCode":"83301","locality":"Traunreut","municipality":{"key":"09189154","name":"Traunreut, St","type":"Stadt"},"district":{"key":"09189","name":"Traunstein","type":"Landkreis"},"federalState":{"key":"09","name":"Bayern"}},{"name":"Fridtjof-Nansen-Str.","postalCode":"83301","locality":"Traunreut","municipality":{"key":"09189154","name":"Traunreut, St","type":"Stadt"},"district":{"key":"09189","name":"Traunstein","type":"Landkreis"},"federalState":{"key":"09","name":"Bayern"}},{"name":"Frühlinger Spitz","postalCode":"83301","locality":"Traunreut","municipality":{"key":"09189154","name":"Traunreut, St","type":"Stadt"},"district":{"key":"09189","name":"Traunstein","type":"Landkreis"},"federalState":{"key":"09","name":"Bayern"}},{"name":"Frühlinger Weg","postalCode":"83301","locality":"Traunreut","municipality":{"key":"09189154","name":"Traunreut, St","type":"Stadt"},"district":{"key":"09189","name":"Traunstein","type":"Landkreis"},"federalState":{"key":"09","name":"Bayern"}},{"name":"Frühlingstr.","postalCode":"83374","locality":"Traunreut","municipality":{"key":"09189154","name":"Traunreut, St","type":"Stadt"},"district":{"key":"09189","name":"Traunstein","type":"Landkreis"},"federalState":{"key":"09","name":"Bayern"}},{"name":"Ganghoferstr.","postalCode":"83301","locality":"Traunreut","municipality":{"key":"09189154","name":"Traunreut, St","type":"Stadt"},"district":{"key":"09189","name":"Traunstein","type":"Landkreis"},"federalState":{"key":"09","name":"Bayern"}},{"name":"Ganghoferweg","postalCode":"83368","locality":"Traunreut","municipality":{"key":"09189154","name":"Traunreut, St","type":"Stadt"},"district":{"key":"09189","name":"Traunstein","type":"Landkreis"},"federalState":{"key":"09","name":"Bayern"}},{"name":"Garchinger Str.","postalCode":"83301","locality":"Traunreut","municipality":{"key":"09189154","name":"Traunreut, St","type":"Stadt"},"district":{"key":"09189","name":"Traunstein","type":"Landkreis"},"federalState":{"key":"09","name":"Bayern"}},{"name":"Gartenstr.","postalCode":"83301","locality":"Traunreut","municipality":{"key":"09189154","name":"Traunreut, St","type":"Stadt"},"district":{"key":"09189","name":"Traunstein","type":"Landkreis"},"federalState":{"key":"09","name":"Bayern"}},{"name":"Gartenstr.","postalCode":"83368","locality":"Traunreut","municipality":{"key":"09189154","name":"Traunreut, St","type":"Stadt"},"district":{"key":"09189","name":"Traunstein","type":"Landkreis"},"federalState":{"key":"09","name":"Bayern"}},{"name":"Georg-Elser-Weg","postalCode":"83301","locality":"Traunreut","municipality":{"key":"09189154","name":"Traunreut, St","type":"Stadt"},"district":{"key":"09189","name":"Traunstein","type":"Landkreis"},"federalState":{"key":"09","name":"Bayern"}},{"name":"Georg-Simon-Ohm-Str.","postalCode":"83301","locality":"Traunreut","municipality":{"key":"09189154","name":"Traunreut, St","type":"Stadt"},"district":{"key":"09189","name":"Traunstein","type":"Landkreis"},"federalState":{"key":"09","name":"Bayern"}},{"name":"Geretsrieder Str.","postalCode":"83301","locality":"Traunreut","municipality":{"key":"09189154","name":"Traunreut, St","type":"Stadt"},"district":{"key":"09189","name":"Traunstein","type":"Landkreis"},"federalState":{"key":"09","name":"Bayern"}},{"name":"Gerhart-Hauptmann-Str.","postalCode":"83301","locality":"Traunreut","municipality":{"key":"09189154","name":"Traunreut, St","type":"Stadt"},"district":{"key":"09189","name":"Traunstein","type":"Landkreis"},"federalState":{"key":"09","name":"Bayern"}},{"name":"Geschwister-Scholl-Str.","postalCode":"83301","locality":"Traunreut","municipality":{"key":"09189154","name":"Traunreut, St","type":"Stadt"},"district":{"key":"09189","name":"Traunstein","type":"Landkreis"},"federalState":{"key":"09","name":"Bayern"}},{"name":"Glatzer Weg","postalCode":"83301","locality":"Traunreut","municipality":{"key":"09189154","name":"Traunreut, St","type":"Stadt"},"district":{"key":"09189","name":"Traunstein","type":"Landkreis"},"federalState":{"key":"09","name":"Bayern"}},{"name":"Gottfried-Michael-Str.","postalCode":"83301","locality":"Traunreut","municipality":{"key":"09189154","name":"Traunreut, St","type":"Stadt"},"district":{"key":"09189","name":"Traunstein","type":"Landkreis"},"federalState":{"key":"09","name":"Bayern"}},{"name":"Graf-Arco-Str.","postalCode":"83371","locality":"Traunreut","municipality":{"key":"09189154","name":"Traunreut, St","type":"Stadt"},"district":{"key":"09189","name":"Traunstein","type":"Landkreis"},"federalState":{"key":"09","name":"Bayern"}},{"name":"Graf-Toerring-Str.","postalCode":"83371","locality":"Traunreut","municipality":{"key":"09189154","name":"Traunreut, St","type":"Stadt"},"district":{"key":"09189","name":"Traunstein","type":"Landkreis"},"federalState":{"key":"09","name":"Bayern"}},{"name":"Grünberger Weg","postalCode":"83301","locality":"Traunreut","municipality":{"key":"09189154","name":"Traunreut, St","type":"Stadt"},"district":{"key":"09189","name":"Traunstein","type":"Landkreis"},"federalState":{"key":"09","name":"Bayern"}},{"name":"Hans-Böckler-Str.","postalCode":"83301","locality":"Traunreut","municipality":{"key":"09189154","name":"Traunreut, St","type":"Stadt"},"district":{"key":"09189","name":"Traunstein","type":"Landkreis"},"federalState":{"key":"09","name":"Bayern"}},{"name":"Hans-Watzlik-Str.","postalCode":"83301","locality":"Traunreut","municipality":{"key":"09189154","name":"Traunreut, St","type":"Stadt"},"district":{"key":"09189","name":"Traunstein","type":"Landkreis"},"federalState":{"key":"09","name":"Bayern"}},{"name":"Harterstr.","postalCode":"83301","locality":"Traunreut","municipality":{"key":"09189154","name":"Traunreut, St","type":"Stadt"},"district":{"key":"09189","name":"Traunstein","type":"Landkreis"},"federalState":{"key":"09","name":"Bayern"}},{"name":"Hauptstr.","postalCode":"83301","locality":"Traunreut","municipality":{"key":"09189154","name":"Traunreut, St","type":"Stadt"},"district":{"key":"09189","name":"Traunstein","type":"Landkreis"},"federalState":{"key":"09","name":"Bayern"}},{"name":"Hauptstr.","postalCode":"83371","locality":"Traunreut","municipality":{"key":"09189154","name":"Traunreut, St","type":"Stadt"},"district":{"key":"09189","name":"Traunstein","type":"Landkreis"},"federalState":{"key":"09","name":"Bayern"}},{"name":"Haydnweg","postalCode":"83301","locality":"Traunreut","municipality":{"key":"09189154","name":"Traunreut, St","type":"Stadt"},"district":{"key":"09189","name":"Traunstein","type":"Landkreis"},"federalState":{"key":"09","name":"Bayern"}},{"name":"Heinz-von-Stein-Str.","postalCode":"83301","locality":"Traunreut","municipality":{"key":"09189154","name":"Traunreut, St","type":"Stadt"},"district":{"key":"09189","name":"Traunstein","type":"Landkreis"},"federalState":{"key":"09","name":"Bayern"}},{"name":"Hermannstädter Str.","postalCode":"83301","locality":"Traunreut","municipality":{"key":"09189154","name":"Traunreut, St","type":"Stadt"},"district":{"key":"09189","name":"Traunstein","type":"Landkreis"},"federalState":{"key":"09","name":"Bayern"}},{"name":"Herzog-Nikolaus-Str.","postalCode":"83371","locality":"Traunreut","municipality":{"key":"09189154","name":"Traunreut, St","type":"Stadt"},"district":{"key":"09189","name":"Traunstein","type":"Landkreis"},"federalState":{"key":"09","name":"Bayern"}},{"name":"Hochfellnstr.","postalCode":"83301","locality":"Traunreut","municipality":{"key":"09189154","name":"Traunreut, St","type":"Stadt"},"district":{"key":"09189","name":"Traunstein","type":"Landkreis"},"federalState":{"key":"09","name":"Bayern"}},{"name":"Hochfellnstr.","postalCode":"83371","locality":"Traunreut","municipality":{"key":"09189154","name":"Traunreut, St","type":"Stadt"},"district":{"key":"09189","name":"Traunstein","type":"Landkreis"},"federalState":{"key":"09","name":"Bayern"}},{"name":"Hochgernstr.","postalCode":"83301","locality":"Traunreut","municipality":{"key":"09189154","name":"Traunreut, St","type":"Stadt"},"district":{"key":"09189","name":"Traunstein","type":"Landkreis"},"federalState":{"key":"09","name":"Bayern"}},{"name":"Hochgernstr.","postalCode":"83371","locality":"Traunreut","municipality":{"key":"09189154","name":"Traunreut, St","type":"Stadt"},"district":{"key":"09189","name":"Traunstein","type":"Landkreis"},"federalState":{"key":"09","name":"Bayern"}},{"name":"Hochreiter Str.","postalCode":"83368","locality":"Traunreut","municipality":{"key":"09189154","name":"Traunreut, St","type":"Stadt"},"district":{"key":"09189","name":"Traunstein","type":"Landkreis"},"federalState":{"key":"09","name":"Bayern"}},{"name":"Hochriesweg","postalCode":"83301","locality":"Traunreut","municipality":{"key":"09189154","name":"Traunreut, St","type":"Stadt"},"district":{"key":"09189","name":"Traunstein","type":"Landkreis"},"federalState":{"key":"09","name":"Bayern"}},{"name":"Hofer Str.","postalCode":"83301","locality":"Traunreut","municipality":{"key":"09189154","name":"Traunreut, St","type":"Stadt"},"district":{"key":"09189","name":"Traunstein","type":"Landkreis"},"federalState":{"key":"09","name":"Bayern"}},{"name":"Hohenester","postalCode":"83371","locality":"Traunreut","municipality":{"key":"09189154","name":"Traunreut, St","type":"Stadt"},"district":{"key":"09189","name":"Traunstein","type":"Landkreis"},"federalState":{"key":"09","name":"Bayern"}},{"name":"Hörzing","postalCode":"83374","locality":"Traunreut","municipality":{"key":"09189154","name":"Traunreut, St","type":"Stadt"},"district":{"key":"09189","name":"Traunstein","type":"Landkreis"},"federalState":{"key":"09","name":"Bayern"}},{"name":"Humboldtstr.","postalCode":"83301","locality":"Traunreut","municipality":{"key":"09189154","name":"Traunreut, St","type":"Stadt"},"district":{"key":"09189","name":"Traunstein","type":"Landkreis"},"federalState":{"key":"09","name":"Bayern"}},{"name":"Hurt","postalCode":"83374","locality":"Traunreut","municipality":{"key":"09189154","name":"Traunreut, St","type":"Stadt"},"district":{"key":"09189","name":"Traunstein","type":"Landkreis"},"federalState":{"key":"09","name":"Bayern"}},{"name":"Im Waldfeld","postalCode":"83301","locality":"Traunreut","municipality":{"key":"09189154","name":"Traunreut, St","type":"Stadt"},"district":{"key":"09189","name":"Traunstein","type":"Landkreis"},"federalState":{"key":"09","name":"Bayern"}},{"name":"Irsinger Str.","postalCode":"83368","locality":"Traunreut","municipality":{"key":"09189154","name":"Traunreut, St","type":"Stadt"},"district":{"key":"09189","name":"Traunstein","type":"Landkreis"},"federalState":{"key":"09","name":"Bayern"}},{"name":"Jahnstr.","postalCode":"83301","locality":"Traunreut","municipality":{"key":"09189154","name":"Traunreut, St","type":"Stadt"},"district":{"key":"09189","name":"Traunstein","type":"Landkreis"},"federalState":{"key":"09","name":"Bayern"}},{"name":"Jahnstr.","postalCode":"83368","locality":"Traunreut","municipality":{"key":"09189154","name":"Traunreut, St","type":"Stadt"},"district":{"key":"09189","name":"Traunstein","type":"Landkreis"},"federalState":{"key":"09","name":"Bayern"}},{"name":"Jeschkenweg","postalCode":"83301","locality":"Traunreut","municipality":{"key":"09189154","name":"Traunreut, St","type":"Stadt"},"district":{"key":"09189","name":"Traunstein","type":"Landkreis"},"federalState":{"key":"09","name":"Bayern"}},{"name":"Johann-Hinrich-Wichern-Str.","postalCode":"83301","locality":"Traunreut","municipality":{"key":"09189154","name":"Traunreut, St","type":"Stadt"},"district":{"key":"09189","name":"Traunstein","type":"Landkreis"},"federalState":{"key":"09","name":"Bayern"}},{"name":"Johann-Sebastian-Bach-Str.","postalCode":"83301","locality":"Traunreut","municipality":{"key":"09189154","name":"Traunreut, St","type":"Stadt"},"district":{"key":"09189","name":"Traunstein","type":"Landkreis"},"federalState":{"key":"09","name":"Bayern"}},{"name":"Josef-Schroll-Str.","postalCode":"83374","locality":"Traunreut","municipality":{"key":"09189154","name":"Traunreut, St","type":"Stadt"},"district":{"key":"09189","name":"Traunstein","type":"Landkreis"},"federalState":{"key":"09","name":"Bayern"}},{"name":"Kampenwandstr.","postalCode":"83301","locality":"Traunreut","municipality":{"key":"09189154","name":"Traunreut, St","type":"Stadt"},"district":{"key":"09189","name":"Traunstein","type":"Landkreis"},"federalState":{"key":"09","name":"Bayern"}},{"name":"Kantstr.","postalCode":"83301","locality":"Traunreut","municipality":{"key":"09189154","name":"Traunreut, St","type":"Stadt"},"district":{"key":"09189","name":"Traunstein","type":"Landkreis"},"federalState":{"key":"09","name":"Bayern"}},{"name":"Kapellenstr.","postalCode":"83374","locality":"Traunreut","municipality":{"key":"09189154","name":"Traunreut, St","type":"Stadt"},"district":{"key":"09189","name":"Traunstein","type":"Landkreis"},"federalState":{"key":"09","name":"Bayern"}},{"name":"Karl-Bröger-Weg","postalCode":"83301","locality":"Traunreut","municipality":{"key":"09189154","name":"Traunreut, St","type":"Stadt"},"district":{"key":"09189","name":"Traunstein","type":"Landkreis"},"federalState":{"key":"09","name":"Bayern"}},{"name":"Karlsbader Str.","postalCode":"83301","locality":"Traunreut","municipality":{"key":"09189154","name":"Traunreut, St","type":"Stadt"},"district":{"key":"09189","name":"Traunstein","type":"Landkreis"},"federalState":{"key":"09","name":"Bayern"}},{"name":"Karl-Valentin-Str.","postalCode":"83368","locality":"Traunreut","municipality":{"key":"09189154","name":"Traunreut, St","type":"Stadt"},"district":{"key":"09189","name":"Traunstein","type":"Landkreis"},"federalState":{"key":"09","name":"Bayern"}},{"name":"Käthe-Kollwitz-Str.","postalCode":"83301","locality":"Traunreut","municipality":{"key":"09189154","name":"Traunreut, St","type":"Stadt"},"district":{"key":"09189","name":"Traunstein","type":"Landkreis"},"federalState":{"key":"09","name":"Bayern"}},{"name":"Katzwalchener Weg","postalCode":"83301","locality":"Traunreut","municipality":{"key":"09189154","name":"Traunreut, St","type":"Stadt"},"district":{"key":"09189","name":"Traunstein","type":"Landkreis"},"federalState":{"key":"09","name":"Bayern"}},{"name":"Keplerweg","postalCode":"83301","locality":"Traunreut","municipality":{"key":"09189154","name":"Traunreut, St","type":"Stadt"},"district":{"key":"09189","name":"Traunstein","type":"Landkreis"},"federalState":{"key":"09","name":"Bayern"}},{"name":"Kiem-Pauli-Weg","postalCode":"83368","locality":"Traunreut","municipality":{"key":"09189154","name":"Traunreut, St","type":"Stadt"},"district":{"key":"09189","name":"Traunstein","type":"Landkreis"},"federalState":{"key":"09","name":"Bayern"}},{"name":"Kienbergstr.","postalCode":"83371","locality":"Traunreut","municipality":{"key":"09189154","name":"Traunreut, St","type":"Stadt"},"district":{"key":"09189","name":"Traunstein","type":"Landkreis"},"federalState":{"key":"09","name":"Bayern"}},{"name":"Kirchbergstr.","postalCode":"83374","locality":"Traunreut","municipality":{"key":"09189154","name":"Traunreut, St","type":"Stadt"},"district":{"key":"09189","name":"Traunstein","type":"Landkreis"},"federalState":{"key":"09","name":"Bayern"}},{"name":"Kirchplatz","postalCode":"83368","locality":"Traunreut","municipality":{"key":"09189154","name":"Traunreut, St","type":"Stadt"},"district":{"key":"09189","name":"Traunstein","type":"Landkreis"},"federalState":{"key":"09","name":"Bayern"}},{"name":"Kirchstätt","postalCode":"83374","locality":"Traunreut","municipality":{"key":"09189154","name":"Traunreut, St","type":"Stadt"},"district":{"key":"09189","name":"Traunstein","type":"Landkreis"},"federalState":{"key":"09","name":"Bayern"}},{"name":"Klosterweg","postalCode":"83301","locality":"Traunreut","municipality":{"key":"09189154","name":"Traunreut, St","type":"Stadt"},"district":{"key":"09189","name":"Traunstein","type":"Landkreis"},"federalState":{"key":"09","name":"Bayern"}},{"name":"Königsberger Str.","postalCode":"83301","locality":"Traunreut","municipality":{"key":"09189154","name":"Traunreut, St","type":"Stadt"},"district":{"key":"09189","name":"Traunstein","type":"Landkreis"},"federalState":{"key":"09","name":"Bayern"}},{"name":"Konrad-Max-Kunz-Weg","postalCode":"83368","locality":"Traunreut","municipality":{"key":"09189154","name":"Traunreut, St","type":"Stadt"},"district":{"key":"09189","name":"Traunstein","type":"Landkreis"},"federalState":{"key":"09","name":"Bayern"}},{"name":"Kopernikusstr.","postalCode":"83301","locality":"Traunreut","municipality":{"key":"09189154","name":"Traunreut, St","type":"Stadt"},"district":{"key":"09189","name":"Traunstein","type":"Landkreis"},"federalState":{"key":"09","name":"Bayern"}},{"name":"Kreisstr.","postalCode":"83374","locality":"Traunreut","municipality":{"key":"09189154","name":"Traunreut, St","type":"Stadt"},"district":{"key":"09189","name":"Traunstein","type":"Landkreis"},"federalState":{"key":"09","name":"Bayern"}},{"name":"Kronstädter Str.","postalCode":"83301","locality":"Traunreut","municipality":{"key":"09189154","name":"Traunreut, St","type":"Stadt"},"district":{"key":"09189","name":"Traunstein","type":"Landkreis"},"federalState":{"key":"09","name":"Bayern"}},{"name":"Laufener Str.","postalCode":"83301","locality":"Traunreut","municipality":{"key":"09189154","name":"Traunreut, St","type":"Stadt"},"district":{"key":"09189","name":"Traunstein","type":"Landkreis"},"federalState":{"key":"09","name":"Bayern"}},{"name":"Lenaustr.","postalCode":"83301","locality":"Traunreut","municipality":{"key":"09189154","name":"Traunreut, St","type":"Stadt"},"district":{"key":"09189","name":"Traunstein","type":"Landkreis"},"federalState":{"key":"09","name":"Bayern"}},{"name":"Leuchtenbergweg","postalCode":"83371","locality":"Traunreut","municipality":{"key":"09189154","name":"Traunreut, St","type":"Stadt"},"district":{"key":"09189","name":"Traunstein","type":"Landkreis"},"federalState":{"key":"09","name":"Bayern"}},{"name":"Liegnitzer Str.","postalCode":"83301","locality":"Traunreut","municipality":{"key":"09189154","name":"Traunreut, St","type":"Stadt"},"district":{"key":"09189","name":"Traunstein","type":"Landkreis"},"federalState":{"key":"09","name":"Bayern"}},{"name":"Liesl-Karlstadt-Str.","postalCode":"83368","locality":"Traunreut","municipality":{"key":"09189154","name":"Traunreut, St","type":"Stadt"},"district":{"key":"09189","name":"Traunstein","type":"Landkreis"},"federalState":{"key":"09","name":"Bayern"}},{"name":"Lindenstr.","postalCode":"83374","locality":"Traunreut","municipality":{"key":"09189154","name":"Traunreut, St","type":"Stadt"},"district":{"key":"09189","name":"Traunstein","type":"Landkreis"},"federalState":{"key":"09","name":"Bayern"}},{"name":"Lorenz-Brandl-Str.","postalCode":"83301","locality":"Traunreut","municipality":{"key":"09189154","name":"Traunreut, St","type":"Stadt"},"district":{"key":"09189","name":"Traunstein","type":"Landkreis"},"federalState":{"key":"09","name":"Bayern"}},{"name":"Lucéallee","postalCode":"83301","locality":"Traunreut","municipality":{"key":"09189154","name":"Traunreut, St","type":"Stadt"},"district":{"key":"09189","name":"Traunstein","type":"Landkreis"},"federalState":{"key":"09","name":"Bayern"}},{"name":"Ludwig Thoma Str.","postalCode":"83374","locality":"Traunreut","municipality":{"key":"09189154","name":"Traunreut, St","type":"Stadt"},"district":{"key":"09189","name":"Traunstein","type":"Landkreis"},"federalState":{"key":"09","name":"Bayern"}},{"name":"Ludwig-Thoma-Str.","postalCode":"83368","locality":"Traunreut","municipality":{"key":"09189154","name":"Traunreut, St","type":"Stadt"},"district":{"key":"09189","name":"Traunstein","type":"Landkreis"},"federalState":{"key":"09","name":"Bayern"}},{"name":"Ludwig-van-Beethoven-Str.","postalCode":"83301","locality":"Traunreut","municipality":{"key":"09189154","name":"Traunreut, St","type":"Stadt"},"district":{"key":"09189","name":"Traunstein","type":"Landkreis"},"federalState":{"key":"09","name":"Bayern"}},{"name":"Marienstr.","postalCode":"83301","locality":"Traunreut","municipality":{"key":"09189154","name":"Traunreut, St","type":"Stadt"},"district":{"key":"09189","name":"Traunstein","type":"Landkreis"},"federalState":{"key":"09","name":"Bayern"}},{"name":"Marktstr.","postalCode":"83301","locality":"Traunreut","municipality":{"key":"09189154","name":"Traunreut, St","type":"Stadt"},"district":{"key":"09189","name":"Traunstein","type":"Landkreis"},"federalState":{"key":"09","name":"Bayern"}},{"name":"Martin-Luther-Str.","postalCode":"83301","locality":"Traunreut","municipality":{"key":"09189154","name":"Traunreut, St","type":"Stadt"},"district":{"key":"09189","name":"Traunstein","type":"Landkreis"},"federalState":{"key":"09","name":"Bayern"}},{"name":"Martin-Niemöller-Str.","postalCode":"83301","locality":"Traunreut","municipality":{"key":"09189154","name":"Traunreut, St","type":"Stadt"},"district":{"key":"09189","name":"Traunstein","type":"Landkreis"},"federalState":{"key":"09","name":"Bayern"}},{"name":"Maximilian-Kolbe-Str.","postalCode":"83301","locality":"Traunreut","municipality":{"key":"09189154","name":"Traunreut, St","type":"Stadt"},"district":{"key":"09189","name":"Traunstein","type":"Landkreis"},"federalState":{"key":"09","name":"Bayern"}},{"name":"Max-Planck-Str.","postalCode":"83301","locality":"Traunreut","municipality":{"key":"09189154","name":"Traunreut, St","type":"Stadt"},"district":{"key":"09189","name":"Traunstein","type":"Landkreis"},"federalState":{"key":"09","name":"Bayern"}},{"name":"Michael-Öchsner-Str.","postalCode":"83368","locality":"Traunreut","municipality":{"key":"09189154","name":"Traunreut, St","type":"Stadt"},"district":{"key":"09189","name":"Traunstein","type":"Landkreis"},"federalState":{"key":"09","name":"Bayern"}},{"name":"Mozartweg","postalCode":"83301","locality":"Traunreut","municipality":{"key":"09189154","name":"Traunreut, St","type":"Stadt"},"district":{"key":"09189","name":"Traunstein","type":"Landkreis"},"federalState":{"key":"09","name":"Bayern"}},{"name":"Mühlenstr.","postalCode":"83374","locality":"Traunreut","municipality":{"key":"09189154","name":"Traunreut, St","type":"Stadt"},"district":{"key":"09189","name":"Traunstein","type":"Landkreis"},"federalState":{"key":"09","name":"Bayern"}},{"name":"Mühlweg","postalCode":"83301","locality":"Traunreut","municipality":{"key":"09189154","name":"Traunreut, St","type":"Stadt"},"district":{"key":"09189","name":"Traunstein","type":"Landkreis"},"federalState":{"key":"09","name":"Bayern"}},{"name":"Munastr.","postalCode":"83301","locality":"Traunreut","municipality":{"key":"09189154","name":"Traunreut, St","type":"Stadt"},"district":{"key":"09189","name":"Traunstein","type":"Landkreis"},"federalState":{"key":"09","name":"Bayern"}},{"name":"Münchener Str.","postalCode":"83301","locality":"Traunreut","municipality":{"key":"09189154","name":"Traunreut, St","type":"Stadt"},"district":{"key":"09189","name":"Traunstein","type":"Landkreis"},"federalState":{"key":"09","name":"Bayern"}},{"name":"Nepomuk-Allee","postalCode":"83371","locality":"Traunreut","municipality":{"key":"09189154","name":"Traunreut, St","type":"Stadt"},"district":{"key":"09189","name":"Traunstein","type":"Landkreis"},"federalState":{"key":"09","name":"Bayern"}},{"name":"Nettuno-Allee","postalCode":"83301","locality":"Traunreut","municipality":{"key":"09189154","name":"Traunreut, St","type":"Stadt"},"district":{"key":"09189","name":"Traunstein","type":"Landkreis"},"federalState":{"key":"09","name":"Bayern"}},{"name":"Neugablonzer Weg","postalCode":"83301","locality":"Traunreut","municipality":{"key":"09189154","name":"Traunreut, St","type":"Stadt"},"district":{"key":"09189","name":"Traunstein","type":"Landkreis"},"federalState":{"key":"09","name":"Bayern"}},{"name":"Neugaden","postalCode":"83301","locality":"Traunreut","municipality":{"key":"09189154","name":"Traunreut, St","type":"Stadt"},"district":{"key":"09189","name":"Traunstein","type":"Landkreis"},"federalState":{"key":"09","name":"Bayern"}},{"name":"Neutraublinger Str.","postalCode":"83301","locality":"Traunreut","municipality":{"key":"09189154","name":"Traunreut, St","type":"Stadt"},"district":{"key":"09189","name":"Traunstein","type":"Landkreis"},"federalState":{"key":"09","name":"Bayern"}},{"name":"Niedling","postalCode":"83374","locality":"Traunreut","municipality":{"key":"09189154","name":"Traunreut, St","type":"Stadt"},"district":{"key":"09189","name":"Traunstein","type":"Landkreis"},"federalState":{"key":"09","name":"Bayern"}},{"name":"Nunhausen","postalCode":"83301","locality":"Traunreut","municipality":{"key":"09189154","name":"Traunreut, St","type":"Stadt"},"district":{"key":"09189","name":"Traunstein","type":"Landkreis"},"federalState":{"key":"09","name":"Bayern"}},{"name":"Nußbaumstr.","postalCode":"83374","locality":"Traunreut","municipality":{"key":"09189154","name":"Traunreut, St","type":"Stadt"},"district":{"key":"09189","name":"Traunstein","type":"Landkreis"},"federalState":{"key":"09","name":"Bayern"}},{"name":"Oberdorf","postalCode":"83301","locality":"Traunreut","municipality":{"key":"09189154","name":"Traunreut, St","type":"Stadt"},"district":{"key":"09189","name":"Traunstein","type":"Landkreis"},"federalState":{"key":"09","name":"Bayern"}},{"name":"Oberwalchen","postalCode":"83301","locality":"Traunreut","municipality":{"key":"09189154","name":"Traunreut, St","type":"Stadt"},"district":{"key":"09189","name":"Traunstein","type":"Landkreis"},"federalState":{"key":"09","name":"Bayern"}},{"name":"Oberwalchener Weg","postalCode":"83301","locality":"Traunreut","municipality":{"key":"09189154","name":"Traunreut, St","type":"Stadt"},"district":{"key":"09189","name":"Traunstein","type":"Landkreis"},"federalState":{"key":"09","name":"Bayern"}},{"name":"Oderberger Str.","postalCode":"83374","locality":"Traunreut","municipality":{"key":"09189154","name":"Traunreut, St","type":"Stadt"},"district":{"key":"09189","name":"Traunstein","type":"Landkreis"},"federalState":{"key":"09","name":"Bayern"}},{"name":"Ostlandstr.","postalCode":"83301","locality":"Traunreut","municipality":{"key":"09189154","name":"Traunreut, St","type":"Stadt"},"district":{"key":"09189","name":"Traunstein","type":"Landkreis"},"federalState":{"key":"09","name":"Bayern"}},{"name":"Ostlandstr.","postalCode":"83374","locality":"Traunreut","municipality":{"key":"09189154","name":"Traunreut, St","type":"Stadt"},"district":{"key":"09189","name":"Traunstein","type":"Landkreis"},"federalState":{"key":"09","name":"Bayern"}},{"name":"Pallinger Str.","postalCode":"83301","locality":"Traunreut","municipality":{"key":"09189154","name":"Traunreut, St","type":"Stadt"},"district":{"key":"09189","name":"Traunstein","type":"Landkreis"},"federalState":{"key":"09","name":"Bayern"}},{"name":"Pallinger Str.","postalCode":"83371","locality":"Traunreut","municipality":{"key":"09189154","name":"Traunreut, St","type":"Stadt"},"district":{"key":"09189","name":"Traunstein","type":"Landkreis"},"federalState":{"key":"09","name":"Bayern"}},{"name":"Paul-Keller-Str.","postalCode":"83301","locality":"Traunreut","municipality":{"key":"09189154","name":"Traunreut, St","type":"Stadt"},"district":{"key":"09189","name":"Traunstein","type":"Landkreis"},"federalState":{"key":"09","name":"Bayern"}},{"name":"Pechlerstr.","postalCode":"83368","locality":"Traunreut","municipality":{"key":"09189154","name":"Traunreut, St","type":"Stadt"},"district":{"key":"09189","name":"Traunstein","type":"Landkreis"},"federalState":{"key":"09","name":"Bayern"}},{"name":"Permoserweg","postalCode":"83301","locality":"Traunreut","municipality":{"key":"09189154","name":"Traunreut, St","type":"Stadt"},"district":{"key":"09189","name":"Traunstein","type":"Landkreis"},"federalState":{"key":"09","name":"Bayern"}},{"name":"Pestalozzistr.","postalCode":"83301","locality":"Traunreut","municipality":{"key":"09189154","name":"Traunreut, St","type":"Stadt"},"district":{"key":"09189","name":"Traunstein","type":"Landkreis"},"federalState":{"key":"09","name":"Bayern"}},{"name":"Pfarrer-Stöttner-Str.","postalCode":"83301","locality":"Traunreut","municipality":{"key":"09189154","name":"Traunreut, St","type":"Stadt"},"district":{"key":"09189","name":"Traunstein","type":"Landkreis"},"federalState":{"key":"09","name":"Bayern"}},{"name":"Pfarrhofstr.","postalCode":"83374","locality":"Traunreut","municipality":{"key":"09189154","name":"Traunreut, St","type":"Stadt"},"district":{"key":"09189","name":"Traunstein","type":"Landkreis"},"federalState":{"key":"09","name":"Bayern"}},{"name":"Philipp-Reis-Str.","postalCode":"83301","locality":"Traunreut","municipality":{"key":"09189154","name":"Traunreut, St","type":"Stadt"},"district":{"key":"09189","name":"Traunstein","type":"Landkreis"},"federalState":{"key":"09","name":"Bayern"}},{"name":"Plattenberg","postalCode":"83371","locality":"Traunreut","municipality":{"key":"09189154","name":"Traunreut, St","type":"Stadt"},"district":{"key":"09189","name":"Traunstein","type":"Landkreis"},"federalState":{"key":"09","name":"Bayern"}},{"name":"Porschestr.","postalCode":"83301","locality":"Traunreut","municipality":{"key":"09189154","name":"Traunreut, St","type":"Stadt"},"district":{"key":"09189","name":"Traunstein","type":"Landkreis"},"federalState":{"key":"09","name":"Bayern"}},{"name":"Poschmühle","postalCode":"83301","locality":"Traunreut","municipality":{"key":"09189154","name":"Traunreut, St","type":"Stadt"},"district":{"key":"09189","name":"Traunstein","type":"Landkreis"},"federalState":{"key":"09","name":"Bayern"}},{"name":"Raiffeisenstr.","postalCode":"83368","locality":"Traunreut","municipality":{"key":"09189154","name":"Traunreut, St","type":"Stadt"},"district":{"key":"09189","name":"Traunstein","type":"Landkreis"},"federalState":{"key":"09","name":"Bayern"}},{"name":"Raiffeisenstr.","postalCode":"83374","locality":"Traunreut","municipality":{"key":"09189154","name":"Traunreut, St","type":"Stadt"},"district":{"key":"09189","name":"Traunstein","type":"Landkreis"},"federalState":{"key":"09","name":"Bayern"}},{"name":"Rathausplatz","postalCode":"83301","locality":"Traunreut","municipality":{"key":"09189154","name":"Traunreut, St","type":"Stadt"},"district":{"key":"09189","name":"Traunstein","type":"Landkreis"},"federalState":{"key":"09","name":"Bayern"}},{"name":"Rauschbergstr.","postalCode":"83301","locality":"Traunreut","municipality":{"key":"09189154","name":"Traunreut, St","type":"Stadt"},"district":{"key":"09189","name":"Traunstein","type":"Landkreis"},"federalState":{"key":"09","name":"Bayern"}},{"name":"Rauschbergstr.","postalCode":"83371","locality":"Traunreut","municipality":{"key":"09189154","name":"Traunreut, St","type":"Stadt"},"district":{"key":"09189","name":"Traunstein","type":"Landkreis"},"federalState":{"key":"09","name":"Bayern"}},{"name":"Rauschbergstr.","postalCode":"83374","locality":"Traunreut","municipality":{"key":"09189154","name":"Traunreut, St","type":"Stadt"},"district":{"key":"09189","name":"Traunstein","type":"Landkreis"},"federalState":{"key":"09","name":"Bayern"}},{"name":"Rauschbergweg","postalCode":"83301","locality":"Traunreut","municipality":{"key":"09189154","name":"Traunreut, St","type":"Stadt"},"district":{"key":"09189","name":"Traunstein","type":"Landkreis"},"federalState":{"key":"09","name":"Bayern"}},{"name":"Reichlberg","postalCode":"83301","locality":"Traunreut","municipality":{"key":"09189154","name":"Traunreut, St","type":"Stadt"},"district":{"key":"09189","name":"Traunstein","type":"Landkreis"},"federalState":{"key":"09","name":"Bayern"}},{"name":"Richard-Wagner-Str.","postalCode":"83301","locality":"Traunreut","municipality":{"key":"09189154","name":"Traunreut, St","type":"Stadt"},"district":{"key":"09189","name":"Traunstein","type":"Landkreis"},"federalState":{"key":"09","name":"Bayern"}},{"name":"Ringstr.","postalCode":"83374","locality":"Traunreut","municipality":{"key":"09189154","name":"Traunreut, St","type":"Stadt"},"district":{"key":"09189","name":"Traunstein","type":"Landkreis"},"federalState":{"key":"09","name":"Bayern"}},{"name":"Robert-Bosch-Str.","postalCode":"83301","locality":"Traunreut","municipality":{"key":"09189154","name":"Traunreut, St","type":"Stadt"},"district":{"key":"09189","name":"Traunstein","type":"Landkreis"},"federalState":{"key":"09","name":"Bayern"}},{"name":"Robert-Bosch-Str.","postalCode":"83374","locality":"Traunreut","municipality":{"key":"09189154","name":"Traunreut, St","type":"Stadt"},"district":{"key":"09189","name":"Traunstein","type":"Landkreis"},"federalState":{"key":"09","name":"Bayern"}},{"name":"Robert-Koch-Str.","postalCode":"83301","locality":"Traunreut","municipality":{"key":"09189154","name":"Traunreut, St","type":"Stadt"},"district":{"key":"09189","name":"Traunstein","type":"Landkreis"},"federalState":{"key":"09","name":"Bayern"}},{"name":"Roitham","postalCode":"83371","locality":"Traunreut","municipality":{"key":"09189154","name":"Traunreut, St","type":"Stadt"},"district":{"key":"09189","name":"Traunstein","type":"Landkreis"},"federalState":{"key":"09","name":"Bayern"}},{"name":"Rosenweg","postalCode":"83374","locality":"Traunreut","municipality":{"key":"09189154","name":"Traunreut, St","type":"Stadt"},"district":{"key":"09189","name":"Traunstein","type":"Landkreis"},"federalState":{"key":"09","name":"Bayern"}},{"name":"Rübezahlweg","postalCode":"83301","locality":"Traunreut","municipality":{"key":"09189154","name":"Traunreut, St","type":"Stadt"},"district":{"key":"09189","name":"Traunstein","type":"Landkreis"},"federalState":{"key":"09","name":"Bayern"}},{"name":"Salzburger Str.","postalCode":"83301","locality":"Traunreut","municipality":{"key":"09189154","name":"Traunreut, St","type":"Stadt"},"district":{"key":"09189","name":"Traunstein","type":"Landkreis"},"federalState":{"key":"09","name":"Bayern"}},{"name":"Sankt-Georgs-Platz","postalCode":"83301","locality":"Traunreut","municipality":{"key":"09189154","name":"Traunreut, St","type":"Stadt"},"district":{"key":"09189","name":"Traunstein","type":"Landkreis"},"federalState":{"key":"09","name":"Bayern"}},{"name":"Sankt-Georgs-Weg","postalCode":"83301","locality":"Traunreut","municipality":{"key":"09189154","name":"Traunreut, St","type":"Stadt"},"district":{"key":"09189","name":"Traunstein","type":"Landkreis"},"federalState":{"key":"09","name":"Bayern"}},{"name":"Schillerstr.","postalCode":"83301","locality":"Traunreut","municipality":{"key":"09189154","name":"Traunreut, St","type":"Stadt"},"district":{"key":"09189","name":"Traunstein","type":"Landkreis"},"federalState":{"key":"09","name":"Bayern"}},{"name":"Schillerstr.","postalCode":"83374","locality":"Traunreut","municipality":{"key":"09189154","name":"Traunreut, St","type":"Stadt"},"district":{"key":"09189","name":"Traunstein","type":"Landkreis"},"federalState":{"key":"09","name":"Bayern"}},{"name":"Schloßstr.","postalCode":"83301","locality":"Traunreut","municipality":{"key":"09189154","name":"Traunreut, St","type":"Stadt"},"district":{"key":"09189","name":"Traunstein","type":"Landkreis"},"federalState":{"key":"09","name":"Bayern"}},{"name":"Schmiedinger Str.","postalCode":"83374","locality":"Traunreut","municipality":{"key":"09189154","name":"Traunreut, St","type":"Stadt"},"district":{"key":"09189","name":"Traunstein","type":"Landkreis"},"federalState":{"key":"09","name":"Bayern"}},{"name":"Schneckenberg","postalCode":"83301","locality":"Traunreut","municipality":{"key":"09189154","name":"Traunreut, St","type":"Stadt"},"district":{"key":"09189","name":"Traunstein","type":"Landkreis"},"federalState":{"key":"09","name":"Bayern"}},{"name":"Schönfeldstr.","postalCode":"83374","locality":"Traunreut","municipality":{"key":"09189154","name":"Traunreut, St","type":"Stadt"},"district":{"key":"09189","name":"Traunstein","type":"Landkreis"},"federalState":{"key":"09","name":"Bayern"}},{"name":"Schulstr.","postalCode":"83368","locality":"Traunreut","municipality":{"key":"09189154","name":"Traunreut, St","type":"Stadt"},"district":{"key":"09189","name":"Traunstein","type":"Landkreis"},"federalState":{"key":"09","name":"Bayern"}},{"name":"Schulstr.","postalCode":"83374","locality":"Traunreut","municipality":{"key":"09189154","name":"Traunreut, St","type":"Stadt"},"district":{"key":"09189","name":"Traunstein","type":"Landkreis"},"federalState":{"key":"09","name":"Bayern"}},{"name":"Siebenbürgener Str.","postalCode":"83301","locality":"Traunreut","municipality":{"key":"09189154","name":"Traunreut, St","type":"Stadt"},"district":{"key":"09189","name":"Traunstein","type":"Landkreis"},"federalState":{"key":"09","name":"Bayern"}},{"name":"Siemensstr.","postalCode":"83374","locality":"Traunreut","municipality":{"key":"09189154","name":"Traunreut, St","type":"Stadt"},"district":{"key":"09189","name":"Traunstein","type":"Landkreis"},"federalState":{"key":"09","name":"Bayern"}},{"name":"Sonnenstr.","postalCode":"83301","locality":"Traunreut","municipality":{"key":"09189154","name":"Traunreut, St","type":"Stadt"},"district":{"key":"09189","name":"Traunstein","type":"Landkreis"},"federalState":{"key":"09","name":"Bayern"}},{"name":"Sonnenstr.","postalCode":"83374","locality":"Traunreut","municipality":{"key":"09189154","name":"Traunreut, St","type":"Stadt"},"district":{"key":"09189","name":"Traunstein","type":"Landkreis"},"federalState":{"key":"09","name":"Bayern"}},{"name":"Sonntagshornstr.","postalCode":"83371","locality":"Traunreut","municipality":{"key":"09189154","name":"Traunreut, St","type":"Stadt"},"district":{"key":"09189","name":"Traunstein","type":"Landkreis"},"federalState":{"key":"09","name":"Bayern"}},{"name":"Sportplatz","postalCode":"83301","locality":"Traunreut","municipality":{"key":"09189154","name":"Traunreut, St","type":"Stadt"},"district":{"key":"09189","name":"Traunstein","type":"Landkreis"},"federalState":{"key":"09","name":"Bayern"}},{"name":"Staufenweg","postalCode":"83301","locality":"Traunreut","municipality":{"key":"09189154","name":"Traunreut, St","type":"Stadt"},"district":{"key":"09189","name":"Traunstein","type":"Landkreis"},"federalState":{"key":"09","name":"Bayern"}},{"name":"Staufenweg","postalCode":"83371","locality":"Traunreut","municipality":{"key":"09189154","name":"Traunreut, St","type":"Stadt"},"district":{"key":"09189","name":"Traunstein","type":"Landkreis"},"federalState":{"key":"09","name":"Bayern"}},{"name":"Stettiner Str.","postalCode":"83301","locality":"Traunreut","municipality":{"key":"09189154","name":"Traunreut, St","type":"Stadt"},"district":{"key":"09189","name":"Traunstein","type":"Landkreis"},"federalState":{"key":"09","name":"Bayern"}},{"name":"Stiftstr.","postalCode":"83374","locality":"Traunreut","municipality":{"key":"09189154","name":"Traunreut, St","type":"Stadt"},"district":{"key":"09189","name":"Traunstein","type":"Landkreis"},"federalState":{"key":"09","name":"Bayern"}},{"name":"Sudetenstr.","postalCode":"83301","locality":"Traunreut","municipality":{"key":"09189154","name":"Traunreut, St","type":"Stadt"},"district":{"key":"09189","name":"Traunstein","type":"Landkreis"},"federalState":{"key":"09","name":"Bayern"}},{"name":"Sudetenstr.","postalCode":"83374","locality":"Traunreut","municipality":{"key":"09189154","name":"Traunreut, St","type":"Stadt"},"district":{"key":"09189","name":"Traunstein","type":"Landkreis"},"federalState":{"key":"09","name":"Bayern"}},{"name":"Südtiroler Str.","postalCode":"83301","locality":"Traunreut","municipality":{"key":"09189154","name":"Traunreut, St","type":"Stadt"},"district":{"key":"09189","name":"Traunstein","type":"Landkreis"},"federalState":{"key":"09","name":"Bayern"}},{"name":"Theodor-Körner-Str.","postalCode":"83301","locality":"Traunreut","municipality":{"key":"09189154","name":"Traunreut, St","type":"Stadt"},"district":{"key":"09189","name":"Traunstein","type":"Landkreis"},"federalState":{"key":"09","name":"Bayern"}},{"name":"Tilsiter Weg","postalCode":"83301","locality":"Traunreut","municipality":{"key":"09189154","name":"Traunreut, St","type":"Stadt"},"district":{"key":"09189","name":"Traunstein","type":"Landkreis"},"federalState":{"key":"09","name":"Bayern"}},{"name":"Tittmoninger Str.","postalCode":"83301","locality":"Traunreut","municipality":{"key":"09189154","name":"Traunreut, St","type":"Stadt"},"district":{"key":"09189","name":"Traunstein","type":"Landkreis"},"federalState":{"key":"09","name":"Bayern"}},{"name":"Traunfeldstr.","postalCode":"83371","locality":"Traunreut","municipality":{"key":"09189154","name":"Traunreut, St","type":"Stadt"},"district":{"key":"09189","name":"Traunstein","type":"Landkreis"},"federalState":{"key":"09","name":"Bayern"}},{"name":"Traunring","postalCode":"83301","locality":"Traunreut","municipality":{"key":"09189154","name":"Traunreut, St","type":"Stadt"},"district":{"key":"09189","name":"Traunstein","type":"Landkreis"},"federalState":{"key":"09","name":"Bayern"}},{"name":"Traunsteiner Str.","postalCode":"83301","locality":"Traunreut","municipality":{"key":"09189154","name":"Traunreut, St","type":"Stadt"},"district":{"key":"09189","name":"Traunstein","type":"Landkreis"},"federalState":{"key":"09","name":"Bayern"}},{"name":"Traunstr.","postalCode":"83368","locality":"Traunreut","municipality":{"key":"09189154","name":"Traunreut, St","type":"Stadt"},"district":{"key":"09189","name":"Traunstein","type":"Landkreis"},"federalState":{"key":"09","name":"Bayern"}},{"name":"Traunwalchener Str.","postalCode":"83301","locality":"Traunreut","municipality":{"key":"09189154","name":"Traunreut, St","type":"Stadt"},"district":{"key":"09189","name":"Traunstein","type":"Landkreis"},"federalState":{"key":"09","name":"Bayern"}},{"name":"Trostberger Str.","postalCode":"83301","locality":"Traunreut","municipality":{"key":"09189154","name":"Traunreut, St","type":"Stadt"},"district":{"key":"09189","name":"Traunstein","type":"Landkreis"},"federalState":{"key":"09","name":"Bayern"}},{"name":"Uferweg","postalCode":"83368","locality":"Traunreut","municipality":{"key":"09189154","name":"Traunreut, St","type":"Stadt"},"district":{"key":"09189","name":"Traunstein","type":"Landkreis"},"federalState":{"key":"09","name":"Bayern"}},{"name":"Unterdorf","postalCode":"83301","locality":"Traunreut","municipality":{"key":"09189154","name":"Traunreut, St","type":"Stadt"},"district":{"key":"09189","name":"Traunstein","type":"Landkreis"},"federalState":{"key":"09","name":"Bayern"}},{"name":"Unternbergweg","postalCode":"83301","locality":"Traunreut","municipality":{"key":"09189154","name":"Traunreut, St","type":"Stadt"},"district":{"key":"09189","name":"Traunstein","type":"Landkreis"},"federalState":{"key":"09","name":"Bayern"}},{"name":"Untersbergstr.","postalCode":"83371","locality":"Traunreut","municipality":{"key":"09189154","name":"Traunreut, St","type":"Stadt"},"district":{"key":"09189","name":"Traunstein","type":"Landkreis"},"federalState":{"key":"09","name":"Bayern"}},{"name":"Vachendorfer Ring","postalCode":"83278","locality":"Traunstein","municipality":{"key":"09189155","name":"Traunstein, GKSt","type":"Große_Kreisstadt"},"district":{"key":"09189","name":"Traunstein","type":"Landkreis"},"federalState":{"key":"09","name":"Bayern"}},{"name":"Vonfichtstr.","postalCode":"83278","locality":"Traunstein","municipality":{"key":"09189155","name":"Traunstein, GKSt","type":"Große_Kreisstadt"},"district":{"key":"09189","name":"Traunstein","type":"Landkreis"},"federalState":{"key":"09","name":"Bayern"}},{"name":"Walchenberg","postalCode":"83374","locality":"Traunreut","municipality":{"key":"09189154","name":"Traunreut, St","type":"Stadt"},"district":{"key":"09189","name":"Traunstein","type":"Landkreis"},"federalState":{"key":"09","name":"Bayern"}},{"name":"Walding","postalCode":"83301","locality":"Traunreut","municipality":{"key":"09189154","name":"Traunreut, St","type":"Stadt"},"district":{"key":"09189","name":"Traunstein","type":"Landkreis"},"federalState":{"key":"09","name":"Bayern"}},{"name":"Waldkraiburger Str.","postalCode":"83301","locality":"Traunreut","municipality":{"key":"09189154","name":"Traunreut, St","type":"Stadt"},"district":{"key":"09189","name":"Traunstein","type":"Landkreis"},"federalState":{"key":"09","name":"Bayern"}},{"name":"Walter-Hensel-Weg","postalCode":"83301","locality":"Traunreut","municipality":{"key":"09189154","name":"Traunreut, St","type":"Stadt"},"district":{"key":"09189","name":"Traunstein","type":"Landkreis"},"federalState":{"key":"09","name":"Bayern"}},{"name":"Walter-Mohr-Ring","postalCode":"83301","locality":"Traunreut","municipality":{"key":"09189154","name":"Traunreut, St","type":"Stadt"},"district":{"key":"09189","name":"Traunstein","type":"Landkreis"},"federalState":{"key":"09","name":"Bayern"}},{"name":"Wastl-Fanderl-Weg","postalCode":"83368","locality":"Traunreut","municipality":{"key":"09189154","name":"Traunreut, St","type":"Stadt"},"district":{"key":"09189","name":"Traunstein","type":"Landkreis"},"federalState":{"key":"09","name":"Bayern"}},{"name":"Watzmannstr.","postalCode":"83301","locality":"Traunreut","municipality":{"key":"09189154","name":"Traunreut, St","type":"Stadt"},"district":{"key":"09189","name":"Traunstein","type":"Landkreis"},"federalState":{"key":"09","name":"Bayern"}},{"name":"Watzmannstr.","postalCode":"83371","locality":"Traunreut","municipality":{"key":"09189154","name":"Traunreut, St","type":"Stadt"},"district":{"key":"09189","name":"Traunstein","type":"Landkreis"},"federalState":{"key":"09","name":"Bayern"}},{"name":"Weberstr.","postalCode":"83301","locality":"Traunreut","municipality":{"key":"09189154","name":"Traunreut, St","type":"Stadt"},"district":{"key":"09189","name":"Traunstein","type":"Landkreis"},"federalState":{"key":"09","name":"Bayern"}},{"name":"Weberstr.","postalCode":"83374","locality":"Traunreut","municipality":{"key":"09189154","name":"Traunreut, St","type":"Stadt"},"district":{"key":"09189","name":"Traunstein","type":"Landkreis"},"federalState":{"key":"09","name":"Bayern"}},{"name":"Weisbrunn","postalCode":"83368","locality":"Traunreut","municipality":{"key":"09189154","name":"Traunreut, St","type":"Stadt"},"district":{"key":"09189","name":"Traunstein","type":"Landkreis"},"federalState":{"key":"09","name":"Bayern"}},{"name":"Weisbrunner Str.","postalCode":"83368","locality":"Traunreut","municipality":{"key":"09189154","name":"Traunreut, St","type":"Stadt"},"district":{"key":"09189","name":"Traunstein","type":"Landkreis"},"federalState":{"key":"09","name":"Bayern"}},{"name":"Wendelsteinstr.","postalCode":"83371","locality":"Traunreut","municipality":{"key":"09189154","name":"Traunreut, St","type":"Stadt"},"district":{"key":"09189","name":"Traunstein","type":"Landkreis"},"federalState":{"key":"09","name":"Bayern"}},{"name":"Werner-von-Siemens-Str.","postalCode":"83301","locality":"Traunreut","municipality":{"key":"09189154","name":"Traunreut, St","type":"Stadt"},"district":{"key":"09189","name":"Traunstein","type":"Landkreis"},"federalState":{"key":"09","name":"Bayern"}},{"name":"Westendstr.","postalCode":"83301","locality":"Traunreut","municipality":{"key":"09189154","name":"Traunreut, St","type":"Stadt"},"district":{"key":"09189","name":"Traunstein","type":"Landkreis"},"federalState":{"key":"09","name":"Bayern"}},{"name":"Westweg","postalCode":"83301","locality":"Traunreut","municipality":{"key":"09189154","name":"Traunreut, St","type":"Stadt"},"district":{"key":"09189","name":"Traunstein","type":"Landkreis"},"federalState":{"key":"09","name":"Bayern"}},{"name":"Wiesenweg","postalCode":"83368","locality":"Traunreut","municipality":{"key":"09189154","name":"Traunreut, St","type":"Stadt"},"district":{"key":"09189","name":"Traunstein","type":"Landkreis"},"federalState":{"key":"09","name":"Bayern"}},{"name":"Zachersdorfer Str.","postalCode":"83374","locality":"Traunreut","municipality":{"key":"09189154","name":"Traunreut, St","type":"Stadt"},"district":{"key":"09189","name":"Traunstein","type":"Landkreis"},"federalState":{"key":"09","name":"Bayern"}},{"name":"Zachersdorfstr.","postalCode":"83374","locality":"Traunreut","municipality":{"key":"09189154","name":"Traunreut, St","type":"Stadt"},"district":{"key":"09189","name":"Traunstein","type":"Landkreis"},"federalState":{"key":"09","name":"Bayern"}},{"name":"Zaunäckerweg","postalCode":"83374","locality":"Traunreut","municipality":{"key":"09189154","name":"Traunreut, St","type":"Stadt"},"district":{"key":"09189","name":"Traunstein","type":"Landkreis"},"federalState":{"key":"09","name":"Bayern"}},{"name":"Zobtenweg","postalCode":"83301","locality":"Traunreut","municipality":{"key":"09189154","name":"Traunreut, St","type":"Stadt"},"district":{"key":"09189","name":"Traunstein","type":"Landkreis"},"federalState":{"key":"09","name":"Bayern"}},{"name":"Zwieselstr.","postalCode":"83301","locality":"Traunreut","municipality":{"key":"09189154","name":"Traunreut, St","type":"Stadt"},"district":{"key":"09189","name":"Traunstein","type":"Landkreis"},"federalState":{"key":"09","name":"Bayern"}},{"name":"Äußere Rosenheimer Str.","postalCode":"83278","locality":"Traunstein","municipality":{"key":"09189155","name":"Traunstein, GKSt","type":"Große_Kreisstadt"},"district":{"key":"09189","name":"Traunstein","type":"Landkreis"},"federalState":{"key":"09","name":"Bayern"}},{"name":"Öttinger Gasse","postalCode":"83278","locality":"Traunstein","municipality":{"key":"09189155","name":"Traunstein, GKSt","type":"Große_Kreisstadt"},"district":{"key":"09189","name":"Traunstein","type":"Landkreis"},"federalState":{"key":"09","name":"Bayern"}},]