[{"name":"Ahornstr.","postalCode":"14624","locality":"Dallgow-Döberitz","municipality":{"key":"12063056","name":"Dallgow-Döberitz","type":"Kreisangehörige_Gemeinde"},"district":{"key":"12063","name":"Havelland","type":"Landkreis"},"federalState":{"key":"12","name":"Brandenburg"}},{"name":"Akazienstr.","postalCode":"14624","locality":"Dallgow-Döberitz","municipality":{"key":"12063056","name":"Dallgow-Döberitz","type":"Kreisangehörige_Gemeinde"},"district":{"key":"12063","name":"Havelland","type":"Landkreis"},"federalState":{"key":"12","name":"Brandenburg"}},{"name":"Alemannenstr.","postalCode":"14624","locality":"Dallgow-Döberitz","municipality":{"key":"12063056","name":"Dallgow-Döberitz","type":"Kreisangehörige_Gemeinde"},"district":{"key":"12063","name":"Havelland","type":"Landkreis"},"federalState":{"key":"12","name":"Brandenburg"}},{"name":"Alte Dorfstr.","postalCode":"14624","locality":"Dallgow-Döberitz","municipality":{"key":"12063056","name":"Dallgow-Döberitz","type":"Kreisangehörige_Gemeinde"},"district":{"key":"12063","name":"Havelland","type":"Landkreis"},"federalState":{"key":"12","name":"Brandenburg"}},{"name":"Am Berg","postalCode":"14624","locality":"Dallgow-Döberitz","municipality":{"key":"12063056","name":"Dallgow-Döberitz","type":"Kreisangehörige_Gemeinde"},"district":{"key":"12063","name":"Havelland","type":"Landkreis"},"federalState":{"key":"12","name":"Brandenburg"}},{"name":"Am Egelpfuhl","postalCode":"14624","locality":"Dallgow-Döberitz","municipality":{"key":"12063056","name":"Dallgow-Döberitz","type":"Kreisangehörige_Gemeinde"},"district":{"key":"12063","name":"Havelland","type":"Landkreis"},"federalState":{"key":"12","name":"Brandenburg"}},{"name":"Am Graben","postalCode":"14624","locality":"Dallgow-Döberitz","municipality":{"key":"12063056","name":"Dallgow-Döberitz","type":"Kreisangehörige_Gemeinde"},"district":{"key":"12063","name":"Havelland","type":"Landkreis"},"federalState":{"key":"12","name":"Brandenburg"}},{"name":"Am großen Graben","postalCode":"14624","locality":"Dallgow-Döberitz","municipality":{"key":"12063056","name":"Dallgow-Döberitz","type":"Kreisangehörige_Gemeinde"},"district":{"key":"12063","name":"Havelland","type":"Landkreis"},"federalState":{"key":"12","name":"Brandenburg"}},{"name":"Am Langhaus","postalCode":"14624","locality":"Dallgow-Döberitz","municipality":{"key":"12063056","name":"Dallgow-Döberitz","type":"Kreisangehörige_Gemeinde"},"district":{"key":"12063","name":"Havelland","type":"Landkreis"},"federalState":{"key":"12","name":"Brandenburg"}},{"name":"Am Rain","postalCode":"14624","locality":"Dallgow-Döberitz","municipality":{"key":"12063056","name":"Dallgow-Döberitz","type":"Kreisangehörige_Gemeinde"},"district":{"key":"12063","name":"Havelland","type":"Landkreis"},"federalState":{"key":"12","name":"Brandenburg"}},{"name":"Am Reitplatz","postalCode":"14624","locality":"Dallgow-Döberitz","municipality":{"key":"12063056","name":"Dallgow-Döberitz","type":"Kreisangehörige_Gemeinde"},"district":{"key":"12063","name":"Havelland","type":"Landkreis"},"federalState":{"key":"12","name":"Brandenburg"}},{"name":"Amselweg","postalCode":"14624","locality":"Dallgow-Döberitz","municipality":{"key":"12063056","name":"Dallgow-Döberitz","type":"Kreisangehörige_Gemeinde"},"district":{"key":"12063","name":"Havelland","type":"Landkreis"},"federalState":{"key":"12","name":"Brandenburg"}},{"name":"Am Wasserturm","postalCode":"14624","locality":"Dallgow-Döberitz","municipality":{"key":"12063056","name":"Dallgow-Döberitz","type":"Kreisangehörige_Gemeinde"},"district":{"key":"12063","name":"Havelland","type":"Landkreis"},"federalState":{"key":"12","name":"Brandenburg"}},{"name":"An den Kiefern","postalCode":"14624","locality":"Dallgow-Döberitz","municipality":{"key":"12063056","name":"Dallgow-Döberitz","type":"Kreisangehörige_Gemeinde"},"district":{"key":"12063","name":"Havelland","type":"Landkreis"},"federalState":{"key":"12","name":"Brandenburg"}},{"name":"Arndtstr.","postalCode":"14624","locality":"Dallgow-Döberitz","municipality":{"key":"12063056","name":"Dallgow-Döberitz","type":"Kreisangehörige_Gemeinde"},"district":{"key":"12063","name":"Havelland","type":"Landkreis"},"federalState":{"key":"12","name":"Brandenburg"}},{"name":"Artilleriepark","postalCode":"14624","locality":"Dallgow-Döberitz","municipality":{"key":"12063056","name":"Dallgow-Döberitz","type":"Kreisangehörige_Gemeinde"},"district":{"key":"12063","name":"Havelland","type":"Landkreis"},"federalState":{"key":"12","name":"Brandenburg"}},{"name":"Auenbruch","postalCode":"14624","locality":"Dallgow-Döberitz","municipality":{"key":"12063056","name":"Dallgow-Döberitz","type":"Kreisangehörige_Gemeinde"},"district":{"key":"12063","name":"Havelland","type":"Landkreis"},"federalState":{"key":"12","name":"Brandenburg"}},{"name":"Bahnhofstr.","postalCode":"14624","locality":"Dallgow-Döberitz","municipality":{"key":"12063056","name":"Dallgow-Döberitz","type":"Kreisangehörige_Gemeinde"},"district":{"key":"12063","name":"Havelland","type":"Landkreis"},"federalState":{"key":"12","name":"Brandenburg"}},{"name":"Birkenstr.","postalCode":"14624","locality":"Dallgow-Döberitz","municipality":{"key":"12063056","name":"Dallgow-Döberitz","type":"Kreisangehörige_Gemeinde"},"district":{"key":"12063","name":"Havelland","type":"Landkreis"},"federalState":{"key":"12","name":"Brandenburg"}},{"name":"Birkenweg","postalCode":"14624","locality":"Dallgow-Döberitz","municipality":{"key":"12063056","name":"Dallgow-Döberitz","type":"Kreisangehörige_Gemeinde"},"district":{"key":"12063","name":"Havelland","type":"Landkreis"},"federalState":{"key":"12","name":"Brandenburg"}},{"name":"Bleibtreustr.","postalCode":"14624","locality":"Dallgow-Döberitz","municipality":{"key":"12063056","name":"Dallgow-Döberitz","type":"Kreisangehörige_Gemeinde"},"district":{"key":"12063","name":"Havelland","type":"Landkreis"},"federalState":{"key":"12","name":"Brandenburg"}},{"name":"Blumenstr.","postalCode":"14624","locality":"Dallgow-Döberitz","municipality":{"key":"12063056","name":"Dallgow-Döberitz","type":"Kreisangehörige_Gemeinde"},"district":{"key":"12063","name":"Havelland","type":"Landkreis"},"federalState":{"key":"12","name":"Brandenburg"}},{"name":"Breite Str.","postalCode":"14624","locality":"Dallgow-Döberitz","municipality":{"key":"12063056","name":"Dallgow-Döberitz","type":"Kreisangehörige_Gemeinde"},"district":{"key":"12063","name":"Havelland","type":"Landkreis"},"federalState":{"key":"12","name":"Brandenburg"}},{"name":"Charlottenstr.","postalCode":"14624","locality":"Dallgow-Döberitz","municipality":{"key":"12063056","name":"Dallgow-Döberitz","type":"Kreisangehörige_Gemeinde"},"district":{"key":"12063","name":"Havelland","type":"Landkreis"},"federalState":{"key":"12","name":"Brandenburg"}},{"name":"Dallgower Chaussee","postalCode":"14624","locality":"Dallgow-Döberitz","municipality":{"key":"12063056","name":"Dallgow-Döberitz","type":"Kreisangehörige_Gemeinde"},"district":{"key":"12063","name":"Havelland","type":"Landkreis"},"federalState":{"key":"12","name":"Brandenburg"}},{"name":"Dallgower Str.","postalCode":"14624","locality":"Dallgow-Döberitz","municipality":{"key":"12063056","name":"Dallgow-Döberitz","type":"Kreisangehörige_Gemeinde"},"district":{"key":"12063","name":"Havelland","type":"Landkreis"},"federalState":{"key":"12","name":"Brandenburg"}},{"name":"Dorfstr.","postalCode":"14624","locality":"Dallgow-Döberitz","municipality":{"key":"12063056","name":"Dallgow-Döberitz","type":"Kreisangehörige_Gemeinde"},"district":{"key":"12063","name":"Havelland","type":"Landkreis"},"federalState":{"key":"12","name":"Brandenburg"}},{"name":"Dragonerweg","postalCode":"14624","locality":"Dallgow-Döberitz","municipality":{"key":"12063056","name":"Dallgow-Döberitz","type":"Kreisangehörige_Gemeinde"},"district":{"key":"12063","name":"Havelland","type":"Landkreis"},"federalState":{"key":"12","name":"Brandenburg"}},{"name":"Ebereschenstr.","postalCode":"14624","locality":"Dallgow-Döberitz","municipality":{"key":"12063056","name":"Dallgow-Döberitz","type":"Kreisangehörige_Gemeinde"},"district":{"key":"12063","name":"Havelland","type":"Landkreis"},"federalState":{"key":"12","name":"Brandenburg"}},{"name":"Eichendorffstr.","postalCode":"14624","locality":"Dallgow-Döberitz","municipality":{"key":"12063056","name":"Dallgow-Döberitz","type":"Kreisangehörige_Gemeinde"},"district":{"key":"12063","name":"Havelland","type":"Landkreis"},"federalState":{"key":"12","name":"Brandenburg"}},{"name":"Eichendorffweg","postalCode":"14624","locality":"Dallgow-Döberitz","municipality":{"key":"12063056","name":"Dallgow-Döberitz","type":"Kreisangehörige_Gemeinde"},"district":{"key":"12063","name":"Havelland","type":"Landkreis"},"federalState":{"key":"12","name":"Brandenburg"}},{"name":"Eichenstr.","postalCode":"14624","locality":"Dallgow-Döberitz","municipality":{"key":"12063056","name":"Dallgow-Döberitz","type":"Kreisangehörige_Gemeinde"},"district":{"key":"12063","name":"Havelland","type":"Landkreis"},"federalState":{"key":"12","name":"Brandenburg"}},{"name":"Eichenweg","postalCode":"14624","locality":"Dallgow-Döberitz","municipality":{"key":"12063056","name":"Dallgow-Döberitz","type":"Kreisangehörige_Gemeinde"},"district":{"key":"12063","name":"Havelland","type":"Landkreis"},"federalState":{"key":"12","name":"Brandenburg"}},{"name":"Elsbruchstr.","postalCode":"14624","locality":"Dallgow-Döberitz","municipality":{"key":"12063056","name":"Dallgow-Döberitz","type":"Kreisangehörige_Gemeinde"},"district":{"key":"12063","name":"Havelland","type":"Landkreis"},"federalState":{"key":"12","name":"Brandenburg"}},{"name":"Emil-von-Behring-Allee","postalCode":"14624","locality":"Dallgow-Döberitz","municipality":{"key":"12063056","name":"Dallgow-Döberitz","type":"Kreisangehörige_Gemeinde"},"district":{"key":"12063","name":"Havelland","type":"Landkreis"},"federalState":{"key":"12","name":"Brandenburg"}},{"name":"Engelsfelde","postalCode":"14624","locality":"Dallgow-Döberitz","municipality":{"key":"12063056","name":"Dallgow-Döberitz","type":"Kreisangehörige_Gemeinde"},"district":{"key":"12063","name":"Havelland","type":"Landkreis"},"federalState":{"key":"12","name":"Brandenburg"}},{"name":"Ernst-Ruska-Str.","postalCode":"14624","locality":"Dallgow-Döberitz","municipality":{"key":"12063056","name":"Dallgow-Döberitz","type":"Kreisangehörige_Gemeinde"},"district":{"key":"12063","name":"Havelland","type":"Landkreis"},"federalState":{"key":"12","name":"Brandenburg"}},{"name":"Fahrländer Weg","postalCode":"14624","locality":"Dallgow-Döberitz","municipality":{"key":"12063056","name":"Dallgow-Döberitz","type":"Kreisangehörige_Gemeinde"},"district":{"key":"12063","name":"Havelland","type":"Landkreis"},"federalState":{"key":"12","name":"Brandenburg"}},{"name":"Falkensteg","postalCode":"14624","locality":"Dallgow-Döberitz","municipality":{"key":"12063056","name":"Dallgow-Döberitz","type":"Kreisangehörige_Gemeinde"},"district":{"key":"12063","name":"Havelland","type":"Landkreis"},"federalState":{"key":"12","name":"Brandenburg"}},{"name":"Falkenweg","postalCode":"14624","locality":"Dallgow-Döberitz","municipality":{"key":"12063056","name":"Dallgow-Döberitz","type":"Kreisangehörige_Gemeinde"},"district":{"key":"12063","name":"Havelland","type":"Landkreis"},"federalState":{"key":"12","name":"Brandenburg"}},{"name":"Fasanenstr.","postalCode":"14624","locality":"Dallgow-Döberitz","municipality":{"key":"12063056","name":"Dallgow-Döberitz","type":"Kreisangehörige_Gemeinde"},"district":{"key":"12063","name":"Havelland","type":"Landkreis"},"federalState":{"key":"12","name":"Brandenburg"}},{"name":"Feldstr.","postalCode":"14624","locality":"Dallgow-Döberitz","municipality":{"key":"12063056","name":"Dallgow-Döberitz","type":"Kreisangehörige_Gemeinde"},"district":{"key":"12063","name":"Havelland","type":"Landkreis"},"federalState":{"key":"12","name":"Brandenburg"}},{"name":"Felix-Mendelssohn-Str.","postalCode":"14624","locality":"Dallgow-Döberitz","municipality":{"key":"12063056","name":"Dallgow-Döberitz","type":"Kreisangehörige_Gemeinde"},"district":{"key":"12063","name":"Havelland","type":"Landkreis"},"federalState":{"key":"12","name":"Brandenburg"}},{"name":"Feuchtwangerstr.","postalCode":"14624","locality":"Dallgow-Döberitz","municipality":{"key":"12063056","name":"Dallgow-Döberitz","type":"Kreisangehörige_Gemeinde"},"district":{"key":"12063","name":"Havelland","type":"Landkreis"},"federalState":{"key":"12","name":"Brandenburg"}},{"name":"Finkenhainer Str.","postalCode":"14624","locality":"Dallgow-Döberitz","municipality":{"key":"12063056","name":"Dallgow-Döberitz","type":"Kreisangehörige_Gemeinde"},"district":{"key":"12063","name":"Havelland","type":"Landkreis"},"federalState":{"key":"12","name":"Brandenburg"}},{"name":"Finkenkruger Str.","postalCode":"14624","locality":"Dallgow-Döberitz","municipality":{"key":"12063056","name":"Dallgow-Döberitz","type":"Kreisangehörige_Gemeinde"},"district":{"key":"12063","name":"Havelland","type":"Landkreis"},"federalState":{"key":"12","name":"Brandenburg"}},{"name":"Finkenweg","postalCode":"14624","locality":"Dallgow-Döberitz","municipality":{"key":"12063056","name":"Dallgow-Döberitz","type":"Kreisangehörige_Gemeinde"},"district":{"key":"12063","name":"Havelland","type":"Landkreis"},"federalState":{"key":"12","name":"Brandenburg"}},{"name":"Fliederweg","postalCode":"14624","locality":"Dallgow-Döberitz","municipality":{"key":"12063056","name":"Dallgow-Döberitz","type":"Kreisangehörige_Gemeinde"},"district":{"key":"12063","name":"Havelland","type":"Landkreis"},"federalState":{"key":"12","name":"Brandenburg"}},{"name":"Fontanestr.","postalCode":"14624","locality":"Dallgow-Döberitz","municipality":{"key":"12063056","name":"Dallgow-Döberitz","type":"Kreisangehörige_Gemeinde"},"district":{"key":"12063","name":"Havelland","type":"Landkreis"},"federalState":{"key":"12","name":"Brandenburg"}},{"name":"Franz-Liszt-Str.","postalCode":"14624","locality":"Dallgow-Döberitz","municipality":{"key":"12063056","name":"Dallgow-Döberitz","type":"Kreisangehörige_Gemeinde"},"district":{"key":"12063","name":"Havelland","type":"Landkreis"},"federalState":{"key":"12","name":"Brandenburg"}},{"name":"Franz-Schubert-Str.","postalCode":"14624","locality":"Dallgow-Döberitz","municipality":{"key":"12063056","name":"Dallgow-Döberitz","type":"Kreisangehörige_Gemeinde"},"district":{"key":"12063","name":"Havelland","type":"Landkreis"},"federalState":{"key":"12","name":"Brandenburg"}},{"name":"Gardeweg","postalCode":"14624","locality":"Dallgow-Döberitz","municipality":{"key":"12063056","name":"Dallgow-Döberitz","type":"Kreisangehörige_Gemeinde"},"district":{"key":"12063","name":"Havelland","type":"Landkreis"},"federalState":{"key":"12","name":"Brandenburg"}},{"name":"Gartenstr.","postalCode":"14624","locality":"Dallgow-Döberitz","municipality":{"key":"12063056","name":"Dallgow-Döberitz","type":"Kreisangehörige_Gemeinde"},"district":{"key":"12063","name":"Havelland","type":"Landkreis"},"federalState":{"key":"12","name":"Brandenburg"}},{"name":"Gatower Weg","postalCode":"14624","locality":"Dallgow-Döberitz","municipality":{"key":"12063056","name":"Dallgow-Döberitz","type":"Kreisangehörige_Gemeinde"},"district":{"key":"12063","name":"Havelland","type":"Landkreis"},"federalState":{"key":"12","name":"Brandenburg"}},{"name":"Geibelstr.","postalCode":"14624","locality":"Dallgow-Döberitz","municipality":{"key":"12063056","name":"Dallgow-Döberitz","type":"Kreisangehörige_Gemeinde"},"district":{"key":"12063","name":"Havelland","type":"Landkreis"},"federalState":{"key":"12","name":"Brandenburg"}},{"name":"Germanenstr.","postalCode":"14624","locality":"Dallgow-Döberitz","municipality":{"key":"12063056","name":"Dallgow-Döberitz","type":"Kreisangehörige_Gemeinde"},"district":{"key":"12063","name":"Havelland","type":"Landkreis"},"federalState":{"key":"12","name":"Brandenburg"}},{"name":"Ginsterweg","postalCode":"14624","locality":"Dallgow-Döberitz","municipality":{"key":"12063056","name":"Dallgow-Döberitz","type":"Kreisangehörige_Gemeinde"},"district":{"key":"12063","name":"Havelland","type":"Landkreis"},"federalState":{"key":"12","name":"Brandenburg"}},{"name":"Goetheplatz","postalCode":"14624","locality":"Dallgow-Döberitz","municipality":{"key":"12063056","name":"Dallgow-Döberitz","type":"Kreisangehörige_Gemeinde"},"district":{"key":"12063","name":"Havelland","type":"Landkreis"},"federalState":{"key":"12","name":"Brandenburg"}},{"name":"Gotenstr.","postalCode":"14624","locality":"Dallgow-Döberitz","municipality":{"key":"12063056","name":"Dallgow-Döberitz","type":"Kreisangehörige_Gemeinde"},"district":{"key":"12063","name":"Havelland","type":"Landkreis"},"federalState":{"key":"12","name":"Brandenburg"}},{"name":"Grenadierweg","postalCode":"14624","locality":"Dallgow-Döberitz","municipality":{"key":"12063056","name":"Dallgow-Döberitz","type":"Kreisangehörige_Gemeinde"},"district":{"key":"12063","name":"Havelland","type":"Landkreis"},"federalState":{"key":"12","name":"Brandenburg"}},{"name":"Grimmstr.","postalCode":"14624","locality":"Dallgow-Döberitz","municipality":{"key":"12063056","name":"Dallgow-Döberitz","type":"Kreisangehörige_Gemeinde"},"district":{"key":"12063","name":"Havelland","type":"Landkreis"},"federalState":{"key":"12","name":"Brandenburg"}},{"name":"Gustav-Mahler-Str.","postalCode":"14624","locality":"Dallgow-Döberitz","municipality":{"key":"12063056","name":"Dallgow-Döberitz","type":"Kreisangehörige_Gemeinde"},"district":{"key":"12063","name":"Havelland","type":"Landkreis"},"federalState":{"key":"12","name":"Brandenburg"}},{"name":"Habichtweg","postalCode":"14624","locality":"Dallgow-Döberitz","municipality":{"key":"12063056","name":"Dallgow-Döberitz","type":"Kreisangehörige_Gemeinde"},"district":{"key":"12063","name":"Havelland","type":"Landkreis"},"federalState":{"key":"12","name":"Brandenburg"}},{"name":"Hamburger Chaussee","postalCode":"14624","locality":"Dallgow-Döberitz","municipality":{"key":"12063056","name":"Dallgow-Döberitz","type":"Kreisangehörige_Gemeinde"},"district":{"key":"12063","name":"Havelland","type":"Landkreis"},"federalState":{"key":"12","name":"Brandenburg"}},{"name":"Haselnussweg","postalCode":"14624","locality":"Dallgow-Döberitz","municipality":{"key":"12063056","name":"Dallgow-Döberitz","type":"Kreisangehörige_Gemeinde"},"district":{"key":"12063","name":"Havelland","type":"Landkreis"},"federalState":{"key":"12","name":"Brandenburg"}},{"name":"Hauptstr.","postalCode":"14624","locality":"Dallgow-Döberitz","municipality":{"key":"12063056","name":"Dallgow-Döberitz","type":"Kreisangehörige_Gemeinde"},"district":{"key":"12063","name":"Havelland","type":"Landkreis"},"federalState":{"key":"12","name":"Brandenburg"}},{"name":"Hebbelstr.","postalCode":"14624","locality":"Dallgow-Döberitz","municipality":{"key":"12063056","name":"Dallgow-Döberitz","type":"Kreisangehörige_Gemeinde"},"district":{"key":"12063","name":"Havelland","type":"Landkreis"},"federalState":{"key":"12","name":"Brandenburg"}},{"name":"Heideallee","postalCode":"14624","locality":"Dallgow-Döberitz","municipality":{"key":"12063056","name":"Dallgow-Döberitz","type":"Kreisangehörige_Gemeinde"},"district":{"key":"12063","name":"Havelland","type":"Landkreis"},"federalState":{"key":"12","name":"Brandenburg"}},{"name":"Heinrich-Heine-Platz","postalCode":"14624","locality":"Dallgow-Döberitz","municipality":{"key":"12063056","name":"Dallgow-Döberitz","type":"Kreisangehörige_Gemeinde"},"district":{"key":"12063","name":"Havelland","type":"Landkreis"},"federalState":{"key":"12","name":"Brandenburg"}},{"name":"Herderstr.","postalCode":"14624","locality":"Dallgow-Döberitz","municipality":{"key":"12063056","name":"Dallgow-Döberitz","type":"Kreisangehörige_Gemeinde"},"district":{"key":"12063","name":"Havelland","type":"Landkreis"},"federalState":{"key":"12","name":"Brandenburg"}},{"name":"Holunderallee","postalCode":"14624","locality":"Dallgow-Döberitz","municipality":{"key":"12063056","name":"Dallgow-Döberitz","type":"Kreisangehörige_Gemeinde"},"district":{"key":"12063","name":"Havelland","type":"Landkreis"},"federalState":{"key":"12","name":"Brandenburg"}},{"name":"Humboldtstr.","postalCode":"14624","locality":"Dallgow-Döberitz","municipality":{"key":"12063056","name":"Dallgow-Döberitz","type":"Kreisangehörige_Gemeinde"},"district":{"key":"12063","name":"Havelland","type":"Landkreis"},"federalState":{"key":"12","name":"Brandenburg"}},{"name":"Husarenweg","postalCode":"14624","locality":"Dallgow-Döberitz","municipality":{"key":"12063056","name":"Dallgow-Döberitz","type":"Kreisangehörige_Gemeinde"},"district":{"key":"12063","name":"Havelland","type":"Landkreis"},"federalState":{"key":"12","name":"Brandenburg"}},{"name":"Jägerweg","postalCode":"14624","locality":"Dallgow-Döberitz","municipality":{"key":"12063056","name":"Dallgow-Döberitz","type":"Kreisangehörige_Gemeinde"},"district":{"key":"12063","name":"Havelland","type":"Landkreis"},"federalState":{"key":"12","name":"Brandenburg"}},{"name":"Johannes-Brahms-Str.","postalCode":"14624","locality":"Dallgow-Döberitz","municipality":{"key":"12063056","name":"Dallgow-Döberitz","type":"Kreisangehörige_Gemeinde"},"district":{"key":"12063","name":"Havelland","type":"Landkreis"},"federalState":{"key":"12","name":"Brandenburg"}},{"name":"Johannesstr.","postalCode":"14624","locality":"Dallgow-Döberitz","municipality":{"key":"12063056","name":"Dallgow-Döberitz","type":"Kreisangehörige_Gemeinde"},"district":{"key":"12063","name":"Havelland","type":"Landkreis"},"federalState":{"key":"12","name":"Brandenburg"}},{"name":"Johann-Sebastian-Bach-Str.","postalCode":"14624","locality":"Dallgow-Döberitz","municipality":{"key":"12063056","name":"Dallgow-Döberitz","type":"Kreisangehörige_Gemeinde"},"district":{"key":"12063","name":"Havelland","type":"Landkreis"},"federalState":{"key":"12","name":"Brandenburg"}},{"name":"Kastanienstr.","postalCode":"14624","locality":"Dallgow-Döberitz","municipality":{"key":"12063056","name":"Dallgow-Döberitz","type":"Kreisangehörige_Gemeinde"},"district":{"key":"12063","name":"Havelland","type":"Landkreis"},"federalState":{"key":"12","name":"Brandenburg"}},{"name":"Kieler Str.","postalCode":"14624","locality":"Dallgow-Döberitz","municipality":{"key":"12063056","name":"Dallgow-Döberitz","type":"Kreisangehörige_Gemeinde"},"district":{"key":"12063","name":"Havelland","type":"Landkreis"},"federalState":{"key":"12","name":"Brandenburg"}},{"name":"Kleiststr.","postalCode":"14624","locality":"Dallgow-Döberitz","municipality":{"key":"12063056","name":"Dallgow-Döberitz","type":"Kreisangehörige_Gemeinde"},"district":{"key":"12063","name":"Havelland","type":"Landkreis"},"federalState":{"key":"12","name":"Brandenburg"}},{"name":"Körnerstr.","postalCode":"14624","locality":"Dallgow-Döberitz","municipality":{"key":"12063056","name":"Dallgow-Döberitz","type":"Kreisangehörige_Gemeinde"},"district":{"key":"12063","name":"Havelland","type":"Landkreis"},"federalState":{"key":"12","name":"Brandenburg"}},{"name":"Kurmarkstr.","postalCode":"14624","locality":"Dallgow-Döberitz","municipality":{"key":"12063056","name":"Dallgow-Döberitz","type":"Kreisangehörige_Gemeinde"},"district":{"key":"12063","name":"Havelland","type":"Landkreis"},"federalState":{"key":"12","name":"Brandenburg"}},{"name":"Lessingstr.","postalCode":"14624","locality":"Dallgow-Döberitz","municipality":{"key":"12063056","name":"Dallgow-Döberitz","type":"Kreisangehörige_Gemeinde"},"district":{"key":"12063","name":"Havelland","type":"Landkreis"},"federalState":{"key":"12","name":"Brandenburg"}},{"name":"Lindenplatz","postalCode":"14624","locality":"Dallgow-Döberitz","municipality":{"key":"12063056","name":"Dallgow-Döberitz","type":"Kreisangehörige_Gemeinde"},"district":{"key":"12063","name":"Havelland","type":"Landkreis"},"federalState":{"key":"12","name":"Brandenburg"}},{"name":"Lindenstr.","postalCode":"14624","locality":"Dallgow-Döberitz","municipality":{"key":"12063056","name":"Dallgow-Döberitz","type":"Kreisangehörige_Gemeinde"},"district":{"key":"12063","name":"Havelland","type":"Landkreis"},"federalState":{"key":"12","name":"Brandenburg"}},{"name":"Lindhorstplatz","postalCode":"14624","locality":"Dallgow-Döberitz","municipality":{"key":"12063056","name":"Dallgow-Döberitz","type":"Kreisangehörige_Gemeinde"},"district":{"key":"12063","name":"Havelland","type":"Landkreis"},"federalState":{"key":"12","name":"Brandenburg"}},{"name":"Ludwig-van-Beethoven-Platz","postalCode":"14624","locality":"Dallgow-Döberitz","municipality":{"key":"12063056","name":"Dallgow-Döberitz","type":"Kreisangehörige_Gemeinde"},"district":{"key":"12063","name":"Havelland","type":"Landkreis"},"federalState":{"key":"12","name":"Brandenburg"}},{"name":"Luisenstr.","postalCode":"14624","locality":"Dallgow-Döberitz","municipality":{"key":"12063056","name":"Dallgow-Döberitz","type":"Kreisangehörige_Gemeinde"},"district":{"key":"12063","name":"Havelland","type":"Landkreis"},"federalState":{"key":"12","name":"Brandenburg"}},{"name":"Margaretenstr.","postalCode":"14624","locality":"Dallgow-Döberitz","municipality":{"key":"12063056","name":"Dallgow-Döberitz","type":"Kreisangehörige_Gemeinde"},"district":{"key":"12063","name":"Havelland","type":"Landkreis"},"federalState":{"key":"12","name":"Brandenburg"}},{"name":"Marie-Curie-Str.","postalCode":"14624","locality":"Dallgow-Döberitz","municipality":{"key":"12063056","name":"Dallgow-Döberitz","type":"Kreisangehörige_Gemeinde"},"district":{"key":"12063","name":"Havelland","type":"Landkreis"},"federalState":{"key":"12","name":"Brandenburg"}},{"name":"Märkischer Platz","postalCode":"14624","locality":"Dallgow-Döberitz","municipality":{"key":"12063056","name":"Dallgow-Döberitz","type":"Kreisangehörige_Gemeinde"},"district":{"key":"12063","name":"Havelland","type":"Landkreis"},"federalState":{"key":"12","name":"Brandenburg"}},{"name":"Markomannenstr.","postalCode":"14624","locality":"Dallgow-Döberitz","municipality":{"key":"12063056","name":"Dallgow-Döberitz","type":"Kreisangehörige_Gemeinde"},"district":{"key":"12063","name":"Havelland","type":"Landkreis"},"federalState":{"key":"12","name":"Brandenburg"}},{"name":"Maulbeerallee","postalCode":"14624","locality":"Dallgow-Döberitz","municipality":{"key":"12063056","name":"Dallgow-Döberitz","type":"Kreisangehörige_Gemeinde"},"district":{"key":"12063","name":"Havelland","type":"Landkreis"},"federalState":{"key":"12","name":"Brandenburg"}},{"name":"Maurice-Ravel-Str.","postalCode":"14624","locality":"Dallgow-Döberitz","municipality":{"key":"12063056","name":"Dallgow-Döberitz","type":"Kreisangehörige_Gemeinde"},"district":{"key":"12063","name":"Havelland","type":"Landkreis"},"federalState":{"key":"12","name":"Brandenburg"}},{"name":"Max-Born-Str.","postalCode":"14624","locality":"Dallgow-Döberitz","municipality":{"key":"12063056","name":"Dallgow-Döberitz","type":"Kreisangehörige_Gemeinde"},"district":{"key":"12063","name":"Havelland","type":"Landkreis"},"federalState":{"key":"12","name":"Brandenburg"}},{"name":"Max-von-Laue-Ring","postalCode":"14624","locality":"Dallgow-Döberitz","municipality":{"key":"12063056","name":"Dallgow-Döberitz","type":"Kreisangehörige_Gemeinde"},"district":{"key":"12063","name":"Havelland","type":"Landkreis"},"federalState":{"key":"12","name":"Brandenburg"}},{"name":"Meisenweg","postalCode":"14624","locality":"Dallgow-Döberitz","municipality":{"key":"12063056","name":"Dallgow-Döberitz","type":"Kreisangehörige_Gemeinde"},"district":{"key":"12063","name":"Havelland","type":"Landkreis"},"federalState":{"key":"12","name":"Brandenburg"}},{"name":"Milanweg","postalCode":"14624","locality":"Dallgow-Döberitz","municipality":{"key":"12063056","name":"Dallgow-Döberitz","type":"Kreisangehörige_Gemeinde"},"district":{"key":"12063","name":"Havelland","type":"Landkreis"},"federalState":{"key":"12","name":"Brandenburg"}},{"name":"Mittelstr.","postalCode":"14624","locality":"Dallgow-Döberitz","municipality":{"key":"12063056","name":"Dallgow-Döberitz","type":"Kreisangehörige_Gemeinde"},"district":{"key":"12063","name":"Havelland","type":"Landkreis"},"federalState":{"key":"12","name":"Brandenburg"}},{"name":"Morgensternstr.","postalCode":"14624","locality":"Dallgow-Döberitz","municipality":{"key":"12063056","name":"Dallgow-Döberitz","type":"Kreisangehörige_Gemeinde"},"district":{"key":"12063","name":"Havelland","type":"Landkreis"},"federalState":{"key":"12","name":"Brandenburg"}},{"name":"Mühlenstr.","postalCode":"14624","locality":"Dallgow-Döberitz","municipality":{"key":"12063056","name":"Dallgow-Döberitz","type":"Kreisangehörige_Gemeinde"},"district":{"key":"12063","name":"Havelland","type":"Landkreis"},"federalState":{"key":"12","name":"Brandenburg"}},{"name":"Nauener Str.","postalCode":"14624","locality":"Dallgow-Döberitz","municipality":{"key":"12063056","name":"Dallgow-Döberitz","type":"Kreisangehörige_Gemeinde"},"district":{"key":"12063","name":"Havelland","type":"Landkreis"},"federalState":{"key":"12","name":"Brandenburg"}},{"name":"Neue Dorfstr.","postalCode":"14624","locality":"Dallgow-Döberitz","municipality":{"key":"12063056","name":"Dallgow-Döberitz","type":"Kreisangehörige_Gemeinde"},"district":{"key":"12063","name":"Havelland","type":"Landkreis"},"federalState":{"key":"12","name":"Brandenburg"}},{"name":"Otto-Hahn-Str.","postalCode":"14624","locality":"Dallgow-Döberitz","municipality":{"key":"12063056","name":"Dallgow-Döberitz","type":"Kreisangehörige_Gemeinde"},"district":{"key":"12063","name":"Havelland","type":"Landkreis"},"federalState":{"key":"12","name":"Brandenburg"}},{"name":"Pappelweg","postalCode":"14624","locality":"Dallgow-Döberitz","municipality":{"key":"12063056","name":"Dallgow-Döberitz","type":"Kreisangehörige_Gemeinde"},"district":{"key":"12063","name":"Havelland","type":"Landkreis"},"federalState":{"key":"12","name":"Brandenburg"}},{"name":"Parkstr.","postalCode":"14624","locality":"Dallgow-Döberitz","municipality":{"key":"12063056","name":"Dallgow-Döberitz","type":"Kreisangehörige_Gemeinde"},"district":{"key":"12063","name":"Havelland","type":"Landkreis"},"federalState":{"key":"12","name":"Brandenburg"}},{"name":"Pionierweg","postalCode":"14624","locality":"Dallgow-Döberitz","municipality":{"key":"12063056","name":"Dallgow-Döberitz","type":"Kreisangehörige_Gemeinde"},"district":{"key":"12063","name":"Havelland","type":"Landkreis"},"federalState":{"key":"12","name":"Brandenburg"}},{"name":"Potsdamer Chaussee","postalCode":"14624","locality":"Dallgow-Döberitz","municipality":{"key":"12063056","name":"Dallgow-Döberitz","type":"Kreisangehörige_Gemeinde"},"district":{"key":"12063","name":"Havelland","type":"Landkreis"},"federalState":{"key":"12","name":"Brandenburg"}},{"name":"Potsdamer Str.","postalCode":"14624","locality":"Dallgow-Döberitz","municipality":{"key":"12063056","name":"Dallgow-Döberitz","type":"Kreisangehörige_Gemeinde"},"district":{"key":"12063","name":"Havelland","type":"Landkreis"},"federalState":{"key":"12","name":"Brandenburg"}},{"name":"Promenade","postalCode":"14624","locality":"Dallgow-Döberitz","municipality":{"key":"12063056","name":"Dallgow-Döberitz","type":"Kreisangehörige_Gemeinde"},"district":{"key":"12063","name":"Havelland","type":"Landkreis"},"federalState":{"key":"12","name":"Brandenburg"}},{"name":"Raabestr.","postalCode":"14624","locality":"Dallgow-Döberitz","municipality":{"key":"12063056","name":"Dallgow-Döberitz","type":"Kreisangehörige_Gemeinde"},"district":{"key":"12063","name":"Havelland","type":"Landkreis"},"federalState":{"key":"12","name":"Brandenburg"}},{"name":"Regimentweg","postalCode":"14624","locality":"Dallgow-Döberitz","municipality":{"key":"12063056","name":"Dallgow-Döberitz","type":"Kreisangehörige_Gemeinde"},"district":{"key":"12063","name":"Havelland","type":"Landkreis"},"federalState":{"key":"12","name":"Brandenburg"}},{"name":"Reuterstr.","postalCode":"14624","locality":"Dallgow-Döberitz","municipality":{"key":"12063056","name":"Dallgow-Döberitz","type":"Kreisangehörige_Gemeinde"},"district":{"key":"12063","name":"Havelland","type":"Landkreis"},"federalState":{"key":"12","name":"Brandenburg"}},{"name":"Robinienallee","postalCode":"14624","locality":"Dallgow-Döberitz","municipality":{"key":"12063056","name":"Dallgow-Döberitz","type":"Kreisangehörige_Gemeinde"},"district":{"key":"12063","name":"Havelland","type":"Landkreis"},"federalState":{"key":"12","name":"Brandenburg"}},{"name":"Rohrbecker Damm","postalCode":"14624","locality":"Dallgow-Döberitz","municipality":{"key":"12063056","name":"Dallgow-Döberitz","type":"Kreisangehörige_Gemeinde"},"district":{"key":"12063","name":"Havelland","type":"Landkreis"},"federalState":{"key":"12","name":"Brandenburg"}},{"name":"Rotdornweg","postalCode":"14624","locality":"Dallgow-Döberitz","municipality":{"key":"12063056","name":"Dallgow-Döberitz","type":"Kreisangehörige_Gemeinde"},"district":{"key":"12063","name":"Havelland","type":"Landkreis"},"federalState":{"key":"12","name":"Brandenburg"}},{"name":"Rudolf-Virchow-Str.","postalCode":"14624","locality":"Dallgow-Döberitz","municipality":{"key":"12063056","name":"Dallgow-Döberitz","type":"Kreisangehörige_Gemeinde"},"district":{"key":"12063","name":"Havelland","type":"Landkreis"},"federalState":{"key":"12","name":"Brandenburg"}},{"name":"Sanddornweg","postalCode":"14624","locality":"Dallgow-Döberitz","municipality":{"key":"12063056","name":"Dallgow-Döberitz","type":"Kreisangehörige_Gemeinde"},"district":{"key":"12063","name":"Havelland","type":"Landkreis"},"federalState":{"key":"12","name":"Brandenburg"}},{"name":"Schillerstr.","postalCode":"14624","locality":"Dallgow-Döberitz","municipality":{"key":"12063056","name":"Dallgow-Döberitz","type":"Kreisangehörige_Gemeinde"},"district":{"key":"12063","name":"Havelland","type":"Landkreis"},"federalState":{"key":"12","name":"Brandenburg"}},{"name":"Schlehenweg","postalCode":"14624","locality":"Dallgow-Döberitz","municipality":{"key":"12063056","name":"Dallgow-Döberitz","type":"Kreisangehörige_Gemeinde"},"district":{"key":"12063","name":"Havelland","type":"Landkreis"},"federalState":{"key":"12","name":"Brandenburg"}},{"name":"Schlosserweg","postalCode":"14624","locality":"Dallgow-Döberitz","municipality":{"key":"12063056","name":"Dallgow-Döberitz","type":"Kreisangehörige_Gemeinde"},"district":{"key":"12063","name":"Havelland","type":"Landkreis"},"federalState":{"key":"12","name":"Brandenburg"}},{"name":"Schneeballweg","postalCode":"14624","locality":"Dallgow-Döberitz","municipality":{"key":"12063056","name":"Dallgow-Döberitz","type":"Kreisangehörige_Gemeinde"},"district":{"key":"12063","name":"Havelland","type":"Landkreis"},"federalState":{"key":"12","name":"Brandenburg"}},{"name":"Scholle","postalCode":"14624","locality":"Dallgow-Döberitz","municipality":{"key":"12063056","name":"Dallgow-Döberitz","type":"Kreisangehörige_Gemeinde"},"district":{"key":"12063","name":"Havelland","type":"Landkreis"},"federalState":{"key":"12","name":"Brandenburg"}},{"name":"Schulgasse","postalCode":"14624","locality":"Dallgow-Döberitz","municipality":{"key":"12063056","name":"Dallgow-Döberitz","type":"Kreisangehörige_Gemeinde"},"district":{"key":"12063","name":"Havelland","type":"Landkreis"},"federalState":{"key":"12","name":"Brandenburg"}},{"name":"Schwanengraben","postalCode":"14624","locality":"Dallgow-Döberitz","municipality":{"key":"12063056","name":"Dallgow-Döberitz","type":"Kreisangehörige_Gemeinde"},"district":{"key":"12063","name":"Havelland","type":"Landkreis"},"federalState":{"key":"12","name":"Brandenburg"}},{"name":"Schwarzer Weg","postalCode":"14624","locality":"Dallgow-Döberitz","municipality":{"key":"12063056","name":"Dallgow-Döberitz","type":"Kreisangehörige_Gemeinde"},"district":{"key":"12063","name":"Havelland","type":"Landkreis"},"federalState":{"key":"12","name":"Brandenburg"}},{"name":"Seeburger Chaussee","postalCode":"14624","locality":"Dallgow-Döberitz","municipality":{"key":"12063056","name":"Dallgow-Döberitz","type":"Kreisangehörige_Gemeinde"},"district":{"key":"12063","name":"Havelland","type":"Landkreis"},"federalState":{"key":"12","name":"Brandenburg"}},{"name":"Seeburger Str.","postalCode":"14624","locality":"Dallgow-Döberitz","municipality":{"key":"12063056","name":"Dallgow-Döberitz","type":"Kreisangehörige_Gemeinde"},"district":{"key":"12063","name":"Havelland","type":"Landkreis"},"federalState":{"key":"12","name":"Brandenburg"}},{"name":"Seegefelder Str.","postalCode":"14624","locality":"Dallgow-Döberitz","municipality":{"key":"12063056","name":"Dallgow-Döberitz","type":"Kreisangehörige_Gemeinde"},"district":{"key":"12063","name":"Havelland","type":"Landkreis"},"federalState":{"key":"12","name":"Brandenburg"}},{"name":"Seestr.","postalCode":"14624","locality":"Dallgow-Döberitz","municipality":{"key":"12063056","name":"Dallgow-Döberitz","type":"Kreisangehörige_Gemeinde"},"district":{"key":"12063","name":"Havelland","type":"Landkreis"},"federalState":{"key":"12","name":"Brandenburg"}},{"name":"Spandauer Sandweg","postalCode":"14624","locality":"Dallgow-Döberitz","municipality":{"key":"12063056","name":"Dallgow-Döberitz","type":"Kreisangehörige_Gemeinde"},"district":{"key":"12063","name":"Havelland","type":"Landkreis"},"federalState":{"key":"12","name":"Brandenburg"}},{"name":"Spandauer Str.","postalCode":"14624","locality":"Dallgow-Döberitz","municipality":{"key":"12063056","name":"Dallgow-Döberitz","type":"Kreisangehörige_Gemeinde"},"district":{"key":"12063","name":"Havelland","type":"Landkreis"},"federalState":{"key":"12","name":"Brandenburg"}},{"name":"Spatzenweg","postalCode":"14624","locality":"Dallgow-Döberitz","municipality":{"key":"12063056","name":"Dallgow-Döberitz","type":"Kreisangehörige_Gemeinde"},"district":{"key":"12063","name":"Havelland","type":"Landkreis"},"federalState":{"key":"12","name":"Brandenburg"}},{"name":"Sperlingshof","postalCode":"14624","locality":"Dallgow-Döberitz","municipality":{"key":"12063056","name":"Dallgow-Döberitz","type":"Kreisangehörige_Gemeinde"},"district":{"key":"12063","name":"Havelland","type":"Landkreis"},"federalState":{"key":"12","name":"Brandenburg"}},{"name":"Staakener Weg","postalCode":"14624","locality":"Dallgow-Döberitz","municipality":{"key":"12063056","name":"Dallgow-Döberitz","type":"Kreisangehörige_Gemeinde"},"district":{"key":"12063","name":"Havelland","type":"Landkreis"},"federalState":{"key":"12","name":"Brandenburg"}},{"name":"Steinschneiderstr.","postalCode":"14624","locality":"Dallgow-Döberitz","municipality":{"key":"12063056","name":"Dallgow-Döberitz","type":"Kreisangehörige_Gemeinde"},"district":{"key":"12063","name":"Havelland","type":"Landkreis"},"federalState":{"key":"12","name":"Brandenburg"}},{"name":"Thomastr.","postalCode":"14624","locality":"Dallgow-Döberitz","municipality":{"key":"12063056","name":"Dallgow-Döberitz","type":"Kreisangehörige_Gemeinde"},"district":{"key":"12063","name":"Havelland","type":"Landkreis"},"federalState":{"key":"12","name":"Brandenburg"}},{"name":"Trappenweg","postalCode":"14624","locality":"Dallgow-Döberitz","municipality":{"key":"12063056","name":"Dallgow-Döberitz","type":"Kreisangehörige_Gemeinde"},"district":{"key":"12063","name":"Havelland","type":"Landkreis"},"federalState":{"key":"12","name":"Brandenburg"}},{"name":"Triftstr.","postalCode":"14624","locality":"Dallgow-Döberitz","municipality":{"key":"12063056","name":"Dallgow-Döberitz","type":"Kreisangehörige_Gemeinde"},"district":{"key":"12063","name":"Havelland","type":"Landkreis"},"federalState":{"key":"12","name":"Brandenburg"}},{"name":"Ulanenweg","postalCode":"14624","locality":"Dallgow-Döberitz","municipality":{"key":"12063056","name":"Dallgow-Döberitz","type":"Kreisangehörige_Gemeinde"},"district":{"key":"12063","name":"Havelland","type":"Landkreis"},"federalState":{"key":"12","name":"Brandenburg"}},{"name":"Wacholderweg","postalCode":"14624","locality":"Dallgow-Döberitz","municipality":{"key":"12063056","name":"Dallgow-Döberitz","type":"Kreisangehörige_Gemeinde"},"district":{"key":"12063","name":"Havelland","type":"Landkreis"},"federalState":{"key":"12","name":"Brandenburg"}},{"name":"Waldweg","postalCode":"14624","locality":"Dallgow-Döberitz","municipality":{"key":"12063056","name":"Dallgow-Döberitz","type":"Kreisangehörige_Gemeinde"},"district":{"key":"12063","name":"Havelland","type":"Landkreis"},"federalState":{"key":"12","name":"Brandenburg"}},{"name":"Weißdornallee","postalCode":"14624","locality":"Dallgow-Döberitz","municipality":{"key":"12063056","name":"Dallgow-Döberitz","type":"Kreisangehörige_Gemeinde"},"district":{"key":"12063","name":"Havelland","type":"Landkreis"},"federalState":{"key":"12","name":"Brandenburg"}},{"name":"Werner-Heisenberg-Str.","postalCode":"14624","locality":"Dallgow-Döberitz","municipality":{"key":"12063056","name":"Dallgow-Döberitz","type":"Kreisangehörige_Gemeinde"},"district":{"key":"12063","name":"Havelland","type":"Landkreis"},"federalState":{"key":"12","name":"Brandenburg"}},{"name":"Wiesenstr.","postalCode":"14624","locality":"Dallgow-Döberitz","municipality":{"key":"12063056","name":"Dallgow-Döberitz","type":"Kreisangehörige_Gemeinde"},"district":{"key":"12063","name":"Havelland","type":"Landkreis"},"federalState":{"key":"12","name":"Brandenburg"}},{"name":"Wilhelm-Ostwald-Str.","postalCode":"14624","locality":"Dallgow-Döberitz","municipality":{"key":"12063056","name":"Dallgow-Döberitz","type":"Kreisangehörige_Gemeinde"},"district":{"key":"12063","name":"Havelland","type":"Landkreis"},"federalState":{"key":"12","name":"Brandenburg"}},{"name":"Wilhelmstr.","postalCode":"14624","locality":"Dallgow-Döberitz","municipality":{"key":"12063056","name":"Dallgow-Döberitz","type":"Kreisangehörige_Gemeinde"},"district":{"key":"12063","name":"Havelland","type":"Landkreis"},"federalState":{"key":"12","name":"Brandenburg"}},{"name":"Wilmsstr.","postalCode":"14624","locality":"Dallgow-Döberitz","municipality":{"key":"12063056","name":"Dallgow-Döberitz","type":"Kreisangehörige_Gemeinde"},"district":{"key":"12063","name":"Havelland","type":"Landkreis"},"federalState":{"key":"12","name":"Brandenburg"}},{"name":"Zusebogen","postalCode":"14624","locality":"Dallgow-Döberitz","municipality":{"key":"12063056","name":"Dallgow-Döberitz","type":"Kreisangehörige_Gemeinde"},"district":{"key":"12063","name":"Havelland","type":"Landkreis"},"federalState":{"key":"12","name":"Brandenburg"}},]