[{"name":"Ackerbrunnengasse","postalCode":"67256","locality":"Weisenheim am Sand","municipality":{"key":"07332050","name":"Weisenheim am Sand","type":"Kreisangehörige_Gemeinde"},"district":{"key":"07332","name":"Bad Dürkheim","type":"Landkreis"},"federalState":{"key":"07","name":"Rheinland-Pfalz"}},{"name":"Ahornweg","postalCode":"67256","locality":"Weisenheim am Sand","municipality":{"key":"07332050","name":"Weisenheim am Sand","type":"Kreisangehörige_Gemeinde"},"district":{"key":"07332","name":"Bad Dürkheim","type":"Landkreis"},"federalState":{"key":"07","name":"Rheinland-Pfalz"}},{"name":"Ahornweg","postalCode":"76599","locality":"Weisenbach","municipality":{"key":"08216059","name":"Weisenbach","type":"Kreisangehörige_Gemeinde"},"district":{"key":"08216","name":"Rastatt","type":"Landkreis"},"federalState":{"key":"08","name":"Baden-Württemberg"}},{"name":"Almenweg","postalCode":"67256","locality":"Weisenheim am Sand","municipality":{"key":"07332050","name":"Weisenheim am Sand","type":"Kreisangehörige_Gemeinde"},"district":{"key":"07332","name":"Bad Dürkheim","type":"Landkreis"},"federalState":{"key":"07","name":"Rheinland-Pfalz"}},{"name":"alte Hochstr.","postalCode":"91085","locality":"Weisendorf","municipality":{"key":"09572164","name":"Weisendorf, M","type":"Markt"},"district":{"key":"09572","name":"Erlangen-Höchstadt","type":"Landkreis"},"federalState":{"key":"09","name":"Bayern"}},{"name":"Alte Kreisstr.","postalCode":"76599","locality":"Weisenbach","municipality":{"key":"08216059","name":"Weisenbach","type":"Kreisangehörige_Gemeinde"},"district":{"key":"08216","name":"Rastatt","type":"Landkreis"},"federalState":{"key":"08","name":"Baden-Württemberg"}},{"name":"Alter Dorfweg","postalCode":"76599","locality":"Weisenbach","municipality":{"key":"08216059","name":"Weisenbach","type":"Kreisangehörige_Gemeinde"},"district":{"key":"08216","name":"Rastatt","type":"Landkreis"},"federalState":{"key":"08","name":"Baden-Württemberg"}},{"name":"Alter Kirchweg","postalCode":"76599","locality":"Weisenbach","municipality":{"key":"08216059","name":"Weisenbach","type":"Kreisangehörige_Gemeinde"},"district":{"key":"08216","name":"Rastatt","type":"Landkreis"},"federalState":{"key":"08","name":"Baden-Württemberg"}},{"name":"Am Alten Sportplatz","postalCode":"91085","locality":"Weisendorf","municipality":{"key":"09572164","name":"Weisendorf, M","type":"Markt"},"district":{"key":"09572","name":"Erlangen-Höchstadt","type":"Landkreis"},"federalState":{"key":"09","name":"Bayern"}},{"name":"Am Anger","postalCode":"91085","locality":"Weisendorf","municipality":{"key":"09572164","name":"Weisendorf, M","type":"Markt"},"district":{"key":"09572","name":"Erlangen-Höchstadt","type":"Landkreis"},"federalState":{"key":"09","name":"Bayern"}},{"name":"Am Bahnhof","postalCode":"19322","locality":"Weisen","municipality":{"key":"12070416","name":"Weisen","type":"Kreisangehörige_Gemeinde"},"district":{"key":"12070","name":"Prignitz","type":"Landkreis"},"federalState":{"key":"12","name":"Brandenburg"}},{"name":"Am Brunnenhof","postalCode":"91085","locality":"Weisendorf","municipality":{"key":"09572164","name":"Weisendorf, M","type":"Markt"},"district":{"key":"09572","name":"Erlangen-Höchstadt","type":"Landkreis"},"federalState":{"key":"09","name":"Bayern"}},{"name":"Am Distelbock","postalCode":"91085","locality":"Weisendorf","municipality":{"key":"09572164","name":"Weisendorf, M","type":"Markt"},"district":{"key":"09572","name":"Erlangen-Höchstadt","type":"Landkreis"},"federalState":{"key":"09","name":"Bayern"}},{"name":"Am Dorfgraben","postalCode":"67256","locality":"Weisenheim am Sand","municipality":{"key":"07332050","name":"Weisenheim am Sand","type":"Kreisangehörige_Gemeinde"},"district":{"key":"07332","name":"Bad Dürkheim","type":"Landkreis"},"federalState":{"key":"07","name":"Rheinland-Pfalz"}},{"name":"Am Eichholz","postalCode":"91085","locality":"Weisendorf","municipality":{"key":"09572164","name":"Weisendorf, M","type":"Markt"},"district":{"key":"09572","name":"Erlangen-Höchstadt","type":"Landkreis"},"federalState":{"key":"09","name":"Bayern"}},{"name":"Am Felsenkeller","postalCode":"91085","locality":"Weisendorf","municipality":{"key":"09572164","name":"Weisendorf, M","type":"Markt"},"district":{"key":"09572","name":"Erlangen-Höchstadt","type":"Landkreis"},"federalState":{"key":"09","name":"Bayern"}},{"name":"Am Gilgenberg","postalCode":"91085","locality":"Weisendorf","municipality":{"key":"09572164","name":"Weisendorf, M","type":"Markt"},"district":{"key":"09572","name":"Erlangen-Höchstadt","type":"Landkreis"},"federalState":{"key":"09","name":"Bayern"}},{"name":"Am Hängel","postalCode":"67273","locality":"Weisenheim am Berg","municipality":{"key":"07332049","name":"Weisenheim am Berg","type":"Kreisangehörige_Gemeinde"},"district":{"key":"07332","name":"Bad Dürkheim","type":"Landkreis"},"federalState":{"key":"07","name":"Rheinland-Pfalz"}},{"name":"Am Herrnweiher","postalCode":"91085","locality":"Weisendorf","municipality":{"key":"09572164","name":"Weisendorf, M","type":"Markt"},"district":{"key":"09572","name":"Erlangen-Höchstadt","type":"Landkreis"},"federalState":{"key":"09","name":"Bayern"}},{"name":"Am Hochstock","postalCode":"91085","locality":"Weisendorf","municipality":{"key":"09572164","name":"Weisendorf, M","type":"Markt"},"district":{"key":"09572","name":"Erlangen-Höchstadt","type":"Landkreis"},"federalState":{"key":"09","name":"Bayern"}},{"name":"Am Holzacker","postalCode":"91085","locality":"Weisendorf","municipality":{"key":"09572164","name":"Weisendorf, M","type":"Markt"},"district":{"key":"09572","name":"Erlangen-Höchstadt","type":"Landkreis"},"federalState":{"key":"09","name":"Bayern"}},{"name":"Am Kirchweiher","postalCode":"91085","locality":"Weisendorf","municipality":{"key":"09572164","name":"Weisendorf, M","type":"Markt"},"district":{"key":"09572","name":"Erlangen-Höchstadt","type":"Landkreis"},"federalState":{"key":"09","name":"Bayern"}},{"name":"Am Köppel","postalCode":"67273","locality":"Weisenheim am Berg","municipality":{"key":"07332049","name":"Weisenheim am Berg","type":"Kreisangehörige_Gemeinde"},"district":{"key":"07332","name":"Bad Dürkheim","type":"Landkreis"},"federalState":{"key":"07","name":"Rheinland-Pfalz"}},{"name":"Am Langen Weiher","postalCode":"91085","locality":"Weisendorf","municipality":{"key":"09572164","name":"Weisendorf, M","type":"Markt"},"district":{"key":"09572","name":"Erlangen-Höchstadt","type":"Landkreis"},"federalState":{"key":"09","name":"Bayern"}},{"name":"Am Lehmberg","postalCode":"91085","locality":"Weisendorf","municipality":{"key":"09572164","name":"Weisendorf, M","type":"Markt"},"district":{"key":"09572","name":"Erlangen-Höchstadt","type":"Landkreis"},"federalState":{"key":"09","name":"Bayern"}},{"name":"Am Mahlstein","postalCode":"67273","locality":"Weisenheim am Berg","municipality":{"key":"07332049","name":"Weisenheim am Berg","type":"Kreisangehörige_Gemeinde"},"district":{"key":"07332","name":"Bad Dürkheim","type":"Landkreis"},"federalState":{"key":"07","name":"Rheinland-Pfalz"}},{"name":"Am Mörsch","postalCode":"67256","locality":"Weisenheim am Sand","municipality":{"key":"07332050","name":"Weisenheim am Sand","type":"Kreisangehörige_Gemeinde"},"district":{"key":"07332","name":"Bad Dürkheim","type":"Landkreis"},"federalState":{"key":"07","name":"Rheinland-Pfalz"}},{"name":"Am Mühlberg","postalCode":"91085","locality":"Weisendorf","municipality":{"key":"09572164","name":"Weisendorf, M","type":"Markt"},"district":{"key":"09572","name":"Erlangen-Höchstadt","type":"Landkreis"},"federalState":{"key":"09","name":"Bayern"}},{"name":"Am Mühlweiher","postalCode":"91085","locality":"Weisendorf","municipality":{"key":"09572164","name":"Weisendorf, M","type":"Markt"},"district":{"key":"09572","name":"Erlangen-Höchstadt","type":"Landkreis"},"federalState":{"key":"09","name":"Bayern"}},{"name":"Am Nartenberg","postalCode":"67256","locality":"Weisenheim am Sand","municipality":{"key":"07332050","name":"Weisenheim am Sand","type":"Kreisangehörige_Gemeinde"},"district":{"key":"07332","name":"Bad Dürkheim","type":"Landkreis"},"federalState":{"key":"07","name":"Rheinland-Pfalz"}},{"name":"Am Nussbaum","postalCode":"67273","locality":"Weisenheim am Berg","municipality":{"key":"07332049","name":"Weisenheim am Berg","type":"Kreisangehörige_Gemeinde"},"district":{"key":"07332","name":"Bad Dürkheim","type":"Landkreis"},"federalState":{"key":"07","name":"Rheinland-Pfalz"}},{"name":"Am Ochsenweiher","postalCode":"91085","locality":"Weisendorf","municipality":{"key":"09572164","name":"Weisendorf, M","type":"Markt"},"district":{"key":"09572","name":"Erlangen-Höchstadt","type":"Landkreis"},"federalState":{"key":"09","name":"Bayern"}},{"name":"Am Pfaffenweiher","postalCode":"67273","locality":"Weisenheim am Berg","municipality":{"key":"07332049","name":"Weisenheim am Berg","type":"Kreisangehörige_Gemeinde"},"district":{"key":"07332","name":"Bad Dürkheim","type":"Landkreis"},"federalState":{"key":"07","name":"Rheinland-Pfalz"}},{"name":"Am Pointgraben","postalCode":"91085","locality":"Weisendorf","municipality":{"key":"09572164","name":"Weisendorf, M","type":"Markt"},"district":{"key":"09572","name":"Erlangen-Höchstadt","type":"Landkreis"},"federalState":{"key":"09","name":"Bayern"}},{"name":"Am Rain","postalCode":"76599","locality":"Weisenbach","municipality":{"key":"08216059","name":"Weisenbach","type":"Kreisangehörige_Gemeinde"},"district":{"key":"08216","name":"Rastatt","type":"Landkreis"},"federalState":{"key":"08","name":"Baden-Württemberg"}},{"name":"Am Schloßweg","postalCode":"91085","locality":"Weisendorf","municipality":{"key":"09572164","name":"Weisendorf, M","type":"Markt"},"district":{"key":"09572","name":"Erlangen-Höchstadt","type":"Landkreis"},"federalState":{"key":"09","name":"Bayern"}},{"name":"Am Schulplatz","postalCode":"19322","locality":"Weisen","municipality":{"key":"12070416","name":"Weisen","type":"Kreisangehörige_Gemeinde"},"district":{"key":"12070","name":"Prignitz","type":"Landkreis"},"federalState":{"key":"12","name":"Brandenburg"}},{"name":"Amselweg","postalCode":"19322","locality":"Weisen","municipality":{"key":"12070416","name":"Weisen","type":"Kreisangehörige_Gemeinde"},"district":{"key":"12070","name":"Prignitz","type":"Landkreis"},"federalState":{"key":"12","name":"Brandenburg"}},{"name":"Amselweg","postalCode":"67256","locality":"Weisenheim am Sand","municipality":{"key":"07332050","name":"Weisenheim am Sand","type":"Kreisangehörige_Gemeinde"},"district":{"key":"07332","name":"Bad Dürkheim","type":"Landkreis"},"federalState":{"key":"07","name":"Rheinland-Pfalz"}},{"name":"Amselweg","postalCode":"91085","locality":"Weisendorf","municipality":{"key":"09572164","name":"Weisendorf, M","type":"Markt"},"district":{"key":"09572","name":"Erlangen-Höchstadt","type":"Landkreis"},"federalState":{"key":"09","name":"Bayern"}},{"name":"Am Talblick","postalCode":"76599","locality":"Weisenbach","municipality":{"key":"08216059","name":"Weisenbach","type":"Kreisangehörige_Gemeinde"},"district":{"key":"08216","name":"Rastatt","type":"Landkreis"},"federalState":{"key":"08","name":"Baden-Württemberg"}},{"name":"Am Teich","postalCode":"91085","locality":"Weisendorf","municipality":{"key":"09572164","name":"Weisendorf, M","type":"Markt"},"district":{"key":"09572","name":"Erlangen-Höchstadt","type":"Landkreis"},"federalState":{"key":"09","name":"Bayern"}},{"name":"Am Waldrand","postalCode":"19322","locality":"Weisen","municipality":{"key":"12070416","name":"Weisen","type":"Kreisangehörige_Gemeinde"},"district":{"key":"12070","name":"Prignitz","type":"Landkreis"},"federalState":{"key":"12","name":"Brandenburg"}},{"name":"Am Weißen Berg","postalCode":"91085","locality":"Weisendorf","municipality":{"key":"09572164","name":"Weisendorf, M","type":"Markt"},"district":{"key":"09572","name":"Erlangen-Höchstadt","type":"Landkreis"},"federalState":{"key":"09","name":"Bayern"}},{"name":"Am Windflügel","postalCode":"91085","locality":"Weisendorf","municipality":{"key":"09572164","name":"Weisendorf, M","type":"Markt"},"district":{"key":"09572","name":"Erlangen-Höchstadt","type":"Landkreis"},"federalState":{"key":"09","name":"Bayern"}},{"name":"Am Wingert","postalCode":"76599","locality":"Weisenbach","municipality":{"key":"08216059","name":"Weisenbach","type":"Kreisangehörige_Gemeinde"},"district":{"key":"08216","name":"Rastatt","type":"Landkreis"},"federalState":{"key":"08","name":"Baden-Württemberg"}},{"name":"Am Wingertsberg","postalCode":"67273","locality":"Weisenheim am Berg","municipality":{"key":"07332049","name":"Weisenheim am Berg","type":"Kreisangehörige_Gemeinde"},"district":{"key":"07332","name":"Bad Dürkheim","type":"Landkreis"},"federalState":{"key":"07","name":"Rheinland-Pfalz"}},{"name":"Am Zimmerplatz","postalCode":"76599","locality":"Weisenbach","municipality":{"key":"08216059","name":"Weisenbach","type":"Kreisangehörige_Gemeinde"},"district":{"key":"08216","name":"Rastatt","type":"Landkreis"},"federalState":{"key":"08","name":"Baden-Württemberg"}},{"name":"An der Bahn","postalCode":"19322","locality":"Weisen","municipality":{"key":"12070416","name":"Weisen","type":"Kreisangehörige_Gemeinde"},"district":{"key":"12070","name":"Prignitz","type":"Landkreis"},"federalState":{"key":"12","name":"Brandenburg"}},{"name":"An der Bleiche","postalCode":"67256","locality":"Weisenheim am Sand","municipality":{"key":"07332050","name":"Weisenheim am Sand","type":"Kreisangehörige_Gemeinde"},"district":{"key":"07332","name":"Bad Dürkheim","type":"Landkreis"},"federalState":{"key":"07","name":"Rheinland-Pfalz"}},{"name":"Bachweg","postalCode":"67273","locality":"Weisenheim am Berg","municipality":{"key":"07332049","name":"Weisenheim am Berg","type":"Kreisangehörige_Gemeinde"},"district":{"key":"07332","name":"Bad Dürkheim","type":"Landkreis"},"federalState":{"key":"07","name":"Rheinland-Pfalz"}},{"name":"Bahnhofstr.","postalCode":"67256","locality":"Weisenheim am Sand","municipality":{"key":"07332050","name":"Weisenheim am Sand","type":"Kreisangehörige_Gemeinde"},"district":{"key":"07332","name":"Bad Dürkheim","type":"Landkreis"},"federalState":{"key":"07","name":"Rheinland-Pfalz"}},{"name":"Bahnhofstr.","postalCode":"76599","locality":"Weisenbach","municipality":{"key":"08216059","name":"Weisenbach","type":"Kreisangehörige_Gemeinde"},"district":{"key":"08216","name":"Rastatt","type":"Landkreis"},"federalState":{"key":"08","name":"Baden-Württemberg"}},{"name":"Beethovenstr.","postalCode":"67256","locality":"Weisenheim am Sand","municipality":{"key":"07332050","name":"Weisenheim am Sand","type":"Kreisangehörige_Gemeinde"},"district":{"key":"07332","name":"Bad Dürkheim","type":"Landkreis"},"federalState":{"key":"07","name":"Rheinland-Pfalz"}},{"name":"Belzerweg","postalCode":"76599","locality":"Weisenbach","municipality":{"key":"08216059","name":"Weisenbach","type":"Kreisangehörige_Gemeinde"},"district":{"key":"08216","name":"Rastatt","type":"Landkreis"},"federalState":{"key":"08","name":"Baden-Württemberg"}},{"name":"Bergweg","postalCode":"76599","locality":"Weisenbach","municipality":{"key":"08216059","name":"Weisenbach","type":"Kreisangehörige_Gemeinde"},"district":{"key":"08216","name":"Rastatt","type":"Landkreis"},"federalState":{"key":"08","name":"Baden-Württemberg"}},{"name":"Berliner Str.","postalCode":"67273","locality":"Weisenheim am Berg","municipality":{"key":"07332049","name":"Weisenheim am Berg","type":"Kreisangehörige_Gemeinde"},"district":{"key":"07332","name":"Bad Dürkheim","type":"Landkreis"},"federalState":{"key":"07","name":"Rheinland-Pfalz"}},{"name":"Birkenhof","postalCode":"91085","locality":"Weisendorf","municipality":{"key":"09572164","name":"Weisendorf, M","type":"Markt"},"district":{"key":"09572","name":"Erlangen-Höchstadt","type":"Landkreis"},"federalState":{"key":"09","name":"Bayern"}},{"name":"Bismarckstr.","postalCode":"67256","locality":"Weisenheim am Sand","municipality":{"key":"07332050","name":"Weisenheim am Sand","type":"Kreisangehörige_Gemeinde"},"district":{"key":"07332","name":"Bad Dürkheim","type":"Landkreis"},"federalState":{"key":"07","name":"Rheinland-Pfalz"}},{"name":"Blumenweg","postalCode":"76599","locality":"Weisenbach","municipality":{"key":"08216059","name":"Weisenbach","type":"Kreisangehörige_Gemeinde"},"district":{"key":"08216","name":"Rastatt","type":"Landkreis"},"federalState":{"key":"08","name":"Baden-Württemberg"}},{"name":"Bobenheimer Str.","postalCode":"67273","locality":"Weisenheim am Berg","municipality":{"key":"07332049","name":"Weisenheim am Berg","type":"Kreisangehörige_Gemeinde"},"district":{"key":"07332","name":"Bad Dürkheim","type":"Landkreis"},"federalState":{"key":"07","name":"Rheinland-Pfalz"}},{"name":"Bobenheimer Weg","postalCode":"67273","locality":"Weisenheim am Berg","municipality":{"key":"07332049","name":"Weisenheim am Berg","type":"Kreisangehörige_Gemeinde"},"district":{"key":"07332","name":"Bad Dürkheim","type":"Landkreis"},"federalState":{"key":"07","name":"Rheinland-Pfalz"}},{"name":"Böhmerwaldstr.","postalCode":"91085","locality":"Weisendorf","municipality":{"key":"09572164","name":"Weisendorf, M","type":"Markt"},"district":{"key":"09572","name":"Erlangen-Höchstadt","type":"Landkreis"},"federalState":{"key":"09","name":"Bayern"}},{"name":"Boxbrunner Str.","postalCode":"91085","locality":"Weisendorf","municipality":{"key":"09572164","name":"Weisendorf, M","type":"Markt"},"district":{"key":"09572","name":"Erlangen-Höchstadt","type":"Landkreis"},"federalState":{"key":"09","name":"Bayern"}},{"name":"Bruckäcker","postalCode":"91085","locality":"Weisendorf","municipality":{"key":"09572164","name":"Weisendorf, M","type":"Markt"},"district":{"key":"09572","name":"Erlangen-Höchstadt","type":"Landkreis"},"federalState":{"key":"09","name":"Bayern"}},{"name":"Brunnenäckerweg","postalCode":"91085","locality":"Weisendorf","municipality":{"key":"09572164","name":"Weisendorf, M","type":"Markt"},"district":{"key":"09572","name":"Erlangen-Höchstadt","type":"Landkreis"},"federalState":{"key":"09","name":"Bayern"}},{"name":"Brunnleite","postalCode":"91085","locality":"Weisendorf","municipality":{"key":"09572164","name":"Weisendorf, M","type":"Markt"},"district":{"key":"09572","name":"Erlangen-Höchstadt","type":"Landkreis"},"federalState":{"key":"09","name":"Bayern"}},{"name":"Buchenweg","postalCode":"67256","locality":"Weisenheim am Sand","municipality":{"key":"07332050","name":"Weisenheim am Sand","type":"Kreisangehörige_Gemeinde"},"district":{"key":"07332","name":"Bad Dürkheim","type":"Landkreis"},"federalState":{"key":"07","name":"Rheinland-Pfalz"}},{"name":"Chausseestr.","postalCode":"19322","locality":"Weisen","municipality":{"key":"12070416","name":"Weisen","type":"Kreisangehörige_Gemeinde"},"district":{"key":"12070","name":"Prignitz","type":"Landkreis"},"federalState":{"key":"12","name":"Brandenburg"}},{"name":"Dackenheimer Weg","postalCode":"67273","locality":"Weisenheim am Berg","municipality":{"key":"07332049","name":"Weisenheim am Berg","type":"Kreisangehörige_Gemeinde"},"district":{"key":"07332","name":"Bad Dürkheim","type":"Landkreis"},"federalState":{"key":"07","name":"Rheinland-Pfalz"}},{"name":"Dannberger Weg","postalCode":"91085","locality":"Weisendorf","municipality":{"key":"09572164","name":"Weisendorf, M","type":"Markt"},"district":{"key":"09572","name":"Erlangen-Höchstadt","type":"Landkreis"},"federalState":{"key":"09","name":"Bayern"}},{"name":"Denglerweg","postalCode":"91085","locality":"Weisendorf","municipality":{"key":"09572164","name":"Weisendorf, M","type":"Markt"},"district":{"key":"09572","name":"Erlangen-Höchstadt","type":"Landkreis"},"federalState":{"key":"09","name":"Bayern"}},{"name":"Diakonissenstr.","postalCode":"67256","locality":"Weisenheim am Sand","municipality":{"key":"07332050","name":"Weisenheim am Sand","type":"Kreisangehörige_Gemeinde"},"district":{"key":"07332","name":"Bad Dürkheim","type":"Landkreis"},"federalState":{"key":"07","name":"Rheinland-Pfalz"}},{"name":"Diehlstr.","postalCode":"67256","locality":"Weisenheim am Sand","municipality":{"key":"07332050","name":"Weisenheim am Sand","type":"Kreisangehörige_Gemeinde"},"district":{"key":"07332","name":"Bad Dürkheim","type":"Landkreis"},"federalState":{"key":"07","name":"Rheinland-Pfalz"}},{"name":"Donnersbergstr.","postalCode":"67256","locality":"Weisenheim am Sand","municipality":{"key":"07332050","name":"Weisenheim am Sand","type":"Kreisangehörige_Gemeinde"},"district":{"key":"07332","name":"Bad Dürkheim","type":"Landkreis"},"federalState":{"key":"07","name":"Rheinland-Pfalz"}},{"name":"Dorfstr.","postalCode":"19322","locality":"Weisen","municipality":{"key":"12070416","name":"Weisen","type":"Kreisangehörige_Gemeinde"},"district":{"key":"12070","name":"Prignitz","type":"Landkreis"},"federalState":{"key":"12","name":"Brandenburg"}},{"name":"Dorfstr.","postalCode":"91085","locality":"Weisendorf","municipality":{"key":"09572164","name":"Weisendorf, M","type":"Markt"},"district":{"key":"09572","name":"Erlangen-Höchstadt","type":"Landkreis"},"federalState":{"key":"09","name":"Bayern"}},{"name":"Dorngasse","postalCode":"91085","locality":"Weisendorf","municipality":{"key":"09572164","name":"Weisendorf, M","type":"Markt"},"district":{"key":"09572","name":"Erlangen-Höchstadt","type":"Landkreis"},"federalState":{"key":"09","name":"Bayern"}},{"name":"Dr. Kurt-Schumacher-Str.","postalCode":"67256","locality":"Weisenheim am Sand","municipality":{"key":"07332050","name":"Weisenheim am Sand","type":"Kreisangehörige_Gemeinde"},"district":{"key":"07332","name":"Bad Dürkheim","type":"Landkreis"},"federalState":{"key":"07","name":"Rheinland-Pfalz"}},{"name":"Drosselweg","postalCode":"19322","locality":"Weisen","municipality":{"key":"12070416","name":"Weisen","type":"Kreisangehörige_Gemeinde"},"district":{"key":"12070","name":"Prignitz","type":"Landkreis"},"federalState":{"key":"12","name":"Brandenburg"}},{"name":"Drosselweg","postalCode":"91085","locality":"Weisendorf","municipality":{"key":"09572164","name":"Weisendorf, M","type":"Markt"},"district":{"key":"09572","name":"Erlangen-Höchstadt","type":"Landkreis"},"federalState":{"key":"09","name":"Bayern"}},{"name":"Dr. Welte-Str.","postalCode":"67256","locality":"Weisenheim am Sand","municipality":{"key":"07332050","name":"Weisenheim am Sand","type":"Kreisangehörige_Gemeinde"},"district":{"key":"07332","name":"Bad Dürkheim","type":"Landkreis"},"federalState":{"key":"07","name":"Rheinland-Pfalz"}},{"name":"Ebenlochweg","postalCode":"76599","locality":"Weisenbach","municipality":{"key":"08216059","name":"Weisenbach","type":"Kreisangehörige_Gemeinde"},"district":{"key":"08216","name":"Rastatt","type":"Landkreis"},"federalState":{"key":"08","name":"Baden-Württemberg"}},{"name":"Egerlandstr.","postalCode":"91085","locality":"Weisendorf","municipality":{"key":"09572164","name":"Weisendorf, M","type":"Markt"},"district":{"key":"09572","name":"Erlangen-Höchstadt","type":"Landkreis"},"federalState":{"key":"09","name":"Bayern"}},{"name":"Eichgasse","postalCode":"67256","locality":"Weisenheim am Sand","municipality":{"key":"07332050","name":"Weisenheim am Sand","type":"Kreisangehörige_Gemeinde"},"district":{"key":"07332","name":"Bad Dürkheim","type":"Landkreis"},"federalState":{"key":"07","name":"Rheinland-Pfalz"}},{"name":"Eichlohäcker","postalCode":"91085","locality":"Weisendorf","municipality":{"key":"09572164","name":"Weisendorf, M","type":"Markt"},"district":{"key":"09572","name":"Erlangen-Höchstadt","type":"Landkreis"},"federalState":{"key":"09","name":"Bayern"}},{"name":"Eisenbahnstr.","postalCode":"76599","locality":"Weisenbach","municipality":{"key":"08216059","name":"Weisenbach","type":"Kreisangehörige_Gemeinde"},"district":{"key":"08216","name":"Rastatt","type":"Landkreis"},"federalState":{"key":"08","name":"Baden-Württemberg"}},{"name":"Erlanger Str.","postalCode":"91085","locality":"Weisendorf","municipality":{"key":"09572164","name":"Weisendorf, M","type":"Markt"},"district":{"key":"09572","name":"Erlangen-Höchstadt","type":"Landkreis"},"federalState":{"key":"09","name":"Bayern"}},{"name":"Erlenstr.","postalCode":"76599","locality":"Weisenbach","municipality":{"key":"08216059","name":"Weisenbach","type":"Kreisangehörige_Gemeinde"},"district":{"key":"08216","name":"Rastatt","type":"Landkreis"},"federalState":{"key":"08","name":"Baden-Württemberg"}},{"name":"Erlenweg","postalCode":"67256","locality":"Weisenheim am Sand","municipality":{"key":"07332050","name":"Weisenheim am Sand","type":"Kreisangehörige_Gemeinde"},"district":{"key":"07332","name":"Bad Dürkheim","type":"Landkreis"},"federalState":{"key":"07","name":"Rheinland-Pfalz"}},{"name":"Eugen-Holtzmann-Str.","postalCode":"76599","locality":"Weisenbach","municipality":{"key":"08216059","name":"Weisenbach","type":"Kreisangehörige_Gemeinde"},"district":{"key":"08216","name":"Rastatt","type":"Landkreis"},"federalState":{"key":"08","name":"Baden-Württemberg"}},{"name":"Fabrikstr.","postalCode":"76599","locality":"Weisenbach","municipality":{"key":"08216059","name":"Weisenbach","type":"Kreisangehörige_Gemeinde"},"district":{"key":"08216","name":"Rastatt","type":"Landkreis"},"federalState":{"key":"08","name":"Baden-Württemberg"}},{"name":"Fahrgasse","postalCode":"67256","locality":"Weisenheim am Sand","municipality":{"key":"07332050","name":"Weisenheim am Sand","type":"Kreisangehörige_Gemeinde"},"district":{"key":"07332","name":"Bad Dürkheim","type":"Landkreis"},"federalState":{"key":"07","name":"Rheinland-Pfalz"}},{"name":"Feldäckerstr.","postalCode":"91085","locality":"Weisendorf","municipality":{"key":"09572164","name":"Weisendorf, M","type":"Markt"},"district":{"key":"09572","name":"Erlangen-Höchstadt","type":"Landkreis"},"federalState":{"key":"09","name":"Bayern"}},{"name":"Feldstr.","postalCode":"91085","locality":"Weisendorf","municipality":{"key":"09572164","name":"Weisendorf, M","type":"Markt"},"district":{"key":"09572","name":"Erlangen-Höchstadt","type":"Landkreis"},"federalState":{"key":"09","name":"Bayern"}},{"name":"Feldweiher","postalCode":"91085","locality":"Weisendorf","municipality":{"key":"09572164","name":"Weisendorf, M","type":"Markt"},"district":{"key":"09572","name":"Erlangen-Höchstadt","type":"Landkreis"},"federalState":{"key":"09","name":"Bayern"}},{"name":"Fingerhutsgasse","postalCode":"67256","locality":"Weisenheim am Sand","municipality":{"key":"07332050","name":"Weisenheim am Sand","type":"Kreisangehörige_Gemeinde"},"district":{"key":"07332","name":"Bad Dürkheim","type":"Landkreis"},"federalState":{"key":"07","name":"Rheinland-Pfalz"}},{"name":"Finkenpfad","postalCode":"67256","locality":"Weisenheim am Sand","municipality":{"key":"07332050","name":"Weisenheim am Sand","type":"Kreisangehörige_Gemeinde"},"district":{"key":"07332","name":"Bad Dürkheim","type":"Landkreis"},"federalState":{"key":"07","name":"Rheinland-Pfalz"}},{"name":"Finkenweg","postalCode":"19322","locality":"Weisen","municipality":{"key":"12070416","name":"Weisen","type":"Kreisangehörige_Gemeinde"},"district":{"key":"12070","name":"Prignitz","type":"Landkreis"},"federalState":{"key":"12","name":"Brandenburg"}},{"name":"Finkenweg","postalCode":"91085","locality":"Weisendorf","municipality":{"key":"09572164","name":"Weisendorf, M","type":"Markt"},"district":{"key":"09572","name":"Erlangen-Höchstadt","type":"Landkreis"},"federalState":{"key":"09","name":"Bayern"}},{"name":"Flurstr.","postalCode":"91085","locality":"Weisendorf","municipality":{"key":"09572164","name":"Weisendorf, M","type":"Markt"},"district":{"key":"09572","name":"Erlangen-Höchstadt","type":"Landkreis"},"federalState":{"key":"09","name":"Bayern"}},{"name":"Friedhofgasse","postalCode":"91085","locality":"Weisendorf","municipality":{"key":"09572164","name":"Weisendorf, M","type":"Markt"},"district":{"key":"09572","name":"Erlangen-Höchstadt","type":"Landkreis"},"federalState":{"key":"09","name":"Bayern"}},{"name":"Friedhofstr.","postalCode":"67256","locality":"Weisenheim am Sand","municipality":{"key":"07332050","name":"Weisenheim am Sand","type":"Kreisangehörige_Gemeinde"},"district":{"key":"07332","name":"Bad Dürkheim","type":"Landkreis"},"federalState":{"key":"07","name":"Rheinland-Pfalz"}},{"name":"Friedhofstr.","postalCode":"67273","locality":"Weisenheim am Berg","municipality":{"key":"07332049","name":"Weisenheim am Berg","type":"Kreisangehörige_Gemeinde"},"district":{"key":"07332","name":"Bad Dürkheim","type":"Landkreis"},"federalState":{"key":"07","name":"Rheinland-Pfalz"}},{"name":"Friedhofstr.","postalCode":"76599","locality":"Weisenbach","municipality":{"key":"08216059","name":"Weisenbach","type":"Kreisangehörige_Gemeinde"},"district":{"key":"08216","name":"Rastatt","type":"Landkreis"},"federalState":{"key":"08","name":"Baden-Württemberg"}},{"name":"Friedrich-Ebert-Str.","postalCode":"67256","locality":"Weisenheim am Sand","municipality":{"key":"07332050","name":"Weisenheim am Sand","type":"Kreisangehörige_Gemeinde"},"district":{"key":"07332","name":"Bad Dürkheim","type":"Landkreis"},"federalState":{"key":"07","name":"Rheinland-Pfalz"}},{"name":"Friedrichstr.","postalCode":"67256","locality":"Weisenheim am Sand","municipality":{"key":"07332050","name":"Weisenheim am Sand","type":"Kreisangehörige_Gemeinde"},"district":{"key":"07332","name":"Bad Dürkheim","type":"Landkreis"},"federalState":{"key":"07","name":"Rheinland-Pfalz"}},{"name":"Fuchswiesenweg","postalCode":"76599","locality":"Weisenbach","municipality":{"key":"08216059","name":"Weisenbach","type":"Kreisangehörige_Gemeinde"},"district":{"key":"08216","name":"Rastatt","type":"Landkreis"},"federalState":{"key":"08","name":"Baden-Württemberg"}},{"name":"Gaisbachstr.","postalCode":"76599","locality":"Weisenbach","municipality":{"key":"08216059","name":"Weisenbach","type":"Kreisangehörige_Gemeinde"},"district":{"key":"08216","name":"Rastatt","type":"Landkreis"},"federalState":{"key":"08","name":"Baden-Württemberg"}},{"name":"Gartenstr.","postalCode":"67256","locality":"Weisenheim am Sand","municipality":{"key":"07332050","name":"Weisenheim am Sand","type":"Kreisangehörige_Gemeinde"},"district":{"key":"07332","name":"Bad Dürkheim","type":"Landkreis"},"federalState":{"key":"07","name":"Rheinland-Pfalz"}},{"name":"Gartenstr.","postalCode":"76599","locality":"Weisenbach","municipality":{"key":"08216059","name":"Weisenbach","type":"Kreisangehörige_Gemeinde"},"district":{"key":"08216","name":"Rastatt","type":"Landkreis"},"federalState":{"key":"08","name":"Baden-Württemberg"}},{"name":"Gartenstr.","postalCode":"91085","locality":"Weisendorf","municipality":{"key":"09572164","name":"Weisendorf, M","type":"Markt"},"district":{"key":"09572","name":"Erlangen-Höchstadt","type":"Landkreis"},"federalState":{"key":"09","name":"Bayern"}},{"name":"Geisgrün","postalCode":"91085","locality":"Weisendorf","municipality":{"key":"09572164","name":"Weisendorf, M","type":"Markt"},"district":{"key":"09572","name":"Erlangen-Höchstadt","type":"Landkreis"},"federalState":{"key":"09","name":"Bayern"}},{"name":"Geiwitzenweg","postalCode":"91085","locality":"Weisendorf","municipality":{"key":"09572164","name":"Weisendorf, M","type":"Markt"},"district":{"key":"09572","name":"Erlangen-Höchstadt","type":"Landkreis"},"federalState":{"key":"09","name":"Bayern"}},{"name":"Georg-Gerhard-Str.","postalCode":"67256","locality":"Weisenheim am Sand","municipality":{"key":"07332050","name":"Weisenheim am Sand","type":"Kreisangehörige_Gemeinde"},"district":{"key":"07332","name":"Bad Dürkheim","type":"Landkreis"},"federalState":{"key":"07","name":"Rheinland-Pfalz"}},{"name":"Gerbersknock","postalCode":"91085","locality":"Weisendorf","municipality":{"key":"09572164","name":"Weisendorf, M","type":"Markt"},"district":{"key":"09572","name":"Erlangen-Höchstadt","type":"Landkreis"},"federalState":{"key":"09","name":"Bayern"}},{"name":"Gerbersleite","postalCode":"91085","locality":"Weisendorf","municipality":{"key":"09572164","name":"Weisendorf, M","type":"Markt"},"district":{"key":"09572","name":"Erlangen-Höchstadt","type":"Landkreis"},"federalState":{"key":"09","name":"Bayern"}},{"name":"Gerolsheimer Str.","postalCode":"67256","locality":"Weisenheim am Sand","municipality":{"key":"07332050","name":"Weisenheim am Sand","type":"Kreisangehörige_Gemeinde"},"district":{"key":"07332","name":"Bad Dürkheim","type":"Landkreis"},"federalState":{"key":"07","name":"Rheinland-Pfalz"}},{"name":"Göbelstr.","postalCode":"67256","locality":"Weisenheim am Sand","municipality":{"key":"07332050","name":"Weisenheim am Sand","type":"Kreisangehörige_Gemeinde"},"district":{"key":"07332","name":"Bad Dürkheim","type":"Landkreis"},"federalState":{"key":"07","name":"Rheinland-Pfalz"}},{"name":"Goethestr.","postalCode":"67256","locality":"Weisenheim am Sand","municipality":{"key":"07332050","name":"Weisenheim am Sand","type":"Kreisangehörige_Gemeinde"},"district":{"key":"07332","name":"Bad Dürkheim","type":"Landkreis"},"federalState":{"key":"07","name":"Rheinland-Pfalz"}},{"name":"Goethestr.","postalCode":"91085","locality":"Weisendorf","municipality":{"key":"09572164","name":"Weisendorf, M","type":"Markt"},"district":{"key":"09572","name":"Erlangen-Höchstadt","type":"Landkreis"},"federalState":{"key":"09","name":"Bayern"}},{"name":"Großkarlbacher Str.","postalCode":"67256","locality":"Weisenheim am Sand","municipality":{"key":"07332050","name":"Weisenheim am Sand","type":"Kreisangehörige_Gemeinde"},"district":{"key":"07332","name":"Bad Dürkheim","type":"Landkreis"},"federalState":{"key":"07","name":"Rheinland-Pfalz"}},{"name":"Haardtstr.","postalCode":"67256","locality":"Weisenheim am Sand","municipality":{"key":"07332050","name":"Weisenheim am Sand","type":"Kreisangehörige_Gemeinde"},"district":{"key":"07332","name":"Bad Dürkheim","type":"Landkreis"},"federalState":{"key":"07","name":"Rheinland-Pfalz"}},{"name":"Hangstr.","postalCode":"76599","locality":"Weisenbach","municipality":{"key":"08216059","name":"Weisenbach","type":"Kreisangehörige_Gemeinde"},"district":{"key":"08216","name":"Rastatt","type":"Landkreis"},"federalState":{"key":"08","name":"Baden-Württemberg"}},{"name":"Hauptstr.","postalCode":"67273","locality":"Weisenheim am Berg","municipality":{"key":"07332049","name":"Weisenheim am Berg","type":"Kreisangehörige_Gemeinde"},"district":{"key":"07332","name":"Bad Dürkheim","type":"Landkreis"},"federalState":{"key":"07","name":"Rheinland-Pfalz"}},{"name":"Hauptstr.","postalCode":"76599","locality":"Weisenbach","municipality":{"key":"08216059","name":"Weisenbach","type":"Kreisangehörige_Gemeinde"},"district":{"key":"08216","name":"Rastatt","type":"Landkreis"},"federalState":{"key":"08","name":"Baden-Württemberg"}},{"name":"Hauptstr.","postalCode":"91085","locality":"Weisendorf","municipality":{"key":"09572164","name":"Weisendorf, M","type":"Markt"},"district":{"key":"09572","name":"Erlangen-Höchstadt","type":"Landkreis"},"federalState":{"key":"09","name":"Bayern"}},{"name":"Heidweihergraben","postalCode":"91085","locality":"Weisendorf","municipality":{"key":"09572164","name":"Weisendorf, M","type":"Markt"},"district":{"key":"09572","name":"Erlangen-Höchstadt","type":"Landkreis"},"federalState":{"key":"09","name":"Bayern"}},{"name":"Heinrich-Heine-Str.","postalCode":"19322","locality":"Weisen","municipality":{"key":"12070416","name":"Weisen","type":"Kreisangehörige_Gemeinde"},"district":{"key":"12070","name":"Prignitz","type":"Landkreis"},"federalState":{"key":"12","name":"Brandenburg"}},{"name":"Hermann-Löns-Str.","postalCode":"67256","locality":"Weisenheim am Sand","municipality":{"key":"07332050","name":"Weisenheim am Sand","type":"Kreisangehörige_Gemeinde"},"district":{"key":"07332","name":"Bad Dürkheim","type":"Landkreis"},"federalState":{"key":"07","name":"Rheinland-Pfalz"}},{"name":"Herrengasse","postalCode":"76599","locality":"Weisenbach","municipality":{"key":"08216059","name":"Weisenbach","type":"Kreisangehörige_Gemeinde"},"district":{"key":"08216","name":"Rastatt","type":"Landkreis"},"federalState":{"key":"08","name":"Baden-Württemberg"}},{"name":"Herxheimer Str.","postalCode":"67273","locality":"Weisenheim am Berg","municipality":{"key":"07332049","name":"Weisenheim am Berg","type":"Kreisangehörige_Gemeinde"},"district":{"key":"07332","name":"Bad Dürkheim","type":"Landkreis"},"federalState":{"key":"07","name":"Rheinland-Pfalz"}},{"name":"Hirschleite","postalCode":"91085","locality":"Weisendorf","municipality":{"key":"09572164","name":"Weisendorf, M","type":"Markt"},"district":{"key":"09572","name":"Erlangen-Höchstadt","type":"Landkreis"},"federalState":{"key":"09","name":"Bayern"}},{"name":"Höchstadter Str.","postalCode":"91085","locality":"Weisendorf","municipality":{"key":"09572164","name":"Weisendorf, M","type":"Markt"},"district":{"key":"09572","name":"Erlangen-Höchstadt","type":"Landkreis"},"federalState":{"key":"09","name":"Bayern"}},{"name":"Hochstr.","postalCode":"91085","locality":"Weisendorf","municipality":{"key":"09572164","name":"Weisendorf, M","type":"Markt"},"district":{"key":"09572","name":"Erlangen-Höchstadt","type":"Landkreis"},"federalState":{"key":"09","name":"Bayern"}},{"name":"Hoderweg","postalCode":"91085","locality":"Weisendorf","municipality":{"key":"09572164","name":"Weisendorf, M","type":"Markt"},"district":{"key":"09572","name":"Erlangen-Höchstadt","type":"Landkreis"},"federalState":{"key":"09","name":"Bayern"}},{"name":"Holzweg","postalCode":"67256","locality":"Weisenheim am Sand","municipality":{"key":"07332050","name":"Weisenheim am Sand","type":"Kreisangehörige_Gemeinde"},"district":{"key":"07332","name":"Bad Dürkheim","type":"Landkreis"},"federalState":{"key":"07","name":"Rheinland-Pfalz"}},{"name":"Hopfenleithe","postalCode":"91085","locality":"Weisendorf","municipality":{"key":"09572164","name":"Weisendorf, M","type":"Markt"},"district":{"key":"09572","name":"Erlangen-Höchstadt","type":"Landkreis"},"federalState":{"key":"09","name":"Bayern"}},{"name":"Im Birket","postalCode":"76599","locality":"Weisenbach","municipality":{"key":"08216059","name":"Weisenbach","type":"Kreisangehörige_Gemeinde"},"district":{"key":"08216","name":"Rastatt","type":"Landkreis"},"federalState":{"key":"08","name":"Baden-Württemberg"}},{"name":"Im Diehl","postalCode":"67256","locality":"Weisenheim am Sand","municipality":{"key":"07332050","name":"Weisenheim am Sand","type":"Kreisangehörige_Gemeinde"},"district":{"key":"07332","name":"Bad Dürkheim","type":"Landkreis"},"federalState":{"key":"07","name":"Rheinland-Pfalz"}},{"name":"Im Eiertal","postalCode":"67273","locality":"Weisenheim am Berg","municipality":{"key":"07332049","name":"Weisenheim am Berg","type":"Kreisangehörige_Gemeinde"},"district":{"key":"07332","name":"Bad Dürkheim","type":"Landkreis"},"federalState":{"key":"07","name":"Rheinland-Pfalz"}},{"name":"Im Ewignest","postalCode":"67273","locality":"Weisenheim am Berg","municipality":{"key":"07332049","name":"Weisenheim am Berg","type":"Kreisangehörige_Gemeinde"},"district":{"key":"07332","name":"Bad Dürkheim","type":"Landkreis"},"federalState":{"key":"07","name":"Rheinland-Pfalz"}},{"name":"Im Gäßla","postalCode":"91085","locality":"Weisendorf","municipality":{"key":"09572164","name":"Weisendorf, M","type":"Markt"},"district":{"key":"09572","name":"Erlangen-Höchstadt","type":"Landkreis"},"federalState":{"key":"09","name":"Bayern"}},{"name":"Im Langental","postalCode":"67273","locality":"Weisenheim am Berg","municipality":{"key":"07332049","name":"Weisenheim am Berg","type":"Kreisangehörige_Gemeinde"},"district":{"key":"07332","name":"Bad Dürkheim","type":"Landkreis"},"federalState":{"key":"07","name":"Rheinland-Pfalz"}},{"name":"Im Mandelgarten","postalCode":"67273","locality":"Weisenheim am Berg","municipality":{"key":"07332049","name":"Weisenheim am Berg","type":"Kreisangehörige_Gemeinde"},"district":{"key":"07332","name":"Bad Dürkheim","type":"Landkreis"},"federalState":{"key":"07","name":"Rheinland-Pfalz"}},{"name":"Im Obstgarten","postalCode":"76599","locality":"Weisenbach","municipality":{"key":"08216059","name":"Weisenbach","type":"Kreisangehörige_Gemeinde"},"district":{"key":"08216","name":"Rastatt","type":"Landkreis"},"federalState":{"key":"08","name":"Baden-Württemberg"}},{"name":"Im Obstgarten","postalCode":"91085","locality":"Weisendorf","municipality":{"key":"09572164","name":"Weisendorf, M","type":"Markt"},"district":{"key":"09572","name":"Erlangen-Höchstadt","type":"Landkreis"},"federalState":{"key":"09","name":"Bayern"}},{"name":"Im Schafhof","postalCode":"91085","locality":"Weisendorf","municipality":{"key":"09572164","name":"Weisendorf, M","type":"Markt"},"district":{"key":"09572","name":"Erlangen-Höchstadt","type":"Landkreis"},"federalState":{"key":"09","name":"Bayern"}},{"name":"Im Schetterling","postalCode":"76599","locality":"Weisenbach","municipality":{"key":"08216059","name":"Weisenbach","type":"Kreisangehörige_Gemeinde"},"district":{"key":"08216","name":"Rastatt","type":"Landkreis"},"federalState":{"key":"08","name":"Baden-Württemberg"}},{"name":"Im Spieß","postalCode":"67256","locality":"Weisenheim am Sand","municipality":{"key":"07332050","name":"Weisenheim am Sand","type":"Kreisangehörige_Gemeinde"},"district":{"key":"07332","name":"Bad Dürkheim","type":"Landkreis"},"federalState":{"key":"07","name":"Rheinland-Pfalz"}},{"name":"Im Viertel","postalCode":"76599","locality":"Weisenbach","municipality":{"key":"08216059","name":"Weisenbach","type":"Kreisangehörige_Gemeinde"},"district":{"key":"08216","name":"Rastatt","type":"Landkreis"},"federalState":{"key":"08","name":"Baden-Württemberg"}},{"name":"Im Vogelsang","postalCode":"67273","locality":"Weisenheim am Berg","municipality":{"key":"07332049","name":"Weisenheim am Berg","type":"Kreisangehörige_Gemeinde"},"district":{"key":"07332","name":"Bad Dürkheim","type":"Landkreis"},"federalState":{"key":"07","name":"Rheinland-Pfalz"}},{"name":"Im Winkel","postalCode":"67273","locality":"Weisenheim am Berg","municipality":{"key":"07332049","name":"Weisenheim am Berg","type":"Kreisangehörige_Gemeinde"},"district":{"key":"07332","name":"Bad Dürkheim","type":"Landkreis"},"federalState":{"key":"07","name":"Rheinland-Pfalz"}},{"name":"In den Höfen","postalCode":"76599","locality":"Weisenbach","municipality":{"key":"08216059","name":"Weisenbach","type":"Kreisangehörige_Gemeinde"},"district":{"key":"08216","name":"Rastatt","type":"Landkreis"},"federalState":{"key":"08","name":"Baden-Württemberg"}},{"name":"In der Au","postalCode":"67273","locality":"Weisenheim am Berg","municipality":{"key":"07332049","name":"Weisenheim am Berg","type":"Kreisangehörige_Gemeinde"},"district":{"key":"07332","name":"Bad Dürkheim","type":"Landkreis"},"federalState":{"key":"07","name":"Rheinland-Pfalz"}},{"name":"In der Emisau","postalCode":"76599","locality":"Weisenbach","municipality":{"key":"08216059","name":"Weisenbach","type":"Kreisangehörige_Gemeinde"},"district":{"key":"08216","name":"Rastatt","type":"Landkreis"},"federalState":{"key":"08","name":"Baden-Württemberg"}},{"name":"In der Ortsflur","postalCode":"67273","locality":"Weisenheim am Berg","municipality":{"key":"07332049","name":"Weisenheim am Berg","type":"Kreisangehörige_Gemeinde"},"district":{"key":"07332","name":"Bad Dürkheim","type":"Landkreis"},"federalState":{"key":"07","name":"Rheinland-Pfalz"}},{"name":"In der Schlechtau","postalCode":"76599","locality":"Weisenbach","municipality":{"key":"08216059","name":"Weisenbach","type":"Kreisangehörige_Gemeinde"},"district":{"key":"08216","name":"Rastatt","type":"Landkreis"},"federalState":{"key":"08","name":"Baden-Württemberg"}},{"name":"Industriestr.","postalCode":"91085","locality":"Weisendorf","municipality":{"key":"09572164","name":"Weisendorf, M","type":"Markt"},"district":{"key":"09572","name":"Erlangen-Höchstadt","type":"Landkreis"},"federalState":{"key":"09","name":"Bayern"}},{"name":"Jahnstr.","postalCode":"67273","locality":"Weisenheim am Berg","municipality":{"key":"07332049","name":"Weisenheim am Berg","type":"Kreisangehörige_Gemeinde"},"district":{"key":"07332","name":"Bad Dürkheim","type":"Landkreis"},"federalState":{"key":"07","name":"Rheinland-Pfalz"}},{"name":"Jahnstr.","postalCode":"76599","locality":"Weisenbach","municipality":{"key":"08216059","name":"Weisenbach","type":"Kreisangehörige_Gemeinde"},"district":{"key":"08216","name":"Rastatt","type":"Landkreis"},"federalState":{"key":"08","name":"Baden-Württemberg"}},{"name":"Jakob-Bleyer-Str.","postalCode":"76599","locality":"Weisenbach","municipality":{"key":"08216059","name":"Weisenbach","type":"Kreisangehörige_Gemeinde"},"district":{"key":"08216","name":"Rastatt","type":"Landkreis"},"federalState":{"key":"08","name":"Baden-Württemberg"}},{"name":"Johannes-Orttenburger-Str.","postalCode":"67273","locality":"Weisenheim am Berg","municipality":{"key":"07332049","name":"Weisenheim am Berg","type":"Kreisangehörige_Gemeinde"},"district":{"key":"07332","name":"Bad Dürkheim","type":"Landkreis"},"federalState":{"key":"07","name":"Rheinland-Pfalz"}},{"name":"Johann-Georg-Lehmann-Str.","postalCode":"67273","locality":"Weisenheim am Berg","municipality":{"key":"07332049","name":"Weisenheim am Berg","type":"Kreisangehörige_Gemeinde"},"district":{"key":"07332","name":"Bad Dürkheim","type":"Landkreis"},"federalState":{"key":"07","name":"Rheinland-Pfalz"}},{"name":"Kairlindacher Str.","postalCode":"91085","locality":"Weisendorf","municipality":{"key":"09572164","name":"Weisendorf, M","type":"Markt"},"district":{"key":"09572","name":"Erlangen-Höchstadt","type":"Landkreis"},"federalState":{"key":"09","name":"Bayern"}},{"name":"Kalmitstr.","postalCode":"67256","locality":"Weisenheim am Sand","municipality":{"key":"07332050","name":"Weisenheim am Sand","type":"Kreisangehörige_Gemeinde"},"district":{"key":"07332","name":"Bad Dürkheim","type":"Landkreis"},"federalState":{"key":"07","name":"Rheinland-Pfalz"}},{"name":"Karl-Gayer-Str.","postalCode":"67273","locality":"Weisenheim am Berg","municipality":{"key":"07332049","name":"Weisenheim am Berg","type":"Kreisangehörige_Gemeinde"},"district":{"key":"07332","name":"Bad Dürkheim","type":"Landkreis"},"federalState":{"key":"07","name":"Rheinland-Pfalz"}},{"name":"Karlsbader Str.","postalCode":"91085","locality":"Weisendorf","municipality":{"key":"09572164","name":"Weisendorf, M","type":"Markt"},"district":{"key":"09572","name":"Erlangen-Höchstadt","type":"Landkreis"},"federalState":{"key":"09","name":"Bayern"}},{"name":"Karlsweg","postalCode":"91085","locality":"Weisendorf","municipality":{"key":"09572164","name":"Weisendorf, M","type":"Markt"},"district":{"key":"09572","name":"Erlangen-Höchstadt","type":"Landkreis"},"federalState":{"key":"09","name":"Bayern"}},{"name":"Karl-Theodor-von-Guttenberg-Str.","postalCode":"91085","locality":"Weisendorf","municipality":{"key":"09572164","name":"Weisendorf, M","type":"Markt"},"district":{"key":"09572","name":"Erlangen-Höchstadt","type":"Landkreis"},"federalState":{"key":"09","name":"Bayern"}},{"name":"Kastanienweg","postalCode":"67256","locality":"Weisenheim am Sand","municipality":{"key":"07332050","name":"Weisenheim am Sand","type":"Kreisangehörige_Gemeinde"},"district":{"key":"07332","name":"Bad Dürkheim","type":"Landkreis"},"federalState":{"key":"07","name":"Rheinland-Pfalz"}},{"name":"Kastanienweg","postalCode":"76599","locality":"Weisenbach","municipality":{"key":"08216059","name":"Weisenbach","type":"Kreisangehörige_Gemeinde"},"district":{"key":"08216","name":"Rastatt","type":"Landkreis"},"federalState":{"key":"08","name":"Baden-Württemberg"}},{"name":"Kellerstr.","postalCode":"91085","locality":"Weisendorf","municipality":{"key":"09572164","name":"Weisendorf, M","type":"Markt"},"district":{"key":"09572","name":"Erlangen-Höchstadt","type":"Landkreis"},"federalState":{"key":"09","name":"Bayern"}},{"name":"Kelterstr.","postalCode":"76599","locality":"Weisenbach","municipality":{"key":"08216059","name":"Weisenbach","type":"Kreisangehörige_Gemeinde"},"district":{"key":"08216","name":"Rastatt","type":"Landkreis"},"federalState":{"key":"08","name":"Baden-Württemberg"}},{"name":"Kestelbergweg","postalCode":"76599","locality":"Weisenbach","municipality":{"key":"08216059","name":"Weisenbach","type":"Kreisangehörige_Gemeinde"},"district":{"key":"08216","name":"Rastatt","type":"Landkreis"},"federalState":{"key":"08","name":"Baden-Württemberg"}},{"name":"Kilbackerstr.","postalCode":"76599","locality":"Weisenbach","municipality":{"key":"08216059","name":"Weisenbach","type":"Kreisangehörige_Gemeinde"},"district":{"key":"08216","name":"Rastatt","type":"Landkreis"},"federalState":{"key":"08","name":"Baden-Württemberg"}},{"name":"Kirchenstr.","postalCode":"91085","locality":"Weisendorf","municipality":{"key":"09572164","name":"Weisendorf, M","type":"Markt"},"district":{"key":"09572","name":"Erlangen-Höchstadt","type":"Landkreis"},"federalState":{"key":"09","name":"Bayern"}},{"name":"Kirchgasse","postalCode":"67273","locality":"Weisenheim am Berg","municipality":{"key":"07332049","name":"Weisenheim am Berg","type":"Kreisangehörige_Gemeinde"},"district":{"key":"07332","name":"Bad Dürkheim","type":"Landkreis"},"federalState":{"key":"07","name":"Rheinland-Pfalz"}},{"name":"Kirchplatz","postalCode":"67256","locality":"Weisenheim am Sand","municipality":{"key":"07332050","name":"Weisenheim am Sand","type":"Kreisangehörige_Gemeinde"},"district":{"key":"07332","name":"Bad Dürkheim","type":"Landkreis"},"federalState":{"key":"07","name":"Rheinland-Pfalz"}},{"name":"Kirchstr.","postalCode":"76599","locality":"Weisenbach","municipality":{"key":"08216059","name":"Weisenbach","type":"Kreisangehörige_Gemeinde"},"district":{"key":"08216","name":"Rastatt","type":"Landkreis"},"federalState":{"key":"08","name":"Baden-Württemberg"}},{"name":"Kisselbühlweg","postalCode":"67256","locality":"Weisenheim am Sand","municipality":{"key":"07332050","name":"Weisenheim am Sand","type":"Kreisangehörige_Gemeinde"},"district":{"key":"07332","name":"Bad Dürkheim","type":"Landkreis"},"federalState":{"key":"07","name":"Rheinland-Pfalz"}},{"name":"Kleegasse","postalCode":"67256","locality":"Weisenheim am Sand","municipality":{"key":"07332050","name":"Weisenheim am Sand","type":"Kreisangehörige_Gemeinde"},"district":{"key":"07332","name":"Bad Dürkheim","type":"Landkreis"},"federalState":{"key":"07","name":"Rheinland-Pfalz"}},{"name":"Koloniestr.","postalCode":"76599","locality":"Weisenbach","municipality":{"key":"08216059","name":"Weisenbach","type":"Kreisangehörige_Gemeinde"},"district":{"key":"08216","name":"Rastatt","type":"Landkreis"},"federalState":{"key":"08","name":"Baden-Württemberg"}},{"name":"Konrad-Adenauer-Str.","postalCode":"67256","locality":"Weisenheim am Sand","municipality":{"key":"07332050","name":"Weisenheim am Sand","type":"Kreisangehörige_Gemeinde"},"district":{"key":"07332","name":"Bad Dürkheim","type":"Landkreis"},"federalState":{"key":"07","name":"Rheinland-Pfalz"}},{"name":"Krumme Str.","postalCode":"19322","locality":"Weisen","municipality":{"key":"12070416","name":"Weisen","type":"Kreisangehörige_Gemeinde"},"district":{"key":"12070","name":"Prignitz","type":"Landkreis"},"federalState":{"key":"12","name":"Brandenburg"}},{"name":"Laumersheimer Str.","postalCode":"67256","locality":"Weisenheim am Sand","municipality":{"key":"07332050","name":"Weisenheim am Sand","type":"Kreisangehörige_Gemeinde"},"district":{"key":"07332","name":"Bad Dürkheim","type":"Landkreis"},"federalState":{"key":"07","name":"Rheinland-Pfalz"}},{"name":"Leimengrübstr.","postalCode":"76599","locality":"Weisenbach","municipality":{"key":"08216059","name":"Weisenbach","type":"Kreisangehörige_Gemeinde"},"district":{"key":"08216","name":"Rastatt","type":"Landkreis"},"federalState":{"key":"08","name":"Baden-Württemberg"}},{"name":"Leininger Pfad","postalCode":"67273","locality":"Weisenheim am Berg","municipality":{"key":"07332049","name":"Weisenheim am Berg","type":"Kreisangehörige_Gemeinde"},"district":{"key":"07332","name":"Bad Dürkheim","type":"Landkreis"},"federalState":{"key":"07","name":"Rheinland-Pfalz"}},{"name":"Leistadter Str.","postalCode":"67273","locality":"Weisenheim am Berg","municipality":{"key":"07332049","name":"Weisenheim am Berg","type":"Kreisangehörige_Gemeinde"},"district":{"key":"07332","name":"Bad Dürkheim","type":"Landkreis"},"federalState":{"key":"07","name":"Rheinland-Pfalz"}},{"name":"Limburgstr.","postalCode":"67256","locality":"Weisenheim am Sand","municipality":{"key":"07332050","name":"Weisenheim am Sand","type":"Kreisangehörige_Gemeinde"},"district":{"key":"07332","name":"Bad Dürkheim","type":"Landkreis"},"federalState":{"key":"07","name":"Rheinland-Pfalz"}},{"name":"Lindenstr.","postalCode":"91085","locality":"Weisendorf","municipality":{"key":"09572164","name":"Weisendorf, M","type":"Markt"},"district":{"key":"09572","name":"Erlangen-Höchstadt","type":"Landkreis"},"federalState":{"key":"09","name":"Bayern"}},{"name":"Lindenweg","postalCode":"67256","locality":"Weisenheim am Sand","municipality":{"key":"07332050","name":"Weisenheim am Sand","type":"Kreisangehörige_Gemeinde"},"district":{"key":"07332","name":"Bad Dürkheim","type":"Landkreis"},"federalState":{"key":"07","name":"Rheinland-Pfalz"}},{"name":"Ludwig-Seibel-Str.","postalCode":"67273","locality":"Weisenheim am Berg","municipality":{"key":"07332049","name":"Weisenheim am Berg","type":"Kreisangehörige_Gemeinde"},"district":{"key":"07332","name":"Bad Dürkheim","type":"Landkreis"},"federalState":{"key":"07","name":"Rheinland-Pfalz"}},{"name":"Ludwigshain","postalCode":"67256","locality":"Weisenheim am Sand","municipality":{"key":"07332050","name":"Weisenheim am Sand","type":"Kreisangehörige_Gemeinde"},"district":{"key":"07332","name":"Bad Dürkheim","type":"Landkreis"},"federalState":{"key":"07","name":"Rheinland-Pfalz"}},{"name":"Luisenstr.","postalCode":"67256","locality":"Weisenheim am Sand","municipality":{"key":"07332050","name":"Weisenheim am Sand","type":"Kreisangehörige_Gemeinde"},"district":{"key":"07332","name":"Bad Dürkheim","type":"Landkreis"},"federalState":{"key":"07","name":"Rheinland-Pfalz"}},{"name":"Marienbader Str.","postalCode":"91085","locality":"Weisendorf","municipality":{"key":"09572164","name":"Weisendorf, M","type":"Markt"},"district":{"key":"09572","name":"Erlangen-Höchstadt","type":"Landkreis"},"federalState":{"key":"09","name":"Bayern"}},{"name":"Mechelwinder Weg","postalCode":"91085","locality":"Weisendorf","municipality":{"key":"09572164","name":"Weisendorf, M","type":"Markt"},"district":{"key":"09572","name":"Erlangen-Höchstadt","type":"Landkreis"},"federalState":{"key":"09","name":"Bayern"}},{"name":"Meisenweg","postalCode":"91085","locality":"Weisendorf","municipality":{"key":"09572164","name":"Weisendorf, M","type":"Markt"},"district":{"key":"09572","name":"Erlangen-Höchstadt","type":"Landkreis"},"federalState":{"key":"09","name":"Bayern"}},{"name":"Meisterweg","postalCode":"91085","locality":"Weisendorf","municipality":{"key":"09572164","name":"Weisendorf, M","type":"Markt"},"district":{"key":"09572","name":"Erlangen-Höchstadt","type":"Landkreis"},"federalState":{"key":"09","name":"Bayern"}},{"name":"Mitteldorfer Weg","postalCode":"91085","locality":"Weisendorf","municipality":{"key":"09572164","name":"Weisendorf, M","type":"Markt"},"district":{"key":"09572","name":"Erlangen-Höchstadt","type":"Landkreis"},"federalState":{"key":"09","name":"Bayern"}},{"name":"Mittelstr.","postalCode":"67256","locality":"Weisenheim am Sand","municipality":{"key":"07332050","name":"Weisenheim am Sand","type":"Kreisangehörige_Gemeinde"},"district":{"key":"07332","name":"Bad Dürkheim","type":"Landkreis"},"federalState":{"key":"07","name":"Rheinland-Pfalz"}},{"name":"Mönchweg","postalCode":"91085","locality":"Weisendorf","municipality":{"key":"09572164","name":"Weisendorf, M","type":"Markt"},"district":{"key":"09572","name":"Erlangen-Höchstadt","type":"Landkreis"},"federalState":{"key":"09","name":"Bayern"}},{"name":"Mozartstr.","postalCode":"67256","locality":"Weisenheim am Sand","municipality":{"key":"07332050","name":"Weisenheim am Sand","type":"Kreisangehörige_Gemeinde"},"district":{"key":"07332","name":"Bad Dürkheim","type":"Landkreis"},"federalState":{"key":"07","name":"Rheinland-Pfalz"}},{"name":"Mühlenweg","postalCode":"91085","locality":"Weisendorf","municipality":{"key":"09572164","name":"Weisendorf, M","type":"Markt"},"district":{"key":"09572","name":"Erlangen-Höchstadt","type":"Landkreis"},"federalState":{"key":"09","name":"Bayern"}},{"name":"Murgtalstr.","postalCode":"76599","locality":"Weisenbach","municipality":{"key":"08216059","name":"Weisenbach","type":"Kreisangehörige_Gemeinde"},"district":{"key":"08216","name":"Rastatt","type":"Landkreis"},"federalState":{"key":"08","name":"Baden-Württemberg"}},{"name":"Nankendorfer Str.","postalCode":"91085","locality":"Weisendorf","municipality":{"key":"09572164","name":"Weisendorf, M","type":"Markt"},"district":{"key":"09572","name":"Erlangen-Höchstadt","type":"Landkreis"},"federalState":{"key":"09","name":"Bayern"}},{"name":"Neue Bergstr.","postalCode":"91085","locality":"Weisendorf","municipality":{"key":"09572164","name":"Weisendorf, M","type":"Markt"},"district":{"key":"09572","name":"Erlangen-Höchstadt","type":"Landkreis"},"federalState":{"key":"09","name":"Bayern"}},{"name":"Neuenbürger Str.","postalCode":"91085","locality":"Weisendorf","municipality":{"key":"09572164","name":"Weisendorf, M","type":"Markt"},"district":{"key":"09572","name":"Erlangen-Höchstadt","type":"Landkreis"},"federalState":{"key":"09","name":"Bayern"}},{"name":"Neuer Hof","postalCode":"19322","locality":"Weisen","municipality":{"key":"12070416","name":"Weisen","type":"Kreisangehörige_Gemeinde"},"district":{"key":"12070","name":"Prignitz","type":"Landkreis"},"federalState":{"key":"12","name":"Brandenburg"}},{"name":"Neumayerstr.","postalCode":"67273","locality":"Weisenheim am Berg","municipality":{"key":"07332049","name":"Weisenheim am Berg","type":"Kreisangehörige_Gemeinde"},"district":{"key":"07332","name":"Bad Dürkheim","type":"Landkreis"},"federalState":{"key":"07","name":"Rheinland-Pfalz"}},{"name":"Neustadter Str.","postalCode":"91085","locality":"Weisendorf","municipality":{"key":"09572164","name":"Weisendorf, M","type":"Markt"},"district":{"key":"09572","name":"Erlangen-Höchstadt","type":"Landkreis"},"federalState":{"key":"09","name":"Bayern"}},{"name":"Neuweg","postalCode":"67273","locality":"Weisenheim am Berg","municipality":{"key":"07332049","name":"Weisenheim am Berg","type":"Kreisangehörige_Gemeinde"},"district":{"key":"07332","name":"Bad Dürkheim","type":"Landkreis"},"federalState":{"key":"07","name":"Rheinland-Pfalz"}},{"name":"Niederdorla-Ring","postalCode":"67273","locality":"Weisenheim am Berg","municipality":{"key":"07332049","name":"Weisenheim am Berg","type":"Kreisangehörige_Gemeinde"},"district":{"key":"07332","name":"Bad Dürkheim","type":"Landkreis"},"federalState":{"key":"07","name":"Rheinland-Pfalz"}},{"name":"Nikolaus-Henrich-Str.","postalCode":"67256","locality":"Weisenheim am Sand","municipality":{"key":"07332050","name":"Weisenheim am Sand","type":"Kreisangehörige_Gemeinde"},"district":{"key":"07332","name":"Bad Dürkheim","type":"Landkreis"},"federalState":{"key":"07","name":"Rheinland-Pfalz"}},{"name":"Obere Gasse","postalCode":"91085","locality":"Weisendorf","municipality":{"key":"09572164","name":"Weisendorf, M","type":"Markt"},"district":{"key":"09572","name":"Erlangen-Höchstadt","type":"Landkreis"},"federalState":{"key":"09","name":"Bayern"}},{"name":"Oberlindacher Str.","postalCode":"91085","locality":"Weisendorf","municipality":{"key":"09572164","name":"Weisendorf, M","type":"Markt"},"district":{"key":"09572","name":"Erlangen-Höchstadt","type":"Landkreis"},"federalState":{"key":"09","name":"Bayern"}},{"name":"Ostring","postalCode":"67256","locality":"Weisenheim am Sand","municipality":{"key":"07332050","name":"Weisenheim am Sand","type":"Kreisangehörige_Gemeinde"},"district":{"key":"07332","name":"Bad Dürkheim","type":"Landkreis"},"federalState":{"key":"07","name":"Rheinland-Pfalz"}},{"name":"Parkweg","postalCode":"67256","locality":"Weisenheim am Sand","municipality":{"key":"07332050","name":"Weisenheim am Sand","type":"Kreisangehörige_Gemeinde"},"district":{"key":"07332","name":"Bad Dürkheim","type":"Landkreis"},"federalState":{"key":"07","name":"Rheinland-Pfalz"}},{"name":"Perleberger Str.","postalCode":"19322","locality":"Weisen","municipality":{"key":"12070416","name":"Weisen","type":"Kreisangehörige_Gemeinde"},"district":{"key":"12070","name":"Prignitz","type":"Landkreis"},"federalState":{"key":"12","name":"Brandenburg"}},{"name":"Peterskopfstr.","postalCode":"67256","locality":"Weisenheim am Sand","municipality":{"key":"07332050","name":"Weisenheim am Sand","type":"Kreisangehörige_Gemeinde"},"district":{"key":"07332","name":"Bad Dürkheim","type":"Landkreis"},"federalState":{"key":"07","name":"Rheinland-Pfalz"}},{"name":"Pfarrgasse","postalCode":"67256","locality":"Weisenheim am Sand","municipality":{"key":"07332050","name":"Weisenheim am Sand","type":"Kreisangehörige_Gemeinde"},"district":{"key":"07332","name":"Bad Dürkheim","type":"Landkreis"},"federalState":{"key":"07","name":"Rheinland-Pfalz"}},{"name":"Pfläster","postalCode":"76599","locality":"Weisenbach","municipality":{"key":"08216059","name":"Weisenbach","type":"Kreisangehörige_Gemeinde"},"district":{"key":"08216","name":"Rastatt","type":"Landkreis"},"federalState":{"key":"08","name":"Baden-Württemberg"}},{"name":"Platz der Siedler","postalCode":"19322","locality":"Weisen","municipality":{"key":"12070416","name":"Weisen","type":"Kreisangehörige_Gemeinde"},"district":{"key":"12070","name":"Prignitz","type":"Landkreis"},"federalState":{"key":"12","name":"Brandenburg"}},{"name":"Plauser Str.","postalCode":"67273","locality":"Weisenheim am Berg","municipality":{"key":"07332049","name":"Weisenheim am Berg","type":"Kreisangehörige_Gemeinde"},"district":{"key":"07332","name":"Bad Dürkheim","type":"Landkreis"},"federalState":{"key":"07","name":"Rheinland-Pfalz"}},{"name":"Poststr.","postalCode":"91085","locality":"Weisendorf","municipality":{"key":"09572164","name":"Weisendorf, M","type":"Markt"},"district":{"key":"09572","name":"Erlangen-Höchstadt","type":"Landkreis"},"federalState":{"key":"09","name":"Bayern"}},{"name":"Professor-Krieg-Str.","postalCode":"76599","locality":"Weisenbach","municipality":{"key":"08216059","name":"Weisenbach","type":"Kreisangehörige_Gemeinde"},"district":{"key":"08216","name":"Rastatt","type":"Landkreis"},"federalState":{"key":"08","name":"Baden-Württemberg"}},{"name":"Raiffeisenstr.","postalCode":"67256","locality":"Weisenheim am Sand","municipality":{"key":"07332050","name":"Weisenheim am Sand","type":"Kreisangehörige_Gemeinde"},"district":{"key":"07332","name":"Bad Dürkheim","type":"Landkreis"},"federalState":{"key":"07","name":"Rheinland-Pfalz"}},{"name":"Raiffeisenstr.","postalCode":"67273","locality":"Weisenheim am Berg","municipality":{"key":"07332049","name":"Weisenheim am Berg","type":"Kreisangehörige_Gemeinde"},"district":{"key":"07332","name":"Bad Dürkheim","type":"Landkreis"},"federalState":{"key":"07","name":"Rheinland-Pfalz"}},{"name":"Rappenackerstr.","postalCode":"76599","locality":"Weisenbach","municipality":{"key":"08216059","name":"Weisenbach","type":"Kreisangehörige_Gemeinde"},"district":{"key":"08216","name":"Rastatt","type":"Landkreis"},"federalState":{"key":"08","name":"Baden-Württemberg"}},{"name":"Rathausstr.","postalCode":"76599","locality":"Weisenbach","municipality":{"key":"08216059","name":"Weisenbach","type":"Kreisangehörige_Gemeinde"},"district":{"key":"08216","name":"Rastatt","type":"Landkreis"},"federalState":{"key":"08","name":"Baden-Württemberg"}},{"name":"Reichenbacher Str.","postalCode":"91085","locality":"Weisendorf","municipality":{"key":"09572164","name":"Weisendorf, M","type":"Markt"},"district":{"key":"09572","name":"Erlangen-Höchstadt","type":"Landkreis"},"federalState":{"key":"09","name":"Bayern"}},{"name":"Reinersdorfer Str.","postalCode":"91085","locality":"Weisendorf","municipality":{"key":"09572164","name":"Weisendorf, M","type":"Markt"},"district":{"key":"09572","name":"Erlangen-Höchstadt","type":"Landkreis"},"federalState":{"key":"09","name":"Bayern"}},{"name":"Reinigsgässle","postalCode":"76599","locality":"Weisenbach","municipality":{"key":"08216059","name":"Weisenbach","type":"Kreisangehörige_Gemeinde"},"district":{"key":"08216","name":"Rastatt","type":"Landkreis"},"federalState":{"key":"08","name":"Baden-Württemberg"}},{"name":"Reuther Waldstr.","postalCode":"91085","locality":"Weisendorf","municipality":{"key":"09572164","name":"Weisendorf, M","type":"Markt"},"district":{"key":"09572","name":"Erlangen-Höchstadt","type":"Landkreis"},"federalState":{"key":"09","name":"Bayern"}},{"name":"Reuther Weg","postalCode":"91085","locality":"Weisendorf","municipality":{"key":"09572164","name":"Weisendorf, M","type":"Markt"},"district":{"key":"09572","name":"Erlangen-Höchstadt","type":"Landkreis"},"federalState":{"key":"09","name":"Bayern"}},{"name":"Rezelsdorfer Str.","postalCode":"91085","locality":"Weisendorf","municipality":{"key":"09572164","name":"Weisendorf, M","type":"Markt"},"district":{"key":"09572","name":"Erlangen-Höchstadt","type":"Landkreis"},"federalState":{"key":"09","name":"Bayern"}},{"name":"Rheinstr.","postalCode":"67256","locality":"Weisenheim am Sand","municipality":{"key":"07332050","name":"Weisenheim am Sand","type":"Kreisangehörige_Gemeinde"},"district":{"key":"07332","name":"Bad Dürkheim","type":"Landkreis"},"federalState":{"key":"07","name":"Rheinland-Pfalz"}},{"name":"Riedstr.","postalCode":"76599","locality":"Weisenbach","municipality":{"key":"08216059","name":"Weisenbach","type":"Kreisangehörige_Gemeinde"},"district":{"key":"08216","name":"Rastatt","type":"Landkreis"},"federalState":{"key":"08","name":"Baden-Württemberg"}},{"name":"Riedweg","postalCode":"67256","locality":"Weisenheim am Sand","municipality":{"key":"07332050","name":"Weisenheim am Sand","type":"Kreisangehörige_Gemeinde"},"district":{"key":"07332","name":"Bad Dürkheim","type":"Landkreis"},"federalState":{"key":"07","name":"Rheinland-Pfalz"}},{"name":"Ringstr.","postalCode":"91085","locality":"Weisendorf","municipality":{"key":"09572164","name":"Weisendorf, M","type":"Markt"},"district":{"key":"09572","name":"Erlangen-Höchstadt","type":"Landkreis"},"federalState":{"key":"09","name":"Bayern"}},{"name":"Ritter-von-Geißler-Str.","postalCode":"67256","locality":"Weisenheim am Sand","municipality":{"key":"07332050","name":"Weisenheim am Sand","type":"Kreisangehörige_Gemeinde"},"district":{"key":"07332","name":"Bad Dürkheim","type":"Landkreis"},"federalState":{"key":"07","name":"Rheinland-Pfalz"}},{"name":"Rohrwiesenweg","postalCode":"91085","locality":"Weisendorf","municipality":{"key":"09572164","name":"Weisendorf, M","type":"Markt"},"district":{"key":"09572","name":"Erlangen-Höchstadt","type":"Landkreis"},"federalState":{"key":"09","name":"Bayern"}},{"name":"Rosenstr.","postalCode":"76599","locality":"Weisenbach","municipality":{"key":"08216059","name":"Weisenbach","type":"Kreisangehörige_Gemeinde"},"district":{"key":"08216","name":"Rastatt","type":"Landkreis"},"federalState":{"key":"08","name":"Baden-Württemberg"}},{"name":"Sackweg","postalCode":"76599","locality":"Weisenbach","municipality":{"key":"08216059","name":"Weisenbach","type":"Kreisangehörige_Gemeinde"},"district":{"key":"08216","name":"Rastatt","type":"Landkreis"},"federalState":{"key":"08","name":"Baden-Württemberg"}},{"name":"Saint-Gengoux-Str.","postalCode":"67273","locality":"Weisenheim am Berg","municipality":{"key":"07332049","name":"Weisenheim am Berg","type":"Kreisangehörige_Gemeinde"},"district":{"key":"07332","name":"Bad Dürkheim","type":"Landkreis"},"federalState":{"key":"07","name":"Rheinland-Pfalz"}},{"name":"Sandstr.","postalCode":"91085","locality":"Weisendorf","municipality":{"key":"09572164","name":"Weisendorf, M","type":"Markt"},"district":{"key":"09572","name":"Erlangen-Höchstadt","type":"Landkreis"},"federalState":{"key":"09","name":"Bayern"}},{"name":"Sauerheimer Weg","postalCode":"91085","locality":"Weisendorf","municipality":{"key":"09572164","name":"Weisendorf, M","type":"Markt"},"district":{"key":"09572","name":"Erlangen-Höchstadt","type":"Landkreis"},"federalState":{"key":"09","name":"Bayern"}},{"name":"Schäfersteg","postalCode":"67256","locality":"Weisenheim am Sand","municipality":{"key":"07332050","name":"Weisenheim am Sand","type":"Kreisangehörige_Gemeinde"},"district":{"key":"07332","name":"Bad Dürkheim","type":"Landkreis"},"federalState":{"key":"07","name":"Rheinland-Pfalz"}},{"name":"Schafweideweg","postalCode":"67256","locality":"Weisenheim am Sand","municipality":{"key":"07332050","name":"Weisenheim am Sand","type":"Kreisangehörige_Gemeinde"},"district":{"key":"07332","name":"Bad Dürkheim","type":"Landkreis"},"federalState":{"key":"07","name":"Rheinland-Pfalz"}},{"name":"Schiffergasse","postalCode":"67256","locality":"Weisenheim am Sand","municipality":{"key":"07332050","name":"Weisenheim am Sand","type":"Kreisangehörige_Gemeinde"},"district":{"key":"07332","name":"Bad Dürkheim","type":"Landkreis"},"federalState":{"key":"07","name":"Rheinland-Pfalz"}},{"name":"Schilder Dorfstr.","postalCode":"19322","locality":"Weisen","municipality":{"key":"12070416","name":"Weisen","type":"Kreisangehörige_Gemeinde"},"district":{"key":"12070","name":"Prignitz","type":"Landkreis"},"federalState":{"key":"12","name":"Brandenburg"}},{"name":"Schilder Str.","postalCode":"19322","locality":"Weisen","municipality":{"key":"12070416","name":"Weisen","type":"Kreisangehörige_Gemeinde"},"district":{"key":"12070","name":"Prignitz","type":"Landkreis"},"federalState":{"key":"12","name":"Brandenburg"}},{"name":"Schillerstr.","postalCode":"67256","locality":"Weisenheim am Sand","municipality":{"key":"07332050","name":"Weisenheim am Sand","type":"Kreisangehörige_Gemeinde"},"district":{"key":"07332","name":"Bad Dürkheim","type":"Landkreis"},"federalState":{"key":"07","name":"Rheinland-Pfalz"}},{"name":"Schillerstr.","postalCode":"91085","locality":"Weisendorf","municipality":{"key":"09572164","name":"Weisendorf, M","type":"Markt"},"district":{"key":"09572","name":"Erlangen-Höchstadt","type":"Landkreis"},"federalState":{"key":"09","name":"Bayern"}},{"name":"Schlagweg","postalCode":"67256","locality":"Weisenheim am Sand","municipality":{"key":"07332050","name":"Weisenheim am Sand","type":"Kreisangehörige_Gemeinde"},"district":{"key":"07332","name":"Bad Dürkheim","type":"Landkreis"},"federalState":{"key":"07","name":"Rheinland-Pfalz"}},{"name":"Schlechtaubergweg","postalCode":"76599","locality":"Weisenbach","municipality":{"key":"08216059","name":"Weisenbach","type":"Kreisangehörige_Gemeinde"},"district":{"key":"08216","name":"Rastatt","type":"Landkreis"},"federalState":{"key":"08","name":"Baden-Württemberg"}},{"name":"Schlegelsbergstr.","postalCode":"91085","locality":"Weisendorf","municipality":{"key":"09572164","name":"Weisendorf, M","type":"Markt"},"district":{"key":"09572","name":"Erlangen-Höchstadt","type":"Landkreis"},"federalState":{"key":"09","name":"Bayern"}},{"name":"Schlehenweg","postalCode":"91085","locality":"Weisendorf","municipality":{"key":"09572164","name":"Weisendorf, M","type":"Markt"},"district":{"key":"09572","name":"Erlangen-Höchstadt","type":"Landkreis"},"federalState":{"key":"09","name":"Bayern"}},{"name":"Schleifweg","postalCode":"91085","locality":"Weisendorf","municipality":{"key":"09572164","name":"Weisendorf, M","type":"Markt"},"district":{"key":"09572","name":"Erlangen-Höchstadt","type":"Landkreis"},"federalState":{"key":"09","name":"Bayern"}},{"name":"Schlesierstr.","postalCode":"91085","locality":"Weisendorf","municipality":{"key":"09572164","name":"Weisendorf, M","type":"Markt"},"district":{"key":"09572","name":"Erlangen-Höchstadt","type":"Landkreis"},"federalState":{"key":"09","name":"Bayern"}},{"name":"Schloßgartenstr.","postalCode":"91085","locality":"Weisendorf","municipality":{"key":"09572164","name":"Weisendorf, M","type":"Markt"},"district":{"key":"09572","name":"Erlangen-Höchstadt","type":"Landkreis"},"federalState":{"key":"09","name":"Bayern"}},{"name":"Schloßgasse","postalCode":"67256","locality":"Weisenheim am Sand","municipality":{"key":"07332050","name":"Weisenheim am Sand","type":"Kreisangehörige_Gemeinde"},"district":{"key":"07332","name":"Bad Dürkheim","type":"Landkreis"},"federalState":{"key":"07","name":"Rheinland-Pfalz"}},{"name":"Schmiedelberger Str.","postalCode":"91085","locality":"Weisendorf","municipality":{"key":"09572164","name":"Weisendorf, M","type":"Markt"},"district":{"key":"09572","name":"Erlangen-Höchstadt","type":"Landkreis"},"federalState":{"key":"09","name":"Bayern"}},{"name":"Schulgasse","postalCode":"91085","locality":"Weisendorf","municipality":{"key":"09572164","name":"Weisendorf, M","type":"Markt"},"district":{"key":"09572","name":"Erlangen-Höchstadt","type":"Landkreis"},"federalState":{"key":"09","name":"Bayern"}},{"name":"Schulstr.","postalCode":"67256","locality":"Weisenheim am Sand","municipality":{"key":"07332050","name":"Weisenheim am Sand","type":"Kreisangehörige_Gemeinde"},"district":{"key":"07332","name":"Bad Dürkheim","type":"Landkreis"},"federalState":{"key":"07","name":"Rheinland-Pfalz"}},{"name":"Schulstr.","postalCode":"76599","locality":"Weisenbach","municipality":{"key":"08216059","name":"Weisenbach","type":"Kreisangehörige_Gemeinde"},"district":{"key":"08216","name":"Rastatt","type":"Landkreis"},"federalState":{"key":"08","name":"Baden-Württemberg"}},{"name":"Schützenstr.","postalCode":"76599","locality":"Weisenbach","municipality":{"key":"08216059","name":"Weisenbach","type":"Kreisangehörige_Gemeinde"},"district":{"key":"08216","name":"Rastatt","type":"Landkreis"},"federalState":{"key":"08","name":"Baden-Württemberg"}},{"name":"Sebald-Rieter-Weg","postalCode":"91085","locality":"Weisendorf","municipality":{"key":"09572164","name":"Weisendorf, M","type":"Markt"},"district":{"key":"09572","name":"Erlangen-Höchstadt","type":"Landkreis"},"federalState":{"key":"09","name":"Bayern"}},{"name":"Sechs-Morgen-Str.","postalCode":"91085","locality":"Weisendorf","municipality":{"key":"09572164","name":"Weisendorf, M","type":"Markt"},"district":{"key":"09572","name":"Erlangen-Höchstadt","type":"Landkreis"},"federalState":{"key":"09","name":"Bayern"}},{"name":"Seligmannsgasse","postalCode":"67256","locality":"Weisenheim am Sand","municipality":{"key":"07332050","name":"Weisenheim am Sand","type":"Kreisangehörige_Gemeinde"},"district":{"key":"07332","name":"Bad Dürkheim","type":"Landkreis"},"federalState":{"key":"07","name":"Rheinland-Pfalz"}},{"name":"Siedlerstr.","postalCode":"91085","locality":"Weisendorf","municipality":{"key":"09572164","name":"Weisendorf, M","type":"Markt"},"district":{"key":"09572","name":"Erlangen-Höchstadt","type":"Landkreis"},"federalState":{"key":"09","name":"Bayern"}},{"name":"Sintmanner Str.","postalCode":"91085","locality":"Weisendorf","municipality":{"key":"09572164","name":"Weisendorf, M","type":"Markt"},"district":{"key":"09572","name":"Erlangen-Höchstadt","type":"Landkreis"},"federalState":{"key":"09","name":"Bayern"}},{"name":"Sommerbachweg","postalCode":"67273","locality":"Weisenheim am Berg","municipality":{"key":"07332049","name":"Weisenheim am Berg","type":"Kreisangehörige_Gemeinde"},"district":{"key":"07332","name":"Bad Dürkheim","type":"Landkreis"},"federalState":{"key":"07","name":"Rheinland-Pfalz"}},{"name":"Sonnenstr.","postalCode":"76599","locality":"Weisenbach","municipality":{"key":"08216059","name":"Weisenbach","type":"Kreisangehörige_Gemeinde"},"district":{"key":"08216","name":"Rastatt","type":"Landkreis"},"federalState":{"key":"08","name":"Baden-Württemberg"}},{"name":"Speyerer Str.","postalCode":"67256","locality":"Weisenheim am Sand","municipality":{"key":"07332050","name":"Weisenheim am Sand","type":"Kreisangehörige_Gemeinde"},"district":{"key":"07332","name":"Bad Dürkheim","type":"Landkreis"},"federalState":{"key":"07","name":"Rheinland-Pfalz"}},{"name":"Stadtrandsiedlung","postalCode":"19322","locality":"Weisen","municipality":{"key":"12070416","name":"Weisen","type":"Kreisangehörige_Gemeinde"},"district":{"key":"12070","name":"Prignitz","type":"Landkreis"},"federalState":{"key":"12","name":"Brandenburg"}},{"name":"Steinäckerweg","postalCode":"76599","locality":"Weisenbach","municipality":{"key":"08216059","name":"Weisenbach","type":"Kreisangehörige_Gemeinde"},"district":{"key":"08216","name":"Rastatt","type":"Landkreis"},"federalState":{"key":"08","name":"Baden-Württemberg"}},{"name":"Steinedeckstr.","postalCode":"76599","locality":"Weisenbach","municipality":{"key":"08216059","name":"Weisenbach","type":"Kreisangehörige_Gemeinde"},"district":{"key":"08216","name":"Rastatt","type":"Landkreis"},"federalState":{"key":"08","name":"Baden-Württemberg"}},{"name":"Streitäckerweg","postalCode":"91085","locality":"Weisendorf","municipality":{"key":"09572164","name":"Weisendorf, M","type":"Markt"},"district":{"key":"09572","name":"Erlangen-Höchstadt","type":"Landkreis"},"federalState":{"key":"09","name":"Bayern"}},{"name":"Strietweg","postalCode":"76599","locality":"Weisenbach","municipality":{"key":"08216059","name":"Weisenbach","type":"Kreisangehörige_Gemeinde"},"district":{"key":"08216","name":"Rastatt","type":"Landkreis"},"federalState":{"key":"08","name":"Baden-Württemberg"}},{"name":"Sudetenstr.","postalCode":"91085","locality":"Weisendorf","municipality":{"key":"09572164","name":"Weisendorf, M","type":"Markt"},"district":{"key":"09572","name":"Erlangen-Höchstadt","type":"Landkreis"},"federalState":{"key":"09","name":"Bayern"}},{"name":"Südtiroler Ring","postalCode":"67273","locality":"Weisenheim am Berg","municipality":{"key":"07332049","name":"Weisenheim am Berg","type":"Kreisangehörige_Gemeinde"},"district":{"key":"07332","name":"Bad Dürkheim","type":"Landkreis"},"federalState":{"key":"07","name":"Rheinland-Pfalz"}},{"name":"Sükower Weg","postalCode":"19322","locality":"Weisen","municipality":{"key":"12070416","name":"Weisen","type":"Kreisangehörige_Gemeinde"},"district":{"key":"12070","name":"Prignitz","type":"Landkreis"},"federalState":{"key":"12","name":"Brandenburg"}},{"name":"Theodor-Heuss-Str.","postalCode":"67256","locality":"Weisenheim am Sand","municipality":{"key":"07332050","name":"Weisenheim am Sand","type":"Kreisangehörige_Gemeinde"},"district":{"key":"07332","name":"Bad Dürkheim","type":"Landkreis"},"federalState":{"key":"07","name":"Rheinland-Pfalz"}},{"name":"Torweg","postalCode":"76599","locality":"Weisenbach","municipality":{"key":"08216059","name":"Weisenbach","type":"Kreisangehörige_Gemeinde"},"district":{"key":"08216","name":"Rastatt","type":"Landkreis"},"federalState":{"key":"08","name":"Baden-Württemberg"}},{"name":"Uehlfelder Weg","postalCode":"91085","locality":"Weisendorf","municipality":{"key":"09572164","name":"Weisendorf, M","type":"Markt"},"district":{"key":"09572","name":"Erlangen-Höchstadt","type":"Landkreis"},"federalState":{"key":"09","name":"Bayern"}},{"name":"Ulmenweg","postalCode":"67256","locality":"Weisenheim am Sand","municipality":{"key":"07332050","name":"Weisenheim am Sand","type":"Kreisangehörige_Gemeinde"},"district":{"key":"07332","name":"Bad Dürkheim","type":"Landkreis"},"federalState":{"key":"07","name":"Rheinland-Pfalz"}},{"name":"Vorstadtstr.","postalCode":"91085","locality":"Weisendorf","municipality":{"key":"09572164","name":"Weisendorf, M","type":"Markt"},"district":{"key":"09572","name":"Erlangen-Höchstadt","type":"Landkreis"},"federalState":{"key":"09","name":"Bayern"}},{"name":"Waldhaus","postalCode":"19322","locality":"Weisen","municipality":{"key":"12070416","name":"Weisen","type":"Kreisangehörige_Gemeinde"},"district":{"key":"12070","name":"Prignitz","type":"Landkreis"},"federalState":{"key":"12","name":"Brandenburg"}},{"name":"Waldstr.","postalCode":"67273","locality":"Weisenheim am Berg","municipality":{"key":"07332049","name":"Weisenheim am Berg","type":"Kreisangehörige_Gemeinde"},"district":{"key":"07332","name":"Bad Dürkheim","type":"Landkreis"},"federalState":{"key":"07","name":"Rheinland-Pfalz"}},{"name":"Waldstr.","postalCode":"76599","locality":"Weisenbach","municipality":{"key":"08216059","name":"Weisenbach","type":"Kreisangehörige_Gemeinde"},"district":{"key":"08216","name":"Rastatt","type":"Landkreis"},"federalState":{"key":"08","name":"Baden-Württemberg"}},{"name":"Wandweg","postalCode":"76599","locality":"Weisenbach","municipality":{"key":"08216059","name":"Weisenbach","type":"Kreisangehörige_Gemeinde"},"district":{"key":"08216","name":"Rastatt","type":"Landkreis"},"federalState":{"key":"08","name":"Baden-Württemberg"}},{"name":"Waschgasse","postalCode":"67256","locality":"Weisenheim am Sand","municipality":{"key":"07332050","name":"Weisenheim am Sand","type":"Kreisangehörige_Gemeinde"},"district":{"key":"07332","name":"Bad Dürkheim","type":"Landkreis"},"federalState":{"key":"07","name":"Rheinland-Pfalz"}},{"name":"Weinbergstr.","postalCode":"76599","locality":"Weisenbach","municipality":{"key":"08216059","name":"Weisenbach","type":"Kreisangehörige_Gemeinde"},"district":{"key":"08216","name":"Rastatt","type":"Landkreis"},"federalState":{"key":"08","name":"Baden-Württemberg"}},{"name":"Weinbietstr.","postalCode":"67256","locality":"Weisenheim am Sand","municipality":{"key":"07332050","name":"Weisenheim am Sand","type":"Kreisangehörige_Gemeinde"},"district":{"key":"07332","name":"Bad Dürkheim","type":"Landkreis"},"federalState":{"key":"07","name":"Rheinland-Pfalz"}},{"name":"Weinleite","postalCode":"91085","locality":"Weisendorf","municipality":{"key":"09572164","name":"Weisendorf, M","type":"Markt"},"district":{"key":"09572","name":"Erlangen-Höchstadt","type":"Landkreis"},"federalState":{"key":"09","name":"Bayern"}},{"name":"Weisenheimer Str.","postalCode":"67256","locality":"Weisenheim am Sand","municipality":{"key":"07332050","name":"Weisenheim am Sand","type":"Kreisangehörige_Gemeinde"},"district":{"key":"07332","name":"Bad Dürkheim","type":"Landkreis"},"federalState":{"key":"07","name":"Rheinland-Pfalz"}},{"name":"Wendelinus Brücke","postalCode":"76599","locality":"Weisenbach","municipality":{"key":"08216059","name":"Weisenbach","type":"Kreisangehörige_Gemeinde"},"district":{"key":"08216","name":"Rastatt","type":"Landkreis"},"federalState":{"key":"08","name":"Baden-Württemberg"}},{"name":"Westring","postalCode":"67256","locality":"Weisenheim am Sand","municipality":{"key":"07332050","name":"Weisenheim am Sand","type":"Kreisangehörige_Gemeinde"},"district":{"key":"07332","name":"Bad Dürkheim","type":"Landkreis"},"federalState":{"key":"07","name":"Rheinland-Pfalz"}},{"name":"Wiesenstr.","postalCode":"67256","locality":"Weisenheim am Sand","municipality":{"key":"07332050","name":"Weisenheim am Sand","type":"Kreisangehörige_Gemeinde"},"district":{"key":"07332","name":"Bad Dürkheim","type":"Landkreis"},"federalState":{"key":"07","name":"Rheinland-Pfalz"}},{"name":"Wiesenweg","postalCode":"91085","locality":"Weisendorf","municipality":{"key":"09572164","name":"Weisendorf, M","type":"Markt"},"district":{"key":"09572","name":"Erlangen-Höchstadt","type":"Landkreis"},"federalState":{"key":"09","name":"Bayern"}},{"name":"Wilhelm-Busch-Str.","postalCode":"67256","locality":"Weisenheim am Sand","municipality":{"key":"07332050","name":"Weisenheim am Sand","type":"Kreisangehörige_Gemeinde"},"district":{"key":"07332","name":"Bad Dürkheim","type":"Landkreis"},"federalState":{"key":"07","name":"Rheinland-Pfalz"}},{"name":"Wormser Str.","postalCode":"67256","locality":"Weisenheim am Sand","municipality":{"key":"07332050","name":"Weisenheim am Sand","type":"Kreisangehörige_Gemeinde"},"district":{"key":"07332","name":"Bad Dürkheim","type":"Landkreis"},"federalState":{"key":"07","name":"Rheinland-Pfalz"}},{"name":"Ziegelhütte","postalCode":"67256","locality":"Weisenheim am Sand","municipality":{"key":"07332050","name":"Weisenheim am Sand","type":"Kreisangehörige_Gemeinde"},"district":{"key":"07332","name":"Bad Dürkheim","type":"Landkreis"},"federalState":{"key":"07","name":"Rheinland-Pfalz"}},{"name":"Ziegelhüttenweg","postalCode":"91085","locality":"Weisendorf","municipality":{"key":"09572164","name":"Weisendorf, M","type":"Markt"},"district":{"key":"09572","name":"Erlangen-Höchstadt","type":"Landkreis"},"federalState":{"key":"09","name":"Bayern"}},{"name":"Zirkelwiesenweg","postalCode":"91085","locality":"Weisendorf","municipality":{"key":"09572164","name":"Weisendorf, M","type":"Markt"},"district":{"key":"09572","name":"Erlangen-Höchstadt","type":"Landkreis"},"federalState":{"key":"09","name":"Bayern"}},{"name":"Zum Brandwald","postalCode":"91085","locality":"Weisendorf","municipality":{"key":"09572164","name":"Weisendorf, M","type":"Markt"},"district":{"key":"09572","name":"Erlangen-Höchstadt","type":"Landkreis"},"federalState":{"key":"09","name":"Bayern"}},{"name":"Zum Dachsknock","postalCode":"91085","locality":"Weisendorf","municipality":{"key":"09572164","name":"Weisendorf, M","type":"Markt"},"district":{"key":"09572","name":"Erlangen-Höchstadt","type":"Landkreis"},"federalState":{"key":"09","name":"Bayern"}},{"name":"Zum Kapf","postalCode":"76599","locality":"Weisenbach","municipality":{"key":"08216059","name":"Weisenbach","type":"Kreisangehörige_Gemeinde"},"district":{"key":"08216","name":"Rastatt","type":"Landkreis"},"federalState":{"key":"08","name":"Baden-Württemberg"}},{"name":"Zum Lerchenhügel","postalCode":"91085","locality":"Weisendorf","municipality":{"key":"09572164","name":"Weisendorf, M","type":"Markt"},"district":{"key":"09572","name":"Erlangen-Höchstadt","type":"Landkreis"},"federalState":{"key":"09","name":"Bayern"}},{"name":"Zum Lindenholz","postalCode":"91085","locality":"Weisendorf","municipality":{"key":"09572164","name":"Weisendorf, M","type":"Markt"},"district":{"key":"09572","name":"Erlangen-Höchstadt","type":"Landkreis"},"federalState":{"key":"09","name":"Bayern"}},{"name":"Zum Schöllkopf","postalCode":"76599","locality":"Weisenbach","municipality":{"key":"08216059","name":"Weisenbach","type":"Kreisangehörige_Gemeinde"},"district":{"key":"08216","name":"Rastatt","type":"Landkreis"},"federalState":{"key":"08","name":"Baden-Württemberg"}},{"name":"Zur Alten Burg","postalCode":"91085","locality":"Weisendorf","municipality":{"key":"09572164","name":"Weisendorf, M","type":"Markt"},"district":{"key":"09572","name":"Erlangen-Höchstadt","type":"Landkreis"},"federalState":{"key":"09","name":"Bayern"}},{"name":"Zur Hohen Wart","postalCode":"91085","locality":"Weisendorf","municipality":{"key":"09572164","name":"Weisendorf, M","type":"Markt"},"district":{"key":"09572","name":"Erlangen-Höchstadt","type":"Landkreis"},"federalState":{"key":"09","name":"Bayern"}},]