[{"name":"Ahornweg","postalCode":"23898","locality":"Sandesneben","municipality":{"key":"01053108","name":"Sandesneben","type":"Kreisangehörige_Gemeinde"},"district":{"key":"01053","name":"Herzogtum Lauenburg","type":"Kreis"},"federalState":{"key":"01","name":"Schleswig-Holstein"}},{"name":"Altes Dorf","postalCode":"23898","locality":"Sandesneben","municipality":{"key":"01053108","name":"Sandesneben","type":"Kreisangehörige_Gemeinde"},"district":{"key":"01053","name":"Herzogtum Lauenburg","type":"Kreis"},"federalState":{"key":"01","name":"Schleswig-Holstein"}},{"name":"Am Amtsgraben","postalCode":"23898","locality":"Sandesneben","municipality":{"key":"01053108","name":"Sandesneben","type":"Kreisangehörige_Gemeinde"},"district":{"key":"01053","name":"Herzogtum Lauenburg","type":"Kreis"},"federalState":{"key":"01","name":"Schleswig-Holstein"}},{"name":"Am Schmiedeberg","postalCode":"23898","locality":"Sandesneben","municipality":{"key":"01053108","name":"Sandesneben","type":"Kreisangehörige_Gemeinde"},"district":{"key":"01053","name":"Herzogtum Lauenburg","type":"Kreis"},"federalState":{"key":"01","name":"Schleswig-Holstein"}},{"name":"Birkenweg","postalCode":"23898","locality":"Sandesneben","municipality":{"key":"01053108","name":"Sandesneben","type":"Kreisangehörige_Gemeinde"},"district":{"key":"01053","name":"Herzogtum Lauenburg","type":"Kreis"},"federalState":{"key":"01","name":"Schleswig-Holstein"}},{"name":"Blumenstr.","postalCode":"23898","locality":"Sandesneben","municipality":{"key":"01053108","name":"Sandesneben","type":"Kreisangehörige_Gemeinde"},"district":{"key":"01053","name":"Herzogtum Lauenburg","type":"Kreis"},"federalState":{"key":"01","name":"Schleswig-Holstein"}},{"name":"Buchenweg","postalCode":"23898","locality":"Sandesneben","municipality":{"key":"01053108","name":"Sandesneben","type":"Kreisangehörige_Gemeinde"},"district":{"key":"01053","name":"Herzogtum Lauenburg","type":"Kreis"},"federalState":{"key":"01","name":"Schleswig-Holstein"}},{"name":"Bullenhorst","postalCode":"23898","locality":"Sandesneben","municipality":{"key":"01053108","name":"Sandesneben","type":"Kreisangehörige_Gemeinde"},"district":{"key":"01053","name":"Herzogtum Lauenburg","type":"Kreis"},"federalState":{"key":"01","name":"Schleswig-Holstein"}},{"name":"Bürgerende","postalCode":"23898","locality":"Sandesneben","municipality":{"key":"01053108","name":"Sandesneben","type":"Kreisangehörige_Gemeinde"},"district":{"key":"01053","name":"Herzogtum Lauenburg","type":"Kreis"},"federalState":{"key":"01","name":"Schleswig-Holstein"}},{"name":"Dorfplatz","postalCode":"23898","locality":"Sandesneben","municipality":{"key":"01053108","name":"Sandesneben","type":"Kreisangehörige_Gemeinde"},"district":{"key":"01053","name":"Herzogtum Lauenburg","type":"Kreis"},"federalState":{"key":"01","name":"Schleswig-Holstein"}},{"name":"Eichenweg","postalCode":"23898","locality":"Sandesneben","municipality":{"key":"01053108","name":"Sandesneben","type":"Kreisangehörige_Gemeinde"},"district":{"key":"01053","name":"Herzogtum Lauenburg","type":"Kreis"},"federalState":{"key":"01","name":"Schleswig-Holstein"}},{"name":"Erlengrund","postalCode":"23898","locality":"Sandesneben","municipality":{"key":"01053108","name":"Sandesneben","type":"Kreisangehörige_Gemeinde"},"district":{"key":"01053","name":"Herzogtum Lauenburg","type":"Kreis"},"federalState":{"key":"01","name":"Schleswig-Holstein"}},{"name":"Eschenweg","postalCode":"23898","locality":"Sandesneben","municipality":{"key":"01053108","name":"Sandesneben","type":"Kreisangehörige_Gemeinde"},"district":{"key":"01053","name":"Herzogtum Lauenburg","type":"Kreis"},"federalState":{"key":"01","name":"Schleswig-Holstein"}},{"name":"Fasanenweg","postalCode":"23898","locality":"Sandesneben","municipality":{"key":"01053108","name":"Sandesneben","type":"Kreisangehörige_Gemeinde"},"district":{"key":"01053","name":"Herzogtum Lauenburg","type":"Kreis"},"federalState":{"key":"01","name":"Schleswig-Holstein"}},{"name":"Fliederweg","postalCode":"23898","locality":"Sandesneben","municipality":{"key":"01053108","name":"Sandesneben","type":"Kreisangehörige_Gemeinde"},"district":{"key":"01053","name":"Herzogtum Lauenburg","type":"Kreis"},"federalState":{"key":"01","name":"Schleswig-Holstein"}},{"name":"Hauptstr.","postalCode":"23898","locality":"Sandesneben","municipality":{"key":"01053108","name":"Sandesneben","type":"Kreisangehörige_Gemeinde"},"district":{"key":"01053","name":"Herzogtum Lauenburg","type":"Kreis"},"federalState":{"key":"01","name":"Schleswig-Holstein"}},{"name":"Hege","postalCode":"23898","locality":"Sandesneben","municipality":{"key":"01053108","name":"Sandesneben","type":"Kreisangehörige_Gemeinde"},"district":{"key":"01053","name":"Herzogtum Lauenburg","type":"Kreis"},"federalState":{"key":"01","name":"Schleswig-Holstein"}},{"name":"Hegrade","postalCode":"23898","locality":"Sandesneben","municipality":{"key":"01053108","name":"Sandesneben","type":"Kreisangehörige_Gemeinde"},"district":{"key":"01053","name":"Herzogtum Lauenburg","type":"Kreis"},"federalState":{"key":"01","name":"Schleswig-Holstein"}},{"name":"Hollit","postalCode":"23898","locality":"Sandesneben","municipality":{"key":"01053108","name":"Sandesneben","type":"Kreisangehörige_Gemeinde"},"district":{"key":"01053","name":"Herzogtum Lauenburg","type":"Kreis"},"federalState":{"key":"01","name":"Schleswig-Holstein"}},{"name":"Imkenrade","postalCode":"23898","locality":"Sandesneben","municipality":{"key":"01053108","name":"Sandesneben","type":"Kreisangehörige_Gemeinde"},"district":{"key":"01053","name":"Herzogtum Lauenburg","type":"Kreis"},"federalState":{"key":"01","name":"Schleswig-Holstein"}},{"name":"Kastanienweg","postalCode":"23898","locality":"Sandesneben","municipality":{"key":"01053108","name":"Sandesneben","type":"Kreisangehörige_Gemeinde"},"district":{"key":"01053","name":"Herzogtum Lauenburg","type":"Kreis"},"federalState":{"key":"01","name":"Schleswig-Holstein"}},{"name":"Kirchweg","postalCode":"23898","locality":"Sandesneben","municipality":{"key":"01053108","name":"Sandesneben","type":"Kreisangehörige_Gemeinde"},"district":{"key":"01053","name":"Herzogtum Lauenburg","type":"Kreis"},"federalState":{"key":"01","name":"Schleswig-Holstein"}},{"name":"Lerchenweg","postalCode":"23898","locality":"Sandesneben","municipality":{"key":"01053108","name":"Sandesneben","type":"Kreisangehörige_Gemeinde"},"district":{"key":"01053","name":"Herzogtum Lauenburg","type":"Kreis"},"federalState":{"key":"01","name":"Schleswig-Holstein"}},{"name":"Makenhorst","postalCode":"23898","locality":"Sandesneben","municipality":{"key":"01053108","name":"Sandesneben","type":"Kreisangehörige_Gemeinde"},"district":{"key":"01053","name":"Herzogtum Lauenburg","type":"Kreis"},"federalState":{"key":"01","name":"Schleswig-Holstein"}},{"name":"Mohnweg","postalCode":"23898","locality":"Sandesneben","municipality":{"key":"01053108","name":"Sandesneben","type":"Kreisangehörige_Gemeinde"},"district":{"key":"01053","name":"Herzogtum Lauenburg","type":"Kreis"},"federalState":{"key":"01","name":"Schleswig-Holstein"}},{"name":"Nelkenweg","postalCode":"23898","locality":"Sandesneben","municipality":{"key":"01053108","name":"Sandesneben","type":"Kreisangehörige_Gemeinde"},"district":{"key":"01053","name":"Herzogtum Lauenburg","type":"Kreis"},"federalState":{"key":"01","name":"Schleswig-Holstein"}},{"name":"Rehbrook","postalCode":"23898","locality":"Sandesneben","municipality":{"key":"01053108","name":"Sandesneben","type":"Kreisangehörige_Gemeinde"},"district":{"key":"01053","name":"Herzogtum Lauenburg","type":"Kreis"},"federalState":{"key":"01","name":"Schleswig-Holstein"}},{"name":"Rosenweg","postalCode":"23898","locality":"Sandesneben","municipality":{"key":"01053108","name":"Sandesneben","type":"Kreisangehörige_Gemeinde"},"district":{"key":"01053","name":"Herzogtum Lauenburg","type":"Kreis"},"federalState":{"key":"01","name":"Schleswig-Holstein"}},{"name":"Schiphorster Weg","postalCode":"23898","locality":"Sandesneben","municipality":{"key":"01053108","name":"Sandesneben","type":"Kreisangehörige_Gemeinde"},"district":{"key":"01053","name":"Herzogtum Lauenburg","type":"Kreis"},"federalState":{"key":"01","name":"Schleswig-Holstein"}},{"name":"Strietland","postalCode":"23898","locality":"Sandesneben","municipality":{"key":"01053108","name":"Sandesneben","type":"Kreisangehörige_Gemeinde"},"district":{"key":"01053","name":"Herzogtum Lauenburg","type":"Kreis"},"federalState":{"key":"01","name":"Schleswig-Holstein"}},{"name":"Tulpenweg","postalCode":"23898","locality":"Sandesneben","municipality":{"key":"01053108","name":"Sandesneben","type":"Kreisangehörige_Gemeinde"},"district":{"key":"01053","name":"Herzogtum Lauenburg","type":"Kreis"},"federalState":{"key":"01","name":"Schleswig-Holstein"}},]