[{"name":"Am Baumgarten","postalCode":"55469","locality":"Pleizenhausen","municipality":{"key":"07140118","name":"Pleizenhausen","type":"Kreisangehörige_Gemeinde"},"district":{"key":"07140","name":"Rhein-Hunsrück-Kreis","type":"Landkreis"},"federalState":{"key":"07","name":"Rheinland-Pfalz"}},{"name":"Am Linnenborn","postalCode":"55469","locality":"Pleizenhausen","municipality":{"key":"07140118","name":"Pleizenhausen","type":"Kreisangehörige_Gemeinde"},"district":{"key":"07140","name":"Rhein-Hunsrück-Kreis","type":"Landkreis"},"federalState":{"key":"07","name":"Rheinland-Pfalz"}},{"name":"Bergstr.","postalCode":"55469","locality":"Pleizenhausen","municipality":{"key":"07140118","name":"Pleizenhausen","type":"Kreisangehörige_Gemeinde"},"district":{"key":"07140","name":"Rhein-Hunsrück-Kreis","type":"Landkreis"},"federalState":{"key":"07","name":"Rheinland-Pfalz"}},{"name":"Brühlstr.","postalCode":"55469","locality":"Pleizenhausen","municipality":{"key":"07140118","name":"Pleizenhausen","type":"Kreisangehörige_Gemeinde"},"district":{"key":"07140","name":"Rhein-Hunsrück-Kreis","type":"Landkreis"},"federalState":{"key":"07","name":"Rheinland-Pfalz"}},{"name":"Gartenstr.","postalCode":"55469","locality":"Pleizenhausen","municipality":{"key":"07140118","name":"Pleizenhausen","type":"Kreisangehörige_Gemeinde"},"district":{"key":"07140","name":"Rhein-Hunsrück-Kreis","type":"Landkreis"},"federalState":{"key":"07","name":"Rheinland-Pfalz"}},{"name":"Hauptstr.","postalCode":"55469","locality":"Pleizenhausen","municipality":{"key":"07140118","name":"Pleizenhausen","type":"Kreisangehörige_Gemeinde"},"district":{"key":"07140","name":"Rhein-Hunsrück-Kreis","type":"Landkreis"},"federalState":{"key":"07","name":"Rheinland-Pfalz"}},{"name":"Oberweseler Str.","postalCode":"55469","locality":"Pleizenhausen","municipality":{"key":"07140118","name":"Pleizenhausen","type":"Kreisangehörige_Gemeinde"},"district":{"key":"07140","name":"Rhein-Hunsrück-Kreis","type":"Landkreis"},"federalState":{"key":"07","name":"Rheinland-Pfalz"}},{"name":"Ringstr.","postalCode":"55469","locality":"Pleizenhausen","municipality":{"key":"07140118","name":"Pleizenhausen","type":"Kreisangehörige_Gemeinde"},"district":{"key":"07140","name":"Rhein-Hunsrück-Kreis","type":"Landkreis"},"federalState":{"key":"07","name":"Rheinland-Pfalz"}},{"name":"Simmerner Str.","postalCode":"55469","locality":"Pleizenhausen","municipality":{"key":"07140118","name":"Pleizenhausen","type":"Kreisangehörige_Gemeinde"},"district":{"key":"07140","name":"Rhein-Hunsrück-Kreis","type":"Landkreis"},"federalState":{"key":"07","name":"Rheinland-Pfalz"}},]