[{"name":"Alte Gasse","postalCode":"56428","locality":"Dernbach (Westerwald)","municipality":{"key":"07143010","name":"Dernbach (Westerwald)","type":"Kreisangehörige_Gemeinde"},"district":{"key":"07143","name":"Westerwaldkreis","type":"Landkreis"},"federalState":{"key":"07","name":"Rheinland-Pfalz"}},{"name":"Am Acker","postalCode":"56428","locality":"Dernbach (Westerwald)","municipality":{"key":"07143010","name":"Dernbach (Westerwald)","type":"Kreisangehörige_Gemeinde"},"district":{"key":"07143","name":"Westerwaldkreis","type":"Landkreis"},"federalState":{"key":"07","name":"Rheinland-Pfalz"}},{"name":"Am Bahndamm","postalCode":"56428","locality":"Dernbach (Westerwald)","municipality":{"key":"07143010","name":"Dernbach (Westerwald)","type":"Kreisangehörige_Gemeinde"},"district":{"key":"07143","name":"Westerwaldkreis","type":"Landkreis"},"federalState":{"key":"07","name":"Rheinland-Pfalz"}},{"name":"Am Berg","postalCode":"76857","locality":"Dernbach","municipality":{"key":"07337017","name":"Dernbach","type":"Kreisangehörige_Gemeinde"},"district":{"key":"07337","name":"Südliche Weinstraße","type":"Landkreis"},"federalState":{"key":"07","name":"Rheinland-Pfalz"}},{"name":"Am Driesch","postalCode":"56428","locality":"Dernbach (Westerwald)","municipality":{"key":"07143010","name":"Dernbach (Westerwald)","type":"Kreisangehörige_Gemeinde"},"district":{"key":"07143","name":"Westerwaldkreis","type":"Landkreis"},"federalState":{"key":"07","name":"Rheinland-Pfalz"}},{"name":"Am Hahn","postalCode":"56307","locality":"Dernbach","municipality":{"key":"07138011","name":"Dernbach","type":"Kreisangehörige_Gemeinde"},"district":{"key":"07138","name":"Neuwied","type":"Landkreis"},"federalState":{"key":"07","name":"Rheinland-Pfalz"}},{"name":"Am Pfalzhof","postalCode":"76857","locality":"Dernbach","municipality":{"key":"07337017","name":"Dernbach","type":"Kreisangehörige_Gemeinde"},"district":{"key":"07337","name":"Südliche Weinstraße","type":"Landkreis"},"federalState":{"key":"07","name":"Rheinland-Pfalz"}},{"name":"Am Schulgarten","postalCode":"56307","locality":"Dernbach","municipality":{"key":"07138011","name":"Dernbach","type":"Kreisangehörige_Gemeinde"},"district":{"key":"07138","name":"Neuwied","type":"Landkreis"},"federalState":{"key":"07","name":"Rheinland-Pfalz"}},{"name":"Am weißen Weg","postalCode":"56428","locality":"Dernbach (Westerwald)","municipality":{"key":"07143010","name":"Dernbach (Westerwald)","type":"Kreisangehörige_Gemeinde"},"district":{"key":"07143","name":"Westerwaldkreis","type":"Landkreis"},"federalState":{"key":"07","name":"Rheinland-Pfalz"}},{"name":"An den Buchen","postalCode":"56307","locality":"Dernbach","municipality":{"key":"07138011","name":"Dernbach","type":"Kreisangehörige_Gemeinde"},"district":{"key":"07138","name":"Neuwied","type":"Landkreis"},"federalState":{"key":"07","name":"Rheinland-Pfalz"}},{"name":"Auf dem Beul","postalCode":"56307","locality":"Dernbach","municipality":{"key":"07138011","name":"Dernbach","type":"Kreisangehörige_Gemeinde"},"district":{"key":"07138","name":"Neuwied","type":"Landkreis"},"federalState":{"key":"07","name":"Rheinland-Pfalz"}},{"name":"Auf der Held","postalCode":"56307","locality":"Dernbach","municipality":{"key":"07138011","name":"Dernbach","type":"Kreisangehörige_Gemeinde"},"district":{"key":"07138","name":"Neuwied","type":"Landkreis"},"federalState":{"key":"07","name":"Rheinland-Pfalz"}},{"name":"Bäckerseck","postalCode":"56428","locality":"Dernbach (Westerwald)","municipality":{"key":"07143010","name":"Dernbach (Westerwald)","type":"Kreisangehörige_Gemeinde"},"district":{"key":"07143","name":"Westerwaldkreis","type":"Landkreis"},"federalState":{"key":"07","name":"Rheinland-Pfalz"}},{"name":"Bergstr.","postalCode":"56307","locality":"Dernbach","municipality":{"key":"07138011","name":"Dernbach","type":"Kreisangehörige_Gemeinde"},"district":{"key":"07138","name":"Neuwied","type":"Landkreis"},"federalState":{"key":"07","name":"Rheinland-Pfalz"}},{"name":"Bergstr.","postalCode":"56428","locality":"Dernbach (Westerwald)","municipality":{"key":"07143010","name":"Dernbach (Westerwald)","type":"Kreisangehörige_Gemeinde"},"district":{"key":"07143","name":"Westerwaldkreis","type":"Landkreis"},"federalState":{"key":"07","name":"Rheinland-Pfalz"}},{"name":"Bischof-Blum-Str.","postalCode":"56428","locality":"Dernbach (Westerwald)","municipality":{"key":"07143010","name":"Dernbach (Westerwald)","type":"Kreisangehörige_Gemeinde"},"district":{"key":"07143","name":"Westerwaldkreis","type":"Landkreis"},"federalState":{"key":"07","name":"Rheinland-Pfalz"}},{"name":"Blumenweg","postalCode":"56307","locality":"Dernbach","municipality":{"key":"07138011","name":"Dernbach","type":"Kreisangehörige_Gemeinde"},"district":{"key":"07138","name":"Neuwied","type":"Landkreis"},"federalState":{"key":"07","name":"Rheinland-Pfalz"}},{"name":"Brückenweg","postalCode":"56428","locality":"Dernbach (Westerwald)","municipality":{"key":"07143010","name":"Dernbach (Westerwald)","type":"Kreisangehörige_Gemeinde"},"district":{"key":"07143","name":"Westerwaldkreis","type":"Landkreis"},"federalState":{"key":"07","name":"Rheinland-Pfalz"}},{"name":"Burgweg","postalCode":"56428","locality":"Dernbach (Westerwald)","municipality":{"key":"07143010","name":"Dernbach (Westerwald)","type":"Kreisangehörige_Gemeinde"},"district":{"key":"07143","name":"Westerwaldkreis","type":"Landkreis"},"federalState":{"key":"07","name":"Rheinland-Pfalz"}},{"name":"Butterpfad","postalCode":"56428","locality":"Dernbach (Westerwald)","municipality":{"key":"07143010","name":"Dernbach (Westerwald)","type":"Kreisangehörige_Gemeinde"},"district":{"key":"07143","name":"Westerwaldkreis","type":"Landkreis"},"federalState":{"key":"07","name":"Rheinland-Pfalz"}},{"name":"Calvinstr.","postalCode":"56567","locality":"Neuwied","municipality":{"key":"07138045","name":"Neuwied, Stadt","type":"Stadt"},"district":{"key":"07138","name":"Neuwied","type":"Landkreis"},"federalState":{"key":"07","name":"Rheinland-Pfalz"}},{"name":"Capybaras","postalCode":"56566","locality":"Neuwied","municipality":{"key":"07138045","name":"Neuwied, Stadt","type":"Stadt"},"district":{"key":"07138","name":"Neuwied","type":"Landkreis"},"federalState":{"key":"07","name":"Rheinland-Pfalz"}},{"name":"Carmen-Sylva-Garten","postalCode":"56564","locality":"Neuwied","municipality":{"key":"07138045","name":"Neuwied, Stadt","type":"Stadt"},"district":{"key":"07138","name":"Neuwied","type":"Landkreis"},"federalState":{"key":"07","name":"Rheinland-Pfalz"}},{"name":"Cheruskerstr.","postalCode":"56567","locality":"Neuwied","municipality":{"key":"07138045","name":"Neuwied, Stadt","type":"Stadt"},"district":{"key":"07138","name":"Neuwied","type":"Landkreis"},"federalState":{"key":"07","name":"Rheinland-Pfalz"}},{"name":"Clemensstr.","postalCode":"56566","locality":"Neuwied","municipality":{"key":"07138045","name":"Neuwied, Stadt","type":"Stadt"},"district":{"key":"07138","name":"Neuwied","type":"Landkreis"},"federalState":{"key":"07","name":"Rheinland-Pfalz"}},{"name":"Cranachstr.","postalCode":"56566","locality":"Neuwied","municipality":{"key":"07138045","name":"Neuwied, Stadt","type":"Stadt"},"district":{"key":"07138","name":"Neuwied","type":"Landkreis"},"federalState":{"key":"07","name":"Rheinland-Pfalz"}},{"name":"Danziger Weg","postalCode":"56428","locality":"Dernbach (Westerwald)","municipality":{"key":"07143010","name":"Dernbach (Westerwald)","type":"Kreisangehörige_Gemeinde"},"district":{"key":"07143","name":"Westerwaldkreis","type":"Landkreis"},"federalState":{"key":"07","name":"Rheinland-Pfalz"}},{"name":"Dr.-Domarus-Str.","postalCode":"56428","locality":"Dernbach (Westerwald)","municipality":{"key":"07143010","name":"Dernbach (Westerwald)","type":"Kreisangehörige_Gemeinde"},"district":{"key":"07143","name":"Westerwaldkreis","type":"Landkreis"},"federalState":{"key":"07","name":"Rheinland-Pfalz"}},{"name":"Dreimorgen","postalCode":"76857","locality":"Dernbach","municipality":{"key":"07337017","name":"Dernbach","type":"Kreisangehörige_Gemeinde"},"district":{"key":"07337","name":"Südliche Weinstraße","type":"Landkreis"},"federalState":{"key":"07","name":"Rheinland-Pfalz"}},{"name":"Ebernhahner Str.","postalCode":"56428","locality":"Dernbach (Westerwald)","municipality":{"key":"07143010","name":"Dernbach (Westerwald)","type":"Kreisangehörige_Gemeinde"},"district":{"key":"07143","name":"Westerwaldkreis","type":"Landkreis"},"federalState":{"key":"07","name":"Rheinland-Pfalz"}},{"name":"Elgendorfer Str.","postalCode":"56428","locality":"Dernbach (Westerwald)","municipality":{"key":"07143010","name":"Dernbach (Westerwald)","type":"Kreisangehörige_Gemeinde"},"district":{"key":"07143","name":"Westerwaldkreis","type":"Landkreis"},"federalState":{"key":"07","name":"Rheinland-Pfalz"}},{"name":"Erzberg","postalCode":"56428","locality":"Dernbach (Westerwald)","municipality":{"key":"07143010","name":"Dernbach (Westerwald)","type":"Kreisangehörige_Gemeinde"},"district":{"key":"07143","name":"Westerwaldkreis","type":"Landkreis"},"federalState":{"key":"07","name":"Rheinland-Pfalz"}},{"name":"Forststr.","postalCode":"76857","locality":"Dernbach","municipality":{"key":"07337017","name":"Dernbach","type":"Kreisangehörige_Gemeinde"},"district":{"key":"07337","name":"Südliche Weinstraße","type":"Landkreis"},"federalState":{"key":"07","name":"Rheinland-Pfalz"}},{"name":"Gartenstr.","postalCode":"56307","locality":"Dernbach","municipality":{"key":"07138011","name":"Dernbach","type":"Kreisangehörige_Gemeinde"},"district":{"key":"07138","name":"Neuwied","type":"Landkreis"},"federalState":{"key":"07","name":"Rheinland-Pfalz"}},{"name":"Gartenstr.","postalCode":"56428","locality":"Dernbach (Westerwald)","municipality":{"key":"07143010","name":"Dernbach (Westerwald)","type":"Kreisangehörige_Gemeinde"},"district":{"key":"07143","name":"Westerwaldkreis","type":"Landkreis"},"federalState":{"key":"07","name":"Rheinland-Pfalz"}},{"name":"Grabenstr.","postalCode":"56428","locality":"Dernbach (Westerwald)","municipality":{"key":"07143010","name":"Dernbach (Westerwald)","type":"Kreisangehörige_Gemeinde"},"district":{"key":"07143","name":"Westerwaldkreis","type":"Landkreis"},"federalState":{"key":"07","name":"Rheinland-Pfalz"}},{"name":"Grubenweg","postalCode":"56428","locality":"Dernbach (Westerwald)","municipality":{"key":"07143010","name":"Dernbach (Westerwald)","type":"Kreisangehörige_Gemeinde"},"district":{"key":"07143","name":"Westerwaldkreis","type":"Landkreis"},"federalState":{"key":"07","name":"Rheinland-Pfalz"}},{"name":"Haselwiese","postalCode":"76857","locality":"Dernbach","municipality":{"key":"07337017","name":"Dernbach","type":"Kreisangehörige_Gemeinde"},"district":{"key":"07337","name":"Südliche Weinstraße","type":"Landkreis"},"federalState":{"key":"07","name":"Rheinland-Pfalz"}},{"name":"Hauptstr.","postalCode":"56307","locality":"Dernbach","municipality":{"key":"07138011","name":"Dernbach","type":"Kreisangehörige_Gemeinde"},"district":{"key":"07138","name":"Neuwied","type":"Landkreis"},"federalState":{"key":"07","name":"Rheinland-Pfalz"}},{"name":"Hauptstr.","postalCode":"56428","locality":"Dernbach (Westerwald)","municipality":{"key":"07143010","name":"Dernbach (Westerwald)","type":"Kreisangehörige_Gemeinde"},"district":{"key":"07143","name":"Westerwaldkreis","type":"Landkreis"},"federalState":{"key":"07","name":"Rheinland-Pfalz"}},{"name":"Hauptstr.","postalCode":"76857","locality":"Dernbach","municipality":{"key":"07337017","name":"Dernbach","type":"Kreisangehörige_Gemeinde"},"district":{"key":"07337","name":"Südliche Weinstraße","type":"Landkreis"},"federalState":{"key":"07","name":"Rheinland-Pfalz"}},{"name":"Hilchenstr.","postalCode":"56428","locality":"Dernbach (Westerwald)","municipality":{"key":"07143010","name":"Dernbach (Westerwald)","type":"Kreisangehörige_Gemeinde"},"district":{"key":"07143","name":"Westerwaldkreis","type":"Landkreis"},"federalState":{"key":"07","name":"Rheinland-Pfalz"}},{"name":"Hinter der Burg","postalCode":"56428","locality":"Dernbach (Westerwald)","municipality":{"key":"07143010","name":"Dernbach (Westerwald)","type":"Kreisangehörige_Gemeinde"},"district":{"key":"07143","name":"Westerwaldkreis","type":"Landkreis"},"federalState":{"key":"07","name":"Rheinland-Pfalz"}},{"name":"Hochstr.","postalCode":"56307","locality":"Dernbach","municipality":{"key":"07138011","name":"Dernbach","type":"Kreisangehörige_Gemeinde"},"district":{"key":"07138","name":"Neuwied","type":"Landkreis"},"federalState":{"key":"07","name":"Rheinland-Pfalz"}},{"name":"Höhenweg","postalCode":"56428","locality":"Dernbach (Westerwald)","municipality":{"key":"07143010","name":"Dernbach (Westerwald)","type":"Kreisangehörige_Gemeinde"},"district":{"key":"07143","name":"Westerwaldkreis","type":"Landkreis"},"federalState":{"key":"07","name":"Rheinland-Pfalz"}},{"name":"Hohlweg","postalCode":"56428","locality":"Dernbach (Westerwald)","municipality":{"key":"07143010","name":"Dernbach (Westerwald)","type":"Kreisangehörige_Gemeinde"},"district":{"key":"07143","name":"Westerwaldkreis","type":"Landkreis"},"federalState":{"key":"07","name":"Rheinland-Pfalz"}},{"name":"Im Bruch","postalCode":"76857","locality":"Dernbach","municipality":{"key":"07337017","name":"Dernbach","type":"Kreisangehörige_Gemeinde"},"district":{"key":"07337","name":"Südliche Weinstraße","type":"Landkreis"},"federalState":{"key":"07","name":"Rheinland-Pfalz"}},{"name":"Im Oberfeld","postalCode":"56428","locality":"Dernbach (Westerwald)","municipality":{"key":"07143010","name":"Dernbach (Westerwald)","type":"Kreisangehörige_Gemeinde"},"district":{"key":"07143","name":"Westerwaldkreis","type":"Landkreis"},"federalState":{"key":"07","name":"Rheinland-Pfalz"}},{"name":"Im Trümpchen","postalCode":"56307","locality":"Dernbach","municipality":{"key":"07138011","name":"Dernbach","type":"Kreisangehörige_Gemeinde"},"district":{"key":"07138","name":"Neuwied","type":"Landkreis"},"federalState":{"key":"07","name":"Rheinland-Pfalz"}},{"name":"Im Wehrholz","postalCode":"56428","locality":"Dernbach (Westerwald)","municipality":{"key":"07143010","name":"Dernbach (Westerwald)","type":"Kreisangehörige_Gemeinde"},"district":{"key":"07143","name":"Westerwaldkreis","type":"Landkreis"},"federalState":{"key":"07","name":"Rheinland-Pfalz"}},{"name":"In den Dreimorgen","postalCode":"76857","locality":"Dernbach","municipality":{"key":"07337017","name":"Dernbach","type":"Kreisangehörige_Gemeinde"},"district":{"key":"07337","name":"Südliche Weinstraße","type":"Landkreis"},"federalState":{"key":"07","name":"Rheinland-Pfalz"}},{"name":"In der Bruchwiese","postalCode":"56428","locality":"Dernbach (Westerwald)","municipality":{"key":"07143010","name":"Dernbach (Westerwald)","type":"Kreisangehörige_Gemeinde"},"district":{"key":"07143","name":"Westerwaldkreis","type":"Landkreis"},"federalState":{"key":"07","name":"Rheinland-Pfalz"}},{"name":"In der Schlagwiese","postalCode":"56428","locality":"Dernbach (Westerwald)","municipality":{"key":"07143010","name":"Dernbach (Westerwald)","type":"Kreisangehörige_Gemeinde"},"district":{"key":"07143","name":"Westerwaldkreis","type":"Landkreis"},"federalState":{"key":"07","name":"Rheinland-Pfalz"}},{"name":"Jakob-Paulus-Str.","postalCode":"56428","locality":"Dernbach (Westerwald)","municipality":{"key":"07143010","name":"Dernbach (Westerwald)","type":"Kreisangehörige_Gemeinde"},"district":{"key":"07143","name":"Westerwaldkreis","type":"Landkreis"},"federalState":{"key":"07","name":"Rheinland-Pfalz"}},{"name":"Joh.-Jakob-Wittayer-Str.","postalCode":"56428","locality":"Dernbach (Westerwald)","municipality":{"key":"07143010","name":"Dernbach (Westerwald)","type":"Kreisangehörige_Gemeinde"},"district":{"key":"07143","name":"Westerwaldkreis","type":"Landkreis"},"federalState":{"key":"07","name":"Rheinland-Pfalz"}},{"name":"Josefshausstr.","postalCode":"56428","locality":"Dernbach (Westerwald)","municipality":{"key":"07143010","name":"Dernbach (Westerwald)","type":"Kreisangehörige_Gemeinde"},"district":{"key":"07143","name":"Westerwaldkreis","type":"Landkreis"},"federalState":{"key":"07","name":"Rheinland-Pfalz"}},{"name":"Katharina-Kasper-Str.","postalCode":"56428","locality":"Dernbach (Westerwald)","municipality":{"key":"07143010","name":"Dernbach (Westerwald)","type":"Kreisangehörige_Gemeinde"},"district":{"key":"07143","name":"Westerwaldkreis","type":"Landkreis"},"federalState":{"key":"07","name":"Rheinland-Pfalz"}},{"name":"Kipperstal","postalCode":"76857","locality":"Dernbach","municipality":{"key":"07337017","name":"Dernbach","type":"Kreisangehörige_Gemeinde"},"district":{"key":"07337","name":"Südliche Weinstraße","type":"Landkreis"},"federalState":{"key":"07","name":"Rheinland-Pfalz"}},{"name":"Kirchstr.","postalCode":"56428","locality":"Dernbach (Westerwald)","municipality":{"key":"07143010","name":"Dernbach (Westerwald)","type":"Kreisangehörige_Gemeinde"},"district":{"key":"07143","name":"Westerwaldkreis","type":"Landkreis"},"federalState":{"key":"07","name":"Rheinland-Pfalz"}},{"name":"Kirchstr.","postalCode":"76857","locality":"Dernbach","municipality":{"key":"07337017","name":"Dernbach","type":"Kreisangehörige_Gemeinde"},"district":{"key":"07337","name":"Südliche Weinstraße","type":"Landkreis"},"federalState":{"key":"07","name":"Rheinland-Pfalz"}},{"name":"Klosterstr.","postalCode":"56428","locality":"Dernbach (Westerwald)","municipality":{"key":"07143010","name":"Dernbach (Westerwald)","type":"Kreisangehörige_Gemeinde"},"district":{"key":"07143","name":"Westerwaldkreis","type":"Landkreis"},"federalState":{"key":"07","name":"Rheinland-Pfalz"}},{"name":"Kreuzweg","postalCode":"56428","locality":"Dernbach (Westerwald)","municipality":{"key":"07143010","name":"Dernbach (Westerwald)","type":"Kreisangehörige_Gemeinde"},"district":{"key":"07143","name":"Westerwaldkreis","type":"Landkreis"},"federalState":{"key":"07","name":"Rheinland-Pfalz"}},{"name":"Laurentiusplatz","postalCode":"56428","locality":"Dernbach (Westerwald)","municipality":{"key":"07143010","name":"Dernbach (Westerwald)","type":"Kreisangehörige_Gemeinde"},"district":{"key":"07143","name":"Westerwaldkreis","type":"Landkreis"},"federalState":{"key":"07","name":"Rheinland-Pfalz"}},{"name":"Maischeider Weg","postalCode":"56307","locality":"Dernbach","municipality":{"key":"07138011","name":"Dernbach","type":"Kreisangehörige_Gemeinde"},"district":{"key":"07138","name":"Neuwied","type":"Landkreis"},"federalState":{"key":"07","name":"Rheinland-Pfalz"}},{"name":"Marienweg","postalCode":"56428","locality":"Dernbach (Westerwald)","municipality":{"key":"07143010","name":"Dernbach (Westerwald)","type":"Kreisangehörige_Gemeinde"},"district":{"key":"07143","name":"Westerwaldkreis","type":"Landkreis"},"federalState":{"key":"07","name":"Rheinland-Pfalz"}},{"name":"Mittelstr.","postalCode":"56307","locality":"Dernbach","municipality":{"key":"07138011","name":"Dernbach","type":"Kreisangehörige_Gemeinde"},"district":{"key":"07138","name":"Neuwied","type":"Landkreis"},"federalState":{"key":"07","name":"Rheinland-Pfalz"}},{"name":"Montabaurer Str.","postalCode":"56428","locality":"Dernbach (Westerwald)","municipality":{"key":"07143010","name":"Dernbach (Westerwald)","type":"Kreisangehörige_Gemeinde"},"district":{"key":"07143","name":"Westerwaldkreis","type":"Landkreis"},"federalState":{"key":"07","name":"Rheinland-Pfalz"}},{"name":"Mühlenstr.","postalCode":"56307","locality":"Dernbach","municipality":{"key":"07138011","name":"Dernbach","type":"Kreisangehörige_Gemeinde"},"district":{"key":"07138","name":"Neuwied","type":"Landkreis"},"federalState":{"key":"07","name":"Rheinland-Pfalz"}},{"name":"Neuland","postalCode":"56428","locality":"Dernbach (Westerwald)","municipality":{"key":"07143010","name":"Dernbach (Westerwald)","type":"Kreisangehörige_Gemeinde"},"district":{"key":"07143","name":"Westerwaldkreis","type":"Landkreis"},"federalState":{"key":"07","name":"Rheinland-Pfalz"}},{"name":"Nordhausstr.","postalCode":"56307","locality":"Dernbach","municipality":{"key":"07138011","name":"Dernbach","type":"Kreisangehörige_Gemeinde"},"district":{"key":"07138","name":"Neuwied","type":"Landkreis"},"federalState":{"key":"07","name":"Rheinland-Pfalz"}},{"name":"Oberm Kappesgarten","postalCode":"56428","locality":"Dernbach (Westerwald)","municipality":{"key":"07143010","name":"Dernbach (Westerwald)","type":"Kreisangehörige_Gemeinde"},"district":{"key":"07143","name":"Westerwaldkreis","type":"Landkreis"},"federalState":{"key":"07","name":"Rheinland-Pfalz"}},{"name":"Peter-Dausenau-Str.","postalCode":"56428","locality":"Dernbach (Westerwald)","municipality":{"key":"07143010","name":"Dernbach (Westerwald)","type":"Kreisangehörige_Gemeinde"},"district":{"key":"07143","name":"Westerwaldkreis","type":"Landkreis"},"federalState":{"key":"07","name":"Rheinland-Pfalz"}},{"name":"Peter-Lieser-Str.","postalCode":"56428","locality":"Dernbach (Westerwald)","municipality":{"key":"07143010","name":"Dernbach (Westerwald)","type":"Kreisangehörige_Gemeinde"},"district":{"key":"07143","name":"Westerwaldkreis","type":"Landkreis"},"federalState":{"key":"07","name":"Rheinland-Pfalz"}},{"name":"Pfalzteich","postalCode":"76857","locality":"Dernbach","municipality":{"key":"07337017","name":"Dernbach","type":"Kreisangehörige_Gemeinde"},"district":{"key":"07337","name":"Südliche Weinstraße","type":"Landkreis"},"federalState":{"key":"07","name":"Rheinland-Pfalz"}},{"name":"Ransbacher Pfad","postalCode":"56428","locality":"Dernbach (Westerwald)","municipality":{"key":"07143010","name":"Dernbach (Westerwald)","type":"Kreisangehörige_Gemeinde"},"district":{"key":"07143","name":"Westerwaldkreis","type":"Landkreis"},"federalState":{"key":"07","name":"Rheinland-Pfalz"}},{"name":"Rheinstr.","postalCode":"56428","locality":"Dernbach (Westerwald)","municipality":{"key":"07143010","name":"Dernbach (Westerwald)","type":"Kreisangehörige_Gemeinde"},"district":{"key":"07143","name":"Westerwaldkreis","type":"Landkreis"},"federalState":{"key":"07","name":"Rheinland-Pfalz"}},{"name":"Ringstr.","postalCode":"56307","locality":"Dernbach","municipality":{"key":"07138011","name":"Dernbach","type":"Kreisangehörige_Gemeinde"},"district":{"key":"07138","name":"Neuwied","type":"Landkreis"},"federalState":{"key":"07","name":"Rheinland-Pfalz"}},{"name":"Sandweg","postalCode":"56428","locality":"Dernbach (Westerwald)","municipality":{"key":"07143010","name":"Dernbach (Westerwald)","type":"Kreisangehörige_Gemeinde"},"district":{"key":"07143","name":"Westerwaldkreis","type":"Landkreis"},"federalState":{"key":"07","name":"Rheinland-Pfalz"}},{"name":"Schachtweg","postalCode":"56428","locality":"Dernbach (Westerwald)","municipality":{"key":"07143010","name":"Dernbach (Westerwald)","type":"Kreisangehörige_Gemeinde"},"district":{"key":"07143","name":"Westerwaldkreis","type":"Landkreis"},"federalState":{"key":"07","name":"Rheinland-Pfalz"}},{"name":"Schönblick","postalCode":"56307","locality":"Dernbach","municipality":{"key":"07138011","name":"Dernbach","type":"Kreisangehörige_Gemeinde"},"district":{"key":"07138","name":"Neuwied","type":"Landkreis"},"federalState":{"key":"07","name":"Rheinland-Pfalz"}},{"name":"Schöne Aussicht","postalCode":"56428","locality":"Dernbach (Westerwald)","municipality":{"key":"07143010","name":"Dernbach (Westerwald)","type":"Kreisangehörige_Gemeinde"},"district":{"key":"07143","name":"Westerwaldkreis","type":"Landkreis"},"federalState":{"key":"07","name":"Rheinland-Pfalz"}},{"name":"Schulstr.","postalCode":"56428","locality":"Dernbach (Westerwald)","municipality":{"key":"07143010","name":"Dernbach (Westerwald)","type":"Kreisangehörige_Gemeinde"},"district":{"key":"07143","name":"Westerwaldkreis","type":"Landkreis"},"federalState":{"key":"07","name":"Rheinland-Pfalz"}},{"name":"Silbergasse","postalCode":"56428","locality":"Dernbach (Westerwald)","municipality":{"key":"07143010","name":"Dernbach (Westerwald)","type":"Kreisangehörige_Gemeinde"},"district":{"key":"07143","name":"Westerwaldkreis","type":"Landkreis"},"federalState":{"key":"07","name":"Rheinland-Pfalz"}},{"name":"Sonnenblick","postalCode":"56428","locality":"Dernbach (Westerwald)","municipality":{"key":"07143010","name":"Dernbach (Westerwald)","type":"Kreisangehörige_Gemeinde"},"district":{"key":"07143","name":"Westerwaldkreis","type":"Landkreis"},"federalState":{"key":"07","name":"Rheinland-Pfalz"}},{"name":"Sonnenstr.","postalCode":"56307","locality":"Dernbach","municipality":{"key":"07138011","name":"Dernbach","type":"Kreisangehörige_Gemeinde"},"district":{"key":"07138","name":"Neuwied","type":"Landkreis"},"federalState":{"key":"07","name":"Rheinland-Pfalz"}},{"name":"Steinkaut","postalCode":"56428","locality":"Dernbach (Westerwald)","municipality":{"key":"07143010","name":"Dernbach (Westerwald)","type":"Kreisangehörige_Gemeinde"},"district":{"key":"07143","name":"Westerwaldkreis","type":"Landkreis"},"federalState":{"key":"07","name":"Rheinland-Pfalz"}},{"name":"Steinkautsweg","postalCode":"56428","locality":"Dernbach (Westerwald)","municipality":{"key":"07143010","name":"Dernbach (Westerwald)","type":"Kreisangehörige_Gemeinde"},"district":{"key":"07143","name":"Westerwaldkreis","type":"Landkreis"},"federalState":{"key":"07","name":"Rheinland-Pfalz"}},{"name":"Steinsmühle","postalCode":"56428","locality":"Dernbach (Westerwald)","municipality":{"key":"07143010","name":"Dernbach (Westerwald)","type":"Kreisangehörige_Gemeinde"},"district":{"key":"07143","name":"Westerwaldkreis","type":"Landkreis"},"federalState":{"key":"07","name":"Rheinland-Pfalz"}},{"name":"Stockacker","postalCode":"76857","locality":"Dernbach","municipality":{"key":"07337017","name":"Dernbach","type":"Kreisangehörige_Gemeinde"},"district":{"key":"07337","name":"Südliche Weinstraße","type":"Landkreis"},"federalState":{"key":"07","name":"Rheinland-Pfalz"}},{"name":"Stöckelches Weg","postalCode":"56428","locality":"Dernbach (Westerwald)","municipality":{"key":"07143010","name":"Dernbach (Westerwald)","type":"Kreisangehörige_Gemeinde"},"district":{"key":"07143","name":"Westerwaldkreis","type":"Landkreis"},"federalState":{"key":"07","name":"Rheinland-Pfalz"}},{"name":"Südring","postalCode":"56428","locality":"Dernbach (Westerwald)","municipality":{"key":"07143010","name":"Dernbach (Westerwald)","type":"Kreisangehörige_Gemeinde"},"district":{"key":"07143","name":"Westerwaldkreis","type":"Landkreis"},"federalState":{"key":"07","name":"Rheinland-Pfalz"}},{"name":"Talweg","postalCode":"56307","locality":"Dernbach","municipality":{"key":"07138011","name":"Dernbach","type":"Kreisangehörige_Gemeinde"},"district":{"key":"07138","name":"Neuwied","type":"Landkreis"},"federalState":{"key":"07","name":"Rheinland-Pfalz"}},{"name":"Thürnthenniger Weg","postalCode":"76857","locality":"Dernbach","municipality":{"key":"07337017","name":"Dernbach","type":"Kreisangehörige_Gemeinde"},"district":{"key":"07337","name":"Südliche Weinstraße","type":"Landkreis"},"federalState":{"key":"07","name":"Rheinland-Pfalz"}},{"name":"Titus-Düber-Str.","postalCode":"56428","locality":"Dernbach (Westerwald)","municipality":{"key":"07143010","name":"Dernbach (Westerwald)","type":"Kreisangehörige_Gemeinde"},"district":{"key":"07143","name":"Westerwaldkreis","type":"Landkreis"},"federalState":{"key":"07","name":"Rheinland-Pfalz"}},{"name":"Trimm-Dich-Pfad","postalCode":"56307","locality":"Dernbach","municipality":{"key":"07138011","name":"Dernbach","type":"Kreisangehörige_Gemeinde"},"district":{"key":"07138","name":"Neuwied","type":"Landkreis"},"federalState":{"key":"07","name":"Rheinland-Pfalz"}},{"name":"Ubierstr.","postalCode":"56567","locality":"Neuwied","municipality":{"key":"07138045","name":"Neuwied, Stadt","type":"Stadt"},"district":{"key":"07138","name":"Neuwied","type":"Landkreis"},"federalState":{"key":"07","name":"Rheinland-Pfalz"}},{"name":"Unterbüngstr.","postalCode":"56566","locality":"Neuwied","municipality":{"key":"07138045","name":"Neuwied, Stadt","type":"Stadt"},"district":{"key":"07138","name":"Neuwied","type":"Landkreis"},"federalState":{"key":"07","name":"Rheinland-Pfalz"}},{"name":"Unterdorf","postalCode":"56564","locality":"Neuwied","municipality":{"key":"07138045","name":"Neuwied, Stadt","type":"Stadt"},"district":{"key":"07138","name":"Neuwied","type":"Landkreis"},"federalState":{"key":"07","name":"Rheinland-Pfalz"}},{"name":"Untere Fluraustr.","postalCode":"56567","locality":"Neuwied","municipality":{"key":"07138045","name":"Neuwied, Stadt","type":"Stadt"},"district":{"key":"07138","name":"Neuwied","type":"Landkreis"},"federalState":{"key":"07","name":"Rheinland-Pfalz"}},{"name":"Untere Görgengasse","postalCode":"56566","locality":"Neuwied","municipality":{"key":"07138045","name":"Neuwied, Stadt","type":"Stadt"},"district":{"key":"07138","name":"Neuwied","type":"Landkreis"},"federalState":{"key":"07","name":"Rheinland-Pfalz"}},{"name":"Unterer Grabenring","postalCode":"56566","locality":"Neuwied","municipality":{"key":"07138045","name":"Neuwied, Stadt","type":"Stadt"},"district":{"key":"07138","name":"Neuwied","type":"Landkreis"},"federalState":{"key":"07","name":"Rheinland-Pfalz"}},{"name":"Unterer Kümmelberg","postalCode":"56567","locality":"Neuwied","municipality":{"key":"07138045","name":"Neuwied, Stadt","type":"Stadt"},"district":{"key":"07138","name":"Neuwied","type":"Landkreis"},"federalState":{"key":"07","name":"Rheinland-Pfalz"}},{"name":"Untergasse","postalCode":"56566","locality":"Neuwied","municipality":{"key":"07138045","name":"Neuwied, Stadt","type":"Stadt"},"district":{"key":"07138","name":"Neuwied","type":"Landkreis"},"federalState":{"key":"07","name":"Rheinland-Pfalz"}},{"name":"Untergraben","postalCode":"56567","locality":"Neuwied","municipality":{"key":"07138045","name":"Neuwied, Stadt","type":"Stadt"},"district":{"key":"07138","name":"Neuwied","type":"Landkreis"},"federalState":{"key":"07","name":"Rheinland-Pfalz"}},{"name":"Unterm Flecken","postalCode":"56566","locality":"Neuwied","municipality":{"key":"07138045","name":"Neuwied, Stadt","type":"Stadt"},"district":{"key":"07138","name":"Neuwied","type":"Landkreis"},"federalState":{"key":"07","name":"Rheinland-Pfalz"}},{"name":"Uranusstr.","postalCode":"56566","locality":"Neuwied","municipality":{"key":"07138045","name":"Neuwied, Stadt","type":"Stadt"},"district":{"key":"07138","name":"Neuwied","type":"Landkreis"},"federalState":{"key":"07","name":"Rheinland-Pfalz"}},{"name":"Usedomstr.","postalCode":"56567","locality":"Neuwied","municipality":{"key":"07138045","name":"Neuwied, Stadt","type":"Stadt"},"district":{"key":"07138","name":"Neuwied","type":"Landkreis"},"federalState":{"key":"07","name":"Rheinland-Pfalz"}},{"name":"Veilchenstr.","postalCode":"56566","locality":"Neuwied","municipality":{"key":"07138045","name":"Neuwied, Stadt","type":"Stadt"},"district":{"key":"07138","name":"Neuwied","type":"Landkreis"},"federalState":{"key":"07","name":"Rheinland-Pfalz"}},{"name":"Venusstr.","postalCode":"56566","locality":"Neuwied","municipality":{"key":"07138045","name":"Neuwied, Stadt","type":"Stadt"},"district":{"key":"07138","name":"Neuwied","type":"Landkreis"},"federalState":{"key":"07","name":"Rheinland-Pfalz"}},{"name":"Vikunjas","postalCode":"56566","locality":"Neuwied","municipality":{"key":"07138045","name":"Neuwied, Stadt","type":"Stadt"},"district":{"key":"07138","name":"Neuwied","type":"Landkreis"},"federalState":{"key":"07","name":"Rheinland-Pfalz"}},{"name":"Virchowweg","postalCode":"56566","locality":"Neuwied","municipality":{"key":"07138045","name":"Neuwied, Stadt","type":"Stadt"},"district":{"key":"07138","name":"Neuwied","type":"Landkreis"},"federalState":{"key":"07","name":"Rheinland-Pfalz"}},{"name":"Vogteistr.","postalCode":"56567","locality":"Neuwied","municipality":{"key":"07138045","name":"Neuwied, Stadt","type":"Stadt"},"district":{"key":"07138","name":"Neuwied","type":"Landkreis"},"federalState":{"key":"07","name":"Rheinland-Pfalz"}},{"name":"Volberskroog","postalCode":"56566","locality":"Neuwied","municipality":{"key":"07138045","name":"Neuwied, Stadt","type":"Stadt"},"district":{"key":"07138","name":"Neuwied","type":"Landkreis"},"federalState":{"key":"07","name":"Rheinland-Pfalz"}},{"name":"Von-der-Leyen-Str.","postalCode":"56567","locality":"Neuwied","municipality":{"key":"07138045","name":"Neuwied, Stadt","type":"Stadt"},"district":{"key":"07138","name":"Neuwied","type":"Landkreis"},"federalState":{"key":"07","name":"Rheinland-Pfalz"}},{"name":"Von-Ebner-Eschenbach-Str.","postalCode":"56567","locality":"Neuwied","municipality":{"key":"07138045","name":"Neuwied, Stadt","type":"Stadt"},"district":{"key":"07138","name":"Neuwied","type":"Landkreis"},"federalState":{"key":"07","name":"Rheinland-Pfalz"}},{"name":"Von-Eichendorff-Str.","postalCode":"56567","locality":"Neuwied","municipality":{"key":"07138045","name":"Neuwied, Stadt","type":"Stadt"},"district":{"key":"07138","name":"Neuwied","type":"Landkreis"},"federalState":{"key":"07","name":"Rheinland-Pfalz"}},{"name":"Von-Runkel-Platz","postalCode":"56564","locality":"Neuwied","municipality":{"key":"07138045","name":"Neuwied, Stadt","type":"Stadt"},"district":{"key":"07138","name":"Neuwied","type":"Landkreis"},"federalState":{"key":"07","name":"Rheinland-Pfalz"}},{"name":"Von-Stauffenberg-Str.","postalCode":"56567","locality":"Neuwied","municipality":{"key":"07138045","name":"Neuwied, Stadt","type":"Stadt"},"district":{"key":"07138","name":"Neuwied","type":"Landkreis"},"federalState":{"key":"07","name":"Rheinland-Pfalz"}},{"name":"Vor dem Damm","postalCode":"56564","locality":"Neuwied","municipality":{"key":"07138045","name":"Neuwied, Stadt","type":"Stadt"},"district":{"key":"07138","name":"Neuwied","type":"Landkreis"},"federalState":{"key":"07","name":"Rheinland-Pfalz"}},{"name":"Waldstr.","postalCode":"56307","locality":"Dernbach","municipality":{"key":"07138011","name":"Dernbach","type":"Kreisangehörige_Gemeinde"},"district":{"key":"07138","name":"Neuwied","type":"Landkreis"},"federalState":{"key":"07","name":"Rheinland-Pfalz"}},{"name":"Weg D3","postalCode":"76857","locality":"Dernbach","municipality":{"key":"07337017","name":"Dernbach","type":"Kreisangehörige_Gemeinde"},"district":{"key":"07337","name":"Südliche Weinstraße","type":"Landkreis"},"federalState":{"key":"07","name":"Rheinland-Pfalz"}},{"name":"Wiesenstr.","postalCode":"56307","locality":"Dernbach","municipality":{"key":"07138011","name":"Dernbach","type":"Kreisangehörige_Gemeinde"},"district":{"key":"07138","name":"Neuwied","type":"Landkreis"},"federalState":{"key":"07","name":"Rheinland-Pfalz"}},{"name":"Zum Heilborn","postalCode":"56428","locality":"Dernbach (Westerwald)","municipality":{"key":"07143010","name":"Dernbach (Westerwald)","type":"Kreisangehörige_Gemeinde"},"district":{"key":"07143","name":"Westerwaldkreis","type":"Landkreis"},"federalState":{"key":"07","name":"Rheinland-Pfalz"}},{"name":"Über dem Aubach","postalCode":"56566","locality":"Neuwied","municipality":{"key":"07138045","name":"Neuwied, Stadt","type":"Stadt"},"district":{"key":"07138","name":"Neuwied","type":"Landkreis"},"federalState":{"key":"07","name":"Rheinland-Pfalz"}},]