[{"key":"10255617","name":"Alt Chirchwäg","postalCode":"3984","locality":"Fieschertal","commune":{"key":"6058","name":"Fieschertal","shortName":"Fieschertal"},"district":{"key":"2304","name":"Bezirk Goms"},"canton":{"key":"23","code":"VS","name":"Valais / Wallis"},"status":"Real"},{"key":"10255619","name":"Blattweg","postalCode":"3984","locality":"Fieschertal","commune":{"key":"6058","name":"Fieschertal","shortName":"Fieschertal"},"district":{"key":"2304","name":"Bezirk Goms"},"canton":{"key":"23","code":"VS","name":"Valais / Wallis"},"status":"Real"},{"key":"10144100","name":"Bregeraweg","postalCode":"3984","locality":"Fieschertal","commune":{"key":"6058","name":"Fieschertal","shortName":"Fieschertal"},"district":{"key":"2304","name":"Bezirk Goms"},"canton":{"key":"23","code":"VS","name":"Valais / Wallis"},"status":"Real"},{"key":"10154928","name":"Dorfplatz","postalCode":"3984","locality":"Fieschertal","commune":{"key":"6058","name":"Fieschertal","shortName":"Fieschertal"},"district":{"key":"2304","name":"Bezirk Goms"},"canton":{"key":"23","code":"VS","name":"Valais / Wallis"},"status":"Real"},{"key":"10255620","name":"Eggaweg","postalCode":"3984","locality":"Fieschertal","commune":{"key":"6058","name":"Fieschertal","shortName":"Fieschertal"},"district":{"key":"2304","name":"Bezirk Goms"},"canton":{"key":"23","code":"VS","name":"Valais / Wallis"},"status":"Real"},{"key":"10255621","name":"Faarni","postalCode":"3984","locality":"Fieschertal","commune":{"key":"6058","name":"Fieschertal","shortName":"Fieschertal"},"district":{"key":"2304","name":"Bezirk Goms"},"canton":{"key":"23","code":"VS","name":"Valais / Wallis"},"status":"Real"},{"key":"10166559","name":"Fieschertalstrasse","postalCode":"3984","locality":"Fieschertal","commune":{"key":"6058","name":"Fieschertal","shortName":"Fieschertal"},"district":{"key":"2304","name":"Bezirk Goms"},"canton":{"key":"23","code":"VS","name":"Valais / Wallis"},"status":"Real"},{"key":"10255622","name":"Forststrasse","postalCode":"3984","locality":"Fieschertal","commune":{"key":"6058","name":"Fieschertal","shortName":"Fieschertal"},"district":{"key":"2304","name":"Bezirk Goms"},"canton":{"key":"23","code":"VS","name":"Valais / Wallis"},"status":"Real"},{"key":"10255623","name":"Gandweg","postalCode":"3984","locality":"Fieschertal","commune":{"key":"6058","name":"Fieschertal","shortName":"Fieschertal"},"district":{"key":"2304","name":"Bezirk Goms"},"canton":{"key":"23","code":"VS","name":"Valais / Wallis"},"status":"Real"},{"key":"10255634","name":"Geerestrasse","postalCode":"3984","locality":"Fieschertal","commune":{"key":"6058","name":"Fieschertal","shortName":"Fieschertal"},"district":{"key":"2304","name":"Bezirk Goms"},"canton":{"key":"23","code":"VS","name":"Valais / Wallis"},"status":"Real"},{"key":"10255624","name":"Haltaweg","postalCode":"3984","locality":"Fieschertal","commune":{"key":"6058","name":"Fieschertal","shortName":"Fieschertal"},"district":{"key":"2304","name":"Bezirk Goms"},"canton":{"key":"23","code":"VS","name":"Valais / Wallis"},"status":"Real"},{"key":"10085320","name":"Lambriggenstrasse","postalCode":"3984","locality":"Fieschertal","commune":{"key":"6058","name":"Fieschertal","shortName":"Fieschertal"},"district":{"key":"2304","name":"Bezirk Goms"},"canton":{"key":"23","code":"VS","name":"Valais / Wallis"},"status":"Real"},{"key":"10255625","name":"Löuwenastrasse","postalCode":"3984","locality":"Fieschertal","commune":{"key":"6058","name":"Fieschertal","shortName":"Fieschertal"},"district":{"key":"2304","name":"Bezirk Goms"},"canton":{"key":"23","code":"VS","name":"Valais / Wallis"},"status":"Real"},{"key":"10129414","name":"Lussstrasse","postalCode":"3984","locality":"Fieschertal","commune":{"key":"6058","name":"Fieschertal","shortName":"Fieschertal"},"district":{"key":"2304","name":"Bezirk Goms"},"canton":{"key":"23","code":"VS","name":"Valais / Wallis"},"status":"Real"},{"key":"10255626","name":"Riedweg","postalCode":"3984","locality":"Fieschertal","commune":{"key":"6058","name":"Fieschertal","shortName":"Fieschertal"},"district":{"key":"2304","name":"Bezirk Goms"},"canton":{"key":"23","code":"VS","name":"Valais / Wallis"},"status":"Real"},{"key":"10255627","name":"Sandweg","postalCode":"3984","locality":"Fieschertal","commune":{"key":"6058","name":"Fieschertal","shortName":"Fieschertal"},"district":{"key":"2304","name":"Bezirk Goms"},"canton":{"key":"23","code":"VS","name":"Valais / Wallis"},"status":"Real"},{"key":"10255628","name":"Sportplatzweg","postalCode":"3984","locality":"Fieschertal","commune":{"key":"6058","name":"Fieschertal","shortName":"Fieschertal"},"district":{"key":"2304","name":"Bezirk Goms"},"canton":{"key":"23","code":"VS","name":"Valais / Wallis"},"status":"Real"},{"key":"10255629","name":"Titterweg","postalCode":"3984","locality":"Fieschertal","commune":{"key":"6058","name":"Fieschertal","shortName":"Fieschertal"},"district":{"key":"2304","name":"Bezirk Goms"},"canton":{"key":"23","code":"VS","name":"Valais / Wallis"},"status":"Real"},{"key":"10255630","name":"Unterbergstrasse","postalCode":"3984","locality":"Fieschertal","commune":{"key":"6058","name":"Fieschertal","shortName":"Fieschertal"},"district":{"key":"2304","name":"Bezirk Goms"},"canton":{"key":"23","code":"VS","name":"Valais / Wallis"},"status":"Real"},{"key":"10255631","name":"Weisswasserweg","postalCode":"3984","locality":"Fieschertal","commune":{"key":"6058","name":"Fieschertal","shortName":"Fieschertal"},"district":{"key":"2304","name":"Bezirk Goms"},"canton":{"key":"23","code":"VS","name":"Valais / Wallis"},"status":"Real"},{"key":"10166560","name":"Wichelstrasse","postalCode":"3984","locality":"Fieschertal","commune":{"key":"6058","name":"Fieschertal","shortName":"Fieschertal"},"district":{"key":"2304","name":"Bezirk Goms"},"canton":{"key":"23","code":"VS","name":"Valais / Wallis"},"status":"Real"},{"key":"10255632","name":"Wichelwaldweg","postalCode":"3984","locality":"Fieschertal","commune":{"key":"6058","name":"Fieschertal","shortName":"Fieschertal"},"district":{"key":"2304","name":"Bezirk Goms"},"canton":{"key":"23","code":"VS","name":"Valais / Wallis"},"status":"Real"},{"key":"10154927","name":"Wichelweg","postalCode":"3984","locality":"Fieschertal","commune":{"key":"6058","name":"Fieschertal","shortName":"Fieschertal"},"district":{"key":"2304","name":"Bezirk Goms"},"canton":{"key":"23","code":"VS","name":"Valais / Wallis"},"status":"Real"},{"key":"10102366","name":"Zer Brigge","postalCode":"3984","locality":"Fieschertal","commune":{"key":"6058","name":"Fieschertal","shortName":"Fieschertal"},"district":{"key":"2304","name":"Bezirk Goms"},"canton":{"key":"23","code":"VS","name":"Valais / Wallis"},"status":"Real"},{"key":"10085322","name":"Zer Fliestrasse","postalCode":"3984","locality":"Fieschertal","commune":{"key":"6058","name":"Fieschertal","shortName":"Fieschertal"},"district":{"key":"2304","name":"Bezirk Goms"},"canton":{"key":"23","code":"VS","name":"Valais / Wallis"},"status":"Real"},]