[{"name":"Abtsgasse","postalCode":"55283","locality":"Nierstein","municipality":{"key":"07339043","name":"Nierstein, Stadt","type":"Stadt"},"district":{"key":"07339","name":"Mainz-Bingen","type":"Landkreis"},"federalState":{"key":"07","name":"Rheinland-Pfalz"}},{"name":"Albert-Schweitzer-Str.","postalCode":"55283","locality":"Nierstein","municipality":{"key":"07339043","name":"Nierstein, Stadt","type":"Stadt"},"district":{"key":"07339","name":"Mainz-Bingen","type":"Landkreis"},"federalState":{"key":"07","name":"Rheinland-Pfalz"}},{"name":"Am Brückchen","postalCode":"55283","locality":"Nierstein","municipality":{"key":"07339043","name":"Nierstein, Stadt","type":"Stadt"},"district":{"key":"07339","name":"Mainz-Bingen","type":"Landkreis"},"federalState":{"key":"07","name":"Rheinland-Pfalz"}},{"name":"Am Brünnchen","postalCode":"55283","locality":"Nierstein","municipality":{"key":"07339043","name":"Nierstein, Stadt","type":"Stadt"},"district":{"key":"07339","name":"Mainz-Bingen","type":"Landkreis"},"federalState":{"key":"07","name":"Rheinland-Pfalz"}},{"name":"Am Dalberger Schloss","postalCode":"55283","locality":"Nierstein","municipality":{"key":"07339043","name":"Nierstein, Stadt","type":"Stadt"},"district":{"key":"07339","name":"Mainz-Bingen","type":"Landkreis"},"federalState":{"key":"07","name":"Rheinland-Pfalz"}},{"name":"Am Fahrt","postalCode":"55283","locality":"Nierstein","municipality":{"key":"07339043","name":"Nierstein, Stadt","type":"Stadt"},"district":{"key":"07339","name":"Mainz-Bingen","type":"Landkreis"},"federalState":{"key":"07","name":"Rheinland-Pfalz"}},{"name":"Am Hummertal","postalCode":"55283","locality":"Nierstein","municipality":{"key":"07339043","name":"Nierstein, Stadt","type":"Stadt"},"district":{"key":"07339","name":"Mainz-Bingen","type":"Landkreis"},"federalState":{"key":"07","name":"Rheinland-Pfalz"}},{"name":"Am langen Rech","postalCode":"55283","locality":"Nierstein","municipality":{"key":"07339043","name":"Nierstein, Stadt","type":"Stadt"},"district":{"key":"07339","name":"Mainz-Bingen","type":"Landkreis"},"federalState":{"key":"07","name":"Rheinland-Pfalz"}},{"name":"Am Paterberg","postalCode":"55283","locality":"Nierstein","municipality":{"key":"07339043","name":"Nierstein, Stadt","type":"Stadt"},"district":{"key":"07339","name":"Mainz-Bingen","type":"Landkreis"},"federalState":{"key":"07","name":"Rheinland-Pfalz"}},{"name":"Am Sportplatz","postalCode":"55283","locality":"Nierstein","municipality":{"key":"07339043","name":"Nierstein, Stadt","type":"Stadt"},"district":{"key":"07339","name":"Mainz-Bingen","type":"Landkreis"},"federalState":{"key":"07","name":"Rheinland-Pfalz"}},{"name":"Am Tafelstein","postalCode":"55283","locality":"Nierstein","municipality":{"key":"07339043","name":"Nierstein, Stadt","type":"Stadt"},"district":{"key":"07339","name":"Mainz-Bingen","type":"Landkreis"},"federalState":{"key":"07","name":"Rheinland-Pfalz"}},{"name":"Am Ziegelofen","postalCode":"55283","locality":"Nierstein","municipality":{"key":"07339043","name":"Nierstein, Stadt","type":"Stadt"},"district":{"key":"07339","name":"Mainz-Bingen","type":"Landkreis"},"federalState":{"key":"07","name":"Rheinland-Pfalz"}},{"name":"An der Bergkirche","postalCode":"55283","locality":"Nierstein","municipality":{"key":"07339043","name":"Nierstein, Stadt","type":"Stadt"},"district":{"key":"07339","name":"Mainz-Bingen","type":"Landkreis"},"federalState":{"key":"07","name":"Rheinland-Pfalz"}},{"name":"An der Bleiche","postalCode":"55283","locality":"Nierstein","municipality":{"key":"07339043","name":"Nierstein, Stadt","type":"Stadt"},"district":{"key":"07339","name":"Mainz-Bingen","type":"Landkreis"},"federalState":{"key":"07","name":"Rheinland-Pfalz"}},{"name":"An der Glöck","postalCode":"55283","locality":"Nierstein","municipality":{"key":"07339043","name":"Nierstein, Stadt","type":"Stadt"},"district":{"key":"07339","name":"Mainz-Bingen","type":"Landkreis"},"federalState":{"key":"07","name":"Rheinland-Pfalz"}},{"name":"An der Kaiserlinde","postalCode":"55283","locality":"Nierstein","municipality":{"key":"07339043","name":"Nierstein, Stadt","type":"Stadt"},"district":{"key":"07339","name":"Mainz-Bingen","type":"Landkreis"},"federalState":{"key":"07","name":"Rheinland-Pfalz"}},{"name":"An der Riedmühle","postalCode":"55283","locality":"Nierstein","municipality":{"key":"07339043","name":"Nierstein, Stadt","type":"Stadt"},"district":{"key":"07339","name":"Mainz-Bingen","type":"Landkreis"},"federalState":{"key":"07","name":"Rheinland-Pfalz"}},{"name":"Anna-Seghers-Str.","postalCode":"55283","locality":"Nierstein","municipality":{"key":"07339043","name":"Nierstein, Stadt","type":"Stadt"},"district":{"key":"07339","name":"Mainz-Bingen","type":"Landkreis"},"federalState":{"key":"07","name":"Rheinland-Pfalz"}},{"name":"Auflangenstr.","postalCode":"55283","locality":"Nierstein","municipality":{"key":"07339043","name":"Nierstein, Stadt","type":"Stadt"},"district":{"key":"07339","name":"Mainz-Bingen","type":"Landkreis"},"federalState":{"key":"07","name":"Rheinland-Pfalz"}},{"name":"Außerhalb Schwabsburg","postalCode":"55283","locality":"Nierstein","municipality":{"key":"07339043","name":"Nierstein, Stadt","type":"Stadt"},"district":{"key":"07339","name":"Mainz-Bingen","type":"Landkreis"},"federalState":{"key":"07","name":"Rheinland-Pfalz"}},{"name":"Bachgasse","postalCode":"55283","locality":"Nierstein","municipality":{"key":"07339043","name":"Nierstein, Stadt","type":"Stadt"},"district":{"key":"07339","name":"Mainz-Bingen","type":"Landkreis"},"federalState":{"key":"07","name":"Rheinland-Pfalz"}},{"name":"Backhausstr.","postalCode":"55283","locality":"Nierstein","municipality":{"key":"07339043","name":"Nierstein, Stadt","type":"Stadt"},"district":{"key":"07339","name":"Mainz-Bingen","type":"Landkreis"},"federalState":{"key":"07","name":"Rheinland-Pfalz"}},{"name":"Bahnpfad","postalCode":"55283","locality":"Nierstein","municipality":{"key":"07339043","name":"Nierstein, Stadt","type":"Stadt"},"district":{"key":"07339","name":"Mainz-Bingen","type":"Landkreis"},"federalState":{"key":"07","name":"Rheinland-Pfalz"}},{"name":"Beethovenring","postalCode":"55283","locality":"Nierstein","municipality":{"key":"07339043","name":"Nierstein, Stadt","type":"Stadt"},"district":{"key":"07339","name":"Mainz-Bingen","type":"Landkreis"},"federalState":{"key":"07","name":"Rheinland-Pfalz"}},{"name":"Berliner Str.","postalCode":"55283","locality":"Nierstein","municipality":{"key":"07339043","name":"Nierstein, Stadt","type":"Stadt"},"district":{"key":"07339","name":"Mainz-Bingen","type":"Landkreis"},"federalState":{"key":"07","name":"Rheinland-Pfalz"}},{"name":"Bildstockhohl","postalCode":"55283","locality":"Nierstein","municipality":{"key":"07339043","name":"Nierstein, Stadt","type":"Stadt"},"district":{"key":"07339","name":"Mainz-Bingen","type":"Landkreis"},"federalState":{"key":"07","name":"Rheinland-Pfalz"}},{"name":"Bildstockstr.","postalCode":"55283","locality":"Nierstein","municipality":{"key":"07339043","name":"Nierstein, Stadt","type":"Stadt"},"district":{"key":"07339","name":"Mainz-Bingen","type":"Landkreis"},"federalState":{"key":"07","name":"Rheinland-Pfalz"}},{"name":"Bleichweg","postalCode":"55283","locality":"Nierstein","municipality":{"key":"07339043","name":"Nierstein, Stadt","type":"Stadt"},"district":{"key":"07339","name":"Mainz-Bingen","type":"Landkreis"},"federalState":{"key":"07","name":"Rheinland-Pfalz"}},{"name":"Boschstr.","postalCode":"55283","locality":"Nierstein","municipality":{"key":"07339043","name":"Nierstein, Stadt","type":"Stadt"},"district":{"key":"07339","name":"Mainz-Bingen","type":"Landkreis"},"federalState":{"key":"07","name":"Rheinland-Pfalz"}},{"name":"Breitgasse","postalCode":"55283","locality":"Nierstein","municipality":{"key":"07339043","name":"Nierstein, Stadt","type":"Stadt"},"district":{"key":"07339","name":"Mainz-Bingen","type":"Landkreis"},"federalState":{"key":"07","name":"Rheinland-Pfalz"}},{"name":"Burgunderstr.","postalCode":"55283","locality":"Nierstein","municipality":{"key":"07339043","name":"Nierstein, Stadt","type":"Stadt"},"district":{"key":"07339","name":"Mainz-Bingen","type":"Landkreis"},"federalState":{"key":"07","name":"Rheinland-Pfalz"}},{"name":"Burgweg","postalCode":"55283","locality":"Nierstein","municipality":{"key":"07339043","name":"Nierstein, Stadt","type":"Stadt"},"district":{"key":"07339","name":"Mainz-Bingen","type":"Landkreis"},"federalState":{"key":"07","name":"Rheinland-Pfalz"}},{"name":"Corneliusstr.","postalCode":"55283","locality":"Nierstein","municipality":{"key":"07339043","name":"Nierstein, Stadt","type":"Stadt"},"district":{"key":"07339","name":"Mainz-Bingen","type":"Landkreis"},"federalState":{"key":"07","name":"Rheinland-Pfalz"}},{"name":"Dammgasse","postalCode":"55283","locality":"Nierstein","municipality":{"key":"07339043","name":"Nierstein, Stadt","type":"Stadt"},"district":{"key":"07339","name":"Mainz-Bingen","type":"Landkreis"},"federalState":{"key":"07","name":"Rheinland-Pfalz"}},{"name":"Daubhausstr.","postalCode":"55283","locality":"Nierstein","municipality":{"key":"07339043","name":"Nierstein, Stadt","type":"Stadt"},"district":{"key":"07339","name":"Mainz-Bingen","type":"Landkreis"},"federalState":{"key":"07","name":"Rheinland-Pfalz"}},{"name":"Dietrich-Bonhoeffer-Str.","postalCode":"55283","locality":"Nierstein","municipality":{"key":"07339043","name":"Nierstein, Stadt","type":"Stadt"},"district":{"key":"07339","name":"Mainz-Bingen","type":"Landkreis"},"federalState":{"key":"07","name":"Rheinland-Pfalz"}},{"name":"Elisabethenstr.","postalCode":"55283","locality":"Nierstein","municipality":{"key":"07339043","name":"Nierstein, Stadt","type":"Stadt"},"district":{"key":"07339","name":"Mainz-Bingen","type":"Landkreis"},"federalState":{"key":"07","name":"Rheinland-Pfalz"}},{"name":"Ernst-Ludwig-Str.","postalCode":"55283","locality":"Nierstein","municipality":{"key":"07339043","name":"Nierstein, Stadt","type":"Stadt"},"district":{"key":"07339","name":"Mainz-Bingen","type":"Landkreis"},"federalState":{"key":"07","name":"Rheinland-Pfalz"}},{"name":"Ernst-Wernher-Str.","postalCode":"55283","locality":"Nierstein","municipality":{"key":"07339043","name":"Nierstein, Stadt","type":"Stadt"},"district":{"key":"07339","name":"Mainz-Bingen","type":"Landkreis"},"federalState":{"key":"07","name":"Rheinland-Pfalz"}},{"name":"Fabrikpfad","postalCode":"55283","locality":"Nierstein","municipality":{"key":"07339043","name":"Nierstein, Stadt","type":"Stadt"},"district":{"key":"07339","name":"Mainz-Bingen","type":"Landkreis"},"federalState":{"key":"07","name":"Rheinland-Pfalz"}},{"name":"Fäulingstr.","postalCode":"55283","locality":"Nierstein","municipality":{"key":"07339043","name":"Nierstein, Stadt","type":"Stadt"},"district":{"key":"07339","name":"Mainz-Bingen","type":"Landkreis"},"federalState":{"key":"07","name":"Rheinland-Pfalz"}},{"name":"Flügelgasse","postalCode":"55283","locality":"Nierstein","municipality":{"key":"07339043","name":"Nierstein, Stadt","type":"Stadt"},"district":{"key":"07339","name":"Mainz-Bingen","type":"Landkreis"},"federalState":{"key":"07","name":"Rheinland-Pfalz"}},{"name":"Freyburger Allee","postalCode":"55283","locality":"Nierstein","municipality":{"key":"07339043","name":"Nierstein, Stadt","type":"Stadt"},"district":{"key":"07339","name":"Mainz-Bingen","type":"Landkreis"},"federalState":{"key":"07","name":"Rheinland-Pfalz"}},{"name":"Fronhof","postalCode":"55283","locality":"Nierstein","municipality":{"key":"07339043","name":"Nierstein, Stadt","type":"Stadt"},"district":{"key":"07339","name":"Mainz-Bingen","type":"Landkreis"},"federalState":{"key":"07","name":"Rheinland-Pfalz"}},{"name":"Froschmühlweg","postalCode":"55283","locality":"Nierstein","municipality":{"key":"07339043","name":"Nierstein, Stadt","type":"Stadt"},"district":{"key":"07339","name":"Mainz-Bingen","type":"Landkreis"},"federalState":{"key":"07","name":"Rheinland-Pfalz"}},{"name":"Gartengasse","postalCode":"55283","locality":"Nierstein","municipality":{"key":"07339043","name":"Nierstein, Stadt","type":"Stadt"},"district":{"key":"07339","name":"Mainz-Bingen","type":"Landkreis"},"federalState":{"key":"07","name":"Rheinland-Pfalz"}},{"name":"Geismarer Hof","postalCode":"55283","locality":"Nierstein","municipality":{"key":"07339043","name":"Nierstein, Stadt","type":"Stadt"},"district":{"key":"07339","name":"Mainz-Bingen","type":"Landkreis"},"federalState":{"key":"07","name":"Rheinland-Pfalz"}},{"name":"Georg-Schneider-Str.","postalCode":"55283","locality":"Nierstein","municipality":{"key":"07339043","name":"Nierstein, Stadt","type":"Stadt"},"district":{"key":"07339","name":"Mainz-Bingen","type":"Landkreis"},"federalState":{"key":"07","name":"Rheinland-Pfalz"}},{"name":"Georgstr.","postalCode":"55283","locality":"Nierstein","municipality":{"key":"07339043","name":"Nierstein, Stadt","type":"Stadt"},"district":{"key":"07339","name":"Mainz-Bingen","type":"Landkreis"},"federalState":{"key":"07","name":"Rheinland-Pfalz"}},{"name":"Glockengasse","postalCode":"55283","locality":"Nierstein","municipality":{"key":"07339043","name":"Nierstein, Stadt","type":"Stadt"},"district":{"key":"07339","name":"Mainz-Bingen","type":"Landkreis"},"federalState":{"key":"07","name":"Rheinland-Pfalz"}},{"name":"Goethestr.","postalCode":"55283","locality":"Nierstein","municipality":{"key":"07339043","name":"Nierstein, Stadt","type":"Stadt"},"district":{"key":"07339","name":"Mainz-Bingen","type":"Landkreis"},"federalState":{"key":"07","name":"Rheinland-Pfalz"}},{"name":"Große Fischergasse","postalCode":"55283","locality":"Nierstein","municipality":{"key":"07339043","name":"Nierstein, Stadt","type":"Stadt"},"district":{"key":"07339","name":"Mainz-Bingen","type":"Landkreis"},"federalState":{"key":"07","name":"Rheinland-Pfalz"}},{"name":"Gutenbergstr.","postalCode":"55283","locality":"Nierstein","municipality":{"key":"07339043","name":"Nierstein, Stadt","type":"Stadt"},"district":{"key":"07339","name":"Mainz-Bingen","type":"Landkreis"},"federalState":{"key":"07","name":"Rheinland-Pfalz"}},{"name":"Häfnergasse","postalCode":"55283","locality":"Nierstein","municipality":{"key":"07339043","name":"Nierstein, Stadt","type":"Stadt"},"district":{"key":"07339","name":"Mainz-Bingen","type":"Landkreis"},"federalState":{"key":"07","name":"Rheinland-Pfalz"}},{"name":"Hambachsreilchen","postalCode":"55283","locality":"Nierstein","municipality":{"key":"07339043","name":"Nierstein, Stadt","type":"Stadt"},"district":{"key":"07339","name":"Mainz-Bingen","type":"Landkreis"},"federalState":{"key":"07","name":"Rheinland-Pfalz"}},{"name":"Hauptstr.","postalCode":"55283","locality":"Nierstein","municipality":{"key":"07339043","name":"Nierstein, Stadt","type":"Stadt"},"district":{"key":"07339","name":"Mainz-Bingen","type":"Landkreis"},"federalState":{"key":"07","name":"Rheinland-Pfalz"}},{"name":"Heinrich-Heine-Str.","postalCode":"55283","locality":"Nierstein","municipality":{"key":"07339043","name":"Nierstein, Stadt","type":"Stadt"},"district":{"key":"07339","name":"Mainz-Bingen","type":"Landkreis"},"federalState":{"key":"07","name":"Rheinland-Pfalz"}},{"name":"Hesseneckstr.","postalCode":"55283","locality":"Nierstein","municipality":{"key":"07339043","name":"Nierstein, Stadt","type":"Stadt"},"district":{"key":"07339","name":"Mainz-Bingen","type":"Landkreis"},"federalState":{"key":"07","name":"Rheinland-Pfalz"}},{"name":"Heugasse","postalCode":"55283","locality":"Nierstein","municipality":{"key":"07339043","name":"Nierstein, Stadt","type":"Stadt"},"district":{"key":"07339","name":"Mainz-Bingen","type":"Landkreis"},"federalState":{"key":"07","name":"Rheinland-Pfalz"}},{"name":"Heyl'scher Garten","postalCode":"55283","locality":"Nierstein","municipality":{"key":"07339043","name":"Nierstein, Stadt","type":"Stadt"},"district":{"key":"07339","name":"Mainz-Bingen","type":"Landkreis"},"federalState":{"key":"07","name":"Rheinland-Pfalz"}},{"name":"Hinter Saal","postalCode":"55283","locality":"Nierstein","municipality":{"key":"07339043","name":"Nierstein, Stadt","type":"Stadt"},"district":{"key":"07339","name":"Mainz-Bingen","type":"Landkreis"},"federalState":{"key":"07","name":"Rheinland-Pfalz"}},{"name":"Hinter Sundheim","postalCode":"55283","locality":"Nierstein","municipality":{"key":"07339043","name":"Nierstein, Stadt","type":"Stadt"},"district":{"key":"07339","name":"Mainz-Bingen","type":"Landkreis"},"federalState":{"key":"07","name":"Rheinland-Pfalz"}},{"name":"Hoffmann-von-Fallersleben-Str.","postalCode":"55283","locality":"Nierstein","municipality":{"key":"07339043","name":"Nierstein, Stadt","type":"Stadt"},"district":{"key":"07339","name":"Mainz-Bingen","type":"Landkreis"},"federalState":{"key":"07","name":"Rheinland-Pfalz"}},{"name":"Im Bacchuswinkel","postalCode":"55283","locality":"Nierstein","municipality":{"key":"07339043","name":"Nierstein, Stadt","type":"Stadt"},"district":{"key":"07339","name":"Mainz-Bingen","type":"Landkreis"},"federalState":{"key":"07","name":"Rheinland-Pfalz"}},{"name":"Im Leimen","postalCode":"55283","locality":"Nierstein","municipality":{"key":"07339043","name":"Nierstein, Stadt","type":"Stadt"},"district":{"key":"07339","name":"Mainz-Bingen","type":"Landkreis"},"federalState":{"key":"07","name":"Rheinland-Pfalz"}},{"name":"Im Pfaffengarten","postalCode":"55283","locality":"Nierstein","municipality":{"key":"07339043","name":"Nierstein, Stadt","type":"Stadt"},"district":{"key":"07339","name":"Mainz-Bingen","type":"Landkreis"},"federalState":{"key":"07","name":"Rheinland-Pfalz"}},{"name":"In den Weingärten","postalCode":"55283","locality":"Nierstein","municipality":{"key":"07339043","name":"Nierstein, Stadt","type":"Stadt"},"district":{"key":"07339","name":"Mainz-Bingen","type":"Landkreis"},"federalState":{"key":"07","name":"Rheinland-Pfalz"}},{"name":"Jahnreilchen","postalCode":"55283","locality":"Nierstein","municipality":{"key":"07339043","name":"Nierstein, Stadt","type":"Stadt"},"district":{"key":"07339","name":"Mainz-Bingen","type":"Landkreis"},"federalState":{"key":"07","name":"Rheinland-Pfalz"}},{"name":"Jahnstr.","postalCode":"55283","locality":"Nierstein","municipality":{"key":"07339043","name":"Nierstein, Stadt","type":"Stadt"},"district":{"key":"07339","name":"Mainz-Bingen","type":"Landkreis"},"federalState":{"key":"07","name":"Rheinland-Pfalz"}},{"name":"Karlmann-Steige","postalCode":"55283","locality":"Nierstein","municipality":{"key":"07339043","name":"Nierstein, Stadt","type":"Stadt"},"district":{"key":"07339","name":"Mainz-Bingen","type":"Landkreis"},"federalState":{"key":"07","name":"Rheinland-Pfalz"}},{"name":"Karolingerstr.","postalCode":"55283","locality":"Nierstein","municipality":{"key":"07339043","name":"Nierstein, Stadt","type":"Stadt"},"district":{"key":"07339","name":"Mainz-Bingen","type":"Landkreis"},"federalState":{"key":"07","name":"Rheinland-Pfalz"}},{"name":"Keltergasse","postalCode":"55283","locality":"Nierstein","municipality":{"key":"07339043","name":"Nierstein, Stadt","type":"Stadt"},"district":{"key":"07339","name":"Mainz-Bingen","type":"Landkreis"},"federalState":{"key":"07","name":"Rheinland-Pfalz"}},{"name":"Kernerweg","postalCode":"55283","locality":"Nierstein","municipality":{"key":"07339043","name":"Nierstein, Stadt","type":"Stadt"},"district":{"key":"07339","name":"Mainz-Bingen","type":"Landkreis"},"federalState":{"key":"07","name":"Rheinland-Pfalz"}},{"name":"Kiliansweg","postalCode":"55283","locality":"Nierstein","municipality":{"key":"07339043","name":"Nierstein, Stadt","type":"Stadt"},"district":{"key":"07339","name":"Mainz-Bingen","type":"Landkreis"},"federalState":{"key":"07","name":"Rheinland-Pfalz"}},{"name":"Kirchstr.","postalCode":"55283","locality":"Nierstein","municipality":{"key":"07339043","name":"Nierstein, Stadt","type":"Stadt"},"district":{"key":"07339","name":"Mainz-Bingen","type":"Landkreis"},"federalState":{"key":"07","name":"Rheinland-Pfalz"}},{"name":"Kleine Fischergasse","postalCode":"55283","locality":"Nierstein","municipality":{"key":"07339043","name":"Nierstein, Stadt","type":"Stadt"},"district":{"key":"07339","name":"Mainz-Bingen","type":"Landkreis"},"federalState":{"key":"07","name":"Rheinland-Pfalz"}},{"name":"Kolpingstr.","postalCode":"55283","locality":"Nierstein","municipality":{"key":"07339043","name":"Nierstein, Stadt","type":"Stadt"},"district":{"key":"07339","name":"Mainz-Bingen","type":"Landkreis"},"federalState":{"key":"07","name":"Rheinland-Pfalz"}},{"name":"Kreuzgasse","postalCode":"55283","locality":"Nierstein","municipality":{"key":"07339043","name":"Nierstein, Stadt","type":"Stadt"},"district":{"key":"07339","name":"Mainz-Bingen","type":"Landkreis"},"federalState":{"key":"07","name":"Rheinland-Pfalz"}},{"name":"Laidlebstr.","postalCode":"55283","locality":"Nierstein","municipality":{"key":"07339043","name":"Nierstein, Stadt","type":"Stadt"},"district":{"key":"07339","name":"Mainz-Bingen","type":"Landkreis"},"federalState":{"key":"07","name":"Rheinland-Pfalz"}},{"name":"Langgasse","postalCode":"55283","locality":"Nierstein","municipality":{"key":"07339043","name":"Nierstein, Stadt","type":"Stadt"},"district":{"key":"07339","name":"Mainz-Bingen","type":"Landkreis"},"federalState":{"key":"07","name":"Rheinland-Pfalz"}},{"name":"Leipziger Str.","postalCode":"55283","locality":"Nierstein","municipality":{"key":"07339043","name":"Nierstein, Stadt","type":"Stadt"},"district":{"key":"07339","name":"Mainz-Bingen","type":"Landkreis"},"federalState":{"key":"07","name":"Rheinland-Pfalz"}},{"name":"Leonorenstr.","postalCode":"55283","locality":"Nierstein","municipality":{"key":"07339043","name":"Nierstein, Stadt","type":"Stadt"},"district":{"key":"07339","name":"Mainz-Bingen","type":"Landkreis"},"federalState":{"key":"07","name":"Rheinland-Pfalz"}},{"name":"Liebigweg","postalCode":"55283","locality":"Nierstein","municipality":{"key":"07339043","name":"Nierstein, Stadt","type":"Stadt"},"district":{"key":"07339","name":"Mainz-Bingen","type":"Landkreis"},"federalState":{"key":"07","name":"Rheinland-Pfalz"}},{"name":"Lilienstr.","postalCode":"55283","locality":"Nierstein","municipality":{"key":"07339043","name":"Nierstein, Stadt","type":"Stadt"},"district":{"key":"07339","name":"Mainz-Bingen","type":"Landkreis"},"federalState":{"key":"07","name":"Rheinland-Pfalz"}},{"name":"Magdeburger Str.","postalCode":"55283","locality":"Nierstein","municipality":{"key":"07339043","name":"Nierstein, Stadt","type":"Stadt"},"district":{"key":"07339","name":"Mainz-Bingen","type":"Landkreis"},"federalState":{"key":"07","name":"Rheinland-Pfalz"}},{"name":"Mailonweg","postalCode":"55283","locality":"Nierstein","municipality":{"key":"07339043","name":"Nierstein, Stadt","type":"Stadt"},"district":{"key":"07339","name":"Mainz-Bingen","type":"Landkreis"},"federalState":{"key":"07","name":"Rheinland-Pfalz"}},{"name":"Mainstr.","postalCode":"55283","locality":"Nierstein","municipality":{"key":"07339043","name":"Nierstein, Stadt","type":"Stadt"},"district":{"key":"07339","name":"Mainz-Bingen","type":"Landkreis"},"federalState":{"key":"07","name":"Rheinland-Pfalz"}},{"name":"Mainzer Str.","postalCode":"55283","locality":"Nierstein","municipality":{"key":"07339043","name":"Nierstein, Stadt","type":"Stadt"},"district":{"key":"07339","name":"Mainz-Bingen","type":"Landkreis"},"federalState":{"key":"07","name":"Rheinland-Pfalz"}},{"name":"Marktplatz","postalCode":"55283","locality":"Nierstein","municipality":{"key":"07339043","name":"Nierstein, Stadt","type":"Stadt"},"district":{"key":"07339","name":"Mainz-Bingen","type":"Landkreis"},"federalState":{"key":"07","name":"Rheinland-Pfalz"}},{"name":"Mozartstr.","postalCode":"55283","locality":"Nierstein","municipality":{"key":"07339043","name":"Nierstein, Stadt","type":"Stadt"},"district":{"key":"07339","name":"Mainz-Bingen","type":"Landkreis"},"federalState":{"key":"07","name":"Rheinland-Pfalz"}},{"name":"Mühlgasse","postalCode":"55283","locality":"Nierstein","municipality":{"key":"07339043","name":"Nierstein, Stadt","type":"Stadt"},"district":{"key":"07339","name":"Mainz-Bingen","type":"Landkreis"},"federalState":{"key":"07","name":"Rheinland-Pfalz"}},{"name":"Müller-Thurgau-Weg","postalCode":"55283","locality":"Nierstein","municipality":{"key":"07339043","name":"Nierstein, Stadt","type":"Stadt"},"district":{"key":"07339","name":"Mainz-Bingen","type":"Landkreis"},"federalState":{"key":"07","name":"Rheinland-Pfalz"}},{"name":"Nahestr.","postalCode":"55283","locality":"Nierstein","municipality":{"key":"07339043","name":"Nierstein, Stadt","type":"Stadt"},"district":{"key":"07339","name":"Mainz-Bingen","type":"Landkreis"},"federalState":{"key":"07","name":"Rheinland-Pfalz"}},{"name":"Neckarstr.","postalCode":"55283","locality":"Nierstein","municipality":{"key":"07339043","name":"Nierstein, Stadt","type":"Stadt"},"district":{"key":"07339","name":"Mainz-Bingen","type":"Landkreis"},"federalState":{"key":"07","name":"Rheinland-Pfalz"}},{"name":"Neubergstr.","postalCode":"55283","locality":"Nierstein","municipality":{"key":"07339043","name":"Nierstein, Stadt","type":"Stadt"},"district":{"key":"07339","name":"Mainz-Bingen","type":"Landkreis"},"federalState":{"key":"07","name":"Rheinland-Pfalz"}},{"name":"Neue Schmiedgasse","postalCode":"55283","locality":"Nierstein","municipality":{"key":"07339043","name":"Nierstein, Stadt","type":"Stadt"},"district":{"key":"07339","name":"Mainz-Bingen","type":"Landkreis"},"federalState":{"key":"07","name":"Rheinland-Pfalz"}},{"name":"Neunmorgenstr.","postalCode":"55283","locality":"Nierstein","municipality":{"key":"07339043","name":"Nierstein, Stadt","type":"Stadt"},"district":{"key":"07339","name":"Mainz-Bingen","type":"Landkreis"},"federalState":{"key":"07","name":"Rheinland-Pfalz"}},{"name":"Oberdorfstr.","postalCode":"55283","locality":"Nierstein","municipality":{"key":"07339043","name":"Nierstein, Stadt","type":"Stadt"},"district":{"key":"07339","name":"Mainz-Bingen","type":"Landkreis"},"federalState":{"key":"07","name":"Rheinland-Pfalz"}},{"name":"Obere Auflangenstr.","postalCode":"55283","locality":"Nierstein","municipality":{"key":"07339043","name":"Nierstein, Stadt","type":"Stadt"},"district":{"key":"07339","name":"Mainz-Bingen","type":"Landkreis"},"federalState":{"key":"07","name":"Rheinland-Pfalz"}},{"name":"Obere Pforte","postalCode":"55283","locality":"Nierstein","municipality":{"key":"07339043","name":"Nierstein, Stadt","type":"Stadt"},"district":{"key":"07339","name":"Mainz-Bingen","type":"Landkreis"},"federalState":{"key":"07","name":"Rheinland-Pfalz"}},{"name":"Ostergärten","postalCode":"55283","locality":"Nierstein","municipality":{"key":"07339043","name":"Nierstein, Stadt","type":"Stadt"},"district":{"key":"07339","name":"Mainz-Bingen","type":"Landkreis"},"federalState":{"key":"07","name":"Rheinland-Pfalz"}},{"name":"Paterweg","postalCode":"55283","locality":"Nierstein","municipality":{"key":"07339043","name":"Nierstein, Stadt","type":"Stadt"},"district":{"key":"07339","name":"Mainz-Bingen","type":"Landkreis"},"federalState":{"key":"07","name":"Rheinland-Pfalz"}},{"name":"Paul-Hexemer-Str.","postalCode":"55283","locality":"Nierstein","municipality":{"key":"07339043","name":"Nierstein, Stadt","type":"Stadt"},"district":{"key":"07339","name":"Mainz-Bingen","type":"Landkreis"},"federalState":{"key":"07","name":"Rheinland-Pfalz"}},{"name":"Pestalozziplatz","postalCode":"55283","locality":"Nierstein","municipality":{"key":"07339043","name":"Nierstein, Stadt","type":"Stadt"},"district":{"key":"07339","name":"Mainz-Bingen","type":"Landkreis"},"federalState":{"key":"07","name":"Rheinland-Pfalz"}},{"name":"Pestalozzistr.","postalCode":"55283","locality":"Nierstein","municipality":{"key":"07339043","name":"Nierstein, Stadt","type":"Stadt"},"district":{"key":"07339","name":"Mainz-Bingen","type":"Landkreis"},"federalState":{"key":"07","name":"Rheinland-Pfalz"}},{"name":"Pfarrer-Wilhelm-Fischer-Str.","postalCode":"55283","locality":"Nierstein","municipality":{"key":"07339043","name":"Nierstein, Stadt","type":"Stadt"},"district":{"key":"07339","name":"Mainz-Bingen","type":"Landkreis"},"federalState":{"key":"07","name":"Rheinland-Pfalz"}},{"name":"Potsdamer Str.","postalCode":"55283","locality":"Nierstein","municipality":{"key":"07339043","name":"Nierstein, Stadt","type":"Stadt"},"district":{"key":"07339","name":"Mainz-Bingen","type":"Landkreis"},"federalState":{"key":"07","name":"Rheinland-Pfalz"}},{"name":"Raiffeisenring","postalCode":"55283","locality":"Nierstein","municipality":{"key":"07339043","name":"Nierstein, Stadt","type":"Stadt"},"district":{"key":"07339","name":"Mainz-Bingen","type":"Landkreis"},"federalState":{"key":"07","name":"Rheinland-Pfalz"}},{"name":"Raiffeisenstr.","postalCode":"55283","locality":"Nierstein","municipality":{"key":"07339043","name":"Nierstein, Stadt","type":"Stadt"},"district":{"key":"07339","name":"Mainz-Bingen","type":"Landkreis"},"federalState":{"key":"07","name":"Rheinland-Pfalz"}},{"name":"Rehbachstr.","postalCode":"55283","locality":"Nierstein","municipality":{"key":"07339043","name":"Nierstein, Stadt","type":"Stadt"},"district":{"key":"07339","name":"Mainz-Bingen","type":"Landkreis"},"federalState":{"key":"07","name":"Rheinland-Pfalz"}},{"name":"Rheinallee","postalCode":"55283","locality":"Nierstein","municipality":{"key":"07339043","name":"Nierstein, Stadt","type":"Stadt"},"district":{"key":"07339","name":"Mainz-Bingen","type":"Landkreis"},"federalState":{"key":"07","name":"Rheinland-Pfalz"}},{"name":"Rheinstr.","postalCode":"55283","locality":"Nierstein","municipality":{"key":"07339043","name":"Nierstein, Stadt","type":"Stadt"},"district":{"key":"07339","name":"Mainz-Bingen","type":"Landkreis"},"federalState":{"key":"07","name":"Rheinland-Pfalz"}},{"name":"Riedstr.","postalCode":"55283","locality":"Nierstein","municipality":{"key":"07339043","name":"Nierstein, Stadt","type":"Stadt"},"district":{"key":"07339","name":"Mainz-Bingen","type":"Landkreis"},"federalState":{"key":"07","name":"Rheinland-Pfalz"}},{"name":"Rieslingring","postalCode":"55283","locality":"Nierstein","municipality":{"key":"07339043","name":"Nierstein, Stadt","type":"Stadt"},"district":{"key":"07339","name":"Mainz-Bingen","type":"Landkreis"},"federalState":{"key":"07","name":"Rheinland-Pfalz"}},{"name":"Ringstr.","postalCode":"55283","locality":"Nierstein","municipality":{"key":"07339043","name":"Nierstein, Stadt","type":"Stadt"},"district":{"key":"07339","name":"Mainz-Bingen","type":"Landkreis"},"federalState":{"key":"07","name":"Rheinland-Pfalz"}},{"name":"Rohrwiesenpfad","postalCode":"55283","locality":"Nierstein","municipality":{"key":"07339043","name":"Nierstein, Stadt","type":"Stadt"},"district":{"key":"07339","name":"Mainz-Bingen","type":"Landkreis"},"federalState":{"key":"07","name":"Rheinland-Pfalz"}},{"name":"Rosenstr.","postalCode":"55283","locality":"Nierstein","municipality":{"key":"07339043","name":"Nierstein, Stadt","type":"Stadt"},"district":{"key":"07339","name":"Mainz-Bingen","type":"Landkreis"},"federalState":{"key":"07","name":"Rheinland-Pfalz"}},{"name":"Roßbergstr.","postalCode":"55283","locality":"Nierstein","municipality":{"key":"07339043","name":"Nierstein, Stadt","type":"Stadt"},"district":{"key":"07339","name":"Mainz-Bingen","type":"Landkreis"},"federalState":{"key":"07","name":"Rheinland-Pfalz"}},{"name":"Rote-Äcker-Weg","postalCode":"55283","locality":"Nierstein","municipality":{"key":"07339043","name":"Nierstein, Stadt","type":"Stadt"},"district":{"key":"07339","name":"Mainz-Bingen","type":"Landkreis"},"federalState":{"key":"07","name":"Rheinland-Pfalz"}},{"name":"Saalpförtchen","postalCode":"55283","locality":"Nierstein","municipality":{"key":"07339043","name":"Nierstein, Stadt","type":"Stadt"},"district":{"key":"07339","name":"Mainz-Bingen","type":"Landkreis"},"federalState":{"key":"07","name":"Rheinland-Pfalz"}},{"name":"Saarstr.","postalCode":"55283","locality":"Nierstein","municipality":{"key":"07339043","name":"Nierstein, Stadt","type":"Stadt"},"district":{"key":"07339","name":"Mainz-Bingen","type":"Landkreis"},"federalState":{"key":"07","name":"Rheinland-Pfalz"}},{"name":"Scheurebenweg","postalCode":"55283","locality":"Nierstein","municipality":{"key":"07339043","name":"Nierstein, Stadt","type":"Stadt"},"district":{"key":"07339","name":"Mainz-Bingen","type":"Landkreis"},"federalState":{"key":"07","name":"Rheinland-Pfalz"}},{"name":"Schillerstr.","postalCode":"55283","locality":"Nierstein","municipality":{"key":"07339043","name":"Nierstein, Stadt","type":"Stadt"},"district":{"key":"07339","name":"Mainz-Bingen","type":"Landkreis"},"federalState":{"key":"07","name":"Rheinland-Pfalz"}},{"name":"Schlossreil","postalCode":"55283","locality":"Nierstein","municipality":{"key":"07339043","name":"Nierstein, Stadt","type":"Stadt"},"district":{"key":"07339","name":"Mainz-Bingen","type":"Landkreis"},"federalState":{"key":"07","name":"Rheinland-Pfalz"}},{"name":"Schloßstr.","postalCode":"55283","locality":"Nierstein","municipality":{"key":"07339043","name":"Nierstein, Stadt","type":"Stadt"},"district":{"key":"07339","name":"Mainz-Bingen","type":"Landkreis"},"federalState":{"key":"07","name":"Rheinland-Pfalz"}},{"name":"Schmiedgässchen","postalCode":"55283","locality":"Nierstein","municipality":{"key":"07339043","name":"Nierstein, Stadt","type":"Stadt"},"district":{"key":"07339","name":"Mainz-Bingen","type":"Landkreis"},"federalState":{"key":"07","name":"Rheinland-Pfalz"}},{"name":"Schmiedgasse","postalCode":"55283","locality":"Nierstein","municipality":{"key":"07339043","name":"Nierstein, Stadt","type":"Stadt"},"district":{"key":"07339","name":"Mainz-Bingen","type":"Landkreis"},"federalState":{"key":"07","name":"Rheinland-Pfalz"}},{"name":"Schmitthewwel","postalCode":"55283","locality":"Nierstein","municipality":{"key":"07339043","name":"Nierstein, Stadt","type":"Stadt"},"district":{"key":"07339","name":"Mainz-Bingen","type":"Landkreis"},"federalState":{"key":"07","name":"Rheinland-Pfalz"}},{"name":"Schulstr.","postalCode":"55283","locality":"Nierstein","municipality":{"key":"07339043","name":"Nierstein, Stadt","type":"Stadt"},"district":{"key":"07339","name":"Mainz-Bingen","type":"Landkreis"},"federalState":{"key":"07","name":"Rheinland-Pfalz"}},{"name":"Silvanerweg","postalCode":"55283","locality":"Nierstein","municipality":{"key":"07339043","name":"Nierstein, Stadt","type":"Stadt"},"district":{"key":"07339","name":"Mainz-Bingen","type":"Landkreis"},"federalState":{"key":"07","name":"Rheinland-Pfalz"}},{"name":"Sironastr.","postalCode":"55283","locality":"Nierstein","municipality":{"key":"07339043","name":"Nierstein, Stadt","type":"Stadt"},"district":{"key":"07339","name":"Mainz-Bingen","type":"Landkreis"},"federalState":{"key":"07","name":"Rheinland-Pfalz"}},{"name":"Spiegelbergstr.","postalCode":"55283","locality":"Nierstein","municipality":{"key":"07339043","name":"Nierstein, Stadt","type":"Stadt"},"district":{"key":"07339","name":"Mainz-Bingen","type":"Landkreis"},"federalState":{"key":"07","name":"Rheinland-Pfalz"}},{"name":"Stadtpark","postalCode":"55283","locality":"Nierstein","municipality":{"key":"07339043","name":"Nierstein, Stadt","type":"Stadt"},"district":{"key":"07339","name":"Mainz-Bingen","type":"Landkreis"},"federalState":{"key":"07","name":"Rheinland-Pfalz"}},{"name":"Stauferreil","postalCode":"55283","locality":"Nierstein","municipality":{"key":"07339043","name":"Nierstein, Stadt","type":"Stadt"},"district":{"key":"07339","name":"Mainz-Bingen","type":"Landkreis"},"federalState":{"key":"07","name":"Rheinland-Pfalz"}},{"name":"Tempelhof","postalCode":"55283","locality":"Nierstein","municipality":{"key":"07339043","name":"Nierstein, Stadt","type":"Stadt"},"district":{"key":"07339","name":"Mainz-Bingen","type":"Landkreis"},"federalState":{"key":"07","name":"Rheinland-Pfalz"}},{"name":"Thomas-Mann-Str.","postalCode":"55283","locality":"Nierstein","municipality":{"key":"07339043","name":"Nierstein, Stadt","type":"Stadt"},"district":{"key":"07339","name":"Mainz-Bingen","type":"Landkreis"},"federalState":{"key":"07","name":"Rheinland-Pfalz"}},{"name":"Traminerweg","postalCode":"55283","locality":"Nierstein","municipality":{"key":"07339043","name":"Nierstein, Stadt","type":"Stadt"},"district":{"key":"07339","name":"Mainz-Bingen","type":"Landkreis"},"federalState":{"key":"07","name":"Rheinland-Pfalz"}},{"name":"Unstrutstr.","postalCode":"55283","locality":"Nierstein","municipality":{"key":"07339043","name":"Nierstein, Stadt","type":"Stadt"},"district":{"key":"07339","name":"Mainz-Bingen","type":"Landkreis"},"federalState":{"key":"07","name":"Rheinland-Pfalz"}},{"name":"Unstruttstr.","postalCode":"55283","locality":"Nierstein","municipality":{"key":"07339043","name":"Nierstein, Stadt","type":"Stadt"},"district":{"key":"07339","name":"Mainz-Bingen","type":"Landkreis"},"federalState":{"key":"07","name":"Rheinland-Pfalz"}},{"name":"Wilhelmstr.","postalCode":"55283","locality":"Nierstein","municipality":{"key":"07339043","name":"Nierstein, Stadt","type":"Stadt"},"district":{"key":"07339","name":"Mainz-Bingen","type":"Landkreis"},"federalState":{"key":"07","name":"Rheinland-Pfalz"}},{"name":"Winzerstr.","postalCode":"55283","locality":"Nierstein","municipality":{"key":"07339043","name":"Nierstein, Stadt","type":"Stadt"},"district":{"key":"07339","name":"Mainz-Bingen","type":"Landkreis"},"federalState":{"key":"07","name":"Rheinland-Pfalz"}},{"name":"Woogstr.","postalCode":"55283","locality":"Nierstein","municipality":{"key":"07339043","name":"Nierstein, Stadt","type":"Stadt"},"district":{"key":"07339","name":"Mainz-Bingen","type":"Landkreis"},"federalState":{"key":"07","name":"Rheinland-Pfalz"}},{"name":"Wörrstädter Str.","postalCode":"55283","locality":"Nierstein","municipality":{"key":"07339043","name":"Nierstein, Stadt","type":"Stadt"},"district":{"key":"07339","name":"Mainz-Bingen","type":"Landkreis"},"federalState":{"key":"07","name":"Rheinland-Pfalz"}},{"name":"Zimmergasse","postalCode":"55283","locality":"Nierstein","municipality":{"key":"07339043","name":"Nierstein, Stadt","type":"Stadt"},"district":{"key":"07339","name":"Mainz-Bingen","type":"Landkreis"},"federalState":{"key":"07","name":"Rheinland-Pfalz"}},]