[{"name":"11 Kilometerweg","postalCode":"37431","locality":"Harz (Landkreis Göttingen)","municipality":{"key":"03159501","name":"Harz (Landkreis Göttingen), gemfr. Geb.","type":"Gemeindefreies_Gebiet_Unbewohnt"},"district":{"key":"03159","name":"Göttingen","type":"Landkreis"},"federalState":{"key":"03","name":"Niedersachsen"}},{"name":"13.November-Weg","postalCode":"37520","locality":"Harz (Landkreis Göttingen)","municipality":{"key":"03159501","name":"Harz (Landkreis Göttingen), gemfr. Geb.","type":"Gemeindefreies_Gebiet_Unbewohnt"},"district":{"key":"03159","name":"Göttingen","type":"Landkreis"},"federalState":{"key":"03","name":"Niedersachsen"}},{"name":"Alte Siedlung","postalCode":"37127","locality":"Jühnde","municipality":{"key":"03159021","name":"Jühnde","type":"Kreisangehörige_Gemeinde"},"district":{"key":"03159","name":"Göttingen","type":"Landkreis"},"federalState":{"key":"03","name":"Niedersachsen"}},{"name":"Am Köppcken","postalCode":"37127","locality":"Jühnde","municipality":{"key":"03159021","name":"Jühnde","type":"Kreisangehörige_Gemeinde"},"district":{"key":"03159","name":"Göttingen","type":"Landkreis"},"federalState":{"key":"03","name":"Niedersachsen"}},{"name":"Am Milchweg","postalCode":"37127","locality":"Jühnde","municipality":{"key":"03159021","name":"Jühnde","type":"Kreisangehörige_Gemeinde"},"district":{"key":"03159","name":"Göttingen","type":"Landkreis"},"federalState":{"key":"03","name":"Niedersachsen"}},{"name":"Am Schedener Stieg","postalCode":"37127","locality":"Jühnde","municipality":{"key":"03159021","name":"Jühnde","type":"Kreisangehörige_Gemeinde"},"district":{"key":"03159","name":"Göttingen","type":"Landkreis"},"federalState":{"key":"03","name":"Niedersachsen"}},{"name":"Am Südacker","postalCode":"37127","locality":"Jühnde","municipality":{"key":"03159021","name":"Jühnde","type":"Kreisangehörige_Gemeinde"},"district":{"key":"03159","name":"Göttingen","type":"Landkreis"},"federalState":{"key":"03","name":"Niedersachsen"}},{"name":"Am Tie","postalCode":"37127","locality":"Jühnde","municipality":{"key":"03159021","name":"Jühnde","type":"Kreisangehörige_Gemeinde"},"district":{"key":"03159","name":"Göttingen","type":"Landkreis"},"federalState":{"key":"03","name":"Niedersachsen"}},{"name":"An der Tränke","postalCode":"37127","locality":"Jühnde","municipality":{"key":"03159021","name":"Jühnde","type":"Kreisangehörige_Gemeinde"},"district":{"key":"03159","name":"Göttingen","type":"Landkreis"},"federalState":{"key":"03","name":"Niedersachsen"}},{"name":"Barlisser Str.","postalCode":"37127","locality":"Jühnde","municipality":{"key":"03159021","name":"Jühnde","type":"Kreisangehörige_Gemeinde"},"district":{"key":"03159","name":"Göttingen","type":"Landkreis"},"federalState":{"key":"03","name":"Niedersachsen"}},{"name":"Beekestr.","postalCode":"37127","locality":"Jühnde","municipality":{"key":"03159021","name":"Jühnde","type":"Kreisangehörige_Gemeinde"},"district":{"key":"03159","name":"Göttingen","type":"Landkreis"},"federalState":{"key":"03","name":"Niedersachsen"}},{"name":"Calsowstr.","postalCode":"37085","locality":"Göttingen","municipality":{"key":"03159016","name":"Göttingen, Stadt","type":"Stadt"},"district":{"key":"03159","name":"Göttingen","type":"Landkreis"},"federalState":{"key":"03","name":"Niedersachsen"}},{"name":"Carl-Giesecke-Str.","postalCode":"37079","locality":"Göttingen","municipality":{"key":"03159016","name":"Göttingen, Stadt","type":"Stadt"},"district":{"key":"03159","name":"Göttingen","type":"Landkreis"},"federalState":{"key":"03","name":"Niedersachsen"}},{"name":"Carl-Mahr-Str.","postalCode":"37073","locality":"Göttingen","municipality":{"key":"03159016","name":"Göttingen, Stadt","type":"Stadt"},"district":{"key":"03159","name":"Göttingen","type":"Landkreis"},"federalState":{"key":"03","name":"Niedersachsen"}},{"name":"Carl-Zeiss-Str.","postalCode":"37081","locality":"Göttingen","municipality":{"key":"03159016","name":"Göttingen, Stadt","type":"Stadt"},"district":{"key":"03159","name":"Göttingen","type":"Landkreis"},"federalState":{"key":"03","name":"Niedersachsen"}},{"name":"Caroline-Schelling-Eck","postalCode":"37085","locality":"Göttingen","municipality":{"key":"03159016","name":"Göttingen, Stadt","type":"Stadt"},"district":{"key":"03159","name":"Göttingen","type":"Landkreis"},"federalState":{"key":"03","name":"Niedersachsen"}},{"name":"Caseliusplatz","postalCode":"37077","locality":"Göttingen","municipality":{"key":"03159016","name":"Göttingen, Stadt","type":"Stadt"},"district":{"key":"03159","name":"Göttingen","type":"Landkreis"},"federalState":{"key":"03","name":"Niedersachsen"}},{"name":"Charlottenburger Str.","postalCode":"37085","locality":"Göttingen","municipality":{"key":"03159016","name":"Göttingen, Stadt","type":"Stadt"},"district":{"key":"03159","name":"Göttingen","type":"Landkreis"},"federalState":{"key":"03","name":"Niedersachsen"}},{"name":"Cheltenhampark","postalCode":"37085","locality":"Göttingen","municipality":{"key":"03159016","name":"Göttingen, Stadt","type":"Stadt"},"district":{"key":"03159","name":"Göttingen","type":"Landkreis"},"federalState":{"key":"03","name":"Niedersachsen"}},{"name":"Chemnitzer Str.","postalCode":"37085","locality":"Göttingen","municipality":{"key":"03159016","name":"Göttingen, Stadt","type":"Stadt"},"district":{"key":"03159","name":"Göttingen","type":"Landkreis"},"federalState":{"key":"03","name":"Niedersachsen"}},{"name":"Christian-Eberwein-Str.","postalCode":"37077","locality":"Göttingen","municipality":{"key":"03159016","name":"Göttingen, Stadt","type":"Stadt"},"district":{"key":"03159","name":"Göttingen","type":"Landkreis"},"federalState":{"key":"03","name":"Niedersachsen"}},{"name":"Christian-Gottlob-Heyne-Ufer","postalCode":"37073","locality":"Göttingen","municipality":{"key":"03159016","name":"Göttingen, Stadt","type":"Stadt"},"district":{"key":"03159","name":"Göttingen","type":"Landkreis"},"federalState":{"key":"03","name":"Niedersachsen"}},{"name":"Christianshöhe","postalCode":"37085","locality":"Göttingen","municipality":{"key":"03159016","name":"Göttingen, Stadt","type":"Stadt"},"district":{"key":"03159","name":"Göttingen","type":"Landkreis"},"federalState":{"key":"03","name":"Niedersachsen"}},{"name":"Christophorusweg","postalCode":"37075","locality":"Göttingen","municipality":{"key":"03159016","name":"Göttingen, Stadt","type":"Stadt"},"district":{"key":"03159","name":"Göttingen","type":"Landkreis"},"federalState":{"key":"03","name":"Niedersachsen"}},{"name":"Clausbergweg","postalCode":"37520","locality":"Harz (Landkreis Göttingen)","municipality":{"key":"03159501","name":"Harz (Landkreis Göttingen), gemfr. Geb.","type":"Gemeindefreies_Gebiet_Unbewohnt"},"district":{"key":"03159","name":"Göttingen","type":"Landkreis"},"federalState":{"key":"03","name":"Niedersachsen"}},{"name":"Claus-Hartung-Eck","postalCode":"37083","locality":"Göttingen","municipality":{"key":"03159016","name":"Göttingen, Stadt","type":"Stadt"},"district":{"key":"03159","name":"Göttingen","type":"Landkreis"},"federalState":{"key":"03","name":"Niedersachsen"}},{"name":"Cramerstr.","postalCode":"37073","locality":"Göttingen","municipality":{"key":"03159016","name":"Göttingen, Stadt","type":"Stadt"},"district":{"key":"03159","name":"Göttingen","type":"Landkreis"},"federalState":{"key":"03","name":"Niedersachsen"}},{"name":"Dorfstr.","postalCode":"37127","locality":"Jühnde","municipality":{"key":"03159021","name":"Jühnde","type":"Kreisangehörige_Gemeinde"},"district":{"key":"03159","name":"Göttingen","type":"Landkreis"},"federalState":{"key":"03","name":"Niedersachsen"}},{"name":"Drammeweg","postalCode":"37127","locality":"Jühnde","municipality":{"key":"03159021","name":"Jühnde","type":"Kreisangehörige_Gemeinde"},"district":{"key":"03159","name":"Göttingen","type":"Landkreis"},"federalState":{"key":"03","name":"Niedersachsen"}},{"name":"Ehrenhain","postalCode":"37127","locality":"Jühnde","municipality":{"key":"03159021","name":"Jühnde","type":"Kreisangehörige_Gemeinde"},"district":{"key":"03159","name":"Göttingen","type":"Landkreis"},"federalState":{"key":"03","name":"Niedersachsen"}},{"name":"Eickensiekstr.","postalCode":"37127","locality":"Jühnde","municipality":{"key":"03159021","name":"Jühnde","type":"Kreisangehörige_Gemeinde"},"district":{"key":"03159","name":"Göttingen","type":"Landkreis"},"federalState":{"key":"03","name":"Niedersachsen"}},{"name":"Fabrikweg","postalCode":"37075","locality":"Göttingen","municipality":{"key":"03159016","name":"Göttingen, Stadt","type":"Stadt"},"district":{"key":"03159","name":"Göttingen","type":"Landkreis"},"federalState":{"key":"03","name":"Niedersachsen"}},{"name":"Fahlenbuschstr.","postalCode":"37077","locality":"Göttingen","municipality":{"key":"03159016","name":"Göttingen, Stadt","type":"Stadt"},"district":{"key":"03159","name":"Göttingen","type":"Landkreis"},"federalState":{"key":"03","name":"Niedersachsen"}},{"name":"Färberstr.","postalCode":"37077","locality":"Göttingen","municipality":{"key":"03159016","name":"Göttingen, Stadt","type":"Stadt"},"district":{"key":"03159","name":"Göttingen","type":"Landkreis"},"federalState":{"key":"03","name":"Niedersachsen"}},{"name":"Fäutlingsgasse","postalCode":"37083","locality":"Göttingen","municipality":{"key":"03159016","name":"Göttingen, Stadt","type":"Stadt"},"district":{"key":"03159","name":"Göttingen","type":"Landkreis"},"federalState":{"key":"03","name":"Niedersachsen"}},{"name":"Feldhüterhof","postalCode":"37079","locality":"Göttingen","municipality":{"key":"03159016","name":"Göttingen, Stadt","type":"Stadt"},"district":{"key":"03159","name":"Göttingen","type":"Landkreis"},"federalState":{"key":"03","name":"Niedersachsen"}},{"name":"Feldscheideweg","postalCode":"37079","locality":"Göttingen","municipality":{"key":"03159016","name":"Göttingen, Stadt","type":"Stadt"},"district":{"key":"03159","name":"Göttingen","type":"Landkreis"},"federalState":{"key":"03","name":"Niedersachsen"}},{"name":"Felix-Klein-Str.","postalCode":"37083","locality":"Göttingen","municipality":{"key":"03159016","name":"Göttingen, Stadt","type":"Stadt"},"district":{"key":"03159","name":"Göttingen","type":"Landkreis"},"federalState":{"key":"03","name":"Niedersachsen"}},{"name":"Feuerbachweg","postalCode":"37085","locality":"Göttingen","municipality":{"key":"03159016","name":"Göttingen, Stadt","type":"Stadt"},"district":{"key":"03159","name":"Göttingen","type":"Landkreis"},"federalState":{"key":"03","name":"Niedersachsen"}},{"name":"Fichtenweg","postalCode":"37077","locality":"Göttingen","municipality":{"key":"03159016","name":"Göttingen, Stadt","type":"Stadt"},"district":{"key":"03159","name":"Göttingen","type":"Landkreis"},"federalState":{"key":"03","name":"Niedersachsen"}},{"name":"Finkenweg","postalCode":"37081","locality":"Göttingen","municipality":{"key":"03159016","name":"Göttingen, Stadt","type":"Stadt"},"district":{"key":"03159","name":"Göttingen","type":"Landkreis"},"federalState":{"key":"03","name":"Niedersachsen"}},{"name":"Fiorilloweg","postalCode":"37075","locality":"Göttingen","municipality":{"key":"03159016","name":"Göttingen, Stadt","type":"Stadt"},"district":{"key":"03159","name":"Göttingen","type":"Landkreis"},"federalState":{"key":"03","name":"Niedersachsen"}},{"name":"Fischbachstr.","postalCode":"37520","locality":"Harz (Landkreis Göttingen)","municipality":{"key":"03159501","name":"Harz (Landkreis Göttingen), gemfr. Geb.","type":"Gemeindefreies_Gebiet_Unbewohnt"},"district":{"key":"03159","name":"Göttingen","type":"Landkreis"},"federalState":{"key":"03","name":"Niedersachsen"}},{"name":"Flachsrotten","postalCode":"37079","locality":"Göttingen","municipality":{"key":"03159016","name":"Göttingen, Stadt","type":"Stadt"},"district":{"key":"03159","name":"Göttingen","type":"Landkreis"},"federalState":{"key":"03","name":"Niedersachsen"}},{"name":"Fliedernweg","postalCode":"37081","locality":"Göttingen","municipality":{"key":"03159016","name":"Göttingen, Stadt","type":"Stadt"},"district":{"key":"03159","name":"Göttingen","type":"Landkreis"},"federalState":{"key":"03","name":"Niedersachsen"}},{"name":"Fliederweg","postalCode":"37079","locality":"Göttingen","municipality":{"key":"03159016","name":"Göttingen, Stadt","type":"Stadt"},"district":{"key":"03159","name":"Göttingen","type":"Landkreis"},"federalState":{"key":"03","name":"Niedersachsen"}},{"name":"Florenz-Sartorius-Str.","postalCode":"37079","locality":"Göttingen","municipality":{"key":"03159016","name":"Göttingen, Stadt","type":"Stadt"},"district":{"key":"03159","name":"Göttingen","type":"Landkreis"},"federalState":{"key":"03","name":"Niedersachsen"}},{"name":"Flüthenweg","postalCode":"37085","locality":"Göttingen","municipality":{"key":"03159016","name":"Göttingen, Stadt","type":"Stadt"},"district":{"key":"03159","name":"Göttingen","type":"Landkreis"},"federalState":{"key":"03","name":"Niedersachsen"}},{"name":"Föhrenweg","postalCode":"37077","locality":"Göttingen","municipality":{"key":"03159016","name":"Göttingen, Stadt","type":"Stadt"},"district":{"key":"03159","name":"Göttingen","type":"Landkreis"},"federalState":{"key":"03","name":"Niedersachsen"}},{"name":"Förderverein Ballspiel-Anlage Stumpfe Eiche e.V.","postalCode":"37077","locality":"Göttingen","municipality":{"key":"03159016","name":"Göttingen, Stadt","type":"Stadt"},"district":{"key":"03159","name":"Göttingen","type":"Landkreis"},"federalState":{"key":"03","name":"Niedersachsen"}},{"name":"Försterweg","postalCode":"37077","locality":"Göttingen","municipality":{"key":"03159016","name":"Göttingen, Stadt","type":"Stadt"},"district":{"key":"03159","name":"Göttingen","type":"Landkreis"},"federalState":{"key":"03","name":"Niedersachsen"}},{"name":"Forstmeisterweg","postalCode":"37431","locality":"Harz (Landkreis Göttingen)","municipality":{"key":"03159501","name":"Harz (Landkreis Göttingen), gemfr. Geb.","type":"Gemeindefreies_Gebiet_Unbewohnt"},"district":{"key":"03159","name":"Göttingen","type":"Landkreis"},"federalState":{"key":"03","name":"Niedersachsen"}},{"name":"Frankental","postalCode":"37431","locality":"Harz (Landkreis Göttingen)","municipality":{"key":"03159501","name":"Harz (Landkreis Göttingen), gemfr. Geb.","type":"Gemeindefreies_Gebiet_Unbewohnt"},"district":{"key":"03159","name":"Göttingen","type":"Landkreis"},"federalState":{"key":"03","name":"Niedersachsen"}},{"name":"Frankental","postalCode":"37445","locality":"Harz (Landkreis Göttingen)","municipality":{"key":"03159501","name":"Harz (Landkreis Göttingen), gemfr. Geb.","type":"Gemeindefreies_Gebiet_Unbewohnt"},"district":{"key":"03159","name":"Göttingen","type":"Landkreis"},"federalState":{"key":"03","name":"Niedersachsen"}},{"name":"Franz-Marc-Weg","postalCode":"37085","locality":"Göttingen","municipality":{"key":"03159016","name":"Göttingen, Stadt","type":"Stadt"},"district":{"key":"03159","name":"Göttingen","type":"Landkreis"},"federalState":{"key":"03","name":"Niedersachsen"}},{"name":"Frauensteinweg","postalCode":"37431","locality":"Harz (Landkreis Göttingen)","municipality":{"key":"03159501","name":"Harz (Landkreis Göttingen), gemfr. Geb.","type":"Gemeindefreies_Gebiet_Unbewohnt"},"district":{"key":"03159","name":"Göttingen","type":"Landkreis"},"federalState":{"key":"03","name":"Niedersachsen"}},{"name":"Fred-Bishop-Weg","postalCode":"37073","locality":"Göttingen","municipality":{"key":"03159016","name":"Göttingen, Stadt","type":"Stadt"},"district":{"key":"03159","name":"Göttingen","type":"Landkreis"},"federalState":{"key":"03","name":"Niedersachsen"}},{"name":"Fred-Bishop-Weg","postalCode":"37085","locality":"Göttingen","municipality":{"key":"03159016","name":"Göttingen, Stadt","type":"Stadt"},"district":{"key":"03159","name":"Göttingen","type":"Landkreis"},"federalState":{"key":"03","name":"Niedersachsen"}},{"name":"Freien Breitsweg","postalCode":"37079","locality":"Göttingen","municipality":{"key":"03159016","name":"Göttingen, Stadt","type":"Stadt"},"district":{"key":"03159","name":"Göttingen","type":"Landkreis"},"federalState":{"key":"03","name":"Niedersachsen"}},{"name":"Fridtjof-Nansen-Weg","postalCode":"37085","locality":"Göttingen","municipality":{"key":"03159016","name":"Göttingen, Stadt","type":"Stadt"},"district":{"key":"03159","name":"Göttingen","type":"Landkreis"},"federalState":{"key":"03","name":"Niedersachsen"}},{"name":"Friedensstr.","postalCode":"37083","locality":"Göttingen","municipality":{"key":"03159016","name":"Göttingen, Stadt","type":"Stadt"},"district":{"key":"03159","name":"Göttingen","type":"Landkreis"},"federalState":{"key":"03","name":"Niedersachsen"}},{"name":"Friedhofsweg","postalCode":"37412","locality":"Harz (Landkreis Göttingen)","municipality":{"key":"03159501","name":"Harz (Landkreis Göttingen), gemfr. Geb.","type":"Gemeindefreies_Gebiet_Unbewohnt"},"district":{"key":"03159","name":"Göttingen","type":"Landkreis"},"federalState":{"key":"03","name":"Niedersachsen"}},{"name":"Friedländer Weg","postalCode":"37083","locality":"Göttingen","municipality":{"key":"03159016","name":"Göttingen, Stadt","type":"Stadt"},"district":{"key":"03159","name":"Göttingen","type":"Landkreis"},"federalState":{"key":"03","name":"Niedersachsen"}},{"name":"Friedländer Weg","postalCode":"37085","locality":"Göttingen","municipality":{"key":"03159016","name":"Göttingen, Stadt","type":"Stadt"},"district":{"key":"03159","name":"Göttingen","type":"Landkreis"},"federalState":{"key":"03","name":"Niedersachsen"}},{"name":"Friedrich-Benjamin-Osiander-Weg","postalCode":"37077","locality":"Göttingen","municipality":{"key":"03159016","name":"Göttingen, Stadt","type":"Stadt"},"district":{"key":"03159","name":"Göttingen","type":"Landkreis"},"federalState":{"key":"03","name":"Niedersachsen"}},{"name":"Friedrich-Ebert-Str.","postalCode":"37077","locality":"Göttingen","municipality":{"key":"03159016","name":"Göttingen, Stadt","type":"Stadt"},"district":{"key":"03159","name":"Göttingen","type":"Landkreis"},"federalState":{"key":"03","name":"Niedersachsen"}},{"name":"Friedrich-Ebert-Str.","postalCode":"37079","locality":"Göttingen","municipality":{"key":"03159016","name":"Göttingen, Stadt","type":"Stadt"},"district":{"key":"03159","name":"Göttingen","type":"Landkreis"},"federalState":{"key":"03","name":"Niedersachsen"}},{"name":"Friedrich-Ebert-Str.","postalCode":"37520","locality":"Harz (Landkreis Göttingen)","municipality":{"key":"03159501","name":"Harz (Landkreis Göttingen), gemfr. Geb.","type":"Gemeindefreies_Gebiet_Unbewohnt"},"district":{"key":"03159","name":"Göttingen","type":"Landkreis"},"federalState":{"key":"03","name":"Niedersachsen"}},{"name":"Friedrich-Hinterthür-Weg","postalCode":"37083","locality":"Göttingen","municipality":{"key":"03159016","name":"Göttingen, Stadt","type":"Stadt"},"district":{"key":"03159","name":"Göttingen","type":"Landkreis"},"federalState":{"key":"03","name":"Niedersachsen"}},{"name":"Friedrich-Hund-Platz","postalCode":"37077","locality":"Göttingen","municipality":{"key":"03159016","name":"Göttingen, Stadt","type":"Stadt"},"district":{"key":"03159","name":"Göttingen","type":"Landkreis"},"federalState":{"key":"03","name":"Niedersachsen"}},{"name":"Friedrich-Jenner-Str.","postalCode":"37085","locality":"Göttingen","municipality":{"key":"03159016","name":"Göttingen, Stadt","type":"Stadt"},"district":{"key":"03159","name":"Göttingen","type":"Landkreis"},"federalState":{"key":"03","name":"Niedersachsen"}},{"name":"Friedrich-Naumann-Str.","postalCode":"37081","locality":"Göttingen","municipality":{"key":"03159016","name":"Göttingen, Stadt","type":"Stadt"},"district":{"key":"03159","name":"Göttingen","type":"Landkreis"},"federalState":{"key":"03","name":"Niedersachsen"}},{"name":"Friedrich-Rettig-Weg","postalCode":"37077","locality":"Göttingen","municipality":{"key":"03159016","name":"Göttingen, Stadt","type":"Stadt"},"district":{"key":"03159","name":"Göttingen","type":"Landkreis"},"federalState":{"key":"03","name":"Niedersachsen"}},{"name":"Friedrichstr.","postalCode":"37073","locality":"Göttingen","municipality":{"key":"03159016","name":"Göttingen, Stadt","type":"Stadt"},"district":{"key":"03159","name":"Göttingen","type":"Landkreis"},"federalState":{"key":"03","name":"Niedersachsen"}},{"name":"Friedrich-von-Bodelschwingh-Str.","postalCode":"37075","locality":"Göttingen","municipality":{"key":"03159016","name":"Göttingen, Stadt","type":"Stadt"},"district":{"key":"03159","name":"Göttingen","type":"Landkreis"},"federalState":{"key":"03","name":"Niedersachsen"}},{"name":"Frieseweg","postalCode":"37085","locality":"Göttingen","municipality":{"key":"03159016","name":"Göttingen, Stadt","type":"Stadt"},"district":{"key":"03159","name":"Göttingen","type":"Landkreis"},"federalState":{"key":"03","name":"Niedersachsen"}},{"name":"Fritz-Reuter-Str.","postalCode":"37083","locality":"Göttingen","municipality":{"key":"03159016","name":"Göttingen, Stadt","type":"Stadt"},"district":{"key":"03159","name":"Göttingen","type":"Landkreis"},"federalState":{"key":"03","name":"Niedersachsen"}},{"name":"Fröbelweg","postalCode":"37081","locality":"Göttingen","municipality":{"key":"03159016","name":"Göttingen, Stadt","type":"Stadt"},"district":{"key":"03159","name":"Göttingen","type":"Landkreis"},"federalState":{"key":"03","name":"Niedersachsen"}},{"name":"Fuldaweg","postalCode":"37081","locality":"Göttingen","municipality":{"key":"03159016","name":"Göttingen, Stadt","type":"Stadt"},"district":{"key":"03159","name":"Göttingen","type":"Landkreis"},"federalState":{"key":"03","name":"Niedersachsen"}},{"name":"Galgenkampstr.","postalCode":"37127","locality":"Jühnde","municipality":{"key":"03159021","name":"Jühnde","type":"Kreisangehörige_Gemeinde"},"district":{"key":"03159","name":"Göttingen","type":"Landkreis"},"federalState":{"key":"03","name":"Niedersachsen"}},{"name":"Graseweg","postalCode":"37127","locality":"Jühnde","municipality":{"key":"03159021","name":"Jühnde","type":"Kreisangehörige_Gemeinde"},"district":{"key":"03159","name":"Göttingen","type":"Landkreis"},"federalState":{"key":"03","name":"Niedersachsen"}},{"name":"Hauptstr.","postalCode":"37127","locality":"Jühnde","municipality":{"key":"03159021","name":"Jühnde","type":"Kreisangehörige_Gemeinde"},"district":{"key":"03159","name":"Göttingen","type":"Landkreis"},"federalState":{"key":"03","name":"Niedersachsen"}},{"name":"Heinrich-Sohnrey-Weg","postalCode":"37127","locality":"Jühnde","municipality":{"key":"03159021","name":"Jühnde","type":"Kreisangehörige_Gemeinde"},"district":{"key":"03159","name":"Göttingen","type":"Landkreis"},"federalState":{"key":"03","name":"Niedersachsen"}},{"name":"Hermann-Kawe-Str.","postalCode":"37127","locality":"Jühnde","municipality":{"key":"03159021","name":"Jühnde","type":"Kreisangehörige_Gemeinde"},"district":{"key":"03159","name":"Göttingen","type":"Landkreis"},"federalState":{"key":"03","name":"Niedersachsen"}},{"name":"Hoher-Hagen-Str.","postalCode":"37127","locality":"Jühnde","municipality":{"key":"03159021","name":"Jühnde","type":"Kreisangehörige_Gemeinde"},"district":{"key":"03159","name":"Göttingen","type":"Landkreis"},"federalState":{"key":"03","name":"Niedersachsen"}},{"name":"Ilsensfahrt","postalCode":"37127","locality":"Jühnde","municipality":{"key":"03159021","name":"Jühnde","type":"Kreisangehörige_Gemeinde"},"district":{"key":"03159","name":"Göttingen","type":"Landkreis"},"federalState":{"key":"03","name":"Niedersachsen"}},{"name":"Im Grabental","postalCode":"37127","locality":"Jühnde","municipality":{"key":"03159021","name":"Jühnde","type":"Kreisangehörige_Gemeinde"},"district":{"key":"03159","name":"Göttingen","type":"Landkreis"},"federalState":{"key":"03","name":"Niedersachsen"}},{"name":"Im Winkel","postalCode":"37127","locality":"Jühnde","municipality":{"key":"03159021","name":"Jühnde","type":"Kreisangehörige_Gemeinde"},"district":{"key":"03159","name":"Göttingen","type":"Landkreis"},"federalState":{"key":"03","name":"Niedersachsen"}},{"name":"Jagdhausweg","postalCode":"37520","locality":"Harz (Landkreis Göttingen)","municipality":{"key":"03159501","name":"Harz (Landkreis Göttingen), gemfr. Geb.","type":"Gemeindefreies_Gebiet_Unbewohnt"},"district":{"key":"03159","name":"Göttingen","type":"Landkreis"},"federalState":{"key":"03","name":"Niedersachsen"}},{"name":"Jägerstieg","postalCode":"37075","locality":"Göttingen","municipality":{"key":"03159016","name":"Göttingen, Stadt","type":"Stadt"},"district":{"key":"03159","name":"Göttingen","type":"Landkreis"},"federalState":{"key":"03","name":"Niedersachsen"}},{"name":"Jahnstr.","postalCode":"37073","locality":"Göttingen","municipality":{"key":"03159016","name":"Göttingen, Stadt","type":"Stadt"},"district":{"key":"03159","name":"Göttingen","type":"Landkreis"},"federalState":{"key":"03","name":"Niedersachsen"}},{"name":"Jakob-Henle-Str.","postalCode":"37075","locality":"Göttingen","municipality":{"key":"03159016","name":"Göttingen, Stadt","type":"Stadt"},"district":{"key":"03159","name":"Göttingen","type":"Landkreis"},"federalState":{"key":"03","name":"Niedersachsen"}},{"name":"James-Franck-Ring","postalCode":"37077","locality":"Göttingen","municipality":{"key":"03159016","name":"Göttingen, Stadt","type":"Stadt"},"district":{"key":"03159","name":"Göttingen","type":"Landkreis"},"federalState":{"key":"03","name":"Niedersachsen"}},{"name":"James-Graf-von-Moltke-Weg","postalCode":"37085","locality":"Göttingen","municipality":{"key":"03159016","name":"Göttingen, Stadt","type":"Stadt"},"district":{"key":"03159","name":"Göttingen","type":"Landkreis"},"federalState":{"key":"03","name":"Niedersachsen"}},{"name":"Janckeweg","postalCode":"37431","locality":"Harz (Landkreis Göttingen)","municipality":{"key":"03159501","name":"Harz (Landkreis Göttingen), gemfr. Geb.","type":"Gemeindefreies_Gebiet_Unbewohnt"},"district":{"key":"03159","name":"Göttingen","type":"Landkreis"},"federalState":{"key":"03","name":"Niedersachsen"}},{"name":"Jenaer Str.","postalCode":"37085","locality":"Göttingen","municipality":{"key":"03159016","name":"Göttingen, Stadt","type":"Stadt"},"district":{"key":"03159","name":"Göttingen","type":"Landkreis"},"federalState":{"key":"03","name":"Niedersachsen"}},{"name":"Jheringstr.","postalCode":"37081","locality":"Göttingen","municipality":{"key":"03159016","name":"Göttingen, Stadt","type":"Stadt"},"district":{"key":"03159","name":"Göttingen","type":"Landkreis"},"federalState":{"key":"03","name":"Niedersachsen"}},{"name":"Jobs-Böse-Str.","postalCode":"37085","locality":"Göttingen","municipality":{"key":"03159016","name":"Göttingen, Stadt","type":"Stadt"},"district":{"key":"03159","name":"Göttingen","type":"Landkreis"},"federalState":{"key":"03","name":"Niedersachsen"}},{"name":"Jochen-Brandi-Platz","postalCode":"37081","locality":"Göttingen","municipality":{"key":"03159016","name":"Göttingen, Stadt","type":"Stadt"},"district":{"key":"03159","name":"Göttingen","type":"Landkreis"},"federalState":{"key":"03","name":"Niedersachsen"}},{"name":"Johann-Heinrich-Voß-Weg","postalCode":"37085","locality":"Göttingen","municipality":{"key":"03159016","name":"Göttingen, Stadt","type":"Stadt"},"district":{"key":"03159","name":"Göttingen","type":"Landkreis"},"federalState":{"key":"03","name":"Niedersachsen"}},{"name":"Johann-Prinzhausen-Weg","postalCode":"37083","locality":"Göttingen","municipality":{"key":"03159016","name":"Göttingen, Stadt","type":"Stadt"},"district":{"key":"03159","name":"Göttingen","type":"Landkreis"},"federalState":{"key":"03","name":"Niedersachsen"}},{"name":"Jonaplatz","postalCode":"37081","locality":"Göttingen","municipality":{"key":"03159016","name":"Göttingen, Stadt","type":"Stadt"},"district":{"key":"03159","name":"Göttingen","type":"Landkreis"},"federalState":{"key":"03","name":"Niedersachsen"}},{"name":"Jüdenstr.","postalCode":"37073","locality":"Göttingen","municipality":{"key":"03159016","name":"Göttingen, Stadt","type":"Stadt"},"district":{"key":"03159","name":"Göttingen","type":"Landkreis"},"federalState":{"key":"03","name":"Niedersachsen"}},{"name":"Jugendwerkstatt-Weg","postalCode":"37520","locality":"Harz (Landkreis Göttingen)","municipality":{"key":"03159501","name":"Harz (Landkreis Göttingen), gemfr. Geb.","type":"Gemeindefreies_Gebiet_Unbewohnt"},"district":{"key":"03159","name":"Göttingen","type":"Landkreis"},"federalState":{"key":"03","name":"Niedersachsen"}},{"name":"Julia-Lermontowa-Weg","postalCode":"37077","locality":"Göttingen","municipality":{"key":"03159016","name":"Göttingen, Stadt","type":"Stadt"},"district":{"key":"03159","name":"Göttingen","type":"Landkreis"},"federalState":{"key":"03","name":"Niedersachsen"}},{"name":"Julius-Leber-Weg","postalCode":"37085","locality":"Göttingen","municipality":{"key":"03159016","name":"Göttingen, Stadt","type":"Stadt"},"district":{"key":"03159","name":"Göttingen","type":"Landkreis"},"federalState":{"key":"03","name":"Niedersachsen"}},{"name":"Jupiterweg","postalCode":"37077","locality":"Göttingen","municipality":{"key":"03159016","name":"Göttingen, Stadt","type":"Stadt"},"district":{"key":"03159","name":"Göttingen","type":"Landkreis"},"federalState":{"key":"03","name":"Niedersachsen"}},{"name":"Justus-von-Liebig-Weg","postalCode":"37077","locality":"Göttingen","municipality":{"key":"03159016","name":"Göttingen, Stadt","type":"Stadt"},"district":{"key":"03159","name":"Göttingen","type":"Landkreis"},"federalState":{"key":"03","name":"Niedersachsen"}},{"name":"Jutta-Limbach-Str.","postalCode":"37073","locality":"Göttingen","municipality":{"key":"03159016","name":"Göttingen, Stadt","type":"Stadt"},"district":{"key":"03159","name":"Göttingen","type":"Landkreis"},"federalState":{"key":"03","name":"Niedersachsen"}},{"name":"Koppelweg","postalCode":"37127","locality":"Jühnde","municipality":{"key":"03159021","name":"Jühnde","type":"Kreisangehörige_Gemeinde"},"district":{"key":"03159","name":"Göttingen","type":"Landkreis"},"federalState":{"key":"03","name":"Niedersachsen"}},{"name":"Kuckucksweg","postalCode":"37127","locality":"Jühnde","municipality":{"key":"03159021","name":"Jühnde","type":"Kreisangehörige_Gemeinde"},"district":{"key":"03159","name":"Göttingen","type":"Landkreis"},"federalState":{"key":"03","name":"Niedersachsen"}},{"name":"Landwacht","postalCode":"37075","locality":"Göttingen","municipality":{"key":"03159016","name":"Göttingen, Stadt","type":"Stadt"},"district":{"key":"03159","name":"Göttingen","type":"Landkreis"},"federalState":{"key":"03","name":"Niedersachsen"}},{"name":"Lange Gasse","postalCode":"37085","locality":"Göttingen","municipality":{"key":"03159016","name":"Göttingen, Stadt","type":"Stadt"},"district":{"key":"03159","name":"Göttingen","type":"Landkreis"},"federalState":{"key":"03","name":"Niedersachsen"}},{"name":"Lange-Geismar-Str.","postalCode":"37073","locality":"Göttingen","municipality":{"key":"03159016","name":"Göttingen, Stadt","type":"Stadt"},"district":{"key":"03159","name":"Göttingen","type":"Landkreis"},"federalState":{"key":"03","name":"Niedersachsen"}},{"name":"Lange Linie","postalCode":"37077","locality":"Göttingen","municipality":{"key":"03159016","name":"Göttingen, Stadt","type":"Stadt"},"district":{"key":"03159","name":"Göttingen","type":"Landkreis"},"federalState":{"key":"03","name":"Niedersachsen"}},{"name":"Lange Nacht","postalCode":"37085","locality":"Göttingen","municipality":{"key":"03159016","name":"Göttingen, Stadt","type":"Stadt"},"district":{"key":"03159","name":"Göttingen","type":"Landkreis"},"federalState":{"key":"03","name":"Niedersachsen"}},{"name":"Lange Rekesweg","postalCode":"37079","locality":"Göttingen","municipality":{"key":"03159016","name":"Göttingen, Stadt","type":"Stadt"},"district":{"key":"03159","name":"Göttingen","type":"Landkreis"},"federalState":{"key":"03","name":"Niedersachsen"}},{"name":"Lange Rekesweg","postalCode":"37081","locality":"Göttingen","municipality":{"key":"03159016","name":"Göttingen, Stadt","type":"Stadt"},"district":{"key":"03159","name":"Göttingen","type":"Landkreis"},"federalState":{"key":"03","name":"Niedersachsen"}},{"name":"Langer Weg","postalCode":"37431","locality":"Harz (Landkreis Göttingen)","municipality":{"key":"03159501","name":"Harz (Landkreis Göttingen), gemfr. Geb.","type":"Gemeindefreies_Gebiet_Unbewohnt"},"district":{"key":"03159","name":"Göttingen","type":"Landkreis"},"federalState":{"key":"03","name":"Niedersachsen"}},{"name":"Langer Weg","postalCode":"37445","locality":"Harz (Landkreis Göttingen)","municipality":{"key":"03159501","name":"Harz (Landkreis Göttingen), gemfr. Geb.","type":"Gemeindefreies_Gebiet_Unbewohnt"},"district":{"key":"03159","name":"Göttingen","type":"Landkreis"},"federalState":{"key":"03","name":"Niedersachsen"}},{"name":"Lange Schluftweg","postalCode":"37520","locality":"Harz (Landkreis Göttingen)","municipality":{"key":"03159501","name":"Harz (Landkreis Göttingen), gemfr. Geb.","type":"Gemeindefreies_Gebiet_Unbewohnt"},"district":{"key":"03159","name":"Göttingen","type":"Landkreis"},"federalState":{"key":"03","name":"Niedersachsen"}},{"name":"Lange Str.","postalCode":"37077","locality":"Göttingen","municipality":{"key":"03159016","name":"Göttingen, Stadt","type":"Stadt"},"district":{"key":"03159","name":"Göttingen","type":"Landkreis"},"federalState":{"key":"03","name":"Niedersachsen"}},{"name":"Lange Wiese","postalCode":"37520","locality":"Harz (Landkreis Göttingen)","municipality":{"key":"03159501","name":"Harz (Landkreis Göttingen), gemfr. Geb.","type":"Gemeindefreies_Gebiet_Unbewohnt"},"district":{"key":"03159","name":"Göttingen","type":"Landkreis"},"federalState":{"key":"03","name":"Niedersachsen"}},{"name":"Langfasthöhenweg","postalCode":"37412","locality":"Harz (Landkreis Göttingen)","municipality":{"key":"03159501","name":"Harz (Landkreis Göttingen), gemfr. Geb.","type":"Gemeindefreies_Gebiet_Unbewohnt"},"district":{"key":"03159","name":"Göttingen","type":"Landkreis"},"federalState":{"key":"03","name":"Niedersachsen"}},{"name":"Langfaststr.","postalCode":"37412","locality":"Harz (Landkreis Göttingen)","municipality":{"key":"03159501","name":"Harz (Landkreis Göttingen), gemfr. Geb.","type":"Gemeindefreies_Gebiet_Unbewohnt"},"district":{"key":"03159","name":"Göttingen","type":"Landkreis"},"federalState":{"key":"03","name":"Niedersachsen"}},{"name":"Langfastweg","postalCode":"37412","locality":"Harz (Landkreis Göttingen)","municipality":{"key":"03159501","name":"Harz (Landkreis Göttingen), gemfr. Geb.","type":"Gemeindefreies_Gebiet_Unbewohnt"},"district":{"key":"03159","name":"Göttingen","type":"Landkreis"},"federalState":{"key":"03","name":"Niedersachsen"}},{"name":"Langfastweg","postalCode":"37520","locality":"Harz (Landkreis Göttingen)","municipality":{"key":"03159501","name":"Harz (Landkreis Göttingen), gemfr. Geb.","type":"Gemeindefreies_Gebiet_Unbewohnt"},"district":{"key":"03159","name":"Göttingen","type":"Landkreis"},"federalState":{"key":"03","name":"Niedersachsen"}},{"name":"Lanziusweg","postalCode":"37431","locality":"Harz (Landkreis Göttingen)","municipality":{"key":"03159501","name":"Harz (Landkreis Göttingen), gemfr. Geb.","type":"Gemeindefreies_Gebiet_Unbewohnt"},"district":{"key":"03159","name":"Göttingen","type":"Landkreis"},"federalState":{"key":"03","name":"Niedersachsen"}},{"name":"Lärchenweg","postalCode":"37079","locality":"Göttingen","municipality":{"key":"03159016","name":"Göttingen, Stadt","type":"Stadt"},"district":{"key":"03159","name":"Göttingen","type":"Landkreis"},"federalState":{"key":"03","name":"Niedersachsen"}},{"name":"Lärchenweg","postalCode":"37431","locality":"Harz (Landkreis Göttingen)","municipality":{"key":"03159501","name":"Harz (Landkreis Göttingen), gemfr. Geb.","type":"Gemeindefreies_Gebiet_Unbewohnt"},"district":{"key":"03159","name":"Göttingen","type":"Landkreis"},"federalState":{"key":"03","name":"Niedersachsen"}},{"name":"Laubtalweg","postalCode":"37520","locality":"Harz (Landkreis Göttingen)","municipality":{"key":"03159501","name":"Harz (Landkreis Göttingen), gemfr. Geb.","type":"Gemeindefreies_Gebiet_Unbewohnt"},"district":{"key":"03159","name":"Göttingen","type":"Landkreis"},"federalState":{"key":"03","name":"Niedersachsen"}},{"name":"Lehmkuhle","postalCode":"37075","locality":"Göttingen","municipality":{"key":"03159016","name":"Göttingen, Stadt","type":"Stadt"},"district":{"key":"03159","name":"Göttingen","type":"Landkreis"},"federalState":{"key":"03","name":"Niedersachsen"}},{"name":"Lehmkuhlenstr.","postalCode":"37077","locality":"Göttingen","municipality":{"key":"03159016","name":"Göttingen, Stadt","type":"Stadt"},"district":{"key":"03159","name":"Göttingen","type":"Landkreis"},"federalState":{"key":"03","name":"Niedersachsen"}},{"name":"Lehnshof","postalCode":"37079","locality":"Göttingen","municipality":{"key":"03159016","name":"Göttingen, Stadt","type":"Stadt"},"district":{"key":"03159","name":"Göttingen","type":"Landkreis"},"federalState":{"key":"03","name":"Niedersachsen"}},{"name":"Leibnizstr.","postalCode":"37083","locality":"Göttingen","municipality":{"key":"03159016","name":"Göttingen, Stadt","type":"Stadt"},"district":{"key":"03159","name":"Göttingen","type":"Landkreis"},"federalState":{"key":"03","name":"Niedersachsen"}},{"name":"Leimtaler Planweg","postalCode":"37520","locality":"Harz (Landkreis Göttingen)","municipality":{"key":"03159501","name":"Harz (Landkreis Göttingen), gemfr. Geb.","type":"Gemeindefreies_Gebiet_Unbewohnt"},"district":{"key":"03159","name":"Göttingen","type":"Landkreis"},"federalState":{"key":"03","name":"Niedersachsen"}},{"name":"Leinebergpark","postalCode":"37081","locality":"Göttingen","municipality":{"key":"03159016","name":"Göttingen, Stadt","type":"Stadt"},"district":{"key":"03159","name":"Göttingen","type":"Landkreis"},"federalState":{"key":"03","name":"Niedersachsen"}},{"name":"Leineblick","postalCode":"37077","locality":"Göttingen","municipality":{"key":"03159016","name":"Göttingen, Stadt","type":"Stadt"},"district":{"key":"03159","name":"Göttingen","type":"Landkreis"},"federalState":{"key":"03","name":"Niedersachsen"}},{"name":"Leinefelder Str.","postalCode":"37085","locality":"Göttingen","municipality":{"key":"03159016","name":"Göttingen, Stadt","type":"Stadt"},"district":{"key":"03159","name":"Göttingen","type":"Landkreis"},"federalState":{"key":"03","name":"Niedersachsen"}},{"name":"Leinepark","postalCode":"37081","locality":"Göttingen","municipality":{"key":"03159016","name":"Göttingen, Stadt","type":"Stadt"},"district":{"key":"03159","name":"Göttingen","type":"Landkreis"},"federalState":{"key":"03","name":"Niedersachsen"}},{"name":"Leine-Park","postalCode":"37081","locality":"Göttingen","municipality":{"key":"03159016","name":"Göttingen, Stadt","type":"Stadt"},"district":{"key":"03159","name":"Göttingen","type":"Landkreis"},"federalState":{"key":"03","name":"Niedersachsen"}},{"name":"Leinestr.","postalCode":"37073","locality":"Göttingen","municipality":{"key":"03159016","name":"Göttingen, Stadt","type":"Stadt"},"district":{"key":"03159","name":"Göttingen","type":"Landkreis"},"federalState":{"key":"03","name":"Niedersachsen"}},{"name":"Leipziger Str.","postalCode":"37085","locality":"Göttingen","municipality":{"key":"03159016","name":"Göttingen, Stadt","type":"Stadt"},"district":{"key":"03159","name":"Göttingen","type":"Landkreis"},"federalState":{"key":"03","name":"Niedersachsen"}},{"name":"Leipzig-Süd-Weg","postalCode":"37081","locality":"Göttingen","municipality":{"key":"03159016","name":"Göttingen, Stadt","type":"Stadt"},"district":{"key":"03159","name":"Göttingen","type":"Landkreis"},"federalState":{"key":"03","name":"Niedersachsen"}},{"name":"Lenglerner Str.","postalCode":"37079","locality":"Göttingen","municipality":{"key":"03159016","name":"Göttingen, Stadt","type":"Stadt"},"district":{"key":"03159","name":"Göttingen","type":"Landkreis"},"federalState":{"key":"03","name":"Niedersachsen"}},{"name":"Leonard-Nelson-Str.","postalCode":"37073","locality":"Göttingen","municipality":{"key":"03159016","name":"Göttingen, Stadt","type":"Stadt"},"district":{"key":"03159","name":"Göttingen","type":"Landkreis"},"federalState":{"key":"03","name":"Niedersachsen"}},{"name":"Leuschnerweg","postalCode":"37075","locality":"Göttingen","municipality":{"key":"03159016","name":"Göttingen, Stadt","type":"Stadt"},"district":{"key":"03159","name":"Göttingen","type":"Landkreis"},"federalState":{"key":"03","name":"Niedersachsen"}},{"name":"Levinscher Park","postalCode":"37079","locality":"Göttingen","municipality":{"key":"03159016","name":"Göttingen, Stadt","type":"Stadt"},"district":{"key":"03159","name":"Göttingen","type":"Landkreis"},"federalState":{"key":"03","name":"Niedersachsen"}},{"name":"Levinstr.","postalCode":"37079","locality":"Göttingen","municipality":{"key":"03159016","name":"Göttingen, Stadt","type":"Stadt"},"district":{"key":"03159","name":"Göttingen","type":"Landkreis"},"federalState":{"key":"03","name":"Niedersachsen"}},{"name":"Lichtenbergstr.","postalCode":"37075","locality":"Göttingen","municipality":{"key":"03159016","name":"Göttingen, Stadt","type":"Stadt"},"district":{"key":"03159","name":"Göttingen","type":"Landkreis"},"federalState":{"key":"03","name":"Niedersachsen"}},{"name":"Lichtenwalder Str.","postalCode":"37081","locality":"Göttingen","municipality":{"key":"03159016","name":"Göttingen, Stadt","type":"Stadt"},"district":{"key":"03159","name":"Göttingen","type":"Landkreis"},"federalState":{"key":"03","name":"Niedersachsen"}},{"name":"Liebermannweg","postalCode":"37085","locality":"Göttingen","municipality":{"key":"03159016","name":"Göttingen, Stadt","type":"Stadt"},"district":{"key":"03159","name":"Göttingen","type":"Landkreis"},"federalState":{"key":"03","name":"Niedersachsen"}},{"name":"Liebrechtstr.","postalCode":"37075","locality":"Göttingen","municipality":{"key":"03159016","name":"Göttingen, Stadt","type":"Stadt"},"district":{"key":"03159","name":"Göttingen","type":"Landkreis"},"federalState":{"key":"03","name":"Niedersachsen"}},{"name":"Liegnitzer Weg","postalCode":"37085","locality":"Göttingen","municipality":{"key":"03159016","name":"Göttingen, Stadt","type":"Stadt"},"district":{"key":"03159","name":"Göttingen","type":"Landkreis"},"federalState":{"key":"03","name":"Niedersachsen"}},{"name":"Liethbergweg","postalCode":"37431","locality":"Harz (Landkreis Göttingen)","municipality":{"key":"03159501","name":"Harz (Landkreis Göttingen), gemfr. Geb.","type":"Gemeindefreies_Gebiet_Unbewohnt"},"district":{"key":"03159","name":"Göttingen","type":"Landkreis"},"federalState":{"key":"03","name":"Niedersachsen"}},{"name":"Liethweg","postalCode":"37520","locality":"Harz (Landkreis Göttingen)","municipality":{"key":"03159501","name":"Harz (Landkreis Göttingen), gemfr. Geb.","type":"Gemeindefreies_Gebiet_Unbewohnt"},"district":{"key":"03159","name":"Göttingen","type":"Landkreis"},"federalState":{"key":"03","name":"Niedersachsen"}},{"name":"Lilienbergsweg","postalCode":"37520","locality":"Harz (Landkreis Göttingen)","municipality":{"key":"03159501","name":"Harz (Landkreis Göttingen), gemfr. Geb.","type":"Gemeindefreies_Gebiet_Unbewohnt"},"district":{"key":"03159","name":"Göttingen","type":"Landkreis"},"federalState":{"key":"03","name":"Niedersachsen"}},{"name":"Lilienthalstr.","postalCode":"37073","locality":"Göttingen","municipality":{"key":"03159016","name":"Göttingen, Stadt","type":"Stadt"},"district":{"key":"03159","name":"Göttingen","type":"Landkreis"},"federalState":{"key":"03","name":"Niedersachsen"}},{"name":"Lindenallee","postalCode":"37081","locality":"Göttingen","municipality":{"key":"03159016","name":"Göttingen, Stadt","type":"Stadt"},"district":{"key":"03159","name":"Göttingen","type":"Landkreis"},"federalState":{"key":"03","name":"Niedersachsen"}},{"name":"Lindenweg","postalCode":"37079","locality":"Göttingen","municipality":{"key":"03159016","name":"Göttingen, Stadt","type":"Stadt"},"district":{"key":"03159","name":"Göttingen","type":"Landkreis"},"federalState":{"key":"03","name":"Niedersachsen"}},{"name":"Lissabonstr.","postalCode":"37079","locality":"Göttingen","municipality":{"key":"03159016","name":"Göttingen, Stadt","type":"Stadt"},"district":{"key":"03159","name":"Göttingen","type":"Landkreis"},"federalState":{"key":"03","name":"Niedersachsen"}},{"name":"Mariengartener Str.","postalCode":"37127","locality":"Jühnde","municipality":{"key":"03159021","name":"Jühnde","type":"Kreisangehörige_Gemeinde"},"district":{"key":"03159","name":"Göttingen","type":"Landkreis"},"federalState":{"key":"03","name":"Niedersachsen"}},{"name":"Meenser Str.","postalCode":"37127","locality":"Jühnde","municipality":{"key":"03159021","name":"Jühnde","type":"Kreisangehörige_Gemeinde"},"district":{"key":"03159","name":"Göttingen","type":"Landkreis"},"federalState":{"key":"03","name":"Niedersachsen"}},{"name":"Mühlengrund","postalCode":"37127","locality":"Jühnde","municipality":{"key":"03159021","name":"Jühnde","type":"Kreisangehörige_Gemeinde"},"district":{"key":"03159","name":"Göttingen","type":"Landkreis"},"federalState":{"key":"03","name":"Niedersachsen"}},{"name":"Neue Siedlung","postalCode":"37127","locality":"Jühnde","municipality":{"key":"03159021","name":"Jühnde","type":"Kreisangehörige_Gemeinde"},"district":{"key":"03159","name":"Göttingen","type":"Landkreis"},"federalState":{"key":"03","name":"Niedersachsen"}},{"name":"Niedere Str.","postalCode":"37127","locality":"Jühnde","municipality":{"key":"03159021","name":"Jühnde","type":"Kreisangehörige_Gemeinde"},"district":{"key":"03159","name":"Göttingen","type":"Landkreis"},"federalState":{"key":"03","name":"Niedersachsen"}},{"name":"Obere Str.","postalCode":"37127","locality":"Jühnde","municipality":{"key":"03159021","name":"Jühnde","type":"Kreisangehörige_Gemeinde"},"district":{"key":"03159","name":"Göttingen","type":"Landkreis"},"federalState":{"key":"03","name":"Niedersachsen"}},{"name":"Petrosilienstr.","postalCode":"37127","locality":"Jühnde","municipality":{"key":"03159021","name":"Jühnde","type":"Kreisangehörige_Gemeinde"},"district":{"key":"03159","name":"Göttingen","type":"Landkreis"},"federalState":{"key":"03","name":"Niedersachsen"}},{"name":"Quarztalweg","postalCode":"37520","locality":"Harz (Landkreis Göttingen)","municipality":{"key":"03159501","name":"Harz (Landkreis Göttingen), gemfr. Geb.","type":"Gemeindefreies_Gebiet_Unbewohnt"},"district":{"key":"03159","name":"Göttingen","type":"Landkreis"},"federalState":{"key":"03","name":"Niedersachsen"}},{"name":"Quitschenköpfe","postalCode":"37431","locality":"Harz (Landkreis Göttingen)","municipality":{"key":"03159501","name":"Harz (Landkreis Göttingen), gemfr. Geb.","type":"Gemeindefreies_Gebiet_Unbewohnt"},"district":{"key":"03159","name":"Göttingen","type":"Landkreis"},"federalState":{"key":"03","name":"Niedersachsen"}},{"name":"Quitschenweg","postalCode":"37520","locality":"Harz (Landkreis Göttingen)","municipality":{"key":"03159501","name":"Harz (Landkreis Göttingen), gemfr. Geb.","type":"Gemeindefreies_Gebiet_Unbewohnt"},"district":{"key":"03159","name":"Göttingen","type":"Landkreis"},"federalState":{"key":"03","name":"Niedersachsen"}},{"name":"Radebeuler Weg","postalCode":"37085","locality":"Göttingen","municipality":{"key":"03159016","name":"Göttingen, Stadt","type":"Stadt"},"district":{"key":"03159","name":"Göttingen","type":"Landkreis"},"federalState":{"key":"03","name":"Niedersachsen"}},{"name":"Rasenweg","postalCode":"37081","locality":"Göttingen","municipality":{"key":"03159016","name":"Göttingen, Stadt","type":"Stadt"},"district":{"key":"03159","name":"Göttingen","type":"Landkreis"},"federalState":{"key":"03","name":"Niedersachsen"}},{"name":"Rasenweg","postalCode":"37085","locality":"Göttingen","municipality":{"key":"03159016","name":"Göttingen, Stadt","type":"Stadt"},"district":{"key":"03159","name":"Göttingen","type":"Landkreis"},"federalState":{"key":"03","name":"Niedersachsen"}},{"name":"Rastenburger Weg","postalCode":"37083","locality":"Göttingen","municipality":{"key":"03159016","name":"Göttingen, Stadt","type":"Stadt"},"district":{"key":"03159","name":"Göttingen","type":"Landkreis"},"federalState":{"key":"03","name":"Niedersachsen"}},{"name":"Rathenaustr.","postalCode":"37081","locality":"Göttingen","municipality":{"key":"03159016","name":"Göttingen, Stadt","type":"Stadt"},"district":{"key":"03159","name":"Göttingen","type":"Landkreis"},"federalState":{"key":"03","name":"Niedersachsen"}},{"name":"Rautenbreite","postalCode":"37077","locality":"Göttingen","municipality":{"key":"03159016","name":"Göttingen, Stadt","type":"Stadt"},"district":{"key":"03159","name":"Göttingen","type":"Landkreis"},"federalState":{"key":"03","name":"Niedersachsen"}},{"name":"Rebenweg","postalCode":"37081","locality":"Göttingen","municipality":{"key":"03159016","name":"Göttingen, Stadt","type":"Stadt"},"district":{"key":"03159","name":"Göttingen","type":"Landkreis"},"federalState":{"key":"03","name":"Niedersachsen"}},{"name":"Reesenanger","postalCode":"37075","locality":"Göttingen","municipality":{"key":"03159016","name":"Göttingen, Stadt","type":"Stadt"},"district":{"key":"03159","name":"Göttingen","type":"Landkreis"},"federalState":{"key":"03","name":"Niedersachsen"}},{"name":"Rehagen","postalCode":"37520","locality":"Harz (Landkreis Göttingen)","municipality":{"key":"03159501","name":"Harz (Landkreis Göttingen), gemfr. Geb.","type":"Gemeindefreies_Gebiet_Unbewohnt"},"district":{"key":"03159","name":"Göttingen","type":"Landkreis"},"federalState":{"key":"03","name":"Niedersachsen"}},{"name":"Rehbach","postalCode":"37079","locality":"Göttingen","municipality":{"key":"03159016","name":"Göttingen, Stadt","type":"Stadt"},"district":{"key":"03159","name":"Göttingen","type":"Landkreis"},"federalState":{"key":"03","name":"Niedersachsen"}},{"name":"Rehbachstr.","postalCode":"37081","locality":"Göttingen","municipality":{"key":"03159016","name":"Göttingen, Stadt","type":"Stadt"},"district":{"key":"03159","name":"Göttingen","type":"Landkreis"},"federalState":{"key":"03","name":"Niedersachsen"}},{"name":"Reinhard-Rube-Str.","postalCode":"37077","locality":"Göttingen","municipality":{"key":"03159016","name":"Göttingen, Stadt","type":"Stadt"},"district":{"key":"03159","name":"Göttingen","type":"Landkreis"},"federalState":{"key":"03","name":"Niedersachsen"}},{"name":"Reinhäuser Landstr.","postalCode":"37083","locality":"Göttingen","municipality":{"key":"03159016","name":"Göttingen, Stadt","type":"Stadt"},"district":{"key":"03159","name":"Göttingen","type":"Landkreis"},"federalState":{"key":"03","name":"Niedersachsen"}},{"name":"Reinholdstr.","postalCode":"37083","locality":"Göttingen","municipality":{"key":"03159016","name":"Göttingen, Stadt","type":"Stadt"},"district":{"key":"03159","name":"Göttingen","type":"Landkreis"},"federalState":{"key":"03","name":"Niedersachsen"}},{"name":"Reinkeweg","postalCode":"37085","locality":"Göttingen","municipality":{"key":"03159016","name":"Göttingen, Stadt","type":"Stadt"},"district":{"key":"03159","name":"Göttingen","type":"Landkreis"},"federalState":{"key":"03","name":"Niedersachsen"}},{"name":"Reinshof","postalCode":"37083","locality":"Göttingen","municipality":{"key":"03159016","name":"Göttingen, Stadt","type":"Stadt"},"district":{"key":"03159","name":"Göttingen","type":"Landkreis"},"federalState":{"key":"03","name":"Niedersachsen"}},{"name":"Reitstallstr.","postalCode":"37073","locality":"Göttingen","municipality":{"key":"03159016","name":"Göttingen, Stadt","type":"Stadt"},"district":{"key":"03159","name":"Göttingen","type":"Landkreis"},"federalState":{"key":"03","name":"Niedersachsen"}},{"name":"Reitstieg","postalCode":"37520","locality":"Harz (Landkreis Göttingen)","municipality":{"key":"03159501","name":"Harz (Landkreis Göttingen), gemfr. Geb.","type":"Gemeindefreies_Gebiet_Unbewohnt"},"district":{"key":"03159","name":"Göttingen","type":"Landkreis"},"federalState":{"key":"03","name":"Niedersachsen"}},{"name":"Resedaweg","postalCode":"37077","locality":"Göttingen","municipality":{"key":"03159016","name":"Göttingen, Stadt","type":"Stadt"},"district":{"key":"03159","name":"Göttingen","type":"Landkreis"},"federalState":{"key":"03","name":"Niedersachsen"}},{"name":"Rhönbogen","postalCode":"37081","locality":"Göttingen","municipality":{"key":"03159016","name":"Göttingen, Stadt","type":"Stadt"},"district":{"key":"03159","name":"Göttingen","type":"Landkreis"},"federalState":{"key":"03","name":"Niedersachsen"}},{"name":"Rhumeweg","postalCode":"37081","locality":"Göttingen","municipality":{"key":"03159016","name":"Göttingen, Stadt","type":"Stadt"},"district":{"key":"03159","name":"Göttingen","type":"Landkreis"},"federalState":{"key":"03","name":"Niedersachsen"}},{"name":"Ricarda-Huch-Weg","postalCode":"37085","locality":"Göttingen","municipality":{"key":"03159016","name":"Göttingen, Stadt","type":"Stadt"},"district":{"key":"03159","name":"Göttingen","type":"Landkreis"},"federalState":{"key":"03","name":"Niedersachsen"}},{"name":"Richard-Courant-Weg","postalCode":"37077","locality":"Göttingen","municipality":{"key":"03159016","name":"Göttingen, Stadt","type":"Stadt"},"district":{"key":"03159","name":"Göttingen","type":"Landkreis"},"federalState":{"key":"03","name":"Niedersachsen"}},{"name":"Richard-Zsigmondy-Weg","postalCode":"37075","locality":"Göttingen","municipality":{"key":"03159016","name":"Göttingen, Stadt","type":"Stadt"},"district":{"key":"03159","name":"Göttingen","type":"Landkreis"},"federalState":{"key":"03","name":"Niedersachsen"}},{"name":"Richtstieg","postalCode":"37445","locality":"Harz (Landkreis Göttingen)","municipality":{"key":"03159501","name":"Harz (Landkreis Göttingen), gemfr. Geb.","type":"Gemeindefreies_Gebiet_Unbewohnt"},"district":{"key":"03159","name":"Göttingen","type":"Landkreis"},"federalState":{"key":"03","name":"Niedersachsen"}},{"name":"Riemannstr.","postalCode":"37083","locality":"Göttingen","municipality":{"key":"03159016","name":"Göttingen, Stadt","type":"Stadt"},"district":{"key":"03159","name":"Göttingen","type":"Landkreis"},"federalState":{"key":"03","name":"Niedersachsen"}},{"name":"Rieswartenweg","postalCode":"37077","locality":"Göttingen","municipality":{"key":"03159016","name":"Göttingen, Stadt","type":"Stadt"},"district":{"key":"03159","name":"Göttingen","type":"Landkreis"},"federalState":{"key":"03","name":"Niedersachsen"}},{"name":"Rischkopfweg","postalCode":"37520","locality":"Harz (Landkreis Göttingen)","municipality":{"key":"03159501","name":"Harz (Landkreis Göttingen), gemfr. Geb.","type":"Gemeindefreies_Gebiet_Unbewohnt"},"district":{"key":"03159","name":"Göttingen","type":"Landkreis"},"federalState":{"key":"03","name":"Niedersachsen"}},{"name":"Ritschlweg","postalCode":"37075","locality":"Göttingen","municipality":{"key":"03159016","name":"Göttingen, Stadt","type":"Stadt"},"district":{"key":"03159","name":"Göttingen","type":"Landkreis"},"federalState":{"key":"03","name":"Niedersachsen"}},{"name":"Ritterplan","postalCode":"37073","locality":"Göttingen","municipality":{"key":"03159016","name":"Göttingen, Stadt","type":"Stadt"},"district":{"key":"03159","name":"Göttingen","type":"Landkreis"},"federalState":{"key":"03","name":"Niedersachsen"}},{"name":"Robert-Bosch-Breite","postalCode":"37079","locality":"Göttingen","municipality":{"key":"03159016","name":"Göttingen, Stadt","type":"Stadt"},"district":{"key":"03159","name":"Göttingen","type":"Landkreis"},"federalState":{"key":"03","name":"Niedersachsen"}},{"name":"Robert-Gernhardt-Platz","postalCode":"37073","locality":"Göttingen","municipality":{"key":"03159016","name":"Göttingen, Stadt","type":"Stadt"},"district":{"key":"03159","name":"Göttingen","type":"Landkreis"},"federalState":{"key":"03","name":"Niedersachsen"}},{"name":"Robert-Koch-Str.","postalCode":"37075","locality":"Göttingen","municipality":{"key":"03159016","name":"Göttingen, Stadt","type":"Stadt"},"district":{"key":"03159","name":"Göttingen","type":"Landkreis"},"federalState":{"key":"03","name":"Niedersachsen"}},{"name":"Rodelbahn","postalCode":"37085","locality":"Göttingen","municipality":{"key":"03159016","name":"Göttingen, Stadt","type":"Stadt"},"district":{"key":"03159","name":"Göttingen","type":"Landkreis"},"federalState":{"key":"03","name":"Niedersachsen"}},{"name":"Rodeweg","postalCode":"37081","locality":"Göttingen","municipality":{"key":"03159016","name":"Göttingen, Stadt","type":"Stadt"},"district":{"key":"03159","name":"Göttingen","type":"Landkreis"},"federalState":{"key":"03","name":"Niedersachsen"}},{"name":"Roedererstr.","postalCode":"37073","locality":"Göttingen","municipality":{"key":"03159016","name":"Göttingen, Stadt","type":"Stadt"},"district":{"key":"03159","name":"Göttingen","type":"Landkreis"},"federalState":{"key":"03","name":"Niedersachsen"}},{"name":"Rohnsterrassen","postalCode":"37085","locality":"Göttingen","municipality":{"key":"03159016","name":"Göttingen, Stadt","type":"Stadt"},"district":{"key":"03159","name":"Göttingen","type":"Landkreis"},"federalState":{"key":"03","name":"Niedersachsen"}},{"name":"Rohnsweg","postalCode":"37085","locality":"Göttingen","municipality":{"key":"03159016","name":"Göttingen, Stadt","type":"Stadt"},"district":{"key":"03159","name":"Göttingen","type":"Landkreis"},"federalState":{"key":"03","name":"Niedersachsen"}},{"name":"Rohrtalsweg","postalCode":"37520","locality":"Harz (Landkreis Göttingen)","municipality":{"key":"03159501","name":"Harz (Landkreis Göttingen), gemfr. Geb.","type":"Gemeindefreies_Gebiet_Unbewohnt"},"district":{"key":"03159","name":"Göttingen","type":"Landkreis"},"federalState":{"key":"03","name":"Niedersachsen"}},{"name":"Rohschlopenweg","postalCode":"37079","locality":"Göttingen","municipality":{"key":"03159016","name":"Göttingen, Stadt","type":"Stadt"},"district":{"key":"03159","name":"Göttingen","type":"Landkreis"},"federalState":{"key":"03","name":"Niedersachsen"}},{"name":"Rolando-Weg","postalCode":"37445","locality":"Harz (Landkreis Göttingen)","municipality":{"key":"03159501","name":"Harz (Landkreis Göttingen), gemfr. Geb.","type":"Gemeindefreies_Gebiet_Unbewohnt"},"district":{"key":"03159","name":"Göttingen","type":"Landkreis"},"federalState":{"key":"03","name":"Niedersachsen"}},{"name":"Rolandweg","postalCode":"37520","locality":"Harz (Landkreis Göttingen)","municipality":{"key":"03159501","name":"Harz (Landkreis Göttingen), gemfr. Geb.","type":"Gemeindefreies_Gebiet_Unbewohnt"},"district":{"key":"03159","name":"Göttingen","type":"Landkreis"},"federalState":{"key":"03","name":"Niedersachsen"}},{"name":"Romstr.","postalCode":"37079","locality":"Göttingen","municipality":{"key":"03159016","name":"Göttingen, Stadt","type":"Stadt"},"district":{"key":"03159","name":"Göttingen","type":"Landkreis"},"federalState":{"key":"03","name":"Niedersachsen"}},{"name":"Roringer Stieg","postalCode":"37075","locality":"Göttingen","municipality":{"key":"03159016","name":"Göttingen, Stadt","type":"Stadt"},"district":{"key":"03159","name":"Göttingen","type":"Landkreis"},"federalState":{"key":"03","name":"Niedersachsen"}},{"name":"Roringer Winkel","postalCode":"37077","locality":"Göttingen","municipality":{"key":"03159016","name":"Göttingen, Stadt","type":"Stadt"},"district":{"key":"03159","name":"Göttingen","type":"Landkreis"},"federalState":{"key":"03","name":"Niedersachsen"}},{"name":"Rosdorfer Kreisel","postalCode":"37081","locality":"Göttingen","municipality":{"key":"03159016","name":"Göttingen, Stadt","type":"Stadt"},"district":{"key":"03159","name":"Göttingen","type":"Landkreis"},"federalState":{"key":"03","name":"Niedersachsen"}},{"name":"Rosdorfer Weg","postalCode":"37073","locality":"Göttingen","municipality":{"key":"03159016","name":"Göttingen, Stadt","type":"Stadt"},"district":{"key":"03159","name":"Göttingen","type":"Landkreis"},"federalState":{"key":"03","name":"Niedersachsen"}},{"name":"Rosdorfer Weg","postalCode":"37081","locality":"Göttingen","municipality":{"key":"03159016","name":"Göttingen, Stadt","type":"Stadt"},"district":{"key":"03159","name":"Göttingen","type":"Landkreis"},"federalState":{"key":"03","name":"Niedersachsen"}},{"name":"Rosdorfer Weg","postalCode":"37083","locality":"Göttingen","municipality":{"key":"03159016","name":"Göttingen, Stadt","type":"Stadt"},"district":{"key":"03159","name":"Göttingen","type":"Landkreis"},"federalState":{"key":"03","name":"Niedersachsen"}},{"name":"Rosenweg","postalCode":"37081","locality":"Göttingen","municipality":{"key":"03159016","name":"Göttingen, Stadt","type":"Stadt"},"district":{"key":"03159","name":"Göttingen","type":"Landkreis"},"federalState":{"key":"03","name":"Niedersachsen"}},{"name":"Schedener Weg","postalCode":"37127","locality":"Jühnde","municipality":{"key":"03159021","name":"Jühnde","type":"Kreisangehörige_Gemeinde"},"district":{"key":"03159","name":"Göttingen","type":"Landkreis"},"federalState":{"key":"03","name":"Niedersachsen"}},{"name":"Talgraben","postalCode":"37079","locality":"Göttingen","municipality":{"key":"03159016","name":"Göttingen, Stadt","type":"Stadt"},"district":{"key":"03159","name":"Göttingen","type":"Landkreis"},"federalState":{"key":"03","name":"Niedersachsen"}},{"name":"Talsperrenrandstr.","postalCode":"37431","locality":"Harz (Landkreis Göttingen)","municipality":{"key":"03159501","name":"Harz (Landkreis Göttingen), gemfr. Geb.","type":"Gemeindefreies_Gebiet_Unbewohnt"},"district":{"key":"03159","name":"Göttingen","type":"Landkreis"},"federalState":{"key":"03","name":"Niedersachsen"}},{"name":"Tammannstr.","postalCode":"37077","locality":"Göttingen","municipality":{"key":"03159016","name":"Göttingen, Stadt","type":"Stadt"},"district":{"key":"03159","name":"Göttingen","type":"Landkreis"},"federalState":{"key":"03","name":"Niedersachsen"}},{"name":"Tannenhaiweg","postalCode":"37077","locality":"Göttingen","municipality":{"key":"03159016","name":"Göttingen, Stadt","type":"Stadt"},"district":{"key":"03159","name":"Göttingen","type":"Landkreis"},"federalState":{"key":"03","name":"Niedersachsen"}},{"name":"Tannenhalweg","postalCode":"37431","locality":"Harz (Landkreis Göttingen)","municipality":{"key":"03159501","name":"Harz (Landkreis Göttingen), gemfr. Geb.","type":"Gemeindefreies_Gebiet_Unbewohnt"},"district":{"key":"03159","name":"Göttingen","type":"Landkreis"},"federalState":{"key":"03","name":"Niedersachsen"}},{"name":"Tannenweg","postalCode":"37085","locality":"Göttingen","municipality":{"key":"03159016","name":"Göttingen, Stadt","type":"Stadt"},"district":{"key":"03159","name":"Göttingen","type":"Landkreis"},"federalState":{"key":"03","name":"Niedersachsen"}},{"name":"Tecklenburgstr.","postalCode":"37075","locality":"Göttingen","municipality":{"key":"03159016","name":"Göttingen, Stadt","type":"Stadt"},"district":{"key":"03159","name":"Göttingen","type":"Landkreis"},"federalState":{"key":"03","name":"Niedersachsen"}},{"name":"Tegeler Weg","postalCode":"37085","locality":"Göttingen","municipality":{"key":"03159016","name":"Göttingen, Stadt","type":"Stadt"},"district":{"key":"03159","name":"Göttingen","type":"Landkreis"},"federalState":{"key":"03","name":"Niedersachsen"}},{"name":"Teichgraben","postalCode":"37075","locality":"Göttingen","municipality":{"key":"03159016","name":"Göttingen, Stadt","type":"Stadt"},"district":{"key":"03159","name":"Göttingen","type":"Landkreis"},"federalState":{"key":"03","name":"Niedersachsen"}},{"name":"Teichstr.","postalCode":"37083","locality":"Göttingen","municipality":{"key":"03159016","name":"Göttingen, Stadt","type":"Stadt"},"district":{"key":"03159","name":"Göttingen","type":"Landkreis"},"federalState":{"key":"03","name":"Niedersachsen"}},{"name":"Teichstr.","postalCode":"37085","locality":"Göttingen","municipality":{"key":"03159016","name":"Göttingen, Stadt","type":"Stadt"},"district":{"key":"03159","name":"Göttingen","type":"Landkreis"},"federalState":{"key":"03","name":"Niedersachsen"}},{"name":"Teichweg","postalCode":"37085","locality":"Göttingen","municipality":{"key":"03159016","name":"Göttingen, Stadt","type":"Stadt"},"district":{"key":"03159","name":"Göttingen","type":"Landkreis"},"federalState":{"key":"03","name":"Niedersachsen"}},{"name":"Theaterplatz","postalCode":"37073","locality":"Göttingen","municipality":{"key":"03159016","name":"Göttingen, Stadt","type":"Stadt"},"district":{"key":"03159","name":"Göttingen","type":"Landkreis"},"federalState":{"key":"03","name":"Niedersachsen"}},{"name":"Theaterstr.","postalCode":"37073","locality":"Göttingen","municipality":{"key":"03159016","name":"Göttingen, Stadt","type":"Stadt"},"district":{"key":"03159","name":"Göttingen","type":"Landkreis"},"federalState":{"key":"03","name":"Niedersachsen"}},{"name":"Theenbeekweg","postalCode":"37431","locality":"Harz (Landkreis Göttingen)","municipality":{"key":"03159501","name":"Harz (Landkreis Göttingen), gemfr. Geb.","type":"Gemeindefreies_Gebiet_Unbewohnt"},"district":{"key":"03159","name":"Göttingen","type":"Landkreis"},"federalState":{"key":"03","name":"Niedersachsen"}},{"name":"Theodor-Heuss-Str.","postalCode":"37075","locality":"Göttingen","municipality":{"key":"03159016","name":"Göttingen, Stadt","type":"Stadt"},"district":{"key":"03159","name":"Göttingen","type":"Landkreis"},"federalState":{"key":"03","name":"Niedersachsen"}},{"name":"Theodor-Storm-Str.","postalCode":"37083","locality":"Göttingen","municipality":{"key":"03159016","name":"Göttingen, Stadt","type":"Stadt"},"district":{"key":"03159","name":"Göttingen","type":"Landkreis"},"federalState":{"key":"03","name":"Niedersachsen"}},{"name":"Therese-Grube-Weg","postalCode":"37079","locality":"Göttingen","municipality":{"key":"03159016","name":"Göttingen, Stadt","type":"Stadt"},"district":{"key":"03159","name":"Göttingen","type":"Landkreis"},"federalState":{"key":"03","name":"Niedersachsen"}},{"name":"Therese-Huber-Str.","postalCode":"37085","locality":"Göttingen","municipality":{"key":"03159016","name":"Göttingen, Stadt","type":"Stadt"},"district":{"key":"03159","name":"Göttingen","type":"Landkreis"},"federalState":{"key":"03","name":"Niedersachsen"}},{"name":"Thiestr.","postalCode":"37077","locality":"Göttingen","municipality":{"key":"03159016","name":"Göttingen, Stadt","type":"Stadt"},"district":{"key":"03159","name":"Göttingen","type":"Landkreis"},"federalState":{"key":"03","name":"Niedersachsen"}},{"name":"Thomas-Dehler-Weg","postalCode":"37075","locality":"Göttingen","municipality":{"key":"03159016","name":"Göttingen, Stadt","type":"Stadt"},"district":{"key":"03159","name":"Göttingen","type":"Landkreis"},"federalState":{"key":"03","name":"Niedersachsen"}},{"name":"Thomas-Mann-Str.","postalCode":"37075","locality":"Göttingen","municipality":{"key":"03159016","name":"Göttingen, Stadt","type":"Stadt"},"district":{"key":"03159","name":"Göttingen","type":"Landkreis"},"federalState":{"key":"03","name":"Niedersachsen"}},{"name":"Thorner-Park","postalCode":"37085","locality":"Göttingen","municipality":{"key":"03159016","name":"Göttingen, Stadt","type":"Stadt"},"district":{"key":"03159","name":"Göttingen","type":"Landkreis"},"federalState":{"key":"03","name":"Niedersachsen"}},{"name":"Tieckweg","postalCode":"37075","locality":"Göttingen","municipality":{"key":"03159016","name":"Göttingen, Stadt","type":"Stadt"},"district":{"key":"03159","name":"Göttingen","type":"Landkreis"},"federalState":{"key":"03","name":"Niedersachsen"}},{"name":"Tilsiter Str.","postalCode":"37083","locality":"Göttingen","municipality":{"key":"03159016","name":"Göttingen, Stadt","type":"Stadt"},"district":{"key":"03159","name":"Göttingen","type":"Landkreis"},"federalState":{"key":"03","name":"Niedersachsen"}},{"name":"Tobias-Mayer-Weg","postalCode":"37077","locality":"Göttingen","municipality":{"key":"03159016","name":"Göttingen, Stadt","type":"Stadt"},"district":{"key":"03159","name":"Göttingen","type":"Landkreis"},"federalState":{"key":"03","name":"Niedersachsen"}},{"name":"Tonkuhlenweg","postalCode":"37081","locality":"Göttingen","municipality":{"key":"03159016","name":"Göttingen, Stadt","type":"Stadt"},"district":{"key":"03159","name":"Göttingen","type":"Landkreis"},"federalState":{"key":"03","name":"Niedersachsen"}},{"name":"Torweg","postalCode":"37079","locality":"Göttingen","municipality":{"key":"03159016","name":"Göttingen, Stadt","type":"Stadt"},"district":{"key":"03159","name":"Göttingen","type":"Landkreis"},"federalState":{"key":"03","name":"Niedersachsen"}},{"name":"Totengrund","postalCode":"37075","locality":"Göttingen","municipality":{"key":"03159016","name":"Göttingen, Stadt","type":"Stadt"},"district":{"key":"03159","name":"Göttingen","type":"Landkreis"},"federalState":{"key":"03","name":"Niedersachsen"}},{"name":"Tränkeweg","postalCode":"37079","locality":"Göttingen","municipality":{"key":"03159016","name":"Göttingen, Stadt","type":"Stadt"},"district":{"key":"03159","name":"Göttingen","type":"Landkreis"},"federalState":{"key":"03","name":"Niedersachsen"}},{"name":"Traubenbreite","postalCode":"37077","locality":"Göttingen","municipality":{"key":"03159016","name":"Göttingen, Stadt","type":"Stadt"},"district":{"key":"03159","name":"Göttingen","type":"Landkreis"},"federalState":{"key":"03","name":"Niedersachsen"}},{"name":"Tresckow-Allee","postalCode":"37075","locality":"Göttingen","municipality":{"key":"03159016","name":"Göttingen, Stadt","type":"Stadt"},"district":{"key":"03159","name":"Göttingen","type":"Landkreis"},"federalState":{"key":"03","name":"Niedersachsen"}},{"name":"Trift","postalCode":"37083","locality":"Göttingen","municipality":{"key":"03159016","name":"Göttingen, Stadt","type":"Stadt"},"district":{"key":"03159","name":"Göttingen","type":"Landkreis"},"federalState":{"key":"03","name":"Niedersachsen"}},{"name":"Trift","postalCode":"37085","locality":"Göttingen","municipality":{"key":"03159016","name":"Göttingen, Stadt","type":"Stadt"},"district":{"key":"03159","name":"Göttingen","type":"Landkreis"},"federalState":{"key":"03","name":"Niedersachsen"}},{"name":"Tripkenstieg","postalCode":"37085","locality":"Göttingen","municipality":{"key":"03159016","name":"Göttingen, Stadt","type":"Stadt"},"district":{"key":"03159","name":"Göttingen","type":"Landkreis"},"federalState":{"key":"03","name":"Niedersachsen"}},{"name":"Trommelweg","postalCode":"37431","locality":"Harz (Landkreis Göttingen)","municipality":{"key":"03159501","name":"Harz (Landkreis Göttingen), gemfr. Geb.","type":"Gemeindefreies_Gebiet_Unbewohnt"},"district":{"key":"03159","name":"Göttingen","type":"Landkreis"},"federalState":{"key":"03","name":"Niedersachsen"}},{"name":"Trompetenweg","postalCode":"37081","locality":"Göttingen","municipality":{"key":"03159016","name":"Göttingen, Stadt","type":"Stadt"},"district":{"key":"03159","name":"Göttingen","type":"Landkreis"},"federalState":{"key":"03","name":"Niedersachsen"}},{"name":"Tuchmacherweg","postalCode":"37079","locality":"Göttingen","municipality":{"key":"03159016","name":"Göttingen, Stadt","type":"Stadt"},"district":{"key":"03159","name":"Göttingen","type":"Landkreis"},"federalState":{"key":"03","name":"Niedersachsen"}},{"name":"Tuckermannweg","postalCode":"37085","locality":"Göttingen","municipality":{"key":"03159016","name":"Göttingen, Stadt","type":"Stadt"},"district":{"key":"03159","name":"Göttingen","type":"Landkreis"},"federalState":{"key":"03","name":"Niedersachsen"}},{"name":"Tulpenweg","postalCode":"37081","locality":"Göttingen","municipality":{"key":"03159016","name":"Göttingen, Stadt","type":"Stadt"},"district":{"key":"03159","name":"Göttingen","type":"Landkreis"},"federalState":{"key":"03","name":"Niedersachsen"}},{"name":"Turmstr.","postalCode":"37073","locality":"Göttingen","municipality":{"key":"03159016","name":"Göttingen, Stadt","type":"Stadt"},"district":{"key":"03159","name":"Göttingen","type":"Landkreis"},"federalState":{"key":"03","name":"Niedersachsen"}},{"name":"Twechte","postalCode":"37079","locality":"Göttingen","municipality":{"key":"03159016","name":"Göttingen, Stadt","type":"Stadt"},"district":{"key":"03159","name":"Göttingen","type":"Landkreis"},"federalState":{"key":"03","name":"Niedersachsen"}},{"name":"Uferweg","postalCode":"37077","locality":"Göttingen","municipality":{"key":"03159016","name":"Göttingen, Stadt","type":"Stadt"},"district":{"key":"03159","name":"Göttingen","type":"Landkreis"},"federalState":{"key":"03","name":"Niedersachsen"}},{"name":"Uhlenloch","postalCode":"37077","locality":"Göttingen","municipality":{"key":"03159016","name":"Göttingen, Stadt","type":"Stadt"},"district":{"key":"03159","name":"Göttingen","type":"Landkreis"},"federalState":{"key":"03","name":"Niedersachsen"}},{"name":"Ulmenweg","postalCode":"37077","locality":"Göttingen","municipality":{"key":"03159016","name":"Göttingen, Stadt","type":"Stadt"},"district":{"key":"03159","name":"Göttingen","type":"Landkreis"},"federalState":{"key":"03","name":"Niedersachsen"}},{"name":"Ulmer Weg","postalCode":"37520","locality":"Harz (Landkreis Göttingen)","municipality":{"key":"03159501","name":"Harz (Landkreis Göttingen), gemfr. Geb.","type":"Gemeindefreies_Gebiet_Unbewohnt"},"district":{"key":"03159","name":"Göttingen","type":"Landkreis"},"federalState":{"key":"03","name":"Niedersachsen"}},{"name":"Ulrichstal","postalCode":"37445","locality":"Harz (Landkreis Göttingen)","municipality":{"key":"03159501","name":"Harz (Landkreis Göttingen), gemfr. Geb.","type":"Gemeindefreies_Gebiet_Unbewohnt"},"district":{"key":"03159","name":"Göttingen","type":"Landkreis"},"federalState":{"key":"03","name":"Niedersachsen"}},{"name":"Ulrich-Venzlaff-Str.","postalCode":"37081","locality":"Göttingen","municipality":{"key":"03159016","name":"Göttingen, Stadt","type":"Stadt"},"district":{"key":"03159","name":"Göttingen","type":"Landkreis"},"federalState":{"key":"03","name":"Niedersachsen"}},{"name":"Ulrideshuser Str.","postalCode":"37077","locality":"Göttingen","municipality":{"key":"03159016","name":"Göttingen, Stadt","type":"Stadt"},"district":{"key":"03159","name":"Göttingen","type":"Landkreis"},"federalState":{"key":"03","name":"Niedersachsen"}},{"name":"Ulrike-von-Heynitz-Str.","postalCode":"37073","locality":"Göttingen","municipality":{"key":"03159016","name":"Göttingen, Stadt","type":"Stadt"},"district":{"key":"03159","name":"Göttingen","type":"Landkreis"},"federalState":{"key":"03","name":"Niedersachsen"}},{"name":"Unter dem Kloster","postalCode":"37077","locality":"Göttingen","municipality":{"key":"03159016","name":"Göttingen, Stadt","type":"Stadt"},"district":{"key":"03159","name":"Göttingen","type":"Landkreis"},"federalState":{"key":"03","name":"Niedersachsen"}},{"name":"Unter dem Schmalberg","postalCode":"37079","locality":"Göttingen","municipality":{"key":"03159016","name":"Göttingen, Stadt","type":"Stadt"},"district":{"key":"03159","name":"Göttingen","type":"Landkreis"},"federalState":{"key":"03","name":"Niedersachsen"}},{"name":"Unter den Linden","postalCode":"37085","locality":"Göttingen","municipality":{"key":"03159016","name":"Göttingen, Stadt","type":"Stadt"},"district":{"key":"03159","name":"Göttingen","type":"Landkreis"},"federalState":{"key":"03","name":"Niedersachsen"}},{"name":"Unter der Brunnenbreite","postalCode":"37079","locality":"Göttingen","municipality":{"key":"03159016","name":"Göttingen, Stadt","type":"Stadt"},"district":{"key":"03159","name":"Göttingen","type":"Landkreis"},"federalState":{"key":"03","name":"Niedersachsen"}},{"name":"Unter der Pfalz","postalCode":"37079","locality":"Göttingen","municipality":{"key":"03159016","name":"Göttingen, Stadt","type":"Stadt"},"district":{"key":"03159","name":"Göttingen","type":"Landkreis"},"federalState":{"key":"03","name":"Niedersachsen"}},{"name":"Unter der Rodebreite","postalCode":"37079","locality":"Göttingen","municipality":{"key":"03159016","name":"Göttingen, Stadt","type":"Stadt"},"district":{"key":"03159","name":"Göttingen","type":"Landkreis"},"federalState":{"key":"03","name":"Niedersachsen"}},{"name":"Untere Dorfstr.","postalCode":"37083","locality":"Göttingen","municipality":{"key":"03159016","name":"Göttingen, Stadt","type":"Stadt"},"district":{"key":"03159","name":"Göttingen","type":"Landkreis"},"federalState":{"key":"03","name":"Niedersachsen"}},{"name":"Untere Karspüle","postalCode":"37073","locality":"Göttingen","municipality":{"key":"03159016","name":"Göttingen, Stadt","type":"Stadt"},"district":{"key":"03159","name":"Göttingen","type":"Landkreis"},"federalState":{"key":"03","name":"Niedersachsen"}},{"name":"Untere Lindenbreite","postalCode":"37077","locality":"Göttingen","municipality":{"key":"03159016","name":"Göttingen, Stadt","type":"Stadt"},"district":{"key":"03159","name":"Göttingen","type":"Landkreis"},"federalState":{"key":"03","name":"Niedersachsen"}},{"name":"Untere-Masch-Str.","postalCode":"37073","locality":"Göttingen","municipality":{"key":"03159016","name":"Göttingen, Stadt","type":"Stadt"},"district":{"key":"03159","name":"Göttingen","type":"Landkreis"},"federalState":{"key":"03","name":"Niedersachsen"}},{"name":"Unterer Elstalsweg","postalCode":"37079","locality":"Göttingen","municipality":{"key":"03159016","name":"Göttingen, Stadt","type":"Stadt"},"district":{"key":"03159","name":"Göttingen","type":"Landkreis"},"federalState":{"key":"03","name":"Niedersachsen"}},{"name":"Unterer Heustellenweg","postalCode":"37079","locality":"Göttingen","municipality":{"key":"03159016","name":"Göttingen, Stadt","type":"Stadt"},"district":{"key":"03159","name":"Göttingen","type":"Landkreis"},"federalState":{"key":"03","name":"Niedersachsen"}},{"name":"Unterer Mittelbergsweg","postalCode":"37079","locality":"Göttingen","municipality":{"key":"03159016","name":"Göttingen, Stadt","type":"Stadt"},"district":{"key":"03159","name":"Göttingen","type":"Landkreis"},"federalState":{"key":"03","name":"Niedersachsen"}},{"name":"Unterer Reekenweg","postalCode":"37079","locality":"Göttingen","municipality":{"key":"03159016","name":"Göttingen, Stadt","type":"Stadt"},"district":{"key":"03159","name":"Göttingen","type":"Landkreis"},"federalState":{"key":"03","name":"Niedersachsen"}},{"name":"Unterer Teichtalsweg","postalCode":"37412","locality":"Harz (Landkreis Göttingen)","municipality":{"key":"03159501","name":"Harz (Landkreis Göttingen), gemfr. Geb.","type":"Gemeindefreies_Gebiet_Unbewohnt"},"district":{"key":"03159","name":"Göttingen","type":"Landkreis"},"federalState":{"key":"03","name":"Niedersachsen"}},{"name":"Unterer Weg","postalCode":"37079","locality":"Göttingen","municipality":{"key":"03159016","name":"Göttingen, Stadt","type":"Stadt"},"district":{"key":"03159","name":"Göttingen","type":"Landkreis"},"federalState":{"key":"03","name":"Niedersachsen"}},{"name":"Unterfeldring","postalCode":"37083","locality":"Göttingen","municipality":{"key":"03159016","name":"Göttingen, Stadt","type":"Stadt"},"district":{"key":"03159","name":"Göttingen","type":"Landkreis"},"federalState":{"key":"03","name":"Niedersachsen"}},{"name":"Unterm Hagen","postalCode":"37079","locality":"Göttingen","municipality":{"key":"03159016","name":"Göttingen, Stadt","type":"Stadt"},"district":{"key":"03159","name":"Göttingen","type":"Landkreis"},"federalState":{"key":"03","name":"Niedersachsen"}},{"name":"Unterm Hoppenberge","postalCode":"37079","locality":"Göttingen","municipality":{"key":"03159016","name":"Göttingen, Stadt","type":"Stadt"},"district":{"key":"03159","name":"Göttingen","type":"Landkreis"},"federalState":{"key":"03","name":"Niedersachsen"}},{"name":"Uranusweg","postalCode":"37077","locality":"Göttingen","municipality":{"key":"03159016","name":"Göttingen, Stadt","type":"Stadt"},"district":{"key":"03159","name":"Göttingen","type":"Landkreis"},"federalState":{"key":"03","name":"Niedersachsen"}},{"name":"Valentinsbreite","postalCode":"37077","locality":"Göttingen","municipality":{"key":"03159016","name":"Göttingen, Stadt","type":"Stadt"},"district":{"key":"03159","name":"Göttingen","type":"Landkreis"},"federalState":{"key":"03","name":"Niedersachsen"}},{"name":"v.d. Heydeweg","postalCode":"37520","locality":"Harz (Landkreis Göttingen)","municipality":{"key":"03159501","name":"Harz (Landkreis Göttingen), gemfr. Geb.","type":"Gemeindefreies_Gebiet_Unbewohnt"},"district":{"key":"03159","name":"Göttingen","type":"Landkreis"},"federalState":{"key":"03","name":"Niedersachsen"}},{"name":"Venusring","postalCode":"37077","locality":"Göttingen","municipality":{"key":"03159016","name":"Göttingen, Stadt","type":"Stadt"},"district":{"key":"03159","name":"Göttingen","type":"Landkreis"},"federalState":{"key":"03","name":"Niedersachsen"}},{"name":"Verlorene Kulmkestr.","postalCode":"37520","locality":"Harz (Landkreis Göttingen)","municipality":{"key":"03159501","name":"Harz (Landkreis Göttingen), gemfr. Geb.","type":"Gemeindefreies_Gebiet_Unbewohnt"},"district":{"key":"03159","name":"Göttingen","type":"Landkreis"},"federalState":{"key":"03","name":"Niedersachsen"}},{"name":"Volkenskopfweg","postalCode":"37520","locality":"Harz (Landkreis Göttingen)","municipality":{"key":"03159501","name":"Harz (Landkreis Göttingen), gemfr. Geb.","type":"Gemeindefreies_Gebiet_Unbewohnt"},"district":{"key":"03159","name":"Göttingen","type":"Landkreis"},"federalState":{"key":"03","name":"Niedersachsen"}},{"name":"Von-Bar-Str.","postalCode":"37075","locality":"Göttingen","municipality":{"key":"03159016","name":"Göttingen, Stadt","type":"Stadt"},"district":{"key":"03159","name":"Göttingen","type":"Landkreis"},"federalState":{"key":"03","name":"Niedersachsen"}},{"name":"Von-Baudissin-Str.","postalCode":"37085","locality":"Göttingen","municipality":{"key":"03159016","name":"Göttingen, Stadt","type":"Stadt"},"district":{"key":"03159","name":"Göttingen","type":"Landkreis"},"federalState":{"key":"03","name":"Niedersachsen"}},{"name":"Von-Ossietzky-Str.","postalCode":"37085","locality":"Göttingen","municipality":{"key":"03159016","name":"Göttingen, Stadt","type":"Stadt"},"district":{"key":"03159","name":"Göttingen","type":"Landkreis"},"federalState":{"key":"03","name":"Niedersachsen"}},{"name":"Von-Siebold-Str.","postalCode":"37075","locality":"Göttingen","municipality":{"key":"03159016","name":"Göttingen, Stadt","type":"Stadt"},"district":{"key":"03159","name":"Göttingen","type":"Landkreis"},"federalState":{"key":"03","name":"Niedersachsen"}},{"name":"Von-Witzleben-Str.","postalCode":"37085","locality":"Göttingen","municipality":{"key":"03159016","name":"Göttingen, Stadt","type":"Stadt"},"district":{"key":"03159","name":"Göttingen","type":"Landkreis"},"federalState":{"key":"03","name":"Niedersachsen"}},{"name":"Vor dem Berge","postalCode":"37079","locality":"Göttingen","municipality":{"key":"03159016","name":"Göttingen, Stadt","type":"Stadt"},"district":{"key":"03159","name":"Göttingen","type":"Landkreis"},"federalState":{"key":"03","name":"Niedersachsen"}},{"name":"Vor dem Walde","postalCode":"37085","locality":"Göttingen","municipality":{"key":"03159016","name":"Göttingen, Stadt","type":"Stadt"},"district":{"key":"03159","name":"Göttingen","type":"Landkreis"},"federalState":{"key":"03","name":"Niedersachsen"}},{"name":"Vorderer Königsbergweg","postalCode":"37520","locality":"Harz (Landkreis Göttingen)","municipality":{"key":"03159501","name":"Harz (Landkreis Göttingen), gemfr. Geb.","type":"Gemeindefreies_Gebiet_Unbewohnt"},"district":{"key":"03159","name":"Göttingen","type":"Landkreis"},"federalState":{"key":"03","name":"Niedersachsen"}},{"name":"Vor der Laakenbreite","postalCode":"37075","locality":"Göttingen","municipality":{"key":"03159016","name":"Göttingen, Stadt","type":"Stadt"},"district":{"key":"03159","name":"Göttingen","type":"Landkreis"},"federalState":{"key":"03","name":"Niedersachsen"}},{"name":"Waageplatz","postalCode":"37073","locality":"Göttingen","municipality":{"key":"03159016","name":"Göttingen, Stadt","type":"Stadt"},"district":{"key":"03159","name":"Göttingen","type":"Landkreis"},"federalState":{"key":"03","name":"Niedersachsen"}},{"name":"Wacholderweg","postalCode":"37079","locality":"Göttingen","municipality":{"key":"03159016","name":"Göttingen, Stadt","type":"Stadt"},"district":{"key":"03159","name":"Göttingen","type":"Landkreis"},"federalState":{"key":"03","name":"Niedersachsen"}},{"name":"Wackenroder Weg","postalCode":"37075","locality":"Göttingen","municipality":{"key":"03159016","name":"Göttingen, Stadt","type":"Stadt"},"district":{"key":"03159","name":"Göttingen","type":"Landkreis"},"federalState":{"key":"03","name":"Niedersachsen"}},{"name":"Wagenstieg","postalCode":"37077","locality":"Göttingen","municipality":{"key":"03159016","name":"Göttingen, Stadt","type":"Stadt"},"district":{"key":"03159","name":"Göttingen","type":"Landkreis"},"federalState":{"key":"03","name":"Niedersachsen"}},{"name":"Wagenstieg","postalCode":"37079","locality":"Göttingen","municipality":{"key":"03159016","name":"Göttingen, Stadt","type":"Stadt"},"district":{"key":"03159","name":"Göttingen","type":"Landkreis"},"federalState":{"key":"03","name":"Niedersachsen"}},{"name":"Wagnerstr.","postalCode":"37085","locality":"Göttingen","municipality":{"key":"03159016","name":"Göttingen, Stadt","type":"Stadt"},"district":{"key":"03159","name":"Göttingen","type":"Landkreis"},"federalState":{"key":"03","name":"Niedersachsen"}},{"name":"Waitzweg","postalCode":"37085","locality":"Göttingen","municipality":{"key":"03159016","name":"Göttingen, Stadt","type":"Stadt"},"district":{"key":"03159","name":"Göttingen","type":"Landkreis"},"federalState":{"key":"03","name":"Niedersachsen"}},{"name":"Wakenbreite","postalCode":"37079","locality":"Göttingen","municipality":{"key":"03159016","name":"Göttingen, Stadt","type":"Stadt"},"district":{"key":"03159","name":"Göttingen","type":"Landkreis"},"federalState":{"key":"03","name":"Niedersachsen"}},{"name":"Waldenburger Weg","postalCode":"37085","locality":"Göttingen","municipality":{"key":"03159016","name":"Göttingen, Stadt","type":"Stadt"},"district":{"key":"03159","name":"Göttingen","type":"Landkreis"},"federalState":{"key":"03","name":"Niedersachsen"}},{"name":"Waldrebenweg","postalCode":"37077","locality":"Göttingen","municipality":{"key":"03159016","name":"Göttingen, Stadt","type":"Stadt"},"district":{"key":"03159","name":"Göttingen","type":"Landkreis"},"federalState":{"key":"03","name":"Niedersachsen"}},{"name":"Waldschneise","postalCode":"37431","locality":"Harz (Landkreis Göttingen)","municipality":{"key":"03159501","name":"Harz (Landkreis Göttingen), gemfr. Geb.","type":"Gemeindefreies_Gebiet_Unbewohnt"},"district":{"key":"03159","name":"Göttingen","type":"Landkreis"},"federalState":{"key":"03","name":"Niedersachsen"}},{"name":"Waldweg","postalCode":"37073","locality":"Göttingen","municipality":{"key":"03159016","name":"Göttingen, Stadt","type":"Stadt"},"district":{"key":"03159","name":"Göttingen","type":"Landkreis"},"federalState":{"key":"03","name":"Niedersachsen"}},{"name":"Waldweg","postalCode":"37431","locality":"Harz (Landkreis Göttingen)","municipality":{"key":"03159501","name":"Harz (Landkreis Göttingen), gemfr. Geb.","type":"Gemeindefreies_Gebiet_Unbewohnt"},"district":{"key":"03159","name":"Göttingen","type":"Landkreis"},"federalState":{"key":"03","name":"Niedersachsen"}},{"name":"Walkemühlenweg","postalCode":"37083","locality":"Göttingen","municipality":{"key":"03159016","name":"Göttingen, Stadt","type":"Stadt"},"district":{"key":"03159","name":"Göttingen","type":"Landkreis"},"federalState":{"key":"03","name":"Niedersachsen"}},{"name":"Walkenrieder Str.","postalCode":"37445","locality":"Harz (Landkreis Göttingen)","municipality":{"key":"03159501","name":"Harz (Landkreis Göttingen), gemfr. Geb.","type":"Gemeindefreies_Gebiet_Unbewohnt"},"district":{"key":"03159","name":"Göttingen","type":"Landkreis"},"federalState":{"key":"03","name":"Niedersachsen"}},{"name":"Wall","postalCode":"37073","locality":"Göttingen","municipality":{"key":"03159016","name":"Göttingen, Stadt","type":"Stadt"},"district":{"key":"03159","name":"Göttingen","type":"Landkreis"},"federalState":{"key":"03","name":"Niedersachsen"}},{"name":"Wall","postalCode":"37083","locality":"Göttingen","municipality":{"key":"03159016","name":"Göttingen, Stadt","type":"Stadt"},"district":{"key":"03159","name":"Göttingen","type":"Landkreis"},"federalState":{"key":"03","name":"Niedersachsen"}},{"name":"Walter-Engelhardt-Weg","postalCode":"37085","locality":"Göttingen","municipality":{"key":"03159016","name":"Göttingen, Stadt","type":"Stadt"},"district":{"key":"03159","name":"Göttingen","type":"Landkreis"},"federalState":{"key":"03","name":"Niedersachsen"}},{"name":"Walter-Schlieper-Weg","postalCode":"37083","locality":"Göttingen","municipality":{"key":"03159016","name":"Göttingen, Stadt","type":"Stadt"},"district":{"key":"03159","name":"Göttingen","type":"Landkreis"},"federalState":{"key":"03","name":"Niedersachsen"}},{"name":"Walther-Nernst-Weg","postalCode":"37075","locality":"Göttingen","municipality":{"key":"03159016","name":"Göttingen, Stadt","type":"Stadt"},"district":{"key":"03159","name":"Göttingen","type":"Landkreis"},"federalState":{"key":"03","name":"Niedersachsen"}},{"name":"Wartbergstr.","postalCode":"37075","locality":"Göttingen","municipality":{"key":"03159016","name":"Göttingen, Stadt","type":"Stadt"},"district":{"key":"03159","name":"Göttingen","type":"Landkreis"},"federalState":{"key":"03","name":"Niedersachsen"}},{"name":"Wartbergstr.","postalCode":"37085","locality":"Göttingen","municipality":{"key":"03159016","name":"Göttingen, Stadt","type":"Stadt"},"district":{"key":"03159","name":"Göttingen","type":"Landkreis"},"federalState":{"key":"03","name":"Niedersachsen"}},{"name":"Wartbergweg","postalCode":"37075","locality":"Göttingen","municipality":{"key":"03159016","name":"Göttingen, Stadt","type":"Stadt"},"district":{"key":"03159","name":"Göttingen","type":"Landkreis"},"federalState":{"key":"03","name":"Niedersachsen"}},{"name":"Wartburgweg","postalCode":"37085","locality":"Göttingen","municipality":{"key":"03159016","name":"Göttingen, Stadt","type":"Stadt"},"district":{"key":"03159","name":"Göttingen","type":"Landkreis"},"federalState":{"key":"03","name":"Niedersachsen"}},{"name":"Wassergasse","postalCode":"37079","locality":"Göttingen","municipality":{"key":"03159016","name":"Göttingen, Stadt","type":"Stadt"},"district":{"key":"03159","name":"Göttingen","type":"Landkreis"},"federalState":{"key":"03","name":"Niedersachsen"}},{"name":"Wattenbergsweg","postalCode":"37085","locality":"Göttingen","municipality":{"key":"03159016","name":"Göttingen, Stadt","type":"Stadt"},"district":{"key":"03159","name":"Göttingen","type":"Landkreis"},"federalState":{"key":"03","name":"Niedersachsen"}},{"name":"Weendebogen","postalCode":"37077","locality":"Göttingen","municipality":{"key":"03159016","name":"Göttingen, Stadt","type":"Stadt"},"district":{"key":"03159","name":"Göttingen","type":"Landkreis"},"federalState":{"key":"03","name":"Niedersachsen"}},{"name":"Weendelsbreite","postalCode":"37077","locality":"Göttingen","municipality":{"key":"03159016","name":"Göttingen, Stadt","type":"Stadt"},"district":{"key":"03159","name":"Göttingen","type":"Landkreis"},"federalState":{"key":"03","name":"Niedersachsen"}},{"name":"Weender Landstr.","postalCode":"37073","locality":"Göttingen","municipality":{"key":"03159016","name":"Göttingen, Stadt","type":"Stadt"},"district":{"key":"03159","name":"Göttingen","type":"Landkreis"},"federalState":{"key":"03","name":"Niedersachsen"}},{"name":"Weender Landstr.","postalCode":"37075","locality":"Göttingen","municipality":{"key":"03159016","name":"Göttingen, Stadt","type":"Stadt"},"district":{"key":"03159","name":"Göttingen","type":"Landkreis"},"federalState":{"key":"03","name":"Niedersachsen"}},{"name":"Weender Str.","postalCode":"37073","locality":"Göttingen","municipality":{"key":"03159016","name":"Göttingen, Stadt","type":"Stadt"},"district":{"key":"03159","name":"Göttingen","type":"Landkreis"},"federalState":{"key":"03","name":"Niedersachsen"}},{"name":"Weender Weg","postalCode":"37077","locality":"Göttingen","municipality":{"key":"03159016","name":"Göttingen, Stadt","type":"Stadt"},"district":{"key":"03159","name":"Göttingen","type":"Landkreis"},"federalState":{"key":"03","name":"Niedersachsen"}},{"name":"Weg 1 - Jasminweg","postalCode":"37077","locality":"Göttingen","municipality":{"key":"03159016","name":"Göttingen, Stadt","type":"Stadt"},"district":{"key":"03159","name":"Göttingen","type":"Landkreis"},"federalState":{"key":"03","name":"Niedersachsen"}},{"name":"Weg 2","postalCode":"37077","locality":"Göttingen","municipality":{"key":"03159016","name":"Göttingen, Stadt","type":"Stadt"},"district":{"key":"03159","name":"Göttingen","type":"Landkreis"},"federalState":{"key":"03","name":"Niedersachsen"}},{"name":"Weg 3 - Schneewittchenweg","postalCode":"37077","locality":"Göttingen","municipality":{"key":"03159016","name":"Göttingen, Stadt","type":"Stadt"},"district":{"key":"03159","name":"Göttingen","type":"Landkreis"},"federalState":{"key":"03","name":"Niedersachsen"}},{"name":"Weg 4 - Grüner Weg","postalCode":"37077","locality":"Göttingen","municipality":{"key":"03159016","name":"Göttingen, Stadt","type":"Stadt"},"district":{"key":"03159","name":"Göttingen","type":"Landkreis"},"federalState":{"key":"03","name":"Niedersachsen"}},{"name":"Weg 4 - Spritweg","postalCode":"37077","locality":"Göttingen","municipality":{"key":"03159016","name":"Göttingen, Stadt","type":"Stadt"},"district":{"key":"03159","name":"Göttingen","type":"Landkreis"},"federalState":{"key":"03","name":"Niedersachsen"}},{"name":"Weg 5 - Rot-Fuchs-Weg","postalCode":"37077","locality":"Göttingen","municipality":{"key":"03159016","name":"Göttingen, Stadt","type":"Stadt"},"district":{"key":"03159","name":"Göttingen","type":"Landkreis"},"federalState":{"key":"03","name":"Niedersachsen"}},{"name":"Weg 6 - Wichtelgasse","postalCode":"37077","locality":"Göttingen","municipality":{"key":"03159016","name":"Göttingen, Stadt","type":"Stadt"},"district":{"key":"03159","name":"Göttingen","type":"Landkreis"},"federalState":{"key":"03","name":"Niedersachsen"}},{"name":"Weg zum Grünen Platz","postalCode":"37520","locality":"Harz (Landkreis Göttingen)","municipality":{"key":"03159501","name":"Harz (Landkreis Göttingen), gemfr. Geb.","type":"Gemeindefreies_Gebiet_Unbewohnt"},"district":{"key":"03159","name":"Göttingen","type":"Landkreis"},"federalState":{"key":"03","name":"Niedersachsen"}},{"name":"Weidenbreite","postalCode":"37085","locality":"Göttingen","municipality":{"key":"03159016","name":"Göttingen, Stadt","type":"Stadt"},"district":{"key":"03159","name":"Göttingen","type":"Landkreis"},"federalState":{"key":"03","name":"Niedersachsen"}},{"name":"Weimarer Str.","postalCode":"37085","locality":"Göttingen","municipality":{"key":"03159016","name":"Göttingen, Stadt","type":"Stadt"},"district":{"key":"03159","name":"Göttingen","type":"Landkreis"},"federalState":{"key":"03","name":"Niedersachsen"}},{"name":"Weinbergstr.","postalCode":"37520","locality":"Harz (Landkreis Göttingen)","municipality":{"key":"03159501","name":"Harz (Landkreis Göttingen), gemfr. Geb.","type":"Gemeindefreies_Gebiet_Unbewohnt"},"district":{"key":"03159","name":"Göttingen","type":"Landkreis"},"federalState":{"key":"03","name":"Niedersachsen"}},{"name":"Weinbergweg","postalCode":"37075","locality":"Göttingen","municipality":{"key":"03159016","name":"Göttingen, Stadt","type":"Stadt"},"district":{"key":"03159","name":"Göttingen","type":"Landkreis"},"federalState":{"key":"03","name":"Niedersachsen"}},{"name":"Weißdornweg","postalCode":"37077","locality":"Göttingen","municipality":{"key":"03159016","name":"Göttingen, Stadt","type":"Stadt"},"district":{"key":"03159","name":"Göttingen","type":"Landkreis"},"federalState":{"key":"03","name":"Niedersachsen"}},{"name":"Wellhausenweg","postalCode":"37075","locality":"Göttingen","municipality":{"key":"03159016","name":"Göttingen, Stadt","type":"Stadt"},"district":{"key":"03159","name":"Göttingen","type":"Landkreis"},"federalState":{"key":"03","name":"Niedersachsen"}},{"name":"Wellweg","postalCode":"37079","locality":"Göttingen","municipality":{"key":"03159016","name":"Göttingen, Stadt","type":"Stadt"},"district":{"key":"03159","name":"Göttingen","type":"Landkreis"},"federalState":{"key":"03","name":"Niedersachsen"}},{"name":"Wendelsweg","postalCode":"37077","locality":"Göttingen","municipality":{"key":"03159016","name":"Göttingen, Stadt","type":"Stadt"},"district":{"key":"03159","name":"Göttingen","type":"Landkreis"},"federalState":{"key":"03","name":"Niedersachsen"}},{"name":"Wendeltreppe","postalCode":"37520","locality":"Harz (Landkreis Göttingen)","municipality":{"key":"03159501","name":"Harz (Landkreis Göttingen), gemfr. Geb.","type":"Gemeindefreies_Gebiet_Unbewohnt"},"district":{"key":"03159","name":"Göttingen","type":"Landkreis"},"federalState":{"key":"03","name":"Niedersachsen"}},{"name":"Wendenstr.","postalCode":"37073","locality":"Göttingen","municipality":{"key":"03159016","name":"Göttingen, Stadt","type":"Stadt"},"district":{"key":"03159","name":"Göttingen","type":"Landkreis"},"federalState":{"key":"03","name":"Niedersachsen"}},{"name":"Zacharias-Kempe-Eck","postalCode":"37079","locality":"Göttingen","municipality":{"key":"03159016","name":"Göttingen, Stadt","type":"Stadt"},"district":{"key":"03159","name":"Göttingen","type":"Landkreis"},"federalState":{"key":"03","name":"Niedersachsen"}},{"name":"Zedernweg","postalCode":"37077","locality":"Göttingen","municipality":{"key":"03159016","name":"Göttingen, Stadt","type":"Stadt"},"district":{"key":"03159","name":"Göttingen","type":"Landkreis"},"federalState":{"key":"03","name":"Niedersachsen"}},{"name":"Zehntscheuerstr.","postalCode":"37081","locality":"Göttingen","municipality":{"key":"03159016","name":"Göttingen, Stadt","type":"Stadt"},"district":{"key":"03159","name":"Göttingen","type":"Landkreis"},"federalState":{"key":"03","name":"Niedersachsen"}},{"name":"Zeppelinstr.","postalCode":"37083","locality":"Göttingen","municipality":{"key":"03159016","name":"Göttingen, Stadt","type":"Stadt"},"district":{"key":"03159","name":"Göttingen","type":"Landkreis"},"federalState":{"key":"03","name":"Niedersachsen"}},{"name":"Zieglerskopfweg","postalCode":"37431","locality":"Harz (Landkreis Göttingen)","municipality":{"key":"03159501","name":"Harz (Landkreis Göttingen), gemfr. Geb.","type":"Gemeindefreies_Gebiet_Unbewohnt"},"district":{"key":"03159","name":"Göttingen","type":"Landkreis"},"federalState":{"key":"03","name":"Niedersachsen"}},{"name":"Zierkirschenallee","postalCode":"37081","locality":"Göttingen","municipality":{"key":"03159016","name":"Göttingen, Stadt","type":"Stadt"},"district":{"key":"03159","name":"Göttingen","type":"Landkreis"},"federalState":{"key":"03","name":"Niedersachsen"}},{"name":"Zimmermannstr.","postalCode":"37075","locality":"Göttingen","municipality":{"key":"03159016","name":"Göttingen, Stadt","type":"Stadt"},"district":{"key":"03159","name":"Göttingen","type":"Landkreis"},"federalState":{"key":"03","name":"Niedersachsen"}},{"name":"Zimmermannsweg","postalCode":"37520","locality":"Harz (Landkreis Göttingen)","municipality":{"key":"03159501","name":"Harz (Landkreis Göttingen), gemfr. Geb.","type":"Gemeindefreies_Gebiet_Unbewohnt"},"district":{"key":"03159","name":"Göttingen","type":"Landkreis"},"federalState":{"key":"03","name":"Niedersachsen"}},{"name":"Zollstock","postalCode":"37081","locality":"Göttingen","municipality":{"key":"03159016","name":"Göttingen, Stadt","type":"Stadt"},"district":{"key":"03159","name":"Göttingen","type":"Landkreis"},"federalState":{"key":"03","name":"Niedersachsen"}},{"name":"Zorger Weg","postalCode":"37445","locality":"Harz (Landkreis Göttingen)","municipality":{"key":"03159501","name":"Harz (Landkreis Göttingen), gemfr. Geb.","type":"Gemeindefreies_Gebiet_Unbewohnt"},"district":{"key":"03159","name":"Göttingen","type":"Landkreis"},"federalState":{"key":"03","name":"Niedersachsen"}},{"name":"Zum Gallbühl","postalCode":"37079","locality":"Göttingen","municipality":{"key":"03159016","name":"Göttingen, Stadt","type":"Stadt"},"district":{"key":"03159","name":"Göttingen","type":"Landkreis"},"federalState":{"key":"03","name":"Niedersachsen"}},{"name":"Zum Hohen Brunnen","postalCode":"37075","locality":"Göttingen","municipality":{"key":"03159016","name":"Göttingen, Stadt","type":"Stadt"},"district":{"key":"03159","name":"Göttingen","type":"Landkreis"},"federalState":{"key":"03","name":"Niedersachsen"}},{"name":"Zum Kartoffelstein","postalCode":"37075","locality":"Göttingen","municipality":{"key":"03159016","name":"Göttingen, Stadt","type":"Stadt"},"district":{"key":"03159","name":"Göttingen","type":"Landkreis"},"federalState":{"key":"03","name":"Niedersachsen"}},{"name":"Zum Kuhberg","postalCode":"37079","locality":"Göttingen","municipality":{"key":"03159016","name":"Göttingen, Stadt","type":"Stadt"},"district":{"key":"03159","name":"Göttingen","type":"Landkreis"},"federalState":{"key":"03","name":"Niedersachsen"}},{"name":"Zum Kuhlenberg","postalCode":"37079","locality":"Göttingen","municipality":{"key":"03159016","name":"Göttingen, Stadt","type":"Stadt"},"district":{"key":"03159","name":"Göttingen","type":"Landkreis"},"federalState":{"key":"03","name":"Niedersachsen"}},{"name":"Zum Kükenberg","postalCode":"37079","locality":"Göttingen","municipality":{"key":"03159016","name":"Göttingen, Stadt","type":"Stadt"},"district":{"key":"03159","name":"Göttingen","type":"Landkreis"},"federalState":{"key":"03","name":"Niedersachsen"}},{"name":"Zum Leineufer","postalCode":"37081","locality":"Göttingen","municipality":{"key":"03159016","name":"Göttingen, Stadt","type":"Stadt"},"district":{"key":"03159","name":"Göttingen","type":"Landkreis"},"federalState":{"key":"03","name":"Niedersachsen"}},{"name":"Zum Loh","postalCode":"37079","locality":"Göttingen","municipality":{"key":"03159016","name":"Göttingen, Stadt","type":"Stadt"},"district":{"key":"03159","name":"Göttingen","type":"Landkreis"},"federalState":{"key":"03","name":"Niedersachsen"}},{"name":"Zum Ortloh","postalCode":"37077","locality":"Göttingen","municipality":{"key":"03159016","name":"Göttingen, Stadt","type":"Stadt"},"district":{"key":"03159","name":"Göttingen","type":"Landkreis"},"federalState":{"key":"03","name":"Niedersachsen"}},{"name":"Zum Rischen","postalCode":"37079","locality":"Göttingen","municipality":{"key":"03159016","name":"Göttingen, Stadt","type":"Stadt"},"district":{"key":"03159","name":"Göttingen","type":"Landkreis"},"federalState":{"key":"03","name":"Niedersachsen"}},{"name":"Zum Sommerberg","postalCode":"37079","locality":"Göttingen","municipality":{"key":"03159016","name":"Göttingen, Stadt","type":"Stadt"},"district":{"key":"03159","name":"Göttingen","type":"Landkreis"},"federalState":{"key":"03","name":"Niedersachsen"}},{"name":"Zum Sonsfelde","postalCode":"37079","locality":"Göttingen","municipality":{"key":"03159016","name":"Göttingen, Stadt","type":"Stadt"},"district":{"key":"03159","name":"Göttingen","type":"Landkreis"},"federalState":{"key":"03","name":"Niedersachsen"}},{"name":"Zum Umsetzer","postalCode":"37520","locality":"Harz (Landkreis Göttingen)","municipality":{"key":"03159501","name":"Harz (Landkreis Göttingen), gemfr. Geb.","type":"Gemeindefreies_Gebiet_Unbewohnt"},"district":{"key":"03159","name":"Göttingen","type":"Landkreis"},"federalState":{"key":"03","name":"Niedersachsen"}},{"name":"Zur Akelei","postalCode":"37077","locality":"Göttingen","municipality":{"key":"03159016","name":"Göttingen, Stadt","type":"Stadt"},"district":{"key":"03159","name":"Göttingen","type":"Landkreis"},"federalState":{"key":"03","name":"Niedersachsen"}},{"name":"Zur Hohen Warte","postalCode":"37077","locality":"Göttingen","municipality":{"key":"03159016","name":"Göttingen, Stadt","type":"Stadt"},"district":{"key":"03159","name":"Göttingen","type":"Landkreis"},"federalState":{"key":"03","name":"Niedersachsen"}},{"name":"Zur Quelle","postalCode":"37079","locality":"Göttingen","municipality":{"key":"03159016","name":"Göttingen, Stadt","type":"Stadt"},"district":{"key":"03159","name":"Göttingen","type":"Landkreis"},"federalState":{"key":"03","name":"Niedersachsen"}},{"name":"Zur Scharfmühle","postalCode":"37083","locality":"Göttingen","municipality":{"key":"03159016","name":"Göttingen, Stadt","type":"Stadt"},"district":{"key":"03159","name":"Göttingen","type":"Landkreis"},"federalState":{"key":"03","name":"Niedersachsen"}},{"name":"Äbtissinnenweg","postalCode":"37079","locality":"Göttingen","municipality":{"key":"03159016","name":"Göttingen, Stadt","type":"Stadt"},"district":{"key":"03159","name":"Göttingen","type":"Landkreis"},"federalState":{"key":"03","name":"Niedersachsen"}},{"name":"Übelsbergweg","postalCode":"37431","locality":"Harz (Landkreis Göttingen)","municipality":{"key":"03159501","name":"Harz (Landkreis Göttingen), gemfr. Geb.","type":"Gemeindefreies_Gebiet_Unbewohnt"},"district":{"key":"03159","name":"Göttingen","type":"Landkreis"},"federalState":{"key":"03","name":"Niedersachsen"}},{"name":"Über dem Buschwege","postalCode":"37077","locality":"Göttingen","municipality":{"key":"03159016","name":"Göttingen, Stadt","type":"Stadt"},"district":{"key":"03159","name":"Göttingen","type":"Landkreis"},"federalState":{"key":"03","name":"Niedersachsen"}},{"name":"Über dem Dorfe","postalCode":"37085","locality":"Göttingen","municipality":{"key":"03159016","name":"Göttingen, Stadt","type":"Stadt"},"district":{"key":"03159","name":"Göttingen","type":"Landkreis"},"federalState":{"key":"03","name":"Niedersachsen"}},{"name":"Über dem Hainholzgraben","postalCode":"37079","locality":"Göttingen","municipality":{"key":"03159016","name":"Göttingen, Stadt","type":"Stadt"},"district":{"key":"03159","name":"Göttingen","type":"Landkreis"},"federalState":{"key":"03","name":"Niedersachsen"}},{"name":"Über den Beekhöfen","postalCode":"37079","locality":"Göttingen","municipality":{"key":"03159016","name":"Göttingen, Stadt","type":"Stadt"},"district":{"key":"03159","name":"Göttingen","type":"Landkreis"},"federalState":{"key":"03","name":"Niedersachsen"}},{"name":"Über den Bühwiesen","postalCode":"37083","locality":"Göttingen","municipality":{"key":"03159016","name":"Göttingen, Stadt","type":"Stadt"},"district":{"key":"03159","name":"Göttingen","type":"Landkreis"},"federalState":{"key":"03","name":"Niedersachsen"}},{"name":"Über den Höfen","postalCode":"37077","locality":"Göttingen","municipality":{"key":"03159016","name":"Göttingen, Stadt","type":"Stadt"},"district":{"key":"03159","name":"Göttingen","type":"Landkreis"},"federalState":{"key":"03","name":"Niedersachsen"}},{"name":"Über der Esebeeke","postalCode":"37079","locality":"Göttingen","municipality":{"key":"03159016","name":"Göttingen, Stadt","type":"Stadt"},"district":{"key":"03159","name":"Göttingen","type":"Landkreis"},"federalState":{"key":"03","name":"Niedersachsen"}},]