[{"name":"Alte Salzstr.","postalCode":"01609","locality":"Wülknitz","municipality":{"key":"14627340","name":"Wülknitz","type":"Kreisangehörige_Gemeinde"},"district":{"key":"14627","name":"Meißen","type":"Landkreis"},"federalState":{"key":"14","name":"Sachsen"}},{"name":"Am Bahnhof","postalCode":"01609","locality":"Wülknitz","municipality":{"key":"14627340","name":"Wülknitz","type":"Kreisangehörige_Gemeinde"},"district":{"key":"14627","name":"Meißen","type":"Landkreis"},"federalState":{"key":"14","name":"Sachsen"}},{"name":"Am Fußweg","postalCode":"01609","locality":"Wülknitz","municipality":{"key":"14627340","name":"Wülknitz","type":"Kreisangehörige_Gemeinde"},"district":{"key":"14627","name":"Meißen","type":"Landkreis"},"federalState":{"key":"14","name":"Sachsen"}},{"name":"Am Güterboden","postalCode":"01609","locality":"Wülknitz","municipality":{"key":"14627340","name":"Wülknitz","type":"Kreisangehörige_Gemeinde"},"district":{"key":"14627","name":"Meißen","type":"Landkreis"},"federalState":{"key":"14","name":"Sachsen"}},{"name":"Am Stützpunkt","postalCode":"01609","locality":"Wülknitz","municipality":{"key":"14627340","name":"Wülknitz","type":"Kreisangehörige_Gemeinde"},"district":{"key":"14627","name":"Meißen","type":"Landkreis"},"federalState":{"key":"14","name":"Sachsen"}},{"name":"An der Gartenanlage","postalCode":"01609","locality":"Wülknitz","municipality":{"key":"14627340","name":"Wülknitz","type":"Kreisangehörige_Gemeinde"},"district":{"key":"14627","name":"Meißen","type":"Landkreis"},"federalState":{"key":"14","name":"Sachsen"}},{"name":"Bahnhofstr.","postalCode":"01609","locality":"Wülknitz","municipality":{"key":"14627340","name":"Wülknitz","type":"Kreisangehörige_Gemeinde"},"district":{"key":"14627","name":"Meißen","type":"Landkreis"},"federalState":{"key":"14","name":"Sachsen"}},{"name":"Bauerngasse","postalCode":"01609","locality":"Wülknitz","municipality":{"key":"14627340","name":"Wülknitz","type":"Kreisangehörige_Gemeinde"},"district":{"key":"14627","name":"Meißen","type":"Landkreis"},"federalState":{"key":"14","name":"Sachsen"}},{"name":"Buch-Busch Weg","postalCode":"01609","locality":"Wülknitz","municipality":{"key":"14627340","name":"Wülknitz","type":"Kreisangehörige_Gemeinde"},"district":{"key":"14627","name":"Meißen","type":"Landkreis"},"federalState":{"key":"14","name":"Sachsen"}},{"name":"Buschgasse","postalCode":"01609","locality":"Wülknitz","municipality":{"key":"14627340","name":"Wülknitz","type":"Kreisangehörige_Gemeinde"},"district":{"key":"14627","name":"Meißen","type":"Landkreis"},"federalState":{"key":"14","name":"Sachsen"}},{"name":"Buschweg","postalCode":"01609","locality":"Wülknitz","municipality":{"key":"14627340","name":"Wülknitz","type":"Kreisangehörige_Gemeinde"},"district":{"key":"14627","name":"Meißen","type":"Landkreis"},"federalState":{"key":"14","name":"Sachsen"}},{"name":"Carlsbrücke","postalCode":"01662","locality":"Meißen","municipality":{"key":"14627140","name":"Meißen, Stadt","type":"Stadt"},"district":{"key":"14627","name":"Meißen","type":"Landkreis"},"federalState":{"key":"14","name":"Sachsen"}},{"name":"Carl-Schäfer-Weg","postalCode":"01662","locality":"Meißen","municipality":{"key":"14627140","name":"Meißen, Stadt","type":"Stadt"},"district":{"key":"14627","name":"Meißen","type":"Landkreis"},"federalState":{"key":"14","name":"Sachsen"}},{"name":"Cöllner Str.","postalCode":"01662","locality":"Meißen","municipality":{"key":"14627140","name":"Meißen, Stadt","type":"Stadt"},"district":{"key":"14627","name":"Meißen","type":"Landkreis"},"federalState":{"key":"14","name":"Sachsen"}},{"name":"Crassostr.","postalCode":"01662","locality":"Meißen","municipality":{"key":"14627140","name":"Meißen, Stadt","type":"Stadt"},"district":{"key":"14627","name":"Meißen","type":"Landkreis"},"federalState":{"key":"14","name":"Sachsen"}},{"name":"Curt-Liebich-Str.","postalCode":"77974","locality":"Meißenheim","municipality":{"key":"08317075","name":"Meißenheim","type":"Kreisangehörige_Gemeinde"},"district":{"key":"08317","name":"Ortenaukreis","type":"Landkreis"},"federalState":{"key":"08","name":"Baden-Württemberg"}},{"name":"Dorfstr.","postalCode":"01609","locality":"Wülknitz","municipality":{"key":"14627340","name":"Wülknitz","type":"Kreisangehörige_Gemeinde"},"district":{"key":"14627","name":"Meißen","type":"Landkreis"},"federalState":{"key":"14","name":"Sachsen"}},{"name":"Ernst-Thälmann-Str.","postalCode":"01609","locality":"Wülknitz","municipality":{"key":"14627340","name":"Wülknitz","type":"Kreisangehörige_Gemeinde"},"district":{"key":"14627","name":"Meißen","type":"Landkreis"},"federalState":{"key":"14","name":"Sachsen"}},{"name":"Feldstr.","postalCode":"01609","locality":"Wülknitz","municipality":{"key":"14627340","name":"Wülknitz","type":"Kreisangehörige_Gemeinde"},"district":{"key":"14627","name":"Meißen","type":"Landkreis"},"federalState":{"key":"14","name":"Sachsen"}},{"name":"Fischergasse","postalCode":"01609","locality":"Wülknitz","municipality":{"key":"14627340","name":"Wülknitz","type":"Kreisangehörige_Gemeinde"},"district":{"key":"14627","name":"Meißen","type":"Landkreis"},"federalState":{"key":"14","name":"Sachsen"}},{"name":"Gartenstr.","postalCode":"01609","locality":"Wülknitz","municipality":{"key":"14627340","name":"Wülknitz","type":"Kreisangehörige_Gemeinde"},"district":{"key":"14627","name":"Meißen","type":"Landkreis"},"federalState":{"key":"14","name":"Sachsen"}},{"name":"Görziger Str.","postalCode":"01609","locality":"Wülknitz","municipality":{"key":"14627340","name":"Wülknitz","type":"Kreisangehörige_Gemeinde"},"district":{"key":"14627","name":"Meißen","type":"Landkreis"},"federalState":{"key":"14","name":"Sachsen"}},{"name":"Großenhainer Str.","postalCode":"01609","locality":"Wülknitz","municipality":{"key":"14627340","name":"Wülknitz","type":"Kreisangehörige_Gemeinde"},"district":{"key":"14627","name":"Meißen","type":"Landkreis"},"federalState":{"key":"14","name":"Sachsen"}},{"name":"Hauptstr.","postalCode":"01609","locality":"Wülknitz","municipality":{"key":"14627340","name":"Wülknitz","type":"Kreisangehörige_Gemeinde"},"district":{"key":"14627","name":"Meißen","type":"Landkreis"},"federalState":{"key":"14","name":"Sachsen"}},{"name":"Ichenheimer Weg","postalCode":"77974","locality":"Meißenheim","municipality":{"key":"08317075","name":"Meißenheim","type":"Kreisangehörige_Gemeinde"},"district":{"key":"08317","name":"Ortenaukreis","type":"Landkreis"},"federalState":{"key":"08","name":"Baden-Württemberg"}},{"name":"Ilschnerstr.","postalCode":"01662","locality":"Meißen","municipality":{"key":"14627140","name":"Meißen, Stadt","type":"Stadt"},"district":{"key":"14627","name":"Meißen","type":"Landkreis"},"federalState":{"key":"14","name":"Sachsen"}},{"name":"Im Älmel","postalCode":"77974","locality":"Meißenheim","municipality":{"key":"08317075","name":"Meißenheim","type":"Kreisangehörige_Gemeinde"},"district":{"key":"08317","name":"Ortenaukreis","type":"Landkreis"},"federalState":{"key":"08","name":"Baden-Württemberg"}},{"name":"Im Grün","postalCode":"77974","locality":"Meißenheim","municipality":{"key":"08317075","name":"Meißenheim","type":"Kreisangehörige_Gemeinde"},"district":{"key":"08317","name":"Ortenaukreis","type":"Landkreis"},"federalState":{"key":"08","name":"Baden-Württemberg"}},{"name":"Im Grund","postalCode":"77974","locality":"Meißenheim","municipality":{"key":"08317075","name":"Meißenheim","type":"Kreisangehörige_Gemeinde"},"district":{"key":"08317","name":"Ortenaukreis","type":"Landkreis"},"federalState":{"key":"08","name":"Baden-Württemberg"}},{"name":"Im Haargarten","postalCode":"77974","locality":"Meißenheim","municipality":{"key":"08317075","name":"Meißenheim","type":"Kreisangehörige_Gemeinde"},"district":{"key":"08317","name":"Ortenaukreis","type":"Landkreis"},"federalState":{"key":"08","name":"Baden-Württemberg"}},{"name":"Im Hellersgrund","postalCode":"77974","locality":"Meißenheim","municipality":{"key":"08317075","name":"Meißenheim","type":"Kreisangehörige_Gemeinde"},"district":{"key":"08317","name":"Ortenaukreis","type":"Landkreis"},"federalState":{"key":"08","name":"Baden-Württemberg"}},{"name":"Im Kleinfeldele","postalCode":"77974","locality":"Meißenheim","municipality":{"key":"08317075","name":"Meißenheim","type":"Kreisangehörige_Gemeinde"},"district":{"key":"08317","name":"Ortenaukreis","type":"Landkreis"},"federalState":{"key":"08","name":"Baden-Württemberg"}},{"name":"Im Luckenloch","postalCode":"77974","locality":"Meißenheim","municipality":{"key":"08317075","name":"Meißenheim","type":"Kreisangehörige_Gemeinde"},"district":{"key":"08317","name":"Ortenaukreis","type":"Landkreis"},"federalState":{"key":"08","name":"Baden-Württemberg"}},{"name":"Im Winkel","postalCode":"77974","locality":"Meißenheim","municipality":{"key":"08317075","name":"Meißenheim","type":"Kreisangehörige_Gemeinde"},"district":{"key":"08317","name":"Ortenaukreis","type":"Landkreis"},"federalState":{"key":"08","name":"Baden-Württemberg"}},{"name":"Jagdsteig","postalCode":"01662","locality":"Meißen","municipality":{"key":"14627140","name":"Meißen, Stadt","type":"Stadt"},"district":{"key":"14627","name":"Meißen","type":"Landkreis"},"federalState":{"key":"14","name":"Sachsen"}},{"name":"Jägergasse","postalCode":"77974","locality":"Meißenheim","municipality":{"key":"08317075","name":"Meißenheim","type":"Kreisangehörige_Gemeinde"},"district":{"key":"08317","name":"Ortenaukreis","type":"Landkreis"},"federalState":{"key":"08","name":"Baden-Württemberg"}},{"name":"Jägerstr.","postalCode":"01662","locality":"Meißen","municipality":{"key":"14627140","name":"Meißen, Stadt","type":"Stadt"},"district":{"key":"14627","name":"Meißen","type":"Landkreis"},"federalState":{"key":"14","name":"Sachsen"}},{"name":"Jahnastr.","postalCode":"01662","locality":"Meißen","municipality":{"key":"14627140","name":"Meißen, Stadt","type":"Stadt"},"district":{"key":"14627","name":"Meißen","type":"Landkreis"},"federalState":{"key":"14","name":"Sachsen"}},{"name":"Jahnatalstr.","postalCode":"01662","locality":"Meißen","municipality":{"key":"14627140","name":"Meißen, Stadt","type":"Stadt"},"district":{"key":"14627","name":"Meißen","type":"Landkreis"},"federalState":{"key":"14","name":"Sachsen"}},{"name":"Jaspisstr.","postalCode":"01662","locality":"Meißen","municipality":{"key":"14627140","name":"Meißen, Stadt","type":"Stadt"},"district":{"key":"14627","name":"Meißen","type":"Landkreis"},"federalState":{"key":"14","name":"Sachsen"}},{"name":"Joachimstal","postalCode":"01662","locality":"Meißen","municipality":{"key":"14627140","name":"Meißen, Stadt","type":"Stadt"},"district":{"key":"14627","name":"Meißen","type":"Landkreis"},"federalState":{"key":"14","name":"Sachsen"}},{"name":"Johann-Andreas-Silbermann-Str.","postalCode":"77974","locality":"Meißenheim","municipality":{"key":"08317075","name":"Meißenheim","type":"Kreisangehörige_Gemeinde"},"district":{"key":"08317","name":"Ortenaukreis","type":"Landkreis"},"federalState":{"key":"08","name":"Baden-Württemberg"}},{"name":"Johannesbrücke","postalCode":"01662","locality":"Meißen","municipality":{"key":"14627140","name":"Meißen, Stadt","type":"Stadt"},"district":{"key":"14627","name":"Meißen","type":"Landkreis"},"federalState":{"key":"14","name":"Sachsen"}},{"name":"Johannesplatz","postalCode":"01662","locality":"Meißen","municipality":{"key":"14627140","name":"Meißen, Stadt","type":"Stadt"},"district":{"key":"14627","name":"Meißen","type":"Landkreis"},"federalState":{"key":"14","name":"Sachsen"}},{"name":"Johannesstr.","postalCode":"01662","locality":"Meißen","municipality":{"key":"14627140","name":"Meißen, Stadt","type":"Stadt"},"district":{"key":"14627","name":"Meißen","type":"Landkreis"},"federalState":{"key":"14","name":"Sachsen"}},{"name":"Johann-Pfunner-Str.","postalCode":"77974","locality":"Meißenheim","municipality":{"key":"08317075","name":"Meißenheim","type":"Kreisangehörige_Gemeinde"},"district":{"key":"08317","name":"Ortenaukreis","type":"Landkreis"},"federalState":{"key":"08","name":"Baden-Württemberg"}},{"name":"Johann-Sebastian-Bach-Str.","postalCode":"77974","locality":"Meißenheim","municipality":{"key":"08317075","name":"Meißenheim","type":"Kreisangehörige_Gemeinde"},"district":{"key":"08317","name":"Ortenaukreis","type":"Landkreis"},"federalState":{"key":"08","name":"Baden-Württemberg"}},{"name":"Joseph-Haydn-Str.","postalCode":"77974","locality":"Meißenheim","municipality":{"key":"08317075","name":"Meißenheim","type":"Kreisangehörige_Gemeinde"},"district":{"key":"08317","name":"Ortenaukreis","type":"Landkreis"},"federalState":{"key":"08","name":"Baden-Württemberg"}},{"name":"Jüdenbergstr.","postalCode":"01662","locality":"Meißen","municipality":{"key":"14627140","name":"Meißen, Stadt","type":"Stadt"},"district":{"key":"14627","name":"Meißen","type":"Landkreis"},"federalState":{"key":"14","name":"Sachsen"}},{"name":"Kirchgasse","postalCode":"01609","locality":"Wülknitz","municipality":{"key":"14627340","name":"Wülknitz","type":"Kreisangehörige_Gemeinde"},"district":{"key":"14627","name":"Meißen","type":"Landkreis"},"federalState":{"key":"14","name":"Sachsen"}},{"name":"Koselitzer Str.","postalCode":"01609","locality":"Wülknitz","municipality":{"key":"14627340","name":"Wülknitz","type":"Kreisangehörige_Gemeinde"},"district":{"key":"14627","name":"Meißen","type":"Landkreis"},"federalState":{"key":"14","name":"Sachsen"}},{"name":"Koselitzer Weg","postalCode":"01609","locality":"Wülknitz","municipality":{"key":"14627340","name":"Wülknitz","type":"Kreisangehörige_Gemeinde"},"district":{"key":"14627","name":"Meißen","type":"Landkreis"},"federalState":{"key":"14","name":"Sachsen"}},{"name":"Lauchweg","postalCode":"01609","locality":"Wülknitz","municipality":{"key":"14627340","name":"Wülknitz","type":"Kreisangehörige_Gemeinde"},"district":{"key":"14627","name":"Meißen","type":"Landkreis"},"federalState":{"key":"14","name":"Sachsen"}},{"name":"Lichtenseer Str.","postalCode":"01609","locality":"Wülknitz","municipality":{"key":"14627340","name":"Wülknitz","type":"Kreisangehörige_Gemeinde"},"district":{"key":"14627","name":"Meißen","type":"Landkreis"},"federalState":{"key":"14","name":"Sachsen"}},{"name":"Lindenstr.","postalCode":"01609","locality":"Wülknitz","municipality":{"key":"14627340","name":"Wülknitz","type":"Kreisangehörige_Gemeinde"},"district":{"key":"14627","name":"Meißen","type":"Landkreis"},"federalState":{"key":"14","name":"Sachsen"}},{"name":"Mühlberger Str.","postalCode":"01609","locality":"Wülknitz","municipality":{"key":"14627340","name":"Wülknitz","type":"Kreisangehörige_Gemeinde"},"district":{"key":"14627","name":"Meißen","type":"Landkreis"},"federalState":{"key":"14","name":"Sachsen"}},{"name":"Nassauweg","postalCode":"01662","locality":"Meißen","municipality":{"key":"14627140","name":"Meißen, Stadt","type":"Stadt"},"district":{"key":"14627","name":"Meißen","type":"Landkreis"},"federalState":{"key":"14","name":"Sachsen"}},{"name":"Nauweg","postalCode":"01662","locality":"Meißen","municipality":{"key":"14627140","name":"Meißen, Stadt","type":"Stadt"},"district":{"key":"14627","name":"Meißen","type":"Landkreis"},"federalState":{"key":"14","name":"Sachsen"}},{"name":"Neue Hoffnung","postalCode":"01662","locality":"Meißen","municipality":{"key":"14627140","name":"Meißen, Stadt","type":"Stadt"},"district":{"key":"14627","name":"Meißen","type":"Landkreis"},"federalState":{"key":"14","name":"Sachsen"}},{"name":"Neugasse","postalCode":"01662","locality":"Meißen","municipality":{"key":"14627140","name":"Meißen, Stadt","type":"Stadt"},"district":{"key":"14627","name":"Meißen","type":"Landkreis"},"federalState":{"key":"14","name":"Sachsen"}},{"name":"Neulandgasse","postalCode":"01662","locality":"Meißen","municipality":{"key":"14627140","name":"Meißen, Stadt","type":"Stadt"},"district":{"key":"14627","name":"Meißen","type":"Landkreis"},"federalState":{"key":"14","name":"Sachsen"}},{"name":"Neumarkt","postalCode":"01662","locality":"Meißen","municipality":{"key":"14627140","name":"Meißen, Stadt","type":"Stadt"},"district":{"key":"14627","name":"Meißen","type":"Landkreis"},"federalState":{"key":"14","name":"Sachsen"}},{"name":"Neuzaschendorf","postalCode":"01662","locality":"Meißen","municipality":{"key":"14627140","name":"Meißen, Stadt","type":"Stadt"},"district":{"key":"14627","name":"Meißen","type":"Landkreis"},"federalState":{"key":"14","name":"Sachsen"}},{"name":"Nicolaisteg","postalCode":"01662","locality":"Meißen","municipality":{"key":"14627140","name":"Meißen, Stadt","type":"Stadt"},"district":{"key":"14627","name":"Meißen","type":"Landkreis"},"federalState":{"key":"14","name":"Sachsen"}},{"name":"Niederauer Str.","postalCode":"01662","locality":"Meißen","municipality":{"key":"14627140","name":"Meißen, Stadt","type":"Stadt"},"district":{"key":"14627","name":"Meißen","type":"Landkreis"},"federalState":{"key":"14","name":"Sachsen"}},{"name":"Niederfährer Str.","postalCode":"01662","locality":"Meißen","municipality":{"key":"14627140","name":"Meißen, Stadt","type":"Stadt"},"district":{"key":"14627","name":"Meißen","type":"Landkreis"},"federalState":{"key":"14","name":"Sachsen"}},{"name":"Niederspaarer Str.","postalCode":"01662","locality":"Meißen","municipality":{"key":"14627140","name":"Meißen, Stadt","type":"Stadt"},"district":{"key":"14627","name":"Meißen","type":"Landkreis"},"federalState":{"key":"14","name":"Sachsen"}},{"name":"Nossener Str.","postalCode":"01662","locality":"Meißen","municipality":{"key":"14627140","name":"Meißen, Stadt","type":"Stadt"},"district":{"key":"14627","name":"Meißen","type":"Landkreis"},"federalState":{"key":"14","name":"Sachsen"}},{"name":"Oberdorfstr.","postalCode":"77974","locality":"Meißenheim","municipality":{"key":"08317075","name":"Meißenheim","type":"Kreisangehörige_Gemeinde"},"district":{"key":"08317","name":"Ortenaukreis","type":"Landkreis"},"federalState":{"key":"08","name":"Baden-Württemberg"}},{"name":"Obergasse","postalCode":"01662","locality":"Meißen","municipality":{"key":"14627140","name":"Meißen, Stadt","type":"Stadt"},"district":{"key":"14627","name":"Meißen","type":"Landkreis"},"federalState":{"key":"14","name":"Sachsen"}},{"name":"Oberriedstr.","postalCode":"77974","locality":"Meißenheim","municipality":{"key":"08317075","name":"Meißenheim","type":"Kreisangehörige_Gemeinde"},"district":{"key":"08317","name":"Ortenaukreis","type":"Landkreis"},"federalState":{"key":"08","name":"Baden-Württemberg"}},{"name":"Ochsendrehe","postalCode":"01662","locality":"Meißen","municipality":{"key":"14627140","name":"Meißen, Stadt","type":"Stadt"},"district":{"key":"14627","name":"Meißen","type":"Landkreis"},"federalState":{"key":"14","name":"Sachsen"}},{"name":"Oeffingener Str.","postalCode":"01662","locality":"Meißen","municipality":{"key":"14627140","name":"Meißen, Stadt","type":"Stadt"},"district":{"key":"14627","name":"Meißen","type":"Landkreis"},"federalState":{"key":"14","name":"Sachsen"}},{"name":"Ossietzkystr.","postalCode":"01662","locality":"Meißen","municipality":{"key":"14627140","name":"Meißen, Stadt","type":"Stadt"},"district":{"key":"14627","name":"Meißen","type":"Landkreis"},"federalState":{"key":"14","name":"Sachsen"}},{"name":"Pappelweg","postalCode":"01609","locality":"Wülknitz","municipality":{"key":"14627340","name":"Wülknitz","type":"Kreisangehörige_Gemeinde"},"district":{"key":"14627","name":"Meißen","type":"Landkreis"},"federalState":{"key":"14","name":"Sachsen"}},{"name":"Quellgasse","postalCode":"01662","locality":"Meißen","municipality":{"key":"14627140","name":"Meißen, Stadt","type":"Stadt"},"district":{"key":"14627","name":"Meißen","type":"Landkreis"},"federalState":{"key":"14","name":"Sachsen"}},{"name":"Querallee","postalCode":"01662","locality":"Meißen","municipality":{"key":"14627140","name":"Meißen, Stadt","type":"Stadt"},"district":{"key":"14627","name":"Meißen","type":"Landkreis"},"federalState":{"key":"14","name":"Sachsen"}},{"name":"Querchweg","postalCode":"77974","locality":"Meißenheim","municipality":{"key":"08317075","name":"Meißenheim","type":"Kreisangehörige_Gemeinde"},"district":{"key":"08317","name":"Ortenaukreis","type":"Landkreis"},"federalState":{"key":"08","name":"Baden-Württemberg"}},{"name":"Querstr.","postalCode":"01662","locality":"Meißen","municipality":{"key":"14627140","name":"Meißen, Stadt","type":"Stadt"},"district":{"key":"14627","name":"Meißen","type":"Landkreis"},"federalState":{"key":"14","name":"Sachsen"}},{"name":"Questenberger Weg","postalCode":"01662","locality":"Meißen","municipality":{"key":"14627140","name":"Meißen, Stadt","type":"Stadt"},"district":{"key":"14627","name":"Meißen","type":"Landkreis"},"federalState":{"key":"14","name":"Sachsen"}},{"name":"Rietzschkenweg","postalCode":"01609","locality":"Wülknitz","municipality":{"key":"14627340","name":"Wülknitz","type":"Kreisangehörige_Gemeinde"},"district":{"key":"14627","name":"Meißen","type":"Landkreis"},"federalState":{"key":"14","name":"Sachsen"}},{"name":"Rodaer Weg","postalCode":"01609","locality":"Wülknitz","municipality":{"key":"14627340","name":"Wülknitz","type":"Kreisangehörige_Gemeinde"},"district":{"key":"14627","name":"Meißen","type":"Landkreis"},"federalState":{"key":"14","name":"Sachsen"}},{"name":"Rosengarten","postalCode":"01609","locality":"Wülknitz","municipality":{"key":"14627340","name":"Wülknitz","type":"Kreisangehörige_Gemeinde"},"district":{"key":"14627","name":"Meißen","type":"Landkreis"},"federalState":{"key":"14","name":"Sachsen"}},{"name":"Sandberg","postalCode":"01609","locality":"Wülknitz","municipality":{"key":"14627340","name":"Wülknitz","type":"Kreisangehörige_Gemeinde"},"district":{"key":"14627","name":"Meißen","type":"Landkreis"},"federalState":{"key":"14","name":"Sachsen"}},{"name":"Schulstr.","postalCode":"01609","locality":"Wülknitz","municipality":{"key":"14627340","name":"Wülknitz","type":"Kreisangehörige_Gemeinde"},"district":{"key":"14627","name":"Meißen","type":"Landkreis"},"federalState":{"key":"14","name":"Sachsen"}},{"name":"Siedlung","postalCode":"01609","locality":"Wülknitz","municipality":{"key":"14627340","name":"Wülknitz","type":"Kreisangehörige_Gemeinde"},"district":{"key":"14627","name":"Meißen","type":"Landkreis"},"federalState":{"key":"14","name":"Sachsen"}},{"name":"Spansberger Weg","postalCode":"01609","locality":"Wülknitz","municipality":{"key":"14627340","name":"Wülknitz","type":"Kreisangehörige_Gemeinde"},"district":{"key":"14627","name":"Meißen","type":"Landkreis"},"federalState":{"key":"14","name":"Sachsen"}},{"name":"Streumener Str.","postalCode":"01609","locality":"Wülknitz","municipality":{"key":"14627340","name":"Wülknitz","type":"Kreisangehörige_Gemeinde"},"district":{"key":"14627","name":"Meißen","type":"Landkreis"},"federalState":{"key":"14","name":"Sachsen"}},{"name":"Teichsteg","postalCode":"01609","locality":"Wülknitz","municipality":{"key":"14627340","name":"Wülknitz","type":"Kreisangehörige_Gemeinde"},"district":{"key":"14627","name":"Meißen","type":"Landkreis"},"federalState":{"key":"14","name":"Sachsen"}},{"name":"Unterm Wald","postalCode":"01609","locality":"Wülknitz","municipality":{"key":"14627340","name":"Wülknitz","type":"Kreisangehörige_Gemeinde"},"district":{"key":"14627","name":"Meißen","type":"Landkreis"},"federalState":{"key":"14","name":"Sachsen"}},{"name":"Vorbrücker Str.","postalCode":"01662","locality":"Meißen","municipality":{"key":"14627140","name":"Meißen, Stadt","type":"Stadt"},"district":{"key":"14627","name":"Meißen","type":"Landkreis"},"federalState":{"key":"14","name":"Sachsen"}},{"name":"Waldstr.","postalCode":"01609","locality":"Wülknitz","municipality":{"key":"14627340","name":"Wülknitz","type":"Kreisangehörige_Gemeinde"},"district":{"key":"14627","name":"Meißen","type":"Landkreis"},"federalState":{"key":"14","name":"Sachsen"}},{"name":"Ziegeldamm","postalCode":"01609","locality":"Wülknitz","municipality":{"key":"14627340","name":"Wülknitz","type":"Kreisangehörige_Gemeinde"},"district":{"key":"14627","name":"Meißen","type":"Landkreis"},"federalState":{"key":"14","name":"Sachsen"}},{"name":"Zum Umspannwerk","postalCode":"01609","locality":"Wülknitz","municipality":{"key":"14627340","name":"Wülknitz","type":"Kreisangehörige_Gemeinde"},"district":{"key":"14627","name":"Meißen","type":"Landkreis"},"federalState":{"key":"14","name":"Sachsen"}},{"name":"Älterstr.","postalCode":"77974","locality":"Meißenheim","municipality":{"key":"08317075","name":"Meißenheim","type":"Kreisangehörige_Gemeinde"},"district":{"key":"08317","name":"Ortenaukreis","type":"Landkreis"},"federalState":{"key":"08","name":"Baden-Württemberg"}},]