[{"name":"Am alten Wasserhaus","postalCode":"55234","locality":"Wendelsheim","municipality":{"key":"07331070","name":"Wendelsheim","type":"Kreisangehörige_Gemeinde"},"district":{"key":"07331","name":"Alzey-Worms","type":"Landkreis"},"federalState":{"key":"07","name":"Rheinland-Pfalz"}},{"name":"Am Berg","postalCode":"55234","locality":"Wendelsheim","municipality":{"key":"07331070","name":"Wendelsheim","type":"Kreisangehörige_Gemeinde"},"district":{"key":"07331","name":"Alzey-Worms","type":"Landkreis"},"federalState":{"key":"07","name":"Rheinland-Pfalz"}},{"name":"Am Eicherwald","postalCode":"55234","locality":"Wendelsheim","municipality":{"key":"07331070","name":"Wendelsheim","type":"Kreisangehörige_Gemeinde"},"district":{"key":"07331","name":"Alzey-Worms","type":"Landkreis"},"federalState":{"key":"07","name":"Rheinland-Pfalz"}},{"name":"Am Pfortweg","postalCode":"55234","locality":"Wendelsheim","municipality":{"key":"07331070","name":"Wendelsheim","type":"Kreisangehörige_Gemeinde"},"district":{"key":"07331","name":"Alzey-Worms","type":"Landkreis"},"federalState":{"key":"07","name":"Rheinland-Pfalz"}},{"name":"Auf dem Saal","postalCode":"55234","locality":"Wendelsheim","municipality":{"key":"07331070","name":"Wendelsheim","type":"Kreisangehörige_Gemeinde"},"district":{"key":"07331","name":"Alzey-Worms","type":"Landkreis"},"federalState":{"key":"07","name":"Rheinland-Pfalz"}},{"name":"Auf der Steig","postalCode":"55234","locality":"Wendelsheim","municipality":{"key":"07331070","name":"Wendelsheim","type":"Kreisangehörige_Gemeinde"},"district":{"key":"07331","name":"Alzey-Worms","type":"Landkreis"},"federalState":{"key":"07","name":"Rheinland-Pfalz"}},{"name":"Bahnhofstr.","postalCode":"55234","locality":"Wendelsheim","municipality":{"key":"07331070","name":"Wendelsheim","type":"Kreisangehörige_Gemeinde"},"district":{"key":"07331","name":"Alzey-Worms","type":"Landkreis"},"federalState":{"key":"07","name":"Rheinland-Pfalz"}},{"name":"Donastr.","postalCode":"55234","locality":"Wendelsheim","municipality":{"key":"07331070","name":"Wendelsheim","type":"Kreisangehörige_Gemeinde"},"district":{"key":"07331","name":"Alzey-Worms","type":"Landkreis"},"federalState":{"key":"07","name":"Rheinland-Pfalz"}},{"name":"Eichelgarter Schneise","postalCode":"55234","locality":"Wendelsheim","municipality":{"key":"07331070","name":"Wendelsheim","type":"Kreisangehörige_Gemeinde"},"district":{"key":"07331","name":"Alzey-Worms","type":"Landkreis"},"federalState":{"key":"07","name":"Rheinland-Pfalz"}},{"name":"Finkenbachstr.","postalCode":"55234","locality":"Wendelsheim","municipality":{"key":"07331070","name":"Wendelsheim","type":"Kreisangehörige_Gemeinde"},"district":{"key":"07331","name":"Alzey-Worms","type":"Landkreis"},"federalState":{"key":"07","name":"Rheinland-Pfalz"}},{"name":"Häuschenschneise","postalCode":"55234","locality":"Wendelsheim","municipality":{"key":"07331070","name":"Wendelsheim","type":"Kreisangehörige_Gemeinde"},"district":{"key":"07331","name":"Alzey-Worms","type":"Landkreis"},"federalState":{"key":"07","name":"Rheinland-Pfalz"}},{"name":"Im Aspenweg","postalCode":"55234","locality":"Wendelsheim","municipality":{"key":"07331070","name":"Wendelsheim","type":"Kreisangehörige_Gemeinde"},"district":{"key":"07331","name":"Alzey-Worms","type":"Landkreis"},"federalState":{"key":"07","name":"Rheinland-Pfalz"}},{"name":"Im Asperweg","postalCode":"55234","locality":"Wendelsheim","municipality":{"key":"07331070","name":"Wendelsheim","type":"Kreisangehörige_Gemeinde"},"district":{"key":"07331","name":"Alzey-Worms","type":"Landkreis"},"federalState":{"key":"07","name":"Rheinland-Pfalz"}},{"name":"Im Brühl","postalCode":"55234","locality":"Wendelsheim","municipality":{"key":"07331070","name":"Wendelsheim","type":"Kreisangehörige_Gemeinde"},"district":{"key":"07331","name":"Alzey-Worms","type":"Landkreis"},"federalState":{"key":"07","name":"Rheinland-Pfalz"}},{"name":"Im Rothenfeld","postalCode":"55234","locality":"Wendelsheim","municipality":{"key":"07331070","name":"Wendelsheim","type":"Kreisangehörige_Gemeinde"},"district":{"key":"07331","name":"Alzey-Worms","type":"Landkreis"},"federalState":{"key":"07","name":"Rheinland-Pfalz"}},{"name":"In der Hochstadt","postalCode":"55234","locality":"Wendelsheim","municipality":{"key":"07331070","name":"Wendelsheim","type":"Kreisangehörige_Gemeinde"},"district":{"key":"07331","name":"Alzey-Worms","type":"Landkreis"},"federalState":{"key":"07","name":"Rheinland-Pfalz"}},{"name":"In der Hohl","postalCode":"55234","locality":"Wendelsheim","municipality":{"key":"07331070","name":"Wendelsheim","type":"Kreisangehörige_Gemeinde"},"district":{"key":"07331","name":"Alzey-Worms","type":"Landkreis"},"federalState":{"key":"07","name":"Rheinland-Pfalz"}},{"name":"Kirchberg","postalCode":"55234","locality":"Wendelsheim","municipality":{"key":"07331070","name":"Wendelsheim","type":"Kreisangehörige_Gemeinde"},"district":{"key":"07331","name":"Alzey-Worms","type":"Landkreis"},"federalState":{"key":"07","name":"Rheinland-Pfalz"}},{"name":"Kriegsfelder Str.","postalCode":"55234","locality":"Wendelsheim","municipality":{"key":"07331070","name":"Wendelsheim","type":"Kreisangehörige_Gemeinde"},"district":{"key":"07331","name":"Alzey-Worms","type":"Landkreis"},"federalState":{"key":"07","name":"Rheinland-Pfalz"}},{"name":"Kriegsfelder Weg","postalCode":"55234","locality":"Wendelsheim","municipality":{"key":"07331070","name":"Wendelsheim","type":"Kreisangehörige_Gemeinde"},"district":{"key":"07331","name":"Alzey-Worms","type":"Landkreis"},"federalState":{"key":"07","name":"Rheinland-Pfalz"}},{"name":"Ludwigschneise","postalCode":"55234","locality":"Wendelsheim","municipality":{"key":"07331070","name":"Wendelsheim","type":"Kreisangehörige_Gemeinde"},"district":{"key":"07331","name":"Alzey-Worms","type":"Landkreis"},"federalState":{"key":"07","name":"Rheinland-Pfalz"}},{"name":"Marchandweg","postalCode":"55234","locality":"Wendelsheim","municipality":{"key":"07331070","name":"Wendelsheim","type":"Kreisangehörige_Gemeinde"},"district":{"key":"07331","name":"Alzey-Worms","type":"Landkreis"},"federalState":{"key":"07","name":"Rheinland-Pfalz"}},{"name":"Mikroforum-Ring","postalCode":"55234","locality":"Wendelsheim","municipality":{"key":"07331070","name":"Wendelsheim","type":"Kreisangehörige_Gemeinde"},"district":{"key":"07331","name":"Alzey-Worms","type":"Landkreis"},"federalState":{"key":"07","name":"Rheinland-Pfalz"}},{"name":"Nacker Str.","postalCode":"55234","locality":"Wendelsheim","municipality":{"key":"07331070","name":"Wendelsheim","type":"Kreisangehörige_Gemeinde"},"district":{"key":"07331","name":"Alzey-Worms","type":"Landkreis"},"federalState":{"key":"07","name":"Rheinland-Pfalz"}},{"name":"Neuer Weg","postalCode":"55234","locality":"Wendelsheim","municipality":{"key":"07331070","name":"Wendelsheim","type":"Kreisangehörige_Gemeinde"},"district":{"key":"07331","name":"Alzey-Worms","type":"Landkreis"},"federalState":{"key":"07","name":"Rheinland-Pfalz"}},{"name":"Neugasse","postalCode":"55234","locality":"Wendelsheim","municipality":{"key":"07331070","name":"Wendelsheim","type":"Kreisangehörige_Gemeinde"},"district":{"key":"07331","name":"Alzey-Worms","type":"Landkreis"},"federalState":{"key":"07","name":"Rheinland-Pfalz"}},{"name":"Nieder-Wieser Str.","postalCode":"55234","locality":"Wendelsheim","municipality":{"key":"07331070","name":"Wendelsheim","type":"Kreisangehörige_Gemeinde"},"district":{"key":"07331","name":"Alzey-Worms","type":"Landkreis"},"federalState":{"key":"07","name":"Rheinland-Pfalz"}},{"name":"Oberwendelsheim","postalCode":"55234","locality":"Wendelsheim","municipality":{"key":"07331070","name":"Wendelsheim","type":"Kreisangehörige_Gemeinde"},"district":{"key":"07331","name":"Alzey-Worms","type":"Landkreis"},"federalState":{"key":"07","name":"Rheinland-Pfalz"}},{"name":"Reihe-Bäume-Schneise","postalCode":"55234","locality":"Wendelsheim","municipality":{"key":"07331070","name":"Wendelsheim","type":"Kreisangehörige_Gemeinde"},"district":{"key":"07331","name":"Alzey-Worms","type":"Landkreis"},"federalState":{"key":"07","name":"Rheinland-Pfalz"}},{"name":"Schlossgasse","postalCode":"55234","locality":"Wendelsheim","municipality":{"key":"07331070","name":"Wendelsheim","type":"Kreisangehörige_Gemeinde"},"district":{"key":"07331","name":"Alzey-Worms","type":"Landkreis"},"federalState":{"key":"07","name":"Rheinland-Pfalz"}},{"name":"SchniftenbergerSchneise","postalCode":"55234","locality":"Wendelsheim","municipality":{"key":"07331070","name":"Wendelsheim","type":"Kreisangehörige_Gemeinde"},"district":{"key":"07331","name":"Alzey-Worms","type":"Landkreis"},"federalState":{"key":"07","name":"Rheinland-Pfalz"}},{"name":"Spitze Steinrauch-Schneise","postalCode":"55234","locality":"Wendelsheim","municipality":{"key":"07331070","name":"Wendelsheim","type":"Kreisangehörige_Gemeinde"},"district":{"key":"07331","name":"Alzey-Worms","type":"Landkreis"},"federalState":{"key":"07","name":"Rheinland-Pfalz"}},{"name":"Unterwendelsheim","postalCode":"55234","locality":"Wendelsheim","municipality":{"key":"07331070","name":"Wendelsheim","type":"Kreisangehörige_Gemeinde"},"district":{"key":"07331","name":"Alzey-Worms","type":"Landkreis"},"federalState":{"key":"07","name":"Rheinland-Pfalz"}},{"name":"Waldblick","postalCode":"55234","locality":"Wendelsheim","municipality":{"key":"07331070","name":"Wendelsheim","type":"Kreisangehörige_Gemeinde"},"district":{"key":"07331","name":"Alzey-Worms","type":"Landkreis"},"federalState":{"key":"07","name":"Rheinland-Pfalz"}},{"name":"Wassergasse","postalCode":"55234","locality":"Wendelsheim","municipality":{"key":"07331070","name":"Wendelsheim","type":"Kreisangehörige_Gemeinde"},"district":{"key":"07331","name":"Alzey-Worms","type":"Landkreis"},"federalState":{"key":"07","name":"Rheinland-Pfalz"}},{"name":"Wendelsheimer Weg","postalCode":"55234","locality":"Wendelsheim","municipality":{"key":"07331070","name":"Wendelsheim","type":"Kreisangehörige_Gemeinde"},"district":{"key":"07331","name":"Alzey-Worms","type":"Landkreis"},"federalState":{"key":"07","name":"Rheinland-Pfalz"}},{"name":"Wonsheimer Str.","postalCode":"55234","locality":"Wendelsheim","municipality":{"key":"07331070","name":"Wendelsheim","type":"Kreisangehörige_Gemeinde"},"district":{"key":"07331","name":"Alzey-Worms","type":"Landkreis"},"federalState":{"key":"07","name":"Rheinland-Pfalz"}},]