[{"name":"91er Str.","postalCode":"26121","locality":"Oldenburg","municipality":{"key":"03403000","name":"Oldenburg (Oldenburg), Stadt","type":"Kreisfreie_Stadt"},"district":{"key":"03403","name":"Oldenburg (Oldenburg), Stadt","type":"Kreisfreie_Stadt"},"federalState":{"key":"03","name":"Niedersachsen"}},{"name":"Ahornweg","postalCode":"27243","locality":"Kirchseelte","municipality":{"key":"03458011","name":"Kirchseelte","type":"Kreisangehörige_Gemeinde"},"district":{"key":"03458","name":"Oldenburg","type":"Landkreis"},"federalState":{"key":"03","name":"Niedersachsen"}},{"name":"Am Ehrenmal","postalCode":"27243","locality":"Kirchseelte","municipality":{"key":"03458011","name":"Kirchseelte","type":"Kreisangehörige_Gemeinde"},"district":{"key":"03458","name":"Oldenburg","type":"Landkreis"},"federalState":{"key":"03","name":"Niedersachsen"}},{"name":"Am Holzkamp","postalCode":"27243","locality":"Kirchseelte","municipality":{"key":"03458011","name":"Kirchseelte","type":"Kreisangehörige_Gemeinde"},"district":{"key":"03458","name":"Oldenburg","type":"Landkreis"},"federalState":{"key":"03","name":"Niedersachsen"}},{"name":"An der Bahn","postalCode":"27243","locality":"Kirchseelte","municipality":{"key":"03458011","name":"Kirchseelte","type":"Kreisangehörige_Gemeinde"},"district":{"key":"03458","name":"Oldenburg","type":"Landkreis"},"federalState":{"key":"03","name":"Niedersachsen"}},{"name":"Auf dem Bandel","postalCode":"27243","locality":"Kirchseelte","municipality":{"key":"03458011","name":"Kirchseelte","type":"Kreisangehörige_Gemeinde"},"district":{"key":"03458","name":"Oldenburg","type":"Landkreis"},"federalState":{"key":"03","name":"Niedersachsen"}},{"name":"Auf dem Fuchsberg","postalCode":"27243","locality":"Kirchseelte","municipality":{"key":"03458011","name":"Kirchseelte","type":"Kreisangehörige_Gemeinde"},"district":{"key":"03458","name":"Oldenburg","type":"Landkreis"},"federalState":{"key":"03","name":"Niedersachsen"}},{"name":"Auf dem Stubben","postalCode":"27243","locality":"Kirchseelte","municipality":{"key":"03458011","name":"Kirchseelte","type":"Kreisangehörige_Gemeinde"},"district":{"key":"03458","name":"Oldenburg","type":"Landkreis"},"federalState":{"key":"03","name":"Niedersachsen"}},{"name":"Bassmerhoopweg","postalCode":"27243","locality":"Kirchseelte","municipality":{"key":"03458011","name":"Kirchseelte","type":"Kreisangehörige_Gemeinde"},"district":{"key":"03458","name":"Oldenburg","type":"Landkreis"},"federalState":{"key":"03","name":"Niedersachsen"}},{"name":"Bei der Friedenseiche","postalCode":"27243","locality":"Kirchseelte","municipality":{"key":"03458011","name":"Kirchseelte","type":"Kreisangehörige_Gemeinde"},"district":{"key":"03458","name":"Oldenburg","type":"Landkreis"},"federalState":{"key":"03","name":"Niedersachsen"}},{"name":"Birkenweg","postalCode":"27243","locality":"Kirchseelte","municipality":{"key":"03458011","name":"Kirchseelte","type":"Kreisangehörige_Gemeinde"},"district":{"key":"03458","name":"Oldenburg","type":"Landkreis"},"federalState":{"key":"03","name":"Niedersachsen"}},{"name":"Brachlandweg","postalCode":"27243","locality":"Kirchseelte","municipality":{"key":"03458011","name":"Kirchseelte","type":"Kreisangehörige_Gemeinde"},"district":{"key":"03458","name":"Oldenburg","type":"Landkreis"},"federalState":{"key":"03","name":"Niedersachsen"}},{"name":"Bürsteler Str.","postalCode":"27243","locality":"Kirchseelte","municipality":{"key":"03458011","name":"Kirchseelte","type":"Kreisangehörige_Gemeinde"},"district":{"key":"03458","name":"Oldenburg","type":"Landkreis"},"federalState":{"key":"03","name":"Niedersachsen"}},{"name":"Cäcilienplatz","postalCode":"26122","locality":"Oldenburg","municipality":{"key":"03403000","name":"Oldenburg (Oldenburg), Stadt","type":"Kreisfreie_Stadt"},"district":{"key":"03403","name":"Oldenburg (Oldenburg), Stadt","type":"Kreisfreie_Stadt"},"federalState":{"key":"03","name":"Niedersachsen"}},{"name":"Cäcilienstr.","postalCode":"26122","locality":"Oldenburg","municipality":{"key":"03403000","name":"Oldenburg (Oldenburg), Stadt","type":"Kreisfreie_Stadt"},"district":{"key":"03403","name":"Oldenburg (Oldenburg), Stadt","type":"Kreisfreie_Stadt"},"federalState":{"key":"03","name":"Niedersachsen"}},{"name":"Calhorner Kirchweg","postalCode":"49632","locality":"Essen (Oldenburg)","municipality":{"key":"03453006","name":"Essen (Oldenburg)","type":"Kreisangehörige_Gemeinde"},"district":{"key":"03453","name":"Cloppenburg","type":"Landkreis"},"federalState":{"key":"03","name":"Niedersachsen"}},{"name":"Calhorner Str.","postalCode":"49632","locality":"Essen (Oldenburg)","municipality":{"key":"03453006","name":"Essen (Oldenburg)","type":"Kreisangehörige_Gemeinde"},"district":{"key":"03453","name":"Cloppenburg","type":"Landkreis"},"federalState":{"key":"03","name":"Niedersachsen"}},{"name":"Cappelner Damm","postalCode":"49692","locality":"Cappeln (Oldenburg)","municipality":{"key":"03453003","name":"Cappeln (Oldenburg)","type":"Kreisangehörige_Gemeinde"},"district":{"key":"03453","name":"Cloppenburg","type":"Landkreis"},"federalState":{"key":"03","name":"Niedersachsen"}},{"name":"Cappelner Str.","postalCode":"49692","locality":"Cappeln (Oldenburg)","municipality":{"key":"03453003","name":"Cappeln (Oldenburg)","type":"Kreisangehörige_Gemeinde"},"district":{"key":"03453","name":"Cloppenburg","type":"Landkreis"},"federalState":{"key":"03","name":"Niedersachsen"}},{"name":"Carl-Diem-Str.","postalCode":"27798","locality":"Hude (Oldenburg)","municipality":{"key":"03458010","name":"Hude (Oldb)","type":"Kreisangehörige_Gemeinde"},"district":{"key":"03458","name":"Oldenburg","type":"Landkreis"},"federalState":{"key":"03","name":"Niedersachsen"}},{"name":"Carl-Eggers-Weg","postalCode":"26127","locality":"Oldenburg","municipality":{"key":"03403000","name":"Oldenburg (Oldenburg), Stadt","type":"Kreisfreie_Stadt"},"district":{"key":"03403","name":"Oldenburg (Oldenburg), Stadt","type":"Kreisfreie_Stadt"},"federalState":{"key":"03","name":"Niedersachsen"}},{"name":"Carl-Friedrich-Gauß-Str.","postalCode":"26133","locality":"Oldenburg","municipality":{"key":"03403000","name":"Oldenburg (Oldenburg), Stadt","type":"Kreisfreie_Stadt"},"district":{"key":"03403","name":"Oldenburg (Oldenburg), Stadt","type":"Kreisfreie_Stadt"},"federalState":{"key":"03","name":"Niedersachsen"}},{"name":"Carl-Friedrich-Spieske-Str.","postalCode":"26133","locality":"Oldenburg","municipality":{"key":"03403000","name":"Oldenburg (Oldenburg), Stadt","type":"Kreisfreie_Stadt"},"district":{"key":"03403","name":"Oldenburg (Oldenburg), Stadt","type":"Kreisfreie_Stadt"},"federalState":{"key":"03","name":"Niedersachsen"}},{"name":"Carl-Heinrich-Slevogt-Str.","postalCode":"26133","locality":"Oldenburg","municipality":{"key":"03403000","name":"Oldenburg (Oldenburg), Stadt","type":"Kreisfreie_Stadt"},"district":{"key":"03403","name":"Oldenburg (Oldenburg), Stadt","type":"Kreisfreie_Stadt"},"federalState":{"key":"03","name":"Niedersachsen"}},{"name":"Carl-Maria-von-Weber-Str.","postalCode":"23758","locality":"Oldenburg in Holstein","municipality":{"key":"01055033","name":"Oldenburg in Holstein, Stadt","type":"Stadt"},"district":{"key":"01055","name":"Ostholstein","type":"Kreis"},"federalState":{"key":"01","name":"Schleswig-Holstein"}},{"name":"Carl-von-Ossietzky-Str.","postalCode":"26129","locality":"Oldenburg","municipality":{"key":"03403000","name":"Oldenburg (Oldenburg), Stadt","type":"Kreisfreie_Stadt"},"district":{"key":"03403","name":"Oldenburg (Oldenburg), Stadt","type":"Kreisfreie_Stadt"},"federalState":{"key":"03","name":"Niedersachsen"}},{"name":"Carl-Wöltje-Str.","postalCode":"26133","locality":"Oldenburg","municipality":{"key":"03403000","name":"Oldenburg (Oldenburg), Stadt","type":"Kreisfreie_Stadt"},"district":{"key":"03403","name":"Oldenburg (Oldenburg), Stadt","type":"Kreisfreie_Stadt"},"federalState":{"key":"03","name":"Niedersachsen"}},{"name":"Charlotte-Dettling-Str.","postalCode":"26135","locality":"Oldenburg","municipality":{"key":"03403000","name":"Oldenburg (Oldenburg), Stadt","type":"Kreisfreie_Stadt"},"district":{"key":"03403","name":"Oldenburg (Oldenburg), Stadt","type":"Kreisfreie_Stadt"},"federalState":{"key":"03","name":"Niedersachsen"}},{"name":"Charlottenstr.","postalCode":"26135","locality":"Oldenburg","municipality":{"key":"03403000","name":"Oldenburg (Oldenburg), Stadt","type":"Kreisfreie_Stadt"},"district":{"key":"03403","name":"Oldenburg (Oldenburg), Stadt","type":"Kreisfreie_Stadt"},"federalState":{"key":"03","name":"Niedersachsen"}},{"name":"Charlottenweg","postalCode":"27798","locality":"Hude (Oldenburg)","municipality":{"key":"03458010","name":"Hude (Oldb)","type":"Kreisangehörige_Gemeinde"},"district":{"key":"03458","name":"Oldenburg","type":"Landkreis"},"federalState":{"key":"03","name":"Niedersachsen"}},{"name":"Chaukenstr.","postalCode":"26121","locality":"Oldenburg","municipality":{"key":"03403000","name":"Oldenburg (Oldenburg), Stadt","type":"Kreisfreie_Stadt"},"district":{"key":"03403","name":"Oldenburg (Oldenburg), Stadt","type":"Kreisfreie_Stadt"},"federalState":{"key":"03","name":"Niedersachsen"}},{"name":"Chemnitzer Str.","postalCode":"26129","locality":"Oldenburg","municipality":{"key":"03403000","name":"Oldenburg (Oldenburg), Stadt","type":"Kreisfreie_Stadt"},"district":{"key":"03403","name":"Oldenburg (Oldenburg), Stadt","type":"Kreisfreie_Stadt"},"federalState":{"key":"03","name":"Niedersachsen"}},{"name":"Cheruskerweg","postalCode":"26121","locality":"Oldenburg","municipality":{"key":"03403000","name":"Oldenburg (Oldenburg), Stadt","type":"Kreisfreie_Stadt"},"district":{"key":"03403","name":"Oldenburg (Oldenburg), Stadt","type":"Kreisfreie_Stadt"},"federalState":{"key":"03","name":"Niedersachsen"}},{"name":"Choletstr.","postalCode":"26129","locality":"Oldenburg","municipality":{"key":"03403000","name":"Oldenburg (Oldenburg), Stadt","type":"Kreisfreie_Stadt"},"district":{"key":"03403","name":"Oldenburg (Oldenburg), Stadt","type":"Kreisfreie_Stadt"},"federalState":{"key":"03","name":"Niedersachsen"}},{"name":"Christian-Runde-Weg","postalCode":"26121","locality":"Oldenburg","municipality":{"key":"03403000","name":"Oldenburg (Oldenburg), Stadt","type":"Kreisfreie_Stadt"},"district":{"key":"03403","name":"Oldenburg (Oldenburg), Stadt","type":"Kreisfreie_Stadt"},"federalState":{"key":"03","name":"Niedersachsen"}},{"name":"Christopherweg","postalCode":"26131","locality":"Oldenburg","municipality":{"key":"03403000","name":"Oldenburg (Oldenburg), Stadt","type":"Kreisfreie_Stadt"},"district":{"key":"03403","name":"Oldenburg (Oldenburg), Stadt","type":"Kreisfreie_Stadt"},"federalState":{"key":"03","name":"Niedersachsen"}},{"name":"Clara-Grunwald-Str.","postalCode":"26127","locality":"Oldenburg","municipality":{"key":"03403000","name":"Oldenburg (Oldenburg), Stadt","type":"Kreisfreie_Stadt"},"district":{"key":"03403","name":"Oldenburg (Oldenburg), Stadt","type":"Kreisfreie_Stadt"},"federalState":{"key":"03","name":"Niedersachsen"}},{"name":"Clausewitzstr.","postalCode":"26125","locality":"Oldenburg","municipality":{"key":"03403000","name":"Oldenburg (Oldenburg), Stadt","type":"Kreisfreie_Stadt"},"district":{"key":"03403","name":"Oldenburg (Oldenburg), Stadt","type":"Kreisfreie_Stadt"},"federalState":{"key":"03","name":"Niedersachsen"}},{"name":"Claußenweg","postalCode":"27798","locality":"Hude (Oldenburg)","municipality":{"key":"03458010","name":"Hude (Oldb)","type":"Kreisangehörige_Gemeinde"},"district":{"key":"03458","name":"Oldenburg","type":"Landkreis"},"federalState":{"key":"03","name":"Niedersachsen"}},{"name":"Cloppenburger Str.","postalCode":"26133","locality":"Oldenburg","municipality":{"key":"03403000","name":"Oldenburg (Oldenburg), Stadt","type":"Kreisfreie_Stadt"},"district":{"key":"03403","name":"Oldenburg (Oldenburg), Stadt","type":"Kreisfreie_Stadt"},"federalState":{"key":"03","name":"Niedersachsen"}},{"name":"Cloppenburger Str.","postalCode":"26135","locality":"Oldenburg","municipality":{"key":"03403000","name":"Oldenburg (Oldenburg), Stadt","type":"Kreisfreie_Stadt"},"district":{"key":"03403","name":"Oldenburg (Oldenburg), Stadt","type":"Kreisfreie_Stadt"},"federalState":{"key":"03","name":"Niedersachsen"}},{"name":"Cloppenburger Str.","postalCode":"49632","locality":"Essen (Oldenburg)","municipality":{"key":"03453006","name":"Essen (Oldenburg)","type":"Kreisangehörige_Gemeinde"},"district":{"key":"03453","name":"Cloppenburg","type":"Landkreis"},"federalState":{"key":"03","name":"Niedersachsen"}},{"name":"Cloppenburger Str.","postalCode":"49692","locality":"Cappeln (Oldenburg)","municipality":{"key":"03453003","name":"Cappeln (Oldenburg)","type":"Kreisangehörige_Gemeinde"},"district":{"key":"03453","name":"Cloppenburg","type":"Landkreis"},"federalState":{"key":"03","name":"Niedersachsen"}},{"name":"Comeniusweg","postalCode":"26131","locality":"Oldenburg","municipality":{"key":"03403000","name":"Oldenburg (Oldenburg), Stadt","type":"Kreisfreie_Stadt"},"district":{"key":"03403","name":"Oldenburg (Oldenburg), Stadt","type":"Kreisfreie_Stadt"},"federalState":{"key":"03","name":"Niedersachsen"}},{"name":"Dompfaffenweg","postalCode":"27243","locality":"Kirchseelte","municipality":{"key":"03458011","name":"Kirchseelte","type":"Kreisangehörige_Gemeinde"},"district":{"key":"03458","name":"Oldenburg","type":"Landkreis"},"federalState":{"key":"03","name":"Niedersachsen"}},{"name":"Dorfstr.","postalCode":"27243","locality":"Kirchseelte","municipality":{"key":"03458011","name":"Kirchseelte","type":"Kreisangehörige_Gemeinde"},"district":{"key":"03458","name":"Oldenburg","type":"Landkreis"},"federalState":{"key":"03","name":"Niedersachsen"}},{"name":"Dornbusch","postalCode":"27243","locality":"Kirchseelte","municipality":{"key":"03458011","name":"Kirchseelte","type":"Kreisangehörige_Gemeinde"},"district":{"key":"03458","name":"Oldenburg","type":"Landkreis"},"federalState":{"key":"03","name":"Niedersachsen"}},{"name":"Eschenweg","postalCode":"27243","locality":"Kirchseelte","municipality":{"key":"03458011","name":"Kirchseelte","type":"Kreisangehörige_Gemeinde"},"district":{"key":"03458","name":"Oldenburg","type":"Landkreis"},"federalState":{"key":"03","name":"Niedersachsen"}},{"name":"Fangweg","postalCode":"27243","locality":"Kirchseelte","municipality":{"key":"03458011","name":"Kirchseelte","type":"Kreisangehörige_Gemeinde"},"district":{"key":"03458","name":"Oldenburg","type":"Landkreis"},"federalState":{"key":"03","name":"Niedersachsen"}},{"name":"Fuhrenweg","postalCode":"27243","locality":"Kirchseelte","municipality":{"key":"03458011","name":"Kirchseelte","type":"Kreisangehörige_Gemeinde"},"district":{"key":"03458","name":"Oldenburg","type":"Landkreis"},"federalState":{"key":"03","name":"Niedersachsen"}},{"name":"Gabelsbergerweg","postalCode":"26129","locality":"Oldenburg","municipality":{"key":"03403000","name":"Oldenburg (Oldenburg), Stadt","type":"Kreisfreie_Stadt"},"district":{"key":"03403","name":"Oldenburg (Oldenburg), Stadt","type":"Kreisfreie_Stadt"},"federalState":{"key":"03","name":"Niedersachsen"}},{"name":"Gabelweg","postalCode":"26127","locality":"Oldenburg","municipality":{"key":"03403000","name":"Oldenburg (Oldenburg), Stadt","type":"Kreisfreie_Stadt"},"district":{"key":"03403","name":"Oldenburg (Oldenburg), Stadt","type":"Kreisfreie_Stadt"},"federalState":{"key":"03","name":"Niedersachsen"}},{"name":"Gabriele-Münter-Str.","postalCode":"26133","locality":"Oldenburg","municipality":{"key":"03403000","name":"Oldenburg (Oldenburg), Stadt","type":"Kreisfreie_Stadt"},"district":{"key":"03403","name":"Oldenburg (Oldenburg), Stadt","type":"Kreisfreie_Stadt"},"federalState":{"key":"03","name":"Niedersachsen"}},{"name":"Gagelweg","postalCode":"26135","locality":"Oldenburg","municipality":{"key":"03403000","name":"Oldenburg (Oldenburg), Stadt","type":"Kreisfreie_Stadt"},"district":{"key":"03403","name":"Oldenburg (Oldenburg), Stadt","type":"Kreisfreie_Stadt"},"federalState":{"key":"03","name":"Niedersachsen"}},{"name":"Galileiweg","postalCode":"26133","locality":"Oldenburg","municipality":{"key":"03403000","name":"Oldenburg (Oldenburg), Stadt","type":"Kreisfreie_Stadt"},"district":{"key":"03403","name":"Oldenburg (Oldenburg), Stadt","type":"Kreisfreie_Stadt"},"federalState":{"key":"03","name":"Niedersachsen"}},{"name":"Ganterweg","postalCode":"26125","locality":"Oldenburg","municipality":{"key":"03403000","name":"Oldenburg (Oldenburg), Stadt","type":"Kreisfreie_Stadt"},"district":{"key":"03403","name":"Oldenburg (Oldenburg), Stadt","type":"Kreisfreie_Stadt"},"federalState":{"key":"03","name":"Niedersachsen"}},{"name":"Gardelerweg","postalCode":"26131","locality":"Oldenburg","municipality":{"key":"03403000","name":"Oldenburg (Oldenburg), Stadt","type":"Kreisfreie_Stadt"},"district":{"key":"03403","name":"Oldenburg (Oldenburg), Stadt","type":"Kreisfreie_Stadt"},"federalState":{"key":"03","name":"Niedersachsen"}},{"name":"Garener Ring","postalCode":"49699","locality":"Lindern (Oldenburg)","municipality":{"key":"03453010","name":"Lindern (Oldenburg)","type":"Kreisangehörige_Gemeinde"},"district":{"key":"03453","name":"Cloppenburg","type":"Landkreis"},"federalState":{"key":"03","name":"Niedersachsen"}},{"name":"Garnholter Str.","postalCode":"26127","locality":"Oldenburg","municipality":{"key":"03403000","name":"Oldenburg (Oldenburg), Stadt","type":"Kreisfreie_Stadt"},"district":{"key":"03403","name":"Oldenburg (Oldenburg), Stadt","type":"Kreisfreie_Stadt"},"federalState":{"key":"03","name":"Niedersachsen"}},{"name":"Gartenstr.","postalCode":"26122","locality":"Oldenburg","municipality":{"key":"03403000","name":"Oldenburg (Oldenburg), Stadt","type":"Kreisfreie_Stadt"},"district":{"key":"03403","name":"Oldenburg (Oldenburg), Stadt","type":"Kreisfreie_Stadt"},"federalState":{"key":"03","name":"Niedersachsen"}},{"name":"Gartenstr.","postalCode":"27798","locality":"Hude (Oldenburg)","municipality":{"key":"03458010","name":"Hude (Oldb)","type":"Kreisangehörige_Gemeinde"},"district":{"key":"03458","name":"Oldenburg","type":"Landkreis"},"federalState":{"key":"03","name":"Niedersachsen"}},{"name":"Gartenstr.","postalCode":"49632","locality":"Essen (Oldenburg)","municipality":{"key":"03453006","name":"Essen (Oldenburg)","type":"Kreisangehörige_Gemeinde"},"district":{"key":"03453","name":"Cloppenburg","type":"Landkreis"},"federalState":{"key":"03","name":"Niedersachsen"}},{"name":"Gartenstr.","postalCode":"49692","locality":"Cappeln (Oldenburg)","municipality":{"key":"03453003","name":"Cappeln (Oldenburg)","type":"Kreisangehörige_Gemeinde"},"district":{"key":"03453","name":"Cloppenburg","type":"Landkreis"},"federalState":{"key":"03","name":"Niedersachsen"}},{"name":"Gartenstr.","postalCode":"49699","locality":"Lindern (Oldenburg)","municipality":{"key":"03453010","name":"Lindern (Oldenburg)","type":"Kreisangehörige_Gemeinde"},"district":{"key":"03453","name":"Cloppenburg","type":"Landkreis"},"federalState":{"key":"03","name":"Niedersachsen"}},{"name":"Gartentorstr.","postalCode":"26122","locality":"Oldenburg","municipality":{"key":"03403000","name":"Oldenburg (Oldenburg), Stadt","type":"Kreisfreie_Stadt"},"district":{"key":"03403","name":"Oldenburg (Oldenburg), Stadt","type":"Kreisfreie_Stadt"},"federalState":{"key":"03","name":"Niedersachsen"}},{"name":"Gärtnerstr.","postalCode":"26122","locality":"Oldenburg","municipality":{"key":"03403000","name":"Oldenburg (Oldenburg), Stadt","type":"Kreisfreie_Stadt"},"district":{"key":"03403","name":"Oldenburg (Oldenburg), Stadt","type":"Kreisfreie_Stadt"},"federalState":{"key":"03","name":"Niedersachsen"}},{"name":"Gasweg","postalCode":"26135","locality":"Oldenburg","municipality":{"key":"03403000","name":"Oldenburg (Oldenburg), Stadt","type":"Kreisfreie_Stadt"},"district":{"key":"03403","name":"Oldenburg (Oldenburg), Stadt","type":"Kreisfreie_Stadt"},"federalState":{"key":"03","name":"Niedersachsen"}},{"name":"Gaußstr.","postalCode":"26129","locality":"Oldenburg","municipality":{"key":"03403000","name":"Oldenburg (Oldenburg), Stadt","type":"Kreisfreie_Stadt"},"district":{"key":"03403","name":"Oldenburg (Oldenburg), Stadt","type":"Kreisfreie_Stadt"},"federalState":{"key":"03","name":"Niedersachsen"}},{"name":"Gebkenweg","postalCode":"26127","locality":"Oldenburg","municipality":{"key":"03403000","name":"Oldenburg (Oldenburg), Stadt","type":"Kreisfreie_Stadt"},"district":{"key":"03403","name":"Oldenburg (Oldenburg), Stadt","type":"Kreisfreie_Stadt"},"federalState":{"key":"03","name":"Niedersachsen"}},{"name":"Gebrüder-Grimm-Str.","postalCode":"26133","locality":"Oldenburg","municipality":{"key":"03403000","name":"Oldenburg (Oldenburg), Stadt","type":"Kreisfreie_Stadt"},"district":{"key":"03403","name":"Oldenburg (Oldenburg), Stadt","type":"Kreisfreie_Stadt"},"federalState":{"key":"03","name":"Niedersachsen"}},{"name":"Geesthöhe","postalCode":"26125","locality":"Oldenburg","municipality":{"key":"03403000","name":"Oldenburg (Oldenburg), Stadt","type":"Kreisfreie_Stadt"},"district":{"key":"03403","name":"Oldenburg (Oldenburg), Stadt","type":"Kreisfreie_Stadt"},"federalState":{"key":"03","name":"Niedersachsen"}},{"name":"Geestkamp","postalCode":"26125","locality":"Oldenburg","municipality":{"key":"03403000","name":"Oldenburg (Oldenburg), Stadt","type":"Kreisfreie_Stadt"},"district":{"key":"03403","name":"Oldenburg (Oldenburg), Stadt","type":"Kreisfreie_Stadt"},"federalState":{"key":"03","name":"Niedersachsen"}},{"name":"Gegen den Diek","postalCode":"49632","locality":"Essen (Oldenburg)","municipality":{"key":"03453006","name":"Essen (Oldenburg)","type":"Kreisangehörige_Gemeinde"},"district":{"key":"03453","name":"Cloppenburg","type":"Landkreis"},"federalState":{"key":"03","name":"Niedersachsen"}},{"name":"Gellenerhörne","postalCode":"27798","locality":"Hude (Oldenburg)","municipality":{"key":"03458010","name":"Hude (Oldb)","type":"Kreisangehörige_Gemeinde"},"district":{"key":"03458","name":"Oldenburg","type":"Landkreis"},"federalState":{"key":"03","name":"Niedersachsen"}},{"name":"Georg-Bölts-Str.","postalCode":"26135","locality":"Oldenburg","municipality":{"key":"03403000","name":"Oldenburg (Oldenburg), Stadt","type":"Kreisfreie_Stadt"},"district":{"key":"03403","name":"Oldenburg (Oldenburg), Stadt","type":"Kreisfreie_Stadt"},"federalState":{"key":"03","name":"Niedersachsen"}},{"name":"Georg-Droste-Str.","postalCode":"27798","locality":"Hude (Oldenburg)","municipality":{"key":"03458010","name":"Hude (Oldb)","type":"Kreisangehörige_Gemeinde"},"district":{"key":"03458","name":"Oldenburg","type":"Landkreis"},"federalState":{"key":"03","name":"Niedersachsen"}},{"name":"Georg-Elser-Str.","postalCode":"26123","locality":"Oldenburg","municipality":{"key":"03403000","name":"Oldenburg (Oldenburg), Stadt","type":"Kreisfreie_Stadt"},"district":{"key":"03403","name":"Oldenburg (Oldenburg), Stadt","type":"Kreisfreie_Stadt"},"federalState":{"key":"03","name":"Niedersachsen"}},{"name":"Georg-Sello-Weg","postalCode":"26131","locality":"Oldenburg","municipality":{"key":"03403000","name":"Oldenburg (Oldenburg), Stadt","type":"Kreisfreie_Stadt"},"district":{"key":"03403","name":"Oldenburg (Oldenburg), Stadt","type":"Kreisfreie_Stadt"},"federalState":{"key":"03","name":"Niedersachsen"}},{"name":"Georgstr.","postalCode":"26121","locality":"Oldenburg","municipality":{"key":"03403000","name":"Oldenburg (Oldenburg), Stadt","type":"Kreisfreie_Stadt"},"district":{"key":"03403","name":"Oldenburg (Oldenburg), Stadt","type":"Kreisfreie_Stadt"},"federalState":{"key":"03","name":"Niedersachsen"}},{"name":"Georgstr.","postalCode":"27798","locality":"Hude (Oldenburg)","municipality":{"key":"03458010","name":"Hude (Oldb)","type":"Kreisangehörige_Gemeinde"},"district":{"key":"03458","name":"Oldenburg","type":"Landkreis"},"federalState":{"key":"03","name":"Niedersachsen"}},{"name":"Georg-von-der-Vring-Str.","postalCode":"26131","locality":"Oldenburg","municipality":{"key":"03403000","name":"Oldenburg (Oldenburg), Stadt","type":"Kreisfreie_Stadt"},"district":{"key":"03403","name":"Oldenburg (Oldenburg), Stadt","type":"Kreisfreie_Stadt"},"federalState":{"key":"03","name":"Niedersachsen"}},{"name":"Gerberhof","postalCode":"26122","locality":"Oldenburg","municipality":{"key":"03403000","name":"Oldenburg (Oldenburg), Stadt","type":"Kreisfreie_Stadt"},"district":{"key":"03403","name":"Oldenburg (Oldenburg), Stadt","type":"Kreisfreie_Stadt"},"federalState":{"key":"03","name":"Niedersachsen"}},{"name":"Gerd-Achgelis-Weg","postalCode":"27798","locality":"Hude (Oldenburg)","municipality":{"key":"03458010","name":"Hude (Oldb)","type":"Kreisangehörige_Gemeinde"},"district":{"key":"03458","name":"Oldenburg","type":"Landkreis"},"federalState":{"key":"03","name":"Niedersachsen"}},{"name":"Gerhard-Muntink-Str.","postalCode":"26133","locality":"Oldenburg","municipality":{"key":"03403000","name":"Oldenburg (Oldenburg), Stadt","type":"Kreisfreie_Stadt"},"district":{"key":"03403","name":"Oldenburg (Oldenburg), Stadt","type":"Kreisfreie_Stadt"},"federalState":{"key":"03","name":"Niedersachsen"}},{"name":"Gerhard-Schnitger-Str.","postalCode":"26133","locality":"Oldenburg","municipality":{"key":"03403000","name":"Oldenburg (Oldenburg), Stadt","type":"Kreisfreie_Stadt"},"district":{"key":"03403","name":"Oldenburg (Oldenburg), Stadt","type":"Kreisfreie_Stadt"},"federalState":{"key":"03","name":"Niedersachsen"}},{"name":"Gerhard-Stalling-Str.","postalCode":"26135","locality":"Oldenburg","municipality":{"key":"03403000","name":"Oldenburg (Oldenburg), Stadt","type":"Kreisfreie_Stadt"},"district":{"key":"03403","name":"Oldenburg (Oldenburg), Stadt","type":"Kreisfreie_Stadt"},"federalState":{"key":"03","name":"Niedersachsen"}},{"name":"Gerh.-Hauptmann-Weg","postalCode":"27798","locality":"Hude (Oldenburg)","municipality":{"key":"03458010","name":"Hude (Oldb)","type":"Kreisangehörige_Gemeinde"},"district":{"key":"03458","name":"Oldenburg","type":"Landkreis"},"federalState":{"key":"03","name":"Niedersachsen"}},{"name":"Gerichtsstr.","postalCode":"26135","locality":"Oldenburg","municipality":{"key":"03403000","name":"Oldenburg (Oldenburg), Stadt","type":"Kreisfreie_Stadt"},"district":{"key":"03403","name":"Oldenburg (Oldenburg), Stadt","type":"Kreisfreie_Stadt"},"federalState":{"key":"03","name":"Niedersachsen"}},{"name":"Gersteweg","postalCode":"26125","locality":"Oldenburg","municipality":{"key":"03403000","name":"Oldenburg (Oldenburg), Stadt","type":"Kreisfreie_Stadt"},"district":{"key":"03403","name":"Oldenburg (Oldenburg), Stadt","type":"Kreisfreie_Stadt"},"federalState":{"key":"03","name":"Niedersachsen"}},{"name":"Gertrud-Bäumer-Weg","postalCode":"26131","locality":"Oldenburg","municipality":{"key":"03403000","name":"Oldenburg (Oldenburg), Stadt","type":"Kreisfreie_Stadt"},"district":{"key":"03403","name":"Oldenburg (Oldenburg), Stadt","type":"Kreisfreie_Stadt"},"federalState":{"key":"03","name":"Niedersachsen"}},{"name":"Gertrudenstr.","postalCode":"26121","locality":"Oldenburg","municipality":{"key":"03403000","name":"Oldenburg (Oldenburg), Stadt","type":"Kreisfreie_Stadt"},"district":{"key":"03403","name":"Oldenburg (Oldenburg), Stadt","type":"Kreisfreie_Stadt"},"federalState":{"key":"03","name":"Niedersachsen"}},{"name":"Geschwister-Scholl-Str.","postalCode":"26131","locality":"Oldenburg","municipality":{"key":"03403000","name":"Oldenburg (Oldenburg), Stadt","type":"Kreisfreie_Stadt"},"district":{"key":"03403","name":"Oldenburg (Oldenburg), Stadt","type":"Kreisfreie_Stadt"},"federalState":{"key":"03","name":"Niedersachsen"}},{"name":"Giddendorfer Weg","postalCode":"23758","locality":"Oldenburg in Holstein","municipality":{"key":"01055033","name":"Oldenburg in Holstein, Stadt","type":"Stadt"},"district":{"key":"01055","name":"Ostholstein","type":"Kreis"},"federalState":{"key":"01","name":"Schleswig-Holstein"}},{"name":"Giesenweg","postalCode":"26133","locality":"Oldenburg","municipality":{"key":"03403000","name":"Oldenburg (Oldenburg), Stadt","type":"Kreisfreie_Stadt"},"district":{"key":"03403","name":"Oldenburg (Oldenburg), Stadt","type":"Kreisfreie_Stadt"},"federalState":{"key":"03","name":"Niedersachsen"}},{"name":"Gildeplatz","postalCode":"23758","locality":"Oldenburg in Holstein","municipality":{"key":"01055033","name":"Oldenburg in Holstein, Stadt","type":"Stadt"},"district":{"key":"01055","name":"Ostholstein","type":"Kreis"},"federalState":{"key":"01","name":"Schleswig-Holstein"}},{"name":"Gildestr.","postalCode":"26133","locality":"Oldenburg","municipality":{"key":"03403000","name":"Oldenburg (Oldenburg), Stadt","type":"Kreisfreie_Stadt"},"district":{"key":"03403","name":"Oldenburg (Oldenburg), Stadt","type":"Kreisfreie_Stadt"},"federalState":{"key":"03","name":"Niedersachsen"}},{"name":"Gimpelstr.","postalCode":"26131","locality":"Oldenburg","municipality":{"key":"03403000","name":"Oldenburg (Oldenburg), Stadt","type":"Kreisfreie_Stadt"},"district":{"key":"03403","name":"Oldenburg (Oldenburg), Stadt","type":"Kreisfreie_Stadt"},"federalState":{"key":"03","name":"Niedersachsen"}},{"name":"Ginger Str.","postalCode":"49699","locality":"Lindern (Oldenburg)","municipality":{"key":"03453010","name":"Lindern (Oldenburg)","type":"Kreisangehörige_Gemeinde"},"district":{"key":"03453","name":"Cloppenburg","type":"Landkreis"},"federalState":{"key":"03","name":"Niedersachsen"}},{"name":"Ginsterstr.","postalCode":"49692","locality":"Cappeln (Oldenburg)","municipality":{"key":"03453003","name":"Cappeln (Oldenburg)","type":"Kreisangehörige_Gemeinde"},"district":{"key":"03453","name":"Cloppenburg","type":"Landkreis"},"federalState":{"key":"03","name":"Niedersachsen"}},{"name":"Ginsterweg","postalCode":"23758","locality":"Oldenburg in Holstein","municipality":{"key":"01055033","name":"Oldenburg in Holstein, Stadt","type":"Stadt"},"district":{"key":"01055","name":"Ostholstein","type":"Kreis"},"federalState":{"key":"01","name":"Schleswig-Holstein"}},{"name":"Hinter den Höfen","postalCode":"27243","locality":"Kirchseelte","municipality":{"key":"03458011","name":"Kirchseelte","type":"Kreisangehörige_Gemeinde"},"district":{"key":"03458","name":"Oldenburg","type":"Landkreis"},"federalState":{"key":"03","name":"Niedersachsen"}},{"name":"Hügelweg","postalCode":"27243","locality":"Kirchseelte","municipality":{"key":"03458011","name":"Kirchseelte","type":"Kreisangehörige_Gemeinde"},"district":{"key":"03458","name":"Oldenburg","type":"Landkreis"},"federalState":{"key":"03","name":"Niedersachsen"}},{"name":"Im Dorfe","postalCode":"27243","locality":"Kirchseelte","municipality":{"key":"03458011","name":"Kirchseelte","type":"Kreisangehörige_Gemeinde"},"district":{"key":"03458","name":"Oldenburg","type":"Landkreis"},"federalState":{"key":"03","name":"Niedersachsen"}},{"name":"Im Winkel","postalCode":"27243","locality":"Kirchseelte","municipality":{"key":"03458011","name":"Kirchseelte","type":"Kreisangehörige_Gemeinde"},"district":{"key":"03458","name":"Oldenburg","type":"Landkreis"},"federalState":{"key":"03","name":"Niedersachsen"}},{"name":"Jagdweg","postalCode":"26133","locality":"Oldenburg","municipality":{"key":"03403000","name":"Oldenburg (Oldenburg), Stadt","type":"Kreisfreie_Stadt"},"district":{"key":"03403","name":"Oldenburg (Oldenburg), Stadt","type":"Kreisfreie_Stadt"},"federalState":{"key":"03","name":"Niedersachsen"}},{"name":"Jägerstr.","postalCode":"26121","locality":"Oldenburg","municipality":{"key":"03403000","name":"Oldenburg (Oldenburg), Stadt","type":"Kreisfreie_Stadt"},"district":{"key":"03403","name":"Oldenburg (Oldenburg), Stadt","type":"Kreisfreie_Stadt"},"federalState":{"key":"03","name":"Niedersachsen"}},{"name":"Jägerstr.","postalCode":"26129","locality":"Oldenburg","municipality":{"key":"03403000","name":"Oldenburg (Oldenburg), Stadt","type":"Kreisfreie_Stadt"},"district":{"key":"03403","name":"Oldenburg (Oldenburg), Stadt","type":"Kreisfreie_Stadt"},"federalState":{"key":"03","name":"Niedersachsen"}},{"name":"Jägerstr.","postalCode":"27798","locality":"Hude (Oldenburg)","municipality":{"key":"03458010","name":"Hude (Oldb)","type":"Kreisangehörige_Gemeinde"},"district":{"key":"03458","name":"Oldenburg","type":"Landkreis"},"federalState":{"key":"03","name":"Niedersachsen"}},{"name":"Jahnstr.","postalCode":"26122","locality":"Oldenburg","municipality":{"key":"03403000","name":"Oldenburg (Oldenburg), Stadt","type":"Kreisfreie_Stadt"},"district":{"key":"03403","name":"Oldenburg (Oldenburg), Stadt","type":"Kreisfreie_Stadt"},"federalState":{"key":"03","name":"Niedersachsen"}},{"name":"Jahnstr.","postalCode":"27798","locality":"Hude (Oldenburg)","municipality":{"key":"03458010","name":"Hude (Oldb)","type":"Kreisangehörige_Gemeinde"},"district":{"key":"03458","name":"Oldenburg","type":"Landkreis"},"federalState":{"key":"03","name":"Niedersachsen"}},{"name":"Jakob-Backer-Weg","postalCode":"27798","locality":"Hude (Oldenburg)","municipality":{"key":"03458010","name":"Hude (Oldb)","type":"Kreisangehörige_Gemeinde"},"district":{"key":"03458","name":"Oldenburg","type":"Landkreis"},"federalState":{"key":"03","name":"Niedersachsen"}},{"name":"Jakobistr.","postalCode":"26121","locality":"Oldenburg","municipality":{"key":"03403000","name":"Oldenburg (Oldenburg), Stadt","type":"Kreisfreie_Stadt"},"district":{"key":"03403","name":"Oldenburg (Oldenburg), Stadt","type":"Kreisfreie_Stadt"},"federalState":{"key":"03","name":"Niedersachsen"}},{"name":"Jammertal","postalCode":"49699","locality":"Lindern (Oldenburg)","municipality":{"key":"03453010","name":"Lindern (Oldenburg)","type":"Kreisangehörige_Gemeinde"},"district":{"key":"03453","name":"Cloppenburg","type":"Landkreis"},"federalState":{"key":"03","name":"Niedersachsen"}},{"name":"Jan-Oeltjen-Str.","postalCode":"26133","locality":"Oldenburg","municipality":{"key":"03403000","name":"Oldenburg (Oldenburg), Stadt","type":"Kreisfreie_Stadt"},"district":{"key":"03403","name":"Oldenburg (Oldenburg), Stadt","type":"Kreisfreie_Stadt"},"federalState":{"key":"03","name":"Niedersachsen"}},{"name":"Janusz-Korczak-Weg","postalCode":"26127","locality":"Oldenburg","municipality":{"key":"03403000","name":"Oldenburg (Oldenburg), Stadt","type":"Kreisfreie_Stadt"},"district":{"key":"03403","name":"Oldenburg (Oldenburg), Stadt","type":"Kreisfreie_Stadt"},"federalState":{"key":"03","name":"Niedersachsen"}},{"name":"Janzenweg","postalCode":"27798","locality":"Hude (Oldenburg)","municipality":{"key":"03458010","name":"Hude (Oldb)","type":"Kreisangehörige_Gemeinde"},"district":{"key":"03458","name":"Oldenburg","type":"Landkreis"},"federalState":{"key":"03","name":"Niedersachsen"}},{"name":"Jasminweg","postalCode":"23758","locality":"Oldenburg in Holstein","municipality":{"key":"01055033","name":"Oldenburg in Holstein, Stadt","type":"Stadt"},"district":{"key":"01055","name":"Ostholstein","type":"Kreis"},"federalState":{"key":"01","name":"Schleswig-Holstein"}},{"name":"Jawlenskystr.","postalCode":"26133","locality":"Oldenburg","municipality":{"key":"03403000","name":"Oldenburg (Oldenburg), Stadt","type":"Kreisfreie_Stadt"},"district":{"key":"03403","name":"Oldenburg (Oldenburg), Stadt","type":"Kreisfreie_Stadt"},"federalState":{"key":"03","name":"Niedersachsen"}},{"name":"Jebensweg","postalCode":"23758","locality":"Oldenburg in Holstein","municipality":{"key":"01055033","name":"Oldenburg in Holstein, Stadt","type":"Stadt"},"district":{"key":"01055","name":"Ostholstein","type":"Kreis"},"federalState":{"key":"01","name":"Schleswig-Holstein"}},{"name":"Jenaer Str.","postalCode":"26125","locality":"Oldenburg","municipality":{"key":"03403000","name":"Oldenburg (Oldenburg), Stadt","type":"Kreisfreie_Stadt"},"district":{"key":"03403","name":"Oldenburg (Oldenburg), Stadt","type":"Kreisfreie_Stadt"},"federalState":{"key":"03","name":"Niedersachsen"}},{"name":"Johannes-Brahms-Str.","postalCode":"26135","locality":"Oldenburg","municipality":{"key":"03403000","name":"Oldenburg (Oldenburg), Stadt","type":"Kreisfreie_Stadt"},"district":{"key":"03403","name":"Oldenburg (Oldenburg), Stadt","type":"Kreisfreie_Stadt"},"federalState":{"key":"03","name":"Niedersachsen"}},{"name":"Johannes-Gutenberg-Str.","postalCode":"49632","locality":"Essen (Oldenburg)","municipality":{"key":"03453006","name":"Essen (Oldenburg)","type":"Kreisangehörige_Gemeinde"},"district":{"key":"03453","name":"Cloppenburg","type":"Landkreis"},"federalState":{"key":"03","name":"Niedersachsen"}},{"name":"Johann-Gerdes-Str.","postalCode":"26125","locality":"Oldenburg","municipality":{"key":"03403000","name":"Oldenburg (Oldenburg), Stadt","type":"Kreisfreie_Stadt"},"district":{"key":"03403","name":"Oldenburg (Oldenburg), Stadt","type":"Kreisfreie_Stadt"},"federalState":{"key":"03","name":"Niedersachsen"}},{"name":"Johann-Heinrich-Brandes-Str.","postalCode":"26133","locality":"Oldenburg","municipality":{"key":"03403000","name":"Oldenburg (Oldenburg), Stadt","type":"Kreisfreie_Stadt"},"district":{"key":"03403","name":"Oldenburg (Oldenburg), Stadt","type":"Kreisfreie_Stadt"},"federalState":{"key":"03","name":"Niedersachsen"}},{"name":"Johann-Hinrich-Engelbart-Weg","postalCode":"26131","locality":"Oldenburg","municipality":{"key":"03403000","name":"Oldenburg (Oldenburg), Stadt","type":"Kreisfreie_Stadt"},"district":{"key":"03403","name":"Oldenburg (Oldenburg), Stadt","type":"Kreisfreie_Stadt"},"federalState":{"key":"03","name":"Niedersachsen"}},{"name":"Johannisdorfer Weg","postalCode":"23758","locality":"Oldenburg in Holstein","municipality":{"key":"01055033","name":"Oldenburg in Holstein, Stadt","type":"Stadt"},"district":{"key":"01055","name":"Ostholstein","type":"Kreis"},"federalState":{"key":"01","name":"Schleswig-Holstein"}},{"name":"Johannisgang","postalCode":"26121","locality":"Oldenburg","municipality":{"key":"03403000","name":"Oldenburg (Oldenburg), Stadt","type":"Kreisfreie_Stadt"},"district":{"key":"03403","name":"Oldenburg (Oldenburg), Stadt","type":"Kreisfreie_Stadt"},"federalState":{"key":"03","name":"Niedersachsen"}},{"name":"Johannisstr.","postalCode":"23758","locality":"Oldenburg in Holstein","municipality":{"key":"01055033","name":"Oldenburg in Holstein, Stadt","type":"Stadt"},"district":{"key":"01055","name":"Ostholstein","type":"Kreis"},"federalState":{"key":"01","name":"Schleswig-Holstein"}},{"name":"Johannisstr.","postalCode":"26121","locality":"Oldenburg","municipality":{"key":"03403000","name":"Oldenburg (Oldenburg), Stadt","type":"Kreisfreie_Stadt"},"district":{"key":"03403","name":"Oldenburg (Oldenburg), Stadt","type":"Kreisfreie_Stadt"},"federalState":{"key":"03","name":"Niedersachsen"}},{"name":"Johann-Justus-Weg","postalCode":"26127","locality":"Oldenburg","municipality":{"key":"03403000","name":"Oldenburg (Oldenburg), Stadt","type":"Kreisfreie_Stadt"},"district":{"key":"03403","name":"Oldenburg (Oldenburg), Stadt","type":"Kreisfreie_Stadt"},"federalState":{"key":"03","name":"Niedersachsen"}},{"name":"Johann-Liss-Str.","postalCode":"23758","locality":"Oldenburg in Holstein","municipality":{"key":"01055033","name":"Oldenburg in Holstein, Stadt","type":"Stadt"},"district":{"key":"01055","name":"Ostholstein","type":"Kreis"},"federalState":{"key":"01","name":"Schleswig-Holstein"}},{"name":"Josefstr.","postalCode":"49632","locality":"Essen (Oldenburg)","municipality":{"key":"03453006","name":"Essen (Oldenburg)","type":"Kreisangehörige_Gemeinde"},"district":{"key":"03453","name":"Cloppenburg","type":"Landkreis"},"federalState":{"key":"03","name":"Niedersachsen"}},{"name":"Joseph-Bernhard-Winck-Str.","postalCode":"26133","locality":"Oldenburg","municipality":{"key":"03403000","name":"Oldenburg (Oldenburg), Stadt","type":"Kreisfreie_Stadt"},"district":{"key":"03403","name":"Oldenburg (Oldenburg), Stadt","type":"Kreisfreie_Stadt"},"federalState":{"key":"03","name":"Niedersachsen"}},{"name":"Juiststr.","postalCode":"26131","locality":"Oldenburg","municipality":{"key":"03403000","name":"Oldenburg (Oldenburg), Stadt","type":"Kreisfreie_Stadt"},"district":{"key":"03403","name":"Oldenburg (Oldenburg), Stadt","type":"Kreisfreie_Stadt"},"federalState":{"key":"03","name":"Niedersachsen"}},{"name":"Julius-Leber-Str.","postalCode":"26129","locality":"Oldenburg","municipality":{"key":"03403000","name":"Oldenburg (Oldenburg), Stadt","type":"Kreisfreie_Stadt"},"district":{"key":"03403","name":"Oldenburg (Oldenburg), Stadt","type":"Kreisfreie_Stadt"},"federalState":{"key":"03","name":"Niedersachsen"}},{"name":"Junkerburg","postalCode":"26123","locality":"Oldenburg","municipality":{"key":"03403000","name":"Oldenburg (Oldenburg), Stadt","type":"Kreisfreie_Stadt"},"district":{"key":"03403","name":"Oldenburg (Oldenburg), Stadt","type":"Kreisfreie_Stadt"},"federalState":{"key":"03","name":"Niedersachsen"}},{"name":"Junkerstr.","postalCode":"26123","locality":"Oldenburg","municipality":{"key":"03403000","name":"Oldenburg (Oldenburg), Stadt","type":"Kreisfreie_Stadt"},"district":{"key":"03403","name":"Oldenburg (Oldenburg), Stadt","type":"Kreisfreie_Stadt"},"federalState":{"key":"03","name":"Niedersachsen"}},{"name":"Justin-Hüppe-Ring","postalCode":"26133","locality":"Oldenburg","municipality":{"key":"03403000","name":"Oldenburg (Oldenburg), Stadt","type":"Kreisfreie_Stadt"},"district":{"key":"03403","name":"Oldenburg (Oldenburg), Stadt","type":"Kreisfreie_Stadt"},"federalState":{"key":"03","name":"Niedersachsen"}},{"name":"Justus-von-Liebig-Str.","postalCode":"26133","locality":"Oldenburg","municipality":{"key":"03403000","name":"Oldenburg (Oldenburg), Stadt","type":"Kreisfreie_Stadt"},"district":{"key":"03403","name":"Oldenburg (Oldenburg), Stadt","type":"Kreisfreie_Stadt"},"federalState":{"key":"03","name":"Niedersachsen"}},{"name":"Kastanienweg","postalCode":"27243","locality":"Kirchseelte","municipality":{"key":"03458011","name":"Kirchseelte","type":"Kreisangehörige_Gemeinde"},"district":{"key":"03458","name":"Oldenburg","type":"Landkreis"},"federalState":{"key":"03","name":"Niedersachsen"}},{"name":"Kiefernweg","postalCode":"27243","locality":"Kirchseelte","municipality":{"key":"03458011","name":"Kirchseelte","type":"Kreisangehörige_Gemeinde"},"district":{"key":"03458","name":"Oldenburg","type":"Landkreis"},"federalState":{"key":"03","name":"Niedersachsen"}},{"name":"Klosterseelter Str.","postalCode":"27243","locality":"Kirchseelte","municipality":{"key":"03458011","name":"Kirchseelte","type":"Kreisangehörige_Gemeinde"},"district":{"key":"03458","name":"Oldenburg","type":"Landkreis"},"federalState":{"key":"03","name":"Niedersachsen"}},{"name":"Lindbergweg","postalCode":"27243","locality":"Kirchseelte","municipality":{"key":"03458011","name":"Kirchseelte","type":"Kreisangehörige_Gemeinde"},"district":{"key":"03458","name":"Oldenburg","type":"Landkreis"},"federalState":{"key":"03","name":"Niedersachsen"}},{"name":"Meisenweg","postalCode":"27243","locality":"Kirchseelte","municipality":{"key":"03458011","name":"Kirchseelte","type":"Kreisangehörige_Gemeinde"},"district":{"key":"03458","name":"Oldenburg","type":"Landkreis"},"federalState":{"key":"03","name":"Niedersachsen"}},{"name":"Moorweg","postalCode":"27243","locality":"Kirchseelte","municipality":{"key":"03458011","name":"Kirchseelte","type":"Kreisangehörige_Gemeinde"},"district":{"key":"03458","name":"Oldenburg","type":"Landkreis"},"federalState":{"key":"03","name":"Niedersachsen"}},{"name":"Mühlenweg","postalCode":"27243","locality":"Kirchseelte","municipality":{"key":"03458011","name":"Kirchseelte","type":"Kreisangehörige_Gemeinde"},"district":{"key":"03458","name":"Oldenburg","type":"Landkreis"},"federalState":{"key":"03","name":"Niedersachsen"}},{"name":"Neuer Kamp","postalCode":"27243","locality":"Kirchseelte","municipality":{"key":"03458011","name":"Kirchseelte","type":"Kreisangehörige_Gemeinde"},"district":{"key":"03458","name":"Oldenburg","type":"Landkreis"},"federalState":{"key":"03","name":"Niedersachsen"}},{"name":"Osterfeld","postalCode":"27243","locality":"Kirchseelte","municipality":{"key":"03458011","name":"Kirchseelte","type":"Kreisangehörige_Gemeinde"},"district":{"key":"03458","name":"Oldenburg","type":"Landkreis"},"federalState":{"key":"03","name":"Niedersachsen"}},{"name":"Papenhof","postalCode":"23758","locality":"Oldenburg in Holstein","municipality":{"key":"01055033","name":"Oldenburg in Holstein, Stadt","type":"Stadt"},"district":{"key":"01055","name":"Ostholstein","type":"Kreis"},"federalState":{"key":"01","name":"Schleswig-Holstein"}},{"name":"Pappelallee","postalCode":"26122","locality":"Oldenburg","municipality":{"key":"03403000","name":"Oldenburg (Oldenburg), Stadt","type":"Kreisfreie_Stadt"},"district":{"key":"03403","name":"Oldenburg (Oldenburg), Stadt","type":"Kreisfreie_Stadt"},"federalState":{"key":"03","name":"Niedersachsen"}},{"name":"Pappelstr.","postalCode":"49692","locality":"Cappeln (Oldenburg)","municipality":{"key":"03453003","name":"Cappeln (Oldenburg)","type":"Kreisangehörige_Gemeinde"},"district":{"key":"03453","name":"Cloppenburg","type":"Landkreis"},"federalState":{"key":"03","name":"Niedersachsen"}},{"name":"Pappelweg","postalCode":"49699","locality":"Lindern (Oldenburg)","municipality":{"key":"03453010","name":"Lindern (Oldenburg)","type":"Kreisangehörige_Gemeinde"},"district":{"key":"03453","name":"Cloppenburg","type":"Landkreis"},"federalState":{"key":"03","name":"Niedersachsen"}},{"name":"Paradewall","postalCode":"26122","locality":"Oldenburg","municipality":{"key":"03403000","name":"Oldenburg (Oldenburg), Stadt","type":"Kreisfreie_Stadt"},"district":{"key":"03403","name":"Oldenburg (Oldenburg), Stadt","type":"Kreisfreie_Stadt"},"federalState":{"key":"03","name":"Niedersachsen"}},{"name":"Parc d'Arnage","postalCode":"27798","locality":"Hude (Oldenburg)","municipality":{"key":"03458010","name":"Hude (Oldb)","type":"Kreisangehörige_Gemeinde"},"district":{"key":"03458","name":"Oldenburg","type":"Landkreis"},"federalState":{"key":"03","name":"Niedersachsen"}},{"name":"Pariser Str.","postalCode":"26127","locality":"Oldenburg","municipality":{"key":"03403000","name":"Oldenburg (Oldenburg), Stadt","type":"Kreisfreie_Stadt"},"district":{"key":"03403","name":"Oldenburg (Oldenburg), Stadt","type":"Kreisfreie_Stadt"},"federalState":{"key":"03","name":"Niedersachsen"}},{"name":"Parisiusweg","postalCode":"27798","locality":"Hude (Oldenburg)","municipality":{"key":"03458010","name":"Hude (Oldb)","type":"Kreisangehörige_Gemeinde"},"district":{"key":"03458","name":"Oldenburg","type":"Landkreis"},"federalState":{"key":"03","name":"Niedersachsen"}},{"name":"Parkstr.","postalCode":"26122","locality":"Oldenburg","municipality":{"key":"03403000","name":"Oldenburg (Oldenburg), Stadt","type":"Kreisfreie_Stadt"},"district":{"key":"03403","name":"Oldenburg (Oldenburg), Stadt","type":"Kreisfreie_Stadt"},"federalState":{"key":"03","name":"Niedersachsen"}},{"name":"Parkstr.","postalCode":"27798","locality":"Hude (Oldenburg)","municipality":{"key":"03458010","name":"Hude (Oldb)","type":"Kreisangehörige_Gemeinde"},"district":{"key":"03458","name":"Oldenburg","type":"Landkreis"},"federalState":{"key":"03","name":"Niedersachsen"}},{"name":"Passage","postalCode":"23758","locality":"Oldenburg in Holstein","municipality":{"key":"01055033","name":"Oldenburg in Holstein, Stadt","type":"Stadt"},"district":{"key":"01055","name":"Ostholstein","type":"Kreis"},"federalState":{"key":"01","name":"Schleswig-Holstein"}},{"name":"Pasteurstr.","postalCode":"26133","locality":"Oldenburg","municipality":{"key":"03403000","name":"Oldenburg (Oldenburg), Stadt","type":"Kreisfreie_Stadt"},"district":{"key":"03403","name":"Oldenburg (Oldenburg), Stadt","type":"Kreisfreie_Stadt"},"federalState":{"key":"03","name":"Niedersachsen"}},{"name":"Pastorberg","postalCode":"23758","locality":"Oldenburg in Holstein","municipality":{"key":"01055033","name":"Oldenburg in Holstein, Stadt","type":"Stadt"},"district":{"key":"01055","name":"Ostholstein","type":"Kreis"},"federalState":{"key":"01","name":"Schleswig-Holstein"}},{"name":"Pastorenbusch","postalCode":"49632","locality":"Essen (Oldenburg)","municipality":{"key":"03453006","name":"Essen (Oldenburg)","type":"Kreisangehörige_Gemeinde"},"district":{"key":"03453","name":"Cloppenburg","type":"Landkreis"},"federalState":{"key":"03","name":"Niedersachsen"}},{"name":"Pastorenbusch","postalCode":"49699","locality":"Lindern (Oldenburg)","municipality":{"key":"03453010","name":"Lindern (Oldenburg)","type":"Kreisangehörige_Gemeinde"},"district":{"key":"03453","name":"Cloppenburg","type":"Landkreis"},"federalState":{"key":"03","name":"Niedersachsen"}},{"name":"Pastor Vossing Weg","postalCode":"49699","locality":"Lindern (Oldenburg)","municipality":{"key":"03453010","name":"Lindern (Oldenburg)","type":"Kreisangehörige_Gemeinde"},"district":{"key":"03453","name":"Cloppenburg","type":"Landkreis"},"federalState":{"key":"03","name":"Niedersachsen"}},{"name":"Paula-Modersohn-Becker-Str.","postalCode":"26133","locality":"Oldenburg","municipality":{"key":"03403000","name":"Oldenburg (Oldenburg), Stadt","type":"Kreisfreie_Stadt"},"district":{"key":"03403","name":"Oldenburg (Oldenburg), Stadt","type":"Kreisfreie_Stadt"},"federalState":{"key":"03","name":"Niedersachsen"}},{"name":"Paul-Bonatz-Str.","postalCode":"26133","locality":"Oldenburg","municipality":{"key":"03403000","name":"Oldenburg (Oldenburg), Stadt","type":"Kreisfreie_Stadt"},"district":{"key":"03403","name":"Oldenburg (Oldenburg), Stadt","type":"Kreisfreie_Stadt"},"federalState":{"key":"03","name":"Niedersachsen"}},{"name":"Paul-Klee-Str.","postalCode":"26133","locality":"Oldenburg","municipality":{"key":"03403000","name":"Oldenburg (Oldenburg), Stadt","type":"Kreisfreie_Stadt"},"district":{"key":"03403","name":"Oldenburg (Oldenburg), Stadt","type":"Kreisfreie_Stadt"},"federalState":{"key":"03","name":"Niedersachsen"}},{"name":"Paul-Krey-Str.","postalCode":"26135","locality":"Oldenburg","municipality":{"key":"03403000","name":"Oldenburg (Oldenburg), Stadt","type":"Kreisfreie_Stadt"},"district":{"key":"03403","name":"Oldenburg (Oldenburg), Stadt","type":"Kreisfreie_Stadt"},"federalState":{"key":"03","name":"Niedersachsen"}},{"name":"Paul-Löbe-Str.","postalCode":"26133","locality":"Oldenburg","municipality":{"key":"03403000","name":"Oldenburg (Oldenburg), Stadt","type":"Kreisfreie_Stadt"},"district":{"key":"03403","name":"Oldenburg (Oldenburg), Stadt","type":"Kreisfreie_Stadt"},"federalState":{"key":"03","name":"Niedersachsen"}},{"name":"Paulstr.","postalCode":"26129","locality":"Oldenburg","municipality":{"key":"03403000","name":"Oldenburg (Oldenburg), Stadt","type":"Kreisfreie_Stadt"},"district":{"key":"03403","name":"Oldenburg (Oldenburg), Stadt","type":"Kreisfreie_Stadt"},"federalState":{"key":"03","name":"Niedersachsen"}},{"name":"Paul-Tantzen-Str.","postalCode":"26125","locality":"Oldenburg","municipality":{"key":"03403000","name":"Oldenburg (Oldenburg), Stadt","type":"Kreisfreie_Stadt"},"district":{"key":"03403","name":"Oldenburg (Oldenburg), Stadt","type":"Kreisfreie_Stadt"},"federalState":{"key":"03","name":"Niedersachsen"}},{"name":"Peheimer Str.","postalCode":"49699","locality":"Lindern (Oldenburg)","municipality":{"key":"03453010","name":"Lindern (Oldenburg)","type":"Kreisangehörige_Gemeinde"},"district":{"key":"03453","name":"Cloppenburg","type":"Landkreis"},"federalState":{"key":"03","name":"Niedersachsen"}},{"name":"Pellwormer Weg","postalCode":"26131","locality":"Oldenburg","municipality":{"key":"03403000","name":"Oldenburg (Oldenburg), Stadt","type":"Kreisfreie_Stadt"},"district":{"key":"03403","name":"Oldenburg (Oldenburg), Stadt","type":"Kreisfreie_Stadt"},"federalState":{"key":"03","name":"Niedersachsen"}},{"name":"Pestalozzistr.","postalCode":"26131","locality":"Oldenburg","municipality":{"key":"03403000","name":"Oldenburg (Oldenburg), Stadt","type":"Kreisfreie_Stadt"},"district":{"key":"03403","name":"Oldenburg (Oldenburg), Stadt","type":"Kreisfreie_Stadt"},"federalState":{"key":"03","name":"Niedersachsen"}},{"name":"Pestrupsweg","postalCode":"26129","locality":"Oldenburg","municipality":{"key":"03403000","name":"Oldenburg (Oldenburg), Stadt","type":"Kreisfreie_Stadt"},"district":{"key":"03403","name":"Oldenburg (Oldenburg), Stadt","type":"Kreisfreie_Stadt"},"federalState":{"key":"03","name":"Niedersachsen"}},{"name":"Peterstr.","postalCode":"26121","locality":"Oldenburg","municipality":{"key":"03403000","name":"Oldenburg (Oldenburg), Stadt","type":"Kreisfreie_Stadt"},"district":{"key":"03403","name":"Oldenburg (Oldenburg), Stadt","type":"Kreisfreie_Stadt"},"federalState":{"key":"03","name":"Niedersachsen"}},{"name":"Peterstr.","postalCode":"49632","locality":"Essen (Oldenburg)","municipality":{"key":"03453006","name":"Essen (Oldenburg)","type":"Kreisangehörige_Gemeinde"},"district":{"key":"03453","name":"Cloppenburg","type":"Landkreis"},"federalState":{"key":"03","name":"Niedersachsen"}},{"name":"Pfänderweg","postalCode":"26123","locality":"Oldenburg","municipality":{"key":"03403000","name":"Oldenburg (Oldenburg), Stadt","type":"Kreisfreie_Stadt"},"district":{"key":"03403","name":"Oldenburg (Oldenburg), Stadt","type":"Kreisfreie_Stadt"},"federalState":{"key":"03","name":"Niedersachsen"}},{"name":"Pfauenstr.","postalCode":"26135","locality":"Oldenburg","municipality":{"key":"03403000","name":"Oldenburg (Oldenburg), Stadt","type":"Kreisfreie_Stadt"},"district":{"key":"03403","name":"Oldenburg (Oldenburg), Stadt","type":"Kreisfreie_Stadt"},"federalState":{"key":"03","name":"Niedersachsen"}},{"name":"Pferdemarkt","postalCode":"26121","locality":"Oldenburg","municipality":{"key":"03403000","name":"Oldenburg (Oldenburg), Stadt","type":"Kreisfreie_Stadt"},"district":{"key":"03403","name":"Oldenburg (Oldenburg), Stadt","type":"Kreisfreie_Stadt"},"federalState":{"key":"03","name":"Niedersachsen"}},{"name":"Philipp-de-Haas-Str.","postalCode":"26125","locality":"Oldenburg","municipality":{"key":"03403000","name":"Oldenburg (Oldenburg), Stadt","type":"Kreisfreie_Stadt"},"district":{"key":"03403","name":"Oldenburg (Oldenburg), Stadt","type":"Kreisfreie_Stadt"},"federalState":{"key":"03","name":"Niedersachsen"}},{"name":"Philipp-Reis-Gang","postalCode":"26122","locality":"Oldenburg","municipality":{"key":"03403000","name":"Oldenburg (Oldenburg), Stadt","type":"Kreisfreie_Stadt"},"district":{"key":"03403","name":"Oldenburg (Oldenburg), Stadt","type":"Kreisfreie_Stadt"},"federalState":{"key":"03","name":"Niedersachsen"}},{"name":"Philipp-Scheidemann-Str.","postalCode":"26133","locality":"Oldenburg","municipality":{"key":"03403000","name":"Oldenburg (Oldenburg), Stadt","type":"Kreisfreie_Stadt"},"district":{"key":"03403","name":"Oldenburg (Oldenburg), Stadt","type":"Kreisfreie_Stadt"},"federalState":{"key":"03","name":"Niedersachsen"}},{"name":"Philosophenweg","postalCode":"26121","locality":"Oldenburg","municipality":{"key":"03403000","name":"Oldenburg (Oldenburg), Stadt","type":"Kreisfreie_Stadt"},"district":{"key":"03403","name":"Oldenburg (Oldenburg), Stadt","type":"Kreisfreie_Stadt"},"federalState":{"key":"03","name":"Niedersachsen"}},{"name":"Piepersweg","postalCode":"27798","locality":"Hude (Oldenburg)","municipality":{"key":"03458010","name":"Hude (Oldb)","type":"Kreisangehörige_Gemeinde"},"district":{"key":"03458","name":"Oldenburg","type":"Landkreis"},"federalState":{"key":"03","name":"Niedersachsen"}},{"name":"Pillauer Weg","postalCode":"26127","locality":"Oldenburg","municipality":{"key":"03403000","name":"Oldenburg (Oldenburg), Stadt","type":"Kreisfreie_Stadt"},"district":{"key":"03403","name":"Oldenburg (Oldenburg), Stadt","type":"Kreisfreie_Stadt"},"federalState":{"key":"03","name":"Niedersachsen"}},{"name":"Pingel Anton","postalCode":"49699","locality":"Lindern (Oldenburg)","municipality":{"key":"03453010","name":"Lindern (Oldenburg)","type":"Kreisangehörige_Gemeinde"},"district":{"key":"03453","name":"Cloppenburg","type":"Landkreis"},"federalState":{"key":"03","name":"Niedersachsen"}},{"name":"Pionierweg","postalCode":"26129","locality":"Oldenburg","municipality":{"key":"03403000","name":"Oldenburg (Oldenburg), Stadt","type":"Kreisfreie_Stadt"},"district":{"key":"03403","name":"Oldenburg (Oldenburg), Stadt","type":"Kreisfreie_Stadt"},"federalState":{"key":"03","name":"Niedersachsen"}},{"name":"Pirolweg","postalCode":"26127","locality":"Oldenburg","municipality":{"key":"03403000","name":"Oldenburg (Oldenburg), Stadt","type":"Kreisfreie_Stadt"},"district":{"key":"03403","name":"Oldenburg (Oldenburg), Stadt","type":"Kreisfreie_Stadt"},"federalState":{"key":"03","name":"Niedersachsen"}},{"name":"Pirolweg","postalCode":"26131","locality":"Oldenburg","municipality":{"key":"03403000","name":"Oldenburg (Oldenburg), Stadt","type":"Kreisfreie_Stadt"},"district":{"key":"03403","name":"Oldenburg (Oldenburg), Stadt","type":"Kreisfreie_Stadt"},"federalState":{"key":"03","name":"Niedersachsen"}},{"name":"Pirschweg","postalCode":"26133","locality":"Oldenburg","municipality":{"key":"03403000","name":"Oldenburg (Oldenburg), Stadt","type":"Kreisfreie_Stadt"},"district":{"key":"03403","name":"Oldenburg (Oldenburg), Stadt","type":"Kreisfreie_Stadt"},"federalState":{"key":"03","name":"Niedersachsen"}},{"name":"Plaggenhau","postalCode":"26135","locality":"Oldenburg","municipality":{"key":"03403000","name":"Oldenburg (Oldenburg), Stadt","type":"Kreisfreie_Stadt"},"district":{"key":"03403","name":"Oldenburg (Oldenburg), Stadt","type":"Kreisfreie_Stadt"},"federalState":{"key":"03","name":"Niedersachsen"}},{"name":"Planckstr.","postalCode":"26133","locality":"Oldenburg","municipality":{"key":"03403000","name":"Oldenburg (Oldenburg), Stadt","type":"Kreisfreie_Stadt"},"district":{"key":"03403","name":"Oldenburg (Oldenburg), Stadt","type":"Kreisfreie_Stadt"},"federalState":{"key":"03","name":"Niedersachsen"}},{"name":"Platanenallee","postalCode":"23758","locality":"Oldenburg in Holstein","municipality":{"key":"01055033","name":"Oldenburg in Holstein, Stadt","type":"Stadt"},"district":{"key":"01055","name":"Ostholstein","type":"Kreis"},"federalState":{"key":"01","name":"Schleswig-Holstein"}},{"name":"Platanenhof","postalCode":"23758","locality":"Oldenburg in Holstein","municipality":{"key":"01055033","name":"Oldenburg in Holstein, Stadt","type":"Stadt"},"district":{"key":"01055","name":"Ostholstein","type":"Kreis"},"federalState":{"key":"01","name":"Schleswig-Holstein"}},{"name":"Plauk","postalCode":"49692","locality":"Cappeln (Oldenburg)","municipality":{"key":"03453003","name":"Cappeln (Oldenburg)","type":"Kreisangehörige_Gemeinde"},"district":{"key":"03453","name":"Cloppenburg","type":"Landkreis"},"federalState":{"key":"03","name":"Niedersachsen"}},{"name":"Poeler Ring","postalCode":"26131","locality":"Oldenburg","municipality":{"key":"03403000","name":"Oldenburg (Oldenburg), Stadt","type":"Kreisfreie_Stadt"},"district":{"key":"03403","name":"Oldenburg (Oldenburg), Stadt","type":"Kreisfreie_Stadt"},"federalState":{"key":"03","name":"Niedersachsen"}},{"name":"Pohlweg","postalCode":"27798","locality":"Hude (Oldenburg)","municipality":{"key":"03458010","name":"Hude (Oldb)","type":"Kreisangehörige_Gemeinde"},"district":{"key":"03458","name":"Oldenburg","type":"Landkreis"},"federalState":{"key":"03","name":"Niedersachsen"}},{"name":"Quakenbrücker Str.","postalCode":"49632","locality":"Essen (Oldenburg)","municipality":{"key":"03453006","name":"Essen (Oldenburg)","type":"Kreisangehörige_Gemeinde"},"district":{"key":"03453","name":"Cloppenburg","type":"Landkreis"},"federalState":{"key":"03","name":"Niedersachsen"}},{"name":"Quellenweg","postalCode":"26129","locality":"Oldenburg","municipality":{"key":"03403000","name":"Oldenburg (Oldenburg), Stadt","type":"Kreisfreie_Stadt"},"district":{"key":"03403","name":"Oldenburg (Oldenburg), Stadt","type":"Kreisfreie_Stadt"},"federalState":{"key":"03","name":"Niedersachsen"}},{"name":"Quendelstr.","postalCode":"26127","locality":"Oldenburg","municipality":{"key":"03403000","name":"Oldenburg (Oldenburg), Stadt","type":"Kreisfreie_Stadt"},"district":{"key":"03403","name":"Oldenburg (Oldenburg), Stadt","type":"Kreisfreie_Stadt"},"federalState":{"key":"03","name":"Niedersachsen"}},{"name":"Querweg","postalCode":"26127","locality":"Oldenburg","municipality":{"key":"03403000","name":"Oldenburg (Oldenburg), Stadt","type":"Kreisfreie_Stadt"},"district":{"key":"03403","name":"Oldenburg (Oldenburg), Stadt","type":"Kreisfreie_Stadt"},"federalState":{"key":"03","name":"Niedersachsen"}},{"name":"Rhododendronweg","postalCode":"27243","locality":"Kirchseelte","municipality":{"key":"03458011","name":"Kirchseelte","type":"Kreisangehörige_Gemeinde"},"district":{"key":"03458","name":"Oldenburg","type":"Landkreis"},"federalState":{"key":"03","name":"Niedersachsen"}},{"name":"Rotdornweg","postalCode":"27243","locality":"Kirchseelte","municipality":{"key":"03458011","name":"Kirchseelte","type":"Kreisangehörige_Gemeinde"},"district":{"key":"03458","name":"Oldenburg","type":"Landkreis"},"federalState":{"key":"03","name":"Niedersachsen"}},{"name":"Roteichenweg","postalCode":"27243","locality":"Kirchseelte","municipality":{"key":"03458011","name":"Kirchseelte","type":"Kreisangehörige_Gemeinde"},"district":{"key":"03458","name":"Oldenburg","type":"Landkreis"},"federalState":{"key":"03","name":"Niedersachsen"}},{"name":"Saarstr.","postalCode":"26121","locality":"Oldenburg","municipality":{"key":"03403000","name":"Oldenburg (Oldenburg), Stadt","type":"Kreisfreie_Stadt"},"district":{"key":"03403","name":"Oldenburg (Oldenburg), Stadt","type":"Kreisfreie_Stadt"},"federalState":{"key":"03","name":"Niedersachsen"}},{"name":"Sachsenstr.","postalCode":"26121","locality":"Oldenburg","municipality":{"key":"03403000","name":"Oldenburg (Oldenburg), Stadt","type":"Kreisfreie_Stadt"},"district":{"key":"03403","name":"Oldenburg (Oldenburg), Stadt","type":"Kreisfreie_Stadt"},"federalState":{"key":"03","name":"Niedersachsen"}},{"name":"Sackhofsweg","postalCode":"26127","locality":"Oldenburg","municipality":{"key":"03403000","name":"Oldenburg (Oldenburg), Stadt","type":"Kreisfreie_Stadt"},"district":{"key":"03403","name":"Oldenburg (Oldenburg), Stadt","type":"Kreisfreie_Stadt"},"federalState":{"key":"03","name":"Niedersachsen"}},{"name":"Sagersweg","postalCode":"26131","locality":"Oldenburg","municipality":{"key":"03403000","name":"Oldenburg (Oldenburg), Stadt","type":"Kreisfreie_Stadt"},"district":{"key":"03403","name":"Oldenburg (Oldenburg), Stadt","type":"Kreisfreie_Stadt"},"federalState":{"key":"03","name":"Niedersachsen"}},{"name":"Salbeistr.","postalCode":"26129","locality":"Oldenburg","municipality":{"key":"03403000","name":"Oldenburg (Oldenburg), Stadt","type":"Kreisfreie_Stadt"},"district":{"key":"03403","name":"Oldenburg (Oldenburg), Stadt","type":"Kreisfreie_Stadt"},"federalState":{"key":"03","name":"Niedersachsen"}},{"name":"Sandberg","postalCode":"26123","locality":"Oldenburg","municipality":{"key":"03403000","name":"Oldenburg (Oldenburg), Stadt","type":"Kreisfreie_Stadt"},"district":{"key":"03403","name":"Oldenburg (Oldenburg), Stadt","type":"Kreisfreie_Stadt"},"federalState":{"key":"03","name":"Niedersachsen"}},{"name":"Sanddornweg","postalCode":"23758","locality":"Oldenburg in Holstein","municipality":{"key":"01055033","name":"Oldenburg in Holstein, Stadt","type":"Stadt"},"district":{"key":"01055","name":"Ostholstein","type":"Kreis"},"federalState":{"key":"01","name":"Schleswig-Holstein"}},{"name":"Sanddornweg","postalCode":"26135","locality":"Oldenburg","municipality":{"key":"03403000","name":"Oldenburg (Oldenburg), Stadt","type":"Kreisfreie_Stadt"},"district":{"key":"03403","name":"Oldenburg (Oldenburg), Stadt","type":"Kreisfreie_Stadt"},"federalState":{"key":"03","name":"Niedersachsen"}},{"name":"Sandersweg","postalCode":"27798","locality":"Hude (Oldenburg)","municipality":{"key":"03458010","name":"Hude (Oldb)","type":"Kreisangehörige_Gemeinde"},"district":{"key":"03458","name":"Oldenburg","type":"Landkreis"},"federalState":{"key":"03","name":"Niedersachsen"}},{"name":"Sandfurter Weg","postalCode":"26131","locality":"Oldenburg","municipality":{"key":"03403000","name":"Oldenburg (Oldenburg), Stadt","type":"Kreisfreie_Stadt"},"district":{"key":"03403","name":"Oldenburg (Oldenburg), Stadt","type":"Kreisfreie_Stadt"},"federalState":{"key":"03","name":"Niedersachsen"}},{"name":"Sandhauk","postalCode":"49699","locality":"Lindern (Oldenburg)","municipality":{"key":"03453010","name":"Lindern (Oldenburg)","type":"Kreisangehörige_Gemeinde"},"district":{"key":"03453","name":"Cloppenburg","type":"Landkreis"},"federalState":{"key":"03","name":"Niedersachsen"}},{"name":"Sandkamp","postalCode":"26133","locality":"Oldenburg","municipality":{"key":"03403000","name":"Oldenburg (Oldenburg), Stadt","type":"Kreisfreie_Stadt"},"district":{"key":"03403","name":"Oldenburg (Oldenburg), Stadt","type":"Kreisfreie_Stadt"},"federalState":{"key":"03","name":"Niedersachsen"}},{"name":"Sandkruger Str.","postalCode":"26133","locality":"Oldenburg","municipality":{"key":"03403000","name":"Oldenburg (Oldenburg), Stadt","type":"Kreisfreie_Stadt"},"district":{"key":"03403","name":"Oldenburg (Oldenburg), Stadt","type":"Kreisfreie_Stadt"},"federalState":{"key":"03","name":"Niedersachsen"}},{"name":"Sandloher Str.","postalCode":"49632","locality":"Essen (Oldenburg)","municipality":{"key":"03453006","name":"Essen (Oldenburg)","type":"Kreisangehörige_Gemeinde"},"district":{"key":"03453","name":"Cloppenburg","type":"Landkreis"},"federalState":{"key":"03","name":"Niedersachsen"}},{"name":"Sandstr.","postalCode":"26123","locality":"Oldenburg","municipality":{"key":"03403000","name":"Oldenburg (Oldenburg), Stadt","type":"Kreisfreie_Stadt"},"district":{"key":"03403","name":"Oldenburg (Oldenburg), Stadt","type":"Kreisfreie_Stadt"},"federalState":{"key":"03","name":"Niedersachsen"}},{"name":"Sandweg","postalCode":"26135","locality":"Oldenburg","municipality":{"key":"03403000","name":"Oldenburg (Oldenburg), Stadt","type":"Kreisfreie_Stadt"},"district":{"key":"03403","name":"Oldenburg (Oldenburg), Stadt","type":"Kreisfreie_Stadt"},"federalState":{"key":"03","name":"Niedersachsen"}},{"name":"Sandweg","postalCode":"27798","locality":"Hude (Oldenburg)","municipality":{"key":"03458010","name":"Hude (Oldb)","type":"Kreisangehörige_Gemeinde"},"district":{"key":"03458","name":"Oldenburg","type":"Landkreis"},"federalState":{"key":"03","name":"Niedersachsen"}},{"name":"Sankt-Peter-Str.","postalCode":"27798","locality":"Hude (Oldenburg)","municipality":{"key":"03458010","name":"Hude (Oldb)","type":"Kreisangehörige_Gemeinde"},"district":{"key":"03458","name":"Oldenburg","type":"Landkreis"},"federalState":{"key":"03","name":"Niedersachsen"}},{"name":"Schäferstr.","postalCode":"26123","locality":"Oldenburg","municipality":{"key":"03403000","name":"Oldenburg (Oldenburg), Stadt","type":"Kreisfreie_Stadt"},"district":{"key":"03403","name":"Oldenburg (Oldenburg), Stadt","type":"Kreisfreie_Stadt"},"federalState":{"key":"03","name":"Niedersachsen"}},{"name":"Schafgarbenweg","postalCode":"26135","locality":"Oldenburg","municipality":{"key":"03403000","name":"Oldenburg (Oldenburg), Stadt","type":"Kreisfreie_Stadt"},"district":{"key":"03403","name":"Oldenburg (Oldenburg), Stadt","type":"Kreisfreie_Stadt"},"federalState":{"key":"03","name":"Niedersachsen"}},{"name":"Schafjückenweg","postalCode":"26125","locality":"Oldenburg","municipality":{"key":"03403000","name":"Oldenburg (Oldenburg), Stadt","type":"Kreisfreie_Stadt"},"district":{"key":"03403","name":"Oldenburg (Oldenburg), Stadt","type":"Kreisfreie_Stadt"},"federalState":{"key":"03","name":"Niedersachsen"}},{"name":"Schaftrift","postalCode":"27798","locality":"Hude (Oldenburg)","municipality":{"key":"03458010","name":"Hude (Oldb)","type":"Kreisangehörige_Gemeinde"},"district":{"key":"03458","name":"Oldenburg","type":"Landkreis"},"federalState":{"key":"03","name":"Niedersachsen"}},{"name":"Schagenweg","postalCode":"26127","locality":"Oldenburg","municipality":{"key":"03403000","name":"Oldenburg (Oldenburg), Stadt","type":"Kreisfreie_Stadt"},"district":{"key":"03403","name":"Oldenburg (Oldenburg), Stadt","type":"Kreisfreie_Stadt"},"federalState":{"key":"03","name":"Niedersachsen"}},{"name":"Schäpersweg","postalCode":"26125","locality":"Oldenburg","municipality":{"key":"03403000","name":"Oldenburg (Oldenburg), Stadt","type":"Kreisfreie_Stadt"},"district":{"key":"03403","name":"Oldenburg (Oldenburg), Stadt","type":"Kreisfreie_Stadt"},"federalState":{"key":"03","name":"Niedersachsen"}},{"name":"Scharnhorststr.","postalCode":"26131","locality":"Oldenburg","municipality":{"key":"03403000","name":"Oldenburg (Oldenburg), Stadt","type":"Kreisfreie_Stadt"},"district":{"key":"03403","name":"Oldenburg (Oldenburg), Stadt","type":"Kreisfreie_Stadt"},"federalState":{"key":"03","name":"Niedersachsen"}},{"name":"Schauenburger Platz","postalCode":"23758","locality":"Oldenburg in Holstein","municipality":{"key":"01055033","name":"Oldenburg in Holstein, Stadt","type":"Stadt"},"district":{"key":"01055","name":"Ostholstein","type":"Kreis"},"federalState":{"key":"01","name":"Schleswig-Holstein"}},{"name":"Schauenburger Str.","postalCode":"23758","locality":"Oldenburg in Holstein","municipality":{"key":"01055033","name":"Oldenburg in Holstein, Stadt","type":"Stadt"},"district":{"key":"01055","name":"Ostholstein","type":"Kreis"},"federalState":{"key":"01","name":"Schleswig-Holstein"}},{"name":"Schaumkrautweg","postalCode":"26135","locality":"Oldenburg","municipality":{"key":"03403000","name":"Oldenburg (Oldenburg), Stadt","type":"Kreisfreie_Stadt"},"district":{"key":"03403","name":"Oldenburg (Oldenburg), Stadt","type":"Kreisfreie_Stadt"},"federalState":{"key":"03","name":"Niedersachsen"}},{"name":"Scheibenweg","postalCode":"26135","locality":"Oldenburg","municipality":{"key":"03403000","name":"Oldenburg (Oldenburg), Stadt","type":"Kreisfreie_Stadt"},"district":{"key":"03403","name":"Oldenburg (Oldenburg), Stadt","type":"Kreisfreie_Stadt"},"federalState":{"key":"03","name":"Niedersachsen"}},{"name":"Scheideweg","postalCode":"26121","locality":"Oldenburg","municipality":{"key":"03403000","name":"Oldenburg (Oldenburg), Stadt","type":"Kreisfreie_Stadt"},"district":{"key":"03403","name":"Oldenburg (Oldenburg), Stadt","type":"Kreisfreie_Stadt"},"federalState":{"key":"03","name":"Niedersachsen"}},{"name":"Scheideweg","postalCode":"26127","locality":"Oldenburg","municipality":{"key":"03403000","name":"Oldenburg (Oldenburg), Stadt","type":"Kreisfreie_Stadt"},"district":{"key":"03403","name":"Oldenburg (Oldenburg), Stadt","type":"Kreisfreie_Stadt"},"federalState":{"key":"03","name":"Niedersachsen"}},{"name":"Schellenberg","postalCode":"26133","locality":"Oldenburg","municipality":{"key":"03403000","name":"Oldenburg (Oldenburg), Stadt","type":"Kreisfreie_Stadt"},"district":{"key":"03403","name":"Oldenburg (Oldenburg), Stadt","type":"Kreisfreie_Stadt"},"federalState":{"key":"03","name":"Niedersachsen"}},{"name":"Schellsteder Weg","postalCode":"26125","locality":"Oldenburg","municipality":{"key":"03403000","name":"Oldenburg (Oldenburg), Stadt","type":"Kreisfreie_Stadt"},"district":{"key":"03403","name":"Oldenburg (Oldenburg), Stadt","type":"Kreisfreie_Stadt"},"federalState":{"key":"03","name":"Niedersachsen"}},{"name":"Schiebenkamp","postalCode":"26135","locality":"Oldenburg","municipality":{"key":"03403000","name":"Oldenburg (Oldenburg), Stadt","type":"Kreisfreie_Stadt"},"district":{"key":"03403","name":"Oldenburg (Oldenburg), Stadt","type":"Kreisfreie_Stadt"},"federalState":{"key":"03","name":"Niedersachsen"}},{"name":"Schierlingsfeld","postalCode":"49692","locality":"Cappeln (Oldenburg)","municipality":{"key":"03453003","name":"Cappeln (Oldenburg)","type":"Kreisangehörige_Gemeinde"},"district":{"key":"03453","name":"Cloppenburg","type":"Landkreis"},"federalState":{"key":"03","name":"Niedersachsen"}},{"name":"Schifferstr.","postalCode":"26122","locality":"Oldenburg","municipality":{"key":"03403000","name":"Oldenburg (Oldenburg), Stadt","type":"Kreisfreie_Stadt"},"district":{"key":"03403","name":"Oldenburg (Oldenburg), Stadt","type":"Kreisfreie_Stadt"},"federalState":{"key":"03","name":"Niedersachsen"}},{"name":"Schilfweg","postalCode":"49692","locality":"Cappeln (Oldenburg)","municipality":{"key":"03453003","name":"Cappeln (Oldenburg)","type":"Kreisangehörige_Gemeinde"},"district":{"key":"03453","name":"Cloppenburg","type":"Landkreis"},"federalState":{"key":"03","name":"Niedersachsen"}},{"name":"Schillerstr.","postalCode":"26122","locality":"Oldenburg","municipality":{"key":"03403000","name":"Oldenburg (Oldenburg), Stadt","type":"Kreisfreie_Stadt"},"district":{"key":"03403","name":"Oldenburg (Oldenburg), Stadt","type":"Kreisfreie_Stadt"},"federalState":{"key":"03","name":"Niedersachsen"}},{"name":"Schillerstr.","postalCode":"27798","locality":"Hude (Oldenburg)","municipality":{"key":"03458010","name":"Hude (Oldb)","type":"Kreisangehörige_Gemeinde"},"district":{"key":"03458","name":"Oldenburg","type":"Landkreis"},"federalState":{"key":"03","name":"Niedersachsen"}},{"name":"Schillerstr.","postalCode":"49632","locality":"Essen (Oldenburg)","municipality":{"key":"03453006","name":"Essen (Oldenburg)","type":"Kreisangehörige_Gemeinde"},"district":{"key":"03453","name":"Cloppenburg","type":"Landkreis"},"federalState":{"key":"03","name":"Niedersachsen"}},{"name":"Schillerstr.","postalCode":"49692","locality":"Cappeln (Oldenburg)","municipality":{"key":"03453003","name":"Cappeln (Oldenburg)","type":"Kreisangehörige_Gemeinde"},"district":{"key":"03453","name":"Cloppenburg","type":"Landkreis"},"federalState":{"key":"03","name":"Niedersachsen"}},{"name":"Schimmelweg","postalCode":"26125","locality":"Oldenburg","municipality":{"key":"03403000","name":"Oldenburg (Oldenburg), Stadt","type":"Kreisfreie_Stadt"},"district":{"key":"03403","name":"Oldenburg (Oldenburg), Stadt","type":"Kreisfreie_Stadt"},"federalState":{"key":"03","name":"Niedersachsen"}},{"name":"Schinkelstr.","postalCode":"26127","locality":"Oldenburg","municipality":{"key":"03403000","name":"Oldenburg (Oldenburg), Stadt","type":"Kreisfreie_Stadt"},"district":{"key":"03403","name":"Oldenburg (Oldenburg), Stadt","type":"Kreisfreie_Stadt"},"federalState":{"key":"03","name":"Niedersachsen"}},{"name":"Schlachthofstr.","postalCode":"26135","locality":"Oldenburg","municipality":{"key":"03403000","name":"Oldenburg (Oldenburg), Stadt","type":"Kreisfreie_Stadt"},"district":{"key":"03403","name":"Oldenburg (Oldenburg), Stadt","type":"Kreisfreie_Stadt"},"federalState":{"key":"03","name":"Niedersachsen"}},{"name":"Schlagbaumweg","postalCode":"26131","locality":"Oldenburg","municipality":{"key":"03403000","name":"Oldenburg (Oldenburg), Stadt","type":"Kreisfreie_Stadt"},"district":{"key":"03403","name":"Oldenburg (Oldenburg), Stadt","type":"Kreisfreie_Stadt"},"federalState":{"key":"03","name":"Niedersachsen"}},{"name":"Schlehenstr.","postalCode":"49692","locality":"Cappeln (Oldenburg)","municipality":{"key":"03453003","name":"Cappeln (Oldenburg)","type":"Kreisangehörige_Gemeinde"},"district":{"key":"03453","name":"Cloppenburg","type":"Landkreis"},"federalState":{"key":"03","name":"Niedersachsen"}},{"name":"Schlehenweg","postalCode":"23758","locality":"Oldenburg in Holstein","municipality":{"key":"01055033","name":"Oldenburg in Holstein, Stadt","type":"Stadt"},"district":{"key":"01055","name":"Ostholstein","type":"Kreis"},"federalState":{"key":"01","name":"Schleswig-Holstein"}},{"name":"Schlehenweg","postalCode":"26131","locality":"Oldenburg","municipality":{"key":"03403000","name":"Oldenburg (Oldenburg), Stadt","type":"Kreisfreie_Stadt"},"district":{"key":"03403","name":"Oldenburg (Oldenburg), Stadt","type":"Kreisfreie_Stadt"},"federalState":{"key":"03","name":"Niedersachsen"}},{"name":"Schleistr.","postalCode":"26125","locality":"Oldenburg","municipality":{"key":"03403000","name":"Oldenburg (Oldenburg), Stadt","type":"Kreisfreie_Stadt"},"district":{"key":"03403","name":"Oldenburg (Oldenburg), Stadt","type":"Kreisfreie_Stadt"},"federalState":{"key":"03","name":"Niedersachsen"}},{"name":"Schlesier Str.","postalCode":"27798","locality":"Hude (Oldenburg)","municipality":{"key":"03458010","name":"Hude (Oldb)","type":"Kreisangehörige_Gemeinde"},"district":{"key":"03458","name":"Oldenburg","type":"Landkreis"},"federalState":{"key":"03","name":"Niedersachsen"}},{"name":"Taastruper Str.","postalCode":"26123","locality":"Oldenburg","municipality":{"key":"03403000","name":"Oldenburg (Oldenburg), Stadt","type":"Kreisfreie_Stadt"},"district":{"key":"03403","name":"Oldenburg (Oldenburg), Stadt","type":"Kreisfreie_Stadt"},"federalState":{"key":"03","name":"Niedersachsen"}},{"name":"Tami-Oelfken-Str.","postalCode":"26125","locality":"Oldenburg","municipality":{"key":"03403000","name":"Oldenburg (Oldenburg), Stadt","type":"Kreisfreie_Stadt"},"district":{"key":"03403","name":"Oldenburg (Oldenburg), Stadt","type":"Kreisfreie_Stadt"},"federalState":{"key":"03","name":"Niedersachsen"}},{"name":"Tangastr.","postalCode":"26121","locality":"Oldenburg","municipality":{"key":"03403000","name":"Oldenburg (Oldenburg), Stadt","type":"Kreisfreie_Stadt"},"district":{"key":"03403","name":"Oldenburg (Oldenburg), Stadt","type":"Kreisfreie_Stadt"},"federalState":{"key":"03","name":"Niedersachsen"}},{"name":"Tannenbergstr.","postalCode":"26127","locality":"Oldenburg","municipality":{"key":"03403000","name":"Oldenburg (Oldenburg), Stadt","type":"Kreisfreie_Stadt"},"district":{"key":"03403","name":"Oldenburg (Oldenburg), Stadt","type":"Kreisfreie_Stadt"},"federalState":{"key":"03","name":"Niedersachsen"}},{"name":"Tannenkampstr.","postalCode":"26131","locality":"Oldenburg","municipality":{"key":"03403000","name":"Oldenburg (Oldenburg), Stadt","type":"Kreisfreie_Stadt"},"district":{"key":"03403","name":"Oldenburg (Oldenburg), Stadt","type":"Kreisfreie_Stadt"},"federalState":{"key":"03","name":"Niedersachsen"}},{"name":"Tannenstr.","postalCode":"26122","locality":"Oldenburg","municipality":{"key":"03403000","name":"Oldenburg (Oldenburg), Stadt","type":"Kreisfreie_Stadt"},"district":{"key":"03403","name":"Oldenburg (Oldenburg), Stadt","type":"Kreisfreie_Stadt"},"federalState":{"key":"03","name":"Niedersachsen"}},{"name":"Tannenstr.","postalCode":"49699","locality":"Lindern (Oldenburg)","municipality":{"key":"03453010","name":"Lindern (Oldenburg)","type":"Kreisangehörige_Gemeinde"},"district":{"key":"03453","name":"Cloppenburg","type":"Landkreis"},"federalState":{"key":"03","name":"Niedersachsen"}},{"name":"Tannenwald","postalCode":"49699","locality":"Lindern (Oldenburg)","municipality":{"key":"03453010","name":"Lindern (Oldenburg)","type":"Kreisangehörige_Gemeinde"},"district":{"key":"03453","name":"Cloppenburg","type":"Landkreis"},"federalState":{"key":"03","name":"Niedersachsen"}},{"name":"Tannenweg","postalCode":"49632","locality":"Essen (Oldenburg)","municipality":{"key":"03453006","name":"Essen (Oldenburg)","type":"Kreisangehörige_Gemeinde"},"district":{"key":"03453","name":"Cloppenburg","type":"Landkreis"},"federalState":{"key":"03","name":"Niedersachsen"}},{"name":"Tappenbeckstr.","postalCode":"26122","locality":"Oldenburg","municipality":{"key":"03403000","name":"Oldenburg (Oldenburg), Stadt","type":"Kreisfreie_Stadt"},"district":{"key":"03403","name":"Oldenburg (Oldenburg), Stadt","type":"Kreisfreie_Stadt"},"federalState":{"key":"03","name":"Niedersachsen"}},{"name":"Taubenstr.","postalCode":"26122","locality":"Oldenburg","municipality":{"key":"03403000","name":"Oldenburg (Oldenburg), Stadt","type":"Kreisfreie_Stadt"},"district":{"key":"03403","name":"Oldenburg (Oldenburg), Stadt","type":"Kreisfreie_Stadt"},"federalState":{"key":"03","name":"Niedersachsen"}},{"name":"Taubenstr.","postalCode":"27798","locality":"Hude (Oldenburg)","municipality":{"key":"03458010","name":"Hude (Oldb)","type":"Kreisangehörige_Gemeinde"},"district":{"key":"03458","name":"Oldenburg","type":"Landkreis"},"federalState":{"key":"03","name":"Niedersachsen"}},{"name":"Taubenstr.","postalCode":"49632","locality":"Essen (Oldenburg)","municipality":{"key":"03453006","name":"Essen (Oldenburg)","type":"Kreisangehörige_Gemeinde"},"district":{"key":"03453","name":"Cloppenburg","type":"Landkreis"},"federalState":{"key":"03","name":"Niedersachsen"}},{"name":"Taubenstr.","postalCode":"49692","locality":"Cappeln (Oldenburg)","municipality":{"key":"03453003","name":"Cappeln (Oldenburg)","type":"Kreisangehörige_Gemeinde"},"district":{"key":"03453","name":"Cloppenburg","type":"Landkreis"},"federalState":{"key":"03","name":"Niedersachsen"}},{"name":"Taun Piggenbarg","postalCode":"49699","locality":"Lindern (Oldenburg)","municipality":{"key":"03453010","name":"Lindern (Oldenburg)","type":"Kreisangehörige_Gemeinde"},"district":{"key":"03453","name":"Cloppenburg","type":"Landkreis"},"federalState":{"key":"03","name":"Niedersachsen"}},{"name":"Tautstr.","postalCode":"26127","locality":"Oldenburg","municipality":{"key":"03403000","name":"Oldenburg (Oldenburg), Stadt","type":"Kreisfreie_Stadt"},"district":{"key":"03403","name":"Oldenburg (Oldenburg), Stadt","type":"Kreisfreie_Stadt"},"federalState":{"key":"03","name":"Niedersachsen"}},{"name":"Teebkengang","postalCode":"26122","locality":"Oldenburg","municipality":{"key":"03403000","name":"Oldenburg (Oldenburg), Stadt","type":"Kreisfreie_Stadt"},"district":{"key":"03403","name":"Oldenburg (Oldenburg), Stadt","type":"Kreisfreie_Stadt"},"federalState":{"key":"03","name":"Niedersachsen"}},{"name":"Tegelkamp","postalCode":"26131","locality":"Oldenburg","municipality":{"key":"03403000","name":"Oldenburg (Oldenburg), Stadt","type":"Kreisfreie_Stadt"},"district":{"key":"03403","name":"Oldenburg (Oldenburg), Stadt","type":"Kreisfreie_Stadt"},"federalState":{"key":"03","name":"Niedersachsen"}},{"name":"Teichhuhnweg","postalCode":"26125","locality":"Oldenburg","municipality":{"key":"03403000","name":"Oldenburg (Oldenburg), Stadt","type":"Kreisfreie_Stadt"},"district":{"key":"03403","name":"Oldenburg (Oldenburg), Stadt","type":"Kreisfreie_Stadt"},"federalState":{"key":"03","name":"Niedersachsen"}},{"name":"Teichstr.","postalCode":"26122","locality":"Oldenburg","municipality":{"key":"03403000","name":"Oldenburg (Oldenburg), Stadt","type":"Kreisfreie_Stadt"},"district":{"key":"03403","name":"Oldenburg (Oldenburg), Stadt","type":"Kreisfreie_Stadt"},"federalState":{"key":"03","name":"Niedersachsen"}},{"name":"Teichweg","postalCode":"49692","locality":"Cappeln (Oldenburg)","municipality":{"key":"03453003","name":"Cappeln (Oldenburg)","type":"Kreisangehörige_Gemeinde"},"district":{"key":"03453","name":"Cloppenburg","type":"Landkreis"},"federalState":{"key":"03","name":"Niedersachsen"}},{"name":"Tempel","postalCode":"27798","locality":"Hude (Oldenburg)","municipality":{"key":"03458010","name":"Hude (Oldb)","type":"Kreisangehörige_Gemeinde"},"district":{"key":"03458","name":"Oldenburg","type":"Landkreis"},"federalState":{"key":"03","name":"Niedersachsen"}},{"name":"Tenstedter Str.","postalCode":"49692","locality":"Cappeln (Oldenburg)","municipality":{"key":"03453003","name":"Cappeln (Oldenburg)","type":"Kreisangehörige_Gemeinde"},"district":{"key":"03453","name":"Cloppenburg","type":"Landkreis"},"federalState":{"key":"03","name":"Niedersachsen"}},{"name":"Thalia-Passage","postalCode":"26122","locality":"Oldenburg","municipality":{"key":"03403000","name":"Oldenburg (Oldenburg), Stadt","type":"Kreisfreie_Stadt"},"district":{"key":"03403","name":"Oldenburg (Oldenburg), Stadt","type":"Kreisfreie_Stadt"},"federalState":{"key":"03","name":"Niedersachsen"}},{"name":"Theaterwall","postalCode":"26122","locality":"Oldenburg","municipality":{"key":"03403000","name":"Oldenburg (Oldenburg), Stadt","type":"Kreisfreie_Stadt"},"district":{"key":"03403","name":"Oldenburg (Oldenburg), Stadt","type":"Kreisfreie_Stadt"},"federalState":{"key":"03","name":"Niedersachsen"}},{"name":"Theodor-Dirks-Weg","postalCode":"26135","locality":"Oldenburg","municipality":{"key":"03403000","name":"Oldenburg (Oldenburg), Stadt","type":"Kreisfreie_Stadt"},"district":{"key":"03403","name":"Oldenburg (Oldenburg), Stadt","type":"Kreisfreie_Stadt"},"federalState":{"key":"03","name":"Niedersachsen"}},{"name":"Theodor-Fontane-Str.","postalCode":"26131","locality":"Oldenburg","municipality":{"key":"03403000","name":"Oldenburg (Oldenburg), Stadt","type":"Kreisfreie_Stadt"},"district":{"key":"03403","name":"Oldenburg (Oldenburg), Stadt","type":"Kreisfreie_Stadt"},"federalState":{"key":"03","name":"Niedersachsen"}},{"name":"Theodor-Francksen-Str.","postalCode":"26123","locality":"Oldenburg","municipality":{"key":"03403000","name":"Oldenburg (Oldenburg), Stadt","type":"Kreisfreie_Stadt"},"district":{"key":"03403","name":"Oldenburg (Oldenburg), Stadt","type":"Kreisfreie_Stadt"},"federalState":{"key":"03","name":"Niedersachsen"}},{"name":"Theodor-Heuss-Str.","postalCode":"26129","locality":"Oldenburg","municipality":{"key":"03403000","name":"Oldenburg (Oldenburg), Stadt","type":"Kreisfreie_Stadt"},"district":{"key":"03403","name":"Oldenburg (Oldenburg), Stadt","type":"Kreisfreie_Stadt"},"federalState":{"key":"03","name":"Niedersachsen"}},{"name":"Theodor-Körner-Weg","postalCode":"26131","locality":"Oldenburg","municipality":{"key":"03403000","name":"Oldenburg (Oldenburg), Stadt","type":"Kreisfreie_Stadt"},"district":{"key":"03403","name":"Oldenburg (Oldenburg), Stadt","type":"Kreisfreie_Stadt"},"federalState":{"key":"03","name":"Niedersachsen"}},{"name":"Theodor-Pekol-Str.","postalCode":"26127","locality":"Oldenburg","municipality":{"key":"03403000","name":"Oldenburg (Oldenburg), Stadt","type":"Kreisfreie_Stadt"},"district":{"key":"03403","name":"Oldenburg (Oldenburg), Stadt","type":"Kreisfreie_Stadt"},"federalState":{"key":"03","name":"Niedersachsen"}},{"name":"Theodor-Storm-Str.","postalCode":"26131","locality":"Oldenburg","municipality":{"key":"03403000","name":"Oldenburg (Oldenburg), Stadt","type":"Kreisfreie_Stadt"},"district":{"key":"03403","name":"Oldenburg (Oldenburg), Stadt","type":"Kreisfreie_Stadt"},"federalState":{"key":"03","name":"Niedersachsen"}},{"name":"Theodor-Storm-Weg","postalCode":"27798","locality":"Hude (Oldenburg)","municipality":{"key":"03458010","name":"Hude (Oldb)","type":"Kreisangehörige_Gemeinde"},"district":{"key":"03458","name":"Oldenburg","type":"Landkreis"},"federalState":{"key":"03","name":"Niedersachsen"}},{"name":"Theodor-Wabnitz-Str.","postalCode":"26125","locality":"Oldenburg","municipality":{"key":"03403000","name":"Oldenburg (Oldenburg), Stadt","type":"Kreisfreie_Stadt"},"district":{"key":"03403","name":"Oldenburg (Oldenburg), Stadt","type":"Kreisfreie_Stadt"},"federalState":{"key":"03","name":"Niedersachsen"}},{"name":"Thingstr.","postalCode":"49632","locality":"Essen (Oldenburg)","municipality":{"key":"03453006","name":"Essen (Oldenburg)","type":"Kreisangehörige_Gemeinde"},"district":{"key":"03453","name":"Cloppenburg","type":"Landkreis"},"federalState":{"key":"03","name":"Niedersachsen"}},{"name":"Thomasburg","postalCode":"26131","locality":"Oldenburg","municipality":{"key":"03403000","name":"Oldenburg (Oldenburg), Stadt","type":"Kreisfreie_Stadt"},"district":{"key":"03403","name":"Oldenburg (Oldenburg), Stadt","type":"Kreisfreie_Stadt"},"federalState":{"key":"03","name":"Niedersachsen"}},{"name":"Thomas-Dehler-Str.","postalCode":"26131","locality":"Oldenburg","municipality":{"key":"03403000","name":"Oldenburg (Oldenburg), Stadt","type":"Kreisfreie_Stadt"},"district":{"key":"03403","name":"Oldenburg (Oldenburg), Stadt","type":"Kreisfreie_Stadt"},"federalState":{"key":"03","name":"Niedersachsen"}},{"name":"Thomas-Mann-Str.","postalCode":"26133","locality":"Oldenburg","municipality":{"key":"03403000","name":"Oldenburg (Oldenburg), Stadt","type":"Kreisfreie_Stadt"},"district":{"key":"03403","name":"Oldenburg (Oldenburg), Stadt","type":"Kreisfreie_Stadt"},"federalState":{"key":"03","name":"Niedersachsen"}},{"name":"Thormöhlen","postalCode":"26129","locality":"Oldenburg","municipality":{"key":"03403000","name":"Oldenburg (Oldenburg), Stadt","type":"Kreisfreie_Stadt"},"district":{"key":"03403","name":"Oldenburg (Oldenburg), Stadt","type":"Kreisfreie_Stadt"},"federalState":{"key":"03","name":"Niedersachsen"}},{"name":"Thorner Str.","postalCode":"26122","locality":"Oldenburg","municipality":{"key":"03403000","name":"Oldenburg (Oldenburg), Stadt","type":"Kreisfreie_Stadt"},"district":{"key":"03403","name":"Oldenburg (Oldenburg), Stadt","type":"Kreisfreie_Stadt"},"federalState":{"key":"03","name":"Niedersachsen"}},{"name":"Thorwaldsenstr.","postalCode":"26129","locality":"Oldenburg","municipality":{"key":"03403000","name":"Oldenburg (Oldenburg), Stadt","type":"Kreisfreie_Stadt"},"district":{"key":"03403","name":"Oldenburg (Oldenburg), Stadt","type":"Kreisfreie_Stadt"},"federalState":{"key":"03","name":"Niedersachsen"}},{"name":"Thymianweg","postalCode":"26135","locality":"Oldenburg","municipality":{"key":"03403000","name":"Oldenburg (Oldenburg), Stadt","type":"Kreisfreie_Stadt"},"district":{"key":"03403","name":"Oldenburg (Oldenburg), Stadt","type":"Kreisfreie_Stadt"},"federalState":{"key":"03","name":"Niedersachsen"}},{"name":"Tiemannhof","postalCode":"26123","locality":"Oldenburg","municipality":{"key":"03403000","name":"Oldenburg (Oldenburg), Stadt","type":"Kreisfreie_Stadt"},"district":{"key":"03403","name":"Oldenburg (Oldenburg), Stadt","type":"Kreisfreie_Stadt"},"federalState":{"key":"03","name":"Niedersachsen"}},{"name":"Tilsiter Str.","postalCode":"23758","locality":"Oldenburg in Holstein","municipality":{"key":"01055033","name":"Oldenburg in Holstein, Stadt","type":"Stadt"},"district":{"key":"01055","name":"Ostholstein","type":"Kreis"},"federalState":{"key":"01","name":"Schleswig-Holstein"}},{"name":"Tilsiter Str.","postalCode":"26127","locality":"Oldenburg","municipality":{"key":"03403000","name":"Oldenburg (Oldenburg), Stadt","type":"Kreisfreie_Stadt"},"district":{"key":"03403","name":"Oldenburg (Oldenburg), Stadt","type":"Kreisfreie_Stadt"},"federalState":{"key":"03","name":"Niedersachsen"}},{"name":"Tirpitzstr.","postalCode":"26122","locality":"Oldenburg","municipality":{"key":"03403000","name":"Oldenburg (Oldenburg), Stadt","type":"Kreisfreie_Stadt"},"district":{"key":"03403","name":"Oldenburg (Oldenburg), Stadt","type":"Kreisfreie_Stadt"},"federalState":{"key":"03","name":"Niedersachsen"}},{"name":"Tischbeinstr.","postalCode":"26133","locality":"Oldenburg","municipality":{"key":"03403000","name":"Oldenburg (Oldenburg), Stadt","type":"Kreisfreie_Stadt"},"district":{"key":"03403","name":"Oldenburg (Oldenburg), Stadt","type":"Kreisfreie_Stadt"},"federalState":{"key":"03","name":"Niedersachsen"}},{"name":"Tondernstr.","postalCode":"26127","locality":"Oldenburg","municipality":{"key":"03403000","name":"Oldenburg (Oldenburg), Stadt","type":"Kreisfreie_Stadt"},"district":{"key":"03403","name":"Oldenburg (Oldenburg), Stadt","type":"Kreisfreie_Stadt"},"federalState":{"key":"03","name":"Niedersachsen"}},{"name":"Tonweg","postalCode":"26129","locality":"Oldenburg","municipality":{"key":"03403000","name":"Oldenburg (Oldenburg), Stadt","type":"Kreisfreie_Stadt"},"district":{"key":"03403","name":"Oldenburg (Oldenburg), Stadt","type":"Kreisfreie_Stadt"},"federalState":{"key":"03","name":"Niedersachsen"}},{"name":"Torfweg","postalCode":"27798","locality":"Hude (Oldenburg)","municipality":{"key":"03458010","name":"Hude (Oldb)","type":"Kreisangehörige_Gemeinde"},"district":{"key":"03458","name":"Oldenburg","type":"Landkreis"},"federalState":{"key":"03","name":"Niedersachsen"}},{"name":"Uferstr.","postalCode":"26135","locality":"Oldenburg","municipality":{"key":"03403000","name":"Oldenburg (Oldenburg), Stadt","type":"Kreisfreie_Stadt"},"district":{"key":"03403","name":"Oldenburg (Oldenburg), Stadt","type":"Kreisfreie_Stadt"},"federalState":{"key":"03","name":"Niedersachsen"}},{"name":"Uhlandstr.","postalCode":"27798","locality":"Hude (Oldenburg)","municipality":{"key":"03458010","name":"Hude (Oldb)","type":"Kreisangehörige_Gemeinde"},"district":{"key":"03458","name":"Oldenburg","type":"Landkreis"},"federalState":{"key":"03","name":"Niedersachsen"}},{"name":"Uhlenweg","postalCode":"26135","locality":"Oldenburg","municipality":{"key":"03403000","name":"Oldenburg (Oldenburg), Stadt","type":"Kreisfreie_Stadt"},"district":{"key":"03403","name":"Oldenburg (Oldenburg), Stadt","type":"Kreisfreie_Stadt"},"federalState":{"key":"03","name":"Niedersachsen"}},{"name":"Uhlhornsweg","postalCode":"26129","locality":"Oldenburg","municipality":{"key":"03403000","name":"Oldenburg (Oldenburg), Stadt","type":"Kreisfreie_Stadt"},"district":{"key":"03403","name":"Oldenburg (Oldenburg), Stadt","type":"Kreisfreie_Stadt"},"federalState":{"key":"03","name":"Niedersachsen"}},{"name":"Ulmenstr.","postalCode":"26135","locality":"Oldenburg","municipality":{"key":"03403000","name":"Oldenburg (Oldenburg), Stadt","type":"Kreisfreie_Stadt"},"district":{"key":"03403","name":"Oldenburg (Oldenburg), Stadt","type":"Kreisfreie_Stadt"},"federalState":{"key":"03","name":"Niedersachsen"}},{"name":"Ulmenstr.","postalCode":"27798","locality":"Hude (Oldenburg)","municipality":{"key":"03458010","name":"Hude (Oldb)","type":"Kreisangehörige_Gemeinde"},"district":{"key":"03458","name":"Oldenburg","type":"Landkreis"},"federalState":{"key":"03","name":"Niedersachsen"}},{"name":"Ulmenstr.","postalCode":"49692","locality":"Cappeln (Oldenburg)","municipality":{"key":"03453003","name":"Cappeln (Oldenburg)","type":"Kreisangehörige_Gemeinde"},"district":{"key":"03453","name":"Cloppenburg","type":"Landkreis"},"federalState":{"key":"03","name":"Niedersachsen"}},{"name":"Ulmenweg","postalCode":"23758","locality":"Oldenburg in Holstein","municipality":{"key":"01055033","name":"Oldenburg in Holstein, Stadt","type":"Stadt"},"district":{"key":"01055","name":"Ostholstein","type":"Kreis"},"federalState":{"key":"01","name":"Schleswig-Holstein"}},{"name":"Ulrich-von-Hutten-Str.","postalCode":"26129","locality":"Oldenburg","municipality":{"key":"03403000","name":"Oldenburg (Oldenburg), Stadt","type":"Kreisfreie_Stadt"},"district":{"key":"03403","name":"Oldenburg (Oldenburg), Stadt","type":"Kreisfreie_Stadt"},"federalState":{"key":"03","name":"Niedersachsen"}},{"name":"Unter den Eichen","postalCode":"26122","locality":"Oldenburg","municipality":{"key":"03403000","name":"Oldenburg (Oldenburg), Stadt","type":"Kreisfreie_Stadt"},"district":{"key":"03403","name":"Oldenburg (Oldenburg), Stadt","type":"Kreisfreie_Stadt"},"federalState":{"key":"03","name":"Niedersachsen"}},{"name":"Unter den Eichen","postalCode":"27798","locality":"Hude (Oldenburg)","municipality":{"key":"03458010","name":"Hude (Oldb)","type":"Kreisangehörige_Gemeinde"},"district":{"key":"03458","name":"Oldenburg","type":"Landkreis"},"federalState":{"key":"03","name":"Niedersachsen"}},{"name":"Unter den Linden","postalCode":"26129","locality":"Oldenburg","municipality":{"key":"03403000","name":"Oldenburg (Oldenburg), Stadt","type":"Kreisfreie_Stadt"},"district":{"key":"03403","name":"Oldenburg (Oldenburg), Stadt","type":"Kreisfreie_Stadt"},"federalState":{"key":"03","name":"Niedersachsen"}},{"name":"Unterm Berg","postalCode":"26123","locality":"Oldenburg","municipality":{"key":"03403000","name":"Oldenburg (Oldenburg), Stadt","type":"Kreisfreie_Stadt"},"district":{"key":"03403","name":"Oldenburg (Oldenburg), Stadt","type":"Kreisfreie_Stadt"},"federalState":{"key":"03","name":"Niedersachsen"}},{"name":"Unterstr.","postalCode":"26123","locality":"Oldenburg","municipality":{"key":"03403000","name":"Oldenburg (Oldenburg), Stadt","type":"Kreisfreie_Stadt"},"district":{"key":"03403","name":"Oldenburg (Oldenburg), Stadt","type":"Kreisfreie_Stadt"},"federalState":{"key":"03","name":"Niedersachsen"}},{"name":"Up de Wührden","postalCode":"26133","locality":"Oldenburg","municipality":{"key":"03403000","name":"Oldenburg (Oldenburg), Stadt","type":"Kreisfreie_Stadt"},"district":{"key":"03403","name":"Oldenburg (Oldenburg), Stadt","type":"Kreisfreie_Stadt"},"federalState":{"key":"03","name":"Niedersachsen"}},{"name":"Up'n Brink","postalCode":"49692","locality":"Cappeln (Oldenburg)","municipality":{"key":"03453003","name":"Cappeln (Oldenburg)","type":"Kreisangehörige_Gemeinde"},"district":{"key":"03453","name":"Cloppenburg","type":"Landkreis"},"federalState":{"key":"03","name":"Niedersachsen"}},{"name":"Up'n Felde","postalCode":"49632","locality":"Essen (Oldenburg)","municipality":{"key":"03453006","name":"Essen (Oldenburg)","type":"Kreisangehörige_Gemeinde"},"district":{"key":"03453","name":"Cloppenburg","type":"Landkreis"},"federalState":{"key":"03","name":"Niedersachsen"}},{"name":"Usedomer Ring","postalCode":"26131","locality":"Oldenburg","municipality":{"key":"03403000","name":"Oldenburg (Oldenburg), Stadt","type":"Kreisfreie_Stadt"},"district":{"key":"03403","name":"Oldenburg (Oldenburg), Stadt","type":"Kreisfreie_Stadt"},"federalState":{"key":"03","name":"Niedersachsen"}},{"name":"Vahlenhorst","postalCode":"26127","locality":"Oldenburg","municipality":{"key":"03403000","name":"Oldenburg (Oldenburg), Stadt","type":"Kreisfreie_Stadt"},"district":{"key":"03403","name":"Oldenburg (Oldenburg), Stadt","type":"Kreisfreie_Stadt"},"federalState":{"key":"03","name":"Niedersachsen"}},{"name":"Vareler Str.","postalCode":"26125","locality":"Oldenburg","municipality":{"key":"03403000","name":"Oldenburg (Oldenburg), Stadt","type":"Kreisfreie_Stadt"},"district":{"key":"03403","name":"Oldenburg (Oldenburg), Stadt","type":"Kreisfreie_Stadt"},"federalState":{"key":"03","name":"Niedersachsen"}},{"name":"Varelmanns Hof","postalCode":"49692","locality":"Cappeln (Oldenburg)","municipality":{"key":"03453003","name":"Cappeln (Oldenburg)","type":"Kreisangehörige_Gemeinde"},"district":{"key":"03453","name":"Cloppenburg","type":"Landkreis"},"federalState":{"key":"03","name":"Niedersachsen"}},{"name":"Veilchenring","postalCode":"49632","locality":"Essen (Oldenburg)","municipality":{"key":"03453006","name":"Essen (Oldenburg)","type":"Kreisangehörige_Gemeinde"},"district":{"key":"03453","name":"Cloppenburg","type":"Landkreis"},"federalState":{"key":"03","name":"Niedersachsen"}},{"name":"Veilchenweg","postalCode":"26135","locality":"Oldenburg","municipality":{"key":"03403000","name":"Oldenburg (Oldenburg), Stadt","type":"Kreisfreie_Stadt"},"district":{"key":"03403","name":"Oldenburg (Oldenburg), Stadt","type":"Kreisfreie_Stadt"},"federalState":{"key":"03","name":"Niedersachsen"}},{"name":"Veilchenweg","postalCode":"27798","locality":"Hude (Oldenburg)","municipality":{"key":"03458010","name":"Hude (Oldb)","type":"Kreisangehörige_Gemeinde"},"district":{"key":"03458","name":"Oldenburg","type":"Landkreis"},"federalState":{"key":"03","name":"Niedersachsen"}},{"name":"Verdistr.","postalCode":"26129","locality":"Oldenburg","municipality":{"key":"03403000","name":"Oldenburg (Oldenburg), Stadt","type":"Kreisfreie_Stadt"},"district":{"key":"03403","name":"Oldenburg (Oldenburg), Stadt","type":"Kreisfreie_Stadt"},"federalState":{"key":"03","name":"Niedersachsen"}},{"name":"Vereinigungsstr.","postalCode":"26122","locality":"Oldenburg","municipality":{"key":"03403000","name":"Oldenburg (Oldenburg), Stadt","type":"Kreisfreie_Stadt"},"district":{"key":"03403","name":"Oldenburg (Oldenburg), Stadt","type":"Kreisfreie_Stadt"},"federalState":{"key":"03","name":"Niedersachsen"}},{"name":"Vereinsheimweg","postalCode":"26127","locality":"Oldenburg","municipality":{"key":"03403000","name":"Oldenburg (Oldenburg), Stadt","type":"Kreisfreie_Stadt"},"district":{"key":"03403","name":"Oldenburg (Oldenburg), Stadt","type":"Kreisfreie_Stadt"},"federalState":{"key":"03","name":"Niedersachsen"}},{"name":"Vestruper Str.","postalCode":"49692","locality":"Cappeln (Oldenburg)","municipality":{"key":"03453003","name":"Cappeln (Oldenburg)","type":"Kreisangehörige_Gemeinde"},"district":{"key":"03453","name":"Cloppenburg","type":"Landkreis"},"federalState":{"key":"03","name":"Niedersachsen"}},{"name":"Vicelinsgang","postalCode":"23758","locality":"Oldenburg in Holstein","municipality":{"key":"01055033","name":"Oldenburg in Holstein, Stadt","type":"Stadt"},"district":{"key":"01055","name":"Ostholstein","type":"Kreis"},"federalState":{"key":"01","name":"Schleswig-Holstein"}},{"name":"Vielstedter Kirchweg","postalCode":"27798","locality":"Hude (Oldenburg)","municipality":{"key":"03458010","name":"Hude (Oldb)","type":"Kreisangehörige_Gemeinde"},"district":{"key":"03458","name":"Oldenburg","type":"Landkreis"},"federalState":{"key":"03","name":"Niedersachsen"}},{"name":"Vielstedter Str.","postalCode":"27798","locality":"Hude (Oldenburg)","municipality":{"key":"03458010","name":"Hude (Oldb)","type":"Kreisangehörige_Gemeinde"},"district":{"key":"03458","name":"Oldenburg","type":"Landkreis"},"federalState":{"key":"03","name":"Niedersachsen"}},{"name":"Viktoriastr.","postalCode":"26135","locality":"Oldenburg","municipality":{"key":"03403000","name":"Oldenburg (Oldenburg), Stadt","type":"Kreisfreie_Stadt"},"district":{"key":"03403","name":"Oldenburg (Oldenburg), Stadt","type":"Kreisfreie_Stadt"},"federalState":{"key":"03","name":"Niedersachsen"}},{"name":"Vogelpool","postalCode":"49632","locality":"Essen (Oldenburg)","municipality":{"key":"03453006","name":"Essen (Oldenburg)","type":"Kreisangehörige_Gemeinde"},"district":{"key":"03453","name":"Cloppenburg","type":"Landkreis"},"federalState":{"key":"03","name":"Niedersachsen"}},{"name":"Vogels-Anger","postalCode":"49632","locality":"Essen (Oldenburg)","municipality":{"key":"03453006","name":"Essen (Oldenburg)","type":"Kreisangehörige_Gemeinde"},"district":{"key":"03453","name":"Cloppenburg","type":"Landkreis"},"federalState":{"key":"03","name":"Niedersachsen"}},{"name":"Vogelstange","postalCode":"26122","locality":"Oldenburg","municipality":{"key":"03403000","name":"Oldenburg (Oldenburg), Stadt","type":"Kreisfreie_Stadt"},"district":{"key":"03403","name":"Oldenburg (Oldenburg), Stadt","type":"Kreisfreie_Stadt"},"federalState":{"key":"03","name":"Niedersachsen"}},{"name":"Von-Alten-Weg","postalCode":"26131","locality":"Oldenburg","municipality":{"key":"03403000","name":"Oldenburg (Oldenburg), Stadt","type":"Kreisfreie_Stadt"},"district":{"key":"03403","name":"Oldenburg (Oldenburg), Stadt","type":"Kreisfreie_Stadt"},"federalState":{"key":"03","name":"Niedersachsen"}},{"name":"Von-Berger-Str.","postalCode":"26121","locality":"Oldenburg","municipality":{"key":"03403000","name":"Oldenburg (Oldenburg), Stadt","type":"Kreisfreie_Stadt"},"district":{"key":"03403","name":"Oldenburg (Oldenburg), Stadt","type":"Kreisfreie_Stadt"},"federalState":{"key":"03","name":"Niedersachsen"}},{"name":"Von-Bodelschwingh-Str.","postalCode":"26125","locality":"Oldenburg","municipality":{"key":"03403000","name":"Oldenburg (Oldenburg), Stadt","type":"Kreisfreie_Stadt"},"district":{"key":"03403","name":"Oldenburg (Oldenburg), Stadt","type":"Kreisfreie_Stadt"},"federalState":{"key":"03","name":"Niedersachsen"}},{"name":"Von-Borries-Str.","postalCode":"26127","locality":"Oldenburg","municipality":{"key":"03403000","name":"Oldenburg (Oldenburg), Stadt","type":"Kreisfreie_Stadt"},"district":{"key":"03403","name":"Oldenburg (Oldenburg), Stadt","type":"Kreisfreie_Stadt"},"federalState":{"key":"03","name":"Niedersachsen"}},{"name":"Von-Finckh-Str.","postalCode":"26121","locality":"Oldenburg","municipality":{"key":"03403000","name":"Oldenburg (Oldenburg), Stadt","type":"Kreisfreie_Stadt"},"district":{"key":"03403","name":"Oldenburg (Oldenburg), Stadt","type":"Kreisfreie_Stadt"},"federalState":{"key":"03","name":"Niedersachsen"}},{"name":"Von-Galen-Str.","postalCode":"49699","locality":"Lindern (Oldenburg)","municipality":{"key":"03453010","name":"Lindern (Oldenburg)","type":"Kreisangehörige_Gemeinde"},"district":{"key":"03453","name":"Cloppenburg","type":"Landkreis"},"federalState":{"key":"03","name":"Niedersachsen"}},{"name":"Von-Halem-Str.","postalCode":"26121","locality":"Oldenburg","municipality":{"key":"03403000","name":"Oldenburg (Oldenburg), Stadt","type":"Kreisfreie_Stadt"},"district":{"key":"03403","name":"Oldenburg (Oldenburg), Stadt","type":"Kreisfreie_Stadt"},"federalState":{"key":"03","name":"Niedersachsen"}},{"name":"Von-Helmholtz-Str.","postalCode":"26133","locality":"Oldenburg","municipality":{"key":"03403000","name":"Oldenburg (Oldenburg), Stadt","type":"Kreisfreie_Stadt"},"district":{"key":"03403","name":"Oldenburg (Oldenburg), Stadt","type":"Kreisfreie_Stadt"},"federalState":{"key":"03","name":"Niedersachsen"}},{"name":"Von-Ketteler-Str.","postalCode":"26133","locality":"Oldenburg","municipality":{"key":"03403000","name":"Oldenburg (Oldenburg), Stadt","type":"Kreisfreie_Stadt"},"district":{"key":"03403","name":"Oldenburg (Oldenburg), Stadt","type":"Kreisfreie_Stadt"},"federalState":{"key":"03","name":"Niedersachsen"}},{"name":"Von-Kobbe-Str.","postalCode":"26129","locality":"Oldenburg","municipality":{"key":"03403000","name":"Oldenburg (Oldenburg), Stadt","type":"Kreisfreie_Stadt"},"district":{"key":"03403","name":"Oldenburg (Oldenburg), Stadt","type":"Kreisfreie_Stadt"},"federalState":{"key":"03","name":"Niedersachsen"}},{"name":"Von-Liebig-Str.","postalCode":"49699","locality":"Lindern (Oldenburg)","municipality":{"key":"03453010","name":"Lindern (Oldenburg)","type":"Kreisangehörige_Gemeinde"},"district":{"key":"03453","name":"Cloppenburg","type":"Landkreis"},"federalState":{"key":"03","name":"Niedersachsen"}},{"name":"Von-Lützow-Str.","postalCode":"26123","locality":"Oldenburg","municipality":{"key":"03403000","name":"Oldenburg (Oldenburg), Stadt","type":"Kreisfreie_Stadt"},"district":{"key":"03403","name":"Oldenburg (Oldenburg), Stadt","type":"Kreisfreie_Stadt"},"federalState":{"key":"03","name":"Niedersachsen"}},{"name":"Von-Müller-Str.","postalCode":"26123","locality":"Oldenburg","municipality":{"key":"03403000","name":"Oldenburg (Oldenburg), Stadt","type":"Kreisfreie_Stadt"},"district":{"key":"03403","name":"Oldenburg (Oldenburg), Stadt","type":"Kreisfreie_Stadt"},"federalState":{"key":"03","name":"Niedersachsen"}},{"name":"Von-Schrenck-Str.","postalCode":"26133","locality":"Oldenburg","municipality":{"key":"03403000","name":"Oldenburg (Oldenburg), Stadt","type":"Kreisfreie_Stadt"},"district":{"key":"03403","name":"Oldenburg (Oldenburg), Stadt","type":"Kreisfreie_Stadt"},"federalState":{"key":"03","name":"Niedersachsen"}},{"name":"Von-Siemens-Str.","postalCode":"49699","locality":"Lindern (Oldenburg)","municipality":{"key":"03453010","name":"Lindern (Oldenburg)","type":"Kreisangehörige_Gemeinde"},"district":{"key":"03453","name":"Cloppenburg","type":"Landkreis"},"federalState":{"key":"03","name":"Niedersachsen"}},{"name":"Von-Thünen-Str.","postalCode":"26131","locality":"Oldenburg","municipality":{"key":"03403000","name":"Oldenburg (Oldenburg), Stadt","type":"Kreisfreie_Stadt"},"district":{"key":"03403","name":"Oldenburg (Oldenburg), Stadt","type":"Kreisfreie_Stadt"},"federalState":{"key":"03","name":"Niedersachsen"}},{"name":"Von-Tresckow-Weg","postalCode":"26133","locality":"Oldenburg","municipality":{"key":"03403000","name":"Oldenburg (Oldenburg), Stadt","type":"Kreisfreie_Stadt"},"district":{"key":"03403","name":"Oldenburg (Oldenburg), Stadt","type":"Kreisfreie_Stadt"},"federalState":{"key":"03","name":"Niedersachsen"}},{"name":"Von-Witzleben-Allee","postalCode":"27798","locality":"Hude (Oldenburg)","municipality":{"key":"03458010","name":"Hude (Oldb)","type":"Kreisangehörige_Gemeinde"},"district":{"key":"03458","name":"Oldenburg","type":"Landkreis"},"federalState":{"key":"03","name":"Niedersachsen"}},{"name":"Vördemöhlen","postalCode":"26129","locality":"Oldenburg","municipality":{"key":"03403000","name":"Oldenburg (Oldenburg), Stadt","type":"Kreisfreie_Stadt"},"district":{"key":"03403","name":"Oldenburg (Oldenburg), Stadt","type":"Kreisfreie_Stadt"},"federalState":{"key":"03","name":"Niedersachsen"}},{"name":"Vor den Wiesen","postalCode":"49632","locality":"Essen (Oldenburg)","municipality":{"key":"03453006","name":"Essen (Oldenburg)","type":"Kreisangehörige_Gemeinde"},"district":{"key":"03453","name":"Cloppenburg","type":"Landkreis"},"federalState":{"key":"03","name":"Niedersachsen"}},{"name":"Vor der Landwehr","postalCode":"49632","locality":"Essen (Oldenburg)","municipality":{"key":"03453006","name":"Essen (Oldenburg)","type":"Kreisangehörige_Gemeinde"},"district":{"key":"03453","name":"Cloppenburg","type":"Landkreis"},"federalState":{"key":"03","name":"Niedersachsen"}},{"name":"Vorm Geestmoor","postalCode":"27798","locality":"Hude (Oldenburg)","municipality":{"key":"03458010","name":"Hude (Oldb)","type":"Kreisangehörige_Gemeinde"},"district":{"key":"03458","name":"Oldenburg","type":"Landkreis"},"federalState":{"key":"03","name":"Niedersachsen"}},{"name":"Vorm Moor","postalCode":"27798","locality":"Hude (Oldenburg)","municipality":{"key":"03458010","name":"Hude (Oldb)","type":"Kreisangehörige_Gemeinde"},"district":{"key":"03458","name":"Oldenburg","type":"Landkreis"},"federalState":{"key":"03","name":"Niedersachsen"}},{"name":"Vossbarg","postalCode":"27798","locality":"Hude (Oldenburg)","municipality":{"key":"03458010","name":"Hude (Oldb)","type":"Kreisangehörige_Gemeinde"},"district":{"key":"03458","name":"Oldenburg","type":"Landkreis"},"federalState":{"key":"03","name":"Niedersachsen"}},{"name":"Vösseberge","postalCode":"49699","locality":"Lindern (Oldenburg)","municipality":{"key":"03453010","name":"Lindern (Oldenburg)","type":"Kreisangehörige_Gemeinde"},"district":{"key":"03453","name":"Cloppenburg","type":"Landkreis"},"federalState":{"key":"03","name":"Niedersachsen"}},{"name":"Vosshöge","postalCode":"49692","locality":"Cappeln (Oldenburg)","municipality":{"key":"03453003","name":"Cappeln (Oldenburg)","type":"Kreisangehörige_Gemeinde"},"district":{"key":"03453","name":"Cloppenburg","type":"Landkreis"},"federalState":{"key":"03","name":"Niedersachsen"}},{"name":"Vosshöge","postalCode":"49699","locality":"Lindern (Oldenburg)","municipality":{"key":"03453010","name":"Lindern (Oldenburg)","type":"Kreisangehörige_Gemeinde"},"district":{"key":"03453","name":"Cloppenburg","type":"Landkreis"},"federalState":{"key":"03","name":"Niedersachsen"}},{"name":"Voßstr.","postalCode":"26135","locality":"Oldenburg","municipality":{"key":"03403000","name":"Oldenburg (Oldenburg), Stadt","type":"Kreisfreie_Stadt"},"district":{"key":"03403","name":"Oldenburg (Oldenburg), Stadt","type":"Kreisfreie_Stadt"},"federalState":{"key":"03","name":"Niedersachsen"}},{"name":"Vosteens Kamp","postalCode":"27798","locality":"Hude (Oldenburg)","municipality":{"key":"03458010","name":"Hude (Oldb)","type":"Kreisangehörige_Gemeinde"},"district":{"key":"03458","name":"Oldenburg","type":"Landkreis"},"federalState":{"key":"03","name":"Niedersachsen"}},{"name":"Vreeser Str.","postalCode":"49699","locality":"Lindern (Oldenburg)","municipality":{"key":"03453010","name":"Lindern (Oldenburg)","type":"Kreisangehörige_Gemeinde"},"district":{"key":"03453","name":"Cloppenburg","type":"Landkreis"},"federalState":{"key":"03","name":"Niedersachsen"}},{"name":"Waldweg","postalCode":"27243","locality":"Kirchseelte","municipality":{"key":"03458011","name":"Kirchseelte","type":"Kreisangehörige_Gemeinde"},"district":{"key":"03458","name":"Oldenburg","type":"Landkreis"},"federalState":{"key":"03","name":"Niedersachsen"}},{"name":"Wiesenweg","postalCode":"27243","locality":"Kirchseelte","municipality":{"key":"03458011","name":"Kirchseelte","type":"Kreisangehörige_Gemeinde"},"district":{"key":"03458","name":"Oldenburg","type":"Landkreis"},"federalState":{"key":"03","name":"Niedersachsen"}},{"name":"Yorckstr.","postalCode":"26131","locality":"Oldenburg","municipality":{"key":"03403000","name":"Oldenburg (Oldenburg), Stadt","type":"Kreisfreie_Stadt"},"district":{"key":"03403","name":"Oldenburg (Oldenburg), Stadt","type":"Kreisfreie_Stadt"},"federalState":{"key":"03","name":"Niedersachsen"}},{"name":"Zanderweg","postalCode":"26127","locality":"Oldenburg","municipality":{"key":"03403000","name":"Oldenburg (Oldenburg), Stadt","type":"Kreisfreie_Stadt"},"district":{"key":"03403","name":"Oldenburg (Oldenburg), Stadt","type":"Kreisfreie_Stadt"},"federalState":{"key":"03","name":"Niedersachsen"}},{"name":"Zaunkönigstr.","postalCode":"26135","locality":"Oldenburg","municipality":{"key":"03403000","name":"Oldenburg (Oldenburg), Stadt","type":"Kreisfreie_Stadt"},"district":{"key":"03403","name":"Oldenburg (Oldenburg), Stadt","type":"Kreisfreie_Stadt"},"federalState":{"key":"03","name":"Niedersachsen"}},{"name":"Zedernstr.","postalCode":"49692","locality":"Cappeln (Oldenburg)","municipality":{"key":"03453003","name":"Cappeln (Oldenburg)","type":"Kreisangehörige_Gemeinde"},"district":{"key":"03453","name":"Cloppenburg","type":"Landkreis"},"federalState":{"key":"03","name":"Niedersachsen"}},{"name":"Zedernweg","postalCode":"26133","locality":"Oldenburg","municipality":{"key":"03403000","name":"Oldenburg (Oldenburg), Stadt","type":"Kreisfreie_Stadt"},"district":{"key":"03403","name":"Oldenburg (Oldenburg), Stadt","type":"Kreisfreie_Stadt"},"federalState":{"key":"03","name":"Niedersachsen"}},{"name":"Zeisigring","postalCode":"23758","locality":"Oldenburg in Holstein","municipality":{"key":"01055033","name":"Oldenburg in Holstein, Stadt","type":"Stadt"},"district":{"key":"01055","name":"Ostholstein","type":"Kreis"},"federalState":{"key":"01","name":"Schleswig-Holstein"}},{"name":"Zeisigstr.","postalCode":"27798","locality":"Hude (Oldenburg)","municipality":{"key":"03458010","name":"Hude (Oldb)","type":"Kreisangehörige_Gemeinde"},"district":{"key":"03458","name":"Oldenburg","type":"Landkreis"},"federalState":{"key":"03","name":"Niedersachsen"}},{"name":"Zeisigweg","postalCode":"26127","locality":"Oldenburg","municipality":{"key":"03403000","name":"Oldenburg (Oldenburg), Stadt","type":"Kreisfreie_Stadt"},"district":{"key":"03403","name":"Oldenburg (Oldenburg), Stadt","type":"Kreisfreie_Stadt"},"federalState":{"key":"03","name":"Niedersachsen"}},{"name":"Zeppelinstr.","postalCode":"26121","locality":"Oldenburg","municipality":{"key":"03403000","name":"Oldenburg (Oldenburg), Stadt","type":"Kreisfreie_Stadt"},"district":{"key":"03403","name":"Oldenburg (Oldenburg), Stadt","type":"Kreisfreie_Stadt"},"federalState":{"key":"03","name":"Niedersachsen"}},{"name":"Zeughausstr.","postalCode":"26121","locality":"Oldenburg","municipality":{"key":"03403000","name":"Oldenburg (Oldenburg), Stadt","type":"Kreisfreie_Stadt"},"district":{"key":"03403","name":"Oldenburg (Oldenburg), Stadt","type":"Kreisfreie_Stadt"},"federalState":{"key":"03","name":"Niedersachsen"}},{"name":"Ziegelhofstr.","postalCode":"26121","locality":"Oldenburg","municipality":{"key":"03403000","name":"Oldenburg (Oldenburg), Stadt","type":"Kreisfreie_Stadt"},"district":{"key":"03403","name":"Oldenburg (Oldenburg), Stadt","type":"Kreisfreie_Stadt"},"federalState":{"key":"03","name":"Niedersachsen"}},{"name":"Ziegelhofstr.","postalCode":"49692","locality":"Cappeln (Oldenburg)","municipality":{"key":"03453003","name":"Cappeln (Oldenburg)","type":"Kreisangehörige_Gemeinde"},"district":{"key":"03453","name":"Cloppenburg","type":"Landkreis"},"federalState":{"key":"03","name":"Niedersachsen"}},{"name":"Ziegelweg","postalCode":"26129","locality":"Oldenburg","municipality":{"key":"03403000","name":"Oldenburg (Oldenburg), Stadt","type":"Kreisfreie_Stadt"},"district":{"key":"03403","name":"Oldenburg (Oldenburg), Stadt","type":"Kreisfreie_Stadt"},"federalState":{"key":"03","name":"Niedersachsen"}},{"name":"Ziegelweg","postalCode":"27798","locality":"Hude (Oldenburg)","municipality":{"key":"03458010","name":"Hude (Oldb)","type":"Kreisangehörige_Gemeinde"},"district":{"key":"03458","name":"Oldenburg","type":"Landkreis"},"federalState":{"key":"03","name":"Niedersachsen"}},{"name":"Zietenstr.","postalCode":"26131","locality":"Oldenburg","municipality":{"key":"03403000","name":"Oldenburg (Oldenburg), Stadt","type":"Kreisfreie_Stadt"},"district":{"key":"03403","name":"Oldenburg (Oldenburg), Stadt","type":"Kreisfreie_Stadt"},"federalState":{"key":"03","name":"Niedersachsen"}},{"name":"Zillestr.","postalCode":"26127","locality":"Oldenburg","municipality":{"key":"03403000","name":"Oldenburg (Oldenburg), Stadt","type":"Kreisfreie_Stadt"},"district":{"key":"03403","name":"Oldenburg (Oldenburg), Stadt","type":"Kreisfreie_Stadt"},"federalState":{"key":"03","name":"Niedersachsen"}},{"name":"Zinzendorfstr.","postalCode":"26131","locality":"Oldenburg","municipality":{"key":"03403000","name":"Oldenburg (Oldenburg), Stadt","type":"Kreisfreie_Stadt"},"district":{"key":"03403","name":"Oldenburg (Oldenburg), Stadt","type":"Kreisfreie_Stadt"},"federalState":{"key":"03","name":"Niedersachsen"}},{"name":"Zobelweg","postalCode":"26131","locality":"Oldenburg","municipality":{"key":"03403000","name":"Oldenburg (Oldenburg), Stadt","type":"Kreisfreie_Stadt"},"district":{"key":"03403","name":"Oldenburg (Oldenburg), Stadt","type":"Kreisfreie_Stadt"},"federalState":{"key":"03","name":"Niedersachsen"}},{"name":"Zu den Braken","postalCode":"27798","locality":"Hude (Oldenburg)","municipality":{"key":"03458010","name":"Hude (Oldb)","type":"Kreisangehörige_Gemeinde"},"district":{"key":"03458","name":"Oldenburg","type":"Landkreis"},"federalState":{"key":"03","name":"Niedersachsen"}},{"name":"Zu den Forsten","postalCode":"49632","locality":"Essen (Oldenburg)","municipality":{"key":"03453006","name":"Essen (Oldenburg)","type":"Kreisangehörige_Gemeinde"},"district":{"key":"03453","name":"Cloppenburg","type":"Landkreis"},"federalState":{"key":"03","name":"Niedersachsen"}},{"name":"Zu den Wiesen","postalCode":"49692","locality":"Cappeln (Oldenburg)","municipality":{"key":"03453003","name":"Cappeln (Oldenburg)","type":"Kreisangehörige_Gemeinde"},"district":{"key":"03453","name":"Cloppenburg","type":"Landkreis"},"federalState":{"key":"03","name":"Niedersachsen"}},{"name":"Zum","postalCode":"49699","locality":"Lindern (Oldenburg)","municipality":{"key":"03453010","name":"Lindern (Oldenburg)","type":"Kreisangehörige_Gemeinde"},"district":{"key":"03453","name":"Cloppenburg","type":"Landkreis"},"federalState":{"key":"03","name":"Niedersachsen"}},{"name":"Zum Antonius","postalCode":"49699","locality":"Lindern (Oldenburg)","municipality":{"key":"03453010","name":"Lindern (Oldenburg)","type":"Kreisangehörige_Gemeinde"},"district":{"key":"03453","name":"Cloppenburg","type":"Landkreis"},"federalState":{"key":"03","name":"Niedersachsen"}},{"name":"Zum Berg","postalCode":"49699","locality":"Lindern (Oldenburg)","municipality":{"key":"03453010","name":"Lindern (Oldenburg)","type":"Kreisangehörige_Gemeinde"},"district":{"key":"03453","name":"Cloppenburg","type":"Landkreis"},"federalState":{"key":"03","name":"Niedersachsen"}},{"name":"Zum Beverdiek","postalCode":"49632","locality":"Essen (Oldenburg)","municipality":{"key":"03453006","name":"Essen (Oldenburg)","type":"Kreisangehörige_Gemeinde"},"district":{"key":"03453","name":"Cloppenburg","type":"Landkreis"},"federalState":{"key":"03","name":"Niedersachsen"}},{"name":"Zum Brokhagen Stau","postalCode":"49632","locality":"Essen (Oldenburg)","municipality":{"key":"03453006","name":"Essen (Oldenburg)","type":"Kreisangehörige_Gemeinde"},"district":{"key":"03453","name":"Cloppenburg","type":"Landkreis"},"federalState":{"key":"03","name":"Niedersachsen"}},{"name":"Zum Dorfteich","postalCode":"49699","locality":"Lindern (Oldenburg)","municipality":{"key":"03453010","name":"Lindern (Oldenburg)","type":"Kreisangehörige_Gemeinde"},"district":{"key":"03453","name":"Cloppenburg","type":"Landkreis"},"federalState":{"key":"03","name":"Niedersachsen"}},{"name":"Zum Drohne","postalCode":"49699","locality":"Lindern (Oldenburg)","municipality":{"key":"03453010","name":"Lindern (Oldenburg)","type":"Kreisangehörige_Gemeinde"},"district":{"key":"03453","name":"Cloppenburg","type":"Landkreis"},"federalState":{"key":"03","name":"Niedersachsen"}},{"name":"Zum Elstermoor","postalCode":"49692","locality":"Cappeln (Oldenburg)","municipality":{"key":"03453003","name":"Cappeln (Oldenburg)","type":"Kreisangehörige_Gemeinde"},"district":{"key":"03453","name":"Cloppenburg","type":"Landkreis"},"federalState":{"key":"03","name":"Niedersachsen"}},{"name":"Zum Hagen","postalCode":"49632","locality":"Essen (Oldenburg)","municipality":{"key":"03453006","name":"Essen (Oldenburg)","type":"Kreisangehörige_Gemeinde"},"district":{"key":"03453","name":"Cloppenburg","type":"Landkreis"},"federalState":{"key":"03","name":"Niedersachsen"}},{"name":"Zum Hahnefehn","postalCode":"49699","locality":"Lindern (Oldenburg)","municipality":{"key":"03453010","name":"Lindern (Oldenburg)","type":"Kreisangehörige_Gemeinde"},"district":{"key":"03453","name":"Cloppenburg","type":"Landkreis"},"federalState":{"key":"03","name":"Niedersachsen"}},{"name":"Zum Kirchweg","postalCode":"49699","locality":"Lindern (Oldenburg)","municipality":{"key":"03453010","name":"Lindern (Oldenburg)","type":"Kreisangehörige_Gemeinde"},"district":{"key":"03453","name":"Cloppenburg","type":"Landkreis"},"federalState":{"key":"03","name":"Niedersachsen"}},{"name":"Zum Kriegerdamm","postalCode":"49699","locality":"Lindern (Oldenburg)","municipality":{"key":"03453010","name":"Lindern (Oldenburg)","type":"Kreisangehörige_Gemeinde"},"district":{"key":"03453","name":"Cloppenburg","type":"Landkreis"},"federalState":{"key":"03","name":"Niedersachsen"}},{"name":"Zum Mühlenbach","postalCode":"49632","locality":"Essen (Oldenburg)","municipality":{"key":"03453006","name":"Essen (Oldenburg)","type":"Kreisangehörige_Gemeinde"},"district":{"key":"03453","name":"Cloppenburg","type":"Landkreis"},"federalState":{"key":"03","name":"Niedersachsen"}},{"name":"Zum Offizierskasino","postalCode":"26127","locality":"Oldenburg","municipality":{"key":"03403000","name":"Oldenburg (Oldenburg), Stadt","type":"Kreisfreie_Stadt"},"district":{"key":"03403","name":"Oldenburg (Oldenburg), Stadt","type":"Kreisfreie_Stadt"},"federalState":{"key":"03","name":"Niedersachsen"}},{"name":"Zum Ostentor","postalCode":"49699","locality":"Lindern (Oldenburg)","municipality":{"key":"03453010","name":"Lindern (Oldenburg)","type":"Kreisangehörige_Gemeinde"},"district":{"key":"03453","name":"Cloppenburg","type":"Landkreis"},"federalState":{"key":"03","name":"Niedersachsen"}},{"name":"Zum Reitplatz","postalCode":"49699","locality":"Lindern (Oldenburg)","municipality":{"key":"03453010","name":"Lindern (Oldenburg)","type":"Kreisangehörige_Gemeinde"},"district":{"key":"03453","name":"Cloppenburg","type":"Landkreis"},"federalState":{"key":"03","name":"Niedersachsen"}},{"name":"Zum Rönpohl","postalCode":"49699","locality":"Lindern (Oldenburg)","municipality":{"key":"03453010","name":"Lindern (Oldenburg)","type":"Kreisangehörige_Gemeinde"},"district":{"key":"03453","name":"Cloppenburg","type":"Landkreis"},"federalState":{"key":"03","name":"Niedersachsen"}},{"name":"Zum Sandesch","postalCode":"49632","locality":"Essen (Oldenburg)","municipality":{"key":"03453006","name":"Essen (Oldenburg)","type":"Kreisangehörige_Gemeinde"},"district":{"key":"03453","name":"Cloppenburg","type":"Landkreis"},"federalState":{"key":"03","name":"Niedersachsen"}},{"name":"Zum Schwarzen Vehn","postalCode":"49699","locality":"Lindern (Oldenburg)","municipality":{"key":"03453010","name":"Lindern (Oldenburg)","type":"Kreisangehörige_Gemeinde"},"district":{"key":"03453","name":"Cloppenburg","type":"Landkreis"},"federalState":{"key":"03","name":"Niedersachsen"}},{"name":"Zum Stremel","postalCode":"49699","locality":"Lindern (Oldenburg)","municipality":{"key":"03453010","name":"Lindern (Oldenburg)","type":"Kreisangehörige_Gemeinde"},"district":{"key":"03453","name":"Cloppenburg","type":"Landkreis"},"federalState":{"key":"03","name":"Niedersachsen"}},{"name":"Zum Tannengarten","postalCode":"49632","locality":"Essen (Oldenburg)","municipality":{"key":"03453006","name":"Essen (Oldenburg)","type":"Kreisangehörige_Gemeinde"},"district":{"key":"03453","name":"Cloppenburg","type":"Landkreis"},"federalState":{"key":"03","name":"Niedersachsen"}},{"name":"Zum Trintel","postalCode":"49699","locality":"Lindern (Oldenburg)","municipality":{"key":"03453010","name":"Lindern (Oldenburg)","type":"Kreisangehörige_Gemeinde"},"district":{"key":"03453","name":"Cloppenburg","type":"Landkreis"},"federalState":{"key":"03","name":"Niedersachsen"}},{"name":"Zum Wasserquell","postalCode":"23758","locality":"Oldenburg in Holstein","municipality":{"key":"01055033","name":"Oldenburg in Holstein, Stadt","type":"Stadt"},"district":{"key":"01055","name":"Ostholstein","type":"Kreis"},"federalState":{"key":"01","name":"Schleswig-Holstein"}},{"name":"Zum Wendenkamp","postalCode":"27798","locality":"Hude (Oldenburg)","municipality":{"key":"03458010","name":"Hude (Oldb)","type":"Kreisangehörige_Gemeinde"},"district":{"key":"03458","name":"Oldenburg","type":"Landkreis"},"federalState":{"key":"03","name":"Niedersachsen"}},{"name":"Zum Wittemoor","postalCode":"27798","locality":"Hude (Oldenburg)","municipality":{"key":"03458010","name":"Hude (Oldb)","type":"Kreisangehörige_Gemeinde"},"district":{"key":"03458","name":"Oldenburg","type":"Landkreis"},"federalState":{"key":"03","name":"Niedersachsen"}},{"name":"Zur Ahnenstätte","postalCode":"27798","locality":"Hude (Oldenburg)","municipality":{"key":"03458010","name":"Hude (Oldb)","type":"Kreisangehörige_Gemeinde"},"district":{"key":"03458","name":"Oldenburg","type":"Landkreis"},"federalState":{"key":"03","name":"Niedersachsen"}},{"name":"Zur Barlage","postalCode":"49692","locality":"Cappeln (Oldenburg)","municipality":{"key":"03453003","name":"Cappeln (Oldenburg)","type":"Kreisangehörige_Gemeinde"},"district":{"key":"03453","name":"Cloppenburg","type":"Landkreis"},"federalState":{"key":"03","name":"Niedersachsen"}},{"name":"Zur Bokeler Mühle","postalCode":"49692","locality":"Cappeln (Oldenburg)","municipality":{"key":"03453003","name":"Cappeln (Oldenburg)","type":"Kreisangehörige_Gemeinde"},"district":{"key":"03453","name":"Cloppenburg","type":"Landkreis"},"federalState":{"key":"03","name":"Niedersachsen"}},{"name":"Zur breiten Wiese","postalCode":"49632","locality":"Essen (Oldenburg)","municipality":{"key":"03453006","name":"Essen (Oldenburg)","type":"Kreisangehörige_Gemeinde"},"district":{"key":"03453","name":"Cloppenburg","type":"Landkreis"},"federalState":{"key":"03","name":"Niedersachsen"}},{"name":"Zur Burg","postalCode":"49692","locality":"Cappeln (Oldenburg)","municipality":{"key":"03453003","name":"Cappeln (Oldenburg)","type":"Kreisangehörige_Gemeinde"},"district":{"key":"03453","name":"Cloppenburg","type":"Landkreis"},"federalState":{"key":"03","name":"Niedersachsen"}},{"name":"Östringer Str.","postalCode":"26121","locality":"Oldenburg","municipality":{"key":"03403000","name":"Oldenburg (Oldenburg), Stadt","type":"Kreisfreie_Stadt"},"district":{"key":"03403","name":"Oldenburg (Oldenburg), Stadt","type":"Kreisfreie_Stadt"},"federalState":{"key":"03","name":"Niedersachsen"}},{"name":"Överkamp","postalCode":"26125","locality":"Oldenburg","municipality":{"key":"03403000","name":"Oldenburg (Oldenburg), Stadt","type":"Kreisfreie_Stadt"},"district":{"key":"03403","name":"Oldenburg (Oldenburg), Stadt","type":"Kreisfreie_Stadt"},"federalState":{"key":"03","name":"Niedersachsen"}},{"name":"Über der Heide","postalCode":"26123","locality":"Oldenburg","municipality":{"key":"03403000","name":"Oldenburg (Oldenburg), Stadt","type":"Kreisfreie_Stadt"},"district":{"key":"03403","name":"Oldenburg (Oldenburg), Stadt","type":"Kreisfreie_Stadt"},"federalState":{"key":"03","name":"Niedersachsen"}},{"name":"Über'm Erdbrahm","postalCode":"27798","locality":"Hude (Oldenburg)","municipality":{"key":"03458010","name":"Hude (Oldb)","type":"Kreisangehörige_Gemeinde"},"district":{"key":"03458","name":"Oldenburg","type":"Landkreis"},"federalState":{"key":"03","name":"Niedersachsen"}},]