[{"name":"3.Uelfe","postalCode":"42477","locality":"Radevormwald","municipality":{"key":"05374036","name":"Radevormwald, Stadt auf der Höhe","type":"Stadt"},"district":{"key":"05374","name":"Oberbergischer Kreis","type":"Kreis"},"federalState":{"key":"05","name":"Nordrhein-Westfalen"}},{"name":"4.Uelfe","postalCode":"42477","locality":"Radevormwald","municipality":{"key":"05374036","name":"Radevormwald, Stadt auf der Höhe","type":"Stadt"},"district":{"key":"05374","name":"Oberbergischer Kreis","type":"Kreis"},"federalState":{"key":"05","name":"Nordrhein-Westfalen"}},{"name":"Albert-Einstein-Str.","postalCode":"42477","locality":"Radevormwald","municipality":{"key":"05374036","name":"Radevormwald, Stadt auf der Höhe","type":"Stadt"},"district":{"key":"05374","name":"Oberbergischer Kreis","type":"Kreis"},"federalState":{"key":"05","name":"Nordrhein-Westfalen"}},{"name":"Albert-Osenberg-Str.","postalCode":"42477","locality":"Radevormwald","municipality":{"key":"05374036","name":"Radevormwald, Stadt auf der Höhe","type":"Stadt"},"district":{"key":"05374","name":"Oberbergischer Kreis","type":"Kreis"},"federalState":{"key":"05","name":"Nordrhein-Westfalen"}},{"name":"Albertstr.","postalCode":"42477","locality":"Radevormwald","municipality":{"key":"05374036","name":"Radevormwald, Stadt auf der Höhe","type":"Stadt"},"district":{"key":"05374","name":"Oberbergischer Kreis","type":"Kreis"},"federalState":{"key":"05","name":"Nordrhein-Westfalen"}},{"name":"Alte Landstr.","postalCode":"42477","locality":"Radevormwald","municipality":{"key":"05374036","name":"Radevormwald, Stadt auf der Höhe","type":"Stadt"},"district":{"key":"05374","name":"Oberbergischer Kreis","type":"Kreis"},"federalState":{"key":"05","name":"Nordrhein-Westfalen"}},{"name":"Altendorf","postalCode":"42477","locality":"Radevormwald","municipality":{"key":"05374036","name":"Radevormwald, Stadt auf der Höhe","type":"Stadt"},"district":{"key":"05374","name":"Oberbergischer Kreis","type":"Kreis"},"federalState":{"key":"05","name":"Nordrhein-Westfalen"}},{"name":"Am Gaswerk","postalCode":"42477","locality":"Radevormwald","municipality":{"key":"05374036","name":"Radevormwald, Stadt auf der Höhe","type":"Stadt"},"district":{"key":"05374","name":"Oberbergischer Kreis","type":"Kreis"},"federalState":{"key":"05","name":"Nordrhein-Westfalen"}},{"name":"Am Hölterhof","postalCode":"42477","locality":"Radevormwald","municipality":{"key":"05374036","name":"Radevormwald, Stadt auf der Höhe","type":"Stadt"},"district":{"key":"05374","name":"Oberbergischer Kreis","type":"Kreis"},"federalState":{"key":"05","name":"Nordrhein-Westfalen"}},{"name":"Am Kattenbusch","postalCode":"42477","locality":"Radevormwald","municipality":{"key":"05374036","name":"Radevormwald, Stadt auf der Höhe","type":"Stadt"},"district":{"key":"05374","name":"Oberbergischer Kreis","type":"Kreis"},"federalState":{"key":"05","name":"Nordrhein-Westfalen"}},{"name":"Am Kollenberg","postalCode":"42477","locality":"Radevormwald","municipality":{"key":"05374036","name":"Radevormwald, Stadt auf der Höhe","type":"Stadt"},"district":{"key":"05374","name":"Oberbergischer Kreis","type":"Kreis"},"federalState":{"key":"05","name":"Nordrhein-Westfalen"}},{"name":"Am Krankenhaus","postalCode":"42477","locality":"Radevormwald","municipality":{"key":"05374036","name":"Radevormwald, Stadt auf der Höhe","type":"Stadt"},"district":{"key":"05374","name":"Oberbergischer Kreis","type":"Kreis"},"federalState":{"key":"05","name":"Nordrhein-Westfalen"}},{"name":"Am Kreuz","postalCode":"42477","locality":"Radevormwald","municipality":{"key":"05374036","name":"Radevormwald, Stadt auf der Höhe","type":"Stadt"},"district":{"key":"05374","name":"Oberbergischer Kreis","type":"Kreis"},"federalState":{"key":"05","name":"Nordrhein-Westfalen"}},{"name":"Am Kümpel","postalCode":"42477","locality":"Radevormwald","municipality":{"key":"05374036","name":"Radevormwald, Stadt auf der Höhe","type":"Stadt"},"district":{"key":"05374","name":"Oberbergischer Kreis","type":"Kreis"},"federalState":{"key":"05","name":"Nordrhein-Westfalen"}},{"name":"Am Mühlenkämpchen","postalCode":"42477","locality":"Radevormwald","municipality":{"key":"05374036","name":"Radevormwald, Stadt auf der Höhe","type":"Stadt"},"district":{"key":"05374","name":"Oberbergischer Kreis","type":"Kreis"},"federalState":{"key":"05","name":"Nordrhein-Westfalen"}},{"name":"Am Pferdefeld","postalCode":"42477","locality":"Radevormwald","municipality":{"key":"05374036","name":"Radevormwald, Stadt auf der Höhe","type":"Stadt"},"district":{"key":"05374","name":"Oberbergischer Kreis","type":"Kreis"},"federalState":{"key":"05","name":"Nordrhein-Westfalen"}},{"name":"Amselweg","postalCode":"42477","locality":"Radevormwald","municipality":{"key":"05374036","name":"Radevormwald, Stadt auf der Höhe","type":"Stadt"},"district":{"key":"05374","name":"Oberbergischer Kreis","type":"Kreis"},"federalState":{"key":"05","name":"Nordrhein-Westfalen"}},{"name":"Am Sportplatz","postalCode":"42477","locality":"Radevormwald","municipality":{"key":"05374036","name":"Radevormwald, Stadt auf der Höhe","type":"Stadt"},"district":{"key":"05374","name":"Oberbergischer Kreis","type":"Kreis"},"federalState":{"key":"05","name":"Nordrhein-Westfalen"}},{"name":"Am Steingarten","postalCode":"42477","locality":"Radevormwald","municipality":{"key":"05374036","name":"Radevormwald, Stadt auf der Höhe","type":"Stadt"},"district":{"key":"05374","name":"Oberbergischer Kreis","type":"Kreis"},"federalState":{"key":"05","name":"Nordrhein-Westfalen"}},{"name":"Am Telegraf","postalCode":"42477","locality":"Radevormwald","municipality":{"key":"05374036","name":"Radevormwald, Stadt auf der Höhe","type":"Stadt"},"district":{"key":"05374","name":"Oberbergischer Kreis","type":"Kreis"},"federalState":{"key":"05","name":"Nordrhein-Westfalen"}},{"name":"Am Weißpfennig","postalCode":"42477","locality":"Radevormwald","municipality":{"key":"05374036","name":"Radevormwald, Stadt auf der Höhe","type":"Stadt"},"district":{"key":"05374","name":"Oberbergischer Kreis","type":"Kreis"},"federalState":{"key":"05","name":"Nordrhein-Westfalen"}},{"name":"An der Eick","postalCode":"42477","locality":"Radevormwald","municipality":{"key":"05374036","name":"Radevormwald, Stadt auf der Höhe","type":"Stadt"},"district":{"key":"05374","name":"Oberbergischer Kreis","type":"Kreis"},"federalState":{"key":"05","name":"Nordrhein-Westfalen"}},{"name":"An der Hoffnung","postalCode":"42477","locality":"Radevormwald","municipality":{"key":"05374036","name":"Radevormwald, Stadt auf der Höhe","type":"Stadt"},"district":{"key":"05374","name":"Oberbergischer Kreis","type":"Kreis"},"federalState":{"key":"05","name":"Nordrhein-Westfalen"}},{"name":"An der Lohmühle","postalCode":"42477","locality":"Radevormwald","municipality":{"key":"05374036","name":"Radevormwald, Stadt auf der Höhe","type":"Stadt"},"district":{"key":"05374","name":"Oberbergischer Kreis","type":"Kreis"},"federalState":{"key":"05","name":"Nordrhein-Westfalen"}},{"name":"An der Wildbahn","postalCode":"42477","locality":"Radevormwald","municipality":{"key":"05374036","name":"Radevormwald, Stadt auf der Höhe","type":"Stadt"},"district":{"key":"05374","name":"Oberbergischer Kreis","type":"Kreis"},"federalState":{"key":"05","name":"Nordrhein-Westfalen"}},{"name":"Andreasstr.","postalCode":"42477","locality":"Radevormwald","municipality":{"key":"05374036","name":"Radevormwald, Stadt auf der Höhe","type":"Stadt"},"district":{"key":"05374","name":"Oberbergischer Kreis","type":"Kreis"},"federalState":{"key":"05","name":"Nordrhein-Westfalen"}},{"name":"Auf der Brede","postalCode":"42477","locality":"Radevormwald","municipality":{"key":"05374036","name":"Radevormwald, Stadt auf der Höhe","type":"Stadt"},"district":{"key":"05374","name":"Oberbergischer Kreis","type":"Kreis"},"federalState":{"key":"05","name":"Nordrhein-Westfalen"}},{"name":"Auf der Höh","postalCode":"42477","locality":"Radevormwald","municipality":{"key":"05374036","name":"Radevormwald, Stadt auf der Höhe","type":"Stadt"},"district":{"key":"05374","name":"Oberbergischer Kreis","type":"Kreis"},"federalState":{"key":"05","name":"Nordrhein-Westfalen"}},{"name":"Auf'm Winkel","postalCode":"42477","locality":"Radevormwald","municipality":{"key":"05374036","name":"Radevormwald, Stadt auf der Höhe","type":"Stadt"},"district":{"key":"05374","name":"Oberbergischer Kreis","type":"Kreis"},"federalState":{"key":"05","name":"Nordrhein-Westfalen"}},{"name":"B 229","postalCode":"42477","locality":"Radevormwald","municipality":{"key":"05374036","name":"Radevormwald, Stadt auf der Höhe","type":"Stadt"},"district":{"key":"05374","name":"Oberbergischer Kreis","type":"Kreis"},"federalState":{"key":"05","name":"Nordrhein-Westfalen"}},{"name":"Bachstr.","postalCode":"42477","locality":"Radevormwald","municipality":{"key":"05374036","name":"Radevormwald, Stadt auf der Höhe","type":"Stadt"},"district":{"key":"05374","name":"Oberbergischer Kreis","type":"Kreis"},"federalState":{"key":"05","name":"Nordrhein-Westfalen"}},{"name":"Bahnhofstr.","postalCode":"42477","locality":"Radevormwald","municipality":{"key":"05374036","name":"Radevormwald, Stadt auf der Höhe","type":"Stadt"},"district":{"key":"05374","name":"Oberbergischer Kreis","type":"Kreis"},"federalState":{"key":"05","name":"Nordrhein-Westfalen"}},{"name":"Bahnstr.","postalCode":"42477","locality":"Radevormwald","municipality":{"key":"05374036","name":"Radevormwald, Stadt auf der Höhe","type":"Stadt"},"district":{"key":"05374","name":"Oberbergischer Kreis","type":"Kreis"},"federalState":{"key":"05","name":"Nordrhein-Westfalen"}},{"name":"Bergstr.","postalCode":"42477","locality":"Radevormwald","municipality":{"key":"05374036","name":"Radevormwald, Stadt auf der Höhe","type":"Stadt"},"district":{"key":"05374","name":"Oberbergischer Kreis","type":"Kreis"},"federalState":{"key":"05","name":"Nordrhein-Westfalen"}},{"name":"Bernd-Rosemeyer-Str.","postalCode":"42477","locality":"Radevormwald","municipality":{"key":"05374036","name":"Radevormwald, Stadt auf der Höhe","type":"Stadt"},"district":{"key":"05374","name":"Oberbergischer Kreis","type":"Kreis"},"federalState":{"key":"05","name":"Nordrhein-Westfalen"}},{"name":"Birken","postalCode":"42477","locality":"Radevormwald","municipality":{"key":"05374036","name":"Radevormwald, Stadt auf der Höhe","type":"Stadt"},"district":{"key":"05374","name":"Oberbergischer Kreis","type":"Kreis"},"federalState":{"key":"05","name":"Nordrhein-Westfalen"}},{"name":"Birkenweg","postalCode":"42477","locality":"Radevormwald","municipality":{"key":"05374036","name":"Radevormwald, Stadt auf der Höhe","type":"Stadt"},"district":{"key":"05374","name":"Oberbergischer Kreis","type":"Kreis"},"federalState":{"key":"05","name":"Nordrhein-Westfalen"}},{"name":"Bischof-Bornewasser-Str.","postalCode":"42477","locality":"Radevormwald","municipality":{"key":"05374036","name":"Radevormwald, Stadt auf der Höhe","type":"Stadt"},"district":{"key":"05374","name":"Oberbergischer Kreis","type":"Kreis"},"federalState":{"key":"05","name":"Nordrhein-Westfalen"}},{"name":"Blumenstr.","postalCode":"42477","locality":"Radevormwald","municipality":{"key":"05374036","name":"Radevormwald, Stadt auf der Höhe","type":"Stadt"},"district":{"key":"05374","name":"Oberbergischer Kreis","type":"Kreis"},"federalState":{"key":"05","name":"Nordrhein-Westfalen"}},{"name":"Böhlefeldshaus","postalCode":"42477","locality":"Radevormwald","municipality":{"key":"05374036","name":"Radevormwald, Stadt auf der Höhe","type":"Stadt"},"district":{"key":"05374","name":"Oberbergischer Kreis","type":"Kreis"},"federalState":{"key":"05","name":"Nordrhein-Westfalen"}},{"name":"Börkel","postalCode":"42477","locality":"Radevormwald","municipality":{"key":"05374036","name":"Radevormwald, Stadt auf der Höhe","type":"Stadt"},"district":{"key":"05374","name":"Oberbergischer Kreis","type":"Kreis"},"federalState":{"key":"05","name":"Nordrhein-Westfalen"}},{"name":"Born","postalCode":"42477","locality":"Radevormwald","municipality":{"key":"05374036","name":"Radevormwald, Stadt auf der Höhe","type":"Stadt"},"district":{"key":"05374","name":"Oberbergischer Kreis","type":"Kreis"},"federalState":{"key":"05","name":"Nordrhein-Westfalen"}},{"name":"Bredderstr.","postalCode":"42477","locality":"Radevormwald","municipality":{"key":"05374036","name":"Radevormwald, Stadt auf der Höhe","type":"Stadt"},"district":{"key":"05374","name":"Oberbergischer Kreis","type":"Kreis"},"federalState":{"key":"05","name":"Nordrhein-Westfalen"}},{"name":"Buchenweg","postalCode":"42477","locality":"Radevormwald","municipality":{"key":"05374036","name":"Radevormwald, Stadt auf der Höhe","type":"Stadt"},"district":{"key":"05374","name":"Oberbergischer Kreis","type":"Kreis"},"federalState":{"key":"05","name":"Nordrhein-Westfalen"}},{"name":"Burgstr.","postalCode":"42477","locality":"Radevormwald","municipality":{"key":"05374036","name":"Radevormwald, Stadt auf der Höhe","type":"Stadt"},"district":{"key":"05374","name":"Oberbergischer Kreis","type":"Kreis"},"federalState":{"key":"05","name":"Nordrhein-Westfalen"}},{"name":"Carl-Diem-Str.","postalCode":"42477","locality":"Radevormwald","municipality":{"key":"05374036","name":"Radevormwald, Stadt auf der Höhe","type":"Stadt"},"district":{"key":"05374","name":"Oberbergischer Kreis","type":"Kreis"},"federalState":{"key":"05","name":"Nordrhein-Westfalen"}},{"name":"Dahler Str.","postalCode":"42477","locality":"Radevormwald","municipality":{"key":"05374036","name":"Radevormwald, Stadt auf der Höhe","type":"Stadt"},"district":{"key":"05374","name":"Oberbergischer Kreis","type":"Kreis"},"federalState":{"key":"05","name":"Nordrhein-Westfalen"}},{"name":"Dahlhauser Str.","postalCode":"42477","locality":"Radevormwald","municipality":{"key":"05374036","name":"Radevormwald, Stadt auf der Höhe","type":"Stadt"},"district":{"key":"05374","name":"Oberbergischer Kreis","type":"Kreis"},"federalState":{"key":"05","name":"Nordrhein-Westfalen"}},{"name":"Dahlienstr.","postalCode":"42477","locality":"Radevormwald","municipality":{"key":"05374036","name":"Radevormwald, Stadt auf der Höhe","type":"Stadt"},"district":{"key":"05374","name":"Oberbergischer Kreis","type":"Kreis"},"federalState":{"key":"05","name":"Nordrhein-Westfalen"}},{"name":"Dannenbaum","postalCode":"42477","locality":"Radevormwald","municipality":{"key":"05374036","name":"Radevormwald, Stadt auf der Höhe","type":"Stadt"},"district":{"key":"05374","name":"Oberbergischer Kreis","type":"Kreis"},"federalState":{"key":"05","name":"Nordrhein-Westfalen"}},{"name":"Danziger Str.","postalCode":"42477","locality":"Radevormwald","municipality":{"key":"05374036","name":"Radevormwald, Stadt auf der Höhe","type":"Stadt"},"district":{"key":"05374","name":"Oberbergischer Kreis","type":"Kreis"},"federalState":{"key":"05","name":"Nordrhein-Westfalen"}},{"name":"Dehnerhofstr.","postalCode":"42477","locality":"Radevormwald","municipality":{"key":"05374036","name":"Radevormwald, Stadt auf der Höhe","type":"Stadt"},"district":{"key":"05374","name":"Oberbergischer Kreis","type":"Kreis"},"federalState":{"key":"05","name":"Nordrhein-Westfalen"}},{"name":"Diepenbruch","postalCode":"42477","locality":"Radevormwald","municipality":{"key":"05374036","name":"Radevormwald, Stadt auf der Höhe","type":"Stadt"},"district":{"key":"05374","name":"Oberbergischer Kreis","type":"Kreis"},"federalState":{"key":"05","name":"Nordrhein-Westfalen"}},{"name":"Dieplingsberg","postalCode":"42477","locality":"Radevormwald","municipality":{"key":"05374036","name":"Radevormwald, Stadt auf der Höhe","type":"Stadt"},"district":{"key":"05374","name":"Oberbergischer Kreis","type":"Kreis"},"federalState":{"key":"05","name":"Nordrhein-Westfalen"}},{"name":"Dietrich-Bonhoeffer-Str.","postalCode":"42477","locality":"Radevormwald","municipality":{"key":"05374036","name":"Radevormwald, Stadt auf der Höhe","type":"Stadt"},"district":{"key":"05374","name":"Oberbergischer Kreis","type":"Kreis"},"federalState":{"key":"05","name":"Nordrhein-Westfalen"}},{"name":"Dietrich-Bonhoeffer=Str. 52-85","postalCode":"42477","locality":"Radevormwald","municipality":{"key":"05374036","name":"Radevormwald, Stadt auf der Höhe","type":"Stadt"},"district":{"key":"05374","name":"Oberbergischer Kreis","type":"Kreis"},"federalState":{"key":"05","name":"Nordrhein-Westfalen"}},{"name":"Drosselweg","postalCode":"42477","locality":"Radevormwald","municipality":{"key":"05374036","name":"Radevormwald, Stadt auf der Höhe","type":"Stadt"},"district":{"key":"05374","name":"Oberbergischer Kreis","type":"Kreis"},"federalState":{"key":"05","name":"Nordrhein-Westfalen"}},{"name":"Dünnwald","postalCode":"42477","locality":"Radevormwald","municipality":{"key":"05374036","name":"Radevormwald, Stadt auf der Höhe","type":"Stadt"},"district":{"key":"05374","name":"Oberbergischer Kreis","type":"Kreis"},"federalState":{"key":"05","name":"Nordrhein-Westfalen"}},{"name":"Eichenweg","postalCode":"42477","locality":"Radevormwald","municipality":{"key":"05374036","name":"Radevormwald, Stadt auf der Höhe","type":"Stadt"},"district":{"key":"05374","name":"Oberbergischer Kreis","type":"Kreis"},"federalState":{"key":"05","name":"Nordrhein-Westfalen"}},{"name":"Elberfelder Str.","postalCode":"42477","locality":"Radevormwald","municipality":{"key":"05374036","name":"Radevormwald, Stadt auf der Höhe","type":"Stadt"},"district":{"key":"05374","name":"Oberbergischer Kreis","type":"Kreis"},"federalState":{"key":"05","name":"Nordrhein-Westfalen"}},{"name":"Elbinger Str.","postalCode":"42477","locality":"Radevormwald","municipality":{"key":"05374036","name":"Radevormwald, Stadt auf der Höhe","type":"Stadt"},"district":{"key":"05374","name":"Oberbergischer Kreis","type":"Kreis"},"federalState":{"key":"05","name":"Nordrhein-Westfalen"}},{"name":"Erlenbach","postalCode":"42477","locality":"Radevormwald","municipality":{"key":"05374036","name":"Radevormwald, Stadt auf der Höhe","type":"Stadt"},"district":{"key":"05374","name":"Oberbergischer Kreis","type":"Kreis"},"federalState":{"key":"05","name":"Nordrhein-Westfalen"}},{"name":"Erlenbacher Str.","postalCode":"42477","locality":"Radevormwald","municipality":{"key":"05374036","name":"Radevormwald, Stadt auf der Höhe","type":"Stadt"},"district":{"key":"05374","name":"Oberbergischer Kreis","type":"Kreis"},"federalState":{"key":"05","name":"Nordrhein-Westfalen"}},{"name":"Espertstr.","postalCode":"42477","locality":"Radevormwald","municipality":{"key":"05374036","name":"Radevormwald, Stadt auf der Höhe","type":"Stadt"},"district":{"key":"05374","name":"Oberbergischer Kreis","type":"Kreis"},"federalState":{"key":"05","name":"Nordrhein-Westfalen"}},{"name":"Färberstr.","postalCode":"42477","locality":"Radevormwald","municipality":{"key":"05374036","name":"Radevormwald, Stadt auf der Höhe","type":"Stadt"},"district":{"key":"05374","name":"Oberbergischer Kreis","type":"Kreis"},"federalState":{"key":"05","name":"Nordrhein-Westfalen"}},{"name":"Feilenhauerstr.","postalCode":"42477","locality":"Radevormwald","municipality":{"key":"05374036","name":"Radevormwald, Stadt auf der Höhe","type":"Stadt"},"district":{"key":"05374","name":"Oberbergischer Kreis","type":"Kreis"},"federalState":{"key":"05","name":"Nordrhein-Westfalen"}},{"name":"Feldmannshaus","postalCode":"42477","locality":"Radevormwald","municipality":{"key":"05374036","name":"Radevormwald, Stadt auf der Höhe","type":"Stadt"},"district":{"key":"05374","name":"Oberbergischer Kreis","type":"Kreis"},"federalState":{"key":"05","name":"Nordrhein-Westfalen"}},{"name":"Feldstr.","postalCode":"42477","locality":"Radevormwald","municipality":{"key":"05374036","name":"Radevormwald, Stadt auf der Höhe","type":"Stadt"},"district":{"key":"05374","name":"Oberbergischer Kreis","type":"Kreis"},"federalState":{"key":"05","name":"Nordrhein-Westfalen"}},{"name":"Felix-Wankel-Str.","postalCode":"42477","locality":"Radevormwald","municipality":{"key":"05374036","name":"Radevormwald, Stadt auf der Höhe","type":"Stadt"},"district":{"key":"05374","name":"Oberbergischer Kreis","type":"Kreis"},"federalState":{"key":"05","name":"Nordrhein-Westfalen"}},{"name":"Filde","postalCode":"42477","locality":"Radevormwald","municipality":{"key":"05374036","name":"Radevormwald, Stadt auf der Höhe","type":"Stadt"},"district":{"key":"05374","name":"Oberbergischer Kreis","type":"Kreis"},"federalState":{"key":"05","name":"Nordrhein-Westfalen"}},{"name":"Filderheide","postalCode":"42477","locality":"Radevormwald","municipality":{"key":"05374036","name":"Radevormwald, Stadt auf der Höhe","type":"Stadt"},"district":{"key":"05374","name":"Oberbergischer Kreis","type":"Kreis"},"federalState":{"key":"05","name":"Nordrhein-Westfalen"}},{"name":"Finkenweg","postalCode":"42477","locality":"Radevormwald","municipality":{"key":"05374036","name":"Radevormwald, Stadt auf der Höhe","type":"Stadt"},"district":{"key":"05374","name":"Oberbergischer Kreis","type":"Kreis"},"federalState":{"key":"05","name":"Nordrhein-Westfalen"}},{"name":"Flurstr.","postalCode":"42477","locality":"Radevormwald","municipality":{"key":"05374036","name":"Radevormwald, Stadt auf der Höhe","type":"Stadt"},"district":{"key":"05374","name":"Oberbergischer Kreis","type":"Kreis"},"federalState":{"key":"05","name":"Nordrhein-Westfalen"}},{"name":"Fontanestr.","postalCode":"42477","locality":"Radevormwald","municipality":{"key":"05374036","name":"Radevormwald, Stadt auf der Höhe","type":"Stadt"},"district":{"key":"05374","name":"Oberbergischer Kreis","type":"Kreis"},"federalState":{"key":"05","name":"Nordrhein-Westfalen"}},{"name":"Forellenweg","postalCode":"42477","locality":"Radevormwald","municipality":{"key":"05374036","name":"Radevormwald, Stadt auf der Höhe","type":"Stadt"},"district":{"key":"05374","name":"Oberbergischer Kreis","type":"Kreis"},"federalState":{"key":"05","name":"Nordrhein-Westfalen"}},{"name":"Freiligrathstr.","postalCode":"42477","locality":"Radevormwald","municipality":{"key":"05374036","name":"Radevormwald, Stadt auf der Höhe","type":"Stadt"},"district":{"key":"05374","name":"Oberbergischer Kreis","type":"Kreis"},"federalState":{"key":"05","name":"Nordrhein-Westfalen"}},{"name":"Freudenberg","postalCode":"42477","locality":"Radevormwald","municipality":{"key":"05374036","name":"Radevormwald, Stadt auf der Höhe","type":"Stadt"},"district":{"key":"05374","name":"Oberbergischer Kreis","type":"Kreis"},"federalState":{"key":"05","name":"Nordrhein-Westfalen"}},{"name":"Friedrichstr.","postalCode":"42477","locality":"Radevormwald","municipality":{"key":"05374036","name":"Radevormwald, Stadt auf der Höhe","type":"Stadt"},"district":{"key":"05374","name":"Oberbergischer Kreis","type":"Kreis"},"federalState":{"key":"05","name":"Nordrhein-Westfalen"}},{"name":"Friesenstr.","postalCode":"42477","locality":"Radevormwald","municipality":{"key":"05374036","name":"Radevormwald, Stadt auf der Höhe","type":"Stadt"},"district":{"key":"05374","name":"Oberbergischer Kreis","type":"Kreis"},"federalState":{"key":"05","name":"Nordrhein-Westfalen"}},{"name":"Fritz-vom-Stein-Str.","postalCode":"42477","locality":"Radevormwald","municipality":{"key":"05374036","name":"Radevormwald, Stadt auf der Höhe","type":"Stadt"},"district":{"key":"05374","name":"Oberbergischer Kreis","type":"Kreis"},"federalState":{"key":"05","name":"Nordrhein-Westfalen"}},{"name":"Froweinstr.","postalCode":"42477","locality":"Radevormwald","municipality":{"key":"05374036","name":"Radevormwald, Stadt auf der Höhe","type":"Stadt"},"district":{"key":"05374","name":"Oberbergischer Kreis","type":"Kreis"},"federalState":{"key":"05","name":"Nordrhein-Westfalen"}},{"name":"Gartenstr.","postalCode":"42477","locality":"Radevormwald","municipality":{"key":"05374036","name":"Radevormwald, Stadt auf der Höhe","type":"Stadt"},"district":{"key":"05374","name":"Oberbergischer Kreis","type":"Kreis"},"federalState":{"key":"05","name":"Nordrhein-Westfalen"}},{"name":"Goethestr.","postalCode":"42477","locality":"Radevormwald","municipality":{"key":"05374036","name":"Radevormwald, Stadt auf der Höhe","type":"Stadt"},"district":{"key":"05374","name":"Oberbergischer Kreis","type":"Kreis"},"federalState":{"key":"05","name":"Nordrhein-Westfalen"}},{"name":"Grabenstr.","postalCode":"42477","locality":"Radevormwald","municipality":{"key":"05374036","name":"Radevormwald, Stadt auf der Höhe","type":"Stadt"},"district":{"key":"05374","name":"Oberbergischer Kreis","type":"Kreis"},"federalState":{"key":"05","name":"Nordrhein-Westfalen"}},{"name":"Grafweg","postalCode":"42477","locality":"Radevormwald","municipality":{"key":"05374036","name":"Radevormwald, Stadt auf der Höhe","type":"Stadt"},"district":{"key":"05374","name":"Oberbergischer Kreis","type":"Kreis"},"federalState":{"key":"05","name":"Nordrhein-Westfalen"}},{"name":"Griesensiepen","postalCode":"42477","locality":"Radevormwald","municipality":{"key":"05374036","name":"Radevormwald, Stadt auf der Höhe","type":"Stadt"},"district":{"key":"05374","name":"Oberbergischer Kreis","type":"Kreis"},"federalState":{"key":"05","name":"Nordrhein-Westfalen"}},{"name":"Grüne","postalCode":"42477","locality":"Radevormwald","municipality":{"key":"05374036","name":"Radevormwald, Stadt auf der Höhe","type":"Stadt"},"district":{"key":"05374","name":"Oberbergischer Kreis","type":"Kreis"},"federalState":{"key":"05","name":"Nordrhein-Westfalen"}},{"name":"Grünentaler Str.","postalCode":"42477","locality":"Radevormwald","municipality":{"key":"05374036","name":"Radevormwald, Stadt auf der Höhe","type":"Stadt"},"district":{"key":"05374","name":"Oberbergischer Kreis","type":"Kreis"},"federalState":{"key":"05","name":"Nordrhein-Westfalen"}},{"name":"Grunewald","postalCode":"42477","locality":"Radevormwald","municipality":{"key":"05374036","name":"Radevormwald, Stadt auf der Höhe","type":"Stadt"},"district":{"key":"05374","name":"Oberbergischer Kreis","type":"Kreis"},"federalState":{"key":"05","name":"Nordrhein-Westfalen"}},{"name":"Grünstr.","postalCode":"42477","locality":"Radevormwald","municipality":{"key":"05374036","name":"Radevormwald, Stadt auf der Höhe","type":"Stadt"},"district":{"key":"05374","name":"Oberbergischer Kreis","type":"Kreis"},"federalState":{"key":"05","name":"Nordrhein-Westfalen"}},{"name":"Haferstr.","postalCode":"42477","locality":"Radevormwald","municipality":{"key":"05374036","name":"Radevormwald, Stadt auf der Höhe","type":"Stadt"},"district":{"key":"05374","name":"Oberbergischer Kreis","type":"Kreis"},"federalState":{"key":"05","name":"Nordrhein-Westfalen"}},{"name":"Hahnenberg","postalCode":"42477","locality":"Radevormwald","municipality":{"key":"05374036","name":"Radevormwald, Stadt auf der Höhe","type":"Stadt"},"district":{"key":"05374","name":"Oberbergischer Kreis","type":"Kreis"},"federalState":{"key":"05","name":"Nordrhein-Westfalen"}},{"name":"Handballweg","postalCode":"42477","locality":"Radevormwald","municipality":{"key":"05374036","name":"Radevormwald, Stadt auf der Höhe","type":"Stadt"},"district":{"key":"05374","name":"Oberbergischer Kreis","type":"Kreis"},"federalState":{"key":"05","name":"Nordrhein-Westfalen"}},{"name":"Hardtbach","postalCode":"42477","locality":"Radevormwald","municipality":{"key":"05374036","name":"Radevormwald, Stadt auf der Höhe","type":"Stadt"},"district":{"key":"05374","name":"Oberbergischer Kreis","type":"Kreis"},"federalState":{"key":"05","name":"Nordrhein-Westfalen"}},{"name":"Hardtstr.","postalCode":"42477","locality":"Radevormwald","municipality":{"key":"05374036","name":"Radevormwald, Stadt auf der Höhe","type":"Stadt"},"district":{"key":"05374","name":"Oberbergischer Kreis","type":"Kreis"},"federalState":{"key":"05","name":"Nordrhein-Westfalen"}},{"name":"Hechtweg","postalCode":"42477","locality":"Radevormwald","municipality":{"key":"05374036","name":"Radevormwald, Stadt auf der Höhe","type":"Stadt"},"district":{"key":"05374","name":"Oberbergischer Kreis","type":"Kreis"},"federalState":{"key":"05","name":"Nordrhein-Westfalen"}},{"name":"Heide","postalCode":"42477","locality":"Radevormwald","municipality":{"key":"05374036","name":"Radevormwald, Stadt auf der Höhe","type":"Stadt"},"district":{"key":"05374","name":"Oberbergischer Kreis","type":"Kreis"},"federalState":{"key":"05","name":"Nordrhein-Westfalen"}},{"name":"Heidersteg","postalCode":"42477","locality":"Radevormwald","municipality":{"key":"05374036","name":"Radevormwald, Stadt auf der Höhe","type":"Stadt"},"district":{"key":"05374","name":"Oberbergischer Kreis","type":"Kreis"},"federalState":{"key":"05","name":"Nordrhein-Westfalen"}},{"name":"Heinestr.","postalCode":"42477","locality":"Radevormwald","municipality":{"key":"05374036","name":"Radevormwald, Stadt auf der Höhe","type":"Stadt"},"district":{"key":"05374","name":"Oberbergischer Kreis","type":"Kreis"},"federalState":{"key":"05","name":"Nordrhein-Westfalen"}},{"name":"Heinz-Rosendahl-Str.","postalCode":"42477","locality":"Radevormwald","municipality":{"key":"05374036","name":"Radevormwald, Stadt auf der Höhe","type":"Stadt"},"district":{"key":"05374","name":"Oberbergischer Kreis","type":"Kreis"},"federalState":{"key":"05","name":"Nordrhein-Westfalen"}},{"name":"Heisenbergstr.","postalCode":"42477","locality":"Radevormwald","municipality":{"key":"05374036","name":"Radevormwald, Stadt auf der Höhe","type":"Stadt"},"district":{"key":"05374","name":"Oberbergischer Kreis","type":"Kreis"},"federalState":{"key":"05","name":"Nordrhein-Westfalen"}},{"name":"Herbeck","postalCode":"42477","locality":"Radevormwald","municipality":{"key":"05374036","name":"Radevormwald, Stadt auf der Höhe","type":"Stadt"},"district":{"key":"05374","name":"Oberbergischer Kreis","type":"Kreis"},"federalState":{"key":"05","name":"Nordrhein-Westfalen"}},{"name":"Herbecker Str.","postalCode":"42477","locality":"Radevormwald","municipality":{"key":"05374036","name":"Radevormwald, Stadt auf der Höhe","type":"Stadt"},"district":{"key":"05374","name":"Oberbergischer Kreis","type":"Kreis"},"federalState":{"key":"05","name":"Nordrhein-Westfalen"}},{"name":"Herderstr.","postalCode":"42477","locality":"Radevormwald","municipality":{"key":"05374036","name":"Radevormwald, Stadt auf der Höhe","type":"Stadt"},"district":{"key":"05374","name":"Oberbergischer Kreis","type":"Kreis"},"federalState":{"key":"05","name":"Nordrhein-Westfalen"}},{"name":"Herkingrade","postalCode":"42477","locality":"Radevormwald","municipality":{"key":"05374036","name":"Radevormwald, Stadt auf der Höhe","type":"Stadt"},"district":{"key":"05374","name":"Oberbergischer Kreis","type":"Kreis"},"federalState":{"key":"05","name":"Nordrhein-Westfalen"}},{"name":"Hermann-Löns-Weg","postalCode":"42477","locality":"Radevormwald","municipality":{"key":"05374036","name":"Radevormwald, Stadt auf der Höhe","type":"Stadt"},"district":{"key":"05374","name":"Oberbergischer Kreis","type":"Kreis"},"federalState":{"key":"05","name":"Nordrhein-Westfalen"}},{"name":"Hermannstr.","postalCode":"42477","locality":"Radevormwald","municipality":{"key":"05374036","name":"Radevormwald, Stadt auf der Höhe","type":"Stadt"},"district":{"key":"05374","name":"Oberbergischer Kreis","type":"Kreis"},"federalState":{"key":"05","name":"Nordrhein-Westfalen"}},{"name":"Hinüber","postalCode":"42477","locality":"Radevormwald","municipality":{"key":"05374036","name":"Radevormwald, Stadt auf der Höhe","type":"Stadt"},"district":{"key":"05374","name":"Oberbergischer Kreis","type":"Kreis"},"federalState":{"key":"05","name":"Nordrhein-Westfalen"}},{"name":"Hochsteinstr.","postalCode":"42477","locality":"Radevormwald","municipality":{"key":"05374036","name":"Radevormwald, Stadt auf der Höhe","type":"Stadt"},"district":{"key":"05374","name":"Oberbergischer Kreis","type":"Kreis"},"federalState":{"key":"05","name":"Nordrhein-Westfalen"}},{"name":"Hohenfuhrstr.","postalCode":"42477","locality":"Radevormwald","municipality":{"key":"05374036","name":"Radevormwald, Stadt auf der Höhe","type":"Stadt"},"district":{"key":"05374","name":"Oberbergischer Kreis","type":"Kreis"},"federalState":{"key":"05","name":"Nordrhein-Westfalen"}},{"name":"Hohenstr.","postalCode":"42477","locality":"Radevormwald","municipality":{"key":"05374036","name":"Radevormwald, Stadt auf der Höhe","type":"Stadt"},"district":{"key":"05374","name":"Oberbergischer Kreis","type":"Kreis"},"federalState":{"key":"05","name":"Nordrhein-Westfalen"}},{"name":"Hohenzollernstr.","postalCode":"42477","locality":"Radevormwald","municipality":{"key":"05374036","name":"Radevormwald, Stadt auf der Höhe","type":"Stadt"},"district":{"key":"05374","name":"Oberbergischer Kreis","type":"Kreis"},"federalState":{"key":"05","name":"Nordrhein-Westfalen"}},{"name":"Höhweg","postalCode":"42477","locality":"Radevormwald","municipality":{"key":"05374036","name":"Radevormwald, Stadt auf der Höhe","type":"Stadt"},"district":{"key":"05374","name":"Oberbergischer Kreis","type":"Kreis"},"federalState":{"key":"05","name":"Nordrhein-Westfalen"}},{"name":"Hölterhofer Str.","postalCode":"42477","locality":"Radevormwald","municipality":{"key":"05374036","name":"Radevormwald, Stadt auf der Höhe","type":"Stadt"},"district":{"key":"05374","name":"Oberbergischer Kreis","type":"Kreis"},"federalState":{"key":"05","name":"Nordrhein-Westfalen"}},{"name":"Hönde","postalCode":"42477","locality":"Radevormwald","municipality":{"key":"05374036","name":"Radevormwald, Stadt auf der Höhe","type":"Stadt"},"district":{"key":"05374","name":"Oberbergischer Kreis","type":"Kreis"},"federalState":{"key":"05","name":"Nordrhein-Westfalen"}},{"name":"Hönderbruch","postalCode":"42477","locality":"Radevormwald","municipality":{"key":"05374036","name":"Radevormwald, Stadt auf der Höhe","type":"Stadt"},"district":{"key":"05374","name":"Oberbergischer Kreis","type":"Kreis"},"federalState":{"key":"05","name":"Nordrhein-Westfalen"}},{"name":"Honsberger Str.","postalCode":"42477","locality":"Radevormwald","municipality":{"key":"05374036","name":"Radevormwald, Stadt auf der Höhe","type":"Stadt"},"district":{"key":"05374","name":"Oberbergischer Kreis","type":"Kreis"},"federalState":{"key":"05","name":"Nordrhein-Westfalen"}},{"name":"Hückeswagener Str.","postalCode":"42477","locality":"Radevormwald","municipality":{"key":"05374036","name":"Radevormwald, Stadt auf der Höhe","type":"Stadt"},"district":{"key":"05374","name":"Oberbergischer Kreis","type":"Kreis"},"federalState":{"key":"05","name":"Nordrhein-Westfalen"}},{"name":"Hulverscheidt","postalCode":"42477","locality":"Radevormwald","municipality":{"key":"05374036","name":"Radevormwald, Stadt auf der Höhe","type":"Stadt"},"district":{"key":"05374","name":"Oberbergischer Kreis","type":"Kreis"},"federalState":{"key":"05","name":"Nordrhein-Westfalen"}},{"name":"III. Uelfe","postalCode":"42477","locality":"Radevormwald","municipality":{"key":"05374036","name":"Radevormwald, Stadt auf der Höhe","type":"Stadt"},"district":{"key":"05374","name":"Oberbergischer Kreis","type":"Kreis"},"federalState":{"key":"05","name":"Nordrhein-Westfalen"}},{"name":"Im Klimop","postalCode":"42477","locality":"Radevormwald","municipality":{"key":"05374036","name":"Radevormwald, Stadt auf der Höhe","type":"Stadt"},"district":{"key":"05374","name":"Oberbergischer Kreis","type":"Kreis"},"federalState":{"key":"05","name":"Nordrhein-Westfalen"}},{"name":"Im Springel","postalCode":"42477","locality":"Radevormwald","municipality":{"key":"05374036","name":"Radevormwald, Stadt auf der Höhe","type":"Stadt"},"district":{"key":"05374","name":"Oberbergischer Kreis","type":"Kreis"},"federalState":{"key":"05","name":"Nordrhein-Westfalen"}},{"name":"Im Walde","postalCode":"42477","locality":"Radevormwald","municipality":{"key":"05374036","name":"Radevormwald, Stadt auf der Höhe","type":"Stadt"},"district":{"key":"05374","name":"Oberbergischer Kreis","type":"Kreis"},"federalState":{"key":"05","name":"Nordrhein-Westfalen"}},{"name":"Im Wildental","postalCode":"42477","locality":"Radevormwald","municipality":{"key":"05374036","name":"Radevormwald, Stadt auf der Höhe","type":"Stadt"},"district":{"key":"05374","name":"Oberbergischer Kreis","type":"Kreis"},"federalState":{"key":"05","name":"Nordrhein-Westfalen"}},{"name":"In den Höfen","postalCode":"42477","locality":"Radevormwald","municipality":{"key":"05374036","name":"Radevormwald, Stadt auf der Höhe","type":"Stadt"},"district":{"key":"05374","name":"Oberbergischer Kreis","type":"Kreis"},"federalState":{"key":"05","name":"Nordrhein-Westfalen"}},{"name":"In der Heimeke","postalCode":"42477","locality":"Radevormwald","municipality":{"key":"05374036","name":"Radevormwald, Stadt auf der Höhe","type":"Stadt"},"district":{"key":"05374","name":"Oberbergischer Kreis","type":"Kreis"},"federalState":{"key":"05","name":"Nordrhein-Westfalen"}},{"name":"Industriestr.","postalCode":"42477","locality":"Radevormwald","municipality":{"key":"05374036","name":"Radevormwald, Stadt auf der Höhe","type":"Stadt"},"district":{"key":"05374","name":"Oberbergischer Kreis","type":"Kreis"},"federalState":{"key":"05","name":"Nordrhein-Westfalen"}},{"name":"Ispingrade","postalCode":"42477","locality":"Radevormwald","municipality":{"key":"05374036","name":"Radevormwald, Stadt auf der Höhe","type":"Stadt"},"district":{"key":"05374","name":"Oberbergischer Kreis","type":"Kreis"},"federalState":{"key":"05","name":"Nordrhein-Westfalen"}},{"name":"Ispingrader Str.","postalCode":"42477","locality":"Radevormwald","municipality":{"key":"05374036","name":"Radevormwald, Stadt auf der Höhe","type":"Stadt"},"district":{"key":"05374","name":"Oberbergischer Kreis","type":"Kreis"},"federalState":{"key":"05","name":"Nordrhein-Westfalen"}},{"name":"Jägershaus","postalCode":"42477","locality":"Radevormwald","municipality":{"key":"05374036","name":"Radevormwald, Stadt auf der Höhe","type":"Stadt"},"district":{"key":"05374","name":"Oberbergischer Kreis","type":"Kreis"},"federalState":{"key":"05","name":"Nordrhein-Westfalen"}},{"name":"Jahnstr.","postalCode":"42477","locality":"Radevormwald","municipality":{"key":"05374036","name":"Radevormwald, Stadt auf der Höhe","type":"Stadt"},"district":{"key":"05374","name":"Oberbergischer Kreis","type":"Kreis"},"federalState":{"key":"05","name":"Nordrhein-Westfalen"}},{"name":"Jakobsholt","postalCode":"42477","locality":"Radevormwald","municipality":{"key":"05374036","name":"Radevormwald, Stadt auf der Höhe","type":"Stadt"},"district":{"key":"05374","name":"Oberbergischer Kreis","type":"Kreis"},"federalState":{"key":"05","name":"Nordrhein-Westfalen"}},{"name":"Jung-Stilling-Weg","postalCode":"42477","locality":"Radevormwald","municipality":{"key":"05374036","name":"Radevormwald, Stadt auf der Höhe","type":"Stadt"},"district":{"key":"05374","name":"Oberbergischer Kreis","type":"Kreis"},"federalState":{"key":"05","name":"Nordrhein-Westfalen"}},{"name":"Justus-von-Liebig-Str.","postalCode":"42477","locality":"Radevormwald","municipality":{"key":"05374036","name":"Radevormwald, Stadt auf der Höhe","type":"Stadt"},"district":{"key":"05374","name":"Oberbergischer Kreis","type":"Kreis"},"federalState":{"key":"05","name":"Nordrhein-Westfalen"}},{"name":"Kaiserstr.","postalCode":"42477","locality":"Radevormwald","municipality":{"key":"05374036","name":"Radevormwald, Stadt auf der Höhe","type":"Stadt"},"district":{"key":"05374","name":"Oberbergischer Kreis","type":"Kreis"},"federalState":{"key":"05","name":"Nordrhein-Westfalen"}},{"name":"Kammgarnweg","postalCode":"42477","locality":"Radevormwald","municipality":{"key":"05374036","name":"Radevormwald, Stadt auf der Höhe","type":"Stadt"},"district":{"key":"05374","name":"Oberbergischer Kreis","type":"Kreis"},"federalState":{"key":"05","name":"Nordrhein-Westfalen"}},{"name":"Kantstr.","postalCode":"42477","locality":"Radevormwald","municipality":{"key":"05374036","name":"Radevormwald, Stadt auf der Höhe","type":"Stadt"},"district":{"key":"05374","name":"Oberbergischer Kreis","type":"Kreis"},"federalState":{"key":"05","name":"Nordrhein-Westfalen"}},{"name":"Karl-Goerdeler-Str.","postalCode":"42477","locality":"Radevormwald","municipality":{"key":"05374036","name":"Radevormwald, Stadt auf der Höhe","type":"Stadt"},"district":{"key":"05374","name":"Oberbergischer Kreis","type":"Kreis"},"federalState":{"key":"05","name":"Nordrhein-Westfalen"}},{"name":"Karl-Höltken-Weg","postalCode":"42477","locality":"Radevormwald","municipality":{"key":"05374036","name":"Radevormwald, Stadt auf der Höhe","type":"Stadt"},"district":{"key":"05374","name":"Oberbergischer Kreis","type":"Kreis"},"federalState":{"key":"05","name":"Nordrhein-Westfalen"}},{"name":"Karlshöh","postalCode":"42477","locality":"Radevormwald","municipality":{"key":"05374036","name":"Radevormwald, Stadt auf der Höhe","type":"Stadt"},"district":{"key":"05374","name":"Oberbergischer Kreis","type":"Kreis"},"federalState":{"key":"05","name":"Nordrhein-Westfalen"}},{"name":"Karpfenweg","postalCode":"42477","locality":"Radevormwald","municipality":{"key":"05374036","name":"Radevormwald, Stadt auf der Höhe","type":"Stadt"},"district":{"key":"05374","name":"Oberbergischer Kreis","type":"Kreis"},"federalState":{"key":"05","name":"Nordrhein-Westfalen"}},{"name":"Karthausen","postalCode":"42477","locality":"Radevormwald","municipality":{"key":"05374036","name":"Radevormwald, Stadt auf der Höhe","type":"Stadt"},"district":{"key":"05374","name":"Oberbergischer Kreis","type":"Kreis"},"federalState":{"key":"05","name":"Nordrhein-Westfalen"}},{"name":"Kästnerstr.","postalCode":"42477","locality":"Radevormwald","municipality":{"key":"05374036","name":"Radevormwald, Stadt auf der Höhe","type":"Stadt"},"district":{"key":"05374","name":"Oberbergischer Kreis","type":"Kreis"},"federalState":{"key":"05","name":"Nordrhein-Westfalen"}},{"name":"Käthe-Paulus-Str.","postalCode":"42477","locality":"Radevormwald","municipality":{"key":"05374036","name":"Radevormwald, Stadt auf der Höhe","type":"Stadt"},"district":{"key":"05374","name":"Oberbergischer Kreis","type":"Kreis"},"federalState":{"key":"05","name":"Nordrhein-Westfalen"}},{"name":"Kattenbusch","postalCode":"42477","locality":"Radevormwald","municipality":{"key":"05374036","name":"Radevormwald, Stadt auf der Höhe","type":"Stadt"},"district":{"key":"05374","name":"Oberbergischer Kreis","type":"Kreis"},"federalState":{"key":"05","name":"Nordrhein-Westfalen"}},{"name":"Keilbecker Str.","postalCode":"42477","locality":"Radevormwald","municipality":{"key":"05374036","name":"Radevormwald, Stadt auf der Höhe","type":"Stadt"},"district":{"key":"05374","name":"Oberbergischer Kreis","type":"Kreis"},"federalState":{"key":"05","name":"Nordrhein-Westfalen"}},{"name":"Kettlershaus","postalCode":"42477","locality":"Radevormwald","municipality":{"key":"05374036","name":"Radevormwald, Stadt auf der Höhe","type":"Stadt"},"district":{"key":"05374","name":"Oberbergischer Kreis","type":"Kreis"},"federalState":{"key":"05","name":"Nordrhein-Westfalen"}},{"name":"Kiefernweg","postalCode":"42477","locality":"Radevormwald","municipality":{"key":"05374036","name":"Radevormwald, Stadt auf der Höhe","type":"Stadt"},"district":{"key":"05374","name":"Oberbergischer Kreis","type":"Kreis"},"federalState":{"key":"05","name":"Nordrhein-Westfalen"}},{"name":"Kirchstr.","postalCode":"42477","locality":"Radevormwald","municipality":{"key":"05374036","name":"Radevormwald, Stadt auf der Höhe","type":"Stadt"},"district":{"key":"05374","name":"Oberbergischer Kreis","type":"Kreis"},"federalState":{"key":"05","name":"Nordrhein-Westfalen"}},{"name":"Klaukenburg","postalCode":"42477","locality":"Radevormwald","municipality":{"key":"05374036","name":"Radevormwald, Stadt auf der Höhe","type":"Stadt"},"district":{"key":"05374","name":"Oberbergischer Kreis","type":"Kreis"},"federalState":{"key":"05","name":"Nordrhein-Westfalen"}},{"name":"Knefelskamp","postalCode":"42477","locality":"Radevormwald","municipality":{"key":"05374036","name":"Radevormwald, Stadt auf der Höhe","type":"Stadt"},"district":{"key":"05374","name":"Oberbergischer Kreis","type":"Kreis"},"federalState":{"key":"05","name":"Nordrhein-Westfalen"}},{"name":"Kohlstr.","postalCode":"42477","locality":"Radevormwald","municipality":{"key":"05374036","name":"Radevormwald, Stadt auf der Höhe","type":"Stadt"},"district":{"key":"05374","name":"Oberbergischer Kreis","type":"Kreis"},"federalState":{"key":"05","name":"Nordrhein-Westfalen"}},{"name":"Kölner Str.","postalCode":"42477","locality":"Radevormwald","municipality":{"key":"05374036","name":"Radevormwald, Stadt auf der Höhe","type":"Stadt"},"district":{"key":"05374","name":"Oberbergischer Kreis","type":"Kreis"},"federalState":{"key":"05","name":"Nordrhein-Westfalen"}},{"name":"Kolpingstr.","postalCode":"42477","locality":"Radevormwald","municipality":{"key":"05374036","name":"Radevormwald, Stadt auf der Höhe","type":"Stadt"},"district":{"key":"05374","name":"Oberbergischer Kreis","type":"Kreis"},"federalState":{"key":"05","name":"Nordrhein-Westfalen"}},{"name":"Kottenstr.","postalCode":"42477","locality":"Radevormwald","municipality":{"key":"05374036","name":"Radevormwald, Stadt auf der Höhe","type":"Stadt"},"district":{"key":"05374","name":"Oberbergischer Kreis","type":"Kreis"},"federalState":{"key":"05","name":"Nordrhein-Westfalen"}},{"name":"Köttershaus","postalCode":"42477","locality":"Radevormwald","municipality":{"key":"05374036","name":"Radevormwald, Stadt auf der Höhe","type":"Stadt"},"district":{"key":"05374","name":"Oberbergischer Kreis","type":"Kreis"},"federalState":{"key":"05","name":"Nordrhein-Westfalen"}},{"name":"Krankenhausstr.","postalCode":"42477","locality":"Radevormwald","municipality":{"key":"05374036","name":"Radevormwald, Stadt auf der Höhe","type":"Stadt"},"district":{"key":"05374","name":"Oberbergischer Kreis","type":"Kreis"},"federalState":{"key":"05","name":"Nordrhein-Westfalen"}},{"name":"Kräwinkel","postalCode":"42477","locality":"Radevormwald","municipality":{"key":"05374036","name":"Radevormwald, Stadt auf der Höhe","type":"Stadt"},"district":{"key":"05374","name":"Oberbergischer Kreis","type":"Kreis"},"federalState":{"key":"05","name":"Nordrhein-Westfalen"}},{"name":"Krebsöge","postalCode":"42477","locality":"Radevormwald","municipality":{"key":"05374036","name":"Radevormwald, Stadt auf der Höhe","type":"Stadt"},"district":{"key":"05374","name":"Oberbergischer Kreis","type":"Kreis"},"federalState":{"key":"05","name":"Nordrhein-Westfalen"}},{"name":"Krebsögersteg","postalCode":"42477","locality":"Radevormwald","municipality":{"key":"05374036","name":"Radevormwald, Stadt auf der Höhe","type":"Stadt"},"district":{"key":"05374","name":"Oberbergischer Kreis","type":"Kreis"},"federalState":{"key":"05","name":"Nordrhein-Westfalen"}},{"name":"Kreuzstr.","postalCode":"42477","locality":"Radevormwald","municipality":{"key":"05374036","name":"Radevormwald, Stadt auf der Höhe","type":"Stadt"},"district":{"key":"05374","name":"Oberbergischer Kreis","type":"Kreis"},"federalState":{"key":"05","name":"Nordrhein-Westfalen"}},{"name":"Kronenberg","postalCode":"42477","locality":"Radevormwald","municipality":{"key":"05374036","name":"Radevormwald, Stadt auf der Höhe","type":"Stadt"},"district":{"key":"05374","name":"Oberbergischer Kreis","type":"Kreis"},"federalState":{"key":"05","name":"Nordrhein-Westfalen"}},{"name":"Kurze Str.","postalCode":"42477","locality":"Radevormwald","municipality":{"key":"05374036","name":"Radevormwald, Stadt auf der Höhe","type":"Stadt"},"district":{"key":"05374","name":"Oberbergischer Kreis","type":"Kreis"},"federalState":{"key":"05","name":"Nordrhein-Westfalen"}},{"name":"Laakbaum","postalCode":"42477","locality":"Radevormwald","municipality":{"key":"05374036","name":"Radevormwald, Stadt auf der Höhe","type":"Stadt"},"district":{"key":"05374","name":"Oberbergischer Kreis","type":"Kreis"},"federalState":{"key":"05","name":"Nordrhein-Westfalen"}},{"name":"Laaker Felder","postalCode":"42477","locality":"Radevormwald","municipality":{"key":"05374036","name":"Radevormwald, Stadt auf der Höhe","type":"Stadt"},"district":{"key":"05374","name":"Oberbergischer Kreis","type":"Kreis"},"federalState":{"key":"05","name":"Nordrhein-Westfalen"}},{"name":"Lambecker Mühle","postalCode":"42477","locality":"Radevormwald","municipality":{"key":"05374036","name":"Radevormwald, Stadt auf der Höhe","type":"Stadt"},"district":{"key":"05374","name":"Oberbergischer Kreis","type":"Kreis"},"federalState":{"key":"05","name":"Nordrhein-Westfalen"}},{"name":"Langenkamp","postalCode":"42477","locality":"Radevormwald","municipality":{"key":"05374036","name":"Radevormwald, Stadt auf der Höhe","type":"Stadt"},"district":{"key":"05374","name":"Oberbergischer Kreis","type":"Kreis"},"federalState":{"key":"05","name":"Nordrhein-Westfalen"}},{"name":"Leimhol","postalCode":"42477","locality":"Radevormwald","municipality":{"key":"05374036","name":"Radevormwald, Stadt auf der Höhe","type":"Stadt"},"district":{"key":"05374","name":"Oberbergischer Kreis","type":"Kreis"},"federalState":{"key":"05","name":"Nordrhein-Westfalen"}},{"name":"Leimholer Str.","postalCode":"42477","locality":"Radevormwald","municipality":{"key":"05374036","name":"Radevormwald, Stadt auf der Höhe","type":"Stadt"},"district":{"key":"05374","name":"Oberbergischer Kreis","type":"Kreis"},"federalState":{"key":"05","name":"Nordrhein-Westfalen"}},{"name":"Lerchenweg","postalCode":"42477","locality":"Radevormwald","municipality":{"key":"05374036","name":"Radevormwald, Stadt auf der Höhe","type":"Stadt"},"district":{"key":"05374","name":"Oberbergischer Kreis","type":"Kreis"},"federalState":{"key":"05","name":"Nordrhein-Westfalen"}},{"name":"Lessingstr.","postalCode":"42477","locality":"Radevormwald","municipality":{"key":"05374036","name":"Radevormwald, Stadt auf der Höhe","type":"Stadt"},"district":{"key":"05374","name":"Oberbergischer Kreis","type":"Kreis"},"federalState":{"key":"05","name":"Nordrhein-Westfalen"}},{"name":"Leye","postalCode":"42477","locality":"Radevormwald","municipality":{"key":"05374036","name":"Radevormwald, Stadt auf der Höhe","type":"Stadt"},"district":{"key":"05374","name":"Oberbergischer Kreis","type":"Kreis"},"federalState":{"key":"05","name":"Nordrhein-Westfalen"}},{"name":"Lichteneichen","postalCode":"42477","locality":"Radevormwald","municipality":{"key":"05374036","name":"Radevormwald, Stadt auf der Höhe","type":"Stadt"},"district":{"key":"05374","name":"Oberbergischer Kreis","type":"Kreis"},"federalState":{"key":"05","name":"Nordrhein-Westfalen"}},{"name":"Linde","postalCode":"42477","locality":"Radevormwald","municipality":{"key":"05374036","name":"Radevormwald, Stadt auf der Höhe","type":"Stadt"},"district":{"key":"05374","name":"Oberbergischer Kreis","type":"Kreis"},"federalState":{"key":"05","name":"Nordrhein-Westfalen"}},{"name":"Lindenstr.","postalCode":"42477","locality":"Radevormwald","municipality":{"key":"05374036","name":"Radevormwald, Stadt auf der Höhe","type":"Stadt"},"district":{"key":"05374","name":"Oberbergischer Kreis","type":"Kreis"},"federalState":{"key":"05","name":"Nordrhein-Westfalen"}},{"name":"Lohengrinstr.","postalCode":"42477","locality":"Radevormwald","municipality":{"key":"05374036","name":"Radevormwald, Stadt auf der Höhe","type":"Stadt"},"district":{"key":"05374","name":"Oberbergischer Kreis","type":"Kreis"},"federalState":{"key":"05","name":"Nordrhein-Westfalen"}},{"name":"Lorenzhaus","postalCode":"42477","locality":"Radevormwald","municipality":{"key":"05374036","name":"Radevormwald, Stadt auf der Höhe","type":"Stadt"},"district":{"key":"05374","name":"Oberbergischer Kreis","type":"Kreis"},"federalState":{"key":"05","name":"Nordrhein-Westfalen"}},{"name":"Ludwig-Beck-Str.","postalCode":"42477","locality":"Radevormwald","municipality":{"key":"05374036","name":"Radevormwald, Stadt auf der Höhe","type":"Stadt"},"district":{"key":"05374","name":"Oberbergischer Kreis","type":"Kreis"},"federalState":{"key":"05","name":"Nordrhein-Westfalen"}},{"name":"Maisstr.","postalCode":"42477","locality":"Radevormwald","municipality":{"key":"05374036","name":"Radevormwald, Stadt auf der Höhe","type":"Stadt"},"district":{"key":"05374","name":"Oberbergischer Kreis","type":"Kreis"},"federalState":{"key":"05","name":"Nordrhein-Westfalen"}},{"name":"Margaretenstr.","postalCode":"42477","locality":"Radevormwald","municipality":{"key":"05374036","name":"Radevormwald, Stadt auf der Höhe","type":"Stadt"},"district":{"key":"05374","name":"Oberbergischer Kreis","type":"Kreis"},"federalState":{"key":"05","name":"Nordrhein-Westfalen"}},{"name":"Mermbacher Str.","postalCode":"42477","locality":"Radevormwald","municipality":{"key":"05374036","name":"Radevormwald, Stadt auf der Höhe","type":"Stadt"},"district":{"key":"05374","name":"Oberbergischer Kreis","type":"Kreis"},"federalState":{"key":"05","name":"Nordrhein-Westfalen"}},{"name":"Milspe","postalCode":"42477","locality":"Radevormwald","municipality":{"key":"05374036","name":"Radevormwald, Stadt auf der Höhe","type":"Stadt"},"district":{"key":"05374","name":"Oberbergischer Kreis","type":"Kreis"},"federalState":{"key":"05","name":"Nordrhein-Westfalen"}},{"name":"Mittelstr.","postalCode":"42477","locality":"Radevormwald","municipality":{"key":"05374036","name":"Radevormwald, Stadt auf der Höhe","type":"Stadt"},"district":{"key":"05374","name":"Oberbergischer Kreis","type":"Kreis"},"federalState":{"key":"05","name":"Nordrhein-Westfalen"}},{"name":"Möllersbaum","postalCode":"42477","locality":"Radevormwald","municipality":{"key":"05374036","name":"Radevormwald, Stadt auf der Höhe","type":"Stadt"},"district":{"key":"05374","name":"Oberbergischer Kreis","type":"Kreis"},"federalState":{"key":"05","name":"Nordrhein-Westfalen"}},{"name":"Montanusplatz","postalCode":"42477","locality":"Radevormwald","municipality":{"key":"05374036","name":"Radevormwald, Stadt auf der Höhe","type":"Stadt"},"district":{"key":"05374","name":"Oberbergischer Kreis","type":"Kreis"},"federalState":{"key":"05","name":"Nordrhein-Westfalen"}},{"name":"Mozartstr.","postalCode":"42477","locality":"Radevormwald","municipality":{"key":"05374036","name":"Radevormwald, Stadt auf der Höhe","type":"Stadt"},"district":{"key":"05374","name":"Oberbergischer Kreis","type":"Kreis"},"federalState":{"key":"05","name":"Nordrhein-Westfalen"}},{"name":"Mühlenstr.","postalCode":"42477","locality":"Radevormwald","municipality":{"key":"05374036","name":"Radevormwald, Stadt auf der Höhe","type":"Stadt"},"district":{"key":"05374","name":"Oberbergischer Kreis","type":"Kreis"},"federalState":{"key":"05","name":"Nordrhein-Westfalen"}},{"name":"Neißestr.","postalCode":"42477","locality":"Radevormwald","municipality":{"key":"05374036","name":"Radevormwald, Stadt auf der Höhe","type":"Stadt"},"district":{"key":"05374","name":"Oberbergischer Kreis","type":"Kreis"},"federalState":{"key":"05","name":"Nordrhein-Westfalen"}},{"name":"Nelkenstr.","postalCode":"42477","locality":"Radevormwald","municipality":{"key":"05374036","name":"Radevormwald, Stadt auf der Höhe","type":"Stadt"},"district":{"key":"05374","name":"Oberbergischer Kreis","type":"Kreis"},"federalState":{"key":"05","name":"Nordrhein-Westfalen"}},{"name":"Neue Landstr.","postalCode":"42477","locality":"Radevormwald","municipality":{"key":"05374036","name":"Radevormwald, Stadt auf der Höhe","type":"Stadt"},"district":{"key":"05374","name":"Oberbergischer Kreis","type":"Kreis"},"federalState":{"key":"05","name":"Nordrhein-Westfalen"}},{"name":"Neuland","postalCode":"42477","locality":"Radevormwald","municipality":{"key":"05374036","name":"Radevormwald, Stadt auf der Höhe","type":"Stadt"},"district":{"key":"05374","name":"Oberbergischer Kreis","type":"Kreis"},"federalState":{"key":"05","name":"Nordrhein-Westfalen"}},{"name":"Neustr.","postalCode":"42477","locality":"Radevormwald","municipality":{"key":"05374036","name":"Radevormwald, Stadt auf der Höhe","type":"Stadt"},"district":{"key":"05374","name":"Oberbergischer Kreis","type":"Kreis"},"federalState":{"key":"05","name":"Nordrhein-Westfalen"}},{"name":"Nibelungenstr.","postalCode":"42477","locality":"Radevormwald","municipality":{"key":"05374036","name":"Radevormwald, Stadt auf der Höhe","type":"Stadt"},"district":{"key":"05374","name":"Oberbergischer Kreis","type":"Kreis"},"federalState":{"key":"05","name":"Nordrhein-Westfalen"}},{"name":"Niederdahl","postalCode":"42477","locality":"Radevormwald","municipality":{"key":"05374036","name":"Radevormwald, Stadt auf der Höhe","type":"Stadt"},"district":{"key":"05374","name":"Oberbergischer Kreis","type":"Kreis"},"federalState":{"key":"05","name":"Nordrhein-Westfalen"}},{"name":"Niedernfeld","postalCode":"42477","locality":"Radevormwald","municipality":{"key":"05374036","name":"Radevormwald, Stadt auf der Höhe","type":"Stadt"},"district":{"key":"05374","name":"Oberbergischer Kreis","type":"Kreis"},"federalState":{"key":"05","name":"Nordrhein-Westfalen"}},{"name":"Niederwönkhausen","postalCode":"42477","locality":"Radevormwald","municipality":{"key":"05374036","name":"Radevormwald, Stadt auf der Höhe","type":"Stadt"},"district":{"key":"05374","name":"Oberbergischer Kreis","type":"Kreis"},"federalState":{"key":"05","name":"Nordrhein-Westfalen"}},{"name":"Nordstr.","postalCode":"42477","locality":"Radevormwald","municipality":{"key":"05374036","name":"Radevormwald, Stadt auf der Höhe","type":"Stadt"},"district":{"key":"05374","name":"Oberbergischer Kreis","type":"Kreis"},"federalState":{"key":"05","name":"Nordrhein-Westfalen"}},{"name":"Oberbuschsiepen","postalCode":"42477","locality":"Radevormwald","municipality":{"key":"05374036","name":"Radevormwald, Stadt auf der Höhe","type":"Stadt"},"district":{"key":"05374","name":"Oberbergischer Kreis","type":"Kreis"},"federalState":{"key":"05","name":"Nordrhein-Westfalen"}},{"name":"Oberdahl","postalCode":"42477","locality":"Radevormwald","municipality":{"key":"05374036","name":"Radevormwald, Stadt auf der Höhe","type":"Stadt"},"district":{"key":"05374","name":"Oberbergischer Kreis","type":"Kreis"},"federalState":{"key":"05","name":"Nordrhein-Westfalen"}},{"name":"Oberdahlhausen","postalCode":"42477","locality":"Radevormwald","municipality":{"key":"05374036","name":"Radevormwald, Stadt auf der Höhe","type":"Stadt"},"district":{"key":"05374","name":"Oberbergischer Kreis","type":"Kreis"},"federalState":{"key":"05","name":"Nordrhein-Westfalen"}},{"name":"Obergrunewald","postalCode":"42477","locality":"Radevormwald","municipality":{"key":"05374036","name":"Radevormwald, Stadt auf der Höhe","type":"Stadt"},"district":{"key":"05374","name":"Oberbergischer Kreis","type":"Kreis"},"federalState":{"key":"05","name":"Nordrhein-Westfalen"}},{"name":"Oberkarthausen","postalCode":"42477","locality":"Radevormwald","municipality":{"key":"05374036","name":"Radevormwald, Stadt auf der Höhe","type":"Stadt"},"district":{"key":"05374","name":"Oberbergischer Kreis","type":"Kreis"},"federalState":{"key":"05","name":"Nordrhein-Westfalen"}},{"name":"Oberm Kümpel","postalCode":"42477","locality":"Radevormwald","municipality":{"key":"05374036","name":"Radevormwald, Stadt auf der Höhe","type":"Stadt"},"district":{"key":"05374","name":"Oberbergischer Kreis","type":"Kreis"},"federalState":{"key":"05","name":"Nordrhein-Westfalen"}},{"name":"Oberönkfeld","postalCode":"42477","locality":"Radevormwald","municipality":{"key":"05374036","name":"Radevormwald, Stadt auf der Höhe","type":"Stadt"},"district":{"key":"05374","name":"Oberbergischer Kreis","type":"Kreis"},"federalState":{"key":"05","name":"Nordrhein-Westfalen"}},{"name":"Oderstr.","postalCode":"42477","locality":"Radevormwald","municipality":{"key":"05374036","name":"Radevormwald, Stadt auf der Höhe","type":"Stadt"},"district":{"key":"05374","name":"Oberbergischer Kreis","type":"Kreis"},"federalState":{"key":"05","name":"Nordrhein-Westfalen"}},{"name":"Oede-Schlenke","postalCode":"42477","locality":"Radevormwald","municipality":{"key":"05374036","name":"Radevormwald, Stadt auf der Höhe","type":"Stadt"},"district":{"key":"05374","name":"Oberbergischer Kreis","type":"Kreis"},"federalState":{"key":"05","name":"Nordrhein-Westfalen"}},{"name":"Oststr.","postalCode":"42477","locality":"Radevormwald","municipality":{"key":"05374036","name":"Radevormwald, Stadt auf der Höhe","type":"Stadt"},"district":{"key":"05374","name":"Oberbergischer Kreis","type":"Kreis"},"federalState":{"key":"05","name":"Nordrhein-Westfalen"}},{"name":"Parc de Châteaubriant","postalCode":"42477","locality":"Radevormwald","municipality":{"key":"05374036","name":"Radevormwald, Stadt auf der Höhe","type":"Stadt"},"district":{"key":"05374","name":"Oberbergischer Kreis","type":"Kreis"},"federalState":{"key":"05","name":"Nordrhein-Westfalen"}},{"name":"Pastoratshof","postalCode":"42477","locality":"Radevormwald","municipality":{"key":"05374036","name":"Radevormwald, Stadt auf der Höhe","type":"Stadt"},"district":{"key":"05374","name":"Oberbergischer Kreis","type":"Kreis"},"federalState":{"key":"05","name":"Nordrhein-Westfalen"}},{"name":"Paul-Wellershaus-Weg","postalCode":"42477","locality":"Radevormwald","municipality":{"key":"05374036","name":"Radevormwald, Stadt auf der Höhe","type":"Stadt"},"district":{"key":"05374","name":"Oberbergischer Kreis","type":"Kreis"},"federalState":{"key":"05","name":"Nordrhein-Westfalen"}},{"name":"Poststr.","postalCode":"42477","locality":"Radevormwald","municipality":{"key":"05374036","name":"Radevormwald, Stadt auf der Höhe","type":"Stadt"},"district":{"key":"05374","name":"Oberbergischer Kreis","type":"Kreis"},"federalState":{"key":"05","name":"Nordrhein-Westfalen"}},{"name":"Quellenweg","postalCode":"42477","locality":"Radevormwald","municipality":{"key":"05374036","name":"Radevormwald, Stadt auf der Höhe","type":"Stadt"},"district":{"key":"05374","name":"Oberbergischer Kreis","type":"Kreis"},"federalState":{"key":"05","name":"Nordrhein-Westfalen"}},{"name":"Raderberg","postalCode":"42477","locality":"Radevormwald","municipality":{"key":"05374036","name":"Radevormwald, Stadt auf der Höhe","type":"Stadt"},"district":{"key":"05374","name":"Oberbergischer Kreis","type":"Kreis"},"federalState":{"key":"05","name":"Nordrhein-Westfalen"}},{"name":"Rädereichen","postalCode":"42477","locality":"Radevormwald","municipality":{"key":"05374036","name":"Radevormwald, Stadt auf der Höhe","type":"Stadt"},"district":{"key":"05374","name":"Oberbergischer Kreis","type":"Kreis"},"federalState":{"key":"05","name":"Nordrhein-Westfalen"}},{"name":"Rader Str.","postalCode":"42477","locality":"Radevormwald","municipality":{"key":"05374036","name":"Radevormwald, Stadt auf der Höhe","type":"Stadt"},"district":{"key":"05374","name":"Oberbergischer Kreis","type":"Kreis"},"federalState":{"key":"05","name":"Nordrhein-Westfalen"}},{"name":"Rechelsiepen","postalCode":"42477","locality":"Radevormwald","municipality":{"key":"05374036","name":"Radevormwald, Stadt auf der Höhe","type":"Stadt"},"district":{"key":"05374","name":"Oberbergischer Kreis","type":"Kreis"},"federalState":{"key":"05","name":"Nordrhein-Westfalen"}},{"name":"Remlingrade","postalCode":"42477","locality":"Radevormwald","municipality":{"key":"05374036","name":"Radevormwald, Stadt auf der Höhe","type":"Stadt"},"district":{"key":"05374","name":"Oberbergischer Kreis","type":"Kreis"},"federalState":{"key":"05","name":"Nordrhein-Westfalen"}},{"name":"Richard-Wagner-Str.","postalCode":"42477","locality":"Radevormwald","municipality":{"key":"05374036","name":"Radevormwald, Stadt auf der Höhe","type":"Stadt"},"district":{"key":"05374","name":"Oberbergischer Kreis","type":"Kreis"},"federalState":{"key":"05","name":"Nordrhein-Westfalen"}},{"name":"Ritter-von-Halt-Str.","postalCode":"42477","locality":"Radevormwald","municipality":{"key":"05374036","name":"Radevormwald, Stadt auf der Höhe","type":"Stadt"},"district":{"key":"05374","name":"Oberbergischer Kreis","type":"Kreis"},"federalState":{"key":"05","name":"Nordrhein-Westfalen"}},{"name":"Rochollstr.","postalCode":"42477","locality":"Radevormwald","municipality":{"key":"05374036","name":"Radevormwald, Stadt auf der Höhe","type":"Stadt"},"district":{"key":"05374","name":"Oberbergischer Kreis","type":"Kreis"},"federalState":{"key":"05","name":"Nordrhein-Westfalen"}},{"name":"Roggenstr.","postalCode":"42477","locality":"Radevormwald","municipality":{"key":"05374036","name":"Radevormwald, Stadt auf der Höhe","type":"Stadt"},"district":{"key":"05374","name":"Oberbergischer Kreis","type":"Kreis"},"federalState":{"key":"05","name":"Nordrhein-Westfalen"}},{"name":"Röntgenstr.","postalCode":"42477","locality":"Radevormwald","municipality":{"key":"05374036","name":"Radevormwald, Stadt auf der Höhe","type":"Stadt"},"district":{"key":"05374","name":"Oberbergischer Kreis","type":"Kreis"},"federalState":{"key":"05","name":"Nordrhein-Westfalen"}},{"name":"Rosenstr.","postalCode":"42477","locality":"Radevormwald","municipality":{"key":"05374036","name":"Radevormwald, Stadt auf der Höhe","type":"Stadt"},"district":{"key":"05374","name":"Oberbergischer Kreis","type":"Kreis"},"federalState":{"key":"05","name":"Nordrhein-Westfalen"}},{"name":"Rudolf-Diesel-Str.","postalCode":"42477","locality":"Radevormwald","municipality":{"key":"05374036","name":"Radevormwald, Stadt auf der Höhe","type":"Stadt"},"district":{"key":"05374","name":"Oberbergischer Kreis","type":"Kreis"},"federalState":{"key":"05","name":"Nordrhein-Westfalen"}},{"name":"Rudolf-Harbig-Str.","postalCode":"42477","locality":"Radevormwald","municipality":{"key":"05374036","name":"Radevormwald, Stadt auf der Höhe","type":"Stadt"},"district":{"key":"05374","name":"Oberbergischer Kreis","type":"Kreis"},"federalState":{"key":"05","name":"Nordrhein-Westfalen"}},{"name":"Scheidt","postalCode":"42477","locality":"Radevormwald","municipality":{"key":"05374036","name":"Radevormwald, Stadt auf der Höhe","type":"Stadt"},"district":{"key":"05374","name":"Oberbergischer Kreis","type":"Kreis"},"federalState":{"key":"05","name":"Nordrhein-Westfalen"}},{"name":"Schillerstr.","postalCode":"42477","locality":"Radevormwald","municipality":{"key":"05374036","name":"Radevormwald, Stadt auf der Höhe","type":"Stadt"},"district":{"key":"05374","name":"Oberbergischer Kreis","type":"Kreis"},"federalState":{"key":"05","name":"Nordrhein-Westfalen"}},{"name":"Schleienweg","postalCode":"42477","locality":"Radevormwald","municipality":{"key":"05374036","name":"Radevormwald, Stadt auf der Höhe","type":"Stadt"},"district":{"key":"05374","name":"Oberbergischer Kreis","type":"Kreis"},"federalState":{"key":"05","name":"Nordrhein-Westfalen"}},{"name":"Schmittensiepen","postalCode":"42477","locality":"Radevormwald","municipality":{"key":"05374036","name":"Radevormwald, Stadt auf der Höhe","type":"Stadt"},"district":{"key":"05374","name":"Oberbergischer Kreis","type":"Kreis"},"federalState":{"key":"05","name":"Nordrhein-Westfalen"}},{"name":"Schröderweg","postalCode":"42477","locality":"Radevormwald","municipality":{"key":"05374036","name":"Radevormwald, Stadt auf der Höhe","type":"Stadt"},"district":{"key":"05374","name":"Oberbergischer Kreis","type":"Kreis"},"federalState":{"key":"05","name":"Nordrhein-Westfalen"}},{"name":"Schüttendeich","postalCode":"42477","locality":"Radevormwald","municipality":{"key":"05374036","name":"Radevormwald, Stadt auf der Höhe","type":"Stadt"},"district":{"key":"05374","name":"Oberbergischer Kreis","type":"Kreis"},"federalState":{"key":"05","name":"Nordrhein-Westfalen"}},{"name":"Schützenstr.","postalCode":"42477","locality":"Radevormwald","municipality":{"key":"05374036","name":"Radevormwald, Stadt auf der Höhe","type":"Stadt"},"district":{"key":"05374","name":"Oberbergischer Kreis","type":"Kreis"},"federalState":{"key":"05","name":"Nordrhein-Westfalen"}},{"name":"Siedlungsweg","postalCode":"42477","locality":"Radevormwald","municipality":{"key":"05374036","name":"Radevormwald, Stadt auf der Höhe","type":"Stadt"},"district":{"key":"05374","name":"Oberbergischer Kreis","type":"Kreis"},"federalState":{"key":"05","name":"Nordrhein-Westfalen"}},{"name":"Siepenstr.","postalCode":"42477","locality":"Radevormwald","municipality":{"key":"05374036","name":"Radevormwald, Stadt auf der Höhe","type":"Stadt"},"district":{"key":"05374","name":"Oberbergischer Kreis","type":"Kreis"},"federalState":{"key":"05","name":"Nordrhein-Westfalen"}},{"name":"Sondern","postalCode":"42477","locality":"Radevormwald","municipality":{"key":"05374036","name":"Radevormwald, Stadt auf der Höhe","type":"Stadt"},"district":{"key":"05374","name":"Oberbergischer Kreis","type":"Kreis"},"federalState":{"key":"05","name":"Nordrhein-Westfalen"}},{"name":"Stauffenbergstr.","postalCode":"42477","locality":"Radevormwald","municipality":{"key":"05374036","name":"Radevormwald, Stadt auf der Höhe","type":"Stadt"},"district":{"key":"05374","name":"Oberbergischer Kreis","type":"Kreis"},"federalState":{"key":"05","name":"Nordrhein-Westfalen"}},{"name":"Stoote","postalCode":"42477","locality":"Radevormwald","municipality":{"key":"05374036","name":"Radevormwald, Stadt auf der Höhe","type":"Stadt"},"district":{"key":"05374","name":"Oberbergischer Kreis","type":"Kreis"},"federalState":{"key":"05","name":"Nordrhein-Westfalen"}},{"name":"Stooter Mühle","postalCode":"42477","locality":"Radevormwald","municipality":{"key":"05374036","name":"Radevormwald, Stadt auf der Höhe","type":"Stadt"},"district":{"key":"05374","name":"Oberbergischer Kreis","type":"Kreis"},"federalState":{"key":"05","name":"Nordrhein-Westfalen"}},{"name":"Stormstr.","postalCode":"42477","locality":"Radevormwald","municipality":{"key":"05374036","name":"Radevormwald, Stadt auf der Höhe","type":"Stadt"},"district":{"key":"05374","name":"Oberbergischer Kreis","type":"Kreis"},"federalState":{"key":"05","name":"Nordrhein-Westfalen"}},{"name":"Talsperrenweg","postalCode":"42477","locality":"Radevormwald","municipality":{"key":"05374036","name":"Radevormwald, Stadt auf der Höhe","type":"Stadt"},"district":{"key":"05374","name":"Oberbergischer Kreis","type":"Kreis"},"federalState":{"key":"05","name":"Nordrhein-Westfalen"}},{"name":"Tannenbergweg","postalCode":"42477","locality":"Radevormwald","municipality":{"key":"05374036","name":"Radevormwald, Stadt auf der Höhe","type":"Stadt"},"district":{"key":"05374","name":"Oberbergischer Kreis","type":"Kreis"},"federalState":{"key":"05","name":"Nordrhein-Westfalen"}},{"name":"Tannhäuserweg","postalCode":"42477","locality":"Radevormwald","municipality":{"key":"05374036","name":"Radevormwald, Stadt auf der Höhe","type":"Stadt"},"district":{"key":"05374","name":"Oberbergischer Kreis","type":"Kreis"},"federalState":{"key":"05","name":"Nordrhein-Westfalen"}},{"name":"Telegrafenstr.","postalCode":"42477","locality":"Radevormwald","municipality":{"key":"05374036","name":"Radevormwald, Stadt auf der Höhe","type":"Stadt"},"district":{"key":"05374","name":"Oberbergischer Kreis","type":"Kreis"},"federalState":{"key":"05","name":"Nordrhein-Westfalen"}},{"name":"Tiefestr.","postalCode":"42477","locality":"Radevormwald","municipality":{"key":"05374036","name":"Radevormwald, Stadt auf der Höhe","type":"Stadt"},"district":{"key":"05374","name":"Oberbergischer Kreis","type":"Kreis"},"federalState":{"key":"05","name":"Nordrhein-Westfalen"}},{"name":"Tuchstr.","postalCode":"42477","locality":"Radevormwald","municipality":{"key":"05374036","name":"Radevormwald, Stadt auf der Höhe","type":"Stadt"},"district":{"key":"05374","name":"Oberbergischer Kreis","type":"Kreis"},"federalState":{"key":"05","name":"Nordrhein-Westfalen"}},{"name":"Uelfebad","postalCode":"42477","locality":"Radevormwald","municipality":{"key":"05374036","name":"Radevormwald, Stadt auf der Höhe","type":"Stadt"},"district":{"key":"05374","name":"Oberbergischer Kreis","type":"Kreis"},"federalState":{"key":"05","name":"Nordrhein-Westfalen"}},{"name":"Uelfestr.","postalCode":"42477","locality":"Radevormwald","municipality":{"key":"05374036","name":"Radevormwald, Stadt auf der Höhe","type":"Stadt"},"district":{"key":"05374","name":"Oberbergischer Kreis","type":"Kreis"},"federalState":{"key":"05","name":"Nordrhein-Westfalen"}},{"name":"Uelfe-Wuppertal-Str.","postalCode":"42477","locality":"Radevormwald","municipality":{"key":"05374036","name":"Radevormwald, Stadt auf der Höhe","type":"Stadt"},"district":{"key":"05374","name":"Oberbergischer Kreis","type":"Kreis"},"federalState":{"key":"05","name":"Nordrhein-Westfalen"}},{"name":"Uhlandstr.","postalCode":"42477","locality":"Radevormwald","municipality":{"key":"05374036","name":"Radevormwald, Stadt auf der Höhe","type":"Stadt"},"district":{"key":"05374","name":"Oberbergischer Kreis","type":"Kreis"},"federalState":{"key":"05","name":"Nordrhein-Westfalen"}},{"name":"Vogelshaus","postalCode":"42477","locality":"Radevormwald","municipality":{"key":"05374036","name":"Radevormwald, Stadt auf der Höhe","type":"Stadt"},"district":{"key":"05374","name":"Oberbergischer Kreis","type":"Kreis"},"federalState":{"key":"05","name":"Nordrhein-Westfalen"}},{"name":"Vogelsmühle","postalCode":"42477","locality":"Radevormwald","municipality":{"key":"05374036","name":"Radevormwald, Stadt auf der Höhe","type":"Stadt"},"district":{"key":"05374","name":"Oberbergischer Kreis","type":"Kreis"},"federalState":{"key":"05","name":"Nordrhein-Westfalen"}},{"name":"Vor der Mark","postalCode":"42477","locality":"Radevormwald","municipality":{"key":"05374036","name":"Radevormwald, Stadt auf der Höhe","type":"Stadt"},"district":{"key":"05374","name":"Oberbergischer Kreis","type":"Kreis"},"federalState":{"key":"05","name":"Nordrhein-Westfalen"}},{"name":"Vorm Baum","postalCode":"42477","locality":"Radevormwald","municipality":{"key":"05374036","name":"Radevormwald, Stadt auf der Höhe","type":"Stadt"},"district":{"key":"05374","name":"Oberbergischer Kreis","type":"Kreis"},"federalState":{"key":"05","name":"Nordrhein-Westfalen"}},{"name":"Vorm Holte","postalCode":"42477","locality":"Radevormwald","municipality":{"key":"05374036","name":"Radevormwald, Stadt auf der Höhe","type":"Stadt"},"district":{"key":"05374","name":"Oberbergischer Kreis","type":"Kreis"},"federalState":{"key":"05","name":"Nordrhein-Westfalen"}},{"name":"Waldstr.","postalCode":"42477","locality":"Radevormwald","municipality":{"key":"05374036","name":"Radevormwald, Stadt auf der Höhe","type":"Stadt"},"district":{"key":"05374","name":"Oberbergischer Kreis","type":"Kreis"},"federalState":{"key":"05","name":"Nordrhein-Westfalen"}},{"name":"Wasserturmstr.","postalCode":"42477","locality":"Radevormwald","municipality":{"key":"05374036","name":"Radevormwald, Stadt auf der Höhe","type":"Stadt"},"district":{"key":"05374","name":"Oberbergischer Kreis","type":"Kreis"},"federalState":{"key":"05","name":"Nordrhein-Westfalen"}},{"name":"Weberstr.","postalCode":"42477","locality":"Radevormwald","municipality":{"key":"05374036","name":"Radevormwald, Stadt auf der Höhe","type":"Stadt"},"district":{"key":"05374","name":"Oberbergischer Kreis","type":"Kreis"},"federalState":{"key":"05","name":"Nordrhein-Westfalen"}},{"name":"Weidenweg","postalCode":"42477","locality":"Radevormwald","municipality":{"key":"05374036","name":"Radevormwald, Stadt auf der Höhe","type":"Stadt"},"district":{"key":"05374","name":"Oberbergischer Kreis","type":"Kreis"},"federalState":{"key":"05","name":"Nordrhein-Westfalen"}},{"name":"Weizenstr.","postalCode":"42477","locality":"Radevormwald","municipality":{"key":"05374036","name":"Radevormwald, Stadt auf der Höhe","type":"Stadt"},"district":{"key":"05374","name":"Oberbergischer Kreis","type":"Kreis"},"federalState":{"key":"05","name":"Nordrhein-Westfalen"}},{"name":"Wellershausen","postalCode":"42477","locality":"Radevormwald","municipality":{"key":"05374036","name":"Radevormwald, Stadt auf der Höhe","type":"Stadt"},"district":{"key":"05374","name":"Oberbergischer Kreis","type":"Kreis"},"federalState":{"key":"05","name":"Nordrhein-Westfalen"}},{"name":"Wellringrade","postalCode":"42477","locality":"Radevormwald","municipality":{"key":"05374036","name":"Radevormwald, Stadt auf der Höhe","type":"Stadt"},"district":{"key":"05374","name":"Oberbergischer Kreis","type":"Kreis"},"federalState":{"key":"05","name":"Nordrhein-Westfalen"}},{"name":"Werner-Seelenbinder-Str.","postalCode":"42477","locality":"Radevormwald","municipality":{"key":"05374036","name":"Radevormwald, Stadt auf der Höhe","type":"Stadt"},"district":{"key":"05374","name":"Oberbergischer Kreis","type":"Kreis"},"federalState":{"key":"05","name":"Nordrhein-Westfalen"}},{"name":"Westfalenstr.","postalCode":"42477","locality":"Radevormwald","municipality":{"key":"05374036","name":"Radevormwald, Stadt auf der Höhe","type":"Stadt"},"district":{"key":"05374","name":"Oberbergischer Kreis","type":"Kreis"},"federalState":{"key":"05","name":"Nordrhein-Westfalen"}},{"name":"Weststr.","postalCode":"42477","locality":"Radevormwald","municipality":{"key":"05374036","name":"Radevormwald, Stadt auf der Höhe","type":"Stadt"},"district":{"key":"05374","name":"Oberbergischer Kreis","type":"Kreis"},"federalState":{"key":"05","name":"Nordrhein-Westfalen"}},{"name":"Wiedenhofkamp","postalCode":"42477","locality":"Radevormwald","municipality":{"key":"05374036","name":"Radevormwald, Stadt auf der Höhe","type":"Stadt"},"district":{"key":"05374","name":"Oberbergischer Kreis","type":"Kreis"},"federalState":{"key":"05","name":"Nordrhein-Westfalen"}},{"name":"Wiesenstr.","postalCode":"42477","locality":"Radevormwald","municipality":{"key":"05374036","name":"Radevormwald, Stadt auf der Höhe","type":"Stadt"},"district":{"key":"05374","name":"Oberbergischer Kreis","type":"Kreis"},"federalState":{"key":"05","name":"Nordrhein-Westfalen"}},{"name":"Wilhelmstal","postalCode":"42477","locality":"Radevormwald","municipality":{"key":"05374036","name":"Radevormwald, Stadt auf der Höhe","type":"Stadt"},"district":{"key":"05374","name":"Oberbergischer Kreis","type":"Kreis"},"federalState":{"key":"05","name":"Nordrhein-Westfalen"}},{"name":"Wilhelmstaler Str.","postalCode":"42477","locality":"Radevormwald","municipality":{"key":"05374036","name":"Radevormwald, Stadt auf der Höhe","type":"Stadt"},"district":{"key":"05374","name":"Oberbergischer Kreis","type":"Kreis"},"federalState":{"key":"05","name":"Nordrhein-Westfalen"}},{"name":"Wintershaus","postalCode":"42477","locality":"Radevormwald","municipality":{"key":"05374036","name":"Radevormwald, Stadt auf der Höhe","type":"Stadt"},"district":{"key":"05374","name":"Oberbergischer Kreis","type":"Kreis"},"federalState":{"key":"05","name":"Nordrhein-Westfalen"}},{"name":"Wönkhausen","postalCode":"42477","locality":"Radevormwald","municipality":{"key":"05374036","name":"Radevormwald, Stadt auf der Höhe","type":"Stadt"},"district":{"key":"05374","name":"Oberbergischer Kreis","type":"Kreis"},"federalState":{"key":"05","name":"Nordrhein-Westfalen"}},{"name":"Wülfingstr.","postalCode":"42477","locality":"Radevormwald","municipality":{"key":"05374036","name":"Radevormwald, Stadt auf der Höhe","type":"Stadt"},"district":{"key":"05374","name":"Oberbergischer Kreis","type":"Kreis"},"federalState":{"key":"05","name":"Nordrhein-Westfalen"}},{"name":"Wupperstr.","postalCode":"42477","locality":"Radevormwald","municipality":{"key":"05374036","name":"Radevormwald, Stadt auf der Höhe","type":"Stadt"},"district":{"key":"05374","name":"Oberbergischer Kreis","type":"Kreis"},"federalState":{"key":"05","name":"Nordrhein-Westfalen"}},{"name":"Wuppertalstr.","postalCode":"42477","locality":"Radevormwald","municipality":{"key":"05374036","name":"Radevormwald, Stadt auf der Höhe","type":"Stadt"},"district":{"key":"05374","name":"Oberbergischer Kreis","type":"Kreis"},"federalState":{"key":"05","name":"Nordrhein-Westfalen"}},{"name":"Zanderweg","postalCode":"42477","locality":"Radevormwald","municipality":{"key":"05374036","name":"Radevormwald, Stadt auf der Höhe","type":"Stadt"},"district":{"key":"05374","name":"Oberbergischer Kreis","type":"Kreis"},"federalState":{"key":"05","name":"Nordrhein-Westfalen"}},{"name":"Zum Hofe","postalCode":"42477","locality":"Radevormwald","municipality":{"key":"05374036","name":"Radevormwald, Stadt auf der Höhe","type":"Stadt"},"district":{"key":"05374","name":"Oberbergischer Kreis","type":"Kreis"},"federalState":{"key":"05","name":"Nordrhein-Westfalen"}},{"name":"Önkfeld","postalCode":"42477","locality":"Radevormwald","municipality":{"key":"05374036","name":"Radevormwald, Stadt auf der Höhe","type":"Stadt"},"district":{"key":"05374","name":"Oberbergischer Kreis","type":"Kreis"},"federalState":{"key":"05","name":"Nordrhein-Westfalen"}},{"name":"Ümminghausen","postalCode":"42477","locality":"Radevormwald","municipality":{"key":"05374036","name":"Radevormwald, Stadt auf der Höhe","type":"Stadt"},"district":{"key":"05374","name":"Oberbergischer Kreis","type":"Kreis"},"federalState":{"key":"05","name":"Nordrhein-Westfalen"}},]