[{"key":"10242560","name":"A2","postalCode":"6460","locality":"Altdorf UR","commune":{"key":"1205","name":"Bürglen (UR)","shortName":"Bürglen (UR)"},"district":{"key":"400","name":"Kanton Uri"},"canton":{"key":"4","code":"UR","name":"Uri"},"status":"Real"},{"key":"10242557","name":"A2","postalCode":"6460","locality":"Altdorf UR","commune":{"key":"1205","name":"Bürglen (UR)","shortName":"Bürglen (UR)"},"district":{"key":"400","name":"Kanton Uri"},"canton":{"key":"4","code":"UR","name":"Uri"},"status":"Real"},{"key":"10242558","name":"A4","postalCode":"6460","locality":"Altdorf UR","commune":{"key":"1205","name":"Bürglen (UR)","shortName":"Bürglen (UR)"},"district":{"key":"400","name":"Kanton Uri"},"canton":{"key":"4","code":"UR","name":"Uri"},"status":"Real"},{"key":"10019518","name":"Acherweg","postalCode":"6460","locality":"Altdorf UR","commune":{"key":"1205","name":"Bürglen (UR)","shortName":"Bürglen (UR)"},"district":{"key":"400","name":"Kanton Uri"},"canton":{"key":"4","code":"UR","name":"Uri"},"status":"Real"},{"key":"10223286","name":"Allenwindenpark","postalCode":"6460","locality":"Altdorf UR","commune":{"key":"1205","name":"Bürglen (UR)","shortName":"Bürglen (UR)"},"district":{"key":"400","name":"Kanton Uri"},"canton":{"key":"4","code":"UR","name":"Uri"},"status":"Planned"},{"key":"10115452","name":"Allenwindenweg","postalCode":"6460","locality":"Altdorf UR","commune":{"key":"1205","name":"Bürglen (UR)","shortName":"Bürglen (UR)"},"district":{"key":"400","name":"Kanton Uri"},"canton":{"key":"4","code":"UR","name":"Uri"},"status":"Real"},{"key":"10139509","name":"Allmendstrasse","postalCode":"6460","locality":"Altdorf UR","commune":{"key":"1205","name":"Bürglen (UR)","shortName":"Bürglen (UR)"},"district":{"key":"400","name":"Kanton Uri"},"canton":{"key":"4","code":"UR","name":"Uri"},"status":"Real"},{"key":"10207791","name":"Allmendweg","postalCode":"6460","locality":"Altdorf UR","commune":{"key":"1205","name":"Bürglen (UR)","shortName":"Bürglen (UR)"},"district":{"key":"400","name":"Kanton Uri"},"canton":{"key":"4","code":"UR","name":"Uri"},"status":"Real"},{"key":"10019519","name":"Attinghauserstrasse","postalCode":"6460","locality":"Altdorf UR","commune":{"key":"1205","name":"Bürglen (UR)","shortName":"Bürglen (UR)"},"district":{"key":"400","name":"Kanton Uri"},"canton":{"key":"4","code":"UR","name":"Uri"},"status":"Real"},{"key":"10059953","name":"Bahnhofplatz","postalCode":"6460","locality":"Altdorf UR","commune":{"key":"1205","name":"Bürglen (UR)","shortName":"Bürglen (UR)"},"district":{"key":"400","name":"Kanton Uri"},"canton":{"key":"4","code":"UR","name":"Uri"},"status":"Real"},{"key":"10087816","name":"Bahnhofstrasse","postalCode":"6460","locality":"Altdorf UR","commune":{"key":"1205","name":"Bürglen (UR)","shortName":"Bürglen (UR)"},"district":{"key":"400","name":"Kanton Uri"},"canton":{"key":"4","code":"UR","name":"Uri"},"status":"Real"},{"key":"10255999","name":"Bannwald","postalCode":"6460","locality":"Altdorf UR","commune":{"key":"1205","name":"Bürglen (UR)","shortName":"Bürglen (UR)"},"district":{"key":"400","name":"Kanton Uri"},"canton":{"key":"4","code":"UR","name":"Uri"},"status":"Real"},{"key":"10013730","name":"Bärengässli","postalCode":"6460","locality":"Altdorf UR","commune":{"key":"1205","name":"Bürglen (UR)","shortName":"Bürglen (UR)"},"district":{"key":"400","name":"Kanton Uri"},"canton":{"key":"4","code":"UR","name":"Uri"},"status":"Real"},{"key":"10013726","name":"Bauernhofweg","postalCode":"6460","locality":"Altdorf UR","commune":{"key":"1205","name":"Bürglen (UR)","shortName":"Bürglen (UR)"},"district":{"key":"400","name":"Kanton Uri"},"canton":{"key":"4","code":"UR","name":"Uri"},"status":"Real"},{"key":"10014922","name":"Baumgarten","postalCode":"6460","locality":"Altdorf UR","commune":{"key":"1205","name":"Bürglen (UR)","shortName":"Bürglen (UR)"},"district":{"key":"400","name":"Kanton Uri"},"canton":{"key":"4","code":"UR","name":"Uri"},"status":"Real"},{"key":"10062120","name":"Baumgartenstrasse","postalCode":"6460","locality":"Altdorf UR","commune":{"key":"1205","name":"Bürglen (UR)","shortName":"Bürglen (UR)"},"district":{"key":"400","name":"Kanton Uri"},"canton":{"key":"4","code":"UR","name":"Uri"},"status":"Real"},{"key":"10158368","name":"Belmité","postalCode":"6460","locality":"Altdorf UR","commune":{"key":"1205","name":"Bürglen (UR)","shortName":"Bürglen (UR)"},"district":{"key":"400","name":"Kanton Uri"},"canton":{"key":"4","code":"UR","name":"Uri"},"status":"Real"},{"key":"10013727","name":"Belmitéstrasse","postalCode":"6460","locality":"Altdorf UR","commune":{"key":"1205","name":"Bürglen (UR)","shortName":"Bürglen (UR)"},"district":{"key":"400","name":"Kanton Uri"},"canton":{"key":"4","code":"UR","name":"Uri"},"status":"Real"},{"key":"10013728","name":"Besslerweg","postalCode":"6460","locality":"Altdorf UR","commune":{"key":"1205","name":"Bürglen (UR)","shortName":"Bürglen (UR)"},"district":{"key":"400","name":"Kanton Uri"},"canton":{"key":"4","code":"UR","name":"Uri"},"status":"Real"},{"key":"10113887","name":"Betschartmatte","postalCode":"6460","locality":"Altdorf UR","commune":{"key":"1205","name":"Bürglen (UR)","shortName":"Bürglen (UR)"},"district":{"key":"400","name":"Kanton Uri"},"canton":{"key":"4","code":"UR","name":"Uri"},"status":"Real"},{"key":"10087817","name":"Birkenstrasse","postalCode":"6460","locality":"Altdorf UR","commune":{"key":"1205","name":"Bürglen (UR)","shortName":"Bürglen (UR)"},"district":{"key":"400","name":"Kanton Uri"},"canton":{"key":"4","code":"UR","name":"Uri"},"status":"Real"},{"key":"10113871","name":"Blumenfeldgasse","postalCode":"6460","locality":"Altdorf UR","commune":{"key":"1205","name":"Bürglen (UR)","shortName":"Bürglen (UR)"},"district":{"key":"400","name":"Kanton Uri"},"canton":{"key":"4","code":"UR","name":"Uri"},"status":"Real"},{"key":"10088127","name":"Bresteneggstrasse","postalCode":"6460","locality":"Altdorf UR","commune":{"key":"1205","name":"Bürglen (UR)","shortName":"Bürglen (UR)"},"district":{"key":"400","name":"Kanton Uri"},"canton":{"key":"4","code":"UR","name":"Uri"},"status":"Real"},{"key":"10188492","name":"Brickerhaus","postalCode":"6460","locality":"Altdorf UR","commune":{"key":"1205","name":"Bürglen (UR)","shortName":"Bürglen (UR)"},"district":{"key":"400","name":"Kanton Uri"},"canton":{"key":"4","code":"UR","name":"Uri"},"status":"Real"},{"key":"10062121","name":"Bristenstrasse","postalCode":"6460","locality":"Altdorf UR","commune":{"key":"1205","name":"Bürglen (UR)","shortName":"Bürglen (UR)"},"district":{"key":"400","name":"Kanton Uri"},"canton":{"key":"4","code":"UR","name":"Uri"},"status":"Real"},{"key":"10106051","name":"Brunegg","postalCode":"6460","locality":"Altdorf UR","commune":{"key":"1205","name":"Bürglen (UR)","shortName":"Bürglen (UR)"},"district":{"key":"400","name":"Kanton Uri"},"canton":{"key":"4","code":"UR","name":"Uri"},"status":"Real"},{"key":"10014923","name":"Bürglergrund","postalCode":"6460","locality":"Altdorf UR","commune":{"key":"1205","name":"Bürglen (UR)","shortName":"Bürglen (UR)"},"district":{"key":"400","name":"Kanton Uri"},"canton":{"key":"4","code":"UR","name":"Uri"},"status":"Real"},{"key":"10212103","name":"Burgstrasse","postalCode":"6460","locality":"Altdorf UR","commune":{"key":"1205","name":"Bürglen (UR)","shortName":"Bürglen (UR)"},"district":{"key":"400","name":"Kanton Uri"},"canton":{"key":"4","code":"UR","name":"Uri"},"status":"Real"},{"key":"10186702","name":"Byfangweg","postalCode":"6460","locality":"Altdorf UR","commune":{"key":"1205","name":"Bürglen (UR)","shortName":"Bürglen (UR)"},"district":{"key":"400","name":"Kanton Uri"},"canton":{"key":"4","code":"UR","name":"Uri"},"status":"Real"},{"key":"10111593","name":"Crivelliweg","postalCode":"6460","locality":"Altdorf UR","commune":{"key":"1205","name":"Bürglen (UR)","shortName":"Bürglen (UR)"},"district":{"key":"400","name":"Kanton Uri"},"canton":{"key":"4","code":"UR","name":"Uri"},"status":"Real"},{"key":"10087818","name":"Dätwylerstrasse","postalCode":"6460","locality":"Altdorf UR","commune":{"key":"1205","name":"Bürglen (UR)","shortName":"Bürglen (UR)"},"district":{"key":"400","name":"Kanton Uri"},"canton":{"key":"4","code":"UR","name":"Uri"},"status":"Real"},{"key":"10062122","name":"Eggberge","postalCode":"6460","locality":"Altdorf UR","commune":{"key":"1205","name":"Bürglen (UR)","shortName":"Bürglen (UR)"},"district":{"key":"400","name":"Kanton Uri"},"canton":{"key":"4","code":"UR","name":"Uri"},"status":"Real"},{"key":"10013731","name":"Erikaweg","postalCode":"6460","locality":"Altdorf UR","commune":{"key":"1205","name":"Bürglen (UR)","shortName":"Bürglen (UR)"},"district":{"key":"400","name":"Kanton Uri"},"canton":{"key":"4","code":"UR","name":"Uri"},"status":"Real"},{"key":"10013732","name":"Eygasse","postalCode":"6460","locality":"Altdorf UR","commune":{"key":"1205","name":"Bürglen (UR)","shortName":"Bürglen (UR)"},"district":{"key":"400","name":"Kanton Uri"},"canton":{"key":"4","code":"UR","name":"Uri"},"status":"Real"},{"key":"10162341","name":"Eyschachen","postalCode":"6460","locality":"Altdorf UR","commune":{"key":"1205","name":"Bürglen (UR)","shortName":"Bürglen (UR)"},"district":{"key":"400","name":"Kanton Uri"},"canton":{"key":"4","code":"UR","name":"Uri"},"status":"Real"},{"key":"10210579","name":"Fabrikstrasse","postalCode":"6460","locality":"Altdorf UR","commune":{"key":"1205","name":"Bürglen (UR)","shortName":"Bürglen (UR)"},"district":{"key":"400","name":"Kanton Uri"},"canton":{"key":"4","code":"UR","name":"Uri"},"status":"Real"},{"key":"10062123","name":"Feldliweg","postalCode":"6460","locality":"Altdorf UR","commune":{"key":"1205","name":"Bürglen (UR)","shortName":"Bürglen (UR)"},"district":{"key":"400","name":"Kanton Uri"},"canton":{"key":"4","code":"UR","name":"Uri"},"status":"Real"},{"key":"10013734","name":"Flüelerstrasse","postalCode":"6460","locality":"Altdorf UR","commune":{"key":"1205","name":"Bürglen (UR)","shortName":"Bürglen (UR)"},"district":{"key":"400","name":"Kanton Uri"},"canton":{"key":"4","code":"UR","name":"Uri"},"status":"Real"},{"key":"10087819","name":"Friesenweg","postalCode":"6460","locality":"Altdorf UR","commune":{"key":"1205","name":"Bürglen (UR)","shortName":"Bürglen (UR)"},"district":{"key":"400","name":"Kanton Uri"},"canton":{"key":"4","code":"UR","name":"Uri"},"status":"Real"},{"key":"10116583","name":"Frohmattweg","postalCode":"6460","locality":"Altdorf UR","commune":{"key":"1205","name":"Bürglen (UR)","shortName":"Bürglen (UR)"},"district":{"key":"400","name":"Kanton Uri"},"canton":{"key":"4","code":"UR","name":"Uri"},"status":"Real"},{"key":"10113872","name":"Fuchsacherweg","postalCode":"6460","locality":"Altdorf UR","commune":{"key":"1205","name":"Bürglen (UR)","shortName":"Bürglen (UR)"},"district":{"key":"400","name":"Kanton Uri"},"canton":{"key":"4","code":"UR","name":"Uri"},"status":"Real"},{"key":"10111602","name":"Furrersgrund","postalCode":"6460","locality":"Altdorf UR","commune":{"key":"1205","name":"Bürglen (UR)","shortName":"Bürglen (UR)"},"district":{"key":"400","name":"Kanton Uri"},"canton":{"key":"4","code":"UR","name":"Uri"},"status":"Real"},{"key":"10062124","name":"Gandliweg","postalCode":"6460","locality":"Altdorf UR","commune":{"key":"1205","name":"Bürglen (UR)","shortName":"Bürglen (UR)"},"district":{"key":"400","name":"Kanton Uri"},"canton":{"key":"4","code":"UR","name":"Uri"},"status":"Real"},{"key":"10087820","name":"Gemeindehausplatz","postalCode":"6460","locality":"Altdorf UR","commune":{"key":"1205","name":"Bürglen (UR)","shortName":"Bürglen (UR)"},"district":{"key":"400","name":"Kanton Uri"},"canton":{"key":"4","code":"UR","name":"Uri"},"status":"Real"},{"key":"10013735","name":"Giessenstrasse","postalCode":"6460","locality":"Altdorf UR","commune":{"key":"1205","name":"Bürglen (UR)","shortName":"Bürglen (UR)"},"district":{"key":"400","name":"Kanton Uri"},"canton":{"key":"4","code":"UR","name":"Uri"},"status":"Real"},{"key":"10013736","name":"Gitschenstrasse","postalCode":"6460","locality":"Altdorf UR","commune":{"key":"1205","name":"Bürglen (UR)","shortName":"Bürglen (UR)"},"district":{"key":"400","name":"Kanton Uri"},"canton":{"key":"4","code":"UR","name":"Uri"},"status":"Real"},{"key":"10062125","name":"Gotthardstrasse","postalCode":"6460","locality":"Altdorf UR","commune":{"key":"1205","name":"Bürglen (UR)","shortName":"Bürglen (UR)"},"district":{"key":"400","name":"Kanton Uri"},"canton":{"key":"4","code":"UR","name":"Uri"},"status":"Real"},{"key":"10014924","name":"Gotthardstrasse","postalCode":"6460","locality":"Altdorf UR","commune":{"key":"1205","name":"Bürglen (UR)","shortName":"Bürglen (UR)"},"district":{"key":"400","name":"Kanton Uri"},"canton":{"key":"4","code":"UR","name":"Uri"},"status":"Real"},{"key":"10145953","name":"Gräbligasse","postalCode":"6460","locality":"Altdorf UR","commune":{"key":"1205","name":"Bürglen (UR)","shortName":"Bürglen (UR)"},"district":{"key":"400","name":"Kanton Uri"},"canton":{"key":"4","code":"UR","name":"Uri"},"status":"Real"},{"key":"10013737","name":"Grenzgasse","postalCode":"6460","locality":"Altdorf UR","commune":{"key":"1205","name":"Bürglen (UR)","shortName":"Bürglen (UR)"},"district":{"key":"400","name":"Kanton Uri"},"canton":{"key":"4","code":"UR","name":"Uri"},"status":"Real"},{"key":"10131225","name":"Grossmattweg","postalCode":"6460","locality":"Altdorf UR","commune":{"key":"1205","name":"Bürglen (UR)","shortName":"Bürglen (UR)"},"district":{"key":"400","name":"Kanton Uri"},"canton":{"key":"4","code":"UR","name":"Uri"},"status":"Real"},{"key":"10013738","name":"Grossriedweg","postalCode":"6460","locality":"Altdorf UR","commune":{"key":"1205","name":"Bürglen (UR)","shortName":"Bürglen (UR)"},"district":{"key":"400","name":"Kanton Uri"},"canton":{"key":"4","code":"UR","name":"Uri"},"status":"Real"},{"key":"10111605","name":"Grundgasse","postalCode":"6460","locality":"Altdorf UR","commune":{"key":"1205","name":"Bürglen (UR)","shortName":"Bürglen (UR)"},"district":{"key":"400","name":"Kanton Uri"},"canton":{"key":"4","code":"UR","name":"Uri"},"status":"Real"},{"key":"10212108","name":"Grundgasse","postalCode":"6460","locality":"Altdorf UR","commune":{"key":"1205","name":"Bürglen (UR)","shortName":"Bürglen (UR)"},"district":{"key":"400","name":"Kanton Uri"},"canton":{"key":"4","code":"UR","name":"Uri"},"status":"Real"},{"key":"10120937","name":"Gründligasse","postalCode":"6460","locality":"Altdorf UR","commune":{"key":"1205","name":"Bürglen (UR)","shortName":"Bürglen (UR)"},"district":{"key":"400","name":"Kanton Uri"},"canton":{"key":"4","code":"UR","name":"Uri"},"status":"Real"},{"key":"10062126","name":"Gründliweg","postalCode":"6460","locality":"Altdorf UR","commune":{"key":"1205","name":"Bürglen (UR)","shortName":"Bürglen (UR)"},"district":{"key":"400","name":"Kanton Uri"},"canton":{"key":"4","code":"UR","name":"Uri"},"status":"Real"},{"key":"10013739","name":"Grundweg","postalCode":"6460","locality":"Altdorf UR","commune":{"key":"1205","name":"Bürglen (UR)","shortName":"Bürglen (UR)"},"district":{"key":"400","name":"Kanton Uri"},"canton":{"key":"4","code":"UR","name":"Uri"},"status":"Real"},{"key":"10019860","name":"Gruonbergli","postalCode":"6460","locality":"Altdorf UR","commune":{"key":"1205","name":"Bürglen (UR)","shortName":"Bürglen (UR)"},"district":{"key":"400","name":"Kanton Uri"},"canton":{"key":"4","code":"UR","name":"Uri"},"status":"Real"},{"key":"10112670","name":"Guferli","postalCode":"6460","locality":"Altdorf UR","commune":{"key":"1205","name":"Bürglen (UR)","shortName":"Bürglen (UR)"},"district":{"key":"400","name":"Kanton Uri"},"canton":{"key":"4","code":"UR","name":"Uri"},"status":"Real"},{"key":"10087821","name":"Gurtenmundstrasse","postalCode":"6460","locality":"Altdorf UR","commune":{"key":"1205","name":"Bürglen (UR)","shortName":"Bürglen (UR)"},"district":{"key":"400","name":"Kanton Uri"},"canton":{"key":"4","code":"UR","name":"Uri"},"status":"Real"},{"key":"10013740","name":"Hagenstrasse","postalCode":"6460","locality":"Altdorf UR","commune":{"key":"1205","name":"Bürglen (UR)","shortName":"Bürglen (UR)"},"district":{"key":"400","name":"Kanton Uri"},"canton":{"key":"4","code":"UR","name":"Uri"},"status":"Real"},{"key":"10113873","name":"Hellgasse","postalCode":"6460","locality":"Altdorf UR","commune":{"key":"1205","name":"Bürglen (UR)","shortName":"Bürglen (UR)"},"district":{"key":"400","name":"Kanton Uri"},"canton":{"key":"4","code":"UR","name":"Uri"},"status":"Real"},{"key":"10111594","name":"Herrengasse","postalCode":"6460","locality":"Altdorf UR","commune":{"key":"1205","name":"Bürglen (UR)","shortName":"Bürglen (UR)"},"district":{"key":"400","name":"Kanton Uri"},"canton":{"key":"4","code":"UR","name":"Uri"},"status":"Real"},{"key":"10062127","name":"Hochmühlegasse","postalCode":"6460","locality":"Altdorf UR","commune":{"key":"1205","name":"Bürglen (UR)","shortName":"Bürglen (UR)"},"district":{"key":"400","name":"Kanton Uri"},"canton":{"key":"4","code":"UR","name":"Uri"},"status":"Real"},{"key":"10192325","name":"Hofgarten","postalCode":"6460","locality":"Altdorf UR","commune":{"key":"1205","name":"Bürglen (UR)","shortName":"Bürglen (UR)"},"district":{"key":"400","name":"Kanton Uri"},"canton":{"key":"4","code":"UR","name":"Uri"},"status":"Real"},{"key":"10129556","name":"Höfligasse","postalCode":"6460","locality":"Altdorf UR","commune":{"key":"1205","name":"Bürglen (UR)","shortName":"Bürglen (UR)"},"district":{"key":"400","name":"Kanton Uri"},"canton":{"key":"4","code":"UR","name":"Uri"},"status":"Real"},{"key":"10155219","name":"Hofstatt","postalCode":"6460","locality":"Altdorf UR","commune":{"key":"1205","name":"Bürglen (UR)","shortName":"Bürglen (UR)"},"district":{"key":"400","name":"Kanton Uri"},"canton":{"key":"4","code":"UR","name":"Uri"},"status":"Real"},{"key":"10013741","name":"Im Gründli","postalCode":"6460","locality":"Altdorf UR","commune":{"key":"1205","name":"Bürglen (UR)","shortName":"Bürglen (UR)"},"district":{"key":"400","name":"Kanton Uri"},"canton":{"key":"4","code":"UR","name":"Uri"},"status":"Real"},{"key":"10144263","name":"Im Mätteli","postalCode":"6460","locality":"Altdorf UR","commune":{"key":"1205","name":"Bürglen (UR)","shortName":"Bürglen (UR)"},"district":{"key":"400","name":"Kanton Uri"},"canton":{"key":"4","code":"UR","name":"Uri"},"status":"Real"},{"key":"10087822","name":"In der Matte","postalCode":"6460","locality":"Altdorf UR","commune":{"key":"1205","name":"Bürglen (UR)","shortName":"Bürglen (UR)"},"district":{"key":"400","name":"Kanton Uri"},"canton":{"key":"4","code":"UR","name":"Uri"},"status":"Real"},{"key":"10013742","name":"In der Mühlematte","postalCode":"6460","locality":"Altdorf UR","commune":{"key":"1205","name":"Bürglen (UR)","shortName":"Bürglen (UR)"},"district":{"key":"400","name":"Kanton Uri"},"canton":{"key":"4","code":"UR","name":"Uri"},"status":"Real"},{"key":"10087823","name":"In der Stoffelmatte","postalCode":"6460","locality":"Altdorf UR","commune":{"key":"1205","name":"Bürglen (UR)","shortName":"Bürglen (UR)"},"district":{"key":"400","name":"Kanton Uri"},"canton":{"key":"4","code":"UR","name":"Uri"},"status":"Real"},{"key":"10062128","name":"Industriestrasse","postalCode":"6460","locality":"Altdorf UR","commune":{"key":"1205","name":"Bürglen (UR)","shortName":"Bürglen (UR)"},"district":{"key":"400","name":"Kanton Uri"},"canton":{"key":"4","code":"UR","name":"Uri"},"status":"Real"},{"key":"10013743","name":"Kapuzinerweg","postalCode":"6460","locality":"Altdorf UR","commune":{"key":"1205","name":"Bürglen (UR)","shortName":"Bürglen (UR)"},"district":{"key":"400","name":"Kanton Uri"},"canton":{"key":"4","code":"UR","name":"Uri"},"status":"Real"},{"key":"10013744","name":"Kirchplatz","postalCode":"6460","locality":"Altdorf UR","commune":{"key":"1205","name":"Bürglen (UR)","shortName":"Bürglen (UR)"},"district":{"key":"400","name":"Kanton Uri"},"canton":{"key":"4","code":"UR","name":"Uri"},"status":"Real"},{"key":"10014925","name":"Klausenstrasse","postalCode":"6460","locality":"Altdorf UR","commune":{"key":"1205","name":"Bürglen (UR)","shortName":"Bürglen (UR)"},"district":{"key":"400","name":"Kanton Uri"},"canton":{"key":"4","code":"UR","name":"Uri"},"status":"Real"},{"key":"10013745","name":"Klausenstrasse","postalCode":"6460","locality":"Altdorf UR","commune":{"key":"1205","name":"Bürglen (UR)","shortName":"Bürglen (UR)"},"district":{"key":"400","name":"Kanton Uri"},"canton":{"key":"4","code":"UR","name":"Uri"},"status":"Real"},{"key":"10087824","name":"Klostergasse","postalCode":"6460","locality":"Altdorf UR","commune":{"key":"1205","name":"Bürglen (UR)","shortName":"Bürglen (UR)"},"district":{"key":"400","name":"Kanton Uri"},"canton":{"key":"4","code":"UR","name":"Uri"},"status":"Real"},{"key":"10188486","name":"Kornmattstrasse","postalCode":"6460","locality":"Altdorf UR","commune":{"key":"1205","name":"Bürglen (UR)","shortName":"Bürglen (UR)"},"district":{"key":"400","name":"Kanton Uri"},"canton":{"key":"4","code":"UR","name":"Uri"},"status":"Real"},{"key":"10115453","name":"Krebsriedgasse","postalCode":"6460","locality":"Altdorf UR","commune":{"key":"1205","name":"Bürglen (UR)","shortName":"Bürglen (UR)"},"district":{"key":"400","name":"Kanton Uri"},"canton":{"key":"4","code":"UR","name":"Uri"},"status":"Real"},{"key":"10113874","name":"Kreuzgasse","postalCode":"6460","locality":"Altdorf UR","commune":{"key":"1205","name":"Bürglen (UR)","shortName":"Bürglen (UR)"},"district":{"key":"400","name":"Kanton Uri"},"canton":{"key":"4","code":"UR","name":"Uri"},"status":"Real"},{"key":"10145954","name":"Kronengässli","postalCode":"6460","locality":"Altdorf UR","commune":{"key":"1205","name":"Bürglen (UR)","shortName":"Bürglen (UR)"},"district":{"key":"400","name":"Kanton Uri"},"canton":{"key":"4","code":"UR","name":"Uri"},"status":"Real"},{"key":"10014926","name":"Langmatt","postalCode":"6460","locality":"Altdorf UR","commune":{"key":"1205","name":"Bürglen (UR)","shortName":"Bürglen (UR)"},"district":{"key":"400","name":"Kanton Uri"},"canton":{"key":"4","code":"UR","name":"Uri"},"status":"Real"},{"key":"10013746","name":"Langmattgasse","postalCode":"6460","locality":"Altdorf UR","commune":{"key":"1205","name":"Bürglen (UR)","shortName":"Bürglen (UR)"},"district":{"key":"400","name":"Kanton Uri"},"canton":{"key":"4","code":"UR","name":"Uri"},"status":"Real"},{"key":"10088129","name":"Langmattgasse","postalCode":"6460","locality":"Altdorf UR","commune":{"key":"1205","name":"Bürglen (UR)","shortName":"Bürglen (UR)"},"district":{"key":"400","name":"Kanton Uri"},"canton":{"key":"4","code":"UR","name":"Uri"},"status":"Real"},{"key":"10059954","name":"Lehnplatz","postalCode":"6460","locality":"Altdorf UR","commune":{"key":"1205","name":"Bürglen (UR)","shortName":"Bürglen (UR)"},"district":{"key":"400","name":"Kanton Uri"},"canton":{"key":"4","code":"UR","name":"Uri"},"status":"Real"},{"key":"10052640","name":"Löwengässli","postalCode":"6460","locality":"Altdorf UR","commune":{"key":"1205","name":"Bürglen (UR)","shortName":"Bürglen (UR)"},"district":{"key":"400","name":"Kanton Uri"},"canton":{"key":"4","code":"UR","name":"Uri"},"status":"Real"},{"key":"10015211","name":"Löwenmattweg","postalCode":"6460","locality":"Altdorf UR","commune":{"key":"1205","name":"Bürglen (UR)","shortName":"Bürglen (UR)"},"district":{"key":"400","name":"Kanton Uri"},"canton":{"key":"4","code":"UR","name":"Uri"},"status":"Real"},{"key":"10088099","name":"Magigenstrasse","postalCode":"6460","locality":"Altdorf UR","commune":{"key":"1205","name":"Bürglen (UR)","shortName":"Bürglen (UR)"},"district":{"key":"400","name":"Kanton Uri"},"canton":{"key":"4","code":"UR","name":"Uri"},"status":"Real"},{"key":"10145957","name":"Maihofstrasse","postalCode":"6460","locality":"Altdorf UR","commune":{"key":"1205","name":"Bürglen (UR)","shortName":"Bürglen (UR)"},"district":{"key":"400","name":"Kanton Uri"},"canton":{"key":"4","code":"UR","name":"Uri"},"status":"Real"},{"key":"10062129","name":"Mariahilfgasse","postalCode":"6460","locality":"Altdorf UR","commune":{"key":"1205","name":"Bürglen (UR)","shortName":"Bürglen (UR)"},"district":{"key":"400","name":"Kanton Uri"},"canton":{"key":"4","code":"UR","name":"Uri"},"status":"Real"},{"key":"10106760","name":"Marktgasse","postalCode":"6460","locality":"Altdorf UR","commune":{"key":"1205","name":"Bürglen (UR)","shortName":"Bürglen (UR)"},"district":{"key":"400","name":"Kanton Uri"},"canton":{"key":"4","code":"UR","name":"Uri"},"status":"Real"},{"key":"10088100","name":"Mittlere Planzeren","postalCode":"6460","locality":"Altdorf UR","commune":{"key":"1205","name":"Bürglen (UR)","shortName":"Bürglen (UR)"},"district":{"key":"400","name":"Kanton Uri"},"canton":{"key":"4","code":"UR","name":"Uri"},"status":"Real"},{"key":"10137596","name":"Moosbadweg","postalCode":"6460","locality":"Altdorf UR","commune":{"key":"1205","name":"Bürglen (UR)","shortName":"Bürglen (UR)"},"district":{"key":"400","name":"Kanton Uri"},"canton":{"key":"4","code":"UR","name":"Uri"},"status":"Real"},{"key":"10013747","name":"Muosergasse","postalCode":"6460","locality":"Altdorf UR","commune":{"key":"1205","name":"Bürglen (UR)","shortName":"Bürglen (UR)"},"district":{"key":"400","name":"Kanton Uri"},"canton":{"key":"4","code":"UR","name":"Uri"},"status":"Real"},{"key":"10209935","name":"Neuland","postalCode":"6460","locality":"Altdorf UR","commune":{"key":"1205","name":"Bürglen (UR)","shortName":"Bürglen (UR)"},"district":{"key":"400","name":"Kanton Uri"},"canton":{"key":"4","code":"UR","name":"Uri"},"status":"Real"},{"key":"10145958","name":"Neumühleweg","postalCode":"6460","locality":"Altdorf UR","commune":{"key":"1205","name":"Bürglen (UR)","shortName":"Bürglen (UR)"},"district":{"key":"400","name":"Kanton Uri"},"canton":{"key":"4","code":"UR","name":"Uri"},"status":"Real"},{"key":"10013748","name":"Nussbäumli","postalCode":"6460","locality":"Altdorf UR","commune":{"key":"1205","name":"Bürglen (UR)","shortName":"Bürglen (UR)"},"district":{"key":"400","name":"Kanton Uri"},"canton":{"key":"4","code":"UR","name":"Uri"},"status":"Real"},{"key":"10212111","name":"Nussbäumliweg","postalCode":"6460","locality":"Altdorf UR","commune":{"key":"1205","name":"Bürglen (UR)","shortName":"Bürglen (UR)"},"district":{"key":"400","name":"Kanton Uri"},"canton":{"key":"4","code":"UR","name":"Uri"},"status":"Real"},{"key":"10058536","name":"Obere Planzeren","postalCode":"6460","locality":"Altdorf UR","commune":{"key":"1205","name":"Bürglen (UR)","shortName":"Bürglen (UR)"},"district":{"key":"400","name":"Kanton Uri"},"canton":{"key":"4","code":"UR","name":"Uri"},"status":"Real"},{"key":"10145956","name":"Oberes Lehngässli","postalCode":"6460","locality":"Altdorf UR","commune":{"key":"1205","name":"Bürglen (UR)","shortName":"Bürglen (UR)"},"district":{"key":"400","name":"Kanton Uri"},"canton":{"key":"4","code":"UR","name":"Uri"},"status":"Real"},{"key":"10013749","name":"Pfistergasse","postalCode":"6460","locality":"Altdorf UR","commune":{"key":"1205","name":"Bürglen (UR)","shortName":"Bürglen (UR)"},"district":{"key":"400","name":"Kanton Uri"},"canton":{"key":"4","code":"UR","name":"Uri"},"status":"Real"},{"key":"10062130","name":"Pfyffermatt","postalCode":"6460","locality":"Altdorf UR","commune":{"key":"1205","name":"Bürglen (UR)","shortName":"Bürglen (UR)"},"district":{"key":"400","name":"Kanton Uri"},"canton":{"key":"4","code":"UR","name":"Uri"},"status":"Real"},{"key":"10111595","name":"Plätzli","postalCode":"6460","locality":"Altdorf UR","commune":{"key":"1205","name":"Bürglen (UR)","shortName":"Bürglen (UR)"},"district":{"key":"400","name":"Kanton Uri"},"canton":{"key":"4","code":"UR","name":"Uri"},"status":"Real"},{"key":"10188132","name":"Pro Familiaweg","postalCode":"6460","locality":"Altdorf UR","commune":{"key":"1205","name":"Bürglen (UR)","shortName":"Bürglen (UR)"},"district":{"key":"400","name":"Kanton Uri"},"canton":{"key":"4","code":"UR","name":"Uri"},"status":"Real"},{"key":"10088101","name":"Rathausplatz","postalCode":"6460","locality":"Altdorf UR","commune":{"key":"1205","name":"Bürglen (UR)","shortName":"Bürglen (UR)"},"district":{"key":"400","name":"Kanton Uri"},"canton":{"key":"4","code":"UR","name":"Uri"},"status":"Real"},{"key":"10066624","name":"Reussacherstrasse","postalCode":"6460","locality":"Altdorf UR","commune":{"key":"1205","name":"Bürglen (UR)","shortName":"Bürglen (UR)"},"district":{"key":"400","name":"Kanton Uri"},"canton":{"key":"4","code":"UR","name":"Uri"},"status":"Real"},{"key":"10113875","name":"Reussstrasse","postalCode":"6460","locality":"Altdorf UR","commune":{"key":"1205","name":"Bürglen (UR)","shortName":"Bürglen (UR)"},"district":{"key":"400","name":"Kanton Uri"},"canton":{"key":"4","code":"UR","name":"Uri"},"status":"Real"},{"key":"10013750","name":"Ribiweg","postalCode":"6460","locality":"Altdorf UR","commune":{"key":"1205","name":"Bürglen (UR)","shortName":"Bürglen (UR)"},"district":{"key":"400","name":"Kanton Uri"},"canton":{"key":"4","code":"UR","name":"Uri"},"status":"Real"},{"key":"10052641","name":"Ringligasse","postalCode":"6460","locality":"Altdorf UR","commune":{"key":"1205","name":"Bürglen (UR)","shortName":"Bürglen (UR)"},"district":{"key":"400","name":"Kanton Uri"},"canton":{"key":"4","code":"UR","name":"Uri"},"status":"Real"},{"key":"10015212","name":"Ringligasse","postalCode":"6460","locality":"Altdorf UR","commune":{"key":"1205","name":"Bürglen (UR)","shortName":"Bürglen (UR)"},"district":{"key":"400","name":"Kanton Uri"},"canton":{"key":"4","code":"UR","name":"Uri"},"status":"Real"},{"key":"10013751","name":"Rosenbergweg","postalCode":"6460","locality":"Altdorf UR","commune":{"key":"1205","name":"Bürglen (UR)","shortName":"Bürglen (UR)"},"district":{"key":"400","name":"Kanton Uri"},"canton":{"key":"4","code":"UR","name":"Uri"},"status":"Real"},{"key":"10149143","name":"Ruberststrasse","postalCode":"6460","locality":"Altdorf UR","commune":{"key":"1205","name":"Bürglen (UR)","shortName":"Bürglen (UR)"},"district":{"key":"400","name":"Kanton Uri"},"canton":{"key":"4","code":"UR","name":"Uri"},"status":"Real"},{"key":"10013752","name":"Rütteli","postalCode":"6460","locality":"Altdorf UR","commune":{"key":"1205","name":"Bürglen (UR)","shortName":"Bürglen (UR)"},"district":{"key":"400","name":"Kanton Uri"},"canton":{"key":"4","code":"UR","name":"Uri"},"status":"Real"},{"key":"10212104","name":"Rynächtstrasse","postalCode":"6460","locality":"Altdorf UR","commune":{"key":"1205","name":"Bürglen (UR)","shortName":"Bürglen (UR)"},"district":{"key":"400","name":"Kanton Uri"},"canton":{"key":"4","code":"UR","name":"Uri"},"status":"Real"},{"key":"10088102","name":"Rynächtstrasse","postalCode":"6460","locality":"Altdorf UR","commune":{"key":"1205","name":"Bürglen (UR)","shortName":"Bürglen (UR)"},"district":{"key":"400","name":"Kanton Uri"},"canton":{"key":"4","code":"UR","name":"Uri"},"status":"Real"},{"key":"10187166","name":"Sagenmattweg","postalCode":"6460","locality":"Altdorf UR","commune":{"key":"1205","name":"Bürglen (UR)","shortName":"Bürglen (UR)"},"district":{"key":"400","name":"Kanton Uri"},"canton":{"key":"4","code":"UR","name":"Uri"},"status":"Real"},{"key":"10066666","name":"Schachengasse","postalCode":"6460","locality":"Altdorf UR","commune":{"key":"1205","name":"Bürglen (UR)","shortName":"Bürglen (UR)"},"district":{"key":"400","name":"Kanton Uri"},"canton":{"key":"4","code":"UR","name":"Uri"},"status":"Real"},{"key":"10066625","name":"Schachengasse","postalCode":"6460","locality":"Altdorf UR","commune":{"key":"1205","name":"Bürglen (UR)","shortName":"Bürglen (UR)"},"district":{"key":"400","name":"Kanton Uri"},"canton":{"key":"4","code":"UR","name":"Uri"},"status":"Real"},{"key":"10113888","name":"Schächenmatt","postalCode":"6460","locality":"Altdorf UR","commune":{"key":"1205","name":"Bürglen (UR)","shortName":"Bürglen (UR)"},"district":{"key":"400","name":"Kanton Uri"},"canton":{"key":"4","code":"UR","name":"Uri"},"status":"Real"},{"key":"10015213","name":"Schächenwaldstrasse","postalCode":"6460","locality":"Altdorf UR","commune":{"key":"1205","name":"Bürglen (UR)","shortName":"Bürglen (UR)"},"district":{"key":"400","name":"Kanton Uri"},"canton":{"key":"4","code":"UR","name":"Uri"},"status":"Real"},{"key":"10013753","name":"Schiesshüttenweg","postalCode":"6460","locality":"Altdorf UR","commune":{"key":"1205","name":"Bürglen (UR)","shortName":"Bürglen (UR)"},"district":{"key":"400","name":"Kanton Uri"},"canton":{"key":"4","code":"UR","name":"Uri"},"status":"Real"},{"key":"10052642","name":"Schlossergässli","postalCode":"6460","locality":"Altdorf UR","commune":{"key":"1205","name":"Bürglen (UR)","shortName":"Bürglen (UR)"},"district":{"key":"400","name":"Kanton Uri"},"canton":{"key":"4","code":"UR","name":"Uri"},"status":"Real"},{"key":"10013754","name":"Schmiedgasse","postalCode":"6460","locality":"Altdorf UR","commune":{"key":"1205","name":"Bürglen (UR)","shortName":"Bürglen (UR)"},"district":{"key":"400","name":"Kanton Uri"},"canton":{"key":"4","code":"UR","name":"Uri"},"status":"Real"},{"key":"10088104","name":"Schützengasse","postalCode":"6460","locality":"Altdorf UR","commune":{"key":"1205","name":"Bürglen (UR)","shortName":"Bürglen (UR)"},"district":{"key":"400","name":"Kanton Uri"},"canton":{"key":"4","code":"UR","name":"Uri"},"status":"Real"},{"key":"10145959","name":"Schwanengässli","postalCode":"6460","locality":"Altdorf UR","commune":{"key":"1205","name":"Bürglen (UR)","shortName":"Bürglen (UR)"},"district":{"key":"400","name":"Kanton Uri"},"canton":{"key":"4","code":"UR","name":"Uri"},"status":"Real"},{"key":"10145960","name":"Schwimmbadstrasse","postalCode":"6460","locality":"Altdorf UR","commune":{"key":"1205","name":"Bürglen (UR)","shortName":"Bürglen (UR)"},"district":{"key":"400","name":"Kanton Uri"},"canton":{"key":"4","code":"UR","name":"Uri"},"status":"Real"},{"key":"10013755","name":"Schybenplätzliweg","postalCode":"6460","locality":"Altdorf UR","commune":{"key":"1205","name":"Bürglen (UR)","shortName":"Bürglen (UR)"},"district":{"key":"400","name":"Kanton Uri"},"canton":{"key":"4","code":"UR","name":"Uri"},"status":"Real"},{"key":"10052643","name":"Seedorferstrasse","postalCode":"6460","locality":"Altdorf UR","commune":{"key":"1205","name":"Bürglen (UR)","shortName":"Bürglen (UR)"},"district":{"key":"400","name":"Kanton Uri"},"canton":{"key":"4","code":"UR","name":"Uri"},"status":"Real"},{"key":"10066626","name":"Seilergasse","postalCode":"6460","locality":"Altdorf UR","commune":{"key":"1205","name":"Bürglen (UR)","shortName":"Bürglen (UR)"},"district":{"key":"400","name":"Kanton Uri"},"canton":{"key":"4","code":"UR","name":"Uri"},"status":"Real"},{"key":"10188487","name":"Spitalplatz","postalCode":"6460","locality":"Altdorf UR","commune":{"key":"1205","name":"Bürglen (UR)","shortName":"Bürglen (UR)"},"district":{"key":"400","name":"Kanton Uri"},"canton":{"key":"4","code":"UR","name":"Uri"},"status":"Real"},{"key":"10113876","name":"Spitalstrasse","postalCode":"6460","locality":"Altdorf UR","commune":{"key":"1205","name":"Bürglen (UR)","shortName":"Bürglen (UR)"},"district":{"key":"400","name":"Kanton Uri"},"canton":{"key":"4","code":"UR","name":"Uri"},"status":"Real"},{"key":"10013756","name":"Steinmattstrasse","postalCode":"6460","locality":"Altdorf UR","commune":{"key":"1205","name":"Bürglen (UR)","shortName":"Bürglen (UR)"},"district":{"key":"400","name":"Kanton Uri"},"canton":{"key":"4","code":"UR","name":"Uri"},"status":"Real"},{"key":"10102775","name":"St. Josefsweg","postalCode":"6460","locality":"Altdorf UR","commune":{"key":"1205","name":"Bürglen (UR)","shortName":"Bürglen (UR)"},"district":{"key":"400","name":"Kanton Uri"},"canton":{"key":"4","code":"UR","name":"Uri"},"status":"Real"},{"key":"10066627","name":"Stöckligasse","postalCode":"6460","locality":"Altdorf UR","commune":{"key":"1205","name":"Bürglen (UR)","shortName":"Bürglen (UR)"},"district":{"key":"400","name":"Kanton Uri"},"canton":{"key":"4","code":"UR","name":"Uri"},"status":"Real"},{"key":"10088105","name":"Stoffelgasse","postalCode":"6460","locality":"Altdorf UR","commune":{"key":"1205","name":"Bürglen (UR)","shortName":"Bürglen (UR)"},"district":{"key":"400","name":"Kanton Uri"},"canton":{"key":"4","code":"UR","name":"Uri"},"status":"Real"},{"key":"10015214","name":"St. Raphaelweg","postalCode":"6460","locality":"Altdorf UR","commune":{"key":"1205","name":"Bürglen (UR)","shortName":"Bürglen (UR)"},"district":{"key":"400","name":"Kanton Uri"},"canton":{"key":"4","code":"UR","name":"Uri"},"status":"Real"},{"key":"10052644","name":"Tellsgasse","postalCode":"6460","locality":"Altdorf UR","commune":{"key":"1205","name":"Bürglen (UR)","shortName":"Bürglen (UR)"},"district":{"key":"400","name":"Kanton Uri"},"canton":{"key":"4","code":"UR","name":"Uri"},"status":"Real"},{"key":"10111596","name":"Trögligasse","postalCode":"6460","locality":"Altdorf UR","commune":{"key":"1205","name":"Bürglen (UR)","shortName":"Bürglen (UR)"},"district":{"key":"400","name":"Kanton Uri"},"canton":{"key":"4","code":"UR","name":"Uri"},"status":"Real"},{"key":"10013757","name":"Tschudiweg","postalCode":"6460","locality":"Altdorf UR","commune":{"key":"1205","name":"Bürglen (UR)","shortName":"Bürglen (UR)"},"district":{"key":"400","name":"Kanton Uri"},"canton":{"key":"4","code":"UR","name":"Uri"},"status":"Real"},{"key":"10066628","name":"Turmmattweg","postalCode":"6460","locality":"Altdorf UR","commune":{"key":"1205","name":"Bürglen (UR)","shortName":"Bürglen (UR)"},"district":{"key":"400","name":"Kanton Uri"},"canton":{"key":"4","code":"UR","name":"Uri"},"status":"Real"},{"key":"10088106","name":"Untere Planzeren","postalCode":"6460","locality":"Altdorf UR","commune":{"key":"1205","name":"Bürglen (UR)","shortName":"Bürglen (UR)"},"district":{"key":"400","name":"Kanton Uri"},"canton":{"key":"4","code":"UR","name":"Uri"},"status":"Real"},{"key":"10145955","name":"Unteres Lehngässli","postalCode":"6460","locality":"Altdorf UR","commune":{"key":"1205","name":"Bürglen (UR)","shortName":"Bürglen (UR)"},"district":{"key":"400","name":"Kanton Uri"},"canton":{"key":"4","code":"UR","name":"Uri"},"status":"Real"},{"key":"10190789","name":"Utzigen","postalCode":"6460","locality":"Altdorf UR","commune":{"key":"1205","name":"Bürglen (UR)","shortName":"Bürglen (UR)"},"district":{"key":"400","name":"Kanton Uri"},"canton":{"key":"4","code":"UR","name":"Uri"},"status":"Real"},{"key":"10013758","name":"Utzigmattweg","postalCode":"6460","locality":"Altdorf UR","commune":{"key":"1205","name":"Bürglen (UR)","shortName":"Bürglen (UR)"},"district":{"key":"400","name":"Kanton Uri"},"canton":{"key":"4","code":"UR","name":"Uri"},"status":"Real"},{"key":"10013759","name":"Vogelsanggasse","postalCode":"6460","locality":"Altdorf UR","commune":{"key":"1205","name":"Bürglen (UR)","shortName":"Bürglen (UR)"},"district":{"key":"400","name":"Kanton Uri"},"canton":{"key":"4","code":"UR","name":"Uri"},"status":"Real"},{"key":"10013760","name":"Vorstadt","postalCode":"6460","locality":"Altdorf UR","commune":{"key":"1205","name":"Bürglen (UR)","shortName":"Bürglen (UR)"},"district":{"key":"400","name":"Kanton Uri"},"canton":{"key":"4","code":"UR","name":"Uri"},"status":"Real"},{"key":"10180537","name":"Waldigermatte","postalCode":"6460","locality":"Altdorf UR","commune":{"key":"1205","name":"Bürglen (UR)","shortName":"Bürglen (UR)"},"district":{"key":"400","name":"Kanton Uri"},"canton":{"key":"4","code":"UR","name":"Uri"},"status":"Real"},{"key":"10088107","name":"Waldmatt","postalCode":"6460","locality":"Altdorf UR","commune":{"key":"1205","name":"Bürglen (UR)","shortName":"Bürglen (UR)"},"district":{"key":"400","name":"Kanton Uri"},"canton":{"key":"4","code":"UR","name":"Uri"},"status":"Real"},{"key":"10145961","name":"Waldweg","postalCode":"6460","locality":"Altdorf UR","commune":{"key":"1205","name":"Bürglen (UR)","shortName":"Bürglen (UR)"},"district":{"key":"400","name":"Kanton Uri"},"canton":{"key":"4","code":"UR","name":"Uri"},"status":"Real"},{"key":"10067452","name":"Walkermätteli","postalCode":"6460","locality":"Altdorf UR","commune":{"key":"1205","name":"Bürglen (UR)","shortName":"Bürglen (UR)"},"district":{"key":"400","name":"Kanton Uri"},"canton":{"key":"4","code":"UR","name":"Uri"},"status":"Real"},{"key":"10113877","name":"Wegmatte","postalCode":"6460","locality":"Altdorf UR","commune":{"key":"1205","name":"Bürglen (UR)","shortName":"Bürglen (UR)"},"district":{"key":"400","name":"Kanton Uri"},"canton":{"key":"4","code":"UR","name":"Uri"},"status":"Real"},{"key":"10088130","name":"Wegmätteli","postalCode":"6460","locality":"Altdorf UR","commune":{"key":"1205","name":"Bürglen (UR)","shortName":"Bürglen (UR)"},"district":{"key":"400","name":"Kanton Uri"},"canton":{"key":"4","code":"UR","name":"Uri"},"status":"Real"},{"key":"10145962","name":"Wegmattgässli","postalCode":"6460","locality":"Altdorf UR","commune":{"key":"1205","name":"Bürglen (UR)","shortName":"Bürglen (UR)"},"district":{"key":"400","name":"Kanton Uri"},"canton":{"key":"4","code":"UR","name":"Uri"},"status":"Real"},{"key":"10131345","name":"Weisshausmatte","postalCode":"6460","locality":"Altdorf UR","commune":{"key":"1205","name":"Bürglen (UR)","shortName":"Bürglen (UR)"},"district":{"key":"400","name":"Kanton Uri"},"canton":{"key":"4","code":"UR","name":"Uri"},"status":"Real"},{"key":"10052645","name":"Weltigasse","postalCode":"6460","locality":"Altdorf UR","commune":{"key":"1205","name":"Bürglen (UR)","shortName":"Bürglen (UR)"},"district":{"key":"400","name":"Kanton Uri"},"canton":{"key":"4","code":"UR","name":"Uri"},"status":"Real"},{"key":"10240483","name":"Werkmatt","postalCode":"6460","locality":"Altdorf UR","commune":{"key":"1205","name":"Bürglen (UR)","shortName":"Bürglen (UR)"},"district":{"key":"400","name":"Kanton Uri"},"canton":{"key":"4","code":"UR","name":"Uri"},"status":"Real"},{"key":"10156543","name":"Winkel","postalCode":"6460","locality":"Altdorf UR","commune":{"key":"1205","name":"Bürglen (UR)","shortName":"Bürglen (UR)"},"district":{"key":"400","name":"Kanton Uri"},"canton":{"key":"4","code":"UR","name":"Uri"},"status":"Real"},{"key":"10013761","name":"Winkelgasse","postalCode":"6460","locality":"Altdorf UR","commune":{"key":"1205","name":"Bürglen (UR)","shortName":"Bürglen (UR)"},"district":{"key":"400","name":"Kanton Uri"},"canton":{"key":"4","code":"UR","name":"Uri"},"status":"Real"},{"key":"10210580","name":"Winterberg","postalCode":"6460","locality":"Altdorf UR","commune":{"key":"1205","name":"Bürglen (UR)","shortName":"Bürglen (UR)"},"district":{"key":"400","name":"Kanton Uri"},"canton":{"key":"4","code":"UR","name":"Uri"},"status":"Real"},{"key":"10088108","name":"Winterberggasse","postalCode":"6460","locality":"Altdorf UR","commune":{"key":"1205","name":"Bürglen (UR)","shortName":"Bürglen (UR)"},"district":{"key":"400","name":"Kanton Uri"},"canton":{"key":"4","code":"UR","name":"Uri"},"status":"Real"},{"key":"10145963","name":"Wyergasse","postalCode":"6460","locality":"Altdorf UR","commune":{"key":"1205","name":"Bürglen (UR)","shortName":"Bürglen (UR)"},"district":{"key":"400","name":"Kanton Uri"},"canton":{"key":"4","code":"UR","name":"Uri"},"status":"Real"},{"key":"10088109","name":"Zumbrunnenweg","postalCode":"6460","locality":"Altdorf UR","commune":{"key":"1205","name":"Bürglen (UR)","shortName":"Bürglen (UR)"},"district":{"key":"400","name":"Kanton Uri"},"canton":{"key":"4","code":"UR","name":"Uri"},"status":"Real"},{"key":"10066629","name":"Zwyergasse","postalCode":"6460","locality":"Altdorf UR","commune":{"key":"1205","name":"Bürglen (UR)","shortName":"Bürglen (UR)"},"district":{"key":"400","name":"Kanton Uri"},"canton":{"key":"4","code":"UR","name":"Uri"},"status":"Real"},]