[{"name":"Alte Dorfstr.","postalCode":"49762","locality":"Fresenburg","municipality":{"key":"03454013","name":"Fresenburg","type":"Kreisangehörige_Gemeinde"},"district":{"key":"03454","name":"Emsland","type":"Landkreis"},"federalState":{"key":"03","name":"Niedersachsen"}},{"name":"Brookstr.","postalCode":"49762","locality":"Fresenburg","municipality":{"key":"03454013","name":"Fresenburg","type":"Kreisangehörige_Gemeinde"},"district":{"key":"03454","name":"Emsland","type":"Landkreis"},"federalState":{"key":"03","name":"Niedersachsen"}},{"name":"Bundesstr. 70","postalCode":"49762","locality":"Fresenburg","municipality":{"key":"03454013","name":"Fresenburg","type":"Kreisangehörige_Gemeinde"},"district":{"key":"03454","name":"Emsland","type":"Landkreis"},"federalState":{"key":"03","name":"Niedersachsen"}},{"name":"Buschstr.","postalCode":"49762","locality":"Fresenburg","municipality":{"key":"03454013","name":"Fresenburg","type":"Kreisangehörige_Gemeinde"},"district":{"key":"03454","name":"Emsland","type":"Landkreis"},"federalState":{"key":"03","name":"Niedersachsen"}},{"name":"Düther Str.","postalCode":"49762","locality":"Fresenburg","municipality":{"key":"03454013","name":"Fresenburg","type":"Kreisangehörige_Gemeinde"},"district":{"key":"03454","name":"Emsland","type":"Landkreis"},"federalState":{"key":"03","name":"Niedersachsen"}},{"name":"Düther Torfweg","postalCode":"49762","locality":"Fresenburg","municipality":{"key":"03454013","name":"Fresenburg","type":"Kreisangehörige_Gemeinde"},"district":{"key":"03454","name":"Emsland","type":"Landkreis"},"federalState":{"key":"03","name":"Niedersachsen"}},{"name":"Eichenstr.","postalCode":"49762","locality":"Fresenburg","municipality":{"key":"03454013","name":"Fresenburg","type":"Kreisangehörige_Gemeinde"},"district":{"key":"03454","name":"Emsland","type":"Landkreis"},"federalState":{"key":"03","name":"Niedersachsen"}},{"name":"Emsblickstr.","postalCode":"49762","locality":"Fresenburg","municipality":{"key":"03454013","name":"Fresenburg","type":"Kreisangehörige_Gemeinde"},"district":{"key":"03454","name":"Emsland","type":"Landkreis"},"federalState":{"key":"03","name":"Niedersachsen"}},{"name":"Emsstr.","postalCode":"49762","locality":"Fresenburg","municipality":{"key":"03454013","name":"Fresenburg","type":"Kreisangehörige_Gemeinde"},"district":{"key":"03454","name":"Emsland","type":"Landkreis"},"federalState":{"key":"03","name":"Niedersachsen"}},{"name":"Galgenbergweg","postalCode":"49762","locality":"Fresenburg","municipality":{"key":"03454013","name":"Fresenburg","type":"Kreisangehörige_Gemeinde"},"district":{"key":"03454","name":"Emsland","type":"Landkreis"},"federalState":{"key":"03","name":"Niedersachsen"}},{"name":"Gartenstr.","postalCode":"49762","locality":"Fresenburg","municipality":{"key":"03454013","name":"Fresenburg","type":"Kreisangehörige_Gemeinde"},"district":{"key":"03454","name":"Emsland","type":"Landkreis"},"federalState":{"key":"03","name":"Niedersachsen"}},{"name":"Grüner Weg","postalCode":"49762","locality":"Fresenburg","municipality":{"key":"03454013","name":"Fresenburg","type":"Kreisangehörige_Gemeinde"},"district":{"key":"03454","name":"Emsland","type":"Landkreis"},"federalState":{"key":"03","name":"Niedersachsen"}},{"name":"Hauptstr.","postalCode":"49762","locality":"Fresenburg","municipality":{"key":"03454013","name":"Fresenburg","type":"Kreisangehörige_Gemeinde"},"district":{"key":"03454","name":"Emsland","type":"Landkreis"},"federalState":{"key":"03","name":"Niedersachsen"}},{"name":"Heidestr.","postalCode":"49762","locality":"Fresenburg","municipality":{"key":"03454013","name":"Fresenburg","type":"Kreisangehörige_Gemeinde"},"district":{"key":"03454","name":"Emsland","type":"Landkreis"},"federalState":{"key":"03","name":"Niedersachsen"}},{"name":"Hofwiesenweg","postalCode":"49762","locality":"Fresenburg","municipality":{"key":"03454013","name":"Fresenburg","type":"Kreisangehörige_Gemeinde"},"district":{"key":"03454","name":"Emsland","type":"Landkreis"},"federalState":{"key":"03","name":"Niedersachsen"}},{"name":"Hohlweg","postalCode":"49762","locality":"Fresenburg","municipality":{"key":"03454013","name":"Fresenburg","type":"Kreisangehörige_Gemeinde"},"district":{"key":"03454","name":"Emsland","type":"Landkreis"},"federalState":{"key":"03","name":"Niedersachsen"}},{"name":"Johann-Ehrens-Str.","postalCode":"49762","locality":"Fresenburg","municipality":{"key":"03454013","name":"Fresenburg","type":"Kreisangehörige_Gemeinde"},"district":{"key":"03454","name":"Emsland","type":"Landkreis"},"federalState":{"key":"03","name":"Niedersachsen"}},{"name":"Kiefernstr.","postalCode":"49762","locality":"Fresenburg","municipality":{"key":"03454013","name":"Fresenburg","type":"Kreisangehörige_Gemeinde"},"district":{"key":"03454","name":"Emsland","type":"Landkreis"},"federalState":{"key":"03","name":"Niedersachsen"}},{"name":"Kreuzstr.","postalCode":"49762","locality":"Fresenburg","municipality":{"key":"03454013","name":"Fresenburg","type":"Kreisangehörige_Gemeinde"},"district":{"key":"03454","name":"Emsland","type":"Landkreis"},"federalState":{"key":"03","name":"Niedersachsen"}},{"name":"Lathener Str.","postalCode":"49762","locality":"Fresenburg","municipality":{"key":"03454013","name":"Fresenburg","type":"Kreisangehörige_Gemeinde"},"district":{"key":"03454","name":"Emsland","type":"Landkreis"},"federalState":{"key":"03","name":"Niedersachsen"}},{"name":"Lehmkuhlenweg","postalCode":"49762","locality":"Fresenburg","municipality":{"key":"03454013","name":"Fresenburg","type":"Kreisangehörige_Gemeinde"},"district":{"key":"03454","name":"Emsland","type":"Landkreis"},"federalState":{"key":"03","name":"Niedersachsen"}},{"name":"Lindenstr.","postalCode":"49762","locality":"Fresenburg","municipality":{"key":"03454013","name":"Fresenburg","type":"Kreisangehörige_Gemeinde"},"district":{"key":"03454","name":"Emsland","type":"Landkreis"},"federalState":{"key":"03","name":"Niedersachsen"}},{"name":"Melstruper Hauptstr.","postalCode":"49762","locality":"Fresenburg","municipality":{"key":"03454013","name":"Fresenburg","type":"Kreisangehörige_Gemeinde"},"district":{"key":"03454","name":"Emsland","type":"Landkreis"},"federalState":{"key":"03","name":"Niedersachsen"}},{"name":"Mittelstr.","postalCode":"49762","locality":"Fresenburg","municipality":{"key":"03454013","name":"Fresenburg","type":"Kreisangehörige_Gemeinde"},"district":{"key":"03454","name":"Emsland","type":"Landkreis"},"federalState":{"key":"03","name":"Niedersachsen"}},{"name":"Mittelweg","postalCode":"49762","locality":"Fresenburg","municipality":{"key":"03454013","name":"Fresenburg","type":"Kreisangehörige_Gemeinde"},"district":{"key":"03454","name":"Emsland","type":"Landkreis"},"federalState":{"key":"03","name":"Niedersachsen"}},{"name":"Mühlenstr.","postalCode":"49762","locality":"Fresenburg","municipality":{"key":"03454013","name":"Fresenburg","type":"Kreisangehörige_Gemeinde"},"district":{"key":"03454","name":"Emsland","type":"Landkreis"},"federalState":{"key":"03","name":"Niedersachsen"}},{"name":"Paaskebergweg","postalCode":"49762","locality":"Fresenburg","municipality":{"key":"03454013","name":"Fresenburg","type":"Kreisangehörige_Gemeinde"},"district":{"key":"03454","name":"Emsland","type":"Landkreis"},"federalState":{"key":"03","name":"Niedersachsen"}},{"name":"Parkstr.","postalCode":"49762","locality":"Fresenburg","municipality":{"key":"03454013","name":"Fresenburg","type":"Kreisangehörige_Gemeinde"},"district":{"key":"03454","name":"Emsland","type":"Landkreis"},"federalState":{"key":"03","name":"Niedersachsen"}},{"name":"Paters-Hagen-Weg","postalCode":"49762","locality":"Fresenburg","municipality":{"key":"03454013","name":"Fresenburg","type":"Kreisangehörige_Gemeinde"},"district":{"key":"03454","name":"Emsland","type":"Landkreis"},"federalState":{"key":"03","name":"Niedersachsen"}},{"name":"Pattwiske","postalCode":"49762","locality":"Fresenburg","municipality":{"key":"03454013","name":"Fresenburg","type":"Kreisangehörige_Gemeinde"},"district":{"key":"03454","name":"Emsland","type":"Landkreis"},"federalState":{"key":"03","name":"Niedersachsen"}},{"name":"Schaftriftweg","postalCode":"49762","locality":"Fresenburg","municipality":{"key":"03454013","name":"Fresenburg","type":"Kreisangehörige_Gemeinde"},"district":{"key":"03454","name":"Emsland","type":"Landkreis"},"federalState":{"key":"03","name":"Niedersachsen"}},{"name":"Schmiedestr.","postalCode":"49762","locality":"Fresenburg","municipality":{"key":"03454013","name":"Fresenburg","type":"Kreisangehörige_Gemeinde"},"district":{"key":"03454","name":"Emsland","type":"Landkreis"},"federalState":{"key":"03","name":"Niedersachsen"}},{"name":"Schulstr.","postalCode":"49762","locality":"Fresenburg","municipality":{"key":"03454013","name":"Fresenburg","type":"Kreisangehörige_Gemeinde"},"district":{"key":"03454","name":"Emsland","type":"Landkreis"},"federalState":{"key":"03","name":"Niedersachsen"}},{"name":"Schützenweg","postalCode":"49762","locality":"Fresenburg","municipality":{"key":"03454013","name":"Fresenburg","type":"Kreisangehörige_Gemeinde"},"district":{"key":"03454","name":"Emsland","type":"Landkreis"},"federalState":{"key":"03","name":"Niedersachsen"}},{"name":"Sportplatzweg","postalCode":"49762","locality":"Fresenburg","municipality":{"key":"03454013","name":"Fresenburg","type":"Kreisangehörige_Gemeinde"},"district":{"key":"03454","name":"Emsland","type":"Landkreis"},"federalState":{"key":"03","name":"Niedersachsen"}},{"name":"Steinbilder Str.","postalCode":"49762","locality":"Fresenburg","municipality":{"key":"03454013","name":"Fresenburg","type":"Kreisangehörige_Gemeinde"},"district":{"key":"03454","name":"Emsland","type":"Landkreis"},"federalState":{"key":"03","name":"Niedersachsen"}},{"name":"Südstr.","postalCode":"49762","locality":"Fresenburg","municipality":{"key":"03454013","name":"Fresenburg","type":"Kreisangehörige_Gemeinde"},"district":{"key":"03454","name":"Emsland","type":"Landkreis"},"federalState":{"key":"03","name":"Niedersachsen"}},{"name":"Up de Heide","postalCode":"49762","locality":"Fresenburg","municipality":{"key":"03454013","name":"Fresenburg","type":"Kreisangehörige_Gemeinde"},"district":{"key":"03454","name":"Emsland","type":"Landkreis"},"federalState":{"key":"03","name":"Niedersachsen"}},{"name":"Waldstr.","postalCode":"49762","locality":"Fresenburg","municipality":{"key":"03454013","name":"Fresenburg","type":"Kreisangehörige_Gemeinde"},"district":{"key":"03454","name":"Emsland","type":"Landkreis"},"federalState":{"key":"03","name":"Niedersachsen"}},{"name":"Waldweg","postalCode":"49762","locality":"Fresenburg","municipality":{"key":"03454013","name":"Fresenburg","type":"Kreisangehörige_Gemeinde"},"district":{"key":"03454","name":"Emsland","type":"Landkreis"},"federalState":{"key":"03","name":"Niedersachsen"}},{"name":"Wehrstr.","postalCode":"49762","locality":"Fresenburg","municipality":{"key":"03454013","name":"Fresenburg","type":"Kreisangehörige_Gemeinde"},"district":{"key":"03454","name":"Emsland","type":"Landkreis"},"federalState":{"key":"03","name":"Niedersachsen"}},{"name":"Werderweg","postalCode":"49762","locality":"Fresenburg","municipality":{"key":"03454013","name":"Fresenburg","type":"Kreisangehörige_Gemeinde"},"district":{"key":"03454","name":"Emsland","type":"Landkreis"},"federalState":{"key":"03","name":"Niedersachsen"}},{"name":"Zum Brink","postalCode":"49762","locality":"Fresenburg","municipality":{"key":"03454013","name":"Fresenburg","type":"Kreisangehörige_Gemeinde"},"district":{"key":"03454","name":"Emsland","type":"Landkreis"},"federalState":{"key":"03","name":"Niedersachsen"}},{"name":"Zum Emsblick","postalCode":"49762","locality":"Fresenburg","municipality":{"key":"03454013","name":"Fresenburg","type":"Kreisangehörige_Gemeinde"},"district":{"key":"03454","name":"Emsland","type":"Landkreis"},"federalState":{"key":"03","name":"Niedersachsen"}},{"name":"Zur Schleuse","postalCode":"49762","locality":"Fresenburg","municipality":{"key":"03454013","name":"Fresenburg","type":"Kreisangehörige_Gemeinde"},"district":{"key":"03454","name":"Emsland","type":"Landkreis"},"federalState":{"key":"03","name":"Niedersachsen"}},]