[{"name":"Alemannenweg","postalCode":"88138","locality":"Hergensweiler","municipality":{"key":"09776115","name":"Hergensweiler","type":"Kreisangehörige_Gemeinde"},"district":{"key":"09776","name":"Lindau (Bodensee)","type":"Landkreis"},"federalState":{"key":"09","name":"Bayern"}},{"name":"Alpsteinstr.","postalCode":"88138","locality":"Hergensweiler","municipality":{"key":"09776115","name":"Hergensweiler","type":"Kreisangehörige_Gemeinde"},"district":{"key":"09776","name":"Lindau (Bodensee)","type":"Landkreis"},"federalState":{"key":"09","name":"Bayern"}},{"name":"Altmannstr.","postalCode":"88138","locality":"Hergensweiler","municipality":{"key":"09776115","name":"Hergensweiler","type":"Kreisangehörige_Gemeinde"},"district":{"key":"09776","name":"Lindau (Bodensee)","type":"Landkreis"},"federalState":{"key":"09","name":"Bayern"}},{"name":"Bahnhofstr.","postalCode":"88138","locality":"Hergensweiler","municipality":{"key":"09776115","name":"Hergensweiler","type":"Kreisangehörige_Gemeinde"},"district":{"key":"09776","name":"Lindau (Bodensee)","type":"Landkreis"},"federalState":{"key":"09","name":"Bayern"}},{"name":"Bodenseestr.","postalCode":"88138","locality":"Hergensweiler","municipality":{"key":"09776115","name":"Hergensweiler","type":"Kreisangehörige_Gemeinde"},"district":{"key":"09776","name":"Lindau (Bodensee)","type":"Landkreis"},"federalState":{"key":"09","name":"Bayern"}},{"name":"Dorfstr.","postalCode":"88138","locality":"Hergensweiler","municipality":{"key":"09776115","name":"Hergensweiler","type":"Kreisangehörige_Gemeinde"},"district":{"key":"09776","name":"Lindau (Bodensee)","type":"Landkreis"},"federalState":{"key":"09","name":"Bayern"}},{"name":"Feldweg zur Leiblach","postalCode":"88138","locality":"Hergensweiler","municipality":{"key":"09776115","name":"Hergensweiler","type":"Kreisangehörige_Gemeinde"},"district":{"key":"09776","name":"Lindau (Bodensee)","type":"Landkreis"},"federalState":{"key":"09","name":"Bayern"}},{"name":"Friedhofweg","postalCode":"88138","locality":"Hergensweiler","municipality":{"key":"09776115","name":"Hergensweiler","type":"Kreisangehörige_Gemeinde"},"district":{"key":"09776","name":"Lindau (Bodensee)","type":"Landkreis"},"federalState":{"key":"09","name":"Bayern"}},{"name":"Hauptstr.","postalCode":"88138","locality":"Hergensweiler","municipality":{"key":"09776115","name":"Hergensweiler","type":"Kreisangehörige_Gemeinde"},"district":{"key":"09776","name":"Lindau (Bodensee)","type":"Landkreis"},"federalState":{"key":"09","name":"Bayern"}},{"name":"Herigerstr.","postalCode":"88138","locality":"Hergensweiler","municipality":{"key":"09776115","name":"Hergensweiler","type":"Kreisangehörige_Gemeinde"},"district":{"key":"09776","name":"Lindau (Bodensee)","type":"Landkreis"},"federalState":{"key":"09","name":"Bayern"}},{"name":"Im Obstgarten","postalCode":"88138","locality":"Hergensweiler","municipality":{"key":"09776115","name":"Hergensweiler","type":"Kreisangehörige_Gemeinde"},"district":{"key":"09776","name":"Lindau (Bodensee)","type":"Landkreis"},"federalState":{"key":"09","name":"Bayern"}},{"name":"Im Stillen Winkel","postalCode":"88138","locality":"Hergensweiler","municipality":{"key":"09776115","name":"Hergensweiler","type":"Kreisangehörige_Gemeinde"},"district":{"key":"09776","name":"Lindau (Bodensee)","type":"Landkreis"},"federalState":{"key":"09","name":"Bayern"}},{"name":"Kemptener Str.","postalCode":"88138","locality":"Hergensweiler","municipality":{"key":"09776115","name":"Hergensweiler","type":"Kreisangehörige_Gemeinde"},"district":{"key":"09776","name":"Lindau (Bodensee)","type":"Landkreis"},"federalState":{"key":"09","name":"Bayern"}},{"name":"Kirchweg","postalCode":"88138","locality":"Hergensweiler","municipality":{"key":"09776115","name":"Hergensweiler","type":"Kreisangehörige_Gemeinde"},"district":{"key":"09776","name":"Lindau (Bodensee)","type":"Landkreis"},"federalState":{"key":"09","name":"Bayern"}},{"name":"Leiblachweg","postalCode":"88138","locality":"Hergensweiler","municipality":{"key":"09776115","name":"Hergensweiler","type":"Kreisangehörige_Gemeinde"},"district":{"key":"09776","name":"Lindau (Bodensee)","type":"Landkreis"},"federalState":{"key":"09","name":"Bayern"}},{"name":"Linggstr.","postalCode":"88138","locality":"Hergensweiler","municipality":{"key":"09776115","name":"Hergensweiler","type":"Kreisangehörige_Gemeinde"},"district":{"key":"09776","name":"Lindau (Bodensee)","type":"Landkreis"},"federalState":{"key":"09","name":"Bayern"}},{"name":"Mollenberg","postalCode":"88138","locality":"Hergensweiler","municipality":{"key":"09776115","name":"Hergensweiler","type":"Kreisangehörige_Gemeinde"},"district":{"key":"09776","name":"Lindau (Bodensee)","type":"Landkreis"},"federalState":{"key":"09","name":"Bayern"}},{"name":"Montfortstr.","postalCode":"88138","locality":"Hergensweiler","municipality":{"key":"09776115","name":"Hergensweiler","type":"Kreisangehörige_Gemeinde"},"district":{"key":"09776","name":"Lindau (Bodensee)","type":"Landkreis"},"federalState":{"key":"09","name":"Bayern"}},{"name":"Oberer Riegersbach","postalCode":"88138","locality":"Hergensweiler","municipality":{"key":"09776115","name":"Hergensweiler","type":"Kreisangehörige_Gemeinde"},"district":{"key":"09776","name":"Lindau (Bodensee)","type":"Landkreis"},"federalState":{"key":"09","name":"Bayern"}},{"name":"Oberholz","postalCode":"88138","locality":"Hergensweiler","municipality":{"key":"09776115","name":"Hergensweiler","type":"Kreisangehörige_Gemeinde"},"district":{"key":"09776","name":"Lindau (Bodensee)","type":"Landkreis"},"federalState":{"key":"09","name":"Bayern"}},{"name":"Panoramaweg","postalCode":"88138","locality":"Hergensweiler","municipality":{"key":"09776115","name":"Hergensweiler","type":"Kreisangehörige_Gemeinde"},"district":{"key":"09776","name":"Lindau (Bodensee)","type":"Landkreis"},"federalState":{"key":"09","name":"Bayern"}},{"name":"Rosenweiher","postalCode":"88138","locality":"Hergensweiler","municipality":{"key":"09776115","name":"Hergensweiler","type":"Kreisangehörige_Gemeinde"},"district":{"key":"09776","name":"Lindau (Bodensee)","type":"Landkreis"},"federalState":{"key":"09","name":"Bayern"}},{"name":"Roßhimmel","postalCode":"88138","locality":"Hergensweiler","municipality":{"key":"09776115","name":"Hergensweiler","type":"Kreisangehörige_Gemeinde"},"district":{"key":"09776","name":"Lindau (Bodensee)","type":"Landkreis"},"federalState":{"key":"09","name":"Bayern"}},{"name":"Rupolzer Str.","postalCode":"88138","locality":"Hergensweiler","municipality":{"key":"09776115","name":"Hergensweiler","type":"Kreisangehörige_Gemeinde"},"district":{"key":"09776","name":"Lindau (Bodensee)","type":"Landkreis"},"federalState":{"key":"09","name":"Bayern"}},{"name":"Scheidenweiler","postalCode":"88138","locality":"Hergensweiler","municipality":{"key":"09776115","name":"Hergensweiler","type":"Kreisangehörige_Gemeinde"},"district":{"key":"09776","name":"Lindau (Bodensee)","type":"Landkreis"},"federalState":{"key":"09","name":"Bayern"}},{"name":"Sennereiweg","postalCode":"88138","locality":"Hergensweiler","municipality":{"key":"09776115","name":"Hergensweiler","type":"Kreisangehörige_Gemeinde"},"district":{"key":"09776","name":"Lindau (Bodensee)","type":"Landkreis"},"federalState":{"key":"09","name":"Bayern"}},{"name":"Stockenweiler","postalCode":"88138","locality":"Hergensweiler","municipality":{"key":"09776115","name":"Hergensweiler","type":"Kreisangehörige_Gemeinde"},"district":{"key":"09776","name":"Lindau (Bodensee)","type":"Landkreis"},"federalState":{"key":"09","name":"Bayern"}},{"name":"Streuobstwiesenweg","postalCode":"88138","locality":"Hergensweiler","municipality":{"key":"09776115","name":"Hergensweiler","type":"Kreisangehörige_Gemeinde"},"district":{"key":"09776","name":"Lindau (Bodensee)","type":"Landkreis"},"federalState":{"key":"09","name":"Bayern"}},{"name":"Unterer Riegersbach","postalCode":"88138","locality":"Hergensweiler","municipality":{"key":"09776115","name":"Hergensweiler","type":"Kreisangehörige_Gemeinde"},"district":{"key":"09776","name":"Lindau (Bodensee)","type":"Landkreis"},"federalState":{"key":"09","name":"Bayern"}},{"name":"Unterösch","postalCode":"88138","locality":"Hergensweiler","municipality":{"key":"09776115","name":"Hergensweiler","type":"Kreisangehörige_Gemeinde"},"district":{"key":"09776","name":"Lindau (Bodensee)","type":"Landkreis"},"federalState":{"key":"09","name":"Bayern"}},{"name":"Ziergartenweg","postalCode":"88138","locality":"Hergensweiler","municipality":{"key":"09776115","name":"Hergensweiler","type":"Kreisangehörige_Gemeinde"},"district":{"key":"09776","name":"Lindau (Bodensee)","type":"Landkreis"},"federalState":{"key":"09","name":"Bayern"}},{"name":"Zur Knochenmühle","postalCode":"88138","locality":"Hergensweiler","municipality":{"key":"09776115","name":"Hergensweiler","type":"Kreisangehörige_Gemeinde"},"district":{"key":"09776","name":"Lindau (Bodensee)","type":"Landkreis"},"federalState":{"key":"09","name":"Bayern"}},]