[{"key":"10153885","name":"Alte Mettmenstetterstrasse","postalCode":"8933","locality":"Maschwanden","commune":{"key":"8","name":"Maschwanden","shortName":"Maschwanden"},"district":{"key":"101","name":"Bezirk Affoltern"},"canton":{"key":"1","code":"ZH","name":"Zürich"},"status":"Real"},{"key":"10153967","name":"Ausserdorfstrasse","postalCode":"8933","locality":"Maschwanden","commune":{"key":"8","name":"Maschwanden","shortName":"Maschwanden"},"district":{"key":"101","name":"Bezirk Affoltern"},"canton":{"key":"1","code":"ZH","name":"Zürich"},"status":"Real"},{"key":"10162552","name":"Bibellos","postalCode":"8933","locality":"Maschwanden","commune":{"key":"8","name":"Maschwanden","shortName":"Maschwanden"},"district":{"key":"101","name":"Bezirk Affoltern"},"canton":{"key":"1","code":"ZH","name":"Zürich"},"status":"Real"},{"key":"10192309","name":"Bollmoosstrasse","postalCode":"8933","locality":"Maschwanden","commune":{"key":"8","name":"Maschwanden","shortName":"Maschwanden"},"district":{"key":"101","name":"Bezirk Affoltern"},"canton":{"key":"1","code":"ZH","name":"Zürich"},"status":"Real"},{"key":"10149473","name":"Breitmatt","postalCode":"8933","locality":"Maschwanden","commune":{"key":"8","name":"Maschwanden","shortName":"Maschwanden"},"district":{"key":"101","name":"Bezirk Affoltern"},"canton":{"key":"1","code":"ZH","name":"Zürich"},"status":"Real"},{"key":"10192310","name":"Bueholterenstrasse","postalCode":"8933","locality":"Maschwanden","commune":{"key":"8","name":"Maschwanden","shortName":"Maschwanden"},"district":{"key":"101","name":"Bezirk Affoltern"},"canton":{"key":"1","code":"ZH","name":"Zürich"},"status":"Real"},{"key":"10156975","name":"Bühlstrasse","postalCode":"8933","locality":"Maschwanden","commune":{"key":"8","name":"Maschwanden","shortName":"Maschwanden"},"district":{"key":"101","name":"Bezirk Affoltern"},"canton":{"key":"1","code":"ZH","name":"Zürich"},"status":"Real"},{"key":"10153884","name":"Bungartstrasse","postalCode":"8933","locality":"Maschwanden","commune":{"key":"8","name":"Maschwanden","shortName":"Maschwanden"},"district":{"key":"101","name":"Bezirk Affoltern"},"canton":{"key":"1","code":"ZH","name":"Zürich"},"status":"Real"},{"key":"10152515","name":"Chilefeldstrasse","postalCode":"8933","locality":"Maschwanden","commune":{"key":"8","name":"Maschwanden","shortName":"Maschwanden"},"district":{"key":"101","name":"Bezirk Affoltern"},"canton":{"key":"1","code":"ZH","name":"Zürich"},"status":"Real"},{"key":"10062175","name":"Chilerai","postalCode":"8933","locality":"Maschwanden","commune":{"key":"8","name":"Maschwanden","shortName":"Maschwanden"},"district":{"key":"101","name":"Bezirk Affoltern"},"canton":{"key":"1","code":"ZH","name":"Zürich"},"status":"Real"},{"key":"10111919","name":"Dörflistrasse","postalCode":"8933","locality":"Maschwanden","commune":{"key":"8","name":"Maschwanden","shortName":"Maschwanden"},"district":{"key":"101","name":"Bezirk Affoltern"},"canton":{"key":"1","code":"ZH","name":"Zürich"},"status":"Real"},{"key":"10162553","name":"Dörfliweg","postalCode":"8933","locality":"Maschwanden","commune":{"key":"8","name":"Maschwanden","shortName":"Maschwanden"},"district":{"key":"101","name":"Bezirk Affoltern"},"canton":{"key":"1","code":"ZH","name":"Zürich"},"status":"Real"},{"key":"10074703","name":"Dorfstrasse","postalCode":"8933","locality":"Maschwanden","commune":{"key":"8","name":"Maschwanden","shortName":"Maschwanden"},"district":{"key":"101","name":"Bezirk Affoltern"},"canton":{"key":"1","code":"ZH","name":"Zürich"},"status":"Real"},{"key":"10153576","name":"Grischheistrasse","postalCode":"8933","locality":"Maschwanden","commune":{"key":"8","name":"Maschwanden","shortName":"Maschwanden"},"district":{"key":"101","name":"Bezirk Affoltern"},"canton":{"key":"1","code":"ZH","name":"Zürich"},"status":"Real"},{"key":"10240316","name":"Grischheiweiden","postalCode":"8933","locality":"Maschwanden","commune":{"key":"8","name":"Maschwanden","shortName":"Maschwanden"},"district":{"key":"101","name":"Bezirk Affoltern"},"canton":{"key":"1","code":"ZH","name":"Zürich"},"status":"Real"},{"key":"10163687","name":"Harzenrai","postalCode":"8933","locality":"Maschwanden","commune":{"key":"8","name":"Maschwanden","shortName":"Maschwanden"},"district":{"key":"101","name":"Bezirk Affoltern"},"canton":{"key":"1","code":"ZH","name":"Zürich"},"status":"Real"},{"key":"10192311","name":"Hasplenstrasse","postalCode":"8933","locality":"Maschwanden","commune":{"key":"8","name":"Maschwanden","shortName":"Maschwanden"},"district":{"key":"101","name":"Bezirk Affoltern"},"canton":{"key":"1","code":"ZH","name":"Zürich"},"status":"Real"},{"key":"10153835","name":"Hatwilerstrasse","postalCode":"8933","locality":"Maschwanden","commune":{"key":"8","name":"Maschwanden","shortName":"Maschwanden"},"district":{"key":"101","name":"Bezirk Affoltern"},"canton":{"key":"1","code":"ZH","name":"Zürich"},"status":"Real"},{"key":"10156979","name":"Hinterdorfstrasse","postalCode":"8933","locality":"Maschwanden","commune":{"key":"8","name":"Maschwanden","shortName":"Maschwanden"},"district":{"key":"101","name":"Bezirk Affoltern"},"canton":{"key":"1","code":"ZH","name":"Zürich"},"status":"Real"},{"key":"10192312","name":"Hinterfeldstrasse","postalCode":"8933","locality":"Maschwanden","commune":{"key":"8","name":"Maschwanden","shortName":"Maschwanden"},"district":{"key":"101","name":"Bezirk Affoltern"},"canton":{"key":"1","code":"ZH","name":"Zürich"},"status":"Real"},{"key":"10192313","name":"Hölzliacherstrasse","postalCode":"8933","locality":"Maschwanden","commune":{"key":"8","name":"Maschwanden","shortName":"Maschwanden"},"district":{"key":"101","name":"Bezirk Affoltern"},"canton":{"key":"1","code":"ZH","name":"Zürich"},"status":"Real"},{"key":"10192314","name":"Josefstrasse","postalCode":"8933","locality":"Maschwanden","commune":{"key":"8","name":"Maschwanden","shortName":"Maschwanden"},"district":{"key":"101","name":"Bezirk Affoltern"},"canton":{"key":"1","code":"ZH","name":"Zürich"},"status":"Real"},{"key":"10159619","name":"Kreuzrai","postalCode":"8933","locality":"Maschwanden","commune":{"key":"8","name":"Maschwanden","shortName":"Maschwanden"},"district":{"key":"101","name":"Bezirk Affoltern"},"canton":{"key":"1","code":"ZH","name":"Zürich"},"status":"Real"},{"key":"10152517","name":"Lachen","postalCode":"8933","locality":"Maschwanden","commune":{"key":"8","name":"Maschwanden","shortName":"Maschwanden"},"district":{"key":"101","name":"Bezirk Affoltern"},"canton":{"key":"1","code":"ZH","name":"Zürich"},"status":"Real"},{"key":"10154355","name":"Langmattstrasse","postalCode":"8933","locality":"Maschwanden","commune":{"key":"8","name":"Maschwanden","shortName":"Maschwanden"},"district":{"key":"101","name":"Bezirk Affoltern"},"canton":{"key":"1","code":"ZH","name":"Zürich"},"status":"Real"},{"key":"10173826","name":"Lorzenweiden","postalCode":"8933","locality":"Maschwanden","commune":{"key":"8","name":"Maschwanden","shortName":"Maschwanden"},"district":{"key":"101","name":"Bezirk Affoltern"},"canton":{"key":"1","code":"ZH","name":"Zürich"},"status":"Real"},{"key":"10200586","name":"Lunnerstrasse","postalCode":"8933","locality":"Maschwanden","commune":{"key":"8","name":"Maschwanden","shortName":"Maschwanden"},"district":{"key":"101","name":"Bezirk Affoltern"},"canton":{"key":"1","code":"ZH","name":"Zürich"},"status":"Real"},{"key":"10200587","name":"Maschwanderstrasse","postalCode":"8933","locality":"Maschwanden","commune":{"key":"8","name":"Maschwanden","shortName":"Maschwanden"},"district":{"key":"101","name":"Bezirk Affoltern"},"canton":{"key":"1","code":"ZH","name":"Zürich"},"status":"Real"},{"key":"10153966","name":"Rainstrasse","postalCode":"8933","locality":"Maschwanden","commune":{"key":"8","name":"Maschwanden","shortName":"Maschwanden"},"district":{"key":"101","name":"Bezirk Affoltern"},"canton":{"key":"1","code":"ZH","name":"Zürich"},"status":"Real"},{"key":"10200588","name":"Rebrütistrasse","postalCode":"8933","locality":"Maschwanden","commune":{"key":"8","name":"Maschwanden","shortName":"Maschwanden"},"district":{"key":"101","name":"Bezirk Affoltern"},"canton":{"key":"1","code":"ZH","name":"Zürich"},"status":"Real"},{"key":"10240315","name":"Rotenberg","postalCode":"8933","locality":"Maschwanden","commune":{"key":"8","name":"Maschwanden","shortName":"Maschwanden"},"district":{"key":"101","name":"Bezirk Affoltern"},"canton":{"key":"1","code":"ZH","name":"Zürich"},"status":"Real"},{"key":"10200589","name":"Rotenbergstrasse","postalCode":"8933","locality":"Maschwanden","commune":{"key":"8","name":"Maschwanden","shortName":"Maschwanden"},"district":{"key":"101","name":"Bezirk Affoltern"},"canton":{"key":"1","code":"ZH","name":"Zürich"},"status":"Real"},{"key":"10154351","name":"Rütelistrasse","postalCode":"8933","locality":"Maschwanden","commune":{"key":"8","name":"Maschwanden","shortName":"Maschwanden"},"district":{"key":"101","name":"Bezirk Affoltern"},"canton":{"key":"1","code":"ZH","name":"Zürich"},"status":"Real"},{"key":"10113330","name":"Sagiweg","postalCode":"8933","locality":"Maschwanden","commune":{"key":"8","name":"Maschwanden","shortName":"Maschwanden"},"district":{"key":"101","name":"Bezirk Affoltern"},"canton":{"key":"1","code":"ZH","name":"Zürich"},"status":"Real"},{"key":"10240317","name":"Schürmatt","postalCode":"8933","locality":"Maschwanden","commune":{"key":"8","name":"Maschwanden","shortName":"Maschwanden"},"district":{"key":"101","name":"Bezirk Affoltern"},"canton":{"key":"1","code":"ZH","name":"Zürich"},"status":"Real"},{"key":"10157985","name":"Steinbüllenstrasse","postalCode":"8933","locality":"Maschwanden","commune":{"key":"8","name":"Maschwanden","shortName":"Maschwanden"},"district":{"key":"101","name":"Bezirk Affoltern"},"canton":{"key":"1","code":"ZH","name":"Zürich"},"status":"Real"},{"key":"10192315","name":"Stigenbühlstrasse","postalCode":"8933","locality":"Maschwanden","commune":{"key":"8","name":"Maschwanden","shortName":"Maschwanden"},"district":{"key":"101","name":"Bezirk Affoltern"},"canton":{"key":"1","code":"ZH","name":"Zürich"},"status":"Real"},{"key":"10162556","name":"Tambrigstrasse","postalCode":"8933","locality":"Maschwanden","commune":{"key":"8","name":"Maschwanden","shortName":"Maschwanden"},"district":{"key":"101","name":"Bezirk Affoltern"},"canton":{"key":"1","code":"ZH","name":"Zürich"},"status":"Real"},{"key":"10154356","name":"Unterdorfstrasse","postalCode":"8933","locality":"Maschwanden","commune":{"key":"8","name":"Maschwanden","shortName":"Maschwanden"},"district":{"key":"101","name":"Bezirk Affoltern"},"canton":{"key":"1","code":"ZH","name":"Zürich"},"status":"Real"},{"key":"10200590","name":"Waldhüttenstrasse","postalCode":"8933","locality":"Maschwanden","commune":{"key":"8","name":"Maschwanden","shortName":"Maschwanden"},"district":{"key":"101","name":"Bezirk Affoltern"},"canton":{"key":"1","code":"ZH","name":"Zürich"},"status":"Real"},{"key":"10248440","name":"Widenacherstrasse","postalCode":"8933","locality":"Maschwanden","commune":{"key":"8","name":"Maschwanden","shortName":"Maschwanden"},"district":{"key":"101","name":"Bezirk Affoltern"},"canton":{"key":"1","code":"ZH","name":"Zürich"},"status":"Real"},{"key":"10200591","name":"Wilstrasse","postalCode":"8933","locality":"Maschwanden","commune":{"key":"8","name":"Maschwanden","shortName":"Maschwanden"},"district":{"key":"101","name":"Bezirk Affoltern"},"canton":{"key":"1","code":"ZH","name":"Zürich"},"status":"Real"},{"key":"10001232","name":"Wolserstrasse","postalCode":"8933","locality":"Maschwanden","commune":{"key":"8","name":"Maschwanden","shortName":"Maschwanden"},"district":{"key":"101","name":"Bezirk Affoltern"},"canton":{"key":"1","code":"ZH","name":"Zürich"},"status":"Real"},{"key":"10150095","name":"Zugerstrasse","postalCode":"8933","locality":"Maschwanden","commune":{"key":"8","name":"Maschwanden","shortName":"Maschwanden"},"district":{"key":"101","name":"Bezirk Affoltern"},"canton":{"key":"1","code":"ZH","name":"Zürich"},"status":"Real"},]