[{"name":"Alte Kirchstr.","postalCode":"56858","locality":"Neef","municipality":{"key":"07135068","name":"Neef","type":"Kreisangehörige_Gemeinde"},"district":{"key":"07135","name":"Cochem-Zell","type":"Landkreis"},"federalState":{"key":"07","name":"Rheinland-Pfalz"}},{"name":"Auf der Heid","postalCode":"56858","locality":"Neef","municipality":{"key":"07135068","name":"Neef","type":"Kreisangehörige_Gemeinde"},"district":{"key":"07135","name":"Cochem-Zell","type":"Landkreis"},"federalState":{"key":"07","name":"Rheinland-Pfalz"}},{"name":"Auf der Kehr","postalCode":"56858","locality":"Neef","municipality":{"key":"07135068","name":"Neef","type":"Kreisangehörige_Gemeinde"},"district":{"key":"07135","name":"Cochem-Zell","type":"Landkreis"},"federalState":{"key":"07","name":"Rheinland-Pfalz"}},{"name":"Bachtalstr.","postalCode":"56858","locality":"Neef","municipality":{"key":"07135068","name":"Neef","type":"Kreisangehörige_Gemeinde"},"district":{"key":"07135","name":"Cochem-Zell","type":"Landkreis"},"federalState":{"key":"07","name":"Rheinland-Pfalz"}},{"name":"Fährstr.","postalCode":"56858","locality":"Neef","municipality":{"key":"07135068","name":"Neef","type":"Kreisangehörige_Gemeinde"},"district":{"key":"07135","name":"Cochem-Zell","type":"Landkreis"},"federalState":{"key":"07","name":"Rheinland-Pfalz"}},{"name":"Kloster-Stuben-Str.","postalCode":"56858","locality":"Neef","municipality":{"key":"07135068","name":"Neef","type":"Kreisangehörige_Gemeinde"},"district":{"key":"07135","name":"Cochem-Zell","type":"Landkreis"},"federalState":{"key":"07","name":"Rheinland-Pfalz"}},{"name":"Moseluferstr.","postalCode":"56858","locality":"Neef","municipality":{"key":"07135068","name":"Neef","type":"Kreisangehörige_Gemeinde"},"district":{"key":"07135","name":"Cochem-Zell","type":"Landkreis"},"federalState":{"key":"07","name":"Rheinland-Pfalz"}},{"name":"Neue Kirchstr.","postalCode":"56858","locality":"Neef","municipality":{"key":"07135068","name":"Neef","type":"Kreisangehörige_Gemeinde"},"district":{"key":"07135","name":"Cochem-Zell","type":"Landkreis"},"federalState":{"key":"07","name":"Rheinland-Pfalz"}},{"name":"Neugartenstr.","postalCode":"56858","locality":"Neef","municipality":{"key":"07135068","name":"Neef","type":"Kreisangehörige_Gemeinde"},"district":{"key":"07135","name":"Cochem-Zell","type":"Landkreis"},"federalState":{"key":"07","name":"Rheinland-Pfalz"}},{"name":"Petersbergstr.","postalCode":"56858","locality":"Neef","municipality":{"key":"07135068","name":"Neef","type":"Kreisangehörige_Gemeinde"},"district":{"key":"07135","name":"Cochem-Zell","type":"Landkreis"},"federalState":{"key":"07","name":"Rheinland-Pfalz"}},]