[{"name":"Achternholt","postalCode":"22929","locality":"Kasseburg","municipality":{"key":"01053060","name":"Kasseburg","type":"Kreisangehörige_Gemeinde"},"district":{"key":"01053","name":"Herzogtum Lauenburg","type":"Kreis"},"federalState":{"key":"01","name":"Schleswig-Holstein"}},{"name":"Am Brink","postalCode":"22929","locality":"Kasseburg","municipality":{"key":"01053060","name":"Kasseburg","type":"Kreisangehörige_Gemeinde"},"district":{"key":"01053","name":"Herzogtum Lauenburg","type":"Kreis"},"federalState":{"key":"01","name":"Schleswig-Holstein"}},{"name":"Am Kamp","postalCode":"22929","locality":"Kasseburg","municipality":{"key":"01053060","name":"Kasseburg","type":"Kreisangehörige_Gemeinde"},"district":{"key":"01053","name":"Herzogtum Lauenburg","type":"Kreis"},"federalState":{"key":"01","name":"Schleswig-Holstein"}},{"name":"Am Waldrand","postalCode":"22929","locality":"Kasseburg","municipality":{"key":"01053060","name":"Kasseburg","type":"Kreisangehörige_Gemeinde"},"district":{"key":"01053","name":"Herzogtum Lauenburg","type":"Kreis"},"federalState":{"key":"01","name":"Schleswig-Holstein"}},{"name":"Auf den Blöcken","postalCode":"22929","locality":"Kasseburg","municipality":{"key":"01053060","name":"Kasseburg","type":"Kreisangehörige_Gemeinde"},"district":{"key":"01053","name":"Herzogtum Lauenburg","type":"Kreis"},"federalState":{"key":"01","name":"Schleswig-Holstein"}},{"name":"Drosseleck","postalCode":"22929","locality":"Kasseburg","municipality":{"key":"01053060","name":"Kasseburg","type":"Kreisangehörige_Gemeinde"},"district":{"key":"01053","name":"Herzogtum Lauenburg","type":"Kreis"},"federalState":{"key":"01","name":"Schleswig-Holstein"}},{"name":"Fasanenweg","postalCode":"22929","locality":"Kasseburg","municipality":{"key":"01053060","name":"Kasseburg","type":"Kreisangehörige_Gemeinde"},"district":{"key":"01053","name":"Herzogtum Lauenburg","type":"Kreis"},"federalState":{"key":"01","name":"Schleswig-Holstein"}},{"name":"Flachslande","postalCode":"22929","locality":"Kasseburg","municipality":{"key":"01053060","name":"Kasseburg","type":"Kreisangehörige_Gemeinde"},"district":{"key":"01053","name":"Herzogtum Lauenburg","type":"Kreis"},"federalState":{"key":"01","name":"Schleswig-Holstein"}},{"name":"Huuskoppel","postalCode":"22929","locality":"Kasseburg","municipality":{"key":"01053060","name":"Kasseburg","type":"Kreisangehörige_Gemeinde"},"district":{"key":"01053","name":"Herzogtum Lauenburg","type":"Kreis"},"federalState":{"key":"01","name":"Schleswig-Holstein"}},{"name":"Kirchwege","postalCode":"22929","locality":"Kasseburg","municipality":{"key":"01053060","name":"Kasseburg","type":"Kreisangehörige_Gemeinde"},"district":{"key":"01053","name":"Herzogtum Lauenburg","type":"Kreis"},"federalState":{"key":"01","name":"Schleswig-Holstein"}},{"name":"Mühlenweg","postalCode":"22929","locality":"Kasseburg","municipality":{"key":"01053060","name":"Kasseburg","type":"Kreisangehörige_Gemeinde"},"district":{"key":"01053","name":"Herzogtum Lauenburg","type":"Kreis"},"federalState":{"key":"01","name":"Schleswig-Holstein"}},{"name":"Radelandswinkel","postalCode":"22929","locality":"Kasseburg","municipality":{"key":"01053060","name":"Kasseburg","type":"Kreisangehörige_Gemeinde"},"district":{"key":"01053","name":"Herzogtum Lauenburg","type":"Kreis"},"federalState":{"key":"01","name":"Schleswig-Holstein"}},{"name":"Sachsenwaldstr.","postalCode":"22929","locality":"Kasseburg","municipality":{"key":"01053060","name":"Kasseburg","type":"Kreisangehörige_Gemeinde"},"district":{"key":"01053","name":"Herzogtum Lauenburg","type":"Kreis"},"federalState":{"key":"01","name":"Schleswig-Holstein"}},{"name":"Twiete","postalCode":"22929","locality":"Kasseburg","municipality":{"key":"01053060","name":"Kasseburg","type":"Kreisangehörige_Gemeinde"},"district":{"key":"01053","name":"Herzogtum Lauenburg","type":"Kreis"},"federalState":{"key":"01","name":"Schleswig-Holstein"}},]