[{"name":"Aalweg","postalCode":"23683","locality":"Scharbeutz","municipality":{"key":"01055044","name":"Scharbeutz","type":"Kreisangehörige_Gemeinde"},"district":{"key":"01055","name":"Ostholstein","type":"Kreis"},"federalState":{"key":"01","name":"Schleswig-Holstein"}},{"name":"Agnes-Miegel-Weg","postalCode":"23684","locality":"Scharbeutz","municipality":{"key":"01055044","name":"Scharbeutz","type":"Kreisangehörige_Gemeinde"},"district":{"key":"01055","name":"Ostholstein","type":"Kreis"},"federalState":{"key":"01","name":"Schleswig-Holstein"}},{"name":"Ahornweg","postalCode":"23683","locality":"Scharbeutz","municipality":{"key":"01055044","name":"Scharbeutz","type":"Kreisangehörige_Gemeinde"},"district":{"key":"01055","name":"Ostholstein","type":"Kreis"},"federalState":{"key":"01","name":"Schleswig-Holstein"}},{"name":"Ahrensböker Str.","postalCode":"23684","locality":"Scharbeutz","municipality":{"key":"01055044","name":"Scharbeutz","type":"Kreisangehörige_Gemeinde"},"district":{"key":"01055","name":"Ostholstein","type":"Kreis"},"federalState":{"key":"01","name":"Schleswig-Holstein"}},{"name":"Alte Bergstr.","postalCode":"23683","locality":"Scharbeutz","municipality":{"key":"01055044","name":"Scharbeutz","type":"Kreisangehörige_Gemeinde"},"district":{"key":"01055","name":"Ostholstein","type":"Kreis"},"federalState":{"key":"01","name":"Schleswig-Holstein"}},{"name":"Alte Dorfstr.","postalCode":"23684","locality":"Scharbeutz","municipality":{"key":"01055044","name":"Scharbeutz","type":"Kreisangehörige_Gemeinde"},"district":{"key":"01055","name":"Ostholstein","type":"Kreis"},"federalState":{"key":"01","name":"Schleswig-Holstein"}},{"name":"Alte Gärtnerei","postalCode":"23684","locality":"Scharbeutz","municipality":{"key":"01055044","name":"Scharbeutz","type":"Kreisangehörige_Gemeinde"},"district":{"key":"01055","name":"Ostholstein","type":"Kreis"},"federalState":{"key":"01","name":"Schleswig-Holstein"}},{"name":"Alter Kirchweg","postalCode":"23684","locality":"Scharbeutz","municipality":{"key":"01055044","name":"Scharbeutz","type":"Kreisangehörige_Gemeinde"},"district":{"key":"01055","name":"Ostholstein","type":"Kreis"},"federalState":{"key":"01","name":"Schleswig-Holstein"}},{"name":"Am Alten Sportplatz","postalCode":"23683","locality":"Scharbeutz","municipality":{"key":"01055044","name":"Scharbeutz","type":"Kreisangehörige_Gemeinde"},"district":{"key":"01055","name":"Ostholstein","type":"Kreis"},"federalState":{"key":"01","name":"Schleswig-Holstein"}},{"name":"Am Augustushof","postalCode":"23683","locality":"Scharbeutz","municipality":{"key":"01055044","name":"Scharbeutz","type":"Kreisangehörige_Gemeinde"},"district":{"key":"01055","name":"Ostholstein","type":"Kreis"},"federalState":{"key":"01","name":"Schleswig-Holstein"}},{"name":"Am Bahnhof","postalCode":"23684","locality":"Scharbeutz","municipality":{"key":"01055044","name":"Scharbeutz","type":"Kreisangehörige_Gemeinde"},"district":{"key":"01055","name":"Ostholstein","type":"Kreis"},"federalState":{"key":"01","name":"Schleswig-Holstein"}},{"name":"Am Brink","postalCode":"23684","locality":"Scharbeutz","municipality":{"key":"01055044","name":"Scharbeutz","type":"Kreisangehörige_Gemeinde"},"district":{"key":"01055","name":"Ostholstein","type":"Kreis"},"federalState":{"key":"01","name":"Schleswig-Holstein"}},{"name":"Am Bug","postalCode":"23683","locality":"Scharbeutz","municipality":{"key":"01055044","name":"Scharbeutz","type":"Kreisangehörige_Gemeinde"},"district":{"key":"01055","name":"Ostholstein","type":"Kreis"},"federalState":{"key":"01","name":"Schleswig-Holstein"}},{"name":"Am Bürgerhaus","postalCode":"23683","locality":"Scharbeutz","municipality":{"key":"01055044","name":"Scharbeutz","type":"Kreisangehörige_Gemeinde"},"district":{"key":"01055","name":"Ostholstein","type":"Kreis"},"federalState":{"key":"01","name":"Schleswig-Holstein"}},{"name":"Am Diekbrook","postalCode":"23684","locality":"Scharbeutz","municipality":{"key":"01055044","name":"Scharbeutz","type":"Kreisangehörige_Gemeinde"},"district":{"key":"01055","name":"Ostholstein","type":"Kreis"},"federalState":{"key":"01","name":"Schleswig-Holstein"}},{"name":"Am Dörenkamp","postalCode":"23629","locality":"Scharbeutz","municipality":{"key":"01055044","name":"Scharbeutz","type":"Kreisangehörige_Gemeinde"},"district":{"key":"01055","name":"Ostholstein","type":"Kreis"},"federalState":{"key":"01","name":"Schleswig-Holstein"}},{"name":"Am Fuchsberg","postalCode":"23683","locality":"Scharbeutz","municipality":{"key":"01055044","name":"Scharbeutz","type":"Kreisangehörige_Gemeinde"},"district":{"key":"01055","name":"Ostholstein","type":"Kreis"},"federalState":{"key":"01","name":"Schleswig-Holstein"}},{"name":"Am Gooskamp","postalCode":"23684","locality":"Scharbeutz","municipality":{"key":"01055044","name":"Scharbeutz","type":"Kreisangehörige_Gemeinde"},"district":{"key":"01055","name":"Ostholstein","type":"Kreis"},"federalState":{"key":"01","name":"Schleswig-Holstein"}},{"name":"Am Hang","postalCode":"23683","locality":"Scharbeutz","municipality":{"key":"01055044","name":"Scharbeutz","type":"Kreisangehörige_Gemeinde"},"district":{"key":"01055","name":"Ostholstein","type":"Kreis"},"federalState":{"key":"01","name":"Schleswig-Holstein"}},{"name":"Am Heck","postalCode":"23683","locality":"Scharbeutz","municipality":{"key":"01055044","name":"Scharbeutz","type":"Kreisangehörige_Gemeinde"},"district":{"key":"01055","name":"Ostholstein","type":"Kreis"},"federalState":{"key":"01","name":"Schleswig-Holstein"}},{"name":"Am Hörn","postalCode":"23683","locality":"Scharbeutz","municipality":{"key":"01055044","name":"Scharbeutz","type":"Kreisangehörige_Gemeinde"},"district":{"key":"01055","name":"Ostholstein","type":"Kreis"},"federalState":{"key":"01","name":"Schleswig-Holstein"}},{"name":"Am Kirchberg","postalCode":"23684","locality":"Scharbeutz","municipality":{"key":"01055044","name":"Scharbeutz","type":"Kreisangehörige_Gemeinde"},"district":{"key":"01055","name":"Ostholstein","type":"Kreis"},"federalState":{"key":"01","name":"Schleswig-Holstein"}},{"name":"Am Knurrhahn","postalCode":"23683","locality":"Scharbeutz","municipality":{"key":"01055044","name":"Scharbeutz","type":"Kreisangehörige_Gemeinde"},"district":{"key":"01055","name":"Ostholstein","type":"Kreis"},"federalState":{"key":"01","name":"Schleswig-Holstein"}},{"name":"Am Kurpark","postalCode":"23683","locality":"Scharbeutz","municipality":{"key":"01055044","name":"Scharbeutz","type":"Kreisangehörige_Gemeinde"},"district":{"key":"01055","name":"Ostholstein","type":"Kreis"},"federalState":{"key":"01","name":"Schleswig-Holstein"}},{"name":"Am Pohl","postalCode":"23684","locality":"Scharbeutz","municipality":{"key":"01055044","name":"Scharbeutz","type":"Kreisangehörige_Gemeinde"},"district":{"key":"01055","name":"Ostholstein","type":"Kreis"},"federalState":{"key":"01","name":"Schleswig-Holstein"}},{"name":"Am Rugenbarg","postalCode":"23684","locality":"Scharbeutz","municipality":{"key":"01055044","name":"Scharbeutz","type":"Kreisangehörige_Gemeinde"},"district":{"key":"01055","name":"Ostholstein","type":"Kreis"},"federalState":{"key":"01","name":"Schleswig-Holstein"}},{"name":"Am Seestern","postalCode":"23683","locality":"Scharbeutz","municipality":{"key":"01055044","name":"Scharbeutz","type":"Kreisangehörige_Gemeinde"},"district":{"key":"01055","name":"Ostholstein","type":"Kreis"},"federalState":{"key":"01","name":"Schleswig-Holstein"}},{"name":"Amselweg","postalCode":"23683","locality":"Scharbeutz","municipality":{"key":"01055044","name":"Scharbeutz","type":"Kreisangehörige_Gemeinde"},"district":{"key":"01055","name":"Ostholstein","type":"Kreis"},"federalState":{"key":"01","name":"Schleswig-Holstein"}},{"name":"Am Steenkamp","postalCode":"23684","locality":"Scharbeutz","municipality":{"key":"01055044","name":"Scharbeutz","type":"Kreisangehörige_Gemeinde"},"district":{"key":"01055","name":"Ostholstein","type":"Kreis"},"federalState":{"key":"01","name":"Schleswig-Holstein"}},{"name":"Am Storchennest","postalCode":"23683","locality":"Scharbeutz","municipality":{"key":"01055044","name":"Scharbeutz","type":"Kreisangehörige_Gemeinde"},"district":{"key":"01055","name":"Ostholstein","type":"Kreis"},"federalState":{"key":"01","name":"Schleswig-Holstein"}},{"name":"Am Teich","postalCode":"23629","locality":"Scharbeutz","municipality":{"key":"01055044","name":"Scharbeutz","type":"Kreisangehörige_Gemeinde"},"district":{"key":"01055","name":"Ostholstein","type":"Kreis"},"federalState":{"key":"01","name":"Schleswig-Holstein"}},{"name":"Am Wiesenhügel","postalCode":"23683","locality":"Scharbeutz","municipality":{"key":"01055044","name":"Scharbeutz","type":"Kreisangehörige_Gemeinde"},"district":{"key":"01055","name":"Ostholstein","type":"Kreis"},"federalState":{"key":"01","name":"Schleswig-Holstein"}},{"name":"An der Göschbeek","postalCode":"23683","locality":"Scharbeutz","municipality":{"key":"01055044","name":"Scharbeutz","type":"Kreisangehörige_Gemeinde"},"district":{"key":"01055","name":"Ostholstein","type":"Kreis"},"federalState":{"key":"01","name":"Schleswig-Holstein"}},{"name":"Aublick","postalCode":"23684","locality":"Scharbeutz","municipality":{"key":"01055044","name":"Scharbeutz","type":"Kreisangehörige_Gemeinde"},"district":{"key":"01055","name":"Ostholstein","type":"Kreis"},"federalState":{"key":"01","name":"Schleswig-Holstein"}},{"name":"Auf der Breede","postalCode":"23683","locality":"Scharbeutz","municipality":{"key":"01055044","name":"Scharbeutz","type":"Kreisangehörige_Gemeinde"},"district":{"key":"01055","name":"Ostholstein","type":"Kreis"},"federalState":{"key":"01","name":"Schleswig-Holstein"}},{"name":"Augustuspark","postalCode":"23683","locality":"Scharbeutz","municipality":{"key":"01055044","name":"Scharbeutz","type":"Kreisangehörige_Gemeinde"},"district":{"key":"01055","name":"Ostholstein","type":"Kreis"},"federalState":{"key":"01","name":"Schleswig-Holstein"}},{"name":"Badeweg","postalCode":"23683","locality":"Scharbeutz","municipality":{"key":"01055044","name":"Scharbeutz","type":"Kreisangehörige_Gemeinde"},"district":{"key":"01055","name":"Ostholstein","type":"Kreis"},"federalState":{"key":"01","name":"Schleswig-Holstein"}},{"name":"Bahnhofstr.","postalCode":"23683","locality":"Scharbeutz","municipality":{"key":"01055044","name":"Scharbeutz","type":"Kreisangehörige_Gemeinde"},"district":{"key":"01055","name":"Ostholstein","type":"Kreis"},"federalState":{"key":"01","name":"Schleswig-Holstein"}},{"name":"Bahnhofstr.","postalCode":"23684","locality":"Scharbeutz","municipality":{"key":"01055044","name":"Scharbeutz","type":"Kreisangehörige_Gemeinde"},"district":{"key":"01055","name":"Ostholstein","type":"Kreis"},"federalState":{"key":"01","name":"Schleswig-Holstein"}},{"name":"Bargkoppel","postalCode":"23684","locality":"Scharbeutz","municipality":{"key":"01055044","name":"Scharbeutz","type":"Kreisangehörige_Gemeinde"},"district":{"key":"01055","name":"Ostholstein","type":"Kreis"},"federalState":{"key":"01","name":"Schleswig-Holstein"}},{"name":"Biberburg","postalCode":"23683","locality":"Scharbeutz","municipality":{"key":"01055044","name":"Scharbeutz","type":"Kreisangehörige_Gemeinde"},"district":{"key":"01055","name":"Ostholstein","type":"Kreis"},"federalState":{"key":"01","name":"Schleswig-Holstein"}},{"name":"Binsenweg","postalCode":"23683","locality":"Scharbeutz","municipality":{"key":"01055044","name":"Scharbeutz","type":"Kreisangehörige_Gemeinde"},"district":{"key":"01055","name":"Ostholstein","type":"Kreis"},"federalState":{"key":"01","name":"Schleswig-Holstein"}},{"name":"Birkenweg","postalCode":"23683","locality":"Scharbeutz","municipality":{"key":"01055044","name":"Scharbeutz","type":"Kreisangehörige_Gemeinde"},"district":{"key":"01055","name":"Ostholstein","type":"Kreis"},"federalState":{"key":"01","name":"Schleswig-Holstein"}},{"name":"Biskamp","postalCode":"23683","locality":"Scharbeutz","municipality":{"key":"01055044","name":"Scharbeutz","type":"Kreisangehörige_Gemeinde"},"district":{"key":"01055","name":"Ostholstein","type":"Kreis"},"federalState":{"key":"01","name":"Schleswig-Holstein"}},{"name":"Bismarckweg","postalCode":"23684","locality":"Scharbeutz","municipality":{"key":"01055044","name":"Scharbeutz","type":"Kreisangehörige_Gemeinde"},"district":{"key":"01055","name":"Ostholstein","type":"Kreis"},"federalState":{"key":"01","name":"Schleswig-Holstein"}},{"name":"Boberstr.","postalCode":"23683","locality":"Scharbeutz","municipality":{"key":"01055044","name":"Scharbeutz","type":"Kreisangehörige_Gemeinde"},"district":{"key":"01055","name":"Ostholstein","type":"Kreis"},"federalState":{"key":"01","name":"Schleswig-Holstein"}},{"name":"Bornberg","postalCode":"23684","locality":"Scharbeutz","municipality":{"key":"01055044","name":"Scharbeutz","type":"Kreisangehörige_Gemeinde"},"district":{"key":"01055","name":"Ostholstein","type":"Kreis"},"federalState":{"key":"01","name":"Schleswig-Holstein"}},{"name":"Bövelstredder","postalCode":"23683","locality":"Scharbeutz","municipality":{"key":"01055044","name":"Scharbeutz","type":"Kreisangehörige_Gemeinde"},"district":{"key":"01055","name":"Ostholstein","type":"Kreis"},"federalState":{"key":"01","name":"Schleswig-Holstein"}},{"name":"Bövelstredder","postalCode":"23684","locality":"Scharbeutz","municipality":{"key":"01055044","name":"Scharbeutz","type":"Kreisangehörige_Gemeinde"},"district":{"key":"01055","name":"Ostholstein","type":"Kreis"},"federalState":{"key":"01","name":"Schleswig-Holstein"}},{"name":"Breitenkamp","postalCode":"23684","locality":"Scharbeutz","municipality":{"key":"01055044","name":"Scharbeutz","type":"Kreisangehörige_Gemeinde"},"district":{"key":"01055","name":"Ostholstein","type":"Kreis"},"federalState":{"key":"01","name":"Schleswig-Holstein"}},{"name":"Breslauer Str.","postalCode":"23683","locality":"Scharbeutz","municipality":{"key":"01055044","name":"Scharbeutz","type":"Kreisangehörige_Gemeinde"},"district":{"key":"01055","name":"Ostholstein","type":"Kreis"},"federalState":{"key":"01","name":"Schleswig-Holstein"}},{"name":"Broderdammskamp","postalCode":"23684","locality":"Scharbeutz","municipality":{"key":"01055044","name":"Scharbeutz","type":"Kreisangehörige_Gemeinde"},"district":{"key":"01055","name":"Ostholstein","type":"Kreis"},"federalState":{"key":"01","name":"Schleswig-Holstein"}},{"name":"Brookkoppel","postalCode":"23684","locality":"Scharbeutz","municipality":{"key":"01055044","name":"Scharbeutz","type":"Kreisangehörige_Gemeinde"},"district":{"key":"01055","name":"Ostholstein","type":"Kreis"},"federalState":{"key":"01","name":"Schleswig-Holstein"}},{"name":"Brookkoppelweg","postalCode":"23684","locality":"Scharbeutz","municipality":{"key":"01055044","name":"Scharbeutz","type":"Kreisangehörige_Gemeinde"},"district":{"key":"01055","name":"Ostholstein","type":"Kreis"},"federalState":{"key":"01","name":"Schleswig-Holstein"}},{"name":"Brügkamp","postalCode":"23684","locality":"Scharbeutz","municipality":{"key":"01055044","name":"Scharbeutz","type":"Kreisangehörige_Gemeinde"},"district":{"key":"01055","name":"Ostholstein","type":"Kreis"},"federalState":{"key":"01","name":"Schleswig-Holstein"}},{"name":"Buchenweg","postalCode":"23683","locality":"Scharbeutz","municipality":{"key":"01055044","name":"Scharbeutz","type":"Kreisangehörige_Gemeinde"},"district":{"key":"01055","name":"Ostholstein","type":"Kreis"},"federalState":{"key":"01","name":"Schleswig-Holstein"}},{"name":"Buland","postalCode":"23684","locality":"Scharbeutz","municipality":{"key":"01055044","name":"Scharbeutz","type":"Kreisangehörige_Gemeinde"},"district":{"key":"01055","name":"Ostholstein","type":"Kreis"},"federalState":{"key":"01","name":"Schleswig-Holstein"}},{"name":"Cap-Arcona-Weg","postalCode":"23683","locality":"Scharbeutz","municipality":{"key":"01055044","name":"Scharbeutz","type":"Kreisangehörige_Gemeinde"},"district":{"key":"01055","name":"Ostholstein","type":"Kreis"},"federalState":{"key":"01","name":"Schleswig-Holstein"}},{"name":"Dachsbau","postalCode":"23683","locality":"Scharbeutz","municipality":{"key":"01055044","name":"Scharbeutz","type":"Kreisangehörige_Gemeinde"},"district":{"key":"01055","name":"Ostholstein","type":"Kreis"},"federalState":{"key":"01","name":"Schleswig-Holstein"}},{"name":"Devkoppel","postalCode":"23683","locality":"Scharbeutz","municipality":{"key":"01055044","name":"Scharbeutz","type":"Kreisangehörige_Gemeinde"},"district":{"key":"01055","name":"Ostholstein","type":"Kreis"},"federalState":{"key":"01","name":"Schleswig-Holstein"}},{"name":"Dorfstr.","postalCode":"23629","locality":"Scharbeutz","municipality":{"key":"01055044","name":"Scharbeutz","type":"Kreisangehörige_Gemeinde"},"district":{"key":"01055","name":"Ostholstein","type":"Kreis"},"federalState":{"key":"01","name":"Schleswig-Holstein"}},{"name":"Dorfstr.","postalCode":"23683","locality":"Scharbeutz","municipality":{"key":"01055044","name":"Scharbeutz","type":"Kreisangehörige_Gemeinde"},"district":{"key":"01055","name":"Ostholstein","type":"Kreis"},"federalState":{"key":"01","name":"Schleswig-Holstein"}},{"name":"Dorfstr.","postalCode":"23684","locality":"Scharbeutz","municipality":{"key":"01055044","name":"Scharbeutz","type":"Kreisangehörige_Gemeinde"},"district":{"key":"01055","name":"Ostholstein","type":"Kreis"},"federalState":{"key":"01","name":"Schleswig-Holstein"}},{"name":"Drägerkoppel","postalCode":"23684","locality":"Scharbeutz","municipality":{"key":"01055044","name":"Scharbeutz","type":"Kreisangehörige_Gemeinde"},"district":{"key":"01055","name":"Ostholstein","type":"Kreis"},"federalState":{"key":"01","name":"Schleswig-Holstein"}},{"name":"Drosselweg","postalCode":"23683","locality":"Scharbeutz","municipality":{"key":"01055044","name":"Scharbeutz","type":"Kreisangehörige_Gemeinde"},"district":{"key":"01055","name":"Ostholstein","type":"Kreis"},"federalState":{"key":"01","name":"Schleswig-Holstein"}},{"name":"Drosselweg","postalCode":"23684","locality":"Scharbeutz","municipality":{"key":"01055044","name":"Scharbeutz","type":"Kreisangehörige_Gemeinde"},"district":{"key":"01055","name":"Ostholstein","type":"Kreis"},"federalState":{"key":"01","name":"Schleswig-Holstein"}},{"name":"Eekkampstr.","postalCode":"23683","locality":"Scharbeutz","municipality":{"key":"01055044","name":"Scharbeutz","type":"Kreisangehörige_Gemeinde"},"district":{"key":"01055","name":"Ostholstein","type":"Kreis"},"federalState":{"key":"01","name":"Schleswig-Holstein"}},{"name":"Eichenweg","postalCode":"23683","locality":"Scharbeutz","municipality":{"key":"01055044","name":"Scharbeutz","type":"Kreisangehörige_Gemeinde"},"district":{"key":"01055","name":"Ostholstein","type":"Kreis"},"federalState":{"key":"01","name":"Schleswig-Holstein"}},{"name":"Erlenweg","postalCode":"23683","locality":"Scharbeutz","municipality":{"key":"01055044","name":"Scharbeutz","type":"Kreisangehörige_Gemeinde"},"district":{"key":"01055","name":"Ostholstein","type":"Kreis"},"federalState":{"key":"01","name":"Schleswig-Holstein"}},{"name":"Eschenweg","postalCode":"23683","locality":"Scharbeutz","municipality":{"key":"01055044","name":"Scharbeutz","type":"Kreisangehörige_Gemeinde"},"district":{"key":"01055","name":"Ostholstein","type":"Kreis"},"federalState":{"key":"01","name":"Schleswig-Holstein"}},{"name":"Falkenweg","postalCode":"23683","locality":"Scharbeutz","municipality":{"key":"01055044","name":"Scharbeutz","type":"Kreisangehörige_Gemeinde"},"district":{"key":"01055","name":"Ostholstein","type":"Kreis"},"federalState":{"key":"01","name":"Schleswig-Holstein"}},{"name":"Fallreep","postalCode":"23683","locality":"Scharbeutz","municipality":{"key":"01055044","name":"Scharbeutz","type":"Kreisangehörige_Gemeinde"},"district":{"key":"01055","name":"Ostholstein","type":"Kreis"},"federalState":{"key":"01","name":"Schleswig-Holstein"}},{"name":"Fasanenweg","postalCode":"23684","locality":"Scharbeutz","municipality":{"key":"01055044","name":"Scharbeutz","type":"Kreisangehörige_Gemeinde"},"district":{"key":"01055","name":"Ostholstein","type":"Kreis"},"federalState":{"key":"01","name":"Schleswig-Holstein"}},{"name":"Feldkamp","postalCode":"23684","locality":"Scharbeutz","municipality":{"key":"01055044","name":"Scharbeutz","type":"Kreisangehörige_Gemeinde"},"district":{"key":"01055","name":"Ostholstein","type":"Kreis"},"federalState":{"key":"01","name":"Schleswig-Holstein"}},{"name":"Fiefhusen","postalCode":"23629","locality":"Scharbeutz","municipality":{"key":"01055044","name":"Scharbeutz","type":"Kreisangehörige_Gemeinde"},"district":{"key":"01055","name":"Ostholstein","type":"Kreis"},"federalState":{"key":"01","name":"Schleswig-Holstein"}},{"name":"Fierthstr.","postalCode":"23684","locality":"Scharbeutz","municipality":{"key":"01055044","name":"Scharbeutz","type":"Kreisangehörige_Gemeinde"},"district":{"key":"01055","name":"Ostholstein","type":"Kreis"},"federalState":{"key":"01","name":"Schleswig-Holstein"}},{"name":"Fischerstieg","postalCode":"23683","locality":"Scharbeutz","municipality":{"key":"01055044","name":"Scharbeutz","type":"Kreisangehörige_Gemeinde"},"district":{"key":"01055","name":"Ostholstein","type":"Kreis"},"federalState":{"key":"01","name":"Schleswig-Holstein"}},{"name":"Fischerweg","postalCode":"23684","locality":"Scharbeutz","municipality":{"key":"01055044","name":"Scharbeutz","type":"Kreisangehörige_Gemeinde"},"district":{"key":"01055","name":"Ostholstein","type":"Kreis"},"federalState":{"key":"01","name":"Schleswig-Holstein"}},{"name":"Frankfurter Str.","postalCode":"23683","locality":"Scharbeutz","municipality":{"key":"01055044","name":"Scharbeutz","type":"Kreisangehörige_Gemeinde"},"district":{"key":"01055","name":"Ostholstein","type":"Kreis"},"federalState":{"key":"01","name":"Schleswig-Holstein"}},{"name":"Friedel-Hoefer-Weg","postalCode":"23684","locality":"Scharbeutz","municipality":{"key":"01055044","name":"Scharbeutz","type":"Kreisangehörige_Gemeinde"},"district":{"key":"01055","name":"Ostholstein","type":"Kreis"},"federalState":{"key":"01","name":"Schleswig-Holstein"}},{"name":"Friedenstr.","postalCode":"23684","locality":"Scharbeutz","municipality":{"key":"01055044","name":"Scharbeutz","type":"Kreisangehörige_Gemeinde"},"district":{"key":"01055","name":"Ostholstein","type":"Kreis"},"federalState":{"key":"01","name":"Schleswig-Holstein"}},{"name":"Friedrichshof","postalCode":"23683","locality":"Scharbeutz","municipality":{"key":"01055044","name":"Scharbeutz","type":"Kreisangehörige_Gemeinde"},"district":{"key":"01055","name":"Ostholstein","type":"Kreis"},"federalState":{"key":"01","name":"Schleswig-Holstein"}},{"name":"Fritz-Reuter-Str.","postalCode":"23684","locality":"Scharbeutz","municipality":{"key":"01055044","name":"Scharbeutz","type":"Kreisangehörige_Gemeinde"},"district":{"key":"01055","name":"Ostholstein","type":"Kreis"},"federalState":{"key":"01","name":"Schleswig-Holstein"}},{"name":"Fünfhausen","postalCode":"23684","locality":"Scharbeutz","municipality":{"key":"01055044","name":"Scharbeutz","type":"Kreisangehörige_Gemeinde"},"district":{"key":"01055","name":"Ostholstein","type":"Kreis"},"federalState":{"key":"01","name":"Schleswig-Holstein"}},{"name":"Fussweg","postalCode":"23683","locality":"Scharbeutz","municipality":{"key":"01055044","name":"Scharbeutz","type":"Kreisangehörige_Gemeinde"},"district":{"key":"01055","name":"Ostholstein","type":"Kreis"},"federalState":{"key":"01","name":"Schleswig-Holstein"}},{"name":"Gartenweg","postalCode":"23683","locality":"Scharbeutz","municipality":{"key":"01055044","name":"Scharbeutz","type":"Kreisangehörige_Gemeinde"},"district":{"key":"01055","name":"Ostholstein","type":"Kreis"},"federalState":{"key":"01","name":"Schleswig-Holstein"}},{"name":"Gärtnerstr.","postalCode":"23684","locality":"Scharbeutz","municipality":{"key":"01055044","name":"Scharbeutz","type":"Kreisangehörige_Gemeinde"},"district":{"key":"01055","name":"Ostholstein","type":"Kreis"},"federalState":{"key":"01","name":"Schleswig-Holstein"}},{"name":"Gerhart-Hauptmann-Str.","postalCode":"23684","locality":"Scharbeutz","municipality":{"key":"01055044","name":"Scharbeutz","type":"Kreisangehörige_Gemeinde"},"district":{"key":"01055","name":"Ostholstein","type":"Kreis"},"federalState":{"key":"01","name":"Schleswig-Holstein"}},{"name":"Glockenstr.","postalCode":"23683","locality":"Scharbeutz","municipality":{"key":"01055044","name":"Scharbeutz","type":"Kreisangehörige_Gemeinde"},"district":{"key":"01055","name":"Ostholstein","type":"Kreis"},"federalState":{"key":"01","name":"Schleswig-Holstein"}},{"name":"Gorch-Fock-Ring","postalCode":"23683","locality":"Scharbeutz","municipality":{"key":"01055044","name":"Scharbeutz","type":"Kreisangehörige_Gemeinde"},"district":{"key":"01055","name":"Ostholstein","type":"Kreis"},"federalState":{"key":"01","name":"Schleswig-Holstein"}},{"name":"Gorch-Fock-Weg","postalCode":"23684","locality":"Scharbeutz","municipality":{"key":"01055044","name":"Scharbeutz","type":"Kreisangehörige_Gemeinde"},"district":{"key":"01055","name":"Ostholstein","type":"Kreis"},"federalState":{"key":"01","name":"Schleswig-Holstein"}},{"name":"Görlitzer Str.","postalCode":"23683","locality":"Scharbeutz","municipality":{"key":"01055044","name":"Scharbeutz","type":"Kreisangehörige_Gemeinde"},"district":{"key":"01055","name":"Ostholstein","type":"Kreis"},"federalState":{"key":"01","name":"Schleswig-Holstein"}},{"name":"Göschbeekweg","postalCode":"23684","locality":"Scharbeutz","municipality":{"key":"01055044","name":"Scharbeutz","type":"Kreisangehörige_Gemeinde"},"district":{"key":"01055","name":"Ostholstein","type":"Kreis"},"federalState":{"key":"01","name":"Schleswig-Holstein"}},{"name":"Graf-von-Luckner-Stieg","postalCode":"23683","locality":"Scharbeutz","municipality":{"key":"01055044","name":"Scharbeutz","type":"Kreisangehörige_Gemeinde"},"district":{"key":"01055","name":"Ostholstein","type":"Kreis"},"federalState":{"key":"01","name":"Schleswig-Holstein"}},{"name":"Grasredder","postalCode":"23684","locality":"Scharbeutz","municipality":{"key":"01055044","name":"Scharbeutz","type":"Kreisangehörige_Gemeinde"},"district":{"key":"01055","name":"Ostholstein","type":"Kreis"},"federalState":{"key":"01","name":"Schleswig-Holstein"}},{"name":"Gronenberger Hof","postalCode":"23684","locality":"Scharbeutz","municipality":{"key":"01055044","name":"Scharbeutz","type":"Kreisangehörige_Gemeinde"},"district":{"key":"01055","name":"Ostholstein","type":"Kreis"},"federalState":{"key":"01","name":"Schleswig-Holstein"}},{"name":"Gronenberger Mühle","postalCode":"23684","locality":"Scharbeutz","municipality":{"key":"01055044","name":"Scharbeutz","type":"Kreisangehörige_Gemeinde"},"district":{"key":"01055","name":"Ostholstein","type":"Kreis"},"federalState":{"key":"01","name":"Schleswig-Holstein"}},{"name":"Gustav-Friedrich-Meyer-Str.","postalCode":"23684","locality":"Scharbeutz","municipality":{"key":"01055044","name":"Scharbeutz","type":"Kreisangehörige_Gemeinde"},"district":{"key":"01055","name":"Ostholstein","type":"Kreis"},"federalState":{"key":"01","name":"Schleswig-Holstein"}},{"name":"Hackendohrredder","postalCode":"23684","locality":"Scharbeutz","municipality":{"key":"01055044","name":"Scharbeutz","type":"Kreisangehörige_Gemeinde"},"district":{"key":"01055","name":"Ostholstein","type":"Kreis"},"federalState":{"key":"01","name":"Schleswig-Holstein"}},{"name":"Haffwiesenpark","postalCode":"23683","locality":"Scharbeutz","municipality":{"key":"01055044","name":"Scharbeutz","type":"Kreisangehörige_Gemeinde"},"district":{"key":"01055","name":"Ostholstein","type":"Kreis"},"federalState":{"key":"01","name":"Schleswig-Holstein"}},{"name":"Hamburger Ring","postalCode":"23683","locality":"Scharbeutz","municipality":{"key":"01055044","name":"Scharbeutz","type":"Kreisangehörige_Gemeinde"},"district":{"key":"01055","name":"Ostholstein","type":"Kreis"},"federalState":{"key":"01","name":"Schleswig-Holstein"}},{"name":"Hansastr.","postalCode":"23683","locality":"Scharbeutz","municipality":{"key":"01055044","name":"Scharbeutz","type":"Kreisangehörige_Gemeinde"},"district":{"key":"01055","name":"Ostholstein","type":"Kreis"},"federalState":{"key":"01","name":"Schleswig-Holstein"}},{"name":"Havekoster Weg","postalCode":"23684","locality":"Scharbeutz","municipality":{"key":"01055044","name":"Scharbeutz","type":"Kreisangehörige_Gemeinde"},"district":{"key":"01055","name":"Ostholstein","type":"Kreis"},"federalState":{"key":"01","name":"Schleswig-Holstein"}},{"name":"Heibargsredder","postalCode":"23684","locality":"Scharbeutz","municipality":{"key":"01055044","name":"Scharbeutz","type":"Kreisangehörige_Gemeinde"},"district":{"key":"01055","name":"Ostholstein","type":"Kreis"},"federalState":{"key":"01","name":"Schleswig-Holstein"}},{"name":"Heideredder","postalCode":"23629","locality":"Scharbeutz","municipality":{"key":"01055044","name":"Scharbeutz","type":"Kreisangehörige_Gemeinde"},"district":{"key":"01055","name":"Ostholstein","type":"Kreis"},"federalState":{"key":"01","name":"Schleswig-Holstein"}},{"name":"Heidestr.","postalCode":"23629","locality":"Scharbeutz","municipality":{"key":"01055044","name":"Scharbeutz","type":"Kreisangehörige_Gemeinde"},"district":{"key":"01055","name":"Ostholstein","type":"Kreis"},"federalState":{"key":"01","name":"Schleswig-Holstein"}},{"name":"Heisterbusch","postalCode":"23684","locality":"Scharbeutz","municipality":{"key":"01055044","name":"Scharbeutz","type":"Kreisangehörige_Gemeinde"},"district":{"key":"01055","name":"Ostholstein","type":"Kreis"},"federalState":{"key":"01","name":"Schleswig-Holstein"}},{"name":"Hermann-Löns-Weg","postalCode":"23684","locality":"Scharbeutz","municipality":{"key":"01055044","name":"Scharbeutz","type":"Kreisangehörige_Gemeinde"},"district":{"key":"01055","name":"Ostholstein","type":"Kreis"},"federalState":{"key":"01","name":"Schleswig-Holstein"}},{"name":"Hindenburgstr.","postalCode":"23684","locality":"Scharbeutz","municipality":{"key":"01055044","name":"Scharbeutz","type":"Kreisangehörige_Gemeinde"},"district":{"key":"01055","name":"Ostholstein","type":"Kreis"},"federalState":{"key":"01","name":"Schleswig-Holstein"}},{"name":"Hofblick","postalCode":"23683","locality":"Scharbeutz","municipality":{"key":"01055044","name":"Scharbeutz","type":"Kreisangehörige_Gemeinde"},"district":{"key":"01055","name":"Ostholstein","type":"Kreis"},"federalState":{"key":"01","name":"Schleswig-Holstein"}},{"name":"Hof Pries","postalCode":"23684","locality":"Scharbeutz","municipality":{"key":"01055044","name":"Scharbeutz","type":"Kreisangehörige_Gemeinde"},"district":{"key":"01055","name":"Ostholstein","type":"Kreis"},"federalState":{"key":"01","name":"Schleswig-Holstein"}},{"name":"Hof Stille","postalCode":"23684","locality":"Scharbeutz","municipality":{"key":"01055044","name":"Scharbeutz","type":"Kreisangehörige_Gemeinde"},"district":{"key":"01055","name":"Ostholstein","type":"Kreis"},"federalState":{"key":"01","name":"Schleswig-Holstein"}},{"name":"Hofwiesen","postalCode":"23683","locality":"Scharbeutz","municipality":{"key":"01055044","name":"Scharbeutz","type":"Kreisangehörige_Gemeinde"},"district":{"key":"01055","name":"Ostholstein","type":"Kreis"},"federalState":{"key":"01","name":"Schleswig-Holstein"}},{"name":"Hoher Kamp","postalCode":"23683","locality":"Scharbeutz","municipality":{"key":"01055044","name":"Scharbeutz","type":"Kreisangehörige_Gemeinde"},"district":{"key":"01055","name":"Ostholstein","type":"Kreis"},"federalState":{"key":"01","name":"Schleswig-Holstein"}},{"name":"Hollenbrook","postalCode":"23684","locality":"Scharbeutz","municipality":{"key":"01055044","name":"Scharbeutz","type":"Kreisangehörige_Gemeinde"},"district":{"key":"01055","name":"Ostholstein","type":"Kreis"},"federalState":{"key":"01","name":"Schleswig-Holstein"}},{"name":"Horst","postalCode":"23683","locality":"Scharbeutz","municipality":{"key":"01055044","name":"Scharbeutz","type":"Kreisangehörige_Gemeinde"},"district":{"key":"01055","name":"Ostholstein","type":"Kreis"},"federalState":{"key":"01","name":"Schleswig-Holstein"}},{"name":"Hundemühle","postalCode":"23684","locality":"Scharbeutz","municipality":{"key":"01055044","name":"Scharbeutz","type":"Kreisangehörige_Gemeinde"},"district":{"key":"01055","name":"Ostholstein","type":"Kreis"},"federalState":{"key":"01","name":"Schleswig-Holstein"}},{"name":"Hundesteert","postalCode":"23684","locality":"Scharbeutz","municipality":{"key":"01055044","name":"Scharbeutz","type":"Kreisangehörige_Gemeinde"},"district":{"key":"01055","name":"Ostholstein","type":"Kreis"},"federalState":{"key":"01","name":"Schleswig-Holstein"}},{"name":"Iltisweg","postalCode":"23683","locality":"Scharbeutz","municipality":{"key":"01055044","name":"Scharbeutz","type":"Kreisangehörige_Gemeinde"},"district":{"key":"01055","name":"Ostholstein","type":"Kreis"},"federalState":{"key":"01","name":"Schleswig-Holstein"}},{"name":"Im Fierth","postalCode":"23684","locality":"Scharbeutz","municipality":{"key":"01055044","name":"Scharbeutz","type":"Kreisangehörige_Gemeinde"},"district":{"key":"01055","name":"Ostholstein","type":"Kreis"},"federalState":{"key":"01","name":"Schleswig-Holstein"}},{"name":"Im Wiesental","postalCode":"23683","locality":"Scharbeutz","municipality":{"key":"01055044","name":"Scharbeutz","type":"Kreisangehörige_Gemeinde"},"district":{"key":"01055","name":"Ostholstein","type":"Kreis"},"federalState":{"key":"01","name":"Schleswig-Holstein"}},{"name":"In den Tannen","postalCode":"23684","locality":"Scharbeutz","municipality":{"key":"01055044","name":"Scharbeutz","type":"Kreisangehörige_Gemeinde"},"district":{"key":"01055","name":"Ostholstein","type":"Kreis"},"federalState":{"key":"01","name":"Schleswig-Holstein"}},{"name":"Instenweg","postalCode":"23684","locality":"Scharbeutz","municipality":{"key":"01055044","name":"Scharbeutz","type":"Kreisangehörige_Gemeinde"},"district":{"key":"01055","name":"Ostholstein","type":"Kreis"},"federalState":{"key":"01","name":"Schleswig-Holstein"}},{"name":"Kammerweg","postalCode":"23683","locality":"Scharbeutz","municipality":{"key":"01055044","name":"Scharbeutz","type":"Kreisangehörige_Gemeinde"},"district":{"key":"01055","name":"Ostholstein","type":"Kreis"},"federalState":{"key":"01","name":"Schleswig-Holstein"}},{"name":"Karkstieg","postalCode":"23683","locality":"Scharbeutz","municipality":{"key":"01055044","name":"Scharbeutz","type":"Kreisangehörige_Gemeinde"},"district":{"key":"01055","name":"Ostholstein","type":"Kreis"},"federalState":{"key":"01","name":"Schleswig-Holstein"}},{"name":"Katerstieg","postalCode":"23684","locality":"Scharbeutz","municipality":{"key":"01055044","name":"Scharbeutz","type":"Kreisangehörige_Gemeinde"},"district":{"key":"01055","name":"Ostholstein","type":"Kreis"},"federalState":{"key":"01","name":"Schleswig-Holstein"}},{"name":"Kattenhöhlener Weg","postalCode":"23683","locality":"Scharbeutz","municipality":{"key":"01055044","name":"Scharbeutz","type":"Kreisangehörige_Gemeinde"},"district":{"key":"01055","name":"Ostholstein","type":"Kreis"},"federalState":{"key":"01","name":"Schleswig-Holstein"}},{"name":"Katzbachstr.","postalCode":"23683","locality":"Scharbeutz","municipality":{"key":"01055044","name":"Scharbeutz","type":"Kreisangehörige_Gemeinde"},"district":{"key":"01055","name":"Ostholstein","type":"Kreis"},"federalState":{"key":"01","name":"Schleswig-Holstein"}},{"name":"Klageswiese","postalCode":"23683","locality":"Scharbeutz","municipality":{"key":"01055044","name":"Scharbeutz","type":"Kreisangehörige_Gemeinde"},"district":{"key":"01055","name":"Ostholstein","type":"Kreis"},"federalState":{"key":"01","name":"Schleswig-Holstein"}},{"name":"Klaus-Groth-Weg","postalCode":"23684","locality":"Scharbeutz","municipality":{"key":"01055044","name":"Scharbeutz","type":"Kreisangehörige_Gemeinde"},"district":{"key":"01055","name":"Ostholstein","type":"Kreis"},"federalState":{"key":"01","name":"Schleswig-Holstein"}},{"name":"Kleeblatt","postalCode":"23683","locality":"Scharbeutz","municipality":{"key":"01055044","name":"Scharbeutz","type":"Kreisangehörige_Gemeinde"},"district":{"key":"01055","name":"Ostholstein","type":"Kreis"},"federalState":{"key":"01","name":"Schleswig-Holstein"}},{"name":"Klein Pönitz","postalCode":"23684","locality":"Scharbeutz","municipality":{"key":"01055044","name":"Scharbeutz","type":"Kreisangehörige_Gemeinde"},"district":{"key":"01055","name":"Ostholstein","type":"Kreis"},"federalState":{"key":"01","name":"Schleswig-Holstein"}},{"name":"Knoopsweg","postalCode":"23683","locality":"Scharbeutz","municipality":{"key":"01055044","name":"Scharbeutz","type":"Kreisangehörige_Gemeinde"},"district":{"key":"01055","name":"Ostholstein","type":"Kreis"},"federalState":{"key":"01","name":"Schleswig-Holstein"}},{"name":"Königsberger Str.","postalCode":"23683","locality":"Scharbeutz","municipality":{"key":"01055044","name":"Scharbeutz","type":"Kreisangehörige_Gemeinde"},"district":{"key":"01055","name":"Ostholstein","type":"Kreis"},"federalState":{"key":"01","name":"Schleswig-Holstein"}},{"name":"Konsulweg","postalCode":"23683","locality":"Scharbeutz","municipality":{"key":"01055044","name":"Scharbeutz","type":"Kreisangehörige_Gemeinde"},"district":{"key":"01055","name":"Ostholstein","type":"Kreis"},"federalState":{"key":"01","name":"Schleswig-Holstein"}},{"name":"Kronsberg","postalCode":"23684","locality":"Scharbeutz","municipality":{"key":"01055044","name":"Scharbeutz","type":"Kreisangehörige_Gemeinde"},"district":{"key":"01055","name":"Ostholstein","type":"Kreis"},"federalState":{"key":"01","name":"Schleswig-Holstein"}},{"name":"Kronshörn","postalCode":"23684","locality":"Scharbeutz","municipality":{"key":"01055044","name":"Scharbeutz","type":"Kreisangehörige_Gemeinde"},"district":{"key":"01055","name":"Ostholstein","type":"Kreis"},"federalState":{"key":"01","name":"Schleswig-Holstein"}},{"name":"Kuckucksweg","postalCode":"23684","locality":"Scharbeutz","municipality":{"key":"01055044","name":"Scharbeutz","type":"Kreisangehörige_Gemeinde"},"district":{"key":"01055","name":"Ostholstein","type":"Kreis"},"federalState":{"key":"01","name":"Schleswig-Holstein"}},{"name":"Kuhlseeweg","postalCode":"23684","locality":"Scharbeutz","municipality":{"key":"01055044","name":"Scharbeutz","type":"Kreisangehörige_Gemeinde"},"district":{"key":"01055","name":"Ostholstein","type":"Kreis"},"federalState":{"key":"01","name":"Schleswig-Holstein"}},{"name":"Kurpark Scharbeutz","postalCode":"23683","locality":"Scharbeutz","municipality":{"key":"01055044","name":"Scharbeutz","type":"Kreisangehörige_Gemeinde"},"district":{"key":"01055","name":"Ostholstein","type":"Kreis"},"federalState":{"key":"01","name":"Schleswig-Holstein"}},{"name":"Ladeweg","postalCode":"23684","locality":"Scharbeutz","municipality":{"key":"01055044","name":"Scharbeutz","type":"Kreisangehörige_Gemeinde"},"district":{"key":"01055","name":"Ostholstein","type":"Kreis"},"federalState":{"key":"01","name":"Schleswig-Holstein"}},{"name":"Lerchenwinkel","postalCode":"23684","locality":"Scharbeutz","municipality":{"key":"01055044","name":"Scharbeutz","type":"Kreisangehörige_Gemeinde"},"district":{"key":"01055","name":"Ostholstein","type":"Kreis"},"federalState":{"key":"01","name":"Schleswig-Holstein"}},{"name":"Lindenallee","postalCode":"23683","locality":"Scharbeutz","municipality":{"key":"01055044","name":"Scharbeutz","type":"Kreisangehörige_Gemeinde"},"district":{"key":"01055","name":"Ostholstein","type":"Kreis"},"federalState":{"key":"01","name":"Schleswig-Holstein"}},{"name":"Lindenstr.","postalCode":"23684","locality":"Scharbeutz","municipality":{"key":"01055044","name":"Scharbeutz","type":"Kreisangehörige_Gemeinde"},"district":{"key":"01055","name":"Ostholstein","type":"Kreis"},"federalState":{"key":"01","name":"Schleswig-Holstein"}},{"name":"Lübecker Str.","postalCode":"23684","locality":"Scharbeutz","municipality":{"key":"01055044","name":"Scharbeutz","type":"Kreisangehörige_Gemeinde"},"district":{"key":"01055","name":"Ostholstein","type":"Kreis"},"federalState":{"key":"01","name":"Schleswig-Holstein"}},{"name":"Ludwigstr.","postalCode":"23683","locality":"Scharbeutz","municipality":{"key":"01055044","name":"Scharbeutz","type":"Kreisangehörige_Gemeinde"},"district":{"key":"01055","name":"Ostholstein","type":"Kreis"},"federalState":{"key":"01","name":"Schleswig-Holstein"}},{"name":"Luschendorfer Str.","postalCode":"23683","locality":"Scharbeutz","municipality":{"key":"01055044","name":"Scharbeutz","type":"Kreisangehörige_Gemeinde"},"district":{"key":"01055","name":"Ostholstein","type":"Kreis"},"federalState":{"key":"01","name":"Schleswig-Holstein"}},{"name":"Lütt Brook","postalCode":"23683","locality":"Scharbeutz","municipality":{"key":"01055044","name":"Scharbeutz","type":"Kreisangehörige_Gemeinde"},"district":{"key":"01055","name":"Ostholstein","type":"Kreis"},"federalState":{"key":"01","name":"Schleswig-Holstein"}},{"name":"Lütt Kiepenbarg","postalCode":"23683","locality":"Scharbeutz","municipality":{"key":"01055044","name":"Scharbeutz","type":"Kreisangehörige_Gemeinde"},"district":{"key":"01055","name":"Ostholstein","type":"Kreis"},"federalState":{"key":"01","name":"Schleswig-Holstein"}},{"name":"Makrelenweg","postalCode":"23683","locality":"Scharbeutz","municipality":{"key":"01055044","name":"Scharbeutz","type":"Kreisangehörige_Gemeinde"},"district":{"key":"01055","name":"Ostholstein","type":"Kreis"},"federalState":{"key":"01","name":"Schleswig-Holstein"}},{"name":"Malkendorfer Str.","postalCode":"23629","locality":"Scharbeutz","municipality":{"key":"01055044","name":"Scharbeutz","type":"Kreisangehörige_Gemeinde"},"district":{"key":"01055","name":"Ostholstein","type":"Kreis"},"federalState":{"key":"01","name":"Schleswig-Holstein"}},{"name":"Marderwinkel","postalCode":"23683","locality":"Scharbeutz","municipality":{"key":"01055044","name":"Scharbeutz","type":"Kreisangehörige_Gemeinde"},"district":{"key":"01055","name":"Ostholstein","type":"Kreis"},"federalState":{"key":"01","name":"Schleswig-Holstein"}},{"name":"Margarethenhöhe","postalCode":"23684","locality":"Scharbeutz","municipality":{"key":"01055044","name":"Scharbeutz","type":"Kreisangehörige_Gemeinde"},"district":{"key":"01055","name":"Ostholstein","type":"Kreis"},"federalState":{"key":"01","name":"Schleswig-Holstein"}},{"name":"Möwenberg","postalCode":"23683","locality":"Scharbeutz","municipality":{"key":"01055044","name":"Scharbeutz","type":"Kreisangehörige_Gemeinde"},"district":{"key":"01055","name":"Ostholstein","type":"Kreis"},"federalState":{"key":"01","name":"Schleswig-Holstein"}},{"name":"Muschelstieg","postalCode":"23683","locality":"Scharbeutz","municipality":{"key":"01055044","name":"Scharbeutz","type":"Kreisangehörige_Gemeinde"},"district":{"key":"01055","name":"Ostholstein","type":"Kreis"},"federalState":{"key":"01","name":"Schleswig-Holstein"}},{"name":"Nelkenweg","postalCode":"23683","locality":"Scharbeutz","municipality":{"key":"01055044","name":"Scharbeutz","type":"Kreisangehörige_Gemeinde"},"district":{"key":"01055","name":"Ostholstein","type":"Kreis"},"federalState":{"key":"01","name":"Schleswig-Holstein"}},{"name":"Neptunweg","postalCode":"23683","locality":"Scharbeutz","municipality":{"key":"01055044","name":"Scharbeutz","type":"Kreisangehörige_Gemeinde"},"district":{"key":"01055","name":"Ostholstein","type":"Kreis"},"federalState":{"key":"01","name":"Schleswig-Holstein"}},{"name":"Neue Bergstr.","postalCode":"23683","locality":"Scharbeutz","municipality":{"key":"01055044","name":"Scharbeutz","type":"Kreisangehörige_Gemeinde"},"district":{"key":"01055","name":"Ostholstein","type":"Kreis"},"federalState":{"key":"01","name":"Schleswig-Holstein"}},{"name":"Neu Wiesental","postalCode":"23683","locality":"Scharbeutz","municipality":{"key":"01055044","name":"Scharbeutz","type":"Kreisangehörige_Gemeinde"},"district":{"key":"01055","name":"Ostholstein","type":"Kreis"},"federalState":{"key":"01","name":"Schleswig-Holstein"}},{"name":"Nixenweg","postalCode":"23683","locality":"Scharbeutz","municipality":{"key":"01055044","name":"Scharbeutz","type":"Kreisangehörige_Gemeinde"},"district":{"key":"01055","name":"Ostholstein","type":"Kreis"},"federalState":{"key":"01","name":"Schleswig-Holstein"}},{"name":"Nöltingsweg","postalCode":"23683","locality":"Scharbeutz","municipality":{"key":"01055044","name":"Scharbeutz","type":"Kreisangehörige_Gemeinde"},"district":{"key":"01055","name":"Ostholstein","type":"Kreis"},"federalState":{"key":"01","name":"Schleswig-Holstein"}},{"name":"Oberdeck","postalCode":"23683","locality":"Scharbeutz","municipality":{"key":"01055044","name":"Scharbeutz","type":"Kreisangehörige_Gemeinde"},"district":{"key":"01055","name":"Ostholstein","type":"Kreis"},"federalState":{"key":"01","name":"Schleswig-Holstein"}},{"name":"Obersteenrader Hof","postalCode":"23684","locality":"Scharbeutz","municipality":{"key":"01055044","name":"Scharbeutz","type":"Kreisangehörige_Gemeinde"},"district":{"key":"01055","name":"Ostholstein","type":"Kreis"},"federalState":{"key":"01","name":"Schleswig-Holstein"}},{"name":"Oderstr.","postalCode":"23683","locality":"Scharbeutz","municipality":{"key":"01055044","name":"Scharbeutz","type":"Kreisangehörige_Gemeinde"},"district":{"key":"01055","name":"Ostholstein","type":"Kreis"},"federalState":{"key":"01","name":"Schleswig-Holstein"}},{"name":"Ostseestr.","postalCode":"23683","locality":"Scharbeutz","municipality":{"key":"01055044","name":"Scharbeutz","type":"Kreisangehörige_Gemeinde"},"district":{"key":"01055","name":"Ostholstein","type":"Kreis"},"federalState":{"key":"01","name":"Schleswig-Holstein"}},{"name":"Ottersteig","postalCode":"23683","locality":"Scharbeutz","municipality":{"key":"01055044","name":"Scharbeutz","type":"Kreisangehörige_Gemeinde"},"district":{"key":"01055","name":"Ostholstein","type":"Kreis"},"federalState":{"key":"01","name":"Schleswig-Holstein"}},{"name":"Pansdorfer Str.","postalCode":"23629","locality":"Scharbeutz","municipality":{"key":"01055044","name":"Scharbeutz","type":"Kreisangehörige_Gemeinde"},"district":{"key":"01055","name":"Ostholstein","type":"Kreis"},"federalState":{"key":"01","name":"Schleswig-Holstein"}},{"name":"Pappelweg","postalCode":"23684","locality":"Scharbeutz","municipality":{"key":"01055044","name":"Scharbeutz","type":"Kreisangehörige_Gemeinde"},"district":{"key":"01055","name":"Ostholstein","type":"Kreis"},"federalState":{"key":"01","name":"Schleswig-Holstein"}},{"name":"Passatstieg","postalCode":"23683","locality":"Scharbeutz","municipality":{"key":"01055044","name":"Scharbeutz","type":"Kreisangehörige_Gemeinde"},"district":{"key":"01055","name":"Ostholstein","type":"Kreis"},"federalState":{"key":"01","name":"Schleswig-Holstein"}},{"name":"Pommernstr.","postalCode":"23683","locality":"Scharbeutz","municipality":{"key":"01055044","name":"Scharbeutz","type":"Kreisangehörige_Gemeinde"},"district":{"key":"01055","name":"Ostholstein","type":"Kreis"},"federalState":{"key":"01","name":"Schleswig-Holstein"}},{"name":"Pönitzer Chaussee","postalCode":"23683","locality":"Scharbeutz","municipality":{"key":"01055044","name":"Scharbeutz","type":"Kreisangehörige_Gemeinde"},"district":{"key":"01055","name":"Ostholstein","type":"Kreis"},"federalState":{"key":"01","name":"Schleswig-Holstein"}},{"name":"Pönitzer Chaussee","postalCode":"23684","locality":"Scharbeutz","municipality":{"key":"01055044","name":"Scharbeutz","type":"Kreisangehörige_Gemeinde"},"district":{"key":"01055","name":"Ostholstein","type":"Kreis"},"federalState":{"key":"01","name":"Schleswig-Holstein"}},{"name":"Pönitzer Weg","postalCode":"23684","locality":"Scharbeutz","municipality":{"key":"01055044","name":"Scharbeutz","type":"Kreisangehörige_Gemeinde"},"district":{"key":"01055","name":"Ostholstein","type":"Kreis"},"federalState":{"key":"01","name":"Schleswig-Holstein"}},{"name":"Redderkrog","postalCode":"23683","locality":"Scharbeutz","municipality":{"key":"01055044","name":"Scharbeutz","type":"Kreisangehörige_Gemeinde"},"district":{"key":"01055","name":"Ostholstein","type":"Kreis"},"federalState":{"key":"01","name":"Schleswig-Holstein"}},{"name":"Reling","postalCode":"23683","locality":"Scharbeutz","municipality":{"key":"01055044","name":"Scharbeutz","type":"Kreisangehörige_Gemeinde"},"district":{"key":"01055","name":"Ostholstein","type":"Kreis"},"federalState":{"key":"01","name":"Schleswig-Holstein"}},{"name":"Rolandsweg","postalCode":"23684","locality":"Scharbeutz","municipality":{"key":"01055044","name":"Scharbeutz","type":"Kreisangehörige_Gemeinde"},"district":{"key":"01055","name":"Ostholstein","type":"Kreis"},"federalState":{"key":"01","name":"Schleswig-Holstein"}},{"name":"Rotdornweg","postalCode":"23683","locality":"Scharbeutz","municipality":{"key":"01055044","name":"Scharbeutz","type":"Kreisangehörige_Gemeinde"},"district":{"key":"01055","name":"Ostholstein","type":"Kreis"},"federalState":{"key":"01","name":"Schleswig-Holstein"}},{"name":"Ruschkamp","postalCode":"23684","locality":"Scharbeutz","municipality":{"key":"01055044","name":"Scharbeutz","type":"Kreisangehörige_Gemeinde"},"district":{"key":"01055","name":"Ostholstein","type":"Kreis"},"federalState":{"key":"01","name":"Schleswig-Holstein"}},{"name":"Sahraweg","postalCode":"23629","locality":"Scharbeutz","municipality":{"key":"01055044","name":"Scharbeutz","type":"Kreisangehörige_Gemeinde"},"district":{"key":"01055","name":"Ostholstein","type":"Kreis"},"federalState":{"key":"01","name":"Schleswig-Holstein"}},{"name":"Sandendredder","postalCode":"23684","locality":"Scharbeutz","municipality":{"key":"01055044","name":"Scharbeutz","type":"Kreisangehörige_Gemeinde"},"district":{"key":"01055","name":"Ostholstein","type":"Kreis"},"federalState":{"key":"01","name":"Schleswig-Holstein"}},{"name":"Sandkamp","postalCode":"23684","locality":"Scharbeutz","municipality":{"key":"01055044","name":"Scharbeutz","type":"Kreisangehörige_Gemeinde"},"district":{"key":"01055","name":"Ostholstein","type":"Kreis"},"federalState":{"key":"01","name":"Schleswig-Holstein"}},{"name":"Sandkuhlweg","postalCode":"23684","locality":"Scharbeutz","municipality":{"key":"01055044","name":"Scharbeutz","type":"Kreisangehörige_Gemeinde"},"district":{"key":"01055","name":"Ostholstein","type":"Kreis"},"federalState":{"key":"01","name":"Schleswig-Holstein"}},{"name":"Schaarweg","postalCode":"23683","locality":"Scharbeutz","municipality":{"key":"01055044","name":"Scharbeutz","type":"Kreisangehörige_Gemeinde"},"district":{"key":"01055","name":"Ostholstein","type":"Kreis"},"federalState":{"key":"01","name":"Schleswig-Holstein"}},{"name":"Scharbeutzer Str.","postalCode":"23684","locality":"Scharbeutz","municipality":{"key":"01055044","name":"Scharbeutz","type":"Kreisangehörige_Gemeinde"},"district":{"key":"01055","name":"Ostholstein","type":"Kreis"},"federalState":{"key":"01","name":"Schleswig-Holstein"}},{"name":"Scharbeutzer Weg","postalCode":"23684","locality":"Scharbeutz","municipality":{"key":"01055044","name":"Scharbeutz","type":"Kreisangehörige_Gemeinde"},"district":{"key":"01055","name":"Ostholstein","type":"Kreis"},"federalState":{"key":"01","name":"Schleswig-Holstein"}},{"name":"Schilfweg","postalCode":"23683","locality":"Scharbeutz","municipality":{"key":"01055044","name":"Scharbeutz","type":"Kreisangehörige_Gemeinde"},"district":{"key":"01055","name":"Ostholstein","type":"Kreis"},"federalState":{"key":"01","name":"Schleswig-Holstein"}},{"name":"Schlehenweg","postalCode":"23683","locality":"Scharbeutz","municipality":{"key":"01055044","name":"Scharbeutz","type":"Kreisangehörige_Gemeinde"},"district":{"key":"01055","name":"Ostholstein","type":"Kreis"},"federalState":{"key":"01","name":"Schleswig-Holstein"}},{"name":"Schmiedestr.","postalCode":"23683","locality":"Scharbeutz","municipality":{"key":"01055044","name":"Scharbeutz","type":"Kreisangehörige_Gemeinde"},"district":{"key":"01055","name":"Ostholstein","type":"Kreis"},"federalState":{"key":"01","name":"Schleswig-Holstein"}},{"name":"Schnuckenweg","postalCode":"23683","locality":"Scharbeutz","municipality":{"key":"01055044","name":"Scharbeutz","type":"Kreisangehörige_Gemeinde"},"district":{"key":"01055","name":"Ostholstein","type":"Kreis"},"federalState":{"key":"01","name":"Schleswig-Holstein"}},{"name":"Schollenstieg","postalCode":"23683","locality":"Scharbeutz","municipality":{"key":"01055044","name":"Scharbeutz","type":"Kreisangehörige_Gemeinde"},"district":{"key":"01055","name":"Ostholstein","type":"Kreis"},"federalState":{"key":"01","name":"Schleswig-Holstein"}},{"name":"Schulkoppel","postalCode":"23684","locality":"Scharbeutz","municipality":{"key":"01055044","name":"Scharbeutz","type":"Kreisangehörige_Gemeinde"},"district":{"key":"01055","name":"Ostholstein","type":"Kreis"},"federalState":{"key":"01","name":"Schleswig-Holstein"}},{"name":"Schulstr.","postalCode":"23683","locality":"Scharbeutz","municipality":{"key":"01055044","name":"Scharbeutz","type":"Kreisangehörige_Gemeinde"},"district":{"key":"01055","name":"Ostholstein","type":"Kreis"},"federalState":{"key":"01","name":"Schleswig-Holstein"}},{"name":"Schürsdorfer Fierth","postalCode":"23684","locality":"Scharbeutz","municipality":{"key":"01055044","name":"Scharbeutz","type":"Kreisangehörige_Gemeinde"},"district":{"key":"01055","name":"Ostholstein","type":"Kreis"},"federalState":{"key":"01","name":"Schleswig-Holstein"}},{"name":"Seekamp","postalCode":"23684","locality":"Scharbeutz","municipality":{"key":"01055044","name":"Scharbeutz","type":"Kreisangehörige_Gemeinde"},"district":{"key":"01055","name":"Ostholstein","type":"Kreis"},"federalState":{"key":"01","name":"Schleswig-Holstein"}},{"name":"Seepark Paul Zimmermann","postalCode":"23684","locality":"Scharbeutz","municipality":{"key":"01055044","name":"Scharbeutz","type":"Kreisangehörige_Gemeinde"},"district":{"key":"01055","name":"Ostholstein","type":"Kreis"},"federalState":{"key":"01","name":"Schleswig-Holstein"}},{"name":"Seestr.","postalCode":"23683","locality":"Scharbeutz","municipality":{"key":"01055044","name":"Scharbeutz","type":"Kreisangehörige_Gemeinde"},"district":{"key":"01055","name":"Ostholstein","type":"Kreis"},"federalState":{"key":"01","name":"Schleswig-Holstein"}},{"name":"Seestr.","postalCode":"23684","locality":"Scharbeutz","municipality":{"key":"01055044","name":"Scharbeutz","type":"Kreisangehörige_Gemeinde"},"district":{"key":"01055","name":"Ostholstein","type":"Kreis"},"federalState":{"key":"01","name":"Schleswig-Holstein"}},{"name":"Seeweg","postalCode":"23684","locality":"Scharbeutz","municipality":{"key":"01055044","name":"Scharbeutz","type":"Kreisangehörige_Gemeinde"},"district":{"key":"01055","name":"Ostholstein","type":"Kreis"},"federalState":{"key":"01","name":"Schleswig-Holstein"}},{"name":"Siedenkamp","postalCode":"23683","locality":"Scharbeutz","municipality":{"key":"01055044","name":"Scharbeutz","type":"Kreisangehörige_Gemeinde"},"district":{"key":"01055","name":"Ostholstein","type":"Kreis"},"federalState":{"key":"01","name":"Schleswig-Holstein"}},{"name":"Siedlung Steenrade","postalCode":"23684","locality":"Scharbeutz","municipality":{"key":"01055044","name":"Scharbeutz","type":"Kreisangehörige_Gemeinde"},"district":{"key":"01055","name":"Ostholstein","type":"Kreis"},"federalState":{"key":"01","name":"Schleswig-Holstein"}},{"name":"Sierksdorfer Weg","postalCode":"23683","locality":"Scharbeutz","municipality":{"key":"01055044","name":"Scharbeutz","type":"Kreisangehörige_Gemeinde"},"district":{"key":"01055","name":"Ostholstein","type":"Kreis"},"federalState":{"key":"01","name":"Schleswig-Holstein"}},{"name":"Spechtweg","postalCode":"23683","locality":"Scharbeutz","municipality":{"key":"01055044","name":"Scharbeutz","type":"Kreisangehörige_Gemeinde"},"district":{"key":"01055","name":"Ostholstein","type":"Kreis"},"federalState":{"key":"01","name":"Schleswig-Holstein"}},{"name":"Speckenweg","postalCode":"23683","locality":"Scharbeutz","municipality":{"key":"01055044","name":"Scharbeutz","type":"Kreisangehörige_Gemeinde"},"district":{"key":"01055","name":"Ostholstein","type":"Kreis"},"federalState":{"key":"01","name":"Schleswig-Holstein"}},{"name":"Sportpark Pönitz","postalCode":"23684","locality":"Scharbeutz","municipality":{"key":"01055044","name":"Scharbeutz","type":"Kreisangehörige_Gemeinde"},"district":{"key":"01055","name":"Ostholstein","type":"Kreis"},"federalState":{"key":"01","name":"Schleswig-Holstein"}},{"name":"Steinredder","postalCode":"23683","locality":"Scharbeutz","municipality":{"key":"01055044","name":"Scharbeutz","type":"Kreisangehörige_Gemeinde"},"district":{"key":"01055","name":"Ostholstein","type":"Kreis"},"federalState":{"key":"01","name":"Schleswig-Holstein"}},{"name":"Stettiner Str.","postalCode":"23683","locality":"Scharbeutz","municipality":{"key":"01055044","name":"Scharbeutz","type":"Kreisangehörige_Gemeinde"},"district":{"key":"01055","name":"Ostholstein","type":"Kreis"},"federalState":{"key":"01","name":"Schleswig-Holstein"}},{"name":"Steuerbord","postalCode":"23683","locality":"Scharbeutz","municipality":{"key":"01055044","name":"Scharbeutz","type":"Kreisangehörige_Gemeinde"},"district":{"key":"01055","name":"Ostholstein","type":"Kreis"},"federalState":{"key":"01","name":"Schleswig-Holstein"}},{"name":"Störtebekerstieg","postalCode":"23683","locality":"Scharbeutz","municipality":{"key":"01055044","name":"Scharbeutz","type":"Kreisangehörige_Gemeinde"},"district":{"key":"01055","name":"Ostholstein","type":"Kreis"},"federalState":{"key":"01","name":"Schleswig-Holstein"}},{"name":"Störtebekerweg","postalCode":"23684","locality":"Scharbeutz","municipality":{"key":"01055044","name":"Scharbeutz","type":"Kreisangehörige_Gemeinde"},"district":{"key":"01055","name":"Ostholstein","type":"Kreis"},"federalState":{"key":"01","name":"Schleswig-Holstein"}},{"name":"Strandallee","postalCode":"23669","locality":"Scharbeutz","municipality":{"key":"01055044","name":"Scharbeutz","type":"Kreisangehörige_Gemeinde"},"district":{"key":"01055","name":"Ostholstein","type":"Kreis"},"federalState":{"key":"01","name":"Schleswig-Holstein"}},{"name":"Strandallee","postalCode":"23683","locality":"Scharbeutz","municipality":{"key":"01055044","name":"Scharbeutz","type":"Kreisangehörige_Gemeinde"},"district":{"key":"01055","name":"Ostholstein","type":"Kreis"},"federalState":{"key":"01","name":"Schleswig-Holstein"}},{"name":"Strandwiese","postalCode":"23683","locality":"Scharbeutz","municipality":{"key":"01055044","name":"Scharbeutz","type":"Kreisangehörige_Gemeinde"},"district":{"key":"01055","name":"Ostholstein","type":"Kreis"},"federalState":{"key":"01","name":"Schleswig-Holstein"}},{"name":"Strandzugang","postalCode":"23683","locality":"Scharbeutz","municipality":{"key":"01055044","name":"Scharbeutz","type":"Kreisangehörige_Gemeinde"},"district":{"key":"01055","name":"Ostholstein","type":"Kreis"},"federalState":{"key":"01","name":"Schleswig-Holstein"}},{"name":"Strandzugang 1","postalCode":"23683","locality":"Scharbeutz","municipality":{"key":"01055044","name":"Scharbeutz","type":"Kreisangehörige_Gemeinde"},"district":{"key":"01055","name":"Ostholstein","type":"Kreis"},"federalState":{"key":"01","name":"Schleswig-Holstein"}},{"name":"Strandzugang 11","postalCode":"23683","locality":"Scharbeutz","municipality":{"key":"01055044","name":"Scharbeutz","type":"Kreisangehörige_Gemeinde"},"district":{"key":"01055","name":"Ostholstein","type":"Kreis"},"federalState":{"key":"01","name":"Schleswig-Holstein"}},{"name":"Strandzugang 13","postalCode":"23683","locality":"Scharbeutz","municipality":{"key":"01055044","name":"Scharbeutz","type":"Kreisangehörige_Gemeinde"},"district":{"key":"01055","name":"Ostholstein","type":"Kreis"},"federalState":{"key":"01","name":"Schleswig-Holstein"}},{"name":"Strandzugang 14","postalCode":"23683","locality":"Scharbeutz","municipality":{"key":"01055044","name":"Scharbeutz","type":"Kreisangehörige_Gemeinde"},"district":{"key":"01055","name":"Ostholstein","type":"Kreis"},"federalState":{"key":"01","name":"Schleswig-Holstein"}},{"name":"Strandzugang 15/16","postalCode":"23683","locality":"Scharbeutz","municipality":{"key":"01055044","name":"Scharbeutz","type":"Kreisangehörige_Gemeinde"},"district":{"key":"01055","name":"Ostholstein","type":"Kreis"},"federalState":{"key":"01","name":"Schleswig-Holstein"}},{"name":"Strandzugang 17","postalCode":"23683","locality":"Scharbeutz","municipality":{"key":"01055044","name":"Scharbeutz","type":"Kreisangehörige_Gemeinde"},"district":{"key":"01055","name":"Ostholstein","type":"Kreis"},"federalState":{"key":"01","name":"Schleswig-Holstein"}},{"name":"Strandzugang 18 - Spielstrand, Aktionsstrand","postalCode":"23683","locality":"Scharbeutz","municipality":{"key":"01055044","name":"Scharbeutz","type":"Kreisangehörige_Gemeinde"},"district":{"key":"01055","name":"Ostholstein","type":"Kreis"},"federalState":{"key":"01","name":"Schleswig-Holstein"}},{"name":"Strandzugang 19 - Aktionsstrand","postalCode":"23683","locality":"Scharbeutz","municipality":{"key":"01055044","name":"Scharbeutz","type":"Kreisangehörige_Gemeinde"},"district":{"key":"01055","name":"Ostholstein","type":"Kreis"},"federalState":{"key":"01","name":"Schleswig-Holstein"}},{"name":"Strandzugang 2","postalCode":"23683","locality":"Scharbeutz","municipality":{"key":"01055044","name":"Scharbeutz","type":"Kreisangehörige_Gemeinde"},"district":{"key":"01055","name":"Ostholstein","type":"Kreis"},"federalState":{"key":"01","name":"Schleswig-Holstein"}},{"name":"Strandzugang 21","postalCode":"23683","locality":"Scharbeutz","municipality":{"key":"01055044","name":"Scharbeutz","type":"Kreisangehörige_Gemeinde"},"district":{"key":"01055","name":"Ostholstein","type":"Kreis"},"federalState":{"key":"01","name":"Schleswig-Holstein"}},{"name":"Strandzugang 22","postalCode":"23683","locality":"Scharbeutz","municipality":{"key":"01055044","name":"Scharbeutz","type":"Kreisangehörige_Gemeinde"},"district":{"key":"01055","name":"Ostholstein","type":"Kreis"},"federalState":{"key":"01","name":"Schleswig-Holstein"}},{"name":"Strandzugang 23","postalCode":"23683","locality":"Scharbeutz","municipality":{"key":"01055044","name":"Scharbeutz","type":"Kreisangehörige_Gemeinde"},"district":{"key":"01055","name":"Ostholstein","type":"Kreis"},"federalState":{"key":"01","name":"Schleswig-Holstein"}},{"name":"Strandzugang 24","postalCode":"23683","locality":"Scharbeutz","municipality":{"key":"01055044","name":"Scharbeutz","type":"Kreisangehörige_Gemeinde"},"district":{"key":"01055","name":"Ostholstein","type":"Kreis"},"federalState":{"key":"01","name":"Schleswig-Holstein"}},{"name":"Strandzugang 25","postalCode":"23683","locality":"Scharbeutz","municipality":{"key":"01055044","name":"Scharbeutz","type":"Kreisangehörige_Gemeinde"},"district":{"key":"01055","name":"Ostholstein","type":"Kreis"},"federalState":{"key":"01","name":"Schleswig-Holstein"}},{"name":"Strandzugang 27","postalCode":"23683","locality":"Scharbeutz","municipality":{"key":"01055044","name":"Scharbeutz","type":"Kreisangehörige_Gemeinde"},"district":{"key":"01055","name":"Ostholstein","type":"Kreis"},"federalState":{"key":"01","name":"Schleswig-Holstein"}},{"name":"Tanneneck","postalCode":"23684","locality":"Scharbeutz","municipality":{"key":"01055044","name":"Scharbeutz","type":"Kreisangehörige_Gemeinde"},"district":{"key":"01055","name":"Ostholstein","type":"Kreis"},"federalState":{"key":"01","name":"Schleswig-Holstein"}},{"name":"Theodor-Storm-Weg","postalCode":"23684","locality":"Scharbeutz","municipality":{"key":"01055044","name":"Scharbeutz","type":"Kreisangehörige_Gemeinde"},"district":{"key":"01055","name":"Ostholstein","type":"Kreis"},"federalState":{"key":"01","name":"Schleswig-Holstein"}},{"name":"Timmerhorst","postalCode":"23683","locality":"Scharbeutz","municipality":{"key":"01055044","name":"Scharbeutz","type":"Kreisangehörige_Gemeinde"},"district":{"key":"01055","name":"Ostholstein","type":"Kreis"},"federalState":{"key":"01","name":"Schleswig-Holstein"}},{"name":"Trelleborgstr.","postalCode":"23683","locality":"Scharbeutz","municipality":{"key":"01055044","name":"Scharbeutz","type":"Kreisangehörige_Gemeinde"},"district":{"key":"01055","name":"Ostholstein","type":"Kreis"},"federalState":{"key":"01","name":"Schleswig-Holstein"}},{"name":"Twiete","postalCode":"23684","locality":"Scharbeutz","municipality":{"key":"01055044","name":"Scharbeutz","type":"Kreisangehörige_Gemeinde"},"district":{"key":"01055","name":"Ostholstein","type":"Kreis"},"federalState":{"key":"01","name":"Schleswig-Holstein"}},{"name":"Untersteenrade","postalCode":"23684","locality":"Scharbeutz","municipality":{"key":"01055044","name":"Scharbeutz","type":"Kreisangehörige_Gemeinde"},"district":{"key":"01055","name":"Ostholstein","type":"Kreis"},"federalState":{"key":"01","name":"Schleswig-Holstein"}},{"name":"Ursula-Witting-Weg","postalCode":"23683","locality":"Scharbeutz","municipality":{"key":"01055044","name":"Scharbeutz","type":"Kreisangehörige_Gemeinde"},"district":{"key":"01055","name":"Ostholstein","type":"Kreis"},"federalState":{"key":"01","name":"Schleswig-Holstein"}},{"name":"Vierlinden","postalCode":"23684","locality":"Scharbeutz","municipality":{"key":"01055044","name":"Scharbeutz","type":"Kreisangehörige_Gemeinde"},"district":{"key":"01055","name":"Ostholstein","type":"Kreis"},"federalState":{"key":"01","name":"Schleswig-Holstein"}},{"name":"Vossweg","postalCode":"23684","locality":"Scharbeutz","municipality":{"key":"01055044","name":"Scharbeutz","type":"Kreisangehörige_Gemeinde"},"district":{"key":"01055","name":"Ostholstein","type":"Kreis"},"federalState":{"key":"01","name":"Schleswig-Holstein"}},{"name":"Waldstr.","postalCode":"23683","locality":"Scharbeutz","municipality":{"key":"01055044","name":"Scharbeutz","type":"Kreisangehörige_Gemeinde"},"district":{"key":"01055","name":"Ostholstein","type":"Kreis"},"federalState":{"key":"01","name":"Schleswig-Holstein"}},{"name":"Waldweg","postalCode":"23683","locality":"Scharbeutz","municipality":{"key":"01055044","name":"Scharbeutz","type":"Kreisangehörige_Gemeinde"},"district":{"key":"01055","name":"Ostholstein","type":"Kreis"},"federalState":{"key":"01","name":"Schleswig-Holstein"}},{"name":"Warthestr.","postalCode":"23683","locality":"Scharbeutz","municipality":{"key":"01055044","name":"Scharbeutz","type":"Kreisangehörige_Gemeinde"},"district":{"key":"01055","name":"Ostholstein","type":"Kreis"},"federalState":{"key":"01","name":"Schleswig-Holstein"}},{"name":"Weißdornweg","postalCode":"23683","locality":"Scharbeutz","municipality":{"key":"01055044","name":"Scharbeutz","type":"Kreisangehörige_Gemeinde"},"district":{"key":"01055","name":"Ostholstein","type":"Kreis"},"federalState":{"key":"01","name":"Schleswig-Holstein"}},{"name":"Wennseestr.","postalCode":"23683","locality":"Scharbeutz","municipality":{"key":"01055044","name":"Scharbeutz","type":"Kreisangehörige_Gemeinde"},"district":{"key":"01055","name":"Ostholstein","type":"Kreis"},"federalState":{"key":"01","name":"Schleswig-Holstein"}},{"name":"Wieselgang","postalCode":"23683","locality":"Scharbeutz","municipality":{"key":"01055044","name":"Scharbeutz","type":"Kreisangehörige_Gemeinde"},"district":{"key":"01055","name":"Ostholstein","type":"Kreis"},"federalState":{"key":"01","name":"Schleswig-Holstein"}},{"name":"Wiesenhöh","postalCode":"23683","locality":"Scharbeutz","municipality":{"key":"01055044","name":"Scharbeutz","type":"Kreisangehörige_Gemeinde"},"district":{"key":"01055","name":"Ostholstein","type":"Kreis"},"federalState":{"key":"01","name":"Schleswig-Holstein"}},{"name":"Wiesenweg","postalCode":"23683","locality":"Scharbeutz","municipality":{"key":"01055044","name":"Scharbeutz","type":"Kreisangehörige_Gemeinde"},"district":{"key":"01055","name":"Ostholstein","type":"Kreis"},"federalState":{"key":"01","name":"Schleswig-Holstein"}},{"name":"Wiesenweg","postalCode":"23684","locality":"Scharbeutz","municipality":{"key":"01055044","name":"Scharbeutz","type":"Kreisangehörige_Gemeinde"},"district":{"key":"01055","name":"Ostholstein","type":"Kreis"},"federalState":{"key":"01","name":"Schleswig-Holstein"}},{"name":"Windberg","postalCode":"23684","locality":"Scharbeutz","municipality":{"key":"01055044","name":"Scharbeutz","type":"Kreisangehörige_Gemeinde"},"district":{"key":"01055","name":"Ostholstein","type":"Kreis"},"federalState":{"key":"01","name":"Schleswig-Holstein"}},{"name":"Wischkamp","postalCode":"23683","locality":"Scharbeutz","municipality":{"key":"01055044","name":"Scharbeutz","type":"Kreisangehörige_Gemeinde"},"district":{"key":"01055","name":"Ostholstein","type":"Kreis"},"federalState":{"key":"01","name":"Schleswig-Holstein"}},{"name":"Zobelgasse","postalCode":"23683","locality":"Scharbeutz","municipality":{"key":"01055044","name":"Scharbeutz","type":"Kreisangehörige_Gemeinde"},"district":{"key":"01055","name":"Ostholstein","type":"Kreis"},"federalState":{"key":"01","name":"Schleswig-Holstein"}},{"name":"Zum Bruchkamp","postalCode":"23684","locality":"Scharbeutz","municipality":{"key":"01055044","name":"Scharbeutz","type":"Kreisangehörige_Gemeinde"},"district":{"key":"01055","name":"Ostholstein","type":"Kreis"},"federalState":{"key":"01","name":"Schleswig-Holstein"}},{"name":"Zum Tannenhof","postalCode":"23684","locality":"Scharbeutz","municipality":{"key":"01055044","name":"Scharbeutz","type":"Kreisangehörige_Gemeinde"},"district":{"key":"01055","name":"Ostholstein","type":"Kreis"},"federalState":{"key":"01","name":"Schleswig-Holstein"}},{"name":"Zur Höhe","postalCode":"23684","locality":"Scharbeutz","municipality":{"key":"01055044","name":"Scharbeutz","type":"Kreisangehörige_Gemeinde"},"district":{"key":"01055","name":"Ostholstein","type":"Kreis"},"federalState":{"key":"01","name":"Schleswig-Holstein"}},]