[{"key":"13075001","name":"Ahlbeck","type":"Kreisangehörige_Gemeinde","postalCode":"17375","multiplePostalCodes":false,"association":{"key":"13075","name":"Am Stettiner Haff","type":"Amt"},"district":{"key":"13075","name":"Vorpommern-Greifswald","type":"Landkreis"},"federalState":{"key":"13","name":"Mecklenburg-Vorpommern"}},{"key":"13075002","name":"Alt Tellin","type":"Kreisangehörige_Gemeinde","postalCode":"17129","multiplePostalCodes":false,"association":{"key":"13075","name":"Jarmen-Tutow","type":"Amt"},"district":{"key":"13075","name":"Vorpommern-Greifswald","type":"Landkreis"},"federalState":{"key":"13","name":"Mecklenburg-Vorpommern"}},{"key":"13075003","name":"Altwarp","type":"Kreisangehörige_Gemeinde","postalCode":"17375","multiplePostalCodes":false,"association":{"key":"13075","name":"Am Stettiner Haff","type":"Amt"},"district":{"key":"13075","name":"Vorpommern-Greifswald","type":"Landkreis"},"federalState":{"key":"13","name":"Mecklenburg-Vorpommern"}},{"key":"13075004","name":"Altwigshagen","type":"Kreisangehörige_Gemeinde","postalCode":"17379","multiplePostalCodes":false,"association":{"key":"13075","name":"Torgelow-Ferdinandshof","type":"Amt"},"district":{"key":"13075","name":"Vorpommern-Greifswald","type":"Landkreis"},"federalState":{"key":"13","name":"Mecklenburg-Vorpommern"}},{"key":"13075005","name":"Anklam, Hansestadt","type":"Stadt","postalCode":"17389","multiplePostalCodes":false,"association":{"key":"13075","name":"Anklam, Hansestadt","type":"Verbandsfreie_Gemeinde"},"district":{"key":"13075","name":"Vorpommern-Greifswald","type":"Landkreis"},"federalState":{"key":"13","name":"Mecklenburg-Vorpommern"}},{"key":"13075006","name":"Bandelin","type":"Kreisangehörige_Gemeinde","postalCode":"17506","multiplePostalCodes":false,"association":{"key":"13075","name":"Züssow","type":"Amt"},"district":{"key":"13075","name":"Vorpommern-Greifswald","type":"Landkreis"},"federalState":{"key":"13","name":"Mecklenburg-Vorpommern"}},{"key":"13075007","name":"Bargischow","type":"Kreisangehörige_Gemeinde","postalCode":"17398","multiplePostalCodes":false,"association":{"key":"13075","name":"Anklam-Land","type":"Amt"},"district":{"key":"13075","name":"Vorpommern-Greifswald","type":"Landkreis"},"federalState":{"key":"13","name":"Mecklenburg-Vorpommern"}},{"key":"13075008","name":"Behrenhoff","type":"Kreisangehörige_Gemeinde","postalCode":"17498","multiplePostalCodes":false,"association":{"key":"13075","name":"Landhagen","type":"Amt"},"district":{"key":"13075","name":"Vorpommern-Greifswald","type":"Landkreis"},"federalState":{"key":"13","name":"Mecklenburg-Vorpommern"}},{"key":"13075009","name":"Bentzin","type":"Kreisangehörige_Gemeinde","postalCode":"17129","multiplePostalCodes":false,"association":{"key":"13075","name":"Jarmen-Tutow","type":"Amt"},"district":{"key":"13075","name":"Vorpommern-Greifswald","type":"Landkreis"},"federalState":{"key":"13","name":"Mecklenburg-Vorpommern"}},{"key":"13075010","name":"Benz","type":"Kreisangehörige_Gemeinde","postalCode":"17429","multiplePostalCodes":false,"association":{"key":"13075","name":"Usedom-Süd","type":"Amt"},"district":{"key":"13075","name":"Vorpommern-Greifswald","type":"Landkreis"},"federalState":{"key":"13","name":"Mecklenburg-Vorpommern"}},{"key":"13075011","name":"Bergholz","type":"Kreisangehörige_Gemeinde","postalCode":"17321","multiplePostalCodes":false,"association":{"key":"13075","name":"Löcknitz-Penkun","type":"Amt"},"district":{"key":"13075","name":"Vorpommern-Greifswald","type":"Landkreis"},"federalState":{"key":"13","name":"Mecklenburg-Vorpommern"}},{"key":"13075012","name":"Blankensee","type":"Kreisangehörige_Gemeinde","postalCode":"17322","multiplePostalCodes":false,"association":{"key":"13075","name":"Löcknitz-Penkun","type":"Amt"},"district":{"key":"13075","name":"Vorpommern-Greifswald","type":"Landkreis"},"federalState":{"key":"13","name":"Mecklenburg-Vorpommern"}},{"key":"13075013","name":"Blesewitz","type":"Kreisangehörige_Gemeinde","postalCode":"17392","multiplePostalCodes":false,"association":{"key":"13075","name":"Anklam-Land","type":"Amt"},"district":{"key":"13075","name":"Vorpommern-Greifswald","type":"Landkreis"},"federalState":{"key":"13","name":"Mecklenburg-Vorpommern"}},{"key":"13075015","name":"Boldekow","type":"Kreisangehörige_Gemeinde","postalCode":"17392","multiplePostalCodes":false,"association":{"key":"13075","name":"Anklam-Land","type":"Amt"},"district":{"key":"13075","name":"Vorpommern-Greifswald","type":"Landkreis"},"federalState":{"key":"13","name":"Mecklenburg-Vorpommern"}},{"key":"13075016","name":"Boock","type":"Kreisangehörige_Gemeinde","postalCode":"17322","multiplePostalCodes":false,"association":{"key":"13075","name":"Löcknitz-Penkun","type":"Amt"},"district":{"key":"13075","name":"Vorpommern-Greifswald","type":"Landkreis"},"federalState":{"key":"13","name":"Mecklenburg-Vorpommern"}},{"key":"13075017","name":"Brietzig","type":"Kreisangehörige_Gemeinde","postalCode":"17309","multiplePostalCodes":false,"association":{"key":"13075","name":"Uecker-Randow-Tal","type":"Amt"},"district":{"key":"13075","name":"Vorpommern-Greifswald","type":"Landkreis"},"federalState":{"key":"13","name":"Mecklenburg-Vorpommern"}},{"key":"13075018","name":"Brünzow","type":"Kreisangehörige_Gemeinde","postalCode":"17509","multiplePostalCodes":false,"association":{"key":"13075","name":"Lubmin","type":"Amt"},"district":{"key":"13075","name":"Vorpommern-Greifswald","type":"Landkreis"},"federalState":{"key":"13","name":"Mecklenburg-Vorpommern"}},{"key":"13075020","name":"Bugewitz","type":"Kreisangehörige_Gemeinde","postalCode":"17398","multiplePostalCodes":false,"association":{"key":"13075","name":"Anklam-Land","type":"Amt"},"district":{"key":"13075","name":"Vorpommern-Greifswald","type":"Landkreis"},"federalState":{"key":"13","name":"Mecklenburg-Vorpommern"}},{"key":"13075021","name":"Buggenhagen","type":"Kreisangehörige_Gemeinde","postalCode":"17440","multiplePostalCodes":false,"association":{"key":"13075","name":"Am Peenestrom","type":"Amt"},"district":{"key":"13075","name":"Vorpommern-Greifswald","type":"Landkreis"},"federalState":{"key":"13","name":"Mecklenburg-Vorpommern"}},{"key":"13075022","name":"Butzow","type":"Kreisangehörige_Gemeinde","postalCode":"17392","multiplePostalCodes":false,"association":{"key":"13075","name":"Anklam-Land","type":"Amt"},"district":{"key":"13075","name":"Vorpommern-Greifswald","type":"Landkreis"},"federalState":{"key":"13","name":"Mecklenburg-Vorpommern"}},{"key":"13075023","name":"Daberkow","type":"Kreisangehörige_Gemeinde","postalCode":"17129","multiplePostalCodes":false,"association":{"key":"13075","name":"Jarmen-Tutow","type":"Amt"},"district":{"key":"13075","name":"Vorpommern-Greifswald","type":"Landkreis"},"federalState":{"key":"13","name":"Mecklenburg-Vorpommern"}},{"key":"13075025","name":"Dargelin","type":"Kreisangehörige_Gemeinde","postalCode":"17498","multiplePostalCodes":false,"association":{"key":"13075","name":"Landhagen","type":"Amt"},"district":{"key":"13075","name":"Vorpommern-Greifswald","type":"Landkreis"},"federalState":{"key":"13","name":"Mecklenburg-Vorpommern"}},{"key":"13075026","name":"Dargen","type":"Kreisangehörige_Gemeinde","postalCode":"17419","multiplePostalCodes":true,"association":{"key":"13075","name":"Usedom-Süd","type":"Amt"},"district":{"key":"13075","name":"Vorpommern-Greifswald","type":"Landkreis"},"federalState":{"key":"13","name":"Mecklenburg-Vorpommern"}},{"key":"13075027","name":"Dersekow","type":"Kreisangehörige_Gemeinde","postalCode":"17498","multiplePostalCodes":false,"association":{"key":"13075","name":"Landhagen","type":"Amt"},"district":{"key":"13075","name":"Vorpommern-Greifswald","type":"Landkreis"},"federalState":{"key":"13","name":"Mecklenburg-Vorpommern"}},{"key":"13075029","name":"Ducherow","type":"Kreisangehörige_Gemeinde","postalCode":"17398","multiplePostalCodes":false,"association":{"key":"13075","name":"Anklam-Land","type":"Amt"},"district":{"key":"13075","name":"Vorpommern-Greifswald","type":"Landkreis"},"federalState":{"key":"13","name":"Mecklenburg-Vorpommern"}},{"key":"13075031","name":"Eggesin, Stadt","type":"Stadt","postalCode":"17367","multiplePostalCodes":true,"association":{"key":"13075","name":"Am Stettiner Haff","type":"Amt"},"district":{"key":"13075","name":"Vorpommern-Greifswald","type":"Landkreis"},"federalState":{"key":"13","name":"Mecklenburg-Vorpommern"}},{"key":"13075032","name":"Fahrenwalde","type":"Kreisangehörige_Gemeinde","postalCode":"17309","multiplePostalCodes":false,"association":{"key":"13075","name":"Uecker-Randow-Tal","type":"Amt"},"district":{"key":"13075","name":"Vorpommern-Greifswald","type":"Landkreis"},"federalState":{"key":"13","name":"Mecklenburg-Vorpommern"}},{"key":"13075033","name":"Ferdinandshof","type":"Kreisangehörige_Gemeinde","postalCode":"17379","multiplePostalCodes":false,"association":{"key":"13075","name":"Torgelow-Ferdinandshof","type":"Amt"},"district":{"key":"13075","name":"Vorpommern-Greifswald","type":"Landkreis"},"federalState":{"key":"13","name":"Mecklenburg-Vorpommern"}},{"key":"13075034","name":"Garz","type":"Kreisangehörige_Gemeinde","postalCode":"17419","multiplePostalCodes":false,"association":{"key":"13075","name":"Usedom-Süd","type":"Amt"},"district":{"key":"13075","name":"Vorpommern-Greifswald","type":"Landkreis"},"federalState":{"key":"13","name":"Mecklenburg-Vorpommern"}},{"key":"13075035","name":"Glasow","type":"Kreisangehörige_Gemeinde","postalCode":"17322","multiplePostalCodes":false,"association":{"key":"13075","name":"Löcknitz-Penkun","type":"Amt"},"district":{"key":"13075","name":"Vorpommern-Greifswald","type":"Landkreis"},"federalState":{"key":"13","name":"Mecklenburg-Vorpommern"}},{"key":"13075036","name":"Görmin","type":"Kreisangehörige_Gemeinde","postalCode":"17121","multiplePostalCodes":false,"association":{"key":"13075","name":"Peenetal/Loitz","type":"Amt"},"district":{"key":"13075","name":"Vorpommern-Greifswald","type":"Landkreis"},"federalState":{"key":"13","name":"Mecklenburg-Vorpommern"}},{"key":"13075037","name":"Grambin","type":"Kreisangehörige_Gemeinde","postalCode":"17375","multiplePostalCodes":false,"association":{"key":"13075","name":"Am Stettiner Haff","type":"Amt"},"district":{"key":"13075","name":"Vorpommern-Greifswald","type":"Landkreis"},"federalState":{"key":"13","name":"Mecklenburg-Vorpommern"}},{"key":"13075038","name":"Grambow","type":"Kreisangehörige_Gemeinde","postalCode":"17322","multiplePostalCodes":true,"association":{"key":"13075","name":"Löcknitz-Penkun","type":"Amt"},"district":{"key":"13075","name":"Vorpommern-Greifswald","type":"Landkreis"},"federalState":{"key":"13","name":"Mecklenburg-Vorpommern"}},{"key":"13075039","name":"Greifswald, Universitäts- und Hansestadt","type":"Stadt","postalCode":"17489","multiplePostalCodes":true,"association":{"key":"13075","name":"Greifswald, Universitäts- und Hansestadt","type":"Verbandsfreie_Gemeinde"},"district":{"key":"13075","name":"Vorpommern-Greifswald","type":"Landkreis"},"federalState":{"key":"13","name":"Mecklenburg-Vorpommern"}},{"key":"13075040","name":"Gribow","type":"Kreisangehörige_Gemeinde","postalCode":"17506","multiplePostalCodes":false,"association":{"key":"13075","name":"Züssow","type":"Amt"},"district":{"key":"13075","name":"Vorpommern-Greifswald","type":"Landkreis"},"federalState":{"key":"13","name":"Mecklenburg-Vorpommern"}},{"key":"13075041","name":"Groß Kiesow","type":"Kreisangehörige_Gemeinde","postalCode":"17495","multiplePostalCodes":false,"association":{"key":"13075","name":"Züssow","type":"Amt"},"district":{"key":"13075","name":"Vorpommern-Greifswald","type":"Landkreis"},"federalState":{"key":"13","name":"Mecklenburg-Vorpommern"}},{"key":"13075042","name":"Groß Luckow","type":"Kreisangehörige_Gemeinde","postalCode":"17337","multiplePostalCodes":false,"association":{"key":"13075","name":"Uecker-Randow-Tal","type":"Amt"},"district":{"key":"13075","name":"Vorpommern-Greifswald","type":"Landkreis"},"federalState":{"key":"13","name":"Mecklenburg-Vorpommern"}},{"key":"13075043","name":"Groß Polzin","type":"Kreisangehörige_Gemeinde","postalCode":"17390","multiplePostalCodes":false,"association":{"key":"13075","name":"Züssow","type":"Amt"},"district":{"key":"13075","name":"Vorpommern-Greifswald","type":"Landkreis"},"federalState":{"key":"13","name":"Mecklenburg-Vorpommern"}},{"key":"13075044","name":"Gützkow, Stadt","type":"Stadt","postalCode":"17506","multiplePostalCodes":false,"association":{"key":"13075","name":"Züssow","type":"Amt"},"district":{"key":"13075","name":"Vorpommern-Greifswald","type":"Landkreis"},"federalState":{"key":"13","name":"Mecklenburg-Vorpommern"}},{"key":"13075045","name":"Hammer a.d. Uecker","type":"Kreisangehörige_Gemeinde","postalCode":"17358","multiplePostalCodes":false,"association":{"key":"13075","name":"Torgelow-Ferdinandshof","type":"Amt"},"district":{"key":"13075","name":"Vorpommern-Greifswald","type":"Landkreis"},"federalState":{"key":"13","name":"Mecklenburg-Vorpommern"}},{"key":"13075046","name":"Hanshagen","type":"Kreisangehörige_Gemeinde","postalCode":"17509","multiplePostalCodes":false,"association":{"key":"13075","name":"Lubmin","type":"Amt"},"district":{"key":"13075","name":"Vorpommern-Greifswald","type":"Landkreis"},"federalState":{"key":"13","name":"Mecklenburg-Vorpommern"}},{"key":"13075048","name":"Heinrichswalde","type":"Kreisangehörige_Gemeinde","postalCode":"17379","multiplePostalCodes":false,"association":{"key":"13075","name":"Torgelow-Ferdinandshof","type":"Amt"},"district":{"key":"13075","name":"Vorpommern-Greifswald","type":"Landkreis"},"federalState":{"key":"13","name":"Mecklenburg-Vorpommern"}},{"key":"13075049","name":"Heringsdorf, Ostseebad","type":"Kreisangehörige_Gemeinde","postalCode":"17424","multiplePostalCodes":true,"association":{"key":"13075","name":"Heringsdorf, Ostseebad","type":"Verbandsfreie_Gemeinde"},"district":{"key":"13075","name":"Vorpommern-Greifswald","type":"Landkreis"},"federalState":{"key":"13","name":"Mecklenburg-Vorpommern"}},{"key":"13075050","name":"Hinrichshagen","type":"Kreisangehörige_Gemeinde","postalCode":"17498","multiplePostalCodes":false,"association":{"key":"13075","name":"Landhagen","type":"Amt"},"district":{"key":"13075","name":"Vorpommern-Greifswald","type":"Landkreis"},"federalState":{"key":"13","name":"Mecklenburg-Vorpommern"}},{"key":"13075051","name":"Hintersee","type":"Kreisangehörige_Gemeinde","postalCode":"17375","multiplePostalCodes":false,"association":{"key":"13075","name":"Am Stettiner Haff","type":"Amt"},"district":{"key":"13075","name":"Vorpommern-Greifswald","type":"Landkreis"},"federalState":{"key":"13","name":"Mecklenburg-Vorpommern"}},{"key":"13075053","name":"Iven","type":"Kreisangehörige_Gemeinde","postalCode":"17391","multiplePostalCodes":false,"association":{"key":"13075","name":"Anklam-Land","type":"Amt"},"district":{"key":"13075","name":"Vorpommern-Greifswald","type":"Landkreis"},"federalState":{"key":"13","name":"Mecklenburg-Vorpommern"}},{"key":"13075054","name":"Jarmen, Stadt","type":"Stadt","postalCode":"17126","multiplePostalCodes":false,"association":{"key":"13075","name":"Jarmen-Tutow","type":"Amt"},"district":{"key":"13075","name":"Vorpommern-Greifswald","type":"Landkreis"},"federalState":{"key":"13","name":"Mecklenburg-Vorpommern"}},{"key":"13075055","name":"Jatznick","type":"Kreisangehörige_Gemeinde","postalCode":"17309","multiplePostalCodes":false,"association":{"key":"13075","name":"Uecker-Randow-Tal","type":"Amt"},"district":{"key":"13075","name":"Vorpommern-Greifswald","type":"Landkreis"},"federalState":{"key":"13","name":"Mecklenburg-Vorpommern"}},{"key":"13075056","name":"Kamminke","type":"Kreisangehörige_Gemeinde","postalCode":"17419","multiplePostalCodes":false,"association":{"key":"13075","name":"Usedom-Süd","type":"Amt"},"district":{"key":"13075","name":"Vorpommern-Greifswald","type":"Landkreis"},"federalState":{"key":"13","name":"Mecklenburg-Vorpommern"}},{"key":"13075058","name":"Karlshagen, Ostseebad","type":"Kreisangehörige_Gemeinde","postalCode":"17449","multiplePostalCodes":false,"association":{"key":"13075","name":"Usedom-Nord","type":"Amt"},"district":{"key":"13075","name":"Vorpommern-Greifswald","type":"Landkreis"},"federalState":{"key":"13","name":"Mecklenburg-Vorpommern"}},{"key":"13075059","name":"Katzow","type":"Kreisangehörige_Gemeinde","postalCode":"17509","multiplePostalCodes":false,"association":{"key":"13075","name":"Lubmin","type":"Amt"},"district":{"key":"13075","name":"Vorpommern-Greifswald","type":"Landkreis"},"federalState":{"key":"13","name":"Mecklenburg-Vorpommern"}},{"key":"13075060","name":"Kemnitz","type":"Kreisangehörige_Gemeinde","postalCode":"17509","multiplePostalCodes":false,"association":{"key":"13075","name":"Lubmin","type":"Amt"},"district":{"key":"13075","name":"Vorpommern-Greifswald","type":"Landkreis"},"federalState":{"key":"13","name":"Mecklenburg-Vorpommern"}},{"key":"13075061","name":"Klein Bünzow","type":"Kreisangehörige_Gemeinde","postalCode":"17390","multiplePostalCodes":false,"association":{"key":"13075","name":"Züssow","type":"Amt"},"district":{"key":"13075","name":"Vorpommern-Greifswald","type":"Landkreis"},"federalState":{"key":"13","name":"Mecklenburg-Vorpommern"}},{"key":"13075063","name":"Koblentz","type":"Kreisangehörige_Gemeinde","postalCode":"17309","multiplePostalCodes":false,"association":{"key":"13075","name":"Uecker-Randow-Tal","type":"Amt"},"district":{"key":"13075","name":"Vorpommern-Greifswald","type":"Landkreis"},"federalState":{"key":"13","name":"Mecklenburg-Vorpommern"}},{"key":"13075065","name":"Korswandt","type":"Kreisangehörige_Gemeinde","postalCode":"17419","multiplePostalCodes":false,"association":{"key":"13075","name":"Usedom-Süd","type":"Amt"},"district":{"key":"13075","name":"Vorpommern-Greifswald","type":"Landkreis"},"federalState":{"key":"13","name":"Mecklenburg-Vorpommern"}},{"key":"13075066","name":"Koserow, Ostseebad","type":"Kreisangehörige_Gemeinde","postalCode":"17459","multiplePostalCodes":false,"association":{"key":"13075","name":"Usedom-Süd","type":"Amt"},"district":{"key":"13075","name":"Vorpommern-Greifswald","type":"Landkreis"},"federalState":{"key":"13","name":"Mecklenburg-Vorpommern"}},{"key":"13075067","name":"Krackow","type":"Kreisangehörige_Gemeinde","postalCode":"17329","multiplePostalCodes":true,"association":{"key":"13075","name":"Löcknitz-Penkun","type":"Amt"},"district":{"key":"13075","name":"Vorpommern-Greifswald","type":"Landkreis"},"federalState":{"key":"13","name":"Mecklenburg-Vorpommern"}},{"key":"13075068","name":"Krien","type":"Kreisangehörige_Gemeinde","postalCode":"17391","multiplePostalCodes":false,"association":{"key":"13075","name":"Anklam-Land","type":"Amt"},"district":{"key":"13075","name":"Vorpommern-Greifswald","type":"Landkreis"},"federalState":{"key":"13","name":"Mecklenburg-Vorpommern"}},{"key":"13075069","name":"Kröslin","type":"Kreisangehörige_Gemeinde","postalCode":"17440","multiplePostalCodes":false,"association":{"key":"13075","name":"Lubmin","type":"Amt"},"district":{"key":"13075","name":"Vorpommern-Greifswald","type":"Landkreis"},"federalState":{"key":"13","name":"Mecklenburg-Vorpommern"}},{"key":"13075070","name":"Kruckow","type":"Kreisangehörige_Gemeinde","postalCode":"17129","multiplePostalCodes":false,"association":{"key":"13075","name":"Jarmen-Tutow","type":"Amt"},"district":{"key":"13075","name":"Vorpommern-Greifswald","type":"Landkreis"},"federalState":{"key":"13","name":"Mecklenburg-Vorpommern"}},{"key":"13075071","name":"Krugsdorf","type":"Kreisangehörige_Gemeinde","postalCode":"17309","multiplePostalCodes":false,"association":{"key":"13075","name":"Uecker-Randow-Tal","type":"Amt"},"district":{"key":"13075","name":"Vorpommern-Greifswald","type":"Landkreis"},"federalState":{"key":"13","name":"Mecklenburg-Vorpommern"}},{"key":"13075072","name":"Krummin","type":"Kreisangehörige_Gemeinde","postalCode":"17440","multiplePostalCodes":false,"association":{"key":"13075","name":"Am Peenestrom","type":"Amt"},"district":{"key":"13075","name":"Vorpommern-Greifswald","type":"Landkreis"},"federalState":{"key":"13","name":"Mecklenburg-Vorpommern"}},{"key":"13075073","name":"Krusenfelde","type":"Kreisangehörige_Gemeinde","postalCode":"17391","multiplePostalCodes":false,"association":{"key":"13075","name":"Anklam-Land","type":"Amt"},"district":{"key":"13075","name":"Vorpommern-Greifswald","type":"Landkreis"},"federalState":{"key":"13","name":"Mecklenburg-Vorpommern"}},{"key":"13075074","name":"Lassan, Stadt","type":"Stadt","postalCode":"17440","multiplePostalCodes":false,"association":{"key":"13075","name":"Am Peenestrom","type":"Amt"},"district":{"key":"13075","name":"Vorpommern-Greifswald","type":"Landkreis"},"federalState":{"key":"13","name":"Mecklenburg-Vorpommern"}},{"key":"13075075","name":"Leopoldshagen","type":"Kreisangehörige_Gemeinde","postalCode":"17375","multiplePostalCodes":false,"association":{"key":"13075","name":"Am Stettiner Haff","type":"Amt"},"district":{"key":"13075","name":"Vorpommern-Greifswald","type":"Landkreis"},"federalState":{"key":"13","name":"Mecklenburg-Vorpommern"}},{"key":"13075076","name":"Levenhagen","type":"Kreisangehörige_Gemeinde","postalCode":"17498","multiplePostalCodes":false,"association":{"key":"13075","name":"Landhagen","type":"Amt"},"district":{"key":"13075","name":"Vorpommern-Greifswald","type":"Landkreis"},"federalState":{"key":"13","name":"Mecklenburg-Vorpommern"}},{"key":"13075078","name":"Liepgarten","type":"Kreisangehörige_Gemeinde","postalCode":"17375","multiplePostalCodes":false,"association":{"key":"13075","name":"Am Stettiner Haff","type":"Amt"},"district":{"key":"13075","name":"Vorpommern-Greifswald","type":"Landkreis"},"federalState":{"key":"13","name":"Mecklenburg-Vorpommern"}},{"key":"13075079","name":"Löcknitz","type":"Kreisangehörige_Gemeinde","postalCode":"17321","multiplePostalCodes":false,"association":{"key":"13075","name":"Löcknitz-Penkun","type":"Amt"},"district":{"key":"13075","name":"Vorpommern-Greifswald","type":"Landkreis"},"federalState":{"key":"13","name":"Mecklenburg-Vorpommern"}},{"key":"13075080","name":"Loddin, Seebad","type":"Kreisangehörige_Gemeinde","postalCode":"17459","multiplePostalCodes":false,"association":{"key":"13075","name":"Usedom-Süd","type":"Amt"},"district":{"key":"13075","name":"Vorpommern-Greifswald","type":"Landkreis"},"federalState":{"key":"13","name":"Mecklenburg-Vorpommern"}},{"key":"13075081","name":"Loissin","type":"Kreisangehörige_Gemeinde","postalCode":"17509","multiplePostalCodes":false,"association":{"key":"13075","name":"Lubmin","type":"Amt"},"district":{"key":"13075","name":"Vorpommern-Greifswald","type":"Landkreis"},"federalState":{"key":"13","name":"Mecklenburg-Vorpommern"}},{"key":"13075082","name":"Loitz, Stadt","type":"Stadt","postalCode":"17121","multiplePostalCodes":false,"association":{"key":"13075","name":"Peenetal/Loitz","type":"Amt"},"district":{"key":"13075","name":"Vorpommern-Greifswald","type":"Landkreis"},"federalState":{"key":"13","name":"Mecklenburg-Vorpommern"}},{"key":"13075083","name":"Lubmin, Seebad","type":"Kreisangehörige_Gemeinde","postalCode":"17509","multiplePostalCodes":false,"association":{"key":"13075","name":"Lubmin","type":"Amt"},"district":{"key":"13075","name":"Vorpommern-Greifswald","type":"Landkreis"},"federalState":{"key":"13","name":"Mecklenburg-Vorpommern"}},{"key":"13075084","name":"Lübs","type":"Kreisangehörige_Gemeinde","postalCode":"17379","multiplePostalCodes":false,"association":{"key":"13075","name":"Am Stettiner Haff","type":"Amt"},"district":{"key":"13075","name":"Vorpommern-Greifswald","type":"Landkreis"},"federalState":{"key":"13","name":"Mecklenburg-Vorpommern"}},{"key":"13075085","name":"Luckow","type":"Kreisangehörige_Gemeinde","postalCode":"17375","multiplePostalCodes":false,"association":{"key":"13075","name":"Am Stettiner Haff","type":"Amt"},"district":{"key":"13075","name":"Vorpommern-Greifswald","type":"Landkreis"},"federalState":{"key":"13","name":"Mecklenburg-Vorpommern"}},{"key":"13075087","name":"Lütow","type":"Kreisangehörige_Gemeinde","postalCode":"17440","multiplePostalCodes":false,"association":{"key":"13075","name":"Am Peenestrom","type":"Amt"},"district":{"key":"13075","name":"Vorpommern-Greifswald","type":"Landkreis"},"federalState":{"key":"13","name":"Mecklenburg-Vorpommern"}},{"key":"13075088","name":"Medow","type":"Kreisangehörige_Gemeinde","postalCode":"17391","multiplePostalCodes":false,"association":{"key":"13075","name":"Anklam-Land","type":"Amt"},"district":{"key":"13075","name":"Vorpommern-Greifswald","type":"Landkreis"},"federalState":{"key":"13","name":"Mecklenburg-Vorpommern"}},{"key":"13075089","name":"Meiersberg","type":"Kreisangehörige_Gemeinde","postalCode":"17375","multiplePostalCodes":false,"association":{"key":"13075","name":"Am Stettiner Haff","type":"Amt"},"district":{"key":"13075","name":"Vorpommern-Greifswald","type":"Landkreis"},"federalState":{"key":"13","name":"Mecklenburg-Vorpommern"}},{"key":"13075090","name":"Mellenthin","type":"Kreisangehörige_Gemeinde","postalCode":"17429","multiplePostalCodes":false,"association":{"key":"13075","name":"Usedom-Süd","type":"Amt"},"district":{"key":"13075","name":"Vorpommern-Greifswald","type":"Landkreis"},"federalState":{"key":"13","name":"Mecklenburg-Vorpommern"}},{"key":"13075091","name":"Mesekenhagen","type":"Kreisangehörige_Gemeinde","postalCode":"17498","multiplePostalCodes":false,"association":{"key":"13075","name":"Landhagen","type":"Amt"},"district":{"key":"13075","name":"Vorpommern-Greifswald","type":"Landkreis"},"federalState":{"key":"13","name":"Mecklenburg-Vorpommern"}},{"key":"13075092","name":"Mölschow","type":"Kreisangehörige_Gemeinde","postalCode":"17449","multiplePostalCodes":false,"association":{"key":"13075","name":"Usedom-Nord","type":"Amt"},"district":{"key":"13075","name":"Vorpommern-Greifswald","type":"Landkreis"},"federalState":{"key":"13","name":"Mecklenburg-Vorpommern"}},{"key":"13075093","name":"Mönkebude","type":"Kreisangehörige_Gemeinde","postalCode":"17375","multiplePostalCodes":false,"association":{"key":"13075","name":"Am Stettiner Haff","type":"Amt"},"district":{"key":"13075","name":"Vorpommern-Greifswald","type":"Landkreis"},"federalState":{"key":"13","name":"Mecklenburg-Vorpommern"}},{"key":"13075094","name":"Murchin","type":"Kreisangehörige_Gemeinde","postalCode":"17390","multiplePostalCodes":false,"association":{"key":"13075","name":"Züssow","type":"Amt"},"district":{"key":"13075","name":"Vorpommern-Greifswald","type":"Landkreis"},"federalState":{"key":"13","name":"Mecklenburg-Vorpommern"}},{"key":"13075095","name":"Nadrensee","type":"Kreisangehörige_Gemeinde","postalCode":"17329","multiplePostalCodes":false,"association":{"key":"13075","name":"Löcknitz-Penkun","type":"Amt"},"district":{"key":"13075","name":"Vorpommern-Greifswald","type":"Landkreis"},"federalState":{"key":"13","name":"Mecklenburg-Vorpommern"}},{"key":"13075097","name":"Neu Boltenhagen","type":"Kreisangehörige_Gemeinde","postalCode":"17509","multiplePostalCodes":false,"association":{"key":"13075","name":"Lubmin","type":"Amt"},"district":{"key":"13075","name":"Vorpommern-Greifswald","type":"Landkreis"},"federalState":{"key":"13","name":"Mecklenburg-Vorpommern"}},{"key":"13075098","name":"Neu Kosenow","type":"Kreisangehörige_Gemeinde","postalCode":"17398","multiplePostalCodes":false,"association":{"key":"13075","name":"Anklam-Land","type":"Amt"},"district":{"key":"13075","name":"Vorpommern-Greifswald","type":"Landkreis"},"federalState":{"key":"13","name":"Mecklenburg-Vorpommern"}},{"key":"13075101","name":"Neuenkirchen","type":"Kreisangehörige_Gemeinde","postalCode":"17392","multiplePostalCodes":false,"association":{"key":"13075","name":"Anklam-Land","type":"Amt"},"district":{"key":"13075","name":"Vorpommern-Greifswald","type":"Landkreis"},"federalState":{"key":"13","name":"Mecklenburg-Vorpommern"}},{"key":"13075102","name":"Neuenkirchen","type":"Kreisangehörige_Gemeinde","postalCode":"17498","multiplePostalCodes":false,"association":{"key":"13075","name":"Landhagen","type":"Amt"},"district":{"key":"13075","name":"Vorpommern-Greifswald","type":"Landkreis"},"federalState":{"key":"13","name":"Mecklenburg-Vorpommern"}},{"key":"13075103","name":"Nieden","type":"Kreisangehörige_Gemeinde","postalCode":"17309","multiplePostalCodes":false,"association":{"key":"13075","name":"Uecker-Randow-Tal","type":"Amt"},"district":{"key":"13075","name":"Vorpommern-Greifswald","type":"Landkreis"},"federalState":{"key":"13","name":"Mecklenburg-Vorpommern"}},{"key":"13075104","name":"Papendorf","type":"Kreisangehörige_Gemeinde","postalCode":"17309","multiplePostalCodes":false,"association":{"key":"13075","name":"Uecker-Randow-Tal","type":"Amt"},"district":{"key":"13075","name":"Vorpommern-Greifswald","type":"Landkreis"},"federalState":{"key":"13","name":"Mecklenburg-Vorpommern"}},{"key":"13075105","name":"Pasewalk, Stadt","type":"Stadt","postalCode":"17309","multiplePostalCodes":false,"association":{"key":"13075","name":"Pasewalk, Stadt","type":"Verbandsfreie_Gemeinde"},"district":{"key":"13075","name":"Vorpommern-Greifswald","type":"Landkreis"},"federalState":{"key":"13","name":"Mecklenburg-Vorpommern"}},{"key":"13075106","name":"Peenemünde","type":"Kreisangehörige_Gemeinde","postalCode":"17449","multiplePostalCodes":false,"association":{"key":"13075","name":"Usedom-Nord","type":"Amt"},"district":{"key":"13075","name":"Vorpommern-Greifswald","type":"Landkreis"},"federalState":{"key":"13","name":"Mecklenburg-Vorpommern"}},{"key":"13075107","name":"Penkun, Stadt","type":"Stadt","postalCode":"17328","multiplePostalCodes":false,"association":{"key":"13075","name":"Löcknitz-Penkun","type":"Amt"},"district":{"key":"13075","name":"Vorpommern-Greifswald","type":"Landkreis"},"federalState":{"key":"13","name":"Mecklenburg-Vorpommern"}},{"key":"13075108","name":"Plöwen","type":"Kreisangehörige_Gemeinde","postalCode":"17321","multiplePostalCodes":false,"association":{"key":"13075","name":"Löcknitz-Penkun","type":"Amt"},"district":{"key":"13075","name":"Vorpommern-Greifswald","type":"Landkreis"},"federalState":{"key":"13","name":"Mecklenburg-Vorpommern"}},{"key":"13075109","name":"Polzow","type":"Kreisangehörige_Gemeinde","postalCode":"17309","multiplePostalCodes":false,"association":{"key":"13075","name":"Uecker-Randow-Tal","type":"Amt"},"district":{"key":"13075","name":"Vorpommern-Greifswald","type":"Landkreis"},"federalState":{"key":"13","name":"Mecklenburg-Vorpommern"}},{"key":"13075110","name":"Postlow","type":"Kreisangehörige_Gemeinde","postalCode":"17391","multiplePostalCodes":false,"association":{"key":"13075","name":"Anklam-Land","type":"Amt"},"district":{"key":"13075","name":"Vorpommern-Greifswald","type":"Landkreis"},"federalState":{"key":"13","name":"Mecklenburg-Vorpommern"}},{"key":"13075111","name":"Pudagla","type":"Kreisangehörige_Gemeinde","postalCode":"17429","multiplePostalCodes":false,"association":{"key":"13075","name":"Usedom-Süd","type":"Amt"},"district":{"key":"13075","name":"Vorpommern-Greifswald","type":"Landkreis"},"federalState":{"key":"13","name":"Mecklenburg-Vorpommern"}},{"key":"13075113","name":"Ramin","type":"Kreisangehörige_Gemeinde","postalCode":"17321","multiplePostalCodes":false,"association":{"key":"13075","name":"Löcknitz-Penkun","type":"Amt"},"district":{"key":"13075","name":"Vorpommern-Greifswald","type":"Landkreis"},"federalState":{"key":"13","name":"Mecklenburg-Vorpommern"}},{"key":"13075114","name":"Rankwitz","type":"Kreisangehörige_Gemeinde","postalCode":"17406","multiplePostalCodes":false,"association":{"key":"13075","name":"Usedom-Süd","type":"Amt"},"district":{"key":"13075","name":"Vorpommern-Greifswald","type":"Landkreis"},"federalState":{"key":"13","name":"Mecklenburg-Vorpommern"}},{"key":"13075115","name":"Rollwitz","type":"Kreisangehörige_Gemeinde","postalCode":"17309","multiplePostalCodes":false,"association":{"key":"13075","name":"Uecker-Randow-Tal","type":"Amt"},"district":{"key":"13075","name":"Vorpommern-Greifswald","type":"Landkreis"},"federalState":{"key":"13","name":"Mecklenburg-Vorpommern"}},{"key":"13075116","name":"Rossin","type":"Kreisangehörige_Gemeinde","postalCode":"17398","multiplePostalCodes":false,"association":{"key":"13075","name":"Anklam-Land","type":"Amt"},"district":{"key":"13075","name":"Vorpommern-Greifswald","type":"Landkreis"},"federalState":{"key":"13","name":"Mecklenburg-Vorpommern"}},{"key":"13075117","name":"Rossow","type":"Kreisangehörige_Gemeinde","postalCode":"17322","multiplePostalCodes":true,"association":{"key":"13075","name":"Löcknitz-Penkun","type":"Amt"},"district":{"key":"13075","name":"Vorpommern-Greifswald","type":"Landkreis"},"federalState":{"key":"13","name":"Mecklenburg-Vorpommern"}},{"key":"13075118","name":"Rothemühl","type":"Kreisangehörige_Gemeinde","postalCode":"17379","multiplePostalCodes":false,"association":{"key":"13075","name":"Torgelow-Ferdinandshof","type":"Amt"},"district":{"key":"13075","name":"Vorpommern-Greifswald","type":"Landkreis"},"federalState":{"key":"13","name":"Mecklenburg-Vorpommern"}},{"key":"13075119","name":"Rothenklempenow","type":"Kreisangehörige_Gemeinde","postalCode":"17321","multiplePostalCodes":false,"association":{"key":"13075","name":"Löcknitz-Penkun","type":"Amt"},"district":{"key":"13075","name":"Vorpommern-Greifswald","type":"Landkreis"},"federalState":{"key":"13","name":"Mecklenburg-Vorpommern"}},{"key":"13075120","name":"Rubenow","type":"Kreisangehörige_Gemeinde","postalCode":"17509","multiplePostalCodes":false,"association":{"key":"13075","name":"Lubmin","type":"Amt"},"district":{"key":"13075","name":"Vorpommern-Greifswald","type":"Landkreis"},"federalState":{"key":"13","name":"Mecklenburg-Vorpommern"}},{"key":"13075121","name":"Rubkow","type":"Kreisangehörige_Gemeinde","postalCode":"17390","multiplePostalCodes":false,"association":{"key":"13075","name":"Züssow","type":"Amt"},"district":{"key":"13075","name":"Vorpommern-Greifswald","type":"Landkreis"},"federalState":{"key":"13","name":"Mecklenburg-Vorpommern"}},{"key":"13075122","name":"Sarnow","type":"Kreisangehörige_Gemeinde","postalCode":"17392","multiplePostalCodes":false,"association":{"key":"13075","name":"Anklam-Land","type":"Amt"},"district":{"key":"13075","name":"Vorpommern-Greifswald","type":"Landkreis"},"federalState":{"key":"13","name":"Mecklenburg-Vorpommern"}},{"key":"13075123","name":"Sassen-Trantow","type":"Kreisangehörige_Gemeinde","postalCode":"17121","multiplePostalCodes":false,"association":{"key":"13075","name":"Peenetal/Loitz","type":"Amt"},"district":{"key":"13075","name":"Vorpommern-Greifswald","type":"Landkreis"},"federalState":{"key":"13","name":"Mecklenburg-Vorpommern"}},{"key":"13075124","name":"Sauzin","type":"Kreisangehörige_Gemeinde","postalCode":"17440","multiplePostalCodes":false,"association":{"key":"13075","name":"Am Peenestrom","type":"Amt"},"district":{"key":"13075","name":"Vorpommern-Greifswald","type":"Landkreis"},"federalState":{"key":"13","name":"Mecklenburg-Vorpommern"}},{"key":"13075125","name":"Schmatzin","type":"Kreisangehörige_Gemeinde","postalCode":"17390","multiplePostalCodes":false,"association":{"key":"13075","name":"Züssow","type":"Amt"},"district":{"key":"13075","name":"Vorpommern-Greifswald","type":"Landkreis"},"federalState":{"key":"13","name":"Mecklenburg-Vorpommern"}},{"key":"13075126","name":"Schönwalde","type":"Kreisangehörige_Gemeinde","postalCode":"17309","multiplePostalCodes":false,"association":{"key":"13075","name":"Uecker-Randow-Tal","type":"Amt"},"district":{"key":"13075","name":"Vorpommern-Greifswald","type":"Landkreis"},"federalState":{"key":"13","name":"Mecklenburg-Vorpommern"}},{"key":"13075127","name":"Spantekow","type":"Kreisangehörige_Gemeinde","postalCode":"17392","multiplePostalCodes":false,"association":{"key":"13075","name":"Anklam-Land","type":"Amt"},"district":{"key":"13075","name":"Vorpommern-Greifswald","type":"Landkreis"},"federalState":{"key":"13","name":"Mecklenburg-Vorpommern"}},{"key":"13075128","name":"Stolpe an der Peene","type":"Kreisangehörige_Gemeinde","postalCode":"17391","multiplePostalCodes":false,"association":{"key":"13075","name":"Anklam-Land","type":"Amt"},"district":{"key":"13075","name":"Vorpommern-Greifswald","type":"Landkreis"},"federalState":{"key":"13","name":"Mecklenburg-Vorpommern"}},{"key":"13075129","name":"Stolpe auf Usedom","type":"Kreisangehörige_Gemeinde","postalCode":"17406","multiplePostalCodes":false,"association":{"key":"13075","name":"Usedom-Süd","type":"Amt"},"district":{"key":"13075","name":"Vorpommern-Greifswald","type":"Landkreis"},"federalState":{"key":"13","name":"Mecklenburg-Vorpommern"}},{"key":"13075130","name":"Strasburg (Uckermark), Stadt","type":"Stadt","postalCode":"17335","multiplePostalCodes":false,"association":{"key":"13075","name":"Strasburg (Uckermark), Stadt","type":"Verbandsfreie_Gemeinde"},"district":{"key":"13075","name":"Vorpommern-Greifswald","type":"Landkreis"},"federalState":{"key":"13","name":"Mecklenburg-Vorpommern"}},{"key":"13075131","name":"Torgelow, Stadt","type":"Stadt","postalCode":"17358","multiplePostalCodes":false,"association":{"key":"13075","name":"Torgelow-Ferdinandshof","type":"Amt"},"district":{"key":"13075","name":"Vorpommern-Greifswald","type":"Landkreis"},"federalState":{"key":"13","name":"Mecklenburg-Vorpommern"}},{"key":"13075133","name":"Trassenheide, Ostseebad","type":"Kreisangehörige_Gemeinde","postalCode":"17449","multiplePostalCodes":false,"association":{"key":"13075","name":"Usedom-Nord","type":"Amt"},"district":{"key":"13075","name":"Vorpommern-Greifswald","type":"Landkreis"},"federalState":{"key":"13","name":"Mecklenburg-Vorpommern"}},{"key":"13075134","name":"Tutow","type":"Kreisangehörige_Gemeinde","postalCode":"17129","multiplePostalCodes":false,"association":{"key":"13075","name":"Jarmen-Tutow","type":"Amt"},"district":{"key":"13075","name":"Vorpommern-Greifswald","type":"Landkreis"},"federalState":{"key":"13","name":"Mecklenburg-Vorpommern"}},{"key":"13075135","name":"Ückeritz, Seebad","type":"Kreisangehörige_Gemeinde","postalCode":"17459","multiplePostalCodes":false,"association":{"key":"13075","name":"Usedom-Süd","type":"Amt"},"district":{"key":"13075","name":"Vorpommern-Greifswald","type":"Landkreis"},"federalState":{"key":"13","name":"Mecklenburg-Vorpommern"}},{"key":"13075136","name":"Ueckermünde, Seebad , Stadt","type":"Stadt","postalCode":"17373","multiplePostalCodes":false,"association":{"key":"13075","name":"Ueckermünde, Seebad, Stadt","type":"Verbandsfreie_Gemeinde"},"district":{"key":"13075","name":"Vorpommern-Greifswald","type":"Landkreis"},"federalState":{"key":"13","name":"Mecklenburg-Vorpommern"}},{"key":"13075137","name":"Usedom, Stadt","type":"Stadt","postalCode":"17406","multiplePostalCodes":false,"association":{"key":"13075","name":"Usedom-Süd","type":"Amt"},"district":{"key":"13075","name":"Vorpommern-Greifswald","type":"Landkreis"},"federalState":{"key":"13","name":"Mecklenburg-Vorpommern"}},{"key":"13075138","name":"Viereck","type":"Kreisangehörige_Gemeinde","postalCode":"17309","multiplePostalCodes":false,"association":{"key":"13075","name":"Uecker-Randow-Tal","type":"Amt"},"district":{"key":"13075","name":"Vorpommern-Greifswald","type":"Landkreis"},"federalState":{"key":"13","name":"Mecklenburg-Vorpommern"}},{"key":"13075139","name":"Vogelsang-Warsin","type":"Kreisangehörige_Gemeinde","postalCode":"17375","multiplePostalCodes":false,"association":{"key":"13075","name":"Am Stettiner Haff","type":"Amt"},"district":{"key":"13075","name":"Vorpommern-Greifswald","type":"Landkreis"},"federalState":{"key":"13","name":"Mecklenburg-Vorpommern"}},{"key":"13075140","name":"Völschow","type":"Kreisangehörige_Gemeinde","postalCode":"17129","multiplePostalCodes":false,"association":{"key":"13075","name":"Jarmen-Tutow","type":"Amt"},"district":{"key":"13075","name":"Vorpommern-Greifswald","type":"Landkreis"},"federalState":{"key":"13","name":"Mecklenburg-Vorpommern"}},{"key":"13075141","name":"Wackerow","type":"Kreisangehörige_Gemeinde","postalCode":"17498","multiplePostalCodes":false,"association":{"key":"13075","name":"Landhagen","type":"Amt"},"district":{"key":"13075","name":"Vorpommern-Greifswald","type":"Landkreis"},"federalState":{"key":"13","name":"Mecklenburg-Vorpommern"}},{"key":"13075142","name":"Weitenhagen","type":"Kreisangehörige_Gemeinde","postalCode":"17498","multiplePostalCodes":false,"association":{"key":"13075","name":"Landhagen","type":"Amt"},"district":{"key":"13075","name":"Vorpommern-Greifswald","type":"Landkreis"},"federalState":{"key":"13","name":"Mecklenburg-Vorpommern"}},{"key":"13075143","name":"Wilhelmsburg","type":"Kreisangehörige_Gemeinde","postalCode":"17379","multiplePostalCodes":false,"association":{"key":"13075","name":"Torgelow-Ferdinandshof","type":"Amt"},"district":{"key":"13075","name":"Vorpommern-Greifswald","type":"Landkreis"},"federalState":{"key":"13","name":"Mecklenburg-Vorpommern"}},{"key":"13075144","name":"Wolgast, Stadt","type":"Stadt","postalCode":"17438","multiplePostalCodes":false,"association":{"key":"13075","name":"Am Peenestrom","type":"Amt"},"district":{"key":"13075","name":"Vorpommern-Greifswald","type":"Landkreis"},"federalState":{"key":"13","name":"Mecklenburg-Vorpommern"}},{"key":"13075145","name":"Wrangelsburg","type":"Kreisangehörige_Gemeinde","postalCode":"17495","multiplePostalCodes":false,"association":{"key":"13075","name":"Züssow","type":"Amt"},"district":{"key":"13075","name":"Vorpommern-Greifswald","type":"Landkreis"},"federalState":{"key":"13","name":"Mecklenburg-Vorpommern"}},{"key":"13075146","name":"Wusterhusen","type":"Kreisangehörige_Gemeinde","postalCode":"17509","multiplePostalCodes":false,"association":{"key":"13075","name":"Lubmin","type":"Amt"},"district":{"key":"13075","name":"Vorpommern-Greifswald","type":"Landkreis"},"federalState":{"key":"13","name":"Mecklenburg-Vorpommern"}},{"key":"13075147","name":"Zemitz","type":"Kreisangehörige_Gemeinde","postalCode":"17440","multiplePostalCodes":false,"association":{"key":"13075","name":"Am Peenestrom","type":"Amt"},"district":{"key":"13075","name":"Vorpommern-Greifswald","type":"Landkreis"},"federalState":{"key":"13","name":"Mecklenburg-Vorpommern"}},{"key":"13075148","name":"Zempin, Seebad","type":"Kreisangehörige_Gemeinde","postalCode":"17459","multiplePostalCodes":false,"association":{"key":"13075","name":"Usedom-Süd","type":"Amt"},"district":{"key":"13075","name":"Vorpommern-Greifswald","type":"Landkreis"},"federalState":{"key":"13","name":"Mecklenburg-Vorpommern"}},{"key":"13075149","name":"Zerrenthin","type":"Kreisangehörige_Gemeinde","postalCode":"17309","multiplePostalCodes":false,"association":{"key":"13075","name":"Uecker-Randow-Tal","type":"Amt"},"district":{"key":"13075","name":"Vorpommern-Greifswald","type":"Landkreis"},"federalState":{"key":"13","name":"Mecklenburg-Vorpommern"}},{"key":"13075150","name":"Ziethen","type":"Kreisangehörige_Gemeinde","postalCode":"17390","multiplePostalCodes":false,"association":{"key":"13075","name":"Züssow","type":"Amt"},"district":{"key":"13075","name":"Vorpommern-Greifswald","type":"Landkreis"},"federalState":{"key":"13","name":"Mecklenburg-Vorpommern"}},{"key":"13075151","name":"Zinnowitz, Ostseebad","type":"Kreisangehörige_Gemeinde","postalCode":"17454","multiplePostalCodes":false,"association":{"key":"13075","name":"Usedom-Nord","type":"Amt"},"district":{"key":"13075","name":"Vorpommern-Greifswald","type":"Landkreis"},"federalState":{"key":"13","name":"Mecklenburg-Vorpommern"}},{"key":"13075152","name":"Zirchow","type":"Kreisangehörige_Gemeinde","postalCode":"17419","multiplePostalCodes":false,"association":{"key":"13075","name":"Usedom-Süd","type":"Amt"},"district":{"key":"13075","name":"Vorpommern-Greifswald","type":"Landkreis"},"federalState":{"key":"13","name":"Mecklenburg-Vorpommern"}},{"key":"13075154","name":"Züssow","type":"Kreisangehörige_Gemeinde","postalCode":"17495","multiplePostalCodes":false,"association":{"key":"13075","name":"Züssow","type":"Amt"},"district":{"key":"13075","name":"Vorpommern-Greifswald","type":"Landkreis"},"federalState":{"key":"13","name":"Mecklenburg-Vorpommern"}},{"key":"13075155","name":"Neetzow-Liepen","type":"Kreisangehörige_Gemeinde","postalCode":"17391","multiplePostalCodes":false,"association":{"key":"13075","name":"Anklam-Land","type":"Amt"},"district":{"key":"13075","name":"Vorpommern-Greifswald","type":"Landkreis"},"federalState":{"key":"13","name":"Mecklenburg-Vorpommern"}},{"key":"13075156","name":"Karlsburg","type":"Kreisangehörige_Gemeinde","postalCode":"17495","multiplePostalCodes":false,"association":{"key":"13075","name":"Züssow","type":"Amt"},"district":{"key":"13075","name":"Vorpommern-Greifswald","type":"Landkreis"},"federalState":{"key":"13","name":"Mecklenburg-Vorpommern"}}]