[{"name":"Ahornstr.","postalCode":"15378","locality":"Rüdersdorf bei Berlin","municipality":{"key":"12064428","name":"Rüdersdorf bei Berlin","type":"Kreisangehörige_Gemeinde"},"district":{"key":"12064","name":"Märkisch-Oderland","type":"Landkreis"},"federalState":{"key":"12","name":"Brandenburg"}},{"name":"Akazienweg","postalCode":"15378","locality":"Rüdersdorf bei Berlin","municipality":{"key":"12064428","name":"Rüdersdorf bei Berlin","type":"Kreisangehörige_Gemeinde"},"district":{"key":"12064","name":"Märkisch-Oderland","type":"Landkreis"},"federalState":{"key":"12","name":"Brandenburg"}},{"name":"Alte Glockengießerei","postalCode":"15378","locality":"Rüdersdorf bei Berlin","municipality":{"key":"12064428","name":"Rüdersdorf bei Berlin","type":"Kreisangehörige_Gemeinde"},"district":{"key":"12064","name":"Märkisch-Oderland","type":"Landkreis"},"federalState":{"key":"12","name":"Brandenburg"}},{"name":"Altenaer Str.","postalCode":"15562","locality":"Rüdersdorf bei Berlin","municipality":{"key":"12064428","name":"Rüdersdorf bei Berlin","type":"Kreisangehörige_Gemeinde"},"district":{"key":"12064","name":"Märkisch-Oderland","type":"Landkreis"},"federalState":{"key":"12","name":"Brandenburg"}},{"name":"Altlandsberger Str.","postalCode":"15562","locality":"Rüdersdorf bei Berlin","municipality":{"key":"12064428","name":"Rüdersdorf bei Berlin","type":"Kreisangehörige_Gemeinde"},"district":{"key":"12064","name":"Märkisch-Oderland","type":"Landkreis"},"federalState":{"key":"12","name":"Brandenburg"}},{"name":"Am Friedhof","postalCode":"15562","locality":"Rüdersdorf bei Berlin","municipality":{"key":"12064428","name":"Rüdersdorf bei Berlin","type":"Kreisangehörige_Gemeinde"},"district":{"key":"12064","name":"Märkisch-Oderland","type":"Landkreis"},"federalState":{"key":"12","name":"Brandenburg"}},{"name":"Am Fuchsbau","postalCode":"15378","locality":"Rüdersdorf bei Berlin","municipality":{"key":"12064428","name":"Rüdersdorf bei Berlin","type":"Kreisangehörige_Gemeinde"},"district":{"key":"12064","name":"Märkisch-Oderland","type":"Landkreis"},"federalState":{"key":"12","name":"Brandenburg"}},{"name":"Am Heidefeld","postalCode":"15378","locality":"Rüdersdorf bei Berlin","municipality":{"key":"12064428","name":"Rüdersdorf bei Berlin","type":"Kreisangehörige_Gemeinde"},"district":{"key":"12064","name":"Märkisch-Oderland","type":"Landkreis"},"federalState":{"key":"12","name":"Brandenburg"}},{"name":"Am Kanal","postalCode":"15562","locality":"Rüdersdorf bei Berlin","municipality":{"key":"12064428","name":"Rüdersdorf bei Berlin","type":"Kreisangehörige_Gemeinde"},"district":{"key":"12064","name":"Märkisch-Oderland","type":"Landkreis"},"federalState":{"key":"12","name":"Brandenburg"}},{"name":"Am Kolk","postalCode":"15378","locality":"Rüdersdorf bei Berlin","municipality":{"key":"12064428","name":"Rüdersdorf bei Berlin","type":"Kreisangehörige_Gemeinde"},"district":{"key":"12064","name":"Märkisch-Oderland","type":"Landkreis"},"federalState":{"key":"12","name":"Brandenburg"}},{"name":"Am Robinienhain","postalCode":"15378","locality":"Rüdersdorf bei Berlin","municipality":{"key":"12064428","name":"Rüdersdorf bei Berlin","type":"Kreisangehörige_Gemeinde"},"district":{"key":"12064","name":"Märkisch-Oderland","type":"Landkreis"},"federalState":{"key":"12","name":"Brandenburg"}},{"name":"Am Sandberg","postalCode":"15378","locality":"Rüdersdorf bei Berlin","municipality":{"key":"12064428","name":"Rüdersdorf bei Berlin","type":"Kreisangehörige_Gemeinde"},"district":{"key":"12064","name":"Märkisch-Oderland","type":"Landkreis"},"federalState":{"key":"12","name":"Brandenburg"}},{"name":"Am Sandberg","postalCode":"15562","locality":"Rüdersdorf bei Berlin","municipality":{"key":"12064428","name":"Rüdersdorf bei Berlin","type":"Kreisangehörige_Gemeinde"},"district":{"key":"12064","name":"Märkisch-Oderland","type":"Landkreis"},"federalState":{"key":"12","name":"Brandenburg"}},{"name":"Amselstr.","postalCode":"15378","locality":"Rüdersdorf bei Berlin","municipality":{"key":"12064428","name":"Rüdersdorf bei Berlin","type":"Kreisangehörige_Gemeinde"},"district":{"key":"12064","name":"Märkisch-Oderland","type":"Landkreis"},"federalState":{"key":"12","name":"Brandenburg"}},{"name":"Am Stienitzsee","postalCode":"15562","locality":"Rüdersdorf bei Berlin","municipality":{"key":"12064428","name":"Rüdersdorf bei Berlin","type":"Kreisangehörige_Gemeinde"},"district":{"key":"12064","name":"Märkisch-Oderland","type":"Landkreis"},"federalState":{"key":"12","name":"Brandenburg"}},{"name":"Am Stolp","postalCode":"15562","locality":"Rüdersdorf bei Berlin","municipality":{"key":"12064428","name":"Rüdersdorf bei Berlin","type":"Kreisangehörige_Gemeinde"},"district":{"key":"12064","name":"Märkisch-Oderland","type":"Landkreis"},"federalState":{"key":"12","name":"Brandenburg"}},{"name":"Am Wieseneck","postalCode":"15562","locality":"Rüdersdorf bei Berlin","municipality":{"key":"12064428","name":"Rüdersdorf bei Berlin","type":"Kreisangehörige_Gemeinde"},"district":{"key":"12064","name":"Märkisch-Oderland","type":"Landkreis"},"federalState":{"key":"12","name":"Brandenburg"}},{"name":"Am Wiesengrund","postalCode":"15378","locality":"Rüdersdorf bei Berlin","municipality":{"key":"12064428","name":"Rüdersdorf bei Berlin","type":"Kreisangehörige_Gemeinde"},"district":{"key":"12064","name":"Märkisch-Oderland","type":"Landkreis"},"federalState":{"key":"12","name":"Brandenburg"}},{"name":"An den Meisterhäusern","postalCode":"15378","locality":"Rüdersdorf bei Berlin","municipality":{"key":"12064428","name":"Rüdersdorf bei Berlin","type":"Kreisangehörige_Gemeinde"},"district":{"key":"12064","name":"Märkisch-Oderland","type":"Landkreis"},"federalState":{"key":"12","name":"Brandenburg"}},{"name":"An den Windmühlen","postalCode":"15562","locality":"Rüdersdorf bei Berlin","municipality":{"key":"12064428","name":"Rüdersdorf bei Berlin","type":"Kreisangehörige_Gemeinde"},"district":{"key":"12064","name":"Märkisch-Oderland","type":"Landkreis"},"federalState":{"key":"12","name":"Brandenburg"}},{"name":"August-Bebel-Str.","postalCode":"15378","locality":"Rüdersdorf bei Berlin","municipality":{"key":"12064428","name":"Rüdersdorf bei Berlin","type":"Kreisangehörige_Gemeinde"},"district":{"key":"12064","name":"Märkisch-Oderland","type":"Landkreis"},"federalState":{"key":"12","name":"Brandenburg"}},{"name":"Bahnhofstr.","postalCode":"15378","locality":"Rüdersdorf bei Berlin","municipality":{"key":"12064428","name":"Rüdersdorf bei Berlin","type":"Kreisangehörige_Gemeinde"},"district":{"key":"12064","name":"Märkisch-Oderland","type":"Landkreis"},"federalState":{"key":"12","name":"Brandenburg"}},{"name":"Berghofer Weg","postalCode":"15562","locality":"Rüdersdorf bei Berlin","municipality":{"key":"12064428","name":"Rüdersdorf bei Berlin","type":"Kreisangehörige_Gemeinde"},"district":{"key":"12064","name":"Märkisch-Oderland","type":"Landkreis"},"federalState":{"key":"12","name":"Brandenburg"}},{"name":"Berghof Weiche","postalCode":"15562","locality":"Rüdersdorf bei Berlin","municipality":{"key":"12064428","name":"Rüdersdorf bei Berlin","type":"Kreisangehörige_Gemeinde"},"district":{"key":"12064","name":"Märkisch-Oderland","type":"Landkreis"},"federalState":{"key":"12","name":"Brandenburg"}},{"name":"Bergmannsglück","postalCode":"15562","locality":"Rüdersdorf bei Berlin","municipality":{"key":"12064428","name":"Rüdersdorf bei Berlin","type":"Kreisangehörige_Gemeinde"},"district":{"key":"12064","name":"Märkisch-Oderland","type":"Landkreis"},"federalState":{"key":"12","name":"Brandenburg"}},{"name":"Bergstr.","postalCode":"15378","locality":"Rüdersdorf bei Berlin","municipality":{"key":"12064428","name":"Rüdersdorf bei Berlin","type":"Kreisangehörige_Gemeinde"},"district":{"key":"12064","name":"Märkisch-Oderland","type":"Landkreis"},"federalState":{"key":"12","name":"Brandenburg"}},{"name":"Bergstr.","postalCode":"15562","locality":"Rüdersdorf bei Berlin","municipality":{"key":"12064428","name":"Rüdersdorf bei Berlin","type":"Kreisangehörige_Gemeinde"},"district":{"key":"12064","name":"Märkisch-Oderland","type":"Landkreis"},"federalState":{"key":"12","name":"Brandenburg"}},{"name":"Berliner Str.","postalCode":"15378","locality":"Rüdersdorf bei Berlin","municipality":{"key":"12064428","name":"Rüdersdorf bei Berlin","type":"Kreisangehörige_Gemeinde"},"district":{"key":"12064","name":"Märkisch-Oderland","type":"Landkreis"},"federalState":{"key":"12","name":"Brandenburg"}},{"name":"Berliner Str.","postalCode":"15562","locality":"Rüdersdorf bei Berlin","municipality":{"key":"12064428","name":"Rüdersdorf bei Berlin","type":"Kreisangehörige_Gemeinde"},"district":{"key":"12064","name":"Märkisch-Oderland","type":"Landkreis"},"federalState":{"key":"12","name":"Brandenburg"}},{"name":"Birkenstr.","postalCode":"15378","locality":"Rüdersdorf bei Berlin","municipality":{"key":"12064428","name":"Rüdersdorf bei Berlin","type":"Kreisangehörige_Gemeinde"},"district":{"key":"12064","name":"Märkisch-Oderland","type":"Landkreis"},"federalState":{"key":"12","name":"Brandenburg"}},{"name":"Brückenstr.","postalCode":"15562","locality":"Rüdersdorf bei Berlin","municipality":{"key":"12064428","name":"Rüdersdorf bei Berlin","type":"Kreisangehörige_Gemeinde"},"district":{"key":"12064","name":"Märkisch-Oderland","type":"Landkreis"},"federalState":{"key":"12","name":"Brandenburg"}},{"name":"Buchenstr.","postalCode":"15378","locality":"Rüdersdorf bei Berlin","municipality":{"key":"12064428","name":"Rüdersdorf bei Berlin","type":"Kreisangehörige_Gemeinde"},"district":{"key":"12064","name":"Märkisch-Oderland","type":"Landkreis"},"federalState":{"key":"12","name":"Brandenburg"}},{"name":"Bungalowsiedlung 1","postalCode":"15378","locality":"Rüdersdorf bei Berlin","municipality":{"key":"12064428","name":"Rüdersdorf bei Berlin","type":"Kreisangehörige_Gemeinde"},"district":{"key":"12064","name":"Märkisch-Oderland","type":"Landkreis"},"federalState":{"key":"12","name":"Brandenburg"}},{"name":"Chausseestr.","postalCode":"15345","locality":"Rüdersdorf bei Berlin","municipality":{"key":"12064428","name":"Rüdersdorf bei Berlin","type":"Kreisangehörige_Gemeinde"},"district":{"key":"12064","name":"Märkisch-Oderland","type":"Landkreis"},"federalState":{"key":"12","name":"Brandenburg"}},{"name":"Clara-Schumann-Weg","postalCode":"15562","locality":"Rüdersdorf bei Berlin","municipality":{"key":"12064428","name":"Rüdersdorf bei Berlin","type":"Kreisangehörige_Gemeinde"},"district":{"key":"12064","name":"Märkisch-Oderland","type":"Landkreis"},"federalState":{"key":"12","name":"Brandenburg"}},{"name":"Dorfstr.","postalCode":"15345","locality":"Rüdersdorf bei Berlin","municipality":{"key":"12064428","name":"Rüdersdorf bei Berlin","type":"Kreisangehörige_Gemeinde"},"district":{"key":"12064","name":"Märkisch-Oderland","type":"Landkreis"},"federalState":{"key":"12","name":"Brandenburg"}},{"name":"Dr.-Wilhelm-Külz-Str.","postalCode":"15562","locality":"Rüdersdorf bei Berlin","municipality":{"key":"12064428","name":"Rüdersdorf bei Berlin","type":"Kreisangehörige_Gemeinde"},"district":{"key":"12064","name":"Märkisch-Oderland","type":"Landkreis"},"federalState":{"key":"12","name":"Brandenburg"}},{"name":"Ebereschenstr.","postalCode":"15378","locality":"Rüdersdorf bei Berlin","municipality":{"key":"12064428","name":"Rüdersdorf bei Berlin","type":"Kreisangehörige_Gemeinde"},"district":{"key":"12064","name":"Märkisch-Oderland","type":"Landkreis"},"federalState":{"key":"12","name":"Brandenburg"}},{"name":"Eggersdorfer Str.","postalCode":"15562","locality":"Rüdersdorf bei Berlin","municipality":{"key":"12064428","name":"Rüdersdorf bei Berlin","type":"Kreisangehörige_Gemeinde"},"district":{"key":"12064","name":"Märkisch-Oderland","type":"Landkreis"},"federalState":{"key":"12","name":"Brandenburg"}},{"name":"Eichenstr.","postalCode":"15378","locality":"Rüdersdorf bei Berlin","municipality":{"key":"12064428","name":"Rüdersdorf bei Berlin","type":"Kreisangehörige_Gemeinde"},"district":{"key":"12064","name":"Märkisch-Oderland","type":"Landkreis"},"federalState":{"key":"12","name":"Brandenburg"}},{"name":"Elsenseeweg","postalCode":"15378","locality":"Rüdersdorf bei Berlin","municipality":{"key":"12064428","name":"Rüdersdorf bei Berlin","type":"Kreisangehörige_Gemeinde"},"district":{"key":"12064","name":"Märkisch-Oderland","type":"Landkreis"},"federalState":{"key":"12","name":"Brandenburg"}},{"name":"Erikaweg","postalCode":"15378","locality":"Rüdersdorf bei Berlin","municipality":{"key":"12064428","name":"Rüdersdorf bei Berlin","type":"Kreisangehörige_Gemeinde"},"district":{"key":"12064","name":"Märkisch-Oderland","type":"Landkreis"},"federalState":{"key":"12","name":"Brandenburg"}},{"name":"Ernst-Thälmann-Str.","postalCode":"15378","locality":"Rüdersdorf bei Berlin","municipality":{"key":"12064428","name":"Rüdersdorf bei Berlin","type":"Kreisangehörige_Gemeinde"},"district":{"key":"12064","name":"Märkisch-Oderland","type":"Landkreis"},"federalState":{"key":"12","name":"Brandenburg"}},{"name":"Ernst-Thälmann-Str.","postalCode":"15562","locality":"Rüdersdorf bei Berlin","municipality":{"key":"12064428","name":"Rüdersdorf bei Berlin","type":"Kreisangehörige_Gemeinde"},"district":{"key":"12064","name":"Märkisch-Oderland","type":"Landkreis"},"federalState":{"key":"12","name":"Brandenburg"}},{"name":"Essigstr.","postalCode":"15562","locality":"Rüdersdorf bei Berlin","municipality":{"key":"12064428","name":"Rüdersdorf bei Berlin","type":"Kreisangehörige_Gemeinde"},"district":{"key":"12064","name":"Märkisch-Oderland","type":"Landkreis"},"federalState":{"key":"12","name":"Brandenburg"}},{"name":"Feldstr.","postalCode":"15562","locality":"Rüdersdorf bei Berlin","municipality":{"key":"12064428","name":"Rüdersdorf bei Berlin","type":"Kreisangehörige_Gemeinde"},"district":{"key":"12064","name":"Märkisch-Oderland","type":"Landkreis"},"federalState":{"key":"12","name":"Brandenburg"}},{"name":"Feuerbachstr.","postalCode":"15562","locality":"Rüdersdorf bei Berlin","municipality":{"key":"12064428","name":"Rüdersdorf bei Berlin","type":"Kreisangehörige_Gemeinde"},"district":{"key":"12064","name":"Märkisch-Oderland","type":"Landkreis"},"federalState":{"key":"12","name":"Brandenburg"}},{"name":"Fischerweg","postalCode":"15378","locality":"Rüdersdorf bei Berlin","municipality":{"key":"12064428","name":"Rüdersdorf bei Berlin","type":"Kreisangehörige_Gemeinde"},"district":{"key":"12064","name":"Märkisch-Oderland","type":"Landkreis"},"federalState":{"key":"12","name":"Brandenburg"}},{"name":"Fließweg","postalCode":"15345","locality":"Rüdersdorf bei Berlin","municipality":{"key":"12064428","name":"Rüdersdorf bei Berlin","type":"Kreisangehörige_Gemeinde"},"district":{"key":"12064","name":"Märkisch-Oderland","type":"Landkreis"},"federalState":{"key":"12","name":"Brandenburg"}},{"name":"Fontanestr.","postalCode":"15562","locality":"Rüdersdorf bei Berlin","municipality":{"key":"12064428","name":"Rüdersdorf bei Berlin","type":"Kreisangehörige_Gemeinde"},"district":{"key":"12064","name":"Märkisch-Oderland","type":"Landkreis"},"federalState":{"key":"12","name":"Brandenburg"}},{"name":"Frankfurter Chaussee","postalCode":"15562","locality":"Rüdersdorf bei Berlin","municipality":{"key":"12064428","name":"Rüdersdorf bei Berlin","type":"Kreisangehörige_Gemeinde"},"district":{"key":"12064","name":"Märkisch-Oderland","type":"Landkreis"},"federalState":{"key":"12","name":"Brandenburg"}},{"name":"Franz-Künstler-Siedlung","postalCode":"15562","locality":"Rüdersdorf bei Berlin","municipality":{"key":"12064428","name":"Rüdersdorf bei Berlin","type":"Kreisangehörige_Gemeinde"},"district":{"key":"12064","name":"Märkisch-Oderland","type":"Landkreis"},"federalState":{"key":"12","name":"Brandenburg"}},{"name":"Friedenstr.","postalCode":"15562","locality":"Rüdersdorf bei Berlin","municipality":{"key":"12064428","name":"Rüdersdorf bei Berlin","type":"Kreisangehörige_Gemeinde"},"district":{"key":"12064","name":"Märkisch-Oderland","type":"Landkreis"},"federalState":{"key":"12","name":"Brandenburg"}},{"name":"Friedrich-Engels-Ring","postalCode":"15562","locality":"Rüdersdorf bei Berlin","municipality":{"key":"12064428","name":"Rüdersdorf bei Berlin","type":"Kreisangehörige_Gemeinde"},"district":{"key":"12064","name":"Märkisch-Oderland","type":"Landkreis"},"federalState":{"key":"12","name":"Brandenburg"}},{"name":"Friedrichstr.","postalCode":"15378","locality":"Rüdersdorf bei Berlin","municipality":{"key":"12064428","name":"Rüdersdorf bei Berlin","type":"Kreisangehörige_Gemeinde"},"district":{"key":"12064","name":"Märkisch-Oderland","type":"Landkreis"},"federalState":{"key":"12","name":"Brandenburg"}},{"name":"Fürstenwalder Str.","postalCode":"15562","locality":"Rüdersdorf bei Berlin","municipality":{"key":"12064428","name":"Rüdersdorf bei Berlin","type":"Kreisangehörige_Gemeinde"},"district":{"key":"12064","name":"Märkisch-Oderland","type":"Landkreis"},"federalState":{"key":"12","name":"Brandenburg"}},{"name":"Gartenstadt","postalCode":"15378","locality":"Rüdersdorf bei Berlin","municipality":{"key":"12064428","name":"Rüdersdorf bei Berlin","type":"Kreisangehörige_Gemeinde"},"district":{"key":"12064","name":"Märkisch-Oderland","type":"Landkreis"},"federalState":{"key":"12","name":"Brandenburg"}},{"name":"Gartenstr.","postalCode":"15562","locality":"Rüdersdorf bei Berlin","municipality":{"key":"12064428","name":"Rüdersdorf bei Berlin","type":"Kreisangehörige_Gemeinde"},"district":{"key":"12064","name":"Märkisch-Oderland","type":"Landkreis"},"federalState":{"key":"12","name":"Brandenburg"}},{"name":"Gärtnerweg","postalCode":"15378","locality":"Rüdersdorf bei Berlin","municipality":{"key":"12064428","name":"Rüdersdorf bei Berlin","type":"Kreisangehörige_Gemeinde"},"district":{"key":"12064","name":"Märkisch-Oderland","type":"Landkreis"},"federalState":{"key":"12","name":"Brandenburg"}},{"name":"Georg-Nozon-Weg","postalCode":"15562","locality":"Rüdersdorf bei Berlin","municipality":{"key":"12064428","name":"Rüdersdorf bei Berlin","type":"Kreisangehörige_Gemeinde"},"district":{"key":"12064","name":"Märkisch-Oderland","type":"Landkreis"},"federalState":{"key":"12","name":"Brandenburg"}},{"name":"Gestell S","postalCode":"15562","locality":"Rüdersdorf bei Berlin","municipality":{"key":"12064428","name":"Rüdersdorf bei Berlin","type":"Kreisangehörige_Gemeinde"},"district":{"key":"12064","name":"Märkisch-Oderland","type":"Landkreis"},"federalState":{"key":"12","name":"Brandenburg"}},{"name":"Gestell T","postalCode":"15562","locality":"Rüdersdorf bei Berlin","municipality":{"key":"12064428","name":"Rüdersdorf bei Berlin","type":"Kreisangehörige_Gemeinde"},"district":{"key":"12064","name":"Märkisch-Oderland","type":"Landkreis"},"federalState":{"key":"12","name":"Brandenburg"}},{"name":"Gestell U","postalCode":"15562","locality":"Rüdersdorf bei Berlin","municipality":{"key":"12064428","name":"Rüdersdorf bei Berlin","type":"Kreisangehörige_Gemeinde"},"district":{"key":"12064","name":"Märkisch-Oderland","type":"Landkreis"},"federalState":{"key":"12","name":"Brandenburg"}},{"name":"Gestell V","postalCode":"15562","locality":"Rüdersdorf bei Berlin","municipality":{"key":"12064428","name":"Rüdersdorf bei Berlin","type":"Kreisangehörige_Gemeinde"},"district":{"key":"12064","name":"Märkisch-Oderland","type":"Landkreis"},"federalState":{"key":"12","name":"Brandenburg"}},{"name":"Gestell w","postalCode":"15562","locality":"Rüdersdorf bei Berlin","municipality":{"key":"12064428","name":"Rüdersdorf bei Berlin","type":"Kreisangehörige_Gemeinde"},"district":{"key":"12064","name":"Märkisch-Oderland","type":"Landkreis"},"federalState":{"key":"12","name":"Brandenburg"}},{"name":"Gestell z","postalCode":"15562","locality":"Rüdersdorf bei Berlin","municipality":{"key":"12064428","name":"Rüdersdorf bei Berlin","type":"Kreisangehörige_Gemeinde"},"district":{"key":"12064","name":"Märkisch-Oderland","type":"Landkreis"},"federalState":{"key":"12","name":"Brandenburg"}},{"name":"Goethestr.","postalCode":"15562","locality":"Rüdersdorf bei Berlin","municipality":{"key":"12064428","name":"Rüdersdorf bei Berlin","type":"Kreisangehörige_Gemeinde"},"district":{"key":"12064","name":"Märkisch-Oderland","type":"Landkreis"},"federalState":{"key":"12","name":"Brandenburg"}},{"name":"Grüne Kehle","postalCode":"15562","locality":"Rüdersdorf bei Berlin","municipality":{"key":"12064428","name":"Rüdersdorf bei Berlin","type":"Kreisangehörige_Gemeinde"},"district":{"key":"12064","name":"Märkisch-Oderland","type":"Landkreis"},"federalState":{"key":"12","name":"Brandenburg"}},{"name":"Grünelinde","postalCode":"15562","locality":"Rüdersdorf bei Berlin","municipality":{"key":"12064428","name":"Rüdersdorf bei Berlin","type":"Kreisangehörige_Gemeinde"},"district":{"key":"12064","name":"Märkisch-Oderland","type":"Landkreis"},"federalState":{"key":"12","name":"Brandenburg"}},{"name":"Grünerlinder Weg","postalCode":"15562","locality":"Rüdersdorf bei Berlin","municipality":{"key":"12064428","name":"Rüdersdorf bei Berlin","type":"Kreisangehörige_Gemeinde"},"district":{"key":"12064","name":"Märkisch-Oderland","type":"Landkreis"},"federalState":{"key":"12","name":"Brandenburg"}},{"name":"Grünheider Weg","postalCode":"15562","locality":"Rüdersdorf bei Berlin","municipality":{"key":"12064428","name":"Rüdersdorf bei Berlin","type":"Kreisangehörige_Gemeinde"},"district":{"key":"12064","name":"Märkisch-Oderland","type":"Landkreis"},"federalState":{"key":"12","name":"Brandenburg"}},{"name":"Gutenbergstr.","postalCode":"15562","locality":"Rüdersdorf bei Berlin","municipality":{"key":"12064428","name":"Rüdersdorf bei Berlin","type":"Kreisangehörige_Gemeinde"},"district":{"key":"12064","name":"Märkisch-Oderland","type":"Landkreis"},"federalState":{"key":"12","name":"Brandenburg"}},{"name":"Hans-Ertmann-Weg","postalCode":"15378","locality":"Rüdersdorf bei Berlin","municipality":{"key":"12064428","name":"Rüdersdorf bei Berlin","type":"Kreisangehörige_Gemeinde"},"district":{"key":"12064","name":"Märkisch-Oderland","type":"Landkreis"},"federalState":{"key":"12","name":"Brandenburg"}},{"name":"Hans-Schröer-Str.","postalCode":"15378","locality":"Rüdersdorf bei Berlin","municipality":{"key":"12064428","name":"Rüdersdorf bei Berlin","type":"Kreisangehörige_Gemeinde"},"district":{"key":"12064","name":"Märkisch-Oderland","type":"Landkreis"},"federalState":{"key":"12","name":"Brandenburg"}},{"name":"Hans-Schröer-Str.","postalCode":"15562","locality":"Rüdersdorf bei Berlin","municipality":{"key":"12064428","name":"Rüdersdorf bei Berlin","type":"Kreisangehörige_Gemeinde"},"district":{"key":"12064","name":"Märkisch-Oderland","type":"Landkreis"},"federalState":{"key":"12","name":"Brandenburg"}},{"name":"Hans-Striegelski-Str.","postalCode":"15562","locality":"Rüdersdorf bei Berlin","municipality":{"key":"12064428","name":"Rüdersdorf bei Berlin","type":"Kreisangehörige_Gemeinde"},"district":{"key":"12064","name":"Märkisch-Oderland","type":"Landkreis"},"federalState":{"key":"12","name":"Brandenburg"}},{"name":"Hauptstr.","postalCode":"15378","locality":"Rüdersdorf bei Berlin","municipality":{"key":"12064428","name":"Rüdersdorf bei Berlin","type":"Kreisangehörige_Gemeinde"},"district":{"key":"12064","name":"Märkisch-Oderland","type":"Landkreis"},"federalState":{"key":"12","name":"Brandenburg"}},{"name":"Hauptstr.","postalCode":"15562","locality":"Rüdersdorf bei Berlin","municipality":{"key":"12064428","name":"Rüdersdorf bei Berlin","type":"Kreisangehörige_Gemeinde"},"district":{"key":"12064","name":"Märkisch-Oderland","type":"Landkreis"},"federalState":{"key":"12","name":"Brandenburg"}},{"name":"Heinitzstr.","postalCode":"15562","locality":"Rüdersdorf bei Berlin","municipality":{"key":"12064428","name":"Rüdersdorf bei Berlin","type":"Kreisangehörige_Gemeinde"},"district":{"key":"12064","name":"Märkisch-Oderland","type":"Landkreis"},"federalState":{"key":"12","name":"Brandenburg"}},{"name":"Heinitzstr.nbrücke","postalCode":"15562","locality":"Rüdersdorf bei Berlin","municipality":{"key":"12064428","name":"Rüdersdorf bei Berlin","type":"Kreisangehörige_Gemeinde"},"district":{"key":"12064","name":"Märkisch-Oderland","type":"Landkreis"},"federalState":{"key":"12","name":"Brandenburg"}},{"name":"Heinrich-Heine-Str.","postalCode":"15562","locality":"Rüdersdorf bei Berlin","municipality":{"key":"12064428","name":"Rüdersdorf bei Berlin","type":"Kreisangehörige_Gemeinde"},"district":{"key":"12064","name":"Märkisch-Oderland","type":"Landkreis"},"federalState":{"key":"12","name":"Brandenburg"}},{"name":"Heinrich-Zille-Str.","postalCode":"15562","locality":"Rüdersdorf bei Berlin","municipality":{"key":"12064428","name":"Rüdersdorf bei Berlin","type":"Kreisangehörige_Gemeinde"},"district":{"key":"12064","name":"Märkisch-Oderland","type":"Landkreis"},"federalState":{"key":"12","name":"Brandenburg"}},{"name":"Hemmoor-Ring","postalCode":"15562","locality":"Rüdersdorf bei Berlin","municipality":{"key":"12064428","name":"Rüdersdorf bei Berlin","type":"Kreisangehörige_Gemeinde"},"district":{"key":"12064","name":"Märkisch-Oderland","type":"Landkreis"},"federalState":{"key":"12","name":"Brandenburg"}},{"name":"Hennickendorfer Weg","postalCode":"15345","locality":"Rüdersdorf bei Berlin","municipality":{"key":"12064428","name":"Rüdersdorf bei Berlin","type":"Kreisangehörige_Gemeinde"},"district":{"key":"12064","name":"Märkisch-Oderland","type":"Landkreis"},"federalState":{"key":"12","name":"Brandenburg"}},{"name":"Hermannstr.","postalCode":"15562","locality":"Rüdersdorf bei Berlin","municipality":{"key":"12064428","name":"Rüdersdorf bei Berlin","type":"Kreisangehörige_Gemeinde"},"district":{"key":"12064","name":"Märkisch-Oderland","type":"Landkreis"},"federalState":{"key":"12","name":"Brandenburg"}},{"name":"Herzfelder Str.","postalCode":"15378","locality":"Rüdersdorf bei Berlin","municipality":{"key":"12064428","name":"Rüdersdorf bei Berlin","type":"Kreisangehörige_Gemeinde"},"district":{"key":"12064","name":"Märkisch-Oderland","type":"Landkreis"},"federalState":{"key":"12","name":"Brandenburg"}},{"name":"Herzfelder Str.","postalCode":"15562","locality":"Rüdersdorf bei Berlin","municipality":{"key":"12064428","name":"Rüdersdorf bei Berlin","type":"Kreisangehörige_Gemeinde"},"district":{"key":"12064","name":"Märkisch-Oderland","type":"Landkreis"},"federalState":{"key":"12","name":"Brandenburg"}},{"name":"Herzfelder Weg","postalCode":"15345","locality":"Rüdersdorf bei Berlin","municipality":{"key":"12064428","name":"Rüdersdorf bei Berlin","type":"Kreisangehörige_Gemeinde"},"district":{"key":"12064","name":"Märkisch-Oderland","type":"Landkreis"},"federalState":{"key":"12","name":"Brandenburg"}},{"name":"Herzfelder Weg","postalCode":"15378","locality":"Rüdersdorf bei Berlin","municipality":{"key":"12064428","name":"Rüdersdorf bei Berlin","type":"Kreisangehörige_Gemeinde"},"district":{"key":"12064","name":"Märkisch-Oderland","type":"Landkreis"},"federalState":{"key":"12","name":"Brandenburg"}},{"name":"Hohe Str.","postalCode":"15562","locality":"Rüdersdorf bei Berlin","municipality":{"key":"12064428","name":"Rüdersdorf bei Berlin","type":"Kreisangehörige_Gemeinde"},"district":{"key":"12064","name":"Märkisch-Oderland","type":"Landkreis"},"federalState":{"key":"12","name":"Brandenburg"}},{"name":"Im Krähenwinkel","postalCode":"15562","locality":"Rüdersdorf bei Berlin","municipality":{"key":"12064428","name":"Rüdersdorf bei Berlin","type":"Kreisangehörige_Gemeinde"},"district":{"key":"12064","name":"Märkisch-Oderland","type":"Landkreis"},"federalState":{"key":"12","name":"Brandenburg"}},{"name":"Jubitz-Stein-Erlebnis-Platz","postalCode":"15562","locality":"Rüdersdorf bei Berlin","municipality":{"key":"12064428","name":"Rüdersdorf bei Berlin","type":"Kreisangehörige_Gemeinde"},"district":{"key":"12064","name":"Märkisch-Oderland","type":"Landkreis"},"federalState":{"key":"12","name":"Brandenburg"}},{"name":"Kageler Str.","postalCode":"15345","locality":"Rüdersdorf bei Berlin","municipality":{"key":"12064428","name":"Rüdersdorf bei Berlin","type":"Kreisangehörige_Gemeinde"},"district":{"key":"12064","name":"Märkisch-Oderland","type":"Landkreis"},"federalState":{"key":"12","name":"Brandenburg"}},{"name":"Kageler Weg","postalCode":"15345","locality":"Rüdersdorf bei Berlin","municipality":{"key":"12064428","name":"Rüdersdorf bei Berlin","type":"Kreisangehörige_Gemeinde"},"district":{"key":"12064","name":"Märkisch-Oderland","type":"Landkreis"},"federalState":{"key":"12","name":"Brandenburg"}},{"name":"Kageler Weg","postalCode":"15378","locality":"Rüdersdorf bei Berlin","municipality":{"key":"12064428","name":"Rüdersdorf bei Berlin","type":"Kreisangehörige_Gemeinde"},"district":{"key":"12064","name":"Märkisch-Oderland","type":"Landkreis"},"federalState":{"key":"12","name":"Brandenburg"}},{"name":"Kalkberger Platz","postalCode":"15562","locality":"Rüdersdorf bei Berlin","municipality":{"key":"12064428","name":"Rüdersdorf bei Berlin","type":"Kreisangehörige_Gemeinde"},"district":{"key":"12064","name":"Märkisch-Oderland","type":"Landkreis"},"federalState":{"key":"12","name":"Brandenburg"}},{"name":"Karl-Liebknecht-Str.","postalCode":"15378","locality":"Rüdersdorf bei Berlin","municipality":{"key":"12064428","name":"Rüdersdorf bei Berlin","type":"Kreisangehörige_Gemeinde"},"district":{"key":"12064","name":"Märkisch-Oderland","type":"Landkreis"},"federalState":{"key":"12","name":"Brandenburg"}},{"name":"Karl-Liebknecht-Str.","postalCode":"15562","locality":"Rüdersdorf bei Berlin","municipality":{"key":"12064428","name":"Rüdersdorf bei Berlin","type":"Kreisangehörige_Gemeinde"},"district":{"key":"12064","name":"Märkisch-Oderland","type":"Landkreis"},"federalState":{"key":"12","name":"Brandenburg"}},{"name":"Karl-Marx-Str.","postalCode":"15378","locality":"Rüdersdorf bei Berlin","municipality":{"key":"12064428","name":"Rüdersdorf bei Berlin","type":"Kreisangehörige_Gemeinde"},"district":{"key":"12064","name":"Märkisch-Oderland","type":"Landkreis"},"federalState":{"key":"12","name":"Brandenburg"}},{"name":"Karlstr.","postalCode":"15562","locality":"Rüdersdorf bei Berlin","municipality":{"key":"12064428","name":"Rüdersdorf bei Berlin","type":"Kreisangehörige_Gemeinde"},"district":{"key":"12064","name":"Märkisch-Oderland","type":"Landkreis"},"federalState":{"key":"12","name":"Brandenburg"}},{"name":"Kastanienweg","postalCode":"15378","locality":"Rüdersdorf bei Berlin","municipality":{"key":"12064428","name":"Rüdersdorf bei Berlin","type":"Kreisangehörige_Gemeinde"},"district":{"key":"12064","name":"Märkisch-Oderland","type":"Landkreis"},"federalState":{"key":"12","name":"Brandenburg"}},{"name":"Käthe-Kollwitz-Str.","postalCode":"15562","locality":"Rüdersdorf bei Berlin","municipality":{"key":"12064428","name":"Rüdersdorf bei Berlin","type":"Kreisangehörige_Gemeinde"},"district":{"key":"12064","name":"Märkisch-Oderland","type":"Landkreis"},"federalState":{"key":"12","name":"Brandenburg"}},{"name":"Kirchpark","postalCode":"15562","locality":"Rüdersdorf bei Berlin","municipality":{"key":"12064428","name":"Rüdersdorf bei Berlin","type":"Kreisangehörige_Gemeinde"},"district":{"key":"12064","name":"Märkisch-Oderland","type":"Landkreis"},"federalState":{"key":"12","name":"Brandenburg"}},{"name":"Kirchplatz","postalCode":"15378","locality":"Rüdersdorf bei Berlin","municipality":{"key":"12064428","name":"Rüdersdorf bei Berlin","type":"Kreisangehörige_Gemeinde"},"district":{"key":"12064","name":"Märkisch-Oderland","type":"Landkreis"},"federalState":{"key":"12","name":"Brandenburg"}},{"name":"Kleine Quellen Promenade","postalCode":"15378","locality":"Rüdersdorf bei Berlin","municipality":{"key":"12064428","name":"Rüdersdorf bei Berlin","type":"Kreisangehörige_Gemeinde"},"district":{"key":"12064","name":"Märkisch-Oderland","type":"Landkreis"},"federalState":{"key":"12","name":"Brandenburg"}},{"name":"Klein Schönebecker Str.","postalCode":"15562","locality":"Rüdersdorf bei Berlin","municipality":{"key":"12064428","name":"Rüdersdorf bei Berlin","type":"Kreisangehörige_Gemeinde"},"district":{"key":"12064","name":"Märkisch-Oderland","type":"Landkreis"},"federalState":{"key":"12","name":"Brandenburg"}},{"name":"Klosterdorfer Str.","postalCode":"15378","locality":"Rüdersdorf bei Berlin","municipality":{"key":"12064428","name":"Rüdersdorf bei Berlin","type":"Kreisangehörige_Gemeinde"},"district":{"key":"12064","name":"Märkisch-Oderland","type":"Landkreis"},"federalState":{"key":"12","name":"Brandenburg"}},{"name":"Kreuzstr.","postalCode":"15562","locality":"Rüdersdorf bei Berlin","municipality":{"key":"12064428","name":"Rüdersdorf bei Berlin","type":"Kreisangehörige_Gemeinde"},"district":{"key":"12064","name":"Märkisch-Oderland","type":"Landkreis"},"federalState":{"key":"12","name":"Brandenburg"}},{"name":"Kurze Str.","postalCode":"15562","locality":"Rüdersdorf bei Berlin","municipality":{"key":"12064428","name":"Rüdersdorf bei Berlin","type":"Kreisangehörige_Gemeinde"},"district":{"key":"12064","name":"Märkisch-Oderland","type":"Landkreis"},"federalState":{"key":"12","name":"Brandenburg"}},{"name":"Landhof","postalCode":"15562","locality":"Rüdersdorf bei Berlin","municipality":{"key":"12064428","name":"Rüdersdorf bei Berlin","type":"Kreisangehörige_Gemeinde"},"district":{"key":"12064","name":"Märkisch-Oderland","type":"Landkreis"},"federalState":{"key":"12","name":"Brandenburg"}},{"name":"Lerchenweg","postalCode":"15378","locality":"Rüdersdorf bei Berlin","municipality":{"key":"12064428","name":"Rüdersdorf bei Berlin","type":"Kreisangehörige_Gemeinde"},"district":{"key":"12064","name":"Märkisch-Oderland","type":"Landkreis"},"federalState":{"key":"12","name":"Brandenburg"}},{"name":"Lessingstr.","postalCode":"15562","locality":"Rüdersdorf bei Berlin","municipality":{"key":"12064428","name":"Rüdersdorf bei Berlin","type":"Kreisangehörige_Gemeinde"},"district":{"key":"12064","name":"Märkisch-Oderland","type":"Landkreis"},"federalState":{"key":"12","name":"Brandenburg"}},{"name":"Lichtenower Weg","postalCode":"15378","locality":"Rüdersdorf bei Berlin","municipality":{"key":"12064428","name":"Rüdersdorf bei Berlin","type":"Kreisangehörige_Gemeinde"},"district":{"key":"12064","name":"Märkisch-Oderland","type":"Landkreis"},"federalState":{"key":"12","name":"Brandenburg"}},{"name":"Lindenstr.","postalCode":"15378","locality":"Rüdersdorf bei Berlin","municipality":{"key":"12064428","name":"Rüdersdorf bei Berlin","type":"Kreisangehörige_Gemeinde"},"district":{"key":"12064","name":"Märkisch-Oderland","type":"Landkreis"},"federalState":{"key":"12","name":"Brandenburg"}},{"name":"Lindenweg","postalCode":"15378","locality":"Rüdersdorf bei Berlin","municipality":{"key":"12064428","name":"Rüdersdorf bei Berlin","type":"Kreisangehörige_Gemeinde"},"district":{"key":"12064","name":"Märkisch-Oderland","type":"Landkreis"},"federalState":{"key":"12","name":"Brandenburg"}},{"name":"Maienbergstr.","postalCode":"15562","locality":"Rüdersdorf bei Berlin","municipality":{"key":"12064428","name":"Rüdersdorf bei Berlin","type":"Kreisangehörige_Gemeinde"},"district":{"key":"12064","name":"Märkisch-Oderland","type":"Landkreis"},"federalState":{"key":"12","name":"Brandenburg"}},{"name":"Marie-Curie-Weg","postalCode":"15562","locality":"Rüdersdorf bei Berlin","municipality":{"key":"12064428","name":"Rüdersdorf bei Berlin","type":"Kreisangehörige_Gemeinde"},"district":{"key":"12064","name":"Märkisch-Oderland","type":"Landkreis"},"federalState":{"key":"12","name":"Brandenburg"}},{"name":"Marienstr.","postalCode":"15562","locality":"Rüdersdorf bei Berlin","municipality":{"key":"12064428","name":"Rüdersdorf bei Berlin","type":"Kreisangehörige_Gemeinde"},"district":{"key":"12064","name":"Märkisch-Oderland","type":"Landkreis"},"federalState":{"key":"12","name":"Brandenburg"}},{"name":"Meesterwinkel","postalCode":"15562","locality":"Rüdersdorf bei Berlin","municipality":{"key":"12064428","name":"Rüdersdorf bei Berlin","type":"Kreisangehörige_Gemeinde"},"district":{"key":"12064","name":"Märkisch-Oderland","type":"Landkreis"},"federalState":{"key":"12","name":"Brandenburg"}},{"name":"Mittelstr.","postalCode":"15378","locality":"Rüdersdorf bei Berlin","municipality":{"key":"12064428","name":"Rüdersdorf bei Berlin","type":"Kreisangehörige_Gemeinde"},"district":{"key":"12064","name":"Märkisch-Oderland","type":"Landkreis"},"federalState":{"key":"12","name":"Brandenburg"}},{"name":"Mittelweg","postalCode":"15378","locality":"Rüdersdorf bei Berlin","municipality":{"key":"12064428","name":"Rüdersdorf bei Berlin","type":"Kreisangehörige_Gemeinde"},"district":{"key":"12064","name":"Märkisch-Oderland","type":"Landkreis"},"federalState":{"key":"12","name":"Brandenburg"}},{"name":"Möllenstr.","postalCode":"15378","locality":"Rüdersdorf bei Berlin","municipality":{"key":"12064428","name":"Rüdersdorf bei Berlin","type":"Kreisangehörige_Gemeinde"},"district":{"key":"12064","name":"Märkisch-Oderland","type":"Landkreis"},"federalState":{"key":"12","name":"Brandenburg"}},{"name":"Mühlenstr.","postalCode":"15378","locality":"Rüdersdorf bei Berlin","municipality":{"key":"12064428","name":"Rüdersdorf bei Berlin","type":"Kreisangehörige_Gemeinde"},"district":{"key":"12064","name":"Märkisch-Oderland","type":"Landkreis"},"federalState":{"key":"12","name":"Brandenburg"}},{"name":"Mühlenstr.","postalCode":"15562","locality":"Rüdersdorf bei Berlin","municipality":{"key":"12064428","name":"Rüdersdorf bei Berlin","type":"Kreisangehörige_Gemeinde"},"district":{"key":"12064","name":"Märkisch-Oderland","type":"Landkreis"},"federalState":{"key":"12","name":"Brandenburg"}},{"name":"Nebenstr.","postalCode":"15562","locality":"Rüdersdorf bei Berlin","municipality":{"key":"12064428","name":"Rüdersdorf bei Berlin","type":"Kreisangehörige_Gemeinde"},"district":{"key":"12064","name":"Märkisch-Oderland","type":"Landkreis"},"federalState":{"key":"12","name":"Brandenburg"}},{"name":"Neuburger Ring","postalCode":"15378","locality":"Rüdersdorf bei Berlin","municipality":{"key":"12064428","name":"Rüdersdorf bei Berlin","type":"Kreisangehörige_Gemeinde"},"district":{"key":"12064","name":"Märkisch-Oderland","type":"Landkreis"},"federalState":{"key":"12","name":"Brandenburg"}},{"name":"Neue Str.","postalCode":"15562","locality":"Rüdersdorf bei Berlin","municipality":{"key":"12064428","name":"Rüdersdorf bei Berlin","type":"Kreisangehörige_Gemeinde"},"district":{"key":"12064","name":"Märkisch-Oderland","type":"Landkreis"},"federalState":{"key":"12","name":"Brandenburg"}},{"name":"Neue Vogelsdorfer Str.","postalCode":"15562","locality":"Rüdersdorf bei Berlin","municipality":{"key":"12064428","name":"Rüdersdorf bei Berlin","type":"Kreisangehörige_Gemeinde"},"district":{"key":"12064","name":"Märkisch-Oderland","type":"Landkreis"},"federalState":{"key":"12","name":"Brandenburg"}},{"name":"Otto-Nuschke-Str.","postalCode":"15562","locality":"Rüdersdorf bei Berlin","municipality":{"key":"12064428","name":"Rüdersdorf bei Berlin","type":"Kreisangehörige_Gemeinde"},"district":{"key":"12064","name":"Märkisch-Oderland","type":"Landkreis"},"federalState":{"key":"12","name":"Brandenburg"}},{"name":"Pappelhain","postalCode":"15378","locality":"Rüdersdorf bei Berlin","municipality":{"key":"12064428","name":"Rüdersdorf bei Berlin","type":"Kreisangehörige_Gemeinde"},"district":{"key":"12064","name":"Märkisch-Oderland","type":"Landkreis"},"federalState":{"key":"12","name":"Brandenburg"}},{"name":"Paul-Krüger-Pfad","postalCode":"15562","locality":"Rüdersdorf bei Berlin","municipality":{"key":"12064428","name":"Rüdersdorf bei Berlin","type":"Kreisangehörige_Gemeinde"},"district":{"key":"12064","name":"Märkisch-Oderland","type":"Landkreis"},"federalState":{"key":"12","name":"Brandenburg"}},{"name":"Peter Lübke Brücke","postalCode":"15562","locality":"Rüdersdorf bei Berlin","municipality":{"key":"12064428","name":"Rüdersdorf bei Berlin","type":"Kreisangehörige_Gemeinde"},"district":{"key":"12064","name":"Märkisch-Oderland","type":"Landkreis"},"federalState":{"key":"12","name":"Brandenburg"}},{"name":"Pierrefitter Str.","postalCode":"15562","locality":"Rüdersdorf bei Berlin","municipality":{"key":"12064428","name":"Rüdersdorf bei Berlin","type":"Kreisangehörige_Gemeinde"},"district":{"key":"12064","name":"Märkisch-Oderland","type":"Landkreis"},"federalState":{"key":"12","name":"Brandenburg"}},{"name":"Priesterweg","postalCode":"15562","locality":"Rüdersdorf bei Berlin","municipality":{"key":"12064428","name":"Rüdersdorf bei Berlin","type":"Kreisangehörige_Gemeinde"},"district":{"key":"12064","name":"Märkisch-Oderland","type":"Landkreis"},"federalState":{"key":"12","name":"Brandenburg"}},{"name":"Puschkinstr.","postalCode":"15562","locality":"Rüdersdorf bei Berlin","municipality":{"key":"12064428","name":"Rüdersdorf bei Berlin","type":"Kreisangehörige_Gemeinde"},"district":{"key":"12064","name":"Märkisch-Oderland","type":"Landkreis"},"federalState":{"key":"12","name":"Brandenburg"}},{"name":"Redenstr.","postalCode":"15562","locality":"Rüdersdorf bei Berlin","municipality":{"key":"12064428","name":"Rüdersdorf bei Berlin","type":"Kreisangehörige_Gemeinde"},"district":{"key":"12064","name":"Märkisch-Oderland","type":"Landkreis"},"federalState":{"key":"12","name":"Brandenburg"}},{"name":"Rehfelder Str.","postalCode":"15378","locality":"Rüdersdorf bei Berlin","municipality":{"key":"12064428","name":"Rüdersdorf bei Berlin","type":"Kreisangehörige_Gemeinde"},"district":{"key":"12064","name":"Märkisch-Oderland","type":"Landkreis"},"federalState":{"key":"12","name":"Brandenburg"}},{"name":"Rehfelder Weg","postalCode":"15345","locality":"Rüdersdorf bei Berlin","municipality":{"key":"12064428","name":"Rüdersdorf bei Berlin","type":"Kreisangehörige_Gemeinde"},"district":{"key":"12064","name":"Märkisch-Oderland","type":"Landkreis"},"federalState":{"key":"12","name":"Brandenburg"}},{"name":"Rehfelder Weg","postalCode":"15378","locality":"Rüdersdorf bei Berlin","municipality":{"key":"12064428","name":"Rüdersdorf bei Berlin","type":"Kreisangehörige_Gemeinde"},"district":{"key":"12064","name":"Märkisch-Oderland","type":"Landkreis"},"federalState":{"key":"12","name":"Brandenburg"}},{"name":"Ringstr.","postalCode":"15378","locality":"Rüdersdorf bei Berlin","municipality":{"key":"12064428","name":"Rüdersdorf bei Berlin","type":"Kreisangehörige_Gemeinde"},"district":{"key":"12064","name":"Märkisch-Oderland","type":"Landkreis"},"federalState":{"key":"12","name":"Brandenburg"}},{"name":"Rosa-Luxemburg-Platz","postalCode":"15378","locality":"Rüdersdorf bei Berlin","municipality":{"key":"12064428","name":"Rüdersdorf bei Berlin","type":"Kreisangehörige_Gemeinde"},"district":{"key":"12064","name":"Märkisch-Oderland","type":"Landkreis"},"federalState":{"key":"12","name":"Brandenburg"}},{"name":"Rüdersdorfer Str.","postalCode":"15378","locality":"Rüdersdorf bei Berlin","municipality":{"key":"12064428","name":"Rüdersdorf bei Berlin","type":"Kreisangehörige_Gemeinde"},"district":{"key":"12064","name":"Märkisch-Oderland","type":"Landkreis"},"federalState":{"key":"12","name":"Brandenburg"}},{"name":"Rüdersdorfer Weg","postalCode":"15562","locality":"Rüdersdorf bei Berlin","municipality":{"key":"12064428","name":"Rüdersdorf bei Berlin","type":"Kreisangehörige_Gemeinde"},"district":{"key":"12064","name":"Märkisch-Oderland","type":"Landkreis"},"federalState":{"key":"12","name":"Brandenburg"}},{"name":"Rudolf-Breitscheid-Str.","postalCode":"15562","locality":"Rüdersdorf bei Berlin","municipality":{"key":"12064428","name":"Rüdersdorf bei Berlin","type":"Kreisangehörige_Gemeinde"},"district":{"key":"12064","name":"Märkisch-Oderland","type":"Landkreis"},"federalState":{"key":"12","name":"Brandenburg"}},{"name":"Schäferei","postalCode":"15562","locality":"Rüdersdorf bei Berlin","municipality":{"key":"12064428","name":"Rüdersdorf bei Berlin","type":"Kreisangehörige_Gemeinde"},"district":{"key":"12064","name":"Märkisch-Oderland","type":"Landkreis"},"federalState":{"key":"12","name":"Brandenburg"}},{"name":"Schillerstr.","postalCode":"15562","locality":"Rüdersdorf bei Berlin","municipality":{"key":"12064428","name":"Rüdersdorf bei Berlin","type":"Kreisangehörige_Gemeinde"},"district":{"key":"12064","name":"Märkisch-Oderland","type":"Landkreis"},"federalState":{"key":"12","name":"Brandenburg"}},{"name":"Schloßweg","postalCode":"15562","locality":"Rüdersdorf bei Berlin","municipality":{"key":"12064428","name":"Rüdersdorf bei Berlin","type":"Kreisangehörige_Gemeinde"},"district":{"key":"12064","name":"Märkisch-Oderland","type":"Landkreis"},"federalState":{"key":"12","name":"Brandenburg"}},{"name":"Schmetterlingsweg","postalCode":"15562","locality":"Rüdersdorf bei Berlin","municipality":{"key":"12064428","name":"Rüdersdorf bei Berlin","type":"Kreisangehörige_Gemeinde"},"district":{"key":"12064","name":"Märkisch-Oderland","type":"Landkreis"},"federalState":{"key":"12","name":"Brandenburg"}},{"name":"Schöneicher Landstr.","postalCode":"15562","locality":"Rüdersdorf bei Berlin","municipality":{"key":"12064428","name":"Rüdersdorf bei Berlin","type":"Kreisangehörige_Gemeinde"},"district":{"key":"12064","name":"Märkisch-Oderland","type":"Landkreis"},"federalState":{"key":"12","name":"Brandenburg"}},{"name":"Schulstr.","postalCode":"15562","locality":"Rüdersdorf bei Berlin","municipality":{"key":"12064428","name":"Rüdersdorf bei Berlin","type":"Kreisangehörige_Gemeinde"},"district":{"key":"12064","name":"Märkisch-Oderland","type":"Landkreis"},"federalState":{"key":"12","name":"Brandenburg"}},{"name":"Schulzenhöher Weg","postalCode":"15562","locality":"Rüdersdorf bei Berlin","municipality":{"key":"12064428","name":"Rüdersdorf bei Berlin","type":"Kreisangehörige_Gemeinde"},"district":{"key":"12064","name":"Märkisch-Oderland","type":"Landkreis"},"federalState":{"key":"12","name":"Brandenburg"}},{"name":"Seebad","postalCode":"15562","locality":"Rüdersdorf bei Berlin","municipality":{"key":"12064428","name":"Rüdersdorf bei Berlin","type":"Kreisangehörige_Gemeinde"},"district":{"key":"12064","name":"Märkisch-Oderland","type":"Landkreis"},"federalState":{"key":"12","name":"Brandenburg"}},{"name":"Seepromenade","postalCode":"15378","locality":"Rüdersdorf bei Berlin","municipality":{"key":"12064428","name":"Rüdersdorf bei Berlin","type":"Kreisangehörige_Gemeinde"},"district":{"key":"12064","name":"Märkisch-Oderland","type":"Landkreis"},"federalState":{"key":"12","name":"Brandenburg"}},{"name":"Seestr.","postalCode":"15378","locality":"Rüdersdorf bei Berlin","municipality":{"key":"12064428","name":"Rüdersdorf bei Berlin","type":"Kreisangehörige_Gemeinde"},"district":{"key":"12064","name":"Märkisch-Oderland","type":"Landkreis"},"federalState":{"key":"12","name":"Brandenburg"}},{"name":"Seestr.","postalCode":"15562","locality":"Rüdersdorf bei Berlin","municipality":{"key":"12064428","name":"Rüdersdorf bei Berlin","type":"Kreisangehörige_Gemeinde"},"district":{"key":"12064","name":"Märkisch-Oderland","type":"Landkreis"},"federalState":{"key":"12","name":"Brandenburg"}},{"name":"Siedlerstr.","postalCode":"15345","locality":"Rüdersdorf bei Berlin","municipality":{"key":"12064428","name":"Rüdersdorf bei Berlin","type":"Kreisangehörige_Gemeinde"},"district":{"key":"12064","name":"Märkisch-Oderland","type":"Landkreis"},"federalState":{"key":"12","name":"Brandenburg"}},{"name":"Siedlerstr.","postalCode":"15378","locality":"Rüdersdorf bei Berlin","municipality":{"key":"12064428","name":"Rüdersdorf bei Berlin","type":"Kreisangehörige_Gemeinde"},"district":{"key":"12064","name":"Märkisch-Oderland","type":"Landkreis"},"federalState":{"key":"12","name":"Brandenburg"}},{"name":"Siedlerweg","postalCode":"15562","locality":"Rüdersdorf bei Berlin","municipality":{"key":"12064428","name":"Rüdersdorf bei Berlin","type":"Kreisangehörige_Gemeinde"},"district":{"key":"12064","name":"Märkisch-Oderland","type":"Landkreis"},"federalState":{"key":"12","name":"Brandenburg"}},{"name":"Stienitzstr.","postalCode":"15378","locality":"Rüdersdorf bei Berlin","municipality":{"key":"12064428","name":"Rüdersdorf bei Berlin","type":"Kreisangehörige_Gemeinde"},"district":{"key":"12064","name":"Märkisch-Oderland","type":"Landkreis"},"federalState":{"key":"12","name":"Brandenburg"}},{"name":"Strausberger Landstr.","postalCode":"15378","locality":"Rüdersdorf bei Berlin","municipality":{"key":"12064428","name":"Rüdersdorf bei Berlin","type":"Kreisangehörige_Gemeinde"},"district":{"key":"12064","name":"Märkisch-Oderland","type":"Landkreis"},"federalState":{"key":"12","name":"Brandenburg"}},{"name":"Strausberger Str.","postalCode":"15378","locality":"Rüdersdorf bei Berlin","municipality":{"key":"12064428","name":"Rüdersdorf bei Berlin","type":"Kreisangehörige_Gemeinde"},"district":{"key":"12064","name":"Märkisch-Oderland","type":"Landkreis"},"federalState":{"key":"12","name":"Brandenburg"}},{"name":"Strausberger Str.","postalCode":"15562","locality":"Rüdersdorf bei Berlin","municipality":{"key":"12064428","name":"Rüdersdorf bei Berlin","type":"Kreisangehörige_Gemeinde"},"district":{"key":"12064","name":"Märkisch-Oderland","type":"Landkreis"},"federalState":{"key":"12","name":"Brandenburg"}},{"name":"Str. der Jugend","postalCode":"15562","locality":"Rüdersdorf bei Berlin","municipality":{"key":"12064428","name":"Rüdersdorf bei Berlin","type":"Kreisangehörige_Gemeinde"},"district":{"key":"12064","name":"Märkisch-Oderland","type":"Landkreis"},"federalState":{"key":"12","name":"Brandenburg"}},{"name":"Str. des Friedens","postalCode":"15378","locality":"Rüdersdorf bei Berlin","municipality":{"key":"12064428","name":"Rüdersdorf bei Berlin","type":"Kreisangehörige_Gemeinde"},"district":{"key":"12064","name":"Märkisch-Oderland","type":"Landkreis"},"federalState":{"key":"12","name":"Brandenburg"}},{"name":"Tasdorfer Str.","postalCode":"15562","locality":"Rüdersdorf bei Berlin","municipality":{"key":"12064428","name":"Rüdersdorf bei Berlin","type":"Kreisangehörige_Gemeinde"},"district":{"key":"12064","name":"Märkisch-Oderland","type":"Landkreis"},"federalState":{"key":"12","name":"Brandenburg"}},{"name":"Tasdorf Süd","postalCode":"15562","locality":"Rüdersdorf bei Berlin","municipality":{"key":"12064428","name":"Rüdersdorf bei Berlin","type":"Kreisangehörige_Gemeinde"},"district":{"key":"12064","name":"Märkisch-Oderland","type":"Landkreis"},"federalState":{"key":"12","name":"Brandenburg"}},{"name":"Umgehungsstr.","postalCode":"15562","locality":"Rüdersdorf bei Berlin","municipality":{"key":"12064428","name":"Rüdersdorf bei Berlin","type":"Kreisangehörige_Gemeinde"},"district":{"key":"12064","name":"Märkisch-Oderland","type":"Landkreis"},"federalState":{"key":"12","name":"Brandenburg"}},{"name":"Vogelsdorfer Str.","postalCode":"15562","locality":"Rüdersdorf bei Berlin","municipality":{"key":"12064428","name":"Rüdersdorf bei Berlin","type":"Kreisangehörige_Gemeinde"},"district":{"key":"12064","name":"Märkisch-Oderland","type":"Landkreis"},"federalState":{"key":"12","name":"Brandenburg"}},{"name":"Wacholderweg","postalCode":"15378","locality":"Rüdersdorf bei Berlin","municipality":{"key":"12064428","name":"Rüdersdorf bei Berlin","type":"Kreisangehörige_Gemeinde"},"district":{"key":"12064","name":"Märkisch-Oderland","type":"Landkreis"},"federalState":{"key":"12","name":"Brandenburg"}},{"name":"Wachtelberg","postalCode":"15378","locality":"Rüdersdorf bei Berlin","municipality":{"key":"12064428","name":"Rüdersdorf bei Berlin","type":"Kreisangehörige_Gemeinde"},"district":{"key":"12064","name":"Märkisch-Oderland","type":"Landkreis"},"federalState":{"key":"12","name":"Brandenburg"}},{"name":"Waldblick","postalCode":"15345","locality":"Rüdersdorf bei Berlin","municipality":{"key":"12064428","name":"Rüdersdorf bei Berlin","type":"Kreisangehörige_Gemeinde"},"district":{"key":"12064","name":"Märkisch-Oderland","type":"Landkreis"},"federalState":{"key":"12","name":"Brandenburg"}},{"name":"Waldstr.","postalCode":"15562","locality":"Rüdersdorf bei Berlin","municipality":{"key":"12064428","name":"Rüdersdorf bei Berlin","type":"Kreisangehörige_Gemeinde"},"district":{"key":"12064","name":"Märkisch-Oderland","type":"Landkreis"},"federalState":{"key":"12","name":"Brandenburg"}},{"name":"Waldweg","postalCode":"15345","locality":"Rüdersdorf bei Berlin","municipality":{"key":"12064428","name":"Rüdersdorf bei Berlin","type":"Kreisangehörige_Gemeinde"},"district":{"key":"12064","name":"Märkisch-Oderland","type":"Landkreis"},"federalState":{"key":"12","name":"Brandenburg"}},{"name":"Weg an der Bruchkante","postalCode":"15562","locality":"Rüdersdorf bei Berlin","municipality":{"key":"12064428","name":"Rüdersdorf bei Berlin","type":"Kreisangehörige_Gemeinde"},"district":{"key":"12064","name":"Märkisch-Oderland","type":"Landkreis"},"federalState":{"key":"12","name":"Brandenburg"}},{"name":"Weidenweg","postalCode":"15378","locality":"Rüdersdorf bei Berlin","municipality":{"key":"12064428","name":"Rüdersdorf bei Berlin","type":"Kreisangehörige_Gemeinde"},"district":{"key":"12064","name":"Märkisch-Oderland","type":"Landkreis"},"federalState":{"key":"12","name":"Brandenburg"}},{"name":"Werkstr.","postalCode":"15378","locality":"Rüdersdorf bei Berlin","municipality":{"key":"12064428","name":"Rüdersdorf bei Berlin","type":"Kreisangehörige_Gemeinde"},"district":{"key":"12064","name":"Märkisch-Oderland","type":"Landkreis"},"federalState":{"key":"12","name":"Brandenburg"}},{"name":"Wiesenstr.","postalCode":"15562","locality":"Rüdersdorf bei Berlin","municipality":{"key":"12064428","name":"Rüdersdorf bei Berlin","type":"Kreisangehörige_Gemeinde"},"district":{"key":"12064","name":"Märkisch-Oderland","type":"Landkreis"},"federalState":{"key":"12","name":"Brandenburg"}},{"name":"Willi-Müller-Str.","postalCode":"15562","locality":"Rüdersdorf bei Berlin","municipality":{"key":"12064428","name":"Rüdersdorf bei Berlin","type":"Kreisangehörige_Gemeinde"},"district":{"key":"12064","name":"Märkisch-Oderland","type":"Landkreis"},"federalState":{"key":"12","name":"Brandenburg"}},{"name":"Wohngebiet Albrecht Thaer","postalCode":"15378","locality":"Rüdersdorf bei Berlin","municipality":{"key":"12064428","name":"Rüdersdorf bei Berlin","type":"Kreisangehörige_Gemeinde"},"district":{"key":"12064","name":"Märkisch-Oderland","type":"Landkreis"},"federalState":{"key":"12","name":"Brandenburg"}},{"name":"Wohngebiet Herzfelder Weg","postalCode":"15378","locality":"Rüdersdorf bei Berlin","municipality":{"key":"12064428","name":"Rüdersdorf bei Berlin","type":"Kreisangehörige_Gemeinde"},"district":{"key":"12064","name":"Märkisch-Oderland","type":"Landkreis"},"federalState":{"key":"12","name":"Brandenburg"}},{"name":"Wohnpark am Stienitzsee","postalCode":"15378","locality":"Rüdersdorf bei Berlin","municipality":{"key":"12064428","name":"Rüdersdorf bei Berlin","type":"Kreisangehörige_Gemeinde"},"district":{"key":"12064","name":"Märkisch-Oderland","type":"Landkreis"},"federalState":{"key":"12","name":"Brandenburg"}},{"name":"Woltersdorfer Str.","postalCode":"15562","locality":"Rüdersdorf bei Berlin","municipality":{"key":"12064428","name":"Rüdersdorf bei Berlin","type":"Kreisangehörige_Gemeinde"},"district":{"key":"12064","name":"Märkisch-Oderland","type":"Landkreis"},"federalState":{"key":"12","name":"Brandenburg"}},{"name":"Ziegelstr.","postalCode":"15378","locality":"Rüdersdorf bei Berlin","municipality":{"key":"12064428","name":"Rüdersdorf bei Berlin","type":"Kreisangehörige_Gemeinde"},"district":{"key":"12064","name":"Märkisch-Oderland","type":"Landkreis"},"federalState":{"key":"12","name":"Brandenburg"}},{"name":"Zinndorfer Str.","postalCode":"15345","locality":"Rüdersdorf bei Berlin","municipality":{"key":"12064428","name":"Rüdersdorf bei Berlin","type":"Kreisangehörige_Gemeinde"},"district":{"key":"12064","name":"Märkisch-Oderland","type":"Landkreis"},"federalState":{"key":"12","name":"Brandenburg"}},{"name":"Zum Alten Forsthaus","postalCode":"15562","locality":"Rüdersdorf bei Berlin","municipality":{"key":"12064428","name":"Rüdersdorf bei Berlin","type":"Kreisangehörige_Gemeinde"},"district":{"key":"12064","name":"Märkisch-Oderland","type":"Landkreis"},"federalState":{"key":"12","name":"Brandenburg"}},{"name":"Zum Bruch","postalCode":"15345","locality":"Rüdersdorf bei Berlin","municipality":{"key":"12064428","name":"Rüdersdorf bei Berlin","type":"Kreisangehörige_Gemeinde"},"district":{"key":"12064","name":"Märkisch-Oderland","type":"Landkreis"},"federalState":{"key":"12","name":"Brandenburg"}},{"name":"Zum Seeblick","postalCode":"15378","locality":"Rüdersdorf bei Berlin","municipality":{"key":"12064428","name":"Rüdersdorf bei Berlin","type":"Kreisangehörige_Gemeinde"},"district":{"key":"12064","name":"Märkisch-Oderland","type":"Landkreis"},"federalState":{"key":"12","name":"Brandenburg"}},]