[{"name":"Bahnstr.","postalCode":"24872","locality":"Groß Rheide","municipality":{"key":"01059035","name":"Groß Rheide","type":"Kreisangehörige_Gemeinde"},"district":{"key":"01059","name":"Schleswig-Flensburg","type":"Kreis"},"federalState":{"key":"01","name":"Schleswig-Holstein"}},{"name":"Bennebeker Weg","postalCode":"24872","locality":"Groß Rheide","municipality":{"key":"01059035","name":"Groß Rheide","type":"Kreisangehörige_Gemeinde"},"district":{"key":"01059","name":"Schleswig-Flensburg","type":"Kreis"},"federalState":{"key":"01","name":"Schleswig-Holstein"}},{"name":"Börmer Weg","postalCode":"24872","locality":"Groß Rheide","municipality":{"key":"01059035","name":"Groß Rheide","type":"Kreisangehörige_Gemeinde"},"district":{"key":"01059","name":"Schleswig-Flensburg","type":"Kreis"},"federalState":{"key":"01","name":"Schleswig-Holstein"}},{"name":"Dorfstr.","postalCode":"24872","locality":"Groß Rheide","municipality":{"key":"01059035","name":"Groß Rheide","type":"Kreisangehörige_Gemeinde"},"district":{"key":"01059","name":"Schleswig-Flensburg","type":"Kreis"},"federalState":{"key":"01","name":"Schleswig-Holstein"}},{"name":"Hauptstr.","postalCode":"24872","locality":"Groß Rheide","municipality":{"key":"01059035","name":"Groß Rheide","type":"Kreisangehörige_Gemeinde"},"district":{"key":"01059","name":"Schleswig-Flensburg","type":"Kreis"},"federalState":{"key":"01","name":"Schleswig-Holstein"}},{"name":"Hoverkamp","postalCode":"24872","locality":"Groß Rheide","municipality":{"key":"01059035","name":"Groß Rheide","type":"Kreisangehörige_Gemeinde"},"district":{"key":"01059","name":"Schleswig-Flensburg","type":"Kreis"},"federalState":{"key":"01","name":"Schleswig-Holstein"}},{"name":"Jückenweg","postalCode":"24872","locality":"Groß Rheide","municipality":{"key":"01059035","name":"Groß Rheide","type":"Kreisangehörige_Gemeinde"},"district":{"key":"01059","name":"Schleswig-Flensburg","type":"Kreis"},"federalState":{"key":"01","name":"Schleswig-Holstein"}},{"name":"Kirchenweg","postalCode":"24872","locality":"Groß Rheide","municipality":{"key":"01059035","name":"Groß Rheide","type":"Kreisangehörige_Gemeinde"},"district":{"key":"01059","name":"Schleswig-Flensburg","type":"Kreis"},"federalState":{"key":"01","name":"Schleswig-Holstein"}},{"name":"Kropper Weg","postalCode":"24872","locality":"Groß Rheide","municipality":{"key":"01059035","name":"Groß Rheide","type":"Kreisangehörige_Gemeinde"},"district":{"key":"01059","name":"Schleswig-Flensburg","type":"Kreis"},"federalState":{"key":"01","name":"Schleswig-Holstein"}},{"name":"Mühlenhaus","postalCode":"24872","locality":"Groß Rheide","municipality":{"key":"01059035","name":"Groß Rheide","type":"Kreisangehörige_Gemeinde"},"district":{"key":"01059","name":"Schleswig-Flensburg","type":"Kreis"},"federalState":{"key":"01","name":"Schleswig-Holstein"}},{"name":"Oer","postalCode":"24872","locality":"Groß Rheide","municipality":{"key":"01059035","name":"Groß Rheide","type":"Kreisangehörige_Gemeinde"},"district":{"key":"01059","name":"Schleswig-Flensburg","type":"Kreis"},"federalState":{"key":"01","name":"Schleswig-Holstein"}},{"name":"Schicht","postalCode":"24872","locality":"Groß Rheide","municipality":{"key":"01059035","name":"Groß Rheide","type":"Kreisangehörige_Gemeinde"},"district":{"key":"01059","name":"Schleswig-Flensburg","type":"Kreis"},"federalState":{"key":"01","name":"Schleswig-Holstein"}},{"name":"Schmerkamp","postalCode":"24872","locality":"Groß Rheide","municipality":{"key":"01059035","name":"Groß Rheide","type":"Kreisangehörige_Gemeinde"},"district":{"key":"01059","name":"Schleswig-Flensburg","type":"Kreis"},"federalState":{"key":"01","name":"Schleswig-Holstein"}},{"name":"Weider Weg","postalCode":"24872","locality":"Groß Rheide","municipality":{"key":"01059035","name":"Groß Rheide","type":"Kreisangehörige_Gemeinde"},"district":{"key":"01059","name":"Schleswig-Flensburg","type":"Kreis"},"federalState":{"key":"01","name":"Schleswig-Holstein"}},{"name":"Wrom","postalCode":"24872","locality":"Groß Rheide","municipality":{"key":"01059035","name":"Groß Rheide","type":"Kreisangehörige_Gemeinde"},"district":{"key":"01059","name":"Schleswig-Flensburg","type":"Kreis"},"federalState":{"key":"01","name":"Schleswig-Holstein"}},]