[{"key":"10217334","name":"Abilonweg","postalCode":"4538","locality":"Oberbipp","commune":{"key":"983","name":"Oberbipp","shortName":"Oberbipp"},"district":{"key":"244","name":"Verwaltungskreis Oberaargau"},"canton":{"key":"2","code":"BE","name":"Bern / Berne"},"status":"Real"},{"key":"10138593","name":"Ahornweg","postalCode":"4538","locality":"Oberbipp","commune":{"key":"983","name":"Oberbipp","shortName":"Oberbipp"},"district":{"key":"244","name":"Verwaltungskreis Oberaargau"},"canton":{"key":"2","code":"BE","name":"Bern / Berne"},"status":"Real"},{"key":"10013095","name":"Alpenweg","postalCode":"4538","locality":"Oberbipp","commune":{"key":"983","name":"Oberbipp","shortName":"Oberbipp"},"district":{"key":"244","name":"Verwaltungskreis Oberaargau"},"canton":{"key":"2","code":"BE","name":"Bern / Berne"},"status":"Real"},{"key":"10219760","name":"Alter Sonnenrainweg","postalCode":"4538","locality":"Oberbipp","commune":{"key":"983","name":"Oberbipp","shortName":"Oberbipp"},"district":{"key":"244","name":"Verwaltungskreis Oberaargau"},"canton":{"key":"2","code":"BE","name":"Bern / Berne"},"status":"Real"},{"key":"10040044","name":"Amselweg","postalCode":"4538","locality":"Oberbipp","commune":{"key":"983","name":"Oberbipp","shortName":"Oberbipp"},"district":{"key":"244","name":"Verwaltungskreis Oberaargau"},"canton":{"key":"2","code":"BE","name":"Bern / Berne"},"status":"Real"},{"key":"10219764","name":"Antere","postalCode":"4538","locality":"Oberbipp","commune":{"key":"983","name":"Oberbipp","shortName":"Oberbipp"},"district":{"key":"244","name":"Verwaltungskreis Oberaargau"},"canton":{"key":"2","code":"BE","name":"Bern / Berne"},"status":"Real"},{"key":"10242641","name":"Autobahn","postalCode":"4538","locality":"Oberbipp","commune":{"key":"983","name":"Oberbipp","shortName":"Oberbipp"},"district":{"key":"244","name":"Verwaltungskreis Oberaargau"},"canton":{"key":"2","code":"BE","name":"Bern / Berne"},"status":"Real"},{"key":"10218957","name":"Bachtalenweg","postalCode":"4538","locality":"Oberbipp","commune":{"key":"983","name":"Oberbipp","shortName":"Oberbipp"},"district":{"key":"244","name":"Verwaltungskreis Oberaargau"},"canton":{"key":"2","code":"BE","name":"Bern / Berne"},"status":"Real"},{"key":"10013096","name":"Bachweg","postalCode":"4538","locality":"Oberbipp","commune":{"key":"983","name":"Oberbipp","shortName":"Oberbipp"},"district":{"key":"244","name":"Verwaltungskreis Oberaargau"},"canton":{"key":"2","code":"BE","name":"Bern / Berne"},"status":"Real"},{"key":"10013097","name":"Bahnhofstrasse","postalCode":"4538","locality":"Oberbipp","commune":{"key":"983","name":"Oberbipp","shortName":"Oberbipp"},"district":{"key":"244","name":"Verwaltungskreis Oberaargau"},"canton":{"key":"2","code":"BE","name":"Bern / Berne"},"status":"Real"},{"key":"10102753","name":"Bahnweg","postalCode":"4538","locality":"Oberbipp","commune":{"key":"983","name":"Oberbipp","shortName":"Oberbipp"},"district":{"key":"244","name":"Verwaltungskreis Oberaargau"},"canton":{"key":"2","code":"BE","name":"Bern / Berne"},"status":"Real"},{"key":"10219771","name":"Bettentalweg","postalCode":"4538","locality":"Oberbipp","commune":{"key":"983","name":"Oberbipp","shortName":"Oberbipp"},"district":{"key":"244","name":"Verwaltungskreis Oberaargau"},"canton":{"key":"2","code":"BE","name":"Bern / Berne"},"status":"Real"},{"key":"10013098","name":"Beundenstrasse","postalCode":"4538","locality":"Oberbipp","commune":{"key":"983","name":"Oberbipp","shortName":"Oberbipp"},"district":{"key":"244","name":"Verwaltungskreis Oberaargau"},"canton":{"key":"2","code":"BE","name":"Bern / Berne"},"status":"Real"},{"key":"10187157","name":"Bielstrasse","postalCode":"4538","locality":"Oberbipp","commune":{"key":"983","name":"Oberbipp","shortName":"Oberbipp"},"district":{"key":"244","name":"Verwaltungskreis Oberaargau"},"canton":{"key":"2","code":"BE","name":"Bern / Berne"},"status":"Real"},{"key":"10138594","name":"Birchlenstrasse","postalCode":"4538","locality":"Oberbipp","commune":{"key":"983","name":"Oberbipp","shortName":"Oberbipp"},"district":{"key":"244","name":"Verwaltungskreis Oberaargau"},"canton":{"key":"2","code":"BE","name":"Bern / Berne"},"status":"Real"},{"key":"10065228","name":"Birkenweg","postalCode":"4538","locality":"Oberbipp","commune":{"key":"983","name":"Oberbipp","shortName":"Oberbipp"},"district":{"key":"244","name":"Verwaltungskreis Oberaargau"},"canton":{"key":"2","code":"BE","name":"Bern / Berne"},"status":"Real"},{"key":"10082265","name":"Blumenweg","postalCode":"4538","locality":"Oberbipp","commune":{"key":"983","name":"Oberbipp","shortName":"Oberbipp"},"district":{"key":"244","name":"Verwaltungskreis Oberaargau"},"canton":{"key":"2","code":"BE","name":"Bern / Berne"},"status":"Real"},{"key":"10219776","name":"Bodenweg","postalCode":"4538","locality":"Oberbipp","commune":{"key":"983","name":"Oberbipp","shortName":"Oberbipp"},"district":{"key":"244","name":"Verwaltungskreis Oberaargau"},"canton":{"key":"2","code":"BE","name":"Bern / Berne"},"status":"Real"},{"key":"10082266","name":"Böliweg","postalCode":"4538","locality":"Oberbipp","commune":{"key":"983","name":"Oberbipp","shortName":"Oberbipp"},"district":{"key":"244","name":"Verwaltungskreis Oberaargau"},"canton":{"key":"2","code":"BE","name":"Bern / Berne"},"status":"Real"},{"key":"10040045","name":"Bollgasse","postalCode":"4538","locality":"Oberbipp","commune":{"key":"983","name":"Oberbipp","shortName":"Oberbipp"},"district":{"key":"244","name":"Verwaltungskreis Oberaargau"},"canton":{"key":"2","code":"BE","name":"Bern / Berne"},"status":"Real"},{"key":"10219780","name":"Brächbüelweg","postalCode":"4538","locality":"Oberbipp","commune":{"key":"983","name":"Oberbipp","shortName":"Oberbipp"},"district":{"key":"244","name":"Verwaltungskreis Oberaargau"},"canton":{"key":"2","code":"BE","name":"Bern / Berne"},"status":"Real"},{"key":"10180168","name":"Breitholzweg","postalCode":"4538","locality":"Oberbipp","commune":{"key":"983","name":"Oberbipp","shortName":"Oberbipp"},"district":{"key":"244","name":"Verwaltungskreis Oberaargau"},"canton":{"key":"2","code":"BE","name":"Bern / Berne"},"status":"Real"},{"key":"10013099","name":"Brühlgasse","postalCode":"4538","locality":"Oberbipp","commune":{"key":"983","name":"Oberbipp","shortName":"Oberbipp"},"district":{"key":"244","name":"Verwaltungskreis Oberaargau"},"canton":{"key":"2","code":"BE","name":"Bern / Berne"},"status":"Real"},{"key":"10217361","name":"Brünneliweg","postalCode":"4538","locality":"Oberbipp","commune":{"key":"983","name":"Oberbipp","shortName":"Oberbipp"},"district":{"key":"244","name":"Verwaltungskreis Oberaargau"},"canton":{"key":"2","code":"BE","name":"Bern / Berne"},"status":"Real"},{"key":"10104357","name":"Buchliweg","postalCode":"4538","locality":"Oberbipp","commune":{"key":"983","name":"Oberbipp","shortName":"Oberbipp"},"district":{"key":"244","name":"Verwaltungskreis Oberaargau"},"canton":{"key":"2","code":"BE","name":"Bern / Berne"},"status":"Real"},{"key":"10055861","name":"Byfangweg","postalCode":"4538","locality":"Oberbipp","commune":{"key":"983","name":"Oberbipp","shortName":"Oberbipp"},"district":{"key":"244","name":"Verwaltungskreis Oberaargau"},"canton":{"key":"2","code":"BE","name":"Bern / Berne"},"status":"Real"},{"key":"10217364","name":"Chälerrainweg","postalCode":"4538","locality":"Oberbipp","commune":{"key":"983","name":"Oberbipp","shortName":"Oberbipp"},"district":{"key":"244","name":"Verwaltungskreis Oberaargau"},"canton":{"key":"2","code":"BE","name":"Bern / Berne"},"status":"Real"},{"key":"10217368","name":"Cholbenmoosweg","postalCode":"4538","locality":"Oberbipp","commune":{"key":"983","name":"Oberbipp","shortName":"Oberbipp"},"district":{"key":"244","name":"Verwaltungskreis Oberaargau"},"canton":{"key":"2","code":"BE","name":"Bern / Berne"},"status":"Real"},{"key":"10138595","name":"Chräjenbüelweg","postalCode":"4538","locality":"Oberbipp","commune":{"key":"983","name":"Oberbipp","shortName":"Oberbipp"},"district":{"key":"244","name":"Verwaltungskreis Oberaargau"},"canton":{"key":"2","code":"BE","name":"Bern / Berne"},"status":"Real"},{"key":"10217372","name":"Dählenwäldliweg","postalCode":"4538","locality":"Oberbipp","commune":{"key":"983","name":"Oberbipp","shortName":"Oberbipp"},"district":{"key":"244","name":"Verwaltungskreis Oberaargau"},"canton":{"key":"2","code":"BE","name":"Bern / Berne"},"status":"Real"},{"key":"10217376","name":"Dammweg","postalCode":"4538","locality":"Oberbipp","commune":{"key":"983","name":"Oberbipp","shortName":"Oberbipp"},"district":{"key":"244","name":"Verwaltungskreis Oberaargau"},"canton":{"key":"2","code":"BE","name":"Bern / Berne"},"status":"Real"},{"key":"10065229","name":"Eichhofweg","postalCode":"4538","locality":"Oberbipp","commune":{"key":"983","name":"Oberbipp","shortName":"Oberbipp"},"district":{"key":"244","name":"Verwaltungskreis Oberaargau"},"canton":{"key":"2","code":"BE","name":"Bern / Berne"},"status":"Real"},{"key":"10217380","name":"Eichholzweg","postalCode":"4538","locality":"Oberbipp","commune":{"key":"983","name":"Oberbipp","shortName":"Oberbipp"},"district":{"key":"244","name":"Verwaltungskreis Oberaargau"},"canton":{"key":"2","code":"BE","name":"Bern / Berne"},"status":"Real"},{"key":"10055862","name":"Eienweg","postalCode":"4538","locality":"Oberbipp","commune":{"key":"983","name":"Oberbipp","shortName":"Oberbipp"},"district":{"key":"244","name":"Verwaltungskreis Oberaargau"},"canton":{"key":"2","code":"BE","name":"Bern / Berne"},"status":"Real"},{"key":"10217383","name":"Einisbüelweg","postalCode":"4538","locality":"Oberbipp","commune":{"key":"983","name":"Oberbipp","shortName":"Oberbipp"},"district":{"key":"244","name":"Verwaltungskreis Oberaargau"},"canton":{"key":"2","code":"BE","name":"Bern / Berne"},"status":"Real"},{"key":"10217386","name":"Einschlagweg","postalCode":"4538","locality":"Oberbipp","commune":{"key":"983","name":"Oberbipp","shortName":"Oberbipp"},"district":{"key":"244","name":"Verwaltungskreis Oberaargau"},"canton":{"key":"2","code":"BE","name":"Bern / Berne"},"status":"Real"},{"key":"10217389","name":"Elsternweg","postalCode":"4538","locality":"Oberbipp","commune":{"key":"983","name":"Oberbipp","shortName":"Oberbipp"},"district":{"key":"244","name":"Verwaltungskreis Oberaargau"},"canton":{"key":"2","code":"BE","name":"Bern / Berne"},"status":"Real"},{"key":"10217394","name":"Entenweg","postalCode":"4538","locality":"Oberbipp","commune":{"key":"983","name":"Oberbipp","shortName":"Oberbipp"},"district":{"key":"244","name":"Verwaltungskreis Oberaargau"},"canton":{"key":"2","code":"BE","name":"Bern / Berne"},"status":"Real"},{"key":"10217397","name":"Erlimoosweg","postalCode":"4538","locality":"Oberbipp","commune":{"key":"983","name":"Oberbipp","shortName":"Oberbipp"},"district":{"key":"244","name":"Verwaltungskreis Oberaargau"},"canton":{"key":"2","code":"BE","name":"Bern / Berne"},"status":"Real"},{"key":"10082267","name":"Falkenweg","postalCode":"4538","locality":"Oberbipp","commune":{"key":"983","name":"Oberbipp","shortName":"Oberbipp"},"district":{"key":"244","name":"Verwaltungskreis Oberaargau"},"canton":{"key":"2","code":"BE","name":"Bern / Berne"},"status":"Real"},{"key":"10013100","name":"Finkenweg","postalCode":"4538","locality":"Oberbipp","commune":{"key":"983","name":"Oberbipp","shortName":"Oberbipp"},"district":{"key":"244","name":"Verwaltungskreis Oberaargau"},"canton":{"key":"2","code":"BE","name":"Bern / Berne"},"status":"Real"},{"key":"10217401","name":"Flüeliweg","postalCode":"4538","locality":"Oberbipp","commune":{"key":"983","name":"Oberbipp","shortName":"Oberbipp"},"district":{"key":"244","name":"Verwaltungskreis Oberaargau"},"canton":{"key":"2","code":"BE","name":"Bern / Berne"},"status":"Real"},{"key":"10013101","name":"Gerbeweg","postalCode":"4538","locality":"Oberbipp","commune":{"key":"983","name":"Oberbipp","shortName":"Oberbipp"},"district":{"key":"244","name":"Verwaltungskreis Oberaargau"},"canton":{"key":"2","code":"BE","name":"Bern / Berne"},"status":"Real"},{"key":"10219835","name":"Gerstenweg","postalCode":"4538","locality":"Oberbipp","commune":{"key":"983","name":"Oberbipp","shortName":"Oberbipp"},"district":{"key":"244","name":"Verwaltungskreis Oberaargau"},"canton":{"key":"2","code":"BE","name":"Bern / Berne"},"status":"Real"},{"key":"10219840","name":"Graufluhweg","postalCode":"4538","locality":"Oberbipp","commune":{"key":"983","name":"Oberbipp","shortName":"Oberbipp"},"district":{"key":"244","name":"Verwaltungskreis Oberaargau"},"canton":{"key":"2","code":"BE","name":"Bern / Berne"},"status":"Real"},{"key":"10185812","name":"Grebliweg","postalCode":"4538","locality":"Oberbipp","commune":{"key":"983","name":"Oberbipp","shortName":"Oberbipp"},"district":{"key":"244","name":"Verwaltungskreis Oberaargau"},"canton":{"key":"2","code":"BE","name":"Bern / Berne"},"status":"Real"},{"key":"10217415","name":"Grubenweg","postalCode":"4538","locality":"Oberbipp","commune":{"key":"983","name":"Oberbipp","shortName":"Oberbipp"},"district":{"key":"244","name":"Verwaltungskreis Oberaargau"},"canton":{"key":"2","code":"BE","name":"Bern / Berne"},"status":"Real"},{"key":"10013102","name":"Gürbelweg","postalCode":"4538","locality":"Oberbipp","commune":{"key":"983","name":"Oberbipp","shortName":"Oberbipp"},"district":{"key":"244","name":"Verwaltungskreis Oberaargau"},"canton":{"key":"2","code":"BE","name":"Bern / Berne"},"status":"Real"},{"key":"10217419","name":"Gürbu","postalCode":"4538","locality":"Oberbipp","commune":{"key":"983","name":"Oberbipp","shortName":"Oberbipp"},"district":{"key":"244","name":"Verwaltungskreis Oberaargau"},"canton":{"key":"2","code":"BE","name":"Bern / Berne"},"status":"Real"},{"key":"10221057","name":"Güschelweg","postalCode":"4538","locality":"Oberbipp","commune":{"key":"983","name":"Oberbipp","shortName":"Oberbipp"},"district":{"key":"244","name":"Verwaltungskreis Oberaargau"},"canton":{"key":"2","code":"BE","name":"Bern / Berne"},"status":"Real"},{"key":"10138596","name":"Haagstelliweg","postalCode":"4538","locality":"Oberbipp","commune":{"key":"983","name":"Oberbipp","shortName":"Oberbipp"},"district":{"key":"244","name":"Verwaltungskreis Oberaargau"},"canton":{"key":"2","code":"BE","name":"Bern / Berne"},"status":"Real"},{"key":"10217427","name":"Haagweg","postalCode":"4538","locality":"Oberbipp","commune":{"key":"983","name":"Oberbipp","shortName":"Oberbipp"},"district":{"key":"244","name":"Verwaltungskreis Oberaargau"},"canton":{"key":"2","code":"BE","name":"Bern / Berne"},"status":"Real"},{"key":"10218751","name":"Hagenacherweg","postalCode":"4538","locality":"Oberbipp","commune":{"key":"983","name":"Oberbipp","shortName":"Oberbipp"},"district":{"key":"244","name":"Verwaltungskreis Oberaargau"},"canton":{"key":"2","code":"BE","name":"Bern / Berne"},"status":"Real"},{"key":"10042851","name":"Haldenweg","postalCode":"4538","locality":"Oberbipp","commune":{"key":"983","name":"Oberbipp","shortName":"Oberbipp"},"district":{"key":"244","name":"Verwaltungskreis Oberaargau"},"canton":{"key":"2","code":"BE","name":"Bern / Berne"},"status":"Real"},{"key":"10218755","name":"Hasenrainstrasse","postalCode":"4538","locality":"Oberbipp","commune":{"key":"983","name":"Oberbipp","shortName":"Oberbipp"},"district":{"key":"244","name":"Verwaltungskreis Oberaargau"},"canton":{"key":"2","code":"BE","name":"Bern / Berne"},"status":"Real"},{"key":"10013103","name":"Hasenweg","postalCode":"4538","locality":"Oberbipp","commune":{"key":"983","name":"Oberbipp","shortName":"Oberbipp"},"district":{"key":"244","name":"Verwaltungskreis Oberaargau"},"canton":{"key":"2","code":"BE","name":"Bern / Berne"},"status":"Real"},{"key":"10082268","name":"Herrengasse","postalCode":"4538","locality":"Oberbipp","commune":{"key":"983","name":"Oberbipp","shortName":"Oberbipp"},"district":{"key":"244","name":"Verwaltungskreis Oberaargau"},"canton":{"key":"2","code":"BE","name":"Bern / Berne"},"status":"Real"},{"key":"10218759","name":"Hölzliweg","postalCode":"4538","locality":"Oberbipp","commune":{"key":"983","name":"Oberbipp","shortName":"Oberbipp"},"district":{"key":"244","name":"Verwaltungskreis Oberaargau"},"canton":{"key":"2","code":"BE","name":"Bern / Berne"},"status":"Real"},{"key":"10218762","name":"Holzstrasse","postalCode":"4538","locality":"Oberbipp","commune":{"key":"983","name":"Oberbipp","shortName":"Oberbipp"},"district":{"key":"244","name":"Verwaltungskreis Oberaargau"},"canton":{"key":"2","code":"BE","name":"Bern / Berne"},"status":"Real"},{"key":"10218766","name":"Hühnergartenweg","postalCode":"4538","locality":"Oberbipp","commune":{"key":"983","name":"Oberbipp","shortName":"Oberbipp"},"district":{"key":"244","name":"Verwaltungskreis Oberaargau"},"canton":{"key":"2","code":"BE","name":"Bern / Berne"},"status":"Real"},{"key":"10180169","name":"Industriestrasse","postalCode":"4538","locality":"Oberbipp","commune":{"key":"983","name":"Oberbipp","shortName":"Oberbipp"},"district":{"key":"244","name":"Verwaltungskreis Oberaargau"},"canton":{"key":"2","code":"BE","name":"Bern / Berne"},"status":"Real"},{"key":"10065230","name":"Juraweg","postalCode":"4538","locality":"Oberbipp","commune":{"key":"983","name":"Oberbipp","shortName":"Oberbipp"},"district":{"key":"244","name":"Verwaltungskreis Oberaargau"},"canton":{"key":"2","code":"BE","name":"Bern / Berne"},"status":"Real"},{"key":"10218770","name":"Käferweg","postalCode":"4538","locality":"Oberbipp","commune":{"key":"983","name":"Oberbipp","shortName":"Oberbipp"},"district":{"key":"244","name":"Verwaltungskreis Oberaargau"},"canton":{"key":"2","code":"BE","name":"Bern / Berne"},"status":"Real"},{"key":"10123239","name":"Käsereiweg","postalCode":"4538","locality":"Oberbipp","commune":{"key":"983","name":"Oberbipp","shortName":"Oberbipp"},"district":{"key":"244","name":"Verwaltungskreis Oberaargau"},"canton":{"key":"2","code":"BE","name":"Bern / Berne"},"status":"Real"},{"key":"10013104","name":"Kirchgasse","postalCode":"4538","locality":"Oberbipp","commune":{"key":"983","name":"Oberbipp","shortName":"Oberbipp"},"district":{"key":"244","name":"Verwaltungskreis Oberaargau"},"canton":{"key":"2","code":"BE","name":"Bern / Berne"},"status":"Real"},{"key":"10218774","name":"Kirchweg","postalCode":"4538","locality":"Oberbipp","commune":{"key":"983","name":"Oberbipp","shortName":"Oberbipp"},"district":{"key":"244","name":"Verwaltungskreis Oberaargau"},"canton":{"key":"2","code":"BE","name":"Bern / Berne"},"status":"Real"},{"key":"10218779","name":"Läng-Elsi-Weg","postalCode":"4538","locality":"Oberbipp","commune":{"key":"983","name":"Oberbipp","shortName":"Oberbipp"},"district":{"key":"244","name":"Verwaltungskreis Oberaargau"},"canton":{"key":"2","code":"BE","name":"Bern / Berne"},"status":"Real"},{"key":"10218784","name":"Längwald","postalCode":"4538","locality":"Oberbipp","commune":{"key":"983","name":"Oberbipp","shortName":"Oberbipp"},"district":{"key":"244","name":"Verwaltungskreis Oberaargau"},"canton":{"key":"2","code":"BE","name":"Bern / Berne"},"status":"Real"},{"key":"10013105","name":"Lehmgrubenweg","postalCode":"4538","locality":"Oberbipp","commune":{"key":"983","name":"Oberbipp","shortName":"Oberbipp"},"district":{"key":"244","name":"Verwaltungskreis Oberaargau"},"canton":{"key":"2","code":"BE","name":"Bern / Berne"},"status":"Real"},{"key":"10187210","name":"Lerchenweg","postalCode":"4538","locality":"Oberbipp","commune":{"key":"983","name":"Oberbipp","shortName":"Oberbipp"},"district":{"key":"244","name":"Verwaltungskreis Oberaargau"},"canton":{"key":"2","code":"BE","name":"Bern / Berne"},"status":"Real"},{"key":"10218788","name":"Mätteliweg","postalCode":"4538","locality":"Oberbipp","commune":{"key":"983","name":"Oberbipp","shortName":"Oberbipp"},"district":{"key":"244","name":"Verwaltungskreis Oberaargau"},"canton":{"key":"2","code":"BE","name":"Bern / Berne"},"status":"Real"},{"key":"10218791","name":"Mattenweg","postalCode":"4538","locality":"Oberbipp","commune":{"key":"983","name":"Oberbipp","shortName":"Oberbipp"},"district":{"key":"244","name":"Verwaltungskreis Oberaargau"},"canton":{"key":"2","code":"BE","name":"Bern / Berne"},"status":"Real"},{"key":"10218795","name":"Meienbodeweg","postalCode":"4538","locality":"Oberbipp","commune":{"key":"983","name":"Oberbipp","shortName":"Oberbipp"},"district":{"key":"244","name":"Verwaltungskreis Oberaargau"},"canton":{"key":"2","code":"BE","name":"Bern / Berne"},"status":"Real"},{"key":"10189952","name":"Meisenweg","postalCode":"4538","locality":"Oberbipp","commune":{"key":"983","name":"Oberbipp","shortName":"Oberbipp"},"district":{"key":"244","name":"Verwaltungskreis Oberaargau"},"canton":{"key":"2","code":"BE","name":"Bern / Berne"},"status":"Real"},{"key":"10218799","name":"Mesiweg","postalCode":"4538","locality":"Oberbipp","commune":{"key":"983","name":"Oberbipp","shortName":"Oberbipp"},"district":{"key":"244","name":"Verwaltungskreis Oberaargau"},"canton":{"key":"2","code":"BE","name":"Bern / Berne"},"status":"Real"},{"key":"10013106","name":"Mettlenstrasse","postalCode":"4538","locality":"Oberbipp","commune":{"key":"983","name":"Oberbipp","shortName":"Oberbipp"},"district":{"key":"244","name":"Verwaltungskreis Oberaargau"},"canton":{"key":"2","code":"BE","name":"Bern / Berne"},"status":"Real"},{"key":"10138597","name":"Mittlererweg","postalCode":"4538","locality":"Oberbipp","commune":{"key":"983","name":"Oberbipp","shortName":"Oberbipp"},"district":{"key":"244","name":"Verwaltungskreis Oberaargau"},"canton":{"key":"2","code":"BE","name":"Bern / Berne"},"status":"Real"},{"key":"10218803","name":"Mohnweg","postalCode":"4538","locality":"Oberbipp","commune":{"key":"983","name":"Oberbipp","shortName":"Oberbipp"},"district":{"key":"244","name":"Verwaltungskreis Oberaargau"},"canton":{"key":"2","code":"BE","name":"Bern / Berne"},"status":"Real"},{"key":"10082269","name":"Moosgasse","postalCode":"4538","locality":"Oberbipp","commune":{"key":"983","name":"Oberbipp","shortName":"Oberbipp"},"district":{"key":"244","name":"Verwaltungskreis Oberaargau"},"canton":{"key":"2","code":"BE","name":"Bern / Berne"},"status":"Real"},{"key":"10218807","name":"Möösliweg","postalCode":"4538","locality":"Oberbipp","commune":{"key":"983","name":"Oberbipp","shortName":"Oberbipp"},"district":{"key":"244","name":"Verwaltungskreis Oberaargau"},"canton":{"key":"2","code":"BE","name":"Bern / Berne"},"status":"Real"},{"key":"10065231","name":"Mühlegasse","postalCode":"4538","locality":"Oberbipp","commune":{"key":"983","name":"Oberbipp","shortName":"Oberbipp"},"district":{"key":"244","name":"Verwaltungskreis Oberaargau"},"canton":{"key":"2","code":"BE","name":"Bern / Berne"},"status":"Real"},{"key":"10218811","name":"Müllers Weid","postalCode":"4538","locality":"Oberbipp","commune":{"key":"983","name":"Oberbipp","shortName":"Oberbipp"},"district":{"key":"244","name":"Verwaltungskreis Oberaargau"},"canton":{"key":"2","code":"BE","name":"Bern / Berne"},"status":"Real"},{"key":"10013107","name":"Murmeliweg","postalCode":"4538","locality":"Oberbipp","commune":{"key":"983","name":"Oberbipp","shortName":"Oberbipp"},"district":{"key":"244","name":"Verwaltungskreis Oberaargau"},"canton":{"key":"2","code":"BE","name":"Bern / Berne"},"status":"Real"},{"key":"10218815","name":"Neuer Sonnenrainweg","postalCode":"4538","locality":"Oberbipp","commune":{"key":"983","name":"Oberbipp","shortName":"Oberbipp"},"district":{"key":"244","name":"Verwaltungskreis Oberaargau"},"canton":{"key":"2","code":"BE","name":"Bern / Berne"},"status":"Real"},{"key":"10218819","name":"Neufeldweg","postalCode":"4538","locality":"Oberbipp","commune":{"key":"983","name":"Oberbipp","shortName":"Oberbipp"},"district":{"key":"244","name":"Verwaltungskreis Oberaargau"},"canton":{"key":"2","code":"BE","name":"Bern / Berne"},"status":"Real"},{"key":"10218823","name":"Neuweg","postalCode":"4538","locality":"Oberbipp","commune":{"key":"983","name":"Oberbipp","shortName":"Oberbipp"},"district":{"key":"244","name":"Verwaltungskreis Oberaargau"},"canton":{"key":"2","code":"BE","name":"Bern / Berne"},"status":"Real"},{"key":"10013108","name":"Niederbippstrasse","postalCode":"4538","locality":"Oberbipp","commune":{"key":"983","name":"Oberbipp","shortName":"Oberbipp"},"district":{"key":"244","name":"Verwaltungskreis Oberaargau"},"canton":{"key":"2","code":"BE","name":"Bern / Berne"},"status":"Real"},{"key":"10090320","name":"Niedermattstrasse","postalCode":"4538","locality":"Oberbipp","commune":{"key":"983","name":"Oberbipp","shortName":"Oberbipp"},"district":{"key":"244","name":"Verwaltungskreis Oberaargau"},"canton":{"key":"2","code":"BE","name":"Bern / Berne"},"status":"Real"},{"key":"10122521","name":"Obisgasse","postalCode":"4538","locality":"Oberbipp","commune":{"key":"983","name":"Oberbipp","shortName":"Oberbipp"},"district":{"key":"244","name":"Verwaltungskreis Oberaargau"},"canton":{"key":"2","code":"BE","name":"Bern / Berne"},"status":"Real"},{"key":"10013109","name":"Oltenstrasse","postalCode":"4538","locality":"Oberbipp","commune":{"key":"983","name":"Oberbipp","shortName":"Oberbipp"},"district":{"key":"244","name":"Verwaltungskreis Oberaargau"},"canton":{"key":"2","code":"BE","name":"Bern / Berne"},"status":"Real"},{"key":"10218826","name":"Pfadiweg","postalCode":"4538","locality":"Oberbipp","commune":{"key":"983","name":"Oberbipp","shortName":"Oberbipp"},"district":{"key":"244","name":"Verwaltungskreis Oberaargau"},"canton":{"key":"2","code":"BE","name":"Bern / Berne"},"status":"Real"},{"key":"10218830","name":"Pfaffengrabenweg","postalCode":"4538","locality":"Oberbipp","commune":{"key":"983","name":"Oberbipp","shortName":"Oberbipp"},"district":{"key":"244","name":"Verwaltungskreis Oberaargau"},"canton":{"key":"2","code":"BE","name":"Bern / Berne"},"status":"Real"},{"key":"10065232","name":"Pfaffentalweg","postalCode":"4538","locality":"Oberbipp","commune":{"key":"983","name":"Oberbipp","shortName":"Oberbipp"},"district":{"key":"244","name":"Verwaltungskreis Oberaargau"},"canton":{"key":"2","code":"BE","name":"Bern / Berne"},"status":"Real"},{"key":"10013110","name":"Poststrasse","postalCode":"4538","locality":"Oberbipp","commune":{"key":"983","name":"Oberbipp","shortName":"Oberbipp"},"district":{"key":"244","name":"Verwaltungskreis Oberaargau"},"canton":{"key":"2","code":"BE","name":"Bern / Berne"},"status":"Real"},{"key":"10218834","name":"Räckholderweg","postalCode":"4538","locality":"Oberbipp","commune":{"key":"983","name":"Oberbipp","shortName":"Oberbipp"},"district":{"key":"244","name":"Verwaltungskreis Oberaargau"},"canton":{"key":"2","code":"BE","name":"Bern / Berne"},"status":"Real"},{"key":"10090321","name":"Randfluhweg","postalCode":"4538","locality":"Oberbipp","commune":{"key":"983","name":"Oberbipp","shortName":"Oberbipp"},"district":{"key":"244","name":"Verwaltungskreis Oberaargau"},"canton":{"key":"2","code":"BE","name":"Bern / Berne"},"status":"Real"},{"key":"10219948","name":"Ränkholzweg","postalCode":"4538","locality":"Oberbipp","commune":{"key":"983","name":"Oberbipp","shortName":"Oberbipp"},"district":{"key":"244","name":"Verwaltungskreis Oberaargau"},"canton":{"key":"2","code":"BE","name":"Bern / Berne"},"status":"Real"},{"key":"10219952","name":"Rappenrainweg","postalCode":"4538","locality":"Oberbipp","commune":{"key":"983","name":"Oberbipp","shortName":"Oberbipp"},"district":{"key":"244","name":"Verwaltungskreis Oberaargau"},"canton":{"key":"2","code":"BE","name":"Bern / Berne"},"status":"Real"},{"key":"10219956","name":"Rastplatzweg","postalCode":"4538","locality":"Oberbipp","commune":{"key":"983","name":"Oberbipp","shortName":"Oberbipp"},"district":{"key":"244","name":"Verwaltungskreis Oberaargau"},"canton":{"key":"2","code":"BE","name":"Bern / Berne"},"status":"Real"},{"key":"10180170","name":"Rebenweg","postalCode":"4538","locality":"Oberbipp","commune":{"key":"983","name":"Oberbipp","shortName":"Oberbipp"},"district":{"key":"244","name":"Verwaltungskreis Oberaargau"},"canton":{"key":"2","code":"BE","name":"Bern / Berne"},"status":"Real"},{"key":"10134650","name":"Rehweg","postalCode":"4538","locality":"Oberbipp","commune":{"key":"983","name":"Oberbipp","shortName":"Oberbipp"},"district":{"key":"244","name":"Verwaltungskreis Oberaargau"},"canton":{"key":"2","code":"BE","name":"Bern / Berne"},"status":"Real"},{"key":"10219959","name":"Reiherweg","postalCode":"4538","locality":"Oberbipp","commune":{"key":"983","name":"Oberbipp","shortName":"Oberbipp"},"district":{"key":"244","name":"Verwaltungskreis Oberaargau"},"canton":{"key":"2","code":"BE","name":"Bern / Berne"},"status":"Real"},{"key":"10013111","name":"Riedweg","postalCode":"4538","locality":"Oberbipp","commune":{"key":"983","name":"Oberbipp","shortName":"Oberbipp"},"district":{"key":"244","name":"Verwaltungskreis Oberaargau"},"canton":{"key":"2","code":"BE","name":"Bern / Berne"},"status":"Real"},{"key":"10218849","name":"Roggenweg","postalCode":"4538","locality":"Oberbipp","commune":{"key":"983","name":"Oberbipp","shortName":"Oberbipp"},"district":{"key":"244","name":"Verwaltungskreis Oberaargau"},"canton":{"key":"2","code":"BE","name":"Bern / Berne"},"status":"Real"},{"key":"10013112","name":"Rosenweg","postalCode":"4538","locality":"Oberbipp","commune":{"key":"983","name":"Oberbipp","shortName":"Oberbipp"},"district":{"key":"244","name":"Verwaltungskreis Oberaargau"},"canton":{"key":"2","code":"BE","name":"Bern / Berne"},"status":"Real"},{"key":"10065233","name":"Rössliweg","postalCode":"4538","locality":"Oberbipp","commune":{"key":"983","name":"Oberbipp","shortName":"Oberbipp"},"district":{"key":"244","name":"Verwaltungskreis Oberaargau"},"canton":{"key":"2","code":"BE","name":"Bern / Berne"},"status":"Real"},{"key":"10218853","name":"Rumisbergstrasse","postalCode":"4538","locality":"Oberbipp","commune":{"key":"983","name":"Oberbipp","shortName":"Oberbipp"},"district":{"key":"244","name":"Verwaltungskreis Oberaargau"},"canton":{"key":"2","code":"BE","name":"Bern / Berne"},"status":"Real"},{"key":"10218857","name":"Rütiweg","postalCode":"4538","locality":"Oberbipp","commune":{"key":"983","name":"Oberbipp","shortName":"Oberbipp"},"district":{"key":"244","name":"Verwaltungskreis Oberaargau"},"canton":{"key":"2","code":"BE","name":"Bern / Berne"},"status":"Real"},{"key":"10218861","name":"Rützelenweg","postalCode":"4538","locality":"Oberbipp","commune":{"key":"983","name":"Oberbipp","shortName":"Oberbipp"},"district":{"key":"244","name":"Verwaltungskreis Oberaargau"},"canton":{"key":"2","code":"BE","name":"Bern / Berne"},"status":"Real"},{"key":"10218865","name":"Ruumiweg","postalCode":"4538","locality":"Oberbipp","commune":{"key":"983","name":"Oberbipp","shortName":"Oberbipp"},"district":{"key":"244","name":"Verwaltungskreis Oberaargau"},"canton":{"key":"2","code":"BE","name":"Bern / Berne"},"status":"Real"},{"key":"10180171","name":"Sägegasse","postalCode":"4538","locality":"Oberbipp","commune":{"key":"983","name":"Oberbipp","shortName":"Oberbipp"},"district":{"key":"244","name":"Verwaltungskreis Oberaargau"},"canton":{"key":"2","code":"BE","name":"Bern / Berne"},"status":"Real"},{"key":"10013116","name":"Sägetweg","postalCode":"4538","locality":"Oberbipp","commune":{"key":"983","name":"Oberbipp","shortName":"Oberbipp"},"district":{"key":"244","name":"Verwaltungskreis Oberaargau"},"canton":{"key":"2","code":"BE","name":"Bern / Berne"},"status":"Real"},{"key":"10218867","name":"Säuhubelweg","postalCode":"4538","locality":"Oberbipp","commune":{"key":"983","name":"Oberbipp","shortName":"Oberbipp"},"district":{"key":"244","name":"Verwaltungskreis Oberaargau"},"canton":{"key":"2","code":"BE","name":"Bern / Berne"},"status":"Real"},{"key":"10013113","name":"Schattenbergweg","postalCode":"4538","locality":"Oberbipp","commune":{"key":"983","name":"Oberbipp","shortName":"Oberbipp"},"district":{"key":"244","name":"Verwaltungskreis Oberaargau"},"canton":{"key":"2","code":"BE","name":"Bern / Berne"},"status":"Real"},{"key":"10090322","name":"Schlossstrasse","postalCode":"4538","locality":"Oberbipp","commune":{"key":"983","name":"Oberbipp","shortName":"Oberbipp"},"district":{"key":"244","name":"Verwaltungskreis Oberaargau"},"canton":{"key":"2","code":"BE","name":"Bern / Berne"},"status":"Real"},{"key":"10218871","name":"Schlundweg","postalCode":"4538","locality":"Oberbipp","commune":{"key":"983","name":"Oberbipp","shortName":"Oberbipp"},"district":{"key":"244","name":"Verwaltungskreis Oberaargau"},"canton":{"key":"2","code":"BE","name":"Bern / Berne"},"status":"Real"},{"key":"10013114","name":"Schmiedengasse","postalCode":"4538","locality":"Oberbipp","commune":{"key":"983","name":"Oberbipp","shortName":"Oberbipp"},"district":{"key":"244","name":"Verwaltungskreis Oberaargau"},"canton":{"key":"2","code":"BE","name":"Bern / Berne"},"status":"Real"},{"key":"10219997","name":"Schrägweg","postalCode":"4538","locality":"Oberbipp","commune":{"key":"983","name":"Oberbipp","shortName":"Oberbipp"},"district":{"key":"244","name":"Verwaltungskreis Oberaargau"},"canton":{"key":"2","code":"BE","name":"Bern / Berne"},"status":"Real"},{"key":"10138599","name":"Schützenweg","postalCode":"4538","locality":"Oberbipp","commune":{"key":"983","name":"Oberbipp","shortName":"Oberbipp"},"district":{"key":"244","name":"Verwaltungskreis Oberaargau"},"canton":{"key":"2","code":"BE","name":"Bern / Berne"},"status":"Real"},{"key":"10189953","name":"Seilerweg","postalCode":"4538","locality":"Oberbipp","commune":{"key":"983","name":"Oberbipp","shortName":"Oberbipp"},"district":{"key":"244","name":"Verwaltungskreis Oberaargau"},"canton":{"key":"2","code":"BE","name":"Bern / Berne"},"status":"Real"},{"key":"10220001","name":"Siedlungsweg","postalCode":"4538","locality":"Oberbipp","commune":{"key":"983","name":"Oberbipp","shortName":"Oberbipp"},"district":{"key":"244","name":"Verwaltungskreis Oberaargau"},"canton":{"key":"2","code":"BE","name":"Bern / Berne"},"status":"Real"},{"key":"10135543","name":"Sonnenweg","postalCode":"4538","locality":"Oberbipp","commune":{"key":"983","name":"Oberbipp","shortName":"Oberbipp"},"district":{"key":"244","name":"Verwaltungskreis Oberaargau"},"canton":{"key":"2","code":"BE","name":"Bern / Berne"},"status":"Real"},{"key":"10138598","name":"Sportplatzweg","postalCode":"4538","locality":"Oberbipp","commune":{"key":"983","name":"Oberbipp","shortName":"Oberbipp"},"district":{"key":"244","name":"Verwaltungskreis Oberaargau"},"canton":{"key":"2","code":"BE","name":"Bern / Berne"},"status":"Real"},{"key":"10220005","name":"Staldenrain","postalCode":"4538","locality":"Oberbipp","commune":{"key":"983","name":"Oberbipp","shortName":"Oberbipp"},"district":{"key":"244","name":"Verwaltungskreis Oberaargau"},"canton":{"key":"2","code":"BE","name":"Bern / Berne"},"status":"Real"},{"key":"10065234","name":"Staldenstrasse","postalCode":"4538","locality":"Oberbipp","commune":{"key":"983","name":"Oberbipp","shortName":"Oberbipp"},"district":{"key":"244","name":"Verwaltungskreis Oberaargau"},"canton":{"key":"2","code":"BE","name":"Bern / Berne"},"status":"Real"},{"key":"10220009","name":"Steinacherweg","postalCode":"4538","locality":"Oberbipp","commune":{"key":"983","name":"Oberbipp","shortName":"Oberbipp"},"district":{"key":"244","name":"Verwaltungskreis Oberaargau"},"canton":{"key":"2","code":"BE","name":"Bern / Berne"},"status":"Real"},{"key":"10013115","name":"Steingasse","postalCode":"4538","locality":"Oberbipp","commune":{"key":"983","name":"Oberbipp","shortName":"Oberbipp"},"district":{"key":"244","name":"Verwaltungskreis Oberaargau"},"canton":{"key":"2","code":"BE","name":"Bern / Berne"},"status":"Real"},{"key":"10220013","name":"Stelliweg","postalCode":"4538","locality":"Oberbipp","commune":{"key":"983","name":"Oberbipp","shortName":"Oberbipp"},"district":{"key":"244","name":"Verwaltungskreis Oberaargau"},"canton":{"key":"2","code":"BE","name":"Bern / Berne"},"status":"Real"},{"key":"10090323","name":"Stierenweidstrasse","postalCode":"4538","locality":"Oberbipp","commune":{"key":"983","name":"Oberbipp","shortName":"Oberbipp"},"district":{"key":"244","name":"Verwaltungskreis Oberaargau"},"canton":{"key":"2","code":"BE","name":"Bern / Berne"},"status":"Real"},{"key":"10065235","name":"Talackerstrasse","postalCode":"4538","locality":"Oberbipp","commune":{"key":"983","name":"Oberbipp","shortName":"Oberbipp"},"district":{"key":"244","name":"Verwaltungskreis Oberaargau"},"canton":{"key":"2","code":"BE","name":"Bern / Berne"},"status":"Real"},{"key":"10220016","name":"Tällenweg","postalCode":"4538","locality":"Oberbipp","commune":{"key":"983","name":"Oberbipp","shortName":"Oberbipp"},"district":{"key":"244","name":"Verwaltungskreis Oberaargau"},"canton":{"key":"2","code":"BE","name":"Bern / Berne"},"status":"Real"},{"key":"10013117","name":"Tulpenweg","postalCode":"4538","locality":"Oberbipp","commune":{"key":"983","name":"Oberbipp","shortName":"Oberbipp"},"district":{"key":"244","name":"Verwaltungskreis Oberaargau"},"canton":{"key":"2","code":"BE","name":"Bern / Berne"},"status":"Real"},{"key":"10186164","name":"Ueberführungsstrasse","postalCode":"4538","locality":"Oberbipp","commune":{"key":"983","name":"Oberbipp","shortName":"Oberbipp"},"district":{"key":"244","name":"Verwaltungskreis Oberaargau"},"canton":{"key":"2","code":"BE","name":"Bern / Berne"},"status":"Real"},{"key":"10242468","name":"Unterführungsstrasse","postalCode":"4538","locality":"Oberbipp","commune":{"key":"983","name":"Oberbipp","shortName":"Oberbipp"},"district":{"key":"244","name":"Verwaltungskreis Oberaargau"},"canton":{"key":"2","code":"BE","name":"Bern / Berne"},"status":"Real"},{"key":"10013118","name":"Untergasse","postalCode":"4538","locality":"Oberbipp","commune":{"key":"983","name":"Oberbipp","shortName":"Oberbipp"},"district":{"key":"244","name":"Verwaltungskreis Oberaargau"},"canton":{"key":"2","code":"BE","name":"Bern / Berne"},"status":"Real"},{"key":"10221248","name":"Vogelrainweg","postalCode":"4538","locality":"Oberbipp","commune":{"key":"983","name":"Oberbipp","shortName":"Oberbipp"},"district":{"key":"244","name":"Verwaltungskreis Oberaargau"},"canton":{"key":"2","code":"BE","name":"Bern / Berne"},"status":"Real"},{"key":"10221250","name":"Waldhüttenweg","postalCode":"4538","locality":"Oberbipp","commune":{"key":"983","name":"Oberbipp","shortName":"Oberbipp"},"district":{"key":"244","name":"Verwaltungskreis Oberaargau"},"canton":{"key":"2","code":"BE","name":"Bern / Berne"},"status":"Real"},{"key":"10090324","name":"Wangerweg","postalCode":"4538","locality":"Oberbipp","commune":{"key":"983","name":"Oberbipp","shortName":"Oberbipp"},"district":{"key":"244","name":"Verwaltungskreis Oberaargau"},"canton":{"key":"2","code":"BE","name":"Bern / Berne"},"status":"Real"},{"key":"10221256","name":"Wäspiacherweg","postalCode":"4538","locality":"Oberbipp","commune":{"key":"983","name":"Oberbipp","shortName":"Oberbipp"},"district":{"key":"244","name":"Verwaltungskreis Oberaargau"},"canton":{"key":"2","code":"BE","name":"Bern / Berne"},"status":"Real"},{"key":"10113132","name":"Weihergasse","postalCode":"4538","locality":"Oberbipp","commune":{"key":"983","name":"Oberbipp","shortName":"Oberbipp"},"district":{"key":"244","name":"Verwaltungskreis Oberaargau"},"canton":{"key":"2","code":"BE","name":"Bern / Berne"},"status":"Real"},{"key":"10221258","name":"Weizenweg","postalCode":"4538","locality":"Oberbipp","commune":{"key":"983","name":"Oberbipp","shortName":"Oberbipp"},"district":{"key":"244","name":"Verwaltungskreis Oberaargau"},"canton":{"key":"2","code":"BE","name":"Bern / Berne"},"status":"Real"},{"key":"10221262","name":"Weyerliweg","postalCode":"4538","locality":"Oberbipp","commune":{"key":"983","name":"Oberbipp","shortName":"Oberbipp"},"district":{"key":"244","name":"Verwaltungskreis Oberaargau"},"canton":{"key":"2","code":"BE","name":"Bern / Berne"},"status":"Real"},{"key":"10013119","name":"Widmeweg","postalCode":"4538","locality":"Oberbipp","commune":{"key":"983","name":"Oberbipp","shortName":"Oberbipp"},"district":{"key":"244","name":"Verwaltungskreis Oberaargau"},"canton":{"key":"2","code":"BE","name":"Bern / Berne"},"status":"Real"},{"key":"10065236","name":"Wiedlisbachstrasse","postalCode":"4538","locality":"Oberbipp","commune":{"key":"983","name":"Oberbipp","shortName":"Oberbipp"},"district":{"key":"244","name":"Verwaltungskreis Oberaargau"},"canton":{"key":"2","code":"BE","name":"Bern / Berne"},"status":"Real"},{"key":"10138600","name":"Wolfisbergstrasse","postalCode":"4538","locality":"Oberbipp","commune":{"key":"983","name":"Oberbipp","shortName":"Oberbipp"},"district":{"key":"244","name":"Verwaltungskreis Oberaargau"},"canton":{"key":"2","code":"BE","name":"Bern / Berne"},"status":"Real"},{"key":"10013120","name":"Wydenweg","postalCode":"4538","locality":"Oberbipp","commune":{"key":"983","name":"Oberbipp","shortName":"Oberbipp"},"district":{"key":"244","name":"Verwaltungskreis Oberaargau"},"canton":{"key":"2","code":"BE","name":"Bern / Berne"},"status":"Real"},{"key":"10221266","name":"Ziegelhüttenweg","postalCode":"4538","locality":"Oberbipp","commune":{"key":"983","name":"Oberbipp","shortName":"Oberbipp"},"district":{"key":"244","name":"Verwaltungskreis Oberaargau"},"canton":{"key":"2","code":"BE","name":"Bern / Berne"},"status":"Real"},]