[{"name":"Ackerweg","postalCode":"56858","locality":"Altlay","municipality":{"key":"07135003","name":"Altlay","type":"Kreisangehörige_Gemeinde"},"district":{"key":"07135","name":"Cochem-Zell","type":"Landkreis"},"federalState":{"key":"07","name":"Rheinland-Pfalz"}},{"name":"Breitenweg","postalCode":"56858","locality":"Altlay","municipality":{"key":"07135003","name":"Altlay","type":"Kreisangehörige_Gemeinde"},"district":{"key":"07135","name":"Cochem-Zell","type":"Landkreis"},"federalState":{"key":"07","name":"Rheinland-Pfalz"}},{"name":"Fuchsstr.","postalCode":"56858","locality":"Altlay","municipality":{"key":"07135003","name":"Altlay","type":"Kreisangehörige_Gemeinde"},"district":{"key":"07135","name":"Cochem-Zell","type":"Landkreis"},"federalState":{"key":"07","name":"Rheinland-Pfalz"}},{"name":"Grubenstr.","postalCode":"56858","locality":"Altlay","municipality":{"key":"07135003","name":"Altlay","type":"Kreisangehörige_Gemeinde"},"district":{"key":"07135","name":"Cochem-Zell","type":"Landkreis"},"federalState":{"key":"07","name":"Rheinland-Pfalz"}},{"name":"Hauptstr.","postalCode":"56858","locality":"Altlay","municipality":{"key":"07135003","name":"Altlay","type":"Kreisangehörige_Gemeinde"},"district":{"key":"07135","name":"Cochem-Zell","type":"Landkreis"},"federalState":{"key":"07","name":"Rheinland-Pfalz"}},{"name":"Im Brühl","postalCode":"56858","locality":"Altlay","municipality":{"key":"07135003","name":"Altlay","type":"Kreisangehörige_Gemeinde"},"district":{"key":"07135","name":"Cochem-Zell","type":"Landkreis"},"federalState":{"key":"07","name":"Rheinland-Pfalz"}},{"name":"Im Kammbach","postalCode":"56858","locality":"Altlay","municipality":{"key":"07135003","name":"Altlay","type":"Kreisangehörige_Gemeinde"},"district":{"key":"07135","name":"Cochem-Zell","type":"Landkreis"},"federalState":{"key":"07","name":"Rheinland-Pfalz"}},{"name":"In der Frächt","postalCode":"56858","locality":"Altlay","municipality":{"key":"07135003","name":"Altlay","type":"Kreisangehörige_Gemeinde"},"district":{"key":"07135","name":"Cochem-Zell","type":"Landkreis"},"federalState":{"key":"07","name":"Rheinland-Pfalz"}},{"name":"Kuhtrift","postalCode":"56858","locality":"Altlay","municipality":{"key":"07135003","name":"Altlay","type":"Kreisangehörige_Gemeinde"},"district":{"key":"07135","name":"Cochem-Zell","type":"Landkreis"},"federalState":{"key":"07","name":"Rheinland-Pfalz"}},{"name":"Oberkammbach","postalCode":"56858","locality":"Altlay","municipality":{"key":"07135003","name":"Altlay","type":"Kreisangehörige_Gemeinde"},"district":{"key":"07135","name":"Cochem-Zell","type":"Landkreis"},"federalState":{"key":"07","name":"Rheinland-Pfalz"}},]