[{"key":"10202883","name":"A4","postalCode":"8460","locality":"Marthalen","commune":{"key":"35","name":"Marthalen","shortName":"Marthalen"},"district":{"key":"102","name":"Bezirk Andelfingen"},"canton":{"key":"1","code":"ZH","name":"Zürich"},"status":"Real"},{"key":"10118081","name":"Abischthof","postalCode":"8460","locality":"Marthalen","commune":{"key":"35","name":"Marthalen","shortName":"Marthalen"},"district":{"key":"102","name":"Bezirk Andelfingen"},"canton":{"key":"1","code":"ZH","name":"Zürich"},"status":"Real"},{"key":"10119846","name":"Abischtweg","postalCode":"8460","locality":"Marthalen","commune":{"key":"35","name":"Marthalen","shortName":"Marthalen"},"district":{"key":"102","name":"Bezirk Andelfingen"},"canton":{"key":"1","code":"ZH","name":"Zürich"},"status":"Real"},{"key":"10002116","name":"A de Stäge","postalCode":"8460","locality":"Marthalen","commune":{"key":"35","name":"Marthalen","shortName":"Marthalen"},"district":{"key":"102","name":"Bezirk Andelfingen"},"canton":{"key":"1","code":"ZH","name":"Zürich"},"status":"Real"},{"key":"10057343","name":"Altemerstrass","postalCode":"8460","locality":"Marthalen","commune":{"key":"35","name":"Marthalen","shortName":"Marthalen"},"district":{"key":"102","name":"Bezirk Andelfingen"},"canton":{"key":"1","code":"ZH","name":"Zürich"},"status":"Real"},{"key":"10142288","name":"Altenerstrass","postalCode":"8460","locality":"Marthalen","commune":{"key":"35","name":"Marthalen","shortName":"Marthalen"},"district":{"key":"102","name":"Bezirk Andelfingen"},"canton":{"key":"1","code":"ZH","name":"Zürich"},"status":"Real"},{"key":"10099749","name":"Alti Ruedelfingerstrass","postalCode":"8460","locality":"Marthalen","commune":{"key":"35","name":"Marthalen","shortName":"Marthalen"},"district":{"key":"102","name":"Bezirk Andelfingen"},"canton":{"key":"1","code":"ZH","name":"Zürich"},"status":"Real"},{"key":"10080945","name":"Am Gässli","postalCode":"8460","locality":"Marthalen","commune":{"key":"35","name":"Marthalen","shortName":"Marthalen"},"district":{"key":"102","name":"Bezirk Andelfingen"},"canton":{"key":"1","code":"ZH","name":"Zürich"},"status":"Real"},{"key":"10002117","name":"Andelfingerstrass","postalCode":"8460","locality":"Marthalen","commune":{"key":"35","name":"Marthalen","shortName":"Marthalen"},"district":{"key":"102","name":"Bezirk Andelfingen"},"canton":{"key":"1","code":"ZH","name":"Zürich"},"status":"Real"},{"key":"10202884","name":"Armenfeldweg","postalCode":"8460","locality":"Marthalen","commune":{"key":"35","name":"Marthalen","shortName":"Marthalen"},"district":{"key":"102","name":"Bezirk Andelfingen"},"canton":{"key":"1","code":"ZH","name":"Zürich"},"status":"Real"},{"key":"10202885","name":"Bachweg","postalCode":"8460","locality":"Marthalen","commune":{"key":"35","name":"Marthalen","shortName":"Marthalen"},"district":{"key":"102","name":"Bezirk Andelfingen"},"canton":{"key":"1","code":"ZH","name":"Zürich"},"status":"Real"},{"key":"10202886","name":"Bachwegli","postalCode":"8460","locality":"Marthalen","commune":{"key":"35","name":"Marthalen","shortName":"Marthalen"},"district":{"key":"102","name":"Bezirk Andelfingen"},"canton":{"key":"1","code":"ZH","name":"Zürich"},"status":"Real"},{"key":"10189846","name":"Bahnhofstrass","postalCode":"8460","locality":"Marthalen","commune":{"key":"35","name":"Marthalen","shortName":"Marthalen"},"district":{"key":"102","name":"Bezirk Andelfingen"},"canton":{"key":"1","code":"ZH","name":"Zürich"},"status":"Real"},{"key":"10057344","name":"Bahnweg","postalCode":"8460","locality":"Marthalen","commune":{"key":"35","name":"Marthalen","shortName":"Marthalen"},"district":{"key":"102","name":"Bezirk Andelfingen"},"canton":{"key":"1","code":"ZH","name":"Zürich"},"status":"Real"},{"key":"10200197","name":"Barärgetenweg","postalCode":"8460","locality":"Marthalen","commune":{"key":"35","name":"Marthalen","shortName":"Marthalen"},"district":{"key":"102","name":"Bezirk Andelfingen"},"canton":{"key":"1","code":"ZH","name":"Zürich"},"status":"Real"},{"key":"10080946","name":"Bärchistrass","postalCode":"8460","locality":"Marthalen","commune":{"key":"35","name":"Marthalen","shortName":"Marthalen"},"district":{"key":"102","name":"Bezirk Andelfingen"},"canton":{"key":"1","code":"ZH","name":"Zürich"},"status":"Real"},{"key":"10158707","name":"Benkemerstrass","postalCode":"8460","locality":"Marthalen","commune":{"key":"35","name":"Marthalen","shortName":"Marthalen"},"district":{"key":"102","name":"Bezirk Andelfingen"},"canton":{"key":"1","code":"ZH","name":"Zürich"},"status":"Real"},{"key":"10238137","name":"Bergbuckstrass","postalCode":"8460","locality":"Marthalen","commune":{"key":"35","name":"Marthalen","shortName":"Marthalen"},"district":{"key":"102","name":"Bezirk Andelfingen"},"canton":{"key":"1","code":"ZH","name":"Zürich"},"status":"Real"},{"key":"10202887","name":"Bocktezelgli","postalCode":"8460","locality":"Marthalen","commune":{"key":"35","name":"Marthalen","shortName":"Marthalen"},"district":{"key":"102","name":"Bezirk Andelfingen"},"canton":{"key":"1","code":"ZH","name":"Zürich"},"status":"Real"},{"key":"10202888","name":"Bötzenweg","postalCode":"8460","locality":"Marthalen","commune":{"key":"35","name":"Marthalen","shortName":"Marthalen"},"district":{"key":"102","name":"Bezirk Andelfingen"},"canton":{"key":"1","code":"ZH","name":"Zürich"},"status":"Real"},{"key":"10200137","name":"Breitenweg","postalCode":"8460","locality":"Marthalen","commune":{"key":"35","name":"Marthalen","shortName":"Marthalen"},"district":{"key":"102","name":"Bezirk Andelfingen"},"canton":{"key":"1","code":"ZH","name":"Zürich"},"status":"Real"},{"key":"10111171","name":"Breitistrass","postalCode":"8460","locality":"Marthalen","commune":{"key":"35","name":"Marthalen","shortName":"Marthalen"},"district":{"key":"102","name":"Bezirk Andelfingen"},"canton":{"key":"1","code":"ZH","name":"Zürich"},"status":"Real"},{"key":"10002118","name":"Brunnehof","postalCode":"8460","locality":"Marthalen","commune":{"key":"35","name":"Marthalen","shortName":"Marthalen"},"district":{"key":"102","name":"Bezirk Andelfingen"},"canton":{"key":"1","code":"ZH","name":"Zürich"},"status":"Real"},{"key":"10238131","name":"Brunnetalstrass","postalCode":"8460","locality":"Marthalen","commune":{"key":"35","name":"Marthalen","shortName":"Marthalen"},"district":{"key":"102","name":"Bezirk Andelfingen"},"canton":{"key":"1","code":"ZH","name":"Zürich"},"status":"Real"},{"key":"10202890","name":"Buechbergbuckweg","postalCode":"8460","locality":"Marthalen","commune":{"key":"35","name":"Marthalen","shortName":"Marthalen"},"district":{"key":"102","name":"Bezirk Andelfingen"},"canton":{"key":"1","code":"ZH","name":"Zürich"},"status":"Real"},{"key":"10202891","name":"Buechbergstrass","postalCode":"8460","locality":"Marthalen","commune":{"key":"35","name":"Marthalen","shortName":"Marthalen"},"district":{"key":"102","name":"Bezirk Andelfingen"},"canton":{"key":"1","code":"ZH","name":"Zürich"},"status":"Real"},{"key":"10238130","name":"Buechhaldestrass","postalCode":"8460","locality":"Marthalen","commune":{"key":"35","name":"Marthalen","shortName":"Marthalen"},"district":{"key":"102","name":"Bezirk Andelfingen"},"canton":{"key":"1","code":"ZH","name":"Zürich"},"status":"Real"},{"key":"10002119","name":"Büelrain","postalCode":"8460","locality":"Marthalen","commune":{"key":"35","name":"Marthalen","shortName":"Marthalen"},"district":{"key":"102","name":"Bezirk Andelfingen"},"canton":{"key":"1","code":"ZH","name":"Zürich"},"status":"Real"},{"key":"10238128","name":"Bützistrass","postalCode":"8460","locality":"Marthalen","commune":{"key":"35","name":"Marthalen","shortName":"Marthalen"},"district":{"key":"102","name":"Bezirk Andelfingen"},"canton":{"key":"1","code":"ZH","name":"Zürich"},"status":"Real"},{"key":"10202892","name":"Chatzewegli","postalCode":"8460","locality":"Marthalen","commune":{"key":"35","name":"Marthalen","shortName":"Marthalen"},"district":{"key":"102","name":"Bezirk Andelfingen"},"canton":{"key":"1","code":"ZH","name":"Zürich"},"status":"Real"},{"key":"10238126","name":"Chilchbüelstrass","postalCode":"8460","locality":"Marthalen","commune":{"key":"35","name":"Marthalen","shortName":"Marthalen"},"district":{"key":"102","name":"Bezirk Andelfingen"},"canton":{"key":"1","code":"ZH","name":"Zürich"},"status":"Real"},{"key":"10202893","name":"Chilchhaldenweg","postalCode":"8460","locality":"Marthalen","commune":{"key":"35","name":"Marthalen","shortName":"Marthalen"},"district":{"key":"102","name":"Bezirk Andelfingen"},"canton":{"key":"1","code":"ZH","name":"Zürich"},"status":"Real"},{"key":"10202894","name":"Chilchholzweg","postalCode":"8460","locality":"Marthalen","commune":{"key":"35","name":"Marthalen","shortName":"Marthalen"},"district":{"key":"102","name":"Bezirk Andelfingen"},"canton":{"key":"1","code":"ZH","name":"Zürich"},"status":"Real"},{"key":"10119787","name":"Chinzenhalde","postalCode":"8460","locality":"Marthalen","commune":{"key":"35","name":"Marthalen","shortName":"Marthalen"},"district":{"key":"102","name":"Bezirk Andelfingen"},"canton":{"key":"1","code":"ZH","name":"Zürich"},"status":"Real"},{"key":"10202895","name":"Chinzenstrass","postalCode":"8460","locality":"Marthalen","commune":{"key":"35","name":"Marthalen","shortName":"Marthalen"},"district":{"key":"102","name":"Bezirk Andelfingen"},"canton":{"key":"1","code":"ZH","name":"Zürich"},"status":"Real"},{"key":"10002120","name":"Chürbleweg","postalCode":"8460","locality":"Marthalen","commune":{"key":"35","name":"Marthalen","shortName":"Marthalen"},"district":{"key":"102","name":"Bezirk Andelfingen"},"canton":{"key":"1","code":"ZH","name":"Zürich"},"status":"Real"},{"key":"10057345","name":"Dammweg","postalCode":"8460","locality":"Marthalen","commune":{"key":"35","name":"Marthalen","shortName":"Marthalen"},"district":{"key":"102","name":"Bezirk Andelfingen"},"canton":{"key":"1","code":"ZH","name":"Zürich"},"status":"Real"},{"key":"10202896","name":"Eichweg","postalCode":"8460","locality":"Marthalen","commune":{"key":"35","name":"Marthalen","shortName":"Marthalen"},"district":{"key":"102","name":"Bezirk Andelfingen"},"canton":{"key":"1","code":"ZH","name":"Zürich"},"status":"Real"},{"key":"10203119","name":"Elliker Grenzweg","postalCode":"8460","locality":"Marthalen","commune":{"key":"35","name":"Marthalen","shortName":"Marthalen"},"district":{"key":"102","name":"Bezirk Andelfingen"},"canton":{"key":"1","code":"ZH","name":"Zürich"},"status":"Real"},{"key":"10142294","name":"Ellikerstrass","postalCode":"8460","locality":"Marthalen","commune":{"key":"35","name":"Marthalen","shortName":"Marthalen"},"district":{"key":"102","name":"Bezirk Andelfingen"},"canton":{"key":"1","code":"ZH","name":"Zürich"},"status":"Real"},{"key":"10203120","name":"Ellikerweg","postalCode":"8460","locality":"Marthalen","commune":{"key":"35","name":"Marthalen","shortName":"Marthalen"},"district":{"key":"102","name":"Bezirk Andelfingen"},"canton":{"key":"1","code":"ZH","name":"Zürich"},"status":"Real"},{"key":"10203121","name":"Fallentorweg","postalCode":"8460","locality":"Marthalen","commune":{"key":"35","name":"Marthalen","shortName":"Marthalen"},"district":{"key":"102","name":"Bezirk Andelfingen"},"canton":{"key":"1","code":"ZH","name":"Zürich"},"status":"Real"},{"key":"10161365","name":"Flaacherweg","postalCode":"8460","locality":"Marthalen","commune":{"key":"35","name":"Marthalen","shortName":"Marthalen"},"district":{"key":"102","name":"Bezirk Andelfingen"},"canton":{"key":"1","code":"ZH","name":"Zürich"},"status":"Real"},{"key":"10238136","name":"Fleudebüelbuckstrass","postalCode":"8460","locality":"Marthalen","commune":{"key":"35","name":"Marthalen","shortName":"Marthalen"},"district":{"key":"102","name":"Bezirk Andelfingen"},"canton":{"key":"1","code":"ZH","name":"Zürich"},"status":"Real"},{"key":"10002121","name":"Fohlochstrass","postalCode":"8460","locality":"Marthalen","commune":{"key":"35","name":"Marthalen","shortName":"Marthalen"},"district":{"key":"102","name":"Bezirk Andelfingen"},"canton":{"key":"1","code":"ZH","name":"Zürich"},"status":"Real"},{"key":"10203123","name":"Fosenackerweg","postalCode":"8460","locality":"Marthalen","commune":{"key":"35","name":"Marthalen","shortName":"Marthalen"},"district":{"key":"102","name":"Bezirk Andelfingen"},"canton":{"key":"1","code":"ZH","name":"Zürich"},"status":"Real"},{"key":"10200198","name":"Gehrquerweg","postalCode":"8460","locality":"Marthalen","commune":{"key":"35","name":"Marthalen","shortName":"Marthalen"},"district":{"key":"102","name":"Bezirk Andelfingen"},"canton":{"key":"1","code":"ZH","name":"Zürich"},"status":"Real"},{"key":"10203124","name":"Geissenhäueli","postalCode":"8460","locality":"Marthalen","commune":{"key":"35","name":"Marthalen","shortName":"Marthalen"},"district":{"key":"102","name":"Bezirk Andelfingen"},"canton":{"key":"1","code":"ZH","name":"Zürich"},"status":"Real"},{"key":"10203125","name":"Geisserthaldenweg","postalCode":"8460","locality":"Marthalen","commune":{"key":"35","name":"Marthalen","shortName":"Marthalen"},"district":{"key":"102","name":"Bezirk Andelfingen"},"canton":{"key":"1","code":"ZH","name":"Zürich"},"status":"Real"},{"key":"10203126","name":"Geissertweg","postalCode":"8460","locality":"Marthalen","commune":{"key":"35","name":"Marthalen","shortName":"Marthalen"},"district":{"key":"102","name":"Bezirk Andelfingen"},"canton":{"key":"1","code":"ZH","name":"Zürich"},"status":"Real"},{"key":"10057346","name":"Giseharteweg","postalCode":"8460","locality":"Marthalen","commune":{"key":"35","name":"Marthalen","shortName":"Marthalen"},"district":{"key":"102","name":"Bezirk Andelfingen"},"canton":{"key":"1","code":"ZH","name":"Zürich"},"status":"Real"},{"key":"10080947","name":"Gratwolstrass","postalCode":"8460","locality":"Marthalen","commune":{"key":"35","name":"Marthalen","shortName":"Marthalen"},"district":{"key":"102","name":"Bezirk Andelfingen"},"canton":{"key":"1","code":"ZH","name":"Zürich"},"status":"Real"},{"key":"10203127","name":"Grenzstrasse Hard","postalCode":"8460","locality":"Marthalen","commune":{"key":"35","name":"Marthalen","shortName":"Marthalen"},"district":{"key":"102","name":"Bezirk Andelfingen"},"canton":{"key":"1","code":"ZH","name":"Zürich"},"status":"Real"},{"key":"10246462","name":"Grenzweg","postalCode":"8460","locality":"Marthalen","commune":{"key":"35","name":"Marthalen","shortName":"Marthalen"},"district":{"key":"102","name":"Bezirk Andelfingen"},"canton":{"key":"1","code":"ZH","name":"Zürich"},"status":"Real"},{"key":"10203128","name":"Grenzweg","postalCode":"8460","locality":"Marthalen","commune":{"key":"35","name":"Marthalen","shortName":"Marthalen"},"district":{"key":"102","name":"Bezirk Andelfingen"},"canton":{"key":"1","code":"ZH","name":"Zürich"},"status":"Real"},{"key":"10130070","name":"Grundhof","postalCode":"8460","locality":"Marthalen","commune":{"key":"35","name":"Marthalen","shortName":"Marthalen"},"district":{"key":"102","name":"Bezirk Andelfingen"},"canton":{"key":"1","code":"ZH","name":"Zürich"},"status":"Real"},{"key":"10238135","name":"Grundstrass","postalCode":"8460","locality":"Marthalen","commune":{"key":"35","name":"Marthalen","shortName":"Marthalen"},"district":{"key":"102","name":"Bezirk Andelfingen"},"canton":{"key":"1","code":"ZH","name":"Zürich"},"status":"Real"},{"key":"10002122","name":"Güeterstrass","postalCode":"8460","locality":"Marthalen","commune":{"key":"35","name":"Marthalen","shortName":"Marthalen"},"district":{"key":"102","name":"Bezirk Andelfingen"},"canton":{"key":"1","code":"ZH","name":"Zürich"},"status":"Real"},{"key":"10238129","name":"Guggenbüelstrass","postalCode":"8460","locality":"Marthalen","commune":{"key":"35","name":"Marthalen","shortName":"Marthalen"},"district":{"key":"102","name":"Bezirk Andelfingen"},"canton":{"key":"1","code":"ZH","name":"Zürich"},"status":"Real"},{"key":"10203129","name":"Haarweg","postalCode":"8460","locality":"Marthalen","commune":{"key":"35","name":"Marthalen","shortName":"Marthalen"},"district":{"key":"102","name":"Bezirk Andelfingen"},"canton":{"key":"1","code":"ZH","name":"Zürich"},"status":"Real"},{"key":"10029321","name":"Haarweg","postalCode":"8460","locality":"Marthalen","commune":{"key":"35","name":"Marthalen","shortName":"Marthalen"},"district":{"key":"102","name":"Bezirk Andelfingen"},"canton":{"key":"1","code":"ZH","name":"Zürich"},"status":"Real"},{"key":"10203130","name":"Haldenweg","postalCode":"8460","locality":"Marthalen","commune":{"key":"35","name":"Marthalen","shortName":"Marthalen"},"district":{"key":"102","name":"Bezirk Andelfingen"},"canton":{"key":"1","code":"ZH","name":"Zürich"},"status":"Real"},{"key":"10002123","name":"Haldeweg","postalCode":"8460","locality":"Marthalen","commune":{"key":"35","name":"Marthalen","shortName":"Marthalen"},"district":{"key":"102","name":"Bezirk Andelfingen"},"canton":{"key":"1","code":"ZH","name":"Zürich"},"status":"Real"},{"key":"10057347","name":"Halmegässli","postalCode":"8460","locality":"Marthalen","commune":{"key":"35","name":"Marthalen","shortName":"Marthalen"},"district":{"key":"102","name":"Bezirk Andelfingen"},"canton":{"key":"1","code":"ZH","name":"Zürich"},"status":"Real"},{"key":"10203131","name":"Hardeggweg","postalCode":"8460","locality":"Marthalen","commune":{"key":"35","name":"Marthalen","shortName":"Marthalen"},"district":{"key":"102","name":"Bezirk Andelfingen"},"canton":{"key":"1","code":"ZH","name":"Zürich"},"status":"Real"},{"key":"10203132","name":"Hardweg","postalCode":"8460","locality":"Marthalen","commune":{"key":"35","name":"Marthalen","shortName":"Marthalen"},"district":{"key":"102","name":"Bezirk Andelfingen"},"canton":{"key":"1","code":"ZH","name":"Zürich"},"status":"Real"},{"key":"10111172","name":"Hauebüel","postalCode":"8460","locality":"Marthalen","commune":{"key":"35","name":"Marthalen","shortName":"Marthalen"},"district":{"key":"102","name":"Bezirk Andelfingen"},"canton":{"key":"1","code":"ZH","name":"Zürich"},"status":"Real"},{"key":"10119793","name":"Herrenhäuliweg","postalCode":"8460","locality":"Marthalen","commune":{"key":"35","name":"Marthalen","shortName":"Marthalen"},"district":{"key":"102","name":"Bezirk Andelfingen"},"canton":{"key":"1","code":"ZH","name":"Zürich"},"status":"Real"},{"key":"10203133","name":"Heuweg","postalCode":"8460","locality":"Marthalen","commune":{"key":"35","name":"Marthalen","shortName":"Marthalen"},"district":{"key":"102","name":"Bezirk Andelfingen"},"canton":{"key":"1","code":"ZH","name":"Zürich"},"status":"Real"},{"key":"10203134","name":"Hintere Rütenen","postalCode":"8460","locality":"Marthalen","commune":{"key":"35","name":"Marthalen","shortName":"Marthalen"},"district":{"key":"102","name":"Bezirk Andelfingen"},"canton":{"key":"1","code":"ZH","name":"Zürich"},"status":"Real"},{"key":"10002124","name":"Höchiweg","postalCode":"8460","locality":"Marthalen","commune":{"key":"35","name":"Marthalen","shortName":"Marthalen"},"district":{"key":"102","name":"Bezirk Andelfingen"},"canton":{"key":"1","code":"ZH","name":"Zürich"},"status":"Real"},{"key":"10106312","name":"Hofacker","postalCode":"8460","locality":"Marthalen","commune":{"key":"35","name":"Marthalen","shortName":"Marthalen"},"district":{"key":"102","name":"Bezirk Andelfingen"},"canton":{"key":"1","code":"ZH","name":"Zürich"},"status":"Real"},{"key":"10200138","name":"Hörnliweg","postalCode":"8460","locality":"Marthalen","commune":{"key":"35","name":"Marthalen","shortName":"Marthalen"},"district":{"key":"102","name":"Bezirk Andelfingen"},"canton":{"key":"1","code":"ZH","name":"Zürich"},"status":"Real"},{"key":"10119797","name":"Hüttenweg","postalCode":"8460","locality":"Marthalen","commune":{"key":"35","name":"Marthalen","shortName":"Marthalen"},"district":{"key":"102","name":"Bezirk Andelfingen"},"canton":{"key":"1","code":"ZH","name":"Zürich"},"status":"Real"},{"key":"10111701","name":"Hüttewegli","postalCode":"8460","locality":"Marthalen","commune":{"key":"35","name":"Marthalen","shortName":"Marthalen"},"district":{"key":"102","name":"Bezirk Andelfingen"},"canton":{"key":"1","code":"ZH","name":"Zürich"},"status":"Real"},{"key":"10175871","name":"Im Baumgarte","postalCode":"8460","locality":"Marthalen","commune":{"key":"35","name":"Marthalen","shortName":"Marthalen"},"district":{"key":"102","name":"Bezirk Andelfingen"},"canton":{"key":"1","code":"ZH","name":"Zürich"},"status":"Real"},{"key":"10002125","name":"Im Berg","postalCode":"8460","locality":"Marthalen","commune":{"key":"35","name":"Marthalen","shortName":"Marthalen"},"district":{"key":"102","name":"Bezirk Andelfingen"},"canton":{"key":"1","code":"ZH","name":"Zürich"},"status":"Real"},{"key":"10080948","name":"Im Bockte","postalCode":"8460","locality":"Marthalen","commune":{"key":"35","name":"Marthalen","shortName":"Marthalen"},"district":{"key":"102","name":"Bezirk Andelfingen"},"canton":{"key":"1","code":"ZH","name":"Zürich"},"status":"Real"},{"key":"10153335","name":"Im Fleudebüel","postalCode":"8460","locality":"Marthalen","commune":{"key":"35","name":"Marthalen","shortName":"Marthalen"},"district":{"key":"102","name":"Bezirk Andelfingen"},"canton":{"key":"1","code":"ZH","name":"Zürich"},"status":"Real"},{"key":"10106076","name":"Im Höfli","postalCode":"8460","locality":"Marthalen","commune":{"key":"35","name":"Marthalen","shortName":"Marthalen"},"district":{"key":"102","name":"Bezirk Andelfingen"},"canton":{"key":"1","code":"ZH","name":"Zürich"},"status":"Real"},{"key":"10121322","name":"Im Ifang","postalCode":"8460","locality":"Marthalen","commune":{"key":"35","name":"Marthalen","shortName":"Marthalen"},"district":{"key":"102","name":"Bezirk Andelfingen"},"canton":{"key":"1","code":"ZH","name":"Zürich"},"status":"Real"},{"key":"10057467","name":"Im Kleiment","postalCode":"8460","locality":"Marthalen","commune":{"key":"35","name":"Marthalen","shortName":"Marthalen"},"district":{"key":"102","name":"Bezirk Andelfingen"},"canton":{"key":"1","code":"ZH","name":"Zürich"},"status":"Real"},{"key":"10002126","name":"Im Mötsche","postalCode":"8460","locality":"Marthalen","commune":{"key":"35","name":"Marthalen","shortName":"Marthalen"},"district":{"key":"102","name":"Bezirk Andelfingen"},"canton":{"key":"1","code":"ZH","name":"Zürich"},"status":"Real"},{"key":"10002127","name":"Im Nägeli","postalCode":"8460","locality":"Marthalen","commune":{"key":"35","name":"Marthalen","shortName":"Marthalen"},"district":{"key":"102","name":"Bezirk Andelfingen"},"canton":{"key":"1","code":"ZH","name":"Zürich"},"status":"Real"},{"key":"10081228","name":"Im Sack","postalCode":"8460","locality":"Marthalen","commune":{"key":"35","name":"Marthalen","shortName":"Marthalen"},"district":{"key":"102","name":"Bezirk Andelfingen"},"canton":{"key":"1","code":"ZH","name":"Zürich"},"status":"Real"},{"key":"10116764","name":"Im Schwirn","postalCode":"8460","locality":"Marthalen","commune":{"key":"35","name":"Marthalen","shortName":"Marthalen"},"district":{"key":"102","name":"Bezirk Andelfingen"},"canton":{"key":"1","code":"ZH","name":"Zürich"},"status":"Real"},{"key":"10111173","name":"Im Sterne","postalCode":"8460","locality":"Marthalen","commune":{"key":"35","name":"Marthalen","shortName":"Marthalen"},"district":{"key":"102","name":"Bezirk Andelfingen"},"canton":{"key":"1","code":"ZH","name":"Zürich"},"status":"Real"},{"key":"10002128","name":"Im Sunnehof","postalCode":"8460","locality":"Marthalen","commune":{"key":"35","name":"Marthalen","shortName":"Marthalen"},"district":{"key":"102","name":"Bezirk Andelfingen"},"canton":{"key":"1","code":"ZH","name":"Zürich"},"status":"Real"},{"key":"10057348","name":"Im Töbeli","postalCode":"8460","locality":"Marthalen","commune":{"key":"35","name":"Marthalen","shortName":"Marthalen"},"district":{"key":"102","name":"Bezirk Andelfingen"},"canton":{"key":"1","code":"ZH","name":"Zürich"},"status":"Real"},{"key":"10081229","name":"Im Türni","postalCode":"8460","locality":"Marthalen","commune":{"key":"35","name":"Marthalen","shortName":"Marthalen"},"district":{"key":"102","name":"Bezirk Andelfingen"},"canton":{"key":"1","code":"ZH","name":"Zürich"},"status":"Real"},{"key":"10002129","name":"Im Winkel","postalCode":"8460","locality":"Marthalen","commune":{"key":"35","name":"Marthalen","shortName":"Marthalen"},"district":{"key":"102","name":"Bezirk Andelfingen"},"canton":{"key":"1","code":"ZH","name":"Zürich"},"status":"Real"},{"key":"10183529","name":"Im Zil","postalCode":"8460","locality":"Marthalen","commune":{"key":"35","name":"Marthalen","shortName":"Marthalen"},"district":{"key":"102","name":"Bezirk Andelfingen"},"canton":{"key":"1","code":"ZH","name":"Zürich"},"status":"Real"},{"key":"10002130","name":"Isebuck","postalCode":"8460","locality":"Marthalen","commune":{"key":"35","name":"Marthalen","shortName":"Marthalen"},"district":{"key":"102","name":"Bezirk Andelfingen"},"canton":{"key":"1","code":"ZH","name":"Zürich"},"status":"Real"},{"key":"10203135","name":"Isebuckstrass","postalCode":"8460","locality":"Marthalen","commune":{"key":"35","name":"Marthalen","shortName":"Marthalen"},"district":{"key":"102","name":"Bezirk Andelfingen"},"canton":{"key":"1","code":"ZH","name":"Zürich"},"status":"Real"},{"key":"10238147","name":"Isehagstrass","postalCode":"8460","locality":"Marthalen","commune":{"key":"35","name":"Marthalen","shortName":"Marthalen"},"district":{"key":"102","name":"Bezirk Andelfingen"},"canton":{"key":"1","code":"ZH","name":"Zürich"},"status":"Real"},{"key":"10002131","name":"Isehof","postalCode":"8460","locality":"Marthalen","commune":{"key":"35","name":"Marthalen","shortName":"Marthalen"},"district":{"key":"102","name":"Bezirk Andelfingen"},"canton":{"key":"1","code":"ZH","name":"Zürich"},"status":"Real"},{"key":"10203136","name":"Kiesgrubenweg","postalCode":"8460","locality":"Marthalen","commune":{"key":"35","name":"Marthalen","shortName":"Marthalen"},"district":{"key":"102","name":"Bezirk Andelfingen"},"canton":{"key":"1","code":"ZH","name":"Zürich"},"status":"Real"},{"key":"10203137","name":"Kirchweg","postalCode":"8460","locality":"Marthalen","commune":{"key":"35","name":"Marthalen","shortName":"Marthalen"},"district":{"key":"102","name":"Bezirk Andelfingen"},"canton":{"key":"1","code":"ZH","name":"Zürich"},"status":"Real"},{"key":"10203138","name":"Kleimentstrass","postalCode":"8460","locality":"Marthalen","commune":{"key":"35","name":"Marthalen","shortName":"Marthalen"},"district":{"key":"102","name":"Bezirk Andelfingen"},"canton":{"key":"1","code":"ZH","name":"Zürich"},"status":"Real"},{"key":"10203139","name":"Langer Gehrweg","postalCode":"8460","locality":"Marthalen","commune":{"key":"35","name":"Marthalen","shortName":"Marthalen"},"district":{"key":"102","name":"Bezirk Andelfingen"},"canton":{"key":"1","code":"ZH","name":"Zürich"},"status":"Real"},{"key":"10057469","name":"Laubere","postalCode":"8460","locality":"Marthalen","commune":{"key":"35","name":"Marthalen","shortName":"Marthalen"},"district":{"key":"102","name":"Bezirk Andelfingen"},"canton":{"key":"1","code":"ZH","name":"Zürich"},"status":"Real"},{"key":"10203140","name":"Lauberestrass","postalCode":"8460","locality":"Marthalen","commune":{"key":"35","name":"Marthalen","shortName":"Marthalen"},"district":{"key":"102","name":"Bezirk Andelfingen"},"canton":{"key":"1","code":"ZH","name":"Zürich"},"status":"Real"},{"key":"10203141","name":"Laubereweg","postalCode":"8460","locality":"Marthalen","commune":{"key":"35","name":"Marthalen","shortName":"Marthalen"},"district":{"key":"102","name":"Bezirk Andelfingen"},"canton":{"key":"1","code":"ZH","name":"Zürich"},"status":"Real"},{"key":"10057349","name":"Leebere","postalCode":"8460","locality":"Marthalen","commune":{"key":"35","name":"Marthalen","shortName":"Marthalen"},"district":{"key":"102","name":"Bezirk Andelfingen"},"canton":{"key":"1","code":"ZH","name":"Zürich"},"status":"Real"},{"key":"10203142","name":"Leuackerweg","postalCode":"8460","locality":"Marthalen","commune":{"key":"35","name":"Marthalen","shortName":"Marthalen"},"district":{"key":"102","name":"Bezirk Andelfingen"},"canton":{"key":"1","code":"ZH","name":"Zürich"},"status":"Real"},{"key":"10081230","name":"Lindehofweg","postalCode":"8460","locality":"Marthalen","commune":{"key":"35","name":"Marthalen","shortName":"Marthalen"},"district":{"key":"102","name":"Bezirk Andelfingen"},"canton":{"key":"1","code":"ZH","name":"Zürich"},"status":"Real"},{"key":"10238143","name":"Lochgarte","postalCode":"8460","locality":"Marthalen","commune":{"key":"35","name":"Marthalen","shortName":"Marthalen"},"district":{"key":"102","name":"Bezirk Andelfingen"},"canton":{"key":"1","code":"ZH","name":"Zürich"},"status":"Real"},{"key":"10111174","name":"Lochstrass","postalCode":"8460","locality":"Marthalen","commune":{"key":"35","name":"Marthalen","shortName":"Marthalen"},"district":{"key":"102","name":"Bezirk Andelfingen"},"canton":{"key":"1","code":"ZH","name":"Zürich"},"status":"Real"},{"key":"10057470","name":"Madacker","postalCode":"8460","locality":"Marthalen","commune":{"key":"35","name":"Marthalen","shortName":"Marthalen"},"district":{"key":"102","name":"Bezirk Andelfingen"},"canton":{"key":"1","code":"ZH","name":"Zürich"},"status":"Real"},{"key":"10111702","name":"Maiegass","postalCode":"8460","locality":"Marthalen","commune":{"key":"35","name":"Marthalen","shortName":"Marthalen"},"district":{"key":"102","name":"Bezirk Andelfingen"},"canton":{"key":"1","code":"ZH","name":"Zürich"},"status":"Real"},{"key":"10203143","name":"Marthalerstrass","postalCode":"8460","locality":"Marthalen","commune":{"key":"35","name":"Marthalen","shortName":"Marthalen"},"district":{"key":"102","name":"Bezirk Andelfingen"},"canton":{"key":"1","code":"ZH","name":"Zürich"},"status":"Real"},{"key":"10081231","name":"Mitteldorf","postalCode":"8460","locality":"Marthalen","commune":{"key":"35","name":"Marthalen","shortName":"Marthalen"},"district":{"key":"102","name":"Bezirk Andelfingen"},"canton":{"key":"1","code":"ZH","name":"Zürich"},"status":"Real"},{"key":"10203144","name":"Mittelweg","postalCode":"8460","locality":"Marthalen","commune":{"key":"35","name":"Marthalen","shortName":"Marthalen"},"district":{"key":"102","name":"Bezirk Andelfingen"},"canton":{"key":"1","code":"ZH","name":"Zürich"},"status":"Real"},{"key":"10203145","name":"Mittlerer Gehrweg","postalCode":"8460","locality":"Marthalen","commune":{"key":"35","name":"Marthalen","shortName":"Marthalen"},"district":{"key":"102","name":"Bezirk Andelfingen"},"canton":{"key":"1","code":"ZH","name":"Zürich"},"status":"Real"},{"key":"10203146","name":"Mittlerer Luterholzweg","postalCode":"8460","locality":"Marthalen","commune":{"key":"35","name":"Marthalen","shortName":"Marthalen"},"district":{"key":"102","name":"Bezirk Andelfingen"},"canton":{"key":"1","code":"ZH","name":"Zürich"},"status":"Real"},{"key":"10203147","name":"Mittlerer Querweg","postalCode":"8460","locality":"Marthalen","commune":{"key":"35","name":"Marthalen","shortName":"Marthalen"},"district":{"key":"102","name":"Bezirk Andelfingen"},"canton":{"key":"1","code":"ZH","name":"Zürich"},"status":"Real"},{"key":"10203148","name":"Moserwegli","postalCode":"8460","locality":"Marthalen","commune":{"key":"35","name":"Marthalen","shortName":"Marthalen"},"district":{"key":"102","name":"Bezirk Andelfingen"},"canton":{"key":"1","code":"ZH","name":"Zürich"},"status":"Real"},{"key":"10057350","name":"Mötscheweg","postalCode":"8460","locality":"Marthalen","commune":{"key":"35","name":"Marthalen","shortName":"Marthalen"},"district":{"key":"102","name":"Bezirk Andelfingen"},"canton":{"key":"1","code":"ZH","name":"Zürich"},"status":"Real"},{"key":"10203149","name":"Mülistägli","postalCode":"8460","locality":"Marthalen","commune":{"key":"35","name":"Marthalen","shortName":"Marthalen"},"district":{"key":"102","name":"Bezirk Andelfingen"},"canton":{"key":"1","code":"ZH","name":"Zürich"},"status":"Real"},{"key":"10203150","name":"Mülistapfe","postalCode":"8460","locality":"Marthalen","commune":{"key":"35","name":"Marthalen","shortName":"Marthalen"},"district":{"key":"102","name":"Bezirk Andelfingen"},"canton":{"key":"1","code":"ZH","name":"Zürich"},"status":"Real"},{"key":"10002491","name":"Müliweg","postalCode":"8460","locality":"Marthalen","commune":{"key":"35","name":"Marthalen","shortName":"Marthalen"},"district":{"key":"102","name":"Bezirk Andelfingen"},"canton":{"key":"1","code":"ZH","name":"Zürich"},"status":"Real"},{"key":"10203151","name":"Nägeliweg","postalCode":"8460","locality":"Marthalen","commune":{"key":"35","name":"Marthalen","shortName":"Marthalen"},"district":{"key":"102","name":"Bezirk Andelfingen"},"canton":{"key":"1","code":"ZH","name":"Zürich"},"status":"Real"},{"key":"10203152","name":"Nationalstrasseweg","postalCode":"8460","locality":"Marthalen","commune":{"key":"35","name":"Marthalen","shortName":"Marthalen"},"district":{"key":"102","name":"Bezirk Andelfingen"},"canton":{"key":"1","code":"ZH","name":"Zürich"},"status":"Real"},{"key":"10203153","name":"Neuhölzliweg","postalCode":"8460","locality":"Marthalen","commune":{"key":"35","name":"Marthalen","shortName":"Marthalen"},"district":{"key":"102","name":"Bezirk Andelfingen"},"canton":{"key":"1","code":"ZH","name":"Zürich"},"status":"Real"},{"key":"10002492","name":"Niderhof","postalCode":"8460","locality":"Marthalen","commune":{"key":"35","name":"Marthalen","shortName":"Marthalen"},"district":{"key":"102","name":"Bezirk Andelfingen"},"canton":{"key":"1","code":"ZH","name":"Zürich"},"status":"Real"},{"key":"10057351","name":"Nidermartel","postalCode":"8460","locality":"Marthalen","commune":{"key":"35","name":"Marthalen","shortName":"Marthalen"},"district":{"key":"102","name":"Bezirk Andelfingen"},"canton":{"key":"1","code":"ZH","name":"Zürich"},"status":"Real"},{"key":"10189847","name":"Nordweg","postalCode":"8460","locality":"Marthalen","commune":{"key":"35","name":"Marthalen","shortName":"Marthalen"},"district":{"key":"102","name":"Bezirk Andelfingen"},"canton":{"key":"1","code":"ZH","name":"Zürich"},"status":"Real"},{"key":"10106313","name":"Ob de Halde","postalCode":"8460","locality":"Marthalen","commune":{"key":"35","name":"Marthalen","shortName":"Marthalen"},"district":{"key":"102","name":"Bezirk Andelfingen"},"canton":{"key":"1","code":"ZH","name":"Zürich"},"status":"Real"},{"key":"10002493","name":"Oberdorf","postalCode":"8460","locality":"Marthalen","commune":{"key":"35","name":"Marthalen","shortName":"Marthalen"},"district":{"key":"102","name":"Bezirk Andelfingen"},"canton":{"key":"1","code":"ZH","name":"Zürich"},"status":"Real"},{"key":"10203154","name":"Oberer Gehrweg","postalCode":"8460","locality":"Marthalen","commune":{"key":"35","name":"Marthalen","shortName":"Marthalen"},"district":{"key":"102","name":"Bezirk Andelfingen"},"canton":{"key":"1","code":"ZH","name":"Zürich"},"status":"Real"},{"key":"10203155","name":"Oberer Kachberghaldenweg","postalCode":"8460","locality":"Marthalen","commune":{"key":"35","name":"Marthalen","shortName":"Marthalen"},"district":{"key":"102","name":"Bezirk Andelfingen"},"canton":{"key":"1","code":"ZH","name":"Zürich"},"status":"Real"},{"key":"10203156","name":"Oberer Luterholzweg","postalCode":"8460","locality":"Marthalen","commune":{"key":"35","name":"Marthalen","shortName":"Marthalen"},"district":{"key":"102","name":"Bezirk Andelfingen"},"canton":{"key":"1","code":"ZH","name":"Zürich"},"status":"Real"},{"key":"10203157","name":"Oberer Querweg","postalCode":"8460","locality":"Marthalen","commune":{"key":"35","name":"Marthalen","shortName":"Marthalen"},"district":{"key":"102","name":"Bezirk Andelfingen"},"canton":{"key":"1","code":"ZH","name":"Zürich"},"status":"Real"},{"key":"10200199","name":"Obere Rütenen","postalCode":"8460","locality":"Marthalen","commune":{"key":"35","name":"Marthalen","shortName":"Marthalen"},"district":{"key":"102","name":"Bezirk Andelfingen"},"canton":{"key":"1","code":"ZH","name":"Zürich"},"status":"Real"},{"key":"10187945","name":"Obere Schilling","postalCode":"8460","locality":"Marthalen","commune":{"key":"35","name":"Marthalen","shortName":"Marthalen"},"district":{"key":"102","name":"Bezirk Andelfingen"},"canton":{"key":"1","code":"ZH","name":"Zürich"},"status":"Real"},{"key":"10002494","name":"Oberhusestrass","postalCode":"8460","locality":"Marthalen","commune":{"key":"35","name":"Marthalen","shortName":"Marthalen"},"district":{"key":"102","name":"Bezirk Andelfingen"},"canton":{"key":"1","code":"ZH","name":"Zürich"},"status":"Real"},{"key":"10111175","name":"Oeliweg","postalCode":"8460","locality":"Marthalen","commune":{"key":"35","name":"Marthalen","shortName":"Marthalen"},"district":{"key":"102","name":"Bezirk Andelfingen"},"canton":{"key":"1","code":"ZH","name":"Zürich"},"status":"Real"},{"key":"10141871","name":"Oerlingerstrass","postalCode":"8460","locality":"Marthalen","commune":{"key":"35","name":"Marthalen","shortName":"Marthalen"},"district":{"key":"102","name":"Bezirk Andelfingen"},"canton":{"key":"1","code":"ZH","name":"Zürich"},"status":"Real"},{"key":"10057352","name":"Oerlingerweg","postalCode":"8460","locality":"Marthalen","commune":{"key":"35","name":"Marthalen","shortName":"Marthalen"},"district":{"key":"102","name":"Bezirk Andelfingen"},"canton":{"key":"1","code":"ZH","name":"Zürich"},"status":"Real"},{"key":"10203158","name":"Pfaffenweg","postalCode":"8460","locality":"Marthalen","commune":{"key":"35","name":"Marthalen","shortName":"Marthalen"},"district":{"key":"102","name":"Bezirk Andelfingen"},"canton":{"key":"1","code":"ZH","name":"Zürich"},"status":"Real"},{"key":"10203159","name":"Pfarrholzweg","postalCode":"8460","locality":"Marthalen","commune":{"key":"35","name":"Marthalen","shortName":"Marthalen"},"district":{"key":"102","name":"Bezirk Andelfingen"},"canton":{"key":"1","code":"ZH","name":"Zürich"},"status":"Real"},{"key":"10002495","name":"Pfarrwegli","postalCode":"8460","locality":"Marthalen","commune":{"key":"35","name":"Marthalen","shortName":"Marthalen"},"district":{"key":"102","name":"Bezirk Andelfingen"},"canton":{"key":"1","code":"ZH","name":"Zürich"},"status":"Real"},{"key":"10081232","name":"Pünthalde","postalCode":"8460","locality":"Marthalen","commune":{"key":"35","name":"Marthalen","shortName":"Marthalen"},"district":{"key":"102","name":"Bezirk Andelfingen"},"canton":{"key":"1","code":"ZH","name":"Zürich"},"status":"Real"},{"key":"10002496","name":"Radhof","postalCode":"8460","locality":"Marthalen","commune":{"key":"35","name":"Marthalen","shortName":"Marthalen"},"district":{"key":"102","name":"Bezirk Andelfingen"},"canton":{"key":"1","code":"ZH","name":"Zürich"},"status":"Real"},{"key":"10153852","name":"Radstrass","postalCode":"8460","locality":"Marthalen","commune":{"key":"35","name":"Marthalen","shortName":"Marthalen"},"district":{"key":"102","name":"Bezirk Andelfingen"},"canton":{"key":"1","code":"ZH","name":"Zürich"},"status":"Real"},{"key":"10203160","name":"Radweg","postalCode":"8460","locality":"Marthalen","commune":{"key":"35","name":"Marthalen","shortName":"Marthalen"},"district":{"key":"102","name":"Bezirk Andelfingen"},"canton":{"key":"1","code":"ZH","name":"Zürich"},"status":"Real"},{"key":"10203161","name":"Ringweg","postalCode":"8460","locality":"Marthalen","commune":{"key":"35","name":"Marthalen","shortName":"Marthalen"},"district":{"key":"102","name":"Bezirk Andelfingen"},"canton":{"key":"1","code":"ZH","name":"Zürich"},"status":"Real"},{"key":"10184642","name":"Ritterhof","postalCode":"8460","locality":"Marthalen","commune":{"key":"35","name":"Marthalen","shortName":"Marthalen"},"district":{"key":"102","name":"Bezirk Andelfingen"},"canton":{"key":"1","code":"ZH","name":"Zürich"},"status":"Real"},{"key":"10200139","name":"Rosewegli","postalCode":"8460","locality":"Marthalen","commune":{"key":"35","name":"Marthalen","shortName":"Marthalen"},"district":{"key":"102","name":"Bezirk Andelfingen"},"canton":{"key":"1","code":"ZH","name":"Zürich"},"status":"Real"},{"key":"10002497","name":"Ruedelfingerstrass","postalCode":"8460","locality":"Marthalen","commune":{"key":"35","name":"Marthalen","shortName":"Marthalen"},"district":{"key":"102","name":"Bezirk Andelfingen"},"canton":{"key":"1","code":"ZH","name":"Zürich"},"status":"Real"},{"key":"10081233","name":"Ruessstrass","postalCode":"8460","locality":"Marthalen","commune":{"key":"35","name":"Marthalen","shortName":"Marthalen"},"district":{"key":"102","name":"Bezirk Andelfingen"},"canton":{"key":"1","code":"ZH","name":"Zürich"},"status":"Real"},{"key":"10203162","name":"Rütenenweg","postalCode":"8460","locality":"Marthalen","commune":{"key":"35","name":"Marthalen","shortName":"Marthalen"},"district":{"key":"102","name":"Bezirk Andelfingen"},"canton":{"key":"1","code":"ZH","name":"Zürich"},"status":"Real"},{"key":"10203163","name":"Rütibodenweg","postalCode":"8460","locality":"Marthalen","commune":{"key":"35","name":"Marthalen","shortName":"Marthalen"},"district":{"key":"102","name":"Bezirk Andelfingen"},"canton":{"key":"1","code":"ZH","name":"Zürich"},"status":"Real"},{"key":"10111703","name":"Sackstrass","postalCode":"8460","locality":"Marthalen","commune":{"key":"35","name":"Marthalen","shortName":"Marthalen"},"district":{"key":"102","name":"Bezirk Andelfingen"},"canton":{"key":"1","code":"ZH","name":"Zürich"},"status":"Real"},{"key":"10203164","name":"Salzweg","postalCode":"8460","locality":"Marthalen","commune":{"key":"35","name":"Marthalen","shortName":"Marthalen"},"district":{"key":"102","name":"Bezirk Andelfingen"},"canton":{"key":"1","code":"ZH","name":"Zürich"},"status":"Real"},{"key":"10081234","name":"Schaffhuserstrass","postalCode":"8460","locality":"Marthalen","commune":{"key":"35","name":"Marthalen","shortName":"Marthalen"},"district":{"key":"102","name":"Bezirk Andelfingen"},"canton":{"key":"1","code":"ZH","name":"Zürich"},"status":"Real"},{"key":"10002498","name":"Schillingstrass","postalCode":"8460","locality":"Marthalen","commune":{"key":"35","name":"Marthalen","shortName":"Marthalen"},"district":{"key":"102","name":"Bezirk Andelfingen"},"canton":{"key":"1","code":"ZH","name":"Zürich"},"status":"Real"},{"key":"10106077","name":"Schlatterpünt","postalCode":"8460","locality":"Marthalen","commune":{"key":"35","name":"Marthalen","shortName":"Marthalen"},"district":{"key":"102","name":"Bezirk Andelfingen"},"canton":{"key":"1","code":"ZH","name":"Zürich"},"status":"Real"},{"key":"10002499","name":"Schlossgässli","postalCode":"8460","locality":"Marthalen","commune":{"key":"35","name":"Marthalen","shortName":"Marthalen"},"district":{"key":"102","name":"Bezirk Andelfingen"},"canton":{"key":"1","code":"ZH","name":"Zürich"},"status":"Real"},{"key":"10203166","name":"Schluchebrünneliweg","postalCode":"8460","locality":"Marthalen","commune":{"key":"35","name":"Marthalen","shortName":"Marthalen"},"district":{"key":"102","name":"Bezirk Andelfingen"},"canton":{"key":"1","code":"ZH","name":"Zürich"},"status":"Real"},{"key":"10203167","name":"Schluchewegli","postalCode":"8460","locality":"Marthalen","commune":{"key":"35","name":"Marthalen","shortName":"Marthalen"},"district":{"key":"102","name":"Bezirk Andelfingen"},"canton":{"key":"1","code":"ZH","name":"Zürich"},"status":"Real"},{"key":"10203168","name":"Schrennenweg","postalCode":"8460","locality":"Marthalen","commune":{"key":"35","name":"Marthalen","shortName":"Marthalen"},"district":{"key":"102","name":"Bezirk Andelfingen"},"canton":{"key":"1","code":"ZH","name":"Zürich"},"status":"Real"},{"key":"10112285","name":"Schuelwegli","postalCode":"8460","locality":"Marthalen","commune":{"key":"35","name":"Marthalen","shortName":"Marthalen"},"district":{"key":"102","name":"Bezirk Andelfingen"},"canton":{"key":"1","code":"ZH","name":"Zürich"},"status":"Real"},{"key":"10134604","name":"Schützehusstrass","postalCode":"8460","locality":"Marthalen","commune":{"key":"35","name":"Marthalen","shortName":"Marthalen"},"district":{"key":"102","name":"Bezirk Andelfingen"},"canton":{"key":"1","code":"ZH","name":"Zürich"},"status":"Real"},{"key":"10203169","name":"Schützerwegli","postalCode":"8460","locality":"Marthalen","commune":{"key":"35","name":"Marthalen","shortName":"Marthalen"},"district":{"key":"102","name":"Bezirk Andelfingen"},"canton":{"key":"1","code":"ZH","name":"Zürich"},"status":"Real"},{"key":"10002500","name":"Schwerzi","postalCode":"8460","locality":"Marthalen","commune":{"key":"35","name":"Marthalen","shortName":"Marthalen"},"district":{"key":"102","name":"Bezirk Andelfingen"},"canton":{"key":"1","code":"ZH","name":"Zürich"},"status":"Real"},{"key":"10081235","name":"Seebestrass","postalCode":"8460","locality":"Marthalen","commune":{"key":"35","name":"Marthalen","shortName":"Marthalen"},"district":{"key":"102","name":"Bezirk Andelfingen"},"canton":{"key":"1","code":"ZH","name":"Zürich"},"status":"Real"},{"key":"10002501","name":"Seefeld","postalCode":"8460","locality":"Marthalen","commune":{"key":"35","name":"Marthalen","shortName":"Marthalen"},"district":{"key":"102","name":"Bezirk Andelfingen"},"canton":{"key":"1","code":"ZH","name":"Zürich"},"status":"Real"},{"key":"10057353","name":"Seegrabe","postalCode":"8460","locality":"Marthalen","commune":{"key":"35","name":"Marthalen","shortName":"Marthalen"},"district":{"key":"102","name":"Bezirk Andelfingen"},"canton":{"key":"1","code":"ZH","name":"Zürich"},"status":"Real"},{"key":"10203170","name":"Seeliweg","postalCode":"8460","locality":"Marthalen","commune":{"key":"35","name":"Marthalen","shortName":"Marthalen"},"district":{"key":"102","name":"Bezirk Andelfingen"},"canton":{"key":"1","code":"ZH","name":"Zürich"},"status":"Real"},{"key":"10203171","name":"Solgüllenweg","postalCode":"8460","locality":"Marthalen","commune":{"key":"35","name":"Marthalen","shortName":"Marthalen"},"district":{"key":"102","name":"Bezirk Andelfingen"},"canton":{"key":"1","code":"ZH","name":"Zürich"},"status":"Real"},{"key":"10203172","name":"Solhauweg","postalCode":"8460","locality":"Marthalen","commune":{"key":"35","name":"Marthalen","shortName":"Marthalen"},"district":{"key":"102","name":"Bezirk Andelfingen"},"canton":{"key":"1","code":"ZH","name":"Zürich"},"status":"Real"},{"key":"10184643","name":"Stationsstrass","postalCode":"8460","locality":"Marthalen","commune":{"key":"35","name":"Marthalen","shortName":"Marthalen"},"district":{"key":"102","name":"Bezirk Andelfingen"},"canton":{"key":"1","code":"ZH","name":"Zürich"},"status":"Real"},{"key":"10057468","name":"Steinacker","postalCode":"8460","locality":"Marthalen","commune":{"key":"35","name":"Marthalen","shortName":"Marthalen"},"district":{"key":"102","name":"Bezirk Andelfingen"},"canton":{"key":"1","code":"ZH","name":"Zürich"},"status":"Real"},{"key":"10155022","name":"Stuberainli","postalCode":"8460","locality":"Marthalen","commune":{"key":"35","name":"Marthalen","shortName":"Marthalen"},"district":{"key":"102","name":"Bezirk Andelfingen"},"canton":{"key":"1","code":"ZH","name":"Zürich"},"status":"Real"},{"key":"10203174","name":"Südumfahrung","postalCode":"8460","locality":"Marthalen","commune":{"key":"35","name":"Marthalen","shortName":"Marthalen"},"district":{"key":"102","name":"Bezirk Andelfingen"},"canton":{"key":"1","code":"ZH","name":"Zürich"},"status":"Real"},{"key":"10203175","name":"Süssenbergweg","postalCode":"8460","locality":"Marthalen","commune":{"key":"35","name":"Marthalen","shortName":"Marthalen"},"district":{"key":"102","name":"Bezirk Andelfingen"},"canton":{"key":"1","code":"ZH","name":"Zürich"},"status":"Real"},{"key":"10130071","name":"Talackerweg","postalCode":"8460","locality":"Marthalen","commune":{"key":"35","name":"Marthalen","shortName":"Marthalen"},"district":{"key":"102","name":"Bezirk Andelfingen"},"canton":{"key":"1","code":"ZH","name":"Zürich"},"status":"Real"},{"key":"10081236","name":"Talstrass","postalCode":"8460","locality":"Marthalen","commune":{"key":"35","name":"Marthalen","shortName":"Marthalen"},"district":{"key":"102","name":"Bezirk Andelfingen"},"canton":{"key":"1","code":"ZH","name":"Zürich"},"status":"Real"},{"key":"10203177","name":"Totmannweg","postalCode":"8460","locality":"Marthalen","commune":{"key":"35","name":"Marthalen","shortName":"Marthalen"},"district":{"key":"102","name":"Bezirk Andelfingen"},"canton":{"key":"1","code":"ZH","name":"Zürich"},"status":"Real"},{"key":"10002502","name":"Tüfewege","postalCode":"8460","locality":"Marthalen","commune":{"key":"35","name":"Marthalen","shortName":"Marthalen"},"district":{"key":"102","name":"Bezirk Andelfingen"},"canton":{"key":"1","code":"ZH","name":"Zürich"},"status":"Real"},{"key":"10112286","name":"Uf de Breiti","postalCode":"8460","locality":"Marthalen","commune":{"key":"35","name":"Marthalen","shortName":"Marthalen"},"district":{"key":"102","name":"Bezirk Andelfingen"},"canton":{"key":"1","code":"ZH","name":"Zürich"},"status":"Real"},{"key":"10002503","name":"Uf de Strass","postalCode":"8460","locality":"Marthalen","commune":{"key":"35","name":"Marthalen","shortName":"Marthalen"},"district":{"key":"102","name":"Bezirk Andelfingen"},"canton":{"key":"1","code":"ZH","name":"Zürich"},"status":"Real"},{"key":"10189848","name":"Underdorf","postalCode":"8460","locality":"Marthalen","commune":{"key":"35","name":"Marthalen","shortName":"Marthalen"},"district":{"key":"102","name":"Bezirk Andelfingen"},"canton":{"key":"1","code":"ZH","name":"Zürich"},"status":"Real"},{"key":"10057534","name":"Undere Fleudebüel","postalCode":"8460","locality":"Marthalen","commune":{"key":"35","name":"Marthalen","shortName":"Marthalen"},"district":{"key":"102","name":"Bezirk Andelfingen"},"canton":{"key":"1","code":"ZH","name":"Zürich"},"status":"Real"},{"key":"10002504","name":"Underi Lochstrass","postalCode":"8460","locality":"Marthalen","commune":{"key":"35","name":"Marthalen","shortName":"Marthalen"},"district":{"key":"102","name":"Bezirk Andelfingen"},"canton":{"key":"1","code":"ZH","name":"Zürich"},"status":"Real"},{"key":"10057471","name":"Undermüli","postalCode":"8460","locality":"Marthalen","commune":{"key":"35","name":"Marthalen","shortName":"Marthalen"},"district":{"key":"102","name":"Bezirk Andelfingen"},"canton":{"key":"1","code":"ZH","name":"Zürich"},"status":"Real"},{"key":"10203179","name":"Unterer Luterholzweg","postalCode":"8460","locality":"Marthalen","commune":{"key":"35","name":"Marthalen","shortName":"Marthalen"},"district":{"key":"102","name":"Bezirk Andelfingen"},"canton":{"key":"1","code":"ZH","name":"Zürich"},"status":"Real"},{"key":"10203180","name":"Unterer Querweg","postalCode":"8460","locality":"Marthalen","commune":{"key":"35","name":"Marthalen","shortName":"Marthalen"},"district":{"key":"102","name":"Bezirk Andelfingen"},"canton":{"key":"1","code":"ZH","name":"Zürich"},"status":"Real"},{"key":"10203178","name":"Untere Rütenen","postalCode":"8460","locality":"Marthalen","commune":{"key":"35","name":"Marthalen","shortName":"Marthalen"},"district":{"key":"102","name":"Bezirk Andelfingen"},"canton":{"key":"1","code":"ZH","name":"Zürich"},"status":"Real"},{"key":"10171836","name":"Ussere Zilweg","postalCode":"8460","locality":"Marthalen","commune":{"key":"35","name":"Marthalen","shortName":"Marthalen"},"district":{"key":"102","name":"Bezirk Andelfingen"},"canton":{"key":"1","code":"ZH","name":"Zürich"},"status":"Real"},{"key":"10203181","name":"Wanderweg","postalCode":"8460","locality":"Marthalen","commune":{"key":"35","name":"Marthalen","shortName":"Marthalen"},"district":{"key":"102","name":"Bezirk Andelfingen"},"canton":{"key":"1","code":"ZH","name":"Zürich"},"status":"Real"},{"key":"10200200","name":"Wasserfallenweg","postalCode":"8460","locality":"Marthalen","commune":{"key":"35","name":"Marthalen","shortName":"Marthalen"},"district":{"key":"102","name":"Bezirk Andelfingen"},"canton":{"key":"1","code":"ZH","name":"Zürich"},"status":"Real"},{"key":"10203182","name":"Wasserruschweg","postalCode":"8460","locality":"Marthalen","commune":{"key":"35","name":"Marthalen","shortName":"Marthalen"},"district":{"key":"102","name":"Bezirk Andelfingen"},"canton":{"key":"1","code":"ZH","name":"Zürich"},"status":"Real"},{"key":"10152601","name":"Weierwegli","postalCode":"8460","locality":"Marthalen","commune":{"key":"35","name":"Marthalen","shortName":"Marthalen"},"district":{"key":"102","name":"Bezirk Andelfingen"},"canton":{"key":"1","code":"ZH","name":"Zürich"},"status":"Real"},{"key":"10238132","name":"Witistrass","postalCode":"8460","locality":"Marthalen","commune":{"key":"35","name":"Marthalen","shortName":"Marthalen"},"district":{"key":"102","name":"Bezirk Andelfingen"},"canton":{"key":"1","code":"ZH","name":"Zürich"},"status":"Real"},{"key":"10002505","name":"Zinggestrass","postalCode":"8460","locality":"Marthalen","commune":{"key":"35","name":"Marthalen","shortName":"Marthalen"},"district":{"key":"102","name":"Bezirk Andelfingen"},"canton":{"key":"1","code":"ZH","name":"Zürich"},"status":"Real"},]