[{"key":"10087369","name":"Allmendlistrasse","postalCode":"6078","locality":"Lungern","commune":{"key":"1405","name":"Lungern","shortName":"Lungern"},"district":{"key":"600","name":"Kanton Obwalden"},"canton":{"key":"6","code":"OW","name":"Obwalden"},"status":"Real"},{"key":"10021332","name":"Arvenweg","postalCode":"6078","locality":"Lungern","commune":{"key":"1405","name":"Lungern","shortName":"Lungern"},"district":{"key":"600","name":"Kanton Obwalden"},"canton":{"key":"6","code":"OW","name":"Obwalden"},"status":"Real"},{"key":"10021333","name":"Badmattweg","postalCode":"6078","locality":"Lungern","commune":{"key":"1405","name":"Lungern","shortName":"Lungern"},"district":{"key":"600","name":"Kanton Obwalden"},"canton":{"key":"6","code":"OW","name":"Obwalden"},"status":"Real"},{"key":"10116813","name":"Bahnhofstrasse","postalCode":"6078","locality":"Lungern","commune":{"key":"1405","name":"Lungern","shortName":"Lungern"},"district":{"key":"600","name":"Kanton Obwalden"},"canton":{"key":"6","code":"OW","name":"Obwalden"},"status":"Real"},{"key":"10158316","name":"Bänimatte","postalCode":"6078","locality":"Lungern","commune":{"key":"1405","name":"Lungern","shortName":"Lungern"},"district":{"key":"600","name":"Kanton Obwalden"},"canton":{"key":"6","code":"OW","name":"Obwalden"},"status":"Real"},{"key":"10021336","name":"Bärenmattenstrasse","postalCode":"6078","locality":"Lungern","commune":{"key":"1405","name":"Lungern","shortName":"Lungern"},"district":{"key":"600","name":"Kanton Obwalden"},"canton":{"key":"6","code":"OW","name":"Obwalden"},"status":"Real"},{"key":"10021337","name":"Bärenweg","postalCode":"6078","locality":"Lungern","commune":{"key":"1405","name":"Lungern","shortName":"Lungern"},"district":{"key":"600","name":"Kanton Obwalden"},"canton":{"key":"6","code":"OW","name":"Obwalden"},"status":"Real"},{"key":"10113548","name":"Bärschwendiweg","postalCode":"6078","locality":"Lungern","commune":{"key":"1405","name":"Lungern","shortName":"Lungern"},"district":{"key":"600","name":"Kanton Obwalden"},"canton":{"key":"6","code":"OW","name":"Obwalden"},"status":"Real"},{"key":"10087370","name":"Berggasthaus Schönbüel","postalCode":"6078","locality":"Lungern","commune":{"key":"1405","name":"Lungern","shortName":"Lungern"},"district":{"key":"600","name":"Kanton Obwalden"},"canton":{"key":"6","code":"OW","name":"Obwalden"},"status":"Real"},{"key":"10070945","name":"Bergstrasse","postalCode":"6078","locality":"Lungern","commune":{"key":"1405","name":"Lungern","shortName":"Lungern"},"district":{"key":"600","name":"Kanton Obwalden"},"canton":{"key":"6","code":"OW","name":"Obwalden"},"status":"Real"},{"key":"10021334","name":"Birkenweg","postalCode":"6078","locality":"Lungern","commune":{"key":"1405","name":"Lungern","shortName":"Lungern"},"district":{"key":"600","name":"Kanton Obwalden"},"canton":{"key":"6","code":"OW","name":"Obwalden"},"status":"Real"},{"key":"10212180","name":"Breitenfeld","postalCode":"6078","locality":"Lungern","commune":{"key":"1405","name":"Lungern","shortName":"Lungern"},"district":{"key":"600","name":"Kanton Obwalden"},"canton":{"key":"6","code":"OW","name":"Obwalden"},"status":"Real"},{"key":"10021335","name":"Breitenstrasse","postalCode":"6078","locality":"Lungern","commune":{"key":"1405","name":"Lungern","shortName":"Lungern"},"district":{"key":"600","name":"Kanton Obwalden"},"canton":{"key":"6","code":"OW","name":"Obwalden"},"status":"Real"},{"key":"10212185","name":"Breitmatt","postalCode":"6078","locality":"Lungern","commune":{"key":"1405","name":"Lungern","shortName":"Lungern"},"district":{"key":"600","name":"Kanton Obwalden"},"canton":{"key":"6","code":"OW","name":"Obwalden"},"status":"Real"},{"key":"10087371","name":"Brünigstrasse","postalCode":"6078","locality":"Lungern","commune":{"key":"1405","name":"Lungern","shortName":"Lungern"},"district":{"key":"600","name":"Kanton Obwalden"},"canton":{"key":"6","code":"OW","name":"Obwalden"},"status":"Real"},{"key":"10091580","name":"Brunnenmadstrasse","postalCode":"6078","locality":"Lungern","commune":{"key":"1405","name":"Lungern","shortName":"Lungern"},"district":{"key":"600","name":"Kanton Obwalden"},"canton":{"key":"6","code":"OW","name":"Obwalden"},"status":"Real"},{"key":"10091571","name":"Campingstrasse","postalCode":"6078","locality":"Lungern","commune":{"key":"1405","name":"Lungern","shortName":"Lungern"},"district":{"key":"600","name":"Kanton Obwalden"},"canton":{"key":"6","code":"OW","name":"Obwalden"},"status":"Real"},{"key":"10184163","name":"Chäppelisträssli","postalCode":"6078","locality":"Lungern","commune":{"key":"1405","name":"Lungern","shortName":"Lungern"},"district":{"key":"600","name":"Kanton Obwalden"},"canton":{"key":"6","code":"OW","name":"Obwalden"},"status":"Real"},{"key":"10153640","name":"Chilenmatte","postalCode":"6078","locality":"Lungern","commune":{"key":"1405","name":"Lungern","shortName":"Lungern"},"district":{"key":"600","name":"Kanton Obwalden"},"canton":{"key":"6","code":"OW","name":"Obwalden"},"status":"Real"},{"key":"10070946","name":"Chilenwaldweg","postalCode":"6078","locality":"Lungern","commune":{"key":"1405","name":"Lungern","shortName":"Lungern"},"district":{"key":"600","name":"Kanton Obwalden"},"canton":{"key":"6","code":"OW","name":"Obwalden"},"status":"Real"},{"key":"10021338","name":"Chnewisstrasse","postalCode":"6078","locality":"Lungern","commune":{"key":"1405","name":"Lungern","shortName":"Lungern"},"district":{"key":"600","name":"Kanton Obwalden"},"canton":{"key":"6","code":"OW","name":"Obwalden"},"status":"Real"},{"key":"10091572","name":"Diesselbacherstrasse","postalCode":"6078","locality":"Lungern","commune":{"key":"1405","name":"Lungern","shortName":"Lungern"},"district":{"key":"600","name":"Kanton Obwalden"},"canton":{"key":"6","code":"OW","name":"Obwalden"},"status":"Real"},{"key":"10192207","name":"Dörflistrasse","postalCode":"6078","locality":"Lungern","commune":{"key":"1405","name":"Lungern","shortName":"Lungern"},"district":{"key":"600","name":"Kanton Obwalden"},"canton":{"key":"6","code":"OW","name":"Obwalden"},"status":"Real"},{"key":"10021339","name":"Driangelgasse","postalCode":"6078","locality":"Lungern","commune":{"key":"1405","name":"Lungern","shortName":"Lungern"},"district":{"key":"600","name":"Kanton Obwalden"},"canton":{"key":"6","code":"OW","name":"Obwalden"},"status":"Real"},{"key":"10212187","name":"Dundel","postalCode":"6078","locality":"Lungern","commune":{"key":"1405","name":"Lungern","shortName":"Lungern"},"district":{"key":"600","name":"Kanton Obwalden"},"canton":{"key":"6","code":"OW","name":"Obwalden"},"status":"Real"},{"key":"10212189","name":"Dundelegg","postalCode":"6078","locality":"Lungern","commune":{"key":"1405","name":"Lungern","shortName":"Lungern"},"district":{"key":"600","name":"Kanton Obwalden"},"canton":{"key":"6","code":"OW","name":"Obwalden"},"status":"Real"},{"key":"10212162","name":"Dundeleggstrasse","postalCode":"6078","locality":"Lungern","commune":{"key":"1405","name":"Lungern","shortName":"Lungern"},"district":{"key":"600","name":"Kanton Obwalden"},"canton":{"key":"6","code":"OW","name":"Obwalden"},"status":"Real"},{"key":"10159505","name":"Dundelstrasse","postalCode":"6078","locality":"Lungern","commune":{"key":"1405","name":"Lungern","shortName":"Lungern"},"district":{"key":"600","name":"Kanton Obwalden"},"canton":{"key":"6","code":"OW","name":"Obwalden"},"status":"Real"},{"key":"10021340","name":"Eibachweg","postalCode":"6078","locality":"Lungern","commune":{"key":"1405","name":"Lungern","shortName":"Lungern"},"district":{"key":"600","name":"Kanton Obwalden"},"canton":{"key":"6","code":"OW","name":"Obwalden"},"status":"Real"},{"key":"10198505","name":"Eieltiweg","postalCode":"6078","locality":"Lungern","commune":{"key":"1405","name":"Lungern","shortName":"Lungern"},"district":{"key":"600","name":"Kanton Obwalden"},"canton":{"key":"6","code":"OW","name":"Obwalden"},"status":"Real"},{"key":"10021341","name":"Eihuisgässli","postalCode":"6078","locality":"Lungern","commune":{"key":"1405","name":"Lungern","shortName":"Lungern"},"district":{"key":"600","name":"Kanton Obwalden"},"canton":{"key":"6","code":"OW","name":"Obwalden"},"status":"Real"},{"key":"10091573","name":"Eimatte","postalCode":"6078","locality":"Lungern","commune":{"key":"1405","name":"Lungern","shortName":"Lungern"},"district":{"key":"600","name":"Kanton Obwalden"},"canton":{"key":"6","code":"OW","name":"Obwalden"},"status":"Real"},{"key":"10021342","name":"Eistrasse","postalCode":"6078","locality":"Lungern","commune":{"key":"1405","name":"Lungern","shortName":"Lungern"},"district":{"key":"600","name":"Kanton Obwalden"},"canton":{"key":"6","code":"OW","name":"Obwalden"},"status":"Real"},{"key":"10195333","name":"Enetfluestrasse","postalCode":"6078","locality":"Lungern","commune":{"key":"1405","name":"Lungern","shortName":"Lungern"},"district":{"key":"600","name":"Kanton Obwalden"},"canton":{"key":"6","code":"OW","name":"Obwalden"},"status":"Real"},{"key":"10070947","name":"Feldgasse","postalCode":"6078","locality":"Lungern","commune":{"key":"1405","name":"Lungern","shortName":"Lungern"},"district":{"key":"600","name":"Kanton Obwalden"},"canton":{"key":"6","code":"OW","name":"Obwalden"},"status":"Real"},{"key":"10159508","name":"Feldmoosstrasse","postalCode":"6078","locality":"Lungern","commune":{"key":"1405","name":"Lungern","shortName":"Lungern"},"district":{"key":"600","name":"Kanton Obwalden"},"canton":{"key":"6","code":"OW","name":"Obwalden"},"status":"Real"},{"key":"10021343","name":"Gehrenstrasse","postalCode":"6078","locality":"Lungern","commune":{"key":"1405","name":"Lungern","shortName":"Lungern"},"district":{"key":"600","name":"Kanton Obwalden"},"canton":{"key":"6","code":"OW","name":"Obwalden"},"status":"Real"},{"key":"10127386","name":"Gehrischwendistrasse","postalCode":"6078","locality":"Lungern","commune":{"key":"1405","name":"Lungern","shortName":"Lungern"},"district":{"key":"600","name":"Kanton Obwalden"},"canton":{"key":"6","code":"OW","name":"Obwalden"},"status":"Real"},{"key":"10196717","name":"Gloisenmatte","postalCode":"6078","locality":"Lungern","commune":{"key":"1405","name":"Lungern","shortName":"Lungern"},"district":{"key":"600","name":"Kanton Obwalden"},"canton":{"key":"6","code":"OW","name":"Obwalden"},"status":"Real"},{"key":"10058703","name":"Graben","postalCode":"6078","locality":"Lungern","commune":{"key":"1405","name":"Lungern","shortName":"Lungern"},"district":{"key":"600","name":"Kanton Obwalden"},"canton":{"key":"6","code":"OW","name":"Obwalden"},"status":"Real"},{"key":"10116814","name":"Gräbliweg","postalCode":"6078","locality":"Lungern","commune":{"key":"1405","name":"Lungern","shortName":"Lungern"},"district":{"key":"600","name":"Kanton Obwalden"},"canton":{"key":"6","code":"OW","name":"Obwalden"},"status":"Real"},{"key":"10184164","name":"Häckismattstrasse","postalCode":"6078","locality":"Lungern","commune":{"key":"1405","name":"Lungern","shortName":"Lungern"},"district":{"key":"600","name":"Kanton Obwalden"},"canton":{"key":"6","code":"OW","name":"Obwalden"},"status":"Real"},{"key":"10194728","name":"Hagstrasse","postalCode":"6078","locality":"Lungern","commune":{"key":"1405","name":"Lungern","shortName":"Lungern"},"district":{"key":"600","name":"Kanton Obwalden"},"canton":{"key":"6","code":"OW","name":"Obwalden"},"status":"Real"},{"key":"10070948","name":"Hangiweg","postalCode":"6078","locality":"Lungern","commune":{"key":"1405","name":"Lungern","shortName":"Lungern"},"district":{"key":"600","name":"Kanton Obwalden"},"canton":{"key":"6","code":"OW","name":"Obwalden"},"status":"Real"},{"key":"10091574","name":"Hinterseestrasse","postalCode":"6078","locality":"Lungern","commune":{"key":"1405","name":"Lungern","shortName":"Lungern"},"district":{"key":"600","name":"Kanton Obwalden"},"canton":{"key":"6","code":"OW","name":"Obwalden"},"status":"Real"},{"key":"10021345","name":"Hintistrasse","postalCode":"6078","locality":"Lungern","commune":{"key":"1405","name":"Lungern","shortName":"Lungern"},"district":{"key":"600","name":"Kanton Obwalden"},"canton":{"key":"6","code":"OW","name":"Obwalden"},"status":"Real"},{"key":"10106173","name":"Hostettgasse","postalCode":"6078","locality":"Lungern","commune":{"key":"1405","name":"Lungern","shortName":"Lungern"},"district":{"key":"600","name":"Kanton Obwalden"},"canton":{"key":"6","code":"OW","name":"Obwalden"},"status":"Real"},{"key":"10196270","name":"Hüttstetterstrasse","postalCode":"6078","locality":"Lungern","commune":{"key":"1405","name":"Lungern","shortName":"Lungern"},"district":{"key":"600","name":"Kanton Obwalden"},"canton":{"key":"6","code":"OW","name":"Obwalden"},"status":"Real"},{"key":"10153979","name":"Im Rietli","postalCode":"6078","locality":"Lungern","commune":{"key":"1405","name":"Lungern","shortName":"Lungern"},"district":{"key":"600","name":"Kanton Obwalden"},"canton":{"key":"6","code":"OW","name":"Obwalden"},"status":"Real"},{"key":"10171782","name":"Industriestrasse","postalCode":"6078","locality":"Lungern","commune":{"key":"1405","name":"Lungern","shortName":"Lungern"},"district":{"key":"600","name":"Kanton Obwalden"},"canton":{"key":"6","code":"OW","name":"Obwalden"},"status":"Real"},{"key":"10207541","name":"Juchstrasse","postalCode":"6078","locality":"Lungern","commune":{"key":"1405","name":"Lungern","shortName":"Lungern"},"district":{"key":"600","name":"Kanton Obwalden"},"canton":{"key":"6","code":"OW","name":"Obwalden"},"status":"Real"},{"key":"10021346","name":"Kurzgasse","postalCode":"6078","locality":"Lungern","commune":{"key":"1405","name":"Lungern","shortName":"Lungern"},"district":{"key":"600","name":"Kanton Obwalden"},"canton":{"key":"6","code":"OW","name":"Obwalden"},"status":"Real"},{"key":"10070949","name":"Ledistrasse","postalCode":"6078","locality":"Lungern","commune":{"key":"1405","name":"Lungern","shortName":"Lungern"},"district":{"key":"600","name":"Kanton Obwalden"},"canton":{"key":"6","code":"OW","name":"Obwalden"},"status":"Real"},{"key":"10091575","name":"Lenggasse","postalCode":"6078","locality":"Lungern","commune":{"key":"1405","name":"Lungern","shortName":"Lungern"},"district":{"key":"600","name":"Kanton Obwalden"},"canton":{"key":"6","code":"OW","name":"Obwalden"},"status":"Real"},{"key":"10113549","name":"Loppstrasse","postalCode":"6078","locality":"Lungern","commune":{"key":"1405","name":"Lungern","shortName":"Lungern"},"district":{"key":"600","name":"Kanton Obwalden"},"canton":{"key":"6","code":"OW","name":"Obwalden"},"status":"Real"},{"key":"10021347","name":"Mülibachersträssli","postalCode":"6078","locality":"Lungern","commune":{"key":"1405","name":"Lungern","shortName":"Lungern"},"district":{"key":"600","name":"Kanton Obwalden"},"canton":{"key":"6","code":"OW","name":"Obwalden"},"status":"Real"},{"key":"10133788","name":"Oberbrünigstrasse","postalCode":"6078","locality":"Lungern","commune":{"key":"1405","name":"Lungern","shortName":"Lungern"},"district":{"key":"600","name":"Kanton Obwalden"},"canton":{"key":"6","code":"OW","name":"Obwalden"},"status":"Real"},{"key":"10138366","name":"Oberdorfstrasse","postalCode":"6078","locality":"Lungern","commune":{"key":"1405","name":"Lungern","shortName":"Lungern"},"district":{"key":"600","name":"Kanton Obwalden"},"canton":{"key":"6","code":"OW","name":"Obwalden"},"status":"Real"},{"key":"10091576","name":"Obseestrasse","postalCode":"6078","locality":"Lungern","commune":{"key":"1405","name":"Lungern","shortName":"Lungern"},"district":{"key":"600","name":"Kanton Obwalden"},"canton":{"key":"6","code":"OW","name":"Obwalden"},"status":"Real"},{"key":"10021349","name":"Röhrligasse","postalCode":"6078","locality":"Lungern","commune":{"key":"1405","name":"Lungern","shortName":"Lungern"},"district":{"key":"600","name":"Kanton Obwalden"},"canton":{"key":"6","code":"OW","name":"Obwalden"},"status":"Real"},{"key":"10021348","name":"Rosenweg","postalCode":"6078","locality":"Lungern","commune":{"key":"1405","name":"Lungern","shortName":"Lungern"},"district":{"key":"600","name":"Kanton Obwalden"},"canton":{"key":"6","code":"OW","name":"Obwalden"},"status":"Real"},{"key":"10021350","name":"Rütiweg","postalCode":"6078","locality":"Lungern","commune":{"key":"1405","name":"Lungern","shortName":"Lungern"},"district":{"key":"600","name":"Kanton Obwalden"},"canton":{"key":"6","code":"OW","name":"Obwalden"},"status":"Real"},{"key":"10206377","name":"Schönbüelstrasse","postalCode":"6078","locality":"Lungern","commune":{"key":"1405","name":"Lungern","shortName":"Lungern"},"district":{"key":"600","name":"Kanton Obwalden"},"canton":{"key":"6","code":"OW","name":"Obwalden"},"status":"Real"},{"key":"10091577","name":"Schwandstrasse","postalCode":"6078","locality":"Lungern","commune":{"key":"1405","name":"Lungern","shortName":"Lungern"},"district":{"key":"600","name":"Kanton Obwalden"},"canton":{"key":"6","code":"OW","name":"Obwalden"},"status":"Real"},{"key":"10195768","name":"Schwendistrasse","postalCode":"6078","locality":"Lungern","commune":{"key":"1405","name":"Lungern","shortName":"Lungern"},"district":{"key":"600","name":"Kanton Obwalden"},"canton":{"key":"6","code":"OW","name":"Obwalden"},"status":"Real"},{"key":"10021351","name":"Seestrasse","postalCode":"6078","locality":"Lungern","commune":{"key":"1405","name":"Lungern","shortName":"Lungern"},"district":{"key":"600","name":"Kanton Obwalden"},"canton":{"key":"6","code":"OW","name":"Obwalden"},"status":"Real"},{"key":"10021352","name":"Seeweg","postalCode":"6078","locality":"Lungern","commune":{"key":"1405","name":"Lungern","shortName":"Lungern"},"district":{"key":"600","name":"Kanton Obwalden"},"canton":{"key":"6","code":"OW","name":"Obwalden"},"status":"Real"},{"key":"10149436","name":"Sewliweg","postalCode":"6078","locality":"Lungern","commune":{"key":"1405","name":"Lungern","shortName":"Lungern"},"district":{"key":"600","name":"Kanton Obwalden"},"canton":{"key":"6","code":"OW","name":"Obwalden"},"status":"Real"},{"key":"10184165","name":"Siwerblenweg","postalCode":"6078","locality":"Lungern","commune":{"key":"1405","name":"Lungern","shortName":"Lungern"},"district":{"key":"600","name":"Kanton Obwalden"},"canton":{"key":"6","code":"OW","name":"Obwalden"},"status":"Real"},{"key":"10116815","name":"Spendermattli","postalCode":"6078","locality":"Lungern","commune":{"key":"1405","name":"Lungern","shortName":"Lungern"},"district":{"key":"600","name":"Kanton Obwalden"},"canton":{"key":"6","code":"OW","name":"Obwalden"},"status":"Real"},{"key":"10021353","name":"Strüpfistrasse","postalCode":"6078","locality":"Lungern","commune":{"key":"1405","name":"Lungern","shortName":"Lungern"},"district":{"key":"600","name":"Kanton Obwalden"},"canton":{"key":"6","code":"OW","name":"Obwalden"},"status":"Real"},{"key":"10091578","name":"Strüpfiweg","postalCode":"6078","locality":"Lungern","commune":{"key":"1405","name":"Lungern","shortName":"Lungern"},"district":{"key":"600","name":"Kanton Obwalden"},"canton":{"key":"6","code":"OW","name":"Obwalden"},"status":"Real"},{"key":"10021354","name":"Studenstrasse","postalCode":"6078","locality":"Lungern","commune":{"key":"1405","name":"Lungern","shortName":"Lungern"},"district":{"key":"600","name":"Kanton Obwalden"},"canton":{"key":"6","code":"OW","name":"Obwalden"},"status":"Real"},{"key":"10070951","name":"Turren","postalCode":"6078","locality":"Lungern","commune":{"key":"1405","name":"Lungern","shortName":"Lungern"},"district":{"key":"600","name":"Kanton Obwalden"},"canton":{"key":"6","code":"OW","name":"Obwalden"},"status":"Real"},{"key":"10195313","name":"Turrenstrasse","postalCode":"6078","locality":"Lungern","commune":{"key":"1405","name":"Lungern","shortName":"Lungern"},"district":{"key":"600","name":"Kanton Obwalden"},"canton":{"key":"6","code":"OW","name":"Obwalden"},"status":"Real"},{"key":"10021355","name":"Unghüristrasse","postalCode":"6078","locality":"Lungern","commune":{"key":"1405","name":"Lungern","shortName":"Lungern"},"district":{"key":"600","name":"Kanton Obwalden"},"canton":{"key":"6","code":"OW","name":"Obwalden"},"status":"Real"},{"key":"10021356","name":"Walchistrasse","postalCode":"6078","locality":"Lungern","commune":{"key":"1405","name":"Lungern","shortName":"Lungern"},"district":{"key":"600","name":"Kanton Obwalden"},"canton":{"key":"6","code":"OW","name":"Obwalden"},"status":"Real"},{"key":"10091579","name":"Waschhausgasse","postalCode":"6078","locality":"Lungern","commune":{"key":"1405","name":"Lungern","shortName":"Lungern"},"district":{"key":"600","name":"Kanton Obwalden"},"canton":{"key":"6","code":"OW","name":"Obwalden"},"status":"Real"},{"key":"10070952","name":"Wichelmatte","postalCode":"6078","locality":"Lungern","commune":{"key":"1405","name":"Lungern","shortName":"Lungern"},"district":{"key":"600","name":"Kanton Obwalden"},"canton":{"key":"6","code":"OW","name":"Obwalden"},"status":"Real"},{"key":"10184166","name":"Wichelrain","postalCode":"6078","locality":"Lungern","commune":{"key":"1405","name":"Lungern","shortName":"Lungern"},"district":{"key":"600","name":"Kanton Obwalden"},"canton":{"key":"6","code":"OW","name":"Obwalden"},"status":"Real"},{"key":"10113823","name":"Wichelsgraben","postalCode":"6078","locality":"Lungern","commune":{"key":"1405","name":"Lungern","shortName":"Lungern"},"district":{"key":"600","name":"Kanton Obwalden"},"canton":{"key":"6","code":"OW","name":"Obwalden"},"status":"Real"},{"key":"10052433","name":"Wichelstrasse","postalCode":"6078","locality":"Lungern","commune":{"key":"1405","name":"Lungern","shortName":"Lungern"},"district":{"key":"600","name":"Kanton Obwalden"},"canton":{"key":"6","code":"OW","name":"Obwalden"},"status":"Real"},{"key":"10258687","name":"Wirzi","postalCode":"6078","locality":"Lungern","commune":{"key":"1405","name":"Lungern","shortName":"Lungern"},"district":{"key":"600","name":"Kanton Obwalden"},"canton":{"key":"6","code":"OW","name":"Obwalden"},"status":"Real"},{"key":"10070953","name":"Zeigergässli","postalCode":"6078","locality":"Lungern","commune":{"key":"1405","name":"Lungern","shortName":"Lungern"},"district":{"key":"600","name":"Kanton Obwalden"},"canton":{"key":"6","code":"OW","name":"Obwalden"},"status":"Real"},]