[{"key":"12066008","name":"Altdöbern","type":"Kreisangehörige_Gemeinde","postalCode":"03229","multiplePostalCodes":false,"association":{"key":"12066","name":"Altdöbern","type":"Amt"},"district":{"key":"12066","name":"Oberspreewald-Lausitz","type":"Landkreis"},"federalState":{"key":"12","name":"Brandenburg"}},{"key":"12066041","name":"Bronkow","type":"Kreisangehörige_Gemeinde","postalCode":"03205","multiplePostalCodes":true,"association":{"key":"12066","name":"Altdöbern","type":"Amt"},"district":{"key":"12066","name":"Oberspreewald-Lausitz","type":"Landkreis"},"federalState":{"key":"12","name":"Brandenburg"}},{"key":"12066052","name":"Calau/Kalawa, Stadt","type":"Stadt","postalCode":"03205","multiplePostalCodes":false,"association":{"key":"12066","name":"Calau/Kalawa, Stadt","type":"Verbandsfreie_Gemeinde"},"district":{"key":"12066","name":"Oberspreewald-Lausitz","type":"Landkreis"},"federalState":{"key":"12","name":"Brandenburg"}},{"key":"12066064","name":"Frauendorf","type":"Kreisangehörige_Gemeinde","postalCode":"01945","multiplePostalCodes":true,"association":{"key":"12066","name":"Ortrand","type":"Amt"},"district":{"key":"12066","name":"Oberspreewald-Lausitz","type":"Landkreis"},"federalState":{"key":"12","name":"Brandenburg"}},{"key":"12066104","name":"Großkmehlen","type":"Kreisangehörige_Gemeinde","postalCode":"01990","multiplePostalCodes":false,"association":{"key":"12066","name":"Ortrand","type":"Amt"},"district":{"key":"12066","name":"Oberspreewald-Lausitz","type":"Landkreis"},"federalState":{"key":"12","name":"Brandenburg"}},{"key":"12066112","name":"Großräschen/Rań, Stadt","type":"Stadt","postalCode":"01983","multiplePostalCodes":false,"association":{"key":"12066","name":"Großräschen/Rań, Stadt","type":"Verbandsfreie_Gemeinde"},"district":{"key":"12066","name":"Oberspreewald-Lausitz","type":"Landkreis"},"federalState":{"key":"12","name":"Brandenburg"}},{"key":"12066116","name":"Grünewald","type":"Kreisangehörige_Gemeinde","postalCode":"01945","multiplePostalCodes":false,"association":{"key":"12066","name":"Ruhland","type":"Amt"},"district":{"key":"12066","name":"Oberspreewald-Lausitz","type":"Landkreis"},"federalState":{"key":"12","name":"Brandenburg"}},{"key":"12066120","name":"Guteborn","type":"Kreisangehörige_Gemeinde","postalCode":"01945","multiplePostalCodes":false,"association":{"key":"12066","name":"Ruhland","type":"Amt"},"district":{"key":"12066","name":"Oberspreewald-Lausitz","type":"Landkreis"},"federalState":{"key":"12","name":"Brandenburg"}},{"key":"12066124","name":"Hermsdorf","type":"Kreisangehörige_Gemeinde","postalCode":"01945","multiplePostalCodes":false,"association":{"key":"12066","name":"Ruhland","type":"Amt"},"district":{"key":"12066","name":"Oberspreewald-Lausitz","type":"Landkreis"},"federalState":{"key":"12","name":"Brandenburg"}},{"key":"12066132","name":"Hohenbocka","type":"Kreisangehörige_Gemeinde","postalCode":"01945","multiplePostalCodes":false,"association":{"key":"12066","name":"Ruhland","type":"Amt"},"district":{"key":"12066","name":"Oberspreewald-Lausitz","type":"Landkreis"},"federalState":{"key":"12","name":"Brandenburg"}},{"key":"12066168","name":"Kroppen","type":"Kreisangehörige_Gemeinde","postalCode":"01945","multiplePostalCodes":true,"association":{"key":"12066","name":"Ortrand","type":"Amt"},"district":{"key":"12066","name":"Oberspreewald-Lausitz","type":"Landkreis"},"federalState":{"key":"12","name":"Brandenburg"}},{"key":"12066176","name":"Lauchhammer, Stadt","type":"Stadt","postalCode":"01979","multiplePostalCodes":false,"association":{"key":"12066","name":"Lauchhammer, Stadt","type":"Verbandsfreie_Gemeinde"},"district":{"key":"12066","name":"Oberspreewald-Lausitz","type":"Landkreis"},"federalState":{"key":"12","name":"Brandenburg"}},{"key":"12066188","name":"Lindenau","type":"Kreisangehörige_Gemeinde","postalCode":"01945","multiplePostalCodes":true,"association":{"key":"12066","name":"Ortrand","type":"Amt"},"district":{"key":"12066","name":"Oberspreewald-Lausitz","type":"Landkreis"},"federalState":{"key":"12","name":"Brandenburg"}},{"key":"12066196","name":"Lübbenau/Spreewald / Lubnjow/Błota, Stadt","type":"Stadt","postalCode":"03222","multiplePostalCodes":false,"association":{"key":"12066","name":"Lübbenau/Spreewald / Lubnjow/Błota, Stadt","type":"Verbandsfreie_Gemeinde"},"district":{"key":"12066","name":"Oberspreewald-Lausitz","type":"Landkreis"},"federalState":{"key":"12","name":"Brandenburg"}},{"key":"12066202","name":"Luckaitztal","type":"Kreisangehörige_Gemeinde","postalCode":"03229","multiplePostalCodes":false,"association":{"key":"12066","name":"Altdöbern","type":"Amt"},"district":{"key":"12066","name":"Oberspreewald-Lausitz","type":"Landkreis"},"federalState":{"key":"12","name":"Brandenburg"}},{"key":"12066226","name":"Neu-Seeland/Nowa Jazorina","type":"Kreisangehörige_Gemeinde","postalCode":"03103","multiplePostalCodes":true,"association":{"key":"12066","name":"Altdöbern","type":"Amt"},"district":{"key":"12066","name":"Oberspreewald-Lausitz","type":"Landkreis"},"federalState":{"key":"12","name":"Brandenburg"}},{"key":"12066228","name":"Neupetershain/Nowe Wiki","type":"Kreisangehörige_Gemeinde","postalCode":"03103","multiplePostalCodes":true,"association":{"key":"12066","name":"Altdöbern","type":"Amt"},"district":{"key":"12066","name":"Oberspreewald-Lausitz","type":"Landkreis"},"federalState":{"key":"12","name":"Brandenburg"}},{"key":"12066240","name":"Ortrand, Stadt","type":"Stadt","postalCode":"01990","multiplePostalCodes":false,"association":{"key":"12066","name":"Ortrand","type":"Amt"},"district":{"key":"12066","name":"Oberspreewald-Lausitz","type":"Landkreis"},"federalState":{"key":"12","name":"Brandenburg"}},{"key":"12066272","name":"Ruhland, Stadt","type":"Stadt","postalCode":"01945","multiplePostalCodes":false,"association":{"key":"12066","name":"Ruhland","type":"Amt"},"district":{"key":"12066","name":"Oberspreewald-Lausitz","type":"Landkreis"},"federalState":{"key":"12","name":"Brandenburg"}},{"key":"12066285","name":"Schipkau","type":"Kreisangehörige_Gemeinde","postalCode":"01993","multiplePostalCodes":true,"association":{"key":"12066","name":"Schipkau","type":"Verbandsfreie_Gemeinde"},"district":{"key":"12066","name":"Oberspreewald-Lausitz","type":"Landkreis"},"federalState":{"key":"12","name":"Brandenburg"}},{"key":"12066292","name":"Schwarzbach","type":"Kreisangehörige_Gemeinde","postalCode":"01945","multiplePostalCodes":false,"association":{"key":"12066","name":"Ruhland","type":"Amt"},"district":{"key":"12066","name":"Oberspreewald-Lausitz","type":"Landkreis"},"federalState":{"key":"12","name":"Brandenburg"}},{"key":"12066296","name":"Schwarzheide, Stadt","type":"Stadt","postalCode":"01987","multiplePostalCodes":false,"association":{"key":"12066","name":"Schwarzheide, Stadt","type":"Verbandsfreie_Gemeinde"},"district":{"key":"12066","name":"Oberspreewald-Lausitz","type":"Landkreis"},"federalState":{"key":"12","name":"Brandenburg"}},{"key":"12066304","name":"Senftenberg/Zły Komorow, Stadt","type":"Stadt","postalCode":"01968","multiplePostalCodes":true,"association":{"key":"12066","name":"Senftenberg/Zły Komorow, Stadt","type":"Verbandsfreie_Gemeinde"},"district":{"key":"12066","name":"Oberspreewald-Lausitz","type":"Landkreis"},"federalState":{"key":"12","name":"Brandenburg"}},{"key":"12066316","name":"Tettau","type":"Kreisangehörige_Gemeinde","postalCode":"01945","multiplePostalCodes":true,"association":{"key":"12066","name":"Ortrand","type":"Amt"},"district":{"key":"12066","name":"Oberspreewald-Lausitz","type":"Landkreis"},"federalState":{"key":"12","name":"Brandenburg"}},{"key":"12066320","name":"Vetschau/Spreewald / Wětošow/Błota, Stadt","type":"Stadt","postalCode":"03226","multiplePostalCodes":false,"association":{"key":"12066","name":"Vetschau/Spreewald / Wětošow/Błota, Stadt","type":"Verbandsfreie_Gemeinde"},"district":{"key":"12066","name":"Oberspreewald-Lausitz","type":"Landkreis"},"federalState":{"key":"12","name":"Brandenburg"}}]