[{"name":"Abt-Luke-Str.","postalCode":"57482","locality":"Wenden","municipality":{"key":"05966028","name":"Wenden","type":"Kreisangehörige_Gemeinde"},"district":{"key":"05966","name":"Olpe","type":"Kreis"},"federalState":{"key":"05","name":"Nordrhein-Westfalen"}},{"name":"Abt-Maurus-Kaufmann-Weg","postalCode":"57482","locality":"Wenden","municipality":{"key":"05966028","name":"Wenden","type":"Kreisangehörige_Gemeinde"},"district":{"key":"05966","name":"Olpe","type":"Kreis"},"federalState":{"key":"05","name":"Nordrhein-Westfalen"}},{"name":"Adlerweg","postalCode":"57482","locality":"Wenden","municipality":{"key":"05966028","name":"Wenden","type":"Kreisangehörige_Gemeinde"},"district":{"key":"05966","name":"Olpe","type":"Kreis"},"federalState":{"key":"05","name":"Nordrhein-Westfalen"}},{"name":"Agathastr.","postalCode":"57482","locality":"Wenden","municipality":{"key":"05966028","name":"Wenden","type":"Kreisangehörige_Gemeinde"},"district":{"key":"05966","name":"Olpe","type":"Kreis"},"federalState":{"key":"05","name":"Nordrhein-Westfalen"}},{"name":"Ahornstr.","postalCode":"87787","locality":"Wolfertschwenden","municipality":{"key":"09778218","name":"Wolfertschwenden","type":"Kreisangehörige_Gemeinde"},"district":{"key":"09778","name":"Unterallgäu","type":"Landkreis"},"federalState":{"key":"09","name":"Bayern"}},{"name":"Ahornweg","postalCode":"57482","locality":"Wenden","municipality":{"key":"05966028","name":"Wenden","type":"Kreisangehörige_Gemeinde"},"district":{"key":"05966","name":"Olpe","type":"Kreis"},"federalState":{"key":"05","name":"Nordrhein-Westfalen"}},{"name":"Albert-Schweitzer-Str.","postalCode":"66879","locality":"Steinwenden","municipality":{"key":"07335044","name":"Steinwenden","type":"Kreisangehörige_Gemeinde"},"district":{"key":"07335","name":"Kaiserslautern","type":"Landkreis"},"federalState":{"key":"07","name":"Rheinland-Pfalz"}},{"name":"Allgäuer Str.","postalCode":"87787","locality":"Wolfertschwenden","municipality":{"key":"09778218","name":"Wolfertschwenden","type":"Kreisangehörige_Gemeinde"},"district":{"key":"09778","name":"Unterallgäu","type":"Landkreis"},"federalState":{"key":"09","name":"Bayern"}},{"name":"Alte Gartenstr.","postalCode":"57482","locality":"Wenden","municipality":{"key":"05966028","name":"Wenden","type":"Kreisangehörige_Gemeinde"},"district":{"key":"05966","name":"Olpe","type":"Kreis"},"federalState":{"key":"05","name":"Nordrhein-Westfalen"}},{"name":"Alter Amtsweg","postalCode":"57482","locality":"Wenden","municipality":{"key":"05966028","name":"Wenden","type":"Kreisangehörige_Gemeinde"},"district":{"key":"05966","name":"Olpe","type":"Kreis"},"federalState":{"key":"05","name":"Nordrhein-Westfalen"}},{"name":"Alter Kirchweg","postalCode":"57482","locality":"Wenden","municipality":{"key":"05966028","name":"Wenden","type":"Kreisangehörige_Gemeinde"},"district":{"key":"05966","name":"Olpe","type":"Kreis"},"federalState":{"key":"05","name":"Nordrhein-Westfalen"}},{"name":"Alter Schützenplatz","postalCode":"57482","locality":"Wenden","municipality":{"key":"05966028","name":"Wenden","type":"Kreisangehörige_Gemeinde"},"district":{"key":"05966","name":"Olpe","type":"Kreis"},"federalState":{"key":"05","name":"Nordrhein-Westfalen"}},{"name":"Alter Weg","postalCode":"57482","locality":"Wenden","municipality":{"key":"05966028","name":"Wenden","type":"Kreisangehörige_Gemeinde"},"district":{"key":"05966","name":"Olpe","type":"Kreis"},"federalState":{"key":"05","name":"Nordrhein-Westfalen"}},{"name":"Alte Schulstr.","postalCode":"57482","locality":"Wenden","municipality":{"key":"05966028","name":"Wenden","type":"Kreisangehörige_Gemeinde"},"district":{"key":"05966","name":"Olpe","type":"Kreis"},"federalState":{"key":"05","name":"Nordrhein-Westfalen"}},{"name":"Am alten Steinbruch","postalCode":"57482","locality":"Wenden","municipality":{"key":"05966028","name":"Wenden","type":"Kreisangehörige_Gemeinde"},"district":{"key":"05966","name":"Olpe","type":"Kreis"},"federalState":{"key":"05","name":"Nordrhein-Westfalen"}},{"name":"Am Backes","postalCode":"57482","locality":"Wenden","municipality":{"key":"05966028","name":"Wenden","type":"Kreisangehörige_Gemeinde"},"district":{"key":"05966","name":"Olpe","type":"Kreis"},"federalState":{"key":"05","name":"Nordrhein-Westfalen"}},{"name":"Am Baumhof","postalCode":"57482","locality":"Wenden","municipality":{"key":"05966028","name":"Wenden","type":"Kreisangehörige_Gemeinde"},"district":{"key":"05966","name":"Olpe","type":"Kreis"},"federalState":{"key":"05","name":"Nordrhein-Westfalen"}},{"name":"Am Berge","postalCode":"57482","locality":"Wenden","municipality":{"key":"05966028","name":"Wenden","type":"Kreisangehörige_Gemeinde"},"district":{"key":"05966","name":"Olpe","type":"Kreis"},"federalState":{"key":"05","name":"Nordrhein-Westfalen"}},{"name":"Am Bruch","postalCode":"57482","locality":"Wenden","municipality":{"key":"05966028","name":"Wenden","type":"Kreisangehörige_Gemeinde"},"district":{"key":"05966","name":"Olpe","type":"Kreis"},"federalState":{"key":"05","name":"Nordrhein-Westfalen"}},{"name":"Am Buchhagen","postalCode":"57482","locality":"Wenden","municipality":{"key":"05966028","name":"Wenden","type":"Kreisangehörige_Gemeinde"},"district":{"key":"05966","name":"Olpe","type":"Kreis"},"federalState":{"key":"05","name":"Nordrhein-Westfalen"}},{"name":"Am Dorfgarten","postalCode":"66879","locality":"Steinwenden","municipality":{"key":"07335044","name":"Steinwenden","type":"Kreisangehörige_Gemeinde"},"district":{"key":"07335","name":"Kaiserslautern","type":"Landkreis"},"federalState":{"key":"07","name":"Rheinland-Pfalz"}},{"name":"Am Ehrenmal","postalCode":"57482","locality":"Wenden","municipality":{"key":"05966028","name":"Wenden","type":"Kreisangehörige_Gemeinde"},"district":{"key":"05966","name":"Olpe","type":"Kreis"},"federalState":{"key":"05","name":"Nordrhein-Westfalen"}},{"name":"Am Elsenfeld","postalCode":"57482","locality":"Wenden","municipality":{"key":"05966028","name":"Wenden","type":"Kreisangehörige_Gemeinde"},"district":{"key":"05966","name":"Olpe","type":"Kreis"},"federalState":{"key":"05","name":"Nordrhein-Westfalen"}},{"name":"Am Fockenberg","postalCode":"57482","locality":"Wenden","municipality":{"key":"05966028","name":"Wenden","type":"Kreisangehörige_Gemeinde"},"district":{"key":"05966","name":"Olpe","type":"Kreis"},"federalState":{"key":"05","name":"Nordrhein-Westfalen"}},{"name":"Am Friedhof","postalCode":"57482","locality":"Wenden","municipality":{"key":"05966028","name":"Wenden","type":"Kreisangehörige_Gemeinde"},"district":{"key":"05966","name":"Olpe","type":"Kreis"},"federalState":{"key":"05","name":"Nordrhein-Westfalen"}},{"name":"Am Hallöh","postalCode":"57482","locality":"Wenden","municipality":{"key":"05966028","name":"Wenden","type":"Kreisangehörige_Gemeinde"},"district":{"key":"05966","name":"Olpe","type":"Kreis"},"federalState":{"key":"05","name":"Nordrhein-Westfalen"}},{"name":"Am Hammer","postalCode":"57482","locality":"Wenden","municipality":{"key":"05966028","name":"Wenden","type":"Kreisangehörige_Gemeinde"},"district":{"key":"05966","name":"Olpe","type":"Kreis"},"federalState":{"key":"05","name":"Nordrhein-Westfalen"}},{"name":"Am Hammergraben","postalCode":"57482","locality":"Wenden","municipality":{"key":"05966028","name":"Wenden","type":"Kreisangehörige_Gemeinde"},"district":{"key":"05966","name":"Olpe","type":"Kreis"},"federalState":{"key":"05","name":"Nordrhein-Westfalen"}},{"name":"Am Hammerwäldchen","postalCode":"57482","locality":"Wenden","municipality":{"key":"05966028","name":"Wenden","type":"Kreisangehörige_Gemeinde"},"district":{"key":"05966","name":"Olpe","type":"Kreis"},"federalState":{"key":"05","name":"Nordrhein-Westfalen"}},{"name":"Am Härdtchen","postalCode":"57482","locality":"Wenden","municipality":{"key":"05966028","name":"Wenden","type":"Kreisangehörige_Gemeinde"},"district":{"key":"05966","name":"Olpe","type":"Kreis"},"federalState":{"key":"05","name":"Nordrhein-Westfalen"}},{"name":"Am Hirschberg","postalCode":"66879","locality":"Steinwenden","municipality":{"key":"07335044","name":"Steinwenden","type":"Kreisangehörige_Gemeinde"},"district":{"key":"07335","name":"Kaiserslautern","type":"Landkreis"},"federalState":{"key":"07","name":"Rheinland-Pfalz"}},{"name":"Am Hossenhan","postalCode":"57482","locality":"Wenden","municipality":{"key":"05966028","name":"Wenden","type":"Kreisangehörige_Gemeinde"},"district":{"key":"05966","name":"Olpe","type":"Kreis"},"federalState":{"key":"05","name":"Nordrhein-Westfalen"}},{"name":"Am Kattenzahl","postalCode":"57482","locality":"Wenden","municipality":{"key":"05966028","name":"Wenden","type":"Kreisangehörige_Gemeinde"},"district":{"key":"05966","name":"Olpe","type":"Kreis"},"federalState":{"key":"05","name":"Nordrhein-Westfalen"}},{"name":"Am Kindergarten","postalCode":"57482","locality":"Wenden","municipality":{"key":"05966028","name":"Wenden","type":"Kreisangehörige_Gemeinde"},"district":{"key":"05966","name":"Olpe","type":"Kreis"},"federalState":{"key":"05","name":"Nordrhein-Westfalen"}},{"name":"Am Kirchplatz","postalCode":"57482","locality":"Wenden","municipality":{"key":"05966028","name":"Wenden","type":"Kreisangehörige_Gemeinde"},"district":{"key":"05966","name":"Olpe","type":"Kreis"},"federalState":{"key":"05","name":"Nordrhein-Westfalen"}},{"name":"Am Knippchen","postalCode":"57482","locality":"Wenden","municipality":{"key":"05966028","name":"Wenden","type":"Kreisangehörige_Gemeinde"},"district":{"key":"05966","name":"Olpe","type":"Kreis"},"federalState":{"key":"05","name":"Nordrhein-Westfalen"}},{"name":"Am Knippstein","postalCode":"57482","locality":"Wenden","municipality":{"key":"05966028","name":"Wenden","type":"Kreisangehörige_Gemeinde"},"district":{"key":"05966","name":"Olpe","type":"Kreis"},"federalState":{"key":"05","name":"Nordrhein-Westfalen"}},{"name":"Am Löhkopf","postalCode":"57482","locality":"Wenden","municipality":{"key":"05966028","name":"Wenden","type":"Kreisangehörige_Gemeinde"},"district":{"key":"05966","name":"Olpe","type":"Kreis"},"federalState":{"key":"05","name":"Nordrhein-Westfalen"}},{"name":"Am Meierhof","postalCode":"87787","locality":"Wolfertschwenden","municipality":{"key":"09778218","name":"Wolfertschwenden","type":"Kreisangehörige_Gemeinde"},"district":{"key":"09778","name":"Unterallgäu","type":"Landkreis"},"federalState":{"key":"09","name":"Bayern"}},{"name":"Am Nocken","postalCode":"57482","locality":"Wenden","municipality":{"key":"05966028","name":"Wenden","type":"Kreisangehörige_Gemeinde"},"district":{"key":"05966","name":"Olpe","type":"Kreis"},"federalState":{"key":"05","name":"Nordrhein-Westfalen"}},{"name":"Am Rehberg","postalCode":"57482","locality":"Wenden","municipality":{"key":"05966028","name":"Wenden","type":"Kreisangehörige_Gemeinde"},"district":{"key":"05966","name":"Olpe","type":"Kreis"},"federalState":{"key":"05","name":"Nordrhein-Westfalen"}},{"name":"Am Rengelhof","postalCode":"37318","locality":"Thalwenden","municipality":{"key":"16061096","name":"Thalwenden","type":"Kreisangehörige_Gemeinde"},"district":{"key":"16061","name":"Eichsfeld","type":"Landkreis"},"federalState":{"key":"16","name":"Thüringen"}},{"name":"Am Schlegelsberg","postalCode":"57482","locality":"Wenden","municipality":{"key":"05966028","name":"Wenden","type":"Kreisangehörige_Gemeinde"},"district":{"key":"05966","name":"Olpe","type":"Kreis"},"federalState":{"key":"05","name":"Nordrhein-Westfalen"}},{"name":"Am Schützenheim","postalCode":"87787","locality":"Wolfertschwenden","municipality":{"key":"09778218","name":"Wolfertschwenden","type":"Kreisangehörige_Gemeinde"},"district":{"key":"09778","name":"Unterallgäu","type":"Landkreis"},"federalState":{"key":"09","name":"Bayern"}},{"name":"Am Schwalbental","postalCode":"66879","locality":"Steinwenden","municipality":{"key":"07335044","name":"Steinwenden","type":"Kreisangehörige_Gemeinde"},"district":{"key":"07335","name":"Kaiserslautern","type":"Landkreis"},"federalState":{"key":"07","name":"Rheinland-Pfalz"}},{"name":"Amselweg","postalCode":"57482","locality":"Wenden","municipality":{"key":"05966028","name":"Wenden","type":"Kreisangehörige_Gemeinde"},"district":{"key":"05966","name":"Olpe","type":"Kreis"},"federalState":{"key":"05","name":"Nordrhein-Westfalen"}},{"name":"Am Sonnenhang","postalCode":"57482","locality":"Wenden","municipality":{"key":"05966028","name":"Wenden","type":"Kreisangehörige_Gemeinde"},"district":{"key":"05966","name":"Olpe","type":"Kreis"},"federalState":{"key":"05","name":"Nordrhein-Westfalen"}},{"name":"Am Sportplatz","postalCode":"87787","locality":"Wolfertschwenden","municipality":{"key":"09778218","name":"Wolfertschwenden","type":"Kreisangehörige_Gemeinde"},"district":{"key":"09778","name":"Unterallgäu","type":"Landkreis"},"federalState":{"key":"09","name":"Bayern"}},{"name":"Am Umpern","postalCode":"57482","locality":"Wenden","municipality":{"key":"05966028","name":"Wenden","type":"Kreisangehörige_Gemeinde"},"district":{"key":"05966","name":"Olpe","type":"Kreis"},"federalState":{"key":"05","name":"Nordrhein-Westfalen"}},{"name":"Am Walde","postalCode":"57482","locality":"Wenden","municipality":{"key":"05966028","name":"Wenden","type":"Kreisangehörige_Gemeinde"},"district":{"key":"05966","name":"Olpe","type":"Kreis"},"federalState":{"key":"05","name":"Nordrhein-Westfalen"}},{"name":"Bachstr.","postalCode":"57482","locality":"Wenden","municipality":{"key":"05966028","name":"Wenden","type":"Kreisangehörige_Gemeinde"},"district":{"key":"05966","name":"Olpe","type":"Kreis"},"federalState":{"key":"05","name":"Nordrhein-Westfalen"}},{"name":"Bachstr.","postalCode":"87787","locality":"Wolfertschwenden","municipality":{"key":"09778218","name":"Wolfertschwenden","type":"Kreisangehörige_Gemeinde"},"district":{"key":"09778","name":"Unterallgäu","type":"Landkreis"},"federalState":{"key":"09","name":"Bayern"}},{"name":"Bachweg","postalCode":"66879","locality":"Steinwenden","municipality":{"key":"07335044","name":"Steinwenden","type":"Kreisangehörige_Gemeinde"},"district":{"key":"07335","name":"Kaiserslautern","type":"Landkreis"},"federalState":{"key":"07","name":"Rheinland-Pfalz"}},{"name":"Baderweg","postalCode":"87787","locality":"Wolfertschwenden","municipality":{"key":"09778218","name":"Wolfertschwenden","type":"Kreisangehörige_Gemeinde"},"district":{"key":"09778","name":"Unterallgäu","type":"Landkreis"},"federalState":{"key":"09","name":"Bayern"}},{"name":"Bahnhofstr.","postalCode":"57482","locality":"Wenden","municipality":{"key":"05966028","name":"Wenden","type":"Kreisangehörige_Gemeinde"},"district":{"key":"05966","name":"Olpe","type":"Kreis"},"federalState":{"key":"05","name":"Nordrhein-Westfalen"}},{"name":"Bahnhofstr.","postalCode":"66879","locality":"Steinwenden","municipality":{"key":"07335044","name":"Steinwenden","type":"Kreisangehörige_Gemeinde"},"district":{"key":"07335","name":"Kaiserslautern","type":"Landkreis"},"federalState":{"key":"07","name":"Rheinland-Pfalz"}},{"name":"Bahnhofstr.","postalCode":"87787","locality":"Wolfertschwenden","municipality":{"key":"09778218","name":"Wolfertschwenden","type":"Kreisangehörige_Gemeinde"},"district":{"key":"09778","name":"Unterallgäu","type":"Landkreis"},"federalState":{"key":"09","name":"Bayern"}},{"name":"Balzenbergstr.","postalCode":"57482","locality":"Wenden","municipality":{"key":"05966028","name":"Wenden","type":"Kreisangehörige_Gemeinde"},"district":{"key":"05966","name":"Olpe","type":"Kreis"},"federalState":{"key":"05","name":"Nordrhein-Westfalen"}},{"name":"Bärenweg","postalCode":"87787","locality":"Wolfertschwenden","municipality":{"key":"09778218","name":"Wolfertschwenden","type":"Kreisangehörige_Gemeinde"},"district":{"key":"09778","name":"Unterallgäu","type":"Landkreis"},"federalState":{"key":"09","name":"Bayern"}},{"name":"Bartoldusstr.","postalCode":"57482","locality":"Wenden","municipality":{"key":"05966028","name":"Wenden","type":"Kreisangehörige_Gemeinde"},"district":{"key":"05966","name":"Olpe","type":"Kreis"},"federalState":{"key":"05","name":"Nordrhein-Westfalen"}},{"name":"Baumstr.","postalCode":"87787","locality":"Wolfertschwenden","municipality":{"key":"09778218","name":"Wolfertschwenden","type":"Kreisangehörige_Gemeinde"},"district":{"key":"09778","name":"Unterallgäu","type":"Landkreis"},"federalState":{"key":"09","name":"Bayern"}},{"name":"Baustr.","postalCode":"57482","locality":"Wenden","municipality":{"key":"05966028","name":"Wenden","type":"Kreisangehörige_Gemeinde"},"district":{"key":"05966","name":"Olpe","type":"Kreis"},"federalState":{"key":"05","name":"Nordrhein-Westfalen"}},{"name":"Bebbingen","postalCode":"57482","locality":"Wenden","municipality":{"key":"05966028","name":"Wenden","type":"Kreisangehörige_Gemeinde"},"district":{"key":"05966","name":"Olpe","type":"Kreis"},"federalState":{"key":"05","name":"Nordrhein-Westfalen"}},{"name":"Bebbinger Str.","postalCode":"57482","locality":"Wenden","municipality":{"key":"05966028","name":"Wenden","type":"Kreisangehörige_Gemeinde"},"district":{"key":"05966","name":"Olpe","type":"Kreis"},"federalState":{"key":"05","name":"Nordrhein-Westfalen"}},{"name":"Benzenbergstr.","postalCode":"57482","locality":"Wenden","municipality":{"key":"05966028","name":"Wenden","type":"Kreisangehörige_Gemeinde"},"district":{"key":"05966","name":"Olpe","type":"Kreis"},"federalState":{"key":"05","name":"Nordrhein-Westfalen"}},{"name":"Berghof","postalCode":"57482","locality":"Wenden","municipality":{"key":"05966028","name":"Wenden","type":"Kreisangehörige_Gemeinde"},"district":{"key":"05966","name":"Olpe","type":"Kreis"},"federalState":{"key":"05","name":"Nordrhein-Westfalen"}},{"name":"Bergische Str.","postalCode":"57482","locality":"Wenden","municipality":{"key":"05966028","name":"Wenden","type":"Kreisangehörige_Gemeinde"},"district":{"key":"05966","name":"Olpe","type":"Kreis"},"federalState":{"key":"05","name":"Nordrhein-Westfalen"}},{"name":"Bergkamm","postalCode":"57482","locality":"Wenden","municipality":{"key":"05966028","name":"Wenden","type":"Kreisangehörige_Gemeinde"},"district":{"key":"05966","name":"Olpe","type":"Kreis"},"federalState":{"key":"05","name":"Nordrhein-Westfalen"}},{"name":"Bergstr.","postalCode":"57482","locality":"Wenden","municipality":{"key":"05966028","name":"Wenden","type":"Kreisangehörige_Gemeinde"},"district":{"key":"05966","name":"Olpe","type":"Kreis"},"federalState":{"key":"05","name":"Nordrhein-Westfalen"}},{"name":"Bergstr.","postalCode":"66879","locality":"Steinwenden","municipality":{"key":"07335044","name":"Steinwenden","type":"Kreisangehörige_Gemeinde"},"district":{"key":"07335","name":"Kaiserslautern","type":"Landkreis"},"federalState":{"key":"07","name":"Rheinland-Pfalz"}},{"name":"Bergstr.","postalCode":"87787","locality":"Wolfertschwenden","municipality":{"key":"09778218","name":"Wolfertschwenden","type":"Kreisangehörige_Gemeinde"},"district":{"key":"09778","name":"Unterallgäu","type":"Landkreis"},"federalState":{"key":"09","name":"Bayern"}},{"name":"Biebergstr.","postalCode":"57482","locality":"Wenden","municipality":{"key":"05966028","name":"Wenden","type":"Kreisangehörige_Gemeinde"},"district":{"key":"05966","name":"Olpe","type":"Kreis"},"federalState":{"key":"05","name":"Nordrhein-Westfalen"}},{"name":"Biebergwiese","postalCode":"57482","locality":"Wenden","municipality":{"key":"05966028","name":"Wenden","type":"Kreisangehörige_Gemeinde"},"district":{"key":"05966","name":"Olpe","type":"Kreis"},"federalState":{"key":"05","name":"Nordrhein-Westfalen"}},{"name":"Biggestr.","postalCode":"57482","locality":"Wenden","municipality":{"key":"05966028","name":"Wenden","type":"Kreisangehörige_Gemeinde"},"district":{"key":"05966","name":"Olpe","type":"Kreis"},"federalState":{"key":"05","name":"Nordrhein-Westfalen"}},{"name":"Birkenstr.","postalCode":"87787","locality":"Wolfertschwenden","municipality":{"key":"09778218","name":"Wolfertschwenden","type":"Kreisangehörige_Gemeinde"},"district":{"key":"09778","name":"Unterallgäu","type":"Landkreis"},"federalState":{"key":"09","name":"Bayern"}},{"name":"Birkenweg","postalCode":"57482","locality":"Wenden","municipality":{"key":"05966028","name":"Wenden","type":"Kreisangehörige_Gemeinde"},"district":{"key":"05966","name":"Olpe","type":"Kreis"},"federalState":{"key":"05","name":"Nordrhein-Westfalen"}},{"name":"Bischof-Wilhelm-Str.","postalCode":"57482","locality":"Wenden","municipality":{"key":"05966028","name":"Wenden","type":"Kreisangehörige_Gemeinde"},"district":{"key":"05966","name":"Olpe","type":"Kreis"},"federalState":{"key":"05","name":"Nordrhein-Westfalen"}},{"name":"Blinder Weg","postalCode":"57482","locality":"Wenden","municipality":{"key":"05966028","name":"Wenden","type":"Kreisangehörige_Gemeinde"},"district":{"key":"05966","name":"Olpe","type":"Kreis"},"federalState":{"key":"05","name":"Nordrhein-Westfalen"}},{"name":"Blumenstr.","postalCode":"57482","locality":"Wenden","municipality":{"key":"05966028","name":"Wenden","type":"Kreisangehörige_Gemeinde"},"district":{"key":"05966","name":"Olpe","type":"Kreis"},"federalState":{"key":"05","name":"Nordrhein-Westfalen"}},{"name":"Blütenweg","postalCode":"57482","locality":"Wenden","municipality":{"key":"05966028","name":"Wenden","type":"Kreisangehörige_Gemeinde"},"district":{"key":"05966","name":"Olpe","type":"Kreis"},"federalState":{"key":"05","name":"Nordrhein-Westfalen"}},{"name":"Bogenweg","postalCode":"57482","locality":"Wenden","municipality":{"key":"05966028","name":"Wenden","type":"Kreisangehörige_Gemeinde"},"district":{"key":"05966","name":"Olpe","type":"Kreis"},"federalState":{"key":"05","name":"Nordrhein-Westfalen"}},{"name":"Brandholzer Steige","postalCode":"87787","locality":"Wolfertschwenden","municipality":{"key":"09778218","name":"Wolfertschwenden","type":"Kreisangehörige_Gemeinde"},"district":{"key":"09778","name":"Unterallgäu","type":"Landkreis"},"federalState":{"key":"09","name":"Bayern"}},{"name":"Breiter Bruch","postalCode":"57482","locality":"Wenden","municipality":{"key":"05966028","name":"Wenden","type":"Kreisangehörige_Gemeinde"},"district":{"key":"05966","name":"Olpe","type":"Kreis"},"federalState":{"key":"05","name":"Nordrhein-Westfalen"}},{"name":"Breites Tor","postalCode":"57482","locality":"Wenden","municipality":{"key":"05966028","name":"Wenden","type":"Kreisangehörige_Gemeinde"},"district":{"key":"05966","name":"Olpe","type":"Kreis"},"federalState":{"key":"05","name":"Nordrhein-Westfalen"}},{"name":"Bremerfohr","postalCode":"57482","locality":"Wenden","municipality":{"key":"05966028","name":"Wenden","type":"Kreisangehörige_Gemeinde"},"district":{"key":"05966","name":"Olpe","type":"Kreis"},"federalState":{"key":"05","name":"Nordrhein-Westfalen"}},{"name":"Brentanostr.","postalCode":"57482","locality":"Wenden","municipality":{"key":"05966028","name":"Wenden","type":"Kreisangehörige_Gemeinde"},"district":{"key":"05966","name":"Olpe","type":"Kreis"},"federalState":{"key":"05","name":"Nordrhein-Westfalen"}},{"name":"Breslauer Str.","postalCode":"57482","locality":"Wenden","municipality":{"key":"05966028","name":"Wenden","type":"Kreisangehörige_Gemeinde"},"district":{"key":"05966","name":"Olpe","type":"Kreis"},"federalState":{"key":"05","name":"Nordrhein-Westfalen"}},{"name":"Brücher Weg","postalCode":"57482","locality":"Wenden","municipality":{"key":"05966028","name":"Wenden","type":"Kreisangehörige_Gemeinde"},"district":{"key":"05966","name":"Olpe","type":"Kreis"},"federalState":{"key":"05","name":"Nordrhein-Westfalen"}},{"name":"Bruchfeldstr.","postalCode":"57482","locality":"Wenden","municipality":{"key":"05966028","name":"Wenden","type":"Kreisangehörige_Gemeinde"},"district":{"key":"05966","name":"Olpe","type":"Kreis"},"federalState":{"key":"05","name":"Nordrhein-Westfalen"}},{"name":"Bruchstr.","postalCode":"57482","locality":"Wenden","municipality":{"key":"05966028","name":"Wenden","type":"Kreisangehörige_Gemeinde"},"district":{"key":"05966","name":"Olpe","type":"Kreis"},"federalState":{"key":"05","name":"Nordrhein-Westfalen"}},{"name":"Brückenstr.","postalCode":"57482","locality":"Wenden","municipality":{"key":"05966028","name":"Wenden","type":"Kreisangehörige_Gemeinde"},"district":{"key":"05966","name":"Olpe","type":"Kreis"},"federalState":{"key":"05","name":"Nordrhein-Westfalen"}},{"name":"Brückenstr.","postalCode":"66879","locality":"Steinwenden","municipality":{"key":"07335044","name":"Steinwenden","type":"Kreisangehörige_Gemeinde"},"district":{"key":"07335","name":"Kaiserslautern","type":"Landkreis"},"federalState":{"key":"07","name":"Rheinland-Pfalz"}},{"name":"Brückenweg","postalCode":"66879","locality":"Steinwenden","municipality":{"key":"07335044","name":"Steinwenden","type":"Kreisangehörige_Gemeinde"},"district":{"key":"07335","name":"Kaiserslautern","type":"Landkreis"},"federalState":{"key":"07","name":"Rheinland-Pfalz"}},{"name":"Brunnenstr.","postalCode":"57482","locality":"Wenden","municipality":{"key":"05966028","name":"Wenden","type":"Kreisangehörige_Gemeinde"},"district":{"key":"05966","name":"Olpe","type":"Kreis"},"federalState":{"key":"05","name":"Nordrhein-Westfalen"}},{"name":"Büchen","postalCode":"57482","locality":"Wenden","municipality":{"key":"05966028","name":"Wenden","type":"Kreisangehörige_Gemeinde"},"district":{"key":"05966","name":"Olpe","type":"Kreis"},"federalState":{"key":"05","name":"Nordrhein-Westfalen"}},{"name":"Büchener Str.","postalCode":"57482","locality":"Wenden","municipality":{"key":"05966028","name":"Wenden","type":"Kreisangehörige_Gemeinde"},"district":{"key":"05966","name":"Olpe","type":"Kreis"},"federalState":{"key":"05","name":"Nordrhein-Westfalen"}},{"name":"Buchenstr.","postalCode":"87787","locality":"Wolfertschwenden","municipality":{"key":"09778218","name":"Wolfertschwenden","type":"Kreisangehörige_Gemeinde"},"district":{"key":"09778","name":"Unterallgäu","type":"Landkreis"},"federalState":{"key":"09","name":"Bayern"}},{"name":"Buchenweg","postalCode":"57482","locality":"Wenden","municipality":{"key":"05966028","name":"Wenden","type":"Kreisangehörige_Gemeinde"},"district":{"key":"05966","name":"Olpe","type":"Kreis"},"federalState":{"key":"05","name":"Nordrhein-Westfalen"}},{"name":"Bühlstr.","postalCode":"57482","locality":"Wenden","municipality":{"key":"05966028","name":"Wenden","type":"Kreisangehörige_Gemeinde"},"district":{"key":"05966","name":"Olpe","type":"Kreis"},"federalState":{"key":"05","name":"Nordrhein-Westfalen"}},{"name":"Burgstr.","postalCode":"57482","locality":"Wenden","municipality":{"key":"05966028","name":"Wenden","type":"Kreisangehörige_Gemeinde"},"district":{"key":"05966","name":"Olpe","type":"Kreis"},"federalState":{"key":"05","name":"Nordrhein-Westfalen"}},{"name":"Christophorusstr.","postalCode":"57482","locality":"Wenden","municipality":{"key":"05966028","name":"Wenden","type":"Kreisangehörige_Gemeinde"},"district":{"key":"05966","name":"Olpe","type":"Kreis"},"federalState":{"key":"05","name":"Nordrhein-Westfalen"}},{"name":"Crottorfer Str.","postalCode":"57482","locality":"Wenden","municipality":{"key":"05966028","name":"Wenden","type":"Kreisangehörige_Gemeinde"},"district":{"key":"05966","name":"Olpe","type":"Kreis"},"federalState":{"key":"05","name":"Nordrhein-Westfalen"}},{"name":"Dahlienweg","postalCode":"57482","locality":"Wenden","municipality":{"key":"05966028","name":"Wenden","type":"Kreisangehörige_Gemeinde"},"district":{"key":"05966","name":"Olpe","type":"Kreis"},"federalState":{"key":"05","name":"Nordrhein-Westfalen"}},{"name":"Daimlerstr.","postalCode":"57482","locality":"Wenden","municipality":{"key":"05966028","name":"Wenden","type":"Kreisangehörige_Gemeinde"},"district":{"key":"05966","name":"Olpe","type":"Kreis"},"federalState":{"key":"05","name":"Nordrhein-Westfalen"}},{"name":"Danielsfeld","postalCode":"57482","locality":"Wenden","municipality":{"key":"05966028","name":"Wenden","type":"Kreisangehörige_Gemeinde"},"district":{"key":"05966","name":"Olpe","type":"Kreis"},"federalState":{"key":"05","name":"Nordrhein-Westfalen"}},{"name":"Danziger Str.","postalCode":"57482","locality":"Wenden","municipality":{"key":"05966028","name":"Wenden","type":"Kreisangehörige_Gemeinde"},"district":{"key":"05966","name":"Olpe","type":"Kreis"},"federalState":{"key":"05","name":"Nordrhein-Westfalen"}},{"name":"Dechant-Scharz-Weg","postalCode":"57482","locality":"Wenden","municipality":{"key":"05966028","name":"Wenden","type":"Kreisangehörige_Gemeinde"},"district":{"key":"05966","name":"Olpe","type":"Kreis"},"federalState":{"key":"05","name":"Nordrhein-Westfalen"}},{"name":"Dingelstädter Str.","postalCode":"57482","locality":"Wenden","municipality":{"key":"05966028","name":"Wenden","type":"Kreisangehörige_Gemeinde"},"district":{"key":"05966","name":"Olpe","type":"Kreis"},"federalState":{"key":"05","name":"Nordrhein-Westfalen"}},{"name":"Dohlenweg","postalCode":"57482","locality":"Wenden","municipality":{"key":"05966028","name":"Wenden","type":"Kreisangehörige_Gemeinde"},"district":{"key":"05966","name":"Olpe","type":"Kreis"},"federalState":{"key":"05","name":"Nordrhein-Westfalen"}},{"name":"Döingen","postalCode":"57482","locality":"Wenden","municipality":{"key":"05966028","name":"Wenden","type":"Kreisangehörige_Gemeinde"},"district":{"key":"05966","name":"Olpe","type":"Kreis"},"federalState":{"key":"05","name":"Nordrhein-Westfalen"}},{"name":"Don-Bosco-Str.","postalCode":"57482","locality":"Wenden","municipality":{"key":"05966028","name":"Wenden","type":"Kreisangehörige_Gemeinde"},"district":{"key":"05966","name":"Olpe","type":"Kreis"},"federalState":{"key":"05","name":"Nordrhein-Westfalen"}},{"name":"Dorfstr.","postalCode":"37318","locality":"Thalwenden","municipality":{"key":"16061096","name":"Thalwenden","type":"Kreisangehörige_Gemeinde"},"district":{"key":"16061","name":"Eichsfeld","type":"Landkreis"},"federalState":{"key":"16","name":"Thüringen"}},{"name":"Dornröschenweg","postalCode":"57482","locality":"Wenden","municipality":{"key":"05966028","name":"Wenden","type":"Kreisangehörige_Gemeinde"},"district":{"key":"05966","name":"Olpe","type":"Kreis"},"federalState":{"key":"05","name":"Nordrhein-Westfalen"}},{"name":"Dörnschlader Weg","postalCode":"57482","locality":"Wenden","municipality":{"key":"05966028","name":"Wenden","type":"Kreisangehörige_Gemeinde"},"district":{"key":"05966","name":"Olpe","type":"Kreis"},"federalState":{"key":"05","name":"Nordrhein-Westfalen"}},{"name":"Drachenfels","postalCode":"57482","locality":"Wenden","municipality":{"key":"05966028","name":"Wenden","type":"Kreisangehörige_Gemeinde"},"district":{"key":"05966","name":"Olpe","type":"Kreis"},"federalState":{"key":"05","name":"Nordrhein-Westfalen"}},{"name":"Dreikönigsstr.","postalCode":"57482","locality":"Wenden","municipality":{"key":"05966028","name":"Wenden","type":"Kreisangehörige_Gemeinde"},"district":{"key":"05966","name":"Olpe","type":"Kreis"},"federalState":{"key":"05","name":"Nordrhein-Westfalen"}},{"name":"Dr.-Hans-Stempel-Ring","postalCode":"66879","locality":"Steinwenden","municipality":{"key":"07335044","name":"Steinwenden","type":"Kreisangehörige_Gemeinde"},"district":{"key":"07335","name":"Kaiserslautern","type":"Landkreis"},"federalState":{"key":"07","name":"Rheinland-Pfalz"}},{"name":"Dr.-Martin-Luther-Str.","postalCode":"66879","locality":"Steinwenden","municipality":{"key":"07335044","name":"Steinwenden","type":"Kreisangehörige_Gemeinde"},"district":{"key":"07335","name":"Kaiserslautern","type":"Landkreis"},"federalState":{"key":"07","name":"Rheinland-Pfalz"}},{"name":"Drosselweg","postalCode":"57482","locality":"Wenden","municipality":{"key":"05966028","name":"Wenden","type":"Kreisangehörige_Gemeinde"},"district":{"key":"05966","name":"Olpe","type":"Kreis"},"federalState":{"key":"05","name":"Nordrhein-Westfalen"}},{"name":"Dürerstr.","postalCode":"57482","locality":"Wenden","municipality":{"key":"05966028","name":"Wenden","type":"Kreisangehörige_Gemeinde"},"district":{"key":"05966","name":"Olpe","type":"Kreis"},"federalState":{"key":"05","name":"Nordrhein-Westfalen"}},{"name":"Düringerstr.","postalCode":"57482","locality":"Wenden","municipality":{"key":"05966028","name":"Wenden","type":"Kreisangehörige_Gemeinde"},"district":{"key":"05966","name":"Olpe","type":"Kreis"},"federalState":{"key":"05","name":"Nordrhein-Westfalen"}},{"name":"Ehwiesmühlstr.","postalCode":"87787","locality":"Wolfertschwenden","municipality":{"key":"09778218","name":"Wolfertschwenden","type":"Kreisangehörige_Gemeinde"},"district":{"key":"09778","name":"Unterallgäu","type":"Landkreis"},"federalState":{"key":"09","name":"Bayern"}},{"name":"Eichendorffstr.","postalCode":"57482","locality":"Wenden","municipality":{"key":"05966028","name":"Wenden","type":"Kreisangehörige_Gemeinde"},"district":{"key":"05966","name":"Olpe","type":"Kreis"},"federalState":{"key":"05","name":"Nordrhein-Westfalen"}},{"name":"Eichenstr.","postalCode":"87787","locality":"Wolfertschwenden","municipality":{"key":"09778218","name":"Wolfertschwenden","type":"Kreisangehörige_Gemeinde"},"district":{"key":"09778","name":"Unterallgäu","type":"Landkreis"},"federalState":{"key":"09","name":"Bayern"}},{"name":"Eichenweg","postalCode":"57482","locality":"Wenden","municipality":{"key":"05966028","name":"Wenden","type":"Kreisangehörige_Gemeinde"},"district":{"key":"05966","name":"Olpe","type":"Kreis"},"federalState":{"key":"05","name":"Nordrhein-Westfalen"}},{"name":"Eichenweg","postalCode":"66879","locality":"Steinwenden","municipality":{"key":"07335044","name":"Steinwenden","type":"Kreisangehörige_Gemeinde"},"district":{"key":"07335","name":"Kaiserslautern","type":"Landkreis"},"federalState":{"key":"07","name":"Rheinland-Pfalz"}},{"name":"Eichewiese","postalCode":"57482","locality":"Wenden","municipality":{"key":"05966028","name":"Wenden","type":"Kreisangehörige_Gemeinde"},"district":{"key":"05966","name":"Olpe","type":"Kreis"},"federalState":{"key":"05","name":"Nordrhein-Westfalen"}},{"name":"Eichhagenstr.","postalCode":"57482","locality":"Wenden","municipality":{"key":"05966028","name":"Wenden","type":"Kreisangehörige_Gemeinde"},"district":{"key":"05966","name":"Olpe","type":"Kreis"},"federalState":{"key":"05","name":"Nordrhein-Westfalen"}},{"name":"Eichsfeld","postalCode":"57482","locality":"Wenden","municipality":{"key":"05966028","name":"Wenden","type":"Kreisangehörige_Gemeinde"},"district":{"key":"05966","name":"Olpe","type":"Kreis"},"federalState":{"key":"05","name":"Nordrhein-Westfalen"}},{"name":"Eisenbahnstr.","postalCode":"66879","locality":"Steinwenden","municipality":{"key":"07335044","name":"Steinwenden","type":"Kreisangehörige_Gemeinde"},"district":{"key":"07335","name":"Kaiserslautern","type":"Landkreis"},"federalState":{"key":"07","name":"Rheinland-Pfalz"}},{"name":"Eisenstr.","postalCode":"57482","locality":"Wenden","municipality":{"key":"05966028","name":"Wenden","type":"Kreisangehörige_Gemeinde"},"district":{"key":"05966","name":"Olpe","type":"Kreis"},"federalState":{"key":"05","name":"Nordrhein-Westfalen"}},{"name":"Elbener Str.","postalCode":"57482","locality":"Wenden","municipality":{"key":"05966028","name":"Wenden","type":"Kreisangehörige_Gemeinde"},"district":{"key":"05966","name":"Olpe","type":"Kreis"},"federalState":{"key":"05","name":"Nordrhein-Westfalen"}},{"name":"Elpernweg","postalCode":"57482","locality":"Wenden","municipality":{"key":"05966028","name":"Wenden","type":"Kreisangehörige_Gemeinde"},"district":{"key":"05966","name":"Olpe","type":"Kreis"},"federalState":{"key":"05","name":"Nordrhein-Westfalen"}},{"name":"Erdenfohr","postalCode":"57482","locality":"Wenden","municipality":{"key":"05966028","name":"Wenden","type":"Kreisangehörige_Gemeinde"},"district":{"key":"05966","name":"Olpe","type":"Kreis"},"federalState":{"key":"05","name":"Nordrhein-Westfalen"}},{"name":"Erfurter Str.","postalCode":"57482","locality":"Wenden","municipality":{"key":"05966028","name":"Wenden","type":"Kreisangehörige_Gemeinde"},"district":{"key":"05966","name":"Olpe","type":"Kreis"},"federalState":{"key":"05","name":"Nordrhein-Westfalen"}},{"name":"Erlenweg","postalCode":"57482","locality":"Wenden","municipality":{"key":"05966028","name":"Wenden","type":"Kreisangehörige_Gemeinde"},"district":{"key":"05966","name":"Olpe","type":"Kreis"},"federalState":{"key":"05","name":"Nordrhein-Westfalen"}},{"name":"Erlenweg","postalCode":"87787","locality":"Wolfertschwenden","municipality":{"key":"09778218","name":"Wolfertschwenden","type":"Kreisangehörige_Gemeinde"},"district":{"key":"09778","name":"Unterallgäu","type":"Landkreis"},"federalState":{"key":"09","name":"Bayern"}},{"name":"Erzstr.","postalCode":"57482","locality":"Wenden","municipality":{"key":"05966028","name":"Wenden","type":"Kreisangehörige_Gemeinde"},"district":{"key":"05966","name":"Olpe","type":"Kreis"},"federalState":{"key":"05","name":"Nordrhein-Westfalen"}},{"name":"Eschenweg","postalCode":"87787","locality":"Wolfertschwenden","municipality":{"key":"09778218","name":"Wolfertschwenden","type":"Kreisangehörige_Gemeinde"},"district":{"key":"09778","name":"Unterallgäu","type":"Landkreis"},"federalState":{"key":"09","name":"Bayern"}},{"name":"Feldweg","postalCode":"57482","locality":"Wenden","municipality":{"key":"05966028","name":"Wenden","type":"Kreisangehörige_Gemeinde"},"district":{"key":"05966","name":"Olpe","type":"Kreis"},"federalState":{"key":"05","name":"Nordrhein-Westfalen"}},{"name":"Ferienpark","postalCode":"57482","locality":"Wenden","municipality":{"key":"05966028","name":"Wenden","type":"Kreisangehörige_Gemeinde"},"district":{"key":"05966","name":"Olpe","type":"Kreis"},"federalState":{"key":"05","name":"Nordrhein-Westfalen"}},{"name":"Fichtenstr.","postalCode":"57482","locality":"Wenden","municipality":{"key":"05966028","name":"Wenden","type":"Kreisangehörige_Gemeinde"},"district":{"key":"05966","name":"Olpe","type":"Kreis"},"federalState":{"key":"05","name":"Nordrhein-Westfalen"}},{"name":"Fischpicke","postalCode":"57482","locality":"Wenden","municipality":{"key":"05966028","name":"Wenden","type":"Kreisangehörige_Gemeinde"},"district":{"key":"05966","name":"Olpe","type":"Kreis"},"federalState":{"key":"05","name":"Nordrhein-Westfalen"}},{"name":"Fliederweg","postalCode":"57482","locality":"Wenden","municipality":{"key":"05966028","name":"Wenden","type":"Kreisangehörige_Gemeinde"},"district":{"key":"05966","name":"Olpe","type":"Kreis"},"federalState":{"key":"05","name":"Nordrhein-Westfalen"}},{"name":"Fliegerhorststr.","postalCode":"57482","locality":"Wenden","municipality":{"key":"05966028","name":"Wenden","type":"Kreisangehörige_Gemeinde"},"district":{"key":"05966","name":"Olpe","type":"Kreis"},"federalState":{"key":"05","name":"Nordrhein-Westfalen"}},{"name":"Flurstr.","postalCode":"66879","locality":"Steinwenden","municipality":{"key":"07335044","name":"Steinwenden","type":"Kreisangehörige_Gemeinde"},"district":{"key":"07335","name":"Kaiserslautern","type":"Landkreis"},"federalState":{"key":"07","name":"Rheinland-Pfalz"}},{"name":"Flurweg","postalCode":"57482","locality":"Wenden","municipality":{"key":"05966028","name":"Wenden","type":"Kreisangehörige_Gemeinde"},"district":{"key":"05966","name":"Olpe","type":"Kreis"},"federalState":{"key":"05","name":"Nordrhein-Westfalen"}},{"name":"Forellenweg","postalCode":"57482","locality":"Wenden","municipality":{"key":"05966028","name":"Wenden","type":"Kreisangehörige_Gemeinde"},"district":{"key":"05966","name":"Olpe","type":"Kreis"},"federalState":{"key":"05","name":"Nordrhein-Westfalen"}},{"name":"Frankenstr.","postalCode":"57482","locality":"Wenden","municipality":{"key":"05966028","name":"Wenden","type":"Kreisangehörige_Gemeinde"},"district":{"key":"05966","name":"Olpe","type":"Kreis"},"federalState":{"key":"05","name":"Nordrhein-Westfalen"}},{"name":"Franz-Hitze-Str.","postalCode":"57482","locality":"Wenden","municipality":{"key":"05966028","name":"Wenden","type":"Kreisangehörige_Gemeinde"},"district":{"key":"05966","name":"Olpe","type":"Kreis"},"federalState":{"key":"05","name":"Nordrhein-Westfalen"}},{"name":"Frauenfeld","postalCode":"57482","locality":"Wenden","municipality":{"key":"05966028","name":"Wenden","type":"Kreisangehörige_Gemeinde"},"district":{"key":"05966","name":"Olpe","type":"Kreis"},"federalState":{"key":"05","name":"Nordrhein-Westfalen"}},{"name":"Freiheitsstr.","postalCode":"57482","locality":"Wenden","municipality":{"key":"05966028","name":"Wenden","type":"Kreisangehörige_Gemeinde"},"district":{"key":"05966","name":"Olpe","type":"Kreis"},"federalState":{"key":"05","name":"Nordrhein-Westfalen"}},{"name":"Freiherr-vom-Stein-Str.","postalCode":"57482","locality":"Wenden","municipality":{"key":"05966028","name":"Wenden","type":"Kreisangehörige_Gemeinde"},"district":{"key":"05966","name":"Olpe","type":"Kreis"},"federalState":{"key":"05","name":"Nordrhein-Westfalen"}},{"name":"Freiherr-von-Ketteler-Str.","postalCode":"66879","locality":"Steinwenden","municipality":{"key":"07335044","name":"Steinwenden","type":"Kreisangehörige_Gemeinde"},"district":{"key":"07335","name":"Kaiserslautern","type":"Landkreis"},"federalState":{"key":"07","name":"Rheinland-Pfalz"}},{"name":"Freudenberger Str.","postalCode":"57482","locality":"Wenden","municipality":{"key":"05966028","name":"Wenden","type":"Kreisangehörige_Gemeinde"},"district":{"key":"05966","name":"Olpe","type":"Kreis"},"federalState":{"key":"05","name":"Nordrhein-Westfalen"}},{"name":"Friedensstr.","postalCode":"57482","locality":"Wenden","municipality":{"key":"05966028","name":"Wenden","type":"Kreisangehörige_Gemeinde"},"district":{"key":"05966","name":"Olpe","type":"Kreis"},"federalState":{"key":"05","name":"Nordrhein-Westfalen"}},{"name":"Friedhofstr.","postalCode":"66879","locality":"Steinwenden","municipality":{"key":"07335044","name":"Steinwenden","type":"Kreisangehörige_Gemeinde"},"district":{"key":"07335","name":"Kaiserslautern","type":"Landkreis"},"federalState":{"key":"07","name":"Rheinland-Pfalz"}},{"name":"Friedhofweg","postalCode":"57482","locality":"Wenden","municipality":{"key":"05966028","name":"Wenden","type":"Kreisangehörige_Gemeinde"},"district":{"key":"05966","name":"Olpe","type":"Kreis"},"federalState":{"key":"05","name":"Nordrhein-Westfalen"}},{"name":"Friedhofweg","postalCode":"87787","locality":"Wolfertschwenden","municipality":{"key":"09778218","name":"Wolfertschwenden","type":"Kreisangehörige_Gemeinde"},"district":{"key":"09778","name":"Unterallgäu","type":"Landkreis"},"federalState":{"key":"09","name":"Bayern"}},{"name":"Gartenfeldstr.","postalCode":"57482","locality":"Wenden","municipality":{"key":"05966028","name":"Wenden","type":"Kreisangehörige_Gemeinde"},"district":{"key":"05966","name":"Olpe","type":"Kreis"},"federalState":{"key":"05","name":"Nordrhein-Westfalen"}},{"name":"Gartenstr.","postalCode":"57482","locality":"Wenden","municipality":{"key":"05966028","name":"Wenden","type":"Kreisangehörige_Gemeinde"},"district":{"key":"05966","name":"Olpe","type":"Kreis"},"federalState":{"key":"05","name":"Nordrhein-Westfalen"}},{"name":"Gartenweg","postalCode":"66879","locality":"Steinwenden","municipality":{"key":"07335044","name":"Steinwenden","type":"Kreisangehörige_Gemeinde"},"district":{"key":"07335","name":"Kaiserslautern","type":"Landkreis"},"federalState":{"key":"07","name":"Rheinland-Pfalz"}},{"name":"Gasse","postalCode":"37318","locality":"Thalwenden","municipality":{"key":"16061096","name":"Thalwenden","type":"Kreisangehörige_Gemeinde"},"district":{"key":"16061","name":"Eichsfeld","type":"Landkreis"},"federalState":{"key":"16","name":"Thüringen"}},{"name":"Georg-Schnadel-Weg","postalCode":"87787","locality":"Wolfertschwenden","municipality":{"key":"09778218","name":"Wolfertschwenden","type":"Kreisangehörige_Gemeinde"},"district":{"key":"09778","name":"Unterallgäu","type":"Landkreis"},"federalState":{"key":"09","name":"Bayern"}},{"name":"Geranienweg","postalCode":"57482","locality":"Wenden","municipality":{"key":"05966028","name":"Wenden","type":"Kreisangehörige_Gemeinde"},"district":{"key":"05966","name":"Olpe","type":"Kreis"},"federalState":{"key":"05","name":"Nordrhein-Westfalen"}},{"name":"Gerlinger Weg","postalCode":"57482","locality":"Wenden","municipality":{"key":"05966028","name":"Wenden","type":"Kreisangehörige_Gemeinde"},"district":{"key":"05966","name":"Olpe","type":"Kreis"},"federalState":{"key":"05","name":"Nordrhein-Westfalen"}},{"name":"Germanenstr.","postalCode":"57482","locality":"Wenden","municipality":{"key":"05966028","name":"Wenden","type":"Kreisangehörige_Gemeinde"},"district":{"key":"05966","name":"Olpe","type":"Kreis"},"federalState":{"key":"05","name":"Nordrhein-Westfalen"}},{"name":"Gertmicke","postalCode":"57482","locality":"Wenden","municipality":{"key":"05966028","name":"Wenden","type":"Kreisangehörige_Gemeinde"},"district":{"key":"05966","name":"Olpe","type":"Kreis"},"federalState":{"key":"05","name":"Nordrhein-Westfalen"}},{"name":"Geschwister-Scholl-Str.","postalCode":"57482","locality":"Wenden","municipality":{"key":"05966028","name":"Wenden","type":"Kreisangehörige_Gemeinde"},"district":{"key":"05966","name":"Olpe","type":"Kreis"},"federalState":{"key":"05","name":"Nordrhein-Westfalen"}},{"name":"Giersberger Str.","postalCode":"57482","locality":"Wenden","municipality":{"key":"05966028","name":"Wenden","type":"Kreisangehörige_Gemeinde"},"district":{"key":"05966","name":"Olpe","type":"Kreis"},"federalState":{"key":"05","name":"Nordrhein-Westfalen"}},{"name":"Ginsterweg","postalCode":"57482","locality":"Wenden","municipality":{"key":"05966028","name":"Wenden","type":"Kreisangehörige_Gemeinde"},"district":{"key":"05966","name":"Olpe","type":"Kreis"},"federalState":{"key":"05","name":"Nordrhein-Westfalen"}},{"name":"Girkhausen","postalCode":"57482","locality":"Wenden","municipality":{"key":"05966028","name":"Wenden","type":"Kreisangehörige_Gemeinde"},"district":{"key":"05966","name":"Olpe","type":"Kreis"},"federalState":{"key":"05","name":"Nordrhein-Westfalen"}},{"name":"Girkhausener Str.","postalCode":"57482","locality":"Wenden","municipality":{"key":"05966028","name":"Wenden","type":"Kreisangehörige_Gemeinde"},"district":{"key":"05966","name":"Olpe","type":"Kreis"},"federalState":{"key":"05","name":"Nordrhein-Westfalen"}},{"name":"Glück-Auf-Weg","postalCode":"57482","locality":"Wenden","municipality":{"key":"05966028","name":"Wenden","type":"Kreisangehörige_Gemeinde"},"district":{"key":"05966","name":"Olpe","type":"Kreis"},"federalState":{"key":"05","name":"Nordrhein-Westfalen"}},{"name":"Goethestr.","postalCode":"66879","locality":"Steinwenden","municipality":{"key":"07335044","name":"Steinwenden","type":"Kreisangehörige_Gemeinde"},"district":{"key":"07335","name":"Kaiserslautern","type":"Landkreis"},"federalState":{"key":"07","name":"Rheinland-Pfalz"}},{"name":"Golfweg","postalCode":"57482","locality":"Wenden","municipality":{"key":"05966028","name":"Wenden","type":"Kreisangehörige_Gemeinde"},"district":{"key":"05966","name":"Olpe","type":"Kreis"},"federalState":{"key":"05","name":"Nordrhein-Westfalen"}},{"name":"Graf-von-Stauffenberg-Str.","postalCode":"57482","locality":"Wenden","municipality":{"key":"05966028","name":"Wenden","type":"Kreisangehörige_Gemeinde"},"district":{"key":"05966","name":"Olpe","type":"Kreis"},"federalState":{"key":"05","name":"Nordrhein-Westfalen"}},{"name":"Grimmestr.","postalCode":"57482","locality":"Wenden","municipality":{"key":"05966028","name":"Wenden","type":"Kreisangehörige_Gemeinde"},"district":{"key":"05966","name":"Olpe","type":"Kreis"},"federalState":{"key":"05","name":"Nordrhein-Westfalen"}},{"name":"Großmickestr.","postalCode":"57482","locality":"Wenden","municipality":{"key":"05966028","name":"Wenden","type":"Kreisangehörige_Gemeinde"},"district":{"key":"05966","name":"Olpe","type":"Kreis"},"federalState":{"key":"05","name":"Nordrhein-Westfalen"}},{"name":"Grubenstr.","postalCode":"57482","locality":"Wenden","municipality":{"key":"05966028","name":"Wenden","type":"Kreisangehörige_Gemeinde"},"district":{"key":"05966","name":"Olpe","type":"Kreis"},"federalState":{"key":"05","name":"Nordrhein-Westfalen"}},{"name":"Grüner Weg","postalCode":"57482","locality":"Wenden","municipality":{"key":"05966028","name":"Wenden","type":"Kreisangehörige_Gemeinde"},"district":{"key":"05966","name":"Olpe","type":"Kreis"},"federalState":{"key":"05","name":"Nordrhein-Westfalen"}},{"name":"Grüner Winkel","postalCode":"57482","locality":"Wenden","municipality":{"key":"05966028","name":"Wenden","type":"Kreisangehörige_Gemeinde"},"district":{"key":"05966","name":"Olpe","type":"Kreis"},"federalState":{"key":"05","name":"Nordrhein-Westfalen"}},{"name":"Grünes Tälchen","postalCode":"57482","locality":"Wenden","municipality":{"key":"05966028","name":"Wenden","type":"Kreisangehörige_Gemeinde"},"district":{"key":"05966","name":"Olpe","type":"Kreis"},"federalState":{"key":"05","name":"Nordrhein-Westfalen"}},{"name":"Gutehoffnungsring","postalCode":"57482","locality":"Wenden","municipality":{"key":"05966028","name":"Wenden","type":"Kreisangehörige_Gemeinde"},"district":{"key":"05966","name":"Olpe","type":"Kreis"},"federalState":{"key":"05","name":"Nordrhein-Westfalen"}},{"name":"Hallerbergstr.","postalCode":"57482","locality":"Wenden","municipality":{"key":"05966028","name":"Wenden","type":"Kreisangehörige_Gemeinde"},"district":{"key":"05966","name":"Olpe","type":"Kreis"},"federalState":{"key":"05","name":"Nordrhein-Westfalen"}},{"name":"Hallöhweg","postalCode":"57482","locality":"Wenden","municipality":{"key":"05966028","name":"Wenden","type":"Kreisangehörige_Gemeinde"},"district":{"key":"05966","name":"Olpe","type":"Kreis"},"federalState":{"key":"05","name":"Nordrhein-Westfalen"}},{"name":"Hammerstr.","postalCode":"57482","locality":"Wenden","municipality":{"key":"05966028","name":"Wenden","type":"Kreisangehörige_Gemeinde"},"district":{"key":"05966","name":"Olpe","type":"Kreis"},"federalState":{"key":"05","name":"Nordrhein-Westfalen"}},{"name":"Hammerwerkstr.","postalCode":"57482","locality":"Wenden","municipality":{"key":"05966028","name":"Wenden","type":"Kreisangehörige_Gemeinde"},"district":{"key":"05966","name":"Olpe","type":"Kreis"},"federalState":{"key":"05","name":"Nordrhein-Westfalen"}},{"name":"Hangstr.","postalCode":"57482","locality":"Wenden","municipality":{"key":"05966028","name":"Wenden","type":"Kreisangehörige_Gemeinde"},"district":{"key":"05966","name":"Olpe","type":"Kreis"},"federalState":{"key":"05","name":"Nordrhein-Westfalen"}},{"name":"Hansaweg","postalCode":"57482","locality":"Wenden","municipality":{"key":"05966028","name":"Wenden","type":"Kreisangehörige_Gemeinde"},"district":{"key":"05966","name":"Olpe","type":"Kreis"},"federalState":{"key":"05","name":"Nordrhein-Westfalen"}},{"name":"Hardter Weg","postalCode":"57482","locality":"Wenden","municipality":{"key":"05966028","name":"Wenden","type":"Kreisangehörige_Gemeinde"},"district":{"key":"05966","name":"Olpe","type":"Kreis"},"federalState":{"key":"05","name":"Nordrhein-Westfalen"}},{"name":"Harkortweg","postalCode":"57482","locality":"Wenden","municipality":{"key":"05966028","name":"Wenden","type":"Kreisangehörige_Gemeinde"},"district":{"key":"05966","name":"Olpe","type":"Kreis"},"federalState":{"key":"05","name":"Nordrhein-Westfalen"}},{"name":"Haselnußweg","postalCode":"57482","locality":"Wenden","municipality":{"key":"05966028","name":"Wenden","type":"Kreisangehörige_Gemeinde"},"district":{"key":"05966","name":"Olpe","type":"Kreis"},"federalState":{"key":"05","name":"Nordrhein-Westfalen"}},{"name":"Hasenpfad","postalCode":"57482","locality":"Wenden","municipality":{"key":"05966028","name":"Wenden","type":"Kreisangehörige_Gemeinde"},"district":{"key":"05966","name":"Olpe","type":"Kreis"},"federalState":{"key":"05","name":"Nordrhein-Westfalen"}},{"name":"Hauptstr.","postalCode":"57482","locality":"Wenden","municipality":{"key":"05966028","name":"Wenden","type":"Kreisangehörige_Gemeinde"},"district":{"key":"05966","name":"Olpe","type":"Kreis"},"federalState":{"key":"05","name":"Nordrhein-Westfalen"}},{"name":"Hauptstr.","postalCode":"66879","locality":"Steinwenden","municipality":{"key":"07335044","name":"Steinwenden","type":"Kreisangehörige_Gemeinde"},"district":{"key":"07335","name":"Kaiserslautern","type":"Landkreis"},"federalState":{"key":"07","name":"Rheinland-Pfalz"}},{"name":"Hauptstr.","postalCode":"87787","locality":"Wolfertschwenden","municipality":{"key":"09778218","name":"Wolfertschwenden","type":"Kreisangehörige_Gemeinde"},"district":{"key":"09778","name":"Unterallgäu","type":"Landkreis"},"federalState":{"key":"09","name":"Bayern"}},{"name":"Heckenweg","postalCode":"57482","locality":"Wenden","municipality":{"key":"05966028","name":"Wenden","type":"Kreisangehörige_Gemeinde"},"district":{"key":"05966","name":"Olpe","type":"Kreis"},"federalState":{"key":"05","name":"Nordrhein-Westfalen"}},{"name":"Heerweg","postalCode":"57482","locality":"Wenden","municipality":{"key":"05966028","name":"Wenden","type":"Kreisangehörige_Gemeinde"},"district":{"key":"05966","name":"Olpe","type":"Kreis"},"federalState":{"key":"05","name":"Nordrhein-Westfalen"}},{"name":"Heider Str.","postalCode":"57482","locality":"Wenden","municipality":{"key":"05966028","name":"Wenden","type":"Kreisangehörige_Gemeinde"},"district":{"key":"05966","name":"Olpe","type":"Kreis"},"federalState":{"key":"05","name":"Nordrhein-Westfalen"}},{"name":"Heidestr.","postalCode":"57482","locality":"Wenden","municipality":{"key":"05966028","name":"Wenden","type":"Kreisangehörige_Gemeinde"},"district":{"key":"05966","name":"Olpe","type":"Kreis"},"federalState":{"key":"05","name":"Nordrhein-Westfalen"}},{"name":"Heimicke","postalCode":"57482","locality":"Wenden","municipality":{"key":"05966028","name":"Wenden","type":"Kreisangehörige_Gemeinde"},"district":{"key":"05966","name":"Olpe","type":"Kreis"},"federalState":{"key":"05","name":"Nordrhein-Westfalen"}},{"name":"Heinrich-Heine-Str.","postalCode":"66879","locality":"Steinwenden","municipality":{"key":"07335044","name":"Steinwenden","type":"Kreisangehörige_Gemeinde"},"district":{"key":"07335","name":"Kaiserslautern","type":"Landkreis"},"federalState":{"key":"07","name":"Rheinland-Pfalz"}},{"name":"Heinrich-Lübke-Str.","postalCode":"57482","locality":"Wenden","municipality":{"key":"05966028","name":"Wenden","type":"Kreisangehörige_Gemeinde"},"district":{"key":"05966","name":"Olpe","type":"Kreis"},"federalState":{"key":"05","name":"Nordrhein-Westfalen"}},{"name":"Hepperichstr.","postalCode":"57482","locality":"Wenden","municipality":{"key":"05966028","name":"Wenden","type":"Kreisangehörige_Gemeinde"},"district":{"key":"05966","name":"Olpe","type":"Kreis"},"federalState":{"key":"05","name":"Nordrhein-Westfalen"}},{"name":"Herderstr.","postalCode":"57482","locality":"Wenden","municipality":{"key":"05966028","name":"Wenden","type":"Kreisangehörige_Gemeinde"},"district":{"key":"05966","name":"Olpe","type":"Kreis"},"federalState":{"key":"05","name":"Nordrhein-Westfalen"}},{"name":"Hilgenstockstr.","postalCode":"57482","locality":"Wenden","municipality":{"key":"05966028","name":"Wenden","type":"Kreisangehörige_Gemeinde"},"district":{"key":"05966","name":"Olpe","type":"Kreis"},"federalState":{"key":"05","name":"Nordrhein-Westfalen"}},{"name":"Hillmicker Str.","postalCode":"57482","locality":"Wenden","municipality":{"key":"05966028","name":"Wenden","type":"Kreisangehörige_Gemeinde"},"district":{"key":"05966","name":"Olpe","type":"Kreis"},"federalState":{"key":"05","name":"Nordrhein-Westfalen"}},{"name":"Himmelfahrtsstr.","postalCode":"57482","locality":"Wenden","municipality":{"key":"05966028","name":"Wenden","type":"Kreisangehörige_Gemeinde"},"district":{"key":"05966","name":"Olpe","type":"Kreis"},"federalState":{"key":"05","name":"Nordrhein-Westfalen"}},{"name":"Himpernweg","postalCode":"57482","locality":"Wenden","municipality":{"key":"05966028","name":"Wenden","type":"Kreisangehörige_Gemeinde"},"district":{"key":"05966","name":"Olpe","type":"Kreis"},"federalState":{"key":"05","name":"Nordrhein-Westfalen"}},{"name":"Hirtenbrünnlein","postalCode":"66879","locality":"Steinwenden","municipality":{"key":"07335044","name":"Steinwenden","type":"Kreisangehörige_Gemeinde"},"district":{"key":"07335","name":"Kaiserslautern","type":"Landkreis"},"federalState":{"key":"07","name":"Rheinland-Pfalz"}},{"name":"Hirtenstr.","postalCode":"57482","locality":"Wenden","municipality":{"key":"05966028","name":"Wenden","type":"Kreisangehörige_Gemeinde"},"district":{"key":"05966","name":"Olpe","type":"Kreis"},"federalState":{"key":"05","name":"Nordrhein-Westfalen"}},{"name":"Hochofenstr.","postalCode":"57482","locality":"Wenden","municipality":{"key":"05966028","name":"Wenden","type":"Kreisangehörige_Gemeinde"},"district":{"key":"05966","name":"Olpe","type":"Kreis"},"federalState":{"key":"05","name":"Nordrhein-Westfalen"}},{"name":"Hochstr.","postalCode":"57482","locality":"Wenden","municipality":{"key":"05966028","name":"Wenden","type":"Kreisangehörige_Gemeinde"},"district":{"key":"05966","name":"Olpe","type":"Kreis"},"federalState":{"key":"05","name":"Nordrhein-Westfalen"}},{"name":"Höfchen","postalCode":"66879","locality":"Steinwenden","municipality":{"key":"07335044","name":"Steinwenden","type":"Kreisangehörige_Gemeinde"},"district":{"key":"07335","name":"Kaiserslautern","type":"Landkreis"},"federalState":{"key":"07","name":"Rheinland-Pfalz"}},{"name":"Hoffnung","postalCode":"57482","locality":"Wenden","municipality":{"key":"05966028","name":"Wenden","type":"Kreisangehörige_Gemeinde"},"district":{"key":"05966","name":"Olpe","type":"Kreis"},"federalState":{"key":"05","name":"Nordrhein-Westfalen"}},{"name":"Hofstr.","postalCode":"57482","locality":"Wenden","municipality":{"key":"05966028","name":"Wenden","type":"Kreisangehörige_Gemeinde"},"district":{"key":"05966","name":"Olpe","type":"Kreis"},"federalState":{"key":"05","name":"Nordrhein-Westfalen"}},{"name":"Hohe Bergstr.","postalCode":"57482","locality":"Wenden","municipality":{"key":"05966028","name":"Wenden","type":"Kreisangehörige_Gemeinde"},"district":{"key":"05966","name":"Olpe","type":"Kreis"},"federalState":{"key":"05","name":"Nordrhein-Westfalen"}},{"name":"Hohen Stein Str.","postalCode":"57482","locality":"Wenden","municipality":{"key":"05966028","name":"Wenden","type":"Kreisangehörige_Gemeinde"},"district":{"key":"05966","name":"Olpe","type":"Kreis"},"federalState":{"key":"05","name":"Nordrhein-Westfalen"}},{"name":"Hohen Vohr Str.","postalCode":"57482","locality":"Wenden","municipality":{"key":"05966028","name":"Wenden","type":"Kreisangehörige_Gemeinde"},"district":{"key":"05966","name":"Olpe","type":"Kreis"},"federalState":{"key":"05","name":"Nordrhein-Westfalen"}},{"name":"Höhenweg","postalCode":"57482","locality":"Wenden","municipality":{"key":"05966028","name":"Wenden","type":"Kreisangehörige_Gemeinde"},"district":{"key":"05966","name":"Olpe","type":"Kreis"},"federalState":{"key":"05","name":"Nordrhein-Westfalen"}},{"name":"Hohfelderstr.","postalCode":"66879","locality":"Steinwenden","municipality":{"key":"07335044","name":"Steinwenden","type":"Kreisangehörige_Gemeinde"},"district":{"key":"07335","name":"Kaiserslautern","type":"Landkreis"},"federalState":{"key":"07","name":"Rheinland-Pfalz"}},{"name":"Hohler Weg","postalCode":"57482","locality":"Wenden","municipality":{"key":"05966028","name":"Wenden","type":"Kreisangehörige_Gemeinde"},"district":{"key":"05966","name":"Olpe","type":"Kreis"},"federalState":{"key":"05","name":"Nordrhein-Westfalen"}},{"name":"Holunderweg","postalCode":"57482","locality":"Wenden","municipality":{"key":"05966028","name":"Wenden","type":"Kreisangehörige_Gemeinde"},"district":{"key":"05966","name":"Olpe","type":"Kreis"},"federalState":{"key":"05","name":"Nordrhein-Westfalen"}},{"name":"Holzackerstr.","postalCode":"57482","locality":"Wenden","municipality":{"key":"05966028","name":"Wenden","type":"Kreisangehörige_Gemeinde"},"district":{"key":"05966","name":"Olpe","type":"Kreis"},"federalState":{"key":"05","name":"Nordrhein-Westfalen"}},{"name":"Hubertusstr.","postalCode":"57482","locality":"Wenden","municipality":{"key":"05966028","name":"Wenden","type":"Kreisangehörige_Gemeinde"},"district":{"key":"05966","name":"Olpe","type":"Kreis"},"federalState":{"key":"05","name":"Nordrhein-Westfalen"}},{"name":"Hunoweg","postalCode":"57482","locality":"Wenden","municipality":{"key":"05966028","name":"Wenden","type":"Kreisangehörige_Gemeinde"},"district":{"key":"05966","name":"Olpe","type":"Kreis"},"federalState":{"key":"05","name":"Nordrhein-Westfalen"}},{"name":"Hünsborner Str.","postalCode":"57482","locality":"Wenden","municipality":{"key":"05966028","name":"Wenden","type":"Kreisangehörige_Gemeinde"},"district":{"key":"05966","name":"Olpe","type":"Kreis"},"federalState":{"key":"05","name":"Nordrhein-Westfalen"}},{"name":"Hüttenbruchstr.","postalCode":"57482","locality":"Wenden","municipality":{"key":"05966028","name":"Wenden","type":"Kreisangehörige_Gemeinde"},"district":{"key":"05966","name":"Olpe","type":"Kreis"},"federalState":{"key":"05","name":"Nordrhein-Westfalen"}},{"name":"Hüttenstr.","postalCode":"57482","locality":"Wenden","municipality":{"key":"05966028","name":"Wenden","type":"Kreisangehörige_Gemeinde"},"district":{"key":"05966","name":"Olpe","type":"Kreis"},"federalState":{"key":"05","name":"Nordrhein-Westfalen"}},{"name":"Im Buchwald","postalCode":"57482","locality":"Wenden","municipality":{"key":"05966028","name":"Wenden","type":"Kreisangehörige_Gemeinde"},"district":{"key":"05966","name":"Olpe","type":"Kreis"},"federalState":{"key":"05","name":"Nordrhein-Westfalen"}},{"name":"Im Gässchen","postalCode":"57482","locality":"Wenden","municipality":{"key":"05966028","name":"Wenden","type":"Kreisangehörige_Gemeinde"},"district":{"key":"05966","name":"Olpe","type":"Kreis"},"federalState":{"key":"05","name":"Nordrhein-Westfalen"}},{"name":"Im Gelösch","postalCode":"66879","locality":"Steinwenden","municipality":{"key":"07335044","name":"Steinwenden","type":"Kreisangehörige_Gemeinde"},"district":{"key":"07335","name":"Kaiserslautern","type":"Landkreis"},"federalState":{"key":"07","name":"Rheinland-Pfalz"}},{"name":"Im Hain","postalCode":"57482","locality":"Wenden","municipality":{"key":"05966028","name":"Wenden","type":"Kreisangehörige_Gemeinde"},"district":{"key":"05966","name":"Olpe","type":"Kreis"},"federalState":{"key":"05","name":"Nordrhein-Westfalen"}},{"name":"Im Haken","postalCode":"57482","locality":"Wenden","municipality":{"key":"05966028","name":"Wenden","type":"Kreisangehörige_Gemeinde"},"district":{"key":"05966","name":"Olpe","type":"Kreis"},"federalState":{"key":"05","name":"Nordrhein-Westfalen"}},{"name":"Im Herkesseifen","postalCode":"57482","locality":"Wenden","municipality":{"key":"05966028","name":"Wenden","type":"Kreisangehörige_Gemeinde"},"district":{"key":"05966","name":"Olpe","type":"Kreis"},"federalState":{"key":"05","name":"Nordrhein-Westfalen"}},{"name":"Im Inken","postalCode":"57482","locality":"Wenden","municipality":{"key":"05966028","name":"Wenden","type":"Kreisangehörige_Gemeinde"},"district":{"key":"05966","name":"Olpe","type":"Kreis"},"federalState":{"key":"05","name":"Nordrhein-Westfalen"}},{"name":"Im Löhhof","postalCode":"57482","locality":"Wenden","municipality":{"key":"05966028","name":"Wenden","type":"Kreisangehörige_Gemeinde"},"district":{"key":"05966","name":"Olpe","type":"Kreis"},"federalState":{"key":"05","name":"Nordrhein-Westfalen"}},{"name":"Im oberen Kamp","postalCode":"57482","locality":"Wenden","municipality":{"key":"05966028","name":"Wenden","type":"Kreisangehörige_Gemeinde"},"district":{"key":"05966","name":"Olpe","type":"Kreis"},"federalState":{"key":"05","name":"Nordrhein-Westfalen"}},{"name":"Im Obstgarten","postalCode":"57482","locality":"Wenden","municipality":{"key":"05966028","name":"Wenden","type":"Kreisangehörige_Gemeinde"},"district":{"key":"05966","name":"Olpe","type":"Kreis"},"federalState":{"key":"05","name":"Nordrhein-Westfalen"}},{"name":"Im Osteresch","postalCode":"87787","locality":"Wolfertschwenden","municipality":{"key":"09778218","name":"Wolfertschwenden","type":"Kreisangehörige_Gemeinde"},"district":{"key":"09778","name":"Unterallgäu","type":"Landkreis"},"federalState":{"key":"09","name":"Bayern"}},{"name":"Im Rüggenbruche","postalCode":"57482","locality":"Wenden","municipality":{"key":"05966028","name":"Wenden","type":"Kreisangehörige_Gemeinde"},"district":{"key":"05966","name":"Olpe","type":"Kreis"},"federalState":{"key":"05","name":"Nordrhein-Westfalen"}},{"name":"Im Ruttenberge","postalCode":"57482","locality":"Wenden","municipality":{"key":"05966028","name":"Wenden","type":"Kreisangehörige_Gemeinde"},"district":{"key":"05966","name":"Olpe","type":"Kreis"},"federalState":{"key":"05","name":"Nordrhein-Westfalen"}},{"name":"Im Schulgarten","postalCode":"57482","locality":"Wenden","municipality":{"key":"05966028","name":"Wenden","type":"Kreisangehörige_Gemeinde"},"district":{"key":"05966","name":"Olpe","type":"Kreis"},"federalState":{"key":"05","name":"Nordrhein-Westfalen"}},{"name":"Im Siepen","postalCode":"57482","locality":"Wenden","municipality":{"key":"05966028","name":"Wenden","type":"Kreisangehörige_Gemeinde"},"district":{"key":"05966","name":"Olpe","type":"Kreis"},"federalState":{"key":"05","name":"Nordrhein-Westfalen"}},{"name":"Im Streitfeld","postalCode":"57482","locality":"Wenden","municipality":{"key":"05966028","name":"Wenden","type":"Kreisangehörige_Gemeinde"},"district":{"key":"05966","name":"Olpe","type":"Kreis"},"federalState":{"key":"05","name":"Nordrhein-Westfalen"}},{"name":"Im unteren Kamp","postalCode":"57482","locality":"Wenden","municipality":{"key":"05966028","name":"Wenden","type":"Kreisangehörige_Gemeinde"},"district":{"key":"05966","name":"Olpe","type":"Kreis"},"federalState":{"key":"05","name":"Nordrhein-Westfalen"}},{"name":"Im Winkel","postalCode":"57482","locality":"Wenden","municipality":{"key":"05966028","name":"Wenden","type":"Kreisangehörige_Gemeinde"},"district":{"key":"05966","name":"Olpe","type":"Kreis"},"federalState":{"key":"05","name":"Nordrhein-Westfalen"}},{"name":"Im Woogfeld","postalCode":"66879","locality":"Steinwenden","municipality":{"key":"07335044","name":"Steinwenden","type":"Kreisangehörige_Gemeinde"},"district":{"key":"07335","name":"Kaiserslautern","type":"Landkreis"},"federalState":{"key":"07","name":"Rheinland-Pfalz"}},{"name":"In den Gärten","postalCode":"57482","locality":"Wenden","municipality":{"key":"05966028","name":"Wenden","type":"Kreisangehörige_Gemeinde"},"district":{"key":"05966","name":"Olpe","type":"Kreis"},"federalState":{"key":"05","name":"Nordrhein-Westfalen"}},{"name":"In der Dalle","postalCode":"57482","locality":"Wenden","municipality":{"key":"05966028","name":"Wenden","type":"Kreisangehörige_Gemeinde"},"district":{"key":"05966","name":"Olpe","type":"Kreis"},"federalState":{"key":"05","name":"Nordrhein-Westfalen"}},{"name":"In der Heide","postalCode":"57482","locality":"Wenden","municipality":{"key":"05966028","name":"Wenden","type":"Kreisangehörige_Gemeinde"},"district":{"key":"05966","name":"Olpe","type":"Kreis"},"federalState":{"key":"05","name":"Nordrhein-Westfalen"}},{"name":"In der Königsmicke","postalCode":"57482","locality":"Wenden","municipality":{"key":"05966028","name":"Wenden","type":"Kreisangehörige_Gemeinde"},"district":{"key":"05966","name":"Olpe","type":"Kreis"},"federalState":{"key":"05","name":"Nordrhein-Westfalen"}},{"name":"In der Nordhelle","postalCode":"57482","locality":"Wenden","municipality":{"key":"05966028","name":"Wenden","type":"Kreisangehörige_Gemeinde"},"district":{"key":"05966","name":"Olpe","type":"Kreis"},"federalState":{"key":"05","name":"Nordrhein-Westfalen"}},{"name":"In der Sange","postalCode":"57482","locality":"Wenden","municipality":{"key":"05966028","name":"Wenden","type":"Kreisangehörige_Gemeinde"},"district":{"key":"05966","name":"Olpe","type":"Kreis"},"federalState":{"key":"05","name":"Nordrhein-Westfalen"}},{"name":"In der Schlade","postalCode":"57482","locality":"Wenden","municipality":{"key":"05966028","name":"Wenden","type":"Kreisangehörige_Gemeinde"},"district":{"key":"05966","name":"Olpe","type":"Kreis"},"federalState":{"key":"05","name":"Nordrhein-Westfalen"}},{"name":"In der Trift","postalCode":"57482","locality":"Wenden","municipality":{"key":"05966028","name":"Wenden","type":"Kreisangehörige_Gemeinde"},"district":{"key":"05966","name":"Olpe","type":"Kreis"},"federalState":{"key":"05","name":"Nordrhein-Westfalen"}},{"name":"In der Wiemicke","postalCode":"57482","locality":"Wenden","municipality":{"key":"05966028","name":"Wenden","type":"Kreisangehörige_Gemeinde"},"district":{"key":"05966","name":"Olpe","type":"Kreis"},"federalState":{"key":"05","name":"Nordrhein-Westfalen"}},{"name":"Jagdhaus","postalCode":"57482","locality":"Wenden","municipality":{"key":"05966028","name":"Wenden","type":"Kreisangehörige_Gemeinde"},"district":{"key":"05966","name":"Olpe","type":"Kreis"},"federalState":{"key":"05","name":"Nordrhein-Westfalen"}},{"name":"Jägerweg","postalCode":"87787","locality":"Wolfertschwenden","municipality":{"key":"09778218","name":"Wolfertschwenden","type":"Kreisangehörige_Gemeinde"},"district":{"key":"09778","name":"Unterallgäu","type":"Landkreis"},"federalState":{"key":"09","name":"Bayern"}},{"name":"Jahnstr.","postalCode":"57482","locality":"Wenden","municipality":{"key":"05966028","name":"Wenden","type":"Kreisangehörige_Gemeinde"},"district":{"key":"05966","name":"Olpe","type":"Kreis"},"federalState":{"key":"05","name":"Nordrhein-Westfalen"}},{"name":"Jakobiplatz","postalCode":"57482","locality":"Wenden","municipality":{"key":"05966028","name":"Wenden","type":"Kreisangehörige_Gemeinde"},"district":{"key":"05966","name":"Olpe","type":"Kreis"},"federalState":{"key":"05","name":"Nordrhein-Westfalen"}},{"name":"Jakobstr.","postalCode":"66879","locality":"Steinwenden","municipality":{"key":"07335044","name":"Steinwenden","type":"Kreisangehörige_Gemeinde"},"district":{"key":"07335","name":"Kaiserslautern","type":"Landkreis"},"federalState":{"key":"07","name":"Rheinland-Pfalz"}},{"name":"Jasminweg","postalCode":"57482","locality":"Wenden","municipality":{"key":"05966028","name":"Wenden","type":"Kreisangehörige_Gemeinde"},"district":{"key":"05966","name":"Olpe","type":"Kreis"},"federalState":{"key":"05","name":"Nordrhein-Westfalen"}},{"name":"Johannesstr.","postalCode":"57482","locality":"Wenden","municipality":{"key":"05966028","name":"Wenden","type":"Kreisangehörige_Gemeinde"},"district":{"key":"05966","name":"Olpe","type":"Kreis"},"federalState":{"key":"05","name":"Nordrhein-Westfalen"}},{"name":"Johann-von-Bever-Str.","postalCode":"57482","locality":"Wenden","municipality":{"key":"05966028","name":"Wenden","type":"Kreisangehörige_Gemeinde"},"district":{"key":"05966","name":"Olpe","type":"Kreis"},"federalState":{"key":"05","name":"Nordrhein-Westfalen"}},{"name":"Josefstr.","postalCode":"57482","locality":"Wenden","municipality":{"key":"05966028","name":"Wenden","type":"Kreisangehörige_Gemeinde"},"district":{"key":"05966","name":"Olpe","type":"Kreis"},"federalState":{"key":"05","name":"Nordrhein-Westfalen"}},{"name":"Kaiserstr.","postalCode":"57482","locality":"Wenden","municipality":{"key":"05966028","name":"Wenden","type":"Kreisangehörige_Gemeinde"},"district":{"key":"05966","name":"Olpe","type":"Kreis"},"federalState":{"key":"05","name":"Nordrhein-Westfalen"}},{"name":"Kampstr.","postalCode":"57482","locality":"Wenden","municipality":{"key":"05966028","name":"Wenden","type":"Kreisangehörige_Gemeinde"},"district":{"key":"05966","name":"Olpe","type":"Kreis"},"federalState":{"key":"05","name":"Nordrhein-Westfalen"}},{"name":"Kapellenplatz","postalCode":"57482","locality":"Wenden","municipality":{"key":"05966028","name":"Wenden","type":"Kreisangehörige_Gemeinde"},"district":{"key":"05966","name":"Olpe","type":"Kreis"},"federalState":{"key":"05","name":"Nordrhein-Westfalen"}},{"name":"Kardinal-Jaeger-Str.","postalCode":"57482","locality":"Wenden","municipality":{"key":"05966028","name":"Wenden","type":"Kreisangehörige_Gemeinde"},"district":{"key":"05966","name":"Olpe","type":"Kreis"},"federalState":{"key":"05","name":"Nordrhein-Westfalen"}},{"name":"Karl-Arnold-Str.","postalCode":"57482","locality":"Wenden","municipality":{"key":"05966028","name":"Wenden","type":"Kreisangehörige_Gemeinde"},"district":{"key":"05966","name":"Olpe","type":"Kreis"},"federalState":{"key":"05","name":"Nordrhein-Westfalen"}},{"name":"Kasimirs Feld","postalCode":"57482","locality":"Wenden","municipality":{"key":"05966028","name":"Wenden","type":"Kreisangehörige_Gemeinde"},"district":{"key":"05966","name":"Olpe","type":"Kreis"},"federalState":{"key":"05","name":"Nordrhein-Westfalen"}},{"name":"Kaspar-Klein-Str.","postalCode":"57482","locality":"Wenden","municipality":{"key":"05966028","name":"Wenden","type":"Kreisangehörige_Gemeinde"},"district":{"key":"05966","name":"Olpe","type":"Kreis"},"federalState":{"key":"05","name":"Nordrhein-Westfalen"}},{"name":"Kastanienweg","postalCode":"57482","locality":"Wenden","municipality":{"key":"05966028","name":"Wenden","type":"Kreisangehörige_Gemeinde"},"district":{"key":"05966","name":"Olpe","type":"Kreis"},"federalState":{"key":"05","name":"Nordrhein-Westfalen"}},{"name":"Katharinenweg","postalCode":"57482","locality":"Wenden","municipality":{"key":"05966028","name":"Wenden","type":"Kreisangehörige_Gemeinde"},"district":{"key":"05966","name":"Olpe","type":"Kreis"},"federalState":{"key":"05","name":"Nordrhein-Westfalen"}},{"name":"Kellerstr.","postalCode":"87787","locality":"Wolfertschwenden","municipality":{"key":"09778218","name":"Wolfertschwenden","type":"Kreisangehörige_Gemeinde"},"district":{"key":"09778","name":"Unterallgäu","type":"Landkreis"},"federalState":{"key":"09","name":"Bayern"}},{"name":"Kettelerweg","postalCode":"57482","locality":"Wenden","municipality":{"key":"05966028","name":"Wenden","type":"Kreisangehörige_Gemeinde"},"district":{"key":"05966","name":"Olpe","type":"Kreis"},"federalState":{"key":"05","name":"Nordrhein-Westfalen"}},{"name":"Kiefernweg","postalCode":"57482","locality":"Wenden","municipality":{"key":"05966028","name":"Wenden","type":"Kreisangehörige_Gemeinde"},"district":{"key":"05966","name":"Olpe","type":"Kreis"},"federalState":{"key":"05","name":"Nordrhein-Westfalen"}},{"name":"Kindergartenstr.","postalCode":"57482","locality":"Wenden","municipality":{"key":"05966028","name":"Wenden","type":"Kreisangehörige_Gemeinde"},"district":{"key":"05966","name":"Olpe","type":"Kreis"},"federalState":{"key":"05","name":"Nordrhein-Westfalen"}},{"name":"Kirchenstr.","postalCode":"66879","locality":"Steinwenden","municipality":{"key":"07335044","name":"Steinwenden","type":"Kreisangehörige_Gemeinde"},"district":{"key":"07335","name":"Kaiserslautern","type":"Landkreis"},"federalState":{"key":"07","name":"Rheinland-Pfalz"}},{"name":"Kirchhofstr.","postalCode":"57482","locality":"Wenden","municipality":{"key":"05966028","name":"Wenden","type":"Kreisangehörige_Gemeinde"},"district":{"key":"05966","name":"Olpe","type":"Kreis"},"federalState":{"key":"05","name":"Nordrhein-Westfalen"}},{"name":"Kirchweg","postalCode":"57482","locality":"Wenden","municipality":{"key":"05966028","name":"Wenden","type":"Kreisangehörige_Gemeinde"},"district":{"key":"05966","name":"Olpe","type":"Kreis"},"federalState":{"key":"05","name":"Nordrhein-Westfalen"}},{"name":"Kirchweg","postalCode":"87787","locality":"Wolfertschwenden","municipality":{"key":"09778218","name":"Wolfertschwenden","type":"Kreisangehörige_Gemeinde"},"district":{"key":"09778","name":"Unterallgäu","type":"Landkreis"},"federalState":{"key":"09","name":"Bayern"}},{"name":"Kleiner Weg","postalCode":"57482","locality":"Wenden","municipality":{"key":"05966028","name":"Wenden","type":"Kreisangehörige_Gemeinde"},"district":{"key":"05966","name":"Olpe","type":"Kreis"},"federalState":{"key":"05","name":"Nordrhein-Westfalen"}},{"name":"Klur's Weg","postalCode":"57482","locality":"Wenden","municipality":{"key":"05966028","name":"Wenden","type":"Kreisangehörige_Gemeinde"},"district":{"key":"05966","name":"Olpe","type":"Kreis"},"federalState":{"key":"05","name":"Nordrhein-Westfalen"}},{"name":"Kneippstr.","postalCode":"87787","locality":"Wolfertschwenden","municipality":{"key":"09778218","name":"Wolfertschwenden","type":"Kreisangehörige_Gemeinde"},"district":{"key":"09778","name":"Unterallgäu","type":"Landkreis"},"federalState":{"key":"09","name":"Bayern"}},{"name":"Knoschenweg","postalCode":"57482","locality":"Wenden","municipality":{"key":"05966028","name":"Wenden","type":"Kreisangehörige_Gemeinde"},"district":{"key":"05966","name":"Olpe","type":"Kreis"},"federalState":{"key":"05","name":"Nordrhein-Westfalen"}},{"name":"Koblenzer Str.","postalCode":"57482","locality":"Wenden","municipality":{"key":"05966028","name":"Wenden","type":"Kreisangehörige_Gemeinde"},"district":{"key":"05966","name":"Olpe","type":"Kreis"},"federalState":{"key":"05","name":"Nordrhein-Westfalen"}},{"name":"Kölner Str.","postalCode":"57482","locality":"Wenden","municipality":{"key":"05966028","name":"Wenden","type":"Kreisangehörige_Gemeinde"},"district":{"key":"05966","name":"Olpe","type":"Kreis"},"federalState":{"key":"05","name":"Nordrhein-Westfalen"}},{"name":"Königsberger Str.","postalCode":"57482","locality":"Wenden","municipality":{"key":"05966028","name":"Wenden","type":"Kreisangehörige_Gemeinde"},"district":{"key":"05966","name":"Olpe","type":"Kreis"},"federalState":{"key":"05","name":"Nordrhein-Westfalen"}},{"name":"Koppelweg","postalCode":"57482","locality":"Wenden","municipality":{"key":"05966028","name":"Wenden","type":"Kreisangehörige_Gemeinde"},"district":{"key":"05966","name":"Olpe","type":"Kreis"},"federalState":{"key":"05","name":"Nordrhein-Westfalen"}},{"name":"Kortemicke","postalCode":"57482","locality":"Wenden","municipality":{"key":"05966028","name":"Wenden","type":"Kreisangehörige_Gemeinde"},"district":{"key":"05966","name":"Olpe","type":"Kreis"},"federalState":{"key":"05","name":"Nordrhein-Westfalen"}},{"name":"Köttschen","postalCode":"57482","locality":"Wenden","municipality":{"key":"05966028","name":"Wenden","type":"Kreisangehörige_Gemeinde"},"district":{"key":"05966","name":"Olpe","type":"Kreis"},"federalState":{"key":"05","name":"Nordrhein-Westfalen"}},{"name":"Kottweilerer Str.","postalCode":"66879","locality":"Steinwenden","municipality":{"key":"07335044","name":"Steinwenden","type":"Kreisangehörige_Gemeinde"},"district":{"key":"07335","name":"Kaiserslautern","type":"Landkreis"},"federalState":{"key":"07","name":"Rheinland-Pfalz"}},{"name":"Krähenweg","postalCode":"57482","locality":"Wenden","municipality":{"key":"05966028","name":"Wenden","type":"Kreisangehörige_Gemeinde"},"district":{"key":"05966","name":"Olpe","type":"Kreis"},"federalState":{"key":"05","name":"Nordrhein-Westfalen"}},{"name":"Kreuzbergstr.","postalCode":"57482","locality":"Wenden","municipality":{"key":"05966028","name":"Wenden","type":"Kreisangehörige_Gemeinde"},"district":{"key":"05966","name":"Olpe","type":"Kreis"},"federalState":{"key":"05","name":"Nordrhein-Westfalen"}},{"name":"Kreuztaler Str.","postalCode":"57482","locality":"Wenden","municipality":{"key":"05966028","name":"Wenden","type":"Kreisangehörige_Gemeinde"},"district":{"key":"05966","name":"Olpe","type":"Kreis"},"federalState":{"key":"05","name":"Nordrhein-Westfalen"}},{"name":"Krewetstr.","postalCode":"57482","locality":"Wenden","municipality":{"key":"05966028","name":"Wenden","type":"Kreisangehörige_Gemeinde"},"district":{"key":"05966","name":"Olpe","type":"Kreis"},"federalState":{"key":"05","name":"Nordrhein-Westfalen"}},{"name":"Kunibertusstr.","postalCode":"57482","locality":"Wenden","municipality":{"key":"05966028","name":"Wenden","type":"Kreisangehörige_Gemeinde"},"district":{"key":"05966","name":"Olpe","type":"Kreis"},"federalState":{"key":"05","name":"Nordrhein-Westfalen"}},{"name":"Lange Heide","postalCode":"57482","locality":"Wenden","municipality":{"key":"05966028","name":"Wenden","type":"Kreisangehörige_Gemeinde"},"district":{"key":"05966","name":"Olpe","type":"Kreis"},"federalState":{"key":"05","name":"Nordrhein-Westfalen"}},{"name":"Lärchenstr.","postalCode":"87787","locality":"Wolfertschwenden","municipality":{"key":"09778218","name":"Wolfertschwenden","type":"Kreisangehörige_Gemeinde"},"district":{"key":"09778","name":"Unterallgäu","type":"Landkreis"},"federalState":{"key":"09","name":"Bayern"}},{"name":"Lehmbachstr.","postalCode":"87787","locality":"Wolfertschwenden","municipality":{"key":"09778218","name":"Wolfertschwenden","type":"Kreisangehörige_Gemeinde"},"district":{"key":"09778","name":"Unterallgäu","type":"Landkreis"},"federalState":{"key":"09","name":"Bayern"}},{"name":"Lehmhohlstr.","postalCode":"57482","locality":"Wenden","municipality":{"key":"05966028","name":"Wenden","type":"Kreisangehörige_Gemeinde"},"district":{"key":"05966","name":"Olpe","type":"Kreis"},"federalState":{"key":"05","name":"Nordrhein-Westfalen"}},{"name":"Lerchenweg","postalCode":"57482","locality":"Wenden","municipality":{"key":"05966028","name":"Wenden","type":"Kreisangehörige_Gemeinde"},"district":{"key":"05966","name":"Olpe","type":"Kreis"},"federalState":{"key":"05","name":"Nordrhein-Westfalen"}},{"name":"Letterhausstr.","postalCode":"57482","locality":"Wenden","municipality":{"key":"05966028","name":"Wenden","type":"Kreisangehörige_Gemeinde"},"district":{"key":"05966","name":"Olpe","type":"Kreis"},"federalState":{"key":"05","name":"Nordrhein-Westfalen"}},{"name":"Liboristr.","postalCode":"57482","locality":"Wenden","municipality":{"key":"05966028","name":"Wenden","type":"Kreisangehörige_Gemeinde"},"district":{"key":"05966","name":"Olpe","type":"Kreis"},"federalState":{"key":"05","name":"Nordrhein-Westfalen"}},{"name":"Limicker Weg","postalCode":"57482","locality":"Wenden","municipality":{"key":"05966028","name":"Wenden","type":"Kreisangehörige_Gemeinde"},"district":{"key":"05966","name":"Olpe","type":"Kreis"},"federalState":{"key":"05","name":"Nordrhein-Westfalen"}},{"name":"Lindenstr.","postalCode":"87787","locality":"Wolfertschwenden","municipality":{"key":"09778218","name":"Wolfertschwenden","type":"Kreisangehörige_Gemeinde"},"district":{"key":"09778","name":"Unterallgäu","type":"Landkreis"},"federalState":{"key":"09","name":"Bayern"}},{"name":"Lingensiepenstr.","postalCode":"57482","locality":"Wenden","municipality":{"key":"05966028","name":"Wenden","type":"Kreisangehörige_Gemeinde"},"district":{"key":"05966","name":"Olpe","type":"Kreis"},"federalState":{"key":"05","name":"Nordrhein-Westfalen"}},{"name":"Loddenkötterstr.","postalCode":"57482","locality":"Wenden","municipality":{"key":"05966028","name":"Wenden","type":"Kreisangehörige_Gemeinde"},"district":{"key":"05966","name":"Olpe","type":"Kreis"},"federalState":{"key":"05","name":"Nordrhein-Westfalen"}},{"name":"Löffelberg","postalCode":"57482","locality":"Wenden","municipality":{"key":"05966028","name":"Wenden","type":"Kreisangehörige_Gemeinde"},"district":{"key":"05966","name":"Olpe","type":"Kreis"},"federalState":{"key":"05","name":"Nordrhein-Westfalen"}},{"name":"Ludwig-Erhard-Str.","postalCode":"57482","locality":"Wenden","municipality":{"key":"05966028","name":"Wenden","type":"Kreisangehörige_Gemeinde"},"district":{"key":"05966","name":"Olpe","type":"Kreis"},"federalState":{"key":"05","name":"Nordrhein-Westfalen"}},{"name":"Luise-Hensel-Str.","postalCode":"57482","locality":"Wenden","municipality":{"key":"05966028","name":"Wenden","type":"Kreisangehörige_Gemeinde"},"district":{"key":"05966","name":"Olpe","type":"Kreis"},"federalState":{"key":"05","name":"Nordrhein-Westfalen"}},{"name":"Magdalenenweg","postalCode":"57482","locality":"Wenden","municipality":{"key":"05966028","name":"Wenden","type":"Kreisangehörige_Gemeinde"},"district":{"key":"05966","name":"Olpe","type":"Kreis"},"federalState":{"key":"05","name":"Nordrhein-Westfalen"}},{"name":"Malteserstr.","postalCode":"57482","locality":"Wenden","municipality":{"key":"05966028","name":"Wenden","type":"Kreisangehörige_Gemeinde"},"district":{"key":"05966","name":"Olpe","type":"Kreis"},"federalState":{"key":"05","name":"Nordrhein-Westfalen"}},{"name":"Margaretenstr.","postalCode":"57482","locality":"Wenden","municipality":{"key":"05966028","name":"Wenden","type":"Kreisangehörige_Gemeinde"},"district":{"key":"05966","name":"Olpe","type":"Kreis"},"federalState":{"key":"05","name":"Nordrhein-Westfalen"}},{"name":"Marienstr.","postalCode":"57482","locality":"Wenden","municipality":{"key":"05966028","name":"Wenden","type":"Kreisangehörige_Gemeinde"},"district":{"key":"05966","name":"Olpe","type":"Kreis"},"federalState":{"key":"05","name":"Nordrhein-Westfalen"}},{"name":"Marktstr.","postalCode":"66879","locality":"Steinwenden","municipality":{"key":"07335044","name":"Steinwenden","type":"Kreisangehörige_Gemeinde"},"district":{"key":"07335","name":"Kaiserslautern","type":"Landkreis"},"federalState":{"key":"07","name":"Rheinland-Pfalz"}},{"name":"Matthiasstr.","postalCode":"57482","locality":"Wenden","municipality":{"key":"05966028","name":"Wenden","type":"Kreisangehörige_Gemeinde"},"district":{"key":"05966","name":"Olpe","type":"Kreis"},"federalState":{"key":"05","name":"Nordrhein-Westfalen"}},{"name":"Mauerstr.","postalCode":"57482","locality":"Wenden","municipality":{"key":"05966028","name":"Wenden","type":"Kreisangehörige_Gemeinde"},"district":{"key":"05966","name":"Olpe","type":"Kreis"},"federalState":{"key":"05","name":"Nordrhein-Westfalen"}},{"name":"Maxstr.","postalCode":"66879","locality":"Steinwenden","municipality":{"key":"07335044","name":"Steinwenden","type":"Kreisangehörige_Gemeinde"},"district":{"key":"07335","name":"Kaiserslautern","type":"Landkreis"},"federalState":{"key":"07","name":"Rheinland-Pfalz"}},{"name":"Meisenweg","postalCode":"57482","locality":"Wenden","municipality":{"key":"05966028","name":"Wenden","type":"Kreisangehörige_Gemeinde"},"district":{"key":"05966","name":"Olpe","type":"Kreis"},"federalState":{"key":"05","name":"Nordrhein-Westfalen"}},{"name":"Mindener Str.","postalCode":"57482","locality":"Wenden","municipality":{"key":"05966028","name":"Wenden","type":"Kreisangehörige_Gemeinde"},"district":{"key":"05966","name":"Olpe","type":"Kreis"},"federalState":{"key":"05","name":"Nordrhein-Westfalen"}},{"name":"Mittelstr.","postalCode":"57482","locality":"Wenden","municipality":{"key":"05966028","name":"Wenden","type":"Kreisangehörige_Gemeinde"},"district":{"key":"05966","name":"Olpe","type":"Kreis"},"federalState":{"key":"05","name":"Nordrhein-Westfalen"}},{"name":"Molkereiweg","postalCode":"87787","locality":"Wolfertschwenden","municipality":{"key":"09778218","name":"Wolfertschwenden","type":"Kreisangehörige_Gemeinde"},"district":{"key":"09778","name":"Unterallgäu","type":"Landkreis"},"federalState":{"key":"09","name":"Bayern"}},{"name":"Moorstr.","postalCode":"66879","locality":"Steinwenden","municipality":{"key":"07335044","name":"Steinwenden","type":"Kreisangehörige_Gemeinde"},"district":{"key":"07335","name":"Kaiserslautern","type":"Landkreis"},"federalState":{"key":"07","name":"Rheinland-Pfalz"}},{"name":"Moosweg","postalCode":"87787","locality":"Wolfertschwenden","municipality":{"key":"09778218","name":"Wolfertschwenden","type":"Kreisangehörige_Gemeinde"},"district":{"key":"09778","name":"Unterallgäu","type":"Landkreis"},"federalState":{"key":"09","name":"Bayern"}},{"name":"Mühlbergstr.","postalCode":"66879","locality":"Steinwenden","municipality":{"key":"07335044","name":"Steinwenden","type":"Kreisangehörige_Gemeinde"},"district":{"key":"07335","name":"Kaiserslautern","type":"Landkreis"},"federalState":{"key":"07","name":"Rheinland-Pfalz"}},{"name":"Mühlenstr.","postalCode":"57482","locality":"Wenden","municipality":{"key":"05966028","name":"Wenden","type":"Kreisangehörige_Gemeinde"},"district":{"key":"05966","name":"Olpe","type":"Kreis"},"federalState":{"key":"05","name":"Nordrhein-Westfalen"}},{"name":"Mühlstr.","postalCode":"87787","locality":"Wolfertschwenden","municipality":{"key":"09778218","name":"Wolfertschwenden","type":"Kreisangehörige_Gemeinde"},"district":{"key":"09778","name":"Unterallgäu","type":"Landkreis"},"federalState":{"key":"09","name":"Bayern"}},{"name":"Mühlwiesen","postalCode":"66879","locality":"Steinwenden","municipality":{"key":"07335044","name":"Steinwenden","type":"Kreisangehörige_Gemeinde"},"district":{"key":"07335","name":"Kaiserslautern","type":"Landkreis"},"federalState":{"key":"07","name":"Rheinland-Pfalz"}},{"name":"Münchäckerstr.","postalCode":"66879","locality":"Steinwenden","municipality":{"key":"07335044","name":"Steinwenden","type":"Kreisangehörige_Gemeinde"},"district":{"key":"07335","name":"Kaiserslautern","type":"Landkreis"},"federalState":{"key":"07","name":"Rheinland-Pfalz"}},{"name":"Neue Str.","postalCode":"57482","locality":"Wenden","municipality":{"key":"05966028","name":"Wenden","type":"Kreisangehörige_Gemeinde"},"district":{"key":"05966","name":"Olpe","type":"Kreis"},"federalState":{"key":"05","name":"Nordrhein-Westfalen"}},{"name":"Niederdorfer Str.","postalCode":"87787","locality":"Wolfertschwenden","municipality":{"key":"09778218","name":"Wolfertschwenden","type":"Kreisangehörige_Gemeinde"},"district":{"key":"09778","name":"Unterallgäu","type":"Landkreis"},"federalState":{"key":"09","name":"Bayern"}},{"name":"Niederhofweg","postalCode":"57482","locality":"Wenden","municipality":{"key":"05966028","name":"Wenden","type":"Kreisangehörige_Gemeinde"},"district":{"key":"05966","name":"Olpe","type":"Kreis"},"federalState":{"key":"05","name":"Nordrhein-Westfalen"}},{"name":"Niggemannstr.","postalCode":"57482","locality":"Wenden","municipality":{"key":"05966028","name":"Wenden","type":"Kreisangehörige_Gemeinde"},"district":{"key":"05966","name":"Olpe","type":"Kreis"},"federalState":{"key":"05","name":"Nordrhein-Westfalen"}},{"name":"Nikolaus-Groß-Str.","postalCode":"57482","locality":"Wenden","municipality":{"key":"05966028","name":"Wenden","type":"Kreisangehörige_Gemeinde"},"district":{"key":"05966","name":"Olpe","type":"Kreis"},"federalState":{"key":"05","name":"Nordrhein-Westfalen"}},{"name":"Nordring","postalCode":"57482","locality":"Wenden","municipality":{"key":"05966028","name":"Wenden","type":"Kreisangehörige_Gemeinde"},"district":{"key":"05966","name":"Olpe","type":"Kreis"},"federalState":{"key":"05","name":"Nordrhein-Westfalen"}},{"name":"Nordstr.","postalCode":"57482","locality":"Wenden","municipality":{"key":"05966028","name":"Wenden","type":"Kreisangehörige_Gemeinde"},"district":{"key":"05966","name":"Olpe","type":"Kreis"},"federalState":{"key":"05","name":"Nordrhein-Westfalen"}},{"name":"Obere Bergstr.","postalCode":"87787","locality":"Wolfertschwenden","municipality":{"key":"09778218","name":"Wolfertschwenden","type":"Kreisangehörige_Gemeinde"},"district":{"key":"09778","name":"Unterallgäu","type":"Landkreis"},"federalState":{"key":"09","name":"Bayern"}},{"name":"Oberer Falkenweg","postalCode":"57482","locality":"Wenden","municipality":{"key":"05966028","name":"Wenden","type":"Kreisangehörige_Gemeinde"},"district":{"key":"05966","name":"Olpe","type":"Kreis"},"federalState":{"key":"05","name":"Nordrhein-Westfalen"}},{"name":"Obere Str.","postalCode":"57482","locality":"Wenden","municipality":{"key":"05966028","name":"Wenden","type":"Kreisangehörige_Gemeinde"},"district":{"key":"05966","name":"Olpe","type":"Kreis"},"federalState":{"key":"05","name":"Nordrhein-Westfalen"}},{"name":"Obere Wiese","postalCode":"57482","locality":"Wenden","municipality":{"key":"05966028","name":"Wenden","type":"Kreisangehörige_Gemeinde"},"district":{"key":"05966","name":"Olpe","type":"Kreis"},"federalState":{"key":"05","name":"Nordrhein-Westfalen"}},{"name":"Oberm Wäldchen","postalCode":"57482","locality":"Wenden","municipality":{"key":"05966028","name":"Wenden","type":"Kreisangehörige_Gemeinde"},"district":{"key":"05966","name":"Olpe","type":"Kreis"},"federalState":{"key":"05","name":"Nordrhein-Westfalen"}},{"name":"Olper Str.","postalCode":"57482","locality":"Wenden","municipality":{"key":"05966028","name":"Wenden","type":"Kreisangehörige_Gemeinde"},"district":{"key":"05966","name":"Olpe","type":"Kreis"},"federalState":{"key":"05","name":"Nordrhein-Westfalen"}},{"name":"Ortsstr.","postalCode":"87787","locality":"Wolfertschwenden","municipality":{"key":"09778218","name":"Wolfertschwenden","type":"Kreisangehörige_Gemeinde"},"district":{"key":"09778","name":"Unterallgäu","type":"Landkreis"},"federalState":{"key":"09","name":"Bayern"}},{"name":"Ottfinger Str.","postalCode":"57482","locality":"Wenden","municipality":{"key":"05966028","name":"Wenden","type":"Kreisangehörige_Gemeinde"},"district":{"key":"05966","name":"Olpe","type":"Kreis"},"federalState":{"key":"05","name":"Nordrhein-Westfalen"}},{"name":"Paffenschlade","postalCode":"57482","locality":"Wenden","municipality":{"key":"05966028","name":"Wenden","type":"Kreisangehörige_Gemeinde"},"district":{"key":"05966","name":"Olpe","type":"Kreis"},"federalState":{"key":"05","name":"Nordrhein-Westfalen"}},{"name":"Panoramaweg","postalCode":"57482","locality":"Wenden","municipality":{"key":"05966028","name":"Wenden","type":"Kreisangehörige_Gemeinde"},"district":{"key":"05966","name":"Olpe","type":"Kreis"},"federalState":{"key":"05","name":"Nordrhein-Westfalen"}},{"name":"Papiermacherstr.","postalCode":"57482","locality":"Wenden","municipality":{"key":"05966028","name":"Wenden","type":"Kreisangehörige_Gemeinde"},"district":{"key":"05966","name":"Olpe","type":"Kreis"},"federalState":{"key":"05","name":"Nordrhein-Westfalen"}},{"name":"Pater-Delp-Str.","postalCode":"57482","locality":"Wenden","municipality":{"key":"05966028","name":"Wenden","type":"Kreisangehörige_Gemeinde"},"district":{"key":"05966","name":"Olpe","type":"Kreis"},"federalState":{"key":"05","name":"Nordrhein-Westfalen"}},{"name":"Peter-Arns-Str.","postalCode":"57482","locality":"Wenden","municipality":{"key":"05966028","name":"Wenden","type":"Kreisangehörige_Gemeinde"},"district":{"key":"05966","name":"Olpe","type":"Kreis"},"federalState":{"key":"05","name":"Nordrhein-Westfalen"}},{"name":"Peter-Dassis-Ring","postalCode":"57482","locality":"Wenden","municipality":{"key":"05966028","name":"Wenden","type":"Kreisangehörige_Gemeinde"},"district":{"key":"05966","name":"Olpe","type":"Kreis"},"federalState":{"key":"05","name":"Nordrhein-Westfalen"}},{"name":"Peters Bergelchen","postalCode":"57482","locality":"Wenden","municipality":{"key":"05966028","name":"Wenden","type":"Kreisangehörige_Gemeinde"},"district":{"key":"05966","name":"Olpe","type":"Kreis"},"federalState":{"key":"05","name":"Nordrhein-Westfalen"}},{"name":"Peter-Schlösser-Str.","postalCode":"57482","locality":"Wenden","municipality":{"key":"05966028","name":"Wenden","type":"Kreisangehörige_Gemeinde"},"district":{"key":"05966","name":"Olpe","type":"Kreis"},"federalState":{"key":"05","name":"Nordrhein-Westfalen"}},{"name":"Pfarrer-August-Halbe-Weg","postalCode":"57482","locality":"Wenden","municipality":{"key":"05966028","name":"Wenden","type":"Kreisangehörige_Gemeinde"},"district":{"key":"05966","name":"Olpe","type":"Kreis"},"federalState":{"key":"05","name":"Nordrhein-Westfalen"}},{"name":"Pfarrer-Beule-Str.","postalCode":"57482","locality":"Wenden","municipality":{"key":"05966028","name":"Wenden","type":"Kreisangehörige_Gemeinde"},"district":{"key":"05966","name":"Olpe","type":"Kreis"},"federalState":{"key":"05","name":"Nordrhein-Westfalen"}},{"name":"Pirolweg","postalCode":"57482","locality":"Wenden","municipality":{"key":"05966028","name":"Wenden","type":"Kreisangehörige_Gemeinde"},"district":{"key":"05966","name":"Olpe","type":"Kreis"},"federalState":{"key":"05","name":"Nordrhein-Westfalen"}},{"name":"Pirschweg","postalCode":"57482","locality":"Wenden","municipality":{"key":"05966028","name":"Wenden","type":"Kreisangehörige_Gemeinde"},"district":{"key":"05966","name":"Olpe","type":"Kreis"},"federalState":{"key":"05","name":"Nordrhein-Westfalen"}},{"name":"Platinweg","postalCode":"57482","locality":"Wenden","municipality":{"key":"05966028","name":"Wenden","type":"Kreisangehörige_Gemeinde"},"district":{"key":"05966","name":"Olpe","type":"Kreis"},"federalState":{"key":"05","name":"Nordrhein-Westfalen"}},{"name":"Porrbacher Str.","postalCode":"66879","locality":"Steinwenden","municipality":{"key":"07335044","name":"Steinwenden","type":"Kreisangehörige_Gemeinde"},"district":{"key":"07335","name":"Kaiserslautern","type":"Landkreis"},"federalState":{"key":"07","name":"Rheinland-Pfalz"}},{"name":"Poststr.","postalCode":"57482","locality":"Wenden","municipality":{"key":"05966028","name":"Wenden","type":"Kreisangehörige_Gemeinde"},"district":{"key":"05966","name":"Olpe","type":"Kreis"},"federalState":{"key":"05","name":"Nordrhein-Westfalen"}},{"name":"Prielweg","postalCode":"87787","locality":"Wolfertschwenden","municipality":{"key":"09778218","name":"Wolfertschwenden","type":"Kreisangehörige_Gemeinde"},"district":{"key":"09778","name":"Unterallgäu","type":"Landkreis"},"federalState":{"key":"09","name":"Bayern"}},{"name":"Prof.-Egon-Schneider-Weg","postalCode":"57482","locality":"Wenden","municipality":{"key":"05966028","name":"Wenden","type":"Kreisangehörige_Gemeinde"},"district":{"key":"05966","name":"Olpe","type":"Kreis"},"federalState":{"key":"05","name":"Nordrhein-Westfalen"}},{"name":"Quellenstr.","postalCode":"57482","locality":"Wenden","municipality":{"key":"05966028","name":"Wenden","type":"Kreisangehörige_Gemeinde"},"district":{"key":"05966","name":"Olpe","type":"Kreis"},"federalState":{"key":"05","name":"Nordrhein-Westfalen"}},{"name":"Querweg","postalCode":"57482","locality":"Wenden","municipality":{"key":"05966028","name":"Wenden","type":"Kreisangehörige_Gemeinde"},"district":{"key":"05966","name":"Olpe","type":"Kreis"},"federalState":{"key":"05","name":"Nordrhein-Westfalen"}},{"name":"Raiffeisenstr.","postalCode":"57482","locality":"Wenden","municipality":{"key":"05966028","name":"Wenden","type":"Kreisangehörige_Gemeinde"},"district":{"key":"05966","name":"Olpe","type":"Kreis"},"federalState":{"key":"05","name":"Nordrhein-Westfalen"}},{"name":"Regina-Quast-Str.","postalCode":"57482","locality":"Wenden","municipality":{"key":"05966028","name":"Wenden","type":"Kreisangehörige_Gemeinde"},"district":{"key":"05966","name":"Olpe","type":"Kreis"},"federalState":{"key":"05","name":"Nordrhein-Westfalen"}},{"name":"Reichswaldring","postalCode":"66879","locality":"Steinwenden","municipality":{"key":"07335044","name":"Steinwenden","type":"Kreisangehörige_Gemeinde"},"district":{"key":"07335","name":"Kaiserslautern","type":"Landkreis"},"federalState":{"key":"07","name":"Rheinland-Pfalz"}},{"name":"Reinerzer Str.","postalCode":"57482","locality":"Wenden","municipality":{"key":"05966028","name":"Wenden","type":"Kreisangehörige_Gemeinde"},"district":{"key":"05966","name":"Olpe","type":"Kreis"},"federalState":{"key":"05","name":"Nordrhein-Westfalen"}},{"name":"Reiterweg","postalCode":"57482","locality":"Wenden","municipality":{"key":"05966028","name":"Wenden","type":"Kreisangehörige_Gemeinde"},"district":{"key":"05966","name":"Olpe","type":"Kreis"},"federalState":{"key":"05","name":"Nordrhein-Westfalen"}},{"name":"Reuschbacher Str.","postalCode":"66879","locality":"Steinwenden","municipality":{"key":"07335044","name":"Steinwenden","type":"Kreisangehörige_Gemeinde"},"district":{"key":"07335","name":"Kaiserslautern","type":"Landkreis"},"federalState":{"key":"07","name":"Rheinland-Pfalz"}},{"name":"Ricksteinweg","postalCode":"57482","locality":"Wenden","municipality":{"key":"05966028","name":"Wenden","type":"Kreisangehörige_Gemeinde"},"district":{"key":"05966","name":"Olpe","type":"Kreis"},"federalState":{"key":"05","name":"Nordrhein-Westfalen"}},{"name":"Ringstr.","postalCode":"57482","locality":"Wenden","municipality":{"key":"05966028","name":"Wenden","type":"Kreisangehörige_Gemeinde"},"district":{"key":"05966","name":"Olpe","type":"Kreis"},"federalState":{"key":"05","name":"Nordrhein-Westfalen"}},{"name":"Ringstr.","postalCode":"66879","locality":"Steinwenden","municipality":{"key":"07335044","name":"Steinwenden","type":"Kreisangehörige_Gemeinde"},"district":{"key":"07335","name":"Kaiserslautern","type":"Landkreis"},"federalState":{"key":"07","name":"Rheinland-Pfalz"}},{"name":"Rinscheidstr.","postalCode":"57482","locality":"Wenden","municipality":{"key":"05966028","name":"Wenden","type":"Kreisangehörige_Gemeinde"},"district":{"key":"05966","name":"Olpe","type":"Kreis"},"federalState":{"key":"05","name":"Nordrhein-Westfalen"}},{"name":"Ritterstr.","postalCode":"57482","locality":"Wenden","municipality":{"key":"05966028","name":"Wenden","type":"Kreisangehörige_Gemeinde"},"district":{"key":"05966","name":"Olpe","type":"Kreis"},"federalState":{"key":"05","name":"Nordrhein-Westfalen"}},{"name":"Ritter-von-Heid-Str.","postalCode":"57482","locality":"Wenden","municipality":{"key":"05966028","name":"Wenden","type":"Kreisangehörige_Gemeinde"},"district":{"key":"05966","name":"Olpe","type":"Kreis"},"federalState":{"key":"05","name":"Nordrhein-Westfalen"}},{"name":"Römerstr.","postalCode":"57482","locality":"Wenden","municipality":{"key":"05966028","name":"Wenden","type":"Kreisangehörige_Gemeinde"},"district":{"key":"05966","name":"Olpe","type":"Kreis"},"federalState":{"key":"05","name":"Nordrhein-Westfalen"}},{"name":"Römerstr.","postalCode":"66879","locality":"Steinwenden","municipality":{"key":"07335044","name":"Steinwenden","type":"Kreisangehörige_Gemeinde"},"district":{"key":"07335","name":"Kaiserslautern","type":"Landkreis"},"federalState":{"key":"07","name":"Rheinland-Pfalz"}},{"name":"Rosenstr.","postalCode":"57482","locality":"Wenden","municipality":{"key":"05966028","name":"Wenden","type":"Kreisangehörige_Gemeinde"},"district":{"key":"05966","name":"Olpe","type":"Kreis"},"federalState":{"key":"05","name":"Nordrhein-Westfalen"}},{"name":"Rotbuchenweg","postalCode":"57482","locality":"Wenden","municipality":{"key":"05966028","name":"Wenden","type":"Kreisangehörige_Gemeinde"},"district":{"key":"05966","name":"Olpe","type":"Kreis"},"federalState":{"key":"05","name":"Nordrhein-Westfalen"}},{"name":"Rotdornweg","postalCode":"57482","locality":"Wenden","municipality":{"key":"05966028","name":"Wenden","type":"Kreisangehörige_Gemeinde"},"district":{"key":"05966","name":"Olpe","type":"Kreis"},"federalState":{"key":"05","name":"Nordrhein-Westfalen"}},{"name":"Rundweg","postalCode":"57482","locality":"Wenden","municipality":{"key":"05966028","name":"Wenden","type":"Kreisangehörige_Gemeinde"},"district":{"key":"05966","name":"Olpe","type":"Kreis"},"federalState":{"key":"05","name":"Nordrhein-Westfalen"}},{"name":"Sandstr.","postalCode":"57482","locality":"Wenden","municipality":{"key":"05966028","name":"Wenden","type":"Kreisangehörige_Gemeinde"},"district":{"key":"05966","name":"Olpe","type":"Kreis"},"federalState":{"key":"05","name":"Nordrhein-Westfalen"}},{"name":"Sankt-Antonius-Weg","postalCode":"57482","locality":"Wenden","municipality":{"key":"05966028","name":"Wenden","type":"Kreisangehörige_Gemeinde"},"district":{"key":"05966","name":"Olpe","type":"Kreis"},"federalState":{"key":"05","name":"Nordrhein-Westfalen"}},{"name":"Sankt-Elisabeth-Str.","postalCode":"57482","locality":"Wenden","municipality":{"key":"05966028","name":"Wenden","type":"Kreisangehörige_Gemeinde"},"district":{"key":"05966","name":"Olpe","type":"Kreis"},"federalState":{"key":"05","name":"Nordrhein-Westfalen"}},{"name":"Sankt-Helenen-Str.","postalCode":"57482","locality":"Wenden","municipality":{"key":"05966028","name":"Wenden","type":"Kreisangehörige_Gemeinde"},"district":{"key":"05966","name":"Olpe","type":"Kreis"},"federalState":{"key":"05","name":"Nordrhein-Westfalen"}},{"name":"Sauerlandweg","postalCode":"57482","locality":"Wenden","municipality":{"key":"05966028","name":"Wenden","type":"Kreisangehörige_Gemeinde"},"district":{"key":"05966","name":"Olpe","type":"Kreis"},"federalState":{"key":"05","name":"Nordrhein-Westfalen"}},{"name":"Schachtweg","postalCode":"57482","locality":"Wenden","municipality":{"key":"05966028","name":"Wenden","type":"Kreisangehörige_Gemeinde"},"district":{"key":"05966","name":"Olpe","type":"Kreis"},"federalState":{"key":"05","name":"Nordrhein-Westfalen"}},{"name":"Scheiderwald","postalCode":"57482","locality":"Wenden","municipality":{"key":"05966028","name":"Wenden","type":"Kreisangehörige_Gemeinde"},"district":{"key":"05966","name":"Olpe","type":"Kreis"},"federalState":{"key":"05","name":"Nordrhein-Westfalen"}},{"name":"Schildergasse","postalCode":"57482","locality":"Wenden","municipality":{"key":"05966028","name":"Wenden","type":"Kreisangehörige_Gemeinde"},"district":{"key":"05966","name":"Olpe","type":"Kreis"},"federalState":{"key":"05","name":"Nordrhein-Westfalen"}},{"name":"Schillerstr.","postalCode":"66879","locality":"Steinwenden","municipality":{"key":"07335044","name":"Steinwenden","type":"Kreisangehörige_Gemeinde"},"district":{"key":"07335","name":"Kaiserslautern","type":"Landkreis"},"federalState":{"key":"07","name":"Rheinland-Pfalz"}},{"name":"Schlader Weg","postalCode":"57482","locality":"Wenden","municipality":{"key":"05966028","name":"Wenden","type":"Kreisangehörige_Gemeinde"},"district":{"key":"05966","name":"Olpe","type":"Kreis"},"federalState":{"key":"05","name":"Nordrhein-Westfalen"}},{"name":"Schlehdornweg","postalCode":"57482","locality":"Wenden","municipality":{"key":"05966028","name":"Wenden","type":"Kreisangehörige_Gemeinde"},"district":{"key":"05966","name":"Olpe","type":"Kreis"},"federalState":{"key":"05","name":"Nordrhein-Westfalen"}},{"name":"Schlichtstr.","postalCode":"66879","locality":"Steinwenden","municipality":{"key":"07335044","name":"Steinwenden","type":"Kreisangehörige_Gemeinde"},"district":{"key":"07335","name":"Kaiserslautern","type":"Landkreis"},"federalState":{"key":"07","name":"Rheinland-Pfalz"}},{"name":"Schmiedestr.","postalCode":"57482","locality":"Wenden","municipality":{"key":"05966028","name":"Wenden","type":"Kreisangehörige_Gemeinde"},"district":{"key":"05966","name":"Olpe","type":"Kreis"},"federalState":{"key":"05","name":"Nordrhein-Westfalen"}},{"name":"Schönauer Str.","postalCode":"57482","locality":"Wenden","municipality":{"key":"05966028","name":"Wenden","type":"Kreisangehörige_Gemeinde"},"district":{"key":"05966","name":"Olpe","type":"Kreis"},"federalState":{"key":"05","name":"Nordrhein-Westfalen"}},{"name":"Schönhalde","postalCode":"87787","locality":"Wolfertschwenden","municipality":{"key":"09778218","name":"Wolfertschwenden","type":"Kreisangehörige_Gemeinde"},"district":{"key":"09778","name":"Unterallgäu","type":"Landkreis"},"federalState":{"key":"09","name":"Bayern"}},{"name":"Schoppstr.","postalCode":"66879","locality":"Steinwenden","municipality":{"key":"07335044","name":"Steinwenden","type":"Kreisangehörige_Gemeinde"},"district":{"key":"07335","name":"Kaiserslautern","type":"Landkreis"},"federalState":{"key":"07","name":"Rheinland-Pfalz"}},{"name":"Schubertstr.","postalCode":"57482","locality":"Wenden","municipality":{"key":"05966028","name":"Wenden","type":"Kreisangehörige_Gemeinde"},"district":{"key":"05966","name":"Olpe","type":"Kreis"},"federalState":{"key":"05","name":"Nordrhein-Westfalen"}},{"name":"Schulstr.","postalCode":"66879","locality":"Steinwenden","municipality":{"key":"07335044","name":"Steinwenden","type":"Kreisangehörige_Gemeinde"},"district":{"key":"07335","name":"Kaiserslautern","type":"Landkreis"},"federalState":{"key":"07","name":"Rheinland-Pfalz"}},{"name":"Schützenstr.","postalCode":"57482","locality":"Wenden","municipality":{"key":"05966028","name":"Wenden","type":"Kreisangehörige_Gemeinde"},"district":{"key":"05966","name":"Olpe","type":"Kreis"},"federalState":{"key":"05","name":"Nordrhein-Westfalen"}},{"name":"Schwalbenweg","postalCode":"57482","locality":"Wenden","municipality":{"key":"05966028","name":"Wenden","type":"Kreisangehörige_Gemeinde"},"district":{"key":"05966","name":"Olpe","type":"Kreis"},"federalState":{"key":"05","name":"Nordrhein-Westfalen"}},{"name":"Schwarzbruch","postalCode":"57482","locality":"Wenden","municipality":{"key":"05966028","name":"Wenden","type":"Kreisangehörige_Gemeinde"},"district":{"key":"05966","name":"Olpe","type":"Kreis"},"federalState":{"key":"05","name":"Nordrhein-Westfalen"}},{"name":"Sebastianstr.","postalCode":"57482","locality":"Wenden","municipality":{"key":"05966028","name":"Wenden","type":"Kreisangehörige_Gemeinde"},"district":{"key":"05966","name":"Olpe","type":"Kreis"},"federalState":{"key":"05","name":"Nordrhein-Westfalen"}},{"name":"Seilbahnstr.","postalCode":"57482","locality":"Wenden","municipality":{"key":"05966028","name":"Wenden","type":"Kreisangehörige_Gemeinde"},"district":{"key":"05966","name":"Olpe","type":"Kreis"},"federalState":{"key":"05","name":"Nordrhein-Westfalen"}},{"name":"Severinusstr.","postalCode":"57482","locality":"Wenden","municipality":{"key":"05966028","name":"Wenden","type":"Kreisangehörige_Gemeinde"},"district":{"key":"05966","name":"Olpe","type":"Kreis"},"federalState":{"key":"05","name":"Nordrhein-Westfalen"}},{"name":"Siedlungsweg","postalCode":"57482","locality":"Wenden","municipality":{"key":"05966028","name":"Wenden","type":"Kreisangehörige_Gemeinde"},"district":{"key":"05966","name":"Olpe","type":"Kreis"},"federalState":{"key":"05","name":"Nordrhein-Westfalen"}},{"name":"Siegener Str.","postalCode":"57482","locality":"Wenden","municipality":{"key":"05966028","name":"Wenden","type":"Kreisangehörige_Gemeinde"},"district":{"key":"05966","name":"Olpe","type":"Kreis"},"federalState":{"key":"05","name":"Nordrhein-Westfalen"}},{"name":"Sonnenweg","postalCode":"57482","locality":"Wenden","municipality":{"key":"05966028","name":"Wenden","type":"Kreisangehörige_Gemeinde"},"district":{"key":"05966","name":"Olpe","type":"Kreis"},"federalState":{"key":"05","name":"Nordrhein-Westfalen"}},{"name":"Sonnenweg","postalCode":"87787","locality":"Wolfertschwenden","municipality":{"key":"09778218","name":"Wolfertschwenden","type":"Kreisangehörige_Gemeinde"},"district":{"key":"09778","name":"Unterallgäu","type":"Landkreis"},"federalState":{"key":"09","name":"Bayern"}},{"name":"Sperberweg","postalCode":"57482","locality":"Wenden","municipality":{"key":"05966028","name":"Wenden","type":"Kreisangehörige_Gemeinde"},"district":{"key":"05966","name":"Olpe","type":"Kreis"},"federalState":{"key":"05","name":"Nordrhein-Westfalen"}},{"name":"Springerweg","postalCode":"57482","locality":"Wenden","municipality":{"key":"05966028","name":"Wenden","type":"Kreisangehörige_Gemeinde"},"district":{"key":"05966","name":"Olpe","type":"Kreis"},"federalState":{"key":"05","name":"Nordrhein-Westfalen"}},{"name":"Stachstückstr.","postalCode":"57482","locality":"Wenden","municipality":{"key":"05966028","name":"Wenden","type":"Kreisangehörige_Gemeinde"},"district":{"key":"05966","name":"Olpe","type":"Kreis"},"federalState":{"key":"05","name":"Nordrhein-Westfalen"}},{"name":"Stadtweg","postalCode":"87787","locality":"Wolfertschwenden","municipality":{"key":"09778218","name":"Wolfertschwenden","type":"Kreisangehörige_Gemeinde"},"district":{"key":"09778","name":"Unterallgäu","type":"Landkreis"},"federalState":{"key":"09","name":"Bayern"}},{"name":"Steckebahn","postalCode":"57482","locality":"Wenden","municipality":{"key":"05966028","name":"Wenden","type":"Kreisangehörige_Gemeinde"},"district":{"key":"05966","name":"Olpe","type":"Kreis"},"federalState":{"key":"05","name":"Nordrhein-Westfalen"}},{"name":"Steimelstr.","postalCode":"57482","locality":"Wenden","municipality":{"key":"05966028","name":"Wenden","type":"Kreisangehörige_Gemeinde"},"district":{"key":"05966","name":"Olpe","type":"Kreis"},"federalState":{"key":"05","name":"Nordrhein-Westfalen"}},{"name":"Steinackerstr.","postalCode":"57482","locality":"Wenden","municipality":{"key":"05966028","name":"Wenden","type":"Kreisangehörige_Gemeinde"},"district":{"key":"05966","name":"Olpe","type":"Kreis"},"federalState":{"key":"05","name":"Nordrhein-Westfalen"}},{"name":"Steinbreche","postalCode":"87787","locality":"Wolfertschwenden","municipality":{"key":"09778218","name":"Wolfertschwenden","type":"Kreisangehörige_Gemeinde"},"district":{"key":"09778","name":"Unterallgäu","type":"Landkreis"},"federalState":{"key":"09","name":"Bayern"}},{"name":"Steinritsche","postalCode":"57482","locality":"Wenden","municipality":{"key":"05966028","name":"Wenden","type":"Kreisangehörige_Gemeinde"},"district":{"key":"05966","name":"Olpe","type":"Kreis"},"federalState":{"key":"05","name":"Nordrhein-Westfalen"}},{"name":"Steinweg","postalCode":"57482","locality":"Wenden","municipality":{"key":"05966028","name":"Wenden","type":"Kreisangehörige_Gemeinde"},"district":{"key":"05966","name":"Olpe","type":"Kreis"},"federalState":{"key":"05","name":"Nordrhein-Westfalen"}},{"name":"Stemmicker Weg","postalCode":"57482","locality":"Wenden","municipality":{"key":"05966028","name":"Wenden","type":"Kreisangehörige_Gemeinde"},"district":{"key":"05966","name":"Olpe","type":"Kreis"},"federalState":{"key":"05","name":"Nordrhein-Westfalen"}},{"name":"Stollenweg","postalCode":"57482","locality":"Wenden","municipality":{"key":"05966028","name":"Wenden","type":"Kreisangehörige_Gemeinde"},"district":{"key":"05966","name":"Olpe","type":"Kreis"},"federalState":{"key":"05","name":"Nordrhein-Westfalen"}},{"name":"Stuckstr.","postalCode":"57482","locality":"Wenden","municipality":{"key":"05966028","name":"Wenden","type":"Kreisangehörige_Gemeinde"},"district":{"key":"05966","name":"Olpe","type":"Kreis"},"federalState":{"key":"05","name":"Nordrhein-Westfalen"}},{"name":"Südring","postalCode":"57482","locality":"Wenden","municipality":{"key":"05966028","name":"Wenden","type":"Kreisangehörige_Gemeinde"},"district":{"key":"05966","name":"Olpe","type":"Kreis"},"federalState":{"key":"05","name":"Nordrhein-Westfalen"}},{"name":"Talbrückenstr.","postalCode":"57482","locality":"Wenden","municipality":{"key":"05966028","name":"Wenden","type":"Kreisangehörige_Gemeinde"},"district":{"key":"05966","name":"Olpe","type":"Kreis"},"federalState":{"key":"05","name":"Nordrhein-Westfalen"}},{"name":"Talstr.","postalCode":"57482","locality":"Wenden","municipality":{"key":"05966028","name":"Wenden","type":"Kreisangehörige_Gemeinde"},"district":{"key":"05966","name":"Olpe","type":"Kreis"},"federalState":{"key":"05","name":"Nordrhein-Westfalen"}},{"name":"Tannenstr.","postalCode":"57482","locality":"Wenden","municipality":{"key":"05966028","name":"Wenden","type":"Kreisangehörige_Gemeinde"},"district":{"key":"05966","name":"Olpe","type":"Kreis"},"federalState":{"key":"05","name":"Nordrhein-Westfalen"}},{"name":"Tannenweg","postalCode":"87787","locality":"Wolfertschwenden","municipality":{"key":"09778218","name":"Wolfertschwenden","type":"Kreisangehörige_Gemeinde"},"district":{"key":"09778","name":"Unterallgäu","type":"Landkreis"},"federalState":{"key":"09","name":"Bayern"}},{"name":"Thieringhauser Str.","postalCode":"57482","locality":"Wenden","municipality":{"key":"05966028","name":"Wenden","type":"Kreisangehörige_Gemeinde"},"district":{"key":"05966","name":"Olpe","type":"Kreis"},"federalState":{"key":"05","name":"Nordrhein-Westfalen"}},{"name":"Thomasstr.","postalCode":"57482","locality":"Wenden","municipality":{"key":"05966028","name":"Wenden","type":"Kreisangehörige_Gemeinde"},"district":{"key":"05966","name":"Olpe","type":"Kreis"},"federalState":{"key":"05","name":"Nordrhein-Westfalen"}},{"name":"Thunestr.","postalCode":"57482","locality":"Wenden","municipality":{"key":"05966028","name":"Wenden","type":"Kreisangehörige_Gemeinde"},"district":{"key":"05966","name":"Olpe","type":"Kreis"},"federalState":{"key":"05","name":"Nordrhein-Westfalen"}},{"name":"Thuwieser Str.","postalCode":"57482","locality":"Wenden","municipality":{"key":"05966028","name":"Wenden","type":"Kreisangehörige_Gemeinde"},"district":{"key":"05966","name":"Olpe","type":"Kreis"},"federalState":{"key":"05","name":"Nordrhein-Westfalen"}},{"name":"Tiefenteich","postalCode":"66879","locality":"Steinwenden","municipality":{"key":"07335044","name":"Steinwenden","type":"Kreisangehörige_Gemeinde"},"district":{"key":"07335","name":"Kaiserslautern","type":"Landkreis"},"federalState":{"key":"07","name":"Rheinland-Pfalz"}},{"name":"Torstr.","postalCode":"57482","locality":"Wenden","municipality":{"key":"05966028","name":"Wenden","type":"Kreisangehörige_Gemeinde"},"district":{"key":"05966","name":"Olpe","type":"Kreis"},"federalState":{"key":"05","name":"Nordrhein-Westfalen"}},{"name":"Trift","postalCode":"37318","locality":"Thalwenden","municipality":{"key":"16061096","name":"Thalwenden","type":"Kreisangehörige_Gemeinde"},"district":{"key":"16061","name":"Eichsfeld","type":"Landkreis"},"federalState":{"key":"16","name":"Thüringen"}},{"name":"Trömbach","postalCode":"57482","locality":"Wenden","municipality":{"key":"05966028","name":"Wenden","type":"Kreisangehörige_Gemeinde"},"district":{"key":"05966","name":"Olpe","type":"Kreis"},"federalState":{"key":"05","name":"Nordrhein-Westfalen"}},{"name":"Udersche Str.","postalCode":"37318","locality":"Thalwenden","municipality":{"key":"16061096","name":"Thalwenden","type":"Kreisangehörige_Gemeinde"},"district":{"key":"16061","name":"Eichsfeld","type":"Landkreis"},"federalState":{"key":"16","name":"Thüringen"}},{"name":"Uferstr.","postalCode":"57482","locality":"Wenden","municipality":{"key":"05966028","name":"Wenden","type":"Kreisangehörige_Gemeinde"},"district":{"key":"05966","name":"Olpe","type":"Kreis"},"federalState":{"key":"05","name":"Nordrhein-Westfalen"}},{"name":"Uhlandstr.","postalCode":"57482","locality":"Wenden","municipality":{"key":"05966028","name":"Wenden","type":"Kreisangehörige_Gemeinde"},"district":{"key":"05966","name":"Olpe","type":"Kreis"},"federalState":{"key":"05","name":"Nordrhein-Westfalen"}},{"name":"Unter den Eichen","postalCode":"57482","locality":"Wenden","municipality":{"key":"05966028","name":"Wenden","type":"Kreisangehörige_Gemeinde"},"district":{"key":"05966","name":"Olpe","type":"Kreis"},"federalState":{"key":"05","name":"Nordrhein-Westfalen"}},{"name":"Unter der Bahn","postalCode":"57482","locality":"Wenden","municipality":{"key":"05966028","name":"Wenden","type":"Kreisangehörige_Gemeinde"},"district":{"key":"05966","name":"Olpe","type":"Kreis"},"federalState":{"key":"05","name":"Nordrhein-Westfalen"}},{"name":"Unterer Falkenweg","postalCode":"57482","locality":"Wenden","municipality":{"key":"05966028","name":"Wenden","type":"Kreisangehörige_Gemeinde"},"district":{"key":"05966","name":"Olpe","type":"Kreis"},"federalState":{"key":"05","name":"Nordrhein-Westfalen"}},{"name":"Unterm Junkernberg","postalCode":"57482","locality":"Wenden","municipality":{"key":"05966028","name":"Wenden","type":"Kreisangehörige_Gemeinde"},"district":{"key":"05966","name":"Olpe","type":"Kreis"},"federalState":{"key":"05","name":"Nordrhein-Westfalen"}},{"name":"Vogelsangweg","postalCode":"57482","locality":"Wenden","municipality":{"key":"05966028","name":"Wenden","type":"Kreisangehörige_Gemeinde"},"district":{"key":"05966","name":"Olpe","type":"Kreis"},"federalState":{"key":"05","name":"Nordrhein-Westfalen"}},{"name":"Vogelweg","postalCode":"57482","locality":"Wenden","municipality":{"key":"05966028","name":"Wenden","type":"Kreisangehörige_Gemeinde"},"district":{"key":"05966","name":"Olpe","type":"Kreis"},"federalState":{"key":"05","name":"Nordrhein-Westfalen"}},{"name":"Von-Droste-Hülshoff-Str.","postalCode":"57482","locality":"Wenden","municipality":{"key":"05966028","name":"Wenden","type":"Kreisangehörige_Gemeinde"},"district":{"key":"05966","name":"Olpe","type":"Kreis"},"federalState":{"key":"05","name":"Nordrhein-Westfalen"}},{"name":"Von-Galen-Str.","postalCode":"57482","locality":"Wenden","municipality":{"key":"05966028","name":"Wenden","type":"Kreisangehörige_Gemeinde"},"district":{"key":"05966","name":"Olpe","type":"Kreis"},"federalState":{"key":"05","name":"Nordrhein-Westfalen"}},{"name":"Vorm Löh","postalCode":"57482","locality":"Wenden","municipality":{"key":"05966028","name":"Wenden","type":"Kreisangehörige_Gemeinde"},"district":{"key":"05966","name":"Olpe","type":"Kreis"},"federalState":{"key":"05","name":"Nordrhein-Westfalen"}},{"name":"Wackenberg","postalCode":"66879","locality":"Steinwenden","municipality":{"key":"07335044","name":"Steinwenden","type":"Kreisangehörige_Gemeinde"},"district":{"key":"07335","name":"Kaiserslautern","type":"Landkreis"},"federalState":{"key":"07","name":"Rheinland-Pfalz"}},{"name":"Waldschmiedestr.","postalCode":"57482","locality":"Wenden","municipality":{"key":"05966028","name":"Wenden","type":"Kreisangehörige_Gemeinde"},"district":{"key":"05966","name":"Olpe","type":"Kreis"},"federalState":{"key":"05","name":"Nordrhein-Westfalen"}},{"name":"Waldstr.","postalCode":"66879","locality":"Steinwenden","municipality":{"key":"07335044","name":"Steinwenden","type":"Kreisangehörige_Gemeinde"},"district":{"key":"07335","name":"Kaiserslautern","type":"Landkreis"},"federalState":{"key":"07","name":"Rheinland-Pfalz"}},{"name":"Waldstr.","postalCode":"87787","locality":"Wolfertschwenden","municipality":{"key":"09778218","name":"Wolfertschwenden","type":"Kreisangehörige_Gemeinde"},"district":{"key":"09778","name":"Unterallgäu","type":"Landkreis"},"federalState":{"key":"09","name":"Bayern"}},{"name":"Waldweg","postalCode":"57482","locality":"Wenden","municipality":{"key":"05966028","name":"Wenden","type":"Kreisangehörige_Gemeinde"},"district":{"key":"05966","name":"Olpe","type":"Kreis"},"federalState":{"key":"05","name":"Nordrhein-Westfalen"}},{"name":"Wallstr.","postalCode":"57482","locality":"Wenden","municipality":{"key":"05966028","name":"Wenden","type":"Kreisangehörige_Gemeinde"},"district":{"key":"05966","name":"Olpe","type":"Kreis"},"federalState":{"key":"05","name":"Nordrhein-Westfalen"}},{"name":"Weideweg","postalCode":"57482","locality":"Wenden","municipality":{"key":"05966028","name":"Wenden","type":"Kreisangehörige_Gemeinde"},"district":{"key":"05966","name":"Olpe","type":"Kreis"},"federalState":{"key":"05","name":"Nordrhein-Westfalen"}},{"name":"Weiherstr.","postalCode":"57482","locality":"Wenden","municipality":{"key":"05966028","name":"Wenden","type":"Kreisangehörige_Gemeinde"},"district":{"key":"05966","name":"Olpe","type":"Kreis"},"federalState":{"key":"05","name":"Nordrhein-Westfalen"}},{"name":"Weinstr.","postalCode":"57482","locality":"Wenden","municipality":{"key":"05966028","name":"Wenden","type":"Kreisangehörige_Gemeinde"},"district":{"key":"05966","name":"Olpe","type":"Kreis"},"federalState":{"key":"05","name":"Nordrhein-Westfalen"}},{"name":"Weißdornweg","postalCode":"57482","locality":"Wenden","municipality":{"key":"05966028","name":"Wenden","type":"Kreisangehörige_Gemeinde"},"district":{"key":"05966","name":"Olpe","type":"Kreis"},"federalState":{"key":"05","name":"Nordrhein-Westfalen"}},{"name":"Welfenstr.","postalCode":"87787","locality":"Wolfertschwenden","municipality":{"key":"09778218","name":"Wolfertschwenden","type":"Kreisangehörige_Gemeinde"},"district":{"key":"09778","name":"Unterallgäu","type":"Landkreis"},"federalState":{"key":"09","name":"Bayern"}},{"name":"Wendebachstr.","postalCode":"57482","locality":"Wenden","municipality":{"key":"05966028","name":"Wenden","type":"Kreisangehörige_Gemeinde"},"district":{"key":"05966","name":"Olpe","type":"Kreis"},"federalState":{"key":"05","name":"Nordrhein-Westfalen"}},{"name":"Wendener Str.","postalCode":"57482","locality":"Wenden","municipality":{"key":"05966028","name":"Wenden","type":"Kreisangehörige_Gemeinde"},"district":{"key":"05966","name":"Olpe","type":"Kreis"},"federalState":{"key":"05","name":"Nordrhein-Westfalen"}},{"name":"Westerbergstr.","postalCode":"57482","locality":"Wenden","municipality":{"key":"05966028","name":"Wenden","type":"Kreisangehörige_Gemeinde"},"district":{"key":"05966","name":"Olpe","type":"Kreis"},"federalState":{"key":"05","name":"Nordrhein-Westfalen"}},{"name":"Westfälische Str.","postalCode":"57482","locality":"Wenden","municipality":{"key":"05966028","name":"Wenden","type":"Kreisangehörige_Gemeinde"},"district":{"key":"05966","name":"Olpe","type":"Kreis"},"federalState":{"key":"05","name":"Nordrhein-Westfalen"}},{"name":"Weststr.","postalCode":"57482","locality":"Wenden","municipality":{"key":"05966028","name":"Wenden","type":"Kreisangehörige_Gemeinde"},"district":{"key":"05966","name":"Olpe","type":"Kreis"},"federalState":{"key":"05","name":"Nordrhein-Westfalen"}},{"name":"Wieringer Str.","postalCode":"57482","locality":"Wenden","municipality":{"key":"05966028","name":"Wenden","type":"Kreisangehörige_Gemeinde"},"district":{"key":"05966","name":"Olpe","type":"Kreis"},"federalState":{"key":"05","name":"Nordrhein-Westfalen"}},{"name":"Wiesengrundstr.","postalCode":"57482","locality":"Wenden","municipality":{"key":"05966028","name":"Wenden","type":"Kreisangehörige_Gemeinde"},"district":{"key":"05966","name":"Olpe","type":"Kreis"},"federalState":{"key":"05","name":"Nordrhein-Westfalen"}},{"name":"Wiesenstr.","postalCode":"57482","locality":"Wenden","municipality":{"key":"05966028","name":"Wenden","type":"Kreisangehörige_Gemeinde"},"district":{"key":"05966","name":"Olpe","type":"Kreis"},"federalState":{"key":"05","name":"Nordrhein-Westfalen"}},{"name":"Wiesenstr.","postalCode":"87787","locality":"Wolfertschwenden","municipality":{"key":"09778218","name":"Wolfertschwenden","type":"Kreisangehörige_Gemeinde"},"district":{"key":"09778","name":"Unterallgäu","type":"Landkreis"},"federalState":{"key":"09","name":"Bayern"}},{"name":"Wildenburger Str.","postalCode":"57482","locality":"Wenden","municipality":{"key":"05966028","name":"Wenden","type":"Kreisangehörige_Gemeinde"},"district":{"key":"05966","name":"Olpe","type":"Kreis"},"federalState":{"key":"05","name":"Nordrhein-Westfalen"}},{"name":"Wilhelm-Busch-Str.","postalCode":"57482","locality":"Wenden","municipality":{"key":"05966028","name":"Wenden","type":"Kreisangehörige_Gemeinde"},"district":{"key":"05966","name":"Olpe","type":"Kreis"},"federalState":{"key":"05","name":"Nordrhein-Westfalen"}},{"name":"Wilhelmstal","postalCode":"57482","locality":"Wenden","municipality":{"key":"05966028","name":"Wenden","type":"Kreisangehörige_Gemeinde"},"district":{"key":"05966","name":"Olpe","type":"Kreis"},"federalState":{"key":"05","name":"Nordrhein-Westfalen"}},{"name":"Wilhelm-Tell-Str.","postalCode":"57482","locality":"Wenden","municipality":{"key":"05966028","name":"Wenden","type":"Kreisangehörige_Gemeinde"},"district":{"key":"05966","name":"Olpe","type":"Kreis"},"federalState":{"key":"05","name":"Nordrhein-Westfalen"}},{"name":"Windbuschstr.","postalCode":"57482","locality":"Wenden","municipality":{"key":"05966028","name":"Wenden","type":"Kreisangehörige_Gemeinde"},"district":{"key":"05966","name":"Olpe","type":"Kreis"},"federalState":{"key":"05","name":"Nordrhein-Westfalen"}},{"name":"Windthorststr.","postalCode":"57482","locality":"Wenden","municipality":{"key":"05966028","name":"Wenden","type":"Kreisangehörige_Gemeinde"},"district":{"key":"05966","name":"Olpe","type":"Kreis"},"federalState":{"key":"05","name":"Nordrhein-Westfalen"}},{"name":"Winzerweg","postalCode":"57482","locality":"Wenden","municipality":{"key":"05966028","name":"Wenden","type":"Kreisangehörige_Gemeinde"},"district":{"key":"05966","name":"Olpe","type":"Kreis"},"federalState":{"key":"05","name":"Nordrhein-Westfalen"}},{"name":"Wollensiepen","postalCode":"57482","locality":"Wenden","municipality":{"key":"05966028","name":"Wenden","type":"Kreisangehörige_Gemeinde"},"district":{"key":"05966","name":"Olpe","type":"Kreis"},"federalState":{"key":"05","name":"Nordrhein-Westfalen"}},{"name":"Wolpernweg","postalCode":"57482","locality":"Wenden","municipality":{"key":"05966028","name":"Wenden","type":"Kreisangehörige_Gemeinde"},"district":{"key":"05966","name":"Olpe","type":"Kreis"},"federalState":{"key":"05","name":"Nordrhein-Westfalen"}},{"name":"Woringer Str.","postalCode":"87787","locality":"Wolfertschwenden","municipality":{"key":"09778218","name":"Wolfertschwenden","type":"Kreisangehörige_Gemeinde"},"district":{"key":"09778","name":"Unterallgäu","type":"Landkreis"},"federalState":{"key":"09","name":"Bayern"}},{"name":"Woringer Weg","postalCode":"87787","locality":"Wolfertschwenden","municipality":{"key":"09778218","name":"Wolfertschwenden","type":"Kreisangehörige_Gemeinde"},"district":{"key":"09778","name":"Unterallgäu","type":"Landkreis"},"federalState":{"key":"09","name":"Bayern"}},{"name":"Wörmickestr.","postalCode":"57482","locality":"Wenden","municipality":{"key":"05966028","name":"Wenden","type":"Kreisangehörige_Gemeinde"},"district":{"key":"05966","name":"Olpe","type":"Kreis"},"federalState":{"key":"05","name":"Nordrhein-Westfalen"}},{"name":"Ziegenweg","postalCode":"57482","locality":"Wenden","municipality":{"key":"05966028","name":"Wenden","type":"Kreisangehörige_Gemeinde"},"district":{"key":"05966","name":"Olpe","type":"Kreis"},"federalState":{"key":"05","name":"Nordrhein-Westfalen"}},{"name":"Zollstr.","postalCode":"57482","locality":"Wenden","municipality":{"key":"05966028","name":"Wenden","type":"Kreisangehörige_Gemeinde"},"district":{"key":"05966","name":"Olpe","type":"Kreis"},"federalState":{"key":"05","name":"Nordrhein-Westfalen"}},{"name":"Zu den Kirchen","postalCode":"57482","locality":"Wenden","municipality":{"key":"05966028","name":"Wenden","type":"Kreisangehörige_Gemeinde"},"district":{"key":"05966","name":"Olpe","type":"Kreis"},"federalState":{"key":"05","name":"Nordrhein-Westfalen"}},{"name":"Zum Altenberg","postalCode":"57482","locality":"Wenden","municipality":{"key":"05966028","name":"Wenden","type":"Kreisangehörige_Gemeinde"},"district":{"key":"05966","name":"Olpe","type":"Kreis"},"federalState":{"key":"05","name":"Nordrhein-Westfalen"}},{"name":"Zum Alten Feld","postalCode":"57482","locality":"Wenden","municipality":{"key":"05966028","name":"Wenden","type":"Kreisangehörige_Gemeinde"},"district":{"key":"05966","name":"Olpe","type":"Kreis"},"federalState":{"key":"05","name":"Nordrhein-Westfalen"}},{"name":"Zum Alten Handelsweg","postalCode":"57482","locality":"Wenden","municipality":{"key":"05966028","name":"Wenden","type":"Kreisangehörige_Gemeinde"},"district":{"key":"05966","name":"Olpe","type":"Kreis"},"federalState":{"key":"05","name":"Nordrhein-Westfalen"}},{"name":"Zum Birkenbusch","postalCode":"66879","locality":"Steinwenden","municipality":{"key":"07335044","name":"Steinwenden","type":"Kreisangehörige_Gemeinde"},"district":{"key":"07335","name":"Kaiserslautern","type":"Landkreis"},"federalState":{"key":"07","name":"Rheinland-Pfalz"}},{"name":"Zum Breckenhagen","postalCode":"57482","locality":"Wenden","municipality":{"key":"05966028","name":"Wenden","type":"Kreisangehörige_Gemeinde"},"district":{"key":"05966","name":"Olpe","type":"Kreis"},"federalState":{"key":"05","name":"Nordrhein-Westfalen"}},{"name":"Zum Eichstruck","postalCode":"57482","locality":"Wenden","municipality":{"key":"05966028","name":"Wenden","type":"Kreisangehörige_Gemeinde"},"district":{"key":"05966","name":"Olpe","type":"Kreis"},"federalState":{"key":"05","name":"Nordrhein-Westfalen"}},{"name":"Zum Elberscheid","postalCode":"57482","locality":"Wenden","municipality":{"key":"05966028","name":"Wenden","type":"Kreisangehörige_Gemeinde"},"district":{"key":"05966","name":"Olpe","type":"Kreis"},"federalState":{"key":"05","name":"Nordrhein-Westfalen"}},{"name":"Zum Farnstück","postalCode":"57482","locality":"Wenden","municipality":{"key":"05966028","name":"Wenden","type":"Kreisangehörige_Gemeinde"},"district":{"key":"05966","name":"Olpe","type":"Kreis"},"federalState":{"key":"05","name":"Nordrhein-Westfalen"}},{"name":"Zum Forsthaus","postalCode":"57482","locality":"Wenden","municipality":{"key":"05966028","name":"Wenden","type":"Kreisangehörige_Gemeinde"},"district":{"key":"05966","name":"Olpe","type":"Kreis"},"federalState":{"key":"05","name":"Nordrhein-Westfalen"}},{"name":"Zum goldenen Horn","postalCode":"57482","locality":"Wenden","municipality":{"key":"05966028","name":"Wenden","type":"Kreisangehörige_Gemeinde"},"district":{"key":"05966","name":"Olpe","type":"Kreis"},"federalState":{"key":"05","name":"Nordrhein-Westfalen"}},{"name":"Zum Harbel","postalCode":"57482","locality":"Wenden","municipality":{"key":"05966028","name":"Wenden","type":"Kreisangehörige_Gemeinde"},"district":{"key":"05966","name":"Olpe","type":"Kreis"},"federalState":{"key":"05","name":"Nordrhein-Westfalen"}},{"name":"Zum Hirtengarten","postalCode":"57482","locality":"Wenden","municipality":{"key":"05966028","name":"Wenden","type":"Kreisangehörige_Gemeinde"},"district":{"key":"05966","name":"Olpe","type":"Kreis"},"federalState":{"key":"05","name":"Nordrhein-Westfalen"}},{"name":"Zum Höfchen","postalCode":"57482","locality":"Wenden","municipality":{"key":"05966028","name":"Wenden","type":"Kreisangehörige_Gemeinde"},"district":{"key":"05966","name":"Olpe","type":"Kreis"},"federalState":{"key":"05","name":"Nordrhein-Westfalen"}},{"name":"Zum Holtmicker Berge","postalCode":"57482","locality":"Wenden","municipality":{"key":"05966028","name":"Wenden","type":"Kreisangehörige_Gemeinde"},"district":{"key":"05966","name":"Olpe","type":"Kreis"},"federalState":{"key":"05","name":"Nordrhein-Westfalen"}},{"name":"Zum Lindenplatz","postalCode":"57482","locality":"Wenden","municipality":{"key":"05966028","name":"Wenden","type":"Kreisangehörige_Gemeinde"},"district":{"key":"05966","name":"Olpe","type":"Kreis"},"federalState":{"key":"05","name":"Nordrhein-Westfalen"}},{"name":"Zum Lindenseifen","postalCode":"57482","locality":"Wenden","municipality":{"key":"05966028","name":"Wenden","type":"Kreisangehörige_Gemeinde"},"district":{"key":"05966","name":"Olpe","type":"Kreis"},"federalState":{"key":"05","name":"Nordrhein-Westfalen"}},{"name":"Zum Nonnhof","postalCode":"57482","locality":"Wenden","municipality":{"key":"05966028","name":"Wenden","type":"Kreisangehörige_Gemeinde"},"district":{"key":"05966","name":"Olpe","type":"Kreis"},"federalState":{"key":"05","name":"Nordrhein-Westfalen"}},{"name":"Zum Öhlchen","postalCode":"57482","locality":"Wenden","municipality":{"key":"05966028","name":"Wenden","type":"Kreisangehörige_Gemeinde"},"district":{"key":"05966","name":"Olpe","type":"Kreis"},"federalState":{"key":"05","name":"Nordrhein-Westfalen"}},{"name":"Zum Rübenkamp","postalCode":"57482","locality":"Wenden","municipality":{"key":"05966028","name":"Wenden","type":"Kreisangehörige_Gemeinde"},"district":{"key":"05966","name":"Olpe","type":"Kreis"},"federalState":{"key":"05","name":"Nordrhein-Westfalen"}},{"name":"Zum Schauinsland","postalCode":"57482","locality":"Wenden","municipality":{"key":"05966028","name":"Wenden","type":"Kreisangehörige_Gemeinde"},"district":{"key":"05966","name":"Olpe","type":"Kreis"},"federalState":{"key":"05","name":"Nordrhein-Westfalen"}},{"name":"Zum Schlüchtern","postalCode":"57482","locality":"Wenden","municipality":{"key":"05966028","name":"Wenden","type":"Kreisangehörige_Gemeinde"},"district":{"key":"05966","name":"Olpe","type":"Kreis"},"federalState":{"key":"05","name":"Nordrhein-Westfalen"}},{"name":"Zum Schönauer Holz","postalCode":"57482","locality":"Wenden","municipality":{"key":"05966028","name":"Wenden","type":"Kreisangehörige_Gemeinde"},"district":{"key":"05966","name":"Olpe","type":"Kreis"},"federalState":{"key":"05","name":"Nordrhein-Westfalen"}},{"name":"Zum Sonnenfeld","postalCode":"57482","locality":"Wenden","municipality":{"key":"05966028","name":"Wenden","type":"Kreisangehörige_Gemeinde"},"district":{"key":"05966","name":"Olpe","type":"Kreis"},"federalState":{"key":"05","name":"Nordrhein-Westfalen"}},{"name":"Zum Sportplatz","postalCode":"57482","locality":"Wenden","municipality":{"key":"05966028","name":"Wenden","type":"Kreisangehörige_Gemeinde"},"district":{"key":"05966","name":"Olpe","type":"Kreis"},"federalState":{"key":"05","name":"Nordrhein-Westfalen"}},{"name":"Zum Stollen","postalCode":"57482","locality":"Wenden","municipality":{"key":"05966028","name":"Wenden","type":"Kreisangehörige_Gemeinde"},"district":{"key":"05966","name":"Olpe","type":"Kreis"},"federalState":{"key":"05","name":"Nordrhein-Westfalen"}},{"name":"Zum Waldlehrpfad","postalCode":"57482","locality":"Wenden","municipality":{"key":"05966028","name":"Wenden","type":"Kreisangehörige_Gemeinde"},"district":{"key":"05966","name":"Olpe","type":"Kreis"},"federalState":{"key":"05","name":"Nordrhein-Westfalen"}},{"name":"Zur Biggequelle","postalCode":"57482","locality":"Wenden","municipality":{"key":"05966028","name":"Wenden","type":"Kreisangehörige_Gemeinde"},"district":{"key":"05966","name":"Olpe","type":"Kreis"},"federalState":{"key":"05","name":"Nordrhein-Westfalen"}},{"name":"Zur Dipplinge","postalCode":"57482","locality":"Wenden","municipality":{"key":"05966028","name":"Wenden","type":"Kreisangehörige_Gemeinde"},"district":{"key":"05966","name":"Olpe","type":"Kreis"},"federalState":{"key":"05","name":"Nordrhein-Westfalen"}},{"name":"Zur Jägereiche","postalCode":"57482","locality":"Wenden","municipality":{"key":"05966028","name":"Wenden","type":"Kreisangehörige_Gemeinde"},"district":{"key":"05966","name":"Olpe","type":"Kreis"},"federalState":{"key":"05","name":"Nordrhein-Westfalen"}},{"name":"Zur Kuckuckshecke","postalCode":"87787","locality":"Wolfertschwenden","municipality":{"key":"09778218","name":"Wolfertschwenden","type":"Kreisangehörige_Gemeinde"},"district":{"key":"09778","name":"Unterallgäu","type":"Landkreis"},"federalState":{"key":"09","name":"Bayern"}},{"name":"Zur Schermicke","postalCode":"57482","locality":"Wenden","municipality":{"key":"05966028","name":"Wenden","type":"Kreisangehörige_Gemeinde"},"district":{"key":"05966","name":"Olpe","type":"Kreis"},"federalState":{"key":"05","name":"Nordrhein-Westfalen"}},{"name":"Zur Tiefen Wiese","postalCode":"57482","locality":"Wenden","municipality":{"key":"05966028","name":"Wenden","type":"Kreisangehörige_Gemeinde"},"district":{"key":"05966","name":"Olpe","type":"Kreis"},"federalState":{"key":"05","name":"Nordrhein-Westfalen"}},{"name":"Zur Wollwicke","postalCode":"57482","locality":"Wenden","municipality":{"key":"05966028","name":"Wenden","type":"Kreisangehörige_Gemeinde"},"district":{"key":"05966","name":"Olpe","type":"Kreis"},"federalState":{"key":"05","name":"Nordrhein-Westfalen"}},{"name":"Äußere Bahnhofstr.","postalCode":"87787","locality":"Wolfertschwenden","municipality":{"key":"09778218","name":"Wolfertschwenden","type":"Kreisangehörige_Gemeinde"},"district":{"key":"09778","name":"Unterallgäu","type":"Landkreis"},"federalState":{"key":"09","name":"Bayern"}},{"name":"Über","postalCode":"37318","locality":"Thalwenden","municipality":{"key":"16061096","name":"Thalwenden","type":"Kreisangehörige_Gemeinde"},"district":{"key":"16061","name":"Eichsfeld","type":"Landkreis"},"federalState":{"key":"16","name":"Thüringen"}},{"name":"Über den Höfen","postalCode":"57482","locality":"Wenden","municipality":{"key":"05966028","name":"Wenden","type":"Kreisangehörige_Gemeinde"},"district":{"key":"05966","name":"Olpe","type":"Kreis"},"federalState":{"key":"05","name":"Nordrhein-Westfalen"}},{"name":"Über der Delle","postalCode":"57482","locality":"Wenden","municipality":{"key":"05966028","name":"Wenden","type":"Kreisangehörige_Gemeinde"},"district":{"key":"05966","name":"Olpe","type":"Kreis"},"federalState":{"key":"05","name":"Nordrhein-Westfalen"}},{"name":"Übergasse","postalCode":"37318","locality":"Thalwenden","municipality":{"key":"16061096","name":"Thalwenden","type":"Kreisangehörige_Gemeinde"},"district":{"key":"16061","name":"Eichsfeld","type":"Landkreis"},"federalState":{"key":"16","name":"Thüringen"}},]