[{"key":"10011630","name":"Aeschbach","postalCode":"3438","locality":"Lauperswil","commune":{"key":"905","name":"Rüderswil","shortName":"Rüderswil"},"district":{"key":"245","name":"Verwaltungskreis Emmental"},"canton":{"key":"2","code":"BE","name":"Bern / Berne"},"status":"Real"},{"key":"10067495","name":"Aeschbachscheuer","postalCode":"3438","locality":"Lauperswil","commune":{"key":"905","name":"Rüderswil","shortName":"Rüderswil"},"district":{"key":"245","name":"Verwaltungskreis Emmental"},"canton":{"key":"2","code":"BE","name":"Bern / Berne"},"status":"Real"},{"key":"10179531","name":"Alpmoos","postalCode":"3438","locality":"Lauperswil","commune":{"key":"905","name":"Rüderswil","shortName":"Rüderswil"},"district":{"key":"245","name":"Verwaltungskreis Emmental"},"canton":{"key":"2","code":"BE","name":"Bern / Berne"},"status":"Real"},{"key":"10123437","name":"Birkhalden","postalCode":"3438","locality":"Lauperswil","commune":{"key":"905","name":"Rüderswil","shortName":"Rüderswil"},"district":{"key":"245","name":"Verwaltungskreis Emmental"},"canton":{"key":"2","code":"BE","name":"Bern / Berne"},"status":"Real"},{"key":"10011632","name":"Blütte","postalCode":"3438","locality":"Lauperswil","commune":{"key":"905","name":"Rüderswil","shortName":"Rüderswil"},"district":{"key":"245","name":"Verwaltungskreis Emmental"},"canton":{"key":"2","code":"BE","name":"Bern / Berne"},"status":"Real"},{"key":"10121532","name":"Bodenweid","postalCode":"3438","locality":"Lauperswil","commune":{"key":"905","name":"Rüderswil","shortName":"Rüderswil"},"district":{"key":"245","name":"Verwaltungskreis Emmental"},"canton":{"key":"2","code":"BE","name":"Bern / Berne"},"status":"Real"},{"key":"10011633","name":"Bramegg","postalCode":"3438","locality":"Lauperswil","commune":{"key":"905","name":"Rüderswil","shortName":"Rüderswil"},"district":{"key":"245","name":"Verwaltungskreis Emmental"},"canton":{"key":"2","code":"BE","name":"Bern / Berne"},"status":"Real"},{"key":"10011634","name":"Burg","postalCode":"3438","locality":"Lauperswil","commune":{"key":"905","name":"Rüderswil","shortName":"Rüderswil"},"district":{"key":"245","name":"Verwaltungskreis Emmental"},"canton":{"key":"2","code":"BE","name":"Bern / Berne"},"status":"Real"},{"key":"10179532","name":"Burgweidli","postalCode":"3438","locality":"Lauperswil","commune":{"key":"905","name":"Rüderswil","shortName":"Rüderswil"},"district":{"key":"245","name":"Verwaltungskreis Emmental"},"canton":{"key":"2","code":"BE","name":"Bern / Berne"},"status":"Real"},{"key":"10143071","name":"Dorfstrasse","postalCode":"3438","locality":"Lauperswil","commune":{"key":"905","name":"Rüderswil","shortName":"Rüderswil"},"district":{"key":"245","name":"Verwaltungskreis Emmental"},"canton":{"key":"2","code":"BE","name":"Bern / Berne"},"status":"Real"},{"key":"10109821","name":"Fellbach","postalCode":"3438","locality":"Lauperswil","commune":{"key":"905","name":"Rüderswil","shortName":"Rüderswil"},"district":{"key":"245","name":"Verwaltungskreis Emmental"},"canton":{"key":"2","code":"BE","name":"Bern / Berne"},"status":"Real"},{"key":"10112840","name":"Freudenhof","postalCode":"3438","locality":"Lauperswil","commune":{"key":"905","name":"Rüderswil","shortName":"Rüderswil"},"district":{"key":"245","name":"Verwaltungskreis Emmental"},"canton":{"key":"2","code":"BE","name":"Bern / Berne"},"status":"Real"},{"key":"10206433","name":"Grimmshaus","postalCode":"3438","locality":"Lauperswil","commune":{"key":"905","name":"Rüderswil","shortName":"Rüderswil"},"district":{"key":"245","name":"Verwaltungskreis Emmental"},"canton":{"key":"2","code":"BE","name":"Bern / Berne"},"status":"Real"},{"key":"10083369","name":"Haldenschlucht","postalCode":"3438","locality":"Lauperswil","commune":{"key":"905","name":"Rüderswil","shortName":"Rüderswil"},"district":{"key":"245","name":"Verwaltungskreis Emmental"},"canton":{"key":"2","code":"BE","name":"Bern / Berne"},"status":"Real"},{"key":"10012087","name":"Hinter Blindenbach","postalCode":"3438","locality":"Lauperswil","commune":{"key":"905","name":"Rüderswil","shortName":"Rüderswil"},"district":{"key":"245","name":"Verwaltungskreis Emmental"},"canton":{"key":"2","code":"BE","name":"Bern / Berne"},"status":"Real"},{"key":"10207172","name":"Hintere Burg","postalCode":"3438","locality":"Lauperswil","commune":{"key":"905","name":"Rüderswil","shortName":"Rüderswil"},"district":{"key":"245","name":"Verwaltungskreis Emmental"},"canton":{"key":"2","code":"BE","name":"Bern / Berne"},"status":"Real"},{"key":"10084470","name":"Hinter Längholz","postalCode":"3438","locality":"Lauperswil","commune":{"key":"905","name":"Rüderswil","shortName":"Rüderswil"},"district":{"key":"245","name":"Verwaltungskreis Emmental"},"canton":{"key":"2","code":"BE","name":"Bern / Berne"},"status":"Real"},{"key":"10011636","name":"Holderacker","postalCode":"3438","locality":"Lauperswil","commune":{"key":"905","name":"Rüderswil","shortName":"Rüderswil"},"district":{"key":"245","name":"Verwaltungskreis Emmental"},"canton":{"key":"2","code":"BE","name":"Bern / Berne"},"status":"Real"},{"key":"10129665","name":"Kachelhüsli","postalCode":"3438","locality":"Lauperswil","commune":{"key":"905","name":"Rüderswil","shortName":"Rüderswil"},"district":{"key":"245","name":"Verwaltungskreis Emmental"},"canton":{"key":"2","code":"BE","name":"Bern / Berne"},"status":"Real"},{"key":"10011637","name":"Kappelmatt","postalCode":"3438","locality":"Lauperswil","commune":{"key":"905","name":"Rüderswil","shortName":"Rüderswil"},"district":{"key":"245","name":"Verwaltungskreis Emmental"},"canton":{"key":"2","code":"BE","name":"Bern / Berne"},"status":"Real"},{"key":"10137295","name":"Kleematt","postalCode":"3438","locality":"Lauperswil","commune":{"key":"905","name":"Rüderswil","shortName":"Rüderswil"},"district":{"key":"245","name":"Verwaltungskreis Emmental"},"canton":{"key":"2","code":"BE","name":"Bern / Berne"},"status":"Real"},{"key":"10060148","name":"Kreuzacker","postalCode":"3438","locality":"Lauperswil","commune":{"key":"905","name":"Rüderswil","shortName":"Rüderswil"},"district":{"key":"245","name":"Verwaltungskreis Emmental"},"canton":{"key":"2","code":"BE","name":"Bern / Berne"},"status":"Real"},{"key":"10219998","name":"Kühberg","postalCode":"3438","locality":"Lauperswil","commune":{"key":"905","name":"Rüderswil","shortName":"Rüderswil"},"district":{"key":"245","name":"Verwaltungskreis Emmental"},"canton":{"key":"2","code":"BE","name":"Bern / Berne"},"status":"Real"},{"key":"10066077","name":"Kümeli","postalCode":"3438","locality":"Lauperswil","commune":{"key":"905","name":"Rüderswil","shortName":"Rüderswil"},"district":{"key":"245","name":"Verwaltungskreis Emmental"},"canton":{"key":"2","code":"BE","name":"Bern / Berne"},"status":"Real"},{"key":"10220002","name":"Lauperswilberg","postalCode":"3438","locality":"Lauperswil","commune":{"key":"905","name":"Rüderswil","shortName":"Rüderswil"},"district":{"key":"245","name":"Verwaltungskreis Emmental"},"canton":{"key":"2","code":"BE","name":"Bern / Berne"},"status":"Real"},{"key":"10067501","name":"Loh","postalCode":"3438","locality":"Lauperswil","commune":{"key":"905","name":"Rüderswil","shortName":"Rüderswil"},"district":{"key":"245","name":"Verwaltungskreis Emmental"},"canton":{"key":"2","code":"BE","name":"Bern / Berne"},"status":"Real"},{"key":"10012088","name":"Marlenberg","postalCode":"3438","locality":"Lauperswil","commune":{"key":"905","name":"Rüderswil","shortName":"Rüderswil"},"district":{"key":"245","name":"Verwaltungskreis Emmental"},"canton":{"key":"2","code":"BE","name":"Bern / Berne"},"status":"Real"},{"key":"10122868","name":"Marlenbergweidli","postalCode":"3438","locality":"Lauperswil","commune":{"key":"905","name":"Rüderswil","shortName":"Rüderswil"},"district":{"key":"245","name":"Verwaltungskreis Emmental"},"canton":{"key":"2","code":"BE","name":"Bern / Berne"},"status":"Real"},{"key":"10109822","name":"Moosegg","postalCode":"3438","locality":"Lauperswil","commune":{"key":"905","name":"Rüderswil","shortName":"Rüderswil"},"district":{"key":"245","name":"Verwaltungskreis Emmental"},"canton":{"key":"2","code":"BE","name":"Bern / Berne"},"status":"Real"},{"key":"10133818","name":"Neumühleweg","postalCode":"3438","locality":"Lauperswil","commune":{"key":"905","name":"Rüderswil","shortName":"Rüderswil"},"district":{"key":"245","name":"Verwaltungskreis Emmental"},"canton":{"key":"2","code":"BE","name":"Bern / Berne"},"status":"Real"},{"key":"10148111","name":"Oberdorfstrasse","postalCode":"3438","locality":"Lauperswil","commune":{"key":"905","name":"Rüderswil","shortName":"Rüderswil"},"district":{"key":"245","name":"Verwaltungskreis Emmental"},"canton":{"key":"2","code":"BE","name":"Bern / Berne"},"status":"Real"},{"key":"10067497","name":"Ober Knubelacker","postalCode":"3438","locality":"Lauperswil","commune":{"key":"905","name":"Rüderswil","shortName":"Rüderswil"},"district":{"key":"245","name":"Verwaltungskreis Emmental"},"canton":{"key":"2","code":"BE","name":"Bern / Berne"},"status":"Real"},{"key":"10189593","name":"Obermoos","postalCode":"3438","locality":"Lauperswil","commune":{"key":"905","name":"Rüderswil","shortName":"Rüderswil"},"district":{"key":"245","name":"Verwaltungskreis Emmental"},"canton":{"key":"2","code":"BE","name":"Bern / Berne"},"status":"Real"},{"key":"10121531","name":"Sandacker","postalCode":"3438","locality":"Lauperswil","commune":{"key":"905","name":"Rüderswil","shortName":"Rüderswil"},"district":{"key":"245","name":"Verwaltungskreis Emmental"},"canton":{"key":"2","code":"BE","name":"Bern / Berne"},"status":"Real"},{"key":"10060149","name":"Schlosshüsli","postalCode":"3438","locality":"Lauperswil","commune":{"key":"905","name":"Rüderswil","shortName":"Rüderswil"},"district":{"key":"245","name":"Verwaltungskreis Emmental"},"canton":{"key":"2","code":"BE","name":"Bern / Berne"},"status":"Real"},{"key":"10137296","name":"Schlössli","postalCode":"3438","locality":"Lauperswil","commune":{"key":"905","name":"Rüderswil","shortName":"Rüderswil"},"district":{"key":"245","name":"Verwaltungskreis Emmental"},"canton":{"key":"2","code":"BE","name":"Bern / Berne"},"status":"Real"},{"key":"10207911","name":"Schützer","postalCode":"3438","locality":"Lauperswil","commune":{"key":"905","name":"Rüderswil","shortName":"Rüderswil"},"district":{"key":"245","name":"Verwaltungskreis Emmental"},"canton":{"key":"2","code":"BE","name":"Bern / Berne"},"status":"Real"},{"key":"10060150","name":"Senggen","postalCode":"3438","locality":"Lauperswil","commune":{"key":"905","name":"Rüderswil","shortName":"Rüderswil"},"district":{"key":"245","name":"Verwaltungskreis Emmental"},"canton":{"key":"2","code":"BE","name":"Bern / Berne"},"status":"Real"},{"key":"10011639","name":"Sonnhalden","postalCode":"3438","locality":"Lauperswil","commune":{"key":"905","name":"Rüderswil","shortName":"Rüderswil"},"district":{"key":"245","name":"Verwaltungskreis Emmental"},"canton":{"key":"2","code":"BE","name":"Bern / Berne"},"status":"Real"},{"key":"10067509","name":"Sonnhaldenweidli","postalCode":"3438","locality":"Lauperswil","commune":{"key":"905","name":"Rüderswil","shortName":"Rüderswil"},"district":{"key":"245","name":"Verwaltungskreis Emmental"},"canton":{"key":"2","code":"BE","name":"Bern / Berne"},"status":"Real"},{"key":"10012089","name":"Strick","postalCode":"3438","locality":"Lauperswil","commune":{"key":"905","name":"Rüderswil","shortName":"Rüderswil"},"district":{"key":"245","name":"Verwaltungskreis Emmental"},"canton":{"key":"2","code":"BE","name":"Bern / Berne"},"status":"Real"},{"key":"10206213","name":"Studweid","postalCode":"3438","locality":"Lauperswil","commune":{"key":"905","name":"Rüderswil","shortName":"Rüderswil"},"district":{"key":"245","name":"Verwaltungskreis Emmental"},"canton":{"key":"2","code":"BE","name":"Bern / Berne"},"status":"Real"},{"key":"10186899","name":"Türliacker","postalCode":"3438","locality":"Lauperswil","commune":{"key":"905","name":"Rüderswil","shortName":"Rüderswil"},"district":{"key":"245","name":"Verwaltungskreis Emmental"},"canton":{"key":"2","code":"BE","name":"Bern / Berne"},"status":"Real"},{"key":"10187534","name":"Untermoos","postalCode":"3438","locality":"Lauperswil","commune":{"key":"905","name":"Rüderswil","shortName":"Rüderswil"},"district":{"key":"245","name":"Verwaltungskreis Emmental"},"canton":{"key":"2","code":"BE","name":"Bern / Berne"},"status":"Real"},{"key":"10012090","name":"Vorder Längholz","postalCode":"3438","locality":"Lauperswil","commune":{"key":"905","name":"Rüderswil","shortName":"Rüderswil"},"district":{"key":"245","name":"Verwaltungskreis Emmental"},"canton":{"key":"2","code":"BE","name":"Bern / Berne"},"status":"Real"},{"key":"10116272","name":"Wägeli","postalCode":"3438","locality":"Lauperswil","commune":{"key":"905","name":"Rüderswil","shortName":"Rüderswil"},"district":{"key":"245","name":"Verwaltungskreis Emmental"},"canton":{"key":"2","code":"BE","name":"Bern / Berne"},"status":"Real"},{"key":"10123435","name":"Wittenbach","postalCode":"3438","locality":"Lauperswil","commune":{"key":"905","name":"Rüderswil","shortName":"Rüderswil"},"district":{"key":"245","name":"Verwaltungskreis Emmental"},"canton":{"key":"2","code":"BE","name":"Bern / Berne"},"status":"Real"},{"key":"10011640","name":"Wittenbachgässli","postalCode":"3438","locality":"Lauperswil","commune":{"key":"905","name":"Rüderswil","shortName":"Rüderswil"},"district":{"key":"245","name":"Verwaltungskreis Emmental"},"canton":{"key":"2","code":"BE","name":"Bern / Berne"},"status":"Real"},{"key":"10083371","name":"Wittenbachgraben","postalCode":"3438","locality":"Lauperswil","commune":{"key":"905","name":"Rüderswil","shortName":"Rüderswil"},"district":{"key":"245","name":"Verwaltungskreis Emmental"},"canton":{"key":"2","code":"BE","name":"Bern / Berne"},"status":"Real"},{"key":"10011641","name":"Wittenbachscheuer","postalCode":"3438","locality":"Lauperswil","commune":{"key":"905","name":"Rüderswil","shortName":"Rüderswil"},"district":{"key":"245","name":"Verwaltungskreis Emmental"},"canton":{"key":"2","code":"BE","name":"Bern / Berne"},"status":"Real"},]