[{"name":"Allertshäuser Dorfplatz","postalCode":"96126","locality":"Maroldsweisach","municipality":{"key":"09674171","name":"Maroldsweisach, M","type":"Markt"},"district":{"key":"09674","name":"Haßberge","type":"Landkreis"},"federalState":{"key":"09","name":"Bayern"}},{"name":"Allertshäuser Str.","postalCode":"96126","locality":"Maroldsweisach","municipality":{"key":"09674171","name":"Maroldsweisach, M","type":"Markt"},"district":{"key":"09674","name":"Haßberge","type":"Landkreis"},"federalState":{"key":"09","name":"Bayern"}},{"name":"Altensteiner Str.","postalCode":"96126","locality":"Maroldsweisach","municipality":{"key":"09674171","name":"Maroldsweisach, M","type":"Markt"},"district":{"key":"09674","name":"Haßberge","type":"Landkreis"},"federalState":{"key":"09","name":"Bayern"}},{"name":"Altensteiner Weg","postalCode":"96126","locality":"Maroldsweisach","municipality":{"key":"09674171","name":"Maroldsweisach, M","type":"Markt"},"district":{"key":"09674","name":"Haßberge","type":"Landkreis"},"federalState":{"key":"09","name":"Bayern"}},{"name":"Alte Str.","postalCode":"96126","locality":"Maroldsweisach","municipality":{"key":"09674171","name":"Maroldsweisach, M","type":"Markt"},"district":{"key":"09674","name":"Haßberge","type":"Landkreis"},"federalState":{"key":"09","name":"Bayern"}},{"name":"Am Bahnhof","postalCode":"96126","locality":"Maroldsweisach","municipality":{"key":"09674171","name":"Maroldsweisach, M","type":"Markt"},"district":{"key":"09674","name":"Haßberge","type":"Landkreis"},"federalState":{"key":"09","name":"Bayern"}},{"name":"Am Brunngrund","postalCode":"96126","locality":"Maroldsweisach","municipality":{"key":"09674171","name":"Maroldsweisach, M","type":"Markt"},"district":{"key":"09674","name":"Haßberge","type":"Landkreis"},"federalState":{"key":"09","name":"Bayern"}},{"name":"Am Erlach","postalCode":"96126","locality":"Maroldsweisach","municipality":{"key":"09674171","name":"Maroldsweisach, M","type":"Markt"},"district":{"key":"09674","name":"Haßberge","type":"Landkreis"},"federalState":{"key":"09","name":"Bayern"}},{"name":"Am Friedhof","postalCode":"96126","locality":"Maroldsweisach","municipality":{"key":"09674171","name":"Maroldsweisach, M","type":"Markt"},"district":{"key":"09674","name":"Haßberge","type":"Landkreis"},"federalState":{"key":"09","name":"Bayern"}},{"name":"Am Heiligenberg","postalCode":"96126","locality":"Maroldsweisach","municipality":{"key":"09674171","name":"Maroldsweisach, M","type":"Markt"},"district":{"key":"09674","name":"Haßberge","type":"Landkreis"},"federalState":{"key":"09","name":"Bayern"}},{"name":"Am Kirchberg","postalCode":"96126","locality":"Maroldsweisach","municipality":{"key":"09674171","name":"Maroldsweisach, M","type":"Markt"},"district":{"key":"09674","name":"Haßberge","type":"Landkreis"},"federalState":{"key":"09","name":"Bayern"}},{"name":"Am Leisenturm","postalCode":"96126","locality":"Maroldsweisach","municipality":{"key":"09674171","name":"Maroldsweisach, M","type":"Markt"},"district":{"key":"09674","name":"Haßberge","type":"Landkreis"},"federalState":{"key":"09","name":"Bayern"}},{"name":"Am Mardersberg","postalCode":"96126","locality":"Maroldsweisach","municipality":{"key":"09674171","name":"Maroldsweisach, M","type":"Markt"},"district":{"key":"09674","name":"Haßberge","type":"Landkreis"},"federalState":{"key":"09","name":"Bayern"}},{"name":"Am Nussbaum","postalCode":"96126","locality":"Maroldsweisach","municipality":{"key":"09674171","name":"Maroldsweisach, M","type":"Markt"},"district":{"key":"09674","name":"Haßberge","type":"Landkreis"},"federalState":{"key":"09","name":"Bayern"}},{"name":"Am Schloß","postalCode":"96126","locality":"Maroldsweisach","municipality":{"key":"09674171","name":"Maroldsweisach, M","type":"Markt"},"district":{"key":"09674","name":"Haßberge","type":"Landkreis"},"federalState":{"key":"09","name":"Bayern"}},{"name":"Am Schulberg","postalCode":"96126","locality":"Maroldsweisach","municipality":{"key":"09674171","name":"Maroldsweisach, M","type":"Markt"},"district":{"key":"09674","name":"Haßberge","type":"Landkreis"},"federalState":{"key":"09","name":"Bayern"}},{"name":"Am Schwimmbad","postalCode":"96126","locality":"Maroldsweisach","municipality":{"key":"09674171","name":"Maroldsweisach, M","type":"Markt"},"district":{"key":"09674","name":"Haßberge","type":"Landkreis"},"federalState":{"key":"09","name":"Bayern"}},{"name":"Am Wolfsgrund","postalCode":"96126","locality":"Maroldsweisach","municipality":{"key":"09674171","name":"Maroldsweisach, M","type":"Markt"},"district":{"key":"09674","name":"Haßberge","type":"Landkreis"},"federalState":{"key":"09","name":"Bayern"}},{"name":"August-Meyer-Weg","postalCode":"96126","locality":"Maroldsweisach","municipality":{"key":"09674171","name":"Maroldsweisach, M","type":"Markt"},"district":{"key":"09674","name":"Haßberge","type":"Landkreis"},"federalState":{"key":"09","name":"Bayern"}},{"name":"Bachgasse","postalCode":"96126","locality":"Maroldsweisach","municipality":{"key":"09674171","name":"Maroldsweisach, M","type":"Markt"},"district":{"key":"09674","name":"Haßberge","type":"Landkreis"},"federalState":{"key":"09","name":"Bayern"}},{"name":"Becherweg","postalCode":"96126","locality":"Maroldsweisach","municipality":{"key":"09674171","name":"Maroldsweisach, M","type":"Markt"},"district":{"key":"09674","name":"Haßberge","type":"Landkreis"},"federalState":{"key":"09","name":"Bayern"}},{"name":"Berliner Ring","postalCode":"96126","locality":"Maroldsweisach","municipality":{"key":"09674171","name":"Maroldsweisach, M","type":"Markt"},"district":{"key":"09674","name":"Haßberge","type":"Landkreis"},"federalState":{"key":"09","name":"Bayern"}},{"name":"Birkenfelder Weg","postalCode":"96126","locality":"Maroldsweisach","municipality":{"key":"09674171","name":"Maroldsweisach, M","type":"Markt"},"district":{"key":"09674","name":"Haßberge","type":"Landkreis"},"federalState":{"key":"09","name":"Bayern"}},{"name":"Breitenbacher Weg","postalCode":"96126","locality":"Maroldsweisach","municipality":{"key":"09674171","name":"Maroldsweisach, M","type":"Markt"},"district":{"key":"09674","name":"Haßberge","type":"Landkreis"},"federalState":{"key":"09","name":"Bayern"}},{"name":"Brunnengasse","postalCode":"96126","locality":"Maroldsweisach","municipality":{"key":"09674171","name":"Maroldsweisach, M","type":"Markt"},"district":{"key":"09674","name":"Haßberge","type":"Landkreis"},"federalState":{"key":"09","name":"Bayern"}},{"name":"Brunnenweg","postalCode":"96126","locality":"Maroldsweisach","municipality":{"key":"09674171","name":"Maroldsweisach, M","type":"Markt"},"district":{"key":"09674","name":"Haßberge","type":"Landkreis"},"federalState":{"key":"09","name":"Bayern"}},{"name":"Büchelbergstr.","postalCode":"96126","locality":"Maroldsweisach","municipality":{"key":"09674171","name":"Maroldsweisach, M","type":"Markt"},"district":{"key":"09674","name":"Haßberge","type":"Landkreis"},"federalState":{"key":"09","name":"Bayern"}},{"name":"Buchenweg","postalCode":"96126","locality":"Maroldsweisach","municipality":{"key":"09674171","name":"Maroldsweisach, M","type":"Markt"},"district":{"key":"09674","name":"Haßberge","type":"Landkreis"},"federalState":{"key":"09","name":"Bayern"}},{"name":"Burgring","postalCode":"96126","locality":"Maroldsweisach","municipality":{"key":"09674171","name":"Maroldsweisach, M","type":"Markt"},"district":{"key":"09674","name":"Haßberge","type":"Landkreis"},"federalState":{"key":"09","name":"Bayern"}},{"name":"Burgstr.","postalCode":"96126","locality":"Maroldsweisach","municipality":{"key":"09674171","name":"Maroldsweisach, M","type":"Markt"},"district":{"key":"09674","name":"Haßberge","type":"Landkreis"},"federalState":{"key":"09","name":"Bayern"}},{"name":"Christoph-Böhm-Weg","postalCode":"96126","locality":"Maroldsweisach","municipality":{"key":"09674171","name":"Maroldsweisach, M","type":"Markt"},"district":{"key":"09674","name":"Haßberge","type":"Landkreis"},"federalState":{"key":"09","name":"Bayern"}},{"name":"Conrad-Feustling-Str.","postalCode":"96126","locality":"Maroldsweisach","municipality":{"key":"09674171","name":"Maroldsweisach, M","type":"Markt"},"district":{"key":"09674","name":"Haßberge","type":"Landkreis"},"federalState":{"key":"09","name":"Bayern"}},{"name":"Denkmalweg","postalCode":"96126","locality":"Maroldsweisach","municipality":{"key":"09674171","name":"Maroldsweisach, M","type":"Markt"},"district":{"key":"09674","name":"Haßberge","type":"Landkreis"},"federalState":{"key":"09","name":"Bayern"}},{"name":"Dippacher Str.","postalCode":"96126","locality":"Maroldsweisach","municipality":{"key":"09674171","name":"Maroldsweisach, M","type":"Markt"},"district":{"key":"09674","name":"Haßberge","type":"Landkreis"},"federalState":{"key":"09","name":"Bayern"}},{"name":"Don-Bosco-Allee","postalCode":"96126","locality":"Maroldsweisach","municipality":{"key":"09674171","name":"Maroldsweisach, M","type":"Markt"},"district":{"key":"09674","name":"Haßberge","type":"Landkreis"},"federalState":{"key":"09","name":"Bayern"}},{"name":"Dorfstr.","postalCode":"96126","locality":"Maroldsweisach","municipality":{"key":"09674171","name":"Maroldsweisach, M","type":"Markt"},"district":{"key":"09674","name":"Haßberge","type":"Landkreis"},"federalState":{"key":"09","name":"Bayern"}},{"name":"Dürrenrieder Str.","postalCode":"96126","locality":"Maroldsweisach","municipality":{"key":"09674171","name":"Maroldsweisach, M","type":"Markt"},"district":{"key":"09674","name":"Haßberge","type":"Landkreis"},"federalState":{"key":"09","name":"Bayern"}},{"name":"Ebene","postalCode":"96126","locality":"Maroldsweisach","municipality":{"key":"09674171","name":"Maroldsweisach, M","type":"Markt"},"district":{"key":"09674","name":"Haßberge","type":"Landkreis"},"federalState":{"key":"09","name":"Bayern"}},{"name":"Eckartshäuser Str.","postalCode":"96126","locality":"Maroldsweisach","municipality":{"key":"09674171","name":"Maroldsweisach, M","type":"Markt"},"district":{"key":"09674","name":"Haßberge","type":"Landkreis"},"federalState":{"key":"09","name":"Bayern"}},{"name":"Eckartshäuser Weg","postalCode":"96126","locality":"Maroldsweisach","municipality":{"key":"09674171","name":"Maroldsweisach, M","type":"Markt"},"district":{"key":"09674","name":"Haßberge","type":"Landkreis"},"federalState":{"key":"09","name":"Bayern"}},{"name":"Fichtenweg","postalCode":"96126","locality":"Maroldsweisach","municipality":{"key":"09674171","name":"Maroldsweisach, M","type":"Markt"},"district":{"key":"09674","name":"Haßberge","type":"Landkreis"},"federalState":{"key":"09","name":"Bayern"}},{"name":"Finkenherdsiedlung","postalCode":"96126","locality":"Maroldsweisach","municipality":{"key":"09674171","name":"Maroldsweisach, M","type":"Markt"},"district":{"key":"09674","name":"Haßberge","type":"Landkreis"},"federalState":{"key":"09","name":"Bayern"}},{"name":"Friedhofsweg","postalCode":"96126","locality":"Maroldsweisach","municipality":{"key":"09674171","name":"Maroldsweisach, M","type":"Markt"},"district":{"key":"09674","name":"Haßberge","type":"Landkreis"},"federalState":{"key":"09","name":"Bayern"}},{"name":"Friedrich-Rückert-Ring","postalCode":"96126","locality":"Maroldsweisach","municipality":{"key":"09674171","name":"Maroldsweisach, M","type":"Markt"},"district":{"key":"09674","name":"Haßberge","type":"Landkreis"},"federalState":{"key":"09","name":"Bayern"}},{"name":"Gabelsmühler Weg","postalCode":"96126","locality":"Maroldsweisach","municipality":{"key":"09674171","name":"Maroldsweisach, M","type":"Markt"},"district":{"key":"09674","name":"Haßberge","type":"Landkreis"},"federalState":{"key":"09","name":"Bayern"}},{"name":"Gartenstr.","postalCode":"96126","locality":"Maroldsweisach","municipality":{"key":"09674171","name":"Maroldsweisach, M","type":"Markt"},"district":{"key":"09674","name":"Haßberge","type":"Landkreis"},"federalState":{"key":"09","name":"Bayern"}},{"name":"Gerichtsweg","postalCode":"96126","locality":"Maroldsweisach","municipality":{"key":"09674171","name":"Maroldsweisach, M","type":"Markt"},"district":{"key":"09674","name":"Haßberge","type":"Landkreis"},"federalState":{"key":"09","name":"Bayern"}},{"name":"Geroldswinder Höhe","postalCode":"96126","locality":"Maroldsweisach","municipality":{"key":"09674171","name":"Maroldsweisach, M","type":"Markt"},"district":{"key":"09674","name":"Haßberge","type":"Landkreis"},"federalState":{"key":"09","name":"Bayern"}},{"name":"Gresselgrund","postalCode":"96126","locality":"Maroldsweisach","municipality":{"key":"09674171","name":"Maroldsweisach, M","type":"Markt"},"district":{"key":"09674","name":"Haßberge","type":"Landkreis"},"federalState":{"key":"09","name":"Bayern"}},{"name":"Gustav-von-Stein-Str.","postalCode":"96126","locality":"Maroldsweisach","municipality":{"key":"09674171","name":"Maroldsweisach, M","type":"Markt"},"district":{"key":"09674","name":"Haßberge","type":"Landkreis"},"federalState":{"key":"09","name":"Bayern"}},{"name":"Hafenpreppacher Str.","postalCode":"96126","locality":"Maroldsweisach","municipality":{"key":"09674171","name":"Maroldsweisach, M","type":"Markt"},"district":{"key":"09674","name":"Haßberge","type":"Landkreis"},"federalState":{"key":"09","name":"Bayern"}},{"name":"Häfnergasse","postalCode":"96126","locality":"Maroldsweisach","municipality":{"key":"09674171","name":"Maroldsweisach, M","type":"Markt"},"district":{"key":"09674","name":"Haßberge","type":"Landkreis"},"federalState":{"key":"09","name":"Bayern"}},{"name":"Hauptstr.","postalCode":"96126","locality":"Maroldsweisach","municipality":{"key":"09674171","name":"Maroldsweisach, M","type":"Markt"},"district":{"key":"09674","name":"Haßberge","type":"Landkreis"},"federalState":{"key":"09","name":"Bayern"}},{"name":"Hellinger Weg","postalCode":"96126","locality":"Maroldsweisach","municipality":{"key":"09674171","name":"Maroldsweisach, M","type":"Markt"},"district":{"key":"09674","name":"Haßberge","type":"Landkreis"},"federalState":{"key":"09","name":"Bayern"}},{"name":"Herrengärten","postalCode":"96126","locality":"Maroldsweisach","municipality":{"key":"09674171","name":"Maroldsweisach, M","type":"Markt"},"district":{"key":"09674","name":"Haßberge","type":"Landkreis"},"federalState":{"key":"09","name":"Bayern"}},{"name":"Herrengasse","postalCode":"96126","locality":"Maroldsweisach","municipality":{"key":"09674171","name":"Maroldsweisach, M","type":"Markt"},"district":{"key":"09674","name":"Haßberge","type":"Landkreis"},"federalState":{"key":"09","name":"Bayern"}},{"name":"Herrenstr.","postalCode":"96126","locality":"Maroldsweisach","municipality":{"key":"09674171","name":"Maroldsweisach, M","type":"Markt"},"district":{"key":"09674","name":"Haßberge","type":"Landkreis"},"federalState":{"key":"09","name":"Bayern"}},{"name":"Hintere Gasse","postalCode":"96126","locality":"Maroldsweisach","municipality":{"key":"09674171","name":"Maroldsweisach, M","type":"Markt"},"district":{"key":"09674","name":"Haßberge","type":"Landkreis"},"federalState":{"key":"09","name":"Bayern"}},{"name":"Im Spargelfeld","postalCode":"31626","locality":"Haßbergen","municipality":{"key":"03256011","name":"Haßbergen","type":"Kreisangehörige_Gemeinde"},"district":{"key":"03256","name":"Nienburg (Weser)","type":"Landkreis"},"federalState":{"key":"03","name":"Niedersachsen"}},{"name":"Im stillen Winkel","postalCode":"31626","locality":"Haßbergen","municipality":{"key":"03256011","name":"Haßbergen","type":"Kreisangehörige_Gemeinde"},"district":{"key":"03256","name":"Nienburg (Weser)","type":"Landkreis"},"federalState":{"key":"03","name":"Niedersachsen"}},{"name":"In der Weide","postalCode":"31626","locality":"Haßbergen","municipality":{"key":"03256011","name":"Haßbergen","type":"Kreisangehörige_Gemeinde"},"district":{"key":"03256","name":"Nienburg (Weser)","type":"Landkreis"},"federalState":{"key":"03","name":"Niedersachsen"}},{"name":"Julius -Gagel -Str.","postalCode":"96126","locality":"Maroldsweisach","municipality":{"key":"09674171","name":"Maroldsweisach, M","type":"Markt"},"district":{"key":"09674","name":"Haßberge","type":"Landkreis"},"federalState":{"key":"09","name":"Bayern"}},{"name":"Kellerstr.","postalCode":"96126","locality":"Maroldsweisach","municipality":{"key":"09674171","name":"Maroldsweisach, M","type":"Markt"},"district":{"key":"09674","name":"Haßberge","type":"Landkreis"},"federalState":{"key":"09","name":"Bayern"}},{"name":"Kirchgasse","postalCode":"96126","locality":"Maroldsweisach","municipality":{"key":"09674171","name":"Maroldsweisach, M","type":"Markt"},"district":{"key":"09674","name":"Haßberge","type":"Landkreis"},"federalState":{"key":"09","name":"Bayern"}},{"name":"Langer Weg","postalCode":"96126","locality":"Maroldsweisach","municipality":{"key":"09674171","name":"Maroldsweisach, M","type":"Markt"},"district":{"key":"09674","name":"Haßberge","type":"Landkreis"},"federalState":{"key":"09","name":"Bayern"}},{"name":"Lechenrother Weg","postalCode":"96126","locality":"Maroldsweisach","municipality":{"key":"09674171","name":"Maroldsweisach, M","type":"Markt"},"district":{"key":"09674","name":"Haßberge","type":"Landkreis"},"federalState":{"key":"09","name":"Bayern"}},{"name":"Lichtensteiner Weg","postalCode":"96126","locality":"Maroldsweisach","municipality":{"key":"09674171","name":"Maroldsweisach, M","type":"Markt"},"district":{"key":"09674","name":"Haßberge","type":"Landkreis"},"federalState":{"key":"09","name":"Bayern"}},{"name":"Lindacher Weg","postalCode":"96126","locality":"Maroldsweisach","municipality":{"key":"09674171","name":"Maroldsweisach, M","type":"Markt"},"district":{"key":"09674","name":"Haßberge","type":"Landkreis"},"federalState":{"key":"09","name":"Bayern"}},{"name":"Lindenstr.","postalCode":"96126","locality":"Maroldsweisach","municipality":{"key":"09674171","name":"Maroldsweisach, M","type":"Markt"},"district":{"key":"09674","name":"Haßberge","type":"Landkreis"},"federalState":{"key":"09","name":"Bayern"}},{"name":"Lohrer Str.","postalCode":"96126","locality":"Maroldsweisach","municipality":{"key":"09674171","name":"Maroldsweisach, M","type":"Markt"},"district":{"key":"09674","name":"Haßberge","type":"Landkreis"},"federalState":{"key":"09","name":"Bayern"}},{"name":"Maiäcker","postalCode":"96126","locality":"Maroldsweisach","municipality":{"key":"09674171","name":"Maroldsweisach, M","type":"Markt"},"district":{"key":"09674","name":"Haßberge","type":"Landkreis"},"federalState":{"key":"09","name":"Bayern"}},{"name":"Marbacher Str.","postalCode":"96126","locality":"Maroldsweisach","municipality":{"key":"09674171","name":"Maroldsweisach, M","type":"Markt"},"district":{"key":"09674","name":"Haßberge","type":"Landkreis"},"federalState":{"key":"09","name":"Bayern"}},{"name":"Meininger Str.","postalCode":"96126","locality":"Maroldsweisach","municipality":{"key":"09674171","name":"Maroldsweisach, M","type":"Markt"},"district":{"key":"09674","name":"Haßberge","type":"Landkreis"},"federalState":{"key":"09","name":"Bayern"}},{"name":"Pfaffendorfer Gasse","postalCode":"96126","locality":"Maroldsweisach","municipality":{"key":"09674171","name":"Maroldsweisach, M","type":"Markt"},"district":{"key":"09674","name":"Haßberge","type":"Landkreis"},"federalState":{"key":"09","name":"Bayern"}},{"name":"Pfaffendorfer Hauptstr.","postalCode":"96126","locality":"Maroldsweisach","municipality":{"key":"09674171","name":"Maroldsweisach, M","type":"Markt"},"district":{"key":"09674","name":"Haßberge","type":"Landkreis"},"federalState":{"key":"09","name":"Bayern"}},{"name":"Pfaffendorfer Weg","postalCode":"96126","locality":"Maroldsweisach","municipality":{"key":"09674171","name":"Maroldsweisach, M","type":"Markt"},"district":{"key":"09674","name":"Haßberge","type":"Landkreis"},"federalState":{"key":"09","name":"Bayern"}},{"name":"Rosenweg","postalCode":"96126","locality":"Maroldsweisach","municipality":{"key":"09674171","name":"Maroldsweisach, M","type":"Markt"},"district":{"key":"09674","name":"Haßberge","type":"Landkreis"},"federalState":{"key":"09","name":"Bayern"}},{"name":"Schloßberg","postalCode":"96126","locality":"Maroldsweisach","municipality":{"key":"09674171","name":"Maroldsweisach, M","type":"Markt"},"district":{"key":"09674","name":"Haßberge","type":"Landkreis"},"federalState":{"key":"09","name":"Bayern"}},{"name":"Schloßgasse","postalCode":"96126","locality":"Maroldsweisach","municipality":{"key":"09674171","name":"Maroldsweisach, M","type":"Markt"},"district":{"key":"09674","name":"Haßberge","type":"Landkreis"},"federalState":{"key":"09","name":"Bayern"}},{"name":"Schreinersgasse","postalCode":"96126","locality":"Maroldsweisach","municipality":{"key":"09674171","name":"Maroldsweisach, M","type":"Markt"},"district":{"key":"09674","name":"Haßberge","type":"Landkreis"},"federalState":{"key":"09","name":"Bayern"}},{"name":"Schulgasse","postalCode":"96126","locality":"Maroldsweisach","municipality":{"key":"09674171","name":"Maroldsweisach, M","type":"Markt"},"district":{"key":"09674","name":"Haßberge","type":"Landkreis"},"federalState":{"key":"09","name":"Bayern"}},{"name":"Schulstr.","postalCode":"96126","locality":"Maroldsweisach","municipality":{"key":"09674171","name":"Maroldsweisach, M","type":"Markt"},"district":{"key":"09674","name":"Haßberge","type":"Landkreis"},"federalState":{"key":"09","name":"Bayern"}},{"name":"Schulweg","postalCode":"96126","locality":"Maroldsweisach","municipality":{"key":"09674171","name":"Maroldsweisach, M","type":"Markt"},"district":{"key":"09674","name":"Haßberge","type":"Landkreis"},"federalState":{"key":"09","name":"Bayern"}},{"name":"Schwarzäcker","postalCode":"96126","locality":"Maroldsweisach","municipality":{"key":"09674171","name":"Maroldsweisach, M","type":"Markt"},"district":{"key":"09674","name":"Haßberge","type":"Landkreis"},"federalState":{"key":"09","name":"Bayern"}},{"name":"Sommerweg","postalCode":"96126","locality":"Maroldsweisach","municipality":{"key":"09674171","name":"Maroldsweisach, M","type":"Markt"},"district":{"key":"09674","name":"Haßberge","type":"Landkreis"},"federalState":{"key":"09","name":"Bayern"}},{"name":"Sonneberger Str.","postalCode":"96126","locality":"Maroldsweisach","municipality":{"key":"09674171","name":"Maroldsweisach, M","type":"Markt"},"district":{"key":"09674","name":"Haßberge","type":"Landkreis"},"federalState":{"key":"09","name":"Bayern"}},{"name":"Steinweg","postalCode":"96126","locality":"Maroldsweisach","municipality":{"key":"09674171","name":"Maroldsweisach, M","type":"Markt"},"district":{"key":"09674","name":"Haßberge","type":"Landkreis"},"federalState":{"key":"09","name":"Bayern"}},{"name":"Sülzenweg","postalCode":"96126","locality":"Maroldsweisach","municipality":{"key":"09674171","name":"Maroldsweisach, M","type":"Markt"},"district":{"key":"09674","name":"Haßberge","type":"Landkreis"},"federalState":{"key":"09","name":"Bayern"}},{"name":"Tannenweg","postalCode":"96126","locality":"Maroldsweisach","municipality":{"key":"09674171","name":"Maroldsweisach, M","type":"Markt"},"district":{"key":"09674","name":"Haßberge","type":"Landkreis"},"federalState":{"key":"09","name":"Bayern"}},{"name":"Thüringer Ring","postalCode":"96126","locality":"Maroldsweisach","municipality":{"key":"09674171","name":"Maroldsweisach, M","type":"Markt"},"district":{"key":"09674","name":"Haßberge","type":"Landkreis"},"federalState":{"key":"09","name":"Bayern"}},{"name":"Tulpenweg","postalCode":"96126","locality":"Maroldsweisach","municipality":{"key":"09674171","name":"Maroldsweisach, M","type":"Markt"},"district":{"key":"09674","name":"Haßberge","type":"Landkreis"},"federalState":{"key":"09","name":"Bayern"}},{"name":"Voccawind","postalCode":"96126","locality":"Maroldsweisach","municipality":{"key":"09674171","name":"Maroldsweisach, M","type":"Markt"},"district":{"key":"09674","name":"Haßberge","type":"Landkreis"},"federalState":{"key":"09","name":"Bayern"}},{"name":"Von-Hutten-Str.","postalCode":"96126","locality":"Maroldsweisach","municipality":{"key":"09674171","name":"Maroldsweisach, M","type":"Markt"},"district":{"key":"09674","name":"Haßberge","type":"Landkreis"},"federalState":{"key":"09","name":"Bayern"}},{"name":"Vorstadtstr.","postalCode":"96126","locality":"Maroldsweisach","municipality":{"key":"09674171","name":"Maroldsweisach, M","type":"Markt"},"district":{"key":"09674","name":"Haßberge","type":"Landkreis"},"federalState":{"key":"09","name":"Bayern"}},{"name":"Wasmuthäuser Str.","postalCode":"96126","locality":"Maroldsweisach","municipality":{"key":"09674171","name":"Maroldsweisach, M","type":"Markt"},"district":{"key":"09674","name":"Haßberge","type":"Landkreis"},"federalState":{"key":"09","name":"Bayern"}},{"name":"Weißer Bruch","postalCode":"96126","locality":"Maroldsweisach","municipality":{"key":"09674171","name":"Maroldsweisach, M","type":"Markt"},"district":{"key":"09674","name":"Haßberge","type":"Landkreis"},"federalState":{"key":"09","name":"Bayern"}},{"name":"Wiesenstr.","postalCode":"96126","locality":"Maroldsweisach","municipality":{"key":"09674171","name":"Maroldsweisach, M","type":"Markt"},"district":{"key":"09674","name":"Haßberge","type":"Landkreis"},"federalState":{"key":"09","name":"Bayern"}},{"name":"Wilhem-von-Stein-Str.","postalCode":"96126","locality":"Maroldsweisach","municipality":{"key":"09674171","name":"Maroldsweisach, M","type":"Markt"},"district":{"key":"09674","name":"Haßberge","type":"Landkreis"},"federalState":{"key":"09","name":"Bayern"}},{"name":"Wirthsleite","postalCode":"96126","locality":"Maroldsweisach","municipality":{"key":"09674171","name":"Maroldsweisach, M","type":"Markt"},"district":{"key":"09674","name":"Haßberge","type":"Landkreis"},"federalState":{"key":"09","name":"Bayern"}},{"name":"Wirtsgasse","postalCode":"96126","locality":"Maroldsweisach","municipality":{"key":"09674171","name":"Maroldsweisach, M","type":"Markt"},"district":{"key":"09674","name":"Haßberge","type":"Landkreis"},"federalState":{"key":"09","name":"Bayern"}},{"name":"Zeilbergsiedlung","postalCode":"96126","locality":"Maroldsweisach","municipality":{"key":"09674171","name":"Maroldsweisach, M","type":"Markt"},"district":{"key":"09674","name":"Haßberge","type":"Landkreis"},"federalState":{"key":"09","name":"Bayern"}},{"name":"Zum Hermannsbrünnle","postalCode":"96126","locality":"Maroldsweisach","municipality":{"key":"09674171","name":"Maroldsweisach, M","type":"Markt"},"district":{"key":"09674","name":"Haßberge","type":"Landkreis"},"federalState":{"key":"09","name":"Bayern"}},{"name":"Zur Schmiede","postalCode":"96126","locality":"Maroldsweisach","municipality":{"key":"09674171","name":"Maroldsweisach, M","type":"Markt"},"district":{"key":"09674","name":"Haßberge","type":"Landkreis"},"federalState":{"key":"09","name":"Bayern"}},{"name":"Zur Weisach","postalCode":"96126","locality":"Maroldsweisach","municipality":{"key":"09674171","name":"Maroldsweisach, M","type":"Markt"},"district":{"key":"09674","name":"Haßberge","type":"Landkreis"},"federalState":{"key":"09","name":"Bayern"}},]