[{"name":"Alte Dorfstr.","postalCode":"25575","locality":"Beringstedt","municipality":{"key":"01058015","name":"Beringstedt","type":"Kreisangehörige_Gemeinde"},"district":{"key":"01058","name":"Rendsburg-Eckernförde","type":"Kreis"},"federalState":{"key":"01","name":"Schleswig-Holstein"}},{"name":"Am Bahnhof","postalCode":"25575","locality":"Beringstedt","municipality":{"key":"01058015","name":"Beringstedt","type":"Kreisangehörige_Gemeinde"},"district":{"key":"01058","name":"Rendsburg-Eckernförde","type":"Kreis"},"federalState":{"key":"01","name":"Schleswig-Holstein"}},{"name":"Am Ehrenmal","postalCode":"25575","locality":"Beringstedt","municipality":{"key":"01058015","name":"Beringstedt","type":"Kreisangehörige_Gemeinde"},"district":{"key":"01058","name":"Rendsburg-Eckernförde","type":"Kreis"},"federalState":{"key":"01","name":"Schleswig-Holstein"}},{"name":"Am Ellerrehm","postalCode":"25575","locality":"Beringstedt","municipality":{"key":"01058015","name":"Beringstedt","type":"Kreisangehörige_Gemeinde"},"district":{"key":"01058","name":"Rendsburg-Eckernförde","type":"Kreis"},"federalState":{"key":"01","name":"Schleswig-Holstein"}},{"name":"Amselweg","postalCode":"25575","locality":"Beringstedt","municipality":{"key":"01058015","name":"Beringstedt","type":"Kreisangehörige_Gemeinde"},"district":{"key":"01058","name":"Rendsburg-Eckernförde","type":"Kreis"},"federalState":{"key":"01","name":"Schleswig-Holstein"}},{"name":"Am Wischhof","postalCode":"25575","locality":"Beringstedt","municipality":{"key":"01058015","name":"Beringstedt","type":"Kreisangehörige_Gemeinde"},"district":{"key":"01058","name":"Rendsburg-Eckernförde","type":"Kreis"},"federalState":{"key":"01","name":"Schleswig-Holstein"}},{"name":"Aukamp","postalCode":"25575","locality":"Beringstedt","municipality":{"key":"01058015","name":"Beringstedt","type":"Kreisangehörige_Gemeinde"},"district":{"key":"01058","name":"Rendsburg-Eckernförde","type":"Kreis"},"federalState":{"key":"01","name":"Schleswig-Holstein"}},{"name":"Birkenweg","postalCode":"25575","locality":"Beringstedt","municipality":{"key":"01058015","name":"Beringstedt","type":"Kreisangehörige_Gemeinde"},"district":{"key":"01058","name":"Rendsburg-Eckernförde","type":"Kreis"},"federalState":{"key":"01","name":"Schleswig-Holstein"}},{"name":"Eichenweg","postalCode":"25575","locality":"Beringstedt","municipality":{"key":"01058015","name":"Beringstedt","type":"Kreisangehörige_Gemeinde"},"district":{"key":"01058","name":"Rendsburg-Eckernförde","type":"Kreis"},"federalState":{"key":"01","name":"Schleswig-Holstein"}},{"name":"Fohr","postalCode":"25575","locality":"Beringstedt","municipality":{"key":"01058015","name":"Beringstedt","type":"Kreisangehörige_Gemeinde"},"district":{"key":"01058","name":"Rendsburg-Eckernförde","type":"Kreis"},"federalState":{"key":"01","name":"Schleswig-Holstein"}},{"name":"Friedensstr.","postalCode":"25575","locality":"Beringstedt","municipality":{"key":"01058015","name":"Beringstedt","type":"Kreisangehörige_Gemeinde"},"district":{"key":"01058","name":"Rendsburg-Eckernförde","type":"Kreis"},"federalState":{"key":"01","name":"Schleswig-Holstein"}},{"name":"Heckenweg","postalCode":"25575","locality":"Beringstedt","municipality":{"key":"01058015","name":"Beringstedt","type":"Kreisangehörige_Gemeinde"},"district":{"key":"01058","name":"Rendsburg-Eckernförde","type":"Kreis"},"federalState":{"key":"01","name":"Schleswig-Holstein"}},{"name":"Hermannstr.","postalCode":"25575","locality":"Beringstedt","municipality":{"key":"01058015","name":"Beringstedt","type":"Kreisangehörige_Gemeinde"},"district":{"key":"01058","name":"Rendsburg-Eckernförde","type":"Kreis"},"federalState":{"key":"01","name":"Schleswig-Holstein"}},{"name":"Holstenberg","postalCode":"25575","locality":"Beringstedt","municipality":{"key":"01058015","name":"Beringstedt","type":"Kreisangehörige_Gemeinde"},"district":{"key":"01058","name":"Rendsburg-Eckernförde","type":"Kreis"},"federalState":{"key":"01","name":"Schleswig-Holstein"}},{"name":"Holunderweg","postalCode":"25575","locality":"Beringstedt","municipality":{"key":"01058015","name":"Beringstedt","type":"Kreisangehörige_Gemeinde"},"district":{"key":"01058","name":"Rendsburg-Eckernförde","type":"Kreis"},"federalState":{"key":"01","name":"Schleswig-Holstein"}},{"name":"Im Eck","postalCode":"25575","locality":"Beringstedt","municipality":{"key":"01058015","name":"Beringstedt","type":"Kreisangehörige_Gemeinde"},"district":{"key":"01058","name":"Rendsburg-Eckernförde","type":"Kreis"},"federalState":{"key":"01","name":"Schleswig-Holstein"}},{"name":"In der Marsch","postalCode":"25575","locality":"Beringstedt","municipality":{"key":"01058015","name":"Beringstedt","type":"Kreisangehörige_Gemeinde"},"district":{"key":"01058","name":"Rendsburg-Eckernförde","type":"Kreis"},"federalState":{"key":"01","name":"Schleswig-Holstein"}},{"name":"Mastbrock","postalCode":"25575","locality":"Beringstedt","municipality":{"key":"01058015","name":"Beringstedt","type":"Kreisangehörige_Gemeinde"},"district":{"key":"01058","name":"Rendsburg-Eckernförde","type":"Kreis"},"federalState":{"key":"01","name":"Schleswig-Holstein"}},{"name":"Mückenhörn","postalCode":"25575","locality":"Beringstedt","municipality":{"key":"01058015","name":"Beringstedt","type":"Kreisangehörige_Gemeinde"},"district":{"key":"01058","name":"Rendsburg-Eckernförde","type":"Kreis"},"federalState":{"key":"01","name":"Schleswig-Holstein"}},{"name":"Osterbrook","postalCode":"25575","locality":"Beringstedt","municipality":{"key":"01058015","name":"Beringstedt","type":"Kreisangehörige_Gemeinde"},"district":{"key":"01058","name":"Rendsburg-Eckernförde","type":"Kreis"},"federalState":{"key":"01","name":"Schleswig-Holstein"}},{"name":"Osterhofer Weg","postalCode":"25575","locality":"Beringstedt","municipality":{"key":"01058015","name":"Beringstedt","type":"Kreisangehörige_Gemeinde"},"district":{"key":"01058","name":"Rendsburg-Eckernförde","type":"Kreis"},"federalState":{"key":"01","name":"Schleswig-Holstein"}},{"name":"Ostermühlen","postalCode":"25575","locality":"Beringstedt","municipality":{"key":"01058015","name":"Beringstedt","type":"Kreisangehörige_Gemeinde"},"district":{"key":"01058","name":"Rendsburg-Eckernförde","type":"Kreis"},"federalState":{"key":"01","name":"Schleswig-Holstein"}},{"name":"Ostermühler Str.","postalCode":"25575","locality":"Beringstedt","municipality":{"key":"01058015","name":"Beringstedt","type":"Kreisangehörige_Gemeinde"},"district":{"key":"01058","name":"Rendsburg-Eckernförde","type":"Kreis"},"federalState":{"key":"01","name":"Schleswig-Holstein"}},{"name":"Pfenningkrug","postalCode":"25575","locality":"Beringstedt","municipality":{"key":"01058015","name":"Beringstedt","type":"Kreisangehörige_Gemeinde"},"district":{"key":"01058","name":"Rendsburg-Eckernförde","type":"Kreis"},"federalState":{"key":"01","name":"Schleswig-Holstein"}},{"name":"Reiherstieg","postalCode":"25575","locality":"Beringstedt","municipality":{"key":"01058015","name":"Beringstedt","type":"Kreisangehörige_Gemeinde"},"district":{"key":"01058","name":"Rendsburg-Eckernförde","type":"Kreis"},"federalState":{"key":"01","name":"Schleswig-Holstein"}},{"name":"Saar","postalCode":"25575","locality":"Beringstedt","municipality":{"key":"01058015","name":"Beringstedt","type":"Kreisangehörige_Gemeinde"},"district":{"key":"01058","name":"Rendsburg-Eckernförde","type":"Kreis"},"federalState":{"key":"01","name":"Schleswig-Holstein"}},{"name":"Schmiedegang","postalCode":"25575","locality":"Beringstedt","municipality":{"key":"01058015","name":"Beringstedt","type":"Kreisangehörige_Gemeinde"},"district":{"key":"01058","name":"Rendsburg-Eckernförde","type":"Kreis"},"federalState":{"key":"01","name":"Schleswig-Holstein"}},{"name":"Schulberg","postalCode":"25575","locality":"Beringstedt","municipality":{"key":"01058015","name":"Beringstedt","type":"Kreisangehörige_Gemeinde"},"district":{"key":"01058","name":"Rendsburg-Eckernförde","type":"Kreis"},"federalState":{"key":"01","name":"Schleswig-Holstein"}},{"name":"Seegen","postalCode":"25575","locality":"Beringstedt","municipality":{"key":"01058015","name":"Beringstedt","type":"Kreisangehörige_Gemeinde"},"district":{"key":"01058","name":"Rendsburg-Eckernförde","type":"Kreis"},"federalState":{"key":"01","name":"Schleswig-Holstein"}},{"name":"Seegensgang","postalCode":"25575","locality":"Beringstedt","municipality":{"key":"01058015","name":"Beringstedt","type":"Kreisangehörige_Gemeinde"},"district":{"key":"01058","name":"Rendsburg-Eckernförde","type":"Kreis"},"federalState":{"key":"01","name":"Schleswig-Holstein"}},{"name":"Steinbergstr.","postalCode":"25575","locality":"Beringstedt","municipality":{"key":"01058015","name":"Beringstedt","type":"Kreisangehörige_Gemeinde"},"district":{"key":"01058","name":"Rendsburg-Eckernförde","type":"Kreis"},"federalState":{"key":"01","name":"Schleswig-Holstein"}},{"name":"Wesfladen","postalCode":"25575","locality":"Beringstedt","municipality":{"key":"01058015","name":"Beringstedt","type":"Kreisangehörige_Gemeinde"},"district":{"key":"01058","name":"Rendsburg-Eckernförde","type":"Kreis"},"federalState":{"key":"01","name":"Schleswig-Holstein"}},{"name":"Wiesengrund","postalCode":"25575","locality":"Beringstedt","municipality":{"key":"01058015","name":"Beringstedt","type":"Kreisangehörige_Gemeinde"},"district":{"key":"01058","name":"Rendsburg-Eckernförde","type":"Kreis"},"federalState":{"key":"01","name":"Schleswig-Holstein"}},{"name":"Wischkoppel","postalCode":"25575","locality":"Beringstedt","municipality":{"key":"01058015","name":"Beringstedt","type":"Kreisangehörige_Gemeinde"},"district":{"key":"01058","name":"Rendsburg-Eckernförde","type":"Kreis"},"federalState":{"key":"01","name":"Schleswig-Holstein"}},{"name":"Ziegeleiweg","postalCode":"25575","locality":"Beringstedt","municipality":{"key":"01058015","name":"Beringstedt","type":"Kreisangehörige_Gemeinde"},"district":{"key":"01058","name":"Rendsburg-Eckernförde","type":"Kreis"},"federalState":{"key":"01","name":"Schleswig-Holstein"}},]