[{"name":"Ahornweg","postalCode":"72221","locality":"Haiterbach","municipality":{"key":"08235032","name":"Haiterbach, Stadt","type":"Stadt"},"district":{"key":"08235","name":"Calw","type":"Landkreis"},"federalState":{"key":"08","name":"Baden-Württemberg"}},{"name":"Alte Haiterbacher Str.","postalCode":"72221","locality":"Haiterbach","municipality":{"key":"08235032","name":"Haiterbach, Stadt","type":"Stadt"},"district":{"key":"08235","name":"Calw","type":"Landkreis"},"federalState":{"key":"08","name":"Baden-Württemberg"}},{"name":"Alte Heerstr.","postalCode":"72221","locality":"Haiterbach","municipality":{"key":"08235032","name":"Haiterbach, Stadt","type":"Stadt"},"district":{"key":"08235","name":"Calw","type":"Landkreis"},"federalState":{"key":"08","name":"Baden-Württemberg"}},{"name":"Alte Nagolder Str.","postalCode":"72221","locality":"Haiterbach","municipality":{"key":"08235032","name":"Haiterbach, Stadt","type":"Stadt"},"district":{"key":"08235","name":"Calw","type":"Landkreis"},"federalState":{"key":"08","name":"Baden-Württemberg"}},{"name":"Altnuifraer Str.","postalCode":"72221","locality":"Haiterbach","municipality":{"key":"08235032","name":"Haiterbach, Stadt","type":"Stadt"},"district":{"key":"08235","name":"Calw","type":"Landkreis"},"federalState":{"key":"08","name":"Baden-Württemberg"}},{"name":"Amselweg","postalCode":"72221","locality":"Haiterbach","municipality":{"key":"08235032","name":"Haiterbach, Stadt","type":"Stadt"},"district":{"key":"08235","name":"Calw","type":"Landkreis"},"federalState":{"key":"08","name":"Baden-Württemberg"}},{"name":"Am Steinriegel","postalCode":"72221","locality":"Haiterbach","municipality":{"key":"08235032","name":"Haiterbach, Stadt","type":"Stadt"},"district":{"key":"08235","name":"Calw","type":"Landkreis"},"federalState":{"key":"08","name":"Baden-Württemberg"}},{"name":"Beihinger Str.","postalCode":"72221","locality":"Haiterbach","municipality":{"key":"08235032","name":"Haiterbach, Stadt","type":"Stadt"},"district":{"key":"08235","name":"Calw","type":"Landkreis"},"federalState":{"key":"08","name":"Baden-Württemberg"}},{"name":"Bergstr.","postalCode":"72221","locality":"Haiterbach","municipality":{"key":"08235032","name":"Haiterbach, Stadt","type":"Stadt"},"district":{"key":"08235","name":"Calw","type":"Landkreis"},"federalState":{"key":"08","name":"Baden-Württemberg"}},{"name":"Bertolt-Brecht-Str.","postalCode":"72221","locality":"Haiterbach","municipality":{"key":"08235032","name":"Haiterbach, Stadt","type":"Stadt"},"district":{"key":"08235","name":"Calw","type":"Landkreis"},"federalState":{"key":"08","name":"Baden-Württemberg"}},{"name":"Birkenweg","postalCode":"72221","locality":"Haiterbach","municipality":{"key":"08235032","name":"Haiterbach, Stadt","type":"Stadt"},"district":{"key":"08235","name":"Calw","type":"Landkreis"},"federalState":{"key":"08","name":"Baden-Württemberg"}},{"name":"Blumenstr.","postalCode":"72221","locality":"Haiterbach","municipality":{"key":"08235032","name":"Haiterbach, Stadt","type":"Stadt"},"district":{"key":"08235","name":"Calw","type":"Landkreis"},"federalState":{"key":"08","name":"Baden-Württemberg"}},{"name":"Bösinger Str.","postalCode":"72221","locality":"Haiterbach","municipality":{"key":"08235032","name":"Haiterbach, Stadt","type":"Stadt"},"district":{"key":"08235","name":"Calw","type":"Landkreis"},"federalState":{"key":"08","name":"Baden-Württemberg"}},{"name":"Breite","postalCode":"72221","locality":"Haiterbach","municipality":{"key":"08235032","name":"Haiterbach, Stadt","type":"Stadt"},"district":{"key":"08235","name":"Calw","type":"Landkreis"},"federalState":{"key":"08","name":"Baden-Württemberg"}},{"name":"Breitenäckerweg","postalCode":"72221","locality":"Haiterbach","municipality":{"key":"08235032","name":"Haiterbach, Stadt","type":"Stadt"},"district":{"key":"08235","name":"Calw","type":"Landkreis"},"federalState":{"key":"08","name":"Baden-Württemberg"}},{"name":"Breslauer Str.","postalCode":"72221","locality":"Haiterbach","municipality":{"key":"08235032","name":"Haiterbach, Stadt","type":"Stadt"},"district":{"key":"08235","name":"Calw","type":"Landkreis"},"federalState":{"key":"08","name":"Baden-Württemberg"}},{"name":"Brunnenstr.","postalCode":"72221","locality":"Haiterbach","municipality":{"key":"08235032","name":"Haiterbach, Stadt","type":"Stadt"},"district":{"key":"08235","name":"Calw","type":"Landkreis"},"federalState":{"key":"08","name":"Baden-Württemberg"}},{"name":"Bühlwiesenweg","postalCode":"72221","locality":"Haiterbach","municipality":{"key":"08235032","name":"Haiterbach, Stadt","type":"Stadt"},"district":{"key":"08235","name":"Calw","type":"Landkreis"},"federalState":{"key":"08","name":"Baden-Württemberg"}},{"name":"Burgstr.","postalCode":"72221","locality":"Haiterbach","municipality":{"key":"08235032","name":"Haiterbach, Stadt","type":"Stadt"},"district":{"key":"08235","name":"Calw","type":"Landkreis"},"federalState":{"key":"08","name":"Baden-Württemberg"}},{"name":"Bus","postalCode":"72221","locality":"Haiterbach","municipality":{"key":"08235032","name":"Haiterbach, Stadt","type":"Stadt"},"district":{"key":"08235","name":"Calw","type":"Landkreis"},"federalState":{"key":"08","name":"Baden-Württemberg"}},{"name":"Buttenmühle","postalCode":"72221","locality":"Haiterbach","municipality":{"key":"08235032","name":"Haiterbach, Stadt","type":"Stadt"},"district":{"key":"08235","name":"Calw","type":"Landkreis"},"federalState":{"key":"08","name":"Baden-Württemberg"}},{"name":"Calmbacher Weg","postalCode":"75365","locality":"Calw","municipality":{"key":"08235085","name":"Calw, Stadt","type":"Große_Kreisstadt"},"district":{"key":"08235","name":"Calw","type":"Landkreis"},"federalState":{"key":"08","name":"Baden-Württemberg"}},{"name":"Calwer Str.","postalCode":"75365","locality":"Calw","municipality":{"key":"08235085","name":"Calw, Stadt","type":"Große_Kreisstadt"},"district":{"key":"08235","name":"Calw","type":"Landkreis"},"federalState":{"key":"08","name":"Baden-Württemberg"}},{"name":"Calwer Weg","postalCode":"75365","locality":"Calw","municipality":{"key":"08235085","name":"Calw, Stadt","type":"Große_Kreisstadt"},"district":{"key":"08235","name":"Calw","type":"Landkreis"},"federalState":{"key":"08","name":"Baden-Württemberg"}},{"name":"Candidusstr.","postalCode":"75365","locality":"Calw","municipality":{"key":"08235085","name":"Calw, Stadt","type":"Große_Kreisstadt"},"district":{"key":"08235","name":"Calw","type":"Landkreis"},"federalState":{"key":"08","name":"Baden-Württemberg"}},{"name":"Carl-Benz-Str.","postalCode":"75365","locality":"Calw","municipality":{"key":"08235085","name":"Calw, Stadt","type":"Große_Kreisstadt"},"district":{"key":"08235","name":"Calw","type":"Landkreis"},"federalState":{"key":"08","name":"Baden-Württemberg"}},{"name":"Charlottenweg","postalCode":"75365","locality":"Calw","municipality":{"key":"08235085","name":"Calw, Stadt","type":"Große_Kreisstadt"},"district":{"key":"08235","name":"Calw","type":"Landkreis"},"federalState":{"key":"08","name":"Baden-Württemberg"}},{"name":"Christian-Barth-Str.","postalCode":"75365","locality":"Calw","municipality":{"key":"08235085","name":"Calw, Stadt","type":"Große_Kreisstadt"},"district":{"key":"08235","name":"Calw","type":"Landkreis"},"federalState":{"key":"08","name":"Baden-Württemberg"}},{"name":"Clemens-Rüdinger Weg","postalCode":"75365","locality":"Calw","municipality":{"key":"08235085","name":"Calw, Stadt","type":"Große_Kreisstadt"},"district":{"key":"08235","name":"Calw","type":"Landkreis"},"federalState":{"key":"08","name":"Baden-Württemberg"}},{"name":"Conventrain","postalCode":"75365","locality":"Calw","municipality":{"key":"08235085","name":"Calw, Stadt","type":"Große_Kreisstadt"},"district":{"key":"08235","name":"Calw","type":"Landkreis"},"federalState":{"key":"08","name":"Baden-Württemberg"}},{"name":"Dorfstr.","postalCode":"72221","locality":"Haiterbach","municipality":{"key":"08235032","name":"Haiterbach, Stadt","type":"Stadt"},"district":{"key":"08235","name":"Calw","type":"Landkreis"},"federalState":{"key":"08","name":"Baden-Württemberg"}},{"name":"Drosselweg","postalCode":"72221","locality":"Haiterbach","municipality":{"key":"08235032","name":"Haiterbach, Stadt","type":"Stadt"},"district":{"key":"08235","name":"Calw","type":"Landkreis"},"federalState":{"key":"08","name":"Baden-Württemberg"}},{"name":"Egenhauser Str.","postalCode":"72221","locality":"Haiterbach","municipality":{"key":"08235032","name":"Haiterbach, Stadt","type":"Stadt"},"district":{"key":"08235","name":"Calw","type":"Landkreis"},"federalState":{"key":"08","name":"Baden-Württemberg"}},{"name":"Eichenwaldstr.","postalCode":"72221","locality":"Haiterbach","municipality":{"key":"08235032","name":"Haiterbach, Stadt","type":"Stadt"},"district":{"key":"08235","name":"Calw","type":"Landkreis"},"federalState":{"key":"08","name":"Baden-Württemberg"}},{"name":"Eschenberg","postalCode":"72221","locality":"Haiterbach","municipality":{"key":"08235032","name":"Haiterbach, Stadt","type":"Stadt"},"district":{"key":"08235","name":"Calw","type":"Landkreis"},"federalState":{"key":"08","name":"Baden-Württemberg"}},{"name":"Finkenweg","postalCode":"72221","locality":"Haiterbach","municipality":{"key":"08235032","name":"Haiterbach, Stadt","type":"Stadt"},"district":{"key":"08235","name":"Calw","type":"Landkreis"},"federalState":{"key":"08","name":"Baden-Württemberg"}},{"name":"Forchenweg","postalCode":"72221","locality":"Haiterbach","municipality":{"key":"08235032","name":"Haiterbach, Stadt","type":"Stadt"},"district":{"key":"08235","name":"Calw","type":"Landkreis"},"federalState":{"key":"08","name":"Baden-Württemberg"}},{"name":"Freudenstädter Str.","postalCode":"72221","locality":"Haiterbach","municipality":{"key":"08235032","name":"Haiterbach, Stadt","type":"Stadt"},"district":{"key":"08235","name":"Calw","type":"Landkreis"},"federalState":{"key":"08","name":"Baden-Württemberg"}},{"name":"Friedhofweg","postalCode":"72221","locality":"Haiterbach","municipality":{"key":"08235032","name":"Haiterbach, Stadt","type":"Stadt"},"district":{"key":"08235","name":"Calw","type":"Landkreis"},"federalState":{"key":"08","name":"Baden-Württemberg"}},{"name":"Froschgasse","postalCode":"72221","locality":"Haiterbach","municipality":{"key":"08235032","name":"Haiterbach, Stadt","type":"Stadt"},"district":{"key":"08235","name":"Calw","type":"Landkreis"},"federalState":{"key":"08","name":"Baden-Württemberg"}},{"name":"Gaisberg","postalCode":"72221","locality":"Haiterbach","municipality":{"key":"08235032","name":"Haiterbach, Stadt","type":"Stadt"},"district":{"key":"08235","name":"Calw","type":"Landkreis"},"federalState":{"key":"08","name":"Baden-Württemberg"}},{"name":"Gartenstr.","postalCode":"72221","locality":"Haiterbach","municipality":{"key":"08235032","name":"Haiterbach, Stadt","type":"Stadt"},"district":{"key":"08235","name":"Calw","type":"Landkreis"},"federalState":{"key":"08","name":"Baden-Württemberg"}},{"name":"Gartenweg","postalCode":"72221","locality":"Haiterbach","municipality":{"key":"08235032","name":"Haiterbach, Stadt","type":"Stadt"},"district":{"key":"08235","name":"Calw","type":"Landkreis"},"federalState":{"key":"08","name":"Baden-Württemberg"}},{"name":"Goethestr.","postalCode":"72221","locality":"Haiterbach","municipality":{"key":"08235032","name":"Haiterbach, Stadt","type":"Stadt"},"district":{"key":"08235","name":"Calw","type":"Landkreis"},"federalState":{"key":"08","name":"Baden-Württemberg"}},{"name":"Gründelweg","postalCode":"72221","locality":"Haiterbach","municipality":{"key":"08235032","name":"Haiterbach, Stadt","type":"Stadt"},"district":{"key":"08235","name":"Calw","type":"Landkreis"},"federalState":{"key":"08","name":"Baden-Württemberg"}},{"name":"Haiterbacher Str.","postalCode":"72221","locality":"Haiterbach","municipality":{"key":"08235032","name":"Haiterbach, Stadt","type":"Stadt"},"district":{"key":"08235","name":"Calw","type":"Landkreis"},"federalState":{"key":"08","name":"Baden-Württemberg"}},{"name":"Haldenweg","postalCode":"72221","locality":"Haiterbach","municipality":{"key":"08235032","name":"Haiterbach, Stadt","type":"Stadt"},"district":{"key":"08235","name":"Calw","type":"Landkreis"},"federalState":{"key":"08","name":"Baden-Württemberg"}},{"name":"Hällesweg","postalCode":"72221","locality":"Haiterbach","municipality":{"key":"08235032","name":"Haiterbach, Stadt","type":"Stadt"},"district":{"key":"08235","name":"Calw","type":"Landkreis"},"federalState":{"key":"08","name":"Baden-Württemberg"}},{"name":"Hauffweg","postalCode":"72221","locality":"Haiterbach","municipality":{"key":"08235032","name":"Haiterbach, Stadt","type":"Stadt"},"district":{"key":"08235","name":"Calw","type":"Landkreis"},"federalState":{"key":"08","name":"Baden-Württemberg"}},{"name":"Hauptstr.","postalCode":"72221","locality":"Haiterbach","municipality":{"key":"08235032","name":"Haiterbach, Stadt","type":"Stadt"},"district":{"key":"08235","name":"Calw","type":"Landkreis"},"federalState":{"key":"08","name":"Baden-Württemberg"}},{"name":"Heckenstr.","postalCode":"72221","locality":"Haiterbach","municipality":{"key":"08235032","name":"Haiterbach, Stadt","type":"Stadt"},"district":{"key":"08235","name":"Calw","type":"Landkreis"},"federalState":{"key":"08","name":"Baden-Württemberg"}},{"name":"Hegelstr.","postalCode":"72221","locality":"Haiterbach","municipality":{"key":"08235032","name":"Haiterbach, Stadt","type":"Stadt"},"district":{"key":"08235","name":"Calw","type":"Landkreis"},"federalState":{"key":"08","name":"Baden-Württemberg"}},{"name":"Hermann-Hesse-Str.","postalCode":"72221","locality":"Haiterbach","municipality":{"key":"08235032","name":"Haiterbach, Stadt","type":"Stadt"},"district":{"key":"08235","name":"Calw","type":"Landkreis"},"federalState":{"key":"08","name":"Baden-Württemberg"}},{"name":"Hintere Gasse","postalCode":"72221","locality":"Haiterbach","municipality":{"key":"08235032","name":"Haiterbach, Stadt","type":"Stadt"},"district":{"key":"08235","name":"Calw","type":"Landkreis"},"federalState":{"key":"08","name":"Baden-Württemberg"}},{"name":"Hochweg","postalCode":"72221","locality":"Haiterbach","municipality":{"key":"08235032","name":"Haiterbach, Stadt","type":"Stadt"},"district":{"key":"08235","name":"Calw","type":"Landkreis"},"federalState":{"key":"08","name":"Baden-Württemberg"}},{"name":"Hohenrainstr.","postalCode":"72221","locality":"Haiterbach","municipality":{"key":"08235032","name":"Haiterbach, Stadt","type":"Stadt"},"district":{"key":"08235","name":"Calw","type":"Landkreis"},"federalState":{"key":"08","name":"Baden-Württemberg"}},{"name":"Hohe Str.","postalCode":"72221","locality":"Haiterbach","municipality":{"key":"08235032","name":"Haiterbach, Stadt","type":"Stadt"},"district":{"key":"08235","name":"Calw","type":"Landkreis"},"federalState":{"key":"08","name":"Baden-Württemberg"}},{"name":"Hölderlinstr.","postalCode":"72221","locality":"Haiterbach","municipality":{"key":"08235032","name":"Haiterbach, Stadt","type":"Stadt"},"district":{"key":"08235","name":"Calw","type":"Landkreis"},"federalState":{"key":"08","name":"Baden-Württemberg"}},{"name":"Horber Str.","postalCode":"72221","locality":"Haiterbach","municipality":{"key":"08235032","name":"Haiterbach, Stadt","type":"Stadt"},"district":{"key":"08235","name":"Calw","type":"Landkreis"},"federalState":{"key":"08","name":"Baden-Württemberg"}},{"name":"Hugo-Meroth-Str.","postalCode":"72221","locality":"Haiterbach","municipality":{"key":"08235032","name":"Haiterbach, Stadt","type":"Stadt"},"district":{"key":"08235","name":"Calw","type":"Landkreis"},"federalState":{"key":"08","name":"Baden-Württemberg"}},{"name":"Im Dellen","postalCode":"72221","locality":"Haiterbach","municipality":{"key":"08235032","name":"Haiterbach, Stadt","type":"Stadt"},"district":{"key":"08235","name":"Calw","type":"Landkreis"},"federalState":{"key":"08","name":"Baden-Württemberg"}},{"name":"Im Ganzenrain","postalCode":"72221","locality":"Haiterbach","municipality":{"key":"08235032","name":"Haiterbach, Stadt","type":"Stadt"},"district":{"key":"08235","name":"Calw","type":"Landkreis"},"federalState":{"key":"08","name":"Baden-Württemberg"}},{"name":"Im Gäßle","postalCode":"72221","locality":"Haiterbach","municipality":{"key":"08235032","name":"Haiterbach, Stadt","type":"Stadt"},"district":{"key":"08235","name":"Calw","type":"Landkreis"},"federalState":{"key":"08","name":"Baden-Württemberg"}},{"name":"Im Häule","postalCode":"72221","locality":"Haiterbach","municipality":{"key":"08235032","name":"Haiterbach, Stadt","type":"Stadt"},"district":{"key":"08235","name":"Calw","type":"Landkreis"},"federalState":{"key":"08","name":"Baden-Württemberg"}},{"name":"Im Lohtal","postalCode":"72221","locality":"Haiterbach","municipality":{"key":"08235032","name":"Haiterbach, Stadt","type":"Stadt"},"district":{"key":"08235","name":"Calw","type":"Landkreis"},"federalState":{"key":"08","name":"Baden-Württemberg"}},{"name":"Im Ölern","postalCode":"72221","locality":"Haiterbach","municipality":{"key":"08235032","name":"Haiterbach, Stadt","type":"Stadt"},"district":{"key":"08235","name":"Calw","type":"Landkreis"},"federalState":{"key":"08","name":"Baden-Württemberg"}},{"name":"Im Schellenbühl","postalCode":"72221","locality":"Haiterbach","municipality":{"key":"08235032","name":"Haiterbach, Stadt","type":"Stadt"},"district":{"key":"08235","name":"Calw","type":"Landkreis"},"federalState":{"key":"08","name":"Baden-Württemberg"}},{"name":"Im Tal","postalCode":"72221","locality":"Haiterbach","municipality":{"key":"08235032","name":"Haiterbach, Stadt","type":"Stadt"},"district":{"key":"08235","name":"Calw","type":"Landkreis"},"federalState":{"key":"08","name":"Baden-Württemberg"}},{"name":"In der Wanne","postalCode":"72221","locality":"Haiterbach","municipality":{"key":"08235032","name":"Haiterbach, Stadt","type":"Stadt"},"district":{"key":"08235","name":"Calw","type":"Landkreis"},"federalState":{"key":"08","name":"Baden-Württemberg"}},{"name":"Industriestr.","postalCode":"72221","locality":"Haiterbach","municipality":{"key":"08235032","name":"Haiterbach, Stadt","type":"Stadt"},"district":{"key":"08235","name":"Calw","type":"Landkreis"},"federalState":{"key":"08","name":"Baden-Württemberg"}},{"name":"Iselshauser Str.","postalCode":"72221","locality":"Haiterbach","municipality":{"key":"08235032","name":"Haiterbach, Stadt","type":"Stadt"},"district":{"key":"08235","name":"Calw","type":"Landkreis"},"federalState":{"key":"08","name":"Baden-Württemberg"}},{"name":"Johrsbergstr.","postalCode":"72221","locality":"Haiterbach","municipality":{"key":"08235032","name":"Haiterbach, Stadt","type":"Stadt"},"district":{"key":"08235","name":"Calw","type":"Landkreis"},"federalState":{"key":"08","name":"Baden-Württemberg"}},{"name":"Kapfstr.","postalCode":"72221","locality":"Haiterbach","municipality":{"key":"08235032","name":"Haiterbach, Stadt","type":"Stadt"},"district":{"key":"08235","name":"Calw","type":"Landkreis"},"federalState":{"key":"08","name":"Baden-Württemberg"}},{"name":"Karlstr.","postalCode":"72221","locality":"Haiterbach","municipality":{"key":"08235032","name":"Haiterbach, Stadt","type":"Stadt"},"district":{"key":"08235","name":"Calw","type":"Landkreis"},"federalState":{"key":"08","name":"Baden-Württemberg"}},{"name":"Killbergweg","postalCode":"72221","locality":"Haiterbach","municipality":{"key":"08235032","name":"Haiterbach, Stadt","type":"Stadt"},"district":{"key":"08235","name":"Calw","type":"Landkreis"},"federalState":{"key":"08","name":"Baden-Württemberg"}},{"name":"Kirchstr.","postalCode":"72221","locality":"Haiterbach","municipality":{"key":"08235032","name":"Haiterbach, Stadt","type":"Stadt"},"district":{"key":"08235","name":"Calw","type":"Landkreis"},"federalState":{"key":"08","name":"Baden-Württemberg"}},{"name":"Kurze Umbrüche","postalCode":"72221","locality":"Haiterbach","municipality":{"key":"08235032","name":"Haiterbach, Stadt","type":"Stadt"},"district":{"key":"08235","name":"Calw","type":"Landkreis"},"federalState":{"key":"08","name":"Baden-Württemberg"}},{"name":"Lange Umbrüche","postalCode":"72221","locality":"Haiterbach","municipality":{"key":"08235032","name":"Haiterbach, Stadt","type":"Stadt"},"district":{"key":"08235","name":"Calw","type":"Landkreis"},"federalState":{"key":"08","name":"Baden-Württemberg"}},{"name":"Lautergasse","postalCode":"72221","locality":"Haiterbach","municipality":{"key":"08235032","name":"Haiterbach, Stadt","type":"Stadt"},"district":{"key":"08235","name":"Calw","type":"Landkreis"},"federalState":{"key":"08","name":"Baden-Württemberg"}},{"name":"Leidgrund","postalCode":"72221","locality":"Haiterbach","municipality":{"key":"08235032","name":"Haiterbach, Stadt","type":"Stadt"},"district":{"key":"08235","name":"Calw","type":"Landkreis"},"federalState":{"key":"08","name":"Baden-Württemberg"}},{"name":"Lerchenweg","postalCode":"72221","locality":"Haiterbach","municipality":{"key":"08235032","name":"Haiterbach, Stadt","type":"Stadt"},"district":{"key":"08235","name":"Calw","type":"Landkreis"},"federalState":{"key":"08","name":"Baden-Württemberg"}},{"name":"Lessingstr.","postalCode":"72221","locality":"Haiterbach","municipality":{"key":"08235032","name":"Haiterbach, Stadt","type":"Stadt"},"district":{"key":"08235","name":"Calw","type":"Landkreis"},"federalState":{"key":"08","name":"Baden-Württemberg"}},{"name":"Lindenstr.","postalCode":"72221","locality":"Haiterbach","municipality":{"key":"08235032","name":"Haiterbach, Stadt","type":"Stadt"},"district":{"key":"08235","name":"Calw","type":"Landkreis"},"federalState":{"key":"08","name":"Baden-Württemberg"}},{"name":"Maierei","postalCode":"72221","locality":"Haiterbach","municipality":{"key":"08235032","name":"Haiterbach, Stadt","type":"Stadt"},"district":{"key":"08235","name":"Calw","type":"Landkreis"},"federalState":{"key":"08","name":"Baden-Württemberg"}},{"name":"Marktplatz","postalCode":"72221","locality":"Haiterbach","municipality":{"key":"08235032","name":"Haiterbach, Stadt","type":"Stadt"},"district":{"key":"08235","name":"Calw","type":"Landkreis"},"federalState":{"key":"08","name":"Baden-Württemberg"}},{"name":"Martin-Luther-Str.","postalCode":"72221","locality":"Haiterbach","municipality":{"key":"08235032","name":"Haiterbach, Stadt","type":"Stadt"},"district":{"key":"08235","name":"Calw","type":"Landkreis"},"federalState":{"key":"08","name":"Baden-Württemberg"}},{"name":"Meisenweg","postalCode":"72221","locality":"Haiterbach","municipality":{"key":"08235032","name":"Haiterbach, Stadt","type":"Stadt"},"district":{"key":"08235","name":"Calw","type":"Landkreis"},"federalState":{"key":"08","name":"Baden-Württemberg"}},{"name":"Metnitzer Str.","postalCode":"72221","locality":"Haiterbach","municipality":{"key":"08235032","name":"Haiterbach, Stadt","type":"Stadt"},"district":{"key":"08235","name":"Calw","type":"Landkreis"},"federalState":{"key":"08","name":"Baden-Württemberg"}},{"name":"Mittlere Gasse","postalCode":"72221","locality":"Haiterbach","municipality":{"key":"08235032","name":"Haiterbach, Stadt","type":"Stadt"},"district":{"key":"08235","name":"Calw","type":"Landkreis"},"federalState":{"key":"08","name":"Baden-Württemberg"}},{"name":"Mohlgasse","postalCode":"72221","locality":"Haiterbach","municipality":{"key":"08235032","name":"Haiterbach, Stadt","type":"Stadt"},"district":{"key":"08235","name":"Calw","type":"Landkreis"},"federalState":{"key":"08","name":"Baden-Württemberg"}},{"name":"Mörikestr.","postalCode":"72221","locality":"Haiterbach","municipality":{"key":"08235032","name":"Haiterbach, Stadt","type":"Stadt"},"district":{"key":"08235","name":"Calw","type":"Landkreis"},"federalState":{"key":"08","name":"Baden-Württemberg"}},{"name":"Mühlgartenstr.","postalCode":"72221","locality":"Haiterbach","municipality":{"key":"08235032","name":"Haiterbach, Stadt","type":"Stadt"},"district":{"key":"08235","name":"Calw","type":"Landkreis"},"federalState":{"key":"08","name":"Baden-Württemberg"}},{"name":"Mühlstr.","postalCode":"72221","locality":"Haiterbach","municipality":{"key":"08235032","name":"Haiterbach, Stadt","type":"Stadt"},"district":{"key":"08235","name":"Calw","type":"Landkreis"},"federalState":{"key":"08","name":"Baden-Württemberg"}},{"name":"Nagolder Str.","postalCode":"72221","locality":"Haiterbach","municipality":{"key":"08235032","name":"Haiterbach, Stadt","type":"Stadt"},"district":{"key":"08235","name":"Calw","type":"Landkreis"},"federalState":{"key":"08","name":"Baden-Württemberg"}},{"name":"Neue Steige","postalCode":"72221","locality":"Haiterbach","municipality":{"key":"08235032","name":"Haiterbach, Stadt","type":"Stadt"},"district":{"key":"08235","name":"Calw","type":"Landkreis"},"federalState":{"key":"08","name":"Baden-Württemberg"}},{"name":"Neunuifraer Str.","postalCode":"72221","locality":"Haiterbach","municipality":{"key":"08235032","name":"Haiterbach, Stadt","type":"Stadt"},"district":{"key":"08235","name":"Calw","type":"Landkreis"},"federalState":{"key":"08","name":"Baden-Württemberg"}},{"name":"Obere Gasse","postalCode":"72221","locality":"Haiterbach","municipality":{"key":"08235032","name":"Haiterbach, Stadt","type":"Stadt"},"district":{"key":"08235","name":"Calw","type":"Landkreis"},"federalState":{"key":"08","name":"Baden-Württemberg"}},{"name":"Oberer Buchweg","postalCode":"72221","locality":"Haiterbach","municipality":{"key":"08235032","name":"Haiterbach, Stadt","type":"Stadt"},"district":{"key":"08235","name":"Calw","type":"Landkreis"},"federalState":{"key":"08","name":"Baden-Württemberg"}},{"name":"Obere Reute","postalCode":"72221","locality":"Haiterbach","municipality":{"key":"08235032","name":"Haiterbach, Stadt","type":"Stadt"},"district":{"key":"08235","name":"Calw","type":"Landkreis"},"federalState":{"key":"08","name":"Baden-Württemberg"}},{"name":"Oberer Garten","postalCode":"72221","locality":"Haiterbach","municipality":{"key":"08235032","name":"Haiterbach, Stadt","type":"Stadt"},"district":{"key":"08235","name":"Calw","type":"Landkreis"},"federalState":{"key":"08","name":"Baden-Württemberg"}},{"name":"Oberer Schömberg","postalCode":"72221","locality":"Haiterbach","municipality":{"key":"08235032","name":"Haiterbach, Stadt","type":"Stadt"},"district":{"key":"08235","name":"Calw","type":"Landkreis"},"federalState":{"key":"08","name":"Baden-Württemberg"}},{"name":"Oberhofweg","postalCode":"72221","locality":"Haiterbach","municipality":{"key":"08235032","name":"Haiterbach, Stadt","type":"Stadt"},"district":{"key":"08235","name":"Calw","type":"Landkreis"},"federalState":{"key":"08","name":"Baden-Württemberg"}},{"name":"Panoramastr.","postalCode":"72221","locality":"Haiterbach","municipality":{"key":"08235032","name":"Haiterbach, Stadt","type":"Stadt"},"district":{"key":"08235","name":"Calw","type":"Landkreis"},"federalState":{"key":"08","name":"Baden-Württemberg"}},{"name":"Poststr.","postalCode":"72221","locality":"Haiterbach","municipality":{"key":"08235032","name":"Haiterbach, Stadt","type":"Stadt"},"district":{"key":"08235","name":"Calw","type":"Landkreis"},"federalState":{"key":"08","name":"Baden-Württemberg"}},{"name":"Pregizergasse","postalCode":"72221","locality":"Haiterbach","municipality":{"key":"08235032","name":"Haiterbach, Stadt","type":"Stadt"},"district":{"key":"08235","name":"Calw","type":"Landkreis"},"federalState":{"key":"08","name":"Baden-Württemberg"}},{"name":"Rathausgasse","postalCode":"72221","locality":"Haiterbach","municipality":{"key":"08235032","name":"Haiterbach, Stadt","type":"Stadt"},"district":{"key":"08235","name":"Calw","type":"Landkreis"},"federalState":{"key":"08","name":"Baden-Württemberg"}},{"name":"Rauhe Steige","postalCode":"72221","locality":"Haiterbach","municipality":{"key":"08235032","name":"Haiterbach, Stadt","type":"Stadt"},"district":{"key":"08235","name":"Calw","type":"Landkreis"},"federalState":{"key":"08","name":"Baden-Württemberg"}},{"name":"Rohrdorfer Str.","postalCode":"72221","locality":"Haiterbach","municipality":{"key":"08235032","name":"Haiterbach, Stadt","type":"Stadt"},"district":{"key":"08235","name":"Calw","type":"Landkreis"},"federalState":{"key":"08","name":"Baden-Württemberg"}},{"name":"Rosenstr.","postalCode":"72221","locality":"Haiterbach","municipality":{"key":"08235032","name":"Haiterbach, Stadt","type":"Stadt"},"district":{"key":"08235","name":"Calw","type":"Landkreis"},"federalState":{"key":"08","name":"Baden-Württemberg"}},{"name":"Rötestr.","postalCode":"72221","locality":"Haiterbach","municipality":{"key":"08235032","name":"Haiterbach, Stadt","type":"Stadt"},"district":{"key":"08235","name":"Calw","type":"Landkreis"},"federalState":{"key":"08","name":"Baden-Württemberg"}},{"name":"Salzstetter Str.","postalCode":"72221","locality":"Haiterbach","municipality":{"key":"08235032","name":"Haiterbach, Stadt","type":"Stadt"},"district":{"key":"08235","name":"Calw","type":"Landkreis"},"federalState":{"key":"08","name":"Baden-Württemberg"}},{"name":"Schafbühlweg","postalCode":"72221","locality":"Haiterbach","municipality":{"key":"08235032","name":"Haiterbach, Stadt","type":"Stadt"},"district":{"key":"08235","name":"Calw","type":"Landkreis"},"federalState":{"key":"08","name":"Baden-Württemberg"}},{"name":"Schieferweg","postalCode":"72221","locality":"Haiterbach","municipality":{"key":"08235032","name":"Haiterbach, Stadt","type":"Stadt"},"district":{"key":"08235","name":"Calw","type":"Landkreis"},"federalState":{"key":"08","name":"Baden-Württemberg"}},{"name":"Schietinger Str.","postalCode":"72221","locality":"Haiterbach","municipality":{"key":"08235032","name":"Haiterbach, Stadt","type":"Stadt"},"district":{"key":"08235","name":"Calw","type":"Landkreis"},"federalState":{"key":"08","name":"Baden-Württemberg"}},{"name":"Schilfweg","postalCode":"72221","locality":"Haiterbach","municipality":{"key":"08235032","name":"Haiterbach, Stadt","type":"Stadt"},"district":{"key":"08235","name":"Calw","type":"Landkreis"},"federalState":{"key":"08","name":"Baden-Württemberg"}},{"name":"Schillerstr.","postalCode":"72221","locality":"Haiterbach","municipality":{"key":"08235032","name":"Haiterbach, Stadt","type":"Stadt"},"district":{"key":"08235","name":"Calw","type":"Landkreis"},"federalState":{"key":"08","name":"Baden-Württemberg"}},{"name":"Schlehenweg","postalCode":"72221","locality":"Haiterbach","municipality":{"key":"08235032","name":"Haiterbach, Stadt","type":"Stadt"},"district":{"key":"08235","name":"Calw","type":"Landkreis"},"federalState":{"key":"08","name":"Baden-Württemberg"}},{"name":"Schloßstr.","postalCode":"72221","locality":"Haiterbach","municipality":{"key":"08235032","name":"Haiterbach, Stadt","type":"Stadt"},"district":{"key":"08235","name":"Calw","type":"Landkreis"},"federalState":{"key":"08","name":"Baden-Württemberg"}},{"name":"Schönblickstr.","postalCode":"72221","locality":"Haiterbach","municipality":{"key":"08235032","name":"Haiterbach, Stadt","type":"Stadt"},"district":{"key":"08235","name":"Calw","type":"Landkreis"},"federalState":{"key":"08","name":"Baden-Württemberg"}},{"name":"Schulstr.","postalCode":"72221","locality":"Haiterbach","municipality":{"key":"08235032","name":"Haiterbach, Stadt","type":"Stadt"},"district":{"key":"08235","name":"Calw","type":"Landkreis"},"federalState":{"key":"08","name":"Baden-Württemberg"}},{"name":"Schwalbenstr.","postalCode":"72221","locality":"Haiterbach","municipality":{"key":"08235032","name":"Haiterbach, Stadt","type":"Stadt"},"district":{"key":"08235","name":"Calw","type":"Landkreis"},"federalState":{"key":"08","name":"Baden-Württemberg"}},{"name":"Schwandorfer Str.","postalCode":"72221","locality":"Haiterbach","municipality":{"key":"08235032","name":"Haiterbach, Stadt","type":"Stadt"},"district":{"key":"08235","name":"Calw","type":"Landkreis"},"federalState":{"key":"08","name":"Baden-Württemberg"}},{"name":"Sommergrund","postalCode":"72221","locality":"Haiterbach","municipality":{"key":"08235032","name":"Haiterbach, Stadt","type":"Stadt"},"district":{"key":"08235","name":"Calw","type":"Landkreis"},"federalState":{"key":"08","name":"Baden-Württemberg"}},{"name":"Sommerhalde","postalCode":"72221","locality":"Haiterbach","municipality":{"key":"08235032","name":"Haiterbach, Stadt","type":"Stadt"},"district":{"key":"08235","name":"Calw","type":"Landkreis"},"federalState":{"key":"08","name":"Baden-Württemberg"}},{"name":"Städtlesberg","postalCode":"72221","locality":"Haiterbach","municipality":{"key":"08235032","name":"Haiterbach, Stadt","type":"Stadt"},"district":{"key":"08235","name":"Calw","type":"Landkreis"},"federalState":{"key":"08","name":"Baden-Württemberg"}},{"name":"Staubachweg","postalCode":"72221","locality":"Haiterbach","municipality":{"key":"08235032","name":"Haiterbach, Stadt","type":"Stadt"},"district":{"key":"08235","name":"Calw","type":"Landkreis"},"federalState":{"key":"08","name":"Baden-Württemberg"}},{"name":"Staudachstr.","postalCode":"72221","locality":"Haiterbach","municipality":{"key":"08235032","name":"Haiterbach, Stadt","type":"Stadt"},"district":{"key":"08235","name":"Calw","type":"Landkreis"},"federalState":{"key":"08","name":"Baden-Württemberg"}},{"name":"Staudachweg","postalCode":"72221","locality":"Haiterbach","municipality":{"key":"08235032","name":"Haiterbach, Stadt","type":"Stadt"},"district":{"key":"08235","name":"Calw","type":"Landkreis"},"federalState":{"key":"08","name":"Baden-Württemberg"}},{"name":"Talstr.","postalCode":"72221","locality":"Haiterbach","municipality":{"key":"08235032","name":"Haiterbach, Stadt","type":"Stadt"},"district":{"key":"08235","name":"Calw","type":"Landkreis"},"federalState":{"key":"08","name":"Baden-Württemberg"}},{"name":"Uferstr.","postalCode":"72221","locality":"Haiterbach","municipality":{"key":"08235032","name":"Haiterbach, Stadt","type":"Stadt"},"district":{"key":"08235","name":"Calw","type":"Landkreis"},"federalState":{"key":"08","name":"Baden-Württemberg"}},{"name":"Uhlandstr.","postalCode":"72221","locality":"Haiterbach","municipality":{"key":"08235032","name":"Haiterbach, Stadt","type":"Stadt"},"district":{"key":"08235","name":"Calw","type":"Landkreis"},"federalState":{"key":"08","name":"Baden-Württemberg"}},{"name":"Untere Gasse","postalCode":"72221","locality":"Haiterbach","municipality":{"key":"08235032","name":"Haiterbach, Stadt","type":"Stadt"},"district":{"key":"08235","name":"Calw","type":"Landkreis"},"federalState":{"key":"08","name":"Baden-Württemberg"}},{"name":"Unterer Buchweg","postalCode":"72221","locality":"Haiterbach","municipality":{"key":"08235032","name":"Haiterbach, Stadt","type":"Stadt"},"district":{"key":"08235","name":"Calw","type":"Landkreis"},"federalState":{"key":"08","name":"Baden-Württemberg"}},{"name":"Untere Reute","postalCode":"72221","locality":"Haiterbach","municipality":{"key":"08235032","name":"Haiterbach, Stadt","type":"Stadt"},"district":{"key":"08235","name":"Calw","type":"Landkreis"},"federalState":{"key":"08","name":"Baden-Württemberg"}},{"name":"Unterer Schömberg","postalCode":"72221","locality":"Haiterbach","municipality":{"key":"08235032","name":"Haiterbach, Stadt","type":"Stadt"},"district":{"key":"08235","name":"Calw","type":"Landkreis"},"federalState":{"key":"08","name":"Baden-Württemberg"}},{"name":"Untere Talaue","postalCode":"72221","locality":"Haiterbach","municipality":{"key":"08235032","name":"Haiterbach, Stadt","type":"Stadt"},"district":{"key":"08235","name":"Calw","type":"Landkreis"},"federalState":{"key":"08","name":"Baden-Württemberg"}},{"name":"Urselstr.","postalCode":"72221","locality":"Haiterbach","municipality":{"key":"08235032","name":"Haiterbach, Stadt","type":"Stadt"},"district":{"key":"08235","name":"Calw","type":"Landkreis"},"federalState":{"key":"08","name":"Baden-Württemberg"}},{"name":"Vogelsang","postalCode":"72221","locality":"Haiterbach","municipality":{"key":"08235032","name":"Haiterbach, Stadt","type":"Stadt"},"district":{"key":"08235","name":"Calw","type":"Landkreis"},"federalState":{"key":"08","name":"Baden-Württemberg"}},{"name":"Waldachstr.","postalCode":"72221","locality":"Haiterbach","municipality":{"key":"08235032","name":"Haiterbach, Stadt","type":"Stadt"},"district":{"key":"08235","name":"Calw","type":"Landkreis"},"federalState":{"key":"08","name":"Baden-Württemberg"}},{"name":"Walddorfer Str.","postalCode":"72221","locality":"Haiterbach","municipality":{"key":"08235032","name":"Haiterbach, Stadt","type":"Stadt"},"district":{"key":"08235","name":"Calw","type":"Landkreis"},"federalState":{"key":"08","name":"Baden-Württemberg"}},{"name":"Waldweg","postalCode":"72221","locality":"Haiterbach","municipality":{"key":"08235032","name":"Haiterbach, Stadt","type":"Stadt"},"district":{"key":"08235","name":"Calw","type":"Landkreis"},"federalState":{"key":"08","name":"Baden-Württemberg"}},{"name":"Wehrstr.","postalCode":"72221","locality":"Haiterbach","municipality":{"key":"08235032","name":"Haiterbach, Stadt","type":"Stadt"},"district":{"key":"08235","name":"Calw","type":"Landkreis"},"federalState":{"key":"08","name":"Baden-Württemberg"}},{"name":"Weinhalde","postalCode":"72221","locality":"Haiterbach","municipality":{"key":"08235032","name":"Haiterbach, Stadt","type":"Stadt"},"district":{"key":"08235","name":"Calw","type":"Landkreis"},"federalState":{"key":"08","name":"Baden-Württemberg"}},{"name":"Wiesenstr.","postalCode":"72221","locality":"Haiterbach","municipality":{"key":"08235032","name":"Haiterbach, Stadt","type":"Stadt"},"district":{"key":"08235","name":"Calw","type":"Landkreis"},"federalState":{"key":"08","name":"Baden-Württemberg"}},{"name":"Ziegeläcker","postalCode":"72221","locality":"Haiterbach","municipality":{"key":"08235032","name":"Haiterbach, Stadt","type":"Stadt"},"district":{"key":"08235","name":"Calw","type":"Landkreis"},"federalState":{"key":"08","name":"Baden-Württemberg"}},{"name":"Ölern","postalCode":"72221","locality":"Haiterbach","municipality":{"key":"08235032","name":"Haiterbach, Stadt","type":"Stadt"},"district":{"key":"08235","name":"Calw","type":"Landkreis"},"federalState":{"key":"08","name":"Baden-Württemberg"}},]