[{"name":"Alter Bahndamm","postalCode":"49448","locality":"Lemförde","municipality":{"key":"03251023","name":"Lemförde, Flecken","type":"Kreisangehörige_Gemeinde"},"district":{"key":"03251","name":"Diepholz","type":"Landkreis"},"federalState":{"key":"03","name":"Niedersachsen"}},{"name":"Alter Garten","postalCode":"49448","locality":"Lemförde","municipality":{"key":"03251023","name":"Lemförde, Flecken","type":"Kreisangehörige_Gemeinde"},"district":{"key":"03251","name":"Diepholz","type":"Landkreis"},"federalState":{"key":"03","name":"Niedersachsen"}},{"name":"Am Burggraben","postalCode":"49448","locality":"Lemförde","municipality":{"key":"03251023","name":"Lemförde, Flecken","type":"Kreisangehörige_Gemeinde"},"district":{"key":"03251","name":"Diepholz","type":"Landkreis"},"federalState":{"key":"03","name":"Niedersachsen"}},{"name":"Am Kleinen Moor","postalCode":"49448","locality":"Lemförde","municipality":{"key":"03251023","name":"Lemförde, Flecken","type":"Kreisangehörige_Gemeinde"},"district":{"key":"03251","name":"Diepholz","type":"Landkreis"},"federalState":{"key":"03","name":"Niedersachsen"}},{"name":"Amselweg","postalCode":"49448","locality":"Lemförde","municipality":{"key":"03251023","name":"Lemförde, Flecken","type":"Kreisangehörige_Gemeinde"},"district":{"key":"03251","name":"Diepholz","type":"Landkreis"},"federalState":{"key":"03","name":"Niedersachsen"}},{"name":"Am Unland","postalCode":"49448","locality":"Lemförde","municipality":{"key":"03251023","name":"Lemförde, Flecken","type":"Kreisangehörige_Gemeinde"},"district":{"key":"03251","name":"Diepholz","type":"Landkreis"},"federalState":{"key":"03","name":"Niedersachsen"}},{"name":"An der Bahn","postalCode":"49448","locality":"Lemförde","municipality":{"key":"03251023","name":"Lemförde, Flecken","type":"Kreisangehörige_Gemeinde"},"district":{"key":"03251","name":"Diepholz","type":"Landkreis"},"federalState":{"key":"03","name":"Niedersachsen"}},{"name":"Auf den Bülten","postalCode":"49448","locality":"Lemförde","municipality":{"key":"03251023","name":"Lemförde, Flecken","type":"Kreisangehörige_Gemeinde"},"district":{"key":"03251","name":"Diepholz","type":"Landkreis"},"federalState":{"key":"03","name":"Niedersachsen"}},{"name":"August-Blotenberg-Str.","postalCode":"49448","locality":"Lemförde","municipality":{"key":"03251023","name":"Lemförde, Flecken","type":"Kreisangehörige_Gemeinde"},"district":{"key":"03251","name":"Diepholz","type":"Landkreis"},"federalState":{"key":"03","name":"Niedersachsen"}},{"name":"Aulbertstr.","postalCode":"49448","locality":"Lemförde","municipality":{"key":"03251023","name":"Lemförde, Flecken","type":"Kreisangehörige_Gemeinde"},"district":{"key":"03251","name":"Diepholz","type":"Landkreis"},"federalState":{"key":"03","name":"Niedersachsen"}},{"name":"Bahnhofstr.","postalCode":"49448","locality":"Lemförde","municipality":{"key":"03251023","name":"Lemförde, Flecken","type":"Kreisangehörige_Gemeinde"},"district":{"key":"03251","name":"Diepholz","type":"Landkreis"},"federalState":{"key":"03","name":"Niedersachsen"}},{"name":"Bardeleben","postalCode":"49448","locality":"Lemförde","municipality":{"key":"03251023","name":"Lemförde, Flecken","type":"Kreisangehörige_Gemeinde"},"district":{"key":"03251","name":"Diepholz","type":"Landkreis"},"federalState":{"key":"03","name":"Niedersachsen"}},{"name":"Blumenstr.","postalCode":"49448","locality":"Lemförde","municipality":{"key":"03251023","name":"Lemförde, Flecken","type":"Kreisangehörige_Gemeinde"},"district":{"key":"03251","name":"Diepholz","type":"Landkreis"},"federalState":{"key":"03","name":"Niedersachsen"}},{"name":"Bödeckers Weg","postalCode":"49448","locality":"Lemförde","municipality":{"key":"03251023","name":"Lemförde, Flecken","type":"Kreisangehörige_Gemeinde"},"district":{"key":"03251","name":"Diepholz","type":"Landkreis"},"federalState":{"key":"03","name":"Niedersachsen"}},{"name":"Bollweg","postalCode":"49448","locality":"Lemförde","municipality":{"key":"03251023","name":"Lemförde, Flecken","type":"Kreisangehörige_Gemeinde"},"district":{"key":"03251","name":"Diepholz","type":"Landkreis"},"federalState":{"key":"03","name":"Niedersachsen"}},{"name":"Bürgerwiesen","postalCode":"49448","locality":"Lemförde","municipality":{"key":"03251023","name":"Lemförde, Flecken","type":"Kreisangehörige_Gemeinde"},"district":{"key":"03251","name":"Diepholz","type":"Landkreis"},"federalState":{"key":"03","name":"Niedersachsen"}},{"name":"Burggasse","postalCode":"49448","locality":"Lemförde","municipality":{"key":"03251023","name":"Lemförde, Flecken","type":"Kreisangehörige_Gemeinde"},"district":{"key":"03251","name":"Diepholz","type":"Landkreis"},"federalState":{"key":"03","name":"Niedersachsen"}},{"name":"Burgstr.","postalCode":"49448","locality":"Lemförde","municipality":{"key":"03251023","name":"Lemförde, Flecken","type":"Kreisangehörige_Gemeinde"},"district":{"key":"03251","name":"Diepholz","type":"Landkreis"},"federalState":{"key":"03","name":"Niedersachsen"}},{"name":"Carl-Storck-Weg","postalCode":"49448","locality":"Lemförde","municipality":{"key":"03251023","name":"Lemförde, Flecken","type":"Kreisangehörige_Gemeinde"},"district":{"key":"03251","name":"Diepholz","type":"Landkreis"},"federalState":{"key":"03","name":"Niedersachsen"}},{"name":"Danziger Str.","postalCode":"49448","locality":"Lemförde","municipality":{"key":"03251023","name":"Lemförde, Flecken","type":"Kreisangehörige_Gemeinde"},"district":{"key":"03251","name":"Diepholz","type":"Landkreis"},"federalState":{"key":"03","name":"Niedersachsen"}},{"name":"Doktorstr.","postalCode":"49448","locality":"Lemförde","municipality":{"key":"03251023","name":"Lemförde, Flecken","type":"Kreisangehörige_Gemeinde"},"district":{"key":"03251","name":"Diepholz","type":"Landkreis"},"federalState":{"key":"03","name":"Niedersachsen"}},{"name":"Dr.-Jürgen-Ulderup-Str.","postalCode":"49448","locality":"Lemförde","municipality":{"key":"03251023","name":"Lemförde, Flecken","type":"Kreisangehörige_Gemeinde"},"district":{"key":"03251","name":"Diepholz","type":"Landkreis"},"federalState":{"key":"03","name":"Niedersachsen"}},{"name":"Drosselweg","postalCode":"49448","locality":"Lemförde","municipality":{"key":"03251023","name":"Lemförde, Flecken","type":"Kreisangehörige_Gemeinde"},"district":{"key":"03251","name":"Diepholz","type":"Landkreis"},"federalState":{"key":"03","name":"Niedersachsen"}},{"name":"Elastogranstr.","postalCode":"49448","locality":"Lemförde","municipality":{"key":"03251023","name":"Lemförde, Flecken","type":"Kreisangehörige_Gemeinde"},"district":{"key":"03251","name":"Diepholz","type":"Landkreis"},"federalState":{"key":"03","name":"Niedersachsen"}},{"name":"Erlenweg","postalCode":"49448","locality":"Lemförde","municipality":{"key":"03251023","name":"Lemförde, Flecken","type":"Kreisangehörige_Gemeinde"},"district":{"key":"03251","name":"Diepholz","type":"Landkreis"},"federalState":{"key":"03","name":"Niedersachsen"}},{"name":"Ernst-August-Str.","postalCode":"49448","locality":"Lemförde","municipality":{"key":"03251023","name":"Lemförde, Flecken","type":"Kreisangehörige_Gemeinde"},"district":{"key":"03251","name":"Diepholz","type":"Landkreis"},"federalState":{"key":"03","name":"Niedersachsen"}},{"name":"Eselstr.","postalCode":"49448","locality":"Lemförde","municipality":{"key":"03251023","name":"Lemförde, Flecken","type":"Kreisangehörige_Gemeinde"},"district":{"key":"03251","name":"Diepholz","type":"Landkreis"},"federalState":{"key":"03","name":"Niedersachsen"}},{"name":"Espohlstr.","postalCode":"49448","locality":"Lemförde","municipality":{"key":"03251023","name":"Lemförde, Flecken","type":"Kreisangehörige_Gemeinde"},"district":{"key":"03251","name":"Diepholz","type":"Landkreis"},"federalState":{"key":"03","name":"Niedersachsen"}},{"name":"Fuchspass","postalCode":"49448","locality":"Lemförde","municipality":{"key":"03251023","name":"Lemförde, Flecken","type":"Kreisangehörige_Gemeinde"},"district":{"key":"03251","name":"Diepholz","type":"Landkreis"},"federalState":{"key":"03","name":"Niedersachsen"}},{"name":"Fuhrmanngasse","postalCode":"49448","locality":"Lemförde","municipality":{"key":"03251023","name":"Lemförde, Flecken","type":"Kreisangehörige_Gemeinde"},"district":{"key":"03251","name":"Diepholz","type":"Landkreis"},"federalState":{"key":"03","name":"Niedersachsen"}},{"name":"Gartenstr.","postalCode":"49448","locality":"Lemförde","municipality":{"key":"03251023","name":"Lemförde, Flecken","type":"Kreisangehörige_Gemeinde"},"district":{"key":"03251","name":"Diepholz","type":"Landkreis"},"federalState":{"key":"03","name":"Niedersachsen"}},{"name":"Grüner Weg","postalCode":"49448","locality":"Lemförde","municipality":{"key":"03251023","name":"Lemförde, Flecken","type":"Kreisangehörige_Gemeinde"},"district":{"key":"03251","name":"Diepholz","type":"Landkreis"},"federalState":{"key":"03","name":"Niedersachsen"}},{"name":"Hasenpad","postalCode":"49448","locality":"Lemförde","municipality":{"key":"03251023","name":"Lemförde, Flecken","type":"Kreisangehörige_Gemeinde"},"district":{"key":"03251","name":"Diepholz","type":"Landkreis"},"federalState":{"key":"03","name":"Niedersachsen"}},{"name":"Hauptstr.","postalCode":"49448","locality":"Lemförde","municipality":{"key":"03251023","name":"Lemförde, Flecken","type":"Kreisangehörige_Gemeinde"},"district":{"key":"03251","name":"Diepholz","type":"Landkreis"},"federalState":{"key":"03","name":"Niedersachsen"}},{"name":"Haydnstr.","postalCode":"49448","locality":"Lemförde","municipality":{"key":"03251023","name":"Lemförde, Flecken","type":"Kreisangehörige_Gemeinde"},"district":{"key":"03251","name":"Diepholz","type":"Landkreis"},"federalState":{"key":"03","name":"Niedersachsen"}},{"name":"Hedemannweg","postalCode":"49448","locality":"Lemförde","municipality":{"key":"03251023","name":"Lemförde, Flecken","type":"Kreisangehörige_Gemeinde"},"district":{"key":"03251","name":"Diepholz","type":"Landkreis"},"federalState":{"key":"03","name":"Niedersachsen"}},{"name":"Hinter dem Espohl","postalCode":"49448","locality":"Lemförde","municipality":{"key":"03251023","name":"Lemförde, Flecken","type":"Kreisangehörige_Gemeinde"},"district":{"key":"03251","name":"Diepholz","type":"Landkreis"},"federalState":{"key":"03","name":"Niedersachsen"}},{"name":"Hinter der Geflügelfarm","postalCode":"49448","locality":"Lemförde","municipality":{"key":"03251023","name":"Lemförde, Flecken","type":"Kreisangehörige_Gemeinde"},"district":{"key":"03251","name":"Diepholz","type":"Landkreis"},"federalState":{"key":"03","name":"Niedersachsen"}},{"name":"Holmerdieck","postalCode":"49448","locality":"Lemförde","municipality":{"key":"03251023","name":"Lemförde, Flecken","type":"Kreisangehörige_Gemeinde"},"district":{"key":"03251","name":"Diepholz","type":"Landkreis"},"federalState":{"key":"03","name":"Niedersachsen"}},{"name":"Hoppensack","postalCode":"49448","locality":"Lemförde","municipality":{"key":"03251023","name":"Lemförde, Flecken","type":"Kreisangehörige_Gemeinde"},"district":{"key":"03251","name":"Diepholz","type":"Landkreis"},"federalState":{"key":"03","name":"Niedersachsen"}},{"name":"Horstmannring","postalCode":"49448","locality":"Lemförde","municipality":{"key":"03251023","name":"Lemförde, Flecken","type":"Kreisangehörige_Gemeinde"},"district":{"key":"03251","name":"Diepholz","type":"Landkreis"},"federalState":{"key":"03","name":"Niedersachsen"}},{"name":"Hubertusstr.","postalCode":"49448","locality":"Lemförde","municipality":{"key":"03251023","name":"Lemförde, Flecken","type":"Kreisangehörige_Gemeinde"},"district":{"key":"03251","name":"Diepholz","type":"Landkreis"},"federalState":{"key":"03","name":"Niedersachsen"}},{"name":"Im Röhren","postalCode":"49448","locality":"Lemförde","municipality":{"key":"03251023","name":"Lemförde, Flecken","type":"Kreisangehörige_Gemeinde"},"district":{"key":"03251","name":"Diepholz","type":"Landkreis"},"federalState":{"key":"03","name":"Niedersachsen"}},{"name":"In den Fladderteilen","postalCode":"49448","locality":"Lemförde","municipality":{"key":"03251023","name":"Lemförde, Flecken","type":"Kreisangehörige_Gemeinde"},"district":{"key":"03251","name":"Diepholz","type":"Landkreis"},"federalState":{"key":"03","name":"Niedersachsen"}},{"name":"Junkernweg","postalCode":"49448","locality":"Lemförde","municipality":{"key":"03251023","name":"Lemförde, Flecken","type":"Kreisangehörige_Gemeinde"},"district":{"key":"03251","name":"Diepholz","type":"Landkreis"},"federalState":{"key":"03","name":"Niedersachsen"}},{"name":"Kleines Moor","postalCode":"49448","locality":"Lemförde","municipality":{"key":"03251023","name":"Lemförde, Flecken","type":"Kreisangehörige_Gemeinde"},"district":{"key":"03251","name":"Diepholz","type":"Landkreis"},"federalState":{"key":"03","name":"Niedersachsen"}},{"name":"Knickweg","postalCode":"49448","locality":"Lemförde","municipality":{"key":"03251023","name":"Lemförde, Flecken","type":"Kreisangehörige_Gemeinde"},"district":{"key":"03251","name":"Diepholz","type":"Landkreis"},"federalState":{"key":"03","name":"Niedersachsen"}},{"name":"Kochstr.","postalCode":"49448","locality":"Lemförde","municipality":{"key":"03251023","name":"Lemförde, Flecken","type":"Kreisangehörige_Gemeinde"},"district":{"key":"03251","name":"Diepholz","type":"Landkreis"},"federalState":{"key":"03","name":"Niedersachsen"}},{"name":"Kurze Str.","postalCode":"49448","locality":"Lemförde","municipality":{"key":"03251023","name":"Lemförde, Flecken","type":"Kreisangehörige_Gemeinde"},"district":{"key":"03251","name":"Diepholz","type":"Landkreis"},"federalState":{"key":"03","name":"Niedersachsen"}},{"name":"Landriede","postalCode":"49448","locality":"Lemförde","municipality":{"key":"03251023","name":"Lemförde, Flecken","type":"Kreisangehörige_Gemeinde"},"district":{"key":"03251","name":"Diepholz","type":"Landkreis"},"federalState":{"key":"03","name":"Niedersachsen"}},{"name":"Ledeburweg","postalCode":"49448","locality":"Lemförde","municipality":{"key":"03251023","name":"Lemförde, Flecken","type":"Kreisangehörige_Gemeinde"},"district":{"key":"03251","name":"Diepholz","type":"Landkreis"},"federalState":{"key":"03","name":"Niedersachsen"}},{"name":"Lerchenweg","postalCode":"49448","locality":"Lemförde","municipality":{"key":"03251023","name":"Lemförde, Flecken","type":"Kreisangehörige_Gemeinde"},"district":{"key":"03251","name":"Diepholz","type":"Landkreis"},"federalState":{"key":"03","name":"Niedersachsen"}},{"name":"Lohgerberei","postalCode":"49448","locality":"Lemförde","municipality":{"key":"03251023","name":"Lemförde, Flecken","type":"Kreisangehörige_Gemeinde"},"district":{"key":"03251","name":"Diepholz","type":"Landkreis"},"federalState":{"key":"03","name":"Niedersachsen"}},{"name":"Mastenweg","postalCode":"49448","locality":"Lemförde","municipality":{"key":"03251023","name":"Lemförde, Flecken","type":"Kreisangehörige_Gemeinde"},"district":{"key":"03251","name":"Diepholz","type":"Landkreis"},"federalState":{"key":"03","name":"Niedersachsen"}},{"name":"Memelweg","postalCode":"49448","locality":"Lemförde","municipality":{"key":"03251023","name":"Lemförde, Flecken","type":"Kreisangehörige_Gemeinde"},"district":{"key":"03251","name":"Diepholz","type":"Landkreis"},"federalState":{"key":"03","name":"Niedersachsen"}},{"name":"Moldestr.","postalCode":"49448","locality":"Lemförde","municipality":{"key":"03251023","name":"Lemförde, Flecken","type":"Kreisangehörige_Gemeinde"},"district":{"key":"03251","name":"Diepholz","type":"Landkreis"},"federalState":{"key":"03","name":"Niedersachsen"}},{"name":"Mozartstr.","postalCode":"49448","locality":"Lemförde","municipality":{"key":"03251023","name":"Lemförde, Flecken","type":"Kreisangehörige_Gemeinde"},"district":{"key":"03251","name":"Diepholz","type":"Landkreis"},"federalState":{"key":"03","name":"Niedersachsen"}},{"name":"Mühlenweg","postalCode":"49448","locality":"Lemförde","municipality":{"key":"03251023","name":"Lemförde, Flecken","type":"Kreisangehörige_Gemeinde"},"district":{"key":"03251","name":"Diepholz","type":"Landkreis"},"federalState":{"key":"03","name":"Niedersachsen"}},{"name":"Neißeweg","postalCode":"49448","locality":"Lemförde","municipality":{"key":"03251023","name":"Lemförde, Flecken","type":"Kreisangehörige_Gemeinde"},"district":{"key":"03251","name":"Diepholz","type":"Landkreis"},"federalState":{"key":"03","name":"Niedersachsen"}},{"name":"Obere Bergstr.","postalCode":"49448","locality":"Lemförde","municipality":{"key":"03251023","name":"Lemförde, Flecken","type":"Kreisangehörige_Gemeinde"},"district":{"key":"03251","name":"Diepholz","type":"Landkreis"},"federalState":{"key":"03","name":"Niedersachsen"}},{"name":"Oderweg","postalCode":"49448","locality":"Lemförde","municipality":{"key":"03251023","name":"Lemförde, Flecken","type":"Kreisangehörige_Gemeinde"},"district":{"key":"03251","name":"Diepholz","type":"Landkreis"},"federalState":{"key":"03","name":"Niedersachsen"}},{"name":"Osnabrücker Str.","postalCode":"49448","locality":"Lemförde","municipality":{"key":"03251023","name":"Lemförde, Flecken","type":"Kreisangehörige_Gemeinde"},"district":{"key":"03251","name":"Diepholz","type":"Landkreis"},"federalState":{"key":"03","name":"Niedersachsen"}},{"name":"Ostpreußenstr.","postalCode":"49448","locality":"Lemförde","municipality":{"key":"03251023","name":"Lemförde, Flecken","type":"Kreisangehörige_Gemeinde"},"district":{"key":"03251","name":"Diepholz","type":"Landkreis"},"federalState":{"key":"03","name":"Niedersachsen"}},{"name":"Parkweg","postalCode":"49448","locality":"Lemförde","municipality":{"key":"03251023","name":"Lemförde, Flecken","type":"Kreisangehörige_Gemeinde"},"district":{"key":"03251","name":"Diepholz","type":"Landkreis"},"federalState":{"key":"03","name":"Niedersachsen"}},{"name":"Pastorenstr.","postalCode":"49448","locality":"Lemförde","municipality":{"key":"03251023","name":"Lemförde, Flecken","type":"Kreisangehörige_Gemeinde"},"district":{"key":"03251","name":"Diepholz","type":"Landkreis"},"federalState":{"key":"03","name":"Niedersachsen"}},{"name":"Plackenbruchweg","postalCode":"49448","locality":"Lemförde","municipality":{"key":"03251023","name":"Lemförde, Flecken","type":"Kreisangehörige_Gemeinde"},"district":{"key":"03251","name":"Diepholz","type":"Landkreis"},"federalState":{"key":"03","name":"Niedersachsen"}},{"name":"Pommernstr.","postalCode":"49448","locality":"Lemförde","municipality":{"key":"03251023","name":"Lemförde, Flecken","type":"Kreisangehörige_Gemeinde"},"district":{"key":"03251","name":"Diepholz","type":"Landkreis"},"federalState":{"key":"03","name":"Niedersachsen"}},{"name":"Poststr.","postalCode":"49448","locality":"Lemförde","municipality":{"key":"03251023","name":"Lemförde, Flecken","type":"Kreisangehörige_Gemeinde"},"district":{"key":"03251","name":"Diepholz","type":"Landkreis"},"federalState":{"key":"03","name":"Niedersachsen"}},{"name":"Quelleweg","postalCode":"49356","locality":"Diepholz","municipality":{"key":"03251012","name":"Diepholz, Stadt","type":"Stadt"},"district":{"key":"03251","name":"Diepholz","type":"Landkreis"},"federalState":{"key":"03","name":"Niedersachsen"}},{"name":"Rabbenweg","postalCode":"49356","locality":"Diepholz","municipality":{"key":"03251012","name":"Diepholz, Stadt","type":"Stadt"},"district":{"key":"03251","name":"Diepholz","type":"Landkreis"},"federalState":{"key":"03","name":"Niedersachsen"}},{"name":"Räbers Weg","postalCode":"49356","locality":"Diepholz","municipality":{"key":"03251012","name":"Diepholz, Stadt","type":"Stadt"},"district":{"key":"03251","name":"Diepholz","type":"Landkreis"},"federalState":{"key":"03","name":"Niedersachsen"}},{"name":"Reessingstr.","postalCode":"49356","locality":"Diepholz","municipality":{"key":"03251012","name":"Diepholz, Stadt","type":"Stadt"},"district":{"key":"03251","name":"Diepholz","type":"Landkreis"},"federalState":{"key":"03","name":"Niedersachsen"}},{"name":"Regerweg","postalCode":"49356","locality":"Diepholz","municipality":{"key":"03251012","name":"Diepholz, Stadt","type":"Stadt"},"district":{"key":"03251","name":"Diepholz","type":"Landkreis"},"federalState":{"key":"03","name":"Niedersachsen"}},{"name":"Richthofenstr.","postalCode":"49356","locality":"Diepholz","municipality":{"key":"03251012","name":"Diepholz, Stadt","type":"Stadt"},"district":{"key":"03251","name":"Diepholz","type":"Landkreis"},"federalState":{"key":"03","name":"Niedersachsen"}},{"name":"Richtweg","postalCode":"49356","locality":"Diepholz","municipality":{"key":"03251012","name":"Diepholz, Stadt","type":"Stadt"},"district":{"key":"03251","name":"Diepholz","type":"Landkreis"},"federalState":{"key":"03","name":"Niedersachsen"}},{"name":"Robergstr.","postalCode":"49356","locality":"Diepholz","municipality":{"key":"03251012","name":"Diepholz, Stadt","type":"Stadt"},"district":{"key":"03251","name":"Diepholz","type":"Landkreis"},"federalState":{"key":"03","name":"Niedersachsen"}},{"name":"Rofladderweg","postalCode":"49356","locality":"Diepholz","municipality":{"key":"03251012","name":"Diepholz, Stadt","type":"Stadt"},"district":{"key":"03251","name":"Diepholz","type":"Landkreis"},"federalState":{"key":"03","name":"Niedersachsen"}},{"name":"Römlingstr.","postalCode":"49356","locality":"Diepholz","municipality":{"key":"03251012","name":"Diepholz, Stadt","type":"Stadt"},"district":{"key":"03251","name":"Diepholz","type":"Landkreis"},"federalState":{"key":"03","name":"Niedersachsen"}},{"name":"Rudolfstr.","postalCode":"49356","locality":"Diepholz","municipality":{"key":"03251012","name":"Diepholz, Stadt","type":"Stadt"},"district":{"key":"03251","name":"Diepholz","type":"Landkreis"},"federalState":{"key":"03","name":"Niedersachsen"}},{"name":"Runder Garten","postalCode":"49356","locality":"Diepholz","municipality":{"key":"03251012","name":"Diepholz, Stadt","type":"Stadt"},"district":{"key":"03251","name":"Diepholz","type":"Landkreis"},"federalState":{"key":"03","name":"Niedersachsen"}},{"name":"Schildstr.","postalCode":"49448","locality":"Lemförde","municipality":{"key":"03251023","name":"Lemförde, Flecken","type":"Kreisangehörige_Gemeinde"},"district":{"key":"03251","name":"Diepholz","type":"Landkreis"},"federalState":{"key":"03","name":"Niedersachsen"}},{"name":"Schlesische Str.","postalCode":"49448","locality":"Lemförde","municipality":{"key":"03251023","name":"Lemförde, Flecken","type":"Kreisangehörige_Gemeinde"},"district":{"key":"03251","name":"Diepholz","type":"Landkreis"},"federalState":{"key":"03","name":"Niedersachsen"}},{"name":"Schubertstr.","postalCode":"49448","locality":"Lemförde","municipality":{"key":"03251023","name":"Lemförde, Flecken","type":"Kreisangehörige_Gemeinde"},"district":{"key":"03251","name":"Diepholz","type":"Landkreis"},"federalState":{"key":"03","name":"Niedersachsen"}},{"name":"Stettiner Str.","postalCode":"49448","locality":"Lemförde","municipality":{"key":"03251023","name":"Lemförde, Flecken","type":"Kreisangehörige_Gemeinde"},"district":{"key":"03251","name":"Diepholz","type":"Landkreis"},"federalState":{"key":"03","name":"Niedersachsen"}},{"name":"Stöltingstr.","postalCode":"49448","locality":"Lemförde","municipality":{"key":"03251023","name":"Lemförde, Flecken","type":"Kreisangehörige_Gemeinde"},"district":{"key":"03251","name":"Diepholz","type":"Landkreis"},"federalState":{"key":"03","name":"Niedersachsen"}},{"name":"Strubering","postalCode":"49448","locality":"Lemförde","municipality":{"key":"03251023","name":"Lemförde, Flecken","type":"Kreisangehörige_Gemeinde"},"district":{"key":"03251","name":"Diepholz","type":"Landkreis"},"federalState":{"key":"03","name":"Niedersachsen"}},{"name":"Tuchmachergasse","postalCode":"49448","locality":"Lemförde","municipality":{"key":"03251023","name":"Lemförde, Flecken","type":"Kreisangehörige_Gemeinde"},"district":{"key":"03251","name":"Diepholz","type":"Landkreis"},"federalState":{"key":"03","name":"Niedersachsen"}},{"name":"Unter der Lönewand","postalCode":"49448","locality":"Lemförde","municipality":{"key":"03251023","name":"Lemförde, Flecken","type":"Kreisangehörige_Gemeinde"},"district":{"key":"03251","name":"Diepholz","type":"Landkreis"},"federalState":{"key":"03","name":"Niedersachsen"}},{"name":"Unter der Sandkuhle","postalCode":"49448","locality":"Lemförde","municipality":{"key":"03251023","name":"Lemförde, Flecken","type":"Kreisangehörige_Gemeinde"},"district":{"key":"03251","name":"Diepholz","type":"Landkreis"},"federalState":{"key":"03","name":"Niedersachsen"}},{"name":"Untere Bergstr.","postalCode":"49448","locality":"Lemförde","municipality":{"key":"03251023","name":"Lemförde, Flecken","type":"Kreisangehörige_Gemeinde"},"district":{"key":"03251","name":"Diepholz","type":"Landkreis"},"federalState":{"key":"03","name":"Niedersachsen"}},{"name":"Unterm Allhorn","postalCode":"49448","locality":"Lemförde","municipality":{"key":"03251023","name":"Lemförde, Flecken","type":"Kreisangehörige_Gemeinde"},"district":{"key":"03251","name":"Diepholz","type":"Landkreis"},"federalState":{"key":"03","name":"Niedersachsen"}},{"name":"Unterm Rauhen Berge","postalCode":"49448","locality":"Lemförde","municipality":{"key":"03251023","name":"Lemförde, Flecken","type":"Kreisangehörige_Gemeinde"},"district":{"key":"03251","name":"Diepholz","type":"Landkreis"},"federalState":{"key":"03","name":"Niedersachsen"}},{"name":"Vandsburger Weg","postalCode":"49448","locality":"Lemförde","municipality":{"key":"03251023","name":"Lemförde, Flecken","type":"Kreisangehörige_Gemeinde"},"district":{"key":"03251","name":"Diepholz","type":"Landkreis"},"federalState":{"key":"03","name":"Niedersachsen"}},{"name":"Vossweg","postalCode":"49448","locality":"Lemförde","municipality":{"key":"03251023","name":"Lemförde, Flecken","type":"Kreisangehörige_Gemeinde"},"district":{"key":"03251","name":"Diepholz","type":"Landkreis"},"federalState":{"key":"03","name":"Niedersachsen"}},{"name":"Wagnerstr.","postalCode":"49448","locality":"Lemförde","municipality":{"key":"03251023","name":"Lemförde, Flecken","type":"Kreisangehörige_Gemeinde"},"district":{"key":"03251","name":"Diepholz","type":"Landkreis"},"federalState":{"key":"03","name":"Niedersachsen"}},{"name":"Wallgärten","postalCode":"49448","locality":"Lemförde","municipality":{"key":"03251023","name":"Lemförde, Flecken","type":"Kreisangehörige_Gemeinde"},"district":{"key":"03251","name":"Diepholz","type":"Landkreis"},"federalState":{"key":"03","name":"Niedersachsen"}},{"name":"Weichselweg","postalCode":"49448","locality":"Lemförde","municipality":{"key":"03251023","name":"Lemförde, Flecken","type":"Kreisangehörige_Gemeinde"},"district":{"key":"03251","name":"Diepholz","type":"Landkreis"},"federalState":{"key":"03","name":"Niedersachsen"}},{"name":"Weidendamm","postalCode":"49448","locality":"Lemförde","municipality":{"key":"03251023","name":"Lemförde, Flecken","type":"Kreisangehörige_Gemeinde"},"district":{"key":"03251","name":"Diepholz","type":"Landkreis"},"federalState":{"key":"03","name":"Niedersachsen"}},{"name":"Westpreußenstr.","postalCode":"49448","locality":"Lemförde","municipality":{"key":"03251023","name":"Lemförde, Flecken","type":"Kreisangehörige_Gemeinde"},"district":{"key":"03251","name":"Diepholz","type":"Landkreis"},"federalState":{"key":"03","name":"Niedersachsen"}},{"name":"Wiesenweg","postalCode":"49448","locality":"Lemförde","municipality":{"key":"03251023","name":"Lemförde, Flecken","type":"Kreisangehörige_Gemeinde"},"district":{"key":"03251","name":"Diepholz","type":"Landkreis"},"federalState":{"key":"03","name":"Niedersachsen"}},{"name":"Winkelgasse","postalCode":"49448","locality":"Lemförde","municipality":{"key":"03251023","name":"Lemförde, Flecken","type":"Kreisangehörige_Gemeinde"},"district":{"key":"03251","name":"Diepholz","type":"Landkreis"},"federalState":{"key":"03","name":"Niedersachsen"}},{"name":"Zum Wallgraben","postalCode":"49448","locality":"Lemförde","municipality":{"key":"03251023","name":"Lemförde, Flecken","type":"Kreisangehörige_Gemeinde"},"district":{"key":"03251","name":"Diepholz","type":"Landkreis"},"federalState":{"key":"03","name":"Niedersachsen"}},{"name":"Über der Hüffe","postalCode":"49448","locality":"Lemförde","municipality":{"key":"03251023","name":"Lemförde, Flecken","type":"Kreisangehörige_Gemeinde"},"district":{"key":"03251","name":"Diepholz","type":"Landkreis"},"federalState":{"key":"03","name":"Niedersachsen"}},{"name":"Über der Lönewand","postalCode":"49448","locality":"Lemförde","municipality":{"key":"03251023","name":"Lemförde, Flecken","type":"Kreisangehörige_Gemeinde"},"district":{"key":"03251","name":"Diepholz","type":"Landkreis"},"federalState":{"key":"03","name":"Niedersachsen"}},{"name":"Über der Orchideenzucht","postalCode":"49448","locality":"Lemförde","municipality":{"key":"03251023","name":"Lemförde, Flecken","type":"Kreisangehörige_Gemeinde"},"district":{"key":"03251","name":"Diepholz","type":"Landkreis"},"federalState":{"key":"03","name":"Niedersachsen"}},]