[{"name":"Ahornstr.","postalCode":"37632","locality":"Eschershausen","municipality":{"key":"03255013","name":"Eschershausen, Stadt","type":"Stadt"},"district":{"key":"03255","name":"Holzminden","type":"Landkreis"},"federalState":{"key":"03","name":"Niedersachsen"}},{"name":"Alte Mühle","postalCode":"37632","locality":"Eschershausen","municipality":{"key":"03255013","name":"Eschershausen, Stadt","type":"Stadt"},"district":{"key":"03255","name":"Holzminden","type":"Landkreis"},"federalState":{"key":"03","name":"Niedersachsen"}},{"name":"Altershausener Ring","postalCode":"37632","locality":"Eschershausen","municipality":{"key":"03255013","name":"Eschershausen, Stadt","type":"Stadt"},"district":{"key":"03255","name":"Holzminden","type":"Landkreis"},"federalState":{"key":"03","name":"Niedersachsen"}},{"name":"Am Ackerborn","postalCode":"37632","locality":"Eschershausen","municipality":{"key":"03255013","name":"Eschershausen, Stadt","type":"Stadt"},"district":{"key":"03255","name":"Holzminden","type":"Landkreis"},"federalState":{"key":"03","name":"Niedersachsen"}},{"name":"Am Bohlweg","postalCode":"37627","locality":"Eschershausen","municipality":{"key":"03255013","name":"Eschershausen, Stadt","type":"Stadt"},"district":{"key":"03255","name":"Holzminden","type":"Landkreis"},"federalState":{"key":"03","name":"Niedersachsen"}},{"name":"Am Bue","postalCode":"37632","locality":"Eschershausen","municipality":{"key":"03255013","name":"Eschershausen, Stadt","type":"Stadt"},"district":{"key":"03255","name":"Holzminden","type":"Landkreis"},"federalState":{"key":"03","name":"Niedersachsen"}},{"name":"Am Fried","postalCode":"37632","locality":"Eschershausen","municipality":{"key":"03255013","name":"Eschershausen, Stadt","type":"Stadt"},"district":{"key":"03255","name":"Holzminden","type":"Landkreis"},"federalState":{"key":"03","name":"Niedersachsen"}},{"name":"Am Herrenborn","postalCode":"37632","locality":"Eschershausen","municipality":{"key":"03255013","name":"Eschershausen, Stadt","type":"Stadt"},"district":{"key":"03255","name":"Holzminden","type":"Landkreis"},"federalState":{"key":"03","name":"Niedersachsen"}},{"name":"Am Hüschebrink","postalCode":"37632","locality":"Eschershausen","municipality":{"key":"03255013","name":"Eschershausen, Stadt","type":"Stadt"},"district":{"key":"03255","name":"Holzminden","type":"Landkreis"},"federalState":{"key":"03","name":"Niedersachsen"}},{"name":"Am Kindergarten","postalCode":"37632","locality":"Eschershausen","municipality":{"key":"03255013","name":"Eschershausen, Stadt","type":"Stadt"},"district":{"key":"03255","name":"Holzminden","type":"Landkreis"},"federalState":{"key":"03","name":"Niedersachsen"}},{"name":"Am Kirchberg","postalCode":"37632","locality":"Eschershausen","municipality":{"key":"03255013","name":"Eschershausen, Stadt","type":"Stadt"},"district":{"key":"03255","name":"Holzminden","type":"Landkreis"},"federalState":{"key":"03","name":"Niedersachsen"}},{"name":"Am Kreuze","postalCode":"37632","locality":"Eschershausen","municipality":{"key":"03255013","name":"Eschershausen, Stadt","type":"Stadt"},"district":{"key":"03255","name":"Holzminden","type":"Landkreis"},"federalState":{"key":"03","name":"Niedersachsen"}},{"name":"Am Krümpel","postalCode":"37632","locality":"Eschershausen","municipality":{"key":"03255013","name":"Eschershausen, Stadt","type":"Stadt"},"district":{"key":"03255","name":"Holzminden","type":"Landkreis"},"federalState":{"key":"03","name":"Niedersachsen"}},{"name":"Am Kuhmarkt","postalCode":"37632","locality":"Eschershausen","municipality":{"key":"03255013","name":"Eschershausen, Stadt","type":"Stadt"},"district":{"key":"03255","name":"Holzminden","type":"Landkreis"},"federalState":{"key":"03","name":"Niedersachsen"}},{"name":"Am Papenkamp","postalCode":"37632","locality":"Eschershausen","municipality":{"key":"03255013","name":"Eschershausen, Stadt","type":"Stadt"},"district":{"key":"03255","name":"Holzminden","type":"Landkreis"},"federalState":{"key":"03","name":"Niedersachsen"}},{"name":"Am Rebenring","postalCode":"37632","locality":"Eschershausen","municipality":{"key":"03255013","name":"Eschershausen, Stadt","type":"Stadt"},"district":{"key":"03255","name":"Holzminden","type":"Landkreis"},"federalState":{"key":"03","name":"Niedersachsen"}},{"name":"Am Reineckensiecke","postalCode":"37632","locality":"Eschershausen","municipality":{"key":"03255013","name":"Eschershausen, Stadt","type":"Stadt"},"district":{"key":"03255","name":"Holzminden","type":"Landkreis"},"federalState":{"key":"03","name":"Niedersachsen"}},{"name":"Am Schäferbrink","postalCode":"37632","locality":"Eschershausen","municipality":{"key":"03255013","name":"Eschershausen, Stadt","type":"Stadt"},"district":{"key":"03255","name":"Holzminden","type":"Landkreis"},"federalState":{"key":"03","name":"Niedersachsen"}},{"name":"An der Kirche","postalCode":"37632","locality":"Eschershausen","municipality":{"key":"03255013","name":"Eschershausen, Stadt","type":"Stadt"},"district":{"key":"03255","name":"Holzminden","type":"Landkreis"},"federalState":{"key":"03","name":"Niedersachsen"}},{"name":"An der Sporthalle","postalCode":"37632","locality":"Eschershausen","municipality":{"key":"03255013","name":"Eschershausen, Stadt","type":"Stadt"},"district":{"key":"03255","name":"Holzminden","type":"Landkreis"},"federalState":{"key":"03","name":"Niedersachsen"}},{"name":"Angerweg","postalCode":"37632","locality":"Eschershausen","municipality":{"key":"03255013","name":"Eschershausen, Stadt","type":"Stadt"},"district":{"key":"03255","name":"Holzminden","type":"Landkreis"},"federalState":{"key":"03","name":"Niedersachsen"}},{"name":"Auf dem Kirchberg","postalCode":"37632","locality":"Eschershausen","municipality":{"key":"03255013","name":"Eschershausen, Stadt","type":"Stadt"},"district":{"key":"03255","name":"Holzminden","type":"Landkreis"},"federalState":{"key":"03","name":"Niedersachsen"}},{"name":"Auf der Insel","postalCode":"37632","locality":"Eschershausen","municipality":{"key":"03255013","name":"Eschershausen, Stadt","type":"Stadt"},"district":{"key":"03255","name":"Holzminden","type":"Landkreis"},"federalState":{"key":"03","name":"Niedersachsen"}},{"name":"Auf der Steine","postalCode":"37632","locality":"Eschershausen","municipality":{"key":"03255013","name":"Eschershausen, Stadt","type":"Stadt"},"district":{"key":"03255","name":"Holzminden","type":"Landkreis"},"federalState":{"key":"03","name":"Niedersachsen"}},{"name":"Bahnhofstr.","postalCode":"37632","locality":"Eschershausen","municipality":{"key":"03255013","name":"Eschershausen, Stadt","type":"Stadt"},"district":{"key":"03255","name":"Holzminden","type":"Landkreis"},"federalState":{"key":"03","name":"Niedersachsen"}},{"name":"Berliner Str.","postalCode":"37632","locality":"Eschershausen","municipality":{"key":"03255013","name":"Eschershausen, Stadt","type":"Stadt"},"district":{"key":"03255","name":"Holzminden","type":"Landkreis"},"federalState":{"key":"03","name":"Niedersachsen"}},{"name":"Birkenweg","postalCode":"37632","locality":"Eschershausen","municipality":{"key":"03255013","name":"Eschershausen, Stadt","type":"Stadt"},"district":{"key":"03255","name":"Holzminden","type":"Landkreis"},"federalState":{"key":"03","name":"Niedersachsen"}},{"name":"Bohlweg","postalCode":"37632","locality":"Eschershausen-Forst","municipality":{"key":"03255503","name":"Eschershausen, gemfr. Gebiet","type":"Gemeindefreies_Gebiet_Unbewohnt"},"district":{"key":"03255","name":"Holzminden","type":"Landkreis"},"federalState":{"key":"03","name":"Niedersachsen"}},{"name":"Bonhagenweg","postalCode":"37632","locality":"Eschershausen-Forst","municipality":{"key":"03255503","name":"Eschershausen, gemfr. Gebiet","type":"Gemeindefreies_Gebiet_Unbewohnt"},"district":{"key":"03255","name":"Holzminden","type":"Landkreis"},"federalState":{"key":"03","name":"Niedersachsen"}},{"name":"Borwelle","postalCode":"37632","locality":"Eschershausen","municipality":{"key":"03255013","name":"Eschershausen, Stadt","type":"Stadt"},"district":{"key":"03255","name":"Holzminden","type":"Landkreis"},"federalState":{"key":"03","name":"Niedersachsen"}},{"name":"Breslauer Str.","postalCode":"37632","locality":"Eschershausen","municipality":{"key":"03255013","name":"Eschershausen, Stadt","type":"Stadt"},"district":{"key":"03255","name":"Holzminden","type":"Landkreis"},"federalState":{"key":"03","name":"Niedersachsen"}},{"name":"Bruchweg","postalCode":"37632","locality":"Eschershausen","municipality":{"key":"03255013","name":"Eschershausen, Stadt","type":"Stadt"},"district":{"key":"03255","name":"Holzminden","type":"Landkreis"},"federalState":{"key":"03","name":"Niedersachsen"}},{"name":"Brunnengasse","postalCode":"37632","locality":"Eschershausen","municipality":{"key":"03255013","name":"Eschershausen, Stadt","type":"Stadt"},"district":{"key":"03255","name":"Holzminden","type":"Landkreis"},"federalState":{"key":"03","name":"Niedersachsen"}},{"name":"Buchenweg","postalCode":"37632","locality":"Eschershausen","municipality":{"key":"03255013","name":"Eschershausen, Stadt","type":"Stadt"},"district":{"key":"03255","name":"Holzminden","type":"Landkreis"},"federalState":{"key":"03","name":"Niedersachsen"}},{"name":"Bürgermeister-Kassebeere-Str.","postalCode":"37632","locality":"Eschershausen","municipality":{"key":"03255013","name":"Eschershausen, Stadt","type":"Stadt"},"district":{"key":"03255","name":"Holzminden","type":"Landkreis"},"federalState":{"key":"03","name":"Niedersachsen"}},{"name":"Charlottenstr.","postalCode":"37603","locality":"Holzminden","municipality":{"key":"03255023","name":"Holzminden, Stadt","type":"Stadt"},"district":{"key":"03255","name":"Holzminden","type":"Landkreis"},"federalState":{"key":"03","name":"Niedersachsen"}},{"name":"Claudiusstr.","postalCode":"37603","locality":"Holzminden","municipality":{"key":"03255023","name":"Holzminden, Stadt","type":"Stadt"},"district":{"key":"03255","name":"Holzminden","type":"Landkreis"},"federalState":{"key":"03","name":"Niedersachsen"}},{"name":"Conventgasse","postalCode":"37603","locality":"Holzminden","municipality":{"key":"03255023","name":"Holzminden, Stadt","type":"Stadt"},"district":{"key":"03255","name":"Holzminden","type":"Landkreis"},"federalState":{"key":"03","name":"Niedersachsen"}},{"name":"Corveyblick","postalCode":"37603","locality":"Holzminden","municipality":{"key":"03255023","name":"Holzminden, Stadt","type":"Stadt"},"district":{"key":"03255","name":"Holzminden","type":"Landkreis"},"federalState":{"key":"03","name":"Niedersachsen"}},{"name":"Curt-Sauermilch-Weg","postalCode":"37603","locality":"Holzminden","municipality":{"key":"03255023","name":"Holzminden, Stadt","type":"Stadt"},"district":{"key":"03255","name":"Holzminden","type":"Landkreis"},"federalState":{"key":"03","name":"Niedersachsen"}},{"name":"Danziger Str.","postalCode":"37632","locality":"Eschershausen","municipality":{"key":"03255013","name":"Eschershausen, Stadt","type":"Stadt"},"district":{"key":"03255","name":"Holzminden","type":"Landkreis"},"federalState":{"key":"03","name":"Niedersachsen"}},{"name":"Driebe","postalCode":"37632","locality":"Eschershausen","municipality":{"key":"03255013","name":"Eschershausen, Stadt","type":"Stadt"},"district":{"key":"03255","name":"Holzminden","type":"Landkreis"},"federalState":{"key":"03","name":"Niedersachsen"}},{"name":"Eichendorffstr.","postalCode":"37632","locality":"Eschershausen","municipality":{"key":"03255013","name":"Eschershausen, Stadt","type":"Stadt"},"district":{"key":"03255","name":"Holzminden","type":"Landkreis"},"federalState":{"key":"03","name":"Niedersachsen"}},{"name":"Eichenweg","postalCode":"37632","locality":"Eschershausen","municipality":{"key":"03255013","name":"Eschershausen, Stadt","type":"Stadt"},"district":{"key":"03255","name":"Holzminden","type":"Landkreis"},"federalState":{"key":"03","name":"Niedersachsen"}},{"name":"Fichtenstr.","postalCode":"37632","locality":"Eschershausen","municipality":{"key":"03255013","name":"Eschershausen, Stadt","type":"Stadt"},"district":{"key":"03255","name":"Holzminden","type":"Landkreis"},"federalState":{"key":"03","name":"Niedersachsen"}},{"name":"Freibad","postalCode":"37632","locality":"Eschershausen","municipality":{"key":"03255013","name":"Eschershausen, Stadt","type":"Stadt"},"district":{"key":"03255","name":"Holzminden","type":"Landkreis"},"federalState":{"key":"03","name":"Niedersachsen"}},{"name":"Gartenstr.","postalCode":"37632","locality":"Eschershausen","municipality":{"key":"03255013","name":"Eschershausen, Stadt","type":"Stadt"},"district":{"key":"03255","name":"Holzminden","type":"Landkreis"},"federalState":{"key":"03","name":"Niedersachsen"}},{"name":"Gniesbreite","postalCode":"37632","locality":"Eschershausen","municipality":{"key":"03255013","name":"Eschershausen, Stadt","type":"Stadt"},"district":{"key":"03255","name":"Holzminden","type":"Landkreis"},"federalState":{"key":"03","name":"Niedersachsen"}},{"name":"Goethestr.","postalCode":"37632","locality":"Eschershausen","municipality":{"key":"03255013","name":"Eschershausen, Stadt","type":"Stadt"},"district":{"key":"03255","name":"Holzminden","type":"Landkreis"},"federalState":{"key":"03","name":"Niedersachsen"}},{"name":"Grünstr.","postalCode":"37632","locality":"Eschershausen","municipality":{"key":"03255013","name":"Eschershausen, Stadt","type":"Stadt"},"district":{"key":"03255","name":"Holzminden","type":"Landkreis"},"federalState":{"key":"03","name":"Niedersachsen"}},{"name":"Hauptstr.","postalCode":"37632","locality":"Eschershausen","municipality":{"key":"03255013","name":"Eschershausen, Stadt","type":"Stadt"},"district":{"key":"03255","name":"Holzminden","type":"Landkreis"},"federalState":{"key":"03","name":"Niedersachsen"}},{"name":"Heckenweg","postalCode":"37632","locality":"Eschershausen","municipality":{"key":"03255013","name":"Eschershausen, Stadt","type":"Stadt"},"district":{"key":"03255","name":"Holzminden","type":"Landkreis"},"federalState":{"key":"03","name":"Niedersachsen"}},{"name":"Hilsweg","postalCode":"37632","locality":"Eschershausen-Forst","municipality":{"key":"03255503","name":"Eschershausen, gemfr. Gebiet","type":"Gemeindefreies_Gebiet_Unbewohnt"},"district":{"key":"03255","name":"Holzminden","type":"Landkreis"},"federalState":{"key":"03","name":"Niedersachsen"}},{"name":"Höfeweg","postalCode":"37632","locality":"Eschershausen","municipality":{"key":"03255013","name":"Eschershausen, Stadt","type":"Stadt"},"district":{"key":"03255","name":"Holzminden","type":"Landkreis"},"federalState":{"key":"03","name":"Niedersachsen"}},{"name":"Hohe Feldstr.","postalCode":"37632","locality":"Eschershausen","municipality":{"key":"03255013","name":"Eschershausen, Stadt","type":"Stadt"},"district":{"key":"03255","name":"Holzminden","type":"Landkreis"},"federalState":{"key":"03","name":"Niedersachsen"}},{"name":"Hoher Weg","postalCode":"37632","locality":"Eschershausen","municipality":{"key":"03255013","name":"Eschershausen, Stadt","type":"Stadt"},"district":{"key":"03255","name":"Holzminden","type":"Landkreis"},"federalState":{"key":"03","name":"Niedersachsen"}},{"name":"Holunderblüte","postalCode":"37632","locality":"Eschershausen","municipality":{"key":"03255013","name":"Eschershausen, Stadt","type":"Stadt"},"district":{"key":"03255","name":"Holzminden","type":"Landkreis"},"federalState":{"key":"03","name":"Niedersachsen"}},{"name":"Holzer Str.","postalCode":"37632","locality":"Eschershausen","municipality":{"key":"03255013","name":"Eschershausen, Stadt","type":"Stadt"},"district":{"key":"03255","name":"Holzminden","type":"Landkreis"},"federalState":{"key":"03","name":"Niedersachsen"}},{"name":"Homburgstr.","postalCode":"37632","locality":"Eschershausen","municipality":{"key":"03255013","name":"Eschershausen, Stadt","type":"Stadt"},"district":{"key":"03255","name":"Holzminden","type":"Landkreis"},"federalState":{"key":"03","name":"Niedersachsen"}},{"name":"Homburgsweg","postalCode":"37632","locality":"Eschershausen","municipality":{"key":"03255013","name":"Eschershausen, Stadt","type":"Stadt"},"district":{"key":"03255","name":"Holzminden","type":"Landkreis"},"federalState":{"key":"03","name":"Niedersachsen"}},{"name":"Im Winkel","postalCode":"37632","locality":"Eschershausen","municipality":{"key":"03255013","name":"Eschershausen, Stadt","type":"Stadt"},"district":{"key":"03255","name":"Holzminden","type":"Landkreis"},"federalState":{"key":"03","name":"Niedersachsen"}},{"name":"Ithstr.","postalCode":"37632","locality":"Eschershausen","municipality":{"key":"03255013","name":"Eschershausen, Stadt","type":"Stadt"},"district":{"key":"03255","name":"Holzminden","type":"Landkreis"},"federalState":{"key":"03","name":"Niedersachsen"}},{"name":"Jahnstr.","postalCode":"37632","locality":"Eschershausen","municipality":{"key":"03255013","name":"Eschershausen, Stadt","type":"Stadt"},"district":{"key":"03255","name":"Holzminden","type":"Landkreis"},"federalState":{"key":"03","name":"Niedersachsen"}},{"name":"Kappenbergstr.","postalCode":"37632","locality":"Eschershausen","municipality":{"key":"03255013","name":"Eschershausen, Stadt","type":"Stadt"},"district":{"key":"03255","name":"Holzminden","type":"Landkreis"},"federalState":{"key":"03","name":"Niedersachsen"}},{"name":"Kirchberggasse","postalCode":"37632","locality":"Eschershausen","municipality":{"key":"03255013","name":"Eschershausen, Stadt","type":"Stadt"},"district":{"key":"03255","name":"Holzminden","type":"Landkreis"},"federalState":{"key":"03","name":"Niedersachsen"}},{"name":"Knüllstr.","postalCode":"37632","locality":"Eschershausen","municipality":{"key":"03255013","name":"Eschershausen, Stadt","type":"Stadt"},"district":{"key":"03255","name":"Holzminden","type":"Landkreis"},"federalState":{"key":"03","name":"Niedersachsen"}},{"name":"Königsberger Str.","postalCode":"37632","locality":"Eschershausen","municipality":{"key":"03255013","name":"Eschershausen, Stadt","type":"Stadt"},"district":{"key":"03255","name":"Holzminden","type":"Landkreis"},"federalState":{"key":"03","name":"Niedersachsen"}},{"name":"Kuhanger","postalCode":"37632","locality":"Eschershausen","municipality":{"key":"03255013","name":"Eschershausen, Stadt","type":"Stadt"},"district":{"key":"03255","name":"Holzminden","type":"Landkreis"},"federalState":{"key":"03","name":"Niedersachsen"}},{"name":"Lessingstr.","postalCode":"37632","locality":"Eschershausen","municipality":{"key":"03255013","name":"Eschershausen, Stadt","type":"Stadt"},"district":{"key":"03255","name":"Holzminden","type":"Landkreis"},"federalState":{"key":"03","name":"Niedersachsen"}},{"name":"Lönsstr.","postalCode":"37632","locality":"Eschershausen","municipality":{"key":"03255013","name":"Eschershausen, Stadt","type":"Stadt"},"district":{"key":"03255","name":"Holzminden","type":"Landkreis"},"federalState":{"key":"03","name":"Niedersachsen"}},{"name":"Lüerdisser Str.","postalCode":"37632","locality":"Eschershausen","municipality":{"key":"03255013","name":"Eschershausen, Stadt","type":"Stadt"},"district":{"key":"03255","name":"Holzminden","type":"Landkreis"},"federalState":{"key":"03","name":"Niedersachsen"}},{"name":"Marktplatz","postalCode":"37632","locality":"Eschershausen","municipality":{"key":"03255013","name":"Eschershausen, Stadt","type":"Stadt"},"district":{"key":"03255","name":"Holzminden","type":"Landkreis"},"federalState":{"key":"03","name":"Niedersachsen"}},{"name":"Mühlenbergstr.","postalCode":"37632","locality":"Eschershausen","municipality":{"key":"03255013","name":"Eschershausen, Stadt","type":"Stadt"},"district":{"key":"03255","name":"Holzminden","type":"Landkreis"},"federalState":{"key":"03","name":"Niedersachsen"}},{"name":"Mühlenstr.","postalCode":"37632","locality":"Eschershausen","municipality":{"key":"03255013","name":"Eschershausen, Stadt","type":"Stadt"},"district":{"key":"03255","name":"Holzminden","type":"Landkreis"},"federalState":{"key":"03","name":"Niedersachsen"}},{"name":"Mühlentrift","postalCode":"37632","locality":"Eschershausen","municipality":{"key":"03255013","name":"Eschershausen, Stadt","type":"Stadt"},"district":{"key":"03255","name":"Holzminden","type":"Landkreis"},"federalState":{"key":"03","name":"Niedersachsen"}},{"name":"Nelkenstr.","postalCode":"37632","locality":"Eschershausen","municipality":{"key":"03255013","name":"Eschershausen, Stadt","type":"Stadt"},"district":{"key":"03255","name":"Holzminden","type":"Landkreis"},"federalState":{"key":"03","name":"Niedersachsen"}},{"name":"Odfeldstr.","postalCode":"37632","locality":"Eschershausen","municipality":{"key":"03255013","name":"Eschershausen, Stadt","type":"Stadt"},"district":{"key":"03255","name":"Holzminden","type":"Landkreis"},"federalState":{"key":"03","name":"Niedersachsen"}},{"name":"Oelkasser Str.","postalCode":"37632","locality":"Eschershausen","municipality":{"key":"03255013","name":"Eschershausen, Stadt","type":"Stadt"},"district":{"key":"03255","name":"Holzminden","type":"Landkreis"},"federalState":{"key":"03","name":"Niedersachsen"}},{"name":"Ostlandstr.","postalCode":"37632","locality":"Eschershausen","municipality":{"key":"03255013","name":"Eschershausen, Stadt","type":"Stadt"},"district":{"key":"03255","name":"Holzminden","type":"Landkreis"},"federalState":{"key":"03","name":"Niedersachsen"}},{"name":"Othbergstr.","postalCode":"37632","locality":"Eschershausen","municipality":{"key":"03255013","name":"Eschershausen, Stadt","type":"Stadt"},"district":{"key":"03255","name":"Holzminden","type":"Landkreis"},"federalState":{"key":"03","name":"Niedersachsen"}},{"name":"Otto-Elster-Platz","postalCode":"37632","locality":"Eschershausen","municipality":{"key":"03255013","name":"Eschershausen, Stadt","type":"Stadt"},"district":{"key":"03255","name":"Holzminden","type":"Landkreis"},"federalState":{"key":"03","name":"Niedersachsen"}},{"name":"Prälat-Beigel-Str.","postalCode":"37632","locality":"Eschershausen","municipality":{"key":"03255013","name":"Eschershausen, Stadt","type":"Stadt"},"district":{"key":"03255","name":"Holzminden","type":"Landkreis"},"federalState":{"key":"03","name":"Niedersachsen"}},{"name":"Pythagoweg","postalCode":"37632","locality":"Eschershausen","municipality":{"key":"03255013","name":"Eschershausen, Stadt","type":"Stadt"},"district":{"key":"03255","name":"Holzminden","type":"Landkreis"},"federalState":{"key":"03","name":"Niedersachsen"}},{"name":"Quittenweg","postalCode":"37603","locality":"Holzminden","municipality":{"key":"03255023","name":"Holzminden, Stadt","type":"Stadt"},"district":{"key":"03255","name":"Holzminden","type":"Landkreis"},"federalState":{"key":"03","name":"Niedersachsen"}},{"name":"Raabestr.","postalCode":"37632","locality":"Eschershausen","municipality":{"key":"03255013","name":"Eschershausen, Stadt","type":"Stadt"},"district":{"key":"03255","name":"Holzminden","type":"Landkreis"},"federalState":{"key":"03","name":"Niedersachsen"}},{"name":"Ringstr.","postalCode":"37632","locality":"Eschershausen","municipality":{"key":"03255013","name":"Eschershausen, Stadt","type":"Stadt"},"district":{"key":"03255","name":"Holzminden","type":"Landkreis"},"federalState":{"key":"03","name":"Niedersachsen"}},{"name":"Rosenstr.","postalCode":"37632","locality":"Eschershausen","municipality":{"key":"03255013","name":"Eschershausen, Stadt","type":"Stadt"},"district":{"key":"03255","name":"Holzminden","type":"Landkreis"},"federalState":{"key":"03","name":"Niedersachsen"}},{"name":"Salzbachweg","postalCode":"37632","locality":"Eschershausen","municipality":{"key":"03255013","name":"Eschershausen, Stadt","type":"Stadt"},"district":{"key":"03255","name":"Holzminden","type":"Landkreis"},"federalState":{"key":"03","name":"Niedersachsen"}},{"name":"Schäferweg","postalCode":"37632","locality":"Eschershausen","municipality":{"key":"03255013","name":"Eschershausen, Stadt","type":"Stadt"},"district":{"key":"03255","name":"Holzminden","type":"Landkreis"},"federalState":{"key":"03","name":"Niedersachsen"}},{"name":"Scharfoldendorfer Str.","postalCode":"37632","locality":"Eschershausen","municipality":{"key":"03255013","name":"Eschershausen, Stadt","type":"Stadt"},"district":{"key":"03255","name":"Holzminden","type":"Landkreis"},"federalState":{"key":"03","name":"Niedersachsen"}},{"name":"Schillerstr.","postalCode":"37632","locality":"Eschershausen","municipality":{"key":"03255013","name":"Eschershausen, Stadt","type":"Stadt"},"district":{"key":"03255","name":"Holzminden","type":"Landkreis"},"federalState":{"key":"03","name":"Niedersachsen"}},{"name":"Schwarzes Land","postalCode":"37632","locality":"Eschershausen","municipality":{"key":"03255013","name":"Eschershausen, Stadt","type":"Stadt"},"district":{"key":"03255","name":"Holzminden","type":"Landkreis"},"federalState":{"key":"03","name":"Niedersachsen"}},{"name":"Silberkuhle","postalCode":"37632","locality":"Eschershausen","municipality":{"key":"03255013","name":"Eschershausen, Stadt","type":"Stadt"},"district":{"key":"03255","name":"Holzminden","type":"Landkreis"},"federalState":{"key":"03","name":"Niedersachsen"}},{"name":"Sohnreystr.","postalCode":"37632","locality":"Eschershausen","municipality":{"key":"03255013","name":"Eschershausen, Stadt","type":"Stadt"},"district":{"key":"03255","name":"Holzminden","type":"Landkreis"},"federalState":{"key":"03","name":"Niedersachsen"}},{"name":"Stadtbergstr.","postalCode":"37632","locality":"Eschershausen","municipality":{"key":"03255013","name":"Eschershausen, Stadt","type":"Stadt"},"district":{"key":"03255","name":"Holzminden","type":"Landkreis"},"federalState":{"key":"03","name":"Niedersachsen"}},{"name":"Stadtpark","postalCode":"37632","locality":"Eschershausen","municipality":{"key":"03255013","name":"Eschershausen, Stadt","type":"Stadt"},"district":{"key":"03255","name":"Holzminden","type":"Landkreis"},"federalState":{"key":"03","name":"Niedersachsen"}},{"name":"Steinweg","postalCode":"37632","locality":"Eschershausen","municipality":{"key":"03255013","name":"Eschershausen, Stadt","type":"Stadt"},"district":{"key":"03255","name":"Holzminden","type":"Landkreis"},"federalState":{"key":"03","name":"Niedersachsen"}},{"name":"Stettiner Str.","postalCode":"37632","locality":"Eschershausen","municipality":{"key":"03255013","name":"Eschershausen, Stadt","type":"Stadt"},"district":{"key":"03255","name":"Holzminden","type":"Landkreis"},"federalState":{"key":"03","name":"Niedersachsen"}},{"name":"Tiefe Str.","postalCode":"37632","locality":"Eschershausen","municipality":{"key":"03255013","name":"Eschershausen, Stadt","type":"Stadt"},"district":{"key":"03255","name":"Holzminden","type":"Landkreis"},"federalState":{"key":"03","name":"Niedersachsen"}},{"name":"Tulpenstr.","postalCode":"37632","locality":"Eschershausen","municipality":{"key":"03255013","name":"Eschershausen, Stadt","type":"Stadt"},"district":{"key":"03255","name":"Holzminden","type":"Landkreis"},"federalState":{"key":"03","name":"Niedersachsen"}},{"name":"Uhlandstr.","postalCode":"37632","locality":"Eschershausen","municipality":{"key":"03255013","name":"Eschershausen, Stadt","type":"Stadt"},"district":{"key":"03255","name":"Holzminden","type":"Landkreis"},"federalState":{"key":"03","name":"Niedersachsen"}},{"name":"Untere Str.","postalCode":"37632","locality":"Eschershausen","municipality":{"key":"03255013","name":"Eschershausen, Stadt","type":"Stadt"},"district":{"key":"03255","name":"Holzminden","type":"Landkreis"},"federalState":{"key":"03","name":"Niedersachsen"}},{"name":"Untere Trift","postalCode":"37632","locality":"Eschershausen","municipality":{"key":"03255013","name":"Eschershausen, Stadt","type":"Stadt"},"district":{"key":"03255","name":"Holzminden","type":"Landkreis"},"federalState":{"key":"03","name":"Niedersachsen"}},{"name":"Von-der-Heyde-Str.","postalCode":"37632","locality":"Eschershausen","municipality":{"key":"03255013","name":"Eschershausen, Stadt","type":"Stadt"},"district":{"key":"03255","name":"Holzminden","type":"Landkreis"},"federalState":{"key":"03","name":"Niedersachsen"}},{"name":"Vor dem Tore","postalCode":"37632","locality":"Eschershausen","municipality":{"key":"03255013","name":"Eschershausen, Stadt","type":"Stadt"},"district":{"key":"03255","name":"Holzminden","type":"Landkreis"},"federalState":{"key":"03","name":"Niedersachsen"}},{"name":"Waldstr.","postalCode":"37632","locality":"Eschershausen","municipality":{"key":"03255013","name":"Eschershausen, Stadt","type":"Stadt"},"district":{"key":"03255","name":"Holzminden","type":"Landkreis"},"federalState":{"key":"03","name":"Niedersachsen"}},{"name":"Wäscheweg","postalCode":"37632","locality":"Eschershausen","municipality":{"key":"03255013","name":"Eschershausen, Stadt","type":"Stadt"},"district":{"key":"03255","name":"Holzminden","type":"Landkreis"},"federalState":{"key":"03","name":"Niedersachsen"}},{"name":"Waterfor","postalCode":"37632","locality":"Eschershausen","municipality":{"key":"03255013","name":"Eschershausen, Stadt","type":"Stadt"},"district":{"key":"03255","name":"Holzminden","type":"Landkreis"},"federalState":{"key":"03","name":"Niedersachsen"}},{"name":"Wickensen","postalCode":"37632","locality":"Eschershausen","municipality":{"key":"03255013","name":"Eschershausen, Stadt","type":"Stadt"},"district":{"key":"03255","name":"Holzminden","type":"Landkreis"},"federalState":{"key":"03","name":"Niedersachsen"}},{"name":"Worthstr.","postalCode":"37632","locality":"Eschershausen","municipality":{"key":"03255013","name":"Eschershausen, Stadt","type":"Stadt"},"district":{"key":"03255","name":"Holzminden","type":"Landkreis"},"federalState":{"key":"03","name":"Niedersachsen"}},{"name":"Zeissring","postalCode":"37603","locality":"Holzminden","municipality":{"key":"03255023","name":"Holzminden, Stadt","type":"Stadt"},"district":{"key":"03255","name":"Holzminden","type":"Landkreis"},"federalState":{"key":"03","name":"Niedersachsen"}},{"name":"Ziegeleiweg","postalCode":"37603","locality":"Holzminden","municipality":{"key":"03255023","name":"Holzminden, Stadt","type":"Stadt"},"district":{"key":"03255","name":"Holzminden","type":"Landkreis"},"federalState":{"key":"03","name":"Niedersachsen"}},{"name":"Über dem Gerichte","postalCode":"37603","locality":"Holzminden","municipality":{"key":"03255023","name":"Holzminden, Stadt","type":"Stadt"},"district":{"key":"03255","name":"Holzminden","type":"Landkreis"},"federalState":{"key":"03","name":"Niedersachsen"}},]