[{"name":"Achtern Habberg","postalCode":"27386","locality":"Bothel","municipality":{"key":"03357006","name":"Bothel","type":"Kreisangehörige_Gemeinde"},"district":{"key":"03357","name":"Rotenburg (Wümme)","type":"Landkreis"},"federalState":{"key":"03","name":"Niedersachsen"}},{"name":"Ackerring","postalCode":"27386","locality":"Bothel","municipality":{"key":"03357006","name":"Bothel","type":"Kreisangehörige_Gemeinde"},"district":{"key":"03357","name":"Rotenburg (Wümme)","type":"Landkreis"},"federalState":{"key":"03","name":"Niedersachsen"}},{"name":"Am Campingplatz","postalCode":"27386","locality":"Bothel","municipality":{"key":"03357006","name":"Bothel","type":"Kreisangehörige_Gemeinde"},"district":{"key":"03357","name":"Rotenburg (Wümme)","type":"Landkreis"},"federalState":{"key":"03","name":"Niedersachsen"}},{"name":"Am Freibad","postalCode":"27386","locality":"Bothel","municipality":{"key":"03357006","name":"Bothel","type":"Kreisangehörige_Gemeinde"},"district":{"key":"03357","name":"Rotenburg (Wümme)","type":"Landkreis"},"federalState":{"key":"03","name":"Niedersachsen"}},{"name":"Am Friedhof","postalCode":"27386","locality":"Bothel","municipality":{"key":"03357006","name":"Bothel","type":"Kreisangehörige_Gemeinde"},"district":{"key":"03357","name":"Rotenburg (Wümme)","type":"Landkreis"},"federalState":{"key":"03","name":"Niedersachsen"}},{"name":"Am Habberg","postalCode":"27386","locality":"Bothel","municipality":{"key":"03357006","name":"Bothel","type":"Kreisangehörige_Gemeinde"},"district":{"key":"03357","name":"Rotenburg (Wümme)","type":"Landkreis"},"federalState":{"key":"03","name":"Niedersachsen"}},{"name":"Am Sägewerk","postalCode":"27386","locality":"Bothel","municipality":{"key":"03357006","name":"Bothel","type":"Kreisangehörige_Gemeinde"},"district":{"key":"03357","name":"Rotenburg (Wümme)","type":"Landkreis"},"federalState":{"key":"03","name":"Niedersachsen"}},{"name":"An der Lehmgrube","postalCode":"27386","locality":"Bothel","municipality":{"key":"03357006","name":"Bothel","type":"Kreisangehörige_Gemeinde"},"district":{"key":"03357","name":"Rotenburg (Wümme)","type":"Landkreis"},"federalState":{"key":"03","name":"Niedersachsen"}},{"name":"Bruchstr.","postalCode":"27386","locality":"Bothel","municipality":{"key":"03357006","name":"Bothel","type":"Kreisangehörige_Gemeinde"},"district":{"key":"03357","name":"Rotenburg (Wümme)","type":"Landkreis"},"federalState":{"key":"03","name":"Niedersachsen"}},{"name":"Dorfstr.","postalCode":"27386","locality":"Bothel","municipality":{"key":"03357006","name":"Bothel","type":"Kreisangehörige_Gemeinde"},"district":{"key":"03357","name":"Rotenburg (Wümme)","type":"Landkreis"},"federalState":{"key":"03","name":"Niedersachsen"}},{"name":"Düsterneichen","postalCode":"27386","locality":"Bothel","municipality":{"key":"03357006","name":"Bothel","type":"Kreisangehörige_Gemeinde"},"district":{"key":"03357","name":"Rotenburg (Wümme)","type":"Landkreis"},"federalState":{"key":"03","name":"Niedersachsen"}},{"name":"Eschfeldweg","postalCode":"27386","locality":"Bothel","municipality":{"key":"03357006","name":"Bothel","type":"Kreisangehörige_Gemeinde"},"district":{"key":"03357","name":"Rotenburg (Wümme)","type":"Landkreis"},"federalState":{"key":"03","name":"Niedersachsen"}},{"name":"Feldstr.","postalCode":"27386","locality":"Bothel","municipality":{"key":"03357006","name":"Bothel","type":"Kreisangehörige_Gemeinde"},"district":{"key":"03357","name":"Rotenburg (Wümme)","type":"Landkreis"},"federalState":{"key":"03","name":"Niedersachsen"}},{"name":"Flachshofweg","postalCode":"27386","locality":"Bothel","municipality":{"key":"03357006","name":"Bothel","type":"Kreisangehörige_Gemeinde"},"district":{"key":"03357","name":"Rotenburg (Wümme)","type":"Landkreis"},"federalState":{"key":"03","name":"Niedersachsen"}},{"name":"Gartenstr.","postalCode":"27386","locality":"Bothel","municipality":{"key":"03357006","name":"Bothel","type":"Kreisangehörige_Gemeinde"},"district":{"key":"03357","name":"Rotenburg (Wümme)","type":"Landkreis"},"federalState":{"key":"03","name":"Niedersachsen"}},{"name":"Habberg","postalCode":"27386","locality":"Bothel","municipality":{"key":"03357006","name":"Bothel","type":"Kreisangehörige_Gemeinde"},"district":{"key":"03357","name":"Rotenburg (Wümme)","type":"Landkreis"},"federalState":{"key":"03","name":"Niedersachsen"}},{"name":"Hasseler Str.","postalCode":"27386","locality":"Bothel","municipality":{"key":"03357006","name":"Bothel","type":"Kreisangehörige_Gemeinde"},"district":{"key":"03357","name":"Rotenburg (Wümme)","type":"Landkreis"},"federalState":{"key":"03","name":"Niedersachsen"}},{"name":"Hastedter Str.","postalCode":"27386","locality":"Bothel","municipality":{"key":"03357006","name":"Bothel","type":"Kreisangehörige_Gemeinde"},"district":{"key":"03357","name":"Rotenburg (Wümme)","type":"Landkreis"},"federalState":{"key":"03","name":"Niedersachsen"}},{"name":"Hastedter Waldweg","postalCode":"27386","locality":"Bothel","municipality":{"key":"03357006","name":"Bothel","type":"Kreisangehörige_Gemeinde"},"district":{"key":"03357","name":"Rotenburg (Wümme)","type":"Landkreis"},"federalState":{"key":"03","name":"Niedersachsen"}},{"name":"Hauptstr.","postalCode":"27386","locality":"Bothel","municipality":{"key":"03357006","name":"Bothel","type":"Kreisangehörige_Gemeinde"},"district":{"key":"03357","name":"Rotenburg (Wümme)","type":"Landkreis"},"federalState":{"key":"03","name":"Niedersachsen"}},{"name":"Hemsbünder Str.","postalCode":"27386","locality":"Bothel","municipality":{"key":"03357006","name":"Bothel","type":"Kreisangehörige_Gemeinde"},"district":{"key":"03357","name":"Rotenburg (Wümme)","type":"Landkreis"},"federalState":{"key":"03","name":"Niedersachsen"}},{"name":"Holderweg","postalCode":"27386","locality":"Bothel","municipality":{"key":"03357006","name":"Bothel","type":"Kreisangehörige_Gemeinde"},"district":{"key":"03357","name":"Rotenburg (Wümme)","type":"Landkreis"},"federalState":{"key":"03","name":"Niedersachsen"}},{"name":"Horstfeldweg","postalCode":"27386","locality":"Bothel","municipality":{"key":"03357006","name":"Bothel","type":"Kreisangehörige_Gemeinde"},"district":{"key":"03357","name":"Rotenburg (Wümme)","type":"Landkreis"},"federalState":{"key":"03","name":"Niedersachsen"}},{"name":"Horstweg","postalCode":"27386","locality":"Bothel","municipality":{"key":"03357006","name":"Bothel","type":"Kreisangehörige_Gemeinde"},"district":{"key":"03357","name":"Rotenburg (Wümme)","type":"Landkreis"},"federalState":{"key":"03","name":"Niedersachsen"}},{"name":"Im Est","postalCode":"27386","locality":"Bothel","municipality":{"key":"03357006","name":"Bothel","type":"Kreisangehörige_Gemeinde"},"district":{"key":"03357","name":"Rotenburg (Wümme)","type":"Landkreis"},"federalState":{"key":"03","name":"Niedersachsen"}},{"name":"In den Breden","postalCode":"27386","locality":"Bothel","municipality":{"key":"03357006","name":"Bothel","type":"Kreisangehörige_Gemeinde"},"district":{"key":"03357","name":"Rotenburg (Wümme)","type":"Landkreis"},"federalState":{"key":"03","name":"Niedersachsen"}},{"name":"In der Reith","postalCode":"27386","locality":"Bothel","municipality":{"key":"03357006","name":"Bothel","type":"Kreisangehörige_Gemeinde"},"district":{"key":"03357","name":"Rotenburg (Wümme)","type":"Landkreis"},"federalState":{"key":"03","name":"Niedersachsen"}},{"name":"Kleine Gartenstr.","postalCode":"27386","locality":"Bothel","municipality":{"key":"03357006","name":"Bothel","type":"Kreisangehörige_Gemeinde"},"district":{"key":"03357","name":"Rotenburg (Wümme)","type":"Landkreis"},"federalState":{"key":"03","name":"Niedersachsen"}},{"name":"Lindacker","postalCode":"27386","locality":"Bothel","municipality":{"key":"03357006","name":"Bothel","type":"Kreisangehörige_Gemeinde"},"district":{"key":"03357","name":"Rotenburg (Wümme)","type":"Landkreis"},"federalState":{"key":"03","name":"Niedersachsen"}},{"name":"Mittelweg","postalCode":"27386","locality":"Bothel","municipality":{"key":"03357006","name":"Bothel","type":"Kreisangehörige_Gemeinde"},"district":{"key":"03357","name":"Rotenburg (Wümme)","type":"Landkreis"},"federalState":{"key":"03","name":"Niedersachsen"}},{"name":"Parkweg","postalCode":"27386","locality":"Bothel","municipality":{"key":"03357006","name":"Bothel","type":"Kreisangehörige_Gemeinde"},"district":{"key":"03357","name":"Rotenburg (Wümme)","type":"Landkreis"},"federalState":{"key":"03","name":"Niedersachsen"}},{"name":"Sackgasse","postalCode":"27386","locality":"Bothel","municipality":{"key":"03357006","name":"Bothel","type":"Kreisangehörige_Gemeinde"},"district":{"key":"03357","name":"Rotenburg (Wümme)","type":"Landkreis"},"federalState":{"key":"03","name":"Niedersachsen"}},{"name":"Schulstr.","postalCode":"27386","locality":"Bothel","municipality":{"key":"03357006","name":"Bothel","type":"Kreisangehörige_Gemeinde"},"district":{"key":"03357","name":"Rotenburg (Wümme)","type":"Landkreis"},"federalState":{"key":"03","name":"Niedersachsen"}},{"name":"Trocheler Str.","postalCode":"27386","locality":"Bothel","municipality":{"key":"03357006","name":"Bothel","type":"Kreisangehörige_Gemeinde"},"district":{"key":"03357","name":"Rotenburg (Wümme)","type":"Landkreis"},"federalState":{"key":"03","name":"Niedersachsen"}},{"name":"Vor der Rodau","postalCode":"27386","locality":"Bothel","municipality":{"key":"03357006","name":"Bothel","type":"Kreisangehörige_Gemeinde"},"district":{"key":"03357","name":"Rotenburg (Wümme)","type":"Landkreis"},"federalState":{"key":"03","name":"Niedersachsen"}},{"name":"Waldweg","postalCode":"27386","locality":"Bothel","municipality":{"key":"03357006","name":"Bothel","type":"Kreisangehörige_Gemeinde"},"district":{"key":"03357","name":"Rotenburg (Wümme)","type":"Landkreis"},"federalState":{"key":"03","name":"Niedersachsen"}},{"name":"Wiedaustr.","postalCode":"27386","locality":"Bothel","municipality":{"key":"03357006","name":"Bothel","type":"Kreisangehörige_Gemeinde"},"district":{"key":"03357","name":"Rotenburg (Wümme)","type":"Landkreis"},"federalState":{"key":"03","name":"Niedersachsen"}},{"name":"Winterloh","postalCode":"27386","locality":"Bothel","municipality":{"key":"03357006","name":"Bothel","type":"Kreisangehörige_Gemeinde"},"district":{"key":"03357","name":"Rotenburg (Wümme)","type":"Landkreis"},"federalState":{"key":"03","name":"Niedersachsen"}},{"name":"Zum Hartwedel","postalCode":"27386","locality":"Bothel","municipality":{"key":"03357006","name":"Bothel","type":"Kreisangehörige_Gemeinde"},"district":{"key":"03357","name":"Rotenburg (Wümme)","type":"Landkreis"},"federalState":{"key":"03","name":"Niedersachsen"}},{"name":"Zum Kamp","postalCode":"27386","locality":"Bothel","municipality":{"key":"03357006","name":"Bothel","type":"Kreisangehörige_Gemeinde"},"district":{"key":"03357","name":"Rotenburg (Wümme)","type":"Landkreis"},"federalState":{"key":"03","name":"Niedersachsen"}},{"name":"Zum Neuen Lande","postalCode":"27386","locality":"Bothel","municipality":{"key":"03357006","name":"Bothel","type":"Kreisangehörige_Gemeinde"},"district":{"key":"03357","name":"Rotenburg (Wümme)","type":"Landkreis"},"federalState":{"key":"03","name":"Niedersachsen"}},{"name":"Zur Bünte","postalCode":"27386","locality":"Bothel","municipality":{"key":"03357006","name":"Bothel","type":"Kreisangehörige_Gemeinde"},"district":{"key":"03357","name":"Rotenburg (Wümme)","type":"Landkreis"},"federalState":{"key":"03","name":"Niedersachsen"}},{"name":"Zur Hasenheide","postalCode":"27386","locality":"Bothel","municipality":{"key":"03357006","name":"Bothel","type":"Kreisangehörige_Gemeinde"},"district":{"key":"03357","name":"Rotenburg (Wümme)","type":"Landkreis"},"federalState":{"key":"03","name":"Niedersachsen"}},]