[{"name":"4","postalCode":"76857","locality":"Landau in der Pfalz","municipality":{"key":"07313000","name":"Landau in der Pfalz, Stadt","type":"Kreisfreie_Stadt"},"district":{"key":"07313","name":"Landau in der Pfalz, kreisfreie Stadt","type":"Kreisfreie_Stadt"},"federalState":{"key":"07","name":"Rheinland-Pfalz"}},{"name":"Adlerstr.","postalCode":"76829","locality":"Landau in der Pfalz","municipality":{"key":"07313000","name":"Landau in der Pfalz, Stadt","type":"Kreisfreie_Stadt"},"district":{"key":"07313","name":"Landau in der Pfalz, kreisfreie Stadt","type":"Kreisfreie_Stadt"},"federalState":{"key":"07","name":"Rheinland-Pfalz"}},{"name":"Adolf-Kessler-Str.","postalCode":"76829","locality":"Landau in der Pfalz","municipality":{"key":"07313000","name":"Landau in der Pfalz, Stadt","type":"Kreisfreie_Stadt"},"district":{"key":"07313","name":"Landau in der Pfalz, kreisfreie Stadt","type":"Kreisfreie_Stadt"},"federalState":{"key":"07","name":"Rheinland-Pfalz"}},{"name":"Affenschaukel","postalCode":"76831","locality":"Ilbesheim bei Landau in der Pfalz","municipality":{"key":"07337042","name":"Ilbesheim bei Landau in der Pfalz","type":"Kreisangehörige_Gemeinde"},"district":{"key":"07337","name":"Südliche Weinstraße","type":"Landkreis"},"federalState":{"key":"07","name":"Rheinland-Pfalz"}},{"name":"Ahlmühlstr.","postalCode":"76829","locality":"Landau in der Pfalz","municipality":{"key":"07313000","name":"Landau in der Pfalz, Stadt","type":"Kreisfreie_Stadt"},"district":{"key":"07313","name":"Landau in der Pfalz, kreisfreie Stadt","type":"Kreisfreie_Stadt"},"federalState":{"key":"07","name":"Rheinland-Pfalz"}},{"name":"Ahornstr.","postalCode":"76829","locality":"Landau in der Pfalz","municipality":{"key":"07313000","name":"Landau in der Pfalz, Stadt","type":"Kreisfreie_Stadt"},"district":{"key":"07313","name":"Landau in der Pfalz, kreisfreie Stadt","type":"Kreisfreie_Stadt"},"federalState":{"key":"07","name":"Rheinland-Pfalz"}},{"name":"Albert-Einstein-Str.","postalCode":"76829","locality":"Landau in der Pfalz","municipality":{"key":"07313000","name":"Landau in der Pfalz, Stadt","type":"Kreisfreie_Stadt"},"district":{"key":"07313","name":"Landau in der Pfalz, kreisfreie Stadt","type":"Kreisfreie_Stadt"},"federalState":{"key":"07","name":"Rheinland-Pfalz"}},{"name":"Albrecht-Dürer-Str.","postalCode":"76829","locality":"Landau in der Pfalz","municipality":{"key":"07313000","name":"Landau in der Pfalz, Stadt","type":"Kreisfreie_Stadt"},"district":{"key":"07313","name":"Landau in der Pfalz, kreisfreie Stadt","type":"Kreisfreie_Stadt"},"federalState":{"key":"07","name":"Rheinland-Pfalz"}},{"name":"Alcide-de-Gasperi-Str.","postalCode":"76829","locality":"Landau in der Pfalz","municipality":{"key":"07313000","name":"Landau in der Pfalz, Stadt","type":"Kreisfreie_Stadt"},"district":{"key":"07313","name":"Landau in der Pfalz, kreisfreie Stadt","type":"Kreisfreie_Stadt"},"federalState":{"key":"07","name":"Rheinland-Pfalz"}},{"name":"Alois-Kraemer-Str.","postalCode":"76829","locality":"Landau in der Pfalz","municipality":{"key":"07313000","name":"Landau in der Pfalz, Stadt","type":"Kreisfreie_Stadt"},"district":{"key":"07313","name":"Landau in der Pfalz, kreisfreie Stadt","type":"Kreisfreie_Stadt"},"federalState":{"key":"07","name":"Rheinland-Pfalz"}},{"name":"Alte Arzheimer Landstrasse","postalCode":"76829","locality":"Landau in der Pfalz","municipality":{"key":"07313000","name":"Landau in der Pfalz, Stadt","type":"Kreisfreie_Stadt"},"district":{"key":"07313","name":"Landau in der Pfalz, kreisfreie Stadt","type":"Kreisfreie_Stadt"},"federalState":{"key":"07","name":"Rheinland-Pfalz"}},{"name":"Alte Bahnhofstr.","postalCode":"76829","locality":"Landau in der Pfalz","municipality":{"key":"07313000","name":"Landau in der Pfalz, Stadt","type":"Kreisfreie_Stadt"},"district":{"key":"07313","name":"Landau in der Pfalz, kreisfreie Stadt","type":"Kreisfreie_Stadt"},"federalState":{"key":"07","name":"Rheinland-Pfalz"}},{"name":"Alte Hintergasse","postalCode":"76829","locality":"Landau in der Pfalz","municipality":{"key":"07313000","name":"Landau in der Pfalz, Stadt","type":"Kreisfreie_Stadt"},"district":{"key":"07313","name":"Landau in der Pfalz, kreisfreie Stadt","type":"Kreisfreie_Stadt"},"federalState":{"key":"07","name":"Rheinland-Pfalz"}},{"name":"Alte Schulgasse","postalCode":"76831","locality":"Ilbesheim bei Landau in der Pfalz","municipality":{"key":"07337042","name":"Ilbesheim bei Landau in der Pfalz","type":"Kreisangehörige_Gemeinde"},"district":{"key":"07337","name":"Südliche Weinstraße","type":"Landkreis"},"federalState":{"key":"07","name":"Rheinland-Pfalz"}},{"name":"Am alten Güterbahnhof","postalCode":"76829","locality":"Landau in der Pfalz","municipality":{"key":"07313000","name":"Landau in der Pfalz, Stadt","type":"Kreisfreie_Stadt"},"district":{"key":"07313","name":"Landau in der Pfalz, kreisfreie Stadt","type":"Kreisfreie_Stadt"},"federalState":{"key":"07","name":"Rheinland-Pfalz"}},{"name":"Am Bahnhof","postalCode":"76829","locality":"Landau in der Pfalz","municipality":{"key":"07313000","name":"Landau in der Pfalz, Stadt","type":"Kreisfreie_Stadt"},"district":{"key":"07313","name":"Landau in der Pfalz, kreisfreie Stadt","type":"Kreisfreie_Stadt"},"federalState":{"key":"07","name":"Rheinland-Pfalz"}},{"name":"Am Birnbach","postalCode":"76829","locality":"Landau in der Pfalz","municipality":{"key":"07313000","name":"Landau in der Pfalz, Stadt","type":"Kreisfreie_Stadt"},"district":{"key":"07313","name":"Landau in der Pfalz, kreisfreie Stadt","type":"Kreisfreie_Stadt"},"federalState":{"key":"07","name":"Rheinland-Pfalz"}},{"name":"Am Birnbach","postalCode":"76831","locality":"Ilbesheim bei Landau in der Pfalz","municipality":{"key":"07337042","name":"Ilbesheim bei Landau in der Pfalz","type":"Kreisangehörige_Gemeinde"},"district":{"key":"07337","name":"Südliche Weinstraße","type":"Landkreis"},"federalState":{"key":"07","name":"Rheinland-Pfalz"}},{"name":"Am Brückengarten","postalCode":"76829","locality":"Landau in der Pfalz","municipality":{"key":"07313000","name":"Landau in der Pfalz, Stadt","type":"Kreisfreie_Stadt"},"district":{"key":"07313","name":"Landau in der Pfalz, kreisfreie Stadt","type":"Kreisfreie_Stadt"},"federalState":{"key":"07","name":"Rheinland-Pfalz"}},{"name":"Am Bürgergraben","postalCode":"76829","locality":"Landau in der Pfalz","municipality":{"key":"07313000","name":"Landau in der Pfalz, Stadt","type":"Kreisfreie_Stadt"},"district":{"key":"07313","name":"Landau in der Pfalz, kreisfreie Stadt","type":"Kreisfreie_Stadt"},"federalState":{"key":"07","name":"Rheinland-Pfalz"}},{"name":"Am Dorfbrunnen","postalCode":"76829","locality":"Landau in der Pfalz","municipality":{"key":"07313000","name":"Landau in der Pfalz, Stadt","type":"Kreisfreie_Stadt"},"district":{"key":"07313","name":"Landau in der Pfalz, kreisfreie Stadt","type":"Kreisfreie_Stadt"},"federalState":{"key":"07","name":"Rheinland-Pfalz"}},{"name":"Am Frankengarten","postalCode":"76829","locality":"Landau in der Pfalz","municipality":{"key":"07313000","name":"Landau in der Pfalz, Stadt","type":"Kreisfreie_Stadt"},"district":{"key":"07313","name":"Landau in der Pfalz, kreisfreie Stadt","type":"Kreisfreie_Stadt"},"federalState":{"key":"07","name":"Rheinland-Pfalz"}},{"name":"Am Friedhof","postalCode":"76831","locality":"Ilbesheim bei Landau in der Pfalz","municipality":{"key":"07337042","name":"Ilbesheim bei Landau in der Pfalz","type":"Kreisangehörige_Gemeinde"},"district":{"key":"07337","name":"Südliche Weinstraße","type":"Landkreis"},"federalState":{"key":"07","name":"Rheinland-Pfalz"}},{"name":"Am Frohnacker","postalCode":"76829","locality":"Landau in der Pfalz","municipality":{"key":"07313000","name":"Landau in der Pfalz, Stadt","type":"Kreisfreie_Stadt"},"district":{"key":"07313","name":"Landau in der Pfalz, kreisfreie Stadt","type":"Kreisfreie_Stadt"},"federalState":{"key":"07","name":"Rheinland-Pfalz"}},{"name":"Am Geisberg","postalCode":"76829","locality":"Landau in der Pfalz","municipality":{"key":"07313000","name":"Landau in der Pfalz, Stadt","type":"Kreisfreie_Stadt"},"district":{"key":"07313","name":"Landau in der Pfalz, kreisfreie Stadt","type":"Kreisfreie_Stadt"},"federalState":{"key":"07","name":"Rheinland-Pfalz"}},{"name":"Am Goethepark","postalCode":"76829","locality":"Landau in der Pfalz","municipality":{"key":"07313000","name":"Landau in der Pfalz, Stadt","type":"Kreisfreie_Stadt"},"district":{"key":"07313","name":"Landau in der Pfalz, kreisfreie Stadt","type":"Kreisfreie_Stadt"},"federalState":{"key":"07","name":"Rheinland-Pfalz"}},{"name":"Am Großgarten","postalCode":"76829","locality":"Landau in der Pfalz","municipality":{"key":"07313000","name":"Landau in der Pfalz, Stadt","type":"Kreisfreie_Stadt"},"district":{"key":"07313","name":"Landau in der Pfalz, kreisfreie Stadt","type":"Kreisfreie_Stadt"},"federalState":{"key":"07","name":"Rheinland-Pfalz"}},{"name":"Am Großmarkt","postalCode":"76829","locality":"Landau in der Pfalz","municipality":{"key":"07313000","name":"Landau in der Pfalz, Stadt","type":"Kreisfreie_Stadt"},"district":{"key":"07313","name":"Landau in der Pfalz, kreisfreie Stadt","type":"Kreisfreie_Stadt"},"federalState":{"key":"07","name":"Rheinland-Pfalz"}},{"name":"Am Gutleuthaus","postalCode":"76829","locality":"Landau in der Pfalz","municipality":{"key":"07313000","name":"Landau in der Pfalz, Stadt","type":"Kreisfreie_Stadt"},"district":{"key":"07313","name":"Landau in der Pfalz, kreisfreie Stadt","type":"Kreisfreie_Stadt"},"federalState":{"key":"07","name":"Rheinland-Pfalz"}},{"name":"Am Heidenweg","postalCode":"76829","locality":"Landau in der Pfalz","municipality":{"key":"07313000","name":"Landau in der Pfalz, Stadt","type":"Kreisfreie_Stadt"},"district":{"key":"07313","name":"Landau in der Pfalz, kreisfreie Stadt","type":"Kreisfreie_Stadt"},"federalState":{"key":"07","name":"Rheinland-Pfalz"}},{"name":"Am Heimlichen Eck","postalCode":"76829","locality":"Landau in der Pfalz","municipality":{"key":"07313000","name":"Landau in der Pfalz, Stadt","type":"Kreisfreie_Stadt"},"district":{"key":"07313","name":"Landau in der Pfalz, kreisfreie Stadt","type":"Kreisfreie_Stadt"},"federalState":{"key":"07","name":"Rheinland-Pfalz"}},{"name":"Am Hirschweg","postalCode":"76829","locality":"Landau in der Pfalz","municipality":{"key":"07313000","name":"Landau in der Pfalz, Stadt","type":"Kreisfreie_Stadt"},"district":{"key":"07313","name":"Landau in der Pfalz, kreisfreie Stadt","type":"Kreisfreie_Stadt"},"federalState":{"key":"07","name":"Rheinland-Pfalz"}},{"name":"Am Jagdstock","postalCode":"76829","locality":"Landau in der Pfalz","municipality":{"key":"07313000","name":"Landau in der Pfalz, Stadt","type":"Kreisfreie_Stadt"},"district":{"key":"07313","name":"Landau in der Pfalz, kreisfreie Stadt","type":"Kreisfreie_Stadt"},"federalState":{"key":"07","name":"Rheinland-Pfalz"}},{"name":"Am Kaiserbrunnen","postalCode":"76829","locality":"Landau in der Pfalz","municipality":{"key":"07313000","name":"Landau in der Pfalz, Stadt","type":"Kreisfreie_Stadt"},"district":{"key":"07313","name":"Landau in der Pfalz, kreisfreie Stadt","type":"Kreisfreie_Stadt"},"federalState":{"key":"07","name":"Rheinland-Pfalz"}},{"name":"Am Kindergarten","postalCode":"76829","locality":"Landau in der Pfalz","municipality":{"key":"07313000","name":"Landau in der Pfalz, Stadt","type":"Kreisfreie_Stadt"},"district":{"key":"07313","name":"Landau in der Pfalz, kreisfreie Stadt","type":"Kreisfreie_Stadt"},"federalState":{"key":"07","name":"Rheinland-Pfalz"}},{"name":"Am Kindergarten","postalCode":"76831","locality":"Ilbesheim bei Landau in der Pfalz","municipality":{"key":"07337042","name":"Ilbesheim bei Landau in der Pfalz","type":"Kreisangehörige_Gemeinde"},"district":{"key":"07337","name":"Südliche Weinstraße","type":"Landkreis"},"federalState":{"key":"07","name":"Rheinland-Pfalz"}},{"name":"Am Kohlwoog","postalCode":"76829","locality":"Landau in der Pfalz","municipality":{"key":"07313000","name":"Landau in der Pfalz, Stadt","type":"Kreisfreie_Stadt"},"district":{"key":"07313","name":"Landau in der Pfalz, kreisfreie Stadt","type":"Kreisfreie_Stadt"},"federalState":{"key":"07","name":"Rheinland-Pfalz"}},{"name":"Am Kreuzstein","postalCode":"76829","locality":"Landau in der Pfalz","municipality":{"key":"07313000","name":"Landau in der Pfalz, Stadt","type":"Kreisfreie_Stadt"},"district":{"key":"07313","name":"Landau in der Pfalz, kreisfreie Stadt","type":"Kreisfreie_Stadt"},"federalState":{"key":"07","name":"Rheinland-Pfalz"}},{"name":"Am Kronwerk","postalCode":"76829","locality":"Landau in der Pfalz","municipality":{"key":"07313000","name":"Landau in der Pfalz, Stadt","type":"Kreisfreie_Stadt"},"district":{"key":"07313","name":"Landau in der Pfalz, kreisfreie Stadt","type":"Kreisfreie_Stadt"},"federalState":{"key":"07","name":"Rheinland-Pfalz"}},{"name":"Am Kugelfang","postalCode":"76829","locality":"Landau in der Pfalz","municipality":{"key":"07313000","name":"Landau in der Pfalz, Stadt","type":"Kreisfreie_Stadt"},"district":{"key":"07313","name":"Landau in der Pfalz, kreisfreie Stadt","type":"Kreisfreie_Stadt"},"federalState":{"key":"07","name":"Rheinland-Pfalz"}},{"name":"Am Lohgraben","postalCode":"76829","locality":"Landau in der Pfalz","municipality":{"key":"07313000","name":"Landau in der Pfalz, Stadt","type":"Kreisfreie_Stadt"},"district":{"key":"07313","name":"Landau in der Pfalz, kreisfreie Stadt","type":"Kreisfreie_Stadt"},"federalState":{"key":"07","name":"Rheinland-Pfalz"}},{"name":"Am Neuberg","postalCode":"76829","locality":"Landau in der Pfalz","municipality":{"key":"07313000","name":"Landau in der Pfalz, Stadt","type":"Kreisfreie_Stadt"},"district":{"key":"07313","name":"Landau in der Pfalz, kreisfreie Stadt","type":"Kreisfreie_Stadt"},"federalState":{"key":"07","name":"Rheinland-Pfalz"}},{"name":"Am Rauhberg","postalCode":"76829","locality":"Landau in der Pfalz","municipality":{"key":"07313000","name":"Landau in der Pfalz, Stadt","type":"Kreisfreie_Stadt"},"district":{"key":"07313","name":"Landau in der Pfalz, kreisfreie Stadt","type":"Kreisfreie_Stadt"},"federalState":{"key":"07","name":"Rheinland-Pfalz"}},{"name":"Am Sandgraben","postalCode":"76829","locality":"Landau in der Pfalz","municipality":{"key":"07313000","name":"Landau in der Pfalz, Stadt","type":"Kreisfreie_Stadt"},"district":{"key":"07313","name":"Landau in der Pfalz, kreisfreie Stadt","type":"Kreisfreie_Stadt"},"federalState":{"key":"07","name":"Rheinland-Pfalz"}},{"name":"Am Schänzel","postalCode":"76829","locality":"Landau in der Pfalz","municipality":{"key":"07313000","name":"Landau in der Pfalz, Stadt","type":"Kreisfreie_Stadt"},"district":{"key":"07313","name":"Landau in der Pfalz, kreisfreie Stadt","type":"Kreisfreie_Stadt"},"federalState":{"key":"07","name":"Rheinland-Pfalz"}},{"name":"Am Schlössel","postalCode":"76829","locality":"Landau in der Pfalz","municipality":{"key":"07313000","name":"Landau in der Pfalz, Stadt","type":"Kreisfreie_Stadt"},"district":{"key":"07313","name":"Landau in der Pfalz, kreisfreie Stadt","type":"Kreisfreie_Stadt"},"federalState":{"key":"07","name":"Rheinland-Pfalz"}},{"name":"Am Schulhof","postalCode":"76829","locality":"Landau in der Pfalz","municipality":{"key":"07313000","name":"Landau in der Pfalz, Stadt","type":"Kreisfreie_Stadt"},"district":{"key":"07313","name":"Landau in der Pfalz, kreisfreie Stadt","type":"Kreisfreie_Stadt"},"federalState":{"key":"07","name":"Rheinland-Pfalz"}},{"name":"Amselweg","postalCode":"76829","locality":"Landau in der Pfalz","municipality":{"key":"07313000","name":"Landau in der Pfalz, Stadt","type":"Kreisfreie_Stadt"},"district":{"key":"07313","name":"Landau in der Pfalz, kreisfreie Stadt","type":"Kreisfreie_Stadt"},"federalState":{"key":"07","name":"Rheinland-Pfalz"}},{"name":"Am Spitalgarten","postalCode":"76829","locality":"Landau in der Pfalz","municipality":{"key":"07313000","name":"Landau in der Pfalz, Stadt","type":"Kreisfreie_Stadt"},"district":{"key":"07313","name":"Landau in der Pfalz, kreisfreie Stadt","type":"Kreisfreie_Stadt"},"federalState":{"key":"07","name":"Rheinland-Pfalz"}},{"name":"Am Sportplatz","postalCode":"76829","locality":"Landau in der Pfalz","municipality":{"key":"07313000","name":"Landau in der Pfalz, Stadt","type":"Kreisfreie_Stadt"},"district":{"key":"07313","name":"Landau in der Pfalz, kreisfreie Stadt","type":"Kreisfreie_Stadt"},"federalState":{"key":"07","name":"Rheinland-Pfalz"}},{"name":"Am Wäldchen","postalCode":"76829","locality":"Landau in der Pfalz","municipality":{"key":"07313000","name":"Landau in der Pfalz, Stadt","type":"Kreisfreie_Stadt"},"district":{"key":"07313","name":"Landau in der Pfalz, kreisfreie Stadt","type":"Kreisfreie_Stadt"},"federalState":{"key":"07","name":"Rheinland-Pfalz"}},{"name":"Bachgasse","postalCode":"76831","locality":"Ilbesheim bei Landau in der Pfalz","municipality":{"key":"07337042","name":"Ilbesheim bei Landau in der Pfalz","type":"Kreisangehörige_Gemeinde"},"district":{"key":"07337","name":"Südliche Weinstraße","type":"Landkreis"},"federalState":{"key":"07","name":"Rheinland-Pfalz"}},{"name":"Badstr.","postalCode":"76829","locality":"Landau in der Pfalz","municipality":{"key":"07313000","name":"Landau in der Pfalz, Stadt","type":"Kreisfreie_Stadt"},"district":{"key":"07313","name":"Landau in der Pfalz, kreisfreie Stadt","type":"Kreisfreie_Stadt"},"federalState":{"key":"07","name":"Rheinland-Pfalz"}},{"name":"Bahnhofstr.","postalCode":"76829","locality":"Landau in der Pfalz","municipality":{"key":"07313000","name":"Landau in der Pfalz, Stadt","type":"Kreisfreie_Stadt"},"district":{"key":"07313","name":"Landau in der Pfalz, kreisfreie Stadt","type":"Kreisfreie_Stadt"},"federalState":{"key":"07","name":"Rheinland-Pfalz"}},{"name":"Barbarossastr.","postalCode":"76829","locality":"Landau in der Pfalz","municipality":{"key":"07313000","name":"Landau in der Pfalz, Stadt","type":"Kreisfreie_Stadt"},"district":{"key":"07313","name":"Landau in der Pfalz, kreisfreie Stadt","type":"Kreisfreie_Stadt"},"federalState":{"key":"07","name":"Rheinland-Pfalz"}},{"name":"Batschkastr.","postalCode":"76829","locality":"Landau in der Pfalz","municipality":{"key":"07313000","name":"Landau in der Pfalz, Stadt","type":"Kreisfreie_Stadt"},"district":{"key":"07313","name":"Landau in der Pfalz, kreisfreie Stadt","type":"Kreisfreie_Stadt"},"federalState":{"key":"07","name":"Rheinland-Pfalz"}},{"name":"Bauerngasse","postalCode":"76829","locality":"Landau in der Pfalz","municipality":{"key":"07313000","name":"Landau in der Pfalz, Stadt","type":"Kreisfreie_Stadt"},"district":{"key":"07313","name":"Landau in der Pfalz, kreisfreie Stadt","type":"Kreisfreie_Stadt"},"federalState":{"key":"07","name":"Rheinland-Pfalz"}},{"name":"Beethovenstr.","postalCode":"76829","locality":"Landau in der Pfalz","municipality":{"key":"07313000","name":"Landau in der Pfalz, Stadt","type":"Kreisfreie_Stadt"},"district":{"key":"07313","name":"Landau in der Pfalz, kreisfreie Stadt","type":"Kreisfreie_Stadt"},"federalState":{"key":"07","name":"Rheinland-Pfalz"}},{"name":"Behringstr.","postalCode":"76829","locality":"Landau in der Pfalz","municipality":{"key":"07313000","name":"Landau in der Pfalz, Stadt","type":"Kreisfreie_Stadt"},"district":{"key":"07313","name":"Landau in der Pfalz, kreisfreie Stadt","type":"Kreisfreie_Stadt"},"federalState":{"key":"07","name":"Rheinland-Pfalz"}},{"name":"Berliner Str.","postalCode":"76829","locality":"Landau in der Pfalz","municipality":{"key":"07313000","name":"Landau in der Pfalz, Stadt","type":"Kreisfreie_Stadt"},"district":{"key":"07313","name":"Landau in der Pfalz, kreisfreie Stadt","type":"Kreisfreie_Stadt"},"federalState":{"key":"07","name":"Rheinland-Pfalz"}},{"name":"Berwartsteinstr.","postalCode":"76829","locality":"Landau in der Pfalz","municipality":{"key":"07313000","name":"Landau in der Pfalz, Stadt","type":"Kreisfreie_Stadt"},"district":{"key":"07313","name":"Landau in der Pfalz, kreisfreie Stadt","type":"Kreisfreie_Stadt"},"federalState":{"key":"07","name":"Rheinland-Pfalz"}},{"name":"Billigheimer Weg","postalCode":"76829","locality":"Landau in der Pfalz","municipality":{"key":"07313000","name":"Landau in der Pfalz, Stadt","type":"Kreisfreie_Stadt"},"district":{"key":"07313","name":"Landau in der Pfalz, kreisfreie Stadt","type":"Kreisfreie_Stadt"},"federalState":{"key":"07","name":"Rheinland-Pfalz"}},{"name":"Birkenstr.","postalCode":"76829","locality":"Landau in der Pfalz","municipality":{"key":"07313000","name":"Landau in der Pfalz, Stadt","type":"Kreisfreie_Stadt"},"district":{"key":"07313","name":"Landau in der Pfalz, kreisfreie Stadt","type":"Kreisfreie_Stadt"},"federalState":{"key":"07","name":"Rheinland-Pfalz"}},{"name":"Birkenthalstr.","postalCode":"76857","locality":"Landau in der Pfalz","municipality":{"key":"07313000","name":"Landau in der Pfalz, Stadt","type":"Kreisfreie_Stadt"},"district":{"key":"07313","name":"Landau in der Pfalz, kreisfreie Stadt","type":"Kreisfreie_Stadt"},"federalState":{"key":"07","name":"Rheinland-Pfalz"}},{"name":"Birnbachstr.","postalCode":"76829","locality":"Landau in der Pfalz","municipality":{"key":"07313000","name":"Landau in der Pfalz, Stadt","type":"Kreisfreie_Stadt"},"district":{"key":"07313","name":"Landau in der Pfalz, kreisfreie Stadt","type":"Kreisfreie_Stadt"},"federalState":{"key":"07","name":"Rheinland-Pfalz"}},{"name":"Birnbaumstr.","postalCode":"76829","locality":"Landau in der Pfalz","municipality":{"key":"07313000","name":"Landau in der Pfalz, Stadt","type":"Kreisfreie_Stadt"},"district":{"key":"07313","name":"Landau in der Pfalz, kreisfreie Stadt","type":"Kreisfreie_Stadt"},"federalState":{"key":"07","name":"Rheinland-Pfalz"}},{"name":"Bischof-Hugo-Str.","postalCode":"76829","locality":"Landau in der Pfalz","municipality":{"key":"07313000","name":"Landau in der Pfalz, Stadt","type":"Kreisfreie_Stadt"},"district":{"key":"07313","name":"Landau in der Pfalz, kreisfreie Stadt","type":"Kreisfreie_Stadt"},"federalState":{"key":"07","name":"Rheinland-Pfalz"}},{"name":"Bischof-von-Weis-Str.","postalCode":"76829","locality":"Landau in der Pfalz","municipality":{"key":"07313000","name":"Landau in der Pfalz, Stadt","type":"Kreisfreie_Stadt"},"district":{"key":"07313","name":"Landau in der Pfalz, kreisfreie Stadt","type":"Kreisfreie_Stadt"},"federalState":{"key":"07","name":"Rheinland-Pfalz"}},{"name":"Bismarckstr.","postalCode":"76829","locality":"Landau in der Pfalz","municipality":{"key":"07313000","name":"Landau in der Pfalz, Stadt","type":"Kreisfreie_Stadt"},"district":{"key":"07313","name":"Landau in der Pfalz, kreisfreie Stadt","type":"Kreisfreie_Stadt"},"federalState":{"key":"07","name":"Rheinland-Pfalz"}},{"name":"Böchinger Str.","postalCode":"76829","locality":"Landau in der Pfalz","municipality":{"key":"07313000","name":"Landau in der Pfalz, Stadt","type":"Kreisfreie_Stadt"},"district":{"key":"07313","name":"Landau in der Pfalz, kreisfreie Stadt","type":"Kreisfreie_Stadt"},"federalState":{"key":"07","name":"Rheinland-Pfalz"}},{"name":"Böchinger Weg","postalCode":"76829","locality":"Landau in der Pfalz","municipality":{"key":"07313000","name":"Landau in der Pfalz, Stadt","type":"Kreisfreie_Stadt"},"district":{"key":"07313","name":"Landau in der Pfalz, kreisfreie Stadt","type":"Kreisfreie_Stadt"},"federalState":{"key":"07","name":"Rheinland-Pfalz"}},{"name":"Bodelschwinghstr.","postalCode":"76829","locality":"Landau in der Pfalz","municipality":{"key":"07313000","name":"Landau in der Pfalz, Stadt","type":"Kreisfreie_Stadt"},"district":{"key":"07313","name":"Landau in der Pfalz, kreisfreie Stadt","type":"Kreisfreie_Stadt"},"federalState":{"key":"07","name":"Rheinland-Pfalz"}},{"name":"Boelckestr.","postalCode":"76829","locality":"Landau in der Pfalz","municipality":{"key":"07313000","name":"Landau in der Pfalz, Stadt","type":"Kreisfreie_Stadt"},"district":{"key":"07313","name":"Landau in der Pfalz, kreisfreie Stadt","type":"Kreisfreie_Stadt"},"federalState":{"key":"07","name":"Rheinland-Pfalz"}},{"name":"Bornbachstr.","postalCode":"76829","locality":"Landau in der Pfalz","municipality":{"key":"07313000","name":"Landau in der Pfalz, Stadt","type":"Kreisfreie_Stadt"},"district":{"key":"07313","name":"Landau in der Pfalz, kreisfreie Stadt","type":"Kreisfreie_Stadt"},"federalState":{"key":"07","name":"Rheinland-Pfalz"}},{"name":"Bornergasse","postalCode":"76829","locality":"Landau in der Pfalz","municipality":{"key":"07313000","name":"Landau in der Pfalz, Stadt","type":"Kreisfreie_Stadt"},"district":{"key":"07313","name":"Landau in der Pfalz, kreisfreie Stadt","type":"Kreisfreie_Stadt"},"federalState":{"key":"07","name":"Rheinland-Pfalz"}},{"name":"Bornheimer Str.","postalCode":"76829","locality":"Landau in der Pfalz","municipality":{"key":"07313000","name":"Landau in der Pfalz, Stadt","type":"Kreisfreie_Stadt"},"district":{"key":"07313","name":"Landau in der Pfalz, kreisfreie Stadt","type":"Kreisfreie_Stadt"},"federalState":{"key":"07","name":"Rheinland-Pfalz"}},{"name":"Bornheimer Weg","postalCode":"76829","locality":"Landau in der Pfalz","municipality":{"key":"07313000","name":"Landau in der Pfalz, Stadt","type":"Kreisfreie_Stadt"},"district":{"key":"07313","name":"Landau in der Pfalz, kreisfreie Stadt","type":"Kreisfreie_Stadt"},"federalState":{"key":"07","name":"Rheinland-Pfalz"}},{"name":"Boschweg","postalCode":"76829","locality":"Landau in der Pfalz","municipality":{"key":"07313000","name":"Landau in der Pfalz, Stadt","type":"Kreisfreie_Stadt"},"district":{"key":"07313","name":"Landau in der Pfalz, kreisfreie Stadt","type":"Kreisfreie_Stadt"},"federalState":{"key":"07","name":"Rheinland-Pfalz"}},{"name":"Brandenburger Str.","postalCode":"76829","locality":"Landau in der Pfalz","municipality":{"key":"07313000","name":"Landau in der Pfalz, Stadt","type":"Kreisfreie_Stadt"},"district":{"key":"07313","name":"Landau in der Pfalz, kreisfreie Stadt","type":"Kreisfreie_Stadt"},"federalState":{"key":"07","name":"Rheinland-Pfalz"}},{"name":"Breitenbacher Weg","postalCode":"76831","locality":"Ilbesheim bei Landau in der Pfalz","municipality":{"key":"07337042","name":"Ilbesheim bei Landau in der Pfalz","type":"Kreisangehörige_Gemeinde"},"district":{"key":"07337","name":"Südliche Weinstraße","type":"Landkreis"},"federalState":{"key":"07","name":"Rheinland-Pfalz"}},{"name":"Breiter Weg","postalCode":"76829","locality":"Landau in der Pfalz","municipality":{"key":"07313000","name":"Landau in der Pfalz, Stadt","type":"Kreisfreie_Stadt"},"district":{"key":"07313","name":"Landau in der Pfalz, kreisfreie Stadt","type":"Kreisfreie_Stadt"},"federalState":{"key":"07","name":"Rheinland-Pfalz"}},{"name":"Breslauer Str.","postalCode":"76829","locality":"Landau in der Pfalz","municipality":{"key":"07313000","name":"Landau in der Pfalz, Stadt","type":"Kreisfreie_Stadt"},"district":{"key":"07313","name":"Landau in der Pfalz, kreisfreie Stadt","type":"Kreisfreie_Stadt"},"federalState":{"key":"07","name":"Rheinland-Pfalz"}},{"name":"Brühlstr.","postalCode":"76829","locality":"Landau in der Pfalz","municipality":{"key":"07313000","name":"Landau in der Pfalz, Stadt","type":"Kreisfreie_Stadt"},"district":{"key":"07313","name":"Landau in der Pfalz, kreisfreie Stadt","type":"Kreisfreie_Stadt"},"federalState":{"key":"07","name":"Rheinland-Pfalz"}},{"name":"Brünnelweg","postalCode":"76829","locality":"Landau in der Pfalz","municipality":{"key":"07313000","name":"Landau in der Pfalz, Stadt","type":"Kreisfreie_Stadt"},"district":{"key":"07313","name":"Landau in der Pfalz, kreisfreie Stadt","type":"Kreisfreie_Stadt"},"federalState":{"key":"07","name":"Rheinland-Pfalz"}},{"name":"Bubengässchen","postalCode":"76829","locality":"Landau in der Pfalz","municipality":{"key":"07313000","name":"Landau in der Pfalz, Stadt","type":"Kreisfreie_Stadt"},"district":{"key":"07313","name":"Landau in der Pfalz, kreisfreie Stadt","type":"Kreisfreie_Stadt"},"federalState":{"key":"07","name":"Rheinland-Pfalz"}},{"name":"Bubenhof","postalCode":"76829","locality":"Landau in der Pfalz","municipality":{"key":"07313000","name":"Landau in der Pfalz, Stadt","type":"Kreisfreie_Stadt"},"district":{"key":"07313","name":"Landau in der Pfalz, kreisfreie Stadt","type":"Kreisfreie_Stadt"},"federalState":{"key":"07","name":"Rheinland-Pfalz"}},{"name":"Buchenlandstr.","postalCode":"76829","locality":"Landau in der Pfalz","municipality":{"key":"07313000","name":"Landau in der Pfalz, Stadt","type":"Kreisfreie_Stadt"},"district":{"key":"07313","name":"Landau in der Pfalz, kreisfreie Stadt","type":"Kreisfreie_Stadt"},"federalState":{"key":"07","name":"Rheinland-Pfalz"}},{"name":"Buchfinkenstr.","postalCode":"76829","locality":"Landau in der Pfalz","municipality":{"key":"07313000","name":"Landau in der Pfalz, Stadt","type":"Kreisfreie_Stadt"},"district":{"key":"07313","name":"Landau in der Pfalz, kreisfreie Stadt","type":"Kreisfreie_Stadt"},"federalState":{"key":"07","name":"Rheinland-Pfalz"}},{"name":"Bundschuhstr.","postalCode":"76829","locality":"Landau in der Pfalz","municipality":{"key":"07313000","name":"Landau in der Pfalz, Stadt","type":"Kreisfreie_Stadt"},"district":{"key":"07313","name":"Landau in der Pfalz, kreisfreie Stadt","type":"Kreisfreie_Stadt"},"federalState":{"key":"07","name":"Rheinland-Pfalz"}},{"name":"Bürgerstr.","postalCode":"76829","locality":"Landau in der Pfalz","municipality":{"key":"07313000","name":"Landau in der Pfalz, Stadt","type":"Kreisfreie_Stadt"},"district":{"key":"07313","name":"Landau in der Pfalz, kreisfreie Stadt","type":"Kreisfreie_Stadt"},"federalState":{"key":"07","name":"Rheinland-Pfalz"}},{"name":"Burgunderstr.","postalCode":"76829","locality":"Landau in der Pfalz","municipality":{"key":"07313000","name":"Landau in der Pfalz, Stadt","type":"Kreisfreie_Stadt"},"district":{"key":"07313","name":"Landau in der Pfalz, kreisfreie Stadt","type":"Kreisfreie_Stadt"},"federalState":{"key":"07","name":"Rheinland-Pfalz"}},{"name":"Carl-Bosch-Str.","postalCode":"76829","locality":"Landau in der Pfalz","municipality":{"key":"07313000","name":"Landau in der Pfalz, Stadt","type":"Kreisfreie_Stadt"},"district":{"key":"07313","name":"Landau in der Pfalz, kreisfreie Stadt","type":"Kreisfreie_Stadt"},"federalState":{"key":"07","name":"Rheinland-Pfalz"}},{"name":"Charles-de-Gaulle-Str.","postalCode":"76829","locality":"Landau in der Pfalz","municipality":{"key":"07313000","name":"Landau in der Pfalz, Stadt","type":"Kreisfreie_Stadt"},"district":{"key":"07313","name":"Landau in der Pfalz, kreisfreie Stadt","type":"Kreisfreie_Stadt"},"federalState":{"key":"07","name":"Rheinland-Pfalz"}},{"name":"Cornichonstr.","postalCode":"76829","locality":"Landau in der Pfalz","municipality":{"key":"07313000","name":"Landau in der Pfalz, Stadt","type":"Kreisfreie_Stadt"},"district":{"key":"07313","name":"Landau in der Pfalz, kreisfreie Stadt","type":"Kreisfreie_Stadt"},"federalState":{"key":"07","name":"Rheinland-Pfalz"}},{"name":"Dagobertstr.","postalCode":"76829","locality":"Landau in der Pfalz","municipality":{"key":"07313000","name":"Landau in der Pfalz, Stadt","type":"Kreisfreie_Stadt"},"district":{"key":"07313","name":"Landau in der Pfalz, kreisfreie Stadt","type":"Kreisfreie_Stadt"},"federalState":{"key":"07","name":"Rheinland-Pfalz"}},{"name":"Dagobertsweg","postalCode":"76829","locality":"Landau in der Pfalz","municipality":{"key":"07313000","name":"Landau in der Pfalz, Stadt","type":"Kreisfreie_Stadt"},"district":{"key":"07313","name":"Landau in der Pfalz, kreisfreie Stadt","type":"Kreisfreie_Stadt"},"federalState":{"key":"07","name":"Rheinland-Pfalz"}},{"name":"Dahlienstr.","postalCode":"76829","locality":"Landau in der Pfalz","municipality":{"key":"07313000","name":"Landau in der Pfalz, Stadt","type":"Kreisfreie_Stadt"},"district":{"key":"07313","name":"Landau in der Pfalz, kreisfreie Stadt","type":"Kreisfreie_Stadt"},"federalState":{"key":"07","name":"Rheinland-Pfalz"}},{"name":"Dammheimer Str.","postalCode":"76829","locality":"Landau in der Pfalz","municipality":{"key":"07313000","name":"Landau in der Pfalz, Stadt","type":"Kreisfreie_Stadt"},"district":{"key":"07313","name":"Landau in der Pfalz, kreisfreie Stadt","type":"Kreisfreie_Stadt"},"federalState":{"key":"07","name":"Rheinland-Pfalz"}},{"name":"Dammühlstr.","postalCode":"76829","locality":"Landau in der Pfalz","municipality":{"key":"07313000","name":"Landau in der Pfalz, Stadt","type":"Kreisfreie_Stadt"},"district":{"key":"07313","name":"Landau in der Pfalz, kreisfreie Stadt","type":"Kreisfreie_Stadt"},"federalState":{"key":"07","name":"Rheinland-Pfalz"}},{"name":"Daniel-Knobloch-Str.","postalCode":"76829","locality":"Landau in der Pfalz","municipality":{"key":"07313000","name":"Landau in der Pfalz, Stadt","type":"Kreisfreie_Stadt"},"district":{"key":"07313","name":"Landau in der Pfalz, kreisfreie Stadt","type":"Kreisfreie_Stadt"},"federalState":{"key":"07","name":"Rheinland-Pfalz"}},{"name":"Danziger Platz","postalCode":"76829","locality":"Landau in der Pfalz","municipality":{"key":"07313000","name":"Landau in der Pfalz, Stadt","type":"Kreisfreie_Stadt"},"district":{"key":"07313","name":"Landau in der Pfalz, kreisfreie Stadt","type":"Kreisfreie_Stadt"},"federalState":{"key":"07","name":"Rheinland-Pfalz"}},{"name":"Dorfstr.","postalCode":"76829","locality":"Landau in der Pfalz","municipality":{"key":"07313000","name":"Landau in der Pfalz, Stadt","type":"Kreisfreie_Stadt"},"district":{"key":"07313","name":"Landau in der Pfalz, kreisfreie Stadt","type":"Kreisfreie_Stadt"},"federalState":{"key":"07","name":"Rheinland-Pfalz"}},{"name":"Dörrenbergstr.","postalCode":"76829","locality":"Landau in der Pfalz","municipality":{"key":"07313000","name":"Landau in der Pfalz, Stadt","type":"Kreisfreie_Stadt"},"district":{"key":"07313","name":"Landau in der Pfalz, kreisfreie Stadt","type":"Kreisfreie_Stadt"},"federalState":{"key":"07","name":"Rheinland-Pfalz"}},{"name":"Dörstelstr.","postalCode":"76829","locality":"Landau in der Pfalz","municipality":{"key":"07313000","name":"Landau in der Pfalz, Stadt","type":"Kreisfreie_Stadt"},"district":{"key":"07313","name":"Landau in der Pfalz, kreisfreie Stadt","type":"Kreisfreie_Stadt"},"federalState":{"key":"07","name":"Rheinland-Pfalz"}},{"name":"Drachenfelsstr.","postalCode":"76829","locality":"Landau in der Pfalz","municipality":{"key":"07313000","name":"Landau in der Pfalz, Stadt","type":"Kreisfreie_Stadt"},"district":{"key":"07313","name":"Landau in der Pfalz, kreisfreie Stadt","type":"Kreisfreie_Stadt"},"federalState":{"key":"07","name":"Rheinland-Pfalz"}},{"name":"Dresdener Str.","postalCode":"76829","locality":"Landau in der Pfalz","municipality":{"key":"07313000","name":"Landau in der Pfalz, Stadt","type":"Kreisfreie_Stadt"},"district":{"key":"07313","name":"Landau in der Pfalz, kreisfreie Stadt","type":"Kreisfreie_Stadt"},"federalState":{"key":"07","name":"Rheinland-Pfalz"}},{"name":"Drosselweg","postalCode":"76829","locality":"Landau in der Pfalz","municipality":{"key":"07313000","name":"Landau in der Pfalz, Stadt","type":"Kreisfreie_Stadt"},"district":{"key":"07313","name":"Landau in der Pfalz, kreisfreie Stadt","type":"Kreisfreie_Stadt"},"federalState":{"key":"07","name":"Rheinland-Pfalz"}},{"name":"Ebernburgstr.","postalCode":"76829","locality":"Landau in der Pfalz","municipality":{"key":"07313000","name":"Landau in der Pfalz, Stadt","type":"Kreisfreie_Stadt"},"district":{"key":"07313","name":"Landau in der Pfalz, kreisfreie Stadt","type":"Kreisfreie_Stadt"},"federalState":{"key":"07","name":"Rheinland-Pfalz"}},{"name":"Eckenerstr.","postalCode":"76829","locality":"Landau in der Pfalz","municipality":{"key":"07313000","name":"Landau in der Pfalz, Stadt","type":"Kreisfreie_Stadt"},"district":{"key":"07313","name":"Landau in der Pfalz, kreisfreie Stadt","type":"Kreisfreie_Stadt"},"federalState":{"key":"07","name":"Rheinland-Pfalz"}},{"name":"Edith-Stein-Platz","postalCode":"76829","locality":"Landau in der Pfalz","municipality":{"key":"07313000","name":"Landau in der Pfalz, Stadt","type":"Kreisfreie_Stadt"},"district":{"key":"07313","name":"Landau in der Pfalz, kreisfreie Stadt","type":"Kreisfreie_Stadt"},"federalState":{"key":"07","name":"Rheinland-Pfalz"}},{"name":"Eichenstr.","postalCode":"76829","locality":"Landau in der Pfalz","municipality":{"key":"07313000","name":"Landau in der Pfalz, Stadt","type":"Kreisfreie_Stadt"},"district":{"key":"07313","name":"Landau in der Pfalz, kreisfreie Stadt","type":"Kreisfreie_Stadt"},"federalState":{"key":"07","name":"Rheinland-Pfalz"}},{"name":"Eichreisweg","postalCode":"76829","locality":"Landau in der Pfalz","municipality":{"key":"07313000","name":"Landau in der Pfalz, Stadt","type":"Kreisfreie_Stadt"},"district":{"key":"07313","name":"Landau in der Pfalz, kreisfreie Stadt","type":"Kreisfreie_Stadt"},"federalState":{"key":"07","name":"Rheinland-Pfalz"}},{"name":"Elias-Grünebaum-Platz","postalCode":"76829","locality":"Landau in der Pfalz","municipality":{"key":"07313000","name":"Landau in der Pfalz, Stadt","type":"Kreisfreie_Stadt"},"district":{"key":"07313","name":"Landau in der Pfalz, kreisfreie Stadt","type":"Kreisfreie_Stadt"},"federalState":{"key":"07","name":"Rheinland-Pfalz"}},{"name":"Elisabethenstr.","postalCode":"76829","locality":"Landau in der Pfalz","municipality":{"key":"07313000","name":"Landau in der Pfalz, Stadt","type":"Kreisfreie_Stadt"},"district":{"key":"07313","name":"Landau in der Pfalz, kreisfreie Stadt","type":"Kreisfreie_Stadt"},"federalState":{"key":"07","name":"Rheinland-Pfalz"}},{"name":"Elsterweg","postalCode":"76829","locality":"Landau in der Pfalz","municipality":{"key":"07313000","name":"Landau in der Pfalz, Stadt","type":"Kreisfreie_Stadt"},"district":{"key":"07313","name":"Landau in der Pfalz, kreisfreie Stadt","type":"Kreisfreie_Stadt"},"federalState":{"key":"07","name":"Rheinland-Pfalz"}},{"name":"Emich-von-Leiningen-Str.","postalCode":"76829","locality":"Landau in der Pfalz","municipality":{"key":"07313000","name":"Landau in der Pfalz, Stadt","type":"Kreisfreie_Stadt"},"district":{"key":"07313","name":"Landau in der Pfalz, kreisfreie Stadt","type":"Kreisfreie_Stadt"},"federalState":{"key":"07","name":"Rheinland-Pfalz"}},{"name":"Emma-Geenen-Str.","postalCode":"76829","locality":"Landau in der Pfalz","municipality":{"key":"07313000","name":"Landau in der Pfalz, Stadt","type":"Kreisfreie_Stadt"},"district":{"key":"07313","name":"Landau in der Pfalz, kreisfreie Stadt","type":"Kreisfreie_Stadt"},"federalState":{"key":"07","name":"Rheinland-Pfalz"}},{"name":"Emma-Maxon-Str.","postalCode":"76829","locality":"Landau in der Pfalz","municipality":{"key":"07313000","name":"Landau in der Pfalz, Stadt","type":"Kreisfreie_Stadt"},"district":{"key":"07313","name":"Landau in der Pfalz, kreisfreie Stadt","type":"Kreisfreie_Stadt"},"federalState":{"key":"07","name":"Rheinland-Pfalz"}},{"name":"Engelsgasse","postalCode":"76829","locality":"Landau in der Pfalz","municipality":{"key":"07313000","name":"Landau in der Pfalz, Stadt","type":"Kreisfreie_Stadt"},"district":{"key":"07313","name":"Landau in der Pfalz, kreisfreie Stadt","type":"Kreisfreie_Stadt"},"federalState":{"key":"07","name":"Rheinland-Pfalz"}},{"name":"Erlenbachstr.","postalCode":"76829","locality":"Landau in der Pfalz","municipality":{"key":"07313000","name":"Landau in der Pfalz, Stadt","type":"Kreisfreie_Stadt"},"district":{"key":"07313","name":"Landau in der Pfalz, kreisfreie Stadt","type":"Kreisfreie_Stadt"},"federalState":{"key":"07","name":"Rheinland-Pfalz"}},{"name":"Ernst-Gerhard-Weg","postalCode":"76829","locality":"Landau in der Pfalz","municipality":{"key":"07313000","name":"Landau in der Pfalz, Stadt","type":"Kreisfreie_Stadt"},"district":{"key":"07313","name":"Landau in der Pfalz, kreisfreie Stadt","type":"Kreisfreie_Stadt"},"federalState":{"key":"07","name":"Rheinland-Pfalz"}},{"name":"Erzabt-Josef-Koch-Str.","postalCode":"76829","locality":"Landau in der Pfalz","municipality":{"key":"07313000","name":"Landau in der Pfalz, Stadt","type":"Kreisfreie_Stadt"},"district":{"key":"07313","name":"Landau in der Pfalz, kreisfreie Stadt","type":"Kreisfreie_Stadt"},"federalState":{"key":"07","name":"Rheinland-Pfalz"}},{"name":"Eutzinger Str.","postalCode":"76829","locality":"Landau in der Pfalz","municipality":{"key":"07313000","name":"Landau in der Pfalz, Stadt","type":"Kreisfreie_Stadt"},"district":{"key":"07313","name":"Landau in der Pfalz, kreisfreie Stadt","type":"Kreisfreie_Stadt"},"federalState":{"key":"07","name":"Rheinland-Pfalz"}},{"name":"Eythstr.","postalCode":"76829","locality":"Landau in der Pfalz","municipality":{"key":"07313000","name":"Landau in der Pfalz, Stadt","type":"Kreisfreie_Stadt"},"district":{"key":"07313","name":"Landau in der Pfalz, kreisfreie Stadt","type":"Kreisfreie_Stadt"},"federalState":{"key":"07","name":"Rheinland-Pfalz"}},{"name":"Falkenburgstr.","postalCode":"76829","locality":"Landau in der Pfalz","municipality":{"key":"07313000","name":"Landau in der Pfalz, Stadt","type":"Kreisfreie_Stadt"},"district":{"key":"07313","name":"Landau in der Pfalz, kreisfreie Stadt","type":"Kreisfreie_Stadt"},"federalState":{"key":"07","name":"Rheinland-Pfalz"}},{"name":"Falkenstr.","postalCode":"76829","locality":"Landau in der Pfalz","municipality":{"key":"07313000","name":"Landau in der Pfalz, Stadt","type":"Kreisfreie_Stadt"},"district":{"key":"07313","name":"Landau in der Pfalz, kreisfreie Stadt","type":"Kreisfreie_Stadt"},"federalState":{"key":"07","name":"Rheinland-Pfalz"}},{"name":"Fasanenweg","postalCode":"76829","locality":"Landau in der Pfalz","municipality":{"key":"07313000","name":"Landau in der Pfalz, Stadt","type":"Kreisfreie_Stadt"},"district":{"key":"07313","name":"Landau in der Pfalz, kreisfreie Stadt","type":"Kreisfreie_Stadt"},"federalState":{"key":"07","name":"Rheinland-Pfalz"}},{"name":"Fassendeichstr.","postalCode":"76829","locality":"Landau in der Pfalz","municipality":{"key":"07313000","name":"Landau in der Pfalz, Stadt","type":"Kreisfreie_Stadt"},"district":{"key":"07313","name":"Landau in der Pfalz, kreisfreie Stadt","type":"Kreisfreie_Stadt"},"federalState":{"key":"07","name":"Rheinland-Pfalz"}},{"name":"Fassenteich","postalCode":"76857","locality":"Landau in der Pfalz","municipality":{"key":"07313000","name":"Landau in der Pfalz, Stadt","type":"Kreisfreie_Stadt"},"district":{"key":"07313","name":"Landau in der Pfalz, kreisfreie Stadt","type":"Kreisfreie_Stadt"},"federalState":{"key":"07","name":"Rheinland-Pfalz"}},{"name":"Ferdinand-Koch-Str.","postalCode":"76829","locality":"Landau in der Pfalz","municipality":{"key":"07313000","name":"Landau in der Pfalz, Stadt","type":"Kreisfreie_Stadt"},"district":{"key":"07313","name":"Landau in der Pfalz, kreisfreie Stadt","type":"Kreisfreie_Stadt"},"federalState":{"key":"07","name":"Rheinland-Pfalz"}},{"name":"Feuerbachstr.","postalCode":"76829","locality":"Landau in der Pfalz","municipality":{"key":"07313000","name":"Landau in der Pfalz, Stadt","type":"Kreisfreie_Stadt"},"district":{"key":"07313","name":"Landau in der Pfalz, kreisfreie Stadt","type":"Kreisfreie_Stadt"},"federalState":{"key":"07","name":"Rheinland-Pfalz"}},{"name":"Fichtenstr.","postalCode":"76829","locality":"Landau in der Pfalz","municipality":{"key":"07313000","name":"Landau in der Pfalz, Stadt","type":"Kreisfreie_Stadt"},"district":{"key":"07313","name":"Landau in der Pfalz, kreisfreie Stadt","type":"Kreisfreie_Stadt"},"federalState":{"key":"07","name":"Rheinland-Pfalz"}},{"name":"Finkenstr.","postalCode":"76829","locality":"Landau in der Pfalz","municipality":{"key":"07313000","name":"Landau in der Pfalz, Stadt","type":"Kreisfreie_Stadt"},"district":{"key":"07313","name":"Landau in der Pfalz, kreisfreie Stadt","type":"Kreisfreie_Stadt"},"federalState":{"key":"07","name":"Rheinland-Pfalz"}},{"name":"Finkenweg","postalCode":"76829","locality":"Landau in der Pfalz","municipality":{"key":"07313000","name":"Landau in der Pfalz, Stadt","type":"Kreisfreie_Stadt"},"district":{"key":"07313","name":"Landau in der Pfalz, kreisfreie Stadt","type":"Kreisfreie_Stadt"},"federalState":{"key":"07","name":"Rheinland-Pfalz"}},{"name":"Fleckensteinstr.","postalCode":"76829","locality":"Landau in der Pfalz","municipality":{"key":"07313000","name":"Landau in der Pfalz, Stadt","type":"Kreisfreie_Stadt"},"district":{"key":"07313","name":"Landau in der Pfalz, kreisfreie Stadt","type":"Kreisfreie_Stadt"},"federalState":{"key":"07","name":"Rheinland-Pfalz"}},{"name":"Flemlinger Weg","postalCode":"76829","locality":"Landau in der Pfalz","municipality":{"key":"07313000","name":"Landau in der Pfalz, Stadt","type":"Kreisfreie_Stadt"},"district":{"key":"07313","name":"Landau in der Pfalz, kreisfreie Stadt","type":"Kreisfreie_Stadt"},"federalState":{"key":"07","name":"Rheinland-Pfalz"}},{"name":"Förlenbergstr.","postalCode":"76829","locality":"Landau in der Pfalz","municipality":{"key":"07313000","name":"Landau in der Pfalz, Stadt","type":"Kreisfreie_Stadt"},"district":{"key":"07313","name":"Landau in der Pfalz, kreisfreie Stadt","type":"Kreisfreie_Stadt"},"federalState":{"key":"07","name":"Rheinland-Pfalz"}},{"name":"Fortstr.","postalCode":"76829","locality":"Landau in der Pfalz","municipality":{"key":"07313000","name":"Landau in der Pfalz, Stadt","type":"Kreisfreie_Stadt"},"district":{"key":"07313","name":"Landau in der Pfalz, kreisfreie Stadt","type":"Kreisfreie_Stadt"},"federalState":{"key":"07","name":"Rheinland-Pfalz"}},{"name":"Frankenweg","postalCode":"76829","locality":"Landau in der Pfalz","municipality":{"key":"07313000","name":"Landau in der Pfalz, Stadt","type":"Kreisfreie_Stadt"},"district":{"key":"07313","name":"Landau in der Pfalz, kreisfreie Stadt","type":"Kreisfreie_Stadt"},"federalState":{"key":"07","name":"Rheinland-Pfalz"}},{"name":"Frankfurter Str.","postalCode":"76829","locality":"Landau in der Pfalz","municipality":{"key":"07313000","name":"Landau in der Pfalz, Stadt","type":"Kreisfreie_Stadt"},"district":{"key":"07313","name":"Landau in der Pfalz, kreisfreie Stadt","type":"Kreisfreie_Stadt"},"federalState":{"key":"07","name":"Rheinland-Pfalz"}},{"name":"Frankweilerstr.","postalCode":"76829","locality":"Landau in der Pfalz","municipality":{"key":"07313000","name":"Landau in der Pfalz, Stadt","type":"Kreisfreie_Stadt"},"district":{"key":"07313","name":"Landau in der Pfalz, kreisfreie Stadt","type":"Kreisfreie_Stadt"},"federalState":{"key":"07","name":"Rheinland-Pfalz"}},{"name":"Frankweilerweg","postalCode":"76829","locality":"Landau in der Pfalz","municipality":{"key":"07313000","name":"Landau in der Pfalz, Stadt","type":"Kreisfreie_Stadt"},"district":{"key":"07313","name":"Landau in der Pfalz, kreisfreie Stadt","type":"Kreisfreie_Stadt"},"federalState":{"key":"07","name":"Rheinland-Pfalz"}},{"name":"Franz-Schubert-Str.","postalCode":"76829","locality":"Landau in der Pfalz","municipality":{"key":"07313000","name":"Landau in der Pfalz, Stadt","type":"Kreisfreie_Stadt"},"district":{"key":"07313","name":"Landau in der Pfalz, kreisfreie Stadt","type":"Kreisfreie_Stadt"},"federalState":{"key":"07","name":"Rheinland-Pfalz"}},{"name":"Franz-von-Sickingen-Str.","postalCode":"76829","locality":"Landau in der Pfalz","municipality":{"key":"07313000","name":"Landau in der Pfalz, Stadt","type":"Kreisfreie_Stadt"},"district":{"key":"07313","name":"Landau in der Pfalz, kreisfreie Stadt","type":"Kreisfreie_Stadt"},"federalState":{"key":"07","name":"Rheinland-Pfalz"}},{"name":"Friedhofweg","postalCode":"76829","locality":"Landau in der Pfalz","municipality":{"key":"07313000","name":"Landau in der Pfalz, Stadt","type":"Kreisfreie_Stadt"},"district":{"key":"07313","name":"Landau in der Pfalz, kreisfreie Stadt","type":"Kreisfreie_Stadt"},"federalState":{"key":"07","name":"Rheinland-Pfalz"}},{"name":"Friedrich-Ebert-Str.","postalCode":"76829","locality":"Landau in der Pfalz","municipality":{"key":"07313000","name":"Landau in der Pfalz, Stadt","type":"Kreisfreie_Stadt"},"district":{"key":"07313","name":"Landau in der Pfalz, kreisfreie Stadt","type":"Kreisfreie_Stadt"},"federalState":{"key":"07","name":"Rheinland-Pfalz"}},{"name":"Friedrich-Kreutz-Ring","postalCode":"76829","locality":"Landau in der Pfalz","municipality":{"key":"07313000","name":"Landau in der Pfalz, Stadt","type":"Kreisfreie_Stadt"},"district":{"key":"07313","name":"Landau in der Pfalz, kreisfreie Stadt","type":"Kreisfreie_Stadt"},"federalState":{"key":"07","name":"Rheinland-Pfalz"}},{"name":"Friesenstr.","postalCode":"76829","locality":"Landau in der Pfalz","municipality":{"key":"07313000","name":"Landau in der Pfalz, Stadt","type":"Kreisfreie_Stadt"},"district":{"key":"07313","name":"Landau in der Pfalz, kreisfreie Stadt","type":"Kreisfreie_Stadt"},"federalState":{"key":"07","name":"Rheinland-Pfalz"}},{"name":"Fritz-Siegel-Str.","postalCode":"76829","locality":"Landau in der Pfalz","municipality":{"key":"07313000","name":"Landau in der Pfalz, Stadt","type":"Kreisfreie_Stadt"},"district":{"key":"07313","name":"Landau in der Pfalz, kreisfreie Stadt","type":"Kreisfreie_Stadt"},"federalState":{"key":"07","name":"Rheinland-Pfalz"}},{"name":"Frühmeß-Str.","postalCode":"76831","locality":"Ilbesheim bei Landau in der Pfalz","municipality":{"key":"07337042","name":"Ilbesheim bei Landau in der Pfalz","type":"Kreisangehörige_Gemeinde"},"district":{"key":"07337","name":"Südliche Weinstraße","type":"Landkreis"},"federalState":{"key":"07","name":"Rheinland-Pfalz"}},{"name":"Fuchsienstr.","postalCode":"76829","locality":"Landau in der Pfalz","municipality":{"key":"07313000","name":"Landau in der Pfalz, Stadt","type":"Kreisfreie_Stadt"},"district":{"key":"07313","name":"Landau in der Pfalz, kreisfreie Stadt","type":"Kreisfreie_Stadt"},"federalState":{"key":"07","name":"Rheinland-Pfalz"}},{"name":"Fugger-Glött-Str.","postalCode":"76829","locality":"Landau in der Pfalz","municipality":{"key":"07313000","name":"Landau in der Pfalz, Stadt","type":"Kreisfreie_Stadt"},"district":{"key":"07313","name":"Landau in der Pfalz, kreisfreie Stadt","type":"Kreisfreie_Stadt"},"federalState":{"key":"07","name":"Rheinland-Pfalz"}},{"name":"Gabelsbergerstr.","postalCode":"76829","locality":"Landau in der Pfalz","municipality":{"key":"07313000","name":"Landau in der Pfalz, Stadt","type":"Kreisfreie_Stadt"},"district":{"key":"07313","name":"Landau in der Pfalz, kreisfreie Stadt","type":"Kreisfreie_Stadt"},"federalState":{"key":"07","name":"Rheinland-Pfalz"}},{"name":"Gänsegasse","postalCode":"76829","locality":"Landau in der Pfalz","municipality":{"key":"07313000","name":"Landau in der Pfalz, Stadt","type":"Kreisfreie_Stadt"},"district":{"key":"07313","name":"Landau in der Pfalz, kreisfreie Stadt","type":"Kreisfreie_Stadt"},"federalState":{"key":"07","name":"Rheinland-Pfalz"}},{"name":"Garten auf der Brücke","postalCode":"76829","locality":"Landau in der Pfalz","municipality":{"key":"07313000","name":"Landau in der Pfalz, Stadt","type":"Kreisfreie_Stadt"},"district":{"key":"07313","name":"Landau in der Pfalz, kreisfreie Stadt","type":"Kreisfreie_Stadt"},"federalState":{"key":"07","name":"Rheinland-Pfalz"}},{"name":"Gartenstr.","postalCode":"76829","locality":"Landau in der Pfalz","municipality":{"key":"07313000","name":"Landau in der Pfalz, Stadt","type":"Kreisfreie_Stadt"},"district":{"key":"07313","name":"Landau in der Pfalz, kreisfreie Stadt","type":"Kreisfreie_Stadt"},"federalState":{"key":"07","name":"Rheinland-Pfalz"}},{"name":"Gartenweg","postalCode":"76829","locality":"Landau in der Pfalz","municipality":{"key":"07313000","name":"Landau in der Pfalz, Stadt","type":"Kreisfreie_Stadt"},"district":{"key":"07313","name":"Landau in der Pfalz, kreisfreie Stadt","type":"Kreisfreie_Stadt"},"federalState":{"key":"07","name":"Rheinland-Pfalz"}},{"name":"Geisbachstr.","postalCode":"76829","locality":"Landau in der Pfalz","municipality":{"key":"07313000","name":"Landau in der Pfalz, Stadt","type":"Kreisfreie_Stadt"},"district":{"key":"07313","name":"Landau in der Pfalz, kreisfreie Stadt","type":"Kreisfreie_Stadt"},"federalState":{"key":"07","name":"Rheinland-Pfalz"}},{"name":"Geißelgasse","postalCode":"76829","locality":"Landau in der Pfalz","municipality":{"key":"07313000","name":"Landau in der Pfalz, Stadt","type":"Kreisfreie_Stadt"},"district":{"key":"07313","name":"Landau in der Pfalz, kreisfreie Stadt","type":"Kreisfreie_Stadt"},"federalState":{"key":"07","name":"Rheinland-Pfalz"}},{"name":"Georg-Friedrich-Dentzel-Str.","postalCode":"76829","locality":"Landau in der Pfalz","municipality":{"key":"07313000","name":"Landau in der Pfalz, Stadt","type":"Kreisfreie_Stadt"},"district":{"key":"07313","name":"Landau in der Pfalz, kreisfreie Stadt","type":"Kreisfreie_Stadt"},"federalState":{"key":"07","name":"Rheinland-Pfalz"}},{"name":"Georg-Reiß-Str.","postalCode":"76829","locality":"Landau in der Pfalz","municipality":{"key":"07313000","name":"Landau in der Pfalz, Stadt","type":"Kreisfreie_Stadt"},"district":{"key":"07313","name":"Landau in der Pfalz, kreisfreie Stadt","type":"Kreisfreie_Stadt"},"federalState":{"key":"07","name":"Rheinland-Pfalz"}},{"name":"Georg-Schantz-Str.","postalCode":"76829","locality":"Landau in der Pfalz","municipality":{"key":"07313000","name":"Landau in der Pfalz, Stadt","type":"Kreisfreie_Stadt"},"district":{"key":"07313","name":"Landau in der Pfalz, kreisfreie Stadt","type":"Kreisfreie_Stadt"},"federalState":{"key":"07","name":"Rheinland-Pfalz"}},{"name":"Gilletstr.","postalCode":"76829","locality":"Landau in der Pfalz","municipality":{"key":"07313000","name":"Landau in der Pfalz, Stadt","type":"Kreisfreie_Stadt"},"district":{"key":"07313","name":"Landau in der Pfalz, kreisfreie Stadt","type":"Kreisfreie_Stadt"},"federalState":{"key":"07","name":"Rheinland-Pfalz"}},{"name":"Glacisstr.","postalCode":"76829","locality":"Landau in der Pfalz","municipality":{"key":"07313000","name":"Landau in der Pfalz, Stadt","type":"Kreisfreie_Stadt"},"district":{"key":"07313","name":"Landau in der Pfalz, kreisfreie Stadt","type":"Kreisfreie_Stadt"},"federalState":{"key":"07","name":"Rheinland-Pfalz"}},{"name":"Gleisweilerweg","postalCode":"76829","locality":"Landau in der Pfalz","municipality":{"key":"07313000","name":"Landau in der Pfalz, Stadt","type":"Kreisfreie_Stadt"},"district":{"key":"07313","name":"Landau in der Pfalz, kreisfreie Stadt","type":"Kreisfreie_Stadt"},"federalState":{"key":"07","name":"Rheinland-Pfalz"}},{"name":"Göcklinger Weg","postalCode":"76829","locality":"Landau in der Pfalz","municipality":{"key":"07313000","name":"Landau in der Pfalz, Stadt","type":"Kreisfreie_Stadt"},"district":{"key":"07313","name":"Landau in der Pfalz, kreisfreie Stadt","type":"Kreisfreie_Stadt"},"federalState":{"key":"07","name":"Rheinland-Pfalz"}},{"name":"Godramsteiner Hauptstr.","postalCode":"76829","locality":"Landau in der Pfalz","municipality":{"key":"07313000","name":"Landau in der Pfalz, Stadt","type":"Kreisfreie_Stadt"},"district":{"key":"07313","name":"Landau in der Pfalz, kreisfreie Stadt","type":"Kreisfreie_Stadt"},"federalState":{"key":"07","name":"Rheinland-Pfalz"}},{"name":"Godramsteiner Str.","postalCode":"76829","locality":"Landau in der Pfalz","municipality":{"key":"07313000","name":"Landau in der Pfalz, Stadt","type":"Kreisfreie_Stadt"},"district":{"key":"07313","name":"Landau in der Pfalz, kreisfreie Stadt","type":"Kreisfreie_Stadt"},"federalState":{"key":"07","name":"Rheinland-Pfalz"}},{"name":"Goethepark","postalCode":"76829","locality":"Landau in der Pfalz","municipality":{"key":"07313000","name":"Landau in der Pfalz, Stadt","type":"Kreisfreie_Stadt"},"district":{"key":"07313","name":"Landau in der Pfalz, kreisfreie Stadt","type":"Kreisfreie_Stadt"},"federalState":{"key":"07","name":"Rheinland-Pfalz"}},{"name":"Grobsbachstr.","postalCode":"76829","locality":"Landau in der Pfalz","municipality":{"key":"07313000","name":"Landau in der Pfalz, Stadt","type":"Kreisfreie_Stadt"},"district":{"key":"07313","name":"Landau in der Pfalz, kreisfreie Stadt","type":"Kreisfreie_Stadt"},"federalState":{"key":"07","name":"Rheinland-Pfalz"}},{"name":"Guldengewann","postalCode":"76829","locality":"Landau in der Pfalz","municipality":{"key":"07313000","name":"Landau in der Pfalz, Stadt","type":"Kreisfreie_Stadt"},"district":{"key":"07313","name":"Landau in der Pfalz, kreisfreie Stadt","type":"Kreisfreie_Stadt"},"federalState":{"key":"07","name":"Rheinland-Pfalz"}},{"name":"Gustav-Hertz-Str.","postalCode":"76829","locality":"Landau in der Pfalz","municipality":{"key":"07313000","name":"Landau in der Pfalz, Stadt","type":"Kreisfreie_Stadt"},"district":{"key":"07313","name":"Landau in der Pfalz, kreisfreie Stadt","type":"Kreisfreie_Stadt"},"federalState":{"key":"07","name":"Rheinland-Pfalz"}},{"name":"Haafegasse","postalCode":"76829","locality":"Landau in der Pfalz","municipality":{"key":"07313000","name":"Landau in der Pfalz, Stadt","type":"Kreisfreie_Stadt"},"district":{"key":"07313","name":"Landau in der Pfalz, kreisfreie Stadt","type":"Kreisfreie_Stadt"},"federalState":{"key":"07","name":"Rheinland-Pfalz"}},{"name":"Habichtstr.","postalCode":"76829","locality":"Landau in der Pfalz","municipality":{"key":"07313000","name":"Landau in der Pfalz, Stadt","type":"Kreisfreie_Stadt"},"district":{"key":"07313","name":"Landau in der Pfalz, kreisfreie Stadt","type":"Kreisfreie_Stadt"},"federalState":{"key":"07","name":"Rheinland-Pfalz"}},{"name":"Hagenauer Str.","postalCode":"76829","locality":"Landau in der Pfalz","municipality":{"key":"07313000","name":"Landau in der Pfalz, Stadt","type":"Kreisfreie_Stadt"},"district":{"key":"07313","name":"Landau in der Pfalz, kreisfreie Stadt","type":"Kreisfreie_Stadt"},"federalState":{"key":"07","name":"Rheinland-Pfalz"}},{"name":"Hainbachstr.","postalCode":"76829","locality":"Landau in der Pfalz","municipality":{"key":"07313000","name":"Landau in der Pfalz, Stadt","type":"Kreisfreie_Stadt"},"district":{"key":"07313","name":"Landau in der Pfalz, kreisfreie Stadt","type":"Kreisfreie_Stadt"},"federalState":{"key":"07","name":"Rheinland-Pfalz"}},{"name":"Haingeraideweg","postalCode":"76829","locality":"Landau in der Pfalz","municipality":{"key":"07313000","name":"Landau in der Pfalz, Stadt","type":"Kreisfreie_Stadt"},"district":{"key":"07313","name":"Landau in der Pfalz, kreisfreie Stadt","type":"Kreisfreie_Stadt"},"federalState":{"key":"07","name":"Rheinland-Pfalz"}},{"name":"Hamburger Str.","postalCode":"76829","locality":"Landau in der Pfalz","municipality":{"key":"07313000","name":"Landau in der Pfalz, Stadt","type":"Kreisfreie_Stadt"},"district":{"key":"07313","name":"Landau in der Pfalz, kreisfreie Stadt","type":"Kreisfreie_Stadt"},"federalState":{"key":"07","name":"Rheinland-Pfalz"}},{"name":"Hannah-Arendt-Str.","postalCode":"76829","locality":"Landau in der Pfalz","municipality":{"key":"07313000","name":"Landau in der Pfalz, Stadt","type":"Kreisfreie_Stadt"},"district":{"key":"07313","name":"Landau in der Pfalz, kreisfreie Stadt","type":"Kreisfreie_Stadt"},"federalState":{"key":"07","name":"Rheinland-Pfalz"}},{"name":"Hans-Boner-Str.","postalCode":"76829","locality":"Landau in der Pfalz","municipality":{"key":"07313000","name":"Landau in der Pfalz, Stadt","type":"Kreisfreie_Stadt"},"district":{"key":"07313","name":"Landau in der Pfalz, kreisfreie Stadt","type":"Kreisfreie_Stadt"},"federalState":{"key":"07","name":"Rheinland-Pfalz"}},{"name":"Hans-Mayer-Weg","postalCode":"76829","locality":"Landau in der Pfalz","municipality":{"key":"07313000","name":"Landau in der Pfalz, Stadt","type":"Kreisfreie_Stadt"},"district":{"key":"07313","name":"Landau in der Pfalz, kreisfreie Stadt","type":"Kreisfreie_Stadt"},"federalState":{"key":"07","name":"Rheinland-Pfalz"}},{"name":"Hans-Stichter-Str.","postalCode":"76829","locality":"Landau in der Pfalz","municipality":{"key":"07313000","name":"Landau in der Pfalz, Stadt","type":"Kreisfreie_Stadt"},"district":{"key":"07313","name":"Landau in der Pfalz, kreisfreie Stadt","type":"Kreisfreie_Stadt"},"federalState":{"key":"07","name":"Rheinland-Pfalz"}},{"name":"Hardenburgstr.","postalCode":"76829","locality":"Landau in der Pfalz","municipality":{"key":"07313000","name":"Landau in der Pfalz, Stadt","type":"Kreisfreie_Stadt"},"district":{"key":"07313","name":"Landau in der Pfalz, kreisfreie Stadt","type":"Kreisfreie_Stadt"},"federalState":{"key":"07","name":"Rheinland-Pfalz"}},{"name":"Hartmannstr.","postalCode":"76829","locality":"Landau in der Pfalz","municipality":{"key":"07313000","name":"Landau in der Pfalz, Stadt","type":"Kreisfreie_Stadt"},"district":{"key":"07313","name":"Landau in der Pfalz, kreisfreie Stadt","type":"Kreisfreie_Stadt"},"federalState":{"key":"07","name":"Rheinland-Pfalz"}},{"name":"Haufenstr.","postalCode":"76829","locality":"Landau in der Pfalz","municipality":{"key":"07313000","name":"Landau in der Pfalz, Stadt","type":"Kreisfreie_Stadt"},"district":{"key":"07313","name":"Landau in der Pfalz, kreisfreie Stadt","type":"Kreisfreie_Stadt"},"federalState":{"key":"07","name":"Rheinland-Pfalz"}},{"name":"Hauptstr.","postalCode":"76831","locality":"Ilbesheim bei Landau in der Pfalz","municipality":{"key":"07337042","name":"Ilbesheim bei Landau in der Pfalz","type":"Kreisangehörige_Gemeinde"},"district":{"key":"07337","name":"Südliche Weinstraße","type":"Landkreis"},"federalState":{"key":"07","name":"Rheinland-Pfalz"}},{"name":"Haydnstr.","postalCode":"76829","locality":"Landau in der Pfalz","municipality":{"key":"07313000","name":"Landau in der Pfalz, Stadt","type":"Kreisfreie_Stadt"},"district":{"key":"07313","name":"Landau in der Pfalz, kreisfreie Stadt","type":"Kreisfreie_Stadt"},"federalState":{"key":"07","name":"Rheinland-Pfalz"}},{"name":"Heegerweg","postalCode":"76829","locality":"Landau in der Pfalz","municipality":{"key":"07313000","name":"Landau in der Pfalz, Stadt","type":"Kreisfreie_Stadt"},"district":{"key":"07313","name":"Landau in der Pfalz, kreisfreie Stadt","type":"Kreisfreie_Stadt"},"federalState":{"key":"07","name":"Rheinland-Pfalz"}},{"name":"Heinrich-Diehl-Str.","postalCode":"76829","locality":"Landau in der Pfalz","municipality":{"key":"07313000","name":"Landau in der Pfalz, Stadt","type":"Kreisfreie_Stadt"},"district":{"key":"07313","name":"Landau in der Pfalz, kreisfreie Stadt","type":"Kreisfreie_Stadt"},"federalState":{"key":"07","name":"Rheinland-Pfalz"}},{"name":"Heinrich-Heine-Platz","postalCode":"76829","locality":"Landau in der Pfalz","municipality":{"key":"07313000","name":"Landau in der Pfalz, Stadt","type":"Kreisfreie_Stadt"},"district":{"key":"07313","name":"Landau in der Pfalz, kreisfreie Stadt","type":"Kreisfreie_Stadt"},"federalState":{"key":"07","name":"Rheinland-Pfalz"}},{"name":"Heinrich-Jakob-Fried-Str.","postalCode":"76829","locality":"Landau in der Pfalz","municipality":{"key":"07313000","name":"Landau in der Pfalz, Stadt","type":"Kreisfreie_Stadt"},"district":{"key":"07313","name":"Landau in der Pfalz, kreisfreie Stadt","type":"Kreisfreie_Stadt"},"federalState":{"key":"07","name":"Rheinland-Pfalz"}},{"name":"Heinrich-Kohl-Weg","postalCode":"76829","locality":"Landau in der Pfalz","municipality":{"key":"07313000","name":"Landau in der Pfalz, Stadt","type":"Kreisfreie_Stadt"},"district":{"key":"07313","name":"Landau in der Pfalz, kreisfreie Stadt","type":"Kreisfreie_Stadt"},"federalState":{"key":"07","name":"Rheinland-Pfalz"}},{"name":"Heinrich-Strieffler-Weg","postalCode":"76829","locality":"Landau in der Pfalz","municipality":{"key":"07313000","name":"Landau in der Pfalz, Stadt","type":"Kreisfreie_Stadt"},"district":{"key":"07313","name":"Landau in der Pfalz, kreisfreie Stadt","type":"Kreisfreie_Stadt"},"federalState":{"key":"07","name":"Rheinland-Pfalz"}},{"name":"Heinrich-Stützel-Str.","postalCode":"76829","locality":"Landau in der Pfalz","municipality":{"key":"07313000","name":"Landau in der Pfalz, Stadt","type":"Kreisfreie_Stadt"},"district":{"key":"07313","name":"Landau in der Pfalz, kreisfreie Stadt","type":"Kreisfreie_Stadt"},"federalState":{"key":"07","name":"Rheinland-Pfalz"}},{"name":"Helmbachstr.","postalCode":"76829","locality":"Landau in der Pfalz","municipality":{"key":"07313000","name":"Landau in der Pfalz, Stadt","type":"Kreisfreie_Stadt"},"district":{"key":"07313","name":"Landau in der Pfalz, kreisfreie Stadt","type":"Kreisfreie_Stadt"},"federalState":{"key":"07","name":"Rheinland-Pfalz"}},{"name":"Hermann-Jürgens-Str.","postalCode":"76829","locality":"Landau in der Pfalz","municipality":{"key":"07313000","name":"Landau in der Pfalz, Stadt","type":"Kreisfreie_Stadt"},"district":{"key":"07313","name":"Landau in der Pfalz, kreisfreie Stadt","type":"Kreisfreie_Stadt"},"federalState":{"key":"07","name":"Rheinland-Pfalz"}},{"name":"Hermann-Sauter-Str.","postalCode":"76829","locality":"Landau in der Pfalz","municipality":{"key":"07313000","name":"Landau in der Pfalz, Stadt","type":"Kreisfreie_Stadt"},"district":{"key":"07313","name":"Landau in der Pfalz, kreisfreie Stadt","type":"Kreisfreie_Stadt"},"federalState":{"key":"07","name":"Rheinland-Pfalz"}},{"name":"Hermann-Staudinger-Str.","postalCode":"76829","locality":"Landau in der Pfalz","municipality":{"key":"07313000","name":"Landau in der Pfalz, Stadt","type":"Kreisfreie_Stadt"},"district":{"key":"07313","name":"Landau in der Pfalz, kreisfreie Stadt","type":"Kreisfreie_Stadt"},"federalState":{"key":"07","name":"Rheinland-Pfalz"}},{"name":"Herrenbergstr.","postalCode":"76829","locality":"Landau in der Pfalz","municipality":{"key":"07313000","name":"Landau in der Pfalz, Stadt","type":"Kreisfreie_Stadt"},"district":{"key":"07313","name":"Landau in der Pfalz, kreisfreie Stadt","type":"Kreisfreie_Stadt"},"federalState":{"key":"07","name":"Rheinland-Pfalz"}},{"name":"Herrengasse","postalCode":"76829","locality":"Landau in der Pfalz","municipality":{"key":"07313000","name":"Landau in der Pfalz, Stadt","type":"Kreisfreie_Stadt"},"district":{"key":"07313","name":"Landau in der Pfalz, kreisfreie Stadt","type":"Kreisfreie_Stadt"},"federalState":{"key":"07","name":"Rheinland-Pfalz"}},{"name":"Herrenstr.","postalCode":"76829","locality":"Landau in der Pfalz","municipality":{"key":"07313000","name":"Landau in der Pfalz, Stadt","type":"Kreisfreie_Stadt"},"district":{"key":"07313","name":"Landau in der Pfalz, kreisfreie Stadt","type":"Kreisfreie_Stadt"},"federalState":{"key":"07","name":"Rheinland-Pfalz"}},{"name":"Herwartgasse","postalCode":"76829","locality":"Landau in der Pfalz","municipality":{"key":"07313000","name":"Landau in der Pfalz, Stadt","type":"Kreisfreie_Stadt"},"district":{"key":"07313","name":"Landau in der Pfalz, kreisfreie Stadt","type":"Kreisfreie_Stadt"},"federalState":{"key":"07","name":"Rheinland-Pfalz"}},{"name":"Hessengasse","postalCode":"76829","locality":"Landau in der Pfalz","municipality":{"key":"07313000","name":"Landau in der Pfalz, Stadt","type":"Kreisfreie_Stadt"},"district":{"key":"07313","name":"Landau in der Pfalz, kreisfreie Stadt","type":"Kreisfreie_Stadt"},"federalState":{"key":"07","name":"Rheinland-Pfalz"}},{"name":"Heuchelheimer Str.","postalCode":"76829","locality":"Landau in der Pfalz","municipality":{"key":"07313000","name":"Landau in der Pfalz, Stadt","type":"Kreisfreie_Stadt"},"district":{"key":"07313","name":"Landau in der Pfalz, kreisfreie Stadt","type":"Kreisfreie_Stadt"},"federalState":{"key":"07","name":"Rheinland-Pfalz"}},{"name":"Himmelmannring","postalCode":"76829","locality":"Landau in der Pfalz","municipality":{"key":"07313000","name":"Landau in der Pfalz, Stadt","type":"Kreisfreie_Stadt"},"district":{"key":"07313","name":"Landau in der Pfalz, kreisfreie Stadt","type":"Kreisfreie_Stadt"},"federalState":{"key":"07","name":"Rheinland-Pfalz"}},{"name":"Hindenburgstr.","postalCode":"76829","locality":"Landau in der Pfalz","municipality":{"key":"07313000","name":"Landau in der Pfalz, Stadt","type":"Kreisfreie_Stadt"},"district":{"key":"07313","name":"Landau in der Pfalz, kreisfreie Stadt","type":"Kreisfreie_Stadt"},"federalState":{"key":"07","name":"Rheinland-Pfalz"}},{"name":"Hintergasse","postalCode":"76829","locality":"Landau in der Pfalz","municipality":{"key":"07313000","name":"Landau in der Pfalz, Stadt","type":"Kreisfreie_Stadt"},"district":{"key":"07313","name":"Landau in der Pfalz, kreisfreie Stadt","type":"Kreisfreie_Stadt"},"federalState":{"key":"07","name":"Rheinland-Pfalz"}},{"name":"Hofgasse","postalCode":"76829","locality":"Landau in der Pfalz","municipality":{"key":"07313000","name":"Landau in der Pfalz, Stadt","type":"Kreisfreie_Stadt"},"district":{"key":"07313","name":"Landau in der Pfalz, kreisfreie Stadt","type":"Kreisfreie_Stadt"},"federalState":{"key":"07","name":"Rheinland-Pfalz"}},{"name":"Hohenbergstr.","postalCode":"76829","locality":"Landau in der Pfalz","municipality":{"key":"07313000","name":"Landau in der Pfalz, Stadt","type":"Kreisfreie_Stadt"},"district":{"key":"07313","name":"Landau in der Pfalz, kreisfreie Stadt","type":"Kreisfreie_Stadt"},"federalState":{"key":"07","name":"Rheinland-Pfalz"}},{"name":"Hohenstaufenstr.","postalCode":"76829","locality":"Landau in der Pfalz","municipality":{"key":"07313000","name":"Landau in der Pfalz, Stadt","type":"Kreisfreie_Stadt"},"district":{"key":"07313","name":"Landau in der Pfalz, kreisfreie Stadt","type":"Kreisfreie_Stadt"},"federalState":{"key":"07","name":"Rheinland-Pfalz"}},{"name":"Horstring","postalCode":"76829","locality":"Landau in der Pfalz","municipality":{"key":"07313000","name":"Landau in der Pfalz, Stadt","type":"Kreisfreie_Stadt"},"district":{"key":"07313","name":"Landau in der Pfalz, kreisfreie Stadt","type":"Kreisfreie_Stadt"},"federalState":{"key":"07","name":"Rheinland-Pfalz"}},{"name":"Horstschanze","postalCode":"76829","locality":"Landau in der Pfalz","municipality":{"key":"07313000","name":"Landau in der Pfalz, Stadt","type":"Kreisfreie_Stadt"},"district":{"key":"07313","name":"Landau in der Pfalz, kreisfreie Stadt","type":"Kreisfreie_Stadt"},"federalState":{"key":"07","name":"Rheinland-Pfalz"}},{"name":"Horststr.","postalCode":"76829","locality":"Landau in der Pfalz","municipality":{"key":"07313000","name":"Landau in der Pfalz, Stadt","type":"Kreisfreie_Stadt"},"district":{"key":"07313","name":"Landau in der Pfalz, kreisfreie Stadt","type":"Kreisfreie_Stadt"},"federalState":{"key":"07","name":"Rheinland-Pfalz"}},{"name":"Hubhofstr.","postalCode":"76829","locality":"Landau in der Pfalz","municipality":{"key":"07313000","name":"Landau in der Pfalz, Stadt","type":"Kreisfreie_Stadt"},"district":{"key":"07313","name":"Landau in der Pfalz, kreisfreie Stadt","type":"Kreisfreie_Stadt"},"federalState":{"key":"07","name":"Rheinland-Pfalz"}},{"name":"Husarengasse","postalCode":"76829","locality":"Landau in der Pfalz","municipality":{"key":"07313000","name":"Landau in der Pfalz, Stadt","type":"Kreisfreie_Stadt"},"district":{"key":"07313","name":"Landau in der Pfalz, kreisfreie Stadt","type":"Kreisfreie_Stadt"},"federalState":{"key":"07","name":"Rheinland-Pfalz"}},{"name":"Im Brühl","postalCode":"76831","locality":"Ilbesheim bei Landau in der Pfalz","municipality":{"key":"07337042","name":"Ilbesheim bei Landau in der Pfalz","type":"Kreisangehörige_Gemeinde"},"district":{"key":"07337","name":"Südliche Weinstraße","type":"Landkreis"},"federalState":{"key":"07","name":"Rheinland-Pfalz"}},{"name":"Im Erbsenfeld","postalCode":"76829","locality":"Landau in der Pfalz","municipality":{"key":"07313000","name":"Landau in der Pfalz, Stadt","type":"Kreisfreie_Stadt"},"district":{"key":"07313","name":"Landau in der Pfalz, kreisfreie Stadt","type":"Kreisfreie_Stadt"},"federalState":{"key":"07","name":"Rheinland-Pfalz"}},{"name":"Im Frankenfeld","postalCode":"76829","locality":"Landau in der Pfalz","municipality":{"key":"07313000","name":"Landau in der Pfalz, Stadt","type":"Kreisfreie_Stadt"},"district":{"key":"07313","name":"Landau in der Pfalz, kreisfreie Stadt","type":"Kreisfreie_Stadt"},"federalState":{"key":"07","name":"Rheinland-Pfalz"}},{"name":"Im Grein","postalCode":"76829","locality":"Landau in der Pfalz","municipality":{"key":"07313000","name":"Landau in der Pfalz, Stadt","type":"Kreisfreie_Stadt"},"district":{"key":"07313","name":"Landau in der Pfalz, kreisfreie Stadt","type":"Kreisfreie_Stadt"},"federalState":{"key":"07","name":"Rheinland-Pfalz"}},{"name":"Im Grünen Winkel","postalCode":"76829","locality":"Landau in der Pfalz","municipality":{"key":"07313000","name":"Landau in der Pfalz, Stadt","type":"Kreisfreie_Stadt"},"district":{"key":"07313","name":"Landau in der Pfalz, kreisfreie Stadt","type":"Kreisfreie_Stadt"},"federalState":{"key":"07","name":"Rheinland-Pfalz"}},{"name":"Im Höger","postalCode":"76829","locality":"Landau in der Pfalz","municipality":{"key":"07313000","name":"Landau in der Pfalz, Stadt","type":"Kreisfreie_Stadt"},"district":{"key":"07313","name":"Landau in der Pfalz, kreisfreie Stadt","type":"Kreisfreie_Stadt"},"federalState":{"key":"07","name":"Rheinland-Pfalz"}},{"name":"Im Justus","postalCode":"76829","locality":"Landau in der Pfalz","municipality":{"key":"07313000","name":"Landau in der Pfalz, Stadt","type":"Kreisfreie_Stadt"},"district":{"key":"07313","name":"Landau in der Pfalz, kreisfreie Stadt","type":"Kreisfreie_Stadt"},"federalState":{"key":"07","name":"Rheinland-Pfalz"}},{"name":"Im Löhl","postalCode":"76829","locality":"Landau in der Pfalz","municipality":{"key":"07313000","name":"Landau in der Pfalz, Stadt","type":"Kreisfreie_Stadt"},"district":{"key":"07313","name":"Landau in der Pfalz, kreisfreie Stadt","type":"Kreisfreie_Stadt"},"federalState":{"key":"07","name":"Rheinland-Pfalz"}},{"name":"Immelmannstr.","postalCode":"76829","locality":"Landau in der Pfalz","municipality":{"key":"07313000","name":"Landau in der Pfalz, Stadt","type":"Kreisfreie_Stadt"},"district":{"key":"07313","name":"Landau in der Pfalz, kreisfreie Stadt","type":"Kreisfreie_Stadt"},"federalState":{"key":"07","name":"Rheinland-Pfalz"}},{"name":"Im Niederfeld","postalCode":"76829","locality":"Landau in der Pfalz","municipality":{"key":"07313000","name":"Landau in der Pfalz, Stadt","type":"Kreisfreie_Stadt"},"district":{"key":"07313","name":"Landau in der Pfalz, kreisfreie Stadt","type":"Kreisfreie_Stadt"},"federalState":{"key":"07","name":"Rheinland-Pfalz"}},{"name":"Impflinger Str.","postalCode":"76829","locality":"Landau in der Pfalz","municipality":{"key":"07313000","name":"Landau in der Pfalz, Stadt","type":"Kreisfreie_Stadt"},"district":{"key":"07313","name":"Landau in der Pfalz, kreisfreie Stadt","type":"Kreisfreie_Stadt"},"federalState":{"key":"07","name":"Rheinland-Pfalz"}},{"name":"Im Satz","postalCode":"76829","locality":"Landau in der Pfalz","municipality":{"key":"07313000","name":"Landau in der Pfalz, Stadt","type":"Kreisfreie_Stadt"},"district":{"key":"07313","name":"Landau in der Pfalz, kreisfreie Stadt","type":"Kreisfreie_Stadt"},"federalState":{"key":"07","name":"Rheinland-Pfalz"}},{"name":"Im Schallschen Garten","postalCode":"76829","locality":"Landau in der Pfalz","municipality":{"key":"07313000","name":"Landau in der Pfalz, Stadt","type":"Kreisfreie_Stadt"},"district":{"key":"07313","name":"Landau in der Pfalz, kreisfreie Stadt","type":"Kreisfreie_Stadt"},"federalState":{"key":"07","name":"Rheinland-Pfalz"}},{"name":"Im Steingebiß","postalCode":"76829","locality":"Landau in der Pfalz","municipality":{"key":"07313000","name":"Landau in der Pfalz, Stadt","type":"Kreisfreie_Stadt"},"district":{"key":"07313","name":"Landau in der Pfalz, kreisfreie Stadt","type":"Kreisfreie_Stadt"},"federalState":{"key":"07","name":"Rheinland-Pfalz"}},{"name":"Im Stöbener","postalCode":"76829","locality":"Landau in der Pfalz","municipality":{"key":"07313000","name":"Landau in der Pfalz, Stadt","type":"Kreisfreie_Stadt"},"district":{"key":"07313","name":"Landau in der Pfalz, kreisfreie Stadt","type":"Kreisfreie_Stadt"},"federalState":{"key":"07","name":"Rheinland-Pfalz"}},{"name":"Im Unteren Heißbühl","postalCode":"76831","locality":"Ilbesheim bei Landau in der Pfalz","municipality":{"key":"07337042","name":"Ilbesheim bei Landau in der Pfalz","type":"Kreisangehörige_Gemeinde"},"district":{"key":"07337","name":"Südliche Weinstraße","type":"Landkreis"},"federalState":{"key":"07","name":"Rheinland-Pfalz"}},{"name":"Im Vogelsang","postalCode":"76829","locality":"Landau in der Pfalz","municipality":{"key":"07313000","name":"Landau in der Pfalz, Stadt","type":"Kreisfreie_Stadt"},"district":{"key":"07313","name":"Landau in der Pfalz, kreisfreie Stadt","type":"Kreisfreie_Stadt"},"federalState":{"key":"07","name":"Rheinland-Pfalz"}},{"name":"Im Wolfangel","postalCode":"76829","locality":"Landau in der Pfalz","municipality":{"key":"07313000","name":"Landau in der Pfalz, Stadt","type":"Kreisfreie_Stadt"},"district":{"key":"07313","name":"Landau in der Pfalz, kreisfreie Stadt","type":"Kreisfreie_Stadt"},"federalState":{"key":"07","name":"Rheinland-Pfalz"}},{"name":"In den Grabengärten","postalCode":"76829","locality":"Landau in der Pfalz","municipality":{"key":"07313000","name":"Landau in der Pfalz, Stadt","type":"Kreisfreie_Stadt"},"district":{"key":"07313","name":"Landau in der Pfalz, kreisfreie Stadt","type":"Kreisfreie_Stadt"},"federalState":{"key":"07","name":"Rheinland-Pfalz"}},{"name":"In der Plöck","postalCode":"76829","locality":"Landau in der Pfalz","municipality":{"key":"07313000","name":"Landau in der Pfalz, Stadt","type":"Kreisfreie_Stadt"},"district":{"key":"07313","name":"Landau in der Pfalz, kreisfreie Stadt","type":"Kreisfreie_Stadt"},"federalState":{"key":"07","name":"Rheinland-Pfalz"}},{"name":"In der Steinbäckerei","postalCode":"76829","locality":"Landau in der Pfalz","municipality":{"key":"07313000","name":"Landau in der Pfalz, Stadt","type":"Kreisfreie_Stadt"},"district":{"key":"07313","name":"Landau in der Pfalz, kreisfreie Stadt","type":"Kreisfreie_Stadt"},"federalState":{"key":"07","name":"Rheinland-Pfalz"}},{"name":"Industriestr.","postalCode":"76829","locality":"Landau in der Pfalz","municipality":{"key":"07313000","name":"Landau in der Pfalz, Stadt","type":"Kreisfreie_Stadt"},"district":{"key":"07313","name":"Landau in der Pfalz, kreisfreie Stadt","type":"Kreisfreie_Stadt"},"federalState":{"key":"07","name":"Rheinland-Pfalz"}},{"name":"Jahnstr.","postalCode":"76829","locality":"Landau in der Pfalz","municipality":{"key":"07313000","name":"Landau in der Pfalz, Stadt","type":"Kreisfreie_Stadt"},"district":{"key":"07313","name":"Landau in der Pfalz, kreisfreie Stadt","type":"Kreisfreie_Stadt"},"federalState":{"key":"07","name":"Rheinland-Pfalz"}},{"name":"Jakob-Becker-Str.","postalCode":"76829","locality":"Landau in der Pfalz","municipality":{"key":"07313000","name":"Landau in der Pfalz, Stadt","type":"Kreisfreie_Stadt"},"district":{"key":"07313","name":"Landau in der Pfalz, kreisfreie Stadt","type":"Kreisfreie_Stadt"},"federalState":{"key":"07","name":"Rheinland-Pfalz"}},{"name":"Jendersgasse","postalCode":"76829","locality":"Landau in der Pfalz","municipality":{"key":"07313000","name":"Landau in der Pfalz, Stadt","type":"Kreisfreie_Stadt"},"district":{"key":"07313","name":"Landau in der Pfalz, kreisfreie Stadt","type":"Kreisfreie_Stadt"},"federalState":{"key":"07","name":"Rheinland-Pfalz"}},{"name":"Johannes-Hoffmann-Str.","postalCode":"76829","locality":"Landau in der Pfalz","municipality":{"key":"07313000","name":"Landau in der Pfalz, Stadt","type":"Kreisfreie_Stadt"},"district":{"key":"07313","name":"Landau in der Pfalz, kreisfreie Stadt","type":"Kreisfreie_Stadt"},"federalState":{"key":"07","name":"Rheinland-Pfalz"}},{"name":"Johannes-Kopp-Str.","postalCode":"76829","locality":"Landau in der Pfalz","municipality":{"key":"07313000","name":"Landau in der Pfalz, Stadt","type":"Kreisfreie_Stadt"},"district":{"key":"07313","name":"Landau in der Pfalz, kreisfreie Stadt","type":"Kreisfreie_Stadt"},"federalState":{"key":"07","name":"Rheinland-Pfalz"}},{"name":"Johann-Thomas-Schley-Str.","postalCode":"76829","locality":"Landau in der Pfalz","municipality":{"key":"07313000","name":"Landau in der Pfalz, Stadt","type":"Kreisfreie_Stadt"},"district":{"key":"07313","name":"Landau in der Pfalz, kreisfreie Stadt","type":"Kreisfreie_Stadt"},"federalState":{"key":"07","name":"Rheinland-Pfalz"}},{"name":"Jostweg","postalCode":"76829","locality":"Landau in der Pfalz","municipality":{"key":"07313000","name":"Landau in der Pfalz, Stadt","type":"Kreisfreie_Stadt"},"district":{"key":"07313","name":"Landau in der Pfalz, kreisfreie Stadt","type":"Kreisfreie_Stadt"},"federalState":{"key":"07","name":"Rheinland-Pfalz"}},{"name":"Kaffeegasse","postalCode":"76829","locality":"Landau in der Pfalz","municipality":{"key":"07313000","name":"Landau in der Pfalz, Stadt","type":"Kreisfreie_Stadt"},"district":{"key":"07313","name":"Landau in der Pfalz, kreisfreie Stadt","type":"Kreisfreie_Stadt"},"federalState":{"key":"07","name":"Rheinland-Pfalz"}},{"name":"Kaiserbachstr.","postalCode":"76829","locality":"Landau in der Pfalz","municipality":{"key":"07313000","name":"Landau in der Pfalz, Stadt","type":"Kreisfreie_Stadt"},"district":{"key":"07313","name":"Landau in der Pfalz, kreisfreie Stadt","type":"Kreisfreie_Stadt"},"federalState":{"key":"07","name":"Rheinland-Pfalz"}},{"name":"Kaiserberg","postalCode":"76829","locality":"Landau in der Pfalz","municipality":{"key":"07313000","name":"Landau in der Pfalz, Stadt","type":"Kreisfreie_Stadt"},"district":{"key":"07313","name":"Landau in der Pfalz, kreisfreie Stadt","type":"Kreisfreie_Stadt"},"federalState":{"key":"07","name":"Rheinland-Pfalz"}},{"name":"Kaiserwiesenweg","postalCode":"76829","locality":"Landau in der Pfalz","municipality":{"key":"07313000","name":"Landau in der Pfalz, Stadt","type":"Kreisfreie_Stadt"},"district":{"key":"07313","name":"Landau in der Pfalz, kreisfreie Stadt","type":"Kreisfreie_Stadt"},"federalState":{"key":"07","name":"Rheinland-Pfalz"}},{"name":"Kalmitgasse","postalCode":"76831","locality":"Ilbesheim bei Landau in der Pfalz","municipality":{"key":"07337042","name":"Ilbesheim bei Landau in der Pfalz","type":"Kreisangehörige_Gemeinde"},"district":{"key":"07337","name":"Südliche Weinstraße","type":"Landkreis"},"federalState":{"key":"07","name":"Rheinland-Pfalz"}},{"name":"Kalmitstr.","postalCode":"76829","locality":"Landau in der Pfalz","municipality":{"key":"07313000","name":"Landau in der Pfalz, Stadt","type":"Kreisfreie_Stadt"},"district":{"key":"07313","name":"Landau in der Pfalz, kreisfreie Stadt","type":"Kreisfreie_Stadt"},"federalState":{"key":"07","name":"Rheinland-Pfalz"}},{"name":"Kammertweg","postalCode":"76829","locality":"Landau in der Pfalz","municipality":{"key":"07313000","name":"Landau in der Pfalz, Stadt","type":"Kreisfreie_Stadt"},"district":{"key":"07313","name":"Landau in der Pfalz, kreisfreie Stadt","type":"Kreisfreie_Stadt"},"federalState":{"key":"07","name":"Rheinland-Pfalz"}},{"name":"Kanalweg","postalCode":"76829","locality":"Landau in der Pfalz","municipality":{"key":"07313000","name":"Landau in der Pfalz, Stadt","type":"Kreisfreie_Stadt"},"district":{"key":"07313","name":"Landau in der Pfalz, kreisfreie Stadt","type":"Kreisfreie_Stadt"},"federalState":{"key":"07","name":"Rheinland-Pfalz"}},{"name":"Kapbachstr.","postalCode":"76829","locality":"Landau in der Pfalz","municipality":{"key":"07313000","name":"Landau in der Pfalz, Stadt","type":"Kreisfreie_Stadt"},"district":{"key":"07313","name":"Landau in der Pfalz, kreisfreie Stadt","type":"Kreisfreie_Stadt"},"federalState":{"key":"07","name":"Rheinland-Pfalz"}},{"name":"Kapellenstr.","postalCode":"76829","locality":"Landau in der Pfalz","municipality":{"key":"07313000","name":"Landau in der Pfalz, Stadt","type":"Kreisfreie_Stadt"},"district":{"key":"07313","name":"Landau in der Pfalz, kreisfreie Stadt","type":"Kreisfreie_Stadt"},"federalState":{"key":"07","name":"Rheinland-Pfalz"}},{"name":"Kapellenweg","postalCode":"76829","locality":"Landau in der Pfalz","municipality":{"key":"07313000","name":"Landau in der Pfalz, Stadt","type":"Kreisfreie_Stadt"},"district":{"key":"07313","name":"Landau in der Pfalz, kreisfreie Stadt","type":"Kreisfreie_Stadt"},"federalState":{"key":"07","name":"Rheinland-Pfalz"}},{"name":"Kapitän-Lehmann-Str.","postalCode":"76829","locality":"Landau in der Pfalz","municipality":{"key":"07313000","name":"Landau in der Pfalz, Stadt","type":"Kreisfreie_Stadt"},"district":{"key":"07313","name":"Landau in der Pfalz, kreisfreie Stadt","type":"Kreisfreie_Stadt"},"federalState":{"key":"07","name":"Rheinland-Pfalz"}},{"name":"Kapuzinergasse","postalCode":"76829","locality":"Landau in der Pfalz","municipality":{"key":"07313000","name":"Landau in der Pfalz, Stadt","type":"Kreisfreie_Stadt"},"district":{"key":"07313","name":"Landau in der Pfalz, kreisfreie Stadt","type":"Kreisfreie_Stadt"},"federalState":{"key":"07","name":"Rheinland-Pfalz"}},{"name":"Karl-Sauer-Str.","postalCode":"76829","locality":"Landau in der Pfalz","municipality":{"key":"07313000","name":"Landau in der Pfalz, Stadt","type":"Kreisfreie_Stadt"},"district":{"key":"07313","name":"Landau in der Pfalz, kreisfreie Stadt","type":"Kreisfreie_Stadt"},"federalState":{"key":"07","name":"Rheinland-Pfalz"}},{"name":"Karl-Scharfenberger-Weg","postalCode":"76829","locality":"Landau in der Pfalz","municipality":{"key":"07313000","name":"Landau in der Pfalz, Stadt","type":"Kreisfreie_Stadt"},"district":{"key":"07313","name":"Landau in der Pfalz, kreisfreie Stadt","type":"Kreisfreie_Stadt"},"federalState":{"key":"07","name":"Rheinland-Pfalz"}},{"name":"Karl-Ziegler-Str.","postalCode":"76829","locality":"Landau in der Pfalz","municipality":{"key":"07313000","name":"Landau in der Pfalz, Stadt","type":"Kreisfreie_Stadt"},"district":{"key":"07313","name":"Landau in der Pfalz, kreisfreie Stadt","type":"Kreisfreie_Stadt"},"federalState":{"key":"07","name":"Rheinland-Pfalz"}},{"name":"Katharina-Peters-Str.","postalCode":"76829","locality":"Landau in der Pfalz","municipality":{"key":"07313000","name":"Landau in der Pfalz, Stadt","type":"Kreisfreie_Stadt"},"district":{"key":"07313","name":"Landau in der Pfalz, kreisfreie Stadt","type":"Kreisfreie_Stadt"},"federalState":{"key":"07","name":"Rheinland-Pfalz"}},{"name":"Kaysersbergstr.","postalCode":"76829","locality":"Landau in der Pfalz","municipality":{"key":"07313000","name":"Landau in der Pfalz, Stadt","type":"Kreisfreie_Stadt"},"district":{"key":"07313","name":"Landau in der Pfalz, kreisfreie Stadt","type":"Kreisfreie_Stadt"},"federalState":{"key":"07","name":"Rheinland-Pfalz"}},{"name":"Kellereigasse","postalCode":"76829","locality":"Landau in der Pfalz","municipality":{"key":"07313000","name":"Landau in der Pfalz, Stadt","type":"Kreisfreie_Stadt"},"district":{"key":"07313","name":"Landau in der Pfalz, kreisfreie Stadt","type":"Kreisfreie_Stadt"},"federalState":{"key":"07","name":"Rheinland-Pfalz"}},{"name":"Kernerstr.","postalCode":"76829","locality":"Landau in der Pfalz","municipality":{"key":"07313000","name":"Landau in der Pfalz, Stadt","type":"Kreisfreie_Stadt"},"district":{"key":"07313","name":"Landau in der Pfalz, kreisfreie Stadt","type":"Kreisfreie_Stadt"},"federalState":{"key":"07","name":"Rheinland-Pfalz"}},{"name":"Kirchgasse","postalCode":"76829","locality":"Landau in der Pfalz","municipality":{"key":"07313000","name":"Landau in der Pfalz, Stadt","type":"Kreisfreie_Stadt"},"district":{"key":"07313","name":"Landau in der Pfalz, kreisfreie Stadt","type":"Kreisfreie_Stadt"},"federalState":{"key":"07","name":"Rheinland-Pfalz"}},{"name":"Kirchhohl","postalCode":"76829","locality":"Landau in der Pfalz","municipality":{"key":"07313000","name":"Landau in der Pfalz, Stadt","type":"Kreisfreie_Stadt"},"district":{"key":"07313","name":"Landau in der Pfalz, kreisfreie Stadt","type":"Kreisfreie_Stadt"},"federalState":{"key":"07","name":"Rheinland-Pfalz"}},{"name":"Kirchstr.","postalCode":"76829","locality":"Landau in der Pfalz","municipality":{"key":"07313000","name":"Landau in der Pfalz, Stadt","type":"Kreisfreie_Stadt"},"district":{"key":"07313","name":"Landau in der Pfalz, kreisfreie Stadt","type":"Kreisfreie_Stadt"},"federalState":{"key":"07","name":"Rheinland-Pfalz"}},{"name":"Klaus-von-Klitzing-Str.","postalCode":"76829","locality":"Landau in der Pfalz","municipality":{"key":"07313000","name":"Landau in der Pfalz, Stadt","type":"Kreisfreie_Stadt"},"district":{"key":"07313","name":"Landau in der Pfalz, kreisfreie Stadt","type":"Kreisfreie_Stadt"},"federalState":{"key":"07","name":"Rheinland-Pfalz"}},{"name":"Kleiner Platz","postalCode":"76829","locality":"Landau in der Pfalz","municipality":{"key":"07313000","name":"Landau in der Pfalz, Stadt","type":"Kreisfreie_Stadt"},"district":{"key":"07313","name":"Landau in der Pfalz, kreisfreie Stadt","type":"Kreisfreie_Stadt"},"federalState":{"key":"07","name":"Rheinland-Pfalz"}},{"name":"Kleiner Sand","postalCode":"76829","locality":"Landau in der Pfalz","municipality":{"key":"07313000","name":"Landau in der Pfalz, Stadt","type":"Kreisfreie_Stadt"},"district":{"key":"07313","name":"Landau in der Pfalz, kreisfreie Stadt","type":"Kreisfreie_Stadt"},"federalState":{"key":"07","name":"Rheinland-Pfalz"}},{"name":"Klingbachstr.","postalCode":"76829","locality":"Landau in der Pfalz","municipality":{"key":"07313000","name":"Landau in der Pfalz, Stadt","type":"Kreisfreie_Stadt"},"district":{"key":"07313","name":"Landau in der Pfalz, kreisfreie Stadt","type":"Kreisfreie_Stadt"},"federalState":{"key":"07","name":"Rheinland-Pfalz"}},{"name":"Kohl-Larsen-Str.","postalCode":"76829","locality":"Landau in der Pfalz","municipality":{"key":"07313000","name":"Landau in der Pfalz, Stadt","type":"Kreisfreie_Stadt"},"district":{"key":"07313","name":"Landau in der Pfalz, kreisfreie Stadt","type":"Kreisfreie_Stadt"},"federalState":{"key":"07","name":"Rheinland-Pfalz"}},{"name":"Kohlwoog","postalCode":"76829","locality":"Landau in der Pfalz","municipality":{"key":"07313000","name":"Landau in der Pfalz, Stadt","type":"Kreisfreie_Stadt"},"district":{"key":"07313","name":"Landau in der Pfalz, kreisfreie Stadt","type":"Kreisfreie_Stadt"},"federalState":{"key":"07","name":"Rheinland-Pfalz"}},{"name":"Kolmarer Str.","postalCode":"76829","locality":"Landau in der Pfalz","municipality":{"key":"07313000","name":"Landau in der Pfalz, Stadt","type":"Kreisfreie_Stadt"},"district":{"key":"07313","name":"Landau in der Pfalz, kreisfreie Stadt","type":"Kreisfreie_Stadt"},"federalState":{"key":"07","name":"Rheinland-Pfalz"}},{"name":"Kölner Str.","postalCode":"76829","locality":"Landau in der Pfalz","municipality":{"key":"07313000","name":"Landau in der Pfalz, Stadt","type":"Kreisfreie_Stadt"},"district":{"key":"07313","name":"Landau in der Pfalz, kreisfreie Stadt","type":"Kreisfreie_Stadt"},"federalState":{"key":"07","name":"Rheinland-Pfalz"}},{"name":"Königsberger Str.","postalCode":"76829","locality":"Landau in der Pfalz","municipality":{"key":"07313000","name":"Landau in der Pfalz, Stadt","type":"Kreisfreie_Stadt"},"district":{"key":"07313","name":"Landau in der Pfalz, kreisfreie Stadt","type":"Kreisfreie_Stadt"},"federalState":{"key":"07","name":"Rheinland-Pfalz"}},{"name":"Königstr.","postalCode":"76829","locality":"Landau in der Pfalz","municipality":{"key":"07313000","name":"Landau in der Pfalz, Stadt","type":"Kreisfreie_Stadt"},"district":{"key":"07313","name":"Landau in der Pfalz, kreisfreie Stadt","type":"Kreisfreie_Stadt"},"federalState":{"key":"07","name":"Rheinland-Pfalz"}},{"name":"Konrad-Adenauer-Str.","postalCode":"76829","locality":"Landau in der Pfalz","municipality":{"key":"07313000","name":"Landau in der Pfalz, Stadt","type":"Kreisfreie_Stadt"},"district":{"key":"07313","name":"Landau in der Pfalz, kreisfreie Stadt","type":"Kreisfreie_Stadt"},"federalState":{"key":"07","name":"Rheinland-Pfalz"}},{"name":"Konrad-Krez-Str.","postalCode":"76829","locality":"Landau in der Pfalz","municipality":{"key":"07313000","name":"Landau in der Pfalz, Stadt","type":"Kreisfreie_Stadt"},"district":{"key":"07313","name":"Landau in der Pfalz, kreisfreie Stadt","type":"Kreisfreie_Stadt"},"federalState":{"key":"07","name":"Rheinland-Pfalz"}},{"name":"Kraftgasse","postalCode":"76829","locality":"Landau in der Pfalz","municipality":{"key":"07313000","name":"Landau in der Pfalz, Stadt","type":"Kreisfreie_Stadt"},"district":{"key":"07313","name":"Landau in der Pfalz, kreisfreie Stadt","type":"Kreisfreie_Stadt"},"federalState":{"key":"07","name":"Rheinland-Pfalz"}},{"name":"Krämergasse","postalCode":"76829","locality":"Landau in der Pfalz","municipality":{"key":"07313000","name":"Landau in der Pfalz, Stadt","type":"Kreisfreie_Stadt"},"district":{"key":"07313","name":"Landau in der Pfalz, kreisfreie Stadt","type":"Kreisfreie_Stadt"},"federalState":{"key":"07","name":"Rheinland-Pfalz"}},{"name":"Kramstr.","postalCode":"76829","locality":"Landau in der Pfalz","municipality":{"key":"07313000","name":"Landau in der Pfalz, Stadt","type":"Kreisfreie_Stadt"},"district":{"key":"07313","name":"Landau in der Pfalz, kreisfreie Stadt","type":"Kreisfreie_Stadt"},"federalState":{"key":"07","name":"Rheinland-Pfalz"}},{"name":"Kronstr.","postalCode":"76829","locality":"Landau in der Pfalz","municipality":{"key":"07313000","name":"Landau in der Pfalz, Stadt","type":"Kreisfreie_Stadt"},"district":{"key":"07313","name":"Landau in der Pfalz, kreisfreie Stadt","type":"Kreisfreie_Stadt"},"federalState":{"key":"07","name":"Rheinland-Pfalz"}},{"name":"Kropsburgstr.","postalCode":"76829","locality":"Landau in der Pfalz","municipality":{"key":"07313000","name":"Landau in der Pfalz, Stadt","type":"Kreisfreie_Stadt"},"district":{"key":"07313","name":"Landau in der Pfalz, kreisfreie Stadt","type":"Kreisfreie_Stadt"},"federalState":{"key":"07","name":"Rheinland-Pfalz"}},{"name":"Kugelgartenstr.","postalCode":"76829","locality":"Landau in der Pfalz","municipality":{"key":"07313000","name":"Landau in der Pfalz, Stadt","type":"Kreisfreie_Stadt"},"district":{"key":"07313","name":"Landau in der Pfalz, kreisfreie Stadt","type":"Kreisfreie_Stadt"},"federalState":{"key":"07","name":"Rheinland-Pfalz"}},{"name":"L509","postalCode":"76829","locality":"Landau in der Pfalz","municipality":{"key":"07313000","name":"Landau in der Pfalz, Stadt","type":"Kreisfreie_Stadt"},"district":{"key":"07313","name":"Landau in der Pfalz, kreisfreie Stadt","type":"Kreisfreie_Stadt"},"federalState":{"key":"07","name":"Rheinland-Pfalz"}},{"name":"Landauer Str.","postalCode":"76829","locality":"Landau in der Pfalz","municipality":{"key":"07313000","name":"Landau in der Pfalz, Stadt","type":"Kreisfreie_Stadt"},"district":{"key":"07313","name":"Landau in der Pfalz, kreisfreie Stadt","type":"Kreisfreie_Stadt"},"federalState":{"key":"07","name":"Rheinland-Pfalz"}},{"name":"Landauer Str.","postalCode":"76831","locality":"Ilbesheim bei Landau in der Pfalz","municipality":{"key":"07337042","name":"Ilbesheim bei Landau in der Pfalz","type":"Kreisangehörige_Gemeinde"},"district":{"key":"07337","name":"Südliche Weinstraße","type":"Landkreis"},"federalState":{"key":"07","name":"Rheinland-Pfalz"}},{"name":"Landeckstr.","postalCode":"76829","locality":"Landau in der Pfalz","municipality":{"key":"07313000","name":"Landau in der Pfalz, Stadt","type":"Kreisfreie_Stadt"},"district":{"key":"07313","name":"Landau in der Pfalz, kreisfreie Stadt","type":"Kreisfreie_Stadt"},"federalState":{"key":"07","name":"Rheinland-Pfalz"}},{"name":"Landwehrstr.","postalCode":"76829","locality":"Landau in der Pfalz","municipality":{"key":"07313000","name":"Landau in der Pfalz, Stadt","type":"Kreisfreie_Stadt"},"district":{"key":"07313","name":"Landau in der Pfalz, kreisfreie Stadt","type":"Kreisfreie_Stadt"},"federalState":{"key":"07","name":"Rheinland-Pfalz"}},{"name":"Langstr.","postalCode":"76829","locality":"Landau in der Pfalz","municipality":{"key":"07313000","name":"Landau in der Pfalz, Stadt","type":"Kreisfreie_Stadt"},"district":{"key":"07313","name":"Landau in der Pfalz, kreisfreie Stadt","type":"Kreisfreie_Stadt"},"federalState":{"key":"07","name":"Rheinland-Pfalz"}},{"name":"Lazarettgarten","postalCode":"76829","locality":"Landau in der Pfalz","municipality":{"key":"07313000","name":"Landau in der Pfalz, Stadt","type":"Kreisfreie_Stadt"},"district":{"key":"07313","name":"Landau in der Pfalz, kreisfreie Stadt","type":"Kreisfreie_Stadt"},"federalState":{"key":"07","name":"Rheinland-Pfalz"}},{"name":"Lazarettstr.","postalCode":"76829","locality":"Landau in der Pfalz","municipality":{"key":"07313000","name":"Landau in der Pfalz, Stadt","type":"Kreisfreie_Stadt"},"district":{"key":"07313","name":"Landau in der Pfalz, kreisfreie Stadt","type":"Kreisfreie_Stadt"},"federalState":{"key":"07","name":"Rheinland-Pfalz"}},{"name":"Leinsweilerstr.","postalCode":"76831","locality":"Ilbesheim bei Landau in der Pfalz","municipality":{"key":"07337042","name":"Ilbesheim bei Landau in der Pfalz","type":"Kreisangehörige_Gemeinde"},"district":{"key":"07337","name":"Südliche Weinstraße","type":"Landkreis"},"federalState":{"key":"07","name":"Rheinland-Pfalz"}},{"name":"Leipziger Str.","postalCode":"76829","locality":"Landau in der Pfalz","municipality":{"key":"07313000","name":"Landau in der Pfalz, Stadt","type":"Kreisfreie_Stadt"},"district":{"key":"07313","name":"Landau in der Pfalz, kreisfreie Stadt","type":"Kreisfreie_Stadt"},"federalState":{"key":"07","name":"Rheinland-Pfalz"}},{"name":"Lerchenstr.","postalCode":"76829","locality":"Landau in der Pfalz","municipality":{"key":"07313000","name":"Landau in der Pfalz, Stadt","type":"Kreisfreie_Stadt"},"district":{"key":"07313","name":"Landau in der Pfalz, kreisfreie Stadt","type":"Kreisfreie_Stadt"},"federalState":{"key":"07","name":"Rheinland-Pfalz"}},{"name":"Lerchenweg","postalCode":"76829","locality":"Landau in der Pfalz","municipality":{"key":"07313000","name":"Landau in der Pfalz, Stadt","type":"Kreisfreie_Stadt"},"district":{"key":"07313","name":"Landau in der Pfalz, kreisfreie Stadt","type":"Kreisfreie_Stadt"},"federalState":{"key":"07","name":"Rheinland-Pfalz"}},{"name":"Liebigstr.","postalCode":"76829","locality":"Landau in der Pfalz","municipality":{"key":"07313000","name":"Landau in der Pfalz, Stadt","type":"Kreisfreie_Stadt"},"district":{"key":"07313","name":"Landau in der Pfalz, kreisfreie Stadt","type":"Kreisfreie_Stadt"},"federalState":{"key":"07","name":"Rheinland-Pfalz"}},{"name":"Limburgstr.","postalCode":"76829","locality":"Landau in der Pfalz","municipality":{"key":"07313000","name":"Landau in der Pfalz, Stadt","type":"Kreisfreie_Stadt"},"district":{"key":"07313","name":"Landau in der Pfalz, kreisfreie Stadt","type":"Kreisfreie_Stadt"},"federalState":{"key":"07","name":"Rheinland-Pfalz"}},{"name":"Lina-Kößler-Str.","postalCode":"76829","locality":"Landau in der Pfalz","municipality":{"key":"07313000","name":"Landau in der Pfalz, Stadt","type":"Kreisfreie_Stadt"},"district":{"key":"07313","name":"Landau in der Pfalz, kreisfreie Stadt","type":"Kreisfreie_Stadt"},"federalState":{"key":"07","name":"Rheinland-Pfalz"}},{"name":"Lindelbrunnstr.","postalCode":"76829","locality":"Landau in der Pfalz","municipality":{"key":"07313000","name":"Landau in der Pfalz, Stadt","type":"Kreisfreie_Stadt"},"district":{"key":"07313","name":"Landau in der Pfalz, kreisfreie Stadt","type":"Kreisfreie_Stadt"},"federalState":{"key":"07","name":"Rheinland-Pfalz"}},{"name":"Lindenbergstr.","postalCode":"76829","locality":"Landau in der Pfalz","municipality":{"key":"07313000","name":"Landau in der Pfalz, Stadt","type":"Kreisfreie_Stadt"},"district":{"key":"07313","name":"Landau in der Pfalz, kreisfreie Stadt","type":"Kreisfreie_Stadt"},"federalState":{"key":"07","name":"Rheinland-Pfalz"}},{"name":"Linienstr.","postalCode":"76829","locality":"Landau in der Pfalz","municipality":{"key":"07313000","name":"Landau in der Pfalz, Stadt","type":"Kreisfreie_Stadt"},"district":{"key":"07313","name":"Landau in der Pfalz, kreisfreie Stadt","type":"Kreisfreie_Stadt"},"federalState":{"key":"07","name":"Rheinland-Pfalz"}},{"name":"Lise-Meitner-Str.","postalCode":"76829","locality":"Landau in der Pfalz","municipality":{"key":"07313000","name":"Landau in der Pfalz, Stadt","type":"Kreisfreie_Stadt"},"district":{"key":"07313","name":"Landau in der Pfalz, kreisfreie Stadt","type":"Kreisfreie_Stadt"},"federalState":{"key":"07","name":"Rheinland-Pfalz"}},{"name":"Litschenbecherstr.","postalCode":"76829","locality":"Landau in der Pfalz","municipality":{"key":"07313000","name":"Landau in der Pfalz, Stadt","type":"Kreisfreie_Stadt"},"district":{"key":"07313","name":"Landau in der Pfalz, kreisfreie Stadt","type":"Kreisfreie_Stadt"},"federalState":{"key":"07","name":"Rheinland-Pfalz"}},{"name":"Löhlstr.","postalCode":"76829","locality":"Landau in der Pfalz","municipality":{"key":"07313000","name":"Landau in der Pfalz, Stadt","type":"Kreisfreie_Stadt"},"district":{"key":"07313","name":"Landau in der Pfalz, kreisfreie Stadt","type":"Kreisfreie_Stadt"},"federalState":{"key":"07","name":"Rheinland-Pfalz"}},{"name":"Löschweiler Weg","postalCode":"76829","locality":"Landau in der Pfalz","municipality":{"key":"07313000","name":"Landau in der Pfalz, Stadt","type":"Kreisfreie_Stadt"},"district":{"key":"07313","name":"Landau in der Pfalz, kreisfreie Stadt","type":"Kreisfreie_Stadt"},"federalState":{"key":"07","name":"Rheinland-Pfalz"}},{"name":"Lotschstr.","postalCode":"76829","locality":"Landau in der Pfalz","municipality":{"key":"07313000","name":"Landau in der Pfalz, Stadt","type":"Kreisfreie_Stadt"},"district":{"key":"07313","name":"Landau in der Pfalz, kreisfreie Stadt","type":"Kreisfreie_Stadt"},"federalState":{"key":"07","name":"Rheinland-Pfalz"}},{"name":"Ludowicistr.","postalCode":"76829","locality":"Landau in der Pfalz","municipality":{"key":"07313000","name":"Landau in der Pfalz, Stadt","type":"Kreisfreie_Stadt"},"district":{"key":"07313","name":"Landau in der Pfalz, kreisfreie Stadt","type":"Kreisfreie_Stadt"},"federalState":{"key":"07","name":"Rheinland-Pfalz"}},{"name":"Luise-Harteneck-Str.","postalCode":"76829","locality":"Landau in der Pfalz","municipality":{"key":"07313000","name":"Landau in der Pfalz, Stadt","type":"Kreisfreie_Stadt"},"district":{"key":"07313","name":"Landau in der Pfalz, kreisfreie Stadt","type":"Kreisfreie_Stadt"},"federalState":{"key":"07","name":"Rheinland-Pfalz"}},{"name":"Luitpoldpark","postalCode":"76829","locality":"Landau in der Pfalz","municipality":{"key":"07313000","name":"Landau in der Pfalz, Stadt","type":"Kreisfreie_Stadt"},"district":{"key":"07313","name":"Landau in der Pfalz, kreisfreie Stadt","type":"Kreisfreie_Stadt"},"federalState":{"key":"07","name":"Rheinland-Pfalz"}},{"name":"Luitpoldstr.","postalCode":"76829","locality":"Landau in der Pfalz","municipality":{"key":"07313000","name":"Landau in der Pfalz, Stadt","type":"Kreisfreie_Stadt"},"district":{"key":"07313","name":"Landau in der Pfalz, kreisfreie Stadt","type":"Kreisfreie_Stadt"},"federalState":{"key":"07","name":"Rheinland-Pfalz"}},{"name":"Madenburgstr.","postalCode":"76829","locality":"Landau in der Pfalz","municipality":{"key":"07313000","name":"Landau in der Pfalz, Stadt","type":"Kreisfreie_Stadt"},"district":{"key":"07313","name":"Landau in der Pfalz, kreisfreie Stadt","type":"Kreisfreie_Stadt"},"federalState":{"key":"07","name":"Rheinland-Pfalz"}},{"name":"Madenburgstr.","postalCode":"76831","locality":"Ilbesheim bei Landau in der Pfalz","municipality":{"key":"07337042","name":"Ilbesheim bei Landau in der Pfalz","type":"Kreisangehörige_Gemeinde"},"district":{"key":"07337","name":"Südliche Weinstraße","type":"Landkreis"},"federalState":{"key":"07","name":"Rheinland-Pfalz"}},{"name":"Magdeburger Str.","postalCode":"76829","locality":"Landau in der Pfalz","municipality":{"key":"07313000","name":"Landau in der Pfalz, Stadt","type":"Kreisfreie_Stadt"},"district":{"key":"07313","name":"Landau in der Pfalz, kreisfreie Stadt","type":"Kreisfreie_Stadt"},"federalState":{"key":"07","name":"Rheinland-Pfalz"}},{"name":"Mahlastr.","postalCode":"76829","locality":"Landau in der Pfalz","municipality":{"key":"07313000","name":"Landau in der Pfalz, Stadt","type":"Kreisfreie_Stadt"},"district":{"key":"07313","name":"Landau in der Pfalz, kreisfreie Stadt","type":"Kreisfreie_Stadt"},"federalState":{"key":"07","name":"Rheinland-Pfalz"}},{"name":"Mainzer Str.","postalCode":"76829","locality":"Landau in der Pfalz","municipality":{"key":"07313000","name":"Landau in der Pfalz, Stadt","type":"Kreisfreie_Stadt"},"district":{"key":"07313","name":"Landau in der Pfalz, kreisfreie Stadt","type":"Kreisfreie_Stadt"},"federalState":{"key":"07","name":"Rheinland-Pfalz"}},{"name":"Maria-Goeppert-Mayer-Str.","postalCode":"76829","locality":"Landau in der Pfalz","municipality":{"key":"07313000","name":"Landau in der Pfalz, Stadt","type":"Kreisfreie_Stadt"},"district":{"key":"07313","name":"Landau in der Pfalz, kreisfreie Stadt","type":"Kreisfreie_Stadt"},"federalState":{"key":"07","name":"Rheinland-Pfalz"}},{"name":"Marianne-Carré-Str.","postalCode":"76829","locality":"Landau in der Pfalz","municipality":{"key":"07313000","name":"Landau in der Pfalz, Stadt","type":"Kreisfreie_Stadt"},"district":{"key":"07313","name":"Landau in der Pfalz, kreisfreie Stadt","type":"Kreisfreie_Stadt"},"federalState":{"key":"07","name":"Rheinland-Pfalz"}},{"name":"Marie-Curie-Str.","postalCode":"76829","locality":"Landau in der Pfalz","municipality":{"key":"07313000","name":"Landau in der Pfalz, Stadt","type":"Kreisfreie_Stadt"},"district":{"key":"07313","name":"Landau in der Pfalz, kreisfreie Stadt","type":"Kreisfreie_Stadt"},"federalState":{"key":"07","name":"Rheinland-Pfalz"}},{"name":"Marienring","postalCode":"76829","locality":"Landau in der Pfalz","municipality":{"key":"07313000","name":"Landau in der Pfalz, Stadt","type":"Kreisfreie_Stadt"},"district":{"key":"07313","name":"Landau in der Pfalz, kreisfreie Stadt","type":"Kreisfreie_Stadt"},"federalState":{"key":"07","name":"Rheinland-Pfalz"}},{"name":"Marktstr.","postalCode":"76829","locality":"Landau in der Pfalz","municipality":{"key":"07313000","name":"Landau in der Pfalz, Stadt","type":"Kreisfreie_Stadt"},"district":{"key":"07313","name":"Landau in der Pfalz, kreisfreie Stadt","type":"Kreisfreie_Stadt"},"federalState":{"key":"07","name":"Rheinland-Pfalz"}},{"name":"Martha-Saalfeld-Platz","postalCode":"76829","locality":"Landau in der Pfalz","municipality":{"key":"07313000","name":"Landau in der Pfalz, Stadt","type":"Kreisfreie_Stadt"},"district":{"key":"07313","name":"Landau in der Pfalz, kreisfreie Stadt","type":"Kreisfreie_Stadt"},"federalState":{"key":"07","name":"Rheinland-Pfalz"}},{"name":"Martin-Greif-Str.","postalCode":"76829","locality":"Landau in der Pfalz","municipality":{"key":"07313000","name":"Landau in der Pfalz, Stadt","type":"Kreisfreie_Stadt"},"district":{"key":"07313","name":"Landau in der Pfalz, kreisfreie Stadt","type":"Kreisfreie_Stadt"},"federalState":{"key":"07","name":"Rheinland-Pfalz"}},{"name":"Martin-Luther-Str.","postalCode":"76829","locality":"Landau in der Pfalz","municipality":{"key":"07313000","name":"Landau in der Pfalz, Stadt","type":"Kreisfreie_Stadt"},"district":{"key":"07313","name":"Landau in der Pfalz, kreisfreie Stadt","type":"Kreisfreie_Stadt"},"federalState":{"key":"07","name":"Rheinland-Pfalz"}},{"name":"Maxburgstr.","postalCode":"76829","locality":"Landau in der Pfalz","municipality":{"key":"07313000","name":"Landau in der Pfalz, Stadt","type":"Kreisfreie_Stadt"},"district":{"key":"07313","name":"Landau in der Pfalz, kreisfreie Stadt","type":"Kreisfreie_Stadt"},"federalState":{"key":"07","name":"Rheinland-Pfalz"}},{"name":"Maximilianstr.","postalCode":"76829","locality":"Landau in der Pfalz","municipality":{"key":"07313000","name":"Landau in der Pfalz, Stadt","type":"Kreisfreie_Stadt"},"district":{"key":"07313","name":"Landau in der Pfalz, kreisfreie Stadt","type":"Kreisfreie_Stadt"},"federalState":{"key":"07","name":"Rheinland-Pfalz"}},{"name":"Max-Planck-Str.","postalCode":"76829","locality":"Landau in der Pfalz","municipality":{"key":"07313000","name":"Landau in der Pfalz, Stadt","type":"Kreisfreie_Stadt"},"district":{"key":"07313","name":"Landau in der Pfalz, kreisfreie Stadt","type":"Kreisfreie_Stadt"},"federalState":{"key":"07","name":"Rheinland-Pfalz"}},{"name":"Max-von-Laue-Str.","postalCode":"76829","locality":"Landau in der Pfalz","municipality":{"key":"07313000","name":"Landau in der Pfalz, Stadt","type":"Kreisfreie_Stadt"},"district":{"key":"07313","name":"Landau in der Pfalz, kreisfreie Stadt","type":"Kreisfreie_Stadt"},"federalState":{"key":"07","name":"Rheinland-Pfalz"}},{"name":"Mecklenburger Str.","postalCode":"76829","locality":"Landau in der Pfalz","municipality":{"key":"07313000","name":"Landau in der Pfalz, Stadt","type":"Kreisfreie_Stadt"},"district":{"key":"07313","name":"Landau in der Pfalz, kreisfreie Stadt","type":"Kreisfreie_Stadt"},"federalState":{"key":"07","name":"Rheinland-Pfalz"}},{"name":"Meerweibchenstr.","postalCode":"76829","locality":"Landau in der Pfalz","municipality":{"key":"07313000","name":"Landau in der Pfalz, Stadt","type":"Kreisfreie_Stadt"},"district":{"key":"07313","name":"Landau in der Pfalz, kreisfreie Stadt","type":"Kreisfreie_Stadt"},"federalState":{"key":"07","name":"Rheinland-Pfalz"}},{"name":"Meisenstr.","postalCode":"76829","locality":"Landau in der Pfalz","municipality":{"key":"07313000","name":"Landau in der Pfalz, Stadt","type":"Kreisfreie_Stadt"},"district":{"key":"07313","name":"Landau in der Pfalz, kreisfreie Stadt","type":"Kreisfreie_Stadt"},"federalState":{"key":"07","name":"Rheinland-Pfalz"}},{"name":"Meisenweg","postalCode":"76829","locality":"Landau in der Pfalz","municipality":{"key":"07313000","name":"Landau in der Pfalz, Stadt","type":"Kreisfreie_Stadt"},"district":{"key":"07313","name":"Landau in der Pfalz, kreisfreie Stadt","type":"Kreisfreie_Stadt"},"federalState":{"key":"07","name":"Rheinland-Pfalz"}},{"name":"Meisterselstr.","postalCode":"76829","locality":"Landau in der Pfalz","municipality":{"key":"07313000","name":"Landau in der Pfalz, Stadt","type":"Kreisfreie_Stadt"},"district":{"key":"07313","name":"Landau in der Pfalz, kreisfreie Stadt","type":"Kreisfreie_Stadt"},"federalState":{"key":"07","name":"Rheinland-Pfalz"}},{"name":"Merowingerstr.","postalCode":"76829","locality":"Landau in der Pfalz","municipality":{"key":"07313000","name":"Landau in der Pfalz, Stadt","type":"Kreisfreie_Stadt"},"district":{"key":"07313","name":"Landau in der Pfalz, kreisfreie Stadt","type":"Kreisfreie_Stadt"},"federalState":{"key":"07","name":"Rheinland-Pfalz"}},{"name":"Michel-Bréal-Str.","postalCode":"76829","locality":"Landau in der Pfalz","municipality":{"key":"07313000","name":"Landau in der Pfalz, Stadt","type":"Kreisfreie_Stadt"},"district":{"key":"07313","name":"Landau in der Pfalz, kreisfreie Stadt","type":"Kreisfreie_Stadt"},"federalState":{"key":"07","name":"Rheinland-Pfalz"}},{"name":"Modenbachstr.","postalCode":"76829","locality":"Landau in der Pfalz","municipality":{"key":"07313000","name":"Landau in der Pfalz, Stadt","type":"Kreisfreie_Stadt"},"district":{"key":"07313","name":"Landau in der Pfalz, kreisfreie Stadt","type":"Kreisfreie_Stadt"},"federalState":{"key":"07","name":"Rheinland-Pfalz"}},{"name":"Moltkestr.","postalCode":"76829","locality":"Landau in der Pfalz","municipality":{"key":"07313000","name":"Landau in der Pfalz, Stadt","type":"Kreisfreie_Stadt"},"district":{"key":"07313","name":"Landau in der Pfalz, kreisfreie Stadt","type":"Kreisfreie_Stadt"},"federalState":{"key":"07","name":"Rheinland-Pfalz"}},{"name":"Mörlheimer Hauptstr.","postalCode":"76829","locality":"Landau in der Pfalz","municipality":{"key":"07313000","name":"Landau in der Pfalz, Stadt","type":"Kreisfreie_Stadt"},"district":{"key":"07313","name":"Landau in der Pfalz, kreisfreie Stadt","type":"Kreisfreie_Stadt"},"federalState":{"key":"07","name":"Rheinland-Pfalz"}},{"name":"Mörzheimer Hauptstr.","postalCode":"76829","locality":"Landau in der Pfalz","municipality":{"key":"07313000","name":"Landau in der Pfalz, Stadt","type":"Kreisfreie_Stadt"},"district":{"key":"07313","name":"Landau in der Pfalz, kreisfreie Stadt","type":"Kreisfreie_Stadt"},"federalState":{"key":"07","name":"Rheinland-Pfalz"}},{"name":"Mörzheimer Str.","postalCode":"76829","locality":"Landau in der Pfalz","municipality":{"key":"07313000","name":"Landau in der Pfalz, Stadt","type":"Kreisfreie_Stadt"},"district":{"key":"07313","name":"Landau in der Pfalz, kreisfreie Stadt","type":"Kreisfreie_Stadt"},"federalState":{"key":"07","name":"Rheinland-Pfalz"}},{"name":"Mozartstr.","postalCode":"76829","locality":"Landau in der Pfalz","municipality":{"key":"07313000","name":"Landau in der Pfalz, Stadt","type":"Kreisfreie_Stadt"},"district":{"key":"07313","name":"Landau in der Pfalz, kreisfreie Stadt","type":"Kreisfreie_Stadt"},"federalState":{"key":"07","name":"Rheinland-Pfalz"}},{"name":"Mühlhausenstr.","postalCode":"76829","locality":"Landau in der Pfalz","municipality":{"key":"07313000","name":"Landau in der Pfalz, Stadt","type":"Kreisfreie_Stadt"},"district":{"key":"07313","name":"Landau in der Pfalz, kreisfreie Stadt","type":"Kreisfreie_Stadt"},"federalState":{"key":"07","name":"Rheinland-Pfalz"}},{"name":"Mühlstr.","postalCode":"76829","locality":"Landau in der Pfalz","municipality":{"key":"07313000","name":"Landau in der Pfalz, Stadt","type":"Kreisfreie_Stadt"},"district":{"key":"07313","name":"Landau in der Pfalz, kreisfreie Stadt","type":"Kreisfreie_Stadt"},"federalState":{"key":"07","name":"Rheinland-Pfalz"}},{"name":"Mühlweg","postalCode":"76829","locality":"Landau in der Pfalz","municipality":{"key":"07313000","name":"Landau in der Pfalz, Stadt","type":"Kreisfreie_Stadt"},"district":{"key":"07313","name":"Landau in der Pfalz, kreisfreie Stadt","type":"Kreisfreie_Stadt"},"federalState":{"key":"07","name":"Rheinland-Pfalz"}},{"name":"Müller-Thurgau-Str.","postalCode":"76829","locality":"Landau in der Pfalz","municipality":{"key":"07313000","name":"Landau in der Pfalz, Stadt","type":"Kreisfreie_Stadt"},"district":{"key":"07313","name":"Landau in der Pfalz, kreisfreie Stadt","type":"Kreisfreie_Stadt"},"federalState":{"key":"07","name":"Rheinland-Pfalz"}},{"name":"Münchener Str.","postalCode":"76829","locality":"Landau in der Pfalz","municipality":{"key":"07313000","name":"Landau in der Pfalz, Stadt","type":"Kreisfreie_Stadt"},"district":{"key":"07313","name":"Landau in der Pfalz, kreisfreie Stadt","type":"Kreisfreie_Stadt"},"federalState":{"key":"07","name":"Rheinland-Pfalz"}},{"name":"Münsterstr.","postalCode":"76829","locality":"Landau in der Pfalz","municipality":{"key":"07313000","name":"Landau in der Pfalz, Stadt","type":"Kreisfreie_Stadt"},"district":{"key":"07313","name":"Landau in der Pfalz, kreisfreie Stadt","type":"Kreisfreie_Stadt"},"federalState":{"key":"07","name":"Rheinland-Pfalz"}},{"name":"Münzbergweg","postalCode":"76829","locality":"Landau in der Pfalz","municipality":{"key":"07313000","name":"Landau in der Pfalz, Stadt","type":"Kreisfreie_Stadt"},"district":{"key":"07313","name":"Landau in der Pfalz, kreisfreie Stadt","type":"Kreisfreie_Stadt"},"federalState":{"key":"07","name":"Rheinland-Pfalz"}},{"name":"Nachtigallenweg","postalCode":"76829","locality":"Landau in der Pfalz","municipality":{"key":"07313000","name":"Landau in der Pfalz, Stadt","type":"Kreisfreie_Stadt"},"district":{"key":"07313","name":"Landau in der Pfalz, kreisfreie Stadt","type":"Kreisfreie_Stadt"},"federalState":{"key":"07","name":"Rheinland-Pfalz"}},{"name":"Nauweg","postalCode":"76829","locality":"Landau in der Pfalz","municipality":{"key":"07313000","name":"Landau in der Pfalz, Stadt","type":"Kreisfreie_Stadt"},"district":{"key":"07313","name":"Landau in der Pfalz, kreisfreie Stadt","type":"Kreisfreie_Stadt"},"federalState":{"key":"07","name":"Rheinland-Pfalz"}},{"name":"Neugasse","postalCode":"76829","locality":"Landau in der Pfalz","municipality":{"key":"07313000","name":"Landau in der Pfalz, Stadt","type":"Kreisfreie_Stadt"},"district":{"key":"07313","name":"Landau in der Pfalz, kreisfreie Stadt","type":"Kreisfreie_Stadt"},"federalState":{"key":"07","name":"Rheinland-Pfalz"}},{"name":"Neumühlgasse","postalCode":"76829","locality":"Landau in der Pfalz","municipality":{"key":"07313000","name":"Landau in der Pfalz, Stadt","type":"Kreisfreie_Stadt"},"district":{"key":"07313","name":"Landau in der Pfalz, kreisfreie Stadt","type":"Kreisfreie_Stadt"},"federalState":{"key":"07","name":"Rheinland-Pfalz"}},{"name":"Neustadter Str.","postalCode":"76829","locality":"Landau in der Pfalz","municipality":{"key":"07313000","name":"Landau in der Pfalz, Stadt","type":"Kreisfreie_Stadt"},"district":{"key":"07313","name":"Landau in der Pfalz, kreisfreie Stadt","type":"Kreisfreie_Stadt"},"federalState":{"key":"07","name":"Rheinland-Pfalz"}},{"name":"Nikolaus-Moll-Str.","postalCode":"76829","locality":"Landau in der Pfalz","municipality":{"key":"07313000","name":"Landau in der Pfalz, Stadt","type":"Kreisfreie_Stadt"},"district":{"key":"07313","name":"Landau in der Pfalz, kreisfreie Stadt","type":"Kreisfreie_Stadt"},"federalState":{"key":"07","name":"Rheinland-Pfalz"}},{"name":"Nordpark","postalCode":"76829","locality":"Landau in der Pfalz","municipality":{"key":"07313000","name":"Landau in der Pfalz, Stadt","type":"Kreisfreie_Stadt"},"district":{"key":"07313","name":"Landau in der Pfalz, kreisfreie Stadt","type":"Kreisfreie_Stadt"},"federalState":{"key":"07","name":"Rheinland-Pfalz"}},{"name":"Nordparkstr.","postalCode":"76829","locality":"Landau in der Pfalz","municipality":{"key":"07313000","name":"Landau in der Pfalz, Stadt","type":"Kreisfreie_Stadt"},"district":{"key":"07313","name":"Landau in der Pfalz, kreisfreie Stadt","type":"Kreisfreie_Stadt"},"federalState":{"key":"07","name":"Rheinland-Pfalz"}},{"name":"Nordring","postalCode":"76829","locality":"Landau in der Pfalz","municipality":{"key":"07313000","name":"Landau in der Pfalz, Stadt","type":"Kreisfreie_Stadt"},"district":{"key":"07313","name":"Landau in der Pfalz, kreisfreie Stadt","type":"Kreisfreie_Stadt"},"federalState":{"key":"07","name":"Rheinland-Pfalz"}},{"name":"Nußbaumgasse","postalCode":"76829","locality":"Landau in der Pfalz","municipality":{"key":"07313000","name":"Landau in der Pfalz, Stadt","type":"Kreisfreie_Stadt"},"district":{"key":"07313","name":"Landau in der Pfalz, kreisfreie Stadt","type":"Kreisfreie_Stadt"},"federalState":{"key":"07","name":"Rheinland-Pfalz"}},{"name":"Nußdorfer Weg","postalCode":"76829","locality":"Landau in der Pfalz","municipality":{"key":"07313000","name":"Landau in der Pfalz, Stadt","type":"Kreisfreie_Stadt"},"district":{"key":"07313","name":"Landau in der Pfalz, kreisfreie Stadt","type":"Kreisfreie_Stadt"},"federalState":{"key":"07","name":"Rheinland-Pfalz"}},{"name":"Oberdorfstr.","postalCode":"76831","locality":"Ilbesheim bei Landau in der Pfalz","municipality":{"key":"07337042","name":"Ilbesheim bei Landau in der Pfalz","type":"Kreisangehörige_Gemeinde"},"district":{"key":"07337","name":"Südliche Weinstraße","type":"Landkreis"},"federalState":{"key":"07","name":"Rheinland-Pfalz"}},{"name":"Oberehnheimer Str.","postalCode":"76829","locality":"Landau in der Pfalz","municipality":{"key":"07313000","name":"Landau in der Pfalz, Stadt","type":"Kreisfreie_Stadt"},"district":{"key":"07313","name":"Landau in der Pfalz, kreisfreie Stadt","type":"Kreisfreie_Stadt"},"federalState":{"key":"07","name":"Rheinland-Pfalz"}},{"name":"Oberer Breitweg","postalCode":"76829","locality":"Landau in der Pfalz","municipality":{"key":"07313000","name":"Landau in der Pfalz, Stadt","type":"Kreisfreie_Stadt"},"district":{"key":"07313","name":"Landau in der Pfalz, kreisfreie Stadt","type":"Kreisfreie_Stadt"},"federalState":{"key":"07","name":"Rheinland-Pfalz"}},{"name":"Oberer Steinweg","postalCode":"76829","locality":"Landau in der Pfalz","municipality":{"key":"07313000","name":"Landau in der Pfalz, Stadt","type":"Kreisfreie_Stadt"},"district":{"key":"07313","name":"Landau in der Pfalz, kreisfreie Stadt","type":"Kreisfreie_Stadt"},"federalState":{"key":"07","name":"Rheinland-Pfalz"}},{"name":"Obere Weide","postalCode":"76829","locality":"Landau in der Pfalz","municipality":{"key":"07313000","name":"Landau in der Pfalz, Stadt","type":"Kreisfreie_Stadt"},"district":{"key":"07313","name":"Landau in der Pfalz, kreisfreie Stadt","type":"Kreisfreie_Stadt"},"federalState":{"key":"07","name":"Rheinland-Pfalz"}},{"name":"Obere Ziegelhütte","postalCode":"76829","locality":"Landau in der Pfalz","municipality":{"key":"07313000","name":"Landau in der Pfalz, Stadt","type":"Kreisfreie_Stadt"},"district":{"key":"07313","name":"Landau in der Pfalz, kreisfreie Stadt","type":"Kreisfreie_Stadt"},"federalState":{"key":"07","name":"Rheinland-Pfalz"}},{"name":"Obertorplatz","postalCode":"76829","locality":"Landau in der Pfalz","municipality":{"key":"07313000","name":"Landau in der Pfalz, Stadt","type":"Kreisfreie_Stadt"},"district":{"key":"07313","name":"Landau in der Pfalz, kreisfreie Stadt","type":"Kreisfreie_Stadt"},"federalState":{"key":"07","name":"Rheinland-Pfalz"}},{"name":"Oberwiesenstr.","postalCode":"76829","locality":"Landau in der Pfalz","municipality":{"key":"07313000","name":"Landau in der Pfalz, Stadt","type":"Kreisfreie_Stadt"},"district":{"key":"07313","name":"Landau in der Pfalz, kreisfreie Stadt","type":"Kreisfreie_Stadt"},"federalState":{"key":"07","name":"Rheinland-Pfalz"}},{"name":"Offenbacher Weg","postalCode":"76829","locality":"Landau in der Pfalz","municipality":{"key":"07313000","name":"Landau in der Pfalz, Stadt","type":"Kreisfreie_Stadt"},"district":{"key":"07313","name":"Landau in der Pfalz, kreisfreie Stadt","type":"Kreisfreie_Stadt"},"federalState":{"key":"07","name":"Rheinland-Pfalz"}},{"name":"Oskar-von-Miller-Str.","postalCode":"76829","locality":"Landau in der Pfalz","municipality":{"key":"07313000","name":"Landau in der Pfalz, Stadt","type":"Kreisfreie_Stadt"},"district":{"key":"07313","name":"Landau in der Pfalz, kreisfreie Stadt","type":"Kreisfreie_Stadt"},"federalState":{"key":"07","name":"Rheinland-Pfalz"}},{"name":"Ostbahnstr.","postalCode":"76829","locality":"Landau in der Pfalz","municipality":{"key":"07313000","name":"Landau in der Pfalz, Stadt","type":"Kreisfreie_Stadt"},"district":{"key":"07313","name":"Landau in der Pfalz, kreisfreie Stadt","type":"Kreisfreie_Stadt"},"federalState":{"key":"07","name":"Rheinland-Pfalz"}},{"name":"Ostpark","postalCode":"76829","locality":"Landau in der Pfalz","municipality":{"key":"07313000","name":"Landau in der Pfalz, Stadt","type":"Kreisfreie_Stadt"},"district":{"key":"07313","name":"Landau in der Pfalz, kreisfreie Stadt","type":"Kreisfreie_Stadt"},"federalState":{"key":"07","name":"Rheinland-Pfalz"}},{"name":"Ostpreußenstr.","postalCode":"76829","locality":"Landau in der Pfalz","municipality":{"key":"07313000","name":"Landau in der Pfalz, Stadt","type":"Kreisfreie_Stadt"},"district":{"key":"07313","name":"Landau in der Pfalz, kreisfreie Stadt","type":"Kreisfreie_Stadt"},"federalState":{"key":"07","name":"Rheinland-Pfalz"}},{"name":"Otto-Hahn-Str.","postalCode":"76829","locality":"Landau in der Pfalz","municipality":{"key":"07313000","name":"Landau in der Pfalz, Stadt","type":"Kreisfreie_Stadt"},"district":{"key":"07313","name":"Landau in der Pfalz, kreisfreie Stadt","type":"Kreisfreie_Stadt"},"federalState":{"key":"07","name":"Rheinland-Pfalz"}},{"name":"Otto-Kießling-Str.","postalCode":"76829","locality":"Landau in der Pfalz","municipality":{"key":"07313000","name":"Landau in der Pfalz, Stadt","type":"Kreisfreie_Stadt"},"district":{"key":"07313","name":"Landau in der Pfalz, kreisfreie Stadt","type":"Kreisfreie_Stadt"},"federalState":{"key":"07","name":"Rheinland-Pfalz"}},{"name":"Parc De Chavot Courcourt","postalCode":"76831","locality":"Ilbesheim bei Landau in der Pfalz","municipality":{"key":"07337042","name":"Ilbesheim bei Landau in der Pfalz","type":"Kreisangehörige_Gemeinde"},"district":{"key":"07337","name":"Südliche Weinstraße","type":"Landkreis"},"federalState":{"key":"07","name":"Rheinland-Pfalz"}},{"name":"Parkstr.","postalCode":"76829","locality":"Landau in der Pfalz","municipality":{"key":"07313000","name":"Landau in der Pfalz, Stadt","type":"Kreisfreie_Stadt"},"district":{"key":"07313","name":"Landau in der Pfalz, kreisfreie Stadt","type":"Kreisfreie_Stadt"},"federalState":{"key":"07","name":"Rheinland-Pfalz"}},{"name":"Pasteurstr.","postalCode":"76829","locality":"Landau in der Pfalz","municipality":{"key":"07313000","name":"Landau in der Pfalz, Stadt","type":"Kreisfreie_Stadt"},"district":{"key":"07313","name":"Landau in der Pfalz, kreisfreie Stadt","type":"Kreisfreie_Stadt"},"federalState":{"key":"07","name":"Rheinland-Pfalz"}},{"name":"Paulgasse","postalCode":"76829","locality":"Landau in der Pfalz","municipality":{"key":"07313000","name":"Landau in der Pfalz, Stadt","type":"Kreisfreie_Stadt"},"district":{"key":"07313","name":"Landau in der Pfalz, kreisfreie Stadt","type":"Kreisfreie_Stadt"},"federalState":{"key":"07","name":"Rheinland-Pfalz"}},{"name":"Paul-Münch-Str.","postalCode":"76829","locality":"Landau in der Pfalz","municipality":{"key":"07313000","name":"Landau in der Pfalz, Stadt","type":"Kreisfreie_Stadt"},"district":{"key":"07313","name":"Landau in der Pfalz, kreisfreie Stadt","type":"Kreisfreie_Stadt"},"federalState":{"key":"07","name":"Rheinland-Pfalz"}},{"name":"Paul-von-Denis-Str.","postalCode":"76829","locality":"Landau in der Pfalz","municipality":{"key":"07313000","name":"Landau in der Pfalz, Stadt","type":"Kreisfreie_Stadt"},"district":{"key":"07313","name":"Landau in der Pfalz, kreisfreie Stadt","type":"Kreisfreie_Stadt"},"federalState":{"key":"07","name":"Rheinland-Pfalz"}},{"name":"Pestalozzistr.","postalCode":"76829","locality":"Landau in der Pfalz","municipality":{"key":"07313000","name":"Landau in der Pfalz, Stadt","type":"Kreisfreie_Stadt"},"district":{"key":"07313","name":"Landau in der Pfalz, kreisfreie Stadt","type":"Kreisfreie_Stadt"},"federalState":{"key":"07","name":"Rheinland-Pfalz"}},{"name":"Peterstr.","postalCode":"76829","locality":"Landau in der Pfalz","municipality":{"key":"07313000","name":"Landau in der Pfalz, Stadt","type":"Kreisfreie_Stadt"},"district":{"key":"07313","name":"Landau in der Pfalz, kreisfreie Stadt","type":"Kreisfreie_Stadt"},"federalState":{"key":"07","name":"Rheinland-Pfalz"}},{"name":"Pfaffenbergstr.","postalCode":"76829","locality":"Landau in der Pfalz","municipality":{"key":"07313000","name":"Landau in der Pfalz, Stadt","type":"Kreisfreie_Stadt"},"district":{"key":"07313","name":"Landau in der Pfalz, kreisfreie Stadt","type":"Kreisfreie_Stadt"},"federalState":{"key":"07","name":"Rheinland-Pfalz"}},{"name":"Pfarrer-Lehmann-Str.","postalCode":"76829","locality":"Landau in der Pfalz","municipality":{"key":"07313000","name":"Landau in der Pfalz, Stadt","type":"Kreisfreie_Stadt"},"district":{"key":"07313","name":"Landau in der Pfalz, kreisfreie Stadt","type":"Kreisfreie_Stadt"},"federalState":{"key":"07","name":"Rheinland-Pfalz"}},{"name":"Pfarrgarten","postalCode":"76829","locality":"Landau in der Pfalz","municipality":{"key":"07313000","name":"Landau in der Pfalz, Stadt","type":"Kreisfreie_Stadt"},"district":{"key":"07313","name":"Landau in der Pfalz, kreisfreie Stadt","type":"Kreisfreie_Stadt"},"federalState":{"key":"07","name":"Rheinland-Pfalz"}},{"name":"Pfarrgasse","postalCode":"76829","locality":"Landau in der Pfalz","municipality":{"key":"07313000","name":"Landau in der Pfalz, Stadt","type":"Kreisfreie_Stadt"},"district":{"key":"07313","name":"Landau in der Pfalz, kreisfreie Stadt","type":"Kreisfreie_Stadt"},"federalState":{"key":"07","name":"Rheinland-Pfalz"}},{"name":"Pfarrweg","postalCode":"76829","locality":"Landau in der Pfalz","municipality":{"key":"07313000","name":"Landau in der Pfalz, Stadt","type":"Kreisfreie_Stadt"},"district":{"key":"07313","name":"Landau in der Pfalz, kreisfreie Stadt","type":"Kreisfreie_Stadt"},"federalState":{"key":"07","name":"Rheinland-Pfalz"}},{"name":"Pfortengasse","postalCode":"76829","locality":"Landau in der Pfalz","municipality":{"key":"07313000","name":"Landau in der Pfalz, Stadt","type":"Kreisfreie_Stadt"},"district":{"key":"07313","name":"Landau in der Pfalz, kreisfreie Stadt","type":"Kreisfreie_Stadt"},"federalState":{"key":"07","name":"Rheinland-Pfalz"}},{"name":"Philosophengarten","postalCode":"76829","locality":"Landau in der Pfalz","municipality":{"key":"07313000","name":"Landau in der Pfalz, Stadt","type":"Kreisfreie_Stadt"},"district":{"key":"07313","name":"Landau in der Pfalz, kreisfreie Stadt","type":"Kreisfreie_Stadt"},"federalState":{"key":"07","name":"Rheinland-Pfalz"}},{"name":"Pinselstr.","postalCode":"76829","locality":"Landau in der Pfalz","municipality":{"key":"07313000","name":"Landau in der Pfalz, Stadt","type":"Kreisfreie_Stadt"},"district":{"key":"07313","name":"Landau in der Pfalz, kreisfreie Stadt","type":"Kreisfreie_Stadt"},"federalState":{"key":"07","name":"Rheinland-Pfalz"}},{"name":"Plöckgasse","postalCode":"76829","locality":"Landau in der Pfalz","municipality":{"key":"07313000","name":"Landau in der Pfalz, Stadt","type":"Kreisfreie_Stadt"},"district":{"key":"07313","name":"Landau in der Pfalz, kreisfreie Stadt","type":"Kreisfreie_Stadt"},"federalState":{"key":"07","name":"Rheinland-Pfalz"}},{"name":"Pockensatz","postalCode":"76829","locality":"Landau in der Pfalz","municipality":{"key":"07313000","name":"Landau in der Pfalz, Stadt","type":"Kreisfreie_Stadt"},"district":{"key":"07313","name":"Landau in der Pfalz, kreisfreie Stadt","type":"Kreisfreie_Stadt"},"federalState":{"key":"07","name":"Rheinland-Pfalz"}},{"name":"Pocketpark","postalCode":"76829","locality":"Landau in der Pfalz","municipality":{"key":"07313000","name":"Landau in der Pfalz, Stadt","type":"Kreisfreie_Stadt"},"district":{"key":"07313","name":"Landau in der Pfalz, kreisfreie Stadt","type":"Kreisfreie_Stadt"},"federalState":{"key":"07","name":"Rheinland-Pfalz"}},{"name":"Pommernstr.","postalCode":"76829","locality":"Landau in der Pfalz","municipality":{"key":"07313000","name":"Landau in der Pfalz, Stadt","type":"Kreisfreie_Stadt"},"district":{"key":"07313","name":"Landau in der Pfalz, kreisfreie Stadt","type":"Kreisfreie_Stadt"},"federalState":{"key":"07","name":"Rheinland-Pfalz"}},{"name":"Portugieserstr.","postalCode":"76829","locality":"Landau in der Pfalz","municipality":{"key":"07313000","name":"Landau in der Pfalz, Stadt","type":"Kreisfreie_Stadt"},"district":{"key":"07313","name":"Landau in der Pfalz, kreisfreie Stadt","type":"Kreisfreie_Stadt"},"federalState":{"key":"07","name":"Rheinland-Pfalz"}},{"name":"Poststr.","postalCode":"76829","locality":"Landau in der Pfalz","municipality":{"key":"07313000","name":"Landau in der Pfalz, Stadt","type":"Kreisfreie_Stadt"},"district":{"key":"07313","name":"Landau in der Pfalz, kreisfreie Stadt","type":"Kreisfreie_Stadt"},"federalState":{"key":"07","name":"Rheinland-Pfalz"}},{"name":"Prießnitzweg","postalCode":"76829","locality":"Landau in der Pfalz","municipality":{"key":"07313000","name":"Landau in der Pfalz, Stadt","type":"Kreisfreie_Stadt"},"district":{"key":"07313","name":"Landau in der Pfalz, kreisfreie Stadt","type":"Kreisfreie_Stadt"},"federalState":{"key":"07","name":"Rheinland-Pfalz"}},{"name":"Prinz-Eugen-Str.","postalCode":"76829","locality":"Landau in der Pfalz","municipality":{"key":"07313000","name":"Landau in der Pfalz, Stadt","type":"Kreisfreie_Stadt"},"district":{"key":"07313","name":"Landau in der Pfalz, kreisfreie Stadt","type":"Kreisfreie_Stadt"},"federalState":{"key":"07","name":"Rheinland-Pfalz"}},{"name":"Queichheimer Hauptstr.","postalCode":"76829","locality":"Landau in der Pfalz","municipality":{"key":"07313000","name":"Landau in der Pfalz, Stadt","type":"Kreisfreie_Stadt"},"district":{"key":"07313","name":"Landau in der Pfalz, kreisfreie Stadt","type":"Kreisfreie_Stadt"},"federalState":{"key":"07","name":"Rheinland-Pfalz"}},{"name":"Queichheimer Str.","postalCode":"76829","locality":"Landau in der Pfalz","municipality":{"key":"07313000","name":"Landau in der Pfalz, Stadt","type":"Kreisfreie_Stadt"},"district":{"key":"07313","name":"Landau in der Pfalz, kreisfreie Stadt","type":"Kreisfreie_Stadt"},"federalState":{"key":"07","name":"Rheinland-Pfalz"}},{"name":"Queichstr.","postalCode":"76829","locality":"Landau in der Pfalz","municipality":{"key":"07313000","name":"Landau in der Pfalz, Stadt","type":"Kreisfreie_Stadt"},"district":{"key":"07313","name":"Landau in der Pfalz, kreisfreie Stadt","type":"Kreisfreie_Stadt"},"federalState":{"key":"07","name":"Rheinland-Pfalz"}},{"name":"Raiffeisenstr.","postalCode":"76829","locality":"Landau in der Pfalz","municipality":{"key":"07313000","name":"Landau in der Pfalz, Stadt","type":"Kreisfreie_Stadt"},"district":{"key":"07313","name":"Landau in der Pfalz, kreisfreie Stadt","type":"Kreisfreie_Stadt"},"federalState":{"key":"07","name":"Rheinland-Pfalz"}},{"name":"Raimund-Huber-Str.","postalCode":"76829","locality":"Landau in der Pfalz","municipality":{"key":"07313000","name":"Landau in der Pfalz, Stadt","type":"Kreisfreie_Stadt"},"district":{"key":"07313","name":"Landau in der Pfalz, kreisfreie Stadt","type":"Kreisfreie_Stadt"},"federalState":{"key":"07","name":"Rheinland-Pfalz"}},{"name":"Ramburgstr.","postalCode":"76829","locality":"Landau in der Pfalz","municipality":{"key":"07313000","name":"Landau in der Pfalz, Stadt","type":"Kreisfreie_Stadt"},"district":{"key":"07313","name":"Landau in der Pfalz, kreisfreie Stadt","type":"Kreisfreie_Stadt"},"federalState":{"key":"07","name":"Rheinland-Pfalz"}},{"name":"Rappoltsweilerstr.","postalCode":"76829","locality":"Landau in der Pfalz","municipality":{"key":"07313000","name":"Landau in der Pfalz, Stadt","type":"Kreisfreie_Stadt"},"district":{"key":"07313","name":"Landau in der Pfalz, kreisfreie Stadt","type":"Kreisfreie_Stadt"},"federalState":{"key":"07","name":"Rheinland-Pfalz"}},{"name":"Rathausplatz","postalCode":"76829","locality":"Landau in der Pfalz","municipality":{"key":"07313000","name":"Landau in der Pfalz, Stadt","type":"Kreisfreie_Stadt"},"district":{"key":"07313","name":"Landau in der Pfalz, kreisfreie Stadt","type":"Kreisfreie_Stadt"},"federalState":{"key":"07","name":"Rheinland-Pfalz"}},{"name":"Ravelinstr.","postalCode":"76829","locality":"Landau in der Pfalz","municipality":{"key":"07313000","name":"Landau in der Pfalz, Stadt","type":"Kreisfreie_Stadt"},"district":{"key":"07313","name":"Landau in der Pfalz, kreisfreie Stadt","type":"Kreisfreie_Stadt"},"federalState":{"key":"07","name":"Rheinland-Pfalz"}},{"name":"Rebenblütenweg","postalCode":"76829","locality":"Landau in der Pfalz","municipality":{"key":"07313000","name":"Landau in der Pfalz, Stadt","type":"Kreisfreie_Stadt"},"district":{"key":"07313","name":"Landau in der Pfalz, kreisfreie Stadt","type":"Kreisfreie_Stadt"},"federalState":{"key":"07","name":"Rheinland-Pfalz"}},{"name":"Reduitstr.","postalCode":"76829","locality":"Landau in der Pfalz","municipality":{"key":"07313000","name":"Landau in der Pfalz, Stadt","type":"Kreisfreie_Stadt"},"district":{"key":"07313","name":"Landau in der Pfalz, kreisfreie Stadt","type":"Kreisfreie_Stadt"},"federalState":{"key":"07","name":"Rheinland-Pfalz"}},{"name":"Rehbachstr.","postalCode":"76829","locality":"Landau in der Pfalz","municipality":{"key":"07313000","name":"Landau in der Pfalz, Stadt","type":"Kreisfreie_Stadt"},"district":{"key":"07313","name":"Landau in der Pfalz, kreisfreie Stadt","type":"Kreisfreie_Stadt"},"federalState":{"key":"07","name":"Rheinland-Pfalz"}},{"name":"Reiterstr.","postalCode":"76829","locality":"Landau in der Pfalz","municipality":{"key":"07313000","name":"Landau in der Pfalz, Stadt","type":"Kreisfreie_Stadt"},"district":{"key":"07313","name":"Landau in der Pfalz, kreisfreie Stadt","type":"Kreisfreie_Stadt"},"federalState":{"key":"07","name":"Rheinland-Pfalz"}},{"name":"Reitschulgasse","postalCode":"76829","locality":"Landau in der Pfalz","municipality":{"key":"07313000","name":"Landau in der Pfalz, Stadt","type":"Kreisfreie_Stadt"},"district":{"key":"07313","name":"Landau in der Pfalz, kreisfreie Stadt","type":"Kreisfreie_Stadt"},"federalState":{"key":"07","name":"Rheinland-Pfalz"}},{"name":"Rheinstr.","postalCode":"76829","locality":"Landau in der Pfalz","municipality":{"key":"07313000","name":"Landau in der Pfalz, Stadt","type":"Kreisfreie_Stadt"},"district":{"key":"07313","name":"Landau in der Pfalz, kreisfreie Stadt","type":"Kreisfreie_Stadt"},"federalState":{"key":"07","name":"Rheinland-Pfalz"}},{"name":"Richard-Joseph-Str.","postalCode":"76829","locality":"Landau in der Pfalz","municipality":{"key":"07313000","name":"Landau in der Pfalz, Stadt","type":"Kreisfreie_Stadt"},"district":{"key":"07313","name":"Landau in der Pfalz, kreisfreie Stadt","type":"Kreisfreie_Stadt"},"federalState":{"key":"07","name":"Rheinland-Pfalz"}},{"name":"Richthofenstr.","postalCode":"76829","locality":"Landau in der Pfalz","municipality":{"key":"07313000","name":"Landau in der Pfalz, Stadt","type":"Kreisfreie_Stadt"},"district":{"key":"07313","name":"Landau in der Pfalz, kreisfreie Stadt","type":"Kreisfreie_Stadt"},"federalState":{"key":"07","name":"Rheinland-Pfalz"}},{"name":"Riesengasse","postalCode":"76829","locality":"Landau in der Pfalz","municipality":{"key":"07313000","name":"Landau in der Pfalz, Stadt","type":"Kreisfreie_Stadt"},"district":{"key":"07313","name":"Landau in der Pfalz, kreisfreie Stadt","type":"Kreisfreie_Stadt"},"federalState":{"key":"07","name":"Rheinland-Pfalz"}},{"name":"Rieslingstr.","postalCode":"76829","locality":"Landau in der Pfalz","municipality":{"key":"07313000","name":"Landau in der Pfalz, Stadt","type":"Kreisfreie_Stadt"},"district":{"key":"07313","name":"Landau in der Pfalz, kreisfreie Stadt","type":"Kreisfreie_Stadt"},"federalState":{"key":"07","name":"Rheinland-Pfalz"}},{"name":"Rietburgstr.","postalCode":"76829","locality":"Landau in der Pfalz","municipality":{"key":"07313000","name":"Landau in der Pfalz, Stadt","type":"Kreisfreie_Stadt"},"district":{"key":"07313","name":"Landau in der Pfalz, kreisfreie Stadt","type":"Kreisfreie_Stadt"},"federalState":{"key":"07","name":"Rheinland-Pfalz"}},{"name":"Robert-Koch-Str.","postalCode":"76829","locality":"Landau in der Pfalz","municipality":{"key":"07313000","name":"Landau in der Pfalz, Stadt","type":"Kreisfreie_Stadt"},"district":{"key":"07313","name":"Landau in der Pfalz, kreisfreie Stadt","type":"Kreisfreie_Stadt"},"federalState":{"key":"07","name":"Rheinland-Pfalz"}},{"name":"Robert-Schuman-Str.","postalCode":"76829","locality":"Landau in der Pfalz","municipality":{"key":"07313000","name":"Landau in der Pfalz, Stadt","type":"Kreisfreie_Stadt"},"district":{"key":"07313","name":"Landau in der Pfalz, kreisfreie Stadt","type":"Kreisfreie_Stadt"},"federalState":{"key":"07","name":"Rheinland-Pfalz"}},{"name":"Rodenweg","postalCode":"76829","locality":"Landau in der Pfalz","municipality":{"key":"07313000","name":"Landau in der Pfalz, Stadt","type":"Kreisfreie_Stadt"},"district":{"key":"07313","name":"Landau in der Pfalz, kreisfreie Stadt","type":"Kreisfreie_Stadt"},"federalState":{"key":"07","name":"Rheinland-Pfalz"}},{"name":"Rohrgasse","postalCode":"76829","locality":"Landau in der Pfalz","municipality":{"key":"07313000","name":"Landau in der Pfalz, Stadt","type":"Kreisfreie_Stadt"},"district":{"key":"07313","name":"Landau in der Pfalz, kreisfreie Stadt","type":"Kreisfreie_Stadt"},"federalState":{"key":"07","name":"Rheinland-Pfalz"}},{"name":"Rolf-Müller-Str.","postalCode":"76829","locality":"Landau in der Pfalz","municipality":{"key":"07313000","name":"Landau in der Pfalz, Stadt","type":"Kreisfreie_Stadt"},"district":{"key":"07313","name":"Landau in der Pfalz, kreisfreie Stadt","type":"Kreisfreie_Stadt"},"federalState":{"key":"07","name":"Rheinland-Pfalz"}},{"name":"Röntgenstr.","postalCode":"76829","locality":"Landau in der Pfalz","municipality":{"key":"07313000","name":"Landau in der Pfalz, Stadt","type":"Kreisfreie_Stadt"},"district":{"key":"07313","name":"Landau in der Pfalz, kreisfreie Stadt","type":"Kreisfreie_Stadt"},"federalState":{"key":"07","name":"Rheinland-Pfalz"}},{"name":"Rosengasse","postalCode":"76829","locality":"Landau in der Pfalz","municipality":{"key":"07313000","name":"Landau in der Pfalz, Stadt","type":"Kreisfreie_Stadt"},"district":{"key":"07313","name":"Landau in der Pfalz, kreisfreie Stadt","type":"Kreisfreie_Stadt"},"federalState":{"key":"07","name":"Rheinland-Pfalz"}},{"name":"Rosheimer Str.","postalCode":"76829","locality":"Landau in der Pfalz","municipality":{"key":"07313000","name":"Landau in der Pfalz, Stadt","type":"Kreisfreie_Stadt"},"district":{"key":"07313","name":"Landau in der Pfalz, kreisfreie Stadt","type":"Kreisfreie_Stadt"},"federalState":{"key":"07","name":"Rheinland-Pfalz"}},{"name":"Rotkehlchenweg","postalCode":"76829","locality":"Landau in der Pfalz","municipality":{"key":"07313000","name":"Landau in der Pfalz, Stadt","type":"Kreisfreie_Stadt"},"district":{"key":"07313","name":"Landau in der Pfalz, kreisfreie Stadt","type":"Kreisfreie_Stadt"},"federalState":{"key":"07","name":"Rheinland-Pfalz"}},{"name":"Rudolf-von-Habsburg-Str.","postalCode":"76829","locality":"Landau in der Pfalz","municipality":{"key":"07313000","name":"Landau in der Pfalz, Stadt","type":"Kreisfreie_Stadt"},"district":{"key":"07313","name":"Landau in der Pfalz, kreisfreie Stadt","type":"Kreisfreie_Stadt"},"federalState":{"key":"07","name":"Rheinland-Pfalz"}},{"name":"Rummelsberg","postalCode":"76829","locality":"Landau in der Pfalz","municipality":{"key":"07313000","name":"Landau in der Pfalz, Stadt","type":"Kreisfreie_Stadt"},"district":{"key":"07313","name":"Landau in der Pfalz, kreisfreie Stadt","type":"Kreisfreie_Stadt"},"federalState":{"key":"07","name":"Rheinland-Pfalz"}},{"name":"Rummelsgasse","postalCode":"76829","locality":"Landau in der Pfalz","municipality":{"key":"07313000","name":"Landau in der Pfalz, Stadt","type":"Kreisfreie_Stadt"},"district":{"key":"07313","name":"Landau in der Pfalz, kreisfreie Stadt","type":"Kreisfreie_Stadt"},"federalState":{"key":"07","name":"Rheinland-Pfalz"}},{"name":"Rupprechtstr.","postalCode":"76829","locality":"Landau in der Pfalz","municipality":{"key":"07313000","name":"Landau in der Pfalz, Stadt","type":"Kreisfreie_Stadt"},"district":{"key":"07313","name":"Landau in der Pfalz, kreisfreie Stadt","type":"Kreisfreie_Stadt"},"federalState":{"key":"07","name":"Rheinland-Pfalz"}},{"name":"Sachsenstr.","postalCode":"76829","locality":"Landau in der Pfalz","municipality":{"key":"07313000","name":"Landau in der Pfalz, Stadt","type":"Kreisfreie_Stadt"},"district":{"key":"07313","name":"Landau in der Pfalz, kreisfreie Stadt","type":"Kreisfreie_Stadt"},"federalState":{"key":"07","name":"Rheinland-Pfalz"}},{"name":"Salierstr.","postalCode":"76829","locality":"Landau in der Pfalz","municipality":{"key":"07313000","name":"Landau in der Pfalz, Stadt","type":"Kreisfreie_Stadt"},"district":{"key":"07313","name":"Landau in der Pfalz, kreisfreie Stadt","type":"Kreisfreie_Stadt"},"federalState":{"key":"07","name":"Rheinland-Pfalz"}},{"name":"Sandgasse","postalCode":"76829","locality":"Landau in der Pfalz","municipality":{"key":"07313000","name":"Landau in der Pfalz, Stadt","type":"Kreisfreie_Stadt"},"district":{"key":"07313","name":"Landau in der Pfalz, kreisfreie Stadt","type":"Kreisfreie_Stadt"},"federalState":{"key":"07","name":"Rheinland-Pfalz"}},{"name":"Sauerbruchstr.","postalCode":"76829","locality":"Landau in der Pfalz","municipality":{"key":"07313000","name":"Landau in der Pfalz, Stadt","type":"Kreisfreie_Stadt"},"district":{"key":"07313","name":"Landau in der Pfalz, kreisfreie Stadt","type":"Kreisfreie_Stadt"},"federalState":{"key":"07","name":"Rheinland-Pfalz"}},{"name":"Savoyenpark","postalCode":"76829","locality":"Landau in der Pfalz","municipality":{"key":"07313000","name":"Landau in der Pfalz, Stadt","type":"Kreisfreie_Stadt"},"district":{"key":"07313","name":"Landau in der Pfalz, kreisfreie Stadt","type":"Kreisfreie_Stadt"},"federalState":{"key":"07","name":"Rheinland-Pfalz"}},{"name":"Schäfergasse","postalCode":"76829","locality":"Landau in der Pfalz","municipality":{"key":"07313000","name":"Landau in der Pfalz, Stadt","type":"Kreisfreie_Stadt"},"district":{"key":"07313","name":"Landau in der Pfalz, kreisfreie Stadt","type":"Kreisfreie_Stadt"},"federalState":{"key":"07","name":"Rheinland-Pfalz"}},{"name":"Scharfeneckstr.","postalCode":"76829","locality":"Landau in der Pfalz","municipality":{"key":"07313000","name":"Landau in der Pfalz, Stadt","type":"Kreisfreie_Stadt"},"district":{"key":"07313","name":"Landau in der Pfalz, kreisfreie Stadt","type":"Kreisfreie_Stadt"},"federalState":{"key":"07","name":"Rheinland-Pfalz"}},{"name":"Schattenmannstr.","postalCode":"76829","locality":"Landau in der Pfalz","municipality":{"key":"07313000","name":"Landau in der Pfalz, Stadt","type":"Kreisfreie_Stadt"},"district":{"key":"07313","name":"Landau in der Pfalz, kreisfreie Stadt","type":"Kreisfreie_Stadt"},"federalState":{"key":"07","name":"Rheinland-Pfalz"}},{"name":"Schelmengässel","postalCode":"76829","locality":"Landau in der Pfalz","municipality":{"key":"07313000","name":"Landau in der Pfalz, Stadt","type":"Kreisfreie_Stadt"},"district":{"key":"07313","name":"Landau in der Pfalz, kreisfreie Stadt","type":"Kreisfreie_Stadt"},"federalState":{"key":"07","name":"Rheinland-Pfalz"}},{"name":"Schillerpark","postalCode":"76829","locality":"Landau in der Pfalz","municipality":{"key":"07313000","name":"Landau in der Pfalz, Stadt","type":"Kreisfreie_Stadt"},"district":{"key":"07313","name":"Landau in der Pfalz, kreisfreie Stadt","type":"Kreisfreie_Stadt"},"federalState":{"key":"07","name":"Rheinland-Pfalz"}},{"name":"Schlachthofstr.","postalCode":"76829","locality":"Landau in der Pfalz","municipality":{"key":"07313000","name":"Landau in der Pfalz, Stadt","type":"Kreisfreie_Stadt"},"district":{"key":"07313","name":"Landau in der Pfalz, kreisfreie Stadt","type":"Kreisfreie_Stadt"},"federalState":{"key":"07","name":"Rheinland-Pfalz"}},{"name":"Schlesierstr.","postalCode":"76829","locality":"Landau in der Pfalz","municipality":{"key":"07313000","name":"Landau in der Pfalz, Stadt","type":"Kreisfreie_Stadt"},"district":{"key":"07313","name":"Landau in der Pfalz, kreisfreie Stadt","type":"Kreisfreie_Stadt"},"federalState":{"key":"07","name":"Rheinland-Pfalz"}},{"name":"Schlettstadter Str.","postalCode":"76829","locality":"Landau in der Pfalz","municipality":{"key":"07313000","name":"Landau in der Pfalz, Stadt","type":"Kreisfreie_Stadt"},"district":{"key":"07313","name":"Landau in der Pfalz, kreisfreie Stadt","type":"Kreisfreie_Stadt"},"federalState":{"key":"07","name":"Rheinland-Pfalz"}},{"name":"Schloßstr.","postalCode":"76829","locality":"Landau in der Pfalz","municipality":{"key":"07313000","name":"Landau in der Pfalz, Stadt","type":"Kreisfreie_Stadt"},"district":{"key":"07313","name":"Landau in der Pfalz, kreisfreie Stadt","type":"Kreisfreie_Stadt"},"federalState":{"key":"07","name":"Rheinland-Pfalz"}},{"name":"Schmauspfad","postalCode":"76829","locality":"Landau in der Pfalz","municipality":{"key":"07313000","name":"Landau in der Pfalz, Stadt","type":"Kreisfreie_Stadt"},"district":{"key":"07313","name":"Landau in der Pfalz, kreisfreie Stadt","type":"Kreisfreie_Stadt"},"federalState":{"key":"07","name":"Rheinland-Pfalz"}},{"name":"Schmiedgasse","postalCode":"76829","locality":"Landau in der Pfalz","municipality":{"key":"07313000","name":"Landau in der Pfalz, Stadt","type":"Kreisfreie_Stadt"},"district":{"key":"07313","name":"Landau in der Pfalz, kreisfreie Stadt","type":"Kreisfreie_Stadt"},"federalState":{"key":"07","name":"Rheinland-Pfalz"}},{"name":"Schmiedstr.","postalCode":"76829","locality":"Landau in der Pfalz","municipality":{"key":"07313000","name":"Landau in der Pfalz, Stadt","type":"Kreisfreie_Stadt"},"district":{"key":"07313","name":"Landau in der Pfalz, kreisfreie Stadt","type":"Kreisfreie_Stadt"},"federalState":{"key":"07","name":"Rheinland-Pfalz"}},{"name":"Schneiderstr.","postalCode":"76829","locality":"Landau in der Pfalz","municipality":{"key":"07313000","name":"Landau in der Pfalz, Stadt","type":"Kreisfreie_Stadt"},"district":{"key":"07313","name":"Landau in der Pfalz, kreisfreie Stadt","type":"Kreisfreie_Stadt"},"federalState":{"key":"07","name":"Rheinland-Pfalz"}},{"name":"Schulstr.","postalCode":"76829","locality":"Landau in der Pfalz","municipality":{"key":"07313000","name":"Landau in der Pfalz, Stadt","type":"Kreisfreie_Stadt"},"district":{"key":"07313","name":"Landau in der Pfalz, kreisfreie Stadt","type":"Kreisfreie_Stadt"},"federalState":{"key":"07","name":"Rheinland-Pfalz"}},{"name":"Schützengasse","postalCode":"76829","locality":"Landau in der Pfalz","municipality":{"key":"07313000","name":"Landau in der Pfalz, Stadt","type":"Kreisfreie_Stadt"},"district":{"key":"07313","name":"Landau in der Pfalz, kreisfreie Stadt","type":"Kreisfreie_Stadt"},"federalState":{"key":"07","name":"Rheinland-Pfalz"}},{"name":"Schwalbenweg","postalCode":"76829","locality":"Landau in der Pfalz","municipality":{"key":"07313000","name":"Landau in der Pfalz, Stadt","type":"Kreisfreie_Stadt"},"district":{"key":"07313","name":"Landau in der Pfalz, kreisfreie Stadt","type":"Kreisfreie_Stadt"},"federalState":{"key":"07","name":"Rheinland-Pfalz"}},{"name":"Schwarzkreuzstr.","postalCode":"76829","locality":"Landau in der Pfalz","municipality":{"key":"07313000","name":"Landau in der Pfalz, Stadt","type":"Kreisfreie_Stadt"},"district":{"key":"07313","name":"Landau in der Pfalz, kreisfreie Stadt","type":"Kreisfreie_Stadt"},"federalState":{"key":"07","name":"Rheinland-Pfalz"}},{"name":"Siebenpfeiffer-Allee","postalCode":"76829","locality":"Landau in der Pfalz","municipality":{"key":"07313000","name":"Landau in der Pfalz, Stadt","type":"Kreisfreie_Stadt"},"district":{"key":"07313","name":"Landau in der Pfalz, kreisfreie Stadt","type":"Kreisfreie_Stadt"},"federalState":{"key":"07","name":"Rheinland-Pfalz"}},{"name":"Silvanerstr.","postalCode":"76829","locality":"Landau in der Pfalz","municipality":{"key":"07313000","name":"Landau in der Pfalz, Stadt","type":"Kreisfreie_Stadt"},"district":{"key":"07313","name":"Landau in der Pfalz, kreisfreie Stadt","type":"Kreisfreie_Stadt"},"federalState":{"key":"07","name":"Rheinland-Pfalz"}},{"name":"Spechtweg","postalCode":"76829","locality":"Landau in der Pfalz","municipality":{"key":"07313000","name":"Landau in der Pfalz, Stadt","type":"Kreisfreie_Stadt"},"district":{"key":"07313","name":"Landau in der Pfalz, kreisfreie Stadt","type":"Kreisfreie_Stadt"},"federalState":{"key":"07","name":"Rheinland-Pfalz"}},{"name":"Spelzengasse","postalCode":"76829","locality":"Landau in der Pfalz","municipality":{"key":"07313000","name":"Landau in der Pfalz, Stadt","type":"Kreisfreie_Stadt"},"district":{"key":"07313","name":"Landau in der Pfalz, kreisfreie Stadt","type":"Kreisfreie_Stadt"},"federalState":{"key":"07","name":"Rheinland-Pfalz"}},{"name":"Speyerbachstr.","postalCode":"76829","locality":"Landau in der Pfalz","municipality":{"key":"07313000","name":"Landau in der Pfalz, Stadt","type":"Kreisfreie_Stadt"},"district":{"key":"07313","name":"Landau in der Pfalz, kreisfreie Stadt","type":"Kreisfreie_Stadt"},"federalState":{"key":"07","name":"Rheinland-Pfalz"}},{"name":"Speyerer Str.","postalCode":"76829","locality":"Landau in der Pfalz","municipality":{"key":"07313000","name":"Landau in der Pfalz, Stadt","type":"Kreisfreie_Stadt"},"district":{"key":"07313","name":"Landau in der Pfalz, kreisfreie Stadt","type":"Kreisfreie_Stadt"},"federalState":{"key":"07","name":"Rheinland-Pfalz"}},{"name":"Spitalgasse","postalCode":"76829","locality":"Landau in der Pfalz","municipality":{"key":"07313000","name":"Landau in der Pfalz, Stadt","type":"Kreisfreie_Stadt"},"district":{"key":"07313","name":"Landau in der Pfalz, kreisfreie Stadt","type":"Kreisfreie_Stadt"},"federalState":{"key":"07","name":"Rheinland-Pfalz"}},{"name":"Spitalmühlweg","postalCode":"76829","locality":"Landau in der Pfalz","municipality":{"key":"07313000","name":"Landau in der Pfalz, Stadt","type":"Kreisfreie_Stadt"},"district":{"key":"07313","name":"Landau in der Pfalz, kreisfreie Stadt","type":"Kreisfreie_Stadt"},"federalState":{"key":"07","name":"Rheinland-Pfalz"}},{"name":"Stalbühlweg","postalCode":"76829","locality":"Landau in der Pfalz","municipality":{"key":"07313000","name":"Landau in der Pfalz, Stadt","type":"Kreisfreie_Stadt"},"district":{"key":"07313","name":"Landau in der Pfalz, kreisfreie Stadt","type":"Kreisfreie_Stadt"},"federalState":{"key":"07","name":"Rheinland-Pfalz"}},{"name":"Starenweg","postalCode":"76829","locality":"Landau in der Pfalz","municipality":{"key":"07313000","name":"Landau in der Pfalz, Stadt","type":"Kreisfreie_Stadt"},"district":{"key":"07313","name":"Landau in der Pfalz, kreisfreie Stadt","type":"Kreisfreie_Stadt"},"federalState":{"key":"07","name":"Rheinland-Pfalz"}},{"name":"Staubgasse","postalCode":"76829","locality":"Landau in der Pfalz","municipality":{"key":"07313000","name":"Landau in der Pfalz, Stadt","type":"Kreisfreie_Stadt"},"district":{"key":"07313","name":"Landau in der Pfalz, kreisfreie Stadt","type":"Kreisfreie_Stadt"},"federalState":{"key":"07","name":"Rheinland-Pfalz"}},{"name":"Steingasse","postalCode":"76829","locality":"Landau in der Pfalz","municipality":{"key":"07313000","name":"Landau in der Pfalz, Stadt","type":"Kreisfreie_Stadt"},"district":{"key":"07313","name":"Landau in der Pfalz, kreisfreie Stadt","type":"Kreisfreie_Stadt"},"federalState":{"key":"07","name":"Rheinland-Pfalz"}},{"name":"St.-Elisabethen-Str.","postalCode":"76829","locality":"Landau in der Pfalz","municipality":{"key":"07313000","name":"Landau in der Pfalz, Stadt","type":"Kreisfreie_Stadt"},"district":{"key":"07313","name":"Landau in der Pfalz, kreisfreie Stadt","type":"Kreisfreie_Stadt"},"federalState":{"key":"07","name":"Rheinland-Pfalz"}},{"name":"Stettiner Str.","postalCode":"76829","locality":"Landau in der Pfalz","municipality":{"key":"07313000","name":"Landau in der Pfalz, Stadt","type":"Kreisfreie_Stadt"},"district":{"key":"07313","name":"Landau in der Pfalz, kreisfreie Stadt","type":"Kreisfreie_Stadt"},"federalState":{"key":"07","name":"Rheinland-Pfalz"}},{"name":"St.-Georg-Str.","postalCode":"76829","locality":"Landau in der Pfalz","municipality":{"key":"07313000","name":"Landau in der Pfalz, Stadt","type":"Kreisfreie_Stadt"},"district":{"key":"07313","name":"Landau in der Pfalz, kreisfreie Stadt","type":"Kreisfreie_Stadt"},"federalState":{"key":"07","name":"Rheinland-Pfalz"}},{"name":"Stiftsplatz","postalCode":"76829","locality":"Landau in der Pfalz","municipality":{"key":"07313000","name":"Landau in der Pfalz, Stadt","type":"Kreisfreie_Stadt"},"district":{"key":"07313","name":"Landau in der Pfalz, kreisfreie Stadt","type":"Kreisfreie_Stadt"},"federalState":{"key":"07","name":"Rheinland-Pfalz"}},{"name":"Storchengasse","postalCode":"76829","locality":"Landau in der Pfalz","municipality":{"key":"07313000","name":"Landau in der Pfalz, Stadt","type":"Kreisfreie_Stadt"},"district":{"key":"07313","name":"Landau in der Pfalz, kreisfreie Stadt","type":"Kreisfreie_Stadt"},"federalState":{"key":"07","name":"Rheinland-Pfalz"}},{"name":"Sudetenstr.","postalCode":"76829","locality":"Landau in der Pfalz","municipality":{"key":"07313000","name":"Landau in der Pfalz, Stadt","type":"Kreisfreie_Stadt"},"district":{"key":"07313","name":"Landau in der Pfalz, kreisfreie Stadt","type":"Kreisfreie_Stadt"},"federalState":{"key":"07","name":"Rheinland-Pfalz"}},{"name":"Südring","postalCode":"76829","locality":"Landau in der Pfalz","municipality":{"key":"07313000","name":"Landau in der Pfalz, Stadt","type":"Kreisfreie_Stadt"},"district":{"key":"07313","name":"Landau in der Pfalz, kreisfreie Stadt","type":"Kreisfreie_Stadt"},"federalState":{"key":"07","name":"Rheinland-Pfalz"}},{"name":"Südwest-Park","postalCode":"76829","locality":"Landau in der Pfalz","municipality":{"key":"07313000","name":"Landau in der Pfalz, Stadt","type":"Kreisfreie_Stadt"},"district":{"key":"07313","name":"Landau in der Pfalz, kreisfreie Stadt","type":"Kreisfreie_Stadt"},"federalState":{"key":"07","name":"Rheinland-Pfalz"}},{"name":"Sülzlochweg","postalCode":"76829","locality":"Landau in der Pfalz","municipality":{"key":"07313000","name":"Landau in der Pfalz, Stadt","type":"Kreisfreie_Stadt"},"district":{"key":"07313","name":"Landau in der Pfalz, kreisfreie Stadt","type":"Kreisfreie_Stadt"},"federalState":{"key":"07","name":"Rheinland-Pfalz"}},{"name":"Taubensuhlstr.","postalCode":"76829","locality":"Landau in der Pfalz","municipality":{"key":"07313000","name":"Landau in der Pfalz, Stadt","type":"Kreisfreie_Stadt"},"district":{"key":"07313","name":"Landau in der Pfalz, kreisfreie Stadt","type":"Kreisfreie_Stadt"},"federalState":{"key":"07","name":"Rheinland-Pfalz"}},{"name":"Thomas-Nast-Platz","postalCode":"76829","locality":"Landau in der Pfalz","municipality":{"key":"07313000","name":"Landau in der Pfalz, Stadt","type":"Kreisfreie_Stadt"},"district":{"key":"07313","name":"Landau in der Pfalz, kreisfreie Stadt","type":"Kreisfreie_Stadt"},"federalState":{"key":"07","name":"Rheinland-Pfalz"}},{"name":"Thomas-Nast-Str.","postalCode":"76829","locality":"Landau in der Pfalz","municipality":{"key":"07313000","name":"Landau in der Pfalz, Stadt","type":"Kreisfreie_Stadt"},"district":{"key":"07313","name":"Landau in der Pfalz, kreisfreie Stadt","type":"Kreisfreie_Stadt"},"federalState":{"key":"07","name":"Rheinland-Pfalz"}},{"name":"Thüringer Str.","postalCode":"76829","locality":"Landau in der Pfalz","municipality":{"key":"07313000","name":"Landau in der Pfalz, Stadt","type":"Kreisfreie_Stadt"},"district":{"key":"07313","name":"Landau in der Pfalz, kreisfreie Stadt","type":"Kreisfreie_Stadt"},"federalState":{"key":"07","name":"Rheinland-Pfalz"}},{"name":"Traminerstr.","postalCode":"76829","locality":"Landau in der Pfalz","municipality":{"key":"07313000","name":"Landau in der Pfalz, Stadt","type":"Kreisfreie_Stadt"},"district":{"key":"07313","name":"Landau in der Pfalz, kreisfreie Stadt","type":"Kreisfreie_Stadt"},"federalState":{"key":"07","name":"Rheinland-Pfalz"}},{"name":"Trappengasse","postalCode":"76829","locality":"Landau in der Pfalz","municipality":{"key":"07313000","name":"Landau in der Pfalz, Stadt","type":"Kreisfreie_Stadt"},"district":{"key":"07313","name":"Landau in der Pfalz, kreisfreie Stadt","type":"Kreisfreie_Stadt"},"federalState":{"key":"07","name":"Rheinland-Pfalz"}},{"name":"Trifelsstr.","postalCode":"76829","locality":"Landau in der Pfalz","municipality":{"key":"07313000","name":"Landau in der Pfalz, Stadt","type":"Kreisfreie_Stadt"},"district":{"key":"07313","name":"Landau in der Pfalz, kreisfreie Stadt","type":"Kreisfreie_Stadt"},"federalState":{"key":"07","name":"Rheinland-Pfalz"}},{"name":"Trifelsstr.","postalCode":"76831","locality":"Ilbesheim bei Landau in der Pfalz","municipality":{"key":"07337042","name":"Ilbesheim bei Landau in der Pfalz","type":"Kreisangehörige_Gemeinde"},"district":{"key":"07337","name":"Südliche Weinstraße","type":"Landkreis"},"federalState":{"key":"07","name":"Rheinland-Pfalz"}},{"name":"Triftweg","postalCode":"76829","locality":"Landau in der Pfalz","municipality":{"key":"07313000","name":"Landau in der Pfalz, Stadt","type":"Kreisfreie_Stadt"},"district":{"key":"07313","name":"Landau in der Pfalz, kreisfreie Stadt","type":"Kreisfreie_Stadt"},"federalState":{"key":"07","name":"Rheinland-Pfalz"}},{"name":"Türkheimer Str.","postalCode":"76829","locality":"Landau in der Pfalz","municipality":{"key":"07313000","name":"Landau in der Pfalz, Stadt","type":"Kreisfreie_Stadt"},"district":{"key":"07313","name":"Landau in der Pfalz, kreisfreie Stadt","type":"Kreisfreie_Stadt"},"federalState":{"key":"07","name":"Rheinland-Pfalz"}},{"name":"Ulmenstr.","postalCode":"76829","locality":"Landau in der Pfalz","municipality":{"key":"07313000","name":"Landau in der Pfalz, Stadt","type":"Kreisfreie_Stadt"},"district":{"key":"07313","name":"Landau in der Pfalz, kreisfreie Stadt","type":"Kreisfreie_Stadt"},"federalState":{"key":"07","name":"Rheinland-Pfalz"}},{"name":"Ulrich-von-Hutten-Str.","postalCode":"76829","locality":"Landau in der Pfalz","municipality":{"key":"07313000","name":"Landau in der Pfalz, Stadt","type":"Kreisfreie_Stadt"},"district":{"key":"07313","name":"Landau in der Pfalz, kreisfreie Stadt","type":"Kreisfreie_Stadt"},"federalState":{"key":"07","name":"Rheinland-Pfalz"}},{"name":"Unterer Steinweg","postalCode":"76829","locality":"Landau in der Pfalz","municipality":{"key":"07313000","name":"Landau in der Pfalz, Stadt","type":"Kreisfreie_Stadt"},"district":{"key":"07313","name":"Landau in der Pfalz, kreisfreie Stadt","type":"Kreisfreie_Stadt"},"federalState":{"key":"07","name":"Rheinland-Pfalz"}},{"name":"Unteres Rappenfeld","postalCode":"76829","locality":"Landau in der Pfalz","municipality":{"key":"07313000","name":"Landau in der Pfalz, Stadt","type":"Kreisfreie_Stadt"},"district":{"key":"07313","name":"Landau in der Pfalz, kreisfreie Stadt","type":"Kreisfreie_Stadt"},"federalState":{"key":"07","name":"Rheinland-Pfalz"}},{"name":"Unterstr.","postalCode":"76829","locality":"Landau in der Pfalz","municipality":{"key":"07313000","name":"Landau in der Pfalz, Stadt","type":"Kreisfreie_Stadt"},"district":{"key":"07313","name":"Landau in der Pfalz, kreisfreie Stadt","type":"Kreisfreie_Stadt"},"federalState":{"key":"07","name":"Rheinland-Pfalz"}},{"name":"Untertorplatz","postalCode":"76829","locality":"Landau in der Pfalz","municipality":{"key":"07313000","name":"Landau in der Pfalz, Stadt","type":"Kreisfreie_Stadt"},"district":{"key":"07313","name":"Landau in der Pfalz, kreisfreie Stadt","type":"Kreisfreie_Stadt"},"federalState":{"key":"07","name":"Rheinland-Pfalz"}},{"name":"Unterweg","postalCode":"76829","locality":"Landau in der Pfalz","municipality":{"key":"07313000","name":"Landau in der Pfalz, Stadt","type":"Kreisfreie_Stadt"},"district":{"key":"07313","name":"Landau in der Pfalz, kreisfreie Stadt","type":"Kreisfreie_Stadt"},"federalState":{"key":"07","name":"Rheinland-Pfalz"}},{"name":"Viermorgenstr.","postalCode":"76829","locality":"Landau in der Pfalz","municipality":{"key":"07313000","name":"Landau in der Pfalz, Stadt","type":"Kreisfreie_Stadt"},"district":{"key":"07313","name":"Landau in der Pfalz, kreisfreie Stadt","type":"Kreisfreie_Stadt"},"federalState":{"key":"07","name":"Rheinland-Pfalz"}},{"name":"Viktor-Weiß-Str.","postalCode":"76829","locality":"Landau in der Pfalz","municipality":{"key":"07313000","name":"Landau in der Pfalz, Stadt","type":"Kreisfreie_Stadt"},"district":{"key":"07313","name":"Landau in der Pfalz, kreisfreie Stadt","type":"Kreisfreie_Stadt"},"federalState":{"key":"07","name":"Rheinland-Pfalz"}},{"name":"Virchowstr.","postalCode":"76829","locality":"Landau in der Pfalz","municipality":{"key":"07313000","name":"Landau in der Pfalz, Stadt","type":"Kreisfreie_Stadt"},"district":{"key":"07313","name":"Landau in der Pfalz, kreisfreie Stadt","type":"Kreisfreie_Stadt"},"federalState":{"key":"07","name":"Rheinland-Pfalz"}},{"name":"Vogesenstr.","postalCode":"76829","locality":"Landau in der Pfalz","municipality":{"key":"07313000","name":"Landau in der Pfalz, Stadt","type":"Kreisfreie_Stadt"},"district":{"key":"07313","name":"Landau in der Pfalz, kreisfreie Stadt","type":"Kreisfreie_Stadt"},"federalState":{"key":"07","name":"Rheinland-Pfalz"}},{"name":"Wachthausgasse","postalCode":"76829","locality":"Landau in der Pfalz","municipality":{"key":"07313000","name":"Landau in der Pfalz, Stadt","type":"Kreisfreie_Stadt"},"district":{"key":"07313","name":"Landau in der Pfalz, kreisfreie Stadt","type":"Kreisfreie_Stadt"},"federalState":{"key":"07","name":"Rheinland-Pfalz"}},{"name":"Waffenstr.","postalCode":"76829","locality":"Landau in der Pfalz","municipality":{"key":"07313000","name":"Landau in der Pfalz, Stadt","type":"Kreisfreie_Stadt"},"district":{"key":"07313","name":"Landau in der Pfalz, kreisfreie Stadt","type":"Kreisfreie_Stadt"},"federalState":{"key":"07","name":"Rheinland-Pfalz"}},{"name":"Wallstr.","postalCode":"76829","locality":"Landau in der Pfalz","municipality":{"key":"07313000","name":"Landau in der Pfalz, Stadt","type":"Kreisfreie_Stadt"},"district":{"key":"07313","name":"Landau in der Pfalz, kreisfreie Stadt","type":"Kreisfreie_Stadt"},"federalState":{"key":"07","name":"Rheinland-Pfalz"}},{"name":"Walsheimer Str.","postalCode":"76829","locality":"Landau in der Pfalz","municipality":{"key":"07313000","name":"Landau in der Pfalz, Stadt","type":"Kreisfreie_Stadt"},"district":{"key":"07313","name":"Landau in der Pfalz, kreisfreie Stadt","type":"Kreisfreie_Stadt"},"federalState":{"key":"07","name":"Rheinland-Pfalz"}},{"name":"Walsheimer Weg","postalCode":"76829","locality":"Landau in der Pfalz","municipality":{"key":"07313000","name":"Landau in der Pfalz, Stadt","type":"Kreisfreie_Stadt"},"district":{"key":"07313","name":"Landau in der Pfalz, kreisfreie Stadt","type":"Kreisfreie_Stadt"},"federalState":{"key":"07","name":"Rheinland-Pfalz"}},{"name":"Wasgaustr.","postalCode":"76831","locality":"Ilbesheim bei Landau in der Pfalz","municipality":{"key":"07337042","name":"Ilbesheim bei Landau in der Pfalz","type":"Kreisangehörige_Gemeinde"},"district":{"key":"07337","name":"Südliche Weinstraße","type":"Landkreis"},"federalState":{"key":"07","name":"Rheinland-Pfalz"}},{"name":"Wasgensteinstr.","postalCode":"76829","locality":"Landau in der Pfalz","municipality":{"key":"07313000","name":"Landau in der Pfalz, Stadt","type":"Kreisfreie_Stadt"},"district":{"key":"07313","name":"Landau in der Pfalz, kreisfreie Stadt","type":"Kreisfreie_Stadt"},"federalState":{"key":"07","name":"Rheinland-Pfalz"}},{"name":"Wegelnburgstr.","postalCode":"76829","locality":"Landau in der Pfalz","municipality":{"key":"07313000","name":"Landau in der Pfalz, Stadt","type":"Kreisfreie_Stadt"},"district":{"key":"07313","name":"Landau in der Pfalz, kreisfreie Stadt","type":"Kreisfreie_Stadt"},"federalState":{"key":"07","name":"Rheinland-Pfalz"}},{"name":"Weidweg","postalCode":"76829","locality":"Landau in der Pfalz","municipality":{"key":"07313000","name":"Landau in der Pfalz, Stadt","type":"Kreisfreie_Stadt"},"district":{"key":"07313","name":"Landau in der Pfalz, kreisfreie Stadt","type":"Kreisfreie_Stadt"},"federalState":{"key":"07","name":"Rheinland-Pfalz"}},{"name":"Weidwiesenweg","postalCode":"76829","locality":"Landau in der Pfalz","municipality":{"key":"07313000","name":"Landau in der Pfalz, Stadt","type":"Kreisfreie_Stadt"},"district":{"key":"07313","name":"Landau in der Pfalz, kreisfreie Stadt","type":"Kreisfreie_Stadt"},"federalState":{"key":"07","name":"Rheinland-Pfalz"}},{"name":"Wein-Erlebnispfad Nußdorf","postalCode":"76829","locality":"Landau in der Pfalz","municipality":{"key":"07313000","name":"Landau in der Pfalz, Stadt","type":"Kreisfreie_Stadt"},"district":{"key":"07313","name":"Landau in der Pfalz, kreisfreie Stadt","type":"Kreisfreie_Stadt"},"federalState":{"key":"07","name":"Rheinland-Pfalz"}},{"name":"Weinleseweg","postalCode":"76829","locality":"Landau in der Pfalz","municipality":{"key":"07313000","name":"Landau in der Pfalz, Stadt","type":"Kreisfreie_Stadt"},"district":{"key":"07313","name":"Landau in der Pfalz, kreisfreie Stadt","type":"Kreisfreie_Stadt"},"federalState":{"key":"07","name":"Rheinland-Pfalz"}},{"name":"Weißenburger Str.","postalCode":"76829","locality":"Landau in der Pfalz","municipality":{"key":"07313000","name":"Landau in der Pfalz, Stadt","type":"Kreisfreie_Stadt"},"district":{"key":"07313","name":"Landau in der Pfalz, kreisfreie Stadt","type":"Kreisfreie_Stadt"},"federalState":{"key":"07","name":"Rheinland-Pfalz"}},{"name":"Weißquartierplatz","postalCode":"76829","locality":"Landau in der Pfalz","municipality":{"key":"07313000","name":"Landau in der Pfalz, Stadt","type":"Kreisfreie_Stadt"},"district":{"key":"07313","name":"Landau in der Pfalz, kreisfreie Stadt","type":"Kreisfreie_Stadt"},"federalState":{"key":"07","name":"Rheinland-Pfalz"}},{"name":"Weißquartierstr.","postalCode":"76829","locality":"Landau in der Pfalz","municipality":{"key":"07313000","name":"Landau in der Pfalz, Stadt","type":"Kreisfreie_Stadt"},"district":{"key":"07313","name":"Landau in der Pfalz, kreisfreie Stadt","type":"Kreisfreie_Stadt"},"federalState":{"key":"07","name":"Rheinland-Pfalz"}},{"name":"Wellbachstr.","postalCode":"76829","locality":"Landau in der Pfalz","municipality":{"key":"07313000","name":"Landau in der Pfalz, Stadt","type":"Kreisfreie_Stadt"},"district":{"key":"07313","name":"Landau in der Pfalz, kreisfreie Stadt","type":"Kreisfreie_Stadt"},"federalState":{"key":"07","name":"Rheinland-Pfalz"}},{"name":"Werner-Heisenberg-Str.","postalCode":"76829","locality":"Landau in der Pfalz","municipality":{"key":"07313000","name":"Landau in der Pfalz, Stadt","type":"Kreisfreie_Stadt"},"district":{"key":"07313","name":"Landau in der Pfalz, kreisfreie Stadt","type":"Kreisfreie_Stadt"},"federalState":{"key":"07","name":"Rheinland-Pfalz"}},{"name":"Westbahnstr.","postalCode":"76829","locality":"Landau in der Pfalz","municipality":{"key":"07313000","name":"Landau in der Pfalz, Stadt","type":"Kreisfreie_Stadt"},"district":{"key":"07313","name":"Landau in der Pfalz, kreisfreie Stadt","type":"Kreisfreie_Stadt"},"federalState":{"key":"07","name":"Rheinland-Pfalz"}},{"name":"Westpreußenstr.","postalCode":"76829","locality":"Landau in der Pfalz","municipality":{"key":"07313000","name":"Landau in der Pfalz, Stadt","type":"Kreisfreie_Stadt"},"district":{"key":"07313","name":"Landau in der Pfalz, kreisfreie Stadt","type":"Kreisfreie_Stadt"},"federalState":{"key":"07","name":"Rheinland-Pfalz"}},{"name":"Westring","postalCode":"76829","locality":"Landau in der Pfalz","municipality":{"key":"07313000","name":"Landau in der Pfalz, Stadt","type":"Kreisfreie_Stadt"},"district":{"key":"07313","name":"Landau in der Pfalz, kreisfreie Stadt","type":"Kreisfreie_Stadt"},"federalState":{"key":"07","name":"Rheinland-Pfalz"}},{"name":"Wiesengäßchen","postalCode":"76829","locality":"Landau in der Pfalz","municipality":{"key":"07313000","name":"Landau in der Pfalz, Stadt","type":"Kreisfreie_Stadt"},"district":{"key":"07313","name":"Landau in der Pfalz, kreisfreie Stadt","type":"Kreisfreie_Stadt"},"federalState":{"key":"07","name":"Rheinland-Pfalz"}},{"name":"Wieslauterstr.","postalCode":"76829","locality":"Landau in der Pfalz","municipality":{"key":"07313000","name":"Landau in der Pfalz, Stadt","type":"Kreisfreie_Stadt"},"district":{"key":"07313","name":"Landau in der Pfalz, kreisfreie Stadt","type":"Kreisfreie_Stadt"},"federalState":{"key":"07","name":"Rheinland-Pfalz"}},{"name":"Wildgasse","postalCode":"76831","locality":"Ilbesheim bei Landau in der Pfalz","municipality":{"key":"07337042","name":"Ilbesheim bei Landau in der Pfalz","type":"Kreisangehörige_Gemeinde"},"district":{"key":"07337","name":"Südliche Weinstraße","type":"Landkreis"},"federalState":{"key":"07","name":"Rheinland-Pfalz"}},{"name":"Wilhelm-Schech-Str.","postalCode":"76829","locality":"Landau in der Pfalz","municipality":{"key":"07313000","name":"Landau in der Pfalz, Stadt","type":"Kreisfreie_Stadt"},"district":{"key":"07313","name":"Landau in der Pfalz, kreisfreie Stadt","type":"Kreisfreie_Stadt"},"federalState":{"key":"07","name":"Rheinland-Pfalz"}},{"name":"Wilhelm-Wüst-Str.","postalCode":"76829","locality":"Landau in der Pfalz","municipality":{"key":"07313000","name":"Landau in der Pfalz, Stadt","type":"Kreisfreie_Stadt"},"district":{"key":"07313","name":"Landau in der Pfalz, kreisfreie Stadt","type":"Kreisfreie_Stadt"},"federalState":{"key":"07","name":"Rheinland-Pfalz"}},{"name":"Willy-Brandt-Str.","postalCode":"76829","locality":"Landau in der Pfalz","municipality":{"key":"07313000","name":"Landau in der Pfalz, Stadt","type":"Kreisfreie_Stadt"},"district":{"key":"07313","name":"Landau in der Pfalz, kreisfreie Stadt","type":"Kreisfreie_Stadt"},"federalState":{"key":"07","name":"Rheinland-Pfalz"}},{"name":"Wirth-Allee","postalCode":"76829","locality":"Landau in der Pfalz","municipality":{"key":"07313000","name":"Landau in der Pfalz, Stadt","type":"Kreisfreie_Stadt"},"district":{"key":"07313","name":"Landau in der Pfalz, kreisfreie Stadt","type":"Kreisfreie_Stadt"},"federalState":{"key":"07","name":"Rheinland-Pfalz"}},{"name":"Wolfsweg","postalCode":"76829","locality":"Landau in der Pfalz","municipality":{"key":"07313000","name":"Landau in der Pfalz, Stadt","type":"Kreisfreie_Stadt"},"district":{"key":"07313","name":"Landau in der Pfalz, kreisfreie Stadt","type":"Kreisfreie_Stadt"},"federalState":{"key":"07","name":"Rheinland-Pfalz"}},{"name":"Wollmesheimer Hauptstr.","postalCode":"76829","locality":"Landau in der Pfalz","municipality":{"key":"07313000","name":"Landau in der Pfalz, Stadt","type":"Kreisfreie_Stadt"},"district":{"key":"07313","name":"Landau in der Pfalz, kreisfreie Stadt","type":"Kreisfreie_Stadt"},"federalState":{"key":"07","name":"Rheinland-Pfalz"}},{"name":"Wollmesheimer Höhe","postalCode":"76829","locality":"Landau in der Pfalz","municipality":{"key":"07313000","name":"Landau in der Pfalz, Stadt","type":"Kreisfreie_Stadt"},"district":{"key":"07313","name":"Landau in der Pfalz, kreisfreie Stadt","type":"Kreisfreie_Stadt"},"federalState":{"key":"07","name":"Rheinland-Pfalz"}},{"name":"Wollmesheimer Pfad","postalCode":"76829","locality":"Landau in der Pfalz","municipality":{"key":"07313000","name":"Landau in der Pfalz, Stadt","type":"Kreisfreie_Stadt"},"district":{"key":"07313","name":"Landau in der Pfalz, kreisfreie Stadt","type":"Kreisfreie_Stadt"},"federalState":{"key":"07","name":"Rheinland-Pfalz"}},{"name":"Wollmesheimer Str.","postalCode":"76829","locality":"Landau in der Pfalz","municipality":{"key":"07313000","name":"Landau in der Pfalz, Stadt","type":"Kreisfreie_Stadt"},"district":{"key":"07313","name":"Landau in der Pfalz, kreisfreie Stadt","type":"Kreisfreie_Stadt"},"federalState":{"key":"07","name":"Rheinland-Pfalz"}},{"name":"Woogstr.","postalCode":"76829","locality":"Landau in der Pfalz","municipality":{"key":"07313000","name":"Landau in der Pfalz, Stadt","type":"Kreisfreie_Stadt"},"district":{"key":"07313","name":"Landau in der Pfalz, kreisfreie Stadt","type":"Kreisfreie_Stadt"},"federalState":{"key":"07","name":"Rheinland-Pfalz"}},{"name":"Xylanderstr.","postalCode":"76829","locality":"Landau in der Pfalz","municipality":{"key":"07313000","name":"Landau in der Pfalz, Stadt","type":"Kreisfreie_Stadt"},"district":{"key":"07313","name":"Landau in der Pfalz, kreisfreie Stadt","type":"Kreisfreie_Stadt"},"federalState":{"key":"07","name":"Rheinland-Pfalz"}},{"name":"Zeppelinstr.","postalCode":"76829","locality":"Landau in der Pfalz","municipality":{"key":"07313000","name":"Landau in der Pfalz, Stadt","type":"Kreisfreie_Stadt"},"district":{"key":"07313","name":"Landau in der Pfalz, kreisfreie Stadt","type":"Kreisfreie_Stadt"},"federalState":{"key":"07","name":"Rheinland-Pfalz"}},{"name":"Zeughausgasse","postalCode":"76829","locality":"Landau in der Pfalz","municipality":{"key":"07313000","name":"Landau in der Pfalz, Stadt","type":"Kreisfreie_Stadt"},"district":{"key":"07313","name":"Landau in der Pfalz, kreisfreie Stadt","type":"Kreisfreie_Stadt"},"federalState":{"key":"07","name":"Rheinland-Pfalz"}},{"name":"Zittergasse","postalCode":"76831","locality":"Ilbesheim bei Landau in der Pfalz","municipality":{"key":"07337042","name":"Ilbesheim bei Landau in der Pfalz","type":"Kreisangehörige_Gemeinde"},"district":{"key":"07337","name":"Südliche Weinstraße","type":"Landkreis"},"federalState":{"key":"07","name":"Rheinland-Pfalz"}},{"name":"Zum Altengarten","postalCode":"76829","locality":"Landau in der Pfalz","municipality":{"key":"07313000","name":"Landau in der Pfalz, Stadt","type":"Kreisfreie_Stadt"},"district":{"key":"07313","name":"Landau in der Pfalz, kreisfreie Stadt","type":"Kreisfreie_Stadt"},"federalState":{"key":"07","name":"Rheinland-Pfalz"}},{"name":"Zum Kirchweg","postalCode":"76829","locality":"Landau in der Pfalz","municipality":{"key":"07313000","name":"Landau in der Pfalz, Stadt","type":"Kreisfreie_Stadt"},"district":{"key":"07313","name":"Landau in der Pfalz, kreisfreie Stadt","type":"Kreisfreie_Stadt"},"federalState":{"key":"07","name":"Rheinland-Pfalz"}},{"name":"Zum Mütterle","postalCode":"76829","locality":"Landau in der Pfalz","municipality":{"key":"07313000","name":"Landau in der Pfalz, Stadt","type":"Kreisfreie_Stadt"},"district":{"key":"07313","name":"Landau in der Pfalz, kreisfreie Stadt","type":"Kreisfreie_Stadt"},"federalState":{"key":"07","name":"Rheinland-Pfalz"}},{"name":"Zum Queichanger","postalCode":"76829","locality":"Landau in der Pfalz","municipality":{"key":"07313000","name":"Landau in der Pfalz, Stadt","type":"Kreisfreie_Stadt"},"district":{"key":"07313","name":"Landau in der Pfalz, kreisfreie Stadt","type":"Kreisfreie_Stadt"},"federalState":{"key":"07","name":"Rheinland-Pfalz"}},{"name":"Zum Safranfeld","postalCode":"76831","locality":"Ilbesheim bei Landau in der Pfalz","municipality":{"key":"07337042","name":"Ilbesheim bei Landau in der Pfalz","type":"Kreisangehörige_Gemeinde"},"district":{"key":"07337","name":"Südliche Weinstraße","type":"Landkreis"},"federalState":{"key":"07","name":"Rheinland-Pfalz"}},{"name":"Zweibrücker Str.","postalCode":"76829","locality":"Landau in der Pfalz","municipality":{"key":"07313000","name":"Landau in der Pfalz, Stadt","type":"Kreisfreie_Stadt"},"district":{"key":"07313","name":"Landau in der Pfalz, kreisfreie Stadt","type":"Kreisfreie_Stadt"},"federalState":{"key":"07","name":"Rheinland-Pfalz"}},]