[{"name":"1. Südwieke","postalCode":"26842","locality":"Ostrhauderfehn","municipality":{"key":"03457017","name":"Ostrhauderfehn","type":"Kreisangehörige_Gemeinde"},"district":{"key":"03457","name":"Leer","type":"Landkreis"},"federalState":{"key":"03","name":"Niedersachsen"}},{"name":"Am Compagniehaus","postalCode":"26842","locality":"Ostrhauderfehn","municipality":{"key":"03457017","name":"Ostrhauderfehn","type":"Kreisangehörige_Gemeinde"},"district":{"key":"03457","name":"Leer","type":"Landkreis"},"federalState":{"key":"03","name":"Niedersachsen"}},{"name":"Am Deich","postalCode":"26842","locality":"Ostrhauderfehn","municipality":{"key":"03457017","name":"Ostrhauderfehn","type":"Kreisangehörige_Gemeinde"},"district":{"key":"03457","name":"Leer","type":"Landkreis"},"federalState":{"key":"03","name":"Niedersachsen"}},{"name":"Am Flinthörn","postalCode":"26842","locality":"Ostrhauderfehn","municipality":{"key":"03457017","name":"Ostrhauderfehn","type":"Kreisangehörige_Gemeinde"},"district":{"key":"03457","name":"Leer","type":"Landkreis"},"federalState":{"key":"03","name":"Niedersachsen"}},{"name":"Am Idafehnschloot","postalCode":"26842","locality":"Ostrhauderfehn","municipality":{"key":"03457017","name":"Ostrhauderfehn","type":"Kreisangehörige_Gemeinde"},"district":{"key":"03457","name":"Leer","type":"Landkreis"},"federalState":{"key":"03","name":"Niedersachsen"}},{"name":"Am Mittelweg","postalCode":"26842","locality":"Ostrhauderfehn","municipality":{"key":"03457017","name":"Ostrhauderfehn","type":"Kreisangehörige_Gemeinde"},"district":{"key":"03457","name":"Leer","type":"Landkreis"},"federalState":{"key":"03","name":"Niedersachsen"}},{"name":"Am Rathaus","postalCode":"26842","locality":"Ostrhauderfehn","municipality":{"key":"03457017","name":"Ostrhauderfehn","type":"Kreisangehörige_Gemeinde"},"district":{"key":"03457","name":"Leer","type":"Landkreis"},"federalState":{"key":"03","name":"Niedersachsen"}},{"name":"Am Vossweg","postalCode":"26842","locality":"Ostrhauderfehn","municipality":{"key":"03457017","name":"Ostrhauderfehn","type":"Kreisangehörige_Gemeinde"},"district":{"key":"03457","name":"Leer","type":"Landkreis"},"federalState":{"key":"03","name":"Niedersachsen"}},{"name":"Am Wallschloot","postalCode":"26842","locality":"Ostrhauderfehn","municipality":{"key":"03457017","name":"Ostrhauderfehn","type":"Kreisangehörige_Gemeinde"},"district":{"key":"03457","name":"Leer","type":"Landkreis"},"federalState":{"key":"03","name":"Niedersachsen"}},{"name":"An der Inwieke","postalCode":"26842","locality":"Ostrhauderfehn","municipality":{"key":"03457017","name":"Ostrhauderfehn","type":"Kreisangehörige_Gemeinde"},"district":{"key":"03457","name":"Leer","type":"Landkreis"},"federalState":{"key":"03","name":"Niedersachsen"}},{"name":"Ankerstr.","postalCode":"26842","locality":"Ostrhauderfehn","municipality":{"key":"03457017","name":"Ostrhauderfehn","type":"Kreisangehörige_Gemeinde"},"district":{"key":"03457","name":"Leer","type":"Landkreis"},"federalState":{"key":"03","name":"Niedersachsen"}},{"name":"Asternstr.","postalCode":"26842","locality":"Ostrhauderfehn","municipality":{"key":"03457017","name":"Ostrhauderfehn","type":"Kreisangehörige_Gemeinde"},"district":{"key":"03457","name":"Leer","type":"Landkreis"},"federalState":{"key":"03","name":"Niedersachsen"}},{"name":"Bachstr.","postalCode":"26842","locality":"Ostrhauderfehn","municipality":{"key":"03457017","name":"Ostrhauderfehn","type":"Kreisangehörige_Gemeinde"},"district":{"key":"03457","name":"Leer","type":"Landkreis"},"federalState":{"key":"03","name":"Niedersachsen"}},{"name":"Bargmerweg","postalCode":"26842","locality":"Ostrhauderfehn","municipality":{"key":"03457017","name":"Ostrhauderfehn","type":"Kreisangehörige_Gemeinde"},"district":{"key":"03457","name":"Leer","type":"Landkreis"},"federalState":{"key":"03","name":"Niedersachsen"}},{"name":"Beethovenstr.","postalCode":"26842","locality":"Ostrhauderfehn","municipality":{"key":"03457017","name":"Ostrhauderfehn","type":"Kreisangehörige_Gemeinde"},"district":{"key":"03457","name":"Leer","type":"Landkreis"},"federalState":{"key":"03","name":"Niedersachsen"}},{"name":"Birkenstr.","postalCode":"26842","locality":"Ostrhauderfehn","municipality":{"key":"03457017","name":"Ostrhauderfehn","type":"Kreisangehörige_Gemeinde"},"district":{"key":"03457","name":"Leer","type":"Landkreis"},"federalState":{"key":"03","name":"Niedersachsen"}},{"name":"Birkhahnweg","postalCode":"26842","locality":"Ostrhauderfehn","municipality":{"key":"03457017","name":"Ostrhauderfehn","type":"Kreisangehörige_Gemeinde"},"district":{"key":"03457","name":"Leer","type":"Landkreis"},"federalState":{"key":"03","name":"Niedersachsen"}},{"name":"Brahmsstr.","postalCode":"26842","locality":"Ostrhauderfehn","municipality":{"key":"03457017","name":"Ostrhauderfehn","type":"Kreisangehörige_Gemeinde"},"district":{"key":"03457","name":"Leer","type":"Landkreis"},"federalState":{"key":"03","name":"Niedersachsen"}},{"name":"Buchholzweg","postalCode":"26842","locality":"Ostrhauderfehn","municipality":{"key":"03457017","name":"Ostrhauderfehn","type":"Kreisangehörige_Gemeinde"},"district":{"key":"03457","name":"Leer","type":"Landkreis"},"federalState":{"key":"03","name":"Niedersachsen"}},{"name":"Bürgermeister-Heyer-Str.","postalCode":"26842","locality":"Ostrhauderfehn","municipality":{"key":"03457017","name":"Ostrhauderfehn","type":"Kreisangehörige_Gemeinde"},"district":{"key":"03457","name":"Leer","type":"Landkreis"},"federalState":{"key":"03","name":"Niedersachsen"}},{"name":"Carl-Orff-Str.","postalCode":"26842","locality":"Ostrhauderfehn","municipality":{"key":"03457017","name":"Ostrhauderfehn","type":"Kreisangehörige_Gemeinde"},"district":{"key":"03457","name":"Leer","type":"Landkreis"},"federalState":{"key":"03","name":"Niedersachsen"}},{"name":"Dahlienstr.","postalCode":"26842","locality":"Ostrhauderfehn","municipality":{"key":"03457017","name":"Ostrhauderfehn","type":"Kreisangehörige_Gemeinde"},"district":{"key":"03457","name":"Leer","type":"Landkreis"},"federalState":{"key":"03","name":"Niedersachsen"}},{"name":"Daimlerstr.","postalCode":"26842","locality":"Ostrhauderfehn","municipality":{"key":"03457017","name":"Ostrhauderfehn","type":"Kreisangehörige_Gemeinde"},"district":{"key":"03457","name":"Leer","type":"Landkreis"},"federalState":{"key":"03","name":"Niedersachsen"}},{"name":"Dorfstr.","postalCode":"26842","locality":"Ostrhauderfehn","municipality":{"key":"03457017","name":"Ostrhauderfehn","type":"Kreisangehörige_Gemeinde"},"district":{"key":"03457","name":"Leer","type":"Landkreis"},"federalState":{"key":"03","name":"Niedersachsen"}},{"name":"Drosselstr.","postalCode":"26842","locality":"Ostrhauderfehn","municipality":{"key":"03457017","name":"Ostrhauderfehn","type":"Kreisangehörige_Gemeinde"},"district":{"key":"03457","name":"Leer","type":"Landkreis"},"federalState":{"key":"03","name":"Niedersachsen"}},{"name":"Drosselweg","postalCode":"26842","locality":"Ostrhauderfehn","municipality":{"key":"03457017","name":"Ostrhauderfehn","type":"Kreisangehörige_Gemeinde"},"district":{"key":"03457","name":"Leer","type":"Landkreis"},"federalState":{"key":"03","name":"Niedersachsen"}},{"name":"Eichenallee","postalCode":"26842","locality":"Ostrhauderfehn","municipality":{"key":"03457017","name":"Ostrhauderfehn","type":"Kreisangehörige_Gemeinde"},"district":{"key":"03457","name":"Leer","type":"Landkreis"},"federalState":{"key":"03","name":"Niedersachsen"}},{"name":"Einsteinstr.","postalCode":"26842","locality":"Ostrhauderfehn","municipality":{"key":"03457017","name":"Ostrhauderfehn","type":"Kreisangehörige_Gemeinde"},"district":{"key":"03457","name":"Leer","type":"Landkreis"},"federalState":{"key":"03","name":"Niedersachsen"}},{"name":"Etgenweg","postalCode":"26842","locality":"Ostrhauderfehn","municipality":{"key":"03457017","name":"Ostrhauderfehn","type":"Kreisangehörige_Gemeinde"},"district":{"key":"03457","name":"Leer","type":"Landkreis"},"federalState":{"key":"03","name":"Niedersachsen"}},{"name":"Etthüllenweg","postalCode":"26842","locality":"Ostrhauderfehn","municipality":{"key":"03457017","name":"Ostrhauderfehn","type":"Kreisangehörige_Gemeinde"},"district":{"key":"03457","name":"Leer","type":"Landkreis"},"federalState":{"key":"03","name":"Niedersachsen"}},{"name":"Farnweg","postalCode":"26842","locality":"Ostrhauderfehn","municipality":{"key":"03457017","name":"Ostrhauderfehn","type":"Kreisangehörige_Gemeinde"},"district":{"key":"03457","name":"Leer","type":"Landkreis"},"federalState":{"key":"03","name":"Niedersachsen"}},{"name":"Fehnweg","postalCode":"26842","locality":"Ostrhauderfehn","municipality":{"key":"03457017","name":"Ostrhauderfehn","type":"Kreisangehörige_Gemeinde"},"district":{"key":"03457","name":"Leer","type":"Landkreis"},"federalState":{"key":"03","name":"Niedersachsen"}},{"name":"Fennenweg","postalCode":"26842","locality":"Ostrhauderfehn","municipality":{"key":"03457017","name":"Ostrhauderfehn","type":"Kreisangehörige_Gemeinde"},"district":{"key":"03457","name":"Leer","type":"Landkreis"},"federalState":{"key":"03","name":"Niedersachsen"}},{"name":"Flügelweg","postalCode":"26842","locality":"Ostrhauderfehn","municipality":{"key":"03457017","name":"Ostrhauderfehn","type":"Kreisangehörige_Gemeinde"},"district":{"key":"03457","name":"Leer","type":"Landkreis"},"federalState":{"key":"03","name":"Niedersachsen"}},{"name":"Freesienstr.","postalCode":"26842","locality":"Ostrhauderfehn","municipality":{"key":"03457017","name":"Ostrhauderfehn","type":"Kreisangehörige_Gemeinde"},"district":{"key":"03457","name":"Leer","type":"Landkreis"},"federalState":{"key":"03","name":"Niedersachsen"}},{"name":"Freitagstr.-Nord","postalCode":"26842","locality":"Ostrhauderfehn","municipality":{"key":"03457017","name":"Ostrhauderfehn","type":"Kreisangehörige_Gemeinde"},"district":{"key":"03457","name":"Leer","type":"Landkreis"},"federalState":{"key":"03","name":"Niedersachsen"}},{"name":"Friesenstr.","postalCode":"26842","locality":"Ostrhauderfehn","municipality":{"key":"03457017","name":"Ostrhauderfehn","type":"Kreisangehörige_Gemeinde"},"district":{"key":"03457","name":"Leer","type":"Landkreis"},"federalState":{"key":"03","name":"Niedersachsen"}},{"name":"Fritz-Reuter-Ring","postalCode":"26842","locality":"Ostrhauderfehn","municipality":{"key":"03457017","name":"Ostrhauderfehn","type":"Kreisangehörige_Gemeinde"},"district":{"key":"03457","name":"Leer","type":"Landkreis"},"federalState":{"key":"03","name":"Niedersachsen"}},{"name":"Gartenstr.","postalCode":"26842","locality":"Ostrhauderfehn","municipality":{"key":"03457017","name":"Ostrhauderfehn","type":"Kreisangehörige_Gemeinde"},"district":{"key":"03457","name":"Leer","type":"Landkreis"},"federalState":{"key":"03","name":"Niedersachsen"}},{"name":"Gewerbestr. Süd","postalCode":"26842","locality":"Ostrhauderfehn","municipality":{"key":"03457017","name":"Ostrhauderfehn","type":"Kreisangehörige_Gemeinde"},"district":{"key":"03457","name":"Leer","type":"Landkreis"},"federalState":{"key":"03","name":"Niedersachsen"}},{"name":"Gewerbestr.-Süd","postalCode":"26842","locality":"Ostrhauderfehn","municipality":{"key":"03457017","name":"Ostrhauderfehn","type":"Kreisangehörige_Gemeinde"},"district":{"key":"03457","name":"Leer","type":"Landkreis"},"federalState":{"key":"03","name":"Niedersachsen"}},{"name":"Gluckstr.","postalCode":"26842","locality":"Ostrhauderfehn","municipality":{"key":"03457017","name":"Ostrhauderfehn","type":"Kreisangehörige_Gemeinde"},"district":{"key":"03457","name":"Leer","type":"Landkreis"},"federalState":{"key":"03","name":"Niedersachsen"}},{"name":"Gorch-Fock-Str.","postalCode":"26842","locality":"Ostrhauderfehn","municipality":{"key":"03457017","name":"Ostrhauderfehn","type":"Kreisangehörige_Gemeinde"},"district":{"key":"03457","name":"Leer","type":"Landkreis"},"federalState":{"key":"03","name":"Niedersachsen"}},{"name":"Greta-Schoon-Str.","postalCode":"26842","locality":"Ostrhauderfehn","municipality":{"key":"03457017","name":"Ostrhauderfehn","type":"Kreisangehörige_Gemeinde"},"district":{"key":"03457","name":"Leer","type":"Landkreis"},"federalState":{"key":"03","name":"Niedersachsen"}},{"name":"Grundweg","postalCode":"26842","locality":"Ostrhauderfehn","municipality":{"key":"03457017","name":"Ostrhauderfehn","type":"Kreisangehörige_Gemeinde"},"district":{"key":"03457","name":"Leer","type":"Landkreis"},"federalState":{"key":"03","name":"Niedersachsen"}},{"name":"Gutenbergstr.","postalCode":"26842","locality":"Ostrhauderfehn","municipality":{"key":"03457017","name":"Ostrhauderfehn","type":"Kreisangehörige_Gemeinde"},"district":{"key":"03457","name":"Leer","type":"Landkreis"},"federalState":{"key":"03","name":"Niedersachsen"}},{"name":"Hahnstr.","postalCode":"26842","locality":"Ostrhauderfehn","municipality":{"key":"03457017","name":"Ostrhauderfehn","type":"Kreisangehörige_Gemeinde"},"district":{"key":"03457","name":"Leer","type":"Landkreis"},"federalState":{"key":"03","name":"Niedersachsen"}},{"name":"Händelstr.","postalCode":"26842","locality":"Ostrhauderfehn","municipality":{"key":"03457017","name":"Ostrhauderfehn","type":"Kreisangehörige_Gemeinde"},"district":{"key":"03457","name":"Leer","type":"Landkreis"},"federalState":{"key":"03","name":"Niedersachsen"}},{"name":"Harm-Ojemann-Str.","postalCode":"26842","locality":"Ostrhauderfehn","municipality":{"key":"03457017","name":"Ostrhauderfehn","type":"Kreisangehörige_Gemeinde"},"district":{"key":"03457","name":"Leer","type":"Landkreis"},"federalState":{"key":"03","name":"Niedersachsen"}},{"name":"Hauptstr.","postalCode":"26842","locality":"Ostrhauderfehn","municipality":{"key":"03457017","name":"Ostrhauderfehn","type":"Kreisangehörige_Gemeinde"},"district":{"key":"03457","name":"Leer","type":"Landkreis"},"federalState":{"key":"03","name":"Niedersachsen"}},{"name":"Haydnstr.","postalCode":"26842","locality":"Ostrhauderfehn","municipality":{"key":"03457017","name":"Ostrhauderfehn","type":"Kreisangehörige_Gemeinde"},"district":{"key":"03457","name":"Leer","type":"Landkreis"},"federalState":{"key":"03","name":"Niedersachsen"}},{"name":"Heideweg","postalCode":"26842","locality":"Ostrhauderfehn","municipality":{"key":"03457017","name":"Ostrhauderfehn","type":"Kreisangehörige_Gemeinde"},"district":{"key":"03457","name":"Leer","type":"Landkreis"},"federalState":{"key":"03","name":"Niedersachsen"}},{"name":"Hermann-Löns-Ring","postalCode":"26842","locality":"Ostrhauderfehn","municipality":{"key":"03457017","name":"Ostrhauderfehn","type":"Kreisangehörige_Gemeinde"},"district":{"key":"03457","name":"Leer","type":"Landkreis"},"federalState":{"key":"03","name":"Niedersachsen"}},{"name":"Hermann-Löns-Str.","postalCode":"26842","locality":"Ostrhauderfehn","municipality":{"key":"03457017","name":"Ostrhauderfehn","type":"Kreisangehörige_Gemeinde"},"district":{"key":"03457","name":"Leer","type":"Landkreis"},"federalState":{"key":"03","name":"Niedersachsen"}},{"name":"Hertzstr.","postalCode":"26842","locality":"Ostrhauderfehn","municipality":{"key":"03457017","name":"Ostrhauderfehn","type":"Kreisangehörige_Gemeinde"},"district":{"key":"03457","name":"Leer","type":"Landkreis"},"federalState":{"key":"03","name":"Niedersachsen"}},{"name":"Hoffmannstr.","postalCode":"26842","locality":"Ostrhauderfehn","municipality":{"key":"03457017","name":"Ostrhauderfehn","type":"Kreisangehörige_Gemeinde"},"district":{"key":"03457","name":"Leer","type":"Landkreis"},"federalState":{"key":"03","name":"Niedersachsen"}},{"name":"Holterfehner Str.","postalCode":"26842","locality":"Ostrhauderfehn","municipality":{"key":"03457017","name":"Ostrhauderfehn","type":"Kreisangehörige_Gemeinde"},"district":{"key":"03457","name":"Leer","type":"Landkreis"},"federalState":{"key":"03","name":"Niedersachsen"}},{"name":"Hugenmoor","postalCode":"26842","locality":"Ostrhauderfehn","municipality":{"key":"03457017","name":"Ostrhauderfehn","type":"Kreisangehörige_Gemeinde"},"district":{"key":"03457","name":"Leer","type":"Landkreis"},"federalState":{"key":"03","name":"Niedersachsen"}},{"name":"Idafehn-Mitte","postalCode":"26842","locality":"Ostrhauderfehn","municipality":{"key":"03457017","name":"Ostrhauderfehn","type":"Kreisangehörige_Gemeinde"},"district":{"key":"03457","name":"Leer","type":"Landkreis"},"federalState":{"key":"03","name":"Niedersachsen"}},{"name":"Idafehn-Nord","postalCode":"26842","locality":"Ostrhauderfehn","municipality":{"key":"03457017","name":"Ostrhauderfehn","type":"Kreisangehörige_Gemeinde"},"district":{"key":"03457","name":"Leer","type":"Landkreis"},"federalState":{"key":"03","name":"Niedersachsen"}},{"name":"Idafehn-Süd","postalCode":"26842","locality":"Ostrhauderfehn","municipality":{"key":"03457017","name":"Ostrhauderfehn","type":"Kreisangehörige_Gemeinde"},"district":{"key":"03457","name":"Leer","type":"Landkreis"},"federalState":{"key":"03","name":"Niedersachsen"}},{"name":"Idasee","postalCode":"26842","locality":"Ostrhauderfehn","municipality":{"key":"03457017","name":"Ostrhauderfehn","type":"Kreisangehörige_Gemeinde"},"district":{"key":"03457","name":"Leer","type":"Landkreis"},"federalState":{"key":"03","name":"Niedersachsen"}},{"name":"Im Dorfe","postalCode":"26842","locality":"Ostrhauderfehn","municipality":{"key":"03457017","name":"Ostrhauderfehn","type":"Kreisangehörige_Gemeinde"},"district":{"key":"03457","name":"Leer","type":"Landkreis"},"federalState":{"key":"03","name":"Niedersachsen"}},{"name":"Im Polder","postalCode":"26842","locality":"Ostrhauderfehn","municipality":{"key":"03457017","name":"Ostrhauderfehn","type":"Kreisangehörige_Gemeinde"},"district":{"key":"03457","name":"Leer","type":"Landkreis"},"federalState":{"key":"03","name":"Niedersachsen"}},{"name":"Im Wiesengrund","postalCode":"26842","locality":"Ostrhauderfehn","municipality":{"key":"03457017","name":"Ostrhauderfehn","type":"Kreisangehörige_Gemeinde"},"district":{"key":"03457","name":"Leer","type":"Landkreis"},"federalState":{"key":"03","name":"Niedersachsen"}},{"name":"Jähnsweg","postalCode":"26842","locality":"Ostrhauderfehn","municipality":{"key":"03457017","name":"Ostrhauderfehn","type":"Kreisangehörige_Gemeinde"},"district":{"key":"03457","name":"Leer","type":"Landkreis"},"federalState":{"key":"03","name":"Niedersachsen"}},{"name":"Johann-Strauß-Ring","postalCode":"26842","locality":"Ostrhauderfehn","municipality":{"key":"03457017","name":"Ostrhauderfehn","type":"Kreisangehörige_Gemeinde"},"district":{"key":"03457","name":"Leer","type":"Landkreis"},"federalState":{"key":"03","name":"Niedersachsen"}},{"name":"Kapellenstr.","postalCode":"26842","locality":"Ostrhauderfehn","municipality":{"key":"03457017","name":"Ostrhauderfehn","type":"Kreisangehörige_Gemeinde"},"district":{"key":"03457","name":"Leer","type":"Landkreis"},"federalState":{"key":"03","name":"Niedersachsen"}},{"name":"Kiebitzweg","postalCode":"26842","locality":"Ostrhauderfehn","municipality":{"key":"03457017","name":"Ostrhauderfehn","type":"Kreisangehörige_Gemeinde"},"district":{"key":"03457","name":"Leer","type":"Landkreis"},"federalState":{"key":"03","name":"Niedersachsen"}},{"name":"Kirchstr.","postalCode":"26842","locality":"Ostrhauderfehn","municipality":{"key":"03457017","name":"Ostrhauderfehn","type":"Kreisangehörige_Gemeinde"},"district":{"key":"03457","name":"Leer","type":"Landkreis"},"federalState":{"key":"03","name":"Niedersachsen"}},{"name":"Kirchweg","postalCode":"26842","locality":"Ostrhauderfehn","municipality":{"key":"03457017","name":"Ostrhauderfehn","type":"Kreisangehörige_Gemeinde"},"district":{"key":"03457","name":"Leer","type":"Landkreis"},"federalState":{"key":"03","name":"Niedersachsen"}},{"name":"Klaus-Groth-Str.","postalCode":"26842","locality":"Ostrhauderfehn","municipality":{"key":"03457017","name":"Ostrhauderfehn","type":"Kreisangehörige_Gemeinde"},"district":{"key":"03457","name":"Leer","type":"Landkreis"},"federalState":{"key":"03","name":"Niedersachsen"}},{"name":"Klosterweg","postalCode":"26842","locality":"Ostrhauderfehn","municipality":{"key":"03457017","name":"Ostrhauderfehn","type":"Kreisangehörige_Gemeinde"},"district":{"key":"03457","name":"Leer","type":"Landkreis"},"federalState":{"key":"03","name":"Niedersachsen"}},{"name":"Königsweg","postalCode":"26842","locality":"Ostrhauderfehn","municipality":{"key":"03457017","name":"Ostrhauderfehn","type":"Kreisangehörige_Gemeinde"},"district":{"key":"03457","name":"Leer","type":"Landkreis"},"federalState":{"key":"03","name":"Niedersachsen"}},{"name":"Kurze Str.","postalCode":"26842","locality":"Ostrhauderfehn","municipality":{"key":"03457017","name":"Ostrhauderfehn","type":"Kreisangehörige_Gemeinde"},"district":{"key":"03457","name":"Leer","type":"Landkreis"},"federalState":{"key":"03","name":"Niedersachsen"}},{"name":"Langholter Str.","postalCode":"26842","locality":"Ostrhauderfehn","municipality":{"key":"03457017","name":"Ostrhauderfehn","type":"Kreisangehörige_Gemeinde"},"district":{"key":"03457","name":"Leer","type":"Landkreis"},"federalState":{"key":"03","name":"Niedersachsen"}},{"name":"Lärchenstr.","postalCode":"26842","locality":"Ostrhauderfehn","municipality":{"key":"03457017","name":"Ostrhauderfehn","type":"Kreisangehörige_Gemeinde"},"district":{"key":"03457","name":"Leer","type":"Landkreis"},"federalState":{"key":"03","name":"Niedersachsen"}},{"name":"Leda-Jümme-Weg","postalCode":"26842","locality":"Ostrhauderfehn","municipality":{"key":"03457017","name":"Ostrhauderfehn","type":"Kreisangehörige_Gemeinde"},"district":{"key":"03457","name":"Leer","type":"Landkreis"},"federalState":{"key":"03","name":"Niedersachsen"}},{"name":"Liebigstr.","postalCode":"26842","locality":"Ostrhauderfehn","municipality":{"key":"03457017","name":"Ostrhauderfehn","type":"Kreisangehörige_Gemeinde"},"district":{"key":"03457","name":"Leer","type":"Landkreis"},"federalState":{"key":"03","name":"Niedersachsen"}},{"name":"Lilienstr.","postalCode":"26842","locality":"Ostrhauderfehn","municipality":{"key":"03457017","name":"Ostrhauderfehn","type":"Kreisangehörige_Gemeinde"},"district":{"key":"03457","name":"Leer","type":"Landkreis"},"federalState":{"key":"03","name":"Niedersachsen"}},{"name":"Lisztstr.","postalCode":"26842","locality":"Ostrhauderfehn","municipality":{"key":"03457017","name":"Ostrhauderfehn","type":"Kreisangehörige_Gemeinde"},"district":{"key":"03457","name":"Leer","type":"Landkreis"},"federalState":{"key":"03","name":"Niedersachsen"}},{"name":"Lortzingstr.","postalCode":"26842","locality":"Ostrhauderfehn","municipality":{"key":"03457017","name":"Ostrhauderfehn","type":"Kreisangehörige_Gemeinde"},"district":{"key":"03457","name":"Leer","type":"Landkreis"},"federalState":{"key":"03","name":"Niedersachsen"}},{"name":"Malvenstr.","postalCode":"26842","locality":"Ostrhauderfehn","municipality":{"key":"03457017","name":"Ostrhauderfehn","type":"Kreisangehörige_Gemeinde"},"district":{"key":"03457","name":"Leer","type":"Landkreis"},"federalState":{"key":"03","name":"Niedersachsen"}},{"name":"Matthias-Claudius-Str.","postalCode":"26842","locality":"Ostrhauderfehn","municipality":{"key":"03457017","name":"Ostrhauderfehn","type":"Kreisangehörige_Gemeinde"},"district":{"key":"03457","name":"Leer","type":"Landkreis"},"federalState":{"key":"03","name":"Niedersachsen"}},{"name":"Max-Reger-Str.","postalCode":"26842","locality":"Ostrhauderfehn","municipality":{"key":"03457017","name":"Ostrhauderfehn","type":"Kreisangehörige_Gemeinde"},"district":{"key":"03457","name":"Leer","type":"Landkreis"},"federalState":{"key":"03","name":"Niedersachsen"}},{"name":"Meedlandsweg","postalCode":"26842","locality":"Ostrhauderfehn","municipality":{"key":"03457017","name":"Ostrhauderfehn","type":"Kreisangehörige_Gemeinde"},"district":{"key":"03457","name":"Leer","type":"Landkreis"},"federalState":{"key":"03","name":"Niedersachsen"}},{"name":"Middendorfstr.","postalCode":"26842","locality":"Ostrhauderfehn","municipality":{"key":"03457017","name":"Ostrhauderfehn","type":"Kreisangehörige_Gemeinde"},"district":{"key":"03457","name":"Leer","type":"Landkreis"},"federalState":{"key":"03","name":"Niedersachsen"}},{"name":"Mozartstr.","postalCode":"26842","locality":"Ostrhauderfehn","municipality":{"key":"03457017","name":"Ostrhauderfehn","type":"Kreisangehörige_Gemeinde"},"district":{"key":"03457","name":"Leer","type":"Landkreis"},"federalState":{"key":"03","name":"Niedersachsen"}},{"name":"Nelkenstr.","postalCode":"26842","locality":"Ostrhauderfehn","municipality":{"key":"03457017","name":"Ostrhauderfehn","type":"Kreisangehörige_Gemeinde"},"district":{"key":"03457","name":"Leer","type":"Landkreis"},"federalState":{"key":"03","name":"Niedersachsen"}},{"name":"Neukampsweg","postalCode":"26842","locality":"Ostrhauderfehn","municipality":{"key":"03457017","name":"Ostrhauderfehn","type":"Kreisangehörige_Gemeinde"},"district":{"key":"03457","name":"Leer","type":"Landkreis"},"federalState":{"key":"03","name":"Niedersachsen"}},{"name":"Nordstr.","postalCode":"26842","locality":"Ostrhauderfehn","municipality":{"key":"03457017","name":"Ostrhauderfehn","type":"Kreisangehörige_Gemeinde"},"district":{"key":"03457","name":"Leer","type":"Landkreis"},"federalState":{"key":"03","name":"Niedersachsen"}},{"name":"Offenbachstr.","postalCode":"26842","locality":"Ostrhauderfehn","municipality":{"key":"03457017","name":"Ostrhauderfehn","type":"Kreisangehörige_Gemeinde"},"district":{"key":"03457","name":"Leer","type":"Landkreis"},"federalState":{"key":"03","name":"Niedersachsen"}},{"name":"Osterweg","postalCode":"26842","locality":"Ostrhauderfehn","municipality":{"key":"03457017","name":"Ostrhauderfehn","type":"Kreisangehörige_Gemeinde"},"district":{"key":"03457","name":"Leer","type":"Landkreis"},"federalState":{"key":"03","name":"Niedersachsen"}},{"name":"Planckstr.","postalCode":"26842","locality":"Ostrhauderfehn","municipality":{"key":"03457017","name":"Ostrhauderfehn","type":"Kreisangehörige_Gemeinde"},"district":{"key":"03457","name":"Leer","type":"Landkreis"},"federalState":{"key":"03","name":"Niedersachsen"}},{"name":"Potshauser Str.","postalCode":"26842","locality":"Ostrhauderfehn","municipality":{"key":"03457017","name":"Ostrhauderfehn","type":"Kreisangehörige_Gemeinde"},"district":{"key":"03457","name":"Leer","type":"Landkreis"},"federalState":{"key":"03","name":"Niedersachsen"}},{"name":"Querweg","postalCode":"26789","locality":"Leer","municipality":{"key":"03457013","name":"Leer (Ostfriesland), Stadt","type":"Stadt"},"district":{"key":"03457","name":"Leer","type":"Landkreis"},"federalState":{"key":"03","name":"Niedersachsen"}},{"name":"Rabenbrücke","postalCode":"26842","locality":"Ostrhauderfehn","municipality":{"key":"03457017","name":"Ostrhauderfehn","type":"Kreisangehörige_Gemeinde"},"district":{"key":"03457","name":"Leer","type":"Landkreis"},"federalState":{"key":"03","name":"Niedersachsen"}},{"name":"Reisstr.","postalCode":"26842","locality":"Ostrhauderfehn","municipality":{"key":"03457017","name":"Ostrhauderfehn","type":"Kreisangehörige_Gemeinde"},"district":{"key":"03457","name":"Leer","type":"Landkreis"},"federalState":{"key":"03","name":"Niedersachsen"}},{"name":"Reithkampenweg","postalCode":"26842","locality":"Ostrhauderfehn","municipality":{"key":"03457017","name":"Ostrhauderfehn","type":"Kreisangehörige_Gemeinde"},"district":{"key":"03457","name":"Leer","type":"Landkreis"},"federalState":{"key":"03","name":"Niedersachsen"}},{"name":"Rhauder Weg","postalCode":"26842","locality":"Ostrhauderfehn","municipality":{"key":"03457017","name":"Ostrhauderfehn","type":"Kreisangehörige_Gemeinde"},"district":{"key":"03457","name":"Leer","type":"Landkreis"},"federalState":{"key":"03","name":"Niedersachsen"}},{"name":"Ringstr.","postalCode":"26842","locality":"Ostrhauderfehn","municipality":{"key":"03457017","name":"Ostrhauderfehn","type":"Kreisangehörige_Gemeinde"},"district":{"key":"03457","name":"Leer","type":"Landkreis"},"federalState":{"key":"03","name":"Niedersachsen"}},{"name":"Rinzeldorfer Str.","postalCode":"26842","locality":"Ostrhauderfehn","municipality":{"key":"03457017","name":"Ostrhauderfehn","type":"Kreisangehörige_Gemeinde"},"district":{"key":"03457","name":"Leer","type":"Landkreis"},"federalState":{"key":"03","name":"Niedersachsen"}},{"name":"Röntgenstr.","postalCode":"26842","locality":"Ostrhauderfehn","municipality":{"key":"03457017","name":"Ostrhauderfehn","type":"Kreisangehörige_Gemeinde"},"district":{"key":"03457","name":"Leer","type":"Landkreis"},"federalState":{"key":"03","name":"Niedersachsen"}},{"name":"Rosenstr.","postalCode":"26842","locality":"Ostrhauderfehn","municipality":{"key":"03457017","name":"Ostrhauderfehn","type":"Kreisangehörige_Gemeinde"},"district":{"key":"03457","name":"Leer","type":"Landkreis"},"federalState":{"key":"03","name":"Niedersachsen"}},{"name":"Rotdornweg","postalCode":"26842","locality":"Ostrhauderfehn","municipality":{"key":"03457017","name":"Ostrhauderfehn","type":"Kreisangehörige_Gemeinde"},"district":{"key":"03457","name":"Leer","type":"Landkreis"},"federalState":{"key":"03","name":"Niedersachsen"}},{"name":"Rudolf-Kinau-Str.","postalCode":"26842","locality":"Ostrhauderfehn","municipality":{"key":"03457017","name":"Ostrhauderfehn","type":"Kreisangehörige_Gemeinde"},"district":{"key":"03457","name":"Leer","type":"Landkreis"},"federalState":{"key":"03","name":"Niedersachsen"}},{"name":"Rüskeweg","postalCode":"26842","locality":"Ostrhauderfehn","municipality":{"key":"03457017","name":"Ostrhauderfehn","type":"Kreisangehörige_Gemeinde"},"district":{"key":"03457","name":"Leer","type":"Landkreis"},"federalState":{"key":"03","name":"Niedersachsen"}},{"name":"Schifferstr.","postalCode":"26842","locality":"Ostrhauderfehn","municipality":{"key":"03457017","name":"Ostrhauderfehn","type":"Kreisangehörige_Gemeinde"},"district":{"key":"03457","name":"Leer","type":"Landkreis"},"federalState":{"key":"03","name":"Niedersachsen"}},{"name":"Schlootsweg","postalCode":"26842","locality":"Ostrhauderfehn","municipality":{"key":"03457017","name":"Ostrhauderfehn","type":"Kreisangehörige_Gemeinde"},"district":{"key":"03457","name":"Leer","type":"Landkreis"},"federalState":{"key":"03","name":"Niedersachsen"}},{"name":"Schöpfwerksweg","postalCode":"26842","locality":"Ostrhauderfehn","municipality":{"key":"03457017","name":"Ostrhauderfehn","type":"Kreisangehörige_Gemeinde"},"district":{"key":"03457","name":"Leer","type":"Landkreis"},"federalState":{"key":"03","name":"Niedersachsen"}},{"name":"Schubertstr.","postalCode":"26842","locality":"Ostrhauderfehn","municipality":{"key":"03457017","name":"Ostrhauderfehn","type":"Kreisangehörige_Gemeinde"},"district":{"key":"03457","name":"Leer","type":"Landkreis"},"federalState":{"key":"03","name":"Niedersachsen"}},{"name":"Schuhmannstr.","postalCode":"26842","locality":"Ostrhauderfehn","municipality":{"key":"03457017","name":"Ostrhauderfehn","type":"Kreisangehörige_Gemeinde"},"district":{"key":"03457","name":"Leer","type":"Landkreis"},"federalState":{"key":"03","name":"Niedersachsen"}},{"name":"Schulstr.","postalCode":"26842","locality":"Ostrhauderfehn","municipality":{"key":"03457017","name":"Ostrhauderfehn","type":"Kreisangehörige_Gemeinde"},"district":{"key":"03457","name":"Leer","type":"Landkreis"},"federalState":{"key":"03","name":"Niedersachsen"}},{"name":"Schulweg","postalCode":"26842","locality":"Ostrhauderfehn","municipality":{"key":"03457017","name":"Ostrhauderfehn","type":"Kreisangehörige_Gemeinde"},"district":{"key":"03457","name":"Leer","type":"Landkreis"},"federalState":{"key":"03","name":"Niedersachsen"}},{"name":"Schützstr.","postalCode":"26842","locality":"Ostrhauderfehn","municipality":{"key":"03457017","name":"Ostrhauderfehn","type":"Kreisangehörige_Gemeinde"},"district":{"key":"03457","name":"Leer","type":"Landkreis"},"federalState":{"key":"03","name":"Niedersachsen"}},{"name":"Siedlerstr.","postalCode":"26842","locality":"Ostrhauderfehn","municipality":{"key":"03457017","name":"Ostrhauderfehn","type":"Kreisangehörige_Gemeinde"},"district":{"key":"03457","name":"Leer","type":"Landkreis"},"federalState":{"key":"03","name":"Niedersachsen"}},{"name":"Sieltiefsweg","postalCode":"26842","locality":"Ostrhauderfehn","municipality":{"key":"03457017","name":"Ostrhauderfehn","type":"Kreisangehörige_Gemeinde"},"district":{"key":"03457","name":"Leer","type":"Landkreis"},"federalState":{"key":"03","name":"Niedersachsen"}},{"name":"Siemensstr.","postalCode":"26842","locality":"Ostrhauderfehn","municipality":{"key":"03457017","name":"Ostrhauderfehn","type":"Kreisangehörige_Gemeinde"},"district":{"key":"03457","name":"Leer","type":"Landkreis"},"federalState":{"key":"03","name":"Niedersachsen"}},{"name":"Sonnenstr.","postalCode":"26842","locality":"Ostrhauderfehn","municipality":{"key":"03457017","name":"Ostrhauderfehn","type":"Kreisangehörige_Gemeinde"},"district":{"key":"03457","name":"Leer","type":"Landkreis"},"federalState":{"key":"03","name":"Niedersachsen"}},{"name":"Stolzstr.","postalCode":"26842","locality":"Ostrhauderfehn","municipality":{"key":"03457017","name":"Ostrhauderfehn","type":"Kreisangehörige_Gemeinde"},"district":{"key":"03457","name":"Leer","type":"Landkreis"},"federalState":{"key":"03","name":"Niedersachsen"}},{"name":"Tannenstr.","postalCode":"26842","locality":"Ostrhauderfehn","municipality":{"key":"03457017","name":"Ostrhauderfehn","type":"Kreisangehörige_Gemeinde"},"district":{"key":"03457","name":"Leer","type":"Landkreis"},"federalState":{"key":"03","name":"Niedersachsen"}},{"name":"Terheide","postalCode":"26842","locality":"Ostrhauderfehn","municipality":{"key":"03457017","name":"Ostrhauderfehn","type":"Kreisangehörige_Gemeinde"},"district":{"key":"03457","name":"Leer","type":"Landkreis"},"federalState":{"key":"03","name":"Niedersachsen"}},{"name":"Terheider Weg","postalCode":"26842","locality":"Ostrhauderfehn","municipality":{"key":"03457017","name":"Ostrhauderfehn","type":"Kreisangehörige_Gemeinde"},"district":{"key":"03457","name":"Leer","type":"Landkreis"},"federalState":{"key":"03","name":"Niedersachsen"}},{"name":"Theodor-Storm-Str.","postalCode":"26842","locality":"Ostrhauderfehn","municipality":{"key":"03457017","name":"Ostrhauderfehn","type":"Kreisangehörige_Gemeinde"},"district":{"key":"03457","name":"Leer","type":"Landkreis"},"federalState":{"key":"03","name":"Niedersachsen"}},{"name":"Tukerweg","postalCode":"26842","locality":"Ostrhauderfehn","municipality":{"key":"03457017","name":"Ostrhauderfehn","type":"Kreisangehörige_Gemeinde"},"district":{"key":"03457","name":"Leer","type":"Landkreis"},"federalState":{"key":"03","name":"Niedersachsen"}},{"name":"Tulpenstr.","postalCode":"26842","locality":"Ostrhauderfehn","municipality":{"key":"03457017","name":"Ostrhauderfehn","type":"Kreisangehörige_Gemeinde"},"district":{"key":"03457","name":"Leer","type":"Landkreis"},"federalState":{"key":"03","name":"Niedersachsen"}},{"name":"Tüntjerweg","postalCode":"26842","locality":"Ostrhauderfehn","municipality":{"key":"03457017","name":"Ostrhauderfehn","type":"Kreisangehörige_Gemeinde"},"district":{"key":"03457","name":"Leer","type":"Landkreis"},"federalState":{"key":"03","name":"Niedersachsen"}},{"name":"Ubbehausen","postalCode":"26842","locality":"Ostrhauderfehn","municipality":{"key":"03457017","name":"Ostrhauderfehn","type":"Kreisangehörige_Gemeinde"},"district":{"key":"03457","name":"Leer","type":"Landkreis"},"federalState":{"key":"03","name":"Niedersachsen"}},{"name":"Untenende","postalCode":"26842","locality":"Ostrhauderfehn","municipality":{"key":"03457017","name":"Ostrhauderfehn","type":"Kreisangehörige_Gemeinde"},"district":{"key":"03457","name":"Leer","type":"Landkreis"},"federalState":{"key":"03","name":"Niedersachsen"}},{"name":"Utende","postalCode":"26842","locality":"Ostrhauderfehn","municipality":{"key":"03457017","name":"Ostrhauderfehn","type":"Kreisangehörige_Gemeinde"},"district":{"key":"03457","name":"Leer","type":"Landkreis"},"federalState":{"key":"03","name":"Niedersachsen"}},{"name":"Verdistr.","postalCode":"26842","locality":"Ostrhauderfehn","municipality":{"key":"03457017","name":"Ostrhauderfehn","type":"Kreisangehörige_Gemeinde"},"district":{"key":"03457","name":"Leer","type":"Landkreis"},"federalState":{"key":"03","name":"Niedersachsen"}},{"name":"Von-Glan-Str.","postalCode":"26842","locality":"Ostrhauderfehn","municipality":{"key":"03457017","name":"Ostrhauderfehn","type":"Kreisangehörige_Gemeinde"},"district":{"key":"03457","name":"Leer","type":"Landkreis"},"federalState":{"key":"03","name":"Niedersachsen"}},{"name":"von Weber-Str.","postalCode":"26842","locality":"Ostrhauderfehn","municipality":{"key":"03457017","name":"Ostrhauderfehn","type":"Kreisangehörige_Gemeinde"},"district":{"key":"03457","name":"Leer","type":"Landkreis"},"federalState":{"key":"03","name":"Niedersachsen"}},{"name":"Wagnerstr.","postalCode":"26842","locality":"Ostrhauderfehn","municipality":{"key":"03457017","name":"Ostrhauderfehn","type":"Kreisangehörige_Gemeinde"},"district":{"key":"03457","name":"Leer","type":"Landkreis"},"federalState":{"key":"03","name":"Niedersachsen"}},{"name":"Werftstr.","postalCode":"26842","locality":"Ostrhauderfehn","municipality":{"key":"03457017","name":"Ostrhauderfehn","type":"Kreisangehörige_Gemeinde"},"district":{"key":"03457","name":"Leer","type":"Landkreis"},"federalState":{"key":"03","name":"Niedersachsen"}},{"name":"Wersenweg","postalCode":"26842","locality":"Ostrhauderfehn","municipality":{"key":"03457017","name":"Ostrhauderfehn","type":"Kreisangehörige_Gemeinde"},"district":{"key":"03457","name":"Leer","type":"Landkreis"},"federalState":{"key":"03","name":"Niedersachsen"}},{"name":"Wilhelm-Busch-Str.","postalCode":"26842","locality":"Ostrhauderfehn","municipality":{"key":"03457017","name":"Ostrhauderfehn","type":"Kreisangehörige_Gemeinde"},"district":{"key":"03457","name":"Leer","type":"Landkreis"},"federalState":{"key":"03","name":"Niedersachsen"}},{"name":"Wilhelmine-Siefkes-Str.","postalCode":"26842","locality":"Ostrhauderfehn","municipality":{"key":"03457017","name":"Ostrhauderfehn","type":"Kreisangehörige_Gemeinde"},"district":{"key":"03457","name":"Leer","type":"Landkreis"},"federalState":{"key":"03","name":"Niedersachsen"}},{"name":"Wittbargsweg","postalCode":"26842","locality":"Ostrhauderfehn","municipality":{"key":"03457017","name":"Ostrhauderfehn","type":"Kreisangehörige_Gemeinde"},"district":{"key":"03457","name":"Leer","type":"Landkreis"},"federalState":{"key":"03","name":"Niedersachsen"}},{"name":"Zeppelinstr.","postalCode":"26842","locality":"Ostrhauderfehn","municipality":{"key":"03457017","name":"Ostrhauderfehn","type":"Kreisangehörige_Gemeinde"},"district":{"key":"03457","name":"Leer","type":"Landkreis"},"federalState":{"key":"03","name":"Niedersachsen"}},{"name":"Zum Westkanal","postalCode":"26842","locality":"Ostrhauderfehn","municipality":{"key":"03457017","name":"Ostrhauderfehn","type":"Kreisangehörige_Gemeinde"},"district":{"key":"03457","name":"Leer","type":"Landkreis"},"federalState":{"key":"03","name":"Niedersachsen"}},]