[{"name":"Alemannenstr.","postalCode":"55597","locality":"Wöllstein","municipality":{"key":"07331072","name":"Wöllstein","type":"Kreisangehörige_Gemeinde"},"district":{"key":"07331","name":"Alzey-Worms","type":"Landkreis"},"federalState":{"key":"07","name":"Rheinland-Pfalz"}},{"name":"Alzeyer Str.","postalCode":"55597","locality":"Wöllstein","municipality":{"key":"07331072","name":"Wöllstein","type":"Kreisangehörige_Gemeinde"},"district":{"key":"07331","name":"Alzey-Worms","type":"Landkreis"},"federalState":{"key":"07","name":"Rheinland-Pfalz"}},{"name":"Am Hinkelstein","postalCode":"55597","locality":"Wöllstein","municipality":{"key":"07331072","name":"Wöllstein","type":"Kreisangehörige_Gemeinde"},"district":{"key":"07331","name":"Alzey-Worms","type":"Landkreis"},"federalState":{"key":"07","name":"Rheinland-Pfalz"}},{"name":"Am Ölberg","postalCode":"55597","locality":"Wöllstein","municipality":{"key":"07331072","name":"Wöllstein","type":"Kreisangehörige_Gemeinde"},"district":{"key":"07331","name":"Alzey-Worms","type":"Landkreis"},"federalState":{"key":"07","name":"Rheinland-Pfalz"}},{"name":"Am Schlossstadion","postalCode":"55597","locality":"Wöllstein","municipality":{"key":"07331072","name":"Wöllstein","type":"Kreisangehörige_Gemeinde"},"district":{"key":"07331","name":"Alzey-Worms","type":"Landkreis"},"federalState":{"key":"07","name":"Rheinland-Pfalz"}},{"name":"An der alten Siedlung","postalCode":"55597","locality":"Wöllstein","municipality":{"key":"07331072","name":"Wöllstein","type":"Kreisangehörige_Gemeinde"},"district":{"key":"07331","name":"Alzey-Worms","type":"Landkreis"},"federalState":{"key":"07","name":"Rheinland-Pfalz"}},{"name":"Anton-Brüll-Weg","postalCode":"55597","locality":"Wöllstein","municipality":{"key":"07331072","name":"Wöllstein","type":"Kreisangehörige_Gemeinde"},"district":{"key":"07331","name":"Alzey-Worms","type":"Landkreis"},"federalState":{"key":"07","name":"Rheinland-Pfalz"}},{"name":"Anton-Knab-Ring","postalCode":"55597","locality":"Wöllstein","municipality":{"key":"07331072","name":"Wöllstein","type":"Kreisangehörige_Gemeinde"},"district":{"key":"07331","name":"Alzey-Worms","type":"Landkreis"},"federalState":{"key":"07","name":"Rheinland-Pfalz"}},{"name":"Armsheimer Str.","postalCode":"55597","locality":"Wöllstein","municipality":{"key":"07331072","name":"Wöllstein","type":"Kreisangehörige_Gemeinde"},"district":{"key":"07331","name":"Alzey-Worms","type":"Landkreis"},"federalState":{"key":"07","name":"Rheinland-Pfalz"}},{"name":"Auf der Kissel","postalCode":"55597","locality":"Wöllstein","municipality":{"key":"07331072","name":"Wöllstein","type":"Kreisangehörige_Gemeinde"},"district":{"key":"07331","name":"Alzey-Worms","type":"Landkreis"},"federalState":{"key":"07","name":"Rheinland-Pfalz"}},{"name":"Auf der Klause","postalCode":"55597","locality":"Wöllstein","municipality":{"key":"07331072","name":"Wöllstein","type":"Kreisangehörige_Gemeinde"},"district":{"key":"07331","name":"Alzey-Worms","type":"Landkreis"},"federalState":{"key":"07","name":"Rheinland-Pfalz"}},{"name":"Bacchusweg","postalCode":"55597","locality":"Wöllstein","municipality":{"key":"07331072","name":"Wöllstein","type":"Kreisangehörige_Gemeinde"},"district":{"key":"07331","name":"Alzey-Worms","type":"Landkreis"},"federalState":{"key":"07","name":"Rheinland-Pfalz"}},{"name":"Bachgasse","postalCode":"55597","locality":"Wöllstein","municipality":{"key":"07331072","name":"Wöllstein","type":"Kreisangehörige_Gemeinde"},"district":{"key":"07331","name":"Alzey-Worms","type":"Landkreis"},"federalState":{"key":"07","name":"Rheinland-Pfalz"}},{"name":"Badenheimer Weg","postalCode":"55597","locality":"Wöllstein","municipality":{"key":"07331072","name":"Wöllstein","type":"Kreisangehörige_Gemeinde"},"district":{"key":"07331","name":"Alzey-Worms","type":"Landkreis"},"federalState":{"key":"07","name":"Rheinland-Pfalz"}},{"name":"Bahnhofstr.","postalCode":"55597","locality":"Wöllstein","municipality":{"key":"07331072","name":"Wöllstein","type":"Kreisangehörige_Gemeinde"},"district":{"key":"07331","name":"Alzey-Worms","type":"Landkreis"},"federalState":{"key":"07","name":"Rheinland-Pfalz"}},{"name":"Barsac-Allee","postalCode":"55597","locality":"Wöllstein","municipality":{"key":"07331072","name":"Wöllstein","type":"Kreisangehörige_Gemeinde"},"district":{"key":"07331","name":"Alzey-Worms","type":"Landkreis"},"federalState":{"key":"07","name":"Rheinland-Pfalz"}},{"name":"Berliner Str.","postalCode":"55597","locality":"Wöllstein","municipality":{"key":"07331072","name":"Wöllstein","type":"Kreisangehörige_Gemeinde"},"district":{"key":"07331","name":"Alzey-Worms","type":"Landkreis"},"federalState":{"key":"07","name":"Rheinland-Pfalz"}},{"name":"Brückenstr.","postalCode":"55597","locality":"Wöllstein","municipality":{"key":"07331072","name":"Wöllstein","type":"Kreisangehörige_Gemeinde"},"district":{"key":"07331","name":"Alzey-Worms","type":"Landkreis"},"federalState":{"key":"07","name":"Rheinland-Pfalz"}},{"name":"Brühlstr.","postalCode":"55597","locality":"Wöllstein","municipality":{"key":"07331072","name":"Wöllstein","type":"Kreisangehörige_Gemeinde"},"district":{"key":"07331","name":"Alzey-Worms","type":"Landkreis"},"federalState":{"key":"07","name":"Rheinland-Pfalz"}},{"name":"Burgunderweg","postalCode":"55597","locality":"Wöllstein","municipality":{"key":"07331072","name":"Wöllstein","type":"Kreisangehörige_Gemeinde"},"district":{"key":"07331","name":"Alzey-Worms","type":"Landkreis"},"federalState":{"key":"07","name":"Rheinland-Pfalz"}},{"name":"Dekan-Horst-Str.","postalCode":"55597","locality":"Wöllstein","municipality":{"key":"07331072","name":"Wöllstein","type":"Kreisangehörige_Gemeinde"},"district":{"key":"07331","name":"Alzey-Worms","type":"Landkreis"},"federalState":{"key":"07","name":"Rheinland-Pfalz"}},{"name":"Eckelsheimer Str.","postalCode":"55597","locality":"Wöllstein","municipality":{"key":"07331072","name":"Wöllstein","type":"Kreisangehörige_Gemeinde"},"district":{"key":"07331","name":"Alzey-Worms","type":"Landkreis"},"federalState":{"key":"07","name":"Rheinland-Pfalz"}},{"name":"Eleonorenstr.","postalCode":"55597","locality":"Wöllstein","municipality":{"key":"07331072","name":"Wöllstein","type":"Kreisangehörige_Gemeinde"},"district":{"key":"07331","name":"Alzey-Worms","type":"Landkreis"},"federalState":{"key":"07","name":"Rheinland-Pfalz"}},{"name":"Ernst-Ludwig-Str.","postalCode":"55597","locality":"Wöllstein","municipality":{"key":"07331072","name":"Wöllstein","type":"Kreisangehörige_Gemeinde"},"district":{"key":"07331","name":"Alzey-Worms","type":"Landkreis"},"federalState":{"key":"07","name":"Rheinland-Pfalz"}},{"name":"Ferdinand-Haas-Str.","postalCode":"55597","locality":"Wöllstein","municipality":{"key":"07331072","name":"Wöllstein","type":"Kreisangehörige_Gemeinde"},"district":{"key":"07331","name":"Alzey-Worms","type":"Landkreis"},"federalState":{"key":"07","name":"Rheinland-Pfalz"}},{"name":"Flonheimer Str.","postalCode":"55597","locality":"Wöllstein","municipality":{"key":"07331072","name":"Wöllstein","type":"Kreisangehörige_Gemeinde"},"district":{"key":"07331","name":"Alzey-Worms","type":"Landkreis"},"federalState":{"key":"07","name":"Rheinland-Pfalz"}},{"name":"Frankenstr.","postalCode":"55597","locality":"Wöllstein","municipality":{"key":"07331072","name":"Wöllstein","type":"Kreisangehörige_Gemeinde"},"district":{"key":"07331","name":"Alzey-Worms","type":"Landkreis"},"federalState":{"key":"07","name":"Rheinland-Pfalz"}},{"name":"Freiherr-von-Langsdorff-Str.","postalCode":"55597","locality":"Wöllstein","municipality":{"key":"07331072","name":"Wöllstein","type":"Kreisangehörige_Gemeinde"},"district":{"key":"07331","name":"Alzey-Worms","type":"Landkreis"},"federalState":{"key":"07","name":"Rheinland-Pfalz"}},{"name":"Gerberstr.","postalCode":"55597","locality":"Wöllstein","municipality":{"key":"07331072","name":"Wöllstein","type":"Kreisangehörige_Gemeinde"},"district":{"key":"07331","name":"Alzey-Worms","type":"Landkreis"},"federalState":{"key":"07","name":"Rheinland-Pfalz"}},{"name":"Gotenstr.","postalCode":"55597","locality":"Wöllstein","municipality":{"key":"07331072","name":"Wöllstein","type":"Kreisangehörige_Gemeinde"},"district":{"key":"07331","name":"Alzey-Worms","type":"Landkreis"},"federalState":{"key":"07","name":"Rheinland-Pfalz"}},{"name":"Great-Barford-Str.","postalCode":"55597","locality":"Wöllstein","municipality":{"key":"07331072","name":"Wöllstein","type":"Kreisangehörige_Gemeinde"},"district":{"key":"07331","name":"Alzey-Worms","type":"Landkreis"},"federalState":{"key":"07","name":"Rheinland-Pfalz"}},{"name":"Gumbsheimer Str.","postalCode":"55597","locality":"Wöllstein","municipality":{"key":"07331072","name":"Wöllstein","type":"Kreisangehörige_Gemeinde"},"district":{"key":"07331","name":"Alzey-Worms","type":"Landkreis"},"federalState":{"key":"07","name":"Rheinland-Pfalz"}},{"name":"Hochstr.","postalCode":"55597","locality":"Wöllstein","municipality":{"key":"07331072","name":"Wöllstein","type":"Kreisangehörige_Gemeinde"},"district":{"key":"07331","name":"Alzey-Worms","type":"Landkreis"},"federalState":{"key":"07","name":"Rheinland-Pfalz"}},{"name":"Höllerstr.","postalCode":"55597","locality":"Wöllstein","municipality":{"key":"07331072","name":"Wöllstein","type":"Kreisangehörige_Gemeinde"},"district":{"key":"07331","name":"Alzey-Worms","type":"Landkreis"},"federalState":{"key":"07","name":"Rheinland-Pfalz"}},{"name":"Im Brühl","postalCode":"55597","locality":"Wöllstein","municipality":{"key":"07331072","name":"Wöllstein","type":"Kreisangehörige_Gemeinde"},"district":{"key":"07331","name":"Alzey-Worms","type":"Landkreis"},"federalState":{"key":"07","name":"Rheinland-Pfalz"}},{"name":"In der Krummgewann","postalCode":"55597","locality":"Wöllstein","municipality":{"key":"07331072","name":"Wöllstein","type":"Kreisangehörige_Gemeinde"},"district":{"key":"07331","name":"Alzey-Worms","type":"Landkreis"},"federalState":{"key":"07","name":"Rheinland-Pfalz"}},{"name":"Industriestr.","postalCode":"55597","locality":"Wöllstein","municipality":{"key":"07331072","name":"Wöllstein","type":"Kreisangehörige_Gemeinde"},"district":{"key":"07331","name":"Alzey-Worms","type":"Landkreis"},"federalState":{"key":"07","name":"Rheinland-Pfalz"}},{"name":"Inselstr.","postalCode":"55597","locality":"Wöllstein","municipality":{"key":"07331072","name":"Wöllstein","type":"Kreisangehörige_Gemeinde"},"district":{"key":"07331","name":"Alzey-Worms","type":"Landkreis"},"federalState":{"key":"07","name":"Rheinland-Pfalz"}},{"name":"Jakob-Werle-Str.","postalCode":"55597","locality":"Wöllstein","municipality":{"key":"07331072","name":"Wöllstein","type":"Kreisangehörige_Gemeinde"},"district":{"key":"07331","name":"Alzey-Worms","type":"Landkreis"},"federalState":{"key":"07","name":"Rheinland-Pfalz"}},{"name":"Keltenstr.","postalCode":"55597","locality":"Wöllstein","municipality":{"key":"07331072","name":"Wöllstein","type":"Kreisangehörige_Gemeinde"},"district":{"key":"07331","name":"Alzey-Worms","type":"Landkreis"},"federalState":{"key":"07","name":"Rheinland-Pfalz"}},{"name":"Kirchstr.","postalCode":"55597","locality":"Wöllstein","municipality":{"key":"07331072","name":"Wöllstein","type":"Kreisangehörige_Gemeinde"},"district":{"key":"07331","name":"Alzey-Worms","type":"Landkreis"},"federalState":{"key":"07","name":"Rheinland-Pfalz"}},{"name":"Klausengarten","postalCode":"55597","locality":"Wöllstein","municipality":{"key":"07331072","name":"Wöllstein","type":"Kreisangehörige_Gemeinde"},"district":{"key":"07331","name":"Alzey-Worms","type":"Landkreis"},"federalState":{"key":"07","name":"Rheinland-Pfalz"}},{"name":"Kreuznacher Str.","postalCode":"55597","locality":"Wöllstein","municipality":{"key":"07331072","name":"Wöllstein","type":"Kreisangehörige_Gemeinde"},"district":{"key":"07331","name":"Alzey-Worms","type":"Landkreis"},"federalState":{"key":"07","name":"Rheinland-Pfalz"}},{"name":"Kreuzstr.","postalCode":"55597","locality":"Wöllstein","municipality":{"key":"07331072","name":"Wöllstein","type":"Kreisangehörige_Gemeinde"},"district":{"key":"07331","name":"Alzey-Worms","type":"Landkreis"},"federalState":{"key":"07","name":"Rheinland-Pfalz"}},{"name":"Maria Hilfstr.","postalCode":"55597","locality":"Wöllstein","municipality":{"key":"07331072","name":"Wöllstein","type":"Kreisangehörige_Gemeinde"},"district":{"key":"07331","name":"Alzey-Worms","type":"Landkreis"},"federalState":{"key":"07","name":"Rheinland-Pfalz"}},{"name":"Marktstr.","postalCode":"55597","locality":"Wöllstein","municipality":{"key":"07331072","name":"Wöllstein","type":"Kreisangehörige_Gemeinde"},"district":{"key":"07331","name":"Alzey-Worms","type":"Landkreis"},"federalState":{"key":"07","name":"Rheinland-Pfalz"}},{"name":"Milly-May-Weg","postalCode":"55597","locality":"Wöllstein","municipality":{"key":"07331072","name":"Wöllstein","type":"Kreisangehörige_Gemeinde"},"district":{"key":"07331","name":"Alzey-Worms","type":"Landkreis"},"federalState":{"key":"07","name":"Rheinland-Pfalz"}},{"name":"Moosgartenstr.","postalCode":"55597","locality":"Wöllstein","municipality":{"key":"07331072","name":"Wöllstein","type":"Kreisangehörige_Gemeinde"},"district":{"key":"07331","name":"Alzey-Worms","type":"Landkreis"},"federalState":{"key":"07","name":"Rheinland-Pfalz"}},{"name":"Mühlenstr.","postalCode":"55597","locality":"Wöllstein","municipality":{"key":"07331072","name":"Wöllstein","type":"Kreisangehörige_Gemeinde"},"district":{"key":"07331","name":"Alzey-Worms","type":"Landkreis"},"federalState":{"key":"07","name":"Rheinland-Pfalz"}},{"name":"Müller-Thurgau-Weg","postalCode":"55597","locality":"Wöllstein","municipality":{"key":"07331072","name":"Wöllstein","type":"Kreisangehörige_Gemeinde"},"district":{"key":"07331","name":"Alzey-Worms","type":"Landkreis"},"federalState":{"key":"07","name":"Rheinland-Pfalz"}},{"name":"Oberschanze","postalCode":"55597","locality":"Wöllstein","municipality":{"key":"07331072","name":"Wöllstein","type":"Kreisangehörige_Gemeinde"},"district":{"key":"07331","name":"Alzey-Worms","type":"Landkreis"},"federalState":{"key":"07","name":"Rheinland-Pfalz"}},{"name":"Ostdeutsche Str.","postalCode":"55597","locality":"Wöllstein","municipality":{"key":"07331072","name":"Wöllstein","type":"Kreisangehörige_Gemeinde"},"district":{"key":"07331","name":"Alzey-Worms","type":"Landkreis"},"federalState":{"key":"07","name":"Rheinland-Pfalz"}},{"name":"Palmenstein","postalCode":"55597","locality":"Wöllstein","municipality":{"key":"07331072","name":"Wöllstein","type":"Kreisangehörige_Gemeinde"},"district":{"key":"07331","name":"Alzey-Worms","type":"Landkreis"},"federalState":{"key":"07","name":"Rheinland-Pfalz"}},{"name":"Pfaffenpfad","postalCode":"55597","locality":"Wöllstein","municipality":{"key":"07331072","name":"Wöllstein","type":"Kreisangehörige_Gemeinde"},"district":{"key":"07331","name":"Alzey-Worms","type":"Landkreis"},"federalState":{"key":"07","name":"Rheinland-Pfalz"}},{"name":"Pfarrer-Heiser-Weg","postalCode":"55597","locality":"Wöllstein","municipality":{"key":"07331072","name":"Wöllstein","type":"Kreisangehörige_Gemeinde"},"district":{"key":"07331","name":"Alzey-Worms","type":"Landkreis"},"federalState":{"key":"07","name":"Rheinland-Pfalz"}},{"name":"Pfarrgasse","postalCode":"55597","locality":"Wöllstein","municipality":{"key":"07331072","name":"Wöllstein","type":"Kreisangehörige_Gemeinde"},"district":{"key":"07331","name":"Alzey-Worms","type":"Landkreis"},"federalState":{"key":"07","name":"Rheinland-Pfalz"}},{"name":"Raiffeisenpfad","postalCode":"55597","locality":"Wöllstein","municipality":{"key":"07331072","name":"Wöllstein","type":"Kreisangehörige_Gemeinde"},"district":{"key":"07331","name":"Alzey-Worms","type":"Landkreis"},"federalState":{"key":"07","name":"Rheinland-Pfalz"}},{"name":"Rathausgasse","postalCode":"55597","locality":"Wöllstein","municipality":{"key":"07331072","name":"Wöllstein","type":"Kreisangehörige_Gemeinde"},"district":{"key":"07331","name":"Alzey-Worms","type":"Landkreis"},"federalState":{"key":"07","name":"Rheinland-Pfalz"}},{"name":"Rene-Minville-Str.","postalCode":"55597","locality":"Wöllstein","municipality":{"key":"07331072","name":"Wöllstein","type":"Kreisangehörige_Gemeinde"},"district":{"key":"07331","name":"Alzey-Worms","type":"Landkreis"},"federalState":{"key":"07","name":"Rheinland-Pfalz"}},{"name":"Rheinhessenring","postalCode":"55597","locality":"Wöllstein","municipality":{"key":"07331072","name":"Wöllstein","type":"Kreisangehörige_Gemeinde"},"district":{"key":"07331","name":"Alzey-Worms","type":"Landkreis"},"federalState":{"key":"07","name":"Rheinland-Pfalz"}},{"name":"Rieslingweg","postalCode":"55597","locality":"Wöllstein","municipality":{"key":"07331072","name":"Wöllstein","type":"Kreisangehörige_Gemeinde"},"district":{"key":"07331","name":"Alzey-Worms","type":"Landkreis"},"federalState":{"key":"07","name":"Rheinland-Pfalz"}},{"name":"Ringstr.","postalCode":"55597","locality":"Wöllstein","municipality":{"key":"07331072","name":"Wöllstein","type":"Kreisangehörige_Gemeinde"},"district":{"key":"07331","name":"Alzey-Worms","type":"Landkreis"},"federalState":{"key":"07","name":"Rheinland-Pfalz"}},{"name":"Römerring","postalCode":"55597","locality":"Wöllstein","municipality":{"key":"07331072","name":"Wöllstein","type":"Kreisangehörige_Gemeinde"},"district":{"key":"07331","name":"Alzey-Worms","type":"Landkreis"},"federalState":{"key":"07","name":"Rheinland-Pfalz"}},{"name":"Sackgasse","postalCode":"55597","locality":"Wöllstein","municipality":{"key":"07331072","name":"Wöllstein","type":"Kreisangehörige_Gemeinde"},"district":{"key":"07331","name":"Alzey-Worms","type":"Landkreis"},"federalState":{"key":"07","name":"Rheinland-Pfalz"}},{"name":"Scheerengasse","postalCode":"55597","locality":"Wöllstein","municipality":{"key":"07331072","name":"Wöllstein","type":"Kreisangehörige_Gemeinde"},"district":{"key":"07331","name":"Alzey-Worms","type":"Landkreis"},"federalState":{"key":"07","name":"Rheinland-Pfalz"}},{"name":"Scheideweg","postalCode":"55597","locality":"Wöllstein","municipality":{"key":"07331072","name":"Wöllstein","type":"Kreisangehörige_Gemeinde"},"district":{"key":"07331","name":"Alzey-Worms","type":"Landkreis"},"federalState":{"key":"07","name":"Rheinland-Pfalz"}},{"name":"Scheurebenweg","postalCode":"55597","locality":"Wöllstein","municipality":{"key":"07331072","name":"Wöllstein","type":"Kreisangehörige_Gemeinde"},"district":{"key":"07331","name":"Alzey-Worms","type":"Landkreis"},"federalState":{"key":"07","name":"Rheinland-Pfalz"}},{"name":"Schmalzgasse","postalCode":"55597","locality":"Wöllstein","municipality":{"key":"07331072","name":"Wöllstein","type":"Kreisangehörige_Gemeinde"},"district":{"key":"07331","name":"Alzey-Worms","type":"Landkreis"},"federalState":{"key":"07","name":"Rheinland-Pfalz"}},{"name":"Schulrat-Spang-Str.","postalCode":"55597","locality":"Wöllstein","municipality":{"key":"07331072","name":"Wöllstein","type":"Kreisangehörige_Gemeinde"},"district":{"key":"07331","name":"Alzey-Worms","type":"Landkreis"},"federalState":{"key":"07","name":"Rheinland-Pfalz"}},{"name":"Siefersheimer Str.","postalCode":"55597","locality":"Wöllstein","municipality":{"key":"07331072","name":"Wöllstein","type":"Kreisangehörige_Gemeinde"},"district":{"key":"07331","name":"Alzey-Worms","type":"Landkreis"},"federalState":{"key":"07","name":"Rheinland-Pfalz"}},{"name":"Silvanerweg","postalCode":"55597","locality":"Wöllstein","municipality":{"key":"07331072","name":"Wöllstein","type":"Kreisangehörige_Gemeinde"},"district":{"key":"07331","name":"Alzey-Worms","type":"Landkreis"},"federalState":{"key":"07","name":"Rheinland-Pfalz"}},{"name":"Theodor Heuss Ring","postalCode":"55597","locality":"Wöllstein","municipality":{"key":"07331072","name":"Wöllstein","type":"Kreisangehörige_Gemeinde"},"district":{"key":"07331","name":"Alzey-Worms","type":"Landkreis"},"federalState":{"key":"07","name":"Rheinland-Pfalz"}},{"name":"Uffhofener Str.","postalCode":"55597","locality":"Wöllstein","municipality":{"key":"07331072","name":"Wöllstein","type":"Kreisangehörige_Gemeinde"},"district":{"key":"07331","name":"Alzey-Worms","type":"Landkreis"},"federalState":{"key":"07","name":"Rheinland-Pfalz"}},{"name":"Unterschanze","postalCode":"55597","locality":"Wöllstein","municipality":{"key":"07331072","name":"Wöllstein","type":"Kreisangehörige_Gemeinde"},"district":{"key":"07331","name":"Alzey-Worms","type":"Landkreis"},"federalState":{"key":"07","name":"Rheinland-Pfalz"}},{"name":"Villastr.","postalCode":"55597","locality":"Wöllstein","municipality":{"key":"07331072","name":"Wöllstein","type":"Kreisangehörige_Gemeinde"},"district":{"key":"07331","name":"Alzey-Worms","type":"Landkreis"},"federalState":{"key":"07","name":"Rheinland-Pfalz"}},{"name":"Wallertheimer Str.","postalCode":"55597","locality":"Wöllstein","municipality":{"key":"07331072","name":"Wöllstein","type":"Kreisangehörige_Gemeinde"},"district":{"key":"07331","name":"Alzey-Worms","type":"Landkreis"},"federalState":{"key":"07","name":"Rheinland-Pfalz"}},{"name":"Wassergasse","postalCode":"55597","locality":"Wöllstein","municipality":{"key":"07331072","name":"Wöllstein","type":"Kreisangehörige_Gemeinde"},"district":{"key":"07331","name":"Alzey-Worms","type":"Landkreis"},"federalState":{"key":"07","name":"Rheinland-Pfalz"}},{"name":"Wendelsheimer Str.","postalCode":"55597","locality":"Wöllstein","municipality":{"key":"07331072","name":"Wöllstein","type":"Kreisangehörige_Gemeinde"},"district":{"key":"07331","name":"Alzey-Worms","type":"Landkreis"},"federalState":{"key":"07","name":"Rheinland-Pfalz"}},{"name":"Winkelgasse","postalCode":"55597","locality":"Wöllstein","municipality":{"key":"07331072","name":"Wöllstein","type":"Kreisangehörige_Gemeinde"},"district":{"key":"07331","name":"Alzey-Worms","type":"Landkreis"},"federalState":{"key":"07","name":"Rheinland-Pfalz"}},{"name":"Ziegelhüttenstr.","postalCode":"55597","locality":"Wöllstein","municipality":{"key":"07331072","name":"Wöllstein","type":"Kreisangehörige_Gemeinde"},"district":{"key":"07331","name":"Alzey-Worms","type":"Landkreis"},"federalState":{"key":"07","name":"Rheinland-Pfalz"}},{"name":"Zum Schlittweg","postalCode":"55597","locality":"Wöllstein","municipality":{"key":"07331072","name":"Wöllstein","type":"Kreisangehörige_Gemeinde"},"district":{"key":"07331","name":"Alzey-Worms","type":"Landkreis"},"federalState":{"key":"07","name":"Rheinland-Pfalz"}},]