[{"name":"Alte Str.","postalCode":"07613","locality":"Silbitz","municipality":{"key":"16074092","name":"Silbitz","type":"Kreisangehörige_Gemeinde"},"district":{"key":"16074","name":"Saale-Holzland-Kreis","type":"Landkreis"},"federalState":{"key":"16","name":"Thüringen"}},{"name":"Am Bachgraben","postalCode":"07613","locality":"Silbitz","municipality":{"key":"16074092","name":"Silbitz","type":"Kreisangehörige_Gemeinde"},"district":{"key":"16074","name":"Saale-Holzland-Kreis","type":"Landkreis"},"federalState":{"key":"16","name":"Thüringen"}},{"name":"Am Kessel","postalCode":"07613","locality":"Silbitz","municipality":{"key":"16074092","name":"Silbitz","type":"Kreisangehörige_Gemeinde"},"district":{"key":"16074","name":"Saale-Holzland-Kreis","type":"Landkreis"},"federalState":{"key":"16","name":"Thüringen"}},{"name":"Am Kirchberg","postalCode":"07613","locality":"Silbitz","municipality":{"key":"16074092","name":"Silbitz","type":"Kreisangehörige_Gemeinde"},"district":{"key":"16074","name":"Saale-Holzland-Kreis","type":"Landkreis"},"federalState":{"key":"16","name":"Thüringen"}},{"name":"Am Weinberg","postalCode":"07613","locality":"Silbitz","municipality":{"key":"16074092","name":"Silbitz","type":"Kreisangehörige_Gemeinde"},"district":{"key":"16074","name":"Saale-Holzland-Kreis","type":"Landkreis"},"federalState":{"key":"16","name":"Thüringen"}},{"name":"An der Elster","postalCode":"07613","locality":"Silbitz","municipality":{"key":"16074092","name":"Silbitz","type":"Kreisangehörige_Gemeinde"},"district":{"key":"16074","name":"Saale-Holzland-Kreis","type":"Landkreis"},"federalState":{"key":"16","name":"Thüringen"}},{"name":"Bauerngasse","postalCode":"07613","locality":"Silbitz","municipality":{"key":"16074092","name":"Silbitz","type":"Kreisangehörige_Gemeinde"},"district":{"key":"16074","name":"Saale-Holzland-Kreis","type":"Landkreis"},"federalState":{"key":"16","name":"Thüringen"}},{"name":"Dorfstr.","postalCode":"07613","locality":"Silbitz","municipality":{"key":"16074092","name":"Silbitz","type":"Kreisangehörige_Gemeinde"},"district":{"key":"16074","name":"Saale-Holzland-Kreis","type":"Landkreis"},"federalState":{"key":"16","name":"Thüringen"}},{"name":"Elsterradweg","postalCode":"07613","locality":"Silbitz","municipality":{"key":"16074092","name":"Silbitz","type":"Kreisangehörige_Gemeinde"},"district":{"key":"16074","name":"Saale-Holzland-Kreis","type":"Landkreis"},"federalState":{"key":"16","name":"Thüringen"}},{"name":"Formerweg","postalCode":"07613","locality":"Silbitz","municipality":{"key":"16074092","name":"Silbitz","type":"Kreisangehörige_Gemeinde"},"district":{"key":"16074","name":"Saale-Holzland-Kreis","type":"Landkreis"},"federalState":{"key":"16","name":"Thüringen"}},{"name":"Freiheit","postalCode":"07613","locality":"Silbitz","municipality":{"key":"16074092","name":"Silbitz","type":"Kreisangehörige_Gemeinde"},"district":{"key":"16074","name":"Saale-Holzland-Kreis","type":"Landkreis"},"federalState":{"key":"16","name":"Thüringen"}},{"name":"Gießerweg","postalCode":"07613","locality":"Silbitz","municipality":{"key":"16074092","name":"Silbitz","type":"Kreisangehörige_Gemeinde"},"district":{"key":"16074","name":"Saale-Holzland-Kreis","type":"Landkreis"},"federalState":{"key":"16","name":"Thüringen"}},{"name":"Neuscheffels Felder","postalCode":"07613","locality":"Silbitz","municipality":{"key":"16074092","name":"Silbitz","type":"Kreisangehörige_Gemeinde"},"district":{"key":"16074","name":"Saale-Holzland-Kreis","type":"Landkreis"},"federalState":{"key":"16","name":"Thüringen"}},{"name":"Rote Wand","postalCode":"07613","locality":"Silbitz","municipality":{"key":"16074092","name":"Silbitz","type":"Kreisangehörige_Gemeinde"},"district":{"key":"16074","name":"Saale-Holzland-Kreis","type":"Landkreis"},"federalState":{"key":"16","name":"Thüringen"}},{"name":"Schmelzerweg","postalCode":"07613","locality":"Silbitz","municipality":{"key":"16074092","name":"Silbitz","type":"Kreisangehörige_Gemeinde"},"district":{"key":"16074","name":"Saale-Holzland-Kreis","type":"Landkreis"},"federalState":{"key":"16","name":"Thüringen"}},{"name":"Str. der Einheit","postalCode":"07613","locality":"Silbitz","municipality":{"key":"16074092","name":"Silbitz","type":"Kreisangehörige_Gemeinde"},"district":{"key":"16074","name":"Saale-Holzland-Kreis","type":"Landkreis"},"federalState":{"key":"16","name":"Thüringen"}},]