[{"name":"Altdorf","postalCode":"38489","locality":"Rohrberg","municipality":{"key":"15081440","name":"Rohrberg","type":"Kreisangehörige_Gemeinde"},"district":{"key":"15081","name":"Altmarkkreis Salzwedel","type":"Landkreis"},"federalState":{"key":"15","name":"Sachsen-Anhalt"}},{"name":"Am Anger","postalCode":"37318","locality":"Rohrberg","municipality":{"key":"16061078","name":"Rohrberg","type":"Kreisangehörige_Gemeinde"},"district":{"key":"16061","name":"Eichsfeld","type":"Landkreis"},"federalState":{"key":"16","name":"Thüringen"}},{"name":"Am Friedhof","postalCode":"37318","locality":"Rohrberg","municipality":{"key":"16061078","name":"Rohrberg","type":"Kreisangehörige_Gemeinde"},"district":{"key":"16061","name":"Eichsfeld","type":"Landkreis"},"federalState":{"key":"16","name":"Thüringen"}},{"name":"Am Mühlenberg","postalCode":"38489","locality":"Rohrberg","municipality":{"key":"15081440","name":"Rohrberg","type":"Kreisangehörige_Gemeinde"},"district":{"key":"15081","name":"Altmarkkreis Salzwedel","type":"Landkreis"},"federalState":{"key":"15","name":"Sachsen-Anhalt"}},{"name":"An der Halbe","postalCode":"37318","locality":"Rohrberg","municipality":{"key":"16061078","name":"Rohrberg","type":"Kreisangehörige_Gemeinde"},"district":{"key":"16061","name":"Eichsfeld","type":"Landkreis"},"federalState":{"key":"16","name":"Thüringen"}},{"name":"Bahnhofstr.","postalCode":"38489","locality":"Rohrberg","municipality":{"key":"15081440","name":"Rohrberg","type":"Kreisangehörige_Gemeinde"},"district":{"key":"15081","name":"Altmarkkreis Salzwedel","type":"Landkreis"},"federalState":{"key":"15","name":"Sachsen-Anhalt"}},{"name":"Birkenweg","postalCode":"38489","locality":"Rohrberg","municipality":{"key":"15081440","name":"Rohrberg","type":"Kreisangehörige_Gemeinde"},"district":{"key":"15081","name":"Altmarkkreis Salzwedel","type":"Landkreis"},"federalState":{"key":"15","name":"Sachsen-Anhalt"}},{"name":"Braunschweiger Str.","postalCode":"38489","locality":"Rohrberg","municipality":{"key":"15081440","name":"Rohrberg","type":"Kreisangehörige_Gemeinde"},"district":{"key":"15081","name":"Altmarkkreis Salzwedel","type":"Landkreis"},"federalState":{"key":"15","name":"Sachsen-Anhalt"}},{"name":"Breite Str.","postalCode":"38489","locality":"Rohrberg","municipality":{"key":"15081440","name":"Rohrberg","type":"Kreisangehörige_Gemeinde"},"district":{"key":"15081","name":"Altmarkkreis Salzwedel","type":"Landkreis"},"federalState":{"key":"15","name":"Sachsen-Anhalt"}},{"name":"Dorfstr.","postalCode":"37318","locality":"Rohrberg","municipality":{"key":"16061078","name":"Rohrberg","type":"Kreisangehörige_Gemeinde"},"district":{"key":"16061","name":"Eichsfeld","type":"Landkreis"},"federalState":{"key":"16","name":"Thüringen"}},{"name":"Dorfstr.","postalCode":"38489","locality":"Rohrberg","municipality":{"key":"15081440","name":"Rohrberg","type":"Kreisangehörige_Gemeinde"},"district":{"key":"15081","name":"Altmarkkreis Salzwedel","type":"Landkreis"},"federalState":{"key":"15","name":"Sachsen-Anhalt"}},{"name":"Feldstr.","postalCode":"38489","locality":"Rohrberg","municipality":{"key":"15081440","name":"Rohrberg","type":"Kreisangehörige_Gemeinde"},"district":{"key":"15081","name":"Altmarkkreis Salzwedel","type":"Landkreis"},"federalState":{"key":"15","name":"Sachsen-Anhalt"}},{"name":"Fuchswinkel","postalCode":"37318","locality":"Rohrberg","municipality":{"key":"16061078","name":"Rohrberg","type":"Kreisangehörige_Gemeinde"},"district":{"key":"16061","name":"Eichsfeld","type":"Landkreis"},"federalState":{"key":"16","name":"Thüringen"}},{"name":"Grüner Stegel","postalCode":"38489","locality":"Rohrberg","municipality":{"key":"15081440","name":"Rohrberg","type":"Kreisangehörige_Gemeinde"},"district":{"key":"15081","name":"Altmarkkreis Salzwedel","type":"Landkreis"},"federalState":{"key":"15","name":"Sachsen-Anhalt"}},{"name":"Hauptstr.","postalCode":"38489","locality":"Rohrberg","municipality":{"key":"15081440","name":"Rohrberg","type":"Kreisangehörige_Gemeinde"},"district":{"key":"15081","name":"Altmarkkreis Salzwedel","type":"Landkreis"},"federalState":{"key":"15","name":"Sachsen-Anhalt"}},{"name":"Holzweg","postalCode":"38489","locality":"Rohrberg","municipality":{"key":"15081440","name":"Rohrberg","type":"Kreisangehörige_Gemeinde"},"district":{"key":"15081","name":"Altmarkkreis Salzwedel","type":"Landkreis"},"federalState":{"key":"15","name":"Sachsen-Anhalt"}},{"name":"Im Winkel","postalCode":"38489","locality":"Rohrberg","municipality":{"key":"15081440","name":"Rohrberg","type":"Kreisangehörige_Gemeinde"},"district":{"key":"15081","name":"Altmarkkreis Salzwedel","type":"Landkreis"},"federalState":{"key":"15","name":"Sachsen-Anhalt"}},{"name":"Ischenröder Str.","postalCode":"37318","locality":"Rohrberg","municipality":{"key":"16061078","name":"Rohrberg","type":"Kreisangehörige_Gemeinde"},"district":{"key":"16061","name":"Eichsfeld","type":"Landkreis"},"federalState":{"key":"16","name":"Thüringen"}},{"name":"Kirchstr.","postalCode":"37318","locality":"Rohrberg","municipality":{"key":"16061078","name":"Rohrberg","type":"Kreisangehörige_Gemeinde"},"district":{"key":"16061","name":"Eichsfeld","type":"Landkreis"},"federalState":{"key":"16","name":"Thüringen"}},{"name":"Kleine Gasse","postalCode":"37318","locality":"Rohrberg","municipality":{"key":"16061078","name":"Rohrberg","type":"Kreisangehörige_Gemeinde"},"district":{"key":"16061","name":"Eichsfeld","type":"Landkreis"},"federalState":{"key":"16","name":"Thüringen"}},{"name":"Kleine Trift","postalCode":"37318","locality":"Rohrberg","municipality":{"key":"16061078","name":"Rohrberg","type":"Kreisangehörige_Gemeinde"},"district":{"key":"16061","name":"Eichsfeld","type":"Landkreis"},"federalState":{"key":"16","name":"Thüringen"}},{"name":"Mühltrift","postalCode":"37318","locality":"Rohrberg","municipality":{"key":"16061078","name":"Rohrberg","type":"Kreisangehörige_Gemeinde"},"district":{"key":"16061","name":"Eichsfeld","type":"Landkreis"},"federalState":{"key":"16","name":"Thüringen"}},{"name":"Neudorf","postalCode":"38489","locality":"Rohrberg","municipality":{"key":"15081440","name":"Rohrberg","type":"Kreisangehörige_Gemeinde"},"district":{"key":"15081","name":"Altmarkkreis Salzwedel","type":"Landkreis"},"federalState":{"key":"15","name":"Sachsen-Anhalt"}},{"name":"Nieps","postalCode":"38489","locality":"Rohrberg","municipality":{"key":"15081440","name":"Rohrberg","type":"Kreisangehörige_Gemeinde"},"district":{"key":"15081","name":"Altmarkkreis Salzwedel","type":"Landkreis"},"federalState":{"key":"15","name":"Sachsen-Anhalt"}},{"name":"Püggener Str.","postalCode":"38489","locality":"Rohrberg","municipality":{"key":"15081440","name":"Rohrberg","type":"Kreisangehörige_Gemeinde"},"district":{"key":"15081","name":"Altmarkkreis Salzwedel","type":"Landkreis"},"federalState":{"key":"15","name":"Sachsen-Anhalt"}},{"name":"Salzwedeler Str.","postalCode":"38489","locality":"Rohrberg","municipality":{"key":"15081440","name":"Rohrberg","type":"Kreisangehörige_Gemeinde"},"district":{"key":"15081","name":"Altmarkkreis Salzwedel","type":"Landkreis"},"federalState":{"key":"15","name":"Sachsen-Anhalt"}},{"name":"Schulstr.","postalCode":"38489","locality":"Rohrberg","municipality":{"key":"15081440","name":"Rohrberg","type":"Kreisangehörige_Gemeinde"},"district":{"key":"15081","name":"Altmarkkreis Salzwedel","type":"Landkreis"},"federalState":{"key":"15","name":"Sachsen-Anhalt"}},{"name":"Seestr.","postalCode":"38489","locality":"Rohrberg","municipality":{"key":"15081440","name":"Rohrberg","type":"Kreisangehörige_Gemeinde"},"district":{"key":"15081","name":"Altmarkkreis Salzwedel","type":"Landkreis"},"federalState":{"key":"15","name":"Sachsen-Anhalt"}},{"name":"Steinbergweg","postalCode":"38489","locality":"Rohrberg","municipality":{"key":"15081440","name":"Rohrberg","type":"Kreisangehörige_Gemeinde"},"district":{"key":"15081","name":"Altmarkkreis Salzwedel","type":"Landkreis"},"federalState":{"key":"15","name":"Sachsen-Anhalt"}},{"name":"Stöckheim","postalCode":"38489","locality":"Rohrberg","municipality":{"key":"15081440","name":"Rohrberg","type":"Kreisangehörige_Gemeinde"},"district":{"key":"15081","name":"Altmarkkreis Salzwedel","type":"Landkreis"},"federalState":{"key":"15","name":"Sachsen-Anhalt"}},{"name":"Waldweg","postalCode":"38489","locality":"Rohrberg","municipality":{"key":"15081440","name":"Rohrberg","type":"Kreisangehörige_Gemeinde"},"district":{"key":"15081","name":"Altmarkkreis Salzwedel","type":"Landkreis"},"federalState":{"key":"15","name":"Sachsen-Anhalt"}},{"name":"Wismarer Weg","postalCode":"38489","locality":"Rohrberg","municipality":{"key":"15081440","name":"Rohrberg","type":"Kreisangehörige_Gemeinde"},"district":{"key":"15081","name":"Altmarkkreis Salzwedel","type":"Landkreis"},"federalState":{"key":"15","name":"Sachsen-Anhalt"}},]