[{"name":"Alter Markt","postalCode":"18195","locality":"Tessin","municipality":{"key":"13072105","name":"Tessin, Blumenstadt","type":"Stadt"},"district":{"key":"13072","name":"Landkreis Rostock","type":"Landkreis"},"federalState":{"key":"13","name":"Mecklenburg-Vorpommern"}},{"name":"Alt-Kuhlenfeld","postalCode":"19258","locality":"Tessin b. Boizenburg","municipality":{"key":"13076138","name":"Tessin b. Boizenburg","type":"Kreisangehörige_Gemeinde"},"district":{"key":"13076","name":"Ludwigslust-Parchim","type":"Landkreis"},"federalState":{"key":"13","name":"Mecklenburg-Vorpommern"}},{"name":"Am Bahnhof","postalCode":"18195","locality":"Tessin","municipality":{"key":"13072105","name":"Tessin, Blumenstadt","type":"Stadt"},"district":{"key":"13072","name":"Landkreis Rostock","type":"Landkreis"},"federalState":{"key":"13","name":"Mecklenburg-Vorpommern"}},{"name":"Am Erlenbruch","postalCode":"18195","locality":"Tessin","municipality":{"key":"13072105","name":"Tessin, Blumenstadt","type":"Stadt"},"district":{"key":"13072","name":"Landkreis Rostock","type":"Landkreis"},"federalState":{"key":"13","name":"Mecklenburg-Vorpommern"}},{"name":"Am Gärtnergrund","postalCode":"18195","locality":"Tessin","municipality":{"key":"13072105","name":"Tessin, Blumenstadt","type":"Stadt"},"district":{"key":"13072","name":"Landkreis Rostock","type":"Landkreis"},"federalState":{"key":"13","name":"Mecklenburg-Vorpommern"}},{"name":"Am Recknitzpark","postalCode":"18195","locality":"Tessin","municipality":{"key":"13072105","name":"Tessin, Blumenstadt","type":"Stadt"},"district":{"key":"13072","name":"Landkreis Rostock","type":"Landkreis"},"federalState":{"key":"13","name":"Mecklenburg-Vorpommern"}},{"name":"Am Rosengarten","postalCode":"18195","locality":"Tessin","municipality":{"key":"13072105","name":"Tessin, Blumenstadt","type":"Stadt"},"district":{"key":"13072","name":"Landkreis Rostock","type":"Landkreis"},"federalState":{"key":"13","name":"Mecklenburg-Vorpommern"}},{"name":"Amselweg","postalCode":"18195","locality":"Tessin","municipality":{"key":"13072105","name":"Tessin, Blumenstadt","type":"Stadt"},"district":{"key":"13072","name":"Landkreis Rostock","type":"Landkreis"},"federalState":{"key":"13","name":"Mecklenburg-Vorpommern"}},{"name":"Am Sonnenhof","postalCode":"18195","locality":"Tessin","municipality":{"key":"13072105","name":"Tessin, Blumenstadt","type":"Stadt"},"district":{"key":"13072","name":"Landkreis Rostock","type":"Landkreis"},"federalState":{"key":"13","name":"Mecklenburg-Vorpommern"}},{"name":"Am Spälbarg","postalCode":"18195","locality":"Tessin","municipality":{"key":"13072105","name":"Tessin, Blumenstadt","type":"Stadt"},"district":{"key":"13072","name":"Landkreis Rostock","type":"Landkreis"},"federalState":{"key":"13","name":"Mecklenburg-Vorpommern"}},{"name":"Am Tannenkopp","postalCode":"18195","locality":"Tessin","municipality":{"key":"13072105","name":"Tessin, Blumenstadt","type":"Stadt"},"district":{"key":"13072","name":"Landkreis Rostock","type":"Landkreis"},"federalState":{"key":"13","name":"Mecklenburg-Vorpommern"}},{"name":"Am Umsteigebahnhof","postalCode":"18195","locality":"Tessin","municipality":{"key":"13072105","name":"Tessin, Blumenstadt","type":"Stadt"},"district":{"key":"13072","name":"Landkreis Rostock","type":"Landkreis"},"federalState":{"key":"13","name":"Mecklenburg-Vorpommern"}},{"name":"Am Wäldchen","postalCode":"18195","locality":"Tessin","municipality":{"key":"13072105","name":"Tessin, Blumenstadt","type":"Stadt"},"district":{"key":"13072","name":"Landkreis Rostock","type":"Landkreis"},"federalState":{"key":"13","name":"Mecklenburg-Vorpommern"}},{"name":"Am Wasserberg","postalCode":"18195","locality":"Tessin","municipality":{"key":"13072105","name":"Tessin, Blumenstadt","type":"Stadt"},"district":{"key":"13072","name":"Landkreis Rostock","type":"Landkreis"},"federalState":{"key":"13","name":"Mecklenburg-Vorpommern"}},{"name":"Am Wiesengrund","postalCode":"18195","locality":"Tessin","municipality":{"key":"13072105","name":"Tessin, Blumenstadt","type":"Stadt"},"district":{"key":"13072","name":"Landkreis Rostock","type":"Landkreis"},"federalState":{"key":"13","name":"Mecklenburg-Vorpommern"}},{"name":"An der Quelle","postalCode":"18195","locality":"Tessin","municipality":{"key":"13072105","name":"Tessin, Blumenstadt","type":"Stadt"},"district":{"key":"13072","name":"Landkreis Rostock","type":"Landkreis"},"federalState":{"key":"13","name":"Mecklenburg-Vorpommern"}},{"name":"August-Bebel-Str.","postalCode":"18195","locality":"Tessin","municipality":{"key":"13072105","name":"Tessin, Blumenstadt","type":"Stadt"},"district":{"key":"13072","name":"Landkreis Rostock","type":"Landkreis"},"federalState":{"key":"13","name":"Mecklenburg-Vorpommern"}},{"name":"Bahnhofstr.","postalCode":"18195","locality":"Tessin","municipality":{"key":"13072105","name":"Tessin, Blumenstadt","type":"Stadt"},"district":{"key":"13072","name":"Landkreis Rostock","type":"Landkreis"},"federalState":{"key":"13","name":"Mecklenburg-Vorpommern"}},{"name":"Bahnhofsweg","postalCode":"19258","locality":"Tessin b. Boizenburg","municipality":{"key":"13076138","name":"Tessin b. Boizenburg","type":"Kreisangehörige_Gemeinde"},"district":{"key":"13076","name":"Ludwigslust-Parchim","type":"Landkreis"},"federalState":{"key":"13","name":"Mecklenburg-Vorpommern"}},{"name":"Bengerstorfer Weg","postalCode":"19258","locality":"Tessin b. Boizenburg","municipality":{"key":"13076138","name":"Tessin b. Boizenburg","type":"Kreisangehörige_Gemeinde"},"district":{"key":"13076","name":"Ludwigslust-Parchim","type":"Landkreis"},"federalState":{"key":"13","name":"Mecklenburg-Vorpommern"}},{"name":"Camminer Str.","postalCode":"18195","locality":"Tessin","municipality":{"key":"13072105","name":"Tessin, Blumenstadt","type":"Stadt"},"district":{"key":"13072","name":"Landkreis Rostock","type":"Landkreis"},"federalState":{"key":"13","name":"Mecklenburg-Vorpommern"}},{"name":"Dorfstr.","postalCode":"18195","locality":"Tessin","municipality":{"key":"13072105","name":"Tessin, Blumenstadt","type":"Stadt"},"district":{"key":"13072","name":"Landkreis Rostock","type":"Landkreis"},"federalState":{"key":"13","name":"Mecklenburg-Vorpommern"}},{"name":"Dorfstr.","postalCode":"19258","locality":"Tessin b. Boizenburg","municipality":{"key":"13076138","name":"Tessin b. Boizenburg","type":"Kreisangehörige_Gemeinde"},"district":{"key":"13076","name":"Ludwigslust-Parchim","type":"Landkreis"},"federalState":{"key":"13","name":"Mecklenburg-Vorpommern"}},{"name":"Ernst-Thälmann-Str.","postalCode":"18195","locality":"Tessin","municipality":{"key":"13072105","name":"Tessin, Blumenstadt","type":"Stadt"},"district":{"key":"13072","name":"Landkreis Rostock","type":"Landkreis"},"federalState":{"key":"13","name":"Mecklenburg-Vorpommern"}},{"name":"Fliederweg","postalCode":"18195","locality":"Tessin","municipality":{"key":"13072105","name":"Tessin, Blumenstadt","type":"Stadt"},"district":{"key":"13072","name":"Landkreis Rostock","type":"Landkreis"},"federalState":{"key":"13","name":"Mecklenburg-Vorpommern"}},{"name":"Forstweg","postalCode":"19258","locality":"Tessin b. Boizenburg","municipality":{"key":"13076138","name":"Tessin b. Boizenburg","type":"Kreisangehörige_Gemeinde"},"district":{"key":"13076","name":"Ludwigslust-Parchim","type":"Landkreis"},"federalState":{"key":"13","name":"Mecklenburg-Vorpommern"}},{"name":"Friedhofsweg","postalCode":"18195","locality":"Tessin","municipality":{"key":"13072105","name":"Tessin, Blumenstadt","type":"Stadt"},"district":{"key":"13072","name":"Landkreis Rostock","type":"Landkreis"},"federalState":{"key":"13","name":"Mecklenburg-Vorpommern"}},{"name":"Friedrich-Engels-Str.","postalCode":"18195","locality":"Tessin","municipality":{"key":"13072105","name":"Tessin, Blumenstadt","type":"Stadt"},"district":{"key":"13072","name":"Landkreis Rostock","type":"Landkreis"},"federalState":{"key":"13","name":"Mecklenburg-Vorpommern"}},{"name":"Gauswisch","postalCode":"18195","locality":"Tessin","municipality":{"key":"13072105","name":"Tessin, Blumenstadt","type":"Stadt"},"district":{"key":"13072","name":"Landkreis Rostock","type":"Landkreis"},"federalState":{"key":"13","name":"Mecklenburg-Vorpommern"}},{"name":"Gildelandstr.","postalCode":"18195","locality":"Tessin","municipality":{"key":"13072105","name":"Tessin, Blumenstadt","type":"Stadt"},"district":{"key":"13072","name":"Landkreis Rostock","type":"Landkreis"},"federalState":{"key":"13","name":"Mecklenburg-Vorpommern"}},{"name":"Gnoiener Chaussee","postalCode":"18195","locality":"Tessin","municipality":{"key":"13072105","name":"Tessin, Blumenstadt","type":"Stadt"},"district":{"key":"13072","name":"Landkreis Rostock","type":"Landkreis"},"federalState":{"key":"13","name":"Mecklenburg-Vorpommern"}},{"name":"Gnoiener Str.","postalCode":"18195","locality":"Tessin","municipality":{"key":"13072105","name":"Tessin, Blumenstadt","type":"Stadt"},"district":{"key":"13072","name":"Landkreis Rostock","type":"Landkreis"},"federalState":{"key":"13","name":"Mecklenburg-Vorpommern"}},{"name":"Helmstorf","postalCode":"18195","locality":"Tessin","municipality":{"key":"13072105","name":"Tessin, Blumenstadt","type":"Stadt"},"district":{"key":"13072","name":"Landkreis Rostock","type":"Landkreis"},"federalState":{"key":"13","name":"Mecklenburg-Vorpommern"}},{"name":"Helmstorfer Weg","postalCode":"18195","locality":"Tessin","municipality":{"key":"13072105","name":"Tessin, Blumenstadt","type":"Stadt"},"district":{"key":"13072","name":"Landkreis Rostock","type":"Landkreis"},"federalState":{"key":"13","name":"Mecklenburg-Vorpommern"}},{"name":"Hooge Liedt","postalCode":"18195","locality":"Tessin","municipality":{"key":"13072105","name":"Tessin, Blumenstadt","type":"Stadt"},"district":{"key":"13072","name":"Landkreis Rostock","type":"Landkreis"},"federalState":{"key":"13","name":"Mecklenburg-Vorpommern"}},{"name":"Karl-Marx-Str.","postalCode":"18195","locality":"Tessin","municipality":{"key":"13072105","name":"Tessin, Blumenstadt","type":"Stadt"},"district":{"key":"13072","name":"Landkreis Rostock","type":"Landkreis"},"federalState":{"key":"13","name":"Mecklenburg-Vorpommern"}},{"name":"Kirchenstr.","postalCode":"18195","locality":"Tessin","municipality":{"key":"13072105","name":"Tessin, Blumenstadt","type":"Stadt"},"district":{"key":"13072","name":"Landkreis Rostock","type":"Landkreis"},"federalState":{"key":"13","name":"Mecklenburg-Vorpommern"}},{"name":"Klein Tessin","postalCode":"18195","locality":"Tessin","municipality":{"key":"13072105","name":"Tessin, Blumenstadt","type":"Stadt"},"district":{"key":"13072","name":"Landkreis Rostock","type":"Landkreis"},"federalState":{"key":"13","name":"Mecklenburg-Vorpommern"}},{"name":"Laager Chausee","postalCode":"18195","locality":"Tessin","municipality":{"key":"13072105","name":"Tessin, Blumenstadt","type":"Stadt"},"district":{"key":"13072","name":"Landkreis Rostock","type":"Landkreis"},"federalState":{"key":"13","name":"Mecklenburg-Vorpommern"}},{"name":"Lange Str.","postalCode":"18195","locality":"Tessin","municipality":{"key":"13072105","name":"Tessin, Blumenstadt","type":"Stadt"},"district":{"key":"13072","name":"Landkreis Rostock","type":"Landkreis"},"federalState":{"key":"13","name":"Mecklenburg-Vorpommern"}},{"name":"Lange Str.","postalCode":"19258","locality":"Tessin b. Boizenburg","municipality":{"key":"13076138","name":"Tessin b. Boizenburg","type":"Kreisangehörige_Gemeinde"},"district":{"key":"13076","name":"Ludwigslust-Parchim","type":"Landkreis"},"federalState":{"key":"13","name":"Mecklenburg-Vorpommern"}},{"name":"Lindenstr.","postalCode":"18195","locality":"Tessin","municipality":{"key":"13072105","name":"Tessin, Blumenstadt","type":"Stadt"},"district":{"key":"13072","name":"Landkreis Rostock","type":"Landkreis"},"federalState":{"key":"13","name":"Mecklenburg-Vorpommern"}},{"name":"Min Hüsung","postalCode":"18195","locality":"Tessin","municipality":{"key":"13072105","name":"Tessin, Blumenstadt","type":"Stadt"},"district":{"key":"13072","name":"Landkreis Rostock","type":"Landkreis"},"federalState":{"key":"13","name":"Mecklenburg-Vorpommern"}},{"name":"Mühlenstr.","postalCode":"18195","locality":"Tessin","municipality":{"key":"13072105","name":"Tessin, Blumenstadt","type":"Stadt"},"district":{"key":"13072","name":"Landkreis Rostock","type":"Landkreis"},"federalState":{"key":"13","name":"Mecklenburg-Vorpommern"}},{"name":"Neuer Markt","postalCode":"18195","locality":"Tessin","municipality":{"key":"13072105","name":"Tessin, Blumenstadt","type":"Stadt"},"district":{"key":"13072","name":"Landkreis Rostock","type":"Landkreis"},"federalState":{"key":"13","name":"Mecklenburg-Vorpommern"}},{"name":"Neuer Weg","postalCode":"19258","locality":"Tessin b. Boizenburg","municipality":{"key":"13076138","name":"Tessin b. Boizenburg","type":"Kreisangehörige_Gemeinde"},"district":{"key":"13076","name":"Ludwigslust-Parchim","type":"Landkreis"},"federalState":{"key":"13","name":"Mecklenburg-Vorpommern"}},{"name":"Neu Gramstorf","postalCode":"18195","locality":"Tessin","municipality":{"key":"13072105","name":"Tessin, Blumenstadt","type":"Stadt"},"district":{"key":"13072","name":"Landkreis Rostock","type":"Landkreis"},"federalState":{"key":"13","name":"Mecklenburg-Vorpommern"}},{"name":"Oppermannweg","postalCode":"18195","locality":"Tessin","municipality":{"key":"13072105","name":"Tessin, Blumenstadt","type":"Stadt"},"district":{"key":"13072","name":"Landkreis Rostock","type":"Landkreis"},"federalState":{"key":"13","name":"Mecklenburg-Vorpommern"}},{"name":"Pierkoppel","postalCode":"18195","locality":"Tessin","municipality":{"key":"13072105","name":"Tessin, Blumenstadt","type":"Stadt"},"district":{"key":"13072","name":"Landkreis Rostock","type":"Landkreis"},"federalState":{"key":"13","name":"Mecklenburg-Vorpommern"}},{"name":"Rostocker Chaussee","postalCode":"18195","locality":"Tessin","municipality":{"key":"13072105","name":"Tessin, Blumenstadt","type":"Stadt"},"district":{"key":"13072","name":"Landkreis Rostock","type":"Landkreis"},"federalState":{"key":"13","name":"Mecklenburg-Vorpommern"}},{"name":"Rostocker Str.","postalCode":"18195","locality":"Tessin","municipality":{"key":"13072105","name":"Tessin, Blumenstadt","type":"Stadt"},"district":{"key":"13072","name":"Landkreis Rostock","type":"Landkreis"},"federalState":{"key":"13","name":"Mecklenburg-Vorpommern"}},{"name":"Sankt-Jürgen-Str.","postalCode":"18195","locality":"Tessin","municipality":{"key":"13072105","name":"Tessin, Blumenstadt","type":"Stadt"},"district":{"key":"13072","name":"Landkreis Rostock","type":"Landkreis"},"federalState":{"key":"13","name":"Mecklenburg-Vorpommern"}},{"name":"Siedlungsweg","postalCode":"18195","locality":"Tessin","municipality":{"key":"13072105","name":"Tessin, Blumenstadt","type":"Stadt"},"district":{"key":"13072","name":"Landkreis Rostock","type":"Landkreis"},"federalState":{"key":"13","name":"Mecklenburg-Vorpommern"}},{"name":"Steingartenweg","postalCode":"18195","locality":"Tessin","municipality":{"key":"13072105","name":"Tessin, Blumenstadt","type":"Stadt"},"district":{"key":"13072","name":"Landkreis Rostock","type":"Landkreis"},"federalState":{"key":"13","name":"Mecklenburg-Vorpommern"}},{"name":"Sülzer Str.","postalCode":"18195","locality":"Tessin","municipality":{"key":"13072105","name":"Tessin, Blumenstadt","type":"Stadt"},"district":{"key":"13072","name":"Landkreis Rostock","type":"Landkreis"},"federalState":{"key":"13","name":"Mecklenburg-Vorpommern"}},{"name":"Tannenweg","postalCode":"19258","locality":"Tessin b. Boizenburg","municipality":{"key":"13076138","name":"Tessin b. Boizenburg","type":"Kreisangehörige_Gemeinde"},"district":{"key":"13076","name":"Ludwigslust-Parchim","type":"Landkreis"},"federalState":{"key":"13","name":"Mecklenburg-Vorpommern"}},{"name":"Thelkower Weg","postalCode":"18195","locality":"Tessin","municipality":{"key":"13072105","name":"Tessin, Blumenstadt","type":"Stadt"},"district":{"key":"13072","name":"Landkreis Rostock","type":"Landkreis"},"federalState":{"key":"13","name":"Mecklenburg-Vorpommern"}},{"name":"Vogelsang","postalCode":"18195","locality":"Tessin","municipality":{"key":"13072105","name":"Tessin, Blumenstadt","type":"Stadt"},"district":{"key":"13072","name":"Landkreis Rostock","type":"Landkreis"},"federalState":{"key":"13","name":"Mecklenburg-Vorpommern"}},{"name":"Zuckerfabrik","postalCode":"18195","locality":"Tessin","municipality":{"key":"13072105","name":"Tessin, Blumenstadt","type":"Stadt"},"district":{"key":"13072","name":"Landkreis Rostock","type":"Landkreis"},"federalState":{"key":"13","name":"Mecklenburg-Vorpommern"}},{"name":"Zum Gutshaus","postalCode":"18195","locality":"Tessin","municipality":{"key":"13072105","name":"Tessin, Blumenstadt","type":"Stadt"},"district":{"key":"13072","name":"Landkreis Rostock","type":"Landkreis"},"federalState":{"key":"13","name":"Mecklenburg-Vorpommern"}},]