[{"name":"Abbergerstr.","postalCode":"79801","locality":"Hohentengen am Hochrhein","municipality":{"key":"08337053","name":"Hohentengen am Hochrhein","type":"Kreisangehörige_Gemeinde"},"district":{"key":"08337","name":"Waldshut","type":"Landkreis"},"federalState":{"key":"08","name":"Baden-Württemberg"}},{"name":"Ahornweg","postalCode":"78250","locality":"Tengen","municipality":{"key":"08335080","name":"Tengen, Stadt","type":"Stadt"},"district":{"key":"08335","name":"Konstanz","type":"Landkreis"},"federalState":{"key":"08","name":"Baden-Württemberg"}},{"name":"Alemannenweg","postalCode":"88367","locality":"Hohentengen","municipality":{"key":"08437053","name":"Hohentengen","type":"Kreisangehörige_Gemeinde"},"district":{"key":"08437","name":"Sigmaringen","type":"Landkreis"},"federalState":{"key":"08","name":"Baden-Württemberg"}},{"name":"Alpenblickstr.","postalCode":"79801","locality":"Hohentengen am Hochrhein","municipality":{"key":"08337053","name":"Hohentengen am Hochrhein","type":"Kreisangehörige_Gemeinde"},"district":{"key":"08337","name":"Waldshut","type":"Landkreis"},"federalState":{"key":"08","name":"Baden-Württemberg"}},{"name":"Alter Kirchweg","postalCode":"88367","locality":"Hohentengen","municipality":{"key":"08437053","name":"Hohentengen","type":"Kreisangehörige_Gemeinde"},"district":{"key":"08437","name":"Sigmaringen","type":"Landkreis"},"federalState":{"key":"08","name":"Baden-Württemberg"}},{"name":"Alter Postweg","postalCode":"78250","locality":"Tengen","municipality":{"key":"08335080","name":"Tengen, Stadt","type":"Stadt"},"district":{"key":"08335","name":"Konstanz","type":"Landkreis"},"federalState":{"key":"08","name":"Baden-Württemberg"}},{"name":"Alte Str.","postalCode":"88367","locality":"Hohentengen","municipality":{"key":"08437053","name":"Hohentengen","type":"Kreisangehörige_Gemeinde"},"district":{"key":"08437","name":"Sigmaringen","type":"Landkreis"},"federalState":{"key":"08","name":"Baden-Württemberg"}},{"name":"Am Bisberg","postalCode":"78250","locality":"Tengen","municipality":{"key":"08335080","name":"Tengen, Stadt","type":"Stadt"},"district":{"key":"08335","name":"Konstanz","type":"Landkreis"},"federalState":{"key":"08","name":"Baden-Württemberg"}},{"name":"Am Enzkofer Berg","postalCode":"88367","locality":"Hohentengen","municipality":{"key":"08437053","name":"Hohentengen","type":"Kreisangehörige_Gemeinde"},"district":{"key":"08437","name":"Sigmaringen","type":"Landkreis"},"federalState":{"key":"08","name":"Baden-Württemberg"}},{"name":"Am Friedhof","postalCode":"88367","locality":"Hohentengen","municipality":{"key":"08437053","name":"Hohentengen","type":"Kreisangehörige_Gemeinde"},"district":{"key":"08437","name":"Sigmaringen","type":"Landkreis"},"federalState":{"key":"08","name":"Baden-Württemberg"}},{"name":"Am Geigersbuck","postalCode":"78250","locality":"Tengen","municipality":{"key":"08335080","name":"Tengen, Stadt","type":"Stadt"},"district":{"key":"08335","name":"Konstanz","type":"Landkreis"},"federalState":{"key":"08","name":"Baden-Württemberg"}},{"name":"Am Hummelbuck","postalCode":"78250","locality":"Tengen","municipality":{"key":"08335080","name":"Tengen, Stadt","type":"Stadt"},"district":{"key":"08335","name":"Konstanz","type":"Landkreis"},"federalState":{"key":"08","name":"Baden-Württemberg"}},{"name":"Am Kindergarten","postalCode":"78250","locality":"Tengen","municipality":{"key":"08335080","name":"Tengen, Stadt","type":"Stadt"},"district":{"key":"08335","name":"Konstanz","type":"Landkreis"},"federalState":{"key":"08","name":"Baden-Württemberg"}},{"name":"Am Krebsbach","postalCode":"88367","locality":"Hohentengen","municipality":{"key":"08437053","name":"Hohentengen","type":"Kreisangehörige_Gemeinde"},"district":{"key":"08437","name":"Sigmaringen","type":"Landkreis"},"federalState":{"key":"08","name":"Baden-Württemberg"}},{"name":"Am Nußbaumplatz","postalCode":"78250","locality":"Tengen","municipality":{"key":"08335080","name":"Tengen, Stadt","type":"Stadt"},"district":{"key":"08335","name":"Konstanz","type":"Landkreis"},"federalState":{"key":"08","name":"Baden-Württemberg"}},{"name":"Am Rain","postalCode":"88367","locality":"Hohentengen","municipality":{"key":"08437053","name":"Hohentengen","type":"Kreisangehörige_Gemeinde"},"district":{"key":"08437","name":"Sigmaringen","type":"Landkreis"},"federalState":{"key":"08","name":"Baden-Württemberg"}},{"name":"Am Rötling","postalCode":"88367","locality":"Hohentengen","municipality":{"key":"08437053","name":"Hohentengen","type":"Kreisangehörige_Gemeinde"},"district":{"key":"08437","name":"Sigmaringen","type":"Landkreis"},"federalState":{"key":"08","name":"Baden-Württemberg"}},{"name":"Am Seelenbach","postalCode":"88367","locality":"Hohentengen","municipality":{"key":"08437053","name":"Hohentengen","type":"Kreisangehörige_Gemeinde"},"district":{"key":"08437","name":"Sigmaringen","type":"Landkreis"},"federalState":{"key":"08","name":"Baden-Württemberg"}},{"name":"Am Sonnenrain","postalCode":"78250","locality":"Tengen","municipality":{"key":"08335080","name":"Tengen, Stadt","type":"Stadt"},"district":{"key":"08335","name":"Konstanz","type":"Landkreis"},"federalState":{"key":"08","name":"Baden-Württemberg"}},{"name":"Am Steinbach","postalCode":"78250","locality":"Tengen","municipality":{"key":"08335080","name":"Tengen, Stadt","type":"Stadt"},"district":{"key":"08335","name":"Konstanz","type":"Landkreis"},"federalState":{"key":"08","name":"Baden-Württemberg"}},{"name":"Am Steinreisle","postalCode":"88367","locality":"Hohentengen","municipality":{"key":"08437053","name":"Hohentengen","type":"Kreisangehörige_Gemeinde"},"district":{"key":"08437","name":"Sigmaringen","type":"Landkreis"},"federalState":{"key":"08","name":"Baden-Württemberg"}},{"name":"Am Wäldle","postalCode":"79801","locality":"Hohentengen am Hochrhein","municipality":{"key":"08337053","name":"Hohentengen am Hochrhein","type":"Kreisangehörige_Gemeinde"},"district":{"key":"08337","name":"Waldshut","type":"Landkreis"},"federalState":{"key":"08","name":"Baden-Württemberg"}},{"name":"Am Wannenberg","postalCode":"78250","locality":"Tengen","municipality":{"key":"08335080","name":"Tengen, Stadt","type":"Stadt"},"district":{"key":"08335","name":"Konstanz","type":"Landkreis"},"federalState":{"key":"08","name":"Baden-Württemberg"}},{"name":"Am Weihergrund","postalCode":"78250","locality":"Tengen","municipality":{"key":"08335080","name":"Tengen, Stadt","type":"Stadt"},"district":{"key":"08335","name":"Konstanz","type":"Landkreis"},"federalState":{"key":"08","name":"Baden-Württemberg"}},{"name":"Am Worberg","postalCode":"78250","locality":"Tengen","municipality":{"key":"08335080","name":"Tengen, Stadt","type":"Stadt"},"district":{"key":"08335","name":"Konstanz","type":"Landkreis"},"federalState":{"key":"08","name":"Baden-Württemberg"}},{"name":"An der Ostrach","postalCode":"88367","locality":"Hohentengen","municipality":{"key":"08437053","name":"Hohentengen","type":"Kreisangehörige_Gemeinde"},"district":{"key":"08437","name":"Sigmaringen","type":"Landkreis"},"federalState":{"key":"08","name":"Baden-Württemberg"}},{"name":"Auenweg","postalCode":"79801","locality":"Hohentengen am Hochrhein","municipality":{"key":"08337053","name":"Hohentengen am Hochrhein","type":"Kreisangehörige_Gemeinde"},"district":{"key":"08337","name":"Waldshut","type":"Landkreis"},"federalState":{"key":"08","name":"Baden-Württemberg"}},{"name":"Bachstr.","postalCode":"78250","locality":"Tengen","municipality":{"key":"08335080","name":"Tengen, Stadt","type":"Stadt"},"district":{"key":"08335","name":"Konstanz","type":"Landkreis"},"federalState":{"key":"08","name":"Baden-Württemberg"}},{"name":"Bäckerweg","postalCode":"88367","locality":"Hohentengen","municipality":{"key":"08437053","name":"Hohentengen","type":"Kreisangehörige_Gemeinde"},"district":{"key":"08437","name":"Sigmaringen","type":"Landkreis"},"federalState":{"key":"08","name":"Baden-Württemberg"}},{"name":"Badstr.","postalCode":"79801","locality":"Hohentengen am Hochrhein","municipality":{"key":"08337053","name":"Hohentengen am Hochrhein","type":"Kreisangehörige_Gemeinde"},"district":{"key":"08337","name":"Waldshut","type":"Landkreis"},"federalState":{"key":"08","name":"Baden-Württemberg"}},{"name":"Bahnhofstr.","postalCode":"78250","locality":"Tengen","municipality":{"key":"08335080","name":"Tengen, Stadt","type":"Stadt"},"district":{"key":"08335","name":"Konstanz","type":"Landkreis"},"federalState":{"key":"08","name":"Baden-Württemberg"}},{"name":"Baumgarten","postalCode":"88367","locality":"Hohentengen","municipality":{"key":"08437053","name":"Hohentengen","type":"Kreisangehörige_Gemeinde"},"district":{"key":"08437","name":"Sigmaringen","type":"Landkreis"},"federalState":{"key":"08","name":"Baden-Württemberg"}},{"name":"Bei der Glocke","postalCode":"88367","locality":"Hohentengen","municipality":{"key":"08437053","name":"Hohentengen","type":"Kreisangehörige_Gemeinde"},"district":{"key":"08437","name":"Sigmaringen","type":"Landkreis"},"federalState":{"key":"08","name":"Baden-Württemberg"}},{"name":"Beim Neuhaus","postalCode":"79801","locality":"Hohentengen am Hochrhein","municipality":{"key":"08337053","name":"Hohentengen am Hochrhein","type":"Kreisangehörige_Gemeinde"},"district":{"key":"08337","name":"Waldshut","type":"Landkreis"},"federalState":{"key":"08","name":"Baden-Württemberg"}},{"name":"Beizkofer Str.","postalCode":"88367","locality":"Hohentengen","municipality":{"key":"08437053","name":"Hohentengen","type":"Kreisangehörige_Gemeinde"},"district":{"key":"08437","name":"Sigmaringen","type":"Landkreis"},"federalState":{"key":"08","name":"Baden-Württemberg"}},{"name":"Bergöschinger Str.","postalCode":"79801","locality":"Hohentengen am Hochrhein","municipality":{"key":"08337053","name":"Hohentengen am Hochrhein","type":"Kreisangehörige_Gemeinde"},"district":{"key":"08337","name":"Waldshut","type":"Landkreis"},"federalState":{"key":"08","name":"Baden-Württemberg"}},{"name":"Bergstr.","postalCode":"78250","locality":"Tengen","municipality":{"key":"08335080","name":"Tengen, Stadt","type":"Stadt"},"district":{"key":"08335","name":"Konstanz","type":"Landkreis"},"federalState":{"key":"08","name":"Baden-Württemberg"}},{"name":"Bergstr.","postalCode":"79801","locality":"Hohentengen am Hochrhein","municipality":{"key":"08337053","name":"Hohentengen am Hochrhein","type":"Kreisangehörige_Gemeinde"},"district":{"key":"08337","name":"Waldshut","type":"Landkreis"},"federalState":{"key":"08","name":"Baden-Württemberg"}},{"name":"Bergstr.","postalCode":"88367","locality":"Hohentengen","municipality":{"key":"08437053","name":"Hohentengen","type":"Kreisangehörige_Gemeinde"},"district":{"key":"08437","name":"Sigmaringen","type":"Landkreis"},"federalState":{"key":"08","name":"Baden-Württemberg"}},{"name":"Bernerlohweg","postalCode":"78250","locality":"Tengen","municipality":{"key":"08335080","name":"Tengen, Stadt","type":"Stadt"},"district":{"key":"08335","name":"Konstanz","type":"Landkreis"},"federalState":{"key":"08","name":"Baden-Württemberg"}},{"name":"Beur. Grenzweg","postalCode":"78250","locality":"Tengen","municipality":{"key":"08335080","name":"Tengen, Stadt","type":"Stadt"},"district":{"key":"08335","name":"Konstanz","type":"Landkreis"},"federalState":{"key":"08","name":"Baden-Württemberg"}},{"name":"Bibertalstr.","postalCode":"78250","locality":"Tengen","municipality":{"key":"08335080","name":"Tengen, Stadt","type":"Stadt"},"district":{"key":"08335","name":"Konstanz","type":"Landkreis"},"federalState":{"key":"08","name":"Baden-Württemberg"}},{"name":"Biberweg","postalCode":"78250","locality":"Tengen","municipality":{"key":"08335080","name":"Tengen, Stadt","type":"Stadt"},"district":{"key":"08335","name":"Konstanz","type":"Landkreis"},"federalState":{"key":"08","name":"Baden-Württemberg"}},{"name":"Biesingstr.","postalCode":"79801","locality":"Hohentengen am Hochrhein","municipality":{"key":"08337053","name":"Hohentengen am Hochrhein","type":"Kreisangehörige_Gemeinde"},"district":{"key":"08337","name":"Waldshut","type":"Landkreis"},"federalState":{"key":"08","name":"Baden-Württemberg"}},{"name":"Birkenstr.","postalCode":"88367","locality":"Hohentengen","municipality":{"key":"08437053","name":"Hohentengen","type":"Kreisangehörige_Gemeinde"},"district":{"key":"08437","name":"Sigmaringen","type":"Landkreis"},"federalState":{"key":"08","name":"Baden-Württemberg"}},{"name":"Birkenweg","postalCode":"78250","locality":"Tengen","municipality":{"key":"08335080","name":"Tengen, Stadt","type":"Stadt"},"district":{"key":"08335","name":"Konstanz","type":"Landkreis"},"federalState":{"key":"08","name":"Baden-Württemberg"}},{"name":"Birkenweg","postalCode":"79801","locality":"Hohentengen am Hochrhein","municipality":{"key":"08337053","name":"Hohentengen am Hochrhein","type":"Kreisangehörige_Gemeinde"},"district":{"key":"08337","name":"Waldshut","type":"Landkreis"},"federalState":{"key":"08","name":"Baden-Württemberg"}},{"name":"Blumenweg","postalCode":"79801","locality":"Hohentengen am Hochrhein","municipality":{"key":"08337053","name":"Hohentengen am Hochrhein","type":"Kreisangehörige_Gemeinde"},"district":{"key":"08337","name":"Waldshut","type":"Landkreis"},"federalState":{"key":"08","name":"Baden-Württemberg"}},{"name":"Bogenstr.","postalCode":"79801","locality":"Hohentengen am Hochrhein","municipality":{"key":"08337053","name":"Hohentengen am Hochrhein","type":"Kreisangehörige_Gemeinde"},"district":{"key":"08337","name":"Waldshut","type":"Landkreis"},"federalState":{"key":"08","name":"Baden-Württemberg"}},{"name":"Bohlstr.","postalCode":"78250","locality":"Tengen","municipality":{"key":"08335080","name":"Tengen, Stadt","type":"Stadt"},"district":{"key":"08335","name":"Konstanz","type":"Landkreis"},"federalState":{"key":"08","name":"Baden-Württemberg"}},{"name":"Boschengasse","postalCode":"88367","locality":"Hohentengen","municipality":{"key":"08437053","name":"Hohentengen","type":"Kreisangehörige_Gemeinde"},"district":{"key":"08437","name":"Sigmaringen","type":"Landkreis"},"federalState":{"key":"08","name":"Baden-Württemberg"}},{"name":"Brachwiesenweg","postalCode":"78250","locality":"Tengen","municipality":{"key":"08335080","name":"Tengen, Stadt","type":"Stadt"},"district":{"key":"08335","name":"Konstanz","type":"Landkreis"},"federalState":{"key":"08","name":"Baden-Württemberg"}},{"name":"Breitenstr.","postalCode":"78250","locality":"Tengen","municipality":{"key":"08335080","name":"Tengen, Stadt","type":"Stadt"},"district":{"key":"08335","name":"Konstanz","type":"Landkreis"},"federalState":{"key":"08","name":"Baden-Württemberg"}},{"name":"Breitenweg","postalCode":"79801","locality":"Hohentengen am Hochrhein","municipality":{"key":"08337053","name":"Hohentengen am Hochrhein","type":"Kreisangehörige_Gemeinde"},"district":{"key":"08337","name":"Waldshut","type":"Landkreis"},"federalState":{"key":"08","name":"Baden-Württemberg"}},{"name":"Bremer Halde","postalCode":"88367","locality":"Hohentengen","municipality":{"key":"08437053","name":"Hohentengen","type":"Kreisangehörige_Gemeinde"},"district":{"key":"08437","name":"Sigmaringen","type":"Landkreis"},"federalState":{"key":"08","name":"Baden-Württemberg"}},{"name":"Bremer Str.","postalCode":"88367","locality":"Hohentengen","municipality":{"key":"08437053","name":"Hohentengen","type":"Kreisangehörige_Gemeinde"},"district":{"key":"08437","name":"Sigmaringen","type":"Landkreis"},"federalState":{"key":"08","name":"Baden-Württemberg"}},{"name":"Bruckgasse","postalCode":"88367","locality":"Hohentengen","municipality":{"key":"08437053","name":"Hohentengen","type":"Kreisangehörige_Gemeinde"},"district":{"key":"08437","name":"Sigmaringen","type":"Landkreis"},"federalState":{"key":"08","name":"Baden-Württemberg"}},{"name":"Brühl","postalCode":"88367","locality":"Hohentengen","municipality":{"key":"08437053","name":"Hohentengen","type":"Kreisangehörige_Gemeinde"},"district":{"key":"08437","name":"Sigmaringen","type":"Landkreis"},"federalState":{"key":"08","name":"Baden-Württemberg"}},{"name":"Brühlgass","postalCode":"78250","locality":"Tengen","municipality":{"key":"08335080","name":"Tengen, Stadt","type":"Stadt"},"district":{"key":"08335","name":"Konstanz","type":"Landkreis"},"federalState":{"key":"08","name":"Baden-Württemberg"}},{"name":"Brühlwiesen","postalCode":"88367","locality":"Hohentengen","municipality":{"key":"08437053","name":"Hohentengen","type":"Kreisangehörige_Gemeinde"},"district":{"key":"08437","name":"Sigmaringen","type":"Landkreis"},"federalState":{"key":"08","name":"Baden-Württemberg"}},{"name":"Brunnengässle","postalCode":"88367","locality":"Hohentengen","municipality":{"key":"08437053","name":"Hohentengen","type":"Kreisangehörige_Gemeinde"},"district":{"key":"08437","name":"Sigmaringen","type":"Landkreis"},"federalState":{"key":"08","name":"Baden-Württemberg"}},{"name":"Brunnenstr.","postalCode":"78250","locality":"Tengen","municipality":{"key":"08335080","name":"Tengen, Stadt","type":"Stadt"},"district":{"key":"08335","name":"Konstanz","type":"Landkreis"},"federalState":{"key":"08","name":"Baden-Württemberg"}},{"name":"Brunnenstube","postalCode":"88367","locality":"Hohentengen","municipality":{"key":"08437053","name":"Hohentengen","type":"Kreisangehörige_Gemeinde"},"district":{"key":"08437","name":"Sigmaringen","type":"Landkreis"},"federalState":{"key":"08","name":"Baden-Württemberg"}},{"name":"Buchenweg","postalCode":"78250","locality":"Tengen","municipality":{"key":"08335080","name":"Tengen, Stadt","type":"Stadt"},"district":{"key":"08335","name":"Konstanz","type":"Landkreis"},"federalState":{"key":"08","name":"Baden-Württemberg"}},{"name":"Buckstr.","postalCode":"78250","locality":"Tengen","municipality":{"key":"08335080","name":"Tengen, Stadt","type":"Stadt"},"district":{"key":"08335","name":"Konstanz","type":"Landkreis"},"federalState":{"key":"08","name":"Baden-Württemberg"}},{"name":"Bündtstr.","postalCode":"79801","locality":"Hohentengen am Hochrhein","municipality":{"key":"08337053","name":"Hohentengen am Hochrhein","type":"Kreisangehörige_Gemeinde"},"district":{"key":"08337","name":"Waldshut","type":"Landkreis"},"federalState":{"key":"08","name":"Baden-Württemberg"}},{"name":"Burgstr.","postalCode":"88367","locality":"Hohentengen","municipality":{"key":"08437053","name":"Hohentengen","type":"Kreisangehörige_Gemeinde"},"district":{"key":"08437","name":"Sigmaringen","type":"Landkreis"},"federalState":{"key":"08","name":"Baden-Württemberg"}},{"name":"Bussenstr.","postalCode":"88367","locality":"Hohentengen","municipality":{"key":"08437053","name":"Hohentengen","type":"Kreisangehörige_Gemeinde"},"district":{"key":"08437","name":"Sigmaringen","type":"Landkreis"},"federalState":{"key":"08","name":"Baden-Württemberg"}},{"name":"Carl-Benz-Str.","postalCode":"78467","locality":"Konstanz","municipality":{"key":"08335043","name":"Konstanz, Universitätsstadt","type":"Große_Kreisstadt"},"district":{"key":"08335","name":"Konstanz","type":"Landkreis"},"federalState":{"key":"08","name":"Baden-Württemberg"}},{"name":"Cherisy-Str.","postalCode":"78467","locality":"Konstanz","municipality":{"key":"08335043","name":"Konstanz, Universitätsstadt","type":"Große_Kreisstadt"},"district":{"key":"08335","name":"Konstanz","type":"Landkreis"},"federalState":{"key":"08","name":"Baden-Württemberg"}},{"name":"Christoph-Daniel-Schenck-Str.","postalCode":"78464","locality":"Konstanz","municipality":{"key":"08335043","name":"Konstanz, Universitätsstadt","type":"Große_Kreisstadt"},"district":{"key":"08335","name":"Konstanz","type":"Landkreis"},"federalState":{"key":"08","name":"Baden-Württemberg"}},{"name":"Clara-Schumann-Str.","postalCode":"78464","locality":"Konstanz","municipality":{"key":"08335043","name":"Konstanz, Universitätsstadt","type":"Große_Kreisstadt"},"district":{"key":"08335","name":"Konstanz","type":"Landkreis"},"federalState":{"key":"08","name":"Baden-Württemberg"}},{"name":"Claude-Dornier-Str.","postalCode":"78467","locality":"Konstanz","municipality":{"key":"08335043","name":"Konstanz, Universitätsstadt","type":"Große_Kreisstadt"},"district":{"key":"08335","name":"Konstanz","type":"Landkreis"},"federalState":{"key":"08","name":"Baden-Württemberg"}},{"name":"Conrad-Gröber-Str.","postalCode":"78464","locality":"Konstanz","municipality":{"key":"08335043","name":"Konstanz, Universitätsstadt","type":"Große_Kreisstadt"},"district":{"key":"08335","name":"Konstanz","type":"Landkreis"},"federalState":{"key":"08","name":"Baden-Württemberg"}},{"name":"Conradin-Kreutzer-Str.","postalCode":"78467","locality":"Konstanz","municipality":{"key":"08335043","name":"Konstanz, Universitätsstadt","type":"Große_Kreisstadt"},"district":{"key":"08335","name":"Konstanz","type":"Landkreis"},"federalState":{"key":"08","name":"Baden-Württemberg"}},{"name":"Donaublick","postalCode":"88367","locality":"Hohentengen","municipality":{"key":"08437053","name":"Hohentengen","type":"Kreisangehörige_Gemeinde"},"district":{"key":"08437","name":"Sigmaringen","type":"Landkreis"},"federalState":{"key":"08","name":"Baden-Württemberg"}},{"name":"Dorfstr.","postalCode":"79801","locality":"Hohentengen am Hochrhein","municipality":{"key":"08337053","name":"Hohentengen am Hochrhein","type":"Kreisangehörige_Gemeinde"},"district":{"key":"08337","name":"Waldshut","type":"Landkreis"},"federalState":{"key":"08","name":"Baden-Württemberg"}},{"name":"Dr.-Augele-Str.","postalCode":"78250","locality":"Tengen","municipality":{"key":"08335080","name":"Tengen, Stadt","type":"Stadt"},"district":{"key":"08335","name":"Konstanz","type":"Landkreis"},"federalState":{"key":"08","name":"Baden-Württemberg"}},{"name":"Eichendorffweg","postalCode":"88367","locality":"Hohentengen","municipality":{"key":"08437053","name":"Hohentengen","type":"Kreisangehörige_Gemeinde"},"district":{"key":"08437","name":"Sigmaringen","type":"Landkreis"},"federalState":{"key":"08","name":"Baden-Württemberg"}},{"name":"Eichener Str.","postalCode":"88367","locality":"Hohentengen","municipality":{"key":"08437053","name":"Hohentengen","type":"Kreisangehörige_Gemeinde"},"district":{"key":"08437","name":"Sigmaringen","type":"Landkreis"},"federalState":{"key":"08","name":"Baden-Württemberg"}},{"name":"Eichenweg","postalCode":"78250","locality":"Tengen","municipality":{"key":"08335080","name":"Tengen, Stadt","type":"Stadt"},"district":{"key":"08335","name":"Konstanz","type":"Landkreis"},"federalState":{"key":"08","name":"Baden-Württemberg"}},{"name":"Eichlihausstrasse","postalCode":"79801","locality":"Hohentengen am Hochrhein","municipality":{"key":"08337053","name":"Hohentengen am Hochrhein","type":"Kreisangehörige_Gemeinde"},"district":{"key":"08337","name":"Waldshut","type":"Landkreis"},"federalState":{"key":"08","name":"Baden-Württemberg"}},{"name":"Engener Str.","postalCode":"78250","locality":"Tengen","municipality":{"key":"08335080","name":"Tengen, Stadt","type":"Stadt"},"district":{"key":"08335","name":"Konstanz","type":"Landkreis"},"federalState":{"key":"08","name":"Baden-Württemberg"}},{"name":"Ensfeld","postalCode":"79801","locality":"Hohentengen am Hochrhein","municipality":{"key":"08337053","name":"Hohentengen am Hochrhein","type":"Kreisangehörige_Gemeinde"},"district":{"key":"08337","name":"Waldshut","type":"Landkreis"},"federalState":{"key":"08","name":"Baden-Württemberg"}},{"name":"Enzkofer Str.","postalCode":"88367","locality":"Hohentengen","municipality":{"key":"08437053","name":"Hohentengen","type":"Kreisangehörige_Gemeinde"},"district":{"key":"08437","name":"Sigmaringen","type":"Landkreis"},"federalState":{"key":"08","name":"Baden-Württemberg"}},{"name":"Erlenweg","postalCode":"88367","locality":"Hohentengen","municipality":{"key":"08437053","name":"Hohentengen","type":"Kreisangehörige_Gemeinde"},"district":{"key":"08437","name":"Sigmaringen","type":"Landkreis"},"federalState":{"key":"08","name":"Baden-Württemberg"}},{"name":"Espelweg","postalCode":"78250","locality":"Tengen","municipality":{"key":"08335080","name":"Tengen, Stadt","type":"Stadt"},"district":{"key":"08335","name":"Konstanz","type":"Landkreis"},"federalState":{"key":"08","name":"Baden-Württemberg"}},{"name":"Feldlestr.","postalCode":"79801","locality":"Hohentengen am Hochrhein","municipality":{"key":"08337053","name":"Hohentengen am Hochrhein","type":"Kreisangehörige_Gemeinde"},"district":{"key":"08337","name":"Waldshut","type":"Landkreis"},"federalState":{"key":"08","name":"Baden-Württemberg"}},{"name":"Feldstr.","postalCode":"78250","locality":"Tengen","municipality":{"key":"08335080","name":"Tengen, Stadt","type":"Stadt"},"district":{"key":"08335","name":"Konstanz","type":"Landkreis"},"federalState":{"key":"08","name":"Baden-Württemberg"}},{"name":"Felsenstr.","postalCode":"79801","locality":"Hohentengen am Hochrhein","municipality":{"key":"08337053","name":"Hohentengen am Hochrhein","type":"Kreisangehörige_Gemeinde"},"district":{"key":"08337","name":"Waldshut","type":"Landkreis"},"federalState":{"key":"08","name":"Baden-Württemberg"}},{"name":"Festplatz","postalCode":"78250","locality":"Tengen","municipality":{"key":"08335080","name":"Tengen, Stadt","type":"Stadt"},"district":{"key":"08335","name":"Konstanz","type":"Landkreis"},"federalState":{"key":"08","name":"Baden-Württemberg"}},{"name":"Finkenweg","postalCode":"88367","locality":"Hohentengen","municipality":{"key":"08437053","name":"Hohentengen","type":"Kreisangehörige_Gemeinde"},"district":{"key":"08437","name":"Sigmaringen","type":"Landkreis"},"federalState":{"key":"08","name":"Baden-Württemberg"}},{"name":"Fliederweg","postalCode":"88367","locality":"Hohentengen","municipality":{"key":"08437053","name":"Hohentengen","type":"Kreisangehörige_Gemeinde"},"district":{"key":"08437","name":"Sigmaringen","type":"Landkreis"},"federalState":{"key":"08","name":"Baden-Württemberg"}},{"name":"Fluhstr.","postalCode":"79801","locality":"Hohentengen am Hochrhein","municipality":{"key":"08337053","name":"Hohentengen am Hochrhein","type":"Kreisangehörige_Gemeinde"},"district":{"key":"08337","name":"Waldshut","type":"Landkreis"},"federalState":{"key":"08","name":"Baden-Württemberg"}},{"name":"Flühweg","postalCode":"78250","locality":"Tengen","municipality":{"key":"08335080","name":"Tengen, Stadt","type":"Stadt"},"district":{"key":"08335","name":"Konstanz","type":"Landkreis"},"federalState":{"key":"08","name":"Baden-Württemberg"}},{"name":"Forlenweg","postalCode":"79801","locality":"Hohentengen am Hochrhein","municipality":{"key":"08337053","name":"Hohentengen am Hochrhein","type":"Kreisangehörige_Gemeinde"},"district":{"key":"08337","name":"Waldshut","type":"Landkreis"},"federalState":{"key":"08","name":"Baden-Württemberg"}},{"name":"Fridolinstr.","postalCode":"79801","locality":"Hohentengen am Hochrhein","municipality":{"key":"08337053","name":"Hohentengen am Hochrhein","type":"Kreisangehörige_Gemeinde"},"district":{"key":"08337","name":"Waldshut","type":"Landkreis"},"federalState":{"key":"08","name":"Baden-Württemberg"}},{"name":"Friedbachstr.","postalCode":"88367","locality":"Hohentengen","municipality":{"key":"08437053","name":"Hohentengen","type":"Kreisangehörige_Gemeinde"},"district":{"key":"08437","name":"Sigmaringen","type":"Landkreis"},"federalState":{"key":"08","name":"Baden-Württemberg"}},{"name":"Friedberger Str.","postalCode":"88367","locality":"Hohentengen","municipality":{"key":"08437053","name":"Hohentengen","type":"Kreisangehörige_Gemeinde"},"district":{"key":"08437","name":"Sigmaringen","type":"Landkreis"},"federalState":{"key":"08","name":"Baden-Württemberg"}},{"name":"Friedensweg","postalCode":"88367","locality":"Hohentengen","municipality":{"key":"08437053","name":"Hohentengen","type":"Kreisangehörige_Gemeinde"},"district":{"key":"08437","name":"Sigmaringen","type":"Landkreis"},"federalState":{"key":"08","name":"Baden-Württemberg"}},{"name":"Friedhofstr.","postalCode":"78250","locality":"Tengen","municipality":{"key":"08335080","name":"Tengen, Stadt","type":"Stadt"},"district":{"key":"08335","name":"Konstanz","type":"Landkreis"},"federalState":{"key":"08","name":"Baden-Württemberg"}},{"name":"Fritz Maier-Weg","postalCode":"78250","locality":"Tengen","municipality":{"key":"08335080","name":"Tengen, Stadt","type":"Stadt"},"district":{"key":"08335","name":"Konstanz","type":"Landkreis"},"federalState":{"key":"08","name":"Baden-Württemberg"}},{"name":"Fuchsgasse","postalCode":"88367","locality":"Hohentengen","municipality":{"key":"08437053","name":"Hohentengen","type":"Kreisangehörige_Gemeinde"},"district":{"key":"08437","name":"Sigmaringen","type":"Landkreis"},"federalState":{"key":"08","name":"Baden-Württemberg"}},{"name":"Füchsleweg","postalCode":"79801","locality":"Hohentengen am Hochrhein","municipality":{"key":"08337053","name":"Hohentengen am Hochrhein","type":"Kreisangehörige_Gemeinde"},"district":{"key":"08337","name":"Waldshut","type":"Landkreis"},"federalState":{"key":"08","name":"Baden-Württemberg"}},{"name":"Furtweg","postalCode":"88367","locality":"Hohentengen","municipality":{"key":"08437053","name":"Hohentengen","type":"Kreisangehörige_Gemeinde"},"district":{"key":"08437","name":"Sigmaringen","type":"Landkreis"},"federalState":{"key":"08","name":"Baden-Württemberg"}},{"name":"Gartenstr.","postalCode":"88367","locality":"Hohentengen","municipality":{"key":"08437053","name":"Hohentengen","type":"Kreisangehörige_Gemeinde"},"district":{"key":"08437","name":"Sigmaringen","type":"Landkreis"},"federalState":{"key":"08","name":"Baden-Württemberg"}},{"name":"Gehrenstr.","postalCode":"78250","locality":"Tengen","municipality":{"key":"08335080","name":"Tengen, Stadt","type":"Stadt"},"district":{"key":"08335","name":"Konstanz","type":"Landkreis"},"federalState":{"key":"08","name":"Baden-Württemberg"}},{"name":"Gewerbestr.","postalCode":"79801","locality":"Hohentengen am Hochrhein","municipality":{"key":"08337053","name":"Hohentengen am Hochrhein","type":"Kreisangehörige_Gemeinde"},"district":{"key":"08337","name":"Waldshut","type":"Landkreis"},"federalState":{"key":"08","name":"Baden-Württemberg"}},{"name":"Goethestr.","postalCode":"88367","locality":"Hohentengen","municipality":{"key":"08437053","name":"Hohentengen","type":"Kreisangehörige_Gemeinde"},"district":{"key":"08437","name":"Sigmaringen","type":"Landkreis"},"federalState":{"key":"08","name":"Baden-Württemberg"}},{"name":"Gräfin-Monika-Str.","postalCode":"88367","locality":"Hohentengen","municipality":{"key":"08437053","name":"Hohentengen","type":"Kreisangehörige_Gemeinde"},"district":{"key":"08437","name":"Sigmaringen","type":"Landkreis"},"federalState":{"key":"08","name":"Baden-Württemberg"}},{"name":"Granheimer Str.","postalCode":"88367","locality":"Hohentengen","municipality":{"key":"08437053","name":"Hohentengen","type":"Kreisangehörige_Gemeinde"},"district":{"key":"08437","name":"Sigmaringen","type":"Landkreis"},"federalState":{"key":"08","name":"Baden-Württemberg"}},{"name":"Grenzstr.","postalCode":"79801","locality":"Hohentengen am Hochrhein","municipality":{"key":"08337053","name":"Hohentengen am Hochrhein","type":"Kreisangehörige_Gemeinde"},"district":{"key":"08337","name":"Waldshut","type":"Landkreis"},"federalState":{"key":"08","name":"Baden-Württemberg"}},{"name":"Grenzweg","postalCode":"79801","locality":"Hohentengen am Hochrhein","municipality":{"key":"08337053","name":"Hohentengen am Hochrhein","type":"Kreisangehörige_Gemeinde"},"district":{"key":"08337","name":"Waldshut","type":"Landkreis"},"federalState":{"key":"08","name":"Baden-Württemberg"}},{"name":"Gretzgäßle","postalCode":"78250","locality":"Tengen","municipality":{"key":"08335080","name":"Tengen, Stadt","type":"Stadt"},"district":{"key":"08335","name":"Konstanz","type":"Landkreis"},"federalState":{"key":"08","name":"Baden-Württemberg"}},{"name":"Guggenmühle","postalCode":"79801","locality":"Hohentengen am Hochrhein","municipality":{"key":"08337053","name":"Hohentengen am Hochrhein","type":"Kreisangehörige_Gemeinde"},"district":{"key":"08337","name":"Waldshut","type":"Landkreis"},"federalState":{"key":"08","name":"Baden-Württemberg"}},{"name":"Günzkofer Str.","postalCode":"88367","locality":"Hohentengen","municipality":{"key":"08437053","name":"Hohentengen","type":"Kreisangehörige_Gemeinde"},"district":{"key":"08437","name":"Sigmaringen","type":"Landkreis"},"federalState":{"key":"08","name":"Baden-Württemberg"}},{"name":"Hagelsteig","postalCode":"88367","locality":"Hohentengen","municipality":{"key":"08437053","name":"Hohentengen","type":"Kreisangehörige_Gemeinde"},"district":{"key":"08437","name":"Sigmaringen","type":"Landkreis"},"federalState":{"key":"08","name":"Baden-Württemberg"}},{"name":"Hägenwiesen","postalCode":"78250","locality":"Tengen","municipality":{"key":"08335080","name":"Tengen, Stadt","type":"Stadt"},"district":{"key":"08335","name":"Konstanz","type":"Landkreis"},"federalState":{"key":"08","name":"Baden-Württemberg"}},{"name":"Haldenstr.","postalCode":"78250","locality":"Tengen","municipality":{"key":"08335080","name":"Tengen, Stadt","type":"Stadt"},"district":{"key":"08335","name":"Konstanz","type":"Landkreis"},"federalState":{"key":"08","name":"Baden-Württemberg"}},{"name":"Haldenweg","postalCode":"88367","locality":"Hohentengen","municipality":{"key":"08437053","name":"Hohentengen","type":"Kreisangehörige_Gemeinde"},"district":{"key":"08437","name":"Sigmaringen","type":"Landkreis"},"federalState":{"key":"08","name":"Baden-Württemberg"}},{"name":"Hallauer Str.","postalCode":"79801","locality":"Hohentengen am Hochrhein","municipality":{"key":"08337053","name":"Hohentengen am Hochrhein","type":"Kreisangehörige_Gemeinde"},"district":{"key":"08337","name":"Waldshut","type":"Landkreis"},"federalState":{"key":"08","name":"Baden-Württemberg"}},{"name":"Hanfwiesen","postalCode":"79801","locality":"Hohentengen am Hochrhein","municipality":{"key":"08337053","name":"Hohentengen am Hochrhein","type":"Kreisangehörige_Gemeinde"},"district":{"key":"08337","name":"Waldshut","type":"Landkreis"},"federalState":{"key":"08","name":"Baden-Württemberg"}},{"name":"Hansenbuckweg","postalCode":"79801","locality":"Hohentengen am Hochrhein","municipality":{"key":"08337053","name":"Hohentengen am Hochrhein","type":"Kreisangehörige_Gemeinde"},"district":{"key":"08337","name":"Waldshut","type":"Landkreis"},"federalState":{"key":"08","name":"Baden-Württemberg"}},{"name":"Hansengelstr.","postalCode":"79801","locality":"Hohentengen am Hochrhein","municipality":{"key":"08337053","name":"Hohentengen am Hochrhein","type":"Kreisangehörige_Gemeinde"},"district":{"key":"08337","name":"Waldshut","type":"Landkreis"},"federalState":{"key":"08","name":"Baden-Württemberg"}},{"name":"Hardtstr.","postalCode":"78250","locality":"Tengen","municipality":{"key":"08335080","name":"Tengen, Stadt","type":"Stadt"},"district":{"key":"08335","name":"Konstanz","type":"Landkreis"},"federalState":{"key":"08","name":"Baden-Württemberg"}},{"name":"Hardtweg","postalCode":"78250","locality":"Tengen","municipality":{"key":"08335080","name":"Tengen, Stadt","type":"Stadt"},"district":{"key":"08335","name":"Konstanz","type":"Landkreis"},"federalState":{"key":"08","name":"Baden-Württemberg"}},{"name":"Hasler Hof","postalCode":"78250","locality":"Tengen","municipality":{"key":"08335080","name":"Tengen, Stadt","type":"Stadt"},"district":{"key":"08335","name":"Konstanz","type":"Landkreis"},"federalState":{"key":"08","name":"Baden-Württemberg"}},{"name":"Hauptstr.","postalCode":"78250","locality":"Tengen","municipality":{"key":"08335080","name":"Tengen, Stadt","type":"Stadt"},"district":{"key":"08335","name":"Konstanz","type":"Landkreis"},"federalState":{"key":"08","name":"Baden-Württemberg"}},{"name":"Hauptstr.","postalCode":"79801","locality":"Hohentengen am Hochrhein","municipality":{"key":"08337053","name":"Hohentengen am Hochrhein","type":"Kreisangehörige_Gemeinde"},"district":{"key":"08337","name":"Waldshut","type":"Landkreis"},"federalState":{"key":"08","name":"Baden-Württemberg"}},{"name":"Hauptstr.","postalCode":"88367","locality":"Hohentengen","municipality":{"key":"08437053","name":"Hohentengen","type":"Kreisangehörige_Gemeinde"},"district":{"key":"08437","name":"Sigmaringen","type":"Landkreis"},"federalState":{"key":"08","name":"Baden-Württemberg"}},{"name":"Hegaustr.","postalCode":"78250","locality":"Tengen","municipality":{"key":"08335080","name":"Tengen, Stadt","type":"Stadt"},"district":{"key":"08335","name":"Konstanz","type":"Landkreis"},"federalState":{"key":"08","name":"Baden-Württemberg"}},{"name":"Hegestr.","postalCode":"79801","locality":"Hohentengen am Hochrhein","municipality":{"key":"08337053","name":"Hohentengen am Hochrhein","type":"Kreisangehörige_Gemeinde"},"district":{"key":"08337","name":"Waldshut","type":"Landkreis"},"federalState":{"key":"08","name":"Baden-Württemberg"}},{"name":"Herdbachstr.","postalCode":"78250","locality":"Tengen","municipality":{"key":"08335080","name":"Tengen, Stadt","type":"Stadt"},"district":{"key":"08335","name":"Konstanz","type":"Landkreis"},"federalState":{"key":"08","name":"Baden-Württemberg"}},{"name":"Herderner Str.","postalCode":"79801","locality":"Hohentengen am Hochrhein","municipality":{"key":"08337053","name":"Hohentengen am Hochrhein","type":"Kreisangehörige_Gemeinde"},"district":{"key":"08337","name":"Waldshut","type":"Landkreis"},"federalState":{"key":"08","name":"Baden-Württemberg"}},{"name":"Hinterburg","postalCode":"78250","locality":"Tengen","municipality":{"key":"08335080","name":"Tengen, Stadt","type":"Stadt"},"district":{"key":"08335","name":"Konstanz","type":"Landkreis"},"federalState":{"key":"08","name":"Baden-Württemberg"}},{"name":"Hinteres Gäßle","postalCode":"88367","locality":"Hohentengen","municipality":{"key":"08437053","name":"Hohentengen","type":"Kreisangehörige_Gemeinde"},"district":{"key":"08437","name":"Sigmaringen","type":"Landkreis"},"federalState":{"key":"08","name":"Baden-Württemberg"}},{"name":"Hintere Zollstr.","postalCode":"78250","locality":"Tengen","municipality":{"key":"08335080","name":"Tengen, Stadt","type":"Stadt"},"district":{"key":"08335","name":"Konstanz","type":"Landkreis"},"federalState":{"key":"08","name":"Baden-Württemberg"}},{"name":"Hinter Wiesen","postalCode":"78250","locality":"Tengen","municipality":{"key":"08335080","name":"Tengen, Stadt","type":"Stadt"},"district":{"key":"08335","name":"Konstanz","type":"Landkreis"},"federalState":{"key":"08","name":"Baden-Württemberg"}},{"name":"Hochgericht","postalCode":"88367","locality":"Hohentengen","municipality":{"key":"08437053","name":"Hohentengen","type":"Kreisangehörige_Gemeinde"},"district":{"key":"08437","name":"Sigmaringen","type":"Landkreis"},"federalState":{"key":"08","name":"Baden-Württemberg"}},{"name":"Höfleweg","postalCode":"79801","locality":"Hohentengen am Hochrhein","municipality":{"key":"08337053","name":"Hohentengen am Hochrhein","type":"Kreisangehörige_Gemeinde"},"district":{"key":"08337","name":"Waldshut","type":"Landkreis"},"federalState":{"key":"08","name":"Baden-Württemberg"}},{"name":"Hohenhewenstr.","postalCode":"78250","locality":"Tengen","municipality":{"key":"08335080","name":"Tengen, Stadt","type":"Stadt"},"district":{"key":"08335","name":"Konstanz","type":"Landkreis"},"federalState":{"key":"08","name":"Baden-Württemberg"}},{"name":"Hohenkrähenstr.","postalCode":"78250","locality":"Tengen","municipality":{"key":"08335080","name":"Tengen, Stadt","type":"Stadt"},"district":{"key":"08335","name":"Konstanz","type":"Landkreis"},"federalState":{"key":"08","name":"Baden-Württemberg"}},{"name":"Hohenstoffelstr.","postalCode":"78250","locality":"Tengen","municipality":{"key":"08335080","name":"Tengen, Stadt","type":"Stadt"},"district":{"key":"08335","name":"Konstanz","type":"Landkreis"},"federalState":{"key":"08","name":"Baden-Württemberg"}},{"name":"Hohentwielstr.","postalCode":"78250","locality":"Tengen","municipality":{"key":"08335080","name":"Tengen, Stadt","type":"Stadt"},"district":{"key":"08335","name":"Konstanz","type":"Landkreis"},"federalState":{"key":"08","name":"Baden-Württemberg"}},{"name":"Hohlgass","postalCode":"78250","locality":"Tengen","municipality":{"key":"08335080","name":"Tengen, Stadt","type":"Stadt"},"district":{"key":"08335","name":"Konstanz","type":"Landkreis"},"federalState":{"key":"08","name":"Baden-Württemberg"}},{"name":"Hölzleweg","postalCode":"78250","locality":"Tengen","municipality":{"key":"08335080","name":"Tengen, Stadt","type":"Stadt"},"district":{"key":"08335","name":"Konstanz","type":"Landkreis"},"federalState":{"key":"08","name":"Baden-Württemberg"}},{"name":"Hölzleweg","postalCode":"79801","locality":"Hohentengen am Hochrhein","municipality":{"key":"08337053","name":"Hohentengen am Hochrhein","type":"Kreisangehörige_Gemeinde"},"district":{"key":"08337","name":"Waldshut","type":"Landkreis"},"federalState":{"key":"08","name":"Baden-Württemberg"}},{"name":"Hüttenweg","postalCode":"78250","locality":"Tengen","municipality":{"key":"08335080","name":"Tengen, Stadt","type":"Stadt"},"district":{"key":"08335","name":"Konstanz","type":"Landkreis"},"federalState":{"key":"08","name":"Baden-Württemberg"}},{"name":"Ibnisweg","postalCode":"78250","locality":"Tengen","municipality":{"key":"08335080","name":"Tengen, Stadt","type":"Stadt"},"district":{"key":"08335","name":"Konstanz","type":"Landkreis"},"federalState":{"key":"08","name":"Baden-Württemberg"}},{"name":"Im Alber","postalCode":"88367","locality":"Hohentengen","municipality":{"key":"08437053","name":"Hohentengen","type":"Kreisangehörige_Gemeinde"},"district":{"key":"08437","name":"Sigmaringen","type":"Landkreis"},"federalState":{"key":"08","name":"Baden-Württemberg"}},{"name":"Im Amtsgarten","postalCode":"78250","locality":"Tengen","municipality":{"key":"08335080","name":"Tengen, Stadt","type":"Stadt"},"district":{"key":"08335","name":"Konstanz","type":"Landkreis"},"federalState":{"key":"08","name":"Baden-Württemberg"}},{"name":"Im Breitenplatz","postalCode":"78250","locality":"Tengen","municipality":{"key":"08335080","name":"Tengen, Stadt","type":"Stadt"},"district":{"key":"08335","name":"Konstanz","type":"Landkreis"},"federalState":{"key":"08","name":"Baden-Württemberg"}},{"name":"Im Brühl","postalCode":"78250","locality":"Tengen","municipality":{"key":"08335080","name":"Tengen, Stadt","type":"Stadt"},"district":{"key":"08335","name":"Konstanz","type":"Landkreis"},"federalState":{"key":"08","name":"Baden-Württemberg"}},{"name":"Im Diengau","postalCode":"88367","locality":"Hohentengen","municipality":{"key":"08437053","name":"Hohentengen","type":"Kreisangehörige_Gemeinde"},"district":{"key":"08437","name":"Sigmaringen","type":"Landkreis"},"federalState":{"key":"08","name":"Baden-Württemberg"}},{"name":"Im Glöckler","postalCode":"78250","locality":"Tengen","municipality":{"key":"08335080","name":"Tengen, Stadt","type":"Stadt"},"district":{"key":"08335","name":"Konstanz","type":"Landkreis"},"federalState":{"key":"08","name":"Baden-Württemberg"}},{"name":"Im Ried","postalCode":"78250","locality":"Tengen","municipality":{"key":"08335080","name":"Tengen, Stadt","type":"Stadt"},"district":{"key":"08335","name":"Konstanz","type":"Landkreis"},"federalState":{"key":"08","name":"Baden-Württemberg"}},{"name":"Im Riedgarten","postalCode":"78250","locality":"Tengen","municipality":{"key":"08335080","name":"Tengen, Stadt","type":"Stadt"},"district":{"key":"08335","name":"Konstanz","type":"Landkreis"},"federalState":{"key":"08","name":"Baden-Württemberg"}},{"name":"Im Tal","postalCode":"78250","locality":"Tengen","municipality":{"key":"08335080","name":"Tengen, Stadt","type":"Stadt"},"district":{"key":"08335","name":"Konstanz","type":"Landkreis"},"federalState":{"key":"08","name":"Baden-Württemberg"}},{"name":"Im Tempel","postalCode":"78250","locality":"Tengen","municipality":{"key":"08335080","name":"Tengen, Stadt","type":"Stadt"},"district":{"key":"08335","name":"Konstanz","type":"Landkreis"},"federalState":{"key":"08","name":"Baden-Württemberg"}},{"name":"Im Wiesengrund","postalCode":"78250","locality":"Tengen","municipality":{"key":"08335080","name":"Tengen, Stadt","type":"Stadt"},"district":{"key":"08335","name":"Konstanz","type":"Landkreis"},"federalState":{"key":"08","name":"Baden-Württemberg"}},{"name":"In den Gruben","postalCode":"88367","locality":"Hohentengen","municipality":{"key":"08437053","name":"Hohentengen","type":"Kreisangehörige_Gemeinde"},"district":{"key":"08437","name":"Sigmaringen","type":"Landkreis"},"federalState":{"key":"08","name":"Baden-Württemberg"}},{"name":"In der Hau","postalCode":"88367","locality":"Hohentengen","municipality":{"key":"08437053","name":"Hohentengen","type":"Kreisangehörige_Gemeinde"},"district":{"key":"08437","name":"Sigmaringen","type":"Landkreis"},"federalState":{"key":"08","name":"Baden-Württemberg"}},{"name":"Industriestr.","postalCode":"79801","locality":"Hohentengen am Hochrhein","municipality":{"key":"08337053","name":"Hohentengen am Hochrhein","type":"Kreisangehörige_Gemeinde"},"district":{"key":"08337","name":"Waldshut","type":"Landkreis"},"federalState":{"key":"08","name":"Baden-Württemberg"}},{"name":"Jagdhüttenweg","postalCode":"78250","locality":"Tengen","municipality":{"key":"08335080","name":"Tengen, Stadt","type":"Stadt"},"district":{"key":"08335","name":"Konstanz","type":"Landkreis"},"federalState":{"key":"08","name":"Baden-Württemberg"}},{"name":"Jagdhüttenweg","postalCode":"79801","locality":"Hohentengen am Hochrhein","municipality":{"key":"08337053","name":"Hohentengen am Hochrhein","type":"Kreisangehörige_Gemeinde"},"district":{"key":"08337","name":"Waldshut","type":"Landkreis"},"federalState":{"key":"08","name":"Baden-Württemberg"}},{"name":"Jägergasse","postalCode":"88367","locality":"Hohentengen","municipality":{"key":"08437053","name":"Hohentengen","type":"Kreisangehörige_Gemeinde"},"district":{"key":"08437","name":"Sigmaringen","type":"Landkreis"},"federalState":{"key":"08","name":"Baden-Württemberg"}},{"name":"Josef-Kurth-Str.","postalCode":"88367","locality":"Hohentengen","municipality":{"key":"08437053","name":"Hohentengen","type":"Kreisangehörige_Gemeinde"},"district":{"key":"08437","name":"Sigmaringen","type":"Landkreis"},"federalState":{"key":"08","name":"Baden-Württemberg"}},{"name":"Kaiser-Leopold-Str.","postalCode":"88367","locality":"Hohentengen","municipality":{"key":"08437053","name":"Hohentengen","type":"Kreisangehörige_Gemeinde"},"district":{"key":"08437","name":"Sigmaringen","type":"Landkreis"},"federalState":{"key":"08","name":"Baden-Württemberg"}},{"name":"Kalkgrube","postalCode":"78250","locality":"Tengen","municipality":{"key":"08335080","name":"Tengen, Stadt","type":"Stadt"},"district":{"key":"08335","name":"Konstanz","type":"Landkreis"},"federalState":{"key":"08","name":"Baden-Württemberg"}},{"name":"Kapellengasse","postalCode":"88367","locality":"Hohentengen","municipality":{"key":"08437053","name":"Hohentengen","type":"Kreisangehörige_Gemeinde"},"district":{"key":"08437","name":"Sigmaringen","type":"Landkreis"},"federalState":{"key":"08","name":"Baden-Württemberg"}},{"name":"Kapellenstr.","postalCode":"78250","locality":"Tengen","municipality":{"key":"08335080","name":"Tengen, Stadt","type":"Stadt"},"district":{"key":"08335","name":"Konstanz","type":"Landkreis"},"federalState":{"key":"08","name":"Baden-Württemberg"}},{"name":"Kapellenstr.","postalCode":"79801","locality":"Hohentengen am Hochrhein","municipality":{"key":"08337053","name":"Hohentengen am Hochrhein","type":"Kreisangehörige_Gemeinde"},"district":{"key":"08337","name":"Waldshut","type":"Landkreis"},"federalState":{"key":"08","name":"Baden-Württemberg"}},{"name":"Kehlhofweg","postalCode":"78250","locality":"Tengen","municipality":{"key":"08335080","name":"Tengen, Stadt","type":"Stadt"},"district":{"key":"08335","name":"Konstanz","type":"Landkreis"},"federalState":{"key":"08","name":"Baden-Württemberg"}},{"name":"Keltenweg","postalCode":"79801","locality":"Hohentengen am Hochrhein","municipality":{"key":"08337053","name":"Hohentengen am Hochrhein","type":"Kreisangehörige_Gemeinde"},"district":{"key":"08337","name":"Waldshut","type":"Landkreis"},"federalState":{"key":"08","name":"Baden-Württemberg"}},{"name":"Kesselwagstr.","postalCode":"88367","locality":"Hohentengen","municipality":{"key":"08437053","name":"Hohentengen","type":"Kreisangehörige_Gemeinde"},"district":{"key":"08437","name":"Sigmaringen","type":"Landkreis"},"federalState":{"key":"08","name":"Baden-Württemberg"}},{"name":"Kirchgasse","postalCode":"88367","locality":"Hohentengen","municipality":{"key":"08437053","name":"Hohentengen","type":"Kreisangehörige_Gemeinde"},"district":{"key":"08437","name":"Sigmaringen","type":"Landkreis"},"federalState":{"key":"08","name":"Baden-Württemberg"}},{"name":"Kirchstettener Str.","postalCode":"78250","locality":"Tengen","municipality":{"key":"08335080","name":"Tengen, Stadt","type":"Stadt"},"district":{"key":"08335","name":"Konstanz","type":"Landkreis"},"federalState":{"key":"08","name":"Baden-Württemberg"}},{"name":"Kirchstr.","postalCode":"78250","locality":"Tengen","municipality":{"key":"08335080","name":"Tengen, Stadt","type":"Stadt"},"district":{"key":"08335","name":"Konstanz","type":"Landkreis"},"federalState":{"key":"08","name":"Baden-Württemberg"}},{"name":"Kirchstr.","postalCode":"79801","locality":"Hohentengen am Hochrhein","municipality":{"key":"08337053","name":"Hohentengen am Hochrhein","type":"Kreisangehörige_Gemeinde"},"district":{"key":"08337","name":"Waldshut","type":"Landkreis"},"federalState":{"key":"08","name":"Baden-Württemberg"}},{"name":"Kirchweg","postalCode":"88367","locality":"Hohentengen","municipality":{"key":"08437053","name":"Hohentengen","type":"Kreisangehörige_Gemeinde"},"district":{"key":"08437","name":"Sigmaringen","type":"Landkreis"},"federalState":{"key":"08","name":"Baden-Württemberg"}},{"name":"Kirchwegeschle","postalCode":"88367","locality":"Hohentengen","municipality":{"key":"08437053","name":"Hohentengen","type":"Kreisangehörige_Gemeinde"},"district":{"key":"08437","name":"Sigmaringen","type":"Landkreis"},"federalState":{"key":"08","name":"Baden-Württemberg"}},{"name":"Kirchwiesweg","postalCode":"79801","locality":"Hohentengen am Hochrhein","municipality":{"key":"08337053","name":"Hohentengen am Hochrhein","type":"Kreisangehörige_Gemeinde"},"district":{"key":"08337","name":"Waldshut","type":"Landkreis"},"federalState":{"key":"08","name":"Baden-Württemberg"}},{"name":"Klaushof","postalCode":"79801","locality":"Hohentengen am Hochrhein","municipality":{"key":"08337053","name":"Hohentengen am Hochrhein","type":"Kreisangehörige_Gemeinde"},"district":{"key":"08337","name":"Waldshut","type":"Landkreis"},"federalState":{"key":"08","name":"Baden-Württemberg"}},{"name":"Kleineschle","postalCode":"88367","locality":"Hohentengen","municipality":{"key":"08437053","name":"Hohentengen","type":"Kreisangehörige_Gemeinde"},"district":{"key":"08437","name":"Sigmaringen","type":"Landkreis"},"federalState":{"key":"08","name":"Baden-Württemberg"}},{"name":"Klingenstr.","postalCode":"78250","locality":"Tengen","municipality":{"key":"08335080","name":"Tengen, Stadt","type":"Stadt"},"district":{"key":"08335","name":"Konstanz","type":"Landkreis"},"federalState":{"key":"08","name":"Baden-Württemberg"}},{"name":"Kniebrecheweg","postalCode":"78250","locality":"Tengen","municipality":{"key":"08335080","name":"Tengen, Stadt","type":"Stadt"},"district":{"key":"08335","name":"Konstanz","type":"Landkreis"},"federalState":{"key":"08","name":"Baden-Württemberg"}},{"name":"Kohlrütteweg","postalCode":"78250","locality":"Tengen","municipality":{"key":"08335080","name":"Tengen, Stadt","type":"Stadt"},"district":{"key":"08335","name":"Konstanz","type":"Landkreis"},"federalState":{"key":"08","name":"Baden-Württemberg"}},{"name":"Kolbental","postalCode":"88367","locality":"Hohentengen","municipality":{"key":"08437053","name":"Hohentengen","type":"Kreisangehörige_Gemeinde"},"district":{"key":"08437","name":"Sigmaringen","type":"Landkreis"},"federalState":{"key":"08","name":"Baden-Württemberg"}},{"name":"Kolpingstr.","postalCode":"88367","locality":"Hohentengen","municipality":{"key":"08437053","name":"Hohentengen","type":"Kreisangehörige_Gemeinde"},"district":{"key":"08437","name":"Sigmaringen","type":"Landkreis"},"federalState":{"key":"08","name":"Baden-Württemberg"}},{"name":"Körbelstr.","postalCode":"78250","locality":"Tengen","municipality":{"key":"08335080","name":"Tengen, Stadt","type":"Stadt"},"district":{"key":"08335","name":"Konstanz","type":"Landkreis"},"federalState":{"key":"08","name":"Baden-Württemberg"}},{"name":"Kornstr.","postalCode":"88367","locality":"Hohentengen","municipality":{"key":"08437053","name":"Hohentengen","type":"Kreisangehörige_Gemeinde"},"district":{"key":"08437","name":"Sigmaringen","type":"Landkreis"},"federalState":{"key":"08","name":"Baden-Württemberg"}},{"name":"Küfergasse","postalCode":"88367","locality":"Hohentengen","municipality":{"key":"08437053","name":"Hohentengen","type":"Kreisangehörige_Gemeinde"},"district":{"key":"08437","name":"Sigmaringen","type":"Landkreis"},"federalState":{"key":"08","name":"Baden-Württemberg"}},{"name":"Kugelberg","postalCode":"88367","locality":"Hohentengen","municipality":{"key":"08437053","name":"Hohentengen","type":"Kreisangehörige_Gemeinde"},"district":{"key":"08437","name":"Sigmaringen","type":"Landkreis"},"federalState":{"key":"08","name":"Baden-Württemberg"}},{"name":"Kunzweg","postalCode":"79801","locality":"Hohentengen am Hochrhein","municipality":{"key":"08337053","name":"Hohentengen am Hochrhein","type":"Kreisangehörige_Gemeinde"},"district":{"key":"08337","name":"Waldshut","type":"Landkreis"},"federalState":{"key":"08","name":"Baden-Württemberg"}},{"name":"Küssaburgstr.","postalCode":"79801","locality":"Hohentengen am Hochrhein","municipality":{"key":"08337053","name":"Hohentengen am Hochrhein","type":"Kreisangehörige_Gemeinde"},"district":{"key":"08337","name":"Waldshut","type":"Landkreis"},"federalState":{"key":"08","name":"Baden-Württemberg"}},{"name":"Küssnacher Str.","postalCode":"79801","locality":"Hohentengen am Hochrhein","municipality":{"key":"08337053","name":"Hohentengen am Hochrhein","type":"Kreisangehörige_Gemeinde"},"district":{"key":"08337","name":"Waldshut","type":"Landkreis"},"federalState":{"key":"08","name":"Baden-Württemberg"}},{"name":"Langwiesenstr.","postalCode":"78250","locality":"Tengen","municipality":{"key":"08335080","name":"Tengen, Stadt","type":"Stadt"},"district":{"key":"08335","name":"Konstanz","type":"Landkreis"},"federalState":{"key":"08","name":"Baden-Württemberg"}},{"name":"Lärchenweg","postalCode":"88367","locality":"Hohentengen","municipality":{"key":"08437053","name":"Hohentengen","type":"Kreisangehörige_Gemeinde"},"district":{"key":"08437","name":"Sigmaringen","type":"Landkreis"},"federalState":{"key":"08","name":"Baden-Württemberg"}},{"name":"Laustr.","postalCode":"88367","locality":"Hohentengen","municipality":{"key":"08437053","name":"Hohentengen","type":"Kreisangehörige_Gemeinde"},"district":{"key":"08437","name":"Sigmaringen","type":"Landkreis"},"federalState":{"key":"08","name":"Baden-Württemberg"}},{"name":"Lauterbachstr.","postalCode":"78250","locality":"Tengen","municipality":{"key":"08335080","name":"Tengen, Stadt","type":"Stadt"},"district":{"key":"08335","name":"Konstanz","type":"Landkreis"},"federalState":{"key":"08","name":"Baden-Württemberg"}},{"name":"Ledergasse","postalCode":"78250","locality":"Tengen","municipality":{"key":"08335080","name":"Tengen, Stadt","type":"Stadt"},"district":{"key":"08335","name":"Konstanz","type":"Landkreis"},"federalState":{"key":"08","name":"Baden-Württemberg"}},{"name":"Leipferdinger Str.","postalCode":"78250","locality":"Tengen","municipality":{"key":"08335080","name":"Tengen, Stadt","type":"Stadt"},"district":{"key":"08335","name":"Konstanz","type":"Landkreis"},"federalState":{"key":"08","name":"Baden-Württemberg"}},{"name":"Lenggenstr.","postalCode":"79801","locality":"Hohentengen am Hochrhein","municipality":{"key":"08337053","name":"Hohentengen am Hochrhein","type":"Kreisangehörige_Gemeinde"},"district":{"key":"08337","name":"Waldshut","type":"Landkreis"},"federalState":{"key":"08","name":"Baden-Württemberg"}},{"name":"Lindenstr.","postalCode":"78250","locality":"Tengen","municipality":{"key":"08335080","name":"Tengen, Stadt","type":"Stadt"},"district":{"key":"08335","name":"Konstanz","type":"Landkreis"},"federalState":{"key":"08","name":"Baden-Württemberg"}},{"name":"Lochgrabenweg","postalCode":"78250","locality":"Tengen","municipality":{"key":"08335080","name":"Tengen, Stadt","type":"Stadt"},"district":{"key":"08335","name":"Konstanz","type":"Landkreis"},"federalState":{"key":"08","name":"Baden-Württemberg"}},{"name":"Ludwig-Gerer-Str.","postalCode":"78250","locality":"Tengen","municipality":{"key":"08335080","name":"Tengen, Stadt","type":"Stadt"},"district":{"key":"08335","name":"Konstanz","type":"Landkreis"},"federalState":{"key":"08","name":"Baden-Württemberg"}},{"name":"Magdalena-Schlegel-Str.","postalCode":"88367","locality":"Hohentengen","municipality":{"key":"08437053","name":"Hohentengen","type":"Kreisangehörige_Gemeinde"},"district":{"key":"08437","name":"Sigmaringen","type":"Landkreis"},"federalState":{"key":"08","name":"Baden-Württemberg"}},{"name":"Mägdebergstr.","postalCode":"78250","locality":"Tengen","municipality":{"key":"08335080","name":"Tengen, Stadt","type":"Stadt"},"district":{"key":"08335","name":"Konstanz","type":"Landkreis"},"federalState":{"key":"08","name":"Baden-Württemberg"}},{"name":"Maierhof","postalCode":"79801","locality":"Hohentengen am Hochrhein","municipality":{"key":"08337053","name":"Hohentengen am Hochrhein","type":"Kreisangehörige_Gemeinde"},"district":{"key":"08337","name":"Waldshut","type":"Landkreis"},"federalState":{"key":"08","name":"Baden-Württemberg"}},{"name":"Marienweg","postalCode":"88367","locality":"Hohentengen","municipality":{"key":"08437053","name":"Hohentengen","type":"Kreisangehörige_Gemeinde"},"district":{"key":"08437","name":"Sigmaringen","type":"Landkreis"},"federalState":{"key":"08","name":"Baden-Württemberg"}},{"name":"Marktstr.","postalCode":"78250","locality":"Tengen","municipality":{"key":"08335080","name":"Tengen, Stadt","type":"Stadt"},"district":{"key":"08335","name":"Konstanz","type":"Landkreis"},"federalState":{"key":"08","name":"Baden-Württemberg"}},{"name":"Mengener Str.","postalCode":"88367","locality":"Hohentengen","municipality":{"key":"08437053","name":"Hohentengen","type":"Kreisangehörige_Gemeinde"},"district":{"key":"08437","name":"Sigmaringen","type":"Landkreis"},"federalState":{"key":"08","name":"Baden-Württemberg"}},{"name":"Merktweg","postalCode":"79801","locality":"Hohentengen am Hochrhein","municipality":{"key":"08337053","name":"Hohentengen am Hochrhein","type":"Kreisangehörige_Gemeinde"},"district":{"key":"08337","name":"Waldshut","type":"Landkreis"},"federalState":{"key":"08","name":"Baden-Württemberg"}},{"name":"Michel-Buck-Str.","postalCode":"88367","locality":"Hohentengen","municipality":{"key":"08437053","name":"Hohentengen","type":"Kreisangehörige_Gemeinde"},"district":{"key":"08437","name":"Sigmaringen","type":"Landkreis"},"federalState":{"key":"08","name":"Baden-Württemberg"}},{"name":"Mittlerer Josumsattweg","postalCode":"78250","locality":"Tengen","municipality":{"key":"08335080","name":"Tengen, Stadt","type":"Stadt"},"district":{"key":"08335","name":"Konstanz","type":"Landkreis"},"federalState":{"key":"08","name":"Baden-Württemberg"}},{"name":"Moosweg","postalCode":"79801","locality":"Hohentengen am Hochrhein","municipality":{"key":"08337053","name":"Hohentengen am Hochrhein","type":"Kreisangehörige_Gemeinde"},"district":{"key":"08337","name":"Waldshut","type":"Landkreis"},"federalState":{"key":"08","name":"Baden-Württemberg"}},{"name":"Mörikestr.","postalCode":"88367","locality":"Hohentengen","municipality":{"key":"08437053","name":"Hohentengen","type":"Kreisangehörige_Gemeinde"},"district":{"key":"08437","name":"Sigmaringen","type":"Landkreis"},"federalState":{"key":"08","name":"Baden-Württemberg"}},{"name":"Mühlbachweg","postalCode":"88367","locality":"Hohentengen","municipality":{"key":"08437053","name":"Hohentengen","type":"Kreisangehörige_Gemeinde"},"district":{"key":"08437","name":"Sigmaringen","type":"Landkreis"},"federalState":{"key":"08","name":"Baden-Württemberg"}},{"name":"Mühlenstr.","postalCode":"78250","locality":"Tengen","municipality":{"key":"08335080","name":"Tengen, Stadt","type":"Stadt"},"district":{"key":"08335","name":"Konstanz","type":"Landkreis"},"federalState":{"key":"08","name":"Baden-Württemberg"}},{"name":"Mühlenstr.","postalCode":"88367","locality":"Hohentengen","municipality":{"key":"08437053","name":"Hohentengen","type":"Kreisangehörige_Gemeinde"},"district":{"key":"08437","name":"Sigmaringen","type":"Landkreis"},"federalState":{"key":"08","name":"Baden-Württemberg"}},{"name":"Mühleweg","postalCode":"79801","locality":"Hohentengen am Hochrhein","municipality":{"key":"08337053","name":"Hohentengen am Hochrhein","type":"Kreisangehörige_Gemeinde"},"district":{"key":"08337","name":"Waldshut","type":"Landkreis"},"federalState":{"key":"08","name":"Baden-Württemberg"}},{"name":"Napoleonsweg","postalCode":"78250","locality":"Tengen","municipality":{"key":"08335080","name":"Tengen, Stadt","type":"Stadt"},"district":{"key":"08335","name":"Konstanz","type":"Landkreis"},"federalState":{"key":"08","name":"Baden-Württemberg"}},{"name":"Nelkenweg","postalCode":"88367","locality":"Hohentengen","municipality":{"key":"08437053","name":"Hohentengen","type":"Kreisangehörige_Gemeinde"},"district":{"key":"08437","name":"Sigmaringen","type":"Landkreis"},"federalState":{"key":"08","name":"Baden-Württemberg"}},{"name":"Neuer Weg","postalCode":"78250","locality":"Tengen","municipality":{"key":"08335080","name":"Tengen, Stadt","type":"Stadt"},"district":{"key":"08335","name":"Konstanz","type":"Landkreis"},"federalState":{"key":"08","name":"Baden-Württemberg"}},{"name":"Neuhewenweg","postalCode":"78250","locality":"Tengen","municipality":{"key":"08335080","name":"Tengen, Stadt","type":"Stadt"},"district":{"key":"08335","name":"Konstanz","type":"Landkreis"},"federalState":{"key":"08","name":"Baden-Württemberg"}},{"name":"Nordhalder Str.","postalCode":"78250","locality":"Tengen","municipality":{"key":"08335080","name":"Tengen, Stadt","type":"Stadt"},"district":{"key":"08335","name":"Konstanz","type":"Landkreis"},"federalState":{"key":"08","name":"Baden-Württemberg"}},{"name":"Ob den Häusern","postalCode":"78250","locality":"Tengen","municipality":{"key":"08335080","name":"Tengen, Stadt","type":"Stadt"},"district":{"key":"08335","name":"Konstanz","type":"Landkreis"},"federalState":{"key":"08","name":"Baden-Württemberg"}},{"name":"Oberdorfstr.","postalCode":"78250","locality":"Tengen","municipality":{"key":"08335080","name":"Tengen, Stadt","type":"Stadt"},"district":{"key":"08335","name":"Konstanz","type":"Landkreis"},"federalState":{"key":"08","name":"Baden-Württemberg"}},{"name":"Oberdorfstr.","postalCode":"79801","locality":"Hohentengen am Hochrhein","municipality":{"key":"08337053","name":"Hohentengen am Hochrhein","type":"Kreisangehörige_Gemeinde"},"district":{"key":"08337","name":"Waldshut","type":"Landkreis"},"federalState":{"key":"08","name":"Baden-Württemberg"}},{"name":"OBERER ASPENWEG","postalCode":"79801","locality":"Hohentengen am Hochrhein","municipality":{"key":"08337053","name":"Hohentengen am Hochrhein","type":"Kreisangehörige_Gemeinde"},"district":{"key":"08337","name":"Waldshut","type":"Landkreis"},"federalState":{"key":"08","name":"Baden-Württemberg"}},{"name":"Oberer Forlenweg","postalCode":"79801","locality":"Hohentengen am Hochrhein","municipality":{"key":"08337053","name":"Hohentengen am Hochrhein","type":"Kreisangehörige_Gemeinde"},"district":{"key":"08337","name":"Waldshut","type":"Landkreis"},"federalState":{"key":"08","name":"Baden-Württemberg"}},{"name":"Oberer Josumsattweg","postalCode":"78250","locality":"Tengen","municipality":{"key":"08335080","name":"Tengen, Stadt","type":"Stadt"},"district":{"key":"08335","name":"Konstanz","type":"Landkreis"},"federalState":{"key":"08","name":"Baden-Württemberg"}},{"name":"Oberer Lachenweg","postalCode":"79801","locality":"Hohentengen am Hochrhein","municipality":{"key":"08337053","name":"Hohentengen am Hochrhein","type":"Kreisangehörige_Gemeinde"},"district":{"key":"08337","name":"Waldshut","type":"Landkreis"},"federalState":{"key":"08","name":"Baden-Württemberg"}},{"name":"Oberer Querweg","postalCode":"78250","locality":"Tengen","municipality":{"key":"08335080","name":"Tengen, Stadt","type":"Stadt"},"district":{"key":"08335","name":"Konstanz","type":"Landkreis"},"federalState":{"key":"08","name":"Baden-Württemberg"}},{"name":"Ob's Herrenhaus","postalCode":"78250","locality":"Tengen","municipality":{"key":"08335080","name":"Tengen, Stadt","type":"Stadt"},"district":{"key":"08335","name":"Konstanz","type":"Landkreis"},"federalState":{"key":"08","name":"Baden-Württemberg"}},{"name":"Ortsstr.","postalCode":"79801","locality":"Hohentengen am Hochrhein","municipality":{"key":"08337053","name":"Hohentengen am Hochrhein","type":"Kreisangehörige_Gemeinde"},"district":{"key":"08337","name":"Waldshut","type":"Landkreis"},"federalState":{"key":"08","name":"Baden-Württemberg"}},{"name":"Ostrachweg","postalCode":"88367","locality":"Hohentengen","municipality":{"key":"08437053","name":"Hohentengen","type":"Kreisangehörige_Gemeinde"},"district":{"key":"08437","name":"Sigmaringen","type":"Landkreis"},"federalState":{"key":"08","name":"Baden-Württemberg"}},{"name":"Oswaldstr.","postalCode":"79801","locality":"Hohentengen am Hochrhein","municipality":{"key":"08337053","name":"Hohentengen am Hochrhein","type":"Kreisangehörige_Gemeinde"},"district":{"key":"08337","name":"Waldshut","type":"Landkreis"},"federalState":{"key":"08","name":"Baden-Württemberg"}},{"name":"Pfarrbuck","postalCode":"79801","locality":"Hohentengen am Hochrhein","municipality":{"key":"08337053","name":"Hohentengen am Hochrhein","type":"Kreisangehörige_Gemeinde"},"district":{"key":"08337","name":"Waldshut","type":"Landkreis"},"federalState":{"key":"08","name":"Baden-Württemberg"}},{"name":"Pfarrer-Raifel-Weg","postalCode":"88367","locality":"Hohentengen","municipality":{"key":"08437053","name":"Hohentengen","type":"Kreisangehörige_Gemeinde"},"district":{"key":"08437","name":"Sigmaringen","type":"Landkreis"},"federalState":{"key":"08","name":"Baden-Württemberg"}},{"name":"Pfarrgartenweg","postalCode":"79801","locality":"Hohentengen am Hochrhein","municipality":{"key":"08337053","name":"Hohentengen am Hochrhein","type":"Kreisangehörige_Gemeinde"},"district":{"key":"08337","name":"Waldshut","type":"Landkreis"},"federalState":{"key":"08","name":"Baden-Württemberg"}},{"name":"Poststr.","postalCode":"78250","locality":"Tengen","municipality":{"key":"08335080","name":"Tengen, Stadt","type":"Stadt"},"district":{"key":"08335","name":"Konstanz","type":"Landkreis"},"federalState":{"key":"08","name":"Baden-Württemberg"}},{"name":"Quellstr.","postalCode":"78250","locality":"Tengen","municipality":{"key":"08335080","name":"Tengen, Stadt","type":"Stadt"},"district":{"key":"08335","name":"Konstanz","type":"Landkreis"},"federalState":{"key":"08","name":"Baden-Württemberg"}},{"name":"Radweg Blumenfeld - Watterdingen","postalCode":"78250","locality":"Tengen","municipality":{"key":"08335080","name":"Tengen, Stadt","type":"Stadt"},"district":{"key":"08335","name":"Konstanz","type":"Landkreis"},"federalState":{"key":"08","name":"Baden-Württemberg"}},{"name":"Randenstr.","postalCode":"78250","locality":"Tengen","municipality":{"key":"08335080","name":"Tengen, Stadt","type":"Stadt"},"district":{"key":"08335","name":"Konstanz","type":"Landkreis"},"federalState":{"key":"08","name":"Baden-Württemberg"}},{"name":"Rathausstr.","postalCode":"78250","locality":"Tengen","municipality":{"key":"08335080","name":"Tengen, Stadt","type":"Stadt"},"district":{"key":"08335","name":"Konstanz","type":"Landkreis"},"federalState":{"key":"08","name":"Baden-Württemberg"}},{"name":"Raunsgasse","postalCode":"88367","locality":"Hohentengen","municipality":{"key":"08437053","name":"Hohentengen","type":"Kreisangehörige_Gemeinde"},"district":{"key":"08437","name":"Sigmaringen","type":"Landkreis"},"federalState":{"key":"08","name":"Baden-Württemberg"}},{"name":"Rebenstr.","postalCode":"78250","locality":"Tengen","municipality":{"key":"08335080","name":"Tengen, Stadt","type":"Stadt"},"district":{"key":"08335","name":"Konstanz","type":"Landkreis"},"federalState":{"key":"08","name":"Baden-Württemberg"}},{"name":"Rebhalde","postalCode":"79801","locality":"Hohentengen am Hochrhein","municipality":{"key":"08337053","name":"Hohentengen am Hochrhein","type":"Kreisangehörige_Gemeinde"},"district":{"key":"08337","name":"Waldshut","type":"Landkreis"},"federalState":{"key":"08","name":"Baden-Württemberg"}},{"name":"Rheinhalde","postalCode":"79801","locality":"Hohentengen am Hochrhein","municipality":{"key":"08337053","name":"Hohentengen am Hochrhein","type":"Kreisangehörige_Gemeinde"},"district":{"key":"08337","name":"Waldshut","type":"Landkreis"},"federalState":{"key":"08","name":"Baden-Württemberg"}},{"name":"Rheinstr.","postalCode":"79801","locality":"Hohentengen am Hochrhein","municipality":{"key":"08337053","name":"Hohentengen am Hochrhein","type":"Kreisangehörige_Gemeinde"},"district":{"key":"08337","name":"Waldshut","type":"Landkreis"},"federalState":{"key":"08","name":"Baden-Württemberg"}},{"name":"Rheintalstr.","postalCode":"79801","locality":"Hohentengen am Hochrhein","municipality":{"key":"08337053","name":"Hohentengen am Hochrhein","type":"Kreisangehörige_Gemeinde"},"district":{"key":"08337","name":"Waldshut","type":"Landkreis"},"federalState":{"key":"08","name":"Baden-Württemberg"}},{"name":"Riederweg","postalCode":"78250","locality":"Tengen","municipality":{"key":"08335080","name":"Tengen, Stadt","type":"Stadt"},"district":{"key":"08335","name":"Konstanz","type":"Landkreis"},"federalState":{"key":"08","name":"Baden-Württemberg"}},{"name":"Riedstr.","postalCode":"78250","locality":"Tengen","municipality":{"key":"08335080","name":"Tengen, Stadt","type":"Stadt"},"district":{"key":"08335","name":"Konstanz","type":"Landkreis"},"federalState":{"key":"08","name":"Baden-Württemberg"}},{"name":"Ringstr.","postalCode":"78250","locality":"Tengen","municipality":{"key":"08335080","name":"Tengen, Stadt","type":"Stadt"},"district":{"key":"08335","name":"Konstanz","type":"Landkreis"},"federalState":{"key":"08","name":"Baden-Württemberg"}},{"name":"Ringstr.","postalCode":"88367","locality":"Hohentengen","municipality":{"key":"08437053","name":"Hohentengen","type":"Kreisangehörige_Gemeinde"},"district":{"key":"08437","name":"Sigmaringen","type":"Landkreis"},"federalState":{"key":"08","name":"Baden-Württemberg"}},{"name":"Roggenäcker","postalCode":"79801","locality":"Hohentengen am Hochrhein","municipality":{"key":"08337053","name":"Hohentengen am Hochrhein","type":"Kreisangehörige_Gemeinde"},"district":{"key":"08337","name":"Waldshut","type":"Landkreis"},"federalState":{"key":"08","name":"Baden-Württemberg"}},{"name":"Rohrertalstr.","postalCode":"78250","locality":"Tengen","municipality":{"key":"08335080","name":"Tengen, Stadt","type":"Stadt"},"district":{"key":"08335","name":"Konstanz","type":"Landkreis"},"federalState":{"key":"08","name":"Baden-Württemberg"}},{"name":"Römerstr.","postalCode":"78250","locality":"Tengen","municipality":{"key":"08335080","name":"Tengen, Stadt","type":"Stadt"},"district":{"key":"08335","name":"Konstanz","type":"Landkreis"},"federalState":{"key":"08","name":"Baden-Württemberg"}},{"name":"Roosäcker","postalCode":"78250","locality":"Tengen","municipality":{"key":"08335080","name":"Tengen, Stadt","type":"Stadt"},"district":{"key":"08335","name":"Konstanz","type":"Landkreis"},"federalState":{"key":"08","name":"Baden-Württemberg"}},{"name":"Rosenweg","postalCode":"88367","locality":"Hohentengen","municipality":{"key":"08437053","name":"Hohentengen","type":"Kreisangehörige_Gemeinde"},"district":{"key":"08437","name":"Sigmaringen","type":"Landkreis"},"federalState":{"key":"08","name":"Baden-Württemberg"}},{"name":"Rosnaer Weg","postalCode":"88367","locality":"Hohentengen","municipality":{"key":"08437053","name":"Hohentengen","type":"Kreisangehörige_Gemeinde"},"district":{"key":"08437","name":"Sigmaringen","type":"Landkreis"},"federalState":{"key":"08","name":"Baden-Württemberg"}},{"name":"Rügistr.","postalCode":"79801","locality":"Hohentengen am Hochrhein","municipality":{"key":"08337053","name":"Hohentengen am Hochrhein","type":"Kreisangehörige_Gemeinde"},"district":{"key":"08337","name":"Waldshut","type":"Landkreis"},"federalState":{"key":"08","name":"Baden-Württemberg"}},{"name":"Rümikoner Str.","postalCode":"79801","locality":"Hohentengen am Hochrhein","municipality":{"key":"08337053","name":"Hohentengen am Hochrhein","type":"Kreisangehörige_Gemeinde"},"district":{"key":"08337","name":"Waldshut","type":"Landkreis"},"federalState":{"key":"08","name":"Baden-Württemberg"}},{"name":"Rütteweg","postalCode":"78250","locality":"Tengen","municipality":{"key":"08335080","name":"Tengen, Stadt","type":"Stadt"},"district":{"key":"08335","name":"Konstanz","type":"Landkreis"},"federalState":{"key":"08","name":"Baden-Württemberg"}},{"name":"Saatschulweg","postalCode":"78250","locality":"Tengen","municipality":{"key":"08335080","name":"Tengen, Stadt","type":"Stadt"},"district":{"key":"08335","name":"Konstanz","type":"Landkreis"},"federalState":{"key":"08","name":"Baden-Württemberg"}},{"name":"Sägmühlweg","postalCode":"88367","locality":"Hohentengen","municipality":{"key":"08437053","name":"Hohentengen","type":"Kreisangehörige_Gemeinde"},"district":{"key":"08437","name":"Sigmaringen","type":"Landkreis"},"federalState":{"key":"08","name":"Baden-Württemberg"}},{"name":"Sämlingweg","postalCode":"88367","locality":"Hohentengen","municipality":{"key":"08437053","name":"Hohentengen","type":"Kreisangehörige_Gemeinde"},"district":{"key":"08437","name":"Sigmaringen","type":"Landkreis"},"federalState":{"key":"08","name":"Baden-Württemberg"}},{"name":"Sandhof","postalCode":"79801","locality":"Hohentengen am Hochrhein","municipality":{"key":"08337053","name":"Hohentengen am Hochrhein","type":"Kreisangehörige_Gemeinde"},"district":{"key":"08337","name":"Waldshut","type":"Landkreis"},"federalState":{"key":"08","name":"Baden-Württemberg"}},{"name":"Sandweg","postalCode":"78250","locality":"Tengen","municipality":{"key":"08335080","name":"Tengen, Stadt","type":"Stadt"},"district":{"key":"08335","name":"Konstanz","type":"Landkreis"},"federalState":{"key":"08","name":"Baden-Württemberg"}},{"name":"Schaffhausener Weg","postalCode":"78250","locality":"Tengen","municipality":{"key":"08335080","name":"Tengen, Stadt","type":"Stadt"},"district":{"key":"08335","name":"Konstanz","type":"Landkreis"},"federalState":{"key":"08","name":"Baden-Württemberg"}},{"name":"Schaffhauser Str.","postalCode":"78250","locality":"Tengen","municipality":{"key":"08335080","name":"Tengen, Stadt","type":"Stadt"},"district":{"key":"08335","name":"Konstanz","type":"Landkreis"},"federalState":{"key":"08","name":"Baden-Württemberg"}},{"name":"Schaffhauser Str.","postalCode":"79801","locality":"Hohentengen am Hochrhein","municipality":{"key":"08337053","name":"Hohentengen am Hochrhein","type":"Kreisangehörige_Gemeinde"},"district":{"key":"08337","name":"Waldshut","type":"Landkreis"},"federalState":{"key":"08","name":"Baden-Württemberg"}},{"name":"Schillerstr.","postalCode":"88367","locality":"Hohentengen","municipality":{"key":"08437053","name":"Hohentengen","type":"Kreisangehörige_Gemeinde"},"district":{"key":"08437","name":"Sigmaringen","type":"Landkreis"},"federalState":{"key":"08","name":"Baden-Württemberg"}},{"name":"Schindelgasse","postalCode":"88367","locality":"Hohentengen","municipality":{"key":"08437053","name":"Hohentengen","type":"Kreisangehörige_Gemeinde"},"district":{"key":"08437","name":"Sigmaringen","type":"Landkreis"},"federalState":{"key":"08","name":"Baden-Württemberg"}},{"name":"Schlachthausstr.","postalCode":"78250","locality":"Tengen","municipality":{"key":"08335080","name":"Tengen, Stadt","type":"Stadt"},"district":{"key":"08335","name":"Konstanz","type":"Landkreis"},"federalState":{"key":"08","name":"Baden-Württemberg"}},{"name":"Schlatter Str.","postalCode":"78250","locality":"Tengen","municipality":{"key":"08335080","name":"Tengen, Stadt","type":"Stadt"},"district":{"key":"08335","name":"Konstanz","type":"Landkreis"},"federalState":{"key":"08","name":"Baden-Württemberg"}},{"name":"Schlauchstr.","postalCode":"78250","locality":"Tengen","municipality":{"key":"08335080","name":"Tengen, Stadt","type":"Stadt"},"district":{"key":"08335","name":"Konstanz","type":"Landkreis"},"federalState":{"key":"08","name":"Baden-Württemberg"}},{"name":"Schlossblick","postalCode":"78250","locality":"Tengen","municipality":{"key":"08335080","name":"Tengen, Stadt","type":"Stadt"},"district":{"key":"08335","name":"Konstanz","type":"Landkreis"},"federalState":{"key":"08","name":"Baden-Württemberg"}},{"name":"Schloss-Rötteln-Weg","postalCode":"79801","locality":"Hohentengen am Hochrhein","municipality":{"key":"08337053","name":"Hohentengen am Hochrhein","type":"Kreisangehörige_Gemeinde"},"district":{"key":"08337","name":"Waldshut","type":"Landkreis"},"federalState":{"key":"08","name":"Baden-Württemberg"}},{"name":"Schlossweg","postalCode":"79801","locality":"Hohentengen am Hochrhein","municipality":{"key":"08337053","name":"Hohentengen am Hochrhein","type":"Kreisangehörige_Gemeinde"},"district":{"key":"08337","name":"Waldshut","type":"Landkreis"},"federalState":{"key":"08","name":"Baden-Württemberg"}},{"name":"Schmiedgasse","postalCode":"78250","locality":"Tengen","municipality":{"key":"08335080","name":"Tengen, Stadt","type":"Stadt"},"district":{"key":"08335","name":"Konstanz","type":"Landkreis"},"federalState":{"key":"08","name":"Baden-Württemberg"}},{"name":"Schmiedgasse","postalCode":"88367","locality":"Hohentengen","municipality":{"key":"08437053","name":"Hohentengen","type":"Kreisangehörige_Gemeinde"},"district":{"key":"08437","name":"Sigmaringen","type":"Landkreis"},"federalState":{"key":"08","name":"Baden-Württemberg"}},{"name":"Schönbühlstr.","postalCode":"78250","locality":"Tengen","municipality":{"key":"08335080","name":"Tengen, Stadt","type":"Stadt"},"district":{"key":"08335","name":"Konstanz","type":"Landkreis"},"federalState":{"key":"08","name":"Baden-Württemberg"}},{"name":"Schubertstr.","postalCode":"88367","locality":"Hohentengen","municipality":{"key":"08437053","name":"Hohentengen","type":"Kreisangehörige_Gemeinde"},"district":{"key":"08437","name":"Sigmaringen","type":"Landkreis"},"federalState":{"key":"08","name":"Baden-Württemberg"}},{"name":"Schulstr.","postalCode":"78250","locality":"Tengen","municipality":{"key":"08335080","name":"Tengen, Stadt","type":"Stadt"},"district":{"key":"08335","name":"Konstanz","type":"Landkreis"},"federalState":{"key":"08","name":"Baden-Württemberg"}},{"name":"Schulstr.","postalCode":"79801","locality":"Hohentengen am Hochrhein","municipality":{"key":"08337053","name":"Hohentengen am Hochrhein","type":"Kreisangehörige_Gemeinde"},"district":{"key":"08337","name":"Waldshut","type":"Landkreis"},"federalState":{"key":"08","name":"Baden-Württemberg"}},{"name":"Schulstr.","postalCode":"88367","locality":"Hohentengen","municipality":{"key":"08437053","name":"Hohentengen","type":"Kreisangehörige_Gemeinde"},"district":{"key":"08437","name":"Sigmaringen","type":"Landkreis"},"federalState":{"key":"08","name":"Baden-Württemberg"}},{"name":"Schultheiß-Sommer-Weg","postalCode":"88367","locality":"Hohentengen","municipality":{"key":"08437053","name":"Hohentengen","type":"Kreisangehörige_Gemeinde"},"district":{"key":"08437","name":"Sigmaringen","type":"Landkreis"},"federalState":{"key":"08","name":"Baden-Württemberg"}},{"name":"Schützenweg","postalCode":"88367","locality":"Hohentengen","municipality":{"key":"08437053","name":"Hohentengen","type":"Kreisangehörige_Gemeinde"},"district":{"key":"08437","name":"Sigmaringen","type":"Landkreis"},"federalState":{"key":"08","name":"Baden-Württemberg"}},{"name":"Schwanengässle","postalCode":"88367","locality":"Hohentengen","municipality":{"key":"08437053","name":"Hohentengen","type":"Kreisangehörige_Gemeinde"},"district":{"key":"08437","name":"Sigmaringen","type":"Landkreis"},"federalState":{"key":"08","name":"Baden-Württemberg"}},{"name":"Schwarzwaldstr.","postalCode":"78250","locality":"Tengen","municipality":{"key":"08335080","name":"Tengen, Stadt","type":"Stadt"},"district":{"key":"08335","name":"Konstanz","type":"Landkreis"},"federalState":{"key":"08","name":"Baden-Württemberg"}},{"name":"Seilerweg","postalCode":"78250","locality":"Tengen","municipality":{"key":"08335080","name":"Tengen, Stadt","type":"Stadt"},"district":{"key":"08335","name":"Konstanz","type":"Landkreis"},"federalState":{"key":"08","name":"Baden-Württemberg"}},{"name":"Silberhärte","postalCode":"88367","locality":"Hohentengen","municipality":{"key":"08437053","name":"Hohentengen","type":"Kreisangehörige_Gemeinde"},"district":{"key":"08437","name":"Sigmaringen","type":"Landkreis"},"federalState":{"key":"08","name":"Baden-Württemberg"}},{"name":"Sonnenhalde","postalCode":"88367","locality":"Hohentengen","municipality":{"key":"08437053","name":"Hohentengen","type":"Kreisangehörige_Gemeinde"},"district":{"key":"08437","name":"Sigmaringen","type":"Landkreis"},"federalState":{"key":"08","name":"Baden-Württemberg"}},{"name":"Sonnenrain","postalCode":"79801","locality":"Hohentengen am Hochrhein","municipality":{"key":"08337053","name":"Hohentengen am Hochrhein","type":"Kreisangehörige_Gemeinde"},"district":{"key":"08337","name":"Waldshut","type":"Landkreis"},"federalState":{"key":"08","name":"Baden-Württemberg"}},{"name":"Sonnenstr.","postalCode":"78250","locality":"Tengen","municipality":{"key":"08335080","name":"Tengen, Stadt","type":"Stadt"},"district":{"key":"08335","name":"Konstanz","type":"Landkreis"},"federalState":{"key":"08","name":"Baden-Württemberg"}},{"name":"Spannerstr.","postalCode":"79801","locality":"Hohentengen am Hochrhein","municipality":{"key":"08337053","name":"Hohentengen am Hochrhein","type":"Kreisangehörige_Gemeinde"},"district":{"key":"08337","name":"Waldshut","type":"Landkreis"},"federalState":{"key":"08","name":"Baden-Württemberg"}},{"name":"Sportplatzstr.","postalCode":"88367","locality":"Hohentengen","municipality":{"key":"08437053","name":"Hohentengen","type":"Kreisangehörige_Gemeinde"},"district":{"key":"08437","name":"Sigmaringen","type":"Landkreis"},"federalState":{"key":"08","name":"Baden-Württemberg"}},{"name":"Sportplatzweg","postalCode":"79801","locality":"Hohentengen am Hochrhein","municipality":{"key":"08337053","name":"Hohentengen am Hochrhein","type":"Kreisangehörige_Gemeinde"},"district":{"key":"08337","name":"Waldshut","type":"Landkreis"},"federalState":{"key":"08","name":"Baden-Württemberg"}},{"name":"Staatshaldenweg","postalCode":"78250","locality":"Tengen","municipality":{"key":"08335080","name":"Tengen, Stadt","type":"Stadt"},"district":{"key":"08335","name":"Konstanz","type":"Landkreis"},"federalState":{"key":"08","name":"Baden-Württemberg"}},{"name":"Stadtstr.","postalCode":"78250","locality":"Tengen","municipality":{"key":"08335080","name":"Tengen, Stadt","type":"Stadt"},"district":{"key":"08335","name":"Konstanz","type":"Landkreis"},"federalState":{"key":"08","name":"Baden-Württemberg"}},{"name":"St.-Agatha-Str.","postalCode":"88367","locality":"Hohentengen","municipality":{"key":"08437053","name":"Hohentengen","type":"Kreisangehörige_Gemeinde"},"district":{"key":"08437","name":"Sigmaringen","type":"Landkreis"},"federalState":{"key":"08","name":"Baden-Württemberg"}},{"name":"St.-Antonius-Str.","postalCode":"88367","locality":"Hohentengen","municipality":{"key":"08437053","name":"Hohentengen","type":"Kreisangehörige_Gemeinde"},"district":{"key":"08437","name":"Sigmaringen","type":"Landkreis"},"federalState":{"key":"08","name":"Baden-Württemberg"}},{"name":"Stauberstr.","postalCode":"79801","locality":"Hohentengen am Hochrhein","municipality":{"key":"08337053","name":"Hohentengen am Hochrhein","type":"Kreisangehörige_Gemeinde"},"district":{"key":"08337","name":"Waldshut","type":"Landkreis"},"federalState":{"key":"08","name":"Baden-Württemberg"}},{"name":"Stauffenbergstr.","postalCode":"78250","locality":"Tengen","municipality":{"key":"08335080","name":"Tengen, Stadt","type":"Stadt"},"district":{"key":"08335","name":"Konstanz","type":"Landkreis"},"federalState":{"key":"08","name":"Baden-Württemberg"}},{"name":"Steige","postalCode":"88367","locality":"Hohentengen","municipality":{"key":"08437053","name":"Hohentengen","type":"Kreisangehörige_Gemeinde"},"district":{"key":"08437","name":"Sigmaringen","type":"Landkreis"},"federalState":{"key":"08","name":"Baden-Württemberg"}},{"name":"Steigleweg","postalCode":"79801","locality":"Hohentengen am Hochrhein","municipality":{"key":"08337053","name":"Hohentengen am Hochrhein","type":"Kreisangehörige_Gemeinde"},"district":{"key":"08337","name":"Waldshut","type":"Landkreis"},"federalState":{"key":"08","name":"Baden-Württemberg"}},{"name":"Steigstr.","postalCode":"79801","locality":"Hohentengen am Hochrhein","municipality":{"key":"08337053","name":"Hohentengen am Hochrhein","type":"Kreisangehörige_Gemeinde"},"district":{"key":"08337","name":"Waldshut","type":"Landkreis"},"federalState":{"key":"08","name":"Baden-Württemberg"}},{"name":"Steinbruchweg","postalCode":"78250","locality":"Tengen","municipality":{"key":"08335080","name":"Tengen, Stadt","type":"Stadt"},"district":{"key":"08335","name":"Konstanz","type":"Landkreis"},"federalState":{"key":"08","name":"Baden-Württemberg"}},{"name":"Steingrubenstr.","postalCode":"88367","locality":"Hohentengen","municipality":{"key":"08437053","name":"Hohentengen","type":"Kreisangehörige_Gemeinde"},"district":{"key":"08437","name":"Sigmaringen","type":"Landkreis"},"federalState":{"key":"08","name":"Baden-Württemberg"}},{"name":"STEINRÜTTENWEG","postalCode":"79801","locality":"Hohentengen am Hochrhein","municipality":{"key":"08337053","name":"Hohentengen am Hochrhein","type":"Kreisangehörige_Gemeinde"},"district":{"key":"08337","name":"Waldshut","type":"Landkreis"},"federalState":{"key":"08","name":"Baden-Württemberg"}},{"name":"Stettener Str.","postalCode":"79801","locality":"Hohentengen am Hochrhein","municipality":{"key":"08337053","name":"Hohentengen am Hochrhein","type":"Kreisangehörige_Gemeinde"},"district":{"key":"08337","name":"Waldshut","type":"Landkreis"},"federalState":{"key":"08","name":"Baden-Württemberg"}},{"name":"Stiglerstr.","postalCode":"79801","locality":"Hohentengen am Hochrhein","municipality":{"key":"08337053","name":"Hohentengen am Hochrhein","type":"Kreisangehörige_Gemeinde"},"district":{"key":"08337","name":"Waldshut","type":"Landkreis"},"federalState":{"key":"08","name":"Baden-Württemberg"}},{"name":"Stihl-Str.","postalCode":"78250","locality":"Tengen","municipality":{"key":"08335080","name":"Tengen, Stadt","type":"Stadt"},"district":{"key":"08335","name":"Konstanz","type":"Landkreis"},"federalState":{"key":"08","name":"Baden-Württemberg"}},{"name":"Tafertsweiler Str.","postalCode":"88367","locality":"Hohentengen","municipality":{"key":"08437053","name":"Hohentengen","type":"Kreisangehörige_Gemeinde"},"district":{"key":"08437","name":"Sigmaringen","type":"Landkreis"},"federalState":{"key":"08","name":"Baden-Württemberg"}},{"name":"Talbachstr.","postalCode":"79801","locality":"Hohentengen am Hochrhein","municipality":{"key":"08337053","name":"Hohentengen am Hochrhein","type":"Kreisangehörige_Gemeinde"},"district":{"key":"08337","name":"Waldshut","type":"Landkreis"},"federalState":{"key":"08","name":"Baden-Württemberg"}},{"name":"Talhofweg","postalCode":"78250","locality":"Tengen","municipality":{"key":"08335080","name":"Tengen, Stadt","type":"Stadt"},"district":{"key":"08335","name":"Konstanz","type":"Landkreis"},"federalState":{"key":"08","name":"Baden-Württemberg"}},{"name":"Tannenhalde","postalCode":"78250","locality":"Tengen","municipality":{"key":"08335080","name":"Tengen, Stadt","type":"Stadt"},"district":{"key":"08335","name":"Konstanz","type":"Landkreis"},"federalState":{"key":"08","name":"Baden-Württemberg"}},{"name":"Tonweg","postalCode":"78250","locality":"Tengen","municipality":{"key":"08335080","name":"Tengen, Stadt","type":"Stadt"},"district":{"key":"08335","name":"Konstanz","type":"Landkreis"},"federalState":{"key":"08","name":"Baden-Württemberg"}},{"name":"Tulpenweg","postalCode":"88367","locality":"Hohentengen","municipality":{"key":"08437053","name":"Hohentengen","type":"Kreisangehörige_Gemeinde"},"district":{"key":"08437","name":"Sigmaringen","type":"Landkreis"},"federalState":{"key":"08","name":"Baden-Württemberg"}},{"name":"Uhlandstr.","postalCode":"88367","locality":"Hohentengen","municipality":{"key":"08437053","name":"Hohentengen","type":"Kreisangehörige_Gemeinde"},"district":{"key":"08437","name":"Sigmaringen","type":"Landkreis"},"federalState":{"key":"08","name":"Baden-Württemberg"}},{"name":"Unter der Halde","postalCode":"88367","locality":"Hohentengen","municipality":{"key":"08437053","name":"Hohentengen","type":"Kreisangehörige_Gemeinde"},"district":{"key":"08437","name":"Sigmaringen","type":"Landkreis"},"federalState":{"key":"08","name":"Baden-Württemberg"}},{"name":"Unterdorfstr.","postalCode":"78250","locality":"Tengen","municipality":{"key":"08335080","name":"Tengen, Stadt","type":"Stadt"},"district":{"key":"08335","name":"Konstanz","type":"Landkreis"},"federalState":{"key":"08","name":"Baden-Württemberg"}},{"name":"Unterer Josumsattweg","postalCode":"78250","locality":"Tengen","municipality":{"key":"08335080","name":"Tengen, Stadt","type":"Stadt"},"district":{"key":"08335","name":"Konstanz","type":"Landkreis"},"federalState":{"key":"08","name":"Baden-Württemberg"}},{"name":"Unterer Querweg","postalCode":"78250","locality":"Tengen","municipality":{"key":"08335080","name":"Tengen, Stadt","type":"Stadt"},"district":{"key":"08335","name":"Konstanz","type":"Landkreis"},"federalState":{"key":"08","name":"Baden-Württemberg"}},{"name":"Ursendorfer Str.","postalCode":"88367","locality":"Hohentengen","municipality":{"key":"08437053","name":"Hohentengen","type":"Kreisangehörige_Gemeinde"},"district":{"key":"08437","name":"Sigmaringen","type":"Landkreis"},"federalState":{"key":"08","name":"Baden-Württemberg"}},{"name":"Vogtstr.","postalCode":"78250","locality":"Tengen","municipality":{"key":"08335080","name":"Tengen, Stadt","type":"Stadt"},"district":{"key":"08335","name":"Konstanz","type":"Landkreis"},"federalState":{"key":"08","name":"Baden-Württemberg"}},{"name":"Völlkofer Str.","postalCode":"88367","locality":"Hohentengen","municipality":{"key":"08437053","name":"Hohentengen","type":"Kreisangehörige_Gemeinde"},"district":{"key":"08437","name":"Sigmaringen","type":"Landkreis"},"federalState":{"key":"08","name":"Baden-Württemberg"}},{"name":"Vor Hägin","postalCode":"78250","locality":"Tengen","municipality":{"key":"08335080","name":"Tengen, Stadt","type":"Stadt"},"district":{"key":"08335","name":"Konstanz","type":"Landkreis"},"federalState":{"key":"08","name":"Baden-Württemberg"}},{"name":"Waldeckstr.","postalCode":"79801","locality":"Hohentengen am Hochrhein","municipality":{"key":"08337053","name":"Hohentengen am Hochrhein","type":"Kreisangehörige_Gemeinde"},"district":{"key":"08337","name":"Waldshut","type":"Landkreis"},"federalState":{"key":"08","name":"Baden-Württemberg"}},{"name":"Waldshuter Str.","postalCode":"78250","locality":"Tengen","municipality":{"key":"08335080","name":"Tengen, Stadt","type":"Stadt"},"district":{"key":"08335","name":"Konstanz","type":"Landkreis"},"federalState":{"key":"08","name":"Baden-Württemberg"}},{"name":"Waldstr.","postalCode":"78250","locality":"Tengen","municipality":{"key":"08335080","name":"Tengen, Stadt","type":"Stadt"},"district":{"key":"08335","name":"Konstanz","type":"Landkreis"},"federalState":{"key":"08","name":"Baden-Württemberg"}},{"name":"Wannenbergstr.","postalCode":"79801","locality":"Hohentengen am Hochrhein","municipality":{"key":"08337053","name":"Hohentengen am Hochrhein","type":"Kreisangehörige_Gemeinde"},"district":{"key":"08337","name":"Waldshut","type":"Landkreis"},"federalState":{"key":"08","name":"Baden-Württemberg"}},{"name":"Wannenstr.","postalCode":"78250","locality":"Tengen","municipality":{"key":"08335080","name":"Tengen, Stadt","type":"Stadt"},"district":{"key":"08335","name":"Konstanz","type":"Landkreis"},"federalState":{"key":"08","name":"Baden-Württemberg"}},{"name":"Webergasse","postalCode":"88367","locality":"Hohentengen","municipality":{"key":"08437053","name":"Hohentengen","type":"Kreisangehörige_Gemeinde"},"district":{"key":"08437","name":"Sigmaringen","type":"Landkreis"},"federalState":{"key":"08","name":"Baden-Württemberg"}},{"name":"Weberstr.","postalCode":"79801","locality":"Hohentengen am Hochrhein","municipality":{"key":"08337053","name":"Hohentengen am Hochrhein","type":"Kreisangehörige_Gemeinde"},"district":{"key":"08337","name":"Waldshut","type":"Landkreis"},"federalState":{"key":"08","name":"Baden-Württemberg"}},{"name":"Weihergasse","postalCode":"88367","locality":"Hohentengen","municipality":{"key":"08437053","name":"Hohentengen","type":"Kreisangehörige_Gemeinde"},"district":{"key":"08437","name":"Sigmaringen","type":"Landkreis"},"federalState":{"key":"08","name":"Baden-Württemberg"}},{"name":"Weiherstr.","postalCode":"79801","locality":"Hohentengen am Hochrhein","municipality":{"key":"08337053","name":"Hohentengen am Hochrhein","type":"Kreisangehörige_Gemeinde"},"district":{"key":"08337","name":"Waldshut","type":"Landkreis"},"federalState":{"key":"08","name":"Baden-Württemberg"}},{"name":"Weilerstr.","postalCode":"79801","locality":"Hohentengen am Hochrhein","municipality":{"key":"08337053","name":"Hohentengen am Hochrhein","type":"Kreisangehörige_Gemeinde"},"district":{"key":"08337","name":"Waldshut","type":"Landkreis"},"federalState":{"key":"08","name":"Baden-Württemberg"}},{"name":"Weiler Weg","postalCode":"78250","locality":"Tengen","municipality":{"key":"08335080","name":"Tengen, Stadt","type":"Stadt"},"district":{"key":"08335","name":"Konstanz","type":"Landkreis"},"federalState":{"key":"08","name":"Baden-Württemberg"}},{"name":"Weinstr.","postalCode":"79801","locality":"Hohentengen am Hochrhein","municipality":{"key":"08337053","name":"Hohentengen am Hochrhein","type":"Kreisangehörige_Gemeinde"},"district":{"key":"08337","name":"Waldshut","type":"Landkreis"},"federalState":{"key":"08","name":"Baden-Württemberg"}},{"name":"Westlicher Mittelweg","postalCode":"79801","locality":"Hohentengen am Hochrhein","municipality":{"key":"08337053","name":"Hohentengen am Hochrhein","type":"Kreisangehörige_Gemeinde"},"district":{"key":"08337","name":"Waldshut","type":"Landkreis"},"federalState":{"key":"08","name":"Baden-Württemberg"}},{"name":"Wiedenstr.","postalCode":"79801","locality":"Hohentengen am Hochrhein","municipality":{"key":"08337053","name":"Hohentengen am Hochrhein","type":"Kreisangehörige_Gemeinde"},"district":{"key":"08337","name":"Waldshut","type":"Landkreis"},"federalState":{"key":"08","name":"Baden-Württemberg"}},{"name":"Wiesäcker","postalCode":"88367","locality":"Hohentengen","municipality":{"key":"08437053","name":"Hohentengen","type":"Kreisangehörige_Gemeinde"},"district":{"key":"08437","name":"Sigmaringen","type":"Landkreis"},"federalState":{"key":"08","name":"Baden-Württemberg"}},{"name":"Wiesenstr.","postalCode":"78250","locality":"Tengen","municipality":{"key":"08335080","name":"Tengen, Stadt","type":"Stadt"},"district":{"key":"08335","name":"Konstanz","type":"Landkreis"},"federalState":{"key":"08","name":"Baden-Württemberg"}},{"name":"Wiesenstr.","postalCode":"79801","locality":"Hohentengen am Hochrhein","municipality":{"key":"08337053","name":"Hohentengen am Hochrhein","type":"Kreisangehörige_Gemeinde"},"district":{"key":"08337","name":"Waldshut","type":"Landkreis"},"federalState":{"key":"08","name":"Baden-Württemberg"}},{"name":"Wiesflecken","postalCode":"88367","locality":"Hohentengen","municipality":{"key":"08437053","name":"Hohentengen","type":"Kreisangehörige_Gemeinde"},"district":{"key":"08437","name":"Sigmaringen","type":"Landkreis"},"federalState":{"key":"08","name":"Baden-Württemberg"}},{"name":"Winkelstr.","postalCode":"79801","locality":"Hohentengen am Hochrhein","municipality":{"key":"08337053","name":"Hohentengen am Hochrhein","type":"Kreisangehörige_Gemeinde"},"district":{"key":"08337","name":"Waldshut","type":"Landkreis"},"federalState":{"key":"08","name":"Baden-Württemberg"}},{"name":"Winkelstr.","postalCode":"88367","locality":"Hohentengen","municipality":{"key":"08437053","name":"Hohentengen","type":"Kreisangehörige_Gemeinde"},"district":{"key":"08437","name":"Sigmaringen","type":"Landkreis"},"federalState":{"key":"08","name":"Baden-Württemberg"}},{"name":"Wuhr","postalCode":"88367","locality":"Hohentengen","municipality":{"key":"08437053","name":"Hohentengen","type":"Kreisangehörige_Gemeinde"},"district":{"key":"08437","name":"Sigmaringen","type":"Landkreis"},"federalState":{"key":"08","name":"Baden-Württemberg"}},{"name":"Zelglestr.","postalCode":"78250","locality":"Tengen","municipality":{"key":"08335080","name":"Tengen, Stadt","type":"Stadt"},"district":{"key":"08335","name":"Konstanz","type":"Landkreis"},"federalState":{"key":"08","name":"Baden-Württemberg"}},{"name":"Ziegeleistr.","postalCode":"78250","locality":"Tengen","municipality":{"key":"08335080","name":"Tengen, Stadt","type":"Stadt"},"district":{"key":"08335","name":"Konstanz","type":"Landkreis"},"federalState":{"key":"08","name":"Baden-Württemberg"}},{"name":"Zollstr.","postalCode":"78250","locality":"Tengen","municipality":{"key":"08335080","name":"Tengen, Stadt","type":"Stadt"},"district":{"key":"08335","name":"Konstanz","type":"Landkreis"},"federalState":{"key":"08","name":"Baden-Württemberg"}},{"name":"Zum Egg","postalCode":"78250","locality":"Tengen","municipality":{"key":"08335080","name":"Tengen, Stadt","type":"Stadt"},"district":{"key":"08335","name":"Konstanz","type":"Landkreis"},"federalState":{"key":"08","name":"Baden-Württemberg"}},{"name":"Zum Junkholz","postalCode":"78250","locality":"Tengen","municipality":{"key":"08335080","name":"Tengen, Stadt","type":"Stadt"},"district":{"key":"08335","name":"Konstanz","type":"Landkreis"},"federalState":{"key":"08","name":"Baden-Württemberg"}},{"name":"Zum Rusterholz","postalCode":"78250","locality":"Tengen","municipality":{"key":"08335080","name":"Tengen, Stadt","type":"Stadt"},"district":{"key":"08335","name":"Konstanz","type":"Landkreis"},"federalState":{"key":"08","name":"Baden-Württemberg"}},{"name":"Zum Walmen","postalCode":"78250","locality":"Tengen","municipality":{"key":"08335080","name":"Tengen, Stadt","type":"Stadt"},"district":{"key":"08335","name":"Konstanz","type":"Landkreis"},"federalState":{"key":"08","name":"Baden-Württemberg"}},{"name":"Zwirgenweg","postalCode":"88367","locality":"Hohentengen","municipality":{"key":"08437053","name":"Hohentengen","type":"Kreisangehörige_Gemeinde"},"district":{"key":"08437","name":"Sigmaringen","type":"Landkreis"},"federalState":{"key":"08","name":"Baden-Württemberg"}},{"name":"Ölgasse","postalCode":"88367","locality":"Hohentengen","municipality":{"key":"08437053","name":"Hohentengen","type":"Kreisangehörige_Gemeinde"},"district":{"key":"08437","name":"Sigmaringen","type":"Landkreis"},"federalState":{"key":"08","name":"Baden-Württemberg"}},{"name":"Ölkofer Str.","postalCode":"88367","locality":"Hohentengen","municipality":{"key":"08437053","name":"Hohentengen","type":"Kreisangehörige_Gemeinde"},"district":{"key":"08437","name":"Sigmaringen","type":"Landkreis"},"federalState":{"key":"08","name":"Baden-Württemberg"}},{"name":"Österfeldstr.","postalCode":"88367","locality":"Hohentengen","municipality":{"key":"08437053","name":"Hohentengen","type":"Kreisangehörige_Gemeinde"},"district":{"key":"08437","name":"Sigmaringen","type":"Landkreis"},"federalState":{"key":"08","name":"Baden-Württemberg"}},{"name":"Überlinger Str.","postalCode":"78464","locality":"Konstanz","municipality":{"key":"08335043","name":"Konstanz, Universitätsstadt","type":"Große_Kreisstadt"},"district":{"key":"08335","name":"Konstanz","type":"Landkreis"},"federalState":{"key":"08","name":"Baden-Württemberg"}},]