[{"name":"Am Erdfall","postalCode":"99438","locality":"Tonndorf","municipality":{"key":"16071087","name":"Tonndorf","type":"Kreisangehörige_Gemeinde"},"district":{"key":"16071","name":"Weimarer Land","type":"Landkreis"},"federalState":{"key":"16","name":"Thüringen"}},{"name":"Am Ludwigsgarten","postalCode":"99438","locality":"Tonndorf","municipality":{"key":"16071087","name":"Tonndorf","type":"Kreisangehörige_Gemeinde"},"district":{"key":"16071","name":"Weimarer Land","type":"Landkreis"},"federalState":{"key":"16","name":"Thüringen"}},{"name":"Brauhausstr.","postalCode":"99438","locality":"Tonndorf","municipality":{"key":"16071087","name":"Tonndorf","type":"Kreisangehörige_Gemeinde"},"district":{"key":"16071","name":"Weimarer Land","type":"Landkreis"},"federalState":{"key":"16","name":"Thüringen"}},{"name":"Breitenstr.","postalCode":"99438","locality":"Tonndorf","municipality":{"key":"16071087","name":"Tonndorf","type":"Kreisangehörige_Gemeinde"},"district":{"key":"16071","name":"Weimarer Land","type":"Landkreis"},"federalState":{"key":"16","name":"Thüringen"}},{"name":"Galgenberg","postalCode":"99438","locality":"Tonndorf","municipality":{"key":"16071087","name":"Tonndorf","type":"Kreisangehörige_Gemeinde"},"district":{"key":"16071","name":"Weimarer Land","type":"Landkreis"},"federalState":{"key":"16","name":"Thüringen"}},{"name":"Kirchstr.","postalCode":"99438","locality":"Tonndorf","municipality":{"key":"16071087","name":"Tonndorf","type":"Kreisangehörige_Gemeinde"},"district":{"key":"16071","name":"Weimarer Land","type":"Landkreis"},"federalState":{"key":"16","name":"Thüringen"}},{"name":"Palmanger","postalCode":"99438","locality":"Tonndorf","municipality":{"key":"16071087","name":"Tonndorf","type":"Kreisangehörige_Gemeinde"},"district":{"key":"16071","name":"Weimarer Land","type":"Landkreis"},"federalState":{"key":"16","name":"Thüringen"}},{"name":"Schenkenstr.","postalCode":"99438","locality":"Tonndorf","municipality":{"key":"16071087","name":"Tonndorf","type":"Kreisangehörige_Gemeinde"},"district":{"key":"16071","name":"Weimarer Land","type":"Landkreis"},"federalState":{"key":"16","name":"Thüringen"}},{"name":"Schulstr.","postalCode":"99438","locality":"Tonndorf","municipality":{"key":"16071087","name":"Tonndorf","type":"Kreisangehörige_Gemeinde"},"district":{"key":"16071","name":"Weimarer Land","type":"Landkreis"},"federalState":{"key":"16","name":"Thüringen"}},{"name":"Schwedrich","postalCode":"99438","locality":"Tonndorf","municipality":{"key":"16071087","name":"Tonndorf","type":"Kreisangehörige_Gemeinde"},"district":{"key":"16071","name":"Weimarer Land","type":"Landkreis"},"federalState":{"key":"16","name":"Thüringen"}},{"name":"Töpferstr.","postalCode":"99438","locality":"Tonndorf","municipality":{"key":"16071087","name":"Tonndorf","type":"Kreisangehörige_Gemeinde"},"district":{"key":"16071","name":"Weimarer Land","type":"Landkreis"},"federalState":{"key":"16","name":"Thüringen"}},{"name":"Untere Töpferstr.","postalCode":"99438","locality":"Tonndorf","municipality":{"key":"16071087","name":"Tonndorf","type":"Kreisangehörige_Gemeinde"},"district":{"key":"16071","name":"Weimarer Land","type":"Landkreis"},"federalState":{"key":"16","name":"Thüringen"}},]