[{"name":"Ahrensfelder Str.","postalCode":"23847","locality":"Siebenbäumen","municipality":{"key":"01053118","name":"Siebenbäumen","type":"Kreisangehörige_Gemeinde"},"district":{"key":"01053","name":"Herzogtum Lauenburg","type":"Kreis"},"federalState":{"key":"01","name":"Schleswig-Holstein"}},{"name":"Am Hasenkrug","postalCode":"23847","locality":"Siebenbäumen","municipality":{"key":"01053118","name":"Siebenbäumen","type":"Kreisangehörige_Gemeinde"},"district":{"key":"01053","name":"Herzogtum Lauenburg","type":"Kreis"},"federalState":{"key":"01","name":"Schleswig-Holstein"}},{"name":"Am Kamp","postalCode":"23847","locality":"Siebenbäumen","municipality":{"key":"01053118","name":"Siebenbäumen","type":"Kreisangehörige_Gemeinde"},"district":{"key":"01053","name":"Herzogtum Lauenburg","type":"Kreis"},"federalState":{"key":"01","name":"Schleswig-Holstein"}},{"name":"Am Lehmberg","postalCode":"23847","locality":"Siebenbäumen","municipality":{"key":"01053118","name":"Siebenbäumen","type":"Kreisangehörige_Gemeinde"},"district":{"key":"01053","name":"Herzogtum Lauenburg","type":"Kreis"},"federalState":{"key":"01","name":"Schleswig-Holstein"}},{"name":"Auf der Hufe","postalCode":"23847","locality":"Siebenbäumen","municipality":{"key":"01053118","name":"Siebenbäumen","type":"Kreisangehörige_Gemeinde"},"district":{"key":"01053","name":"Herzogtum Lauenburg","type":"Kreis"},"federalState":{"key":"01","name":"Schleswig-Holstein"}},{"name":"Bahnhof Kastorf","postalCode":"23847","locality":"Siebenbäumen","municipality":{"key":"01053118","name":"Siebenbäumen","type":"Kreisangehörige_Gemeinde"},"district":{"key":"01053","name":"Herzogtum Lauenburg","type":"Kreis"},"federalState":{"key":"01","name":"Schleswig-Holstein"}},{"name":"Dorfstr.","postalCode":"23847","locality":"Siebenbäumen","municipality":{"key":"01053118","name":"Siebenbäumen","type":"Kreisangehörige_Gemeinde"},"district":{"key":"01053","name":"Herzogtum Lauenburg","type":"Kreis"},"federalState":{"key":"01","name":"Schleswig-Holstein"}},{"name":"Gösselbarg","postalCode":"23847","locality":"Siebenbäumen","municipality":{"key":"01053118","name":"Siebenbäumen","type":"Kreisangehörige_Gemeinde"},"district":{"key":"01053","name":"Herzogtum Lauenburg","type":"Kreis"},"federalState":{"key":"01","name":"Schleswig-Holstein"}},{"name":"Grinauer Weg","postalCode":"23847","locality":"Siebenbäumen","municipality":{"key":"01053118","name":"Siebenbäumen","type":"Kreisangehörige_Gemeinde"},"district":{"key":"01053","name":"Herzogtum Lauenburg","type":"Kreis"},"federalState":{"key":"01","name":"Schleswig-Holstein"}},{"name":"Groten Hof","postalCode":"23847","locality":"Siebenbäumen","municipality":{"key":"01053118","name":"Siebenbäumen","type":"Kreisangehörige_Gemeinde"},"district":{"key":"01053","name":"Herzogtum Lauenburg","type":"Kreis"},"federalState":{"key":"01","name":"Schleswig-Holstein"}},{"name":"Im Busch","postalCode":"23847","locality":"Siebenbäumen","municipality":{"key":"01053118","name":"Siebenbäumen","type":"Kreisangehörige_Gemeinde"},"district":{"key":"01053","name":"Herzogtum Lauenburg","type":"Kreis"},"federalState":{"key":"01","name":"Schleswig-Holstein"}},{"name":"Kaiserbahn","postalCode":"23847","locality":"Siebenbäumen","municipality":{"key":"01053118","name":"Siebenbäumen","type":"Kreisangehörige_Gemeinde"},"district":{"key":"01053","name":"Herzogtum Lauenburg","type":"Kreis"},"federalState":{"key":"01","name":"Schleswig-Holstein"}},{"name":"Kehrwieder","postalCode":"23847","locality":"Siebenbäumen","municipality":{"key":"01053118","name":"Siebenbäumen","type":"Kreisangehörige_Gemeinde"},"district":{"key":"01053","name":"Herzogtum Lauenburg","type":"Kreis"},"federalState":{"key":"01","name":"Schleswig-Holstein"}},{"name":"Klinkrader Weg","postalCode":"23847","locality":"Siebenbäumen","municipality":{"key":"01053118","name":"Siebenbäumen","type":"Kreisangehörige_Gemeinde"},"district":{"key":"01053","name":"Herzogtum Lauenburg","type":"Kreis"},"federalState":{"key":"01","name":"Schleswig-Holstein"}},{"name":"Mühlenstr.","postalCode":"23847","locality":"Siebenbäumen","municipality":{"key":"01053118","name":"Siebenbäumen","type":"Kreisangehörige_Gemeinde"},"district":{"key":"01053","name":"Herzogtum Lauenburg","type":"Kreis"},"federalState":{"key":"01","name":"Schleswig-Holstein"}},]