[{"name":"Ackerstr.","postalCode":"56294","locality":"Gappenach","municipality":{"key":"07137027","name":"Gappenach","type":"Kreisangehörige_Gemeinde"},"district":{"key":"07137","name":"Mayen-Koblenz","type":"Landkreis"},"federalState":{"key":"07","name":"Rheinland-Pfalz"}},{"name":"Adam und Eva Weg","postalCode":"91788","locality":"Pappenheim","municipality":{"key":"09577158","name":"Pappenheim, St","type":"Stadt"},"district":{"key":"09577","name":"Weißenburg-Gunzenhausen","type":"Landkreis"},"federalState":{"key":"09","name":"Bayern"}},{"name":"Adenauerstr.","postalCode":"74906","locality":"Bad Rappenau","municipality":{"key":"08125006","name":"Bad Rappenau, Stadt","type":"Große_Kreisstadt"},"district":{"key":"08125","name":"Heilbronn","type":"Landkreis"},"federalState":{"key":"08","name":"Baden-Württemberg"}},{"name":"Adersbacher Str.","postalCode":"74906","locality":"Bad Rappenau","municipality":{"key":"08125006","name":"Bad Rappenau, Stadt","type":"Große_Kreisstadt"},"district":{"key":"08125","name":"Heilbronn","type":"Landkreis"},"federalState":{"key":"08","name":"Baden-Württemberg"}},{"name":"Adlerstr.","postalCode":"74906","locality":"Bad Rappenau","municipality":{"key":"08125006","name":"Bad Rappenau, Stadt","type":"Große_Kreisstadt"},"district":{"key":"08125","name":"Heilbronn","type":"Landkreis"},"federalState":{"key":"08","name":"Baden-Württemberg"}},{"name":"Ahornstr.","postalCode":"24610","locality":"Trappenkamp","municipality":{"key":"01060089","name":"Trappenkamp","type":"Kreisangehörige_Gemeinde"},"district":{"key":"01060","name":"Segeberg","type":"Kreis"},"federalState":{"key":"01","name":"Schleswig-Holstein"}},{"name":"Ahornweg","postalCode":"74906","locality":"Bad Rappenau","municipality":{"key":"08125006","name":"Bad Rappenau, Stadt","type":"Große_Kreisstadt"},"district":{"key":"08125","name":"Heilbronn","type":"Landkreis"},"federalState":{"key":"08","name":"Baden-Württemberg"}},{"name":"Akazienweg","postalCode":"74906","locality":"Bad Rappenau","municipality":{"key":"08125006","name":"Bad Rappenau, Stadt","type":"Große_Kreisstadt"},"district":{"key":"08125","name":"Heilbronn","type":"Landkreis"},"federalState":{"key":"08","name":"Baden-Württemberg"}},{"name":"Albertstr.","postalCode":"77767","locality":"Appenweier","municipality":{"key":"08317005","name":"Appenweier","type":"Kreisangehörige_Gemeinde"},"district":{"key":"08317","name":"Ortenaukreis","type":"Landkreis"},"federalState":{"key":"08","name":"Baden-Württemberg"}},{"name":"Alemannenstr.","postalCode":"77767","locality":"Appenweier","municipality":{"key":"08317005","name":"Appenweier","type":"Kreisangehörige_Gemeinde"},"district":{"key":"08317","name":"Ortenaukreis","type":"Landkreis"},"federalState":{"key":"08","name":"Baden-Württemberg"}},{"name":"Almstr.","postalCode":"77767","locality":"Appenweier","municipality":{"key":"08317005","name":"Appenweier","type":"Kreisangehörige_Gemeinde"},"district":{"key":"08317","name":"Ortenaukreis","type":"Landkreis"},"federalState":{"key":"08","name":"Baden-Württemberg"}},{"name":"Almtweg","postalCode":"25482","locality":"Appen","municipality":{"key":"01056001","name":"Appen","type":"Kreisangehörige_Gemeinde"},"district":{"key":"01056","name":"Pinneberg","type":"Kreis"},"federalState":{"key":"01","name":"Schleswig-Holstein"}},{"name":"Am Auer Bichl","postalCode":"91788","locality":"Pappenheim","municipality":{"key":"09577158","name":"Pappenheim, St","type":"Stadt"},"district":{"key":"09577","name":"Weißenburg-Gunzenhausen","type":"Landkreis"},"federalState":{"key":"09","name":"Bayern"}},{"name":"Am Bach","postalCode":"74906","locality":"Bad Rappenau","municipality":{"key":"08125006","name":"Bad Rappenau, Stadt","type":"Große_Kreisstadt"},"district":{"key":"08125","name":"Heilbronn","type":"Landkreis"},"federalState":{"key":"08","name":"Baden-Württemberg"}},{"name":"Am Bahndamm","postalCode":"74906","locality":"Bad Rappenau","municipality":{"key":"08125006","name":"Bad Rappenau, Stadt","type":"Große_Kreisstadt"},"district":{"key":"08125","name":"Heilbronn","type":"Landkreis"},"federalState":{"key":"08","name":"Baden-Württemberg"}},{"name":"Am Bahnübergang","postalCode":"77767","locality":"Appenweier","municipality":{"key":"08317005","name":"Appenweier","type":"Kreisangehörige_Gemeinde"},"district":{"key":"08317","name":"Ortenaukreis","type":"Landkreis"},"federalState":{"key":"08","name":"Baden-Württemberg"}},{"name":"Am Berg","postalCode":"74906","locality":"Bad Rappenau","municipality":{"key":"08125006","name":"Bad Rappenau, Stadt","type":"Große_Kreisstadt"},"district":{"key":"08125","name":"Heilbronn","type":"Landkreis"},"federalState":{"key":"08","name":"Baden-Württemberg"}},{"name":"Am Berg","postalCode":"77767","locality":"Appenweier","municipality":{"key":"08317005","name":"Appenweier","type":"Kreisangehörige_Gemeinde"},"district":{"key":"08317","name":"Ortenaukreis","type":"Landkreis"},"federalState":{"key":"08","name":"Baden-Württemberg"}},{"name":"Am Bild","postalCode":"74906","locality":"Bad Rappenau","municipality":{"key":"08125006","name":"Bad Rappenau, Stadt","type":"Große_Kreisstadt"},"district":{"key":"08125","name":"Heilbronn","type":"Landkreis"},"federalState":{"key":"08","name":"Baden-Württemberg"}},{"name":"Am Galgenberg","postalCode":"74906","locality":"Bad Rappenau","municipality":{"key":"08125006","name":"Bad Rappenau, Stadt","type":"Große_Kreisstadt"},"district":{"key":"08125","name":"Heilbronn","type":"Landkreis"},"federalState":{"key":"08","name":"Baden-Württemberg"}},{"name":"Am Gedenkstein","postalCode":"25482","locality":"Appen","municipality":{"key":"01056001","name":"Appen","type":"Kreisangehörige_Gemeinde"},"district":{"key":"01056","name":"Pinneberg","type":"Kreis"},"federalState":{"key":"01","name":"Schleswig-Holstein"}},{"name":"Am Gemeindebirnbaum","postalCode":"55437","locality":"Appenheim","municipality":{"key":"07339001","name":"Appenheim","type":"Kreisangehörige_Gemeinde"},"district":{"key":"07339","name":"Mainz-Bingen","type":"Landkreis"},"federalState":{"key":"07","name":"Rheinland-Pfalz"}},{"name":"Am Griesenrain","postalCode":"77767","locality":"Appenweier","municipality":{"key":"08317005","name":"Appenweier","type":"Kreisangehörige_Gemeinde"},"district":{"key":"08317","name":"Ortenaukreis","type":"Landkreis"},"federalState":{"key":"08","name":"Baden-Württemberg"}},{"name":"Am Gromberg","postalCode":"74906","locality":"Bad Rappenau","municipality":{"key":"08125006","name":"Bad Rappenau, Stadt","type":"Große_Kreisstadt"},"district":{"key":"08125","name":"Heilbronn","type":"Landkreis"},"federalState":{"key":"08","name":"Baden-Württemberg"}},{"name":"Am Hals","postalCode":"91788","locality":"Pappenheim","municipality":{"key":"09577158","name":"Pappenheim, St","type":"Stadt"},"district":{"key":"09577","name":"Weißenburg-Gunzenhausen","type":"Landkreis"},"federalState":{"key":"09","name":"Bayern"}},{"name":"Am Hammergraben","postalCode":"74906","locality":"Bad Rappenau","municipality":{"key":"08125006","name":"Bad Rappenau, Stadt","type":"Große_Kreisstadt"},"district":{"key":"08125","name":"Heilbronn","type":"Landkreis"},"federalState":{"key":"08","name":"Baden-Württemberg"}},{"name":"Am Heiligenhäuschen","postalCode":"56294","locality":"Gappenach","municipality":{"key":"07137027","name":"Gappenach","type":"Kreisangehörige_Gemeinde"},"district":{"key":"07137","name":"Mayen-Koblenz","type":"Landkreis"},"federalState":{"key":"07","name":"Rheinland-Pfalz"}},{"name":"Am Heumahdenweg","postalCode":"74906","locality":"Bad Rappenau","municipality":{"key":"08125006","name":"Bad Rappenau, Stadt","type":"Große_Kreisstadt"},"district":{"key":"08125","name":"Heilbronn","type":"Landkreis"},"federalState":{"key":"08","name":"Baden-Württemberg"}},{"name":"Am Hochwald","postalCode":"74906","locality":"Bad Rappenau","municipality":{"key":"08125006","name":"Bad Rappenau, Stadt","type":"Große_Kreisstadt"},"district":{"key":"08125","name":"Heilbronn","type":"Landkreis"},"federalState":{"key":"08","name":"Baden-Württemberg"}},{"name":"Am Hofacker","postalCode":"77767","locality":"Appenweier","municipality":{"key":"08317005","name":"Appenweier","type":"Kreisangehörige_Gemeinde"},"district":{"key":"08317","name":"Ortenaukreis","type":"Landkreis"},"federalState":{"key":"08","name":"Baden-Württemberg"}},{"name":"Am Hungerberg","postalCode":"74906","locality":"Bad Rappenau","municipality":{"key":"08125006","name":"Bad Rappenau, Stadt","type":"Große_Kreisstadt"},"district":{"key":"08125","name":"Heilbronn","type":"Landkreis"},"federalState":{"key":"08","name":"Baden-Württemberg"}},{"name":"Am Kehler Bogen","postalCode":"77767","locality":"Appenweier","municipality":{"key":"08317005","name":"Appenweier","type":"Kreisangehörige_Gemeinde"},"district":{"key":"08317","name":"Ortenaukreis","type":"Landkreis"},"federalState":{"key":"08","name":"Baden-Württemberg"}},{"name":"Am Kirchberg","postalCode":"74906","locality":"Bad Rappenau","municipality":{"key":"08125006","name":"Bad Rappenau, Stadt","type":"Große_Kreisstadt"},"district":{"key":"08125","name":"Heilbronn","type":"Landkreis"},"federalState":{"key":"08","name":"Baden-Württemberg"}},{"name":"Am Kirchplatz","postalCode":"77767","locality":"Appenweier","municipality":{"key":"08317005","name":"Appenweier","type":"Kreisangehörige_Gemeinde"},"district":{"key":"08317","name":"Ortenaukreis","type":"Landkreis"},"federalState":{"key":"08","name":"Baden-Württemberg"}},{"name":"Am Krautgarten","postalCode":"91788","locality":"Pappenheim","municipality":{"key":"09577158","name":"Pappenheim, St","type":"Stadt"},"district":{"key":"09577","name":"Weißenburg-Gunzenhausen","type":"Landkreis"},"federalState":{"key":"09","name":"Bayern"}},{"name":"Am Kriechenberg","postalCode":"74906","locality":"Bad Rappenau","municipality":{"key":"08125006","name":"Bad Rappenau, Stadt","type":"Große_Kreisstadt"},"district":{"key":"08125","name":"Heilbronn","type":"Landkreis"},"federalState":{"key":"08","name":"Baden-Württemberg"}},{"name":"Am Krummacker","postalCode":"91788","locality":"Pappenheim","municipality":{"key":"09577158","name":"Pappenheim, St","type":"Stadt"},"district":{"key":"09577","name":"Weißenburg-Gunzenhausen","type":"Landkreis"},"federalState":{"key":"09","name":"Bayern"}},{"name":"Am Kuhnberg","postalCode":"74906","locality":"Bad Rappenau","municipality":{"key":"08125006","name":"Bad Rappenau, Stadt","type":"Große_Kreisstadt"},"district":{"key":"08125","name":"Heilbronn","type":"Landkreis"},"federalState":{"key":"08","name":"Baden-Württemberg"}},{"name":"Am Landhaag","postalCode":"77767","locality":"Appenweier","municipality":{"key":"08317005","name":"Appenweier","type":"Kreisangehörige_Gemeinde"},"district":{"key":"08317","name":"Ortenaukreis","type":"Landkreis"},"federalState":{"key":"08","name":"Baden-Württemberg"}},{"name":"Am Markt","postalCode":"24610","locality":"Trappenkamp","municipality":{"key":"01060089","name":"Trappenkamp","type":"Kreisangehörige_Gemeinde"},"district":{"key":"01060","name":"Segeberg","type":"Kreis"},"federalState":{"key":"01","name":"Schleswig-Holstein"}},{"name":"Am Mühlberg","postalCode":"91788","locality":"Pappenheim","municipality":{"key":"09577158","name":"Pappenheim, St","type":"Stadt"},"district":{"key":"09577","name":"Weißenburg-Gunzenhausen","type":"Landkreis"},"federalState":{"key":"09","name":"Bayern"}},{"name":"Am Römerbrunnen","postalCode":"74906","locality":"Bad Rappenau","municipality":{"key":"08125006","name":"Bad Rappenau, Stadt","type":"Große_Kreisstadt"},"district":{"key":"08125","name":"Heilbronn","type":"Landkreis"},"federalState":{"key":"08","name":"Baden-Württemberg"}},{"name":"Am Schafbaum","postalCode":"74906","locality":"Bad Rappenau","municipality":{"key":"08125006","name":"Bad Rappenau, Stadt","type":"Große_Kreisstadt"},"district":{"key":"08125","name":"Heilbronn","type":"Landkreis"},"federalState":{"key":"08","name":"Baden-Württemberg"}},{"name":"Am Schafgarten","postalCode":"74906","locality":"Bad Rappenau","municipality":{"key":"08125006","name":"Bad Rappenau, Stadt","type":"Große_Kreisstadt"},"district":{"key":"08125","name":"Heilbronn","type":"Landkreis"},"federalState":{"key":"08","name":"Baden-Württemberg"}},{"name":"Am Schlossberg","postalCode":"74906","locality":"Bad Rappenau","municipality":{"key":"08125006","name":"Bad Rappenau, Stadt","type":"Große_Kreisstadt"},"district":{"key":"08125","name":"Heilbronn","type":"Landkreis"},"federalState":{"key":"08","name":"Baden-Württemberg"}},{"name":"Amselgasse","postalCode":"74906","locality":"Bad Rappenau","municipality":{"key":"08125006","name":"Bad Rappenau, Stadt","type":"Große_Kreisstadt"},"district":{"key":"08125","name":"Heilbronn","type":"Landkreis"},"federalState":{"key":"08","name":"Baden-Württemberg"}},{"name":"Amselstr.","postalCode":"74906","locality":"Bad Rappenau","municipality":{"key":"08125006","name":"Bad Rappenau, Stadt","type":"Große_Kreisstadt"},"district":{"key":"08125","name":"Heilbronn","type":"Landkreis"},"federalState":{"key":"08","name":"Baden-Württemberg"}},{"name":"Am Solenturm","postalCode":"91788","locality":"Pappenheim","municipality":{"key":"09577158","name":"Pappenheim, St","type":"Stadt"},"district":{"key":"09577","name":"Weißenburg-Gunzenhausen","type":"Landkreis"},"federalState":{"key":"09","name":"Bayern"}},{"name":"Am Solnhofer Weg","postalCode":"91788","locality":"Pappenheim","municipality":{"key":"09577158","name":"Pappenheim, St","type":"Stadt"},"district":{"key":"09577","name":"Weißenburg-Gunzenhausen","type":"Landkreis"},"federalState":{"key":"09","name":"Bayern"}},{"name":"Am Sonnenhang","postalCode":"55437","locality":"Appenheim","municipality":{"key":"07339001","name":"Appenheim","type":"Kreisangehörige_Gemeinde"},"district":{"key":"07339","name":"Mainz-Bingen","type":"Landkreis"},"federalState":{"key":"07","name":"Rheinland-Pfalz"}},{"name":"Babstadter Str.","postalCode":"74906","locality":"Bad Rappenau","municipality":{"key":"08125006","name":"Bad Rappenau, Stadt","type":"Große_Kreisstadt"},"district":{"key":"08125","name":"Heilbronn","type":"Landkreis"},"federalState":{"key":"08","name":"Baden-Württemberg"}},{"name":"Babstadter Weg","postalCode":"74906","locality":"Bad Rappenau","municipality":{"key":"08125006","name":"Bad Rappenau, Stadt","type":"Große_Kreisstadt"},"district":{"key":"08125","name":"Heilbronn","type":"Landkreis"},"federalState":{"key":"08","name":"Baden-Württemberg"}},{"name":"Bachstr.","postalCode":"74906","locality":"Bad Rappenau","municipality":{"key":"08125006","name":"Bad Rappenau, Stadt","type":"Große_Kreisstadt"},"district":{"key":"08125","name":"Heilbronn","type":"Landkreis"},"federalState":{"key":"08","name":"Baden-Württemberg"}},{"name":"Bachstr.","postalCode":"77767","locality":"Appenweier","municipality":{"key":"08317005","name":"Appenweier","type":"Kreisangehörige_Gemeinde"},"district":{"key":"08317","name":"Ortenaukreis","type":"Landkreis"},"federalState":{"key":"08","name":"Baden-Württemberg"}},{"name":"Badenerstr.","postalCode":"77767","locality":"Appenweier","municipality":{"key":"08317005","name":"Appenweier","type":"Kreisangehörige_Gemeinde"},"district":{"key":"08317","name":"Ortenaukreis","type":"Landkreis"},"federalState":{"key":"08","name":"Baden-Württemberg"}},{"name":"Badweg","postalCode":"91788","locality":"Pappenheim","municipality":{"key":"09577158","name":"Pappenheim, St","type":"Stadt"},"district":{"key":"09577","name":"Weißenburg-Gunzenhausen","type":"Landkreis"},"federalState":{"key":"09","name":"Bayern"}},{"name":"Bahnhofstr.","postalCode":"74906","locality":"Bad Rappenau","municipality":{"key":"08125006","name":"Bad Rappenau, Stadt","type":"Große_Kreisstadt"},"district":{"key":"08125","name":"Heilbronn","type":"Landkreis"},"federalState":{"key":"08","name":"Baden-Württemberg"}},{"name":"Bahnhofstr.","postalCode":"77767","locality":"Appenweier","municipality":{"key":"08317005","name":"Appenweier","type":"Kreisangehörige_Gemeinde"},"district":{"key":"08317","name":"Ortenaukreis","type":"Landkreis"},"federalState":{"key":"08","name":"Baden-Württemberg"}},{"name":"Bahnhofstr.","postalCode":"91788","locality":"Pappenheim","municipality":{"key":"09577158","name":"Pappenheim, St","type":"Stadt"},"district":{"key":"09577","name":"Weißenburg-Gunzenhausen","type":"Landkreis"},"federalState":{"key":"09","name":"Bayern"}},{"name":"Bahnweg","postalCode":"74906","locality":"Bad Rappenau","municipality":{"key":"08125006","name":"Bad Rappenau, Stadt","type":"Große_Kreisstadt"},"district":{"key":"08125","name":"Heilbronn","type":"Landkreis"},"federalState":{"key":"08","name":"Baden-Württemberg"}},{"name":"Bahnweg","postalCode":"91788","locality":"Pappenheim","municipality":{"key":"09577158","name":"Pappenheim, St","type":"Stadt"},"district":{"key":"09577","name":"Weißenburg-Gunzenhausen","type":"Landkreis"},"federalState":{"key":"09","name":"Bayern"}},{"name":"Baltenweg","postalCode":"24610","locality":"Trappenkamp","municipality":{"key":"01060089","name":"Trappenkamp","type":"Kreisangehörige_Gemeinde"},"district":{"key":"01060","name":"Segeberg","type":"Kreis"},"federalState":{"key":"01","name":"Schleswig-Holstein"}},{"name":"Bauernberg","postalCode":"38479","locality":"Tappenbeck","municipality":{"key":"03151030","name":"Tappenbeck","type":"Kreisangehörige_Gemeinde"},"district":{"key":"03151","name":"Gifhorn","type":"Landkreis"},"federalState":{"key":"03","name":"Niedersachsen"}},{"name":"Bauernwaldweg","postalCode":"74906","locality":"Bad Rappenau","municipality":{"key":"08125006","name":"Bad Rappenau, Stadt","type":"Große_Kreisstadt"},"district":{"key":"08125","name":"Heilbronn","type":"Landkreis"},"federalState":{"key":"08","name":"Baden-Württemberg"}},{"name":"Bauerstatt","postalCode":"77767","locality":"Appenweier","municipality":{"key":"08317005","name":"Appenweier","type":"Kreisangehörige_Gemeinde"},"district":{"key":"08317","name":"Ortenaukreis","type":"Landkreis"},"federalState":{"key":"08","name":"Baden-Württemberg"}},{"name":"Bauhofstr.","postalCode":"91788","locality":"Pappenheim","municipality":{"key":"09577158","name":"Pappenheim, St","type":"Stadt"},"district":{"key":"09577","name":"Weißenburg-Gunzenhausen","type":"Landkreis"},"federalState":{"key":"09","name":"Bayern"}},{"name":"Baumgartenstr.","postalCode":"74906","locality":"Bad Rappenau","municipality":{"key":"08125006","name":"Bad Rappenau, Stadt","type":"Große_Kreisstadt"},"district":{"key":"08125","name":"Heilbronn","type":"Landkreis"},"federalState":{"key":"08","name":"Baden-Württemberg"}},{"name":"Beckstr.","postalCode":"91788","locality":"Pappenheim","municipality":{"key":"09577158","name":"Pappenheim, St","type":"Stadt"},"district":{"key":"09577","name":"Weißenburg-Gunzenhausen","type":"Landkreis"},"federalState":{"key":"09","name":"Bayern"}},{"name":"Beeksfelde","postalCode":"25482","locality":"Appen","municipality":{"key":"01056001","name":"Appen","type":"Kreisangehörige_Gemeinde"},"district":{"key":"01056","name":"Pinneberg","type":"Kreis"},"federalState":{"key":"01","name":"Schleswig-Holstein"}},{"name":"Beethovenstr.","postalCode":"74906","locality":"Bad Rappenau","municipality":{"key":"08125006","name":"Bad Rappenau, Stadt","type":"Große_Kreisstadt"},"district":{"key":"08125","name":"Heilbronn","type":"Landkreis"},"federalState":{"key":"08","name":"Baden-Württemberg"}},{"name":"Beethovenstr.","postalCode":"77767","locality":"Appenweier","municipality":{"key":"08317005","name":"Appenweier","type":"Kreisangehörige_Gemeinde"},"district":{"key":"08317","name":"Ortenaukreis","type":"Landkreis"},"federalState":{"key":"08","name":"Baden-Württemberg"}},{"name":"Beim Schießhäusle","postalCode":"74906","locality":"Bad Rappenau","municipality":{"key":"08125006","name":"Bad Rappenau, Stadt","type":"Große_Kreisstadt"},"district":{"key":"08125","name":"Heilbronn","type":"Landkreis"},"federalState":{"key":"08","name":"Baden-Württemberg"}},{"name":"Beim Ziegelberg","postalCode":"74906","locality":"Bad Rappenau","municipality":{"key":"08125006","name":"Bad Rappenau, Stadt","type":"Große_Kreisstadt"},"district":{"key":"08125","name":"Heilbronn","type":"Landkreis"},"federalState":{"key":"08","name":"Baden-Württemberg"}},{"name":"Bergacker","postalCode":"74906","locality":"Bad Rappenau","municipality":{"key":"08125006","name":"Bad Rappenau, Stadt","type":"Große_Kreisstadt"},"district":{"key":"08125","name":"Heilbronn","type":"Landkreis"},"federalState":{"key":"08","name":"Baden-Württemberg"}},{"name":"Bergstr.","postalCode":"74906","locality":"Bad Rappenau","municipality":{"key":"08125006","name":"Bad Rappenau, Stadt","type":"Große_Kreisstadt"},"district":{"key":"08125","name":"Heilbronn","type":"Landkreis"},"federalState":{"key":"08","name":"Baden-Württemberg"}},{"name":"Berliner Ring","postalCode":"24610","locality":"Trappenkamp","municipality":{"key":"01060089","name":"Trappenkamp","type":"Kreisangehörige_Gemeinde"},"district":{"key":"01060","name":"Segeberg","type":"Kreis"},"federalState":{"key":"01","name":"Schleswig-Holstein"}},{"name":"Bertha-Benz-Ring","postalCode":"77767","locality":"Appenweier","municipality":{"key":"08317005","name":"Appenweier","type":"Kreisangehörige_Gemeinde"},"district":{"key":"08317","name":"Ortenaukreis","type":"Landkreis"},"federalState":{"key":"08","name":"Baden-Württemberg"}},{"name":"Bertha-von-Suttner-Str.","postalCode":"24610","locality":"Trappenkamp","municipality":{"key":"01060089","name":"Trappenkamp","type":"Kreisangehörige_Gemeinde"},"district":{"key":"01060","name":"Segeberg","type":"Kreis"},"federalState":{"key":"01","name":"Schleswig-Holstein"}},{"name":"Betonweg","postalCode":"74906","locality":"Bad Rappenau","municipality":{"key":"08125006","name":"Bad Rappenau, Stadt","type":"Große_Kreisstadt"},"district":{"key":"08125","name":"Heilbronn","type":"Landkreis"},"federalState":{"key":"08","name":"Baden-Württemberg"}},{"name":"Bgm.-Oppel-Str.","postalCode":"91788","locality":"Pappenheim","municipality":{"key":"09577158","name":"Pappenheim, St","type":"Stadt"},"district":{"key":"09577","name":"Weißenburg-Gunzenhausen","type":"Landkreis"},"federalState":{"key":"09","name":"Bayern"}},{"name":"Birkengrund","postalCode":"24610","locality":"Trappenkamp","municipality":{"key":"01060089","name":"Trappenkamp","type":"Kreisangehörige_Gemeinde"},"district":{"key":"01060","name":"Segeberg","type":"Kreis"},"federalState":{"key":"01","name":"Schleswig-Holstein"}},{"name":"Birkenweg","postalCode":"38479","locality":"Tappenbeck","municipality":{"key":"03151030","name":"Tappenbeck","type":"Kreisangehörige_Gemeinde"},"district":{"key":"03151","name":"Gifhorn","type":"Landkreis"},"federalState":{"key":"03","name":"Niedersachsen"}},{"name":"Birkenweg","postalCode":"74906","locality":"Bad Rappenau","municipality":{"key":"08125006","name":"Bad Rappenau, Stadt","type":"Große_Kreisstadt"},"district":{"key":"08125","name":"Heilbronn","type":"Landkreis"},"federalState":{"key":"08","name":"Baden-Württemberg"}},{"name":"Birkenweg","postalCode":"77767","locality":"Appenweier","municipality":{"key":"08317005","name":"Appenweier","type":"Kreisangehörige_Gemeinde"},"district":{"key":"08317","name":"Ortenaukreis","type":"Landkreis"},"federalState":{"key":"08","name":"Baden-Württemberg"}},{"name":"Birnhäldeweg","postalCode":"74906","locality":"Bad Rappenau","municipality":{"key":"08125006","name":"Bad Rappenau, Stadt","type":"Große_Kreisstadt"},"district":{"key":"08125","name":"Heilbronn","type":"Landkreis"},"federalState":{"key":"08","name":"Baden-Württemberg"}},{"name":"Bismarckstr.","postalCode":"77767","locality":"Appenweier","municipality":{"key":"08317005","name":"Appenweier","type":"Kreisangehörige_Gemeinde"},"district":{"key":"08317","name":"Ortenaukreis","type":"Landkreis"},"federalState":{"key":"08","name":"Baden-Württemberg"}},{"name":"Blumenstr.","postalCode":"74906","locality":"Bad Rappenau","municipality":{"key":"08125006","name":"Bad Rappenau, Stadt","type":"Große_Kreisstadt"},"district":{"key":"08125","name":"Heilbronn","type":"Landkreis"},"federalState":{"key":"08","name":"Baden-Württemberg"}},{"name":"Bockstreue","postalCode":"38479","locality":"Tappenbeck","municipality":{"key":"03151030","name":"Tappenbeck","type":"Kreisangehörige_Gemeinde"},"district":{"key":"03151","name":"Gifhorn","type":"Landkreis"},"federalState":{"key":"03","name":"Niedersachsen"}},{"name":"Bogenstr.","postalCode":"24610","locality":"Trappenkamp","municipality":{"key":"01060089","name":"Trappenkamp","type":"Kreisangehörige_Gemeinde"},"district":{"key":"01060","name":"Segeberg","type":"Kreis"},"federalState":{"key":"01","name":"Schleswig-Holstein"}},{"name":"Bogenstr.","postalCode":"25482","locality":"Appen","municipality":{"key":"01056001","name":"Appen","type":"Kreisangehörige_Gemeinde"},"district":{"key":"01056","name":"Pinneberg","type":"Kreis"},"federalState":{"key":"01","name":"Schleswig-Holstein"}},{"name":"Bogenstr.","postalCode":"74906","locality":"Bad Rappenau","municipality":{"key":"08125006","name":"Bad Rappenau, Stadt","type":"Große_Kreisstadt"},"district":{"key":"08125","name":"Heilbronn","type":"Landkreis"},"federalState":{"key":"08","name":"Baden-Württemberg"}},{"name":"Bonfelder Str.","postalCode":"74906","locality":"Bad Rappenau","municipality":{"key":"08125006","name":"Bad Rappenau, Stadt","type":"Große_Kreisstadt"},"district":{"key":"08125","name":"Heilbronn","type":"Landkreis"},"federalState":{"key":"08","name":"Baden-Württemberg"}},{"name":"Bonhoefferplatz","postalCode":"74906","locality":"Bad Rappenau","municipality":{"key":"08125006","name":"Bad Rappenau, Stadt","type":"Große_Kreisstadt"},"district":{"key":"08125","name":"Heilbronn","type":"Landkreis"},"federalState":{"key":"08","name":"Baden-Württemberg"}},{"name":"Bornhäusser Weg","postalCode":"74906","locality":"Bad Rappenau","municipality":{"key":"08125006","name":"Bad Rappenau, Stadt","type":"Große_Kreisstadt"},"district":{"key":"08125","name":"Heilbronn","type":"Landkreis"},"federalState":{"key":"08","name":"Baden-Württemberg"}},{"name":"Bouhlentwiete","postalCode":"25482","locality":"Appen","municipality":{"key":"01056001","name":"Appen","type":"Kreisangehörige_Gemeinde"},"district":{"key":"01056","name":"Pinneberg","type":"Kreis"},"federalState":{"key":"01","name":"Schleswig-Holstein"}},{"name":"Brahmsweg","postalCode":"74906","locality":"Bad Rappenau","municipality":{"key":"08125006","name":"Bad Rappenau, Stadt","type":"Große_Kreisstadt"},"district":{"key":"08125","name":"Heilbronn","type":"Landkreis"},"federalState":{"key":"08","name":"Baden-Württemberg"}},{"name":"Brahmsweg","postalCode":"77767","locality":"Appenweier","municipality":{"key":"08317005","name":"Appenweier","type":"Kreisangehörige_Gemeinde"},"district":{"key":"08317","name":"Ortenaukreis","type":"Landkreis"},"federalState":{"key":"08","name":"Baden-Württemberg"}},{"name":"Brandenburger Weg","postalCode":"74906","locality":"Bad Rappenau","municipality":{"key":"08125006","name":"Bad Rappenau, Stadt","type":"Große_Kreisstadt"},"district":{"key":"08125","name":"Heilbronn","type":"Landkreis"},"federalState":{"key":"08","name":"Baden-Württemberg"}},{"name":"Breitgasse","postalCode":"55437","locality":"Appenheim","municipality":{"key":"07339001","name":"Appenheim","type":"Kreisangehörige_Gemeinde"},"district":{"key":"07339","name":"Mainz-Bingen","type":"Landkreis"},"federalState":{"key":"07","name":"Rheinland-Pfalz"}},{"name":"Breitweg","postalCode":"77767","locality":"Appenweier","municipality":{"key":"08317005","name":"Appenweier","type":"Kreisangehörige_Gemeinde"},"district":{"key":"08317","name":"Ortenaukreis","type":"Landkreis"},"federalState":{"key":"08","name":"Baden-Württemberg"}},{"name":"Carl-Benz-Str.","postalCode":"74906","locality":"Bad Rappenau","municipality":{"key":"08125006","name":"Bad Rappenau, Stadt","type":"Große_Kreisstadt"},"district":{"key":"08125","name":"Heilbronn","type":"Landkreis"},"federalState":{"key":"08","name":"Baden-Württemberg"}},{"name":"Carl-Orff-Weg","postalCode":"74906","locality":"Bad Rappenau","municipality":{"key":"08125006","name":"Bad Rappenau, Stadt","type":"Große_Kreisstadt"},"district":{"key":"08125","name":"Heilbronn","type":"Landkreis"},"federalState":{"key":"08","name":"Baden-Württemberg"}},{"name":"Celsiusstr.","postalCode":"24610","locality":"Trappenkamp","municipality":{"key":"01060089","name":"Trappenkamp","type":"Kreisangehörige_Gemeinde"},"district":{"key":"01060","name":"Segeberg","type":"Kreis"},"federalState":{"key":"01","name":"Schleswig-Holstein"}},{"name":"Charlotte-Nestler-Str.","postalCode":"91788","locality":"Pappenheim","municipality":{"key":"09577158","name":"Pappenheim, St","type":"Stadt"},"district":{"key":"09577","name":"Weißenburg-Gunzenhausen","type":"Landkreis"},"federalState":{"key":"09","name":"Bayern"}},{"name":"Claudiusstieg","postalCode":"24610","locality":"Trappenkamp","municipality":{"key":"01060089","name":"Trappenkamp","type":"Kreisangehörige_Gemeinde"},"district":{"key":"01060","name":"Segeberg","type":"Kreis"},"federalState":{"key":"01","name":"Schleswig-Holstein"}},{"name":"Cottbuser Str.","postalCode":"74906","locality":"Bad Rappenau","municipality":{"key":"08125006","name":"Bad Rappenau, Stadt","type":"Große_Kreisstadt"},"district":{"key":"08125","name":"Heilbronn","type":"Landkreis"},"federalState":{"key":"08","name":"Baden-Württemberg"}},{"name":"Dammstr.","postalCode":"74906","locality":"Bad Rappenau","municipality":{"key":"08125006","name":"Bad Rappenau, Stadt","type":"Große_Kreisstadt"},"district":{"key":"08125","name":"Heilbronn","type":"Landkreis"},"federalState":{"key":"08","name":"Baden-Württemberg"}},{"name":"Danziger Str.","postalCode":"24610","locality":"Trappenkamp","municipality":{"key":"01060089","name":"Trappenkamp","type":"Kreisangehörige_Gemeinde"},"district":{"key":"01060","name":"Segeberg","type":"Kreis"},"federalState":{"key":"01","name":"Schleswig-Holstein"}},{"name":"Dechantshof","postalCode":"91788","locality":"Pappenheim","municipality":{"key":"09577158","name":"Pappenheim, St","type":"Stadt"},"district":{"key":"09577","name":"Weißenburg-Gunzenhausen","type":"Landkreis"},"federalState":{"key":"09","name":"Bayern"}},{"name":"Deinhardstr.","postalCode":"74906","locality":"Bad Rappenau","municipality":{"key":"08125006","name":"Bad Rappenau, Stadt","type":"Große_Kreisstadt"},"district":{"key":"08125","name":"Heilbronn","type":"Landkreis"},"federalState":{"key":"08","name":"Baden-Württemberg"}},{"name":"Deisingerstr.","postalCode":"91788","locality":"Pappenheim","municipality":{"key":"09577158","name":"Pappenheim, St","type":"Stadt"},"district":{"key":"09577","name":"Weißenburg-Gunzenhausen","type":"Landkreis"},"federalState":{"key":"09","name":"Bayern"}},{"name":"Dombergstr.","postalCode":"74906","locality":"Bad Rappenau","municipality":{"key":"08125006","name":"Bad Rappenau, Stadt","type":"Große_Kreisstadt"},"district":{"key":"08125","name":"Heilbronn","type":"Landkreis"},"federalState":{"key":"08","name":"Baden-Württemberg"}},{"name":"Dorfstr.","postalCode":"24594","locality":"Tappendorf","municipality":{"key":"01058159","name":"Tappendorf","type":"Kreisangehörige_Gemeinde"},"district":{"key":"01058","name":"Rendsburg-Eckernförde","type":"Kreis"},"federalState":{"key":"01","name":"Schleswig-Holstein"}},{"name":"Dorfstr.","postalCode":"25482","locality":"Appen","municipality":{"key":"01056001","name":"Appen","type":"Kreisangehörige_Gemeinde"},"district":{"key":"01056","name":"Pinneberg","type":"Kreis"},"federalState":{"key":"01","name":"Schleswig-Holstein"}},{"name":"Dorfstr.","postalCode":"74906","locality":"Bad Rappenau","municipality":{"key":"08125006","name":"Bad Rappenau, Stadt","type":"Große_Kreisstadt"},"district":{"key":"08125","name":"Heilbronn","type":"Landkreis"},"federalState":{"key":"08","name":"Baden-Württemberg"}},{"name":"Dorfstr.","postalCode":"77767","locality":"Appenweier","municipality":{"key":"08317005","name":"Appenweier","type":"Kreisangehörige_Gemeinde"},"district":{"key":"08317","name":"Ortenaukreis","type":"Landkreis"},"federalState":{"key":"08","name":"Baden-Württemberg"}},{"name":"Dr.-Dr.-Bertha-Kipfmüller-Str.","postalCode":"91788","locality":"Pappenheim","municipality":{"key":"09577158","name":"Pappenheim, St","type":"Stadt"},"district":{"key":"09577","name":"Weißenburg-Gunzenhausen","type":"Landkreis"},"federalState":{"key":"09","name":"Bayern"}},{"name":"Dr. Gerhard Pusch Park","postalCode":"74906","locality":"Bad Rappenau","municipality":{"key":"08125006","name":"Bad Rappenau, Stadt","type":"Große_Kreisstadt"},"district":{"key":"08125","name":"Heilbronn","type":"Landkreis"},"federalState":{"key":"08","name":"Baden-Württemberg"}},{"name":"Dr.-Gerhard-Pusch-Str.","postalCode":"74906","locality":"Bad Rappenau","municipality":{"key":"08125006","name":"Bad Rappenau, Stadt","type":"Große_Kreisstadt"},"district":{"key":"08125","name":"Heilbronn","type":"Landkreis"},"federalState":{"key":"08","name":"Baden-Württemberg"}},{"name":"Dr.-Gustav-Porsche-Weg","postalCode":"24610","locality":"Trappenkamp","municipality":{"key":"01060089","name":"Trappenkamp","type":"Kreisangehörige_Gemeinde"},"district":{"key":"01060","name":"Segeberg","type":"Kreis"},"federalState":{"key":"01","name":"Schleswig-Holstein"}},{"name":"Dr.-Münz-Str.","postalCode":"74906","locality":"Bad Rappenau","municipality":{"key":"08125006","name":"Bad Rappenau, Stadt","type":"Große_Kreisstadt"},"district":{"key":"08125","name":"Heilbronn","type":"Landkreis"},"federalState":{"key":"08","name":"Baden-Württemberg"}},{"name":"Drosselweg","postalCode":"24610","locality":"Trappenkamp","municipality":{"key":"01060089","name":"Trappenkamp","type":"Kreisangehörige_Gemeinde"},"district":{"key":"01060","name":"Segeberg","type":"Kreis"},"federalState":{"key":"01","name":"Schleswig-Holstein"}},{"name":"Drosselweg","postalCode":"74906","locality":"Bad Rappenau","municipality":{"key":"08125006","name":"Bad Rappenau, Stadt","type":"Große_Kreisstadt"},"district":{"key":"08125","name":"Heilbronn","type":"Landkreis"},"federalState":{"key":"08","name":"Baden-Württemberg"}},{"name":"Dr.-Wilhelm-Kraft-Weg","postalCode":"91788","locality":"Pappenheim","municipality":{"key":"09577158","name":"Pappenheim, St","type":"Stadt"},"district":{"key":"09577","name":"Weißenburg-Gunzenhausen","type":"Landkreis"},"federalState":{"key":"09","name":"Bayern"}},{"name":"Ebbostr.","postalCode":"77767","locality":"Appenweier","municipality":{"key":"08317005","name":"Appenweier","type":"Kreisangehörige_Gemeinde"},"district":{"key":"08317","name":"Ortenaukreis","type":"Landkreis"},"federalState":{"key":"08","name":"Baden-Württemberg"}},{"name":"Ebersweierer Str.","postalCode":"77767","locality":"Appenweier","municipality":{"key":"08317005","name":"Appenweier","type":"Kreisangehörige_Gemeinde"},"district":{"key":"08317","name":"Ortenaukreis","type":"Landkreis"},"federalState":{"key":"08","name":"Baden-Württemberg"}},{"name":"Eckweg","postalCode":"77767","locality":"Appenweier","municipality":{"key":"08317005","name":"Appenweier","type":"Kreisangehörige_Gemeinde"},"district":{"key":"08317","name":"Ortenaukreis","type":"Landkreis"},"federalState":{"key":"08","name":"Baden-Württemberg"}},{"name":"Eekhoff","postalCode":"25482","locality":"Appen","municipality":{"key":"01056001","name":"Appen","type":"Kreisangehörige_Gemeinde"},"district":{"key":"01056","name":"Pinneberg","type":"Kreis"},"federalState":{"key":"01","name":"Schleswig-Holstein"}},{"name":"Ehkamp","postalCode":"25482","locality":"Appen","municipality":{"key":"01056001","name":"Appen","type":"Kreisangehörige_Gemeinde"},"district":{"key":"01056","name":"Pinneberg","type":"Kreis"},"federalState":{"key":"01","name":"Schleswig-Holstein"}},{"name":"Ehrenbergstr.","postalCode":"74906","locality":"Bad Rappenau","municipality":{"key":"08125006","name":"Bad Rappenau, Stadt","type":"Große_Kreisstadt"},"district":{"key":"08125","name":"Heilbronn","type":"Landkreis"},"federalState":{"key":"08","name":"Baden-Württemberg"}},{"name":"Ehrstädter Str.","postalCode":"74906","locality":"Bad Rappenau","municipality":{"key":"08125006","name":"Bad Rappenau, Stadt","type":"Große_Kreisstadt"},"district":{"key":"08125","name":"Heilbronn","type":"Landkreis"},"federalState":{"key":"08","name":"Baden-Württemberg"}},{"name":"Eichendorffstr.","postalCode":"74906","locality":"Bad Rappenau","municipality":{"key":"08125006","name":"Bad Rappenau, Stadt","type":"Große_Kreisstadt"},"district":{"key":"08125","name":"Heilbronn","type":"Landkreis"},"federalState":{"key":"08","name":"Baden-Württemberg"}},{"name":"Eichenstr.","postalCode":"25482","locality":"Appen","municipality":{"key":"01056001","name":"Appen","type":"Kreisangehörige_Gemeinde"},"district":{"key":"01056","name":"Pinneberg","type":"Kreis"},"federalState":{"key":"01","name":"Schleswig-Holstein"}},{"name":"Eichenstr.","postalCode":"74906","locality":"Bad Rappenau","municipality":{"key":"08125006","name":"Bad Rappenau, Stadt","type":"Große_Kreisstadt"},"district":{"key":"08125","name":"Heilbronn","type":"Landkreis"},"federalState":{"key":"08","name":"Baden-Württemberg"}},{"name":"Eichenweg","postalCode":"74906","locality":"Bad Rappenau","municipality":{"key":"08125006","name":"Bad Rappenau, Stadt","type":"Große_Kreisstadt"},"district":{"key":"08125","name":"Heilbronn","type":"Landkreis"},"federalState":{"key":"08","name":"Baden-Württemberg"}},{"name":"Eichenweg","postalCode":"77767","locality":"Appenweier","municipality":{"key":"08317005","name":"Appenweier","type":"Kreisangehörige_Gemeinde"},"district":{"key":"08317","name":"Ortenaukreis","type":"Landkreis"},"federalState":{"key":"08","name":"Baden-Württemberg"}},{"name":"Eichhäuser Hof","postalCode":"74906","locality":"Bad Rappenau","municipality":{"key":"08125006","name":"Bad Rappenau, Stadt","type":"Große_Kreisstadt"},"district":{"key":"08125","name":"Heilbronn","type":"Landkreis"},"federalState":{"key":"08","name":"Baden-Württemberg"}},{"name":"Eichwaldweg","postalCode":"74906","locality":"Bad Rappenau","municipality":{"key":"08125006","name":"Bad Rappenau, Stadt","type":"Große_Kreisstadt"},"district":{"key":"08125","name":"Heilbronn","type":"Landkreis"},"federalState":{"key":"08","name":"Baden-Württemberg"}},{"name":"Eichweg","postalCode":"74906","locality":"Bad Rappenau","municipality":{"key":"08125006","name":"Bad Rappenau, Stadt","type":"Große_Kreisstadt"},"district":{"key":"08125","name":"Heilbronn","type":"Landkreis"},"federalState":{"key":"08","name":"Baden-Württemberg"}},{"name":"Einsiedelstr.","postalCode":"74906","locality":"Bad Rappenau","municipality":{"key":"08125006","name":"Bad Rappenau, Stadt","type":"Große_Kreisstadt"},"district":{"key":"08125","name":"Heilbronn","type":"Landkreis"},"federalState":{"key":"08","name":"Baden-Württemberg"}},{"name":"Einsteinstr.","postalCode":"74906","locality":"Bad Rappenau","municipality":{"key":"08125006","name":"Bad Rappenau, Stadt","type":"Große_Kreisstadt"},"district":{"key":"08125","name":"Heilbronn","type":"Landkreis"},"federalState":{"key":"08","name":"Baden-Württemberg"}},{"name":"Eisenacher Weg","postalCode":"74906","locality":"Bad Rappenau","municipality":{"key":"08125006","name":"Bad Rappenau, Stadt","type":"Große_Kreisstadt"},"district":{"key":"08125","name":"Heilbronn","type":"Landkreis"},"federalState":{"key":"08","name":"Baden-Württemberg"}},{"name":"Eisenbahnstr.","postalCode":"74906","locality":"Bad Rappenau","municipality":{"key":"08125006","name":"Bad Rappenau, Stadt","type":"Große_Kreisstadt"},"district":{"key":"08125","name":"Heilbronn","type":"Landkreis"},"federalState":{"key":"08","name":"Baden-Württemberg"}},{"name":"Engelgasse","postalCode":"77767","locality":"Appenweier","municipality":{"key":"08317005","name":"Appenweier","type":"Kreisangehörige_Gemeinde"},"district":{"key":"08317","name":"Ortenaukreis","type":"Landkreis"},"federalState":{"key":"08","name":"Baden-Württemberg"}},{"name":"Erfurter Str.","postalCode":"24610","locality":"Trappenkamp","municipality":{"key":"01060089","name":"Trappenkamp","type":"Kreisangehörige_Gemeinde"},"district":{"key":"01060","name":"Segeberg","type":"Kreis"},"federalState":{"key":"01","name":"Schleswig-Holstein"}},{"name":"Erich-Arnold-Huber-Str.","postalCode":"77767","locality":"Appenweier","municipality":{"key":"08317005","name":"Appenweier","type":"Kreisangehörige_Gemeinde"},"district":{"key":"08317","name":"Ortenaukreis","type":"Landkreis"},"federalState":{"key":"08","name":"Baden-Württemberg"}},{"name":"Erich-Kästner-Weg","postalCode":"24610","locality":"Trappenkamp","municipality":{"key":"01060089","name":"Trappenkamp","type":"Kreisangehörige_Gemeinde"},"district":{"key":"01060","name":"Segeberg","type":"Kreis"},"federalState":{"key":"01","name":"Schleswig-Holstein"}},{"name":"Erlenstr.","postalCode":"74906","locality":"Bad Rappenau","municipality":{"key":"08125006","name":"Bad Rappenau, Stadt","type":"Große_Kreisstadt"},"district":{"key":"08125","name":"Heilbronn","type":"Landkreis"},"federalState":{"key":"08","name":"Baden-Württemberg"}},{"name":"Erlenweg","postalCode":"74906","locality":"Bad Rappenau","municipality":{"key":"08125006","name":"Bad Rappenau, Stadt","type":"Große_Kreisstadt"},"district":{"key":"08125","name":"Heilbronn","type":"Landkreis"},"federalState":{"key":"08","name":"Baden-Württemberg"}},{"name":"Eulenberger Hof","postalCode":"74906","locality":"Bad Rappenau","municipality":{"key":"08125006","name":"Bad Rappenau, Stadt","type":"Große_Kreisstadt"},"district":{"key":"08125","name":"Heilbronn","type":"Landkreis"},"federalState":{"key":"08","name":"Baden-Württemberg"}},{"name":"Eulenstr.","postalCode":"74906","locality":"Bad Rappenau","municipality":{"key":"08125006","name":"Bad Rappenau, Stadt","type":"Große_Kreisstadt"},"district":{"key":"08125","name":"Heilbronn","type":"Landkreis"},"federalState":{"key":"08","name":"Baden-Württemberg"}},{"name":"Falkenhof","postalCode":"77767","locality":"Appenweier","municipality":{"key":"08317005","name":"Appenweier","type":"Kreisangehörige_Gemeinde"},"district":{"key":"08317","name":"Ortenaukreis","type":"Landkreis"},"federalState":{"key":"08","name":"Baden-Württemberg"}},{"name":"Falkenstr.","postalCode":"74906","locality":"Bad Rappenau","municipality":{"key":"08125006","name":"Bad Rappenau, Stadt","type":"Große_Kreisstadt"},"district":{"key":"08125","name":"Heilbronn","type":"Landkreis"},"federalState":{"key":"08","name":"Baden-Württemberg"}},{"name":"Falkenweg","postalCode":"24610","locality":"Trappenkamp","municipality":{"key":"01060089","name":"Trappenkamp","type":"Kreisangehörige_Gemeinde"},"district":{"key":"01060","name":"Segeberg","type":"Kreis"},"federalState":{"key":"01","name":"Schleswig-Holstein"}},{"name":"Farnstieg","postalCode":"24610","locality":"Trappenkamp","municipality":{"key":"01060089","name":"Trappenkamp","type":"Kreisangehörige_Gemeinde"},"district":{"key":"01060","name":"Segeberg","type":"Kreis"},"federalState":{"key":"01","name":"Schleswig-Holstein"}},{"name":"Fasanenstr.","postalCode":"74906","locality":"Bad Rappenau","municipality":{"key":"08125006","name":"Bad Rappenau, Stadt","type":"Große_Kreisstadt"},"district":{"key":"08125","name":"Heilbronn","type":"Landkreis"},"federalState":{"key":"08","name":"Baden-Württemberg"}},{"name":"Fasanenweg","postalCode":"24610","locality":"Trappenkamp","municipality":{"key":"01060089","name":"Trappenkamp","type":"Kreisangehörige_Gemeinde"},"district":{"key":"01060","name":"Segeberg","type":"Kreis"},"federalState":{"key":"01","name":"Schleswig-Holstein"}},{"name":"Fehrenkamp","postalCode":"25482","locality":"Appen","municipality":{"key":"01056001","name":"Appen","type":"Kreisangehörige_Gemeinde"},"district":{"key":"01056","name":"Pinneberg","type":"Kreis"},"federalState":{"key":"01","name":"Schleswig-Holstein"}},{"name":"Fichtenstr.","postalCode":"74906","locality":"Bad Rappenau","municipality":{"key":"08125006","name":"Bad Rappenau, Stadt","type":"Große_Kreisstadt"},"district":{"key":"08125","name":"Heilbronn","type":"Landkreis"},"federalState":{"key":"08","name":"Baden-Württemberg"}},{"name":"Finkenstr.","postalCode":"74906","locality":"Bad Rappenau","municipality":{"key":"08125006","name":"Bad Rappenau, Stadt","type":"Große_Kreisstadt"},"district":{"key":"08125","name":"Heilbronn","type":"Landkreis"},"federalState":{"key":"08","name":"Baden-Württemberg"}},{"name":"Finstergasse","postalCode":"91788","locality":"Pappenheim","municipality":{"key":"09577158","name":"Pappenheim, St","type":"Stadt"},"district":{"key":"09577","name":"Weißenburg-Gunzenhausen","type":"Landkreis"},"federalState":{"key":"09","name":"Bayern"}},{"name":"Fliederstr.","postalCode":"74906","locality":"Bad Rappenau","municipality":{"key":"08125006","name":"Bad Rappenau, Stadt","type":"Große_Kreisstadt"},"district":{"key":"08125","name":"Heilbronn","type":"Landkreis"},"federalState":{"key":"08","name":"Baden-Württemberg"}},{"name":"Fliederweg","postalCode":"74906","locality":"Bad Rappenau","municipality":{"key":"08125006","name":"Bad Rappenau, Stadt","type":"Große_Kreisstadt"},"district":{"key":"08125","name":"Heilbronn","type":"Landkreis"},"federalState":{"key":"08","name":"Baden-Württemberg"}},{"name":"Forlenstr.","postalCode":"74906","locality":"Bad Rappenau","municipality":{"key":"08125006","name":"Bad Rappenau, Stadt","type":"Große_Kreisstadt"},"district":{"key":"08125","name":"Heilbronn","type":"Landkreis"},"federalState":{"key":"08","name":"Baden-Württemberg"}},{"name":"Forstmeisterstr.","postalCode":"24610","locality":"Trappenkamp","municipality":{"key":"01060089","name":"Trappenkamp","type":"Kreisangehörige_Gemeinde"},"district":{"key":"01060","name":"Segeberg","type":"Kreis"},"federalState":{"key":"01","name":"Schleswig-Holstein"}},{"name":"Forstweg","postalCode":"74906","locality":"Bad Rappenau","municipality":{"key":"08125006","name":"Bad Rappenau, Stadt","type":"Große_Kreisstadt"},"district":{"key":"08125","name":"Heilbronn","type":"Landkreis"},"federalState":{"key":"08","name":"Baden-Württemberg"}},{"name":"Frankenstr.","postalCode":"74906","locality":"Bad Rappenau","municipality":{"key":"08125006","name":"Bad Rappenau, Stadt","type":"Große_Kreisstadt"},"district":{"key":"08125","name":"Heilbronn","type":"Landkreis"},"federalState":{"key":"08","name":"Baden-Württemberg"}},{"name":"Frankenweg","postalCode":"77767","locality":"Appenweier","municipality":{"key":"08317005","name":"Appenweier","type":"Kreisangehörige_Gemeinde"},"district":{"key":"08317","name":"Ortenaukreis","type":"Landkreis"},"federalState":{"key":"08","name":"Baden-Württemberg"}},{"name":"Frankfurter Weg","postalCode":"74906","locality":"Bad Rappenau","municipality":{"key":"08125006","name":"Bad Rappenau, Stadt","type":"Große_Kreisstadt"},"district":{"key":"08125","name":"Heilbronn","type":"Landkreis"},"federalState":{"key":"08","name":"Baden-Württemberg"}},{"name":"Franz-Kern-Str.","postalCode":"77767","locality":"Appenweier","municipality":{"key":"08317005","name":"Appenweier","type":"Kreisangehörige_Gemeinde"},"district":{"key":"08317","name":"Ortenaukreis","type":"Landkreis"},"federalState":{"key":"08","name":"Baden-Württemberg"}},{"name":"Frauenstr.","postalCode":"74906","locality":"Bad Rappenau","municipality":{"key":"08125006","name":"Bad Rappenau, Stadt","type":"Große_Kreisstadt"},"district":{"key":"08125","name":"Heilbronn","type":"Landkreis"},"federalState":{"key":"08","name":"Baden-Württemberg"}},{"name":"Frauenweg","postalCode":"77767","locality":"Appenweier","municipality":{"key":"08317005","name":"Appenweier","type":"Kreisangehörige_Gemeinde"},"district":{"key":"08317","name":"Ortenaukreis","type":"Landkreis"},"federalState":{"key":"08","name":"Baden-Württemberg"}},{"name":"Freiherr-von-Ried-Str.","postalCode":"77767","locality":"Appenweier","municipality":{"key":"08317005","name":"Appenweier","type":"Kreisangehörige_Gemeinde"},"district":{"key":"08317","name":"Ortenaukreis","type":"Landkreis"},"federalState":{"key":"08","name":"Baden-Württemberg"}},{"name":"Friedensruh","postalCode":"77767","locality":"Appenweier","municipality":{"key":"08317005","name":"Appenweier","type":"Kreisangehörige_Gemeinde"},"district":{"key":"08317","name":"Ortenaukreis","type":"Landkreis"},"federalState":{"key":"08","name":"Baden-Württemberg"}},{"name":"Friedensstr.","postalCode":"74906","locality":"Bad Rappenau","municipality":{"key":"08125006","name":"Bad Rappenau, Stadt","type":"Große_Kreisstadt"},"district":{"key":"08125","name":"Heilbronn","type":"Landkreis"},"federalState":{"key":"08","name":"Baden-Württemberg"}},{"name":"Friedensstr.","postalCode":"91788","locality":"Pappenheim","municipality":{"key":"09577158","name":"Pappenheim, St","type":"Stadt"},"district":{"key":"09577","name":"Weißenburg-Gunzenhausen","type":"Landkreis"},"federalState":{"key":"09","name":"Bayern"}},{"name":"Friedhofstr.","postalCode":"74906","locality":"Bad Rappenau","municipality":{"key":"08125006","name":"Bad Rappenau, Stadt","type":"Große_Kreisstadt"},"district":{"key":"08125","name":"Heilbronn","type":"Landkreis"},"federalState":{"key":"08","name":"Baden-Württemberg"}},{"name":"Friedlandstr.","postalCode":"24610","locality":"Trappenkamp","municipality":{"key":"01060089","name":"Trappenkamp","type":"Kreisangehörige_Gemeinde"},"district":{"key":"01060","name":"Segeberg","type":"Kreis"},"federalState":{"key":"01","name":"Schleswig-Holstein"}},{"name":"Friedrichstr.","postalCode":"74906","locality":"Bad Rappenau","municipality":{"key":"08125006","name":"Bad Rappenau, Stadt","type":"Große_Kreisstadt"},"district":{"key":"08125","name":"Heilbronn","type":"Landkreis"},"federalState":{"key":"08","name":"Baden-Württemberg"}},{"name":"Friedrich-Wilhelm-Pein-Str.","postalCode":"25482","locality":"Appen","municipality":{"key":"01056001","name":"Appen","type":"Kreisangehörige_Gemeinde"},"district":{"key":"01056","name":"Pinneberg","type":"Kreis"},"federalState":{"key":"01","name":"Schleswig-Holstein"}},{"name":"Fritz-Hagner-Promenade","postalCode":"74906","locality":"Bad Rappenau","municipality":{"key":"08125006","name":"Bad Rappenau, Stadt","type":"Große_Kreisstadt"},"district":{"key":"08125","name":"Heilbronn","type":"Landkreis"},"federalState":{"key":"08","name":"Baden-Württemberg"}},{"name":"Fronackerstr.","postalCode":"74906","locality":"Bad Rappenau","municipality":{"key":"08125006","name":"Bad Rappenau, Stadt","type":"Große_Kreisstadt"},"district":{"key":"08125","name":"Heilbronn","type":"Landkreis"},"federalState":{"key":"08","name":"Baden-Württemberg"}},{"name":"Fröschenbündt","postalCode":"77767","locality":"Appenweier","municipality":{"key":"08317005","name":"Appenweier","type":"Kreisangehörige_Gemeinde"},"district":{"key":"08317","name":"Ortenaukreis","type":"Landkreis"},"federalState":{"key":"08","name":"Baden-Württemberg"}},{"name":"Frühlingstr.","postalCode":"74906","locality":"Bad Rappenau","municipality":{"key":"08125006","name":"Bad Rappenau, Stadt","type":"Große_Kreisstadt"},"district":{"key":"08125","name":"Heilbronn","type":"Landkreis"},"federalState":{"key":"08","name":"Baden-Württemberg"}},{"name":"Fuchsberg","postalCode":"91788","locality":"Pappenheim","municipality":{"key":"09577158","name":"Pappenheim, St","type":"Stadt"},"district":{"key":"09577","name":"Weißenburg-Gunzenhausen","type":"Landkreis"},"federalState":{"key":"09","name":"Bayern"}},{"name":"Fuchsenweg","postalCode":"91788","locality":"Pappenheim","municipality":{"key":"09577158","name":"Pappenheim, St","type":"Stadt"},"district":{"key":"09577","name":"Weißenburg-Gunzenhausen","type":"Landkreis"},"federalState":{"key":"09","name":"Bayern"}},{"name":"Fuchsweg","postalCode":"25482","locality":"Appen","municipality":{"key":"01056001","name":"Appen","type":"Kreisangehörige_Gemeinde"},"district":{"key":"01056","name":"Pinneberg","type":"Kreis"},"federalState":{"key":"01","name":"Schleswig-Holstein"}},{"name":"Fünfmühlentalweg","postalCode":"74906","locality":"Bad Rappenau","municipality":{"key":"08125006","name":"Bad Rappenau, Stadt","type":"Große_Kreisstadt"},"district":{"key":"08125","name":"Heilbronn","type":"Landkreis"},"federalState":{"key":"08","name":"Baden-Württemberg"}},{"name":"Fürfelder Str.","postalCode":"74906","locality":"Bad Rappenau","municipality":{"key":"08125006","name":"Bad Rappenau, Stadt","type":"Große_Kreisstadt"},"district":{"key":"08125","name":"Heilbronn","type":"Landkreis"},"federalState":{"key":"08","name":"Baden-Württemberg"}},{"name":"Fußweg Oberkircher Str. - Bachstr.","postalCode":"77767","locality":"Appenweier","municipality":{"key":"08317005","name":"Appenweier","type":"Kreisangehörige_Gemeinde"},"district":{"key":"08317","name":"Ortenaukreis","type":"Landkreis"},"federalState":{"key":"08","name":"Baden-Württemberg"}},{"name":"Gablonzer Str.","postalCode":"24610","locality":"Trappenkamp","municipality":{"key":"01060089","name":"Trappenkamp","type":"Kreisangehörige_Gemeinde"},"district":{"key":"01060","name":"Segeberg","type":"Kreis"},"federalState":{"key":"01","name":"Schleswig-Holstein"}},{"name":"Gaisbergstr.","postalCode":"74906","locality":"Bad Rappenau","municipality":{"key":"08125006","name":"Bad Rappenau, Stadt","type":"Große_Kreisstadt"},"district":{"key":"08125","name":"Heilbronn","type":"Landkreis"},"federalState":{"key":"08","name":"Baden-Württemberg"}},{"name":"Gänsgartenweg","postalCode":"74906","locality":"Bad Rappenau","municipality":{"key":"08125006","name":"Bad Rappenau, Stadt","type":"Große_Kreisstadt"},"district":{"key":"08125","name":"Heilbronn","type":"Landkreis"},"federalState":{"key":"08","name":"Baden-Württemberg"}},{"name":"Gartenstr.","postalCode":"38479","locality":"Tappenbeck","municipality":{"key":"03151030","name":"Tappenbeck","type":"Kreisangehörige_Gemeinde"},"district":{"key":"03151","name":"Gifhorn","type":"Landkreis"},"federalState":{"key":"03","name":"Niedersachsen"}},{"name":"Gartenstr.","postalCode":"55437","locality":"Appenheim","municipality":{"key":"07339001","name":"Appenheim","type":"Kreisangehörige_Gemeinde"},"district":{"key":"07339","name":"Mainz-Bingen","type":"Landkreis"},"federalState":{"key":"07","name":"Rheinland-Pfalz"}},{"name":"Gartenstr.","postalCode":"56294","locality":"Gappenach","municipality":{"key":"07137027","name":"Gappenach","type":"Kreisangehörige_Gemeinde"},"district":{"key":"07137","name":"Mayen-Koblenz","type":"Landkreis"},"federalState":{"key":"07","name":"Rheinland-Pfalz"}},{"name":"Gartenstr.","postalCode":"74906","locality":"Bad Rappenau","municipality":{"key":"08125006","name":"Bad Rappenau, Stadt","type":"Große_Kreisstadt"},"district":{"key":"08125","name":"Heilbronn","type":"Landkreis"},"federalState":{"key":"08","name":"Baden-Württemberg"}},{"name":"Gartenstr.","postalCode":"77767","locality":"Appenweier","municipality":{"key":"08317005","name":"Appenweier","type":"Kreisangehörige_Gemeinde"},"district":{"key":"08317","name":"Ortenaukreis","type":"Landkreis"},"federalState":{"key":"08","name":"Baden-Württemberg"}},{"name":"Gärtnerstr.","postalCode":"24610","locality":"Trappenkamp","municipality":{"key":"01060089","name":"Trappenkamp","type":"Kreisangehörige_Gemeinde"},"district":{"key":"01060","name":"Segeberg","type":"Kreis"},"federalState":{"key":"01","name":"Schleswig-Holstein"}},{"name":"Gärtnerstr.","postalCode":"25482","locality":"Appen","municipality":{"key":"01056001","name":"Appen","type":"Kreisangehörige_Gemeinde"},"district":{"key":"01056","name":"Pinneberg","type":"Kreis"},"federalState":{"key":"01","name":"Schleswig-Holstein"}},{"name":"Gässle","postalCode":"74906","locality":"Bad Rappenau","municipality":{"key":"08125006","name":"Bad Rappenau, Stadt","type":"Große_Kreisstadt"},"district":{"key":"08125","name":"Heilbronn","type":"Landkreis"},"federalState":{"key":"08","name":"Baden-Württemberg"}},{"name":"Geismühle","postalCode":"56294","locality":"Gappenach","municipality":{"key":"07137027","name":"Gappenach","type":"Kreisangehörige_Gemeinde"},"district":{"key":"07137","name":"Mayen-Koblenz","type":"Landkreis"},"federalState":{"key":"07","name":"Rheinland-Pfalz"}},{"name":"Geranienweg","postalCode":"24610","locality":"Trappenkamp","municipality":{"key":"01060089","name":"Trappenkamp","type":"Kreisangehörige_Gemeinde"},"district":{"key":"01060","name":"Segeberg","type":"Kreis"},"federalState":{"key":"01","name":"Schleswig-Holstein"}},{"name":"Gewerbestr.","postalCode":"77767","locality":"Appenweier","municipality":{"key":"08317005","name":"Appenweier","type":"Kreisangehörige_Gemeinde"},"district":{"key":"08317","name":"Ortenaukreis","type":"Landkreis"},"federalState":{"key":"08","name":"Baden-Württemberg"}},{"name":"Gimperner Weg","postalCode":"74906","locality":"Bad Rappenau","municipality":{"key":"08125006","name":"Bad Rappenau, Stadt","type":"Große_Kreisstadt"},"district":{"key":"08125","name":"Heilbronn","type":"Landkreis"},"federalState":{"key":"08","name":"Baden-Württemberg"}},{"name":"Ginsterstieg","postalCode":"24610","locality":"Trappenkamp","municipality":{"key":"01060089","name":"Trappenkamp","type":"Kreisangehörige_Gemeinde"},"district":{"key":"01060","name":"Segeberg","type":"Kreis"},"federalState":{"key":"01","name":"Schleswig-Holstein"}},{"name":"Glashüttenweg","postalCode":"24610","locality":"Trappenkamp","municipality":{"key":"01060089","name":"Trappenkamp","type":"Kreisangehörige_Gemeinde"},"district":{"key":"01060","name":"Segeberg","type":"Kreis"},"federalState":{"key":"01","name":"Schleswig-Holstein"}},{"name":"Goethestr.","postalCode":"74906","locality":"Bad Rappenau","municipality":{"key":"08125006","name":"Bad Rappenau, Stadt","type":"Große_Kreisstadt"},"district":{"key":"08125","name":"Heilbronn","type":"Landkreis"},"federalState":{"key":"08","name":"Baden-Württemberg"}},{"name":"Göhrener Str.","postalCode":"91788","locality":"Pappenheim","municipality":{"key":"09577158","name":"Pappenheim, St","type":"Stadt"},"district":{"key":"09577","name":"Weißenburg-Gunzenhausen","type":"Landkreis"},"federalState":{"key":"09","name":"Bayern"}},{"name":"Goldbarg","postalCode":"24594","locality":"Tappendorf","municipality":{"key":"01058159","name":"Tappendorf","type":"Kreisangehörige_Gemeinde"},"district":{"key":"01058","name":"Rendsburg-Eckernförde","type":"Kreis"},"federalState":{"key":"01","name":"Schleswig-Holstein"}},{"name":"Gönnebeker Ring","postalCode":"24610","locality":"Trappenkamp","municipality":{"key":"01060089","name":"Trappenkamp","type":"Kreisangehörige_Gemeinde"},"district":{"key":"01060","name":"Segeberg","type":"Kreis"},"federalState":{"key":"01","name":"Schleswig-Holstein"}},{"name":"Graf-Carl-Str.","postalCode":"91788","locality":"Pappenheim","municipality":{"key":"09577158","name":"Pappenheim, St","type":"Stadt"},"district":{"key":"09577","name":"Weißenburg-Gunzenhausen","type":"Landkreis"},"federalState":{"key":"09","name":"Bayern"}},{"name":"Grenzweg","postalCode":"25482","locality":"Appen","municipality":{"key":"01056001","name":"Appen","type":"Kreisangehörige_Gemeinde"},"district":{"key":"01056","name":"Pinneberg","type":"Kreis"},"federalState":{"key":"01","name":"Schleswig-Holstein"}},{"name":"Grenzweg","postalCode":"74906","locality":"Bad Rappenau","municipality":{"key":"08125006","name":"Bad Rappenau, Stadt","type":"Große_Kreisstadt"},"district":{"key":"08125","name":"Heilbronn","type":"Landkreis"},"federalState":{"key":"08","name":"Baden-Württemberg"}},{"name":"Grillenweg","postalCode":"24610","locality":"Trappenkamp","municipality":{"key":"01060089","name":"Trappenkamp","type":"Kreisangehörige_Gemeinde"},"district":{"key":"01060","name":"Segeberg","type":"Kreis"},"federalState":{"key":"01","name":"Schleswig-Holstein"}},{"name":"Grimmelshausenstr.","postalCode":"77767","locality":"Appenweier","municipality":{"key":"08317005","name":"Appenweier","type":"Kreisangehörige_Gemeinde"},"district":{"key":"08317","name":"Ortenaukreis","type":"Landkreis"},"federalState":{"key":"08","name":"Baden-Württemberg"}},{"name":"Grombacher Str.","postalCode":"74906","locality":"Bad Rappenau","municipality":{"key":"08125006","name":"Bad Rappenau, Stadt","type":"Große_Kreisstadt"},"district":{"key":"08125","name":"Heilbronn","type":"Landkreis"},"federalState":{"key":"08","name":"Baden-Württemberg"}},{"name":"Grombacher Weg","postalCode":"74906","locality":"Bad Rappenau","municipality":{"key":"08125006","name":"Bad Rappenau, Stadt","type":"Große_Kreisstadt"},"district":{"key":"08125","name":"Heilbronn","type":"Landkreis"},"federalState":{"key":"08","name":"Baden-Württemberg"}},{"name":"Große Heide","postalCode":"24610","locality":"Trappenkamp","municipality":{"key":"01060089","name":"Trappenkamp","type":"Kreisangehörige_Gemeinde"},"district":{"key":"01060","name":"Segeberg","type":"Kreis"},"federalState":{"key":"01","name":"Schleswig-Holstein"}},{"name":"Grothwisch","postalCode":"25482","locality":"Appen","municipality":{"key":"01056001","name":"Appen","type":"Kreisangehörige_Gemeinde"},"district":{"key":"01056","name":"Pinneberg","type":"Kreis"},"federalState":{"key":"01","name":"Schleswig-Holstein"}},{"name":"Gundelsheimer Str.","postalCode":"74906","locality":"Bad Rappenau","municipality":{"key":"08125006","name":"Bad Rappenau, Stadt","type":"Große_Kreisstadt"},"district":{"key":"08125","name":"Heilbronn","type":"Landkreis"},"federalState":{"key":"08","name":"Baden-Württemberg"}},{"name":"Gustav-Freytag-Str.","postalCode":"74906","locality":"Bad Rappenau","municipality":{"key":"08125006","name":"Bad Rappenau, Stadt","type":"Große_Kreisstadt"},"district":{"key":"08125","name":"Heilbronn","type":"Landkreis"},"federalState":{"key":"08","name":"Baden-Württemberg"}},{"name":"Güterstr.","postalCode":"77767","locality":"Appenweier","municipality":{"key":"08317005","name":"Appenweier","type":"Kreisangehörige_Gemeinde"},"district":{"key":"08317","name":"Ortenaukreis","type":"Landkreis"},"federalState":{"key":"08","name":"Baden-Württemberg"}},{"name":"Habsburgerstr.","postalCode":"77767","locality":"Appenweier","municipality":{"key":"08317005","name":"Appenweier","type":"Kreisangehörige_Gemeinde"},"district":{"key":"08317","name":"Ortenaukreis","type":"Landkreis"},"federalState":{"key":"08","name":"Baden-Württemberg"}},{"name":"Hafnersäcker","postalCode":"74906","locality":"Bad Rappenau","municipality":{"key":"08125006","name":"Bad Rappenau, Stadt","type":"Große_Kreisstadt"},"district":{"key":"08125","name":"Heilbronn","type":"Landkreis"},"federalState":{"key":"08","name":"Baden-Württemberg"}},{"name":"Hagweg","postalCode":"74906","locality":"Bad Rappenau","municipality":{"key":"08125006","name":"Bad Rappenau, Stadt","type":"Große_Kreisstadt"},"district":{"key":"08125","name":"Heilbronn","type":"Landkreis"},"federalState":{"key":"08","name":"Baden-Württemberg"}},{"name":"Hainbuchenstr.","postalCode":"74906","locality":"Bad Rappenau","municipality":{"key":"08125006","name":"Bad Rappenau, Stadt","type":"Große_Kreisstadt"},"district":{"key":"08125","name":"Heilbronn","type":"Landkreis"},"federalState":{"key":"08","name":"Baden-Württemberg"}},{"name":"Hainbuchenweg","postalCode":"77767","locality":"Appenweier","municipality":{"key":"08317005","name":"Appenweier","type":"Kreisangehörige_Gemeinde"},"district":{"key":"08317","name":"Ortenaukreis","type":"Landkreis"},"federalState":{"key":"08","name":"Baden-Württemberg"}},{"name":"Haller Ring","postalCode":"74906","locality":"Bad Rappenau","municipality":{"key":"08125006","name":"Bad Rappenau, Stadt","type":"Große_Kreisstadt"},"district":{"key":"08125","name":"Heilbronn","type":"Landkreis"},"federalState":{"key":"08","name":"Baden-Württemberg"}},{"name":"Hanauer Str.","postalCode":"77767","locality":"Appenweier","municipality":{"key":"08317005","name":"Appenweier","type":"Kreisangehörige_Gemeinde"},"district":{"key":"08317","name":"Ortenaukreis","type":"Landkreis"},"federalState":{"key":"08","name":"Baden-Württemberg"}},{"name":"Händelstr.","postalCode":"74906","locality":"Bad Rappenau","municipality":{"key":"08125006","name":"Bad Rappenau, Stadt","type":"Große_Kreisstadt"},"district":{"key":"08125","name":"Heilbronn","type":"Landkreis"},"federalState":{"key":"08","name":"Baden-Württemberg"}},{"name":"Hangweg","postalCode":"74906","locality":"Bad Rappenau","municipality":{"key":"08125006","name":"Bad Rappenau, Stadt","type":"Große_Kreisstadt"},"district":{"key":"08125","name":"Heilbronn","type":"Landkreis"},"federalState":{"key":"08","name":"Baden-Württemberg"}},{"name":"Hannoversche Str.","postalCode":"38479","locality":"Tappenbeck","municipality":{"key":"03151030","name":"Tappenbeck","type":"Kreisangehörige_Gemeinde"},"district":{"key":"03151","name":"Gifhorn","type":"Landkreis"},"federalState":{"key":"03","name":"Niedersachsen"}},{"name":"Hasenkamp","postalCode":"25482","locality":"Appen","municipality":{"key":"01056001","name":"Appen","type":"Kreisangehörige_Gemeinde"},"district":{"key":"01056","name":"Pinneberg","type":"Kreis"},"federalState":{"key":"01","name":"Schleswig-Holstein"}},{"name":"Hauenerlestr.","postalCode":"74906","locality":"Bad Rappenau","municipality":{"key":"08125006","name":"Bad Rappenau, Stadt","type":"Große_Kreisstadt"},"district":{"key":"08125","name":"Heilbronn","type":"Landkreis"},"federalState":{"key":"08","name":"Baden-Württemberg"}},{"name":"Hauptstr.","postalCode":"25482","locality":"Appen","municipality":{"key":"01056001","name":"Appen","type":"Kreisangehörige_Gemeinde"},"district":{"key":"01056","name":"Pinneberg","type":"Kreis"},"federalState":{"key":"01","name":"Schleswig-Holstein"}},{"name":"Hauptstr.","postalCode":"38479","locality":"Tappenbeck","municipality":{"key":"03151030","name":"Tappenbeck","type":"Kreisangehörige_Gemeinde"},"district":{"key":"03151","name":"Gifhorn","type":"Landkreis"},"federalState":{"key":"03","name":"Niedersachsen"}},{"name":"Hauptstr.","postalCode":"55437","locality":"Appenheim","municipality":{"key":"07339001","name":"Appenheim","type":"Kreisangehörige_Gemeinde"},"district":{"key":"07339","name":"Mainz-Bingen","type":"Landkreis"},"federalState":{"key":"07","name":"Rheinland-Pfalz"}},{"name":"Hauptstr.","postalCode":"56294","locality":"Gappenach","municipality":{"key":"07137027","name":"Gappenach","type":"Kreisangehörige_Gemeinde"},"district":{"key":"07137","name":"Mayen-Koblenz","type":"Landkreis"},"federalState":{"key":"07","name":"Rheinland-Pfalz"}},{"name":"Hauptstr.","postalCode":"74906","locality":"Bad Rappenau","municipality":{"key":"08125006","name":"Bad Rappenau, Stadt","type":"Große_Kreisstadt"},"district":{"key":"08125","name":"Heilbronn","type":"Landkreis"},"federalState":{"key":"08","name":"Baden-Württemberg"}},{"name":"Hauptstr.","postalCode":"77767","locality":"Appenweier","municipality":{"key":"08317005","name":"Appenweier","type":"Kreisangehörige_Gemeinde"},"district":{"key":"08317","name":"Ortenaukreis","type":"Landkreis"},"federalState":{"key":"08","name":"Baden-Württemberg"}},{"name":"Hauptstr.","postalCode":"91788","locality":"Pappenheim","municipality":{"key":"09577158","name":"Pappenheim, St","type":"Stadt"},"district":{"key":"09577","name":"Weißenburg-Gunzenhausen","type":"Landkreis"},"federalState":{"key":"09","name":"Bayern"}},{"name":"Haydnstr.","postalCode":"74906","locality":"Bad Rappenau","municipality":{"key":"08125006","name":"Bad Rappenau, Stadt","type":"Große_Kreisstadt"},"district":{"key":"08125","name":"Heilbronn","type":"Landkreis"},"federalState":{"key":"08","name":"Baden-Württemberg"}},{"name":"Hebbelstr.","postalCode":"24610","locality":"Trappenkamp","municipality":{"key":"01060089","name":"Trappenkamp","type":"Kreisangehörige_Gemeinde"},"district":{"key":"01060","name":"Segeberg","type":"Kreis"},"federalState":{"key":"01","name":"Schleswig-Holstein"}},{"name":"Heideschlagweg","postalCode":"74906","locality":"Bad Rappenau","municipality":{"key":"08125006","name":"Bad Rappenau, Stadt","type":"Große_Kreisstadt"},"district":{"key":"08125","name":"Heilbronn","type":"Landkreis"},"federalState":{"key":"08","name":"Baden-Württemberg"}},{"name":"Heideweg","postalCode":"25482","locality":"Appen","municipality":{"key":"01056001","name":"Appen","type":"Kreisangehörige_Gemeinde"},"district":{"key":"01056","name":"Pinneberg","type":"Kreis"},"federalState":{"key":"01","name":"Schleswig-Holstein"}},{"name":"Heilbronner Str.","postalCode":"74906","locality":"Bad Rappenau","municipality":{"key":"08125006","name":"Bad Rappenau, Stadt","type":"Große_Kreisstadt"},"district":{"key":"08125","name":"Heilbronn","type":"Landkreis"},"federalState":{"key":"08","name":"Baden-Württemberg"}},{"name":"Heinrich-Heine-Str.","postalCode":"24610","locality":"Trappenkamp","municipality":{"key":"01060089","name":"Trappenkamp","type":"Kreisangehörige_Gemeinde"},"district":{"key":"01060","name":"Segeberg","type":"Kreis"},"federalState":{"key":"01","name":"Schleswig-Holstein"}},{"name":"Heinrich-Keppele-Ring","postalCode":"74906","locality":"Bad Rappenau","municipality":{"key":"08125006","name":"Bad Rappenau, Stadt","type":"Große_Kreisstadt"},"district":{"key":"08125","name":"Heilbronn","type":"Landkreis"},"federalState":{"key":"08","name":"Baden-Württemberg"}},{"name":"Heinsheimer Str.","postalCode":"74906","locality":"Bad Rappenau","municipality":{"key":"08125006","name":"Bad Rappenau, Stadt","type":"Große_Kreisstadt"},"district":{"key":"08125","name":"Heilbronn","type":"Landkreis"},"federalState":{"key":"08","name":"Baden-Württemberg"}},{"name":"Helmut-Gollwitzer-Weg","postalCode":"91788","locality":"Pappenheim","municipality":{"key":"09577158","name":"Pappenheim, St","type":"Stadt"},"district":{"key":"09577","name":"Weißenburg-Gunzenhausen","type":"Landkreis"},"federalState":{"key":"09","name":"Bayern"}},{"name":"Herbststr.","postalCode":"74906","locality":"Bad Rappenau","municipality":{"key":"08125006","name":"Bad Rappenau, Stadt","type":"Große_Kreisstadt"},"district":{"key":"08125","name":"Heilbronn","type":"Landkreis"},"federalState":{"key":"08","name":"Baden-Württemberg"}},{"name":"Herderstr.","postalCode":"74906","locality":"Bad Rappenau","municipality":{"key":"08125006","name":"Bad Rappenau, Stadt","type":"Große_Kreisstadt"},"district":{"key":"08125","name":"Heilbronn","type":"Landkreis"},"federalState":{"key":"08","name":"Baden-Württemberg"}},{"name":"Herdweg","postalCode":"74906","locality":"Bad Rappenau","municipality":{"key":"08125006","name":"Bad Rappenau, Stadt","type":"Große_Kreisstadt"},"district":{"key":"08125","name":"Heilbronn","type":"Landkreis"},"federalState":{"key":"08","name":"Baden-Württemberg"}},{"name":"Hermannstädter Str.","postalCode":"24610","locality":"Trappenkamp","municipality":{"key":"01060089","name":"Trappenkamp","type":"Kreisangehörige_Gemeinde"},"district":{"key":"01060","name":"Segeberg","type":"Kreis"},"federalState":{"key":"01","name":"Schleswig-Holstein"}},{"name":"Herrenweg","postalCode":"74906","locality":"Bad Rappenau","municipality":{"key":"08125006","name":"Bad Rappenau, Stadt","type":"Große_Kreisstadt"},"district":{"key":"08125","name":"Heilbronn","type":"Landkreis"},"federalState":{"key":"08","name":"Baden-Württemberg"}},{"name":"Heuchelbergring","postalCode":"74906","locality":"Bad Rappenau","municipality":{"key":"08125006","name":"Bad Rappenau, Stadt","type":"Große_Kreisstadt"},"district":{"key":"08125","name":"Heilbronn","type":"Landkreis"},"federalState":{"key":"08","name":"Baden-Württemberg"}},{"name":"Heuweg","postalCode":"77767","locality":"Appenweier","municipality":{"key":"08317005","name":"Appenweier","type":"Kreisangehörige_Gemeinde"},"district":{"key":"08317","name":"Ortenaukreis","type":"Landkreis"},"federalState":{"key":"08","name":"Baden-Württemberg"}},{"name":"Hindenburgplatz","postalCode":"77767","locality":"Appenweier","municipality":{"key":"08317005","name":"Appenweier","type":"Kreisangehörige_Gemeinde"},"district":{"key":"08317","name":"Ortenaukreis","type":"Landkreis"},"federalState":{"key":"08","name":"Baden-Württemberg"}},{"name":"Hinter dem Schloß","postalCode":"74906","locality":"Bad Rappenau","municipality":{"key":"08125006","name":"Bad Rappenau, Stadt","type":"Große_Kreisstadt"},"district":{"key":"08125","name":"Heilbronn","type":"Landkreis"},"federalState":{"key":"08","name":"Baden-Württemberg"}},{"name":"Hinter den Gärten","postalCode":"77767","locality":"Appenweier","municipality":{"key":"08317005","name":"Appenweier","type":"Kreisangehörige_Gemeinde"},"district":{"key":"08317","name":"Ortenaukreis","type":"Landkreis"},"federalState":{"key":"08","name":"Baden-Württemberg"}},{"name":"Hinter der Mühle","postalCode":"77767","locality":"Appenweier","municipality":{"key":"08317005","name":"Appenweier","type":"Kreisangehörige_Gemeinde"},"district":{"key":"08317","name":"Ortenaukreis","type":"Landkreis"},"federalState":{"key":"08","name":"Baden-Württemberg"}},{"name":"Hintere Dorfstr.","postalCode":"74906","locality":"Bad Rappenau","municipality":{"key":"08125006","name":"Bad Rappenau, Stadt","type":"Große_Kreisstadt"},"district":{"key":"08125","name":"Heilbronn","type":"Landkreis"},"federalState":{"key":"08","name":"Baden-Württemberg"}},{"name":"Hintergasse","postalCode":"55437","locality":"Appenheim","municipality":{"key":"07339001","name":"Appenheim","type":"Kreisangehörige_Gemeinde"},"district":{"key":"07339","name":"Mainz-Bingen","type":"Landkreis"},"federalState":{"key":"07","name":"Rheinland-Pfalz"}},{"name":"Hirschgasse","postalCode":"74906","locality":"Bad Rappenau","municipality":{"key":"08125006","name":"Bad Rappenau, Stadt","type":"Große_Kreisstadt"},"district":{"key":"08125","name":"Heilbronn","type":"Landkreis"},"federalState":{"key":"08","name":"Baden-Württemberg"}},{"name":"Hitzgutstr.","postalCode":"77767","locality":"Appenweier","municipality":{"key":"08317005","name":"Appenweier","type":"Kreisangehörige_Gemeinde"},"district":{"key":"08317","name":"Ortenaukreis","type":"Landkreis"},"federalState":{"key":"08","name":"Baden-Württemberg"}},{"name":"Hofstr.","postalCode":"74906","locality":"Bad Rappenau","municipality":{"key":"08125006","name":"Bad Rappenau, Stadt","type":"Große_Kreisstadt"},"district":{"key":"08125","name":"Heilbronn","type":"Landkreis"},"federalState":{"key":"08","name":"Baden-Württemberg"}},{"name":"Hohenrainweg","postalCode":"77767","locality":"Appenweier","municipality":{"key":"08317005","name":"Appenweier","type":"Kreisangehörige_Gemeinde"},"district":{"key":"08317","name":"Ortenaukreis","type":"Landkreis"},"federalState":{"key":"08","name":"Baden-Württemberg"}},{"name":"Hohenstadter Steige","postalCode":"74906","locality":"Bad Rappenau","municipality":{"key":"08125006","name":"Bad Rappenau, Stadt","type":"Große_Kreisstadt"},"district":{"key":"08125","name":"Heilbronn","type":"Landkreis"},"federalState":{"key":"08","name":"Baden-Württemberg"}},{"name":"Höhenweg","postalCode":"74906","locality":"Bad Rappenau","municipality":{"key":"08125006","name":"Bad Rappenau, Stadt","type":"Große_Kreisstadt"},"district":{"key":"08125","name":"Heilbronn","type":"Landkreis"},"federalState":{"key":"08","name":"Baden-Württemberg"}},{"name":"Hohlgasse","postalCode":"77767","locality":"Appenweier","municipality":{"key":"08317005","name":"Appenweier","type":"Kreisangehörige_Gemeinde"},"district":{"key":"08317","name":"Ortenaukreis","type":"Landkreis"},"federalState":{"key":"08","name":"Baden-Württemberg"}},{"name":"Hölderlinstr.","postalCode":"74906","locality":"Bad Rappenau","municipality":{"key":"08125006","name":"Bad Rappenau, Stadt","type":"Große_Kreisstadt"},"district":{"key":"08125","name":"Heilbronn","type":"Landkreis"},"federalState":{"key":"08","name":"Baden-Württemberg"}},{"name":"Holnweg","postalCode":"24594","locality":"Tappendorf","municipality":{"key":"01058159","name":"Tappendorf","type":"Kreisangehörige_Gemeinde"},"district":{"key":"01058","name":"Rendsburg-Eckernförde","type":"Kreis"},"federalState":{"key":"01","name":"Schleswig-Holstein"}},{"name":"Igelweg","postalCode":"24610","locality":"Trappenkamp","municipality":{"key":"01060089","name":"Trappenkamp","type":"Kreisangehörige_Gemeinde"},"district":{"key":"01060","name":"Segeberg","type":"Kreis"},"federalState":{"key":"01","name":"Schleswig-Holstein"}},{"name":"Igelweg","postalCode":"25482","locality":"Appen","municipality":{"key":"01056001","name":"Appen","type":"Kreisangehörige_Gemeinde"},"district":{"key":"01056","name":"Pinneberg","type":"Kreis"},"federalState":{"key":"01","name":"Schleswig-Holstein"}},{"name":"Illental","postalCode":"77767","locality":"Appenweier","municipality":{"key":"08317005","name":"Appenweier","type":"Kreisangehörige_Gemeinde"},"district":{"key":"08317","name":"Ortenaukreis","type":"Landkreis"},"federalState":{"key":"08","name":"Baden-Württemberg"}},{"name":"Illmenweg","postalCode":"74906","locality":"Bad Rappenau","municipality":{"key":"08125006","name":"Bad Rappenau, Stadt","type":"Große_Kreisstadt"},"district":{"key":"08125","name":"Heilbronn","type":"Landkreis"},"federalState":{"key":"08","name":"Baden-Württemberg"}},{"name":"Ilmenstr.","postalCode":"74906","locality":"Bad Rappenau","municipality":{"key":"08125006","name":"Bad Rappenau, Stadt","type":"Große_Kreisstadt"},"district":{"key":"08125","name":"Heilbronn","type":"Landkreis"},"federalState":{"key":"08","name":"Baden-Württemberg"}},{"name":"Im Bisland","postalCode":"74906","locality":"Bad Rappenau","municipality":{"key":"08125006","name":"Bad Rappenau, Stadt","type":"Große_Kreisstadt"},"district":{"key":"08125","name":"Heilbronn","type":"Landkreis"},"federalState":{"key":"08","name":"Baden-Württemberg"}},{"name":"Im Boppengrund","postalCode":"74906","locality":"Bad Rappenau","municipality":{"key":"08125006","name":"Bad Rappenau, Stadt","type":"Große_Kreisstadt"},"district":{"key":"08125","name":"Heilbronn","type":"Landkreis"},"federalState":{"key":"08","name":"Baden-Württemberg"}},{"name":"Im Brügel","postalCode":"77767","locality":"Appenweier","municipality":{"key":"08317005","name":"Appenweier","type":"Kreisangehörige_Gemeinde"},"district":{"key":"08317","name":"Ortenaukreis","type":"Landkreis"},"federalState":{"key":"08","name":"Baden-Württemberg"}},{"name":"Im Bündt","postalCode":"77767","locality":"Appenweier","municipality":{"key":"08317005","name":"Appenweier","type":"Kreisangehörige_Gemeinde"},"district":{"key":"08317","name":"Ortenaukreis","type":"Landkreis"},"federalState":{"key":"08","name":"Baden-Württemberg"}},{"name":"Im Ettenbach","postalCode":"77767","locality":"Appenweier","municipality":{"key":"08317005","name":"Appenweier","type":"Kreisangehörige_Gemeinde"},"district":{"key":"08317","name":"Ortenaukreis","type":"Landkreis"},"federalState":{"key":"08","name":"Baden-Württemberg"}},{"name":"Im Fritschengärtel","postalCode":"77767","locality":"Appenweier","municipality":{"key":"08317005","name":"Appenweier","type":"Kreisangehörige_Gemeinde"},"district":{"key":"08317","name":"Ortenaukreis","type":"Landkreis"},"federalState":{"key":"08","name":"Baden-Württemberg"}},{"name":"Im Grund","postalCode":"74906","locality":"Bad Rappenau","municipality":{"key":"08125006","name":"Bad Rappenau, Stadt","type":"Große_Kreisstadt"},"district":{"key":"08125","name":"Heilbronn","type":"Landkreis"},"federalState":{"key":"08","name":"Baden-Württemberg"}},{"name":"Im Gutshof","postalCode":"74906","locality":"Bad Rappenau","municipality":{"key":"08125006","name":"Bad Rappenau, Stadt","type":"Große_Kreisstadt"},"district":{"key":"08125","name":"Heilbronn","type":"Landkreis"},"federalState":{"key":"08","name":"Baden-Württemberg"}},{"name":"Im Hahnengarten","postalCode":"77767","locality":"Appenweier","municipality":{"key":"08317005","name":"Appenweier","type":"Kreisangehörige_Gemeinde"},"district":{"key":"08317","name":"Ortenaukreis","type":"Landkreis"},"federalState":{"key":"08","name":"Baden-Württemberg"}},{"name":"Im Heidewald","postalCode":"77767","locality":"Appenweier","municipality":{"key":"08317005","name":"Appenweier","type":"Kreisangehörige_Gemeinde"},"district":{"key":"08317","name":"Ortenaukreis","type":"Landkreis"},"federalState":{"key":"08","name":"Baden-Württemberg"}},{"name":"Im Kleinsommerfeld","postalCode":"77767","locality":"Appenweier","municipality":{"key":"08317005","name":"Appenweier","type":"Kreisangehörige_Gemeinde"},"district":{"key":"08317","name":"Ortenaukreis","type":"Landkreis"},"federalState":{"key":"08","name":"Baden-Württemberg"}},{"name":"Im Kreuz","postalCode":"74906","locality":"Bad Rappenau","municipality":{"key":"08125006","name":"Bad Rappenau, Stadt","type":"Große_Kreisstadt"},"district":{"key":"08125","name":"Heilbronn","type":"Landkreis"},"federalState":{"key":"08","name":"Baden-Württemberg"}},{"name":"Im See","postalCode":"77767","locality":"Appenweier","municipality":{"key":"08317005","name":"Appenweier","type":"Kreisangehörige_Gemeinde"},"district":{"key":"08317","name":"Ortenaukreis","type":"Landkreis"},"federalState":{"key":"08","name":"Baden-Württemberg"}},{"name":"Im Seegarten","postalCode":"74906","locality":"Bad Rappenau","municipality":{"key":"08125006","name":"Bad Rappenau, Stadt","type":"Große_Kreisstadt"},"district":{"key":"08125","name":"Heilbronn","type":"Landkreis"},"federalState":{"key":"08","name":"Baden-Württemberg"}},{"name":"Im Sigmantel","postalCode":"74906","locality":"Bad Rappenau","municipality":{"key":"08125006","name":"Bad Rappenau, Stadt","type":"Große_Kreisstadt"},"district":{"key":"08125","name":"Heilbronn","type":"Landkreis"},"federalState":{"key":"08","name":"Baden-Württemberg"}},{"name":"Im Weinberg","postalCode":"74906","locality":"Bad Rappenau","municipality":{"key":"08125006","name":"Bad Rappenau, Stadt","type":"Große_Kreisstadt"},"district":{"key":"08125","name":"Heilbronn","type":"Landkreis"},"federalState":{"key":"08","name":"Baden-Württemberg"}},{"name":"Im Wiesengrund","postalCode":"25482","locality":"Appen","municipality":{"key":"01056001","name":"Appen","type":"Kreisangehörige_Gemeinde"},"district":{"key":"01056","name":"Pinneberg","type":"Kreis"},"federalState":{"key":"01","name":"Schleswig-Holstein"}},{"name":"Im Winkel","postalCode":"77767","locality":"Appenweier","municipality":{"key":"08317005","name":"Appenweier","type":"Kreisangehörige_Gemeinde"},"district":{"key":"08317","name":"Ortenaukreis","type":"Landkreis"},"federalState":{"key":"08","name":"Baden-Württemberg"}},{"name":"In den Obstgärten","postalCode":"77767","locality":"Appenweier","municipality":{"key":"08317005","name":"Appenweier","type":"Kreisangehörige_Gemeinde"},"district":{"key":"08317","name":"Ortenaukreis","type":"Landkreis"},"federalState":{"key":"08","name":"Baden-Württemberg"}},{"name":"In der Au","postalCode":"74906","locality":"Bad Rappenau","municipality":{"key":"08125006","name":"Bad Rappenau, Stadt","type":"Große_Kreisstadt"},"district":{"key":"08125","name":"Heilbronn","type":"Landkreis"},"federalState":{"key":"08","name":"Baden-Württemberg"}},{"name":"In der Burlachei","postalCode":"77767","locality":"Appenweier","municipality":{"key":"08317005","name":"Appenweier","type":"Kreisangehörige_Gemeinde"},"district":{"key":"08317","name":"Ortenaukreis","type":"Landkreis"},"federalState":{"key":"08","name":"Baden-Württemberg"}},{"name":"In der Wiedi","postalCode":"77767","locality":"Appenweier","municipality":{"key":"08317005","name":"Appenweier","type":"Kreisangehörige_Gemeinde"},"district":{"key":"08317","name":"Ortenaukreis","type":"Landkreis"},"federalState":{"key":"08","name":"Baden-Württemberg"}},{"name":"In der Wörth","postalCode":"77767","locality":"Appenweier","municipality":{"key":"08317005","name":"Appenweier","type":"Kreisangehörige_Gemeinde"},"district":{"key":"08317","name":"Ortenaukreis","type":"Landkreis"},"federalState":{"key":"08","name":"Baden-Württemberg"}},{"name":"Industriestr.","postalCode":"77767","locality":"Appenweier","municipality":{"key":"08317005","name":"Appenweier","type":"Kreisangehörige_Gemeinde"},"district":{"key":"08317","name":"Ortenaukreis","type":"Landkreis"},"federalState":{"key":"08","name":"Baden-Württemberg"}},{"name":"Ingelheimer Str.","postalCode":"55437","locality":"Appenheim","municipality":{"key":"07339001","name":"Appenheim","type":"Kreisangehörige_Gemeinde"},"district":{"key":"07339","name":"Mainz-Bingen","type":"Landkreis"},"federalState":{"key":"07","name":"Rheinland-Pfalz"}},{"name":"Irisstieg","postalCode":"24610","locality":"Trappenkamp","municipality":{"key":"01060089","name":"Trappenkamp","type":"Kreisangehörige_Gemeinde"},"district":{"key":"01060","name":"Segeberg","type":"Kreis"},"federalState":{"key":"01","name":"Schleswig-Holstein"}},{"name":"Iserstr.","postalCode":"24610","locality":"Trappenkamp","municipality":{"key":"01060089","name":"Trappenkamp","type":"Kreisangehörige_Gemeinde"},"district":{"key":"01060","name":"Segeberg","type":"Kreis"},"federalState":{"key":"01","name":"Schleswig-Holstein"}},{"name":"Jahnstr.","postalCode":"74906","locality":"Bad Rappenau","municipality":{"key":"08125006","name":"Bad Rappenau, Stadt","type":"Große_Kreisstadt"},"district":{"key":"08125","name":"Heilbronn","type":"Landkreis"},"federalState":{"key":"08","name":"Baden-Württemberg"}},{"name":"Jahnstr.","postalCode":"77767","locality":"Appenweier","municipality":{"key":"08317005","name":"Appenweier","type":"Kreisangehörige_Gemeinde"},"district":{"key":"08317","name":"Ortenaukreis","type":"Landkreis"},"federalState":{"key":"08","name":"Baden-Württemberg"}},{"name":"Jahrenheidsweg","postalCode":"25482","locality":"Appen","municipality":{"key":"01056001","name":"Appen","type":"Kreisangehörige_Gemeinde"},"district":{"key":"01056","name":"Pinneberg","type":"Kreis"},"federalState":{"key":"01","name":"Schleswig-Holstein"}},{"name":"Jakobstr.","postalCode":"77767","locality":"Appenweier","municipality":{"key":"08317005","name":"Appenweier","type":"Kreisangehörige_Gemeinde"},"district":{"key":"08317","name":"Ortenaukreis","type":"Landkreis"},"federalState":{"key":"08","name":"Baden-Württemberg"}},{"name":"Jenaer Weg","postalCode":"74906","locality":"Bad Rappenau","municipality":{"key":"08125006","name":"Bad Rappenau, Stadt","type":"Große_Kreisstadt"},"district":{"key":"08125","name":"Heilbronn","type":"Landkreis"},"federalState":{"key":"08","name":"Baden-Württemberg"}},{"name":"Johannes-Moll-Str.","postalCode":"74906","locality":"Bad Rappenau","municipality":{"key":"08125006","name":"Bad Rappenau, Stadt","type":"Große_Kreisstadt"},"district":{"key":"08125","name":"Heilbronn","type":"Landkreis"},"federalState":{"key":"08","name":"Baden-Württemberg"}},{"name":"Johann-Strauß-Str.","postalCode":"74906","locality":"Bad Rappenau","municipality":{"key":"08125006","name":"Bad Rappenau, Stadt","type":"Große_Kreisstadt"},"district":{"key":"08125","name":"Heilbronn","type":"Landkreis"},"federalState":{"key":"08","name":"Baden-Württemberg"}},{"name":"Josefsgasse","postalCode":"77767","locality":"Appenweier","municipality":{"key":"08317005","name":"Appenweier","type":"Kreisangehörige_Gemeinde"},"district":{"key":"08317","name":"Ortenaukreis","type":"Landkreis"},"federalState":{"key":"08","name":"Baden-Württemberg"}},{"name":"Kaacksburg","postalCode":"24594","locality":"Tappendorf","municipality":{"key":"01058159","name":"Tappendorf","type":"Kreisangehörige_Gemeinde"},"district":{"key":"01058","name":"Rendsburg-Eckernförde","type":"Kreis"},"federalState":{"key":"01","name":"Schleswig-Holstein"}},{"name":"Käfernweg","postalCode":"74906","locality":"Bad Rappenau","municipality":{"key":"08125006","name":"Bad Rappenau, Stadt","type":"Große_Kreisstadt"},"district":{"key":"08125","name":"Heilbronn","type":"Landkreis"},"federalState":{"key":"08","name":"Baden-Württemberg"}},{"name":"Kandelweg","postalCode":"74906","locality":"Bad Rappenau","municipality":{"key":"08125006","name":"Bad Rappenau, Stadt","type":"Große_Kreisstadt"},"district":{"key":"08125","name":"Heilbronn","type":"Landkreis"},"federalState":{"key":"08","name":"Baden-Württemberg"}},{"name":"Kantstr.","postalCode":"74906","locality":"Bad Rappenau","municipality":{"key":"08125006","name":"Bad Rappenau, Stadt","type":"Große_Kreisstadt"},"district":{"key":"08125","name":"Heilbronn","type":"Landkreis"},"federalState":{"key":"08","name":"Baden-Württemberg"}},{"name":"Kapellengasse","postalCode":"77767","locality":"Appenweier","municipality":{"key":"08317005","name":"Appenweier","type":"Kreisangehörige_Gemeinde"},"district":{"key":"08317","name":"Ortenaukreis","type":"Landkreis"},"federalState":{"key":"08","name":"Baden-Württemberg"}},{"name":"Kärlegartenstr.","postalCode":"74906","locality":"Bad Rappenau","municipality":{"key":"08125006","name":"Bad Rappenau, Stadt","type":"Große_Kreisstadt"},"district":{"key":"08125","name":"Heilbronn","type":"Landkreis"},"federalState":{"key":"08","name":"Baden-Württemberg"}},{"name":"Karl-Rausch-Str.","postalCode":"74906","locality":"Bad Rappenau","municipality":{"key":"08125006","name":"Bad Rappenau, Stadt","type":"Große_Kreisstadt"},"district":{"key":"08125","name":"Heilbronn","type":"Landkreis"},"federalState":{"key":"08","name":"Baden-Württemberg"}},{"name":"Karlshof","postalCode":"74906","locality":"Bad Rappenau","municipality":{"key":"08125006","name":"Bad Rappenau, Stadt","type":"Große_Kreisstadt"},"district":{"key":"08125","name":"Heilbronn","type":"Landkreis"},"federalState":{"key":"08","name":"Baden-Württemberg"}},{"name":"Karolingerweg","postalCode":"77767","locality":"Appenweier","municipality":{"key":"08317005","name":"Appenweier","type":"Kreisangehörige_Gemeinde"},"district":{"key":"08317","name":"Ortenaukreis","type":"Landkreis"},"federalState":{"key":"08","name":"Baden-Württemberg"}},{"name":"Kastanienring","postalCode":"74906","locality":"Bad Rappenau","municipality":{"key":"08125006","name":"Bad Rappenau, Stadt","type":"Große_Kreisstadt"},"district":{"key":"08125","name":"Heilbronn","type":"Landkreis"},"federalState":{"key":"08","name":"Baden-Württemberg"}},{"name":"Kastellstr.","postalCode":"74906","locality":"Bad Rappenau","municipality":{"key":"08125006","name":"Bad Rappenau, Stadt","type":"Große_Kreisstadt"},"district":{"key":"08125","name":"Heilbronn","type":"Landkreis"},"federalState":{"key":"08","name":"Baden-Württemberg"}},{"name":"Keltenstr.","postalCode":"77767","locality":"Appenweier","municipality":{"key":"08317005","name":"Appenweier","type":"Kreisangehörige_Gemeinde"},"district":{"key":"08317","name":"Ortenaukreis","type":"Landkreis"},"federalState":{"key":"08","name":"Baden-Württemberg"}},{"name":"Kernerstr.","postalCode":"74906","locality":"Bad Rappenau","municipality":{"key":"08125006","name":"Bad Rappenau, Stadt","type":"Große_Kreisstadt"},"district":{"key":"08125","name":"Heilbronn","type":"Landkreis"},"federalState":{"key":"08","name":"Baden-Württemberg"}},{"name":"Kesselwiesenstr.","postalCode":"74906","locality":"Bad Rappenau","municipality":{"key":"08125006","name":"Bad Rappenau, Stadt","type":"Große_Kreisstadt"},"district":{"key":"08125","name":"Heilbronn","type":"Landkreis"},"federalState":{"key":"08","name":"Baden-Württemberg"}},{"name":"Kieferneck","postalCode":"24610","locality":"Trappenkamp","municipality":{"key":"01060089","name":"Trappenkamp","type":"Kreisangehörige_Gemeinde"},"district":{"key":"01060","name":"Segeberg","type":"Kreis"},"federalState":{"key":"01","name":"Schleswig-Holstein"}},{"name":"Kiefernweg","postalCode":"74906","locality":"Bad Rappenau","municipality":{"key":"08125006","name":"Bad Rappenau, Stadt","type":"Große_Kreisstadt"},"district":{"key":"08125","name":"Heilbronn","type":"Landkreis"},"federalState":{"key":"08","name":"Baden-Württemberg"}},{"name":"Kieler Str.","postalCode":"24594","locality":"Tappendorf","municipality":{"key":"01058159","name":"Tappendorf","type":"Kreisangehörige_Gemeinde"},"district":{"key":"01058","name":"Rendsburg-Eckernförde","type":"Kreis"},"federalState":{"key":"01","name":"Schleswig-Holstein"}},{"name":"Kieler Str.","postalCode":"24610","locality":"Trappenkamp","municipality":{"key":"01060089","name":"Trappenkamp","type":"Kreisangehörige_Gemeinde"},"district":{"key":"01060","name":"Segeberg","type":"Kreis"},"federalState":{"key":"01","name":"Schleswig-Holstein"}},{"name":"Kiesweg","postalCode":"74906","locality":"Bad Rappenau","municipality":{"key":"08125006","name":"Bad Rappenau, Stadt","type":"Große_Kreisstadt"},"district":{"key":"08125","name":"Heilbronn","type":"Landkreis"},"federalState":{"key":"08","name":"Baden-Württemberg"}},{"name":"Kirchardter Str.","postalCode":"74906","locality":"Bad Rappenau","municipality":{"key":"08125006","name":"Bad Rappenau, Stadt","type":"Große_Kreisstadt"},"district":{"key":"08125","name":"Heilbronn","type":"Landkreis"},"federalState":{"key":"08","name":"Baden-Württemberg"}},{"name":"Kirchardter Weg","postalCode":"74906","locality":"Bad Rappenau","municipality":{"key":"08125006","name":"Bad Rappenau, Stadt","type":"Große_Kreisstadt"},"district":{"key":"08125","name":"Heilbronn","type":"Landkreis"},"federalState":{"key":"08","name":"Baden-Württemberg"}},{"name":"Kirchardtsbrunnen","postalCode":"74906","locality":"Bad Rappenau","municipality":{"key":"08125006","name":"Bad Rappenau, Stadt","type":"Große_Kreisstadt"},"district":{"key":"08125","name":"Heilbronn","type":"Landkreis"},"federalState":{"key":"08","name":"Baden-Württemberg"}},{"name":"Kirchenfeldstr.","postalCode":"91788","locality":"Pappenheim","municipality":{"key":"09577158","name":"Pappenheim, St","type":"Stadt"},"district":{"key":"09577","name":"Weißenburg-Gunzenhausen","type":"Landkreis"},"federalState":{"key":"09","name":"Bayern"}},{"name":"Kirchengasse","postalCode":"91788","locality":"Pappenheim","municipality":{"key":"09577158","name":"Pappenheim, St","type":"Stadt"},"district":{"key":"09577","name":"Weißenburg-Gunzenhausen","type":"Landkreis"},"federalState":{"key":"09","name":"Bayern"}},{"name":"Kirchenstr.","postalCode":"74906","locality":"Bad Rappenau","municipality":{"key":"08125006","name":"Bad Rappenau, Stadt","type":"Große_Kreisstadt"},"district":{"key":"08125","name":"Heilbronn","type":"Landkreis"},"federalState":{"key":"08","name":"Baden-Württemberg"}},{"name":"Kirchgarten","postalCode":"91788","locality":"Pappenheim","municipality":{"key":"09577158","name":"Pappenheim, St","type":"Stadt"},"district":{"key":"09577","name":"Weißenburg-Gunzenhausen","type":"Landkreis"},"federalState":{"key":"09","name":"Bayern"}},{"name":"Kirchhausener Str.","postalCode":"74906","locality":"Bad Rappenau","municipality":{"key":"08125006","name":"Bad Rappenau, Stadt","type":"Große_Kreisstadt"},"district":{"key":"08125","name":"Heilbronn","type":"Landkreis"},"federalState":{"key":"08","name":"Baden-Württemberg"}},{"name":"Kirchstr.","postalCode":"74906","locality":"Bad Rappenau","municipality":{"key":"08125006","name":"Bad Rappenau, Stadt","type":"Große_Kreisstadt"},"district":{"key":"08125","name":"Heilbronn","type":"Landkreis"},"federalState":{"key":"08","name":"Baden-Württemberg"}},{"name":"Kirchstr.","postalCode":"77767","locality":"Appenweier","municipality":{"key":"08317005","name":"Appenweier","type":"Kreisangehörige_Gemeinde"},"district":{"key":"08317","name":"Ortenaukreis","type":"Landkreis"},"federalState":{"key":"08","name":"Baden-Württemberg"}},{"name":"Kirchweg","postalCode":"56294","locality":"Gappenach","municipality":{"key":"07137027","name":"Gappenach","type":"Kreisangehörige_Gemeinde"},"district":{"key":"07137","name":"Mayen-Koblenz","type":"Landkreis"},"federalState":{"key":"07","name":"Rheinland-Pfalz"}},{"name":"Kirchweihplatz","postalCode":"91788","locality":"Pappenheim","municipality":{"key":"09577158","name":"Pappenheim, St","type":"Stadt"},"district":{"key":"09577","name":"Weißenburg-Gunzenhausen","type":"Landkreis"},"federalState":{"key":"09","name":"Bayern"}},{"name":"Klausenpfad","postalCode":"74906","locality":"Bad Rappenau","municipality":{"key":"08125006","name":"Bad Rappenau, Stadt","type":"Große_Kreisstadt"},"district":{"key":"08125","name":"Heilbronn","type":"Landkreis"},"federalState":{"key":"08","name":"Baden-Württemberg"}},{"name":"Kleiner Burggartenweg","postalCode":"74906","locality":"Bad Rappenau","municipality":{"key":"08125006","name":"Bad Rappenau, Stadt","type":"Große_Kreisstadt"},"district":{"key":"08125","name":"Heilbronn","type":"Landkreis"},"federalState":{"key":"08","name":"Baden-Württemberg"}},{"name":"Kleiststr.","postalCode":"74906","locality":"Bad Rappenau","municipality":{"key":"08125006","name":"Bad Rappenau, Stadt","type":"Große_Kreisstadt"},"district":{"key":"08125","name":"Heilbronn","type":"Landkreis"},"federalState":{"key":"08","name":"Baden-Württemberg"}},{"name":"Klemensgasse","postalCode":"77767","locality":"Appenweier","municipality":{"key":"08317005","name":"Appenweier","type":"Kreisangehörige_Gemeinde"},"district":{"key":"08317","name":"Ortenaukreis","type":"Landkreis"},"federalState":{"key":"08","name":"Baden-Württemberg"}},{"name":"Klingenstr.","postalCode":"74906","locality":"Bad Rappenau","municipality":{"key":"08125006","name":"Bad Rappenau, Stadt","type":"Große_Kreisstadt"},"district":{"key":"08125","name":"Heilbronn","type":"Landkreis"},"federalState":{"key":"08","name":"Baden-Württemberg"}},{"name":"Klingenweg","postalCode":"74906","locality":"Bad Rappenau","municipality":{"key":"08125006","name":"Bad Rappenau, Stadt","type":"Große_Kreisstadt"},"district":{"key":"08125","name":"Heilbronn","type":"Landkreis"},"federalState":{"key":"08","name":"Baden-Württemberg"}},{"name":"Kloppgasse","postalCode":"55437","locality":"Appenheim","municipality":{"key":"07339001","name":"Appenheim","type":"Kreisangehörige_Gemeinde"},"district":{"key":"07339","name":"Mainz-Bingen","type":"Landkreis"},"federalState":{"key":"07","name":"Rheinland-Pfalz"}},{"name":"Klosterstr.","postalCode":"91788","locality":"Pappenheim","municipality":{"key":"09577158","name":"Pappenheim, St","type":"Stadt"},"district":{"key":"09577","name":"Weißenburg-Gunzenhausen","type":"Landkreis"},"federalState":{"key":"09","name":"Bayern"}},{"name":"Kniebisstr.","postalCode":"77767","locality":"Appenweier","municipality":{"key":"08317005","name":"Appenweier","type":"Kreisangehörige_Gemeinde"},"district":{"key":"08317","name":"Ortenaukreis","type":"Landkreis"},"federalState":{"key":"08","name":"Baden-Württemberg"}},{"name":"Kobachweg","postalCode":"74906","locality":"Bad Rappenau","municipality":{"key":"08125006","name":"Bad Rappenau, Stadt","type":"Große_Kreisstadt"},"district":{"key":"08125","name":"Heilbronn","type":"Landkreis"},"federalState":{"key":"08","name":"Baden-Württemberg"}},{"name":"Kohlgärten","postalCode":"38479","locality":"Tappenbeck","municipality":{"key":"03151030","name":"Tappenbeck","type":"Kreisangehörige_Gemeinde"},"district":{"key":"03151","name":"Gifhorn","type":"Landkreis"},"federalState":{"key":"03","name":"Niedersachsen"}},{"name":"Kohlhof","postalCode":"74906","locality":"Bad Rappenau","municipality":{"key":"08125006","name":"Bad Rappenau, Stadt","type":"Große_Kreisstadt"},"district":{"key":"08125","name":"Heilbronn","type":"Landkreis"},"federalState":{"key":"08","name":"Baden-Württemberg"}},{"name":"Kohlstatt","postalCode":"77767","locality":"Appenweier","municipality":{"key":"08317005","name":"Appenweier","type":"Kreisangehörige_Gemeinde"},"district":{"key":"08317","name":"Ortenaukreis","type":"Landkreis"},"federalState":{"key":"08","name":"Baden-Württemberg"}},{"name":"Kolpingstr.","postalCode":"56294","locality":"Gappenach","municipality":{"key":"07137027","name":"Gappenach","type":"Kreisangehörige_Gemeinde"},"district":{"key":"07137","name":"Mayen-Koblenz","type":"Landkreis"},"federalState":{"key":"07","name":"Rheinland-Pfalz"}},{"name":"Königsberger Str.","postalCode":"24610","locality":"Trappenkamp","municipality":{"key":"01060089","name":"Trappenkamp","type":"Kreisangehörige_Gemeinde"},"district":{"key":"01060","name":"Segeberg","type":"Kreis"},"federalState":{"key":"01","name":"Schleswig-Holstein"}},{"name":"Krabatenmoorweg","postalCode":"25482","locality":"Appen","municipality":{"key":"01056001","name":"Appen","type":"Kreisangehörige_Gemeinde"},"district":{"key":"01056","name":"Pinneberg","type":"Kreis"},"federalState":{"key":"01","name":"Schleswig-Holstein"}},{"name":"Krähenkamp","postalCode":"25482","locality":"Appen","municipality":{"key":"01056001","name":"Appen","type":"Kreisangehörige_Gemeinde"},"district":{"key":"01056","name":"Pinneberg","type":"Kreis"},"federalState":{"key":"01","name":"Schleswig-Holstein"}},{"name":"Kraichgauallee","postalCode":"74906","locality":"Bad Rappenau","municipality":{"key":"08125006","name":"Bad Rappenau, Stadt","type":"Große_Kreisstadt"},"district":{"key":"08125","name":"Heilbronn","type":"Landkreis"},"federalState":{"key":"08","name":"Baden-Württemberg"}},{"name":"Krebsbachstr.","postalCode":"74906","locality":"Bad Rappenau","municipality":{"key":"08125006","name":"Bad Rappenau, Stadt","type":"Große_Kreisstadt"},"district":{"key":"08125","name":"Heilbronn","type":"Landkreis"},"federalState":{"key":"08","name":"Baden-Württemberg"}},{"name":"Lachgartenweg","postalCode":"91788","locality":"Pappenheim","municipality":{"key":"09577158","name":"Pappenheim, St","type":"Stadt"},"district":{"key":"09577","name":"Weißenburg-Gunzenhausen","type":"Landkreis"},"federalState":{"key":"09","name":"Bayern"}},{"name":"Landstr.","postalCode":"77767","locality":"Appenweier","municipality":{"key":"08317005","name":"Appenweier","type":"Kreisangehörige_Gemeinde"},"district":{"key":"08317","name":"Ortenaukreis","type":"Landkreis"},"federalState":{"key":"08","name":"Baden-Württemberg"}},{"name":"Lange Linie","postalCode":"91788","locality":"Pappenheim","municipality":{"key":"09577158","name":"Pappenheim, St","type":"Stadt"},"district":{"key":"09577","name":"Weißenburg-Gunzenhausen","type":"Landkreis"},"federalState":{"key":"09","name":"Bayern"}},{"name":"Lange Mauer","postalCode":"74906","locality":"Bad Rappenau","municipality":{"key":"08125006","name":"Bad Rappenau, Stadt","type":"Große_Kreisstadt"},"district":{"key":"08125","name":"Heilbronn","type":"Landkreis"},"federalState":{"key":"08","name":"Baden-Württemberg"}},{"name":"Langenaltheimer Str.","postalCode":"91788","locality":"Pappenheim","municipality":{"key":"09577158","name":"Pappenheim, St","type":"Stadt"},"district":{"key":"09577","name":"Weißenburg-Gunzenhausen","type":"Landkreis"},"federalState":{"key":"09","name":"Bayern"}},{"name":"Langentalweg","postalCode":"74906","locality":"Bad Rappenau","municipality":{"key":"08125006","name":"Bad Rappenau, Stadt","type":"Große_Kreisstadt"},"district":{"key":"08125","name":"Heilbronn","type":"Landkreis"},"federalState":{"key":"08","name":"Baden-Württemberg"}},{"name":"Laubenhof","postalCode":"77767","locality":"Appenweier","municipality":{"key":"08317005","name":"Appenweier","type":"Kreisangehörige_Gemeinde"},"district":{"key":"08317","name":"Ortenaukreis","type":"Landkreis"},"federalState":{"key":"08","name":"Baden-Württemberg"}},{"name":"Leharstr.","postalCode":"74906","locality":"Bad Rappenau","municipality":{"key":"08125006","name":"Bad Rappenau, Stadt","type":"Große_Kreisstadt"},"district":{"key":"08125","name":"Heilbronn","type":"Landkreis"},"federalState":{"key":"08","name":"Baden-Württemberg"}},{"name":"Lehensteige","postalCode":"74906","locality":"Bad Rappenau","municipality":{"key":"08125006","name":"Bad Rappenau, Stadt","type":"Große_Kreisstadt"},"district":{"key":"08125","name":"Heilbronn","type":"Landkreis"},"federalState":{"key":"08","name":"Baden-Württemberg"}},{"name":"Lehmweg","postalCode":"25482","locality":"Appen","municipality":{"key":"01056001","name":"Appen","type":"Kreisangehörige_Gemeinde"},"district":{"key":"01056","name":"Pinneberg","type":"Kreis"},"federalState":{"key":"01","name":"Schleswig-Holstein"}},{"name":"Leibnizstr.","postalCode":"74906","locality":"Bad Rappenau","municipality":{"key":"08125006","name":"Bad Rappenau, Stadt","type":"Große_Kreisstadt"},"district":{"key":"08125","name":"Heilbronn","type":"Landkreis"},"federalState":{"key":"08","name":"Baden-Württemberg"}},{"name":"Leintalweg","postalCode":"74906","locality":"Bad Rappenau","municipality":{"key":"08125006","name":"Bad Rappenau, Stadt","type":"Große_Kreisstadt"},"district":{"key":"08125","name":"Heilbronn","type":"Landkreis"},"federalState":{"key":"08","name":"Baden-Württemberg"}},{"name":"Lerchenberg","postalCode":"74906","locality":"Bad Rappenau","municipality":{"key":"08125006","name":"Bad Rappenau, Stadt","type":"Große_Kreisstadt"},"district":{"key":"08125","name":"Heilbronn","type":"Landkreis"},"federalState":{"key":"08","name":"Baden-Württemberg"}},{"name":"Lerchenring","postalCode":"38479","locality":"Tappenbeck","municipality":{"key":"03151030","name":"Tappenbeck","type":"Kreisangehörige_Gemeinde"},"district":{"key":"03151","name":"Gifhorn","type":"Landkreis"},"federalState":{"key":"03","name":"Niedersachsen"}},{"name":"Lerchenstr.","postalCode":"74906","locality":"Bad Rappenau","municipality":{"key":"08125006","name":"Bad Rappenau, Stadt","type":"Große_Kreisstadt"},"district":{"key":"08125","name":"Heilbronn","type":"Landkreis"},"federalState":{"key":"08","name":"Baden-Württemberg"}},{"name":"Lerchenweg","postalCode":"24610","locality":"Trappenkamp","municipality":{"key":"01060089","name":"Trappenkamp","type":"Kreisangehörige_Gemeinde"},"district":{"key":"01060","name":"Segeberg","type":"Kreis"},"federalState":{"key":"01","name":"Schleswig-Holstein"}},{"name":"Lerchenweg","postalCode":"74906","locality":"Bad Rappenau","municipality":{"key":"08125006","name":"Bad Rappenau, Stadt","type":"Große_Kreisstadt"},"district":{"key":"08125","name":"Heilbronn","type":"Landkreis"},"federalState":{"key":"08","name":"Baden-Württemberg"}},{"name":"Lessingstr.","postalCode":"24610","locality":"Trappenkamp","municipality":{"key":"01060089","name":"Trappenkamp","type":"Kreisangehörige_Gemeinde"},"district":{"key":"01060","name":"Segeberg","type":"Kreis"},"federalState":{"key":"01","name":"Schleswig-Holstein"}},{"name":"Lessingstr.","postalCode":"74906","locality":"Bad Rappenau","municipality":{"key":"08125006","name":"Bad Rappenau, Stadt","type":"Große_Kreisstadt"},"district":{"key":"08125","name":"Heilbronn","type":"Landkreis"},"federalState":{"key":"08","name":"Baden-Württemberg"}},{"name":"Liliencronweg","postalCode":"24610","locality":"Trappenkamp","municipality":{"key":"01060089","name":"Trappenkamp","type":"Kreisangehörige_Gemeinde"},"district":{"key":"01060","name":"Segeberg","type":"Kreis"},"federalState":{"key":"01","name":"Schleswig-Holstein"}},{"name":"Lilienstr.","postalCode":"74906","locality":"Bad Rappenau","municipality":{"key":"08125006","name":"Bad Rappenau, Stadt","type":"Große_Kreisstadt"},"district":{"key":"08125","name":"Heilbronn","type":"Landkreis"},"federalState":{"key":"08","name":"Baden-Württemberg"}},{"name":"Limesstr.","postalCode":"74906","locality":"Bad Rappenau","municipality":{"key":"08125006","name":"Bad Rappenau, Stadt","type":"Große_Kreisstadt"},"district":{"key":"08125","name":"Heilbronn","type":"Landkreis"},"federalState":{"key":"08","name":"Baden-Württemberg"}},{"name":"Lindenstr.","postalCode":"25482","locality":"Appen","municipality":{"key":"01056001","name":"Appen","type":"Kreisangehörige_Gemeinde"},"district":{"key":"01056","name":"Pinneberg","type":"Kreis"},"federalState":{"key":"01","name":"Schleswig-Holstein"}},{"name":"Lindenstr.","postalCode":"74906","locality":"Bad Rappenau","municipality":{"key":"08125006","name":"Bad Rappenau, Stadt","type":"Große_Kreisstadt"},"district":{"key":"08125","name":"Heilbronn","type":"Landkreis"},"federalState":{"key":"08","name":"Baden-Württemberg"}},{"name":"Lindenweg","postalCode":"77767","locality":"Appenweier","municipality":{"key":"08317005","name":"Appenweier","type":"Kreisangehörige_Gemeinde"},"district":{"key":"08317","name":"Ortenaukreis","type":"Landkreis"},"federalState":{"key":"08","name":"Baden-Württemberg"}},{"name":"Linsenbergstr.","postalCode":"74906","locality":"Bad Rappenau","municipality":{"key":"08125006","name":"Bad Rappenau, Stadt","type":"Große_Kreisstadt"},"district":{"key":"08125","name":"Heilbronn","type":"Landkreis"},"federalState":{"key":"08","name":"Baden-Württemberg"}},{"name":"Linsenbuschweg","postalCode":"74906","locality":"Bad Rappenau","municipality":{"key":"08125006","name":"Bad Rappenau, Stadt","type":"Große_Kreisstadt"},"district":{"key":"08125","name":"Heilbronn","type":"Landkreis"},"federalState":{"key":"08","name":"Baden-Württemberg"}},{"name":"Lisztstr.","postalCode":"74906","locality":"Bad Rappenau","municipality":{"key":"08125006","name":"Bad Rappenau, Stadt","type":"Große_Kreisstadt"},"district":{"key":"08125","name":"Heilbronn","type":"Landkreis"},"federalState":{"key":"08","name":"Baden-Württemberg"}},{"name":"Lortzingstr.","postalCode":"74906","locality":"Bad Rappenau","municipality":{"key":"08125006","name":"Bad Rappenau, Stadt","type":"Große_Kreisstadt"},"district":{"key":"08125","name":"Heilbronn","type":"Landkreis"},"federalState":{"key":"08","name":"Baden-Württemberg"}},{"name":"Ludwigstr.","postalCode":"74906","locality":"Bad Rappenau","municipality":{"key":"08125006","name":"Bad Rappenau, Stadt","type":"Große_Kreisstadt"},"district":{"key":"08125","name":"Heilbronn","type":"Landkreis"},"federalState":{"key":"08","name":"Baden-Württemberg"}},{"name":"Ludwig-Winter-Str.","postalCode":"77767","locality":"Appenweier","municipality":{"key":"08317005","name":"Appenweier","type":"Kreisangehörige_Gemeinde"},"district":{"key":"08317","name":"Ortenaukreis","type":"Landkreis"},"federalState":{"key":"08","name":"Baden-Württemberg"}},{"name":"Lummerland","postalCode":"24610","locality":"Trappenkamp","municipality":{"key":"01060089","name":"Trappenkamp","type":"Kreisangehörige_Gemeinde"},"district":{"key":"01060","name":"Segeberg","type":"Kreis"},"federalState":{"key":"01","name":"Schleswig-Holstein"}},{"name":"Märchenstr.","postalCode":"74906","locality":"Bad Rappenau","municipality":{"key":"08125006","name":"Bad Rappenau, Stadt","type":"Große_Kreisstadt"},"district":{"key":"08125","name":"Heilbronn","type":"Landkreis"},"federalState":{"key":"08","name":"Baden-Württemberg"}},{"name":"Marktplatz","postalCode":"91788","locality":"Pappenheim","municipality":{"key":"09577158","name":"Pappenheim, St","type":"Stadt"},"district":{"key":"09577","name":"Weißenburg-Gunzenhausen","type":"Landkreis"},"federalState":{"key":"09","name":"Bayern"}},{"name":"Martenshof","postalCode":"25482","locality":"Appen","municipality":{"key":"01056001","name":"Appen","type":"Kreisangehörige_Gemeinde"},"district":{"key":"01056","name":"Pinneberg","type":"Kreis"},"federalState":{"key":"01","name":"Schleswig-Holstein"}},{"name":"Martin-Luther-Str.","postalCode":"74906","locality":"Bad Rappenau","municipality":{"key":"08125006","name":"Bad Rappenau, Stadt","type":"Große_Kreisstadt"},"district":{"key":"08125","name":"Heilbronn","type":"Landkreis"},"federalState":{"key":"08","name":"Baden-Württemberg"}},{"name":"Massenbachhausener Str.","postalCode":"74906","locality":"Bad Rappenau","municipality":{"key":"08125006","name":"Bad Rappenau, Stadt","type":"Große_Kreisstadt"},"district":{"key":"08125","name":"Heilbronn","type":"Landkreis"},"federalState":{"key":"08","name":"Baden-Württemberg"}},{"name":"Mattenstr.","postalCode":"77767","locality":"Appenweier","municipality":{"key":"08317005","name":"Appenweier","type":"Kreisangehörige_Gemeinde"},"district":{"key":"08317","name":"Ortenaukreis","type":"Landkreis"},"federalState":{"key":"08","name":"Baden-Württemberg"}},{"name":"Maximinstr.","postalCode":"56294","locality":"Gappenach","municipality":{"key":"07137027","name":"Gappenach","type":"Kreisangehörige_Gemeinde"},"district":{"key":"07137","name":"Mayen-Koblenz","type":"Landkreis"},"federalState":{"key":"07","name":"Rheinland-Pfalz"}},{"name":"Max-Klemm-Str.","postalCode":"91788","locality":"Pappenheim","municipality":{"key":"09577158","name":"Pappenheim, St","type":"Stadt"},"district":{"key":"09577","name":"Weißenburg-Gunzenhausen","type":"Landkreis"},"federalState":{"key":"09","name":"Bayern"}},{"name":"Mayerhof","postalCode":"74906","locality":"Bad Rappenau","municipality":{"key":"08125006","name":"Bad Rappenau, Stadt","type":"Große_Kreisstadt"},"district":{"key":"08125","name":"Heilbronn","type":"Landkreis"},"federalState":{"key":"08","name":"Baden-Württemberg"}},{"name":"Meerrettichdorfbrücke","postalCode":"77767","locality":"Appenweier","municipality":{"key":"08317005","name":"Appenweier","type":"Kreisangehörige_Gemeinde"},"district":{"key":"08317","name":"Ortenaukreis","type":"Landkreis"},"federalState":{"key":"08","name":"Baden-Württemberg"}},{"name":"Meerrettichdorfstr.","postalCode":"77767","locality":"Appenweier","municipality":{"key":"08317005","name":"Appenweier","type":"Kreisangehörige_Gemeinde"},"district":{"key":"08317","name":"Ortenaukreis","type":"Landkreis"},"federalState":{"key":"08","name":"Baden-Württemberg"}},{"name":"Meiergasse","postalCode":"91788","locality":"Pappenheim","municipality":{"key":"09577158","name":"Pappenheim, St","type":"Stadt"},"district":{"key":"09577","name":"Weißenburg-Gunzenhausen","type":"Landkreis"},"federalState":{"key":"09","name":"Bayern"}},{"name":"Meininger Weg","postalCode":"74906","locality":"Bad Rappenau","municipality":{"key":"08125006","name":"Bad Rappenau, Stadt","type":"Große_Kreisstadt"},"district":{"key":"08125","name":"Heilbronn","type":"Landkreis"},"federalState":{"key":"08","name":"Baden-Württemberg"}},{"name":"Meisenweg","postalCode":"24610","locality":"Trappenkamp","municipality":{"key":"01060089","name":"Trappenkamp","type":"Kreisangehörige_Gemeinde"},"district":{"key":"01060","name":"Segeberg","type":"Kreis"},"federalState":{"key":"01","name":"Schleswig-Holstein"}},{"name":"Meisenweg","postalCode":"74906","locality":"Bad Rappenau","municipality":{"key":"08125006","name":"Bad Rappenau, Stadt","type":"Große_Kreisstadt"},"district":{"key":"08125","name":"Heilbronn","type":"Landkreis"},"federalState":{"key":"08","name":"Baden-Württemberg"}},{"name":"Meißener Weg","postalCode":"74906","locality":"Bad Rappenau","municipality":{"key":"08125006","name":"Bad Rappenau, Stadt","type":"Große_Kreisstadt"},"district":{"key":"08125","name":"Heilbronn","type":"Landkreis"},"federalState":{"key":"08","name":"Baden-Württemberg"}},{"name":"Merkurstr.","postalCode":"74906","locality":"Bad Rappenau","municipality":{"key":"08125006","name":"Bad Rappenau, Stadt","type":"Große_Kreisstadt"},"district":{"key":"08125","name":"Heilbronn","type":"Landkreis"},"federalState":{"key":"08","name":"Baden-Württemberg"}},{"name":"Michael-Ende-Weg","postalCode":"24610","locality":"Trappenkamp","municipality":{"key":"01060089","name":"Trappenkamp","type":"Kreisangehörige_Gemeinde"},"district":{"key":"01060","name":"Segeberg","type":"Kreis"},"federalState":{"key":"01","name":"Schleswig-Holstein"}},{"name":"Mittelfeld","postalCode":"77767","locality":"Appenweier","municipality":{"key":"08317005","name":"Appenweier","type":"Kreisangehörige_Gemeinde"},"district":{"key":"08317","name":"Ortenaukreis","type":"Landkreis"},"federalState":{"key":"08","name":"Baden-Württemberg"}},{"name":"Mittelmarterhof","postalCode":"91788","locality":"Pappenheim","municipality":{"key":"09577158","name":"Pappenheim, St","type":"Stadt"},"district":{"key":"09577","name":"Weißenburg-Gunzenhausen","type":"Landkreis"},"federalState":{"key":"09","name":"Bayern"}},{"name":"Mittelstr.","postalCode":"74906","locality":"Bad Rappenau","municipality":{"key":"08125006","name":"Bad Rappenau, Stadt","type":"Große_Kreisstadt"},"district":{"key":"08125","name":"Heilbronn","type":"Landkreis"},"federalState":{"key":"08","name":"Baden-Württemberg"}},{"name":"Mittelweg","postalCode":"38479","locality":"Tappenbeck","municipality":{"key":"03151030","name":"Tappenbeck","type":"Kreisangehörige_Gemeinde"},"district":{"key":"03151","name":"Gifhorn","type":"Landkreis"},"federalState":{"key":"03","name":"Niedersachsen"}},{"name":"Montlouisring","postalCode":"77767","locality":"Appenweier","municipality":{"key":"08317005","name":"Appenweier","type":"Kreisangehörige_Gemeinde"},"district":{"key":"08317","name":"Ortenaukreis","type":"Landkreis"},"federalState":{"key":"08","name":"Baden-Württemberg"}},{"name":"Moorweg","postalCode":"25482","locality":"Appen","municipality":{"key":"01056001","name":"Appen","type":"Kreisangehörige_Gemeinde"},"district":{"key":"01056","name":"Pinneberg","type":"Kreis"},"federalState":{"key":"01","name":"Schleswig-Holstein"}},{"name":"Moorweg","postalCode":"38479","locality":"Tappenbeck","municipality":{"key":"03151030","name":"Tappenbeck","type":"Kreisangehörige_Gemeinde"},"district":{"key":"03151","name":"Gifhorn","type":"Landkreis"},"federalState":{"key":"03","name":"Niedersachsen"}},{"name":"Moosweg","postalCode":"77767","locality":"Appenweier","municipality":{"key":"08317005","name":"Appenweier","type":"Kreisangehörige_Gemeinde"},"district":{"key":"08317","name":"Ortenaukreis","type":"Landkreis"},"federalState":{"key":"08","name":"Baden-Württemberg"}},{"name":"Mörikestr.","postalCode":"74906","locality":"Bad Rappenau","municipality":{"key":"08125006","name":"Bad Rappenau, Stadt","type":"Große_Kreisstadt"},"district":{"key":"08125","name":"Heilbronn","type":"Landkreis"},"federalState":{"key":"08","name":"Baden-Württemberg"}},{"name":"Mozartstr.","postalCode":"74906","locality":"Bad Rappenau","municipality":{"key":"08125006","name":"Bad Rappenau, Stadt","type":"Große_Kreisstadt"},"district":{"key":"08125","name":"Heilbronn","type":"Landkreis"},"federalState":{"key":"08","name":"Baden-Württemberg"}},{"name":"Mozartweg","postalCode":"24610","locality":"Trappenkamp","municipality":{"key":"01060089","name":"Trappenkamp","type":"Kreisangehörige_Gemeinde"},"district":{"key":"01060","name":"Segeberg","type":"Kreis"},"federalState":{"key":"01","name":"Schleswig-Holstein"}},{"name":"Mozartweg","postalCode":"77767","locality":"Appenweier","municipality":{"key":"08317005","name":"Appenweier","type":"Kreisangehörige_Gemeinde"},"district":{"key":"08317","name":"Ortenaukreis","type":"Landkreis"},"federalState":{"key":"08","name":"Baden-Württemberg"}},{"name":"Mühlbergweg","postalCode":"74906","locality":"Bad Rappenau","municipality":{"key":"08125006","name":"Bad Rappenau, Stadt","type":"Große_Kreisstadt"},"district":{"key":"08125","name":"Heilbronn","type":"Landkreis"},"federalState":{"key":"08","name":"Baden-Württemberg"}},{"name":"Mühle","postalCode":"55437","locality":"Appenheim","municipality":{"key":"07339001","name":"Appenheim","type":"Kreisangehörige_Gemeinde"},"district":{"key":"07339","name":"Mainz-Bingen","type":"Landkreis"},"federalState":{"key":"07","name":"Rheinland-Pfalz"}},{"name":"Mühlenweg","postalCode":"38479","locality":"Tappenbeck","municipality":{"key":"03151030","name":"Tappenbeck","type":"Kreisangehörige_Gemeinde"},"district":{"key":"03151","name":"Gifhorn","type":"Landkreis"},"federalState":{"key":"03","name":"Niedersachsen"}},{"name":"Mühlgrabenstr.","postalCode":"74906","locality":"Bad Rappenau","municipality":{"key":"08125006","name":"Bad Rappenau, Stadt","type":"Große_Kreisstadt"},"district":{"key":"08125","name":"Heilbronn","type":"Landkreis"},"federalState":{"key":"08","name":"Baden-Württemberg"}},{"name":"Mühlhälde","postalCode":"74906","locality":"Bad Rappenau","municipality":{"key":"08125006","name":"Bad Rappenau, Stadt","type":"Große_Kreisstadt"},"district":{"key":"08125","name":"Heilbronn","type":"Landkreis"},"federalState":{"key":"08","name":"Baden-Württemberg"}},{"name":"Mühlstr.","postalCode":"55437","locality":"Appenheim","municipality":{"key":"07339001","name":"Appenheim","type":"Kreisangehörige_Gemeinde"},"district":{"key":"07339","name":"Mainz-Bingen","type":"Landkreis"},"federalState":{"key":"07","name":"Rheinland-Pfalz"}},{"name":"Mühlstr.","postalCode":"74906","locality":"Bad Rappenau","municipality":{"key":"08125006","name":"Bad Rappenau, Stadt","type":"Große_Kreisstadt"},"district":{"key":"08125","name":"Heilbronn","type":"Landkreis"},"federalState":{"key":"08","name":"Baden-Württemberg"}},{"name":"Mühlweg","postalCode":"74906","locality":"Bad Rappenau","municipality":{"key":"08125006","name":"Bad Rappenau, Stadt","type":"Große_Kreisstadt"},"district":{"key":"08125","name":"Heilbronn","type":"Landkreis"},"federalState":{"key":"08","name":"Baden-Württemberg"}},{"name":"Mühlweg","postalCode":"77767","locality":"Appenweier","municipality":{"key":"08317005","name":"Appenweier","type":"Kreisangehörige_Gemeinde"},"district":{"key":"08317","name":"Ortenaukreis","type":"Landkreis"},"federalState":{"key":"08","name":"Baden-Württemberg"}},{"name":"Mühlwiesenweg","postalCode":"74906","locality":"Bad Rappenau","municipality":{"key":"08125006","name":"Bad Rappenau, Stadt","type":"Große_Kreisstadt"},"district":{"key":"08125","name":"Heilbronn","type":"Landkreis"},"federalState":{"key":"08","name":"Baden-Württemberg"}},{"name":"Muhrstr.","postalCode":"77767","locality":"Appenweier","municipality":{"key":"08317005","name":"Appenweier","type":"Kreisangehörige_Gemeinde"},"district":{"key":"08317","name":"Ortenaukreis","type":"Landkreis"},"federalState":{"key":"08","name":"Baden-Württemberg"}},{"name":"Muldenweg","postalCode":"74906","locality":"Bad Rappenau","municipality":{"key":"08125006","name":"Bad Rappenau, Stadt","type":"Große_Kreisstadt"},"district":{"key":"08125","name":"Heilbronn","type":"Landkreis"},"federalState":{"key":"08","name":"Baden-Württemberg"}},{"name":"Nachtigallenweg","postalCode":"74906","locality":"Bad Rappenau","municipality":{"key":"08125006","name":"Bad Rappenau, Stadt","type":"Große_Kreisstadt"},"district":{"key":"08125","name":"Heilbronn","type":"Landkreis"},"federalState":{"key":"08","name":"Baden-Württemberg"}},{"name":"Nachtigallweg","postalCode":"24610","locality":"Trappenkamp","municipality":{"key":"01060089","name":"Trappenkamp","type":"Kreisangehörige_Gemeinde"},"district":{"key":"01060","name":"Segeberg","type":"Kreis"},"federalState":{"key":"01","name":"Schleswig-Holstein"}},{"name":"Nachtweide","postalCode":"77767","locality":"Appenweier","municipality":{"key":"08317005","name":"Appenweier","type":"Kreisangehörige_Gemeinde"},"district":{"key":"08317","name":"Ortenaukreis","type":"Landkreis"},"federalState":{"key":"08","name":"Baden-Württemberg"}},{"name":"Nähe Frankenschotter","postalCode":"91788","locality":"Pappenheim","municipality":{"key":"09577158","name":"Pappenheim, St","type":"Stadt"},"district":{"key":"09577","name":"Weißenburg-Gunzenhausen","type":"Landkreis"},"federalState":{"key":"09","name":"Bayern"}},{"name":"Naunheimer Str.","postalCode":"56294","locality":"Gappenach","municipality":{"key":"07137027","name":"Gappenach","type":"Kreisangehörige_Gemeinde"},"district":{"key":"07137","name":"Mayen-Koblenz","type":"Landkreis"},"federalState":{"key":"07","name":"Rheinland-Pfalz"}},{"name":"Neckarstr.","postalCode":"74906","locality":"Bad Rappenau","municipality":{"key":"08125006","name":"Bad Rappenau, Stadt","type":"Große_Kreisstadt"},"district":{"key":"08125","name":"Heilbronn","type":"Landkreis"},"federalState":{"key":"08","name":"Baden-Württemberg"}},{"name":"Nelkenstr.","postalCode":"74906","locality":"Bad Rappenau","municipality":{"key":"08125006","name":"Bad Rappenau, Stadt","type":"Große_Kreisstadt"},"district":{"key":"08125","name":"Heilbronn","type":"Landkreis"},"federalState":{"key":"08","name":"Baden-Württemberg"}},{"name":"Nesselrieder Str.","postalCode":"77767","locality":"Appenweier","municipality":{"key":"08317005","name":"Appenweier","type":"Kreisangehörige_Gemeinde"},"district":{"key":"08317","name":"Ortenaukreis","type":"Landkreis"},"federalState":{"key":"08","name":"Baden-Württemberg"}},{"name":"Neubrunnenstr.","postalCode":"74906","locality":"Bad Rappenau","municipality":{"key":"08125006","name":"Bad Rappenau, Stadt","type":"Große_Kreisstadt"},"district":{"key":"08125","name":"Heilbronn","type":"Landkreis"},"federalState":{"key":"08","name":"Baden-Württemberg"}},{"name":"Neuer-Berg-Weg","postalCode":"74906","locality":"Bad Rappenau","municipality":{"key":"08125006","name":"Bad Rappenau, Stadt","type":"Große_Kreisstadt"},"district":{"key":"08125","name":"Heilbronn","type":"Landkreis"},"federalState":{"key":"08","name":"Baden-Württemberg"}},{"name":"Neue Str.","postalCode":"74906","locality":"Bad Rappenau","municipality":{"key":"08125006","name":"Bad Rappenau, Stadt","type":"Große_Kreisstadt"},"district":{"key":"08125","name":"Heilbronn","type":"Landkreis"},"federalState":{"key":"08","name":"Baden-Württemberg"}},{"name":"Neugasse","postalCode":"55437","locality":"Appenheim","municipality":{"key":"07339001","name":"Appenheim","type":"Kreisangehörige_Gemeinde"},"district":{"key":"07339","name":"Mainz-Bingen","type":"Landkreis"},"federalState":{"key":"07","name":"Rheinland-Pfalz"}},{"name":"Neumühle","postalCode":"56294","locality":"Gappenach","municipality":{"key":"07137027","name":"Gappenach","type":"Kreisangehörige_Gemeinde"},"district":{"key":"07137","name":"Mayen-Koblenz","type":"Landkreis"},"federalState":{"key":"07","name":"Rheinland-Pfalz"}},{"name":"Neunmorgenweg","postalCode":"74906","locality":"Bad Rappenau","municipality":{"key":"08125006","name":"Bad Rappenau, Stadt","type":"Große_Kreisstadt"},"district":{"key":"08125","name":"Heilbronn","type":"Landkreis"},"federalState":{"key":"08","name":"Baden-Württemberg"}},{"name":"Neusiedlerstr.","postalCode":"91788","locality":"Pappenheim","municipality":{"key":"09577158","name":"Pappenheim, St","type":"Stadt"},"district":{"key":"09577","name":"Weißenburg-Gunzenhausen","type":"Landkreis"},"federalState":{"key":"09","name":"Bayern"}},{"name":"Niedergasse","postalCode":"55437","locality":"Appenheim","municipality":{"key":"07339001","name":"Appenheim","type":"Kreisangehörige_Gemeinde"},"district":{"key":"07339","name":"Mainz-Bingen","type":"Landkreis"},"federalState":{"key":"07","name":"Rheinland-Pfalz"}},{"name":"Niederländersteig","postalCode":"91788","locality":"Pappenheim","municipality":{"key":"09577158","name":"Pappenheim, St","type":"Stadt"},"district":{"key":"09577","name":"Weißenburg-Gunzenhausen","type":"Landkreis"},"federalState":{"key":"09","name":"Bayern"}},{"name":"Niederpappenheimer Str.","postalCode":"91788","locality":"Pappenheim","municipality":{"key":"09577158","name":"Pappenheim, St","type":"Stadt"},"district":{"key":"09577","name":"Weißenburg-Gunzenhausen","type":"Landkreis"},"federalState":{"key":"09","name":"Bayern"}},{"name":"Nördlicher Eichwaldweg","postalCode":"74906","locality":"Bad Rappenau","municipality":{"key":"08125006","name":"Bad Rappenau, Stadt","type":"Große_Kreisstadt"},"district":{"key":"08125","name":"Heilbronn","type":"Landkreis"},"federalState":{"key":"08","name":"Baden-Württemberg"}},{"name":"Nußäckerstr.","postalCode":"74906","locality":"Bad Rappenau","municipality":{"key":"08125006","name":"Bad Rappenau, Stadt","type":"Große_Kreisstadt"},"district":{"key":"08125","name":"Heilbronn","type":"Landkreis"},"federalState":{"key":"08","name":"Baden-Württemberg"}},{"name":"Nußbacher Str.","postalCode":"77767","locality":"Appenweier","municipality":{"key":"08317005","name":"Appenweier","type":"Kreisangehörige_Gemeinde"},"district":{"key":"08317","name":"Ortenaukreis","type":"Landkreis"},"federalState":{"key":"08","name":"Baden-Württemberg"}},{"name":"Obere Bergstr.","postalCode":"91788","locality":"Pappenheim","municipality":{"key":"09577158","name":"Pappenheim, St","type":"Stadt"},"district":{"key":"09577","name":"Weißenburg-Gunzenhausen","type":"Landkreis"},"federalState":{"key":"09","name":"Bayern"}},{"name":"Obere Gartenstr.","postalCode":"74906","locality":"Bad Rappenau","municipality":{"key":"08125006","name":"Bad Rappenau, Stadt","type":"Große_Kreisstadt"},"district":{"key":"08125","name":"Heilbronn","type":"Landkreis"},"federalState":{"key":"08","name":"Baden-Württemberg"}},{"name":"Obere Kirchstr.","postalCode":"74906","locality":"Bad Rappenau","municipality":{"key":"08125006","name":"Bad Rappenau, Stadt","type":"Große_Kreisstadt"},"district":{"key":"08125","name":"Heilbronn","type":"Landkreis"},"federalState":{"key":"08","name":"Baden-Württemberg"}},{"name":"Obere Mühle","postalCode":"74906","locality":"Bad Rappenau","municipality":{"key":"08125006","name":"Bad Rappenau, Stadt","type":"Große_Kreisstadt"},"district":{"key":"08125","name":"Heilbronn","type":"Landkreis"},"federalState":{"key":"08","name":"Baden-Württemberg"}},{"name":"Obere Str.","postalCode":"74906","locality":"Bad Rappenau","municipality":{"key":"08125006","name":"Bad Rappenau, Stadt","type":"Große_Kreisstadt"},"district":{"key":"08125","name":"Heilbronn","type":"Landkreis"},"federalState":{"key":"08","name":"Baden-Württemberg"}},{"name":"Obergäßchen","postalCode":"55437","locality":"Appenheim","municipality":{"key":"07339001","name":"Appenheim","type":"Kreisangehörige_Gemeinde"},"district":{"key":"07339","name":"Mainz-Bingen","type":"Landkreis"},"federalState":{"key":"07","name":"Rheinland-Pfalz"}},{"name":"Obergasse","postalCode":"55437","locality":"Appenheim","municipality":{"key":"07339001","name":"Appenheim","type":"Kreisangehörige_Gemeinde"},"district":{"key":"07339","name":"Mainz-Bingen","type":"Landkreis"},"federalState":{"key":"07","name":"Rheinland-Pfalz"}},{"name":"Obergimperner Str.","postalCode":"74906","locality":"Bad Rappenau","municipality":{"key":"08125006","name":"Bad Rappenau, Stadt","type":"Große_Kreisstadt"},"district":{"key":"08125","name":"Heilbronn","type":"Landkreis"},"federalState":{"key":"08","name":"Baden-Württemberg"}},{"name":"Oberkircher Str.","postalCode":"77767","locality":"Appenweier","municipality":{"key":"08317005","name":"Appenweier","type":"Kreisangehörige_Gemeinde"},"district":{"key":"08317","name":"Ortenaukreis","type":"Landkreis"},"federalState":{"key":"08","name":"Baden-Württemberg"}},{"name":"Ochsengasse","postalCode":"77767","locality":"Appenweier","municipality":{"key":"08317005","name":"Appenweier","type":"Kreisangehörige_Gemeinde"},"district":{"key":"08317","name":"Ortenaukreis","type":"Landkreis"},"federalState":{"key":"08","name":"Baden-Württemberg"}},{"name":"Ochsenharter Triebweg","postalCode":"91788","locality":"Pappenheim","municipality":{"key":"09577158","name":"Pappenheim, St","type":"Stadt"},"district":{"key":"09577","name":"Weißenburg-Gunzenhausen","type":"Landkreis"},"federalState":{"key":"09","name":"Bayern"}},{"name":"Op de Höh","postalCode":"24594","locality":"Tappendorf","municipality":{"key":"01058159","name":"Tappendorf","type":"Kreisangehörige_Gemeinde"},"district":{"key":"01058","name":"Rendsburg-Eckernförde","type":"Kreis"},"federalState":{"key":"01","name":"Schleswig-Holstein"}},{"name":"Op de Hoof","postalCode":"25482","locality":"Appen","municipality":{"key":"01056001","name":"Appen","type":"Kreisangehörige_Gemeinde"},"district":{"key":"01056","name":"Pinneberg","type":"Kreis"},"federalState":{"key":"01","name":"Schleswig-Holstein"}},{"name":"Op de Lohe","postalCode":"25482","locality":"Appen","municipality":{"key":"01056001","name":"Appen","type":"Kreisangehörige_Gemeinde"},"district":{"key":"01056","name":"Pinneberg","type":"Kreis"},"federalState":{"key":"01","name":"Schleswig-Holstein"}},{"name":"Op de Wisch","postalCode":"25482","locality":"Appen","municipality":{"key":"01056001","name":"Appen","type":"Kreisangehörige_Gemeinde"},"district":{"key":"01056","name":"Pinneberg","type":"Kreis"},"federalState":{"key":"01","name":"Schleswig-Holstein"}},{"name":"Op'n Bouhlen","postalCode":"25482","locality":"Appen","municipality":{"key":"01056001","name":"Appen","type":"Kreisangehörige_Gemeinde"},"district":{"key":"01056","name":"Pinneberg","type":"Kreis"},"federalState":{"key":"01","name":"Schleswig-Holstein"}},{"name":"Opn Toppeesch","postalCode":"25482","locality":"Appen","municipality":{"key":"01056001","name":"Appen","type":"Kreisangehörige_Gemeinde"},"district":{"key":"01056","name":"Pinneberg","type":"Kreis"},"federalState":{"key":"01","name":"Schleswig-Holstein"}},{"name":"Ortenauer Str.","postalCode":"77767","locality":"Appenweier","municipality":{"key":"08317005","name":"Appenweier","type":"Kreisangehörige_Gemeinde"},"district":{"key":"08317","name":"Ortenaukreis","type":"Landkreis"},"federalState":{"key":"08","name":"Baden-Württemberg"}},{"name":"Ortsstr.","postalCode":"74906","locality":"Bad Rappenau","municipality":{"key":"08125006","name":"Bad Rappenau, Stadt","type":"Große_Kreisstadt"},"district":{"key":"08125","name":"Heilbronn","type":"Landkreis"},"federalState":{"key":"08","name":"Baden-Württemberg"}},{"name":"Ossenblink","postalCode":"25482","locality":"Appen","municipality":{"key":"01056001","name":"Appen","type":"Kreisangehörige_Gemeinde"},"district":{"key":"01056","name":"Pinneberg","type":"Kreis"},"federalState":{"key":"01","name":"Schleswig-Holstein"}},{"name":"Osterdorf","postalCode":"91788","locality":"Pappenheim","municipality":{"key":"09577158","name":"Pappenheim, St","type":"Stadt"},"district":{"key":"09577","name":"Weißenburg-Gunzenhausen","type":"Landkreis"},"federalState":{"key":"09","name":"Bayern"}},{"name":"Osterholder Str.","postalCode":"25482","locality":"Appen","municipality":{"key":"01056001","name":"Appen","type":"Kreisangehörige_Gemeinde"},"district":{"key":"01056","name":"Pinneberg","type":"Kreis"},"federalState":{"key":"01","name":"Schleswig-Holstein"}},{"name":"Ostlandplatz","postalCode":"24610","locality":"Trappenkamp","municipality":{"key":"01060089","name":"Trappenkamp","type":"Kreisangehörige_Gemeinde"},"district":{"key":"01060","name":"Segeberg","type":"Kreis"},"federalState":{"key":"01","name":"Schleswig-Holstein"}},{"name":"Oststr.","postalCode":"74906","locality":"Bad Rappenau","municipality":{"key":"08125006","name":"Bad Rappenau, Stadt","type":"Große_Kreisstadt"},"district":{"key":"08125","name":"Heilbronn","type":"Landkreis"},"federalState":{"key":"08","name":"Baden-Württemberg"}},{"name":"Panoramastr.","postalCode":"74906","locality":"Bad Rappenau","municipality":{"key":"08125006","name":"Bad Rappenau, Stadt","type":"Große_Kreisstadt"},"district":{"key":"08125","name":"Heilbronn","type":"Landkreis"},"federalState":{"key":"08","name":"Baden-Württemberg"}},{"name":"Papiermühle","postalCode":"91788","locality":"Pappenheim","municipality":{"key":"09577158","name":"Pappenheim, St","type":"Stadt"},"district":{"key":"09577","name":"Weißenburg-Gunzenhausen","type":"Landkreis"},"federalState":{"key":"09","name":"Bayern"}},{"name":"Pappelweg","postalCode":"74906","locality":"Bad Rappenau","municipality":{"key":"08125006","name":"Bad Rappenau, Stadt","type":"Große_Kreisstadt"},"district":{"key":"08125","name":"Heilbronn","type":"Landkreis"},"federalState":{"key":"08","name":"Baden-Württemberg"}},{"name":"Pappelweg","postalCode":"77767","locality":"Appenweier","municipality":{"key":"08317005","name":"Appenweier","type":"Kreisangehörige_Gemeinde"},"district":{"key":"08317","name":"Ortenaukreis","type":"Landkreis"},"federalState":{"key":"08","name":"Baden-Württemberg"}},{"name":"Peterleinsbuck","postalCode":"91788","locality":"Pappenheim","municipality":{"key":"09577158","name":"Pappenheim, St","type":"Stadt"},"district":{"key":"09577","name":"Weißenburg-Gunzenhausen","type":"Landkreis"},"federalState":{"key":"09","name":"Bayern"}},{"name":"Petersgasse","postalCode":"77767","locality":"Appenweier","municipality":{"key":"08317005","name":"Appenweier","type":"Kreisangehörige_Gemeinde"},"district":{"key":"08317","name":"Ortenaukreis","type":"Landkreis"},"federalState":{"key":"08","name":"Baden-Württemberg"}},{"name":"Pfeiferleite","postalCode":"91788","locality":"Pappenheim","municipality":{"key":"09577158","name":"Pappenheim, St","type":"Stadt"},"district":{"key":"09577","name":"Weißenburg-Gunzenhausen","type":"Landkreis"},"federalState":{"key":"09","name":"Bayern"}},{"name":"Pfitzenweg","postalCode":"74906","locality":"Bad Rappenau","municipality":{"key":"08125006","name":"Bad Rappenau, Stadt","type":"Große_Kreisstadt"},"district":{"key":"08125","name":"Heilbronn","type":"Landkreis"},"federalState":{"key":"08","name":"Baden-Württemberg"}},{"name":"Pinnaubogen","postalCode":"25482","locality":"Appen","municipality":{"key":"01056001","name":"Appen","type":"Kreisangehörige_Gemeinde"},"district":{"key":"01056","name":"Pinneberg","type":"Kreis"},"federalState":{"key":"01","name":"Schleswig-Holstein"}},{"name":"Pinneberger Str.","postalCode":"25482","locality":"Appen","municipality":{"key":"01056001","name":"Appen","type":"Kreisangehörige_Gemeinde"},"district":{"key":"01056","name":"Pinneberg","type":"Kreis"},"federalState":{"key":"01","name":"Schleswig-Holstein"}},{"name":"Planweg","postalCode":"74906","locality":"Bad Rappenau","municipality":{"key":"08125006","name":"Bad Rappenau, Stadt","type":"Große_Kreisstadt"},"district":{"key":"08125","name":"Heilbronn","type":"Landkreis"},"federalState":{"key":"08","name":"Baden-Württemberg"}},{"name":"Poststr.","postalCode":"38479","locality":"Tappenbeck","municipality":{"key":"03151030","name":"Tappenbeck","type":"Kreisangehörige_Gemeinde"},"district":{"key":"03151","name":"Gifhorn","type":"Landkreis"},"federalState":{"key":"03","name":"Niedersachsen"}},{"name":"Poststr.","postalCode":"77767","locality":"Appenweier","municipality":{"key":"08317005","name":"Appenweier","type":"Kreisangehörige_Gemeinde"},"district":{"key":"08317","name":"Ortenaukreis","type":"Landkreis"},"federalState":{"key":"08","name":"Baden-Württemberg"}},{"name":"Potsdamer Str.","postalCode":"74906","locality":"Bad Rappenau","municipality":{"key":"08125006","name":"Bad Rappenau, Stadt","type":"Große_Kreisstadt"},"district":{"key":"08125","name":"Heilbronn","type":"Landkreis"},"federalState":{"key":"08","name":"Baden-Württemberg"}},{"name":"Prof.-Kühne-Str.","postalCode":"74906","locality":"Bad Rappenau","municipality":{"key":"08125006","name":"Bad Rappenau, Stadt","type":"Große_Kreisstadt"},"district":{"key":"08125","name":"Heilbronn","type":"Landkreis"},"federalState":{"key":"08","name":"Baden-Württemberg"}},{"name":"Prof.-Meisinger-Weg","postalCode":"74906","locality":"Bad Rappenau","municipality":{"key":"08125006","name":"Bad Rappenau, Stadt","type":"Große_Kreisstadt"},"district":{"key":"08125","name":"Heilbronn","type":"Landkreis"},"federalState":{"key":"08","name":"Baden-Württemberg"}},{"name":"Quellenweg","postalCode":"74906","locality":"Bad Rappenau","municipality":{"key":"08125006","name":"Bad Rappenau, Stadt","type":"Große_Kreisstadt"},"district":{"key":"08125","name":"Heilbronn","type":"Landkreis"},"federalState":{"key":"08","name":"Baden-Württemberg"}},{"name":"Quellweg","postalCode":"74906","locality":"Bad Rappenau","municipality":{"key":"08125006","name":"Bad Rappenau, Stadt","type":"Große_Kreisstadt"},"district":{"key":"08125","name":"Heilbronn","type":"Landkreis"},"federalState":{"key":"08","name":"Baden-Württemberg"}},{"name":"Radweg Westumgehung","postalCode":"25482","locality":"Appen","municipality":{"key":"01056001","name":"Appen","type":"Kreisangehörige_Gemeinde"},"district":{"key":"01056","name":"Pinneberg","type":"Kreis"},"federalState":{"key":"01","name":"Schleswig-Holstein"}},{"name":"Raiffeisenstr.","postalCode":"55437","locality":"Appenheim","municipality":{"key":"07339001","name":"Appenheim","type":"Kreisangehörige_Gemeinde"},"district":{"key":"07339","name":"Mainz-Bingen","type":"Landkreis"},"federalState":{"key":"07","name":"Rheinland-Pfalz"}},{"name":"Raiffeisenstr.","postalCode":"74906","locality":"Bad Rappenau","municipality":{"key":"08125006","name":"Bad Rappenau, Stadt","type":"Große_Kreisstadt"},"district":{"key":"08125","name":"Heilbronn","type":"Landkreis"},"federalState":{"key":"08","name":"Baden-Württemberg"}},{"name":"Raiffeisenweg","postalCode":"77767","locality":"Appenweier","municipality":{"key":"08317005","name":"Appenweier","type":"Kreisangehörige_Gemeinde"},"district":{"key":"08317","name":"Ortenaukreis","type":"Landkreis"},"federalState":{"key":"08","name":"Baden-Württemberg"}},{"name":"Rappenauer Str.","postalCode":"74906","locality":"Bad Rappenau","municipality":{"key":"08125006","name":"Bad Rappenau, Stadt","type":"Große_Kreisstadt"},"district":{"key":"08125","name":"Heilbronn","type":"Landkreis"},"federalState":{"key":"08","name":"Baden-Württemberg"}},{"name":"Rappenweg","postalCode":"74906","locality":"Bad Rappenau","municipality":{"key":"08125006","name":"Bad Rappenau, Stadt","type":"Große_Kreisstadt"},"district":{"key":"08125","name":"Heilbronn","type":"Landkreis"},"federalState":{"key":"08","name":"Baden-Württemberg"}},{"name":"Rathausstr.","postalCode":"74906","locality":"Bad Rappenau","municipality":{"key":"08125006","name":"Bad Rappenau, Stadt","type":"Große_Kreisstadt"},"district":{"key":"08125","name":"Heilbronn","type":"Landkreis"},"federalState":{"key":"08","name":"Baden-Württemberg"}},{"name":"Raubachstr.","postalCode":"74906","locality":"Bad Rappenau","municipality":{"key":"08125006","name":"Bad Rappenau, Stadt","type":"Große_Kreisstadt"},"district":{"key":"08125","name":"Heilbronn","type":"Landkreis"},"federalState":{"key":"08","name":"Baden-Württemberg"}},{"name":"Regerstr.","postalCode":"74906","locality":"Bad Rappenau","municipality":{"key":"08125006","name":"Bad Rappenau, Stadt","type":"Große_Kreisstadt"},"district":{"key":"08125","name":"Heilbronn","type":"Landkreis"},"federalState":{"key":"08","name":"Baden-Württemberg"}},{"name":"Renchenweg","postalCode":"77767","locality":"Appenweier","municipality":{"key":"08317005","name":"Appenweier","type":"Kreisangehörige_Gemeinde"},"district":{"key":"08317","name":"Ortenaukreis","type":"Landkreis"},"federalState":{"key":"08","name":"Baden-Württemberg"}},{"name":"Renchtalblick","postalCode":"77767","locality":"Appenweier","municipality":{"key":"08317005","name":"Appenweier","type":"Kreisangehörige_Gemeinde"},"district":{"key":"08317","name":"Ortenaukreis","type":"Landkreis"},"federalState":{"key":"08","name":"Baden-Württemberg"}},{"name":"Rheinstr.","postalCode":"77767","locality":"Appenweier","municipality":{"key":"08317005","name":"Appenweier","type":"Kreisangehörige_Gemeinde"},"district":{"key":"08317","name":"Ortenaukreis","type":"Landkreis"},"federalState":{"key":"08","name":"Baden-Württemberg"}},{"name":"Richard-Wagner-Allee","postalCode":"77767","locality":"Appenweier","municipality":{"key":"08317005","name":"Appenweier","type":"Kreisangehörige_Gemeinde"},"district":{"key":"08317","name":"Ortenaukreis","type":"Landkreis"},"federalState":{"key":"08","name":"Baden-Württemberg"}},{"name":"Richelstr.","postalCode":"77767","locality":"Appenweier","municipality":{"key":"08317005","name":"Appenweier","type":"Kreisangehörige_Gemeinde"},"district":{"key":"08317","name":"Ortenaukreis","type":"Landkreis"},"federalState":{"key":"08","name":"Baden-Württemberg"}},{"name":"Ricklinger Str.","postalCode":"24610","locality":"Trappenkamp","municipality":{"key":"01060089","name":"Trappenkamp","type":"Kreisangehörige_Gemeinde"},"district":{"key":"01060","name":"Segeberg","type":"Kreis"},"federalState":{"key":"01","name":"Schleswig-Holstein"}},{"name":"Riemenstr.","postalCode":"74906","locality":"Bad Rappenau","municipality":{"key":"08125006","name":"Bad Rappenau, Stadt","type":"Große_Kreisstadt"},"district":{"key":"08125","name":"Heilbronn","type":"Landkreis"},"federalState":{"key":"08","name":"Baden-Württemberg"}},{"name":"Ringstr.","postalCode":"74906","locality":"Bad Rappenau","municipality":{"key":"08125006","name":"Bad Rappenau, Stadt","type":"Große_Kreisstadt"},"district":{"key":"08125","name":"Heilbronn","type":"Landkreis"},"federalState":{"key":"08","name":"Baden-Württemberg"}},{"name":"Rissener Weg","postalCode":"25482","locality":"Appen","municipality":{"key":"01056001","name":"Appen","type":"Kreisangehörige_Gemeinde"},"district":{"key":"01056","name":"Pinneberg","type":"Kreis"},"federalState":{"key":"01","name":"Schleswig-Holstein"}},{"name":"Rittersgrund","postalCode":"74906","locality":"Bad Rappenau","municipality":{"key":"08125006","name":"Bad Rappenau, Stadt","type":"Große_Kreisstadt"},"district":{"key":"08125","name":"Heilbronn","type":"Landkreis"},"federalState":{"key":"08","name":"Baden-Württemberg"}},{"name":"Rittiweg","postalCode":"77767","locality":"Appenweier","municipality":{"key":"08317005","name":"Appenweier","type":"Kreisangehörige_Gemeinde"},"district":{"key":"08317","name":"Ortenaukreis","type":"Landkreis"},"federalState":{"key":"08","name":"Baden-Württemberg"}},{"name":"Robert-Bosch-Str.","postalCode":"74906","locality":"Bad Rappenau","municipality":{"key":"08125006","name":"Bad Rappenau, Stadt","type":"Große_Kreisstadt"},"district":{"key":"08125","name":"Heilbronn","type":"Landkreis"},"federalState":{"key":"08","name":"Baden-Württemberg"}},{"name":"Robert-Koch-Str.","postalCode":"74906","locality":"Bad Rappenau","municipality":{"key":"08125006","name":"Bad Rappenau, Stadt","type":"Große_Kreisstadt"},"district":{"key":"08125","name":"Heilbronn","type":"Landkreis"},"federalState":{"key":"08","name":"Baden-Württemberg"}},{"name":"Rohräckerstr.","postalCode":"74906","locality":"Bad Rappenau","municipality":{"key":"08125006","name":"Bad Rappenau, Stadt","type":"Große_Kreisstadt"},"district":{"key":"08125","name":"Heilbronn","type":"Landkreis"},"federalState":{"key":"08","name":"Baden-Württemberg"}},{"name":"Römerstr.","postalCode":"77767","locality":"Appenweier","municipality":{"key":"08317005","name":"Appenweier","type":"Kreisangehörige_Gemeinde"},"district":{"key":"08317","name":"Ortenaukreis","type":"Landkreis"},"federalState":{"key":"08","name":"Baden-Württemberg"}},{"name":"Römerweg","postalCode":"74906","locality":"Bad Rappenau","municipality":{"key":"08125006","name":"Bad Rappenau, Stadt","type":"Große_Kreisstadt"},"district":{"key":"08125","name":"Heilbronn","type":"Landkreis"},"federalState":{"key":"08","name":"Baden-Württemberg"}},{"name":"Rosenäckerstr.","postalCode":"74906","locality":"Bad Rappenau","municipality":{"key":"08125006","name":"Bad Rappenau, Stadt","type":"Große_Kreisstadt"},"district":{"key":"08125","name":"Heilbronn","type":"Landkreis"},"federalState":{"key":"08","name":"Baden-Württemberg"}},{"name":"Rosengasse","postalCode":"91788","locality":"Pappenheim","municipality":{"key":"09577158","name":"Pappenheim, St","type":"Stadt"},"district":{"key":"09577","name":"Weißenburg-Gunzenhausen","type":"Landkreis"},"federalState":{"key":"09","name":"Bayern"}},{"name":"Rosenstr.","postalCode":"24610","locality":"Trappenkamp","municipality":{"key":"01060089","name":"Trappenkamp","type":"Kreisangehörige_Gemeinde"},"district":{"key":"01060","name":"Segeberg","type":"Kreis"},"federalState":{"key":"01","name":"Schleswig-Holstein"}},{"name":"Rosenstr.","postalCode":"74906","locality":"Bad Rappenau","municipality":{"key":"08125006","name":"Bad Rappenau, Stadt","type":"Große_Kreisstadt"},"district":{"key":"08125","name":"Heilbronn","type":"Landkreis"},"federalState":{"key":"08","name":"Baden-Württemberg"}},{"name":"Rosentrittstr.","postalCode":"74906","locality":"Bad Rappenau","municipality":{"key":"08125006","name":"Bad Rappenau, Stadt","type":"Große_Kreisstadt"},"district":{"key":"08125","name":"Heilbronn","type":"Landkreis"},"federalState":{"key":"08","name":"Baden-Württemberg"}},{"name":"Rosenwaldstr.","postalCode":"74906","locality":"Bad Rappenau","municipality":{"key":"08125006","name":"Bad Rappenau, Stadt","type":"Große_Kreisstadt"},"district":{"key":"08125","name":"Heilbronn","type":"Landkreis"},"federalState":{"key":"08","name":"Baden-Württemberg"}},{"name":"Rostocker Weg","postalCode":"74906","locality":"Bad Rappenau","municipality":{"key":"08125006","name":"Bad Rappenau, Stadt","type":"Große_Kreisstadt"},"district":{"key":"08125","name":"Heilbronn","type":"Landkreis"},"federalState":{"key":"08","name":"Baden-Württemberg"}},{"name":"Rotenackerweg","postalCode":"74906","locality":"Bad Rappenau","municipality":{"key":"08125006","name":"Bad Rappenau, Stadt","type":"Große_Kreisstadt"},"district":{"key":"08125","name":"Heilbronn","type":"Landkreis"},"federalState":{"key":"08","name":"Baden-Württemberg"}},{"name":"Rudolf-Kinau-Str.","postalCode":"24610","locality":"Trappenkamp","municipality":{"key":"01060089","name":"Trappenkamp","type":"Kreisangehörige_Gemeinde"},"district":{"key":"01060","name":"Segeberg","type":"Kreis"},"federalState":{"key":"01","name":"Schleswig-Holstein"}},{"name":"Runzweg","postalCode":"77767","locality":"Appenweier","municipality":{"key":"08317005","name":"Appenweier","type":"Kreisangehörige_Gemeinde"},"district":{"key":"08317","name":"Ortenaukreis","type":"Landkreis"},"federalState":{"key":"08","name":"Baden-Württemberg"}},{"name":"Salinenpark","postalCode":"74906","locality":"Bad Rappenau","municipality":{"key":"08125006","name":"Bad Rappenau, Stadt","type":"Große_Kreisstadt"},"district":{"key":"08125","name":"Heilbronn","type":"Landkreis"},"federalState":{"key":"08","name":"Baden-Württemberg"}},{"name":"Salinenstr.","postalCode":"74906","locality":"Bad Rappenau","municipality":{"key":"08125006","name":"Bad Rappenau, Stadt","type":"Große_Kreisstadt"},"district":{"key":"08125","name":"Heilbronn","type":"Landkreis"},"federalState":{"key":"08","name":"Baden-Württemberg"}},{"name":"Salzelmener Str.","postalCode":"74906","locality":"Bad Rappenau","municipality":{"key":"08125006","name":"Bad Rappenau, Stadt","type":"Große_Kreisstadt"},"district":{"key":"08125","name":"Heilbronn","type":"Landkreis"},"federalState":{"key":"08","name":"Baden-Württemberg"}},{"name":"Sander Str.","postalCode":"77767","locality":"Appenweier","municipality":{"key":"08317005","name":"Appenweier","type":"Kreisangehörige_Gemeinde"},"district":{"key":"08317","name":"Ortenaukreis","type":"Landkreis"},"federalState":{"key":"08","name":"Baden-Württemberg"}},{"name":"Sankt-Martin-Str.","postalCode":"77767","locality":"Appenweier","municipality":{"key":"08317005","name":"Appenweier","type":"Kreisangehörige_Gemeinde"},"district":{"key":"08317","name":"Ortenaukreis","type":"Landkreis"},"federalState":{"key":"08","name":"Baden-Württemberg"}},{"name":"Schäfergasse","postalCode":"74906","locality":"Bad Rappenau","municipality":{"key":"08125006","name":"Bad Rappenau, Stadt","type":"Große_Kreisstadt"},"district":{"key":"08125","name":"Heilbronn","type":"Landkreis"},"federalState":{"key":"08","name":"Baden-Württemberg"}},{"name":"Schäferhofweg","postalCode":"25482","locality":"Appen","municipality":{"key":"01056001","name":"Appen","type":"Kreisangehörige_Gemeinde"},"district":{"key":"01056","name":"Pinneberg","type":"Kreis"},"federalState":{"key":"01","name":"Schleswig-Holstein"}},{"name":"Schafrain","postalCode":"74906","locality":"Bad Rappenau","municipality":{"key":"08125006","name":"Bad Rappenau, Stadt","type":"Große_Kreisstadt"},"district":{"key":"08125","name":"Heilbronn","type":"Landkreis"},"federalState":{"key":"08","name":"Baden-Württemberg"}},{"name":"Schanzweg","postalCode":"74906","locality":"Bad Rappenau","municipality":{"key":"08125006","name":"Bad Rappenau, Stadt","type":"Große_Kreisstadt"},"district":{"key":"08125","name":"Heilbronn","type":"Landkreis"},"federalState":{"key":"08","name":"Baden-Württemberg"}},{"name":"Schauenburgstr.","postalCode":"77767","locality":"Appenweier","municipality":{"key":"08317005","name":"Appenweier","type":"Kreisangehörige_Gemeinde"},"district":{"key":"08317","name":"Ortenaukreis","type":"Landkreis"},"federalState":{"key":"08","name":"Baden-Württemberg"}},{"name":"Scheffelstr.","postalCode":"74906","locality":"Bad Rappenau","municipality":{"key":"08125006","name":"Bad Rappenau, Stadt","type":"Große_Kreisstadt"},"district":{"key":"08125","name":"Heilbronn","type":"Landkreis"},"federalState":{"key":"08","name":"Baden-Württemberg"}},{"name":"Schildwachtstr.","postalCode":"74906","locality":"Bad Rappenau","municipality":{"key":"08125006","name":"Bad Rappenau, Stadt","type":"Große_Kreisstadt"},"district":{"key":"08125","name":"Heilbronn","type":"Landkreis"},"federalState":{"key":"08","name":"Baden-Württemberg"}},{"name":"Schillerstr.","postalCode":"74906","locality":"Bad Rappenau","municipality":{"key":"08125006","name":"Bad Rappenau, Stadt","type":"Große_Kreisstadt"},"district":{"key":"08125","name":"Heilbronn","type":"Landkreis"},"federalState":{"key":"08","name":"Baden-Württemberg"}},{"name":"Schlehenbuschweg","postalCode":"74906","locality":"Bad Rappenau","municipality":{"key":"08125006","name":"Bad Rappenau, Stadt","type":"Große_Kreisstadt"},"district":{"key":"08125","name":"Heilbronn","type":"Landkreis"},"federalState":{"key":"08","name":"Baden-Württemberg"}},{"name":"Schlesienstr.","postalCode":"91788","locality":"Pappenheim","municipality":{"key":"09577158","name":"Pappenheim, St","type":"Stadt"},"district":{"key":"09577","name":"Weißenburg-Gunzenhausen","type":"Landkreis"},"federalState":{"key":"09","name":"Bayern"}},{"name":"Schlossbergstr.","postalCode":"74906","locality":"Bad Rappenau","municipality":{"key":"08125006","name":"Bad Rappenau, Stadt","type":"Große_Kreisstadt"},"district":{"key":"08125","name":"Heilbronn","type":"Landkreis"},"federalState":{"key":"08","name":"Baden-Württemberg"}},{"name":"Schloßfeldsiedlung","postalCode":"74906","locality":"Bad Rappenau","municipality":{"key":"08125006","name":"Bad Rappenau, Stadt","type":"Große_Kreisstadt"},"district":{"key":"08125","name":"Heilbronn","type":"Landkreis"},"federalState":{"key":"08","name":"Baden-Württemberg"}},{"name":"Schloßgasse","postalCode":"74906","locality":"Bad Rappenau","municipality":{"key":"08125006","name":"Bad Rappenau, Stadt","type":"Große_Kreisstadt"},"district":{"key":"08125","name":"Heilbronn","type":"Landkreis"},"federalState":{"key":"08","name":"Baden-Württemberg"}},{"name":"Schlosspark","postalCode":"74906","locality":"Bad Rappenau","municipality":{"key":"08125006","name":"Bad Rappenau, Stadt","type":"Große_Kreisstadt"},"district":{"key":"08125","name":"Heilbronn","type":"Landkreis"},"federalState":{"key":"08","name":"Baden-Württemberg"}},{"name":"Schloßpark","postalCode":"74906","locality":"Bad Rappenau","municipality":{"key":"08125006","name":"Bad Rappenau, Stadt","type":"Große_Kreisstadt"},"district":{"key":"08125","name":"Heilbronn","type":"Landkreis"},"federalState":{"key":"08","name":"Baden-Württemberg"}},{"name":"Schloßstr.","postalCode":"74906","locality":"Bad Rappenau","municipality":{"key":"08125006","name":"Bad Rappenau, Stadt","type":"Große_Kreisstadt"},"district":{"key":"08125","name":"Heilbronn","type":"Landkreis"},"federalState":{"key":"08","name":"Baden-Württemberg"}},{"name":"Schloßweg","postalCode":"74906","locality":"Bad Rappenau","municipality":{"key":"08125006","name":"Bad Rappenau, Stadt","type":"Große_Kreisstadt"},"district":{"key":"08125","name":"Heilbronn","type":"Landkreis"},"federalState":{"key":"08","name":"Baden-Württemberg"}},{"name":"Schmetterlingsweg","postalCode":"25482","locality":"Appen","municipality":{"key":"01056001","name":"Appen","type":"Kreisangehörige_Gemeinde"},"district":{"key":"01056","name":"Pinneberg","type":"Kreis"},"federalState":{"key":"01","name":"Schleswig-Holstein"}},{"name":"Schmierwaldweg","postalCode":"74906","locality":"Bad Rappenau","municipality":{"key":"08125006","name":"Bad Rappenau, Stadt","type":"Große_Kreisstadt"},"district":{"key":"08125","name":"Heilbronn","type":"Landkreis"},"federalState":{"key":"08","name":"Baden-Württemberg"}},{"name":"Schneckleinsberg","postalCode":"91788","locality":"Pappenheim","municipality":{"key":"09577158","name":"Pappenheim, St","type":"Stadt"},"district":{"key":"09577","name":"Weißenburg-Gunzenhausen","type":"Landkreis"},"federalState":{"key":"09","name":"Bayern"}},{"name":"Schönblick","postalCode":"74906","locality":"Bad Rappenau","municipality":{"key":"08125006","name":"Bad Rappenau, Stadt","type":"Große_Kreisstadt"},"district":{"key":"08125","name":"Heilbronn","type":"Landkreis"},"federalState":{"key":"08","name":"Baden-Württemberg"}},{"name":"Schönheider Str.","postalCode":"74906","locality":"Bad Rappenau","municipality":{"key":"08125006","name":"Bad Rappenau, Stadt","type":"Große_Kreisstadt"},"district":{"key":"08125","name":"Heilbronn","type":"Landkreis"},"federalState":{"key":"08","name":"Baden-Württemberg"}},{"name":"Schronnenäckerstr.","postalCode":"74906","locality":"Bad Rappenau","municipality":{"key":"08125006","name":"Bad Rappenau, Stadt","type":"Große_Kreisstadt"},"district":{"key":"08125","name":"Heilbronn","type":"Landkreis"},"federalState":{"key":"08","name":"Baden-Württemberg"}},{"name":"Schubertstr.","postalCode":"74906","locality":"Bad Rappenau","municipality":{"key":"08125006","name":"Bad Rappenau, Stadt","type":"Große_Kreisstadt"},"district":{"key":"08125","name":"Heilbronn","type":"Landkreis"},"federalState":{"key":"08","name":"Baden-Württemberg"}},{"name":"Schulgasse","postalCode":"74906","locality":"Bad Rappenau","municipality":{"key":"08125006","name":"Bad Rappenau, Stadt","type":"Große_Kreisstadt"},"district":{"key":"08125","name":"Heilbronn","type":"Landkreis"},"federalState":{"key":"08","name":"Baden-Württemberg"}},{"name":"Schulstr.","postalCode":"24594","locality":"Tappendorf","municipality":{"key":"01058159","name":"Tappendorf","type":"Kreisangehörige_Gemeinde"},"district":{"key":"01058","name":"Rendsburg-Eckernförde","type":"Kreis"},"federalState":{"key":"01","name":"Schleswig-Holstein"}},{"name":"Schulstr.","postalCode":"24610","locality":"Trappenkamp","municipality":{"key":"01060089","name":"Trappenkamp","type":"Kreisangehörige_Gemeinde"},"district":{"key":"01060","name":"Segeberg","type":"Kreis"},"federalState":{"key":"01","name":"Schleswig-Holstein"}},{"name":"Schulstr.","postalCode":"55437","locality":"Appenheim","municipality":{"key":"07339001","name":"Appenheim","type":"Kreisangehörige_Gemeinde"},"district":{"key":"07339","name":"Mainz-Bingen","type":"Landkreis"},"federalState":{"key":"07","name":"Rheinland-Pfalz"}},{"name":"Schulstr.","postalCode":"74906","locality":"Bad Rappenau","municipality":{"key":"08125006","name":"Bad Rappenau, Stadt","type":"Große_Kreisstadt"},"district":{"key":"08125","name":"Heilbronn","type":"Landkreis"},"federalState":{"key":"08","name":"Baden-Württemberg"}},{"name":"Schulstr.","postalCode":"77767","locality":"Appenweier","municipality":{"key":"08317005","name":"Appenweier","type":"Kreisangehörige_Gemeinde"},"district":{"key":"08317","name":"Ortenaukreis","type":"Landkreis"},"federalState":{"key":"08","name":"Baden-Württemberg"}},{"name":"Schulstr.","postalCode":"91788","locality":"Pappenheim","municipality":{"key":"09577158","name":"Pappenheim, St","type":"Stadt"},"district":{"key":"09577","name":"Weißenburg-Gunzenhausen","type":"Landkreis"},"federalState":{"key":"09","name":"Bayern"}},{"name":"Schultzeteichweg","postalCode":"74906","locality":"Bad Rappenau","municipality":{"key":"08125006","name":"Bad Rappenau, Stadt","type":"Große_Kreisstadt"},"district":{"key":"08125","name":"Heilbronn","type":"Landkreis"},"federalState":{"key":"08","name":"Baden-Württemberg"}},{"name":"Schumannstr.","postalCode":"74906","locality":"Bad Rappenau","municipality":{"key":"08125006","name":"Bad Rappenau, Stadt","type":"Große_Kreisstadt"},"district":{"key":"08125","name":"Heilbronn","type":"Landkreis"},"federalState":{"key":"08","name":"Baden-Württemberg"}},{"name":"Schützenstr.","postalCode":"91788","locality":"Pappenheim","municipality":{"key":"09577158","name":"Pappenheim, St","type":"Stadt"},"district":{"key":"09577","name":"Weißenburg-Gunzenhausen","type":"Landkreis"},"federalState":{"key":"09","name":"Bayern"}},{"name":"Schützenweg","postalCode":"38479","locality":"Tappenbeck","municipality":{"key":"03151030","name":"Tappenbeck","type":"Kreisangehörige_Gemeinde"},"district":{"key":"03151","name":"Gifhorn","type":"Landkreis"},"federalState":{"key":"03","name":"Niedersachsen"}},{"name":"Schützenweg","postalCode":"74906","locality":"Bad Rappenau","municipality":{"key":"08125006","name":"Bad Rappenau, Stadt","type":"Große_Kreisstadt"},"district":{"key":"08125","name":"Heilbronn","type":"Landkreis"},"federalState":{"key":"08","name":"Baden-Württemberg"}},{"name":"Schwabweg","postalCode":"77767","locality":"Appenweier","municipality":{"key":"08317005","name":"Appenweier","type":"Kreisangehörige_Gemeinde"},"district":{"key":"08317","name":"Ortenaukreis","type":"Landkreis"},"federalState":{"key":"08","name":"Baden-Württemberg"}},{"name":"Schwaigerner Str.","postalCode":"74906","locality":"Bad Rappenau","municipality":{"key":"08125006","name":"Bad Rappenau, Stadt","type":"Große_Kreisstadt"},"district":{"key":"08125","name":"Heilbronn","type":"Landkreis"},"federalState":{"key":"08","name":"Baden-Württemberg"}},{"name":"Schwalbenring","postalCode":"38479","locality":"Tappenbeck","municipality":{"key":"03151030","name":"Tappenbeck","type":"Kreisangehörige_Gemeinde"},"district":{"key":"03151","name":"Gifhorn","type":"Landkreis"},"federalState":{"key":"03","name":"Niedersachsen"}},{"name":"Schwalbenstr.","postalCode":"74906","locality":"Bad Rappenau","municipality":{"key":"08125006","name":"Bad Rappenau, Stadt","type":"Große_Kreisstadt"},"district":{"key":"08125","name":"Heilbronn","type":"Landkreis"},"federalState":{"key":"08","name":"Baden-Württemberg"}},{"name":"Schwanenstr.","postalCode":"74906","locality":"Bad Rappenau","municipality":{"key":"08125006","name":"Bad Rappenau, Stadt","type":"Große_Kreisstadt"},"district":{"key":"08125","name":"Heilbronn","type":"Landkreis"},"federalState":{"key":"08","name":"Baden-Württemberg"}},{"name":"Schwärzsteige","postalCode":"74906","locality":"Bad Rappenau","municipality":{"key":"08125006","name":"Bad Rappenau, Stadt","type":"Große_Kreisstadt"},"district":{"key":"08125","name":"Heilbronn","type":"Landkreis"},"federalState":{"key":"08","name":"Baden-Württemberg"}},{"name":"Schwarzwaldstr.","postalCode":"77767","locality":"Appenweier","municipality":{"key":"08317005","name":"Appenweier","type":"Kreisangehörige_Gemeinde"},"district":{"key":"08317","name":"Ortenaukreis","type":"Landkreis"},"federalState":{"key":"08","name":"Baden-Württemberg"}},{"name":"Schweriner Weg","postalCode":"74906","locality":"Bad Rappenau","municipality":{"key":"08125006","name":"Bad Rappenau, Stadt","type":"Große_Kreisstadt"},"district":{"key":"08125","name":"Heilbronn","type":"Landkreis"},"federalState":{"key":"08","name":"Baden-Württemberg"}},{"name":"Sebastian-Kneipp-Str.","postalCode":"74906","locality":"Bad Rappenau","municipality":{"key":"08125006","name":"Bad Rappenau, Stadt","type":"Große_Kreisstadt"},"district":{"key":"08125","name":"Heilbronn","type":"Landkreis"},"federalState":{"key":"08","name":"Baden-Württemberg"}},{"name":"Talmühle","postalCode":"74906","locality":"Bad Rappenau","municipality":{"key":"08125006","name":"Bad Rappenau, Stadt","type":"Große_Kreisstadt"},"district":{"key":"08125","name":"Heilbronn","type":"Landkreis"},"federalState":{"key":"08","name":"Baden-Württemberg"}},{"name":"Talstr.","postalCode":"74906","locality":"Bad Rappenau","municipality":{"key":"08125006","name":"Bad Rappenau, Stadt","type":"Große_Kreisstadt"},"district":{"key":"08125","name":"Heilbronn","type":"Landkreis"},"federalState":{"key":"08","name":"Baden-Württemberg"}},{"name":"Talwiesenstr.","postalCode":"74906","locality":"Bad Rappenau","municipality":{"key":"08125006","name":"Bad Rappenau, Stadt","type":"Große_Kreisstadt"},"district":{"key":"08125","name":"Heilbronn","type":"Landkreis"},"federalState":{"key":"08","name":"Baden-Württemberg"}},{"name":"Tannenstr.","postalCode":"74906","locality":"Bad Rappenau","municipality":{"key":"08125006","name":"Bad Rappenau, Stadt","type":"Große_Kreisstadt"},"district":{"key":"08125","name":"Heilbronn","type":"Landkreis"},"federalState":{"key":"08","name":"Baden-Württemberg"}},{"name":"Tannenweg","postalCode":"24610","locality":"Trappenkamp","municipality":{"key":"01060089","name":"Trappenkamp","type":"Kreisangehörige_Gemeinde"},"district":{"key":"01060","name":"Segeberg","type":"Kreis"},"federalState":{"key":"01","name":"Schleswig-Holstein"}},{"name":"Taschenacker","postalCode":"74906","locality":"Bad Rappenau","municipality":{"key":"08125006","name":"Bad Rappenau, Stadt","type":"Große_Kreisstadt"},"district":{"key":"08125","name":"Heilbronn","type":"Landkreis"},"federalState":{"key":"08","name":"Baden-Württemberg"}},{"name":"Taubenstr.","postalCode":"74906","locality":"Bad Rappenau","municipality":{"key":"08125006","name":"Bad Rappenau, Stadt","type":"Große_Kreisstadt"},"district":{"key":"08125","name":"Heilbronn","type":"Landkreis"},"federalState":{"key":"08","name":"Baden-Württemberg"}},{"name":"Taunusblick","postalCode":"55437","locality":"Appenheim","municipality":{"key":"07339001","name":"Appenheim","type":"Kreisangehörige_Gemeinde"},"district":{"key":"07339","name":"Mainz-Bingen","type":"Landkreis"},"federalState":{"key":"07","name":"Rheinland-Pfalz"}},{"name":"Theodor-Heuss-Str.","postalCode":"74906","locality":"Bad Rappenau","municipality":{"key":"08125006","name":"Bad Rappenau, Stadt","type":"Große_Kreisstadt"},"district":{"key":"08125","name":"Heilbronn","type":"Landkreis"},"federalState":{"key":"08","name":"Baden-Württemberg"}},{"name":"Theodor-Heuss-Str.","postalCode":"77767","locality":"Appenweier","municipality":{"key":"08317005","name":"Appenweier","type":"Kreisangehörige_Gemeinde"},"district":{"key":"08317","name":"Ortenaukreis","type":"Landkreis"},"federalState":{"key":"08","name":"Baden-Württemberg"}},{"name":"Theodor-Storm-Ring","postalCode":"24610","locality":"Trappenkamp","municipality":{"key":"01060089","name":"Trappenkamp","type":"Kreisangehörige_Gemeinde"},"district":{"key":"01060","name":"Segeberg","type":"Kreis"},"federalState":{"key":"01","name":"Schleswig-Holstein"}},{"name":"Thomas-Mann-Str.","postalCode":"24610","locality":"Trappenkamp","municipality":{"key":"01060089","name":"Trappenkamp","type":"Kreisangehörige_Gemeinde"},"district":{"key":"01060","name":"Segeberg","type":"Kreis"},"federalState":{"key":"01","name":"Schleswig-Holstein"}},{"name":"Treschklinger Str.","postalCode":"74906","locality":"Bad Rappenau","municipality":{"key":"08125006","name":"Bad Rappenau, Stadt","type":"Große_Kreisstadt"},"district":{"key":"08125","name":"Heilbronn","type":"Landkreis"},"federalState":{"key":"08","name":"Baden-Württemberg"}},{"name":"Tulpenstr.","postalCode":"74906","locality":"Bad Rappenau","municipality":{"key":"08125006","name":"Bad Rappenau, Stadt","type":"Große_Kreisstadt"},"district":{"key":"08125","name":"Heilbronn","type":"Landkreis"},"federalState":{"key":"08","name":"Baden-Württemberg"}},{"name":"Türkenlouisstr.","postalCode":"77767","locality":"Appenweier","municipality":{"key":"08317005","name":"Appenweier","type":"Kreisangehörige_Gemeinde"},"district":{"key":"08317","name":"Ortenaukreis","type":"Landkreis"},"federalState":{"key":"08","name":"Baden-Württemberg"}},{"name":"Turmstr.","postalCode":"74906","locality":"Bad Rappenau","municipality":{"key":"08125006","name":"Bad Rappenau, Stadt","type":"Große_Kreisstadt"},"district":{"key":"08125","name":"Heilbronn","type":"Landkreis"},"federalState":{"key":"08","name":"Baden-Württemberg"}},{"name":"Uhlandstr.","postalCode":"74906","locality":"Bad Rappenau","municipality":{"key":"08125006","name":"Bad Rappenau, Stadt","type":"Große_Kreisstadt"},"district":{"key":"08125","name":"Heilbronn","type":"Landkreis"},"federalState":{"key":"08","name":"Baden-Württemberg"}},{"name":"Ulmenstr.","postalCode":"74906","locality":"Bad Rappenau","municipality":{"key":"08125006","name":"Bad Rappenau, Stadt","type":"Große_Kreisstadt"},"district":{"key":"08125","name":"Heilbronn","type":"Landkreis"},"federalState":{"key":"08","name":"Baden-Württemberg"}},{"name":"Untere Gartenstr.","postalCode":"74906","locality":"Bad Rappenau","municipality":{"key":"08125006","name":"Bad Rappenau, Stadt","type":"Große_Kreisstadt"},"district":{"key":"08125","name":"Heilbronn","type":"Landkreis"},"federalState":{"key":"08","name":"Baden-Württemberg"}},{"name":"Untere Kirchstr.","postalCode":"74906","locality":"Bad Rappenau","municipality":{"key":"08125006","name":"Bad Rappenau, Stadt","type":"Große_Kreisstadt"},"district":{"key":"08125","name":"Heilbronn","type":"Landkreis"},"federalState":{"key":"08","name":"Baden-Württemberg"}},{"name":"Untere Mühle","postalCode":"74906","locality":"Bad Rappenau","municipality":{"key":"08125006","name":"Bad Rappenau, Stadt","type":"Große_Kreisstadt"},"district":{"key":"08125","name":"Heilbronn","type":"Landkreis"},"federalState":{"key":"08","name":"Baden-Württemberg"}},{"name":"Untere Torstr.","postalCode":"74906","locality":"Bad Rappenau","municipality":{"key":"08125006","name":"Bad Rappenau, Stadt","type":"Große_Kreisstadt"},"district":{"key":"08125","name":"Heilbronn","type":"Landkreis"},"federalState":{"key":"08","name":"Baden-Württemberg"}},{"name":"Urloffer Weg","postalCode":"77767","locality":"Appenweier","municipality":{"key":"08317005","name":"Appenweier","type":"Kreisangehörige_Gemeinde"},"district":{"key":"08317","name":"Ortenaukreis","type":"Landkreis"},"federalState":{"key":"08","name":"Baden-Württemberg"}},{"name":"Verdistr.","postalCode":"74906","locality":"Bad Rappenau","municipality":{"key":"08125006","name":"Bad Rappenau, Stadt","type":"Große_Kreisstadt"},"district":{"key":"08125","name":"Heilbronn","type":"Landkreis"},"federalState":{"key":"08","name":"Baden-Württemberg"}},{"name":"Vivaldistr.","postalCode":"74906","locality":"Bad Rappenau","municipality":{"key":"08125006","name":"Bad Rappenau, Stadt","type":"Große_Kreisstadt"},"district":{"key":"08125","name":"Heilbronn","type":"Landkreis"},"federalState":{"key":"08","name":"Baden-Württemberg"}},{"name":"Vogelsang","postalCode":"24594","locality":"Tappendorf","municipality":{"key":"01058159","name":"Tappendorf","type":"Kreisangehörige_Gemeinde"},"district":{"key":"01058","name":"Rendsburg-Eckernförde","type":"Kreis"},"federalState":{"key":"01","name":"Schleswig-Holstein"}},{"name":"Vogesenstr.","postalCode":"77767","locality":"Appenweier","municipality":{"key":"08317005","name":"Appenweier","type":"Kreisangehörige_Gemeinde"},"district":{"key":"08317","name":"Ortenaukreis","type":"Landkreis"},"federalState":{"key":"08","name":"Baden-Württemberg"}},{"name":"Von-Gemmingen-Str.","postalCode":"74906","locality":"Bad Rappenau","municipality":{"key":"08125006","name":"Bad Rappenau, Stadt","type":"Große_Kreisstadt"},"district":{"key":"08125","name":"Heilbronn","type":"Landkreis"},"federalState":{"key":"08","name":"Baden-Württemberg"}},{"name":"Von-Vennigen-Str.","postalCode":"74906","locality":"Bad Rappenau","municipality":{"key":"08125006","name":"Bad Rappenau, Stadt","type":"Große_Kreisstadt"},"district":{"key":"08125","name":"Heilbronn","type":"Landkreis"},"federalState":{"key":"08","name":"Baden-Württemberg"}},{"name":"Von-Weber-Str.","postalCode":"74906","locality":"Bad Rappenau","municipality":{"key":"08125006","name":"Bad Rappenau, Stadt","type":"Große_Kreisstadt"},"district":{"key":"08125","name":"Heilbronn","type":"Landkreis"},"federalState":{"key":"08","name":"Baden-Württemberg"}},{"name":"Vor dem Klopp","postalCode":"55437","locality":"Appenheim","municipality":{"key":"07339001","name":"Appenheim","type":"Kreisangehörige_Gemeinde"},"district":{"key":"07339","name":"Mainz-Bingen","type":"Landkreis"},"federalState":{"key":"07","name":"Rheinland-Pfalz"}},{"name":"Vorm Westerberg","postalCode":"55437","locality":"Appenheim","municipality":{"key":"07339001","name":"Appenheim","type":"Kreisangehörige_Gemeinde"},"district":{"key":"07339","name":"Mainz-Bingen","type":"Landkreis"},"federalState":{"key":"07","name":"Rheinland-Pfalz"}},{"name":"Vossbarg","postalCode":"25482","locality":"Appen","municipality":{"key":"01056001","name":"Appen","type":"Kreisangehörige_Gemeinde"},"district":{"key":"01056","name":"Pinneberg","type":"Kreis"},"federalState":{"key":"01","name":"Schleswig-Holstein"}},{"name":"Vulpiusstr.","postalCode":"74906","locality":"Bad Rappenau","municipality":{"key":"08125006","name":"Bad Rappenau, Stadt","type":"Große_Kreisstadt"},"district":{"key":"08125","name":"Heilbronn","type":"Landkreis"},"federalState":{"key":"08","name":"Baden-Württemberg"}},{"name":"Wagenbacher Str.","postalCode":"74906","locality":"Bad Rappenau","municipality":{"key":"08125006","name":"Bad Rappenau, Stadt","type":"Große_Kreisstadt"},"district":{"key":"08125","name":"Heilbronn","type":"Landkreis"},"federalState":{"key":"08","name":"Baden-Württemberg"}},{"name":"Wagenbacher Weg","postalCode":"74906","locality":"Bad Rappenau","municipality":{"key":"08125006","name":"Bad Rappenau, Stadt","type":"Große_Kreisstadt"},"district":{"key":"08125","name":"Heilbronn","type":"Landkreis"},"federalState":{"key":"08","name":"Baden-Württemberg"}},{"name":"Wagner-Beckes-Gässel","postalCode":"77767","locality":"Appenweier","municipality":{"key":"08317005","name":"Appenweier","type":"Kreisangehörige_Gemeinde"},"district":{"key":"08317","name":"Ortenaukreis","type":"Landkreis"},"federalState":{"key":"08","name":"Baden-Württemberg"}},{"name":"Wagnerstr.","postalCode":"74906","locality":"Bad Rappenau","municipality":{"key":"08125006","name":"Bad Rappenau, Stadt","type":"Große_Kreisstadt"},"district":{"key":"08125","name":"Heilbronn","type":"Landkreis"},"federalState":{"key":"08","name":"Baden-Württemberg"}},{"name":"Waldäckerstr.","postalCode":"74906","locality":"Bad Rappenau","municipality":{"key":"08125006","name":"Bad Rappenau, Stadt","type":"Große_Kreisstadt"},"district":{"key":"08125","name":"Heilbronn","type":"Landkreis"},"federalState":{"key":"08","name":"Baden-Württemberg"}},{"name":"Waldstr.","postalCode":"24610","locality":"Trappenkamp","municipality":{"key":"01060089","name":"Trappenkamp","type":"Kreisangehörige_Gemeinde"},"district":{"key":"01060","name":"Segeberg","type":"Kreis"},"federalState":{"key":"01","name":"Schleswig-Holstein"}},{"name":"Waldstr.","postalCode":"74906","locality":"Bad Rappenau","municipality":{"key":"08125006","name":"Bad Rappenau, Stadt","type":"Große_Kreisstadt"},"district":{"key":"08125","name":"Heilbronn","type":"Landkreis"},"federalState":{"key":"08","name":"Baden-Württemberg"}},{"name":"Waldstr.","postalCode":"77767","locality":"Appenweier","municipality":{"key":"08317005","name":"Appenweier","type":"Kreisangehörige_Gemeinde"},"district":{"key":"08317","name":"Ortenaukreis","type":"Landkreis"},"federalState":{"key":"08","name":"Baden-Württemberg"}},{"name":"Waldweg","postalCode":"38479","locality":"Tappenbeck","municipality":{"key":"03151030","name":"Tappenbeck","type":"Kreisangehörige_Gemeinde"},"district":{"key":"03151","name":"Gifhorn","type":"Landkreis"},"federalState":{"key":"03","name":"Niedersachsen"}},{"name":"Wartberg","postalCode":"74906","locality":"Bad Rappenau","municipality":{"key":"08125006","name":"Bad Rappenau, Stadt","type":"Große_Kreisstadt"},"district":{"key":"08125","name":"Heilbronn","type":"Landkreis"},"federalState":{"key":"08","name":"Baden-Württemberg"}},{"name":"Wasserturmweg","postalCode":"74906","locality":"Bad Rappenau","municipality":{"key":"08125006","name":"Bad Rappenau, Stadt","type":"Große_Kreisstadt"},"district":{"key":"08125","name":"Heilbronn","type":"Landkreis"},"federalState":{"key":"08","name":"Baden-Württemberg"}},{"name":"Wedeler Chaussee","postalCode":"25482","locality":"Appen","municipality":{"key":"01056001","name":"Appen","type":"Kreisangehörige_Gemeinde"},"district":{"key":"01056","name":"Pinneberg","type":"Kreis"},"federalState":{"key":"01","name":"Schleswig-Holstein"}},{"name":"Wehrwiesenstr.","postalCode":"91788","locality":"Pappenheim","municipality":{"key":"09577158","name":"Pappenheim, St","type":"Stadt"},"district":{"key":"09577","name":"Weißenburg-Gunzenhausen","type":"Landkreis"},"federalState":{"key":"09","name":"Bayern"}},{"name":"Weidenstr.","postalCode":"74906","locality":"Bad Rappenau","municipality":{"key":"08125006","name":"Bad Rappenau, Stadt","type":"Große_Kreisstadt"},"district":{"key":"08125","name":"Heilbronn","type":"Landkreis"},"federalState":{"key":"08","name":"Baden-Württemberg"}},{"name":"Weiherstr.","postalCode":"77767","locality":"Appenweier","municipality":{"key":"08317005","name":"Appenweier","type":"Kreisangehörige_Gemeinde"},"district":{"key":"08317","name":"Ortenaukreis","type":"Landkreis"},"federalState":{"key":"08","name":"Baden-Württemberg"}},{"name":"Weinbergstr.","postalCode":"74906","locality":"Bad Rappenau","municipality":{"key":"08125006","name":"Bad Rappenau, Stadt","type":"Große_Kreisstadt"},"district":{"key":"08125","name":"Heilbronn","type":"Landkreis"},"federalState":{"key":"08","name":"Baden-Württemberg"}},{"name":"Weinbergweg","postalCode":"91788","locality":"Pappenheim","municipality":{"key":"09577158","name":"Pappenheim, St","type":"Stadt"},"district":{"key":"09577","name":"Weißenburg-Gunzenhausen","type":"Landkreis"},"federalState":{"key":"09","name":"Bayern"}},{"name":"Weinbrennerstr.","postalCode":"74906","locality":"Bad Rappenau","municipality":{"key":"08125006","name":"Bad Rappenau, Stadt","type":"Große_Kreisstadt"},"district":{"key":"08125","name":"Heilbronn","type":"Landkreis"},"federalState":{"key":"08","name":"Baden-Württemberg"}},{"name":"Weisäckerstr.","postalCode":"74906","locality":"Bad Rappenau","municipality":{"key":"08125006","name":"Bad Rappenau, Stadt","type":"Große_Kreisstadt"},"district":{"key":"08125","name":"Heilbronn","type":"Landkreis"},"federalState":{"key":"08","name":"Baden-Württemberg"}},{"name":"Weißenburger Str.","postalCode":"91788","locality":"Pappenheim","municipality":{"key":"09577158","name":"Pappenheim, St","type":"Stadt"},"district":{"key":"09577","name":"Weißenburg-Gunzenhausen","type":"Landkreis"},"federalState":{"key":"09","name":"Bayern"}},{"name":"Welzbachstr.","postalCode":"55437","locality":"Appenheim","municipality":{"key":"07339001","name":"Appenheim","type":"Kreisangehörige_Gemeinde"},"district":{"key":"07339","name":"Mainz-Bingen","type":"Landkreis"},"federalState":{"key":"07","name":"Rheinland-Pfalz"}},{"name":"Wengertweg","postalCode":"74906","locality":"Bad Rappenau","municipality":{"key":"08125006","name":"Bad Rappenau, Stadt","type":"Große_Kreisstadt"},"district":{"key":"08125","name":"Heilbronn","type":"Landkreis"},"federalState":{"key":"08","name":"Baden-Württemberg"}},{"name":"Wespenpfad","postalCode":"91788","locality":"Pappenheim","municipality":{"key":"09577158","name":"Pappenheim, St","type":"Stadt"},"district":{"key":"09577","name":"Weißenburg-Gunzenhausen","type":"Landkreis"},"federalState":{"key":"09","name":"Bayern"}},{"name":"Westerstück","postalCode":"25482","locality":"Appen","municipality":{"key":"01056001","name":"Appen","type":"Kreisangehörige_Gemeinde"},"district":{"key":"01056","name":"Pinneberg","type":"Kreis"},"federalState":{"key":"01","name":"Schleswig-Holstein"}},{"name":"Westring","postalCode":"25482","locality":"Appen","municipality":{"key":"01056001","name":"Appen","type":"Kreisangehörige_Gemeinde"},"district":{"key":"01056","name":"Pinneberg","type":"Kreis"},"federalState":{"key":"01","name":"Schleswig-Holstein"}},{"name":"Weststr.","postalCode":"74906","locality":"Bad Rappenau","municipality":{"key":"08125006","name":"Bad Rappenau, Stadt","type":"Große_Kreisstadt"},"district":{"key":"08125","name":"Heilbronn","type":"Landkreis"},"federalState":{"key":"08","name":"Baden-Württemberg"}},{"name":"Wiesenweg","postalCode":"74906","locality":"Bad Rappenau","municipality":{"key":"08125006","name":"Bad Rappenau, Stadt","type":"Große_Kreisstadt"},"district":{"key":"08125","name":"Heilbronn","type":"Landkreis"},"federalState":{"key":"08","name":"Baden-Württemberg"}},{"name":"Wilhelm-Hauff-Str.","postalCode":"74906","locality":"Bad Rappenau","municipality":{"key":"08125006","name":"Bad Rappenau, Stadt","type":"Große_Kreisstadt"},"district":{"key":"08125","name":"Heilbronn","type":"Landkreis"},"federalState":{"key":"08","name":"Baden-Württemberg"}},{"name":"Wilhelmstr.","postalCode":"74906","locality":"Bad Rappenau","municipality":{"key":"08125006","name":"Bad Rappenau, Stadt","type":"Große_Kreisstadt"},"district":{"key":"08125","name":"Heilbronn","type":"Landkreis"},"federalState":{"key":"08","name":"Baden-Württemberg"}},{"name":"Wimpfener Str.","postalCode":"74906","locality":"Bad Rappenau","municipality":{"key":"08125006","name":"Bad Rappenau, Stadt","type":"Große_Kreisstadt"},"district":{"key":"08125","name":"Heilbronn","type":"Landkreis"},"federalState":{"key":"08","name":"Baden-Württemberg"}},{"name":"Winkelstr.","postalCode":"77767","locality":"Appenweier","municipality":{"key":"08317005","name":"Appenweier","type":"Kreisangehörige_Gemeinde"},"district":{"key":"08317","name":"Ortenaukreis","type":"Landkreis"},"federalState":{"key":"08","name":"Baden-Württemberg"}},{"name":"Wischbleek","postalCode":"25482","locality":"Appen","municipality":{"key":"01056001","name":"Appen","type":"Kreisangehörige_Gemeinde"},"district":{"key":"01056","name":"Pinneberg","type":"Kreis"},"federalState":{"key":"01","name":"Schleswig-Holstein"}},{"name":"Wolfsgasse","postalCode":"77767","locality":"Appenweier","municipality":{"key":"08317005","name":"Appenweier","type":"Kreisangehörige_Gemeinde"},"district":{"key":"08317","name":"Ortenaukreis","type":"Landkreis"},"federalState":{"key":"08","name":"Baden-Württemberg"}},{"name":"Wolfstalstrecke","postalCode":"91788","locality":"Pappenheim","municipality":{"key":"09577158","name":"Pappenheim, St","type":"Stadt"},"district":{"key":"09577","name":"Weißenburg-Gunzenhausen","type":"Landkreis"},"federalState":{"key":"09","name":"Bayern"}},{"name":"Wolkengasse","postalCode":"77767","locality":"Appenweier","municipality":{"key":"08317005","name":"Appenweier","type":"Kreisangehörige_Gemeinde"},"district":{"key":"08317","name":"Ortenaukreis","type":"Landkreis"},"federalState":{"key":"08","name":"Baden-Württemberg"}},{"name":"Zähringerstr.","postalCode":"77767","locality":"Appenweier","municipality":{"key":"08317005","name":"Appenweier","type":"Kreisangehörige_Gemeinde"},"district":{"key":"08317","name":"Ortenaukreis","type":"Landkreis"},"federalState":{"key":"08","name":"Baden-Württemberg"}},{"name":"Zehn Morgen","postalCode":"74906","locality":"Bad Rappenau","municipality":{"key":"08125006","name":"Bad Rappenau, Stadt","type":"Große_Kreisstadt"},"district":{"key":"08125","name":"Heilbronn","type":"Landkreis"},"federalState":{"key":"08","name":"Baden-Württemberg"}},{"name":"Ziegelei","postalCode":"24594","locality":"Tappendorf","municipality":{"key":"01058159","name":"Tappendorf","type":"Kreisangehörige_Gemeinde"},"district":{"key":"01058","name":"Rendsburg-Eckernförde","type":"Kreis"},"federalState":{"key":"01","name":"Schleswig-Holstein"}},{"name":"Ziegeleiweg","postalCode":"25482","locality":"Appen","municipality":{"key":"01056001","name":"Appen","type":"Kreisangehörige_Gemeinde"},"district":{"key":"01056","name":"Pinneberg","type":"Kreis"},"federalState":{"key":"01","name":"Schleswig-Holstein"}},{"name":"Zigeunerweg","postalCode":"74906","locality":"Bad Rappenau","municipality":{"key":"08125006","name":"Bad Rappenau, Stadt","type":"Große_Kreisstadt"},"district":{"key":"08125","name":"Heilbronn","type":"Landkreis"},"federalState":{"key":"08","name":"Baden-Württemberg"}},{"name":"Zimmererstr.","postalCode":"77767","locality":"Appenweier","municipality":{"key":"08317005","name":"Appenweier","type":"Kreisangehörige_Gemeinde"},"district":{"key":"08317","name":"Ortenaukreis","type":"Landkreis"},"federalState":{"key":"08","name":"Baden-Württemberg"}},{"name":"Zimmern","postalCode":"91788","locality":"Pappenheim","municipality":{"key":"09577158","name":"Pappenheim, St","type":"Stadt"},"district":{"key":"09577","name":"Weißenburg-Gunzenhausen","type":"Landkreis"},"federalState":{"key":"09","name":"Bayern"}},{"name":"Zimmersteige","postalCode":"74906","locality":"Bad Rappenau","municipality":{"key":"08125006","name":"Bad Rappenau, Stadt","type":"Große_Kreisstadt"},"district":{"key":"08125","name":"Heilbronn","type":"Landkreis"},"federalState":{"key":"08","name":"Baden-Württemberg"}},{"name":"Zum Bauernwald","postalCode":"74906","locality":"Bad Rappenau","municipality":{"key":"08125006","name":"Bad Rappenau, Stadt","type":"Große_Kreisstadt"},"district":{"key":"08125","name":"Heilbronn","type":"Landkreis"},"federalState":{"key":"08","name":"Baden-Württemberg"}},{"name":"Zum Drosselborn","postalCode":"55437","locality":"Appenheim","municipality":{"key":"07339001","name":"Appenheim","type":"Kreisangehörige_Gemeinde"},"district":{"key":"07339","name":"Mainz-Bingen","type":"Landkreis"},"federalState":{"key":"07","name":"Rheinland-Pfalz"}},{"name":"Zum Forst","postalCode":"74906","locality":"Bad Rappenau","municipality":{"key":"08125006","name":"Bad Rappenau, Stadt","type":"Große_Kreisstadt"},"district":{"key":"08125","name":"Heilbronn","type":"Landkreis"},"federalState":{"key":"08","name":"Baden-Württemberg"}},{"name":"Zum Hofgarten","postalCode":"91788","locality":"Pappenheim","municipality":{"key":"09577158","name":"Pappenheim, St","type":"Stadt"},"district":{"key":"09577","name":"Weißenburg-Gunzenhausen","type":"Landkreis"},"federalState":{"key":"09","name":"Bayern"}},{"name":"Zum Sportplatz","postalCode":"74906","locality":"Bad Rappenau","municipality":{"key":"08125006","name":"Bad Rappenau, Stadt","type":"Große_Kreisstadt"},"district":{"key":"08125","name":"Heilbronn","type":"Landkreis"},"federalState":{"key":"08","name":"Baden-Württemberg"}},{"name":"Zur Aussicht","postalCode":"74906","locality":"Bad Rappenau","municipality":{"key":"08125006","name":"Bad Rappenau, Stadt","type":"Große_Kreisstadt"},"district":{"key":"08125","name":"Heilbronn","type":"Landkreis"},"federalState":{"key":"08","name":"Baden-Württemberg"}},{"name":"Zur Schanz","postalCode":"74906","locality":"Bad Rappenau","municipality":{"key":"08125006","name":"Bad Rappenau, Stadt","type":"Große_Kreisstadt"},"district":{"key":"08125","name":"Heilbronn","type":"Landkreis"},"federalState":{"key":"08","name":"Baden-Württemberg"}},{"name":"Zur Tiefgasse","postalCode":"77767","locality":"Appenweier","municipality":{"key":"08317005","name":"Appenweier","type":"Kreisangehörige_Gemeinde"},"district":{"key":"08317","name":"Ortenaukreis","type":"Landkreis"},"federalState":{"key":"08","name":"Baden-Württemberg"}},{"name":"Zwickauer Weg","postalCode":"74906","locality":"Bad Rappenau","municipality":{"key":"08125006","name":"Bad Rappenau, Stadt","type":"Große_Kreisstadt"},"district":{"key":"08125","name":"Heilbronn","type":"Landkreis"},"federalState":{"key":"08","name":"Baden-Württemberg"}},]