[{"name":"Achalmstr.","postalCode":"72411","locality":"Bodelshausen","municipality":{"key":"08416006","name":"Bodelshausen","type":"Kreisangehörige_Gemeinde"},"district":{"key":"08416","name":"Tübingen","type":"Landkreis"},"federalState":{"key":"08","name":"Baden-Württemberg"}},{"name":"Albblickstr.","postalCode":"72411","locality":"Bodelshausen","municipality":{"key":"08416006","name":"Bodelshausen","type":"Kreisangehörige_Gemeinde"},"district":{"key":"08416","name":"Tübingen","type":"Landkreis"},"federalState":{"key":"08","name":"Baden-Württemberg"}},{"name":"Altenhoferstr.","postalCode":"72411","locality":"Bodelshausen","municipality":{"key":"08416006","name":"Bodelshausen","type":"Kreisangehörige_Gemeinde"},"district":{"key":"08416","name":"Tübingen","type":"Landkreis"},"federalState":{"key":"08","name":"Baden-Württemberg"}},{"name":"Am Burghof","postalCode":"72411","locality":"Bodelshausen","municipality":{"key":"08416006","name":"Bodelshausen","type":"Kreisangehörige_Gemeinde"},"district":{"key":"08416","name":"Tübingen","type":"Landkreis"},"federalState":{"key":"08","name":"Baden-Württemberg"}},{"name":"Am Hannenbühl","postalCode":"72411","locality":"Bodelshausen","municipality":{"key":"08416006","name":"Bodelshausen","type":"Kreisangehörige_Gemeinde"},"district":{"key":"08416","name":"Tübingen","type":"Landkreis"},"federalState":{"key":"08","name":"Baden-Württemberg"}},{"name":"Am Kappelbrunnen","postalCode":"72411","locality":"Bodelshausen","municipality":{"key":"08416006","name":"Bodelshausen","type":"Kreisangehörige_Gemeinde"},"district":{"key":"08416","name":"Tübingen","type":"Landkreis"},"federalState":{"key":"08","name":"Baden-Württemberg"}},{"name":"Am Krebsbach","postalCode":"72411","locality":"Bodelshausen","municipality":{"key":"08416006","name":"Bodelshausen","type":"Kreisangehörige_Gemeinde"},"district":{"key":"08416","name":"Tübingen","type":"Landkreis"},"federalState":{"key":"08","name":"Baden-Württemberg"}},{"name":"Am Lehracker","postalCode":"72411","locality":"Bodelshausen","municipality":{"key":"08416006","name":"Bodelshausen","type":"Kreisangehörige_Gemeinde"},"district":{"key":"08416","name":"Tübingen","type":"Landkreis"},"federalState":{"key":"08","name":"Baden-Württemberg"}},{"name":"Amselweg","postalCode":"72411","locality":"Bodelshausen","municipality":{"key":"08416006","name":"Bodelshausen","type":"Kreisangehörige_Gemeinde"},"district":{"key":"08416","name":"Tübingen","type":"Landkreis"},"federalState":{"key":"08","name":"Baden-Württemberg"}},{"name":"Angeläcker","postalCode":"72411","locality":"Bodelshausen","municipality":{"key":"08416006","name":"Bodelshausen","type":"Kreisangehörige_Gemeinde"},"district":{"key":"08416","name":"Tübingen","type":"Landkreis"},"federalState":{"key":"08","name":"Baden-Württemberg"}},{"name":"August-Lämmle-Str.","postalCode":"72411","locality":"Bodelshausen","municipality":{"key":"08416006","name":"Bodelshausen","type":"Kreisangehörige_Gemeinde"},"district":{"key":"08416","name":"Tübingen","type":"Landkreis"},"federalState":{"key":"08","name":"Baden-Württemberg"}},{"name":"Austr.","postalCode":"72411","locality":"Bodelshausen","municipality":{"key":"08416006","name":"Bodelshausen","type":"Kreisangehörige_Gemeinde"},"district":{"key":"08416","name":"Tübingen","type":"Landkreis"},"federalState":{"key":"08","name":"Baden-Württemberg"}},{"name":"Bachgasse","postalCode":"72411","locality":"Bodelshausen","municipality":{"key":"08416006","name":"Bodelshausen","type":"Kreisangehörige_Gemeinde"},"district":{"key":"08416","name":"Tübingen","type":"Landkreis"},"federalState":{"key":"08","name":"Baden-Württemberg"}},{"name":"Bahnhofstr.","postalCode":"72411","locality":"Bodelshausen","municipality":{"key":"08416006","name":"Bodelshausen","type":"Kreisangehörige_Gemeinde"},"district":{"key":"08416","name":"Tübingen","type":"Landkreis"},"federalState":{"key":"08","name":"Baden-Württemberg"}},{"name":"Beethovenstr.","postalCode":"72411","locality":"Bodelshausen","municipality":{"key":"08416006","name":"Bodelshausen","type":"Kreisangehörige_Gemeinde"},"district":{"key":"08416","name":"Tübingen","type":"Landkreis"},"federalState":{"key":"08","name":"Baden-Württemberg"}},{"name":"Bergstr.","postalCode":"72411","locality":"Bodelshausen","municipality":{"key":"08416006","name":"Bodelshausen","type":"Kreisangehörige_Gemeinde"},"district":{"key":"08416","name":"Tübingen","type":"Landkreis"},"federalState":{"key":"08","name":"Baden-Württemberg"}},{"name":"Bergwiesenweg","postalCode":"72411","locality":"Bodelshausen","municipality":{"key":"08416006","name":"Bodelshausen","type":"Kreisangehörige_Gemeinde"},"district":{"key":"08416","name":"Tübingen","type":"Landkreis"},"federalState":{"key":"08","name":"Baden-Württemberg"}},{"name":"Birkenhausträßchen","postalCode":"72411","locality":"Bodelshausen","municipality":{"key":"08416006","name":"Bodelshausen","type":"Kreisangehörige_Gemeinde"},"district":{"key":"08416","name":"Tübingen","type":"Landkreis"},"federalState":{"key":"08","name":"Baden-Württemberg"}},{"name":"Birkenhof","postalCode":"72411","locality":"Bodelshausen","municipality":{"key":"08416006","name":"Bodelshausen","type":"Kreisangehörige_Gemeinde"},"district":{"key":"08416","name":"Tübingen","type":"Landkreis"},"federalState":{"key":"08","name":"Baden-Württemberg"}},{"name":"Birkenweg","postalCode":"72411","locality":"Bodelshausen","municipality":{"key":"08416006","name":"Bodelshausen","type":"Kreisangehörige_Gemeinde"},"district":{"key":"08416","name":"Tübingen","type":"Landkreis"},"federalState":{"key":"08","name":"Baden-Württemberg"}},{"name":"Blöhsteinstr.","postalCode":"72411","locality":"Bodelshausen","municipality":{"key":"08416006","name":"Bodelshausen","type":"Kreisangehörige_Gemeinde"},"district":{"key":"08416","name":"Tübingen","type":"Landkreis"},"federalState":{"key":"08","name":"Baden-Württemberg"}},{"name":"Bolgärtenweg","postalCode":"72411","locality":"Bodelshausen","municipality":{"key":"08416006","name":"Bodelshausen","type":"Kreisangehörige_Gemeinde"},"district":{"key":"08416","name":"Tübingen","type":"Landkreis"},"federalState":{"key":"08","name":"Baden-Württemberg"}},{"name":"Breslauer Weg","postalCode":"72411","locality":"Bodelshausen","municipality":{"key":"08416006","name":"Bodelshausen","type":"Kreisangehörige_Gemeinde"},"district":{"key":"08416","name":"Tübingen","type":"Landkreis"},"federalState":{"key":"08","name":"Baden-Württemberg"}},{"name":"Brunnenstr.","postalCode":"72411","locality":"Bodelshausen","municipality":{"key":"08416006","name":"Bodelshausen","type":"Kreisangehörige_Gemeinde"},"district":{"key":"08416","name":"Tübingen","type":"Landkreis"},"federalState":{"key":"08","name":"Baden-Württemberg"}},{"name":"Buchenstr.","postalCode":"72411","locality":"Bodelshausen","municipality":{"key":"08416006","name":"Bodelshausen","type":"Kreisangehörige_Gemeinde"},"district":{"key":"08416","name":"Tübingen","type":"Landkreis"},"federalState":{"key":"08","name":"Baden-Württemberg"}},{"name":"Burghof","postalCode":"72411","locality":"Bodelshausen","municipality":{"key":"08416006","name":"Bodelshausen","type":"Kreisangehörige_Gemeinde"},"district":{"key":"08416","name":"Tübingen","type":"Landkreis"},"federalState":{"key":"08","name":"Baden-Württemberg"}},{"name":"Carl-Benz-Str.","postalCode":"72411","locality":"Bodelshausen","municipality":{"key":"08416006","name":"Bodelshausen","type":"Kreisangehörige_Gemeinde"},"district":{"key":"08416","name":"Tübingen","type":"Landkreis"},"federalState":{"key":"08","name":"Baden-Württemberg"}},{"name":"Dahlienstr.","postalCode":"72411","locality":"Bodelshausen","municipality":{"key":"08416006","name":"Bodelshausen","type":"Kreisangehörige_Gemeinde"},"district":{"key":"08416","name":"Tübingen","type":"Landkreis"},"federalState":{"key":"08","name":"Baden-Württemberg"}},{"name":"Daimlerstr.","postalCode":"72411","locality":"Bodelshausen","municipality":{"key":"08416006","name":"Bodelshausen","type":"Kreisangehörige_Gemeinde"},"district":{"key":"08416","name":"Tübingen","type":"Landkreis"},"federalState":{"key":"08","name":"Baden-Württemberg"}},{"name":"Danziger Str.","postalCode":"72411","locality":"Bodelshausen","municipality":{"key":"08416006","name":"Bodelshausen","type":"Kreisangehörige_Gemeinde"},"district":{"key":"08416","name":"Tübingen","type":"Landkreis"},"federalState":{"key":"08","name":"Baden-Württemberg"}},{"name":"Dobelstr.","postalCode":"72411","locality":"Bodelshausen","municipality":{"key":"08416006","name":"Bodelshausen","type":"Kreisangehörige_Gemeinde"},"district":{"key":"08416","name":"Tübingen","type":"Landkreis"},"federalState":{"key":"08","name":"Baden-Württemberg"}},{"name":"Dörnlestr.","postalCode":"72411","locality":"Bodelshausen","municipality":{"key":"08416006","name":"Bodelshausen","type":"Kreisangehörige_Gemeinde"},"district":{"key":"08416","name":"Tübingen","type":"Landkreis"},"federalState":{"key":"08","name":"Baden-Württemberg"}},{"name":"Drosselweg","postalCode":"72411","locality":"Bodelshausen","municipality":{"key":"08416006","name":"Bodelshausen","type":"Kreisangehörige_Gemeinde"},"district":{"key":"08416","name":"Tübingen","type":"Landkreis"},"federalState":{"key":"08","name":"Baden-Württemberg"}},{"name":"Eberhardstr.","postalCode":"72411","locality":"Bodelshausen","municipality":{"key":"08416006","name":"Bodelshausen","type":"Kreisangehörige_Gemeinde"},"district":{"key":"08416","name":"Tübingen","type":"Landkreis"},"federalState":{"key":"08","name":"Baden-Württemberg"}},{"name":"Eichenweg","postalCode":"72411","locality":"Bodelshausen","municipality":{"key":"08416006","name":"Bodelshausen","type":"Kreisangehörige_Gemeinde"},"district":{"key":"08416","name":"Tübingen","type":"Landkreis"},"federalState":{"key":"08","name":"Baden-Württemberg"}},{"name":"Erlenbrunnenstr.","postalCode":"72411","locality":"Bodelshausen","municipality":{"key":"08416006","name":"Bodelshausen","type":"Kreisangehörige_Gemeinde"},"district":{"key":"08416","name":"Tübingen","type":"Landkreis"},"federalState":{"key":"08","name":"Baden-Württemberg"}},{"name":"Eschenweg","postalCode":"72411","locality":"Bodelshausen","municipality":{"key":"08416006","name":"Bodelshausen","type":"Kreisangehörige_Gemeinde"},"district":{"key":"08416","name":"Tübingen","type":"Landkreis"},"federalState":{"key":"08","name":"Baden-Württemberg"}},{"name":"Fliederstr.","postalCode":"72411","locality":"Bodelshausen","municipality":{"key":"08416006","name":"Bodelshausen","type":"Kreisangehörige_Gemeinde"},"district":{"key":"08416","name":"Tübingen","type":"Landkreis"},"federalState":{"key":"08","name":"Baden-Württemberg"}},{"name":"Friedrich-Hänssler-Weg","postalCode":"72411","locality":"Bodelshausen","municipality":{"key":"08416006","name":"Bodelshausen","type":"Kreisangehörige_Gemeinde"},"district":{"key":"08416","name":"Tübingen","type":"Landkreis"},"federalState":{"key":"08","name":"Baden-Württemberg"}},{"name":"Gartenstr.","postalCode":"72411","locality":"Bodelshausen","municipality":{"key":"08416006","name":"Bodelshausen","type":"Kreisangehörige_Gemeinde"},"district":{"key":"08416","name":"Tübingen","type":"Landkreis"},"federalState":{"key":"08","name":"Baden-Württemberg"}},{"name":"Geißhalde","postalCode":"72411","locality":"Bodelshausen","municipality":{"key":"08416006","name":"Bodelshausen","type":"Kreisangehörige_Gemeinde"},"district":{"key":"08416","name":"Tübingen","type":"Landkreis"},"federalState":{"key":"08","name":"Baden-Württemberg"}},{"name":"Gerstlaich","postalCode":"72411","locality":"Bodelshausen","municipality":{"key":"08416006","name":"Bodelshausen","type":"Kreisangehörige_Gemeinde"},"district":{"key":"08416","name":"Tübingen","type":"Landkreis"},"federalState":{"key":"08","name":"Baden-Württemberg"}},{"name":"Goethestr.","postalCode":"72411","locality":"Bodelshausen","municipality":{"key":"08416006","name":"Bodelshausen","type":"Kreisangehörige_Gemeinde"},"district":{"key":"08416","name":"Tübingen","type":"Landkreis"},"federalState":{"key":"08","name":"Baden-Württemberg"}},{"name":"Grabenäcker","postalCode":"72411","locality":"Bodelshausen","municipality":{"key":"08416006","name":"Bodelshausen","type":"Kreisangehörige_Gemeinde"},"district":{"key":"08416","name":"Tübingen","type":"Landkreis"},"federalState":{"key":"08","name":"Baden-Württemberg"}},{"name":"Grabenstr.","postalCode":"72411","locality":"Bodelshausen","municipality":{"key":"08416006","name":"Bodelshausen","type":"Kreisangehörige_Gemeinde"},"district":{"key":"08416","name":"Tübingen","type":"Landkreis"},"federalState":{"key":"08","name":"Baden-Württemberg"}},{"name":"Grenzäckerstr.","postalCode":"72411","locality":"Bodelshausen","municipality":{"key":"08416006","name":"Bodelshausen","type":"Kreisangehörige_Gemeinde"},"district":{"key":"08416","name":"Tübingen","type":"Landkreis"},"federalState":{"key":"08","name":"Baden-Württemberg"}},{"name":"Hartstr.","postalCode":"72411","locality":"Bodelshausen","municipality":{"key":"08416006","name":"Bodelshausen","type":"Kreisangehörige_Gemeinde"},"district":{"key":"08416","name":"Tübingen","type":"Landkreis"},"federalState":{"key":"08","name":"Baden-Württemberg"}},{"name":"Hascherleshecke","postalCode":"72411","locality":"Bodelshausen","municipality":{"key":"08416006","name":"Bodelshausen","type":"Kreisangehörige_Gemeinde"},"district":{"key":"08416","name":"Tübingen","type":"Landkreis"},"federalState":{"key":"08","name":"Baden-Württemberg"}},{"name":"Hauffstr.","postalCode":"72411","locality":"Bodelshausen","municipality":{"key":"08416006","name":"Bodelshausen","type":"Kreisangehörige_Gemeinde"},"district":{"key":"08416","name":"Tübingen","type":"Landkreis"},"federalState":{"key":"08","name":"Baden-Württemberg"}},{"name":"Hechinger Str.","postalCode":"72411","locality":"Bodelshausen","municipality":{"key":"08416006","name":"Bodelshausen","type":"Kreisangehörige_Gemeinde"},"district":{"key":"08416","name":"Tübingen","type":"Landkreis"},"federalState":{"key":"08","name":"Baden-Württemberg"}},{"name":"Heckwiesenstr.","postalCode":"72411","locality":"Bodelshausen","municipality":{"key":"08416006","name":"Bodelshausen","type":"Kreisangehörige_Gemeinde"},"district":{"key":"08416","name":"Tübingen","type":"Landkreis"},"federalState":{"key":"08","name":"Baden-Württemberg"}},{"name":"Heidengäßle","postalCode":"72411","locality":"Bodelshausen","municipality":{"key":"08416006","name":"Bodelshausen","type":"Kreisangehörige_Gemeinde"},"district":{"key":"08416","name":"Tübingen","type":"Landkreis"},"federalState":{"key":"08","name":"Baden-Württemberg"}},{"name":"Heiligenbrunnen","postalCode":"72411","locality":"Bodelshausen","municipality":{"key":"08416006","name":"Bodelshausen","type":"Kreisangehörige_Gemeinde"},"district":{"key":"08416","name":"Tübingen","type":"Landkreis"},"federalState":{"key":"08","name":"Baden-Württemberg"}},{"name":"Herdweg","postalCode":"72411","locality":"Bodelshausen","municipality":{"key":"08416006","name":"Bodelshausen","type":"Kreisangehörige_Gemeinde"},"district":{"key":"08416","name":"Tübingen","type":"Landkreis"},"federalState":{"key":"08","name":"Baden-Württemberg"}},{"name":"Hezengäßle","postalCode":"72411","locality":"Bodelshausen","municipality":{"key":"08416006","name":"Bodelshausen","type":"Kreisangehörige_Gemeinde"},"district":{"key":"08416","name":"Tübingen","type":"Landkreis"},"federalState":{"key":"08","name":"Baden-Württemberg"}},{"name":"Höfelstr.","postalCode":"72411","locality":"Bodelshausen","municipality":{"key":"08416006","name":"Bodelshausen","type":"Kreisangehörige_Gemeinde"},"district":{"key":"08416","name":"Tübingen","type":"Landkreis"},"federalState":{"key":"08","name":"Baden-Württemberg"}},{"name":"Hohenstöffelsträßchen","postalCode":"72411","locality":"Bodelshausen","municipality":{"key":"08416006","name":"Bodelshausen","type":"Kreisangehörige_Gemeinde"},"district":{"key":"08416","name":"Tübingen","type":"Landkreis"},"federalState":{"key":"08","name":"Baden-Württemberg"}},{"name":"Hohler Graben","postalCode":"72411","locality":"Bodelshausen","municipality":{"key":"08416006","name":"Bodelshausen","type":"Kreisangehörige_Gemeinde"},"district":{"key":"08416","name":"Tübingen","type":"Landkreis"},"federalState":{"key":"08","name":"Baden-Württemberg"}},{"name":"Hölderlinstr.","postalCode":"72411","locality":"Bodelshausen","municipality":{"key":"08416006","name":"Bodelshausen","type":"Kreisangehörige_Gemeinde"},"district":{"key":"08416","name":"Tübingen","type":"Landkreis"},"federalState":{"key":"08","name":"Baden-Württemberg"}},{"name":"Hungerberg","postalCode":"72411","locality":"Bodelshausen","municipality":{"key":"08416006","name":"Bodelshausen","type":"Kreisangehörige_Gemeinde"},"district":{"key":"08416","name":"Tübingen","type":"Landkreis"},"federalState":{"key":"08","name":"Baden-Württemberg"}},{"name":"Hutschenweihergäßle","postalCode":"72411","locality":"Bodelshausen","municipality":{"key":"08416006","name":"Bodelshausen","type":"Kreisangehörige_Gemeinde"},"district":{"key":"08416","name":"Tübingen","type":"Landkreis"},"federalState":{"key":"08","name":"Baden-Württemberg"}},{"name":"Innere Grabenstr.","postalCode":"72411","locality":"Bodelshausen","municipality":{"key":"08416006","name":"Bodelshausen","type":"Kreisangehörige_Gemeinde"},"district":{"key":"08416","name":"Tübingen","type":"Landkreis"},"federalState":{"key":"08","name":"Baden-Württemberg"}},{"name":"Jakob-Nill-Weg","postalCode":"72411","locality":"Bodelshausen","municipality":{"key":"08416006","name":"Bodelshausen","type":"Kreisangehörige_Gemeinde"},"district":{"key":"08416","name":"Tübingen","type":"Landkreis"},"federalState":{"key":"08","name":"Baden-Württemberg"}},{"name":"Kalkofenstr.","postalCode":"72411","locality":"Bodelshausen","municipality":{"key":"08416006","name":"Bodelshausen","type":"Kreisangehörige_Gemeinde"},"district":{"key":"08416","name":"Tübingen","type":"Landkreis"},"federalState":{"key":"08","name":"Baden-Württemberg"}},{"name":"Keplerstr.","postalCode":"72411","locality":"Bodelshausen","municipality":{"key":"08416006","name":"Bodelshausen","type":"Kreisangehörige_Gemeinde"},"district":{"key":"08416","name":"Tübingen","type":"Landkreis"},"federalState":{"key":"08","name":"Baden-Württemberg"}},{"name":"Kernerstr.","postalCode":"72411","locality":"Bodelshausen","municipality":{"key":"08416006","name":"Bodelshausen","type":"Kreisangehörige_Gemeinde"},"district":{"key":"08416","name":"Tübingen","type":"Landkreis"},"federalState":{"key":"08","name":"Baden-Württemberg"}},{"name":"Kirchstr.","postalCode":"72411","locality":"Bodelshausen","municipality":{"key":"08416006","name":"Bodelshausen","type":"Kreisangehörige_Gemeinde"},"district":{"key":"08416","name":"Tübingen","type":"Landkreis"},"federalState":{"key":"08","name":"Baden-Württemberg"}},{"name":"Königsberger Str.","postalCode":"72411","locality":"Bodelshausen","municipality":{"key":"08416006","name":"Bodelshausen","type":"Kreisangehörige_Gemeinde"},"district":{"key":"08416","name":"Tübingen","type":"Landkreis"},"federalState":{"key":"08","name":"Baden-Württemberg"}},{"name":"Kreuzsteinstr.","postalCode":"72411","locality":"Bodelshausen","municipality":{"key":"08416006","name":"Bodelshausen","type":"Kreisangehörige_Gemeinde"},"district":{"key":"08416","name":"Tübingen","type":"Landkreis"},"federalState":{"key":"08","name":"Baden-Württemberg"}},{"name":"Landhausstr.","postalCode":"72411","locality":"Bodelshausen","municipality":{"key":"08416006","name":"Bodelshausen","type":"Kreisangehörige_Gemeinde"},"district":{"key":"08416","name":"Tübingen","type":"Landkreis"},"federalState":{"key":"08","name":"Baden-Württemberg"}},{"name":"Lehrstr.","postalCode":"72411","locality":"Bodelshausen","municipality":{"key":"08416006","name":"Bodelshausen","type":"Kreisangehörige_Gemeinde"},"district":{"key":"08416","name":"Tübingen","type":"Landkreis"},"federalState":{"key":"08","name":"Baden-Württemberg"}},{"name":"Lilienstr.","postalCode":"72411","locality":"Bodelshausen","municipality":{"key":"08416006","name":"Bodelshausen","type":"Kreisangehörige_Gemeinde"},"district":{"key":"08416","name":"Tübingen","type":"Landkreis"},"federalState":{"key":"08","name":"Baden-Württemberg"}},{"name":"Lindenhof","postalCode":"72411","locality":"Bodelshausen","municipality":{"key":"08416006","name":"Bodelshausen","type":"Kreisangehörige_Gemeinde"},"district":{"key":"08416","name":"Tübingen","type":"Landkreis"},"federalState":{"key":"08","name":"Baden-Württemberg"}},{"name":"Lindenstr.","postalCode":"72411","locality":"Bodelshausen","municipality":{"key":"08416006","name":"Bodelshausen","type":"Kreisangehörige_Gemeinde"},"district":{"key":"08416","name":"Tübingen","type":"Landkreis"},"federalState":{"key":"08","name":"Baden-Württemberg"}},{"name":"Liststr.","postalCode":"72411","locality":"Bodelshausen","municipality":{"key":"08416006","name":"Bodelshausen","type":"Kreisangehörige_Gemeinde"},"district":{"key":"08416","name":"Tübingen","type":"Landkreis"},"federalState":{"key":"08","name":"Baden-Württemberg"}},{"name":"Lönsweg","postalCode":"72411","locality":"Bodelshausen","municipality":{"key":"08416006","name":"Bodelshausen","type":"Kreisangehörige_Gemeinde"},"district":{"key":"08416","name":"Tübingen","type":"Landkreis"},"federalState":{"key":"08","name":"Baden-Württemberg"}},{"name":"Marc-Cain-Allee","postalCode":"72411","locality":"Bodelshausen","municipality":{"key":"08416006","name":"Bodelshausen","type":"Kreisangehörige_Gemeinde"},"district":{"key":"08416","name":"Tübingen","type":"Landkreis"},"federalState":{"key":"08","name":"Baden-Württemberg"}},{"name":"Max-Eyth-Weg","postalCode":"72411","locality":"Bodelshausen","municipality":{"key":"08416006","name":"Bodelshausen","type":"Kreisangehörige_Gemeinde"},"district":{"key":"08416","name":"Tübingen","type":"Landkreis"},"federalState":{"key":"08","name":"Baden-Württemberg"}},{"name":"Meisenweg","postalCode":"72411","locality":"Bodelshausen","municipality":{"key":"08416006","name":"Bodelshausen","type":"Kreisangehörige_Gemeinde"},"district":{"key":"08416","name":"Tübingen","type":"Landkreis"},"federalState":{"key":"08","name":"Baden-Württemberg"}},{"name":"Mörikeweg","postalCode":"72411","locality":"Bodelshausen","municipality":{"key":"08416006","name":"Bodelshausen","type":"Kreisangehörige_Gemeinde"},"district":{"key":"08416","name":"Tübingen","type":"Landkreis"},"federalState":{"key":"08","name":"Baden-Württemberg"}},{"name":"Mössinger Str.","postalCode":"72411","locality":"Bodelshausen","municipality":{"key":"08416006","name":"Bodelshausen","type":"Kreisangehörige_Gemeinde"},"district":{"key":"08416","name":"Tübingen","type":"Landkreis"},"federalState":{"key":"08","name":"Baden-Württemberg"}},{"name":"Mozartstr.","postalCode":"72411","locality":"Bodelshausen","municipality":{"key":"08416006","name":"Bodelshausen","type":"Kreisangehörige_Gemeinde"},"district":{"key":"08416","name":"Tübingen","type":"Landkreis"},"federalState":{"key":"08","name":"Baden-Württemberg"}},{"name":"Mühlbachstr.","postalCode":"72411","locality":"Bodelshausen","municipality":{"key":"08416006","name":"Bodelshausen","type":"Kreisangehörige_Gemeinde"},"district":{"key":"08416","name":"Tübingen","type":"Landkreis"},"federalState":{"key":"08","name":"Baden-Württemberg"}},{"name":"Narzissenstr.","postalCode":"72411","locality":"Bodelshausen","municipality":{"key":"08416006","name":"Bodelshausen","type":"Kreisangehörige_Gemeinde"},"district":{"key":"08416","name":"Tübingen","type":"Landkreis"},"federalState":{"key":"08","name":"Baden-Württemberg"}},{"name":"Nelkenstr.","postalCode":"72411","locality":"Bodelshausen","municipality":{"key":"08416006","name":"Bodelshausen","type":"Kreisangehörige_Gemeinde"},"district":{"key":"08416","name":"Tübingen","type":"Landkreis"},"federalState":{"key":"08","name":"Baden-Württemberg"}},{"name":"Neues Steigle","postalCode":"72411","locality":"Bodelshausen","municipality":{"key":"08416006","name":"Bodelshausen","type":"Kreisangehörige_Gemeinde"},"district":{"key":"08416","name":"Tübingen","type":"Landkreis"},"federalState":{"key":"08","name":"Baden-Württemberg"}},{"name":"Oberhausen","postalCode":"72411","locality":"Bodelshausen","municipality":{"key":"08416006","name":"Bodelshausen","type":"Kreisangehörige_Gemeinde"},"district":{"key":"08416","name":"Tübingen","type":"Landkreis"},"federalState":{"key":"08","name":"Baden-Württemberg"}},{"name":"Oberhausener Str.","postalCode":"72411","locality":"Bodelshausen","municipality":{"key":"08416006","name":"Bodelshausen","type":"Kreisangehörige_Gemeinde"},"district":{"key":"08416","name":"Tübingen","type":"Landkreis"},"federalState":{"key":"08","name":"Baden-Württemberg"}},{"name":"Oberwiesenstr.","postalCode":"72411","locality":"Bodelshausen","municipality":{"key":"08416006","name":"Bodelshausen","type":"Kreisangehörige_Gemeinde"},"district":{"key":"08416","name":"Tübingen","type":"Landkreis"},"federalState":{"key":"08","name":"Baden-Württemberg"}},{"name":"Park Ortsmitte","postalCode":"72411","locality":"Bodelshausen","municipality":{"key":"08416006","name":"Bodelshausen","type":"Kreisangehörige_Gemeinde"},"district":{"key":"08416","name":"Tübingen","type":"Landkreis"},"federalState":{"key":"08","name":"Baden-Württemberg"}},{"name":"Paul-Gerhardt-Str.","postalCode":"72411","locality":"Bodelshausen","municipality":{"key":"08416006","name":"Bodelshausen","type":"Kreisangehörige_Gemeinde"},"district":{"key":"08416","name":"Tübingen","type":"Landkreis"},"federalState":{"key":"08","name":"Baden-Württemberg"}},{"name":"Pflaumengasse","postalCode":"72411","locality":"Bodelshausen","municipality":{"key":"08416006","name":"Bodelshausen","type":"Kreisangehörige_Gemeinde"},"district":{"key":"08416","name":"Tübingen","type":"Landkreis"},"federalState":{"key":"08","name":"Baden-Württemberg"}},{"name":"Quellgasse","postalCode":"72070","locality":"Tübingen","municipality":{"key":"08416041","name":"Tübingen, Universitätsstadt","type":"Große_Kreisstadt"},"district":{"key":"08416","name":"Tübingen","type":"Landkreis"},"federalState":{"key":"08","name":"Baden-Württemberg"}},{"name":"Quenstedtstr.","postalCode":"72076","locality":"Tübingen","municipality":{"key":"08416041","name":"Tübingen, Universitätsstadt","type":"Große_Kreisstadt"},"district":{"key":"08416","name":"Tübingen","type":"Landkreis"},"federalState":{"key":"08","name":"Baden-Württemberg"}},{"name":"Querstr.","postalCode":"72074","locality":"Tübingen","municipality":{"key":"08416041","name":"Tübingen, Universitätsstadt","type":"Große_Kreisstadt"},"district":{"key":"08416","name":"Tübingen","type":"Landkreis"},"federalState":{"key":"08","name":"Baden-Württemberg"}},{"name":"Rauthauweg","postalCode":"72411","locality":"Bodelshausen","municipality":{"key":"08416006","name":"Bodelshausen","type":"Kreisangehörige_Gemeinde"},"district":{"key":"08416","name":"Tübingen","type":"Landkreis"},"federalState":{"key":"08","name":"Baden-Württemberg"}},{"name":"Reuteweg","postalCode":"72411","locality":"Bodelshausen","municipality":{"key":"08416006","name":"Bodelshausen","type":"Kreisangehörige_Gemeinde"},"district":{"key":"08416","name":"Tübingen","type":"Landkreis"},"federalState":{"key":"08","name":"Baden-Württemberg"}},{"name":"Ringstr.","postalCode":"72411","locality":"Bodelshausen","municipality":{"key":"08416006","name":"Bodelshausen","type":"Kreisangehörige_Gemeinde"},"district":{"key":"08416","name":"Tübingen","type":"Landkreis"},"federalState":{"key":"08","name":"Baden-Württemberg"}},{"name":"Robert-Bosch-Str.","postalCode":"72411","locality":"Bodelshausen","municipality":{"key":"08416006","name":"Bodelshausen","type":"Kreisangehörige_Gemeinde"},"district":{"key":"08416","name":"Tübingen","type":"Landkreis"},"federalState":{"key":"08","name":"Baden-Württemberg"}},{"name":"Robert-Schumann-Weg","postalCode":"72411","locality":"Bodelshausen","municipality":{"key":"08416006","name":"Bodelshausen","type":"Kreisangehörige_Gemeinde"},"district":{"key":"08416","name":"Tübingen","type":"Landkreis"},"federalState":{"key":"08","name":"Baden-Württemberg"}},{"name":"Rosengartenweg","postalCode":"72411","locality":"Bodelshausen","municipality":{"key":"08416006","name":"Bodelshausen","type":"Kreisangehörige_Gemeinde"},"district":{"key":"08416","name":"Tübingen","type":"Landkreis"},"federalState":{"key":"08","name":"Baden-Württemberg"}},{"name":"Rosenstr.","postalCode":"72411","locality":"Bodelshausen","municipality":{"key":"08416006","name":"Bodelshausen","type":"Kreisangehörige_Gemeinde"},"district":{"key":"08416","name":"Tübingen","type":"Landkreis"},"federalState":{"key":"08","name":"Baden-Württemberg"}},{"name":"Roßbergstr.","postalCode":"72411","locality":"Bodelshausen","municipality":{"key":"08416006","name":"Bodelshausen","type":"Kreisangehörige_Gemeinde"},"district":{"key":"08416","name":"Tübingen","type":"Landkreis"},"federalState":{"key":"08","name":"Baden-Württemberg"}},{"name":"Rotlaubweg","postalCode":"72411","locality":"Bodelshausen","municipality":{"key":"08416006","name":"Bodelshausen","type":"Kreisangehörige_Gemeinde"},"district":{"key":"08416","name":"Tübingen","type":"Landkreis"},"federalState":{"key":"08","name":"Baden-Württemberg"}},{"name":"Rottenburger Str.","postalCode":"72411","locality":"Bodelshausen","municipality":{"key":"08416006","name":"Bodelshausen","type":"Kreisangehörige_Gemeinde"},"district":{"key":"08416","name":"Tübingen","type":"Landkreis"},"federalState":{"key":"08","name":"Baden-Württemberg"}},{"name":"Schellengrabensträßchen","postalCode":"72411","locality":"Bodelshausen","municipality":{"key":"08416006","name":"Bodelshausen","type":"Kreisangehörige_Gemeinde"},"district":{"key":"08416","name":"Tübingen","type":"Landkreis"},"federalState":{"key":"08","name":"Baden-Württemberg"}},{"name":"Schillerstr.","postalCode":"72411","locality":"Bodelshausen","municipality":{"key":"08416006","name":"Bodelshausen","type":"Kreisangehörige_Gemeinde"},"district":{"key":"08416","name":"Tübingen","type":"Landkreis"},"federalState":{"key":"08","name":"Baden-Württemberg"}},{"name":"Schindäckerstr.","postalCode":"72411","locality":"Bodelshausen","municipality":{"key":"08416006","name":"Bodelshausen","type":"Kreisangehörige_Gemeinde"},"district":{"key":"08416","name":"Tübingen","type":"Landkreis"},"federalState":{"key":"08","name":"Baden-Württemberg"}},{"name":"Schlehenweg","postalCode":"72411","locality":"Bodelshausen","municipality":{"key":"08416006","name":"Bodelshausen","type":"Kreisangehörige_Gemeinde"},"district":{"key":"08416","name":"Tübingen","type":"Landkreis"},"federalState":{"key":"08","name":"Baden-Württemberg"}},{"name":"Schubertstr.","postalCode":"72411","locality":"Bodelshausen","municipality":{"key":"08416006","name":"Bodelshausen","type":"Kreisangehörige_Gemeinde"},"district":{"key":"08416","name":"Tübingen","type":"Landkreis"},"federalState":{"key":"08","name":"Baden-Württemberg"}},{"name":"Schulstr.","postalCode":"72411","locality":"Bodelshausen","municipality":{"key":"08416006","name":"Bodelshausen","type":"Kreisangehörige_Gemeinde"},"district":{"key":"08416","name":"Tübingen","type":"Landkreis"},"federalState":{"key":"08","name":"Baden-Württemberg"}},{"name":"Schwabstr.","postalCode":"72411","locality":"Bodelshausen","municipality":{"key":"08416006","name":"Bodelshausen","type":"Kreisangehörige_Gemeinde"},"district":{"key":"08416","name":"Tübingen","type":"Landkreis"},"federalState":{"key":"08","name":"Baden-Württemberg"}},{"name":"Seelosenstr.","postalCode":"72411","locality":"Bodelshausen","municipality":{"key":"08416006","name":"Bodelshausen","type":"Kreisangehörige_Gemeinde"},"district":{"key":"08416","name":"Tübingen","type":"Landkreis"},"federalState":{"key":"08","name":"Baden-Württemberg"}},{"name":"Seewiesenweg","postalCode":"72411","locality":"Bodelshausen","municipality":{"key":"08416006","name":"Bodelshausen","type":"Kreisangehörige_Gemeinde"},"district":{"key":"08416","name":"Tübingen","type":"Landkreis"},"federalState":{"key":"08","name":"Baden-Württemberg"}},{"name":"Sickinger Str.","postalCode":"72411","locality":"Bodelshausen","municipality":{"key":"08416006","name":"Bodelshausen","type":"Kreisangehörige_Gemeinde"},"district":{"key":"08416","name":"Tübingen","type":"Landkreis"},"federalState":{"key":"08","name":"Baden-Württemberg"}},{"name":"Silcherstr.","postalCode":"72411","locality":"Bodelshausen","municipality":{"key":"08416006","name":"Bodelshausen","type":"Kreisangehörige_Gemeinde"},"district":{"key":"08416","name":"Tübingen","type":"Landkreis"},"federalState":{"key":"08","name":"Baden-Württemberg"}},{"name":"Starenweg","postalCode":"72411","locality":"Bodelshausen","municipality":{"key":"08416006","name":"Bodelshausen","type":"Kreisangehörige_Gemeinde"},"district":{"key":"08416","name":"Tübingen","type":"Landkreis"},"federalState":{"key":"08","name":"Baden-Württemberg"}},{"name":"Staufenstr.","postalCode":"72411","locality":"Bodelshausen","municipality":{"key":"08416006","name":"Bodelshausen","type":"Kreisangehörige_Gemeinde"},"district":{"key":"08416","name":"Tübingen","type":"Landkreis"},"federalState":{"key":"08","name":"Baden-Württemberg"}},{"name":"Steigstr.","postalCode":"72411","locality":"Bodelshausen","municipality":{"key":"08416006","name":"Bodelshausen","type":"Kreisangehörige_Gemeinde"},"district":{"key":"08416","name":"Tübingen","type":"Landkreis"},"federalState":{"key":"08","name":"Baden-Württemberg"}},{"name":"Steinstr.","postalCode":"72411","locality":"Bodelshausen","municipality":{"key":"08416006","name":"Bodelshausen","type":"Kreisangehörige_Gemeinde"},"district":{"key":"08416","name":"Tübingen","type":"Landkreis"},"federalState":{"key":"08","name":"Baden-Württemberg"}},{"name":"Stettiner Str.","postalCode":"72411","locality":"Bodelshausen","municipality":{"key":"08416006","name":"Bodelshausen","type":"Kreisangehörige_Gemeinde"},"district":{"key":"08416","name":"Tübingen","type":"Landkreis"},"federalState":{"key":"08","name":"Baden-Württemberg"}},{"name":"Stichstr.","postalCode":"72411","locality":"Bodelshausen","municipality":{"key":"08416006","name":"Bodelshausen","type":"Kreisangehörige_Gemeinde"},"district":{"key":"08416","name":"Tübingen","type":"Landkreis"},"federalState":{"key":"08","name":"Baden-Württemberg"}},{"name":"Stockerweg","postalCode":"72411","locality":"Bodelshausen","municipality":{"key":"08416006","name":"Bodelshausen","type":"Kreisangehörige_Gemeinde"},"district":{"key":"08416","name":"Tübingen","type":"Landkreis"},"federalState":{"key":"08","name":"Baden-Württemberg"}},{"name":"Teckstr.","postalCode":"72411","locality":"Bodelshausen","municipality":{"key":"08416006","name":"Bodelshausen","type":"Kreisangehörige_Gemeinde"},"district":{"key":"08416","name":"Tübingen","type":"Landkreis"},"federalState":{"key":"08","name":"Baden-Württemberg"}},{"name":"Trayhstr.","postalCode":"72411","locality":"Bodelshausen","municipality":{"key":"08416006","name":"Bodelshausen","type":"Kreisangehörige_Gemeinde"},"district":{"key":"08416","name":"Tübingen","type":"Landkreis"},"federalState":{"key":"08","name":"Baden-Württemberg"}},{"name":"Tübinger Str.","postalCode":"72411","locality":"Bodelshausen","municipality":{"key":"08416006","name":"Bodelshausen","type":"Kreisangehörige_Gemeinde"},"district":{"key":"08416","name":"Tübingen","type":"Landkreis"},"federalState":{"key":"08","name":"Baden-Württemberg"}},{"name":"Tulpenstr.","postalCode":"72411","locality":"Bodelshausen","municipality":{"key":"08416006","name":"Bodelshausen","type":"Kreisangehörige_Gemeinde"},"district":{"key":"08416","name":"Tübingen","type":"Landkreis"},"federalState":{"key":"08","name":"Baden-Württemberg"}},{"name":"Uhlandstr.","postalCode":"72411","locality":"Bodelshausen","municipality":{"key":"08416006","name":"Bodelshausen","type":"Kreisangehörige_Gemeinde"},"district":{"key":"08416","name":"Tübingen","type":"Landkreis"},"federalState":{"key":"08","name":"Baden-Württemberg"}},{"name":"Ulmenstr.","postalCode":"72411","locality":"Bodelshausen","municipality":{"key":"08416006","name":"Bodelshausen","type":"Kreisangehörige_Gemeinde"},"district":{"key":"08416","name":"Tübingen","type":"Landkreis"},"federalState":{"key":"08","name":"Baden-Württemberg"}},{"name":"Veilchenstr.","postalCode":"72411","locality":"Bodelshausen","municipality":{"key":"08416006","name":"Bodelshausen","type":"Kreisangehörige_Gemeinde"},"district":{"key":"08416","name":"Tübingen","type":"Landkreis"},"federalState":{"key":"08","name":"Baden-Württemberg"}},{"name":"Waldstr.","postalCode":"72411","locality":"Bodelshausen","municipality":{"key":"08416006","name":"Bodelshausen","type":"Kreisangehörige_Gemeinde"},"district":{"key":"08416","name":"Tübingen","type":"Landkreis"},"federalState":{"key":"08","name":"Baden-Württemberg"}},{"name":"Weiheräckerweg","postalCode":"72411","locality":"Bodelshausen","municipality":{"key":"08416006","name":"Bodelshausen","type":"Kreisangehörige_Gemeinde"},"district":{"key":"08416","name":"Tübingen","type":"Landkreis"},"federalState":{"key":"08","name":"Baden-Württemberg"}},{"name":"Weilerweg","postalCode":"72411","locality":"Bodelshausen","municipality":{"key":"08416006","name":"Bodelshausen","type":"Kreisangehörige_Gemeinde"},"district":{"key":"08416","name":"Tübingen","type":"Landkreis"},"federalState":{"key":"08","name":"Baden-Württemberg"}},{"name":"Weisengärtenstr.","postalCode":"72411","locality":"Bodelshausen","municipality":{"key":"08416006","name":"Bodelshausen","type":"Kreisangehörige_Gemeinde"},"district":{"key":"08416","name":"Tübingen","type":"Landkreis"},"federalState":{"key":"08","name":"Baden-Württemberg"}},{"name":"Zeppelinstr.","postalCode":"72411","locality":"Bodelshausen","municipality":{"key":"08416006","name":"Bodelshausen","type":"Kreisangehörige_Gemeinde"},"district":{"key":"08416","name":"Tübingen","type":"Landkreis"},"federalState":{"key":"08","name":"Baden-Württemberg"}},{"name":"Zimmerbachsträßchen","postalCode":"72411","locality":"Bodelshausen","municipality":{"key":"08416006","name":"Bodelshausen","type":"Kreisangehörige_Gemeinde"},"district":{"key":"08416","name":"Tübingen","type":"Landkreis"},"federalState":{"key":"08","name":"Baden-Württemberg"}},{"name":"Zollernstr.","postalCode":"72411","locality":"Bodelshausen","municipality":{"key":"08416006","name":"Bodelshausen","type":"Kreisangehörige_Gemeinde"},"district":{"key":"08416","name":"Tübingen","type":"Landkreis"},"federalState":{"key":"08","name":"Baden-Württemberg"}},{"name":"Öhler","postalCode":"72076","locality":"Tübingen","municipality":{"key":"08416041","name":"Tübingen, Universitätsstadt","type":"Große_Kreisstadt"},"district":{"key":"08416","name":"Tübingen","type":"Landkreis"},"federalState":{"key":"08","name":"Baden-Württemberg"}},{"name":"Öhlerweg","postalCode":"72076","locality":"Tübingen","municipality":{"key":"08416041","name":"Tübingen, Universitätsstadt","type":"Große_Kreisstadt"},"district":{"key":"08416","name":"Tübingen","type":"Landkreis"},"federalState":{"key":"08","name":"Baden-Württemberg"}},{"name":"Ökologische Abteilung","postalCode":"72076","locality":"Tübingen","municipality":{"key":"08416041","name":"Tübingen, Universitätsstadt","type":"Große_Kreisstadt"},"district":{"key":"08416","name":"Tübingen","type":"Landkreis"},"federalState":{"key":"08","name":"Baden-Württemberg"}},{"name":"Ölmühlenweg","postalCode":"72072","locality":"Tübingen","municipality":{"key":"08416041","name":"Tübingen, Universitätsstadt","type":"Große_Kreisstadt"},"district":{"key":"08416","name":"Tübingen","type":"Landkreis"},"federalState":{"key":"08","name":"Baden-Württemberg"}},{"name":"Österbergstr.","postalCode":"72074","locality":"Tübingen","municipality":{"key":"08416041","name":"Tübingen, Universitätsstadt","type":"Große_Kreisstadt"},"district":{"key":"08416","name":"Tübingen","type":"Landkreis"},"federalState":{"key":"08","name":"Baden-Württemberg"}},]