[{"key":"10172194","name":"Aletschpromenade","postalCode":"3987","locality":"Riederalp","commune":{"key":"6181","name":"Riederalp","shortName":"Riederalp"},"district":{"key":"2309","name":"Bezirk Raron"},"canton":{"key":"23","code":"VS","name":"Valais / Wallis"},"status":"Real"},{"key":"10256723","name":"Alpweg","postalCode":"3987","locality":"Riederalp","commune":{"key":"6181","name":"Riederalp","shortName":"Riederalp"},"district":{"key":"2309","name":"Bezirk Raron"},"canton":{"key":"23","code":"VS","name":"Valais / Wallis"},"status":"Real"},{"key":"10137582","name":"Bahnhofstrasse","postalCode":"3987","locality":"Riederalp","commune":{"key":"6181","name":"Riederalp","shortName":"Riederalp"},"district":{"key":"2309","name":"Bezirk Raron"},"canton":{"key":"23","code":"VS","name":"Valais / Wallis"},"status":"Real"},{"key":"10169588","name":"Briggerstrasse","postalCode":"3987","locality":"Riederalp","commune":{"key":"6181","name":"Riederalp","shortName":"Riederalp"},"district":{"key":"2309","name":"Bezirk Raron"},"canton":{"key":"23","code":"VS","name":"Valais / Wallis"},"status":"Real"},{"key":"10169587","name":"Chummastrasse","postalCode":"3987","locality":"Riederalp","commune":{"key":"6181","name":"Riederalp","shortName":"Riederalp"},"district":{"key":"2309","name":"Bezirk Raron"},"canton":{"key":"23","code":"VS","name":"Valais / Wallis"},"status":"Real"},{"key":"10164363","name":"Fleschstrasse","postalCode":"3987","locality":"Riederalp","commune":{"key":"6181","name":"Riederalp","shortName":"Riederalp"},"district":{"key":"2309","name":"Bezirk Raron"},"canton":{"key":"23","code":"VS","name":"Valais / Wallis"},"status":"Real"},{"key":"10169590","name":"Furrerstrasse","postalCode":"3987","locality":"Riederalp","commune":{"key":"6181","name":"Riederalp","shortName":"Riederalp"},"district":{"key":"2309","name":"Bezirk Raron"},"canton":{"key":"23","code":"VS","name":"Valais / Wallis"},"status":"Real"},{"key":"10169589","name":"Golfpromenade","postalCode":"3987","locality":"Riederalp","commune":{"key":"6181","name":"Riederalp","shortName":"Riederalp"},"district":{"key":"2309","name":"Bezirk Raron"},"canton":{"key":"23","code":"VS","name":"Valais / Wallis"},"status":"Real"},{"key":"10164362","name":"Golmenstrasse","postalCode":"3987","locality":"Riederalp","commune":{"key":"6181","name":"Riederalp","shortName":"Riederalp"},"district":{"key":"2309","name":"Bezirk Raron"},"canton":{"key":"23","code":"VS","name":"Valais / Wallis"},"status":"Real"},{"key":"10236591","name":"Gopplerlicka","postalCode":"3987","locality":"Riederalp","commune":{"key":"6181","name":"Riederalp","shortName":"Riederalp"},"district":{"key":"2309","name":"Bezirk Raron"},"canton":{"key":"23","code":"VS","name":"Valais / Wallis"},"status":"Real"},{"key":"10169591","name":"Liftweg","postalCode":"3987","locality":"Riederalp","commune":{"key":"6181","name":"Riederalp","shortName":"Riederalp"},"district":{"key":"2309","name":"Bezirk Raron"},"canton":{"key":"23","code":"VS","name":"Valais / Wallis"},"status":"Real"},{"key":"10173595","name":"MÃ¤rzenhof","postalCode":"3987","locality":"Riederalp","commune":{"key":"6181","name":"Riederalp","shortName":"Riederalp"},"district":{"key":"2309","name":"Bezirk Raron"},"canton":{"key":"23","code":"VS","name":"Valais / Wallis"},"status":"Real"},{"key":"10236599","name":"Mittle","postalCode":"3987","locality":"Riederalp","commune":{"key":"6181","name":"Riederalp","shortName":"Riederalp"},"district":{"key":"2309","name":"Bezirk Raron"},"canton":{"key":"23","code":"VS","name":"Valais / Wallis"},"status":"Real"},{"key":"10164751","name":"Oberer Schweibenweg","postalCode":"3987","locality":"Riederalp","commune":{"key":"6181","name":"Riederalp","shortName":"Riederalp"},"district":{"key":"2309","name":"Bezirk Raron"},"canton":{"key":"23","code":"VS","name":"Valais / Wallis"},"status":"Real"},{"key":"10163491","name":"Planier","postalCode":"3987","locality":"Riederalp","commune":{"key":"6181","name":"Riederalp","shortName":"Riederalp"},"district":{"key":"2309","name":"Bezirk Raron"},"canton":{"key":"23","code":"VS","name":"Valais / Wallis"},"status":"Real"},{"key":"10169593","name":"Planierweg","postalCode":"3987","locality":"Riederalp","commune":{"key":"6181","name":"Riederalp","shortName":"Riederalp"},"district":{"key":"2309","name":"Bezirk Raron"},"canton":{"key":"23","code":"VS","name":"Valais / Wallis"},"status":"Real"},{"key":"10170821","name":"Riederfurka","postalCode":"3987","locality":"Riederalp","commune":{"key":"6181","name":"Riederalp","shortName":"Riederalp"},"district":{"key":"2309","name":"Bezirk Raron"},"canton":{"key":"23","code":"VS","name":"Valais / Wallis"},"status":"Real"},{"key":"10168870","name":"Riederhornweg","postalCode":"3987","locality":"Riederalp","commune":{"key":"6181","name":"Riederalp","shortName":"Riederalp"},"district":{"key":"2309","name":"Bezirk Raron"},"canton":{"key":"23","code":"VS","name":"Valais / Wallis"},"status":"Real"},{"key":"10173608","name":"Schluochtstrasse","postalCode":"3987","locality":"Riederalp","commune":{"key":"6181","name":"Riederalp","shortName":"Riederalp"},"district":{"key":"2309","name":"Bezirk Raron"},"canton":{"key":"23","code":"VS","name":"Valais / Wallis"},"status":"Real"},{"key":"10152651","name":"Schwarz Grabo","postalCode":"3987","locality":"Riederalp","commune":{"key":"6181","name":"Riederalp","shortName":"Riederalp"},"district":{"key":"2309","name":"Bezirk Raron"},"canton":{"key":"23","code":"VS","name":"Valais / Wallis"},"status":"Real"},{"key":"10106124","name":"Sigrischtuschir","postalCode":"3987","locality":"Riederalp","commune":{"key":"6181","name":"Riederalp","shortName":"Riederalp"},"district":{"key":"2309","name":"Bezirk Raron"},"canton":{"key":"23","code":"VS","name":"Valais / Wallis"},"status":"Real"},{"key":"10164653","name":"Sportplatzweg","postalCode":"3987","locality":"Riederalp","commune":{"key":"6181","name":"Riederalp","shortName":"Riederalp"},"district":{"key":"2309","name":"Bezirk Raron"},"canton":{"key":"23","code":"VS","name":"Valais / Wallis"},"status":"Real"},{"key":"10236615","name":"Stigibodu","postalCode":"3987","locality":"Riederalp","commune":{"key":"6181","name":"Riederalp","shortName":"Riederalp"},"district":{"key":"2309","name":"Bezirk Raron"},"canton":{"key":"23","code":"VS","name":"Valais / Wallis"},"status":"Real"},{"key":"10258449","name":"Unescopromenade","postalCode":"3987","locality":"Riederalp","commune":{"key":"6181","name":"Riederalp","shortName":"Riederalp"},"district":{"key":"2309","name":"Bezirk Raron"},"canton":{"key":"23","code":"VS","name":"Valais / Wallis"},"status":"Real"},{"key":"10161112","name":"Unesco Promenade","postalCode":"3987","locality":"Riederalp","commune":{"key":"6181","name":"Riederalp","shortName":"Riederalp"},"district":{"key":"2309","name":"Bezirk Raron"},"canton":{"key":"23","code":"VS","name":"Valais / Wallis"},"status":"Real"},{"key":"10162158","name":"Wangweg","postalCode":"3987","locality":"Riederalp","commune":{"key":"6181","name":"Riederalp","shortName":"Riederalp"},"district":{"key":"2309","name":"Bezirk Raron"},"canton":{"key":"23","code":"VS","name":"Valais / Wallis"},"status":"Real"},{"key":"10164750","name":"Welligstafelweg","postalCode":"3987","locality":"Riederalp","commune":{"key":"6181","name":"Riederalp","shortName":"Riederalp"},"district":{"key":"2309","name":"Bezirk Raron"},"canton":{"key":"23","code":"VS","name":"Valais / Wallis"},"status":"Real"},]