[{"name":"464","postalCode":"83483","locality":"Bischofswiesen","municipality":{"key":"09172117","name":"Bischofswiesen","type":"Kreisangehörige_Gemeinde"},"district":{"key":"09172","name":"Berchtesgadener Land","type":"Landkreis"},"federalState":{"key":"09","name":"Bayern"}},{"name":"Ackerstr.","postalCode":"95233","locality":"Helmbrechts","municipality":{"key":"09475136","name":"Helmbrechts, St","type":"Stadt"},"district":{"key":"09475","name":"Hof","type":"Landkreis"},"federalState":{"key":"09","name":"Bayern"}},{"name":"Adolf-Haack-Str.","postalCode":"95233","locality":"Helmbrechts","municipality":{"key":"09475136","name":"Helmbrechts, St","type":"Stadt"},"district":{"key":"09475","name":"Hof","type":"Landkreis"},"federalState":{"key":"09","name":"Bayern"}},{"name":"Ahornberger Str.","postalCode":"95233","locality":"Helmbrechts","municipality":{"key":"09475136","name":"Helmbrechts, St","type":"Stadt"},"district":{"key":"09475","name":"Hof","type":"Landkreis"},"federalState":{"key":"09","name":"Bayern"}},{"name":"Ahorniser Str.","postalCode":"95233","locality":"Helmbrechts","municipality":{"key":"09475136","name":"Helmbrechts, St","type":"Stadt"},"district":{"key":"09475","name":"Hof","type":"Landkreis"},"federalState":{"key":"09","name":"Bayern"}},{"name":"Albert-Schweitzer-Str.","postalCode":"95233","locality":"Helmbrechts","municipality":{"key":"09475136","name":"Helmbrechts, St","type":"Stadt"},"district":{"key":"09475","name":"Hof","type":"Landkreis"},"federalState":{"key":"09","name":"Bayern"}},{"name":"Altenreuther Weg","postalCode":"95233","locality":"Helmbrechts","municipality":{"key":"09475136","name":"Helmbrechts, St","type":"Stadt"},"district":{"key":"09475","name":"Hof","type":"Landkreis"},"federalState":{"key":"09","name":"Bayern"}},{"name":"Alte Poststr.","postalCode":"95233","locality":"Helmbrechts","municipality":{"key":"09475136","name":"Helmbrechts, St","type":"Stadt"},"district":{"key":"09475","name":"Hof","type":"Landkreis"},"federalState":{"key":"09","name":"Bayern"}},{"name":"Alte Schmiede","postalCode":"95233","locality":"Helmbrechts","municipality":{"key":"09475136","name":"Helmbrechts, St","type":"Stadt"},"district":{"key":"09475","name":"Hof","type":"Landkreis"},"federalState":{"key":"09","name":"Bayern"}},{"name":"Am Altersheim","postalCode":"95233","locality":"Helmbrechts","municipality":{"key":"09475136","name":"Helmbrechts, St","type":"Stadt"},"district":{"key":"09475","name":"Hof","type":"Landkreis"},"federalState":{"key":"09","name":"Bayern"}},{"name":"Am Bachdamm","postalCode":"95233","locality":"Helmbrechts","municipality":{"key":"09475136","name":"Helmbrechts, St","type":"Stadt"},"district":{"key":"09475","name":"Hof","type":"Landkreis"},"federalState":{"key":"09","name":"Bayern"}},{"name":"Am Bärenacker","postalCode":"95233","locality":"Helmbrechts","municipality":{"key":"09475136","name":"Helmbrechts, St","type":"Stadt"},"district":{"key":"09475","name":"Hof","type":"Landkreis"},"federalState":{"key":"09","name":"Bayern"}},{"name":"Am Brücklasberg","postalCode":"95233","locality":"Helmbrechts","municipality":{"key":"09475136","name":"Helmbrechts, St","type":"Stadt"},"district":{"key":"09475","name":"Hof","type":"Landkreis"},"federalState":{"key":"09","name":"Bayern"}},{"name":"Am Dorfteich","postalCode":"95233","locality":"Helmbrechts","municipality":{"key":"09475136","name":"Helmbrechts, St","type":"Stadt"},"district":{"key":"09475","name":"Hof","type":"Landkreis"},"federalState":{"key":"09","name":"Bayern"}},{"name":"Am Hang","postalCode":"95233","locality":"Helmbrechts","municipality":{"key":"09475136","name":"Helmbrechts, St","type":"Stadt"},"district":{"key":"09475","name":"Hof","type":"Landkreis"},"federalState":{"key":"09","name":"Bayern"}},{"name":"Am Kirchspitz","postalCode":"95233","locality":"Helmbrechts","municipality":{"key":"09475136","name":"Helmbrechts, St","type":"Stadt"},"district":{"key":"09475","name":"Hof","type":"Landkreis"},"federalState":{"key":"09","name":"Bayern"}},{"name":"Am Langacker","postalCode":"95233","locality":"Helmbrechts","municipality":{"key":"09475136","name":"Helmbrechts, St","type":"Stadt"},"district":{"key":"09475","name":"Hof","type":"Landkreis"},"federalState":{"key":"09","name":"Bayern"}},{"name":"Am Mühlgrund","postalCode":"95233","locality":"Helmbrechts","municipality":{"key":"09475136","name":"Helmbrechts, St","type":"Stadt"},"district":{"key":"09475","name":"Hof","type":"Landkreis"},"federalState":{"key":"09","name":"Bayern"}},{"name":"Am Pfarrgrund","postalCode":"95233","locality":"Helmbrechts","municipality":{"key":"09475136","name":"Helmbrechts, St","type":"Stadt"},"district":{"key":"09475","name":"Hof","type":"Landkreis"},"federalState":{"key":"09","name":"Bayern"}},{"name":"Am Pfarrteich","postalCode":"95233","locality":"Helmbrechts","municipality":{"key":"09475136","name":"Helmbrechts, St","type":"Stadt"},"district":{"key":"09475","name":"Hof","type":"Landkreis"},"federalState":{"key":"09","name":"Bayern"}},{"name":"Am Reussenberg","postalCode":"95233","locality":"Helmbrechts","municipality":{"key":"09475136","name":"Helmbrechts, St","type":"Stadt"},"district":{"key":"09475","name":"Hof","type":"Landkreis"},"federalState":{"key":"09","name":"Bayern"}},{"name":"Am Spitzacker","postalCode":"95233","locality":"Helmbrechts","municipality":{"key":"09475136","name":"Helmbrechts, St","type":"Stadt"},"district":{"key":"09475","name":"Hof","type":"Landkreis"},"federalState":{"key":"09","name":"Bayern"}},{"name":"Am Steinhäusergarten","postalCode":"95233","locality":"Helmbrechts","municipality":{"key":"09475136","name":"Helmbrechts, St","type":"Stadt"},"district":{"key":"09475","name":"Hof","type":"Landkreis"},"federalState":{"key":"09","name":"Bayern"}},{"name":"Am Volkspark","postalCode":"95233","locality":"Helmbrechts","municipality":{"key":"09475136","name":"Helmbrechts, St","type":"Stadt"},"district":{"key":"09475","name":"Hof","type":"Landkreis"},"federalState":{"key":"09","name":"Bayern"}},{"name":"Am Weiher","postalCode":"95233","locality":"Helmbrechts","municipality":{"key":"09475136","name":"Helmbrechts, St","type":"Stadt"},"district":{"key":"09475","name":"Hof","type":"Landkreis"},"federalState":{"key":"09","name":"Bayern"}},{"name":"An der Feuerwache","postalCode":"95233","locality":"Helmbrechts","municipality":{"key":"09475136","name":"Helmbrechts, St","type":"Stadt"},"district":{"key":"09475","name":"Hof","type":"Landkreis"},"federalState":{"key":"09","name":"Bayern"}},{"name":"An der Pechhütte","postalCode":"95233","locality":"Helmbrechts","municipality":{"key":"09475136","name":"Helmbrechts, St","type":"Stadt"},"district":{"key":"09475","name":"Hof","type":"Landkreis"},"federalState":{"key":"09","name":"Bayern"}},{"name":"Artur-Höhn-Str.","postalCode":"95233","locality":"Helmbrechts","municipality":{"key":"09475136","name":"Helmbrechts, St","type":"Stadt"},"district":{"key":"09475","name":"Hof","type":"Landkreis"},"federalState":{"key":"09","name":"Bayern"}},{"name":"Asternweg","postalCode":"95233","locality":"Helmbrechts","municipality":{"key":"09475136","name":"Helmbrechts, St","type":"Stadt"},"district":{"key":"09475","name":"Hof","type":"Landkreis"},"federalState":{"key":"09","name":"Bayern"}},{"name":"August-Wagner-Str.","postalCode":"95233","locality":"Helmbrechts","municipality":{"key":"09475136","name":"Helmbrechts, St","type":"Stadt"},"district":{"key":"09475","name":"Hof","type":"Landkreis"},"federalState":{"key":"09","name":"Bayern"}},{"name":"Bacchusweg","postalCode":"95233","locality":"Helmbrechts","municipality":{"key":"09475136","name":"Helmbrechts, St","type":"Stadt"},"district":{"key":"09475","name":"Hof","type":"Landkreis"},"federalState":{"key":"09","name":"Bayern"}},{"name":"Bäckergasse","postalCode":"95233","locality":"Helmbrechts","municipality":{"key":"09475136","name":"Helmbrechts, St","type":"Stadt"},"district":{"key":"09475","name":"Hof","type":"Landkreis"},"federalState":{"key":"09","name":"Bayern"}},{"name":"Bahnhofstr.","postalCode":"95233","locality":"Helmbrechts","municipality":{"key":"09475136","name":"Helmbrechts, St","type":"Stadt"},"district":{"key":"09475","name":"Hof","type":"Landkreis"},"federalState":{"key":"09","name":"Bayern"}},{"name":"Baiergrüner Weg","postalCode":"95233","locality":"Helmbrechts","municipality":{"key":"09475136","name":"Helmbrechts, St","type":"Stadt"},"district":{"key":"09475","name":"Hof","type":"Landkreis"},"federalState":{"key":"09","name":"Bayern"}},{"name":"Bärenbrunn","postalCode":"95233","locality":"Helmbrechts","municipality":{"key":"09475136","name":"Helmbrechts, St","type":"Stadt"},"district":{"key":"09475","name":"Hof","type":"Landkreis"},"federalState":{"key":"09","name":"Bayern"}},{"name":"Bärenbühl","postalCode":"95233","locality":"Helmbrechts","municipality":{"key":"09475136","name":"Helmbrechts, St","type":"Stadt"},"district":{"key":"09475","name":"Hof","type":"Landkreis"},"federalState":{"key":"09","name":"Bayern"}},{"name":"Beethovenstr.","postalCode":"95233","locality":"Helmbrechts","municipality":{"key":"09475136","name":"Helmbrechts, St","type":"Stadt"},"district":{"key":"09475","name":"Hof","type":"Landkreis"},"federalState":{"key":"09","name":"Bayern"}},{"name":"Beim Ottenbach","postalCode":"95233","locality":"Helmbrechts","municipality":{"key":"09475136","name":"Helmbrechts, St","type":"Stadt"},"district":{"key":"09475","name":"Hof","type":"Landkreis"},"federalState":{"key":"09","name":"Bayern"}},{"name":"Bergstr.","postalCode":"95233","locality":"Helmbrechts","municipality":{"key":"09475136","name":"Helmbrechts, St","type":"Stadt"},"district":{"key":"09475","name":"Hof","type":"Landkreis"},"federalState":{"key":"09","name":"Bayern"}},{"name":"Birkenstr.","postalCode":"95233","locality":"Helmbrechts","municipality":{"key":"09475136","name":"Helmbrechts, St","type":"Stadt"},"district":{"key":"09475","name":"Hof","type":"Landkreis"},"federalState":{"key":"09","name":"Bayern"}},{"name":"Bismarckstr.","postalCode":"95233","locality":"Helmbrechts","municipality":{"key":"09475136","name":"Helmbrechts, St","type":"Stadt"},"district":{"key":"09475","name":"Hof","type":"Landkreis"},"federalState":{"key":"09","name":"Bayern"}},{"name":"Blücherstr.","postalCode":"95233","locality":"Helmbrechts","municipality":{"key":"09475136","name":"Helmbrechts, St","type":"Stadt"},"district":{"key":"09475","name":"Hof","type":"Landkreis"},"federalState":{"key":"09","name":"Bayern"}},{"name":"Blumenstr.","postalCode":"95233","locality":"Helmbrechts","municipality":{"key":"09475136","name":"Helmbrechts, St","type":"Stadt"},"district":{"key":"09475","name":"Hof","type":"Landkreis"},"federalState":{"key":"09","name":"Bayern"}},{"name":"Blütenweg","postalCode":"95233","locality":"Helmbrechts","municipality":{"key":"09475136","name":"Helmbrechts, St","type":"Stadt"},"district":{"key":"09475","name":"Hof","type":"Landkreis"},"federalState":{"key":"09","name":"Bayern"}},{"name":"Brückenstr.","postalCode":"95233","locality":"Helmbrechts","municipality":{"key":"09475136","name":"Helmbrechts, St","type":"Stadt"},"district":{"key":"09475","name":"Hof","type":"Landkreis"},"federalState":{"key":"09","name":"Bayern"}},{"name":"Brunhildstr.","postalCode":"95233","locality":"Helmbrechts","municipality":{"key":"09475136","name":"Helmbrechts, St","type":"Stadt"},"district":{"key":"09475","name":"Hof","type":"Landkreis"},"federalState":{"key":"09","name":"Bayern"}},{"name":"Brunnenweg","postalCode":"95233","locality":"Helmbrechts","municipality":{"key":"09475136","name":"Helmbrechts, St","type":"Stadt"},"district":{"key":"09475","name":"Hof","type":"Landkreis"},"federalState":{"key":"09","name":"Bayern"}},{"name":"Buchenstr.","postalCode":"95233","locality":"Helmbrechts","municipality":{"key":"09475136","name":"Helmbrechts, St","type":"Stadt"},"district":{"key":"09475","name":"Hof","type":"Landkreis"},"federalState":{"key":"09","name":"Bayern"}},{"name":"Buckenreuth","postalCode":"95233","locality":"Helmbrechts","municipality":{"key":"09475136","name":"Helmbrechts, St","type":"Stadt"},"district":{"key":"09475","name":"Hof","type":"Landkreis"},"federalState":{"key":"09","name":"Bayern"}},{"name":"Buckenreuther Weg","postalCode":"95233","locality":"Helmbrechts","municipality":{"key":"09475136","name":"Helmbrechts, St","type":"Stadt"},"district":{"key":"09475","name":"Hof","type":"Landkreis"},"federalState":{"key":"09","name":"Bayern"}},{"name":"Bürgerstr.","postalCode":"95233","locality":"Helmbrechts","municipality":{"key":"09475136","name":"Helmbrechts, St","type":"Stadt"},"district":{"key":"09475","name":"Hof","type":"Landkreis"},"federalState":{"key":"09","name":"Bayern"}},{"name":"Burgunderweg","postalCode":"95233","locality":"Helmbrechts","municipality":{"key":"09475136","name":"Helmbrechts, St","type":"Stadt"},"district":{"key":"09475","name":"Hof","type":"Landkreis"},"federalState":{"key":"09","name":"Bayern"}},{"name":"Carl-Benz-Str.","postalCode":"89284","locality":"Pfaffenhofen an der Roth","municipality":{"key":"09775143","name":"Pfaffenhofen a.d.Roth, M","type":"Markt"},"district":{"key":"09775","name":"Neu-Ulm","type":"Landkreis"},"federalState":{"key":"09","name":"Bayern"}},{"name":"Carl-Benz-Str.","postalCode":"95032","locality":"Hof","municipality":{"key":"09464000","name":"Hof","type":"Kreisfreie_Stadt"},"district":{"key":"09464","name":"Hof","type":"Kreisfreie_Stadt"},"federalState":{"key":"09","name":"Bayern"}},{"name":"Carl-Bosch-Str.","postalCode":"67117","locality":"Limburgerhof","municipality":{"key":"07338017","name":"Limburgerhof","type":"Kreisangehörige_Gemeinde"},"district":{"key":"07338","name":"Rhein-Pfalz-Kreis","type":"Landkreis"},"federalState":{"key":"07","name":"Rheinland-Pfalz"}},{"name":"Carl-Friedrich-Benz-Str.","postalCode":"34369","locality":"Hofgeismar","municipality":{"key":"06633013","name":"Hofgeismar, Stadt","type":"Stadt"},"district":{"key":"06633","name":"Kassel","type":"Landkreis"},"federalState":{"key":"06","name":"Hessen"}},{"name":"Carl-Lohse-Str.","postalCode":"01877","locality":"Bischofswerda","municipality":{"key":"14625040","name":"Bischofswerda, Stadt","type":"Stadt"},"district":{"key":"14625","name":"Bautzen","type":"Landkreis"},"federalState":{"key":"14","name":"Sachsen"}},{"name":"Carl-Maria-von-Weber-Platz","postalCode":"67574","locality":"Osthofen","municipality":{"key":"07331055","name":"Osthofen, Stadt","type":"Stadt"},"district":{"key":"07331","name":"Alzey-Worms","type":"Landkreis"},"federalState":{"key":"07","name":"Rheinland-Pfalz"}},{"name":"Carl-Maria-von-Weber-Str.","postalCode":"01877","locality":"Bischofswerda","municipality":{"key":"14625040","name":"Bischofswerda, Stadt","type":"Stadt"},"district":{"key":"14625","name":"Bautzen","type":"Landkreis"},"federalState":{"key":"14","name":"Sachsen"}},{"name":"Carlo-Mierendorff-Str.","postalCode":"67574","locality":"Osthofen","municipality":{"key":"07331055","name":"Osthofen, Stadt","type":"Stadt"},"district":{"key":"07331","name":"Alzey-Worms","type":"Landkreis"},"federalState":{"key":"07","name":"Rheinland-Pfalz"}},{"name":"Carl-Orff-Str.","postalCode":"95030","locality":"Hof","municipality":{"key":"09464000","name":"Hof","type":"Kreisfreie_Stadt"},"district":{"key":"09464","name":"Hof","type":"Kreisfreie_Stadt"},"federalState":{"key":"09","name":"Bayern"}},{"name":"Carl-Orff-Weg","postalCode":"86368","locality":"Gersthofen","municipality":{"key":"09772147","name":"Gersthofen, St","type":"Stadt"},"district":{"key":"09772","name":"Augsburg","type":"Landkreis"},"federalState":{"key":"09","name":"Bayern"}},{"name":"Carl-Reichert-Weg","postalCode":"97922","locality":"Lauda-Königshofen","municipality":{"key":"08128139","name":"Lauda-Königshofen, Stadt","type":"Stadt"},"district":{"key":"08128","name":"Main-Tauber-Kreis","type":"Landkreis"},"federalState":{"key":"08","name":"Baden-Württemberg"}},{"name":"Carl-Reiß-Str.","postalCode":"67141","locality":"Neuhofen","municipality":{"key":"07338020","name":"Neuhofen","type":"Kreisangehörige_Gemeinde"},"district":{"key":"07338","name":"Rhein-Pfalz-Kreis","type":"Landkreis"},"federalState":{"key":"07","name":"Rheinland-Pfalz"}},{"name":"Carlsdorfer Str.","postalCode":"34369","locality":"Hofgeismar","municipality":{"key":"06633013","name":"Hofgeismar, Stadt","type":"Stadt"},"district":{"key":"06633","name":"Kassel","type":"Landkreis"},"federalState":{"key":"06","name":"Hessen"}},{"name":"Carl-Ulrich-Str.","postalCode":"67574","locality":"Osthofen","municipality":{"key":"07331055","name":"Osthofen, Stadt","type":"Stadt"},"district":{"key":"07331","name":"Alzey-Worms","type":"Landkreis"},"federalState":{"key":"07","name":"Rheinland-Pfalz"}},{"name":"Carl-Zeiss-Str.","postalCode":"93142","locality":"Maxhütte-Haidhof","municipality":{"key":"09376141","name":"Maxhütte-Haidhof, St","type":"Stadt"},"district":{"key":"09376","name":"Schwandorf","type":"Landkreis"},"federalState":{"key":"09","name":"Bayern"}},{"name":"Carl-Zimmermann-Str.","postalCode":"67373","locality":"Dudenhofen","municipality":{"key":"07338007","name":"Dudenhofen","type":"Kreisangehörige_Gemeinde"},"district":{"key":"07338","name":"Rhein-Pfalz-Kreis","type":"Landkreis"},"federalState":{"key":"07","name":"Rheinland-Pfalz"}},{"name":"Carossa-Ring","postalCode":"94474","locality":"Vilshofen an der Donau","municipality":{"key":"09275154","name":"Vilshofen an der Donau, St","type":"Stadt"},"district":{"key":"09275","name":"Passau","type":"Landkreis"},"federalState":{"key":"09","name":"Bayern"}},{"name":"Carossastr.","postalCode":"94486","locality":"Osterhofen","municipality":{"key":"09271141","name":"Osterhofen, St","type":"Stadt"},"district":{"key":"09271","name":"Deggendorf","type":"Landkreis"},"federalState":{"key":"09","name":"Bayern"}},{"name":"Carostr.","postalCode":"67117","locality":"Limburgerhof","municipality":{"key":"07338017","name":"Limburgerhof","type":"Kreisangehörige_Gemeinde"},"district":{"key":"07338","name":"Rhein-Pfalz-Kreis","type":"Landkreis"},"federalState":{"key":"07","name":"Rheinland-Pfalz"}},{"name":"Caspar-Bühler-Str.","postalCode":"91572","locality":"Bechhofen","municipality":{"key":"09571115","name":"Bechhofen, M","type":"Markt"},"district":{"key":"09571","name":"Ansbach","type":"Landkreis"},"federalState":{"key":"09","name":"Bayern"}},{"name":"Casteller Str.","postalCode":"65719","locality":"Hofheim am Taunus","municipality":{"key":"06436007","name":"Hofheim am Taunus, Kreisstadt","type":"Stadt"},"district":{"key":"06436","name":"Main-Taunus-Kreis","type":"Landkreis"},"federalState":{"key":"06","name":"Hessen"}},{"name":"Casteller Str.","postalCode":"97346","locality":"Iphofen","municipality":{"key":"09675139","name":"Iphofen, St","type":"Stadt"},"district":{"key":"09675","name":"Kitzingen","type":"Landkreis"},"federalState":{"key":"09","name":"Bayern"}},{"name":"Castellstr.","postalCode":"88690","locality":"Uhldingen-Mühlhofen","municipality":{"key":"08435066","name":"Uhldingen-Mühlhofen","type":"Kreisangehörige_Gemeinde"},"district":{"key":"08435","name":"Bodenseekreis","type":"Landkreis"},"federalState":{"key":"08","name":"Baden-Württemberg"}},{"name":"Centgasse","postalCode":"97447","locality":"Gerolzhofen","municipality":{"key":"09678134","name":"Gerolzhofen, St","type":"Stadt"},"district":{"key":"09678","name":"Schweinfurt","type":"Landkreis"},"federalState":{"key":"09","name":"Bayern"}},{"name":"Chattenstr.","postalCode":"65719","locality":"Hofheim am Taunus","municipality":{"key":"06436007","name":"Hofheim am Taunus, Kreisstadt","type":"Stadt"},"district":{"key":"06436","name":"Main-Taunus-Kreis","type":"Landkreis"},"federalState":{"key":"06","name":"Hessen"}},{"name":"Chemnitzer Str.","postalCode":"17039","locality":"Blankenhof","municipality":{"key":"13071010","name":"Blankenhof","type":"Kreisangehörige_Gemeinde"},"district":{"key":"13071","name":"Mecklenburgische Seenplatte","type":"Landkreis"},"federalState":{"key":"13","name":"Mecklenburg-Vorpommern"}},{"name":"Chemnitzer Str.","postalCode":"65474","locality":"Bischofsheim","municipality":{"key":"06433002","name":"Bischofsheim","type":"Kreisangehörige_Gemeinde"},"district":{"key":"06433","name":"Groß-Gerau","type":"Landkreis"},"federalState":{"key":"06","name":"Hessen"}},{"name":"Chemnitzer Str.","postalCode":"86368","locality":"Gersthofen","municipality":{"key":"09772147","name":"Gersthofen, St","type":"Stadt"},"district":{"key":"09772","name":"Augsburg","type":"Landkreis"},"federalState":{"key":"09","name":"Bayern"}},{"name":"Chenover Str.","postalCode":"67117","locality":"Limburgerhof","municipality":{"key":"07338017","name":"Limburgerhof","type":"Kreisangehörige_Gemeinde"},"district":{"key":"07338","name":"Rhein-Pfalz-Kreis","type":"Landkreis"},"federalState":{"key":"07","name":"Rheinland-Pfalz"}},{"name":"Cheruskerstr.","postalCode":"65719","locality":"Hofheim am Taunus","municipality":{"key":"06436007","name":"Hofheim am Taunus, Kreisstadt","type":"Stadt"},"district":{"key":"06436","name":"Main-Taunus-Kreis","type":"Landkreis"},"federalState":{"key":"06","name":"Hessen"}},{"name":"Chiemgauer Str.","postalCode":"86368","locality":"Gersthofen","municipality":{"key":"09772147","name":"Gersthofen, St","type":"Stadt"},"district":{"key":"09772","name":"Augsburg","type":"Landkreis"},"federalState":{"key":"09","name":"Bayern"}},{"name":"Chinonplatz","postalCode":"65719","locality":"Hofheim am Taunus","municipality":{"key":"06436007","name":"Hofheim am Taunus, Kreisstadt","type":"Stadt"},"district":{"key":"06436","name":"Main-Taunus-Kreis","type":"Landkreis"},"federalState":{"key":"06","name":"Hessen"}},{"name":"Chorherrenäcker","postalCode":"78343","locality":"Gaienhofen","municipality":{"key":"08335025","name":"Gaienhofen","type":"Kreisangehörige_Gemeinde"},"district":{"key":"08335","name":"Konstanz","type":"Landkreis"},"federalState":{"key":"08","name":"Baden-Württemberg"}},{"name":"Christberg Weg","postalCode":"74924","locality":"Neckarbischofsheim","municipality":{"key":"08226055","name":"Neckarbischofsheim, Stadt","type":"Stadt"},"district":{"key":"08226","name":"Rhein-Neckar-Kreis","type":"Landkreis"},"federalState":{"key":"08","name":"Baden-Württemberg"}},{"name":"Christian-Fey-Weg","postalCode":"86825","locality":"Bad Wörishofen","municipality":{"key":"09778116","name":"Bad Wörishofen, St","type":"Stadt"},"district":{"key":"09778","name":"Unterallgäu","type":"Landkreis"},"federalState":{"key":"09","name":"Bayern"}},{"name":"Christian-Jorhan-Str.","postalCode":"84169","locality":"Altfraunhofen","municipality":{"key":"09274114","name":"Altfraunhofen","type":"Kreisangehörige_Gemeinde"},"district":{"key":"09274","name":"Landshut","type":"Landkreis"},"federalState":{"key":"09","name":"Bayern"}},{"name":"Christian-Keißler-Weg","postalCode":"95028","locality":"Hof","municipality":{"key":"09464000","name":"Hof","type":"Kreisfreie_Stadt"},"district":{"key":"09464","name":"Hof","type":"Kreisfreie_Stadt"},"federalState":{"key":"09","name":"Bayern"}},{"name":"Christian-Schwarz-Weg","postalCode":"95493","locality":"Bischofsgrün","municipality":{"key":"09472121","name":"Bischofsgrün","type":"Kreisangehörige_Gemeinde"},"district":{"key":"09472","name":"Bayreuth","type":"Landkreis"},"federalState":{"key":"09","name":"Bayern"}},{"name":"Christiansreuther Str.","postalCode":"95032","locality":"Hof","municipality":{"key":"09464000","name":"Hof","type":"Kreisfreie_Stadt"},"district":{"key":"09464","name":"Hof","type":"Kreisfreie_Stadt"},"federalState":{"key":"09","name":"Bayern"}},{"name":"Christlingengraben","postalCode":"74924","locality":"Neckarbischofsheim","municipality":{"key":"08226055","name":"Neckarbischofsheim, Stadt","type":"Stadt"},"district":{"key":"08226","name":"Rhein-Neckar-Kreis","type":"Landkreis"},"federalState":{"key":"08","name":"Baden-Württemberg"}},{"name":"Christof-Seidel-Weg","postalCode":"95493","locality":"Bischofsgrün","municipality":{"key":"09472121","name":"Bischofsgrün","type":"Kreisangehörige_Gemeinde"},"district":{"key":"09472","name":"Bayreuth","type":"Landkreis"},"federalState":{"key":"09","name":"Bayern"}},{"name":"Christoph-Kalb-Str.","postalCode":"36119","locality":"Neuhof","municipality":{"key":"06631018","name":"Neuhof","type":"Kreisangehörige_Gemeinde"},"district":{"key":"06631","name":"Fulda","type":"Landkreis"},"federalState":{"key":"06","name":"Hessen"}},{"name":"Christoph-Klauß-Str.","postalCode":"95028","locality":"Hof","municipality":{"key":"09464000","name":"Hof","type":"Kreisfreie_Stadt"},"district":{"key":"09464","name":"Hof","type":"Kreisfreie_Stadt"},"federalState":{"key":"09","name":"Bayern"}},{"name":"Christophorusweg","postalCode":"87448","locality":"Waltenhofen","municipality":{"key":"09780143","name":"Waltenhofen","type":"Kreisangehörige_Gemeinde"},"district":{"key":"09780","name":"Oberallgäu","type":"Landkreis"},"federalState":{"key":"09","name":"Bayern"}},{"name":"Christoph-Probst-Str.","postalCode":"85276","locality":"Pfaffenhofen an der Ilm","municipality":{"key":"09186143","name":"Pfaffenhofen a.d.Ilm, St","type":"Stadt"},"district":{"key":"09186","name":"Pfaffenhofen a.d.Ilm","type":"Landkreis"},"federalState":{"key":"09","name":"Bayern"}},{"name":"Cimbernstr.","postalCode":"65719","locality":"Hofheim am Taunus","municipality":{"key":"06436007","name":"Hofheim am Taunus, Kreisstadt","type":"Stadt"},"district":{"key":"06436","name":"Main-Taunus-Kreis","type":"Landkreis"},"federalState":{"key":"06","name":"Hessen"}},{"name":"Cladeweg","postalCode":"04683","locality":"Naunhof","municipality":{"key":"14729300","name":"Naunhof, Stadt","type":"Stadt"},"district":{"key":"14729","name":"Leipzig","type":"Landkreis"},"federalState":{"key":"14","name":"Sachsen"}},{"name":"Clara-Schumann-Str.","postalCode":"95030","locality":"Hof","municipality":{"key":"09464000","name":"Hof","type":"Kreisfreie_Stadt"},"district":{"key":"09464","name":"Hof","type":"Kreisfreie_Stadt"},"federalState":{"key":"09","name":"Bayern"}},{"name":"Clara-Zetkin-Str.","postalCode":"01877","locality":"Bischofswerda","municipality":{"key":"14625040","name":"Bischofswerda, Stadt","type":"Stadt"},"district":{"key":"14625","name":"Bautzen","type":"Landkreis"},"federalState":{"key":"14","name":"Sachsen"}},{"name":"Clausingstr.","postalCode":"97941","locality":"Tauberbischofsheim","municipality":{"key":"08128115","name":"Tauberbischofsheim, Stadt","type":"Stadt"},"district":{"key":"08128","name":"Main-Tauber-Kreis","type":"Landkreis"},"federalState":{"key":"08","name":"Baden-Württemberg"}},{"name":"Dahlienweg","postalCode":"95233","locality":"Helmbrechts","municipality":{"key":"09475136","name":"Helmbrechts, St","type":"Stadt"},"district":{"key":"09475","name":"Hof","type":"Landkreis"},"federalState":{"key":"09","name":"Bayern"}},{"name":"Damaschkestr.","postalCode":"95233","locality":"Helmbrechts","municipality":{"key":"09475136","name":"Helmbrechts, St","type":"Stadt"},"district":{"key":"09475","name":"Hof","type":"Landkreis"},"federalState":{"key":"09","name":"Bayern"}},{"name":"Dietrichstr.","postalCode":"95233","locality":"Helmbrechts","municipality":{"key":"09475136","name":"Helmbrechts, St","type":"Stadt"},"district":{"key":"09475","name":"Hof","type":"Landkreis"},"federalState":{"key":"09","name":"Bayern"}},{"name":"Doktor-Martin-Luther-Str.","postalCode":"95233","locality":"Helmbrechts","municipality":{"key":"09475136","name":"Helmbrechts, St","type":"Stadt"},"district":{"key":"09475","name":"Hof","type":"Landkreis"},"federalState":{"key":"09","name":"Bayern"}},{"name":"Dürrengrüner Weg","postalCode":"95233","locality":"Helmbrechts","municipality":{"key":"09475136","name":"Helmbrechts, St","type":"Stadt"},"district":{"key":"09475","name":"Hof","type":"Landkreis"},"federalState":{"key":"09","name":"Bayern"}},{"name":"Edlendorfer Steig","postalCode":"95233","locality":"Helmbrechts","municipality":{"key":"09475136","name":"Helmbrechts, St","type":"Stadt"},"district":{"key":"09475","name":"Hof","type":"Landkreis"},"federalState":{"key":"09","name":"Bayern"}},{"name":"Egerstr.","postalCode":"95233","locality":"Helmbrechts","municipality":{"key":"09475136","name":"Helmbrechts, St","type":"Stadt"},"district":{"key":"09475","name":"Hof","type":"Landkreis"},"federalState":{"key":"09","name":"Bayern"}},{"name":"Eichenstr.","postalCode":"95233","locality":"Helmbrechts","municipality":{"key":"09475136","name":"Helmbrechts, St","type":"Stadt"},"district":{"key":"09475","name":"Hof","type":"Landkreis"},"federalState":{"key":"09","name":"Bayern"}},{"name":"Einsteinstr.","postalCode":"95233","locality":"Helmbrechts","municipality":{"key":"09475136","name":"Helmbrechts, St","type":"Stadt"},"district":{"key":"09475","name":"Hof","type":"Landkreis"},"federalState":{"key":"09","name":"Bayern"}},{"name":"Enge Gasse","postalCode":"95233","locality":"Helmbrechts","municipality":{"key":"09475136","name":"Helmbrechts, St","type":"Stadt"},"district":{"key":"09475","name":"Hof","type":"Landkreis"},"federalState":{"key":"09","name":"Bayern"}},{"name":"Erbstr.","postalCode":"95233","locality":"Helmbrechts","municipality":{"key":"09475136","name":"Helmbrechts, St","type":"Stadt"},"district":{"key":"09475","name":"Hof","type":"Landkreis"},"federalState":{"key":"09","name":"Bayern"}},{"name":"Erlenweg","postalCode":"95233","locality":"Helmbrechts","municipality":{"key":"09475136","name":"Helmbrechts, St","type":"Stadt"},"district":{"key":"09475","name":"Hof","type":"Landkreis"},"federalState":{"key":"09","name":"Bayern"}},{"name":"Eschenweg","postalCode":"95233","locality":"Helmbrechts","municipality":{"key":"09475136","name":"Helmbrechts, St","type":"Stadt"},"district":{"key":"09475","name":"Hof","type":"Landkreis"},"federalState":{"key":"09","name":"Bayern"}},{"name":"Feldweg","postalCode":"95233","locality":"Helmbrechts","municipality":{"key":"09475136","name":"Helmbrechts, St","type":"Stadt"},"district":{"key":"09475","name":"Hof","type":"Landkreis"},"federalState":{"key":"09","name":"Bayern"}},{"name":"Finkenweg","postalCode":"95233","locality":"Helmbrechts","municipality":{"key":"09475136","name":"Helmbrechts, St","type":"Stadt"},"district":{"key":"09475","name":"Hof","type":"Landkreis"},"federalState":{"key":"09","name":"Bayern"}},{"name":"Fliederweg","postalCode":"95233","locality":"Helmbrechts","municipality":{"key":"09475136","name":"Helmbrechts, St","type":"Stadt"},"district":{"key":"09475","name":"Hof","type":"Landkreis"},"federalState":{"key":"09","name":"Bayern"}},{"name":"Fliegerweg","postalCode":"95233","locality":"Helmbrechts","municipality":{"key":"09475136","name":"Helmbrechts, St","type":"Stadt"},"district":{"key":"09475","name":"Hof","type":"Landkreis"},"federalState":{"key":"09","name":"Bayern"}},{"name":"Frankenstr.","postalCode":"95233","locality":"Helmbrechts","municipality":{"key":"09475136","name":"Helmbrechts, St","type":"Stadt"},"district":{"key":"09475","name":"Hof","type":"Landkreis"},"federalState":{"key":"09","name":"Bayern"}},{"name":"Frankenwaldstr.","postalCode":"95233","locality":"Helmbrechts","municipality":{"key":"09475136","name":"Helmbrechts, St","type":"Stadt"},"district":{"key":"09475","name":"Hof","type":"Landkreis"},"federalState":{"key":"09","name":"Bayern"}},{"name":"Friedhofstr.","postalCode":"95233","locality":"Helmbrechts","municipality":{"key":"09475136","name":"Helmbrechts, St","type":"Stadt"},"district":{"key":"09475","name":"Hof","type":"Landkreis"},"federalState":{"key":"09","name":"Bayern"}},{"name":"Friedrich-Ebert-Str.","postalCode":"95233","locality":"Helmbrechts","municipality":{"key":"09475136","name":"Helmbrechts, St","type":"Stadt"},"district":{"key":"09475","name":"Hof","type":"Landkreis"},"federalState":{"key":"09","name":"Bayern"}},{"name":"Friedrichstr.","postalCode":"95233","locality":"Helmbrechts","municipality":{"key":"09475136","name":"Helmbrechts, St","type":"Stadt"},"district":{"key":"09475","name":"Hof","type":"Landkreis"},"federalState":{"key":"09","name":"Bayern"}},{"name":"Friesenstr.","postalCode":"95233","locality":"Helmbrechts","municipality":{"key":"09475136","name":"Helmbrechts, St","type":"Stadt"},"district":{"key":"09475","name":"Hof","type":"Landkreis"},"federalState":{"key":"09","name":"Bayern"}},{"name":"Galgenberg","postalCode":"95233","locality":"Helmbrechts","municipality":{"key":"09475136","name":"Helmbrechts, St","type":"Stadt"},"district":{"key":"09475","name":"Hof","type":"Landkreis"},"federalState":{"key":"09","name":"Bayern"}},{"name":"Ganghoferstr.","postalCode":"95233","locality":"Helmbrechts","municipality":{"key":"09475136","name":"Helmbrechts, St","type":"Stadt"},"district":{"key":"09475","name":"Hof","type":"Landkreis"},"federalState":{"key":"09","name":"Bayern"}},{"name":"Garnweg","postalCode":"95233","locality":"Helmbrechts","municipality":{"key":"09475136","name":"Helmbrechts, St","type":"Stadt"},"district":{"key":"09475","name":"Hof","type":"Landkreis"},"federalState":{"key":"09","name":"Bayern"}},{"name":"Gartenstr.","postalCode":"95233","locality":"Helmbrechts","municipality":{"key":"09475136","name":"Helmbrechts, St","type":"Stadt"},"district":{"key":"09475","name":"Hof","type":"Landkreis"},"federalState":{"key":"09","name":"Bayern"}},{"name":"Gasweg","postalCode":"95233","locality":"Helmbrechts","municipality":{"key":"09475136","name":"Helmbrechts, St","type":"Stadt"},"district":{"key":"09475","name":"Hof","type":"Landkreis"},"federalState":{"key":"09","name":"Bayern"}},{"name":"Georg-Seidel-Str.","postalCode":"95233","locality":"Helmbrechts","municipality":{"key":"09475136","name":"Helmbrechts, St","type":"Stadt"},"district":{"key":"09475","name":"Hof","type":"Landkreis"},"federalState":{"key":"09","name":"Bayern"}},{"name":"Goethestr.","postalCode":"95233","locality":"Helmbrechts","municipality":{"key":"09475136","name":"Helmbrechts, St","type":"Stadt"},"district":{"key":"09475","name":"Hof","type":"Landkreis"},"federalState":{"key":"09","name":"Bayern"}},{"name":"Gottlieb-Lenz-Str.","postalCode":"95233","locality":"Helmbrechts","municipality":{"key":"09475136","name":"Helmbrechts, St","type":"Stadt"},"district":{"key":"09475","name":"Hof","type":"Landkreis"},"federalState":{"key":"09","name":"Bayern"}},{"name":"Grenzstr.","postalCode":"95233","locality":"Helmbrechts","municipality":{"key":"09475136","name":"Helmbrechts, St","type":"Stadt"},"district":{"key":"09475","name":"Hof","type":"Landkreis"},"federalState":{"key":"09","name":"Bayern"}},{"name":"Gudrunstr.","postalCode":"95233","locality":"Helmbrechts","municipality":{"key":"09475136","name":"Helmbrechts, St","type":"Stadt"},"district":{"key":"09475","name":"Hof","type":"Landkreis"},"federalState":{"key":"09","name":"Bayern"}},{"name":"Gunterstr.","postalCode":"95233","locality":"Helmbrechts","municipality":{"key":"09475136","name":"Helmbrechts, St","type":"Stadt"},"district":{"key":"09475","name":"Hof","type":"Landkreis"},"federalState":{"key":"09","name":"Bayern"}},{"name":"Günthersdorf","postalCode":"95233","locality":"Helmbrechts","municipality":{"key":"09475136","name":"Helmbrechts, St","type":"Stadt"},"district":{"key":"09475","name":"Hof","type":"Landkreis"},"federalState":{"key":"09","name":"Bayern"}},{"name":"Gustav-Weiß-Str.","postalCode":"95233","locality":"Helmbrechts","municipality":{"key":"09475136","name":"Helmbrechts, St","type":"Stadt"},"district":{"key":"09475","name":"Hof","type":"Landkreis"},"federalState":{"key":"09","name":"Bayern"}},{"name":"Gutedelstr.","postalCode":"95233","locality":"Helmbrechts","municipality":{"key":"09475136","name":"Helmbrechts, St","type":"Stadt"},"district":{"key":"09475","name":"Hof","type":"Landkreis"},"federalState":{"key":"09","name":"Bayern"}},{"name":"Gutedelweg","postalCode":"95233","locality":"Helmbrechts","municipality":{"key":"09475136","name":"Helmbrechts, St","type":"Stadt"},"district":{"key":"09475","name":"Hof","type":"Landkreis"},"federalState":{"key":"09","name":"Bayern"}},{"name":"Hadergasse","postalCode":"95233","locality":"Helmbrechts","municipality":{"key":"09475136","name":"Helmbrechts, St","type":"Stadt"},"district":{"key":"09475","name":"Hof","type":"Landkreis"},"federalState":{"key":"09","name":"Bayern"}},{"name":"Haide","postalCode":"95233","locality":"Helmbrechts","municipality":{"key":"09475136","name":"Helmbrechts, St","type":"Stadt"},"district":{"key":"09475","name":"Hof","type":"Landkreis"},"federalState":{"key":"09","name":"Bayern"}},{"name":"Haidengrüner Weg","postalCode":"95233","locality":"Helmbrechts","municipality":{"key":"09475136","name":"Helmbrechts, St","type":"Stadt"},"district":{"key":"09475","name":"Hof","type":"Landkreis"},"federalState":{"key":"09","name":"Bayern"}},{"name":"Heimeranstr.","postalCode":"95233","locality":"Helmbrechts","municipality":{"key":"09475136","name":"Helmbrechts, St","type":"Stadt"},"district":{"key":"09475","name":"Hof","type":"Landkreis"},"federalState":{"key":"09","name":"Bayern"}},{"name":"Hermann-Löns-Str.","postalCode":"95233","locality":"Helmbrechts","municipality":{"key":"09475136","name":"Helmbrechts, St","type":"Stadt"},"district":{"key":"09475","name":"Hof","type":"Landkreis"},"federalState":{"key":"09","name":"Bayern"}},{"name":"Hildebrandstr.","postalCode":"95233","locality":"Helmbrechts","municipality":{"key":"09475136","name":"Helmbrechts, St","type":"Stadt"},"district":{"key":"09475","name":"Hof","type":"Landkreis"},"federalState":{"key":"09","name":"Bayern"}},{"name":"Hirtenweg","postalCode":"95233","locality":"Helmbrechts","municipality":{"key":"09475136","name":"Helmbrechts, St","type":"Stadt"},"district":{"key":"09475","name":"Hof","type":"Landkreis"},"federalState":{"key":"09","name":"Bayern"}},{"name":"Hochstr.","postalCode":"95233","locality":"Helmbrechts","municipality":{"key":"09475136","name":"Helmbrechts, St","type":"Stadt"},"district":{"key":"09475","name":"Hof","type":"Landkreis"},"federalState":{"key":"09","name":"Bayern"}},{"name":"Hofer Str.","postalCode":"95233","locality":"Helmbrechts","municipality":{"key":"09475136","name":"Helmbrechts, St","type":"Stadt"},"district":{"key":"09475","name":"Hof","type":"Landkreis"},"federalState":{"key":"09","name":"Bayern"}},{"name":"Höhenweg","postalCode":"95233","locality":"Helmbrechts","municipality":{"key":"09475136","name":"Helmbrechts, St","type":"Stadt"},"district":{"key":"09475","name":"Hof","type":"Landkreis"},"federalState":{"key":"09","name":"Bayern"}},{"name":"Im Grünen","postalCode":"95233","locality":"Helmbrechts","municipality":{"key":"09475136","name":"Helmbrechts, St","type":"Stadt"},"district":{"key":"09475","name":"Hof","type":"Landkreis"},"federalState":{"key":"09","name":"Bayern"}},{"name":"Jägersteig","postalCode":"95233","locality":"Helmbrechts","municipality":{"key":"09475136","name":"Helmbrechts, St","type":"Stadt"},"district":{"key":"09475","name":"Hof","type":"Landkreis"},"federalState":{"key":"09","name":"Bayern"}},{"name":"Jahnstr.","postalCode":"95233","locality":"Helmbrechts","municipality":{"key":"09475136","name":"Helmbrechts, St","type":"Stadt"},"district":{"key":"09475","name":"Hof","type":"Landkreis"},"federalState":{"key":"09","name":"Bayern"}},{"name":"Jean-Paul-Str.","postalCode":"95233","locality":"Helmbrechts","municipality":{"key":"09475136","name":"Helmbrechts, St","type":"Stadt"},"district":{"key":"09475","name":"Hof","type":"Landkreis"},"federalState":{"key":"09","name":"Bayern"}},{"name":"Johann-Sebastian-Bach-Str.","postalCode":"95233","locality":"Helmbrechts","municipality":{"key":"09475136","name":"Helmbrechts, St","type":"Stadt"},"district":{"key":"09475","name":"Hof","type":"Landkreis"},"federalState":{"key":"09","name":"Bayern"}},{"name":"Josef-Witt-Str.","postalCode":"95233","locality":"Helmbrechts","municipality":{"key":"09475136","name":"Helmbrechts, St","type":"Stadt"},"district":{"key":"09475","name":"Hof","type":"Landkreis"},"federalState":{"key":"09","name":"Bayern"}},{"name":"Kantstr.","postalCode":"95233","locality":"Helmbrechts","municipality":{"key":"09475136","name":"Helmbrechts, St","type":"Stadt"},"district":{"key":"09475","name":"Hof","type":"Landkreis"},"federalState":{"key":"09","name":"Bayern"}},{"name":"Kapellenstr.","postalCode":"95233","locality":"Helmbrechts","municipality":{"key":"09475136","name":"Helmbrechts, St","type":"Stadt"},"district":{"key":"09475","name":"Hof","type":"Landkreis"},"federalState":{"key":"09","name":"Bayern"}},{"name":"Karlstr.","postalCode":"95233","locality":"Helmbrechts","municipality":{"key":"09475136","name":"Helmbrechts, St","type":"Stadt"},"district":{"key":"09475","name":"Hof","type":"Landkreis"},"federalState":{"key":"09","name":"Bayern"}},{"name":"Kelterring","postalCode":"95233","locality":"Helmbrechts","municipality":{"key":"09475136","name":"Helmbrechts, St","type":"Stadt"},"district":{"key":"09475","name":"Hof","type":"Landkreis"},"federalState":{"key":"09","name":"Bayern"}},{"name":"Kiefernweg","postalCode":"95233","locality":"Helmbrechts","municipality":{"key":"09475136","name":"Helmbrechts, St","type":"Stadt"},"district":{"key":"09475","name":"Hof","type":"Landkreis"},"federalState":{"key":"09","name":"Bayern"}},{"name":"Kirchberganlage","postalCode":"95233","locality":"Helmbrechts","municipality":{"key":"09475136","name":"Helmbrechts, St","type":"Stadt"},"district":{"key":"09475","name":"Hof","type":"Landkreis"},"federalState":{"key":"09","name":"Bayern"}},{"name":"Kirchbergweg","postalCode":"95233","locality":"Helmbrechts","municipality":{"key":"09475136","name":"Helmbrechts, St","type":"Stadt"},"district":{"key":"09475","name":"Hof","type":"Landkreis"},"federalState":{"key":"09","name":"Bayern"}},{"name":"Kirchplatz","postalCode":"95233","locality":"Helmbrechts","municipality":{"key":"09475136","name":"Helmbrechts, St","type":"Stadt"},"district":{"key":"09475","name":"Hof","type":"Landkreis"},"federalState":{"key":"09","name":"Bayern"}},{"name":"Kollerhammer Weg","postalCode":"95233","locality":"Helmbrechts","municipality":{"key":"09475136","name":"Helmbrechts, St","type":"Stadt"},"district":{"key":"09475","name":"Hof","type":"Landkreis"},"federalState":{"key":"09","name":"Bayern"}},{"name":"Koloniestr.","postalCode":"95233","locality":"Helmbrechts","municipality":{"key":"09475136","name":"Helmbrechts, St","type":"Stadt"},"district":{"key":"09475","name":"Hof","type":"Landkreis"},"federalState":{"key":"09","name":"Bayern"}},{"name":"Kriemhildstr.","postalCode":"95233","locality":"Helmbrechts","municipality":{"key":"09475136","name":"Helmbrechts, St","type":"Stadt"},"district":{"key":"09475","name":"Hof","type":"Landkreis"},"federalState":{"key":"09","name":"Bayern"}},{"name":"Krummer Acker","postalCode":"95233","locality":"Helmbrechts","municipality":{"key":"09475136","name":"Helmbrechts, St","type":"Stadt"},"district":{"key":"09475","name":"Hof","type":"Landkreis"},"federalState":{"key":"09","name":"Bayern"}},{"name":"Kulmbacher Str.","postalCode":"95233","locality":"Helmbrechts","municipality":{"key":"09475136","name":"Helmbrechts, St","type":"Stadt"},"district":{"key":"09475","name":"Hof","type":"Landkreis"},"federalState":{"key":"09","name":"Bayern"}},{"name":"Kurzer Weg","postalCode":"95233","locality":"Helmbrechts","municipality":{"key":"09475136","name":"Helmbrechts, St","type":"Stadt"},"district":{"key":"09475","name":"Hof","type":"Landkreis"},"federalState":{"key":"09","name":"Bayern"}},{"name":"Lämmerstr.","postalCode":"95233","locality":"Helmbrechts","municipality":{"key":"09475136","name":"Helmbrechts, St","type":"Stadt"},"district":{"key":"09475","name":"Hof","type":"Landkreis"},"federalState":{"key":"09","name":"Bayern"}},{"name":"Laubweg","postalCode":"95233","locality":"Helmbrechts","municipality":{"key":"09475136","name":"Helmbrechts, St","type":"Stadt"},"district":{"key":"09475","name":"Hof","type":"Landkreis"},"federalState":{"key":"09","name":"Bayern"}},{"name":"Lauferstr.","postalCode":"95233","locality":"Helmbrechts","municipality":{"key":"09475136","name":"Helmbrechts, St","type":"Stadt"},"district":{"key":"09475","name":"Hof","type":"Landkreis"},"federalState":{"key":"09","name":"Bayern"}},{"name":"Lehsten","postalCode":"95233","locality":"Helmbrechts","municipality":{"key":"09475136","name":"Helmbrechts, St","type":"Stadt"},"district":{"key":"09475","name":"Hof","type":"Landkreis"},"federalState":{"key":"09","name":"Bayern"}},{"name":"Lehstener Weg","postalCode":"95233","locality":"Helmbrechts","municipality":{"key":"09475136","name":"Helmbrechts, St","type":"Stadt"},"district":{"key":"09475","name":"Hof","type":"Landkreis"},"federalState":{"key":"09","name":"Bayern"}},{"name":"Lerchenweg","postalCode":"95233","locality":"Helmbrechts","municipality":{"key":"09475136","name":"Helmbrechts, St","type":"Stadt"},"district":{"key":"09475","name":"Hof","type":"Landkreis"},"federalState":{"key":"09","name":"Bayern"}},{"name":"Lessingstr.","postalCode":"95233","locality":"Helmbrechts","municipality":{"key":"09475136","name":"Helmbrechts, St","type":"Stadt"},"district":{"key":"09475","name":"Hof","type":"Landkreis"},"federalState":{"key":"09","name":"Bayern"}},{"name":"Lilienweg","postalCode":"95233","locality":"Helmbrechts","municipality":{"key":"09475136","name":"Helmbrechts, St","type":"Stadt"},"district":{"key":"09475","name":"Hof","type":"Landkreis"},"federalState":{"key":"09","name":"Bayern"}},{"name":"Lindenstr.","postalCode":"95233","locality":"Helmbrechts","municipality":{"key":"09475136","name":"Helmbrechts, St","type":"Stadt"},"district":{"key":"09475","name":"Hof","type":"Landkreis"},"federalState":{"key":"09","name":"Bayern"}},{"name":"Lohstr.","postalCode":"95233","locality":"Helmbrechts","municipality":{"key":"09475136","name":"Helmbrechts, St","type":"Stadt"},"district":{"key":"09475","name":"Hof","type":"Landkreis"},"federalState":{"key":"09","name":"Bayern"}},{"name":"Ludwig-Benker-Str.","postalCode":"95233","locality":"Helmbrechts","municipality":{"key":"09475136","name":"Helmbrechts, St","type":"Stadt"},"district":{"key":"09475","name":"Hof","type":"Landkreis"},"federalState":{"key":"09","name":"Bayern"}},{"name":"Ludwig-Thoma-Str.","postalCode":"95233","locality":"Helmbrechts","municipality":{"key":"09475136","name":"Helmbrechts, St","type":"Stadt"},"district":{"key":"09475","name":"Hof","type":"Landkreis"},"federalState":{"key":"09","name":"Bayern"}},{"name":"Luitpoldstr.","postalCode":"95233","locality":"Helmbrechts","municipality":{"key":"09475136","name":"Helmbrechts, St","type":"Stadt"},"district":{"key":"09475","name":"Hof","type":"Landkreis"},"federalState":{"key":"09","name":"Bayern"}},{"name":"Manfred-Wirth-Weg","postalCode":"95233","locality":"Helmbrechts","municipality":{"key":"09475136","name":"Helmbrechts, St","type":"Stadt"},"district":{"key":"09475","name":"Hof","type":"Landkreis"},"federalState":{"key":"09","name":"Bayern"}},{"name":"Max-Planck-Str.","postalCode":"95233","locality":"Helmbrechts","municipality":{"key":"09475136","name":"Helmbrechts, St","type":"Stadt"},"district":{"key":"09475","name":"Hof","type":"Landkreis"},"federalState":{"key":"09","name":"Bayern"}},{"name":"Max-Reger-Str.","postalCode":"95233","locality":"Helmbrechts","municipality":{"key":"09475136","name":"Helmbrechts, St","type":"Stadt"},"district":{"key":"09475","name":"Hof","type":"Landkreis"},"federalState":{"key":"09","name":"Bayern"}},{"name":"Maxreuther Weg","postalCode":"95233","locality":"Helmbrechts","municipality":{"key":"09475136","name":"Helmbrechts, St","type":"Stadt"},"district":{"key":"09475","name":"Hof","type":"Landkreis"},"federalState":{"key":"09","name":"Bayern"}},{"name":"Meisenweg","postalCode":"95233","locality":"Helmbrechts","municipality":{"key":"09475136","name":"Helmbrechts, St","type":"Stadt"},"district":{"key":"09475","name":"Hof","type":"Landkreis"},"federalState":{"key":"09","name":"Bayern"}},{"name":"Melchior-Feuerlein-Str.","postalCode":"95233","locality":"Helmbrechts","municipality":{"key":"09475136","name":"Helmbrechts, St","type":"Stadt"},"district":{"key":"09475","name":"Hof","type":"Landkreis"},"federalState":{"key":"09","name":"Bayern"}},{"name":"Milchweg","postalCode":"95233","locality":"Helmbrechts","municipality":{"key":"09475136","name":"Helmbrechts, St","type":"Stadt"},"district":{"key":"09475","name":"Hof","type":"Landkreis"},"federalState":{"key":"09","name":"Bayern"}},{"name":"Mittelweg","postalCode":"95233","locality":"Helmbrechts","municipality":{"key":"09475136","name":"Helmbrechts, St","type":"Stadt"},"district":{"key":"09475","name":"Hof","type":"Landkreis"},"federalState":{"key":"09","name":"Bayern"}},{"name":"Moltkestr.","postalCode":"95233","locality":"Helmbrechts","municipality":{"key":"09475136","name":"Helmbrechts, St","type":"Stadt"},"district":{"key":"09475","name":"Hof","type":"Landkreis"},"federalState":{"key":"09","name":"Bayern"}},{"name":"Moselweg","postalCode":"95233","locality":"Helmbrechts","municipality":{"key":"09475136","name":"Helmbrechts, St","type":"Stadt"},"district":{"key":"09475","name":"Hof","type":"Landkreis"},"federalState":{"key":"09","name":"Bayern"}},{"name":"Mühlenweg","postalCode":"95233","locality":"Helmbrechts","municipality":{"key":"09475136","name":"Helmbrechts, St","type":"Stadt"},"district":{"key":"09475","name":"Hof","type":"Landkreis"},"federalState":{"key":"09","name":"Bayern"}},{"name":"Müller-Thurgau-Weg","postalCode":"95233","locality":"Helmbrechts","municipality":{"key":"09475136","name":"Helmbrechts, St","type":"Stadt"},"district":{"key":"09475","name":"Hof","type":"Landkreis"},"federalState":{"key":"09","name":"Bayern"}},{"name":"Münchberger Str.","postalCode":"95233","locality":"Helmbrechts","municipality":{"key":"09475136","name":"Helmbrechts, St","type":"Stadt"},"district":{"key":"09475","name":"Hof","type":"Landkreis"},"federalState":{"key":"09","name":"Bayern"}},{"name":"Muskatellerweg","postalCode":"95233","locality":"Helmbrechts","municipality":{"key":"09475136","name":"Helmbrechts, St","type":"Stadt"},"district":{"key":"09475","name":"Hof","type":"Landkreis"},"federalState":{"key":"09","name":"Bayern"}},{"name":"Neißeweg","postalCode":"95233","locality":"Helmbrechts","municipality":{"key":"09475136","name":"Helmbrechts, St","type":"Stadt"},"district":{"key":"09475","name":"Hof","type":"Landkreis"},"federalState":{"key":"09","name":"Bayern"}},{"name":"Nelkenweg","postalCode":"95233","locality":"Helmbrechts","municipality":{"key":"09475136","name":"Helmbrechts, St","type":"Stadt"},"district":{"key":"09475","name":"Hof","type":"Landkreis"},"federalState":{"key":"09","name":"Bayern"}},{"name":"Neubühl","postalCode":"95233","locality":"Helmbrechts","municipality":{"key":"09475136","name":"Helmbrechts, St","type":"Stadt"},"district":{"key":"09475","name":"Hof","type":"Landkreis"},"federalState":{"key":"09","name":"Bayern"}},{"name":"Nibelungenstr.","postalCode":"95233","locality":"Helmbrechts","municipality":{"key":"09475136","name":"Helmbrechts, St","type":"Stadt"},"district":{"key":"09475","name":"Hof","type":"Landkreis"},"federalState":{"key":"09","name":"Bayern"}},{"name":"Oberort","postalCode":"95233","locality":"Helmbrechts","municipality":{"key":"09475136","name":"Helmbrechts, St","type":"Stadt"},"district":{"key":"09475","name":"Hof","type":"Landkreis"},"federalState":{"key":"09","name":"Bayern"}},{"name":"Oderstr.","postalCode":"95233","locality":"Helmbrechts","municipality":{"key":"09475136","name":"Helmbrechts, St","type":"Stadt"},"district":{"key":"09475","name":"Hof","type":"Landkreis"},"federalState":{"key":"09","name":"Bayern"}},{"name":"Orter Ringweg","postalCode":"95233","locality":"Helmbrechts","municipality":{"key":"09475136","name":"Helmbrechts, St","type":"Stadt"},"district":{"key":"09475","name":"Hof","type":"Landkreis"},"federalState":{"key":"09","name":"Bayern"}},{"name":"Orter Str.","postalCode":"95233","locality":"Helmbrechts","municipality":{"key":"09475136","name":"Helmbrechts, St","type":"Stadt"},"district":{"key":"09475","name":"Hof","type":"Landkreis"},"federalState":{"key":"09","name":"Bayern"}},{"name":"Orter Winkel","postalCode":"95233","locality":"Helmbrechts","municipality":{"key":"09475136","name":"Helmbrechts, St","type":"Stadt"},"district":{"key":"09475","name":"Hof","type":"Landkreis"},"federalState":{"key":"09","name":"Bayern"}},{"name":"Oststr.","postalCode":"95233","locality":"Helmbrechts","municipality":{"key":"09475136","name":"Helmbrechts, St","type":"Stadt"},"district":{"key":"09475","name":"Hof","type":"Landkreis"},"federalState":{"key":"09","name":"Bayern"}},{"name":"Ottengrüner Heide","postalCode":"95233","locality":"Helmbrechts","municipality":{"key":"09475136","name":"Helmbrechts, St","type":"Stadt"},"district":{"key":"09475","name":"Hof","type":"Landkreis"},"federalState":{"key":"09","name":"Bayern"}},{"name":"Ottengrüner Str.","postalCode":"95233","locality":"Helmbrechts","municipality":{"key":"09475136","name":"Helmbrechts, St","type":"Stadt"},"district":{"key":"09475","name":"Hof","type":"Landkreis"},"federalState":{"key":"09","name":"Bayern"}},{"name":"Ottostr.","postalCode":"95233","locality":"Helmbrechts","municipality":{"key":"09475136","name":"Helmbrechts, St","type":"Stadt"},"district":{"key":"09475","name":"Hof","type":"Landkreis"},"federalState":{"key":"09","name":"Bayern"}},{"name":"Parkstr.","postalCode":"95233","locality":"Helmbrechts","municipality":{"key":"09475136","name":"Helmbrechts, St","type":"Stadt"},"district":{"key":"09475","name":"Hof","type":"Landkreis"},"federalState":{"key":"09","name":"Bayern"}},{"name":"Pfarrer-Pflaum-Str.","postalCode":"95233","locality":"Helmbrechts","municipality":{"key":"09475136","name":"Helmbrechts, St","type":"Stadt"},"district":{"key":"09475","name":"Hof","type":"Landkreis"},"federalState":{"key":"09","name":"Bayern"}},{"name":"Postweg","postalCode":"95233","locality":"Helmbrechts","municipality":{"key":"09475136","name":"Helmbrechts, St","type":"Stadt"},"district":{"key":"09475","name":"Hof","type":"Landkreis"},"federalState":{"key":"09","name":"Bayern"}},{"name":"Pressecker Str.","postalCode":"95233","locality":"Helmbrechts","municipality":{"key":"09475136","name":"Helmbrechts, St","type":"Stadt"},"district":{"key":"09475","name":"Hof","type":"Landkreis"},"federalState":{"key":"09","name":"Bayern"}},{"name":"Quäkerstr.","postalCode":"65719","locality":"Hofheim am Taunus","municipality":{"key":"06436007","name":"Hofheim am Taunus, Kreisstadt","type":"Stadt"},"district":{"key":"06436","name":"Main-Taunus-Kreis","type":"Landkreis"},"federalState":{"key":"06","name":"Hessen"}},{"name":"Queichstr.","postalCode":"67117","locality":"Limburgerhof","municipality":{"key":"07338017","name":"Limburgerhof","type":"Kreisangehörige_Gemeinde"},"district":{"key":"07338","name":"Rhein-Pfalz-Kreis","type":"Landkreis"},"federalState":{"key":"07","name":"Rheinland-Pfalz"}},{"name":"Quellengasse","postalCode":"85276","locality":"Pfaffenhofen an der Ilm","municipality":{"key":"09186143","name":"Pfaffenhofen a.d.Ilm, St","type":"Stadt"},"district":{"key":"09186","name":"Pfaffenhofen a.d.Ilm","type":"Landkreis"},"federalState":{"key":"09","name":"Bayern"}},{"name":"Quellenhangweg","postalCode":"74924","locality":"Neckarbischofsheim","municipality":{"key":"08226055","name":"Neckarbischofsheim, Stadt","type":"Stadt"},"district":{"key":"08226","name":"Rhein-Neckar-Kreis","type":"Landkreis"},"federalState":{"key":"08","name":"Baden-Württemberg"}},{"name":"Quellenstr.","postalCode":"86368","locality":"Gersthofen","municipality":{"key":"09772147","name":"Gersthofen, St","type":"Stadt"},"district":{"key":"09772","name":"Augsburg","type":"Landkreis"},"federalState":{"key":"09","name":"Bayern"}},{"name":"Quellenweg","postalCode":"51580","locality":"Reichshof","municipality":{"key":"05374040","name":"Reichshof","type":"Kreisangehörige_Gemeinde"},"district":{"key":"05374","name":"Oberbergischer Kreis","type":"Kreis"},"federalState":{"key":"05","name":"Nordrhein-Westfalen"}},{"name":"Quellenweg","postalCode":"65719","locality":"Hofheim am Taunus","municipality":{"key":"06436007","name":"Hofheim am Taunus, Kreisstadt","type":"Stadt"},"district":{"key":"06436","name":"Main-Taunus-Kreis","type":"Landkreis"},"federalState":{"key":"06","name":"Hessen"}},{"name":"Quellenweg","postalCode":"83483","locality":"Bischofswiesen","municipality":{"key":"09172117","name":"Bischofswiesen","type":"Kreisangehörige_Gemeinde"},"district":{"key":"09172","name":"Berchtesgadener Land","type":"Landkreis"},"federalState":{"key":"09","name":"Bayern"}},{"name":"Quellenweg","postalCode":"85570","locality":"Ottenhofen","municipality":{"key":"09177134","name":"Ottenhofen","type":"Kreisangehörige_Gemeinde"},"district":{"key":"09177","name":"Erding","type":"Landkreis"},"federalState":{"key":"09","name":"Bayern"}},{"name":"Quellenweg","postalCode":"86825","locality":"Bad Wörishofen","municipality":{"key":"09778116","name":"Bad Wörishofen, St","type":"Stadt"},"district":{"key":"09778","name":"Unterallgäu","type":"Landkreis"},"federalState":{"key":"09","name":"Bayern"}},{"name":"Quellenweg","postalCode":"94474","locality":"Vilshofen an der Donau","municipality":{"key":"09275154","name":"Vilshofen an der Donau, St","type":"Stadt"},"district":{"key":"09275","name":"Passau","type":"Landkreis"},"federalState":{"key":"09","name":"Bayern"}},{"name":"Quellgrund","postalCode":"33161","locality":"Hövelhof","municipality":{"key":"05774024","name":"Hövelhof, Sennegemeinde","type":"Kreisangehörige_Gemeinde"},"district":{"key":"05774","name":"Paderborn","type":"Kreis"},"federalState":{"key":"05","name":"Nordrhein-Westfalen"}},{"name":"Quellitzweg","postalCode":"95030","locality":"Hof","municipality":{"key":"09464000","name":"Hof","type":"Kreisfreie_Stadt"},"district":{"key":"09464","name":"Hof","type":"Kreisfreie_Stadt"},"federalState":{"key":"09","name":"Bayern"}},{"name":"Querfloßweg","postalCode":"97653","locality":"Bischofsheim i.d.Rhön","municipality":{"key":"09673117","name":"Bischofsheim i.d.Rhön, St","type":"Stadt"},"district":{"key":"09673","name":"Rhön-Grabfeld","type":"Landkreis"},"federalState":{"key":"09","name":"Bayern"}},{"name":"Quergäßchen","postalCode":"86368","locality":"Gersthofen","municipality":{"key":"09772147","name":"Gersthofen, St","type":"Stadt"},"district":{"key":"09772","name":"Augsburg","type":"Landkreis"},"federalState":{"key":"09","name":"Bayern"}},{"name":"Quergasse","postalCode":"74397","locality":"Pfaffenhofen","municipality":{"key":"08125081","name":"Pfaffenhofen","type":"Kreisangehörige_Gemeinde"},"district":{"key":"08125","name":"Heilbronn","type":"Landkreis"},"federalState":{"key":"08","name":"Baden-Württemberg"}},{"name":"Querschoppen","postalCode":"34369","locality":"Hofgeismar","municipality":{"key":"06633013","name":"Hofgeismar, Stadt","type":"Stadt"},"district":{"key":"06633","name":"Kassel","type":"Landkreis"},"federalState":{"key":"06","name":"Hessen"}},{"name":"Querstr.","postalCode":"04683","locality":"Naunhof","municipality":{"key":"14729300","name":"Naunhof, Stadt","type":"Stadt"},"district":{"key":"14729","name":"Leipzig","type":"Landkreis"},"federalState":{"key":"14","name":"Sachsen"}},{"name":"Querstr.","postalCode":"36119","locality":"Neuhof","municipality":{"key":"06631018","name":"Neuhof","type":"Kreisangehörige_Gemeinde"},"district":{"key":"06631","name":"Fulda","type":"Landkreis"},"federalState":{"key":"06","name":"Hessen"}},{"name":"Querstr.","postalCode":"51580","locality":"Reichshof","municipality":{"key":"05374040","name":"Reichshof","type":"Kreisangehörige_Gemeinde"},"district":{"key":"05374","name":"Oberbergischer Kreis","type":"Kreis"},"federalState":{"key":"05","name":"Nordrhein-Westfalen"}},{"name":"Quertrift","postalCode":"34369","locality":"Hofgeismar","municipality":{"key":"06633013","name":"Hofgeismar, Stadt","type":"Stadt"},"district":{"key":"06633","name":"Kassel","type":"Landkreis"},"federalState":{"key":"06","name":"Hessen"}},{"name":"Querweg","postalCode":"33161","locality":"Hövelhof","municipality":{"key":"05774024","name":"Hövelhof, Sennegemeinde","type":"Kreisangehörige_Gemeinde"},"district":{"key":"05774","name":"Paderborn","type":"Kreis"},"federalState":{"key":"05","name":"Nordrhein-Westfalen"}},{"name":"Querweg","postalCode":"51580","locality":"Reichshof","municipality":{"key":"05374040","name":"Reichshof","type":"Kreisangehörige_Gemeinde"},"district":{"key":"05374","name":"Oberbergischer Kreis","type":"Kreis"},"federalState":{"key":"05","name":"Nordrhein-Westfalen"}},{"name":"Querweg","postalCode":"88433","locality":"Schemmerhofen","municipality":{"key":"08426134","name":"Schemmerhofen","type":"Kreisangehörige_Gemeinde"},"district":{"key":"08426","name":"Biberach","type":"Landkreis"},"federalState":{"key":"08","name":"Baden-Württemberg"}},{"name":"Querweg","postalCode":"99887","locality":"Herrenhof","municipality":{"key":"16067036","name":"Herrenhof","type":"Kreisangehörige_Gemeinde"},"district":{"key":"16067","name":"Gotha","type":"Landkreis"},"federalState":{"key":"16","name":"Thüringen"}},{"name":"Quetschen","postalCode":"95030","locality":"Hof","municipality":{"key":"09464000","name":"Hof","type":"Kreisfreie_Stadt"},"district":{"key":"09464","name":"Hof","type":"Kreisfreie_Stadt"},"federalState":{"key":"09","name":"Bayern"}},{"name":"Quetschenweg","postalCode":"95030","locality":"Hof","municipality":{"key":"09464000","name":"Hof","type":"Kreisfreie_Stadt"},"district":{"key":"09464","name":"Hof","type":"Kreisfreie_Stadt"},"federalState":{"key":"09","name":"Bayern"}},{"name":"Quintana Str.","postalCode":"94474","locality":"Vilshofen an der Donau","municipality":{"key":"09275154","name":"Vilshofen an der Donau, St","type":"Stadt"},"district":{"key":"09275","name":"Passau","type":"Landkreis"},"federalState":{"key":"09","name":"Bayern"}},{"name":"Quirinistr.","postalCode":"94486","locality":"Osterhofen","municipality":{"key":"09271141","name":"Osterhofen, St","type":"Stadt"},"district":{"key":"09271","name":"Deggendorf","type":"Landkreis"},"federalState":{"key":"09","name":"Bayern"}},{"name":"Rappetenreuth","postalCode":"95233","locality":"Helmbrechts","municipality":{"key":"09475136","name":"Helmbrechts, St","type":"Stadt"},"district":{"key":"09475","name":"Hof","type":"Landkreis"},"federalState":{"key":"09","name":"Bayern"}},{"name":"Rathausberg","postalCode":"95233","locality":"Helmbrechts","municipality":{"key":"09475136","name":"Helmbrechts, St","type":"Stadt"},"district":{"key":"09475","name":"Hof","type":"Landkreis"},"federalState":{"key":"09","name":"Bayern"}},{"name":"Reuthweg","postalCode":"95233","locality":"Helmbrechts","municipality":{"key":"09475136","name":"Helmbrechts, St","type":"Stadt"},"district":{"key":"09475","name":"Hof","type":"Landkreis"},"federalState":{"key":"09","name":"Bayern"}},{"name":"Richard-Wagner-Str.","postalCode":"95233","locality":"Helmbrechts","municipality":{"key":"09475136","name":"Helmbrechts, St","type":"Stadt"},"district":{"key":"09475","name":"Hof","type":"Landkreis"},"federalState":{"key":"09","name":"Bayern"}},{"name":"Rieslingweg","postalCode":"95233","locality":"Helmbrechts","municipality":{"key":"09475136","name":"Helmbrechts, St","type":"Stadt"},"district":{"key":"09475","name":"Hof","type":"Landkreis"},"federalState":{"key":"09","name":"Bayern"}},{"name":"Ringstr.","postalCode":"95233","locality":"Helmbrechts","municipality":{"key":"09475136","name":"Helmbrechts, St","type":"Stadt"},"district":{"key":"09475","name":"Hof","type":"Landkreis"},"federalState":{"key":"09","name":"Bayern"}},{"name":"Robert-Koch-Str.","postalCode":"95233","locality":"Helmbrechts","municipality":{"key":"09475136","name":"Helmbrechts, St","type":"Stadt"},"district":{"key":"09475","name":"Hof","type":"Landkreis"},"federalState":{"key":"09","name":"Bayern"}},{"name":"Röntgenstr.","postalCode":"95233","locality":"Helmbrechts","municipality":{"key":"09475136","name":"Helmbrechts, St","type":"Stadt"},"district":{"key":"09475","name":"Hof","type":"Landkreis"},"federalState":{"key":"09","name":"Bayern"}},{"name":"Rosenweg","postalCode":"95233","locality":"Helmbrechts","municipality":{"key":"09475136","name":"Helmbrechts, St","type":"Stadt"},"district":{"key":"09475","name":"Hof","type":"Landkreis"},"federalState":{"key":"09","name":"Bayern"}},{"name":"Rüdigerstr.","postalCode":"95233","locality":"Helmbrechts","municipality":{"key":"09475136","name":"Helmbrechts, St","type":"Stadt"},"district":{"key":"09475","name":"Hof","type":"Landkreis"},"federalState":{"key":"09","name":"Bayern"}},{"name":"Ruländerweg","postalCode":"95233","locality":"Helmbrechts","municipality":{"key":"09475136","name":"Helmbrechts, St","type":"Stadt"},"district":{"key":"09475","name":"Hof","type":"Landkreis"},"federalState":{"key":"09","name":"Bayern"}},{"name":"Rundweg","postalCode":"95233","locality":"Helmbrechts","municipality":{"key":"09475136","name":"Helmbrechts, St","type":"Stadt"},"district":{"key":"09475","name":"Hof","type":"Landkreis"},"federalState":{"key":"09","name":"Bayern"}},{"name":"Sandweg","postalCode":"95233","locality":"Helmbrechts","municipality":{"key":"09475136","name":"Helmbrechts, St","type":"Stadt"},"district":{"key":"09475","name":"Hof","type":"Landkreis"},"federalState":{"key":"09","name":"Bayern"}},{"name":"Schauensteiner Str.","postalCode":"95233","locality":"Helmbrechts","municipality":{"key":"09475136","name":"Helmbrechts, St","type":"Stadt"},"district":{"key":"09475","name":"Hof","type":"Landkreis"},"federalState":{"key":"09","name":"Bayern"}},{"name":"Scheibenweg","postalCode":"95233","locality":"Helmbrechts","municipality":{"key":"09475136","name":"Helmbrechts, St","type":"Stadt"},"district":{"key":"09475","name":"Hof","type":"Landkreis"},"federalState":{"key":"09","name":"Bayern"}},{"name":"Schillerstr.","postalCode":"95233","locality":"Helmbrechts","municipality":{"key":"09475136","name":"Helmbrechts, St","type":"Stadt"},"district":{"key":"09475","name":"Hof","type":"Landkreis"},"federalState":{"key":"09","name":"Bayern"}},{"name":"Schlachthofstr.","postalCode":"95233","locality":"Helmbrechts","municipality":{"key":"09475136","name":"Helmbrechts, St","type":"Stadt"},"district":{"key":"09475","name":"Hof","type":"Landkreis"},"federalState":{"key":"09","name":"Bayern"}},{"name":"Schmiedstr.","postalCode":"95233","locality":"Helmbrechts","municipality":{"key":"09475136","name":"Helmbrechts, St","type":"Stadt"},"district":{"key":"09475","name":"Hof","type":"Landkreis"},"federalState":{"key":"09","name":"Bayern"}},{"name":"Schulstr.","postalCode":"95233","locality":"Helmbrechts","municipality":{"key":"09475136","name":"Helmbrechts, St","type":"Stadt"},"district":{"key":"09475","name":"Hof","type":"Landkreis"},"federalState":{"key":"09","name":"Bayern"}},{"name":"Schützenstr.","postalCode":"95233","locality":"Helmbrechts","municipality":{"key":"09475136","name":"Helmbrechts, St","type":"Stadt"},"district":{"key":"09475","name":"Hof","type":"Landkreis"},"federalState":{"key":"09","name":"Bayern"}},{"name":"Schwarzenbacher Str.","postalCode":"95233","locality":"Helmbrechts","municipality":{"key":"09475136","name":"Helmbrechts, St","type":"Stadt"},"district":{"key":"09475","name":"Hof","type":"Landkreis"},"federalState":{"key":"09","name":"Bayern"}},{"name":"Selbitzweg","postalCode":"95233","locality":"Helmbrechts","municipality":{"key":"09475136","name":"Helmbrechts, St","type":"Stadt"},"district":{"key":"09475","name":"Hof","type":"Landkreis"},"federalState":{"key":"09","name":"Bayern"}},{"name":"Siedlungsweg","postalCode":"95233","locality":"Helmbrechts","municipality":{"key":"09475136","name":"Helmbrechts, St","type":"Stadt"},"district":{"key":"09475","name":"Hof","type":"Landkreis"},"federalState":{"key":"09","name":"Bayern"}},{"name":"Siegfriedstr.","postalCode":"95233","locality":"Helmbrechts","municipality":{"key":"09475136","name":"Helmbrechts, St","type":"Stadt"},"district":{"key":"09475","name":"Hof","type":"Landkreis"},"federalState":{"key":"09","name":"Bayern"}},{"name":"Silvanerstr.","postalCode":"95233","locality":"Helmbrechts","municipality":{"key":"09475136","name":"Helmbrechts, St","type":"Stadt"},"district":{"key":"09475","name":"Hof","type":"Landkreis"},"federalState":{"key":"09","name":"Bayern"}},{"name":"Sonnenleite","postalCode":"95233","locality":"Helmbrechts","municipality":{"key":"09475136","name":"Helmbrechts, St","type":"Stadt"},"district":{"key":"09475","name":"Hof","type":"Landkreis"},"federalState":{"key":"09","name":"Bayern"}},{"name":"Stadelbergweg","postalCode":"95233","locality":"Helmbrechts","municipality":{"key":"09475136","name":"Helmbrechts, St","type":"Stadt"},"district":{"key":"09475","name":"Hof","type":"Landkreis"},"federalState":{"key":"09","name":"Bayern"}},{"name":"Stadelmannweg","postalCode":"95233","locality":"Helmbrechts","municipality":{"key":"09475136","name":"Helmbrechts, St","type":"Stadt"},"district":{"key":"09475","name":"Hof","type":"Landkreis"},"federalState":{"key":"09","name":"Bayern"}},{"name":"Stecheraweg","postalCode":"95233","locality":"Helmbrechts","municipality":{"key":"09475136","name":"Helmbrechts, St","type":"Stadt"},"district":{"key":"09475","name":"Hof","type":"Landkreis"},"federalState":{"key":"09","name":"Bayern"}},{"name":"Steinachstr.","postalCode":"95233","locality":"Helmbrechts","municipality":{"key":"09475136","name":"Helmbrechts, St","type":"Stadt"},"district":{"key":"09475","name":"Hof","type":"Landkreis"},"federalState":{"key":"09","name":"Bayern"}},{"name":"Steinbühl","postalCode":"95233","locality":"Helmbrechts","municipality":{"key":"09475136","name":"Helmbrechts, St","type":"Stadt"},"district":{"key":"09475","name":"Hof","type":"Landkreis"},"federalState":{"key":"09","name":"Bayern"}},{"name":"Talstr.","postalCode":"95233","locality":"Helmbrechts","municipality":{"key":"09475136","name":"Helmbrechts, St","type":"Stadt"},"district":{"key":"09475","name":"Hof","type":"Landkreis"},"federalState":{"key":"09","name":"Bayern"}},{"name":"Tannenweg","postalCode":"95233","locality":"Helmbrechts","municipality":{"key":"09475136","name":"Helmbrechts, St","type":"Stadt"},"district":{"key":"09475","name":"Hof","type":"Landkreis"},"federalState":{"key":"09","name":"Bayern"}},{"name":"Theodor-Heuss-Str.","postalCode":"95233","locality":"Helmbrechts","municipality":{"key":"09475136","name":"Helmbrechts, St","type":"Stadt"},"district":{"key":"09475","name":"Hof","type":"Landkreis"},"federalState":{"key":"09","name":"Bayern"}},{"name":"Thomashölzlein","postalCode":"95233","locality":"Helmbrechts","municipality":{"key":"09475136","name":"Helmbrechts, St","type":"Stadt"},"district":{"key":"09475","name":"Hof","type":"Landkreis"},"federalState":{"key":"09","name":"Bayern"}},{"name":"Torfwiese","postalCode":"95233","locality":"Helmbrechts","municipality":{"key":"09475136","name":"Helmbrechts, St","type":"Stadt"},"district":{"key":"09475","name":"Hof","type":"Landkreis"},"federalState":{"key":"09","name":"Bayern"}},{"name":"Torgasse","postalCode":"95233","locality":"Helmbrechts","municipality":{"key":"09475136","name":"Helmbrechts, St","type":"Stadt"},"district":{"key":"09475","name":"Hof","type":"Landkreis"},"federalState":{"key":"09","name":"Bayern"}},{"name":"Traminerweg","postalCode":"95233","locality":"Helmbrechts","municipality":{"key":"09475136","name":"Helmbrechts, St","type":"Stadt"},"district":{"key":"09475","name":"Hof","type":"Landkreis"},"federalState":{"key":"09","name":"Bayern"}},{"name":"Trollingerweg","postalCode":"95233","locality":"Helmbrechts","municipality":{"key":"09475136","name":"Helmbrechts, St","type":"Stadt"},"district":{"key":"09475","name":"Hof","type":"Landkreis"},"federalState":{"key":"09","name":"Bayern"}},{"name":"Tulpenweg","postalCode":"95233","locality":"Helmbrechts","municipality":{"key":"09475136","name":"Helmbrechts, St","type":"Stadt"},"district":{"key":"09475","name":"Hof","type":"Landkreis"},"federalState":{"key":"09","name":"Bayern"}},{"name":"Turmsteig","postalCode":"95233","locality":"Helmbrechts","municipality":{"key":"09475136","name":"Helmbrechts, St","type":"Stadt"},"district":{"key":"09475","name":"Hof","type":"Landkreis"},"federalState":{"key":"09","name":"Bayern"}},{"name":"Ulmenstr.","postalCode":"95233","locality":"Helmbrechts","municipality":{"key":"09475136","name":"Helmbrechts, St","type":"Stadt"},"district":{"key":"09475","name":"Hof","type":"Landkreis"},"federalState":{"key":"09","name":"Bayern"}},{"name":"Unterer Bühl","postalCode":"95233","locality":"Helmbrechts","municipality":{"key":"09475136","name":"Helmbrechts, St","type":"Stadt"},"district":{"key":"09475","name":"Hof","type":"Landkreis"},"federalState":{"key":"09","name":"Bayern"}},{"name":"Untere Str.","postalCode":"95233","locality":"Helmbrechts","municipality":{"key":"09475136","name":"Helmbrechts, St","type":"Stadt"},"district":{"key":"09475","name":"Hof","type":"Landkreis"},"federalState":{"key":"09","name":"Bayern"}},{"name":"Unterm Flechtnersberg","postalCode":"95233","locality":"Helmbrechts","municipality":{"key":"09475136","name":"Helmbrechts, St","type":"Stadt"},"district":{"key":"09475","name":"Hof","type":"Landkreis"},"federalState":{"key":"09","name":"Bayern"}},{"name":"Unterm Hampelberg","postalCode":"95233","locality":"Helmbrechts","municipality":{"key":"09475136","name":"Helmbrechts, St","type":"Stadt"},"district":{"key":"09475","name":"Hof","type":"Landkreis"},"federalState":{"key":"09","name":"Bayern"}},{"name":"Unterweißenbach","postalCode":"95233","locality":"Helmbrechts","municipality":{"key":"09475136","name":"Helmbrechts, St","type":"Stadt"},"district":{"key":"09475","name":"Hof","type":"Landkreis"},"federalState":{"key":"09","name":"Bayern"}},{"name":"Volkerstr.","postalCode":"95233","locality":"Helmbrechts","municipality":{"key":"09475136","name":"Helmbrechts, St","type":"Stadt"},"district":{"key":"09475","name":"Hof","type":"Landkreis"},"federalState":{"key":"09","name":"Bayern"}},{"name":"Wagnersbühl","postalCode":"95233","locality":"Helmbrechts","municipality":{"key":"09475136","name":"Helmbrechts, St","type":"Stadt"},"district":{"key":"09475","name":"Hof","type":"Landkreis"},"federalState":{"key":"09","name":"Bayern"}},{"name":"Walberngrün","postalCode":"95233","locality":"Helmbrechts","municipality":{"key":"09475136","name":"Helmbrechts, St","type":"Stadt"},"district":{"key":"09475","name":"Hof","type":"Landkreis"},"federalState":{"key":"09","name":"Bayern"}},{"name":"Walberngrüner Str.","postalCode":"95233","locality":"Helmbrechts","municipality":{"key":"09475136","name":"Helmbrechts, St","type":"Stadt"},"district":{"key":"09475","name":"Hof","type":"Landkreis"},"federalState":{"key":"09","name":"Bayern"}},{"name":"Wäldleinweg","postalCode":"95233","locality":"Helmbrechts","municipality":{"key":"09475136","name":"Helmbrechts, St","type":"Stadt"},"district":{"key":"09475","name":"Hof","type":"Landkreis"},"federalState":{"key":"09","name":"Bayern"}},{"name":"Walter-Schlosser-Weg","postalCode":"95233","locality":"Helmbrechts","municipality":{"key":"09475136","name":"Helmbrechts, St","type":"Stadt"},"district":{"key":"09475","name":"Hof","type":"Landkreis"},"federalState":{"key":"09","name":"Bayern"}},{"name":"Webergasse","postalCode":"95233","locality":"Helmbrechts","municipality":{"key":"09475136","name":"Helmbrechts, St","type":"Stadt"},"district":{"key":"09475","name":"Hof","type":"Landkreis"},"federalState":{"key":"09","name":"Bayern"}},{"name":"Weichselweg","postalCode":"95233","locality":"Helmbrechts","municipality":{"key":"09475136","name":"Helmbrechts, St","type":"Stadt"},"district":{"key":"09475","name":"Hof","type":"Landkreis"},"federalState":{"key":"09","name":"Bayern"}},{"name":"Westendstr.","postalCode":"95233","locality":"Helmbrechts","municipality":{"key":"09475136","name":"Helmbrechts, St","type":"Stadt"},"district":{"key":"09475","name":"Hof","type":"Landkreis"},"federalState":{"key":"09","name":"Bayern"}},{"name":"Wiesenweg","postalCode":"95233","locality":"Helmbrechts","municipality":{"key":"09475136","name":"Helmbrechts, St","type":"Stadt"},"district":{"key":"09475","name":"Hof","type":"Landkreis"},"federalState":{"key":"09","name":"Bayern"}},{"name":"Winzerweg","postalCode":"95233","locality":"Helmbrechts","municipality":{"key":"09475136","name":"Helmbrechts, St","type":"Stadt"},"district":{"key":"09475","name":"Hof","type":"Landkreis"},"federalState":{"key":"09","name":"Bayern"}},{"name":"Xaver-Hafner-Brücke","postalCode":"94330","locality":"Aiterhofen","municipality":{"key":"09278113","name":"Aiterhofen","type":"Kreisangehörige_Gemeinde"},"district":{"key":"09278","name":"Straubing-Bogen","type":"Landkreis"},"federalState":{"key":"09","name":"Bayern"}},{"name":"Xaver-Hartl-Str.","postalCode":"82281","locality":"Egenhofen","municipality":{"key":"09179117","name":"Egenhofen","type":"Kreisangehörige_Gemeinde"},"district":{"key":"09179","name":"Fürstenfeldbruck","type":"Landkreis"},"federalState":{"key":"09","name":"Bayern"}},{"name":"Xaveristr.","postalCode":"85084","locality":"Reichertshofen","municipality":{"key":"09186147","name":"Reichertshofen, M","type":"Markt"},"district":{"key":"09186","name":"Pfaffenhofen a.d.Ilm","type":"Landkreis"},"federalState":{"key":"09","name":"Bayern"}},{"name":"Yachthafen","postalCode":"18445","locality":"Kramerhof","municipality":{"key":"13073046","name":"Kramerhof","type":"Kreisangehörige_Gemeinde"},"district":{"key":"13073","name":"Vorpommern-Rügen","type":"Landkreis"},"federalState":{"key":"13","name":"Mecklenburg-Vorpommern"}},{"name":"Yorckstr.","postalCode":"95030","locality":"Hof","municipality":{"key":"09464000","name":"Hof","type":"Kreisfreie_Stadt"},"district":{"key":"09464","name":"Hof","type":"Kreisfreie_Stadt"},"federalState":{"key":"09","name":"Bayern"}},{"name":"Yves-Fily-Str.","postalCode":"87448","locality":"Waltenhofen","municipality":{"key":"09780143","name":"Waltenhofen","type":"Kreisangehörige_Gemeinde"},"district":{"key":"09780","name":"Oberallgäu","type":"Landkreis"},"federalState":{"key":"09","name":"Bayern"}},{"name":"Zeppelinstr.","postalCode":"95233","locality":"Helmbrechts","municipality":{"key":"09475136","name":"Helmbrechts, St","type":"Stadt"},"district":{"key":"09475","name":"Hof","type":"Landkreis"},"federalState":{"key":"09","name":"Bayern"}},{"name":"Zilleweg","postalCode":"95233","locality":"Helmbrechts","municipality":{"key":"09475136","name":"Helmbrechts, St","type":"Stadt"},"district":{"key":"09475","name":"Hof","type":"Landkreis"},"federalState":{"key":"09","name":"Bayern"}},{"name":"Zum Badeweiher","postalCode":"95233","locality":"Helmbrechts","municipality":{"key":"09475136","name":"Helmbrechts, St","type":"Stadt"},"district":{"key":"09475","name":"Hof","type":"Landkreis"},"federalState":{"key":"09","name":"Bayern"}},{"name":"Zum Gut","postalCode":"95233","locality":"Helmbrechts","municipality":{"key":"09475136","name":"Helmbrechts, St","type":"Stadt"},"district":{"key":"09475","name":"Hof","type":"Landkreis"},"federalState":{"key":"09","name":"Bayern"}},{"name":"Zum Jagdthof","postalCode":"95233","locality":"Helmbrechts","municipality":{"key":"09475136","name":"Helmbrechts, St","type":"Stadt"},"district":{"key":"09475","name":"Hof","type":"Landkreis"},"federalState":{"key":"09","name":"Bayern"}},{"name":"Zum Jaydthof","postalCode":"95233","locality":"Helmbrechts","municipality":{"key":"09475136","name":"Helmbrechts, St","type":"Stadt"},"district":{"key":"09475","name":"Hof","type":"Landkreis"},"federalState":{"key":"09","name":"Bayern"}},{"name":"Zum Kriegswald","postalCode":"95233","locality":"Helmbrechts","municipality":{"key":"09475136","name":"Helmbrechts, St","type":"Stadt"},"district":{"key":"09475","name":"Hof","type":"Landkreis"},"federalState":{"key":"09","name":"Bayern"}},{"name":"Zum Schützenhaus","postalCode":"95233","locality":"Helmbrechts","municipality":{"key":"09475136","name":"Helmbrechts, St","type":"Stadt"},"district":{"key":"09475","name":"Hof","type":"Landkreis"},"federalState":{"key":"09","name":"Bayern"}},{"name":"Zum Trüpfhaus","postalCode":"95233","locality":"Helmbrechts","municipality":{"key":"09475136","name":"Helmbrechts, St","type":"Stadt"},"district":{"key":"09475","name":"Hof","type":"Landkreis"},"federalState":{"key":"09","name":"Bayern"}},{"name":"Zum Weberhaus","postalCode":"95233","locality":"Helmbrechts","municipality":{"key":"09475136","name":"Helmbrechts, St","type":"Stadt"},"district":{"key":"09475","name":"Hof","type":"Landkreis"},"federalState":{"key":"09","name":"Bayern"}},{"name":"Zur Grönbachquelle","postalCode":"95233","locality":"Helmbrechts","municipality":{"key":"09475136","name":"Helmbrechts, St","type":"Stadt"},"district":{"key":"09475","name":"Hof","type":"Landkreis"},"federalState":{"key":"09","name":"Bayern"}},{"name":"Zur Mühlwiese","postalCode":"95233","locality":"Helmbrechts","municipality":{"key":"09475136","name":"Helmbrechts, St","type":"Stadt"},"district":{"key":"09475","name":"Hof","type":"Landkreis"},"federalState":{"key":"09","name":"Bayern"}},{"name":"Zur Rodelbahn","postalCode":"95233","locality":"Helmbrechts","municipality":{"key":"09475136","name":"Helmbrechts, St","type":"Stadt"},"district":{"key":"09475","name":"Hof","type":"Landkreis"},"federalState":{"key":"09","name":"Bayern"}},{"name":"Zur Sägemühle","postalCode":"95233","locality":"Helmbrechts","municipality":{"key":"09475136","name":"Helmbrechts, St","type":"Stadt"},"district":{"key":"09475","name":"Hof","type":"Landkreis"},"federalState":{"key":"09","name":"Bayern"}},{"name":"Zur Siedlung","postalCode":"95233","locality":"Helmbrechts","municipality":{"key":"09475136","name":"Helmbrechts, St","type":"Stadt"},"district":{"key":"09475","name":"Hof","type":"Landkreis"},"federalState":{"key":"09","name":"Bayern"}},{"name":"Zur Taubaldsmühle","postalCode":"95233","locality":"Helmbrechts","municipality":{"key":"09475136","name":"Helmbrechts, St","type":"Stadt"},"district":{"key":"09475","name":"Hof","type":"Landkreis"},"federalState":{"key":"09","name":"Bayern"}},{"name":"Ährenweg","postalCode":"95233","locality":"Helmbrechts","municipality":{"key":"09475136","name":"Helmbrechts, St","type":"Stadt"},"district":{"key":"09475","name":"Hof","type":"Landkreis"},"federalState":{"key":"09","name":"Bayern"}},{"name":"Öchenbach","postalCode":"36145","locality":"Hofbieber","municipality":{"key":"06631013","name":"Hofbieber","type":"Kreisangehörige_Gemeinde"},"district":{"key":"06631","name":"Fulda","type":"Landkreis"},"federalState":{"key":"06","name":"Hessen"}},{"name":"Ödenwaldstr.","postalCode":"88433","locality":"Schemmerhofen","municipality":{"key":"08426134","name":"Schemmerhofen","type":"Kreisangehörige_Gemeinde"},"district":{"key":"08426","name":"Biberach","type":"Landkreis"},"federalState":{"key":"08","name":"Baden-Württemberg"}},{"name":"Ölbergstr.","postalCode":"97922","locality":"Lauda-Königshofen","municipality":{"key":"08128139","name":"Lauda-Königshofen, Stadt","type":"Stadt"},"district":{"key":"08128","name":"Main-Tauber-Kreis","type":"Landkreis"},"federalState":{"key":"08","name":"Baden-Württemberg"}},{"name":"Ölmühlenweg","postalCode":"33161","locality":"Hövelhof","municipality":{"key":"05774024","name":"Hövelhof, Sennegemeinde","type":"Kreisangehörige_Gemeinde"},"district":{"key":"05774","name":"Paderborn","type":"Kreis"},"federalState":{"key":"05","name":"Nordrhein-Westfalen"}},{"name":"Ölmühleweg","postalCode":"88433","locality":"Schemmerhofen","municipality":{"key":"08426134","name":"Schemmerhofen","type":"Kreisangehörige_Gemeinde"},"district":{"key":"08426","name":"Biberach","type":"Landkreis"},"federalState":{"key":"08","name":"Baden-Württemberg"}},{"name":"Ölmützer Weg","postalCode":"86368","locality":"Gersthofen","municipality":{"key":"09772147","name":"Gersthofen, St","type":"Stadt"},"district":{"key":"09772","name":"Augsburg","type":"Landkreis"},"federalState":{"key":"09","name":"Bayern"}},{"name":"Österreichstr.","postalCode":"85084","locality":"Reichertshofen","municipality":{"key":"09186147","name":"Reichertshofen, M","type":"Markt"},"district":{"key":"09186","name":"Pfaffenhofen a.d.Ilm","type":"Landkreis"},"federalState":{"key":"09","name":"Bayern"}},{"name":"Östliche Allee","postalCode":"97447","locality":"Gerolzhofen","municipality":{"key":"09678134","name":"Gerolzhofen, St","type":"Stadt"},"district":{"key":"09678","name":"Schweinfurt","type":"Landkreis"},"federalState":{"key":"09","name":"Bayern"}},{"name":"Östliche Alpenstr.","postalCode":"87527","locality":"Sonthofen","municipality":{"key":"09780139","name":"Sonthofen, St","type":"Stadt"},"district":{"key":"09780","name":"Oberallgäu","type":"Landkreis"},"federalState":{"key":"09","name":"Bayern"}},{"name":"Östlicher Birkenweg","postalCode":"86643","locality":"Rennertshofen","municipality":{"key":"09185153","name":"Rennertshofen, M","type":"Markt"},"district":{"key":"09185","name":"Neuburg-Schrobenhausen","type":"Landkreis"},"federalState":{"key":"09","name":"Bayern"}},{"name":"Öttnergasse","postalCode":"97461","locality":"Hofheim in Unterfranken","municipality":{"key":"09674149","name":"Hofheim i.UFr., St","type":"Stadt"},"district":{"key":"09674","name":"Haßberge","type":"Landkreis"},"federalState":{"key":"09","name":"Bayern"}},{"name":"Über den Höfen","postalCode":"34369","locality":"Hofgeismar","municipality":{"key":"06633013","name":"Hofgeismar, Stadt","type":"Stadt"},"district":{"key":"06633","name":"Kassel","type":"Landkreis"},"federalState":{"key":"06","name":"Hessen"}},{"name":"Überlinger Str.","postalCode":"88690","locality":"Uhldingen-Mühlhofen","municipality":{"key":"08435066","name":"Uhldingen-Mühlhofen","type":"Kreisangehörige_Gemeinde"},"district":{"key":"08435","name":"Bodenseekreis","type":"Landkreis"},"federalState":{"key":"08","name":"Baden-Württemberg"}},{"name":"ÜF PFA21 Reichertshofen","postalCode":"85084","locality":"Reichertshofen","municipality":{"key":"09186147","name":"Reichertshofen, M","type":"Markt"},"district":{"key":"09186","name":"Pfaffenhofen a.d.Ilm","type":"Landkreis"},"federalState":{"key":"09","name":"Bayern"}},]