[{"name":"Am Flassland","postalCode":"19089","locality":"Barnin","municipality":{"key":"13076007","name":"Barnin","type":"Kreisangehörige_Gemeinde"},"district":{"key":"13076","name":"Ludwigslust-Parchim","type":"Landkreis"},"federalState":{"key":"13","name":"Mecklenburg-Vorpommern"}},{"name":"Am Wallgraben","postalCode":"19089","locality":"Barnin","municipality":{"key":"13076007","name":"Barnin","type":"Kreisangehörige_Gemeinde"},"district":{"key":"13076","name":"Ludwigslust-Parchim","type":"Landkreis"},"federalState":{"key":"13","name":"Mecklenburg-Vorpommern"}},{"name":"Bungalowsiedlung","postalCode":"19089","locality":"Barnin","municipality":{"key":"13076007","name":"Barnin","type":"Kreisangehörige_Gemeinde"},"district":{"key":"13076","name":"Ludwigslust-Parchim","type":"Landkreis"},"federalState":{"key":"13","name":"Mecklenburg-Vorpommern"}},{"name":"Carl-Moltmann-Str.","postalCode":"19089","locality":"Barnin","municipality":{"key":"13076007","name":"Barnin","type":"Kreisangehörige_Gemeinde"},"district":{"key":"13076","name":"Ludwigslust-Parchim","type":"Landkreis"},"federalState":{"key":"13","name":"Mecklenburg-Vorpommern"}},{"name":"Chausseehaus","postalCode":"19089","locality":"Barnin","municipality":{"key":"13076007","name":"Barnin","type":"Kreisangehörige_Gemeinde"},"district":{"key":"13076","name":"Ludwigslust-Parchim","type":"Landkreis"},"federalState":{"key":"13","name":"Mecklenburg-Vorpommern"}},{"name":"Crivitzer Str.","postalCode":"19089","locality":"Barnin","municipality":{"key":"13076007","name":"Barnin","type":"Kreisangehörige_Gemeinde"},"district":{"key":"13076","name":"Ludwigslust-Parchim","type":"Landkreis"},"federalState":{"key":"13","name":"Mecklenburg-Vorpommern"}},{"name":"Friedensstr.","postalCode":"19089","locality":"Barnin","municipality":{"key":"13076007","name":"Barnin","type":"Kreisangehörige_Gemeinde"},"district":{"key":"13076","name":"Ludwigslust-Parchim","type":"Landkreis"},"federalState":{"key":"13","name":"Mecklenburg-Vorpommern"}},{"name":"Kastanienallee","postalCode":"19089","locality":"Barnin","municipality":{"key":"13076007","name":"Barnin","type":"Kreisangehörige_Gemeinde"},"district":{"key":"13076","name":"Ludwigslust-Parchim","type":"Landkreis"},"federalState":{"key":"13","name":"Mecklenburg-Vorpommern"}},{"name":"Lindenstr.","postalCode":"19089","locality":"Barnin","municipality":{"key":"13076007","name":"Barnin","type":"Kreisangehörige_Gemeinde"},"district":{"key":"13076","name":"Ludwigslust-Parchim","type":"Landkreis"},"federalState":{"key":"13","name":"Mecklenburg-Vorpommern"}},{"name":"Park am Barniner See","postalCode":"19089","locality":"Barnin","municipality":{"key":"13076007","name":"Barnin","type":"Kreisangehörige_Gemeinde"},"district":{"key":"13076","name":"Ludwigslust-Parchim","type":"Landkreis"},"federalState":{"key":"13","name":"Mecklenburg-Vorpommern"}},{"name":"Park und Spielplatz Barnin","postalCode":"19089","locality":"Barnin","municipality":{"key":"13076007","name":"Barnin","type":"Kreisangehörige_Gemeinde"},"district":{"key":"13076","name":"Ludwigslust-Parchim","type":"Landkreis"},"federalState":{"key":"13","name":"Mecklenburg-Vorpommern"}},{"name":"Seestr.","postalCode":"19089","locality":"Barnin","municipality":{"key":"13076007","name":"Barnin","type":"Kreisangehörige_Gemeinde"},"district":{"key":"13076","name":"Ludwigslust-Parchim","type":"Landkreis"},"federalState":{"key":"13","name":"Mecklenburg-Vorpommern"}},{"name":"Str. der Freundschaft","postalCode":"19089","locality":"Barnin","municipality":{"key":"13076007","name":"Barnin","type":"Kreisangehörige_Gemeinde"},"district":{"key":"13076","name":"Ludwigslust-Parchim","type":"Landkreis"},"federalState":{"key":"13","name":"Mecklenburg-Vorpommern"}},{"name":"Wessiner Weg","postalCode":"19089","locality":"Barnin","municipality":{"key":"13076007","name":"Barnin","type":"Kreisangehörige_Gemeinde"},"district":{"key":"13076","name":"Ludwigslust-Parchim","type":"Landkreis"},"federalState":{"key":"13","name":"Mecklenburg-Vorpommern"}},]