[{"key":"10219603","name":"Aarbergstrasse","postalCode":"2575","locality":"Täuffelen","commune":{"key":"751","name":"Täuffelen","shortName":"Täuffelen"},"district":{"key":"243","name":"Verwaltungskreis Seeland"},"canton":{"key":"2","code":"BE","name":"Bern / Berne"},"status":"Real"},{"key":"10050876","name":"Aarestrasse","postalCode":"2575","locality":"Täuffelen","commune":{"key":"751","name":"Täuffelen","shortName":"Täuffelen"},"district":{"key":"243","name":"Verwaltungskreis Seeland"},"canton":{"key":"2","code":"BE","name":"Bern / Berne"},"status":"Real"},{"key":"10086685","name":"Alpenstrasse","postalCode":"2575","locality":"Täuffelen","commune":{"key":"751","name":"Täuffelen","shortName":"Täuffelen"},"district":{"key":"243","name":"Verwaltungskreis Seeland"},"canton":{"key":"2","code":"BE","name":"Bern / Berne"},"status":"Real"},{"key":"10098419","name":"Bahnhofstrasse","postalCode":"2575","locality":"Täuffelen","commune":{"key":"751","name":"Täuffelen","shortName":"Täuffelen"},"district":{"key":"243","name":"Verwaltungskreis Seeland"},"canton":{"key":"2","code":"BE","name":"Bern / Berne"},"status":"Real"},{"key":"10010331","name":"Baichtweg","postalCode":"2575","locality":"Täuffelen","commune":{"key":"751","name":"Täuffelen","shortName":"Täuffelen"},"district":{"key":"243","name":"Verwaltungskreis Seeland"},"canton":{"key":"2","code":"BE","name":"Bern / Berne"},"status":"Real"},{"key":"10062732","name":"Baumgartenstrasse","postalCode":"2575","locality":"Täuffelen","commune":{"key":"751","name":"Täuffelen","shortName":"Täuffelen"},"district":{"key":"243","name":"Verwaltungskreis Seeland"},"canton":{"key":"2","code":"BE","name":"Bern / Berne"},"status":"Real"},{"key":"10050877","name":"Birkenweg","postalCode":"2575","locality":"Täuffelen","commune":{"key":"751","name":"Täuffelen","shortName":"Täuffelen"},"district":{"key":"243","name":"Verwaltungskreis Seeland"},"canton":{"key":"2","code":"BE","name":"Bern / Berne"},"status":"Real"},{"key":"10010332","name":"Blumenrain","postalCode":"2575","locality":"Täuffelen","commune":{"key":"751","name":"Täuffelen","shortName":"Täuffelen"},"district":{"key":"243","name":"Verwaltungskreis Seeland"},"canton":{"key":"2","code":"BE","name":"Bern / Berne"},"status":"Real"},{"key":"10010333","name":"Bodenweg","postalCode":"2575","locality":"Täuffelen","commune":{"key":"751","name":"Täuffelen","shortName":"Täuffelen"},"district":{"key":"243","name":"Verwaltungskreis Seeland"},"canton":{"key":"2","code":"BE","name":"Bern / Berne"},"status":"Real"},{"key":"10192395","name":"Breitenfeldstrasse","postalCode":"2575","locality":"Täuffelen","commune":{"key":"751","name":"Täuffelen","shortName":"Täuffelen"},"district":{"key":"243","name":"Verwaltungskreis Seeland"},"canton":{"key":"2","code":"BE","name":"Bern / Berne"},"status":"Real"},{"key":"10167192","name":"Breitenrain","postalCode":"2575","locality":"Täuffelen","commune":{"key":"751","name":"Täuffelen","shortName":"Täuffelen"},"district":{"key":"243","name":"Verwaltungskreis Seeland"},"canton":{"key":"2","code":"BE","name":"Bern / Berne"},"status":"Real"},{"key":"10086686","name":"Burgerstrasse","postalCode":"2575","locality":"Täuffelen","commune":{"key":"751","name":"Täuffelen","shortName":"Täuffelen"},"district":{"key":"243","name":"Verwaltungskreis Seeland"},"canton":{"key":"2","code":"BE","name":"Bern / Berne"},"status":"Real"},{"key":"10112516","name":"Burrirain","postalCode":"2575","locality":"Täuffelen","commune":{"key":"751","name":"Täuffelen","shortName":"Täuffelen"},"district":{"key":"243","name":"Verwaltungskreis Seeland"},"canton":{"key":"2","code":"BE","name":"Bern / Berne"},"status":"Real"},{"key":"10010334","name":"Dahlienweg","postalCode":"2575","locality":"Täuffelen","commune":{"key":"751","name":"Täuffelen","shortName":"Täuffelen"},"district":{"key":"243","name":"Verwaltungskreis Seeland"},"canton":{"key":"2","code":"BE","name":"Bern / Berne"},"status":"Real"},{"key":"10062733","name":"Dammweg","postalCode":"2575","locality":"Täuffelen","commune":{"key":"751","name":"Täuffelen","shortName":"Täuffelen"},"district":{"key":"243","name":"Verwaltungskreis Seeland"},"canton":{"key":"2","code":"BE","name":"Bern / Berne"},"status":"Real"},{"key":"10010335","name":"Dorfrain","postalCode":"2575","locality":"Täuffelen","commune":{"key":"751","name":"Täuffelen","shortName":"Täuffelen"},"district":{"key":"243","name":"Verwaltungskreis Seeland"},"canton":{"key":"2","code":"BE","name":"Bern / Berne"},"status":"Real"},{"key":"10010336","name":"Fischerweg","postalCode":"2575","locality":"Täuffelen","commune":{"key":"751","name":"Täuffelen","shortName":"Täuffelen"},"district":{"key":"243","name":"Verwaltungskreis Seeland"},"canton":{"key":"2","code":"BE","name":"Bern / Berne"},"status":"Real"},{"key":"10086687","name":"Föhrenweg","postalCode":"2575","locality":"Täuffelen","commune":{"key":"751","name":"Täuffelen","shortName":"Täuffelen"},"district":{"key":"243","name":"Verwaltungskreis Seeland"},"canton":{"key":"2","code":"BE","name":"Bern / Berne"},"status":"Real"},{"key":"10050878","name":"Friedweg","postalCode":"2575","locality":"Täuffelen","commune":{"key":"751","name":"Täuffelen","shortName":"Täuffelen"},"district":{"key":"243","name":"Verwaltungskreis Seeland"},"canton":{"key":"2","code":"BE","name":"Bern / Berne"},"status":"Real"},{"key":"10104759","name":"Geissriedweg","postalCode":"2575","locality":"Täuffelen","commune":{"key":"751","name":"Täuffelen","shortName":"Täuffelen"},"district":{"key":"243","name":"Verwaltungskreis Seeland"},"canton":{"key":"2","code":"BE","name":"Bern / Berne"},"status":"Real"},{"key":"10050879","name":"Hauptstrasse","postalCode":"2575","locality":"Täuffelen","commune":{"key":"751","name":"Täuffelen","shortName":"Täuffelen"},"district":{"key":"243","name":"Verwaltungskreis Seeland"},"canton":{"key":"2","code":"BE","name":"Bern / Berne"},"status":"Real"},{"key":"10086688","name":"Hochrain","postalCode":"2575","locality":"Täuffelen","commune":{"key":"751","name":"Täuffelen","shortName":"Täuffelen"},"district":{"key":"243","name":"Verwaltungskreis Seeland"},"canton":{"key":"2","code":"BE","name":"Bern / Berne"},"status":"Real"},{"key":"10123121","name":"Höhenweg","postalCode":"2575","locality":"Täuffelen","commune":{"key":"751","name":"Täuffelen","shortName":"Täuffelen"},"district":{"key":"243","name":"Verwaltungskreis Seeland"},"canton":{"key":"2","code":"BE","name":"Bern / Berne"},"status":"Real"},{"key":"10010338","name":"Hölzlirain","postalCode":"2575","locality":"Täuffelen","commune":{"key":"751","name":"Täuffelen","shortName":"Täuffelen"},"district":{"key":"243","name":"Verwaltungskreis Seeland"},"canton":{"key":"2","code":"BE","name":"Bern / Berne"},"status":"Real"},{"key":"10258529","name":"Hoserenstrasse","postalCode":"2575","locality":"Täuffelen","commune":{"key":"751","name":"Täuffelen","shortName":"Täuffelen"},"district":{"key":"243","name":"Verwaltungskreis Seeland"},"canton":{"key":"2","code":"BE","name":"Bern / Berne"},"status":"Real"},{"key":"10219613","name":"Inseli","postalCode":"2575","locality":"Täuffelen","commune":{"key":"751","name":"Täuffelen","shortName":"Täuffelen"},"district":{"key":"243","name":"Verwaltungskreis Seeland"},"canton":{"key":"2","code":"BE","name":"Bern / Berne"},"status":"Real"},{"key":"10086689","name":"Inselstrasse","postalCode":"2575","locality":"Täuffelen","commune":{"key":"751","name":"Täuffelen","shortName":"Täuffelen"},"district":{"key":"243","name":"Verwaltungskreis Seeland"},"canton":{"key":"2","code":"BE","name":"Bern / Berne"},"status":"Real"},{"key":"10086690","name":"Käsereistrasse","postalCode":"2575","locality":"Täuffelen","commune":{"key":"751","name":"Täuffelen","shortName":"Täuffelen"},"district":{"key":"243","name":"Verwaltungskreis Seeland"},"canton":{"key":"2","code":"BE","name":"Bern / Berne"},"status":"Real"},{"key":"10057616","name":"Kirchackerstrasse","postalCode":"2575","locality":"Täuffelen","commune":{"key":"751","name":"Täuffelen","shortName":"Täuffelen"},"district":{"key":"243","name":"Verwaltungskreis Seeland"},"canton":{"key":"2","code":"BE","name":"Bern / Berne"},"status":"Real"},{"key":"10010339","name":"Kirchrain","postalCode":"2575","locality":"Täuffelen","commune":{"key":"751","name":"Täuffelen","shortName":"Täuffelen"},"district":{"key":"243","name":"Verwaltungskreis Seeland"},"canton":{"key":"2","code":"BE","name":"Bern / Berne"},"status":"Real"},{"key":"10010340","name":"Kleemattenweg","postalCode":"2575","locality":"Täuffelen","commune":{"key":"751","name":"Täuffelen","shortName":"Täuffelen"},"district":{"key":"243","name":"Verwaltungskreis Seeland"},"canton":{"key":"2","code":"BE","name":"Bern / Berne"},"status":"Real"},{"key":"10104760","name":"Leimenstrasse","postalCode":"2575","locality":"Täuffelen","commune":{"key":"751","name":"Täuffelen","shortName":"Täuffelen"},"district":{"key":"243","name":"Verwaltungskreis Seeland"},"canton":{"key":"2","code":"BE","name":"Bern / Berne"},"status":"Real"},{"key":"10208624","name":"Leimenstrasse","postalCode":"2575","locality":"Täuffelen","commune":{"key":"751","name":"Täuffelen","shortName":"Täuffelen"},"district":{"key":"243","name":"Verwaltungskreis Seeland"},"canton":{"key":"2","code":"BE","name":"Bern / Berne"},"status":"Real"},{"key":"10112517","name":"Montligstrasse","postalCode":"2575","locality":"Täuffelen","commune":{"key":"751","name":"Täuffelen","shortName":"Täuffelen"},"district":{"key":"243","name":"Verwaltungskreis Seeland"},"canton":{"key":"2","code":"BE","name":"Bern / Berne"},"status":"Real"},{"key":"10109875","name":"Moosgasse","postalCode":"2575","locality":"Täuffelen","commune":{"key":"751","name":"Täuffelen","shortName":"Täuffelen"},"district":{"key":"243","name":"Verwaltungskreis Seeland"},"canton":{"key":"2","code":"BE","name":"Bern / Berne"},"status":"Real"},{"key":"10086691","name":"Obermattstrasse","postalCode":"2575","locality":"Täuffelen","commune":{"key":"751","name":"Täuffelen","shortName":"Täuffelen"},"district":{"key":"243","name":"Verwaltungskreis Seeland"},"canton":{"key":"2","code":"BE","name":"Bern / Berne"},"status":"Real"},{"key":"10057617","name":"Parallelstrasse","postalCode":"2575","locality":"Täuffelen","commune":{"key":"751","name":"Täuffelen","shortName":"Täuffelen"},"district":{"key":"243","name":"Verwaltungskreis Seeland"},"canton":{"key":"2","code":"BE","name":"Bern / Berne"},"status":"Real"},{"key":"10010342","name":"Parkstrasse","postalCode":"2575","locality":"Täuffelen","commune":{"key":"751","name":"Täuffelen","shortName":"Täuffelen"},"district":{"key":"243","name":"Verwaltungskreis Seeland"},"canton":{"key":"2","code":"BE","name":"Bern / Berne"},"status":"Real"},{"key":"10220174","name":"Polensteinweg","postalCode":"2575","locality":"Täuffelen","commune":{"key":"751","name":"Täuffelen","shortName":"Täuffelen"},"district":{"key":"243","name":"Verwaltungskreis Seeland"},"canton":{"key":"2","code":"BE","name":"Bern / Berne"},"status":"Real"},{"key":"10010343","name":"Rebenweg","postalCode":"2575","locality":"Täuffelen","commune":{"key":"751","name":"Täuffelen","shortName":"Täuffelen"},"district":{"key":"243","name":"Verwaltungskreis Seeland"},"canton":{"key":"2","code":"BE","name":"Bern / Berne"},"status":"Real"},{"key":"10124573","name":"Reservatweg","postalCode":"2575","locality":"Täuffelen","commune":{"key":"751","name":"Täuffelen","shortName":"Täuffelen"},"district":{"key":"243","name":"Verwaltungskreis Seeland"},"canton":{"key":"2","code":"BE","name":"Bern / Berne"},"status":"Real"},{"key":"10010344","name":"Riedlistrasse","postalCode":"2575","locality":"Täuffelen","commune":{"key":"751","name":"Täuffelen","shortName":"Täuffelen"},"district":{"key":"243","name":"Verwaltungskreis Seeland"},"canton":{"key":"2","code":"BE","name":"Bern / Berne"},"status":"Real"},{"key":"10086696","name":"Rollistrasse","postalCode":"2575","locality":"Täuffelen","commune":{"key":"751","name":"Täuffelen","shortName":"Täuffelen"},"district":{"key":"243","name":"Verwaltungskreis Seeland"},"canton":{"key":"2","code":"BE","name":"Bern / Berne"},"status":"Real"},{"key":"10057618","name":"Rosenweg","postalCode":"2575","locality":"Täuffelen","commune":{"key":"751","name":"Täuffelen","shortName":"Täuffelen"},"district":{"key":"243","name":"Verwaltungskreis Seeland"},"canton":{"key":"2","code":"BE","name":"Bern / Berne"},"status":"Real"},{"key":"10086692","name":"Rütiweg","postalCode":"2575","locality":"Täuffelen","commune":{"key":"751","name":"Täuffelen","shortName":"Täuffelen"},"district":{"key":"243","name":"Verwaltungskreis Seeland"},"canton":{"key":"2","code":"BE","name":"Bern / Berne"},"status":"Real"},{"key":"10192264","name":"Sattlerrain","postalCode":"2575","locality":"Täuffelen","commune":{"key":"751","name":"Täuffelen","shortName":"Täuffelen"},"district":{"key":"243","name":"Verwaltungskreis Seeland"},"canton":{"key":"2","code":"BE","name":"Bern / Berne"},"status":"Real"},{"key":"10010345","name":"Schulstrasse","postalCode":"2575","locality":"Täuffelen","commune":{"key":"751","name":"Täuffelen","shortName":"Täuffelen"},"district":{"key":"243","name":"Verwaltungskreis Seeland"},"canton":{"key":"2","code":"BE","name":"Bern / Berne"},"status":"Real"},{"key":"10086693","name":"Schützenstrasse","postalCode":"2575","locality":"Täuffelen","commune":{"key":"751","name":"Täuffelen","shortName":"Täuffelen"},"district":{"key":"243","name":"Verwaltungskreis Seeland"},"canton":{"key":"2","code":"BE","name":"Bern / Berne"},"status":"Real"},{"key":"10219621","name":"Strandbode","postalCode":"2575","locality":"Täuffelen","commune":{"key":"751","name":"Täuffelen","shortName":"Täuffelen"},"district":{"key":"243","name":"Verwaltungskreis Seeland"},"canton":{"key":"2","code":"BE","name":"Bern / Berne"},"status":"Real"},{"key":"10010346","name":"Tulpenweg","postalCode":"2575","locality":"Täuffelen","commune":{"key":"751","name":"Täuffelen","shortName":"Täuffelen"},"district":{"key":"243","name":"Verwaltungskreis Seeland"},"canton":{"key":"2","code":"BE","name":"Bern / Berne"},"status":"Real"},{"key":"10010359","name":"Wagnerstrasse","postalCode":"2575","locality":"Täuffelen","commune":{"key":"751","name":"Täuffelen","shortName":"Täuffelen"},"district":{"key":"243","name":"Verwaltungskreis Seeland"},"canton":{"key":"2","code":"BE","name":"Bern / Berne"},"status":"Real"},{"key":"10112518","name":"Wasenweg","postalCode":"2575","locality":"Täuffelen","commune":{"key":"751","name":"Täuffelen","shortName":"Täuffelen"},"district":{"key":"243","name":"Verwaltungskreis Seeland"},"canton":{"key":"2","code":"BE","name":"Bern / Berne"},"status":"Real"},]