[{"name":"Am Mühlholz","postalCode":"07589","locality":"Schwarzbach","municipality":{"key":"16076068","name":"Schwarzbach","type":"Kreisangehörige_Gemeinde"},"district":{"key":"16076","name":"Greiz","type":"Landkreis"},"federalState":{"key":"16","name":"Thüringen"}},{"name":"Biehlener Hauptstr.","postalCode":"01945","locality":"Schwarzbach","municipality":{"key":"12066292","name":"Schwarzbach","type":"Kreisangehörige_Gemeinde"},"district":{"key":"12066","name":"Oberspreewald-Lausitz","type":"Landkreis"},"federalState":{"key":"12","name":"Brandenburg"}},{"name":"Biehlener Str.","postalCode":"01945","locality":"Schwarzbach","municipality":{"key":"12066292","name":"Schwarzbach","type":"Kreisangehörige_Gemeinde"},"district":{"key":"12066","name":"Oberspreewald-Lausitz","type":"Landkreis"},"federalState":{"key":"12","name":"Brandenburg"}},{"name":"Feldstr.","postalCode":"01945","locality":"Schwarzbach","municipality":{"key":"12066292","name":"Schwarzbach","type":"Kreisangehörige_Gemeinde"},"district":{"key":"12066","name":"Oberspreewald-Lausitz","type":"Landkreis"},"federalState":{"key":"12","name":"Brandenburg"}},{"name":"Friedensstr.","postalCode":"01945","locality":"Schwarzbach","municipality":{"key":"12066292","name":"Schwarzbach","type":"Kreisangehörige_Gemeinde"},"district":{"key":"12066","name":"Oberspreewald-Lausitz","type":"Landkreis"},"federalState":{"key":"12","name":"Brandenburg"}},{"name":"Gartenstr.","postalCode":"01945","locality":"Schwarzbach","municipality":{"key":"12066292","name":"Schwarzbach","type":"Kreisangehörige_Gemeinde"},"district":{"key":"12066","name":"Oberspreewald-Lausitz","type":"Landkreis"},"federalState":{"key":"12","name":"Brandenburg"}},{"name":"Gartenweg","postalCode":"01945","locality":"Schwarzbach","municipality":{"key":"12066292","name":"Schwarzbach","type":"Kreisangehörige_Gemeinde"},"district":{"key":"12066","name":"Oberspreewald-Lausitz","type":"Landkreis"},"federalState":{"key":"12","name":"Brandenburg"}},{"name":"Guteborner Str.","postalCode":"01945","locality":"Schwarzbach","municipality":{"key":"12066292","name":"Schwarzbach","type":"Kreisangehörige_Gemeinde"},"district":{"key":"12066","name":"Oberspreewald-Lausitz","type":"Landkreis"},"federalState":{"key":"12","name":"Brandenburg"}},{"name":"Hauptstr.","postalCode":"01945","locality":"Schwarzbach","municipality":{"key":"12066292","name":"Schwarzbach","type":"Kreisangehörige_Gemeinde"},"district":{"key":"12066","name":"Oberspreewald-Lausitz","type":"Landkreis"},"federalState":{"key":"12","name":"Brandenburg"}},{"name":"Milchstr.","postalCode":"01945","locality":"Schwarzbach","municipality":{"key":"12066292","name":"Schwarzbach","type":"Kreisangehörige_Gemeinde"},"district":{"key":"12066","name":"Oberspreewald-Lausitz","type":"Landkreis"},"federalState":{"key":"12","name":"Brandenburg"}},{"name":"Mühlwiese","postalCode":"01945","locality":"Schwarzbach","municipality":{"key":"12066292","name":"Schwarzbach","type":"Kreisangehörige_Gemeinde"},"district":{"key":"12066","name":"Oberspreewald-Lausitz","type":"Landkreis"},"federalState":{"key":"12","name":"Brandenburg"}},{"name":"Ringstr.","postalCode":"01945","locality":"Schwarzbach","municipality":{"key":"12066292","name":"Schwarzbach","type":"Kreisangehörige_Gemeinde"},"district":{"key":"12066","name":"Oberspreewald-Lausitz","type":"Landkreis"},"federalState":{"key":"12","name":"Brandenburg"}},{"name":"Schwarzbach","postalCode":"07589","locality":"Schwarzbach","municipality":{"key":"16076068","name":"Schwarzbach","type":"Kreisangehörige_Gemeinde"},"district":{"key":"16076","name":"Greiz","type":"Landkreis"},"federalState":{"key":"16","name":"Thüringen"}},{"name":"Str. der Freundschaft","postalCode":"01945","locality":"Schwarzbach","municipality":{"key":"12066292","name":"Schwarzbach","type":"Kreisangehörige_Gemeinde"},"district":{"key":"12066","name":"Oberspreewald-Lausitz","type":"Landkreis"},"federalState":{"key":"12","name":"Brandenburg"}},{"name":"Str. der Jugend","postalCode":"01945","locality":"Schwarzbach","municipality":{"key":"12066292","name":"Schwarzbach","type":"Kreisangehörige_Gemeinde"},"district":{"key":"12066","name":"Oberspreewald-Lausitz","type":"Landkreis"},"federalState":{"key":"12","name":"Brandenburg"}},{"name":"Waldstr.","postalCode":"01945","locality":"Schwarzbach","municipality":{"key":"12066292","name":"Schwarzbach","type":"Kreisangehörige_Gemeinde"},"district":{"key":"12066","name":"Oberspreewald-Lausitz","type":"Landkreis"},"federalState":{"key":"12","name":"Brandenburg"}},{"name":"Wiesenstr.","postalCode":"01945","locality":"Schwarzbach","municipality":{"key":"12066292","name":"Schwarzbach","type":"Kreisangehörige_Gemeinde"},"district":{"key":"12066","name":"Oberspreewald-Lausitz","type":"Landkreis"},"federalState":{"key":"12","name":"Brandenburg"}},]