[{"name":"Am Schloßgarten","postalCode":"55559","locality":"Bretzenheim","municipality":{"key":"07133018","name":"Bretzenheim","type":"Kreisangehörige_Gemeinde"},"district":{"key":"07133","name":"Bad Kreuznach","type":"Landkreis"},"federalState":{"key":"07","name":"Rheinland-Pfalz"}},{"name":"Am Sportplatz","postalCode":"55559","locality":"Bretzenheim","municipality":{"key":"07133018","name":"Bretzenheim","type":"Kreisangehörige_Gemeinde"},"district":{"key":"07133","name":"Bad Kreuznach","type":"Landkreis"},"federalState":{"key":"07","name":"Rheinland-Pfalz"}},{"name":"Am Vogelsang","postalCode":"55559","locality":"Bretzenheim","municipality":{"key":"07133018","name":"Bretzenheim","type":"Kreisangehörige_Gemeinde"},"district":{"key":"07133","name":"Bad Kreuznach","type":"Landkreis"},"federalState":{"key":"07","name":"Rheinland-Pfalz"}},{"name":"An der Pforte","postalCode":"55559","locality":"Bretzenheim","municipality":{"key":"07133018","name":"Bretzenheim","type":"Kreisangehörige_Gemeinde"},"district":{"key":"07133","name":"Bad Kreuznach","type":"Landkreis"},"federalState":{"key":"07","name":"Rheinland-Pfalz"}},{"name":"Bahnhofstr.","postalCode":"55559","locality":"Bretzenheim","municipality":{"key":"07133018","name":"Bretzenheim","type":"Kreisangehörige_Gemeinde"},"district":{"key":"07133","name":"Bad Kreuznach","type":"Landkreis"},"federalState":{"key":"07","name":"Rheinland-Pfalz"}},{"name":"Beinde","postalCode":"55559","locality":"Bretzenheim","municipality":{"key":"07133018","name":"Bretzenheim","type":"Kreisangehörige_Gemeinde"},"district":{"key":"07133","name":"Bad Kreuznach","type":"Landkreis"},"federalState":{"key":"07","name":"Rheinland-Pfalz"}},{"name":"Binger Str.","postalCode":"55559","locality":"Bretzenheim","municipality":{"key":"07133018","name":"Bretzenheim","type":"Kreisangehörige_Gemeinde"},"district":{"key":"07133","name":"Bad Kreuznach","type":"Landkreis"},"federalState":{"key":"07","name":"Rheinland-Pfalz"}},{"name":"Birkenweg","postalCode":"55559","locality":"Bretzenheim","municipality":{"key":"07133018","name":"Bretzenheim","type":"Kreisangehörige_Gemeinde"},"district":{"key":"07133","name":"Bad Kreuznach","type":"Landkreis"},"federalState":{"key":"07","name":"Rheinland-Pfalz"}},{"name":"Breslauer Str.","postalCode":"55559","locality":"Bretzenheim","municipality":{"key":"07133018","name":"Bretzenheim","type":"Kreisangehörige_Gemeinde"},"district":{"key":"07133","name":"Bad Kreuznach","type":"Landkreis"},"federalState":{"key":"07","name":"Rheinland-Pfalz"}},{"name":"Bretzenheimer Str.","postalCode":"55559","locality":"Bretzenheim","municipality":{"key":"07133018","name":"Bretzenheim","type":"Kreisangehörige_Gemeinde"},"district":{"key":"07133","name":"Bad Kreuznach","type":"Landkreis"},"federalState":{"key":"07","name":"Rheinland-Pfalz"}},{"name":"Burgunderweg","postalCode":"55559","locality":"Bretzenheim","municipality":{"key":"07133018","name":"Bretzenheim","type":"Kreisangehörige_Gemeinde"},"district":{"key":"07133","name":"Bad Kreuznach","type":"Landkreis"},"federalState":{"key":"07","name":"Rheinland-Pfalz"}},{"name":"Carl-Schurz-Str.","postalCode":"55543","locality":"Bad Kreuznach","municipality":{"key":"07133006","name":"Bad Kreuznach, Stadt","type":"Stadt"},"district":{"key":"07133","name":"Bad Kreuznach","type":"Landkreis"},"federalState":{"key":"07","name":"Rheinland-Pfalz"}},{"name":"Carl-Spitzweg-Str.","postalCode":"55543","locality":"Bad Kreuznach","municipality":{"key":"07133006","name":"Bad Kreuznach, Stadt","type":"Stadt"},"district":{"key":"07133","name":"Bad Kreuznach","type":"Landkreis"},"federalState":{"key":"07","name":"Rheinland-Pfalz"}},{"name":"Carl-Zeiss-Str.","postalCode":"55543","locality":"Bad Kreuznach","municipality":{"key":"07133006","name":"Bad Kreuznach, Stadt","type":"Stadt"},"district":{"key":"07133","name":"Bad Kreuznach","type":"Landkreis"},"federalState":{"key":"07","name":"Rheinland-Pfalz"}},{"name":"Carmerstr.","postalCode":"55543","locality":"Bad Kreuznach","municipality":{"key":"07133006","name":"Bad Kreuznach, Stadt","type":"Stadt"},"district":{"key":"07133","name":"Bad Kreuznach","type":"Landkreis"},"federalState":{"key":"07","name":"Rheinland-Pfalz"}},{"name":"Cauerstr.","postalCode":"55543","locality":"Bad Kreuznach","municipality":{"key":"07133006","name":"Bad Kreuznach, Stadt","type":"Stadt"},"district":{"key":"07133","name":"Bad Kreuznach","type":"Landkreis"},"federalState":{"key":"07","name":"Rheinland-Pfalz"}},{"name":"Cecilienhöhe","postalCode":"55543","locality":"Bad Kreuznach","municipality":{"key":"07133006","name":"Bad Kreuznach, Stadt","type":"Stadt"},"district":{"key":"07133","name":"Bad Kreuznach","type":"Landkreis"},"federalState":{"key":"07","name":"Rheinland-Pfalz"}},{"name":"Charles-de-Gaulle-Str.","postalCode":"55543","locality":"Bad Kreuznach","municipality":{"key":"07133006","name":"Bad Kreuznach, Stadt","type":"Stadt"},"district":{"key":"07133","name":"Bad Kreuznach","type":"Landkreis"},"federalState":{"key":"07","name":"Rheinland-Pfalz"}},{"name":"Charles-de-Gaulle-Str.","postalCode":"55545","locality":"Bad Kreuznach","municipality":{"key":"07133006","name":"Bad Kreuznach, Stadt","type":"Stadt"},"district":{"key":"07133","name":"Bad Kreuznach","type":"Landkreis"},"federalState":{"key":"07","name":"Rheinland-Pfalz"}},{"name":"Corneliusstr.","postalCode":"55545","locality":"Bad Kreuznach","municipality":{"key":"07133006","name":"Bad Kreuznach, Stadt","type":"Stadt"},"district":{"key":"07133","name":"Bad Kreuznach","type":"Landkreis"},"federalState":{"key":"07","name":"Rheinland-Pfalz"}},{"name":"Dalbergstr.","postalCode":"55545","locality":"Bad Kreuznach","municipality":{"key":"07133006","name":"Bad Kreuznach, Stadt","type":"Stadt"},"district":{"key":"07133","name":"Bad Kreuznach","type":"Landkreis"},"federalState":{"key":"07","name":"Rheinland-Pfalz"}},{"name":"Danziger Str.","postalCode":"55543","locality":"Bad Kreuznach","municipality":{"key":"07133006","name":"Bad Kreuznach, Stadt","type":"Stadt"},"district":{"key":"07133","name":"Bad Kreuznach","type":"Landkreis"},"federalState":{"key":"07","name":"Rheinland-Pfalz"}},{"name":"Dessauer Str.","postalCode":"55545","locality":"Bad Kreuznach","municipality":{"key":"07133006","name":"Bad Kreuznach, Stadt","type":"Stadt"},"district":{"key":"07133","name":"Bad Kreuznach","type":"Landkreis"},"federalState":{"key":"07","name":"Rheinland-Pfalz"}},{"name":"Dienheimer Berg","postalCode":"55545","locality":"Bad Kreuznach","municipality":{"key":"07133006","name":"Bad Kreuznach, Stadt","type":"Stadt"},"district":{"key":"07133","name":"Bad Kreuznach","type":"Landkreis"},"federalState":{"key":"07","name":"Rheinland-Pfalz"}},{"name":"Dorfbrunnenstr.","postalCode":"55545","locality":"Bad Kreuznach","municipality":{"key":"07133006","name":"Bad Kreuznach, Stadt","type":"Stadt"},"district":{"key":"07133","name":"Bad Kreuznach","type":"Landkreis"},"federalState":{"key":"07","name":"Rheinland-Pfalz"}},{"name":"Dorfplatz","postalCode":"55545","locality":"Bad Kreuznach","municipality":{"key":"07133006","name":"Bad Kreuznach, Stadt","type":"Stadt"},"district":{"key":"07133","name":"Bad Kreuznach","type":"Landkreis"},"federalState":{"key":"07","name":"Rheinland-Pfalz"}},{"name":"Dornfelderweg","postalCode":"55583","locality":"Bad Kreuznach","municipality":{"key":"07133006","name":"Bad Kreuznach, Stadt","type":"Stadt"},"district":{"key":"07133","name":"Bad Kreuznach","type":"Landkreis"},"federalState":{"key":"07","name":"Rheinland-Pfalz"}},{"name":"Dorsheimer Str.","postalCode":"55545","locality":"Bad Kreuznach","municipality":{"key":"07133006","name":"Bad Kreuznach, Stadt","type":"Stadt"},"district":{"key":"07133","name":"Bad Kreuznach","type":"Landkreis"},"federalState":{"key":"07","name":"Rheinland-Pfalz"}},{"name":"Dr.-Alfons-Gamp-Str.","postalCode":"55543","locality":"Bad Kreuznach","municipality":{"key":"07133006","name":"Bad Kreuznach, Stadt","type":"Stadt"},"district":{"key":"07133","name":"Bad Kreuznach","type":"Landkreis"},"federalState":{"key":"07","name":"Rheinland-Pfalz"}},{"name":"Dreiburgenstr.","postalCode":"55583","locality":"Bad Kreuznach","municipality":{"key":"07133006","name":"Bad Kreuznach, Stadt","type":"Stadt"},"district":{"key":"07133","name":"Bad Kreuznach","type":"Landkreis"},"federalState":{"key":"07","name":"Rheinland-Pfalz"}},{"name":"Dr.-Geisenheyner-Str.","postalCode":"55545","locality":"Bad Kreuznach","municipality":{"key":"07133006","name":"Bad Kreuznach, Stadt","type":"Stadt"},"district":{"key":"07133","name":"Bad Kreuznach","type":"Landkreis"},"federalState":{"key":"07","name":"Rheinland-Pfalz"}},{"name":"Dr.-Gerhard-Muhs-Str.","postalCode":"55543","locality":"Bad Kreuznach","municipality":{"key":"07133006","name":"Bad Kreuznach, Stadt","type":"Stadt"},"district":{"key":"07133","name":"Bad Kreuznach","type":"Landkreis"},"federalState":{"key":"07","name":"Rheinland-Pfalz"}},{"name":"Dr.-Herbert-Eimert-Str.","postalCode":"55543","locality":"Bad Kreuznach","municipality":{"key":"07133006","name":"Bad Kreuznach, Stadt","type":"Stadt"},"district":{"key":"07133","name":"Bad Kreuznach","type":"Landkreis"},"federalState":{"key":"07","name":"Rheinland-Pfalz"}},{"name":"Dr.-Karl-Aschoff-Str.","postalCode":"55543","locality":"Bad Kreuznach","municipality":{"key":"07133006","name":"Bad Kreuznach, Stadt","type":"Stadt"},"district":{"key":"07133","name":"Bad Kreuznach","type":"Landkreis"},"federalState":{"key":"07","name":"Rheinland-Pfalz"}},{"name":"Dr.-Karl-Hessel-Str.","postalCode":"55543","locality":"Bad Kreuznach","municipality":{"key":"07133006","name":"Bad Kreuznach, Stadt","type":"Stadt"},"district":{"key":"07133","name":"Bad Kreuznach","type":"Landkreis"},"federalState":{"key":"07","name":"Rheinland-Pfalz"}},{"name":"Dr.-Konrad-Adenauer-Str.","postalCode":"55543","locality":"Bad Kreuznach","municipality":{"key":"07133006","name":"Bad Kreuznach, Stadt","type":"Stadt"},"district":{"key":"07133","name":"Bad Kreuznach","type":"Landkreis"},"federalState":{"key":"07","name":"Rheinland-Pfalz"}},{"name":"Drosselweg","postalCode":"55543","locality":"Bad Kreuznach","municipality":{"key":"07133006","name":"Bad Kreuznach, Stadt","type":"Stadt"},"district":{"key":"07133","name":"Bad Kreuznach","type":"Landkreis"},"federalState":{"key":"07","name":"Rheinland-Pfalz"}},{"name":"Drosselweg","postalCode":"55583","locality":"Bad Kreuznach","municipality":{"key":"07133006","name":"Bad Kreuznach, Stadt","type":"Stadt"},"district":{"key":"07133","name":"Bad Kreuznach","type":"Landkreis"},"federalState":{"key":"07","name":"Rheinland-Pfalz"}},{"name":"Drususstr.","postalCode":"55545","locality":"Bad Kreuznach","municipality":{"key":"07133006","name":"Bad Kreuznach, Stadt","type":"Stadt"},"district":{"key":"07133","name":"Bad Kreuznach","type":"Landkreis"},"federalState":{"key":"07","name":"Rheinland-Pfalz"}},{"name":"Dr.-Velten-Str.","postalCode":"55543","locality":"Bad Kreuznach","municipality":{"key":"07133006","name":"Bad Kreuznach, Stadt","type":"Stadt"},"district":{"key":"07133","name":"Bad Kreuznach","type":"Landkreis"},"federalState":{"key":"07","name":"Rheinland-Pfalz"}},{"name":"Dr.-Werner-Forßmann-Str.","postalCode":"55543","locality":"Bad Kreuznach","municipality":{"key":"07133006","name":"Bad Kreuznach, Stadt","type":"Stadt"},"district":{"key":"07133","name":"Bad Kreuznach","type":"Landkreis"},"federalState":{"key":"07","name":"Rheinland-Pfalz"}},{"name":"Dr.-Wilhelm-Adt-Str.","postalCode":"55543","locality":"Bad Kreuznach","municipality":{"key":"07133006","name":"Bad Kreuznach, Stadt","type":"Stadt"},"district":{"key":"07133","name":"Bad Kreuznach","type":"Landkreis"},"federalState":{"key":"07","name":"Rheinland-Pfalz"}},{"name":"Dürerstr.","postalCode":"55543","locality":"Bad Kreuznach","municipality":{"key":"07133006","name":"Bad Kreuznach, Stadt","type":"Stadt"},"district":{"key":"07133","name":"Bad Kreuznach","type":"Landkreis"},"federalState":{"key":"07","name":"Rheinland-Pfalz"}},{"name":"Elsa-Brandström-Str.","postalCode":"55559","locality":"Bretzenheim","municipality":{"key":"07133018","name":"Bretzenheim","type":"Kreisangehörige_Gemeinde"},"district":{"key":"07133","name":"Bad Kreuznach","type":"Landkreis"},"federalState":{"key":"07","name":"Rheinland-Pfalz"}},{"name":"Eremitageweg","postalCode":"55559","locality":"Bretzenheim","municipality":{"key":"07133018","name":"Bretzenheim","type":"Kreisangehörige_Gemeinde"},"district":{"key":"07133","name":"Bad Kreuznach","type":"Landkreis"},"federalState":{"key":"07","name":"Rheinland-Pfalz"}},{"name":"Flurweg","postalCode":"55559","locality":"Bretzenheim","municipality":{"key":"07133018","name":"Bretzenheim","type":"Kreisangehörige_Gemeinde"},"district":{"key":"07133","name":"Bad Kreuznach","type":"Landkreis"},"federalState":{"key":"07","name":"Rheinland-Pfalz"}},{"name":"Freiherr-vom-Stein-Str.","postalCode":"55559","locality":"Bretzenheim","municipality":{"key":"07133018","name":"Bretzenheim","type":"Kreisangehörige_Gemeinde"},"district":{"key":"07133","name":"Bad Kreuznach","type":"Landkreis"},"federalState":{"key":"07","name":"Rheinland-Pfalz"}},{"name":"Friedenstr.","postalCode":"55559","locality":"Bretzenheim","municipality":{"key":"07133018","name":"Bretzenheim","type":"Kreisangehörige_Gemeinde"},"district":{"key":"07133","name":"Bad Kreuznach","type":"Landkreis"},"federalState":{"key":"07","name":"Rheinland-Pfalz"}},{"name":"Gartenstr.","postalCode":"55559","locality":"Bretzenheim","municipality":{"key":"07133018","name":"Bretzenheim","type":"Kreisangehörige_Gemeinde"},"district":{"key":"07133","name":"Bad Kreuznach","type":"Landkreis"},"federalState":{"key":"07","name":"Rheinland-Pfalz"}},{"name":"Große Str.","postalCode":"55559","locality":"Bretzenheim","municipality":{"key":"07133018","name":"Bretzenheim","type":"Kreisangehörige_Gemeinde"},"district":{"key":"07133","name":"Bad Kreuznach","type":"Landkreis"},"federalState":{"key":"07","name":"Rheinland-Pfalz"}},{"name":"Hermann-Löns-Weg","postalCode":"55559","locality":"Bretzenheim","municipality":{"key":"07133018","name":"Bretzenheim","type":"Kreisangehörige_Gemeinde"},"district":{"key":"07133","name":"Bad Kreuznach","type":"Landkreis"},"federalState":{"key":"07","name":"Rheinland-Pfalz"}},{"name":"Hinterstr.","postalCode":"55559","locality":"Bretzenheim","municipality":{"key":"07133018","name":"Bretzenheim","type":"Kreisangehörige_Gemeinde"},"district":{"key":"07133","name":"Bad Kreuznach","type":"Landkreis"},"federalState":{"key":"07","name":"Rheinland-Pfalz"}},{"name":"Im Hag","postalCode":"55559","locality":"Bretzenheim","municipality":{"key":"07133018","name":"Bretzenheim","type":"Kreisangehörige_Gemeinde"},"district":{"key":"07133","name":"Bad Kreuznach","type":"Landkreis"},"federalState":{"key":"07","name":"Rheinland-Pfalz"}},{"name":"Im Sack","postalCode":"55559","locality":"Bretzenheim","municipality":{"key":"07133018","name":"Bretzenheim","type":"Kreisangehörige_Gemeinde"},"district":{"key":"07133","name":"Bad Kreuznach","type":"Landkreis"},"federalState":{"key":"07","name":"Rheinland-Pfalz"}},{"name":"In den zehn Morgen","postalCode":"55559","locality":"Bretzenheim","municipality":{"key":"07133018","name":"Bretzenheim","type":"Kreisangehörige_Gemeinde"},"district":{"key":"07133","name":"Bad Kreuznach","type":"Landkreis"},"federalState":{"key":"07","name":"Rheinland-Pfalz"}},{"name":"Jahnstr.","postalCode":"55559","locality":"Bretzenheim","municipality":{"key":"07133018","name":"Bretzenheim","type":"Kreisangehörige_Gemeinde"},"district":{"key":"07133","name":"Bad Kreuznach","type":"Landkreis"},"federalState":{"key":"07","name":"Rheinland-Pfalz"}},{"name":"Kantstr.","postalCode":"55559","locality":"Bretzenheim","municipality":{"key":"07133018","name":"Bretzenheim","type":"Kreisangehörige_Gemeinde"},"district":{"key":"07133","name":"Bad Kreuznach","type":"Landkreis"},"federalState":{"key":"07","name":"Rheinland-Pfalz"}},{"name":"Kirchstr.","postalCode":"55559","locality":"Bretzenheim","municipality":{"key":"07133018","name":"Bretzenheim","type":"Kreisangehörige_Gemeinde"},"district":{"key":"07133","name":"Bad Kreuznach","type":"Landkreis"},"federalState":{"key":"07","name":"Rheinland-Pfalz"}},{"name":"Kleine Str.","postalCode":"55559","locality":"Bretzenheim","municipality":{"key":"07133018","name":"Bretzenheim","type":"Kreisangehörige_Gemeinde"},"district":{"key":"07133","name":"Bad Kreuznach","type":"Landkreis"},"federalState":{"key":"07","name":"Rheinland-Pfalz"}},{"name":"Königsberger Str.","postalCode":"55559","locality":"Bretzenheim","municipality":{"key":"07133018","name":"Bretzenheim","type":"Kreisangehörige_Gemeinde"},"district":{"key":"07133","name":"Bad Kreuznach","type":"Landkreis"},"federalState":{"key":"07","name":"Rheinland-Pfalz"}},{"name":"Kreuznacher Str.","postalCode":"55559","locality":"Bretzenheim","municipality":{"key":"07133018","name":"Bretzenheim","type":"Kreisangehörige_Gemeinde"},"district":{"key":"07133","name":"Bad Kreuznach","type":"Landkreis"},"federalState":{"key":"07","name":"Rheinland-Pfalz"}},{"name":"Kreuzstr.","postalCode":"55559","locality":"Bretzenheim","municipality":{"key":"07133018","name":"Bretzenheim","type":"Kreisangehörige_Gemeinde"},"district":{"key":"07133","name":"Bad Kreuznach","type":"Landkreis"},"federalState":{"key":"07","name":"Rheinland-Pfalz"}},{"name":"Lehnweg","postalCode":"55559","locality":"Bretzenheim","municipality":{"key":"07133018","name":"Bretzenheim","type":"Kreisangehörige_Gemeinde"},"district":{"key":"07133","name":"Bad Kreuznach","type":"Landkreis"},"federalState":{"key":"07","name":"Rheinland-Pfalz"}},{"name":"Moritz-Schweig-Weg","postalCode":"55559","locality":"Bretzenheim","municipality":{"key":"07133018","name":"Bretzenheim","type":"Kreisangehörige_Gemeinde"},"district":{"key":"07133","name":"Bad Kreuznach","type":"Landkreis"},"federalState":{"key":"07","name":"Rheinland-Pfalz"}},{"name":"Mühlenstr.","postalCode":"55559","locality":"Bretzenheim","municipality":{"key":"07133018","name":"Bretzenheim","type":"Kreisangehörige_Gemeinde"},"district":{"key":"07133","name":"Bad Kreuznach","type":"Landkreis"},"federalState":{"key":"07","name":"Rheinland-Pfalz"}},{"name":"Naheweinstr.","postalCode":"55559","locality":"Bretzenheim","municipality":{"key":"07133018","name":"Bretzenheim","type":"Kreisangehörige_Gemeinde"},"district":{"key":"07133","name":"Bad Kreuznach","type":"Landkreis"},"federalState":{"key":"07","name":"Rheinland-Pfalz"}},{"name":"Notgottesweg","postalCode":"55559","locality":"Bretzenheim","municipality":{"key":"07133018","name":"Bretzenheim","type":"Kreisangehörige_Gemeinde"},"district":{"key":"07133","name":"Bad Kreuznach","type":"Landkreis"},"federalState":{"key":"07","name":"Rheinland-Pfalz"}},{"name":"Oberer Flurweg","postalCode":"55559","locality":"Bretzenheim","municipality":{"key":"07133018","name":"Bretzenheim","type":"Kreisangehörige_Gemeinde"},"district":{"key":"07133","name":"Bad Kreuznach","type":"Landkreis"},"federalState":{"key":"07","name":"Rheinland-Pfalz"}},{"name":"Pappelweg","postalCode":"55543","locality":"Bad Kreuznach","municipality":{"key":"07133006","name":"Bad Kreuznach, Stadt","type":"Stadt"},"district":{"key":"07133","name":"Bad Kreuznach","type":"Landkreis"},"federalState":{"key":"07","name":"Rheinland-Pfalz"}},{"name":"Park der Sinne","postalCode":"55543","locality":"Bad Kreuznach","municipality":{"key":"07133006","name":"Bad Kreuznach, Stadt","type":"Stadt"},"district":{"key":"07133","name":"Bad Kreuznach","type":"Landkreis"},"federalState":{"key":"07","name":"Rheinland-Pfalz"}},{"name":"Parkstr.","postalCode":"55545","locality":"Bad Kreuznach","municipality":{"key":"07133006","name":"Bad Kreuznach, Stadt","type":"Stadt"},"district":{"key":"07133","name":"Bad Kreuznach","type":"Landkreis"},"federalState":{"key":"07","name":"Rheinland-Pfalz"}},{"name":"Paul-Barberot-Str.","postalCode":"55543","locality":"Bad Kreuznach","municipality":{"key":"07133006","name":"Bad Kreuznach, Stadt","type":"Stadt"},"district":{"key":"07133","name":"Bad Kreuznach","type":"Landkreis"},"federalState":{"key":"07","name":"Rheinland-Pfalz"}},{"name":"Paul-Hindemith-Str.","postalCode":"55543","locality":"Bad Kreuznach","municipality":{"key":"07133006","name":"Bad Kreuznach, Stadt","type":"Stadt"},"district":{"key":"07133","name":"Bad Kreuznach","type":"Landkreis"},"federalState":{"key":"07","name":"Rheinland-Pfalz"}},{"name":"Paul-Klee-Str.","postalCode":"55543","locality":"Bad Kreuznach","municipality":{"key":"07133006","name":"Bad Kreuznach, Stadt","type":"Stadt"},"district":{"key":"07133","name":"Bad Kreuznach","type":"Landkreis"},"federalState":{"key":"07","name":"Rheinland-Pfalz"}},{"name":"Paul Schneider Weg","postalCode":"55545","locality":"Bad Kreuznach","municipality":{"key":"07133006","name":"Bad Kreuznach, Stadt","type":"Stadt"},"district":{"key":"07133","name":"Bad Kreuznach","type":"Landkreis"},"federalState":{"key":"07","name":"Rheinland-Pfalz"}},{"name":"Pestalozzistr.","postalCode":"55543","locality":"Bad Kreuznach","municipality":{"key":"07133006","name":"Bad Kreuznach, Stadt","type":"Stadt"},"district":{"key":"07133","name":"Bad Kreuznach","type":"Landkreis"},"federalState":{"key":"07","name":"Rheinland-Pfalz"}},{"name":"Peter-Fink-Str.","postalCode":"55543","locality":"Bad Kreuznach","municipality":{"key":"07133006","name":"Bad Kreuznach, Stadt","type":"Stadt"},"district":{"key":"07133","name":"Bad Kreuznach","type":"Landkreis"},"federalState":{"key":"07","name":"Rheinland-Pfalz"}},{"name":"Petersgasse","postalCode":"55545","locality":"Bad Kreuznach","municipality":{"key":"07133006","name":"Bad Kreuznach, Stadt","type":"Stadt"},"district":{"key":"07133","name":"Bad Kreuznach","type":"Landkreis"},"federalState":{"key":"07","name":"Rheinland-Pfalz"}},{"name":"Pfalzsprung","postalCode":"55543","locality":"Bad Kreuznach","municipality":{"key":"07133006","name":"Bad Kreuznach, Stadt","type":"Stadt"},"district":{"key":"07133","name":"Bad Kreuznach","type":"Landkreis"},"federalState":{"key":"07","name":"Rheinland-Pfalz"}},{"name":"Pfalzstr.","postalCode":"55543","locality":"Bad Kreuznach","municipality":{"key":"07133006","name":"Bad Kreuznach, Stadt","type":"Stadt"},"district":{"key":"07133","name":"Bad Kreuznach","type":"Landkreis"},"federalState":{"key":"07","name":"Rheinland-Pfalz"}},{"name":"Pfalzstr.","postalCode":"55583","locality":"Bad Kreuznach","municipality":{"key":"07133006","name":"Bad Kreuznach, Stadt","type":"Stadt"},"district":{"key":"07133","name":"Bad Kreuznach","type":"Landkreis"},"federalState":{"key":"07","name":"Rheinland-Pfalz"}},{"name":"Pfarrer-Dr.-Nagel-Weg","postalCode":"55583","locality":"Bad Kreuznach","municipality":{"key":"07133006","name":"Bad Kreuznach, Stadt","type":"Stadt"},"district":{"key":"07133","name":"Bad Kreuznach","type":"Landkreis"},"federalState":{"key":"07","name":"Rheinland-Pfalz"}},{"name":"Pfarrer-Zimmermann-Weg","postalCode":"55583","locality":"Bad Kreuznach","municipality":{"key":"07133006","name":"Bad Kreuznach, Stadt","type":"Stadt"},"district":{"key":"07133","name":"Bad Kreuznach","type":"Landkreis"},"federalState":{"key":"07","name":"Rheinland-Pfalz"}},{"name":"Pfarrgarten","postalCode":"55545","locality":"Bad Kreuznach","municipality":{"key":"07133006","name":"Bad Kreuznach, Stadt","type":"Stadt"},"district":{"key":"07133","name":"Bad Kreuznach","type":"Landkreis"},"federalState":{"key":"07","name":"Rheinland-Pfalz"}},{"name":"Pfingstwiese","postalCode":"55545","locality":"Bad Kreuznach","municipality":{"key":"07133006","name":"Bad Kreuznach, Stadt","type":"Stadt"},"district":{"key":"07133","name":"Bad Kreuznach","type":"Landkreis"},"federalState":{"key":"07","name":"Rheinland-Pfalz"}},{"name":"Pfitznerstr.","postalCode":"55543","locality":"Bad Kreuznach","municipality":{"key":"07133006","name":"Bad Kreuznach, Stadt","type":"Stadt"},"district":{"key":"07133","name":"Bad Kreuznach","type":"Landkreis"},"federalState":{"key":"07","name":"Rheinland-Pfalz"}},{"name":"Philippstr.","postalCode":"55543","locality":"Bad Kreuznach","municipality":{"key":"07133006","name":"Bad Kreuznach, Stadt","type":"Stadt"},"district":{"key":"07133","name":"Bad Kreuznach","type":"Landkreis"},"federalState":{"key":"07","name":"Rheinland-Pfalz"}},{"name":"Planiger Str.","postalCode":"55543","locality":"Bad Kreuznach","municipality":{"key":"07133006","name":"Bad Kreuznach, Stadt","type":"Stadt"},"district":{"key":"07133","name":"Bad Kreuznach","type":"Landkreis"},"federalState":{"key":"07","name":"Rheinland-Pfalz"}},{"name":"Platz der ehemaligen Synagoge","postalCode":"55543","locality":"Bad Kreuznach","municipality":{"key":"07133006","name":"Bad Kreuznach, Stadt","type":"Stadt"},"district":{"key":"07133","name":"Bad Kreuznach","type":"Landkreis"},"federalState":{"key":"07","name":"Rheinland-Pfalz"}},{"name":"Pommernstr.","postalCode":"55545","locality":"Bad Kreuznach","municipality":{"key":"07133006","name":"Bad Kreuznach, Stadt","type":"Stadt"},"district":{"key":"07133","name":"Bad Kreuznach","type":"Landkreis"},"federalState":{"key":"07","name":"Rheinland-Pfalz"}},{"name":"Portugieserweg","postalCode":"55583","locality":"Bad Kreuznach","municipality":{"key":"07133006","name":"Bad Kreuznach, Stadt","type":"Stadt"},"district":{"key":"07133","name":"Bad Kreuznach","type":"Landkreis"},"federalState":{"key":"07","name":"Rheinland-Pfalz"}},{"name":"Poststr.","postalCode":"55545","locality":"Bad Kreuznach","municipality":{"key":"07133006","name":"Bad Kreuznach, Stadt","type":"Stadt"},"district":{"key":"07133","name":"Bad Kreuznach","type":"Landkreis"},"federalState":{"key":"07","name":"Rheinland-Pfalz"}},{"name":"Potsdamer Str.","postalCode":"55543","locality":"Bad Kreuznach","municipality":{"key":"07133006","name":"Bad Kreuznach, Stadt","type":"Stadt"},"district":{"key":"07133","name":"Bad Kreuznach","type":"Landkreis"},"federalState":{"key":"07","name":"Rheinland-Pfalz"}},{"name":"Potthoffstr.","postalCode":"55545","locality":"Bad Kreuznach","municipality":{"key":"07133006","name":"Bad Kreuznach, Stadt","type":"Stadt"},"district":{"key":"07133","name":"Bad Kreuznach","type":"Landkreis"},"federalState":{"key":"07","name":"Rheinland-Pfalz"}},{"name":"Pouilly-Brücke","postalCode":"55583","locality":"Bad Kreuznach","municipality":{"key":"07133006","name":"Bad Kreuznach, Stadt","type":"Stadt"},"district":{"key":"07133","name":"Bad Kreuznach","type":"Landkreis"},"federalState":{"key":"07","name":"Rheinland-Pfalz"}},{"name":"Prinz-Friedrich-Karl-Str.","postalCode":"55543","locality":"Bad Kreuznach","municipality":{"key":"07133006","name":"Bad Kreuznach, Stadt","type":"Stadt"},"district":{"key":"07133","name":"Bad Kreuznach","type":"Landkreis"},"federalState":{"key":"07","name":"Rheinland-Pfalz"}},{"name":"Rieslingweg","postalCode":"55559","locality":"Bretzenheim","municipality":{"key":"07133018","name":"Bretzenheim","type":"Kreisangehörige_Gemeinde"},"district":{"key":"07133","name":"Bad Kreuznach","type":"Landkreis"},"federalState":{"key":"07","name":"Rheinland-Pfalz"}},{"name":"Schildweiden","postalCode":"55559","locality":"Bretzenheim","municipality":{"key":"07133018","name":"Bretzenheim","type":"Kreisangehörige_Gemeinde"},"district":{"key":"07133","name":"Bad Kreuznach","type":"Landkreis"},"federalState":{"key":"07","name":"Rheinland-Pfalz"}},{"name":"Schlettweg","postalCode":"55559","locality":"Bretzenheim","municipality":{"key":"07133018","name":"Bretzenheim","type":"Kreisangehörige_Gemeinde"},"district":{"key":"07133","name":"Bad Kreuznach","type":"Landkreis"},"federalState":{"key":"07","name":"Rheinland-Pfalz"}},{"name":"Silvanerweg","postalCode":"55559","locality":"Bretzenheim","municipality":{"key":"07133018","name":"Bretzenheim","type":"Kreisangehörige_Gemeinde"},"district":{"key":"07133","name":"Bad Kreuznach","type":"Landkreis"},"federalState":{"key":"07","name":"Rheinland-Pfalz"}},{"name":"Stephanskapellenweg","postalCode":"55559","locality":"Bretzenheim","municipality":{"key":"07133018","name":"Bretzenheim","type":"Kreisangehörige_Gemeinde"},"district":{"key":"07133","name":"Bad Kreuznach","type":"Landkreis"},"federalState":{"key":"07","name":"Rheinland-Pfalz"}},{"name":"Teichstr.","postalCode":"55559","locality":"Bretzenheim","municipality":{"key":"07133018","name":"Bretzenheim","type":"Kreisangehörige_Gemeinde"},"district":{"key":"07133","name":"Bad Kreuznach","type":"Landkreis"},"federalState":{"key":"07","name":"Rheinland-Pfalz"}},{"name":"Turmstr.","postalCode":"55559","locality":"Bretzenheim","municipality":{"key":"07133018","name":"Bretzenheim","type":"Kreisangehörige_Gemeinde"},"district":{"key":"07133","name":"Bad Kreuznach","type":"Landkreis"},"federalState":{"key":"07","name":"Rheinland-Pfalz"}},{"name":"Uhlandstr.","postalCode":"55543","locality":"Bad Kreuznach","municipality":{"key":"07133006","name":"Bad Kreuznach, Stadt","type":"Stadt"},"district":{"key":"07133","name":"Bad Kreuznach","type":"Landkreis"},"federalState":{"key":"07","name":"Rheinland-Pfalz"}},{"name":"Ulmenweg","postalCode":"55543","locality":"Bad Kreuznach","municipality":{"key":"07133006","name":"Bad Kreuznach, Stadt","type":"Stadt"},"district":{"key":"07133","name":"Bad Kreuznach","type":"Landkreis"},"federalState":{"key":"07","name":"Rheinland-Pfalz"}},{"name":"Ulrich-von-Hutten-Str.","postalCode":"55583","locality":"Bad Kreuznach","municipality":{"key":"07133006","name":"Bad Kreuznach, Stadt","type":"Stadt"},"district":{"key":"07133","name":"Bad Kreuznach","type":"Landkreis"},"federalState":{"key":"07","name":"Rheinland-Pfalz"}},{"name":"Unter den Gärten","postalCode":"55545","locality":"Bad Kreuznach","municipality":{"key":"07133006","name":"Bad Kreuznach, Stadt","type":"Stadt"},"district":{"key":"07133","name":"Bad Kreuznach","type":"Landkreis"},"federalState":{"key":"07","name":"Rheinland-Pfalz"}},{"name":"Unter den Linden","postalCode":"55545","locality":"Bad Kreuznach","municipality":{"key":"07133006","name":"Bad Kreuznach, Stadt","type":"Stadt"},"district":{"key":"07133","name":"Bad Kreuznach","type":"Landkreis"},"federalState":{"key":"07","name":"Rheinland-Pfalz"}},{"name":"Unter der Bastei","postalCode":"55583","locality":"Bad Kreuznach","municipality":{"key":"07133006","name":"Bad Kreuznach, Stadt","type":"Stadt"},"district":{"key":"07133","name":"Bad Kreuznach","type":"Landkreis"},"federalState":{"key":"07","name":"Rheinland-Pfalz"}},{"name":"Van-Recum-Str.","postalCode":"55545","locality":"Bad Kreuznach","municipality":{"key":"07133006","name":"Bad Kreuznach, Stadt","type":"Stadt"},"district":{"key":"07133","name":"Bad Kreuznach","type":"Landkreis"},"federalState":{"key":"07","name":"Rheinland-Pfalz"}},{"name":"Victorinusstr.","postalCode":"55545","locality":"Bad Kreuznach","municipality":{"key":"07133006","name":"Bad Kreuznach, Stadt","type":"Stadt"},"district":{"key":"07133","name":"Bad Kreuznach","type":"Landkreis"},"federalState":{"key":"07","name":"Rheinland-Pfalz"}},{"name":"Viktoriastr.","postalCode":"55543","locality":"Bad Kreuznach","municipality":{"key":"07133006","name":"Bad Kreuznach, Stadt","type":"Stadt"},"district":{"key":"07133","name":"Bad Kreuznach","type":"Landkreis"},"federalState":{"key":"07","name":"Rheinland-Pfalz"}},{"name":"Vordere Grabenstr.","postalCode":"55545","locality":"Bad Kreuznach","municipality":{"key":"07133006","name":"Bad Kreuznach, Stadt","type":"Stadt"},"district":{"key":"07133","name":"Bad Kreuznach","type":"Landkreis"},"federalState":{"key":"07","name":"Rheinland-Pfalz"}},{"name":"Winkel","postalCode":"55559","locality":"Bretzenheim","municipality":{"key":"07133018","name":"Bretzenheim","type":"Kreisangehörige_Gemeinde"},"district":{"key":"07133","name":"Bad Kreuznach","type":"Landkreis"},"federalState":{"key":"07","name":"Rheinland-Pfalz"}},{"name":"Winzenheimer Str.","postalCode":"55559","locality":"Bretzenheim","municipality":{"key":"07133018","name":"Bretzenheim","type":"Kreisangehörige_Gemeinde"},"district":{"key":"07133","name":"Bad Kreuznach","type":"Landkreis"},"federalState":{"key":"07","name":"Rheinland-Pfalz"}},{"name":"Zehntbrückerstr.","postalCode":"55545","locality":"Bad Kreuznach","municipality":{"key":"07133006","name":"Bad Kreuznach, Stadt","type":"Stadt"},"district":{"key":"07133","name":"Bad Kreuznach","type":"Landkreis"},"federalState":{"key":"07","name":"Rheinland-Pfalz"}},{"name":"Zelterstr.","postalCode":"55545","locality":"Bad Kreuznach","municipality":{"key":"07133006","name":"Bad Kreuznach, Stadt","type":"Stadt"},"district":{"key":"07133","name":"Bad Kreuznach","type":"Landkreis"},"federalState":{"key":"07","name":"Rheinland-Pfalz"}},{"name":"Zum Klotz","postalCode":"55545","locality":"Bad Kreuznach","municipality":{"key":"07133006","name":"Bad Kreuznach, Stadt","type":"Stadt"},"district":{"key":"07133","name":"Bad Kreuznach","type":"Landkreis"},"federalState":{"key":"07","name":"Rheinland-Pfalz"}},{"name":"Zum Neuhof","postalCode":"55545","locality":"Bad Kreuznach","municipality":{"key":"07133006","name":"Bad Kreuznach, Stadt","type":"Stadt"},"district":{"key":"07133","name":"Bad Kreuznach","type":"Landkreis"},"federalState":{"key":"07","name":"Rheinland-Pfalz"}},{"name":"Zum Wacholder","postalCode":"55583","locality":"Bad Kreuznach","municipality":{"key":"07133006","name":"Bad Kreuznach, Stadt","type":"Stadt"},"district":{"key":"07133","name":"Bad Kreuznach","type":"Landkreis"},"federalState":{"key":"07","name":"Rheinland-Pfalz"}},{"name":"Zum Weihergrund","postalCode":"55545","locality":"Bad Kreuznach","municipality":{"key":"07133006","name":"Bad Kreuznach, Stadt","type":"Stadt"},"district":{"key":"07133","name":"Bad Kreuznach","type":"Landkreis"},"federalState":{"key":"07","name":"Rheinland-Pfalz"}},{"name":"Zur Alsenz","postalCode":"55583","locality":"Bad Kreuznach","municipality":{"key":"07133006","name":"Bad Kreuznach, Stadt","type":"Stadt"},"district":{"key":"07133","name":"Bad Kreuznach","type":"Landkreis"},"federalState":{"key":"07","name":"Rheinland-Pfalz"}},{"name":"Zur Klaster","postalCode":"55545","locality":"Bad Kreuznach","municipality":{"key":"07133006","name":"Bad Kreuznach, Stadt","type":"Stadt"},"district":{"key":"07133","name":"Bad Kreuznach","type":"Landkreis"},"federalState":{"key":"07","name":"Rheinland-Pfalz"}},{"name":"Zur Rosenhecke","postalCode":"55545","locality":"Bad Kreuznach","municipality":{"key":"07133006","name":"Bad Kreuznach, Stadt","type":"Stadt"},"district":{"key":"07133","name":"Bad Kreuznach","type":"Landkreis"},"federalState":{"key":"07","name":"Rheinland-Pfalz"}},{"name":"Zweiter Galgenberger Weg","postalCode":"55543","locality":"Bad Kreuznach","municipality":{"key":"07133006","name":"Bad Kreuznach, Stadt","type":"Stadt"},"district":{"key":"07133","name":"Bad Kreuznach","type":"Landkreis"},"federalState":{"key":"07","name":"Rheinland-Pfalz"}},{"name":"Zwischen den Birken","postalCode":"55545","locality":"Bad Kreuznach","municipality":{"key":"07133006","name":"Bad Kreuznach, Stadt","type":"Stadt"},"district":{"key":"07133","name":"Bad Kreuznach","type":"Landkreis"},"federalState":{"key":"07","name":"Rheinland-Pfalz"}},]