[{"name":"Ahornweg","postalCode":"89179","locality":"Beimerstetten","municipality":{"key":"08425014","name":"Beimerstetten","type":"Kreisangehörige_Gemeinde"},"district":{"key":"08425","name":"Alb-Donau-Kreis","type":"Landkreis"},"federalState":{"key":"08","name":"Baden-Württemberg"}},{"name":"Albrecht-Dürer-Weg","postalCode":"89179","locality":"Beimerstetten","municipality":{"key":"08425014","name":"Beimerstetten","type":"Kreisangehörige_Gemeinde"},"district":{"key":"08425","name":"Alb-Donau-Kreis","type":"Landkreis"},"federalState":{"key":"08","name":"Baden-Württemberg"}},{"name":"Am Hohlweg","postalCode":"89179","locality":"Beimerstetten","municipality":{"key":"08425014","name":"Beimerstetten","type":"Kreisangehörige_Gemeinde"},"district":{"key":"08425","name":"Alb-Donau-Kreis","type":"Landkreis"},"federalState":{"key":"08","name":"Baden-Württemberg"}},{"name":"Ankenweg","postalCode":"89179","locality":"Beimerstetten","municipality":{"key":"08425014","name":"Beimerstetten","type":"Kreisangehörige_Gemeinde"},"district":{"key":"08425","name":"Alb-Donau-Kreis","type":"Landkreis"},"federalState":{"key":"08","name":"Baden-Württemberg"}},{"name":"Bachweg","postalCode":"89179","locality":"Beimerstetten","municipality":{"key":"08425014","name":"Beimerstetten","type":"Kreisangehörige_Gemeinde"},"district":{"key":"08425","name":"Alb-Donau-Kreis","type":"Landkreis"},"federalState":{"key":"08","name":"Baden-Württemberg"}},{"name":"Bahnhof","postalCode":"89179","locality":"Beimerstetten","municipality":{"key":"08425014","name":"Beimerstetten","type":"Kreisangehörige_Gemeinde"},"district":{"key":"08425","name":"Alb-Donau-Kreis","type":"Landkreis"},"federalState":{"key":"08","name":"Baden-Württemberg"}},{"name":"Bahnhofstr.","postalCode":"89179","locality":"Beimerstetten","municipality":{"key":"08425014","name":"Beimerstetten","type":"Kreisangehörige_Gemeinde"},"district":{"key":"08425","name":"Alb-Donau-Kreis","type":"Landkreis"},"federalState":{"key":"08","name":"Baden-Württemberg"}},{"name":"Bernstadter Str.","postalCode":"89179","locality":"Beimerstetten","municipality":{"key":"08425014","name":"Beimerstetten","type":"Kreisangehörige_Gemeinde"},"district":{"key":"08425","name":"Alb-Donau-Kreis","type":"Landkreis"},"federalState":{"key":"08","name":"Baden-Württemberg"}},{"name":"Blumenweg","postalCode":"89179","locality":"Beimerstetten","municipality":{"key":"08425014","name":"Beimerstetten","type":"Kreisangehörige_Gemeinde"},"district":{"key":"08425","name":"Alb-Donau-Kreis","type":"Landkreis"},"federalState":{"key":"08","name":"Baden-Württemberg"}},{"name":"Breitinger Str.","postalCode":"89179","locality":"Beimerstetten","municipality":{"key":"08425014","name":"Beimerstetten","type":"Kreisangehörige_Gemeinde"},"district":{"key":"08425","name":"Alb-Donau-Kreis","type":"Landkreis"},"federalState":{"key":"08","name":"Baden-Württemberg"}},{"name":"Brucknerweg","postalCode":"89179","locality":"Beimerstetten","municipality":{"key":"08425014","name":"Beimerstetten","type":"Kreisangehörige_Gemeinde"},"district":{"key":"08425","name":"Alb-Donau-Kreis","type":"Landkreis"},"federalState":{"key":"08","name":"Baden-Württemberg"}},{"name":"Buchenweg","postalCode":"89179","locality":"Beimerstetten","municipality":{"key":"08425014","name":"Beimerstetten","type":"Kreisangehörige_Gemeinde"},"district":{"key":"08425","name":"Alb-Donau-Kreis","type":"Landkreis"},"federalState":{"key":"08","name":"Baden-Württemberg"}},{"name":"Dolenweg","postalCode":"89179","locality":"Beimerstetten","municipality":{"key":"08425014","name":"Beimerstetten","type":"Kreisangehörige_Gemeinde"},"district":{"key":"08425","name":"Alb-Donau-Kreis","type":"Landkreis"},"federalState":{"key":"08","name":"Baden-Württemberg"}},{"name":"Dornstadter Str.","postalCode":"89179","locality":"Beimerstetten","municipality":{"key":"08425014","name":"Beimerstetten","type":"Kreisangehörige_Gemeinde"},"district":{"key":"08425","name":"Alb-Donau-Kreis","type":"Landkreis"},"federalState":{"key":"08","name":"Baden-Württemberg"}},{"name":"Eichäckerweg","postalCode":"89179","locality":"Beimerstetten","municipality":{"key":"08425014","name":"Beimerstetten","type":"Kreisangehörige_Gemeinde"},"district":{"key":"08425","name":"Alb-Donau-Kreis","type":"Landkreis"},"federalState":{"key":"08","name":"Baden-Württemberg"}},{"name":"Einsteinstr.","postalCode":"89179","locality":"Beimerstetten","municipality":{"key":"08425014","name":"Beimerstetten","type":"Kreisangehörige_Gemeinde"},"district":{"key":"08425","name":"Alb-Donau-Kreis","type":"Landkreis"},"federalState":{"key":"08","name":"Baden-Württemberg"}},{"name":"Eiselauer Weg","postalCode":"89179","locality":"Beimerstetten","municipality":{"key":"08425014","name":"Beimerstetten","type":"Kreisangehörige_Gemeinde"},"district":{"key":"08425","name":"Alb-Donau-Kreis","type":"Landkreis"},"federalState":{"key":"08","name":"Baden-Württemberg"}},{"name":"Fildeweg","postalCode":"89179","locality":"Beimerstetten","municipality":{"key":"08425014","name":"Beimerstetten","type":"Kreisangehörige_Gemeinde"},"district":{"key":"08425","name":"Alb-Donau-Kreis","type":"Landkreis"},"federalState":{"key":"08","name":"Baden-Württemberg"}},{"name":"Friedenstr.","postalCode":"89179","locality":"Beimerstetten","municipality":{"key":"08425014","name":"Beimerstetten","type":"Kreisangehörige_Gemeinde"},"district":{"key":"08425","name":"Alb-Donau-Kreis","type":"Landkreis"},"federalState":{"key":"08","name":"Baden-Württemberg"}},{"name":"Gängle","postalCode":"89179","locality":"Beimerstetten","municipality":{"key":"08425014","name":"Beimerstetten","type":"Kreisangehörige_Gemeinde"},"district":{"key":"08425","name":"Alb-Donau-Kreis","type":"Landkreis"},"federalState":{"key":"08","name":"Baden-Württemberg"}},{"name":"Gartenstr.","postalCode":"89179","locality":"Beimerstetten","municipality":{"key":"08425014","name":"Beimerstetten","type":"Kreisangehörige_Gemeinde"},"district":{"key":"08425","name":"Alb-Donau-Kreis","type":"Landkreis"},"federalState":{"key":"08","name":"Baden-Württemberg"}},{"name":"Goethestr.","postalCode":"89179","locality":"Beimerstetten","municipality":{"key":"08425014","name":"Beimerstetten","type":"Kreisangehörige_Gemeinde"},"district":{"key":"08425","name":"Alb-Donau-Kreis","type":"Landkreis"},"federalState":{"key":"08","name":"Baden-Württemberg"}},{"name":"Großer Spielplatz Beimerstetten","postalCode":"89179","locality":"Beimerstetten","municipality":{"key":"08425014","name":"Beimerstetten","type":"Kreisangehörige_Gemeinde"},"district":{"key":"08425","name":"Alb-Donau-Kreis","type":"Landkreis"},"federalState":{"key":"08","name":"Baden-Württemberg"}},{"name":"Hagener Tobel","postalCode":"89179","locality":"Beimerstetten","municipality":{"key":"08425014","name":"Beimerstetten","type":"Kreisangehörige_Gemeinde"},"district":{"key":"08425","name":"Alb-Donau-Kreis","type":"Landkreis"},"federalState":{"key":"08","name":"Baden-Württemberg"}},{"name":"Hagener Weg","postalCode":"89179","locality":"Beimerstetten","municipality":{"key":"08425014","name":"Beimerstetten","type":"Kreisangehörige_Gemeinde"},"district":{"key":"08425","name":"Alb-Donau-Kreis","type":"Landkreis"},"federalState":{"key":"08","name":"Baden-Württemberg"}},{"name":"Haitelweg","postalCode":"89179","locality":"Beimerstetten","municipality":{"key":"08425014","name":"Beimerstetten","type":"Kreisangehörige_Gemeinde"},"district":{"key":"08425","name":"Alb-Donau-Kreis","type":"Landkreis"},"federalState":{"key":"08","name":"Baden-Württemberg"}},{"name":"Heuweg","postalCode":"89179","locality":"Beimerstetten","municipality":{"key":"08425014","name":"Beimerstetten","type":"Kreisangehörige_Gemeinde"},"district":{"key":"08425","name":"Alb-Donau-Kreis","type":"Landkreis"},"federalState":{"key":"08","name":"Baden-Württemberg"}},{"name":"Hinter den Gärten","postalCode":"89179","locality":"Beimerstetten","municipality":{"key":"08425014","name":"Beimerstetten","type":"Kreisangehörige_Gemeinde"},"district":{"key":"08425","name":"Alb-Donau-Kreis","type":"Landkreis"},"federalState":{"key":"08","name":"Baden-Württemberg"}},{"name":"Hinter den Wiesen","postalCode":"89179","locality":"Beimerstetten","municipality":{"key":"08425014","name":"Beimerstetten","type":"Kreisangehörige_Gemeinde"},"district":{"key":"08425","name":"Alb-Donau-Kreis","type":"Landkreis"},"federalState":{"key":"08","name":"Baden-Württemberg"}},{"name":"Hörvelsinger Weg","postalCode":"89179","locality":"Beimerstetten","municipality":{"key":"08425014","name":"Beimerstetten","type":"Kreisangehörige_Gemeinde"},"district":{"key":"08425","name":"Alb-Donau-Kreis","type":"Landkreis"},"federalState":{"key":"08","name":"Baden-Württemberg"}},{"name":"Im Bühl","postalCode":"89179","locality":"Beimerstetten","municipality":{"key":"08425014","name":"Beimerstetten","type":"Kreisangehörige_Gemeinde"},"district":{"key":"08425","name":"Alb-Donau-Kreis","type":"Landkreis"},"federalState":{"key":"08","name":"Baden-Württemberg"}},{"name":"In der Strenge","postalCode":"89179","locality":"Beimerstetten","municipality":{"key":"08425014","name":"Beimerstetten","type":"Kreisangehörige_Gemeinde"},"district":{"key":"08425","name":"Alb-Donau-Kreis","type":"Landkreis"},"federalState":{"key":"08","name":"Baden-Württemberg"}},{"name":"Kirchgasse","postalCode":"89179","locality":"Beimerstetten","municipality":{"key":"08425014","name":"Beimerstetten","type":"Kreisangehörige_Gemeinde"},"district":{"key":"08425","name":"Alb-Donau-Kreis","type":"Landkreis"},"federalState":{"key":"08","name":"Baden-Württemberg"}},{"name":"Kornackerweg","postalCode":"89179","locality":"Beimerstetten","municipality":{"key":"08425014","name":"Beimerstetten","type":"Kreisangehörige_Gemeinde"},"district":{"key":"08425","name":"Alb-Donau-Kreis","type":"Landkreis"},"federalState":{"key":"08","name":"Baden-Württemberg"}},{"name":"Krautgartenweg","postalCode":"89179","locality":"Beimerstetten","municipality":{"key":"08425014","name":"Beimerstetten","type":"Kreisangehörige_Gemeinde"},"district":{"key":"08425","name":"Alb-Donau-Kreis","type":"Landkreis"},"federalState":{"key":"08","name":"Baden-Württemberg"}},{"name":"Lehenweg","postalCode":"89179","locality":"Beimerstetten","municipality":{"key":"08425014","name":"Beimerstetten","type":"Kreisangehörige_Gemeinde"},"district":{"key":"08425","name":"Alb-Donau-Kreis","type":"Landkreis"},"federalState":{"key":"08","name":"Baden-Württemberg"}},{"name":"Lerchenweg","postalCode":"89179","locality":"Beimerstetten","municipality":{"key":"08425014","name":"Beimerstetten","type":"Kreisangehörige_Gemeinde"},"district":{"key":"08425","name":"Alb-Donau-Kreis","type":"Landkreis"},"federalState":{"key":"08","name":"Baden-Württemberg"}},{"name":"Lindenackerweg","postalCode":"89179","locality":"Beimerstetten","municipality":{"key":"08425014","name":"Beimerstetten","type":"Kreisangehörige_Gemeinde"},"district":{"key":"08425","name":"Alb-Donau-Kreis","type":"Landkreis"},"federalState":{"key":"08","name":"Baden-Württemberg"}},{"name":"Lindenberg","postalCode":"89179","locality":"Beimerstetten","municipality":{"key":"08425014","name":"Beimerstetten","type":"Kreisangehörige_Gemeinde"},"district":{"key":"08425","name":"Alb-Donau-Kreis","type":"Landkreis"},"federalState":{"key":"08","name":"Baden-Württemberg"}},{"name":"Lohäckerweg","postalCode":"89179","locality":"Beimerstetten","municipality":{"key":"08425014","name":"Beimerstetten","type":"Kreisangehörige_Gemeinde"},"district":{"key":"08425","name":"Alb-Donau-Kreis","type":"Landkreis"},"federalState":{"key":"08","name":"Baden-Württemberg"}},{"name":"Mörikeweg","postalCode":"89179","locality":"Beimerstetten","municipality":{"key":"08425014","name":"Beimerstetten","type":"Kreisangehörige_Gemeinde"},"district":{"key":"08425","name":"Alb-Donau-Kreis","type":"Landkreis"},"federalState":{"key":"08","name":"Baden-Württemberg"}},{"name":"Mozartweg","postalCode":"89179","locality":"Beimerstetten","municipality":{"key":"08425014","name":"Beimerstetten","type":"Kreisangehörige_Gemeinde"},"district":{"key":"08425","name":"Alb-Donau-Kreis","type":"Landkreis"},"federalState":{"key":"08","name":"Baden-Württemberg"}},{"name":"Neue Str.","postalCode":"89179","locality":"Beimerstetten","municipality":{"key":"08425014","name":"Beimerstetten","type":"Kreisangehörige_Gemeinde"},"district":{"key":"08425","name":"Alb-Donau-Kreis","type":"Landkreis"},"federalState":{"key":"08","name":"Baden-Württemberg"}},{"name":"Obstwiesenweg","postalCode":"89179","locality":"Beimerstetten","municipality":{"key":"08425014","name":"Beimerstetten","type":"Kreisangehörige_Gemeinde"},"district":{"key":"08425","name":"Alb-Donau-Kreis","type":"Landkreis"},"federalState":{"key":"08","name":"Baden-Württemberg"}},{"name":"Ringstr.","postalCode":"89179","locality":"Beimerstetten","municipality":{"key":"08425014","name":"Beimerstetten","type":"Kreisangehörige_Gemeinde"},"district":{"key":"08425","name":"Alb-Donau-Kreis","type":"Landkreis"},"federalState":{"key":"08","name":"Baden-Württemberg"}},{"name":"Robert-Bosch-Str.","postalCode":"89179","locality":"Beimerstetten","municipality":{"key":"08425014","name":"Beimerstetten","type":"Kreisangehörige_Gemeinde"},"district":{"key":"08425","name":"Alb-Donau-Kreis","type":"Landkreis"},"federalState":{"key":"08","name":"Baden-Württemberg"}},{"name":"Rübenäckerweg","postalCode":"89179","locality":"Beimerstetten","municipality":{"key":"08425014","name":"Beimerstetten","type":"Kreisangehörige_Gemeinde"},"district":{"key":"08425","name":"Alb-Donau-Kreis","type":"Landkreis"},"federalState":{"key":"08","name":"Baden-Württemberg"}},{"name":"Schillerstr.","postalCode":"89179","locality":"Beimerstetten","municipality":{"key":"08425014","name":"Beimerstetten","type":"Kreisangehörige_Gemeinde"},"district":{"key":"08425","name":"Alb-Donau-Kreis","type":"Landkreis"},"federalState":{"key":"08","name":"Baden-Württemberg"}},{"name":"Schubertweg","postalCode":"89179","locality":"Beimerstetten","municipality":{"key":"08425014","name":"Beimerstetten","type":"Kreisangehörige_Gemeinde"},"district":{"key":"08425","name":"Alb-Donau-Kreis","type":"Landkreis"},"federalState":{"key":"08","name":"Baden-Württemberg"}},{"name":"Seeweg","postalCode":"89179","locality":"Beimerstetten","municipality":{"key":"08425014","name":"Beimerstetten","type":"Kreisangehörige_Gemeinde"},"district":{"key":"08425","name":"Alb-Donau-Kreis","type":"Landkreis"},"federalState":{"key":"08","name":"Baden-Württemberg"}},{"name":"Silcherstr.","postalCode":"89179","locality":"Beimerstetten","municipality":{"key":"08425014","name":"Beimerstetten","type":"Kreisangehörige_Gemeinde"},"district":{"key":"08425","name":"Alb-Donau-Kreis","type":"Landkreis"},"federalState":{"key":"08","name":"Baden-Württemberg"}},{"name":"Uhlandstr.","postalCode":"89179","locality":"Beimerstetten","municipality":{"key":"08425014","name":"Beimerstetten","type":"Kreisangehörige_Gemeinde"},"district":{"key":"08425","name":"Alb-Donau-Kreis","type":"Landkreis"},"federalState":{"key":"08","name":"Baden-Württemberg"}},{"name":"Ulmer Str.","postalCode":"89179","locality":"Beimerstetten","municipality":{"key":"08425014","name":"Beimerstetten","type":"Kreisangehörige_Gemeinde"},"district":{"key":"08425","name":"Alb-Donau-Kreis","type":"Landkreis"},"federalState":{"key":"08","name":"Baden-Württemberg"}},{"name":"Vordere Str.","postalCode":"89179","locality":"Beimerstetten","municipality":{"key":"08425014","name":"Beimerstetten","type":"Kreisangehörige_Gemeinde"},"district":{"key":"08425","name":"Alb-Donau-Kreis","type":"Landkreis"},"federalState":{"key":"08","name":"Baden-Württemberg"}},{"name":"zum Fetzerbrunnen","postalCode":"89179","locality":"Beimerstetten","municipality":{"key":"08425014","name":"Beimerstetten","type":"Kreisangehörige_Gemeinde"},"district":{"key":"08425","name":"Alb-Donau-Kreis","type":"Landkreis"},"federalState":{"key":"08","name":"Baden-Württemberg"}},]