[{"name":"Abt-Gilbert-Michl-Str.","postalCode":"86989","locality":"Steingaden","municipality":{"key":"09190154","name":"Steingaden","type":"Kreisangehörige_Gemeinde"},"district":{"key":"09190","name":"Weilheim-Schongau","type":"Landkreis"},"federalState":{"key":"09","name":"Bayern"}},{"name":"Abt-Marianus-Mayr-Str.","postalCode":"86989","locality":"Steingaden","municipality":{"key":"09190154","name":"Steingaden","type":"Kreisangehörige_Gemeinde"},"district":{"key":"09190","name":"Weilheim-Schongau","type":"Landkreis"},"federalState":{"key":"09","name":"Bayern"}},{"name":"Aggensteinstr.","postalCode":"86989","locality":"Steingaden","municipality":{"key":"09190154","name":"Steingaden","type":"Kreisangehörige_Gemeinde"},"district":{"key":"09190","name":"Weilheim-Schongau","type":"Landkreis"},"federalState":{"key":"09","name":"Bayern"}},{"name":"Ahornstr.","postalCode":"86989","locality":"Steingaden","municipality":{"key":"09190154","name":"Steingaden","type":"Kreisangehörige_Gemeinde"},"district":{"key":"09190","name":"Weilheim-Schongau","type":"Landkreis"},"federalState":{"key":"09","name":"Bayern"}},{"name":"Ammergauer Str.","postalCode":"86989","locality":"Steingaden","municipality":{"key":"09190154","name":"Steingaden","type":"Kreisangehörige_Gemeinde"},"district":{"key":"09190","name":"Weilheim-Schongau","type":"Landkreis"},"federalState":{"key":"09","name":"Bayern"}},{"name":"Angerweg","postalCode":"86989","locality":"Steingaden","municipality":{"key":"09190154","name":"Steingaden","type":"Kreisangehörige_Gemeinde"},"district":{"key":"09190","name":"Weilheim-Schongau","type":"Landkreis"},"federalState":{"key":"09","name":"Bayern"}},{"name":"Auerbergstr.","postalCode":"86989","locality":"Steingaden","municipality":{"key":"09190154","name":"Steingaden","type":"Kreisangehörige_Gemeinde"},"district":{"key":"09190","name":"Weilheim-Schongau","type":"Landkreis"},"federalState":{"key":"09","name":"Bayern"}},{"name":"Auf der Egg","postalCode":"86989","locality":"Steingaden","municipality":{"key":"09190154","name":"Steingaden","type":"Kreisangehörige_Gemeinde"},"district":{"key":"09190","name":"Weilheim-Schongau","type":"Landkreis"},"federalState":{"key":"09","name":"Bayern"}},{"name":"Biberschwöll","postalCode":"86989","locality":"Steingaden","municipality":{"key":"09190154","name":"Steingaden","type":"Kreisangehörige_Gemeinde"},"district":{"key":"09190","name":"Weilheim-Schongau","type":"Landkreis"},"federalState":{"key":"09","name":"Bayern"}},{"name":"Breitenbergstr.","postalCode":"86989","locality":"Steingaden","municipality":{"key":"09190154","name":"Steingaden","type":"Kreisangehörige_Gemeinde"},"district":{"key":"09190","name":"Weilheim-Schongau","type":"Landkreis"},"federalState":{"key":"09","name":"Bayern"}},{"name":"Brüder-Zimmermann-Str.","postalCode":"86989","locality":"Steingaden","municipality":{"key":"09190154","name":"Steingaden","type":"Kreisangehörige_Gemeinde"},"district":{"key":"09190","name":"Weilheim-Schongau","type":"Landkreis"},"federalState":{"key":"09","name":"Bayern"}},{"name":"Buchenstr.","postalCode":"86989","locality":"Steingaden","municipality":{"key":"09190154","name":"Steingaden","type":"Kreisangehörige_Gemeinde"},"district":{"key":"09190","name":"Weilheim-Schongau","type":"Landkreis"},"federalState":{"key":"09","name":"Bayern"}},{"name":"Bürgermeister-Weeber-Str.","postalCode":"86989","locality":"Steingaden","municipality":{"key":"09190154","name":"Steingaden","type":"Kreisangehörige_Gemeinde"},"district":{"key":"09190","name":"Weilheim-Schongau","type":"Landkreis"},"federalState":{"key":"09","name":"Bayern"}},{"name":"Dorfstr.","postalCode":"86989","locality":"Steingaden","municipality":{"key":"09190154","name":"Steingaden","type":"Kreisangehörige_Gemeinde"},"district":{"key":"09190","name":"Weilheim-Schongau","type":"Landkreis"},"federalState":{"key":"09","name":"Bayern"}},{"name":"Eggweg","postalCode":"86989","locality":"Steingaden","municipality":{"key":"09190154","name":"Steingaden","type":"Kreisangehörige_Gemeinde"},"district":{"key":"09190","name":"Weilheim-Schongau","type":"Landkreis"},"federalState":{"key":"09","name":"Bayern"}},{"name":"Firstbergstr.","postalCode":"86989","locality":"Steingaden","municipality":{"key":"09190154","name":"Steingaden","type":"Kreisangehörige_Gemeinde"},"district":{"key":"09190","name":"Weilheim-Schongau","type":"Landkreis"},"federalState":{"key":"09","name":"Bayern"}},{"name":"Fohlenhof","postalCode":"86989","locality":"Steingaden","municipality":{"key":"09190154","name":"Steingaden","type":"Kreisangehörige_Gemeinde"},"district":{"key":"09190","name":"Weilheim-Schongau","type":"Landkreis"},"federalState":{"key":"09","name":"Bayern"}},{"name":"Fohlenhofstr.","postalCode":"86989","locality":"Steingaden","municipality":{"key":"09190154","name":"Steingaden","type":"Kreisangehörige_Gemeinde"},"district":{"key":"09190","name":"Weilheim-Schongau","type":"Landkreis"},"federalState":{"key":"09","name":"Bayern"}},{"name":"Friedhofweg","postalCode":"86989","locality":"Steingaden","municipality":{"key":"09190154","name":"Steingaden","type":"Kreisangehörige_Gemeinde"},"district":{"key":"09190","name":"Weilheim-Schongau","type":"Landkreis"},"federalState":{"key":"09","name":"Bayern"}},{"name":"Füssener Str.","postalCode":"86989","locality":"Steingaden","municipality":{"key":"09190154","name":"Steingaden","type":"Kreisangehörige_Gemeinde"},"district":{"key":"09190","name":"Weilheim-Schongau","type":"Landkreis"},"federalState":{"key":"09","name":"Bayern"}},{"name":"Geiselsteinstr.","postalCode":"86989","locality":"Steingaden","municipality":{"key":"09190154","name":"Steingaden","type":"Kreisangehörige_Gemeinde"},"district":{"key":"09190","name":"Weilheim-Schongau","type":"Landkreis"},"federalState":{"key":"09","name":"Bayern"}},{"name":"Geistbichlstr.","postalCode":"86989","locality":"Steingaden","municipality":{"key":"09190154","name":"Steingaden","type":"Kreisangehörige_Gemeinde"},"district":{"key":"09190","name":"Weilheim-Schongau","type":"Landkreis"},"federalState":{"key":"09","name":"Bayern"}},{"name":"Graben","postalCode":"86989","locality":"Steingaden","municipality":{"key":"09190154","name":"Steingaden","type":"Kreisangehörige_Gemeinde"},"district":{"key":"09190","name":"Weilheim-Schongau","type":"Landkreis"},"federalState":{"key":"09","name":"Bayern"}},{"name":"Graf-Dürckheim-Str.","postalCode":"86989","locality":"Steingaden","municipality":{"key":"09190154","name":"Steingaden","type":"Kreisangehörige_Gemeinde"},"district":{"key":"09190","name":"Weilheim-Schongau","type":"Landkreis"},"federalState":{"key":"09","name":"Bayern"}},{"name":"Grubfeldweg","postalCode":"86989","locality":"Steingaden","municipality":{"key":"09190154","name":"Steingaden","type":"Kreisangehörige_Gemeinde"},"district":{"key":"09190","name":"Weilheim-Schongau","type":"Landkreis"},"federalState":{"key":"09","name":"Bayern"}},{"name":"Hammerschmiedstr.","postalCode":"86989","locality":"Steingaden","municipality":{"key":"09190154","name":"Steingaden","type":"Kreisangehörige_Gemeinde"},"district":{"key":"09190","name":"Weilheim-Schongau","type":"Landkreis"},"federalState":{"key":"09","name":"Bayern"}},{"name":"Hochplattstr.","postalCode":"86989","locality":"Steingaden","municipality":{"key":"09190154","name":"Steingaden","type":"Kreisangehörige_Gemeinde"},"district":{"key":"09190","name":"Weilheim-Schongau","type":"Landkreis"},"federalState":{"key":"09","name":"Bayern"}},{"name":"Hopfenfeldstr.","postalCode":"86989","locality":"Steingaden","municipality":{"key":"09190154","name":"Steingaden","type":"Kreisangehörige_Gemeinde"},"district":{"key":"09190","name":"Weilheim-Schongau","type":"Landkreis"},"federalState":{"key":"09","name":"Bayern"}},{"name":"Keltenstr.","postalCode":"86989","locality":"Steingaden","municipality":{"key":"09190154","name":"Steingaden","type":"Kreisangehörige_Gemeinde"},"district":{"key":"09190","name":"Weilheim-Schongau","type":"Landkreis"},"federalState":{"key":"09","name":"Bayern"}},{"name":"Kindergartenweg","postalCode":"86989","locality":"Steingaden","municipality":{"key":"09190154","name":"Steingaden","type":"Kreisangehörige_Gemeinde"},"district":{"key":"09190","name":"Weilheim-Schongau","type":"Landkreis"},"federalState":{"key":"09","name":"Bayern"}},{"name":"Kirchenstr.","postalCode":"86989","locality":"Steingaden","municipality":{"key":"09190154","name":"Steingaden","type":"Kreisangehörige_Gemeinde"},"district":{"key":"09190","name":"Weilheim-Schongau","type":"Landkreis"},"federalState":{"key":"09","name":"Bayern"}},{"name":"Kissingerstr.","postalCode":"86989","locality":"Steingaden","municipality":{"key":"09190154","name":"Steingaden","type":"Kreisangehörige_Gemeinde"},"district":{"key":"09190","name":"Weilheim-Schongau","type":"Landkreis"},"federalState":{"key":"09","name":"Bayern"}},{"name":"Klammspitzstr.","postalCode":"86989","locality":"Steingaden","municipality":{"key":"09190154","name":"Steingaden","type":"Kreisangehörige_Gemeinde"},"district":{"key":"09190","name":"Weilheim-Schongau","type":"Landkreis"},"federalState":{"key":"09","name":"Bayern"}},{"name":"Königsstr.","postalCode":"86989","locality":"Steingaden","municipality":{"key":"09190154","name":"Steingaden","type":"Kreisangehörige_Gemeinde"},"district":{"key":"09190","name":"Weilheim-Schongau","type":"Landkreis"},"federalState":{"key":"09","name":"Bayern"}},{"name":"Krankenhausstr.","postalCode":"86989","locality":"Steingaden","municipality":{"key":"09190154","name":"Steingaden","type":"Kreisangehörige_Gemeinde"},"district":{"key":"09190","name":"Weilheim-Schongau","type":"Landkreis"},"federalState":{"key":"09","name":"Bayern"}},{"name":"Krummbachstr.","postalCode":"86989","locality":"Steingaden","municipality":{"key":"09190154","name":"Steingaden","type":"Kreisangehörige_Gemeinde"},"district":{"key":"09190","name":"Weilheim-Schongau","type":"Landkreis"},"federalState":{"key":"09","name":"Bayern"}},{"name":"Landgrafstr.","postalCode":"86989","locality":"Steingaden","municipality":{"key":"09190154","name":"Steingaden","type":"Kreisangehörige_Gemeinde"},"district":{"key":"09190","name":"Weilheim-Schongau","type":"Landkreis"},"federalState":{"key":"09","name":"Bayern"}},{"name":"Lechbrucker Str.","postalCode":"86989","locality":"Steingaden","municipality":{"key":"09190154","name":"Steingaden","type":"Kreisangehörige_Gemeinde"},"district":{"key":"09190","name":"Weilheim-Schongau","type":"Landkreis"},"federalState":{"key":"09","name":"Bayern"}},{"name":"Loristr.","postalCode":"86989","locality":"Steingaden","municipality":{"key":"09190154","name":"Steingaden","type":"Kreisangehörige_Gemeinde"},"district":{"key":"09190","name":"Weilheim-Schongau","type":"Landkreis"},"federalState":{"key":"09","name":"Bayern"}},{"name":"Marie-Eberth-Str.","postalCode":"86989","locality":"Steingaden","municipality":{"key":"09190154","name":"Steingaden","type":"Kreisangehörige_Gemeinde"},"district":{"key":"09190","name":"Weilheim-Schongau","type":"Landkreis"},"federalState":{"key":"09","name":"Bayern"}},{"name":"Marktplatz","postalCode":"86989","locality":"Steingaden","municipality":{"key":"09190154","name":"Steingaden","type":"Kreisangehörige_Gemeinde"},"district":{"key":"09190","name":"Weilheim-Schongau","type":"Landkreis"},"federalState":{"key":"09","name":"Bayern"}},{"name":"Mößmerstr.","postalCode":"86989","locality":"Steingaden","municipality":{"key":"09190154","name":"Steingaden","type":"Kreisangehörige_Gemeinde"},"district":{"key":"09190","name":"Weilheim-Schongau","type":"Landkreis"},"federalState":{"key":"09","name":"Bayern"}},{"name":"Mühlfeldweg","postalCode":"86989","locality":"Steingaden","municipality":{"key":"09190154","name":"Steingaden","type":"Kreisangehörige_Gemeinde"},"district":{"key":"09190","name":"Weilheim-Schongau","type":"Landkreis"},"federalState":{"key":"09","name":"Bayern"}},{"name":"Neuhausstr.","postalCode":"86989","locality":"Steingaden","municipality":{"key":"09190154","name":"Steingaden","type":"Kreisangehörige_Gemeinde"},"district":{"key":"09190","name":"Weilheim-Schongau","type":"Landkreis"},"federalState":{"key":"09","name":"Bayern"}},{"name":"Osterbichlstr.","postalCode":"86989","locality":"Steingaden","municipality":{"key":"09190154","name":"Steingaden","type":"Kreisangehörige_Gemeinde"},"district":{"key":"09190","name":"Weilheim-Schongau","type":"Landkreis"},"federalState":{"key":"09","name":"Bayern"}},{"name":"Prämonstratenserstr.","postalCode":"86989","locality":"Steingaden","municipality":{"key":"09190154","name":"Steingaden","type":"Kreisangehörige_Gemeinde"},"district":{"key":"09190","name":"Weilheim-Schongau","type":"Landkreis"},"federalState":{"key":"09","name":"Bayern"}},{"name":"Riesener Str.","postalCode":"86989","locality":"Steingaden","municipality":{"key":"09190154","name":"Steingaden","type":"Kreisangehörige_Gemeinde"},"district":{"key":"09190","name":"Weilheim-Schongau","type":"Landkreis"},"federalState":{"key":"09","name":"Bayern"}},{"name":"Sandgrabener Str.","postalCode":"86989","locality":"Steingaden","municipality":{"key":"09190154","name":"Steingaden","type":"Kreisangehörige_Gemeinde"},"district":{"key":"09190","name":"Weilheim-Schongau","type":"Landkreis"},"federalState":{"key":"09","name":"Bayern"}},{"name":"Sankt-Norbert-Str.","postalCode":"86989","locality":"Steingaden","municipality":{"key":"09190154","name":"Steingaden","type":"Kreisangehörige_Gemeinde"},"district":{"key":"09190","name":"Weilheim-Schongau","type":"Landkreis"},"federalState":{"key":"09","name":"Bayern"}},{"name":"Säulingstr.","postalCode":"86989","locality":"Steingaden","municipality":{"key":"09190154","name":"Steingaden","type":"Kreisangehörige_Gemeinde"},"district":{"key":"09190","name":"Weilheim-Schongau","type":"Landkreis"},"federalState":{"key":"09","name":"Bayern"}},{"name":"Schlatt","postalCode":"86989","locality":"Steingaden","municipality":{"key":"09190154","name":"Steingaden","type":"Kreisangehörige_Gemeinde"},"district":{"key":"09190","name":"Weilheim-Schongau","type":"Landkreis"},"federalState":{"key":"09","name":"Bayern"}},{"name":"Schlögelmühlstr.","postalCode":"86989","locality":"Steingaden","municipality":{"key":"09190154","name":"Steingaden","type":"Kreisangehörige_Gemeinde"},"district":{"key":"09190","name":"Weilheim-Schongau","type":"Landkreis"},"federalState":{"key":"09","name":"Bayern"}},{"name":"Schongauer Str.","postalCode":"86989","locality":"Steingaden","municipality":{"key":"09190154","name":"Steingaden","type":"Kreisangehörige_Gemeinde"},"district":{"key":"09190","name":"Weilheim-Schongau","type":"Landkreis"},"federalState":{"key":"09","name":"Bayern"}},{"name":"Schuttdeponie Steingaden","postalCode":"86989","locality":"Steingaden","municipality":{"key":"09190154","name":"Steingaden","type":"Kreisangehörige_Gemeinde"},"district":{"key":"09190","name":"Weilheim-Schongau","type":"Landkreis"},"federalState":{"key":"09","name":"Bayern"}},{"name":"ST2","postalCode":"86989","locality":"Steingaden","municipality":{"key":"09190154","name":"Steingaden","type":"Kreisangehörige_Gemeinde"},"district":{"key":"09190","name":"Weilheim-Schongau","type":"Landkreis"},"federalState":{"key":"09","name":"Bayern"}},{"name":"Steingädele","postalCode":"86989","locality":"Steingaden","municipality":{"key":"09190154","name":"Steingaden","type":"Kreisangehörige_Gemeinde"},"district":{"key":"09190","name":"Weilheim-Schongau","type":"Landkreis"},"federalState":{"key":"09","name":"Bayern"}},{"name":"Storchenmoosstr.","postalCode":"86989","locality":"Steingaden","municipality":{"key":"09190154","name":"Steingaden","type":"Kreisangehörige_Gemeinde"},"district":{"key":"09190","name":"Weilheim-Schongau","type":"Landkreis"},"federalState":{"key":"09","name":"Bayern"}},{"name":"Tegelbergstr.","postalCode":"86989","locality":"Steingaden","municipality":{"key":"09190154","name":"Steingaden","type":"Kreisangehörige_Gemeinde"},"district":{"key":"09190","name":"Weilheim-Schongau","type":"Landkreis"},"federalState":{"key":"09","name":"Bayern"}},{"name":"Ulmenstr.","postalCode":"86989","locality":"Steingaden","municipality":{"key":"09190154","name":"Steingaden","type":"Kreisangehörige_Gemeinde"},"district":{"key":"09190","name":"Weilheim-Schongau","type":"Landkreis"},"federalState":{"key":"09","name":"Bayern"}},{"name":"Waldlehrpfad","postalCode":"86989","locality":"Steingaden","municipality":{"key":"09190154","name":"Steingaden","type":"Kreisangehörige_Gemeinde"},"district":{"key":"09190","name":"Weilheim-Schongau","type":"Landkreis"},"federalState":{"key":"09","name":"Bayern"}},{"name":"Weidenstr.","postalCode":"86989","locality":"Steingaden","municipality":{"key":"09190154","name":"Steingaden","type":"Kreisangehörige_Gemeinde"},"district":{"key":"09190","name":"Weilheim-Schongau","type":"Landkreis"},"federalState":{"key":"09","name":"Bayern"}},{"name":"Welfenstr.","postalCode":"86989","locality":"Steingaden","municipality":{"key":"09190154","name":"Steingaden","type":"Kreisangehörige_Gemeinde"},"district":{"key":"09190","name":"Weilheim-Schongau","type":"Landkreis"},"federalState":{"key":"09","name":"Bayern"}},]