[{"name":"Am Hüttenberg","postalCode":"54422","locality":"Züsch","municipality":{"key":"07235153","name":"Züsch","type":"Kreisangehörige_Gemeinde"},"district":{"key":"07235","name":"Trier-Saarburg","type":"Landkreis"},"federalState":{"key":"07","name":"Rheinland-Pfalz"}},{"name":"Am Mühlenberg","postalCode":"54422","locality":"Züsch","municipality":{"key":"07235153","name":"Züsch","type":"Kreisangehörige_Gemeinde"},"district":{"key":"07235","name":"Trier-Saarburg","type":"Landkreis"},"federalState":{"key":"07","name":"Rheinland-Pfalz"}},{"name":"Bergstr.","postalCode":"54422","locality":"Züsch","municipality":{"key":"07235153","name":"Züsch","type":"Kreisangehörige_Gemeinde"},"district":{"key":"07235","name":"Trier-Saarburg","type":"Landkreis"},"federalState":{"key":"07","name":"Rheinland-Pfalz"}},{"name":"Brunnenstr.","postalCode":"54422","locality":"Züsch","municipality":{"key":"07235153","name":"Züsch","type":"Kreisangehörige_Gemeinde"},"district":{"key":"07235","name":"Trier-Saarburg","type":"Landkreis"},"federalState":{"key":"07","name":"Rheinland-Pfalz"}},{"name":"Feldstr.","postalCode":"54422","locality":"Züsch","municipality":{"key":"07235153","name":"Züsch","type":"Kreisangehörige_Gemeinde"},"district":{"key":"07235","name":"Trier-Saarburg","type":"Landkreis"},"federalState":{"key":"07","name":"Rheinland-Pfalz"}},{"name":"Fraubachtalstr.","postalCode":"54422","locality":"Züsch","municipality":{"key":"07235153","name":"Züsch","type":"Kreisangehörige_Gemeinde"},"district":{"key":"07235","name":"Trier-Saarburg","type":"Landkreis"},"federalState":{"key":"07","name":"Rheinland-Pfalz"}},{"name":"Gartenstr.","postalCode":"54422","locality":"Züsch","municipality":{"key":"07235153","name":"Züsch","type":"Kreisangehörige_Gemeinde"},"district":{"key":"07235","name":"Trier-Saarburg","type":"Landkreis"},"federalState":{"key":"07","name":"Rheinland-Pfalz"}},{"name":"Harzecken","postalCode":"54422","locality":"Züsch","municipality":{"key":"07235153","name":"Züsch","type":"Kreisangehörige_Gemeinde"},"district":{"key":"07235","name":"Trier-Saarburg","type":"Landkreis"},"federalState":{"key":"07","name":"Rheinland-Pfalz"}},{"name":"Hermeskeiler Str.","postalCode":"54422","locality":"Züsch","municipality":{"key":"07235153","name":"Züsch","type":"Kreisangehörige_Gemeinde"},"district":{"key":"07235","name":"Trier-Saarburg","type":"Landkreis"},"federalState":{"key":"07","name":"Rheinland-Pfalz"}},{"name":"Hoffeldstr.","postalCode":"54422","locality":"Züsch","municipality":{"key":"07235153","name":"Züsch","type":"Kreisangehörige_Gemeinde"},"district":{"key":"07235","name":"Trier-Saarburg","type":"Landkreis"},"federalState":{"key":"07","name":"Rheinland-Pfalz"}},{"name":"Im Breiten Triesch","postalCode":"54422","locality":"Züsch","municipality":{"key":"07235153","name":"Züsch","type":"Kreisangehörige_Gemeinde"},"district":{"key":"07235","name":"Trier-Saarburg","type":"Landkreis"},"federalState":{"key":"07","name":"Rheinland-Pfalz"}},{"name":"In den Klepperstückern","postalCode":"54422","locality":"Züsch","municipality":{"key":"07235153","name":"Züsch","type":"Kreisangehörige_Gemeinde"},"district":{"key":"07235","name":"Trier-Saarburg","type":"Landkreis"},"federalState":{"key":"07","name":"Rheinland-Pfalz"}},{"name":"Königsbachtalstr.","postalCode":"54422","locality":"Züsch","municipality":{"key":"07235153","name":"Züsch","type":"Kreisangehörige_Gemeinde"},"district":{"key":"07235","name":"Trier-Saarburg","type":"Landkreis"},"federalState":{"key":"07","name":"Rheinland-Pfalz"}},{"name":"Muhler Str.","postalCode":"54422","locality":"Züsch","municipality":{"key":"07235153","name":"Züsch","type":"Kreisangehörige_Gemeinde"},"district":{"key":"07235","name":"Trier-Saarburg","type":"Landkreis"},"federalState":{"key":"07","name":"Rheinland-Pfalz"}},{"name":"Oberer Atzelgarten","postalCode":"54422","locality":"Züsch","municipality":{"key":"07235153","name":"Züsch","type":"Kreisangehörige_Gemeinde"},"district":{"key":"07235","name":"Trier-Saarburg","type":"Landkreis"},"federalState":{"key":"07","name":"Rheinland-Pfalz"}},{"name":"Pfaffenstr.","postalCode":"54422","locality":"Züsch","municipality":{"key":"07235153","name":"Züsch","type":"Kreisangehörige_Gemeinde"},"district":{"key":"07235","name":"Trier-Saarburg","type":"Landkreis"},"federalState":{"key":"07","name":"Rheinland-Pfalz"}},{"name":"Planeten- und Rundwanderweg","postalCode":"54422","locality":"Züsch","municipality":{"key":"07235153","name":"Züsch","type":"Kreisangehörige_Gemeinde"},"district":{"key":"07235","name":"Trier-Saarburg","type":"Landkreis"},"federalState":{"key":"07","name":"Rheinland-Pfalz"}},{"name":"Saarstr.","postalCode":"54422","locality":"Züsch","municipality":{"key":"07235153","name":"Züsch","type":"Kreisangehörige_Gemeinde"},"district":{"key":"07235","name":"Trier-Saarburg","type":"Landkreis"},"federalState":{"key":"07","name":"Rheinland-Pfalz"}},{"name":"Schulstr.","postalCode":"54422","locality":"Züsch","municipality":{"key":"07235153","name":"Züsch","type":"Kreisangehörige_Gemeinde"},"district":{"key":"07235","name":"Trier-Saarburg","type":"Landkreis"},"federalState":{"key":"07","name":"Rheinland-Pfalz"}},{"name":"Unterer Atzelgarten","postalCode":"54422","locality":"Züsch","municipality":{"key":"07235153","name":"Züsch","type":"Kreisangehörige_Gemeinde"},"district":{"key":"07235","name":"Trier-Saarburg","type":"Landkreis"},"federalState":{"key":"07","name":"Rheinland-Pfalz"}},]