[{"name":"Alte Dorfstr.","postalCode":"09432","locality":"Großolbersdorf","municipality":{"key":"14521240","name":"Großolbersdorf","type":"Kreisangehörige_Gemeinde"},"district":{"key":"14521","name":"Erzgebirgskreis","type":"Landkreis"},"federalState":{"key":"14","name":"Sachsen"}},{"name":"Alte Marienberger Str.","postalCode":"09432","locality":"Großolbersdorf","municipality":{"key":"14521240","name":"Großolbersdorf","type":"Kreisangehörige_Gemeinde"},"district":{"key":"14521","name":"Erzgebirgskreis","type":"Landkreis"},"federalState":{"key":"14","name":"Sachsen"}},{"name":"Am Berg","postalCode":"09432","locality":"Großolbersdorf","municipality":{"key":"14521240","name":"Großolbersdorf","type":"Kreisangehörige_Gemeinde"},"district":{"key":"14521","name":"Erzgebirgskreis","type":"Landkreis"},"federalState":{"key":"14","name":"Sachsen"}},{"name":"Am Drachenhain","postalCode":"09432","locality":"Großolbersdorf","municipality":{"key":"14521240","name":"Großolbersdorf","type":"Kreisangehörige_Gemeinde"},"district":{"key":"14521","name":"Erzgebirgskreis","type":"Landkreis"},"federalState":{"key":"14","name":"Sachsen"}},{"name":"Am Hof","postalCode":"09432","locality":"Großolbersdorf","municipality":{"key":"14521240","name":"Großolbersdorf","type":"Kreisangehörige_Gemeinde"},"district":{"key":"14521","name":"Erzgebirgskreis","type":"Landkreis"},"federalState":{"key":"14","name":"Sachsen"}},{"name":"Am Hofbach","postalCode":"09432","locality":"Großolbersdorf","municipality":{"key":"14521240","name":"Großolbersdorf","type":"Kreisangehörige_Gemeinde"},"district":{"key":"14521","name":"Erzgebirgskreis","type":"Landkreis"},"federalState":{"key":"14","name":"Sachsen"}},{"name":"Am Mühlteich","postalCode":"09432","locality":"Großolbersdorf","municipality":{"key":"14521240","name":"Großolbersdorf","type":"Kreisangehörige_Gemeinde"},"district":{"key":"14521","name":"Erzgebirgskreis","type":"Landkreis"},"federalState":{"key":"14","name":"Sachsen"}},{"name":"Am Rathaus","postalCode":"09432","locality":"Großolbersdorf","municipality":{"key":"14521240","name":"Großolbersdorf","type":"Kreisangehörige_Gemeinde"},"district":{"key":"14521","name":"Erzgebirgskreis","type":"Landkreis"},"federalState":{"key":"14","name":"Sachsen"}},{"name":"Am Sportplatz","postalCode":"09432","locality":"Großolbersdorf","municipality":{"key":"14521240","name":"Großolbersdorf","type":"Kreisangehörige_Gemeinde"},"district":{"key":"14521","name":"Erzgebirgskreis","type":"Landkreis"},"federalState":{"key":"14","name":"Sachsen"}},{"name":"An der Kirche","postalCode":"09432","locality":"Großolbersdorf","municipality":{"key":"14521240","name":"Großolbersdorf","type":"Kreisangehörige_Gemeinde"},"district":{"key":"14521","name":"Erzgebirgskreis","type":"Landkreis"},"federalState":{"key":"14","name":"Sachsen"}},{"name":"Badweg","postalCode":"09432","locality":"Großolbersdorf","municipality":{"key":"14521240","name":"Großolbersdorf","type":"Kreisangehörige_Gemeinde"},"district":{"key":"14521","name":"Erzgebirgskreis","type":"Landkreis"},"federalState":{"key":"14","name":"Sachsen"}},{"name":"Dorfstr.","postalCode":"09432","locality":"Großolbersdorf","municipality":{"key":"14521240","name":"Großolbersdorf","type":"Kreisangehörige_Gemeinde"},"district":{"key":"14521","name":"Erzgebirgskreis","type":"Landkreis"},"federalState":{"key":"14","name":"Sachsen"}},{"name":"Gartenstr.","postalCode":"09432","locality":"Großolbersdorf","municipality":{"key":"14521240","name":"Großolbersdorf","type":"Kreisangehörige_Gemeinde"},"district":{"key":"14521","name":"Erzgebirgskreis","type":"Landkreis"},"federalState":{"key":"14","name":"Sachsen"}},{"name":"Großer Brandring","postalCode":"09432","locality":"Großolbersdorf","municipality":{"key":"14521240","name":"Großolbersdorf","type":"Kreisangehörige_Gemeinde"},"district":{"key":"14521","name":"Erzgebirgskreis","type":"Landkreis"},"federalState":{"key":"14","name":"Sachsen"}},{"name":"Großolbersdorfer Str.","postalCode":"09432","locality":"Großolbersdorf","municipality":{"key":"14521240","name":"Großolbersdorf","type":"Kreisangehörige_Gemeinde"},"district":{"key":"14521","name":"Erzgebirgskreis","type":"Landkreis"},"federalState":{"key":"14","name":"Sachsen"}},{"name":"Grünauer Berg","postalCode":"09432","locality":"Großolbersdorf","municipality":{"key":"14521240","name":"Großolbersdorf","type":"Kreisangehörige_Gemeinde"},"district":{"key":"14521","name":"Erzgebirgskreis","type":"Landkreis"},"federalState":{"key":"14","name":"Sachsen"}},{"name":"Grünauer Str.","postalCode":"09432","locality":"Großolbersdorf","municipality":{"key":"14521240","name":"Großolbersdorf","type":"Kreisangehörige_Gemeinde"},"district":{"key":"14521","name":"Erzgebirgskreis","type":"Landkreis"},"federalState":{"key":"14","name":"Sachsen"}},{"name":"Halfterhäuser","postalCode":"09432","locality":"Großolbersdorf","municipality":{"key":"14521240","name":"Großolbersdorf","type":"Kreisangehörige_Gemeinde"},"district":{"key":"14521","name":"Erzgebirgskreis","type":"Landkreis"},"federalState":{"key":"14","name":"Sachsen"}},{"name":"Halfterweg","postalCode":"09432","locality":"Großolbersdorf","municipality":{"key":"14521240","name":"Großolbersdorf","type":"Kreisangehörige_Gemeinde"},"district":{"key":"14521","name":"Erzgebirgskreis","type":"Landkreis"},"federalState":{"key":"14","name":"Sachsen"}},{"name":"Hauptstr.","postalCode":"09432","locality":"Großolbersdorf","municipality":{"key":"14521240","name":"Großolbersdorf","type":"Kreisangehörige_Gemeinde"},"district":{"key":"14521","name":"Erzgebirgskreis","type":"Landkreis"},"federalState":{"key":"14","name":"Sachsen"}},{"name":"Heidelbach","postalCode":"09432","locality":"Großolbersdorf","municipality":{"key":"14521240","name":"Großolbersdorf","type":"Kreisangehörige_Gemeinde"},"district":{"key":"14521","name":"Erzgebirgskreis","type":"Landkreis"},"federalState":{"key":"14","name":"Sachsen"}},{"name":"Heinzebankstr.","postalCode":"09432","locality":"Großolbersdorf","municipality":{"key":"14521240","name":"Großolbersdorf","type":"Kreisangehörige_Gemeinde"},"district":{"key":"14521","name":"Erzgebirgskreis","type":"Landkreis"},"federalState":{"key":"14","name":"Sachsen"}},{"name":"Hohe-Tann-Weg","postalCode":"09432","locality":"Großolbersdorf","municipality":{"key":"14521240","name":"Großolbersdorf","type":"Kreisangehörige_Gemeinde"},"district":{"key":"14521","name":"Erzgebirgskreis","type":"Landkreis"},"federalState":{"key":"14","name":"Sachsen"}},{"name":"Hohndorfer Kirchweg","postalCode":"09432","locality":"Großolbersdorf","municipality":{"key":"14521240","name":"Großolbersdorf","type":"Kreisangehörige_Gemeinde"},"district":{"key":"14521","name":"Erzgebirgskreis","type":"Landkreis"},"federalState":{"key":"14","name":"Sachsen"}},{"name":"Holzstr.","postalCode":"09432","locality":"Großolbersdorf","municipality":{"key":"14521240","name":"Großolbersdorf","type":"Kreisangehörige_Gemeinde"},"district":{"key":"14521","name":"Erzgebirgskreis","type":"Landkreis"},"federalState":{"key":"14","name":"Sachsen"}},{"name":"Hopfgartener Str.","postalCode":"09432","locality":"Großolbersdorf","municipality":{"key":"14521240","name":"Großolbersdorf","type":"Kreisangehörige_Gemeinde"},"district":{"key":"14521","name":"Erzgebirgskreis","type":"Landkreis"},"federalState":{"key":"14","name":"Sachsen"}},{"name":"Kalkweg","postalCode":"09432","locality":"Großolbersdorf","municipality":{"key":"14521240","name":"Großolbersdorf","type":"Kreisangehörige_Gemeinde"},"district":{"key":"14521","name":"Erzgebirgskreis","type":"Landkreis"},"federalState":{"key":"14","name":"Sachsen"}},{"name":"Kanzler Brücke","postalCode":"09432","locality":"Großolbersdorf","municipality":{"key":"14521240","name":"Großolbersdorf","type":"Kreisangehörige_Gemeinde"},"district":{"key":"14521","name":"Erzgebirgskreis","type":"Landkreis"},"federalState":{"key":"14","name":"Sachsen"}},{"name":"Karl-Stülpner-Weg","postalCode":"09432","locality":"Großolbersdorf","municipality":{"key":"14521240","name":"Großolbersdorf","type":"Kreisangehörige_Gemeinde"},"district":{"key":"14521","name":"Erzgebirgskreis","type":"Landkreis"},"federalState":{"key":"14","name":"Sachsen"}},{"name":"Königsbachrundweg","postalCode":"09432","locality":"Großolbersdorf","municipality":{"key":"14521240","name":"Großolbersdorf","type":"Kreisangehörige_Gemeinde"},"district":{"key":"14521","name":"Erzgebirgskreis","type":"Landkreis"},"federalState":{"key":"14","name":"Sachsen"}},{"name":"Königsbrücke","postalCode":"09432","locality":"Großolbersdorf","municipality":{"key":"14521240","name":"Großolbersdorf","type":"Kreisangehörige_Gemeinde"},"district":{"key":"14521","name":"Erzgebirgskreis","type":"Landkreis"},"federalState":{"key":"14","name":"Sachsen"}},{"name":"Meyweg","postalCode":"09432","locality":"Großolbersdorf","municipality":{"key":"14521240","name":"Großolbersdorf","type":"Kreisangehörige_Gemeinde"},"district":{"key":"14521","name":"Erzgebirgskreis","type":"Landkreis"},"federalState":{"key":"14","name":"Sachsen"}},{"name":"Mittelweg","postalCode":"09432","locality":"Großolbersdorf","municipality":{"key":"14521240","name":"Großolbersdorf","type":"Kreisangehörige_Gemeinde"},"district":{"key":"14521","name":"Erzgebirgskreis","type":"Landkreis"},"federalState":{"key":"14","name":"Sachsen"}},{"name":"Mühlweg","postalCode":"09432","locality":"Großolbersdorf","municipality":{"key":"14521240","name":"Großolbersdorf","type":"Kreisangehörige_Gemeinde"},"district":{"key":"14521","name":"Erzgebirgskreis","type":"Landkreis"},"federalState":{"key":"14","name":"Sachsen"}},{"name":"Neue Hauptstr.","postalCode":"09432","locality":"Großolbersdorf","municipality":{"key":"14521240","name":"Großolbersdorf","type":"Kreisangehörige_Gemeinde"},"district":{"key":"14521","name":"Erzgebirgskreis","type":"Landkreis"},"federalState":{"key":"14","name":"Sachsen"}},{"name":"Oberer Weg","postalCode":"09432","locality":"Großolbersdorf","municipality":{"key":"14521240","name":"Großolbersdorf","type":"Kreisangehörige_Gemeinde"},"district":{"key":"14521","name":"Erzgebirgskreis","type":"Landkreis"},"federalState":{"key":"14","name":"Sachsen"}},{"name":"Scharfensteiner Str.","postalCode":"09432","locality":"Großolbersdorf","municipality":{"key":"14521240","name":"Großolbersdorf","type":"Kreisangehörige_Gemeinde"},"district":{"key":"14521","name":"Erzgebirgskreis","type":"Landkreis"},"federalState":{"key":"14","name":"Sachsen"}},{"name":"Schulstr.","postalCode":"09432","locality":"Großolbersdorf","municipality":{"key":"14521240","name":"Großolbersdorf","type":"Kreisangehörige_Gemeinde"},"district":{"key":"14521","name":"Erzgebirgskreis","type":"Landkreis"},"federalState":{"key":"14","name":"Sachsen"}},{"name":"Schulweg","postalCode":"09432","locality":"Großolbersdorf","municipality":{"key":"14521240","name":"Großolbersdorf","type":"Kreisangehörige_Gemeinde"},"district":{"key":"14521","name":"Erzgebirgskreis","type":"Landkreis"},"federalState":{"key":"14","name":"Sachsen"}},{"name":"Seilergasse","postalCode":"09432","locality":"Großolbersdorf","municipality":{"key":"14521240","name":"Großolbersdorf","type":"Kreisangehörige_Gemeinde"},"district":{"key":"14521","name":"Erzgebirgskreis","type":"Landkreis"},"federalState":{"key":"14","name":"Sachsen"}},{"name":"Siedlerweg","postalCode":"09432","locality":"Großolbersdorf","municipality":{"key":"14521240","name":"Großolbersdorf","type":"Kreisangehörige_Gemeinde"},"district":{"key":"14521","name":"Erzgebirgskreis","type":"Landkreis"},"federalState":{"key":"14","name":"Sachsen"}},{"name":"Siedlungsstr.","postalCode":"09432","locality":"Großolbersdorf","municipality":{"key":"14521240","name":"Großolbersdorf","type":"Kreisangehörige_Gemeinde"},"district":{"key":"14521","name":"Erzgebirgskreis","type":"Landkreis"},"federalState":{"key":"14","name":"Sachsen"}},{"name":"Tischauweg","postalCode":"09432","locality":"Großolbersdorf","municipality":{"key":"14521240","name":"Großolbersdorf","type":"Kreisangehörige_Gemeinde"},"district":{"key":"14521","name":"Erzgebirgskreis","type":"Landkreis"},"federalState":{"key":"14","name":"Sachsen"}},{"name":"Uferstr.","postalCode":"09432","locality":"Großolbersdorf","municipality":{"key":"14521240","name":"Großolbersdorf","type":"Kreisangehörige_Gemeinde"},"district":{"key":"14521","name":"Erzgebirgskreis","type":"Landkreis"},"federalState":{"key":"14","name":"Sachsen"}},{"name":"Waldstr.","postalCode":"09432","locality":"Großolbersdorf","municipality":{"key":"14521240","name":"Großolbersdorf","type":"Kreisangehörige_Gemeinde"},"district":{"key":"14521","name":"Erzgebirgskreis","type":"Landkreis"},"federalState":{"key":"14","name":"Sachsen"}},{"name":"Waldweg","postalCode":"09432","locality":"Großolbersdorf","municipality":{"key":"14521240","name":"Großolbersdorf","type":"Kreisangehörige_Gemeinde"},"district":{"key":"14521","name":"Erzgebirgskreis","type":"Landkreis"},"federalState":{"key":"14","name":"Sachsen"}},{"name":"Warmbadstr.","postalCode":"09432","locality":"Großolbersdorf","municipality":{"key":"14521240","name":"Großolbersdorf","type":"Kreisangehörige_Gemeinde"},"district":{"key":"14521","name":"Erzgebirgskreis","type":"Landkreis"},"federalState":{"key":"14","name":"Sachsen"}},{"name":"Wiesengrund","postalCode":"09432","locality":"Großolbersdorf","municipality":{"key":"14521240","name":"Großolbersdorf","type":"Kreisangehörige_Gemeinde"},"district":{"key":"14521","name":"Erzgebirgskreis","type":"Landkreis"},"federalState":{"key":"14","name":"Sachsen"}},{"name":"Wiesenweg","postalCode":"09432","locality":"Großolbersdorf","municipality":{"key":"14521240","name":"Großolbersdorf","type":"Kreisangehörige_Gemeinde"},"district":{"key":"14521","name":"Erzgebirgskreis","type":"Landkreis"},"federalState":{"key":"14","name":"Sachsen"}},{"name":"Zschopauer Str.","postalCode":"09432","locality":"Großolbersdorf","municipality":{"key":"14521240","name":"Großolbersdorf","type":"Kreisangehörige_Gemeinde"},"district":{"key":"14521","name":"Erzgebirgskreis","type":"Landkreis"},"federalState":{"key":"14","name":"Sachsen"}},{"name":"Zschopautalstr.","postalCode":"09432","locality":"Großolbersdorf","municipality":{"key":"14521240","name":"Großolbersdorf","type":"Kreisangehörige_Gemeinde"},"district":{"key":"14521","name":"Erzgebirgskreis","type":"Landkreis"},"federalState":{"key":"14","name":"Sachsen"}},{"name":"Zschopenweg","postalCode":"09432","locality":"Großolbersdorf","municipality":{"key":"14521240","name":"Großolbersdorf","type":"Kreisangehörige_Gemeinde"},"district":{"key":"14521","name":"Erzgebirgskreis","type":"Landkreis"},"federalState":{"key":"14","name":"Sachsen"}},]