[{"name":"10th Avenue","postalCode":"67661","locality":"Kaiserslautern","municipality":{"key":"07312000","name":"Kaiserslautern, Stadt","type":"Kreisfreie_Stadt"},"district":{"key":"07312","name":"Kaiserslautern, kreisfreie Stadt","type":"Kreisfreie_Stadt"},"federalState":{"key":"07","name":"Rheinland-Pfalz"}},{"name":"5th Avenue","postalCode":"67661","locality":"Kaiserslautern","municipality":{"key":"07312000","name":"Kaiserslautern, Stadt","type":"Kreisfreie_Stadt"},"district":{"key":"07312","name":"Kaiserslautern, kreisfreie Stadt","type":"Kreisfreie_Stadt"},"federalState":{"key":"07","name":"Rheinland-Pfalz"}},{"name":"6th Avenue","postalCode":"67661","locality":"Kaiserslautern","municipality":{"key":"07312000","name":"Kaiserslautern, Stadt","type":"Kreisfreie_Stadt"},"district":{"key":"07312","name":"Kaiserslautern, kreisfreie Stadt","type":"Kreisfreie_Stadt"},"federalState":{"key":"07","name":"Rheinland-Pfalz"}},{"name":"Alte Brücke","postalCode":"67734","locality":"Katzweiler","municipality":{"key":"07335017","name":"Katzweiler","type":"Kreisangehörige_Gemeinde"},"district":{"key":"07335","name":"Kaiserslautern","type":"Landkreis"},"federalState":{"key":"07","name":"Rheinland-Pfalz"}},{"name":"Am Auergraben","postalCode":"67734","locality":"Katzweiler","municipality":{"key":"07335017","name":"Katzweiler","type":"Kreisangehörige_Gemeinde"},"district":{"key":"07335","name":"Kaiserslautern","type":"Landkreis"},"federalState":{"key":"07","name":"Rheinland-Pfalz"}},{"name":"Am Schafacker","postalCode":"67734","locality":"Katzweiler","municipality":{"key":"07335017","name":"Katzweiler","type":"Kreisangehörige_Gemeinde"},"district":{"key":"07335","name":"Kaiserslautern","type":"Landkreis"},"federalState":{"key":"07","name":"Rheinland-Pfalz"}},{"name":"Austr.","postalCode":"67734","locality":"Katzweiler","municipality":{"key":"07335017","name":"Katzweiler","type":"Kreisangehörige_Gemeinde"},"district":{"key":"07335","name":"Kaiserslautern","type":"Landkreis"},"federalState":{"key":"07","name":"Rheinland-Pfalz"}},{"name":"Bachstr.","postalCode":"67734","locality":"Katzweiler","municipality":{"key":"07335017","name":"Katzweiler","type":"Kreisangehörige_Gemeinde"},"district":{"key":"07335","name":"Kaiserslautern","type":"Landkreis"},"federalState":{"key":"07","name":"Rheinland-Pfalz"}},{"name":"Bismarckstr.","postalCode":"67734","locality":"Katzweiler","municipality":{"key":"07335017","name":"Katzweiler","type":"Kreisangehörige_Gemeinde"},"district":{"key":"07335","name":"Kaiserslautern","type":"Landkreis"},"federalState":{"key":"07","name":"Rheinland-Pfalz"}},{"name":"Bornweg","postalCode":"67734","locality":"Katzweiler","municipality":{"key":"07335017","name":"Katzweiler","type":"Kreisangehörige_Gemeinde"},"district":{"key":"07335","name":"Kaiserslautern","type":"Landkreis"},"federalState":{"key":"07","name":"Rheinland-Pfalz"}},{"name":"California Avenue","postalCode":"67661","locality":"Kaiserslautern","municipality":{"key":"07312000","name":"Kaiserslautern, Stadt","type":"Kreisfreie_Stadt"},"district":{"key":"07312","name":"Kaiserslautern, kreisfreie Stadt","type":"Kreisfreie_Stadt"},"federalState":{"key":"07","name":"Rheinland-Pfalz"}},{"name":"Carl-Billand-Str.","postalCode":"67661","locality":"Kaiserslautern","municipality":{"key":"07312000","name":"Kaiserslautern, Stadt","type":"Kreisfreie_Stadt"},"district":{"key":"07312","name":"Kaiserslautern, kreisfreie Stadt","type":"Kreisfreie_Stadt"},"federalState":{"key":"07","name":"Rheinland-Pfalz"}},{"name":"Carl-Diem-Str.","postalCode":"67659","locality":"Kaiserslautern","municipality":{"key":"07312000","name":"Kaiserslautern, Stadt","type":"Kreisfreie_Stadt"},"district":{"key":"07312","name":"Kaiserslautern, kreisfreie Stadt","type":"Kreisfreie_Stadt"},"federalState":{"key":"07","name":"Rheinland-Pfalz"}},{"name":"Carl-Euler-Str.","postalCode":"67663","locality":"Kaiserslautern","municipality":{"key":"07312000","name":"Kaiserslautern, Stadt","type":"Kreisfreie_Stadt"},"district":{"key":"07312","name":"Kaiserslautern, kreisfreie Stadt","type":"Kreisfreie_Stadt"},"federalState":{"key":"07","name":"Rheinland-Pfalz"}},{"name":"Carl-F.-Benz-Str.","postalCode":"67657","locality":"Kaiserslautern","municipality":{"key":"07312000","name":"Kaiserslautern, Stadt","type":"Kreisfreie_Stadt"},"district":{"key":"07312","name":"Kaiserslautern, kreisfreie Stadt","type":"Kreisfreie_Stadt"},"federalState":{"key":"07","name":"Rheinland-Pfalz"}},{"name":"Carl-Jacob-Str.","postalCode":"67659","locality":"Kaiserslautern","municipality":{"key":"07312000","name":"Kaiserslautern, Stadt","type":"Kreisfreie_Stadt"},"district":{"key":"07312","name":"Kaiserslautern, kreisfreie Stadt","type":"Kreisfreie_Stadt"},"federalState":{"key":"07","name":"Rheinland-Pfalz"}},{"name":"Carlo-Schmid-Str.","postalCode":"67663","locality":"Kaiserslautern","municipality":{"key":"07312000","name":"Kaiserslautern, Stadt","type":"Kreisfreie_Stadt"},"district":{"key":"07312","name":"Kaiserslautern, kreisfreie Stadt","type":"Kreisfreie_Stadt"},"federalState":{"key":"07","name":"Rheinland-Pfalz"}},{"name":"Carl-Reichert-Str.","postalCode":"67655","locality":"Kaiserslautern","municipality":{"key":"07312000","name":"Kaiserslautern, Stadt","type":"Kreisfreie_Stadt"},"district":{"key":"07312","name":"Kaiserslautern, kreisfreie Stadt","type":"Kreisfreie_Stadt"},"federalState":{"key":"07","name":"Rheinland-Pfalz"}},{"name":"Carl-Schurz-Str.","postalCode":"67659","locality":"Kaiserslautern","municipality":{"key":"07312000","name":"Kaiserslautern, Stadt","type":"Kreisfreie_Stadt"},"district":{"key":"07312","name":"Kaiserslautern, kreisfreie Stadt","type":"Kreisfreie_Stadt"},"federalState":{"key":"07","name":"Rheinland-Pfalz"}},{"name":"Carl-Sonnenschein-Str.","postalCode":"67663","locality":"Kaiserslautern","municipality":{"key":"07312000","name":"Kaiserslautern, Stadt","type":"Kreisfreie_Stadt"},"district":{"key":"07312","name":"Kaiserslautern, kreisfreie Stadt","type":"Kreisfreie_Stadt"},"federalState":{"key":"07","name":"Rheinland-Pfalz"}},{"name":"Carmerstr.","postalCode":"67661","locality":"Kaiserslautern","municipality":{"key":"07312000","name":"Kaiserslautern, Stadt","type":"Kreisfreie_Stadt"},"district":{"key":"07312","name":"Kaiserslautern, kreisfreie Stadt","type":"Kreisfreie_Stadt"},"federalState":{"key":"07","name":"Rheinland-Pfalz"}},{"name":"Carola-Dauber-Str.","postalCode":"67663","locality":"Kaiserslautern","municipality":{"key":"07312000","name":"Kaiserslautern, Stadt","type":"Kreisfreie_Stadt"},"district":{"key":"07312","name":"Kaiserslautern, kreisfreie Stadt","type":"Kreisfreie_Stadt"},"federalState":{"key":"07","name":"Rheinland-Pfalz"}},{"name":"Carolina Avenue","postalCode":"67661","locality":"Kaiserslautern","municipality":{"key":"07312000","name":"Kaiserslautern, Stadt","type":"Kreisfreie_Stadt"},"district":{"key":"07312","name":"Kaiserslautern, kreisfreie Stadt","type":"Kreisfreie_Stadt"},"federalState":{"key":"07","name":"Rheinland-Pfalz"}},{"name":"Casimirring","postalCode":"67663","locality":"Kaiserslautern","municipality":{"key":"07312000","name":"Kaiserslautern, Stadt","type":"Kreisfreie_Stadt"},"district":{"key":"07312","name":"Kaiserslautern, kreisfreie Stadt","type":"Kreisfreie_Stadt"},"federalState":{"key":"07","name":"Rheinland-Pfalz"}},{"name":"Clara-Immerwahr-Str.","postalCode":"67661","locality":"Kaiserslautern","municipality":{"key":"07312000","name":"Kaiserslautern, Stadt","type":"Kreisfreie_Stadt"},"district":{"key":"07312","name":"Kaiserslautern, kreisfreie Stadt","type":"Kreisfreie_Stadt"},"federalState":{"key":"07","name":"Rheinland-Pfalz"}},{"name":"Colorado Avenue","postalCode":"67661","locality":"Kaiserslautern","municipality":{"key":"07312000","name":"Kaiserslautern, Stadt","type":"Kreisfreie_Stadt"},"district":{"key":"07312","name":"Kaiserslautern, kreisfreie Stadt","type":"Kreisfreie_Stadt"},"federalState":{"key":"07","name":"Rheinland-Pfalz"}},{"name":"Columbia-Str.","postalCode":"67663","locality":"Kaiserslautern","municipality":{"key":"07312000","name":"Kaiserslautern, Stadt","type":"Kreisfreie_Stadt"},"district":{"key":"07312","name":"Kaiserslautern, kreisfreie Stadt","type":"Kreisfreie_Stadt"},"federalState":{"key":"07","name":"Rheinland-Pfalz"}},{"name":"Connecticut Avenue","postalCode":"67661","locality":"Kaiserslautern","municipality":{"key":"07312000","name":"Kaiserslautern, Stadt","type":"Kreisfreie_Stadt"},"district":{"key":"07312","name":"Kaiserslautern, kreisfreie Stadt","type":"Kreisfreie_Stadt"},"federalState":{"key":"07","name":"Rheinland-Pfalz"}},{"name":"Conradstr.","postalCode":"67655","locality":"Kaiserslautern","municipality":{"key":"07312000","name":"Kaiserslautern, Stadt","type":"Kreisfreie_Stadt"},"district":{"key":"07312","name":"Kaiserslautern, kreisfreie Stadt","type":"Kreisfreie_Stadt"},"federalState":{"key":"07","name":"Rheinland-Pfalz"}},{"name":"Cusanusstr.","postalCode":"67663","locality":"Kaiserslautern","municipality":{"key":"07312000","name":"Kaiserslautern, Stadt","type":"Kreisfreie_Stadt"},"district":{"key":"07312","name":"Kaiserslautern, kreisfreie Stadt","type":"Kreisfreie_Stadt"},"federalState":{"key":"07","name":"Rheinland-Pfalz"}},{"name":"Dachsdelle","postalCode":"67663","locality":"Kaiserslautern","municipality":{"key":"07312000","name":"Kaiserslautern, Stadt","type":"Kreisfreie_Stadt"},"district":{"key":"07312","name":"Kaiserslautern, kreisfreie Stadt","type":"Kreisfreie_Stadt"},"federalState":{"key":"07","name":"Rheinland-Pfalz"}},{"name":"Daennerstr.","postalCode":"67657","locality":"Kaiserslautern","municipality":{"key":"07312000","name":"Kaiserslautern, Stadt","type":"Kreisfreie_Stadt"},"district":{"key":"07312","name":"Kaiserslautern, kreisfreie Stadt","type":"Kreisfreie_Stadt"},"federalState":{"key":"07","name":"Rheinland-Pfalz"}},{"name":"Dahlienweg","postalCode":"67657","locality":"Kaiserslautern","municipality":{"key":"07312000","name":"Kaiserslautern, Stadt","type":"Kreisfreie_Stadt"},"district":{"key":"07312","name":"Kaiserslautern, kreisfreie Stadt","type":"Kreisfreie_Stadt"},"federalState":{"key":"07","name":"Rheinland-Pfalz"}},{"name":"Damaschkestr.","postalCode":"67663","locality":"Kaiserslautern","municipality":{"key":"07312000","name":"Kaiserslautern, Stadt","type":"Kreisfreie_Stadt"},"district":{"key":"07312","name":"Kaiserslautern, kreisfreie Stadt","type":"Kreisfreie_Stadt"},"federalState":{"key":"07","name":"Rheinland-Pfalz"}},{"name":"Dammühle","postalCode":"67659","locality":"Kaiserslautern","municipality":{"key":"07312000","name":"Kaiserslautern, Stadt","type":"Kreisfreie_Stadt"},"district":{"key":"07312","name":"Kaiserslautern, kreisfreie Stadt","type":"Kreisfreie_Stadt"},"federalState":{"key":"07","name":"Rheinland-Pfalz"}},{"name":"Daniel-Häberle-Str.","postalCode":"67657","locality":"Kaiserslautern","municipality":{"key":"07312000","name":"Kaiserslautern, Stadt","type":"Kreisfreie_Stadt"},"district":{"key":"07312","name":"Kaiserslautern, kreisfreie Stadt","type":"Kreisfreie_Stadt"},"federalState":{"key":"07","name":"Rheinland-Pfalz"}},{"name":"Dansenberger Str.","postalCode":"67661","locality":"Kaiserslautern","municipality":{"key":"07312000","name":"Kaiserslautern, Stadt","type":"Kreisfreie_Stadt"},"district":{"key":"07312","name":"Kaiserslautern, kreisfreie Stadt","type":"Kreisfreie_Stadt"},"federalState":{"key":"07","name":"Rheinland-Pfalz"}},{"name":"Danziger Str.","postalCode":"67659","locality":"Kaiserslautern","municipality":{"key":"07312000","name":"Kaiserslautern, Stadt","type":"Kreisfreie_Stadt"},"district":{"key":"07312","name":"Kaiserslautern, kreisfreie Stadt","type":"Kreisfreie_Stadt"},"federalState":{"key":"07","name":"Rheinland-Pfalz"}},{"name":"Dauborner Weg","postalCode":"67657","locality":"Kaiserslautern","municipality":{"key":"07312000","name":"Kaiserslautern, Stadt","type":"Kreisfreie_Stadt"},"district":{"key":"07312","name":"Kaiserslautern, kreisfreie Stadt","type":"Kreisfreie_Stadt"},"federalState":{"key":"07","name":"Rheinland-Pfalz"}},{"name":"Davenportplatz","postalCode":"67663","locality":"Kaiserslautern","municipality":{"key":"07312000","name":"Kaiserslautern, Stadt","type":"Kreisfreie_Stadt"},"district":{"key":"07312","name":"Kaiserslautern, kreisfreie Stadt","type":"Kreisfreie_Stadt"},"federalState":{"key":"07","name":"Rheinland-Pfalz"}},{"name":"Delaware Loop","postalCode":"67661","locality":"Kaiserslautern","municipality":{"key":"07312000","name":"Kaiserslautern, Stadt","type":"Kreisfreie_Stadt"},"district":{"key":"07312","name":"Kaiserslautern, kreisfreie Stadt","type":"Kreisfreie_Stadt"},"federalState":{"key":"07","name":"Rheinland-Pfalz"}},{"name":"Denisstr.","postalCode":"67663","locality":"Kaiserslautern","municipality":{"key":"07312000","name":"Kaiserslautern, Stadt","type":"Kreisfreie_Stadt"},"district":{"key":"07312","name":"Kaiserslautern, kreisfreie Stadt","type":"Kreisfreie_Stadt"},"federalState":{"key":"07","name":"Rheinland-Pfalz"}},{"name":"Dessauer Str.","postalCode":"67663","locality":"Kaiserslautern","municipality":{"key":"07312000","name":"Kaiserslautern, Stadt","type":"Kreisfreie_Stadt"},"district":{"key":"07312","name":"Kaiserslautern, kreisfreie Stadt","type":"Kreisfreie_Stadt"},"federalState":{"key":"07","name":"Rheinland-Pfalz"}},{"name":"Deutschherrnstr.","postalCode":"67661","locality":"Kaiserslautern","municipality":{"key":"07312000","name":"Kaiserslautern, Stadt","type":"Kreisfreie_Stadt"},"district":{"key":"07312","name":"Kaiserslautern, kreisfreie Stadt","type":"Kreisfreie_Stadt"},"federalState":{"key":"07","name":"Rheinland-Pfalz"}},{"name":"Distelstr.","postalCode":"67657","locality":"Kaiserslautern","municipality":{"key":"07312000","name":"Kaiserslautern, Stadt","type":"Kreisfreie_Stadt"},"district":{"key":"07312","name":"Kaiserslautern, kreisfreie Stadt","type":"Kreisfreie_Stadt"},"federalState":{"key":"07","name":"Rheinland-Pfalz"}},{"name":"Donnersbergstr.","postalCode":"67657","locality":"Kaiserslautern","municipality":{"key":"07312000","name":"Kaiserslautern, Stadt","type":"Kreisfreie_Stadt"},"district":{"key":"07312","name":"Kaiserslautern, kreisfreie Stadt","type":"Kreisfreie_Stadt"},"federalState":{"key":"07","name":"Rheinland-Pfalz"}},{"name":"Dornenstr.","postalCode":"67657","locality":"Kaiserslautern","municipality":{"key":"07312000","name":"Kaiserslautern, Stadt","type":"Kreisfreie_Stadt"},"district":{"key":"07312","name":"Kaiserslautern, kreisfreie Stadt","type":"Kreisfreie_Stadt"},"federalState":{"key":"07","name":"Rheinland-Pfalz"}},{"name":"Douzystr.","postalCode":"67661","locality":"Kaiserslautern","municipality":{"key":"07312000","name":"Kaiserslautern, Stadt","type":"Kreisfreie_Stadt"},"district":{"key":"07312","name":"Kaiserslautern, kreisfreie Stadt","type":"Kreisfreie_Stadt"},"federalState":{"key":"07","name":"Rheinland-Pfalz"}},{"name":"Drei Linden","postalCode":"67657","locality":"Kaiserslautern","municipality":{"key":"07312000","name":"Kaiserslautern, Stadt","type":"Kreisfreie_Stadt"},"district":{"key":"07312","name":"Kaiserslautern, kreisfreie Stadt","type":"Kreisfreie_Stadt"},"federalState":{"key":"07","name":"Rheinland-Pfalz"}},{"name":"Drei-Steine-Ring","postalCode":"67661","locality":"Kaiserslautern","municipality":{"key":"07312000","name":"Kaiserslautern, Stadt","type":"Kreisfreie_Stadt"},"district":{"key":"07312","name":"Kaiserslautern, kreisfreie Stadt","type":"Kreisfreie_Stadt"},"federalState":{"key":"07","name":"Rheinland-Pfalz"}},{"name":"Dresdener Str.","postalCode":"67663","locality":"Kaiserslautern","municipality":{"key":"07312000","name":"Kaiserslautern, Stadt","type":"Kreisfreie_Stadt"},"district":{"key":"07312","name":"Kaiserslautern, kreisfreie Stadt","type":"Kreisfreie_Stadt"},"federalState":{"key":"07","name":"Rheinland-Pfalz"}},{"name":"Drosselgasse","postalCode":"67661","locality":"Kaiserslautern","municipality":{"key":"07312000","name":"Kaiserslautern, Stadt","type":"Kreisfreie_Stadt"},"district":{"key":"07312","name":"Kaiserslautern, kreisfreie Stadt","type":"Kreisfreie_Stadt"},"federalState":{"key":"07","name":"Rheinland-Pfalz"}},{"name":"Dürerstr.","postalCode":"67659","locality":"Kaiserslautern","municipality":{"key":"07312000","name":"Kaiserslautern, Stadt","type":"Kreisfreie_Stadt"},"district":{"key":"07312","name":"Kaiserslautern, kreisfreie Stadt","type":"Kreisfreie_Stadt"},"federalState":{"key":"07","name":"Rheinland-Pfalz"}},{"name":"Eisackerstr.","postalCode":"67734","locality":"Katzweiler","municipality":{"key":"07335017","name":"Katzweiler","type":"Kreisangehörige_Gemeinde"},"district":{"key":"07335","name":"Kaiserslautern","type":"Landkreis"},"federalState":{"key":"07","name":"Rheinland-Pfalz"}},{"name":"Eisenbahnstr.","postalCode":"67734","locality":"Katzweiler","municipality":{"key":"07335017","name":"Katzweiler","type":"Kreisangehörige_Gemeinde"},"district":{"key":"07335","name":"Kaiserslautern","type":"Landkreis"},"federalState":{"key":"07","name":"Rheinland-Pfalz"}},{"name":"Friedenstr.","postalCode":"67734","locality":"Katzweiler","municipality":{"key":"07335017","name":"Katzweiler","type":"Kreisangehörige_Gemeinde"},"district":{"key":"07335","name":"Kaiserslautern","type":"Landkreis"},"federalState":{"key":"07","name":"Rheinland-Pfalz"}},{"name":"Frühlingstr.","postalCode":"67734","locality":"Katzweiler","municipality":{"key":"07335017","name":"Katzweiler","type":"Kreisangehörige_Gemeinde"},"district":{"key":"07335","name":"Kaiserslautern","type":"Landkreis"},"federalState":{"key":"07","name":"Rheinland-Pfalz"}},{"name":"Goldgrube","postalCode":"67734","locality":"Katzweiler","municipality":{"key":"07335017","name":"Katzweiler","type":"Kreisangehörige_Gemeinde"},"district":{"key":"07335","name":"Kaiserslautern","type":"Landkreis"},"federalState":{"key":"07","name":"Rheinland-Pfalz"}},{"name":"Hartmannsgraben","postalCode":"67734","locality":"Katzweiler","municipality":{"key":"07335017","name":"Katzweiler","type":"Kreisangehörige_Gemeinde"},"district":{"key":"07335","name":"Kaiserslautern","type":"Landkreis"},"federalState":{"key":"07","name":"Rheinland-Pfalz"}},{"name":"Hartstr.","postalCode":"67734","locality":"Katzweiler","municipality":{"key":"07335017","name":"Katzweiler","type":"Kreisangehörige_Gemeinde"},"district":{"key":"07335","name":"Kaiserslautern","type":"Landkreis"},"federalState":{"key":"07","name":"Rheinland-Pfalz"}},{"name":"Hartwiesen","postalCode":"67734","locality":"Katzweiler","municipality":{"key":"07335017","name":"Katzweiler","type":"Kreisangehörige_Gemeinde"},"district":{"key":"07335","name":"Kaiserslautern","type":"Landkreis"},"federalState":{"key":"07","name":"Rheinland-Pfalz"}},{"name":"Hauptstr.","postalCode":"67734","locality":"Katzweiler","municipality":{"key":"07335017","name":"Katzweiler","type":"Kreisangehörige_Gemeinde"},"district":{"key":"07335","name":"Kaiserslautern","type":"Landkreis"},"federalState":{"key":"07","name":"Rheinland-Pfalz"}},{"name":"Hebelstr.","postalCode":"67734","locality":"Katzweiler","municipality":{"key":"07335017","name":"Katzweiler","type":"Kreisangehörige_Gemeinde"},"district":{"key":"07335","name":"Kaiserslautern","type":"Landkreis"},"federalState":{"key":"07","name":"Rheinland-Pfalz"}},{"name":"Herbstweg","postalCode":"67734","locality":"Katzweiler","municipality":{"key":"07335017","name":"Katzweiler","type":"Kreisangehörige_Gemeinde"},"district":{"key":"07335","name":"Kaiserslautern","type":"Landkreis"},"federalState":{"key":"07","name":"Rheinland-Pfalz"}},{"name":"Im Brühl","postalCode":"67734","locality":"Katzweiler","municipality":{"key":"07335017","name":"Katzweiler","type":"Kreisangehörige_Gemeinde"},"district":{"key":"07335","name":"Kaiserslautern","type":"Landkreis"},"federalState":{"key":"07","name":"Rheinland-Pfalz"}},{"name":"Im Schießgarten","postalCode":"67734","locality":"Katzweiler","municipality":{"key":"07335017","name":"Katzweiler","type":"Kreisangehörige_Gemeinde"},"district":{"key":"07335","name":"Kaiserslautern","type":"Landkreis"},"federalState":{"key":"07","name":"Rheinland-Pfalz"}},{"name":"In der Schell","postalCode":"67734","locality":"Katzweiler","municipality":{"key":"07335017","name":"Katzweiler","type":"Kreisangehörige_Gemeinde"},"district":{"key":"07335","name":"Kaiserslautern","type":"Landkreis"},"federalState":{"key":"07","name":"Rheinland-Pfalz"}},{"name":"Jacob Diehl Str.","postalCode":"67659","locality":"Kaiserslautern","municipality":{"key":"07312000","name":"Kaiserslautern, Stadt","type":"Kreisfreie_Stadt"},"district":{"key":"07312","name":"Kaiserslautern, kreisfreie Stadt","type":"Kreisfreie_Stadt"},"federalState":{"key":"07","name":"Rheinland-Pfalz"}},{"name":"Jacob-Pfeiffer-Str.","postalCode":"67661","locality":"Kaiserslautern","municipality":{"key":"07312000","name":"Kaiserslautern, Stadt","type":"Kreisfreie_Stadt"},"district":{"key":"07312","name":"Kaiserslautern, kreisfreie Stadt","type":"Kreisfreie_Stadt"},"federalState":{"key":"07","name":"Rheinland-Pfalz"}},{"name":"Jacobstr.","postalCode":"67655","locality":"Kaiserslautern","municipality":{"key":"07312000","name":"Kaiserslautern, Stadt","type":"Kreisfreie_Stadt"},"district":{"key":"07312","name":"Kaiserslautern, kreisfreie Stadt","type":"Kreisfreie_Stadt"},"federalState":{"key":"07","name":"Rheinland-Pfalz"}},{"name":"Jägerstr.","postalCode":"67655","locality":"Kaiserslautern","municipality":{"key":"07312000","name":"Kaiserslautern, Stadt","type":"Kreisfreie_Stadt"},"district":{"key":"07312","name":"Kaiserslautern, kreisfreie Stadt","type":"Kreisfreie_Stadt"},"federalState":{"key":"07","name":"Rheinland-Pfalz"}},{"name":"Jahnstr.","postalCode":"67659","locality":"Kaiserslautern","municipality":{"key":"07312000","name":"Kaiserslautern, Stadt","type":"Kreisfreie_Stadt"},"district":{"key":"07312","name":"Kaiserslautern, kreisfreie Stadt","type":"Kreisfreie_Stadt"},"federalState":{"key":"07","name":"Rheinland-Pfalz"}},{"name":"Jakob-Blenk-Str.","postalCode":"67659","locality":"Kaiserslautern","municipality":{"key":"07312000","name":"Kaiserslautern, Stadt","type":"Kreisfreie_Stadt"},"district":{"key":"07312","name":"Kaiserslautern, kreisfreie Stadt","type":"Kreisfreie_Stadt"},"federalState":{"key":"07","name":"Rheinland-Pfalz"}},{"name":"Japanischer Garten","postalCode":"67657","locality":"Kaiserslautern","municipality":{"key":"07312000","name":"Kaiserslautern, Stadt","type":"Kreisfreie_Stadt"},"district":{"key":"07312","name":"Kaiserslautern, kreisfreie Stadt","type":"Kreisfreie_Stadt"},"federalState":{"key":"07","name":"Rheinland-Pfalz"}},{"name":"Jean-Schoen-Park","postalCode":"67659","locality":"Kaiserslautern","municipality":{"key":"07312000","name":"Kaiserslautern, Stadt","type":"Kreisfreie_Stadt"},"district":{"key":"07312","name":"Kaiserslautern, kreisfreie Stadt","type":"Kreisfreie_Stadt"},"federalState":{"key":"07","name":"Rheinland-Pfalz"}},{"name":"Jenaer Str.","postalCode":"67663","locality":"Kaiserslautern","municipality":{"key":"07312000","name":"Kaiserslautern, Stadt","type":"Kreisfreie_Stadt"},"district":{"key":"07312","name":"Kaiserslautern, kreisfreie Stadt","type":"Kreisfreie_Stadt"},"federalState":{"key":"07","name":"Rheinland-Pfalz"}},{"name":"Johanniskreuzer Str.","postalCode":"67661","locality":"Kaiserslautern","municipality":{"key":"07312000","name":"Kaiserslautern, Stadt","type":"Kreisfreie_Stadt"},"district":{"key":"07312","name":"Kaiserslautern, kreisfreie Stadt","type":"Kreisfreie_Stadt"},"federalState":{"key":"07","name":"Rheinland-Pfalz"}},{"name":"Josefstr.","postalCode":"67655","locality":"Kaiserslautern","municipality":{"key":"07312000","name":"Kaiserslautern, Stadt","type":"Kreisfreie_Stadt"},"district":{"key":"07312","name":"Kaiserslautern, kreisfreie Stadt","type":"Kreisfreie_Stadt"},"federalState":{"key":"07","name":"Rheinland-Pfalz"}},{"name":"Joseph-Neumayer-Str.","postalCode":"67657","locality":"Kaiserslautern","municipality":{"key":"07312000","name":"Kaiserslautern, Stadt","type":"Kreisfreie_Stadt"},"district":{"key":"07312","name":"Kaiserslautern, kreisfreie Stadt","type":"Kreisfreie_Stadt"},"federalState":{"key":"07","name":"Rheinland-Pfalz"}},{"name":"Julius-Gravius-Weg","postalCode":"67657","locality":"Kaiserslautern","municipality":{"key":"07312000","name":"Kaiserslautern, Stadt","type":"Kreisfreie_Stadt"},"district":{"key":"07312","name":"Kaiserslautern, kreisfreie Stadt","type":"Kreisfreie_Stadt"},"federalState":{"key":"07","name":"Rheinland-Pfalz"}},{"name":"Julius-Krieger-Str.","postalCode":"67659","locality":"Kaiserslautern","municipality":{"key":"07312000","name":"Kaiserslautern, Stadt","type":"Kreisfreie_Stadt"},"district":{"key":"07312","name":"Kaiserslautern, kreisfreie Stadt","type":"Kreisfreie_Stadt"},"federalState":{"key":"07","name":"Rheinland-Pfalz"}},{"name":"Julius-Küchler-Str.","postalCode":"67659","locality":"Kaiserslautern","municipality":{"key":"07312000","name":"Kaiserslautern, Stadt","type":"Kreisfreie_Stadt"},"district":{"key":"07312","name":"Kaiserslautern, kreisfreie Stadt","type":"Kreisfreie_Stadt"},"federalState":{"key":"07","name":"Rheinland-Pfalz"}},{"name":"Jung-Stilling-Str.","postalCode":"67663","locality":"Kaiserslautern","municipality":{"key":"07312000","name":"Kaiserslautern, Stadt","type":"Kreisfreie_Stadt"},"district":{"key":"07312","name":"Kaiserslautern, kreisfreie Stadt","type":"Kreisfreie_Stadt"},"federalState":{"key":"07","name":"Rheinland-Pfalz"}},{"name":"Karlshof","postalCode":"67734","locality":"Katzweiler","municipality":{"key":"07335017","name":"Katzweiler","type":"Kreisangehörige_Gemeinde"},"district":{"key":"07335","name":"Kaiserslautern","type":"Landkreis"},"federalState":{"key":"07","name":"Rheinland-Pfalz"}},{"name":"Kircheck","postalCode":"67734","locality":"Katzweiler","municipality":{"key":"07335017","name":"Katzweiler","type":"Kreisangehörige_Gemeinde"},"district":{"key":"07335","name":"Kaiserslautern","type":"Landkreis"},"federalState":{"key":"07","name":"Rheinland-Pfalz"}},{"name":"Kühbörncheshof","postalCode":"67734","locality":"Katzweiler","municipality":{"key":"07335017","name":"Katzweiler","type":"Kreisangehörige_Gemeinde"},"district":{"key":"07335","name":"Kaiserslautern","type":"Landkreis"},"federalState":{"key":"07","name":"Rheinland-Pfalz"}},{"name":"Kurpfalzstr.","postalCode":"67734","locality":"Katzweiler","municipality":{"key":"07335017","name":"Katzweiler","type":"Kreisangehörige_Gemeinde"},"district":{"key":"07335","name":"Kaiserslautern","type":"Landkreis"},"federalState":{"key":"07","name":"Rheinland-Pfalz"}},{"name":"Langer Boden","postalCode":"67734","locality":"Katzweiler","municipality":{"key":"07335017","name":"Katzweiler","type":"Kreisangehörige_Gemeinde"},"district":{"key":"07335","name":"Kaiserslautern","type":"Landkreis"},"federalState":{"key":"07","name":"Rheinland-Pfalz"}},{"name":"Lauterstr.","postalCode":"67734","locality":"Katzweiler","municipality":{"key":"07335017","name":"Katzweiler","type":"Kreisangehörige_Gemeinde"},"district":{"key":"07335","name":"Kaiserslautern","type":"Landkreis"},"federalState":{"key":"07","name":"Rheinland-Pfalz"}},{"name":"Mehlbacher Str.","postalCode":"67734","locality":"Katzweiler","municipality":{"key":"07335017","name":"Katzweiler","type":"Kreisangehörige_Gemeinde"},"district":{"key":"07335","name":"Kaiserslautern","type":"Landkreis"},"federalState":{"key":"07","name":"Rheinland-Pfalz"}},{"name":"Mühleckerstr.","postalCode":"67734","locality":"Katzweiler","municipality":{"key":"07335017","name":"Katzweiler","type":"Kreisangehörige_Gemeinde"},"district":{"key":"07335","name":"Kaiserslautern","type":"Landkreis"},"federalState":{"key":"07","name":"Rheinland-Pfalz"}},{"name":"Nadelstr.","postalCode":"67655","locality":"Kaiserslautern","municipality":{"key":"07312000","name":"Kaiserslautern, Stadt","type":"Kreisfreie_Stadt"},"district":{"key":"07312","name":"Kaiserslautern, kreisfreie Stadt","type":"Kreisfreie_Stadt"},"federalState":{"key":"07","name":"Rheinland-Pfalz"}},{"name":"Naumburger Str.","postalCode":"67663","locality":"Kaiserslautern","municipality":{"key":"07312000","name":"Kaiserslautern, Stadt","type":"Kreisfreie_Stadt"},"district":{"key":"07312","name":"Kaiserslautern, kreisfreie Stadt","type":"Kreisfreie_Stadt"},"federalState":{"key":"07","name":"Rheinland-Pfalz"}},{"name":"Nelkenstr.","postalCode":"67659","locality":"Kaiserslautern","municipality":{"key":"07312000","name":"Kaiserslautern, Stadt","type":"Kreisfreie_Stadt"},"district":{"key":"07312","name":"Kaiserslautern, kreisfreie Stadt","type":"Kreisfreie_Stadt"},"federalState":{"key":"07","name":"Rheinland-Pfalz"}},{"name":"Neue Str.","postalCode":"67659","locality":"Kaiserslautern","municipality":{"key":"07312000","name":"Kaiserslautern, Stadt","type":"Kreisfreie_Stadt"},"district":{"key":"07312","name":"Kaiserslautern, kreisfreie Stadt","type":"Kreisfreie_Stadt"},"federalState":{"key":"07","name":"Rheinland-Pfalz"}},{"name":"Newhamstr.","postalCode":"67663","locality":"Kaiserslautern","municipality":{"key":"07312000","name":"Kaiserslautern, Stadt","type":"Kreisfreie_Stadt"},"district":{"key":"07312","name":"Kaiserslautern, kreisfreie Stadt","type":"Kreisfreie_Stadt"},"federalState":{"key":"07","name":"Rheinland-Pfalz"}},{"name":"Nordbahnstr.","postalCode":"67657","locality":"Kaiserslautern","municipality":{"key":"07312000","name":"Kaiserslautern, Stadt","type":"Kreisfreie_Stadt"},"district":{"key":"07312","name":"Kaiserslautern, kreisfreie Stadt","type":"Kreisfreie_Stadt"},"federalState":{"key":"07","name":"Rheinland-Pfalz"}},{"name":"Oberer Rossrück","postalCode":"67661","locality":"Kaiserslautern","municipality":{"key":"07312000","name":"Kaiserslautern, Stadt","type":"Kreisfreie_Stadt"},"district":{"key":"07312","name":"Kaiserslautern, kreisfreie Stadt","type":"Kreisfreie_Stadt"},"federalState":{"key":"07","name":"Rheinland-Pfalz"}},{"name":"Obere Str.","postalCode":"67659","locality":"Kaiserslautern","municipality":{"key":"07312000","name":"Kaiserslautern, Stadt","type":"Kreisfreie_Stadt"},"district":{"key":"07312","name":"Kaiserslautern, kreisfreie Stadt","type":"Kreisfreie_Stadt"},"federalState":{"key":"07","name":"Rheinland-Pfalz"}},{"name":"Obermaierstr.","postalCode":"67657","locality":"Kaiserslautern","municipality":{"key":"07312000","name":"Kaiserslautern, Stadt","type":"Kreisfreie_Stadt"},"district":{"key":"07312","name":"Kaiserslautern, kreisfreie Stadt","type":"Kreisfreie_Stadt"},"federalState":{"key":"07","name":"Rheinland-Pfalz"}},{"name":"Obstwiese","postalCode":"67659","locality":"Kaiserslautern","municipality":{"key":"07312000","name":"Kaiserslautern, Stadt","type":"Kreisfreie_Stadt"},"district":{"key":"07312","name":"Kaiserslautern, kreisfreie Stadt","type":"Kreisfreie_Stadt"},"federalState":{"key":"07","name":"Rheinland-Pfalz"}},{"name":"Ochsenberg","postalCode":"67659","locality":"Kaiserslautern","municipality":{"key":"07312000","name":"Kaiserslautern, Stadt","type":"Kreisfreie_Stadt"},"district":{"key":"07312","name":"Kaiserslautern, kreisfreie Stadt","type":"Kreisfreie_Stadt"},"federalState":{"key":"07","name":"Rheinland-Pfalz"}},{"name":"Ohlkasterhohl","postalCode":"67657","locality":"Kaiserslautern","municipality":{"key":"07312000","name":"Kaiserslautern, Stadt","type":"Kreisfreie_Stadt"},"district":{"key":"07312","name":"Kaiserslautern, kreisfreie Stadt","type":"Kreisfreie_Stadt"},"federalState":{"key":"07","name":"Rheinland-Pfalz"}},{"name":"Opelkreisel","postalCode":"67663","locality":"Kaiserslautern","municipality":{"key":"07312000","name":"Kaiserslautern, Stadt","type":"Kreisfreie_Stadt"},"district":{"key":"07312","name":"Kaiserslautern, kreisfreie Stadt","type":"Kreisfreie_Stadt"},"federalState":{"key":"07","name":"Rheinland-Pfalz"}},{"name":"Opelstr.","postalCode":"67659","locality":"Kaiserslautern","municipality":{"key":"07312000","name":"Kaiserslautern, Stadt","type":"Kreisfreie_Stadt"},"district":{"key":"07312","name":"Kaiserslautern, kreisfreie Stadt","type":"Kreisfreie_Stadt"},"federalState":{"key":"07","name":"Rheinland-Pfalz"}},{"name":"Opelstr.","postalCode":"67661","locality":"Kaiserslautern","municipality":{"key":"07312000","name":"Kaiserslautern, Stadt","type":"Kreisfreie_Stadt"},"district":{"key":"07312","name":"Kaiserslautern, kreisfreie Stadt","type":"Kreisfreie_Stadt"},"federalState":{"key":"07","name":"Rheinland-Pfalz"}},{"name":"Orchesterstr.","postalCode":"67655","locality":"Kaiserslautern","municipality":{"key":"07312000","name":"Kaiserslautern, Stadt","type":"Kreisfreie_Stadt"},"district":{"key":"07312","name":"Kaiserslautern, kreisfreie Stadt","type":"Kreisfreie_Stadt"},"federalState":{"key":"07","name":"Rheinland-Pfalz"}},{"name":"Orffstr.","postalCode":"67655","locality":"Kaiserslautern","municipality":{"key":"07312000","name":"Kaiserslautern, Stadt","type":"Kreisfreie_Stadt"},"district":{"key":"07312","name":"Kaiserslautern, kreisfreie Stadt","type":"Kreisfreie_Stadt"},"federalState":{"key":"07","name":"Rheinland-Pfalz"}},{"name":"Orthstr.","postalCode":"67655","locality":"Kaiserslautern","municipality":{"key":"07312000","name":"Kaiserslautern, Stadt","type":"Kreisfreie_Stadt"},"district":{"key":"07312","name":"Kaiserslautern, kreisfreie Stadt","type":"Kreisfreie_Stadt"},"federalState":{"key":"07","name":"Rheinland-Pfalz"}},{"name":"Oskar-Schlemmer-Ring","postalCode":"67657","locality":"Kaiserslautern","municipality":{"key":"07312000","name":"Kaiserslautern, Stadt","type":"Kreisfreie_Stadt"},"district":{"key":"07312","name":"Kaiserslautern, kreisfreie Stadt","type":"Kreisfreie_Stadt"},"federalState":{"key":"07","name":"Rheinland-Pfalz"}},{"name":"Osterberg","postalCode":"67659","locality":"Kaiserslautern","municipality":{"key":"07312000","name":"Kaiserslautern, Stadt","type":"Kreisfreie_Stadt"},"district":{"key":"07312","name":"Kaiserslautern, kreisfreie Stadt","type":"Kreisfreie_Stadt"},"federalState":{"key":"07","name":"Rheinland-Pfalz"}},{"name":"Osterstr.","postalCode":"67655","locality":"Kaiserslautern","municipality":{"key":"07312000","name":"Kaiserslautern, Stadt","type":"Kreisfreie_Stadt"},"district":{"key":"07312","name":"Kaiserslautern, kreisfreie Stadt","type":"Kreisfreie_Stadt"},"federalState":{"key":"07","name":"Rheinland-Pfalz"}},{"name":"Otterbacher Str.","postalCode":"67659","locality":"Kaiserslautern","municipality":{"key":"07312000","name":"Kaiserslautern, Stadt","type":"Kreisfreie_Stadt"},"district":{"key":"07312","name":"Kaiserslautern, kreisfreie Stadt","type":"Kreisfreie_Stadt"},"federalState":{"key":"07","name":"Rheinland-Pfalz"}},{"name":"Otterberger Hohl","postalCode":"67657","locality":"Kaiserslautern","municipality":{"key":"07312000","name":"Kaiserslautern, Stadt","type":"Kreisfreie_Stadt"},"district":{"key":"07312","name":"Kaiserslautern, kreisfreie Stadt","type":"Kreisfreie_Stadt"},"federalState":{"key":"07","name":"Rheinland-Pfalz"}},{"name":"Otterberger Str.","postalCode":"67659","locality":"Kaiserslautern","municipality":{"key":"07312000","name":"Kaiserslautern, Stadt","type":"Kreisfreie_Stadt"},"district":{"key":"07312","name":"Kaiserslautern, kreisfreie Stadt","type":"Kreisfreie_Stadt"},"federalState":{"key":"07","name":"Rheinland-Pfalz"}},{"name":"Ottostr.","postalCode":"67657","locality":"Kaiserslautern","municipality":{"key":"07312000","name":"Kaiserslautern, Stadt","type":"Kreisfreie_Stadt"},"district":{"key":"07312","name":"Kaiserslautern, kreisfreie Stadt","type":"Kreisfreie_Stadt"},"federalState":{"key":"07","name":"Rheinland-Pfalz"}},{"name":"Poststr.","postalCode":"67734","locality":"Katzweiler","municipality":{"key":"07335017","name":"Katzweiler","type":"Kreisangehörige_Gemeinde"},"district":{"key":"07335","name":"Kaiserslautern","type":"Landkreis"},"federalState":{"key":"07","name":"Rheinland-Pfalz"}},{"name":"Quellenstr.","postalCode":"67655","locality":"Kaiserslautern","municipality":{"key":"07312000","name":"Kaiserslautern, Stadt","type":"Kreisfreie_Stadt"},"district":{"key":"07312","name":"Kaiserslautern, kreisfreie Stadt","type":"Kreisfreie_Stadt"},"federalState":{"key":"07","name":"Rheinland-Pfalz"}},{"name":"Raabengasse","postalCode":"67657","locality":"Kaiserslautern","municipality":{"key":"07312000","name":"Kaiserslautern, Stadt","type":"Kreisfreie_Stadt"},"district":{"key":"07312","name":"Kaiserslautern, kreisfreie Stadt","type":"Kreisfreie_Stadt"},"federalState":{"key":"07","name":"Rheinland-Pfalz"}},{"name":"Raiffeisenstr.","postalCode":"67655","locality":"Kaiserslautern","municipality":{"key":"07312000","name":"Kaiserslautern, Stadt","type":"Kreisfreie_Stadt"},"district":{"key":"07312","name":"Kaiserslautern, kreisfreie Stadt","type":"Kreisfreie_Stadt"},"federalState":{"key":"07","name":"Rheinland-Pfalz"}},{"name":"Rambachstr.","postalCode":"67661","locality":"Kaiserslautern","municipality":{"key":"07312000","name":"Kaiserslautern, Stadt","type":"Kreisfreie_Stadt"},"district":{"key":"07312","name":"Kaiserslautern, kreisfreie Stadt","type":"Kreisfreie_Stadt"},"federalState":{"key":"07","name":"Rheinland-Pfalz"}},{"name":"Ramsteiner Str.","postalCode":"67661","locality":"Kaiserslautern","municipality":{"key":"07312000","name":"Kaiserslautern, Stadt","type":"Kreisfreie_Stadt"},"district":{"key":"07312","name":"Kaiserslautern, kreisfreie Stadt","type":"Kreisfreie_Stadt"},"federalState":{"key":"07","name":"Rheinland-Pfalz"}},{"name":"Rauhweid","postalCode":"67663","locality":"Kaiserslautern","municipality":{"key":"07312000","name":"Kaiserslautern, Stadt","type":"Kreisfreie_Stadt"},"district":{"key":"07312","name":"Kaiserslautern, kreisfreie Stadt","type":"Kreisfreie_Stadt"},"federalState":{"key":"07","name":"Rheinland-Pfalz"}},{"name":"Rauschenweg","postalCode":"67663","locality":"Kaiserslautern","municipality":{"key":"07312000","name":"Kaiserslautern, Stadt","type":"Kreisfreie_Stadt"},"district":{"key":"07312","name":"Kaiserslautern, kreisfreie Stadt","type":"Kreisfreie_Stadt"},"federalState":{"key":"07","name":"Rheinland-Pfalz"}},{"name":"Rehstr.","postalCode":"67659","locality":"Kaiserslautern","municipality":{"key":"07312000","name":"Kaiserslautern, Stadt","type":"Kreisfreie_Stadt"},"district":{"key":"07312","name":"Kaiserslautern, kreisfreie Stadt","type":"Kreisfreie_Stadt"},"federalState":{"key":"07","name":"Rheinland-Pfalz"}},{"name":"Reichswaldstr.","postalCode":"67663","locality":"Kaiserslautern","municipality":{"key":"07312000","name":"Kaiserslautern, Stadt","type":"Kreisfreie_Stadt"},"district":{"key":"07312","name":"Kaiserslautern, kreisfreie Stadt","type":"Kreisfreie_Stadt"},"federalState":{"key":"07","name":"Rheinland-Pfalz"}},{"name":"Richard-Menges-Str.","postalCode":"67659","locality":"Kaiserslautern","municipality":{"key":"07312000","name":"Kaiserslautern, Stadt","type":"Kreisfreie_Stadt"},"district":{"key":"07312","name":"Kaiserslautern, kreisfreie Stadt","type":"Kreisfreie_Stadt"},"federalState":{"key":"07","name":"Rheinland-Pfalz"}},{"name":"Richard-Wagner-Str.","postalCode":"67655","locality":"Kaiserslautern","municipality":{"key":"07312000","name":"Kaiserslautern, Stadt","type":"Kreisfreie_Stadt"},"district":{"key":"07312","name":"Kaiserslautern, kreisfreie Stadt","type":"Kreisfreie_Stadt"},"federalState":{"key":"07","name":"Rheinland-Pfalz"}},{"name":"Riemstr.","postalCode":"67663","locality":"Kaiserslautern","municipality":{"key":"07312000","name":"Kaiserslautern, Stadt","type":"Kreisfreie_Stadt"},"district":{"key":"07312","name":"Kaiserslautern, kreisfreie Stadt","type":"Kreisfreie_Stadt"},"federalState":{"key":"07","name":"Rheinland-Pfalz"}},{"name":"Ringstr.","postalCode":"67659","locality":"Kaiserslautern","municipality":{"key":"07312000","name":"Kaiserslautern, Stadt","type":"Kreisfreie_Stadt"},"district":{"key":"07312","name":"Kaiserslautern, kreisfreie Stadt","type":"Kreisfreie_Stadt"},"federalState":{"key":"07","name":"Rheinland-Pfalz"}},{"name":"Rittersberg","postalCode":"67657","locality":"Kaiserslautern","municipality":{"key":"07312000","name":"Kaiserslautern, Stadt","type":"Kreisfreie_Stadt"},"district":{"key":"07312","name":"Kaiserslautern, kreisfreie Stadt","type":"Kreisfreie_Stadt"},"federalState":{"key":"07","name":"Rheinland-Pfalz"}},{"name":"Ritterstr.","postalCode":"67661","locality":"Kaiserslautern","municipality":{"key":"07312000","name":"Kaiserslautern, Stadt","type":"Kreisfreie_Stadt"},"district":{"key":"07312","name":"Kaiserslautern, kreisfreie Stadt","type":"Kreisfreie_Stadt"},"federalState":{"key":"07","name":"Rheinland-Pfalz"}},{"name":"Röchlingstr.","postalCode":"67663","locality":"Kaiserslautern","municipality":{"key":"07312000","name":"Kaiserslautern, Stadt","type":"Kreisfreie_Stadt"},"district":{"key":"07312","name":"Kaiserslautern, kreisfreie Stadt","type":"Kreisfreie_Stadt"},"federalState":{"key":"07","name":"Rheinland-Pfalz"}},{"name":"Rodenbacher Str.","postalCode":"67661","locality":"Kaiserslautern","municipality":{"key":"07312000","name":"Kaiserslautern, Stadt","type":"Kreisfreie_Stadt"},"district":{"key":"07312","name":"Kaiserslautern, kreisfreie Stadt","type":"Kreisfreie_Stadt"},"federalState":{"key":"07","name":"Rheinland-Pfalz"}},{"name":"Römerstr.","postalCode":"67663","locality":"Kaiserslautern","municipality":{"key":"07312000","name":"Kaiserslautern, Stadt","type":"Kreisfreie_Stadt"},"district":{"key":"07312","name":"Kaiserslautern, kreisfreie Stadt","type":"Kreisfreie_Stadt"},"federalState":{"key":"07","name":"Rheinland-Pfalz"}},{"name":"Römerweg","postalCode":"67663","locality":"Kaiserslautern","municipality":{"key":"07312000","name":"Kaiserslautern, Stadt","type":"Kreisfreie_Stadt"},"district":{"key":"07312","name":"Kaiserslautern, kreisfreie Stadt","type":"Kreisfreie_Stadt"},"federalState":{"key":"07","name":"Rheinland-Pfalz"}},{"name":"Roonstr.","postalCode":"67655","locality":"Kaiserslautern","municipality":{"key":"07312000","name":"Kaiserslautern, Stadt","type":"Kreisfreie_Stadt"},"district":{"key":"07312","name":"Kaiserslautern, kreisfreie Stadt","type":"Kreisfreie_Stadt"},"federalState":{"key":"07","name":"Rheinland-Pfalz"}},{"name":"Rörschwaldstr.","postalCode":"67659","locality":"Kaiserslautern","municipality":{"key":"07312000","name":"Kaiserslautern, Stadt","type":"Kreisfreie_Stadt"},"district":{"key":"07312","name":"Kaiserslautern, kreisfreie Stadt","type":"Kreisfreie_Stadt"},"federalState":{"key":"07","name":"Rheinland-Pfalz"}},{"name":"Rosenstr.","postalCode":"67655","locality":"Kaiserslautern","municipality":{"key":"07312000","name":"Kaiserslautern, Stadt","type":"Kreisfreie_Stadt"},"district":{"key":"07312","name":"Kaiserslautern, kreisfreie Stadt","type":"Kreisfreie_Stadt"},"federalState":{"key":"07","name":"Rheinland-Pfalz"}},{"name":"Rostocker Str.","postalCode":"67663","locality":"Kaiserslautern","municipality":{"key":"07312000","name":"Kaiserslautern, Stadt","type":"Kreisfreie_Stadt"},"district":{"key":"07312","name":"Kaiserslautern, kreisfreie Stadt","type":"Kreisfreie_Stadt"},"federalState":{"key":"07","name":"Rheinland-Pfalz"}},{"name":"Rote Brücke","postalCode":"67657","locality":"Kaiserslautern","municipality":{"key":"07312000","name":"Kaiserslautern, Stadt","type":"Kreisfreie_Stadt"},"district":{"key":"07312","name":"Kaiserslautern, kreisfreie Stadt","type":"Kreisfreie_Stadt"},"federalState":{"key":"07","name":"Rheinland-Pfalz"}},{"name":"Rotenbergstr.","postalCode":"67659","locality":"Kaiserslautern","municipality":{"key":"07312000","name":"Kaiserslautern, Stadt","type":"Kreisfreie_Stadt"},"district":{"key":"07312","name":"Kaiserslautern, kreisfreie Stadt","type":"Kreisfreie_Stadt"},"federalState":{"key":"07","name":"Rheinland-Pfalz"}},{"name":"Rotsandweg","postalCode":"67657","locality":"Kaiserslautern","municipality":{"key":"07312000","name":"Kaiserslautern, Stadt","type":"Kreisfreie_Stadt"},"district":{"key":"07312","name":"Kaiserslautern, kreisfreie Stadt","type":"Kreisfreie_Stadt"},"federalState":{"key":"07","name":"Rheinland-Pfalz"}},{"name":"Rousseaustr.","postalCode":"67663","locality":"Kaiserslautern","municipality":{"key":"07312000","name":"Kaiserslautern, Stadt","type":"Kreisfreie_Stadt"},"district":{"key":"07312","name":"Kaiserslautern, kreisfreie Stadt","type":"Kreisfreie_Stadt"},"federalState":{"key":"07","name":"Rheinland-Pfalz"}},{"name":"Rudolf-Breitscheid-Str.","postalCode":"67655","locality":"Kaiserslautern","municipality":{"key":"07312000","name":"Kaiserslautern, Stadt","type":"Kreisfreie_Stadt"},"district":{"key":"07312","name":"Kaiserslautern, kreisfreie Stadt","type":"Kreisfreie_Stadt"},"federalState":{"key":"07","name":"Rheinland-Pfalz"}},{"name":"Rudolf-Diesel-Str.","postalCode":"67657","locality":"Kaiserslautern","municipality":{"key":"07312000","name":"Kaiserslautern, Stadt","type":"Kreisfreie_Stadt"},"district":{"key":"07312","name":"Kaiserslautern, kreisfreie Stadt","type":"Kreisfreie_Stadt"},"federalState":{"key":"07","name":"Rheinland-Pfalz"}},{"name":"Ruhe Almend","postalCode":"67655","locality":"Kaiserslautern","municipality":{"key":"07312000","name":"Kaiserslautern, Stadt","type":"Kreisfreie_Stadt"},"district":{"key":"07312","name":"Kaiserslautern, kreisfreie Stadt","type":"Kreisfreie_Stadt"},"federalState":{"key":"07","name":"Rheinland-Pfalz"}},{"name":"Ruhetal","postalCode":"67659","locality":"Kaiserslautern","municipality":{"key":"07312000","name":"Kaiserslautern, Stadt","type":"Kreisfreie_Stadt"},"district":{"key":"07312","name":"Kaiserslautern, kreisfreie Stadt","type":"Kreisfreie_Stadt"},"federalState":{"key":"07","name":"Rheinland-Pfalz"}},{"name":"Ruhetalweg","postalCode":"67659","locality":"Kaiserslautern","municipality":{"key":"07312000","name":"Kaiserslautern, Stadt","type":"Kreisfreie_Stadt"},"district":{"key":"07312","name":"Kaiserslautern, kreisfreie Stadt","type":"Kreisfreie_Stadt"},"federalState":{"key":"07","name":"Rheinland-Pfalz"}},{"name":"Rummelstr.","postalCode":"67655","locality":"Kaiserslautern","municipality":{"key":"07312000","name":"Kaiserslautern, Stadt","type":"Kreisfreie_Stadt"},"district":{"key":"07312","name":"Kaiserslautern, kreisfreie Stadt","type":"Kreisfreie_Stadt"},"federalState":{"key":"07","name":"Rheinland-Pfalz"}},{"name":"Rundwiesen","postalCode":"67661","locality":"Kaiserslautern","municipality":{"key":"07312000","name":"Kaiserslautern, Stadt","type":"Kreisfreie_Stadt"},"district":{"key":"07312","name":"Kaiserslautern, kreisfreie Stadt","type":"Kreisfreie_Stadt"},"federalState":{"key":"07","name":"Rheinland-Pfalz"}},{"name":"Rupprechtstr.","postalCode":"67659","locality":"Kaiserslautern","municipality":{"key":"07312000","name":"Kaiserslautern, Stadt","type":"Kreisfreie_Stadt"},"district":{"key":"07312","name":"Kaiserslautern, kreisfreie Stadt","type":"Kreisfreie_Stadt"},"federalState":{"key":"07","name":"Rheinland-Pfalz"}},{"name":"Rußgasse","postalCode":"67655","locality":"Kaiserslautern","municipality":{"key":"07312000","name":"Kaiserslautern, Stadt","type":"Kreisfreie_Stadt"},"district":{"key":"07312","name":"Kaiserslautern, kreisfreie Stadt","type":"Kreisfreie_Stadt"},"federalState":{"key":"07","name":"Rheinland-Pfalz"}},{"name":"Rütschhof","postalCode":"67659","locality":"Kaiserslautern","municipality":{"key":"07312000","name":"Kaiserslautern, Stadt","type":"Kreisfreie_Stadt"},"district":{"key":"07312","name":"Kaiserslautern, kreisfreie Stadt","type":"Kreisfreie_Stadt"},"federalState":{"key":"07","name":"Rheinland-Pfalz"}},{"name":"Rütschhofstr.","postalCode":"67659","locality":"Kaiserslautern","municipality":{"key":"07312000","name":"Kaiserslautern, Stadt","type":"Kreisfreie_Stadt"},"district":{"key":"07312","name":"Kaiserslautern, kreisfreie Stadt","type":"Kreisfreie_Stadt"},"federalState":{"key":"07","name":"Rheinland-Pfalz"}},{"name":"Schafmühle","postalCode":"67734","locality":"Katzweiler","municipality":{"key":"07335017","name":"Katzweiler","type":"Kreisangehörige_Gemeinde"},"district":{"key":"07335","name":"Kaiserslautern","type":"Landkreis"},"federalState":{"key":"07","name":"Rheinland-Pfalz"}},{"name":"Schlauderstr.","postalCode":"67734","locality":"Katzweiler","municipality":{"key":"07335017","name":"Katzweiler","type":"Kreisangehörige_Gemeinde"},"district":{"key":"07335","name":"Kaiserslautern","type":"Landkreis"},"federalState":{"key":"07","name":"Rheinland-Pfalz"}},{"name":"Schmiedstr.","postalCode":"67734","locality":"Katzweiler","municipality":{"key":"07335017","name":"Katzweiler","type":"Kreisangehörige_Gemeinde"},"district":{"key":"07335","name":"Kaiserslautern","type":"Landkreis"},"federalState":{"key":"07","name":"Rheinland-Pfalz"}},{"name":"Schulstr.","postalCode":"67734","locality":"Katzweiler","municipality":{"key":"07335017","name":"Katzweiler","type":"Kreisangehörige_Gemeinde"},"district":{"key":"07335","name":"Kaiserslautern","type":"Landkreis"},"federalState":{"key":"07","name":"Rheinland-Pfalz"}},{"name":"Siedlung","postalCode":"67734","locality":"Katzweiler","municipality":{"key":"07335017","name":"Katzweiler","type":"Kreisangehörige_Gemeinde"},"district":{"key":"07335","name":"Kaiserslautern","type":"Landkreis"},"federalState":{"key":"07","name":"Rheinland-Pfalz"}},{"name":"Sonnenhof","postalCode":"67734","locality":"Katzweiler","municipality":{"key":"07335017","name":"Katzweiler","type":"Kreisangehörige_Gemeinde"},"district":{"key":"07335","name":"Kaiserslautern","type":"Landkreis"},"federalState":{"key":"07","name":"Rheinland-Pfalz"}},{"name":"Sonnenstr.","postalCode":"67734","locality":"Katzweiler","municipality":{"key":"07335017","name":"Katzweiler","type":"Kreisangehörige_Gemeinde"},"district":{"key":"07335","name":"Kaiserslautern","type":"Landkreis"},"federalState":{"key":"07","name":"Rheinland-Pfalz"}},{"name":"Storcheneckerstr.","postalCode":"67734","locality":"Katzweiler","municipality":{"key":"07335017","name":"Katzweiler","type":"Kreisangehörige_Gemeinde"},"district":{"key":"07335","name":"Kaiserslautern","type":"Landkreis"},"federalState":{"key":"07","name":"Rheinland-Pfalz"}},{"name":"Talstr.","postalCode":"67734","locality":"Katzweiler","municipality":{"key":"07335017","name":"Katzweiler","type":"Kreisangehörige_Gemeinde"},"district":{"key":"07335","name":"Kaiserslautern","type":"Landkreis"},"federalState":{"key":"07","name":"Rheinland-Pfalz"}},{"name":"Uhlandstr.","postalCode":"67661","locality":"Kaiserslautern","municipality":{"key":"07312000","name":"Kaiserslautern, Stadt","type":"Kreisfreie_Stadt"},"district":{"key":"07312","name":"Kaiserslautern, kreisfreie Stadt","type":"Kreisfreie_Stadt"},"federalState":{"key":"07","name":"Rheinland-Pfalz"}},{"name":"Ulker-Gass","postalCode":"67657","locality":"Kaiserslautern","municipality":{"key":"07312000","name":"Kaiserslautern, Stadt","type":"Kreisfreie_Stadt"},"district":{"key":"07312","name":"Kaiserslautern, kreisfreie Stadt","type":"Kreisfreie_Stadt"},"federalState":{"key":"07","name":"Rheinland-Pfalz"}},{"name":"Ulmenstr.","postalCode":"67661","locality":"Kaiserslautern","municipality":{"key":"07312000","name":"Kaiserslautern, Stadt","type":"Kreisfreie_Stadt"},"district":{"key":"07312","name":"Kaiserslautern, kreisfreie Stadt","type":"Kreisfreie_Stadt"},"federalState":{"key":"07","name":"Rheinland-Pfalz"}},{"name":"Unter den 30 Morgen","postalCode":"67657","locality":"Kaiserslautern","municipality":{"key":"07312000","name":"Kaiserslautern, Stadt","type":"Kreisfreie_Stadt"},"district":{"key":"07312","name":"Kaiserslautern, kreisfreie Stadt","type":"Kreisfreie_Stadt"},"federalState":{"key":"07","name":"Rheinland-Pfalz"}},{"name":"Unterer Rossrück","postalCode":"67661","locality":"Kaiserslautern","municipality":{"key":"07312000","name":"Kaiserslautern, Stadt","type":"Kreisfreie_Stadt"},"district":{"key":"07312","name":"Kaiserslautern, kreisfreie Stadt","type":"Kreisfreie_Stadt"},"federalState":{"key":"07","name":"Rheinland-Pfalz"}},{"name":"Von der Leyen Str.","postalCode":"67734","locality":"Katzweiler","municipality":{"key":"07335017","name":"Katzweiler","type":"Kreisangehörige_Gemeinde"},"district":{"key":"07335","name":"Kaiserslautern","type":"Landkreis"},"federalState":{"key":"07","name":"Rheinland-Pfalz"}},{"name":"Waagstr.","postalCode":"67734","locality":"Katzweiler","municipality":{"key":"07335017","name":"Katzweiler","type":"Kreisangehörige_Gemeinde"},"district":{"key":"07335","name":"Kaiserslautern","type":"Landkreis"},"federalState":{"key":"07","name":"Rheinland-Pfalz"}},{"name":"Wiesenstr.","postalCode":"67734","locality":"Katzweiler","municipality":{"key":"07335017","name":"Katzweiler","type":"Kreisangehörige_Gemeinde"},"district":{"key":"07335","name":"Kaiserslautern","type":"Landkreis"},"federalState":{"key":"07","name":"Rheinland-Pfalz"}},{"name":"Wilhelm-Gruber-Str.","postalCode":"67734","locality":"Katzweiler","municipality":{"key":"07335017","name":"Katzweiler","type":"Kreisangehörige_Gemeinde"},"district":{"key":"07335","name":"Kaiserslautern","type":"Landkreis"},"federalState":{"key":"07","name":"Rheinland-Pfalz"}},{"name":"Winterweg","postalCode":"67734","locality":"Katzweiler","municipality":{"key":"07335017","name":"Katzweiler","type":"Kreisangehörige_Gemeinde"},"district":{"key":"07335","name":"Kaiserslautern","type":"Landkreis"},"federalState":{"key":"07","name":"Rheinland-Pfalz"}},{"name":"Ziegelhütterstr.","postalCode":"67734","locality":"Katzweiler","municipality":{"key":"07335017","name":"Katzweiler","type":"Kreisangehörige_Gemeinde"},"district":{"key":"07335","name":"Kaiserslautern","type":"Landkreis"},"federalState":{"key":"07","name":"Rheinland-Pfalz"}},{"name":"Ätzweide","postalCode":"67659","locality":"Kaiserslautern","municipality":{"key":"07312000","name":"Kaiserslautern, Stadt","type":"Kreisfreie_Stadt"},"district":{"key":"07312","name":"Kaiserslautern, kreisfreie Stadt","type":"Kreisfreie_Stadt"},"federalState":{"key":"07","name":"Rheinland-Pfalz"}},]