[{"name":"Ahornweg","postalCode":"97657","locality":"Sandberg","municipality":{"key":"09673162","name":"Sandberg","type":"Kreisangehörige_Gemeinde"},"district":{"key":"09673","name":"Rhön-Grabfeld","type":"Landkreis"},"federalState":{"key":"09","name":"Bayern"}},{"name":"Alter Müllersacker","postalCode":"97657","locality":"Sandberg","municipality":{"key":"09673162","name":"Sandberg","type":"Kreisangehörige_Gemeinde"},"district":{"key":"09673","name":"Rhön-Grabfeld","type":"Landkreis"},"federalState":{"key":"09","name":"Bayern"}},{"name":"Am Breitenfeld","postalCode":"97657","locality":"Sandberg","municipality":{"key":"09673162","name":"Sandberg","type":"Kreisangehörige_Gemeinde"},"district":{"key":"09673","name":"Rhön-Grabfeld","type":"Landkreis"},"federalState":{"key":"09","name":"Bayern"}},{"name":"Am Feldberg","postalCode":"97657","locality":"Sandberg","municipality":{"key":"09673162","name":"Sandberg","type":"Kreisangehörige_Gemeinde"},"district":{"key":"09673","name":"Rhön-Grabfeld","type":"Landkreis"},"federalState":{"key":"09","name":"Bayern"}},{"name":"Am Hang","postalCode":"97657","locality":"Sandberg","municipality":{"key":"09673162","name":"Sandberg","type":"Kreisangehörige_Gemeinde"},"district":{"key":"09673","name":"Rhön-Grabfeld","type":"Landkreis"},"federalState":{"key":"09","name":"Bayern"}},{"name":"Am Kapellchen","postalCode":"97657","locality":"Sandberg","municipality":{"key":"09673162","name":"Sandberg","type":"Kreisangehörige_Gemeinde"},"district":{"key":"09673","name":"Rhön-Grabfeld","type":"Landkreis"},"federalState":{"key":"09","name":"Bayern"}},{"name":"Am Sportplatz","postalCode":"97657","locality":"Sandberg","municipality":{"key":"09673162","name":"Sandberg","type":"Kreisangehörige_Gemeinde"},"district":{"key":"09673","name":"Rhön-Grabfeld","type":"Landkreis"},"federalState":{"key":"09","name":"Bayern"}},{"name":"Auenweg","postalCode":"97657","locality":"Sandberg","municipality":{"key":"09673162","name":"Sandberg","type":"Kreisangehörige_Gemeinde"},"district":{"key":"09673","name":"Rhön-Grabfeld","type":"Landkreis"},"federalState":{"key":"09","name":"Bayern"}},{"name":"Bergweg","postalCode":"97657","locality":"Sandberg","municipality":{"key":"09673162","name":"Sandberg","type":"Kreisangehörige_Gemeinde"},"district":{"key":"09673","name":"Rhön-Grabfeld","type":"Landkreis"},"federalState":{"key":"09","name":"Bayern"}},{"name":"Birkenweg","postalCode":"97657","locality":"Sandberg","municipality":{"key":"09673162","name":"Sandberg","type":"Kreisangehörige_Gemeinde"},"district":{"key":"09673","name":"Rhön-Grabfeld","type":"Landkreis"},"federalState":{"key":"09","name":"Bayern"}},{"name":"Blumenstr.","postalCode":"97657","locality":"Sandberg","municipality":{"key":"09673162","name":"Sandberg","type":"Kreisangehörige_Gemeinde"},"district":{"key":"09673","name":"Rhön-Grabfeld","type":"Landkreis"},"federalState":{"key":"09","name":"Bayern"}},{"name":"Buchenweg","postalCode":"97657","locality":"Sandberg","municipality":{"key":"09673162","name":"Sandberg","type":"Kreisangehörige_Gemeinde"},"district":{"key":"09673","name":"Rhön-Grabfeld","type":"Landkreis"},"federalState":{"key":"09","name":"Bayern"}},{"name":"Dr.-Bühner-Str.","postalCode":"97657","locality":"Sandberg","municipality":{"key":"09673162","name":"Sandberg","type":"Kreisangehörige_Gemeinde"},"district":{"key":"09673","name":"Rhön-Grabfeld","type":"Landkreis"},"federalState":{"key":"09","name":"Bayern"}},{"name":"Eichenweg","postalCode":"97657","locality":"Sandberg","municipality":{"key":"09673162","name":"Sandberg","type":"Kreisangehörige_Gemeinde"},"district":{"key":"09673","name":"Rhön-Grabfeld","type":"Landkreis"},"federalState":{"key":"09","name":"Bayern"}},{"name":"Erlenweg","postalCode":"97657","locality":"Sandberg","municipality":{"key":"09673162","name":"Sandberg","type":"Kreisangehörige_Gemeinde"},"district":{"key":"09673","name":"Rhön-Grabfeld","type":"Landkreis"},"federalState":{"key":"09","name":"Bayern"}},{"name":"Feuerbergstr.","postalCode":"97657","locality":"Sandberg","municipality":{"key":"09673162","name":"Sandberg","type":"Kreisangehörige_Gemeinde"},"district":{"key":"09673","name":"Rhön-Grabfeld","type":"Landkreis"},"federalState":{"key":"09","name":"Bayern"}},{"name":"Fichtenweg","postalCode":"97657","locality":"Sandberg","municipality":{"key":"09673162","name":"Sandberg","type":"Kreisangehörige_Gemeinde"},"district":{"key":"09673","name":"Rhön-Grabfeld","type":"Landkreis"},"federalState":{"key":"09","name":"Bayern"}},{"name":"Furtstr.","postalCode":"97657","locality":"Sandberg","municipality":{"key":"09673162","name":"Sandberg","type":"Kreisangehörige_Gemeinde"},"district":{"key":"09673","name":"Rhön-Grabfeld","type":"Landkreis"},"federalState":{"key":"09","name":"Bayern"}},{"name":"Gartenstr.","postalCode":"97657","locality":"Sandberg","municipality":{"key":"09673162","name":"Sandberg","type":"Kreisangehörige_Gemeinde"},"district":{"key":"09673","name":"Rhön-Grabfeld","type":"Landkreis"},"federalState":{"key":"09","name":"Bayern"}},{"name":"Hochrhöner","postalCode":"97657","locality":"Sandberg","municipality":{"key":"09673162","name":"Sandberg","type":"Kreisangehörige_Gemeinde"},"district":{"key":"09673","name":"Rhön-Grabfeld","type":"Landkreis"},"federalState":{"key":"09","name":"Bayern"}},{"name":"Höhenweg","postalCode":"97657","locality":"Sandberg","municipality":{"key":"09673162","name":"Sandberg","type":"Kreisangehörige_Gemeinde"},"district":{"key":"09673","name":"Rhön-Grabfeld","type":"Landkreis"},"federalState":{"key":"09","name":"Bayern"}},{"name":"Hüttenweg","postalCode":"97657","locality":"Sandberg","municipality":{"key":"09673162","name":"Sandberg","type":"Kreisangehörige_Gemeinde"},"district":{"key":"09673","name":"Rhön-Grabfeld","type":"Landkreis"},"federalState":{"key":"09","name":"Bayern"}},{"name":"In der Frohmass","postalCode":"97657","locality":"Sandberg","municipality":{"key":"09673162","name":"Sandberg","type":"Kreisangehörige_Gemeinde"},"district":{"key":"09673","name":"Rhön-Grabfeld","type":"Landkreis"},"federalState":{"key":"09","name":"Bayern"}},{"name":"Jakobus-Steg","postalCode":"97657","locality":"Sandberg","municipality":{"key":"09673162","name":"Sandberg","type":"Kreisangehörige_Gemeinde"},"district":{"key":"09673","name":"Rhön-Grabfeld","type":"Landkreis"},"federalState":{"key":"09","name":"Bayern"}},{"name":"Julius-Kardinal-Doepfner-Weg","postalCode":"97657","locality":"Sandberg","municipality":{"key":"09673162","name":"Sandberg","type":"Kreisangehörige_Gemeinde"},"district":{"key":"09673","name":"Rhön-Grabfeld","type":"Landkreis"},"federalState":{"key":"09","name":"Bayern"}},{"name":"Kaltenbrunnweg","postalCode":"97657","locality":"Sandberg","municipality":{"key":"09673162","name":"Sandberg","type":"Kreisangehörige_Gemeinde"},"district":{"key":"09673","name":"Rhön-Grabfeld","type":"Landkreis"},"federalState":{"key":"09","name":"Bayern"}},{"name":"Kippesweg","postalCode":"97657","locality":"Sandberg","municipality":{"key":"09673162","name":"Sandberg","type":"Kreisangehörige_Gemeinde"},"district":{"key":"09673","name":"Rhön-Grabfeld","type":"Landkreis"},"federalState":{"key":"09","name":"Bayern"}},{"name":"Kirchbergstr.","postalCode":"97657","locality":"Sandberg","municipality":{"key":"09673162","name":"Sandberg","type":"Kreisangehörige_Gemeinde"},"district":{"key":"09673","name":"Rhön-Grabfeld","type":"Landkreis"},"federalState":{"key":"09","name":"Bayern"}},{"name":"Kirchenstr.","postalCode":"97657","locality":"Sandberg","municipality":{"key":"09673162","name":"Sandberg","type":"Kreisangehörige_Gemeinde"},"district":{"key":"09673","name":"Rhön-Grabfeld","type":"Landkreis"},"federalState":{"key":"09","name":"Bayern"}},{"name":"Köhlerweg","postalCode":"97657","locality":"Sandberg","municipality":{"key":"09673162","name":"Sandberg","type":"Kreisangehörige_Gemeinde"},"district":{"key":"09673","name":"Rhön-Grabfeld","type":"Landkreis"},"federalState":{"key":"09","name":"Bayern"}},{"name":"Kreuzbergstr.","postalCode":"97657","locality":"Sandberg","municipality":{"key":"09673162","name":"Sandberg","type":"Kreisangehörige_Gemeinde"},"district":{"key":"09673","name":"Rhön-Grabfeld","type":"Landkreis"},"federalState":{"key":"09","name":"Bayern"}},{"name":"Küppelstr.","postalCode":"97657","locality":"Sandberg","municipality":{"key":"09673162","name":"Sandberg","type":"Kreisangehörige_Gemeinde"},"district":{"key":"09673","name":"Rhön-Grabfeld","type":"Landkreis"},"federalState":{"key":"09","name":"Bayern"}},{"name":"Langenleitener Holz","postalCode":"97657","locality":"Sandberg","municipality":{"key":"09673162","name":"Sandberg","type":"Kreisangehörige_Gemeinde"},"district":{"key":"09673","name":"Rhön-Grabfeld","type":"Landkreis"},"federalState":{"key":"09","name":"Bayern"}},{"name":"Lindenstr.","postalCode":"97657","locality":"Sandberg","municipality":{"key":"09673162","name":"Sandberg","type":"Kreisangehörige_Gemeinde"},"district":{"key":"09673","name":"Rhön-Grabfeld","type":"Landkreis"},"federalState":{"key":"09","name":"Bayern"}},{"name":"Marienstr.","postalCode":"97657","locality":"Sandberg","municipality":{"key":"09673162","name":"Sandberg","type":"Kreisangehörige_Gemeinde"},"district":{"key":"09673","name":"Rhön-Grabfeld","type":"Landkreis"},"federalState":{"key":"09","name":"Bayern"}},{"name":"Mosbach","postalCode":"97657","locality":"Sandberg","municipality":{"key":"09673162","name":"Sandberg","type":"Kreisangehörige_Gemeinde"},"district":{"key":"09673","name":"Rhön-Grabfeld","type":"Landkreis"},"federalState":{"key":"09","name":"Bayern"}},{"name":"Mühlgasse","postalCode":"97657","locality":"Sandberg","municipality":{"key":"09673162","name":"Sandberg","type":"Kreisangehörige_Gemeinde"},"district":{"key":"09673","name":"Rhön-Grabfeld","type":"Landkreis"},"federalState":{"key":"09","name":"Bayern"}},{"name":"Müllersweg","postalCode":"97657","locality":"Sandberg","municipality":{"key":"09673162","name":"Sandberg","type":"Kreisangehörige_Gemeinde"},"district":{"key":"09673","name":"Rhön-Grabfeld","type":"Landkreis"},"federalState":{"key":"09","name":"Bayern"}},{"name":"Neustädter Str.","postalCode":"97657","locality":"Sandberg","municipality":{"key":"09673162","name":"Sandberg","type":"Kreisangehörige_Gemeinde"},"district":{"key":"09673","name":"Rhön-Grabfeld","type":"Landkreis"},"federalState":{"key":"09","name":"Bayern"}},{"name":"Premicher Str.","postalCode":"97657","locality":"Sandberg","municipality":{"key":"09673162","name":"Sandberg","type":"Kreisangehörige_Gemeinde"},"district":{"key":"09673","name":"Rhön-Grabfeld","type":"Landkreis"},"federalState":{"key":"09","name":"Bayern"}},{"name":"Premischer Weg","postalCode":"97657","locality":"Sandberg","municipality":{"key":"09673162","name":"Sandberg","type":"Kreisangehörige_Gemeinde"},"district":{"key":"09673","name":"Rhön-Grabfeld","type":"Landkreis"},"federalState":{"key":"09","name":"Bayern"}},{"name":"Quellenweg","postalCode":"97657","locality":"Sandberg","municipality":{"key":"09673162","name":"Sandberg","type":"Kreisangehörige_Gemeinde"},"district":{"key":"09673","name":"Rhön-Grabfeld","type":"Landkreis"},"federalState":{"key":"09","name":"Bayern"}},{"name":"Rhönstr.","postalCode":"97657","locality":"Sandberg","municipality":{"key":"09673162","name":"Sandberg","type":"Kreisangehörige_Gemeinde"},"district":{"key":"09673","name":"Rhön-Grabfeld","type":"Landkreis"},"federalState":{"key":"09","name":"Bayern"}},{"name":"Rosenweg","postalCode":"97657","locality":"Sandberg","municipality":{"key":"09673162","name":"Sandberg","type":"Kreisangehörige_Gemeinde"},"district":{"key":"09673","name":"Rhön-Grabfeld","type":"Landkreis"},"federalState":{"key":"09","name":"Bayern"}},{"name":"RundwegKilianshof","postalCode":"97657","locality":"Sandberg","municipality":{"key":"09673162","name":"Sandberg","type":"Kreisangehörige_Gemeinde"},"district":{"key":"09673","name":"Rhön-Grabfeld","type":"Landkreis"},"federalState":{"key":"09","name":"Bayern"}},{"name":"Salzforststr.","postalCode":"97657","locality":"Sandberg","municipality":{"key":"09673162","name":"Sandberg","type":"Kreisangehörige_Gemeinde"},"district":{"key":"09673","name":"Rhön-Grabfeld","type":"Landkreis"},"federalState":{"key":"09","name":"Bayern"}},{"name":"Schäferweg","postalCode":"97657","locality":"Sandberg","municipality":{"key":"09673162","name":"Sandberg","type":"Kreisangehörige_Gemeinde"},"district":{"key":"09673","name":"Rhön-Grabfeld","type":"Landkreis"},"federalState":{"key":"09","name":"Bayern"}},{"name":"Schulstr.","postalCode":"97657","locality":"Sandberg","municipality":{"key":"09673162","name":"Sandberg","type":"Kreisangehörige_Gemeinde"},"district":{"key":"09673","name":"Rhön-Grabfeld","type":"Landkreis"},"federalState":{"key":"09","name":"Bayern"}},{"name":"Schusterweg","postalCode":"97657","locality":"Sandberg","municipality":{"key":"09673162","name":"Sandberg","type":"Kreisangehörige_Gemeinde"},"district":{"key":"09673","name":"Rhön-Grabfeld","type":"Landkreis"},"federalState":{"key":"09","name":"Bayern"}},{"name":"Sennenweg","postalCode":"97657","locality":"Sandberg","municipality":{"key":"09673162","name":"Sandberg","type":"Kreisangehörige_Gemeinde"},"district":{"key":"09673","name":"Rhön-Grabfeld","type":"Landkreis"},"federalState":{"key":"09","name":"Bayern"}},{"name":"Söllerweg","postalCode":"97657","locality":"Sandberg","municipality":{"key":"09673162","name":"Sandberg","type":"Kreisangehörige_Gemeinde"},"district":{"key":"09673","name":"Rhön-Grabfeld","type":"Landkreis"},"federalState":{"key":"09","name":"Bayern"}},{"name":"Stiergraben","postalCode":"97657","locality":"Sandberg","municipality":{"key":"09673162","name":"Sandberg","type":"Kreisangehörige_Gemeinde"},"district":{"key":"09673","name":"Rhön-Grabfeld","type":"Landkreis"},"federalState":{"key":"09","name":"Bayern"}},{"name":"Straubweg","postalCode":"97657","locality":"Sandberg","municipality":{"key":"09673162","name":"Sandberg","type":"Kreisangehörige_Gemeinde"},"district":{"key":"09673","name":"Rhön-Grabfeld","type":"Landkreis"},"federalState":{"key":"09","name":"Bayern"}},{"name":"Talstr.","postalCode":"97657","locality":"Sandberg","municipality":{"key":"09673162","name":"Sandberg","type":"Kreisangehörige_Gemeinde"},"district":{"key":"09673","name":"Rhön-Grabfeld","type":"Landkreis"},"federalState":{"key":"09","name":"Bayern"}},{"name":"Waldweg","postalCode":"97657","locality":"Sandberg","municipality":{"key":"09673162","name":"Sandberg","type":"Kreisangehörige_Gemeinde"},"district":{"key":"09673","name":"Rhön-Grabfeld","type":"Landkreis"},"federalState":{"key":"09","name":"Bayern"}},{"name":"Weingasse","postalCode":"97657","locality":"Sandberg","municipality":{"key":"09673162","name":"Sandberg","type":"Kreisangehörige_Gemeinde"},"district":{"key":"09673","name":"Rhön-Grabfeld","type":"Landkreis"},"federalState":{"key":"09","name":"Bayern"}},{"name":"Wiesenteiler","postalCode":"97657","locality":"Sandberg","municipality":{"key":"09673162","name":"Sandberg","type":"Kreisangehörige_Gemeinde"},"district":{"key":"09673","name":"Rhön-Grabfeld","type":"Landkreis"},"federalState":{"key":"09","name":"Bayern"}},]