[{"name":"Allerkamp","postalCode":"29556","locality":"Suderburg","municipality":{"key":"03360023","name":"Suderburg","type":"Kreisangehörige_Gemeinde"},"district":{"key":"03360","name":"Uelzen","type":"Landkreis"},"federalState":{"key":"03","name":"Niedersachsen"}},{"name":"Alte Celler Heerstr.","postalCode":"29556","locality":"Suderburg","municipality":{"key":"03360023","name":"Suderburg","type":"Kreisangehörige_Gemeinde"},"district":{"key":"03360","name":"Uelzen","type":"Landkreis"},"federalState":{"key":"03","name":"Niedersachsen"}},{"name":"Alte Dorfstr.","postalCode":"29556","locality":"Suderburg","municipality":{"key":"03360023","name":"Suderburg","type":"Kreisangehörige_Gemeinde"},"district":{"key":"03360","name":"Uelzen","type":"Landkreis"},"federalState":{"key":"03","name":"Niedersachsen"}},{"name":"Alter Stadtweg","postalCode":"29556","locality":"Suderburg","municipality":{"key":"03360023","name":"Suderburg","type":"Kreisangehörige_Gemeinde"},"district":{"key":"03360","name":"Uelzen","type":"Landkreis"},"federalState":{"key":"03","name":"Niedersachsen"}},{"name":"Am Alten Friedhof","postalCode":"29556","locality":"Suderburg","municipality":{"key":"03360023","name":"Suderburg","type":"Kreisangehörige_Gemeinde"},"district":{"key":"03360","name":"Uelzen","type":"Landkreis"},"federalState":{"key":"03","name":"Niedersachsen"}},{"name":"Am alten Sägewerk","postalCode":"29556","locality":"Suderburg","municipality":{"key":"03360023","name":"Suderburg","type":"Kreisangehörige_Gemeinde"},"district":{"key":"03360","name":"Uelzen","type":"Landkreis"},"federalState":{"key":"03","name":"Niedersachsen"}},{"name":"Am Apfelgarten","postalCode":"29556","locality":"Suderburg","municipality":{"key":"03360023","name":"Suderburg","type":"Kreisangehörige_Gemeinde"},"district":{"key":"03360","name":"Uelzen","type":"Landkreis"},"federalState":{"key":"03","name":"Niedersachsen"}},{"name":"Am Bahnhof","postalCode":"29556","locality":"Suderburg","municipality":{"key":"03360023","name":"Suderburg","type":"Kreisangehörige_Gemeinde"},"district":{"key":"03360","name":"Uelzen","type":"Landkreis"},"federalState":{"key":"03","name":"Niedersachsen"}},{"name":"Am Bötzelberg","postalCode":"29556","locality":"Suderburg","municipality":{"key":"03360023","name":"Suderburg","type":"Kreisangehörige_Gemeinde"},"district":{"key":"03360","name":"Uelzen","type":"Landkreis"},"federalState":{"key":"03","name":"Niedersachsen"}},{"name":"Am Dorfkrug","postalCode":"29556","locality":"Suderburg","municipality":{"key":"03360023","name":"Suderburg","type":"Kreisangehörige_Gemeinde"},"district":{"key":"03360","name":"Uelzen","type":"Landkreis"},"federalState":{"key":"03","name":"Niedersachsen"}},{"name":"Am Friedhof","postalCode":"29556","locality":"Suderburg","municipality":{"key":"03360023","name":"Suderburg","type":"Kreisangehörige_Gemeinde"},"district":{"key":"03360","name":"Uelzen","type":"Landkreis"},"federalState":{"key":"03","name":"Niedersachsen"}},{"name":"Am Kindergarten","postalCode":"29556","locality":"Suderburg","municipality":{"key":"03360023","name":"Suderburg","type":"Kreisangehörige_Gemeinde"},"district":{"key":"03360","name":"Uelzen","type":"Landkreis"},"federalState":{"key":"03","name":"Niedersachsen"}},{"name":"Am Lahbusch","postalCode":"29556","locality":"Suderburg","municipality":{"key":"03360023","name":"Suderburg","type":"Kreisangehörige_Gemeinde"},"district":{"key":"03360","name":"Uelzen","type":"Landkreis"},"federalState":{"key":"03","name":"Niedersachsen"}},{"name":"Am Sande","postalCode":"29556","locality":"Suderburg","municipality":{"key":"03360023","name":"Suderburg","type":"Kreisangehörige_Gemeinde"},"district":{"key":"03360","name":"Uelzen","type":"Landkreis"},"federalState":{"key":"03","name":"Niedersachsen"}},{"name":"Am Stahlbach","postalCode":"29556","locality":"Suderburg","municipality":{"key":"03360023","name":"Suderburg","type":"Kreisangehörige_Gemeinde"},"district":{"key":"03360","name":"Uelzen","type":"Landkreis"},"federalState":{"key":"03","name":"Niedersachsen"}},{"name":"Am Steinberg","postalCode":"29556","locality":"Suderburg","municipality":{"key":"03360023","name":"Suderburg","type":"Kreisangehörige_Gemeinde"},"district":{"key":"03360","name":"Uelzen","type":"Landkreis"},"federalState":{"key":"03","name":"Niedersachsen"}},{"name":"Am Tannenmoor","postalCode":"29556","locality":"Suderburg","municipality":{"key":"03360023","name":"Suderburg","type":"Kreisangehörige_Gemeinde"},"district":{"key":"03360","name":"Uelzen","type":"Landkreis"},"federalState":{"key":"03","name":"Niedersachsen"}},{"name":"Am Tannrähm","postalCode":"29556","locality":"Suderburg","municipality":{"key":"03360023","name":"Suderburg","type":"Kreisangehörige_Gemeinde"},"district":{"key":"03360","name":"Uelzen","type":"Landkreis"},"federalState":{"key":"03","name":"Niedersachsen"}},{"name":"Am Wehrfeld","postalCode":"29556","locality":"Suderburg","municipality":{"key":"03360023","name":"Suderburg","type":"Kreisangehörige_Gemeinde"},"district":{"key":"03360","name":"Uelzen","type":"Landkreis"},"federalState":{"key":"03","name":"Niedersachsen"}},{"name":"An der Kirche","postalCode":"29556","locality":"Suderburg","municipality":{"key":"03360023","name":"Suderburg","type":"Kreisangehörige_Gemeinde"},"district":{"key":"03360","name":"Uelzen","type":"Landkreis"},"federalState":{"key":"03","name":"Niedersachsen"}},{"name":"An der Mühle","postalCode":"29556","locality":"Suderburg","municipality":{"key":"03360023","name":"Suderburg","type":"Kreisangehörige_Gemeinde"},"district":{"key":"03360","name":"Uelzen","type":"Landkreis"},"federalState":{"key":"03","name":"Niedersachsen"}},{"name":"An der Napoleonsbrücke","postalCode":"29556","locality":"Suderburg","municipality":{"key":"03360023","name":"Suderburg","type":"Kreisangehörige_Gemeinde"},"district":{"key":"03360","name":"Uelzen","type":"Landkreis"},"federalState":{"key":"03","name":"Niedersachsen"}},{"name":"Auf dem Kampe","postalCode":"29556","locality":"Suderburg","municipality":{"key":"03360023","name":"Suderburg","type":"Kreisangehörige_Gemeinde"},"district":{"key":"03360","name":"Uelzen","type":"Landkreis"},"federalState":{"key":"03","name":"Niedersachsen"}},{"name":"Auf der Horst","postalCode":"29556","locality":"Suderburg","municipality":{"key":"03360023","name":"Suderburg","type":"Kreisangehörige_Gemeinde"},"district":{"key":"03360","name":"Uelzen","type":"Landkreis"},"federalState":{"key":"03","name":"Niedersachsen"}},{"name":"Bahnhofstr.","postalCode":"29556","locality":"Suderburg","municipality":{"key":"03360023","name":"Suderburg","type":"Kreisangehörige_Gemeinde"},"district":{"key":"03360","name":"Uelzen","type":"Landkreis"},"federalState":{"key":"03","name":"Niedersachsen"}},{"name":"Bahnhofsweg","postalCode":"29556","locality":"Suderburg","municipality":{"key":"03360023","name":"Suderburg","type":"Kreisangehörige_Gemeinde"},"district":{"key":"03360","name":"Uelzen","type":"Landkreis"},"federalState":{"key":"03","name":"Niedersachsen"}},{"name":"Bahnser Str.","postalCode":"29556","locality":"Suderburg","municipality":{"key":"03360023","name":"Suderburg","type":"Kreisangehörige_Gemeinde"},"district":{"key":"03360","name":"Uelzen","type":"Landkreis"},"federalState":{"key":"03","name":"Niedersachsen"}},{"name":"Bahnser Weg","postalCode":"29556","locality":"Suderburg","municipality":{"key":"03360023","name":"Suderburg","type":"Kreisangehörige_Gemeinde"},"district":{"key":"03360","name":"Uelzen","type":"Landkreis"},"federalState":{"key":"03","name":"Niedersachsen"}},{"name":"Bauernstr.","postalCode":"29556","locality":"Suderburg","municipality":{"key":"03360023","name":"Suderburg","type":"Kreisangehörige_Gemeinde"},"district":{"key":"03360","name":"Uelzen","type":"Landkreis"},"federalState":{"key":"03","name":"Niedersachsen"}},{"name":"Beim Jagdhaus","postalCode":"29556","locality":"Suderburg","municipality":{"key":"03360023","name":"Suderburg","type":"Kreisangehörige_Gemeinde"},"district":{"key":"03360","name":"Uelzen","type":"Landkreis"},"federalState":{"key":"03","name":"Niedersachsen"}},{"name":"Bergstr.","postalCode":"29556","locality":"Suderburg","municipality":{"key":"03360023","name":"Suderburg","type":"Kreisangehörige_Gemeinde"},"district":{"key":"03360","name":"Uelzen","type":"Landkreis"},"federalState":{"key":"03","name":"Niedersachsen"}},{"name":"Birkenweg","postalCode":"29556","locality":"Suderburg","municipality":{"key":"03360023","name":"Suderburg","type":"Kreisangehörige_Gemeinde"},"district":{"key":"03360","name":"Uelzen","type":"Landkreis"},"federalState":{"key":"03","name":"Niedersachsen"}},{"name":"Blumenstr.","postalCode":"29556","locality":"Suderburg","municipality":{"key":"03360023","name":"Suderburg","type":"Kreisangehörige_Gemeinde"},"district":{"key":"03360","name":"Uelzen","type":"Landkreis"},"federalState":{"key":"03","name":"Niedersachsen"}},{"name":"Böddenstedter Str.","postalCode":"29556","locality":"Suderburg","municipality":{"key":"03360023","name":"Suderburg","type":"Kreisangehörige_Gemeinde"},"district":{"key":"03360","name":"Uelzen","type":"Landkreis"},"federalState":{"key":"03","name":"Niedersachsen"}},{"name":"Böddenstedter Weg","postalCode":"29556","locality":"Suderburg","municipality":{"key":"03360023","name":"Suderburg","type":"Kreisangehörige_Gemeinde"},"district":{"key":"03360","name":"Uelzen","type":"Landkreis"},"federalState":{"key":"03","name":"Niedersachsen"}},{"name":"Brandsweg","postalCode":"29556","locality":"Suderburg","municipality":{"key":"03360023","name":"Suderburg","type":"Kreisangehörige_Gemeinde"},"district":{"key":"03360","name":"Uelzen","type":"Landkreis"},"federalState":{"key":"03","name":"Niedersachsen"}},{"name":"Breitenheeser Str.","postalCode":"29556","locality":"Suderburg","municipality":{"key":"03360023","name":"Suderburg","type":"Kreisangehörige_Gemeinde"},"district":{"key":"03360","name":"Uelzen","type":"Landkreis"},"federalState":{"key":"03","name":"Niedersachsen"}},{"name":"Breitenheeser Weg","postalCode":"29556","locality":"Suderburg","municipality":{"key":"03360023","name":"Suderburg","type":"Kreisangehörige_Gemeinde"},"district":{"key":"03360","name":"Uelzen","type":"Landkreis"},"federalState":{"key":"03","name":"Niedersachsen"}},{"name":"Bruchfeld","postalCode":"29556","locality":"Suderburg","municipality":{"key":"03360023","name":"Suderburg","type":"Kreisangehörige_Gemeinde"},"district":{"key":"03360","name":"Uelzen","type":"Landkreis"},"federalState":{"key":"03","name":"Niedersachsen"}},{"name":"Burgstr.","postalCode":"29556","locality":"Suderburg","municipality":{"key":"03360023","name":"Suderburg","type":"Kreisangehörige_Gemeinde"},"district":{"key":"03360","name":"Uelzen","type":"Landkreis"},"federalState":{"key":"03","name":"Niedersachsen"}},{"name":"Caspar-Lehman-Str.","postalCode":"29525","locality":"Uelzen","municipality":{"key":"03360025","name":"Uelzen, Hansestadt","type":"Stadt"},"district":{"key":"03360","name":"Uelzen","type":"Landkreis"},"federalState":{"key":"03","name":"Niedersachsen"}},{"name":"Celler Str.","postalCode":"29525","locality":"Uelzen","municipality":{"key":"03360025","name":"Uelzen, Hansestadt","type":"Stadt"},"district":{"key":"03360","name":"Uelzen","type":"Landkreis"},"federalState":{"key":"03","name":"Niedersachsen"}},{"name":"Daller Weg","postalCode":"29556","locality":"Suderburg","municipality":{"key":"03360023","name":"Suderburg","type":"Kreisangehörige_Gemeinde"},"district":{"key":"03360","name":"Uelzen","type":"Landkreis"},"federalState":{"key":"03","name":"Niedersachsen"}},{"name":"Dorfstr.","postalCode":"29556","locality":"Suderburg","municipality":{"key":"03360023","name":"Suderburg","type":"Kreisangehörige_Gemeinde"},"district":{"key":"03360","name":"Uelzen","type":"Landkreis"},"federalState":{"key":"03","name":"Niedersachsen"}},{"name":"Dreilinger Weg","postalCode":"29556","locality":"Suderburg","municipality":{"key":"03360023","name":"Suderburg","type":"Kreisangehörige_Gemeinde"},"district":{"key":"03360","name":"Uelzen","type":"Landkreis"},"federalState":{"key":"03","name":"Niedersachsen"}},{"name":"Elmensteg","postalCode":"29556","locality":"Suderburg","municipality":{"key":"03360023","name":"Suderburg","type":"Kreisangehörige_Gemeinde"},"district":{"key":"03360","name":"Uelzen","type":"Landkreis"},"federalState":{"key":"03","name":"Niedersachsen"}},{"name":"Fastenberg","postalCode":"29556","locality":"Suderburg","municipality":{"key":"03360023","name":"Suderburg","type":"Kreisangehörige_Gemeinde"},"district":{"key":"03360","name":"Uelzen","type":"Landkreis"},"federalState":{"key":"03","name":"Niedersachsen"}},{"name":"Feldstr.","postalCode":"29556","locality":"Suderburg","municipality":{"key":"03360023","name":"Suderburg","type":"Kreisangehörige_Gemeinde"},"district":{"key":"03360","name":"Uelzen","type":"Landkreis"},"federalState":{"key":"03","name":"Niedersachsen"}},{"name":"Fuchsweg","postalCode":"29556","locality":"Suderburg","municipality":{"key":"03360023","name":"Suderburg","type":"Kreisangehörige_Gemeinde"},"district":{"key":"03360","name":"Uelzen","type":"Landkreis"},"federalState":{"key":"03","name":"Niedersachsen"}},{"name":"Fuhrenkämpe","postalCode":"29556","locality":"Suderburg","municipality":{"key":"03360023","name":"Suderburg","type":"Kreisangehörige_Gemeinde"},"district":{"key":"03360","name":"Uelzen","type":"Landkreis"},"federalState":{"key":"03","name":"Niedersachsen"}},{"name":"Gartenweg","postalCode":"29556","locality":"Suderburg","municipality":{"key":"03360023","name":"Suderburg","type":"Kreisangehörige_Gemeinde"},"district":{"key":"03360","name":"Uelzen","type":"Landkreis"},"federalState":{"key":"03","name":"Niedersachsen"}},{"name":"Gelber Berg","postalCode":"29556","locality":"Suderburg","municipality":{"key":"03360023","name":"Suderburg","type":"Kreisangehörige_Gemeinde"},"district":{"key":"03360","name":"Uelzen","type":"Landkreis"},"federalState":{"key":"03","name":"Niedersachsen"}},{"name":"Gerdauer Str.","postalCode":"29556","locality":"Suderburg","municipality":{"key":"03360023","name":"Suderburg","type":"Kreisangehörige_Gemeinde"},"district":{"key":"03360","name":"Uelzen","type":"Landkreis"},"federalState":{"key":"03","name":"Niedersachsen"}},{"name":"Ginsterweg","postalCode":"29556","locality":"Suderburg","municipality":{"key":"03360023","name":"Suderburg","type":"Kreisangehörige_Gemeinde"},"district":{"key":"03360","name":"Uelzen","type":"Landkreis"},"federalState":{"key":"03","name":"Niedersachsen"}},{"name":"Glockenbergweg","postalCode":"29556","locality":"Suderburg","municipality":{"key":"03360023","name":"Suderburg","type":"Kreisangehörige_Gemeinde"},"district":{"key":"03360","name":"Uelzen","type":"Landkreis"},"federalState":{"key":"03","name":"Niedersachsen"}},{"name":"Graulinger Str.","postalCode":"29556","locality":"Suderburg","municipality":{"key":"03360023","name":"Suderburg","type":"Kreisangehörige_Gemeinde"},"district":{"key":"03360","name":"Uelzen","type":"Landkreis"},"federalState":{"key":"03","name":"Niedersachsen"}},{"name":"Grüner Weg","postalCode":"29556","locality":"Suderburg","municipality":{"key":"03360023","name":"Suderburg","type":"Kreisangehörige_Gemeinde"},"district":{"key":"03360","name":"Uelzen","type":"Landkreis"},"federalState":{"key":"03","name":"Niedersachsen"}},{"name":"Hagener Weg","postalCode":"29556","locality":"Suderburg","municipality":{"key":"03360023","name":"Suderburg","type":"Kreisangehörige_Gemeinde"},"district":{"key":"03360","name":"Uelzen","type":"Landkreis"},"federalState":{"key":"03","name":"Niedersachsen"}},{"name":"Haidkamp","postalCode":"29556","locality":"Suderburg","municipality":{"key":"03360023","name":"Suderburg","type":"Kreisangehörige_Gemeinde"},"district":{"key":"03360","name":"Uelzen","type":"Landkreis"},"federalState":{"key":"03","name":"Niedersachsen"}},{"name":"Hamerstorfer Str.","postalCode":"29556","locality":"Suderburg","municipality":{"key":"03360023","name":"Suderburg","type":"Kreisangehörige_Gemeinde"},"district":{"key":"03360","name":"Uelzen","type":"Landkreis"},"federalState":{"key":"03","name":"Niedersachsen"}},{"name":"Hasenwinkel","postalCode":"29556","locality":"Suderburg","municipality":{"key":"03360023","name":"Suderburg","type":"Kreisangehörige_Gemeinde"},"district":{"key":"03360","name":"Uelzen","type":"Landkreis"},"federalState":{"key":"03","name":"Niedersachsen"}},{"name":"Hauptstr.","postalCode":"29556","locality":"Suderburg","municipality":{"key":"03360023","name":"Suderburg","type":"Kreisangehörige_Gemeinde"},"district":{"key":"03360","name":"Uelzen","type":"Landkreis"},"federalState":{"key":"03","name":"Niedersachsen"}},{"name":"Heerstr.","postalCode":"29556","locality":"Suderburg","municipality":{"key":"03360023","name":"Suderburg","type":"Kreisangehörige_Gemeinde"},"district":{"key":"03360","name":"Uelzen","type":"Landkreis"},"federalState":{"key":"03","name":"Niedersachsen"}},{"name":"Heide-Entdeckerpfad","postalCode":"29556","locality":"Suderburg","municipality":{"key":"03360023","name":"Suderburg","type":"Kreisangehörige_Gemeinde"},"district":{"key":"03360","name":"Uelzen","type":"Landkreis"},"federalState":{"key":"03","name":"Niedersachsen"}},{"name":"Heidekamp","postalCode":"29556","locality":"Suderburg","municipality":{"key":"03360023","name":"Suderburg","type":"Kreisangehörige_Gemeinde"},"district":{"key":"03360","name":"Uelzen","type":"Landkreis"},"federalState":{"key":"03","name":"Niedersachsen"}},{"name":"Heideweg","postalCode":"29556","locality":"Suderburg","municipality":{"key":"03360023","name":"Suderburg","type":"Kreisangehörige_Gemeinde"},"district":{"key":"03360","name":"Uelzen","type":"Landkreis"},"federalState":{"key":"03","name":"Niedersachsen"}},{"name":"Hellbergsweg","postalCode":"29556","locality":"Suderburg","municipality":{"key":"03360023","name":"Suderburg","type":"Kreisangehörige_Gemeinde"},"district":{"key":"03360","name":"Uelzen","type":"Landkreis"},"federalState":{"key":"03","name":"Niedersachsen"}},{"name":"Herbert-Meyer-Str.","postalCode":"29556","locality":"Suderburg","municipality":{"key":"03360023","name":"Suderburg","type":"Kreisangehörige_Gemeinde"},"district":{"key":"03360","name":"Uelzen","type":"Landkreis"},"federalState":{"key":"03","name":"Niedersachsen"}},{"name":"Hinter den Höfen","postalCode":"29556","locality":"Suderburg","municipality":{"key":"03360023","name":"Suderburg","type":"Kreisangehörige_Gemeinde"},"district":{"key":"03360","name":"Uelzen","type":"Landkreis"},"federalState":{"key":"03","name":"Niedersachsen"}},{"name":"Holxer Str.","postalCode":"29556","locality":"Suderburg","municipality":{"key":"03360023","name":"Suderburg","type":"Kreisangehörige_Gemeinde"},"district":{"key":"03360","name":"Uelzen","type":"Landkreis"},"federalState":{"key":"03","name":"Niedersachsen"}},{"name":"Hösseringer Str.","postalCode":"29556","locality":"Suderburg","municipality":{"key":"03360023","name":"Suderburg","type":"Kreisangehörige_Gemeinde"},"district":{"key":"03360","name":"Uelzen","type":"Landkreis"},"federalState":{"key":"03","name":"Niedersachsen"}},{"name":"Im Dorfe","postalCode":"29556","locality":"Suderburg","municipality":{"key":"03360023","name":"Suderburg","type":"Kreisangehörige_Gemeinde"},"district":{"key":"03360","name":"Uelzen","type":"Landkreis"},"federalState":{"key":"03","name":"Niedersachsen"}},{"name":"Im Hussen","postalCode":"29556","locality":"Suderburg","municipality":{"key":"03360023","name":"Suderburg","type":"Kreisangehörige_Gemeinde"},"district":{"key":"03360","name":"Uelzen","type":"Landkreis"},"federalState":{"key":"03","name":"Niedersachsen"}},{"name":"Im Spring","postalCode":"29556","locality":"Suderburg","municipality":{"key":"03360023","name":"Suderburg","type":"Kreisangehörige_Gemeinde"},"district":{"key":"03360","name":"Uelzen","type":"Landkreis"},"federalState":{"key":"03","name":"Niedersachsen"}},{"name":"Im Winkel","postalCode":"29556","locality":"Suderburg","municipality":{"key":"03360023","name":"Suderburg","type":"Kreisangehörige_Gemeinde"},"district":{"key":"03360","name":"Uelzen","type":"Landkreis"},"federalState":{"key":"03","name":"Niedersachsen"}},{"name":"In den Twieten","postalCode":"29556","locality":"Suderburg","municipality":{"key":"03360023","name":"Suderburg","type":"Kreisangehörige_Gemeinde"},"district":{"key":"03360","name":"Uelzen","type":"Landkreis"},"federalState":{"key":"03","name":"Niedersachsen"}},{"name":"Industriestr.","postalCode":"29556","locality":"Suderburg","municipality":{"key":"03360023","name":"Suderburg","type":"Kreisangehörige_Gemeinde"},"district":{"key":"03360","name":"Uelzen","type":"Landkreis"},"federalState":{"key":"03","name":"Niedersachsen"}},{"name":"Jägerweg","postalCode":"29556","locality":"Suderburg","municipality":{"key":"03360023","name":"Suderburg","type":"Kreisangehörige_Gemeinde"},"district":{"key":"03360","name":"Uelzen","type":"Landkreis"},"federalState":{"key":"03","name":"Niedersachsen"}},{"name":"Kampweg","postalCode":"29556","locality":"Suderburg","municipality":{"key":"03360023","name":"Suderburg","type":"Kreisangehörige_Gemeinde"},"district":{"key":"03360","name":"Uelzen","type":"Landkreis"},"federalState":{"key":"03","name":"Niedersachsen"}},{"name":"Karl-Hillmer-Str.","postalCode":"29556","locality":"Suderburg","municipality":{"key":"03360023","name":"Suderburg","type":"Kreisangehörige_Gemeinde"},"district":{"key":"03360","name":"Uelzen","type":"Landkreis"},"federalState":{"key":"03","name":"Niedersachsen"}},{"name":"Katerberg","postalCode":"29556","locality":"Suderburg","municipality":{"key":"03360023","name":"Suderburg","type":"Kreisangehörige_Gemeinde"},"district":{"key":"03360","name":"Uelzen","type":"Landkreis"},"federalState":{"key":"03","name":"Niedersachsen"}},{"name":"Kattenstieg","postalCode":"29556","locality":"Suderburg","municipality":{"key":"03360023","name":"Suderburg","type":"Kreisangehörige_Gemeinde"},"district":{"key":"03360","name":"Uelzen","type":"Landkreis"},"federalState":{"key":"03","name":"Niedersachsen"}},{"name":"Katzensteg","postalCode":"29556","locality":"Suderburg","municipality":{"key":"03360023","name":"Suderburg","type":"Kreisangehörige_Gemeinde"},"district":{"key":"03360","name":"Uelzen","type":"Landkreis"},"federalState":{"key":"03","name":"Niedersachsen"}},{"name":"Katzenstr.","postalCode":"29556","locality":"Suderburg","municipality":{"key":"03360023","name":"Suderburg","type":"Kreisangehörige_Gemeinde"},"district":{"key":"03360","name":"Uelzen","type":"Landkreis"},"federalState":{"key":"03","name":"Niedersachsen"}},{"name":"Kiefernweg","postalCode":"29556","locality":"Suderburg","municipality":{"key":"03360023","name":"Suderburg","type":"Kreisangehörige_Gemeinde"},"district":{"key":"03360","name":"Uelzen","type":"Landkreis"},"federalState":{"key":"03","name":"Niedersachsen"}},{"name":"Kirchsteig","postalCode":"29556","locality":"Suderburg","municipality":{"key":"03360023","name":"Suderburg","type":"Kreisangehörige_Gemeinde"},"district":{"key":"03360","name":"Uelzen","type":"Landkreis"},"federalState":{"key":"03","name":"Niedersachsen"}},{"name":"Klein Süstedter Str.","postalCode":"29556","locality":"Suderburg","municipality":{"key":"03360023","name":"Suderburg","type":"Kreisangehörige_Gemeinde"},"district":{"key":"03360","name":"Uelzen","type":"Landkreis"},"federalState":{"key":"03","name":"Niedersachsen"}},{"name":"Krempelweg","postalCode":"29556","locality":"Suderburg","municipality":{"key":"03360023","name":"Suderburg","type":"Kreisangehörige_Gemeinde"},"district":{"key":"03360","name":"Uelzen","type":"Landkreis"},"federalState":{"key":"03","name":"Niedersachsen"}},{"name":"Kurze Str.","postalCode":"29556","locality":"Suderburg","municipality":{"key":"03360023","name":"Suderburg","type":"Kreisangehörige_Gemeinde"},"district":{"key":"03360","name":"Uelzen","type":"Landkreis"},"federalState":{"key":"03","name":"Niedersachsen"}},{"name":"Lehmkamp","postalCode":"29556","locality":"Suderburg","municipality":{"key":"03360023","name":"Suderburg","type":"Kreisangehörige_Gemeinde"},"district":{"key":"03360","name":"Uelzen","type":"Landkreis"},"federalState":{"key":"03","name":"Niedersachsen"}},{"name":"Lerchenberg","postalCode":"29556","locality":"Suderburg","municipality":{"key":"03360023","name":"Suderburg","type":"Kreisangehörige_Gemeinde"},"district":{"key":"03360","name":"Uelzen","type":"Landkreis"},"federalState":{"key":"03","name":"Niedersachsen"}},{"name":"Lerchenweg","postalCode":"29556","locality":"Suderburg","municipality":{"key":"03360023","name":"Suderburg","type":"Kreisangehörige_Gemeinde"},"district":{"key":"03360","name":"Uelzen","type":"Landkreis"},"federalState":{"key":"03","name":"Niedersachsen"}},{"name":"Lindenstr.","postalCode":"29556","locality":"Suderburg","municipality":{"key":"03360023","name":"Suderburg","type":"Kreisangehörige_Gemeinde"},"district":{"key":"03360","name":"Uelzen","type":"Landkreis"},"federalState":{"key":"03","name":"Niedersachsen"}},{"name":"Lönsweg","postalCode":"29556","locality":"Suderburg","municipality":{"key":"03360023","name":"Suderburg","type":"Kreisangehörige_Gemeinde"},"district":{"key":"03360","name":"Uelzen","type":"Landkreis"},"federalState":{"key":"03","name":"Niedersachsen"}},{"name":"Marktstr.","postalCode":"29556","locality":"Suderburg","municipality":{"key":"03360023","name":"Suderburg","type":"Kreisangehörige_Gemeinde"},"district":{"key":"03360","name":"Uelzen","type":"Landkreis"},"federalState":{"key":"03","name":"Niedersachsen"}},{"name":"Maschweg","postalCode":"29556","locality":"Suderburg","municipality":{"key":"03360023","name":"Suderburg","type":"Kreisangehörige_Gemeinde"},"district":{"key":"03360","name":"Uelzen","type":"Landkreis"},"federalState":{"key":"03","name":"Niedersachsen"}},{"name":"Meyerstr.","postalCode":"29556","locality":"Suderburg","municipality":{"key":"03360023","name":"Suderburg","type":"Kreisangehörige_Gemeinde"},"district":{"key":"03360","name":"Uelzen","type":"Landkreis"},"federalState":{"key":"03","name":"Niedersachsen"}},{"name":"Moorweg","postalCode":"29556","locality":"Suderburg","municipality":{"key":"03360023","name":"Suderburg","type":"Kreisangehörige_Gemeinde"},"district":{"key":"03360","name":"Uelzen","type":"Landkreis"},"federalState":{"key":"03","name":"Niedersachsen"}},{"name":"Mückenheim","postalCode":"29556","locality":"Suderburg","municipality":{"key":"03360023","name":"Suderburg","type":"Kreisangehörige_Gemeinde"},"district":{"key":"03360","name":"Uelzen","type":"Landkreis"},"federalState":{"key":"03","name":"Niedersachsen"}},{"name":"Mühlensteig","postalCode":"29556","locality":"Suderburg","municipality":{"key":"03360023","name":"Suderburg","type":"Kreisangehörige_Gemeinde"},"district":{"key":"03360","name":"Uelzen","type":"Landkreis"},"federalState":{"key":"03","name":"Niedersachsen"}},{"name":"Mühlenstr.","postalCode":"29556","locality":"Suderburg","municipality":{"key":"03360023","name":"Suderburg","type":"Kreisangehörige_Gemeinde"},"district":{"key":"03360","name":"Uelzen","type":"Landkreis"},"federalState":{"key":"03","name":"Niedersachsen"}},{"name":"Nelkenweg","postalCode":"29525","locality":"Uelzen","municipality":{"key":"03360025","name":"Uelzen, Hansestadt","type":"Stadt"},"district":{"key":"03360","name":"Uelzen","type":"Landkreis"},"federalState":{"key":"03","name":"Niedersachsen"}},{"name":"Neu Ripdorf","postalCode":"29525","locality":"Uelzen","municipality":{"key":"03360025","name":"Uelzen, Hansestadt","type":"Stadt"},"district":{"key":"03360","name":"Uelzen","type":"Landkreis"},"federalState":{"key":"03","name":"Niedersachsen"}},{"name":"Niemannsweg","postalCode":"29525","locality":"Uelzen","municipality":{"key":"03360025","name":"Uelzen, Hansestadt","type":"Stadt"},"district":{"key":"03360","name":"Uelzen","type":"Landkreis"},"federalState":{"key":"03","name":"Niedersachsen"}},{"name":"Niendorfer Str.","postalCode":"29525","locality":"Uelzen","municipality":{"key":"03360025","name":"Uelzen, Hansestadt","type":"Stadt"},"district":{"key":"03360","name":"Uelzen","type":"Landkreis"},"federalState":{"key":"03","name":"Niedersachsen"}},{"name":"Niendorfer Weg","postalCode":"29525","locality":"Uelzen","municipality":{"key":"03360025","name":"Uelzen, Hansestadt","type":"Stadt"},"district":{"key":"03360","name":"Uelzen","type":"Landkreis"},"federalState":{"key":"03","name":"Niedersachsen"}},{"name":"Nordallee","postalCode":"29525","locality":"Uelzen","municipality":{"key":"03360025","name":"Uelzen, Hansestadt","type":"Stadt"},"district":{"key":"03360","name":"Uelzen","type":"Landkreis"},"federalState":{"key":"03","name":"Niedersachsen"}},{"name":"Norkstr.","postalCode":"29525","locality":"Uelzen","municipality":{"key":"03360025","name":"Uelzen, Hansestadt","type":"Stadt"},"district":{"key":"03360","name":"Uelzen","type":"Landkreis"},"federalState":{"key":"03","name":"Niedersachsen"}},{"name":"Nothmannstr.","postalCode":"29525","locality":"Uelzen","municipality":{"key":"03360025","name":"Uelzen, Hansestadt","type":"Stadt"},"district":{"key":"03360","name":"Uelzen","type":"Landkreis"},"federalState":{"key":"03","name":"Niedersachsen"}},{"name":"Oberdieck Weg","postalCode":"29556","locality":"Suderburg","municipality":{"key":"03360023","name":"Suderburg","type":"Kreisangehörige_Gemeinde"},"district":{"key":"03360","name":"Uelzen","type":"Landkreis"},"federalState":{"key":"03","name":"Niedersachsen"}},{"name":"Obere Twiete","postalCode":"29556","locality":"Suderburg","municipality":{"key":"03360023","name":"Suderburg","type":"Kreisangehörige_Gemeinde"},"district":{"key":"03360","name":"Uelzen","type":"Landkreis"},"federalState":{"key":"03","name":"Niedersachsen"}},{"name":"Oestmannstr.","postalCode":"29556","locality":"Suderburg","municipality":{"key":"03360023","name":"Suderburg","type":"Kreisangehörige_Gemeinde"},"district":{"key":"03360","name":"Uelzen","type":"Landkreis"},"federalState":{"key":"03","name":"Niedersachsen"}},{"name":"Oldendorfer Str.","postalCode":"29556","locality":"Suderburg","municipality":{"key":"03360023","name":"Suderburg","type":"Kreisangehörige_Gemeinde"},"district":{"key":"03360","name":"Uelzen","type":"Landkreis"},"federalState":{"key":"03","name":"Niedersachsen"}},{"name":"Olmsruh","postalCode":"29556","locality":"Suderburg","municipality":{"key":"03360023","name":"Suderburg","type":"Kreisangehörige_Gemeinde"},"district":{"key":"03360","name":"Uelzen","type":"Landkreis"},"federalState":{"key":"03","name":"Niedersachsen"}},{"name":"Ortfeld","postalCode":"29556","locality":"Suderburg","municipality":{"key":"03360023","name":"Suderburg","type":"Kreisangehörige_Gemeinde"},"district":{"key":"03360","name":"Uelzen","type":"Landkreis"},"federalState":{"key":"03","name":"Niedersachsen"}},{"name":"Peerborn","postalCode":"29556","locality":"Suderburg","municipality":{"key":"03360023","name":"Suderburg","type":"Kreisangehörige_Gemeinde"},"district":{"key":"03360","name":"Uelzen","type":"Landkreis"},"federalState":{"key":"03","name":"Niedersachsen"}},{"name":"Poppelreunsweg","postalCode":"29556","locality":"Suderburg","municipality":{"key":"03360023","name":"Suderburg","type":"Kreisangehörige_Gemeinde"},"district":{"key":"03360","name":"Uelzen","type":"Landkreis"},"federalState":{"key":"03","name":"Niedersachsen"}},{"name":"Poststr.","postalCode":"29556","locality":"Suderburg","municipality":{"key":"03360023","name":"Suderburg","type":"Kreisangehörige_Gemeinde"},"district":{"key":"03360","name":"Uelzen","type":"Landkreis"},"federalState":{"key":"03","name":"Niedersachsen"}},{"name":"Postweg","postalCode":"29556","locality":"Suderburg","municipality":{"key":"03360023","name":"Suderburg","type":"Kreisangehörige_Gemeinde"},"district":{"key":"03360","name":"Uelzen","type":"Landkreis"},"federalState":{"key":"03","name":"Niedersachsen"}},{"name":"Räberspringweg","postalCode":"29556","locality":"Suderburg","municipality":{"key":"03360023","name":"Suderburg","type":"Kreisangehörige_Gemeinde"},"district":{"key":"03360","name":"Uelzen","type":"Landkreis"},"federalState":{"key":"03","name":"Niedersachsen"}},{"name":"Räber Str.","postalCode":"29556","locality":"Suderburg","municipality":{"key":"03360023","name":"Suderburg","type":"Kreisangehörige_Gemeinde"},"district":{"key":"03360","name":"Uelzen","type":"Landkreis"},"federalState":{"key":"03","name":"Niedersachsen"}},{"name":"Räberweg","postalCode":"29556","locality":"Suderburg","municipality":{"key":"03360023","name":"Suderburg","type":"Kreisangehörige_Gemeinde"},"district":{"key":"03360","name":"Uelzen","type":"Landkreis"},"federalState":{"key":"03","name":"Niedersachsen"}},{"name":"Räber West","postalCode":"29556","locality":"Suderburg","municipality":{"key":"03360023","name":"Suderburg","type":"Kreisangehörige_Gemeinde"},"district":{"key":"03360","name":"Uelzen","type":"Landkreis"},"federalState":{"key":"03","name":"Niedersachsen"}},{"name":"Rähnweg","postalCode":"29556","locality":"Suderburg","municipality":{"key":"03360023","name":"Suderburg","type":"Kreisangehörige_Gemeinde"},"district":{"key":"03360","name":"Uelzen","type":"Landkreis"},"federalState":{"key":"03","name":"Niedersachsen"}},{"name":"Rauchwinkel","postalCode":"29556","locality":"Suderburg","municipality":{"key":"03360023","name":"Suderburg","type":"Kreisangehörige_Gemeinde"},"district":{"key":"03360","name":"Uelzen","type":"Landkreis"},"federalState":{"key":"03","name":"Niedersachsen"}},{"name":"Ringstr.","postalCode":"29556","locality":"Suderburg","municipality":{"key":"03360023","name":"Suderburg","type":"Kreisangehörige_Gemeinde"},"district":{"key":"03360","name":"Uelzen","type":"Landkreis"},"federalState":{"key":"03","name":"Niedersachsen"}},{"name":"Rottannenstr.","postalCode":"29556","locality":"Suderburg","municipality":{"key":"03360023","name":"Suderburg","type":"Kreisangehörige_Gemeinde"},"district":{"key":"03360","name":"Uelzen","type":"Landkreis"},"federalState":{"key":"03","name":"Niedersachsen"}},{"name":"Rottenweg","postalCode":"29556","locality":"Suderburg","municipality":{"key":"03360023","name":"Suderburg","type":"Kreisangehörige_Gemeinde"},"district":{"key":"03360","name":"Uelzen","type":"Landkreis"},"federalState":{"key":"03","name":"Niedersachsen"}},{"name":"Schäfertrift","postalCode":"29556","locality":"Suderburg","municipality":{"key":"03360023","name":"Suderburg","type":"Kreisangehörige_Gemeinde"},"district":{"key":"03360","name":"Uelzen","type":"Landkreis"},"federalState":{"key":"03","name":"Niedersachsen"}},{"name":"Schellsbruch","postalCode":"29556","locality":"Suderburg","municipality":{"key":"03360023","name":"Suderburg","type":"Kreisangehörige_Gemeinde"},"district":{"key":"03360","name":"Uelzen","type":"Landkreis"},"federalState":{"key":"03","name":"Niedersachsen"}},{"name":"Schmiedestr.","postalCode":"29556","locality":"Suderburg","municipality":{"key":"03360023","name":"Suderburg","type":"Kreisangehörige_Gemeinde"},"district":{"key":"03360","name":"Uelzen","type":"Landkreis"},"federalState":{"key":"03","name":"Niedersachsen"}},{"name":"Schnuckentwiete","postalCode":"29556","locality":"Suderburg","municipality":{"key":"03360023","name":"Suderburg","type":"Kreisangehörige_Gemeinde"},"district":{"key":"03360","name":"Uelzen","type":"Landkreis"},"federalState":{"key":"03","name":"Niedersachsen"}},{"name":"Schöne Aussicht auf das Hardautal","postalCode":"29556","locality":"Suderburg","municipality":{"key":"03360023","name":"Suderburg","type":"Kreisangehörige_Gemeinde"},"district":{"key":"03360","name":"Uelzen","type":"Landkreis"},"federalState":{"key":"03","name":"Niedersachsen"}},{"name":"Schotterweg","postalCode":"29556","locality":"Suderburg","municipality":{"key":"03360023","name":"Suderburg","type":"Kreisangehörige_Gemeinde"},"district":{"key":"03360","name":"Uelzen","type":"Landkreis"},"federalState":{"key":"03","name":"Niedersachsen"}},{"name":"Schulstr.","postalCode":"29556","locality":"Suderburg","municipality":{"key":"03360023","name":"Suderburg","type":"Kreisangehörige_Gemeinde"},"district":{"key":"03360","name":"Uelzen","type":"Landkreis"},"federalState":{"key":"03","name":"Niedersachsen"}},{"name":"Schulweg","postalCode":"29556","locality":"Suderburg","municipality":{"key":"03360023","name":"Suderburg","type":"Kreisangehörige_Gemeinde"},"district":{"key":"03360","name":"Uelzen","type":"Landkreis"},"federalState":{"key":"03","name":"Niedersachsen"}},{"name":"Schützenstr.","postalCode":"29556","locality":"Suderburg","municipality":{"key":"03360023","name":"Suderburg","type":"Kreisangehörige_Gemeinde"},"district":{"key":"03360","name":"Uelzen","type":"Landkreis"},"federalState":{"key":"03","name":"Niedersachsen"}},{"name":"Schwarzer Weg","postalCode":"29556","locality":"Suderburg","municipality":{"key":"03360023","name":"Suderburg","type":"Kreisangehörige_Gemeinde"},"district":{"key":"03360","name":"Uelzen","type":"Landkreis"},"federalState":{"key":"03","name":"Niedersachsen"}},{"name":"Schweinsmoorweg","postalCode":"29556","locality":"Suderburg","municipality":{"key":"03360023","name":"Suderburg","type":"Kreisangehörige_Gemeinde"},"district":{"key":"03360","name":"Uelzen","type":"Landkreis"},"federalState":{"key":"03","name":"Niedersachsen"}},{"name":"Siekweg","postalCode":"29556","locality":"Suderburg","municipality":{"key":"03360023","name":"Suderburg","type":"Kreisangehörige_Gemeinde"},"district":{"key":"03360","name":"Uelzen","type":"Landkreis"},"federalState":{"key":"03","name":"Niedersachsen"}},{"name":"Sielstr.","postalCode":"29556","locality":"Suderburg","municipality":{"key":"03360023","name":"Suderburg","type":"Kreisangehörige_Gemeinde"},"district":{"key":"03360","name":"Uelzen","type":"Landkreis"},"federalState":{"key":"03","name":"Niedersachsen"}},{"name":"Stahlbachstr.","postalCode":"29556","locality":"Suderburg","municipality":{"key":"03360023","name":"Suderburg","type":"Kreisangehörige_Gemeinde"},"district":{"key":"03360","name":"Uelzen","type":"Landkreis"},"federalState":{"key":"03","name":"Niedersachsen"}},{"name":"Stintweg","postalCode":"29556","locality":"Suderburg","municipality":{"key":"03360023","name":"Suderburg","type":"Kreisangehörige_Gemeinde"},"district":{"key":"03360","name":"Uelzen","type":"Landkreis"},"federalState":{"key":"03","name":"Niedersachsen"}},{"name":"Tannrähmsring","postalCode":"29556","locality":"Suderburg","municipality":{"key":"03360023","name":"Suderburg","type":"Kreisangehörige_Gemeinde"},"district":{"key":"03360","name":"Uelzen","type":"Landkreis"},"federalState":{"key":"03","name":"Niedersachsen"}},{"name":"Tannrähmsweg","postalCode":"29556","locality":"Suderburg","municipality":{"key":"03360023","name":"Suderburg","type":"Kreisangehörige_Gemeinde"},"district":{"key":"03360","name":"Uelzen","type":"Landkreis"},"federalState":{"key":"03","name":"Niedersachsen"}},{"name":"Twiete","postalCode":"29556","locality":"Suderburg","municipality":{"key":"03360023","name":"Suderburg","type":"Kreisangehörige_Gemeinde"},"district":{"key":"03360","name":"Uelzen","type":"Landkreis"},"federalState":{"key":"03","name":"Niedersachsen"}},{"name":"Twietenkamp","postalCode":"29556","locality":"Suderburg","municipality":{"key":"03360023","name":"Suderburg","type":"Kreisangehörige_Gemeinde"},"district":{"key":"03360","name":"Uelzen","type":"Landkreis"},"federalState":{"key":"03","name":"Niedersachsen"}},{"name":"Twietweg","postalCode":"29556","locality":"Suderburg","municipality":{"key":"03360023","name":"Suderburg","type":"Kreisangehörige_Gemeinde"},"district":{"key":"03360","name":"Uelzen","type":"Landkreis"},"federalState":{"key":"03","name":"Niedersachsen"}},{"name":"Uelzener Str.","postalCode":"29556","locality":"Suderburg","municipality":{"key":"03360023","name":"Suderburg","type":"Kreisangehörige_Gemeinde"},"district":{"key":"03360","name":"Uelzen","type":"Landkreis"},"federalState":{"key":"03","name":"Niedersachsen"}},{"name":"Unter den Eichen","postalCode":"29556","locality":"Suderburg","municipality":{"key":"03360023","name":"Suderburg","type":"Kreisangehörige_Gemeinde"},"district":{"key":"03360","name":"Uelzen","type":"Landkreis"},"federalState":{"key":"03","name":"Niedersachsen"}},{"name":"Untere Twiete","postalCode":"29556","locality":"Suderburg","municipality":{"key":"03360023","name":"Suderburg","type":"Kreisangehörige_Gemeinde"},"district":{"key":"03360","name":"Uelzen","type":"Landkreis"},"federalState":{"key":"03","name":"Niedersachsen"}},{"name":"Vareniusweg","postalCode":"29525","locality":"Uelzen","municipality":{"key":"03360025","name":"Uelzen, Hansestadt","type":"Stadt"},"district":{"key":"03360","name":"Uelzen","type":"Landkreis"},"federalState":{"key":"03","name":"Niedersachsen"}},{"name":"Veerßer Str.","postalCode":"29525","locality":"Uelzen","municipality":{"key":"03360025","name":"Uelzen, Hansestadt","type":"Stadt"},"district":{"key":"03360","name":"Uelzen","type":"Landkreis"},"federalState":{"key":"03","name":"Niedersachsen"}},{"name":"Von-Estorff-Str.","postalCode":"29525","locality":"Uelzen","municipality":{"key":"03360025","name":"Uelzen, Hansestadt","type":"Stadt"},"district":{"key":"03360","name":"Uelzen","type":"Landkreis"},"federalState":{"key":"03","name":"Niedersachsen"}},{"name":"Vor dem Kamp","postalCode":"29525","locality":"Uelzen","municipality":{"key":"03360025","name":"Uelzen, Hansestadt","type":"Stadt"},"district":{"key":"03360","name":"Uelzen","type":"Landkreis"},"federalState":{"key":"03","name":"Niedersachsen"}},{"name":"Vor den Fischteichen","postalCode":"29525","locality":"Uelzen","municipality":{"key":"03360025","name":"Uelzen, Hansestadt","type":"Stadt"},"district":{"key":"03360","name":"Uelzen","type":"Landkreis"},"federalState":{"key":"03","name":"Niedersachsen"}},{"name":"Vor der Deine","postalCode":"29525","locality":"Uelzen","municipality":{"key":"03360025","name":"Uelzen, Hansestadt","type":"Stadt"},"district":{"key":"03360","name":"Uelzen","type":"Landkreis"},"federalState":{"key":"03","name":"Niedersachsen"}},{"name":"Wacholderweg","postalCode":"29556","locality":"Suderburg","municipality":{"key":"03360023","name":"Suderburg","type":"Kreisangehörige_Gemeinde"},"district":{"key":"03360","name":"Uelzen","type":"Landkreis"},"federalState":{"key":"03","name":"Niedersachsen"}},{"name":"Waldstr.","postalCode":"29556","locality":"Suderburg","municipality":{"key":"03360023","name":"Suderburg","type":"Kreisangehörige_Gemeinde"},"district":{"key":"03360","name":"Uelzen","type":"Landkreis"},"federalState":{"key":"03","name":"Niedersachsen"}},{"name":"Waldweg","postalCode":"29556","locality":"Suderburg","municipality":{"key":"03360023","name":"Suderburg","type":"Kreisangehörige_Gemeinde"},"district":{"key":"03360","name":"Uelzen","type":"Landkreis"},"federalState":{"key":"03","name":"Niedersachsen"}},{"name":"Wehrbrink","postalCode":"29556","locality":"Suderburg","municipality":{"key":"03360023","name":"Suderburg","type":"Kreisangehörige_Gemeinde"},"district":{"key":"03360","name":"Uelzen","type":"Landkreis"},"federalState":{"key":"03","name":"Niedersachsen"}},{"name":"Westerfeld","postalCode":"29556","locality":"Suderburg","municipality":{"key":"03360023","name":"Suderburg","type":"Kreisangehörige_Gemeinde"},"district":{"key":"03360","name":"Uelzen","type":"Landkreis"},"federalState":{"key":"03","name":"Niedersachsen"}},{"name":"Wiesengrund","postalCode":"29556","locality":"Suderburg","municipality":{"key":"03360023","name":"Suderburg","type":"Kreisangehörige_Gemeinde"},"district":{"key":"03360","name":"Uelzen","type":"Landkreis"},"federalState":{"key":"03","name":"Niedersachsen"}},{"name":"Wiesenstr.","postalCode":"29556","locality":"Suderburg","municipality":{"key":"03360023","name":"Suderburg","type":"Kreisangehörige_Gemeinde"},"district":{"key":"03360","name":"Uelzen","type":"Landkreis"},"federalState":{"key":"03","name":"Niedersachsen"}},{"name":"Wittenwinkelweg","postalCode":"29556","locality":"Suderburg","municipality":{"key":"03360023","name":"Suderburg","type":"Kreisangehörige_Gemeinde"},"district":{"key":"03360","name":"Uelzen","type":"Landkreis"},"federalState":{"key":"03","name":"Niedersachsen"}},{"name":"Wolfsweg","postalCode":"29556","locality":"Suderburg","municipality":{"key":"03360023","name":"Suderburg","type":"Kreisangehörige_Gemeinde"},"district":{"key":"03360","name":"Uelzen","type":"Landkreis"},"federalState":{"key":"03","name":"Niedersachsen"}},{"name":"Zisternenweg","postalCode":"29556","locality":"Suderburg","municipality":{"key":"03360023","name":"Suderburg","type":"Kreisangehörige_Gemeinde"},"district":{"key":"03360","name":"Uelzen","type":"Landkreis"},"federalState":{"key":"03","name":"Niedersachsen"}},{"name":"Zum Hardautal","postalCode":"29556","locality":"Suderburg","municipality":{"key":"03360023","name":"Suderburg","type":"Kreisangehörige_Gemeinde"},"district":{"key":"03360","name":"Uelzen","type":"Landkreis"},"federalState":{"key":"03","name":"Niedersachsen"}},{"name":"Zum Sieken","postalCode":"29556","locality":"Suderburg","municipality":{"key":"03360023","name":"Suderburg","type":"Kreisangehörige_Gemeinde"},"district":{"key":"03360","name":"Uelzen","type":"Landkreis"},"federalState":{"key":"03","name":"Niedersachsen"}},{"name":"Zum Wasserwerk","postalCode":"29556","locality":"Suderburg","municipality":{"key":"03360023","name":"Suderburg","type":"Kreisangehörige_Gemeinde"},"district":{"key":"03360","name":"Uelzen","type":"Landkreis"},"federalState":{"key":"03","name":"Niedersachsen"}},]