[{"name":"Am Gänserasen","postalCode":"98639","locality":"Rippershausen","municipality":{"key":"16066056","name":"Rippershausen","type":"Kreisangehörige_Gemeinde"},"district":{"key":"16066","name":"Schmalkalden-Meiningen","type":"Landkreis"},"federalState":{"key":"16","name":"Thüringen"}},{"name":"Am Sängerplatz","postalCode":"98639","locality":"Rippershausen","municipality":{"key":"16066056","name":"Rippershausen","type":"Kreisangehörige_Gemeinde"},"district":{"key":"16066","name":"Schmalkalden-Meiningen","type":"Landkreis"},"federalState":{"key":"16","name":"Thüringen"}},{"name":"Am Teich","postalCode":"98639","locality":"Rippershausen","municipality":{"key":"16066056","name":"Rippershausen","type":"Kreisangehörige_Gemeinde"},"district":{"key":"16066","name":"Schmalkalden-Meiningen","type":"Landkreis"},"federalState":{"key":"16","name":"Thüringen"}},{"name":"Felsenblick","postalCode":"98639","locality":"Rippershausen","municipality":{"key":"16066056","name":"Rippershausen","type":"Kreisangehörige_Gemeinde"},"district":{"key":"16066","name":"Schmalkalden-Meiningen","type":"Landkreis"},"federalState":{"key":"16","name":"Thüringen"}},{"name":"Gartenstr.","postalCode":"98639","locality":"Rippershausen","municipality":{"key":"16066056","name":"Rippershausen","type":"Kreisangehörige_Gemeinde"},"district":{"key":"16066","name":"Schmalkalden-Meiningen","type":"Landkreis"},"federalState":{"key":"16","name":"Thüringen"}},{"name":"Gartenweg","postalCode":"98639","locality":"Rippershausen","municipality":{"key":"16066056","name":"Rippershausen","type":"Kreisangehörige_Gemeinde"},"district":{"key":"16066","name":"Schmalkalden-Meiningen","type":"Landkreis"},"federalState":{"key":"16","name":"Thüringen"}},{"name":"Grundweg","postalCode":"98639","locality":"Rippershausen","municipality":{"key":"16066056","name":"Rippershausen","type":"Kreisangehörige_Gemeinde"},"district":{"key":"16066","name":"Schmalkalden-Meiningen","type":"Landkreis"},"federalState":{"key":"16","name":"Thüringen"}},{"name":"Hintere Mühle","postalCode":"98639","locality":"Rippershausen","municipality":{"key":"16066056","name":"Rippershausen","type":"Kreisangehörige_Gemeinde"},"district":{"key":"16066","name":"Schmalkalden-Meiningen","type":"Landkreis"},"federalState":{"key":"16","name":"Thüringen"}},{"name":"Hohle","postalCode":"98639","locality":"Rippershausen","municipality":{"key":"16066056","name":"Rippershausen","type":"Kreisangehörige_Gemeinde"},"district":{"key":"16066","name":"Schmalkalden-Meiningen","type":"Landkreis"},"federalState":{"key":"16","name":"Thüringen"}},{"name":"Hohlfeld","postalCode":"98639","locality":"Rippershausen","municipality":{"key":"16066056","name":"Rippershausen","type":"Kreisangehörige_Gemeinde"},"district":{"key":"16066","name":"Schmalkalden-Meiningen","type":"Landkreis"},"federalState":{"key":"16","name":"Thüringen"}},{"name":"Im Dorf","postalCode":"98639","locality":"Rippershausen","municipality":{"key":"16066056","name":"Rippershausen","type":"Kreisangehörige_Gemeinde"},"district":{"key":"16066","name":"Schmalkalden-Meiningen","type":"Landkreis"},"federalState":{"key":"16","name":"Thüringen"}},{"name":"Kirchberg","postalCode":"98639","locality":"Rippershausen","municipality":{"key":"16066056","name":"Rippershausen","type":"Kreisangehörige_Gemeinde"},"district":{"key":"16066","name":"Schmalkalden-Meiningen","type":"Landkreis"},"federalState":{"key":"16","name":"Thüringen"}},{"name":"Meininger Str.","postalCode":"98639","locality":"Rippershausen","municipality":{"key":"16066056","name":"Rippershausen","type":"Kreisangehörige_Gemeinde"},"district":{"key":"16066","name":"Schmalkalden-Meiningen","type":"Landkreis"},"federalState":{"key":"16","name":"Thüringen"}},{"name":"Melkerser Hauptstr.","postalCode":"98639","locality":"Rippershausen","municipality":{"key":"16066056","name":"Rippershausen","type":"Kreisangehörige_Gemeinde"},"district":{"key":"16066","name":"Schmalkalden-Meiningen","type":"Landkreis"},"federalState":{"key":"16","name":"Thüringen"}},{"name":"Mühlenweg","postalCode":"98639","locality":"Rippershausen","municipality":{"key":"16066056","name":"Rippershausen","type":"Kreisangehörige_Gemeinde"},"district":{"key":"16066","name":"Schmalkalden-Meiningen","type":"Landkreis"},"federalState":{"key":"16","name":"Thüringen"}},{"name":"Rhönpforte","postalCode":"98639","locality":"Rippershausen","municipality":{"key":"16066056","name":"Rippershausen","type":"Kreisangehörige_Gemeinde"},"district":{"key":"16066","name":"Schmalkalden-Meiningen","type":"Landkreis"},"federalState":{"key":"16","name":"Thüringen"}},{"name":"Rippershäuser Str.","postalCode":"98639","locality":"Rippershausen","municipality":{"key":"16066056","name":"Rippershausen","type":"Kreisangehörige_Gemeinde"},"district":{"key":"16066","name":"Schmalkalden-Meiningen","type":"Landkreis"},"federalState":{"key":"16","name":"Thüringen"}},{"name":"Röderweg","postalCode":"98639","locality":"Rippershausen","municipality":{"key":"16066056","name":"Rippershausen","type":"Kreisangehörige_Gemeinde"},"district":{"key":"16066","name":"Schmalkalden-Meiningen","type":"Landkreis"},"federalState":{"key":"16","name":"Thüringen"}},{"name":"Sandfeld","postalCode":"98639","locality":"Rippershausen","municipality":{"key":"16066056","name":"Rippershausen","type":"Kreisangehörige_Gemeinde"},"district":{"key":"16066","name":"Schmalkalden-Meiningen","type":"Landkreis"},"federalState":{"key":"16","name":"Thüringen"}},{"name":"Schafberg","postalCode":"98639","locality":"Rippershausen","municipality":{"key":"16066056","name":"Rippershausen","type":"Kreisangehörige_Gemeinde"},"district":{"key":"16066","name":"Schmalkalden-Meiningen","type":"Landkreis"},"federalState":{"key":"16","name":"Thüringen"}},{"name":"Scharfacker","postalCode":"98639","locality":"Rippershausen","municipality":{"key":"16066056","name":"Rippershausen","type":"Kreisangehörige_Gemeinde"},"district":{"key":"16066","name":"Schmalkalden-Meiningen","type":"Landkreis"},"federalState":{"key":"16","name":"Thüringen"}},{"name":"Schloßblick","postalCode":"98639","locality":"Rippershausen","municipality":{"key":"16066056","name":"Rippershausen","type":"Kreisangehörige_Gemeinde"},"district":{"key":"16066","name":"Schmalkalden-Meiningen","type":"Landkreis"},"federalState":{"key":"16","name":"Thüringen"}},{"name":"Schulweg","postalCode":"98639","locality":"Rippershausen","municipality":{"key":"16066056","name":"Rippershausen","type":"Kreisangehörige_Gemeinde"},"district":{"key":"16066","name":"Schmalkalden-Meiningen","type":"Landkreis"},"federalState":{"key":"16","name":"Thüringen"}},{"name":"Siedlungsweg","postalCode":"98639","locality":"Rippershausen","municipality":{"key":"16066056","name":"Rippershausen","type":"Kreisangehörige_Gemeinde"},"district":{"key":"16066","name":"Schmalkalden-Meiningen","type":"Landkreis"},"federalState":{"key":"16","name":"Thüringen"}},{"name":"Solzer Dorfstr.","postalCode":"98639","locality":"Rippershausen","municipality":{"key":"16066056","name":"Rippershausen","type":"Kreisangehörige_Gemeinde"},"district":{"key":"16066","name":"Schmalkalden-Meiningen","type":"Landkreis"},"federalState":{"key":"16","name":"Thüringen"}},{"name":"Solzgrund","postalCode":"98639","locality":"Rippershausen","municipality":{"key":"16066056","name":"Rippershausen","type":"Kreisangehörige_Gemeinde"},"district":{"key":"16066","name":"Schmalkalden-Meiningen","type":"Landkreis"},"federalState":{"key":"16","name":"Thüringen"}},{"name":"Stepfershäuser Str.","postalCode":"98639","locality":"Rippershausen","municipality":{"key":"16066056","name":"Rippershausen","type":"Kreisangehörige_Gemeinde"},"district":{"key":"16066","name":"Schmalkalden-Meiningen","type":"Landkreis"},"federalState":{"key":"16","name":"Thüringen"}},{"name":"Unterdorf","postalCode":"98639","locality":"Rippershausen","municipality":{"key":"16066056","name":"Rippershausen","type":"Kreisangehörige_Gemeinde"},"district":{"key":"16066","name":"Schmalkalden-Meiningen","type":"Landkreis"},"federalState":{"key":"16","name":"Thüringen"}},{"name":"Untere Mühle","postalCode":"98639","locality":"Rippershausen","municipality":{"key":"16066056","name":"Rippershausen","type":"Kreisangehörige_Gemeinde"},"district":{"key":"16066","name":"Schmalkalden-Meiningen","type":"Landkreis"},"federalState":{"key":"16","name":"Thüringen"}},{"name":"Wasunger Str.","postalCode":"98639","locality":"Rippershausen","municipality":{"key":"16066056","name":"Rippershausen","type":"Kreisangehörige_Gemeinde"},"district":{"key":"16066","name":"Schmalkalden-Meiningen","type":"Landkreis"},"federalState":{"key":"16","name":"Thüringen"}},{"name":"Wiesenweg","postalCode":"98639","locality":"Rippershausen","municipality":{"key":"16066056","name":"Rippershausen","type":"Kreisangehörige_Gemeinde"},"district":{"key":"16066","name":"Schmalkalden-Meiningen","type":"Landkreis"},"federalState":{"key":"16","name":"Thüringen"}},{"name":"Wohnpark","postalCode":"98639","locality":"Rippershausen","municipality":{"key":"16066056","name":"Rippershausen","type":"Kreisangehörige_Gemeinde"},"district":{"key":"16066","name":"Schmalkalden-Meiningen","type":"Landkreis"},"federalState":{"key":"16","name":"Thüringen"}},]