[{"name":"Ackerleite","postalCode":"95352","locality":"Marktleugast","municipality":{"key":"09477138","name":"Marktleugast, M","type":"Markt"},"district":{"key":"09477","name":"Kulmbach","type":"Landkreis"},"federalState":{"key":"09","name":"Bayern"}},{"name":"Adenauerstr.","postalCode":"95352","locality":"Marktleugast","municipality":{"key":"09477138","name":"Marktleugast, M","type":"Markt"},"district":{"key":"09477","name":"Kulmbach","type":"Landkreis"},"federalState":{"key":"09","name":"Bayern"}},{"name":"Am Kirchbühl","postalCode":"95352","locality":"Marktleugast","municipality":{"key":"09477138","name":"Marktleugast, M","type":"Markt"},"district":{"key":"09477","name":"Kulmbach","type":"Landkreis"},"federalState":{"key":"09","name":"Bayern"}},{"name":"Am Wachhang","postalCode":"95352","locality":"Marktleugast","municipality":{"key":"09477138","name":"Marktleugast, M","type":"Markt"},"district":{"key":"09477","name":"Kulmbach","type":"Landkreis"},"federalState":{"key":"09","name":"Bayern"}},{"name":"Angerwiese","postalCode":"95352","locality":"Marktleugast","municipality":{"key":"09477138","name":"Marktleugast, M","type":"Markt"},"district":{"key":"09477","name":"Kulmbach","type":"Landkreis"},"federalState":{"key":"09","name":"Bayern"}},{"name":"Bachmannstr.","postalCode":"95352","locality":"Marktleugast","municipality":{"key":"09477138","name":"Marktleugast, M","type":"Markt"},"district":{"key":"09477","name":"Kulmbach","type":"Landkreis"},"federalState":{"key":"09","name":"Bayern"}},{"name":"Bärengasse","postalCode":"95352","locality":"Marktleugast","municipality":{"key":"09477138","name":"Marktleugast, M","type":"Markt"},"district":{"key":"09477","name":"Kulmbach","type":"Landkreis"},"federalState":{"key":"09","name":"Bayern"}},{"name":"Bergstr.","postalCode":"95352","locality":"Marktleugast","municipality":{"key":"09477138","name":"Marktleugast, M","type":"Markt"},"district":{"key":"09477","name":"Kulmbach","type":"Landkreis"},"federalState":{"key":"09","name":"Bayern"}},{"name":"Birkenweg","postalCode":"95352","locality":"Marktleugast","municipality":{"key":"09477138","name":"Marktleugast, M","type":"Markt"},"district":{"key":"09477","name":"Kulmbach","type":"Landkreis"},"federalState":{"key":"09","name":"Bayern"}},{"name":"Bismarckallee","postalCode":"95352","locality":"Marktleugast","municipality":{"key":"09477138","name":"Marktleugast, M","type":"Markt"},"district":{"key":"09477","name":"Kulmbach","type":"Landkreis"},"federalState":{"key":"09","name":"Bayern"}},{"name":"Bismarckhain","postalCode":"95352","locality":"Marktleugast","municipality":{"key":"09477138","name":"Marktleugast, M","type":"Markt"},"district":{"key":"09477","name":"Kulmbach","type":"Landkreis"},"federalState":{"key":"09","name":"Bayern"}},{"name":"Breslauer Str.","postalCode":"95352","locality":"Marktleugast","municipality":{"key":"09477138","name":"Marktleugast, M","type":"Markt"},"district":{"key":"09477","name":"Kulmbach","type":"Landkreis"},"federalState":{"key":"09","name":"Bayern"}},{"name":"Buchenweg","postalCode":"95352","locality":"Marktleugast","municipality":{"key":"09477138","name":"Marktleugast, M","type":"Markt"},"district":{"key":"09477","name":"Kulmbach","type":"Landkreis"},"federalState":{"key":"09","name":"Bayern"}},{"name":"Caspar-Fischer-Str.","postalCode":"95326","locality":"Kulmbach","municipality":{"key":"09477128","name":"Kulmbach, GKSt","type":"Große_Kreisstadt"},"district":{"key":"09477","name":"Kulmbach","type":"Landkreis"},"federalState":{"key":"09","name":"Bayern"}},{"name":"Christian-Pertsch-Str.","postalCode":"95326","locality":"Kulmbach","municipality":{"key":"09477128","name":"Kulmbach, GKSt","type":"Große_Kreisstadt"},"district":{"key":"09477","name":"Kulmbach","type":"Landkreis"},"federalState":{"key":"09","name":"Bayern"}},{"name":"Dahlienweg","postalCode":"95326","locality":"Kulmbach","municipality":{"key":"09477128","name":"Kulmbach, GKSt","type":"Große_Kreisstadt"},"district":{"key":"09477","name":"Kulmbach","type":"Landkreis"},"federalState":{"key":"09","name":"Bayern"}},{"name":"Danziger Weg","postalCode":"95326","locality":"Kulmbach","municipality":{"key":"09477128","name":"Kulmbach, GKSt","type":"Große_Kreisstadt"},"district":{"key":"09477","name":"Kulmbach","type":"Landkreis"},"federalState":{"key":"09","name":"Bayern"}},{"name":"Dobrachstr.","postalCode":"95326","locality":"Kulmbach","municipality":{"key":"09477128","name":"Kulmbach, GKSt","type":"Große_Kreisstadt"},"district":{"key":"09477","name":"Kulmbach","type":"Landkreis"},"federalState":{"key":"09","name":"Bayern"}},{"name":"Donnersreuth","postalCode":"95326","locality":"Kulmbach","municipality":{"key":"09477128","name":"Kulmbach, GKSt","type":"Große_Kreisstadt"},"district":{"key":"09477","name":"Kulmbach","type":"Landkreis"},"federalState":{"key":"09","name":"Bayern"}},{"name":"Donnersreuther Weg","postalCode":"95326","locality":"Kulmbach","municipality":{"key":"09477128","name":"Kulmbach, GKSt","type":"Große_Kreisstadt"},"district":{"key":"09477","name":"Kulmbach","type":"Landkreis"},"federalState":{"key":"09","name":"Bayern"}},{"name":"Dorfberg","postalCode":"95326","locality":"Kulmbach","municipality":{"key":"09477128","name":"Kulmbach, GKSt","type":"Große_Kreisstadt"},"district":{"key":"09477","name":"Kulmbach","type":"Landkreis"},"federalState":{"key":"09","name":"Bayern"}},{"name":"Dreibrunnenweg","postalCode":"95326","locality":"Kulmbach","municipality":{"key":"09477128","name":"Kulmbach, GKSt","type":"Große_Kreisstadt"},"district":{"key":"09477","name":"Kulmbach","type":"Landkreis"},"federalState":{"key":"09","name":"Bayern"}},{"name":"Dr.-Martin-Luther-Str.","postalCode":"95326","locality":"Kulmbach","municipality":{"key":"09477128","name":"Kulmbach, GKSt","type":"Große_Kreisstadt"},"district":{"key":"09477","name":"Kulmbach","type":"Landkreis"},"federalState":{"key":"09","name":"Bayern"}},{"name":"Egerer Str.","postalCode":"95352","locality":"Marktleugast","municipality":{"key":"09477138","name":"Marktleugast, M","type":"Markt"},"district":{"key":"09477","name":"Kulmbach","type":"Landkreis"},"federalState":{"key":"09","name":"Bayern"}},{"name":"Floriansplatz","postalCode":"95352","locality":"Marktleugast","municipality":{"key":"09477138","name":"Marktleugast, M","type":"Markt"},"district":{"key":"09477","name":"Kulmbach","type":"Landkreis"},"federalState":{"key":"09","name":"Bayern"}},{"name":"Flurstr.","postalCode":"95352","locality":"Marktleugast","municipality":{"key":"09477138","name":"Marktleugast, M","type":"Markt"},"district":{"key":"09477","name":"Kulmbach","type":"Landkreis"},"federalState":{"key":"09","name":"Bayern"}},{"name":"Gartenstr.","postalCode":"95352","locality":"Marktleugast","municipality":{"key":"09477138","name":"Marktleugast, M","type":"Markt"},"district":{"key":"09477","name":"Kulmbach","type":"Landkreis"},"federalState":{"key":"09","name":"Bayern"}},{"name":"Glatzer Str.","postalCode":"95352","locality":"Marktleugast","municipality":{"key":"09477138","name":"Marktleugast, M","type":"Markt"},"district":{"key":"09477","name":"Kulmbach","type":"Landkreis"},"federalState":{"key":"09","name":"Bayern"}},{"name":"Gründleinsweg","postalCode":"95352","locality":"Marktleugast","municipality":{"key":"09477138","name":"Marktleugast, M","type":"Markt"},"district":{"key":"09477","name":"Kulmbach","type":"Landkreis"},"federalState":{"key":"09","name":"Bayern"}},{"name":"Gründleinweg","postalCode":"95352","locality":"Marktleugast","municipality":{"key":"09477138","name":"Marktleugast, M","type":"Markt"},"district":{"key":"09477","name":"Kulmbach","type":"Landkreis"},"federalState":{"key":"09","name":"Bayern"}},{"name":"Guttenbergstr.","postalCode":"95352","locality":"Marktleugast","municipality":{"key":"09477138","name":"Marktleugast, M","type":"Markt"},"district":{"key":"09477","name":"Kulmbach","type":"Landkreis"},"federalState":{"key":"09","name":"Bayern"}},{"name":"Helmbrechtster Str.","postalCode":"95352","locality":"Marktleugast","municipality":{"key":"09477138","name":"Marktleugast, M","type":"Markt"},"district":{"key":"09477","name":"Kulmbach","type":"Landkreis"},"federalState":{"key":"09","name":"Bayern"}},{"name":"Hindenburgstr.","postalCode":"95352","locality":"Marktleugast","municipality":{"key":"09477138","name":"Marktleugast, M","type":"Markt"},"district":{"key":"09477","name":"Kulmbach","type":"Landkreis"},"federalState":{"key":"09","name":"Bayern"}},{"name":"Höhenweg","postalCode":"95352","locality":"Marktleugast","municipality":{"key":"09477138","name":"Marktleugast, M","type":"Markt"},"district":{"key":"09477","name":"Kulmbach","type":"Landkreis"},"federalState":{"key":"09","name":"Bayern"}},{"name":"Iglauer Weg","postalCode":"95326","locality":"Kulmbach","municipality":{"key":"09477128","name":"Kulmbach, GKSt","type":"Große_Kreisstadt"},"district":{"key":"09477","name":"Kulmbach","type":"Landkreis"},"federalState":{"key":"09","name":"Bayern"}},{"name":"Im Haag","postalCode":"95326","locality":"Kulmbach","municipality":{"key":"09477128","name":"Kulmbach, GKSt","type":"Große_Kreisstadt"},"district":{"key":"09477","name":"Kulmbach","type":"Landkreis"},"federalState":{"key":"09","name":"Bayern"}},{"name":"Im Winkel","postalCode":"95326","locality":"Kulmbach","municipality":{"key":"09477128","name":"Kulmbach, GKSt","type":"Große_Kreisstadt"},"district":{"key":"09477","name":"Kulmbach","type":"Landkreis"},"federalState":{"key":"09","name":"Bayern"}},{"name":"Jahnstr.","postalCode":"95352","locality":"Marktleugast","municipality":{"key":"09477138","name":"Marktleugast, M","type":"Markt"},"district":{"key":"09477","name":"Kulmbach","type":"Landkreis"},"federalState":{"key":"09","name":"Bayern"}},{"name":"Karl-Pezold-Str.","postalCode":"95352","locality":"Marktleugast","municipality":{"key":"09477138","name":"Marktleugast, M","type":"Markt"},"district":{"key":"09477","name":"Kulmbach","type":"Landkreis"},"federalState":{"key":"09","name":"Bayern"}},{"name":"Karlsbader Str.","postalCode":"95352","locality":"Marktleugast","municipality":{"key":"09477138","name":"Marktleugast, M","type":"Markt"},"district":{"key":"09477","name":"Kulmbach","type":"Landkreis"},"federalState":{"key":"09","name":"Bayern"}},{"name":"Kastanienweg","postalCode":"95352","locality":"Marktleugast","municipality":{"key":"09477138","name":"Marktleugast, M","type":"Markt"},"district":{"key":"09477","name":"Kulmbach","type":"Landkreis"},"federalState":{"key":"09","name":"Bayern"}},{"name":"Kirchallee","postalCode":"95352","locality":"Marktleugast","municipality":{"key":"09477138","name":"Marktleugast, M","type":"Markt"},"district":{"key":"09477","name":"Kulmbach","type":"Landkreis"},"federalState":{"key":"09","name":"Bayern"}},{"name":"Kloster Marienweiher","postalCode":"95352","locality":"Marktleugast","municipality":{"key":"09477138","name":"Marktleugast, M","type":"Markt"},"district":{"key":"09477","name":"Kulmbach","type":"Landkreis"},"federalState":{"key":"09","name":"Bayern"}},{"name":"Kreuzgasse","postalCode":"95352","locality":"Marktleugast","municipality":{"key":"09477138","name":"Marktleugast, M","type":"Markt"},"district":{"key":"09477","name":"Kulmbach","type":"Landkreis"},"federalState":{"key":"09","name":"Bayern"}},{"name":"KU 13","postalCode":"95352","locality":"Marktleugast","municipality":{"key":"09477138","name":"Marktleugast, M","type":"Markt"},"district":{"key":"09477","name":"Kulmbach","type":"Landkreis"},"federalState":{"key":"09","name":"Bayern"}},{"name":"KU 26","postalCode":"95352","locality":"Marktleugast","municipality":{"key":"09477138","name":"Marktleugast, M","type":"Markt"},"district":{"key":"09477","name":"Kulmbach","type":"Landkreis"},"federalState":{"key":"09","name":"Bayern"}},{"name":"Kulmbacher Str.","postalCode":"95352","locality":"Marktleugast","municipality":{"key":"09477138","name":"Marktleugast, M","type":"Markt"},"district":{"key":"09477","name":"Kulmbach","type":"Landkreis"},"federalState":{"key":"09","name":"Bayern"}},{"name":"Lehenweg","postalCode":"95352","locality":"Marktleugast","municipality":{"key":"09477138","name":"Marktleugast, M","type":"Markt"},"district":{"key":"09477","name":"Kulmbach","type":"Landkreis"},"federalState":{"key":"09","name":"Bayern"}},{"name":"Lippastr.","postalCode":"95352","locality":"Marktleugast","municipality":{"key":"09477138","name":"Marktleugast, M","type":"Markt"},"district":{"key":"09477","name":"Kulmbach","type":"Landkreis"},"federalState":{"key":"09","name":"Bayern"}},{"name":"Mannsflurer Weg","postalCode":"95352","locality":"Marktleugast","municipality":{"key":"09477138","name":"Marktleugast, M","type":"Markt"},"district":{"key":"09477","name":"Kulmbach","type":"Landkreis"},"federalState":{"key":"09","name":"Bayern"}},{"name":"Marktleugaster Weg","postalCode":"95352","locality":"Marktleugast","municipality":{"key":"09477138","name":"Marktleugast, M","type":"Markt"},"district":{"key":"09477","name":"Kulmbach","type":"Landkreis"},"federalState":{"key":"09","name":"Bayern"}},{"name":"Marktstr.","postalCode":"95352","locality":"Marktleugast","municipality":{"key":"09477138","name":"Marktleugast, M","type":"Markt"},"district":{"key":"09477","name":"Kulmbach","type":"Landkreis"},"federalState":{"key":"09","name":"Bayern"}},{"name":"Münchberger Str.","postalCode":"95352","locality":"Marktleugast","municipality":{"key":"09477138","name":"Marktleugast, M","type":"Markt"},"district":{"key":"09477","name":"Kulmbach","type":"Landkreis"},"federalState":{"key":"09","name":"Bayern"}},{"name":"Neuensorger Weg","postalCode":"95352","locality":"Marktleugast","municipality":{"key":"09477138","name":"Marktleugast, M","type":"Markt"},"district":{"key":"09477","name":"Kulmbach","type":"Landkreis"},"federalState":{"key":"09","name":"Bayern"}},{"name":"Oberer Anger","postalCode":"95352","locality":"Marktleugast","municipality":{"key":"09477138","name":"Marktleugast, M","type":"Markt"},"district":{"key":"09477","name":"Kulmbach","type":"Landkreis"},"federalState":{"key":"09","name":"Bayern"}},{"name":"Parkstr.","postalCode":"95352","locality":"Marktleugast","municipality":{"key":"09477138","name":"Marktleugast, M","type":"Markt"},"district":{"key":"09477","name":"Kulmbach","type":"Landkreis"},"federalState":{"key":"09","name":"Bayern"}},{"name":"Pfarrer-Schott-Str.","postalCode":"95352","locality":"Marktleugast","municipality":{"key":"09477138","name":"Marktleugast, M","type":"Markt"},"district":{"key":"09477","name":"Kulmbach","type":"Landkreis"},"federalState":{"key":"09","name":"Bayern"}},{"name":"Prof.-Rucker-Str.","postalCode":"95352","locality":"Marktleugast","municipality":{"key":"09477138","name":"Marktleugast, M","type":"Markt"},"district":{"key":"09477","name":"Kulmbach","type":"Landkreis"},"federalState":{"key":"09","name":"Bayern"}},{"name":"Ringstr.","postalCode":"95352","locality":"Marktleugast","municipality":{"key":"09477138","name":"Marktleugast, M","type":"Markt"},"district":{"key":"09477","name":"Kulmbach","type":"Landkreis"},"federalState":{"key":"09","name":"Bayern"}},{"name":"Sankt-Antonius-Weg","postalCode":"95352","locality":"Marktleugast","municipality":{"key":"09477138","name":"Marktleugast, M","type":"Markt"},"district":{"key":"09477","name":"Kulmbach","type":"Landkreis"},"federalState":{"key":"09","name":"Bayern"}},{"name":"Siedlungsstr.","postalCode":"95352","locality":"Marktleugast","municipality":{"key":"09477138","name":"Marktleugast, M","type":"Markt"},"district":{"key":"09477","name":"Kulmbach","type":"Landkreis"},"federalState":{"key":"09","name":"Bayern"}},{"name":"Stadtsteinacher Weg","postalCode":"95352","locality":"Marktleugast","municipality":{"key":"09477138","name":"Marktleugast, M","type":"Markt"},"district":{"key":"09477","name":"Kulmbach","type":"Landkreis"},"federalState":{"key":"09","name":"Bayern"}},{"name":"Stammbacher Str.","postalCode":"95352","locality":"Marktleugast","municipality":{"key":"09477138","name":"Marktleugast, M","type":"Markt"},"district":{"key":"09477","name":"Kulmbach","type":"Landkreis"},"federalState":{"key":"09","name":"Bayern"}},{"name":"St.-Josef-Str.","postalCode":"95352","locality":"Marktleugast","municipality":{"key":"09477138","name":"Marktleugast, M","type":"Markt"},"district":{"key":"09477","name":"Kulmbach","type":"Landkreis"},"federalState":{"key":"09","name":"Bayern"}},{"name":"St.-Martin-Str.","postalCode":"95352","locality":"Marktleugast","municipality":{"key":"09477138","name":"Marktleugast, M","type":"Markt"},"district":{"key":"09477","name":"Kulmbach","type":"Landkreis"},"federalState":{"key":"09","name":"Bayern"}},{"name":"Theresienweg","postalCode":"95352","locality":"Marktleugast","municipality":{"key":"09477138","name":"Marktleugast, M","type":"Markt"},"district":{"key":"09477","name":"Kulmbach","type":"Landkreis"},"federalState":{"key":"09","name":"Bayern"}},{"name":"Tittusstr.","postalCode":"95352","locality":"Marktleugast","municipality":{"key":"09477138","name":"Marktleugast, M","type":"Markt"},"district":{"key":"09477","name":"Kulmbach","type":"Landkreis"},"federalState":{"key":"09","name":"Bayern"}},{"name":"Unterer Anger","postalCode":"95352","locality":"Marktleugast","municipality":{"key":"09477138","name":"Marktleugast, M","type":"Markt"},"district":{"key":"09477","name":"Kulmbach","type":"Landkreis"},"federalState":{"key":"09","name":"Bayern"}},{"name":"Veitengasse","postalCode":"95326","locality":"Kulmbach","municipality":{"key":"09477128","name":"Kulmbach, GKSt","type":"Große_Kreisstadt"},"district":{"key":"09477","name":"Kulmbach","type":"Landkreis"},"federalState":{"key":"09","name":"Bayern"}},{"name":"Veitlahmer Str.","postalCode":"95326","locality":"Kulmbach","municipality":{"key":"09477128","name":"Kulmbach, GKSt","type":"Große_Kreisstadt"},"district":{"key":"09477","name":"Kulmbach","type":"Landkreis"},"federalState":{"key":"09","name":"Bayern"}},{"name":"Vogelnest","postalCode":"95326","locality":"Kulmbach","municipality":{"key":"09477128","name":"Kulmbach, GKSt","type":"Große_Kreisstadt"},"district":{"key":"09477","name":"Kulmbach","type":"Landkreis"},"federalState":{"key":"09","name":"Bayern"}},{"name":"Von-Linde-Str.","postalCode":"95326","locality":"Kulmbach","municipality":{"key":"09477128","name":"Kulmbach, GKSt","type":"Große_Kreisstadt"},"district":{"key":"09477","name":"Kulmbach","type":"Landkreis"},"federalState":{"key":"09","name":"Bayern"}},{"name":"Vorwerkstr.","postalCode":"95326","locality":"Kulmbach","municipality":{"key":"09477128","name":"Kulmbach, GKSt","type":"Große_Kreisstadt"},"district":{"key":"09477","name":"Kulmbach","type":"Landkreis"},"federalState":{"key":"09","name":"Bayern"}},{"name":"Webergasse","postalCode":"95352","locality":"Marktleugast","municipality":{"key":"09477138","name":"Marktleugast, M","type":"Markt"},"district":{"key":"09477","name":"Kulmbach","type":"Landkreis"},"federalState":{"key":"09","name":"Bayern"}},{"name":"Weststr.","postalCode":"95352","locality":"Marktleugast","municipality":{"key":"09477138","name":"Marktleugast, M","type":"Markt"},"district":{"key":"09477","name":"Kulmbach","type":"Landkreis"},"federalState":{"key":"09","name":"Bayern"}},{"name":"Wiesenweg","postalCode":"95352","locality":"Marktleugast","municipality":{"key":"09477138","name":"Marktleugast, M","type":"Markt"},"district":{"key":"09477","name":"Kulmbach","type":"Landkreis"},"federalState":{"key":"09","name":"Bayern"}},{"name":"Ziegelhütte","postalCode":"95352","locality":"Marktleugast","municipality":{"key":"09477138","name":"Marktleugast, M","type":"Markt"},"district":{"key":"09477","name":"Kulmbach","type":"Landkreis"},"federalState":{"key":"09","name":"Bayern"}},{"name":"Ängerlein","postalCode":"95326","locality":"Kulmbach","municipality":{"key":"09477128","name":"Kulmbach, GKSt","type":"Große_Kreisstadt"},"district":{"key":"09477","name":"Kulmbach","type":"Landkreis"},"federalState":{"key":"09","name":"Bayern"}},]