[{"key":"10060543","name":"Allmend","postalCode":"3510","locality":"Freimettigen","commune":{"key":"607","name":"Freimettigen","shortName":"Freimettigen"},"district":{"key":"246","name":"Verwaltungskreis Bern-Mittelland"},"canton":{"key":"2","code":"BE","name":"Bern / Berne"},"status":"Real"},{"key":"10167824","name":"Bächlimattstrasse","postalCode":"3510","locality":"Freimettigen","commune":{"key":"607","name":"Freimettigen","shortName":"Freimettigen"},"district":{"key":"246","name":"Verwaltungskreis Bern-Mittelland"},"canton":{"key":"2","code":"BE","name":"Bern / Berne"},"status":"Real"},{"key":"10148315","name":"Bergackerstrasse","postalCode":"3510","locality":"Freimettigen","commune":{"key":"607","name":"Freimettigen","shortName":"Freimettigen"},"district":{"key":"246","name":"Verwaltungskreis Bern-Mittelland"},"canton":{"key":"2","code":"BE","name":"Bern / Berne"},"status":"Real"},{"key":"10075079","name":"Breitsteinweg","postalCode":"3510","locality":"Freimettigen","commune":{"key":"607","name":"Freimettigen","shortName":"Freimettigen"},"district":{"key":"246","name":"Verwaltungskreis Bern-Mittelland"},"canton":{"key":"2","code":"BE","name":"Bern / Berne"},"status":"Real"},{"key":"10075080","name":"Dessigkofen","postalCode":"3510","locality":"Freimettigen","commune":{"key":"607","name":"Freimettigen","shortName":"Freimettigen"},"district":{"key":"246","name":"Verwaltungskreis Bern-Mittelland"},"canton":{"key":"2","code":"BE","name":"Bern / Berne"},"status":"Real"},{"key":"10104091","name":"Diessbachstrasse","postalCode":"3510","locality":"Freimettigen","commune":{"key":"607","name":"Freimettigen","shortName":"Freimettigen"},"district":{"key":"246","name":"Verwaltungskreis Bern-Mittelland"},"canton":{"key":"2","code":"BE","name":"Bern / Berne"},"status":"Real"},{"key":"10006257","name":"Dorfstrasse","postalCode":"3510","locality":"Freimettigen","commune":{"key":"607","name":"Freimettigen","shortName":"Freimettigen"},"district":{"key":"246","name":"Verwaltungskreis Bern-Mittelland"},"canton":{"key":"2","code":"BE","name":"Bern / Berne"},"status":"Real"},{"key":"10006256","name":"Geissberg","postalCode":"3510","locality":"Freimettigen","commune":{"key":"607","name":"Freimettigen","shortName":"Freimettigen"},"district":{"key":"246","name":"Verwaltungskreis Bern-Mittelland"},"canton":{"key":"2","code":"BE","name":"Bern / Berne"},"status":"Real"},{"key":"10075081","name":"Hammenried","postalCode":"3510","locality":"Freimettigen","commune":{"key":"607","name":"Freimettigen","shortName":"Freimettigen"},"district":{"key":"246","name":"Verwaltungskreis Bern-Mittelland"},"canton":{"key":"2","code":"BE","name":"Bern / Berne"},"status":"Real"},{"key":"10110305","name":"Hammersmatt","postalCode":"3510","locality":"Freimettigen","commune":{"key":"607","name":"Freimettigen","shortName":"Freimettigen"},"district":{"key":"246","name":"Verwaltungskreis Bern-Mittelland"},"canton":{"key":"2","code":"BE","name":"Bern / Berne"},"status":"Real"},{"key":"10216745","name":"Hasli","postalCode":"3510","locality":"Freimettigen","commune":{"key":"607","name":"Freimettigen","shortName":"Freimettigen"},"district":{"key":"246","name":"Verwaltungskreis Bern-Mittelland"},"canton":{"key":"2","code":"BE","name":"Bern / Berne"},"status":"Real"},{"key":"10060544","name":"Haslistrasse","postalCode":"3510","locality":"Freimettigen","commune":{"key":"607","name":"Freimettigen","shortName":"Freimettigen"},"district":{"key":"246","name":"Verwaltungskreis Bern-Mittelland"},"canton":{"key":"2","code":"BE","name":"Bern / Berne"},"status":"Real"},{"key":"10209906","name":"Kastanienweg","postalCode":"3510","locality":"Freimettigen","commune":{"key":"607","name":"Freimettigen","shortName":"Freimettigen"},"district":{"key":"246","name":"Verwaltungskreis Bern-Mittelland"},"canton":{"key":"2","code":"BE","name":"Bern / Berne"},"status":"Real"},{"key":"10024017","name":"Neuschlössliweg","postalCode":"3510","locality":"Freimettigen","commune":{"key":"607","name":"Freimettigen","shortName":"Freimettigen"},"district":{"key":"246","name":"Verwaltungskreis Bern-Mittelland"},"canton":{"key":"2","code":"BE","name":"Bern / Berne"},"status":"Real"},{"key":"10006258","name":"Niedermatt","postalCode":"3510","locality":"Freimettigen","commune":{"key":"607","name":"Freimettigen","shortName":"Freimettigen"},"district":{"key":"246","name":"Verwaltungskreis Bern-Mittelland"},"canton":{"key":"2","code":"BE","name":"Bern / Berne"},"status":"Real"},{"key":"10060545","name":"Sägematte","postalCode":"3510","locality":"Freimettigen","commune":{"key":"607","name":"Freimettigen","shortName":"Freimettigen"},"district":{"key":"246","name":"Verwaltungskreis Bern-Mittelland"},"canton":{"key":"2","code":"BE","name":"Bern / Berne"},"status":"Real"},{"key":"10124630","name":"Scheuer","postalCode":"3510","locality":"Freimettigen","commune":{"key":"607","name":"Freimettigen","shortName":"Freimettigen"},"district":{"key":"246","name":"Verwaltungskreis Bern-Mittelland"},"canton":{"key":"2","code":"BE","name":"Bern / Berne"},"status":"Real"},{"key":"10075082","name":"Schulhausstrasse","postalCode":"3510","locality":"Freimettigen","commune":{"key":"607","name":"Freimettigen","shortName":"Freimettigen"},"district":{"key":"246","name":"Verwaltungskreis Bern-Mittelland"},"canton":{"key":"2","code":"BE","name":"Bern / Berne"},"status":"Real"},{"key":"10061511","name":"Teufmoos","postalCode":"3510","locality":"Freimettigen","commune":{"key":"607","name":"Freimettigen","shortName":"Freimettigen"},"district":{"key":"246","name":"Verwaltungskreis Bern-Mittelland"},"canton":{"key":"2","code":"BE","name":"Bern / Berne"},"status":"Real"},{"key":"10006259","name":"Untermatt","postalCode":"3510","locality":"Freimettigen","commune":{"key":"607","name":"Freimettigen","shortName":"Freimettigen"},"district":{"key":"246","name":"Verwaltungskreis Bern-Mittelland"},"canton":{"key":"2","code":"BE","name":"Bern / Berne"},"status":"Real"},]