[{"key":"10082014","name":"Aebnit","postalCode":"3635","locality":"Uebeschi","commune":{"key":"943","name":"Uebeschi","shortName":"Uebeschi"},"district":{"key":"247","name":"Verwaltungskreis Thun"},"canton":{"key":"2","code":"BE","name":"Bern / Berne"},"status":"Real"},{"key":"10009032","name":"Aegelsee","postalCode":"3635","locality":"Uebeschi","commune":{"key":"943","name":"Uebeschi","shortName":"Uebeschi"},"district":{"key":"247","name":"Verwaltungskreis Thun"},"canton":{"key":"2","code":"BE","name":"Bern / Berne"},"status":"Real"},{"key":"10103583","name":"Bächi","postalCode":"3635","locality":"Uebeschi","commune":{"key":"943","name":"Uebeschi","shortName":"Uebeschi"},"district":{"key":"247","name":"Verwaltungskreis Thun"},"canton":{"key":"2","code":"BE","name":"Bern / Berne"},"status":"Real"},{"key":"10009033","name":"Bächlimatt","postalCode":"3635","locality":"Uebeschi","commune":{"key":"943","name":"Uebeschi","shortName":"Uebeschi"},"district":{"key":"247","name":"Verwaltungskreis Thun"},"canton":{"key":"2","code":"BE","name":"Bern / Berne"},"status":"Real"},{"key":"10196043","name":"Bergblick","postalCode":"3635","locality":"Uebeschi","commune":{"key":"943","name":"Uebeschi","shortName":"Uebeschi"},"district":{"key":"247","name":"Verwaltungskreis Thun"},"canton":{"key":"2","code":"BE","name":"Bern / Berne"},"status":"Real"},{"key":"10165867","name":"Blättlizelg","postalCode":"3635","locality":"Uebeschi","commune":{"key":"943","name":"Uebeschi","shortName":"Uebeschi"},"district":{"key":"247","name":"Verwaltungskreis Thun"},"canton":{"key":"2","code":"BE","name":"Bern / Berne"},"status":"Real"},{"key":"10175116","name":"Bünde","postalCode":"3635","locality":"Uebeschi","commune":{"key":"943","name":"Uebeschi","shortName":"Uebeschi"},"district":{"key":"247","name":"Verwaltungskreis Thun"},"canton":{"key":"2","code":"BE","name":"Bern / Berne"},"status":"Real"},{"key":"10062011","name":"Chumm","postalCode":"3635","locality":"Uebeschi","commune":{"key":"943","name":"Uebeschi","shortName":"Uebeschi"},"district":{"key":"247","name":"Verwaltungskreis Thun"},"canton":{"key":"2","code":"BE","name":"Bern / Berne"},"status":"Real"},{"key":"10009034","name":"Dorf","postalCode":"3635","locality":"Uebeschi","commune":{"key":"943","name":"Uebeschi","shortName":"Uebeschi"},"district":{"key":"247","name":"Verwaltungskreis Thun"},"canton":{"key":"2","code":"BE","name":"Bern / Berne"},"status":"Real"},{"key":"10059890","name":"Dürrenbühl","postalCode":"3635","locality":"Uebeschi","commune":{"key":"943","name":"Uebeschi","shortName":"Uebeschi"},"district":{"key":"247","name":"Verwaltungskreis Thun"},"canton":{"key":"2","code":"BE","name":"Bern / Berne"},"status":"Real"},{"key":"10009035","name":"Eggen","postalCode":"3635","locality":"Uebeschi","commune":{"key":"943","name":"Uebeschi","shortName":"Uebeschi"},"district":{"key":"247","name":"Verwaltungskreis Thun"},"canton":{"key":"2","code":"BE","name":"Bern / Berne"},"status":"Real"},{"key":"10168093","name":"Einschlag","postalCode":"3635","locality":"Uebeschi","commune":{"key":"943","name":"Uebeschi","shortName":"Uebeschi"},"district":{"key":"247","name":"Verwaltungskreis Thun"},"canton":{"key":"2","code":"BE","name":"Bern / Berne"},"status":"Real"},{"key":"10168092","name":"Farnern","postalCode":"3635","locality":"Uebeschi","commune":{"key":"943","name":"Uebeschi","shortName":"Uebeschi"},"district":{"key":"247","name":"Verwaltungskreis Thun"},"canton":{"key":"2","code":"BE","name":"Bern / Berne"},"status":"Real"},{"key":"10166123","name":"Fuhri","postalCode":"3635","locality":"Uebeschi","commune":{"key":"943","name":"Uebeschi","shortName":"Uebeschi"},"district":{"key":"247","name":"Verwaltungskreis Thun"},"canton":{"key":"2","code":"BE","name":"Bern / Berne"},"status":"Real"},{"key":"10108698","name":"Gänsemoos","postalCode":"3635","locality":"Uebeschi","commune":{"key":"943","name":"Uebeschi","shortName":"Uebeschi"},"district":{"key":"247","name":"Verwaltungskreis Thun"},"canton":{"key":"2","code":"BE","name":"Bern / Berne"},"status":"Real"},{"key":"10062012","name":"Giebel","postalCode":"3635","locality":"Uebeschi","commune":{"key":"943","name":"Uebeschi","shortName":"Uebeschi"},"district":{"key":"247","name":"Verwaltungskreis Thun"},"canton":{"key":"2","code":"BE","name":"Bern / Berne"},"status":"Real"},{"key":"10009036","name":"Grubi","postalCode":"3635","locality":"Uebeschi","commune":{"key":"943","name":"Uebeschi","shortName":"Uebeschi"},"district":{"key":"247","name":"Verwaltungskreis Thun"},"canton":{"key":"2","code":"BE","name":"Bern / Berne"},"status":"Real"},{"key":"10059891","name":"Gwerdi","postalCode":"3635","locality":"Uebeschi","commune":{"key":"943","name":"Uebeschi","shortName":"Uebeschi"},"district":{"key":"247","name":"Verwaltungskreis Thun"},"canton":{"key":"2","code":"BE","name":"Bern / Berne"},"status":"Real"},{"key":"10082015","name":"Hauli","postalCode":"3635","locality":"Uebeschi","commune":{"key":"943","name":"Uebeschi","shortName":"Uebeschi"},"district":{"key":"247","name":"Verwaltungskreis Thun"},"canton":{"key":"2","code":"BE","name":"Bern / Berne"},"status":"Real"},{"key":"10188937","name":"Hausmatte","postalCode":"3635","locality":"Uebeschi","commune":{"key":"943","name":"Uebeschi","shortName":"Uebeschi"},"district":{"key":"247","name":"Verwaltungskreis Thun"},"canton":{"key":"2","code":"BE","name":"Bern / Berne"},"status":"Real"},{"key":"10062013","name":"Hertiweid","postalCode":"3635","locality":"Uebeschi","commune":{"key":"943","name":"Uebeschi","shortName":"Uebeschi"},"district":{"key":"247","name":"Verwaltungskreis Thun"},"canton":{"key":"2","code":"BE","name":"Bern / Berne"},"status":"Real"},{"key":"10009037","name":"Hintere Gasse","postalCode":"3635","locality":"Uebeschi","commune":{"key":"943","name":"Uebeschi","shortName":"Uebeschi"},"district":{"key":"247","name":"Verwaltungskreis Thun"},"canton":{"key":"2","code":"BE","name":"Bern / Berne"},"status":"Real"},{"key":"10178670","name":"Hodelgasse","postalCode":"3635","locality":"Uebeschi","commune":{"key":"943","name":"Uebeschi","shortName":"Uebeschi"},"district":{"key":"247","name":"Verwaltungskreis Thun"},"canton":{"key":"2","code":"BE","name":"Bern / Berne"},"status":"Real"},{"key":"10082016","name":"Honegg","postalCode":"3635","locality":"Uebeschi","commune":{"key":"943","name":"Uebeschi","shortName":"Uebeschi"},"district":{"key":"247","name":"Verwaltungskreis Thun"},"canton":{"key":"2","code":"BE","name":"Bern / Berne"},"status":"Real"},{"key":"10022356","name":"Hubel","postalCode":"3635","locality":"Uebeschi","commune":{"key":"943","name":"Uebeschi","shortName":"Uebeschi"},"district":{"key":"247","name":"Verwaltungskreis Thun"},"canton":{"key":"2","code":"BE","name":"Bern / Berne"},"status":"Real"},{"key":"10009038","name":"Hubeli","postalCode":"3635","locality":"Uebeschi","commune":{"key":"943","name":"Uebeschi","shortName":"Uebeschi"},"district":{"key":"247","name":"Verwaltungskreis Thun"},"canton":{"key":"2","code":"BE","name":"Bern / Berne"},"status":"Real"},{"key":"10122218","name":"Im Heu","postalCode":"3635","locality":"Uebeschi","commune":{"key":"943","name":"Uebeschi","shortName":"Uebeschi"},"district":{"key":"247","name":"Verwaltungskreis Thun"},"canton":{"key":"2","code":"BE","name":"Bern / Berne"},"status":"Real"},{"key":"10062014","name":"Kalberweid","postalCode":"3635","locality":"Uebeschi","commune":{"key":"943","name":"Uebeschi","shortName":"Uebeschi"},"district":{"key":"247","name":"Verwaltungskreis Thun"},"canton":{"key":"2","code":"BE","name":"Bern / Berne"},"status":"Real"},{"key":"10168098","name":"Kärselen","postalCode":"3635","locality":"Uebeschi","commune":{"key":"943","name":"Uebeschi","shortName":"Uebeschi"},"district":{"key":"247","name":"Verwaltungskreis Thun"},"canton":{"key":"2","code":"BE","name":"Bern / Berne"},"status":"Real"},{"key":"10189604","name":"Kärselen","postalCode":"3635","locality":"Uebeschi","commune":{"key":"943","name":"Uebeschi","shortName":"Uebeschi"},"district":{"key":"247","name":"Verwaltungskreis Thun"},"canton":{"key":"2","code":"BE","name":"Bern / Berne"},"status":"Real"},{"key":"10082017","name":"Lindenbühl","postalCode":"3635","locality":"Uebeschi","commune":{"key":"943","name":"Uebeschi","shortName":"Uebeschi"},"district":{"key":"247","name":"Verwaltungskreis Thun"},"canton":{"key":"2","code":"BE","name":"Bern / Berne"},"status":"Real"},{"key":"10009039","name":"Lischen","postalCode":"3635","locality":"Uebeschi","commune":{"key":"943","name":"Uebeschi","shortName":"Uebeschi"},"district":{"key":"247","name":"Verwaltungskreis Thun"},"canton":{"key":"2","code":"BE","name":"Bern / Berne"},"status":"Real"},{"key":"10062015","name":"Loch","postalCode":"3635","locality":"Uebeschi","commune":{"key":"943","name":"Uebeschi","shortName":"Uebeschi"},"district":{"key":"247","name":"Verwaltungskreis Thun"},"canton":{"key":"2","code":"BE","name":"Bern / Berne"},"status":"Real"},{"key":"10009040","name":"Mentschenberg","postalCode":"3635","locality":"Uebeschi","commune":{"key":"943","name":"Uebeschi","shortName":"Uebeschi"},"district":{"key":"247","name":"Verwaltungskreis Thun"},"canton":{"key":"2","code":"BE","name":"Bern / Berne"},"status":"Real"},{"key":"10059892","name":"Neuhaus","postalCode":"3635","locality":"Uebeschi","commune":{"key":"943","name":"Uebeschi","shortName":"Uebeschi"},"district":{"key":"247","name":"Verwaltungskreis Thun"},"canton":{"key":"2","code":"BE","name":"Bern / Berne"},"status":"Real"},{"key":"10082018","name":"Neurütti","postalCode":"3635","locality":"Uebeschi","commune":{"key":"943","name":"Uebeschi","shortName":"Uebeschi"},"district":{"key":"247","name":"Verwaltungskreis Thun"},"canton":{"key":"2","code":"BE","name":"Bern / Berne"},"status":"Real"},{"key":"10062016","name":"Platz","postalCode":"3635","locality":"Uebeschi","commune":{"key":"943","name":"Uebeschi","shortName":"Uebeschi"},"district":{"key":"247","name":"Verwaltungskreis Thun"},"canton":{"key":"2","code":"BE","name":"Bern / Berne"},"status":"Real"},{"key":"10009041","name":"Ried","postalCode":"3635","locality":"Uebeschi","commune":{"key":"943","name":"Uebeschi","shortName":"Uebeschi"},"district":{"key":"247","name":"Verwaltungskreis Thun"},"canton":{"key":"2","code":"BE","name":"Bern / Berne"},"status":"Real"},{"key":"10168094","name":"Rothenbach","postalCode":"3635","locality":"Uebeschi","commune":{"key":"943","name":"Uebeschi","shortName":"Uebeschi"},"district":{"key":"247","name":"Verwaltungskreis Thun"},"canton":{"key":"2","code":"BE","name":"Bern / Berne"},"status":"Real"},{"key":"10178671","name":"Schaubhaus","postalCode":"3635","locality":"Uebeschi","commune":{"key":"943","name":"Uebeschi","shortName":"Uebeschi"},"district":{"key":"247","name":"Verwaltungskreis Thun"},"canton":{"key":"2","code":"BE","name":"Bern / Berne"},"status":"Real"},{"key":"10059893","name":"Secki","postalCode":"3635","locality":"Uebeschi","commune":{"key":"943","name":"Uebeschi","shortName":"Uebeschi"},"district":{"key":"247","name":"Verwaltungskreis Thun"},"canton":{"key":"2","code":"BE","name":"Bern / Berne"},"status":"Real"},{"key":"10009042","name":"Spengeli","postalCode":"3635","locality":"Uebeschi","commune":{"key":"943","name":"Uebeschi","shortName":"Uebeschi"},"district":{"key":"247","name":"Verwaltungskreis Thun"},"canton":{"key":"2","code":"BE","name":"Bern / Berne"},"status":"Real"},{"key":"10062017","name":"Subel","postalCode":"3635","locality":"Uebeschi","commune":{"key":"943","name":"Uebeschi","shortName":"Uebeschi"},"district":{"key":"247","name":"Verwaltungskreis Thun"},"canton":{"key":"2","code":"BE","name":"Bern / Berne"},"status":"Real"},{"key":"10082019","name":"Täschenholz","postalCode":"3635","locality":"Uebeschi","commune":{"key":"943","name":"Uebeschi","shortName":"Uebeschi"},"district":{"key":"247","name":"Verwaltungskreis Thun"},"canton":{"key":"2","code":"BE","name":"Bern / Berne"},"status":"Real"},{"key":"10103584","name":"Untermosi","postalCode":"3635","locality":"Uebeschi","commune":{"key":"943","name":"Uebeschi","shortName":"Uebeschi"},"district":{"key":"247","name":"Verwaltungskreis Thun"},"canton":{"key":"2","code":"BE","name":"Bern / Berne"},"status":"Real"},{"key":"10009043","name":"Weid","postalCode":"3635","locality":"Uebeschi","commune":{"key":"943","name":"Uebeschi","shortName":"Uebeschi"},"district":{"key":"247","name":"Verwaltungskreis Thun"},"canton":{"key":"2","code":"BE","name":"Bern / Berne"},"status":"Real"},{"key":"10162460","name":"Weidli","postalCode":"3635","locality":"Uebeschi","commune":{"key":"943","name":"Uebeschi","shortName":"Uebeschi"},"district":{"key":"247","name":"Verwaltungskreis Thun"},"canton":{"key":"2","code":"BE","name":"Bern / Berne"},"status":"Real"},{"key":"10168403","name":"Weier","postalCode":"3635","locality":"Uebeschi","commune":{"key":"943","name":"Uebeschi","shortName":"Uebeschi"},"district":{"key":"247","name":"Verwaltungskreis Thun"},"canton":{"key":"2","code":"BE","name":"Bern / Berne"},"status":"Real"},{"key":"10062018","name":"Weiersbühl","postalCode":"3635","locality":"Uebeschi","commune":{"key":"943","name":"Uebeschi","shortName":"Uebeschi"},"district":{"key":"247","name":"Verwaltungskreis Thun"},"canton":{"key":"2","code":"BE","name":"Bern / Berne"},"status":"Real"},{"key":"10108699","name":"Wylermatt","postalCode":"3635","locality":"Uebeschi","commune":{"key":"943","name":"Uebeschi","shortName":"Uebeschi"},"district":{"key":"247","name":"Verwaltungskreis Thun"},"canton":{"key":"2","code":"BE","name":"Bern / Berne"},"status":"Real"},{"key":"10009044","name":"Zelggasse","postalCode":"3635","locality":"Uebeschi","commune":{"key":"943","name":"Uebeschi","shortName":"Uebeschi"},"district":{"key":"247","name":"Verwaltungskreis Thun"},"canton":{"key":"2","code":"BE","name":"Bern / Berne"},"status":"Real"},]