[{"name":"Am Belleklauer","postalCode":"55288","locality":"Schornsheim","municipality":{"key":"07331059","name":"Schornsheim","type":"Kreisangehörige_Gemeinde"},"district":{"key":"07331","name":"Alzey-Worms","type":"Landkreis"},"federalState":{"key":"07","name":"Rheinland-Pfalz"}},{"name":"Am Mönchspfad","postalCode":"55288","locality":"Schornsheim","municipality":{"key":"07331059","name":"Schornsheim","type":"Kreisangehörige_Gemeinde"},"district":{"key":"07331","name":"Alzey-Worms","type":"Landkreis"},"federalState":{"key":"07","name":"Rheinland-Pfalz"}},{"name":"Am Ritterberg","postalCode":"55288","locality":"Schornsheim","municipality":{"key":"07331059","name":"Schornsheim","type":"Kreisangehörige_Gemeinde"},"district":{"key":"07331","name":"Alzey-Worms","type":"Landkreis"},"federalState":{"key":"07","name":"Rheinland-Pfalz"}},{"name":"Am Sonnenhang","postalCode":"55288","locality":"Schornsheim","municipality":{"key":"07331059","name":"Schornsheim","type":"Kreisangehörige_Gemeinde"},"district":{"key":"07331","name":"Alzey-Worms","type":"Landkreis"},"federalState":{"key":"07","name":"Rheinland-Pfalz"}},{"name":"Bauchgasse","postalCode":"55288","locality":"Schornsheim","municipality":{"key":"07331059","name":"Schornsheim","type":"Kreisangehörige_Gemeinde"},"district":{"key":"07331","name":"Alzey-Worms","type":"Landkreis"},"federalState":{"key":"07","name":"Rheinland-Pfalz"}},{"name":"Bebelstr.","postalCode":"55288","locality":"Schornsheim","municipality":{"key":"07331059","name":"Schornsheim","type":"Kreisangehörige_Gemeinde"},"district":{"key":"07331","name":"Alzey-Worms","type":"Landkreis"},"federalState":{"key":"07","name":"Rheinland-Pfalz"}},{"name":"Dr.-Adenauer-Ring","postalCode":"55288","locality":"Schornsheim","municipality":{"key":"07331059","name":"Schornsheim","type":"Kreisangehörige_Gemeinde"},"district":{"key":"07331","name":"Alzey-Worms","type":"Landkreis"},"federalState":{"key":"07","name":"Rheinland-Pfalz"}},{"name":"Friedrich-Ebert-Str.","postalCode":"55288","locality":"Schornsheim","municipality":{"key":"07331059","name":"Schornsheim","type":"Kreisangehörige_Gemeinde"},"district":{"key":"07331","name":"Alzey-Worms","type":"Landkreis"},"federalState":{"key":"07","name":"Rheinland-Pfalz"}},{"name":"Gartenstr.","postalCode":"55288","locality":"Schornsheim","municipality":{"key":"07331059","name":"Schornsheim","type":"Kreisangehörige_Gemeinde"},"district":{"key":"07331","name":"Alzey-Worms","type":"Landkreis"},"federalState":{"key":"07","name":"Rheinland-Pfalz"}},{"name":"Goethestr.","postalCode":"55288","locality":"Schornsheim","municipality":{"key":"07331059","name":"Schornsheim","type":"Kreisangehörige_Gemeinde"},"district":{"key":"07331","name":"Alzey-Worms","type":"Landkreis"},"federalState":{"key":"07","name":"Rheinland-Pfalz"}},{"name":"Hasengasse","postalCode":"55288","locality":"Schornsheim","municipality":{"key":"07331059","name":"Schornsheim","type":"Kreisangehörige_Gemeinde"},"district":{"key":"07331","name":"Alzey-Worms","type":"Landkreis"},"federalState":{"key":"07","name":"Rheinland-Pfalz"}},{"name":"Heyerstr.","postalCode":"55288","locality":"Schornsheim","municipality":{"key":"07331059","name":"Schornsheim","type":"Kreisangehörige_Gemeinde"},"district":{"key":"07331","name":"Alzey-Worms","type":"Landkreis"},"federalState":{"key":"07","name":"Rheinland-Pfalz"}},{"name":"Höfchen","postalCode":"55288","locality":"Schornsheim","municipality":{"key":"07331059","name":"Schornsheim","type":"Kreisangehörige_Gemeinde"},"district":{"key":"07331","name":"Alzey-Worms","type":"Landkreis"},"federalState":{"key":"07","name":"Rheinland-Pfalz"}},{"name":"Höllenwegstr.","postalCode":"55288","locality":"Schornsheim","municipality":{"key":"07331059","name":"Schornsheim","type":"Kreisangehörige_Gemeinde"},"district":{"key":"07331","name":"Alzey-Worms","type":"Landkreis"},"federalState":{"key":"07","name":"Rheinland-Pfalz"}},{"name":"Hölzerstr.","postalCode":"55288","locality":"Schornsheim","municipality":{"key":"07331059","name":"Schornsheim","type":"Kreisangehörige_Gemeinde"},"district":{"key":"07331","name":"Alzey-Worms","type":"Landkreis"},"federalState":{"key":"07","name":"Rheinland-Pfalz"}},{"name":"Humboldtstr.","postalCode":"55288","locality":"Schornsheim","municipality":{"key":"07331059","name":"Schornsheim","type":"Kreisangehörige_Gemeinde"},"district":{"key":"07331","name":"Alzey-Worms","type":"Landkreis"},"federalState":{"key":"07","name":"Rheinland-Pfalz"}},{"name":"Jahnstr.","postalCode":"55288","locality":"Schornsheim","municipality":{"key":"07331059","name":"Schornsheim","type":"Kreisangehörige_Gemeinde"},"district":{"key":"07331","name":"Alzey-Worms","type":"Landkreis"},"federalState":{"key":"07","name":"Rheinland-Pfalz"}},{"name":"Karl-Marx-Str.","postalCode":"55288","locality":"Schornsheim","municipality":{"key":"07331059","name":"Schornsheim","type":"Kreisangehörige_Gemeinde"},"district":{"key":"07331","name":"Alzey-Worms","type":"Landkreis"},"federalState":{"key":"07","name":"Rheinland-Pfalz"}},{"name":"Kirchstr.","postalCode":"55288","locality":"Schornsheim","municipality":{"key":"07331059","name":"Schornsheim","type":"Kreisangehörige_Gemeinde"},"district":{"key":"07331","name":"Alzey-Worms","type":"Landkreis"},"federalState":{"key":"07","name":"Rheinland-Pfalz"}},{"name":"Klosterstr.","postalCode":"55288","locality":"Schornsheim","municipality":{"key":"07331059","name":"Schornsheim","type":"Kreisangehörige_Gemeinde"},"district":{"key":"07331","name":"Alzey-Worms","type":"Landkreis"},"federalState":{"key":"07","name":"Rheinland-Pfalz"}},{"name":"Leuschnerstr.","postalCode":"55288","locality":"Schornsheim","municipality":{"key":"07331059","name":"Schornsheim","type":"Kreisangehörige_Gemeinde"},"district":{"key":"07331","name":"Alzey-Worms","type":"Landkreis"},"federalState":{"key":"07","name":"Rheinland-Pfalz"}},{"name":"Mühlerstr.","postalCode":"55288","locality":"Schornsheim","municipality":{"key":"07331059","name":"Schornsheim","type":"Kreisangehörige_Gemeinde"},"district":{"key":"07331","name":"Alzey-Worms","type":"Landkreis"},"federalState":{"key":"07","name":"Rheinland-Pfalz"}},{"name":"Pfaffenwaldstr.","postalCode":"55288","locality":"Schornsheim","municipality":{"key":"07331059","name":"Schornsheim","type":"Kreisangehörige_Gemeinde"},"district":{"key":"07331","name":"Alzey-Worms","type":"Landkreis"},"federalState":{"key":"07","name":"Rheinland-Pfalz"}},{"name":"Pfaffenwiesenweg","postalCode":"55288","locality":"Schornsheim","municipality":{"key":"07331059","name":"Schornsheim","type":"Kreisangehörige_Gemeinde"},"district":{"key":"07331","name":"Alzey-Worms","type":"Landkreis"},"federalState":{"key":"07","name":"Rheinland-Pfalz"}},{"name":"Raiffeisenstr.","postalCode":"55288","locality":"Schornsheim","municipality":{"key":"07331059","name":"Schornsheim","type":"Kreisangehörige_Gemeinde"},"district":{"key":"07331","name":"Alzey-Worms","type":"Landkreis"},"federalState":{"key":"07","name":"Rheinland-Pfalz"}},{"name":"Sandweg","postalCode":"55288","locality":"Schornsheim","municipality":{"key":"07331059","name":"Schornsheim","type":"Kreisangehörige_Gemeinde"},"district":{"key":"07331","name":"Alzey-Worms","type":"Landkreis"},"federalState":{"key":"07","name":"Rheinland-Pfalz"}},{"name":"Schillerstr.","postalCode":"55288","locality":"Schornsheim","municipality":{"key":"07331059","name":"Schornsheim","type":"Kreisangehörige_Gemeinde"},"district":{"key":"07331","name":"Alzey-Worms","type":"Landkreis"},"federalState":{"key":"07","name":"Rheinland-Pfalz"}},{"name":"Schulstr.","postalCode":"55288","locality":"Schornsheim","municipality":{"key":"07331059","name":"Schornsheim","type":"Kreisangehörige_Gemeinde"},"district":{"key":"07331","name":"Alzey-Worms","type":"Landkreis"},"federalState":{"key":"07","name":"Rheinland-Pfalz"}},{"name":"Spiesheimer Hohl","postalCode":"55288","locality":"Schornsheim","municipality":{"key":"07331059","name":"Schornsheim","type":"Kreisangehörige_Gemeinde"},"district":{"key":"07331","name":"Alzey-Worms","type":"Landkreis"},"federalState":{"key":"07","name":"Rheinland-Pfalz"}},{"name":"Steingasse","postalCode":"55288","locality":"Schornsheim","municipality":{"key":"07331059","name":"Schornsheim","type":"Kreisangehörige_Gemeinde"},"district":{"key":"07331","name":"Alzey-Worms","type":"Landkreis"},"federalState":{"key":"07","name":"Rheinland-Pfalz"}},{"name":"Steinweg","postalCode":"55288","locality":"Schornsheim","municipality":{"key":"07331059","name":"Schornsheim","type":"Kreisangehörige_Gemeinde"},"district":{"key":"07331","name":"Alzey-Worms","type":"Landkreis"},"federalState":{"key":"07","name":"Rheinland-Pfalz"}},{"name":"Weiherstr.","postalCode":"55288","locality":"Schornsheim","municipality":{"key":"07331059","name":"Schornsheim","type":"Kreisangehörige_Gemeinde"},"district":{"key":"07331","name":"Alzey-Worms","type":"Landkreis"},"federalState":{"key":"07","name":"Rheinland-Pfalz"}},{"name":"Zum Dockenborn","postalCode":"55288","locality":"Schornsheim","municipality":{"key":"07331059","name":"Schornsheim","type":"Kreisangehörige_Gemeinde"},"district":{"key":"07331","name":"Alzey-Worms","type":"Landkreis"},"federalState":{"key":"07","name":"Rheinland-Pfalz"}},]