[{"name":"Alte Parchimer Landstr.","postalCode":"19348","locality":"Gülitz-Reetz","municipality":{"key":"12070145","name":"Gülitz-Reetz","type":"Kreisangehörige_Gemeinde"},"district":{"key":"12070","name":"Prignitz","type":"Landkreis"},"federalState":{"key":"12","name":"Brandenburg"}},{"name":"Baeker Str.","postalCode":"19348","locality":"Gülitz-Reetz","municipality":{"key":"12070145","name":"Gülitz-Reetz","type":"Kreisangehörige_Gemeinde"},"district":{"key":"12070","name":"Prignitz","type":"Landkreis"},"federalState":{"key":"12","name":"Brandenburg"}},{"name":"Chausseestr.","postalCode":"16928","locality":"Groß Pankow (Prignitz)","municipality":{"key":"12070125","name":"Groß Pankow (Prignitz)","type":"Kreisangehörige_Gemeinde"},"district":{"key":"12070","name":"Prignitz","type":"Landkreis"},"federalState":{"key":"12","name":"Brandenburg"}},{"name":"Dorfstr.","postalCode":"19348","locality":"Gülitz-Reetz","municipality":{"key":"12070145","name":"Gülitz-Reetz","type":"Kreisangehörige_Gemeinde"},"district":{"key":"12070","name":"Prignitz","type":"Landkreis"},"federalState":{"key":"12","name":"Brandenburg"}},{"name":"Eichenallee","postalCode":"16928","locality":"Groß Pankow (Prignitz)","municipality":{"key":"12070125","name":"Groß Pankow (Prignitz)","type":"Kreisangehörige_Gemeinde"},"district":{"key":"12070","name":"Prignitz","type":"Landkreis"},"federalState":{"key":"12","name":"Brandenburg"}},{"name":"Eichenweg","postalCode":"16928","locality":"Groß Pankow (Prignitz)","municipality":{"key":"12070125","name":"Groß Pankow (Prignitz)","type":"Kreisangehörige_Gemeinde"},"district":{"key":"12070","name":"Prignitz","type":"Landkreis"},"federalState":{"key":"12","name":"Brandenburg"}},{"name":"Gülitzer Str.","postalCode":"19348","locality":"Gülitz-Reetz","municipality":{"key":"12070145","name":"Gülitz-Reetz","type":"Kreisangehörige_Gemeinde"},"district":{"key":"12070","name":"Prignitz","type":"Landkreis"},"federalState":{"key":"12","name":"Brandenburg"}},{"name":"Hauptstr.","postalCode":"19348","locality":"Gülitz-Reetz","municipality":{"key":"12070145","name":"Gülitz-Reetz","type":"Kreisangehörige_Gemeinde"},"district":{"key":"12070","name":"Prignitz","type":"Landkreis"},"federalState":{"key":"12","name":"Brandenburg"}},{"name":"Im Dörp","postalCode":"16928","locality":"Groß Pankow (Prignitz)","municipality":{"key":"12070125","name":"Groß Pankow (Prignitz)","type":"Kreisangehörige_Gemeinde"},"district":{"key":"12070","name":"Prignitz","type":"Landkreis"},"federalState":{"key":"12","name":"Brandenburg"}},{"name":"Jakobsdorfer Weg","postalCode":"16928","locality":"Groß Pankow (Prignitz)","municipality":{"key":"12070125","name":"Groß Pankow (Prignitz)","type":"Kreisangehörige_Gemeinde"},"district":{"key":"12070","name":"Prignitz","type":"Landkreis"},"federalState":{"key":"12","name":"Brandenburg"}},{"name":"Kirchplatz","postalCode":"19348","locality":"Gülitz-Reetz","municipality":{"key":"12070145","name":"Gülitz-Reetz","type":"Kreisangehörige_Gemeinde"},"district":{"key":"12070","name":"Prignitz","type":"Landkreis"},"federalState":{"key":"12","name":"Brandenburg"}},{"name":"Langerwischer Weg","postalCode":"16928","locality":"Groß Pankow (Prignitz)","municipality":{"key":"12070125","name":"Groß Pankow (Prignitz)","type":"Kreisangehörige_Gemeinde"},"district":{"key":"12070","name":"Prignitz","type":"Landkreis"},"federalState":{"key":"12","name":"Brandenburg"}},{"name":"Langnower Ausbau","postalCode":"16928","locality":"Groß Pankow (Prignitz)","municipality":{"key":"12070125","name":"Groß Pankow (Prignitz)","type":"Kreisangehörige_Gemeinde"},"district":{"key":"12070","name":"Prignitz","type":"Landkreis"},"federalState":{"key":"12","name":"Brandenburg"}},{"name":"Langnower Str.","postalCode":"16928","locality":"Groß Pankow (Prignitz)","municipality":{"key":"12070125","name":"Groß Pankow (Prignitz)","type":"Kreisangehörige_Gemeinde"},"district":{"key":"12070","name":"Prignitz","type":"Landkreis"},"federalState":{"key":"12","name":"Brandenburg"}},{"name":"Lindenallee","postalCode":"16928","locality":"Groß Pankow (Prignitz)","municipality":{"key":"12070125","name":"Groß Pankow (Prignitz)","type":"Kreisangehörige_Gemeinde"},"district":{"key":"12070","name":"Prignitz","type":"Landkreis"},"federalState":{"key":"12","name":"Brandenburg"}},{"name":"Lindenberg","postalCode":"16928","locality":"Groß Pankow (Prignitz)","municipality":{"key":"12070125","name":"Groß Pankow (Prignitz)","type":"Kreisangehörige_Gemeinde"},"district":{"key":"12070","name":"Prignitz","type":"Landkreis"},"federalState":{"key":"12","name":"Brandenburg"}},{"name":"Lindenstr.","postalCode":"16928","locality":"Groß Pankow (Prignitz)","municipality":{"key":"12070125","name":"Groß Pankow (Prignitz)","type":"Kreisangehörige_Gemeinde"},"district":{"key":"12070","name":"Prignitz","type":"Landkreis"},"federalState":{"key":"12","name":"Brandenburg"}},{"name":"Lindenweg","postalCode":"16928","locality":"Groß Pankow (Prignitz)","municipality":{"key":"12070125","name":"Groß Pankow (Prignitz)","type":"Kreisangehörige_Gemeinde"},"district":{"key":"12070","name":"Prignitz","type":"Landkreis"},"federalState":{"key":"12","name":"Brandenburg"}},{"name":"Lübzow Ausbau","postalCode":"16928","locality":"Groß Pankow (Prignitz)","municipality":{"key":"12070125","name":"Groß Pankow (Prignitz)","type":"Kreisangehörige_Gemeinde"},"district":{"key":"12070","name":"Prignitz","type":"Landkreis"},"federalState":{"key":"12","name":"Brandenburg"}},{"name":"Mühlenstr.","postalCode":"19348","locality":"Gülitz-Reetz","municipality":{"key":"12070145","name":"Gülitz-Reetz","type":"Kreisangehörige_Gemeinde"},"district":{"key":"12070","name":"Prignitz","type":"Landkreis"},"federalState":{"key":"12","name":"Brandenburg"}},{"name":"Neu Hohenvier","postalCode":"16928","locality":"Groß Pankow (Prignitz)","municipality":{"key":"12070125","name":"Groß Pankow (Prignitz)","type":"Kreisangehörige_Gemeinde"},"district":{"key":"12070","name":"Prignitz","type":"Landkreis"},"federalState":{"key":"12","name":"Brandenburg"}},{"name":"Neu Rohlsdorf","postalCode":"16928","locality":"Groß Pankow (Prignitz)","municipality":{"key":"12070125","name":"Groß Pankow (Prignitz)","type":"Kreisangehörige_Gemeinde"},"district":{"key":"12070","name":"Prignitz","type":"Landkreis"},"federalState":{"key":"12","name":"Brandenburg"}},{"name":"Obere Dorfstr.","postalCode":"16928","locality":"Groß Pankow (Prignitz)","municipality":{"key":"12070125","name":"Groß Pankow (Prignitz)","type":"Kreisangehörige_Gemeinde"},"district":{"key":"12070","name":"Prignitz","type":"Landkreis"},"federalState":{"key":"12","name":"Brandenburg"}},{"name":"Pflaumenweg","postalCode":"19348","locality":"Gülitz-Reetz","municipality":{"key":"12070145","name":"Gülitz-Reetz","type":"Kreisangehörige_Gemeinde"},"district":{"key":"12070","name":"Prignitz","type":"Landkreis"},"federalState":{"key":"12","name":"Brandenburg"}},{"name":"Putlitzer Weg","postalCode":"19348","locality":"Gülitz-Reetz","municipality":{"key":"12070145","name":"Gülitz-Reetz","type":"Kreisangehörige_Gemeinde"},"district":{"key":"12070","name":"Prignitz","type":"Landkreis"},"federalState":{"key":"12","name":"Brandenburg"}},{"name":"Reckenthiner Str.","postalCode":"16928","locality":"Groß Pankow (Prignitz)","municipality":{"key":"12070125","name":"Groß Pankow (Prignitz)","type":"Kreisangehörige_Gemeinde"},"district":{"key":"12070","name":"Prignitz","type":"Landkreis"},"federalState":{"key":"12","name":"Brandenburg"}},{"name":"Reetzer Str.","postalCode":"16928","locality":"Groß Pankow (Prignitz)","municipality":{"key":"12070125","name":"Groß Pankow (Prignitz)","type":"Kreisangehörige_Gemeinde"},"district":{"key":"12070","name":"Prignitz","type":"Landkreis"},"federalState":{"key":"12","name":"Brandenburg"}},{"name":"Retziner Weg","postalCode":"16928","locality":"Groß Pankow (Prignitz)","municipality":{"key":"12070125","name":"Groß Pankow (Prignitz)","type":"Kreisangehörige_Gemeinde"},"district":{"key":"12070","name":"Prignitz","type":"Landkreis"},"federalState":{"key":"12","name":"Brandenburg"}},{"name":"Ringstr.","postalCode":"16928","locality":"Groß Pankow (Prignitz)","municipality":{"key":"12070125","name":"Groß Pankow (Prignitz)","type":"Kreisangehörige_Gemeinde"},"district":{"key":"12070","name":"Prignitz","type":"Landkreis"},"federalState":{"key":"12","name":"Brandenburg"}},{"name":"Rohlsdorf","postalCode":"16928","locality":"Groß Pankow (Prignitz)","municipality":{"key":"12070125","name":"Groß Pankow (Prignitz)","type":"Kreisangehörige_Gemeinde"},"district":{"key":"12070","name":"Prignitz","type":"Landkreis"},"federalState":{"key":"12","name":"Brandenburg"}},{"name":"Rosa-Luxemburg-Str.","postalCode":"16928","locality":"Groß Pankow (Prignitz)","municipality":{"key":"12070125","name":"Groß Pankow (Prignitz)","type":"Kreisangehörige_Gemeinde"},"district":{"key":"12070","name":"Prignitz","type":"Landkreis"},"federalState":{"key":"12","name":"Brandenburg"}},{"name":"Rosenweg","postalCode":"16928","locality":"Groß Pankow (Prignitz)","municipality":{"key":"12070125","name":"Groß Pankow (Prignitz)","type":"Kreisangehörige_Gemeinde"},"district":{"key":"12070","name":"Prignitz","type":"Landkreis"},"federalState":{"key":"12","name":"Brandenburg"}},{"name":"Siedlung","postalCode":"19348","locality":"Gülitz-Reetz","municipality":{"key":"12070145","name":"Gülitz-Reetz","type":"Kreisangehörige_Gemeinde"},"district":{"key":"12070","name":"Prignitz","type":"Landkreis"},"federalState":{"key":"12","name":"Brandenburg"}},{"name":"Siedlungsweg","postalCode":"19348","locality":"Gülitz-Reetz","municipality":{"key":"12070145","name":"Gülitz-Reetz","type":"Kreisangehörige_Gemeinde"},"district":{"key":"12070","name":"Prignitz","type":"Landkreis"},"federalState":{"key":"12","name":"Brandenburg"}},{"name":"Tacken","postalCode":"16928","locality":"Groß Pankow (Prignitz)","municipality":{"key":"12070125","name":"Groß Pankow (Prignitz)","type":"Kreisangehörige_Gemeinde"},"district":{"key":"12070","name":"Prignitz","type":"Landkreis"},"federalState":{"key":"12","name":"Brandenburg"}},{"name":"Tangendorf Ausbau","postalCode":"16928","locality":"Groß Pankow (Prignitz)","municipality":{"key":"12070125","name":"Groß Pankow (Prignitz)","type":"Kreisangehörige_Gemeinde"},"district":{"key":"12070","name":"Prignitz","type":"Landkreis"},"federalState":{"key":"12","name":"Brandenburg"}},{"name":"Tangendorfer Hauptstr.","postalCode":"16928","locality":"Groß Pankow (Prignitz)","municipality":{"key":"12070125","name":"Groß Pankow (Prignitz)","type":"Kreisangehörige_Gemeinde"},"district":{"key":"12070","name":"Prignitz","type":"Landkreis"},"federalState":{"key":"12","name":"Brandenburg"}},{"name":"Tangendorfer Str.","postalCode":"16928","locality":"Groß Pankow (Prignitz)","municipality":{"key":"12070125","name":"Groß Pankow (Prignitz)","type":"Kreisangehörige_Gemeinde"},"district":{"key":"12070","name":"Prignitz","type":"Landkreis"},"federalState":{"key":"12","name":"Brandenburg"}},{"name":"Tüchener Hauptstr.","postalCode":"16928","locality":"Groß Pankow (Prignitz)","municipality":{"key":"12070125","name":"Groß Pankow (Prignitz)","type":"Kreisangehörige_Gemeinde"},"district":{"key":"12070","name":"Prignitz","type":"Landkreis"},"federalState":{"key":"12","name":"Brandenburg"}},{"name":"Unter den Linden","postalCode":"16928","locality":"Groß Pankow (Prignitz)","municipality":{"key":"12070125","name":"Groß Pankow (Prignitz)","type":"Kreisangehörige_Gemeinde"},"district":{"key":"12070","name":"Prignitz","type":"Landkreis"},"federalState":{"key":"12","name":"Brandenburg"}},{"name":"Vahrnower Str.","postalCode":"16928","locality":"Groß Pankow (Prignitz)","municipality":{"key":"12070125","name":"Groß Pankow (Prignitz)","type":"Kreisangehörige_Gemeinde"},"district":{"key":"12070","name":"Prignitz","type":"Landkreis"},"federalState":{"key":"12","name":"Brandenburg"}},{"name":"Vettin","postalCode":"16928","locality":"Groß Pankow (Prignitz)","municipality":{"key":"12070125","name":"Groß Pankow (Prignitz)","type":"Kreisangehörige_Gemeinde"},"district":{"key":"12070","name":"Prignitz","type":"Landkreis"},"federalState":{"key":"12","name":"Brandenburg"}},{"name":"Vettiner Str.","postalCode":"16928","locality":"Groß Pankow (Prignitz)","municipality":{"key":"12070125","name":"Groß Pankow (Prignitz)","type":"Kreisangehörige_Gemeinde"},"district":{"key":"12070","name":"Prignitz","type":"Landkreis"},"federalState":{"key":"12","name":"Brandenburg"}},{"name":"Waldlehrpark","postalCode":"16928","locality":"Groß Pankow (Prignitz)","municipality":{"key":"12070125","name":"Groß Pankow (Prignitz)","type":"Kreisangehörige_Gemeinde"},"district":{"key":"12070","name":"Prignitz","type":"Landkreis"},"federalState":{"key":"12","name":"Brandenburg"}},{"name":"Waldstr.","postalCode":"16928","locality":"Groß Pankow (Prignitz)","municipality":{"key":"12070125","name":"Groß Pankow (Prignitz)","type":"Kreisangehörige_Gemeinde"},"district":{"key":"12070","name":"Prignitz","type":"Landkreis"},"federalState":{"key":"12","name":"Brandenburg"}},{"name":"Weg nach Wolfshagen","postalCode":"16928","locality":"Groß Pankow (Prignitz)","municipality":{"key":"12070125","name":"Groß Pankow (Prignitz)","type":"Kreisangehörige_Gemeinde"},"district":{"key":"12070","name":"Prignitz","type":"Landkreis"},"federalState":{"key":"12","name":"Brandenburg"}},{"name":"Wiesenweg","postalCode":"16928","locality":"Groß Pankow (Prignitz)","municipality":{"key":"12070125","name":"Groß Pankow (Prignitz)","type":"Kreisangehörige_Gemeinde"},"district":{"key":"12070","name":"Prignitz","type":"Landkreis"},"federalState":{"key":"12","name":"Brandenburg"}},{"name":"Wolfshagener Damm","postalCode":"16928","locality":"Groß Pankow (Prignitz)","municipality":{"key":"12070125","name":"Groß Pankow (Prignitz)","type":"Kreisangehörige_Gemeinde"},"district":{"key":"12070","name":"Prignitz","type":"Landkreis"},"federalState":{"key":"12","name":"Brandenburg"}},{"name":"Wolfshagener Str.","postalCode":"16928","locality":"Groß Pankow (Prignitz)","municipality":{"key":"12070125","name":"Groß Pankow (Prignitz)","type":"Kreisangehörige_Gemeinde"},"district":{"key":"12070","name":"Prignitz","type":"Landkreis"},"federalState":{"key":"12","name":"Brandenburg"}},{"name":"Wunderknabenweg","postalCode":"16928","locality":"Groß Pankow (Prignitz)","municipality":{"key":"12070125","name":"Groß Pankow (Prignitz)","type":"Kreisangehörige_Gemeinde"},"district":{"key":"12070","name":"Prignitz","type":"Landkreis"},"federalState":{"key":"12","name":"Brandenburg"}},]