[{"name":"Altheimer Weg","postalCode":"89177","locality":"Börslingen","municipality":{"key":"08425022","name":"Börslingen","type":"Kreisangehörige_Gemeinde"},"district":{"key":"08425","name":"Alb-Donau-Kreis","type":"Landkreis"},"federalState":{"key":"08","name":"Baden-Württemberg"}},{"name":"Ballendorfer Weg","postalCode":"89177","locality":"Börslingen","municipality":{"key":"08425022","name":"Börslingen","type":"Kreisangehörige_Gemeinde"},"district":{"key":"08425","name":"Alb-Donau-Kreis","type":"Landkreis"},"federalState":{"key":"08","name":"Baden-Württemberg"}},{"name":"Eschental","postalCode":"89177","locality":"Börslingen","municipality":{"key":"08425022","name":"Börslingen","type":"Kreisangehörige_Gemeinde"},"district":{"key":"08425","name":"Alb-Donau-Kreis","type":"Landkreis"},"federalState":{"key":"08","name":"Baden-Württemberg"}},{"name":"Gartenweg","postalCode":"89177","locality":"Börslingen","municipality":{"key":"08425022","name":"Börslingen","type":"Kreisangehörige_Gemeinde"},"district":{"key":"08425","name":"Alb-Donau-Kreis","type":"Landkreis"},"federalState":{"key":"08","name":"Baden-Württemberg"}},{"name":"Hauptstr.","postalCode":"89177","locality":"Börslingen","municipality":{"key":"08425022","name":"Börslingen","type":"Kreisangehörige_Gemeinde"},"district":{"key":"08425","name":"Alb-Donau-Kreis","type":"Landkreis"},"federalState":{"key":"08","name":"Baden-Württemberg"}},{"name":"Heusteige","postalCode":"89177","locality":"Börslingen","municipality":{"key":"08425022","name":"Börslingen","type":"Kreisangehörige_Gemeinde"},"district":{"key":"08425","name":"Alb-Donau-Kreis","type":"Landkreis"},"federalState":{"key":"08","name":"Baden-Württemberg"}},{"name":"Kirchplatz","postalCode":"89177","locality":"Börslingen","municipality":{"key":"08425022","name":"Börslingen","type":"Kreisangehörige_Gemeinde"},"district":{"key":"08425","name":"Alb-Donau-Kreis","type":"Landkreis"},"federalState":{"key":"08","name":"Baden-Württemberg"}},{"name":"Neenstetter Weg","postalCode":"89177","locality":"Börslingen","municipality":{"key":"08425022","name":"Börslingen","type":"Kreisangehörige_Gemeinde"},"district":{"key":"08425","name":"Alb-Donau-Kreis","type":"Landkreis"},"federalState":{"key":"08","name":"Baden-Württemberg"}},{"name":"Neue Str.","postalCode":"89177","locality":"Börslingen","municipality":{"key":"08425022","name":"Börslingen","type":"Kreisangehörige_Gemeinde"},"district":{"key":"08425","name":"Alb-Donau-Kreis","type":"Landkreis"},"federalState":{"key":"08","name":"Baden-Württemberg"}},{"name":"Wagschale","postalCode":"89177","locality":"Börslingen","municipality":{"key":"08425022","name":"Börslingen","type":"Kreisangehörige_Gemeinde"},"district":{"key":"08425","name":"Alb-Donau-Kreis","type":"Landkreis"},"federalState":{"key":"08","name":"Baden-Württemberg"}},]