[{"name":"Am Wittkamp","postalCode":"24357","locality":"Güby","municipality":{"key":"01058067","name":"Güby","type":"Kreisangehörige_Gemeinde"},"district":{"key":"01058","name":"Rendsburg-Eckernförde","type":"Kreis"},"federalState":{"key":"01","name":"Schleswig-Holstein"}},{"name":"Borgwedeler Weg","postalCode":"24357","locality":"Güby","municipality":{"key":"01058067","name":"Güby","type":"Kreisangehörige_Gemeinde"},"district":{"key":"01058","name":"Rendsburg-Eckernförde","type":"Kreis"},"federalState":{"key":"01","name":"Schleswig-Holstein"}},{"name":"Dorfstr.","postalCode":"24357","locality":"Güby","municipality":{"key":"01058067","name":"Güby","type":"Kreisangehörige_Gemeinde"},"district":{"key":"01058","name":"Rendsburg-Eckernförde","type":"Kreis"},"federalState":{"key":"01","name":"Schleswig-Holstein"}},{"name":"Eckhorst","postalCode":"24357","locality":"Güby","municipality":{"key":"01058067","name":"Güby","type":"Kreisangehörige_Gemeinde"},"district":{"key":"01058","name":"Rendsburg-Eckernförde","type":"Kreis"},"federalState":{"key":"01","name":"Schleswig-Holstein"}},{"name":"Heiderader Weg","postalCode":"24357","locality":"Güby","municipality":{"key":"01058067","name":"Güby","type":"Kreisangehörige_Gemeinde"},"district":{"key":"01058","name":"Rendsburg-Eckernförde","type":"Kreis"},"federalState":{"key":"01","name":"Schleswig-Holstein"}},{"name":"Hof Louisenlund","postalCode":"24357","locality":"Güby","municipality":{"key":"01058067","name":"Güby","type":"Kreisangehörige_Gemeinde"},"district":{"key":"01058","name":"Rendsburg-Eckernförde","type":"Kreis"},"federalState":{"key":"01","name":"Schleswig-Holstein"}},{"name":"Karlshof","postalCode":"24357","locality":"Güby","municipality":{"key":"01058067","name":"Güby","type":"Kreisangehörige_Gemeinde"},"district":{"key":"01058","name":"Rendsburg-Eckernförde","type":"Kreis"},"federalState":{"key":"01","name":"Schleswig-Holstein"}},{"name":"Karlsstift","postalCode":"24357","locality":"Güby","municipality":{"key":"01058067","name":"Güby","type":"Kreisangehörige_Gemeinde"},"district":{"key":"01058","name":"Rendsburg-Eckernförde","type":"Kreis"},"federalState":{"key":"01","name":"Schleswig-Holstein"}},{"name":"Kateblöck","postalCode":"24357","locality":"Güby","municipality":{"key":"01058067","name":"Güby","type":"Kreisangehörige_Gemeinde"},"district":{"key":"01058","name":"Rendsburg-Eckernförde","type":"Kreis"},"federalState":{"key":"01","name":"Schleswig-Holstein"}},{"name":"Kreisstr.","postalCode":"24357","locality":"Güby","municipality":{"key":"01058067","name":"Güby","type":"Kreisangehörige_Gemeinde"},"district":{"key":"01058","name":"Rendsburg-Eckernförde","type":"Kreis"},"federalState":{"key":"01","name":"Schleswig-Holstein"}},{"name":"Louisenlund","postalCode":"24357","locality":"Güby","municipality":{"key":"01058067","name":"Güby","type":"Kreisangehörige_Gemeinde"},"district":{"key":"01058","name":"Rendsburg-Eckernförde","type":"Kreis"},"federalState":{"key":"01","name":"Schleswig-Holstein"}},{"name":"Louisenlunder Weg","postalCode":"24357","locality":"Güby","municipality":{"key":"01058067","name":"Güby","type":"Kreisangehörige_Gemeinde"},"district":{"key":"01058","name":"Rendsburg-Eckernförde","type":"Kreis"},"federalState":{"key":"01","name":"Schleswig-Holstein"}},{"name":"Moorweg","postalCode":"24357","locality":"Güby","municipality":{"key":"01058067","name":"Güby","type":"Kreisangehörige_Gemeinde"},"district":{"key":"01058","name":"Rendsburg-Eckernförde","type":"Kreis"},"federalState":{"key":"01","name":"Schleswig-Holstein"}},{"name":"Mühlenberg","postalCode":"24357","locality":"Güby","municipality":{"key":"01058067","name":"Güby","type":"Kreisangehörige_Gemeinde"},"district":{"key":"01058","name":"Rendsburg-Eckernförde","type":"Kreis"},"federalState":{"key":"01","name":"Schleswig-Holstein"}},{"name":"Plönort","postalCode":"24357","locality":"Güby","municipality":{"key":"01058067","name":"Güby","type":"Kreisangehörige_Gemeinde"},"district":{"key":"01058","name":"Rendsburg-Eckernförde","type":"Kreis"},"federalState":{"key":"01","name":"Schleswig-Holstein"}},{"name":"Sandkuhle","postalCode":"24357","locality":"Güby","municipality":{"key":"01058067","name":"Güby","type":"Kreisangehörige_Gemeinde"},"district":{"key":"01058","name":"Rendsburg-Eckernförde","type":"Kreis"},"federalState":{"key":"01","name":"Schleswig-Holstein"}},{"name":"Schlagtor","postalCode":"24357","locality":"Güby","municipality":{"key":"01058067","name":"Güby","type":"Kreisangehörige_Gemeinde"},"district":{"key":"01058","name":"Rendsburg-Eckernförde","type":"Kreis"},"federalState":{"key":"01","name":"Schleswig-Holstein"}},{"name":"Schulweg","postalCode":"24357","locality":"Güby","municipality":{"key":"01058067","name":"Güby","type":"Kreisangehörige_Gemeinde"},"district":{"key":"01058","name":"Rendsburg-Eckernförde","type":"Kreis"},"federalState":{"key":"01","name":"Schleswig-Holstein"}},{"name":"Wellrade","postalCode":"24357","locality":"Güby","municipality":{"key":"01058067","name":"Güby","type":"Kreisangehörige_Gemeinde"},"district":{"key":"01058","name":"Rendsburg-Eckernförde","type":"Kreis"},"federalState":{"key":"01","name":"Schleswig-Holstein"}},]