[{"name":"10. Schneise","postalCode":"35394","locality":"Gießen","municipality":{"key":"06531005","name":"Gießen, Universitätsstadt","type":"Stadt"},"district":{"key":"06531","name":"Gießen","type":"Landkreis"},"federalState":{"key":"06","name":"Hessen"}},{"name":"11. Schneise","postalCode":"35394","locality":"Gießen","municipality":{"key":"06531005","name":"Gießen, Universitätsstadt","type":"Stadt"},"district":{"key":"06531","name":"Gießen","type":"Landkreis"},"federalState":{"key":"06","name":"Hessen"}},{"name":"12. Schneise","postalCode":"35394","locality":"Gießen","municipality":{"key":"06531005","name":"Gießen, Universitätsstadt","type":"Stadt"},"district":{"key":"06531","name":"Gießen","type":"Landkreis"},"federalState":{"key":"06","name":"Hessen"}},{"name":"13. Schneise","postalCode":"35394","locality":"Gießen","municipality":{"key":"06531005","name":"Gießen, Universitätsstadt","type":"Stadt"},"district":{"key":"06531","name":"Gießen","type":"Landkreis"},"federalState":{"key":"06","name":"Hessen"}},{"name":"1. Schneise","postalCode":"35394","locality":"Gießen","municipality":{"key":"06531005","name":"Gießen, Universitätsstadt","type":"Stadt"},"district":{"key":"06531","name":"Gießen","type":"Landkreis"},"federalState":{"key":"06","name":"Hessen"}},{"name":"2. Schneise","postalCode":"35394","locality":"Gießen","municipality":{"key":"06531005","name":"Gießen, Universitätsstadt","type":"Stadt"},"district":{"key":"06531","name":"Gießen","type":"Landkreis"},"federalState":{"key":"06","name":"Hessen"}},{"name":"3. Schneise","postalCode":"35394","locality":"Gießen","municipality":{"key":"06531005","name":"Gießen, Universitätsstadt","type":"Stadt"},"district":{"key":"06531","name":"Gießen","type":"Landkreis"},"federalState":{"key":"06","name":"Hessen"}},{"name":"4. Schneise","postalCode":"35394","locality":"Gießen","municipality":{"key":"06531005","name":"Gießen, Universitätsstadt","type":"Stadt"},"district":{"key":"06531","name":"Gießen","type":"Landkreis"},"federalState":{"key":"06","name":"Hessen"}},{"name":"5. Schneise","postalCode":"35394","locality":"Gießen","municipality":{"key":"06531005","name":"Gießen, Universitätsstadt","type":"Stadt"},"district":{"key":"06531","name":"Gießen","type":"Landkreis"},"federalState":{"key":"06","name":"Hessen"}},{"name":"6. Schneise","postalCode":"35394","locality":"Gießen","municipality":{"key":"06531005","name":"Gießen, Universitätsstadt","type":"Stadt"},"district":{"key":"06531","name":"Gießen","type":"Landkreis"},"federalState":{"key":"06","name":"Hessen"}},{"name":"7. Schneise","postalCode":"35394","locality":"Gießen","municipality":{"key":"06531005","name":"Gießen, Universitätsstadt","type":"Stadt"},"district":{"key":"06531","name":"Gießen","type":"Landkreis"},"federalState":{"key":"06","name":"Hessen"}},{"name":"8. Schneise","postalCode":"35394","locality":"Gießen","municipality":{"key":"06531005","name":"Gießen, Universitätsstadt","type":"Stadt"},"district":{"key":"06531","name":"Gießen","type":"Landkreis"},"federalState":{"key":"06","name":"Hessen"}},{"name":"9. Schneise","postalCode":"35394","locality":"Gießen","municipality":{"key":"06531005","name":"Gießen, Universitätsstadt","type":"Stadt"},"district":{"key":"06531","name":"Gießen","type":"Landkreis"},"federalState":{"key":"06","name":"Hessen"}},{"name":"Albacher Weg","postalCode":"35463","locality":"Fernwald","municipality":{"key":"06531004","name":"Fernwald","type":"Kreisangehörige_Gemeinde"},"district":{"key":"06531","name":"Gießen","type":"Landkreis"},"federalState":{"key":"06","name":"Hessen"}},{"name":"Alte Gießener Str.","postalCode":"35463","locality":"Fernwald","municipality":{"key":"06531004","name":"Fernwald","type":"Kreisangehörige_Gemeinde"},"district":{"key":"06531","name":"Gießen","type":"Landkreis"},"federalState":{"key":"06","name":"Hessen"}},{"name":"Alter Licher Weg","postalCode":"35463","locality":"Fernwald","municipality":{"key":"06531004","name":"Fernwald","type":"Kreisangehörige_Gemeinde"},"district":{"key":"06531","name":"Gießen","type":"Landkreis"},"federalState":{"key":"06","name":"Hessen"}},{"name":"Altes Feld","postalCode":"35463","locality":"Fernwald","municipality":{"key":"06531004","name":"Fernwald","type":"Kreisangehörige_Gemeinde"},"district":{"key":"06531","name":"Gießen","type":"Landkreis"},"federalState":{"key":"06","name":"Hessen"}},{"name":"Am Forsthaus","postalCode":"35463","locality":"Fernwald","municipality":{"key":"06531004","name":"Fernwald","type":"Kreisangehörige_Gemeinde"},"district":{"key":"06531","name":"Gießen","type":"Landkreis"},"federalState":{"key":"06","name":"Hessen"}},{"name":"Am Hellerrain","postalCode":"35463","locality":"Fernwald","municipality":{"key":"06531004","name":"Fernwald","type":"Kreisangehörige_Gemeinde"},"district":{"key":"06531","name":"Gießen","type":"Landkreis"},"federalState":{"key":"06","name":"Hessen"}},{"name":"Am Kirschenberg","postalCode":"35463","locality":"Fernwald","municipality":{"key":"06531004","name":"Fernwald","type":"Kreisangehörige_Gemeinde"},"district":{"key":"06531","name":"Gießen","type":"Landkreis"},"federalState":{"key":"06","name":"Hessen"}},{"name":"Am Lindenberg","postalCode":"35463","locality":"Fernwald","municipality":{"key":"06531004","name":"Fernwald","type":"Kreisangehörige_Gemeinde"},"district":{"key":"06531","name":"Gießen","type":"Landkreis"},"federalState":{"key":"06","name":"Hessen"}},{"name":"Am Lutherberg","postalCode":"35463","locality":"Fernwald","municipality":{"key":"06531004","name":"Fernwald","type":"Kreisangehörige_Gemeinde"},"district":{"key":"06531","name":"Gießen","type":"Landkreis"},"federalState":{"key":"06","name":"Hessen"}},{"name":"Am Rosenberg","postalCode":"35463","locality":"Fernwald","municipality":{"key":"06531004","name":"Fernwald","type":"Kreisangehörige_Gemeinde"},"district":{"key":"06531","name":"Gießen","type":"Landkreis"},"federalState":{"key":"06","name":"Hessen"}},{"name":"Am Weiher","postalCode":"35463","locality":"Fernwald","municipality":{"key":"06531004","name":"Fernwald","type":"Kreisangehörige_Gemeinde"},"district":{"key":"06531","name":"Gießen","type":"Landkreis"},"federalState":{"key":"06","name":"Hessen"}},{"name":"Am Weingarten","postalCode":"35463","locality":"Fernwald","municipality":{"key":"06531004","name":"Fernwald","type":"Kreisangehörige_Gemeinde"},"district":{"key":"06531","name":"Gießen","type":"Landkreis"},"federalState":{"key":"06","name":"Hessen"}},{"name":"An der Kirche","postalCode":"35463","locality":"Fernwald","municipality":{"key":"06531004","name":"Fernwald","type":"Kreisangehörige_Gemeinde"},"district":{"key":"06531","name":"Gießen","type":"Landkreis"},"federalState":{"key":"06","name":"Hessen"}},{"name":"Anneröder Str.","postalCode":"35463","locality":"Fernwald","municipality":{"key":"06531004","name":"Fernwald","type":"Kreisangehörige_Gemeinde"},"district":{"key":"06531","name":"Gießen","type":"Landkreis"},"federalState":{"key":"06","name":"Hessen"}},{"name":"Asternweg","postalCode":"35463","locality":"Fernwald","municipality":{"key":"06531004","name":"Fernwald","type":"Kreisangehörige_Gemeinde"},"district":{"key":"06531","name":"Gießen","type":"Landkreis"},"federalState":{"key":"06","name":"Hessen"}},{"name":"Auf der Platte","postalCode":"35463","locality":"Fernwald","municipality":{"key":"06531004","name":"Fernwald","type":"Kreisangehörige_Gemeinde"},"district":{"key":"06531","name":"Gießen","type":"Landkreis"},"federalState":{"key":"06","name":"Hessen"}},{"name":"Auf der Weide","postalCode":"35463","locality":"Fernwald","municipality":{"key":"06531004","name":"Fernwald","type":"Kreisangehörige_Gemeinde"},"district":{"key":"06531","name":"Gießen","type":"Landkreis"},"federalState":{"key":"06","name":"Hessen"}},{"name":"Außenliegend","postalCode":"35463","locality":"Fernwald","municipality":{"key":"06531004","name":"Fernwald","type":"Kreisangehörige_Gemeinde"},"district":{"key":"06531","name":"Gießen","type":"Landkreis"},"federalState":{"key":"06","name":"Hessen"}},{"name":"Behringstr.","postalCode":"35463","locality":"Fernwald","municipality":{"key":"06531004","name":"Fernwald","type":"Kreisangehörige_Gemeinde"},"district":{"key":"06531","name":"Gießen","type":"Landkreis"},"federalState":{"key":"06","name":"Hessen"}},{"name":"Bergstr.","postalCode":"35463","locality":"Fernwald","municipality":{"key":"06531004","name":"Fernwald","type":"Kreisangehörige_Gemeinde"},"district":{"key":"06531","name":"Gießen","type":"Landkreis"},"federalState":{"key":"06","name":"Hessen"}},{"name":"Blumenstr.","postalCode":"35463","locality":"Fernwald","municipality":{"key":"06531004","name":"Fernwald","type":"Kreisangehörige_Gemeinde"},"district":{"key":"06531","name":"Gießen","type":"Landkreis"},"federalState":{"key":"06","name":"Hessen"}},{"name":"Borngasse","postalCode":"35463","locality":"Fernwald","municipality":{"key":"06531004","name":"Fernwald","type":"Kreisangehörige_Gemeinde"},"district":{"key":"06531","name":"Gießen","type":"Landkreis"},"federalState":{"key":"06","name":"Hessen"}},{"name":"Canonstr.","postalCode":"35394","locality":"Gießen","municipality":{"key":"06531005","name":"Gießen, Universitätsstadt","type":"Stadt"},"district":{"key":"06531","name":"Gießen","type":"Landkreis"},"federalState":{"key":"06","name":"Hessen"}},{"name":"Carl-Franz-Str.","postalCode":"35392","locality":"Gießen","municipality":{"key":"06531005","name":"Gießen, Universitätsstadt","type":"Stadt"},"district":{"key":"06531","name":"Gießen","type":"Landkreis"},"federalState":{"key":"06","name":"Hessen"}},{"name":"Carl-Maria-von-Weber-Str.","postalCode":"35392","locality":"Gießen","municipality":{"key":"06531005","name":"Gießen, Universitätsstadt","type":"Stadt"},"district":{"key":"06531","name":"Gießen","type":"Landkreis"},"federalState":{"key":"06","name":"Hessen"}},{"name":"Carlo-Mierendorff-Str.","postalCode":"35398","locality":"Gießen","municipality":{"key":"06531005","name":"Gießen, Universitätsstadt","type":"Stadt"},"district":{"key":"06531","name":"Gießen","type":"Landkreis"},"federalState":{"key":"06","name":"Hessen"}},{"name":"Carl-Ulrich-Str.","postalCode":"35396","locality":"Gießen","municipality":{"key":"06531005","name":"Gießen, Universitätsstadt","type":"Stadt"},"district":{"key":"06531","name":"Gießen","type":"Landkreis"},"federalState":{"key":"06","name":"Hessen"}},{"name":"Carl-Vogt-Str.","postalCode":"35394","locality":"Gießen","municipality":{"key":"06531005","name":"Gießen, Universitätsstadt","type":"Stadt"},"district":{"key":"06531","name":"Gießen","type":"Landkreis"},"federalState":{"key":"06","name":"Hessen"}},{"name":"Chamissoweg","postalCode":"35396","locality":"Gießen","municipality":{"key":"06531005","name":"Gießen, Universitätsstadt","type":"Stadt"},"district":{"key":"06531","name":"Gießen","type":"Landkreis"},"federalState":{"key":"06","name":"Hessen"}},{"name":"Christian-Rinck-Str.","postalCode":"35392","locality":"Gießen","municipality":{"key":"06531005","name":"Gießen, Universitätsstadt","type":"Stadt"},"district":{"key":"06531","name":"Gießen","type":"Landkreis"},"federalState":{"key":"06","name":"Hessen"}},{"name":"Clementiastr.","postalCode":"35398","locality":"Gießen","municipality":{"key":"06531005","name":"Gießen, Universitätsstadt","type":"Stadt"},"district":{"key":"06531","name":"Gießen","type":"Landkreis"},"federalState":{"key":"06","name":"Hessen"}},{"name":"Clevelandstr.","postalCode":"35394","locality":"Gießen","municipality":{"key":"06531005","name":"Gießen, Universitätsstadt","type":"Stadt"},"district":{"key":"06531","name":"Gießen","type":"Landkreis"},"federalState":{"key":"06","name":"Hessen"}},{"name":"Colemanstr.","postalCode":"35394","locality":"Gießen","municipality":{"key":"06531005","name":"Gießen, Universitätsstadt","type":"Stadt"},"district":{"key":"06531","name":"Gießen","type":"Landkreis"},"federalState":{"key":"06","name":"Hessen"}},{"name":"Cranachstr.","postalCode":"35396","locality":"Gießen","municipality":{"key":"06531005","name":"Gießen, Universitätsstadt","type":"Stadt"},"district":{"key":"06531","name":"Gießen","type":"Landkreis"},"federalState":{"key":"06","name":"Hessen"}},{"name":"Crednerstr.","postalCode":"35392","locality":"Gießen","municipality":{"key":"06531005","name":"Gießen, Universitätsstadt","type":"Stadt"},"district":{"key":"06531","name":"Gießen","type":"Landkreis"},"federalState":{"key":"06","name":"Hessen"}},{"name":"Curtmannstr.","postalCode":"35394","locality":"Gießen","municipality":{"key":"06531005","name":"Gießen, Universitätsstadt","type":"Stadt"},"district":{"key":"06531","name":"Gießen","type":"Landkreis"},"federalState":{"key":"06","name":"Hessen"}},{"name":"Dahlienweg","postalCode":"35463","locality":"Fernwald","municipality":{"key":"06531004","name":"Fernwald","type":"Kreisangehörige_Gemeinde"},"district":{"key":"06531","name":"Gießen","type":"Landkreis"},"federalState":{"key":"06","name":"Hessen"}},{"name":"Dresdener Str.","postalCode":"35463","locality":"Fernwald","municipality":{"key":"06531004","name":"Fernwald","type":"Kreisangehörige_Gemeinde"},"district":{"key":"06531","name":"Gießen","type":"Landkreis"},"federalState":{"key":"06","name":"Hessen"}},{"name":"Eichenweg","postalCode":"35463","locality":"Fernwald","municipality":{"key":"06531004","name":"Fernwald","type":"Kreisangehörige_Gemeinde"},"district":{"key":"06531","name":"Gießen","type":"Landkreis"},"federalState":{"key":"06","name":"Hessen"}},{"name":"Eisenacher Str.","postalCode":"35463","locality":"Fernwald","municipality":{"key":"06531004","name":"Fernwald","type":"Kreisangehörige_Gemeinde"},"district":{"key":"06531","name":"Gießen","type":"Landkreis"},"federalState":{"key":"06","name":"Hessen"}},{"name":"Embachweg","postalCode":"35463","locality":"Fernwald","municipality":{"key":"06531004","name":"Fernwald","type":"Kreisangehörige_Gemeinde"},"district":{"key":"06531","name":"Gießen","type":"Landkreis"},"federalState":{"key":"06","name":"Hessen"}},{"name":"Erfurter Str.","postalCode":"35463","locality":"Fernwald","municipality":{"key":"06531004","name":"Fernwald","type":"Kreisangehörige_Gemeinde"},"district":{"key":"06531","name":"Gießen","type":"Landkreis"},"federalState":{"key":"06","name":"Hessen"}},{"name":"Erlenstr.","postalCode":"35463","locality":"Fernwald","municipality":{"key":"06531004","name":"Fernwald","type":"Kreisangehörige_Gemeinde"},"district":{"key":"06531","name":"Gießen","type":"Landkreis"},"federalState":{"key":"06","name":"Hessen"}},{"name":"Ernst-Ludwig-Str.","postalCode":"35463","locality":"Fernwald","municipality":{"key":"06531004","name":"Fernwald","type":"Kreisangehörige_Gemeinde"},"district":{"key":"06531","name":"Gießen","type":"Landkreis"},"federalState":{"key":"06","name":"Hessen"}},{"name":"Eselsweg","postalCode":"35463","locality":"Fernwald","municipality":{"key":"06531004","name":"Fernwald","type":"Kreisangehörige_Gemeinde"},"district":{"key":"06531","name":"Gießen","type":"Landkreis"},"federalState":{"key":"06","name":"Hessen"}},{"name":"Fliederweg","postalCode":"35463","locality":"Fernwald","municipality":{"key":"06531004","name":"Fernwald","type":"Kreisangehörige_Gemeinde"},"district":{"key":"06531","name":"Gießen","type":"Landkreis"},"federalState":{"key":"06","name":"Hessen"}},{"name":"Fortweg","postalCode":"35463","locality":"Fernwald","municipality":{"key":"06531004","name":"Fernwald","type":"Kreisangehörige_Gemeinde"},"district":{"key":"06531","name":"Gießen","type":"Landkreis"},"federalState":{"key":"06","name":"Hessen"}},{"name":"Garbenteicher Weg","postalCode":"35463","locality":"Fernwald","municipality":{"key":"06531004","name":"Fernwald","type":"Kreisangehörige_Gemeinde"},"district":{"key":"06531","name":"Gießen","type":"Landkreis"},"federalState":{"key":"06","name":"Hessen"}},{"name":"Gartenstr.","postalCode":"35463","locality":"Fernwald","municipality":{"key":"06531004","name":"Fernwald","type":"Kreisangehörige_Gemeinde"},"district":{"key":"06531","name":"Gießen","type":"Landkreis"},"federalState":{"key":"06","name":"Hessen"}},{"name":"Geranienweg","postalCode":"35463","locality":"Fernwald","municipality":{"key":"06531004","name":"Fernwald","type":"Kreisangehörige_Gemeinde"},"district":{"key":"06531","name":"Gießen","type":"Landkreis"},"federalState":{"key":"06","name":"Hessen"}},{"name":"Gießener Str.","postalCode":"35463","locality":"Fernwald","municipality":{"key":"06531004","name":"Fernwald","type":"Kreisangehörige_Gemeinde"},"district":{"key":"06531","name":"Gießen","type":"Landkreis"},"federalState":{"key":"06","name":"Hessen"}},{"name":"Goethestr.","postalCode":"35463","locality":"Fernwald","municipality":{"key":"06531004","name":"Fernwald","type":"Kreisangehörige_Gemeinde"},"district":{"key":"06531","name":"Gießen","type":"Landkreis"},"federalState":{"key":"06","name":"Hessen"}},{"name":"Gottlieb-Daimler-Str.","postalCode":"35463","locality":"Fernwald","municipality":{"key":"06531004","name":"Fernwald","type":"Kreisangehörige_Gemeinde"},"district":{"key":"06531","name":"Gießen","type":"Landkreis"},"federalState":{"key":"06","name":"Hessen"}},{"name":"Grabenstr.","postalCode":"35463","locality":"Fernwald","municipality":{"key":"06531004","name":"Fernwald","type":"Kreisangehörige_Gemeinde"},"district":{"key":"06531","name":"Gießen","type":"Landkreis"},"federalState":{"key":"06","name":"Hessen"}},{"name":"Grasweg","postalCode":"35463","locality":"Fernwald","municipality":{"key":"06531004","name":"Fernwald","type":"Kreisangehörige_Gemeinde"},"district":{"key":"06531","name":"Gießen","type":"Landkreis"},"federalState":{"key":"06","name":"Hessen"}},{"name":"Graudornstr.","postalCode":"35463","locality":"Fernwald","municipality":{"key":"06531004","name":"Fernwald","type":"Kreisangehörige_Gemeinde"},"district":{"key":"06531","name":"Gießen","type":"Landkreis"},"federalState":{"key":"06","name":"Hessen"}},{"name":"Großen-Busecker Str.","postalCode":"35463","locality":"Fernwald","municipality":{"key":"06531004","name":"Fernwald","type":"Kreisangehörige_Gemeinde"},"district":{"key":"06531","name":"Gießen","type":"Landkreis"},"federalState":{"key":"06","name":"Hessen"}},{"name":"Großgasse","postalCode":"35463","locality":"Fernwald","municipality":{"key":"06531004","name":"Fernwald","type":"Kreisangehörige_Gemeinde"},"district":{"key":"06531","name":"Gießen","type":"Landkreis"},"federalState":{"key":"06","name":"Hessen"}},{"name":"Grünberger Str.","postalCode":"35463","locality":"Fernwald","municipality":{"key":"06531004","name":"Fernwald","type":"Kreisangehörige_Gemeinde"},"district":{"key":"06531","name":"Gießen","type":"Landkreis"},"federalState":{"key":"06","name":"Hessen"}},{"name":"Gutenbergring","postalCode":"35463","locality":"Fernwald","municipality":{"key":"06531004","name":"Fernwald","type":"Kreisangehörige_Gemeinde"},"district":{"key":"06531","name":"Gießen","type":"Landkreis"},"federalState":{"key":"06","name":"Hessen"}},{"name":"Hattenröder Weg","postalCode":"35463","locality":"Fernwald","municipality":{"key":"06531004","name":"Fernwald","type":"Kreisangehörige_Gemeinde"},"district":{"key":"06531","name":"Gießen","type":"Landkreis"},"federalState":{"key":"06","name":"Hessen"}},{"name":"Hauptstr.","postalCode":"35463","locality":"Fernwald","municipality":{"key":"06531004","name":"Fernwald","type":"Kreisangehörige_Gemeinde"},"district":{"key":"06531","name":"Gießen","type":"Landkreis"},"federalState":{"key":"06","name":"Hessen"}},{"name":"Hausener Str.","postalCode":"35463","locality":"Fernwald","municipality":{"key":"06531004","name":"Fernwald","type":"Kreisangehörige_Gemeinde"},"district":{"key":"06531","name":"Gießen","type":"Landkreis"},"federalState":{"key":"06","name":"Hessen"}},{"name":"Häuser Weg","postalCode":"35463","locality":"Fernwald","municipality":{"key":"06531004","name":"Fernwald","type":"Kreisangehörige_Gemeinde"},"district":{"key":"06531","name":"Gießen","type":"Landkreis"},"federalState":{"key":"06","name":"Hessen"}},{"name":"Hegstrauch","postalCode":"35463","locality":"Fernwald","municipality":{"key":"06531004","name":"Fernwald","type":"Kreisangehörige_Gemeinde"},"district":{"key":"06531","name":"Gießen","type":"Landkreis"},"federalState":{"key":"06","name":"Hessen"}},{"name":"Helgenwald","postalCode":"35463","locality":"Fernwald","municipality":{"key":"06531004","name":"Fernwald","type":"Kreisangehörige_Gemeinde"},"district":{"key":"06531","name":"Gießen","type":"Landkreis"},"federalState":{"key":"06","name":"Hessen"}},{"name":"Hellenweg","postalCode":"35463","locality":"Fernwald","municipality":{"key":"06531004","name":"Fernwald","type":"Kreisangehörige_Gemeinde"},"district":{"key":"06531","name":"Gießen","type":"Landkreis"},"federalState":{"key":"06","name":"Hessen"}},{"name":"Hinter der Platte","postalCode":"35463","locality":"Fernwald","municipality":{"key":"06531004","name":"Fernwald","type":"Kreisangehörige_Gemeinde"},"district":{"key":"06531","name":"Gießen","type":"Landkreis"},"federalState":{"key":"06","name":"Hessen"}},{"name":"Im Senser","postalCode":"35463","locality":"Fernwald","municipality":{"key":"06531004","name":"Fernwald","type":"Kreisangehörige_Gemeinde"},"district":{"key":"06531","name":"Gießen","type":"Landkreis"},"federalState":{"key":"06","name":"Hessen"}},{"name":"Im Wiesgarten","postalCode":"35463","locality":"Fernwald","municipality":{"key":"06531004","name":"Fernwald","type":"Kreisangehörige_Gemeinde"},"district":{"key":"06531","name":"Gießen","type":"Landkreis"},"federalState":{"key":"06","name":"Hessen"}},{"name":"Industriestr.","postalCode":"35463","locality":"Fernwald","municipality":{"key":"06531004","name":"Fernwald","type":"Kreisangehörige_Gemeinde"},"district":{"key":"06531","name":"Gießen","type":"Landkreis"},"federalState":{"key":"06","name":"Hessen"}},{"name":"Jahnstr.","postalCode":"35463","locality":"Fernwald","municipality":{"key":"06531004","name":"Fernwald","type":"Kreisangehörige_Gemeinde"},"district":{"key":"06531","name":"Gießen","type":"Landkreis"},"federalState":{"key":"06","name":"Hessen"}},{"name":"Kesselweg","postalCode":"35463","locality":"Fernwald","municipality":{"key":"06531004","name":"Fernwald","type":"Kreisangehörige_Gemeinde"},"district":{"key":"06531","name":"Gießen","type":"Landkreis"},"federalState":{"key":"06","name":"Hessen"}},{"name":"Kirchstr.","postalCode":"35463","locality":"Fernwald","municipality":{"key":"06531004","name":"Fernwald","type":"Kreisangehörige_Gemeinde"},"district":{"key":"06531","name":"Gießen","type":"Landkreis"},"federalState":{"key":"06","name":"Hessen"}},{"name":"Klosterweg","postalCode":"35463","locality":"Fernwald","municipality":{"key":"06531004","name":"Fernwald","type":"Kreisangehörige_Gemeinde"},"district":{"key":"06531","name":"Gießen","type":"Landkreis"},"federalState":{"key":"06","name":"Hessen"}},{"name":"Kreuzholz","postalCode":"35463","locality":"Fernwald","municipality":{"key":"06531004","name":"Fernwald","type":"Kreisangehörige_Gemeinde"},"district":{"key":"06531","name":"Gießen","type":"Landkreis"},"federalState":{"key":"06","name":"Hessen"}},{"name":"Lahnstr.","postalCode":"35463","locality":"Fernwald","municipality":{"key":"06531004","name":"Fernwald","type":"Kreisangehörige_Gemeinde"},"district":{"key":"06531","name":"Gießen","type":"Landkreis"},"federalState":{"key":"06","name":"Hessen"}},{"name":"Leipziger Str.","postalCode":"35463","locality":"Fernwald","municipality":{"key":"06531004","name":"Fernwald","type":"Kreisangehörige_Gemeinde"},"district":{"key":"06531","name":"Gießen","type":"Landkreis"},"federalState":{"key":"06","name":"Hessen"}},{"name":"Licher Str.","postalCode":"35463","locality":"Fernwald","municipality":{"key":"06531004","name":"Fernwald","type":"Kreisangehörige_Gemeinde"},"district":{"key":"06531","name":"Gießen","type":"Landkreis"},"federalState":{"key":"06","name":"Hessen"}},{"name":"Liebigstr.","postalCode":"35463","locality":"Fernwald","municipality":{"key":"06531004","name":"Fernwald","type":"Kreisangehörige_Gemeinde"},"district":{"key":"06531","name":"Gießen","type":"Landkreis"},"federalState":{"key":"06","name":"Hessen"}},{"name":"Lilienweg","postalCode":"35463","locality":"Fernwald","municipality":{"key":"06531004","name":"Fernwald","type":"Kreisangehörige_Gemeinde"},"district":{"key":"06531","name":"Gießen","type":"Landkreis"},"federalState":{"key":"06","name":"Hessen"}},{"name":"Lindenstr.","postalCode":"35463","locality":"Fernwald","municipality":{"key":"06531004","name":"Fernwald","type":"Kreisangehörige_Gemeinde"},"district":{"key":"06531","name":"Gießen","type":"Landkreis"},"federalState":{"key":"06","name":"Hessen"}},{"name":"Mailbacher Str.","postalCode":"35463","locality":"Fernwald","municipality":{"key":"06531004","name":"Fernwald","type":"Kreisangehörige_Gemeinde"},"district":{"key":"06531","name":"Gießen","type":"Landkreis"},"federalState":{"key":"06","name":"Hessen"}},{"name":"Mozartstr.","postalCode":"35463","locality":"Fernwald","municipality":{"key":"06531004","name":"Fernwald","type":"Kreisangehörige_Gemeinde"},"district":{"key":"06531","name":"Gießen","type":"Landkreis"},"federalState":{"key":"06","name":"Hessen"}},{"name":"Narzissenweg","postalCode":"35463","locality":"Fernwald","municipality":{"key":"06531004","name":"Fernwald","type":"Kreisangehörige_Gemeinde"},"district":{"key":"06531","name":"Gießen","type":"Landkreis"},"federalState":{"key":"06","name":"Hessen"}},{"name":"Nelkenweg","postalCode":"35463","locality":"Fernwald","municipality":{"key":"06531004","name":"Fernwald","type":"Kreisangehörige_Gemeinde"},"district":{"key":"06531","name":"Gießen","type":"Landkreis"},"federalState":{"key":"06","name":"Hessen"}},{"name":"Neuer Weg","postalCode":"35463","locality":"Fernwald","municipality":{"key":"06531004","name":"Fernwald","type":"Kreisangehörige_Gemeinde"},"district":{"key":"06531","name":"Gießen","type":"Landkreis"},"federalState":{"key":"06","name":"Hessen"}},{"name":"Oppenröder Str.","postalCode":"35463","locality":"Fernwald","municipality":{"key":"06531004","name":"Fernwald","type":"Kreisangehörige_Gemeinde"},"district":{"key":"06531","name":"Gießen","type":"Landkreis"},"federalState":{"key":"06","name":"Hessen"}},{"name":"Ouderkerkplatz","postalCode":"35463","locality":"Fernwald","municipality":{"key":"06531004","name":"Fernwald","type":"Kreisangehörige_Gemeinde"},"district":{"key":"06531","name":"Gießen","type":"Landkreis"},"federalState":{"key":"06","name":"Hessen"}},{"name":"Pfarrweg","postalCode":"35463","locality":"Fernwald","municipality":{"key":"06531004","name":"Fernwald","type":"Kreisangehörige_Gemeinde"},"district":{"key":"06531","name":"Gießen","type":"Landkreis"},"federalState":{"key":"06","name":"Hessen"}},{"name":"Platz der Deutschen Einheit","postalCode":"35463","locality":"Fernwald","municipality":{"key":"06531004","name":"Fernwald","type":"Kreisangehörige_Gemeinde"},"district":{"key":"06531","name":"Gießen","type":"Landkreis"},"federalState":{"key":"06","name":"Hessen"}},{"name":"Rathausplatz","postalCode":"35463","locality":"Fernwald","municipality":{"key":"06531004","name":"Fernwald","type":"Kreisangehörige_Gemeinde"},"district":{"key":"06531","name":"Gießen","type":"Landkreis"},"federalState":{"key":"06","name":"Hessen"}},{"name":"Reutergasse","postalCode":"35463","locality":"Fernwald","municipality":{"key":"06531004","name":"Fernwald","type":"Kreisangehörige_Gemeinde"},"district":{"key":"06531","name":"Gießen","type":"Landkreis"},"federalState":{"key":"06","name":"Hessen"}},{"name":"Robert-Bosch-Ring","postalCode":"35463","locality":"Fernwald","municipality":{"key":"06531004","name":"Fernwald","type":"Kreisangehörige_Gemeinde"},"district":{"key":"06531","name":"Gießen","type":"Landkreis"},"federalState":{"key":"06","name":"Hessen"}},{"name":"Robert-Koch-Str.","postalCode":"35463","locality":"Fernwald","municipality":{"key":"06531004","name":"Fernwald","type":"Kreisangehörige_Gemeinde"},"district":{"key":"06531","name":"Gießen","type":"Landkreis"},"federalState":{"key":"06","name":"Hessen"}},{"name":"Rödgener Str.","postalCode":"35463","locality":"Fernwald","municipality":{"key":"06531004","name":"Fernwald","type":"Kreisangehörige_Gemeinde"},"district":{"key":"06531","name":"Gießen","type":"Landkreis"},"federalState":{"key":"06","name":"Hessen"}},{"name":"Röntgenstr.","postalCode":"35463","locality":"Fernwald","municipality":{"key":"06531004","name":"Fernwald","type":"Kreisangehörige_Gemeinde"},"district":{"key":"06531","name":"Gießen","type":"Landkreis"},"federalState":{"key":"06","name":"Hessen"}},{"name":"Rudolf-Diesel-Str.","postalCode":"35463","locality":"Fernwald","municipality":{"key":"06531004","name":"Fernwald","type":"Kreisangehörige_Gemeinde"},"district":{"key":"06531","name":"Gießen","type":"Landkreis"},"federalState":{"key":"06","name":"Hessen"}},{"name":"Ruhberg","postalCode":"35463","locality":"Fernwald","municipality":{"key":"06531004","name":"Fernwald","type":"Kreisangehörige_Gemeinde"},"district":{"key":"06531","name":"Gießen","type":"Landkreis"},"federalState":{"key":"06","name":"Hessen"}},{"name":"Scheppäcker","postalCode":"35463","locality":"Fernwald","municipality":{"key":"06531004","name":"Fernwald","type":"Kreisangehörige_Gemeinde"},"district":{"key":"06531","name":"Gießen","type":"Landkreis"},"federalState":{"key":"06","name":"Hessen"}},{"name":"Schillerstr.","postalCode":"35463","locality":"Fernwald","municipality":{"key":"06531004","name":"Fernwald","type":"Kreisangehörige_Gemeinde"},"district":{"key":"06531","name":"Gießen","type":"Landkreis"},"federalState":{"key":"06","name":"Hessen"}},{"name":"Schubertstr.","postalCode":"35463","locality":"Fernwald","municipality":{"key":"06531004","name":"Fernwald","type":"Kreisangehörige_Gemeinde"},"district":{"key":"06531","name":"Gießen","type":"Landkreis"},"federalState":{"key":"06","name":"Hessen"}},{"name":"Schulstr.","postalCode":"35463","locality":"Fernwald","municipality":{"key":"06531004","name":"Fernwald","type":"Kreisangehörige_Gemeinde"},"district":{"key":"06531","name":"Gießen","type":"Landkreis"},"federalState":{"key":"06","name":"Hessen"}},{"name":"Schwarzer Brand","postalCode":"35463","locality":"Fernwald","municipality":{"key":"06531004","name":"Fernwald","type":"Kreisangehörige_Gemeinde"},"district":{"key":"06531","name":"Gießen","type":"Landkreis"},"federalState":{"key":"06","name":"Hessen"}},{"name":"Siemensstr.","postalCode":"35463","locality":"Fernwald","municipality":{"key":"06531004","name":"Fernwald","type":"Kreisangehörige_Gemeinde"},"district":{"key":"06531","name":"Gießen","type":"Landkreis"},"federalState":{"key":"06","name":"Hessen"}},{"name":"Sonnenstr.","postalCode":"35463","locality":"Fernwald","municipality":{"key":"06531004","name":"Fernwald","type":"Kreisangehörige_Gemeinde"},"district":{"key":"06531","name":"Gießen","type":"Landkreis"},"federalState":{"key":"06","name":"Hessen"}},{"name":"Steinbacher Gärten","postalCode":"35463","locality":"Fernwald","municipality":{"key":"06531004","name":"Fernwald","type":"Kreisangehörige_Gemeinde"},"district":{"key":"06531","name":"Gießen","type":"Landkreis"},"federalState":{"key":"06","name":"Hessen"}},{"name":"Steinbacher Str.","postalCode":"35463","locality":"Fernwald","municipality":{"key":"06531004","name":"Fernwald","type":"Kreisangehörige_Gemeinde"},"district":{"key":"06531","name":"Gießen","type":"Landkreis"},"federalState":{"key":"06","name":"Hessen"}},{"name":"Steinstr.","postalCode":"35463","locality":"Fernwald","municipality":{"key":"06531004","name":"Fernwald","type":"Kreisangehörige_Gemeinde"},"district":{"key":"06531","name":"Gießen","type":"Landkreis"},"federalState":{"key":"06","name":"Hessen"}},{"name":"Sudetenstr.","postalCode":"35463","locality":"Fernwald","municipality":{"key":"06531004","name":"Fernwald","type":"Kreisangehörige_Gemeinde"},"district":{"key":"06531","name":"Gießen","type":"Landkreis"},"federalState":{"key":"06","name":"Hessen"}},{"name":"Südhang","postalCode":"35463","locality":"Fernwald","municipality":{"key":"06531004","name":"Fernwald","type":"Kreisangehörige_Gemeinde"},"district":{"key":"06531","name":"Gießen","type":"Landkreis"},"federalState":{"key":"06","name":"Hessen"}},{"name":"Tiefenweg","postalCode":"35463","locality":"Fernwald","municipality":{"key":"06531004","name":"Fernwald","type":"Kreisangehörige_Gemeinde"},"district":{"key":"06531","name":"Gießen","type":"Landkreis"},"federalState":{"key":"06","name":"Hessen"}},{"name":"Tulpenweg","postalCode":"35463","locality":"Fernwald","municipality":{"key":"06531004","name":"Fernwald","type":"Kreisangehörige_Gemeinde"},"district":{"key":"06531","name":"Gießen","type":"Landkreis"},"federalState":{"key":"06","name":"Hessen"}},{"name":"Untergasse","postalCode":"35463","locality":"Fernwald","municipality":{"key":"06531004","name":"Fernwald","type":"Kreisangehörige_Gemeinde"},"district":{"key":"06531","name":"Gießen","type":"Landkreis"},"federalState":{"key":"06","name":"Hessen"}},{"name":"Versailler Str.","postalCode":"35394","locality":"Gießen","municipality":{"key":"06531005","name":"Gießen, Universitätsstadt","type":"Stadt"},"district":{"key":"06531","name":"Gießen","type":"Landkreis"},"federalState":{"key":"06","name":"Hessen"}},{"name":"Vetzberger Weg","postalCode":"35398","locality":"Gießen","municipality":{"key":"06531005","name":"Gießen, Universitätsstadt","type":"Stadt"},"district":{"key":"06531","name":"Gießen","type":"Landkreis"},"federalState":{"key":"06","name":"Hessen"}},{"name":"Vetzbergring","postalCode":"35396","locality":"Gießen","municipality":{"key":"06531005","name":"Gießen, Universitätsstadt","type":"Stadt"},"district":{"key":"06531","name":"Gießen","type":"Landkreis"},"federalState":{"key":"06","name":"Hessen"}},{"name":"Vixröder Str.","postalCode":"35396","locality":"Gießen","municipality":{"key":"06531005","name":"Gießen, Universitätsstadt","type":"Stadt"},"district":{"key":"06531","name":"Gießen","type":"Landkreis"},"federalState":{"key":"06","name":"Hessen"}},{"name":"Vogelsang","postalCode":"35398","locality":"Gießen","municipality":{"key":"06531005","name":"Gießen, Universitätsstadt","type":"Stadt"},"district":{"key":"06531","name":"Gießen","type":"Landkreis"},"federalState":{"key":"06","name":"Hessen"}},{"name":"Vor dem Hegwald","postalCode":"35394","locality":"Gießen","municipality":{"key":"06531005","name":"Gießen, Universitätsstadt","type":"Stadt"},"district":{"key":"06531","name":"Gießen","type":"Landkreis"},"federalState":{"key":"06","name":"Hessen"}},{"name":"Waldstr.","postalCode":"35463","locality":"Fernwald","municipality":{"key":"06531004","name":"Fernwald","type":"Kreisangehörige_Gemeinde"},"district":{"key":"06531","name":"Gießen","type":"Landkreis"},"federalState":{"key":"06","name":"Hessen"}},{"name":"Weimarer Str.","postalCode":"35463","locality":"Fernwald","municipality":{"key":"06531004","name":"Fernwald","type":"Kreisangehörige_Gemeinde"},"district":{"key":"06531","name":"Gießen","type":"Landkreis"},"federalState":{"key":"06","name":"Hessen"}},{"name":"Wiesenstr.","postalCode":"35463","locality":"Fernwald","municipality":{"key":"06531004","name":"Fernwald","type":"Kreisangehörige_Gemeinde"},"district":{"key":"06531","name":"Gießen","type":"Landkreis"},"federalState":{"key":"06","name":"Hessen"}},{"name":"Zum Buchwald","postalCode":"35463","locality":"Fernwald","municipality":{"key":"06531004","name":"Fernwald","type":"Kreisangehörige_Gemeinde"},"district":{"key":"06531","name":"Gießen","type":"Landkreis"},"federalState":{"key":"06","name":"Hessen"}},{"name":"Zum Mönchacker","postalCode":"35463","locality":"Fernwald","municipality":{"key":"06531004","name":"Fernwald","type":"Kreisangehörige_Gemeinde"},"district":{"key":"06531","name":"Gießen","type":"Landkreis"},"federalState":{"key":"06","name":"Hessen"}},{"name":"Über der Seife","postalCode":"35398","locality":"Gießen","municipality":{"key":"06531005","name":"Gießen, Universitätsstadt","type":"Stadt"},"district":{"key":"06531","name":"Gießen","type":"Landkreis"},"federalState":{"key":"06","name":"Hessen"}},]