[{"name":"Adalbert-Stifter-Str.","postalCode":"83052","locality":"Bruckmühl","municipality":{"key":"09187122","name":"Bruckmühl, M","type":"Markt"},"district":{"key":"09187","name":"Rosenheim","type":"Landkreis"},"federalState":{"key":"09","name":"Bayern"}},{"name":"Adlfurter Str.","postalCode":"83052","locality":"Bruckmühl","municipality":{"key":"09187122","name":"Bruckmühl, M","type":"Markt"},"district":{"key":"09187","name":"Rosenheim","type":"Landkreis"},"federalState":{"key":"09","name":"Bayern"}},{"name":"Aiblinger Str.","postalCode":"83052","locality":"Bruckmühl","municipality":{"key":"09187122","name":"Bruckmühl, M","type":"Markt"},"district":{"key":"09187","name":"Rosenheim","type":"Landkreis"},"federalState":{"key":"09","name":"Bayern"}},{"name":"Akeleiweg","postalCode":"83052","locality":"Bruckmühl","municipality":{"key":"09187122","name":"Bruckmühl, M","type":"Markt"},"district":{"key":"09187","name":"Rosenheim","type":"Landkreis"},"federalState":{"key":"09","name":"Bayern"}},{"name":"Albert-Mayer-Str.","postalCode":"83052","locality":"Bruckmühl","municipality":{"key":"09187122","name":"Bruckmühl, M","type":"Markt"},"district":{"key":"09187","name":"Rosenheim","type":"Landkreis"},"federalState":{"key":"09","name":"Bayern"}},{"name":"Albert-Schweitzer-Str.","postalCode":"83052","locality":"Bruckmühl","municipality":{"key":"09187122","name":"Bruckmühl, M","type":"Markt"},"district":{"key":"09187","name":"Rosenheim","type":"Landkreis"},"federalState":{"key":"09","name":"Bayern"}},{"name":"Altvaterweg","postalCode":"83052","locality":"Bruckmühl","municipality":{"key":"09187122","name":"Bruckmühl, M","type":"Markt"},"district":{"key":"09187","name":"Rosenheim","type":"Landkreis"},"federalState":{"key":"09","name":"Bayern"}},{"name":"Am Bach","postalCode":"83052","locality":"Bruckmühl","municipality":{"key":"09187122","name":"Bruckmühl, M","type":"Markt"},"district":{"key":"09187","name":"Rosenheim","type":"Landkreis"},"federalState":{"key":"09","name":"Bayern"}},{"name":"Am Bergblick","postalCode":"83052","locality":"Bruckmühl","municipality":{"key":"09187122","name":"Bruckmühl, M","type":"Markt"},"district":{"key":"09187","name":"Rosenheim","type":"Landkreis"},"federalState":{"key":"09","name":"Bayern"}},{"name":"Am Bruckfeld","postalCode":"83052","locality":"Bruckmühl","municipality":{"key":"09187122","name":"Bruckmühl, M","type":"Markt"},"district":{"key":"09187","name":"Rosenheim","type":"Landkreis"},"federalState":{"key":"09","name":"Bayern"}},{"name":"Am Eichpold","postalCode":"83052","locality":"Bruckmühl","municipality":{"key":"09187122","name":"Bruckmühl, M","type":"Markt"},"district":{"key":"09187","name":"Rosenheim","type":"Landkreis"},"federalState":{"key":"09","name":"Bayern"}},{"name":"Am Entenbach","postalCode":"83052","locality":"Bruckmühl","municipality":{"key":"09187122","name":"Bruckmühl, M","type":"Markt"},"district":{"key":"09187","name":"Rosenheim","type":"Landkreis"},"federalState":{"key":"09","name":"Bayern"}},{"name":"Am Griesberg","postalCode":"83052","locality":"Bruckmühl","municipality":{"key":"09187122","name":"Bruckmühl, M","type":"Markt"},"district":{"key":"09187","name":"Rosenheim","type":"Landkreis"},"federalState":{"key":"09","name":"Bayern"}},{"name":"Am Korbinianspark","postalCode":"83052","locality":"Bruckmühl","municipality":{"key":"09187122","name":"Bruckmühl, M","type":"Markt"},"district":{"key":"09187","name":"Rosenheim","type":"Landkreis"},"federalState":{"key":"09","name":"Bayern"}},{"name":"Amselweg","postalCode":"83052","locality":"Bruckmühl","municipality":{"key":"09187122","name":"Bruckmühl, M","type":"Markt"},"district":{"key":"09187","name":"Rosenheim","type":"Landkreis"},"federalState":{"key":"09","name":"Bayern"}},{"name":"Am Sportplatz","postalCode":"83052","locality":"Bruckmühl","municipality":{"key":"09187122","name":"Bruckmühl, M","type":"Markt"},"district":{"key":"09187","name":"Rosenheim","type":"Landkreis"},"federalState":{"key":"09","name":"Bayern"}},{"name":"Am Triftbach","postalCode":"83052","locality":"Bruckmühl","municipality":{"key":"09187122","name":"Bruckmühl, M","type":"Markt"},"district":{"key":"09187","name":"Rosenheim","type":"Landkreis"},"federalState":{"key":"09","name":"Bayern"}},{"name":"Am Wald","postalCode":"83052","locality":"Bruckmühl","municipality":{"key":"09187122","name":"Bruckmühl, M","type":"Markt"},"district":{"key":"09187","name":"Rosenheim","type":"Landkreis"},"federalState":{"key":"09","name":"Bayern"}},{"name":"Am Weiher","postalCode":"83052","locality":"Bruckmühl","municipality":{"key":"09187122","name":"Bruckmühl, M","type":"Markt"},"district":{"key":"09187","name":"Rosenheim","type":"Landkreis"},"federalState":{"key":"09","name":"Bayern"}},{"name":"Angerstr.","postalCode":"83052","locality":"Bruckmühl","municipality":{"key":"09187122","name":"Bruckmühl, M","type":"Markt"},"district":{"key":"09187","name":"Rosenheim","type":"Landkreis"},"federalState":{"key":"09","name":"Bayern"}},{"name":"Annabergweg","postalCode":"83052","locality":"Bruckmühl","municipality":{"key":"09187122","name":"Bruckmühl, M","type":"Markt"},"district":{"key":"09187","name":"Rosenheim","type":"Landkreis"},"federalState":{"key":"09","name":"Bayern"}},{"name":"Anton-Bruckner-Str.","postalCode":"83052","locality":"Bruckmühl","municipality":{"key":"09187122","name":"Bruckmühl, M","type":"Markt"},"district":{"key":"09187","name":"Rosenheim","type":"Landkreis"},"federalState":{"key":"09","name":"Bayern"}},{"name":"Bachlängweg","postalCode":"83052","locality":"Bruckmühl","municipality":{"key":"09187122","name":"Bruckmühl, M","type":"Markt"},"district":{"key":"09187","name":"Rosenheim","type":"Landkreis"},"federalState":{"key":"09","name":"Bayern"}},{"name":"Bahnhofstr.","postalCode":"83052","locality":"Bruckmühl","municipality":{"key":"09187122","name":"Bruckmühl, M","type":"Markt"},"district":{"key":"09187","name":"Rosenheim","type":"Landkreis"},"federalState":{"key":"09","name":"Bayern"}},{"name":"Bergham","postalCode":"83052","locality":"Bruckmühl","municipality":{"key":"09187122","name":"Bruckmühl, M","type":"Markt"},"district":{"key":"09187","name":"Rosenheim","type":"Landkreis"},"federalState":{"key":"09","name":"Bayern"}},{"name":"Berghamer Str.","postalCode":"83052","locality":"Bruckmühl","municipality":{"key":"09187122","name":"Bruckmühl, M","type":"Markt"},"district":{"key":"09187","name":"Rosenheim","type":"Landkreis"},"federalState":{"key":"09","name":"Bayern"}},{"name":"Birkenstr.","postalCode":"83052","locality":"Bruckmühl","municipality":{"key":"09187122","name":"Bruckmühl, M","type":"Markt"},"district":{"key":"09187","name":"Rosenheim","type":"Landkreis"},"federalState":{"key":"09","name":"Bayern"}},{"name":"Blumenstr.","postalCode":"83052","locality":"Bruckmühl","municipality":{"key":"09187122","name":"Bruckmühl, M","type":"Markt"},"district":{"key":"09187","name":"Rosenheim","type":"Landkreis"},"federalState":{"key":"09","name":"Bayern"}},{"name":"Böhmerwaldweg","postalCode":"83052","locality":"Bruckmühl","municipality":{"key":"09187122","name":"Bruckmühl, M","type":"Markt"},"district":{"key":"09187","name":"Rosenheim","type":"Landkreis"},"federalState":{"key":"09","name":"Bayern"}},{"name":"Breitensteinstr.","postalCode":"83052","locality":"Bruckmühl","municipality":{"key":"09187122","name":"Bruckmühl, M","type":"Markt"},"district":{"key":"09187","name":"Rosenheim","type":"Landkreis"},"federalState":{"key":"09","name":"Bayern"}},{"name":"Breslauer Str.","postalCode":"83052","locality":"Bruckmühl","municipality":{"key":"09187122","name":"Bruckmühl, M","type":"Markt"},"district":{"key":"09187","name":"Rosenheim","type":"Landkreis"},"federalState":{"key":"09","name":"Bayern"}},{"name":"Brückenweg","postalCode":"83052","locality":"Bruckmühl","municipality":{"key":"09187122","name":"Bruckmühl, M","type":"Markt"},"district":{"key":"09187","name":"Rosenheim","type":"Landkreis"},"federalState":{"key":"09","name":"Bayern"}},{"name":"Bruckmühler Str.","postalCode":"83052","locality":"Bruckmühl","municipality":{"key":"09187122","name":"Bruckmühl, M","type":"Markt"},"district":{"key":"09187","name":"Rosenheim","type":"Landkreis"},"federalState":{"key":"09","name":"Bayern"}},{"name":"Brünnsteinstr.","postalCode":"83052","locality":"Bruckmühl","municipality":{"key":"09187122","name":"Bruckmühl, M","type":"Markt"},"district":{"key":"09187","name":"Rosenheim","type":"Landkreis"},"federalState":{"key":"09","name":"Bayern"}},{"name":"Buchenweg","postalCode":"83052","locality":"Bruckmühl","municipality":{"key":"09187122","name":"Bruckmühl, M","type":"Markt"},"district":{"key":"09187","name":"Rosenheim","type":"Landkreis"},"federalState":{"key":"09","name":"Bayern"}},{"name":"Bürgermeister-Grandauer-Str.","postalCode":"83052","locality":"Bruckmühl","municipality":{"key":"09187122","name":"Bruckmühl, M","type":"Markt"},"district":{"key":"09187","name":"Rosenheim","type":"Landkreis"},"federalState":{"key":"09","name":"Bayern"}},{"name":"Bürgermeister-Huber-Str.","postalCode":"83052","locality":"Bruckmühl","municipality":{"key":"09187122","name":"Bruckmühl, M","type":"Markt"},"district":{"key":"09187","name":"Rosenheim","type":"Landkreis"},"federalState":{"key":"09","name":"Bayern"}},{"name":"Bürgermeister-Kleinmaier-Str.","postalCode":"83052","locality":"Bruckmühl","municipality":{"key":"09187122","name":"Bruckmühl, M","type":"Markt"},"district":{"key":"09187","name":"Rosenheim","type":"Landkreis"},"federalState":{"key":"09","name":"Bayern"}},{"name":"Carl-Orff-Str.","postalCode":"83052","locality":"Bruckmühl","municipality":{"key":"09187122","name":"Bruckmühl, M","type":"Markt"},"district":{"key":"09187","name":"Rosenheim","type":"Landkreis"},"federalState":{"key":"09","name":"Bayern"}},{"name":"Carl-Zeiss-Str.","postalCode":"83052","locality":"Bruckmühl","municipality":{"key":"09187122","name":"Bruckmühl, M","type":"Markt"},"district":{"key":"09187","name":"Rosenheim","type":"Landkreis"},"federalState":{"key":"09","name":"Bayern"}},{"name":"Dahlienweg","postalCode":"83052","locality":"Bruckmühl","municipality":{"key":"09187122","name":"Bruckmühl, M","type":"Markt"},"district":{"key":"09187","name":"Rosenheim","type":"Landkreis"},"federalState":{"key":"09","name":"Bayern"}},{"name":"Dientzenhoferstr.","postalCode":"83052","locality":"Bruckmühl","municipality":{"key":"09187122","name":"Bruckmühl, M","type":"Markt"},"district":{"key":"09187","name":"Rosenheim","type":"Landkreis"},"federalState":{"key":"09","name":"Bayern"}},{"name":"Dorfstr.","postalCode":"83052","locality":"Bruckmühl","municipality":{"key":"09187122","name":"Bruckmühl, M","type":"Markt"},"district":{"key":"09187","name":"Rosenheim","type":"Landkreis"},"federalState":{"key":"09","name":"Bayern"}},{"name":"Dr.-Eckart-Weg","postalCode":"83052","locality":"Bruckmühl","municipality":{"key":"09187122","name":"Bruckmühl, M","type":"Markt"},"district":{"key":"09187","name":"Rosenheim","type":"Landkreis"},"federalState":{"key":"09","name":"Bayern"}},{"name":"Dr.-Jakob-Staudt-Str.","postalCode":"83052","locality":"Bruckmühl","municipality":{"key":"09187122","name":"Bruckmühl, M","type":"Markt"},"district":{"key":"09187","name":"Rosenheim","type":"Landkreis"},"federalState":{"key":"09","name":"Bayern"}},{"name":"Drosselstr.","postalCode":"83052","locality":"Bruckmühl","municipality":{"key":"09187122","name":"Bruckmühl, M","type":"Markt"},"district":{"key":"09187","name":"Rosenheim","type":"Landkreis"},"federalState":{"key":"09","name":"Bayern"}},{"name":"Dr.-Wilhelm-Glasser Weg","postalCode":"83052","locality":"Bruckmühl","municipality":{"key":"09187122","name":"Bruckmühl, M","type":"Markt"},"district":{"key":"09187","name":"Rosenheim","type":"Landkreis"},"federalState":{"key":"09","name":"Bayern"}},{"name":"Ebner-Eschenbach-Weg","postalCode":"83052","locality":"Bruckmühl","municipality":{"key":"09187122","name":"Bruckmühl, M","type":"Markt"},"district":{"key":"09187","name":"Rosenheim","type":"Landkreis"},"federalState":{"key":"09","name":"Bayern"}},{"name":"Egerländerstr.","postalCode":"83052","locality":"Bruckmühl","municipality":{"key":"09187122","name":"Bruckmühl, M","type":"Markt"},"district":{"key":"09187","name":"Rosenheim","type":"Landkreis"},"federalState":{"key":"09","name":"Bayern"}},{"name":"Eichenstr.","postalCode":"83052","locality":"Bruckmühl","municipality":{"key":"09187122","name":"Bruckmühl, M","type":"Markt"},"district":{"key":"09187","name":"Rosenheim","type":"Landkreis"},"federalState":{"key":"09","name":"Bayern"}},{"name":"Enzianweg","postalCode":"83052","locality":"Bruckmühl","municipality":{"key":"09187122","name":"Bruckmühl, M","type":"Markt"},"district":{"key":"09187","name":"Rosenheim","type":"Landkreis"},"federalState":{"key":"09","name":"Bayern"}},{"name":"Erich-Kästner-Weg","postalCode":"83052","locality":"Bruckmühl","municipality":{"key":"09187122","name":"Bruckmühl, M","type":"Markt"},"district":{"key":"09187","name":"Rosenheim","type":"Landkreis"},"federalState":{"key":"09","name":"Bayern"}},{"name":"Erlenstr.","postalCode":"83052","locality":"Bruckmühl","municipality":{"key":"09187122","name":"Bruckmühl, M","type":"Markt"},"district":{"key":"09187","name":"Rosenheim","type":"Landkreis"},"federalState":{"key":"09","name":"Bayern"}},{"name":"Fabrikweg","postalCode":"83052","locality":"Bruckmühl","municipality":{"key":"09187122","name":"Bruckmühl, M","type":"Markt"},"district":{"key":"09187","name":"Rosenheim","type":"Landkreis"},"federalState":{"key":"09","name":"Bayern"}},{"name":"Fasanenstr.","postalCode":"83052","locality":"Bruckmühl","municipality":{"key":"09187122","name":"Bruckmühl, M","type":"Markt"},"district":{"key":"09187","name":"Rosenheim","type":"Landkreis"},"federalState":{"key":"09","name":"Bayern"}},{"name":"Fehleitener Str.","postalCode":"83052","locality":"Bruckmühl","municipality":{"key":"09187122","name":"Bruckmühl, M","type":"Markt"},"district":{"key":"09187","name":"Rosenheim","type":"Landkreis"},"federalState":{"key":"09","name":"Bayern"}},{"name":"Feldweg","postalCode":"83052","locality":"Bruckmühl","municipality":{"key":"09187122","name":"Bruckmühl, M","type":"Markt"},"district":{"key":"09187","name":"Rosenheim","type":"Landkreis"},"federalState":{"key":"09","name":"Bayern"}},{"name":"Fichtenweg","postalCode":"83052","locality":"Bruckmühl","municipality":{"key":"09187122","name":"Bruckmühl, M","type":"Markt"},"district":{"key":"09187","name":"Rosenheim","type":"Landkreis"},"federalState":{"key":"09","name":"Bayern"}},{"name":"Finkenstr.","postalCode":"83052","locality":"Bruckmühl","municipality":{"key":"09187122","name":"Bruckmühl, M","type":"Markt"},"district":{"key":"09187","name":"Rosenheim","type":"Landkreis"},"federalState":{"key":"09","name":"Bayern"}},{"name":"Fliederweg","postalCode":"83052","locality":"Bruckmühl","municipality":{"key":"09187122","name":"Bruckmühl, M","type":"Markt"},"district":{"key":"09187","name":"Rosenheim","type":"Landkreis"},"federalState":{"key":"09","name":"Bayern"}},{"name":"Föhrenstr.","postalCode":"83052","locality":"Bruckmühl","municipality":{"key":"09187122","name":"Bruckmühl, M","type":"Markt"},"district":{"key":"09187","name":"Rosenheim","type":"Landkreis"},"federalState":{"key":"09","name":"Bayern"}},{"name":"Franz-von-Kobell-Str.","postalCode":"83052","locality":"Bruckmühl","municipality":{"key":"09187122","name":"Bruckmühl, M","type":"Markt"},"district":{"key":"09187","name":"Rosenheim","type":"Landkreis"},"federalState":{"key":"09","name":"Bayern"}},{"name":"Fraunhoferstr.","postalCode":"83052","locality":"Bruckmühl","municipality":{"key":"09187122","name":"Bruckmühl, M","type":"Markt"},"district":{"key":"09187","name":"Rosenheim","type":"Landkreis"},"federalState":{"key":"09","name":"Bayern"}},{"name":"Friedrich-Jahn-Str.","postalCode":"83052","locality":"Bruckmühl","municipality":{"key":"09187122","name":"Bruckmühl, M","type":"Markt"},"district":{"key":"09187","name":"Rosenheim","type":"Landkreis"},"federalState":{"key":"09","name":"Bayern"}},{"name":"Frühlingstr.","postalCode":"83052","locality":"Bruckmühl","municipality":{"key":"09187122","name":"Bruckmühl, M","type":"Markt"},"district":{"key":"09187","name":"Rosenheim","type":"Landkreis"},"federalState":{"key":"09","name":"Bayern"}},{"name":"Ganghofer-Str.","postalCode":"83052","locality":"Bruckmühl","municipality":{"key":"09187122","name":"Bruckmühl, M","type":"Markt"},"district":{"key":"09187","name":"Rosenheim","type":"Landkreis"},"federalState":{"key":"09","name":"Bayern"}},{"name":"Gartenstr.","postalCode":"83052","locality":"Bruckmühl","municipality":{"key":"09187122","name":"Bruckmühl, M","type":"Markt"},"district":{"key":"09187","name":"Rosenheim","type":"Landkreis"},"federalState":{"key":"09","name":"Bayern"}},{"name":"Georg-Dorrer-Str.","postalCode":"83052","locality":"Bruckmühl","municipality":{"key":"09187122","name":"Bruckmühl, M","type":"Markt"},"district":{"key":"09187","name":"Rosenheim","type":"Landkreis"},"federalState":{"key":"09","name":"Bayern"}},{"name":"Gewerbepark BWB","postalCode":"83052","locality":"Bruckmühl","municipality":{"key":"09187122","name":"Bruckmühl, M","type":"Markt"},"district":{"key":"09187","name":"Rosenheim","type":"Landkreis"},"federalState":{"key":"09","name":"Bayern"}},{"name":"Gimpelstr.","postalCode":"83052","locality":"Bruckmühl","municipality":{"key":"09187122","name":"Bruckmühl, M","type":"Markt"},"district":{"key":"09187","name":"Rosenheim","type":"Landkreis"},"federalState":{"key":"09","name":"Bayern"}},{"name":"Ginshamer Str.","postalCode":"83052","locality":"Bruckmühl","municipality":{"key":"09187122","name":"Bruckmühl, M","type":"Markt"},"district":{"key":"09187","name":"Rosenheim","type":"Landkreis"},"federalState":{"key":"09","name":"Bayern"}},{"name":"Gleiwitzer Weg","postalCode":"83052","locality":"Bruckmühl","municipality":{"key":"09187122","name":"Bruckmühl, M","type":"Markt"},"district":{"key":"09187","name":"Rosenheim","type":"Landkreis"},"federalState":{"key":"09","name":"Bayern"}},{"name":"Goldbachstr.","postalCode":"83052","locality":"Bruckmühl","municipality":{"key":"09187122","name":"Bruckmühl, M","type":"Markt"},"district":{"key":"09187","name":"Rosenheim","type":"Landkreis"},"federalState":{"key":"09","name":"Bayern"}},{"name":"Göttinger Str.","postalCode":"83052","locality":"Bruckmühl","municipality":{"key":"09187122","name":"Bruckmühl, M","type":"Markt"},"district":{"key":"09187","name":"Rosenheim","type":"Landkreis"},"federalState":{"key":"09","name":"Bayern"}},{"name":"Gottlob-Weiler-Str.","postalCode":"83052","locality":"Bruckmühl","municipality":{"key":"09187122","name":"Bruckmühl, M","type":"Markt"},"district":{"key":"09187","name":"Rosenheim","type":"Landkreis"},"federalState":{"key":"09","name":"Bayern"}},{"name":"Grillparzerweg","postalCode":"83052","locality":"Bruckmühl","municipality":{"key":"09187122","name":"Bruckmühl, M","type":"Markt"},"district":{"key":"09187","name":"Rosenheim","type":"Landkreis"},"federalState":{"key":"09","name":"Bayern"}},{"name":"Hainerbachstr.","postalCode":"83052","locality":"Bruckmühl","municipality":{"key":"09187122","name":"Bruckmühl, M","type":"Markt"},"district":{"key":"09187","name":"Rosenheim","type":"Landkreis"},"federalState":{"key":"09","name":"Bayern"}},{"name":"Hans-Scheibmaier-Str.","postalCode":"83052","locality":"Bruckmühl","municipality":{"key":"09187122","name":"Bruckmühl, M","type":"Markt"},"district":{"key":"09187","name":"Rosenheim","type":"Landkreis"},"federalState":{"key":"09","name":"Bayern"}},{"name":"Haunpoldstr.","postalCode":"83052","locality":"Bruckmühl","municipality":{"key":"09187122","name":"Bruckmühl, M","type":"Markt"},"district":{"key":"09187","name":"Rosenheim","type":"Landkreis"},"federalState":{"key":"09","name":"Bayern"}},{"name":"Hauptstr.","postalCode":"83052","locality":"Bruckmühl","municipality":{"key":"09187122","name":"Bruckmühl, M","type":"Markt"},"district":{"key":"09187","name":"Rosenheim","type":"Landkreis"},"federalState":{"key":"09","name":"Bayern"}},{"name":"Haydnstr.","postalCode":"83052","locality":"Bruckmühl","municipality":{"key":"09187122","name":"Bruckmühl, M","type":"Markt"},"district":{"key":"09187","name":"Rosenheim","type":"Landkreis"},"federalState":{"key":"09","name":"Bayern"}},{"name":"Heimatweg","postalCode":"83052","locality":"Bruckmühl","municipality":{"key":"09187122","name":"Bruckmühl, M","type":"Markt"},"district":{"key":"09187","name":"Rosenheim","type":"Landkreis"},"federalState":{"key":"09","name":"Bayern"}},{"name":"Hermann-Löns-Weg","postalCode":"83052","locality":"Bruckmühl","municipality":{"key":"09187122","name":"Bruckmühl, M","type":"Markt"},"district":{"key":"09187","name":"Rosenheim","type":"Landkreis"},"federalState":{"key":"09","name":"Bayern"}},{"name":"Hermann-Oberth-Str.","postalCode":"83052","locality":"Bruckmühl","municipality":{"key":"09187122","name":"Bruckmühl, M","type":"Markt"},"district":{"key":"09187","name":"Rosenheim","type":"Landkreis"},"federalState":{"key":"09","name":"Bayern"}},{"name":"Heubergstr.","postalCode":"83052","locality":"Bruckmühl","municipality":{"key":"09187122","name":"Bruckmühl, M","type":"Markt"},"district":{"key":"09187","name":"Rosenheim","type":"Landkreis"},"federalState":{"key":"09","name":"Bayern"}},{"name":"Heufelder Str.","postalCode":"83052","locality":"Bruckmühl","municipality":{"key":"09187122","name":"Bruckmühl, M","type":"Markt"},"district":{"key":"09187","name":"Rosenheim","type":"Landkreis"},"federalState":{"key":"09","name":"Bayern"}},{"name":"Hinrich-Pferdmenges-Str.","postalCode":"83052","locality":"Bruckmühl","municipality":{"key":"09187122","name":"Bruckmühl, M","type":"Markt"},"district":{"key":"09187","name":"Rosenheim","type":"Landkreis"},"federalState":{"key":"09","name":"Bayern"}},{"name":"Hirschberg","postalCode":"83052","locality":"Bruckmühl","municipality":{"key":"09187122","name":"Bruckmühl, M","type":"Markt"},"district":{"key":"09187","name":"Rosenheim","type":"Landkreis"},"federalState":{"key":"09","name":"Bayern"}},{"name":"Hocheckstr.","postalCode":"83052","locality":"Bruckmühl","municipality":{"key":"09187122","name":"Bruckmühl, M","type":"Markt"},"district":{"key":"09187","name":"Rosenheim","type":"Landkreis"},"federalState":{"key":"09","name":"Bayern"}},{"name":"Hochriesstr.","postalCode":"83052","locality":"Bruckmühl","municipality":{"key":"09187122","name":"Bruckmühl, M","type":"Markt"},"district":{"key":"09187","name":"Rosenheim","type":"Landkreis"},"federalState":{"key":"09","name":"Bayern"}},{"name":"Höglinger Str.","postalCode":"83052","locality":"Bruckmühl","municipality":{"key":"09187122","name":"Bruckmühl, M","type":"Markt"},"district":{"key":"09187","name":"Rosenheim","type":"Landkreis"},"federalState":{"key":"09","name":"Bayern"}},{"name":"Hollerweg","postalCode":"83052","locality":"Bruckmühl","municipality":{"key":"09187122","name":"Bruckmühl, M","type":"Markt"},"district":{"key":"09187","name":"Rosenheim","type":"Landkreis"},"federalState":{"key":"09","name":"Bayern"}},{"name":"Holnstainerstr.","postalCode":"83052","locality":"Bruckmühl","municipality":{"key":"09187122","name":"Bruckmühl, M","type":"Markt"},"district":{"key":"09187","name":"Rosenheim","type":"Landkreis"},"federalState":{"key":"09","name":"Bayern"}},{"name":"Im Almfeld","postalCode":"83052","locality":"Bruckmühl","municipality":{"key":"09187122","name":"Bruckmühl, M","type":"Markt"},"district":{"key":"09187","name":"Rosenheim","type":"Landkreis"},"federalState":{"key":"09","name":"Bayern"}},{"name":"Im Steinfeld","postalCode":"83052","locality":"Bruckmühl","municipality":{"key":"09187122","name":"Bruckmühl, M","type":"Markt"},"district":{"key":"09187","name":"Rosenheim","type":"Landkreis"},"federalState":{"key":"09","name":"Bayern"}},{"name":"Ina-Seidel-Weg","postalCode":"83052","locality":"Bruckmühl","municipality":{"key":"09187122","name":"Bruckmühl, M","type":"Markt"},"district":{"key":"09187","name":"Rosenheim","type":"Landkreis"},"federalState":{"key":"09","name":"Bayern"}},{"name":"Irschenberger Str.","postalCode":"83052","locality":"Bruckmühl","municipality":{"key":"09187122","name":"Bruckmühl, M","type":"Markt"},"district":{"key":"09187","name":"Rosenheim","type":"Landkreis"},"federalState":{"key":"09","name":"Bayern"}},{"name":"Jägerkampweg","postalCode":"83052","locality":"Bruckmühl","municipality":{"key":"09187122","name":"Bruckmühl, M","type":"Markt"},"district":{"key":"09187","name":"Rosenheim","type":"Landkreis"},"federalState":{"key":"09","name":"Bayern"}},{"name":"Josef-Völkl-Str.","postalCode":"83052","locality":"Bruckmühl","municipality":{"key":"09187122","name":"Bruckmühl, M","type":"Markt"},"district":{"key":"09187","name":"Rosenheim","type":"Landkreis"},"federalState":{"key":"09","name":"Bayern"}},{"name":"Julius-v.-Niethammer-Str.","postalCode":"83052","locality":"Bruckmühl","municipality":{"key":"09187122","name":"Bruckmühl, M","type":"Markt"},"district":{"key":"09187","name":"Rosenheim","type":"Landkreis"},"federalState":{"key":"09","name":"Bayern"}},{"name":"Justus-von-Liebig-Str.","postalCode":"83052","locality":"Bruckmühl","municipality":{"key":"09187122","name":"Bruckmühl, M","type":"Markt"},"district":{"key":"09187","name":"Rosenheim","type":"Landkreis"},"federalState":{"key":"09","name":"Bayern"}},{"name":"Kampenwandstr.","postalCode":"83052","locality":"Bruckmühl","municipality":{"key":"09187122","name":"Bruckmühl, M","type":"Markt"},"district":{"key":"09187","name":"Rosenheim","type":"Landkreis"},"federalState":{"key":"09","name":"Bayern"}},{"name":"Kanalstr.","postalCode":"83052","locality":"Bruckmühl","municipality":{"key":"09187122","name":"Bruckmühl, M","type":"Markt"},"district":{"key":"09187","name":"Rosenheim","type":"Landkreis"},"federalState":{"key":"09","name":"Bayern"}},{"name":"Kapellenstr.","postalCode":"83052","locality":"Bruckmühl","municipality":{"key":"09187122","name":"Bruckmühl, M","type":"Markt"},"district":{"key":"09187","name":"Rosenheim","type":"Landkreis"},"federalState":{"key":"09","name":"Bayern"}},{"name":"Kardinal-Faulhaber-Weg","postalCode":"83052","locality":"Bruckmühl","municipality":{"key":"09187122","name":"Bruckmühl, M","type":"Markt"},"district":{"key":"09187","name":"Rosenheim","type":"Landkreis"},"federalState":{"key":"09","name":"Bayern"}},{"name":"Karl-Stieler-Str.","postalCode":"83052","locality":"Bruckmühl","municipality":{"key":"09187122","name":"Bruckmühl, M","type":"Markt"},"district":{"key":"09187","name":"Rosenheim","type":"Landkreis"},"federalState":{"key":"09","name":"Bayern"}},{"name":"Kiem-Pauli-Weg","postalCode":"83052","locality":"Bruckmühl","municipality":{"key":"09187122","name":"Bruckmühl, M","type":"Markt"},"district":{"key":"09187","name":"Rosenheim","type":"Landkreis"},"federalState":{"key":"09","name":"Bayern"}},{"name":"Kirchdorfer Str.","postalCode":"83052","locality":"Bruckmühl","municipality":{"key":"09187122","name":"Bruckmühl, M","type":"Markt"},"district":{"key":"09187","name":"Rosenheim","type":"Landkreis"},"federalState":{"key":"09","name":"Bayern"}},{"name":"Kirchfeldweg","postalCode":"83052","locality":"Bruckmühl","municipality":{"key":"09187122","name":"Bruckmühl, M","type":"Markt"},"district":{"key":"09187","name":"Rosenheim","type":"Landkreis"},"federalState":{"key":"09","name":"Bayern"}},{"name":"Kirchplatz","postalCode":"83052","locality":"Bruckmühl","municipality":{"key":"09187122","name":"Bruckmühl, M","type":"Markt"},"district":{"key":"09187","name":"Rosenheim","type":"Landkreis"},"federalState":{"key":"09","name":"Bayern"}},{"name":"Kirchweg","postalCode":"83052","locality":"Bruckmühl","municipality":{"key":"09187122","name":"Bruckmühl, M","type":"Markt"},"district":{"key":"09187","name":"Rosenheim","type":"Landkreis"},"federalState":{"key":"09","name":"Bayern"}},{"name":"Kornblumenweg","postalCode":"83052","locality":"Bruckmühl","municipality":{"key":"09187122","name":"Bruckmühl, M","type":"Markt"},"district":{"key":"09187","name":"Rosenheim","type":"Landkreis"},"federalState":{"key":"09","name":"Bayern"}},{"name":"Krankenhausweg","postalCode":"83052","locality":"Bruckmühl","municipality":{"key":"09187122","name":"Bruckmühl, M","type":"Markt"},"district":{"key":"09187","name":"Rosenheim","type":"Landkreis"},"federalState":{"key":"09","name":"Bayern"}},{"name":"Kranzhornstr.","postalCode":"83052","locality":"Bruckmühl","municipality":{"key":"09187122","name":"Bruckmühl, M","type":"Markt"},"district":{"key":"09187","name":"Rosenheim","type":"Landkreis"},"federalState":{"key":"09","name":"Bayern"}},{"name":"Kreuzweg","postalCode":"83052","locality":"Bruckmühl","municipality":{"key":"09187122","name":"Bruckmühl, M","type":"Markt"},"district":{"key":"09187","name":"Rosenheim","type":"Landkreis"},"federalState":{"key":"09","name":"Bayern"}},{"name":"Lehrer-Hangl-Str.","postalCode":"83052","locality":"Bruckmühl","municipality":{"key":"09187122","name":"Bruckmühl, M","type":"Markt"},"district":{"key":"09187","name":"Rosenheim","type":"Landkreis"},"federalState":{"key":"09","name":"Bayern"}},{"name":"Lena-Christ-Str.","postalCode":"83052","locality":"Bruckmühl","municipality":{"key":"09187122","name":"Bruckmühl, M","type":"Markt"},"district":{"key":"09187","name":"Rosenheim","type":"Landkreis"},"federalState":{"key":"09","name":"Bayern"}},{"name":"Leonhardistr.","postalCode":"83052","locality":"Bruckmühl","municipality":{"key":"09187122","name":"Bruckmühl, M","type":"Markt"},"district":{"key":"09187","name":"Rosenheim","type":"Landkreis"},"federalState":{"key":"09","name":"Bayern"}},{"name":"Lerchenstr.","postalCode":"83052","locality":"Bruckmühl","municipality":{"key":"09187122","name":"Bruckmühl, M","type":"Markt"},"district":{"key":"09187","name":"Rosenheim","type":"Landkreis"},"federalState":{"key":"09","name":"Bayern"}},{"name":"Linden","postalCode":"83052","locality":"Bruckmühl","municipality":{"key":"09187122","name":"Bruckmühl, M","type":"Markt"},"district":{"key":"09187","name":"Rosenheim","type":"Landkreis"},"federalState":{"key":"09","name":"Bayern"}},{"name":"Lindenstr.","postalCode":"83052","locality":"Bruckmühl","municipality":{"key":"09187122","name":"Bruckmühl, M","type":"Markt"},"district":{"key":"09187","name":"Rosenheim","type":"Landkreis"},"federalState":{"key":"09","name":"Bayern"}},{"name":"Lisztstr.","postalCode":"83052","locality":"Bruckmühl","municipality":{"key":"09187122","name":"Bruckmühl, M","type":"Markt"},"district":{"key":"09187","name":"Rosenheim","type":"Landkreis"},"federalState":{"key":"09","name":"Bayern"}},{"name":"Ludwig-Thoma-Str.","postalCode":"83052","locality":"Bruckmühl","municipality":{"key":"09187122","name":"Bruckmühl, M","type":"Markt"},"district":{"key":"09187","name":"Rosenheim","type":"Landkreis"},"federalState":{"key":"09","name":"Bayern"}},{"name":"Mangfallsteg","postalCode":"83052","locality":"Bruckmühl","municipality":{"key":"09187122","name":"Bruckmühl, M","type":"Markt"},"district":{"key":"09187","name":"Rosenheim","type":"Landkreis"},"federalState":{"key":"09","name":"Bayern"}},{"name":"Mangfallstr.","postalCode":"83052","locality":"Bruckmühl","municipality":{"key":"09187122","name":"Bruckmühl, M","type":"Markt"},"district":{"key":"09187","name":"Rosenheim","type":"Landkreis"},"federalState":{"key":"09","name":"Bayern"}},{"name":"Margeritenstr.","postalCode":"83052","locality":"Bruckmühl","municipality":{"key":"09187122","name":"Bruckmühl, M","type":"Markt"},"district":{"key":"09187","name":"Rosenheim","type":"Landkreis"},"federalState":{"key":"09","name":"Bayern"}},{"name":"Marienburgstr.","postalCode":"83052","locality":"Bruckmühl","municipality":{"key":"09187122","name":"Bruckmühl, M","type":"Markt"},"district":{"key":"09187","name":"Rosenheim","type":"Landkreis"},"federalState":{"key":"09","name":"Bayern"}},{"name":"Masurenring","postalCode":"83052","locality":"Bruckmühl","municipality":{"key":"09187122","name":"Bruckmühl, M","type":"Markt"},"district":{"key":"09187","name":"Rosenheim","type":"Landkreis"},"federalState":{"key":"09","name":"Bayern"}},{"name":"Maxhofener Str.","postalCode":"83052","locality":"Bruckmühl","municipality":{"key":"09187122","name":"Bruckmühl, M","type":"Markt"},"district":{"key":"09187","name":"Rosenheim","type":"Landkreis"},"federalState":{"key":"09","name":"Bayern"}},{"name":"Max-Planck-Str.","postalCode":"83052","locality":"Bruckmühl","municipality":{"key":"09187122","name":"Bruckmühl, M","type":"Markt"},"district":{"key":"09187","name":"Rosenheim","type":"Landkreis"},"federalState":{"key":"09","name":"Bayern"}},{"name":"Meisenweg","postalCode":"83052","locality":"Bruckmühl","municipality":{"key":"09187122","name":"Bruckmühl, M","type":"Markt"},"district":{"key":"09187","name":"Rosenheim","type":"Landkreis"},"federalState":{"key":"09","name":"Bayern"}},{"name":"Memelweg","postalCode":"83052","locality":"Bruckmühl","municipality":{"key":"09187122","name":"Bruckmühl, M","type":"Markt"},"district":{"key":"09187","name":"Rosenheim","type":"Landkreis"},"federalState":{"key":"09","name":"Bayern"}},{"name":"Menhoferweg","postalCode":"83052","locality":"Bruckmühl","municipality":{"key":"09187122","name":"Bruckmühl, M","type":"Markt"},"district":{"key":"09187","name":"Rosenheim","type":"Landkreis"},"federalState":{"key":"09","name":"Bayern"}},{"name":"Mistelweg","postalCode":"83052","locality":"Bruckmühl","municipality":{"key":"09187122","name":"Bruckmühl, M","type":"Markt"},"district":{"key":"09187","name":"Rosenheim","type":"Landkreis"},"federalState":{"key":"09","name":"Bayern"}},{"name":"Mittenkirchener Str.","postalCode":"83052","locality":"Bruckmühl","municipality":{"key":"09187122","name":"Bruckmühl, M","type":"Markt"},"district":{"key":"09187","name":"Rosenheim","type":"Landkreis"},"federalState":{"key":"09","name":"Bayern"}},{"name":"Moldauweg","postalCode":"83052","locality":"Bruckmühl","municipality":{"key":"09187122","name":"Bruckmühl, M","type":"Markt"},"district":{"key":"09187","name":"Rosenheim","type":"Landkreis"},"federalState":{"key":"09","name":"Bayern"}},{"name":"Mörikeweg","postalCode":"83052","locality":"Bruckmühl","municipality":{"key":"09187122","name":"Bruckmühl, M","type":"Markt"},"district":{"key":"09187","name":"Rosenheim","type":"Landkreis"},"federalState":{"key":"09","name":"Bayern"}},{"name":"Mozartstr.","postalCode":"83052","locality":"Bruckmühl","municipality":{"key":"09187122","name":"Bruckmühl, M","type":"Markt"},"district":{"key":"09187","name":"Rosenheim","type":"Landkreis"},"federalState":{"key":"09","name":"Bayern"}},{"name":"Mühlbachweg","postalCode":"83052","locality":"Bruckmühl","municipality":{"key":"09187122","name":"Bruckmühl, M","type":"Markt"},"district":{"key":"09187","name":"Rosenheim","type":"Landkreis"},"federalState":{"key":"09","name":"Bayern"}},{"name":"Mühlenstr.","postalCode":"83052","locality":"Bruckmühl","municipality":{"key":"09187122","name":"Bruckmühl, M","type":"Markt"},"district":{"key":"09187","name":"Rosenheim","type":"Landkreis"},"federalState":{"key":"09","name":"Bayern"}},{"name":"Müller-zu-Bruck-Str.","postalCode":"83052","locality":"Bruckmühl","municipality":{"key":"09187122","name":"Bruckmühl, M","type":"Markt"},"district":{"key":"09187","name":"Rosenheim","type":"Landkreis"},"federalState":{"key":"09","name":"Bayern"}},{"name":"Münchener Str.","postalCode":"83052","locality":"Bruckmühl","municipality":{"key":"09187122","name":"Bruckmühl, M","type":"Markt"},"district":{"key":"09187","name":"Rosenheim","type":"Landkreis"},"federalState":{"key":"09","name":"Bayern"}},{"name":"Neißeweg","postalCode":"83052","locality":"Bruckmühl","municipality":{"key":"09187122","name":"Bruckmühl, M","type":"Markt"},"district":{"key":"09187","name":"Rosenheim","type":"Landkreis"},"federalState":{"key":"09","name":"Bayern"}},{"name":"Nelkenstr.","postalCode":"83052","locality":"Bruckmühl","municipality":{"key":"09187122","name":"Bruckmühl, M","type":"Markt"},"district":{"key":"09187","name":"Rosenheim","type":"Landkreis"},"federalState":{"key":"09","name":"Bayern"}},{"name":"Oberadlfurt","postalCode":"83052","locality":"Bruckmühl","municipality":{"key":"09187122","name":"Bruckmühl, M","type":"Markt"},"district":{"key":"09187","name":"Rosenheim","type":"Landkreis"},"federalState":{"key":"09","name":"Bayern"}},{"name":"Oberholzham","postalCode":"83052","locality":"Bruckmühl","municipality":{"key":"09187122","name":"Bruckmühl, M","type":"Markt"},"district":{"key":"09187","name":"Rosenheim","type":"Landkreis"},"federalState":{"key":"09","name":"Bayern"}},{"name":"Oberstaudhausen","postalCode":"83052","locality":"Bruckmühl","municipality":{"key":"09187122","name":"Bruckmühl, M","type":"Markt"},"district":{"key":"09187","name":"Rosenheim","type":"Landkreis"},"federalState":{"key":"09","name":"Bayern"}},{"name":"Oderweg","postalCode":"83052","locality":"Bruckmühl","municipality":{"key":"09187122","name":"Bruckmühl, M","type":"Markt"},"district":{"key":"09187","name":"Rosenheim","type":"Landkreis"},"federalState":{"key":"09","name":"Bayern"}},{"name":"Oskar-Maria-Graf-Str.","postalCode":"83052","locality":"Bruckmühl","municipality":{"key":"09187122","name":"Bruckmühl, M","type":"Markt"},"district":{"key":"09187","name":"Rosenheim","type":"Landkreis"},"federalState":{"key":"09","name":"Bayern"}},{"name":"Otto-Perutz-Str.","postalCode":"83052","locality":"Bruckmühl","municipality":{"key":"09187122","name":"Bruckmühl, M","type":"Markt"},"district":{"key":"09187","name":"Rosenheim","type":"Landkreis"},"federalState":{"key":"09","name":"Bayern"}},{"name":"Otto-von-Steinbeis-Str.","postalCode":"83052","locality":"Bruckmühl","municipality":{"key":"09187122","name":"Bruckmühl, M","type":"Markt"},"district":{"key":"09187","name":"Rosenheim","type":"Landkreis"},"federalState":{"key":"09","name":"Bayern"}},{"name":"Park im Garten des Volksmusikarchivs","postalCode":"83052","locality":"Bruckmühl","municipality":{"key":"09187122","name":"Bruckmühl, M","type":"Markt"},"district":{"key":"09187","name":"Rosenheim","type":"Landkreis"},"federalState":{"key":"09","name":"Bayern"}},{"name":"Paul-Egleder-Weg","postalCode":"83052","locality":"Bruckmühl","municipality":{"key":"09187122","name":"Bruckmühl, M","type":"Markt"},"district":{"key":"09187","name":"Rosenheim","type":"Landkreis"},"federalState":{"key":"09","name":"Bayern"}},{"name":"Petersbergstr.","postalCode":"83052","locality":"Bruckmühl","municipality":{"key":"09187122","name":"Bruckmühl, M","type":"Markt"},"district":{"key":"09187","name":"Rosenheim","type":"Landkreis"},"federalState":{"key":"09","name":"Bayern"}},{"name":"Pettenkoferstr.","postalCode":"83052","locality":"Bruckmühl","municipality":{"key":"09187122","name":"Bruckmühl, M","type":"Markt"},"district":{"key":"09187","name":"Rosenheim","type":"Landkreis"},"federalState":{"key":"09","name":"Bayern"}},{"name":"Pfarrer-Grimm-Str.","postalCode":"83052","locality":"Bruckmühl","municipality":{"key":"09187122","name":"Bruckmühl, M","type":"Markt"},"district":{"key":"09187","name":"Rosenheim","type":"Landkreis"},"federalState":{"key":"09","name":"Bayern"}},{"name":"Pfarrer-Loidl-Str.","postalCode":"83052","locality":"Bruckmühl","municipality":{"key":"09187122","name":"Bruckmühl, M","type":"Markt"},"district":{"key":"09187","name":"Rosenheim","type":"Landkreis"},"federalState":{"key":"09","name":"Bayern"}},{"name":"Pfarrweg","postalCode":"83052","locality":"Bruckmühl","municipality":{"key":"09187122","name":"Bruckmühl, M","type":"Markt"},"district":{"key":"09187","name":"Rosenheim","type":"Landkreis"},"federalState":{"key":"09","name":"Bayern"}},{"name":"Pfeifringweg","postalCode":"83052","locality":"Bruckmühl","municipality":{"key":"09187122","name":"Bruckmühl, M","type":"Markt"},"district":{"key":"09187","name":"Rosenheim","type":"Landkreis"},"federalState":{"key":"09","name":"Bayern"}},{"name":"Quirinstr.","postalCode":"83024","locality":"Rosenheim","municipality":{"key":"09163000","name":"Rosenheim","type":"Kreisfreie_Stadt"},"district":{"key":"09163","name":"Rosenheim","type":"Kreisfreie_Stadt"},"federalState":{"key":"09","name":"Bayern"}},{"name":"Rathausplatz","postalCode":"83052","locality":"Bruckmühl","municipality":{"key":"09187122","name":"Bruckmühl, M","type":"Markt"},"district":{"key":"09187","name":"Rosenheim","type":"Landkreis"},"federalState":{"key":"09","name":"Bayern"}},{"name":"Rathausstr.","postalCode":"83052","locality":"Bruckmühl","municipality":{"key":"09187122","name":"Bruckmühl, M","type":"Markt"},"district":{"key":"09187","name":"Rosenheim","type":"Landkreis"},"federalState":{"key":"09","name":"Bayern"}},{"name":"Richard-Strauss-Str.","postalCode":"83052","locality":"Bruckmühl","municipality":{"key":"09187122","name":"Bruckmühl, M","type":"Markt"},"district":{"key":"09187","name":"Rosenheim","type":"Landkreis"},"federalState":{"key":"09","name":"Bayern"}},{"name":"Ried","postalCode":"83052","locality":"Bruckmühl","municipality":{"key":"09187122","name":"Bruckmühl, M","type":"Markt"},"district":{"key":"09187","name":"Rosenheim","type":"Landkreis"},"federalState":{"key":"09","name":"Bayern"}},{"name":"Rieder Weg","postalCode":"83052","locality":"Bruckmühl","municipality":{"key":"09187122","name":"Bruckmühl, M","type":"Markt"},"district":{"key":"09187","name":"Rosenheim","type":"Landkreis"},"federalState":{"key":"09","name":"Bayern"}},{"name":"Rosenstr.","postalCode":"83052","locality":"Bruckmühl","municipality":{"key":"09187122","name":"Bruckmühl, M","type":"Markt"},"district":{"key":"09187","name":"Rosenheim","type":"Landkreis"},"federalState":{"key":"09","name":"Bayern"}},{"name":"Rösnerstr.","postalCode":"83052","locality":"Bruckmühl","municipality":{"key":"09187122","name":"Bruckmühl, M","type":"Markt"},"district":{"key":"09187","name":"Rosenheim","type":"Landkreis"},"federalState":{"key":"09","name":"Bayern"}},{"name":"Rotwandstr.","postalCode":"83052","locality":"Bruckmühl","municipality":{"key":"09187122","name":"Bruckmühl, M","type":"Markt"},"district":{"key":"09187","name":"Rosenheim","type":"Landkreis"},"federalState":{"key":"09","name":"Bayern"}},{"name":"Rübezahlweg","postalCode":"83052","locality":"Bruckmühl","municipality":{"key":"09187122","name":"Bruckmühl, M","type":"Markt"},"district":{"key":"09187","name":"Rosenheim","type":"Landkreis"},"federalState":{"key":"09","name":"Bayern"}},{"name":"Rudolf-Diesel-Str.","postalCode":"83052","locality":"Bruckmühl","municipality":{"key":"09187122","name":"Bruckmühl, M","type":"Markt"},"district":{"key":"09187","name":"Rosenheim","type":"Landkreis"},"federalState":{"key":"09","name":"Bayern"}},{"name":"Rudolf-Harbig-Ring","postalCode":"83052","locality":"Bruckmühl","municipality":{"key":"09187122","name":"Bruckmühl, M","type":"Markt"},"district":{"key":"09187","name":"Rosenheim","type":"Landkreis"},"federalState":{"key":"09","name":"Bayern"}},{"name":"Samerstr.","postalCode":"83052","locality":"Bruckmühl","municipality":{"key":"09187122","name":"Bruckmühl, M","type":"Markt"},"district":{"key":"09187","name":"Rosenheim","type":"Landkreis"},"federalState":{"key":"09","name":"Bayern"}},{"name":"Schillerstr.","postalCode":"83052","locality":"Bruckmühl","municipality":{"key":"09187122","name":"Bruckmühl, M","type":"Markt"},"district":{"key":"09187","name":"Rosenheim","type":"Landkreis"},"federalState":{"key":"09","name":"Bayern"}},{"name":"Schlesierweg","postalCode":"83052","locality":"Bruckmühl","municipality":{"key":"09187122","name":"Bruckmühl, M","type":"Markt"},"district":{"key":"09187","name":"Rosenheim","type":"Landkreis"},"federalState":{"key":"09","name":"Bayern"}},{"name":"Schmiedstr.","postalCode":"83052","locality":"Bruckmühl","municipality":{"key":"09187122","name":"Bruckmühl, M","type":"Markt"},"district":{"key":"09187","name":"Rosenheim","type":"Landkreis"},"federalState":{"key":"09","name":"Bayern"}},{"name":"Schneiderweg","postalCode":"83052","locality":"Bruckmühl","municipality":{"key":"09187122","name":"Bruckmühl, M","type":"Markt"},"district":{"key":"09187","name":"Rosenheim","type":"Landkreis"},"federalState":{"key":"09","name":"Bayern"}},{"name":"Schubertstr.","postalCode":"83052","locality":"Bruckmühl","municipality":{"key":"09187122","name":"Bruckmühl, M","type":"Markt"},"district":{"key":"09187","name":"Rosenheim","type":"Landkreis"},"federalState":{"key":"09","name":"Bayern"}},{"name":"Schulstr.","postalCode":"83052","locality":"Bruckmühl","municipality":{"key":"09187122","name":"Bruckmühl, M","type":"Markt"},"district":{"key":"09187","name":"Rosenheim","type":"Landkreis"},"federalState":{"key":"09","name":"Bayern"}},{"name":"Schusterstr.","postalCode":"83052","locality":"Bruckmühl","municipality":{"key":"09187122","name":"Bruckmühl, M","type":"Markt"},"district":{"key":"09187","name":"Rosenheim","type":"Landkreis"},"federalState":{"key":"09","name":"Bayern"}},{"name":"Schwarzenbergstr.","postalCode":"83052","locality":"Bruckmühl","municipality":{"key":"09187122","name":"Bruckmühl, M","type":"Markt"},"district":{"key":"09187","name":"Rosenheim","type":"Landkreis"},"federalState":{"key":"09","name":"Bayern"}},{"name":"Sebastian-Steiner-Weg","postalCode":"83052","locality":"Bruckmühl","municipality":{"key":"09187122","name":"Bruckmühl, M","type":"Markt"},"district":{"key":"09187","name":"Rosenheim","type":"Landkreis"},"federalState":{"key":"09","name":"Bayern"}},{"name":"Siebenbürgenweg","postalCode":"83052","locality":"Bruckmühl","municipality":{"key":"09187122","name":"Bruckmühl, M","type":"Markt"},"district":{"key":"09187","name":"Rosenheim","type":"Landkreis"},"federalState":{"key":"09","name":"Bayern"}},{"name":"Siedlerstr.","postalCode":"83052","locality":"Bruckmühl","municipality":{"key":"09187122","name":"Bruckmühl, M","type":"Markt"},"district":{"key":"09187","name":"Rosenheim","type":"Landkreis"},"federalState":{"key":"09","name":"Bayern"}},{"name":"Siemensstr.","postalCode":"83052","locality":"Bruckmühl","municipality":{"key":"09187122","name":"Bruckmühl, M","type":"Markt"},"district":{"key":"09187","name":"Rosenheim","type":"Landkreis"},"federalState":{"key":"09","name":"Bayern"}},{"name":"Sonnenstr.","postalCode":"83052","locality":"Bruckmühl","municipality":{"key":"09187122","name":"Bruckmühl, M","type":"Markt"},"district":{"key":"09187","name":"Rosenheim","type":"Landkreis"},"federalState":{"key":"09","name":"Bayern"}},{"name":"Sonnenwiechser Str.","postalCode":"83052","locality":"Bruckmühl","municipality":{"key":"09187122","name":"Bruckmühl, M","type":"Markt"},"district":{"key":"09187","name":"Rosenheim","type":"Landkreis"},"federalState":{"key":"09","name":"Bayern"}},{"name":"Sperberstr.","postalCode":"83052","locality":"Bruckmühl","municipality":{"key":"09187122","name":"Bruckmühl, M","type":"Markt"},"district":{"key":"09187","name":"Rosenheim","type":"Landkreis"},"federalState":{"key":"09","name":"Bayern"}},{"name":"Stachöd","postalCode":"83052","locality":"Bruckmühl","municipality":{"key":"09187122","name":"Bruckmühl, M","type":"Markt"},"district":{"key":"09187","name":"Rosenheim","type":"Landkreis"},"federalState":{"key":"09","name":"Bayern"}},{"name":"Stachöderweg","postalCode":"83052","locality":"Bruckmühl","municipality":{"key":"09187122","name":"Bruckmühl, M","type":"Markt"},"district":{"key":"09187","name":"Rosenheim","type":"Landkreis"},"federalState":{"key":"09","name":"Bayern"}},{"name":"Starenweg","postalCode":"83052","locality":"Bruckmühl","municipality":{"key":"09187122","name":"Bruckmühl, M","type":"Markt"},"district":{"key":"09187","name":"Rosenheim","type":"Landkreis"},"federalState":{"key":"09","name":"Bayern"}},{"name":"Steigfeldweg","postalCode":"83052","locality":"Bruckmühl","municipality":{"key":"09187122","name":"Bruckmühl, M","type":"Markt"},"district":{"key":"09187","name":"Rosenheim","type":"Landkreis"},"federalState":{"key":"09","name":"Bayern"}},{"name":"St.-Martin-Str.","postalCode":"83052","locality":"Bruckmühl","municipality":{"key":"09187122","name":"Bruckmühl, M","type":"Markt"},"district":{"key":"09187","name":"Rosenheim","type":"Landkreis"},"federalState":{"key":"09","name":"Bayern"}},{"name":"Str.näckerweg","postalCode":"83052","locality":"Bruckmühl","municipality":{"key":"09187122","name":"Bruckmühl, M","type":"Markt"},"district":{"key":"09187","name":"Rosenheim","type":"Landkreis"},"federalState":{"key":"09","name":"Bayern"}},{"name":"Sudetenstr.","postalCode":"83052","locality":"Bruckmühl","municipality":{"key":"09187122","name":"Bruckmühl, M","type":"Markt"},"district":{"key":"09187","name":"Rosenheim","type":"Landkreis"},"federalState":{"key":"09","name":"Bayern"}},{"name":"Sulzbergstr.","postalCode":"83052","locality":"Bruckmühl","municipality":{"key":"09187122","name":"Bruckmühl, M","type":"Markt"},"district":{"key":"09187","name":"Rosenheim","type":"Landkreis"},"federalState":{"key":"09","name":"Bayern"}},{"name":"Tannenweg","postalCode":"83052","locality":"Bruckmühl","municipality":{"key":"09187122","name":"Bruckmühl, M","type":"Markt"},"district":{"key":"09187","name":"Rosenheim","type":"Landkreis"},"federalState":{"key":"09","name":"Bayern"}},{"name":"Thalhamer Str.","postalCode":"83052","locality":"Bruckmühl","municipality":{"key":"09187122","name":"Bruckmühl, M","type":"Markt"},"district":{"key":"09187","name":"Rosenheim","type":"Landkreis"},"federalState":{"key":"09","name":"Bayern"}},{"name":"Trebnitzer Str.","postalCode":"83052","locality":"Bruckmühl","municipality":{"key":"09187122","name":"Bruckmühl, M","type":"Markt"},"district":{"key":"09187","name":"Rosenheim","type":"Landkreis"},"federalState":{"key":"09","name":"Bayern"}},{"name":"Troppauer Str.","postalCode":"83052","locality":"Bruckmühl","municipality":{"key":"09187122","name":"Bruckmühl, M","type":"Markt"},"district":{"key":"09187","name":"Rosenheim","type":"Landkreis"},"federalState":{"key":"09","name":"Bayern"}},{"name":"Tulpenstr.","postalCode":"83052","locality":"Bruckmühl","municipality":{"key":"09187122","name":"Bruckmühl, M","type":"Markt"},"district":{"key":"09187","name":"Rosenheim","type":"Landkreis"},"federalState":{"key":"09","name":"Bayern"}},{"name":"Uhlandweg","postalCode":"83052","locality":"Bruckmühl","municipality":{"key":"09187122","name":"Bruckmühl, M","type":"Markt"},"district":{"key":"09187","name":"Rosenheim","type":"Landkreis"},"federalState":{"key":"09","name":"Bayern"}},{"name":"Vagenerau Weg","postalCode":"83052","locality":"Bruckmühl","municipality":{"key":"09187122","name":"Bruckmühl, M","type":"Markt"},"district":{"key":"09187","name":"Rosenheim","type":"Landkreis"},"federalState":{"key":"09","name":"Bayern"}},{"name":"Vagener Str.","postalCode":"83052","locality":"Bruckmühl","municipality":{"key":"09187122","name":"Bruckmühl, M","type":"Markt"},"district":{"key":"09187","name":"Rosenheim","type":"Landkreis"},"federalState":{"key":"09","name":"Bayern"}},{"name":"Von-Eichendorff-Platz","postalCode":"83052","locality":"Bruckmühl","municipality":{"key":"09187122","name":"Bruckmühl, M","type":"Markt"},"district":{"key":"09187","name":"Rosenheim","type":"Landkreis"},"federalState":{"key":"09","name":"Bayern"}},{"name":"Wachtelweg","postalCode":"83052","locality":"Bruckmühl","municipality":{"key":"09187122","name":"Bruckmühl, M","type":"Markt"},"district":{"key":"09187","name":"Rosenheim","type":"Landkreis"},"federalState":{"key":"09","name":"Bayern"}},{"name":"Waither Str.","postalCode":"83052","locality":"Bruckmühl","municipality":{"key":"09187122","name":"Bruckmühl, M","type":"Markt"},"district":{"key":"09187","name":"Rosenheim","type":"Landkreis"},"federalState":{"key":"09","name":"Bayern"}},{"name":"Waldheimer Str.","postalCode":"83052","locality":"Bruckmühl","municipality":{"key":"09187122","name":"Bruckmühl, M","type":"Markt"},"district":{"key":"09187","name":"Rosenheim","type":"Landkreis"},"federalState":{"key":"09","name":"Bayern"}},{"name":"Waldweg","postalCode":"83052","locality":"Bruckmühl","municipality":{"key":"09187122","name":"Bruckmühl, M","type":"Markt"},"district":{"key":"09187","name":"Rosenheim","type":"Landkreis"},"federalState":{"key":"09","name":"Bayern"}},{"name":"Wallensteinweg","postalCode":"83052","locality":"Bruckmühl","municipality":{"key":"09187122","name":"Bruckmühl, M","type":"Markt"},"district":{"key":"09187","name":"Rosenheim","type":"Landkreis"},"federalState":{"key":"09","name":"Bayern"}},{"name":"Weberstr.","postalCode":"83052","locality":"Bruckmühl","municipality":{"key":"09187122","name":"Bruckmühl, M","type":"Markt"},"district":{"key":"09187","name":"Rosenheim","type":"Landkreis"},"federalState":{"key":"09","name":"Bayern"}},{"name":"Weidacher Str.","postalCode":"83052","locality":"Bruckmühl","municipality":{"key":"09187122","name":"Bruckmühl, M","type":"Markt"},"district":{"key":"09187","name":"Rosenheim","type":"Landkreis"},"federalState":{"key":"09","name":"Bayern"}},{"name":"Weihenlindener Str.","postalCode":"83052","locality":"Bruckmühl","municipality":{"key":"09187122","name":"Bruckmühl, M","type":"Markt"},"district":{"key":"09187","name":"Rosenheim","type":"Landkreis"},"federalState":{"key":"09","name":"Bayern"}},{"name":"Wendelsteinstr.","postalCode":"83052","locality":"Bruckmühl","municipality":{"key":"09187122","name":"Bruckmühl, M","type":"Markt"},"district":{"key":"09187","name":"Rosenheim","type":"Landkreis"},"federalState":{"key":"09","name":"Bayern"}},{"name":"Wernher-von-Braun-Str.","postalCode":"83052","locality":"Bruckmühl","municipality":{"key":"09187122","name":"Bruckmühl, M","type":"Markt"},"district":{"key":"09187","name":"Rosenheim","type":"Landkreis"},"federalState":{"key":"09","name":"Bayern"}},{"name":"Wertacher Str.","postalCode":"83052","locality":"Bruckmühl","municipality":{"key":"09187122","name":"Bruckmühl, M","type":"Markt"},"district":{"key":"09187","name":"Rosenheim","type":"Landkreis"},"federalState":{"key":"09","name":"Bayern"}},{"name":"Wimmerweg","postalCode":"83052","locality":"Bruckmühl","municipality":{"key":"09187122","name":"Bruckmühl, M","type":"Markt"},"district":{"key":"09187","name":"Rosenheim","type":"Landkreis"},"federalState":{"key":"09","name":"Bayern"}},{"name":"Zum Sportplatz","postalCode":"83052","locality":"Bruckmühl","municipality":{"key":"09187122","name":"Bruckmühl, M","type":"Markt"},"district":{"key":"09187","name":"Rosenheim","type":"Landkreis"},"federalState":{"key":"09","name":"Bayern"}},{"name":"Zur alten Ziegelei","postalCode":"83052","locality":"Bruckmühl","municipality":{"key":"09187122","name":"Bruckmühl, M","type":"Markt"},"district":{"key":"09187","name":"Rosenheim","type":"Landkreis"},"federalState":{"key":"09","name":"Bayern"}},{"name":"Äußere Münchener Str.","postalCode":"83022","locality":"Rosenheim","municipality":{"key":"09163000","name":"Rosenheim","type":"Kreisfreie_Stadt"},"district":{"key":"09163","name":"Rosenheim","type":"Kreisfreie_Stadt"},"federalState":{"key":"09","name":"Bayern"}},{"name":"Äußere Münchener Str.","postalCode":"83026","locality":"Rosenheim","municipality":{"key":"09163000","name":"Rosenheim","type":"Kreisfreie_Stadt"},"district":{"key":"09163","name":"Rosenheim","type":"Kreisfreie_Stadt"},"federalState":{"key":"09","name":"Bayern"}},{"name":"Äußere Oberaustr.","postalCode":"83026","locality":"Rosenheim","municipality":{"key":"09163000","name":"Rosenheim","type":"Kreisfreie_Stadt"},"district":{"key":"09163","name":"Rosenheim","type":"Kreisfreie_Stadt"},"federalState":{"key":"09","name":"Bayern"}},{"name":"Östlicher Dammweg","postalCode":"83052","locality":"Bruckmühl","municipality":{"key":"09187122","name":"Bruckmühl, M","type":"Markt"},"district":{"key":"09187","name":"Rosenheim","type":"Landkreis"},"federalState":{"key":"09","name":"Bayern"}},]