[{"name":"Ahornstr.","postalCode":"73667","locality":"Kaisersbach","municipality":{"key":"08119037","name":"Kaisersbach","type":"Kreisangehörige_Gemeinde"},"district":{"key":"08119","name":"Rems-Murr-Kreis","type":"Landkreis"},"federalState":{"key":"08","name":"Baden-Württemberg"}},{"name":"Aichstruter Str.","postalCode":"73667","locality":"Kaisersbach","municipality":{"key":"08119037","name":"Kaisersbach","type":"Kreisangehörige_Gemeinde"},"district":{"key":"08119","name":"Rems-Murr-Kreis","type":"Landkreis"},"federalState":{"key":"08","name":"Baden-Württemberg"}},{"name":"Amselweg","postalCode":"73667","locality":"Kaisersbach","municipality":{"key":"08119037","name":"Kaisersbach","type":"Kreisangehörige_Gemeinde"},"district":{"key":"08119","name":"Rems-Murr-Kreis","type":"Landkreis"},"federalState":{"key":"08","name":"Baden-Württemberg"}},{"name":"Anwanden","postalCode":"73667","locality":"Kaisersbach","municipality":{"key":"08119037","name":"Kaisersbach","type":"Kreisangehörige_Gemeinde"},"district":{"key":"08119","name":"Rems-Murr-Kreis","type":"Landkreis"},"federalState":{"key":"08","name":"Baden-Württemberg"}},{"name":"Baumblüte","postalCode":"73667","locality":"Kaisersbach","municipality":{"key":"08119037","name":"Kaisersbach","type":"Kreisangehörige_Gemeinde"},"district":{"key":"08119","name":"Rems-Murr-Kreis","type":"Landkreis"},"federalState":{"key":"08","name":"Baden-Württemberg"}},{"name":"Birkenweg","postalCode":"73667","locality":"Kaisersbach","municipality":{"key":"08119037","name":"Kaisersbach","type":"Kreisangehörige_Gemeinde"},"district":{"key":"08119","name":"Rems-Murr-Kreis","type":"Landkreis"},"federalState":{"key":"08","name":"Baden-Württemberg"}},{"name":"Birkhofweg","postalCode":"73553","locality":"Kaisersbach","municipality":{"key":"08119037","name":"Kaisersbach","type":"Kreisangehörige_Gemeinde"},"district":{"key":"08119","name":"Rems-Murr-Kreis","type":"Landkreis"},"federalState":{"key":"08","name":"Baden-Württemberg"}},{"name":"Blumenstr.","postalCode":"73667","locality":"Kaisersbach","municipality":{"key":"08119037","name":"Kaisersbach","type":"Kreisangehörige_Gemeinde"},"district":{"key":"08119","name":"Rems-Murr-Kreis","type":"Landkreis"},"federalState":{"key":"08","name":"Baden-Württemberg"}},{"name":"Breitäckerstr.","postalCode":"73667","locality":"Kaisersbach","municipality":{"key":"08119037","name":"Kaisersbach","type":"Kreisangehörige_Gemeinde"},"district":{"key":"08119","name":"Rems-Murr-Kreis","type":"Landkreis"},"federalState":{"key":"08","name":"Baden-Württemberg"}},{"name":"Bruch","postalCode":"73667","locality":"Kaisersbach","municipality":{"key":"08119037","name":"Kaisersbach","type":"Kreisangehörige_Gemeinde"},"district":{"key":"08119","name":"Rems-Murr-Kreis","type":"Landkreis"},"federalState":{"key":"08","name":"Baden-Württemberg"}},{"name":"Brunnenstr.","postalCode":"73667","locality":"Kaisersbach","municipality":{"key":"08119037","name":"Kaisersbach","type":"Kreisangehörige_Gemeinde"},"district":{"key":"08119","name":"Rems-Murr-Kreis","type":"Landkreis"},"federalState":{"key":"08","name":"Baden-Württemberg"}},{"name":"Brunnenweg","postalCode":"73667","locality":"Kaisersbach","municipality":{"key":"08119037","name":"Kaisersbach","type":"Kreisangehörige_Gemeinde"},"district":{"key":"08119","name":"Rems-Murr-Kreis","type":"Landkreis"},"federalState":{"key":"08","name":"Baden-Württemberg"}},{"name":"Bühlweg","postalCode":"73667","locality":"Kaisersbach","municipality":{"key":"08119037","name":"Kaisersbach","type":"Kreisangehörige_Gemeinde"},"district":{"key":"08119","name":"Rems-Murr-Kreis","type":"Landkreis"},"federalState":{"key":"08","name":"Baden-Württemberg"}},{"name":"Dorfstr.","postalCode":"73667","locality":"Kaisersbach","municipality":{"key":"08119037","name":"Kaisersbach","type":"Kreisangehörige_Gemeinde"},"district":{"key":"08119","name":"Rems-Murr-Kreis","type":"Landkreis"},"federalState":{"key":"08","name":"Baden-Württemberg"}},{"name":"Ebersberg","postalCode":"73667","locality":"Kaisersbach","municipality":{"key":"08119037","name":"Kaisersbach","type":"Kreisangehörige_Gemeinde"},"district":{"key":"08119","name":"Rems-Murr-Kreis","type":"Landkreis"},"federalState":{"key":"08","name":"Baden-Württemberg"}},{"name":"Eichberg","postalCode":"73667","locality":"Kaisersbach","municipality":{"key":"08119037","name":"Kaisersbach","type":"Kreisangehörige_Gemeinde"},"district":{"key":"08119","name":"Rems-Murr-Kreis","type":"Landkreis"},"federalState":{"key":"08","name":"Baden-Württemberg"}},{"name":"Eichenweg","postalCode":"73667","locality":"Kaisersbach","municipality":{"key":"08119037","name":"Kaisersbach","type":"Kreisangehörige_Gemeinde"},"district":{"key":"08119","name":"Rems-Murr-Kreis","type":"Landkreis"},"federalState":{"key":"08","name":"Baden-Württemberg"}},{"name":"Fichtenweg","postalCode":"73667","locality":"Kaisersbach","municipality":{"key":"08119037","name":"Kaisersbach","type":"Kreisangehörige_Gemeinde"},"district":{"key":"08119","name":"Rems-Murr-Kreis","type":"Landkreis"},"federalState":{"key":"08","name":"Baden-Württemberg"}},{"name":"Fliederweg","postalCode":"73667","locality":"Kaisersbach","municipality":{"key":"08119037","name":"Kaisersbach","type":"Kreisangehörige_Gemeinde"},"district":{"key":"08119","name":"Rems-Murr-Kreis","type":"Landkreis"},"federalState":{"key":"08","name":"Baden-Württemberg"}},{"name":"Forststr.","postalCode":"73667","locality":"Kaisersbach","municipality":{"key":"08119037","name":"Kaisersbach","type":"Kreisangehörige_Gemeinde"},"district":{"key":"08119","name":"Rems-Murr-Kreis","type":"Landkreis"},"federalState":{"key":"08","name":"Baden-Württemberg"}},{"name":"Fratzenwiesenweg","postalCode":"73667","locality":"Kaisersbach","municipality":{"key":"08119037","name":"Kaisersbach","type":"Kreisangehörige_Gemeinde"},"district":{"key":"08119","name":"Rems-Murr-Kreis","type":"Landkreis"},"federalState":{"key":"08","name":"Baden-Württemberg"}},{"name":"Friedhofweg","postalCode":"73667","locality":"Kaisersbach","municipality":{"key":"08119037","name":"Kaisersbach","type":"Kreisangehörige_Gemeinde"},"district":{"key":"08119","name":"Rems-Murr-Kreis","type":"Landkreis"},"federalState":{"key":"08","name":"Baden-Württemberg"}},{"name":"Gallenrainweg","postalCode":"73667","locality":"Kaisersbach","municipality":{"key":"08119037","name":"Kaisersbach","type":"Kreisangehörige_Gemeinde"},"district":{"key":"08119","name":"Rems-Murr-Kreis","type":"Landkreis"},"federalState":{"key":"08","name":"Baden-Württemberg"}},{"name":"Gartenstr.","postalCode":"73667","locality":"Kaisersbach","municipality":{"key":"08119037","name":"Kaisersbach","type":"Kreisangehörige_Gemeinde"},"district":{"key":"08119","name":"Rems-Murr-Kreis","type":"Landkreis"},"federalState":{"key":"08","name":"Baden-Württemberg"}},{"name":"Gauchhauser Sträßle","postalCode":"73667","locality":"Kaisersbach","municipality":{"key":"08119037","name":"Kaisersbach","type":"Kreisangehörige_Gemeinde"},"district":{"key":"08119","name":"Rems-Murr-Kreis","type":"Landkreis"},"federalState":{"key":"08","name":"Baden-Württemberg"}},{"name":"Gebenbachweg","postalCode":"73667","locality":"Kaisersbach","municipality":{"key":"08119037","name":"Kaisersbach","type":"Kreisangehörige_Gemeinde"},"district":{"key":"08119","name":"Rems-Murr-Kreis","type":"Landkreis"},"federalState":{"key":"08","name":"Baden-Württemberg"}},{"name":"Gebenweiler Sägmühle","postalCode":"73667","locality":"Kaisersbach","municipality":{"key":"08119037","name":"Kaisersbach","type":"Kreisangehörige_Gemeinde"},"district":{"key":"08119","name":"Rems-Murr-Kreis","type":"Landkreis"},"federalState":{"key":"08","name":"Baden-Württemberg"}},{"name":"Gehren","postalCode":"73667","locality":"Kaisersbach","municipality":{"key":"08119037","name":"Kaisersbach","type":"Kreisangehörige_Gemeinde"},"district":{"key":"08119","name":"Rems-Murr-Kreis","type":"Landkreis"},"federalState":{"key":"08","name":"Baden-Württemberg"}},{"name":"Geldmachersklingenweg","postalCode":"73667","locality":"Kaisersbach","municipality":{"key":"08119037","name":"Kaisersbach","type":"Kreisangehörige_Gemeinde"},"district":{"key":"08119","name":"Rems-Murr-Kreis","type":"Landkreis"},"federalState":{"key":"08","name":"Baden-Württemberg"}},{"name":"Ginsterweg","postalCode":"73667","locality":"Kaisersbach","municipality":{"key":"08119037","name":"Kaisersbach","type":"Kreisangehörige_Gemeinde"},"district":{"key":"08119","name":"Rems-Murr-Kreis","type":"Landkreis"},"federalState":{"key":"08","name":"Baden-Württemberg"}},{"name":"Grasgehren","postalCode":"73667","locality":"Kaisersbach","municipality":{"key":"08119037","name":"Kaisersbach","type":"Kreisangehörige_Gemeinde"},"district":{"key":"08119","name":"Rems-Murr-Kreis","type":"Landkreis"},"federalState":{"key":"08","name":"Baden-Württemberg"}},{"name":"Grasgehrenweg","postalCode":"73667","locality":"Kaisersbach","municipality":{"key":"08119037","name":"Kaisersbach","type":"Kreisangehörige_Gemeinde"},"district":{"key":"08119","name":"Rems-Murr-Kreis","type":"Landkreis"},"federalState":{"key":"08","name":"Baden-Württemberg"}},{"name":"Grenzweg","postalCode":"73667","locality":"Kaisersbach","municipality":{"key":"08119037","name":"Kaisersbach","type":"Kreisangehörige_Gemeinde"},"district":{"key":"08119","name":"Rems-Murr-Kreis","type":"Landkreis"},"federalState":{"key":"08","name":"Baden-Württemberg"}},{"name":"Gschwender Str.","postalCode":"73667","locality":"Kaisersbach","municipality":{"key":"08119037","name":"Kaisersbach","type":"Kreisangehörige_Gemeinde"},"district":{"key":"08119","name":"Rems-Murr-Kreis","type":"Landkreis"},"federalState":{"key":"08","name":"Baden-Württemberg"}},{"name":"Hägerhof","postalCode":"73667","locality":"Kaisersbach","municipality":{"key":"08119037","name":"Kaisersbach","type":"Kreisangehörige_Gemeinde"},"district":{"key":"08119","name":"Rems-Murr-Kreis","type":"Landkreis"},"federalState":{"key":"08","name":"Baden-Württemberg"}},{"name":"Haldenäcker","postalCode":"73667","locality":"Kaisersbach","municipality":{"key":"08119037","name":"Kaisersbach","type":"Kreisangehörige_Gemeinde"},"district":{"key":"08119","name":"Rems-Murr-Kreis","type":"Landkreis"},"federalState":{"key":"08","name":"Baden-Württemberg"}},{"name":"Haldenweg","postalCode":"73667","locality":"Kaisersbach","municipality":{"key":"08119037","name":"Kaisersbach","type":"Kreisangehörige_Gemeinde"},"district":{"key":"08119","name":"Rems-Murr-Kreis","type":"Landkreis"},"federalState":{"key":"08","name":"Baden-Württemberg"}},{"name":"Hauptstr.","postalCode":"73667","locality":"Kaisersbach","municipality":{"key":"08119037","name":"Kaisersbach","type":"Kreisangehörige_Gemeinde"},"district":{"key":"08119","name":"Rems-Murr-Kreis","type":"Landkreis"},"federalState":{"key":"08","name":"Baden-Württemberg"}},{"name":"Hauweg","postalCode":"73667","locality":"Kaisersbach","municipality":{"key":"08119037","name":"Kaisersbach","type":"Kreisangehörige_Gemeinde"},"district":{"key":"08119","name":"Rems-Murr-Kreis","type":"Landkreis"},"federalState":{"key":"08","name":"Baden-Württemberg"}},{"name":"Heidenbühlstr.","postalCode":"73667","locality":"Kaisersbach","municipality":{"key":"08119037","name":"Kaisersbach","type":"Kreisangehörige_Gemeinde"},"district":{"key":"08119","name":"Rems-Murr-Kreis","type":"Landkreis"},"federalState":{"key":"08","name":"Baden-Württemberg"}},{"name":"Höfenäckerle","postalCode":"73667","locality":"Kaisersbach","municipality":{"key":"08119037","name":"Kaisersbach","type":"Kreisangehörige_Gemeinde"},"district":{"key":"08119","name":"Rems-Murr-Kreis","type":"Landkreis"},"federalState":{"key":"08","name":"Baden-Württemberg"}},{"name":"Holunderweg","postalCode":"73667","locality":"Kaisersbach","municipality":{"key":"08119037","name":"Kaisersbach","type":"Kreisangehörige_Gemeinde"},"district":{"key":"08119","name":"Rems-Murr-Kreis","type":"Landkreis"},"federalState":{"key":"08","name":"Baden-Württemberg"}},{"name":"Holzbuckelweg","postalCode":"73667","locality":"Kaisersbach","municipality":{"key":"08119037","name":"Kaisersbach","type":"Kreisangehörige_Gemeinde"},"district":{"key":"08119","name":"Rems-Murr-Kreis","type":"Landkreis"},"federalState":{"key":"08","name":"Baden-Württemberg"}},{"name":"Im Brunnen","postalCode":"73667","locality":"Kaisersbach","municipality":{"key":"08119037","name":"Kaisersbach","type":"Kreisangehörige_Gemeinde"},"district":{"key":"08119","name":"Rems-Murr-Kreis","type":"Landkreis"},"federalState":{"key":"08","name":"Baden-Württemberg"}},{"name":"Im Feldle","postalCode":"73667","locality":"Kaisersbach","municipality":{"key":"08119037","name":"Kaisersbach","type":"Kreisangehörige_Gemeinde"},"district":{"key":"08119","name":"Rems-Murr-Kreis","type":"Landkreis"},"federalState":{"key":"08","name":"Baden-Württemberg"}},{"name":"Kirchgasse","postalCode":"73667","locality":"Kaisersbach","municipality":{"key":"08119037","name":"Kaisersbach","type":"Kreisangehörige_Gemeinde"},"district":{"key":"08119","name":"Rems-Murr-Kreis","type":"Landkreis"},"federalState":{"key":"08","name":"Baden-Württemberg"}},{"name":"Klösterle","postalCode":"73667","locality":"Kaisersbach","municipality":{"key":"08119037","name":"Kaisersbach","type":"Kreisangehörige_Gemeinde"},"district":{"key":"08119","name":"Rems-Murr-Kreis","type":"Landkreis"},"federalState":{"key":"08","name":"Baden-Württemberg"}},{"name":"Kronweg","postalCode":"73667","locality":"Kaisersbach","municipality":{"key":"08119037","name":"Kaisersbach","type":"Kreisangehörige_Gemeinde"},"district":{"key":"08119","name":"Rems-Murr-Kreis","type":"Landkreis"},"federalState":{"key":"08","name":"Baden-Württemberg"}},{"name":"Lauchersfeld","postalCode":"73667","locality":"Kaisersbach","municipality":{"key":"08119037","name":"Kaisersbach","type":"Kreisangehörige_Gemeinde"},"district":{"key":"08119","name":"Rems-Murr-Kreis","type":"Landkreis"},"federalState":{"key":"08","name":"Baden-Württemberg"}},{"name":"Ledergäßle","postalCode":"73667","locality":"Kaisersbach","municipality":{"key":"08119037","name":"Kaisersbach","type":"Kreisangehörige_Gemeinde"},"district":{"key":"08119","name":"Rems-Murr-Kreis","type":"Landkreis"},"federalState":{"key":"08","name":"Baden-Württemberg"}},{"name":"Leinäcker","postalCode":"73667","locality":"Kaisersbach","municipality":{"key":"08119037","name":"Kaisersbach","type":"Kreisangehörige_Gemeinde"},"district":{"key":"08119","name":"Rems-Murr-Kreis","type":"Landkreis"},"federalState":{"key":"08","name":"Baden-Württemberg"}},{"name":"Lerchenweg","postalCode":"73667","locality":"Kaisersbach","municipality":{"key":"08119037","name":"Kaisersbach","type":"Kreisangehörige_Gemeinde"},"district":{"key":"08119","name":"Rems-Murr-Kreis","type":"Landkreis"},"federalState":{"key":"08","name":"Baden-Württemberg"}},{"name":"Lichtestr.","postalCode":"73667","locality":"Kaisersbach","municipality":{"key":"08119037","name":"Kaisersbach","type":"Kreisangehörige_Gemeinde"},"district":{"key":"08119","name":"Rems-Murr-Kreis","type":"Landkreis"},"federalState":{"key":"08","name":"Baden-Württemberg"}},{"name":"Lindenstr.","postalCode":"73667","locality":"Kaisersbach","municipality":{"key":"08119037","name":"Kaisersbach","type":"Kreisangehörige_Gemeinde"},"district":{"key":"08119","name":"Rems-Murr-Kreis","type":"Landkreis"},"federalState":{"key":"08","name":"Baden-Württemberg"}},{"name":"Mainhardtholzweg","postalCode":"73667","locality":"Kaisersbach","municipality":{"key":"08119037","name":"Kaisersbach","type":"Kreisangehörige_Gemeinde"},"district":{"key":"08119","name":"Rems-Murr-Kreis","type":"Landkreis"},"federalState":{"key":"08","name":"Baden-Württemberg"}},{"name":"Meisenweg","postalCode":"73667","locality":"Kaisersbach","municipality":{"key":"08119037","name":"Kaisersbach","type":"Kreisangehörige_Gemeinde"},"district":{"key":"08119","name":"Rems-Murr-Kreis","type":"Landkreis"},"federalState":{"key":"08","name":"Baden-Württemberg"}},{"name":"Menzles","postalCode":"73667","locality":"Kaisersbach","municipality":{"key":"08119037","name":"Kaisersbach","type":"Kreisangehörige_Gemeinde"},"district":{"key":"08119","name":"Rems-Murr-Kreis","type":"Landkreis"},"federalState":{"key":"08","name":"Baden-Württemberg"}},{"name":"Mönchhof","postalCode":"73667","locality":"Kaisersbach","municipality":{"key":"08119037","name":"Kaisersbach","type":"Kreisangehörige_Gemeinde"},"district":{"key":"08119","name":"Rems-Murr-Kreis","type":"Landkreis"},"federalState":{"key":"08","name":"Baden-Württemberg"}},{"name":"Nassgeigerweg","postalCode":"73667","locality":"Kaisersbach","municipality":{"key":"08119037","name":"Kaisersbach","type":"Kreisangehörige_Gemeinde"},"district":{"key":"08119","name":"Rems-Murr-Kreis","type":"Landkreis"},"federalState":{"key":"08","name":"Baden-Württemberg"}},{"name":"Obere Bruck","postalCode":"73667","locality":"Kaisersbach","municipality":{"key":"08119037","name":"Kaisersbach","type":"Kreisangehörige_Gemeinde"},"district":{"key":"08119","name":"Rems-Murr-Kreis","type":"Landkreis"},"federalState":{"key":"08","name":"Baden-Württemberg"}},{"name":"Ortswiesenweg","postalCode":"73667","locality":"Kaisersbach","municipality":{"key":"08119037","name":"Kaisersbach","type":"Kreisangehörige_Gemeinde"},"district":{"key":"08119","name":"Rems-Murr-Kreis","type":"Landkreis"},"federalState":{"key":"08","name":"Baden-Württemberg"}},{"name":"Panoramaweg","postalCode":"73667","locality":"Kaisersbach","municipality":{"key":"08119037","name":"Kaisersbach","type":"Kreisangehörige_Gemeinde"},"district":{"key":"08119","name":"Rems-Murr-Kreis","type":"Landkreis"},"federalState":{"key":"08","name":"Baden-Württemberg"}},{"name":"Postwegle","postalCode":"73667","locality":"Kaisersbach","municipality":{"key":"08119037","name":"Kaisersbach","type":"Kreisangehörige_Gemeinde"},"district":{"key":"08119","name":"Rems-Murr-Kreis","type":"Landkreis"},"federalState":{"key":"08","name":"Baden-Württemberg"}},{"name":"Reißäckerwegle","postalCode":"73667","locality":"Kaisersbach","municipality":{"key":"08119037","name":"Kaisersbach","type":"Kreisangehörige_Gemeinde"},"district":{"key":"08119","name":"Rems-Murr-Kreis","type":"Landkreis"},"federalState":{"key":"08","name":"Baden-Württemberg"}},{"name":"Rodelweg","postalCode":"73667","locality":"Kaisersbach","municipality":{"key":"08119037","name":"Kaisersbach","type":"Kreisangehörige_Gemeinde"},"district":{"key":"08119","name":"Rems-Murr-Kreis","type":"Landkreis"},"federalState":{"key":"08","name":"Baden-Württemberg"}},{"name":"Rosenstr.","postalCode":"73667","locality":"Kaisersbach","municipality":{"key":"08119037","name":"Kaisersbach","type":"Kreisangehörige_Gemeinde"},"district":{"key":"08119","name":"Rems-Murr-Kreis","type":"Landkreis"},"federalState":{"key":"08","name":"Baden-Württemberg"}},{"name":"Rossklingenweg","postalCode":"73667","locality":"Kaisersbach","municipality":{"key":"08119037","name":"Kaisersbach","type":"Kreisangehörige_Gemeinde"},"district":{"key":"08119","name":"Rems-Murr-Kreis","type":"Landkreis"},"federalState":{"key":"08","name":"Baden-Württemberg"}},{"name":"Rotenmad","postalCode":"73667","locality":"Kaisersbach","municipality":{"key":"08119037","name":"Kaisersbach","type":"Kreisangehörige_Gemeinde"},"district":{"key":"08119","name":"Rems-Murr-Kreis","type":"Landkreis"},"federalState":{"key":"08","name":"Baden-Württemberg"}},{"name":"Salbengehren","postalCode":"73667","locality":"Kaisersbach","municipality":{"key":"08119037","name":"Kaisersbach","type":"Kreisangehörige_Gemeinde"},"district":{"key":"08119","name":"Rems-Murr-Kreis","type":"Landkreis"},"federalState":{"key":"08","name":"Baden-Württemberg"}},{"name":"Salbengehrenweg","postalCode":"73667","locality":"Kaisersbach","municipality":{"key":"08119037","name":"Kaisersbach","type":"Kreisangehörige_Gemeinde"},"district":{"key":"08119","name":"Rems-Murr-Kreis","type":"Landkreis"},"federalState":{"key":"08","name":"Baden-Württemberg"}},{"name":"Sauklinge","postalCode":"73667","locality":"Kaisersbach","municipality":{"key":"08119037","name":"Kaisersbach","type":"Kreisangehörige_Gemeinde"},"district":{"key":"08119","name":"Rems-Murr-Kreis","type":"Landkreis"},"federalState":{"key":"08","name":"Baden-Württemberg"}},{"name":"Schillinghof","postalCode":"73553","locality":"Kaisersbach","municipality":{"key":"08119037","name":"Kaisersbach","type":"Kreisangehörige_Gemeinde"},"district":{"key":"08119","name":"Rems-Murr-Kreis","type":"Landkreis"},"federalState":{"key":"08","name":"Baden-Württemberg"}},{"name":"Schwabenpark","postalCode":"73667","locality":"Kaisersbach","municipality":{"key":"08119037","name":"Kaisersbach","type":"Kreisangehörige_Gemeinde"},"district":{"key":"08119","name":"Rems-Murr-Kreis","type":"Landkreis"},"federalState":{"key":"08","name":"Baden-Württemberg"}},{"name":"Schwarzbachweg","postalCode":"73667","locality":"Kaisersbach","municipality":{"key":"08119037","name":"Kaisersbach","type":"Kreisangehörige_Gemeinde"},"district":{"key":"08119","name":"Rems-Murr-Kreis","type":"Landkreis"},"federalState":{"key":"08","name":"Baden-Württemberg"}},{"name":"Schwarzgehrenweg","postalCode":"73667","locality":"Kaisersbach","municipality":{"key":"08119037","name":"Kaisersbach","type":"Kreisangehörige_Gemeinde"},"district":{"key":"08119","name":"Rems-Murr-Kreis","type":"Landkreis"},"federalState":{"key":"08","name":"Baden-Württemberg"}},{"name":"Seesteige","postalCode":"73667","locality":"Kaisersbach","municipality":{"key":"08119037","name":"Kaisersbach","type":"Kreisangehörige_Gemeinde"},"district":{"key":"08119","name":"Rems-Murr-Kreis","type":"Landkreis"},"federalState":{"key":"08","name":"Baden-Württemberg"}},{"name":"Silberteichweg","postalCode":"73667","locality":"Kaisersbach","municipality":{"key":"08119037","name":"Kaisersbach","type":"Kreisangehörige_Gemeinde"},"district":{"key":"08119","name":"Rems-Murr-Kreis","type":"Landkreis"},"federalState":{"key":"08","name":"Baden-Württemberg"}},{"name":"Sommerrain","postalCode":"73667","locality":"Kaisersbach","municipality":{"key":"08119037","name":"Kaisersbach","type":"Kreisangehörige_Gemeinde"},"district":{"key":"08119","name":"Rems-Murr-Kreis","type":"Landkreis"},"federalState":{"key":"08","name":"Baden-Württemberg"}},{"name":"Sonnenbühl","postalCode":"73667","locality":"Kaisersbach","municipality":{"key":"08119037","name":"Kaisersbach","type":"Kreisangehörige_Gemeinde"},"district":{"key":"08119","name":"Rems-Murr-Kreis","type":"Landkreis"},"federalState":{"key":"08","name":"Baden-Württemberg"}},{"name":"Sonnenhalde","postalCode":"73667","locality":"Kaisersbach","municipality":{"key":"08119037","name":"Kaisersbach","type":"Kreisangehörige_Gemeinde"},"district":{"key":"08119","name":"Rems-Murr-Kreis","type":"Landkreis"},"federalState":{"key":"08","name":"Baden-Württemberg"}},{"name":"Spatzenhof","postalCode":"73667","locality":"Kaisersbach","municipality":{"key":"08119037","name":"Kaisersbach","type":"Kreisangehörige_Gemeinde"},"district":{"key":"08119","name":"Rems-Murr-Kreis","type":"Landkreis"},"federalState":{"key":"08","name":"Baden-Württemberg"}},{"name":"Starenweg","postalCode":"73667","locality":"Kaisersbach","municipality":{"key":"08119037","name":"Kaisersbach","type":"Kreisangehörige_Gemeinde"},"district":{"key":"08119","name":"Rems-Murr-Kreis","type":"Landkreis"},"federalState":{"key":"08","name":"Baden-Württemberg"}},{"name":"Stauseestr.","postalCode":"73553","locality":"Kaisersbach","municipality":{"key":"08119037","name":"Kaisersbach","type":"Kreisangehörige_Gemeinde"},"district":{"key":"08119","name":"Rems-Murr-Kreis","type":"Landkreis"},"federalState":{"key":"08","name":"Baden-Württemberg"}},{"name":"Steinbruchweg","postalCode":"73667","locality":"Kaisersbach","municipality":{"key":"08119037","name":"Kaisersbach","type":"Kreisangehörige_Gemeinde"},"district":{"key":"08119","name":"Rems-Murr-Kreis","type":"Landkreis"},"federalState":{"key":"08","name":"Baden-Württemberg"}},{"name":"Strohhof","postalCode":"73667","locality":"Kaisersbach","municipality":{"key":"08119037","name":"Kaisersbach","type":"Kreisangehörige_Gemeinde"},"district":{"key":"08119","name":"Rems-Murr-Kreis","type":"Landkreis"},"federalState":{"key":"08","name":"Baden-Württemberg"}},{"name":"Tulpenweg","postalCode":"73667","locality":"Kaisersbach","municipality":{"key":"08119037","name":"Kaisersbach","type":"Kreisangehörige_Gemeinde"},"district":{"key":"08119","name":"Rems-Murr-Kreis","type":"Landkreis"},"federalState":{"key":"08","name":"Baden-Württemberg"}},{"name":"Turmweg","postalCode":"73667","locality":"Kaisersbach","municipality":{"key":"08119037","name":"Kaisersbach","type":"Kreisangehörige_Gemeinde"},"district":{"key":"08119","name":"Rems-Murr-Kreis","type":"Landkreis"},"federalState":{"key":"08","name":"Baden-Württemberg"}},{"name":"Untere Bruck","postalCode":"73667","locality":"Kaisersbach","municipality":{"key":"08119037","name":"Kaisersbach","type":"Kreisangehörige_Gemeinde"},"district":{"key":"08119","name":"Rems-Murr-Kreis","type":"Landkreis"},"federalState":{"key":"08","name":"Baden-Württemberg"}},{"name":"Viehgasse","postalCode":"73667","locality":"Kaisersbach","municipality":{"key":"08119037","name":"Kaisersbach","type":"Kreisangehörige_Gemeinde"},"district":{"key":"08119","name":"Rems-Murr-Kreis","type":"Landkreis"},"federalState":{"key":"08","name":"Baden-Württemberg"}},{"name":"Voggenfeld","postalCode":"73667","locality":"Kaisersbach","municipality":{"key":"08119037","name":"Kaisersbach","type":"Kreisangehörige_Gemeinde"},"district":{"key":"08119","name":"Rems-Murr-Kreis","type":"Landkreis"},"federalState":{"key":"08","name":"Baden-Württemberg"}},{"name":"Wäschbachhangweg","postalCode":"73667","locality":"Kaisersbach","municipality":{"key":"08119037","name":"Kaisersbach","type":"Kreisangehörige_Gemeinde"},"district":{"key":"08119","name":"Rems-Murr-Kreis","type":"Landkreis"},"federalState":{"key":"08","name":"Baden-Württemberg"}},{"name":"Weidenbach","postalCode":"73667","locality":"Kaisersbach","municipality":{"key":"08119037","name":"Kaisersbach","type":"Kreisangehörige_Gemeinde"},"district":{"key":"08119","name":"Rems-Murr-Kreis","type":"Landkreis"},"federalState":{"key":"08","name":"Baden-Württemberg"}},{"name":"Weidenhof","postalCode":"73667","locality":"Kaisersbach","municipality":{"key":"08119037","name":"Kaisersbach","type":"Kreisangehörige_Gemeinde"},"district":{"key":"08119","name":"Rems-Murr-Kreis","type":"Landkreis"},"federalState":{"key":"08","name":"Baden-Württemberg"}},{"name":"Welzheimer Str.","postalCode":"73667","locality":"Kaisersbach","municipality":{"key":"08119037","name":"Kaisersbach","type":"Kreisangehörige_Gemeinde"},"district":{"key":"08119","name":"Rems-Murr-Kreis","type":"Landkreis"},"federalState":{"key":"08","name":"Baden-Württemberg"}},{"name":"Wiesensteighof","postalCode":"73667","locality":"Kaisersbach","municipality":{"key":"08119037","name":"Kaisersbach","type":"Kreisangehörige_Gemeinde"},"district":{"key":"08119","name":"Rems-Murr-Kreis","type":"Landkreis"},"federalState":{"key":"08","name":"Baden-Württemberg"}},{"name":"Wiesenweg","postalCode":"73667","locality":"Kaisersbach","municipality":{"key":"08119037","name":"Kaisersbach","type":"Kreisangehörige_Gemeinde"},"district":{"key":"08119","name":"Rems-Murr-Kreis","type":"Landkreis"},"federalState":{"key":"08","name":"Baden-Württemberg"}},{"name":"Wieslaufweg","postalCode":"73667","locality":"Kaisersbach","municipality":{"key":"08119037","name":"Kaisersbach","type":"Kreisangehörige_Gemeinde"},"district":{"key":"08119","name":"Rems-Murr-Kreis","type":"Landkreis"},"federalState":{"key":"08","name":"Baden-Württemberg"}},{"name":"Winnender Str.","postalCode":"73667","locality":"Kaisersbach","municipality":{"key":"08119037","name":"Kaisersbach","type":"Kreisangehörige_Gemeinde"},"district":{"key":"08119","name":"Rems-Murr-Kreis","type":"Landkreis"},"federalState":{"key":"08","name":"Baden-Württemberg"}},{"name":"Ziegelhütte","postalCode":"73667","locality":"Kaisersbach","municipality":{"key":"08119037","name":"Kaisersbach","type":"Kreisangehörige_Gemeinde"},"district":{"key":"08119","name":"Rems-Murr-Kreis","type":"Landkreis"},"federalState":{"key":"08","name":"Baden-Württemberg"}},]