[{"key":"10009595","name":"Bergwald","postalCode":"4933","locality":"Rütschelen","commune":{"key":"340","name":"Rütschelen","shortName":"Rütschelen"},"district":{"key":"244","name":"Verwaltungskreis Oberaargau"},"canton":{"key":"2","code":"BE","name":"Bern / Berne"},"status":"Real"},{"key":"10117835","name":"Bergwaldweg","postalCode":"4933","locality":"Rütschelen","commune":{"key":"340","name":"Rütschelen","shortName":"Rütschelen"},"district":{"key":"244","name":"Verwaltungskreis Oberaargau"},"canton":{"key":"2","code":"BE","name":"Bern / Berne"},"status":"Real"},{"key":"10062338","name":"Birkenweg","postalCode":"4933","locality":"Rütschelen","commune":{"key":"340","name":"Rütschelen","shortName":"Rütschelen"},"district":{"key":"244","name":"Verwaltungskreis Oberaargau"},"canton":{"key":"2","code":"BE","name":"Bern / Berne"},"status":"Real"},{"key":"10009596","name":"Bleienbachstrasse","postalCode":"4933","locality":"Rütschelen","commune":{"key":"340","name":"Rütschelen","shortName":"Rütschelen"},"district":{"key":"244","name":"Verwaltungskreis Oberaargau"},"canton":{"key":"2","code":"BE","name":"Bern / Berne"},"status":"Real"},{"key":"10220247","name":"Buchwald","postalCode":"4933","locality":"Rütschelen","commune":{"key":"340","name":"Rütschelen","shortName":"Rütschelen"},"district":{"key":"244","name":"Verwaltungskreis Oberaargau"},"canton":{"key":"2","code":"BE","name":"Bern / Berne"},"status":"Real"},{"key":"10084884","name":"Dennlisboden","postalCode":"4933","locality":"Rütschelen","commune":{"key":"340","name":"Rütschelen","shortName":"Rütschelen"},"district":{"key":"244","name":"Verwaltungskreis Oberaargau"},"canton":{"key":"2","code":"BE","name":"Bern / Berne"},"status":"Real"},{"key":"10112101","name":"Dorf","postalCode":"4933","locality":"Rütschelen","commune":{"key":"340","name":"Rütschelen","shortName":"Rütschelen"},"district":{"key":"244","name":"Verwaltungskreis Oberaargau"},"canton":{"key":"2","code":"BE","name":"Bern / Berne"},"status":"Real"},{"key":"10220252","name":"Dorneggütsch","postalCode":"4933","locality":"Rütschelen","commune":{"key":"340","name":"Rütschelen","shortName":"Rütschelen"},"district":{"key":"244","name":"Verwaltungskreis Oberaargau"},"canton":{"key":"2","code":"BE","name":"Bern / Berne"},"status":"Real"},{"key":"10009597","name":"Flösch","postalCode":"4933","locality":"Rütschelen","commune":{"key":"340","name":"Rütschelen","shortName":"Rütschelen"},"district":{"key":"244","name":"Verwaltungskreis Oberaargau"},"canton":{"key":"2","code":"BE","name":"Bern / Berne"},"status":"Real"},{"key":"10220255","name":"Flühli","postalCode":"4933","locality":"Rütschelen","commune":{"key":"340","name":"Rütschelen","shortName":"Rütschelen"},"district":{"key":"244","name":"Verwaltungskreis Oberaargau"},"canton":{"key":"2","code":"BE","name":"Bern / Berne"},"status":"Real"},{"key":"10188557","name":"Flurweg","postalCode":"4933","locality":"Rütschelen","commune":{"key":"340","name":"Rütschelen","shortName":"Rütschelen"},"district":{"key":"244","name":"Verwaltungskreis Oberaargau"},"canton":{"key":"2","code":"BE","name":"Bern / Berne"},"status":"Real"},{"key":"10058670","name":"Graben","postalCode":"4933","locality":"Rütschelen","commune":{"key":"340","name":"Rütschelen","shortName":"Rütschelen"},"district":{"key":"244","name":"Verwaltungskreis Oberaargau"},"canton":{"key":"2","code":"BE","name":"Bern / Berne"},"status":"Real"},{"key":"10178186","name":"Halde","postalCode":"4933","locality":"Rütschelen","commune":{"key":"340","name":"Rütschelen","shortName":"Rütschelen"},"district":{"key":"244","name":"Verwaltungskreis Oberaargau"},"canton":{"key":"2","code":"BE","name":"Bern / Berne"},"status":"Real"},{"key":"10220259","name":"Höchrain","postalCode":"4933","locality":"Rütschelen","commune":{"key":"340","name":"Rütschelen","shortName":"Rütschelen"},"district":{"key":"244","name":"Verwaltungskreis Oberaargau"},"canton":{"key":"2","code":"BE","name":"Bern / Berne"},"status":"Real"},{"key":"10009598","name":"Hubel","postalCode":"4933","locality":"Rütschelen","commune":{"key":"340","name":"Rütschelen","shortName":"Rütschelen"},"district":{"key":"244","name":"Verwaltungskreis Oberaargau"},"canton":{"key":"2","code":"BE","name":"Bern / Berne"},"status":"Real"},{"key":"10124127","name":"Hübeli","postalCode":"4933","locality":"Rütschelen","commune":{"key":"340","name":"Rütschelen","shortName":"Rütschelen"},"district":{"key":"244","name":"Verwaltungskreis Oberaargau"},"canton":{"key":"2","code":"BE","name":"Bern / Berne"},"status":"Real"},{"key":"10163569","name":"Kirchacker","postalCode":"4933","locality":"Rütschelen","commune":{"key":"340","name":"Rütschelen","shortName":"Rütschelen"},"district":{"key":"244","name":"Verwaltungskreis Oberaargau"},"canton":{"key":"2","code":"BE","name":"Bern / Berne"},"status":"Real"},{"key":"10062339","name":"Lehbach","postalCode":"4933","locality":"Rütschelen","commune":{"key":"340","name":"Rütschelen","shortName":"Rütschelen"},"district":{"key":"244","name":"Verwaltungskreis Oberaargau"},"canton":{"key":"2","code":"BE","name":"Bern / Berne"},"status":"Real"},{"key":"10009599","name":"Lehbachgasse","postalCode":"4933","locality":"Rütschelen","commune":{"key":"340","name":"Rütschelen","shortName":"Rütschelen"},"district":{"key":"244","name":"Verwaltungskreis Oberaargau"},"canton":{"key":"2","code":"BE","name":"Bern / Berne"},"status":"Real"},{"key":"10178429","name":"Lindenacker","postalCode":"4933","locality":"Rütschelen","commune":{"key":"340","name":"Rütschelen","shortName":"Rütschelen"},"district":{"key":"244","name":"Verwaltungskreis Oberaargau"},"canton":{"key":"2","code":"BE","name":"Bern / Berne"},"status":"Real"},{"key":"10084885","name":"Lotzwilstrasse","postalCode":"4933","locality":"Rütschelen","commune":{"key":"340","name":"Rütschelen","shortName":"Rütschelen"},"district":{"key":"244","name":"Verwaltungskreis Oberaargau"},"canton":{"key":"2","code":"BE","name":"Bern / Berne"},"status":"Real"},{"key":"10062340","name":"Ringweg","postalCode":"4933","locality":"Rütschelen","commune":{"key":"340","name":"Rütschelen","shortName":"Rütschelen"},"district":{"key":"244","name":"Verwaltungskreis Oberaargau"},"canton":{"key":"2","code":"BE","name":"Bern / Berne"},"status":"Real"},{"key":"10220263","name":"Rossmatte","postalCode":"4933","locality":"Rütschelen","commune":{"key":"340","name":"Rütschelen","shortName":"Rütschelen"},"district":{"key":"244","name":"Verwaltungskreis Oberaargau"},"canton":{"key":"2","code":"BE","name":"Bern / Berne"},"status":"Real"},{"key":"10009600","name":"Sandbühl","postalCode":"4933","locality":"Rütschelen","commune":{"key":"340","name":"Rütschelen","shortName":"Rütschelen"},"district":{"key":"244","name":"Verwaltungskreis Oberaargau"},"canton":{"key":"2","code":"BE","name":"Bern / Berne"},"status":"Real"},{"key":"10171817","name":"Schwanden","postalCode":"4933","locality":"Rütschelen","commune":{"key":"340","name":"Rütschelen","shortName":"Rütschelen"},"district":{"key":"244","name":"Verwaltungskreis Oberaargau"},"canton":{"key":"2","code":"BE","name":"Bern / Berne"},"status":"Real"},{"key":"10009601","name":"Spiegelberg","postalCode":"4933","locality":"Rütschelen","commune":{"key":"340","name":"Rütschelen","shortName":"Rütschelen"},"district":{"key":"244","name":"Verwaltungskreis Oberaargau"},"canton":{"key":"2","code":"BE","name":"Bern / Berne"},"status":"Real"},{"key":"10112102","name":"Stampfi","postalCode":"4933","locality":"Rütschelen","commune":{"key":"340","name":"Rütschelen","shortName":"Rütschelen"},"district":{"key":"244","name":"Verwaltungskreis Oberaargau"},"canton":{"key":"2","code":"BE","name":"Bern / Berne"},"status":"Real"},{"key":"10220268","name":"Trubberg","postalCode":"4933","locality":"Rütschelen","commune":{"key":"340","name":"Rütschelen","shortName":"Rütschelen"},"district":{"key":"244","name":"Verwaltungskreis Oberaargau"},"canton":{"key":"2","code":"BE","name":"Bern / Berne"},"status":"Real"},{"key":"10009602","name":"Waldhaus","postalCode":"4933","locality":"Rütschelen","commune":{"key":"340","name":"Rütschelen","shortName":"Rütschelen"},"district":{"key":"244","name":"Verwaltungskreis Oberaargau"},"canton":{"key":"2","code":"BE","name":"Bern / Berne"},"status":"Real"},{"key":"10180918","name":"Weidweg","postalCode":"4933","locality":"Rütschelen","commune":{"key":"340","name":"Rütschelen","shortName":"Rütschelen"},"district":{"key":"244","name":"Verwaltungskreis Oberaargau"},"canton":{"key":"2","code":"BE","name":"Bern / Berne"},"status":"Real"},{"key":"10220272","name":"Weissenstein","postalCode":"4933","locality":"Rütschelen","commune":{"key":"340","name":"Rütschelen","shortName":"Rütschelen"},"district":{"key":"244","name":"Verwaltungskreis Oberaargau"},"canton":{"key":"2","code":"BE","name":"Bern / Berne"},"status":"Real"},{"key":"10117097","name":"Wil","postalCode":"4933","locality":"Rütschelen","commune":{"key":"340","name":"Rütschelen","shortName":"Rütschelen"},"district":{"key":"244","name":"Verwaltungskreis Oberaargau"},"canton":{"key":"2","code":"BE","name":"Bern / Berne"},"status":"Real"},]