[{"name":"Angelstr.","postalCode":"72367","locality":"Weilen unter den Rinnen","municipality":{"key":"08417071","name":"Weilen unter den Rinnen","type":"Kreisangehörige_Gemeinde"},"district":{"key":"08417","name":"Zollernalbkreis","type":"Landkreis"},"federalState":{"key":"08","name":"Baden-Württemberg"}},{"name":"August-Blepp-Str.","postalCode":"72367","locality":"Weilen unter den Rinnen","municipality":{"key":"08417071","name":"Weilen unter den Rinnen","type":"Kreisangehörige_Gemeinde"},"district":{"key":"08417","name":"Zollernalbkreis","type":"Landkreis"},"federalState":{"key":"08","name":"Baden-Württemberg"}},{"name":"Bohlstr.","postalCode":"72367","locality":"Weilen unter den Rinnen","municipality":{"key":"08417071","name":"Weilen unter den Rinnen","type":"Kreisangehörige_Gemeinde"},"district":{"key":"08417","name":"Zollernalbkreis","type":"Landkreis"},"federalState":{"key":"08","name":"Baden-Württemberg"}},{"name":"Breitenriedstr.","postalCode":"72367","locality":"Weilen unter den Rinnen","municipality":{"key":"08417071","name":"Weilen unter den Rinnen","type":"Kreisangehörige_Gemeinde"},"district":{"key":"08417","name":"Zollernalbkreis","type":"Landkreis"},"federalState":{"key":"08","name":"Baden-Württemberg"}},{"name":"Breitestr.","postalCode":"72367","locality":"Weilen unter den Rinnen","municipality":{"key":"08417071","name":"Weilen unter den Rinnen","type":"Kreisangehörige_Gemeinde"},"district":{"key":"08417","name":"Zollernalbkreis","type":"Landkreis"},"federalState":{"key":"08","name":"Baden-Württemberg"}},{"name":"Bühlstr.","postalCode":"72367","locality":"Weilen unter den Rinnen","municipality":{"key":"08417071","name":"Weilen unter den Rinnen","type":"Kreisangehörige_Gemeinde"},"district":{"key":"08417","name":"Zollernalbkreis","type":"Landkreis"},"federalState":{"key":"08","name":"Baden-Württemberg"}},{"name":"Eichenstr.","postalCode":"72367","locality":"Weilen unter den Rinnen","municipality":{"key":"08417071","name":"Weilen unter den Rinnen","type":"Kreisangehörige_Gemeinde"},"district":{"key":"08417","name":"Zollernalbkreis","type":"Landkreis"},"federalState":{"key":"08","name":"Baden-Württemberg"}},{"name":"Gartenstr.","postalCode":"72367","locality":"Weilen unter den Rinnen","municipality":{"key":"08417071","name":"Weilen unter den Rinnen","type":"Kreisangehörige_Gemeinde"},"district":{"key":"08417","name":"Zollernalbkreis","type":"Landkreis"},"federalState":{"key":"08","name":"Baden-Württemberg"}},{"name":"Hauptstr.","postalCode":"72367","locality":"Weilen unter den Rinnen","municipality":{"key":"08417071","name":"Weilen unter den Rinnen","type":"Kreisangehörige_Gemeinde"},"district":{"key":"08417","name":"Zollernalbkreis","type":"Landkreis"},"federalState":{"key":"08","name":"Baden-Württemberg"}},{"name":"Hochrückstr.","postalCode":"72367","locality":"Weilen unter den Rinnen","municipality":{"key":"08417071","name":"Weilen unter den Rinnen","type":"Kreisangehörige_Gemeinde"},"district":{"key":"08417","name":"Zollernalbkreis","type":"Landkreis"},"federalState":{"key":"08","name":"Baden-Württemberg"}},{"name":"Im Morgen","postalCode":"72367","locality":"Weilen unter den Rinnen","municipality":{"key":"08417071","name":"Weilen unter den Rinnen","type":"Kreisangehörige_Gemeinde"},"district":{"key":"08417","name":"Zollernalbkreis","type":"Landkreis"},"federalState":{"key":"08","name":"Baden-Württemberg"}},{"name":"Kapellewasen","postalCode":"72367","locality":"Weilen unter den Rinnen","municipality":{"key":"08417071","name":"Weilen unter den Rinnen","type":"Kreisangehörige_Gemeinde"},"district":{"key":"08417","name":"Zollernalbkreis","type":"Landkreis"},"federalState":{"key":"08","name":"Baden-Württemberg"}},{"name":"Lindenstr.","postalCode":"72367","locality":"Weilen unter den Rinnen","municipality":{"key":"08417071","name":"Weilen unter den Rinnen","type":"Kreisangehörige_Gemeinde"},"district":{"key":"08417","name":"Zollernalbkreis","type":"Landkreis"},"federalState":{"key":"08","name":"Baden-Württemberg"}},{"name":"Obere Str.","postalCode":"72367","locality":"Weilen unter den Rinnen","municipality":{"key":"08417071","name":"Weilen unter den Rinnen","type":"Kreisangehörige_Gemeinde"},"district":{"key":"08417","name":"Zollernalbkreis","type":"Landkreis"},"federalState":{"key":"08","name":"Baden-Württemberg"}},{"name":"Ortenbergweg","postalCode":"72367","locality":"Weilen unter den Rinnen","municipality":{"key":"08417071","name":"Weilen unter den Rinnen","type":"Kreisangehörige_Gemeinde"},"district":{"key":"08417","name":"Zollernalbkreis","type":"Landkreis"},"federalState":{"key":"08","name":"Baden-Württemberg"}},{"name":"Plettenbergstr.","postalCode":"72367","locality":"Weilen unter den Rinnen","municipality":{"key":"08417071","name":"Weilen unter den Rinnen","type":"Kreisangehörige_Gemeinde"},"district":{"key":"08417","name":"Zollernalbkreis","type":"Landkreis"},"federalState":{"key":"08","name":"Baden-Württemberg"}},{"name":"Scheibenbühl","postalCode":"72367","locality":"Weilen unter den Rinnen","municipality":{"key":"08417071","name":"Weilen unter den Rinnen","type":"Kreisangehörige_Gemeinde"},"district":{"key":"08417","name":"Zollernalbkreis","type":"Landkreis"},"federalState":{"key":"08","name":"Baden-Württemberg"}},{"name":"Schömberger Str.","postalCode":"72367","locality":"Weilen unter den Rinnen","municipality":{"key":"08417071","name":"Weilen unter den Rinnen","type":"Kreisangehörige_Gemeinde"},"district":{"key":"08417","name":"Zollernalbkreis","type":"Landkreis"},"federalState":{"key":"08","name":"Baden-Württemberg"}},{"name":"Stellestr.","postalCode":"72367","locality":"Weilen unter den Rinnen","municipality":{"key":"08417071","name":"Weilen unter den Rinnen","type":"Kreisangehörige_Gemeinde"},"district":{"key":"08417","name":"Zollernalbkreis","type":"Landkreis"},"federalState":{"key":"08","name":"Baden-Württemberg"}},{"name":"Wasenstr.","postalCode":"72367","locality":"Weilen unter den Rinnen","municipality":{"key":"08417071","name":"Weilen unter den Rinnen","type":"Kreisangehörige_Gemeinde"},"district":{"key":"08417","name":"Zollernalbkreis","type":"Landkreis"},"federalState":{"key":"08","name":"Baden-Württemberg"}},{"name":"Weidenweg","postalCode":"72367","locality":"Weilen unter den Rinnen","municipality":{"key":"08417071","name":"Weilen unter den Rinnen","type":"Kreisangehörige_Gemeinde"},"district":{"key":"08417","name":"Zollernalbkreis","type":"Landkreis"},"federalState":{"key":"08","name":"Baden-Württemberg"}},{"name":"Weiherstr.","postalCode":"72367","locality":"Weilen unter den Rinnen","municipality":{"key":"08417071","name":"Weilen unter den Rinnen","type":"Kreisangehörige_Gemeinde"},"district":{"key":"08417","name":"Zollernalbkreis","type":"Landkreis"},"federalState":{"key":"08","name":"Baden-Württemberg"}},{"name":"Wiesenweg","postalCode":"72367","locality":"Weilen unter den Rinnen","municipality":{"key":"08417071","name":"Weilen unter den Rinnen","type":"Kreisangehörige_Gemeinde"},"district":{"key":"08417","name":"Zollernalbkreis","type":"Landkreis"},"federalState":{"key":"08","name":"Baden-Württemberg"}},{"name":"Wochenbergstr.","postalCode":"72367","locality":"Weilen unter den Rinnen","municipality":{"key":"08417071","name":"Weilen unter den Rinnen","type":"Kreisangehörige_Gemeinde"},"district":{"key":"08417","name":"Zollernalbkreis","type":"Landkreis"},"federalState":{"key":"08","name":"Baden-Württemberg"}},]