[{"key":"10127022","name":"Allée de la Petite Prairie","postalCode":"1260","locality":"Nyon","commune":{"key":"5724","name":"Nyon","shortName":"Nyon"},"district":{"key":"2228","name":"District de Nyon"},"canton":{"key":"22","code":"VD","name":"Vaud"},"status":"Real"},{"key":"10100815","name":"Avenue Alfred-Cortot","postalCode":"1260","locality":"Nyon","commune":{"key":"5724","name":"Nyon","shortName":"Nyon"},"district":{"key":"2228","name":"District de Nyon"},"canton":{"key":"22","code":"VD","name":"Vaud"},"status":"Real"},{"key":"10100816","name":"Avenue de Bois-Bougy","postalCode":"1260","locality":"Nyon","commune":{"key":"5724","name":"Nyon","shortName":"Nyon"},"district":{"key":"2228","name":"District de Nyon"},"canton":{"key":"22","code":"VD","name":"Vaud"},"status":"Real"},{"key":"10042074","name":"Avenue des Eules","postalCode":"1260","locality":"Nyon","commune":{"key":"5724","name":"Nyon","shortName":"Nyon"},"district":{"key":"2228","name":"District de Nyon"},"canton":{"key":"22","code":"VD","name":"Vaud"},"status":"Real"},{"key":"10107272","name":"Avenue Edouard-Rod","postalCode":"1260","locality":"Nyon","commune":{"key":"5724","name":"Nyon","shortName":"Nyon"},"district":{"key":"2228","name":"District de Nyon"},"canton":{"key":"22","code":"VD","name":"Vaud"},"status":"Real"},{"key":"10042071","name":"Avenue Perdtemps","postalCode":"1260","locality":"Nyon","commune":{"key":"5724","name":"Nyon","shortName":"Nyon"},"district":{"key":"2228","name":"District de Nyon"},"canton":{"key":"22","code":"VD","name":"Vaud"},"status":"Real"},{"key":"10042072","name":"Avenue Reverdil","postalCode":"1260","locality":"Nyon","commune":{"key":"5724","name":"Nyon","shortName":"Nyon"},"district":{"key":"2228","name":"District de Nyon"},"canton":{"key":"22","code":"VD","name":"Vaud"},"status":"Real"},{"key":"10042073","name":"Avenue Viollier","postalCode":"1260","locality":"Nyon","commune":{"key":"5724","name":"Nyon","shortName":"Nyon"},"district":{"key":"2228","name":"District de Nyon"},"canton":{"key":"22","code":"VD","name":"Vaud"},"status":"Real"},{"key":"10156334","name":"Bosquets du Château","postalCode":"1260","locality":"Nyon","commune":{"key":"5724","name":"Nyon","shortName":"Nyon"},"district":{"key":"2228","name":"District de Nyon"},"canton":{"key":"22","code":"VD","name":"Vaud"},"status":"Real"},{"key":"10147013","name":"Chemin Albert-Usteri","postalCode":"1260","locality":"Nyon","commune":{"key":"5724","name":"Nyon","shortName":"Nyon"},"district":{"key":"2228","name":"District de Nyon"},"canton":{"key":"22","code":"VD","name":"Vaud"},"status":"Real"},{"key":"10101501","name":"Chemin de Bois-Bougy","postalCode":"1260","locality":"Nyon","commune":{"key":"5724","name":"Nyon","shortName":"Nyon"},"district":{"key":"2228","name":"District de Nyon"},"canton":{"key":"22","code":"VD","name":"Vaud"},"status":"Real"},{"key":"10100818","name":"Chemin de Bonmont","postalCode":"1260","locality":"Nyon","commune":{"key":"5724","name":"Nyon","shortName":"Nyon"},"district":{"key":"2228","name":"District de Nyon"},"canton":{"key":"22","code":"VD","name":"Vaud"},"status":"Real"},{"key":"10042078","name":"Chemin de Bourgogne","postalCode":"1260","locality":"Nyon","commune":{"key":"5724","name":"Nyon","shortName":"Nyon"},"district":{"key":"2228","name":"District de Nyon"},"canton":{"key":"22","code":"VD","name":"Vaud"},"status":"Real"},{"key":"10042079","name":"Chemin de Calève","postalCode":"1260","locality":"Nyon","commune":{"key":"5724","name":"Nyon","shortName":"Nyon"},"district":{"key":"2228","name":"District de Nyon"},"canton":{"key":"22","code":"VD","name":"Vaud"},"status":"Real"},{"key":"10100819","name":"Chemin de Changins","postalCode":"1260","locality":"Nyon","commune":{"key":"5724","name":"Nyon","shortName":"Nyon"},"district":{"key":"2228","name":"District de Nyon"},"canton":{"key":"22","code":"VD","name":"Vaud"},"status":"Real"},{"key":"10079228","name":"Chemin de Chantavril","postalCode":"1260","locality":"Nyon","commune":{"key":"5724","name":"Nyon","shortName":"Nyon"},"district":{"key":"2228","name":"District de Nyon"},"canton":{"key":"22","code":"VD","name":"Vaud"},"status":"Real"},{"key":"10127916","name":"Chemin de Chantegrive","postalCode":"1260","locality":"Nyon","commune":{"key":"5724","name":"Nyon","shortName":"Nyon"},"district":{"key":"2228","name":"District de Nyon"},"canton":{"key":"22","code":"VD","name":"Vaud"},"status":"Real"},{"key":"10042080","name":"Chemin de Chantemerle","postalCode":"1260","locality":"Nyon","commune":{"key":"5724","name":"Nyon","shortName":"Nyon"},"district":{"key":"2228","name":"District de Nyon"},"canton":{"key":"22","code":"VD","name":"Vaud"},"status":"Real"},{"key":"10147017","name":"Chemin de Colovray","postalCode":"1260","locality":"Nyon","commune":{"key":"5724","name":"Nyon","shortName":"Nyon"},"district":{"key":"2228","name":"District de Nyon"},"canton":{"key":"22","code":"VD","name":"Vaud"},"status":"Real"},{"key":"10101502","name":"Chemin de Crève-Coeur","postalCode":"1260","locality":"Nyon","commune":{"key":"5724","name":"Nyon","shortName":"Nyon"},"district":{"key":"2228","name":"District de Nyon"},"canton":{"key":"22","code":"VD","name":"Vaud"},"status":"Real"},{"key":"10180994","name":"Chemin de la Banderolle","postalCode":"1260","locality":"Nyon","commune":{"key":"5724","name":"Nyon","shortName":"Nyon"},"district":{"key":"2228","name":"District de Nyon"},"canton":{"key":"22","code":"VD","name":"Vaud"},"status":"Real"},{"key":"10107273","name":"Chemin de la Barillette","postalCode":"1260","locality":"Nyon","commune":{"key":"5724","name":"Nyon","shortName":"Nyon"},"district":{"key":"2228","name":"District de Nyon"},"canton":{"key":"22","code":"VD","name":"Vaud"},"status":"Real"},{"key":"10042083","name":"Chemin de la Biolatte","postalCode":"1260","locality":"Nyon","commune":{"key":"5724","name":"Nyon","shortName":"Nyon"},"district":{"key":"2228","name":"District de Nyon"},"canton":{"key":"22","code":"VD","name":"Vaud"},"status":"Real"},{"key":"10100822","name":"Chemin de la Croisette","postalCode":"1260","locality":"Nyon","commune":{"key":"5724","name":"Nyon","shortName":"Nyon"},"district":{"key":"2228","name":"District de Nyon"},"canton":{"key":"22","code":"VD","name":"Vaud"},"status":"Real"},{"key":"10042084","name":"Chemin de la Dôle","postalCode":"1260","locality":"Nyon","commune":{"key":"5724","name":"Nyon","shortName":"Nyon"},"district":{"key":"2228","name":"District de Nyon"},"canton":{"key":"22","code":"VD","name":"Vaud"},"status":"Real"},{"key":"10101503","name":"Chemin de la Fontaine","postalCode":"1260","locality":"Nyon","commune":{"key":"5724","name":"Nyon","shortName":"Nyon"},"district":{"key":"2228","name":"District de Nyon"},"canton":{"key":"22","code":"VD","name":"Vaud"},"status":"Real"},{"key":"10042085","name":"Chemin de la Jardinière","postalCode":"1260","locality":"Nyon","commune":{"key":"5724","name":"Nyon","shortName":"Nyon"},"district":{"key":"2228","name":"District de Nyon"},"canton":{"key":"22","code":"VD","name":"Vaud"},"status":"Real"},{"key":"10147014","name":"Chemin de l'Alouette","postalCode":"1260","locality":"Nyon","commune":{"key":"5724","name":"Nyon","shortName":"Nyon"},"district":{"key":"2228","name":"District de Nyon"},"canton":{"key":"22","code":"VD","name":"Vaud"},"status":"Real"},{"key":"10100823","name":"Chemin de la Paix","postalCode":"1260","locality":"Nyon","commune":{"key":"5724","name":"Nyon","shortName":"Nyon"},"district":{"key":"2228","name":"District de Nyon"},"canton":{"key":"22","code":"VD","name":"Vaud"},"status":"Real"},{"key":"10042086","name":"Chemin de la Piscine","postalCode":"1260","locality":"Nyon","commune":{"key":"5724","name":"Nyon","shortName":"Nyon"},"district":{"key":"2228","name":"District de Nyon"},"canton":{"key":"22","code":"VD","name":"Vaud"},"status":"Real"},{"key":"10041382","name":"Chemin de la Pouse","postalCode":"1277","locality":"Arnex-sur-Nyon","commune":{"key":"5701","name":"Arnex-sur-Nyon","shortName":"Arnex-sur-Nyon"},"district":{"key":"2228","name":"District de Nyon"},"canton":{"key":"22","code":"VD","name":"Vaud"},"status":"Real"},{"key":"10079230","name":"Chemin de la Redoute","postalCode":"1260","locality":"Nyon","commune":{"key":"5724","name":"Nyon","shortName":"Nyon"},"district":{"key":"2228","name":"District de Nyon"},"canton":{"key":"22","code":"VD","name":"Vaud"},"status":"Real"},{"key":"10100821","name":"Chemin de l'Argillière","postalCode":"1260","locality":"Nyon","commune":{"key":"5724","name":"Nyon","shortName":"Nyon"},"district":{"key":"2228","name":"District de Nyon"},"canton":{"key":"22","code":"VD","name":"Vaud"},"status":"Real"},{"key":"10147026","name":"Chemin de la Scierie","postalCode":"1260","locality":"Nyon","commune":{"key":"5724","name":"Nyon","shortName":"Nyon"},"district":{"key":"2228","name":"District de Nyon"},"canton":{"key":"22","code":"VD","name":"Vaud"},"status":"Real"},{"key":"10147015","name":"Chemin de l'Asse","postalCode":"1260","locality":"Nyon","commune":{"key":"5724","name":"Nyon","shortName":"Nyon"},"district":{"key":"2228","name":"District de Nyon"},"canton":{"key":"22","code":"VD","name":"Vaud"},"status":"Real"},{"key":"10056706","name":"Chemin de la Vuarpillière","postalCode":"1260","locality":"Nyon","commune":{"key":"5724","name":"Nyon","shortName":"Nyon"},"district":{"key":"2228","name":"District de Nyon"},"canton":{"key":"22","code":"VD","name":"Vaud"},"status":"Real"},{"key":"10079229","name":"Chemin de Mangette","postalCode":"1260","locality":"Nyon","commune":{"key":"5724","name":"Nyon","shortName":"Nyon"},"district":{"key":"2228","name":"District de Nyon"},"canton":{"key":"22","code":"VD","name":"Vaud"},"status":"Real"},{"key":"10100820","name":"Chemin de Martavaux","postalCode":"1260","locality":"Nyon","commune":{"key":"5724","name":"Nyon","shortName":"Nyon"},"district":{"key":"2228","name":"District de Nyon"},"canton":{"key":"22","code":"VD","name":"Vaud"},"status":"Real"},{"key":"10100817","name":"Chemin de Montellier","postalCode":"1260","locality":"Nyon","commune":{"key":"5724","name":"Nyon","shortName":"Nyon"},"district":{"key":"2228","name":"District de Nyon"},"canton":{"key":"22","code":"VD","name":"Vaud"},"status":"Real"},{"key":"10147025","name":"Chemin de Plantachoux","postalCode":"1260","locality":"Nyon","commune":{"key":"5724","name":"Nyon","shortName":"Nyon"},"district":{"key":"2228","name":"District de Nyon"},"canton":{"key":"22","code":"VD","name":"Vaud"},"status":"Real"},{"key":"10144309","name":"Chemin de Précossy","postalCode":"1260","locality":"Nyon","commune":{"key":"5724","name":"Nyon","shortName":"Nyon"},"district":{"key":"2228","name":"District de Nyon"},"canton":{"key":"22","code":"VD","name":"Vaud"},"status":"Real"},{"key":"10042370","name":"Chemin de Pré-Fleuri","postalCode":"1260","locality":"Nyon","commune":{"key":"5724","name":"Nyon","shortName":"Nyon"},"district":{"key":"2228","name":"District de Nyon"},"canton":{"key":"22","code":"VD","name":"Vaud"},"status":"Real"},{"key":"10042081","name":"Chemin de Prélaz","postalCode":"1260","locality":"Nyon","commune":{"key":"5724","name":"Nyon","shortName":"Nyon"},"district":{"key":"2228","name":"District de Nyon"},"canton":{"key":"22","code":"VD","name":"Vaud"},"status":"Real"},{"key":"10241484","name":"Chemin des Aubépines","postalCode":"1260","locality":"Nyon","commune":{"key":"5724","name":"Nyon","shortName":"Nyon"},"district":{"key":"2228","name":"District de Nyon"},"canton":{"key":"22","code":"VD","name":"Vaud"},"status":"Real"},{"key":"10042087","name":"Chemin des Cottages","postalCode":"1260","locality":"Nyon","commune":{"key":"5724","name":"Nyon","shortName":"Nyon"},"district":{"key":"2228","name":"District de Nyon"},"canton":{"key":"22","code":"VD","name":"Vaud"},"status":"Real"},{"key":"10100824","name":"Chemin des Fauvettes","postalCode":"1260","locality":"Nyon","commune":{"key":"5724","name":"Nyon","shortName":"Nyon"},"district":{"key":"2228","name":"District de Nyon"},"canton":{"key":"22","code":"VD","name":"Vaud"},"status":"Real"},{"key":"10121620","name":"Chemin des Foulis","postalCode":"1260","locality":"Nyon","commune":{"key":"5724","name":"Nyon","shortName":"Nyon"},"district":{"key":"2228","name":"District de Nyon"},"canton":{"key":"22","code":"VD","name":"Vaud"},"status":"Real"},{"key":"10056707","name":"Chemin des Frênes","postalCode":"1260","locality":"Nyon","commune":{"key":"5724","name":"Nyon","shortName":"Nyon"},"district":{"key":"2228","name":"District de Nyon"},"canton":{"key":"22","code":"VD","name":"Vaud"},"status":"Real"},{"key":"10147021","name":"Chemin des Marais","postalCode":"1260","locality":"Nyon","commune":{"key":"5724","name":"Nyon","shortName":"Nyon"},"district":{"key":"2228","name":"District de Nyon"},"canton":{"key":"22","code":"VD","name":"Vaud"},"status":"Real"},{"key":"10042088","name":"Chemin des Mésanges","postalCode":"1260","locality":"Nyon","commune":{"key":"5724","name":"Nyon","shortName":"Nyon"},"district":{"key":"2228","name":"District de Nyon"},"canton":{"key":"22","code":"VD","name":"Vaud"},"status":"Real"},{"key":"10042089","name":"Chemin des Pâquerettes","postalCode":"1260","locality":"Nyon","commune":{"key":"5724","name":"Nyon","shortName":"Nyon"},"district":{"key":"2228","name":"District de Nyon"},"canton":{"key":"22","code":"VD","name":"Vaud"},"status":"Real"},{"key":"10147023","name":"Chemin des Pensées","postalCode":"1260","locality":"Nyon","commune":{"key":"5724","name":"Nyon","shortName":"Nyon"},"district":{"key":"2228","name":"District de Nyon"},"canton":{"key":"22","code":"VD","name":"Vaud"},"status":"Real"},{"key":"10100825","name":"Chemin des Plantaz","postalCode":"1260","locality":"Nyon","commune":{"key":"5724","name":"Nyon","shortName":"Nyon"},"district":{"key":"2228","name":"District de Nyon"},"canton":{"key":"22","code":"VD","name":"Vaud"},"status":"Real"},{"key":"10056708","name":"Chemin des Rosiers","postalCode":"1260","locality":"Nyon","commune":{"key":"5724","name":"Nyon","shortName":"Nyon"},"district":{"key":"2228","name":"District de Nyon"},"canton":{"key":"22","code":"VD","name":"Vaud"},"status":"Real"},{"key":"10079231","name":"Chemin des Ruettes","postalCode":"1260","locality":"Nyon","commune":{"key":"5724","name":"Nyon","shortName":"Nyon"},"district":{"key":"2228","name":"District de Nyon"},"canton":{"key":"22","code":"VD","name":"Vaud"},"status":"Real"},{"key":"10205240","name":"Chemin des Saules","postalCode":"1260","locality":"Nyon","commune":{"key":"5724","name":"Nyon","shortName":"Nyon"},"district":{"key":"2228","name":"District de Nyon"},"canton":{"key":"22","code":"VD","name":"Vaud"},"status":"Real"},{"key":"10042090","name":"Chemin des Tines","postalCode":"1260","locality":"Nyon","commune":{"key":"5724","name":"Nyon","shortName":"Nyon"},"district":{"key":"2228","name":"District de Nyon"},"canton":{"key":"22","code":"VD","name":"Vaud"},"status":"Real"},{"key":"10100826","name":"Chemin des Vignes","postalCode":"1260","locality":"Nyon","commune":{"key":"5724","name":"Nyon","shortName":"Nyon"},"district":{"key":"2228","name":"District de Nyon"},"canton":{"key":"22","code":"VD","name":"Vaud"},"status":"Real"},{"key":"10041383","name":"Chemin des Vignes","postalCode":"1277","locality":"Arnex-sur-Nyon","commune":{"key":"5701","name":"Arnex-sur-Nyon","shortName":"Arnex-sur-Nyon"},"district":{"key":"2228","name":"District de Nyon"},"canton":{"key":"22","code":"VD","name":"Vaud"},"status":"Real"},{"key":"10114432","name":"Domaine Jean-des-Bois","postalCode":"1277","locality":"Arnex-sur-Nyon","commune":{"key":"5701","name":"Arnex-sur-Nyon","shortName":"Arnex-sur-Nyon"},"district":{"key":"2228","name":"District de Nyon"},"canton":{"key":"22","code":"VD","name":"Vaud"},"status":"Real"},{"key":"10158349","name":"Escalier de la Duche","postalCode":"1260","locality":"Nyon","commune":{"key":"5724","name":"Nyon","shortName":"Nyon"},"district":{"key":"2228","name":"District de Nyon"},"canton":{"key":"22","code":"VD","name":"Vaud"},"status":"Real"},{"key":"10159943","name":"Escalier des Fontenelles","postalCode":"1260","locality":"Nyon","commune":{"key":"5724","name":"Nyon","shortName":"Nyon"},"district":{"key":"2228","name":"District de Nyon"},"canton":{"key":"22","code":"VD","name":"Vaud"},"status":"Real"},{"key":"10159938","name":"Esplanade des Marronniers","postalCode":"1260","locality":"Nyon","commune":{"key":"5724","name":"Nyon","shortName":"Nyon"},"district":{"key":"2228","name":"District de Nyon"},"canton":{"key":"22","code":"VD","name":"Vaud"},"status":"Real"},{"key":"10119810","name":"Esplanade Jules-César","postalCode":"1260","locality":"Nyon","commune":{"key":"5724","name":"Nyon","shortName":"Nyon"},"district":{"key":"2228","name":"District de Nyon"},"canton":{"key":"22","code":"VD","name":"Vaud"},"status":"Real"},{"key":"10158046","name":"Grande-Jetée","postalCode":"1260","locality":"Nyon","commune":{"key":"5724","name":"Nyon","shortName":"Nyon"},"district":{"key":"2228","name":"District de Nyon"},"canton":{"key":"22","code":"VD","name":"Vaud"},"status":"Real"},{"key":"10100829","name":"Grand-Rue","postalCode":"1260","locality":"Nyon","commune":{"key":"5724","name":"Nyon","shortName":"Nyon"},"district":{"key":"2228","name":"District de Nyon"},"canton":{"key":"22","code":"VD","name":"Vaud"},"status":"Real"},{"key":"10042372","name":"Impasse de Champ-Colin","postalCode":"1260","locality":"Nyon","commune":{"key":"5724","name":"Nyon","shortName":"Nyon"},"district":{"key":"2228","name":"District de Nyon"},"canton":{"key":"22","code":"VD","name":"Vaud"},"status":"Real"},{"key":"10241485","name":"Impasse du Reposoir","postalCode":"1260","locality":"Nyon","commune":{"key":"5724","name":"Nyon","shortName":"Nyon"},"district":{"key":"2228","name":"District de Nyon"},"canton":{"key":"22","code":"VD","name":"Vaud"},"status":"Real"},{"key":"10079162","name":"Les Lilas","postalCode":"1277","locality":"Arnex-sur-Nyon","commune":{"key":"5701","name":"Arnex-sur-Nyon","shortName":"Arnex-sur-Nyon"},"district":{"key":"2228","name":"District de Nyon"},"canton":{"key":"22","code":"VD","name":"Vaud"},"status":"Real"},{"key":"10059636","name":"Les Pralies","postalCode":"1277","locality":"Arnex-sur-Nyon","commune":{"key":"5701","name":"Arnex-sur-Nyon","shortName":"Arnex-sur-Nyon"},"district":{"key":"2228","name":"District de Nyon"},"canton":{"key":"22","code":"VD","name":"Vaud"},"status":"Real"},{"key":"10120035","name":"Le Viez","postalCode":"1277","locality":"Arnex-sur-Nyon","commune":{"key":"5701","name":"Arnex-sur-Nyon","shortName":"Arnex-sur-Nyon"},"district":{"key":"2228","name":"District de Nyon"},"canton":{"key":"22","code":"VD","name":"Vaud"},"status":"Real"},{"key":"10175081","name":"Mail du Château","postalCode":"1260","locality":"Nyon","commune":{"key":"5724","name":"Nyon","shortName":"Nyon"},"district":{"key":"2228","name":"District de Nyon"},"canton":{"key":"22","code":"VD","name":"Vaud"},"status":"Real"},{"key":"10158348","name":"Parvis du Temple","postalCode":"1260","locality":"Nyon","commune":{"key":"5724","name":"Nyon","shortName":"Nyon"},"district":{"key":"2228","name":"District de Nyon"},"canton":{"key":"22","code":"VD","name":"Vaud"},"status":"Real"},{"key":"10147024","name":"Passage des Pirates","postalCode":"1260","locality":"Nyon","commune":{"key":"5724","name":"Nyon","shortName":"Nyon"},"district":{"key":"2228","name":"District de Nyon"},"canton":{"key":"22","code":"VD","name":"Vaud"},"status":"Real"},{"key":"10147012","name":"Place Abraham-Hermanjat","postalCode":"1260","locality":"Nyon","commune":{"key":"5724","name":"Nyon","shortName":"Nyon"},"district":{"key":"2228","name":"District de Nyon"},"canton":{"key":"22","code":"VD","name":"Vaud"},"status":"Real"},{"key":"10104984","name":"Place Bel-Air","postalCode":"1260","locality":"Nyon","commune":{"key":"5724","name":"Nyon","shortName":"Nyon"},"district":{"key":"2228","name":"District de Nyon"},"canton":{"key":"22","code":"VD","name":"Vaud"},"status":"Real"},{"key":"10101504","name":"Place de la Gare","postalCode":"1260","locality":"Nyon","commune":{"key":"5724","name":"Nyon","shortName":"Nyon"},"district":{"key":"2228","name":"District de Nyon"},"canton":{"key":"22","code":"VD","name":"Vaud"},"status":"Real"},{"key":"10187466","name":"Place de Savoie","postalCode":"1260","locality":"Nyon","commune":{"key":"5724","name":"Nyon","shortName":"Nyon"},"district":{"key":"2228","name":"District de Nyon"},"canton":{"key":"22","code":"VD","name":"Vaud"},"status":"Real"},{"key":"10180996","name":"Place du Château","postalCode":"1260","locality":"Nyon","commune":{"key":"5724","name":"Nyon","shortName":"Nyon"},"district":{"key":"2228","name":"District de Nyon"},"canton":{"key":"22","code":"VD","name":"Vaud"},"status":"Real"},{"key":"10100831","name":"Place du Marché","postalCode":"1260","locality":"Nyon","commune":{"key":"5724","name":"Nyon","shortName":"Nyon"},"district":{"key":"2228","name":"District de Nyon"},"canton":{"key":"22","code":"VD","name":"Vaud"},"status":"Real"},{"key":"10147022","name":"Place du Molard","postalCode":"1260","locality":"Nyon","commune":{"key":"5724","name":"Nyon","shortName":"Nyon"},"district":{"key":"2228","name":"District de Nyon"},"canton":{"key":"22","code":"VD","name":"Vaud"},"status":"Real"},{"key":"10079234","name":"Place Perdtemps","postalCode":"1260","locality":"Nyon","commune":{"key":"5724","name":"Nyon","shortName":"Nyon"},"district":{"key":"2228","name":"District de Nyon"},"canton":{"key":"22","code":"VD","name":"Vaud"},"status":"Real"},{"key":"10158344","name":"Place Petit-Perdtemps","postalCode":"1260","locality":"Nyon","commune":{"key":"5724","name":"Nyon","shortName":"Nyon"},"district":{"key":"2228","name":"District de Nyon"},"canton":{"key":"22","code":"VD","name":"Vaud"},"status":"Real"},{"key":"10100830","name":"Place Saint-Martin","postalCode":"1260","locality":"Nyon","commune":{"key":"5724","name":"Nyon","shortName":"Nyon"},"district":{"key":"2228","name":"District de Nyon"},"canton":{"key":"22","code":"VD","name":"Vaud"},"status":"Real"},{"key":"10147027","name":"Promenade des Vieilles-Murailles","postalCode":"1260","locality":"Nyon","commune":{"key":"5724","name":"Nyon","shortName":"Nyon"},"district":{"key":"2228","name":"District de Nyon"},"canton":{"key":"22","code":"VD","name":"Vaud"},"status":"Real"},{"key":"10159941","name":"Promenade d'Italie","postalCode":"1260","locality":"Nyon","commune":{"key":"5724","name":"Nyon","shortName":"Nyon"},"district":{"key":"2228","name":"District de Nyon"},"canton":{"key":"22","code":"VD","name":"Vaud"},"status":"Real"},{"key":"10079235","name":"Promenade du Jura","postalCode":"1260","locality":"Nyon","commune":{"key":"5724","name":"Nyon","shortName":"Nyon"},"district":{"key":"2228","name":"District de Nyon"},"canton":{"key":"22","code":"VD","name":"Vaud"},"status":"Real"},{"key":"10042375","name":"Promenade du Mont-Blanc","postalCode":"1260","locality":"Nyon","commune":{"key":"5724","name":"Nyon","shortName":"Nyon"},"district":{"key":"2228","name":"District de Nyon"},"canton":{"key":"22","code":"VD","name":"Vaud"},"status":"Real"},{"key":"10042374","name":"Promenade Niedermeyer","postalCode":"1260","locality":"Nyon","commune":{"key":"5724","name":"Nyon","shortName":"Nyon"},"district":{"key":"2228","name":"District de Nyon"},"canton":{"key":"22","code":"VD","name":"Vaud"},"status":"Real"},{"key":"10158345","name":"Promenade Port-Plage","postalCode":"1260","locality":"Nyon","commune":{"key":"5724","name":"Nyon","shortName":"Nyon"},"district":{"key":"2228","name":"District de Nyon"},"canton":{"key":"22","code":"VD","name":"Vaud"},"status":"Real"},{"key":"10180997","name":"Quai des Alpes","postalCode":"1260","locality":"Nyon","commune":{"key":"5724","name":"Nyon","shortName":"Nyon"},"district":{"key":"2228","name":"District de Nyon"},"canton":{"key":"22","code":"VD","name":"Vaud"},"status":"Real"},{"key":"10188684","name":"Quai Louis-Bonnard","postalCode":"1260","locality":"Nyon","commune":{"key":"5724","name":"Nyon","shortName":"Nyon"},"district":{"key":"2228","name":"District de Nyon"},"canton":{"key":"22","code":"VD","name":"Vaud"},"status":"Real"},{"key":"10042371","name":"Quartier Château Mafroi","postalCode":"1260","locality":"Nyon","commune":{"key":"5724","name":"Nyon","shortName":"Nyon"},"district":{"key":"2228","name":"District de Nyon"},"canton":{"key":"22","code":"VD","name":"Vaud"},"status":"Real"},{"key":"10042373","name":"Quartier de la Levratte","postalCode":"1260","locality":"Nyon","commune":{"key":"5724","name":"Nyon","shortName":"Nyon"},"district":{"key":"2228","name":"District de Nyon"},"canton":{"key":"22","code":"VD","name":"Vaud"},"status":"Real"},{"key":"10147016","name":"Route Blanche","postalCode":"1260","locality":"Nyon","commune":{"key":"5724","name":"Nyon","shortName":"Nyon"},"district":{"key":"2228","name":"District de Nyon"},"canton":{"key":"22","code":"VD","name":"Vaud"},"status":"Real"},{"key":"10121604","name":"Route de Borex","postalCode":"1277","locality":"Arnex-sur-Nyon","commune":{"key":"5701","name":"Arnex-sur-Nyon","shortName":"Arnex-sur-Nyon"},"district":{"key":"2228","name":"District de Nyon"},"canton":{"key":"22","code":"VD","name":"Vaud"},"status":"Real"},{"key":"10101505","name":"Route de Champ-Colin","postalCode":"1260","locality":"Nyon","commune":{"key":"5724","name":"Nyon","shortName":"Nyon"},"district":{"key":"2228","name":"District de Nyon"},"canton":{"key":"22","code":"VD","name":"Vaud"},"status":"Real"},{"key":"10042376","name":"Route de Clémenty","postalCode":"1260","locality":"Nyon","commune":{"key":"5724","name":"Nyon","shortName":"Nyon"},"district":{"key":"2228","name":"District de Nyon"},"canton":{"key":"22","code":"VD","name":"Vaud"},"status":"Real"},{"key":"10079236","name":"Route de Divonne","postalCode":"1260","locality":"Nyon","commune":{"key":"5724","name":"Nyon","shortName":"Nyon"},"district":{"key":"2228","name":"District de Nyon"},"canton":{"key":"22","code":"VD","name":"Vaud"},"status":"Real"},{"key":"10100833","name":"Route de Duillier","postalCode":"1260","locality":"Nyon","commune":{"key":"5724","name":"Nyon","shortName":"Nyon"},"district":{"key":"2228","name":"District de Nyon"},"canton":{"key":"22","code":"VD","name":"Vaud"},"status":"Real"},{"key":"10117009","name":"Route de Genève","postalCode":"1260","locality":"Nyon","commune":{"key":"5724","name":"Nyon","shortName":"Nyon"},"district":{"key":"2228","name":"District de Nyon"},"canton":{"key":"22","code":"VD","name":"Vaud"},"status":"Real"},{"key":"10042377","name":"Route de Gingins","postalCode":"1260","locality":"Nyon","commune":{"key":"5724","name":"Nyon","shortName":"Nyon"},"district":{"key":"2228","name":"District de Nyon"},"canton":{"key":"22","code":"VD","name":"Vaud"},"status":"Real"},{"key":"10147019","name":"Route de la Gravette","postalCode":"1260","locality":"Nyon","commune":{"key":"5724","name":"Nyon","shortName":"Nyon"},"district":{"key":"2228","name":"District de Nyon"},"canton":{"key":"22","code":"VD","name":"Vaud"},"status":"Real"},{"key":"10041066","name":"Route de la Prairie","postalCode":"1260","locality":"Nyon","commune":{"key":"5724","name":"Nyon","shortName":"Nyon"},"district":{"key":"2228","name":"District de Nyon"},"canton":{"key":"22","code":"VD","name":"Vaud"},"status":"Real"},{"key":"10100834","name":"Route de Lausanne","postalCode":"1260","locality":"Nyon","commune":{"key":"5724","name":"Nyon","shortName":"Nyon"},"district":{"key":"2228","name":"District de Nyon"},"canton":{"key":"22","code":"VD","name":"Vaud"},"status":"Real"},{"key":"10041093","name":"Route de l'Etraz","postalCode":"1260","locality":"Nyon","commune":{"key":"5724","name":"Nyon","shortName":"Nyon"},"district":{"key":"2228","name":"District de Nyon"},"canton":{"key":"22","code":"VD","name":"Vaud"},"status":"Real"},{"key":"10100835","name":"Route de l'Etraz","postalCode":"1260","locality":"Nyon","commune":{"key":"5724","name":"Nyon","shortName":"Nyon"},"district":{"key":"2228","name":"District de Nyon"},"canton":{"key":"22","code":"VD","name":"Vaud"},"status":"Real"},{"key":"10041064","name":"Route de Saint-Cergue","postalCode":"1260","locality":"Nyon","commune":{"key":"5724","name":"Nyon","shortName":"Nyon"},"district":{"key":"2228","name":"District de Nyon"},"canton":{"key":"22","code":"VD","name":"Vaud"},"status":"Real"},{"key":"10079237","name":"Route de Signy","postalCode":"1260","locality":"Nyon","commune":{"key":"5724","name":"Nyon","shortName":"Nyon"},"district":{"key":"2228","name":"District de Nyon"},"canton":{"key":"22","code":"VD","name":"Vaud"},"status":"Real"},{"key":"10041067","name":"Route des Tattes d'Oie","postalCode":"1260","locality":"Nyon","commune":{"key":"5724","name":"Nyon","shortName":"Nyon"},"district":{"key":"2228","name":"District de Nyon"},"canton":{"key":"22","code":"VD","name":"Vaud"},"status":"Real"},{"key":"10256017","name":"Route d'Eysins","postalCode":"1277","locality":"Arnex-sur-Nyon","commune":{"key":"5701","name":"Arnex-sur-Nyon","shortName":"Arnex-sur-Nyon"},"district":{"key":"2228","name":"District de Nyon"},"canton":{"key":"22","code":"VD","name":"Vaud"},"status":"Real"},{"key":"10100832","name":"Route d'Oulteret","postalCode":"1260","locality":"Nyon","commune":{"key":"5724","name":"Nyon","shortName":"Nyon"},"district":{"key":"2228","name":"District de Nyon"},"canton":{"key":"22","code":"VD","name":"Vaud"},"status":"Real"},{"key":"10079238","name":"Route du Boiron","postalCode":"1260","locality":"Nyon","commune":{"key":"5724","name":"Nyon","shortName":"Nyon"},"district":{"key":"2228","name":"District de Nyon"},"canton":{"key":"22","code":"VD","name":"Vaud"},"status":"Real"},{"key":"10101506","name":"Route du Cordon","postalCode":"1260","locality":"Nyon","commune":{"key":"5724","name":"Nyon","shortName":"Nyon"},"district":{"key":"2228","name":"District de Nyon"},"canton":{"key":"22","code":"VD","name":"Vaud"},"status":"Real"},{"key":"10041068","name":"Route du Stand","postalCode":"1260","locality":"Nyon","commune":{"key":"5724","name":"Nyon","shortName":"Nyon"},"district":{"key":"2228","name":"District de Nyon"},"canton":{"key":"22","code":"VD","name":"Vaud"},"status":"Real"},{"key":"10180998","name":"Rue César-Soulié","postalCode":"1260","locality":"Nyon","commune":{"key":"5724","name":"Nyon","shortName":"Nyon"},"district":{"key":"2228","name":"District de Nyon"},"canton":{"key":"22","code":"VD","name":"Vaud"},"status":"Real"},{"key":"10041074","name":"Rue de la Colombière","postalCode":"1260","locality":"Nyon","commune":{"key":"5724","name":"Nyon","shortName":"Nyon"},"district":{"key":"2228","name":"District de Nyon"},"canton":{"key":"22","code":"VD","name":"Vaud"},"status":"Real"},{"key":"10098642","name":"Rue de la Combe","postalCode":"1260","locality":"Nyon","commune":{"key":"5724","name":"Nyon","shortName":"Nyon"},"district":{"key":"2228","name":"District de Nyon"},"canton":{"key":"22","code":"VD","name":"Vaud"},"status":"Real"},{"key":"10098639","name":"Rue Delafléchère","postalCode":"1260","locality":"Nyon","commune":{"key":"5724","name":"Nyon","shortName":"Nyon"},"district":{"key":"2228","name":"District de Nyon"},"canton":{"key":"22","code":"VD","name":"Vaud"},"status":"Real"},{"key":"10180999","name":"Rue de la Gare","postalCode":"1260","locality":"Nyon","commune":{"key":"5724","name":"Nyon","shortName":"Nyon"},"district":{"key":"2228","name":"District de Nyon"},"canton":{"key":"22","code":"VD","name":"Vaud"},"status":"Real"},{"key":"10079241","name":"Rue de la Morâche","postalCode":"1260","locality":"Nyon","commune":{"key":"5724","name":"Nyon","shortName":"Nyon"},"district":{"key":"2228","name":"District de Nyon"},"canton":{"key":"22","code":"VD","name":"Vaud"},"status":"Real"},{"key":"10128056","name":"Rue de la Porcelaine","postalCode":"1260","locality":"Nyon","commune":{"key":"5724","name":"Nyon","shortName":"Nyon"},"district":{"key":"2228","name":"District de Nyon"},"canton":{"key":"22","code":"VD","name":"Vaud"},"status":"Real"},{"key":"10147020","name":"Rue de l'Industrie","postalCode":"1260","locality":"Nyon","commune":{"key":"5724","name":"Nyon","shortName":"Nyon"},"district":{"key":"2228","name":"District de Nyon"},"canton":{"key":"22","code":"VD","name":"Vaud"},"status":"Real"},{"key":"10098641","name":"Rue de Rive","postalCode":"1260","locality":"Nyon","commune":{"key":"5724","name":"Nyon","shortName":"Nyon"},"district":{"key":"2228","name":"District de Nyon"},"canton":{"key":"22","code":"VD","name":"Vaud"},"status":"Real"},{"key":"10041075","name":"Rue des Marchandises","postalCode":"1260","locality":"Nyon","commune":{"key":"5724","name":"Nyon","shortName":"Nyon"},"district":{"key":"2228","name":"District de Nyon"},"canton":{"key":"22","code":"VD","name":"Vaud"},"status":"Real"},{"key":"10041076","name":"Rue du Collège","postalCode":"1260","locality":"Nyon","commune":{"key":"5724","name":"Nyon","shortName":"Nyon"},"district":{"key":"2228","name":"District de Nyon"},"canton":{"key":"22","code":"VD","name":"Vaud"},"status":"Real"},{"key":"10080282","name":"Rue du Marché","postalCode":"1260","locality":"Nyon","commune":{"key":"5724","name":"Nyon","shortName":"Nyon"},"district":{"key":"2228","name":"District de Nyon"},"canton":{"key":"22","code":"VD","name":"Vaud"},"status":"Real"},{"key":"10098644","name":"Rue du Prieuré","postalCode":"1260","locality":"Nyon","commune":{"key":"5724","name":"Nyon","shortName":"Nyon"},"district":{"key":"2228","name":"District de Nyon"},"canton":{"key":"22","code":"VD","name":"Vaud"},"status":"Real"},{"key":"10149425","name":"Rue du Ronzier","postalCode":"1260","locality":"Nyon","commune":{"key":"5724","name":"Nyon","shortName":"Nyon"},"district":{"key":"2228","name":"District de Nyon"},"canton":{"key":"22","code":"VD","name":"Vaud"},"status":"Real"},{"key":"10041077","name":"Rue du Temple","postalCode":"1260","locality":"Nyon","commune":{"key":"5724","name":"Nyon","shortName":"Nyon"},"district":{"key":"2228","name":"District de Nyon"},"canton":{"key":"22","code":"VD","name":"Vaud"},"status":"Real"},{"key":"10041078","name":"Rue du Vieux-Marché","postalCode":"1260","locality":"Nyon","commune":{"key":"5724","name":"Nyon","shortName":"Nyon"},"district":{"key":"2228","name":"District de Nyon"},"canton":{"key":"22","code":"VD","name":"Vaud"},"status":"Real"},{"key":"10101086","name":"Rue du Village","postalCode":"1277","locality":"Arnex-sur-Nyon","commune":{"key":"5701","name":"Arnex-sur-Nyon","shortName":"Arnex-sur-Nyon"},"district":{"key":"2228","name":"District de Nyon"},"canton":{"key":"22","code":"VD","name":"Vaud"},"status":"Real"},{"key":"10041069","name":"Rue Gaudin","postalCode":"1260","locality":"Nyon","commune":{"key":"5724","name":"Nyon","shortName":"Nyon"},"district":{"key":"2228","name":"District de Nyon"},"canton":{"key":"22","code":"VD","name":"Vaud"},"status":"Real"},{"key":"10079239","name":"Rue Jules-Gachet","postalCode":"1260","locality":"Nyon","commune":{"key":"5724","name":"Nyon","shortName":"Nyon"},"district":{"key":"2228","name":"District de Nyon"},"canton":{"key":"22","code":"VD","name":"Vaud"},"status":"Real"},{"key":"10041070","name":"Rue Juste-Olivier","postalCode":"1260","locality":"Nyon","commune":{"key":"5724","name":"Nyon","shortName":"Nyon"},"district":{"key":"2228","name":"District de Nyon"},"canton":{"key":"22","code":"VD","name":"Vaud"},"status":"Real"},{"key":"10098645","name":"Ruelle de la Muraz","postalCode":"1260","locality":"Nyon","commune":{"key":"5724","name":"Nyon","shortName":"Nyon"},"district":{"key":"2228","name":"District de Nyon"},"canton":{"key":"22","code":"VD","name":"Vaud"},"status":"Real"},{"key":"10080283","name":"Ruelle de la Poterne","postalCode":"1260","locality":"Nyon","commune":{"key":"5724","name":"Nyon","shortName":"Nyon"},"district":{"key":"2228","name":"District de Nyon"},"canton":{"key":"22","code":"VD","name":"Vaud"},"status":"Real"},{"key":"10041079","name":"Ruelle de la Tour","postalCode":"1260","locality":"Nyon","commune":{"key":"5724","name":"Nyon","shortName":"Nyon"},"district":{"key":"2228","name":"District de Nyon"},"canton":{"key":"22","code":"VD","name":"Vaud"},"status":"Real"},{"key":"10041080","name":"Ruelle des Moulins","postalCode":"1260","locality":"Nyon","commune":{"key":"5724","name":"Nyon","shortName":"Nyon"},"district":{"key":"2228","name":"District de Nyon"},"canton":{"key":"22","code":"VD","name":"Vaud"},"status":"Real"},{"key":"10115500","name":"Ruelle du Forum","postalCode":"1260","locality":"Nyon","commune":{"key":"5724","name":"Nyon","shortName":"Nyon"},"district":{"key":"2228","name":"District de Nyon"},"canton":{"key":"22","code":"VD","name":"Vaud"},"status":"Real"},{"key":"10098640","name":"Rue Maupertuis","postalCode":"1260","locality":"Nyon","commune":{"key":"5724","name":"Nyon","shortName":"Nyon"},"district":{"key":"2228","name":"District de Nyon"},"canton":{"key":"22","code":"VD","name":"Vaud"},"status":"Real"},{"key":"10041071","name":"Rue Neuve","postalCode":"1260","locality":"Nyon","commune":{"key":"5724","name":"Nyon","shortName":"Nyon"},"district":{"key":"2228","name":"District de Nyon"},"canton":{"key":"22","code":"VD","name":"Vaud"},"status":"Real"},{"key":"10041072","name":"Rue Nicole","postalCode":"1260","locality":"Nyon","commune":{"key":"5724","name":"Nyon","shortName":"Nyon"},"district":{"key":"2228","name":"District de Nyon"},"canton":{"key":"22","code":"VD","name":"Vaud"},"status":"Real"},{"key":"10079240","name":"Rue Perdtemps","postalCode":"1260","locality":"Nyon","commune":{"key":"5724","name":"Nyon","shortName":"Nyon"},"district":{"key":"2228","name":"District de Nyon"},"canton":{"key":"22","code":"VD","name":"Vaud"},"status":"Real"},{"key":"10159942","name":"Sentier de Bois-Bougy","postalCode":"1260","locality":"Nyon","commune":{"key":"5724","name":"Nyon","shortName":"Nyon"},"district":{"key":"2228","name":"District de Nyon"},"canton":{"key":"22","code":"VD","name":"Vaud"},"status":"Real"},{"key":"10159944","name":"Sentier de Haute-Combe","postalCode":"1260","locality":"Nyon","commune":{"key":"5724","name":"Nyon","shortName":"Nyon"},"district":{"key":"2228","name":"District de Nyon"},"canton":{"key":"22","code":"VD","name":"Vaud"},"status":"Real"},{"key":"10143441","name":"Sentier de la Combe","postalCode":"1260","locality":"Nyon","commune":{"key":"5724","name":"Nyon","shortName":"Nyon"},"district":{"key":"2228","name":"District de Nyon"},"canton":{"key":"22","code":"VD","name":"Vaud"},"status":"Real"},{"key":"10159940","name":"Sentier de Prangins","postalCode":"1260","locality":"Nyon","commune":{"key":"5724","name":"Nyon","shortName":"Nyon"},"district":{"key":"2228","name":"District de Nyon"},"canton":{"key":"22","code":"VD","name":"Vaud"},"status":"Real"},{"key":"10158347","name":"Sentier des Jouvencelles","postalCode":"1260","locality":"Nyon","commune":{"key":"5724","name":"Nyon","shortName":"Nyon"},"district":{"key":"2228","name":"District de Nyon"},"canton":{"key":"22","code":"VD","name":"Vaud"},"status":"Real"},{"key":"10160053","name":"Sentier du Boiron","postalCode":"1260","locality":"Nyon","commune":{"key":"5724","name":"Nyon","shortName":"Nyon"},"district":{"key":"2228","name":"District de Nyon"},"canton":{"key":"22","code":"VD","name":"Vaud"},"status":"Real"},{"key":"10158045","name":"Sentier du Cossy","postalCode":"1260","locality":"Nyon","commune":{"key":"5724","name":"Nyon","shortName":"Nyon"},"district":{"key":"2228","name":"District de Nyon"},"canton":{"key":"22","code":"VD","name":"Vaud"},"status":"Real"},{"key":"10159939","name":"Sentier du Rocher","postalCode":"1260","locality":"Nyon","commune":{"key":"5724","name":"Nyon","shortName":"Nyon"},"district":{"key":"2228","name":"District de Nyon"},"canton":{"key":"22","code":"VD","name":"Vaud"},"status":"Real"},{"key":"10158346","name":"Terrasse Bonstetten","postalCode":"1260","locality":"Nyon","commune":{"key":"5724","name":"Nyon","shortName":"Nyon"},"district":{"key":"2228","name":"District de Nyon"},"canton":{"key":"22","code":"VD","name":"Vaud"},"status":"Real"},{"key":"10001358","name":"Terrasse Dortu","postalCode":"1260","locality":"Nyon","commune":{"key":"5724","name":"Nyon","shortName":"Nyon"},"district":{"key":"2228","name":"District de Nyon"},"canton":{"key":"22","code":"VD","name":"Vaud"},"status":"Real"},{"key":"10098643","name":"Vy-Creuse","postalCode":"1260","locality":"Nyon","commune":{"key":"5724","name":"Nyon","shortName":"Nyon"},"district":{"key":"2228","name":"District de Nyon"},"canton":{"key":"22","code":"VD","name":"Vaud"},"status":"Real"},]