[{"key":"10203442","name":"Bachtelstrasse","postalCode":"8467","locality":"Truttikon","commune":{"key":"41","name":"Truttikon","shortName":"Truttikon"},"district":{"key":"102","name":"Bezirk Andelfingen"},"canton":{"key":"1","code":"ZH","name":"Zürich"},"status":"Real"},{"key":"10057565","name":"Basadingerstrasse","postalCode":"8467","locality":"Truttikon","commune":{"key":"41","name":"Truttikon","shortName":"Truttikon"},"district":{"key":"102","name":"Bezirk Andelfingen"},"canton":{"key":"1","code":"ZH","name":"Zürich"},"status":"Real"},{"key":"10189850","name":"Blachenstrasse","postalCode":"8467","locality":"Truttikon","commune":{"key":"41","name":"Truttikon","shortName":"Truttikon"},"district":{"key":"102","name":"Bezirk Andelfingen"},"canton":{"key":"1","code":"ZH","name":"Zürich"},"status":"Real"},{"key":"10243178","name":"Blachenweg","postalCode":"8467","locality":"Truttikon","commune":{"key":"41","name":"Truttikon","shortName":"Truttikon"},"district":{"key":"102","name":"Bezirk Andelfingen"},"canton":{"key":"1","code":"ZH","name":"Zürich"},"status":"Real"},{"key":"10243185","name":"Breiteweg","postalCode":"8467","locality":"Truttikon","commune":{"key":"41","name":"Truttikon","shortName":"Truttikon"},"district":{"key":"102","name":"Bezirk Andelfingen"},"canton":{"key":"1","code":"ZH","name":"Zürich"},"status":"Real"},{"key":"10203443","name":"Brüelstrasse","postalCode":"8467","locality":"Truttikon","commune":{"key":"41","name":"Truttikon","shortName":"Truttikon"},"district":{"key":"102","name":"Bezirk Andelfingen"},"canton":{"key":"1","code":"ZH","name":"Zürich"},"status":"Real"},{"key":"10000876","name":"Bucherweg","postalCode":"8467","locality":"Truttikon","commune":{"key":"41","name":"Truttikon","shortName":"Truttikon"},"district":{"key":"102","name":"Bezirk Andelfingen"},"canton":{"key":"1","code":"ZH","name":"Zürich"},"status":"Real"},{"key":"10172974","name":"Buelerweg","postalCode":"8467","locality":"Truttikon","commune":{"key":"41","name":"Truttikon","shortName":"Truttikon"},"district":{"key":"102","name":"Bezirk Andelfingen"},"canton":{"key":"1","code":"ZH","name":"Zürich"},"status":"Real"},{"key":"10247817","name":"Bungertenweg","postalCode":"8467","locality":"Truttikon","commune":{"key":"41","name":"Truttikon","shortName":"Truttikon"},"district":{"key":"102","name":"Bezirk Andelfingen"},"canton":{"key":"1","code":"ZH","name":"Zürich"},"status":"Real"},{"key":"10106318","name":"Chalchbüel","postalCode":"8467","locality":"Truttikon","commune":{"key":"41","name":"Truttikon","shortName":"Truttikon"},"district":{"key":"102","name":"Bezirk Andelfingen"},"canton":{"key":"1","code":"ZH","name":"Zürich"},"status":"Real"},{"key":"10000877","name":"Dickihofstrasse","postalCode":"8467","locality":"Truttikon","commune":{"key":"41","name":"Truttikon","shortName":"Truttikon"},"district":{"key":"102","name":"Bezirk Andelfingen"},"canton":{"key":"1","code":"ZH","name":"Zürich"},"status":"Real"},{"key":"10106081","name":"Eichi","postalCode":"8467","locality":"Truttikon","commune":{"key":"41","name":"Truttikon","shortName":"Truttikon"},"district":{"key":"102","name":"Bezirk Andelfingen"},"canton":{"key":"1","code":"ZH","name":"Zürich"},"status":"Real"},{"key":"10055337","name":"Eichistrasse","postalCode":"8467","locality":"Truttikon","commune":{"key":"41","name":"Truttikon","shortName":"Truttikon"},"district":{"key":"102","name":"Bezirk Andelfingen"},"canton":{"key":"1","code":"ZH","name":"Zürich"},"status":"Real"},{"key":"10243186","name":"Flackliweg","postalCode":"8467","locality":"Truttikon","commune":{"key":"41","name":"Truttikon","shortName":"Truttikon"},"district":{"key":"102","name":"Bezirk Andelfingen"},"canton":{"key":"1","code":"ZH","name":"Zürich"},"status":"Real"},{"key":"10080982","name":"Freihofweg","postalCode":"8467","locality":"Truttikon","commune":{"key":"41","name":"Truttikon","shortName":"Truttikon"},"district":{"key":"102","name":"Bezirk Andelfingen"},"canton":{"key":"1","code":"ZH","name":"Zürich"},"status":"Real"},{"key":"10200202","name":"Gabelmacherweg","postalCode":"8467","locality":"Truttikon","commune":{"key":"41","name":"Truttikon","shortName":"Truttikon"},"district":{"key":"102","name":"Bezirk Andelfingen"},"canton":{"key":"1","code":"ZH","name":"Zürich"},"status":"Real"},{"key":"10203444","name":"Grüt","postalCode":"8467","locality":"Truttikon","commune":{"key":"41","name":"Truttikon","shortName":"Truttikon"},"district":{"key":"102","name":"Bezirk Andelfingen"},"canton":{"key":"1","code":"ZH","name":"Zürich"},"status":"Real"},{"key":"10053189","name":"Grüthof","postalCode":"8467","locality":"Truttikon","commune":{"key":"41","name":"Truttikon","shortName":"Truttikon"},"district":{"key":"102","name":"Bezirk Andelfingen"},"canton":{"key":"1","code":"ZH","name":"Zürich"},"status":"Real"},{"key":"10243182","name":"Hägelerweg","postalCode":"8467","locality":"Truttikon","commune":{"key":"41","name":"Truttikon","shortName":"Truttikon"},"district":{"key":"102","name":"Bezirk Andelfingen"},"canton":{"key":"1","code":"ZH","name":"Zürich"},"status":"Real"},{"key":"10000878","name":"Hauptstrasse","postalCode":"8467","locality":"Truttikon","commune":{"key":"41","name":"Truttikon","shortName":"Truttikon"},"district":{"key":"102","name":"Bezirk Andelfingen"},"canton":{"key":"1","code":"ZH","name":"Zürich"},"status":"Real"},{"key":"10200140","name":"Heidenmändlistrasse","postalCode":"8467","locality":"Truttikon","commune":{"key":"41","name":"Truttikon","shortName":"Truttikon"},"district":{"key":"102","name":"Bezirk Andelfingen"},"canton":{"key":"1","code":"ZH","name":"Zürich"},"status":"Real"},{"key":"10000879","name":"Hertlibuck","postalCode":"8467","locality":"Truttikon","commune":{"key":"41","name":"Truttikon","shortName":"Truttikon"},"district":{"key":"102","name":"Bezirk Andelfingen"},"canton":{"key":"1","code":"ZH","name":"Zürich"},"status":"Real"},{"key":"10243177","name":"Hertlisriet","postalCode":"8467","locality":"Truttikon","commune":{"key":"41","name":"Truttikon","shortName":"Truttikon"},"district":{"key":"102","name":"Bezirk Andelfingen"},"canton":{"key":"1","code":"ZH","name":"Zürich"},"status":"Real"},{"key":"10173828","name":"Hinterbrüel","postalCode":"8467","locality":"Truttikon","commune":{"key":"41","name":"Truttikon","shortName":"Truttikon"},"district":{"key":"102","name":"Bezirk Andelfingen"},"canton":{"key":"1","code":"ZH","name":"Zürich"},"status":"Real"},{"key":"10099750","name":"Hinterdorfstrasse","postalCode":"8467","locality":"Truttikon","commune":{"key":"41","name":"Truttikon","shortName":"Truttikon"},"district":{"key":"102","name":"Bezirk Andelfingen"},"canton":{"key":"1","code":"ZH","name":"Zürich"},"status":"Real"},{"key":"10116766","name":"Hinterpüntenstrasse","postalCode":"8467","locality":"Truttikon","commune":{"key":"41","name":"Truttikon","shortName":"Truttikon"},"district":{"key":"102","name":"Bezirk Andelfingen"},"canton":{"key":"1","code":"ZH","name":"Zürich"},"status":"Real"},{"key":"10243184","name":"Huebhölzliweg","postalCode":"8467","locality":"Truttikon","commune":{"key":"41","name":"Truttikon","shortName":"Truttikon"},"district":{"key":"102","name":"Bezirk Andelfingen"},"canton":{"key":"1","code":"ZH","name":"Zürich"},"status":"Real"},{"key":"10000880","name":"Husemerbüel","postalCode":"8467","locality":"Truttikon","commune":{"key":"41","name":"Truttikon","shortName":"Truttikon"},"district":{"key":"102","name":"Bezirk Andelfingen"},"canton":{"key":"1","code":"ZH","name":"Zürich"},"status":"Real"},{"key":"10187515","name":"Im Bächi","postalCode":"8467","locality":"Truttikon","commune":{"key":"41","name":"Truttikon","shortName":"Truttikon"},"district":{"key":"102","name":"Bezirk Andelfingen"},"canton":{"key":"1","code":"ZH","name":"Zürich"},"status":"Real"},{"key":"10080983","name":"Im Genter","postalCode":"8467","locality":"Truttikon","commune":{"key":"41","name":"Truttikon","shortName":"Truttikon"},"district":{"key":"102","name":"Bezirk Andelfingen"},"canton":{"key":"1","code":"ZH","name":"Zürich"},"status":"Real"},{"key":"10243183","name":"Junkholzstrasse","postalCode":"8467","locality":"Truttikon","commune":{"key":"41","name":"Truttikon","shortName":"Truttikon"},"district":{"key":"102","name":"Bezirk Andelfingen"},"canton":{"key":"1","code":"ZH","name":"Zürich"},"status":"Real"},{"key":"10203445","name":"Käserweg","postalCode":"8467","locality":"Truttikon","commune":{"key":"41","name":"Truttikon","shortName":"Truttikon"},"district":{"key":"102","name":"Bezirk Andelfingen"},"canton":{"key":"1","code":"ZH","name":"Zürich"},"status":"Real"},{"key":"10203446","name":"Kurligasse","postalCode":"8467","locality":"Truttikon","commune":{"key":"41","name":"Truttikon","shortName":"Truttikon"},"district":{"key":"102","name":"Bezirk Andelfingen"},"canton":{"key":"1","code":"ZH","name":"Zürich"},"status":"Real"},{"key":"10000881","name":"Langenmooserstrasse","postalCode":"8467","locality":"Truttikon","commune":{"key":"41","name":"Truttikon","shortName":"Truttikon"},"district":{"key":"102","name":"Bezirk Andelfingen"},"canton":{"key":"1","code":"ZH","name":"Zürich"},"status":"Real"},{"key":"10175258","name":"Mattenhof","postalCode":"8467","locality":"Truttikon","commune":{"key":"41","name":"Truttikon","shortName":"Truttikon"},"district":{"key":"102","name":"Bezirk Andelfingen"},"canton":{"key":"1","code":"ZH","name":"Zürich"},"status":"Real"},{"key":"10203447","name":"Mittleri Junkholzstrasse","postalCode":"8467","locality":"Truttikon","commune":{"key":"41","name":"Truttikon","shortName":"Truttikon"},"district":{"key":"102","name":"Bezirk Andelfingen"},"canton":{"key":"1","code":"ZH","name":"Zürich"},"status":"Real"},{"key":"10203448","name":"Nachtweidstrasse","postalCode":"8467","locality":"Truttikon","commune":{"key":"41","name":"Truttikon","shortName":"Truttikon"},"district":{"key":"102","name":"Bezirk Andelfingen"},"canton":{"key":"1","code":"ZH","name":"Zürich"},"status":"Real"},{"key":"10243179","name":"Nüsatzweg","postalCode":"8467","locality":"Truttikon","commune":{"key":"41","name":"Truttikon","shortName":"Truttikon"},"district":{"key":"102","name":"Bezirk Andelfingen"},"canton":{"key":"1","code":"ZH","name":"Zürich"},"status":"Real"},{"key":"10243181","name":"Ochsenrietweg","postalCode":"8467","locality":"Truttikon","commune":{"key":"41","name":"Truttikon","shortName":"Truttikon"},"district":{"key":"102","name":"Bezirk Andelfingen"},"canton":{"key":"1","code":"ZH","name":"Zürich"},"status":"Real"},{"key":"10203449","name":"Ossingerstrasse","postalCode":"8467","locality":"Truttikon","commune":{"key":"41","name":"Truttikon","shortName":"Truttikon"},"district":{"key":"102","name":"Bezirk Andelfingen"},"canton":{"key":"1","code":"ZH","name":"Zürich"},"status":"Real"},{"key":"10203450","name":"Pflanzschulstrasse","postalCode":"8467","locality":"Truttikon","commune":{"key":"41","name":"Truttikon","shortName":"Truttikon"},"district":{"key":"102","name":"Bezirk Andelfingen"},"canton":{"key":"1","code":"ZH","name":"Zürich"},"status":"Real"},{"key":"10053190","name":"Riedhof","postalCode":"8467","locality":"Truttikon","commune":{"key":"41","name":"Truttikon","shortName":"Truttikon"},"district":{"key":"102","name":"Bezirk Andelfingen"},"canton":{"key":"1","code":"ZH","name":"Zürich"},"status":"Real"},{"key":"10203451","name":"Rietbuckstrasse","postalCode":"8467","locality":"Truttikon","commune":{"key":"41","name":"Truttikon","shortName":"Truttikon"},"district":{"key":"102","name":"Bezirk Andelfingen"},"canton":{"key":"1","code":"ZH","name":"Zürich"},"status":"Real"},{"key":"10243187","name":"Rietweg","postalCode":"8467","locality":"Truttikon","commune":{"key":"41","name":"Truttikon","shortName":"Truttikon"},"district":{"key":"102","name":"Bezirk Andelfingen"},"canton":{"key":"1","code":"ZH","name":"Zürich"},"status":"Real"},{"key":"10000882","name":"Schulhausstrasse","postalCode":"8467","locality":"Truttikon","commune":{"key":"41","name":"Truttikon","shortName":"Truttikon"},"district":{"key":"102","name":"Bezirk Andelfingen"},"canton":{"key":"1","code":"ZH","name":"Zürich"},"status":"Real"},{"key":"10203452","name":"Schulweg","postalCode":"8467","locality":"Truttikon","commune":{"key":"41","name":"Truttikon","shortName":"Truttikon"},"district":{"key":"102","name":"Bezirk Andelfingen"},"canton":{"key":"1","code":"ZH","name":"Zürich"},"status":"Real"},{"key":"10127035","name":"Schützenweg","postalCode":"8467","locality":"Truttikon","commune":{"key":"41","name":"Truttikon","shortName":"Truttikon"},"district":{"key":"102","name":"Bezirk Andelfingen"},"canton":{"key":"1","code":"ZH","name":"Zürich"},"status":"Real"},{"key":"10203453","name":"Spitzlerweg","postalCode":"8467","locality":"Truttikon","commune":{"key":"41","name":"Truttikon","shortName":"Truttikon"},"district":{"key":"102","name":"Bezirk Andelfingen"},"canton":{"key":"1","code":"ZH","name":"Zürich"},"status":"Real"},{"key":"10053191","name":"Sunnehof","postalCode":"8467","locality":"Truttikon","commune":{"key":"41","name":"Truttikon","shortName":"Truttikon"},"district":{"key":"102","name":"Bezirk Andelfingen"},"canton":{"key":"1","code":"ZH","name":"Zürich"},"status":"Real"},{"key":"10203454","name":"Underi Junkholzstrasse","postalCode":"8467","locality":"Truttikon","commune":{"key":"41","name":"Truttikon","shortName":"Truttikon"},"district":{"key":"102","name":"Bezirk Andelfingen"},"canton":{"key":"1","code":"ZH","name":"Zürich"},"status":"Real"},{"key":"10080984","name":"Unterdorfstrasse","postalCode":"8467","locality":"Truttikon","commune":{"key":"41","name":"Truttikon","shortName":"Truttikon"},"district":{"key":"102","name":"Bezirk Andelfingen"},"canton":{"key":"1","code":"ZH","name":"Zürich"},"status":"Real"},{"key":"10243180","name":"Vorbuechenstrasse","postalCode":"8467","locality":"Truttikon","commune":{"key":"41","name":"Truttikon","shortName":"Truttikon"},"district":{"key":"102","name":"Bezirk Andelfingen"},"canton":{"key":"1","code":"ZH","name":"Zürich"},"status":"Real"},{"key":"10151256","name":"Vorderbrüel","postalCode":"8467","locality":"Truttikon","commune":{"key":"41","name":"Truttikon","shortName":"Truttikon"},"district":{"key":"102","name":"Bezirk Andelfingen"},"canton":{"key":"1","code":"ZH","name":"Zürich"},"status":"Real"},{"key":"10024021","name":"Waldhof","postalCode":"8467","locality":"Truttikon","commune":{"key":"41","name":"Truttikon","shortName":"Truttikon"},"district":{"key":"102","name":"Bezirk Andelfingen"},"canton":{"key":"1","code":"ZH","name":"Zürich"},"status":"Real"},{"key":"10057566","name":"Wiesenrainstrasse","postalCode":"8467","locality":"Truttikon","commune":{"key":"41","name":"Truttikon","shortName":"Truttikon"},"district":{"key":"102","name":"Bezirk Andelfingen"},"canton":{"key":"1","code":"ZH","name":"Zürich"},"status":"Real"},{"key":"10000884","name":"Zweierstrasse","postalCode":"8467","locality":"Truttikon","commune":{"key":"41","name":"Truttikon","shortName":"Truttikon"},"district":{"key":"102","name":"Bezirk Andelfingen"},"canton":{"key":"1","code":"ZH","name":"Zürich"},"status":"Real"},]