[{"key":"10256210","name":"Ancienne route d'Anzère","postalCode":"1966","locality":"Fortunau (Ayent)","commune":{"key":"6082","name":"Ayent","shortName":"Ayent"},"district":{"key":"2305","name":"District d'Hérens"},"canton":{"key":"23","code":"VS","name":"Valais / Wallis"},"status":"Real"},{"key":"10244344","name":"Bognou","postalCode":"1966","locality":"Fortunau (Ayent)","commune":{"key":"6082","name":"Ayent","shortName":"Ayent"},"district":{"key":"2305","name":"District d'Hérens"},"canton":{"key":"23","code":"VS","name":"Valais / Wallis"},"status":"Real"},{"key":"10045742","name":"Chemin de Brohenne","postalCode":"1966","locality":"Argnou (Ayent)","commune":{"key":"6082","name":"Ayent","shortName":"Ayent"},"district":{"key":"2305","name":"District d'Hérens"},"canton":{"key":"23","code":"VS","name":"Valais / Wallis"},"status":"Real"},{"key":"10118628","name":"Chemin de Chérouche","postalCode":"1966","locality":"Argnou (Ayent)","commune":{"key":"6082","name":"Ayent","shortName":"Ayent"},"district":{"key":"2305","name":"District d'Hérens"},"canton":{"key":"23","code":"VS","name":"Valais / Wallis"},"status":"Real"},{"key":"10102382","name":"Chemin De Coloé","postalCode":"1966","locality":"Signèse (Ayent)","commune":{"key":"6082","name":"Ayent","shortName":"Ayent"},"district":{"key":"2305","name":"District d'Hérens"},"canton":{"key":"23","code":"VS","name":"Valais / Wallis"},"status":"Real"},{"key":"10256212","name":"Chemin d'Ehéley","postalCode":"1966","locality":"Fortunau (Ayent)","commune":{"key":"6082","name":"Ayent","shortName":"Ayent"},"district":{"key":"2305","name":"District d'Hérens"},"canton":{"key":"23","code":"VS","name":"Valais / Wallis"},"status":"Real"},{"key":"10045743","name":"Chemin de la Chapelle","postalCode":"1966","locality":"Luc (Ayent)","commune":{"key":"6082","name":"Ayent","shortName":"Ayent"},"district":{"key":"2305","name":"District d'Hérens"},"canton":{"key":"23","code":"VS","name":"Valais / Wallis"},"status":"Real"},{"key":"10256229","name":"Chemin de Ravouéné","postalCode":"1966","locality":"Fortunau (Ayent)","commune":{"key":"6082","name":"Ayent","shortName":"Ayent"},"district":{"key":"2305","name":"District d'Hérens"},"canton":{"key":"23","code":"VS","name":"Valais / Wallis"},"status":"Real"},{"key":"10102383","name":"Chemin des Champs","postalCode":"1966","locality":"Fortunau (Ayent)","commune":{"key":"6082","name":"Ayent","shortName":"Ayent"},"district":{"key":"2305","name":"District d'Hérens"},"canton":{"key":"23","code":"VS","name":"Valais / Wallis"},"status":"Real"},{"key":"10082135","name":"Chemin des Crêtes","postalCode":"1966","locality":"Argnou (Ayent)","commune":{"key":"6082","name":"Ayent","shortName":"Ayent"},"district":{"key":"2305","name":"District d'Hérens"},"canton":{"key":"23","code":"VS","name":"Valais / Wallis"},"status":"Real"},{"key":"10045744","name":"Chemin des Flans","postalCode":"1966","locality":"Fortunau (Ayent)","commune":{"key":"6082","name":"Ayent","shortName":"Ayent"},"district":{"key":"2305","name":"District d'Hérens"},"canton":{"key":"23","code":"VS","name":"Valais / Wallis"},"status":"Real"},{"key":"10045744","name":"Chemin des Flans","postalCode":"1966","locality":"St-Romain (Ayent)","commune":{"key":"6082","name":"Ayent","shortName":"Ayent"},"district":{"key":"2305","name":"District d'Hérens"},"canton":{"key":"23","code":"VS","name":"Valais / Wallis"},"status":"Real"},{"key":"10256238","name":"Chemin de St-Antoine","postalCode":"1966","locality":"Signèse (Ayent)","commune":{"key":"6082","name":"Ayent","shortName":"Ayent"},"district":{"key":"2305","name":"District d'Hérens"},"canton":{"key":"23","code":"VS","name":"Valais / Wallis"},"status":"Real"},{"key":"10256239","name":"Chemin de Trédouchè","postalCode":"1966","locality":"Fortunau (Ayent)","commune":{"key":"6082","name":"Ayent","shortName":"Ayent"},"district":{"key":"2305","name":"District d'Hérens"},"canton":{"key":"23","code":"VS","name":"Valais / Wallis"},"status":"Real"},{"key":"10189656","name":"Chemin du Béton","postalCode":"1966","locality":"Saxonne (Ayent)","commune":{"key":"6082","name":"Ayent","shortName":"Ayent"},"district":{"key":"2305","name":"District d'Hérens"},"canton":{"key":"23","code":"VS","name":"Valais / Wallis"},"status":"Real"},{"key":"10045745","name":"Chemin du Pétoly","postalCode":"1966","locality":"Blignou (Ayent)","commune":{"key":"6082","name":"Ayent","shortName":"Ayent"},"district":{"key":"2305","name":"District d'Hérens"},"canton":{"key":"23","code":"VS","name":"Valais / Wallis"},"status":"Real"},{"key":"10256214","name":"Chemin du Proz du Chei","postalCode":"1966","locality":"Signèse (Ayent)","commune":{"key":"6082","name":"Ayent","shortName":"Ayent"},"district":{"key":"2305","name":"District d'Hérens"},"canton":{"key":"23","code":"VS","name":"Valais / Wallis"},"status":"Real"},{"key":"10137598","name":"Chemin du Regrin","postalCode":"1966","locality":"La Place (Ayent)","commune":{"key":"6082","name":"Ayent","shortName":"Ayent"},"district":{"key":"2305","name":"District d'Hérens"},"canton":{"key":"23","code":"VS","name":"Valais / Wallis"},"status":"Real"},{"key":"10082136","name":"Chemin du Sapé","postalCode":"1966","locality":"Saxonne (Ayent)","commune":{"key":"6082","name":"Ayent","shortName":"Ayent"},"district":{"key":"2305","name":"District d'Hérens"},"canton":{"key":"23","code":"VS","name":"Valais / Wallis"},"status":"Real"},{"key":"10127944","name":"Claya de Tomme","postalCode":"1966","locality":"Saxonne (Ayent)","commune":{"key":"6082","name":"Ayent","shortName":"Ayent"},"district":{"key":"2305","name":"District d'Hérens"},"canton":{"key":"23","code":"VS","name":"Valais / Wallis"},"status":"Real"},{"key":"10102384","name":"La Clayette","postalCode":"1966","locality":"St-Romain (Ayent)","commune":{"key":"6082","name":"Ayent","shortName":"Ayent"},"district":{"key":"2305","name":"District d'Hérens"},"canton":{"key":"23","code":"VS","name":"Valais / Wallis"},"status":"Real"},{"key":"10244345","name":"La Giète Délé","postalCode":"1966","locality":"Fortunau (Ayent)","commune":{"key":"6082","name":"Ayent","shortName":"Ayent"},"district":{"key":"2305","name":"District d'Hérens"},"canton":{"key":"23","code":"VS","name":"Valais / Wallis"},"status":"Real"},{"key":"10244341","name":"La Giète de Moos","postalCode":"1966","locality":"Fortunau (Ayent)","commune":{"key":"6082","name":"Ayent","shortName":"Ayent"},"district":{"key":"2305","name":"District d'Hérens"},"canton":{"key":"23","code":"VS","name":"Valais / Wallis"},"status":"Real"},{"key":"10068725","name":"Les Flans","postalCode":"1966","locality":"Fortunau (Ayent)","commune":{"key":"6082","name":"Ayent","shortName":"Ayent"},"district":{"key":"2305","name":"District d'Hérens"},"canton":{"key":"23","code":"VS","name":"Valais / Wallis"},"status":"Real"},{"key":"10244343","name":"Les Fugesses","postalCode":"1966","locality":"Fortunau (Ayent)","commune":{"key":"6082","name":"Ayent","shortName":"Ayent"},"district":{"key":"2305","name":"District d'Hérens"},"canton":{"key":"23","code":"VS","name":"Valais / Wallis"},"status":"Real"},{"key":"10246333","name":"Manau","postalCode":"1966","locality":"Signèse (Ayent)","commune":{"key":"6082","name":"Ayent","shortName":"Ayent"},"district":{"key":"2305","name":"District d'Hérens"},"canton":{"key":"23","code":"VS","name":"Valais / Wallis"},"status":"Real"},{"key":"10244340","name":"Ozonna","postalCode":"1966","locality":"Fortunau (Ayent)","commune":{"key":"6082","name":"Ayent","shortName":"Ayent"},"district":{"key":"2305","name":"District d'Hérens"},"canton":{"key":"23","code":"VS","name":"Valais / Wallis"},"status":"Real"},{"key":"10102385","name":"Place de la Pentecôte","postalCode":"1966","locality":"St-Romain (Ayent)","commune":{"key":"6082","name":"Ayent","shortName":"Ayent"},"district":{"key":"2305","name":"District d'Hérens"},"canton":{"key":"23","code":"VS","name":"Valais / Wallis"},"status":"Real"},{"key":"10115842","name":"Place de l'Hôtel","postalCode":"1966","locality":"St-Romain (Ayent)","commune":{"key":"6082","name":"Ayent","shortName":"Ayent"},"district":{"key":"2305","name":"District d'Hérens"},"canton":{"key":"23","code":"VS","name":"Valais / Wallis"},"status":"Real"},{"key":"10256219","name":"Place du Pré des Soeurs","postalCode":"1966","locality":"St-Romain (Ayent)","commune":{"key":"6082","name":"Ayent","shortName":"Ayent"},"district":{"key":"2305","name":"District d'Hérens"},"canton":{"key":"23","code":"VS","name":"Valais / Wallis"},"status":"Real"},{"key":"10123126","name":"Roa de la Place","postalCode":"1966","locality":"La Place (Ayent)","commune":{"key":"6082","name":"Ayent","shortName":"Ayent"},"district":{"key":"2305","name":"District d'Hérens"},"canton":{"key":"23","code":"VS","name":"Valais / Wallis"},"status":"Real"},{"key":"10156203","name":"Roa de Luc","postalCode":"1966","locality":"Luc (Ayent)","commune":{"key":"6082","name":"Ayent","shortName":"Ayent"},"district":{"key":"2305","name":"District d'Hérens"},"canton":{"key":"23","code":"VS","name":"Valais / Wallis"},"status":"Real"},{"key":"10156203","name":"Roa de Luc","postalCode":"1966","locality":"St-Romain (Ayent)","commune":{"key":"6082","name":"Ayent","shortName":"Ayent"},"district":{"key":"2305","name":"District d'Hérens"},"canton":{"key":"23","code":"VS","name":"Valais / Wallis"},"status":"Real"},{"key":"10256221","name":"Roa des Marennes","postalCode":"1966","locality":"Botyre (Ayent)","commune":{"key":"6082","name":"Ayent","shortName":"Ayent"},"district":{"key":"2305","name":"District d'Hérens"},"canton":{"key":"23","code":"VS","name":"Valais / Wallis"},"status":"Real"},{"key":"10045749","name":"Roa du Dômo","postalCode":"1966","locality":"Fortunau (Ayent)","commune":{"key":"6082","name":"Ayent","shortName":"Ayent"},"district":{"key":"2305","name":"District d'Hérens"},"canton":{"key":"23","code":"VS","name":"Valais / Wallis"},"status":"Real"},{"key":"10045749","name":"Roa du Dômo","postalCode":"1966","locality":"Luc (Ayent)","commune":{"key":"6082","name":"Ayent","shortName":"Ayent"},"district":{"key":"2305","name":"District d'Hérens"},"canton":{"key":"23","code":"VS","name":"Valais / Wallis"},"status":"Real"},{"key":"10082137","name":"Route d'Anzère","postalCode":"1966","locality":"Fortunau (Ayent)","commune":{"key":"6082","name":"Ayent","shortName":"Ayent"},"district":{"key":"2305","name":"District d'Hérens"},"canton":{"key":"23","code":"VS","name":"Valais / Wallis"},"status":"Real"},{"key":"10082137","name":"Route d'Anzère","postalCode":"1966","locality":"Saxonne (Ayent)","commune":{"key":"6082","name":"Ayent","shortName":"Ayent"},"district":{"key":"2305","name":"District d'Hérens"},"canton":{"key":"23","code":"VS","name":"Valais / Wallis"},"status":"Real"},{"key":"10082137","name":"Route d'Anzère","postalCode":"1966","locality":"St-Romain (Ayent)","commune":{"key":"6082","name":"Ayent","shortName":"Ayent"},"district":{"key":"2305","name":"District d'Hérens"},"canton":{"key":"23","code":"VS","name":"Valais / Wallis"},"status":"Real"},{"key":"10256227","name":"Route de Beulet","postalCode":"1966","locality":"La Place (Ayent)","commune":{"key":"6082","name":"Ayent","shortName":"Ayent"},"district":{"key":"2305","name":"District d'Hérens"},"canton":{"key":"23","code":"VS","name":"Valais / Wallis"},"status":"Real"},{"key":"10256227","name":"Route de Beulet","postalCode":"1966","locality":"Signèse (Ayent)","commune":{"key":"6082","name":"Ayent","shortName":"Ayent"},"district":{"key":"2305","name":"District d'Hérens"},"canton":{"key":"23","code":"VS","name":"Valais / Wallis"},"status":"Real"},{"key":"10045750","name":"Route de Blignou","postalCode":"1966","locality":"Blignou (Ayent)","commune":{"key":"6082","name":"Ayent","shortName":"Ayent"},"district":{"key":"2305","name":"District d'Hérens"},"canton":{"key":"23","code":"VS","name":"Valais / Wallis"},"status":"Real"},{"key":"10102386","name":"Route de Botyre","postalCode":"1966","locality":"Blignou (Ayent)","commune":{"key":"6082","name":"Ayent","shortName":"Ayent"},"district":{"key":"2305","name":"District d'Hérens"},"canton":{"key":"23","code":"VS","name":"Valais / Wallis"},"status":"Real"},{"key":"10102386","name":"Route de Botyre","postalCode":"1966","locality":"Botyre (Ayent)","commune":{"key":"6082","name":"Ayent","shortName":"Ayent"},"district":{"key":"2305","name":"District d'Hérens"},"canton":{"key":"23","code":"VS","name":"Valais / Wallis"},"status":"Real"},{"key":"10107312","name":"Route de Botyrette","postalCode":"1966","locality":"Botyre (Ayent)","commune":{"key":"6082","name":"Ayent","shortName":"Ayent"},"district":{"key":"2305","name":"District d'Hérens"},"canton":{"key":"23","code":"VS","name":"Valais / Wallis"},"status":"Real"},{"key":"10045751","name":"Route de Choin","postalCode":"1966","locality":"St-Romain (Ayent)","commune":{"key":"6082","name":"Ayent","shortName":"Ayent"},"district":{"key":"2305","name":"District d'Hérens"},"canton":{"key":"23","code":"VS","name":"Valais / Wallis"},"status":"Real"},{"key":"10102387","name":"Route de Corbaraye","postalCode":"1966","locality":"Blignou (Ayent)","commune":{"key":"6082","name":"Ayent","shortName":"Ayent"},"district":{"key":"2305","name":"District d'Hérens"},"canton":{"key":"23","code":"VS","name":"Valais / Wallis"},"status":"Real"},{"key":"10102387","name":"Route de Corbaraye","postalCode":"1966","locality":"La Place (Ayent)","commune":{"key":"6082","name":"Ayent","shortName":"Ayent"},"district":{"key":"2305","name":"District d'Hérens"},"canton":{"key":"23","code":"VS","name":"Valais / Wallis"},"status":"Real"},{"key":"10046898","name":"Route de la Carrière","postalCode":"1966","locality":"Saxonne (Ayent)","commune":{"key":"6082","name":"Ayent","shortName":"Ayent"},"district":{"key":"2305","name":"District d'Hérens"},"canton":{"key":"23","code":"VS","name":"Valais / Wallis"},"status":"Real"},{"key":"10069230","name":"Route de la Croix de la Mission","postalCode":"1966","locality":"Blignou (Ayent)","commune":{"key":"6082","name":"Ayent","shortName":"Ayent"},"district":{"key":"2305","name":"District d'Hérens"},"canton":{"key":"23","code":"VS","name":"Valais / Wallis"},"status":"Real"},{"key":"10256216","name":"Route de la Giète de Délé","postalCode":"1966","locality":"Fortunau (Ayent)","commune":{"key":"6082","name":"Ayent","shortName":"Ayent"},"district":{"key":"2305","name":"District d'Hérens"},"canton":{"key":"23","code":"VS","name":"Valais / Wallis"},"status":"Real"},{"key":"10102391","name":"Route de la Madeleine","postalCode":"1966","locality":"Argnou (Ayent)","commune":{"key":"6082","name":"Ayent","shortName":"Ayent"},"district":{"key":"2305","name":"District d'Hérens"},"canton":{"key":"23","code":"VS","name":"Valais / Wallis"},"status":"Real"},{"key":"10105694","name":"Route de la Place","postalCode":"1966","locality":"Botyre (Ayent)","commune":{"key":"6082","name":"Ayent","shortName":"Ayent"},"district":{"key":"2305","name":"District d'Hérens"},"canton":{"key":"23","code":"VS","name":"Valais / Wallis"},"status":"Real"},{"key":"10105694","name":"Route de la Place","postalCode":"1966","locality":"La Place (Ayent)","commune":{"key":"6082","name":"Ayent","shortName":"Ayent"},"district":{"key":"2305","name":"District d'Hérens"},"canton":{"key":"23","code":"VS","name":"Valais / Wallis"},"status":"Real"},{"key":"10105694","name":"Route de la Place","postalCode":"1966","locality":"Villa (Ayent)","commune":{"key":"6082","name":"Ayent","shortName":"Ayent"},"district":{"key":"2305","name":"District d'Hérens"},"canton":{"key":"23","code":"VS","name":"Valais / Wallis"},"status":"Real"},{"key":"10046899","name":"Route de la Plâtrière","postalCode":"1966","locality":"Saxonne (Ayent)","commune":{"key":"6082","name":"Ayent","shortName":"Ayent"},"district":{"key":"2305","name":"District d'Hérens"},"canton":{"key":"23","code":"VS","name":"Valais / Wallis"},"status":"Real"},{"key":"10046900","name":"Route de la Poâ","postalCode":"1966","locality":"Argnou (Ayent)","commune":{"key":"6082","name":"Ayent","shortName":"Ayent"},"district":{"key":"2305","name":"District d'Hérens"},"canton":{"key":"23","code":"VS","name":"Valais / Wallis"},"status":"Real"},{"key":"10046900","name":"Route de la Poâ","postalCode":"1966","locality":"Signèse (Ayent)","commune":{"key":"6082","name":"Ayent","shortName":"Ayent"},"district":{"key":"2305","name":"District d'Hérens"},"canton":{"key":"23","code":"VS","name":"Valais / Wallis"},"status":"Real"},{"key":"10186032","name":"Route de la Tuire","postalCode":"1966","locality":"Botyre (Ayent)","commune":{"key":"6082","name":"Ayent","shortName":"Ayent"},"district":{"key":"2305","name":"District d'Hérens"},"canton":{"key":"23","code":"VS","name":"Valais / Wallis"},"status":"Real"},{"key":"10186032","name":"Route de la Tuire","postalCode":"1966","locality":"Saxonne (Ayent)","commune":{"key":"6082","name":"Ayent","shortName":"Ayent"},"district":{"key":"2305","name":"District d'Hérens"},"canton":{"key":"23","code":"VS","name":"Valais / Wallis"},"status":"Real"},{"key":"10045752","name":"Route de Lényre","postalCode":"1966","locality":"Blignou (Ayent)","commune":{"key":"6082","name":"Ayent","shortName":"Ayent"},"district":{"key":"2305","name":"District d'Hérens"},"canton":{"key":"23","code":"VS","name":"Valais / Wallis"},"status":"Real"},{"key":"10082138","name":"Route de Luc","postalCode":"1966","locality":"Botyre (Ayent)","commune":{"key":"6082","name":"Ayent","shortName":"Ayent"},"district":{"key":"2305","name":"District d'Hérens"},"canton":{"key":"23","code":"VS","name":"Valais / Wallis"},"status":"Real"},{"key":"10082138","name":"Route de Luc","postalCode":"1966","locality":"Luc (Ayent)","commune":{"key":"6082","name":"Ayent","shortName":"Ayent"},"district":{"key":"2305","name":"District d'Hérens"},"canton":{"key":"23","code":"VS","name":"Valais / Wallis"},"status":"Real"},{"key":"10256225","name":"Route de l'Usine de Croix","postalCode":"1966","locality":"Fortunau (Ayent)","commune":{"key":"6082","name":"Ayent","shortName":"Ayent"},"district":{"key":"2305","name":"District d'Hérens"},"canton":{"key":"23","code":"VS","name":"Valais / Wallis"},"status":"Real"},{"key":"10256233","name":"Route de l'Usine de Samarin","postalCode":"1966","locality":"Fortunau (Ayent)","commune":{"key":"6082","name":"Ayent","shortName":"Ayent"},"district":{"key":"2305","name":"District d'Hérens"},"canton":{"key":"23","code":"VS","name":"Valais / Wallis"},"status":"Real"},{"key":"10135190","name":"Route de Molignon","postalCode":"1966","locality":"Signèse (Ayent)","commune":{"key":"6082","name":"Ayent","shortName":"Ayent"},"district":{"key":"2305","name":"District d'Hérens"},"canton":{"key":"23","code":"VS","name":"Valais / Wallis"},"status":"Real"},{"key":"10102388","name":"Route de Plein Soleil","postalCode":"1966","locality":"Botyre (Ayent)","commune":{"key":"6082","name":"Ayent","shortName":"Ayent"},"district":{"key":"2305","name":"District d'Hérens"},"canton":{"key":"23","code":"VS","name":"Valais / Wallis"},"status":"Real"},{"key":"10256223","name":"Route de Pracombère","postalCode":"1966","locality":"Fortunau (Ayent)","commune":{"key":"6082","name":"Ayent","shortName":"Ayent"},"district":{"key":"2305","name":"District d'Hérens"},"canton":{"key":"23","code":"VS","name":"Valais / Wallis"},"status":"Real"},{"key":"10256230","name":"Route de Prodéfure","postalCode":"1966","locality":"Fortunau (Ayent)","commune":{"key":"6082","name":"Ayent","shortName":"Ayent"},"district":{"key":"2305","name":"District d'Hérens"},"canton":{"key":"23","code":"VS","name":"Valais / Wallis"},"status":"Real"},{"key":"10256226","name":"Route de Pro de Savioz","postalCode":"1966","locality":"Blignou (Ayent)","commune":{"key":"6082","name":"Ayent","shortName":"Ayent"},"district":{"key":"2305","name":"District d'Hérens"},"canton":{"key":"23","code":"VS","name":"Valais / Wallis"},"status":"Real"},{"key":"10186031","name":"Route de Professon","postalCode":"1966","locality":"Blignou (Ayent)","commune":{"key":"6082","name":"Ayent","shortName":"Ayent"},"district":{"key":"2305","name":"District d'Hérens"},"canton":{"key":"23","code":"VS","name":"Valais / Wallis"},"status":"Real"},{"key":"10082139","name":"Route de Rougenan","postalCode":"1966","locality":"Botyre (Ayent)","commune":{"key":"6082","name":"Ayent","shortName":"Ayent"},"district":{"key":"2305","name":"District d'Hérens"},"canton":{"key":"23","code":"VS","name":"Valais / Wallis"},"status":"Real"},{"key":"10082139","name":"Route de Rougenan","postalCode":"1966","locality":"La Place (Ayent)","commune":{"key":"6082","name":"Ayent","shortName":"Ayent"},"district":{"key":"2305","name":"District d'Hérens"},"canton":{"key":"23","code":"VS","name":"Valais / Wallis"},"status":"Real"},{"key":"10189657","name":"Route de Saly","postalCode":"1966","locality":"Blignou (Ayent)","commune":{"key":"6082","name":"Ayent","shortName":"Ayent"},"district":{"key":"2305","name":"District d'Hérens"},"canton":{"key":"23","code":"VS","name":"Valais / Wallis"},"status":"Real"},{"key":"10256236","name":"Route de Samarin","postalCode":"1966","locality":"Fortunau (Ayent)","commune":{"key":"6082","name":"Ayent","shortName":"Ayent"},"district":{"key":"2305","name":"District d'Hérens"},"canton":{"key":"23","code":"VS","name":"Valais / Wallis"},"status":"Real"},{"key":"10046894","name":"Route de Saxonne","postalCode":"1966","locality":"Saxonne (Ayent)","commune":{"key":"6082","name":"Ayent","shortName":"Ayent"},"district":{"key":"2305","name":"District d'Hérens"},"canton":{"key":"23","code":"VS","name":"Valais / Wallis"},"status":"Real"},{"key":"10046894","name":"Route de Saxonne","postalCode":"1966","locality":"St-Romain (Ayent)","commune":{"key":"6082","name":"Ayent","shortName":"Ayent"},"district":{"key":"2305","name":"District d'Hérens"},"canton":{"key":"23","code":"VS","name":"Valais / Wallis"},"status":"Real"},{"key":"10102392","name":"Route des Chênes","postalCode":"1966","locality":"Fortunau (Ayent)","commune":{"key":"6082","name":"Ayent","shortName":"Ayent"},"district":{"key":"2305","name":"District d'Hérens"},"canton":{"key":"23","code":"VS","name":"Valais / Wallis"},"status":"Real"},{"key":"10102392","name":"Route des Chênes","postalCode":"1966","locality":"Saxonne (Ayent)","commune":{"key":"6082","name":"Ayent","shortName":"Ayent"},"district":{"key":"2305","name":"District d'Hérens"},"canton":{"key":"23","code":"VS","name":"Valais / Wallis"},"status":"Real"},{"key":"10102392","name":"Route des Chênes","postalCode":"1966","locality":"St-Romain (Ayent)","commune":{"key":"6082","name":"Ayent","shortName":"Ayent"},"district":{"key":"2305","name":"District d'Hérens"},"canton":{"key":"23","code":"VS","name":"Valais / Wallis"},"status":"Real"},{"key":"10235972","name":"Z.A. Bré de Blignou","postalCode":"1966","locality":"Blignou (Ayent)","commune":{"key":"6082","name":"Ayent","shortName":"Ayent"},"district":{"key":"2305","name":"District d'Hérens"},"canton":{"key":"23","code":"VS","name":"Valais / Wallis"},"status":"Real"},]