[{"name":"Am Altewingert","postalCode":"56370","locality":"Attenhausen","municipality":{"key":"07141003","name":"Attenhausen","type":"Kreisangehörige_Gemeinde"},"district":{"key":"07141","name":"Rhein-Lahn-Kreis","type":"Landkreis"},"federalState":{"key":"07","name":"Rheinland-Pfalz"}},{"name":"Am Dorfgemeinschaftshaus","postalCode":"56370","locality":"Attenhausen","municipality":{"key":"07141003","name":"Attenhausen","type":"Kreisangehörige_Gemeinde"},"district":{"key":"07141","name":"Rhein-Lahn-Kreis","type":"Landkreis"},"federalState":{"key":"07","name":"Rheinland-Pfalz"}},{"name":"Auf dem Bangert","postalCode":"56370","locality":"Attenhausen","municipality":{"key":"07141003","name":"Attenhausen","type":"Kreisangehörige_Gemeinde"},"district":{"key":"07141","name":"Rhein-Lahn-Kreis","type":"Landkreis"},"federalState":{"key":"07","name":"Rheinland-Pfalz"}},{"name":"Bilohof","postalCode":"56370","locality":"Attenhausen","municipality":{"key":"07141003","name":"Attenhausen","type":"Kreisangehörige_Gemeinde"},"district":{"key":"07141","name":"Rhein-Lahn-Kreis","type":"Landkreis"},"federalState":{"key":"07","name":"Rheinland-Pfalz"}},{"name":"Bornstr.","postalCode":"56370","locality":"Attenhausen","municipality":{"key":"07141003","name":"Attenhausen","type":"Kreisangehörige_Gemeinde"},"district":{"key":"07141","name":"Rhein-Lahn-Kreis","type":"Landkreis"},"federalState":{"key":"07","name":"Rheinland-Pfalz"}},{"name":"Grünwaldstr.","postalCode":"56370","locality":"Attenhausen","municipality":{"key":"07141003","name":"Attenhausen","type":"Kreisangehörige_Gemeinde"},"district":{"key":"07141","name":"Rhein-Lahn-Kreis","type":"Landkreis"},"federalState":{"key":"07","name":"Rheinland-Pfalz"}},{"name":"Ortsstr.","postalCode":"56370","locality":"Attenhausen","municipality":{"key":"07141003","name":"Attenhausen","type":"Kreisangehörige_Gemeinde"},"district":{"key":"07141","name":"Rhein-Lahn-Kreis","type":"Landkreis"},"federalState":{"key":"07","name":"Rheinland-Pfalz"}},{"name":"Steinkopfstr.","postalCode":"56370","locality":"Attenhausen","municipality":{"key":"07141003","name":"Attenhausen","type":"Kreisangehörige_Gemeinde"},"district":{"key":"07141","name":"Rhein-Lahn-Kreis","type":"Landkreis"},"federalState":{"key":"07","name":"Rheinland-Pfalz"}},{"name":"Uferstr.","postalCode":"56370","locality":"Attenhausen","municipality":{"key":"07141003","name":"Attenhausen","type":"Kreisangehörige_Gemeinde"},"district":{"key":"07141","name":"Rhein-Lahn-Kreis","type":"Landkreis"},"federalState":{"key":"07","name":"Rheinland-Pfalz"}},{"name":"Vorstadtstr.","postalCode":"56370","locality":"Attenhausen","municipality":{"key":"07141003","name":"Attenhausen","type":"Kreisangehörige_Gemeinde"},"district":{"key":"07141","name":"Rhein-Lahn-Kreis","type":"Landkreis"},"federalState":{"key":"07","name":"Rheinland-Pfalz"}},{"name":"Wiesenstr.","postalCode":"56370","locality":"Attenhausen","municipality":{"key":"07141003","name":"Attenhausen","type":"Kreisangehörige_Gemeinde"},"district":{"key":"07141","name":"Rhein-Lahn-Kreis","type":"Landkreis"},"federalState":{"key":"07","name":"Rheinland-Pfalz"}},{"name":"Zum Sportplatz","postalCode":"56370","locality":"Attenhausen","municipality":{"key":"07141003","name":"Attenhausen","type":"Kreisangehörige_Gemeinde"},"district":{"key":"07141","name":"Rhein-Lahn-Kreis","type":"Landkreis"},"federalState":{"key":"07","name":"Rheinland-Pfalz"}},]