[{"key":"10160139","name":"Chemin de Champ Mégny","postalCode":"1421","locality":"Grandevent","commune":{"key":"5560","name":"Grandevent","shortName":"Grandevent"},"district":{"key":"2224","name":"District du Jura-Nord vaudois"},"canton":{"key":"22","code":"VD","name":"Vaud"},"status":"Real"},{"key":"10073815","name":"Chemin de Grosses-Pierres","postalCode":"1421","locality":"Grandevent","commune":{"key":"5560","name":"Grandevent","shortName":"Grandevent"},"district":{"key":"2224","name":"District du Jura-Nord vaudois"},"canton":{"key":"22","code":"VD","name":"Vaud"},"status":"Real"},{"key":"10160136","name":"Chemin de l'Age Bataillard","postalCode":"1421","locality":"Grandevent","commune":{"key":"5560","name":"Grandevent","shortName":"Grandevent"},"district":{"key":"2224","name":"District du Jura-Nord vaudois"},"canton":{"key":"22","code":"VD","name":"Vaud"},"status":"Real"},{"key":"10068719","name":"Chemin de Vers-chez-Grison","postalCode":"1421","locality":"Grandevent","commune":{"key":"5560","name":"Grandevent","shortName":"Grandevent"},"district":{"key":"2224","name":"District du Jura-Nord vaudois"},"canton":{"key":"22","code":"VD","name":"Vaud"},"status":"Real"},{"key":"10165063","name":"Chemin du Bois Saint-Jean","postalCode":"1421","locality":"Grandevent","commune":{"key":"5560","name":"Grandevent","shortName":"Grandevent"},"district":{"key":"2224","name":"District du Jura-Nord vaudois"},"canton":{"key":"22","code":"VD","name":"Vaud"},"status":"Real"},{"key":"10160137","name":"Chemin du Champ de la Côte","postalCode":"1421","locality":"Grandevent","commune":{"key":"5560","name":"Grandevent","shortName":"Grandevent"},"district":{"key":"2224","name":"District du Jura-Nord vaudois"},"canton":{"key":"22","code":"VD","name":"Vaud"},"status":"Real"},{"key":"10160135","name":"Chemin du Champ du Four","postalCode":"1421","locality":"Grandevent","commune":{"key":"5560","name":"Grandevent","shortName":"Grandevent"},"district":{"key":"2224","name":"District du Jura-Nord vaudois"},"canton":{"key":"22","code":"VD","name":"Vaud"},"status":"Real"},{"key":"10160133","name":"Chemin du Crêt des Selles","postalCode":"1421","locality":"Grandevent","commune":{"key":"5560","name":"Grandevent","shortName":"Grandevent"},"district":{"key":"2224","name":"District du Jura-Nord vaudois"},"canton":{"key":"22","code":"VD","name":"Vaud"},"status":"Real"},{"key":"10161923","name":"Chemin du Crêt Large","postalCode":"1421","locality":"Grandevent","commune":{"key":"5560","name":"Grandevent","shortName":"Grandevent"},"district":{"key":"2224","name":"District du Jura-Nord vaudois"},"canton":{"key":"22","code":"VD","name":"Vaud"},"status":"Real"},{"key":"10116041","name":"Route de Villars-Burquin","postalCode":"1421","locality":"Grandevent","commune":{"key":"5560","name":"Grandevent","shortName":"Grandevent"},"district":{"key":"2224","name":"District du Jura-Nord vaudois"},"canton":{"key":"22","code":"VD","name":"Vaud"},"status":"Real"},{"key":"10160134","name":"Route du Village","postalCode":"1421","locality":"Grandevent","commune":{"key":"5560","name":"Grandevent","shortName":"Grandevent"},"district":{"key":"2224","name":"District du Jura-Nord vaudois"},"canton":{"key":"22","code":"VD","name":"Vaud"},"status":"Real"},]