[{"key":"10114324","name":"Affolterweg","postalCode":"5223","locality":"Riniken","commune":{"key":"4111","name":"Riniken","shortName":"Riniken"},"district":{"key":"1904","name":"Bezirk Brugg"},"canton":{"key":"19","code":"AG","name":"Aargau"},"status":"Real"},{"key":"10101776","name":"Ausserdorfstrasse","postalCode":"5223","locality":"Riniken","commune":{"key":"4111","name":"Riniken","shortName":"Riniken"},"district":{"key":"1904","name":"Bezirk Brugg"},"canton":{"key":"19","code":"AG","name":"Aargau"},"status":"Real"},{"key":"10239671","name":"Bachstrasse","postalCode":"5223","locality":"Riniken","commune":{"key":"4111","name":"Riniken","shortName":"Riniken"},"district":{"key":"1904","name":"Bezirk Brugg"},"canton":{"key":"19","code":"AG","name":"Aargau"},"status":"Real"},{"key":"10239675","name":"Bernerweg","postalCode":"5223","locality":"Riniken","commune":{"key":"4111","name":"Riniken","shortName":"Riniken"},"district":{"key":"1904","name":"Bezirk Brugg"},"canton":{"key":"19","code":"AG","name":"Aargau"},"status":"Real"},{"key":"10239679","name":"Bifangweg","postalCode":"5223","locality":"Riniken","commune":{"key":"4111","name":"Riniken","shortName":"Riniken"},"district":{"key":"1904","name":"Bezirk Brugg"},"canton":{"key":"19","code":"AG","name":"Aargau"},"status":"Real"},{"key":"10069342","name":"Brenniweg","postalCode":"5223","locality":"Riniken","commune":{"key":"4111","name":"Riniken","shortName":"Riniken"},"district":{"key":"1904","name":"Bezirk Brugg"},"canton":{"key":"19","code":"AG","name":"Aargau"},"status":"Real"},{"key":"10031426","name":"Bruggerstrasse","postalCode":"5223","locality":"Riniken","commune":{"key":"4111","name":"Riniken","shortName":"Riniken"},"district":{"key":"1904","name":"Bezirk Brugg"},"canton":{"key":"19","code":"AG","name":"Aargau"},"status":"Real"},{"key":"10031427","name":"Brunnenweg","postalCode":"5223","locality":"Riniken","commune":{"key":"4111","name":"Riniken","shortName":"Riniken"},"district":{"key":"1904","name":"Bezirk Brugg"},"canton":{"key":"19","code":"AG","name":"Aargau"},"status":"Real"},{"key":"10031428","name":"Brunnmattstrasse","postalCode":"5223","locality":"Riniken","commune":{"key":"4111","name":"Riniken","shortName":"Riniken"},"district":{"key":"1904","name":"Bezirk Brugg"},"canton":{"key":"19","code":"AG","name":"Aargau"},"status":"Real"},{"key":"10069343","name":"Dahlienweg","postalCode":"5223","locality":"Riniken","commune":{"key":"4111","name":"Riniken","shortName":"Riniken"},"district":{"key":"1904","name":"Bezirk Brugg"},"canton":{"key":"19","code":"AG","name":"Aargau"},"status":"Real"},{"key":"10101777","name":"Dorfsteig","postalCode":"5223","locality":"Riniken","commune":{"key":"4111","name":"Riniken","shortName":"Riniken"},"district":{"key":"1904","name":"Bezirk Brugg"},"canton":{"key":"19","code":"AG","name":"Aargau"},"status":"Real"},{"key":"10123544","name":"Gäbistrasse","postalCode":"5223","locality":"Riniken","commune":{"key":"4111","name":"Riniken","shortName":"Riniken"},"district":{"key":"1904","name":"Bezirk Brugg"},"canton":{"key":"19","code":"AG","name":"Aargau"},"status":"Real"},{"key":"10239683","name":"Geissmattweg","postalCode":"5223","locality":"Riniken","commune":{"key":"4111","name":"Riniken","shortName":"Riniken"},"district":{"key":"1904","name":"Bezirk Brugg"},"canton":{"key":"19","code":"AG","name":"Aargau"},"status":"Real"},{"key":"10031429","name":"Gmeindhusplatz","postalCode":"5223","locality":"Riniken","commune":{"key":"4111","name":"Riniken","shortName":"Riniken"},"district":{"key":"1904","name":"Bezirk Brugg"},"canton":{"key":"19","code":"AG","name":"Aargau"},"status":"Real"},{"key":"10031430","name":"Gröpplimatt","postalCode":"5223","locality":"Riniken","commune":{"key":"4111","name":"Riniken","shortName":"Riniken"},"district":{"key":"1904","name":"Bezirk Brugg"},"canton":{"key":"19","code":"AG","name":"Aargau"},"status":"Real"},{"key":"10128150","name":"Grundackerweg","postalCode":"5223","locality":"Riniken","commune":{"key":"4111","name":"Riniken","shortName":"Riniken"},"district":{"key":"1904","name":"Bezirk Brugg"},"canton":{"key":"19","code":"AG","name":"Aargau"},"status":"Real"},{"key":"10097903","name":"Haldenhof","postalCode":"5223","locality":"Riniken","commune":{"key":"4111","name":"Riniken","shortName":"Riniken"},"district":{"key":"1904","name":"Bezirk Brugg"},"canton":{"key":"19","code":"AG","name":"Aargau"},"status":"Real"},{"key":"10108895","name":"Haldenstrasse","postalCode":"5223","locality":"Riniken","commune":{"key":"4111","name":"Riniken","shortName":"Riniken"},"district":{"key":"1904","name":"Bezirk Brugg"},"canton":{"key":"19","code":"AG","name":"Aargau"},"status":"Real"},{"key":"10052905","name":"Hirschenstrasse","postalCode":"5223","locality":"Riniken","commune":{"key":"4111","name":"Riniken","shortName":"Riniken"},"district":{"key":"1904","name":"Bezirk Brugg"},"canton":{"key":"19","code":"AG","name":"Aargau"},"status":"Real"},{"key":"10031717","name":"Hofmattstrasse","postalCode":"5223","locality":"Riniken","commune":{"key":"4111","name":"Riniken","shortName":"Riniken"},"district":{"key":"1904","name":"Bezirk Brugg"},"canton":{"key":"19","code":"AG","name":"Aargau"},"status":"Real"},{"key":"10101778","name":"Höhenweg","postalCode":"5223","locality":"Riniken","commune":{"key":"4111","name":"Riniken","shortName":"Riniken"},"district":{"key":"1904","name":"Bezirk Brugg"},"canton":{"key":"19","code":"AG","name":"Aargau"},"status":"Real"},{"key":"10239691","name":"Ibergstrasse","postalCode":"5223","locality":"Riniken","commune":{"key":"4111","name":"Riniken","shortName":"Riniken"},"district":{"key":"1904","name":"Bezirk Brugg"},"canton":{"key":"19","code":"AG","name":"Aargau"},"status":"Real"},{"key":"10239695","name":"Jubiläumsstrasse","postalCode":"5223","locality":"Riniken","commune":{"key":"4111","name":"Riniken","shortName":"Riniken"},"district":{"key":"1904","name":"Bezirk Brugg"},"canton":{"key":"19","code":"AG","name":"Aargau"},"status":"Real"},{"key":"10239699","name":"Juchweg","postalCode":"5223","locality":"Riniken","commune":{"key":"4111","name":"Riniken","shortName":"Riniken"},"district":{"key":"1904","name":"Bezirk Brugg"},"canton":{"key":"19","code":"AG","name":"Aargau"},"status":"Real"},{"key":"10239703","name":"Kalberweidweg","postalCode":"5223","locality":"Riniken","commune":{"key":"4111","name":"Riniken","shortName":"Riniken"},"district":{"key":"1904","name":"Bezirk Brugg"},"canton":{"key":"19","code":"AG","name":"Aargau"},"status":"Real"},{"key":"10185356","name":"Kirchackerstrasse","postalCode":"5223","locality":"Riniken","commune":{"key":"4111","name":"Riniken","shortName":"Riniken"},"district":{"key":"1904","name":"Bezirk Brugg"},"canton":{"key":"19","code":"AG","name":"Aargau"},"status":"Real"},{"key":"10186859","name":"Kornfeldweg","postalCode":"5223","locality":"Riniken","commune":{"key":"4111","name":"Riniken","shortName":"Riniken"},"district":{"key":"1904","name":"Bezirk Brugg"},"canton":{"key":"19","code":"AG","name":"Aargau"},"status":"Real"},{"key":"10239707","name":"Krähtalstrasse","postalCode":"5223","locality":"Riniken","commune":{"key":"4111","name":"Riniken","shortName":"Riniken"},"district":{"key":"1904","name":"Bezirk Brugg"},"canton":{"key":"19","code":"AG","name":"Aargau"},"status":"Real"},{"key":"10239711","name":"Kreuzweg","postalCode":"5223","locality":"Riniken","commune":{"key":"4111","name":"Riniken","shortName":"Riniken"},"district":{"key":"1904","name":"Bezirk Brugg"},"canton":{"key":"19","code":"AG","name":"Aargau"},"status":"Real"},{"key":"10190016","name":"Leeweg","postalCode":"5223","locality":"Riniken","commune":{"key":"4111","name":"Riniken","shortName":"Riniken"},"district":{"key":"1904","name":"Bezirk Brugg"},"canton":{"key":"19","code":"AG","name":"Aargau"},"status":"Real"},{"key":"10239715","name":"Mattackerweg","postalCode":"5223","locality":"Riniken","commune":{"key":"4111","name":"Riniken","shortName":"Riniken"},"district":{"key":"1904","name":"Bezirk Brugg"},"canton":{"key":"19","code":"AG","name":"Aargau"},"status":"Real"},{"key":"10153675","name":"Mattenweg","postalCode":"5223","locality":"Riniken","commune":{"key":"4111","name":"Riniken","shortName":"Riniken"},"district":{"key":"1904","name":"Bezirk Brugg"},"canton":{"key":"19","code":"AG","name":"Aargau"},"status":"Real"},{"key":"10239720","name":"Milchweglistrasse","postalCode":"5223","locality":"Riniken","commune":{"key":"4111","name":"Riniken","shortName":"Riniken"},"district":{"key":"1904","name":"Bezirk Brugg"},"canton":{"key":"19","code":"AG","name":"Aargau"},"status":"Real"},{"key":"10069630","name":"Militärstrasse","postalCode":"5223","locality":"Riniken","commune":{"key":"4111","name":"Riniken","shortName":"Riniken"},"district":{"key":"1904","name":"Bezirk Brugg"},"canton":{"key":"19","code":"AG","name":"Aargau"},"status":"Real"},{"key":"10031718","name":"Mooshof","postalCode":"5223","locality":"Riniken","commune":{"key":"4111","name":"Riniken","shortName":"Riniken"},"district":{"key":"1904","name":"Bezirk Brugg"},"canton":{"key":"19","code":"AG","name":"Aargau"},"status":"Real"},{"key":"10052906","name":"Mühlegasse","postalCode":"5223","locality":"Riniken","commune":{"key":"4111","name":"Riniken","shortName":"Riniken"},"district":{"key":"1904","name":"Bezirk Brugg"},"canton":{"key":"19","code":"AG","name":"Aargau"},"status":"Real"},{"key":"10101779","name":"Nussbaumweg","postalCode":"5223","locality":"Riniken","commune":{"key":"4111","name":"Riniken","shortName":"Riniken"},"district":{"key":"1904","name":"Bezirk Brugg"},"canton":{"key":"19","code":"AG","name":"Aargau"},"status":"Real"},{"key":"10031719","name":"Oberdorfstrasse","postalCode":"5223","locality":"Riniken","commune":{"key":"4111","name":"Riniken","shortName":"Riniken"},"district":{"key":"1904","name":"Bezirk Brugg"},"canton":{"key":"19","code":"AG","name":"Aargau"},"status":"Real"},{"key":"10239724","name":"Ortsverbindung","postalCode":"5223","locality":"Riniken","commune":{"key":"4111","name":"Riniken","shortName":"Riniken"},"district":{"key":"1904","name":"Bezirk Brugg"},"canton":{"key":"19","code":"AG","name":"Aargau"},"status":"Real"},{"key":"10119302","name":"Panoramahof","postalCode":"5223","locality":"Riniken","commune":{"key":"4111","name":"Riniken","shortName":"Riniken"},"district":{"key":"1904","name":"Bezirk Brugg"},"canton":{"key":"19","code":"AG","name":"Aargau"},"status":"Real"},{"key":"10192018","name":"Paradiesstrasse","postalCode":"5223","locality":"Riniken","commune":{"key":"4111","name":"Riniken","shortName":"Riniken"},"district":{"key":"1904","name":"Bezirk Brugg"},"canton":{"key":"19","code":"AG","name":"Aargau"},"status":"Real"},{"key":"10152503","name":"Parkstrasse","postalCode":"5223","locality":"Riniken","commune":{"key":"4111","name":"Riniken","shortName":"Riniken"},"district":{"key":"1904","name":"Bezirk Brugg"},"canton":{"key":"19","code":"AG","name":"Aargau"},"status":"Real"},{"key":"10031720","name":"Platte","postalCode":"5223","locality":"Riniken","commune":{"key":"4111","name":"Riniken","shortName":"Riniken"},"district":{"key":"1904","name":"Bezirk Brugg"},"canton":{"key":"19","code":"AG","name":"Aargau"},"status":"Real"},{"key":"10188327","name":"Plattenweg","postalCode":"5223","locality":"Riniken","commune":{"key":"4111","name":"Riniken","shortName":"Riniken"},"district":{"key":"1904","name":"Bezirk Brugg"},"canton":{"key":"19","code":"AG","name":"Aargau"},"status":"Real"},{"key":"10031721","name":"Rebackerweg","postalCode":"5223","locality":"Riniken","commune":{"key":"4111","name":"Riniken","shortName":"Riniken"},"district":{"key":"1904","name":"Bezirk Brugg"},"canton":{"key":"19","code":"AG","name":"Aargau"},"status":"Real"},{"key":"10101780","name":"Reinwegli","postalCode":"5223","locality":"Riniken","commune":{"key":"4111","name":"Riniken","shortName":"Riniken"},"district":{"key":"1904","name":"Bezirk Brugg"},"canton":{"key":"19","code":"AG","name":"Aargau"},"status":"Real"},{"key":"10100703","name":"Remigerstrasse","postalCode":"5223","locality":"Riniken","commune":{"key":"4111","name":"Riniken","shortName":"Riniken"},"district":{"key":"1904","name":"Bezirk Brugg"},"canton":{"key":"19","code":"AG","name":"Aargau"},"status":"Real"},{"key":"10031722","name":"Rosenstrasse","postalCode":"5223","locality":"Riniken","commune":{"key":"4111","name":"Riniken","shortName":"Riniken"},"district":{"key":"1904","name":"Bezirk Brugg"},"canton":{"key":"19","code":"AG","name":"Aargau"},"status":"Real"},{"key":"10112864","name":"Rotbergstrasse","postalCode":"5223","locality":"Riniken","commune":{"key":"4111","name":"Riniken","shortName":"Riniken"},"district":{"key":"1904","name":"Bezirk Brugg"},"canton":{"key":"19","code":"AG","name":"Aargau"},"status":"Real"},{"key":"10239728","name":"Rötiweg","postalCode":"5223","locality":"Riniken","commune":{"key":"4111","name":"Riniken","shortName":"Riniken"},"district":{"key":"1904","name":"Bezirk Brugg"},"canton":{"key":"19","code":"AG","name":"Aargau"},"status":"Real"},{"key":"10052907","name":"Rüfenacherstrasse","postalCode":"5223","locality":"Riniken","commune":{"key":"4111","name":"Riniken","shortName":"Riniken"},"district":{"key":"1904","name":"Bezirk Brugg"},"canton":{"key":"19","code":"AG","name":"Aargau"},"status":"Real"},{"key":"10105030","name":"Sagimatt","postalCode":"5223","locality":"Riniken","commune":{"key":"4111","name":"Riniken","shortName":"Riniken"},"district":{"key":"1904","name":"Bezirk Brugg"},"canton":{"key":"19","code":"AG","name":"Aargau"},"status":"Real"},{"key":"10101781","name":"Scheuerackerweg","postalCode":"5223","locality":"Riniken","commune":{"key":"4111","name":"Riniken","shortName":"Riniken"},"district":{"key":"1904","name":"Bezirk Brugg"},"canton":{"key":"19","code":"AG","name":"Aargau"},"status":"Real"},{"key":"10239732","name":"Schneggweg","postalCode":"5223","locality":"Riniken","commune":{"key":"4111","name":"Riniken","shortName":"Riniken"},"district":{"key":"1904","name":"Bezirk Brugg"},"canton":{"key":"19","code":"AG","name":"Aargau"},"status":"Real"},{"key":"10031723","name":"Schulrain","postalCode":"5223","locality":"Riniken","commune":{"key":"4111","name":"Riniken","shortName":"Riniken"},"district":{"key":"1904","name":"Bezirk Brugg"},"canton":{"key":"19","code":"AG","name":"Aargau"},"status":"Real"},{"key":"10069631","name":"Selanderweg","postalCode":"5223","locality":"Riniken","commune":{"key":"4111","name":"Riniken","shortName":"Riniken"},"district":{"key":"1904","name":"Bezirk Brugg"},"canton":{"key":"19","code":"AG","name":"Aargau"},"status":"Real"},{"key":"10050602","name":"Sonnenhof","postalCode":"5223","locality":"Riniken","commune":{"key":"4111","name":"Riniken","shortName":"Riniken"},"district":{"key":"1904","name":"Bezirk Brugg"},"canton":{"key":"19","code":"AG","name":"Aargau"},"status":"Real"},{"key":"10031724","name":"Sonnhaldeweg","postalCode":"5223","locality":"Riniken","commune":{"key":"4111","name":"Riniken","shortName":"Riniken"},"district":{"key":"1904","name":"Bezirk Brugg"},"canton":{"key":"19","code":"AG","name":"Aargau"},"status":"Real"},{"key":"10101782","name":"Spycherweg","postalCode":"5223","locality":"Riniken","commune":{"key":"4111","name":"Riniken","shortName":"Riniken"},"district":{"key":"1904","name":"Bezirk Brugg"},"canton":{"key":"19","code":"AG","name":"Aargau"},"status":"Real"},{"key":"10031725","name":"Trottengasse","postalCode":"5223","locality":"Riniken","commune":{"key":"4111","name":"Riniken","shortName":"Riniken"},"district":{"key":"1904","name":"Bezirk Brugg"},"canton":{"key":"19","code":"AG","name":"Aargau"},"status":"Real"},{"key":"10031726","name":"Unterdorfstrasse","postalCode":"5223","locality":"Riniken","commune":{"key":"4111","name":"Riniken","shortName":"Riniken"},"district":{"key":"1904","name":"Bezirk Brugg"},"canton":{"key":"19","code":"AG","name":"Aargau"},"status":"Real"},{"key":"10116423","name":"Veilchenstrasse","postalCode":"5223","locality":"Riniken","commune":{"key":"4111","name":"Riniken","shortName":"Riniken"},"district":{"key":"1904","name":"Bezirk Brugg"},"canton":{"key":"19","code":"AG","name":"Aargau"},"status":"Real"},{"key":"10031727","name":"Winkelstrasse","postalCode":"5223","locality":"Riniken","commune":{"key":"4111","name":"Riniken","shortName":"Riniken"},"district":{"key":"1904","name":"Bezirk Brugg"},"canton":{"key":"19","code":"AG","name":"Aargau"},"status":"Real"},{"key":"10185357","name":"Wolfligstrasse","postalCode":"5223","locality":"Riniken","commune":{"key":"4111","name":"Riniken","shortName":"Riniken"},"district":{"key":"1904","name":"Bezirk Brugg"},"canton":{"key":"19","code":"AG","name":"Aargau"},"status":"Real"},]