[{"name":"Abtsgasse","postalCode":"97702","locality":"Münnerstadt","municipality":{"key":"09672135","name":"Münnerstadt, St","type":"Stadt"},"district":{"key":"09672","name":"Bad Kissingen","type":"Landkreis"},"federalState":{"key":"09","name":"Bayern"}},{"name":"Adolph-Kolping-Str.","postalCode":"97702","locality":"Münnerstadt","municipality":{"key":"09672135","name":"Münnerstadt, St","type":"Stadt"},"district":{"key":"09672","name":"Bad Kissingen","type":"Landkreis"},"federalState":{"key":"09","name":"Bayern"}},{"name":"Alte Weth","postalCode":"97702","locality":"Münnerstadt","municipality":{"key":"09672135","name":"Münnerstadt, St","type":"Stadt"},"district":{"key":"09672","name":"Bad Kissingen","type":"Landkreis"},"federalState":{"key":"09","name":"Bayern"}},{"name":"Alte Ziegelei","postalCode":"97702","locality":"Münnerstadt","municipality":{"key":"09672135","name":"Münnerstadt, St","type":"Stadt"},"district":{"key":"09672","name":"Bad Kissingen","type":"Landkreis"},"federalState":{"key":"09","name":"Bayern"}},{"name":"Altstadtweg","postalCode":"97702","locality":"Münnerstadt","municipality":{"key":"09672135","name":"Münnerstadt, St","type":"Stadt"},"district":{"key":"09672","name":"Bad Kissingen","type":"Landkreis"},"federalState":{"key":"09","name":"Bayern"}},{"name":"Am dicken Turm","postalCode":"97702","locality":"Münnerstadt","municipality":{"key":"09672135","name":"Münnerstadt, St","type":"Stadt"},"district":{"key":"09672","name":"Bad Kissingen","type":"Landkreis"},"federalState":{"key":"09","name":"Bayern"}},{"name":"Am Eck","postalCode":"97702","locality":"Münnerstadt","municipality":{"key":"09672135","name":"Münnerstadt, St","type":"Stadt"},"district":{"key":"09672","name":"Bad Kissingen","type":"Landkreis"},"federalState":{"key":"09","name":"Bayern"}},{"name":"Am Gock","postalCode":"97702","locality":"Münnerstadt","municipality":{"key":"09672135","name":"Münnerstadt, St","type":"Stadt"},"district":{"key":"09672","name":"Bad Kissingen","type":"Landkreis"},"federalState":{"key":"09","name":"Bayern"}},{"name":"Am Gottesacker","postalCode":"97702","locality":"Münnerstadt","municipality":{"key":"09672135","name":"Münnerstadt, St","type":"Stadt"},"district":{"key":"09672","name":"Bad Kissingen","type":"Landkreis"},"federalState":{"key":"09","name":"Bayern"}},{"name":"Am Graben","postalCode":"97702","locality":"Münnerstadt","municipality":{"key":"09672135","name":"Münnerstadt, St","type":"Stadt"},"district":{"key":"09672","name":"Bad Kissingen","type":"Landkreis"},"federalState":{"key":"09","name":"Bayern"}},{"name":"Am Hörner","postalCode":"97702","locality":"Münnerstadt","municipality":{"key":"09672135","name":"Münnerstadt, St","type":"Stadt"},"district":{"key":"09672","name":"Bad Kissingen","type":"Landkreis"},"federalState":{"key":"09","name":"Bayern"}},{"name":"Am Kalkofen","postalCode":"97702","locality":"Münnerstadt","municipality":{"key":"09672135","name":"Münnerstadt, St","type":"Stadt"},"district":{"key":"09672","name":"Bad Kissingen","type":"Landkreis"},"federalState":{"key":"09","name":"Bayern"}},{"name":"Am Kleinfeldlein","postalCode":"97702","locality":"Münnerstadt","municipality":{"key":"09672135","name":"Münnerstadt, St","type":"Stadt"},"district":{"key":"09672","name":"Bad Kissingen","type":"Landkreis"},"federalState":{"key":"09","name":"Bayern"}},{"name":"Am Kreuzweg","postalCode":"97702","locality":"Münnerstadt","municipality":{"key":"09672135","name":"Münnerstadt, St","type":"Stadt"},"district":{"key":"09672","name":"Bad Kissingen","type":"Landkreis"},"federalState":{"key":"09","name":"Bayern"}},{"name":"Am Kuhrasen","postalCode":"97702","locality":"Münnerstadt","municipality":{"key":"09672135","name":"Münnerstadt, St","type":"Stadt"},"district":{"key":"09672","name":"Bad Kissingen","type":"Landkreis"},"federalState":{"key":"09","name":"Bayern"}},{"name":"Am Michaelsroth","postalCode":"97702","locality":"Münnerstadt","municipality":{"key":"09672135","name":"Münnerstadt, St","type":"Stadt"},"district":{"key":"09672","name":"Bad Kissingen","type":"Landkreis"},"federalState":{"key":"09","name":"Bayern"}},{"name":"Am Mittenwald","postalCode":"97702","locality":"Münnerstadt","municipality":{"key":"09672135","name":"Münnerstadt, St","type":"Stadt"},"district":{"key":"09672","name":"Bad Kissingen","type":"Landkreis"},"federalState":{"key":"09","name":"Bayern"}},{"name":"Am Mustergarten","postalCode":"97702","locality":"Münnerstadt","municipality":{"key":"09672135","name":"Münnerstadt, St","type":"Stadt"},"district":{"key":"09672","name":"Bad Kissingen","type":"Landkreis"},"federalState":{"key":"09","name":"Bayern"}},{"name":"Am Oppelhügel","postalCode":"97702","locality":"Münnerstadt","municipality":{"key":"09672135","name":"Münnerstadt, St","type":"Stadt"},"district":{"key":"09672","name":"Bad Kissingen","type":"Landkreis"},"federalState":{"key":"09","name":"Bayern"}},{"name":"Am Pfädlein","postalCode":"97702","locality":"Münnerstadt","municipality":{"key":"09672135","name":"Münnerstadt, St","type":"Stadt"},"district":{"key":"09672","name":"Bad Kissingen","type":"Landkreis"},"federalState":{"key":"09","name":"Bayern"}},{"name":"Am Rasenholz","postalCode":"97702","locality":"Münnerstadt","municipality":{"key":"09672135","name":"Münnerstadt, St","type":"Stadt"},"district":{"key":"09672","name":"Bad Kissingen","type":"Landkreis"},"federalState":{"key":"09","name":"Bayern"}},{"name":"Am Rebhügel","postalCode":"97702","locality":"Münnerstadt","municipality":{"key":"09672135","name":"Münnerstadt, St","type":"Stadt"},"district":{"key":"09672","name":"Bad Kissingen","type":"Landkreis"},"federalState":{"key":"09","name":"Bayern"}},{"name":"Am Sportplatz","postalCode":"97702","locality":"Münnerstadt","municipality":{"key":"09672135","name":"Münnerstadt, St","type":"Stadt"},"district":{"key":"09672","name":"Bad Kissingen","type":"Landkreis"},"federalState":{"key":"09","name":"Bayern"}},{"name":"Am Stein","postalCode":"97702","locality":"Münnerstadt","municipality":{"key":"09672135","name":"Münnerstadt, St","type":"Stadt"},"district":{"key":"09672","name":"Bad Kissingen","type":"Landkreis"},"federalState":{"key":"09","name":"Bayern"}},{"name":"Am Vogeltal","postalCode":"97702","locality":"Münnerstadt","municipality":{"key":"09672135","name":"Münnerstadt, St","type":"Stadt"},"district":{"key":"09672","name":"Bad Kissingen","type":"Landkreis"},"federalState":{"key":"09","name":"Bayern"}},{"name":"An der Kohlplatte","postalCode":"97702","locality":"Münnerstadt","municipality":{"key":"09672135","name":"Münnerstadt, St","type":"Stadt"},"district":{"key":"09672","name":"Bad Kissingen","type":"Landkreis"},"federalState":{"key":"09","name":"Bayern"}},{"name":"An der Malbe","postalCode":"97702","locality":"Münnerstadt","municipality":{"key":"09672135","name":"Münnerstadt, St","type":"Stadt"},"district":{"key":"09672","name":"Bad Kissingen","type":"Landkreis"},"federalState":{"key":"09","name":"Bayern"}},{"name":"An der Tränke","postalCode":"97702","locality":"Münnerstadt","municipality":{"key":"09672135","name":"Münnerstadt, St","type":"Stadt"},"district":{"key":"09672","name":"Bad Kissingen","type":"Landkreis"},"federalState":{"key":"09","name":"Bayern"}},{"name":"Anger","postalCode":"97702","locality":"Münnerstadt","municipality":{"key":"09672135","name":"Münnerstadt, St","type":"Stadt"},"district":{"key":"09672","name":"Bad Kissingen","type":"Landkreis"},"federalState":{"key":"09","name":"Bayern"}},{"name":"Anton-Seith-Platz","postalCode":"97702","locality":"Münnerstadt","municipality":{"key":"09672135","name":"Münnerstadt, St","type":"Stadt"},"district":{"key":"09672","name":"Bad Kissingen","type":"Landkreis"},"federalState":{"key":"09","name":"Bayern"}},{"name":"August-Neumann-Str.","postalCode":"97702","locality":"Münnerstadt","municipality":{"key":"09672135","name":"Münnerstadt, St","type":"Stadt"},"district":{"key":"09672","name":"Bad Kissingen","type":"Landkreis"},"federalState":{"key":"09","name":"Bayern"}},{"name":"Bauerngasse","postalCode":"97702","locality":"Münnerstadt","municipality":{"key":"09672135","name":"Münnerstadt, St","type":"Stadt"},"district":{"key":"09672","name":"Bad Kissingen","type":"Landkreis"},"federalState":{"key":"09","name":"Bayern"}},{"name":"Baumgartentor","postalCode":"97702","locality":"Münnerstadt","municipality":{"key":"09672135","name":"Münnerstadt, St","type":"Stadt"},"district":{"key":"09672","name":"Bad Kissingen","type":"Landkreis"},"federalState":{"key":"09","name":"Bayern"}},{"name":"Bergstr.","postalCode":"97702","locality":"Münnerstadt","municipality":{"key":"09672135","name":"Münnerstadt, St","type":"Stadt"},"district":{"key":"09672","name":"Bad Kissingen","type":"Landkreis"},"federalState":{"key":"09","name":"Bayern"}},{"name":"Bildhäuser Str.","postalCode":"97702","locality":"Münnerstadt","municipality":{"key":"09672135","name":"Münnerstadt, St","type":"Stadt"},"district":{"key":"09672","name":"Bad Kissingen","type":"Landkreis"},"federalState":{"key":"09","name":"Bayern"}},{"name":"Bischof-Arno-Str.","postalCode":"97702","locality":"Münnerstadt","municipality":{"key":"09672135","name":"Münnerstadt, St","type":"Stadt"},"district":{"key":"09672","name":"Bad Kissingen","type":"Landkreis"},"federalState":{"key":"09","name":"Bayern"}},{"name":"Bleicheller","postalCode":"97702","locality":"Münnerstadt","municipality":{"key":"09672135","name":"Münnerstadt, St","type":"Stadt"},"district":{"key":"09672","name":"Bad Kissingen","type":"Landkreis"},"federalState":{"key":"09","name":"Bayern"}},{"name":"Bonifatiusplatz","postalCode":"97702","locality":"Münnerstadt","municipality":{"key":"09672135","name":"Münnerstadt, St","type":"Stadt"},"district":{"key":"09672","name":"Bad Kissingen","type":"Landkreis"},"federalState":{"key":"09","name":"Bayern"}},{"name":"Breitlohweg","postalCode":"97702","locality":"Münnerstadt","municipality":{"key":"09672135","name":"Münnerstadt, St","type":"Stadt"},"district":{"key":"09672","name":"Bad Kissingen","type":"Landkreis"},"federalState":{"key":"09","name":"Bayern"}},{"name":"Brückenstr.","postalCode":"97702","locality":"Münnerstadt","municipality":{"key":"09672135","name":"Münnerstadt, St","type":"Stadt"},"district":{"key":"09672","name":"Bad Kissingen","type":"Landkreis"},"federalState":{"key":"09","name":"Bayern"}},{"name":"Brunnengasse","postalCode":"97702","locality":"Münnerstadt","municipality":{"key":"09672135","name":"Münnerstadt, St","type":"Stadt"},"district":{"key":"09672","name":"Bad Kissingen","type":"Landkreis"},"federalState":{"key":"09","name":"Bayern"}},{"name":"Burggäßchen","postalCode":"97702","locality":"Münnerstadt","municipality":{"key":"09672135","name":"Münnerstadt, St","type":"Stadt"},"district":{"key":"09672","name":"Bad Kissingen","type":"Landkreis"},"federalState":{"key":"09","name":"Bayern"}},{"name":"Burghäuser Weg","postalCode":"97702","locality":"Münnerstadt","municipality":{"key":"09672135","name":"Münnerstadt, St","type":"Stadt"},"district":{"key":"09672","name":"Bad Kissingen","type":"Landkreis"},"federalState":{"key":"09","name":"Bayern"}},{"name":"Claus Haub-Str.","postalCode":"97702","locality":"Münnerstadt","municipality":{"key":"09672135","name":"Münnerstadt, St","type":"Stadt"},"district":{"key":"09672","name":"Bad Kissingen","type":"Landkreis"},"federalState":{"key":"09","name":"Bayern"}},{"name":"Coburger Str.","postalCode":"97702","locality":"Münnerstadt","municipality":{"key":"09672135","name":"Münnerstadt, St","type":"Stadt"},"district":{"key":"09672","name":"Bad Kissingen","type":"Landkreis"},"federalState":{"key":"09","name":"Bayern"}},{"name":"Deichmannstr.","postalCode":"97702","locality":"Münnerstadt","municipality":{"key":"09672135","name":"Münnerstadt, St","type":"Stadt"},"district":{"key":"09672","name":"Bad Kissingen","type":"Landkreis"},"federalState":{"key":"09","name":"Bayern"}},{"name":"Deutschherrnstr.","postalCode":"97702","locality":"Münnerstadt","municipality":{"key":"09672135","name":"Münnerstadt, St","type":"Stadt"},"district":{"key":"09672","name":"Bad Kissingen","type":"Landkreis"},"federalState":{"key":"09","name":"Bayern"}},{"name":"Doktor-Trösch-Str.","postalCode":"97702","locality":"Münnerstadt","municipality":{"key":"09672135","name":"Münnerstadt, St","type":"Stadt"},"district":{"key":"09672","name":"Bad Kissingen","type":"Landkreis"},"federalState":{"key":"09","name":"Bayern"}},{"name":"Dorfstr.","postalCode":"97702","locality":"Münnerstadt","municipality":{"key":"09672135","name":"Münnerstadt, St","type":"Stadt"},"district":{"key":"09672","name":"Bad Kissingen","type":"Landkreis"},"federalState":{"key":"09","name":"Bayern"}},{"name":"Dr-Engelhardt-Weg","postalCode":"97702","locality":"Münnerstadt","municipality":{"key":"09672135","name":"Münnerstadt, St","type":"Stadt"},"district":{"key":"09672","name":"Bad Kissingen","type":"Landkreis"},"federalState":{"key":"09","name":"Bayern"}},{"name":"Dr.-Engelhard-Weg","postalCode":"97702","locality":"Münnerstadt","municipality":{"key":"09672135","name":"Münnerstadt, St","type":"Stadt"},"district":{"key":"09672","name":"Bad Kissingen","type":"Landkreis"},"federalState":{"key":"09","name":"Bayern"}},{"name":"Dr.-Severin-Illig-Str.","postalCode":"97702","locality":"Münnerstadt","municipality":{"key":"09672135","name":"Münnerstadt, St","type":"Stadt"},"district":{"key":"09672","name":"Bad Kissingen","type":"Landkreis"},"federalState":{"key":"09","name":"Bayern"}},{"name":"Edelbachstr.","postalCode":"97702","locality":"Münnerstadt","municipality":{"key":"09672135","name":"Münnerstadt, St","type":"Stadt"},"district":{"key":"09672","name":"Bad Kissingen","type":"Landkreis"},"federalState":{"key":"09","name":"Bayern"}},{"name":"Egerlandstr.","postalCode":"97702","locality":"Münnerstadt","municipality":{"key":"09672135","name":"Münnerstadt, St","type":"Stadt"},"district":{"key":"09672","name":"Bad Kissingen","type":"Landkreis"},"federalState":{"key":"09","name":"Bayern"}},{"name":"Eichhornstr.","postalCode":"97702","locality":"Münnerstadt","municipality":{"key":"09672135","name":"Münnerstadt, St","type":"Stadt"},"district":{"key":"09672","name":"Bad Kissingen","type":"Landkreis"},"federalState":{"key":"09","name":"Bayern"}},{"name":"Enge Gasse","postalCode":"97702","locality":"Münnerstadt","municipality":{"key":"09672135","name":"Münnerstadt, St","type":"Stadt"},"district":{"key":"09672","name":"Bad Kissingen","type":"Landkreis"},"federalState":{"key":"09","name":"Bayern"}},{"name":"Finkenweg","postalCode":"97702","locality":"Münnerstadt","municipality":{"key":"09672135","name":"Münnerstadt, St","type":"Stadt"},"district":{"key":"09672","name":"Bad Kissingen","type":"Landkreis"},"federalState":{"key":"09","name":"Bayern"}},{"name":"Finstere Gasse","postalCode":"97702","locality":"Münnerstadt","municipality":{"key":"09672135","name":"Münnerstadt, St","type":"Stadt"},"district":{"key":"09672","name":"Bad Kissingen","type":"Landkreis"},"federalState":{"key":"09","name":"Bayern"}},{"name":"Freiherr-von-Lutz-Str.","postalCode":"97702","locality":"Münnerstadt","municipality":{"key":"09672135","name":"Münnerstadt, St","type":"Stadt"},"district":{"key":"09672","name":"Bad Kissingen","type":"Landkreis"},"federalState":{"key":"09","name":"Bayern"}},{"name":"Fridritter Str.","postalCode":"97702","locality":"Münnerstadt","municipality":{"key":"09672135","name":"Münnerstadt, St","type":"Stadt"},"district":{"key":"09672","name":"Bad Kissingen","type":"Landkreis"},"federalState":{"key":"09","name":"Bayern"}},{"name":"Friedhofstr.","postalCode":"97702","locality":"Münnerstadt","municipality":{"key":"09672135","name":"Münnerstadt, St","type":"Stadt"},"district":{"key":"09672","name":"Bad Kissingen","type":"Landkreis"},"federalState":{"key":"09","name":"Bayern"}},{"name":"Friedrich-Abert-Str.","postalCode":"97702","locality":"Münnerstadt","municipality":{"key":"09672135","name":"Münnerstadt, St","type":"Stadt"},"district":{"key":"09672","name":"Bad Kissingen","type":"Landkreis"},"federalState":{"key":"09","name":"Bayern"}},{"name":"Friedrich-Rückert-Str.","postalCode":"97702","locality":"Münnerstadt","municipality":{"key":"09672135","name":"Münnerstadt, St","type":"Stadt"},"district":{"key":"09672","name":"Bad Kissingen","type":"Landkreis"},"federalState":{"key":"09","name":"Bayern"}},{"name":"Frühlingsweg","postalCode":"97702","locality":"Münnerstadt","municipality":{"key":"09672135","name":"Münnerstadt, St","type":"Stadt"},"district":{"key":"09672","name":"Bad Kissingen","type":"Landkreis"},"federalState":{"key":"09","name":"Bayern"}},{"name":"Gattenhofstr.","postalCode":"97702","locality":"Münnerstadt","municipality":{"key":"09672135","name":"Münnerstadt, St","type":"Stadt"},"district":{"key":"09672","name":"Bad Kissingen","type":"Landkreis"},"federalState":{"key":"09","name":"Bayern"}},{"name":"Goldgrundweg","postalCode":"97702","locality":"Münnerstadt","municipality":{"key":"09672135","name":"Münnerstadt, St","type":"Stadt"},"district":{"key":"09672","name":"Bad Kissingen","type":"Landkreis"},"federalState":{"key":"09","name":"Bayern"}},{"name":"Grabenrangen","postalCode":"97702","locality":"Münnerstadt","municipality":{"key":"09672135","name":"Münnerstadt, St","type":"Stadt"},"district":{"key":"09672","name":"Bad Kissingen","type":"Landkreis"},"federalState":{"key":"09","name":"Bayern"}},{"name":"Grabfeldstr.","postalCode":"97702","locality":"Münnerstadt","municipality":{"key":"09672135","name":"Münnerstadt, St","type":"Stadt"},"district":{"key":"09672","name":"Bad Kissingen","type":"Landkreis"},"federalState":{"key":"09","name":"Bayern"}},{"name":"Großwenkheimer Str.","postalCode":"97702","locality":"Münnerstadt","municipality":{"key":"09672135","name":"Münnerstadt, St","type":"Stadt"},"district":{"key":"09672","name":"Bad Kissingen","type":"Landkreis"},"federalState":{"key":"09","name":"Bayern"}},{"name":"Großwenkheimer Weg","postalCode":"97702","locality":"Münnerstadt","municipality":{"key":"09672135","name":"Münnerstadt, St","type":"Stadt"},"district":{"key":"09672","name":"Bad Kissingen","type":"Landkreis"},"federalState":{"key":"09","name":"Bayern"}},{"name":"Grottenweg","postalCode":"97702","locality":"Münnerstadt","municipality":{"key":"09672135","name":"Münnerstadt, St","type":"Stadt"},"district":{"key":"09672","name":"Bad Kissingen","type":"Landkreis"},"federalState":{"key":"09","name":"Bayern"}},{"name":"Grube","postalCode":"97702","locality":"Münnerstadt","municipality":{"key":"09672135","name":"Münnerstadt, St","type":"Stadt"},"district":{"key":"09672","name":"Bad Kissingen","type":"Landkreis"},"federalState":{"key":"09","name":"Bayern"}},{"name":"Gymnasiumstr.","postalCode":"97702","locality":"Münnerstadt","municipality":{"key":"09672135","name":"Münnerstadt, St","type":"Stadt"},"district":{"key":"09672","name":"Bad Kissingen","type":"Landkreis"},"federalState":{"key":"09","name":"Bayern"}},{"name":"Haarder Weg","postalCode":"97702","locality":"Münnerstadt","municipality":{"key":"09672135","name":"Münnerstadt, St","type":"Stadt"},"district":{"key":"09672","name":"Bad Kissingen","type":"Landkreis"},"federalState":{"key":"09","name":"Bayern"}},{"name":"Hafenmarkt","postalCode":"97702","locality":"Münnerstadt","municipality":{"key":"09672135","name":"Münnerstadt, St","type":"Stadt"},"district":{"key":"09672","name":"Bad Kissingen","type":"Landkreis"},"federalState":{"key":"09","name":"Bayern"}},{"name":"Hans-Vait Str.","postalCode":"97702","locality":"Münnerstadt","municipality":{"key":"09672135","name":"Münnerstadt, St","type":"Stadt"},"district":{"key":"09672","name":"Bad Kissingen","type":"Landkreis"},"federalState":{"key":"09","name":"Bayern"}},{"name":"Hauptstr.","postalCode":"97702","locality":"Münnerstadt","municipality":{"key":"09672135","name":"Münnerstadt, St","type":"Stadt"},"district":{"key":"09672","name":"Bad Kissingen","type":"Landkreis"},"federalState":{"key":"09","name":"Bayern"}},{"name":"Heideweg","postalCode":"97702","locality":"Münnerstadt","municipality":{"key":"09672135","name":"Münnerstadt, St","type":"Stadt"},"district":{"key":"09672","name":"Bad Kissingen","type":"Landkreis"},"federalState":{"key":"09","name":"Bayern"}},{"name":"Hennebergstr.","postalCode":"97702","locality":"Münnerstadt","municipality":{"key":"09672135","name":"Münnerstadt, St","type":"Stadt"},"district":{"key":"09672","name":"Bad Kissingen","type":"Landkreis"},"federalState":{"key":"09","name":"Bayern"}},{"name":"Herrntor","postalCode":"97702","locality":"Münnerstadt","municipality":{"key":"09672135","name":"Münnerstadt, St","type":"Stadt"},"district":{"key":"09672","name":"Bad Kissingen","type":"Landkreis"},"federalState":{"key":"09","name":"Bayern"}},{"name":"Hindenburgpark","postalCode":"97702","locality":"Münnerstadt","municipality":{"key":"09672135","name":"Münnerstadt, St","type":"Stadt"},"district":{"key":"09672","name":"Bad Kissingen","type":"Landkreis"},"federalState":{"key":"09","name":"Bayern"}},{"name":"Hinter den Gärten","postalCode":"97702","locality":"Münnerstadt","municipality":{"key":"09672135","name":"Münnerstadt, St","type":"Stadt"},"district":{"key":"09672","name":"Bad Kissingen","type":"Landkreis"},"federalState":{"key":"09","name":"Bayern"}},{"name":"Hintere Str.","postalCode":"97702","locality":"Münnerstadt","municipality":{"key":"09672135","name":"Münnerstadt, St","type":"Stadt"},"district":{"key":"09672","name":"Bad Kissingen","type":"Landkreis"},"federalState":{"key":"09","name":"Bayern"}},{"name":"Hof","postalCode":"97702","locality":"Münnerstadt","municipality":{"key":"09672135","name":"Münnerstadt, St","type":"Stadt"},"district":{"key":"09672","name":"Bad Kissingen","type":"Landkreis"},"federalState":{"key":"09","name":"Bayern"}},{"name":"Hohner Weg","postalCode":"97702","locality":"Münnerstadt","municipality":{"key":"09672135","name":"Münnerstadt, St","type":"Stadt"},"district":{"key":"09672","name":"Bad Kissingen","type":"Landkreis"},"federalState":{"key":"09","name":"Bayern"}},{"name":"Honiggasse","postalCode":"97702","locality":"Münnerstadt","municipality":{"key":"09672135","name":"Münnerstadt, St","type":"Stadt"},"district":{"key":"09672","name":"Bad Kissingen","type":"Landkreis"},"federalState":{"key":"09","name":"Bayern"}},{"name":"Ignaz-Bals-Str.","postalCode":"97702","locality":"Münnerstadt","municipality":{"key":"09672135","name":"Münnerstadt, St","type":"Stadt"},"district":{"key":"09672","name":"Bad Kissingen","type":"Landkreis"},"federalState":{"key":"09","name":"Bayern"}},{"name":"Im Weidig","postalCode":"97702","locality":"Münnerstadt","municipality":{"key":"09672135","name":"Münnerstadt, St","type":"Stadt"},"district":{"key":"09672","name":"Bad Kissingen","type":"Landkreis"},"federalState":{"key":"09","name":"Bayern"}},{"name":"Jägerpfad","postalCode":"97702","locality":"Münnerstadt","municipality":{"key":"09672135","name":"Münnerstadt, St","type":"Stadt"},"district":{"key":"09672","name":"Bad Kissingen","type":"Landkreis"},"federalState":{"key":"09","name":"Bayern"}},{"name":"Jahnstr.","postalCode":"97702","locality":"Münnerstadt","municipality":{"key":"09672135","name":"Münnerstadt, St","type":"Stadt"},"district":{"key":"09672","name":"Bad Kissingen","type":"Landkreis"},"federalState":{"key":"09","name":"Bayern"}},{"name":"Johannisgasse","postalCode":"97702","locality":"Münnerstadt","municipality":{"key":"09672135","name":"Münnerstadt, St","type":"Stadt"},"district":{"key":"09672","name":"Bad Kissingen","type":"Landkreis"},"federalState":{"key":"09","name":"Bayern"}},{"name":"Jörgentorgasse","postalCode":"97702","locality":"Münnerstadt","municipality":{"key":"09672135","name":"Münnerstadt, St","type":"Stadt"},"district":{"key":"09672","name":"Bad Kissingen","type":"Landkreis"},"federalState":{"key":"09","name":"Bayern"}},{"name":"Kämmer","postalCode":"97702","locality":"Münnerstadt","municipality":{"key":"09672135","name":"Münnerstadt, St","type":"Stadt"},"district":{"key":"09672","name":"Bad Kissingen","type":"Landkreis"},"federalState":{"key":"09","name":"Bayern"}},{"name":"Kapellengasse","postalCode":"97702","locality":"Münnerstadt","municipality":{"key":"09672135","name":"Münnerstadt, St","type":"Stadt"},"district":{"key":"09672","name":"Bad Kissingen","type":"Landkreis"},"federalState":{"key":"09","name":"Bayern"}},{"name":"Kapellenstr.","postalCode":"97702","locality":"Münnerstadt","municipality":{"key":"09672135","name":"Münnerstadt, St","type":"Stadt"},"district":{"key":"09672","name":"Bad Kissingen","type":"Landkreis"},"federalState":{"key":"09","name":"Bayern"}},{"name":"Karl-Marschall-Str.","postalCode":"97702","locality":"Münnerstadt","municipality":{"key":"09672135","name":"Münnerstadt, St","type":"Stadt"},"district":{"key":"09672","name":"Bad Kissingen","type":"Landkreis"},"federalState":{"key":"09","name":"Bayern"}},{"name":"Karlsbergstr.","postalCode":"97702","locality":"Münnerstadt","municipality":{"key":"09672135","name":"Münnerstadt, St","type":"Stadt"},"district":{"key":"09672","name":"Bad Kissingen","type":"Landkreis"},"federalState":{"key":"09","name":"Bayern"}},{"name":"Kilian-Pfennig-Platz","postalCode":"97702","locality":"Münnerstadt","municipality":{"key":"09672135","name":"Münnerstadt, St","type":"Stadt"},"district":{"key":"09672","name":"Bad Kissingen","type":"Landkreis"},"federalState":{"key":"09","name":"Bayern"}},{"name":"Kirchberg","postalCode":"97702","locality":"Münnerstadt","municipality":{"key":"09672135","name":"Münnerstadt, St","type":"Stadt"},"district":{"key":"09672","name":"Bad Kissingen","type":"Landkreis"},"federalState":{"key":"09","name":"Bayern"}},{"name":"Kirchgasse","postalCode":"97702","locality":"Münnerstadt","municipality":{"key":"09672135","name":"Münnerstadt, St","type":"Stadt"},"district":{"key":"09672","name":"Bad Kissingen","type":"Landkreis"},"federalState":{"key":"09","name":"Bayern"}},{"name":"Kirchplatz","postalCode":"97702","locality":"Münnerstadt","municipality":{"key":"09672135","name":"Münnerstadt, St","type":"Stadt"},"district":{"key":"09672","name":"Bad Kissingen","type":"Landkreis"},"federalState":{"key":"09","name":"Bayern"}},{"name":"Kleine Gasse","postalCode":"97702","locality":"Münnerstadt","municipality":{"key":"09672135","name":"Münnerstadt, St","type":"Stadt"},"district":{"key":"09672","name":"Bad Kissingen","type":"Landkreis"},"federalState":{"key":"09","name":"Bayern"}},{"name":"Kleinwenkheimer Str.","postalCode":"97702","locality":"Münnerstadt","municipality":{"key":"09672135","name":"Münnerstadt, St","type":"Stadt"},"district":{"key":"09672","name":"Bad Kissingen","type":"Landkreis"},"federalState":{"key":"09","name":"Bayern"}},{"name":"Klostergasse","postalCode":"97702","locality":"Münnerstadt","municipality":{"key":"09672135","name":"Münnerstadt, St","type":"Stadt"},"district":{"key":"09672","name":"Bad Kissingen","type":"Landkreis"},"federalState":{"key":"09","name":"Bayern"}},{"name":"Kreuzbergblick","postalCode":"97702","locality":"Münnerstadt","municipality":{"key":"09672135","name":"Münnerstadt, St","type":"Stadt"},"district":{"key":"09672","name":"Bad Kissingen","type":"Landkreis"},"federalState":{"key":"09","name":"Bayern"}},{"name":"Kreuzstr.","postalCode":"97702","locality":"Münnerstadt","municipality":{"key":"09672135","name":"Münnerstadt, St","type":"Stadt"},"district":{"key":"09672","name":"Bad Kissingen","type":"Landkreis"},"federalState":{"key":"09","name":"Bayern"}},{"name":"Kurze Gasse","postalCode":"97702","locality":"Münnerstadt","municipality":{"key":"09672135","name":"Münnerstadt, St","type":"Stadt"},"district":{"key":"09672","name":"Bad Kissingen","type":"Landkreis"},"federalState":{"key":"09","name":"Bayern"}},{"name":"Landgerichtsgasse","postalCode":"97702","locality":"Münnerstadt","municipality":{"key":"09672135","name":"Münnerstadt, St","type":"Stadt"},"district":{"key":"09672","name":"Bad Kissingen","type":"Landkreis"},"federalState":{"key":"09","name":"Bayern"}},{"name":"Lange Gasse","postalCode":"97702","locality":"Münnerstadt","municipality":{"key":"09672135","name":"Münnerstadt, St","type":"Stadt"},"district":{"key":"09672","name":"Bad Kissingen","type":"Landkreis"},"federalState":{"key":"09","name":"Bayern"}},{"name":"Langgutsberg","postalCode":"97702","locality":"Münnerstadt","municipality":{"key":"09672135","name":"Münnerstadt, St","type":"Stadt"},"district":{"key":"09672","name":"Bad Kissingen","type":"Landkreis"},"federalState":{"key":"09","name":"Bayern"}},{"name":"Lehmgrube","postalCode":"97702","locality":"Münnerstadt","municipality":{"key":"09672135","name":"Münnerstadt, St","type":"Stadt"},"district":{"key":"09672","name":"Bad Kissingen","type":"Landkreis"},"federalState":{"key":"09","name":"Bayern"}},{"name":"Leo-Weismantel-Str.","postalCode":"97702","locality":"Münnerstadt","municipality":{"key":"09672135","name":"Münnerstadt, St","type":"Stadt"},"district":{"key":"09672","name":"Bad Kissingen","type":"Landkreis"},"federalState":{"key":"09","name":"Bayern"}},{"name":"Lerchenweg","postalCode":"97702","locality":"Münnerstadt","municipality":{"key":"09672135","name":"Münnerstadt, St","type":"Stadt"},"district":{"key":"09672","name":"Bad Kissingen","type":"Landkreis"},"federalState":{"key":"09","name":"Bayern"}},{"name":"Lindenstr.","postalCode":"97702","locality":"Münnerstadt","municipality":{"key":"09672135","name":"Münnerstadt, St","type":"Stadt"},"district":{"key":"09672","name":"Bad Kissingen","type":"Landkreis"},"federalState":{"key":"09","name":"Bayern"}},{"name":"Lindenweg","postalCode":"97702","locality":"Münnerstadt","municipality":{"key":"09672135","name":"Münnerstadt, St","type":"Stadt"},"district":{"key":"09672","name":"Bad Kissingen","type":"Landkreis"},"federalState":{"key":"09","name":"Bayern"}},{"name":"Ludwig-Derleth-Str.","postalCode":"97702","locality":"Münnerstadt","municipality":{"key":"09672135","name":"Münnerstadt, St","type":"Stadt"},"district":{"key":"09672","name":"Bad Kissingen","type":"Landkreis"},"federalState":{"key":"09","name":"Bayern"}},{"name":"Ludwig Nüdling-Weg","postalCode":"97702","locality":"Münnerstadt","municipality":{"key":"09672135","name":"Münnerstadt, St","type":"Stadt"},"district":{"key":"09672","name":"Bad Kissingen","type":"Landkreis"},"federalState":{"key":"09","name":"Bayern"}},{"name":"Maitalweg","postalCode":"97702","locality":"Münnerstadt","municipality":{"key":"09672135","name":"Münnerstadt, St","type":"Stadt"},"district":{"key":"09672","name":"Bad Kissingen","type":"Landkreis"},"federalState":{"key":"09","name":"Bayern"}},{"name":"Malergasse","postalCode":"97702","locality":"Münnerstadt","municipality":{"key":"09672135","name":"Münnerstadt, St","type":"Stadt"},"district":{"key":"09672","name":"Bad Kissingen","type":"Landkreis"},"federalState":{"key":"09","name":"Bayern"}},{"name":"Manggasse","postalCode":"97702","locality":"Münnerstadt","municipality":{"key":"09672135","name":"Münnerstadt, St","type":"Stadt"},"district":{"key":"09672","name":"Bad Kissingen","type":"Landkreis"},"federalState":{"key":"09","name":"Bayern"}},{"name":"Marienweg","postalCode":"97702","locality":"Münnerstadt","municipality":{"key":"09672135","name":"Münnerstadt, St","type":"Stadt"},"district":{"key":"09672","name":"Bad Kissingen","type":"Landkreis"},"federalState":{"key":"09","name":"Bayern"}},{"name":"Marktplatz","postalCode":"97702","locality":"Münnerstadt","municipality":{"key":"09672135","name":"Münnerstadt, St","type":"Stadt"},"district":{"key":"09672","name":"Bad Kissingen","type":"Landkreis"},"federalState":{"key":"09","name":"Bayern"}},{"name":"Meininger Str.","postalCode":"97702","locality":"Münnerstadt","municipality":{"key":"09672135","name":"Münnerstadt, St","type":"Stadt"},"district":{"key":"09672","name":"Bad Kissingen","type":"Landkreis"},"federalState":{"key":"09","name":"Bayern"}},{"name":"Michael-Christ-Str.","postalCode":"97702","locality":"Münnerstadt","municipality":{"key":"09672135","name":"Münnerstadt, St","type":"Stadt"},"district":{"key":"09672","name":"Bad Kissingen","type":"Landkreis"},"federalState":{"key":"09","name":"Bayern"}},{"name":"Michaelsplatz","postalCode":"97702","locality":"Münnerstadt","municipality":{"key":"09672135","name":"Münnerstadt, St","type":"Stadt"},"district":{"key":"09672","name":"Bad Kissingen","type":"Landkreis"},"federalState":{"key":"09","name":"Bayern"}},{"name":"Michelsberg","postalCode":"97702","locality":"Münnerstadt","municipality":{"key":"09672135","name":"Münnerstadt, St","type":"Stadt"},"district":{"key":"09672","name":"Bad Kissingen","type":"Landkreis"},"federalState":{"key":"09","name":"Bayern"}},{"name":"Michelsgrundweg","postalCode":"97702","locality":"Münnerstadt","municipality":{"key":"09672135","name":"Münnerstadt, St","type":"Stadt"},"district":{"key":"09672","name":"Bad Kissingen","type":"Landkreis"},"federalState":{"key":"09","name":"Bayern"}},{"name":"Michel-Stapf-Str.","postalCode":"97702","locality":"Münnerstadt","municipality":{"key":"09672135","name":"Münnerstadt, St","type":"Stadt"},"district":{"key":"09672","name":"Bad Kissingen","type":"Landkreis"},"federalState":{"key":"09","name":"Bayern"}},{"name":"Mittlerer Stadtweg","postalCode":"97702","locality":"Münnerstadt","municipality":{"key":"09672135","name":"Münnerstadt, St","type":"Stadt"},"district":{"key":"09672","name":"Bad Kissingen","type":"Landkreis"},"federalState":{"key":"09","name":"Bayern"}},{"name":"Mönchsgasse","postalCode":"97702","locality":"Münnerstadt","municipality":{"key":"09672135","name":"Münnerstadt, St","type":"Stadt"},"district":{"key":"09672","name":"Bad Kissingen","type":"Landkreis"},"federalState":{"key":"09","name":"Bayern"}},{"name":"MTB","postalCode":"97702","locality":"Münnerstadt","municipality":{"key":"09672135","name":"Münnerstadt, St","type":"Stadt"},"district":{"key":"09672","name":"Bad Kissingen","type":"Landkreis"},"federalState":{"key":"09","name":"Bayern"}},{"name":"MTB-Trail","postalCode":"97702","locality":"Münnerstadt","municipality":{"key":"09672135","name":"Münnerstadt, St","type":"Stadt"},"district":{"key":"09672","name":"Bad Kissingen","type":"Landkreis"},"federalState":{"key":"09","name":"Bayern"}},{"name":"MTB-Trail Maria Bildhausen Südwest","postalCode":"97702","locality":"Münnerstadt","municipality":{"key":"09672135","name":"Münnerstadt, St","type":"Stadt"},"district":{"key":"09672","name":"Bad Kissingen","type":"Landkreis"},"federalState":{"key":"09","name":"Bayern"}},{"name":"Mühlfeldlein","postalCode":"97702","locality":"Münnerstadt","municipality":{"key":"09672135","name":"Münnerstadt, St","type":"Stadt"},"district":{"key":"09672","name":"Bad Kissingen","type":"Landkreis"},"federalState":{"key":"09","name":"Bayern"}},{"name":"Musikschulweg","postalCode":"97702","locality":"Münnerstadt","municipality":{"key":"09672135","name":"Münnerstadt, St","type":"Stadt"},"district":{"key":"09672","name":"Bad Kissingen","type":"Landkreis"},"federalState":{"key":"09","name":"Bayern"}},{"name":"Neudorfweg","postalCode":"97702","locality":"Münnerstadt","municipality":{"key":"09672135","name":"Münnerstadt, St","type":"Stadt"},"district":{"key":"09672","name":"Bad Kissingen","type":"Landkreis"},"federalState":{"key":"09","name":"Bayern"}},{"name":"Nikolaus-Molitor-Str.","postalCode":"97702","locality":"Münnerstadt","municipality":{"key":"09672135","name":"Münnerstadt, St","type":"Stadt"},"district":{"key":"09672","name":"Bad Kissingen","type":"Landkreis"},"federalState":{"key":"09","name":"Bayern"}},{"name":"Oberes Roth","postalCode":"97702","locality":"Münnerstadt","municipality":{"key":"09672135","name":"Münnerstadt, St","type":"Stadt"},"district":{"key":"09672","name":"Bad Kissingen","type":"Landkreis"},"federalState":{"key":"09","name":"Bayern"}},{"name":"Obere Torgasse","postalCode":"97702","locality":"Münnerstadt","municipality":{"key":"09672135","name":"Münnerstadt, St","type":"Stadt"},"district":{"key":"09672","name":"Bad Kissingen","type":"Landkreis"},"federalState":{"key":"09","name":"Bayern"}},{"name":"Otto-Liebmann-Str.","postalCode":"97702","locality":"Münnerstadt","municipality":{"key":"09672135","name":"Münnerstadt, St","type":"Stadt"},"district":{"key":"09672","name":"Bad Kissingen","type":"Landkreis"},"federalState":{"key":"09","name":"Bayern"}},{"name":"Otto-Müller-Str.","postalCode":"97702","locality":"Münnerstadt","municipality":{"key":"09672135","name":"Münnerstadt, St","type":"Stadt"},"district":{"key":"09672","name":"Bad Kissingen","type":"Landkreis"},"federalState":{"key":"09","name":"Bayern"}},{"name":"Peter-Herrlein-Str.","postalCode":"97702","locality":"Münnerstadt","municipality":{"key":"09672135","name":"Münnerstadt, St","type":"Stadt"},"district":{"key":"09672","name":"Bad Kissingen","type":"Landkreis"},"federalState":{"key":"09","name":"Bayern"}},{"name":"Pfarrer-Braun-Str.","postalCode":"97702","locality":"Münnerstadt","municipality":{"key":"09672135","name":"Münnerstadt, St","type":"Stadt"},"district":{"key":"09672","name":"Bad Kissingen","type":"Landkreis"},"federalState":{"key":"09","name":"Bayern"}},{"name":"Pfarrer-Kuhn-Weg","postalCode":"97702","locality":"Münnerstadt","municipality":{"key":"09672135","name":"Münnerstadt, St","type":"Stadt"},"district":{"key":"09672","name":"Bad Kissingen","type":"Landkreis"},"federalState":{"key":"09","name":"Bayern"}},{"name":"Pfarrer-Kunzmann-Str.","postalCode":"97702","locality":"Münnerstadt","municipality":{"key":"09672135","name":"Münnerstadt, St","type":"Stadt"},"district":{"key":"09672","name":"Bad Kissingen","type":"Landkreis"},"federalState":{"key":"09","name":"Bayern"}},{"name":"Pfarrer-Weigand-Weg","postalCode":"97702","locality":"Münnerstadt","municipality":{"key":"09672135","name":"Münnerstadt, St","type":"Stadt"},"district":{"key":"09672","name":"Bad Kissingen","type":"Landkreis"},"federalState":{"key":"09","name":"Bayern"}},{"name":"Pfarrgasse","postalCode":"97702","locality":"Münnerstadt","municipality":{"key":"09672135","name":"Münnerstadt, St","type":"Stadt"},"district":{"key":"09672","name":"Bad Kissingen","type":"Landkreis"},"federalState":{"key":"09","name":"Bayern"}},{"name":"Pfarrwiesenweg","postalCode":"97702","locality":"Münnerstadt","municipality":{"key":"09672135","name":"Münnerstadt, St","type":"Stadt"},"district":{"key":"09672","name":"Bad Kissingen","type":"Landkreis"},"federalState":{"key":"09","name":"Bayern"}},{"name":"Pilgerstr.","postalCode":"97702","locality":"Münnerstadt","municipality":{"key":"09672135","name":"Münnerstadt, St","type":"Stadt"},"district":{"key":"09672","name":"Bad Kissingen","type":"Landkreis"},"federalState":{"key":"09","name":"Bayern"}},{"name":"Poppenlauerer Str.","postalCode":"97702","locality":"Münnerstadt","municipality":{"key":"09672135","name":"Münnerstadt, St","type":"Stadt"},"district":{"key":"09672","name":"Bad Kissingen","type":"Landkreis"},"federalState":{"key":"09","name":"Bayern"}},{"name":"Quellengasse","postalCode":"97688","locality":"Bad Kissingen","municipality":{"key":"09672114","name":"Bad Kissingen, GKSt","type":"Große_Kreisstadt"},"district":{"key":"09672","name":"Bad Kissingen","type":"Landkreis"},"federalState":{"key":"09","name":"Bayern"}},{"name":"Rad-/Wanderweg Kleinwenkheim-Wannigsmühle","postalCode":"97702","locality":"Münnerstadt","municipality":{"key":"09672135","name":"Münnerstadt, St","type":"Stadt"},"district":{"key":"09672","name":"Bad Kissingen","type":"Landkreis"},"federalState":{"key":"09","name":"Bayern"}},{"name":"Radweg in Forst Bildhausen Nordost","postalCode":"97702","locality":"Münnerstadt","municipality":{"key":"09672135","name":"Münnerstadt, St","type":"Stadt"},"district":{"key":"09672","name":"Bad Kissingen","type":"Landkreis"},"federalState":{"key":"09","name":"Bayern"}},{"name":"Radweg Kleinwenkheim-Wannigsmühle","postalCode":"97702","locality":"Münnerstadt","municipality":{"key":"09672135","name":"Münnerstadt, St","type":"Stadt"},"district":{"key":"09672","name":"Bad Kissingen","type":"Landkreis"},"federalState":{"key":"09","name":"Bayern"}},{"name":"Raiffeisenstr.","postalCode":"97702","locality":"Münnerstadt","municipality":{"key":"09672135","name":"Münnerstadt, St","type":"Stadt"},"district":{"key":"09672","name":"Bad Kissingen","type":"Landkreis"},"federalState":{"key":"09","name":"Bayern"}},{"name":"Rasengraben","postalCode":"97702","locality":"Münnerstadt","municipality":{"key":"09672135","name":"Münnerstadt, St","type":"Stadt"},"district":{"key":"09672","name":"Bad Kissingen","type":"Landkreis"},"federalState":{"key":"09","name":"Bayern"}},{"name":"Reichenbacher Str.","postalCode":"97702","locality":"Münnerstadt","municipality":{"key":"09672135","name":"Münnerstadt, St","type":"Stadt"},"district":{"key":"09672","name":"Bad Kissingen","type":"Landkreis"},"federalState":{"key":"09","name":"Bayern"}},{"name":"Rhönstr.","postalCode":"97702","locality":"Münnerstadt","municipality":{"key":"09672135","name":"Münnerstadt, St","type":"Stadt"},"district":{"key":"09672","name":"Bad Kissingen","type":"Landkreis"},"federalState":{"key":"09","name":"Bayern"}},{"name":"Riemenschneiderstr.","postalCode":"97702","locality":"Münnerstadt","municipality":{"key":"09672135","name":"Münnerstadt, St","type":"Stadt"},"district":{"key":"09672","name":"Bad Kissingen","type":"Landkreis"},"federalState":{"key":"09","name":"Bayern"}},{"name":"Rindhof","postalCode":"97702","locality":"Münnerstadt","municipality":{"key":"09672135","name":"Münnerstadt, St","type":"Stadt"},"district":{"key":"09672","name":"Bad Kissingen","type":"Landkreis"},"federalState":{"key":"09","name":"Bayern"}},{"name":"Ringstr.","postalCode":"97702","locality":"Münnerstadt","municipality":{"key":"09672135","name":"Münnerstadt, St","type":"Stadt"},"district":{"key":"09672","name":"Bad Kissingen","type":"Landkreis"},"federalState":{"key":"09","name":"Bayern"}},{"name":"Ringweg","postalCode":"97702","locality":"Münnerstadt","municipality":{"key":"09672135","name":"Münnerstadt, St","type":"Stadt"},"district":{"key":"09672","name":"Bad Kissingen","type":"Landkreis"},"federalState":{"key":"09","name":"Bayern"}},{"name":"Rosengarten","postalCode":"97702","locality":"Münnerstadt","municipality":{"key":"09672135","name":"Münnerstadt, St","type":"Stadt"},"district":{"key":"09672","name":"Bad Kissingen","type":"Landkreis"},"federalState":{"key":"09","name":"Bayern"}},{"name":"Salzgasse","postalCode":"97702","locality":"Münnerstadt","municipality":{"key":"09672135","name":"Münnerstadt, St","type":"Stadt"},"district":{"key":"09672","name":"Bad Kissingen","type":"Landkreis"},"federalState":{"key":"09","name":"Bayern"}},{"name":"Schäfergasse","postalCode":"97702","locality":"Münnerstadt","municipality":{"key":"09672135","name":"Münnerstadt, St","type":"Stadt"},"district":{"key":"09672","name":"Bad Kissingen","type":"Landkreis"},"federalState":{"key":"09","name":"Bayern"}},{"name":"Schafspforte","postalCode":"97702","locality":"Münnerstadt","municipality":{"key":"09672135","name":"Münnerstadt, St","type":"Stadt"},"district":{"key":"09672","name":"Bad Kissingen","type":"Landkreis"},"federalState":{"key":"09","name":"Bayern"}},{"name":"Schaumburgstr.","postalCode":"97702","locality":"Münnerstadt","municipality":{"key":"09672135","name":"Münnerstadt, St","type":"Stadt"},"district":{"key":"09672","name":"Bad Kissingen","type":"Landkreis"},"federalState":{"key":"09","name":"Bayern"}},{"name":"Schillerstr.","postalCode":"97702","locality":"Münnerstadt","municipality":{"key":"09672135","name":"Münnerstadt, St","type":"Stadt"},"district":{"key":"09672","name":"Bad Kissingen","type":"Landkreis"},"federalState":{"key":"09","name":"Bayern"}},{"name":"Schindbergstr.","postalCode":"97702","locality":"Münnerstadt","municipality":{"key":"09672135","name":"Münnerstadt, St","type":"Stadt"},"district":{"key":"09672","name":"Bad Kissingen","type":"Landkreis"},"federalState":{"key":"09","name":"Bayern"}},{"name":"Schlesierstr.","postalCode":"97702","locality":"Münnerstadt","municipality":{"key":"09672135","name":"Münnerstadt, St","type":"Stadt"},"district":{"key":"09672","name":"Bad Kissingen","type":"Landkreis"},"federalState":{"key":"09","name":"Bayern"}},{"name":"Schlossergasse","postalCode":"97702","locality":"Münnerstadt","municipality":{"key":"09672135","name":"Münnerstadt, St","type":"Stadt"},"district":{"key":"09672","name":"Bad Kissingen","type":"Landkreis"},"federalState":{"key":"09","name":"Bayern"}},{"name":"Schmissgasse","postalCode":"97702","locality":"Münnerstadt","municipality":{"key":"09672135","name":"Münnerstadt, St","type":"Stadt"},"district":{"key":"09672","name":"Bad Kissingen","type":"Landkreis"},"federalState":{"key":"09","name":"Bayern"}},{"name":"Schöffengasse","postalCode":"97702","locality":"Münnerstadt","municipality":{"key":"09672135","name":"Münnerstadt, St","type":"Stadt"},"district":{"key":"09672","name":"Bad Kissingen","type":"Landkreis"},"federalState":{"key":"09","name":"Bayern"}},{"name":"Schulstr.","postalCode":"97702","locality":"Münnerstadt","municipality":{"key":"09672135","name":"Münnerstadt, St","type":"Stadt"},"district":{"key":"09672","name":"Bad Kissingen","type":"Landkreis"},"federalState":{"key":"09","name":"Bayern"}},{"name":"Schunterstr.","postalCode":"97702","locality":"Münnerstadt","municipality":{"key":"09672135","name":"Münnerstadt, St","type":"Stadt"},"district":{"key":"09672","name":"Bad Kissingen","type":"Landkreis"},"federalState":{"key":"09","name":"Bayern"}},{"name":"Schützenstr.","postalCode":"97702","locality":"Münnerstadt","municipality":{"key":"09672135","name":"Münnerstadt, St","type":"Stadt"},"district":{"key":"09672","name":"Bad Kissingen","type":"Landkreis"},"federalState":{"key":"09","name":"Bayern"}},{"name":"Schwedenstr.","postalCode":"97702","locality":"Münnerstadt","municipality":{"key":"09672135","name":"Münnerstadt, St","type":"Stadt"},"district":{"key":"09672","name":"Bad Kissingen","type":"Landkreis"},"federalState":{"key":"09","name":"Bayern"}},{"name":"Schweizer Gasse","postalCode":"97702","locality":"Münnerstadt","municipality":{"key":"09672135","name":"Münnerstadt, St","type":"Stadt"},"district":{"key":"09672","name":"Bad Kissingen","type":"Landkreis"},"federalState":{"key":"09","name":"Bayern"}},{"name":"Schwendweg","postalCode":"97702","locality":"Münnerstadt","municipality":{"key":"09672135","name":"Münnerstadt, St","type":"Stadt"},"district":{"key":"09672","name":"Bad Kissingen","type":"Landkreis"},"federalState":{"key":"09","name":"Bayern"}},{"name":"Schwesterngasse","postalCode":"97702","locality":"Münnerstadt","municipality":{"key":"09672135","name":"Münnerstadt, St","type":"Stadt"},"district":{"key":"09672","name":"Bad Kissingen","type":"Landkreis"},"federalState":{"key":"09","name":"Bayern"}},{"name":"Schwimmbadweg","postalCode":"97702","locality":"Münnerstadt","municipality":{"key":"09672135","name":"Münnerstadt, St","type":"Stadt"},"district":{"key":"09672","name":"Bad Kissingen","type":"Landkreis"},"federalState":{"key":"09","name":"Bayern"}},{"name":"Seminarstr.","postalCode":"97702","locality":"Münnerstadt","municipality":{"key":"09672135","name":"Münnerstadt, St","type":"Stadt"},"district":{"key":"09672","name":"Bad Kissingen","type":"Landkreis"},"federalState":{"key":"09","name":"Bayern"}},{"name":"Siedlungsstr.","postalCode":"97702","locality":"Münnerstadt","municipality":{"key":"09672135","name":"Münnerstadt, St","type":"Stadt"},"district":{"key":"09672","name":"Bad Kissingen","type":"Landkreis"},"federalState":{"key":"09","name":"Bayern"}},{"name":"Siemon-Breu-Str.","postalCode":"97702","locality":"Münnerstadt","municipality":{"key":"09672135","name":"Münnerstadt, St","type":"Stadt"},"district":{"key":"09672","name":"Bad Kissingen","type":"Landkreis"},"federalState":{"key":"09","name":"Bayern"}},{"name":"Sommerleite","postalCode":"97702","locality":"Münnerstadt","municipality":{"key":"09672135","name":"Münnerstadt, St","type":"Stadt"},"district":{"key":"09672","name":"Bad Kissingen","type":"Landkreis"},"federalState":{"key":"09","name":"Bayern"}},{"name":"Sonnenweg","postalCode":"97702","locality":"Münnerstadt","municipality":{"key":"09672135","name":"Münnerstadt, St","type":"Stadt"},"district":{"key":"09672","name":"Bad Kissingen","type":"Landkreis"},"federalState":{"key":"09","name":"Bayern"}},{"name":"Stadtgasse","postalCode":"97702","locality":"Münnerstadt","municipality":{"key":"09672135","name":"Münnerstadt, St","type":"Stadt"},"district":{"key":"09672","name":"Bad Kissingen","type":"Landkreis"},"federalState":{"key":"09","name":"Bayern"}},{"name":"Stadtmauerweg","postalCode":"97702","locality":"Münnerstadt","municipality":{"key":"09672135","name":"Münnerstadt, St","type":"Stadt"},"district":{"key":"09672","name":"Bad Kissingen","type":"Landkreis"},"federalState":{"key":"09","name":"Bayern"}},{"name":"Steggasse","postalCode":"97702","locality":"Münnerstadt","municipality":{"key":"09672135","name":"Münnerstadt, St","type":"Stadt"},"district":{"key":"09672","name":"Bad Kissingen","type":"Landkreis"},"federalState":{"key":"09","name":"Bayern"}},{"name":"Steinackerweg","postalCode":"97702","locality":"Münnerstadt","municipality":{"key":"09672135","name":"Münnerstadt, St","type":"Stadt"},"district":{"key":"09672","name":"Bad Kissingen","type":"Landkreis"},"federalState":{"key":"09","name":"Bayern"}},{"name":"Stenayer Platz","postalCode":"97702","locality":"Münnerstadt","municipality":{"key":"09672135","name":"Münnerstadt, St","type":"Stadt"},"district":{"key":"09672","name":"Bad Kissingen","type":"Landkreis"},"federalState":{"key":"09","name":"Bayern"}},{"name":"Sternbachgasse","postalCode":"97702","locality":"Münnerstadt","municipality":{"key":"09672135","name":"Münnerstadt, St","type":"Stadt"},"district":{"key":"09672","name":"Bad Kissingen","type":"Landkreis"},"federalState":{"key":"09","name":"Bayern"}},{"name":"Stiegelein","postalCode":"97702","locality":"Münnerstadt","municipality":{"key":"09672135","name":"Münnerstadt, St","type":"Stadt"},"district":{"key":"09672","name":"Bad Kissingen","type":"Landkreis"},"federalState":{"key":"09","name":"Bayern"}},{"name":"St.-Kilians-Platz","postalCode":"97702","locality":"Münnerstadt","municipality":{"key":"09672135","name":"Münnerstadt, St","type":"Stadt"},"district":{"key":"09672","name":"Bad Kissingen","type":"Landkreis"},"federalState":{"key":"09","name":"Bayern"}},{"name":"Strahlunger Weg","postalCode":"97702","locality":"Münnerstadt","municipality":{"key":"09672135","name":"Münnerstadt, St","type":"Stadt"},"district":{"key":"09672","name":"Bad Kissingen","type":"Landkreis"},"federalState":{"key":"09","name":"Bayern"}},{"name":"Streitgasse","postalCode":"97702","locality":"Münnerstadt","municipality":{"key":"09672135","name":"Münnerstadt, St","type":"Stadt"},"district":{"key":"09672","name":"Bad Kissingen","type":"Landkreis"},"federalState":{"key":"09","name":"Bayern"}},{"name":"St.-Sebastian-Str.","postalCode":"97702","locality":"Münnerstadt","municipality":{"key":"09672135","name":"Münnerstadt, St","type":"Stadt"},"district":{"key":"09672","name":"Bad Kissingen","type":"Landkreis"},"federalState":{"key":"09","name":"Bayern"}},{"name":"Stuffelsgasse","postalCode":"97702","locality":"Münnerstadt","municipality":{"key":"09672135","name":"Münnerstadt, St","type":"Stadt"},"district":{"key":"09672","name":"Bad Kissingen","type":"Landkreis"},"federalState":{"key":"09","name":"Bayern"}},{"name":"Stutzweg","postalCode":"97702","locality":"Münnerstadt","municipality":{"key":"09672135","name":"Münnerstadt, St","type":"Stadt"},"district":{"key":"09672","name":"Bad Kissingen","type":"Landkreis"},"federalState":{"key":"09","name":"Bayern"}},{"name":"Sudhausgasse","postalCode":"97702","locality":"Münnerstadt","municipality":{"key":"09672135","name":"Münnerstadt, St","type":"Stadt"},"district":{"key":"09672","name":"Bad Kissingen","type":"Landkreis"},"federalState":{"key":"09","name":"Bayern"}},{"name":"Suitgergasse","postalCode":"97702","locality":"Münnerstadt","municipality":{"key":"09672135","name":"Münnerstadt, St","type":"Stadt"},"district":{"key":"09672","name":"Bad Kissingen","type":"Landkreis"},"federalState":{"key":"09","name":"Bayern"}},{"name":"Tannigstr.","postalCode":"97702","locality":"Münnerstadt","municipality":{"key":"09672135","name":"Münnerstadt, St","type":"Stadt"},"district":{"key":"09672","name":"Bad Kissingen","type":"Landkreis"},"federalState":{"key":"09","name":"Bayern"}},{"name":"Theinfelder Str.","postalCode":"97702","locality":"Münnerstadt","municipality":{"key":"09672135","name":"Münnerstadt, St","type":"Stadt"},"district":{"key":"09672","name":"Bad Kissingen","type":"Landkreis"},"federalState":{"key":"09","name":"Bayern"}},{"name":"Theodor-Heuss-Weg","postalCode":"97702","locality":"Münnerstadt","municipality":{"key":"09672135","name":"Münnerstadt, St","type":"Stadt"},"district":{"key":"09672","name":"Bad Kissingen","type":"Landkreis"},"federalState":{"key":"09","name":"Bayern"}},{"name":"Thundorfer Weg","postalCode":"97702","locality":"Münnerstadt","municipality":{"key":"09672135","name":"Münnerstadt, St","type":"Stadt"},"district":{"key":"09672","name":"Bad Kissingen","type":"Landkreis"},"federalState":{"key":"09","name":"Bayern"}},{"name":"Thüringer Str.","postalCode":"97702","locality":"Münnerstadt","municipality":{"key":"09672135","name":"Münnerstadt, St","type":"Stadt"},"district":{"key":"09672","name":"Bad Kissingen","type":"Landkreis"},"federalState":{"key":"09","name":"Bayern"}},{"name":"Uhlsgasse","postalCode":"97702","locality":"Münnerstadt","municipality":{"key":"09672135","name":"Münnerstadt, St","type":"Stadt"},"district":{"key":"09672","name":"Bad Kissingen","type":"Landkreis"},"federalState":{"key":"09","name":"Bayern"}},{"name":"Ulmenweg","postalCode":"97702","locality":"Münnerstadt","municipality":{"key":"09672135","name":"Münnerstadt, St","type":"Stadt"},"district":{"key":"09672","name":"Bad Kissingen","type":"Landkreis"},"federalState":{"key":"09","name":"Bayern"}},{"name":"Untere Au","postalCode":"97702","locality":"Münnerstadt","municipality":{"key":"09672135","name":"Münnerstadt, St","type":"Stadt"},"district":{"key":"09672","name":"Bad Kissingen","type":"Landkreis"},"federalState":{"key":"09","name":"Bayern"}},{"name":"Unteres Roth","postalCode":"97702","locality":"Münnerstadt","municipality":{"key":"09672135","name":"Münnerstadt, St","type":"Stadt"},"district":{"key":"09672","name":"Bad Kissingen","type":"Landkreis"},"federalState":{"key":"09","name":"Bayern"}},{"name":"Unterland","postalCode":"97702","locality":"Münnerstadt","municipality":{"key":"09672135","name":"Münnerstadt, St","type":"Stadt"},"district":{"key":"09672","name":"Bad Kissingen","type":"Landkreis"},"federalState":{"key":"09","name":"Bayern"}},{"name":"Unterm Dorf","postalCode":"97702","locality":"Münnerstadt","municipality":{"key":"09672135","name":"Münnerstadt, St","type":"Stadt"},"district":{"key":"09672","name":"Bad Kissingen","type":"Landkreis"},"federalState":{"key":"09","name":"Bayern"}},{"name":"Veit-Stoß-Str.","postalCode":"97702","locality":"Münnerstadt","municipality":{"key":"09672135","name":"Münnerstadt, St","type":"Stadt"},"district":{"key":"09672","name":"Bad Kissingen","type":"Landkreis"},"federalState":{"key":"09","name":"Bayern"}},{"name":"Verbindsweg zum Zigeunerbrunnen","postalCode":"97702","locality":"Münnerstadt","municipality":{"key":"09672135","name":"Münnerstadt, St","type":"Stadt"},"district":{"key":"09672","name":"Bad Kissingen","type":"Landkreis"},"federalState":{"key":"09","name":"Bayern"}},{"name":"Verbindungsweg beim Rockenbühl","postalCode":"97702","locality":"Münnerstadt","municipality":{"key":"09672135","name":"Münnerstadt, St","type":"Stadt"},"district":{"key":"09672","name":"Bad Kissingen","type":"Landkreis"},"federalState":{"key":"09","name":"Bayern"}},{"name":"Verbindung Unteres Holz - Galgeneller","postalCode":"97702","locality":"Münnerstadt","municipality":{"key":"09672135","name":"Münnerstadt, St","type":"Stadt"},"district":{"key":"09672","name":"Bad Kissingen","type":"Landkreis"},"federalState":{"key":"09","name":"Bayern"}},{"name":"Volksstegweg","postalCode":"97702","locality":"Münnerstadt","municipality":{"key":"09672135","name":"Münnerstadt, St","type":"Stadt"},"district":{"key":"09672","name":"Bad Kissingen","type":"Landkreis"},"federalState":{"key":"09","name":"Bayern"}},{"name":"von-Guttenbergstr.","postalCode":"97702","locality":"Münnerstadt","municipality":{"key":"09672135","name":"Münnerstadt, St","type":"Stadt"},"district":{"key":"09672","name":"Bad Kissingen","type":"Landkreis"},"federalState":{"key":"09","name":"Bayern"}},{"name":"Vorndranweg","postalCode":"97702","locality":"Münnerstadt","municipality":{"key":"09672135","name":"Münnerstadt, St","type":"Stadt"},"district":{"key":"09672","name":"Bad Kissingen","type":"Landkreis"},"federalState":{"key":"09","name":"Bayern"}},{"name":"Waldstr.","postalCode":"97702","locality":"Münnerstadt","municipality":{"key":"09672135","name":"Münnerstadt, St","type":"Stadt"},"district":{"key":"09672","name":"Bad Kissingen","type":"Landkreis"},"federalState":{"key":"09","name":"Bayern"}},{"name":"Waldweg am Haderhügel","postalCode":"97702","locality":"Münnerstadt","municipality":{"key":"09672135","name":"Münnerstadt, St","type":"Stadt"},"district":{"key":"09672","name":"Bad Kissingen","type":"Landkreis"},"federalState":{"key":"09","name":"Bayern"}},{"name":"Waldweg im Ellerholz","postalCode":"97702","locality":"Münnerstadt","municipality":{"key":"09672135","name":"Münnerstadt, St","type":"Stadt"},"district":{"key":"09672","name":"Bad Kissingen","type":"Landkreis"},"federalState":{"key":"09","name":"Bayern"}},{"name":"Waldweg im Schafgrund","postalCode":"97702","locality":"Münnerstadt","municipality":{"key":"09672135","name":"Münnerstadt, St","type":"Stadt"},"district":{"key":"09672","name":"Bad Kissingen","type":"Landkreis"},"federalState":{"key":"09","name":"Bayern"}},{"name":"Wanderweg","postalCode":"97702","locality":"Münnerstadt","municipality":{"key":"09672135","name":"Münnerstadt, St","type":"Stadt"},"district":{"key":"09672","name":"Bad Kissingen","type":"Landkreis"},"federalState":{"key":"09","name":"Bayern"}},{"name":"Wanderweg Extratour Michelsberg","postalCode":"97702","locality":"Münnerstadt","municipality":{"key":"09672135","name":"Münnerstadt, St","type":"Stadt"},"district":{"key":"09672","name":"Bad Kissingen","type":"Landkreis"},"federalState":{"key":"09","name":"Bayern"}},{"name":"Wanderweg Extratour Münnerstadt","postalCode":"97702","locality":"Münnerstadt","municipality":{"key":"09672135","name":"Münnerstadt, St","type":"Stadt"},"district":{"key":"09672","name":"Bad Kissingen","type":"Landkreis"},"federalState":{"key":"09","name":"Bayern"}},{"name":"Wannigweg","postalCode":"97702","locality":"Münnerstadt","municipality":{"key":"09672135","name":"Münnerstadt, St","type":"Stadt"},"district":{"key":"09672","name":"Bad Kissingen","type":"Landkreis"},"federalState":{"key":"09","name":"Bayern"}},{"name":"Waschlauerweg","postalCode":"97702","locality":"Münnerstadt","municipality":{"key":"09672135","name":"Münnerstadt, St","type":"Stadt"},"district":{"key":"09672","name":"Bad Kissingen","type":"Landkreis"},"federalState":{"key":"09","name":"Bayern"}},{"name":"Weichtunger Str.","postalCode":"97702","locality":"Münnerstadt","municipality":{"key":"09672135","name":"Münnerstadt, St","type":"Stadt"},"district":{"key":"09672","name":"Bad Kissingen","type":"Landkreis"},"federalState":{"key":"09","name":"Bayern"}},{"name":"Weinbergweg","postalCode":"97702","locality":"Münnerstadt","municipality":{"key":"09672135","name":"Münnerstadt, St","type":"Stadt"},"district":{"key":"09672","name":"Bad Kissingen","type":"Landkreis"},"federalState":{"key":"09","name":"Bayern"}},{"name":"Wermerichshäuser Weg","postalCode":"97702","locality":"Münnerstadt","municipality":{"key":"09672135","name":"Münnerstadt, St","type":"Stadt"},"district":{"key":"09672","name":"Bad Kissingen","type":"Landkreis"},"federalState":{"key":"09","name":"Bayern"}},{"name":"Wiesenweg","postalCode":"97702","locality":"Münnerstadt","municipality":{"key":"09672135","name":"Münnerstadt, St","type":"Stadt"},"district":{"key":"09672","name":"Bad Kissingen","type":"Landkreis"},"federalState":{"key":"09","name":"Bayern"}},{"name":"Windsburgweg","postalCode":"97702","locality":"Münnerstadt","municipality":{"key":"09672135","name":"Münnerstadt, St","type":"Stadt"},"district":{"key":"09672","name":"Bad Kissingen","type":"Landkreis"},"federalState":{"key":"09","name":"Bayern"}},{"name":"Wirtsgasse","postalCode":"97702","locality":"Münnerstadt","municipality":{"key":"09672135","name":"Münnerstadt, St","type":"Stadt"},"district":{"key":"09672","name":"Bad Kissingen","type":"Landkreis"},"federalState":{"key":"09","name":"Bayern"}},{"name":"Ysenburgstr.","postalCode":"97688","locality":"Bad Kissingen","municipality":{"key":"09672114","name":"Bad Kissingen, GKSt","type":"Große_Kreisstadt"},"district":{"key":"09672","name":"Bad Kissingen","type":"Landkreis"},"federalState":{"key":"09","name":"Bayern"}},{"name":"Zentstr.","postalCode":"97702","locality":"Münnerstadt","municipality":{"key":"09672135","name":"Münnerstadt, St","type":"Stadt"},"district":{"key":"09672","name":"Bad Kissingen","type":"Landkreis"},"federalState":{"key":"09","name":"Bayern"}},{"name":"Zum Herrnsteg","postalCode":"97702","locality":"Münnerstadt","municipality":{"key":"09672135","name":"Münnerstadt, St","type":"Stadt"},"district":{"key":"09672","name":"Bad Kissingen","type":"Landkreis"},"federalState":{"key":"09","name":"Bayern"}},{"name":"Zum Wiesengrund","postalCode":"97702","locality":"Münnerstadt","municipality":{"key":"09672135","name":"Münnerstadt, St","type":"Stadt"},"district":{"key":"09672","name":"Bad Kissingen","type":"Landkreis"},"federalState":{"key":"09","name":"Bayern"}},{"name":"Zur Bildeiche","postalCode":"97702","locality":"Münnerstadt","municipality":{"key":"09672135","name":"Münnerstadt, St","type":"Stadt"},"district":{"key":"09672","name":"Bad Kissingen","type":"Landkreis"},"federalState":{"key":"09","name":"Bayern"}},{"name":"Zur Galgenvogelhütte","postalCode":"97702","locality":"Münnerstadt","municipality":{"key":"09672135","name":"Münnerstadt, St","type":"Stadt"},"district":{"key":"09672","name":"Bad Kissingen","type":"Landkreis"},"federalState":{"key":"09","name":"Bayern"}},{"name":"Zur Linde","postalCode":"97702","locality":"Münnerstadt","municipality":{"key":"09672135","name":"Münnerstadt, St","type":"Stadt"},"district":{"key":"09672","name":"Bad Kissingen","type":"Landkreis"},"federalState":{"key":"09","name":"Bayern"}},{"name":"Zur Schule","postalCode":"97702","locality":"Münnerstadt","municipality":{"key":"09672135","name":"Münnerstadt, St","type":"Stadt"},"district":{"key":"09672","name":"Bad Kissingen","type":"Landkreis"},"federalState":{"key":"09","name":"Bayern"}},{"name":"Zur Zehntscheune","postalCode":"97702","locality":"Münnerstadt","municipality":{"key":"09672135","name":"Münnerstadt, St","type":"Stadt"},"district":{"key":"09672","name":"Bad Kissingen","type":"Landkreis"},"federalState":{"key":"09","name":"Bayern"}},]