[{"key":"10179392","name":"Alte Mühle","postalCode":"5014","locality":"Gretzenbach","commune":{"key":"2576","name":"Gretzenbach","shortName":"Gretzenbach"},"district":{"key":"1108","name":"Bezirk Olten"},"canton":{"key":"11","code":"SO","name":"Solothurn"},"status":"Real"},{"key":"10090031","name":"Am Stalden","postalCode":"5014","locality":"Gretzenbach","commune":{"key":"2576","name":"Gretzenbach","shortName":"Gretzenbach"},"district":{"key":"1108","name":"Bezirk Olten"},"canton":{"key":"11","code":"SO","name":"Solothurn"},"status":"Real"},{"key":"10122727","name":"Andresenschachen","postalCode":"5014","locality":"Gretzenbach","commune":{"key":"2576","name":"Gretzenbach","shortName":"Gretzenbach"},"district":{"key":"1108","name":"Bezirk Olten"},"canton":{"key":"11","code":"SO","name":"Solothurn"},"status":"Real"},{"key":"10027284","name":"Atzliweg","postalCode":"5014","locality":"Gretzenbach","commune":{"key":"2576","name":"Gretzenbach","shortName":"Gretzenbach"},"district":{"key":"1108","name":"Bezirk Olten"},"canton":{"key":"11","code":"SO","name":"Solothurn"},"status":"Real"},{"key":"10027285","name":"Bachweg","postalCode":"5014","locality":"Gretzenbach","commune":{"key":"2576","name":"Gretzenbach","shortName":"Gretzenbach"},"district":{"key":"1108","name":"Bezirk Olten"},"canton":{"key":"11","code":"SO","name":"Solothurn"},"status":"Real"},{"key":"10090032","name":"Beim Schützenhaus","postalCode":"5014","locality":"Gretzenbach","commune":{"key":"2576","name":"Gretzenbach","shortName":"Gretzenbach"},"district":{"key":"1108","name":"Bezirk Olten"},"canton":{"key":"11","code":"SO","name":"Solothurn"},"status":"Real"},{"key":"10027286","name":"Bielackerstrasse","postalCode":"5014","locality":"Gretzenbach","commune":{"key":"2576","name":"Gretzenbach","shortName":"Gretzenbach"},"district":{"key":"1108","name":"Bezirk Olten"},"canton":{"key":"11","code":"SO","name":"Solothurn"},"status":"Real"},{"key":"10066143","name":"Bielwaldstrasse","postalCode":"5014","locality":"Gretzenbach","commune":{"key":"2576","name":"Gretzenbach","shortName":"Gretzenbach"},"district":{"key":"1108","name":"Bezirk Olten"},"canton":{"key":"11","code":"SO","name":"Solothurn"},"status":"Real"},{"key":"10179393","name":"Bodenackerstrasse","postalCode":"5014","locality":"Gretzenbach","commune":{"key":"2576","name":"Gretzenbach","shortName":"Gretzenbach"},"district":{"key":"1108","name":"Bezirk Olten"},"canton":{"key":"11","code":"SO","name":"Solothurn"},"status":"Real"},{"key":"10191272","name":"Dössihubelstrasse","postalCode":"5014","locality":"Gretzenbach","commune":{"key":"2576","name":"Gretzenbach","shortName":"Gretzenbach"},"district":{"key":"1108","name":"Bezirk Olten"},"canton":{"key":"11","code":"SO","name":"Solothurn"},"status":"Real"},{"key":"10027287","name":"Ettenburgstrasse","postalCode":"5014","locality":"Gretzenbach","commune":{"key":"2576","name":"Gretzenbach","shortName":"Gretzenbach"},"district":{"key":"1108","name":"Bezirk Olten"},"canton":{"key":"11","code":"SO","name":"Solothurn"},"status":"Real"},{"key":"10027288","name":"Frybackerstrasse","postalCode":"5014","locality":"Gretzenbach","commune":{"key":"2576","name":"Gretzenbach","shortName":"Gretzenbach"},"district":{"key":"1108","name":"Bezirk Olten"},"canton":{"key":"11","code":"SO","name":"Solothurn"},"status":"Real"},{"key":"10117899","name":"Gimmermehstrasse","postalCode":"5014","locality":"Gretzenbach","commune":{"key":"2576","name":"Gretzenbach","shortName":"Gretzenbach"},"district":{"key":"1108","name":"Bezirk Olten"},"canton":{"key":"11","code":"SO","name":"Solothurn"},"status":"Real"},{"key":"10066144","name":"Grabackerweg","postalCode":"5014","locality":"Gretzenbach","commune":{"key":"2576","name":"Gretzenbach","shortName":"Gretzenbach"},"district":{"key":"1108","name":"Bezirk Olten"},"canton":{"key":"11","code":"SO","name":"Solothurn"},"status":"Real"},{"key":"10214255","name":"Gräbler","postalCode":"5014","locality":"Gretzenbach","commune":{"key":"2576","name":"Gretzenbach","shortName":"Gretzenbach"},"district":{"key":"1108","name":"Bezirk Olten"},"canton":{"key":"11","code":"SO","name":"Solothurn"},"status":"Real"},{"key":"10103769","name":"Grod","postalCode":"5014","locality":"Gretzenbach","commune":{"key":"2576","name":"Gretzenbach","shortName":"Gretzenbach"},"district":{"key":"1108","name":"Bezirk Olten"},"canton":{"key":"11","code":"SO","name":"Solothurn"},"status":"Real"},{"key":"10027290","name":"Gröderstrasse","postalCode":"5014","locality":"Gretzenbach","commune":{"key":"2576","name":"Gretzenbach","shortName":"Gretzenbach"},"district":{"key":"1108","name":"Bezirk Olten"},"canton":{"key":"11","code":"SO","name":"Solothurn"},"status":"Real"},{"key":"10027289","name":"Grunzmattstrasse","postalCode":"5014","locality":"Gretzenbach","commune":{"key":"2576","name":"Gretzenbach","shortName":"Gretzenbach"},"district":{"key":"1108","name":"Bezirk Olten"},"canton":{"key":"11","code":"SO","name":"Solothurn"},"status":"Real"},{"key":"10027291","name":"Güterstrasse","postalCode":"5014","locality":"Gretzenbach","commune":{"key":"2576","name":"Gretzenbach","shortName":"Gretzenbach"},"district":{"key":"1108","name":"Bezirk Olten"},"canton":{"key":"11","code":"SO","name":"Solothurn"},"status":"Real"},{"key":"10090033","name":"Hasengasse","postalCode":"5014","locality":"Gretzenbach","commune":{"key":"2576","name":"Gretzenbach","shortName":"Gretzenbach"},"district":{"key":"1108","name":"Bezirk Olten"},"canton":{"key":"11","code":"SO","name":"Solothurn"},"status":"Real"},{"key":"10066145","name":"Hashubelweg","postalCode":"5014","locality":"Gretzenbach","commune":{"key":"2576","name":"Gretzenbach","shortName":"Gretzenbach"},"district":{"key":"1108","name":"Bezirk Olten"},"canton":{"key":"11","code":"SO","name":"Solothurn"},"status":"Real"},{"key":"10027292","name":"Hegackerstrasse","postalCode":"5014","locality":"Gretzenbach","commune":{"key":"2576","name":"Gretzenbach","shortName":"Gretzenbach"},"district":{"key":"1108","name":"Bezirk Olten"},"canton":{"key":"11","code":"SO","name":"Solothurn"},"status":"Real"},{"key":"10027293","name":"Heuelstrasse","postalCode":"5014","locality":"Gretzenbach","commune":{"key":"2576","name":"Gretzenbach","shortName":"Gretzenbach"},"district":{"key":"1108","name":"Bezirk Olten"},"canton":{"key":"11","code":"SO","name":"Solothurn"},"status":"Real"},{"key":"10027294","name":"Im Biel","postalCode":"5014","locality":"Gretzenbach","commune":{"key":"2576","name":"Gretzenbach","shortName":"Gretzenbach"},"district":{"key":"1108","name":"Bezirk Olten"},"canton":{"key":"11","code":"SO","name":"Solothurn"},"status":"Real"},{"key":"10090034","name":"Im Grund","postalCode":"5014","locality":"Gretzenbach","commune":{"key":"2576","name":"Gretzenbach","shortName":"Gretzenbach"},"district":{"key":"1108","name":"Bezirk Olten"},"canton":{"key":"11","code":"SO","name":"Solothurn"},"status":"Real"},{"key":"10103410","name":"Im Lehen","postalCode":"5014","locality":"Gretzenbach","commune":{"key":"2576","name":"Gretzenbach","shortName":"Gretzenbach"},"district":{"key":"1108","name":"Bezirk Olten"},"canton":{"key":"11","code":"SO","name":"Solothurn"},"status":"Real"},{"key":"10027283","name":"Im Möösli","postalCode":"5014","locality":"Gretzenbach","commune":{"key":"2576","name":"Gretzenbach","shortName":"Gretzenbach"},"district":{"key":"1108","name":"Bezirk Olten"},"canton":{"key":"11","code":"SO","name":"Solothurn"},"status":"Real"},{"key":"10135488","name":"Im Oelihof","postalCode":"5014","locality":"Gretzenbach","commune":{"key":"2576","name":"Gretzenbach","shortName":"Gretzenbach"},"district":{"key":"1108","name":"Bezirk Olten"},"canton":{"key":"11","code":"SO","name":"Solothurn"},"status":"Real"},{"key":"10181239","name":"Im Zirzel","postalCode":"5014","locality":"Gretzenbach","commune":{"key":"2576","name":"Gretzenbach","shortName":"Gretzenbach"},"district":{"key":"1108","name":"Bezirk Olten"},"canton":{"key":"11","code":"SO","name":"Solothurn"},"status":"Real"},{"key":"10111385","name":"Jöriweg","postalCode":"5014","locality":"Gretzenbach","commune":{"key":"2576","name":"Gretzenbach","shortName":"Gretzenbach"},"district":{"key":"1108","name":"Bezirk Olten"},"canton":{"key":"11","code":"SO","name":"Solothurn"},"status":"Real"},{"key":"10027295","name":"Jostacker","postalCode":"5014","locality":"Gretzenbach","commune":{"key":"2576","name":"Gretzenbach","shortName":"Gretzenbach"},"district":{"key":"1108","name":"Bezirk Olten"},"canton":{"key":"11","code":"SO","name":"Solothurn"},"status":"Real"},{"key":"10128622","name":"Kirchenfeldstrasse","postalCode":"5014","locality":"Gretzenbach","commune":{"key":"2576","name":"Gretzenbach","shortName":"Gretzenbach"},"district":{"key":"1108","name":"Bezirk Olten"},"canton":{"key":"11","code":"SO","name":"Solothurn"},"status":"Real"},{"key":"10187787","name":"Kirchweg","postalCode":"5014","locality":"Gretzenbach","commune":{"key":"2576","name":"Gretzenbach","shortName":"Gretzenbach"},"district":{"key":"1108","name":"Bezirk Olten"},"canton":{"key":"11","code":"SO","name":"Solothurn"},"status":"Real"},{"key":"10027296","name":"Kohlschwärzistrasse","postalCode":"5014","locality":"Gretzenbach","commune":{"key":"2576","name":"Gretzenbach","shortName":"Gretzenbach"},"district":{"key":"1108","name":"Bezirk Olten"},"canton":{"key":"11","code":"SO","name":"Solothurn"},"status":"Real"},{"key":"10183619","name":"Köllikerstrasse","postalCode":"5014","locality":"Gretzenbach","commune":{"key":"2576","name":"Gretzenbach","shortName":"Gretzenbach"},"district":{"key":"1108","name":"Bezirk Olten"},"canton":{"key":"11","code":"SO","name":"Solothurn"},"status":"Real"},{"key":"10090035","name":"Langmattrainweg","postalCode":"5014","locality":"Gretzenbach","commune":{"key":"2576","name":"Gretzenbach","shortName":"Gretzenbach"},"district":{"key":"1108","name":"Bezirk Olten"},"canton":{"key":"11","code":"SO","name":"Solothurn"},"status":"Real"},{"key":"10179394","name":"Leinackerweg","postalCode":"5014","locality":"Gretzenbach","commune":{"key":"2576","name":"Gretzenbach","shortName":"Gretzenbach"},"district":{"key":"1108","name":"Bezirk Olten"},"canton":{"key":"11","code":"SO","name":"Solothurn"},"status":"Real"},{"key":"10167194","name":"Lismeracker","postalCode":"5014","locality":"Gretzenbach","commune":{"key":"2576","name":"Gretzenbach","shortName":"Gretzenbach"},"district":{"key":"1108","name":"Bezirk Olten"},"canton":{"key":"11","code":"SO","name":"Solothurn"},"status":"Real"},{"key":"10103770","name":"Lochhofstrasse","postalCode":"5014","locality":"Gretzenbach","commune":{"key":"2576","name":"Gretzenbach","shortName":"Gretzenbach"},"district":{"key":"1108","name":"Bezirk Olten"},"canton":{"key":"11","code":"SO","name":"Solothurn"},"status":"Real"},{"key":"10027297","name":"Ludigasse","postalCode":"5014","locality":"Gretzenbach","commune":{"key":"2576","name":"Gretzenbach","shortName":"Gretzenbach"},"district":{"key":"1108","name":"Bezirk Olten"},"canton":{"key":"11","code":"SO","name":"Solothurn"},"status":"Real"},{"key":"10192594","name":"Mattenweg","postalCode":"5014","locality":"Gretzenbach","commune":{"key":"2576","name":"Gretzenbach","shortName":"Gretzenbach"},"district":{"key":"1108","name":"Bezirk Olten"},"canton":{"key":"11","code":"SO","name":"Solothurn"},"status":"Real"},{"key":"10027298","name":"Mühleweg","postalCode":"5014","locality":"Gretzenbach","commune":{"key":"2576","name":"Gretzenbach","shortName":"Gretzenbach"},"district":{"key":"1108","name":"Bezirk Olten"},"canton":{"key":"11","code":"SO","name":"Solothurn"},"status":"Real"},{"key":"10027299","name":"Oberfeld","postalCode":"5014","locality":"Gretzenbach","commune":{"key":"2576","name":"Gretzenbach","shortName":"Gretzenbach"},"district":{"key":"1108","name":"Bezirk Olten"},"canton":{"key":"11","code":"SO","name":"Solothurn"},"status":"Real"},{"key":"10090036","name":"Obstgartenweg","postalCode":"5014","locality":"Gretzenbach","commune":{"key":"2576","name":"Gretzenbach","shortName":"Gretzenbach"},"district":{"key":"1108","name":"Bezirk Olten"},"canton":{"key":"11","code":"SO","name":"Solothurn"},"status":"Real"},{"key":"10066146","name":"Oelihofstrasse","postalCode":"5014","locality":"Gretzenbach","commune":{"key":"2576","name":"Gretzenbach","shortName":"Gretzenbach"},"district":{"key":"1108","name":"Bezirk Olten"},"canton":{"key":"11","code":"SO","name":"Solothurn"},"status":"Real"},{"key":"10027300","name":"Oltnerstrasse","postalCode":"5014","locality":"Gretzenbach","commune":{"key":"2576","name":"Gretzenbach","shortName":"Gretzenbach"},"district":{"key":"1108","name":"Bezirk Olten"},"canton":{"key":"11","code":"SO","name":"Solothurn"},"status":"Real"},{"key":"10214263","name":"Parkweg","postalCode":"5014","locality":"Gretzenbach","commune":{"key":"2576","name":"Gretzenbach","shortName":"Gretzenbach"},"district":{"key":"1108","name":"Bezirk Olten"},"canton":{"key":"11","code":"SO","name":"Solothurn"},"status":"Real"},{"key":"10027301","name":"Pfarrmattstrasse","postalCode":"5014","locality":"Gretzenbach","commune":{"key":"2576","name":"Gretzenbach","shortName":"Gretzenbach"},"district":{"key":"1108","name":"Bezirk Olten"},"canton":{"key":"11","code":"SO","name":"Solothurn"},"status":"Real"},{"key":"10214315","name":"Rottannweg","postalCode":"5014","locality":"Gretzenbach","commune":{"key":"2576","name":"Gretzenbach","shortName":"Gretzenbach"},"district":{"key":"1108","name":"Bezirk Olten"},"canton":{"key":"11","code":"SO","name":"Solothurn"},"status":"Real"},{"key":"10090037","name":"Rüttenenstrasse","postalCode":"5014","locality":"Gretzenbach","commune":{"key":"2576","name":"Gretzenbach","shortName":"Gretzenbach"},"district":{"key":"1108","name":"Bezirk Olten"},"canton":{"key":"11","code":"SO","name":"Solothurn"},"status":"Real"},{"key":"10027302","name":"Sagigass","postalCode":"5014","locality":"Gretzenbach","commune":{"key":"2576","name":"Gretzenbach","shortName":"Gretzenbach"},"district":{"key":"1108","name":"Bezirk Olten"},"canton":{"key":"11","code":"SO","name":"Solothurn"},"status":"Real"},{"key":"10179395","name":"Sängetelmatten","postalCode":"5014","locality":"Gretzenbach","commune":{"key":"2576","name":"Gretzenbach","shortName":"Gretzenbach"},"district":{"key":"1108","name":"Bezirk Olten"},"canton":{"key":"11","code":"SO","name":"Solothurn"},"status":"Real"},{"key":"10090039","name":"Sängetelstrasse","postalCode":"5014","locality":"Gretzenbach","commune":{"key":"2576","name":"Gretzenbach","shortName":"Gretzenbach"},"district":{"key":"1108","name":"Bezirk Olten"},"canton":{"key":"11","code":"SO","name":"Solothurn"},"status":"Real"},{"key":"10066147","name":"Schachenstrasse","postalCode":"5014","locality":"Gretzenbach","commune":{"key":"2576","name":"Gretzenbach","shortName":"Gretzenbach"},"district":{"key":"1108","name":"Bezirk Olten"},"canton":{"key":"11","code":"SO","name":"Solothurn"},"status":"Real"},{"key":"10027303","name":"Schulstrasse","postalCode":"5014","locality":"Gretzenbach","commune":{"key":"2576","name":"Gretzenbach","shortName":"Gretzenbach"},"district":{"key":"1108","name":"Bezirk Olten"},"canton":{"key":"11","code":"SO","name":"Solothurn"},"status":"Real"},{"key":"10027304","name":"Schumacheracker","postalCode":"5014","locality":"Gretzenbach","commune":{"key":"2576","name":"Gretzenbach","shortName":"Gretzenbach"},"district":{"key":"1108","name":"Bezirk Olten"},"canton":{"key":"11","code":"SO","name":"Solothurn"},"status":"Real"},{"key":"10090038","name":"Schwendiweg","postalCode":"5014","locality":"Gretzenbach","commune":{"key":"2576","name":"Gretzenbach","shortName":"Gretzenbach"},"district":{"key":"1108","name":"Bezirk Olten"},"canton":{"key":"11","code":"SO","name":"Solothurn"},"status":"Real"},{"key":"10111386","name":"Staldenacker","postalCode":"5014","locality":"Gretzenbach","commune":{"key":"2576","name":"Gretzenbach","shortName":"Gretzenbach"},"district":{"key":"1108","name":"Bezirk Olten"},"canton":{"key":"11","code":"SO","name":"Solothurn"},"status":"Real"},{"key":"10066148","name":"Steinlen","postalCode":"5014","locality":"Gretzenbach","commune":{"key":"2576","name":"Gretzenbach","shortName":"Gretzenbach"},"district":{"key":"1108","name":"Bezirk Olten"},"canton":{"key":"11","code":"SO","name":"Solothurn"},"status":"Real"},{"key":"10027306","name":"Täliweg","postalCode":"5014","locality":"Gretzenbach","commune":{"key":"2576","name":"Gretzenbach","shortName":"Gretzenbach"},"district":{"key":"1108","name":"Bezirk Olten"},"canton":{"key":"11","code":"SO","name":"Solothurn"},"status":"Real"},{"key":"10027305","name":"Teufenthal","postalCode":"5014","locality":"Gretzenbach","commune":{"key":"2576","name":"Gretzenbach","shortName":"Gretzenbach"},"district":{"key":"1108","name":"Bezirk Olten"},"canton":{"key":"11","code":"SO","name":"Solothurn"},"status":"Real"},{"key":"10066149","name":"Thalmatt","postalCode":"5014","locality":"Gretzenbach","commune":{"key":"2576","name":"Gretzenbach","shortName":"Gretzenbach"},"district":{"key":"1108","name":"Bezirk Olten"},"canton":{"key":"11","code":"SO","name":"Solothurn"},"status":"Real"},{"key":"10115337","name":"Uelihof","postalCode":"5014","locality":"Gretzenbach","commune":{"key":"2576","name":"Gretzenbach","shortName":"Gretzenbach"},"district":{"key":"1108","name":"Bezirk Olten"},"canton":{"key":"11","code":"SO","name":"Solothurn"},"status":"Real"},{"key":"10103771","name":"Unterdorf","postalCode":"5014","locality":"Gretzenbach","commune":{"key":"2576","name":"Gretzenbach","shortName":"Gretzenbach"},"district":{"key":"1108","name":"Bezirk Olten"},"canton":{"key":"11","code":"SO","name":"Solothurn"},"status":"Real"},{"key":"10025863","name":"Unterer Schachen","postalCode":"5014","locality":"Gretzenbach","commune":{"key":"2576","name":"Gretzenbach","shortName":"Gretzenbach"},"district":{"key":"1108","name":"Bezirk Olten"},"canton":{"key":"11","code":"SO","name":"Solothurn"},"status":"Real"},{"key":"10090040","name":"Ursiacker","postalCode":"5014","locality":"Gretzenbach","commune":{"key":"2576","name":"Gretzenbach","shortName":"Gretzenbach"},"district":{"key":"1108","name":"Bezirk Olten"},"canton":{"key":"11","code":"SO","name":"Solothurn"},"status":"Real"},{"key":"10211098","name":"Weidweg","postalCode":"5014","locality":"Gretzenbach","commune":{"key":"2576","name":"Gretzenbach","shortName":"Gretzenbach"},"district":{"key":"1108","name":"Bezirk Olten"},"canton":{"key":"11","code":"SO","name":"Solothurn"},"status":"Real"},{"key":"10214271","name":"Zingg","postalCode":"5014","locality":"Gretzenbach","commune":{"key":"2576","name":"Gretzenbach","shortName":"Gretzenbach"},"district":{"key":"1108","name":"Bezirk Olten"},"canton":{"key":"11","code":"SO","name":"Solothurn"},"status":"Real"},{"key":"10066150","name":"Zirzelweg","postalCode":"5014","locality":"Gretzenbach","commune":{"key":"2576","name":"Gretzenbach","shortName":"Gretzenbach"},"district":{"key":"1108","name":"Bezirk Olten"},"canton":{"key":"11","code":"SO","name":"Solothurn"},"status":"Real"},]