[{"name":"Am Dorfweiher","postalCode":"94350","locality":"Falkenfels","municipality":{"key":"09278120","name":"Falkenfels","type":"Kreisangehörige_Gemeinde"},"district":{"key":"09278","name":"Straubing-Bogen","type":"Landkreis"},"federalState":{"key":"09","name":"Bayern"}},{"name":"Am Kienbach","postalCode":"94350","locality":"Falkenfels","municipality":{"key":"09278120","name":"Falkenfels","type":"Kreisangehörige_Gemeinde"},"district":{"key":"09278","name":"Straubing-Bogen","type":"Landkreis"},"federalState":{"key":"09","name":"Bayern"}},{"name":"Am Kühberg","postalCode":"94350","locality":"Falkenfels","municipality":{"key":"09278120","name":"Falkenfels","type":"Kreisangehörige_Gemeinde"},"district":{"key":"09278","name":"Straubing-Bogen","type":"Landkreis"},"federalState":{"key":"09","name":"Bayern"}},{"name":"Bayerwaldstr.","postalCode":"94350","locality":"Falkenfels","municipality":{"key":"09278120","name":"Falkenfels","type":"Kreisangehörige_Gemeinde"},"district":{"key":"09278","name":"Straubing-Bogen","type":"Landkreis"},"federalState":{"key":"09","name":"Bayern"}},{"name":"Bergstr.","postalCode":"94350","locality":"Falkenfels","municipality":{"key":"09278120","name":"Falkenfels","type":"Kreisangehörige_Gemeinde"},"district":{"key":"09278","name":"Straubing-Bogen","type":"Landkreis"},"federalState":{"key":"09","name":"Bayern"}},{"name":"Birkenweg","postalCode":"94350","locality":"Falkenfels","municipality":{"key":"09278120","name":"Falkenfels","type":"Kreisangehörige_Gemeinde"},"district":{"key":"09278","name":"Straubing-Bogen","type":"Landkreis"},"federalState":{"key":"09","name":"Bayern"}},{"name":"Burgstr.","postalCode":"94350","locality":"Falkenfels","municipality":{"key":"09278120","name":"Falkenfels","type":"Kreisangehörige_Gemeinde"},"district":{"key":"09278","name":"Straubing-Bogen","type":"Landkreis"},"federalState":{"key":"09","name":"Bayern"}},{"name":"Dorfstr.","postalCode":"94350","locality":"Falkenfels","municipality":{"key":"09278120","name":"Falkenfels","type":"Kreisangehörige_Gemeinde"},"district":{"key":"09278","name":"Straubing-Bogen","type":"Landkreis"},"federalState":{"key":"09","name":"Bayern"}},{"name":"Fliederweg","postalCode":"94350","locality":"Falkenfels","municipality":{"key":"09278120","name":"Falkenfels","type":"Kreisangehörige_Gemeinde"},"district":{"key":"09278","name":"Straubing-Bogen","type":"Landkreis"},"federalState":{"key":"09","name":"Bayern"}},{"name":"Forststr.","postalCode":"94350","locality":"Falkenfels","municipality":{"key":"09278120","name":"Falkenfels","type":"Kreisangehörige_Gemeinde"},"district":{"key":"09278","name":"Straubing-Bogen","type":"Landkreis"},"federalState":{"key":"09","name":"Bayern"}},{"name":"Hagenzeller Weg","postalCode":"94350","locality":"Falkenfels","municipality":{"key":"09278120","name":"Falkenfels","type":"Kreisangehörige_Gemeinde"},"district":{"key":"09278","name":"Straubing-Bogen","type":"Landkreis"},"federalState":{"key":"09","name":"Bayern"}},{"name":"Heberszeller Leiten","postalCode":"94350","locality":"Falkenfels","municipality":{"key":"09278120","name":"Falkenfels","type":"Kreisangehörige_Gemeinde"},"district":{"key":"09278","name":"Straubing-Bogen","type":"Landkreis"},"federalState":{"key":"09","name":"Bayern"}},{"name":"Hirschberg","postalCode":"94350","locality":"Falkenfels","municipality":{"key":"09278120","name":"Falkenfels","type":"Kreisangehörige_Gemeinde"},"district":{"key":"09278","name":"Straubing-Bogen","type":"Landkreis"},"federalState":{"key":"09","name":"Bayern"}},{"name":"Hochleiten","postalCode":"94350","locality":"Falkenfels","municipality":{"key":"09278120","name":"Falkenfels","type":"Kreisangehörige_Gemeinde"},"district":{"key":"09278","name":"Straubing-Bogen","type":"Landkreis"},"federalState":{"key":"09","name":"Bayern"}},{"name":"Hochstr.","postalCode":"94350","locality":"Falkenfels","municipality":{"key":"09278120","name":"Falkenfels","type":"Kreisangehörige_Gemeinde"},"district":{"key":"09278","name":"Straubing-Bogen","type":"Landkreis"},"federalState":{"key":"09","name":"Bayern"}},{"name":"ins Buchet","postalCode":"94350","locality":"Falkenfels","municipality":{"key":"09278120","name":"Falkenfels","type":"Kreisangehörige_Gemeinde"},"district":{"key":"09278","name":"Straubing-Bogen","type":"Landkreis"},"federalState":{"key":"09","name":"Bayern"}},{"name":"Kienbachring","postalCode":"94350","locality":"Falkenfels","municipality":{"key":"09278120","name":"Falkenfels","type":"Kreisangehörige_Gemeinde"},"district":{"key":"09278","name":"Straubing-Bogen","type":"Landkreis"},"federalState":{"key":"09","name":"Bayern"}},{"name":"Lärchenweg","postalCode":"94350","locality":"Falkenfels","municipality":{"key":"09278120","name":"Falkenfels","type":"Kreisangehörige_Gemeinde"},"district":{"key":"09278","name":"Straubing-Bogen","type":"Landkreis"},"federalState":{"key":"09","name":"Bayern"}},{"name":"Oberhofer Str.","postalCode":"94350","locality":"Falkenfels","municipality":{"key":"09278120","name":"Falkenfels","type":"Kreisangehörige_Gemeinde"},"district":{"key":"09278","name":"Straubing-Bogen","type":"Landkreis"},"federalState":{"key":"09","name":"Bayern"}},{"name":"Riederszell","postalCode":"94350","locality":"Falkenfels","municipality":{"key":"09278120","name":"Falkenfels","type":"Kreisangehörige_Gemeinde"},"district":{"key":"09278","name":"Straubing-Bogen","type":"Landkreis"},"federalState":{"key":"09","name":"Bayern"}},{"name":"Roth","postalCode":"94350","locality":"Falkenfels","municipality":{"key":"09278120","name":"Falkenfels","type":"Kreisangehörige_Gemeinde"},"district":{"key":"09278","name":"Straubing-Bogen","type":"Landkreis"},"federalState":{"key":"09","name":"Bayern"}},{"name":"Ruckfeldweg","postalCode":"94350","locality":"Falkenfels","municipality":{"key":"09278120","name":"Falkenfels","type":"Kreisangehörige_Gemeinde"},"district":{"key":"09278","name":"Straubing-Bogen","type":"Landkreis"},"federalState":{"key":"09","name":"Bayern"}},{"name":"Sac. Baumgärtl Str.","postalCode":"94350","locality":"Falkenfels","municipality":{"key":"09278120","name":"Falkenfels","type":"Kreisangehörige_Gemeinde"},"district":{"key":"09278","name":"Straubing-Bogen","type":"Landkreis"},"federalState":{"key":"09","name":"Bayern"}},{"name":"Siglbrunn","postalCode":"94350","locality":"Falkenfels","municipality":{"key":"09278120","name":"Falkenfels","type":"Kreisangehörige_Gemeinde"},"district":{"key":"09278","name":"Straubing-Bogen","type":"Landkreis"},"federalState":{"key":"09","name":"Bayern"}},{"name":"Stegmühl","postalCode":"94350","locality":"Falkenfels","municipality":{"key":"09278120","name":"Falkenfels","type":"Kreisangehörige_Gemeinde"},"district":{"key":"09278","name":"Straubing-Bogen","type":"Landkreis"},"federalState":{"key":"09","name":"Bayern"}},{"name":"Stegmühler Weg","postalCode":"94350","locality":"Falkenfels","municipality":{"key":"09278120","name":"Falkenfels","type":"Kreisangehörige_Gemeinde"},"district":{"key":"09278","name":"Straubing-Bogen","type":"Landkreis"},"federalState":{"key":"09","name":"Bayern"}},{"name":"Steinberg","postalCode":"94350","locality":"Falkenfels","municipality":{"key":"09278120","name":"Falkenfels","type":"Kreisangehörige_Gemeinde"},"district":{"key":"09278","name":"Straubing-Bogen","type":"Landkreis"},"federalState":{"key":"09","name":"Bayern"}},{"name":"Steinbergstr.","postalCode":"94350","locality":"Falkenfels","municipality":{"key":"09278120","name":"Falkenfels","type":"Kreisangehörige_Gemeinde"},"district":{"key":"09278","name":"Straubing-Bogen","type":"Landkreis"},"federalState":{"key":"09","name":"Bayern"}},{"name":"St.-Nikola-Str.","postalCode":"94350","locality":"Falkenfels","municipality":{"key":"09278120","name":"Falkenfels","type":"Kreisangehörige_Gemeinde"},"district":{"key":"09278","name":"Straubing-Bogen","type":"Landkreis"},"federalState":{"key":"09","name":"Bayern"}},{"name":"Waldweg","postalCode":"94350","locality":"Falkenfels","municipality":{"key":"09278120","name":"Falkenfels","type":"Kreisangehörige_Gemeinde"},"district":{"key":"09278","name":"Straubing-Bogen","type":"Landkreis"},"federalState":{"key":"09","name":"Bayern"}},{"name":"Weiherfeldstr.","postalCode":"94350","locality":"Falkenfels","municipality":{"key":"09278120","name":"Falkenfels","type":"Kreisangehörige_Gemeinde"},"district":{"key":"09278","name":"Straubing-Bogen","type":"Landkreis"},"federalState":{"key":"09","name":"Bayern"}},{"name":"Weinfurth","postalCode":"94350","locality":"Falkenfels","municipality":{"key":"09278120","name":"Falkenfels","type":"Kreisangehörige_Gemeinde"},"district":{"key":"09278","name":"Straubing-Bogen","type":"Landkreis"},"federalState":{"key":"09","name":"Bayern"}},{"name":"Wiesenfeldener Str.","postalCode":"94350","locality":"Falkenfels","municipality":{"key":"09278120","name":"Falkenfels","type":"Kreisangehörige_Gemeinde"},"district":{"key":"09278","name":"Straubing-Bogen","type":"Landkreis"},"federalState":{"key":"09","name":"Bayern"}},]