[{"key":"10020980","name":"Amselweg","postalCode":"4565","locality":"Recherswil","commune":{"key":"2530","name":"Recherswil","shortName":"Recherswil"},"district":{"key":"1106","name":"Bezirk Wasseramt"},"canton":{"key":"11","code":"SO","name":"Solothurn"},"status":"Real"},{"key":"10242665","name":"Autobahn A1","postalCode":"4565","locality":"Recherswil","commune":{"key":"2530","name":"Recherswil","shortName":"Recherswil"},"district":{"key":"1106","name":"Bezirk Wasseramt"},"canton":{"key":"11","code":"SO","name":"Solothurn"},"status":"Real"},{"key":"10111346","name":"Bachweg","postalCode":"4565","locality":"Recherswil","commune":{"key":"2530","name":"Recherswil","shortName":"Recherswil"},"district":{"key":"1106","name":"Bezirk Wasseramt"},"canton":{"key":"11","code":"SO","name":"Solothurn"},"status":"Real"},{"key":"10020981","name":"Birkenweg","postalCode":"4565","locality":"Recherswil","commune":{"key":"2530","name":"Recherswil","shortName":"Recherswil"},"district":{"key":"1106","name":"Bezirk Wasseramt"},"canton":{"key":"11","code":"SO","name":"Solothurn"},"status":"Real"},{"key":"10066127","name":"Blumenweg","postalCode":"4565","locality":"Recherswil","commune":{"key":"2530","name":"Recherswil","shortName":"Recherswil"},"district":{"key":"1106","name":"Bezirk Wasseramt"},"canton":{"key":"11","code":"SO","name":"Solothurn"},"status":"Real"},{"key":"10156386","name":"Buechackerstrasse","postalCode":"4565","locality":"Recherswil","commune":{"key":"2530","name":"Recherswil","shortName":"Recherswil"},"district":{"key":"1106","name":"Bezirk Wasseramt"},"canton":{"key":"11","code":"SO","name":"Solothurn"},"status":"Real"},{"key":"10146717","name":"Dorfacker","postalCode":"4565","locality":"Recherswil","commune":{"key":"2530","name":"Recherswil","shortName":"Recherswil"},"district":{"key":"1106","name":"Bezirk Wasseramt"},"canton":{"key":"11","code":"SO","name":"Solothurn"},"status":"Real"},{"key":"10200882","name":"Eichenweg","postalCode":"4565","locality":"Recherswil","commune":{"key":"2530","name":"Recherswil","shortName":"Recherswil"},"district":{"key":"1106","name":"Bezirk Wasseramt"},"canton":{"key":"11","code":"SO","name":"Solothurn"},"status":"Real"},{"key":"10213678","name":"Erlenmoos","postalCode":"4565","locality":"Recherswil","commune":{"key":"2530","name":"Recherswil","shortName":"Recherswil"},"district":{"key":"1106","name":"Bezirk Wasseramt"},"canton":{"key":"11","code":"SO","name":"Solothurn"},"status":"Real"},{"key":"10090910","name":"Erlenstrasse","postalCode":"4565","locality":"Recherswil","commune":{"key":"2530","name":"Recherswil","shortName":"Recherswil"},"district":{"key":"1106","name":"Bezirk Wasseramt"},"canton":{"key":"11","code":"SO","name":"Solothurn"},"status":"Real"},{"key":"10020982","name":"Florastrasse","postalCode":"4565","locality":"Recherswil","commune":{"key":"2530","name":"Recherswil","shortName":"Recherswil"},"district":{"key":"1106","name":"Bezirk Wasseramt"},"canton":{"key":"11","code":"SO","name":"Solothurn"},"status":"Real"},{"key":"10020983","name":"Gerlafingenstrasse","postalCode":"4565","locality":"Recherswil","commune":{"key":"2530","name":"Recherswil","shortName":"Recherswil"},"district":{"key":"1106","name":"Bezirk Wasseramt"},"canton":{"key":"11","code":"SO","name":"Solothurn"},"status":"Real"},{"key":"10090911","name":"Grossfeldstrasse","postalCode":"4565","locality":"Recherswil","commune":{"key":"2530","name":"Recherswil","shortName":"Recherswil"},"district":{"key":"1106","name":"Bezirk Wasseramt"},"canton":{"key":"11","code":"SO","name":"Solothurn"},"status":"Real"},{"key":"10182861","name":"Grundmattstrasse","postalCode":"4565","locality":"Recherswil","commune":{"key":"2530","name":"Recherswil","shortName":"Recherswil"},"district":{"key":"1106","name":"Bezirk Wasseramt"},"canton":{"key":"11","code":"SO","name":"Solothurn"},"status":"Real"},{"key":"10020984","name":"Hagmannstrasse","postalCode":"4565","locality":"Recherswil","commune":{"key":"2530","name":"Recherswil","shortName":"Recherswil"},"district":{"key":"1106","name":"Bezirk Wasseramt"},"canton":{"key":"11","code":"SO","name":"Solothurn"},"status":"Real"},{"key":"10184044","name":"Hauptstrasse","postalCode":"4565","locality":"Recherswil","commune":{"key":"2530","name":"Recherswil","shortName":"Recherswil"},"district":{"key":"1106","name":"Bezirk Wasseramt"},"canton":{"key":"11","code":"SO","name":"Solothurn"},"status":"Real"},{"key":"10181575","name":"Hofstattstrasse","postalCode":"4565","locality":"Recherswil","commune":{"key":"2530","name":"Recherswil","shortName":"Recherswil"},"district":{"key":"1106","name":"Bezirk Wasseramt"},"canton":{"key":"11","code":"SO","name":"Solothurn"},"status":"Real"},{"key":"10128612","name":"Hofweg","postalCode":"4565","locality":"Recherswil","commune":{"key":"2530","name":"Recherswil","shortName":"Recherswil"},"district":{"key":"1106","name":"Bezirk Wasseramt"},"canton":{"key":"11","code":"SO","name":"Solothurn"},"status":"Real"},{"key":"10188261","name":"Hölzliweg","postalCode":"4565","locality":"Recherswil","commune":{"key":"2530","name":"Recherswil","shortName":"Recherswil"},"district":{"key":"1106","name":"Bezirk Wasseramt"},"canton":{"key":"11","code":"SO","name":"Solothurn"},"status":"Real"},{"key":"10020985","name":"Hubelmattweg","postalCode":"4565","locality":"Recherswil","commune":{"key":"2530","name":"Recherswil","shortName":"Recherswil"},"district":{"key":"1106","name":"Bezirk Wasseramt"},"canton":{"key":"11","code":"SO","name":"Solothurn"},"status":"Real"},{"key":"10020986","name":"Hüseliring","postalCode":"4565","locality":"Recherswil","commune":{"key":"2530","name":"Recherswil","shortName":"Recherswil"},"district":{"key":"1106","name":"Bezirk Wasseramt"},"canton":{"key":"11","code":"SO","name":"Solothurn"},"status":"Real"},{"key":"10090912","name":"Im Feld","postalCode":"4565","locality":"Recherswil","commune":{"key":"2530","name":"Recherswil","shortName":"Recherswil"},"district":{"key":"1106","name":"Bezirk Wasseramt"},"canton":{"key":"11","code":"SO","name":"Solothurn"},"status":"Real"},{"key":"10020987","name":"Im Winkel","postalCode":"4565","locality":"Recherswil","commune":{"key":"2530","name":"Recherswil","shortName":"Recherswil"},"district":{"key":"1106","name":"Bezirk Wasseramt"},"canton":{"key":"11","code":"SO","name":"Solothurn"},"status":"Real"},{"key":"10162728","name":"Junkholzring","postalCode":"4565","locality":"Recherswil","commune":{"key":"2530","name":"Recherswil","shortName":"Recherswil"},"district":{"key":"1106","name":"Bezirk Wasseramt"},"canton":{"key":"11","code":"SO","name":"Solothurn"},"status":"Real"},{"key":"10066128","name":"Juraweg","postalCode":"4565","locality":"Recherswil","commune":{"key":"2530","name":"Recherswil","shortName":"Recherswil"},"district":{"key":"1106","name":"Bezirk Wasseramt"},"canton":{"key":"11","code":"SO","name":"Solothurn"},"status":"Real"},{"key":"10020988","name":"Kapellenstrasse","postalCode":"4565","locality":"Recherswil","commune":{"key":"2530","name":"Recherswil","shortName":"Recherswil"},"district":{"key":"1106","name":"Bezirk Wasseramt"},"canton":{"key":"11","code":"SO","name":"Solothurn"},"status":"Real"},{"key":"10116664","name":"Käsereistrasse","postalCode":"4565","locality":"Recherswil","commune":{"key":"2530","name":"Recherswil","shortName":"Recherswil"},"district":{"key":"1106","name":"Bezirk Wasseramt"},"canton":{"key":"11","code":"SO","name":"Solothurn"},"status":"Real"},{"key":"10090913","name":"Kleinfeldstrasse","postalCode":"4565","locality":"Recherswil","commune":{"key":"2530","name":"Recherswil","shortName":"Recherswil"},"district":{"key":"1106","name":"Bezirk Wasseramt"},"canton":{"key":"11","code":"SO","name":"Solothurn"},"status":"Real"},{"key":"10020989","name":"Kornfeldstrasse","postalCode":"4565","locality":"Recherswil","commune":{"key":"2530","name":"Recherswil","shortName":"Recherswil"},"district":{"key":"1106","name":"Bezirk Wasseramt"},"canton":{"key":"11","code":"SO","name":"Solothurn"},"status":"Real"},{"key":"10111347","name":"Lerchenweg","postalCode":"4565","locality":"Recherswil","commune":{"key":"2530","name":"Recherswil","shortName":"Recherswil"},"district":{"key":"1106","name":"Bezirk Wasseramt"},"canton":{"key":"11","code":"SO","name":"Solothurn"},"status":"Real"},{"key":"10020990","name":"Lindenweg","postalCode":"4565","locality":"Recherswil","commune":{"key":"2530","name":"Recherswil","shortName":"Recherswil"},"district":{"key":"1106","name":"Bezirk Wasseramt"},"canton":{"key":"11","code":"SO","name":"Solothurn"},"status":"Real"},{"key":"10090914","name":"Madackerweg","postalCode":"4565","locality":"Recherswil","commune":{"key":"2530","name":"Recherswil","shortName":"Recherswil"},"district":{"key":"1106","name":"Bezirk Wasseramt"},"canton":{"key":"11","code":"SO","name":"Solothurn"},"status":"Real"},{"key":"10115306","name":"Mattenweg","postalCode":"4565","locality":"Recherswil","commune":{"key":"2530","name":"Recherswil","shortName":"Recherswil"},"district":{"key":"1106","name":"Bezirk Wasseramt"},"canton":{"key":"11","code":"SO","name":"Solothurn"},"status":"Real"},{"key":"10021274","name":"Moosackerweg","postalCode":"4565","locality":"Recherswil","commune":{"key":"2530","name":"Recherswil","shortName":"Recherswil"},"district":{"key":"1106","name":"Bezirk Wasseramt"},"canton":{"key":"11","code":"SO","name":"Solothurn"},"status":"Real"},{"key":"10066129","name":"Nelkenweg","postalCode":"4565","locality":"Recherswil","commune":{"key":"2530","name":"Recherswil","shortName":"Recherswil"},"district":{"key":"1106","name":"Bezirk Wasseramt"},"canton":{"key":"11","code":"SO","name":"Solothurn"},"status":"Real"},{"key":"10090915","name":"Nordringstrasse","postalCode":"4565","locality":"Recherswil","commune":{"key":"2530","name":"Recherswil","shortName":"Recherswil"},"district":{"key":"1106","name":"Bezirk Wasseramt"},"canton":{"key":"11","code":"SO","name":"Solothurn"},"status":"Real"},{"key":"10021275","name":"Oeschweg","postalCode":"4565","locality":"Recherswil","commune":{"key":"2530","name":"Recherswil","shortName":"Recherswil"},"district":{"key":"1106","name":"Bezirk Wasseramt"},"canton":{"key":"11","code":"SO","name":"Solothurn"},"status":"Real"},{"key":"10021276","name":"Privatweg","postalCode":"4565","locality":"Recherswil","commune":{"key":"2530","name":"Recherswil","shortName":"Recherswil"},"district":{"key":"1106","name":"Bezirk Wasseramt"},"canton":{"key":"11","code":"SO","name":"Solothurn"},"status":"Real"},{"key":"10184045","name":"Ribibachstrasse","postalCode":"4565","locality":"Recherswil","commune":{"key":"2530","name":"Recherswil","shortName":"Recherswil"},"district":{"key":"1106","name":"Bezirk Wasseramt"},"canton":{"key":"11","code":"SO","name":"Solothurn"},"status":"Real"},{"key":"10066130","name":"Rosenweg","postalCode":"4565","locality":"Recherswil","commune":{"key":"2530","name":"Recherswil","shortName":"Recherswil"},"district":{"key":"1106","name":"Bezirk Wasseramt"},"canton":{"key":"11","code":"SO","name":"Solothurn"},"status":"Real"},{"key":"10181576","name":"Ruchackerweg","postalCode":"4565","locality":"Recherswil","commune":{"key":"2530","name":"Recherswil","shortName":"Recherswil"},"district":{"key":"1106","name":"Bezirk Wasseramt"},"canton":{"key":"11","code":"SO","name":"Solothurn"},"status":"Real"},{"key":"10090916","name":"Schmiedeweg","postalCode":"4565","locality":"Recherswil","commune":{"key":"2530","name":"Recherswil","shortName":"Recherswil"},"district":{"key":"1106","name":"Bezirk Wasseramt"},"canton":{"key":"11","code":"SO","name":"Solothurn"},"status":"Real"},{"key":"10021277","name":"Steinacker","postalCode":"4565","locality":"Recherswil","commune":{"key":"2530","name":"Recherswil","shortName":"Recherswil"},"district":{"key":"1106","name":"Bezirk Wasseramt"},"canton":{"key":"11","code":"SO","name":"Solothurn"},"status":"Real"},{"key":"10103747","name":"Stöckletenstrasse","postalCode":"4565","locality":"Recherswil","commune":{"key":"2530","name":"Recherswil","shortName":"Recherswil"},"district":{"key":"1106","name":"Bezirk Wasseramt"},"canton":{"key":"11","code":"SO","name":"Solothurn"},"status":"Real"},{"key":"10021278","name":"Südringstrasse","postalCode":"4565","locality":"Recherswil","commune":{"key":"2530","name":"Recherswil","shortName":"Recherswil"},"district":{"key":"1106","name":"Bezirk Wasseramt"},"canton":{"key":"11","code":"SO","name":"Solothurn"},"status":"Real"},{"key":"10021279","name":"Tannenweg","postalCode":"4565","locality":"Recherswil","commune":{"key":"2530","name":"Recherswil","shortName":"Recherswil"},"district":{"key":"1106","name":"Bezirk Wasseramt"},"canton":{"key":"11","code":"SO","name":"Solothurn"},"status":"Real"},{"key":"10090917","name":"Tulpenweg","postalCode":"4565","locality":"Recherswil","commune":{"key":"2530","name":"Recherswil","shortName":"Recherswil"},"district":{"key":"1106","name":"Bezirk Wasseramt"},"canton":{"key":"11","code":"SO","name":"Solothurn"},"status":"Real"},{"key":"10021280","name":"Unterführungsstrasse","postalCode":"4565","locality":"Recherswil","commune":{"key":"2530","name":"Recherswil","shortName":"Recherswil"},"district":{"key":"1106","name":"Bezirk Wasseramt"},"canton":{"key":"11","code":"SO","name":"Solothurn"},"status":"Real"},{"key":"10191253","name":"Waldstrasse","postalCode":"4565","locality":"Recherswil","commune":{"key":"2530","name":"Recherswil","shortName":"Recherswil"},"district":{"key":"1106","name":"Bezirk Wasseramt"},"canton":{"key":"11","code":"SO","name":"Solothurn"},"status":"Real"},{"key":"10066131","name":"Westringstrasse","postalCode":"4565","locality":"Recherswil","commune":{"key":"2530","name":"Recherswil","shortName":"Recherswil"},"district":{"key":"1106","name":"Bezirk Wasseramt"},"canton":{"key":"11","code":"SO","name":"Solothurn"},"status":"Real"},{"key":"10021281","name":"Widackerweg","postalCode":"4565","locality":"Recherswil","commune":{"key":"2530","name":"Recherswil","shortName":"Recherswil"},"district":{"key":"1106","name":"Bezirk Wasseramt"},"canton":{"key":"11","code":"SO","name":"Solothurn"},"status":"Real"},{"key":"10021282","name":"Widlibachstrasse","postalCode":"4565","locality":"Recherswil","commune":{"key":"2530","name":"Recherswil","shortName":"Recherswil"},"district":{"key":"1106","name":"Bezirk Wasseramt"},"canton":{"key":"11","code":"SO","name":"Solothurn"},"status":"Real"},{"key":"10090918","name":"Willadingenstrasse","postalCode":"4565","locality":"Recherswil","commune":{"key":"2530","name":"Recherswil","shortName":"Recherswil"},"district":{"key":"1106","name":"Bezirk Wasseramt"},"canton":{"key":"11","code":"SO","name":"Solothurn"},"status":"Real"},{"key":"10055947","name":"Zelgliweg","postalCode":"4565","locality":"Recherswil","commune":{"key":"2530","name":"Recherswil","shortName":"Recherswil"},"district":{"key":"1106","name":"Bezirk Wasseramt"},"canton":{"key":"11","code":"SO","name":"Solothurn"},"status":"Real"},{"key":"10111348","name":"Überführungsstrasse","postalCode":"4565","locality":"Recherswil","commune":{"key":"2530","name":"Recherswil","shortName":"Recherswil"},"district":{"key":"1106","name":"Bezirk Wasseramt"},"canton":{"key":"11","code":"SO","name":"Solothurn"},"status":"Real"},]