[{"name":"1. Dwarsweg","postalCode":"26607","locality":"Aurich","municipality":{"key":"03452001","name":"Aurich, Stadt","type":"Stadt"},"district":{"key":"03452","name":"Aurich","type":"Landkreis"},"federalState":{"key":"03","name":"Niedersachsen"}},{"name":"1. Feldstückenweg","postalCode":"26605","locality":"Aurich","municipality":{"key":"03452001","name":"Aurich, Stadt","type":"Stadt"},"district":{"key":"03452","name":"Aurich","type":"Landkreis"},"federalState":{"key":"03","name":"Niedersachsen"}},{"name":"1. Hammweg","postalCode":"26607","locality":"Aurich","municipality":{"key":"03452001","name":"Aurich, Stadt","type":"Stadt"},"district":{"key":"03452","name":"Aurich","type":"Landkreis"},"federalState":{"key":"03","name":"Niedersachsen"}},{"name":"1. Leegmoorweg","postalCode":"26607","locality":"Aurich","municipality":{"key":"03452001","name":"Aurich, Stadt","type":"Stadt"},"district":{"key":"03452","name":"Aurich","type":"Landkreis"},"federalState":{"key":"03","name":"Niedersachsen"}},{"name":"2. Dwarsweg","postalCode":"26607","locality":"Aurich","municipality":{"key":"03452001","name":"Aurich, Stadt","type":"Stadt"},"district":{"key":"03452","name":"Aurich","type":"Landkreis"},"federalState":{"key":"03","name":"Niedersachsen"}},{"name":"2. Leegmoorweg","postalCode":"26607","locality":"Aurich","municipality":{"key":"03452001","name":"Aurich, Stadt","type":"Stadt"},"district":{"key":"03452","name":"Aurich","type":"Landkreis"},"federalState":{"key":"03","name":"Niedersachsen"}},{"name":"3. Dwarsweg","postalCode":"26607","locality":"Aurich","municipality":{"key":"03452001","name":"Aurich, Stadt","type":"Stadt"},"district":{"key":"03452","name":"Aurich","type":"Landkreis"},"federalState":{"key":"03","name":"Niedersachsen"}},{"name":"3. Leegmoorweg","postalCode":"26607","locality":"Aurich","municipality":{"key":"03452001","name":"Aurich, Stadt","type":"Stadt"},"district":{"key":"03452","name":"Aurich","type":"Landkreis"},"federalState":{"key":"03","name":"Niedersachsen"}},{"name":"Alter Postweg","postalCode":"26524","locality":"Hagermarsch","municipality":{"key":"03452009","name":"Hagermarsch","type":"Kreisangehörige_Gemeinde"},"district":{"key":"03452","name":"Aurich","type":"Landkreis"},"federalState":{"key":"03","name":"Niedersachsen"}},{"name":"Am Feuerwehrheim","postalCode":"26524","locality":"Hagermarsch","municipality":{"key":"03452009","name":"Hagermarsch","type":"Kreisangehörige_Gemeinde"},"district":{"key":"03452","name":"Aurich","type":"Landkreis"},"federalState":{"key":"03","name":"Niedersachsen"}},{"name":"Beim Alten Kloster","postalCode":"26524","locality":"Hagermarsch","municipality":{"key":"03452009","name":"Hagermarsch","type":"Kreisangehörige_Gemeinde"},"district":{"key":"03452","name":"Aurich","type":"Landkreis"},"federalState":{"key":"03","name":"Niedersachsen"}},{"name":"Bolzplatz","postalCode":"26524","locality":"Hagermarsch","municipality":{"key":"03452009","name":"Hagermarsch","type":"Kreisangehörige_Gemeinde"},"district":{"key":"03452","name":"Aurich","type":"Landkreis"},"federalState":{"key":"03","name":"Niedersachsen"}},{"name":"Breiter Weg","postalCode":"26524","locality":"Hagermarsch","municipality":{"key":"03452009","name":"Hagermarsch","type":"Kreisangehörige_Gemeinde"},"district":{"key":"03452","name":"Aurich","type":"Landkreis"},"federalState":{"key":"03","name":"Niedersachsen"}},{"name":"Carl-von-Ossietzky-Str.","postalCode":"26603","locality":"Aurich","municipality":{"key":"03452001","name":"Aurich, Stadt","type":"Stadt"},"district":{"key":"03452","name":"Aurich","type":"Landkreis"},"federalState":{"key":"03","name":"Niedersachsen"}},{"name":"Carolinengang","postalCode":"26603","locality":"Aurich","municipality":{"key":"03452001","name":"Aurich, Stadt","type":"Stadt"},"district":{"key":"03452","name":"Aurich","type":"Landkreis"},"federalState":{"key":"03","name":"Niedersachsen"}},{"name":"Cirksenastr.","postalCode":"26603","locality":"Aurich","municipality":{"key":"03452001","name":"Aurich, Stadt","type":"Stadt"},"district":{"key":"03452","name":"Aurich","type":"Landkreis"},"federalState":{"key":"03","name":"Niedersachsen"}},{"name":"Collmannsgang","postalCode":"26603","locality":"Aurich","municipality":{"key":"03452001","name":"Aurich, Stadt","type":"Stadt"},"district":{"key":"03452","name":"Aurich","type":"Landkreis"},"federalState":{"key":"03","name":"Niedersachsen"}},{"name":"Deichstr.","postalCode":"26524","locality":"Hagermarsch","municipality":{"key":"03452009","name":"Hagermarsch","type":"Kreisangehörige_Gemeinde"},"district":{"key":"03452","name":"Aurich","type":"Landkreis"},"federalState":{"key":"03","name":"Niedersachsen"}},{"name":"Dornumer Str.","postalCode":"26524","locality":"Hagermarsch","municipality":{"key":"03452009","name":"Hagermarsch","type":"Kreisangehörige_Gemeinde"},"district":{"key":"03452","name":"Aurich","type":"Landkreis"},"federalState":{"key":"03","name":"Niedersachsen"}},{"name":"Ebereschenweg","postalCode":"26607","locality":"Aurich","municipality":{"key":"03452001","name":"Aurich, Stadt","type":"Stadt"},"district":{"key":"03452","name":"Aurich","type":"Landkreis"},"federalState":{"key":"03","name":"Niedersachsen"}},{"name":"Eckelkamp","postalCode":"26607","locality":"Aurich","municipality":{"key":"03452001","name":"Aurich, Stadt","type":"Stadt"},"district":{"key":"03452","name":"Aurich","type":"Landkreis"},"federalState":{"key":"03","name":"Niedersachsen"}},{"name":"Eckfehler Gaste","postalCode":"26605","locality":"Aurich","municipality":{"key":"03452001","name":"Aurich, Stadt","type":"Stadt"},"district":{"key":"03452","name":"Aurich","type":"Landkreis"},"federalState":{"key":"03","name":"Niedersachsen"}},{"name":"Eckfehler Leegstücken","postalCode":"26605","locality":"Aurich","municipality":{"key":"03452001","name":"Aurich, Stadt","type":"Stadt"},"district":{"key":"03452","name":"Aurich","type":"Landkreis"},"federalState":{"key":"03","name":"Niedersachsen"}},{"name":"Eckfehler Ring","postalCode":"26605","locality":"Aurich","municipality":{"key":"03452001","name":"Aurich, Stadt","type":"Stadt"},"district":{"key":"03452","name":"Aurich","type":"Landkreis"},"federalState":{"key":"03","name":"Niedersachsen"}},{"name":"Eckfehler Weg","postalCode":"26605","locality":"Aurich","municipality":{"key":"03452001","name":"Aurich, Stadt","type":"Stadt"},"district":{"key":"03452","name":"Aurich","type":"Landkreis"},"federalState":{"key":"03","name":"Niedersachsen"}},{"name":"Eckweg","postalCode":"26605","locality":"Aurich","municipality":{"key":"03452001","name":"Aurich, Stadt","type":"Stadt"},"district":{"key":"03452","name":"Aurich","type":"Landkreis"},"federalState":{"key":"03","name":"Niedersachsen"}},{"name":"Edo-Christophers-Pad","postalCode":"26603","locality":"Aurich","municipality":{"key":"03452001","name":"Aurich, Stadt","type":"Stadt"},"district":{"key":"03452","name":"Aurich","type":"Landkreis"},"federalState":{"key":"03","name":"Niedersachsen"}},{"name":"Egelser Gaste","postalCode":"26605","locality":"Aurich","municipality":{"key":"03452001","name":"Aurich, Stadt","type":"Stadt"},"district":{"key":"03452","name":"Aurich","type":"Landkreis"},"federalState":{"key":"03","name":"Niedersachsen"}},{"name":"Egelser Neukamp","postalCode":"26605","locality":"Aurich","municipality":{"key":"03452001","name":"Aurich, Stadt","type":"Stadt"},"district":{"key":"03452","name":"Aurich","type":"Landkreis"},"federalState":{"key":"03","name":"Niedersachsen"}},{"name":"Egelser Str.","postalCode":"26603","locality":"Aurich","municipality":{"key":"03452001","name":"Aurich, Stadt","type":"Stadt"},"district":{"key":"03452","name":"Aurich","type":"Landkreis"},"federalState":{"key":"03","name":"Niedersachsen"}},{"name":"Egelser Str.","postalCode":"26605","locality":"Aurich","municipality":{"key":"03452001","name":"Aurich, Stadt","type":"Stadt"},"district":{"key":"03452","name":"Aurich","type":"Landkreis"},"federalState":{"key":"03","name":"Niedersachsen"}},{"name":"Ehekämpe","postalCode":"26603","locality":"Aurich","municipality":{"key":"03452001","name":"Aurich, Stadt","type":"Stadt"},"district":{"key":"03452","name":"Aurich","type":"Landkreis"},"federalState":{"key":"03","name":"Niedersachsen"}},{"name":"Eheweg","postalCode":"26607","locality":"Aurich","municipality":{"key":"03452001","name":"Aurich, Stadt","type":"Stadt"},"district":{"key":"03452","name":"Aurich","type":"Landkreis"},"federalState":{"key":"03","name":"Niedersachsen"}},{"name":"Eibenweg","postalCode":"26605","locality":"Aurich","municipality":{"key":"03452001","name":"Aurich, Stadt","type":"Stadt"},"district":{"key":"03452","name":"Aurich","type":"Landkreis"},"federalState":{"key":"03","name":"Niedersachsen"}},{"name":"Eichenweg","postalCode":"26603","locality":"Aurich","municipality":{"key":"03452001","name":"Aurich, Stadt","type":"Stadt"},"district":{"key":"03452","name":"Aurich","type":"Landkreis"},"federalState":{"key":"03","name":"Niedersachsen"}},{"name":"Eickebuscher Weg","postalCode":"26603","locality":"Aurich","municipality":{"key":"03452001","name":"Aurich, Stadt","type":"Stadt"},"district":{"key":"03452","name":"Aurich","type":"Landkreis"},"federalState":{"key":"03","name":"Niedersachsen"}},{"name":"Eidechsenweg","postalCode":"26605","locality":"Aurich","municipality":{"key":"03452001","name":"Aurich, Stadt","type":"Stadt"},"district":{"key":"03452","name":"Aurich","type":"Landkreis"},"federalState":{"key":"03","name":"Niedersachsen"}},{"name":"Eilts Pad","postalCode":"26607","locality":"Aurich","municipality":{"key":"03452001","name":"Aurich, Stadt","type":"Stadt"},"district":{"key":"03452","name":"Aurich","type":"Landkreis"},"federalState":{"key":"03","name":"Niedersachsen"}},{"name":"Einsteinstr.","postalCode":"26603","locality":"Aurich","municipality":{"key":"03452001","name":"Aurich, Stadt","type":"Stadt"},"district":{"key":"03452","name":"Aurich","type":"Landkreis"},"federalState":{"key":"03","name":"Niedersachsen"}},{"name":"Eisenacher Str.","postalCode":"26603","locality":"Aurich","municipality":{"key":"03452001","name":"Aurich, Stadt","type":"Stadt"},"district":{"key":"03452","name":"Aurich","type":"Landkreis"},"federalState":{"key":"03","name":"Niedersachsen"}},{"name":"Elbinger Str.","postalCode":"26603","locality":"Aurich","municipality":{"key":"03452001","name":"Aurich, Stadt","type":"Stadt"},"district":{"key":"03452","name":"Aurich","type":"Landkreis"},"federalState":{"key":"03","name":"Niedersachsen"}},{"name":"Elchstr.","postalCode":"26603","locality":"Aurich","municipality":{"key":"03452001","name":"Aurich, Stadt","type":"Stadt"},"district":{"key":"03452","name":"Aurich","type":"Landkreis"},"federalState":{"key":"03","name":"Niedersachsen"}},{"name":"Elisabeth-von-Ungnad-Str.","postalCode":"26605","locality":"Aurich","municipality":{"key":"03452001","name":"Aurich, Stadt","type":"Stadt"},"district":{"key":"03452","name":"Aurich","type":"Landkreis"},"federalState":{"key":"03","name":"Niedersachsen"}},{"name":"Ellerkenstr.","postalCode":"26607","locality":"Aurich","municipality":{"key":"03452001","name":"Aurich, Stadt","type":"Stadt"},"district":{"key":"03452","name":"Aurich","type":"Landkreis"},"federalState":{"key":"03","name":"Niedersachsen"}},{"name":"Elsterweg","postalCode":"26607","locality":"Aurich","municipality":{"key":"03452001","name":"Aurich, Stadt","type":"Stadt"},"district":{"key":"03452","name":"Aurich","type":"Landkreis"},"federalState":{"key":"03","name":"Niedersachsen"}},{"name":"Emder Str.","postalCode":"26603","locality":"Aurich","municipality":{"key":"03452001","name":"Aurich, Stadt","type":"Stadt"},"district":{"key":"03452","name":"Aurich","type":"Landkreis"},"federalState":{"key":"03","name":"Niedersachsen"}},{"name":"Emder Str.","postalCode":"26607","locality":"Aurich","municipality":{"key":"03452001","name":"Aurich, Stadt","type":"Stadt"},"district":{"key":"03452","name":"Aurich","type":"Landkreis"},"federalState":{"key":"03","name":"Niedersachsen"}},{"name":"Enger Weg","postalCode":"26607","locality":"Aurich","municipality":{"key":"03452001","name":"Aurich, Stadt","type":"Stadt"},"district":{"key":"03452","name":"Aurich","type":"Landkreis"},"federalState":{"key":"03","name":"Niedersachsen"}},{"name":"Engeweg","postalCode":"26605","locality":"Aurich","municipality":{"key":"03452001","name":"Aurich, Stadt","type":"Stadt"},"district":{"key":"03452","name":"Aurich","type":"Landkreis"},"federalState":{"key":"03","name":"Niedersachsen"}},{"name":"Enno-Hektor-Str.","postalCode":"26603","locality":"Aurich","municipality":{"key":"03452001","name":"Aurich, Stadt","type":"Stadt"},"district":{"key":"03452","name":"Aurich","type":"Landkreis"},"federalState":{"key":"03","name":"Niedersachsen"}},{"name":"Enzianweg","postalCode":"26605","locality":"Aurich","municipality":{"key":"03452001","name":"Aurich, Stadt","type":"Stadt"},"district":{"key":"03452","name":"Aurich","type":"Landkreis"},"federalState":{"key":"03","name":"Niedersachsen"}},{"name":"Erdbeerweg","postalCode":"26605","locality":"Aurich","municipality":{"key":"03452001","name":"Aurich, Stadt","type":"Stadt"},"district":{"key":"03452","name":"Aurich","type":"Landkreis"},"federalState":{"key":"03","name":"Niedersachsen"}},{"name":"Erfurter Str.","postalCode":"26603","locality":"Aurich","municipality":{"key":"03452001","name":"Aurich, Stadt","type":"Stadt"},"district":{"key":"03452","name":"Aurich","type":"Landkreis"},"federalState":{"key":"03","name":"Niedersachsen"}},{"name":"Erlenweg","postalCode":"26603","locality":"Aurich","municipality":{"key":"03452001","name":"Aurich, Stadt","type":"Stadt"},"district":{"key":"03452","name":"Aurich","type":"Landkreis"},"federalState":{"key":"03","name":"Niedersachsen"}},{"name":"Eschener Allee","postalCode":"26603","locality":"Aurich","municipality":{"key":"03452001","name":"Aurich, Stadt","type":"Stadt"},"district":{"key":"03452","name":"Aurich","type":"Landkreis"},"federalState":{"key":"03","name":"Niedersachsen"}},{"name":"Eschener Gaste","postalCode":"26603","locality":"Aurich","municipality":{"key":"03452001","name":"Aurich, Stadt","type":"Stadt"},"district":{"key":"03452","name":"Aurich","type":"Landkreis"},"federalState":{"key":"03","name":"Niedersachsen"}},{"name":"Eschener Grashausstr.","postalCode":"26607","locality":"Aurich","municipality":{"key":"03452001","name":"Aurich, Stadt","type":"Stadt"},"district":{"key":"03452","name":"Aurich","type":"Landkreis"},"federalState":{"key":"03","name":"Niedersachsen"}},{"name":"Eschenweg","postalCode":"26605","locality":"Aurich","municipality":{"key":"03452001","name":"Aurich, Stadt","type":"Stadt"},"district":{"key":"03452","name":"Aurich","type":"Landkreis"},"federalState":{"key":"03","name":"Niedersachsen"}},{"name":"Esenser Landstr.","postalCode":"26607","locality":"Aurich","municipality":{"key":"03452001","name":"Aurich, Stadt","type":"Stadt"},"district":{"key":"03452","name":"Aurich","type":"Landkreis"},"federalState":{"key":"03","name":"Niedersachsen"}},{"name":"Esenser Postweg","postalCode":"26607","locality":"Aurich","municipality":{"key":"03452001","name":"Aurich, Stadt","type":"Stadt"},"district":{"key":"03452","name":"Aurich","type":"Landkreis"},"federalState":{"key":"03","name":"Niedersachsen"}},{"name":"Esenser Str.","postalCode":"26603","locality":"Aurich","municipality":{"key":"03452001","name":"Aurich, Stadt","type":"Stadt"},"district":{"key":"03452","name":"Aurich","type":"Landkreis"},"federalState":{"key":"03","name":"Niedersachsen"}},{"name":"Esenser Str.","postalCode":"26607","locality":"Aurich","municipality":{"key":"03452001","name":"Aurich, Stadt","type":"Stadt"},"district":{"key":"03452","name":"Aurich","type":"Landkreis"},"federalState":{"key":"03","name":"Niedersachsen"}},{"name":"Exerzierplatzweg","postalCode":"26605","locality":"Aurich","municipality":{"key":"03452001","name":"Aurich, Stadt","type":"Stadt"},"district":{"key":"03452","name":"Aurich","type":"Landkreis"},"federalState":{"key":"03","name":"Niedersachsen"}},{"name":"Extumer Brückenstr.","postalCode":"26605","locality":"Aurich","municipality":{"key":"03452001","name":"Aurich, Stadt","type":"Stadt"},"district":{"key":"03452","name":"Aurich","type":"Landkreis"},"federalState":{"key":"03","name":"Niedersachsen"}},{"name":"Extumer Gaste","postalCode":"26605","locality":"Aurich","municipality":{"key":"03452001","name":"Aurich, Stadt","type":"Stadt"},"district":{"key":"03452","name":"Aurich","type":"Landkreis"},"federalState":{"key":"03","name":"Niedersachsen"}},{"name":"Extumer Kamp","postalCode":"26605","locality":"Aurich","municipality":{"key":"03452001","name":"Aurich, Stadt","type":"Stadt"},"district":{"key":"03452","name":"Aurich","type":"Landkreis"},"federalState":{"key":"03","name":"Niedersachsen"}},{"name":"Extumer Loog","postalCode":"26605","locality":"Aurich","municipality":{"key":"03452001","name":"Aurich, Stadt","type":"Stadt"},"district":{"key":"03452","name":"Aurich","type":"Landkreis"},"federalState":{"key":"03","name":"Niedersachsen"}},{"name":"Extumer Weg","postalCode":"26603","locality":"Aurich","municipality":{"key":"03452001","name":"Aurich, Stadt","type":"Stadt"},"district":{"key":"03452","name":"Aurich","type":"Landkreis"},"federalState":{"key":"03","name":"Niedersachsen"}},{"name":"Extumer Weg","postalCode":"26605","locality":"Aurich","municipality":{"key":"03452001","name":"Aurich, Stadt","type":"Stadt"},"district":{"key":"03452","name":"Aurich","type":"Landkreis"},"federalState":{"key":"03","name":"Niedersachsen"}},{"name":"Falkenstr.","postalCode":"26603","locality":"Aurich","municipality":{"key":"03452001","name":"Aurich, Stadt","type":"Stadt"},"district":{"key":"03452","name":"Aurich","type":"Landkreis"},"federalState":{"key":"03","name":"Niedersachsen"}},{"name":"Fankeweg","postalCode":"26605","locality":"Aurich","municipality":{"key":"03452001","name":"Aurich, Stadt","type":"Stadt"},"district":{"key":"03452","name":"Aurich","type":"Landkreis"},"federalState":{"key":"03","name":"Niedersachsen"}},{"name":"Fasanenweg","postalCode":"26603","locality":"Aurich","municipality":{"key":"03452001","name":"Aurich, Stadt","type":"Stadt"},"district":{"key":"03452","name":"Aurich","type":"Landkreis"},"federalState":{"key":"03","name":"Niedersachsen"}},{"name":"Feldangerweg","postalCode":"26607","locality":"Aurich","municipality":{"key":"03452001","name":"Aurich, Stadt","type":"Stadt"},"district":{"key":"03452","name":"Aurich","type":"Landkreis"},"federalState":{"key":"03","name":"Niedersachsen"}},{"name":"Feldweg","postalCode":"26605","locality":"Aurich","municipality":{"key":"03452001","name":"Aurich, Stadt","type":"Stadt"},"district":{"key":"03452","name":"Aurich","type":"Landkreis"},"federalState":{"key":"03","name":"Niedersachsen"}},{"name":"Fenneweg","postalCode":"26605","locality":"Aurich","municipality":{"key":"03452001","name":"Aurich, Stadt","type":"Stadt"},"district":{"key":"03452","name":"Aurich","type":"Landkreis"},"federalState":{"key":"03","name":"Niedersachsen"}},{"name":"Fichtenweg","postalCode":"26605","locality":"Aurich","municipality":{"key":"03452001","name":"Aurich, Stadt","type":"Stadt"},"district":{"key":"03452","name":"Aurich","type":"Landkreis"},"federalState":{"key":"03","name":"Niedersachsen"}},{"name":"Finkenburgweg","postalCode":"26603","locality":"Aurich","municipality":{"key":"03452001","name":"Aurich, Stadt","type":"Stadt"},"district":{"key":"03452","name":"Aurich","type":"Landkreis"},"federalState":{"key":"03","name":"Niedersachsen"}},{"name":"Finkenstr.","postalCode":"26605","locality":"Aurich","municipality":{"key":"03452001","name":"Aurich, Stadt","type":"Stadt"},"district":{"key":"03452","name":"Aurich","type":"Landkreis"},"federalState":{"key":"03","name":"Niedersachsen"}},{"name":"Fischteichweg","postalCode":"26603","locality":"Aurich","municipality":{"key":"03452001","name":"Aurich, Stadt","type":"Stadt"},"district":{"key":"03452","name":"Aurich","type":"Landkreis"},"federalState":{"key":"03","name":"Niedersachsen"}},{"name":"Flachmoorweg","postalCode":"26607","locality":"Aurich","municipality":{"key":"03452001","name":"Aurich, Stadt","type":"Stadt"},"district":{"key":"03452","name":"Aurich","type":"Landkreis"},"federalState":{"key":"03","name":"Niedersachsen"}},{"name":"Flachsmeerweg","postalCode":"26605","locality":"Aurich","municipality":{"key":"03452001","name":"Aurich, Stadt","type":"Stadt"},"district":{"key":"03452","name":"Aurich","type":"Landkreis"},"federalState":{"key":"03","name":"Niedersachsen"}},{"name":"Fliederbusch","postalCode":"26605","locality":"Aurich","municipality":{"key":"03452001","name":"Aurich, Stadt","type":"Stadt"},"district":{"key":"03452","name":"Aurich","type":"Landkreis"},"federalState":{"key":"03","name":"Niedersachsen"}},{"name":"Fockenbollwerkstr.","postalCode":"26603","locality":"Aurich","municipality":{"key":"03452001","name":"Aurich, Stadt","type":"Stadt"},"district":{"key":"03452","name":"Aurich","type":"Landkreis"},"federalState":{"key":"03","name":"Niedersachsen"}},{"name":"Fohlenwiese","postalCode":"26605","locality":"Aurich","municipality":{"key":"03452001","name":"Aurich, Stadt","type":"Stadt"},"district":{"key":"03452","name":"Aurich","type":"Landkreis"},"federalState":{"key":"03","name":"Niedersachsen"}},{"name":"Forstweg","postalCode":"26607","locality":"Aurich","municipality":{"key":"03452001","name":"Aurich, Stadt","type":"Stadt"},"district":{"key":"03452","name":"Aurich","type":"Landkreis"},"federalState":{"key":"03","name":"Niedersachsen"}},{"name":"Franziusfeld","postalCode":"26607","locality":"Aurich","municipality":{"key":"03452001","name":"Aurich, Stadt","type":"Stadt"},"district":{"key":"03452","name":"Aurich","type":"Landkreis"},"federalState":{"key":"03","name":"Niedersachsen"}},{"name":"Franziusweg","postalCode":"26607","locality":"Aurich","municipality":{"key":"03452001","name":"Aurich, Stadt","type":"Stadt"},"district":{"key":"03452","name":"Aurich","type":"Landkreis"},"federalState":{"key":"03","name":"Niedersachsen"}},{"name":"Freiherr-vom-Stein-Str.","postalCode":"26603","locality":"Aurich","municipality":{"key":"03452001","name":"Aurich, Stadt","type":"Stadt"},"district":{"key":"03452","name":"Aurich","type":"Landkreis"},"federalState":{"key":"03","name":"Niedersachsen"}},{"name":"Friedhofstr.","postalCode":"26603","locality":"Aurich","municipality":{"key":"03452001","name":"Aurich, Stadt","type":"Stadt"},"district":{"key":"03452","name":"Aurich","type":"Landkreis"},"federalState":{"key":"03","name":"Niedersachsen"}},{"name":"Friedrich-van-Senden-Str.","postalCode":"26603","locality":"Aurich","municipality":{"key":"03452001","name":"Aurich, Stadt","type":"Stadt"},"district":{"key":"03452","name":"Aurich","type":"Landkreis"},"federalState":{"key":"03","name":"Niedersachsen"}},{"name":"Friesenweg","postalCode":"26605","locality":"Aurich","municipality":{"key":"03452001","name":"Aurich, Stadt","type":"Stadt"},"district":{"key":"03452","name":"Aurich","type":"Landkreis"},"federalState":{"key":"03","name":"Niedersachsen"}},{"name":"Fritz-Reuter-Str.","postalCode":"26603","locality":"Aurich","municipality":{"key":"03452001","name":"Aurich, Stadt","type":"Stadt"},"district":{"key":"03452","name":"Aurich","type":"Landkreis"},"federalState":{"key":"03","name":"Niedersachsen"}},{"name":"Fröhlingsweg","postalCode":"26607","locality":"Aurich","municipality":{"key":"03452001","name":"Aurich, Stadt","type":"Stadt"},"district":{"key":"03452","name":"Aurich","type":"Landkreis"},"federalState":{"key":"03","name":"Niedersachsen"}},{"name":"Grüner Weg","postalCode":"26524","locality":"Hagermarsch","municipality":{"key":"03452009","name":"Hagermarsch","type":"Kreisangehörige_Gemeinde"},"district":{"key":"03452","name":"Aurich","type":"Landkreis"},"federalState":{"key":"03","name":"Niedersachsen"}},{"name":"Hagermarscher Str.","postalCode":"26524","locality":"Hagermarsch","municipality":{"key":"03452009","name":"Hagermarsch","type":"Kreisangehörige_Gemeinde"},"district":{"key":"03452","name":"Aurich","type":"Landkreis"},"federalState":{"key":"03","name":"Niedersachsen"}},{"name":"Hilgenriedersiel","postalCode":"26524","locality":"Hagermarsch","municipality":{"key":"03452009","name":"Hagermarsch","type":"Kreisangehörige_Gemeinde"},"district":{"key":"03452","name":"Aurich","type":"Landkreis"},"federalState":{"key":"03","name":"Niedersachsen"}},{"name":"Hufschlag","postalCode":"26524","locality":"Hagermarsch","municipality":{"key":"03452009","name":"Hagermarsch","type":"Kreisangehörige_Gemeinde"},"district":{"key":"03452","name":"Aurich","type":"Landkreis"},"federalState":{"key":"03","name":"Niedersachsen"}},{"name":"Im Junkersrott","postalCode":"26524","locality":"Hagermarsch","municipality":{"key":"03452009","name":"Hagermarsch","type":"Kreisangehörige_Gemeinde"},"district":{"key":"03452","name":"Aurich","type":"Landkreis"},"federalState":{"key":"03","name":"Niedersachsen"}},{"name":"Jadestr.","postalCode":"26605","locality":"Aurich","municipality":{"key":"03452001","name":"Aurich, Stadt","type":"Stadt"},"district":{"key":"03452","name":"Aurich","type":"Landkreis"},"federalState":{"key":"03","name":"Niedersachsen"}},{"name":"Jagdweg","postalCode":"26605","locality":"Aurich","municipality":{"key":"03452001","name":"Aurich, Stadt","type":"Stadt"},"district":{"key":"03452","name":"Aurich","type":"Landkreis"},"federalState":{"key":"03","name":"Niedersachsen"}},{"name":"Jägerstr.","postalCode":"26607","locality":"Aurich","municipality":{"key":"03452001","name":"Aurich, Stadt","type":"Stadt"},"district":{"key":"03452","name":"Aurich","type":"Landkreis"},"federalState":{"key":"03","name":"Niedersachsen"}},{"name":"Jahnstr.","postalCode":"26603","locality":"Aurich","municipality":{"key":"03452001","name":"Aurich, Stadt","type":"Stadt"},"district":{"key":"03452","name":"Aurich","type":"Landkreis"},"federalState":{"key":"03","name":"Niedersachsen"}},{"name":"Jann-Berghaus-Str.","postalCode":"26603","locality":"Aurich","municipality":{"key":"03452001","name":"Aurich, Stadt","type":"Stadt"},"district":{"key":"03452","name":"Aurich","type":"Landkreis"},"federalState":{"key":"03","name":"Niedersachsen"}},{"name":"Johannes-Diekhoff-Str.","postalCode":"26605","locality":"Aurich","municipality":{"key":"03452001","name":"Aurich, Stadt","type":"Stadt"},"district":{"key":"03452","name":"Aurich","type":"Landkreis"},"federalState":{"key":"03","name":"Niedersachsen"}},{"name":"Juiststr.","postalCode":"26603","locality":"Aurich","municipality":{"key":"03452001","name":"Aurich, Stadt","type":"Stadt"},"district":{"key":"03452","name":"Aurich","type":"Landkreis"},"federalState":{"key":"03","name":"Niedersachsen"}},{"name":"Julianenburger Str.","postalCode":"26603","locality":"Aurich","municipality":{"key":"03452001","name":"Aurich, Stadt","type":"Stadt"},"district":{"key":"03452","name":"Aurich","type":"Landkreis"},"federalState":{"key":"03","name":"Niedersachsen"}},{"name":"Jümmestr.","postalCode":"26605","locality":"Aurich","municipality":{"key":"03452001","name":"Aurich, Stadt","type":"Stadt"},"district":{"key":"03452","name":"Aurich","type":"Landkreis"},"federalState":{"key":"03","name":"Niedersachsen"}},{"name":"Kaakweg","postalCode":"26524","locality":"Hagermarsch","municipality":{"key":"03452009","name":"Hagermarsch","type":"Kreisangehörige_Gemeinde"},"district":{"key":"03452","name":"Aurich","type":"Landkreis"},"federalState":{"key":"03","name":"Niedersachsen"}},{"name":"Kleiweg","postalCode":"26524","locality":"Hagermarsch","municipality":{"key":"03452009","name":"Hagermarsch","type":"Kreisangehörige_Gemeinde"},"district":{"key":"03452","name":"Aurich","type":"Landkreis"},"federalState":{"key":"03","name":"Niedersachsen"}},{"name":"Lambertistr.","postalCode":"26603","locality":"Aurich","municipality":{"key":"03452001","name":"Aurich, Stadt","type":"Stadt"},"district":{"key":"03452","name":"Aurich","type":"Landkreis"},"federalState":{"key":"03","name":"Niedersachsen"}},{"name":"Lambertshof","postalCode":"26603","locality":"Aurich","municipality":{"key":"03452001","name":"Aurich, Stadt","type":"Stadt"},"district":{"key":"03452","name":"Aurich","type":"Landkreis"},"federalState":{"key":"03","name":"Niedersachsen"}},{"name":"Landratsholz","postalCode":"26607","locality":"Aurich","municipality":{"key":"03452001","name":"Aurich, Stadt","type":"Stadt"},"district":{"key":"03452","name":"Aurich","type":"Landkreis"},"federalState":{"key":"03","name":"Niedersachsen"}},{"name":"Landreiterweg","postalCode":"26605","locality":"Aurich","municipality":{"key":"03452001","name":"Aurich, Stadt","type":"Stadt"},"district":{"key":"03452","name":"Aurich","type":"Landkreis"},"federalState":{"key":"03","name":"Niedersachsen"}},{"name":"Lange-Äcker-Str.","postalCode":"26607","locality":"Aurich","municipality":{"key":"03452001","name":"Aurich, Stadt","type":"Stadt"},"district":{"key":"03452","name":"Aurich","type":"Landkreis"},"federalState":{"key":"03","name":"Niedersachsen"}},{"name":"Lange Diehl","postalCode":"26607","locality":"Aurich","municipality":{"key":"03452001","name":"Aurich, Stadt","type":"Stadt"},"district":{"key":"03452","name":"Aurich","type":"Landkreis"},"federalState":{"key":"03","name":"Niedersachsen"}},{"name":"Langefelder Grenzweg","postalCode":"26607","locality":"Aurich","municipality":{"key":"03452001","name":"Aurich, Stadt","type":"Stadt"},"district":{"key":"03452","name":"Aurich","type":"Landkreis"},"federalState":{"key":"03","name":"Niedersachsen"}},{"name":"Langefelder Str.","postalCode":"26607","locality":"Aurich","municipality":{"key":"03452001","name":"Aurich, Stadt","type":"Stadt"},"district":{"key":"03452","name":"Aurich","type":"Landkreis"},"federalState":{"key":"03","name":"Niedersachsen"}},{"name":"Langefelder Vergrößerung","postalCode":"26607","locality":"Aurich","municipality":{"key":"03452001","name":"Aurich, Stadt","type":"Stadt"},"district":{"key":"03452","name":"Aurich","type":"Landkreis"},"federalState":{"key":"03","name":"Niedersachsen"}},{"name":"Langeoogstr.","postalCode":"26603","locality":"Aurich","municipality":{"key":"03452001","name":"Aurich, Stadt","type":"Stadt"},"district":{"key":"03452","name":"Aurich","type":"Landkreis"},"federalState":{"key":"03","name":"Niedersachsen"}},{"name":"Langer Kamp","postalCode":"26603","locality":"Aurich","municipality":{"key":"03452001","name":"Aurich, Stadt","type":"Stadt"},"district":{"key":"03452","name":"Aurich","type":"Landkreis"},"federalState":{"key":"03","name":"Niedersachsen"}},{"name":"Langfeldweg","postalCode":"26605","locality":"Aurich","municipality":{"key":"03452001","name":"Aurich, Stadt","type":"Stadt"},"district":{"key":"03452","name":"Aurich","type":"Landkreis"},"federalState":{"key":"03","name":"Niedersachsen"}},{"name":"Lazarettweg","postalCode":"26603","locality":"Aurich","municipality":{"key":"03452001","name":"Aurich, Stadt","type":"Stadt"},"district":{"key":"03452","name":"Aurich","type":"Landkreis"},"federalState":{"key":"03","name":"Niedersachsen"}},{"name":"Ledastr.","postalCode":"26603","locality":"Aurich","municipality":{"key":"03452001","name":"Aurich, Stadt","type":"Stadt"},"district":{"key":"03452","name":"Aurich","type":"Landkreis"},"federalState":{"key":"03","name":"Niedersachsen"}},{"name":"Leegstruddenweg","postalCode":"26605","locality":"Aurich","municipality":{"key":"03452001","name":"Aurich, Stadt","type":"Stadt"},"district":{"key":"03452","name":"Aurich","type":"Landkreis"},"federalState":{"key":"03","name":"Niedersachsen"}},{"name":"Leegstückenweg","postalCode":"26607","locality":"Aurich","municipality":{"key":"03452001","name":"Aurich, Stadt","type":"Stadt"},"district":{"key":"03452","name":"Aurich","type":"Landkreis"},"federalState":{"key":"03","name":"Niedersachsen"}},{"name":"Leerer Landstr.","postalCode":"26603","locality":"Aurich","municipality":{"key":"03452001","name":"Aurich, Stadt","type":"Stadt"},"district":{"key":"03452","name":"Aurich","type":"Landkreis"},"federalState":{"key":"03","name":"Niedersachsen"}},{"name":"Leerer Landstr.","postalCode":"26605","locality":"Aurich","municipality":{"key":"03452001","name":"Aurich, Stadt","type":"Stadt"},"district":{"key":"03452","name":"Aurich","type":"Landkreis"},"federalState":{"key":"03","name":"Niedersachsen"}},{"name":"Lehmdobbenweg","postalCode":"26605","locality":"Aurich","municipality":{"key":"03452001","name":"Aurich, Stadt","type":"Stadt"},"district":{"key":"03452","name":"Aurich","type":"Landkreis"},"federalState":{"key":"03","name":"Niedersachsen"}},{"name":"Lehmland","postalCode":"26605","locality":"Aurich","municipality":{"key":"03452001","name":"Aurich, Stadt","type":"Stadt"},"district":{"key":"03452","name":"Aurich","type":"Landkreis"},"federalState":{"key":"03","name":"Niedersachsen"}},{"name":"Lehmweg","postalCode":"26607","locality":"Aurich","municipality":{"key":"03452001","name":"Aurich, Stadt","type":"Stadt"},"district":{"key":"03452","name":"Aurich","type":"Landkreis"},"federalState":{"key":"03","name":"Niedersachsen"}},{"name":"Leibnizstr.","postalCode":"26603","locality":"Aurich","municipality":{"key":"03452001","name":"Aurich, Stadt","type":"Stadt"},"district":{"key":"03452","name":"Aurich","type":"Landkreis"},"federalState":{"key":"03","name":"Niedersachsen"}},{"name":"Leinenweg","postalCode":"26605","locality":"Aurich","municipality":{"key":"03452001","name":"Aurich, Stadt","type":"Stadt"},"district":{"key":"03452","name":"Aurich","type":"Landkreis"},"federalState":{"key":"03","name":"Niedersachsen"}},{"name":"Lerchenweg","postalCode":"26603","locality":"Aurich","municipality":{"key":"03452001","name":"Aurich, Stadt","type":"Stadt"},"district":{"key":"03452","name":"Aurich","type":"Landkreis"},"federalState":{"key":"03","name":"Niedersachsen"}},{"name":"Liebigstr.","postalCode":"26607","locality":"Aurich","municipality":{"key":"03452001","name":"Aurich, Stadt","type":"Stadt"},"district":{"key":"03452","name":"Aurich","type":"Landkreis"},"federalState":{"key":"03","name":"Niedersachsen"}},{"name":"Liekpad","postalCode":"26605","locality":"Aurich","municipality":{"key":"03452001","name":"Aurich, Stadt","type":"Stadt"},"district":{"key":"03452","name":"Aurich","type":"Landkreis"},"federalState":{"key":"03","name":"Niedersachsen"}},{"name":"Ligusterweg","postalCode":"26603","locality":"Aurich","municipality":{"key":"03452001","name":"Aurich, Stadt","type":"Stadt"},"district":{"key":"03452","name":"Aurich","type":"Landkreis"},"federalState":{"key":"03","name":"Niedersachsen"}},{"name":"Lilienstr.","postalCode":"26603","locality":"Aurich","municipality":{"key":"03452001","name":"Aurich, Stadt","type":"Stadt"},"district":{"key":"03452","name":"Aurich","type":"Landkreis"},"federalState":{"key":"03","name":"Niedersachsen"}},{"name":"Lindenweg","postalCode":"26607","locality":"Aurich","municipality":{"key":"03452001","name":"Aurich, Stadt","type":"Stadt"},"district":{"key":"03452","name":"Aurich","type":"Landkreis"},"federalState":{"key":"03","name":"Niedersachsen"}},{"name":"Lohne","postalCode":"26605","locality":"Aurich","municipality":{"key":"03452001","name":"Aurich, Stadt","type":"Stadt"},"district":{"key":"03452","name":"Aurich","type":"Landkreis"},"federalState":{"key":"03","name":"Niedersachsen"}},{"name":"Lüchtenburger Weg","postalCode":"26603","locality":"Aurich","municipality":{"key":"03452001","name":"Aurich, Stadt","type":"Stadt"},"district":{"key":"03452","name":"Aurich","type":"Landkreis"},"federalState":{"key":"03","name":"Niedersachsen"}},{"name":"Lüttje Drift","postalCode":"26607","locality":"Aurich","municipality":{"key":"03452001","name":"Aurich, Stadt","type":"Stadt"},"district":{"key":"03452","name":"Aurich","type":"Landkreis"},"federalState":{"key":"03","name":"Niedersachsen"}},{"name":"Lüttje Holt","postalCode":"26603","locality":"Aurich","municipality":{"key":"03452001","name":"Aurich, Stadt","type":"Stadt"},"district":{"key":"03452","name":"Aurich","type":"Landkreis"},"federalState":{"key":"03","name":"Niedersachsen"}},{"name":"Lüttje-Hörn-Str.","postalCode":"26603","locality":"Aurich","municipality":{"key":"03452001","name":"Aurich, Stadt","type":"Stadt"},"district":{"key":"03452","name":"Aurich","type":"Landkreis"},"federalState":{"key":"03","name":"Niedersachsen"}},{"name":"Lüttje Kamp","postalCode":"26605","locality":"Aurich","municipality":{"key":"03452001","name":"Aurich, Stadt","type":"Stadt"},"district":{"key":"03452","name":"Aurich","type":"Landkreis"},"federalState":{"key":"03","name":"Niedersachsen"}},{"name":"Lüttje Leegde","postalCode":"26607","locality":"Aurich","municipality":{"key":"03452001","name":"Aurich, Stadt","type":"Stadt"},"district":{"key":"03452","name":"Aurich","type":"Landkreis"},"federalState":{"key":"03","name":"Niedersachsen"}},{"name":"Lützowallee","postalCode":"26603","locality":"Aurich","municipality":{"key":"03452001","name":"Aurich, Stadt","type":"Stadt"},"district":{"key":"03452","name":"Aurich","type":"Landkreis"},"federalState":{"key":"03","name":"Niedersachsen"}},{"name":"Marienhofstr.","postalCode":"26524","locality":"Hagermarsch","municipality":{"key":"03452009","name":"Hagermarsch","type":"Kreisangehörige_Gemeinde"},"district":{"key":"03452","name":"Aurich","type":"Landkreis"},"federalState":{"key":"03","name":"Niedersachsen"}},{"name":"Meint-Ehlen-Weg","postalCode":"26524","locality":"Hagermarsch","municipality":{"key":"03452009","name":"Hagermarsch","type":"Kreisangehörige_Gemeinde"},"district":{"key":"03452","name":"Aurich","type":"Landkreis"},"federalState":{"key":"03","name":"Niedersachsen"}},{"name":"Mühlenweg","postalCode":"26524","locality":"Hagermarsch","municipality":{"key":"03452009","name":"Hagermarsch","type":"Kreisangehörige_Gemeinde"},"district":{"key":"03452","name":"Aurich","type":"Landkreis"},"federalState":{"key":"03","name":"Niedersachsen"}},{"name":"Nordoog","postalCode":"26524","locality":"Hagermarsch","municipality":{"key":"03452009","name":"Hagermarsch","type":"Kreisangehörige_Gemeinde"},"district":{"key":"03452","name":"Aurich","type":"Landkreis"},"federalState":{"key":"03","name":"Niedersachsen"}},{"name":"Osterdeicher Weg","postalCode":"26524","locality":"Hagermarsch","municipality":{"key":"03452009","name":"Hagermarsch","type":"Kreisangehörige_Gemeinde"},"district":{"key":"03452","name":"Aurich","type":"Landkreis"},"federalState":{"key":"03","name":"Niedersachsen"}},{"name":"Padkamp","postalCode":"26605","locality":"Aurich","municipality":{"key":"03452001","name":"Aurich, Stadt","type":"Stadt"},"district":{"key":"03452","name":"Aurich","type":"Landkreis"},"federalState":{"key":"03","name":"Niedersachsen"}},{"name":"Pappelweg","postalCode":"26605","locality":"Aurich","municipality":{"key":"03452001","name":"Aurich, Stadt","type":"Stadt"},"district":{"key":"03452","name":"Aurich","type":"Landkreis"},"federalState":{"key":"03","name":"Niedersachsen"}},{"name":"Park Haxtum","postalCode":"26605","locality":"Aurich","municipality":{"key":"03452001","name":"Aurich, Stadt","type":"Stadt"},"district":{"key":"03452","name":"Aurich","type":"Landkreis"},"federalState":{"key":"03","name":"Niedersachsen"}},{"name":"Parkstr.","postalCode":"26605","locality":"Aurich","municipality":{"key":"03452001","name":"Aurich, Stadt","type":"Stadt"},"district":{"key":"03452","name":"Aurich","type":"Landkreis"},"federalState":{"key":"03","name":"Niedersachsen"}},{"name":"Pechfennenweg","postalCode":"26605","locality":"Aurich","municipality":{"key":"03452001","name":"Aurich, Stadt","type":"Stadt"},"district":{"key":"03452","name":"Aurich","type":"Landkreis"},"federalState":{"key":"03","name":"Niedersachsen"}},{"name":"Peerkuhl","postalCode":"26605","locality":"Aurich","municipality":{"key":"03452001","name":"Aurich, Stadt","type":"Stadt"},"district":{"key":"03452","name":"Aurich","type":"Landkreis"},"federalState":{"key":"03","name":"Niedersachsen"}},{"name":"Pfalzdorfer Str.","postalCode":"26607","locality":"Aurich","municipality":{"key":"03452001","name":"Aurich, Stadt","type":"Stadt"},"district":{"key":"03452","name":"Aurich","type":"Landkreis"},"federalState":{"key":"03","name":"Niedersachsen"}},{"name":"Pfälzerstr.","postalCode":"26607","locality":"Aurich","municipality":{"key":"03452001","name":"Aurich, Stadt","type":"Stadt"},"district":{"key":"03452","name":"Aurich","type":"Landkreis"},"federalState":{"key":"03","name":"Niedersachsen"}},{"name":"Pfauenweg","postalCode":"26603","locality":"Aurich","municipality":{"key":"03452001","name":"Aurich, Stadt","type":"Stadt"},"district":{"key":"03452","name":"Aurich","type":"Landkreis"},"federalState":{"key":"03","name":"Niedersachsen"}},{"name":"Pferdekoppel","postalCode":"26605","locality":"Aurich","municipality":{"key":"03452001","name":"Aurich, Stadt","type":"Stadt"},"district":{"key":"03452","name":"Aurich","type":"Landkreis"},"federalState":{"key":"03","name":"Niedersachsen"}},{"name":"Piepmortenweg","postalCode":"26607","locality":"Aurich","municipality":{"key":"03452001","name":"Aurich, Stadt","type":"Stadt"},"district":{"key":"03452","name":"Aurich","type":"Landkreis"},"federalState":{"key":"03","name":"Niedersachsen"}},{"name":"Pillauer Str.","postalCode":"26603","locality":"Aurich","municipality":{"key":"03452001","name":"Aurich, Stadt","type":"Stadt"},"district":{"key":"03452","name":"Aurich","type":"Landkreis"},"federalState":{"key":"03","name":"Niedersachsen"}},{"name":"Plackweg","postalCode":"26605","locality":"Aurich","municipality":{"key":"03452001","name":"Aurich, Stadt","type":"Stadt"},"district":{"key":"03452","name":"Aurich","type":"Landkreis"},"federalState":{"key":"03","name":"Niedersachsen"}},{"name":"Pollerweg","postalCode":"26607","locality":"Aurich","municipality":{"key":"03452001","name":"Aurich, Stadt","type":"Stadt"},"district":{"key":"03452","name":"Aurich","type":"Landkreis"},"federalState":{"key":"03","name":"Niedersachsen"}},{"name":"Pommernweg","postalCode":"26603","locality":"Aurich","municipality":{"key":"03452001","name":"Aurich, Stadt","type":"Stadt"},"district":{"key":"03452","name":"Aurich","type":"Landkreis"},"federalState":{"key":"03","name":"Niedersachsen"}},{"name":"Popenser Str.","postalCode":"26603","locality":"Aurich","municipality":{"key":"03452001","name":"Aurich, Stadt","type":"Stadt"},"district":{"key":"03452","name":"Aurich","type":"Landkreis"},"federalState":{"key":"03","name":"Niedersachsen"}},{"name":"Popenser Str.","postalCode":"26605","locality":"Aurich","municipality":{"key":"03452001","name":"Aurich, Stadt","type":"Stadt"},"district":{"key":"03452","name":"Aurich","type":"Landkreis"},"federalState":{"key":"03","name":"Niedersachsen"}},{"name":"Pottackerring","postalCode":"26605","locality":"Aurich","municipality":{"key":"03452001","name":"Aurich, Stadt","type":"Stadt"},"district":{"key":"03452","name":"Aurich","type":"Landkreis"},"federalState":{"key":"03","name":"Niedersachsen"}},{"name":"Preiselbeerweg","postalCode":"26605","locality":"Aurich","municipality":{"key":"03452001","name":"Aurich, Stadt","type":"Stadt"},"district":{"key":"03452","name":"Aurich","type":"Landkreis"},"federalState":{"key":"03","name":"Niedersachsen"}},{"name":"Prinz-Ratibor-Str.","postalCode":"26605","locality":"Aurich","municipality":{"key":"03452001","name":"Aurich, Stadt","type":"Stadt"},"district":{"key":"03452","name":"Aurich","type":"Landkreis"},"federalState":{"key":"03","name":"Niedersachsen"}},{"name":"Quembarger Weg","postalCode":"26607","locality":"Aurich","municipality":{"key":"03452001","name":"Aurich, Stadt","type":"Stadt"},"district":{"key":"03452","name":"Aurich","type":"Landkreis"},"federalState":{"key":"03","name":"Niedersachsen"}},{"name":"Querweg","postalCode":"26605","locality":"Aurich","municipality":{"key":"03452001","name":"Aurich, Stadt","type":"Stadt"},"district":{"key":"03452","name":"Aurich","type":"Landkreis"},"federalState":{"key":"03","name":"Niedersachsen"}},{"name":"Rickersweg","postalCode":"26524","locality":"Hagermarsch","municipality":{"key":"03452009","name":"Hagermarsch","type":"Kreisangehörige_Gemeinde"},"district":{"key":"03452","name":"Aurich","type":"Landkreis"},"federalState":{"key":"03","name":"Niedersachsen"}},{"name":"Roter Weg","postalCode":"26524","locality":"Hagermarsch","municipality":{"key":"03452009","name":"Hagermarsch","type":"Kreisangehörige_Gemeinde"},"district":{"key":"03452","name":"Aurich","type":"Landkreis"},"federalState":{"key":"03","name":"Niedersachsen"}},{"name":"Sophienhof","postalCode":"26524","locality":"Hagermarsch","municipality":{"key":"03452009","name":"Hagermarsch","type":"Kreisangehörige_Gemeinde"},"district":{"key":"03452","name":"Aurich","type":"Landkreis"},"federalState":{"key":"03","name":"Niedersachsen"}},{"name":"Theener Oststreek","postalCode":"26524","locality":"Hagermarsch","municipality":{"key":"03452009","name":"Hagermarsch","type":"Kreisangehörige_Gemeinde"},"district":{"key":"03452","name":"Aurich","type":"Landkreis"},"federalState":{"key":"03","name":"Niedersachsen"}},{"name":"Theener Weststreek","postalCode":"26524","locality":"Hagermarsch","municipality":{"key":"03452009","name":"Hagermarsch","type":"Kreisangehörige_Gemeinde"},"district":{"key":"03452","name":"Aurich","type":"Landkreis"},"federalState":{"key":"03","name":"Niedersachsen"}},{"name":"Ubbo-Emmius-Str.","postalCode":"26603","locality":"Aurich","municipality":{"key":"03452001","name":"Aurich, Stadt","type":"Stadt"},"district":{"key":"03452","name":"Aurich","type":"Landkreis"},"federalState":{"key":"03","name":"Niedersachsen"}},{"name":"Ukenastr.","postalCode":"26603","locality":"Aurich","municipality":{"key":"03452001","name":"Aurich, Stadt","type":"Stadt"},"district":{"key":"03452","name":"Aurich","type":"Landkreis"},"federalState":{"key":"03","name":"Niedersachsen"}},{"name":"Ulenmoorweg","postalCode":"26603","locality":"Aurich","municipality":{"key":"03452001","name":"Aurich, Stadt","type":"Stadt"},"district":{"key":"03452","name":"Aurich","type":"Landkreis"},"federalState":{"key":"03","name":"Niedersachsen"}},{"name":"Unlander Weg","postalCode":"26605","locality":"Aurich","municipality":{"key":"03452001","name":"Aurich, Stadt","type":"Stadt"},"district":{"key":"03452","name":"Aurich","type":"Landkreis"},"federalState":{"key":"03","name":"Niedersachsen"}},{"name":"Unterfanke","postalCode":"26605","locality":"Aurich","municipality":{"key":"03452001","name":"Aurich, Stadt","type":"Stadt"},"district":{"key":"03452","name":"Aurich","type":"Landkreis"},"federalState":{"key":"03","name":"Niedersachsen"}},{"name":"Up Höcht","postalCode":"26605","locality":"Aurich","municipality":{"key":"03452001","name":"Aurich, Stadt","type":"Stadt"},"district":{"key":"03452","name":"Aurich","type":"Landkreis"},"federalState":{"key":"03","name":"Niedersachsen"}},{"name":"Upt Gast","postalCode":"26607","locality":"Aurich","municipality":{"key":"03452001","name":"Aurich, Stadt","type":"Stadt"},"district":{"key":"03452","name":"Aurich","type":"Landkreis"},"federalState":{"key":"03","name":"Niedersachsen"}},{"name":"Upt Gorn","postalCode":"26607","locality":"Aurich","municipality":{"key":"03452001","name":"Aurich, Stadt","type":"Stadt"},"district":{"key":"03452","name":"Aurich","type":"Landkreis"},"federalState":{"key":"03","name":"Niedersachsen"}},{"name":"Utlandshörner Str.","postalCode":"26607","locality":"Aurich","municipality":{"key":"03452001","name":"Aurich, Stadt","type":"Stadt"},"district":{"key":"03452","name":"Aurich","type":"Landkreis"},"federalState":{"key":"03","name":"Niedersachsen"}},{"name":"Vierweg","postalCode":"26524","locality":"Hagermarsch","municipality":{"key":"03452009","name":"Hagermarsch","type":"Kreisangehörige_Gemeinde"},"district":{"key":"03452","name":"Aurich","type":"Landkreis"},"federalState":{"key":"03","name":"Niedersachsen"}},{"name":"Waterweg","postalCode":"26524","locality":"Hagermarsch","municipality":{"key":"03452009","name":"Hagermarsch","type":"Kreisangehörige_Gemeinde"},"district":{"key":"03452","name":"Aurich","type":"Landkreis"},"federalState":{"key":"03","name":"Niedersachsen"}},{"name":"Yorckstr.","postalCode":"26603","locality":"Aurich","municipality":{"key":"03452001","name":"Aurich, Stadt","type":"Stadt"},"district":{"key":"03452","name":"Aurich","type":"Landkreis"},"federalState":{"key":"03","name":"Niedersachsen"}},{"name":"Zillestr.","postalCode":"26603","locality":"Aurich","municipality":{"key":"03452001","name":"Aurich, Stadt","type":"Stadt"},"district":{"key":"03452","name":"Aurich","type":"Landkreis"},"federalState":{"key":"03","name":"Niedersachsen"}},{"name":"Zingelstr.","postalCode":"26603","locality":"Aurich","municipality":{"key":"03452001","name":"Aurich, Stadt","type":"Stadt"},"district":{"key":"03452","name":"Aurich","type":"Landkreis"},"federalState":{"key":"03","name":"Niedersachsen"}},{"name":"Zu den Norderstücken","postalCode":"26607","locality":"Aurich","municipality":{"key":"03452001","name":"Aurich, Stadt","type":"Stadt"},"district":{"key":"03452","name":"Aurich","type":"Landkreis"},"federalState":{"key":"03","name":"Niedersachsen"}},{"name":"Zu den Südstücken","postalCode":"26607","locality":"Aurich","municipality":{"key":"03452001","name":"Aurich, Stadt","type":"Stadt"},"district":{"key":"03452","name":"Aurich","type":"Landkreis"},"federalState":{"key":"03","name":"Niedersachsen"}},{"name":"Zum Abelitzschloot","postalCode":"26607","locality":"Aurich","municipality":{"key":"03452001","name":"Aurich, Stadt","type":"Stadt"},"district":{"key":"03452","name":"Aurich","type":"Landkreis"},"federalState":{"key":"03","name":"Niedersachsen"}},{"name":"Zum Alten Moor","postalCode":"26605","locality":"Aurich","municipality":{"key":"03452001","name":"Aurich, Stadt","type":"Stadt"},"district":{"key":"03452","name":"Aurich","type":"Landkreis"},"federalState":{"key":"03","name":"Niedersachsen"}},{"name":"Zum Alten Postweg","postalCode":"26607","locality":"Aurich","municipality":{"key":"03452001","name":"Aurich, Stadt","type":"Stadt"},"district":{"key":"03452","name":"Aurich","type":"Landkreis"},"federalState":{"key":"03","name":"Niedersachsen"}},{"name":"Zum Antjebitt","postalCode":"26605","locality":"Aurich","municipality":{"key":"03452001","name":"Aurich, Stadt","type":"Stadt"},"district":{"key":"03452","name":"Aurich","type":"Landkreis"},"federalState":{"key":"03","name":"Niedersachsen"}},{"name":"Zum Fernsehturm","postalCode":"26605","locality":"Aurich","municipality":{"key":"03452001","name":"Aurich, Stadt","type":"Stadt"},"district":{"key":"03452","name":"Aurich","type":"Landkreis"},"federalState":{"key":"03","name":"Niedersachsen"}},{"name":"Zum Greenberger Kamp","postalCode":"26607","locality":"Aurich","municipality":{"key":"03452001","name":"Aurich, Stadt","type":"Stadt"},"district":{"key":"03452","name":"Aurich","type":"Landkreis"},"federalState":{"key":"03","name":"Niedersachsen"}},{"name":"Zum Großen Kamp","postalCode":"26605","locality":"Aurich","municipality":{"key":"03452001","name":"Aurich, Stadt","type":"Stadt"},"district":{"key":"03452","name":"Aurich","type":"Landkreis"},"federalState":{"key":"03","name":"Niedersachsen"}},{"name":"Zum Hasenholt","postalCode":"26607","locality":"Aurich","municipality":{"key":"03452001","name":"Aurich, Stadt","type":"Stadt"},"district":{"key":"03452","name":"Aurich","type":"Landkreis"},"federalState":{"key":"03","name":"Niedersachsen"}},{"name":"Zum Haxtumerfeld","postalCode":"26605","locality":"Aurich","municipality":{"key":"03452001","name":"Aurich, Stadt","type":"Stadt"},"district":{"key":"03452","name":"Aurich","type":"Landkreis"},"federalState":{"key":"03","name":"Niedersachsen"}},{"name":"Zum Herrenmoor","postalCode":"26605","locality":"Aurich","municipality":{"key":"03452001","name":"Aurich, Stadt","type":"Stadt"},"district":{"key":"03452","name":"Aurich","type":"Landkreis"},"federalState":{"key":"03","name":"Niedersachsen"}},{"name":"Zum Hufschmied","postalCode":"26605","locality":"Aurich","municipality":{"key":"03452001","name":"Aurich, Stadt","type":"Stadt"},"district":{"key":"03452","name":"Aurich","type":"Landkreis"},"federalState":{"key":"03","name":"Niedersachsen"}},{"name":"Zum Kanal","postalCode":"26605","locality":"Aurich","municipality":{"key":"03452001","name":"Aurich, Stadt","type":"Stadt"},"district":{"key":"03452","name":"Aurich","type":"Landkreis"},"federalState":{"key":"03","name":"Niedersachsen"}},{"name":"Zum Kiefmoor","postalCode":"26605","locality":"Aurich","municipality":{"key":"03452001","name":"Aurich, Stadt","type":"Stadt"},"district":{"key":"03452","name":"Aurich","type":"Landkreis"},"federalState":{"key":"03","name":"Niedersachsen"}},{"name":"Zum Mediskamp","postalCode":"26605","locality":"Aurich","municipality":{"key":"03452001","name":"Aurich, Stadt","type":"Stadt"},"district":{"key":"03452","name":"Aurich","type":"Landkreis"},"federalState":{"key":"03","name":"Niedersachsen"}},{"name":"Zum Schirumer Leegmoor","postalCode":"26605","locality":"Aurich","municipality":{"key":"03452001","name":"Aurich, Stadt","type":"Stadt"},"district":{"key":"03452","name":"Aurich","type":"Landkreis"},"federalState":{"key":"03","name":"Niedersachsen"}},{"name":"Zum Stroodebusch","postalCode":"26605","locality":"Aurich","municipality":{"key":"03452001","name":"Aurich, Stadt","type":"Stadt"},"district":{"key":"03452","name":"Aurich","type":"Landkreis"},"federalState":{"key":"03","name":"Niedersachsen"}},{"name":"Zum Theestück","postalCode":"26607","locality":"Aurich","municipality":{"key":"03452001","name":"Aurich, Stadt","type":"Stadt"},"district":{"key":"03452","name":"Aurich","type":"Landkreis"},"federalState":{"key":"03","name":"Niedersachsen"}},{"name":"Zur Eiche","postalCode":"26605","locality":"Aurich","municipality":{"key":"03452001","name":"Aurich, Stadt","type":"Stadt"},"district":{"key":"03452","name":"Aurich","type":"Landkreis"},"federalState":{"key":"03","name":"Niedersachsen"}},{"name":"Zur Goldensteinbrücke","postalCode":"26607","locality":"Aurich","municipality":{"key":"03452001","name":"Aurich, Stadt","type":"Stadt"},"district":{"key":"03452","name":"Aurich","type":"Landkreis"},"federalState":{"key":"03","name":"Niedersachsen"}},{"name":"Zur Kleinen Bleiche","postalCode":"26607","locality":"Aurich","municipality":{"key":"03452001","name":"Aurich, Stadt","type":"Stadt"},"district":{"key":"03452","name":"Aurich","type":"Landkreis"},"federalState":{"key":"03","name":"Niedersachsen"}},{"name":"Zur Linde","postalCode":"26605","locality":"Aurich","municipality":{"key":"03452001","name":"Aurich, Stadt","type":"Stadt"},"district":{"key":"03452","name":"Aurich","type":"Landkreis"},"federalState":{"key":"03","name":"Niedersachsen"}},]