[{"key":"10092478","name":"Chemin d'Applayes","postalCode":"1955","locality":"Les Vérines (Chamoson)","commune":{"key":"6022","name":"Chamoson","shortName":"Chamoson"},"district":{"key":"2302","name":"District de Conthey"},"canton":{"key":"23","code":"VS","name":"Valais / Wallis"},"status":"Real"},{"key":"10042913","name":"Chemin d'Azerin","postalCode":"1955","locality":"Les Vérines (Chamoson)","commune":{"key":"6022","name":"Chamoson","shortName":"Chamoson"},"district":{"key":"2302","name":"District de Conthey"},"canton":{"key":"23","code":"VS","name":"Valais / Wallis"},"status":"Real"},{"key":"10108628","name":"Chemin de Berze","postalCode":"1955","locality":"Mayens-de-Chamoson","commune":{"key":"6022","name":"Chamoson","shortName":"Chamoson"},"district":{"key":"2302","name":"District de Conthey"},"canton":{"key":"23","code":"VS","name":"Valais / Wallis"},"status":"Real"},{"key":"10237202","name":"Chemin de Beuble","postalCode":"1955","locality":"Chamoson","commune":{"key":"6022","name":"Chamoson","shortName":"Chamoson"},"district":{"key":"2302","name":"District de Conthey"},"canton":{"key":"23","code":"VS","name":"Valais / Wallis"},"status":"Real"},{"key":"10223913","name":"Chemin de Champ du Four","postalCode":"1955","locality":"Mayens-de-Chamoson","commune":{"key":"6022","name":"Chamoson","shortName":"Chamoson"},"district":{"key":"2302","name":"District de Conthey"},"canton":{"key":"23","code":"VS","name":"Valais / Wallis"},"status":"Real"},{"key":"10082383","name":"Chemin de la Chapelle","postalCode":"1955","locality":"Mayens-de-Chamoson","commune":{"key":"6022","name":"Chamoson","shortName":"Chamoson"},"district":{"key":"2302","name":"District de Conthey"},"canton":{"key":"23","code":"VS","name":"Valais / Wallis"},"status":"Real"},{"key":"10042914","name":"Chemin de la Posse","postalCode":"1955","locality":"Chamoson","commune":{"key":"6022","name":"Chamoson","shortName":"Chamoson"},"district":{"key":"2302","name":"District de Conthey"},"canton":{"key":"23","code":"VS","name":"Valais / Wallis"},"status":"Real"},{"key":"10237242","name":"Chemin de l'Arragnonne","postalCode":"1955","locality":"Chamoson","commune":{"key":"6022","name":"Chamoson","shortName":"Chamoson"},"district":{"key":"2302","name":"District de Conthey"},"canton":{"key":"23","code":"VS","name":"Valais / Wallis"},"status":"Real"},{"key":"10207308","name":"Chemin de la Source","postalCode":"1955","locality":"Chamoson","commune":{"key":"6022","name":"Chamoson","shortName":"Chamoson"},"district":{"key":"2302","name":"District de Conthey"},"canton":{"key":"23","code":"VS","name":"Valais / Wallis"},"status":"Real"},{"key":"10207309","name":"Chemin de l'Azuré","postalCode":"1955","locality":"Mayens-de-Chamoson","commune":{"key":"6022","name":"Chamoson","shortName":"Chamoson"},"district":{"key":"2302","name":"District de Conthey"},"canton":{"key":"23","code":"VS","name":"Valais / Wallis"},"status":"Real"},{"key":"10207310","name":"Chemin de Meuloin","postalCode":"1955","locality":"Mayens-de-Chamoson","commune":{"key":"6022","name":"Chamoson","shortName":"Chamoson"},"district":{"key":"2302","name":"District de Conthey"},"canton":{"key":"23","code":"VS","name":"Valais / Wallis"},"status":"Real"},{"key":"10092479","name":"Chemin de Petoupra","postalCode":"1955","locality":"Les Vérines (Chamoson)","commune":{"key":"6022","name":"Chamoson","shortName":"Chamoson"},"district":{"key":"2302","name":"District de Conthey"},"canton":{"key":"23","code":"VS","name":"Valais / Wallis"},"status":"Real"},{"key":"10223906","name":"Chemin de Pro à They","postalCode":"1955","locality":"Grugnay (Chamoson)","commune":{"key":"6022","name":"Chamoson","shortName":"Chamoson"},"district":{"key":"2302","name":"District de Conthey"},"canton":{"key":"23","code":"VS","name":"Valais / Wallis"},"status":"Real"},{"key":"10223909","name":"Chemin de Pro Berclaz","postalCode":"1955","locality":"Grugnay (Chamoson)","commune":{"key":"6022","name":"Chamoson","shortName":"Chamoson"},"district":{"key":"2302","name":"District de Conthey"},"canton":{"key":"23","code":"VS","name":"Valais / Wallis"},"status":"Real"},{"key":"10042921","name":"Chemin de Rossaillenaz","postalCode":"1955","locality":"Grugnay (Chamoson)","commune":{"key":"6022","name":"Chamoson","shortName":"Chamoson"},"district":{"key":"2302","name":"District de Conthey"},"canton":{"key":"23","code":"VS","name":"Valais / Wallis"},"status":"Real"},{"key":"10236310","name":"Chemin de Rougin","postalCode":"1955","locality":"Chamoson","commune":{"key":"6022","name":"Chamoson","shortName":"Chamoson"},"district":{"key":"2302","name":"District de Conthey"},"canton":{"key":"23","code":"VS","name":"Valais / Wallis"},"status":"Real"},{"key":"10236663","name":"Chemin des Cestonis","postalCode":"1955","locality":"Chamoson","commune":{"key":"6022","name":"Chamoson","shortName":"Chamoson"},"district":{"key":"2302","name":"District de Conthey"},"canton":{"key":"23","code":"VS","name":"Valais / Wallis"},"status":"Real"},{"key":"10223917","name":"Chemin des Combasses","postalCode":"1955","locality":"Les Vérines (Chamoson)","commune":{"key":"6022","name":"Chamoson","shortName":"Chamoson"},"district":{"key":"2302","name":"District de Conthey"},"canton":{"key":"23","code":"VS","name":"Valais / Wallis"},"status":"Real"},{"key":"10223917","name":"Chemin des Combasses","postalCode":"1955","locality":"Némiaz (Chamoson)","commune":{"key":"6022","name":"Chamoson","shortName":"Chamoson"},"district":{"key":"2302","name":"District de Conthey"},"canton":{"key":"23","code":"VS","name":"Valais / Wallis"},"status":"Real"},{"key":"10042915","name":"Chemin des Dzardis","postalCode":"1955","locality":"Mayens-de-Chamoson","commune":{"key":"6022","name":"Chamoson","shortName":"Chamoson"},"district":{"key":"2302","name":"District de Conthey"},"canton":{"key":"23","code":"VS","name":"Valais / Wallis"},"status":"Real"},{"key":"10207418","name":"Chemin des Ecoliers","postalCode":"1955","locality":"Chamoson","commune":{"key":"6022","name":"Chamoson","shortName":"Chamoson"},"district":{"key":"2302","name":"District de Conthey"},"canton":{"key":"23","code":"VS","name":"Valais / Wallis"},"status":"Real"},{"key":"10223920","name":"Chemin des Ecureuils","postalCode":"1955","locality":"Les Vérines (Chamoson)","commune":{"key":"6022","name":"Chamoson","shortName":"Chamoson"},"district":{"key":"2302","name":"District de Conthey"},"canton":{"key":"23","code":"VS","name":"Valais / Wallis"},"status":"Real"},{"key":"10092480","name":"Chemin des Esserts","postalCode":"1955","locality":"Mayens-de-Chamoson","commune":{"key":"6022","name":"Chamoson","shortName":"Chamoson"},"district":{"key":"2302","name":"District de Conthey"},"canton":{"key":"23","code":"VS","name":"Valais / Wallis"},"status":"Real"},{"key":"10237797","name":"Chemin des Gilliards","postalCode":"1955","locality":"Chamoson","commune":{"key":"6022","name":"Chamoson","shortName":"Chamoson"},"district":{"key":"2302","name":"District de Conthey"},"canton":{"key":"23","code":"VS","name":"Valais / Wallis"},"status":"Real"},{"key":"10236342","name":"Chemin des Grives","postalCode":"1955","locality":"Chamoson","commune":{"key":"6022","name":"Chamoson","shortName":"Chamoson"},"district":{"key":"2302","name":"District de Conthey"},"canton":{"key":"23","code":"VS","name":"Valais / Wallis"},"status":"Real"},{"key":"10209699","name":"Chemin des Lemeires","postalCode":"1955","locality":"Chamoson","commune":{"key":"6022","name":"Chamoson","shortName":"Chamoson"},"district":{"key":"2302","name":"District de Conthey"},"canton":{"key":"23","code":"VS","name":"Valais / Wallis"},"status":"Real"},{"key":"10223912","name":"Chemin des Lys","postalCode":"1955","locality":"Les Vérines (Chamoson)","commune":{"key":"6022","name":"Chamoson","shortName":"Chamoson"},"district":{"key":"2302","name":"District de Conthey"},"canton":{"key":"23","code":"VS","name":"Valais / Wallis"},"status":"Real"},{"key":"10223916","name":"Chemin des Martinets","postalCode":"1955","locality":"Chamoson","commune":{"key":"6022","name":"Chamoson","shortName":"Chamoson"},"district":{"key":"2302","name":"District de Conthey"},"canton":{"key":"23","code":"VS","name":"Valais / Wallis"},"status":"Real"},{"key":"10223919","name":"Chemin des Mésanges","postalCode":"1955","locality":"Chamoson","commune":{"key":"6022","name":"Chamoson","shortName":"Chamoson"},"district":{"key":"2302","name":"District de Conthey"},"canton":{"key":"23","code":"VS","name":"Valais / Wallis"},"status":"Real"},{"key":"10236375","name":"Chemin des Pinots","postalCode":"1955","locality":"Chamoson","commune":{"key":"6022","name":"Chamoson","shortName":"Chamoson"},"district":{"key":"2302","name":"District de Conthey"},"canton":{"key":"23","code":"VS","name":"Valais / Wallis"},"status":"Real"},{"key":"10208822","name":"Chemin des Pinsons","postalCode":"1955","locality":"Mayens-de-Chamoson","commune":{"key":"6022","name":"Chamoson","shortName":"Chamoson"},"district":{"key":"2302","name":"District de Conthey"},"canton":{"key":"23","code":"VS","name":"Valais / Wallis"},"status":"Real"},{"key":"10223923","name":"Chemin des Poiriers","postalCode":"1955","locality":"Chamoson","commune":{"key":"6022","name":"Chamoson","shortName":"Chamoson"},"district":{"key":"2302","name":"District de Conthey"},"canton":{"key":"23","code":"VS","name":"Valais / Wallis"},"status":"Real"},{"key":"10236379","name":"Chemin des Pouays","postalCode":"1955","locality":"Mayens-de-Chamoson","commune":{"key":"6022","name":"Chamoson","shortName":"Chamoson"},"district":{"key":"2302","name":"District de Conthey"},"canton":{"key":"23","code":"VS","name":"Valais / Wallis"},"status":"Real"},{"key":"10236395","name":"Chemin d'Illiarisses","postalCode":"1955","locality":"Chamoson","commune":{"key":"6022","name":"Chamoson","shortName":"Chamoson"},"district":{"key":"2302","name":"District de Conthey"},"canton":{"key":"23","code":"VS","name":"Valais / Wallis"},"status":"Real"},{"key":"10042916","name":"Chemin du Bioley","postalCode":"1955","locality":"Mayens-de-Chamoson","commune":{"key":"6022","name":"Chamoson","shortName":"Chamoson"},"district":{"key":"2302","name":"District de Conthey"},"canton":{"key":"23","code":"VS","name":"Valais / Wallis"},"status":"Real"},{"key":"10082384","name":"Chemin du Broccard","postalCode":"1955","locality":"Les Vérines (Chamoson)","commune":{"key":"6022","name":"Chamoson","shortName":"Chamoson"},"district":{"key":"2302","name":"District de Conthey"},"canton":{"key":"23","code":"VS","name":"Valais / Wallis"},"status":"Real"},{"key":"10042917","name":"Chemin du Champ Neuf","postalCode":"1955","locality":"Grugnay (Chamoson)","commune":{"key":"6022","name":"Chamoson","shortName":"Chamoson"},"district":{"key":"2302","name":"District de Conthey"},"canton":{"key":"23","code":"VS","name":"Valais / Wallis"},"status":"Real"},{"key":"10236410","name":"Chemin du Château","postalCode":"1955","locality":"Chamoson","commune":{"key":"6022","name":"Chamoson","shortName":"Chamoson"},"district":{"key":"2302","name":"District de Conthey"},"canton":{"key":"23","code":"VS","name":"Valais / Wallis"},"status":"Real"},{"key":"10092481","name":"Chemin du Grand Pro","postalCode":"1955","locality":"Mayens-de-Chamoson","commune":{"key":"6022","name":"Chamoson","shortName":"Chamoson"},"district":{"key":"2302","name":"District de Conthey"},"canton":{"key":"23","code":"VS","name":"Valais / Wallis"},"status":"Real"},{"key":"10236422","name":"Chemin du Gypaète","postalCode":"1955","locality":"Mayens-de-Chamoson","commune":{"key":"6022","name":"Chamoson","shortName":"Chamoson"},"district":{"key":"2302","name":"District de Conthey"},"canton":{"key":"23","code":"VS","name":"Valais / Wallis"},"status":"Real"},{"key":"10042918","name":"Chemin du Marqueu","postalCode":"1955","locality":"Grugnay (Chamoson)","commune":{"key":"6022","name":"Chamoson","shortName":"Chamoson"},"district":{"key":"2302","name":"District de Conthey"},"canton":{"key":"23","code":"VS","name":"Valais / Wallis"},"status":"Real"},{"key":"10208823","name":"Chemin du Neya","postalCode":"1955","locality":"Chamoson","commune":{"key":"6022","name":"Chamoson","shortName":"Chamoson"},"district":{"key":"2302","name":"District de Conthey"},"canton":{"key":"23","code":"VS","name":"Valais / Wallis"},"status":"Real"},{"key":"10171125","name":"Chemin du Poteu","postalCode":"1955","locality":"Grugnay (Chamoson)","commune":{"key":"6022","name":"Chamoson","shortName":"Chamoson"},"district":{"key":"2302","name":"District de Conthey"},"canton":{"key":"23","code":"VS","name":"Valais / Wallis"},"status":"Real"},{"key":"10223914","name":"Chemin du Pro du Tsâne","postalCode":"1955","locality":"Némiaz (Chamoson)","commune":{"key":"6022","name":"Chamoson","shortName":"Chamoson"},"district":{"key":"2302","name":"District de Conthey"},"canton":{"key":"23","code":"VS","name":"Valais / Wallis"},"status":"Real"},{"key":"10237415","name":"Chemin du Toccan","postalCode":"1955","locality":"Chamoson","commune":{"key":"6022","name":"Chamoson","shortName":"Chamoson"},"district":{"key":"2302","name":"District de Conthey"},"canton":{"key":"23","code":"VS","name":"Valais / Wallis"},"status":"Real"},{"key":"10237415","name":"Chemin du Toccan","postalCode":"1955","locality":"Némiaz (Chamoson)","commune":{"key":"6022","name":"Chamoson","shortName":"Chamoson"},"district":{"key":"2302","name":"District de Conthey"},"canton":{"key":"23","code":"VS","name":"Valais / Wallis"},"status":"Real"},{"key":"10042919","name":"Chemin du Tsanet","postalCode":"1955","locality":"Les Vérines (Chamoson)","commune":{"key":"6022","name":"Chamoson","shortName":"Chamoson"},"district":{"key":"2302","name":"District de Conthey"},"canton":{"key":"23","code":"VS","name":"Valais / Wallis"},"status":"Real"},{"key":"10223925","name":"Chemin du Verger du Creux","postalCode":"1955","locality":"Chamoson","commune":{"key":"6022","name":"Chamoson","shortName":"Chamoson"},"district":{"key":"2302","name":"District de Conthey"},"canton":{"key":"23","code":"VS","name":"Valais / Wallis"},"status":"Real"},{"key":"10116368","name":"Chemin Neuf","postalCode":"1955","locality":"Chamoson","commune":{"key":"6022","name":"Chamoson","shortName":"Chamoson"},"district":{"key":"2302","name":"District de Conthey"},"canton":{"key":"23","code":"VS","name":"Valais / Wallis"},"status":"Real"},{"key":"10145322","name":"Chemin Proz chez Boz","postalCode":"1955","locality":"Chamoson","commune":{"key":"6022","name":"Chamoson","shortName":"Chamoson"},"district":{"key":"2302","name":"District de Conthey"},"canton":{"key":"23","code":"VS","name":"Valais / Wallis"},"status":"Real"},{"key":"10092482","name":"Impasse de Ravoire","postalCode":"1955","locality":"Mayens-de-Chamoson","commune":{"key":"6022","name":"Chamoson","shortName":"Chamoson"},"district":{"key":"2302","name":"District de Conthey"},"canton":{"key":"23","code":"VS","name":"Valais / Wallis"},"status":"Real"},{"key":"10223904","name":"Impasse des Chênes","postalCode":"1955","locality":"Chamoson","commune":{"key":"6022","name":"Chamoson","shortName":"Chamoson"},"district":{"key":"2302","name":"District de Conthey"},"canton":{"key":"23","code":"VS","name":"Valais / Wallis"},"status":"Real"},{"key":"10237427","name":"Impasse du Chevreuil","postalCode":"1955","locality":"Mayens-de-Chamoson","commune":{"key":"6022","name":"Chamoson","shortName":"Chamoson"},"district":{"key":"2302","name":"District de Conthey"},"canton":{"key":"23","code":"VS","name":"Valais / Wallis"},"status":"Real"},{"key":"10204993","name":"Impasse du Lion d'Or","postalCode":"1955","locality":"Grugnay (Chamoson)","commune":{"key":"6022","name":"Chamoson","shortName":"Chamoson"},"district":{"key":"2302","name":"District de Conthey"},"canton":{"key":"23","code":"VS","name":"Valais / Wallis"},"status":"Real"},{"key":"10042920","name":"Impasse Pré-du-Mayen","postalCode":"1955","locality":"Les Vérines (Chamoson)","commune":{"key":"6022","name":"Chamoson","shortName":"Chamoson"},"district":{"key":"2302","name":"District de Conthey"},"canton":{"key":"23","code":"VS","name":"Valais / Wallis"},"status":"Real"},{"key":"10173122","name":"Place du Commander","postalCode":"1955","locality":"Chamoson","commune":{"key":"6022","name":"Chamoson","shortName":"Chamoson"},"district":{"key":"2302","name":"District de Conthey"},"canton":{"key":"23","code":"VS","name":"Valais / Wallis"},"status":"Real"},{"key":"10237431","name":"Place du Replan","postalCode":"1955","locality":"Chamoson","commune":{"key":"6022","name":"Chamoson","shortName":"Chamoson"},"district":{"key":"2302","name":"District de Conthey"},"canton":{"key":"23","code":"VS","name":"Valais / Wallis"},"status":"Real"},{"key":"10181612","name":"Pont Crittin","postalCode":"1955","locality":"Grugnay (Chamoson)","commune":{"key":"6022","name":"Chamoson","shortName":"Chamoson"},"district":{"key":"2302","name":"District de Conthey"},"canton":{"key":"23","code":"VS","name":"Valais / Wallis"},"status":"Real"},{"key":"10056450","name":"Route de Bessoni","postalCode":"1955","locality":"Chamoson","commune":{"key":"6022","name":"Chamoson","shortName":"Chamoson"},"district":{"key":"2302","name":"District de Conthey"},"canton":{"key":"23","code":"VS","name":"Valais / Wallis"},"status":"Real"},{"key":"10237442","name":"Route de Chamosentse","postalCode":"1955","locality":"Mayens-de-Chamoson","commune":{"key":"6022","name":"Chamoson","shortName":"Chamoson"},"district":{"key":"2302","name":"District de Conthey"},"canton":{"key":"23","code":"VS","name":"Valais / Wallis"},"status":"Real"},{"key":"10082652","name":"Route de Champlan","postalCode":"1955","locality":"Chamoson","commune":{"key":"6022","name":"Chamoson","shortName":"Chamoson"},"district":{"key":"2302","name":"District de Conthey"},"canton":{"key":"23","code":"VS","name":"Valais / Wallis"},"status":"Real"},{"key":"10042923","name":"Route de Champ Vidonde","postalCode":"1955","locality":"Les Vérines (Chamoson)","commune":{"key":"6022","name":"Chamoson","shortName":"Chamoson"},"district":{"key":"2302","name":"District de Conthey"},"canton":{"key":"23","code":"VS","name":"Valais / Wallis"},"status":"Real"},{"key":"10042924","name":"Route de Châtelard","postalCode":"1955","locality":"Chamoson","commune":{"key":"6022","name":"Chamoson","shortName":"Chamoson"},"district":{"key":"2302","name":"District de Conthey"},"canton":{"key":"23","code":"VS","name":"Valais / Wallis"},"status":"Real"},{"key":"10092484","name":"Route de Creux de Li","postalCode":"1955","locality":"Mayens-de-Chamoson","commune":{"key":"6022","name":"Chamoson","shortName":"Chamoson"},"district":{"key":"2302","name":"District de Conthey"},"canton":{"key":"23","code":"VS","name":"Valais / Wallis"},"status":"Real"},{"key":"10042925","name":"Route de Djuet","postalCode":"1955","locality":"Mayens-de-Chamoson","commune":{"key":"6022","name":"Chamoson","shortName":"Chamoson"},"district":{"key":"2302","name":"District de Conthey"},"canton":{"key":"23","code":"VS","name":"Valais / Wallis"},"status":"Real"},{"key":"10237450","name":"Route de Farère","postalCode":"1955","locality":"Les Vérines (Chamoson)","commune":{"key":"6022","name":"Chamoson","shortName":"Chamoson"},"district":{"key":"2302","name":"District de Conthey"},"canton":{"key":"23","code":"VS","name":"Valais / Wallis"},"status":"Real"},{"key":"10237454","name":"Route de Gru","postalCode":"1955","locality":"Chamoson","commune":{"key":"6022","name":"Chamoson","shortName":"Chamoson"},"district":{"key":"2302","name":"District de Conthey"},"canton":{"key":"23","code":"VS","name":"Valais / Wallis"},"status":"Real"},{"key":"10042928","name":"Route de la Crettaz","postalCode":"1955","locality":"Chamoson","commune":{"key":"6022","name":"Chamoson","shortName":"Chamoson"},"district":{"key":"2302","name":"District de Conthey"},"canton":{"key":"23","code":"VS","name":"Valais / Wallis"},"status":"Real"},{"key":"10042929","name":"Route de la Lacha","postalCode":"1955","locality":"Mayens-de-Chamoson","commune":{"key":"6022","name":"Chamoson","shortName":"Chamoson"},"district":{"key":"2302","name":"District de Conthey"},"canton":{"key":"23","code":"VS","name":"Valais / Wallis"},"status":"Real"},{"key":"10092487","name":"Route de la Laiterie","postalCode":"1955","locality":"Mayens-de-Chamoson","commune":{"key":"6022","name":"Chamoson","shortName":"Chamoson"},"district":{"key":"2302","name":"District de Conthey"},"canton":{"key":"23","code":"VS","name":"Valais / Wallis"},"status":"Real"},{"key":"10042930","name":"Route de la Rameau","postalCode":"1955","locality":"Chamoson","commune":{"key":"6022","name":"Chamoson","shortName":"Chamoson"},"district":{"key":"2302","name":"District de Conthey"},"canton":{"key":"23","code":"VS","name":"Valais / Wallis"},"status":"Real"},{"key":"10092486","name":"Route de l'Arbarie","postalCode":"1955","locality":"Les Vérines (Chamoson)","commune":{"key":"6022","name":"Chamoson","shortName":"Chamoson"},"district":{"key":"2302","name":"District de Conthey"},"canton":{"key":"23","code":"VS","name":"Valais / Wallis"},"status":"Real"},{"key":"10082654","name":"Route de l'Ardève","postalCode":"1955","locality":"Chamoson","commune":{"key":"6022","name":"Chamoson","shortName":"Chamoson"},"district":{"key":"2302","name":"District de Conthey"},"canton":{"key":"23","code":"VS","name":"Valais / Wallis"},"status":"Real"},{"key":"10237462","name":"Route de La Tsoume","postalCode":"1955","locality":"Chamoson","commune":{"key":"6022","name":"Chamoson","shortName":"Chamoson"},"district":{"key":"2302","name":"District de Conthey"},"canton":{"key":"23","code":"VS","name":"Valais / Wallis"},"status":"Real"},{"key":"10108629","name":"Route de l'Etang","postalCode":"1955","locality":"Némiaz (Chamoson)","commune":{"key":"6022","name":"Chamoson","shortName":"Chamoson"},"district":{"key":"2302","name":"District de Conthey"},"canton":{"key":"23","code":"VS","name":"Valais / Wallis"},"status":"Real"},{"key":"10223915","name":"Route de Loutze","postalCode":"1955","locality":"Mayens-de-Chamoson","commune":{"key":"6022","name":"Chamoson","shortName":"Chamoson"},"district":{"key":"2302","name":"District de Conthey"},"canton":{"key":"23","code":"VS","name":"Valais / Wallis"},"status":"Real"},{"key":"10042926","name":"Route de Némiaz","postalCode":"1955","locality":"Chamoson","commune":{"key":"6022","name":"Chamoson","shortName":"Chamoson"},"district":{"key":"2302","name":"District de Conthey"},"canton":{"key":"23","code":"VS","name":"Valais / Wallis"},"status":"Real"},{"key":"10082653","name":"Route de Patiers","postalCode":"1955","locality":"Mayens-de-Chamoson","commune":{"key":"6022","name":"Chamoson","shortName":"Chamoson"},"district":{"key":"2302","name":"District de Conthey"},"canton":{"key":"23","code":"VS","name":"Valais / Wallis"},"status":"Real"},{"key":"10092485","name":"Route de Prili","postalCode":"1955","locality":"Mayens-de-Chamoson","commune":{"key":"6022","name":"Chamoson","shortName":"Chamoson"},"district":{"key":"2302","name":"District de Conthey"},"canton":{"key":"23","code":"VS","name":"Valais / Wallis"},"status":"Real"},{"key":"10042927","name":"Route de Prillaz","postalCode":"1955","locality":"Chamoson","commune":{"key":"6022","name":"Chamoson","shortName":"Chamoson"},"district":{"key":"2302","name":"District de Conthey"},"canton":{"key":"23","code":"VS","name":"Valais / Wallis"},"status":"Real"},{"key":"10223922","name":"Route des Mayens","postalCode":"1955","locality":"Mayens-de-Chamoson","commune":{"key":"6022","name":"Chamoson","shortName":"Chamoson"},"district":{"key":"2302","name":"District de Conthey"},"canton":{"key":"23","code":"VS","name":"Valais / Wallis"},"status":"Real"},{"key":"10042931","name":"Route des Moulins","postalCode":"1955","locality":"Chamoson","commune":{"key":"6022","name":"Chamoson","shortName":"Chamoson"},"district":{"key":"2302","name":"District de Conthey"},"canton":{"key":"23","code":"VS","name":"Valais / Wallis"},"status":"Real"},{"key":"10223928","name":"Route des Vins","postalCode":"1955","locality":"Chamoson","commune":{"key":"6022","name":"Chamoson","shortName":"Chamoson"},"district":{"key":"2302","name":"District de Conthey"},"canton":{"key":"23","code":"VS","name":"Valais / Wallis"},"status":"Real"},{"key":"10189339","name":"Route de Trémazières","postalCode":"1955","locality":"Chamoson","commune":{"key":"6022","name":"Chamoson","shortName":"Chamoson"},"district":{"key":"2302","name":"District de Conthey"},"canton":{"key":"23","code":"VS","name":"Valais / Wallis"},"status":"Real"},{"key":"10181613","name":"Route de Tsavez","postalCode":"1955","locality":"Chamoson","commune":{"key":"6022","name":"Chamoson","shortName":"Chamoson"},"district":{"key":"2302","name":"District de Conthey"},"canton":{"key":"23","code":"VS","name":"Valais / Wallis"},"status":"Real"},{"key":"10223927","name":"Route de Vayeplane","postalCode":"1955","locality":"Chamoson","commune":{"key":"6022","name":"Chamoson","shortName":"Chamoson"},"district":{"key":"2302","name":"District de Conthey"},"canton":{"key":"23","code":"VS","name":"Valais / Wallis"},"status":"Real"},{"key":"10092488","name":"Route du Peuplier","postalCode":"1955","locality":"Mayens-de-Chamoson","commune":{"key":"6022","name":"Chamoson","shortName":"Chamoson"},"district":{"key":"2302","name":"District de Conthey"},"canton":{"key":"23","code":"VS","name":"Valais / Wallis"},"status":"Real"},{"key":"10236854","name":"Route du Tennis","postalCode":"1955","locality":"Chamoson","commune":{"key":"6022","name":"Chamoson","shortName":"Chamoson"},"district":{"key":"2302","name":"District de Conthey"},"canton":{"key":"23","code":"VS","name":"Valais / Wallis"},"status":"Real"},{"key":"10092483","name":"Route Grange à Léonard","postalCode":"1955","locality":"Némiaz (Chamoson)","commune":{"key":"6022","name":"Chamoson","shortName":"Chamoson"},"district":{"key":"2302","name":"District de Conthey"},"canton":{"key":"23","code":"VS","name":"Valais / Wallis"},"status":"Real"},{"key":"10042932","name":"Rue Centrale","postalCode":"1955","locality":"Chamoson","commune":{"key":"6022","name":"Chamoson","shortName":"Chamoson"},"district":{"key":"2302","name":"District de Conthey"},"canton":{"key":"23","code":"VS","name":"Valais / Wallis"},"status":"Real"},{"key":"10042933","name":"Rue Chez Moren","postalCode":"1955","locality":"Grugnay (Chamoson)","commune":{"key":"6022","name":"Chamoson","shortName":"Chamoson"},"district":{"key":"2302","name":"District de Conthey"},"canton":{"key":"23","code":"VS","name":"Valais / Wallis"},"status":"Real"},{"key":"10042934","name":"Rue Chez Pottier","postalCode":"1955","locality":"Chamoson","commune":{"key":"6022","name":"Chamoson","shortName":"Chamoson"},"district":{"key":"2302","name":"District de Conthey"},"canton":{"key":"23","code":"VS","name":"Valais / Wallis"},"status":"Real"},{"key":"10115423","name":"Rue de Fosseau","postalCode":"1955","locality":"Chamoson","commune":{"key":"6022","name":"Chamoson","shortName":"Chamoson"},"district":{"key":"2302","name":"District de Conthey"},"canton":{"key":"23","code":"VS","name":"Valais / Wallis"},"status":"Real"},{"key":"10041226","name":"Rue de la Fontaine","postalCode":"1955","locality":"Chamoson","commune":{"key":"6022","name":"Chamoson","shortName":"Chamoson"},"district":{"key":"2302","name":"District de Conthey"},"canton":{"key":"23","code":"VS","name":"Valais / Wallis"},"status":"Real"},{"key":"10056445","name":"Rue de la Losentze","postalCode":"1955","locality":"Chamoson","commune":{"key":"6022","name":"Chamoson","shortName":"Chamoson"},"district":{"key":"2302","name":"District de Conthey"},"canton":{"key":"23","code":"VS","name":"Valais / Wallis"},"status":"Real"},{"key":"10092490","name":"Rue de la Palud","postalCode":"1955","locality":"Chamoson","commune":{"key":"6022","name":"Chamoson","shortName":"Chamoson"},"district":{"key":"2302","name":"District de Conthey"},"canton":{"key":"23","code":"VS","name":"Valais / Wallis"},"status":"Real"},{"key":"10041227","name":"Rue de la Place","postalCode":"1955","locality":"Chamoson","commune":{"key":"6022","name":"Chamoson","shortName":"Chamoson"},"district":{"key":"2302","name":"District de Conthey"},"canton":{"key":"23","code":"VS","name":"Valais / Wallis"},"status":"Real"},{"key":"10189338","name":"Rue de Latigny","postalCode":"1955","locality":"Chamoson","commune":{"key":"6022","name":"Chamoson","shortName":"Chamoson"},"district":{"key":"2302","name":"District de Conthey"},"canton":{"key":"23","code":"VS","name":"Valais / Wallis"},"status":"Real"},{"key":"10041228","name":"Rue de la Tour","postalCode":"1955","locality":"Chamoson","commune":{"key":"6022","name":"Chamoson","shortName":"Chamoson"},"district":{"key":"2302","name":"District de Conthey"},"canton":{"key":"23","code":"VS","name":"Valais / Wallis"},"status":"Real"},{"key":"10082656","name":"Rue de Plane-Ville","postalCode":"1955","locality":"Chamoson","commune":{"key":"6022","name":"Chamoson","shortName":"Chamoson"},"district":{"key":"2302","name":"District de Conthey"},"canton":{"key":"23","code":"VS","name":"Valais / Wallis"},"status":"Real"},{"key":"10116369","name":"Rue de Pommey","postalCode":"1955","locality":"Chamoson","commune":{"key":"6022","name":"Chamoson","shortName":"Chamoson"},"district":{"key":"2302","name":"District de Conthey"},"canton":{"key":"23","code":"VS","name":"Valais / Wallis"},"status":"Real"},{"key":"10106437","name":"Rue des Plantys","postalCode":"1955","locality":"Chamoson","commune":{"key":"6022","name":"Chamoson","shortName":"Chamoson"},"district":{"key":"2302","name":"District de Conthey"},"canton":{"key":"23","code":"VS","name":"Valais / Wallis"},"status":"Real"},{"key":"10041229","name":"Rue du Nasot","postalCode":"1955","locality":"Chamoson","commune":{"key":"6022","name":"Chamoson","shortName":"Chamoson"},"district":{"key":"2302","name":"District de Conthey"},"canton":{"key":"23","code":"VS","name":"Valais / Wallis"},"status":"Real"},{"key":"10056444","name":"Rue Illiarey","postalCode":"1955","locality":"Chamoson","commune":{"key":"6022","name":"Chamoson","shortName":"Chamoson"},"district":{"key":"2302","name":"District de Conthey"},"canton":{"key":"23","code":"VS","name":"Valais / Wallis"},"status":"Real"},{"key":"10092491","name":"Ruelle de Charve","postalCode":"1955","locality":"Némiaz (Chamoson)","commune":{"key":"6022","name":"Chamoson","shortName":"Chamoson"},"district":{"key":"2302","name":"District de Conthey"},"canton":{"key":"23","code":"VS","name":"Valais / Wallis"},"status":"Real"},{"key":"10056446","name":"Ruelle de Feleppe","postalCode":"1955","locality":"Les Vérines (Chamoson)","commune":{"key":"6022","name":"Chamoson","shortName":"Chamoson"},"district":{"key":"2302","name":"District de Conthey"},"canton":{"key":"23","code":"VS","name":"Valais / Wallis"},"status":"Real"},{"key":"10181615","name":"Ruelle de la Colline","postalCode":"1955","locality":"Les Vérines (Chamoson)","commune":{"key":"6022","name":"Chamoson","shortName":"Chamoson"},"district":{"key":"2302","name":"District de Conthey"},"canton":{"key":"23","code":"VS","name":"Valais / Wallis"},"status":"Real"},{"key":"10056448","name":"Ruelle de la Floronde","postalCode":"1955","locality":"Némiaz (Chamoson)","commune":{"key":"6022","name":"Chamoson","shortName":"Chamoson"},"district":{"key":"2302","name":"District de Conthey"},"canton":{"key":"23","code":"VS","name":"Valais / Wallis"},"status":"Real"},{"key":"10236858","name":"Sentier de Champ Michaud","postalCode":"1955","locality":"Chamoson","commune":{"key":"6022","name":"Chamoson","shortName":"Chamoson"},"district":{"key":"2302","name":"District de Conthey"},"canton":{"key":"23","code":"VS","name":"Valais / Wallis"},"status":"Real"},{"key":"10223929","name":"Sentier de Comendru","postalCode":"1955","locality":"Les Vérines (Chamoson)","commune":{"key":"6022","name":"Chamoson","shortName":"Chamoson"},"district":{"key":"2302","name":"District de Conthey"},"canton":{"key":"23","code":"VS","name":"Valais / Wallis"},"status":"Real"},{"key":"10236862","name":"Sentier de Jeanbasse","postalCode":"1955","locality":"Chamoson","commune":{"key":"6022","name":"Chamoson","shortName":"Chamoson"},"district":{"key":"2302","name":"District de Conthey"},"canton":{"key":"23","code":"VS","name":"Valais / Wallis"},"status":"Real"},{"key":"10236866","name":"Sentier de la Cabane Rambert","postalCode":"1955","locality":"Mayens-de-Chamoson","commune":{"key":"6022","name":"Chamoson","shortName":"Chamoson"},"district":{"key":"2302","name":"District de Conthey"},"canton":{"key":"23","code":"VS","name":"Valais / Wallis"},"status":"Real"},{"key":"10236870","name":"Sentier de la Tire","postalCode":"1955","locality":"Grugnay (Chamoson)","commune":{"key":"6022","name":"Chamoson","shortName":"Chamoson"},"district":{"key":"2302","name":"District de Conthey"},"canton":{"key":"23","code":"VS","name":"Valais / Wallis"},"status":"Real"},{"key":"10236870","name":"Sentier de la Tire","postalCode":"1955","locality":"Némiaz (Chamoson)","commune":{"key":"6022","name":"Chamoson","shortName":"Chamoson"},"district":{"key":"2302","name":"District de Conthey"},"canton":{"key":"23","code":"VS","name":"Valais / Wallis"},"status":"Real"},{"key":"10116303","name":"Sentier des Amoureux","postalCode":"1955","locality":"Grugnay (Chamoson)","commune":{"key":"6022","name":"Chamoson","shortName":"Chamoson"},"district":{"key":"2302","name":"District de Conthey"},"canton":{"key":"23","code":"VS","name":"Valais / Wallis"},"status":"Real"},{"key":"10092493","name":"Sentier des Clèves","postalCode":"1955","locality":"Chamoson","commune":{"key":"6022","name":"Chamoson","shortName":"Chamoson"},"district":{"key":"2302","name":"District de Conthey"},"canton":{"key":"23","code":"VS","name":"Valais / Wallis"},"status":"Real"},{"key":"10254346","name":"Sentier du Laget","postalCode":"1955","locality":"Chamoson","commune":{"key":"6022","name":"Chamoson","shortName":"Chamoson"},"district":{"key":"2302","name":"District de Conthey"},"canton":{"key":"23","code":"VS","name":"Valais / Wallis"},"status":"Real"},{"key":"10082660","name":"Tiers de Mart","postalCode":"1955","locality":"Chamoson","commune":{"key":"6022","name":"Chamoson","shortName":"Chamoson"},"district":{"key":"2302","name":"District de Conthey"},"canton":{"key":"23","code":"VS","name":"Valais / Wallis"},"status":"Real"},]