[{"name":"Almenweg","postalCode":"64756","locality":"Mossautal","municipality":{"key":"06437012","name":"Mossautal","type":"Kreisangehörige_Gemeinde"},"district":{"key":"06437","name":"Odenwaldkreis","type":"Landkreis"},"federalState":{"key":"06","name":"Hessen"}},{"name":"Alter Weg","postalCode":"64756","locality":"Mossautal","municipality":{"key":"06437012","name":"Mossautal","type":"Kreisangehörige_Gemeinde"},"district":{"key":"06437","name":"Odenwaldkreis","type":"Landkreis"},"federalState":{"key":"06","name":"Hessen"}},{"name":"Am Bach","postalCode":"64756","locality":"Mossautal","municipality":{"key":"06437012","name":"Mossautal","type":"Kreisangehörige_Gemeinde"},"district":{"key":"06437","name":"Odenwaldkreis","type":"Landkreis"},"federalState":{"key":"06","name":"Hessen"}},{"name":"Am Böhlacker","postalCode":"64756","locality":"Mossautal","municipality":{"key":"06437012","name":"Mossautal","type":"Kreisangehörige_Gemeinde"},"district":{"key":"06437","name":"Odenwaldkreis","type":"Landkreis"},"federalState":{"key":"06","name":"Hessen"}},{"name":"Am Dachsberg","postalCode":"64756","locality":"Mossautal","municipality":{"key":"06437012","name":"Mossautal","type":"Kreisangehörige_Gemeinde"},"district":{"key":"06437","name":"Odenwaldkreis","type":"Landkreis"},"federalState":{"key":"06","name":"Hessen"}},{"name":"Am Helmsberg","postalCode":"64756","locality":"Mossautal","municipality":{"key":"06437012","name":"Mossautal","type":"Kreisangehörige_Gemeinde"},"district":{"key":"06437","name":"Odenwaldkreis","type":"Landkreis"},"federalState":{"key":"06","name":"Hessen"}},{"name":"Am Hertelsberg","postalCode":"64756","locality":"Mossautal","municipality":{"key":"06437012","name":"Mossautal","type":"Kreisangehörige_Gemeinde"},"district":{"key":"06437","name":"Odenwaldkreis","type":"Landkreis"},"federalState":{"key":"06","name":"Hessen"}},{"name":"Am Hopfengarten","postalCode":"64756","locality":"Mossautal","municipality":{"key":"06437012","name":"Mossautal","type":"Kreisangehörige_Gemeinde"},"district":{"key":"06437","name":"Odenwaldkreis","type":"Landkreis"},"federalState":{"key":"06","name":"Hessen"}},{"name":"Am Kirchberg","postalCode":"64756","locality":"Mossautal","municipality":{"key":"06437012","name":"Mossautal","type":"Kreisangehörige_Gemeinde"},"district":{"key":"06437","name":"Odenwaldkreis","type":"Landkreis"},"federalState":{"key":"06","name":"Hessen"}},{"name":"Am Kirchweg","postalCode":"64756","locality":"Mossautal","municipality":{"key":"06437012","name":"Mossautal","type":"Kreisangehörige_Gemeinde"},"district":{"key":"06437","name":"Odenwaldkreis","type":"Landkreis"},"federalState":{"key":"06","name":"Hessen"}},{"name":"Am Märzbrunnen","postalCode":"64756","locality":"Mossautal","municipality":{"key":"06437012","name":"Mossautal","type":"Kreisangehörige_Gemeinde"},"district":{"key":"06437","name":"Odenwaldkreis","type":"Landkreis"},"federalState":{"key":"06","name":"Hessen"}},{"name":"Am Mühlberg","postalCode":"64756","locality":"Mossautal","municipality":{"key":"06437012","name":"Mossautal","type":"Kreisangehörige_Gemeinde"},"district":{"key":"06437","name":"Odenwaldkreis","type":"Landkreis"},"federalState":{"key":"06","name":"Hessen"}},{"name":"Am Rehholz","postalCode":"64756","locality":"Mossautal","municipality":{"key":"06437012","name":"Mossautal","type":"Kreisangehörige_Gemeinde"},"district":{"key":"06437","name":"Odenwaldkreis","type":"Landkreis"},"federalState":{"key":"06","name":"Hessen"}},{"name":"Am Ritschrain","postalCode":"64756","locality":"Mossautal","municipality":{"key":"06437012","name":"Mossautal","type":"Kreisangehörige_Gemeinde"},"district":{"key":"06437","name":"Odenwaldkreis","type":"Landkreis"},"federalState":{"key":"06","name":"Hessen"}},{"name":"Am Vogelherd","postalCode":"64756","locality":"Mossautal","municipality":{"key":"06437012","name":"Mossautal","type":"Kreisangehörige_Gemeinde"},"district":{"key":"06437","name":"Odenwaldkreis","type":"Landkreis"},"federalState":{"key":"06","name":"Hessen"}},{"name":"An der Halle","postalCode":"64756","locality":"Mossautal","municipality":{"key":"06437012","name":"Mossautal","type":"Kreisangehörige_Gemeinde"},"district":{"key":"06437","name":"Odenwaldkreis","type":"Landkreis"},"federalState":{"key":"06","name":"Hessen"}},{"name":"Außerhalb","postalCode":"64756","locality":"Mossautal","municipality":{"key":"06437012","name":"Mossautal","type":"Kreisangehörige_Gemeinde"},"district":{"key":"06437","name":"Odenwaldkreis","type":"Landkreis"},"federalState":{"key":"06","name":"Hessen"}},{"name":"Birkenrain","postalCode":"64756","locality":"Mossautal","municipality":{"key":"06437012","name":"Mossautal","type":"Kreisangehörige_Gemeinde"},"district":{"key":"06437","name":"Odenwaldkreis","type":"Landkreis"},"federalState":{"key":"06","name":"Hessen"}},{"name":"Eichenweg","postalCode":"64756","locality":"Mossautal","municipality":{"key":"06437012","name":"Mossautal","type":"Kreisangehörige_Gemeinde"},"district":{"key":"06437","name":"Odenwaldkreis","type":"Landkreis"},"federalState":{"key":"06","name":"Hessen"}},{"name":"Elsbacher Weg","postalCode":"64756","locality":"Mossautal","municipality":{"key":"06437012","name":"Mossautal","type":"Kreisangehörige_Gemeinde"},"district":{"key":"06437","name":"Odenwaldkreis","type":"Landkreis"},"federalState":{"key":"06","name":"Hessen"}},{"name":"Erbacher Str.","postalCode":"64756","locality":"Mossautal","municipality":{"key":"06437012","name":"Mossautal","type":"Kreisangehörige_Gemeinde"},"district":{"key":"06437","name":"Odenwaldkreis","type":"Landkreis"},"federalState":{"key":"06","name":"Hessen"}},{"name":"Fürther Str.","postalCode":"64756","locality":"Mossautal","municipality":{"key":"06437012","name":"Mossautal","type":"Kreisangehörige_Gemeinde"},"district":{"key":"06437","name":"Odenwaldkreis","type":"Landkreis"},"federalState":{"key":"06","name":"Hessen"}},{"name":"G 2","postalCode":"64756","locality":"Mossautal","municipality":{"key":"06437012","name":"Mossautal","type":"Kreisangehörige_Gemeinde"},"district":{"key":"06437","name":"Odenwaldkreis","type":"Landkreis"},"federalState":{"key":"06","name":"Hessen"}},{"name":"Gallusweg","postalCode":"64756","locality":"Mossautal","municipality":{"key":"06437012","name":"Mossautal","type":"Kreisangehörige_Gemeinde"},"district":{"key":"06437","name":"Odenwaldkreis","type":"Landkreis"},"federalState":{"key":"06","name":"Hessen"}},{"name":"Geisbergweg","postalCode":"64756","locality":"Mossautal","municipality":{"key":"06437012","name":"Mossautal","type":"Kreisangehörige_Gemeinde"},"district":{"key":"06437","name":"Odenwaldkreis","type":"Landkreis"},"federalState":{"key":"06","name":"Hessen"}},{"name":"Grasellenbacher Weg","postalCode":"64756","locality":"Mossautal","municipality":{"key":"06437012","name":"Mossautal","type":"Kreisangehörige_Gemeinde"},"district":{"key":"06437","name":"Odenwaldkreis","type":"Landkreis"},"federalState":{"key":"06","name":"Hessen"}},{"name":"Grottenlochweg","postalCode":"64756","locality":"Mossautal","municipality":{"key":"06437012","name":"Mossautal","type":"Kreisangehörige_Gemeinde"},"district":{"key":"06437","name":"Odenwaldkreis","type":"Landkreis"},"federalState":{"key":"06","name":"Hessen"}},{"name":"Güttersbacher Str.","postalCode":"64756","locality":"Mossautal","municipality":{"key":"06437012","name":"Mossautal","type":"Kreisangehörige_Gemeinde"},"district":{"key":"06437","name":"Odenwaldkreis","type":"Landkreis"},"federalState":{"key":"06","name":"Hessen"}},{"name":"Hardtstr.","postalCode":"64756","locality":"Mossautal","municipality":{"key":"06437012","name":"Mossautal","type":"Kreisangehörige_Gemeinde"},"district":{"key":"06437","name":"Odenwaldkreis","type":"Landkreis"},"federalState":{"key":"06","name":"Hessen"}},{"name":"Hauptstr.","postalCode":"64756","locality":"Mossautal","municipality":{"key":"06437012","name":"Mossautal","type":"Kreisangehörige_Gemeinde"},"district":{"key":"06437","name":"Odenwaldkreis","type":"Landkreis"},"federalState":{"key":"06","name":"Hessen"}},{"name":"Hiltersklinger Weg","postalCode":"64756","locality":"Mossautal","municipality":{"key":"06437012","name":"Mossautal","type":"Kreisangehörige_Gemeinde"},"district":{"key":"06437","name":"Odenwaldkreis","type":"Landkreis"},"federalState":{"key":"06","name":"Hessen"}},{"name":"Hohe Str.","postalCode":"64756","locality":"Mossautal","municipality":{"key":"06437012","name":"Mossautal","type":"Kreisangehörige_Gemeinde"},"district":{"key":"06437","name":"Odenwaldkreis","type":"Landkreis"},"federalState":{"key":"06","name":"Hessen"}},{"name":"Hüttenthaler Str.","postalCode":"64756","locality":"Mossautal","municipality":{"key":"06437012","name":"Mossautal","type":"Kreisangehörige_Gemeinde"},"district":{"key":"06437","name":"Odenwaldkreis","type":"Landkreis"},"federalState":{"key":"06","name":"Hessen"}},{"name":"Ihrigstr.","postalCode":"64756","locality":"Mossautal","municipality":{"key":"06437012","name":"Mossautal","type":"Kreisangehörige_Gemeinde"},"district":{"key":"06437","name":"Odenwaldkreis","type":"Landkreis"},"federalState":{"key":"06","name":"Hessen"}},{"name":"In der großen Harras","postalCode":"64756","locality":"Mossautal","municipality":{"key":"06437012","name":"Mossautal","type":"Kreisangehörige_Gemeinde"},"district":{"key":"06437","name":"Odenwaldkreis","type":"Landkreis"},"federalState":{"key":"06","name":"Hessen"}},{"name":"In der kleinen Harras","postalCode":"64756","locality":"Mossautal","municipality":{"key":"06437012","name":"Mossautal","type":"Kreisangehörige_Gemeinde"},"district":{"key":"06437","name":"Odenwaldkreis","type":"Landkreis"},"federalState":{"key":"06","name":"Hessen"}},{"name":"In der Klinge","postalCode":"64756","locality":"Mossautal","municipality":{"key":"06437012","name":"Mossautal","type":"Kreisangehörige_Gemeinde"},"district":{"key":"06437","name":"Odenwaldkreis","type":"Landkreis"},"federalState":{"key":"06","name":"Hessen"}},{"name":"Kirchstr.","postalCode":"64756","locality":"Mossautal","municipality":{"key":"06437012","name":"Mossautal","type":"Kreisangehörige_Gemeinde"},"district":{"key":"06437","name":"Odenwaldkreis","type":"Landkreis"},"federalState":{"key":"06","name":"Hessen"}},{"name":"Kriemhildenstr.","postalCode":"64756","locality":"Mossautal","municipality":{"key":"06437012","name":"Mossautal","type":"Kreisangehörige_Gemeinde"},"district":{"key":"06437","name":"Odenwaldkreis","type":"Landkreis"},"federalState":{"key":"06","name":"Hessen"}},{"name":"Krottenlochweg","postalCode":"64756","locality":"Mossautal","municipality":{"key":"06437012","name":"Mossautal","type":"Kreisangehörige_Gemeinde"},"district":{"key":"06437","name":"Odenwaldkreis","type":"Landkreis"},"federalState":{"key":"06","name":"Hessen"}},{"name":"Lindelstr.","postalCode":"64756","locality":"Mossautal","municipality":{"key":"06437012","name":"Mossautal","type":"Kreisangehörige_Gemeinde"},"district":{"key":"06437","name":"Odenwaldkreis","type":"Landkreis"},"federalState":{"key":"06","name":"Hessen"}},{"name":"Molkereiweg","postalCode":"64756","locality":"Mossautal","municipality":{"key":"06437012","name":"Mossautal","type":"Kreisangehörige_Gemeinde"},"district":{"key":"06437","name":"Odenwaldkreis","type":"Landkreis"},"federalState":{"key":"06","name":"Hessen"}},{"name":"Mossauer Str.","postalCode":"64756","locality":"Mossautal","municipality":{"key":"06437012","name":"Mossautal","type":"Kreisangehörige_Gemeinde"},"district":{"key":"06437","name":"Odenwaldkreis","type":"Landkreis"},"federalState":{"key":"06","name":"Hessen"}},{"name":"Mösselbachweg","postalCode":"64756","locality":"Mossautal","municipality":{"key":"06437012","name":"Mossautal","type":"Kreisangehörige_Gemeinde"},"district":{"key":"06437","name":"Odenwaldkreis","type":"Landkreis"},"federalState":{"key":"06","name":"Hessen"}},{"name":"Neben der Hohl","postalCode":"64756","locality":"Mossautal","municipality":{"key":"06437012","name":"Mossautal","type":"Kreisangehörige_Gemeinde"},"district":{"key":"06437","name":"Odenwaldkreis","type":"Landkreis"},"federalState":{"key":"06","name":"Hessen"}},{"name":"Neudorf","postalCode":"64756","locality":"Mossautal","municipality":{"key":"06437012","name":"Mossautal","type":"Kreisangehörige_Gemeinde"},"district":{"key":"06437","name":"Odenwaldkreis","type":"Landkreis"},"federalState":{"key":"06","name":"Hessen"}},{"name":"Neuer Weg","postalCode":"64756","locality":"Mossautal","municipality":{"key":"06437012","name":"Mossautal","type":"Kreisangehörige_Gemeinde"},"district":{"key":"06437","name":"Odenwaldkreis","type":"Landkreis"},"federalState":{"key":"06","name":"Hessen"}},{"name":"Obere Siegfriedstr.","postalCode":"64756","locality":"Mossautal","municipality":{"key":"06437012","name":"Mossautal","type":"Kreisangehörige_Gemeinde"},"district":{"key":"06437","name":"Odenwaldkreis","type":"Landkreis"},"federalState":{"key":"06","name":"Hessen"}},{"name":"Ober-Mossauer Str.","postalCode":"64756","locality":"Mossautal","municipality":{"key":"06437012","name":"Mossautal","type":"Kreisangehörige_Gemeinde"},"district":{"key":"06437","name":"Odenwaldkreis","type":"Landkreis"},"federalState":{"key":"06","name":"Hessen"}},{"name":"Ortsstr.","postalCode":"64756","locality":"Mossautal","municipality":{"key":"06437012","name":"Mossautal","type":"Kreisangehörige_Gemeinde"},"district":{"key":"06437","name":"Odenwaldkreis","type":"Landkreis"},"federalState":{"key":"06","name":"Hessen"}},{"name":"Ortsweg","postalCode":"64756","locality":"Mossautal","municipality":{"key":"06437012","name":"Mossautal","type":"Kreisangehörige_Gemeinde"},"district":{"key":"06437","name":"Odenwaldkreis","type":"Landkreis"},"federalState":{"key":"06","name":"Hessen"}},{"name":"Papiermühlenweg","postalCode":"64756","locality":"Mossautal","municipality":{"key":"06437012","name":"Mossautal","type":"Kreisangehörige_Gemeinde"},"district":{"key":"06437","name":"Odenwaldkreis","type":"Landkreis"},"federalState":{"key":"06","name":"Hessen"}},{"name":"Papiermüllerweg","postalCode":"64756","locality":"Mossautal","municipality":{"key":"06437012","name":"Mossautal","type":"Kreisangehörige_Gemeinde"},"district":{"key":"06437","name":"Odenwaldkreis","type":"Landkreis"},"federalState":{"key":"06","name":"Hessen"}},{"name":"Ringstr.","postalCode":"64756","locality":"Mossautal","municipality":{"key":"06437012","name":"Mossautal","type":"Kreisangehörige_Gemeinde"},"district":{"key":"06437","name":"Odenwaldkreis","type":"Landkreis"},"federalState":{"key":"06","name":"Hessen"}},{"name":"Rot-Kreuz-Weg","postalCode":"64756","locality":"Mossautal","municipality":{"key":"06437012","name":"Mossautal","type":"Kreisangehörige_Gemeinde"},"district":{"key":"06437","name":"Odenwaldkreis","type":"Landkreis"},"federalState":{"key":"06","name":"Hessen"}},{"name":"Schmelzweg","postalCode":"64756","locality":"Mossautal","municipality":{"key":"06437012","name":"Mossautal","type":"Kreisangehörige_Gemeinde"},"district":{"key":"06437","name":"Odenwaldkreis","type":"Landkreis"},"federalState":{"key":"06","name":"Hessen"}},{"name":"Schmuckers Hohl","postalCode":"64756","locality":"Mossautal","municipality":{"key":"06437012","name":"Mossautal","type":"Kreisangehörige_Gemeinde"},"district":{"key":"06437","name":"Odenwaldkreis","type":"Landkreis"},"federalState":{"key":"06","name":"Hessen"}},{"name":"Schneckenweg","postalCode":"64756","locality":"Mossautal","municipality":{"key":"06437012","name":"Mossautal","type":"Kreisangehörige_Gemeinde"},"district":{"key":"06437","name":"Odenwaldkreis","type":"Landkreis"},"federalState":{"key":"06","name":"Hessen"}},{"name":"Schulstr.","postalCode":"64756","locality":"Mossautal","municipality":{"key":"06437012","name":"Mossautal","type":"Kreisangehörige_Gemeinde"},"district":{"key":"06437","name":"Odenwaldkreis","type":"Landkreis"},"federalState":{"key":"06","name":"Hessen"}},{"name":"Siegfriedstr.","postalCode":"64756","locality":"Mossautal","municipality":{"key":"06437012","name":"Mossautal","type":"Kreisangehörige_Gemeinde"},"district":{"key":"06437","name":"Odenwaldkreis","type":"Landkreis"},"federalState":{"key":"06","name":"Hessen"}},{"name":"Sommerhelle","postalCode":"64756","locality":"Mossautal","municipality":{"key":"06437012","name":"Mossautal","type":"Kreisangehörige_Gemeinde"},"district":{"key":"06437","name":"Odenwaldkreis","type":"Landkreis"},"federalState":{"key":"06","name":"Hessen"}},{"name":"Untere Siegfriedstr.","postalCode":"64756","locality":"Mossautal","municipality":{"key":"06437012","name":"Mossautal","type":"Kreisangehörige_Gemeinde"},"district":{"key":"06437","name":"Odenwaldkreis","type":"Landkreis"},"federalState":{"key":"06","name":"Hessen"}},{"name":"Waldstr.","postalCode":"64756","locality":"Mossautal","municipality":{"key":"06437012","name":"Mossautal","type":"Kreisangehörige_Gemeinde"},"district":{"key":"06437","name":"Odenwaldkreis","type":"Landkreis"},"federalState":{"key":"06","name":"Hessen"}},{"name":"Wiesenstr.","postalCode":"64756","locality":"Mossautal","municipality":{"key":"06437012","name":"Mossautal","type":"Kreisangehörige_Gemeinde"},"district":{"key":"06437","name":"Odenwaldkreis","type":"Landkreis"},"federalState":{"key":"06","name":"Hessen"}},]